<?xml version="1.0" encoding="UTF-8"?>
<osm version="0.6" generator="osmapis">
	<node lat="70.03981944682924" lon="20.974722191471624" id="-43866">
		<tag k="fixme" v="consider natural=peak for the most distinct mountains in the district" />
		<tag k="name" v="Gråtafjellet" />
		<tag k="natural" v="hill" />
		<tag k="place" v="locality" />
		<tag k="ssr:date" v="2019-12-27" />
		<tag k="ssr:gruppe" v="høyder" />
		<tag k="ssr:hovedgruppe" v="terreng" />
		<tag k="ssr:stedsnr" v="230146" />
		<tag k="ssr:type" v="fjell" />
	</node>
	<node lat="70.03723055906994" lon="20.98905553878327" id="-43867">
		<tag k="name" v="Kiiljorda" />
		<tag k="place" v="locality" />
		<tag k="ssr:date" v="2019-12-27" />
		<tag k="ssr:gruppe" v="dyrkamark" />
		<tag k="ssr:hovedgruppe" v="markslag" />
		<tag k="ssr:stedsnr" v="230150" />
		<tag k="ssr:type" v="jorde" />
	</node>
	<node lat="70.13275833248424" lon="20.529502763211852" id="-43868">
		<tag k="name" v="Bjørndalselva" />
		<tag k="ssr:date" v="2019-12-27" />
		<tag k="ssr:gruppe" v="rennendeVann" />
		<tag k="ssr:hovedgruppe" v="ferskvann" />
		<tag k="ssr:stedsnr" v="230160" />
		<tag k="ssr:type" v="bekk" />
		<tag k="waterway" v="stream" />
	</node>
	<node lat="70.02626944938204" lon="20.96946663750125" id="-43869">
		<tag k="name" v="Soltjyven" />
		<tag k="natural" v="hill" />
		<tag k="place" v="locality" />
		<tag k="ssr:date" v="2019-12-27" />
		<tag k="ssr:gruppe" v="høyder" />
		<tag k="ssr:hovedgruppe" v="terreng" />
		<tag k="ssr:stedsnr" v="230168" />
		<tag k="ssr:type" v="berg" />
	</node>
	<node lat="70.03621666890697" lon="20.981077746577995" id="-43870">
		<tag k="name" v="Skjervøyberget" />
		<tag k="natural" v="hill" />
		<tag k="place" v="locality" />
		<tag k="ssr:date" v="2019-12-27" />
		<tag k="ssr:gruppe" v="høyder" />
		<tag k="ssr:hovedgruppe" v="terreng" />
		<tag k="ssr:stedsnr" v="230173" />
		<tag k="ssr:type" v="berg" />
	</node>
	<node lat="70.00302778117496" lon="20.72776666129835" id="-43871">
		<tag k="name" v="Naskarelva" />
		<tag k="ssr:date" v="2019-12-27" />
		<tag k="ssr:gruppe" v="rennendeVann" />
		<tag k="ssr:hovedgruppe" v="ferskvann" />
		<tag k="ssr:stedsnr" v="230126" />
		<tag k="ssr:type" v="bekk" />
		<tag k="waterway" v="stream" />
	</node>
	<node lat="70.06141388786101" lon="20.994430530113924" id="-43872">
		<tag k="name" v="Lykthaugen" />
		<tag k="natural" v="hill" />
		<tag k="place" v="locality" />
		<tag k="ssr:date" v="2019-12-27" />
		<tag k="ssr:gruppe" v="høyder" />
		<tag k="ssr:hovedgruppe" v="terreng" />
		<tag k="ssr:stedsnr" v="230192" />
		<tag k="ssr:type" v="haug" />
	</node>
	<node lat="70.06049999649343" lon="20.996530541558503" id="-43873">
		<tag k="name" v="Flatbergan" />
		<tag k="natural" v="hill" />
		<tag k="place" v="locality" />
		<tag k="ssr:date" v="2019-12-27" />
		<tag k="ssr:gruppe" v="høyder" />
		<tag k="ssr:hovedgruppe" v="terreng" />
		<tag k="ssr:stedsnr" v="230195" />
		<tag k="ssr:type" v="berg" />
	</node>
	<node lat="70.05816944200288" lon="20.99716387353423" id="-43874">
		<tag k="name" v="Porten" />
		<tag k="natural" v="bay" />
		<tag k="ssr:date" v="2019-12-27" />
		<tag k="ssr:gruppe" v="kystkontur" />
		<tag k="ssr:hovedgruppe" v="sjø" />
		<tag k="ssr:stedsnr" v="230197" />
		<tag k="ssr:type" v="vikISjø" />
	</node>
	<node lat="70.1219250004838" lon="20.88613331564084" id="-43875">
		<tag k="name" v="Lia" />
		<tag k="natural" v="slope" />
		<tag k="place" v="locality" />
		<tag k="ssr:date" v="2019-12-27" />
		<tag k="ssr:gruppe" v="skråninger" />
		<tag k="ssr:hovedgruppe" v="terreng" />
		<tag k="ssr:stedsnr" v="230199" />
		<tag k="ssr:type" v="li" />
	</node>
	<node lat="69.98285833712677" lon="20.957333319508574" id="-43876">
		<tag k="name" v="Sletten" />
		<tag k="place" v="locality" />
		<tag k="ssr:date" v="2019-12-27" />
		<tag k="ssr:gruppe" v="flater" />
		<tag k="ssr:hovedgruppe" v="terreng" />
		<tag k="ssr:stedsnr" v="230250" />
		<tag k="ssr:type" v="slette" />
	</node>
	<node lat="69.87237222161279" lon="20.63701941544973" id="-43877">
		<tag k="name" v="Svarttindaksla" />
		<tag k="place" v="locality" />
		<tag k="ssr:date" v="2019-12-27" />
		<tag k="ssr:gruppe" v="høyder" />
		<tag k="ssr:hovedgruppe" v="terreng" />
		<tag k="ssr:stedsnr" v="230328" />
		<tag k="ssr:type" v="fjellkant" />
	</node>
	<node lat="69.92273888811131" lon="20.686758312881825" id="-43878">
		<tag k="name" v="Høeghbergbukta" />
		<tag k="natural" v="bay" />
		<tag k="ssr:date" v="2019-12-27" />
		<tag k="ssr:gruppe" v="kystkontur" />
		<tag k="ssr:hovedgruppe" v="sjø" />
		<tag k="ssr:stedsnr" v="230341" />
		<tag k="ssr:type" v="vikISjø" />
	</node>
	<node lat="69.99613055504928" lon="21.03384165448348" id="-43879">
		<tag k="name" v="Lillevollen" />
		<tag k="place" v="locality" />
		<tag k="ssr:date" v="2019-12-27" />
		<tag k="ssr:gruppe" v="dyrkamark" />
		<tag k="ssr:hovedgruppe" v="markslag" />
		<tag k="ssr:stedsnr" v="230346" />
		<tag k="ssr:type" v="jorde" />
	</node>
	<node lat="69.99517778158052" lon="21.04672498171671" id="-43880">
		<tag k="name" v="Skaret" />
		<tag k="natural" v="valley" />
		<tag k="place" v="locality" />
		<tag k="ssr:date" v="2019-12-27" />
		<tag k="ssr:gruppe" v="senkninger" />
		<tag k="ssr:hovedgruppe" v="terreng" />
		<tag k="ssr:stedsnr" v="230348" />
		<tag k="ssr:type" v="skar" />
	</node>
	<node lat="69.91695832915781" lon="20.6890638788791" id="-43881">
		<tag k="name" v="Langbakken" />
		<tag k="natural" v="slope" />
		<tag k="place" v="locality" />
		<tag k="ssr:date" v="2019-12-27" />
		<tag k="ssr:gruppe" v="skråninger" />
		<tag k="ssr:hovedgruppe" v="terreng" />
		<tag k="ssr:stedsnr" v="230356" />
		<tag k="ssr:type" v="bakke" />
	</node>
	<node lat="69.99631111103068" lon="21.021111083004843" id="-43882">
		<tag k="name" v="Strupen" />
		<tag k="natural" v="valley" />
		<tag k="place" v="locality" />
		<tag k="ssr:date" v="2019-12-27" />
		<tag k="ssr:gruppe" v="senkninger" />
		<tag k="ssr:hovedgruppe" v="terreng" />
		<tag k="ssr:stedsnr" v="230360" />
		<tag k="ssr:type" v="skar" />
	</node>
	<node lat="69.90538055496705" lon="20.579283308160623" id="-43883">
		<tag k="name" v="Ytre Rakkenesodden" />
		<tag k="natural" v="cape" />
		<tag k="ssr:date" v="2019-12-27" />
		<tag k="ssr:gruppe" v="kystkontur" />
		<tag k="ssr:hovedgruppe" v="sjø" />
		<tag k="ssr:stedsnr" v="230366" />
		<tag k="ssr:type" v="nesISjø" />
	</node>
	<node lat="69.90548610755545" lon="20.703030541481507" id="-43884">
		<tag k="name" v="Tyttebærhaugen" />
		<tag k="natural" v="hill" />
		<tag k="place" v="locality" />
		<tag k="ssr:date" v="2019-12-27" />
		<tag k="ssr:gruppe" v="høyder" />
		<tag k="ssr:hovedgruppe" v="terreng" />
		<tag k="ssr:stedsnr" v="230558" />
		<tag k="ssr:type" v="haug" />
	</node>
	<node lat="69.98674444604946" lon="20.984630521617355" id="-43885">
		<tag k="fixme" v="consider natural=peak for the most distinct mountains in the district" />
		<tag k="name" v="Bruna" />
		<tag k="natural" v="hill" />
		<tag k="place" v="locality" />
		<tag k="ssr:date" v="2019-12-27" />
		<tag k="ssr:gruppe" v="høyder" />
		<tag k="ssr:hovedgruppe" v="terreng" />
		<tag k="ssr:stedsnr" v="230659" />
		<tag k="ssr:type" v="fjell" />
	</node>
	<node lat="70.07018333392494" lon="20.63743332404744" id="-43886">
		<tag k="name" v="Sletta" />
		<tag k="place" v="locality" />
		<tag k="ssr:date" v="2019-12-27" />
		<tag k="ssr:gruppe" v="flater" />
		<tag k="ssr:hovedgruppe" v="terreng" />
		<tag k="ssr:stedsnr" v="230740" />
		<tag k="ssr:type" v="slette" />
	</node>
	<node lat="69.98182222269119" lon="20.999922204759862" id="-43887">
		<tag k="name" v="Bukta" />
		<tag k="natural" v="bay" />
		<tag k="ssr:date" v="2019-12-27" />
		<tag k="ssr:gruppe" v="kystkontur" />
		<tag k="ssr:hovedgruppe" v="sjø" />
		<tag k="ssr:stedsnr" v="230817" />
		<tag k="ssr:type" v="vikISjø" />
	</node>
	<node lat="70.0601388854315" lon="20.567405549353666" id="-43888">
		<tag k="name" v="Rikardelva" />
		<tag k="ssr:date" v="2019-12-27" />
		<tag k="ssr:gruppe" v="rennendeVann" />
		<tag k="ssr:hovedgruppe" v="ferskvann" />
		<tag k="ssr:stedsnr" v="230745" />
		<tag k="ssr:type" v="bekk" />
		<tag k="waterway" v="stream" />
	</node>
	<node lat="70.04965833108889" lon="20.442252759071156" id="-43889">
		<tag k="name" v="Nakkheia" />
		<tag k="natural" v="slope" />
		<tag k="place" v="locality" />
		<tag k="ssr:date" v="2019-12-27" />
		<tag k="ssr:gruppe" v="skråninger" />
		<tag k="ssr:hovedgruppe" v="terreng" />
		<tag k="ssr:stedsnr" v="230871" />
		<tag k="ssr:type" v="li" />
	</node>
	<node lat="70.05296388865176" lon="20.436149986309353" id="-43890">
		<tag k="name" v="Aksla" />
		<tag k="place" v="locality" />
		<tag k="ssr:date" v="2019-12-27" />
		<tag k="ssr:gruppe" v="høyder" />
		<tag k="ssr:hovedgruppe" v="terreng" />
		<tag k="ssr:stedsnr" v="230872" />
		<tag k="ssr:type" v="fjellkant" />
	</node>
	<node lat="69.92469444917478" lon="20.855491641968296" id="-43891">
		<tag k="name" v="Sørnesberget" />
		<tag k="natural" v="hill" />
		<tag k="place" v="locality" />
		<tag k="ssr:date" v="2019-12-27" />
		<tag k="ssr:gruppe" v="høyder" />
		<tag k="ssr:hovedgruppe" v="terreng" />
		<tag k="ssr:stedsnr" v="230878" />
		<tag k="ssr:type" v="berg" />
	</node>
	<node lat="70.23713055657284" lon="20.7077138755475" id="-43892">
		<tag k="name" v="Rubertkeila" />
		<tag k="natural" v="bay" />
		<tag k="ssr:date" v="2019-12-27" />
		<tag k="ssr:gruppe" v="kystkontur" />
		<tag k="ssr:hovedgruppe" v="sjø" />
		<tag k="ssr:stedsnr" v="230938" />
		<tag k="ssr:type" v="vikISjø" />
	</node>
	<node lat="70.14307777443942" lon="20.373947199542144" id="-43893">
		<tag k="name" v="Trollbuktneset" />
		<tag k="natural" v="cape" />
		<tag k="ssr:date" v="2019-12-27" />
		<tag k="ssr:gruppe" v="kystkontur" />
		<tag k="ssr:hovedgruppe" v="sjø" />
		<tag k="ssr:stedsnr" v="230962" />
		<tag k="ssr:type" v="nesISjø" />
	</node>
	<node lat="70.05944166586663" lon="20.651544419936503" id="-43894">
		<tag k="name" v="Gabrielstykket" />
		<tag k="place" v="locality" />
		<tag k="ssr:date" v="2019-12-27" />
		<tag k="ssr:gruppe" v="dyrkamark" />
		<tag k="ssr:hovedgruppe" v="markslag" />
		<tag k="ssr:stedsnr" v="230977" />
		<tag k="ssr:type" v="jorde" />
	</node>
	<node lat="70.0552833357611" lon="20.798344422651635" id="-43895">
		<tag k="name" v="Hamnebergan" />
		<tag k="natural" v="hill" />
		<tag k="place" v="locality" />
		<tag k="ssr:date" v="2019-12-27" />
		<tag k="ssr:gruppe" v="høyder" />
		<tag k="ssr:hovedgruppe" v="terreng" />
		<tag k="ssr:stedsnr" v="231026" />
		<tag k="ssr:type" v="berg" />
	</node>
	<node lat="70.04964444258403" lon="20.7484277642258" id="-43896">
		<tag k="name" v="Tyttebærryggen" />
		<tag k="natural" v="ridge" />
		<tag k="place" v="locality" />
		<tag k="ssr:date" v="2019-12-27" />
		<tag k="ssr:gruppe" v="høyder" />
		<tag k="ssr:hovedgruppe" v="terreng" />
		<tag k="ssr:stedsnr" v="231125" />
		<tag k="ssr:type" v="rygg" />
	</node>
	<node lat="70.21263611250725" lon="20.796674975828854" id="-43897">
		<tag k="name" v="Storskorra" />
		<tag k="natural" v="valley" />
		<tag k="place" v="locality" />
		<tag k="ssr:date" v="2019-12-27" />
		<tag k="ssr:gruppe" v="senkninger" />
		<tag k="ssr:hovedgruppe" v="terreng" />
		<tag k="ssr:stedsnr" v="231154" />
		<tag k="ssr:type" v="skar" />
	</node>
	<node lat="70.19766388838457" lon="20.768233309259564" id="-43898">
		<tag k="name" v="Nedre Sørdalsvannet" />
		<tag k="natural" v="water" />
		<tag k="ssr:date" v="2019-12-27" />
		<tag k="ssr:gruppe" v="stilleståendeVann" />
		<tag k="ssr:hovedgruppe" v="ferskvann" />
		<tag k="ssr:stedsnr" v="231155" />
		<tag k="ssr:type" v="vann" />
		<tag k="water" v="lake" />
	</node>
	<node lat="70.2245888878304" lon="20.758847195495473" id="-43899">
		<tag k="name" v="Indre Klubbekråa" />
		<tag k="natural" v="bay" />
		<tag k="ssr:date" v="2019-12-27" />
		<tag k="ssr:gruppe" v="kystkontur" />
		<tag k="ssr:hovedgruppe" v="sjø" />
		<tag k="ssr:stedsnr" v="231157" />
		<tag k="ssr:type" v="vikISjø" />
	</node>
	<node lat="70.22661388603733" lon="20.75781664260498" id="-43900">
		<tag k="name" v="Ytre Klubbekråa" />
		<tag k="natural" v="bay" />
		<tag k="ssr:date" v="2019-12-27" />
		<tag k="ssr:gruppe" v="kystkontur" />
		<tag k="ssr:hovedgruppe" v="sjø" />
		<tag k="ssr:stedsnr" v="231158" />
		<tag k="ssr:type" v="vikISjø" />
	</node>
	<node lat="70.2200916644199" lon="20.755508317702674" id="-43901">
		<tag k="name" v="Norddalselva" />
		<tag k="ssr:date" v="2019-12-27" />
		<tag k="ssr:gruppe" v="rennendeVann" />
		<tag k="ssr:hovedgruppe" v="ferskvann" />
		<tag k="ssr:stedsnr" v="231160" />
		<tag k="ssr:type" v="bekk" />
		<tag k="waterway" v="stream" />
	</node>
	<node lat="70.1503166638516" lon="20.774461094920486" id="-43902">
		<tag k="name" v="Tempen" />
		<tag k="natural" v="hill" />
		<tag k="place" v="locality" />
		<tag k="ssr:date" v="2019-12-27" />
		<tag k="ssr:gruppe" v="høyder" />
		<tag k="ssr:hovedgruppe" v="terreng" />
		<tag k="ssr:stedsnr" v="231166" />
		<tag k="ssr:type" v="haug" />
	</node>
	<node lat="70.15468333252232" lon="20.768238869088478" id="-43903">
		<tag k="name" v="Lomvannet" />
		<tag k="natural" v="water" />
		<tag k="ssr:date" v="2019-12-27" />
		<tag k="ssr:gruppe" v="stilleståendeVann" />
		<tag k="ssr:hovedgruppe" v="ferskvann" />
		<tag k="ssr:stedsnr" v="231167" />
		<tag k="ssr:type" v="tjern" />
	</node>
	<node lat="70.15109444323474" lon="20.758777764280023" id="-43904">
		<tag k="name" v="Hesteøran" />
		<tag k="natural" v="hill" />
		<tag k="place" v="locality" />
		<tag k="ssr:date" v="2019-12-27" />
		<tag k="ssr:gruppe" v="høyder" />
		<tag k="ssr:hovedgruppe" v="terreng" />
		<tag k="ssr:stedsnr" v="231172" />
		<tag k="ssr:type" v="haug" />
	</node>
	<node lat="69.95649444679101" lon="20.959713877786324" id="-43905">
		<tag k="name" v="Sjurberget" />
		<tag k="natural" v="hill" />
		<tag k="place" v="locality" />
		<tag k="ssr:date" v="2019-12-27" />
		<tag k="ssr:gruppe" v="høyder" />
		<tag k="ssr:hovedgruppe" v="terreng" />
		<tag k="ssr:stedsnr" v="231176" />
		<tag k="ssr:type" v="berg" />
	</node>
	<node lat="70.10653889192504" lon="20.747763871859497" id="-43906">
		<tag k="name" v="Paulinavannet" />
		<tag k="natural" v="water" />
		<tag k="ssr:date" v="2019-12-27" />
		<tag k="ssr:gruppe" v="stilleståendeVann" />
		<tag k="ssr:hovedgruppe" v="ferskvann" />
		<tag k="ssr:stedsnr" v="231217" />
		<tag k="ssr:type" v="tjern" />
	</node>
	<node lat="70.10140387299356" lon="20.746488962602214" id="-43907">
		<tag k="name" v="Vangen" />
		<tag k="place" v="farm" />
		<tag k="ssr:date" v="2021-10-20" />
		<tag k="ssr:gruppe" v="gardsbebyggelse" />
		<tag k="ssr:hovedgruppe" v="bebyggelse" />
		<tag k="ssr:stedsnr" v="231219" />
		<tag k="ssr:type" v="bruk" />
	</node>
	<node lat="70.03806944761367" lon="21.242511081261252" id="-43908">
		<tag k="alt_name" v="Rundhompen" />
		<tag k="name" v="Rundhumpen" />
		<tag k="natural" v="hill" />
		<tag k="place" v="locality" />
		<tag k="ssr:date" v="2019-12-27" />
		<tag k="ssr:gruppe" v="høyder" />
		<tag k="ssr:hovedgruppe" v="terreng" />
		<tag k="ssr:stedsnr" v="231260" />
		<tag k="ssr:type" v="haug" />
	</node>
	<node lat="69.99173888826397" lon="20.63324442671159" id="-43909">
		<tag k="name" v="Dauingssteinan" />
		<tag k="natural" v="stone" />
		<tag k="ssr:date" v="2019-12-27" />
		<tag k="ssr:gruppe" v="løsmasseavsetninger" />
		<tag k="ssr:hovedgruppe" v="markslag" />
		<tag k="ssr:stedsnr" v="231594" />
		<tag k="ssr:type" v="stein" />
	</node>
	<node lat="69.9727472217951" lon="20.625780527771425" id="-43910">
		<tag k="name" v="Slånken" />
		<tag k="natural" v="bay" />
		<tag k="ssr:date" v="2019-12-27" />
		<tag k="ssr:gruppe" v="kystkontur" />
		<tag k="ssr:hovedgruppe" v="sjø" />
		<tag k="ssr:stedsnr" v="231617" />
		<tag k="ssr:type" v="vikISjø" />
	</node>
	<node lat="69.94573333379427" lon="20.67264442109832" id="-43911">
		<tag k="name" v="Bjørnvikneset" />
		<tag k="natural" v="cape" />
		<tag k="ssr:date" v="2019-12-27" />
		<tag k="ssr:gruppe" v="kystkontur" />
		<tag k="ssr:hovedgruppe" v="sjø" />
		<tag k="ssr:stedsnr" v="231627" />
		<tag k="ssr:type" v="nesISjø" />
	</node>
	<node lat="70.0549388930433" lon="20.650622216826253" id="-43912">
		<tag k="name" v="Grunnfjord" />
		<tag k="place" v="isolated_dwelling" />
		<tag k="ssr:date" v="2019-12-27" />
		<tag k="ssr:gruppe" v="bolighus" />
		<tag k="ssr:hovedgruppe" v="bebyggelse" />
		<tag k="ssr:stedsnr" v="231697" />
		<tag k="ssr:type" v="fritidsbolig" />
	</node>
	<node lat="70.04500833127163" lon="20.609202760083235" id="-43913">
		<tag k="name" v="Lille-Ørnhammaran" />
		<tag k="natural" v="hill" />
		<tag k="place" v="locality" />
		<tag k="ssr:date" v="2019-12-27" />
		<tag k="ssr:gruppe" v="høyder" />
		<tag k="ssr:hovedgruppe" v="terreng" />
		<tag k="ssr:stedsnr" v="231716" />
		<tag k="ssr:type" v="berg" />
	</node>
	<node lat="70.0335388898545" lon="20.573572209665844" id="-43914">
		<tag k="name" v="Kvitsteinbergan" />
		<tag k="natural" v="hill" />
		<tag k="place" v="locality" />
		<tag k="ssr:date" v="2019-12-27" />
		<tag k="ssr:gruppe" v="høyder" />
		<tag k="ssr:hovedgruppe" v="terreng" />
		<tag k="ssr:stedsnr" v="231850" />
		<tag k="ssr:type" v="berg" />
	</node>
	<node lat="70.23073888855481" lon="20.644333321565068" id="-43915">
		<tag k="name" v="Bukta" />
		<tag k="natural" v="bay" />
		<tag k="ssr:date" v="2019-12-27" />
		<tag k="ssr:gruppe" v="kystkontur" />
		<tag k="ssr:hovedgruppe" v="sjø" />
		<tag k="ssr:stedsnr" v="231921" />
		<tag k="ssr:type" v="vikISjø" />
	</node>
	<node lat="70.04616111521926" lon="20.6955638641563" id="-43916">
		<tag k="name" v="Småbergan" />
		<tag k="natural" v="hill" />
		<tag k="place" v="locality" />
		<tag k="ssr:date" v="2019-12-27" />
		<tag k="ssr:gruppe" v="høyder" />
		<tag k="ssr:hovedgruppe" v="terreng" />
		<tag k="ssr:stedsnr" v="231868" />
		<tag k="ssr:type" v="berg" />
	</node>
	<node lat="70.04665000130109" lon="20.668116656351305" id="-43917">
		<tag k="name" v="Gambergan" />
		<tag k="natural" v="hill" />
		<tag k="place" v="locality" />
		<tag k="ssr:date" v="2019-12-27" />
		<tag k="ssr:gruppe" v="høyder" />
		<tag k="ssr:hovedgruppe" v="terreng" />
		<tag k="ssr:stedsnr" v="231870" />
		<tag k="ssr:type" v="berg" />
	</node>
	<node lat="70.03577309690785" lon="20.981430636467554" id="-43918">
		<tag k="name" v="Skjervøy" />
		<tag k="place" v="village" />
		<tag k="ssr:date" v="2019-12-27" />
		<tag k="ssr:gruppe" v="bebyggelsesområder" />
		<tag k="ssr:hovedgruppe" v="bebyggelse" />
		<tag k="ssr:stedsnr" v="19142" />
		<tag k="ssr:type" v="tettsted" />
	</node>
	<node lat="70.14206389313908" lon="20.546147202273946" id="-43919">
		<tag k="name" v="Langfjordura" />
		<tag k="natural" v="scree" />
		<tag k="ssr:date" v="2019-12-27" />
		<tag k="ssr:gruppe" v="løsmasseavsetninger" />
		<tag k="ssr:hovedgruppe" v="markslag" />
		<tag k="ssr:stedsnr" v="19005" />
		<tag k="ssr:type" v="ur" />
	</node>
	<node lat="70.12686944389485" lon="20.69917498427139" id="-43920">
		<tag k="name" v="Fossbakken" />
		<tag k="natural" v="slope" />
		<tag k="place" v="locality" />
		<tag k="ssr:date" v="2019-12-27" />
		<tag k="ssr:gruppe" v="skråninger" />
		<tag k="ssr:hovedgruppe" v="terreng" />
		<tag k="ssr:stedsnr" v="19046" />
		<tag k="ssr:type" v="bakke" />
	</node>
	<node lat="70.13230000020518" lon="20.61549997508488" id="-43921">
		<tag k="name" v="Skardalen" />
		<tag k="natural" v="valley" />
		<tag k="place" v="locality" />
		<tag k="ssr:date" v="2021-06-08" />
		<tag k="ssr:gruppe" v="senkninger" />
		<tag k="ssr:hovedgruppe" v="terreng" />
		<tag k="ssr:stedsnr" v="19049" />
		<tag k="ssr:type" v="dal" />
	</node>
	<node lat="70.15005833319813" lon="20.53702777379764" id="-43922">
		<tag k="loc_name:se" v="Guhkesvuonjávri" />
		<tag k="name" v="Langfjordvannet" />
		<tag k="name:no" v="Langfjordvannet" />
		<tag k="natural" v="water" />
		<tag k="ssr:date" v="2021-06-08" />
		<tag k="ssr:gruppe" v="stilleståendeVann" />
		<tag k="ssr:hovedgruppe" v="ferskvann" />
		<tag k="ssr:stedsnr" v="19009" />
		<tag k="ssr:type" v="vann" />
		<tag k="water" v="lake" />
	</node>
	<node lat="70.20148889069387" lon="20.80735276429578" id="-43923">
		<tag k="name" v="Faulberget" />
		<tag k="natural" v="hill" />
		<tag k="place" v="locality" />
		<tag k="ssr:date" v="2021-06-08" />
		<tag k="ssr:gruppe" v="høyder" />
		<tag k="ssr:hovedgruppe" v="terreng" />
		<tag k="ssr:stedsnr" v="19094" />
		<tag k="ssr:type" v="berg" />
	</node>
	<node lat="69.99123888688247" lon="20.863880534825658" id="-43924">
		<tag k="name" v="Storbuktelva" />
		<tag k="ssr:date" v="2019-12-27" />
		<tag k="ssr:gruppe" v="rennendeVann" />
		<tag k="ssr:hovedgruppe" v="ferskvann" />
		<tag k="ssr:stedsnr" v="19449" />
		<tag k="ssr:type" v="elv" />
		<tag k="waterway" v="river" />
	</node>
	<node lat="69.84598888827928" lon="20.673833312659664" id="-43925">
		<tag k="name" v="Mettengelva" />
		<tag k="ssr:date" v="2019-12-27" />
		<tag k="ssr:gruppe" v="rennendeVann" />
		<tag k="ssr:hovedgruppe" v="ferskvann" />
		<tag k="ssr:stedsnr" v="19513" />
		<tag k="ssr:type" v="elv" />
		<tag k="waterway" v="river" />
	</node>
	<node lat="69.94646944178572" lon="20.76966941786293" id="-43926">
		<tag k="name" v="Jektsetodden" />
		<tag k="natural" v="cape" />
		<tag k="ssr:date" v="2019-12-27" />
		<tag k="ssr:gruppe" v="kystkontur" />
		<tag k="ssr:hovedgruppe" v="sjø" />
		<tag k="ssr:stedsnr" v="19545" />
		<tag k="ssr:type" v="nesISjø" />
	</node>
	<node lat="69.94916666709565" lon="20.677791656984045" id="-43927">
		<tag k="alt_name" v="Forraneset" />
		<tag k="name" v="Furuneset" />
		<tag k="natural" v="cape" />
		<tag k="ssr:date" v="2019-12-27" />
		<tag k="ssr:gruppe" v="kystkontur" />
		<tag k="ssr:hovedgruppe" v="sjø" />
		<tag k="ssr:stedsnr" v="19547" />
		<tag k="ssr:type" v="nesISjø" />
	</node>
	<node lat="69.97944167000759" lon="20.911722195068737" id="-43928">
		<tag k="alt_name" v="Lilleelva" />
		<tag k="name" v="Litlelva" />
		<tag k="ssr:date" v="2019-12-27" />
		<tag k="ssr:gruppe" v="rennendeVann" />
		<tag k="ssr:hovedgruppe" v="ferskvann" />
		<tag k="ssr:stedsnr" v="19590" />
		<tag k="ssr:type" v="bekk" />
		<tag k="waterway" v="stream" />
	</node>
	<node lat="69.83101900437241" lon="20.732008123818026" id="-43931">
		<tag k="fixme" v="consider place=hamlet" />
		<tag k="loc_name:se" v="Seahttár" />
		<tag k="name" v="Sætra" />
		<tag k="name:no" v="Sætra" />
		<tag k="place" v="farm" />
		<tag k="ssr:date" v="2020-08-28" />
		<tag k="ssr:gruppe" v="gardsbebyggelse" />
		<tag k="ssr:hovedgruppe" v="bebyggelse" />
		<tag k="ssr:stedsnr" v="19992" />
		<tag k="ssr:type" v="gard" />
	</node>
	<node lat="70.18052499743007" lon="20.424397214780825" id="-43932">
		<tag k="name" v="Slumpen" />
		<tag k="natural" v="cape" />
		<tag k="ssr:date" v="2021-06-08" />
		<tag k="ssr:gruppe" v="kystkontur" />
		<tag k="ssr:hovedgruppe" v="sjø" />
		<tag k="ssr:stedsnr" v="24502" />
		<tag k="ssr:type" v="nesISjø" />
	</node>
	<node lat="70.05862222632004" lon="20.6362416565268" id="-43934">
		<tag k="name" v="Rotnes" />
		<tag k="natural" v="cape" />
		<tag k="ssr:date" v="2021-06-08" />
		<tag k="ssr:gruppe" v="kystkontur" />
		<tag k="ssr:hovedgruppe" v="sjø" />
		<tag k="ssr:stedsnr" v="25987" />
		<tag k="ssr:type" v="nesISjø" />
	</node>
	<node lat="70.0074455371377" lon="20.71522986839074" id="-43935">
		<tag k="alt_name" v="Kågneset" />
		<tag k="name" v="Kågen" />
		<tag k="place" v="locality" />
		<tag k="ssr:date" v="2020-08-28" />
		<tag k="ssr:gruppe" v="bolighus" />
		<tag k="ssr:hovedgruppe" v="bebyggelse" />
		<tag k="ssr:stedsnr" v="26713" />
		<tag k="ssr:type" v="gammelBosettingsplass" />
	</node>
	<node lat="70.1436999999519" lon="20.813972210457916" id="-43936">
		<tag k="name" v="Nordstrand" />
		<tag k="place" v="isolated_dwelling" />
		<tag k="ssr:date" v="2019-12-27" />
		<tag k="ssr:gruppe" v="bolighus" />
		<tag k="ssr:hovedgruppe" v="bebyggelse" />
		<tag k="ssr:stedsnr" v="29307" />
		<tag k="ssr:type" v="fritidsbolig" />
	</node>
	<node lat="70.13880555491708" lon="20.769127753764902" id="-43937">
		<tag k="name" v="Lyngnes" />
		<tag k="natural" v="cape" />
		<tag k="ssr:date" v="2019-12-27" />
		<tag k="ssr:gruppe" v="kystkontur" />
		<tag k="ssr:hovedgruppe" v="sjø" />
		<tag k="ssr:stedsnr" v="29318" />
		<tag k="ssr:type" v="nesISjø" />
	</node>
	<node lat="69.96322777749315" lon="20.96116387010479" id="-43938">
		<tag k="name" v="Torvhatten" />
		<tag k="natural" v="hill" />
		<tag k="place" v="locality" />
		<tag k="ssr:date" v="2019-12-27" />
		<tag k="ssr:gruppe" v="høyder" />
		<tag k="ssr:hovedgruppe" v="terreng" />
		<tag k="ssr:stedsnr" v="45874" />
		<tag k="ssr:type" v="haug" />
	</node>
	<node lat="69.87337500177964" lon="20.683172199082204" id="-43939">
		<tag k="name" v="Skjellelva" />
		<tag k="ssr:date" v="2019-12-27" />
		<tag k="ssr:gruppe" v="rennendeVann" />
		<tag k="ssr:hovedgruppe" v="ferskvann" />
		<tag k="ssr:stedsnr" v="48311" />
		<tag k="ssr:type" v="bekk" />
		<tag k="waterway" v="stream" />
	</node>
	<node lat="69.86838055886757" lon="20.641333325417502" id="-43940">
		<tag k="name" v="Veddalen" />
		<tag k="natural" v="valley" />
		<tag k="place" v="locality" />
		<tag k="ssr:date" v="2019-12-27" />
		<tag k="ssr:gruppe" v="senkninger" />
		<tag k="ssr:hovedgruppe" v="terreng" />
		<tag k="ssr:stedsnr" v="48313" />
		<tag k="ssr:type" v="dal" />
	</node>
	<node lat="69.92543888587936" lon="20.66800276040041" id="-43941">
		<tag k="fixme" v="consider seamark:type=rock or natural=shoal" />
		<tag k="name" v="Kvitsteinan" />
		<tag k="place" v="islet" />
		<tag k="ssr:date" v="2019-12-27" />
		<tag k="ssr:gruppe" v="grunnerISjø" />
		<tag k="ssr:hovedgruppe" v="sjø" />
		<tag k="ssr:stedsnr" v="48323" />
		<tag k="ssr:type" v="skjærISjø" />
	</node>
	<node lat="69.9453666658953" lon="20.650519434182392" id="-43942">
		<tag k="fixme" v="consider natural=peak for the most distinct mountains in the district" />
		<tag k="name" v="Trollvasshøgda" />
		<tag k="natural" v="hill" />
		<tag k="place" v="locality" />
		<tag k="ssr:date" v="2019-12-27" />
		<tag k="ssr:gruppe" v="høyder" />
		<tag k="ssr:hovedgruppe" v="terreng" />
		<tag k="ssr:stedsnr" v="48513" />
		<tag k="ssr:type" v="ås" />
	</node>
	<node lat="70.08973055124079" lon="20.757413875759216" id="-43943">
		<tag k="building" v="industrial" />
		<tag k="industrial" v="factory" />
		<tag k="name" v="Skarbruket" />
		<tag k="ssr:date" v="2019-12-27" />
		<tag k="ssr:gruppe" v="næring" />
		<tag k="ssr:hovedgruppe" v="bebyggelse" />
		<tag k="ssr:stedsnr" v="49002" />
		<tag k="ssr:type" v="fabrikk" />
	</node>
	<node lat="70.07955555469468" lon="20.74688053156756" id="-43944">
		<tag k="name" v="Middagstinden" />
		<tag k="natural" v="hill" />
		<tag k="place" v="locality" />
		<tag k="ssr:date" v="2019-12-27" />
		<tag k="ssr:gruppe" v="høyder" />
		<tag k="ssr:hovedgruppe" v="terreng" />
		<tag k="ssr:stedsnr" v="49005" />
		<tag k="ssr:type" v="berg" />
	</node>
	<node lat="70.0757472231555" lon="20.491538880425985" id="-43945">
		<tag k="name" v="Storelva" />
		<tag k="ssr:date" v="2019-12-27" />
		<tag k="ssr:gruppe" v="rennendeVann" />
		<tag k="ssr:hovedgruppe" v="ferskvann" />
		<tag k="ssr:stedsnr" v="49013" />
		<tag k="ssr:type" v="elv" />
		<tag k="waterway" v="river" />
	</node>
	<node lat="70.07838888766057" lon="20.8190805448797" id="-43946">
		<tag k="name" v="Elvenesdalen" />
		<tag k="natural" v="valley" />
		<tag k="place" v="locality" />
		<tag k="ssr:date" v="2019-12-27" />
		<tag k="ssr:gruppe" v="senkninger" />
		<tag k="ssr:hovedgruppe" v="terreng" />
		<tag k="ssr:stedsnr" v="49074" />
		<tag k="ssr:type" v="dal" />
	</node>
	<node lat="70.1774611086574" lon="20.536808307568283" id="-43947">
		<tag k="name" v="Longvannet" />
		<tag k="natural" v="water" />
		<tag k="ssr:date" v="2019-12-27" />
		<tag k="ssr:gruppe" v="stilleståendeVann" />
		<tag k="ssr:hovedgruppe" v="ferskvann" />
		<tag k="ssr:stedsnr" v="49303" />
		<tag k="ssr:type" v="tjern" />
	</node>
	<node lat="70.1766527804623" lon="20.519361108581776" id="-43948">
		<tag k="name" v="Elvedalelva" />
		<tag k="ssr:date" v="2019-12-27" />
		<tag k="ssr:gruppe" v="rennendeVann" />
		<tag k="ssr:hovedgruppe" v="ferskvann" />
		<tag k="ssr:stedsnr" v="49312" />
		<tag k="ssr:type" v="bekk" />
		<tag k="waterway" v="stream" />
	</node>
	<node lat="70.17096389089787" lon="20.54147221271782" id="-43949">
		<tag k="name" v="Lysverket" />
		<tag k="place" v="locality" />
		<tag k="ssr:date" v="2019-12-27" />
		<tag k="ssr:gruppe" v="kulturminner" />
		<tag k="ssr:hovedgruppe" v="kultur" />
		<tag k="ssr:stedsnr" v="49313" />
		<tag k="ssr:type" v="annenKulturdetalj" />
	</node>
	<node lat="69.98337222075905" lon="20.97589163213553" id="-43950">
		<tag k="name" v="Taskebyvannet" />
		<tag k="natural" v="water" />
		<tag k="ssr:date" v="2019-12-27" />
		<tag k="ssr:gruppe" v="stilleståendeVann" />
		<tag k="ssr:hovedgruppe" v="ferskvann" />
		<tag k="ssr:stedsnr" v="49316" />
		<tag k="ssr:type" v="tjern" />
	</node>
	<node lat="70.03992499986968" lon="21.255866643621072" id="-43951">
		<tag k="name" v="Johannavannet" />
		<tag k="natural" v="water" />
		<tag k="ssr:date" v="2019-12-27" />
		<tag k="ssr:gruppe" v="stilleståendeVann" />
		<tag k="ssr:hovedgruppe" v="ferskvann" />
		<tag k="ssr:stedsnr" v="49268" />
		<tag k="ssr:type" v="tjern" />
	</node>
	<node lat="70.12141110719271" lon="20.73200831792391" id="-43952">
		<tag k="alt_name" v="Storelva" />
		<tag k="name" v="Tjyvdalselva" />
		<tag k="ssr:date" v="2019-12-27" />
		<tag k="ssr:gruppe" v="rennendeVann" />
		<tag k="ssr:hovedgruppe" v="ferskvann" />
		<tag k="ssr:stedsnr" v="49218" />
		<tag k="ssr:type" v="bekk" />
		<tag k="waterway" v="stream" />
	</node>
	<node lat="70.03381666583519" lon="20.584902758790253" id="-43953">
		<tag k="name" v="Buskesteinen" />
		<tag k="natural" v="stone" />
		<tag k="ssr:date" v="2019-12-27" />
		<tag k="ssr:gruppe" v="løsmasseavsetninger" />
		<tag k="ssr:hovedgruppe" v="markslag" />
		<tag k="ssr:stedsnr" v="49820" />
		<tag k="ssr:type" v="stein" />
	</node>
	<node lat="70.05325555632854" lon="20.99438052806614" id="-43954">
		<tag k="name" v="Sivvannet" />
		<tag k="natural" v="water" />
		<tag k="ssr:date" v="2019-12-27" />
		<tag k="ssr:gruppe" v="stilleståendeVann" />
		<tag k="ssr:hovedgruppe" v="ferskvann" />
		<tag k="ssr:stedsnr" v="49822" />
		<tag k="ssr:type" v="tjern" />
	</node>
	<node lat="70.03550277966578" lon="20.566316661014042" id="-43955">
		<tag k="name" v="Gåshammaren" />
		<tag k="natural" v="hill" />
		<tag k="place" v="locality" />
		<tag k="ssr:date" v="2019-12-27" />
		<tag k="ssr:gruppe" v="høyder" />
		<tag k="ssr:hovedgruppe" v="terreng" />
		<tag k="ssr:stedsnr" v="49825" />
		<tag k="ssr:type" v="berg" />
	</node>
	<node lat="70.0564444410527" lon="20.49650275356961" id="-43956">
		<tag k="name" v="Sandbakkbukta" />
		<tag k="natural" v="bay" />
		<tag k="ssr:date" v="2019-12-27" />
		<tag k="ssr:gruppe" v="kystkontur" />
		<tag k="ssr:hovedgruppe" v="sjø" />
		<tag k="ssr:stedsnr" v="49904" />
		<tag k="ssr:type" v="vikISjø" />
	</node>
	<node lat="70.21537499842015" lon="20.67157220455048" id="-43957">
		<tag k="name" v="Rødmelen" />
		<tag k="place" v="locality" />
		<tag k="ssr:date" v="2019-12-27" />
		<tag k="ssr:gruppe" v="løsmasseavsetninger" />
		<tag k="ssr:hovedgruppe" v="markslag" />
		<tag k="ssr:stedsnr" v="49921" />
		<tag k="ssr:type" v="elvemel" />
	</node>
	<node lat="70.15494999670003" lon="20.84010554288626" id="-43959">
		<tag k="name" v="Hellnesodden" />
		<tag k="natural" v="cape" />
		<tag k="ssr:date" v="2019-12-27" />
		<tag k="ssr:gruppe" v="kystkontur" />
		<tag k="ssr:hovedgruppe" v="sjø" />
		<tag k="ssr:stedsnr" v="80002" />
		<tag k="ssr:type" v="nesISjø" />
	</node>
	<node lat="70.15758611255985" lon="20.787186103202377" id="-43960">
		<tag k="name" v="Tarenesbukta" />
		<tag k="natural" v="bay" />
		<tag k="ssr:date" v="2019-12-27" />
		<tag k="ssr:gruppe" v="kystkontur" />
		<tag k="ssr:hovedgruppe" v="sjø" />
		<tag k="ssr:stedsnr" v="80006" />
		<tag k="ssr:type" v="vikISjø" />
	</node>
	<node lat="70.20736111481229" lon="20.807747194427957" id="-43961">
		<tag k="name" v="Skutekråa" />
		<tag k="natural" v="bay" />
		<tag k="ssr:date" v="2019-12-27" />
		<tag k="ssr:gruppe" v="kystkontur" />
		<tag k="ssr:hovedgruppe" v="sjø" />
		<tag k="ssr:stedsnr" v="80102" />
		<tag k="ssr:type" v="vikISjø" />
	</node>
	<node lat="70.22653055181199" lon="20.585461090536583" id="-43962">
		<tag k="name" v="Rotvåg" />
		<tag k="place" v="locality" />
		<tag k="ssr:date" v="2019-12-27" />
		<tag k="ssr:gruppe" v="bolighus" />
		<tag k="ssr:hovedgruppe" v="bebyggelse" />
		<tag k="ssr:stedsnr" v="80092" />
		<tag k="ssr:type" v="gammelBosettingsplass" />
	</node>
	<node lat="70.2210944418679" lon="20.587755533624815" id="-43963">
		<tag k="name" v="Rotvågelva" />
		<tag k="ssr:date" v="2019-12-27" />
		<tag k="ssr:gruppe" v="rennendeVann" />
		<tag k="ssr:hovedgruppe" v="ferskvann" />
		<tag k="ssr:stedsnr" v="80099" />
		<tag k="ssr:type" v="bekk" />
		<tag k="waterway" v="stream" />
	</node>
	<node lat="70.04295860913295" lon="21.01561157172199" id="-43964">
		<tag k="name" v="Ramnnes" />
		<tag k="natural" v="cape" />
		<tag k="ssr:date" v="2021-06-08" />
		<tag k="ssr:gruppe" v="kystkontur" />
		<tag k="ssr:hovedgruppe" v="sjø" />
		<tag k="ssr:stedsnr" v="80238" />
		<tag k="ssr:type" v="nesISjø" />
	</node>
	<node lat="70.02903610739958" lon="21.221369419682457" id="-43965">
		<tag k="name" v="Nesbukta" />
		<tag k="natural" v="bay" />
		<tag k="ssr:date" v="2019-12-27" />
		<tag k="ssr:gruppe" v="kystkontur" />
		<tag k="ssr:hovedgruppe" v="sjø" />
		<tag k="ssr:stedsnr" v="80340" />
		<tag k="ssr:type" v="vikISjø" />
	</node>
	<node lat="69.97406944221015" lon="20.626855533828042" id="-43966">
		<tag k="alt_name" v="Tronddalsneset" />
		<tag k="name" v="Trondalsneset" />
		<tag k="natural" v="cape" />
		<tag k="ssr:date" v="2019-12-27" />
		<tag k="ssr:gruppe" v="kystkontur" />
		<tag k="ssr:hovedgruppe" v="sjø" />
		<tag k="ssr:stedsnr" v="80605" />
		<tag k="ssr:type" v="nesISjø" />
	</node>
	<node lat="69.91755822537648" lon="20.68737688237022" id="-43967">
		<tag k="alt_name" v="Follesøya, l" />
		<tag k="name" v="Lille Follesøya" />
		<tag k="place" v="island" />
		<tag k="ssr:date" v="2019-12-27" />
		<tag k="ssr:gruppe" v="kystkontur" />
		<tag k="ssr:hovedgruppe" v="sjø" />
		<tag k="ssr:stedsnr" v="80587" />
		<tag k="ssr:type" v="øyISjø" />
	</node>
	<node lat="70.19886110870411" lon="20.446577771108906" id="-43968">
		<tag k="name" v="Bentsgrunnen" />
		<tag k="natural" v="shoal" />
		<tag k="place" v="locality" />
		<tag k="ssr:date" v="2021-06-08" />
		<tag k="ssr:gruppe" v="grunnerISjø" />
		<tag k="ssr:hovedgruppe" v="sjø" />
		<tag k="ssr:stedsnr" v="84495" />
		<tag k="ssr:type" v="grunneISjø" />
	</node>
	<node lat="70.03634999790421" lon="20.535961081594934" id="-43969">
		<tag k="name" v="Oddebukta" />
		<tag k="natural" v="bay" />
		<tag k="ssr:date" v="2021-06-08" />
		<tag k="ssr:gruppe" v="kystkontur" />
		<tag k="ssr:hovedgruppe" v="sjø" />
		<tag k="ssr:stedsnr" v="85924" />
		<tag k="ssr:type" v="vikISjø" />
	</node>
	<node lat="70.05717499628084" lon="20.40385276064698" id="-43970">
		<tag k="name" v="Nakkekeila" />
		<tag k="natural" v="bay" />
		<tag k="ssr:date" v="2021-06-08" />
		<tag k="ssr:gruppe" v="kystkontur" />
		<tag k="ssr:hovedgruppe" v="sjø" />
		<tag k="ssr:stedsnr" v="86905" />
		<tag k="ssr:type" v="vikISjø" />
	</node>
	<node lat="70.07102500095348" lon="20.35873886283899" id="-43971">
		<tag k="name" v="Godklakk" />
		<tag k="natural" v="shoal" />
		<tag k="ssr:date" v="2021-06-08" />
		<tag k="ssr:gruppe" v="grunnerISjø" />
		<tag k="ssr:hovedgruppe" v="sjø" />
		<tag k="ssr:stedsnr" v="86877" />
		<tag k="ssr:type" v="klakkISjø" />
	</node>
	<node lat="70.07218611160894" lon="20.608724990503095" id="-43972">
		<tag k="name" v="Øvre Sløkedalsvannet" />
		<tag k="natural" v="water" />
		<tag k="ssr:date" v="2021-06-08" />
		<tag k="ssr:gruppe" v="stilleståendeVann" />
		<tag k="ssr:hovedgruppe" v="ferskvann" />
		<tag k="ssr:stedsnr" v="90441" />
		<tag k="ssr:type" v="tjern" />
	</node>
	<node lat="70.21399999852105" lon="20.99531387339151" id="-43973">
		<tag k="name" v="Breitindskallen" />
		<tag k="natural" v="shoal" />
		<tag k="place" v="locality" />
		<tag k="ssr:date" v="2021-06-08" />
		<tag k="ssr:gruppe" v="grunnerISjø" />
		<tag k="ssr:hovedgruppe" v="sjø" />
		<tag k="ssr:stedsnr" v="90176" />
		<tag k="ssr:type" v="grunneISjø" />
	</node>
	<node lat="70.05026111051366" lon="20.629319422951497" id="-43974">
		<tag k="alt_name" v="Arnøyhamn;Arnøy" />
		<tag k="amenity" v="place_of_worship" />
		<tag k="denomination" v="lutheran" />
		<tag k="name" v="Arnøy kirke" />
		<tag k="religion" v="christian" />
		<tag k="ssr:date" v="2021-10-29" />
		<tag k="ssr:gruppe" v="kulturinstitusjoner" />
		<tag k="ssr:hovedgruppe" v="kultur" />
		<tag k="ssr:stedsnr" v="94532" />
		<tag k="ssr:type" v="kirke" />
	</node>
	<node lat="70.0366999962874" lon="21.271938865622854" id="-43975">
		<tag k="name" v="Klubben" />
		<tag k="natural" v="cape" />
		<tag k="ssr:date" v="2019-12-27" />
		<tag k="ssr:gruppe" v="kystkontur" />
		<tag k="ssr:hovedgruppe" v="sjø" />
		<tag k="ssr:stedsnr" v="106039" />
		<tag k="ssr:type" v="nesISjø" />
	</node>
	<node lat="70.00280636908423" lon="21.037951130212665" id="-43976">
		<tag k="name" v="Leirvågneset" />
		<tag k="natural" v="cape" />
		<tag k="ssr:date" v="2019-12-27" />
		<tag k="ssr:gruppe" v="kystkontur" />
		<tag k="ssr:hovedgruppe" v="sjø" />
		<tag k="ssr:stedsnr" v="106978" />
		<tag k="ssr:type" v="nesISjø" />
	</node>
	<node lat="70.13204166714323" lon="20.760847197201993" id="-43977">
		<tag k="name" v="Neset" />
		<tag k="natural" v="cape" />
		<tag k="ssr:date" v="2019-12-27" />
		<tag k="ssr:gruppe" v="kystkontur" />
		<tag k="ssr:hovedgruppe" v="sjø" />
		<tag k="ssr:stedsnr" v="109203" />
		<tag k="ssr:type" v="nesISjø" />
	</node>
	<node lat="70.12738611142197" lon="20.795349969366846" id="-43978">
		<tag k="name" v="Kvantoelva" />
		<tag k="ssr:date" v="2019-12-27" />
		<tag k="ssr:gruppe" v="rennendeVann" />
		<tag k="ssr:hovedgruppe" v="ferskvann" />
		<tag k="ssr:stedsnr" v="109204" />
		<tag k="ssr:type" v="bekk" />
		<tag k="waterway" v="stream" />
	</node>
	<node lat="70.16750833614297" lon="20.784177772875182" id="-43979">
		<tag k="name" v="Stormyra" />
		<tag k="natural" v="wetland" />
		<tag k="ssr:date" v="2019-12-27" />
		<tag k="ssr:gruppe" v="våtmark" />
		<tag k="ssr:hovedgruppe" v="markslag" />
		<tag k="ssr:stedsnr" v="109214" />
		<tag k="ssr:type" v="myr" />
	</node>
	<node lat="70.05088611422998" lon="20.779347202826425" id="-43980">
		<tag k="name" v="Vaskarelva" />
		<tag k="ssr:date" v="2019-12-27" />
		<tag k="ssr:gruppe" v="rennendeVann" />
		<tag k="ssr:hovedgruppe" v="ferskvann" />
		<tag k="ssr:stedsnr" v="109104" />
		<tag k="ssr:type" v="bekk" />
		<tag k="waterway" v="stream" />
	</node>
	<node lat="70.06995833178551" lon="20.5219083132686" id="-43981">
		<tag k="name" v="Bukkelian" />
		<tag k="natural" v="slope" />
		<tag k="place" v="locality" />
		<tag k="ssr:date" v="2019-12-27" />
		<tag k="ssr:gruppe" v="skråninger" />
		<tag k="ssr:hovedgruppe" v="terreng" />
		<tag k="ssr:stedsnr" v="109115" />
		<tag k="ssr:type" v="li" />
	</node>
	<node lat="70.0391749972078" lon="20.994880539271268" id="-43982">
		<tag k="fixme" v="consider natural=peak for the most distinct mountains in the district" />
		<tag k="name" v="Fiskenesfjellet" />
		<tag k="natural" v="hill" />
		<tag k="place" v="locality" />
		<tag k="ssr:date" v="2019-12-27" />
		<tag k="ssr:gruppe" v="høyder" />
		<tag k="ssr:hovedgruppe" v="terreng" />
		<tag k="ssr:stedsnr" v="109137" />
		<tag k="ssr:type" v="fjell" />
	</node>
	<node lat="70.14940833395109" lon="20.75982777064428" id="-43983">
		<tag k="name" v="Bekkvannet" />
		<tag k="natural" v="water" />
		<tag k="ssr:date" v="2019-12-27" />
		<tag k="ssr:gruppe" v="stilleståendeVann" />
		<tag k="ssr:hovedgruppe" v="ferskvann" />
		<tag k="ssr:stedsnr" v="109146" />
		<tag k="ssr:type" v="tjern" />
	</node>
	<node lat="70.17288055284867" lon="20.41206387388415" id="-43984">
		<tag k="name" v="Bergeneset" />
		<tag k="natural" v="cape" />
		<tag k="ssr:date" v="2019-12-27" />
		<tag k="ssr:gruppe" v="kystkontur" />
		<tag k="ssr:hovedgruppe" v="sjø" />
		<tag k="ssr:stedsnr" v="109171" />
		<tag k="ssr:type" v="nesISjø" />
	</node>
	<node lat="70.17561944558665" lon="20.443663885449173" id="-43985">
		<tag k="name" v="Keileskogen" />
		<tag k="place" v="locality" />
		<tag k="ssr:date" v="2019-12-27" />
		<tag k="ssr:gruppe" v="vegetasjon" />
		<tag k="ssr:hovedgruppe" v="markslag" />
		<tag k="ssr:stedsnr" v="109172" />
		<tag k="ssr:type" v="skog" />
	</node>
	<node lat="70.16833333392015" lon="20.411663882916418" id="-43986">
		<tag k="name" v="Hallerenna" />
		<tag k="natural" v="bay" />
		<tag k="ssr:date" v="2019-12-27" />
		<tag k="ssr:gruppe" v="kystkontur" />
		<tag k="ssr:hovedgruppe" v="sjø" />
		<tag k="ssr:stedsnr" v="109179" />
		<tag k="ssr:type" v="vikISjø" />
	</node>
	<node lat="70.0585277819492" lon="20.992722188957956" id="-43987">
		<tag k="name" v="Smihaugen" />
		<tag k="natural" v="hill" />
		<tag k="place" v="locality" />
		<tag k="ssr:date" v="2019-12-27" />
		<tag k="ssr:gruppe" v="høyder" />
		<tag k="ssr:hovedgruppe" v="terreng" />
		<tag k="ssr:stedsnr" v="109187" />
		<tag k="ssr:type" v="haug" />
	</node>
	<node lat="70.01211111404703" lon="20.97782496732059" id="-43988">
		<tag k="name" v="Langøra" />
		<tag k="place" v="locality" />
		<tag k="ssr:date" v="2019-12-27" />
		<tag k="ssr:gruppe" v="løsmasseavsetninger" />
		<tag k="ssr:hovedgruppe" v="markslag" />
		<tag k="ssr:stedsnr" v="109320" />
		<tag k="ssr:type" v="øyr" />
	</node>
	<node lat="69.9409777767969" lon="20.647561098462734" id="-43989">
		<tag k="name" v="Lilleelvedalen" />
		<tag k="natural" v="valley" />
		<tag k="place" v="locality" />
		<tag k="ssr:date" v="2019-12-27" />
		<tag k="ssr:gruppe" v="senkninger" />
		<tag k="ssr:hovedgruppe" v="terreng" />
		<tag k="ssr:stedsnr" v="109511" />
		<tag k="ssr:type" v="dal" />
	</node>
	<node lat="70.06871667004577" lon="20.656305527315887" id="-43990">
		<tag k="name" v="Karstenmyrhollet" />
		<tag k="natural" v="wetland" />
		<tag k="ssr:date" v="2019-12-27" />
		<tag k="ssr:gruppe" v="våtmark" />
		<tag k="ssr:hovedgruppe" v="markslag" />
		<tag k="ssr:stedsnr" v="109731" />
		<tag k="ssr:type" v="myr" />
	</node>
	<node lat="70.06205278011352" lon="20.642961098809316" id="-43991">
		<tag k="name" v="Flynderelva" />
		<tag k="ssr:date" v="2019-12-27" />
		<tag k="ssr:gruppe" v="rennendeVann" />
		<tag k="ssr:hovedgruppe" v="ferskvann" />
		<tag k="ssr:stedsnr" v="109734" />
		<tag k="ssr:type" v="bekk" />
		<tag k="waterway" v="stream" />
	</node>
	<node lat="70.08066666762565" lon="20.57607776255301" id="-43992">
		<tag k="name" v="Storskogelva" />
		<tag k="ssr:date" v="2019-12-27" />
		<tag k="ssr:gruppe" v="rennendeVann" />
		<tag k="ssr:hovedgruppe" v="ferskvann" />
		<tag k="ssr:stedsnr" v="109773" />
		<tag k="ssr:type" v="bekk" />
		<tag k="waterway" v="stream" />
	</node>
	<node lat="70.16790555743215" lon="20.63973610506029" id="-43993">
		<tag k="name" v="Djupvannet" />
		<tag k="natural" v="water" />
		<tag k="ssr:date" v="2019-12-27" />
		<tag k="ssr:gruppe" v="stilleståendeVann" />
		<tag k="ssr:hovedgruppe" v="ferskvann" />
		<tag k="ssr:stedsnr" v="109904" />
		<tag k="ssr:type" v="tjern" />
	</node>
	<node lat="70.19867500250056" lon="20.685194416475706" id="-43994">
		<tag k="name" v="Haugan" />
		<tag k="natural" v="hill" />
		<tag k="place" v="locality" />
		<tag k="ssr:date" v="2019-12-27" />
		<tag k="ssr:gruppe" v="høyder" />
		<tag k="ssr:hovedgruppe" v="terreng" />
		<tag k="ssr:stedsnr" v="109919" />
		<tag k="ssr:type" v="haug" />
	</node>
	<node lat="69.97292499973692" lon="20.970436099337075" id="-43995">
		<tag k="name" v="Bjørndalen" />
		<tag k="natural" v="valley" />
		<tag k="place" v="locality" />
		<tag k="ssr:date" v="2019-12-27" />
		<tag k="ssr:gruppe" v="senkninger" />
		<tag k="ssr:hovedgruppe" v="terreng" />
		<tag k="ssr:stedsnr" v="109808" />
		<tag k="ssr:type" v="dal" />
	</node>
	<node lat="70.05414722266539" lon="20.430338869164025" id="-43996">
		<tag k="name" v="Brudesløret" />
		<tag k="natural" v="cliff" />
		<tag k="ssr:date" v="2019-12-27" />
		<tag k="ssr:gruppe" v="terrengdetaljer" />
		<tag k="ssr:hovedgruppe" v="terreng" />
		<tag k="ssr:stedsnr" v="109873" />
		<tag k="ssr:type" v="stup" />
	</node>
	<node lat="70.05311111537588" lon="20.428527754214503" id="-43997">
		<tag k="name" v="Revelva" />
		<tag k="ssr:date" v="2019-12-27" />
		<tag k="ssr:gruppe" v="rennendeVann" />
		<tag k="ssr:hovedgruppe" v="ferskvann" />
		<tag k="ssr:stedsnr" v="109874" />
		<tag k="ssr:type" v="bekk" />
		<tag k="waterway" v="stream" />
	</node>
	<node lat="70.03754999814188" lon="20.539449971504546" id="-43998">
		<tag k="name" v="Hollberget" />
		<tag k="natural" v="hill" />
		<tag k="place" v="locality" />
		<tag k="ssr:date" v="2019-12-27" />
		<tag k="ssr:gruppe" v="høyder" />
		<tag k="ssr:hovedgruppe" v="terreng" />
		<tag k="ssr:stedsnr" v="109875" />
		<tag k="ssr:type" v="berg" />
	</node>
	<node lat="70.0739694477278" lon="20.387413864997008" id="-43999">
		<tag k="name" v="Øverloftet" />
		<tag k="natural" v="slope" />
		<tag k="place" v="locality" />
		<tag k="ssr:date" v="2019-12-27" />
		<tag k="ssr:gruppe" v="skråninger" />
		<tag k="ssr:hovedgruppe" v="terreng" />
		<tag k="ssr:stedsnr" v="109876" />
		<tag k="ssr:type" v="li" />
	</node>
	<node lat="70.05330833737408" lon="20.466241663665823" id="-44000">
		<tag k="name" v="Lomvannet" />
		<tag k="natural" v="water" />
		<tag k="ssr:date" v="2019-12-27" />
		<tag k="ssr:gruppe" v="stilleståendeVann" />
		<tag k="ssr:hovedgruppe" v="ferskvann" />
		<tag k="ssr:stedsnr" v="109884" />
		<tag k="ssr:type" v="tjern" />
	</node>
	<node lat="70.09072499874306" lon="20.464830525690825" id="-44001">
		<tag k="name" v="Gamhaugan" />
		<tag k="natural" v="hill" />
		<tag k="place" v="locality" />
		<tag k="ssr:date" v="2019-12-27" />
		<tag k="ssr:gruppe" v="høyder" />
		<tag k="ssr:hovedgruppe" v="terreng" />
		<tag k="ssr:stedsnr" v="110006" />
		<tag k="ssr:type" v="haug" />
	</node>
	<node lat="70.225358334684" lon="20.75738053477359" id="-44002">
		<tag k="name" v="Langkeila" />
		<tag k="natural" v="bay" />
		<tag k="ssr:date" v="2019-12-27" />
		<tag k="ssr:gruppe" v="kystkontur" />
		<tag k="ssr:hovedgruppe" v="sjø" />
		<tag k="ssr:stedsnr" v="110124" />
		<tag k="ssr:type" v="vikISjø" />
	</node>
	<node lat="70.010008335849" lon="20.954133314512344" id="-44003">
		<tag k="name" v="Doaŋgeroggi" />
		<tag k="name:se" v="Doaŋgeroggi" />
		<tag k="natural" v="valley" />
		<tag k="place" v="locality" />
		<tag k="ssr:date" v="2019-12-27" />
		<tag k="ssr:gruppe" v="senkninger" />
		<tag k="ssr:hovedgruppe" v="terreng" />
		<tag k="ssr:stedsnr" v="110311" />
		<tag k="ssr:type" v="søkk" />
	</node>
	<node lat="70.19566667183788" lon="20.53460275470712" id="-44004">
		<tag k="name" v="Beritlia" />
		<tag k="natural" v="slope" />
		<tag k="place" v="locality" />
		<tag k="ssr:date" v="2019-12-27" />
		<tag k="ssr:gruppe" v="skråninger" />
		<tag k="ssr:hovedgruppe" v="terreng" />
		<tag k="ssr:stedsnr" v="110315" />
		<tag k="ssr:type" v="li" />
	</node>
	<node lat="70.19030833473826" lon="20.492261101878892" id="-44005">
		<tag k="name" v="Storbolgerhaugen" />
		<tag k="natural" v="hill" />
		<tag k="place" v="locality" />
		<tag k="ssr:date" v="2019-12-27" />
		<tag k="ssr:gruppe" v="høyder" />
		<tag k="ssr:hovedgruppe" v="terreng" />
		<tag k="ssr:stedsnr" v="110320" />
		<tag k="ssr:type" v="haug" />
	</node>
	<node lat="69.93261111255232" lon="20.889408320332368" id="-44006">
		<tag k="name" v="Nylund" />
		<tag k="place" v="isolated_dwelling" />
		<tag k="ssr:date" v="2019-12-27" />
		<tag k="ssr:gruppe" v="bolighus" />
		<tag k="ssr:hovedgruppe" v="bebyggelse" />
		<tag k="ssr:stedsnr" v="110323" />
		<tag k="ssr:type" v="fritidsbolig" />
	</node>
	<node lat="69.94780277450323" lon="20.94726385993022" id="-44007">
		<tag k="name" v="Permarjaplassen" />
		<tag k="natural" v="slope" />
		<tag k="place" v="locality" />
		<tag k="ssr:date" v="2019-12-27" />
		<tag k="ssr:gruppe" v="skråninger" />
		<tag k="ssr:hovedgruppe" v="terreng" />
		<tag k="ssr:stedsnr" v="110325" />
		<tag k="ssr:type" v="bakke" />
	</node>
	<node lat="69.88576944526973" lon="20.564952749380012" id="-44008">
		<tag k="name" v="Melen" />
		<tag k="place" v="locality" />
		<tag k="ssr:date" v="2019-12-27" />
		<tag k="ssr:gruppe" v="løsmasseavsetninger" />
		<tag k="ssr:hovedgruppe" v="markslag" />
		<tag k="ssr:stedsnr" v="110329" />
		<tag k="ssr:type" v="elvemel" />
	</node>
	<node lat="69.99298333510384" lon="20.91150829951821" id="-44009">
		<tag k="name" v="Laksenotneset" />
		<tag k="natural" v="cape" />
		<tag k="ssr:date" v="2019-12-27" />
		<tag k="ssr:gruppe" v="kystkontur" />
		<tag k="ssr:hovedgruppe" v="sjø" />
		<tag k="ssr:stedsnr" v="110332" />
		<tag k="ssr:type" v="nesISjø" />
	</node>
	<node lat="70.18754444321473" lon="20.449874984022962" id="-44010">
		<tag k="fixme" v="consider seamark:type=rock or natural=shoal" />
		<tag k="name" v="Steinen" />
		<tag k="place" v="islet" />
		<tag k="ssr:date" v="2019-12-27" />
		<tag k="ssr:gruppe" v="grunnerISjø" />
		<tag k="ssr:hovedgruppe" v="sjø" />
		<tag k="ssr:stedsnr" v="110272" />
		<tag k="ssr:type" v="skjærISjø" />
	</node>
	<node lat="69.94760555254719" lon="20.666499988724887" id="-44011">
		<tag k="name" v="Bøtthaugbakken" />
		<tag k="natural" v="slope" />
		<tag k="place" v="locality" />
		<tag k="ssr:date" v="2019-12-27" />
		<tag k="ssr:gruppe" v="skråninger" />
		<tag k="ssr:hovedgruppe" v="terreng" />
		<tag k="ssr:stedsnr" v="110596" />
		<tag k="ssr:type" v="bakke" />
	</node>
	<node lat="70.03714444861232" lon="20.589719421972937" id="-44012">
		<tag k="name" v="Kråkebergan" />
		<tag k="natural" v="hill" />
		<tag k="place" v="locality" />
		<tag k="ssr:date" v="2019-12-27" />
		<tag k="ssr:gruppe" v="høyder" />
		<tag k="ssr:hovedgruppe" v="terreng" />
		<tag k="ssr:stedsnr" v="110689" />
		<tag k="ssr:type" v="berg" />
	</node>
	<node lat="70.05558055776454" lon="20.56718331251435" id="-44013">
		<tag k="fixme" v="consider natural=peak for the most distinct mountains in the district" />
		<tag k="name" v="Lillefjellet" />
		<tag k="natural" v="hill" />
		<tag k="place" v="locality" />
		<tag k="ssr:date" v="2019-12-27" />
		<tag k="ssr:gruppe" v="høyder" />
		<tag k="ssr:hovedgruppe" v="terreng" />
		<tag k="ssr:stedsnr" v="110697" />
		<tag k="ssr:type" v="fjell" />
	</node>
	<node lat="70.1123666705451" lon="20.66823332572692" id="-44014">
		<tag k="name" v="Grunnfjordvannet" />
		<tag k="natural" v="water" />
		<tag k="ssr:date" v="2021-06-08" />
		<tag k="ssr:gruppe" v="stilleståendeVann" />
		<tag k="ssr:hovedgruppe" v="ferskvann" />
		<tag k="ssr:stedsnr" v="140038" />
		<tag k="ssr:type" v="tjern" />
	</node>
	<node lat="70.13705833404889" lon="20.870438877151628" id="-44015">
		<tag k="name" v="Molneset" />
		<tag k="natural" v="cape" />
		<tag k="ssr:date" v="2021-06-08" />
		<tag k="ssr:gruppe" v="kystkontur" />
		<tag k="ssr:hovedgruppe" v="sjø" />
		<tag k="ssr:stedsnr" v="140041" />
		<tag k="ssr:type" v="nesISjø" />
	</node>
	<node lat="70.1286027817961" lon="20.881299969769543" id="-44016">
		<tag k="name" v="Tennkeilvika" />
		<tag k="natural" v="bay" />
		<tag k="ssr:date" v="2021-06-08" />
		<tag k="ssr:gruppe" v="kystkontur" />
		<tag k="ssr:hovedgruppe" v="sjø" />
		<tag k="ssr:stedsnr" v="140042" />
		<tag k="ssr:type" v="vikISjø" />
	</node>
	<node lat="70.23080833148461" lon="20.75564721101288" id="-44017">
		<tag k="name" v="Klubben" />
		<tag k="natural" v="cape" />
		<tag k="ssr:date" v="2021-06-08" />
		<tag k="ssr:gruppe" v="kystkontur" />
		<tag k="ssr:hovedgruppe" v="sjø" />
		<tag k="ssr:stedsnr" v="140089" />
		<tag k="ssr:type" v="nesISjø" />
	</node>
	<node lat="70.06186111000912" lon="20.462763874974602" id="-44018">
		<tag k="name" v="Bjørnbåsen" />
		<tag k="natural" v="valley" />
		<tag k="place" v="locality" />
		<tag k="ssr:date" v="2019-12-27" />
		<tag k="ssr:gruppe" v="senkninger" />
		<tag k="ssr:hovedgruppe" v="terreng" />
		<tag k="ssr:stedsnr" v="140185" />
		<tag k="ssr:type" v="botn" />
	</node>
	<node lat="70.09288611662815" lon="20.827480529560475" id="-44019">
		<tag k="fixme" v="consider natural=peak for the most distinct mountains in the district" />
		<tag k="name" v="Langnestinden" />
		<tag k="natural" v="hill" />
		<tag k="place" v="locality" />
		<tag k="ssr:date" v="2019-12-27" />
		<tag k="ssr:gruppe" v="høyder" />
		<tag k="ssr:hovedgruppe" v="terreng" />
		<tag k="ssr:stedsnr" v="140197" />
		<tag k="ssr:type" v="ås" />
	</node>
	<node lat="69.99396388839332" lon="20.746741637698776" id="-44020">
		<tag k="name" v="Steinbakkelva" />
		<tag k="ssr:date" v="2019-12-27" />
		<tag k="ssr:gruppe" v="rennendeVann" />
		<tag k="ssr:hovedgruppe" v="ferskvann" />
		<tag k="ssr:stedsnr" v="140642" />
		<tag k="ssr:type" v="elv" />
		<tag k="waterway" v="river" />
	</node>
	<node lat="69.98223055633268" lon="20.49874999343705" id="-44021">
		<tag k="name" v="Lyngsbåen" />
		<tag k="natural" v="shoal" />
		<tag k="ssr:date" v="2019-12-27" />
		<tag k="ssr:gruppe" v="grunnerISjø" />
		<tag k="ssr:hovedgruppe" v="sjø" />
		<tag k="ssr:stedsnr" v="140586" />
		<tag k="ssr:type" v="klakkISjø" />
	</node>
	<node lat="69.95498889332193" lon="20.61114443629265" id="-44022">
		<tag k="name" v="Klubben" />
		<tag k="natural" v="cape" />
		<tag k="ssr:date" v="2019-12-27" />
		<tag k="ssr:gruppe" v="kystkontur" />
		<tag k="ssr:hovedgruppe" v="sjø" />
		<tag k="ssr:stedsnr" v="140592" />
		<tag k="ssr:type" v="nesISjø" />
	</node>
	<node lat="69.96743333085773" lon="20.755536082726454" id="-44023">
		<tag k="name" v="Solli" />
		<tag k="place" v="farm" />
		<tag k="ssr:date" v="2019-12-27" />
		<tag k="ssr:gruppe" v="gardsbebyggelse" />
		<tag k="ssr:hovedgruppe" v="bebyggelse" />
		<tag k="ssr:stedsnr" v="140597" />
		<tag k="ssr:type" v="bruk" />
	</node>
	<node lat="70.04875277408003" lon="20.64208609536873" id="-44024">
		<tag k="bay" v="fjord" />
		<tag k="loc_name:se" v="Rudnesvuotna" />
		<tag k="name" v="Grunnfjorden" />
		<tag k="name:no" v="Grunnfjorden" />
		<tag k="natural" v="bay" />
		<tag k="ssr:date" v="2019-12-27" />
		<tag k="ssr:gruppe" v="farvann" />
		<tag k="ssr:hovedgruppe" v="sjø" />
		<tag k="ssr:stedsnr" v="141505" />
		<tag k="ssr:type" v="fjord" />
	</node>
	<node lat="69.9010833323461" lon="20.768877745912405" id="-44026">
		<tag k="name" v="Klakken" />
		<tag k="natural" v="shoal" />
		<tag k="place" v="locality" />
		<tag k="ssr:date" v="2019-12-27" />
		<tag k="ssr:gruppe" v="grunnerISjø" />
		<tag k="ssr:hovedgruppe" v="sjø" />
		<tag k="ssr:stedsnr" v="145735" />
		<tag k="ssr:type" v="grunneISjø" />
	</node>
	<node lat="70.11554166804501" lon="20.75305553623126" id="-44027">
		<tag k="name" v="Stykkenes" />
		<tag k="place" v="farm" />
		<tag k="ssr:date" v="2019-12-27" />
		<tag k="ssr:gruppe" v="gardsbebyggelse" />
		<tag k="ssr:hovedgruppe" v="bebyggelse" />
		<tag k="ssr:stedsnr" v="150171" />
		<tag k="ssr:type" v="bruk" />
	</node>
	<node lat="70.0256055554891" lon="20.856497187907774" id="-44028">
		<tag k="name" v="Torvberget" />
		<tag k="natural" v="cape" />
		<tag k="ssr:date" v="2021-06-08" />
		<tag k="ssr:gruppe" v="kystkontur" />
		<tag k="ssr:hovedgruppe" v="sjø" />
		<tag k="ssr:stedsnr" v="150806" />
		<tag k="ssr:type" v="nesISjø" />
	</node>
	<node lat="69.96692221989368" lon="20.680130533157524" id="-44029">
		<tag k="name" v="Gammelsandnes" />
		<tag k="place" v="locality" />
		<tag k="ssr:date" v="2019-12-27" />
		<tag k="ssr:gruppe" v="bolighus" />
		<tag k="ssr:hovedgruppe" v="bebyggelse" />
		<tag k="ssr:stedsnr" v="165866" />
		<tag k="ssr:type" v="gammelBosettingsplass" />
	</node>
	<node lat="69.90514166959656" lon="20.608888875043867" id="-44030">
		<tag k="name" v="Berlevika" />
		<tag k="natural" v="bay" />
		<tag k="ssr:date" v="2019-12-27" />
		<tag k="ssr:gruppe" v="kystkontur" />
		<tag k="ssr:hovedgruppe" v="sjø" />
		<tag k="ssr:stedsnr" v="166809" />
		<tag k="ssr:type" v="vikISjø" />
	</node>
	<node lat="70.16957778226042" lon="20.41107497716717" id="-44031">
		<tag k="name" v="Kvitberg" />
		<tag k="natural" v="cape" />
		<tag k="ssr:date" v="2019-12-27" />
		<tag k="ssr:gruppe" v="kystkontur" />
		<tag k="ssr:hovedgruppe" v="sjø" />
		<tag k="ssr:stedsnr" v="169165" />
		<tag k="ssr:type" v="nesISjø" />
	</node>
	<node lat="70.12726666592182" lon="20.882888870228175" id="-44032">
		<tag k="name" v="Tennkeilodden" />
		<tag k="natural" v="cape" />
		<tag k="ssr:date" v="2021-06-08" />
		<tag k="ssr:gruppe" v="kystkontur" />
		<tag k="ssr:hovedgruppe" v="sjø" />
		<tag k="ssr:stedsnr" v="170203" />
		<tag k="ssr:type" v="nesISjø" />
	</node>
	<node lat="70.06115555387737" lon="20.996322201738693" id="-44033">
		<tag k="name" v="Engnes" />
		<tag k="natural" v="cape" />
		<tag k="ssr:date" v="2019-12-27" />
		<tag k="ssr:gruppe" v="kystkontur" />
		<tag k="ssr:hovedgruppe" v="sjø" />
		<tag k="ssr:stedsnr" v="170205" />
		<tag k="ssr:type" v="nesISjø" />
	</node>
	<node lat="70.11563333176687" lon="20.749363862546822" id="-44034">
		<tag k="name" v="Nyvoll" />
		<tag k="place" v="isolated_dwelling" />
		<tag k="ssr:date" v="2019-12-27" />
		<tag k="ssr:gruppe" v="bolighus" />
		<tag k="ssr:hovedgruppe" v="bebyggelse" />
		<tag k="ssr:stedsnr" v="170210" />
		<tag k="ssr:type" v="fritidsbolig" />
	</node>
	<node lat="70.10199444543522" lon="20.924099983623098" id="-44035">
		<tag k="name" v="Novefloget" />
		<tag k="natural" v="hill" />
		<tag k="place" v="locality" />
		<tag k="ssr:date" v="2019-12-27" />
		<tag k="ssr:gruppe" v="høyder" />
		<tag k="ssr:hovedgruppe" v="terreng" />
		<tag k="ssr:stedsnr" v="170212" />
		<tag k="ssr:type" v="berg" />
	</node>
	<node lat="70.11579166726641" lon="20.901763870761872" id="-44036">
		<tag k="name" v="Midterneset" />
		<tag k="natural" v="cape" />
		<tag k="ssr:date" v="2019-12-27" />
		<tag k="ssr:gruppe" v="kystkontur" />
		<tag k="ssr:hovedgruppe" v="sjø" />
		<tag k="ssr:stedsnr" v="170220" />
		<tag k="ssr:type" v="nesISjø" />
	</node>
	<node lat="70.05283889162585" lon="21.241972208656705" id="-44037">
		<tag k="name" v="Bukkelia" />
		<tag k="natural" v="slope" />
		<tag k="place" v="locality" />
		<tag k="ssr:date" v="2019-12-27" />
		<tag k="ssr:gruppe" v="skråninger" />
		<tag k="ssr:hovedgruppe" v="terreng" />
		<tag k="ssr:stedsnr" v="170255" />
		<tag k="ssr:type" v="li" />
	</node>
	<node lat="70.01559444503323" lon="20.9496888727514" id="-44038">
		<tag k="loc_name:se" v="Goaskimjávri" />
		<tag k="name" v="Godskejávri" />
		<tag k="name:se" v="Godskejávri" />
		<tag k="natural" v="water" />
		<tag k="ssr:date" v="2019-12-27" />
		<tag k="ssr:gruppe" v="stilleståendeVann" />
		<tag k="ssr:hovedgruppe" v="ferskvann" />
		<tag k="ssr:stedsnr" v="170164" />
		<tag k="ssr:type" v="tjern" />
	</node>
	<node lat="70.02554444662725" lon="20.967686098632285" id="-44039">
		<tag k="fixme" v="consider natural=peak for the most distinct mountains in the district" />
		<tag k="name" v="Anna Malenafjellet" />
		<tag k="natural" v="hill" />
		<tag k="place" v="locality" />
		<tag k="ssr:date" v="2019-12-27" />
		<tag k="ssr:gruppe" v="høyder" />
		<tag k="ssr:hovedgruppe" v="terreng" />
		<tag k="ssr:stedsnr" v="170165" />
		<tag k="ssr:type" v="fjell" />
	</node>
	<node lat="70.03573581384568" lon="20.986108664319932" id="-44040">
		<tag k="name" v="Strømmeberget" />
		<tag k="natural" v="hill" />
		<tag k="place" v="locality" />
		<tag k="ssr:date" v="2019-12-27" />
		<tag k="ssr:gruppe" v="høyder" />
		<tag k="ssr:hovedgruppe" v="terreng" />
		<tag k="ssr:stedsnr" v="170168" />
		<tag k="ssr:type" v="berg" />
	</node>
	<node lat="70.03064722425259" lon="20.973449988660178" id="-44041">
		<tag k="amenity" v="ferry_terminal" />
		<tag k="name" v="Skjervøy fergeleie" />
		<tag k="ssr:date" v="2019-12-27" />
		<tag k="ssr:gruppe" v="sjøfart" />
		<tag k="ssr:hovedgruppe" v="infrastruktur" />
		<tag k="ssr:stedsnr" v="170169" />
		<tag k="ssr:type" v="ferjekai" />
	</node>
	<node lat="69.98915555132456" lon="20.973030542418975" id="-44042">
		<tag k="name" v="Kalvelva" />
		<tag k="ssr:date" v="2019-12-27" />
		<tag k="ssr:gruppe" v="rennendeVann" />
		<tag k="ssr:hovedgruppe" v="ferskvann" />
		<tag k="ssr:stedsnr" v="170306" />
		<tag k="ssr:type" v="bekk" />
		<tag k="waterway" v="stream" />
	</node>
	<node lat="69.99506666950897" lon="21.002958314166584" id="-44043">
		<tag k="fixme" v="consider natural=peak for the most distinct mountains in the district" />
		<tag k="name" v="Vestbergan" />
		<tag k="natural" v="hill" />
		<tag k="place" v="locality" />
		<tag k="ssr:date" v="2019-12-27" />
		<tag k="ssr:gruppe" v="høyder" />
		<tag k="ssr:hovedgruppe" v="terreng" />
		<tag k="ssr:stedsnr" v="170366" />
		<tag k="ssr:type" v="fjell" />
	</node>
	<node lat="69.99673055911106" lon="21.036591646659016" id="-44044">
		<tag k="name" v="Ringneset" />
		<tag k="natural" v="cape" />
		<tag k="ssr:date" v="2019-12-27" />
		<tag k="ssr:gruppe" v="kystkontur" />
		<tag k="ssr:hovedgruppe" v="sjø" />
		<tag k="ssr:stedsnr" v="170373" />
		<tag k="ssr:type" v="nesISjø" />
	</node>
	<node lat="69.9699805531894" lon="20.626719430336394" id="-44045">
		<tag k="name" v="Irvineset" />
		<tag k="natural" v="cape" />
		<tag k="ssr:date" v="2019-12-27" />
		<tag k="ssr:gruppe" v="kystkontur" />
		<tag k="ssr:hovedgruppe" v="sjø" />
		<tag k="ssr:stedsnr" v="170602" />
		<tag k="ssr:type" v="nesISjø" />
	</node>
	<node lat="69.97142499861589" lon="20.62763608091857" id="-44046">
		<tag k="name" v="Storskorra" />
		<tag k="natural" v="valley" />
		<tag k="place" v="locality" />
		<tag k="ssr:date" v="2019-12-27" />
		<tag k="ssr:gruppe" v="senkninger" />
		<tag k="ssr:hovedgruppe" v="terreng" />
		<tag k="ssr:stedsnr" v="170605" />
		<tag k="ssr:type" v="skar" />
	</node>
	<node lat="69.88950833360066" lon="20.63646386792712" id="-44047">
		<tag k="name" v="Flogan" />
		<tag k="place" v="locality" />
		<tag k="ssr:date" v="2019-12-27" />
		<tag k="ssr:gruppe" v="terrengdetaljer" />
		<tag k="ssr:hovedgruppe" v="terreng" />
		<tag k="ssr:stedsnr" v="170606" />
		<tag k="ssr:type" v="hylle" />
	</node>
	<node lat="70.03682221900924" lon="20.578674987021945" id="-44048">
		<tag k="name" v="Bromlia" />
		<tag k="natural" v="slope" />
		<tag k="place" v="locality" />
		<tag k="ssr:date" v="2019-12-27" />
		<tag k="ssr:gruppe" v="skråninger" />
		<tag k="ssr:hovedgruppe" v="terreng" />
		<tag k="ssr:stedsnr" v="170662" />
		<tag k="ssr:type" v="li" />
	</node>
	<node lat="69.98055000541915" lon="20.992411078754518" id="-44049">
		<tag k="name" v="Bergan" />
		<tag k="natural" v="hill" />
		<tag k="place" v="locality" />
		<tag k="ssr:date" v="2019-12-27" />
		<tag k="ssr:gruppe" v="høyder" />
		<tag k="ssr:hovedgruppe" v="terreng" />
		<tag k="ssr:stedsnr" v="170868" />
		<tag k="ssr:type" v="berg" />
	</node>
	<node lat="70.04543333373607" lon="20.68312775198363" id="-44050">
		<tag k="name" v="Loftbergan" />
		<tag k="natural" v="hill" />
		<tag k="place" v="locality" />
		<tag k="ssr:date" v="2019-12-27" />
		<tag k="ssr:gruppe" v="høyder" />
		<tag k="ssr:hovedgruppe" v="terreng" />
		<tag k="ssr:stedsnr" v="170872" />
		<tag k="ssr:type" v="berg" />
	</node>
	<node lat="69.92720833638982" lon="20.846858305011875" id="-44051">
		<tag k="name" v="Torvehaugen" />
		<tag k="natural" v="hill" />
		<tag k="place" v="locality" />
		<tag k="ssr:date" v="2019-12-27" />
		<tag k="ssr:gruppe" v="høyder" />
		<tag k="ssr:hovedgruppe" v="terreng" />
		<tag k="ssr:stedsnr" v="170903" />
		<tag k="ssr:type" v="haug" />
	</node>
	<node lat="69.96578055786823" lon="20.75341110145107" id="-44052">
		<tag k="name" v="Storsandnes" />
		<tag k="place" v="locality" />
		<tag k="ssr:date" v="2019-12-27" />
		<tag k="ssr:gruppe" v="bolighus" />
		<tag k="ssr:hovedgruppe" v="bebyggelse" />
		<tag k="ssr:stedsnr" v="170907" />
		<tag k="ssr:type" v="gammelBosettingsplass" />
	</node>
	<node lat="69.9960444453531" lon="20.904055535351063" id="-44053">
		<tag k="name" v="Flua" />
		<tag k="place" v="locality" />
		<tag k="seamark:type" v="rock" />
		<tag k="ssr:date" v="2019-12-27" />
		<tag k="ssr:gruppe" v="grunnerISjø" />
		<tag k="ssr:hovedgruppe" v="sjø" />
		<tag k="ssr:stedsnr" v="171306" />
		<tag k="ssr:type" v="båeISjø" />
	</node>
	<node lat="70.00604166288264" lon="20.883858319570113" id="-44054">
		<tag k="name" v="Brenthaugan" />
		<tag k="natural" v="hill" />
		<tag k="place" v="locality" />
		<tag k="ssr:date" v="2019-12-27" />
		<tag k="ssr:gruppe" v="høyder" />
		<tag k="ssr:hovedgruppe" v="terreng" />
		<tag k="ssr:stedsnr" v="171310" />
		<tag k="ssr:type" v="haug" />
	</node>
	<node lat="70.08080277922386" lon="20.36958888305583" id="-44055">
		<tag k="fixme" v="consider seamark:type=rock or natural=shoal" />
		<tag k="name" v="Rødmannen" />
		<tag k="place" v="islet" />
		<tag k="ssr:date" v="2021-06-08" />
		<tag k="ssr:gruppe" v="grunnerISjø" />
		<tag k="ssr:hovedgruppe" v="sjø" />
		<tag k="ssr:stedsnr" v="261095" />
		<tag k="ssr:type" v="skjærISjø" />
	</node>
	<node lat="69.96264999715133" lon="20.683111085020784" id="-44056">
		<tag k="name" v="Kåvikneset" />
		<tag k="natural" v="cape" />
		<tag k="ssr:date" v="2019-12-27" />
		<tag k="ssr:gruppe" v="kystkontur" />
		<tag k="ssr:hovedgruppe" v="sjø" />
		<tag k="ssr:stedsnr" v="261581" />
		<tag k="ssr:type" v="nesISjø" />
	</node>
	<node lat="69.9787805528932" lon="20.632738863582816" id="-44057">
		<tag k="name" v="Soleng" />
		<tag k="place" v="farm" />
		<tag k="ssr:date" v="2019-12-27" />
		<tag k="ssr:gruppe" v="gardsbebyggelse" />
		<tag k="ssr:hovedgruppe" v="bebyggelse" />
		<tag k="ssr:stedsnr" v="261592" />
		<tag k="ssr:type" v="bruk" />
	</node>
	<node lat="69.964191667929" lon="20.65634999099797" id="-44058">
		<tag k="name" v="Flagdevannet" />
		<tag k="natural" v="water" />
		<tag k="ssr:date" v="2019-12-27" />
		<tag k="ssr:gruppe" v="stilleståendeVann" />
		<tag k="ssr:hovedgruppe" v="ferskvann" />
		<tag k="ssr:stedsnr" v="261612" />
		<tag k="ssr:type" v="tjern" />
	</node>
	<node lat="69.97951944439538" lon="20.968847192692596" id="-44059">
		<tag k="name" v="Skansevannet" />
		<tag k="natural" v="water" />
		<tag k="ssr:date" v="2019-12-27" />
		<tag k="ssr:gruppe" v="stilleståendeVann" />
		<tag k="ssr:hovedgruppe" v="ferskvann" />
		<tag k="ssr:stedsnr" v="261616" />
		<tag k="ssr:type" v="tjern" />
	</node>
	<node lat="70.09030278202283" lon="20.640555538703364" id="-44060">
		<tag k="loc_name:se" v="Rudnesvuonjohka" />
		<tag k="name" v="Grunnfjordelva" />
		<tag k="name:no" v="Grunnfjordelva" />
		<tag k="ssr:date" v="2019-12-27" />
		<tag k="ssr:gruppe" v="rennendeVann" />
		<tag k="ssr:hovedgruppe" v="ferskvann" />
		<tag k="ssr:stedsnr" v="262030" />
		<tag k="ssr:type" v="elv" />
		<tag k="waterway" v="river" />
	</node>
	<node lat="70.03140791924075" lon="20.84757137267597" id="-44062">
		<tag k="fixme" v="consider seamark:type=rock or natural=shoal" />
		<tag k="name" v="Storstein" />
		<tag k="place" v="islet" />
		<tag k="ssr:date" v="2019-12-27" />
		<tag k="ssr:gruppe" v="grunnerISjø" />
		<tag k="ssr:hovedgruppe" v="sjø" />
		<tag k="ssr:stedsnr" v="262222" />
		<tag k="ssr:type" v="skjærISjø" />
	</node>
	<node lat="70.0266333310621" lon="20.715244433833444" id="-44063">
		<tag k="name" v="Kåggrunnen" />
		<tag k="natural" v="shoal" />
		<tag k="place" v="locality" />
		<tag k="ssr:date" v="2019-12-27" />
		<tag k="ssr:gruppe" v="grunnerISjø" />
		<tag k="ssr:hovedgruppe" v="sjø" />
		<tag k="ssr:stedsnr" v="262225" />
		<tag k="ssr:type" v="grunneISjø" />
	</node>
	<node lat="70.05301793362425" lon="21.003515295161325" id="-44064">
		<tag k="name" v="Prestberget" />
		<tag k="natural" v="hill" />
		<tag k="place" v="locality" />
		<tag k="ssr:date" v="2019-12-27" />
		<tag k="ssr:gruppe" v="høyder" />
		<tag k="ssr:hovedgruppe" v="terreng" />
		<tag k="ssr:stedsnr" v="262229" />
		<tag k="ssr:type" v="berg" />
	</node>
	<node lat="70.05802222112926" lon="20.650694427108682" id="-44065">
		<tag k="name" v="Solbakke" />
		<tag k="place" v="farm" />
		<tag k="ssr:date" v="2019-12-27" />
		<tag k="ssr:gruppe" v="gardsbebyggelse" />
		<tag k="ssr:hovedgruppe" v="bebyggelse" />
		<tag k="ssr:stedsnr" v="262232" />
		<tag k="ssr:type" v="bruk" />
	</node>
	<node lat="69.98369166429718" lon="20.631230541532886" id="-44066">
		<tag k="name" v="Eneshaugen" />
		<tag k="natural" v="hill" />
		<tag k="place" v="locality" />
		<tag k="ssr:date" v="2021-06-08" />
		<tag k="ssr:gruppe" v="høyder" />
		<tag k="ssr:hovedgruppe" v="terreng" />
		<tag k="ssr:stedsnr" v="262614" />
		<tag k="ssr:type" v="haug" />
	</node>
	<node lat="69.98331666787028" lon="20.649699980449984" id="-44067">
		<tag k="name" v="Nystrand" />
		<tag k="place" v="farm" />
		<tag k="ssr:date" v="2019-12-27" />
		<tag k="ssr:gruppe" v="gardsbebyggelse" />
		<tag k="ssr:hovedgruppe" v="bebyggelse" />
		<tag k="ssr:stedsnr" v="262615" />
		<tag k="ssr:type" v="bruk" />
	</node>
	<node lat="69.99242777732599" lon="21.06355829881157" id="-44068">
		<tag k="name" v="Marilineset" />
		<tag k="natural" v="cape" />
		<tag k="ssr:date" v="2019-12-27" />
		<tag k="ssr:gruppe" v="kystkontur" />
		<tag k="ssr:hovedgruppe" v="sjø" />
		<tag k="ssr:stedsnr" v="262913" />
		<tag k="ssr:type" v="nesISjø" />
	</node>
	<node lat="70.1652388864352" lon="20.40923608989405" id="-44069">
		<tag k="name" v="Tennurbukta" />
		<tag k="natural" v="bay" />
		<tag k="ssr:date" v="2021-06-08" />
		<tag k="ssr:gruppe" v="kystkontur" />
		<tag k="ssr:hovedgruppe" v="sjø" />
		<tag k="ssr:stedsnr" v="262942" />
		<tag k="ssr:type" v="vikISjø" />
	</node>
	<node lat="70.21193611045868" lon="20.67047776545621" id="-44070">
		<tag k="name" v="Norddalselva" />
		<tag k="ssr:date" v="2019-12-27" />
		<tag k="ssr:gruppe" v="rennendeVann" />
		<tag k="ssr:hovedgruppe" v="ferskvann" />
		<tag k="ssr:stedsnr" v="263517" />
		<tag k="ssr:type" v="elv" />
		<tag k="waterway" v="river" />
	</node>
	<node lat="70.02246111456034" lon="21.059033299822747" id="-44071">
		<tag k="name" v="Måsefloggrunnen" />
		<tag k="natural" v="shoal" />
		<tag k="place" v="locality" />
		<tag k="ssr:date" v="2021-06-08" />
		<tag k="ssr:gruppe" v="grunnerISjø" />
		<tag k="ssr:hovedgruppe" v="sjø" />
		<tag k="ssr:stedsnr" v="272599" />
		<tag k="ssr:type" v="grunneISjø" />
	</node>
	<node lat="70.10196944046366" lon="21.117205536303345" id="-44072">
		<tag k="name" v="Skjærvøybåan" />
		<tag k="natural" v="shoal" />
		<tag k="place" v="locality" />
		<tag k="ssr:date" v="2021-06-08" />
		<tag k="ssr:gruppe" v="grunnerISjø" />
		<tag k="ssr:hovedgruppe" v="sjø" />
		<tag k="ssr:stedsnr" v="272695" />
		<tag k="ssr:type" v="grunneISjø" />
	</node>
	<node lat="70.0341537834849" lon="20.569146821066557" id="-44073">
		<tag k="name" v="Nergård" />
		<tag k="place" v="farm" />
		<tag k="ssr:date" v="2019-12-27" />
		<tag k="ssr:gruppe" v="gardsbebyggelse" />
		<tag k="ssr:hovedgruppe" v="bebyggelse" />
		<tag k="ssr:stedsnr" v="267141" />
		<tag k="ssr:type" v="bruk" />
	</node>
	<node lat="70.13192777546102" lon="20.75748888098902" id="-44074">
		<tag k="name" v="Laukeng" />
		<tag k="place" v="farm" />
		<tag k="ssr:date" v="2019-12-27" />
		<tag k="ssr:gruppe" v="gardsbebyggelse" />
		<tag k="ssr:hovedgruppe" v="bebyggelse" />
		<tag k="ssr:stedsnr" v="201048" />
		<tag k="ssr:type" v="bruk" />
	</node>
	<node lat="70.13198611433035" lon="20.557336089739028" id="-44075">
		<tag k="alt_name" v="Kattdalen" />
		<tag k="name" v="Kappdalen" />
		<tag k="natural" v="valley" />
		<tag k="place" v="locality" />
		<tag k="ssr:date" v="2019-12-27" />
		<tag k="ssr:gruppe" v="senkninger" />
		<tag k="ssr:hovedgruppe" v="terreng" />
		<tag k="ssr:stedsnr" v="201049" />
		<tag k="ssr:type" v="dal" />
	</node>
	<node lat="70.03470555488828" lon="20.578011090813725" id="-44076">
		<tag k="name" v="Bergan" />
		<tag k="natural" v="hill" />
		<tag k="place" v="locality" />
		<tag k="ssr:date" v="2019-12-27" />
		<tag k="ssr:gruppe" v="høyder" />
		<tag k="ssr:hovedgruppe" v="terreng" />
		<tag k="ssr:stedsnr" v="201202" />
		<tag k="ssr:type" v="berg" />
	</node>
	<node lat="70.04754722192176" lon="20.655849981610036" id="-44077">
		<tag k="name" v="Draugneset" />
		<tag k="natural" v="cape" />
		<tag k="ssr:date" v="2019-12-27" />
		<tag k="ssr:gruppe" v="kystkontur" />
		<tag k="ssr:hovedgruppe" v="sjø" />
		<tag k="ssr:stedsnr" v="201205" />
		<tag k="ssr:type" v="nesISjø" />
	</node>
	<node lat="70.05607499648256" lon="20.798730538687234" id="-44079">
		<tag k="alt_name" v="Litlesingla" />
		<tag k="name" v="Lille Singla" />
		<tag k="natural" v="cape" />
		<tag k="ssr:date" v="2019-12-27" />
		<tag k="ssr:gruppe" v="kystkontur" />
		<tag k="ssr:hovedgruppe" v="sjø" />
		<tag k="ssr:stedsnr" v="201210" />
		<tag k="ssr:type" v="nesISjø" />
	</node>
	<node lat="70.09498055564238" lon="20.748508322097535" id="-44080">
		<tag k="alt_name" v="Nystad" />
		<tag k="name" v="Nysted" />
		<tag k="place" v="isolated_dwelling" />
		<tag k="ssr:date" v="2019-12-27" />
		<tag k="ssr:gruppe" v="bolighus" />
		<tag k="ssr:hovedgruppe" v="bebyggelse" />
		<tag k="ssr:stedsnr" v="201194" />
		<tag k="ssr:type" v="fritidsbolig" />
	</node>
	<node lat="70.03219444716238" lon="20.559616638983474" id="-44081">
		<tag k="loc_name:se" v="Hovvanšši" />
		<tag k="name" v="Haugnes" />
		<tag k="name:no" v="Haugnes" />
		<tag k="natural" v="cape" />
		<tag k="ssr:date" v="2019-12-27" />
		<tag k="ssr:gruppe" v="kystkontur" />
		<tag k="ssr:hovedgruppe" v="sjø" />
		<tag k="ssr:stedsnr" v="201198" />
		<tag k="ssr:type" v="nesISjø" />
	</node>
	<node lat="69.99481389409758" lon="20.985358307535083" id="-44082">
		<tag k="name" v="Øya" />
		<tag k="natural" v="cape" />
		<tag k="ssr:date" v="2019-12-27" />
		<tag k="ssr:gruppe" v="kystkontur" />
		<tag k="ssr:hovedgruppe" v="sjø" />
		<tag k="ssr:stedsnr" v="201620" />
		<tag k="ssr:type" v="halvøyISjø" />
	</node>
	<node lat="70.16608056102062" lon="20.760213862872256" id="-44083">
		<tag k="fixme" v="multiple name tags, choose one and add the other to alt_name" />
		<tag k="name" v="Storelva;Kvænangselva" />
		<tag k="ssr:date" v="2021-06-08" />
		<tag k="ssr:gruppe" v="rennendeVann" />
		<tag k="ssr:hovedgruppe" v="ferskvann" />
		<tag k="ssr:stedsnr" v="202500" />
		<tag k="ssr:type" v="elv" />
		<tag k="waterway" v="river" />
	</node>
	<node lat="70.14442222026975" lon="20.855472211456622" id="-44084">
		<tag k="name" v="Omnan" />
		<tag k="natural" v="cape" />
		<tag k="ssr:date" v="2019-12-27" />
		<tag k="ssr:gruppe" v="kystkontur" />
		<tag k="ssr:hovedgruppe" v="sjø" />
		<tag k="ssr:stedsnr" v="202503" />
		<tag k="ssr:type" v="nesISjø" />
	</node>
	<node lat="69.9494861128014" lon="20.766983311468753" id="-44085">
		<tag k="name" v="Jektsetet" />
		<tag k="natural" v="beach" />
		<tag k="ssr:date" v="2019-12-27" />
		<tag k="ssr:gruppe" v="kystkontur" />
		<tag k="ssr:hovedgruppe" v="sjø" />
		<tag k="ssr:stedsnr" v="267745" />
		<tag k="ssr:type" v="strandISjø" />
	</node>
	<node lat="70.05691944757848" lon="20.49318053256485" id="-44086">
		<tag k="name" v="Sandbakken" />
		<tag k="natural" v="slope" />
		<tag k="place" v="locality" />
		<tag k="ssr:date" v="2021-06-08" />
		<tag k="ssr:gruppe" v="skråninger" />
		<tag k="ssr:hovedgruppe" v="terreng" />
		<tag k="ssr:stedsnr" v="267966" />
		<tag k="ssr:type" v="bakke" />
	</node>
	<node lat="70.05236111396222" lon="20.548077754567114" id="-44087">
		<tag k="name" v="Toftenesbukta" />
		<tag k="natural" v="bay" />
		<tag k="ssr:date" v="2021-06-08" />
		<tag k="ssr:gruppe" v="kystkontur" />
		<tag k="ssr:hovedgruppe" v="sjø" />
		<tag k="ssr:stedsnr" v="206939" />
		<tag k="ssr:type" v="vikISjø" />
	</node>
	<node lat="70.05191388620592" lon="20.51176108496234" id="-44088">
		<tag k="name" v="Revet" />
		<tag k="natural" v="shoal" />
		<tag k="place" v="locality" />
		<tag k="ssr:date" v="2019-12-27" />
		<tag k="ssr:gruppe" v="grunnerISjø" />
		<tag k="ssr:hovedgruppe" v="sjø" />
		<tag k="ssr:stedsnr" v="207613" />
		<tag k="ssr:type" v="grunneISjø" />
	</node>
	<node lat="70.04598889380559" lon="20.450227758517833" id="-44089">
		<tag k="name" v="Ytter-Bergneset" />
		<tag k="natural" v="cape" />
		<tag k="ssr:date" v="2021-06-08" />
		<tag k="ssr:gruppe" v="kystkontur" />
		<tag k="ssr:hovedgruppe" v="sjø" />
		<tag k="ssr:stedsnr" v="268910" />
		<tag k="ssr:type" v="nesISjø" />
	</node>
	<node lat="70.010475002007" lon="21.05187219510766" id="-44090">
		<tag k="alt_name" v="Småskjæran" />
		<tag k="fixme" v="consider seamark:type=rock or natural=shoal" />
		<tag k="name" v="Småskjæret" />
		<tag k="place" v="islet" />
		<tag k="ssr:date" v="2019-12-27" />
		<tag k="ssr:gruppe" v="grunnerISjø" />
		<tag k="ssr:hovedgruppe" v="sjø" />
		<tag k="ssr:stedsnr" v="228980" />
		<tag k="ssr:type" v="skjærISjø" />
	</node>
	<node lat="70.28684722111713" lon="20.824155545368324" id="-44091">
		<tag k="name" v="Vester-Votten" />
		<tag k="natural" v="shoal" />
		<tag k="place" v="locality" />
		<tag k="ssr:date" v="2021-06-08" />
		<tag k="ssr:gruppe" v="grunnerISjø" />
		<tag k="ssr:hovedgruppe" v="sjø" />
		<tag k="ssr:stedsnr" v="449447" />
		<tag k="ssr:type" v="grunneISjø" />
	</node>
	<node lat="70.03516110721483" lon="20.790824979966857" id="-44092">
		<tag k="name" v="Vittneselva" />
		<tag k="ssr:date" v="2019-12-27" />
		<tag k="ssr:gruppe" v="rennendeVann" />
		<tag k="ssr:hovedgruppe" v="ferskvann" />
		<tag k="ssr:stedsnr" v="230031" />
		<tag k="ssr:type" v="bekk" />
		<tag k="waterway" v="stream" />
	</node>
	<node lat="69.94021666715659" lon="20.63958054630494" id="-44093">
		<tag k="name" v="Gulbrandberget" />
		<tag k="natural" v="hill" />
		<tag k="place" v="locality" />
		<tag k="ssr:date" v="2019-12-27" />
		<tag k="ssr:gruppe" v="høyder" />
		<tag k="ssr:hovedgruppe" v="terreng" />
		<tag k="ssr:stedsnr" v="230529" />
		<tag k="ssr:type" v="berg" />
	</node>
	<node lat="70.04803055899838" lon="20.455819434199192" id="-44094">
		<tag k="name" v="Storfloget" />
		<tag k="natural" v="hill" />
		<tag k="place" v="locality" />
		<tag k="ssr:date" v="2019-12-27" />
		<tag k="ssr:gruppe" v="høyder" />
		<tag k="ssr:hovedgruppe" v="terreng" />
		<tag k="ssr:stedsnr" v="230879" />
		<tag k="ssr:type" v="berg" />
	</node>
	<node lat="70.08775555362652" lon="20.644099980007365" id="-44095">
		<tag k="name" v="Fossan" />
		<tag k="natural" v="waterfall" />
		<tag k="ssr:date" v="2019-12-27" />
		<tag k="ssr:gruppe" v="rennendeVann" />
		<tag k="ssr:hovedgruppe" v="ferskvann" />
		<tag k="ssr:stedsnr" v="230730" />
		<tag k="ssr:type" v="foss" />
	</node>
	<node lat="69.93083055496848" lon="20.88009720657906" id="-44096">
		<tag k="name" v="Sletta" />
		<tag k="place" v="locality" />
		<tag k="ssr:date" v="2019-12-27" />
		<tag k="ssr:gruppe" v="flater" />
		<tag k="ssr:hovedgruppe" v="terreng" />
		<tag k="ssr:stedsnr" v="230903" />
		<tag k="ssr:type" v="slette" />
	</node>
	<node lat="70.04870555644322" lon="20.483822198433067" id="-44097">
		<tag k="name" v="Nessebakken" />
		<tag k="natural" v="slope" />
		<tag k="place" v="locality" />
		<tag k="ssr:date" v="2019-12-27" />
		<tag k="ssr:gruppe" v="skråninger" />
		<tag k="ssr:hovedgruppe" v="terreng" />
		<tag k="ssr:stedsnr" v="230904" />
		<tag k="ssr:type" v="bakke" />
	</node>
	<node lat="70.11110000010864" lon="20.733380536914314" id="-44098">
		<tag k="name" v="Breitindbakkan" />
		<tag k="natural" v="slope" />
		<tag k="place" v="locality" />
		<tag k="ssr:date" v="2019-12-27" />
		<tag k="ssr:gruppe" v="skråninger" />
		<tag k="ssr:hovedgruppe" v="terreng" />
		<tag k="ssr:stedsnr" v="231205" />
		<tag k="ssr:type" v="bakke" />
	</node>
	<node lat="70.117769446812" lon="20.749233324362333" id="-44099">
		<tag k="name" v="Solneselva" />
		<tag k="ssr:date" v="2019-12-27" />
		<tag k="ssr:gruppe" v="rennendeVann" />
		<tag k="ssr:hovedgruppe" v="ferskvann" />
		<tag k="ssr:stedsnr" v="231206" />
		<tag k="ssr:type" v="bekk" />
		<tag k="waterway" v="stream" />
	</node>
	<node lat="70.11848333223361" lon="20.753966649314496" id="-44100">
		<tag k="name" v="Solnes" />
		<tag k="natural" v="cape" />
		<tag k="ssr:date" v="2019-12-27" />
		<tag k="ssr:gruppe" v="kystkontur" />
		<tag k="ssr:hovedgruppe" v="sjø" />
		<tag k="ssr:stedsnr" v="231207" />
		<tag k="ssr:type" v="nesISjø" />
	</node>
	<node lat="70.17376110877338" lon="20.79285831278144" id="-44101">
		<tag k="name" v="Midteruran" />
		<tag k="natural" v="scree" />
		<tag k="ssr:date" v="2019-12-27" />
		<tag k="ssr:gruppe" v="løsmasseavsetninger" />
		<tag k="ssr:hovedgruppe" v="markslag" />
		<tag k="ssr:stedsnr" v="231245" />
		<tag k="ssr:type" v="ur" />
	</node>
	<node lat="69.94913611523394" lon="20.93834999112574" id="-44102">
		<tag k="name" v="Skredneselva" />
		<tag k="ssr:date" v="2019-12-27" />
		<tag k="ssr:gruppe" v="rennendeVann" />
		<tag k="ssr:hovedgruppe" v="ferskvann" />
		<tag k="ssr:stedsnr" v="231184" />
		<tag k="ssr:type" v="bekk" />
		<tag k="waterway" v="stream" />
	</node>
	<node lat="69.94492777789812" lon="20.896086090041667" id="-44103">
		<tag k="name" v="Lillevannet" />
		<tag k="natural" v="water" />
		<tag k="ssr:date" v="2019-12-27" />
		<tag k="ssr:gruppe" v="stilleståendeVann" />
		<tag k="ssr:hovedgruppe" v="ferskvann" />
		<tag k="ssr:stedsnr" v="231185" />
		<tag k="ssr:type" v="tjern" />
	</node>
	<node lat="70.04208610685873" lon="20.62288054244877" id="-44104">
		<tag k="name" v="Reinbakken" />
		<tag k="natural" v="slope" />
		<tag k="place" v="locality" />
		<tag k="ssr:date" v="2019-12-27" />
		<tag k="ssr:gruppe" v="skråninger" />
		<tag k="ssr:hovedgruppe" v="terreng" />
		<tag k="ssr:stedsnr" v="231703" />
		<tag k="ssr:type" v="bakke" />
	</node>
	<node lat="70.04651389404364" lon="20.54875553226637" id="-44105">
		<tag k="name" v="Toftelia" />
		<tag k="natural" v="slope" />
		<tag k="place" v="locality" />
		<tag k="ssr:date" v="2019-12-27" />
		<tag k="ssr:gruppe" v="skråninger" />
		<tag k="ssr:hovedgruppe" v="terreng" />
		<tag k="ssr:stedsnr" v="231734" />
		<tag k="ssr:type" v="li" />
	</node>
	<node lat="69.92691667136985" lon="20.813469417875304" id="-44106">
		<tag k="name" v="Noveslettan" />
		<tag k="place" v="locality" />
		<tag k="ssr:date" v="2019-12-27" />
		<tag k="ssr:gruppe" v="flater" />
		<tag k="ssr:hovedgruppe" v="terreng" />
		<tag k="ssr:stedsnr" v="231884" />
		<tag k="ssr:type" v="slette" />
	</node>
	<node lat="69.92773889006627" lon="20.849936083923932" id="-44107">
		<tag k="name" v="Vannsjåelva" />
		<tag k="ssr:date" v="2019-12-27" />
		<tag k="ssr:gruppe" v="rennendeVann" />
		<tag k="ssr:hovedgruppe" v="ferskvann" />
		<tag k="ssr:stedsnr" v="231895" />
		<tag k="ssr:type" v="bekk" />
		<tag k="waterway" v="stream" />
	</node>
	<node lat="70.05325833615959" lon="20.651408308409955" id="-44108">
		<tag k="name" v="Heimen" />
		<tag k="place" v="farm" />
		<tag k="ssr:date" v="2021-10-20" />
		<tag k="ssr:gruppe" v="gardsbebyggelse" />
		<tag k="ssr:hovedgruppe" v="bebyggelse" />
		<tag k="ssr:stedsnr" v="450155" />
		<tag k="ssr:type" v="bruk" />
	</node>
	<node lat="70.06518888920921" lon="20.49181386257252" id="-44109">
		<tag k="name" v="Hamna" />
		<tag k="natural" v="bay" />
		<tag k="ssr:date" v="2019-12-27" />
		<tag k="ssr:gruppe" v="kystkontur" />
		<tag k="ssr:hovedgruppe" v="sjø" />
		<tag k="ssr:stedsnr" v="450156" />
		<tag k="ssr:type" v="vikISjø" />
	</node>
	<node lat="70.10059722721836" lon="20.775411082575566" id="-44110">
		<tag k="name" v="Kjelvågbukta" />
		<tag k="natural" v="bay" />
		<tag k="ssr:date" v="2021-06-08" />
		<tag k="ssr:gruppe" v="kystkontur" />
		<tag k="ssr:hovedgruppe" v="sjø" />
		<tag k="ssr:stedsnr" v="454426" />
		<tag k="ssr:type" v="vikISjø" />
	</node>
	<node lat="70.26318888778839" lon="20.600919430095175" id="-44111">
		<tag k="name" v="Rekvikklakken" />
		<tag k="natural" v="shoal" />
		<tag k="place" v="locality" />
		<tag k="ssr:date" v="2021-06-08" />
		<tag k="ssr:gruppe" v="grunnerISjø" />
		<tag k="ssr:hovedgruppe" v="sjø" />
		<tag k="ssr:stedsnr" v="454219" />
		<tag k="ssr:type" v="grunneISjø" />
	</node>
	<node lat="70.2845833336058" lon="20.70773053777639" id="-44112">
		<tag k="name" v="Larsklakk" />
		<tag k="natural" v="shoal" />
		<tag k="place" v="locality" />
		<tag k="ssr:date" v="2021-06-08" />
		<tag k="ssr:gruppe" v="grunnerISjø" />
		<tag k="ssr:hovedgruppe" v="sjø" />
		<tag k="ssr:stedsnr" v="454256" />
		<tag k="ssr:type" v="grunneISjø" />
	</node>
	<node lat="70.0432333340845" lon="21.165519415939933" id="-44114">
		<tag k="name" v="Skallen" />
		<tag k="natural" v="shoal" />
		<tag k="place" v="locality" />
		<tag k="ssr:date" v="2021-06-08" />
		<tag k="ssr:gruppe" v="grunnerISjø" />
		<tag k="ssr:hovedgruppe" v="sjø" />
		<tag k="ssr:stedsnr" v="454647" />
		<tag k="ssr:type" v="grunneISjø" />
	</node>
	<node lat="70.036008331839" lon="20.97792496416602" id="-44115">
		<tag k="amenity" v="place_of_worship" />
		<tag k="denomination" v="lutheran" />
		<tag k="name" v="Skjervøy" />
		<tag k="religion" v="christian" />
		<tag k="ssr:date" v="2019-12-27" />
		<tag k="ssr:gruppe" v="kulturinstitusjoner" />
		<tag k="ssr:hovedgruppe" v="kultur" />
		<tag k="ssr:stedsnr" v="454651" />
		<tag k="ssr:type" v="kirke" />
	</node>
	<node lat="70.10099166617788" lon="20.965883299978167" id="-44116">
		<tag k="name" v="Novibakken" />
		<tag k="natural" v="shoal" />
		<tag k="place" v="locality" />
		<tag k="ssr:date" v="2019-12-27" />
		<tag k="ssr:gruppe" v="grunnerISjø" />
		<tag k="ssr:hovedgruppe" v="sjø" />
		<tag k="ssr:stedsnr" v="454743" />
		<tag k="ssr:type" v="grunneISjø" />
	</node>
	<node lat="70.04375555996265" lon="20.96324719603434" id="-44117">
		<tag k="name" v="Mellaeidet" />
		<tag k="place" v="locality" />
		<tag k="ssr:date" v="2021-06-08" />
		<tag k="ssr:gruppe" v="kystkontur" />
		<tag k="ssr:hovedgruppe" v="sjø" />
		<tag k="ssr:stedsnr" v="454833" />
		<tag k="ssr:type" v="eidISjø" />
	</node>
	<node lat="69.97069167034485" lon="20.966958300323203" id="-44118">
		<tag k="name" v="Kobbpollneset" />
		<tag k="natural" v="cape" />
		<tag k="ssr:date" v="2019-12-27" />
		<tag k="ssr:gruppe" v="kystkontur" />
		<tag k="ssr:hovedgruppe" v="sjø" />
		<tag k="ssr:stedsnr" v="261605" />
		<tag k="ssr:type" v="nesISjø" />
	</node>
	<node lat="70.14535603664729" lon="20.773021845111064" id="-44119">
		<tag k="name" v="Nygård" />
		<tag k="place" v="farm" />
		<tag k="ssr:date" v="2019-12-27" />
		<tag k="ssr:gruppe" v="gardsbebyggelse" />
		<tag k="ssr:hovedgruppe" v="bebyggelse" />
		<tag k="ssr:stedsnr" v="262009" />
		<tag k="ssr:type" v="bruk" />
	</node>
	<node lat="70.17647777559296" lon="20.53144164834049" id="-44120">
		<tag k="name" v="Årvikdalen" />
		<tag k="natural" v="valley" />
		<tag k="place" v="locality" />
		<tag k="ssr:date" v="2019-12-27" />
		<tag k="ssr:gruppe" v="senkninger" />
		<tag k="ssr:hovedgruppe" v="terreng" />
		<tag k="ssr:stedsnr" v="262011" />
		<tag k="ssr:type" v="dal" />
	</node>
	<node lat="70.19048055549173" lon="20.651055533384337" id="-44121">
		<tag k="alt_name" v="Fjellfinnhola, nedre" />
		<tag k="name" v="Nedre Fjellfinnholla" />
		<tag k="natural" v="valley" />
		<tag k="place" v="locality" />
		<tag k="ssr:date" v="2019-12-27" />
		<tag k="ssr:gruppe" v="senkninger" />
		<tag k="ssr:hovedgruppe" v="terreng" />
		<tag k="ssr:stedsnr" v="262015" />
		<tag k="ssr:type" v="botn" />
	</node>
	<node lat="70.19269166848937" lon="20.802002747147867" id="-44122">
		<tag k="name" v="Veggen" />
		<tag k="natural" v="slope" />
		<tag k="place" v="locality" />
		<tag k="ssr:date" v="2019-12-27" />
		<tag k="ssr:gruppe" v="skråninger" />
		<tag k="ssr:hovedgruppe" v="terreng" />
		<tag k="ssr:stedsnr" v="262020" />
		<tag k="ssr:type" v="li" />
	</node>
	<node lat="70.1284861141384" lon="20.794180543037708" id="-44123">
		<tag k="name" v="Storelv" />
		<tag k="place" v="farm" />
		<tag k="ssr:date" v="2019-12-27" />
		<tag k="ssr:gruppe" v="gardsbebyggelse" />
		<tag k="ssr:hovedgruppe" v="bebyggelse" />
		<tag k="ssr:stedsnr" v="262052" />
		<tag k="ssr:type" v="bruk" />
	</node>
	<node lat="70.1601805589292" lon="20.760522208533033" id="-44124">
		<tag k="fixme" v="consider natural=peak for the most distinct mountains in the district" />
		<tag k="name" v="Tarenesfjellet" />
		<tag k="natural" v="hill" />
		<tag k="place" v="locality" />
		<tag k="ssr:date" v="2019-12-27" />
		<tag k="ssr:gruppe" v="høyder" />
		<tag k="ssr:hovedgruppe" v="terreng" />
		<tag k="ssr:stedsnr" v="262001" />
		<tag k="ssr:type" v="ås" />
	</node>
	<node lat="70.06406666911427" lon="20.492524977557796" id="-44125">
		<tag k="fixme" v="consider place=hamlet" />
		<tag k="name" v="Akkarvik" />
		<tag k="place" v="village" />
		<tag k="ssr:date" v="2019-12-27" />
		<tag k="ssr:gruppe" v="bebyggelsesområder" />
		<tag k="ssr:hovedgruppe" v="bebyggelse" />
		<tag k="ssr:stedsnr" v="262193" />
		<tag k="ssr:type" v="bygdelagBygd" />
	</node>
	<node lat="70.12370833319078" lon="20.404972210127404" id="-44126">
		<tag k="fixme" v="consider natural=peak for the most distinct mountains in the district" />
		<tag k="name" v="Holbergtinden" />
		<tag k="natural" v="hill" />
		<tag k="place" v="locality" />
		<tag k="ssr:date" v="2021-06-08" />
		<tag k="ssr:gruppe" v="høyder" />
		<tag k="ssr:hovedgruppe" v="terreng" />
		<tag k="ssr:stedsnr" v="262897" />
		<tag k="ssr:type" v="fjell" />
	</node>
	<node lat="70.21365833673784" lon="20.401908317350877" id="-44127">
		<tag k="name" v="Næringstø" />
		<tag k="natural" v="shoal" />
		<tag k="place" v="locality" />
		<tag k="ssr:date" v="2021-06-08" />
		<tag k="ssr:gruppe" v="grunnerISjø" />
		<tag k="ssr:hovedgruppe" v="sjø" />
		<tag k="ssr:stedsnr" v="266431" />
		<tag k="ssr:type" v="grunneISjø" />
	</node>
	<node lat="70.22097221809966" lon="20.412805547870914" id="-44128">
		<tag k="name" v="Juksen" />
		<tag k="natural" v="shoal" />
		<tag k="place" v="locality" />
		<tag k="ssr:date" v="2021-06-08" />
		<tag k="ssr:gruppe" v="grunnerISjø" />
		<tag k="ssr:hovedgruppe" v="sjø" />
		<tag k="ssr:stedsnr" v="266504" />
		<tag k="ssr:type" v="grunneISjø" />
	</node>
	<node lat="69.95652777576397" lon="20.48285553840321" id="-44129">
		<tag k="name" v="Borterskallen" />
		<tag k="natural" v="shoal" />
		<tag k="ssr:date" v="2019-12-27" />
		<tag k="ssr:gruppe" v="grunnerISjø" />
		<tag k="ssr:hovedgruppe" v="sjø" />
		<tag k="ssr:stedsnr" v="267738" />
		<tag k="ssr:type" v="klakkISjø" />
	</node>
	<node lat="70.04036747814844" lon="20.62091497024115" id="-44130">
		<tag k="name" v="Stakenes" />
		<tag k="place" v="hamlet" />
		<tag k="ssr:date" v="2021-06-08" />
		<tag k="ssr:gruppe" v="bebyggelsesområder" />
		<tag k="ssr:hovedgruppe" v="bebyggelse" />
		<tag k="ssr:stedsnr" v="267877" />
		<tag k="ssr:type" v="grend" />
	</node>
	<node lat="70.05063610808098" lon="20.766561102296176" id="-44131">
		<tag k="name" v="Njerran" />
		<tag k="natural" v="slope" />
		<tag k="place" v="locality" />
		<tag k="ssr:date" v="2021-06-08" />
		<tag k="ssr:gruppe" v="skråninger" />
		<tag k="ssr:hovedgruppe" v="terreng" />
		<tag k="ssr:stedsnr" v="267981" />
		<tag k="ssr:type" v="li" />
	</node>
	<node lat="70.07581666772776" lon="20.37205554405494" id="-44132">
		<tag k="name" v="Skarvholet" />
		<tag k="natural" v="bay" />
		<tag k="ssr:date" v="2021-06-08" />
		<tag k="ssr:gruppe" v="kystkontur" />
		<tag k="ssr:hovedgruppe" v="sjø" />
		<tag k="ssr:stedsnr" v="268868" />
		<tag k="ssr:type" v="vikISjø" />
	</node>
	<node lat="70.05155000561487" lon="20.76546663904116" id="-44133">
		<tag k="name" v="Njerranelva" />
		<tag k="ssr:date" v="2021-06-08" />
		<tag k="ssr:gruppe" v="rennendeVann" />
		<tag k="ssr:hovedgruppe" v="ferskvann" />
		<tag k="ssr:stedsnr" v="272103" />
		<tag k="ssr:type" v="bekk" />
		<tag k="waterway" v="stream" />
	</node>
	<node lat="70.03779444252218" lon="20.803552748059676" id="-44135">
		<tag k="name" v="Nordre Vittnesbukta" />
		<tag k="natural" v="bay" />
		<tag k="ssr:date" v="2021-06-08" />
		<tag k="ssr:gruppe" v="kystkontur" />
		<tag k="ssr:hovedgruppe" v="sjø" />
		<tag k="ssr:stedsnr" v="272802" />
		<tag k="ssr:type" v="vikISjø" />
	</node>
	<node lat="70.05138611357391" lon="20.965649991510702" id="-44136">
		<tag k="name" v="Skarvberget" />
		<tag k="natural" v="hill" />
		<tag k="place" v="locality" />
		<tag k="ssr:date" v="2021-06-08" />
		<tag k="ssr:gruppe" v="høyder" />
		<tag k="ssr:hovedgruppe" v="terreng" />
		<tag k="ssr:stedsnr" v="272795" />
		<tag k="ssr:type" v="haug" />
	</node>
	<node lat="70.11204227779695" lon="20.77182130149989" id="-44137">
		<tag k="name" v="Hamnnes" />
		<tag k="place" v="hamlet" />
		<tag k="ssr:date" v="2021-06-08" />
		<tag k="ssr:gruppe" v="bebyggelsesområder" />
		<tag k="ssr:hovedgruppe" v="bebyggelse" />
		<tag k="ssr:stedsnr" v="279469" />
		<tag k="ssr:type" v="grend" />
	</node>
	<node lat="70.00362777681984" lon="20.744736085180005" id="-44138">
		<tag k="name" v="Naskardalen" />
		<tag k="natural" v="valley" />
		<tag k="place" v="locality" />
		<tag k="ssr:date" v="2019-12-27" />
		<tag k="ssr:gruppe" v="senkninger" />
		<tag k="ssr:hovedgruppe" v="terreng" />
		<tag k="ssr:stedsnr" v="291112" />
		<tag k="ssr:type" v="dal" />
	</node>
	<node lat="70.08224166545244" lon="20.725755529672018" id="-44139">
		<tag k="name" v="Skarelva" />
		<tag k="ssr:date" v="2019-12-27" />
		<tag k="ssr:gruppe" v="rennendeVann" />
		<tag k="ssr:hovedgruppe" v="ferskvann" />
		<tag k="ssr:stedsnr" v="291003" />
		<tag k="ssr:type" v="bekk" />
		<tag k="waterway" v="stream" />
	</node>
	<node lat="69.91609166802229" lon="20.66593052569971" id="-44140">
		<tag k="name" v="Hellaren" />
		<tag k="natural" v="cape" />
		<tag k="ssr:date" v="2019-12-27" />
		<tag k="ssr:gruppe" v="kystkontur" />
		<tag k="ssr:hovedgruppe" v="sjø" />
		<tag k="ssr:stedsnr" v="291386" />
		<tag k="ssr:type" v="nesISjø" />
	</node>
	<node lat="69.9214111128883" lon="20.68108886767783" id="-44141">
		<tag k="name" v="Sandøra" />
		<tag k="place" v="locality" />
		<tag k="ssr:date" v="2019-12-27" />
		<tag k="ssr:gruppe" v="løsmasseavsetninger" />
		<tag k="ssr:hovedgruppe" v="markslag" />
		<tag k="ssr:stedsnr" v="291387" />
		<tag k="ssr:type" v="øyr" />
	</node>
	<node lat="70.13174722673216" lon="20.798736091575236" id="-44142">
		<tag k="name" v="Blomli" />
		<tag k="place" v="isolated_dwelling" />
		<tag k="ssr:date" v="2019-12-27" />
		<tag k="ssr:gruppe" v="bolighus" />
		<tag k="ssr:hovedgruppe" v="bebyggelse" />
		<tag k="ssr:stedsnr" v="291233" />
		<tag k="ssr:type" v="fritidsbolig" />
	</node>
	<node lat="70.14931666318228" lon="20.531608314544723" id="-44143">
		<tag k="name" v="Høgtindfloget" />
		<tag k="natural" v="hill" />
		<tag k="place" v="locality" />
		<tag k="ssr:date" v="2019-12-27" />
		<tag k="ssr:gruppe" v="høyder" />
		<tag k="ssr:hovedgruppe" v="terreng" />
		<tag k="ssr:stedsnr" v="291291" />
		<tag k="ssr:type" v="berg" />
	</node>
	<node lat="70.16362777516217" lon="20.50794165511323" id="-44144">
		<tag k="name" v="Storhaugen" />
		<tag k="natural" v="hill" />
		<tag k="place" v="locality" />
		<tag k="ssr:date" v="2019-12-27" />
		<tag k="ssr:gruppe" v="høyder" />
		<tag k="ssr:hovedgruppe" v="terreng" />
		<tag k="ssr:stedsnr" v="291292" />
		<tag k="ssr:type" v="haug" />
	</node>
	<node lat="70.16442778090305" lon="20.505016640197454" id="-44145">
		<tag k="name" v="Mosselva" />
		<tag k="ssr:date" v="2019-12-27" />
		<tag k="ssr:gruppe" v="rennendeVann" />
		<tag k="ssr:hovedgruppe" v="ferskvann" />
		<tag k="ssr:stedsnr" v="291295" />
		<tag k="ssr:type" v="bekk" />
		<tag k="waterway" v="stream" />
	</node>
	<node lat="69.90944999654073" lon="20.690197197364164" id="-44146">
		<tag k="name" v="Steinbiten" />
		<tag k="natural" v="shoal" />
		<tag k="place" v="locality" />
		<tag k="ssr:date" v="2019-12-27" />
		<tag k="ssr:gruppe" v="grunnerISjø" />
		<tag k="ssr:hovedgruppe" v="sjø" />
		<tag k="ssr:stedsnr" v="291409" />
		<tag k="ssr:type" v="grunneISjø" />
	</node>
	<node lat="69.89967222105223" lon="20.656233315180213" id="-44147">
		<tag k="name" v="Skjellelva" />
		<tag k="ssr:date" v="2019-12-27" />
		<tag k="ssr:gruppe" v="rennendeVann" />
		<tag k="ssr:hovedgruppe" v="ferskvann" />
		<tag k="ssr:stedsnr" v="291602" />
		<tag k="ssr:type" v="bekk" />
		<tag k="waterway" v="stream" />
	</node>
	<node lat="69.8938055529008" lon="20.554283323362988" id="-44148">
		<tag k="name" v="Lille Rakkenesbukta" />
		<tag k="natural" v="bay" />
		<tag k="ssr:date" v="2019-12-27" />
		<tag k="ssr:gruppe" v="kystkontur" />
		<tag k="ssr:hovedgruppe" v="sjø" />
		<tag k="ssr:stedsnr" v="291603" />
		<tag k="ssr:type" v="vikISjø" />
	</node>
	<node lat="70.09378055651267" lon="20.555361089248308" id="-44149">
		<tag k="name" v="Tynnstein" />
		<tag k="natural" v="stone" />
		<tag k="ssr:date" v="2019-12-27" />
		<tag k="ssr:gruppe" v="løsmasseavsetninger" />
		<tag k="ssr:hovedgruppe" v="markslag" />
		<tag k="ssr:stedsnr" v="291803" />
		<tag k="ssr:type" v="stein" />
	</node>
	<node lat="69.98179444103012" lon="20.996283321024162" id="-44150">
		<tag k="name" v="Sjåbergan" />
		<tag k="natural" v="hill" />
		<tag k="place" v="locality" />
		<tag k="ssr:date" v="2019-12-27" />
		<tag k="ssr:gruppe" v="høyder" />
		<tag k="ssr:hovedgruppe" v="terreng" />
		<tag k="ssr:stedsnr" v="291847" />
		<tag k="ssr:type" v="berg" />
	</node>
	<node lat="69.96797778000133" lon="20.661099981209848" id="-44151">
		<tag k="name" v="Lilleflagda" />
		<tag k="natural" v="hill" />
		<tag k="place" v="locality" />
		<tag k="ssr:date" v="2019-12-27" />
		<tag k="ssr:gruppe" v="høyder" />
		<tag k="ssr:hovedgruppe" v="terreng" />
		<tag k="ssr:stedsnr" v="291581" />
		<tag k="ssr:type" v="haug" />
	</node>
	<node lat="70.18897500312505" lon="20.63347220897948" id="-44152">
		<tag k="name" v="Handelssletta" />
		<tag k="natural" v="wetland" />
		<tag k="ssr:date" v="2019-12-27" />
		<tag k="ssr:gruppe" v="våtmark" />
		<tag k="ssr:hovedgruppe" v="markslag" />
		<tag k="ssr:stedsnr" v="291931" />
		<tag k="ssr:type" v="myr" />
	</node>
	<node lat="69.99773888831376" lon="21.053174972823534" id="-44153">
		<tag k="name" v="Skjærnesbakken" />
		<tag k="natural" v="slope" />
		<tag k="place" v="locality" />
		<tag k="ssr:date" v="2019-12-27" />
		<tag k="ssr:gruppe" v="skråninger" />
		<tag k="ssr:hovedgruppe" v="terreng" />
		<tag k="ssr:stedsnr" v="292189" />
		<tag k="ssr:type" v="bakke" />
	</node>
	<node lat="70.04985833057094" lon="21.225130525804" id="-44154">
		<tag k="fixme" v="consider seamark:type=rock or natural=shoal" />
		<tag k="name" v="Småskjæran" />
		<tag k="place" v="islet" />
		<tag k="ssr:date" v="2019-12-27" />
		<tag k="ssr:gruppe" v="grunnerISjø" />
		<tag k="ssr:hovedgruppe" v="sjø" />
		<tag k="ssr:stedsnr" v="292190" />
		<tag k="ssr:type" v="skjærISjø" />
	</node>
	<node lat="70.01871389185219" lon="21.077091648738595" id="-44155">
		<tag k="name" v="Røytlia" />
		<tag k="natural" v="slope" />
		<tag k="place" v="locality" />
		<tag k="ssr:date" v="2019-12-27" />
		<tag k="ssr:gruppe" v="skråninger" />
		<tag k="ssr:hovedgruppe" v="terreng" />
		<tag k="ssr:stedsnr" v="292192" />
		<tag k="ssr:type" v="li" />
	</node>
	<node lat="69.95140555771569" lon="20.612988870472677" id="-44156">
		<tag k="name" v="Pinnhollet" />
		<tag k="natural" v="bay" />
		<tag k="ssr:date" v="2019-12-27" />
		<tag k="ssr:gruppe" v="kystkontur" />
		<tag k="ssr:hovedgruppe" v="sjø" />
		<tag k="ssr:stedsnr" v="292592" />
		<tag k="ssr:type" v="vikISjø" />
	</node>
	<node lat="69.95721666841924" lon="20.612830551287765" id="-44157">
		<tag k="name" v="Klubbebukta" />
		<tag k="natural" v="bay" />
		<tag k="ssr:date" v="2019-12-27" />
		<tag k="ssr:gruppe" v="kystkontur" />
		<tag k="ssr:hovedgruppe" v="sjø" />
		<tag k="ssr:stedsnr" v="292594" />
		<tag k="ssr:type" v="vikISjø" />
	</node>
	<node lat="70.03423055910764" lon="20.53831665430635" id="-44158">
		<tag k="name" v="Haugnesodden" />
		<tag k="natural" v="cape" />
		<tag k="ssr:date" v="2019-12-27" />
		<tag k="ssr:gruppe" v="kystkontur" />
		<tag k="ssr:hovedgruppe" v="sjø" />
		<tag k="ssr:stedsnr" v="322206" />
		<tag k="ssr:type" v="nesISjø" />
	</node>
	<node lat="70.0215583312869" lon="20.94039442567115" id="-44160">
		<tag k="fixme" v="consider natural=peak for the most distinct mountains in the district" />
		<tag k="loc_name:se" v="Goaskimčohkka" />
		<tag k="name" v="Skattørfjellet" />
		<tag k="name:no" v="Skattørfjellet" />
		<tag k="natural" v="hill" />
		<tag k="place" v="locality" />
		<tag k="ssr:date" v="2021-06-08" />
		<tag k="ssr:gruppe" v="høyder" />
		<tag k="ssr:hovedgruppe" v="terreng" />
		<tag k="ssr:stedsnr" v="322133" />
		<tag k="ssr:type" v="fjell" />
	</node>
	<node lat="70.02328333145965" lon="20.79941664940333" id="-44161">
		<tag k="name" v="Vittnesvannan" />
		<tag k="natural" v="water" />
		<tag k="ssr:date" v="2021-06-08" />
		<tag k="ssr:gruppe" v="stilleståendeVann" />
		<tag k="ssr:hovedgruppe" v="ferskvann" />
		<tag k="ssr:stedsnr" v="322137" />
		<tag k="ssr:type" v="gruppeAvVann" />
		<tag k="water" v="lake" />
	</node>
	<node lat="70.06909722015168" lon="20.53782221294427" id="-44162">
		<tag k="name" v="Kjelvågen" />
		<tag k="natural" v="bay" />
		<tag k="ssr:date" v="2021-06-08" />
		<tag k="ssr:gruppe" v="kystkontur" />
		<tag k="ssr:hovedgruppe" v="sjø" />
		<tag k="ssr:stedsnr" v="322182" />
		<tag k="ssr:type" v="vikISjø" />
	</node>
	<node lat="70.07409722210524" lon="20.482416655171953" id="-44163">
		<tag k="name" v="Akkarvik" />
		<tag k="place" v="farm" />
		<tag k="ssr:date" v="2019-12-27" />
		<tag k="ssr:gruppe" v="gardsbebyggelse" />
		<tag k="ssr:hovedgruppe" v="bebyggelse" />
		<tag k="ssr:stedsnr" v="322183" />
		<tag k="ssr:type" v="bruk" />
	</node>
	<node lat="69.91261111020302" lon="20.725863856665825" id="-44164">
		<tag k="name" v="Ramnkloa" />
		<tag k="natural" v="cape" />
		<tag k="ssr:date" v="2019-12-27" />
		<tag k="ssr:gruppe" v="kystkontur" />
		<tag k="ssr:hovedgruppe" v="sjø" />
		<tag k="ssr:stedsnr" v="322535" />
		<tag k="ssr:type" v="nesISjø" />
	</node>
	<node lat="69.94244444164315" lon="20.934711095379274" id="-44165">
		<tag k="alt_name" v="Floteneset" />
		<tag k="name" v="Flåteneset" />
		<tag k="natural" v="cape" />
		<tag k="ssr:date" v="2019-12-27" />
		<tag k="ssr:gruppe" v="kystkontur" />
		<tag k="ssr:hovedgruppe" v="sjø" />
		<tag k="ssr:stedsnr" v="322589" />
		<tag k="ssr:type" v="nesISjø" />
	</node>
	<node lat="69.94520833643851" lon="20.959644417033513" id="-44166">
		<tag k="name" v="Storsteingrunnen" />
		<tag k="natural" v="shoal" />
		<tag k="place" v="locality" />
		<tag k="ssr:date" v="2019-12-27" />
		<tag k="ssr:gruppe" v="grunnerISjø" />
		<tag k="ssr:hovedgruppe" v="sjø" />
		<tag k="ssr:stedsnr" v="322590" />
		<tag k="ssr:type" v="grunneISjø" />
	</node>
</osm>
