<?xml version="1.0" encoding="UTF-8"?>
<osm version="0.6" generator="osmapis">
	<node id="313738005" lat="60.2410364" lon="10.3855051" version="6" timestamp="2022-04-17T12:03:41Z" changeset="119814080" uid="3497659" user="NKA">
		<tag k="name" v="Jevnaker" />
		<tag k="place" v="village" />
		<tag k="population" v="5011" />
		<tag k="population:date" v="2021-01-01" />
		<tag k="ref:ssb_tettsted" v="1652" />
		<tag k="source:population" v="SSB - befolkning i tettstedet" />
		<tag k="ssr:stedsnr" v="733380" />
	</node>
	<node id="852345464" lat="60.2331823" lon="10.4613691" version="4" timestamp="2022-04-17T12:03:41Z" changeset="119814080" uid="3497659" user="NKA">
		<tag k="alt_name" v="Paulsbråtan" />
		<tag k="attribution" v="Kart over Nordmarka 1934, Major H. K. Hertzberg, på grunnlag av NGO karter" />
		<tag k="name" v="Søtbakken" />
		<tag k="old_name" v="Søtebakke" />
		<tag k="place" v="farm" />
		<tag k="source" v="Kart Nordmarka 1934 (out of copyright map)" />
		<tag k="ssr:stedsnr" v="672375" />
	</node>
	<node id="852345476" lat="60.2545818" lon="10.5076371" version="6" timestamp="2022-04-17T12:03:41Z" changeset="119814080" uid="3497659" user="NKA">
		<tag k="alt_name" v="Slåttbråtan" />
		<tag k="attribution" v="Kart over Nordmarka 1934, Major H. K. Hertzberg, på grunnlag av NGO karter" />
		<tag k="historic" v="shieling" />
		<tag k="historic:operator" v="Østre Olimb" />
		<tag k="name" v="Slåttebråtensætra" />
		<tag k="official_name" v="Slåttbråtån" />
		<tag k="place" v="isolated_dwelling" />
		<tag k="source" v="Kart Nordmarka 1934 (out of copyright map)" />
		<tag k="ssr:stedsnr" v="6790" />
	</node>
	<node id="852345477" lat="60.2263299" lon="10.4745366" version="7" timestamp="2022-04-17T12:03:41Z" changeset="119814080" uid="3497659" user="NKA">
		<tag k="historic" v="shieling" />
		<tag k="name" v="Finnerud" />
		<tag k="official_name" v="Finnerudsætra" />
		<tag k="place" v="isolated_dwelling" />
		<tag k="ssr:stedsnr" v="611470" />
	</node>
	<node id="852345510" lat="60.1922687" lon="10.5286483" version="10" timestamp="2022-04-17T12:03:41Z" changeset="119814080" uid="3497659" user="NKA">
		<tag k="alt_name" v="Holoaseter" />
		<tag k="attribution" v="Kart over Nordmarka 1934, Major H. K. Hertzberg, på grunnlag av NGO karter" />
		<tag k="historic" v="shieling" />
		<tag k="historic:operator" v="Sogn(4);Rud(2);Tømmerås;Kvelsrud(;Faltensrud;Skjennum)" />
		<tag k="loc_name" v="Lortholoa" />
		<tag k="name" v="Holoa" />
		<tag k="old_name" v="Lortholseter;Holoa seter;Holosætra;Lorthul seter" />
		<tag k="place" v="hamlet" />
		<tag k="source" v="Kart Nordmarka 1934 (out of copyright map)" />
		<tag k="ssr:stedsnr" v="418440" />
	</node>
	<node id="852345513" lat="60.2290853" lon="10.4154655" version="3" timestamp="2022-04-17T12:03:41Z" changeset="119814080" uid="3497659" user="NKA">
		<tag k="attribution" v="Kart over Nordmarka 1934, Major H. K. Hertzberg, på grunnlag av NGO karter" />
		<tag k="name" v="Opperud" />
		<tag k="place" v="farm" />
		<tag k="source" v="Kart Nordmarka 1934 (out of copyright map)" />
		<tag k="ssr:stedsnr" v="855394" />
	</node>
	<node id="852345553" lat="60.2246985" lon="10.4202745" version="3" timestamp="2022-04-17T12:03:41Z" changeset="119814080" uid="3497659" user="NKA">
		<tag k="attribution" v="Kart over Nordmarka 1934, Major H. K. Hertzberg, på grunnlag av NGO karter" />
		<tag k="name" v="Haukerud" />
		<tag k="place" v="locality" />
		<tag k="source" v="Kart Nordmarka 1934 (out of copyright map)" />
		<tag k="ssr:stedsnr" v="430449" />
	</node>
	<node id="852345613" lat="60.2520175" lon="10.518951" version="6" timestamp="2022-04-17T12:03:41Z" changeset="119814080" uid="3497659" user="NKA">
		<tag k="alt_name" v="Olimbseter" />
		<tag k="historic" v="shieling" />
		<tag k="historic:operator" v="Midtre Olimb;Vestre Olimb" />
		<tag k="name" v="Olumsætra" />
		<tag k="place" v="isolated_dwelling" />
		<tag k="ssr:stedsnr" v="309769" />
	</node>
	<node id="1910163425" lat="60.2851888" lon="10.412695" version="2" timestamp="2022-04-17T12:03:41Z" changeset="119814080" uid="3497659" user="NKA">
		<tag k="name" v="Sløvika" />
		<tag k="place" v="hamlet" />
		<tag k="ssr:stedsnr" v="327477" />
	</node>
	<node id="2098924428" lat="60.2128222" lon="10.4994055" version="8" timestamp="2022-04-17T12:03:41Z" changeset="119814080" uid="3497659" user="NKA">
		<tag k="alt_name" v="Skjennumsetra" />
		<tag k="end_date" v="1970" />
		<tag k="historic" v="shieling" />
		<tag k="historic:operator" v="Skjennum;Igulsrud;Hensrud;Bjertnæs" />
		<tag k="name" v="Skjennumsætra" />
		<tag k="official_name" v="Skjennumsætra" />
		<tag k="place" v="isolated_dwelling" />
		<tag k="ssr:stedsnr" v="126486" />
	</node>
	<node id="2098924433" lat="60.2050053" lon="10.5332075" version="7" timestamp="2022-04-17T12:03:41Z" changeset="119814080" uid="3497659" user="NKA">
		<tag k="alt_name" v="Sognsetra" />
		<tag k="historic" v="shieling" />
		<tag k="historic:operator" v="Midtre Sogn" />
		<tag k="name" v="Sognsætra" />
		<tag k="place" v="isolated_dwelling" />
		<tag k="ssr:stedsnr" v="794429" />
	</node>
	<node id="2166725268" lat="60.2508" lon="10.5259499" version="3" timestamp="2022-04-17T12:03:41Z" changeset="119814080" uid="3497659" user="NKA">
		<tag k="name" v="Høgnes" />
		<tag k="old_name" v="Grasbergbakken" />
		<tag k="place" v="farm" />
		<tag k="ssr:stedsnr" v="552795" />
	</node>
	<node id="2983442795" lat="60.1973135" lon="10.5547555" version="6" timestamp="2022-04-17T12:03:41Z" changeset="119814080" uid="3497659" user="NKA">
		<tag k="alt_name" v="Roenseter" />
		<tag k="historic" v="shieling" />
		<tag k="historic:operator" v="Velo;Roen;Bjellum;Kårstad;Hensrud;Vestengen" />
		<tag k="name" v="Roensætra" />
		<tag k="official_name" v="Roensætra" />
		<tag k="place" v="isolated_dwelling" />
		<tag k="ssr:stedsnr" v="309494" />
	</node>
	<node id="2983505884" lat="60.234096" lon="10.5204154" version="7" timestamp="2022-04-17T12:03:41Z" changeset="119814080" uid="3497659" user="NKA">
		<tag k="alt_name" v="Sinnerseter" />
		<tag k="historic" v="shieling" />
		<tag k="historic:operator" v="Bratvold;Rønnerud" />
		<tag k="name" v="Sindersætra" />
		<tag k="old_name" v="Rønnerudsindera" />
		<tag k="place" v="isolated_dwelling" />
		<tag k="ssr:stedsnr" v="611409" />
	</node>
	<node id="2983515418" lat="60.2063634" lon="10.4435761" version="4" timestamp="2022-04-17T12:03:41Z" changeset="119814080" uid="3497659" user="NKA">
		<tag k="historic" v="shieling" />
		<tag k="name" v="Mosætra" />
		<tag k="note:no" v="Øvre og nedre Mosætra?" />
		<tag k="official_name" v="Mosetervollen" />
		<tag k="place" v="isolated_dwelling" />
		<tag k="ssr:stedsnr" v="126438" />
	</node>
	<node id="3174377267" lat="60.2309431" lon="10.4528748" version="2" timestamp="2022-04-17T12:03:41Z" changeset="119814080" uid="3497659" user="NKA">
		<tag k="name" v="Midtlia" />
		<tag k="place" v="isolated_dwelling" />
		<tag k="ssr:stedsnr" v="611473" />
	</node>
	<node id="3178437926" lat="60.2484535" lon="10.4589689" version="2" timestamp="2022-04-17T12:03:41Z" changeset="119814080" uid="3497659" user="NKA">
		<tag k="name" v="Åserud" />
		<tag k="official_name" v="Åsrud" />
		<tag k="place" v="locality" />
		<tag k="ssr:stedsnr" v="127454" />
	</node>
	<node id="3180197907" lat="60.2581567" lon="10.4559337" version="2" timestamp="2022-04-17T12:03:41Z" changeset="119814080" uid="3497659" user="NKA">
		<tag k="name" v="Bratshagen" />
		<tag k="official_name" v="Bratvalshagan" />
		<tag k="place" v="farm" />
		<tag k="ssr:stedsnr" v="847181" />
	</node>
	<node id="3180197908" lat="60.2535185" lon="10.4475263" version="3" timestamp="2022-04-17T12:03:41Z" changeset="119814080" uid="3497659" user="NKA">
		<tag k="name" v="Bratvalsgrinna" />
		<tag k="official_name" v="Bratvalsgrinda" />
		<tag k="old_name" v="Grina" />
		<tag k="place" v="neighbourhood" />
		<tag k="ssr:stedsnr" v="361179" />
	</node>
	<node id="3180197910" lat="60.2469272" lon="10.4404651" version="2" timestamp="2022-04-17T12:03:41Z" changeset="119814080" uid="3497659" user="NKA">
		<tag k="name" v="Rønnerudstuer" />
		<tag k="official_name" v="Rønnerudstuene" />
		<tag k="place" v="locality" />
		<tag k="ssr:stedsnr" v="847185" />
	</node>
	<node id="3213653404" lat="60.236563" lon="10.4328376" version="2" timestamp="2022-04-17T12:03:41Z" changeset="119814080" uid="3497659" user="NKA">
		<tag k="name" v="Tosobråtan" />
		<tag k="place" v="locality" />
		<tag k="ssr:stedsnr" v="240248" />
	</node>
	<node id="3529897180" lat="60.2739541" lon="10.5331821" version="2" timestamp="2022-04-17T12:03:41Z" changeset="119814080" uid="3497659" user="NKA">
		<tag k="name" v="Halvorsrud" />
		<tag k="place" v="farm" />
		<tag k="ssr:stedsnr" v="821949" />
	</node>
	<node id="3530546894" lat="60.2774895" lon="10.5298739" version="2" timestamp="2022-04-17T12:03:41Z" changeset="119814080" uid="3497659" user="NKA">
		<tag k="alt_name" v="Lien;Prestlia" />
		<tag k="name" v="Lia" />
		<tag k="place" v="farm" />
		<tag k="ssr:stedsnr" v="916843" />
	</node>
	<node id="3769289259" lat="60.2429863" lon="10.3714932" version="2" timestamp="2022-04-17T12:03:41Z" changeset="119814080" uid="3497659" user="NKA">
		<tag k="alt_name" v="Berger" />
		<tag k="name" v="Øvre Berger" />
		<tag k="place" v="farm" />
		<tag k="ssr:stedsnr" v="188425" />
	</node>
	<node id="3779341778" lat="60.2646431" lon="10.5086589" version="2" timestamp="2022-04-17T12:03:41Z" changeset="119814080" uid="3497659" user="NKA">
		<tag k="name" v="Langdalen" />
		<tag k="place" v="farm" />
		<tag k="ssr:stedsnr" v="638970" />
	</node>
	<node id="3779341780" lat="60.2659704" lon="10.5152401" version="2" timestamp="2022-04-17T12:03:41Z" changeset="119814080" uid="3497659" user="NKA">
		<tag k="alt_name" v="Olimbsbråten" />
		<tag k="name" v="Olumsbråtan" />
		<tag k="official_name" v="Olumsbråtån" />
		<tag k="place" v="farm" />
		<tag k="ssr:stedsnr" v="612807" />
	</node>
	<node id="3796540965" lat="60.2334741" lon="10.4068696" version="2" timestamp="2022-04-17T12:03:41Z" changeset="119814080" uid="3497659" user="NKA">
		<tag k="alt_name" v="Moe" />
		<tag k="name" v="Mo" />
		<tag k="place" v="farm" />
		<tag k="ssr:stedsnr" v="672369" />
	</node>
	<node id="4153567485" lat="60.2545759" lon="10.4246074" version="3" timestamp="2022-04-17T12:03:41Z" changeset="119814080" uid="3497659" user="NKA">
		<tag k="alt_name" v="Vang, nedre" />
		<tag k="name" v="Nedre Vang" />
		<tag k="place" v="farm" />
		<tag k="ssr:stedsnr" v="309776" />
	</node>
	<node id="7890618993" lat="60.306885" lon="10.419402" version="2" timestamp="2022-01-31T06:42:31Z" changeset="116807300" uid="3497659" user="NKA">
		<tag k="junction" v="yes" />
		<tag k="name" v="Sognstoppen" />
		<tag k="ssr:stedsnr" v="29678" />
	</node>
	<node id="9671727593" lat="60.3669214" lon="10.3623759" version="1" timestamp="2022-04-17T12:03:41Z" changeset="119814080" uid="3497659" user="NKA">
		<tag k="alt_name" v="Kammerudtangen" />
		<tag k="name" v="Tangen" />
		<tag k="place" v="hamlet" />
		<tag k="ssr:stedsnr" v="370118" />
	</node>
	<node id="9671727594" lat="60.3335" lon="10.2702522" version="1" timestamp="2022-04-17T12:03:41Z" changeset="119814080" uid="3497659" user="NKA">
		<tag k="alt_name" v="Kolbotnhytta" />
		<tag k="name" v="Kolabotn" />
		<tag k="place" v="isolated_dwelling" />
		<tag k="ssr:stedsnr" v="673461" />
	</node>
	<node id="9671727595" lat="60.2916101" lon="10.4198455" version="1" timestamp="2022-04-17T12:03:41Z" changeset="119814080" uid="3497659" user="NKA">
		<tag k="name" v="Nordengen" />
		<tag k="place" v="farm" />
		<tag k="ssr:stedsnr" v="987364" />
	</node>
	<node id="9671727596" lat="60.2269255" lon="10.4286403" version="1" timestamp="2022-04-17T12:03:41Z" changeset="119814080" uid="3497659" user="NKA">
		<tag k="name" v="Nordås" />
		<tag k="place" v="locality" />
		<tag k="ssr:stedsnr" v="361167" />
	</node>
	<node id="9671727597" lat="60.2821516" lon="10.4498573" version="1" timestamp="2022-04-17T12:03:41Z" changeset="119814080" uid="3497659" user="NKA">
		<tag k="name" v="Vestenga" />
		<tag k="place" v="farm" />
		<tag k="ssr:stedsnr" v="100122" />
	</node>
	<node id="9671727598" lat="60.3348598" lon="10.3519474" version="1" timestamp="2022-04-17T12:03:41Z" changeset="119814080" uid="3497659" user="NKA">
		<tag k="name" v="Solvik" />
		<tag k="place" v="farm" />
		<tag k="ssr:stedsnr" v="431997" />
	</node>
	<node id="9671727599" lat="60.2680809" lon="10.4894936" version="1" timestamp="2022-04-17T12:03:41Z" changeset="119814080" uid="3497659" user="NKA">
		<tag k="alt_name" v="Olom" />
		<tag k="name" v="Olum" />
		<tag k="place" v="hamlet" />
		<tag k="ssr:stedsnr" v="600930" />
	</node>
	<node id="9671727600" lat="60.2612484" lon="10.4273148" version="1" timestamp="2022-04-17T12:03:41Z" changeset="119814080" uid="3497659" user="NKA">
		<tag k="name" v="Skogheim" />
		<tag k="place" v="isolated_dwelling" />
		<tag k="ssr:stedsnr" v="67764" />
	</node>
	<node id="9671727601" lat="60.3336548" lon="10.3453756" version="1" timestamp="2022-04-17T12:03:41Z" changeset="119814080" uid="3497659" user="NKA">
		<tag k="name" v="Båtflaten" />
		<tag k="place" v="farm" />
		<tag k="ssr:stedsnr" v="908489" />
	</node>
	<node id="9671727602" lat="60.2452889" lon="10.3681944" version="1" timestamp="2022-04-17T12:03:41Z" changeset="119814080" uid="3497659" user="NKA">
		<tag k="name" v="Nordhaugen" />
		<tag k="place" v="neighbourhood" />
		<tag k="ssr:stedsnr" v="598000" />
	</node>
	<node id="9671727603" lat="60.2210981" lon="10.3808993" version="1" timestamp="2022-04-17T12:03:41Z" changeset="119814080" uid="3497659" user="NKA">
		<tag k="alt_name" v="Frankrik" />
		<tag k="name" v="Frankrike" />
		<tag k="old_name" v="Frankrig" />
		<tag k="place" v="farm" />
		<tag k="ssr:stedsnr" v="539461" />
	</node>
	<node id="9671727604" lat="60.28224" lon="10.4959426" version="1" timestamp="2022-04-17T12:03:41Z" changeset="119814080" uid="3497659" user="NKA">
		<tag k="alt_name" v="Feldberg;Felberg" />
		<tag k="name" v="Fellberg" />
		<tag k="place" v="farm" />
		<tag k="ssr:stedsnr" v="674811" />
	</node>
	<node id="9671727605" lat="60.2523019" lon="10.3800018" version="1" timestamp="2022-04-17T12:03:41Z" changeset="119814080" uid="3497659" user="NKA">
		<tag k="alt_name" v="Brørby;Brørby, s" />
		<tag k="name" v="Søndre Brørby" />
		<tag k="place" v="farm" />
		<tag k="ssr:stedsnr" v="856763" />
	</node>
	<node id="9671727606" lat="60.2821889" lon="10.5096838" version="1" timestamp="2022-04-17T12:03:41Z" changeset="119814080" uid="3497659" user="NKA">
		<tag k="alt_name" v="Ensrud;Endsrud" />
		<tag k="name" v="Prest-Ensrud" />
		<tag k="old_name" v="Præst-Ensrud;Præstensrud" />
		<tag k="place" v="farm" />
		<tag k="ssr:stedsnr" v="102845" />
	</node>
	<node id="9671727607" lat="60.3422079" lon="10.3561725" version="1" timestamp="2022-04-17T12:03:41Z" changeset="119814080" uid="3497659" user="NKA">
		<tag k="name" v="Onsaker" />
		<tag k="place" v="hamlet" />
		<tag k="ssr:stedsnr" v="916036" />
	</node>
	<node id="9671727608" lat="60.3685889" lon="10.2077889" version="1" timestamp="2022-04-17T12:03:41Z" changeset="119814080" uid="3497659" user="NKA">
		<tag k="name" v="Klæstadhytta" />
		<tag k="place" v="isolated_dwelling" />
		<tag k="ssr:stedsnr" v="308587" />
	</node>
	<node id="9671727609" lat="60.3059748" lon="10.4566192" version="1" timestamp="2022-04-17T12:03:41Z" changeset="119814080" uid="3497659" user="NKA">
		<tag k="name" v="Brenna" />
		<tag k="place" v="farm" />
		<tag k="ssr:stedsnr" v="987347" />
	</node>
	<node id="9671727610" lat="60.2540917" lon="10.4775957" version="1" timestamp="2022-04-17T12:03:41Z" changeset="119814080" uid="3497659" user="NKA">
		<tag k="alt_name" v="Gullenbråtan" />
		<tag k="name" v="Gullenbråtån" />
		<tag k="place" v="farm" />
		<tag k="ssr:stedsnr" v="67775" />
	</node>
	<node id="9671727611" lat="60.2395277" lon="10.3492862" version="1" timestamp="2022-04-17T12:03:41Z" changeset="119814080" uid="3497659" user="NKA">
		<tag k="name" v="Mikkelshytta" />
		<tag k="place" v="isolated_dwelling" />
		<tag k="ssr:stedsnr" v="476698" />
	</node>
	<node id="9671727612" lat="60.3011503" lon="10.4119179" version="1" timestamp="2022-04-17T12:03:41Z" changeset="119814080" uid="3497659" user="NKA">
		<tag k="name" v="Tømmerås" />
		<tag k="place" v="farm" />
		<tag k="ssr:stedsnr" v="188862" />
	</node>
	<node id="9671727613" lat="60.2795022" lon="10.4789842" version="1" timestamp="2022-04-17T12:03:41Z" changeset="119814080" uid="3497659" user="NKA">
		<tag k="name" v="Tømte" />
		<tag k="place" v="farm" />
		<tag k="ssr:stedsnr" v="552871" />
	</node>
	<node id="9671727614" lat="60.2852625" lon="10.4280014" version="1" timestamp="2022-04-17T12:03:41Z" changeset="119814080" uid="3497659" user="NKA">
		<tag k="name" v="Dokka" />
		<tag k="place" v="isolated_dwelling" />
		<tag k="ssr:stedsnr" v="795874" />
	</node>
	<node id="9671727615" lat="60.2592222" lon="10.3790253" version="1" timestamp="2022-04-17T12:03:41Z" changeset="119814080" uid="3497659" user="NKA">
		<tag k="name" v="Nordby" />
		<tag k="place" v="farm" />
		<tag k="ssr:stedsnr" v="67802" />
	</node>
	<node id="9671727616" lat="60.3617388" lon="10.3567041" version="1" timestamp="2022-04-17T12:03:41Z" changeset="119814080" uid="3497659" user="NKA">
		<tag k="name" v="Kammerud" />
		<tag k="place" v="farm" />
		<tag k="ssr:stedsnr" v="6012" />
	</node>
	<node id="9671900517" lat="60.2884613" lon="10.3975518" version="1" timestamp="2022-04-17T12:03:41Z" changeset="119814080" uid="3497659" user="NKA">
		<tag k="name" v="Vestre Roen" />
		<tag k="place" v="farm" />
		<tag k="ssr:stedsnr" v="640435" />
	</node>
	<node id="9671900518" lat="60.3075626" lon="10.4345011" version="1" timestamp="2022-04-17T12:03:41Z" changeset="119814080" uid="3497659" user="NKA">
		<tag k="name" v="Østre Velo" />
		<tag k="place" v="farm" />
		<tag k="ssr:stedsnr" v="333204" />
	</node>
	<node id="9671900519" lat="60.2789611" lon="10.3636388" version="1" timestamp="2022-04-17T12:03:41Z" changeset="119814080" uid="3497659" user="NKA">
		<tag k="name" v="Hansebråtan" />
		<tag k="place" v="locality" />
		<tag k="ssr:stedsnr" v="416550" />
	</node>
	<node id="9671900520" lat="60.2638145" lon="10.3787279" version="1" timestamp="2022-04-17T12:03:41Z" changeset="119814080" uid="3497659" user="NKA">
		<tag k="alt_name" v="Nordengen" />
		<tag k="name" v="Nordenga" />
		<tag k="place" v="farm" />
		<tag k="ssr:stedsnr" v="673797" />
	</node>
	<node id="9671900521" lat="60.2405545" lon="10.4005245" version="1" timestamp="2022-04-17T12:03:41Z" changeset="119814080" uid="3497659" user="NKA">
		<tag k="name" v="Torbjørnrud" />
		<tag k="place" v="farm" />
		<tag k="ssr:stedsnr" v="987964" />
	</node>
	<node id="9671900522" lat="60.2643289" lon="10.4891774" version="1" timestamp="2022-04-17T12:03:41Z" changeset="119814080" uid="3497659" user="NKA">
		<tag k="name" v="Aslaksrud" />
		<tag k="place" v="hamlet" />
		<tag k="ssr:stedsnr" v="127788" />
	</node>
	<node id="9671900523" lat="60.2929674" lon="10.4581789" version="1" timestamp="2022-04-17T12:03:41Z" changeset="119814080" uid="3497659" user="NKA">
		<tag k="alt_name" v="Hvaterud, midtre;Midtre Vaterud" />
		<tag k="name" v="Midtre Hvaterud" />
		<tag k="place" v="farm" />
		<tag k="ssr:stedsnr" v="431878" />
	</node>
	<node id="9671900524" lat="60.3546436" lon="10.3611891" version="1" timestamp="2022-04-17T12:03:41Z" changeset="119814080" uid="3497659" user="NKA">
		<tag k="name" v="Bjørklund" />
		<tag k="place" v="farm" />
		<tag k="ssr:stedsnr" v="583417" />
	</node>
	<node id="9671900525" lat="60.3048274" lon="10.4196359" version="1" timestamp="2022-04-17T12:03:41Z" changeset="119814080" uid="3497659" user="NKA">
		<tag k="name" v="Sogn" />
		<tag k="place" v="hamlet" />
		<tag k="ssr:stedsnr" v="673898" />
	</node>
	<node id="9671900526" lat="60.2886151" lon="10.4197763" version="1" timestamp="2022-04-17T12:03:41Z" changeset="119814080" uid="3497659" user="NKA">
		<tag k="alt_name" v="Gunstad" />
		<tag k="name" v="Gunnstad" />
		<tag k="place" v="farm" />
		<tag k="ssr:stedsnr" v="856880" />
	</node>
	<node id="9671900527" lat="60.3073816" lon="10.3230458" version="1" timestamp="2022-04-17T12:03:41Z" changeset="119814080" uid="3497659" user="NKA">
		<tag k="alt_name" v="Sørumseter" />
		<tag k="historic" v="shieling" />
		<tag k="name" v="Sørumsætra" />
		<tag k="place" v="isolated_dwelling" />
		<tag k="ssr:stedsnr" v="916523" />
	</node>
	<node id="9671900528" lat="60.2736387" lon="10.4499781" version="1" timestamp="2022-04-17T12:03:41Z" changeset="119814080" uid="3497659" user="NKA">
		<tag k="name" v="Kårstadstua" />
		<tag k="place" v="farm" />
		<tag k="ssr:stedsnr" v="889005" />
	</node>
	<node id="9671900529" lat="60.3038767" lon="10.3944855" version="1" timestamp="2022-04-17T12:03:41Z" changeset="119814080" uid="3497659" user="NKA">
		<tag k="name" v="Dal" />
		<tag k="place" v="farm" />
		<tag k="ssr:stedsnr" v="67875" />
	</node>
	<node id="9671900530" lat="60.2444753" lon="10.4342611" version="1" timestamp="2022-04-17T12:03:41Z" changeset="119814080" uid="3497659" user="NKA">
		<tag k="name" v="Rønnerudsenga" />
		<tag k="place" v="farm" />
		<tag k="ssr:stedsnr" v="482157" />
	</node>
	<node id="9671900531" lat="60.2766378" lon="10.5000016" version="1" timestamp="2022-04-17T12:03:41Z" changeset="119814080" uid="3497659" user="NKA">
		<tag k="name" v="Tronrud" />
		<tag k="place" v="farm" />
		<tag k="ssr:stedsnr" v="32958" />
	</node>
	<node id="9671900532" lat="60.2052198" lon="10.4488756" version="1" timestamp="2022-04-17T12:03:41Z" changeset="119814080" uid="3497659" user="NKA">
		<tag k="name" v="Moseterhytta" />
		<tag k="place" v="isolated_dwelling" />
		<tag k="ssr:stedsnr" v="823645" />
	</node>
	<node id="9671900533" lat="60.2476404" lon="10.3775254" version="1" timestamp="2022-04-17T12:03:41Z" changeset="119814080" uid="3497659" user="NKA">
		<tag k="alt_name" v="Nøkleby" />
		<tag k="name" v="Øvre Nøkleby" />
		<tag k="place" v="farm" />
		<tag k="ssr:stedsnr" v="551411" />
	</node>
	<node id="9671900534" lat="60.2976324" lon="10.4557882" version="1" timestamp="2022-04-17T12:03:41Z" changeset="119814080" uid="3497659" user="NKA">
		<tag k="name" v="Nordli" />
		<tag k="place" v="farm" />
		<tag k="ssr:stedsnr" v="127873" />
	</node>
	<node id="9671900535" lat="60.2554279" lon="10.4805125" version="1" timestamp="2022-04-17T12:03:41Z" changeset="119814080" uid="3497659" user="NKA">
		<tag k="name" v="Sørum" />
		<tag k="place" v="farm" />
		<tag k="ssr:stedsnr" v="612774" />
	</node>
	<node id="9671900536" lat="60.2315634" lon="10.5339025" version="1" timestamp="2022-04-17T12:03:41Z" changeset="119814080" uid="3497659" user="NKA">
		<tag k="name" v="Trantjern" />
		<tag k="place" v="farm" />
		<tag k="ssr:stedsnr" v="126388" />
	</node>
	<node id="9671900537" lat="60.2917415" lon="10.4239407" version="1" timestamp="2022-04-17T12:03:41Z" changeset="119814080" uid="3497659" user="NKA">
		<tag k="alt_name" v="Nordenga;Nordengen" />
		<tag k="name" v="Kjellsrud" />
		<tag k="place" v="isolated_dwelling" />
		<tag k="ssr:stedsnr" v="674857" />
	</node>
	<node id="9671900538" lat="60.3000493" lon="10.3376899" version="1" timestamp="2022-04-17T12:03:41Z" changeset="119814080" uid="3497659" user="NKA">
		<tag k="alt_name" v="Nord-Falla;Falla, nordre" />
		<tag k="name" v="Nordre Falla" />
		<tag k="place" v="farm" />
		<tag k="ssr:stedsnr" v="249391" />
	</node>
	<node id="9671900539" lat="60.2392972" lon="10.3543556" version="1" timestamp="2022-04-17T12:03:41Z" changeset="119814080" uid="3497659" user="NKA">
		<tag k="name" v="Merredokka" />
		<tag k="place" v="locality" />
		<tag k="ssr:stedsnr" v="476764" />
	</node>
	<node id="9671900540" lat="60.3323597" lon="10.3116888" version="1" timestamp="2022-04-17T12:03:41Z" changeset="119814080" uid="3497659" user="NKA">
		<tag k="alt_name" v="Gladbakken" />
		<tag k="name" v="Gladbakk" />
		<tag k="place" v="isolated_dwelling" />
		<tag k="ssr:stedsnr" v="127489" />
	</node>
	<node id="9671900541" lat="60.2645061" lon="10.5101431" version="1" timestamp="2022-04-17T12:03:41Z" changeset="119814080" uid="3497659" user="NKA">
		<tag k="alt_name" v="Langli" />
		<tag k="name" v="Langlia" />
		<tag k="place" v="farm" />
		<tag k="ssr:stedsnr" v="795808" />
	</node>
	<node id="9671900542" lat="60.2896547" lon="10.4280409" version="1" timestamp="2022-04-17T12:03:41Z" changeset="119814080" uid="3497659" user="NKA">
		<tag k="alt_name" v="Øvre Gunstad" />
		<tag k="name" v="Øvre Gunnstad" />
		<tag k="place" v="farm" />
		<tag k="ssr:stedsnr" v="823900" />
	</node>
	<node id="9671900543" lat="60.2765684" lon="10.439865" version="1" timestamp="2022-04-17T12:03:41Z" changeset="119814080" uid="3497659" user="NKA">
		<tag k="alt_name" v="Skjennum østre" />
		<tag k="name" v="Skjennumstua" />
		<tag k="place" v="farm" />
		<tag k="ssr:stedsnr" v="188848" />
	</node>
	<node id="9671900544" lat="60.2403651" lon="10.3577579" version="1" timestamp="2022-04-17T12:03:41Z" changeset="119814080" uid="3497659" user="NKA">
		<tag k="name" v="Grane" />
		<tag k="place" v="farm" />
		<tag k="ssr:stedsnr" v="113741" />
	</node>
	<node id="9671900545" lat="60.3053258" lon="10.4538728" version="1" timestamp="2022-04-17T12:03:41Z" changeset="119814080" uid="3497659" user="NKA">
		<tag k="name" v="Stensli" />
		<tag k="place" v="farm" />
		<tag k="ssr:stedsnr" v="906873" />
	</node>
	<node id="9671900546" lat="60.2969367" lon="10.418566" version="1" timestamp="2022-04-17T12:03:41Z" changeset="119814080" uid="3497659" user="NKA">
		<tag k="name" v="Sognsbråtån" />
		<tag k="place" v="farm" />
		<tag k="ssr:stedsnr" v="552879" />
	</node>
	<node id="9671900547" lat="60.241963" lon="10.4238547" version="1" timestamp="2022-04-17T12:03:41Z" changeset="119814080" uid="3497659" user="NKA">
		<tag k="name" v="Lund" />
		<tag k="place" v="farm" />
		<tag k="ssr:stedsnr" v="369349" />
	</node>
	<node id="9671900548" lat="60.29973" lon="10.4256877" version="1" timestamp="2022-04-17T12:03:41Z" changeset="119814080" uid="3497659" user="NKA">
		<tag k="alt_name" v="Løvstad" />
		<tag k="name" v="Lauvstad" />
		<tag k="place" v="farm" />
		<tag k="ssr:stedsnr" v="673861" />
	</node>
	<node id="9671900549" lat="60.3119665" lon="10.3438783" version="1" timestamp="2022-04-17T12:03:41Z" changeset="119814080" uid="3497659" user="NKA">
		<tag k="name" v="Myre" />
		<tag k="place" v="hamlet" />
		<tag k="ssr:stedsnr" v="674898" />
	</node>
	<node id="9671900550" lat="60.29392" lon="10.4597834" version="1" timestamp="2022-04-17T12:03:41Z" changeset="119814080" uid="3497659" user="NKA">
		<tag k="name" v="Hvaterud" />
		<tag k="place" v="farm" />
		<tag k="ssr:stedsnr" v="987962" />
	</node>
	<node id="9671900551" lat="60.2511473" lon="10.4597112" version="1" timestamp="2022-04-17T12:03:41Z" changeset="119814080" uid="3497659" user="NKA">
		<tag k="alt_name" v="Bråtan" />
		<tag k="name" v="Bråtån" />
		<tag k="place" v="locality" />
		<tag k="ssr:stedsnr" v="249763" />
	</node>
	<node id="9671900552" lat="60.2830999" lon="10.4558485" version="1" timestamp="2022-04-17T12:03:41Z" changeset="119814080" uid="3497659" user="NKA">
		<tag k="name" v="Skårud" />
		<tag k="old_name" v="Skålerud" />
		<tag k="place" v="farm" />
		<tag k="ssr:stedsnr" v="403119" />
	</node>
	<node id="9671900553" lat="60.2720324" lon="10.4067177" version="1" timestamp="2022-04-17T12:03:41Z" changeset="119814080" uid="3497659" user="NKA">
		<tag k="alt_name" v="Bjellum, søndre;Bjellum" />
		<tag k="name" v="Søndre Bjellum" />
		<tag k="place" v="farm" />
		<tag k="ssr:stedsnr" v="552812" />
	</node>
	<node id="9671900554" lat="60.2365098" lon="10.5275556" version="1" timestamp="2022-04-17T12:03:41Z" changeset="119814080" uid="3497659" user="NKA">
		<tag k="alt_name" v="Vestend" />
		<tag k="name" v="Vestenden" />
		<tag k="place" v="farm" />
		<tag k="ssr:stedsnr" v="187354" />
	</node>
	<node id="9671900555" lat="60.2565339" lon="10.4276591" version="1" timestamp="2022-04-17T12:03:41Z" changeset="119814080" uid="3497659" user="NKA">
		<tag k="name" v="Vang" />
		<tag k="place" v="hamlet" />
		<tag k="ssr:stedsnr" v="1080609" />
	</node>
	<node id="9671900556" lat="60.3083981" lon="10.3439475" version="1" timestamp="2022-04-17T12:03:41Z" changeset="119814080" uid="3497659" user="NKA">
		<tag k="name" v="Volla" />
		<tag k="place" v="farm" />
		<tag k="ssr:stedsnr" v="916887" />
	</node>
	<node id="9671900557" lat="60.3388684" lon="10.3555446" version="1" timestamp="2022-04-17T12:03:41Z" changeset="119814080" uid="3497659" user="NKA">
		<tag k="name" v="Furulund" />
		<tag k="place" v="farm" />
		<tag k="ssr:stedsnr" v="665498" />
	</node>
	<node id="9671900558" lat="60.3291464" lon="10.3416652" version="1" timestamp="2022-04-17T12:03:41Z" changeset="119814080" uid="3497659" user="NKA">
		<tag k="alt_name" v="Skutseter" />
		<tag k="name" v="Skutsæter" />
		<tag k="place" v="farm" />
		<tag k="ssr:stedsnr" v="67475" />
	</node>
	<node id="9671900559" lat="60.2297795" lon="10.3682838" version="1" timestamp="2022-04-17T12:03:41Z" changeset="119814080" uid="3497659" user="NKA">
		<tag k="name" v="Samsmoen" />
		<tag k="place" v="neighbourhood" />
		<tag k="ssr:stedsnr" v="5463" />
	</node>
	<node id="9671900560" lat="60.2789273" lon="10.4507887" version="1" timestamp="2022-04-17T12:03:41Z" changeset="119814080" uid="3497659" user="NKA">
		<tag k="name" v="Enger" />
		<tag k="place" v="farm" />
		<tag k="ssr:stedsnr" v="674837" />
	</node>
	<node id="9671900561" lat="60.3069972" lon="10.4316581" version="1" timestamp="2022-04-17T12:03:41Z" changeset="119814080" uid="3497659" user="NKA">
		<tag k="alt_name" v="Velo" />
		<tag k="name" v="Vestre Velo" />
		<tag k="old_name" v="Velø" />
		<tag k="place" v="farm" />
		<tag k="ssr:stedsnr" v="127694" />
	</node>
	<node id="9671900562" lat="60.3847167" lon="10.2359138" version="1" timestamp="2022-04-17T12:03:41Z" changeset="119814080" uid="3497659" user="NKA">
		<tag k="alt_name" v="Buvatnseter" />
		<tag k="historic" v="shieling" />
		<tag k="name" v="Buvatnsætra" />
		<tag k="place" v="isolated_dwelling" />
		<tag k="ssr:stedsnr" v="734563" />
	</node>
	<node id="9671900563" lat="60.2345767" lon="10.4334524" version="1" timestamp="2022-04-17T12:03:41Z" changeset="119814080" uid="3497659" user="NKA">
		<tag k="name" v="Steinbråtan" />
		<tag k="place" v="isolated_dwelling" />
		<tag k="ssr:stedsnr" v="361251" />
	</node>
	<node id="9671900564" lat="60.262785" lon="10.4789379" version="1" timestamp="2022-04-17T12:03:41Z" changeset="119814080" uid="3497659" user="NKA">
		<tag k="name" v="Søberg" />
		<tag k="place" v="farm" />
		<tag k="ssr:stedsnr" v="58215" />
	</node>
	<node id="9671900565" lat="60.3006422" lon="10.4389896" version="1" timestamp="2022-04-17T12:03:41Z" changeset="119814080" uid="3497659" user="NKA">
		<tag k="alt_name" v="Elvebråten" />
		<tag k="name" v="Elvebråtån" />
		<tag k="place" v="farm" />
		<tag k="ssr:stedsnr" v="370872" />
	</node>
	<node id="9671900566" lat="60.2723722" lon="10.3133667" version="1" timestamp="2022-04-17T12:03:41Z" changeset="119814080" uid="3497659" user="NKA">
		<tag k="name" v="Øvre Berger" />
		<tag k="place" v="locality" />
		<tag k="ssr:stedsnr" v="173891" />
	</node>
	<node id="9671900567" lat="60.2629245" lon="10.4960759" version="1" timestamp="2022-04-17T12:03:41Z" changeset="119814080" uid="3497659" user="NKA">
		<tag k="name" v="Sagenga" />
		<tag k="place" v="farm" />
		<tag k="ssr:stedsnr" v="579000" />
	</node>
	<node id="9671900568" lat="60.2552416" lon="10.3747919" version="1" timestamp="2022-04-17T12:03:41Z" changeset="119814080" uid="3497659" user="NKA">
		<tag k="name" v="Dølerud" />
		<tag k="place" v="farm" />
		<tag k="ssr:stedsnr" v="907076" />
	</node>
	<node id="9671900569" lat="60.3112865" lon="10.4028056" version="1" timestamp="2022-04-17T12:03:41Z" changeset="119814080" uid="3497659" user="NKA">
		<tag k="alt_name" v="Rudsbråtan" />
		<tag k="name" v="Rudsbråtån" />
		<tag k="place" v="farm" />
		<tag k="ssr:stedsnr" v="917905" />
	</node>
	<node id="9671900570" lat="60.2344796" lon="10.358224" version="1" timestamp="2022-04-17T12:03:41Z" changeset="119814080" uid="3497659" user="NKA">
		<tag k="loc_name" v="Bergegrinda" />
		<tag k="name" v="Bergergrinda" />
		<tag k="old_name" v="Bergergrina;Bergergrinden" />
		<tag k="place" v="neighbourhood" />
		<tag k="ssr:stedsnr" v="294755" />
	</node>
	<node id="9671900571" lat="60.3039379" lon="10.4082075" version="1" timestamp="2022-04-17T12:03:41Z" changeset="119814080" uid="3497659" user="NKA">
		<tag k="alt_name" v="Jørve" />
		<tag k="name" v="Gjørve" />
		<tag k="place" v="farm" />
		<tag k="ssr:stedsnr" v="67890" />
	</node>
	<node id="9671900572" lat="60.2666832" lon="10.4821224" version="1" timestamp="2022-04-17T12:03:41Z" changeset="119814080" uid="3497659" user="NKA">
		<tag k="alt_name" v="Olum vestre;Olum vestre og mellom;Vestre Olimb" />
		<tag k="loc_name" v="Vestgarden" />
		<tag k="name" v="Vestre Olum" />
		<tag k="old_name" v="Olum vestre og mellem" />
		<tag k="place" v="farm" />
		<tag k="ssr:stedsnr" v="55924" />
	</node>
	<node id="9671900573" lat="60.23875" lon="10.4068527" version="1" timestamp="2022-04-17T12:03:41Z" changeset="119814080" uid="3497659" user="NKA">
		<tag k="name" v="Nybygget" />
		<tag k="place" v="neighbourhood" />
		<tag k="ssr:stedsnr" v="361150" />
	</node>
	<node id="9671900574" lat="60.3001584" lon="10.2931444" version="1" timestamp="2022-04-17T12:03:41Z" changeset="119814080" uid="3497659" user="NKA">
		<tag k="name" v="Torvheim" />
		<tag k="place" v="isolated_dwelling" />
		<tag k="ssr:stedsnr" v="459270" />
	</node>
	<node id="9671900575" lat="60.2593802" lon="10.4352625" version="1" timestamp="2022-04-17T12:03:41Z" changeset="119814080" uid="3497659" user="NKA">
		<tag k="name" v="Prestmoen" />
		<tag k="place" v="neighbourhood" />
		<tag k="ssr:stedsnr" v="267813" />
	</node>
	<node id="9671900576" lat="60.2787394" lon="10.5107411" version="1" timestamp="2022-04-17T12:03:41Z" changeset="119814080" uid="3497659" user="NKA">
		<tag k="name" v="Finnerud" />
		<tag k="place" v="farm" />
		<tag k="ssr:stedsnr" v="612828" />
	</node>
	<node id="9671900577" lat="60.2898091" lon="10.411913" version="1" timestamp="2022-04-17T12:03:41Z" changeset="119814080" uid="3497659" user="NKA">
		<tag k="name" v="Haga" />
		<tag k="place" v="farm" />
		<tag k="ssr:stedsnr" v="491860" />
	</node>
	<node id="9671900578" lat="60.2677051" lon="10.4946379" version="1" timestamp="2022-04-17T12:03:41Z" changeset="119814080" uid="3497659" user="NKA">
		<tag k="alt_name" v="Østre Olimb;Olum østre;Olum;Olom" />
		<tag k="loc_name" v="Austre-Olum" />
		<tag k="name" v="Østre Olum" />
		<tag k="place" v="farm" />
		<tag k="ssr:stedsnr" v="370823" />
	</node>
	<node id="9671900579" lat="60.30851" lon="10.392997" version="1" timestamp="2022-04-17T12:03:41Z" changeset="119814080" uid="3497659" user="NKA">
		<tag k="name" v="Grønndal" />
		<tag k="place" v="farm" />
		<tag k="ssr:stedsnr" v="697662" />
	</node>
	<node id="9671900580" lat="60.281712" lon="10.5202078" version="1" timestamp="2022-04-17T12:03:41Z" changeset="119814080" uid="3497659" user="NKA">
		<tag k="name" v="Prestbråtan" />
		<tag k="place" v="farm" />
		<tag k="ssr:stedsnr" v="396968" />
	</node>
	<node id="9671900581" lat="60.3386667" lon="10.3131027" version="1" timestamp="2022-04-17T12:03:41Z" changeset="119814080" uid="3497659" user="NKA">
		<tag k="historic" v="shieling" />
		<tag k="name" v="Merramyrsætra" />
		<tag k="place" v="isolated_dwelling" />
		<tag k="ssr:stedsnr" v="916602" />
	</node>
	<node id="9671900582" lat="60.3283535" lon="10.3448555" version="1" timestamp="2022-04-17T12:03:41Z" changeset="119814080" uid="3497659" user="NKA">
		<tag k="name" v="Strandberg" />
		<tag k="place" v="farm" />
		<tag k="ssr:stedsnr" v="119480" />
	</node>
	<node id="9671900583" lat="60.2532639" lon="10.3471416" version="1" timestamp="2022-04-17T12:03:41Z" changeset="119814080" uid="3497659" user="NKA">
		<tag k="name" v="Midtbråtan" />
		<tag k="place" v="locality" />
		<tag k="ssr:stedsnr" v="112994" />
	</node>
	<node id="9671900584" lat="60.2226774" lon="10.4289462" version="1" timestamp="2022-04-17T12:03:41Z" changeset="119814080" uid="3497659" user="NKA">
		<tag k="name" v="Sørås" />
		<tag k="place" v="locality" />
		<tag k="ssr:stedsnr" v="1076841" />
	</node>
	<node id="9671900585" lat="60.2697444" lon="10.4857417" version="1" timestamp="2022-04-17T12:03:41Z" changeset="119814080" uid="3497659" user="NKA">
		<tag k="alt_name" v="Midtre Olimb" />
		<tag k="loc_name" v="Austgarden" />
		<tag k="name" v="Midtre Olum" />
		<tag k="old_name" v="Olum mellem" />
		<tag k="place" v="farm" />
		<tag k="ssr:stedsnr" v="722933" />
	</node>
	<node id="9671900586" lat="60.2783649" lon="10.5318095" version="1" timestamp="2022-04-17T12:03:41Z" changeset="119814080" uid="3497659" user="NKA">
		<tag k="name" v="Prestlia" />
		<tag k="place" v="farm" />
		<tag k="ssr:stedsnr" v="638950" />
	</node>
	<node id="9671900587" lat="60.2715931" lon="10.5174258" version="1" timestamp="2022-04-17T12:03:41Z" changeset="119814080" uid="3497659" user="NKA">
		<tag k="name" v="Bjerkås" />
		<tag k="old_name" v="Bjerkaas;Nordstuløkken" />
		<tag k="place" v="farm" />
		<tag k="ssr:stedsnr" v="163035" />
	</node>
	<node id="9671900588" lat="60.2585422" lon="10.4656655" version="1" timestamp="2022-04-17T12:03:41Z" changeset="119814080" uid="3497659" user="NKA">
		<tag k="name" v="Røste" />
		<tag k="place" v="farm" />
		<tag k="ssr:stedsnr" v="67762" />
	</node>
	<node id="9671900589" lat="60.3480445" lon="10.3052112" version="1" timestamp="2022-04-17T12:03:41Z" changeset="119814080" uid="3497659" user="NKA">
		<tag k="alt_name" v="Grymyrsetra" />
		<tag k="historic" v="shieling" />
		<tag k="name" v="Grymyrsætra" />
		<tag k="place" v="isolated_dwelling" />
		<tag k="ssr:stedsnr" v="369531" />
	</node>
	<node id="9671900590" lat="60.2905417" lon="10.4534" version="1" timestamp="2022-04-17T12:03:41Z" changeset="119814080" uid="3497659" user="NKA">
		<tag k="name" v="Elsrud" />
		<tag k="place" v="farm" />
		<tag k="ssr:stedsnr" v="856882" />
	</node>
	<node id="9671900591" lat="60.2545536" lon="10.3817021" version="1" timestamp="2022-04-17T12:03:41Z" changeset="119814080" uid="3497659" user="NKA">
		<tag k="alt_name" v="Brørby, nordre" />
		<tag k="name" v="Nordre Brørby" />
		<tag k="place" v="farm" />
		<tag k="ssr:stedsnr" v="309738" />
	</node>
	<node id="9671900592" lat="60.273222" lon="10.441541" version="1" timestamp="2022-04-17T12:03:41Z" changeset="119814080" uid="3497659" user="NKA">
		<tag k="name" v="Igelstad" />
		<tag k="place" v="isolated_dwelling" />
		<tag k="ssr:stedsnr" v="464002" />
	</node>
	<node id="9671900593" lat="60.240558" lon="10.3833334" version="1" timestamp="2022-04-17T12:03:41Z" changeset="119814080" uid="3497659" user="NKA">
		<tag k="name" v="Nesbakken" />
		<tag k="place" v="quarter" />
		<tag k="ssr:stedsnr" v="603161" />
	</node>
	<node id="9671900594" lat="60.2652578" lon="10.4612227" version="1" timestamp="2022-04-17T12:03:41Z" changeset="119814080" uid="3497659" user="NKA">
		<tag k="name" v="Klinkenberg" />
		<tag k="place" v="farm" />
		<tag k="ssr:stedsnr" v="127810" />
	</node>
	<node id="9671900595" lat="60.3045413" lon="10.4133877" version="1" timestamp="2022-04-17T12:03:41Z" changeset="119814080" uid="3497659" user="NKA">
		<tag k="name" v="Engeli" />
		<tag k="place" v="farm" />
		<tag k="ssr:stedsnr" v="987363" />
	</node>
	<node id="9671900596" lat="60.3083978" lon="10.4320223" version="1" timestamp="2022-04-17T12:03:41Z" changeset="119814080" uid="3497659" user="NKA">
		<tag k="name" v="Øvre Velo" />
		<tag k="place" v="farm" />
		<tag k="ssr:stedsnr" v="90148" />
	</node>
	<node id="9671900597" lat="60.2484555" lon="10.3727639" version="1" timestamp="2022-04-17T12:03:41Z" changeset="119814080" uid="3497659" user="NKA">
		<tag k="name" v="Frydenlund" />
		<tag k="place" v="neighbourhood" />
		<tag k="ssr:stedsnr" v="361078" />
	</node>
	<node id="9671900598" lat="60.2951776" lon="10.4676587" version="1" timestamp="2022-04-17T12:03:41Z" changeset="119814080" uid="3497659" user="NKA">
		<tag k="alt_name" v="Østre Hvaterud;Østre Vaterud" />
		<tag k="name" v="Løykebråtån" />
		<tag k="place" v="farm" />
		<tag k="ssr:stedsnr" v="795867" />
	</node>
	<node id="9671900599" lat="60.2696473" lon="10.5142756" version="1" timestamp="2022-04-17T12:03:41Z" changeset="119814080" uid="3497659" user="NKA">
		<tag k="name" v="Myre" />
		<tag k="place" v="farm" />
		<tag k="ssr:stedsnr" v="93913" />
	</node>
	<node id="9671900600" lat="60.2925777" lon="10.3357906" version="1" timestamp="2022-04-17T12:03:41Z" changeset="119814080" uid="3497659" user="NKA">
		<tag k="alt_name" v="Nedre Rolfsbråtan" />
		<tag k="name" v="Rolvsbråtan" />
		<tag k="place" v="farm" />
		<tag k="ssr:stedsnr" v="552440" />
	</node>
	<node id="9671900601" lat="60.2878462" lon="10.401565" version="1" timestamp="2022-04-17T12:03:41Z" changeset="119814080" uid="3497659" user="NKA">
		<tag k="name" v="Roen" />
		<tag k="place" v="hamlet" />
		<tag k="ssr:stedsnr" v="552888" />
	</node>
	<node id="9671900602" lat="60.3057083" lon="10.4409116" version="1" timestamp="2022-04-17T12:03:41Z" changeset="119814080" uid="3497659" user="NKA">
		<tag k="name" v="Granli" />
		<tag k="old_name" v="Granly" />
		<tag k="place" v="farm" />
		<tag k="ssr:stedsnr" v="987346" />
	</node>
	<node id="9671900603" lat="60.2535847" lon="10.3812707" version="1" timestamp="2022-04-17T12:03:41Z" changeset="119814080" uid="3497659" user="NKA">
		<tag k="name" v="Brørby" />
		<tag k="place" v="hamlet" />
		<tag k="ssr:stedsnr" v="987988" />
	</node>
	<node id="9671900604" lat="60.2386209" lon="10.4264689" version="1" timestamp="2022-04-17T12:03:41Z" changeset="119814080" uid="3497659" user="NKA">
		<tag k="alt_name" v="Torshov" />
		<tag k="name" v="Toso" />
		<tag k="place" v="farm" />
		<tag k="ssr:stedsnr" v="5371" />
	</node>
	<node id="9671900605" lat="60.2861519" lon="10.4075032" version="1" timestamp="2022-04-17T12:03:41Z" changeset="119814080" uid="3497659" user="NKA">
		<tag k="name" v="Østre Roen" />
		<tag k="place" v="farm" />
		<tag k="ssr:stedsnr" v="398178" />
	</node>
	<node id="9671900606" lat="60.3107982" lon="10.4236002" version="1" timestamp="2022-04-17T12:03:41Z" changeset="119814080" uid="3497659" user="NKA">
		<tag k="alt_name" v="Velo" />
		<tag k="name" v="Nordre Velo" />
		<tag k="place" v="farm" />
		<tag k="ssr:stedsnr" v="128909" />
	</node>
	<node id="9671900607" lat="60.3134166" lon="10.3467361" version="1" timestamp="2022-04-17T12:03:41Z" changeset="119814080" uid="3497659" user="NKA">
		<tag k="name" v="Myrevoll" />
		<tag k="place" v="farm" />
		<tag k="ssr:stedsnr" v="734913" />
	</node>
	<node id="9671900608" lat="60.3096445" lon="10.3864417" version="1" timestamp="2022-04-17T12:03:41Z" changeset="119814080" uid="3497659" user="NKA">
		<tag k="alt_name" v="Bjertnes" />
		<tag k="name" v="Søndre Bjertnes" />
		<tag k="place" v="farm" />
		<tag k="ssr:stedsnr" v="212677" />
	</node>
	<node id="9671900609" lat="60.3390007" lon="10.3493789" version="1" timestamp="2022-04-17T12:03:41Z" changeset="119814080" uid="3497659" user="NKA">
		<tag k="name" v="Halvorsbøle" />
		<tag k="place" v="farm" />
		<tag k="ssr:stedsnr" v="987865" />
	</node>
	<node id="9671900610" lat="60.2576752" lon="10.4287736" version="1" timestamp="2022-04-17T12:03:41Z" changeset="119814080" uid="3497659" user="NKA">
		<tag k="alt_name" v="Vang, øvre" />
		<tag k="name" v="Øvre Vang" />
		<tag k="place" v="farm" />
		<tag k="ssr:stedsnr" v="6779" />
	</node>
	<node id="9671900611" lat="60.3799903" lon="10.2956106" version="1" timestamp="2022-04-17T12:03:41Z" changeset="119814080" uid="3497659" user="NKA">
		<tag k="name" v="Otermyrbakken" />
		<tag k="place" v="isolated_dwelling" />
		<tag k="ssr:stedsnr" v="127658" />
	</node>
	<node id="9671900612" lat="60.25579" lon="10.4784421" version="1" timestamp="2022-04-17T12:03:41Z" changeset="119814080" uid="3497659" user="NKA">
		<tag k="name" v="Sørenga" />
		<tag k="place" v="farm" />
		<tag k="ssr:stedsnr" v="431799" />
	</node>
	<node id="9671900613" lat="60.2968812" lon="10.340349" version="1" timestamp="2022-04-17T12:03:41Z" changeset="119814080" uid="3497659" user="NKA">
		<tag k="name" v="Gjerde" />
		<tag k="place" v="farm" />
		<tag k="ssr:stedsnr" v="658271" />
	</node>
	<node id="9671900614" lat="60.2487799" lon="10.3820244" version="1" timestamp="2022-04-17T12:03:41Z" changeset="119814080" uid="3497659" user="NKA">
		<tag k="name" v="Nedre Nøkleby" />
		<tag k="place" v="farm" />
		<tag k="ssr:stedsnr" v="968080" />
	</node>
	<node id="9671900615" lat="60.2900176" lon="10.4902696" version="1" timestamp="2022-04-17T12:03:41Z" changeset="119814080" uid="3497659" user="NKA">
		<tag k="name" v="Olerud" />
		<tag k="old_name" v="Olarud" />
		<tag k="place" v="farm" />
		<tag k="ssr:stedsnr" v="856827" />
	</node>
	<node id="9671900616" lat="60.2719373" lon="10.5215434" version="1" timestamp="2022-04-17T12:03:41Z" changeset="119814080" uid="3497659" user="NKA">
		<tag k="name" v="Hellerud" />
		<tag k="place" v="farm" />
		<tag k="ssr:stedsnr" v="396926" />
	</node>
	<node id="9671900617" lat="60.2540838" lon="10.4306766" version="1" timestamp="2022-04-17T12:03:41Z" changeset="119814080" uid="3497659" user="NKA">
		<tag k="name" v="Vangsmølla" />
		<tag k="place" v="farm" />
		<tag k="ssr:stedsnr" v="603060" />
	</node>
	<node id="9671900618" lat="60.3039009" lon="10.4046527" version="1" timestamp="2022-04-17T12:03:41Z" changeset="119814080" uid="3497659" user="NKA">
		<tag k="name" v="Dalsenga" />
		<tag k="place" v="farm" />
		<tag k="ssr:stedsnr" v="491878" />
	</node>
	<node id="9671900619" lat="60.3336584" lon="10.28025" version="1" timestamp="2022-04-17T12:03:41Z" changeset="119814080" uid="3497659" user="NKA">
		<tag k="alt_name" v="Kimtjennseter" />
		<tag k="historic" v="shieling" />
		<tag k="name" v="Kimetjernsætra" />
		<tag k="place" v="isolated_dwelling" />
		<tag k="ssr:stedsnr" v="127493" />
	</node>
	<node id="9671900620" lat="60.2793218" lon="10.4331661" version="1" timestamp="2022-04-17T12:03:41Z" changeset="119814080" uid="3497659" user="NKA">
		<tag k="name" v="Skjennum" />
		<tag k="place" v="hamlet" />
		<tag k="ssr:stedsnr" v="987963" />
	</node>
	<node id="9671900621" lat="60.2970937" lon="10.3365497" version="1" timestamp="2022-04-17T12:03:41Z" changeset="119814080" uid="3497659" user="NKA">
		<tag k="alt_name" v="Midt-Falla;Falla, midtre" />
		<tag k="name" v="Midtre Falla" />
		<tag k="place" v="farm" />
		<tag k="ssr:stedsnr" v="856423" />
	</node>
	<node id="9671900622" lat="60.2724837" lon="10.4984083" version="1" timestamp="2022-04-17T12:03:41Z" changeset="119814080" uid="3497659" user="NKA">
		<tag k="alt_name" v="Hagan;Olimbshagan;Olimbshagen;Olimhagen" />
		<tag k="name" v="Olumshagan" />
		<tag k="place" v="farm" />
		<tag k="ssr:stedsnr" v="906839" />
	</node>
	<node id="9671900623" lat="60.2743748" lon="10.4696909" version="1" timestamp="2022-04-17T12:03:41Z" changeset="119814080" uid="3497659" user="NKA">
		<tag k="alt_name" v="Greftegreff" />
		<tag k="name" v="Greftegrev" />
		<tag k="place" v="hamlet" />
		<tag k="ssr:stedsnr" v="6798" />
	</node>
	<node id="9671900624" lat="60.305532" lon="10.447329" version="1" timestamp="2022-04-17T12:03:41Z" changeset="119814080" uid="3497659" user="NKA">
		<tag k="name" v="Rustad" />
		<tag k="place" v="farm" />
		<tag k="ssr:stedsnr" v="845889" />
	</node>
	<node id="9671900625" lat="60.238051" lon="10.3685372" version="1" timestamp="2022-04-17T12:03:41Z" changeset="119814080" uid="3497659" user="NKA">
		<tag k="name" v="Rundhaugen" />
		<tag k="place" v="neighbourhood" />
		<tag k="ssr:stedsnr" v="537735" />
	</node>
	<node id="9671900626" lat="60.2973904" lon="10.3378843" version="1" timestamp="2022-04-17T12:03:41Z" changeset="119814080" uid="3497659" user="NKA">
		<tag k="name" v="Falla" />
		<tag k="place" v="hamlet" />
		<tag k="ssr:stedsnr" v="98806" />
	</node>
	<node id="9671900627" lat="60.2693056" lon="10.3324139" version="1" timestamp="2022-04-17T12:03:41Z" changeset="119814080" uid="3497659" user="NKA">
		<tag k="historic" v="shieling" />
		<tag k="name" v="Nordbyseter" />
		<tag k="place" v="isolated_dwelling" />
		<tag k="ssr:stedsnr" v="597907" />
	</node>
	<node id="9671900628" lat="60.2824817" lon="10.5134408" version="1" timestamp="2022-04-17T12:03:41Z" changeset="119814080" uid="3497659" user="NKA">
		<tag k="alt_name" v="Stensrud" />
		<tag k="name" v="Steinsrud" />
		<tag k="place" v="farm" />
		<tag k="ssr:stedsnr" v="552847" />
	</node>
	<node id="9671900629" lat="60.2878166" lon="10.3423027" version="1" timestamp="2022-04-17T12:03:41Z" changeset="119814080" uid="3497659" user="NKA">
		<tag k="alt_name" v="Djupdalen" />
		<tag k="name" v="Djupdal" />
		<tag k="place" v="isolated_dwelling" />
		<tag k="ssr:stedsnr" v="431434" />
	</node>
	<node id="9671900630" lat="60.2999723" lon="10.3533721" version="1" timestamp="2022-04-17T12:03:41Z" changeset="119814080" uid="3497659" user="NKA">
		<tag k="name" v="Hamar" />
		<tag k="place" v="farm" />
		<tag k="ssr:stedsnr" v="841261" />
	</node>
	<node id="9671900631" lat="60.2590789" lon="10.4810637" version="1" timestamp="2022-04-17T12:03:41Z" changeset="119814080" uid="3497659" user="NKA">
		<tag k="name" v="Gullen" />
		<tag k="place" v="farm" />
		<tag k="ssr:stedsnr" v="309761" />
	</node>
	<node id="9671900632" lat="60.2422716" lon="10.37175" version="1" timestamp="2022-04-17T12:03:41Z" changeset="119814080" uid="3497659" user="NKA">
		<tag k="name" v="Berger" />
		<tag k="place" v="farm" />
		<tag k="ssr:stedsnr" v="987986" />
	</node>
	<node id="9671900633" lat="60.2151666" lon="10.4070333" version="1" timestamp="2022-04-17T12:03:41Z" changeset="119814080" uid="3497659" user="NKA">
		<tag k="name" v="Skollerud" />
		<tag k="place" v="locality" />
		<tag k="ssr:stedsnr" v="95884" />
	</node>
	<node id="9671900634" lat="60.1907892" lon="10.4599945" version="1" timestamp="2022-04-17T12:03:41Z" changeset="119814080" uid="3497659" user="NKA">
		<tag k="name" v="Stormyrhytta" />
		<tag k="place" v="isolated_dwelling" />
		<tag k="ssr:stedsnr" v="34598" />
	</node>
	<node id="9671900635" lat="60.2536744" lon="10.4803687" version="1" timestamp="2022-04-17T12:03:41Z" changeset="119814080" uid="3497659" user="NKA">
		<tag k="name" v="Brattli" />
		<tag k="place" v="farm" />
		<tag k="ssr:stedsnr" v="188808" />
	</node>
	<node id="9671900636" lat="60.3764778" lon="10.2028139" version="1" timestamp="2022-04-17T12:03:41Z" changeset="119814080" uid="3497659" user="NKA">
		<tag k="name" v="Øvre Finneplassen" />
		<tag k="place" v="farm" />
		<tag k="ssr:stedsnr" v="551616" />
	</node>
	<node id="9671900637" lat="60.2808091" lon="10.4378199" version="1" timestamp="2022-04-17T12:03:41Z" changeset="119814080" uid="3497659" user="NKA">
		<tag k="name" v="Falteinsrud" />
		<tag k="place" v="farm" />
		<tag k="ssr:stedsnr" v="6843" />
	</node>
	<node id="9671900638" lat="60.3541666" lon="10.3377417" version="1" timestamp="2022-04-17T12:03:41Z" changeset="119814080" uid="3497659" user="NKA">
		<tag k="name" v="Bergebråtan" />
		<tag k="place" v="locality" />
		<tag k="ssr:stedsnr" v="280439" />
	</node>
	<node id="9671900639" lat="60.2650999" lon="10.4801756" version="1" timestamp="2022-04-17T12:03:41Z" changeset="119814080" uid="3497659" user="NKA">
		<tag k="name" v="Farmen" />
		<tag k="place" v="farm" />
		<tag k="ssr:stedsnr" v="249746" />
	</node>
	<node id="9671900640" lat="60.2706869" lon="10.5259096" version="1" timestamp="2022-04-17T12:03:41Z" changeset="119814080" uid="3497659" user="NKA">
		<tag k="name" v="Halvorsrud" />
		<tag k="place" v="farm" />
		<tag k="ssr:stedsnr" v="67812" />
	</node>
	<node id="9671900641" lat="60.2442954" lon="10.4336909" version="1" timestamp="2022-04-17T12:03:41Z" changeset="119814080" uid="3497659" user="NKA">
		<tag k="name" v="Rønnerud" />
		<tag k="place" v="farm" />
		<tag k="ssr:stedsnr" v="733356" />
	</node>
	<node id="9671900642" lat="60.2540976" lon="10.3749043" version="1" timestamp="2022-04-17T12:03:41Z" changeset="119814080" uid="3497659" user="NKA">
		<tag k="name" v="Tokerud" />
		<tag k="place" v="farm" />
		<tag k="ssr:stedsnr" v="127778" />
	</node>
	<node id="9671900643" lat="60.277885" lon="10.5022613" version="1" timestamp="2022-04-17T12:03:41Z" changeset="119814080" uid="3497659" user="NKA">
		<tag k="alt_name" v="Øvre Tronrud" />
		<tag k="name" v="Trondrud" />
		<tag k="place" v="farm" />
		<tag k="ssr:stedsnr" v="491828" />
	</node>
	<node id="9671900644" lat="60.2572802" lon="10.4909702" version="1" timestamp="2022-04-17T12:03:41Z" changeset="119814080" uid="3497659" user="NKA">
		<tag k="name" v="Østby" />
		<tag k="place" v="farm" />
		<tag k="ssr:stedsnr" v="32934" />
	</node>
	<node id="9671900645" lat="60.2926918" lon="10.4142688" version="1" timestamp="2022-04-17T12:03:41Z" changeset="119814080" uid="3497659" user="NKA">
		<tag k="name" v="Løvli" />
		<tag k="place" v="farm" />
		<tag k="ssr:stedsnr" v="398365" />
	</node>
	<node id="9671900646" lat="60.2478667" lon="10.3658027" version="1" timestamp="2022-04-17T12:03:41Z" changeset="119814080" uid="3497659" user="NKA">
		<tag k="name" v="Pilkollen" />
		<tag k="place" v="neighbourhood" />
		<tag k="ssr:stedsnr" v="476996" />
	</node>
	<node id="9671900647" lat="60.2305285" lon="10.4778079" version="1" timestamp="2022-04-17T12:03:41Z" changeset="119814080" uid="3497659" user="NKA">
		<tag k="name" v="Vang seter" />
		<tag k="place" v="farm" />
		<tag k="ssr:stedsnr" v="422135" />
	</node>
	<node id="9671900648" lat="60.266621" lon="10.4745121" version="1" timestamp="2022-04-17T12:03:41Z" changeset="119814080" uid="3497659" user="NKA">
		<tag k="name" v="Vangli" />
		<tag k="place" v="farm" />
		<tag k="ssr:stedsnr" v="734805" />
	</node>
	<node id="9671900649" lat="60.2496554" lon="10.4317222" version="1" timestamp="2022-04-17T12:03:41Z" changeset="119814080" uid="3497659" user="NKA">
		<tag k="alt_name" v="Kveldsrud;Kvelsrud" />
		<tag k="name" v="Kvellsrud" />
		<tag k="place" v="farm" />
		<tag k="ssr:stedsnr" v="795781" />
	</node>
	<node id="9671900650" lat="60.2671856" lon="10.5029448" version="1" timestamp="2022-04-17T12:03:41Z" changeset="119814080" uid="3497659" user="NKA">
		<tag k="name" v="Vangen" />
		<tag k="place" v="farm" />
		<tag k="ssr:stedsnr" v="309807" />
	</node>
	<node id="9671900651" lat="60.3097535" lon="10.3842041" version="2" timestamp="2022-08-10T22:57:00Z" changeset="124751588" uid="435265" user="Ansgar G Grimsrud">
		<tag k="name" v="Bjertnes" />
		<tag k="place" v="hamlet" />
		<tag k="ssr:stedsnr" v="988012" />
	</node>
	<node id="9671900652" lat="60.310926" lon="10.429764" version="1" timestamp="2022-04-17T12:03:41Z" changeset="119814080" uid="3497659" user="NKA">
		<tag k="alt_name" v="Velohagan" />
		<tag k="name" v="Hagan" />
		<tag k="place" v="farm" />
		<tag k="ssr:stedsnr" v="6941" />
	</node>
	<node id="9671900653" lat="60.3098207" lon="10.4511989" version="1" timestamp="2022-04-17T12:03:41Z" changeset="119814080" uid="3497659" user="NKA">
		<tag k="name" v="Tjernstua" />
		<tag k="place" v="locality" />
		<tag k="ssr:stedsnr" v="370936" />
	</node>
	<node id="9671900654" lat="60.236833" lon="10.3606789" version="1" timestamp="2022-04-17T12:03:41Z" changeset="119814080" uid="3497659" user="NKA">
		<tag k="alt_name" v="Stensrud" />
		<tag k="name" v="Steinerud" />
		<tag k="place" v="isolated_dwelling" />
		<tag k="ssr:stedsnr" v="490388" />
	</node>
	<node id="9671900655" lat="60.2743994" lon="10.4805229" version="1" timestamp="2022-04-17T12:03:41Z" changeset="119814080" uid="3497659" user="NKA">
		<tag k="name" v="Gårdsrud" />
		<tag k="place" v="farm" />
		<tag k="ssr:stedsnr" v="6846" />
	</node>
	<node id="9671900656" lat="60.2912396" lon="10.3533598" version="1" timestamp="2022-04-17T12:03:41Z" changeset="119814080" uid="3497659" user="NKA">
		<tag k="name" v="Sandvika" />
		<tag k="place" v="hamlet" />
		<tag k="ssr:stedsnr" v="249862" />
	</node>
	<node id="9671900657" lat="60.2859582" lon="10.3526121" version="1" timestamp="2022-04-17T12:03:41Z" changeset="119814080" uid="3497659" user="NKA">
		<tag k="alt_name" v="Nordåsen;Åsen, nordre" />
		<tag k="name" v="Nordre Åsen" />
		<tag k="place" v="farm" />
		<tag k="ssr:stedsnr" v="856876" />
	</node>
	<node id="9671900658" lat="60.3077849" lon="10.432464" version="1" timestamp="2022-04-17T12:03:41Z" changeset="119814080" uid="3497659" user="NKA">
		<tag k="name" v="Velo" />
		<tag k="place" v="hamlet" />
		<tag k="ssr:stedsnr" v="988013" />
	</node>
	<node id="9671900659" lat="60.2332722" lon="10.4269" version="1" timestamp="2022-04-17T12:03:41Z" changeset="119814080" uid="3497659" user="NKA">
		<tag k="name" v="Haugen" />
		<tag k="place" v="farm" />
		<tag k="ssr:stedsnr" v="248383" />
	</node>
	<node id="9671900660" lat="60.3457262" lon="10.2715466" version="1" timestamp="2022-04-17T12:03:41Z" changeset="119814080" uid="3497659" user="NKA">
		<tag k="name" v="Tangnes" />
		<tag k="place" v="isolated_dwelling" />
		<tag k="ssr:stedsnr" v="673588" />
	</node>
	<node id="9671900661" lat="60.3010147" lon="10.348567" version="1" timestamp="2022-04-17T12:03:41Z" changeset="119814080" uid="3497659" user="NKA">
		<tag k="name" v="Steinhus" />
		<tag k="place" v="isolated_dwelling" />
		<tag k="ssr:stedsnr" v="188911" />
	</node>
	<node id="9671900662" lat="60.2527915" lon="10.4374507" version="1" timestamp="2022-04-17T12:03:41Z" changeset="119814080" uid="3497659" user="NKA">
		<tag k="name" v="Helleksrud" />
		<tag k="place" v="isolated_dwelling" />
		<tag k="ssr:stedsnr" v="188810" />
	</node>
	<node id="9671900663" lat="60.2741502" lon="10.3247044" version="1" timestamp="2022-04-17T12:03:41Z" changeset="119814080" uid="3497659" user="NKA">
		<tag k="name" v="Fuglesang" />
		<tag k="place" v="isolated_dwelling" />
		<tag k="ssr:stedsnr" v="249435" />
	</node>
	<node id="9671900664" lat="60.2788354" lon="10.4722899" version="1" timestamp="2022-04-17T12:03:41Z" changeset="119814080" uid="3497659" user="NKA">
		<tag k="name" v="Linlykja" />
		<tag k="place" v="farm" />
		<tag k="ssr:stedsnr" v="221042" />
	</node>
	<node id="9671900665" lat="60.2808205" lon="10.429497" version="1" timestamp="2022-04-17T12:03:41Z" changeset="119814080" uid="3497659" user="NKA">
		<tag k="alt_name" v="Skjennum, nordre" />
		<tag k="name" v="Nordre Skjennum" />
		<tag k="place" v="farm" />
		<tag k="ssr:stedsnr" v="67846" />
	</node>
	<node id="9671900666" lat="60.3314083" lon="10.3159806" version="1" timestamp="2022-04-17T12:03:41Z" changeset="119814080" uid="3497659" user="NKA">
		<tag k="alt_name" v="Skutseter" />
		<tag k="historic" v="shieling" />
		<tag k="name" v="Skutsætra" />
		<tag k="place" v="isolated_dwelling" />
		<tag k="ssr:stedsnr" v="309489" />
	</node>
	<node id="9671900667" lat="60.2227083" lon="10.5274626" version="1" timestamp="2022-04-17T12:03:41Z" changeset="119814080" uid="3497659" user="NKA">
		<tag k="name" v="Øljehytta" />
		<tag k="place" v="isolated_dwelling" />
		<tag k="ssr:stedsnr" v="32872" />
	</node>
	<node id="9671900668" lat="60.2961798" lon="10.4143973" version="1" timestamp="2022-04-17T12:03:41Z" changeset="119814080" uid="3497659" user="NKA">
		<tag k="alt_name" v="Roenbråten" />
		<tag k="name" v="Roenbråtån" />
		<tag k="place" v="farm" />
		<tag k="ssr:stedsnr" v="856868" />
	</node>
	<node id="9671900669" lat="60.2488403" lon="10.3791233" version="1" timestamp="2022-04-17T12:03:41Z" changeset="119814080" uid="3497659" user="NKA">
		<tag k="name" v="Nøkleby" />
		<tag k="place" v="hamlet" />
		<tag k="ssr:stedsnr" v="987987" />
	</node>
	<node id="9671900670" lat="60.2560059" lon="10.4848525" version="1" timestamp="2022-04-17T12:03:41Z" changeset="119814080" uid="3497659" user="NKA">
		<tag k="name" v="Høglund" />
		<tag k="place" v="farm" />
		<tag k="ssr:stedsnr" v="847192" />
	</node>
	<node id="9671900671" lat="60.2627355" lon="10.4566235" version="1" timestamp="2022-04-17T12:03:41Z" changeset="119814080" uid="3497659" user="NKA">
		<tag k="alt_name" v="Presthagen" />
		<tag k="name" v="Presthagan" />
		<tag k="place" v="farm" />
		<tag k="ssr:stedsnr" v="552779" />
	</node>
	<node id="9671900672" lat="60.2570107" lon="10.4376578" version="1" timestamp="2022-04-17T12:03:41Z" changeset="119814080" uid="3497659" user="NKA">
		<tag k="name" v="Prestegården" />
		<tag k="place" v="farm" />
		<tag k="ssr:stedsnr" v="118146" />
	</node>
	<node id="9671900673" lat="60.2223369" lon="10.3701545" version="1" timestamp="2022-04-17T12:03:41Z" changeset="119814080" uid="3497659" user="NKA">
		<tag k="name" v="Kistefoss" />
		<tag k="place" v="farm" />
		<tag k="ssr:stedsnr" v="66445" />
	</node>
	<node id="9671900674" lat="60.3106435" lon="10.4165076" version="1" timestamp="2022-04-17T12:03:41Z" changeset="119814080" uid="3497659" user="NKA">
		<tag k="name" v="Rud" />
		<tag k="place" v="farm" />
		<tag k="ssr:stedsnr" v="612877" />
	</node>
	<node id="9671900675" lat="60.2495298" lon="10.3694484" version="1" timestamp="2022-04-17T12:03:41Z" changeset="119814080" uid="3497659" user="NKA">
		<tag k="alt_name" v="Barbrostuhaugen" />
		<tag k="name" v="Haug" />
		<tag k="place" v="farm" />
		<tag k="ssr:stedsnr" v="309741" />
	</node>
	<node id="9671900676" lat="60.2817426" lon="10.4478086" version="1" timestamp="2022-04-17T12:03:41Z" changeset="119814080" uid="3497659" user="NKA">
		<tag k="name" v="Enerhaugen" />
		<tag k="place" v="farm" />
		<tag k="ssr:stedsnr" v="645113" />
	</node>
	<node id="9671900677" lat="60.3513493" lon="10.3595647" version="1" timestamp="2022-04-17T12:03:41Z" changeset="119814080" uid="3497659" user="NKA">
		<tag k="name" v="Jægersborg" />
		<tag k="place" v="isolated_dwelling" />
		<tag k="ssr:stedsnr" v="765401" />
	</node>
	<node id="9671900678" lat="60.2748895" lon="10.4060055" version="1" timestamp="2022-04-17T12:03:41Z" changeset="119814080" uid="3497659" user="NKA">
		<tag k="name" v="Bjellum" />
		<tag k="place" v="hamlet" />
		<tag k="ssr:stedsnr" v="987989" />
	</node>
	<node id="9671900679" lat="60.3340553" lon="10.3440352" version="1" timestamp="2022-04-17T12:03:41Z" changeset="119814080" uid="3497659" user="NKA">
		<tag k="name" v="Elnes" />
		<tag k="place" v="hamlet" />
		<tag k="ssr:stedsnr" v="67993" />
	</node>
	<node id="9671900680" lat="60.3122419" lon="10.4404369" version="1" timestamp="2022-04-17T12:03:41Z" changeset="119814080" uid="3497659" user="NKA">
		<tag k="name" v="Bekkestua" />
		<tag k="place" v="isolated_dwelling" />
		<tag k="ssr:stedsnr" v="128919" />
	</node>
	<node id="9671900681" lat="60.2524137" lon="10.3094826" version="1" timestamp="2022-04-17T12:03:41Z" changeset="119814080" uid="3497659" user="NKA">
		<tag k="name" v="Buttenheim" />
		<tag k="place" v="isolated_dwelling" />
		<tag k="ssr:stedsnr" v="884251" />
	</node>
	<node id="9671900682" lat="60.2297528" lon="10.4024612" version="1" timestamp="2022-04-17T12:03:41Z" changeset="119814080" uid="3497659" user="NKA">
		<tag k="name" v="Gruer" />
		<tag k="place" v="locality" />
		<tag k="ssr:stedsnr" v="672373" />
	</node>
	<node id="9671900683" lat="60.2902203" lon="10.4077783" version="1" timestamp="2022-04-17T12:03:41Z" changeset="119814080" uid="3497659" user="NKA">
		<tag k="alt_name" v="Roen" />
		<tag k="name" v="Skjeggerud" />
		<tag k="place" v="farm" />
		<tag k="ssr:stedsnr" v="701489" />
	</node>
	<node id="9671900684" lat="60.2880906" lon="10.2920421" version="1" timestamp="2022-04-17T12:03:41Z" changeset="119814080" uid="3497659" user="NKA">
		<tag k="alt_name" v="Myrheim" />
		<tag k="name" v="Kistefosshytta" />
		<tag k="place" v="isolated_dwelling" />
		<tag k="ssr:stedsnr" v="249404" />
	</node>
	<node id="9671900685" lat="60.310587" lon="10.3853728" version="1" timestamp="2022-04-17T12:03:41Z" changeset="119814080" uid="3497659" user="NKA">
		<tag k="alt_name" v="Bjertnes, nordre" />
		<tag k="name" v="Nordre Bjertnes" />
		<tag k="place" v="farm" />
		<tag k="ssr:stedsnr" v="856890" />
	</node>
	<node id="9671900686" lat="60.2662988" lon="10.453903" version="1" timestamp="2022-04-17T12:03:41Z" changeset="119814080" uid="3497659" user="NKA">
		<tag k="name" v="Karlsrud" />
		<tag k="place" v="farm" />
		<tag k="ssr:stedsnr" v="585109" />
	</node>
	<node id="9671900687" lat="60.3083632" lon="10.3926694" version="1" timestamp="2022-04-17T12:03:41Z" changeset="119814080" uid="3497659" user="NKA">
		<tag k="name" v="Grøndal" />
		<tag k="place" v="farm" />
		<tag k="ssr:stedsnr" v="856893" />
	</node>
	<node id="9671900688" lat="60.293252" lon="10.4606424" version="1" timestamp="2022-04-17T12:03:41Z" changeset="119814080" uid="3497659" user="NKA">
		<tag k="alt_name" v="Hvaterud, s;Søndre Vaterud" />
		<tag k="name" v="Søndre Hvaterud" />
		<tag k="place" v="farm" />
		<tag k="ssr:stedsnr" v="309860" />
	</node>
	<node id="9671900689" lat="60.2672509" lon="10.4141111" version="1" timestamp="2022-04-17T12:03:41Z" changeset="119814080" uid="3497659" user="NKA">
		<tag k="name" v="Gulla" />
		<tag k="place" v="farm" />
		<tag k="ssr:stedsnr" v="431804" />
	</node>
	<node id="9671900690" lat="60.2504583" lon="10.3874806" version="1" timestamp="2022-04-17T12:03:41Z" changeset="119814080" uid="3497659" user="NKA">
		<tag k="name" v="Birkelund" />
		<tag k="place" v="isolated_dwelling" />
		<tag k="ssr:stedsnr" v="127804" />
	</node>
	<node id="9671900691" lat="60.2788472" lon="10.4791431" version="1" timestamp="2022-04-17T12:03:41Z" changeset="119814080" uid="3497659" user="NKA">
		<tag k="name" v="Bakken" />
		<tag k="place" v="farm" />
		<tag k="ssr:stedsnr" v="403012" />
	</node>
	<node id="9671900692" lat="60.3370245" lon="10.3558236" version="1" timestamp="2022-04-17T12:03:41Z" changeset="119814080" uid="3497659" user="NKA">
		<tag k="name" v="Solstad" />
		<tag k="place" v="isolated_dwelling" />
		<tag k="ssr:stedsnr" v="431996" />
	</node>
	<node id="9671900693" lat="60.3566092" lon="10.2441914" version="1" timestamp="2022-04-17T12:03:41Z" changeset="119814080" uid="3497659" user="NKA">
		<tag k="name" v="Flåtjernshytta" />
		<tag k="place" v="isolated_dwelling" />
		<tag k="ssr:stedsnr" v="611597" />
	</node>
	<node id="9671900694" lat="60.2758252" lon="10.4077714" version="1" timestamp="2022-04-17T12:03:41Z" changeset="119814080" uid="3497659" user="NKA">
		<tag k="alt_name" v="Bjellum, nordre;Bjellum" />
		<tag k="name" v="Nordre Bjellum" />
		<tag k="place" v="farm" />
		<tag k="ssr:stedsnr" v="188814" />
	</node>
	<node id="9671900695" lat="60.3400064" lon="10.2614396" version="1" timestamp="2022-04-17T12:03:41Z" changeset="119814080" uid="3497659" user="NKA">
		<tag k="alt_name" v="Halvorsbølesætra, vestre;Vestre Halvorbøleseter" />
		<tag k="historic" v="shieling" />
		<tag k="name" v="Vestre Halvorsbølesætra" />
		<tag k="place" v="isolated_dwelling" />
		<tag k="ssr:stedsnr" v="127622" />
	</node>
	<node id="9671900696" lat="60.3130333" lon="10.3283555" version="1" timestamp="2022-04-17T12:03:41Z" changeset="119814080" uid="3497659" user="NKA">
		<tag k="alt_name" v="Myreseter" />
		<tag k="historic" v="shieling" />
		<tag k="name" v="Velsandsætra" />
		<tag k="place" v="isolated_dwelling" />
		<tag k="ssr:stedsnr" v="370528" />
	</node>
	<node id="9671900697" lat="60.2552093" lon="10.4290961" version="1" timestamp="2022-04-17T12:03:41Z" changeset="119814080" uid="3497659" user="NKA">
		<tag k="name" v="Solbakken" />
		<tag k="place" v="farm" />
		<tag k="ssr:stedsnr" v="482155" />
	</node>
	<node id="9671900698" lat="60.2665615" lon="10.529828" version="1" timestamp="2022-04-17T12:03:41Z" changeset="119814080" uid="3497659" user="NKA">
		<tag k="name" v="Halvorsrudbekken" />
		<tag k="place" v="isolated_dwelling" />
		<tag k="ssr:stedsnr" v="6818" />
	</node>
	<node id="9671900699" lat="60.27335" lon="10.3104833" version="1" timestamp="2022-04-17T12:03:41Z" changeset="119814080" uid="3497659" user="NKA">
		<tag k="name" v="Nyseter" />
		<tag k="place" v="locality" />
		<tag k="ssr:stedsnr" v="701342" />
	</node>
	<node id="9671900700" lat="60.2733464" lon="10.4619232" version="1" timestamp="2022-04-17T12:03:41Z" changeset="119814080" uid="3497659" user="NKA">
		<tag k="name" v="Kårstad" />
		<tag k="place" v="farm" />
		<tag k="ssr:stedsnr" v="856856" />
	</node>
	<node id="9671900701" lat="60.2671865" lon="10.5381434" version="1" timestamp="2022-04-17T12:03:41Z" changeset="119814080" uid="3497659" user="NKA">
		<tag k="name" v="Høghaug" />
		<tag k="place" v="isolated_dwelling" />
		<tag k="ssr:stedsnr" v="517961" />
	</node>
	<node id="9671900702" lat="60.226108" lon="10.3488055" version="1" timestamp="2022-04-17T12:03:41Z" changeset="119814080" uid="3497659" user="NKA">
		<tag k="loc_name" v="Bergemoen" />
		<tag k="name" v="Bergermoen" />
		<tag k="place" v="neighbourhood" />
		<tag k="ssr:stedsnr" v="66447" />
	</node>
	<node id="9671900703" lat="60.2599611" lon="10.4787917" version="1" timestamp="2022-04-17T12:03:41Z" changeset="119814080" uid="3497659" user="NKA">
		<tag k="name" v="Nordli" />
		<tag k="place" v="farm" />
		<tag k="ssr:stedsnr" v="552777" />
	</node>
	<node id="9671900704" lat="60.2311425" lon="10.4795336" version="1" timestamp="2022-04-17T12:03:41Z" changeset="119814080" uid="3497659" user="NKA">
		<tag k="historic" v="shieling" />
		<tag k="name" v="Vangsætra" />
		<tag k="place" v="isolated_dwelling" />
		<tag k="ssr:stedsnr" v="430381" />
	</node>
	<node id="9671900705" lat="60.2072973" lon="10.4848722" version="1" timestamp="2022-04-17T12:03:41Z" changeset="119814080" uid="3497659" user="NKA">
		<tag k="name" v="Myrheim" />
		<tag k="place" v="isolated_dwelling" />
		<tag k="ssr:stedsnr" v="855423" />
	</node>
	<node id="9671900706" lat="60.2347563" lon="10.4306087" version="1" timestamp="2022-04-17T12:03:41Z" changeset="119814080" uid="3497659" user="NKA">
		<tag k="name" v="Bakken" />
		<tag k="place" v="isolated_dwelling" />
		<tag k="ssr:stedsnr" v="847257" />
	</node>
	<node id="9671900707" lat="60.2842927" lon="10.4397417" version="1" timestamp="2022-04-17T12:03:41Z" changeset="119814080" uid="3497659" user="NKA">
		<tag k="name" v="Engerstykket" />
		<tag k="place" v="isolated_dwelling" />
		<tag k="ssr:stedsnr" v="916878" />
	</node>
	<node id="9671900708" lat="60.3355473" lon="10.3487056" version="1" timestamp="2022-04-17T12:03:41Z" changeset="119814080" uid="3497659" user="NKA">
		<tag k="name" v="Engeli" />
		<tag k="place" v="locality" />
		<tag k="ssr:stedsnr" v="6999" />
	</node>
	<node id="9671900709" lat="60.2510684" lon="10.3505271" version="1" timestamp="2022-04-17T12:03:41Z" changeset="119814080" uid="3497659" user="NKA">
		<tag k="alt_name" v="Jørnsbråtan" />
		<tag k="historic" v="shieling" />
		<tag k="name" v="Jørnsbråtåsætra" />
		<tag k="place" v="isolated_dwelling" />
		<tag k="ssr:stedsnr" v="67753" />
	</node>
	<node id="9671900710" lat="60.2883717" lon="10.3571126" version="1" timestamp="2022-04-17T12:03:41Z" changeset="119814080" uid="3497659" user="NKA">
		<tag k="name" v="Næverbekken" />
		<tag k="place" v="farm" />
		<tag k="ssr:stedsnr" v="173245" />
	</node>
	<node id="9671900711" lat="60.2682533" lon="10.4747282" version="1" timestamp="2022-04-17T12:03:41Z" changeset="119814080" uid="3497659" user="NKA">
		<tag k="name" v="Ragnhildrud" />
		<tag k="place" v="neighbourhood" />
		<tag k="ssr:stedsnr" v="419911" />
	</node>
	<node id="9671900712" lat="60.2258294" lon="10.3641395" version="1" timestamp="2022-04-17T12:03:41Z" changeset="119814080" uid="3497659" user="NKA">
		<tag k="name" v="Furumoen" />
		<tag k="place" v="neighbourhood" />
		<tag k="ssr:stedsnr" v="779582" />
	</node>
	<node id="9671900713" lat="60.3224922" lon="10.3447882" version="1" timestamp="2022-04-17T12:03:41Z" changeset="119814080" uid="3497659" user="NKA">
		<tag k="name" v="Velsand" />
		<tag k="place" v="hamlet" />
		<tag k="ssr:stedsnr" v="309954" />
	</node>
	<node id="9671900714" lat="60.3078063" lon="10.4540932" version="1" timestamp="2022-04-17T12:03:41Z" changeset="119814080" uid="3497659" user="NKA">
		<tag k="name" v="Midtlia" />
		<tag k="place" v="locality" />
		<tag k="ssr:stedsnr" v="90145" />
	</node>
	<node id="9671900715" lat="60.3161004" lon="10.4019075" version="1" timestamp="2022-04-17T12:03:41Z" changeset="119814080" uid="3497659" user="NKA">
		<tag k="name" v="Nordmarka" />
		<tag k="place" v="isolated_dwelling" />
		<tag k="ssr:stedsnr" v="795913" />
	</node>
	<node id="9671900716" lat="60.2665016" lon="10.4675262" version="1" timestamp="2022-04-17T12:03:41Z" changeset="119814080" uid="3497659" user="NKA">
		<tag k="alt_name" v="Lien" />
		<tag k="name" v="Lia" />
		<tag k="place" v="farm" />
		<tag k="ssr:stedsnr" v="431807" />
	</node>
	<node id="9671900717" lat="60.2773729" lon="10.5217508" version="1" timestamp="2022-04-17T12:03:41Z" changeset="119814080" uid="3497659" user="NKA">
		<tag k="alt_name" v="Svenskeenga" />
		<tag k="name" v="Svenskenga" />
		<tag k="place" v="farm" />
		<tag k="ssr:stedsnr" v="734830" />
	</node>
	<node id="9671900718" lat="60.2214477" lon="10.424749" version="1" timestamp="2022-04-17T12:03:41Z" changeset="119814080" uid="3497659" user="NKA">
		<tag k="alt_name" v="Dælen" />
		<tag k="name" v="Dalen" />
		<tag k="place" v="locality" />
		<tag k="ssr:stedsnr" v="187439" />
	</node>
	<node id="9671900719" lat="60.2893132" lon="10.5079607" version="1" timestamp="2022-04-17T12:03:41Z" changeset="119814080" uid="3497659" user="NKA">
		<tag k="name" v="Østre Vassjø" />
		<tag k="place" v="farm" />
		<tag k="ssr:stedsnr" v="275546" />
	</node>
	<node id="9671900720" lat="60.2570833" lon="10.4896611" version="1" timestamp="2022-04-17T12:03:41Z" changeset="119814080" uid="3497659" user="NKA">
		<tag k="name" v="Myrvoll" />
		<tag k="place" v="farm" />
		<tag k="ssr:stedsnr" v="127789" />
	</node>
	<node id="9671900721" lat="60.2845848" lon="10.3556624" version="1" timestamp="2022-04-17T12:03:41Z" changeset="119814080" uid="3497659" user="NKA">
		<tag k="alt_name" v="Søråsen;Åsen, s" />
		<tag k="name" v="Søndre Åsen" />
		<tag k="place" v="farm" />
		<tag k="ssr:stedsnr" v="309864" />
	</node>
	<node id="9671900722" lat="60.2681293" lon="10.4650734" version="1" timestamp="2022-04-17T12:03:41Z" changeset="119814080" uid="3497659" user="NKA">
		<tag k="name" v="Haug" />
		<tag k="place" v="isolated_dwelling" />
		<tag k="ssr:stedsnr" v="221001" />
	</node>
	<node id="9671900723" lat="60.2775346" lon="10.434418" version="1" timestamp="2022-04-17T12:03:41Z" changeset="119814080" uid="3497659" user="NKA">
		<tag k="alt_name" v="Skjennum, s" />
		<tag k="name" v="Søndre Skjennum" />
		<tag k="place" v="farm" />
		<tag k="ssr:stedsnr" v="6842" />
	</node>
	<node id="9671900725" lat="60.2978728" lon="10.3884493" version="1" timestamp="2022-04-17T12:03:41Z" changeset="119814080" uid="3497659" user="NKA">
		<tag k="alt_name" v="Igelsrud" />
		<tag k="name" v="Igulsrud" />
		<tag k="place" v="farm" />
		<tag k="ssr:stedsnr" v="370867" />
	</node>
	<node id="9671900726" lat="60.2510166" lon="10.4454445" version="1" timestamp="2022-04-17T12:03:41Z" changeset="119814080" uid="3497659" user="NKA">
		<tag k="name" v="Skogtun" />
		<tag k="place" v="isolated_dwelling" />
		<tag k="ssr:stedsnr" v="612776" />
	</node>
	<node id="9671900727" lat="60.2708161" lon="10.5128306" version="1" timestamp="2022-04-17T12:03:41Z" changeset="119814080" uid="3497659" user="NKA">
		<tag k="name" v="Nordstrand" />
		<tag k="place" v="farm" />
		<tag k="ssr:stedsnr" v="93914" />
	</node>
	<node id="9671900728" lat="60.339425" lon="10.34565" version="1" timestamp="2022-04-17T12:03:41Z" changeset="119814080" uid="3497659" user="NKA">
		<tag k="name" v="Granli" />
		<tag k="place" v="farm" />
		<tag k="ssr:stedsnr" v="795055" />
	</node>
	<node id="9671900729" lat="60.2522715" lon="10.3784031" version="1" timestamp="2022-04-17T12:03:41Z" changeset="119814080" uid="3497659" user="NKA">
		<tag k="name" v="Solberg" />
		<tag k="place" v="farm" />
		<tag k="ssr:stedsnr" v="491738" />
	</node>
	<node id="9671900730" lat="60.2913373" lon="10.2868999" version="1" timestamp="2022-04-17T12:03:41Z" changeset="119814080" uid="3497659" user="NKA">
		<tag k="name" v="Valhall" />
		<tag k="place" v="isolated_dwelling" />
		<tag k="ssr:stedsnr" v="884245" />
	</node>
	<node id="9671900731" lat="60.2017934" lon="10.563598" version="1" timestamp="2022-04-17T12:03:41Z" changeset="119814080" uid="3497659" user="NKA">
		<tag k="name" v="Kalvedalshytta" />
		<tag k="place" v="isolated_dwelling" />
		<tag k="ssr:stedsnr" v="638273" />
	</node>
	<node id="9671900732" lat="60.2333266" lon="10.3741324" version="1" timestamp="2022-04-17T12:03:41Z" changeset="119814080" uid="3497659" user="NKA">
		<tag k="name" v="Vadhua" />
		<tag k="place" v="farm" />
		<tag k="ssr:stedsnr" v="361136" />
	</node>
	<node id="9671900733" lat="60.3323472" lon="10.3222195" version="1" timestamp="2022-04-17T12:03:41Z" changeset="119814080" uid="3497659" user="NKA">
		<tag k="alt_name" v="Elnesseter" />
		<tag k="historic" v="shieling" />
		<tag k="name" v="Elnessætra" />
		<tag k="place" v="isolated_dwelling" />
		<tag k="ssr:stedsnr" v="491465" />
	</node>
	<node id="9671900734" lat="60.3048005" lon="10.4152987" version="1" timestamp="2022-04-17T12:03:41Z" changeset="119814080" uid="3497659" user="NKA">
		<tag k="name" v="Sognebu" />
		<tag k="place" v="farm" />
		<tag k="ssr:stedsnr" v="987362" />
	</node>
	<node id="9671900735" lat="60.2934101" lon="10.4567839" version="1" timestamp="2022-04-17T12:03:41Z" changeset="119814080" uid="3497659" user="NKA">
		<tag k="alt_name" v="Hvaterud, vestre;Vestre Vaterud" />
		<tag k="name" v="Vestre Hvaterud" />
		<tag k="place" v="farm" />
		<tag k="ssr:stedsnr" v="6866" />
	</node>
	<node id="9671900736" lat="60.2485807" lon="10.3704515" version="1" timestamp="2022-04-17T12:03:41Z" changeset="119814080" uid="3497659" user="NKA">
		<tag k="name" v="Nordhagen" />
		<tag k="place" v="neighbourhood" />
		<tag k="ssr:stedsnr" v="127453" />
	</node>
	<node id="9671900737" lat="60.301496" lon="10.4413894" version="1" timestamp="2022-04-17T12:03:41Z" changeset="119814080" uid="3497659" user="NKA">
		<tag k="name" v="Eng" />
		<tag k="place" v="farm" />
		<tag k="ssr:stedsnr" v="987352" />
	</node>
	<node id="9671900738" lat="60.2876827" lon="10.4926544" version="1" timestamp="2022-04-17T12:03:41Z" changeset="119814080" uid="3497659" user="NKA">
		<tag k="name" v="Mellerud" />
		<tag k="place" v="farm" />
		<tag k="ssr:stedsnr" v="491811" />
	</node>
	<node id="9671900739" lat="60.2358108" lon="10.4223951" version="1" timestamp="2022-04-17T12:03:41Z" changeset="119814080" uid="3497659" user="NKA">
		<tag k="name" v="Hauger" />
		<tag k="place" v="farm" />
		<tag k="ssr:stedsnr" v="248382" />
	</node>
	<node id="9671900740" lat="60.2912234" lon="10.3406769" version="1" timestamp="2022-04-17T12:03:41Z" changeset="119814080" uid="3497659" user="NKA">
		<tag k="name" v="Persbråtan" />
		<tag k="place" v="farm" />
		<tag k="ssr:stedsnr" v="856448" />
	</node>
	<node id="9671900741" lat="60.3708779" lon="10.3526953" version="1" timestamp="2022-04-17T12:03:41Z" changeset="119814080" uid="3497659" user="NKA">
		<tag k="name" v="Vik" />
		<tag k="place" v="farm" />
		<tag k="ssr:stedsnr" v="916105" />
	</node>
	<node id="9671900742" lat="60.2100494" lon="10.5096839" version="1" timestamp="2022-04-17T12:03:41Z" changeset="119814080" uid="3497659" user="NKA">
		<tag k="alt_name" v="Tverrsjøhytta" />
		<tag k="name" v="Tverrsjøstallen" />
		<tag k="place" v="isolated_dwelling" />
		<tag k="ssr:stedsnr" v="430462" />
	</node>
	<node id="9671900743" lat="60.275057" lon="10.5124296" version="1" timestamp="2022-04-17T12:03:41Z" changeset="119814080" uid="3497659" user="NKA">
		<tag k="name" v="Liesmarka" />
		<tag k="place" v="farm" />
		<tag k="ssr:stedsnr" v="821935" />
	</node>
	<node id="9671900744" lat="60.2371722" lon="10.4066611" version="1" timestamp="2022-04-17T12:03:41Z" changeset="119814080" uid="3497659" user="NKA">
		<tag k="name" v="Grønland" />
		<tag k="place" v="neighbourhood" />
		<tag k="ssr:stedsnr" v="847150" />
	</node>
	<node id="9671900745" lat="60.2927828" lon="10.3335486" version="1" timestamp="2022-04-17T12:03:41Z" changeset="119814080" uid="3497659" user="NKA">
		<tag k="name" v="Øvre Rolfsbråtan" />
		<tag k="place" v="farm" />
		<tag k="ssr:stedsnr" v="416250" />
	</node>
	<node id="9671900746" lat="60.2825346" lon="10.33981" version="1" timestamp="2022-04-17T12:03:41Z" changeset="119814080" uid="3497659" user="NKA">
		<tag k="name" v="Åsbråtan" />
		<tag k="place" v="isolated_dwelling" />
		<tag k="ssr:stedsnr" v="309451" />
	</node>
	<node id="9671900747" lat="60.2613913" lon="10.4601987" version="1" timestamp="2022-04-17T12:03:41Z" changeset="119814080" uid="3497659" user="NKA">
		<tag k="name" v="Hensrud" />
		<tag k="place" v="hamlet" />
		<tag k="ssr:stedsnr" v="673753" />
	</node>
	<node id="9671900748" lat="60.292905" lon="10.2808114" version="1" timestamp="2022-04-17T12:03:41Z" changeset="119814080" uid="3497659" user="NKA">
		<tag k="name" v="Brennfu" />
		<tag k="place" v="isolated_dwelling" />
		<tag k="ssr:stedsnr" v="398260" />
	</node>
	<node id="9671900749" lat="60.2957639" lon="10.337889" version="1" timestamp="2022-04-17T12:03:41Z" changeset="119814080" uid="3497659" user="NKA">
		<tag k="alt_name" v="Sør-Falla;Falla, s" />
		<tag k="name" v="Søndre Falla" />
		<tag k="place" v="farm" />
		<tag k="ssr:stedsnr" v="431410" />
	</node>
	<node id="9671900750" lat="60.2455194" lon="10.4411249" version="1" timestamp="2022-04-17T12:03:41Z" changeset="119814080" uid="3497659" user="NKA">
		<tag k="name" v="Bekkestua" />
		<tag k="place" v="locality" />
		<tag k="ssr:stedsnr" v="66363" />
	</node>
	<node id="9671900751" lat="60.2805877" lon="10.5162787" version="1" timestamp="2022-04-17T12:03:41Z" changeset="119814080" uid="3497659" user="NKA">
		<tag k="name" v="Østre Igelstad" />
		<tag k="place" v="farm" />
		<tag k="ssr:stedsnr" v="299857" />
	</node>
	<node id="9671900752" lat="60.2932694" lon="10.3413861" version="1" timestamp="2022-04-17T12:03:41Z" changeset="119814080" uid="3497659" user="NKA">
		<tag k="name" v="Roensbråtan" />
		<tag k="place" v="locality" />
		<tag k="ssr:stedsnr" v="780250" />
	</node>
	<node id="9671900753" lat="60.3468944" lon="10.3051361" version="1" timestamp="2022-04-17T12:03:41Z" changeset="119814080" uid="3497659" user="NKA">
		<tag k="alt_name" v="Halvorsbølesætra, østre;Halvorbøleseter" />
		<tag k="historic" v="shieling" />
		<tag k="name" v="Østre Halvorsbølesætra" />
		<tag k="place" v="isolated_dwelling" />
		<tag k="ssr:stedsnr" v="491596" />
	</node>
	<node id="9671900754" lat="60.358875" lon="10.2874195" version="1" timestamp="2022-04-17T12:03:41Z" changeset="119814080" uid="3497659" user="NKA">
		<tag k="name" v="Langtjernshytta" />
		<tag k="place" v="isolated_dwelling" />
		<tag k="ssr:stedsnr" v="5590" />
	</node>
	<node id="9671900755" lat="60.3784084" lon="10.2390025" version="1" timestamp="2022-04-17T12:03:41Z" changeset="119814080" uid="3497659" user="NKA">
		<tag k="alt_name" v="Tyrispikkhytta" />
		<tag k="name" v="Tyrispikhytta" />
		<tag k="place" v="isolated_dwelling" />
		<tag k="ssr:stedsnr" v="309638" />
	</node>
	<node id="9671900756" lat="60.2446584" lon="10.3761445" version="1" timestamp="2022-04-17T12:03:41Z" changeset="119814080" uid="3497659" user="NKA">
		<tag k="name" v="Randsborg" />
		<tag k="place" v="neighbourhood" />
		<tag k="ssr:stedsnr" v="786084" />
	</node>
	<node id="9671900757" lat="60.2558125" lon="10.4467677" version="1" timestamp="2022-04-17T12:03:41Z" changeset="119814080" uid="3497659" user="NKA">
		<tag k="alt_name" v="Bratval" />
		<tag k="name" v="Brattval" />
		<tag k="place" v="farm" />
		<tag k="ssr:stedsnr" v="67776" />
	</node>
	<node id="9671900758" lat="60.2755093" lon="10.4884375" version="1" timestamp="2022-04-17T12:03:41Z" changeset="119814080" uid="3497659" user="NKA">
		<tag k="name" v="Kinge" />
		<tag k="place" v="farm" />
		<tag k="ssr:stedsnr" v="916858" />
	</node>
	<node id="9671900759" lat="60.29795" lon="10.4171167" version="1" timestamp="2022-04-17T12:03:41Z" changeset="119814080" uid="3497659" user="NKA">
		<tag k="name" v="Høybråtån" />
		<tag k="place" v="isolated_dwelling" />
		<tag k="ssr:stedsnr" v="431874" />
	</node>
	<node id="9671900760" lat="60.2237715" lon="10.3868911" version="1" timestamp="2022-04-17T12:03:41Z" changeset="119814080" uid="3497659" user="NKA">
		<tag k="name" v="Kleggerud" />
		<tag k="place" v="farm" />
		<tag k="ssr:stedsnr" v="733440" />
	</node>
	<node id="9671900761" lat="60.3368393" lon="10.344279" version="1" timestamp="2022-04-17T12:03:41Z" changeset="119814080" uid="3497659" user="NKA">
		<tag k="name" v="Gjerdingen" />
		<tag k="place" v="farm" />
		<tag k="ssr:stedsnr" v="119482" />
	</node>
	<node id="9671900762" lat="60.2366926" lon="10.3617278" version="1" timestamp="2022-04-17T12:03:41Z" changeset="119814080" uid="3497659" user="NKA">
		<tag k="alt_name" v="Bergebakken" />
		<tag k="name" v="Bergerbakken" />
		<tag k="place" v="neighbourhood" />
		<tag k="ssr:stedsnr" v="476756" />
	</node>
	<node id="9671900763" lat="60.292252" lon="10.4092532" version="1" timestamp="2022-04-17T12:03:41Z" changeset="119814080" uid="3497659" user="NKA">
		<tag k="name" v="Roenhagan" />
		<tag k="place" v="farm" />
		<tag k="ssr:stedsnr" v="188876" />
	</node>
	<node id="9671900764" lat="60.3415881" lon="10.3469368" version="1" timestamp="2022-04-17T12:03:41Z" changeset="119814080" uid="3497659" user="NKA">
		<tag k="name" v="Øllebråtan" />
		<tag k="place" v="farm" />
		<tag k="ssr:stedsnr" v="422715" />
	</node>
	<node id="9671900765" lat="60.2816552" lon="10.4403482" version="1" timestamp="2022-04-17T12:03:41Z" changeset="119814080" uid="3497659" user="NKA">
		<tag k="alt_name" v="Ødegård" />
		<tag k="name" v="Øgarden" />
		<tag k="place" v="farm" />
		<tag k="ssr:stedsnr" v="734835" />
	</node>
	<node id="9671900766" lat="60.2884047" lon="10.4993455" version="1" timestamp="2022-04-17T12:03:41Z" changeset="119814080" uid="3497659" user="NKA">
		<tag k="alt_name" v="Vadsjø" />
		<tag k="name" v="Vassjø" />
		<tag k="place" v="farm" />
		<tag k="ssr:stedsnr" v="431840" />
	</node>
	<node id="9671900767" lat="60.2808876" lon="10.4895842" version="1" timestamp="2022-04-17T12:03:41Z" changeset="119814080" uid="3497659" user="NKA">
		<tag k="alt_name" v="Løvås" />
		<tag k="name" v="Lauvås" />
		<tag k="place" v="farm" />
		<tag k="ssr:stedsnr" v="674832" />
	</node>
	<node id="9671900768" lat="60.1986443" lon="10.5546454" version="1" timestamp="2022-04-17T12:03:41Z" changeset="119814080" uid="3497659" user="NKA">
		<tag k="historic" v="shieling" />
		<tag k="name" v="Roensetra" />
		<tag k="place" v="isolated_dwelling" />
		<tag k="ssr:stedsnr" v="882258" />
	</node>
	<node id="9671900769" lat="60.3021555" lon="10.4391417" version="1" timestamp="2022-04-17T12:03:41Z" changeset="119814080" uid="3497659" user="NKA">
		<tag k="alt_name" v="Linjeløkka" />
		<tag k="name" v="Linlykkja" />
		<tag k="place" v="farm" />
		<tag k="ssr:stedsnr" v="431905" />
	</node>
	<node id="9671900770" lat="60.2402908" lon="10.4202272" version="1" timestamp="2022-04-17T12:03:41Z" changeset="119814080" uid="3497659" user="NKA">
		<tag k="name" v="Toso" />
		<tag k="place" v="neighbourhood" />
		<tag k="ssr:stedsnr" v="752926" />
	</node>
	<node id="9671900771" lat="60.2607476" lon="10.4462384" version="1" timestamp="2022-04-17T12:03:41Z" changeset="119814080" uid="3497659" user="NKA">
		<tag k="name" v="Fossholm" />
		<tag k="place" v="farm" />
		<tag k="ssr:stedsnr" v="370780" />
	</node>
	<node id="9127936467" lat="60.3766785" lon="10.3087973" version="1" timestamp="2021-09-27T20:49:51Z" changeset="111788271" uid="435265" user="Ansgar G Grimsrud" />
	<node id="9127936468" lat="60.376753" lon="10.3087313" version="1" timestamp="2021-09-27T20:49:51Z" changeset="111788271" uid="435265" user="Ansgar G Grimsrud" />
	<node id="9127936469" lat="60.3768509" lon="10.3088068" version="1" timestamp="2021-09-27T20:49:51Z" changeset="111788271" uid="435265" user="Ansgar G Grimsrud" />
	<node id="9127936446" lat="60.3781415" lon="10.3100981" version="1" timestamp="2021-09-27T20:49:51Z" changeset="111788271" uid="435265" user="Ansgar G Grimsrud" />
	<node id="9127936447" lat="60.3781461" lon="10.3102113" version="1" timestamp="2021-09-27T20:49:51Z" changeset="111788271" uid="435265" user="Ansgar G Grimsrud" />
	<node id="9127936448" lat="60.3780996" lon="10.3103338" version="1" timestamp="2021-09-27T20:49:51Z" changeset="111788271" uid="435265" user="Ansgar G Grimsrud" />
	<node id="9127936449" lat="60.3780343" lon="10.3104563" version="1" timestamp="2021-09-27T20:49:51Z" changeset="111788271" uid="435265" user="Ansgar G Grimsrud" />
	<node id="9127936450" lat="60.3779318" lon="10.3104469" version="1" timestamp="2021-09-27T20:49:51Z" changeset="111788271" uid="435265" user="Ansgar G Grimsrud" />
	<node id="9127936451" lat="60.3778293" lon="10.3104186" version="1" timestamp="2021-09-27T20:49:51Z" changeset="111788271" uid="435265" user="Ansgar G Grimsrud" />
	<node id="9127936452" lat="60.3777268" lon="10.3103432" version="1" timestamp="2021-09-27T20:49:51Z" changeset="111788271" uid="435265" user="Ansgar G Grimsrud" />
	<node id="9127936453" lat="60.3776243" lon="10.3103055" version="1" timestamp="2021-09-27T20:49:51Z" changeset="111788271" uid="435265" user="Ansgar G Grimsrud" />
	<node id="9127936454" lat="60.3774845" lon="10.3103809" version="1" timestamp="2021-09-27T20:49:51Z" changeset="111788271" uid="435265" user="Ansgar G Grimsrud" />
	<node id="9127936455" lat="60.377396" lon="10.3103998" version="1" timestamp="2021-09-27T20:49:51Z" changeset="111788271" uid="435265" user="Ansgar G Grimsrud" />
	<node id="9127936456" lat="60.3772842" lon="10.3104281" version="1" timestamp="2021-09-27T20:49:51Z" changeset="111788271" uid="435265" user="Ansgar G Grimsrud" />
	<node id="9127936457" lat="60.3771584" lon="10.3104752" version="1" timestamp="2021-09-27T20:49:51Z" changeset="111788271" uid="435265" user="Ansgar G Grimsrud" />
	<node id="9127936458" lat="60.3770466" lon="10.3104375" version="1" timestamp="2021-09-27T20:49:51Z" changeset="111788271" uid="435265" user="Ansgar G Grimsrud" />
	<node id="9127936459" lat="60.3769627" lon="10.3103149" version="1" timestamp="2021-09-27T20:49:51Z" changeset="111788271" uid="435265" user="Ansgar G Grimsrud" />
	<node id="9127936460" lat="60.3768695" lon="10.310183" version="1" timestamp="2021-09-27T20:49:51Z" changeset="111788271" uid="435265" user="Ansgar G Grimsrud" />
	<node id="9127936461" lat="60.3768183" lon="10.3099473" version="1" timestamp="2021-09-27T20:49:51Z" changeset="111788271" uid="435265" user="Ansgar G Grimsrud" />
	<node id="9127936462" lat="60.3767857" lon="10.3096363" version="1" timestamp="2021-09-27T20:49:51Z" changeset="111788271" uid="435265" user="Ansgar G Grimsrud" />
	<node id="9127936463" lat="60.3766645" lon="10.3094572" version="1" timestamp="2021-09-27T20:49:51Z" changeset="111788271" uid="435265" user="Ansgar G Grimsrud" />
	<node id="9127936464" lat="60.3766086" lon="10.30941" version="1" timestamp="2021-09-27T20:49:51Z" changeset="111788271" uid="435265" user="Ansgar G Grimsrud" />
	<node id="9127936465" lat="60.3765527" lon="10.3093346" version="1" timestamp="2021-09-27T20:49:51Z" changeset="111788271" uid="435265" user="Ansgar G Grimsrud" />
	<node id="9127936466" lat="60.3766039" lon="10.3090047" version="1" timestamp="2021-09-27T20:49:51Z" changeset="111788271" uid="435265" user="Ansgar G Grimsrud" />
	<node id="9127936470" lat="60.3770233" lon="10.3092121" version="1" timestamp="2021-09-27T20:49:51Z" changeset="111788271" uid="435265" user="Ansgar G Grimsrud" />
	<node id="9127936471" lat="60.3771398" lon="10.3096268" version="1" timestamp="2021-09-27T20:49:51Z" changeset="111788271" uid="435265" user="Ansgar G Grimsrud" />
	<node id="9127936472" lat="60.377396" lon="10.3098908" version="1" timestamp="2021-09-27T20:49:51Z" changeset="111788271" uid="435265" user="Ansgar G Grimsrud" />
	<node id="9127936473" lat="60.3776103" lon="10.3099568" version="1" timestamp="2021-09-27T20:49:51Z" changeset="111788271" uid="435265" user="Ansgar G Grimsrud" />
	<node id="9127936474" lat="60.3778433" lon="10.3098908" version="1" timestamp="2021-09-27T20:49:51Z" changeset="111788271" uid="435265" user="Ansgar G Grimsrud" />
	<node id="9127936475" lat="60.3779691" lon="10.3097965" version="1" timestamp="2021-09-27T20:49:51Z" changeset="111788271" uid="435265" user="Ansgar G Grimsrud" />
	<node id="9127936476" lat="60.3781182" lon="10.3099945" version="1" timestamp="2021-09-27T20:49:51Z" changeset="111788271" uid="435265" user="Ansgar G Grimsrud" />
	<way id="987524652" version="1" timestamp="2021-09-27T20:49:51Z" changeset="111788271" uid="435265" user="Ansgar G Grimsrud">
		<tag k="name" v="Krokputten" />
		<tag k="natural" v="water" />
		<tag k="place" v="locality" />
		<tag k="ssr:date" v="2019-12-27" />
		<tag k="ssr:gruppe" v="stilleståendeVann" />
		<tag k="ssr:hovedgruppe" v="ferskvann" />
		<tag k="ssr:stedsnr" v="537407" />
		<tag k="ssr:type" v="tjern" />
		<nd ref="9127936476" />
		<nd ref="9127936475" />
		<nd ref="9127936474" />
		<nd ref="9127936473" />
		<nd ref="9127936472" />
		<nd ref="9127936471" />
		<nd ref="9127936470" />
		<nd ref="9127936469" />
		<nd ref="9127936468" />
		<nd ref="9127936467" />
		<nd ref="9127936466" />
		<nd ref="9127936465" />
		<nd ref="9127936464" />
		<nd ref="9127936463" />
		<nd ref="9127936462" />
		<nd ref="9127936461" />
		<nd ref="9127936460" />
		<nd ref="9127936459" />
		<nd ref="9127936458" />
		<nd ref="9127936457" />
		<nd ref="9127936456" />
		<nd ref="9127936455" />
		<nd ref="9127936454" />
		<nd ref="9127936453" />
		<nd ref="9127936452" />
		<nd ref="9127936451" />
		<nd ref="9127936450" />
		<nd ref="9127936449" />
		<nd ref="9127936448" />
		<nd ref="9127936447" />
		<nd ref="9127936446" />
		<nd ref="9127936476" />
	</way>
</osm>
