<?xml version="1.0" encoding="UTF-8"?>
<<<<<<< HEAD
<osm version="0.6" generator="osmapis">
	<node lat="65.89596142043514" lon="13.126096644249946" id="-9398">
=======
<osm generator="osmapis" version="0.6">
	<node id="-135549" lat="65.8959722256" lon="13.1260972195">
>>>>>>> e1d4bc35ff8a6074a6f2e91616a996b547c36f15
		<tag k="name" v="Alterneset" />
		<tag k="ssr:date" v="2020-09-15" />
		<tag k="ssr:gruppe" v="navigasjon" />
		<tag k="ssr:hovedgruppe" v="infrastruktur" />
		<tag k="ssr:stedsnr" v="258252" />
		<tag k="ssr:type" v="fyrlykt" />
	</node>
<<<<<<< HEAD
	<node lat="65.84108889204606" lon="13.200247230815881" id="-10672">
		<tag k="name" v="Vefsn kommune" />
=======
	<node id="-140187" lat="69.6388889725" lon="30.5666644427">
		<tag k="fixme" v="multiple name tags, choose one and add the other to alt_name" />
		<tag k="loc_name:se" v="Norgga gonagasriika" />
		<tag k="loc_name:sma" v="Nöörjen gånkarïjhke" />
		<tag k="loc_name:smj" v="Vuona gånågisrijkka" />
		<tag k="name" v="Noreg;Norge" />
		<tag k="name:en" v="Norway" />
		<tag k="name:no" v="Noreg;Norge" />
		<tag k="ssr:date" v="2020-06-04" />
		<tag k="ssr:gruppe" v="administrativeIndelinger" />
		<tag k="ssr:hovedgruppe" v="offentligAdministrasjon" />
		<tag k="ssr:stedsnr" v="26330" />
		<tag k="ssr:type" v="nasjon" />
	</node>
	<node id="-140185" lat="65.8414095682" lon="13.2087581411">
		<tag k="name" v="Thorleiv Havigs gate" />
		<tag k="ssr:date" v="2019-12-13" />
		<tag k="ssr:gruppe" v="veg" />
		<tag k="ssr:hovedgruppe" v="infrastruktur" />
		<tag k="ssr:stedsnr" v="1074279" />
		<tag k="ssr:type" v="adressenavn" />
	</node>
	<node id="-136632" lat="65.9280027794" lon="12.6800305475">
		<tag k="name" v="Bjørga" />
		<tag k="ssr:date" v="2016-05-10" />
		<tag k="ssr:gruppe" v="navigasjon" />
		<tag k="ssr:hovedgruppe" v="infrastruktur" />
		<tag k="ssr:stedsnr" v="632266" />
		<tag k="ssr:type" v="fyrlykt" />
	</node>
	<node id="-139288" lat="65.9738583356" lon="12.8706944473">
		<tag k="name" v="Sørnesskjæret" />
		<tag k="old_name" v="Sørnesskjeret" />
>>>>>>> e1d4bc35ff8a6074a6f2e91616a996b547c36f15
		<tag k="ssr:date" v="2016-05-10" />
		<tag k="ssr:gruppe" v="administrativeIndelinger" />
		<tag k="ssr:hovedgruppe" v="offentligAdministrasjon" />
		<tag k="ssr:stedsnr" v="633193" />
		<tag k="ssr:type" v="kommune" />
	</node>
	<node lat="65.84964166521911" lon="13.186119436127413" id="-10930">
		<tag k="name" v="Mosjøen" />
		<tag k="ssr:date" v="2016-05-11" />
		<tag k="ssr:gruppe" v="navigasjon" />
		<tag k="ssr:hovedgruppe" v="infrastruktur" />
		<tag k="ssr:stedsnr" v="693315" />
		<tag k="ssr:type" v="fyrlykt" />
	</node>
<<<<<<< HEAD
	<node lat="65.86833708208778" lon="12.634476961794633" id="-12287">
=======
	<node id="-138285" lat="65.8682361091" lon="12.6340333324">
>>>>>>> e1d4bc35ff8a6074a6f2e91616a996b547c36f15
		<tag k="name" v="Aspviksundet" />
		<tag k="ssr:date" v="2020-09-15" />
		<tag k="ssr:gruppe" v="navigasjon" />
		<tag k="ssr:hovedgruppe" v="infrastruktur" />
		<tag k="ssr:stedsnr" v="197455" />
		<tag k="ssr:type" v="fyrlykt" />
	</node>
<<<<<<< HEAD
	<node lat="67.2804027758844" lon="14.376388898255625" id="-13068">
		<tag k="alt_name:no" v="Nordland" />
		<tag k="loc_name:se" v="Nordlándda fylka" />
		<tag k="loc_name:sma" v="Nordlaanten fylhke" />
		<tag k="name" v="Nordland fylke - Nordlánda fylkka" />
		<tag k="name:no" v="Nordland fylke" />
		<tag k="name:smj" v="Nordlánda fylkka" />
		<tag k="ssr:date" v="2021-02-03" />
		<tag k="ssr:gruppe" v="administrativeIndelinger" />
		<tag k="ssr:hovedgruppe" v="offentligAdministrasjon" />
		<tag k="ssr:stedsnr" v="511766" />
		<tag k="ssr:type" v="fylke" />
	</node>
	<node lat="65.97387941223181" lon="12.870849019449677" id="-13456">
		<tag k="name" v="Sørnesskjæret" />
		<tag k="old_name" v="Sørnesskjeret" />
		<tag k="ssr:date" v="2020-09-15" />
=======
	<node id="-136332" lat="65.8496416652" lon="13.1861194361">
		<tag k="name" v="Mosjøen" />
		<tag k="ssr:date" v="2016-05-11" />
>>>>>>> e1d4bc35ff8a6074a6f2e91616a996b547c36f15
		<tag k="ssr:gruppe" v="navigasjon" />
		<tag k="ssr:hovedgruppe" v="infrastruktur" />
		<tag k="ssr:stedsnr" v="622121" />
		<tag k="ssr:type" v="fyrlykt" />
	</node>
<<<<<<< HEAD
	<node lat="65.92800277939924" lon="12.68003054746365" id="-13507">
		<tag k="name" v="Bjørga" />
		<tag k="ssr:date" v="2016-05-10" />
		<tag k="ssr:gruppe" v="navigasjon" />
		<tag k="ssr:hovedgruppe" v="infrastruktur" />
		<tag k="ssr:stedsnr" v="632266" />
		<tag k="ssr:type" v="fyrlykt" />
	</node>
	<node lat="65.84140956822188" lon="13.208758141146753" id="-14378">
		<tag k="name" v="Thorleiv Havigs gate" />
		<tag k="ssr:date" v="2019-12-13" />
		<tag k="ssr:gruppe" v="veg" />
		<tag k="ssr:hovedgruppe" v="infrastruktur" />
		<tag k="ssr:stedsnr" v="1074279" />
		<tag k="ssr:type" v="adressenavn" />
	</node>
	<node lat="65.89305775525678" lon="13.26728816387402" id="-14382">
		<tag k="name" v="Fustvassvegen" />
		<tag k="ssr:date" v="2021-05-04" />
		<tag k="ssr:gruppe" v="veg" />
		<tag k="ssr:hovedgruppe" v="infrastruktur" />
		<tag k="ssr:stedsnr" v="1081142" />
		<tag k="ssr:type" v="adressenavn" />
	</node>
	<node lat="66.02044546241228" lon="13.452406620498508" id="-14383">
		<tag k="name" v="Angermovegen" />
		<tag k="ssr:date" v="2021-05-11" />
		<tag k="ssr:gruppe" v="veg" />
		<tag k="ssr:hovedgruppe" v="infrastruktur" />
		<tag k="ssr:stedsnr" v="1081220" />
		<tag k="ssr:type" v="adressenavn" />
	</node>
	<node lat="65.87436074047318" lon="13.225409546782547" id="-14385">
		<tag k="name" v="Båtholvegen" />
		<tag k="ssr:date" v="2021-06-16" />
		<tag k="ssr:gruppe" v="veg" />
		<tag k="ssr:hovedgruppe" v="infrastruktur" />
		<tag k="ssr:stedsnr" v="1081535" />
		<tag k="ssr:type" v="adressenavn" />
	</node>
	<node lat="65.83993012301455" lon="13.212718280510853" id="-14386">
		<tag k="name" v="Rune Oplands veg" />
		<tag k="ssr:date" v="2021-10-01" />
		<tag k="ssr:gruppe" v="veg" />
		<tag k="ssr:hovedgruppe" v="infrastruktur" />
		<tag k="ssr:stedsnr" v="1082491" />
		<tag k="ssr:type" v="adressenavn" />
	</node>
	<node lat="65.85140858896713" lon="13.197837008804669" id="-14387">
		<tag k="name" v="Bausteinvegen" />
		<tag k="ssr:date" v="2021-10-01" />
		<tag k="ssr:gruppe" v="veg" />
		<tag k="ssr:hovedgruppe" v="infrastruktur" />
		<tag k="ssr:stedsnr" v="1082490" />
		<tag k="ssr:type" v="adressenavn" />
	</node>
	<node lat="65.8874019993346" lon="13.096204592907084" id="-14388">
		<tag k="name" v="Vikdalsvegen" />
		<tag k="ssr:date" v="2021-10-01" />
		<tag k="ssr:gruppe" v="veg" />
		<tag k="ssr:hovedgruppe" v="infrastruktur" />
		<tag k="ssr:stedsnr" v="1082492" />
		<tag k="ssr:type" v="adressenavn" />
	</node>
	<node lat="65.85702568190919" lon="13.191724845651116" id="-14389">
		<tag k="name" v="Pålgarden" />
		<tag k="ssr:date" v="2021-09-28" />
		<tag k="ssr:gruppe" v="veg" />
		<tag k="ssr:hovedgruppe" v="infrastruktur" />
		<tag k="ssr:stedsnr" v="1082443" />
		<tag k="ssr:type" v="adressenavn" />
	</node>
	<node lat="66.04380376063688" lon="13.514970867274158" id="-14390">
		<tag k="name" v="Luktvatnet" />
		<tag k="ssr:date" v="2021-09-28" />
		<tag k="ssr:gruppe" v="veg" />
		<tag k="ssr:hovedgruppe" v="infrastruktur" />
		<tag k="ssr:stedsnr" v="1082446" />
		<tag k="ssr:type" v="adressenavn" />
	</node>
	<node lat="66.01586114890407" lon="13.455932961357183" id="-14391">
		<tag k="name" v="Rundsvollvegen" />
		<tag k="ssr:date" v="2021-09-28" />
		<tag k="ssr:gruppe" v="veg" />
		<tag k="ssr:hovedgruppe" v="infrastruktur" />
		<tag k="ssr:stedsnr" v="1082444" />
		<tag k="ssr:type" v="adressenavn" />
	</node>
	<node lat="65.99996200714709" lon="13.448224672933963" id="-14392">
		<tag k="name" v="Hattvegen" />
		<tag k="ssr:date" v="2021-09-28" />
		<tag k="ssr:gruppe" v="veg" />
		<tag k="ssr:hovedgruppe" v="infrastruktur" />
		<tag k="ssr:stedsnr" v="1082445" />
		<tag k="ssr:type" v="adressenavn" />
	</node>
	<node lat="65.96701245861836" lon="13.421813904067276" id="-14393">
		<tag k="name" v="Tuvnesvegen" />
		<tag k="ssr:date" v="2021-09-28" />
		<tag k="ssr:gruppe" v="veg" />
		<tag k="ssr:hovedgruppe" v="infrastruktur" />
		<tag k="ssr:stedsnr" v="1082448" />
		<tag k="ssr:type" v="adressenavn" />
	</node>
	<node lat="65.94643873123543" lon="13.41395566847404" id="-14394">
		<tag k="name" v="Mjåvassvegen" />
		<tag k="ssr:date" v="2021-09-28" />
		<tag k="ssr:gruppe" v="veg" />
		<tag k="ssr:hovedgruppe" v="infrastruktur" />
		<tag k="ssr:stedsnr" v="1082449" />
		<tag k="ssr:type" v="adressenavn" />
	</node>
	<node lat="65.97140685124609" lon="12.8533653340464" id="-14395">
		<tag k="name" v="Sørnesvegen" />
		<tag k="ssr:date" v="2021-10-01" />
		<tag k="ssr:gruppe" v="veg" />
		<tag k="ssr:hovedgruppe" v="infrastruktur" />
		<tag k="ssr:stedsnr" v="1082501" />
		<tag k="ssr:type" v="adressenavn" />
	</node>
	<node lat="65.802208181319" lon="12.725769180990518" id="-14396">
		<tag k="name" v="Grytåa" />
		<tag k="ssr:date" v="2021-10-01" />
		<tag k="ssr:gruppe" v="veg" />
		<tag k="ssr:hovedgruppe" v="infrastruktur" />
		<tag k="ssr:stedsnr" v="1082502" />
		<tag k="ssr:type" v="adressenavn" />
=======
	<node id="-139363" lat="65.841088892" lon="13.2002472308">
		<tag k="name" v="Vefsn kommune" />
		<tag k="ssr:date" v="2016-05-10" />
		<tag k="ssr:gruppe" v="administrativeIndelinger" />
		<tag k="ssr:hovedgruppe" v="offentligAdministrasjon" />
		<tag k="ssr:stedsnr" v="633193" />
		<tag k="ssr:type" v="kommune" />
>>>>>>> e1d4bc35ff8a6074a6f2e91616a996b547c36f15
	</node>
</osm>
