<?xml version="1.0" encoding="UTF-8"?>
<osm version="0.6" generator="osmapis">
	<node lat="61.271697098501754" lon="6.107823995372545" id="-70332">
		<tag k="alt_name" v="Breiddalsvatnet, øvre;Øvre Breiddalsvatnet" />
		<tag k="name" v="Øvre Breidalsvatnet" />
		<tag k="natural" v="water" />
		<tag k="ssr:stedsnr" v="8594" />
		<tag k="water" v="lake" />
	</node>
	<node lat="61.23562222064458" lon="6.20850000484321" id="-70334">
		<tag k="name" v="Roesvatnet" />
		<tag k="natural" v="water" />
		<tag k="ssr:stedsnr" v="9040" />
	</node>
	<node lat="61.24003333525517" lon="6.039600005853175" id="-70337">
		<tag k="name" v="Vassdalsvatnet" />
		<tag k="natural" v="water" />
		<tag k="ssr:stedsnr" v="9091" />
	</node>
	<node lat="61.135938893167875" lon="5.554536109139231" id="-70339">
		<tag k="name" v="Fosselva" />
		<tag k="ssr:stedsnr" v="9099" />
		<tag k="waterway" v="stream" />
	</node>
	<node lat="61.045619440977674" lon="5.969358331919006" id="-70340">
		<tag k="name" v="Langevatnet" />
		<tag k="natural" v="water" />
		<tag k="ssr:stedsnr" v="9219" />
	</node>
	<node lat="61.06229999679048" lon="6.0787361105330735" id="-70341">
		<tag k="alt_name" v="Regndalsvatnet, nedre" />
		<tag k="name" v="Nedre Regndalsvatnet" />
		<tag k="natural" v="water" />
		<tag k="ssr:stedsnr" v="9220" />
	</node>
	<node lat="61.0525972220436" lon="5.870833336342112" id="-70342">
		<tag k="name" v="Nonskardtjørna" />
		<tag k="natural" v="water" />
		<tag k="ssr:stedsnr" v="9224" />
	</node>
	<node lat="61.055043641915624" lon="5.858549257472444" id="-70343">
		<tag k="name" v="Systølvatnet" />
		<tag k="natural" v="water" />
		<tag k="ssr:stedsnr" v="9230" />
		<tag k="water" v="lake" />
	</node>
	<node lat="61.180016671016794" lon="6.172749998690828" id="-70351">
		<tag k="name" v="Brekkevatnet" />
		<tag k="natural" v="water" />
		<tag k="ssr:stedsnr" v="9328" />
	</node>
	<node lat="61.217386108156774" lon="6.198138897358606" id="-70356">
		<tag k="name" v="Tjørnane" />
		<tag k="natural" v="water" />
		<tag k="ssr:stedsnr" v="9410" />
		<tag k="water" v="lake" />
	</node>
	<node lat="61.218463891432876" lon="6.0508499998197" id="-70357">
		<tag k="alt_name" v="Øvre-elva;Øyreelva" />
		<tag k="name" v="Øyrelva" />
		<tag k="ssr:stedsnr" v="9415" />
		<tag k="waterway" v="stream" />
	</node>
	<node lat="61.197908331286826" lon="6.024938885756412" id="-70361">
		<tag k="name" v="Kaldråna" />
		<tag k="ssr:stedsnr" v="9390" />
		<tag k="waterway" v="stream" />
	</node>
	<node lat="61.17845277622682" lon="5.556611104440792" id="-70364">
		<tag k="alt_name" v="Nykkstjørna" />
		<tag k="name" v="Nykksvatnet" />
		<tag k="natural" v="water" />
		<tag k="ssr:stedsnr" v="9812" />
	</node>
	<node lat="61.15691389057001" lon="5.577538897746154" id="-70365">
		<tag k="name" v="Myrketjørna" />
		<tag k="natural" v="water" />
		<tag k="ssr:stedsnr" v="9839" />
	</node>
	<node lat="61.20579722039878" lon="5.936347229744513" id="-70386">
		<tag k="name" v="Saueneset" />
		<tag k="natural" v="cape" />
		<tag k="ssr:stedsnr" v="32326" />
	</node>
	<node lat="61.23448610881977" lon="6.046013888543466" id="-70389">
		<tag k="name" v="Smådalselva" />
		<tag k="ssr:stedsnr" v="32485" />
		<tag k="waterway" v="river" />
	</node>
	<node lat="61.20022222609235" lon="5.925683331493012" id="-70406">
		<tag k="name" v="Baseneset" />
		<tag k="natural" v="cape" />
		<tag k="ssr:stedsnr" v="32985" />
	</node>
	<node lat="61.25162777813081" lon="5.9207444450955755" id="-70418">
		<tag k="name" v="Storelva" />
		<tag k="ssr:stedsnr" v="68692" />
		<tag k="waterway" v="stream" />
	</node>
	<node lat="61.06921110694051" lon="5.767599995466418" id="-70423">
		<tag k="name" v="Dyttinga" />
		<tag k="natural" v="water" />
		<tag k="ssr:stedsnr" v="70177" />
	</node>
	<node lat="61.010452050361465" lon="6.128684864639131" id="-70426">
		<tag k="name" v="Krokelva" />
		<tag k="ssr:stedsnr" v="70328" />
		<tag k="waterway" v="stream" />
	</node>
	<node lat="61.188475000876686" lon="6.1976000017078245" id="-70427">
		<tag k="name" v="Bolstadelvi" />
		<tag k="ssr:stedsnr" v="70331" />
		<tag k="waterway" v="stream" />
	</node>
	<node lat="61.2270083356786" lon="6.065386118357492" id="-70430">
		<tag k="name" v="Siplauelva" />
		<tag k="ssr:stedsnr" v="70086" />
		<tag k="waterway" v="stream" />
	</node>
	<node lat="61.23996110699459" lon="6.185561106199757" id="-70432">
		<tag k="name" v="Styggefossen" />
		<tag k="natural" v="waterfall" />
		<tag k="ssr:stedsnr" v="70097" />
	</node>
	<node lat="61.218500487001066" lon="6.262648424456682" id="-70443">
		<tag k="name" v="Kaldosvatnet" />
		<tag k="natural" v="water" />
		<tag k="ssr:stedsnr" v="70730" />
		<tag k="water" v="lake" />
	</node>
	<node lat="61.20223055475811" lon="5.766144447411187" id="-70447">
		<tag k="alt_name" v="Markaulvatnet" />
		<tag k="name" v="Markaula" />
		<tag k="natural" v="water" />
		<tag k="ssr:stedsnr" v="70774" />
	</node>
	<node lat="61.17810337601756" lon="6.075177860810467" id="-70456">
		<tag k="name" v="Fremstefostelvatnet" />
		<tag k="natural" v="water" />
		<tag k="ssr:stedsnr" v="91878" />
		<tag k="water" v="lake" />
	</node>
	<node lat="61.1433666649797" lon="5.546713894369668" id="-70458">
		<tag k="name" v="Grønhaugtjørna" />
		<tag k="natural" v="water" />
		<tag k="ssr:stedsnr" v="92307" />
	</node>
	<node lat="61.14704722568224" lon="5.6249722156834565" id="-70461">
		<tag k="name" v="Stranda" />
		<tag k="natural" v="beach" />
		<tag k="ssr:stedsnr" v="92316" />
	</node>
	<node lat="61.12686388733044" lon="5.959997224016845" id="-70468">
		<tag k="name" v="Hushaugelva" />
		<tag k="ssr:stedsnr" v="92274" />
		<tag k="waterway" v="stream" />
	</node>
	<node lat="61.171216663198564" lon="5.9610083384984405" id="-70470">
		<tag k="name" v="Austreimselva" />
		<tag k="ssr:stedsnr" v="92466" />
		<tag k="waterway" v="stream" />
	</node>
	<node lat="61.1632611087027" lon="5.529838879942706" id="-70475">
		<tag k="name" v="Strandostjørna" />
		<tag k="natural" v="water" />
		<tag k="ssr:stedsnr" v="92513" />
	</node>
	<node lat="61.21657777488987" lon="5.97064165836895" id="-70478">
		<tag k="name" v="Falivatnet" />
		<tag k="natural" v="water" />
		<tag k="ssr:stedsnr" v="92703" />
		<tag k="water" v="lake" />
	</node>
	<node lat="61.151472217861055" lon="5.441380551674229" id="-70480">
		<tag k="name" v="Bruåsholmen" />
		<tag k="place" v="islet" />
		<tag k="ssr:stedsnr" v="92983" />
	</node>
	<node lat="61.172288893038996" lon="5.885900002211902" id="-70481">
		<tag k="name" v="Tjørna" />
		<tag k="natural" v="water" />
		<tag k="ssr:stedsnr" v="93723" />
	</node>
	<node lat="61.14023611467534" lon="6.278658339661736" id="-70489">
		<tag k="name" v="Blekafossen" />
		<tag k="natural" v="waterfall" />
		<tag k="ssr:stedsnr" v="106596" />
	</node>
	<node lat="61.18686944801433" lon="6.238886109156739" id="-70490">
		<tag k="name" v="Kråkefossen" />
		<tag k="natural" v="waterfall" />
		<tag k="ssr:stedsnr" v="106781" />
	</node>
	<node lat="61.06671388762614" lon="5.844927777061293" id="-70505">
		<tag k="name" v="Daurmålelva" />
		<tag k="ssr:stedsnr" v="251052" />
		<tag k="waterway" v="stream" />
	</node>
	<node lat="61.25039059878839" lon="5.95496044217326" id="-70525">
		<tag k="name" v="Blåvatnet" />
		<tag k="natural" v="water" />
		<tag k="ssr:stedsnr" v="252089" />
		<tag k="water" v="lake" />
	</node>
	<node lat="61.0402376706873" lon="5.6854953756203805" id="-70526">
		<tag k="name" v="Holedalsvatnet" />
		<tag k="natural" v="water" />
		<tag k="ssr:stedsnr" v="252053" />
	</node>
	<node lat="61.219694447703255" lon="6.03841944897691" id="-70529">
		<tag k="name" v="Grimsosen" />
		<tag k="natural" v="bay" />
		<tag k="ssr:stedsnr" v="252080" />
	</node>
	<node lat="61.070811108730986" lon="5.843072220768237" id="-70538">
		<tag k="alt_name" v="Vetlefossen" />
		<tag k="name" v="Veslefossen" />
		<tag k="natural" v="waterfall" />
		<tag k="ssr:stedsnr" v="252172" />
	</node>
	<node lat="61.071359471055466" lon="6.133795439651554" id="-70543">
		<tag k="name" v="Furedalsvatnet" />
		<tag k="natural" v="water" />
		<tag k="ssr:stedsnr" v="252238" />
		<tag k="water" v="lake" />
	</node>
	<node lat="61.06305277959674" lon="5.940438886802407" id="-70544">
		<tag k="name" v="Nykkefossen" />
		<tag k="natural" v="waterfall" />
		<tag k="ssr:stedsnr" v="252242" />
	</node>
	<node lat="61.06629722614045" lon="6.068763885316899" id="-70546">
		<tag k="name" v="Tuledalsvatnet" />
		<tag k="natural" v="water" />
		<tag k="ssr:stedsnr" v="252247" />
	</node>
	<node lat="61.01916944325054" lon="5.85794444665804" id="-70550">
		<tag k="name" v="Dyrstigtjørna" />
		<tag k="natural" v="water" />
		<tag k="ssr:stedsnr" v="252336" />
	</node>
	<node lat="61.217550532474945" lon="5.993918150829856" id="-70551">
		<tag k="name" v="Bergsvatnet" />
		<tag k="natural" v="water" />
		<tag k="ssr:stedsnr" v="252388" />
		<tag k="water" v="lake" />
	</node>
	<node lat="61.188041664287354" lon="5.920816660326265" id="-70554">
		<tag k="alt_name" v="Vetlevatnet" />
		<tag k="name" v="Veslevatnet" />
		<tag k="natural" v="water" />
		<tag k="ssr:stedsnr" v="252361" />
	</node>
	<node lat="61.16835832928661" lon="5.89537499254738" id="-70557">
		<tag k="alt_name" v="Ljotåa" />
		<tag k="name" v="Ljotebøelvi" />
		<tag k="ssr:stedsnr" v="252432" />
		<tag k="waterway" v="stream" />
	</node>
	<node lat="61.23846666275378" lon="5.943588898114865" id="-70573">
		<tag k="name" v="Hammarsvatnet" />
		<tag k="natural" v="water" />
		<tag k="ssr:stedsnr" v="130074" />
	</node>
	<node lat="61.24558055768984" lon="6.145288889899779" id="-70576">
		<tag k="alt_name" v="Ekreelva" />
		<tag k="name" v="Ekrelva" />
		<tag k="ssr:stedsnr" v="130083" />
		<tag k="waterway" v="stream" />
	</node>
	<node lat="61.07990555877786" lon="5.728477771237666" id="-70579">
		<tag k="name" v="Vardebotntjørna" />
		<tag k="natural" v="water" />
		<tag k="ssr:stedsnr" v="130226" />
	</node>
	<node lat="61.162277774619405" lon="5.6515138821618285" id="-70597">
		<tag k="name" v="Fossåna" />
		<tag k="ssr:stedsnr" v="130819" />
		<tag k="waterway" v="stream" />
	</node>
	<node lat="61.02791944787967" lon="5.622336104983578" id="-70602">
		<tag k="name" v="Pinslevatnet" />
		<tag k="natural" v="water" />
		<tag k="ssr:stedsnr" v="131014" />
	</node>
	<node lat="61.12864722147979" lon="6.34530556156956" id="-70603">
		<tag k="name" v="Tennefossen" />
		<tag k="ssr:stedsnr" v="252593" />
		<tag k="waterway" v="stream" />
	</node>
	<node lat="61.17468889136177" lon="6.31118333486727" id="-70604">
		<tag k="alt_name" v="Norddala" />
		<tag k="name" v="Norddøla" />
		<tag k="ssr:stedsnr" v="252724" />
		<tag k="waterway" v="stream" />
	</node>
	<node lat="61.203452777051616" lon="5.7511583350236135" id="-70606">
		<tag k="name" v="Markaula" />
		<tag k="ssr:stedsnr" v="252779" />
		<tag k="waterway" v="stream" />
	</node>
	<node lat="61.1776334173268" lon="5.487351149938441" id="-70609">
		<tag k="name" v="Nordstrandsvatnet" />
		<tag k="natural" v="water" />
		<tag k="ssr:stedsnr" v="252802" />
		<tag k="water" v="lake" />
	</node>
	<node lat="61.155497222948135" lon="5.534463885168873" id="-70627">
		<tag k="fixme" v="multiple name tags, choose one and add the other to alt_name" />
		<tag k="name" v="Avedalselva;Bjørkhaugelva" />
		<tag k="ssr:stedsnr" v="152552" />
		<tag k="waterway" v="river" />
	</node>
	<node lat="61.197202782311926" lon="6.120216671539075" id="-70633">
		<tag k="name" v="Kvanndalselva" />
		<tag k="ssr:stedsnr" v="152958" />
		<tag k="waterway" v="river" />
	</node>
	<node lat="61.073680551273675" lon="6.131858336293202" id="-70636">
		<tag k="name" v="Seltuftene" />
		<tag k="natural" v="beach" />
		<tag k="ssr:stedsnr" v="153152" />
	</node>
	<node lat="61.207530556462785" lon="5.760549991680371" id="-70642">
		<tag k="name" v="Vassenden" />
		<tag k="natural" v="cape" />
		<tag k="ssr:stedsnr" v="153568" />
	</node>
	<node lat="61.21948610764075" lon="5.745791670330255" id="-70647">
		<tag k="name" v="Rørvikelva" />
		<tag k="ssr:stedsnr" v="153753" />
		<tag k="waterway" v="river" />
	</node>
	<node lat="61.19128611342697" lon="6.244955553741411" id="-70657">
		<tag k="name" v="Heimste Gloppa" />
		<tag k="ssr:stedsnr" v="167772" />
		<tag k="waterway" v="stream" />
	</node>
	<node lat="60.98721403691742" lon="5.673461209221121" id="-70660">
		<tag k="name" v="Høgetjørnane" />
		<tag k="natural" v="water" />
		<tag k="ssr:stedsnr" v="190310" />
		<tag k="water" v="lake" />
	</node>
	<node lat="61.20865555213057" lon="5.678549997882972" id="-70661">
		<tag k="name" v="Langeneset" />
		<tag k="natural" v="cape" />
		<tag k="ssr:stedsnr" v="190515" />
	</node>
	<node lat="61.19448055746842" lon="6.202519450987167" id="-70664">
		<tag k="name" v="Raundala" />
		<tag k="ssr:stedsnr" v="191322" />
		<tag k="waterway" v="stream" />
	</node>
	<node lat="61.05145278156032" lon="5.889255562499211" id="-70673">
		<tag k="name" v="Ristjørna" />
		<tag k="natural" v="water" />
		<tag k="ssr:stedsnr" v="191220" />
	</node>
	<node lat="61.06902243855921" lon="6.167153615792348" id="-70674">
		<tag k="name" v="Svartevatnet" />
		<tag k="natural" v="water" />
		<tag k="ssr:stedsnr" v="191221" />
		<tag k="water" v="lake" />
	</node>
	<node lat="61.19717500078188" lon="6.3426416746855665" id="-70683">
		<tag k="name" v="Kupa" />
		<tag k="natural" v="water" />
		<tag k="ssr:stedsnr" v="191668" />
	</node>
	<node lat="60.99355457806421" lon="6.1294191896979004" id="-70691">
		<tag k="fixme" v="multiple name tags, choose one and add the other to alt_name" />
		<tag k="name" v="Vøvringevatnet;Solrenningsvatnet" />
		<tag k="natural" v="water" />
		<tag k="ssr:stedsnr" v="205001" />
		<tag k="water" v="lake" />
	</node>
	<node lat="61.0903499966625" lon="5.875305554108738" id="-70697">
		<tag k="name" v="Klovhammaren" />
		<tag k="natural" v="cape" />
		<tag k="ssr:stedsnr" v="213293" />
	</node>
	<node lat="61.12858055624027" lon="5.9305527697181155" id="-70700">
		<tag k="name" v="Svartefossen" />
		<tag k="natural" v="waterfall" />
		<tag k="ssr:stedsnr" v="213824" />
	</node>
	<node lat="61.11809444142881" lon="6.164508324520112" id="-70705">
		<tag k="name" v="Spjøra" />
		<tag k="ssr:stedsnr" v="213875" />
		<tag k="waterway" v="stream" />
	</node>
	<node lat="61.195411113857745" lon="6.078177777201499" id="-70706">
		<tag k="name" v="Bjørkeneselva" />
		<tag k="ssr:stedsnr" v="213926" />
		<tag k="waterway" v="stream" />
	</node>
	<node lat="61.11052221898808" lon="6.027516661262446" id="-70710">
		<tag k="name" v="Nesgroa" />
		<tag k="ssr:stedsnr" v="213991" />
		<tag k="waterway" v="stream" />
	</node>
	<node lat="61.175338887956286" lon="5.472622224160725" id="-70711">
		<tag k="name" v="Vetleneset" />
		<tag k="natural" v="cape" />
		<tag k="ssr:stedsnr" v="214183" />
	</node>
	<node lat="61.09482222327172" lon="5.736091658113111" id="-70713">
		<tag k="name" v="Indreelva" />
		<tag k="ssr:stedsnr" v="214513" />
		<tag k="waterway" v="river" />
	</node>
	<node lat="61.038716665569034" lon="5.889433331646363" id="-70729">
		<tag k="name" v="Fremstevika" />
		<tag k="natural" v="bay" />
		<tag k="ssr:stedsnr" v="455350" />
	</node>
	<node lat="61.09316666984992" lon="5.817033341491198" id="-70730">
		<tag k="name" v="Storelva" />
		<tag k="ssr:stedsnr" v="455285" />
		<tag k="waterway" v="stream" />
	</node>
	<node lat="61.17803333188352" lon="5.797141658780935" id="-70745">
		<tag k="name" v="Saugardelva" />
		<tag k="ssr:stedsnr" v="456540" />
		<tag k="waterway" v="stream" />
	</node>
	<node lat="61.08601110672355" lon="5.649874998208261" id="-70748">
		<tag k="name" v="Lomtjørna" />
		<tag k="natural" v="water" />
		<tag k="ssr:stedsnr" v="456670" />
	</node>
	<node lat="61.19526666717681" lon="5.775186109680679" id="-70749">
		<tag k="name" v="Storegroa" />
		<tag k="ssr:stedsnr" v="456690" />
		<tag k="waterway" v="stream" />
	</node>
	<node lat="61.24476666866587" lon="5.896686109482153" id="-70765">
		<tag k="name" v="Stølselva" />
		<tag k="ssr:stedsnr" v="457929" />
		<tag k="waterway" v="stream" />
	</node>
	<node lat="61.17269999589519" lon="5.915911113991058" id="-70770">
		<tag k="name" v="Tverrelvane" />
		<tag k="ssr:stedsnr" v="457964" />
		<tag k="waterway" v="stream" />
	</node>
	<node lat="61.18075555563496" lon="5.922622215574522" id="-70772">
		<tag k="name" v="Langryggstjørna" />
		<tag k="natural" v="water" />
		<tag k="ssr:stedsnr" v="457945" />
	</node>
	<node lat="61.10912500071498" lon="5.815186107200586" id="-70776">
		<tag k="name" v="Årdalselva" />
		<tag k="ssr:stedsnr" v="273276" />
		<tag k="waterway" v="stream" />
	</node>
	<node lat="61.17804722179828" lon="5.622413890929621" id="-70779">
		<tag k="name" v="Trolleskartjørna" />
		<tag k="natural" v="water" />
		<tag k="ssr:stedsnr" v="274003" />
	</node>
	<node lat="61.183747224063325" lon="5.508772223287965" id="-70782">
		<tag k="name" v="Kvernhuselva" />
		<tag k="ssr:stedsnr" v="274221" />
		<tag k="waterway" v="river" />
	</node>
	<node lat="61.18670000030469" lon="5.988905564672643" id="-70787">
		<tag k="name" v="Kleivebakkelva" />
		<tag k="ssr:stedsnr" v="274428" />
		<tag k="waterway" v="stream" />
	</node>
	<node lat="61.19366389330902" lon="6.0357277854259825" id="-70797">
		<tag k="name" v="Systråna" />
		<tag k="ssr:stedsnr" v="274711" />
		<tag k="waterway" v="stream" />
	</node>
	<node lat="61.03018611313894" lon="5.771925003459982" id="-70804">
		<tag k="name" v="Lona" />
		<tag k="natural" v="water" />
		<tag k="ssr:stedsnr" v="275572" />
		<tag k="water" v="lake" />
	</node>
	<node lat="61.15669444637052" lon="6.331058336845528" id="-70810">
		<tag k="name" v="Skinnbuksa" />
		<tag k="ssr:stedsnr" v="288389" />
		<tag k="waterway" v="stream" />
	</node>
	<node lat="61.13509166501669" lon="6.353977772964773" id="-70812">
		<tag k="name" v="Brattligrovi" />
		<tag k="ssr:stedsnr" v="288278" />
		<tag k="waterway" v="stream" />
	</node>
	<node lat="61.259099997270674" lon="6.210144446807798" id="-70819">
		<tag k="alt_name" v="Kringlevatnet" />
		<tag k="name" v="Kringletevatnet" />
		<tag k="natural" v="water" />
		<tag k="ssr:stedsnr" v="311722" />
	</node>
	<node lat="61.2706499961095" lon="6.201111104841974" id="-70821">
		<tag k="name" v="Holmevatnet" />
		<tag k="natural" v="water" />
		<tag k="ssr:stedsnr" v="311604" />
	</node>
	<node lat="60.989797221576204" lon="5.886577774113862" id="-70822">
		<tag k="name" v="Fridalsvatna" />
		<tag k="natural" v="water" />
		<tag k="ssr:stedsnr" v="312006" />
		<tag k="water" v="lake" />
	</node>
	<node lat="60.993886107861215" lon="6.116394437302477" id="-70823">
		<tag k="name" v="Svartsteinbekken" />
		<tag k="ssr:stedsnr" v="312013" />
		<tag k="waterway" v="stream" />
	</node>
	<node lat="61.09382500309743" lon="6.040386116136648" id="-70830">
		<tag k="name" v="Mjølsvikelva" />
		<tag k="ssr:stedsnr" v="312284" />
		<tag k="waterway" v="river" />
	</node>
	<node lat="61.1962083374838" lon="5.902741664119242" id="-70834">
		<tag k="name" v="Kråkosen" />
		<tag k="natural" v="bay" />
		<tag k="ssr:stedsnr" v="312418" />
	</node>
	<node lat="61.19566667034698" lon="5.843477768949559" id="-70835">
		<tag k="alt_name" v="Firsskarsvatnet" />
		<tag k="name" v="Tirskardvatnet" />
		<tag k="natural" v="water" />
		<tag k="ssr:stedsnr" v="312419" />
	</node>
	<node lat="61.2003499974735" lon="6.094383327573187" id="-70836">
		<tag k="alt_name" v="Blåfjellvatnet, nedre" />
		<tag k="name" v="Nedre Blåfjellvatnet" />
		<tag k="natural" v="water" />
		<tag k="ssr:stedsnr" v="312422" />
	</node>
	<node lat="61.205783329422594" lon="5.957300002780296" id="-70837">
		<tag k="name" v="Eidesvika" />
		<tag k="natural" v="bay" />
		<tag k="ssr:stedsnr" v="312428" />
	</node>
	<node lat="61.231044443046756" lon="5.824402772884104" id="-70844">
		<tag k="name" v="Ytredalslonene" />
		<tag k="place" v="locality" />
		<tag k="ssr:stedsnr" v="312738" />
	</node>
	<node lat="61.226150000296265" lon="5.734744450430785" id="-70845">
		<tag k="name" v="Småtjørna" />
		<tag k="natural" v="water" />
		<tag k="ssr:stedsnr" v="312744" />
	</node>
	<node lat="61.236825003525325" lon="6.080538886108353" id="-70848">
		<tag k="name" v="Hålandselva" />
		<tag k="ssr:stedsnr" v="313077" />
		<tag k="waterway" v="stream" />
	</node>
	<node lat="61.224227776066925" lon="6.152680559598373" id="-70849">
		<tag k="alt_name" v="Sæbotnsvatnet, øvre" />
		<tag k="name" v="Øvre Sæbotnsvatnet" />
		<tag k="natural" v="water" />
		<tag k="ssr:stedsnr" v="313088" />
	</node>
	<node lat="61.06576666676751" lon="5.9384722129775245" id="-70850">
		<tag k="alt_name" v="Nyljeelva" />
		<tag k="name" v="Nykkelva" />
		<tag k="ssr:stedsnr" v="313267" />
		<tag k="waterway" v="stream" />
	</node>
	<node lat="61.13484166483792" lon="6.331275002698919" id="-70861">
		<tag k="name" v="Dyrdalsgrovi" />
		<tag k="ssr:stedsnr" v="470240" />
		<tag k="waterway" v="stream" />
	</node>
	<node lat="61.13853611047255" lon="6.377899993059865" id="-70862">
		<tag k="name" v="Sjurfossen" />
		<tag k="natural" v="waterfall" />
		<tag k="ssr:stedsnr" v="470259" />
	</node>
	<node lat="61.07566944475498" lon="5.798999993308531" id="-70873">
		<tag k="name" v="Oslandselva" />
		<tag k="ssr:stedsnr" v="334213" />
		<tag k="waterway" v="stream" />
	</node>
	<node lat="61.117599998685506" lon="5.892466662733791" id="-70875">
		<tag k="name" v="Kvernhuselva" />
		<tag k="ssr:stedsnr" v="334452" />
		<tag k="waterway" v="stream" />
	</node>
	<node lat="61.253277775853086" lon="6.18252221695799" id="-70884">
		<tag k="name" v="Turtnegroa" />
		<tag k="ssr:stedsnr" v="335107" />
		<tag k="waterway" v="stream" />
	</node>
	<node lat="61.126077778173695" lon="5.934380564589724" id="-70886">
		<tag k="name" v="Kvernhuselva" />
		<tag k="ssr:stedsnr" v="335297" />
		<tag k="waterway" v="stream" />
	</node>
	<node lat="61.18235555894461" lon="5.983083333632536" id="-70891">
		<tag k="name" v="Fosselva" />
		<tag k="ssr:stedsnr" v="335493" />
		<tag k="waterway" v="stream" />
	</node>
	<node lat="61.23877777422799" lon="6.12394444337119" id="-70894">
		<tag k="name" v="Dalbugroa" />
		<tag k="ssr:stedsnr" v="335816" />
		<tag k="waterway" v="stream" />
	</node>
	<node lat="61.17873610974393" lon="5.702936110811795" id="-70905">
		<tag k="alt_name" v="Bjørkedalsvatnet" />
		<tag k="name" v="Byrkjedalsvatnet" />
		<tag k="natural" v="water" />
		<tag k="ssr:stedsnr" v="494795" />
	</node>
	<node lat="61.16891389148575" lon="5.660408337063288" id="-70907">
		<tag k="name" v="Dyttingane" />
		<tag k="natural" v="water" />
		<tag k="ssr:stedsnr" v="494861" />
	</node>
	<node lat="61.260813892034385" lon="5.878483332656299" id="-70908">
		<tag k="fixme" v="multiple name tags, choose one and add the other to alt_name" />
		<tag k="name" v="Veslelva;Markesetelva" />
		<tag k="ssr:stedsnr" v="371563" />
		<tag k="waterway" v="stream" />
	</node>
	<node lat="61.0311194443361" lon="5.739491671360989" id="-70912">
		<tag k="name" v="Fjordsneset" />
		<tag k="natural" v="cape" />
		<tag k="ssr:stedsnr" v="373003" />
	</node>
	<node lat="61.035156306892624" lon="5.784020642668501" id="-70913">
		<tag k="alt_name" v="Tveravatnet" />
		<tag k="name" v="Tverrvatnet" />
		<tag k="natural" v="water" />
		<tag k="ssr:stedsnr" v="373004" />
		<tag k="water" v="lake" />
	</node>
	<node lat="61.01796944450391" lon="5.649986104066448" id="-70915">
		<tag k="name" v="Hornsetvatnet" />
		<tag k="natural" v="water" />
		<tag k="ssr:stedsnr" v="373014" />
	</node>
	<node lat="61.24933953098685" lon="6.312493689079487" id="-70924">
		<tag k="name" v="Øvre Gryvlebotnvatnet" />
		<tag k="natural" v="water" />
		<tag k="ssr:stedsnr" v="373310" />
		<tag k="water" v="lake" />
	</node>
	<node lat="61.05776110897267" lon="5.985102781494015" id="-70929">
		<tag k="name" v="Randalsvatnet" />
		<tag k="natural" v="water" />
		<tag k="ssr:stedsnr" v="373248" />
	</node>
	<node lat="61.17898889317819" lon="5.60311666193841" id="-70950">
		<tag k="name" v="Svartejohannessen" />
		<tag k="natural" v="water" />
		<tag k="ssr:stedsnr" v="373812" />
	</node>
	<node lat="61.08034722464421" lon="5.778527777760686" id="-70961">
		<tag k="name" v="Rørbakkelva" />
		<tag k="ssr:stedsnr" v="395281" />
		<tag k="waterway" v="stream" />
	</node>
	<node lat="61.068863886509426" lon="5.830433325008551" id="-70967">
		<tag k="name" v="Bjordalselva" />
		<tag k="ssr:stedsnr" v="395502" />
		<tag k="waterway" v="river" />
	</node>
	<node lat="61.21226666571555" lon="5.780933328860105" id="-70969">
		<tag k="name" v="Jyttelva" />
		<tag k="ssr:stedsnr" v="395730" />
		<tag k="waterway" v="river" />
	</node>
	<node lat="61.09644166354828" lon="5.4451166687142" id="-70972">
		<tag k="name" v="Hammartjørna" />
		<tag k="natural" v="water" />
		<tag k="ssr:stedsnr" v="395829" />
	</node>
	<node lat="61.258533333647684" lon="6.202961111665582" id="-70977">
		<tag k="name" v="Kringletevasselva" />
		<tag k="ssr:stedsnr" v="396102" />
		<tag k="waterway" v="river" />
	</node>
	<node lat="61.26631110706686" lon="6.22348332437119" id="-70978">
		<tag k="name" v="Storelva" />
		<tag k="ssr:stedsnr" v="396103" />
		<tag k="waterway" v="river" />
	</node>
	<node lat="61.25849444748068" lon="5.932913892379462" id="-70984">
		<tag k="name" v="Stølsfossen" />
		<tag k="natural" v="waterfall" />
		<tag k="ssr:stedsnr" v="396487" />
	</node>
	<node lat="61.22213333516314" lon="5.831883327398615" id="-70990">
		<tag k="name" v="Skarstjørna" />
		<tag k="natural" v="water" />
		<tag k="ssr:stedsnr" v="396985" />
	</node>
	<node lat="61.26084999933284" lon="6.017730556374113" id="-71001">
		<tag k="name" v="Stølsvatnet" />
		<tag k="natural" v="water" />
		<tag k="ssr:stedsnr" v="432543" />
	</node>
	<node lat="61.272508329142184" lon="6.0728555502372865" id="-71002">
		<tag k="name" v="Vevringtjørna" />
		<tag k="natural" v="water" />
		<tag k="ssr:stedsnr" v="432553" />
	</node>
	<node lat="60.974288893372325" lon="5.7200805546284474" id="-71004">
		<tag k="name" v="Krokevasselva" />
		<tag k="ssr:stedsnr" v="433279" />
		<tag k="waterway" v="stream" />
	</node>
	<node lat="61.04989643805948" lon="5.6258604843602225" id="-71006">
		<tag k="alt_name" v="Alskortjørnane" />
		<tag k="name" v="Allskortjørnane" />
		<tag k="natural" v="water" />
		<tag k="ssr:stedsnr" v="434023" />
		<tag k="water" v="lake" />
	</node>
	<node lat="61.05855555313073" lon="6.135430563785143" id="-71015">
		<tag k="alt_name" v="Kvanndalsvatnet, heimste" />
		<tag k="name" v="Heimste Kvanndalsvatnet" />
		<tag k="natural" v="water" />
		<tag k="ssr:stedsnr" v="434327" />
	</node>
	<node lat="61.193519446645006" lon="6.284261117892399" id="-71020">
		<tag k="name" v="Frambotnvatnet" />
		<tag k="natural" v="water" />
		<tag k="ssr:stedsnr" v="434707" />
	</node>
	<node lat="61.18079444864601" lon="5.541388891416347" id="-71026">
		<tag k="name" v="Øyra" />
		<tag k="natural" v="bay" />
		<tag k="ssr:stedsnr" v="434797" />
	</node>
	<node lat="60.97003610690555" lon="5.7162777800718985" id="-71027">
		<tag k="alt_name" v="Blyvatnet" />
		<tag k="name" v="Blyfjellvatnet" />
		<tag k="natural" v="water" />
		<tag k="ssr:stedsnr" v="493288" />
	</node>
	<node lat="61.22566944573649" lon="5.6922999969331585" id="-71035">
		<tag k="name" v="Storefosstjørna" />
		<tag k="natural" v="water" />
		<tag k="ssr:stedsnr" v="493500" />
	</node>
	<node lat="61.26882221927977" lon="6.33476110924942" id="-71043">
		<tag k="name" v="Gautingsdalsvatna" />
		<tag k="natural" v="water" />
		<tag k="ssr:stedsnr" v="493786" />
		<tag k="water" v="lake" />
	</node>
	<node lat="61.28169722482887" lon="6.2440555555063915" id="-71044">
		<tag k="name" v="Steinbotnvatnet" />
		<tag k="natural" v="water" />
		<tag k="ssr:stedsnr" v="493795" />
	</node>
	<node lat="60.99714166858169" lon="5.68484167164285" id="-71045">
		<tag k="name" v="Osevatnet" />
		<tag k="natural" v="water" />
		<tag k="ssr:stedsnr" v="493753" />
	</node>
	<node lat="61.00236388584926" lon="5.600569441602759" id="-71047">
		<tag k="name" v="Inngardsvatnet" />
		<tag k="natural" v="water" />
		<tag k="ssr:stedsnr" v="494028" />
	</node>
	<node lat="61.21908484508629" lon="5.896259641998043" id="-71048">
		<tag k="name" v="Krekjavatna" />
		<tag k="natural" v="water" />
		<tag k="ssr:stedsnr" v="494092" />
		<tag k="water" v="lake" />
	</node>
	<node lat="61.01567777588244" lon="5.748316663832222" id="-71050">
		<tag k="name" v="Kyrebotnvatnet" />
		<tag k="natural" v="water" />
		<tag k="ssr:stedsnr" v="494034" />
	</node>
	<node lat="61.05238610973885" lon="5.837580552838703" id="-71052">
		<tag k="alt_name" v="Gjelråelva" />
		<tag k="name" v="Gildråna" />
		<tag k="ssr:stedsnr" v="494045" />
		<tag k="waterway" v="stream" />
	</node>
	<node lat="61.02782499707088" lon="6.071150004629481" id="-71057">
		<tag k="name" v="Storefonnosen" />
		<tag k="natural" v="bay" />
		<tag k="ssr:stedsnr" v="494331" />
	</node>
	<node lat="61.19132500191006" lon="6.017666665136782" id="-71058">
		<tag k="alt_name" v="Stølselva" />
		<tag k="name" v="Gildråna" />
		<tag k="ssr:stedsnr" v="494371" />
		<tag k="waterway" v="stream" />
	</node>
	<node lat="61.18833889111845" lon="5.996433337501197" id="-71060">
		<tag k="name" v="Storelva" />
		<tag k="ssr:stedsnr" v="494349" />
		<tag k="waterway" v="stream" />
	</node>
	<node lat="61.20512778108334" lon="5.980494446196448" id="-71070">
		<tag k="name" v="Veslebergsvatnet" />
		<tag k="natural" v="water" />
		<tag k="ssr:stedsnr" v="494394" />
	</node>
	<node lat="61.042863890224375" lon="5.8861527817729575" id="-71080">
		<tag k="name" v="Kyreneset" />
		<tag k="natural" v="cape" />
		<tag k="ssr:stedsnr" v="455345" />
	</node>
	<node lat="61.17633333512792" lon="5.543227775649691" id="-71090">
		<tag k="name" v="Dyttingen" />
		<tag k="ssr:stedsnr" v="456660" />
		<tag k="waterway" v="rapids" />
	</node>
	<node lat="61.190558333991895" lon="6.338363897709203" id="-71114">
		<tag k="name" v="Sauadaua" />
		<tag k="ssr:stedsnr" v="470688" />
		<tag k="waterway" v="river" />
	</node>
	<node lat="61.247138839447615" lon="6.259434169529086" id="-71128">
		<tag k="name" v="Norddalsvatnet" />
		<tag k="natural" v="water" />
		<tag k="ssr:stedsnr" v="676326" />
		<tag k="water" v="lake" />
	</node>
	<node lat="61.01029166345774" lon="6.15575554836211" id="-71130">
		<tag k="name" v="Ålrekelvi" />
		<tag k="ssr:stedsnr" v="676356" />
		<tag k="waterway" v="river" />
	</node>
	<node lat="61.01556269552" lon="5.947158792467329" id="-71131">
		<tag k="name" v="Isvatnet" />
		<tag k="natural" v="water" />
		<tag k="ssr:stedsnr" v="676367" />
		<tag k="water" v="lake" />
	</node>
	<node lat="61.18428073958573" lon="5.880503100732458" id="-71133">
		<tag k="name" v="Småvatna" />
		<tag k="natural" v="water" />
		<tag k="ssr:stedsnr" v="676376" />
		<tag k="water" v="lake" />
	</node>
	<node lat="61.15101110845409" lon="6.067299991200906" id="-71134">
		<tag k="name" v="Storefossen" />
		<tag k="natural" v="waterfall" />
		<tag k="ssr:stedsnr" v="676464" />
	</node>
	<node lat="61.1877749993371" lon="5.514316675157353" id="-71137">
		<tag k="fixme" v="multiple name tags, choose one and add the other to alt_name" />
		<tag k="name" v="Dyttinga;Stølstjørna" />
		<tag k="natural" v="water" />
		<tag k="ssr:stedsnr" v="676828" />
	</node>
	<node lat="61.16592589273993" lon="5.517412403458409" id="-71140">
		<tag k="name" v="Sørestrandsvatnet" />
		<tag k="natural" v="water" />
		<tag k="ssr:stedsnr" v="676862" />
	</node>
	<node lat="61.02436389133177" lon="5.657699997355309" id="-71142">
		<tag k="name" v="Veslebotnvatnet" />
		<tag k="natural" v="water" />
		<tag k="ssr:stedsnr" v="677009" />
	</node>
	<node lat="61.158980553683996" lon="5.624019446101341" id="-71166">
		<tag k="name" v="Storelva" />
		<tag k="ssr:stedsnr" v="677851" />
		<tag k="waterway" v="stream" />
	</node>
	<node lat="61.172394444368386" lon="5.826675004591472" id="-71168">
		<tag k="name" v="Ulvåna" />
		<tag k="ssr:stedsnr" v="677860" />
		<tag k="waterway" v="stream" />
	</node>
	<node lat="61.258497222192716" lon="6.1839222237239415" id="-71172">
		<tag k="name" v="Vassoselva" />
		<tag k="ssr:stedsnr" v="493566" />
		<tag k="waterway" v="stream" />
	</node>
	<node lat="61.26673055487621" lon="6.042233330128496" id="-71173">
		<tag k="name" v="Flugevatnet" />
		<tag k="natural" v="water" />
		<tag k="ssr:stedsnr" v="493569" />
	</node>
	<node lat="61.26936388925296" lon="6.0624944424328895" id="-71174">
		<tag k="name" v="Tjørnane" />
		<tag k="natural" v="water" />
		<tag k="ssr:stedsnr" v="493570" />
		<tag k="water" v="lake" />
	</node>
	<node lat="61.239052780916765" lon="6.119611105450533" id="-71180">
		<tag k="alt_name" v="Grøvla" />
		<tag k="name" v="Gryvla" />
		<tag k="ssr:stedsnr" v="494071" />
		<tag k="waterway" v="stream" />
	</node>
	<node lat="61.2299083342313" lon="5.943394444302048" id="-71181">
		<tag k="name" v="Geitevatnet" />
		<tag k="natural" v="water" />
		<tag k="ssr:stedsnr" v="494077" />
	</node>
	<node lat="61.100699996284256" lon="5.760525006745344" id="-71184">
		<tag k="name" v="Midtneselva" />
		<tag k="ssr:stedsnr" v="494207" />
		<tag k="waterway" v="stream" />
	</node>
	<node lat="61.20618888897151" lon="5.947316664335085" id="-71191">
		<tag k="name" v="Fallineset" />
		<tag k="natural" v="cape" />
		<tag k="ssr:stedsnr" v="494411" />
	</node>
	<node lat="61.19374999834515" lon="5.790752782595267" id="-71196">
		<tag k="name" v="Bugelva" />
		<tag k="ssr:stedsnr" v="494816" />
		<tag k="waterway" v="river" />
	</node>
	<node lat="61.179616662719155" lon="6.291152778551593" id="-71197">
		<tag k="name" v="Fagerdalsvatnet" />
		<tag k="natural" v="water" />
		<tag k="ssr:stedsnr" v="494717" />
	</node>
	<node lat="61.04228610739107" lon="5.730116669251196" id="-71200">
		<tag k="name" v="Svartetjørna" />
		<tag k="natural" v="water" />
		<tag k="ssr:stedsnr" v="495075" />
	</node>
	<node lat="61.02266661894795" lon="5.89591155165427" id="-71210">
		<tag k="name" v="Øystrebotnvatnet" />
		<tag k="natural" v="water" />
		<tag k="ssr:stedsnr" v="495360" />
		<tag k="water" v="lake" />
	</node>
	<node lat="61.19416944217517" lon="5.516961119596709" id="-71213">
		<tag k="name" v="Ivartjørna" />
		<tag k="natural" v="water" />
		<tag k="ssr:stedsnr" v="495807" />
	</node>
	<node lat="61.205736113346745" lon="5.6837555535188695" id="-71215">
		<tag k="alt_name" v="Mårevikane" />
		<tag k="name" v="Mårvikane" />
		<tag k="natural" v="bay" />
		<tag k="ssr:stedsnr" v="495817" />
	</node>
	<node lat="61.09955833190041" lon="5.877608325140518" id="-71219">
		<tag k="name" v="Sandvika" />
		<tag k="natural" v="bay" />
		<tag k="ssr:stedsnr" v="516283" />
	</node>
	<node lat="61.0410027739408" lon="5.792955553972566" id="-71227">
		<tag k="name" v="Tverrelva" />
		<tag k="ssr:stedsnr" v="516912" />
		<tag k="waterway" v="stream" />
	</node>
	<node lat="61.15021389205106" lon="5.440419447701462" id="-71243">
		<tag k="name" v="Jordfasteholmen" />
		<tag k="place" v="islet" />
		<tag k="ssr:stedsnr" v="517771" />
	</node>
	<node lat="61.15130278226476" lon="6.282466673494163" id="-71260">
		<tag k="name" v="Nyløbøskreda" />
		<tag k="ssr:stedsnr" v="531725" />
		<tag k="waterway" v="stream" />
	</node>
	<node lat="60.97699228681962" lon="5.634846948502108" id="-71267">
		<tag k="name" v="Kvanngrøvatnet" />
		<tag k="natural" v="water" />
		<tag k="ssr:stedsnr" v="554333" />
		<tag k="water" v="lake" />
	</node>
	<node lat="61.224561109739646" lon="6.200594446217303" id="-71271">
		<tag k="name" v="Eitreskardvatnet" />
		<tag k="natural" v="water" />
		<tag k="ssr:stedsnr" v="555069" />
	</node>
	<node lat="61.22980555360618" lon="6.204786113383413" id="-71272">
		<tag k="name" v="Eitrelva" />
		<tag k="ssr:stedsnr" v="555070" />
		<tag k="waterway" v="stream" />
	</node>
	<node lat="61.21518611461549" lon="5.862627777296813" id="-71273">
		<tag k="name" v="Husedalsvatnet" />
		<tag k="natural" v="water" />
		<tag k="ssr:stedsnr" v="555075" />
	</node>
	<node lat="61.20662778216794" lon="5.85390833861749" id="-71274">
		<tag k="name" v="Storefossen" />
		<tag k="natural" v="waterfall" />
		<tag k="ssr:stedsnr" v="555076" />
	</node>
	<node lat="61.047641667862024" lon="6.004336107297062" id="-71280">
		<tag k="name" v="Storevatnet" />
		<tag k="natural" v="water" />
		<tag k="ssr:stedsnr" v="555211" />
	</node>
	<node lat="61.0131111132632" lon="5.863969451617773" id="-71294">
		<tag k="name" v="Systrene" />
		<tag k="ssr:stedsnr" v="555308" />
		<tag k="waterway" v="stream" />
	</node>
	<node lat="61.211880552745065" lon="5.947899997384921" id="-71296">
		<tag k="name" v="Storeholmen" />
		<tag k="place" v="islet" />
		<tag k="ssr:stedsnr" v="555365" />
	</node>
	<node lat="61.155393892153455" lon="5.471737867589311" id="-71302">
		<tag k="name" v="Bogsvatnet" />
		<tag k="natural" v="water" />
		<tag k="ssr:stedsnr" v="555475" />
		<tag k="water" v="lake" />
	</node>
	<node lat="61.19980555252474" lon="6.249055553807241" id="-71307">
		<tag k="name" v="Dalelvi" />
		<tag k="ssr:stedsnr" v="555695" />
		<tag k="waterway" v="river" />
	</node>
	<node lat="61.18709999837828" lon="5.767625008902339" id="-71309">
		<tag k="name" v="Storetjørna" />
		<tag k="natural" v="water" />
		<tag k="ssr:stedsnr" v="555810" />
	</node>
	<node lat="61.17625555163483" lon="5.623833325048581" id="-71337">
		<tag k="name" v="Langetjørna" />
		<tag k="natural" v="water" />
		<tag k="ssr:stedsnr" v="578002" />
	</node>
	<node lat="61.25487778225851" lon="5.887936109749694" id="-71345">
		<tag k="name" v="Botnegroa" />
		<tag k="ssr:stedsnr" v="578908" />
		<tag k="waterway" v="stream" />
	</node>
	<node lat="61.209655556692454" lon="5.819469445203939" id="-71350">
		<tag k="name" v="Ytredalselva" />
		<tag k="ssr:stedsnr" v="578852" />
		<tag k="waterway" v="river" />
	</node>
	<node lat="61.0571527733411" lon="5.863452774275527" id="-71375">
		<tag k="name" v="Storeholmen" />
		<tag k="place" v="islet" />
		<tag k="ssr:stedsnr" v="698548" />
	</node>
	<node lat="61.014924996926645" lon="5.824377779450505" id="-71383">
		<tag k="name" v="Bjørkevika" />
		<tag k="natural" v="bay" />
		<tag k="ssr:stedsnr" v="698851" />
	</node>
	<node lat="61.184061114425404" lon="5.631216670370009" id="-71389">
		<tag k="name" v="Vetletjørna" />
		<tag k="natural" v="water" />
		<tag k="ssr:stedsnr" v="699050" />
	</node>
	<node lat="61.164294448936765" lon="5.507713887681712" id="-71392">
		<tag k="name" v="Geiteløken" />
		<tag k="natural" v="bay" />
		<tag k="ssr:stedsnr" v="699133" />
	</node>
	<node lat="61.033963887786236" lon="5.650963882058884" id="-71402">
		<tag k="name" v="Skitvika" />
		<tag k="natural" v="bay" />
		<tag k="ssr:stedsnr" v="699625" />
	</node>
	<node lat="61.212327780255826" lon="5.785158326946685" id="-71405">
		<tag k="name" v="Østelielva" />
		<tag k="ssr:stedsnr" v="699705" />
		<tag k="waterway" v="stream" />
	</node>
	<node lat="61.1785861122642" lon="5.547800008359555" id="-71409">
		<tag k="name" v="Vetlenykkstjørna" />
		<tag k="natural" v="water" />
		<tag k="ssr:stedsnr" v="699635" />
	</node>
	<node lat="61.153450000479786" lon="5.431888886761489" id="-71414">
		<tag k="name" v="Espelandsholmen" />
		<tag k="place" v="islet" />
		<tag k="ssr:stedsnr" v="699743" />
	</node>
	<node lat="61.092419440685035" lon="5.455163888372223" id="-71417">
		<tag k="name" v="Vetlebotntjørna" />
		<tag k="natural" v="water" />
		<tag k="ssr:stedsnr" v="699797" />
	</node>
	<node lat="61.224233334664135" lon="6.088194445017255" id="-71419">
		<tag k="alt_name" v="Daleelva" />
		<tag k="name" v="Dalelva" />
		<tag k="ssr:stedsnr" v="699877" />
		<tag k="waterway" v="river" />
	</node>
	<node lat="61.18250622480644" lon="5.897961763501557" id="-71425">
		<tag k="name" v="Vassdalselva" />
		<tag k="ssr:stedsnr" v="700789" />
		<tag k="waterway" v="river" />
	</node>
	<node lat="61.25462777451296" lon="5.936233332997311" id="-71432">
		<tag k="alt_name" v="Blåvassgroa" />
		<tag k="name" v="Blåvassgrova" />
		<tag k="ssr:stedsnr" v="614705" />
		<tag k="waterway" v="stream" />
	</node>
	<node lat="61.26619166822204" lon="6.218605546913192" id="-71434">
		<tag k="name" v="Avlangevatnet" />
		<tag k="natural" v="water" />
		<tag k="ssr:stedsnr" v="614855" />
	</node>
	<node lat="61.027094150744865" lon="5.72605945135728" id="-71435">
		<tag k="name" v="Stølsvatnet" />
		<tag k="natural" v="water" />
		<tag k="ssr:stedsnr" v="615002" />
		<tag k="water" v="lake" />
	</node>
	<node lat="61.029063893259384" lon="5.704827777896235" id="-71436">
		<tag k="name" v="Botnelaustjørna" />
		<tag k="natural" v="water" />
		<tag k="ssr:stedsnr" v="615006" />
	</node>
	<node lat="61.23733333160467" lon="5.985233336628527" id="-71440">
		<tag k="name" v="Trollebotnsvatnet" />
		<tag k="natural" v="water" />
		<tag k="ssr:stedsnr" v="615112" />
	</node>
	<node lat="61.20208888858502" lon="6.148277777761994" id="-71448">
		<tag k="alt_name" v="Sjurdsvatnet, nedre" />
		<tag k="name" v="Nedre Sjurdsvatnet" />
		<tag k="natural" v="water" />
		<tag k="ssr:stedsnr" v="615410" />
	</node>
	<node lat="61.21080833440713" lon="6.120966670148771" id="-71449">
		<tag k="name" v="Sæbotnsfossen" />
		<tag k="natural" v="waterfall" />
		<tag k="ssr:stedsnr" v="615413" />
	</node>
	<node lat="61.17464999894856" lon="6.1841694365022315" id="-71452">
		<tag k="name" v="Teigelvi" />
		<tag k="ssr:stedsnr" v="615322" />
		<tag k="waterway" v="stream" />
	</node>
	<node lat="61.03104836554252" lon="5.682654459203335" id="-71460">
		<tag k="name" v="Myrestølsvatnet" />
		<tag k="natural" v="water" />
		<tag k="ssr:stedsnr" v="616043" />
	</node>
	<node lat="61.03673531509161" lon="5.706969834800161" id="-71461">
		<tag k="name" v="Svartevatnet" />
		<tag k="natural" v="water" />
		<tag k="ssr:stedsnr" v="616046" />
		<tag k="water" v="lake" />
	</node>
	<node lat="61.04379166449885" lon="5.800063889031877" id="-71462">
		<tag k="alt_name" v="Førdeelva" />
		<tag k="name" v="Fjordselva" />
		<tag k="ssr:stedsnr" v="616047" />
		<tag k="waterway" v="river" />
	</node>
	<node lat="61.23711944164942" lon="6.1634083365273735" id="-71463">
		<tag k="alt_name" v="Sæbotnelva" />
		<tag k="name" v="Sæbotnselva" />
		<tag k="ssr:stedsnr" v="616060" />
		<tag k="waterway" v="stream" />
	</node>
	<node lat="61.06100277596804" lon="6.092425000068097" id="-71469">
		<tag k="alt_name" v="Regndalsvatnet;Regndalsvatnet, øvre" />
		<tag k="name" v="Øvre Regndalsvatnet" />
		<tag k="natural" v="water" />
		<tag k="ssr:stedsnr" v="616240" />
	</node>
	<node lat="61.20781666425847" lon="5.955372217654258" id="-71471">
		<tag k="alt_name" v="Falivatnet" />
		<tag k="name" v="Fallivatnet" />
		<tag k="natural" v="water" />
		<tag k="ssr:stedsnr" v="616412" />
	</node>
	<node lat="61.209761107464956" lon="5.697060469758477" id="-71476">
		<tag k="name" v="Byrkjosvatnet" />
		<tag k="natural" v="water" />
		<tag k="ssr:stedsnr" v="616813" />
	</node>
	<node lat="61.21387500306468" lon="5.732419445175106" id="-71479">
		<tag k="alt_name" v="Eide" />
		<tag k="name" v="Eidet" />
		<tag k="place" v="locality" />
		<tag k="ssr:stedsnr" v="616753" />
	</node>
	<node lat="61.04505809002636" lon="5.745367757220836" id="-71482">
		<tag k="name" v="Grøneneset" />
		<tag k="natural" v="cape" />
		<tag k="ssr:stedsnr" v="637104" />
	</node>
	<node lat="61.12163888604039" lon="5.984608336366509" id="-71499">
		<tag k="name" v="Ytste Vikeelva" />
		<tag k="ssr:stedsnr" v="637988" />
		<tag k="waterway" v="stream" />
	</node>
	<node lat="61.15392777546062" lon="5.475022224592195" id="-71503">
		<tag k="name" v="Odegro" />
		<tag k="ssr:stedsnr" v="638115" />
		<tag k="waterway" v="stream" />
	</node>
	<node lat="61.173244448282" lon="5.4734777718822984" id="-71504">
		<tag k="name" v="Storstein-neset" />
		<tag k="natural" v="cape" />
		<tag k="ssr:stedsnr" v="638190" />
	</node>
	<node lat="61.19140833748214" lon="6.028402771243969" id="-71513">
		<tag k="name" v="Sekkjeåna" />
		<tag k="ssr:stedsnr" v="638726" />
		<tag k="waterway" v="stream" />
	</node>
	<node lat="61.208675003887144" lon="5.8709333288600485" id="-71519">
		<tag k="name" v="Raunevassgroa" />
		<tag k="ssr:stedsnr" v="639942" />
		<tag k="waterway" v="stream" />
	</node>
	<node lat="60.98810833185272" lon="5.6307666637462646" id="-71535">
		<tag k="name" v="Strandavatnet" />
		<tag k="natural" v="water" />
		<tag k="ssr:stedsnr" v="675750" />
	</node>
	<node lat="61.274239019346005" lon="6.310753206118904" id="-71536">
		<tag k="name" v="Viersbotnvatnet" />
		<tag k="natural" v="water" />
		<tag k="ssr:stedsnr" v="675796" />
		<tag k="water" v="lake" />
	</node>
	<node lat="61.05133907905707" lon="5.611725945468097" id="-71538">
		<tag k="alt_name" v="Stølsvatnet" />
		<tag k="name" v="Trædalsvatnet" />
		<tag k="natural" v="water" />
		<tag k="ssr:stedsnr" v="676046" />
		<tag k="water" v="lake" />
	</node>
	<node lat="61.06220833323142" lon="5.704680550356222" id="-71540">
		<tag k="name" v="Tveralielva" />
		<tag k="ssr:stedsnr" v="676216" />
		<tag k="waterway" v="stream" />
	</node>
	<node lat="61.004375004033854" lon="5.697541668343757" id="-71542">
		<tag k="name" v="Kringletevatnet" />
		<tag k="natural" v="water" />
		<tag k="ssr:stedsnr" v="676105" />
	</node>
	<node lat="61.24801389132774" lon="5.857005548068485" id="-71543">
		<tag k="name" v="Spjotelivatnet" />
		<tag k="natural" v="water" />
		<tag k="ssr:stedsnr" v="676111" />
	</node>
	<node lat="60.95495291100161" lon="5.707095680917473" id="-71553">
		<tag k="name" v="Stordalsvatnet" />
		<tag k="natural" v="water" />
		<tag k="ssr:stedsnr" v="676285" />
		<tag k="water" v="lake" />
	</node>
	<node lat="61.204858337823694" lon="6.0851416737007655" id="-71559">
		<tag k="name" v="Storegrova" />
		<tag k="ssr:stedsnr" v="676411" />
		<tag k="waterway" v="stream" />
	</node>
	<node lat="61.1568305523241" lon="6.135183339670537" id="-71561">
		<tag k="alt_name" v="Eitrenesfossen" />
		<tag k="name" v="Eitrefossen" />
		<tag k="natural" v="waterfall" />
		<tag k="ssr:stedsnr" v="676339" />
	</node>
	<node lat="61.17865277377724" lon="5.542630551532583" id="-71566">
		<tag k="alt_name" v="Støltjørna" />
		<tag k="name" v="Stølsvatnet" />
		<tag k="natural" v="water" />
		<tag k="ssr:stedsnr" v="676816" />
	</node>
	<node lat="61.236202775579684" lon="6.059291665514194" id="-71567">
		<tag k="name" v="Hjetlandsbassenget" />
		<tag k="place" v="locality" />
		<tag k="ssr:stedsnr" v="677082" />
	</node>
	<node lat="61.230802774041656" lon="6.05556389331173" id="-71568">
		<tag k="alt_name" v="Siplauvatnet" />
		<tag k="name" v="Siplautjørna" />
		<tag k="natural" v="water" />
		<tag k="ssr:stedsnr" v="677087" />
	</node>
	<node lat="61.21598333479994" lon="5.877994449828604" id="-71569">
		<tag k="name" v="Raunevatnet" />
		<tag k="natural" v="water" />
		<tag k="ssr:stedsnr" v="677096" />
	</node>
	<node lat="61.039622217953735" lon="5.850677782011802" id="-71576">
		<tag k="name" v="Fessevatnet" />
		<tag k="natural" v="water" />
		<tag k="ssr:stedsnr" v="677344" />
	</node>
	<node lat="61.17494444224773" lon="6.098955563417634" id="-71594">
		<tag k="name" v="Låneskarelva" />
		<tag k="ssr:stedsnr" v="698826" />
		<tag k="waterway" v="river" />
	</node>
	<node lat="61.214408329921035" lon="5.902183337377232" id="-71640">
		<tag k="name" v="Langevatnet" />
		<tag k="natural" v="water" />
		<tag k="ssr:stedsnr" v="737079" />
	</node>
	<node lat="61.22281389291384" lon="6.116011104890957" id="-71641">
		<tag k="name" v="Merkeselva" />
		<tag k="ssr:stedsnr" v="737086" />
		<tag k="waterway" v="stream" />
	</node>
	<node lat="61.12456110993207" lon="5.542550007329093" id="-71645">
		<tag k="name" v="Øyretjørna" />
		<tag k="natural" v="water" />
		<tag k="ssr:stedsnr" v="737123" />
	</node>
	<node lat="61.0752194433533" lon="5.723491667142959" id="-71650">
		<tag k="name" v="Hammarstjørna" />
		<tag k="natural" v="water" />
		<tag k="ssr:stedsnr" v="737187" />
	</node>
	<node lat="61.153619443694105" lon="6.101602771441742" id="-71652">
		<tag k="alt_name" v="Moldgroa" />
		<tag k="name" v="Moldgrovi" />
		<tag k="ssr:stedsnr" v="737414" />
		<tag k="waterway" v="stream" />
	</node>
	<node lat="61.154094444904324" lon="6.10998055553424" id="-71654">
		<tag k="name" v="Pallen" />
		<tag k="natural" v="cape" />
		<tag k="ssr:stedsnr" v="737435" />
	</node>
	<node lat="61.17568333422897" lon="5.742294444132412" id="-71662">
		<tag k="name" v="Eidselva" />
		<tag k="ssr:stedsnr" v="737814" />
		<tag k="waterway" v="stream" />
	</node>
	<node lat="61.18668888882957" lon="5.635777782498897" id="-71663">
		<tag k="alt_name" v="Gjelona" />
		<tag k="name" v="Gillona" />
		<tag k="natural" v="water" />
		<tag k="ssr:stedsnr" v="737841" />
	</node>
	<node lat="61.18237777400972" lon="5.996594454013182" id="-71688">
		<tag k="name" v="Indrebergselva" />
		<tag k="ssr:stedsnr" v="760247" />
		<tag k="waterway" v="stream" />
	</node>
	<node lat="61.164977777466426" lon="6.298005560311137" id="-71710">
		<tag k="name" v="Stakkstø" />
		<tag k="natural" v="beach" />
		<tag k="ssr:stedsnr" v="773419" />
	</node>
	<node lat="61.15249999628124" lon="5.434883342836122" id="-71717">
		<tag k="alt_name" v="Langevatn" />
		<tag k="name" v="Langevatnet" />
		<tag k="natural" v="water" />
		<tag k="ssr:stedsnr" v="797531" />
		<tag k="water" v="lake" />
	</node>
	<node lat="61.04412777576304" lon="5.634027768804801" id="-71719">
		<tag k="name" v="Storelva" />
		<tag k="ssr:stedsnr" v="798060" />
		<tag k="waterway" v="stream" />
	</node>
	<node lat="61.24031666349825" lon="5.862602769801277" id="-71720">
		<tag k="name" v="Striksfossen" />
		<tag k="natural" v="waterfall" />
		<tag k="ssr:stedsnr" v="798094" />
	</node>
	<node lat="61.08044069853127" lon="5.898345190508905" id="-71724">
		<tag k="name" v="Øystrebøvatnet" />
		<tag k="natural" v="water" />
		<tag k="ssr:stedsnr" v="798258" />
		<tag k="water" v="lake" />
	</node>
	<node lat="61.247466663409114" lon="5.905136116098306" id="-71727">
		<tag k="name" v="Hovlandselva" />
		<tag k="ssr:stedsnr" v="798106" />
		<tag k="waterway" v="river" />
	</node>
	<node lat="61.24632222128262" lon="6.159725004816081" id="-71728">
		<tag k="name" v="Gautingsdalskloven" />
		<tag k="ssr:stedsnr" v="798109" />
		<tag k="waterway" v="river" />
	</node>
	<node lat="61.16189999726955" lon="6.3375055535930915" id="-71744">
		<tag k="alt_name" v="Breistøla" />
		<tag k="name" v="Breidstøla" />
		<tag k="ssr:stedsnr" v="798601" />
		<tag k="waterway" v="stream" />
	</node>
	<node lat="61.21344329173234" lon="5.750008468262384" id="-71746">
		<tag k="alt_name" v="Rørvikvatnet" />
		<tag k="name" v="Røyrvikvatnet" />
		<tag k="natural" v="water" />
		<tag k="ssr:stedsnr" v="798710" />
		<tag k="water" v="lake" />
	</node>
	<node lat="61.19369166437053" lon="5.498094448558867" id="-71751">
		<tag k="name" v="Snytebotntjørna" />
		<tag k="natural" v="water" />
		<tag k="ssr:stedsnr" v="798744" />
	</node>
	<node lat="61.262699999272236" lon="6.178280560563446" id="-71755">
		<tag k="name" v="Stølsvatnet" />
		<tag k="natural" v="water" />
		<tag k="ssr:stedsnr" v="918630" />
	</node>
	<node lat="61.2739131733196" lon="6.264873052768656" id="-71760">
		<tag k="name" v="Huskevatnet" />
		<tag k="natural" v="water" />
		<tag k="ssr:stedsnr" v="918826" />
		<tag k="water" v="lake" />
	</node>
	<node lat="61.09433611552388" lon="5.777119441793052" id="-71764">
		<tag k="alt_name" v="Åkrevatnet" />
		<tag k="name" v="Åkersvatnet" />
		<tag k="natural" v="water" />
		<tag k="ssr:stedsnr" v="919230" />
	</node>
	<node lat="61.175977775780375" lon="6.1754166755392825" id="-71769">
		<tag k="alt_name" v="Teigavatnet" />
		<tag k="name" v="Teigevatnet" />
		<tag k="natural" v="water" />
		<tag k="ssr:stedsnr" v="919343" />
	</node>
	<node lat="61.203577778500204" lon="5.877713882773343" id="-71770">
		<tag k="name" v="Kråkelva" />
		<tag k="ssr:stedsnr" v="919438" />
		<tag k="waterway" v="river" />
	</node>
	<node lat="61.15417500371511" lon="5.660330559539848" id="-71777">
		<tag k="name" v="Tverråna" />
		<tag k="ssr:stedsnr" v="920160" />
		<tag k="waterway" v="stream" />
	</node>
	<node lat="61.170575000615635" lon="5.546883330645673" id="-71780">
		<tag k="name" v="Solheimstjørna" />
		<tag k="natural" v="water" />
		<tag k="ssr:stedsnr" v="919860" />
	</node>
	<node lat="61.06893611165378" lon="5.94157777257634" id="-71786">
		<tag k="alt_name" v="Brekkeelva" />
		<tag k="name" v="Brekkelva" />
		<tag k="ssr:stedsnr" v="920269" />
		<tag k="waterway" v="stream" />
	</node>
	<node lat="61.21293888506095" lon="5.776816664740149" id="-71798">
		<tag k="name" v="Småelva" />
		<tag k="ssr:stedsnr" v="820688" />
		<tag k="waterway" v="stream" />
	</node>
	<node lat="61.21531944593156" lon="5.655191662480865" id="-71809">
		<tag k="name" v="Øyreelva" />
		<tag k="ssr:stedsnr" v="821115" />
		<tag k="waterway" v="stream" />
	</node>
	<node lat="61.115819444105085" lon="6.171286106086038" id="-71810">
		<tag k="name" v="Kroksneselvi" />
		<tag k="ssr:stedsnr" v="821126" />
		<tag k="waterway" v="stream" />
	</node>
	<node lat="61.178580555452996" lon="5.466594451962158" id="-71812">
		<tag k="name" v="Svaelva" />
		<tag k="ssr:stedsnr" v="821191" />
		<tag k="waterway" v="stream" />
	</node>
	<node lat="61.16604444693931" lon="5.769575006242562" id="-71814">
		<tag k="name" v="Lassegjelelva" />
		<tag k="ssr:stedsnr" v="821517" />
		<tag k="waterway" v="stream" />
	</node>
	<node lat="61.2484861090743" lon="5.865300002517966" id="-71819">
		<tag k="name" v="Tordivelsgroa" />
		<tag k="ssr:stedsnr" v="821587" />
		<tag k="waterway" v="stream" />
	</node>
	<node lat="61.206186109736734" lon="5.888436105517786" id="-71830">
		<tag k="name" v="Langevassgroa" />
		<tag k="ssr:stedsnr" v="821986" />
		<tag k="waterway" v="stream" />
	</node>
	<node lat="61.23839999813148" lon="6.247377787102365" id="-71842">
		<tag k="name" v="Makkoren" />
		<tag k="place" v="locality" />
		<tag k="ssr:stedsnr" v="858323" />
	</node>
	<node lat="60.963702779167676" lon="5.680008331458163" id="-71843">
		<tag k="name" v="Hellersbotnvatnet" />
		<tag k="natural" v="water" />
		<tag k="ssr:stedsnr" v="858293" />
	</node>
	<node lat="60.996621219061396" lon="5.761768422405529" id="-71846">
		<tag k="name" v="Fridalsvatnet" />
		<tag k="natural" v="water" />
		<tag k="ssr:stedsnr" v="858774" />
		<tag k="water" v="lake" />
	</node>
	<node lat="61.02099999959773" lon="5.67392500066518" id="-71853">
		<tag k="name" v="Løketjørna" />
		<tag k="natural" v="water" />
		<tag k="ssr:stedsnr" v="859003" />
	</node>
	<node lat="61.22153924833501" lon="5.924218344671805" id="-71855">
		<tag k="name" v="Ulldalsvatn" />
		<tag k="natural" v="water" />
		<tag k="ssr:stedsnr" v="859078" />
		<tag k="water" v="lake" />
	</node>
	<node lat="61.00773610958539" lon="5.873938885556891" id="-71859">
		<tag k="name" v="Svartevatnet" />
		<tag k="natural" v="water" />
		<tag k="ssr:stedsnr" v="859314" />
	</node>
	<node lat="61.18894444558538" lon="6.332505564020611" id="-71869">
		<tag k="name" v="Norddalsvatnet" />
		<tag k="natural" v="water" />
		<tag k="ssr:stedsnr" v="859705" />
	</node>
	<node lat="61.186541663968995" lon="5.709788889568647" id="-71879">
		<tag k="name" v="Botnavatnet" />
		<tag k="natural" v="water" />
		<tag k="ssr:stedsnr" v="859807" />
	</node>
	<node lat="61.21082221921274" lon="5.686525007479218" id="-71892">
		<tag k="name" v="Byrkjosneset" />
		<tag k="natural" v="cape" />
		<tag k="ssr:stedsnr" v="881101" />
	</node>
	<node lat="61.16144722555478" lon="5.524927781077649" id="-71895">
		<tag k="name" v="Skitholmen" />
		<tag k="natural" v="cape" />
		<tag k="ssr:stedsnr" v="881499" />
	</node>
	<node lat="61.05309999958603" lon="5.620877776862884" id="-71900">
		<tag k="name" v="Øvre Trædalsvatnet" />
		<tag k="natural" v="water" />
		<tag k="ssr:stedsnr" v="881657" />
		<tag k="water" v="lake" />
	</node>
	<node lat="61.239397220958644" lon="6.139661107147356" id="-71912">
		<tag k="name" v="Rindeholmen" />
		<tag k="place" v="islet" />
		<tag k="ssr:stedsnr" v="882702" />
	</node>
	<node lat="60.9855944468422" lon="5.714919443791237" id="-71921">
		<tag k="name" v="Holmane" />
		<tag k="natural" v="cape" />
		<tag k="ssr:stedsnr" v="918351" />
	</node>
	<node lat="61.238227780318745" lon="6.006122218323313" id="-71925">
		<tag k="name" v="Norddalsvatnet" />
		<tag k="natural" v="water" />
		<tag k="ssr:stedsnr" v="919112" />
	</node>
	<node lat="61.110891668722275" lon="5.925247224068838" id="-71928">
		<tag k="name" v="Bjørnsvatnet" />
		<tag k="natural" v="water" />
		<tag k="ssr:stedsnr" v="919299" />
	</node>
	<node lat="61.2028861068082" lon="5.978361111822111" id="-71932">
		<tag k="name" v="Myrketjørna" />
		<tag k="natural" v="water" />
		<tag k="ssr:stedsnr" v="919414" />
	</node>
	<node lat="61.210344445593165" lon="6.16019443619991" id="-71933">
		<tag k="alt_name" v="Sjurdsvatnet, øvre" />
		<tag k="name" v="Øvre Sjurdsvatnet" />
		<tag k="natural" v="water" />
		<tag k="ssr:stedsnr" v="919421" />
	</node>
	<node lat="61.014530560108994" lon="6.144602784242711" id="-71940">
		<tag k="loc_name" v="Dårelielva" />
		<tag k="name" v="Dårlegelva" />
		<tag k="ssr:stedsnr" v="919344" />
		<tag k="waterway" v="stream" />
	</node>
	<node lat="61.20785746037988" lon="5.46849759226258" id="-71943">
		<tag k="name" v="Langevatnet" />
		<tag k="natural" v="water" />
		<tag k="ssr:stedsnr" v="919650" />
		<tag k="water" v="lake" />
	</node>
	<node lat="61.225327778973686" lon="6.241574996102727" id="-71944">
		<tag k="name" v="Blankavatnet" />
		<tag k="natural" v="water" />
		<tag k="ssr:stedsnr" v="919699" />
	</node>
	<node lat="61.18576388965835" lon="5.687830557148218" id="-71945">
		<tag k="alt_name" v="Stølsvatnet" />
		<tag k="name" v="Norestølsvatnet" />
		<tag k="natural" v="water" />
		<tag k="ssr:stedsnr" v="919816" />
	</node>
	<node lat="61.02728887040624" lon="5.91117563201918" id="-71949">
		<tag k="name" v="Instefjord" />
		<tag k="natural" v="water" />
		<tag k="ssr:stedsnr" v="920347" />
		<tag k="water" v="lake" />
	</node>
	<node lat="61.27523610938693" lon="5.980788884282812" id="-71975">
		<tag k="name" v="Sjurdvatnet" />
		<tag k="natural" v="water" />
		<tag k="ssr:stedsnr" v="7579" />
	</node>
	<node lat="61.28059280628184" lon="6.067745338169109" id="-71976">
		<tag k="alt_name" v="Blankedalsvatnet, nedre" />
		<tag k="name" v="Nedre Blankedalsvatnet" />
		<tag k="natural" v="water" />
		<tag k="ssr:stedsnr" v="7593" />
		<tag k="water" v="lake" />
	</node>
	<node lat="61.28044166692502" lon="6.293683336992251" id="-71977">
		<tag k="name" v="Øyevatnet" />
		<tag k="natural" v="water" />
		<tag k="ssr:stedsnr" v="7771" />
	</node>
	<node lat="61.22894999569025" lon="6.170908334320127" id="-71981">
		<tag k="alt_name" v="Sæbotnsvatnet, nedre" />
		<tag k="name" v="Nedre Sæbotnsvatnet" />
		<tag k="natural" v="water" />
		<tag k="ssr:stedsnr" v="9049" />
	</node>
	<node lat="61.180230551639305" lon="5.910433342972348" id="-72000">
		<tag k="name" v="Lomtjørna" />
		<tag k="natural" v="water" />
		<tag k="ssr:stedsnr" v="9494" />
	</node>
	<node lat="61.09975555317993" lon="5.9254583344032055" id="-72002">
		<tag k="name" v="Dyttingane" />
		<tag k="natural" v="water" />
		<tag k="ssr:stedsnr" v="9259" />
	</node>
	<node lat="61.20003055839486" lon="5.939569439382056" id="-72011">
		<tag k="alt_name" v="Langeneset" />
		<tag k="name" v="Langenes" />
		<tag k="natural" v="cape" />
		<tag k="ssr:stedsnr" v="9381" />
	</node>
	<node lat="61.17098611258823" lon="6.038211115272025" id="-72014">
		<tag k="name" v="Mjeltegrova" />
		<tag k="ssr:stedsnr" v="9475" />
		<tag k="waterway" v="stream" />
	</node>
	<node lat="61.20113055418378" lon="5.718172226416492" id="-72024">
		<tag k="name" v="Kvernhusbotnsvatnet" />
		<tag k="natural" v="water" />
		<tag k="ssr:stedsnr" v="9781" />
	</node>
	<node lat="61.07018055719101" lon="5.923508334099614" id="-72028">
		<tag k="name" v="Øystrebøelva" />
		<tag k="old_name" v="Ysterbøelva;Østerbøelva;Øysterbøelva" />
		<tag k="ssr:stedsnr" v="30224" />
		<tag k="waterway" v="river" />
	</node>
	<node lat="61.16433611068324" lon="6.076852769914717" id="-72033">
		<tag k="name" v="Botneelva" />
		<tag k="ssr:stedsnr" v="30841" />
		<tag k="waterway" v="stream" />
	</node>
	<node lat="61.09857777600416" lon="6.0432277781392045" id="-72042">
		<tag k="name" v="Øyra" />
		<tag k="natural" v="cape" />
		<tag k="ssr:stedsnr" v="31222" />
	</node>
	<node lat="61.040875000771365" lon="5.884088885936297" id="-72043">
		<tag k="name" v="Vass-stranda" />
		<tag k="natural" v="beach" />
		<tag k="ssr:stedsnr" v="31252" />
	</node>
	<node lat="61.16796388568206" lon="5.791202785716325" id="-72052">
		<tag k="name" v="Jota" />
		<tag k="ssr:stedsnr" v="31533" />
		<tag k="waterway" v="stream" />
	</node>
	<node lat="61.175302782029846" lon="5.536702772516137" id="-72062">
		<tag k="name" v="Lomstjørna" />
		<tag k="natural" v="water" />
		<tag k="ssr:stedsnr" v="31695" />
	</node>
	<node lat="61.172161112746586" lon="5.468219437326486" id="-72065">
		<tag k="name" v="Storevikelva" />
		<tag k="ssr:stedsnr" v="32169" />
		<tag k="waterway" v="stream" />
	</node>
	<node lat="61.15778055205279" lon="5.46952778149278" id="-72069">
		<tag k="name" v="Klan-neset" />
		<tag k="natural" v="cape" />
		<tag k="ssr:stedsnr" v="32117" />
	</node>
	<node lat="61.18433333435181" lon="5.478961107560301" id="-72071">
		<tag k="name" v="Merkeselva" />
		<tag k="ssr:stedsnr" v="32149" />
		<tag k="waterway" v="stream" />
	</node>
	<node lat="61.19589166493621" lon="6.048961104736885" id="-72081">
		<tag k="name" v="Tulejota" />
		<tag k="ssr:stedsnr" v="32683" />
		<tag k="waterway" v="stream" />
	</node>
	<node lat="61.238036113171134" lon="5.862961108967237" id="-72083">
		<tag k="name" v="Streksfjellgroa" />
		<tag k="ssr:stedsnr" v="32539" />
		<tag k="waterway" v="stream" />
	</node>
	<node lat="61.22338055352216" lon="6.097941668438482" id="-72084">
		<tag k="name" v="Vetleskredfossen" />
		<tag k="natural" v="waterfall" />
		<tag k="ssr:stedsnr" v="32549" />
	</node>
	<node lat="61.16255000295099" lon="6.2867833326921225" id="-72092">
		<tag k="name" v="Vass-strondi" />
		<tag k="natural" v="beach" />
		<tag k="ssr:stedsnr" v="45728" />
	</node>
	<node lat="61.19303610892175" lon="6.230869438130523" id="-72095">
		<tag k="name" v="Kusegrovi" />
		<tag k="ssr:stedsnr" v="45758" />
		<tag k="waterway" v="stream" />
	</node>
	<node lat="61.17586666652079" lon="6.154391674073896" id="-72098">
		<tag k="name" v="Grøbotnelvi" />
		<tag k="ssr:stedsnr" v="46136" />
		<tag k="waterway" v="river" />
	</node>
	<node lat="61.170672222109324" lon="6.094886108609026" id="-72108">
		<tag k="alt_name" v="Storelva" />
		<tag k="name" v="Storelvi" />
		<tag k="ssr:stedsnr" v="68472" />
		<tag k="waterway" v="river" />
	</node>
	<node lat="61.26213610920024" lon="5.9130194403779175" id="-72112">
		<tag k="name" v="Vadheimsvatnet" />
		<tag k="natural" v="water" />
		<tag k="ssr:stedsnr" v="68589" />
	</node>
	<node lat="61.27473889190443" lon="5.950750005695766" id="-72113">
		<tag k="name" v="Seltuftelva" />
		<tag k="ssr:stedsnr" v="68595" />
		<tag k="waterway" v="stream" />
	</node>
	<node lat="61.25168889300755" lon="6.355683339677604" id="-72115">
		<tag k="name" v="Fessene" />
		<tag k="natural" v="waterfall" />
		<tag k="ssr:stedsnr" v="68861" />
	</node>
	<node lat="60.98925760348436" lon="5.708879586000624" id="-72118">
		<tag k="name" v="Krokevatnet" />
		<tag k="natural" v="water" />
		<tag k="ssr:stedsnr" v="69324" />
		<tag k="water" v="lake" />
	</node>
	<node lat="61.23117203699578" lon="6.2256451643586805" id="-72119">
		<tag k="name" v="Høgsvatnet" />
		<tag k="natural" v="water" />
		<tag k="ssr:stedsnr" v="69333" />
		<tag k="water" v="lake" />
	</node>
	<node lat="61.12072777514124" lon="5.466872226137257" id="-72120">
		<tag k="name" v="Støldalstjørna" />
		<tag k="natural" v="water" />
		<tag k="ssr:stedsnr" v="69595" />
	</node>
	<node lat="61.003551389097844" lon="5.626053528348655" id="-72130">
		<tag k="name" v="Årnesvatna" />
		<tag k="natural" v="water" />
		<tag k="ssr:stedsnr" v="70014" />
		<tag k="water" v="lake" />
	</node>
	<node lat="61.227897218070105" lon="5.984347225365936" id="-72139">
		<tag k="alt_name" v="Trollebotnsvatnet, nedre" />
		<tag k="name" v="Nedre Trollebotnsvatnet" />
		<tag k="natural" v="water" />
		<tag k="ssr:stedsnr" v="70073" />
	</node>
	<node lat="61.046638885863" lon="6.122647224434956" id="-72145">
		<tag k="alt_name" v="Kvanndalsvatnet, fremste" />
		<tag k="name" v="Fremste Kvanndalsvatnet" />
		<tag k="natural" v="water" />
		<tag k="ssr:stedsnr" v="70340" />
	</node>
	<node lat="61.05089688586766" lon="6.096389813612889" id="-72146">
		<tag k="name" v="Øksefjellvatnet" />
		<tag k="natural" v="water" />
		<tag k="ssr:stedsnr" v="70341" />
		<tag k="water" v="lake" />
	</node>
	<node lat="61.19395193285987" lon="6.157101368615997" id="-72149">
		<tag k="name" v="Blåvatnet" />
		<tag k="natural" v="water" />
		<tag k="ssr:stedsnr" v="70370" />
	</node>
	<node lat="61.1733638887697" lon="6.076497225892816" id="-72151">
		<tag k="fixme" v="multiple name tags, choose one and add the other to alt_name" />
		<tag k="name" v="Fossestølvatnet;Heimstefostelvatnet" />
		<tag k="natural" v="water" />
		<tag k="ssr:stedsnr" v="70436" />
	</node>
	<node lat="61.20043303925698" lon="5.518038986870097" id="-72162">
		<tag k="alt_name" v="Skilbreia" />
		<tag k="name" v="Skilbreida" />
		<tag k="natural" v="water" />
		<tag k="ssr:stedsnr" v="70795" />
		<tag k="water" v="lake" />
	</node>
	<node lat="61.19000833401976" lon="6.267461102154692" id="-72166">
		<tag k="name" v="Midtbotnvatnet" />
		<tag k="natural" v="water" />
		<tag k="ssr:stedsnr" v="70748" />
	</node>
	<node lat="61.22335833706622" lon="5.663338881930203" id="-72170">
		<tag k="alt_name" v="Heldalvatnet" />
		<tag k="name" v="Heldalsvatnet" />
		<tag k="natural" v="water" />
		<tag k="ssr:stedsnr" v="70766" />
	</node>
	<node lat="61.05511944311753" lon="5.853272219701978" id="-72180">
		<tag k="name" v="Salsvikneset" />
		<tag k="natural" v="cape" />
		<tag k="ssr:stedsnr" v="91577" />
	</node>
	<node lat="61.1512250046826" lon="5.593291672968782" id="-72185">
		<tag k="name" v="Ramsgrøfossen" />
		<tag k="natural" v="waterfall" />
		<tag k="ssr:stedsnr" v="92327" />
	</node>
	<node lat="61.203680554165466" lon="5.959536103757347" id="-72194">
		<tag k="name" v="Venesanden" />
		<tag k="natural" v="beach" />
		<tag k="ssr:stedsnr" v="92360" />
	</node>
	<node lat="61.036497218080406" lon="5.655688884306513" id="-72205">
		<tag k="name" v="Selbøvika" />
		<tag k="natural" v="bay" />
		<tag k="ssr:stedsnr" v="92662" />
	</node>
	<node lat="61.17144722652647" lon="5.867008325764209" id="-72219">
		<tag k="name" v="Blombotnelva" />
		<tag k="ssr:stedsnr" v="93749" />
		<tag k="waterway" v="stream" />
	</node>
	<node lat="61.22508333316822" lon="5.854161108415642" id="-72221">
		<tag k="name" v="Kvangreelva" />
		<tag k="ssr:stedsnr" v="93853" />
		<tag k="waterway" v="river" />
	</node>
	<node lat="61.2183083362988" lon="5.848583339354893" id="-72222">
		<tag k="name" v="Jyttegroa" />
		<tag k="ssr:stedsnr" v="93858" />
		<tag k="waterway" v="stream" />
	</node>
	<node lat="61.24799444276479" lon="6.163622231418373" id="-72224">
		<tag k="name" v="Gautingsdalselva" />
		<tag k="ssr:stedsnr" v="93956" />
		<tag k="waterway" v="river" />
	</node>
	<node lat="61.13985278195654" lon="6.302563887828432" id="-72229">
		<tag k="name" v="Svartefossen" />
		<tag k="natural" v="waterfall" />
		<tag k="ssr:stedsnr" v="107234" />
	</node>
	<node lat="61.15577499737506" lon="6.238258340481967" id="-72231">
		<tag k="name" v="Epleåna" />
		<tag k="ssr:stedsnr" v="106665" />
		<tag k="waterway" v="stream" />
	</node>
	<node lat="61.18769167080669" lon="6.214405555245855" id="-72233">
		<tag k="name" v="Raundala" />
		<tag k="ssr:stedsnr" v="106853" />
		<tag k="waterway" v="river" />
	</node>
	<node lat="61.05230440406737" lon="5.947568891774283" id="-72235">
		<tag k="alt_name" v="Nykjevatnet" />
		<tag k="name" v="Nykkevatnet" />
		<tag k="natural" v="water" />
		<tag k="ssr:stedsnr" v="130235" />
		<tag k="water" v="lake" />
	</node>
	<node lat="61.2683000038435" lon="5.971025002241548" id="-72242">
		<tag k="name" v="Sjurdelva" />
		<tag k="ssr:stedsnr" v="129575" />
		<tag k="waterway" v="stream" />
	</node>
	<node lat="61.27724540165563" lon="6.017917870253945" id="-72243">
		<tag k="alt_name" v="Jemdalsvatnet, nedre" />
		<tag k="name" v="Nedre Jemdalsvatnet" />
		<tag k="natural" v="water" />
		<tag k="ssr:stedsnr" v="129597" />
		<tag k="water" v="lake" />
	</node>
	<node lat="61.04463889140701" lon="5.835224990963685" id="-72249">
		<tag k="name" v="Botnefossen" />
		<tag k="natural" v="waterfall" />
		<tag k="ssr:stedsnr" v="130042" />
	</node>
	<node lat="61.178563886238145" lon="5.973080559133642" id="-72258">
		<tag k="name" v="Sauåna" />
		<tag k="ssr:stedsnr" v="130459" />
		<tag k="waterway" v="stream" />
	</node>
	<node lat="61.199910319187524" lon="6.291243663157778" id="-72261">
		<tag k="name" v="Isvotni" />
		<tag k="natural" v="water" />
		<tag k="ssr:stedsnr" v="130682" />
		<tag k="water" v="lake" />
	</node>
	<node lat="61.200605553829256" lon="6.230999998870971" id="-72262">
		<tag k="name" v="Snøskavla" />
		<tag k="ssr:stedsnr" v="130685" />
		<tag k="waterway" v="stream" />
	</node>
	<node lat="61.22674166743633" lon="5.704561104547455" id="-72264">
		<tag k="name" v="Stølsvatnet" />
		<tag k="natural" v="water" />
		<tag k="ssr:stedsnr" v="130741" />
	</node>
	<node lat="61.19358055866272" lon="5.7069694368471415" id="-72265">
		<tag k="alt_name" v="Fossvatn" />
		<tag k="name" v="Fossvatnet" />
		<tag k="natural" v="water" />
		<tag k="ssr:stedsnr" v="130745" />
	</node>
	<node lat="61.03645278143207" lon="5.956508327313986" id="-72271">
		<tag k="name" v="Djupevatnet" />
		<tag k="natural" v="water" />
		<tag k="ssr:stedsnr" v="131356" />
	</node>
	<node lat="61.14788611234718" lon="6.277702770836718" id="-72272">
		<tag k="name" v="Nesselvi" />
		<tag k="ssr:stedsnr" v="131629" />
		<tag k="waterway" v="river" />
	</node>
	<node lat="61.11341389343578" lon="5.543169447930705" id="-72278">
		<tag k="name" v="Ringreielva" />
		<tag k="ssr:stedsnr" v="153250" />
		<tag k="waterway" v="river" />
	</node>
	<node lat="61.050838892286116" lon="5.8403722207940865" id="-72285">
		<tag k="name" v="Gjelrånfossen" />
		<tag k="natural" v="waterfall" />
		<tag k="ssr:stedsnr" v="152580" />
	</node>
	<node lat="61.19399999703977" lon="6.094002775852293" id="-72290">
		<tag k="name" v="Fremste Gasteskargroi" />
		<tag k="ssr:stedsnr" v="152922" />
		<tag k="waterway" v="stream" />
	</node>
	<node lat="61.16904166249292" lon="6.101805550721655" id="-72293">
		<tag k="name" v="Bjødnehaugelva" />
		<tag k="ssr:stedsnr" v="152861" />
		<tag k="waterway" v="stream" />
	</node>
	<node lat="61.11783888930559" lon="5.987422219514827" id="-72297">
		<tag k="name" v="Inste Vikeelva" />
		<tag k="ssr:stedsnr" v="152979" />
		<tag k="waterway" v="stream" />
	</node>
	<node lat="61.248458334531584" lon="6.153511115124644" id="-72305">
		<tag k="name" v="Svatelbakkgrova" />
		<tag k="ssr:stedsnr" v="153794" />
		<tag k="waterway" v="stream" />
	</node>
	<node lat="61.21167499931468" lon="5.938775008655072" id="-72321">
		<tag k="name" v="Salskarelva" />
		<tag k="ssr:stedsnr" v="153744" />
		<tag k="waterway" v="stream" />
	</node>
	<node lat="61.251238891939366" lon="5.876219447261806" id="-72324">
		<tag k="name" v="Markesetfossen" />
		<tag k="natural" v="waterfall" />
		<tag k="ssr:stedsnr" v="153945" />
	</node>
	<node lat="61.05427499695742" lon="5.999613883807975" id="-72343">
		<tag k="name" v="Strupefossvatnet" />
		<tag k="natural" v="water" />
		<tag k="ssr:stedsnr" v="191337" />
	</node>
	<node lat="61.281674996736854" lon="6.034200001128081" id="-72344">
		<tag k="name" v="Årteigvatnet" />
		<tag k="natural" v="water" />
		<tag k="ssr:stedsnr" v="190587" />
	</node>
	<node lat="61.28063055582258" lon="5.97064165892454" id="-72347">
		<tag k="name" v="Solliøyrane" />
		<tag k="natural" v="water" />
		<tag k="ssr:stedsnr" v="190600" />
	</node>
	<node lat="61.135858329735086" lon="5.56404166812977" id="-72351">
		<tag k="alt_name" v="Berstjørna" />
		<tag k="name" v="Bergstjørna" />
		<tag k="natural" v="water" />
		<tag k="ssr:stedsnr" v="191097" />
	</node>
	<node lat="61.01327850640238" lon="5.836810139122829" id="-72356">
		<tag k="name" v="Årsdalsvatnet" />
		<tag k="natural" v="water" />
		<tag k="ssr:stedsnr" v="191022" />
		<tag k="water" v="lake" />
	</node>
	<node lat="61.13616666276829" lon="5.485886113617568" id="-72365">
		<tag k="alt_name" v="Mylsdalstjørna" />
		<tag k="name" v="Mølmesdalstjørna" />
		<tag k="natural" v="water" />
		<tag k="ssr:stedsnr" v="191148" />
	</node>
	<node lat="61.08109444420309" lon="5.9265638811650865" id="-72369">
		<tag k="name" v="Rustelvane" />
		<tag k="ssr:stedsnr" v="191246" />
		<tag k="waterway" v="stream" />
	</node>
	<node lat="61.20807500125113" lon="5.995949996236533" id="-72371">
		<tag k="name" v="Storebergsvatnet" />
		<tag k="natural" v="water" />
		<tag k="ssr:stedsnr" v="191391" />
	</node>
	<node lat="61.20419967475727" lon="5.94085549434762" id="-72372">
		<tag k="name" v="Storevatnet" />
		<tag k="natural" v="water" />
		<tag k="ssr:stedsnr" v="191393" />
		<tag k="water" v="lake" />
	</node>
	<node lat="61.17040000327764" lon="6.233261114969036" id="-72377">
		<tag k="name" v="Skjorfossen" />
		<tag k="natural" v="waterfall" />
		<tag k="ssr:stedsnr" v="191684" />
	</node>
	<node lat="61.250416516704156" lon="6.390170349860505" id="-72380">
		<tag k="name" v="Brevatnet" />
		<tag k="natural" v="water" />
		<tag k="ssr:stedsnr" v="191293" />
		<tag k="water" v="lake" />
	</node>
	<node lat="61.2241999962403" lon="5.761094450073325" id="-72383">
		<tag k="name" v="Fjellsendevatnet" />
		<tag k="natural" v="water" />
		<tag k="ssr:stedsnr" v="191737" />
	</node>
	<node lat="61.19567723734284" lon="5.670242283167521" id="-72384">
		<tag k="name" v="Sandavatnet" />
		<tag k="natural" v="water" />
		<tag k="ssr:stedsnr" v="191742" />
		<tag k="water" v="lake" />
	</node>
	<node lat="61.208836111111204" lon="5.708800002327773" id="-72388">
		<tag k="name" v="Symjingane" />
		<tag k="natural" v="bay" />
		<tag k="ssr:stedsnr" v="191762" />
	</node>
	<node lat="61.23696944535181" lon="5.774433324888972" id="-72394">
		<tag k="alt_name" v="Stordalsvatnet" />
		<tag k="name" v="Storedalsvatnet" />
		<tag k="natural" v="water" />
		<tag k="ssr:stedsnr" v="191966" />
	</node>
	<node lat="61.11494444221346" lon="6.007602783164869" id="-72403">
		<tag k="name" v="Dyrdalselva" />
		<tag k="ssr:stedsnr" v="213055" />
		<tag k="waterway" v="river" />
	</node>
	<node lat="61.16268056023612" lon="5.51710556279446" id="-72416">
		<tag k="name" v="Storholmen" />
		<tag k="place" v="islet" />
		<tag k="ssr:stedsnr" v="213542" />
	</node>
	<node lat="61.16714722514909" lon="5.924438893429682" id="-72421">
		<tag k="name" v="Ramslielva" />
		<tag k="ssr:stedsnr" v="213773" />
		<tag k="waterway" v="river" />
	</node>
	<node lat="61.170463886147935" lon="5.472136114847932" id="-72433">
		<tag k="name" v="Storevika" />
		<tag k="natural" v="bay" />
		<tag k="ssr:stedsnr" v="214173" />
	</node>
	<node lat="61.2434277821562" lon="5.855441661558814" id="-72438">
		<tag k="name" v="Spjotelielva" />
		<tag k="ssr:stedsnr" v="214585" />
		<tag k="waterway" v="stream" />
	</node>
	<node lat="61.174199995708975" lon="6.216344447649072" id="-72460">
		<tag k="name" v="Habnaskreda" />
		<tag k="ssr:stedsnr" v="225831" />
		<tag k="waterway" v="stream" />
	</node>
	<node lat="61.193769440667204" lon="6.245936115311565" id="-72461">
		<tag k="name" v="Fremste Gloppa" />
		<tag k="ssr:stedsnr" v="227756" />
		<tag k="waterway" v="stream" />
	</node>
	<node lat="61.16217500178981" lon="6.332627769700083" id="-72464">
		<tag k="name" v="Geitøyna" />
		<tag k="place" v="island" />
		<tag k="ssr:stedsnr" v="227412" />
	</node>
	<node lat="61.18071388757591" lon="6.311527770291771" id="-72466">
		<tag k="name" v="Fagredala" />
		<tag k="ssr:stedsnr" v="227600" />
		<tag k="waterway" v="stream" />
	</node>
	<node lat="61.04420277386914" lon="5.889691671292442" id="-72476">
		<tag k="name" v="Heimstevika" />
		<tag k="natural" v="bay" />
		<tag k="ssr:stedsnr" v="273365" />
	</node>
	<node lat="61.050238891712354" lon="5.8535722252391675" id="-72482">
		<tag k="name" v="Lona" />
		<tag k="natural" v="water" />
		<tag k="ssr:stedsnr" v="273558" />
		<tag k="water" v="lake" />
	</node>
	<node lat="61.15556111260059" lon="6.069055562611592" id="-72486">
		<tag k="name" v="Mårelva" />
		<tag k="ssr:stedsnr" v="273858" />
		<tag k="waterway" v="river" />
	</node>
	<node lat="61.15479166521663" lon="5.6159333262655995" id="-72499">
		<tag k="name" v="Rånda" />
		<tag k="ssr:stedsnr" v="274291" />
		<tag k="waterway" v="stream" />
	</node>
	<node lat="60.98733333139327" lon="5.858930558534452" id="-72511">
		<tag k="name" v="Fridals-tjørna" />
		<tag k="natural" v="water" />
		<tag k="ssr:stedsnr" v="274834" />
	</node>
	<node lat="61.178561113935864" lon="5.892950006640373" id="-72520">
		<tag k="name" v="Sjursbotnelva" />
		<tag k="ssr:stedsnr" v="275765" />
		<tag k="waterway" v="stream" />
	</node>
	<node lat="61.225072224165736" lon="5.947183332435738" id="-72523">
		<tag k="name" v="Hardbakkelva" />
		<tag k="ssr:stedsnr" v="275697" />
		<tag k="waterway" v="stream" />
	</node>
	<node lat="61.1055583371388" lon="6.067599991484148" id="-72528">
		<tag k="name" v="Kvernhuselva" />
		<tag k="ssr:stedsnr" v="275782" />
		<tag k="waterway" v="stream" />
	</node>
	<node lat="61.258966669221465" lon="5.9069750056828365" id="-72529">
		<tag k="name" v="Åselva" />
		<tag k="ssr:stedsnr" v="275898" />
		<tag k="waterway" v="river" />
	</node>
	<node lat="61.178025003529754" lon="5.911036115634838" id="-72530">
		<tag k="name" v="Grastjørna" />
		<tag k="natural" v="water" />
		<tag k="ssr:stedsnr" v="275953" />
	</node>
	<node lat="61.17576944540608" lon="6.150916666536244" id="-72534">
		<tag k="name" v="Vassbotnelva" />
		<tag k="ssr:stedsnr" v="288145" />
		<tag k="waterway" v="stream" />
	</node>
	<node lat="60.97673333548463" lon="5.689575003387489" id="-72541">
		<tag k="name" v="Langevatnet" />
		<tag k="natural" v="water" />
		<tag k="ssr:stedsnr" v="311370" />
	</node>
	<node lat="61.06384691897784" lon="5.678490036206396" id="-72545">
		<tag k="alt_name" v="Storelva" />
		<tag k="name" v="Øystrebøelva" />
		<tag k="ssr:stedsnr" v="311544" />
		<tag k="waterway" v="river" />
	</node>
	<node lat="61.285080553914646" lon="6.001538893943772" id="-72547">
		<tag k="name" v="Svartevatnet" />
		<tag k="natural" v="water" />
		<tag k="ssr:stedsnr" v="311637" />
	</node>
	<node lat="61.25253825802828" lon="6.094357449385089" id="-72552">
		<tag k="alt_name" v="Breiddalsvatnet, nedre;Nedre Breiddalsvatnet" />
		<tag k="name" v="Nedre Breidalsvatnet" />
		<tag k="natural" v="water" />
		<tag k="ssr:stedsnr" v="312086" />
		<tag k="water" v="lake" />
	</node>
	<node lat="61.24072777503298" lon="6.0521388810456616" id="-72556">
		<tag k="name" v="Vesledalsvatnet" />
		<tag k="natural" v="water" />
		<tag k="ssr:stedsnr" v="312100" />
	</node>
	<node lat="61.083238890315776" lon="5.759786111162491" id="-72569">
		<tag k="name" v="Purketjørna" />
		<tag k="natural" v="water" />
		<tag k="ssr:stedsnr" v="313239" />
	</node>
	<node lat="61.0541611126492" lon="6.0269444398029695" id="-72570">
		<tag k="name" v="Osevatnet" />
		<tag k="natural" v="water" />
		<tag k="ssr:stedsnr" v="313245" />
	</node>
	<node lat="61.1600499969732" lon="6.270444451040479" id="-72578">
		<tag k="alt_name" v="Kråkeelvi" />
		<tag k="name" v="Kråka" />
		<tag k="ssr:stedsnr" v="313749" />
		<tag k="waterway" v="stream" />
	</node>
	<node lat="61.05013790028385" lon="5.745837507705722" id="-72581">
		<tag k="name" v="Vetlelineset" />
		<tag k="natural" v="cape" />
		<tag k="ssr:stedsnr" v="334083" />
	</node>
	<node lat="61.15646388831256" lon="5.705488896798379" id="-72589">
		<tag k="name" v="Botnatjørna" />
		<tag k="natural" v="water" />
		<tag k="ssr:stedsnr" v="334669" />
	</node>
	<node lat="61.21600278044421" lon="5.681216670837599" id="-72597">
		<tag k="name" v="Eligrova" />
		<tag k="ssr:stedsnr" v="335086" />
		<tag k="waterway" v="stream" />
	</node>
	<node lat="61.15334166519341" lon="5.4661166758756385" id="-72604">
		<tag k="name" v="Djupevika" />
		<tag k="natural" v="bay" />
		<tag k="ssr:stedsnr" v="335134" />
	</node>
	<node lat="61.09247221943945" lon="5.726197221773845" id="-72609">
		<tag k="name" v="Ytreelva" />
		<tag k="ssr:stedsnr" v="335513" />
		<tag k="waterway" v="river" />
	</node>
	<node lat="61.2329166686197" lon="5.814919438235948" id="-72620">
		<tag k="name" v="Kallskreelva" />
		<tag k="ssr:stedsnr" v="336552" />
		<tag k="waterway" v="stream" />
	</node>
	<node lat="61.203238893456515" lon="5.852458336300955" id="-72627">
		<tag k="name" v="Botnegroa" />
		<tag k="ssr:stedsnr" v="336869" />
		<tag k="waterway" v="stream" />
	</node>
	<node lat="61.198827775608756" lon="5.930691664288327" id="-72629">
		<tag k="name" v="Vetleholmen" />
		<tag k="place" v="islet" />
		<tag k="ssr:stedsnr" v="336972" />
	</node>
	<node lat="61.16658611362134" lon="6.219166668156908" id="-72639">
		<tag k="name" v="Almeskreda" />
		<tag k="ssr:stedsnr" v="348844" />
		<tag k="waterway" v="stream" />
	</node>
	<node lat="61.26854167003188" lon="5.903975006304924" id="-72651">
		<tag k="name" v="Grytåstjørna" />
		<tag k="natural" v="water" />
		<tag k="ssr:stedsnr" v="371566" />
	</node>
	<node lat="61.26612459590067" lon="5.947900356059024" id="-72652">
		<tag k="alt_name" v="Fossvatn" />
		<tag k="name" v="Fossvatnet" />
		<tag k="natural" v="water" />
		<tag k="ssr:stedsnr" v="371568" />
		<tag k="water" v="lake" />
	</node>
	<node lat="61.26543055354514" lon="5.993375004973639" id="-72653">
		<tag k="name" v="Venelivatnet" />
		<tag k="natural" v="water" />
		<tag k="ssr:stedsnr" v="371569" />
	</node>
	<node lat="61.09661667104832" lon="6.134900007934174" id="-72656">
		<tag k="name" v="Storelva" />
		<tag k="ssr:stedsnr" v="371427" />
		<tag k="waterway" v="river" />
	</node>
	<node lat="61.258869443651626" lon="6.27688888085487" id="-72661">
		<tag k="name" v="Heibotnvatnet" />
		<tag k="natural" v="water" />
		<tag k="ssr:stedsnr" v="371841" />
	</node>
	<node lat="61.036688886386926" lon="5.650380550028953" id="-72664">
		<tag k="name" v="Vassdalsvatnet" />
		<tag k="natural" v="water" />
		<tag k="ssr:stedsnr" v="373046" />
	</node>
	<node lat="61.24864444301346" lon="6.066649993364971" id="-72665">
		<tag k="name" v="Skåbakkevatnet" />
		<tag k="natural" v="water" />
		<tag k="ssr:stedsnr" v="373081" />
	</node>
	<node lat="61.241602775919084" lon="6.161325003634626" id="-72667">
		<tag k="name" v="Eringsdalselva" />
		<tag k="ssr:stedsnr" v="373094" />
		<tag k="waterway" v="river" />
	</node>
	<node lat="61.18044444379894" lon="6.190144443983282" id="-72672">
		<tag k="name" v="Brekkelvi" />
		<tag k="ssr:stedsnr" v="373331" />
		<tag k="waterway" v="stream" />
	</node>
	<node lat="61.102977779659085" lon="5.442916657739954" id="-72693">
		<tag k="alt_name" v="Øykjestivatnet" />
		<tag k="name" v="Øykestigvatnet" />
		<tag k="natural" v="water" />
		<tag k="ssr:stedsnr" v="373587" />
	</node>
	<node lat="61.199007191498225" lon="5.780413227243035" id="-72698">
		<tag k="alt_name" v="Bøavatnet" />
		<tag k="name" v="Bøvatnet" />
		<tag k="natural" v="water" />
		<tag k="ssr:stedsnr" v="373781" />
	</node>
	<node lat="61.230375002958276" lon="5.733933330406761" id="-72705">
		<tag k="name" v="Kvanngrødtjørna" />
		<tag k="natural" v="water" />
		<tag k="ssr:stedsnr" v="494981" />
	</node>
	<node lat="61.13654444663146" lon="5.540566662249733" id="-72708">
		<tag k="name" v="Bossdalstjørna" />
		<tag k="natural" v="water" />
		<tag k="ssr:stedsnr" v="495200" />
	</node>
	<node lat="61.05177499948301" lon="5.714036113053879" id="-72723">
		<tag k="name" v="Rindeelva" />
		<tag k="ssr:stedsnr" v="395071" />
		<tag k="waterway" v="river" />
	</node>
	<node lat="61.17194166890743" lon="5.792005550657901" id="-72732">
		<tag k="name" v="Lommetjørna" />
		<tag k="natural" v="water" />
		<tag k="ssr:stedsnr" v="395563" />
	</node>
	<node lat="61.16463888788136" lon="5.5357805569695" id="-72744">
		<tag k="alt_name" v="Solheimselva" />
		<tag k="name" v="Strandoselva" />
		<tag k="ssr:stedsnr" v="395697" />
		<tag k="waterway" v="river" />
	</node>
	<node lat="61.040577780876006" lon="5.6281944527549115" id="-72748">
		<tag k="name" v="Nonskorgrova" />
		<tag k="ssr:stedsnr" v="395674" />
		<tag k="waterway" v="river" />
	</node>
	<node lat="61.15265833469887" lon="6.240433328559523" id="-72770">
		<tag k="name" v="Hatthornelvi" />
		<tag k="ssr:stedsnr" v="409648" />
		<tag k="waterway" v="stream" />
	</node>
	<node lat="61.193016670028385" lon="6.2259611100077334" id="-72771">
		<tag k="name" v="Mekrskreda" />
		<tag k="ssr:stedsnr" v="410159" />
		<tag k="waterway" v="stream" />
	</node>
	<node lat="61.25535671102916" lon="5.9828699746972385" id="-72782">
		<tag k="name" v="Monsdalsvatnet" />
		<tag k="natural" v="water" />
		<tag k="ssr:stedsnr" v="433489" />
		<tag k="water" v="lake" />
	</node>
	<node lat="61.25288333147672" lon="6.070825002942492" id="-72783">
		<tag k="name" v="Skåbakkevatnet" />
		<tag k="natural" v="water" />
		<tag k="ssr:stedsnr" v="433490" />
	</node>
	<node lat="61.28560000274631" lon="5.985416673757838" id="-72784">
		<tag k="name" v="Langevatnet" />
		<tag k="natural" v="water" />
		<tag k="ssr:stedsnr" v="432576" />
	</node>
	<node lat="61.23690833094666" lon="5.850397221331149" id="-72788">
		<tag k="name" v="Tangetjørna" />
		<tag k="natural" v="water" />
		<tag k="ssr:stedsnr" v="434085" />
	</node>
	<node lat="61.238361115705246" lon="5.9218222298361995" id="-72790">
		<tag k="name" v="Kvanngrødvatnet" />
		<tag k="natural" v="water" />
		<tag k="ssr:stedsnr" v="434090" />
	</node>
	<node lat="61.24091666396017" lon="6.1265999955314285" id="-72791">
		<tag k="alt_name" v="Vårstølelva" />
		<tag k="name" v="Vårstølgrova" />
		<tag k="ssr:stedsnr" v="434105" />
		<tag k="waterway" v="stream" />
	</node>
	<node lat="61.19545555815281" lon="5.529186118201822" id="-72796">
		<tag k="name" v="Pussene" />
		<tag k="place" v="locality" />
		<tag k="ssr:stedsnr" v="434752" />
	</node>
	<node lat="61.01630277987963" lon="5.761899991847691" id="-72801">
		<tag k="name" v="Blåfjellvatnet" />
		<tag k="natural" v="water" />
		<tag k="ssr:stedsnr" v="434015" />
		<tag k="water" v="lake" />
	</node>
	<node lat="61.22129433789283" lon="5.868942499298724" id="-72804">
		<tag k="name" v="Kvanngrødvatna" />
		<tag k="natural" v="water" />
		<tag k="ssr:stedsnr" v="434051" />
		<tag k="water" v="lake" />
	</node>
	<node lat="61.09193037222258" lon="6.139190633259834" id="-72813">
		<tag k="name" v="Vassdalsvatnet" />
		<tag k="natural" v="water" />
		<tag k="ssr:stedsnr" v="434244" />
		<tag k="water" v="lake" />
	</node>
	<node lat="61.09221666294481" lon="6.117727780324122" id="-72815">
		<tag k="name" v="Tverrelvane" />
		<tag k="ssr:stedsnr" v="434248" />
		<tag k="waterway" v="stream" />
	</node>
	<node lat="61.109258334216825" lon="5.979455560419745" id="-72817">
		<tag k="name" v="Brekkeelva" />
		<tag k="ssr:stedsnr" v="434262" />
		<tag k="waterway" v="stream" />
	</node>
	<node lat="61.17679721916286" lon="5.871211119447917" id="-72830">
		<tag k="name" v="Blombotnelva" />
		<tag k="ssr:stedsnr" v="434449" />
		<tag k="waterway" v="stream" />
	</node>
	<node lat="61.180536109530294" lon="6.1452000078528926" id="-72831">
		<tag k="name" v="Gråbotnelvi" />
		<tag k="ssr:stedsnr" v="434459" />
		<tag k="waterway" v="stream" />
	</node>
	<node lat="61.17147500161476" lon="5.500824998153246" id="-72839">
		<tag k="name" v="Stroketjørna" />
		<tag k="natural" v="water" />
		<tag k="ssr:stedsnr" v="434778" />
	</node>
	<node lat="61.17214999635469" lon="5.638538882285529" id="-72842">
		<tag k="alt_name" v="Brensttjørna" />
		<tag k="name" v="Brennsettjørna" />
		<tag k="natural" v="water" />
		<tag k="ssr:stedsnr" v="434833" />
	</node>
	<node lat="61.15904269566045" lon="6.362195529405629" id="-72846">
		<tag k="alt_name" v="Hesjedalsvatnet" />
		<tag k="name" v="Hesjadalsvatnet" />
		<tag k="natural" v="water" />
		<tag k="ssr:stedsnr" v="495634" />
		<tag k="water" v="lake" />
	</node>
	<node lat="61.050894448751805" lon="5.663547223880211" id="-72855">
		<tag k="name" v="Blomkråa" />
		<tag k="ssr:stedsnr" v="516033" />
		<tag k="waterway" v="stream" />
	</node>
	<node lat="61.1812194483764" lon="5.993372213284469" id="-72864">
		<tag k="name" v="Ytrebergselva" />
		<tag k="ssr:stedsnr" v="517225" />
		<tag k="waterway" v="stream" />
	</node>
	<node lat="61.17395555609956" lon="6.038305555886526" id="-72866">
		<tag k="name" v="Hamneelva" />
		<tag k="ssr:stedsnr" v="517232" />
		<tag k="waterway" v="stream" />
	</node>
	<node lat="61.211616666603256" lon="5.767022214271821" id="-72878">
		<tag k="name" v="Vika" />
		<tag k="natural" v="bay" />
		<tag k="ssr:stedsnr" v="517719" />
	</node>
	<node lat="61.01390555375324" lon="5.7841805522385625" id="-72889">
		<tag k="name" v="Fridalselva" />
		<tag k="ssr:stedsnr" v="518583" />
		<tag k="waterway" v="river" />
	</node>
	<node lat="61.234688888791496" lon="5.817661115377818" id="-72890">
		<tag k="name" v="Storeskreelva" />
		<tag k="ssr:stedsnr" v="518549" />
		<tag k="waterway" v="stream" />
	</node>
	<node lat="61.165844446210755" lon="6.32509999472314" id="-72897">
		<tag k="name" v="Demma" />
		<tag k="ssr:stedsnr" v="530440" />
		<tag k="waterway" v="stream" />
	</node>
	<node lat="61.16662222258004" lon="6.297441675827722" id="-72898">
		<tag k="name" v="Breiavad" />
		<tag k="natural" v="cape" />
		<tag k="ssr:stedsnr" v="530447" />
	</node>
	<node lat="61.13927222328709" lon="6.350472222765595" id="-72905">
		<tag k="name" v="Huselvi" />
		<tag k="ssr:stedsnr" v="531285" />
		<tag k="waterway" v="stream" />
	</node>
	<node lat="61.13717500256939" lon="6.352511102891575" id="-72907">
		<tag k="name" v="Bjødnahølen" />
		<tag k="place" v="locality" />
		<tag k="ssr:stedsnr" v="531287" />
	</node>
	<node lat="61.24138729419784" lon="6.283722341255595" id="-72914">
		<tag k="alt_name" v="Gryvlebotnvatnet, nedre" />
		<tag k="name" v="Nedre Gryvlebotnvatnet" />
		<tag k="natural" v="water" />
		<tag k="ssr:stedsnr" v="554349" />
		<tag k="water" v="lake" />
	</node>
	<node lat="61.032213892466615" lon="5.828775002763785" id="-72917">
		<tag k="name" v="Tverrfjelltjørna" />
		<tag k="natural" v="water" />
		<tag k="ssr:stedsnr" v="555002" />
	</node>
	<node lat="61.24217777701697" lon="6.023997222433934" id="-72920">
		<tag k="name" v="Myrketjørna" />
		<tag k="natural" v="water" />
		<tag k="ssr:stedsnr" v="555094" />
	</node>
	<node lat="61.09368888790561" lon="5.789508328204509" id="-72921">
		<tag k="name" v="Lomtjørna" />
		<tag k="natural" v="water" />
		<tag k="ssr:stedsnr" v="555199" />
	</node>
	<node lat="61.09812500131773" lon="6.108616669742686" id="-72926">
		<tag k="alt_name" v="Litleelva" />
		<tag k="name" v="Veslelva" />
		<tag k="ssr:stedsnr" v="555230" />
		<tag k="waterway" v="river" />
	</node>
	<node lat="61.199915919982864" lon="5.9874849503826475" id="-72931">
		<tag k="name" v="Vardavatna" />
		<tag k="natural" v="water" />
		<tag k="ssr:stedsnr" v="555343" />
		<tag k="water" v="lake" />
	</node>
	<node lat="61.18235000201052" lon="5.854263882985078" id="-72932">
		<tag k="name" v="Lomtjørna" />
		<tag k="natural" v="water" />
		<tag k="ssr:stedsnr" v="555345" />
	</node>
	<node lat="61.20293333003245" lon="6.051244444579594" id="-72934">
		<tag k="name" v="Føykja" />
		<tag k="ssr:stedsnr" v="555351" />
		<tag k="waterway" v="stream" />
	</node>
	<node lat="61.0736472190484" lon="5.843641665965198" id="-72939">
		<tag k="name" v="Storefossen" />
		<tag k="natural" v="waterfall" />
		<tag k="ssr:stedsnr" v="555155" />
	</node>
	<node lat="61.19239188947139" lon="5.45818968496257" id="-72945">
		<tag k="name" v="Osdalstjørnane" />
		<tag k="natural" v="water" />
		<tag k="ssr:stedsnr" v="555682" />
		<tag k="water" v="lake" />
	</node>
	<node lat="61.21078611313672" lon="5.719124992422785" id="-72946">
		<tag k="name" v="Raudesanden" />
		<tag k="natural" v="water" />
		<tag k="ssr:stedsnr" v="555779" />
	</node>
	<node lat="61.20819999889969" lon="5.653374998132504" id="-72947">
		<tag k="alt_name" v="Helleskartjørna" />
		<tag k="name" v="Helleskardtjørna" />
		<tag k="natural" v="water" />
		<tag k="ssr:stedsnr" v="555794" />
	</node>
	<node lat="61.168980559603916" lon="5.652924991914711" id="-72957">
		<tag k="name" v="Holmetjørnane" />
		<tag k="natural" v="water" />
		<tag k="ssr:stedsnr" v="555844" />
		<tag k="water" v="lake" />
	</node>
	<node lat="61.09181110821597" lon="5.875513894284232" id="-72960">
		<tag k="name" v="Kyrkjestoda" />
		<tag k="natural" v="beach" />
		<tag k="ssr:stedsnr" v="576276" />
	</node>
	<node lat="61.19312222317189" lon="5.789525006361361" id="-72976">
		<tag k="name" v="Svagroa" />
		<tag k="ssr:stedsnr" v="577720" />
		<tag k="waterway" v="stream" />
	</node>
	<node lat="61.15006944223965" lon="5.446680564642392" id="-72989">
		<tag k="name" v="Kjølen" />
		<tag k="natural" v="cape" />
		<tag k="ssr:stedsnr" v="577970" />
	</node>
	<node lat="61.15102222458844" lon="5.439030547176418" id="-72992">
		<tag k="name" v="Flateholmen" />
		<tag k="place" v="islet" />
		<tag k="ssr:stedsnr" v="577985" />
	</node>
	<node lat="61.221402778806855" lon="5.941874991756287" id="-72999">
		<tag k="name" v="Vetleulldalselva" />
		<tag k="ssr:stedsnr" v="578698" />
		<tag k="waterway" v="river" />
	</node>
	<node lat="61.25838333013034" lon="5.925463887179767" id="-73003">
		<tag k="name" v="Stølselva" />
		<tag k="ssr:stedsnr" v="578894" />
		<tag k="waterway" v="stream" />
	</node>
	<node lat="61.17930555678247" lon="6.225683336959982" id="-73005">
		<tag k="name" v="Renninganesfossen" />
		<tag k="natural" v="waterfall" />
		<tag k="ssr:stedsnr" v="710845" />
	</node>
	<node lat="61.10802222121065" lon="6.130436102435452" id="-73009">
		<tag k="name" v="Ortnevikelva" />
		<tag k="ssr:stedsnr" v="587988" />
		<tag k="waterway" v="river" />
	</node>
	<node lat="61.187602775095634" lon="6.234577783713915" id="-73021">
		<tag k="name" v="Kråkelvi" />
		<tag k="ssr:stedsnr" v="591750" />
		<tag k="waterway" v="river" />
	</node>
	<node lat="61.16658055879075" lon="6.2244611086516635" id="-73022">
		<tag k="name" v="Øyna" />
		<tag k="ssr:stedsnr" v="591865" />
		<tag k="waterway" v="river" />
	</node>
	<node lat="61.23388888770753" lon="5.857333330077909" id="-73029">
		<tag k="name" v="Trollefossen" />
		<tag k="natural" v="waterfall" />
		<tag k="ssr:stedsnr" v="615091" />
	</node>
	<node lat="61.087805556988855" lon="5.855516661225889" id="-73031">
		<tag k="name" v="Kroppevatnet" />
		<tag k="natural" v="water" />
		<tag k="ssr:stedsnr" v="615259" />
	</node>
	<node lat="61.20292500215461" lon="6.025563896618789" id="-73039">
		<tag k="name" v="Systråna" />
		<tag k="ssr:stedsnr" v="615373" />
		<tag k="waterway" v="stream" />
	</node>
	<node lat="61.12655555414657" lon="5.932047227954628" id="-73043">
		<tag k="name" v="Strandselva" />
		<tag k="ssr:stedsnr" v="615432" />
		<tag k="waterway" v="stream" />
	</node>
	<node lat="61.18782499890135" lon="5.74355277114724" id="-73048">
		<tag k="name" v="Haslelivatnet" />
		<tag k="natural" v="water" />
		<tag k="ssr:stedsnr" v="615812" />
	</node>
	<node lat="61.19824444883187" lon="5.833941667476273" id="-73050">
		<tag k="alt_name" v="Hundestrekkselva" />
		<tag k="name" v="Hundestrikselva" />
		<tag k="ssr:stedsnr" v="615824" />
		<tag k="waterway" v="stream" />
	</node>
	<node lat="61.23078333318833" lon="5.745336105865018" id="-73051">
		<tag k="name" v="Skredbotnvatnet" />
		<tag k="natural" v="water" />
		<tag k="ssr:stedsnr" v="615961" />
	</node>
	<node lat="61.090897169005785" lon="6.05572980019239" id="-73062">
		<tag k="name" v="Flugedalsvatna" />
		<tag k="natural" v="water" />
		<tag k="ssr:stedsnr" v="616270" />
		<tag k="water" v="lake" />
	</node>
	<node lat="61.1758444483072" lon="5.895083340438361" id="-73063">
		<tag k="name" v="Stølselva" />
		<tag k="ssr:stedsnr" v="616469" />
		<tag k="waterway" v="stream" />
	</node>
	<node lat="61.15509166668893" lon="6.308238887564672" id="-73066">
		<tag k="name" v="Monstjørni" />
		<tag k="natural" v="water" />
		<tag k="ssr:stedsnr" v="616637" />
	</node>
	<node lat="61.19992500018099" lon="5.869124997838581" id="-73069">
		<tag k="name" v="Krokane" />
		<tag k="natural" v="cape" />
		<tag k="ssr:stedsnr" v="639949" />
	</node>
	<node lat="61.06365278013152" lon="5.790922223909909" id="-73073">
		<tag k="name" v="Føsundelva" />
		<tag k="ssr:stedsnr" v="637357" />
		<tag k="waterway" v="stream" />
	</node>
	<node lat="61.19966389108515" lon="6.112619452353673" id="-73077">
		<tag k="name" v="Tverrelva" />
		<tag k="ssr:stedsnr" v="637974" />
		<tag k="waterway" v="river" />
	</node>
	<node lat="61.18666388905078" lon="6.089522213486663" id="-73094">
		<tag k="alt_name" v="Gasjevarelvi" />
		<tag k="name" v="Gastgjevarelvi" />
		<tag k="ssr:stedsnr" v="637850" />
		<tag k="waterway" v="stream" />
	</node>
	<node lat="61.175222226490796" lon="6.083825007586394" id="-73096">
		<tag k="name" v="Fostelelva" />
		<tag k="ssr:stedsnr" v="637863" />
		<tag k="waterway" v="stream" />
	</node>
	<node lat="61.16976388613699" lon="5.480361114425572" id="-73101">
		<tag k="name" v="Horskeholmen" />
		<tag k="place" v="islet" />
		<tag k="ssr:stedsnr" v="638172" />
	</node>
	<node lat="61.17868333494249" lon="5.990377783592166" id="-73105">
		<tag k="name" v="Vellåna" />
		<tag k="ssr:stedsnr" v="638422" />
		<tag k="waterway" v="stream" />
	</node>
	<node lat="61.234244445378906" lon="6.041116674943655" id="-73111">
		<tag k="name" v="Vassdalselva" />
		<tag k="ssr:stedsnr" v="638467" />
		<tag k="waterway" v="river" />
	</node>
	<node lat="61.24545832978651" lon="6.157811104423905" id="-73126">
		<tag k="name" v="Laksefossen" />
		<tag k="natural" v="waterfall" />
		<tag k="ssr:stedsnr" v="638967" />
	</node>
	<node lat="61.02500555365858" lon="5.7971638798192435" id="-73129">
		<tag k="name" v="Hestfossen" />
		<tag k="natural" v="waterfall" />
		<tag k="ssr:stedsnr" v="639616" />
	</node>
	<node lat="61.20610000147784" lon="5.858188881313434" id="-73134">
		<tag k="name" v="Husedalsgroa" />
		<tag k="ssr:stedsnr" v="639888" />
		<tag k="waterway" v="stream" />
	</node>
	<node lat="61.20979444236546" lon="5.849141663256737" id="-73135">
		<tag k="name" v="Ljotebakkelva" />
		<tag k="ssr:stedsnr" v="639890" />
		<tag k="waterway" v="stream" />
	</node>
	<node lat="61.19689444006331" lon="5.925827779068694" id="-73136">
		<tag k="name" v="Moaneset" />
		<tag k="natural" v="cape" />
		<tag k="ssr:stedsnr" v="639983" />
	</node>
	<node lat="61.189663884779605" lon="6.208427777026793" id="-73137">
		<tag k="name" v="Raundalsfossen" />
		<tag k="natural" v="waterfall" />
		<tag k="ssr:stedsnr" v="643230" />
	</node>
	<node lat="61.14346666342902" lon="6.278011109966213" id="-73151">
		<tag k="name" v="Vellene" />
		<tag k="ssr:stedsnr" v="652610" />
		<tag k="waterway" v="river" />
	</node>
	<node lat="61.16141944609799" lon="6.366152784566" id="-73155">
		<tag k="name" v="Kaffiholmen" />
		<tag k="place" v="islet" />
		<tag k="ssr:stedsnr" v="713442" />
	</node>
	<node lat="61.15208333421588" lon="6.282455547771822" id="-73160">
		<tag k="name" v="Rapplåna" />
		<tag k="ssr:stedsnr" v="713769" />
		<tag k="waterway" v="stream" />
	</node>
	<node lat="61.18819444121256" lon="6.227255552922403" id="-73161">
		<tag k="name" v="Vassgrovi" />
		<tag k="ssr:stedsnr" v="713861" />
		<tag k="waterway" v="stream" />
	</node>
	<node lat="61.263325002873415" lon="5.965480548488773" id="-73164">
		<tag k="name" v="Lonene" />
		<tag k="natural" v="bay" />
		<tag k="ssr:stedsnr" v="736564" />
	</node>
	<node lat="61.25848055438601" lon="6.163625006519056" id="-73165">
		<tag k="name" v="Botnaelva" />
		<tag k="ssr:stedsnr" v="736550" />
		<tag k="waterway" v="stream" />
	</node>
	<node lat="61.11559444302914" lon="5.522983341446431" id="-73175">
		<tag k="name" v="Myrketjørna" />
		<tag k="natural" v="water" />
		<tag k="ssr:stedsnr" v="737137" />
	</node>
	<node lat="60.95494166801319" lon="5.879988895317082" id="-73176">
		<tag k="name" v="Rundavatnet" />
		<tag k="natural" v="water" />
		<tag k="ssr:stedsnr" v="737017" />
	</node>
	<node lat="61.027876169255194" lon="5.840440099514123" id="-73177">
		<tag k="name" v="Botnevatnet" />
		<tag k="natural" v="water" />
		<tag k="ssr:stedsnr" v="737023" />
		<tag k="water" v="lake" />
	</node>
	<node lat="61.038625002295056" lon="5.596183341754796" id="-73178">
		<tag k="name" v="Kovevatnet" />
		<tag k="natural" v="water" />
		<tag k="ssr:stedsnr" v="737055" />
	</node>
	<node lat="61.23365555498755" lon="6.131644439831219" id="-73179">
		<tag k="name" v="Fokefossen" />
		<tag k="natural" v="waterfall" />
		<tag k="ssr:stedsnr" v="737056" />
	</node>
	<node lat="61.062022226291106" lon="6.11265000389536" id="-73180">
		<tag k="name" v="Grønsetvatnet" />
		<tag k="natural" v="water" />
		<tag k="ssr:stedsnr" v="737238" />
	</node>
	<node lat="61.03765305084631" lon="6.150680846624917" id="-73186">
		<tag k="name" v="Bjørnevatna" />
		<tag k="natural" v="water" />
		<tag k="ssr:stedsnr" v="737346" />
		<tag k="water" v="lake" />
	</node>
	<node lat="61.18090700863433" lon="6.374843144936343" id="-73190">
		<tag k="name" v="Øvrebotnvatni" />
		<tag k="natural" v="water" />
		<tag k="ssr:stedsnr" v="737728" />
		<tag k="water" v="lake" />
	</node>
	<node lat="61.16508170223878" lon="6.291330345145048" id="-73191">
		<tag k="fixme" v="multiple name tags, choose one and add the other to alt_name" />
		<tag k="name" v="Nessadalsvatnet;Dalavatnet" />
		<tag k="natural" v="water" />
		<tag k="ssr:stedsnr" v="737730" />
		<tag k="water" v="lake" />
	</node>
	<node lat="61.20278333306581" lon="5.793502778104968" id="-73195">
		<tag k="name" v="Tjørna" />
		<tag k="natural" v="water" />
		<tag k="ssr:stedsnr" v="737786" />
	</node>
	<node lat="61.05649999596274" lon="5.851930555599342" id="-73202">
		<tag k="name" v="Salsvika" />
		<tag k="natural" v="bay" />
		<tag k="ssr:stedsnr" v="759567" />
	</node>
	<node lat="61.0937166665996" lon="6.117611116873169" id="-73209">
		<tag k="name" v="Mudlabekka" />
		<tag k="ssr:stedsnr" v="759923" />
		<tag k="waterway" v="stream" />
	</node>
	<node lat="61.181499999832816" lon="5.505966666579911" id="-73222">
		<tag k="name" v="Merkesvika" />
		<tag k="natural" v="bay" />
		<tag k="ssr:stedsnr" v="760230" />
	</node>
	<node lat="61.18368888624417" lon="5.988391673173403" id="-73229">
		<tag k="name" v="Steinbakkelva" />
		<tag k="ssr:stedsnr" v="760466" />
		<tag k="waterway" v="stream" />
	</node>
	<node lat="61.182755557324576" lon="6.327138889421615" id="-73249">
		<tag k="name" v="Illefoss" />
		<tag k="natural" v="waterfall" />
		<tag k="ssr:stedsnr" v="773586" />
	</node>
	<node lat="61.191772218365514" lon="6.216433334506878" id="-73252">
		<tag k="name" v="Frøsa" />
		<tag k="ssr:stedsnr" v="774174" />
		<tag k="waterway" v="stream" />
	</node>
	<node lat="61.12121389216873" lon="6.370358335401378" id="-73253">
		<tag k="name" v="Ytste Stølselvi" />
		<tag k="ssr:stedsnr" v="774365" />
		<tag k="waterway" v="stream" />
	</node>
	<node lat="61.25254999573098" lon="6.287486108723746" id="-73261">
		<tag k="name" v="Sjursvatnet" />
		<tag k="natural" v="water" />
		<tag k="ssr:stedsnr" v="796858" />
	</node>
	<node lat="61.26863889306187" lon="6.00600000125405" id="-73264">
		<tag k="name" v="Djupedalsvatnet" />
		<tag k="natural" v="water" />
		<tag k="ssr:stedsnr" v="796587" />
	</node>
	<node lat="60.97847777672839" lon="5.755727783822681" id="-73265">
		<tag k="name" v="Spongavatnet" />
		<tag k="natural" v="water" />
		<tag k="ssr:stedsnr" v="797297" />
		<tag k="water" v="lake" />
	</node>
	<node lat="61.203516666384445" lon="6.097441658875144" id="-73270">
		<tag k="alt_name" v="Blåfjellvatnet, øvre" />
		<tag k="name" v="Øvre Blåfjellvatnet" />
		<tag k="natural" v="water" />
		<tag k="ssr:stedsnr" v="798388" />
	</node>
	<node lat="60.968116665785985" lon="5.876941674936359" id="-73272">
		<tag k="name" v="Bjordalskupa" />
		<tag k="natural" v="water" />
		<tag k="ssr:stedsnr" v="798023" />
	</node>
	<node lat="61.022111107262816" lon="5.805730549324361" id="-73273">
		<tag k="name" v="Lonene" />
		<tag k="natural" v="water" />
		<tag k="ssr:stedsnr" v="798031" />
	</node>
	<node lat="61.119061106998345" lon="5.542236118637623" id="-73276">
		<tag k="name" v="Kutjørna" />
		<tag k="natural" v="water" />
		<tag k="ssr:stedsnr" v="798128" />
	</node>
	<node lat="61.118263885191084" lon="5.512900001640093" id="-73277">
		<tag k="name" v="Vasslitjørna" />
		<tag k="natural" v="water" />
		<tag k="ssr:stedsnr" v="798129" />
	</node>
	<node lat="61.112605008526735" lon="5.913644228336196" id="-73296">
		<tag k="name" v="Småvatna" />
		<tag k="natural" v="water" />
		<tag k="ssr:stedsnr" v="798273" />
	</node>
	<node lat="61.02768888558977" lon="5.878066666498549" id="-73301">
		<tag k="loc_name" v="Tjørna i Botnen" />
		<tag k="name" v="Tjørna i Botn" />
		<tag k="natural" v="water" />
		<tag k="ssr:stedsnr" v="798342" />
	</node>
	<node lat="61.21535555863206" lon="5.674377773326361" id="-73309">
		<tag k="name" v="Klubben" />
		<tag k="natural" v="cape" />
		<tag k="ssr:stedsnr" v="798720" />
	</node>
	<node lat="61.21207773529722" lon="5.677409095642419" id="-73310">
		<tag k="name" v="Vikavatnet" />
		<tag k="natural" v="water" />
		<tag k="ssr:stedsnr" v="798727" />
		<tag k="water" v="lake" />
	</node>
	<node lat="61.23371330765127" lon="5.701190559947151" id="-73319">
		<tag k="name" v="Småvatna" />
		<tag k="natural" v="water" />
		<tag k="ssr:stedsnr" v="798961" />
		<tag k="water" v="lake" />
	</node>
	<node lat="61.10434722214123" lon="5.979591661531155" id="-73328">
		<tag k="name" v="Skogøksla" />
		<tag k="ssr:stedsnr" v="820977" />
		<tag k="waterway" v="stream" />
	</node>
	<node lat="61.17443055574162" lon="5.767658328061976" id="-73341">
		<tag k="name" v="Teigaelva" />
		<tag k="ssr:stedsnr" v="821530" />
		<tag k="waterway" v="river" />
	</node>
	<node lat="61.02208888780283" lon="5.821402780898279" id="-73350">
		<tag k="name" v="Vasstranda" />
		<tag k="natural" v="beach" />
		<tag k="ssr:stedsnr" v="820848" />
	</node>
	<node lat="61.17698889117147" lon="5.449636119394082" id="-73352">
		<tag k="name" v="Alheitjørna" />
		<tag k="natural" v="water" />
		<tag k="ssr:stedsnr" v="820958" />
	</node>
	<node lat="61.185266669715325" lon="5.821380547220881" id="-73371">
		<tag k="name" v="Vetlefossen" />
		<tag k="natural" v="waterfall" />
		<tag k="ssr:stedsnr" v="821768" />
	</node>
	<node lat="61.21164166959509" lon="5.733327783879" id="-73377">
		<tag k="name" v="Klubben" />
		<tag k="natural" v="cape" />
		<tag k="ssr:stedsnr" v="821747" />
	</node>
	<node lat="61.18391944794596" lon="5.63175833905934" id="-73380">
		<tag k="name" v="Vetletjørna" />
		<tag k="natural" v="water" />
		<tag k="ssr:stedsnr" v="822987" />
	</node>
	<node lat="61.12662499995414" lon="6.334897230822629" id="-73388">
		<tag k="name" v="Sagosen" />
		<tag k="natural" v="bay" />
		<tag k="ssr:stedsnr" v="834475" />
	</node>
	<node lat="61.14937778118922" lon="6.285405558198953" id="-73393">
		<tag k="name" v="Stuåna" />
		<tag k="ssr:stedsnr" v="834703" />
		<tag k="waterway" v="stream" />
	</node>
	<node lat="61.06043333062553" lon="5.742669440843316" id="-73427">
		<tag k="alt_name" v="Vetlevatnet" />
		<tag k="name" v="Veslevatnet" />
		<tag k="natural" v="water" />
		<tag k="ssr:stedsnr" v="859195" />
	</node>
	<node lat="61.16471666970071" lon="6.143991664741586" id="-73428">
		<tag k="alt_name" v="Eitredalselvi" />
		<tag k="name" v="Eitra" />
		<tag k="ssr:stedsnr" v="859295" />
		<tag k="waterway" v="stream" />
	</node>
	<node lat="61.21764999611538" lon="6.079636113569182" id="-73430">
		<tag k="name" v="Sæbøtjørna" />
		<tag k="natural" v="water" />
		<tag k="ssr:stedsnr" v="859394" />
	</node>
	<node lat="61.21371944343916" lon="5.977452770688873" id="-73432">
		<tag k="alt_name" v="Vetlevatnet" />
		<tag k="name" v="Veslevatnet" />
		<tag k="natural" v="water" />
		<tag k="ssr:stedsnr" v="859401" />
	</node>
	<node lat="61.084100002456516" lon="5.748213892830242" id="-73434">
		<tag k="name" v="Daurmålstjørna" />
		<tag k="natural" v="water" />
		<tag k="ssr:stedsnr" v="859228" />
	</node>
	<node lat="61.06766944884304" lon="5.965133331550123" id="-73437">
		<tag k="name" v="Fessene" />
		<tag k="natural" v="waterfall" />
		<tag k="ssr:stedsnr" v="859246" />
	</node>
	<node lat="61.041566733302226" lon="5.888088052097578" id="-73440">
		<tag k="alt_name" v="Almdokkvatnet" />
		<tag k="name" v="Almdokkevatnet" />
		<tag k="natural" v="water" />
		<tag k="ssr:stedsnr" v="859334" />
		<tag k="water" v="lake" />
	</node>
	<node lat="61.03856388499823" lon="5.969997213534075" id="-73442">
		<tag k="name" v="Tvitakvatnet" />
		<tag k="natural" v="water" />
		<tag k="ssr:stedsnr" v="859339" />
	</node>
	<node lat="61.10391008953164" lon="5.462041013706952" id="-73446">
		<tag k="name" v="Stølstjørna" />
		<tag k="natural" v="water" />
		<tag k="ssr:stedsnr" v="859540" />
	</node>
	<node lat="61.202905551854464" lon="5.486752773746702" id="-73448">
		<tag k="name" v="Steinbotnevatnet" />
		<tag k="natural" v="water" />
		<tag k="ssr:stedsnr" v="859729" />
	</node>
	<node lat="61.21788055234467" lon="5.689838883702552" id="-73450">
		<tag k="name" v="Sagelva" />
		<tag k="ssr:stedsnr" v="859742" />
		<tag k="waterway" v="stream" />
	</node>
	<node lat="61.21311388735508" lon="5.668038890997964" id="-73451">
		<tag k="name" v="Selsneset" />
		<tag k="natural" v="cape" />
		<tag k="ssr:stedsnr" v="859744" />
	</node>
	<node lat="61.17509166790792" lon="5.611763888050326" id="-73455">
		<tag k="name" v="Tangen" />
		<tag k="natural" v="water" />
		<tag k="ssr:stedsnr" v="859796" />
	</node>
	<node lat="61.061002782015535" lon="5.8993888893888355" id="-73458">
		<tag k="alt_name" v="Syrbøelva" />
		<tag k="name" v="Sørebøelva" />
		<tag k="ssr:stedsnr" v="880482" />
		<tag k="waterway" v="river" />
	</node>
	<node lat="61.167238890481975" lon="5.516825007834437" id="-73480">
		<tag k="name" v="Katteneset" />
		<tag k="natural" v="cape" />
		<tag k="ssr:stedsnr" v="881687" />
	</node>
	<node lat="61.08363055703877" lon="5.444397213692677" id="-73486">
		<tag k="name" v="Røyselva" />
		<tag k="ssr:stedsnr" v="881824" />
		<tag k="waterway" v="stream" />
	</node>
	<node lat="61.17008055158517" lon="5.450344451898453" id="-73494">
		<tag k="name" v="Fossarelva" />
		<tag k="ssr:stedsnr" v="881939" />
		<tag k="waterway" v="river" />
	</node>
	<node lat="61.223352776688166" lon="5.95379722305625" id="-73500">
		<tag k="name" v="Remaelva" />
		<tag k="ssr:stedsnr" v="882634" />
		<tag k="waterway" v="river" />
	</node>
	<node lat="61.239000002547" lon="6.145977770240186" id="-73502">
		<tag k="name" v="Sauegjelsgroa" />
		<tag k="ssr:stedsnr" v="882739" />
		<tag k="waterway" v="stream" />
	</node>
	<node lat="61.21347777344192" lon="6.05282777560795" id="-73503">
		<tag k="name" v="Tungeelva" />
		<tag k="ssr:stedsnr" v="882836" />
		<tag k="waterway" v="river" />
	</node>
	<node lat="61.15846666936912" lon="6.132547216782229" id="-73505">
		<tag k="name" v="Eitrenesfossen" />
		<tag k="natural" v="waterfall" />
		<tag k="ssr:stedsnr" v="882938" />
	</node>
	<node lat="61.228294443960685" lon="5.858049997953594" id="-73506">
		<tag k="name" v="Nipegroa" />
		<tag k="ssr:stedsnr" v="882868" />
		<tag k="waterway" v="river" />
	</node>
	<node lat="61.160938888100134" lon="5.887177781597713" id="-73523">
		<tag k="name" v="Husaståa" />
		<tag k="ssr:stedsnr" v="941774" />
		<tag k="waterway" v="stream" />
	</node>
	<node lat="61.08908889150621" lon="5.442549995929704" id="-73530">
		<tag k="name" v="Myrketjørna" />
		<tag k="natural" v="water" />
		<tag k="ssr:stedsnr" v="941814" />
	</node>
	<node lat="61.090163889122486" lon="5.430277776176431" id="-73533">
		<tag k="name" v="Klimpetjørna" />
		<tag k="natural" v="water" />
		<tag k="ssr:stedsnr" v="941830" />
	</node>
	<node lat="61.17172500246656" lon="5.487591665713605" id="-73546">
		<tag k="name" v="Bjonholmen" />
		<tag k="natural" v="cape" />
		<tag k="ssr:stedsnr" v="942164" />
	</node>
	<node lat="61.17410555895258" lon="5.497266659952956" id="-73547">
		<tag k="name" v="Stroka" />
		<tag k="natural" v="strait" />
		<tag k="ssr:stedsnr" v="942166" />
	</node>
	<node lat="61.165705553052504" lon="5.526455563723004" id="-73562">
		<tag k="name" v="Neset" />
		<tag k="natural" v="cape" />
		<tag k="ssr:stedsnr" v="942492" />
	</node>
	<node lat="61.154263887373965" lon="6.133874990841454" id="-73579">
		<tag k="name" v="Eitreneselvi" />
		<tag k="ssr:stedsnr" v="942945" />
		<tag k="waterway" v="stream" />
	</node>
	<node lat="61.13900555850933" lon="5.581402779581623" id="-73592">
		<tag k="name" v="Ratteskarelva" />
		<tag k="ssr:stedsnr" v="942992" />
		<tag k="waterway" v="stream" />
	</node>
	<node lat="61.18163333068282" lon="5.905219449811022" id="-73598">
		<tag k="name" v="Lone" />
		<tag k="natural" v="water" />
		<tag k="ssr:stedsnr" v="943760" />
		<tag k="water" v="lake" />
	</node>
	<node lat="61.17024444554084" lon="5.849752779010638" id="-73599">
		<tag k="name" v="Galdergrova" />
		<tag k="ssr:stedsnr" v="943774" />
		<tag k="waterway" v="stream" />
	</node>
	<node lat="61.214724998782586" lon="5.846244451178366" id="-73605">
		<tag k="name" v="Okslefossgroa" />
		<tag k="ssr:stedsnr" v="943958" />
		<tag k="waterway" v="stream" />
	</node>
	<node lat="61.04530983232932" lon="5.703376359881003" id="-73833">
		<tag k="name" v="Øystrebøfossen" />
		<tag k="natural" v="waterfall" />
		<tag k="ssr:stedsnr" v="1072120" />
	</node>
</osm>
