<?xml version="1.0" encoding="UTF-8"?>
<<<<<<< HEAD
<osm version="0.6" generator="osmapis">
	<node lat="61.10005833150101" lon="5.779788891293735" id="-25904">
		<tag k="historic" v="shieling" />
		<tag k="name" v="Åkrestølen" />
		<tag k="place" v="locality" />
		<tag k="ssr:stedsnr" v="9197" />
	</node>
	<node lat="61.208061109459685" lon="6.1167666731465955" id="-25909">
		<tag k="name" v="Myrane" />
		<tag k="natural" v="wetland" />
		<tag k="ssr:stedsnr" v="9403" />
	</node>
	<node lat="61.16774480384005" lon="5.727162799192189" id="-25923">
		<tag k="name" v="Vollen" />
		<tag k="place" v="locality" />
		<tag k="ssr:stedsnr" v="9848" />
	</node>
	<node lat="61.10778611258974" lon="6.108402771669031" id="-25957">
		<tag k="name" v="Huldrehaugmyra" />
		<tag k="natural" v="wetland" />
		<tag k="ssr:stedsnr" v="32778" />
	</node>
	<node lat="61.1506583363723" lon="6.281405548982639" id="-25967">
		<tag k="name" v="Nyløbøen" />
		<tag k="place" v="locality" />
		<tag k="ssr:stedsnr" v="45695" />
	</node>
	<node lat="61.151638889081084" lon="5.714024996349662" id="-26006">
		<tag k="name" v="Løkemyra" />
		<tag k="natural" v="wetland" />
		<tag k="ssr:stedsnr" v="91712" />
	</node>
	<node lat="61.06097736127996" lon="5.794158900579957" id="-26039">
		<tag k="name" v="Føsundurane" />
		<tag k="natural" v="scree" />
		<tag k="ssr:stedsnr" v="102981" />
	</node>
	<node lat="61.1276972238105" lon="6.331919442902857" id="-26041">
		<tag k="name" v="Tuftene" />
		<tag k="place" v="locality" />
		<tag k="ssr:stedsnr" v="106273" />
	</node>
	<node lat="61.16236666288464" lon="6.2212805553675805" id="-26048">
		<tag k="name" v="Kalvahagen" />
		<tag k="place" v="locality" />
		<tag k="ssr:stedsnr" v="106875" />
	</node>
	<node lat="61.0606638876695" lon="5.776594448627256" id="-26062">
		<tag k="historic" v="shieling" />
		<tag k="name" v="Føsundstølen" />
		<tag k="place" v="locality" />
		<tag k="ssr:stedsnr" v="251232" />
	</node>
	<node lat="61.16209443996628" lon="5.679805549855395" id="-26150">
		<tag k="alt_name" v="Skarstølen" />
		<tag k="historic" v="shieling" />
		<tag k="name" v="Skardsstølen" />
		<tag k="place" v="locality" />
		<tag k="ssr:stedsnr" v="130816" />
	</node>
	<node lat="61.11008055322735" lon="5.778647219300069" id="-26269">
		<tag k="name" v="Fenagarura" />
		<tag k="natural" v="scree" />
		<tag k="ssr:stedsnr" v="214625" />
	</node>
	<node lat="61.146238890163644" lon="6.279144444301933" id="-26277">
		<tag k="name" v="Galden" />
		<tag k="place" v="locality" />
		<tag k="ssr:stedsnr" v="227687" />
	</node>
	<node lat="61.148741670521645" lon="6.278958331757423" id="-26278">
		<tag k="name" v="Urane" />
		<tag k="natural" v="scree" />
		<tag k="ssr:stedsnr" v="227690" />
	</node>
	<node lat="61.087369443760664" lon="5.866563885207331" id="-26281">
		<tag k="name" v="Bergmyra" />
		<tag k="natural" v="wetland" />
		<tag k="ssr:stedsnr" v="455275" />
	</node>
	<node lat="61.109105555478216" lon="5.519536116553782" id="-26288">
		<tag k="name" v="Kastemyrane" />
		<tag k="natural" v="wetland" />
		<tag k="ssr:stedsnr" v="456232" />
	</node>
	<node lat="61.21180277351703" lon="5.795730552333301" id="-26304">
		<tag k="name" v="Storemyra" />
		<tag k="natural" v="wetland" />
		<tag k="ssr:stedsnr" v="456719" />
	</node>
	<node lat="61.17323333599176" lon="5.837244447887067" id="-26319">
		<tag k="name" v="Skarmyrane" />
		<tag k="natural" v="wetland" />
		<tag k="ssr:stedsnr" v="457789" />
	</node>
	<node lat="61.19783055768345" lon="5.94987778250133" id="-26339">
		<tag k="name" v="Haalandsura" />
		<tag k="natural" v="scree" />
		<tag k="ssr:stedsnr" v="274320" />
	</node>
	<node lat="61.13995555918402" lon="5.697727783096021" id="-26343">
		<tag k="name" v="Hovdeura" />
		<tag k="natural" v="scree" />
		<tag k="ssr:stedsnr" v="274503" />
	</node>
	<node lat="61.153461113131016" lon="5.677944448382277" id="-26353">
		<tag k="name" v="Bruhaugmyra" />
		<tag k="natural" v="wetland" />
		<tag k="ssr:stedsnr" v="274908" />
	</node>
	<node lat="61.16318332922813" lon="5.698388885429485" id="-26431">
		<tag k="name" v="Langemyra" />
		<tag k="natural" v="wetland" />
		<tag k="ssr:stedsnr" v="334661" />
	</node>
	<node lat="61.09229444014564" lon="6.0868444439648135" id="-26436">
		<tag k="name" v="Kleivsmyrane" />
		<tag k="natural" v="wetland" />
		<tag k="ssr:stedsnr" v="334948" />
	</node>
	<node lat="61.16272222641809" lon="5.563305562139425" id="-26442">
		<tag k="name" v="Kleivemyra" />
		<tag k="natural" v="wetland" />
		<tag k="ssr:stedsnr" v="335747" />
	</node>
	<node lat="61.168525001278795" lon="6.301747225029264" id="-26453">
		<tag k="name" v="Skåravoll" />
		<tag k="place" v="locality" />
		<tag k="ssr:stedsnr" v="348623" />
	</node>
	<node lat="61.01956389260083" lon="5.629949993020783" id="-26469">
		<tag k="name" v="Storemyra" />
		<tag k="natural" v="wetland" />
		<tag k="ssr:stedsnr" v="373015" />
	</node>
	<node lat="61.1529444433511" lon="5.705169449668836" id="-26509">
		<tag k="name" v="Bjørnemyra" />
		<tag k="natural" v="wetland" />
		<tag k="ssr:stedsnr" v="394704" />
	</node>
	<node lat="61.18182499748086" lon="6.204747215150585" id="-26545">
		<tag k="name" v="Steinteigen" />
		<tag k="place" v="locality" />
		<tag k="ssr:stedsnr" v="409818" />
	</node>
	<node lat="61.11481666763214" lon="6.357958337569943" id="-26546">
		<tag k="name" v="Saltråg" />
		<tag k="place" v="locality" />
		<tag k="ssr:stedsnr" v="410330" />
	</node>
	<node lat="61.20679166971527" lon="6.056972215026101" id="-26621">
		<tag k="alt_name" v="Stangura" />
		<tag k="name" v="Stangurda" />
		<tag k="natural" v="scree" />
		<tag k="ssr:stedsnr" v="494392" />
	</node>
	<node lat="61.17794444868193" lon="5.9137277728697155" id="-26625">
		<tag k="name" v="Djupemyrane" />
		<tag k="natural" v="wetland" />
		<tag k="ssr:stedsnr" v="494455" />
	</node>
	<node lat="61.160666667807085" lon="5.623338880083004" id="-26639">
		<tag k="name" v="Kyresteinane" />
		<tag k="natural" v="stone" />
		<tag k="ssr:stedsnr" v="456322" />
	</node>
	<node lat="61.158783331239675" lon="5.661797229221123" id="-26652">
		<tag k="name" v="Blåfjellura" />
		<tag k="natural" v="scree" />
		<tag k="ssr:stedsnr" v="457915" />
	</node>
	<node lat="61.16680833395193" lon="6.322544440982575" id="-26662">
		<tag k="name" v="Gråsteinmyri" />
		<tag k="natural" v="wetland" />
		<tag k="ssr:stedsnr" v="470380" />
	</node>
	<node lat="61.19338889291407" lon="6.230444436044187" id="-26669">
		<tag k="name" v="Storestein" />
		<tag k="natural" v="stone" />
		<tag k="ssr:stedsnr" v="470766" />
	</node>
	<node lat="61.1673055527398" lon="5.561288890197534" id="-26690">
		<tag k="name" v="Høgefjellsmyrane" />
		<tag k="natural" v="wetland" />
		<tag k="ssr:stedsnr" v="676856" />
	</node>
	<node lat="61.09216111548051" lon="6.08114167275219" id="-26781">
		<tag k="name" v="Kronglevollurda" />
		<tag k="natural" v="scree" />
		<tag k="ssr:stedsnr" v="516946" />
	</node>
	<node lat="61.15771110810717" lon="6.017888889170779" id="-26804">
		<tag k="name" v="Skumsøyri" />
		<tag k="place" v="locality" />
		<tag k="ssr:stedsnr" v="526528" />
	</node>
	<node lat="61.24903333162228" lon="5.877888898248744" id="-26899">
		<tag k="name" v="Kormyrane" />
		<tag k="natural" v="wetland" />
		<tag k="ssr:stedsnr" v="578924" />
	</node>
	<node lat="61.181513888877596" lon="6.324602770089309" id="-26909">
=======
<osm generator="osmapis" version="0.6">
	<node id="-667647" lat="61.1815138889" lon="6.32460277009">
>>>>>>> e1d4bc35ff8a6074a6f2e91616a996b547c36f15
		<tag k="name" v="Legeskog" />
		<tag k="place" v="locality" />
		<tag k="ssr:stedsnr" v="590606" />
	</node>
<<<<<<< HEAD
	<node lat="61.16430833061987" lon="6.138936104981671" id="-26911">
		<tag k="name" v="Storamyri" />
=======
	<node id="-667134" lat="61.1936111106" lon="5.85423054676">
		<tag k="name" v="Storemyra" />
>>>>>>> e1d4bc35ff8a6074a6f2e91616a996b547c36f15
		<tag k="natural" v="wetland" />
		<tag k="ssr:stedsnr" v="591162" />
	</node>
<<<<<<< HEAD
	<node lat="61.07152222121857" lon="5.776513888370198" id="-26921">
		<tag k="name" v="Myrane" />
=======
	<node id="-666621" lat="61.1479055529" lon="5.44241389633">
		<tag k="name" v="Storemyra" />
>>>>>>> e1d4bc35ff8a6074a6f2e91616a996b547c36f15
		<tag k="natural" v="wetland" />
		<tag k="ssr:stedsnr" v="698254" />
	</node>
<<<<<<< HEAD
	<node lat="61.105030551997906" lon="6.054913885807043" id="-26969">
		<tag k="name" v="Storemyra" />
=======
	<node id="-668156" lat="61.13896667" lon="5.52297499247">
		<tag k="alt_name" v="Dolemyra" />
		<tag k="name" v="Dålemyra" />
>>>>>>> e1d4bc35ff8a6074a6f2e91616a996b547c36f15
		<tag k="natural" v="wetland" />
		<tag k="ssr:stedsnr" v="699799" />
	</node>
<<<<<<< HEAD
	<node lat="61.170869444462774" lon="5.829791670108377" id="-26977">
		<tag k="name" v="Skarmyra" />
=======
	<node id="-668155" lat="61.1496805548" lon="5.70292221772">
		<tag k="fixme" v="multiple name tags, choose one and add the other to alt_name" />
		<tag k="name" v="Lindemyra;Merkesmyra" />
>>>>>>> e1d4bc35ff8a6074a6f2e91616a996b547c36f15
		<tag k="natural" v="wetland" />
		<tag k="ssr:stedsnr" v="700792" />
	</node>
<<<<<<< HEAD
	<node lat="61.069724998994445" lon="5.81211666824149" id="-27032">
		<tag k="name" v="Tobbemyra" />
		<tag k="natural" v="wetland" />
		<tag k="ssr:stedsnr" v="637013" />
	</node>
	<node lat="61.09355277917463" lon="5.475849999076991" id="-27063">
		<tag k="name" v="Øyrane" />
		<tag k="place" v="locality" />
		<tag k="ssr:stedsnr" v="638529" />
	</node>
	<node lat="61.173627773770775" lon="6.12787500448856" id="-27123">
		<tag k="name" v="Vassmyri" />
=======
	<node id="-665513" lat="61.1779444487" lon="5.91372777287">
		<tag k="name" v="Djupemyrane" />
		<tag k="natural" v="wetland" />
		<tag k="ssr:stedsnr" v="494455" />
	</node>
	<node id="-667123" lat="61.1100805532" lon="5.7786472193">
		<tag k="name" v="Fenagarura" />
		<tag k="natural" v="scree" />
		<tag k="ssr:stedsnr" v="214625" />
	</node>
	<node id="-666602" lat="61.0667305572" lon="5.81542222953">
		<tag k="name" v="Storurda" />
		<tag k="natural" v="scree" />
		<tag k="ssr:stedsnr" v="31389" />
	</node>
	<node id="-666108" lat="61.0715222212" lon="5.77651388837">
		<tag k="name" v="Myrane" />
		<tag k="natural" v="wetland" />
		<tag k="ssr:stedsnr" v="698254" />
	</node>
	<node id="-665253" lat="61.0873694438" lon="5.86656388521">
		<tag k="name" v="Bergmyra" />
		<tag k="natural" v="wetland" />
		<tag k="ssr:stedsnr" v="455275" />
	</node>
	<node id="-666588" lat="61.0864138855" lon="6.08373055417">
		<tag k="name" v="Austedalsmyrane" />
>>>>>>> e1d4bc35ff8a6074a6f2e91616a996b547c36f15
		<tag k="natural" v="wetland" />
		<tag k="ssr:stedsnr" v="677436" />
	</node>
<<<<<<< HEAD
	<node lat="61.15609444538306" lon="6.235755558301249" id="-27185">
		<tag k="name" v="Hesjevollen" />
		<tag k="place" v="locality" />
		<tag k="ssr:stedsnr" v="713706" />
	</node>
	<node lat="61.165494440661114" lon="6.225330559117964" id="-27187">
		<tag k="name" v="Teigen" />
=======
	<node id="-665563" lat="61.0850750041" lon="5.72477500476">
		<tag k="historic" v="shieling" />
		<tag k="name" v="Sørevikstølen" />
		<tag k="place" v="locality" />
		<tag k="ssr:stedsnr" v="373223" />
	</node>
	<node id="-666070" lat="61.1673055527" lon="5.5612888902">
		<tag k="name" v="Høgefjellsmyrane" />
		<tag k="natural" v="wetland" />
		<tag k="ssr:stedsnr" v="676856" />
	</node>
	<node id="-666577" lat="61.1677448038" lon="5.72716279919">
		<tag k="name" v="Vollen" />
>>>>>>> e1d4bc35ff8a6074a6f2e91616a996b547c36f15
		<tag k="place" v="locality" />
		<tag k="ssr:stedsnr" v="713881" />
	</node>
<<<<<<< HEAD
	<node lat="61.16781111421701" lon="6.186622230265532" id="-27256">
		<tag k="name" v="Nesuran" />
		<tag k="natural" v="scree" />
		<tag k="ssr:stedsnr" v="768748" />
	</node>
	<node lat="61.078061108571255" lon="5.863419436353463" id="-27272">
		<tag k="alt_name" v="Gamlestølmyrane" />
		<tag k="name" v="Gamlestølsmyrane" />
=======
	<node id="-667087" lat="61.0601277804" lon="5.69770833722">
		<tag k="name" v="Ulvshaugmyrane" />
		<tag k="natural" v="wetland" />
		<tag k="ssr:stedsnr" v="213097" />
	</node>
	<node id="-668108" lat="61.1067583332" lon="6.10233333353">
		<tag k="name" v="Hjellemyrane" />
>>>>>>> e1d4bc35ff8a6074a6f2e91616a996b547c36f15
		<tag k="natural" v="wetland" />
		<tag k="ssr:stedsnr" v="798250" />
	</node>
<<<<<<< HEAD
	<node lat="61.181230559569606" lon="6.159858332142992" id="-27287">
		<tag k="name" v="Skukken" />
		<tag k="natural" v="stone" />
		<tag k="ssr:stedsnr" v="798312" />
	</node>
	<node lat="61.0988722206838" lon="6.1289833308999055" id="-27338">
		<tag k="name" v="Kalvehagen" />
=======
	<node id="-668106" lat="61.244344449" lon="6.14375833686">
		<tag k="name" v="Tytlyngura" />
		<tag k="natural" v="scree" />
		<tag k="ssr:stedsnr" v="821784" />
	</node>
	<node id="-668105" lat="61.0686055568" lon="5.60314445001">
		<tag k="name" v="Øyrane" />
>>>>>>> e1d4bc35ff8a6074a6f2e91616a996b547c36f15
		<tag k="place" v="locality" />
		<tag k="ssr:stedsnr" v="819906" />
	</node>
<<<<<<< HEAD
	<node lat="61.244344448999016" lon="6.143758336863324" id="-27374">
		<tag k="name" v="Tytlyngura" />
		<tag k="natural" v="scree" />
		<tag k="ssr:stedsnr" v="821784" />
	</node>
	<node lat="61.160138885568976" lon="5.701249997491738" id="-27431">
		<tag k="name" v="Myrane" />
		<tag k="natural" v="wetland" />
		<tag k="ssr:stedsnr" v="859826" />
	</node>
	<node lat="61.105338892779464" lon="5.864580557809898" id="-27432">
		<tag k="name" v="Storurda" />
		<tag k="natural" v="scree" />
		<tag k="ssr:stedsnr" v="880510" />
	</node>
	<node lat="61.061147222641374" lon="5.792902772007849" id="-27440">
=======
	<node id="-668096" lat="61.0123305557" lon="5.78643333611">
		<tag k="name" v="Geitura" />
		<tag k="natural" v="scree" />
		<tag k="ssr:stedsnr" v="821602" />
	</node>
	<node id="-665022" lat="61.0606638877" lon="5.77659444863">
		<tag k="historic" v="shieling" />
		<tag k="name" v="Føsundstølen" />
		<tag k="place" v="locality" />
		<tag k="ssr:stedsnr" v="251232" />
	</node>
	<node id="-667466" lat="61.1345111125" lon="5.51804443598">
		<tag k="name" v="Leitemyrane" />
		<tag k="natural" v="wetland" />
		<tag k="ssr:stedsnr" v="434160" />
	</node>
	<node id="-666548" lat="61.2080611095" lon="6.11676667315">
		<tag k="name" v="Myrane" />
		<tag k="natural" v="wetland" />
		<tag k="ssr:stedsnr" v="9403" />
	</node>
	<node id="-667805" lat="61.1684527802" lon="5.83995554641">
		<tag k="name" v="Viermyra" />
		<tag k="natural" v="wetland" />
		<tag k="ssr:stedsnr" v="639798" />
	</node>
	<node id="-666025" lat="61.1291722249" lon="5.49720556167">
		<tag k="name" v="Skinhaugmyra" />
		<tag k="natural" v="wetland" />
		<tag k="ssr:stedsnr" v="881604" />
	</node>
	<node id="-666023" lat="61.2372166669" lon="6.07413055178">
		<tag k="name" v="Bleikemyrane" />
		<tag k="natural" v="wetland" />
		<tag k="ssr:stedsnr" v="881577" />
	</node>
	<node id="-666534" lat="61.1000583315" lon="5.77978889129">
		<tag k="historic" v="shieling" />
		<tag k="name" v="Åkrestølen" />
		<tag k="place" v="locality" />
		<tag k="ssr:stedsnr" v="9197" />
	</node>
	<node id="-666021" lat="61.1203916651" lon="5.49686110521">
		<tag k="name" v="Langemyra" />
		<tag k="natural" v="wetland" />
		<tag k="ssr:stedsnr" v="881524" />
	</node>
	<node id="-666018" lat="61.0611472226" lon="5.79290277201">
>>>>>>> e1d4bc35ff8a6074a6f2e91616a996b547c36f15
		<tag k="name" v="Storura" />
		<tag k="natural" v="scree" />
		<tag k="ssr:stedsnr" v="881308" />
	</node>
<<<<<<< HEAD
	<node lat="61.07007499638051" lon="5.682372228617228" id="-27444">
=======
	<node id="-665504" lat="61.2067916697" lon="6.05697221503">
		<tag k="alt_name" v="Stangura" />
		<tag k="name" v="Stangurda" />
		<tag k="natural" v="scree" />
		<tag k="ssr:stedsnr" v="494392" />
	</node>
	<node id="-666864" lat="61.1623666629" lon="6.22128055537">
		<tag k="name" v="Kalvahagen" />
		<tag k="place" v="locality" />
		<tag k="ssr:stedsnr" v="106875" />
	</node>
	<node id="-666013" lat="61.0700749964" lon="5.68237222862">
>>>>>>> e1d4bc35ff8a6074a6f2e91616a996b547c36f15
		<tag k="name" v="Storemyra" />
		<tag k="natural" v="wetland" />
		<tag k="ssr:stedsnr" v="881266" />
	</node>
<<<<<<< HEAD
	<node lat="61.12917222485636" lon="5.497205561668415" id="-27446">
		<tag k="name" v="Skinhaugmyra" />
		<tag k="natural" v="wetland" />
		<tag k="ssr:stedsnr" v="881604" />
	</node>
	<node lat="61.08641388553349" lon="6.083730554172638" id="-27582">
		<tag k="name" v="Austedalsmyrane" />
		<tag k="natural" v="wetland" />
		<tag k="ssr:stedsnr" v="30941" />
	</node>
	<node lat="61.06673055715388" lon="5.815422229531277" id="-27593">
		<tag k="name" v="Storurda" />
		<tag k="natural" v="scree" />
		<tag k="ssr:stedsnr" v="31389" />
	</node>
	<node lat="61.147905552924186" lon="5.44241389632818" id="-27608">
=======
	<node id="-668053" lat="61.16836389" lon="5.70811666414">
		<tag k="name" v="Bergelmyra" />
		<tag k="natural" v="wetland" />
		<tag k="ssr:stedsnr" v="819749" />
	</node>
	<node id="-666001" lat="61.0999888929" lon="6.10670278029">
		<tag k="name" v="Hatleskogen" />
		<tag k="place" v="locality" />
		<tag k="ssr:stedsnr" v="880944" />
	</node>
	<node id="-664970" lat="61.1487416705" lon="6.27895833176">
		<tag k="name" v="Urane" />
		<tag k="natural" v="scree" />
		<tag k="ssr:stedsnr" v="227690" />
	</node>
	<node id="-664969" lat="61.1462388902" lon="6.2791444443">
		<tag k="name" v="Galden" />
		<tag k="place" v="locality" />
		<tag k="ssr:stedsnr" v="227687" />
	</node>
	<node id="-665985" lat="61.1952694451" lon="6.0266222193">
>>>>>>> e1d4bc35ff8a6074a6f2e91616a996b547c36f15
		<tag k="name" v="Storemyra" />
		<tag k="natural" v="wetland" />
		<tag k="ssr:stedsnr" v="31755" />
	</node>
<<<<<<< HEAD
	<node lat="61.093305555582695" lon="5.8916777853895805" id="-27724">
		<tag k="name" v="Bergmyra" />
		<tag k="natural" v="wetland" />
		<tag k="ssr:stedsnr" v="91298" />
	</node>
	<node lat="61.17526111317318" lon="5.505202777793067" id="-27825">
		<tag k="name" v="Breimyra" />
		<tag k="natural" v="wetland" />
		<tag k="ssr:stedsnr" v="153183" />
	</node>
	<node lat="61.17111666474917" lon="5.737224998642998" id="-27840">
		<tag k="name" v="Skredbergmyra" />
		<tag k="natural" v="wetland" />
		<tag k="ssr:stedsnr" v="152775" />
	</node>
	<node lat="61.040944444742365" lon="5.8063388808987755" id="-27844">
		<tag k="name" v="Degemyra" />
		<tag k="natural" v="wetland" />
		<tag k="ssr:stedsnr" v="152899" />
	</node>
	<node lat="61.14987221967511" lon="5.612938894039849" id="-27861">
		<tag k="name" v="Urane" />
		<tag k="natural" v="scree" />
		<tag k="ssr:stedsnr" v="153345" />
	</node>
	<node lat="61.2494861082242" lon="5.888541671411017" id="-27873">
=======
	<node id="-664956" lat="61.0966916643" lon="5.72910555529">
		<tag k="name" v="Brennsæter" />
		<tag k="place" v="locality" />
		<tag k="ssr:stedsnr" v="223797" />
	</node>
	<node id="-667001" lat="61.2494861082" lon="5.88854167141">
>>>>>>> e1d4bc35ff8a6074a6f2e91616a996b547c36f15
		<tag k="name" v="Oksemyra" />
		<tag k="natural" v="wetland" />
		<tag k="ssr:stedsnr" v="153947" />
	</node>
<<<<<<< HEAD
	<node lat="61.18976944463214" lon="6.224213884132312" id="-27878">
		<tag k="name" v="Raudskredsteinen" />
=======
	<node id="-668022" lat="61.1812305596" lon="6.15985833214">
		<tag k="name" v="Skukken" />
>>>>>>> e1d4bc35ff8a6074a6f2e91616a996b547c36f15
		<tag k="natural" v="stone" />
		<tag k="ssr:stedsnr" v="167170" />
	</node>
<<<<<<< HEAD
	<node lat="61.06012778042396" lon="5.697708337215562" id="-27945">
		<tag k="name" v="Ulvshaugmyrane" />
=======
	<node id="-665972" lat="61.1760194473" lon="6.09123055764">
		<tag k="name" v="Nyestølmyrane" />
>>>>>>> e1d4bc35ff8a6074a6f2e91616a996b547c36f15
		<tag k="natural" v="wetland" />
		<tag k="ssr:stedsnr" v="213097" />
	</node>
<<<<<<< HEAD
	<node lat="61.082425004053896" lon="6.084544446540868" id="-27946">
		<tag k="name" v="Austedalsurdane" />
		<tag k="natural" v="scree" />
		<tag k="ssr:stedsnr" v="213943" />
	</node>
	<node lat="61.102399998570405" lon="5.814544452200714" id="-27952">
		<tag k="name" v="Furenesmyrane" />
		<tag k="natural" v="wetland" />
		<tag k="ssr:stedsnr" v="213316" />
	</node>
	<node lat="61.193611110636844" lon="5.85423054675593" id="-27995">
		<tag k="name" v="Storemyra" />
=======
	<node id="-667503" lat="61.1577111081" lon="6.01788888917">
		<tag k="name" v="Skumsøyri" />
		<tag k="place" v="locality" />
		<tag k="ssr:stedsnr" v="526528" />
	</node>
	<node id="-665965" lat="61.067155557" lon="5.68564444015">
		<tag k="name" v="Fureskogen" />
		<tag k="place" v="locality" />
		<tag k="ssr:stedsnr" v="637316" />
	</node>
	<node id="-665962" lat="61.069724999" lon="5.81211666824">
		<tag k="name" v="Tobbemyra" />
>>>>>>> e1d4bc35ff8a6074a6f2e91616a996b547c36f15
		<tag k="natural" v="wetland" />
		<tag k="ssr:stedsnr" v="214949" />
	</node>
<<<<<<< HEAD
	<node lat="61.15964444147546" lon="6.161808326973876" id="-27998">
=======
	<node id="-664936" lat="61.1596444415" lon="6.16180832697">
>>>>>>> e1d4bc35ff8a6074a6f2e91616a996b547c36f15
		<tag k="name" v="Hegguri" />
		<tag k="natural" v="scree" />
		<tag k="ssr:stedsnr" v="219162" />
	</node>
<<<<<<< HEAD
	<node lat="61.15367778007067" lon="6.062163889955679" id="-28034">
		<tag k="name" v="Orremyra" />
		<tag k="natural" v="wetland" />
		<tag k="ssr:stedsnr" v="273862" />
	</node>
	<node lat="61.08408611422522" lon="5.6223638822915625" id="-28045">
		<tag k="name" v="Ramsegrø" />
		<tag k="natural" v="scree" />
		<tag k="ssr:stedsnr" v="274329" />
	</node>
	<node lat="61.09958055466171" lon="5.469286104015071" id="-28054">
		<tag k="name" v="Indredalsgjeret" />
		<tag k="natural" v="wetland" />
		<tag k="ssr:stedsnr" v="274534" />
	</node>
	<node lat="61.14245000361319" lon="5.637883325783265" id="-28061">
		<tag k="name" v="Rotemyra" />
		<tag k="natural" v="wetland" />
		<tag k="ssr:stedsnr" v="274861" />
	</node>
	<node lat="61.16840555813108" lon="6.322911105202981" id="-28081">
		<tag k="name" v="Urateigen" />
=======
	<node id="-667964" lat="61.1687277811" lon="6.33599444218">
		<tag k="name" v="Kvistenskog" />
		<tag k="place" v="locality" />
		<tag k="ssr:stedsnr" v="773633" />
	</node>
	<node id="-665438" lat="61.1685250013" lon="6.30174722503">
		<tag k="name" v="Skåravoll" />
		<tag k="place" v="locality" />
		<tag k="ssr:stedsnr" v="348623" />
	</node>
	<node id="-667996" lat="61.0780611086" lon="5.86341943635">
		<tag k="alt_name" v="Gamlestølmyrane" />
		<tag k="name" v="Gamlestølsmyrane" />
		<tag k="natural" v="wetland" />
		<tag k="ssr:stedsnr" v="798250" />
	</node>
	<node id="-666852" lat="61.1276972238" lon="6.3319194429">
		<tag k="name" v="Tuftene" />
		<tag k="place" v="locality" />
		<tag k="ssr:stedsnr" v="106273" />
	</node>
	<node id="-665422" lat="61.1512861147" lon="5.62268611243">
		<tag k="name" v="Øyra" />
>>>>>>> e1d4bc35ff8a6074a6f2e91616a996b547c36f15
		<tag k="place" v="locality" />
		<tag k="ssr:stedsnr" v="288618" />
	</node>
<<<<<<< HEAD
	<node lat="61.169102777875864" lon="6.209555549122769" id="-28086">
		<tag k="name" v="Persteinuri" />
=======
	<node id="-666443" lat="61.1053388928" lon="5.86458055781">
		<tag k="name" v="Storurda" />
>>>>>>> e1d4bc35ff8a6074a6f2e91616a996b547c36f15
		<tag k="natural" v="scree" />
		<tag k="ssr:stedsnr" v="288834" />
	</node>
<<<<<<< HEAD
	<node lat="61.06917222082461" lon="5.780461118719776" id="-28129">
		<tag k="name" v="Orremyra" />
		<tag k="natural" v="wetland" />
		<tag k="ssr:stedsnr" v="334324" />
	</node>
	<node lat="61.151286114684986" lon="5.622686112431072" id="-28152">
		<tag k="name" v="Øyra" />
		<tag k="place" v="locality" />
		<tag k="ssr:stedsnr" v="335320" />
	</node>
	<node lat="61.2320694426439" lon="6.067077777799123" id="-28163">
		<tag k="name" v="Gråura" />
=======
	<node id="-665930" lat="61.1654944407" lon="6.22533055912">
		<tag k="name" v="Teigen" />
		<tag k="place" v="locality" />
		<tag k="ssr:stedsnr" v="713881" />
	</node>
	<node id="-665925" lat="61.1373888925" lon="6.30020556102">
		<tag k="name" v="Langetjuvuri" />
>>>>>>> e1d4bc35ff8a6074a6f2e91616a996b547c36f15
		<tag k="natural" v="scree" />
		<tag k="ssr:stedsnr" v="335901" />
	</node>
<<<<<<< HEAD
	<node lat="61.130661111084834" lon="5.471422226830599" id="-28280">
		<tag k="name" v="Høgemyra" />
		<tag k="natural" v="wetland" />
		<tag k="ssr:stedsnr" v="395347" />
	</node>
	<node lat="61.13241388871344" lon="5.482783339550064" id="-28285">
		<tag k="name" v="Langemyra" />
=======
	<node id="-666947" lat="61.0409444447" lon="5.8063388809">
		<tag k="name" v="Degemyra" />
		<tag k="natural" v="wetland" />
		<tag k="ssr:stedsnr" v="152899" />
	</node>
	<node id="-667970" lat="61.1989583311" lon="6.25249722465">
		<tag k="name" v="Stølsmarki" />
		<tag k="place" v="locality" />
		<tag k="ssr:stedsnr" v="774772" />
	</node>
	<node id="-665408" lat="61.0691722208" lon="5.78046111872">
		<tag k="name" v="Orremyra" />
>>>>>>> e1d4bc35ff8a6074a6f2e91616a996b547c36f15
		<tag k="natural" v="wetland" />
		<tag k="ssr:stedsnr" v="395498" />
	</node>
<<<<<<< HEAD
	<node lat="61.16422778222551" lon="5.545447223466977" id="-28286">
		<tag k="name" v="Vellene" />
		<tag k="natural" v="wetland" />
		<tag k="ssr:stedsnr" v="395520" />
	</node>
	<node lat="61.177352773488025" lon="5.952211105298143" id="-28302">
		<tag k="name" v="Vårstølmyrane" />
=======
	<node id="-666940" lat="61.1711166647" lon="5.73722499864">
		<tag k="name" v="Skredbergmyra" />
>>>>>>> e1d4bc35ff8a6074a6f2e91616a996b547c36f15
		<tag k="natural" v="wetland" />
		<tag k="ssr:stedsnr" v="396449" />
	</node>
<<<<<<< HEAD
	<node lat="61.19563055370052" lon="5.865747231688145" id="-28308">
		<tag k="name" v="Fivelsmyrane" />
		<tag k="natural" v="wetland" />
		<tag k="ssr:stedsnr" v="396919" />
	</node>
	<node lat="61.19289999759704" lon="5.823052769180241" id="-28310">
		<tag k="name" v="Hovdeurane" />
=======
	<node id="-665913" lat="61.2490333316" lon="5.87788889825">
		<tag k="name" v="Kormyrane" />
		<tag k="natural" v="wetland" />
		<tag k="ssr:stedsnr" v="578924" />
	</node>
	<node id="-667954" lat="61.0716638853" lon="5.80105555383">
		<tag k="name" v="Oslandsøyra" />
		<tag k="place" v="locality" />
		<tag k="ssr:stedsnr" v="769976" />
	</node>
	<node id="-667950" lat="61.1678111142" lon="6.18662223027">
		<tag k="name" v="Nesuran" />
>>>>>>> e1d4bc35ff8a6074a6f2e91616a996b547c36f15
		<tag k="natural" v="scree" />
		<tag k="ssr:stedsnr" v="405052" />
	</node>
<<<<<<< HEAD
	<node lat="61.134511112499375" lon="5.518044435980262" id="-28355">
		<tag k="name" v="Leitemyrane" />
		<tag k="natural" v="wetland" />
		<tag k="ssr:stedsnr" v="434160" />
	</node>
	<node lat="61.19472777375163" lon="5.904525004123193" id="-28407">
		<tag k="name" v="Moldura" />
		<tag k="natural" v="scree" />
		<tag k="ssr:stedsnr" v="518985" />
	</node>
	<node lat="61.173630558822126" lon="5.545333337104009" id="-28419">
		<tag k="name" v="Breimyra" />
		<tag k="natural" v="wetland" />
		<tag k="ssr:stedsnr" v="517675" />
	</node>
	<node lat="61.185641669968376" lon="6.209097227177155" id="-28448">
		<tag k="name" v="Tuftene" />
=======
	<node id="-665385" lat="61.1933888929" lon="6.23044443604">
		<tag k="name" v="Storestein" />
		<tag k="natural" v="stone" />
		<tag k="ssr:stedsnr" v="470766" />
	</node>
	<node id="-667423" lat="61.1148166676" lon="6.35795833757">
		<tag k="name" v="Saltråg" />
		<tag k="place" v="locality" />
		<tag k="ssr:stedsnr" v="410330" />
	</node>
	<node id="-667421" lat="61.1818249975" lon="6.20474721515">
		<tag k="name" v="Steinteigen" />
>>>>>>> e1d4bc35ff8a6074a6f2e91616a996b547c36f15
		<tag k="place" v="locality" />
		<tag k="ssr:stedsnr" v="531838" />
	</node>
<<<<<<< HEAD
	<node lat="61.17585277603845" lon="6.033569441205061" id="-28481">
=======
	<node id="-665878" lat="61.175852776" lon="6.03356944121">
>>>>>>> e1d4bc35ff8a6074a6f2e91616a996b547c36f15
		<tag k="name" v="Turrsteinen" />
		<tag k="natural" v="stone" />
		<tag k="ssr:stedsnr" v="555437" />
	</node>
<<<<<<< HEAD
	<node lat="61.17613888458707" lon="5.918219443050378" id="-28614">
		<tag k="name" v="Vårstølmyra" />
=======
	<node id="-666385" lat="61.1057416652" lon="6.10307500143">
		<tag k="name" v="Storemyra" />
		<tag k="natural" v="wetland" />
		<tag k="ssr:stedsnr" v="942785" />
	</node>
	<node id="-666384" lat="61.1506916638" lon="5.43502500505">
		<tag k="name" v="Brendenesmyra" />
>>>>>>> e1d4bc35ff8a6074a6f2e91616a996b547c36f15
		<tag k="natural" v="wetland" />
		<tag k="ssr:stedsnr" v="639959" />
	</node>
<<<<<<< HEAD
	<node lat="61.0671555569688" lon="5.685644440148319" id="-28624">
		<tag k="name" v="Fureskogen" />
		<tag k="place" v="locality" />
		<tag k="ssr:stedsnr" v="637316" />
	</node>
	<node lat="61.17601944730449" lon="6.091230557643487" id="-28636">
		<tag k="name" v="Nyestølmyrane" />
		<tag k="natural" v="wetland" />
		<tag k="ssr:stedsnr" v="637841" />
	</node>
	<node lat="61.23431944326019" lon="6.078033330671202" id="-28656">
		<tag k="name" v="Røyrmyrane" />
=======
	<node id="-667405" lat="61.1956305537" lon="5.86574723169">
		<tag k="name" v="Fivelsmyrane" />
		<tag k="natural" v="wetland" />
		<tag k="ssr:stedsnr" v="396919" />
	</node>
	<node id="-667521" lat="61.18564167" lon="6.20909722718">
		<tag k="name" v="Tuftene" />
		<tag k="place" v="locality" />
		<tag k="ssr:stedsnr" v="531838" />
	</node>
	<node id="-667907" lat="61.1681444425" lon="5.53927222383">
		<tag k="name" v="Løkemyra" />
		<tag k="natural" v="wetland" />
		<tag k="ssr:stedsnr" v="759684" />
	</node>
	<node id="-665344" lat="61.1424500036" lon="5.63788332578">
		<tag k="name" v="Rotemyra" />
>>>>>>> e1d4bc35ff8a6074a6f2e91616a996b547c36f15
		<tag k="natural" v="wetland" />
		<tag k="ssr:stedsnr" v="638558" />
	</node>
<<<<<<< HEAD
	<node lat="61.195269445136255" lon="6.026622219304833" id="-28664">
		<tag k="name" v="Storemyra" />
=======
	<node id="-665342" lat="61.1534611131" lon="5.67794444838">
		<tag k="name" v="Bruhaugmyra" />
>>>>>>> e1d4bc35ff8a6074a6f2e91616a996b547c36f15
		<tag k="natural" v="wetland" />
		<tag k="ssr:stedsnr" v="638744" />
	</node>
<<<<<<< HEAD
	<node lat="61.16119722078616" lon="5.665555547382018" id="-28665">
		<tag k="name" v="Blåfjellsøyrane" />
=======
	<node id="-666361" lat="61.158758336" lon="5.6053666621">
		<tag k="name" v="Seltufta" />
>>>>>>> e1d4bc35ff8a6074a6f2e91616a996b547c36f15
		<tag k="place" v="locality" />
		<tag k="ssr:stedsnr" v="638918" />
	</node>
<<<<<<< HEAD
	<node lat="61.1684527802315" lon="5.83995554641486" id="-28676">
		<tag k="name" v="Viermyra" />
		<tag k="natural" v="wetland" />
		<tag k="ssr:stedsnr" v="639798" />
	</node>
	<node lat="61.07928333081662" lon="5.807019450829534" id="-28681">
		<tag k="name" v="Oslandsura" />
=======
	<node id="-666360" lat="61.1286944442" lon="5.56624722624">
		<tag k="name" v="Blåura" />
>>>>>>> e1d4bc35ff8a6074a6f2e91616a996b547c36f15
		<tag k="natural" v="scree" />
		<tag k="ssr:stedsnr" v="647972" />
	</node>
<<<<<<< HEAD
	<node lat="61.13621666833464" lon="6.3258499909308075" id="-28695">
		<tag k="name" v="Skredhaugmyri" />
		<tag k="natural" v="wetland" />
		<tag k="ssr:stedsnr" v="712233" />
	</node>
	<node lat="61.137388892450595" lon="6.300205561023665" id="-28699">
		<tag k="name" v="Langetjuvuri" />
=======
	<node id="-665330" lat="61.1399555592" lon="5.6977277831">
		<tag k="name" v="Hovdeura" />
>>>>>>> e1d4bc35ff8a6074a6f2e91616a996b547c36f15
		<tag k="natural" v="scree" />
		<tag k="ssr:stedsnr" v="713252" />
	</node>
<<<<<<< HEAD
	<node lat="61.16814444248138" lon="5.539272223827973" id="-28747">
		<tag k="name" v="Løkemyra" />
=======
	<node id="-666352" lat="61.1227444426" lon="5.55166389774">
		<tag k="name" v="Stølsmyra" />
>>>>>>> e1d4bc35ff8a6074a6f2e91616a996b547c36f15
		<tag k="natural" v="wetland" />
		<tag k="ssr:stedsnr" v="759684" />
	</node>
<<<<<<< HEAD
	<node lat="60.995527775649094" lon="5.852791671032884" id="-28754">
		<tag k="name" v="Kyrkjelimyrane" />
		<tag k="natural" v="wetland" />
		<tag k="ssr:stedsnr" v="759863" />
	</node>
	<node lat="61.17011110985591" lon="5.494549992857707" id="-28760">
		<tag k="name" v="Storemyra" />
=======
	<node id="-665323" lat="61.1536777801" lon="6.06216388996">
		<tag k="name" v="Orremyra" />
>>>>>>> e1d4bc35ff8a6074a6f2e91616a996b547c36f15
		<tag k="natural" v="wetland" />
		<tag k="ssr:stedsnr" v="273862" />
	</node>
<<<<<<< HEAD
	<node lat="61.176347225651355" lon="5.945869442283281" id="-28766">
		<tag k="name" v="Langemyra" />
=======
	<node id="-665834" lat="61.105030552" lon="6.05491388581">
		<tag k="name" v="Storemyra" />
>>>>>>> e1d4bc35ff8a6074a6f2e91616a996b547c36f15
		<tag k="natural" v="wetland" />
		<tag k="ssr:stedsnr" v="760441" />
	</node>
<<<<<<< HEAD
	<node lat="61.24676111053308" lon="5.914819450789231" id="-28779">
		<tag k="name" v="Rauemyra" />
		<tag k="natural" v="wetland" />
		<tag k="ssr:stedsnr" v="760924" />
	</node>
	<node lat="61.071663885287194" lon="5.8010555538311666" id="-28783">
		<tag k="name" v="Oslandsøyra" />
		<tag k="place" v="locality" />
		<tag k="ssr:stedsnr" v="769976" />
	</node>
	<node lat="61.16872778113319" lon="6.335994442183595" id="-28788">
		<tag k="name" v="Kvistenskog" />
		<tag k="place" v="locality" />
		<tag k="ssr:stedsnr" v="773633" />
	</node>
	<node lat="61.19895833109231" lon="6.25249722465471" id="-28800">
		<tag k="name" v="Stølsmarki" />
		<tag k="place" v="locality" />
		<tag k="ssr:stedsnr" v="774772" />
	</node>
	<node lat="61.16836388995013" lon="5.708116664143647" id="-28866">
		<tag k="name" v="Bergelmyra" />
=======
	<node id="-667364" lat="61.1642277822" lon="5.54544722347">
		<tag k="name" v="Vellene" />
		<tag k="natural" v="wetland" />
		<tag k="ssr:stedsnr" v="395520" />
	</node>
	<node id="-667363" lat="61.1324138887" lon="5.48278333955">
		<tag k="name" v="Langemyra" />
>>>>>>> e1d4bc35ff8a6074a6f2e91616a996b547c36f15
		<tag k="natural" v="wetland" />
		<tag k="ssr:stedsnr" v="819749" />
	</node>
<<<<<<< HEAD
	<node lat="61.14202777847154" lon="5.551299991940202" id="-28876">
		<tag k="name" v="Skåremyrane" />
		<tag k="natural" v="wetland" />
		<tag k="ssr:stedsnr" v="820313" />
	</node>
	<node lat="61.012330555714435" lon="5.786433336109695" id="-28901">
		<tag k="name" v="Geitura" />
=======
	<node id="-666850" lat="61.0609773613" lon="5.79415890058">
		<tag k="name" v="Føsundurane" />
		<tag k="natural" v="scree" />
		<tag k="ssr:stedsnr" v="102981" />
	</node>
	<node id="-665307" lat="61.1587833312" lon="5.66179722922">
		<tag k="name" v="Blåfjellura" />
>>>>>>> e1d4bc35ff8a6074a6f2e91616a996b547c36f15
		<tag k="natural" v="scree" />
		<tag k="ssr:stedsnr" v="821602" />
	</node>
<<<<<<< HEAD
	<node lat="61.06860555683208" lon="5.6031444500126115" id="-28909">
		<tag k="name" v="Øyrane" />
		<tag k="place" v="locality" />
		<tag k="ssr:stedsnr" v="821648" />
	</node>
	<node lat="61.10675833320913" lon="6.102333333525966" id="-28914">
		<tag k="name" v="Hjellemyrane" />
=======
	<node id="-667354" lat="61.1306611111" lon="5.47142222683">
		<tag k="name" v="Høgemyra" />
>>>>>>> e1d4bc35ff8a6074a6f2e91616a996b547c36f15
		<tag k="natural" v="wetland" />
		<tag k="ssr:stedsnr" v="821797" />
	</node>
	<node lat="61.14968055480015" lon="5.702922217718195" id="-28959">
		<tag k="fixme" v="multiple name tags, choose one and add the other to alt_name" />
		<tag k="name" v="Merkesmyra;Lindemyra" />
		<tag k="natural" v="wetland" />
		<tag k="ssr:stedsnr" v="859146" />
	</node>
	<node lat="61.1389666700009" lon="5.522974992468472" id="-28960">
		<tag k="alt_name" v="Dolemyra" />
		<tag k="name" v="Dålemyra" />
		<tag k="natural" v="wetland" />
		<tag k="ssr:stedsnr" v="859149" />
	</node>
	<node lat="61.13712222190997" lon="6.3642611185706865" id="-28986">
		<tag k="name" v="Storamyri" />
		<tag k="natural" v="wetland" />
		<tag k="ssr:stedsnr" v="859643" />
	</node>
	<node lat="61.09998889287783" lon="6.10670278029467" id="-29004">
		<tag k="name" v="Hatleskogen" />
		<tag k="place" v="locality" />
		<tag k="ssr:stedsnr" v="880944" />
	</node>
<<<<<<< HEAD
	<node lat="61.120391665086316" lon="5.496861105209386" id="-29015">
		<tag k="name" v="Langemyra" />
		<tag k="natural" v="wetland" />
		<tag k="ssr:stedsnr" v="881524" />
	</node>
	<node lat="61.23721666688197" lon="6.074130551782677" id="-29017">
		<tag k="name" v="Bleikemyrane" />
		<tag k="natural" v="wetland" />
		<tag k="ssr:stedsnr" v="881577" />
	</node>
	<node lat="61.05263889132384" lon="5.810722221932322" id="-29048">
=======
	<node id="-666328" lat="61.0526388913" lon="5.81072222193">
>>>>>>> e1d4bc35ff8a6074a6f2e91616a996b547c36f15
		<tag k="name" v="Kalvura" />
		<tag k="natural" v="scree" />
		<tag k="ssr:stedsnr" v="941698" />
	</node>
<<<<<<< HEAD
	<node lat="61.122744442622796" lon="5.551663897736327" id="-29088">
		<tag k="name" v="Stølsmyra" />
=======
	<node id="-665124" lat="61.16209444" lon="5.67980554986">
		<tag k="alt_name" v="Skarstølen" />
		<tag k="historic" v="shieling" />
		<tag k="name" v="Skardsstølen" />
		<tag k="place" v="locality" />
		<tag k="ssr:stedsnr" v="130816" />
	</node>
	<node id="-665301" lat="61.173233336" lon="5.83724444789">
		<tag k="name" v="Skarmyrane" />
>>>>>>> e1d4bc35ff8a6074a6f2e91616a996b547c36f15
		<tag k="natural" v="wetland" />
		<tag k="ssr:stedsnr" v="942201" />
	</node>
<<<<<<< HEAD
	<node lat="61.12869444423755" lon="5.566247226242175" id="-29096">
		<tag k="name" v="Blåura" />
		<tag k="natural" v="scree" />
		<tag k="ssr:stedsnr" v="942313" />
	</node>
	<node lat="61.1587583359778" lon="5.605366662104148" id="-29097">
		<tag k="name" v="Seltufta" />
		<tag k="place" v="locality" />
		<tag k="ssr:stedsnr" v="942314" />
	</node>
	<node lat="61.150691663783945" lon="5.435025005050717" id="-29120">
		<tag k="name" v="Brendenesmyra" />
=======
	<node id="-665285" lat="61.2118027735" lon="5.79573055233">
		<tag k="name" v="Storemyra" />
>>>>>>> e1d4bc35ff8a6074a6f2e91616a996b547c36f15
		<tag k="natural" v="wetland" />
		<tag k="ssr:stedsnr" v="942764" />
	</node>
<<<<<<< HEAD
	<node lat="61.105741665211504" lon="6.103075001432743" id="-29121">
		<tag k="name" v="Storemyra" />
=======
	<node id="-667332" lat="61.1529444434" lon="5.70516944967">
		<tag k="name" v="Bjørnemyra" />
>>>>>>> e1d4bc35ff8a6074a6f2e91616a996b547c36f15
		<tag k="natural" v="wetland" />
		<tag k="ssr:stedsnr" v="942785" />
	</node>
<<<<<<< HEAD
	<node lat="61.07882700413344" lon="5.443341461450245" id="-29125">
		<tag k="name" v="Mortesteinen" />
=======
	<node id="-666486" lat="61.0788270041" lon="5.44334146145">
		<tag k="name" v="Mortesteinen" />
		<tag k="natural" v="stone" />
		<tag k="ssr:stedsnr" v="942961" />
	</node>
	<node id="-665375" lat="61.166808334" lon="6.32254444098">
		<tag k="name" v="Gråsteinmyri" />
		<tag k="natural" v="wetland" />
		<tag k="ssr:stedsnr" v="470380" />
	</node>
	<node id="-665267" lat="61.1606666678" lon="5.62333888008">
		<tag k="name" v="Kyresteinane" />
>>>>>>> e1d4bc35ff8a6074a6f2e91616a996b547c36f15
		<tag k="natural" v="stone" />
		<tag k="ssr:stedsnr" v="942961" />
	</node>
	<node id="-665263" lat="61.1091055555" lon="5.51953611655">
		<tag k="name" v="Kastemyrane" />
		<tag k="natural" v="wetland" />
		<tag k="ssr:stedsnr" v="456232" />
	</node>
	<node id="-667816" lat="61.0792833308" lon="5.80701945083">
		<tag k="name" v="Oslandsura" />
		<tag k="natural" v="scree" />
		<tag k="ssr:stedsnr" v="647972" />
	</node>
	<node id="-666140" lat="61.1362166683" lon="6.32584999093">
		<tag k="name" v="Skredhaugmyri" />
		<tag k="natural" v="wetland" />
		<tag k="ssr:stedsnr" v="712233" />
	</node>
	<node id="-666278" lat="61.1420277785" lon="5.55129999194">
		<tag k="name" v="Skåremyrane" />
		<tag k="natural" v="wetland" />
		<tag k="ssr:stedsnr" v="820313" />
	</node>
	<node id="-667813" lat="61.1761388846" lon="5.91821944305">
		<tag k="name" v="Vårstølmyra" />
		<tag k="natural" v="wetland" />
		<tag k="ssr:stedsnr" v="639959" />
	</node>
	<node id="-666272" lat="61.0988722207" lon="6.1289833309">
		<tag k="name" v="Kalvehagen" />
		<tag k="place" v="locality" />
		<tag k="ssr:stedsnr" v="819906" />
	</node>
	<node id="-666781" lat="61.1516388891" lon="5.71402499635">
		<tag k="name" v="Løkemyra" />
		<tag k="natural" v="wetland" />
		<tag k="ssr:stedsnr" v="91712" />
	</node>
	<node id="-666776" lat="61.0933055556" lon="5.89167778539">
		<tag k="name" v="Bergmyra" />
		<tag k="natural" v="wetland" />
		<tag k="ssr:stedsnr" v="91298" />
	</node>
	<node id="-665749" lat="61.1736277738" lon="6.12787500449">
		<tag k="name" v="Vassmyri" />
		<tag k="natural" v="wetland" />
		<tag k="ssr:stedsnr" v="677436" />
	</node>
	<node id="-665236" lat="61.0824250041" lon="6.08454444654">
		<tag k="name" v="Austedalsurdane" />
		<tag k="natural" v="scree" />
		<tag k="ssr:stedsnr" v="213943" />
	</node>
	<node id="-667792" lat="61.1611972208" lon="5.66555554738">
		<tag k="name" v="Blåfjellsøyrane" />
		<tag k="place" v="locality" />
		<tag k="ssr:stedsnr" v="638918" />
	</node>
	<node id="-665226" lat="61.1023999986" lon="5.8145444522">
		<tag k="name" v="Furenesmyrane" />
		<tag k="natural" v="wetland" />
		<tag k="ssr:stedsnr" v="213316" />
	</node>
	<node id="-667779" lat="61.2343194433" lon="6.07803333067">
		<tag k="name" v="Røyrmyrane" />
		<tag k="natural" v="wetland" />
		<tag k="ssr:stedsnr" v="638558" />
	</node>
	<node id="-667777" lat="61.0935527792" lon="5.47584999908">
		<tag k="name" v="Øyrane" />
		<tag k="place" v="locality" />
		<tag k="ssr:stedsnr" v="638529" />
	</node>
	<node id="-665196" lat="61.1691027779" lon="6.20955554912">
		<tag k="name" v="Persteinuri" />
		<tag k="natural" v="scree" />
		<tag k="ssr:stedsnr" v="288834" />
	</node>
	<node id="-667241" lat="61.2320694426" lon="6.0670777778">
		<tag k="name" v="Gråura" />
		<tag k="natural" v="scree" />
		<tag k="ssr:stedsnr" v="335901" />
	</node>
	<node id="-667921" lat="61.1701111099" lon="5.49454999286">
		<tag k="name" v="Storemyra" />
		<tag k="natural" v="wetland" />
		<tag k="ssr:stedsnr" v="760189" />
	</node>
	<node id="-667236" lat="61.1627222264" lon="5.56330556214">
		<tag k="name" v="Kleivemyra" />
		<tag k="natural" v="wetland" />
		<tag k="ssr:stedsnr" v="335747" />
	</node>
	<node id="-665185" lat="61.1897694446" lon="6.22421388413">
		<tag k="name" v="Raudskredsteinen" />
		<tag k="natural" v="stone" />
		<tag k="ssr:stedsnr" v="167170" />
	</node>
	<node id="-665360" lat="61.1684055581" lon="6.3229111052">
		<tag k="name" v="Urateigen" />
		<tag k="place" v="locality" />
		<tag k="ssr:stedsnr" v="288618" />
	</node>
	<node id="-665692" lat="61.1947277738" lon="5.90452500412">
		<tag k="name" v="Moldura" />
		<tag k="natural" v="scree" />
		<tag k="ssr:stedsnr" v="518985" />
	</node>
	<node id="-667222" lat="61.0922944401" lon="6.08684444396">
		<tag k="name" v="Kleivsmyrane" />
		<tag k="natural" v="wetland" />
		<tag k="ssr:stedsnr" v="334948" />
	</node>
	<node id="-666197" lat="61.2467611105" lon="5.91481945079">
		<tag k="name" v="Rauemyra" />
		<tag k="natural" v="wetland" />
		<tag k="ssr:stedsnr" v="760924" />
	</node>
	<node id="-665848" lat="61.1708694445" lon="5.82979167011">
		<tag k="name" v="Skarmyra" />
		<tag k="natural" v="wetland" />
		<tag k="ssr:stedsnr" v="700792" />
	</node>
	<node id="-667216" lat="61.1631833292" lon="5.69838888543">
		<tag k="name" v="Langemyra" />
		<tag k="natural" v="wetland" />
		<tag k="ssr:stedsnr" v="334661" />
	</node>
	<node id="-665558" lat="61.0195638926" lon="5.62994999302">
		<tag k="name" v="Storemyra" />
		<tag k="natural" v="wetland" />
		<tag k="ssr:stedsnr" v="373015" />
	</node>
	<node id="-666188" lat="61.1763472257" lon="5.94586944228">
		<tag k="name" v="Langemyra" />
		<tag k="natural" v="wetland" />
		<tag k="ssr:stedsnr" v="760441" />
	</node>
	<node id="-665160" lat="61.0995805547" lon="5.46928610402">
		<tag k="name" v="Indredalsgjeret" />
		<tag k="natural" v="wetland" />
		<tag k="ssr:stedsnr" v="274534" />
	</node>
	<node id="-666182" lat="60.9955277756" lon="5.85279167103">
		<tag k="name" v="Kyrkjelimyrane" />
		<tag k="natural" v="wetland" />
		<tag k="ssr:stedsnr" v="759863" />
	</node>
	<node id="-665147" lat="61.0840861142" lon="5.62236388229">
		<tag k="name" v="Ramsegrø" />
		<tag k="natural" v="scree" />
		<tag k="ssr:stedsnr" v="274329" />
	</node>
	<node id="-665146" lat="61.1978305577" lon="5.9498777825">
		<tag k="name" v="Haalandsura" />
		<tag k="natural" v="scree" />
		<tag k="ssr:stedsnr" v="274320" />
	</node>
	<node id="-666678" lat="61.1506583364" lon="6.28140554898">
		<tag k="name" v="Nyløbøen" />
		<tag k="place" v="locality" />
		<tag k="ssr:stedsnr" v="45695" />
	</node>
	<node id="-665645" lat="61.1736305588" lon="5.5453333371">
		<tag k="name" v="Breimyra" />
		<tag k="natural" v="wetland" />
		<tag k="ssr:stedsnr" v="517675" />
	</node>
	<node id="-666972" lat="61.1498722197" lon="5.61293889404">
		<tag k="name" v="Urane" />
		<tag k="natural" v="scree" />
		<tag k="ssr:stedsnr" v="153345" />
	</node>
	<node id="-666660" lat="61.1077861126" lon="6.10840277167">
		<tag k="name" v="Huldrehaugmyra" />
		<tag k="natural" v="wetland" />
		<tag k="ssr:stedsnr" v="32778" />
	</node>
	<node id="-666147" lat="61.1560944454" lon="6.2357555583">
		<tag k="name" v="Hesjevollen" />
		<tag k="place" v="locality" />
		<tag k="ssr:stedsnr" v="713706" />
	</node>
	<node id="-668191" lat="61.1601388856" lon="5.70124999749">
		<tag k="name" v="Myrane" />
		<tag k="natural" v="wetland" />
		<tag k="ssr:stedsnr" v="859826" />
	</node>
	<node id="-668188" lat="61.1371222219" lon="6.36426111857">
		<tag k="name" v="Storamyri" />
		<tag k="natural" v="wetland" />
		<tag k="ssr:stedsnr" v="859643" />
	</node>
	<node id="-665619" lat="61.0921611155" lon="6.08114167275">
		<tag k="name" v="Kronglevollurda" />
		<tag k="natural" v="scree" />
		<tag k="ssr:stedsnr" v="516946" />
	</node>
	<node id="-667395" lat="61.1773527735" lon="5.9522111053">
		<tag k="name" v="Vårstølmyrane" />
		<tag k="natural" v="wetland" />
		<tag k="ssr:stedsnr" v="396449" />
	</node>
	<node id="-666967" lat="61.1752611132" lon="5.50520277779">
		<tag k="name" v="Breimyra" />
		<tag k="natural" v="wetland" />
		<tag k="ssr:stedsnr" v="153183" />
	</node>
	<node id="-667650" lat="61.1643083306" lon="6.13893610498">
		<tag k="name" v="Storamyri" />
		<tag k="natural" v="wetland" />
		<tag k="ssr:stedsnr" v="591162" />
	</node>
	<node id="-665601" lat="61.1928999976" lon="5.82305276918">
		<tag k="name" v="Hovdeurane" />
		<tag k="natural" v="scree" />
		<tag k="ssr:stedsnr" v="405052" />
	</node>
</osm>
