<?xml version="1.0" encoding="UTF-8"?>
<osm generator="osmapis" version="0.6">
	<node id="-146075" lat="66.2160500014" lon="12.1279111133">
		<tag k="name" v="Gjessnakken" />
		<tag k="ssr:date" v="2016-05-11" />
		<tag k="ssr:gruppe" v="navigasjon" />
		<tag k="ssr:hovedgruppe" v="infrastruktur" />
		<tag k="ssr:stedsnr" v="925398" />
		<tag k="ssr:type" v="fyrlykt" />
	</node>
	<node id="-146036" lat="66.1997305534" lon="12.5425472292">
		<tag k="name" v="Torsvikvågen nedre" />
		<tag k="ssr:date" v="2016-05-11" />
		<tag k="ssr:gruppe" v="navigasjon" />
		<tag k="ssr:hovedgruppe" v="infrastruktur" />
		<tag k="ssr:stedsnr" v="722994" />
		<tag k="ssr:type" v="lanterne" />
	</node>
	<node id="-145636" lat="66.031724996" lon="12.538680546">
		<tag k="name" v="Lauvøysundet" />
		<tag k="ssr:date" v="2016-05-10" />
		<tag k="ssr:gruppe" v="navigasjon" />
		<tag k="ssr:hovedgruppe" v="infrastruktur" />
		<tag k="ssr:stedsnr" v="440895" />
		<tag k="ssr:type" v="fyrlykt" />
	</node>
	<node id="-145885" lat="66.1916222187" lon="12.4679083236">
		<tag k="name" v="Rølvåg" />
		<tag k="ssr:date" v="2016-05-11" />
		<tag k="ssr:gruppe" v="navigasjon" />
		<tag k="ssr:hovedgruppe" v="infrastruktur" />
		<tag k="ssr:stedsnr" v="694693" />
		<tag k="ssr:type" v="fyrlykt" />
	</node>
	<node id="-145884" lat="66.1060500042" lon="12.4818777785">
		<tag k="name" v="Dønna kommune" />
		<tag k="ssr:date" v="2016-05-11" />
		<tag k="ssr:gruppe" v="administrativeIndelinger" />
		<tag k="ssr:hovedgruppe" v="offentligAdministrasjon" />
		<tag k="ssr:stedsnr" v="693876" />
		<tag k="ssr:type" v="kommune" />
	</node>
	<node id="-147027" lat="66.26496111" lon="12.2963500081">
		<tag k="name" v="Åsvær" />
		<tag k="old_name" v="Åsvær Fyr" />
		<tag k="ssr:date" v="2016-05-11" />
		<tag k="ssr:gruppe" v="navigasjon" />
		<tag k="ssr:hovedgruppe" v="infrastruktur" />
		<tag k="ssr:stedsnr" v="866238" />
		<tag k="ssr:type" v="fyrstasjon" />
	</node>
	<node id="-145611" lat="66.2432888847" lon="12.1891638959">
		<tag k="name" v="Slyngen" />
		<tag k="old_name" v="Indreslynga" />
		<tag k="ssr:date" v="2016-05-10" />
		<tag k="ssr:gruppe" v="navigasjon" />
		<tag k="ssr:hovedgruppe" v="infrastruktur" />
		<tag k="ssr:stedsnr" v="440420" />
		<tag k="ssr:type" v="fyrlykt" />
	</node>
	<node id="-145482" lat="66.0478499954" lon="12.5152000061">
		<tag k="name" v="Jægtholmen" />
		<tag k="old_name" v="Jektholmen" />
		<tag k="ssr:date" v="2016-05-10" />
		<tag k="ssr:gruppe" v="navigasjon" />
		<tag k="ssr:hovedgruppe" v="infrastruktur" />
		<tag k="ssr:stedsnr" v="258996" />
		<tag k="ssr:type" v="fyrlykt" />
	</node>
	<node id="-146457" lat="66.1076944437" lon="12.4887750099">
		<tag k="name" v="Dønna" />
		<tag k="ssr:date" v="2016-05-10" />
		<tag k="ssr:gruppe" v="administrativeIndelinger" />
		<tag k="ssr:hovedgruppe" v="offentligAdministrasjon" />
		<tag k="ssr:stedsnr" v="203839" />
		<tag k="ssr:type" v="poststed" />
	</node>
	<node id="-147016" lat="66.1792611105" lon="12.36167499">
		<tag k="name" v="Buøya" />
		<tag k="ssr:date" v="2016-05-11" />
		<tag k="ssr:gruppe" v="navigasjon" />
		<tag k="ssr:hovedgruppe" v="infrastruktur" />
		<tag k="ssr:stedsnr" v="865697" />
		<tag k="ssr:type" v="fyrlykt" />
	</node>
	<node id="-146370" lat="66.1642250031" lon="12.546622216">
		<tag k="name" v="Åkervågen" />
		<tag k="ssr:date" v="2016-05-10" />
		<tag k="ssr:gruppe" v="navigasjon" />
		<tag k="ssr:hovedgruppe" v="infrastruktur" />
		<tag k="ssr:stedsnr" v="136579" />
		<tag k="ssr:type" v="fyrlykt" />
	</node>
	<node id="-145483" lat="66.1952250023" lon="12.4341499927">
		<tag k="name" v="Rensøysundet" />
		<tag k="ssr:date" v="2016-05-10" />
		<tag k="ssr:gruppe" v="navigasjon" />
		<tag k="ssr:hovedgruppe" v="infrastruktur" />
		<tag k="ssr:stedsnr" v="258628" />
		<tag k="ssr:type" v="fyrlykt" />
	</node>
	<node id="-146840" lat="66.149613888" lon="12.8044083397">
		<tag k="name" v="Langneset" />
		<tag k="ssr:date" v="2016-05-11" />
		<tag k="ssr:gruppe" v="navigasjon" />
		<tag k="ssr:hovedgruppe" v="infrastruktur" />
		<tag k="ssr:stedsnr" v="743201" />
		<tag k="ssr:type" v="fyrlykt" />
	</node>
	<node id="-146480" lat="66.2117805538" lon="12.5515750059">
		<tag k="name" v="Sørøyvågen" />
		<tag k="ssr:date" v="2016-05-10" />
		<tag k="ssr:gruppe" v="navigasjon" />
		<tag k="ssr:hovedgruppe" v="infrastruktur" />
		<tag k="ssr:stedsnr" v="318663" />
		<tag k="ssr:type" v="fyrlykt" />
	</node>
	<node id="-146479" lat="66.2199388874" lon="12.6101944411">
		<tag k="name" v="Engelsholmen" />
		<tag k="ssr:date" v="2016-05-10" />
		<tag k="ssr:gruppe" v="navigasjon" />
		<tag k="ssr:hovedgruppe" v="infrastruktur" />
		<tag k="ssr:stedsnr" v="318659" />
		<tag k="ssr:type" v="fyrlykt" />
	</node>
	<node id="-145416" lat="66.1134388876" lon="12.3792361175">
		<tag k="name" v="Buøyskjær" />
		<tag k="old_name" v="Buøyskjer" />
		<tag k="ssr:date" v="2016-05-10" />
		<tag k="ssr:gruppe" v="navigasjon" />
		<tag k="ssr:hovedgruppe" v="infrastruktur" />
		<tag k="ssr:stedsnr" v="15533" />
		<tag k="ssr:type" v="fyrlykt" />
	</node>
	<node id="-147114" lat="69.6388889725" lon="30.5666644427">
		<tag k="fixme" v="multiple name tags, choose one and add the other to alt_name" />
		<tag k="loc_name:se" v="Norgga gonagasriika" />
		<tag k="loc_name:sma" v="Nöörjen gånkarïjhke" />
		<tag k="loc_name:smj" v="Vuona gånågisrijkka" />
		<tag k="name" v="Noreg;Norge" />
		<tag k="name:en" v="Norway" />
		<tag k="name:no" v="Noreg;Norge" />
		<tag k="ssr:date" v="2020-06-04" />
		<tag k="ssr:gruppe" v="administrativeIndelinger" />
		<tag k="ssr:hovedgruppe" v="offentligAdministrasjon" />
		<tag k="ssr:stedsnr" v="26330" />
		<tag k="ssr:type" v="nasjon" />
	</node>
	<node id="-147107" lat="66.093579801" lon="12.358144379">
		<tag k="name" v="Valstad" />
		<tag k="ssr:date" v="2019-05-30" />
		<tag k="ssr:gruppe" v="veg" />
		<tag k="ssr:hovedgruppe" v="infrastruktur" />
		<tag k="ssr:stedsnr" v="999378" />
		<tag k="ssr:type" v="adressenavn" />
	</node>
	<node id="-147106" lat="66.1772386758" lon="12.3737351156">
		<tag k="name" v="Sandholmen" />
		<tag k="ssr:date" v="2019-05-30" />
		<tag k="ssr:gruppe" v="veg" />
		<tag k="ssr:hovedgruppe" v="infrastruktur" />
		<tag k="ssr:stedsnr" v="999377" />
		<tag k="ssr:type" v="adressenavn" />
	</node>
	<node id="-147105" lat="66.2554499709" lon="12.2684906571">
		<tag k="name" v="Kvitmåsøya" />
		<tag k="ssr:date" v="2019-05-30" />
		<tag k="ssr:gruppe" v="veg" />
		<tag k="ssr:hovedgruppe" v="infrastruktur" />
		<tag k="ssr:stedsnr" v="999376" />
		<tag k="ssr:type" v="adressenavn" />
	</node>
	<node id="-147104" lat="66.0248555184" lon="12.502206503">
		<tag k="name" v="Lissløvøya" />
		<tag k="ssr:date" v="2019-05-30" />
		<tag k="ssr:gruppe" v="veg" />
		<tag k="ssr:hovedgruppe" v="infrastruktur" />
		<tag k="ssr:stedsnr" v="999375" />
		<tag k="ssr:type" v="adressenavn" />
	</node>
	<node id="-147103" lat="66.2251450963" lon="12.1625866187">
		<tag k="name" v="Brattbåtstøøya" />
		<tag k="ssr:date" v="2019-05-30" />
		<tag k="ssr:gruppe" v="veg" />
		<tag k="ssr:hovedgruppe" v="infrastruktur" />
		<tag k="ssr:stedsnr" v="999374" />
		<tag k="ssr:type" v="adressenavn" />
	</node>
	<node id="-147102" lat="66.1334945703" lon="12.4384723803">
		<tag k="name" v="Sandøya" />
		<tag k="ssr:date" v="2019-05-30" />
		<tag k="ssr:gruppe" v="veg" />
		<tag k="ssr:hovedgruppe" v="infrastruktur" />
		<tag k="ssr:stedsnr" v="999373" />
		<tag k="ssr:type" v="adressenavn" />
	</node>
	<node id="-147101" lat="66.0733329528" lon="12.3328461598">
		<tag k="name" v="Helløya" />
		<tag k="ssr:date" v="2019-05-30" />
		<tag k="ssr:gruppe" v="veg" />
		<tag k="ssr:hovedgruppe" v="infrastruktur" />
		<tag k="ssr:stedsnr" v="999372" />
		<tag k="ssr:type" v="adressenavn" />
	</node>
	<node id="-147100" lat="66.0783529204" lon="12.3367119958">
		<tag k="name" v="Sørøya" />
		<tag k="ssr:date" v="2019-05-30" />
		<tag k="ssr:gruppe" v="veg" />
		<tag k="ssr:hovedgruppe" v="infrastruktur" />
		<tag k="ssr:stedsnr" v="999370" />
		<tag k="ssr:type" v="adressenavn" />
	</node>
	<node id="-147099" lat="66.2066962134" lon="12.215922803">
		<tag k="name" v="Litlengøya" />
		<tag k="ssr:date" v="2019-05-30" />
		<tag k="ssr:gruppe" v="veg" />
		<tag k="ssr:hovedgruppe" v="infrastruktur" />
		<tag k="ssr:stedsnr" v="999369" />
		<tag k="ssr:type" v="adressenavn" />
	</node>
	<node id="-147098" lat="66.2069720222" lon="12.2134848091">
		<tag k="name" v="Storengøya" />
		<tag k="ssr:date" v="2019-05-30" />
		<tag k="ssr:gruppe" v="veg" />
		<tag k="ssr:hovedgruppe" v="infrastruktur" />
		<tag k="ssr:stedsnr" v="999368" />
		<tag k="ssr:type" v="adressenavn" />
	</node>
	<node id="-147097" lat="66.0312494005" lon="12.5373018745">
		<tag k="name" v="Løvøya" />
		<tag k="ssr:date" v="2019-05-30" />
		<tag k="ssr:gruppe" v="veg" />
		<tag k="ssr:hovedgruppe" v="infrastruktur" />
		<tag k="ssr:stedsnr" v="999360" />
		<tag k="ssr:type" v="adressenavn" />
	</node>
	<node id="-147096" lat="66.0457975029" lon="12.5324607511">
		<tag k="name" v="Skorpa" />
		<tag k="ssr:date" v="2019-05-30" />
		<tag k="ssr:gruppe" v="veg" />
		<tag k="ssr:hovedgruppe" v="infrastruktur" />
		<tag k="ssr:stedsnr" v="999359" />
		<tag k="ssr:type" v="adressenavn" />
	</node>
	<node id="-147095" lat="66.1858740652" lon="12.3419415849">
		<tag k="name" v="Lissvandve" />
		<tag k="ssr:date" v="2019-05-30" />
		<tag k="ssr:gruppe" v="veg" />
		<tag k="ssr:hovedgruppe" v="infrastruktur" />
		<tag k="ssr:stedsnr" v="999358" />
		<tag k="ssr:type" v="adressenavn" />
	</node>
	<node id="-147094" lat="66.1718377802" lon="12.3756473156">
		<tag k="name" v="Havstein" />
		<tag k="ssr:date" v="2019-05-30" />
		<tag k="ssr:gruppe" v="veg" />
		<tag k="ssr:hovedgruppe" v="infrastruktur" />
		<tag k="ssr:stedsnr" v="999357" />
		<tag k="ssr:type" v="adressenavn" />
	</node>
	<node id="-147093" lat="66.1769934573" lon="12.3450990773">
		<tag k="name" v="Buøya" />
		<tag k="ssr:date" v="2019-05-30" />
		<tag k="ssr:gruppe" v="veg" />
		<tag k="ssr:hovedgruppe" v="infrastruktur" />
		<tag k="ssr:stedsnr" v="999355" />
		<tag k="ssr:type" v="adressenavn" />
	</node>
	<node id="-147092" lat="66.0857617709" lon="12.3426611538">
		<tag k="name" v="Storøya" />
		<tag k="ssr:date" v="2019-05-30" />
		<tag k="ssr:gruppe" v="veg" />
		<tag k="ssr:hovedgruppe" v="infrastruktur" />
		<tag k="ssr:stedsnr" v="999353" />
		<tag k="ssr:type" v="adressenavn" />
	</node>
	<node id="-147091" lat="66.2265520283" lon="12.5710627554">
		<tag k="name" v="Utøya" />
		<tag k="ssr:date" v="2019-05-30" />
		<tag k="ssr:gruppe" v="veg" />
		<tag k="ssr:hovedgruppe" v="infrastruktur" />
		<tag k="ssr:stedsnr" v="999352" />
		<tag k="ssr:type" v="adressenavn" />
	</node>
	<node id="-147090" lat="66.1546995611" lon="12.3437930491">
		<tag k="name" v="Seterbuøya" />
		<tag k="ssr:date" v="2019-05-30" />
		<tag k="ssr:gruppe" v="veg" />
		<tag k="ssr:hovedgruppe" v="infrastruktur" />
		<tag k="ssr:stedsnr" v="999350" />
		<tag k="ssr:type" v="adressenavn" />
	</node>
	<node id="-147089" lat="66.1471059975" lon="12.5128138774">
		<tag k="name" v="Kjeøya" />
		<tag k="ssr:date" v="2019-05-30" />
		<tag k="ssr:gruppe" v="veg" />
		<tag k="ssr:hovedgruppe" v="infrastruktur" />
		<tag k="ssr:stedsnr" v="999349" />
		<tag k="ssr:type" v="adressenavn" />
	</node>
	<node id="-147088" lat="66.0189360681" lon="12.4836860301">
		<tag k="name" v="Æsøya" />
		<tag k="ssr:date" v="2019-05-30" />
		<tag k="ssr:gruppe" v="veg" />
		<tag k="ssr:hovedgruppe" v="infrastruktur" />
		<tag k="ssr:stedsnr" v="999348" />
		<tag k="ssr:type" v="adressenavn" />
	</node>
	<node id="-147087" lat="66.0218576156" lon="12.4822215809">
		<tag k="name" v="Ormsøya" />
		<tag k="ssr:date" v="2019-05-30" />
		<tag k="ssr:gruppe" v="veg" />
		<tag k="ssr:hovedgruppe" v="infrastruktur" />
		<tag k="ssr:stedsnr" v="999346" />
		<tag k="ssr:type" v="adressenavn" />
	</node>
	<node id="-147086" lat="66.088066419" lon="12.3377119113">
		<tag k="name" v="Langøya" />
		<tag k="ssr:date" v="2019-05-30" />
		<tag k="ssr:gruppe" v="veg" />
		<tag k="ssr:hovedgruppe" v="infrastruktur" />
		<tag k="ssr:stedsnr" v="999345" />
		<tag k="ssr:type" v="adressenavn" />
	</node>
	<node id="-145602" lat="66.2001833358" lon="12.5411861097">
		<tag k="name" v="Torsvikvågen øvre" />
		<tag k="ssr:date" v="2016-05-10" />
		<tag k="ssr:gruppe" v="navigasjon" />
		<tag k="ssr:hovedgruppe" v="infrastruktur" />
		<tag k="ssr:stedsnr" v="297863" />
		<tag k="ssr:type" v="lanterne" />
	</node>
	<node id="-145672" lat="66.1687611106" lon="12.6747444427">
		<tag k="name" v="Hovsvåg" />
		<tag k="ssr:date" v="2016-05-10" />
		<tag k="ssr:gruppe" v="navigasjon" />
		<tag k="ssr:hovedgruppe" v="infrastruktur" />
		<tag k="ssr:stedsnr" v="258565" />
		<tag k="ssr:type" v="fyrlykt" />
	</node>
	<node id="-146308" lat="66.0384305584" lon="12.3094916628">
		<tag k="name" v="Åkvik" />
		<tag k="ssr:date" v="2019-12-27" />
		<tag k="ssr:gruppe" v="navigasjon" />
		<tag k="ssr:hovedgruppe" v="infrastruktur" />
		<tag k="ssr:stedsnr" v="76965" />
		<tag k="ssr:type" v="fyrlykt" />
	</node>
	<node id="-146561" lat="66.2194472231" lon="12.2480750019">
		<tag k="name" v="Lassan" />
		<tag k="ssr:date" v="2016-05-10" />
		<tag k="ssr:gruppe" v="navigasjon" />
		<tag k="ssr:hovedgruppe" v="infrastruktur" />
		<tag k="ssr:stedsnr" v="379640" />
		<tag k="ssr:type" v="fyrlykt" />
	</node>
</osm>
