<?xml version="1.0" encoding="UTF-8"?>
<osm generator="osmapis" version="0.6">
	<node id="-3712" lat="59.44858056" lon="10.6149666586">
		<tag k="name" v="Refsnesbukta" />
		<tag k="natural" v="bay" />
		<tag k="ssr:stedsnr" v="356058" />
	</node>
	<node id="-3967" lat="59.4885833369" lon="10.6426055643">
		<tag k="name" v="Furuodden" />
		<tag k="natural" v="cape" />
		<tag k="ssr:stedsnr" v="786229" />
	</node>
	<node id="-3797" lat="59.4169555592" lon="10.6041916677">
		<tag k="fixme" v="consider seamark:type=rock or natural=shoal" />
		<tag k="name" v="Albyskjæra" />
		<tag k="place" v="islet" />
		<tag k="ssr:stedsnr" v="116947" />
	</node>
	<node id="-3708" lat="59.4862611125" lon="10.6747555617">
		<tag k="name" v="Kippenes" />
		<tag k="natural" v="cape" />
		<tag k="ssr:stedsnr" v="355745" />
	</node>
	<node id="-3754" lat="59.5268694402" lon="10.623125001">
		<tag k="name" v="Bevøykollen" />
		<tag k="natural" v="shoal" />
		<tag k="place" v="locality" />
		<tag k="ssr:stedsnr" v="3498" />
	</node>
	<node id="-3839" lat="59.4181749968" lon="10.6368694365">
		<tag k="name" v="Grimsrødhausen" />
		<tag k="place" v="locality" />
		<tag k="seamark:type" v="rock" />
		<tag k="ssr:stedsnr" v="238180" />
	</node>
	<node id="-3704" lat="59.4640999991" lon="10.5703222273">
		<tag k="name" v="Trollgrunnen" />
		<tag k="natural" v="shoal" />
		<tag k="place" v="locality" />
		<tag k="ssr:stedsnr" v="331873" />
	</node>
	<node id="-3958" lat="59.4836499978" lon="10.6860305606">
		<tag k="alt_name" v="Kulpe" />
		<tag k="name" v="Kulpeholmen" />
		<tag k="place" v="islet" />
		<tag k="ssr:stedsnr" v="756882" />
	</node>
	<node id="-3956" lat="59.4788250032" lon="10.6067111154">
		<tag k="name" v="Langgrunnen" />
		<tag k="natural" v="shoal" />
		<tag k="place" v="locality" />
		<tag k="ssr:stedsnr" v="731897" />
	</node>
	<node id="-3699" lat="59.5044083322" lon="10.6624388844">
		<tag k="name" v="Høkesetodden" />
		<tag k="natural" v="cape" />
		<tag k="ssr:stedsnr" v="308899" />
	</node>
	<node id="-3698" lat="59.4871500009" lon="10.606099995">
		<tag k="name" v="Neskrakken" />
		<tag k="natural" v="shoal" />
		<tag k="place" v="locality" />
		<tag k="ssr:stedsnr" v="306925" />
	</node>
	<node id="-3693" lat="59.4463277793" lon="10.6582999999">
		<tag k="alt_name" v="Rosnestangen" />
		<tag k="name" v="Rossnestangen" />
		<tag k="natural" v="cape" />
		<tag k="ssr:stedsnr" v="305959" />
	</node>
	<node id="-3847" lat="59.418416671" lon="10.6013527844">
		<tag k="name" v="Albystranda" />
		<tag k="natural" v="beach" />
		<tag k="place" v="locality" />
		<tag k="ssr:stedsnr" v="249918" />
	</node>
	<node id="-3691" lat="59.4473749994" lon="10.6129861125">
		<tag k="name" v="Refsnestangen" />
		<tag k="natural" v="cape" />
		<tag k="ssr:stedsnr" v="56213" />
	</node>
	<node id="-3900" lat="59.4356194448" lon="10.5793527846">
		<tag k="name" v="Gullholmen" />
		<tag k="place" v="island" />
		<tag k="ssr:stedsnr" v="570081" />
	</node>
	<node id="-3814" lat="59.4920722195" lon="10.6763000052">
		<tag k="name" v="Spetalgrunnene" />
		<tag k="natural" v="shoal" />
		<tag k="place" v="locality" />
		<tag k="ssr:stedsnr" v="177663" />
	</node>
	<node id="-3940" lat="59.4588138866" lon="10.6627583316">
		<tag k="name" v="Søndre Kjellandsvikskjæra" />
		<tag k="place" v="locality" />
		<tag k="seamark:type" v="rock" />
		<tag k="ssr:stedsnr" v="662141" />
	</node>
	<node id="-3811" lat="59.4355194484" lon="10.5851805638">
		<tag k="name" v="Gullholmsundet" />
		<tag k="natural" v="strait" />
		<tag k="ssr:stedsnr" v="174809" />
	</node>
	<node id="-3686" lat="59.4220027736" lon="10.6345861071">
		<tag k="name" v="Baden-Baden" />
		<tag k="natural" v="beach" />
		<tag k="place" v="locality" />
		<tag k="ssr:stedsnr" v="298174" />
	</node>
	<node id="-3808" lat="59.4768083363" lon="10.6609611088">
		<tag k="name" v="Kjørbukta" />
		<tag k="natural" v="bay" />
		<tag k="ssr:stedsnr" v="173762" />
	</node>
	<node id="-3846" lat="59.4977527778" lon="10.6660694368">
		<tag k="name" v="Bingetangen" />
		<tag k="natural" v="cape" />
		<tag k="ssr:stedsnr" v="247891" />
	</node>
	<node id="-3933" lat="59.4838055575" lon="10.6347277705">
		<tag k="name" v="Katteberget" />
		<tag k="natural" v="cape" />
		<tag k="ssr:stedsnr" v="658770" />
	</node>
	<node id="-3804" lat="59.5068972203" lon="10.631188897">
		<tag k="name" v="Pipergrunnen" />
		<tag k="natural" v="shoal" />
		<tag k="place" v="locality" />
		<tag k="ssr:stedsnr" v="149779" />
	</node>
	<node id="-3675" lat="59.4978111097" lon="10.651802778">
		<tag k="name" v="Singelbukta" />
		<tag k="natural" v="bay" />
		<tag k="ssr:stedsnr" v="271816" />
	</node>
	<node id="-3674" lat="59.4641777744" lon="10.6598944461">
		<tag k="name" v="Kjellandsvikbukta" />
		<tag k="natural" v="bay" />
		<tag k="ssr:stedsnr" v="271815" />
	</node>
	<node id="-3927" lat="59.438613891" lon="10.5928722271">
		<tag k="name" v="Hesteberget" />
		<tag k="natural" v="cape" />
		<tag k="ssr:stedsnr" v="634894" />
	</node>
	<node id="-3926" lat="59.4197027748" lon="10.6450111117">
		<tag k="alt_name" v="Værlen" />
		<tag k="name" v="Verlebukta" />
		<tag k="natural" v="bay" />
		<tag k="ssr:stedsnr" v="609983" />
	</node>
	<node id="-3925" lat="59.5127305552" lon="10.6408472292">
		<tag k="name" v="Bevøya" />
		<tag k="place" v="island" />
		<tag k="ssr:stedsnr" v="609495" />
	</node>
	<node id="-3924" lat="59.5109638847" lon="10.6467500057">
		<tag k="name" v="Bevøysundet" />
		<tag k="natural" v="strait" />
		<tag k="ssr:stedsnr" v="609492" />
	</node>
	<node id="-3923" lat="59.5195000015" lon="10.6068805618">
		<tag k="name" v="Storholmgrunnen" />
		<tag k="natural" v="shoal" />
		<tag k="place" v="locality" />
		<tag k="ssr:stedsnr" v="609486" />
	</node>
	<node id="-3918" lat="59.4879972249" lon="10.6872055562">
		<tag k="name" v="Dragkisteskuffa" />
		<tag k="natural" v="bay" />
		<tag k="ssr:stedsnr" v="601699" />
	</node>
	<node id="-3788" lat="59.4705472215" lon="10.603549996">
		<tag k="name" v="Rambergkrakken" />
		<tag k="natural" v="shoal" />
		<tag k="place" v="locality" />
		<tag k="ssr:stedsnr" v="89865" />
	</node>
	<node id="-3785" lat="59.4354527737" lon="10.6782222228">
		<tag k="name" v="Neset" />
		<tag k="natural" v="cape" />
		<tag k="ssr:stedsnr" v="65911" />
	</node>
	<node id="-3912" lat="59.4622777811" lon="10.6651361153">
		<tag k="name" v="Kjellandsviktangen" />
		<tag k="natural" v="cape" />
		<tag k="ssr:stedsnr" v="599202" />
	</node>
	<node id="-4039" lat="59.4174944419" lon="10.6187555639">
		<tag k="name" v="Teinegrunnen" />
		<tag k="natural" v="shoal" />
		<tag k="place" v="locality" />
		<tag k="ssr:stedsnr" v="966951" />
	</node>
	<node id="-4038" lat="59.4623861102" lon="10.6302194408">
		<tag k="name" v="Nebba" />
		<tag k="natural" v="beach" />
		<tag k="place" v="locality" />
		<tag k="ssr:stedsnr" v="966214" />
	</node>
	<node id="-4037" lat="59.4281388912" lon="10.642444437">
		<tag k="name" v="Vårlistranda" />
		<tag k="natural" v="beach" />
		<tag k="place" v="locality" />
		<tag k="ssr:stedsnr" v="966181" />
	</node>
	<node id="-3780" lat="59.5074416665" lon="10.6285027718">
		<tag k="name" v="Bile" />
		<tag k="place" v="islet" />
		<tag k="ssr:stedsnr" v="63545" />
	</node>
	<node id="-3702" lat="59.4339194476" lon="10.5719277772">
		<tag k="name" v="Gullholmkrakken" />
		<tag k="natural" v="shoal" />
		<tag k="place" v="locality" />
		<tag k="ssr:stedsnr" v="331774" />
	</node>
	<node id="-3906" lat="59.5099583311" lon="10.6469499988">
		<tag k="name" v="Tangen" />
		<tag k="natural" v="cape" />
		<tag k="ssr:stedsnr" v="598848" />
	</node>
	<node id="-4028" lat="59.4909944459" lon="10.6500194513">
		<tag k="name" v="Pinnebukta" />
		<tag k="natural" v="bay" />
		<tag k="ssr:stedsnr" v="962840" />
	</node>
	<node id="-4026" lat="59.5261583298" lon="10.6123583372">
		<tag k="name" v="Asbjørngrunnen" />
		<tag k="natural" v="shoal" />
		<tag k="place" v="locality" />
		<tag k="ssr:stedsnr" v="914561" />
	</node>
	<node id="-3897" lat="59.4406666667" lon="10.6074611091">
		<tag k="alt_name" v="Tronvikbukta" />
		<tag k="name" v="Tronvika" />
		<tag k="natural" v="bay" />
		<tag k="ssr:stedsnr" v="548939" />
	</node>
	<node id="-3828" lat="59.4834861071" lon="10.6293444494">
		<tag k="name" v="Signalodden" />
		<tag k="natural" v="cape" />
		<tag k="ssr:stedsnr" v="234804" />
	</node>
	<node id="-3894" lat="59.4234138926" lon="10.6358888814">
		<tag k="name" v="Lilleputt" />
		<tag k="natural" v="beach" />
		<tag k="place" v="locality" />
		<tag k="ssr:stedsnr" v="541189" />
	</node>
	<node id="-3893" lat="59.460252774" lon="10.6639416679">
		<tag k="alt_name" v="Kjeholmen;Skjæret" />
		<tag k="name" v="Eggholmen" />
		<tag k="place" v="islet" />
		<tag k="ssr:stedsnr" v="538878" />
	</node>
	<node id="-3870" lat="59.4884694449" lon="10.6862999992">
		<tag k="name" v="Løvikholmen" />
		<tag k="natural" v="cape" />
		<tag k="ssr:stedsnr" v="453874" />
	</node>
	<node id="-3784" lat="59.4174833329" lon="10.598924996">
		<tag k="alt_name" v="Bredbukt;Bredebukt" />
		<tag k="name" v="Breidbukta" />
		<tag k="natural" v="bay" />
		<tag k="ssr:stedsnr" v="63978" />
	</node>
	<node id="-3805" lat="59.4688083301" lon="10.6253888897">
		<tag k="name" v="Flantorsk" />
		<tag k="place" v="islet" />
		<tag k="ssr:stedsnr" v="149885" />
	</node>
	<node id="-3883" lat="59.446555552" lon="10.6100083374">
		<tag k="fixme" v="consider seamark:type=rock or natural=shoal" />
		<tag k="name" v="Refsnesrevet" />
		<tag k="place" v="islet" />
		<tag k="ssr:stedsnr" v="513989" />
	</node>
	<node id="-3882" lat="59.4136638881" lon="10.6032111075">
		<tag k="name" v="Skjelgrunnen" />
		<tag k="natural" v="shoal" />
		<tag k="place" v="locality" />
		<tag k="ssr:stedsnr" v="513988" />
	</node>
	<node id="-3753" lat="59.5053861121" lon="10.6032249944">
		<tag k="name" v="Bilekrakken" />
		<tag k="natural" v="shoal" />
		<tag k="place" v="locality" />
		<tag k="ssr:stedsnr" v="3478" />
	</node>
	<node id="-3880" lat="59.4938638879" lon="10.6441361064">
		<tag k="name" v="Nesbukta" />
		<tag k="natural" v="bay" />
		<tag k="ssr:stedsnr" v="488916" />
	</node>
	<node id="-3879" lat="59.5135611135" lon="10.603999993">
		<tag k="name" v="Lindholmgrunnen" />
		<tag k="natural" v="shoal" />
		<tag k="place" v="locality" />
		<tag k="ssr:stedsnr" v="488512" />
	</node>
	<node id="-3781" lat="59.4657672665" lon="10.6284286723">
		<tag k="alt_name" v="Fuglevikbukta" />
		<tag k="name" v="Rambergbukta" />
		<tag k="natural" v="bay" />
		<tag k="ssr:stedsnr" v="63906" />
	</node>
	<node id="-3910" lat="59.4436388863" lon="10.668100008">
		<tag k="name" v="Sandbukta" />
		<tag k="natural" v="bay" />
		<tag k="ssr:stedsnr" v="599028" />
	</node>
	<node id="-3874" lat="59.4401027788" lon="10.6726500025">
		<tag k="name" v="Sponvika" />
		<tag k="natural" v="bay" />
		<tag k="ssr:stedsnr" v="480730" />
	</node>
	<node id="-4000" lat="59.4236222225" lon="10.6188055501">
		<tag k="name" v="Reierbukta" />
		<tag k="natural" v="bay" />
		<tag k="ssr:stedsnr" v="852985" />
	</node>
	<node id="-3998" lat="59.4183888875" lon="10.5930277734">
		<tag k="name" v="Stalsberget" />
		<tag k="natural" v="cape" />
		<tag k="ssr:stedsnr" v="852970" />
	</node>
	<node id="-3869" lat="59.501591667" lon="10.6473722203">
		<tag k="alt_name" v="Munkestein" />
		<tag k="name" v="Munken" />
		<tag k="natural" v="cape" />
		<tag k="ssr:stedsnr" v="450125" />
	</node>
	<node id="-3996" lat="59.4500472193" lon="10.6350916697">
		<tag k="name" v="Jeløya" />
		<tag k="old_name" v="Jeløen" />
		<tag k="place" v="island" />
		<tag k="ssr:stedsnr" v="852938" />
	</node>
	<node id="-3994" lat="59.4070111146" lon="10.5966527772">
		<tag k="name" v="Stallene" />
		<tag k="natural" v="shoal" />
		<tag k="place" v="locality" />
		<tag k="ssr:stedsnr" v="852503" />
	</node>
	<node id="-3734" lat="59.4890444406" lon="10.6444138948">
		<tag k="name" v="Kuskjærbukta" />
		<tag k="natural" v="bay" />
		<tag k="ssr:stedsnr" v="476836" />
	</node>
	<node id="-3987" lat="59.4183694478" lon="10.6059305643">
		<tag k="name" v="Roligbukt" />
		<tag k="natural" v="bay" />
		<tag k="ssr:stedsnr" v="842768" />
	</node>
	<node id="-3779" lat="59.5020055554" lon="10.6562222293">
		<tag k="name" v="Nordre Jeløya" />
		<tag k="place" v="island" />
		<tag k="ssr:stedsnr" v="63542" />
	</node>
	<node id="-3705" lat="59.5066666697" lon="10.6536166719">
		<tag k="name" v="Hvittingbukta" />
		<tag k="natural" v="bay" />
		<tag k="ssr:stedsnr" v="331876" />
	</node>
	<node id="-3757" lat="59.4596861149" lon="10.6191666585">
		<tag k="name" v="Rambergnebba" />
		<tag k="natural" v="cape" />
		<tag k="ssr:stedsnr" v="28133" />
	</node>
	<node id="-3676" lat="59.4765388901" lon="10.6882749994">
		<tag k="name" v="Kambobukta" />
		<tag k="natural" v="bay" />
		<tag k="ssr:stedsnr" v="271894" />
	</node>
	<node id="-3720" lat="59.4196583301" lon="10.629325008">
		<tag k="name" v="Reiertangen" />
		<tag k="natural" v="cape" />
		<tag k="ssr:stedsnr" v="366977" />
	</node>
	<node id="-3975" lat="59.4393250013" lon="10.6597749939">
		<tag k="name" v="Sagmuggkanten" />
		<tag k="natural" v="shoal" />
		<tag k="place" v="locality" />
		<tag k="ssr:stedsnr" v="794904" />
	</node>
	<node id="-3974" lat="59.5021499986" lon="10.6670999936">
		<tag k="name" v="Gjøvasundet" />
		<tag k="natural" v="strait" />
		<tag k="ssr:stedsnr" v="793908" />
	</node>
	<node id="-3845" lat="59.4252000042" lon="10.5799833303">
		<tag k="name" v="Sauetogrunnen" />
		<tag k="natural" v="shoal" />
		<tag k="place" v="locality" />
		<tag k="ssr:stedsnr" v="245986" />
	</node>
	<node id="-3844" lat="59.4627722267" lon="10.6708888843">
		<tag k="name" v="Mossesundet" />
		<tag k="natural" v="strait" />
		<tag k="ssr:stedsnr" v="245959" />
	</node>
</osm>
