<?xml version="1.0" encoding="UTF-8"?>
<osm generator="osmapis" version="0.6">
	<node id="-4041" lat="59.4586163185" lon="10.6964708908">
		<tag k="amenity" v="school" />
		<tag k="name" v="Åvangen skole" />
		<tag k="ssr:stedsnr" v="976102" />
	</node>
	<node id="-4039" lat="59.4174944419" lon="10.6187555639">
		<tag k="name" v="Teinegrunnen" />
		<tag k="natural" v="shoal" />
		<tag k="place" v="locality" />
		<tag k="ssr:stedsnr" v="966951" />
	</node>
	<node id="-4038" lat="59.4623861102" lon="10.6302194408">
		<tag k="name" v="Nebba" />
		<tag k="natural" v="beach" />
		<tag k="place" v="locality" />
		<tag k="ssr:stedsnr" v="966214" />
	</node>
	<node id="-4037" lat="59.4281388912" lon="10.642444437">
		<tag k="name" v="Vårlistranda" />
		<tag k="natural" v="beach" />
		<tag k="place" v="locality" />
		<tag k="ssr:stedsnr" v="966181" />
	</node>
	<node id="-4036" lat="59.4371999993" lon="10.6351944492">
		<tag k="name" v="Bellevue" />
		<tag k="place" v="suburb" />
		<tag k="ssr:stedsnr" v="965163" />
	</node>
	<node id="-4035" lat="59.4785388858" lon="10.7419222276">
		<tag k="name" v="Kjerringbakk" />
		<tag k="place" v="locality" />
		<tag k="ssr:stedsnr" v="963891" />
	</node>
	<node id="-4034" lat="59.4494972247" lon="10.6936666633">
		<tag k="name" v="Grindvoll" />
		<tag k="place" v="suburb" />
		<tag k="ssr:stedsnr" v="963221" />
	</node>
	<node id="-4033" lat="59.4555472198" lon="10.6181750044">
		<tag k="name" v="Dragonfjellet" />
		<tag k="place" v="locality" />
		<tag k="ssr:stedsnr" v="963219" />
	</node>
	<node id="-4032" lat="59.4350944444" lon="10.6362388808">
		<tag k="name" v="Torderød" />
		<tag k="place" v="farm" />
		<tag k="ssr:stedsnr" v="962888" />
	</node>
	<node id="-4031" lat="59.4262888855" lon="10.6273361068">
		<tag k="name" v="Reierskogen" />
		<tag k="place" v="locality" />
		<tag k="ssr:stedsnr" v="962883" />
	</node>
	<node id="-4030" lat="59.4177999955" lon="10.7198916737">
		<tag k="name" v="Lille Silleholmen" />
		<tag k="place" v="islet" />
		<tag k="ssr:stedsnr" v="962882" />
	</node>
	<node id="-4029" lat="59.4406833288" lon="10.6145722303">
		<tag k="name" v="Tronvikskogen" />
		<tag k="place" v="locality" />
		<tag k="ssr:stedsnr" v="962879" />
	</node>
	<node id="-4028" lat="59.4909944459" lon="10.6500194513">
		<tag k="name" v="Pinnebukta" />
		<tag k="natural" v="bay" />
		<tag k="ssr:stedsnr" v="962840" />
	</node>
	<node id="-4027" lat="59.4689194464" lon="10.6914777853">
		<tag k="amenity" v="school" />
		<tag k="name" v="Kambo skole" />
		<tag k="ssr:stedsnr" v="962069" />
	</node>
	<node id="-4026" lat="59.5261583298" lon="10.6123583372">
		<tag k="name" v="Asbjørngrunnen" />
		<tag k="natural" v="shoal" />
		<tag k="place" v="locality" />
		<tag k="ssr:stedsnr" v="914561" />
	</node>
	<node id="-4025" lat="59.4330861122" lon="10.6137333368">
		<tag k="name" v="Kubberød" />
		<tag k="place" v="farm" />
		<tag k="ssr:stedsnr" v="913000" />
	</node>
	<node id="-4024" lat="59.4495138917" lon="10.7093444388">
		<tag k="name" v="Noretjernet" />
		<tag k="natural" v="water" />
		<tag k="ssr:stedsnr" v="912949" />
	</node>
	<node id="-4023" lat="59.4829833289" lon="10.6483861125">
		<tag k="fixme" v="consider natural=peak for the most distinct mountains in the district" />
		<tag k="name" v="Bjørnåsen" />
		<tag k="natural" v="hill" />
		<tag k="place" v="locality" />
		<tag k="ssr:stedsnr" v="913918" />
	</node>
	<node id="-4022" lat="59.4776095324" lon="10.6922507869">
		<tag k="name" v="Kambo holdeplass" />
		<tag k="railway" v="halt" />
		<tag k="ssr:stedsnr" v="913903" />
		<tag k="train" v="yes" />
	</node>
	<node id="-4021" lat="59.4437194449" lon="10.6834111131">
		<tag k="name" v="Tykkemyr" />
		<tag k="natural" v="wetland" />
		<tag k="ssr:stedsnr" v="906902" />
	</node>
	<node id="-4020" lat="59.4720305555" lon="10.6807083362">
		<tag k="man_made" v="quay" />
		<tag k="name" v="Felleskjøpets kai" />
		<tag k="place" v="locality" />
		<tag k="ssr:stedsnr" v="906740" />
	</node>
	<node id="-4019" lat="59.4826694434" lon="10.656480564">
		<tag k="name" v="Fjellheim" />
		<tag k="place" v="isolated_dwelling" />
		<tag k="ssr:stedsnr" v="905884" />
	</node>
	<node id="-4018" lat="59.4353138847" lon="10.6545888931">
		<tag k="man_made" v="quay" />
		<tag k="name" v="Brynildsens brygge" />
		<tag k="place" v="locality" />
		<tag k="ssr:stedsnr" v="905208" />
	</node>
	<node id="-4017" lat="59.4346138886" lon="10.6530388966">
		<tag k="man_made" v="quay" />
		<tag k="name" v="Østre Kanalbrygga" />
		<tag k="place" v="locality" />
		<tag k="ssr:stedsnr" v="905206" />
	</node>
	<node id="-4016" lat="59.4490166709" lon="10.6554861137">
		<tag k="name" v="Sandgropa" />
		<tag k="natural" v="beach" />
		<tag k="ssr:stedsnr" v="905147" />
		<tag k="surface" v="sand" />
	</node>
	<node id="-4015" lat="59.4286749964" lon="10.685538892">
		<tag k="name" v="Holmen" />
		<tag k="place" v="farm" />
		<tag k="ssr:stedsnr" v="903026" />
	</node>
	<node id="-4014" lat="59.4355805551" lon="10.7249194385">
		<tag k="name" v="Norebukta" />
		<tag k="natural" v="bay" />
		<tag k="ssr:stedsnr" v="902911" />
	</node>
	<node id="-4013" lat="59.4339222189" lon="10.6785166733">
		<tag k="name" v="Gjeddeholmen" />
		<tag k="place" v="islet" />
		<tag k="ssr:stedsnr" v="902881" />
	</node>
	<node id="-4012" lat="59.4744944487" lon="10.6265111178">
		<tag k="name" v="Sørstranda" />
		<tag k="natural" v="beach" />
		<tag k="ssr:stedsnr" v="902811" />
	</node>
	<node id="-4011" lat="59.46825833" lon="10.6424666737">
		<tag k="name" v="Bjørnelabbene" />
		<tag k="natural" v="valley" />
		<tag k="place" v="locality" />
		<tag k="ssr:stedsnr" v="902802" />
	</node>
	<node id="-4010" lat="59.4463861075" lon="10.6253222217">
		<tag k="name" v="Gjerthytta" />
		<tag k="place" v="isolated_dwelling" />
		<tag k="ssr:stedsnr" v="902055" />
	</node>
	<node id="-4009" lat="59.43208889" lon="10.6388444398">
		<tag k="name" v="Grimsrød" />
		<tag k="place" v="farm" />
		<tag k="ssr:stedsnr" v="901896" />
	</node>
	<node id="-4008" lat="59.4183333368" lon="10.7283250067">
		<tag k="name" v="Torvmosen" />
		<tag k="natural" v="wetland" />
		<tag k="ssr:stedsnr" v="901890" />
	</node>
	<node id="-4007" lat="59.437405559" lon="10.6224388884">
		<tag k="alt_name" v="Krosser" />
		<tag k="name" v="Bellevue" />
		<tag k="place" v="locality" />
		<tag k="ssr:stedsnr" v="901888" />
	</node>
	<node id="-4006" lat="59.4116611141" lon="10.7492694383">
		<tag k="name" v="Vierholmen" />
		<tag k="place" v="islet" />
		<tag k="ssr:stedsnr" v="901883" />
	</node>
	<node id="-4005" lat="59.4094138898" lon="10.746688896">
		<tag k="name" v="Bjørkeholmen" />
		<tag k="place" v="islet" />
		<tag k="ssr:stedsnr" v="901882" />
	</node>
	<node id="-4004" lat="59.4131249996" lon="10.7465083354">
		<tag k="name" v="Ospeholmen" />
		<tag k="place" v="islet" />
		<tag k="ssr:stedsnr" v="901875" />
	</node>
	<node id="-4003" lat="59.4210055536" lon="10.666561104">
		<tag k="name" v="Melløs" />
		<tag k="place" v="suburb" />
		<tag k="ssr:stedsnr" v="877103" />
	</node>
	<node id="-4002" lat="59.4351694431" lon="10.6623583348">
		<tag k="amenity" v="place_of_worship" />
		<tag k="denomination" v="lutheran" />
		<tag k="name" v="Moss kirke" />
		<tag k="religion" v="christian" />
		<tag k="ssr:stedsnr" v="876312" />
	</node>
	<node id="-4001" lat="59.4242000039" lon="10.6107333314">
		<tag k="name" v="Alby" />
		<tag k="place" v="farm" />
		<tag k="ssr:stedsnr" v="852986" />
	</node>
	<node id="-4000" lat="59.4236222225" lon="10.6188055501">
		<tag k="name" v="Reierbukta" />
		<tag k="natural" v="bay" />
		<tag k="ssr:stedsnr" v="852985" />
	</node>
	<node id="-3999" lat="59.4240861087" lon="10.6803527764">
		<tag k="name" v="Øre" />
		<tag k="place" v="suburb" />
		<tag k="ssr:stedsnr" v="852981" />
	</node>
	<node id="-3998" lat="59.4183888875" lon="10.5930277734">
		<tag k="name" v="Stalsberget" />
		<tag k="natural" v="cape" />
		<tag k="ssr:stedsnr" v="852970" />
	</node>
	<node id="-3997" lat="59.4559111082" lon="10.6221777837">
		<tag k="alt_name" v="Nebbeberget" />
		<tag k="fixme" v="consider natural=peak for the most distinct mountains in the district" />
		<tag k="name" v="Nebbåsen" />
		<tag k="natural" v="hill" />
		<tag k="place" v="locality" />
		<tag k="ssr:stedsnr" v="852962" />
	</node>
	<node id="-3996" lat="59.4500472193" lon="10.6350916697">
		<tag k="name" v="Jeløya" />
		<tag k="old_name" v="Jeløen" />
		<tag k="place" v="island" />
		<tag k="ssr:stedsnr" v="852938" />
	</node>
	<node id="-3995" lat="59.5056333345" lon="10.6526555504">
		<tag k="alt_name" v="Kolabonn;Kullebunn" />
		<tag k="name" v="Kolabotn" />
		<tag k="place" v="farm" />
		<tag k="ssr:stedsnr" v="852520" />
	</node>
	<node id="-3994" lat="59.4070111146" lon="10.5966527772">
		<tag k="name" v="Stallene" />
		<tag k="natural" v="shoal" />
		<tag k="place" v="locality" />
		<tag k="ssr:stedsnr" v="852503" />
	</node>
	<node id="-3993" lat="59.4778972218" lon="10.6615777691">
		<tag k="name" v="Kjørbukt" />
		<tag k="place" v="isolated_dwelling" />
		<tag k="ssr:stedsnr" v="845895" />
	</node>
	<node id="-3992" lat="59.4272305562" lon="10.6581611181">
		<tag k="man_made" v="quay" />
		<tag k="name" v="Gernerbrygga" />
		<tag k="place" v="locality" />
		<tag k="ssr:stedsnr" v="845221" />
	</node>
	<node id="-3991" lat="59.44374167" lon="10.6506777842">
		<tag k="man_made" v="quay" />
		<tag k="name" v="Rossnesstranda" />
		<tag k="place" v="locality" />
		<tag k="ssr:stedsnr" v="845158" />
	</node>
	<node id="-3990" lat="59.4444333325" lon="10.6549444519">
		<tag k="man_made" v="quay" />
		<tag k="name" v="Rossnesbrygga" />
		<tag k="place" v="locality" />
		<tag k="ssr:stedsnr" v="845151" />
	</node>
	<node id="-3989" lat="59.4349722186" lon="10.7200222204">
		<tag k="name" v="Krokbukta" />
		<tag k="natural" v="bay" />
		<tag k="ssr:stedsnr" v="842899" />
	</node>
	<node id="-3988" lat="59.4221861142" lon="10.6112055602">
		<tag k="name" v="Fiskehytta" />
		<tag k="place" v="isolated_dwelling" />
		<tag k="ssr:stedsnr" v="842769" />
	</node>
	<node id="-3987" lat="59.4183694478" lon="10.6059305643">
		<tag k="name" v="Roligbukt" />
		<tag k="natural" v="bay" />
		<tag k="ssr:stedsnr" v="842768" />
	</node>
	<node id="-3986" lat="59.4200305586" lon="10.7432333276">
		<tag k="name" v="Sørpebukta" />
		<tag k="natural" v="bay" />
		<tag k="ssr:stedsnr" v="842298" />
	</node>
	<node id="-3985" lat="59.4634027751" lon="10.6909027821">
		<tag k="name" v="Åvangen" />
		<tag k="place" v="farm" />
		<tag k="ssr:stedsnr" v="842195" />
	</node>
	<node id="-3984" lat="59.4559444407" lon="10.627402782">
		<tag k="alt_name" v="Ramberg nordre" />
		<tag k="name" v="Nordre Ramberg" />
		<tag k="place" v="farm" />
		<tag k="ssr:stedsnr" v="842181" />
	</node>
	<node id="-3983" lat="59.4478583328" lon="10.7015388878">
		<tag k="name" v="Patterødtjernet" />
		<tag k="natural" v="water" />
		<tag k="ssr:stedsnr" v="842176" />
	</node>
	<node id="-3982" lat="59.4300638927" lon="10.6478277801">
		<tag k="landuse" v="harbour" />
		<tag k="name" v="Fiske båthavn" />
		<tag k="seamark:type" v="harbour" />
		<tag k="ssr:stedsnr" v="841901" />
	</node>
	<node id="-3981" lat="59.4436111112" lon="10.6167388889">
		<tag k="name" v="Refsnes gods" />
		<tag k="ssr:stedsnr" v="841887" />
		<tag k="tourism" v="hotel" />
	</node>
	<node id="-3980" lat="59.493483331" lon="10.6670611182">
		<tag k="name" v="Hesteløkka" />
		<tag k="place" v="farm" />
		<tag k="ssr:stedsnr" v="841851" />
	</node>
	<node id="-3979" lat="59.4356750019" lon="10.6937138908">
		<tag k="name" v="Thorbjørnsrød skanse" />
		<tag k="ssr:stedsnr" v="841587" />
		<tag k="tourism" v="attraction" />
	</node>
	<node id="-3978" lat="59.4352472206" lon="10.6632250052">
		<tag k="amenity" v="school" />
		<tag k="name" v="Kirkeparken videregående skole" />
		<tag k="ssr:stedsnr" v="841079" />
	</node>
	<node id="-3977" lat="59.4264444435" lon="10.6320666588">
		<tag k="amenity" v="school" />
		<tag k="name" v="Jeløy folkehøgskole" />
		<tag k="ssr:stedsnr" v="841075" />
	</node>
	<node id="-3976" lat="59.4357583352" lon="10.6708500066">
		<tag k="bridge" v="yes" />
		<tag k="layer" v="1" />
		<tag k="name" v="Myra" />
		<tag k="ssr:stedsnr" v="835607" />
	</node>
	<node id="-3975" lat="59.4393250013" lon="10.6597749939">
		<tag k="name" v="Sagmuggkanten" />
		<tag k="natural" v="shoal" />
		<tag k="place" v="locality" />
		<tag k="ssr:stedsnr" v="794904" />
	</node>
	<node id="-3974" lat="59.5021499986" lon="10.6670999936">
		<tag k="name" v="Gjøvasundet" />
		<tag k="natural" v="strait" />
		<tag k="ssr:stedsnr" v="793908" />
	</node>
	<node id="-3973" lat="59.4546027798" lon="10.6254527848">
		<tag k="fixme" v="consider place=hamlet" />
		<tag k="name" v="Ramberg" />
		<tag k="place" v="farm" />
		<tag k="ssr:stedsnr" v="791963" />
	</node>
	<node id="-3972" lat="59.4779749995" lon="10.6433277852">
		<tag k="alt_name" v="Ås nordre" />
		<tag k="name" v="Nordre Ås" />
		<tag k="place" v="farm" />
		<tag k="ssr:stedsnr" v="791909" />
	</node>
	<node id="-3971" lat="59.4645666625" lon="10.7568888929">
		<tag k="name" v="Gashus" />
		<tag k="place" v="farm" />
		<tag k="ssr:stedsnr" v="791714" />
	</node>
	<node id="-3970" lat="59.4679565459" lon="10.7248160668">
		<tag k="alt_name" v="Slettmosan;Slettemåsan" />
		<tag k="fixme" v="multiple name tags, choose one and add the other to alt_name" />
		<tag k="name" v="Bikkjemosen;Slettemosen" />
		<tag k="natural" v="wetland" />
		<tag k="ssr:stedsnr" v="791711" />
	</node>
	<node id="-3969" lat="59.438805559" lon="10.7776888883">
		<tag k="name" v="Dillingøy" />
		<tag k="place" v="farm" />
		<tag k="ssr:stedsnr" v="791340" />
	</node>
	<node id="-3968" lat="59.4176222227" lon="10.7481333285">
		<tag k="alt_name" v="Sarpetangen" />
		<tag k="name" v="Sørpetangen" />
		<tag k="natural" v="cape" />
		<tag k="ssr:stedsnr" v="791318" />
	</node>
	<node id="-3967" lat="59.4885833369" lon="10.6426055643">
		<tag k="name" v="Furuodden" />
		<tag k="natural" v="cape" />
		<tag k="ssr:stedsnr" v="786229" />
	</node>
	<node id="-3966" lat="59.4324944464" lon="10.650958325">
		<tag k="name" v="Vestre Kanalområde" />
		<tag k="place" v="suburb" />
		<tag k="ssr:stedsnr" v="784222" />
	</node>
	<node id="-3965" lat="59.4382583301" lon="10.7322694431">
		<tag k="name" v="Vanemdalen" />
		<tag k="place" v="isolated_dwelling" />
		<tag k="ssr:stedsnr" v="781898" />
	</node>
	<node id="-3964" lat="59.4328666634" lon="10.6864000013">
		<tag k="name" v="Krapfoss" />
		<tag k="place" v="suburb" />
		<tag k="ssr:stedsnr" v="781023" />
	</node>
	<node id="-3963" lat="59.4296222225" lon="10.6991944497">
		<tag k="name" v="Nedre Vrangen" />
		<tag k="natural" v="strait" />
		<tag k="ssr:stedsnr" v="781022" />
	</node>
	<node id="-3962" lat="59.4269527819" lon="10.640888894">
		<tag k="alt_name" v="Sjøly" />
		<tag k="landuse" v="harbour" />
		<tag k="name" v="Søly båthavn" />
		<tag k="seamark:type" v="harbour" />
		<tag k="ssr:stedsnr" v="780875" />
	</node>
	<node id="-3961" lat="59.4314277735" lon="10.6464999966">
		<tag k="name" v="Fiske" />
		<tag k="place" v="suburb" />
		<tag k="ssr:stedsnr" v="780873" />
	</node>
	<node id="-3960" lat="59.4337277741" lon="10.7229388804">
		<tag k="name" v="Ridderspranget" />
		<tag k="natural" v="strait" />
		<tag k="ssr:stedsnr" v="780859" />
	</node>
	<node id="-3959" lat="59.4277000024" lon="10.6691138963">
		<tag k="amenity" v="school" />
		<tag k="name" v="Malakoff videregående skole" />
		<tag k="ssr:stedsnr" v="780077" />
	</node>
	<node id="-3958" lat="59.4836499978" lon="10.6860305606">
		<tag k="alt_name" v="Kulpe" />
		<tag k="name" v="Kulpeholmen" />
		<tag k="place" v="islet" />
		<tag k="ssr:stedsnr" v="756882" />
	</node>
	<node id="-3957" lat="59.4829194442" lon="10.6957805521">
		<tag k="name" v="Kambo" />
		<tag k="place" v="village" />
		<tag k="ssr:stedsnr" v="731903" />
	</node>
	<node id="-3956" lat="59.4788250032" lon="10.6067111154">
		<tag k="name" v="Langgrunnen" />
		<tag k="natural" v="shoal" />
		<tag k="place" v="locality" />
		<tag k="ssr:stedsnr" v="731897" />
	</node>
	<node id="-3955" lat="59.4423162175" lon="10.7658932174">
		<tag k="alt_name" v="Vestheim" />
		<tag k="name" v="Vesterheim" />
		<tag k="old_name" v="Dillingøystua;Syverhytten" />
		<tag k="place" v="isolated_dwelling" />
		<tag k="ssr:stedsnr" v="731320" />
	</node>
	<node id="-3954" lat="59.4442813059" lon="10.7054179814">
		<tag k="alt_name" v="Solgård" />
		<tag k="name" v="Patterød" />
		<tag k="place" v="farm" />
		<tag k="ssr:stedsnr" v="730948" />
	</node>
	<node id="-3953" lat="59.4233916639" lon="10.7655944406">
		<tag k="alt_name" v="Store Kvernøy" />
		<tag k="name" v="Store Kvernøya" />
		<tag k="place" v="islet" />
		<tag k="ssr:stedsnr" v="730334" />
	</node>
	<node id="-3952" lat="59.4813833357" lon="10.7828388851">
		<tag k="name" v="Lødengfjorden" />
		<tag k="natural" v="bay" />
		<tag k="ssr:stedsnr" v="731657" />
	</node>
	<node id="-3951" lat="59.4380963572" lon="10.7332375094">
		<tag k="name" v="Greven" />
		<tag k="place" v="locality" />
		<tag k="ssr:stedsnr" v="720903" />
	</node>
	<node id="-3950" lat="59.4346527818" lon="10.6284972276">
		<tag k="amenity" v="school" />
		<tag k="name" v="Hoppern skole" />
		<tag k="ssr:stedsnr" v="720883" />
	</node>
	<node id="-3949" lat="59.4461027796" lon="10.7032305607">
		<tag k="building" v="commercial" />
		<tag k="name" v="Mosseporten senter" />
		<tag k="ssr:stedsnr" v="720207" />
	</node>
	<node id="-3948" lat="59.4285305598" lon="10.7644916594">
		<tag k="name" v="Hattevik" />
		<tag k="place" v="locality" />
		<tag k="ssr:stedsnr" v="719846" />
	</node>
	<node id="-3947" lat="59.4371055571" lon="10.6752527736">
		<tag k="amenity" v="sports_centre" />
		<tag k="name" v="Mossehallen" />
		<tag k="ssr:stedsnr" v="719570" />
	</node>
	<node id="-3946" lat="59.463380558" lon="10.6967944464">
		<tag k="amenity" v="school" />
		<tag k="name" v="Steinerskolen" />
		<tag k="ssr:stedsnr" v="719065" />
	</node>
	<node id="-3945" lat="59.4383861078" lon="10.6742194474">
		<tag k="bridge" v="yes" />
		<tag k="layer" v="1" />
		<tag k="name" v="Mosseelva" />
		<tag k="ssr:stedsnr" v="713609" />
	</node>
	<node id="-3944" lat="59.4218277764" lon="10.5928416731">
		<tag k="fixme" v="consider natural=peak for the most distinct mountains in the district" />
		<tag k="name" v="Rødsåsen" />
		<tag k="natural" v="hill" />
		<tag k="place" v="locality" />
		<tag k="ssr:stedsnr" v="669983" />
	</node>
	<node id="-3943" lat="59.4550694421" lon="10.6353833374">
		<tag k="fixme" v="consider natural=peak for the most distinct mountains in the district" />
		<tag k="name" v="Rambergåsen" />
		<tag k="natural" v="hill" />
		<tag k="place" v="locality" />
		<tag k="ssr:stedsnr" v="669965" />
	</node>
	<node id="-3942" lat="59.4701055525" lon="10.6513750049">
		<tag k="fixme" v="consider place=hamlet" />
		<tag k="name" v="Skallerød" />
		<tag k="place" v="farm" />
		<tag k="ssr:stedsnr" v="669961" />
	</node>
	<node id="-3941" lat="59.4622499994" lon="10.6509277708">
		<tag k="name" v="Kjellandsvik" />
		<tag k="place" v="farm" />
		<tag k="ssr:stedsnr" v="669956" />
	</node>
	<node id="-3940" lat="59.4588138866" lon="10.6627583316">
		<tag k="name" v="Søndre Kjellandsvikskjæra" />
		<tag k="place" v="locality" />
		<tag k="seamark:type" v="rock" />
		<tag k="ssr:stedsnr" v="662141" />
	</node>
	<node id="-3939" lat="59.4803611124" lon="10.7609444407">
		<tag k="name" v="Langemyr" />
		<tag k="natural" v="wetland" />
		<tag k="ssr:stedsnr" v="659884" />
	</node>
	<node id="-3938" lat="59.4600583313" lon="10.6631194414">
		<tag k="fixme" v="consider boundary=protected_area and relevant protect_class if not nature reserve" />
		<tag k="leisure" v="nature_reserve" />
		<tag k="name" v="Eggholmen (Kjeholmen) naturreservat" />
		<tag k="ssr:stedsnr" v="659883" />
	</node>
	<node id="-3937" lat="59.418713893" lon="10.7484527726">
		<tag k="name" v="Vestre Sørpa" />
		<tag k="place" v="locality" />
		<tag k="ssr:stedsnr" v="659329" />
	</node>
	<node id="-3936" lat="59.418713893" lon="10.7484527726">
		<tag k="name" v="Sørpa" />
		<tag k="place" v="locality" />
		<tag k="ssr:stedsnr" v="659327" />
	</node>
	<node id="-3935" lat="59.4294944468" lon="10.630311117">
		<tag k="amenity" v="school" />
		<tag k="name" v="Reier skole" />
		<tag k="ssr:stedsnr" v="658870" />
	</node>
	<node id="-3934" lat="59.4778861136" lon="10.6331555565">
		<tag k="alt_name" v="Nes vestre" />
		<tag k="name" v="Vestre Nes" />
		<tag k="place" v="farm" />
		<tag k="ssr:stedsnr" v="658771" />
	</node>
	<node id="-3933" lat="59.4838055575" lon="10.6347277705">
		<tag k="name" v="Katteberget" />
		<tag k="natural" v="cape" />
		<tag k="ssr:stedsnr" v="658770" />
	</node>
	<node id="-3932" lat="59.4845055551" lon="10.688425007">
		<tag k="name" v="Kulpe" />
		<tag k="place" v="isolated_dwelling" />
		<tag k="ssr:stedsnr" v="658765" />
	</node>
	<node id="-3931" lat="59.4537833306" lon="10.694213895">
		<tag k="amenity" v="school" />
		<tag k="name" v="Grindvold skole" />
		<tag k="ssr:stedsnr" v="658073" />
	</node>
	<node id="-3930" lat="59.43231944" lon="10.6683000002">
		<tag k="amenity" v="school" />
		<tag k="name" v="Bytårnet skole" />
		<tag k="ssr:stedsnr" v="658072" />
	</node>
	<node id="-3929" lat="59.4241499996" lon="10.6694138829">
		<tag k="leisure" v="park" />
		<tag k="name" v="Melløsparken" />
		<tag k="ssr:stedsnr" v="658067" />
	</node>
	<node id="-3928" lat="59.464783337" lon="10.6993583422">
		<tag k="bridge" v="yes" />
		<tag k="layer" v="1" />
		<tag k="name" v="Nøkkeland øst" />
		<tag k="ssr:stedsnr" v="652575" />
	</node>
	<node id="-3927" lat="59.438613891" lon="10.5928722271">
		<tag k="name" v="Hesteberget" />
		<tag k="natural" v="cape" />
		<tag k="ssr:stedsnr" v="634894" />
	</node>
	<node id="-3926" lat="59.4197027748" lon="10.6450111117">
		<tag k="alt_name" v="Værlen" />
		<tag k="name" v="Verlebukta" />
		<tag k="natural" v="bay" />
		<tag k="ssr:stedsnr" v="609983" />
	</node>
	<node id="-3925" lat="59.5127305552" lon="10.6408472292">
		<tag k="name" v="Bevøya" />
		<tag k="place" v="island" />
		<tag k="ssr:stedsnr" v="609495" />
	</node>
	<node id="-3924" lat="59.5109638847" lon="10.6467500057">
		<tag k="name" v="Bevøysundet" />
		<tag k="natural" v="strait" />
		<tag k="ssr:stedsnr" v="609492" />
	</node>
	<node id="-3923" lat="59.5195000015" lon="10.6068805618">
		<tag k="name" v="Storholmgrunnen" />
		<tag k="natural" v="shoal" />
		<tag k="place" v="locality" />
		<tag k="ssr:stedsnr" v="609486" />
	</node>
	<node id="-3922" lat="59.433261107" lon="10.7027222213">
		<tag k="name" v="Torbjørnsrød" />
		<tag k="place" v="farm" />
		<tag k="ssr:stedsnr" v="608995" />
	</node>
	<node id="-3921" lat="59.4488861094" lon="10.6349444359">
		<tag k="name" v="Høyenholm" />
		<tag k="place" v="farm" />
		<tag k="ssr:stedsnr" v="608966" />
	</node>
	<node id="-3920" lat="59.4345919165" lon="10.6000253821">
		<tag k="alt_name" v="Kaseløkka" />
		<tag k="name" v="Charlottenborg" />
		<tag k="place" v="farm" />
		<tag k="ssr:stedsnr" v="608956" />
	</node>
	<node id="-3919" lat="59.4294805552" lon="10.6542694479">
		<tag k="amenity" v="ferry_terminal" />
		<tag k="name" v="Moss ferjekai" />
		<tag k="ssr:stedsnr" v="605709" />
	</node>
	<node id="-3918" lat="59.4879972249" lon="10.6872055562">
		<tag k="name" v="Dragkisteskuffa" />
		<tag k="natural" v="bay" />
		<tag k="ssr:stedsnr" v="601699" />
	</node>
	<node id="-3917" lat="59.4387388869" lon="10.660733334">
		<tag k="man_made" v="quay" />
		<tag k="name" v="Moss Aktiemøllers kai" />
		<tag k="place" v="locality" />
		<tag k="ssr:stedsnr" v="601196" />
	</node>
	<node id="-3916" lat="59.4253333364" lon="10.6574861112">
		<tag k="man_made" v="quay" />
		<tag k="name" v="Fyllinga" />
		<tag k="place" v="locality" />
		<tag k="ssr:stedsnr" v="601190" />
	</node>
	<node id="-3915" lat="59.4219611142" lon="10.6572333357">
		<tag k="name" v="Kleberget" />
		<tag k="place" v="locality" />
		<tag k="ssr:stedsnr" v="599775" />
	</node>
	<node id="-3914" lat="59.4266388887" lon="10.5892944523">
		<tag k="name" v="Kasekilden" />
		<tag k="place" v="isolated_dwelling" />
		<tag k="ssr:stedsnr" v="599770" />
	</node>
	<node id="-3913" lat="59.4367638898" lon="10.5943555517">
		<tag k="man_made" v="tower" />
		<tag k="name" v="Jeløy radio" />
		<tag k="ssr:stedsnr" v="599767" />
		<tag k="tower:type" v="communications" />
	</node>
	<node id="-3912" lat="59.4622777811" lon="10.6651361153">
		<tag k="name" v="Kjellandsviktangen" />
		<tag k="natural" v="cape" />
		<tag k="ssr:stedsnr" v="599202" />
	</node>
	<node id="-3911" lat="59.4456194418" lon="10.650630553">
		<tag k="alt_name" v="Rosnes" />
		<tag k="name" v="Rossnes" />
		<tag k="place" v="farm" />
		<tag k="ssr:stedsnr" v="599184" />
	</node>
	<node id="-3910" lat="59.4436388863" lon="10.668100008">
		<tag k="name" v="Sandbukta" />
		<tag k="natural" v="bay" />
		<tag k="ssr:stedsnr" v="599028" />
	</node>
	<node id="-3909" lat="59.4299722196" lon="10.6902027747">
		<tag k="name" v="Flua" />
		<tag k="natural" v="cape" />
		<tag k="ssr:stedsnr" v="599012" />
	</node>
	<node id="-3908" lat="59.4338833358" lon="10.7228250063">
		<tag k="name" v="Nesa til han Nils" />
		<tag k="place" v="locality" />
		<tag k="ssr:stedsnr" v="598876" />
	</node>
	<node id="-3907" lat="59.41196389" lon="10.729780556">
		<tag k="name" v="Nesengsundet" />
		<tag k="natural" v="strait" />
		<tag k="ssr:stedsnr" v="598871" />
	</node>
	<node id="-3906" lat="59.5099583311" lon="10.6469499988">
		<tag k="name" v="Tangen" />
		<tag k="natural" v="cape" />
		<tag k="ssr:stedsnr" v="598848" />
	</node>
	<node id="-3905" lat="59.4736194415" lon="10.6460805561">
		<tag k="fixme" v="consider natural=peak for the most distinct mountains in the district" />
		<tag k="name" v="Prekestolen" />
		<tag k="natural" v="hill" />
		<tag k="place" v="locality" />
		<tag k="ssr:stedsnr" v="598765" />
	</node>
	<node id="-3904" lat="59.4399111117" lon="10.6195444529">
		<tag k="amenity" v="school" />
		<tag k="name" v="Refsnes skole" />
		<tag k="ssr:stedsnr" v="598075" />
	</node>
	<node id="-3903" lat="59.4284777754" lon="10.6644083362">
		<tag k="name" v="Malakoff" />
		<tag k="place" v="suburb" />
		<tag k="ssr:stedsnr" v="598064" />
	</node>
	<node id="-3902" lat="59.4336027761" lon="10.6587861197">
		<tag k="bridge" v="yes" />
		<tag k="layer" v="1" />
		<tag k="name" v="Fjordvegen" />
		<tag k="ssr:stedsnr" v="592626" />
	</node>
	<node id="-3901" lat="59.4319883823" lon="10.6573504107">
		<tag k="alt_name" v="Moss" />
		<tag k="name" v="Moss stasjon" />
		<tag k="old_name" v="Moss jernbanestasjon" />
		<tag k="railway" v="station" />
		<tag k="ssr:stedsnr" v="579137" />
		<tag k="train" v="yes" />
	</node>
	<node id="-3900" lat="59.4356194448" lon="10.5793527846">
		<tag k="name" v="Gullholmen" />
		<tag k="place" v="island" />
		<tag k="ssr:stedsnr" v="570081" />
	</node>
	<node id="-3899" lat="59.4618333307" lon="10.6815583303">
		<tag k="loc_name" v="Mosseskauen" />
		<tag k="name" v="Mosseskogen" />
		<tag k="place" v="locality" />
		<tag k="ssr:stedsnr" v="548952" />
	</node>
	<node id="-3898" lat="59.4469166641" lon="10.7158111176">
		<tag k="alt_name" v="Nore;Nore nordre" />
		<tag k="name" v="Nordre Nore" />
		<tag k="place" v="farm" />
		<tag k="ssr:stedsnr" v="548949" />
	</node>
	<node id="-3897" lat="59.4406666667" lon="10.6074611091">
		<tag k="alt_name" v="Tronvikbukta" />
		<tag k="name" v="Tronvika" />
		<tag k="natural" v="bay" />
		<tag k="ssr:stedsnr" v="548939" />
	</node>
	<node id="-3896" lat="59.4231861129" lon="10.7507249979">
		<tag k="alt_name" v="Eklund" />
		<tag k="name" v="Ekelund" />
		<tag k="place" v="isolated_dwelling" />
		<tag k="ssr:stedsnr" v="548362" />
	</node>
	<node id="-3895" lat="59.476688892" lon="10.6865166596">
		<tag k="man_made" v="quay" />
		<tag k="name" v="Dyno Industriers kai" />
		<tag k="place" v="locality" />
		<tag k="ssr:stedsnr" v="541730" />
	</node>
	<node id="-3894" lat="59.4234138926" lon="10.6358888814">
		<tag k="name" v="Lilleputt" />
		<tag k="natural" v="beach" />
		<tag k="place" v="locality" />
		<tag k="ssr:stedsnr" v="541189" />
	</node>
	<node id="-3893" lat="59.460252774" lon="10.6639416679">
		<tag k="alt_name" v="Kjeholmen;Skjæret" />
		<tag k="name" v="Eggholmen" />
		<tag k="place" v="islet" />
		<tag k="ssr:stedsnr" v="538878" />
	</node>
	<node id="-3892" lat="59.4363000042" lon="10.5962722157">
		<tag k="name" v="Vangen" />
		<tag k="place" v="farm" />
		<tag k="ssr:stedsnr" v="538793" />
	</node>
	<node id="-3891" lat="59.4657083317" lon="10.7369222176">
		<tag k="name" v="Fuglemosen" />
		<tag k="natural" v="wetland" />
		<tag k="ssr:stedsnr" v="538208" />
	</node>
	<node id="-3890" lat="59.4394388899" lon="10.669286117">
		<tag k="building" v="commercial" />
		<tag k="name" v="Konventionsgården" />
		<tag k="ssr:stedsnr" v="538040" />
	</node>
	<node id="-3889" lat="59.4303666665" lon="10.6734055541">
		<tag k="name" v="Klommesten" />
		<tag k="place" v="suburb" />
		<tag k="ssr:stedsnr" v="538015" />
	</node>
	<node id="-3888" lat="59.43267778" lon="10.6527138817">
		<tag k="name" v="Kanalen" />
		<tag k="ssr:stedsnr" v="537879" />
		<tag k="waterway" v="canal" />
	</node>
	<node id="-3887" lat="59.4210999977" lon="10.7270750002">
		<tag k="name" v="Brånan" />
		<tag k="place" v="locality" />
		<tag k="ssr:stedsnr" v="537866" />
	</node>
	<node id="-3886" lat="59.4215361123" lon="10.7239583333">
		<tag k="alt_name" v="Brånanskjæra;Fiskeskjær" />
		<tag k="name" v="Silleskjæra" />
		<tag k="place" v="islet" />
		<tag k="ssr:stedsnr" v="537863" />
	</node>
	<node id="-3885" lat="59.4563194474" lon="10.7588833414">
		<tag k="bridge" v="yes" />
		<tag k="layer" v="1" />
		<tag k="name" v="Gashus" />
		<tag k="ssr:stedsnr" v="531625" />
	</node>
	<node id="-3884" lat="59.4339222265" lon="10.6556555559">
		<tag k="bridge" v="yes" />
		<tag k="layer" v="1" />
		<tag k="name" v="Rådhusplassen" />
		<tag k="ssr:stedsnr" v="531619" />
	</node>
	<node id="-3883" lat="59.446555552" lon="10.6100083374">
		<tag k="fixme" v="consider seamark:type=rock or natural=shoal" />
		<tag k="name" v="Refsnesrevet" />
		<tag k="place" v="islet" />
		<tag k="ssr:stedsnr" v="513989" />
	</node>
	<node id="-3882" lat="59.4136638881" lon="10.6032111075">
		<tag k="name" v="Skjelgrunnen" />
		<tag k="natural" v="shoal" />
		<tag k="place" v="locality" />
		<tag k="ssr:stedsnr" v="513988" />
	</node>
	<node id="-3881" lat="59.4722583334" lon="10.7736666738">
		<tag k="name" v="Sundet" />
		<tag k="place" v="farm" />
		<tag k="ssr:stedsnr" v="488694" />
	</node>
	<node id="-3880" lat="59.4938638879" lon="10.6441361064">
		<tag k="name" v="Nesbukta" />
		<tag k="natural" v="bay" />
		<tag k="ssr:stedsnr" v="488916" />
	</node>
	<node id="-3879" lat="59.5135611135" lon="10.603999993">
		<tag k="name" v="Lindholmgrunnen" />
		<tag k="natural" v="shoal" />
		<tag k="place" v="locality" />
		<tag k="ssr:stedsnr" v="488512" />
	</node>
	<node id="-3878" lat="59.5001111135" lon="10.658200007">
		<tag k="fixme" v="consider natural=peak for the most distinct mountains in the district" />
		<tag k="name" v="Brattås" />
		<tag k="natural" v="hill" />
		<tag k="place" v="locality" />
		<tag k="ssr:stedsnr" v="488500" />
	</node>
	<node id="-3877" lat="59.4364329311" lon="10.6372894872">
		<tag k="amenity" v="place_of_worship" />
		<tag k="denomination" v="lutheran" />
		<tag k="fixme" v="multiple name tags, choose one and add the other to alt_name" />
		<tag k="name" v="Jeløy kirke;Jeløy" />
		<tag k="religion" v="christian" />
		<tag k="ssr:stedsnr" v="487953" />
	</node>
	<node id="-3876" lat="59.4618444441" lon="10.7653638898">
		<tag k="alt_name" v="Rødsund" />
		<tag k="name" v="Rødsundet" />
		<tag k="natural" v="strait" />
		<tag k="ssr:stedsnr" v="487767" />
	</node>
	<node id="-3875" lat="59.4256111149" lon="10.6196194452">
		<tag k="alt_name" v="Solbærsletta" />
		<tag k="name" v="Solbergsletta" />
		<tag k="place" v="locality" />
		<tag k="ssr:stedsnr" v="480955" />
	</node>
	<node id="-3874" lat="59.4401027788" lon="10.6726500025">
		<tag k="name" v="Sponvika" />
		<tag k="natural" v="bay" />
		<tag k="ssr:stedsnr" v="480730" />
	</node>
	<node id="-3873" lat="59.4517027745" lon="10.733694436">
		<tag k="bridge" v="yes" />
		<tag k="layer" v="1" />
		<tag k="name" v="Vanem" />
		<tag k="ssr:stedsnr" v="471577" />
	</node>
	<node id="-3872" lat="59.4236361135" lon="10.6724888871">
		<tag k="bridge" v="yes" />
		<tag k="layer" v="1" />
		<tag k="name" v="Melløs" />
		<tag k="ssr:stedsnr" v="470580" />
	</node>
	<node id="-3871" lat="59.4792777786" lon="10.6382722226">
		<tag k="alt_name" v="Nes østre" />
		<tag k="name" v="Østre Nes" />
		<tag k="place" v="farm" />
		<tag k="ssr:stedsnr" v="464340" />
	</node>
	<node id="-3870" lat="59.4884694449" lon="10.6862999992">
		<tag k="name" v="Løvikholmen" />
		<tag k="natural" v="cape" />
		<tag k="ssr:stedsnr" v="453874" />
	</node>
	<node id="-3869" lat="59.501591667" lon="10.6473722203">
		<tag k="alt_name" v="Munkestein" />
		<tag k="name" v="Munken" />
		<tag k="natural" v="cape" />
		<tag k="ssr:stedsnr" v="450125" />
	</node>
	<node id="-3868" lat="59.4353361113" lon="10.6479055518">
		<tag k="name" v="Moss verft" />
		<tag k="place" v="quarter" />
		<tag k="ssr:stedsnr" v="480135" />
	</node>
	<node id="-3867" lat="59.4816333365" lon="10.7645055508">
		<tag k="alt_name" v="Enderødmosan" />
		<tag k="name" v="Enderødmosen" />
		<tag k="natural" v="wetland" />
		<tag k="ssr:stedsnr" v="428666" />
	</node>
	<node id="-3866" lat="59.4340166642" lon="10.6576972245">
		<tag k="name" v="Moss" />
		<tag k="place" v="town" />
		<tag k="ssr:stedsnr" v="427982" />
	</node>
	<node id="-3865" lat="59.4472666703" lon="10.6879222238">
		<tag k="name" v="Granli" />
		<tag k="place" v="farm" />
		<tag k="ssr:stedsnr" v="427951" />
	</node>
	<node id="-3864" lat="59.4897305563" lon="10.7014333268">
		<tag k="name" v="Rykkin" />
		<tag k="place" v="isolated_dwelling" />
		<tag k="ssr:stedsnr" v="427896" />
	</node>
	<node id="-3863" lat="59.4424027749" lon="10.7194083417">
		<tag k="alt_name" v="Nore søndre" />
		<tag k="name" v="Søndre Nore" />
		<tag k="place" v="farm" />
		<tag k="ssr:stedsnr" v="427391" />
	</node>
	<node id="-3862" lat="59.422083334" lon="10.6245444372">
		<tag k="man_made" v="quay" />
		<tag k="name" v="Reierbrygga" />
		<tag k="place" v="locality" />
		<tag k="ssr:stedsnr" v="420941" />
	</node>
	<node id="-3861" lat="59.4443194409" lon="10.6240222191">
		<tag k="name" v="Refsnesskogen" />
		<tag k="place" v="quarter" />
		<tag k="ssr:stedsnr" v="420220" />
	</node>
	<node id="-3860" lat="59.4314333331" lon="10.6518083358">
		<tag k="leisure" v="park" />
		<tag k="name" v="Sjøbadet" />
		<tag k="ssr:stedsnr" v="420198" />
	</node>
	<node id="-3859" lat="59.4263527784" lon="10.5885222154">
		<tag k="name" v="Kasekilden" />
		<tag k="natural" v="spring" />
		<tag k="ssr:stedsnr" v="417802" />
	</node>
	<node id="-3858" lat="59.4541638895" lon="10.7638861167">
		<tag k="name" v="Gashustangen" />
		<tag k="natural" v="cape" />
		<tag k="ssr:stedsnr" v="417213" />
	</node>
	<node id="-3857" lat="59.4554499988" lon="10.6972611168">
		<tag k="alt_name" v="Lauersbakåsen" />
		<tag k="fixme" v="consider natural=peak for the most distinct mountains in the district" />
		<tag k="name" v="Skredderåsen" />
		<tag k="natural" v="hill" />
		<tag k="place" v="locality" />
		<tag k="ssr:stedsnr" v="417007" />
	</node>
	<node id="-3856" lat="59.4215750003" lon="10.6753666741">
		<tag k="name" v="Rabekk" />
		<tag k="place" v="locality" />
		<tag k="ssr:stedsnr" v="416875" />
	</node>
	<node id="-3855" lat="59.4343500032" lon="10.6596888949">
		<tag k="amenity" v="townhall" />
		<tag k="name" v="Moss rådhus" />
		<tag k="ssr:stedsnr" v="416868" />
	</node>
	<node id="-3854" lat="59.4426277788" lon="10.650041658">
		<tag k="landuse" v="harbour" />
		<tag k="name" v="Betongen båthavn" />
		<tag k="seamark:type" v="harbour" />
		<tag k="ssr:stedsnr" v="416867" />
	</node>
	<node id="-3853" lat="59.4416166626" lon="10.6283722233">
		<tag k="amenity" v="school" />
		<tag k="name" v="Ramberg skole" />
		<tag k="ssr:stedsnr" v="416860" />
	</node>
	<node id="-3852" lat="59.4689472207" lon="10.6297916651">
		<tag k="fixme" v="consider boundary=protected_area and relevant protect_class if not nature reserve" />
		<tag k="leisure" v="nature_reserve" />
		<tag k="name" v="Rambergbukta naturreservat" />
		<tag k="ssr:stedsnr" v="416827" />
	</node>
	<node id="-3851" lat="59.4825111153" lon="10.6275166688">
		<tag k="name" v="Hellebergene" />
		<tag k="place" v="locality" />
		<tag k="ssr:stedsnr" v="416758" />
	</node>
	<node id="-3850" lat="59.4697444427" lon="10.65141667">
		<tag k="alt_name" v="Skallerød nedre;Søndre Skallerød" />
		<tag k="name" v="Nedre Skallerød" />
		<tag k="place" v="farm" />
		<tag k="ssr:stedsnr" v="416756" />
	</node>
	<node id="-3849" lat="59.4290527785" lon="10.6545833281">
		<tag k="man_made" v="quay" />
		<tag k="name" v="Verlebrygga" />
		<tag k="place" v="locality" />
		<tag k="ssr:stedsnr" v="480054" />
	</node>
	<node id="-3848" lat="59.425649996" lon="10.6930194503">
		<tag k="fixme" v="consider natural=peak for the most distinct mountains in the district" />
		<tag k="name" v="Øreåsen" />
		<tag k="natural" v="hill" />
		<tag k="place" v="locality" />
		<tag k="ssr:stedsnr" v="480044" />
	</node>
	<node id="-3847" lat="59.418416671" lon="10.6013527844">
		<tag k="name" v="Albystranda" />
		<tag k="natural" v="beach" />
		<tag k="place" v="locality" />
		<tag k="ssr:stedsnr" v="249918" />
	</node>
	<node id="-3846" lat="59.4977527778" lon="10.6660694368">
		<tag k="name" v="Bingetangen" />
		<tag k="natural" v="cape" />
		<tag k="ssr:stedsnr" v="247891" />
	</node>
	<node id="-3845" lat="59.4252000042" lon="10.5799833303">
		<tag k="name" v="Sauetogrunnen" />
		<tag k="natural" v="shoal" />
		<tag k="place" v="locality" />
		<tag k="ssr:stedsnr" v="245986" />
	</node>
	<node id="-3844" lat="59.4627722267" lon="10.6708888843">
		<tag k="name" v="Mossesundet" />
		<tag k="natural" v="strait" />
		<tag k="ssr:stedsnr" v="245959" />
	</node>
	<node id="-3843" lat="59.4526749978" lon="10.7094694463">
		<tag k="alt_name" v="Noreødegård" />
		<tag k="name" v="Noreødegården" />
		<tag k="place" v="farm" />
		<tag k="ssr:stedsnr" v="245954" />
	</node>
	<node id="-3842" lat="59.4484583343" lon="10.6900777803">
		<tag k="name" v="Grindvoll" />
		<tag k="place" v="farm" />
		<tag k="ssr:stedsnr" v="245948" />
	</node>
	<node id="-3841" lat="59.4404449521" lon="10.7494265146">
		<tag k="alt_name" v="Vannumfjorden" />
		<tag k="name" v="Vannemfjorden" />
		<tag k="natural" v="bay" />
		<tag k="ssr:stedsnr" v="245357" />
	</node>
	<node id="-3840" lat="59.4585249989" lon="10.6761722174">
		<tag k="name" v="Molbekktjernet" />
		<tag k="natural" v="water" />
		<tag k="ssr:stedsnr" v="240273" />
	</node>
	<node id="-3839" lat="59.4181749968" lon="10.6368694365">
		<tag k="name" v="Grimsrødhausen" />
		<tag k="place" v="locality" />
		<tag k="seamark:type" v="rock" />
		<tag k="ssr:stedsnr" v="238180" />
	</node>
	<node id="-3838" lat="59.4235222227" lon="10.6643249992">
		<tag k="leisure" v="park" />
		<tag k="name" v="Gernerlunden" />
		<tag k="ssr:stedsnr" v="237288" />
	</node>
	<node id="-3837" lat="59.4359055596" lon="10.7260472279">
		<tag k="name" v="Noresletta" />
		<tag k="place" v="locality" />
		<tag k="ssr:stedsnr" v="235898" />
	</node>
	<node id="-3836" lat="59.4221138932" lon="10.6676027707">
		<tag k="amenity" v="school" />
		<tag k="name" v="Melløs skole" />
		<tag k="ssr:stedsnr" v="235791" />
	</node>
	<node id="-3835" lat="59.4411333376" lon="10.7449555638">
		<tag k="fixme" v="consider natural=peak for the most distinct mountains in the district" />
		<tag k="name" v="Slaåsen" />
		<tag k="natural" v="hill" />
		<tag k="place" v="locality" />
		<tag k="ssr:stedsnr" v="235645" />
	</node>
	<node id="-3834" lat="59.4470500021" lon="10.6369055581">
		<tag k="name" v="Orkerød skanse" />
		<tag k="ssr:stedsnr" v="235216" />
		<tag k="tourism" v="attraction" />
	</node>
	<node id="-3833" lat="59.4374666692" lon="10.671622218">
		<tag k="name" v="Myra" />
		<tag k="place" v="locality" />
		<tag k="ssr:stedsnr" v="235035" />
	</node>
	<node id="-3832" lat="59.4344277756" lon="10.6837444495">
		<tag k="fixme" v="consider natural=peak for the most distinct mountains in the district" />
		<tag k="name" v="Skolekollen" />
		<tag k="natural" v="hill" />
		<tag k="place" v="locality" />
		<tag k="ssr:stedsnr" v="235031" />
	</node>
	<node id="-3831" lat="59.437405559" lon="10.6224388884">
		<tag k="name" v="Refsnesila" />
		<tag k="natural" v="spring" />
		<tag k="ssr:stedsnr" v="234899" />
	</node>
	<node id="-3830" lat="59.4899583364" lon="10.6708416601">
		<tag k="name" v="Åpensand" />
		<tag k="place" v="isolated_dwelling" />
		<tag k="ssr:stedsnr" v="234876" />
	</node>
	<node id="-3829" lat="59.4969250016" lon="10.661205562">
		<tag k="name" v="Kongshavntjern" />
		<tag k="natural" v="water" />
		<tag k="ssr:stedsnr" v="234872" />
	</node>
	<node id="-3828" lat="59.4834861071" lon="10.6293444494">
		<tag k="name" v="Signalodden" />
		<tag k="natural" v="cape" />
		<tag k="ssr:stedsnr" v="234804" />
	</node>
	<node id="-3827" lat="59.4182222178" lon="10.7496444518">
		<tag k="alt_name" v="Sørpa østre" />
		<tag k="name" v="Østre Sørpa" />
		<tag k="place" v="locality" />
		<tag k="ssr:stedsnr" v="234313" />
	</node>
	<node id="-3826" lat="59.4260250023" lon="10.6792194495">
		<tag k="leisure" v="pitch" />
		<tag k="name" v="Ørejordet" />
		<tag k="ssr:stedsnr" v="234058" />
	</node>
	<node id="-3825" lat="59.4338111116" lon="10.6529166583">
		<tag k="bridge" v="yes" />
		<tag k="layer" v="1" />
		<tag k="name" v="Moss kanal" />
		<tag k="ssr:stedsnr" v="228647" />
	</node>
	<node id="-3824" lat="59.4214694424" lon="10.767555564">
		<tag k="name" v="Kvernøyhuken" />
		<tag k="place" v="locality" />
		<tag k="ssr:stedsnr" v="223920" />
	</node>
	<node id="-3823" lat="59.456372224" lon="10.6725722186">
		<tag k="name" v="Molbekkoset" />
		<tag k="natural" v="bay" />
		<tag k="ssr:stedsnr" v="187883" />
	</node>
	<node id="-3822" lat="59.4264666673" lon="10.5986249984">
		<tag k="name" v="Rød" />
		<tag k="place" v="farm" />
		<tag k="ssr:stedsnr" v="184978" />
	</node>
	<node id="-3821" lat="59.4526666641" lon="10.6869611028">
		<tag k="name" v="Trolldalen" />
		<tag k="natural" v="valley" />
		<tag k="place" v="locality" />
		<tag k="ssr:stedsnr" v="184944" />
	</node>
	<node id="-3819" lat="59.466775002" lon="10.6365138953">
		<tag k="name" v="Fuglevik" />
		<tag k="place" v="isolated_dwelling" />
		<tag k="ssr:stedsnr" v="184891" />
	</node>
	<node id="-3817" lat="59.4705666685" lon="10.7631000079">
		<tag k="name" v="Dalen" />
		<tag k="place" v="farm" />
		<tag k="ssr:stedsnr" v="184718" />
	</node>
	<node id="-3816" lat="59.4317666651" lon="10.7605111075">
		<tag k="name" v="Dillingøya" />
		<tag k="place" v="island" />
		<tag k="ssr:stedsnr" v="184354" />
	</node>
	<node id="-3815" lat="59.4632166673" lon="10.6780111028">
		<tag k="name" v="Linnebaugen" />
		<tag k="place" v="farm" />
		<tag k="ssr:stedsnr" v="179249" />
	</node>
	<node id="-3814" lat="59.4920722195" lon="10.6763000052">
		<tag k="name" v="Spetalgrunnene" />
		<tag k="natural" v="shoal" />
		<tag k="place" v="locality" />
		<tag k="ssr:stedsnr" v="177663" />
	</node>
	<node id="-3813" lat="59.4368083297" lon="10.6212277738">
		<tag k="name" v="Bergersborg" />
		<tag k="place" v="quarter" />
		<tag k="ssr:stedsnr" v="177217" />
	</node>
	<node id="-3812" lat="59.4296611123" lon="10.6419888972">
		<tag k="name" v="Vårli" />
		<tag k="place" v="isolated_dwelling" />
		<tag k="ssr:stedsnr" v="177042" />
	</node>
	<node id="-3811" lat="59.4355194484" lon="10.5851805638">
		<tag k="name" v="Gullholmsundet" />
		<tag k="natural" v="strait" />
		<tag k="ssr:stedsnr" v="174809" />
	</node>
	<node id="-3810" lat="59.4465055541" lon="10.7557611198">
		<tag k="name" v="Bjørketangen" />
		<tag k="natural" v="cape" />
		<tag k="ssr:stedsnr" v="174241" />
	</node>
	<node id="-3809" lat="59.4531388931" lon="10.6731000063">
		<tag k="fixme" v="consider natural=peak for the most distinct mountains in the district" />
		<tag k="name" v="Vardås" />
		<tag k="natural" v="hill" />
		<tag k="place" v="locality" />
		<tag k="ssr:stedsnr" v="174225" />
	</node>
	<node id="-3808" lat="59.4768083363" lon="10.6609611088">
		<tag k="name" v="Kjørbukta" />
		<tag k="natural" v="bay" />
		<tag k="ssr:stedsnr" v="173762" />
	</node>
	<node id="-3807" lat="59.4727138866" lon="10.6959583297">
		<tag k="name" v="Kambobekken" />
		<tag k="ssr:stedsnr" v="173761" />
		<tag k="waterway" v="stream" />
	</node>
	<node id="-3806" lat="59.4306500015" lon="10.667336116">
		<tag k="fixme" v="consider place=suburb, village or hamlet" />
		<tag k="name" v="Skarmyra" />
		<tag k="place" v="quarter" />
		<tag k="ssr:stedsnr" v="173061" />
	</node>
	<node id="-3805" lat="59.4688083301" lon="10.6253888897">
		<tag k="name" v="Flantorsk" />
		<tag k="place" v="islet" />
		<tag k="ssr:stedsnr" v="149885" />
	</node>
	<node id="-3804" lat="59.5068972203" lon="10.631188897">
		<tag k="name" v="Pipergrunnen" />
		<tag k="natural" v="shoal" />
		<tag k="place" v="locality" />
		<tag k="ssr:stedsnr" v="149779" />
	</node>
	<node id="-3803" lat="59.4761472196" lon="10.6459222177">
		<tag k="alt_name" v="Ås søndre" />
		<tag k="name" v="Søndre Ås" />
		<tag k="place" v="farm" />
		<tag k="ssr:stedsnr" v="124904" />
	</node>
	<node id="-3802" lat="59.4872361129" lon="10.6582583358">
		<tag k="name" v="Renneflot" />
		<tag k="place" v="farm" />
		<tag k="ssr:stedsnr" v="124898" />
	</node>
	<node id="-3801" lat="59.4478499994" lon="10.7465166659">
		<tag k="alt_name" v="Vannum;Vanem" />
		<tag k="name" v="Vannem" />
		<tag k="place" v="farm" />
		<tag k="ssr:stedsnr" v="124315" />
	</node>
	<node id="-3800" lat="59.4699361137" lon="10.6418944456">
		<tag k="name" v="Røre" />
		<tag k="place" v="farm" />
		<tag k="ssr:stedsnr" v="123968" />
	</node>
	<node id="-3799" lat="59.4636222209" lon="10.7322611086">
		<tag k="alt_name" v="Vanemtjernet" />
		<tag k="name" v="Vannemtjernet" />
		<tag k="natural" v="water" />
		<tag k="ssr:stedsnr" v="123744" />
	</node>
	<node id="-3798" lat="59.438933331" lon="10.6694888848">
		<tag k="name" v="Cellulosefabrikker" />
		<tag k="place" v="quarter" />
		<tag k="ssr:stedsnr" v="116157" />
	</node>
	<node id="-3797" lat="59.4169555592" lon="10.6041916677">
		<tag k="fixme" v="consider seamark:type=rock or natural=shoal" />
		<tag k="name" v="Albyskjæra" />
		<tag k="place" v="islet" />
		<tag k="ssr:stedsnr" v="116947" />
	</node>
	<node id="-3796" lat="59.4540388881" lon="10.6260055539">
		<tag k="alt_name" v="Ramberg søndre" />
		<tag k="name" v="Søndre Ramberg" />
		<tag k="place" v="farm" />
		<tag k="ssr:stedsnr" v="114182" />
	</node>
	<node id="-3795" lat="59.42950556" lon="10.682336118">
		<tag k="name" v="Ørehavna" />
		<tag k="place" v="suburb" />
		<tag k="ssr:stedsnr" v="114025" />
	</node>
	<node id="-3794" lat="59.4303333288" lon="10.6941361158">
		<tag k="name" v="Vepsen" />
		<tag k="natural" v="cape" />
		<tag k="ssr:stedsnr" v="114019" />
	</node>
	<node id="-3793" lat="59.4307972192" lon="10.6776750028">
		<tag k="fixme" v="consider natural=peak for the most distinct mountains in the district" />
		<tag k="name" v="Blåbæråsen" />
		<tag k="natural" v="hill" />
		<tag k="place" v="locality" />
		<tag k="ssr:stedsnr" v="114010" />
	</node>
	<node id="-3792" lat="59.4668055569" lon="10.6416916699">
		<tag k="name" v="Fuglevik" />
		<tag k="place" v="farm" />
		<tag k="ssr:stedsnr" v="113785" />
	</node>
	<node id="-3791" lat="59.4332138861" lon="10.6818138935">
		<tag k="amenity" v="school" />
		<tag k="name" v="Krapfoss skole" />
		<tag k="ssr:stedsnr" v="113071" />
	</node>
	<node id="-3790" lat="59.4267583335" lon="10.6858833345">
		<tag k="name" v="Ørebukta" />
		<tag k="natural" v="bay" />
		<tag k="ssr:stedsnr" v="113062" />
	</node>
	<node id="-3789" lat="59.4532805518" lon="10.7508749923">
		<tag k="bridge" v="yes" />
		<tag k="layer" v="1" />
		<tag k="name" v="Rød" />
		<tag k="ssr:stedsnr" v="107601" />
	</node>
	<node id="-3788" lat="59.4705472215" lon="10.603549996">
		<tag k="name" v="Rambergkrakken" />
		<tag k="natural" v="shoal" />
		<tag k="place" v="locality" />
		<tag k="ssr:stedsnr" v="89865" />
	</node>
	<node id="-3787" lat="59.4948805541" lon="10.664480558">
		<tag k="alt_name" v="Kongshamn" />
		<tag k="name" v="Kongshavn" />
		<tag k="place" v="locality" />
		<tag k="ssr:stedsnr" v="89774" />
	</node>
	<node id="-3785" lat="59.4354527737" lon="10.6782222228">
		<tag k="name" v="Neset" />
		<tag k="natural" v="cape" />
		<tag k="ssr:stedsnr" v="65911" />
	</node>
	<node id="-3784" lat="59.4174833329" lon="10.598924996">
		<tag k="alt_name" v="Bredbukt;Bredebukt" />
		<tag k="name" v="Breidbukta" />
		<tag k="natural" v="bay" />
		<tag k="ssr:stedsnr" v="63978" />
	</node>
	<node id="-3783" lat="59.4687000014" lon="10.6941111033">
		<tag k="name" v="Nøkkeland" />
		<tag k="place" v="farm" />
		<tag k="ssr:stedsnr" v="63967" />
	</node>
	<node id="-3782" lat="59.4470722266" lon="10.6136055602">
		<tag k="name" v="Refsnes" />
		<tag k="place" v="suburb" />
		<tag k="ssr:stedsnr" v="63960" />
	</node>
	<node id="-3781" lat="59.4657672665" lon="10.6284286723">
		<tag k="alt_name" v="Fuglevikbukta" />
		<tag k="name" v="Rambergbukta" />
		<tag k="natural" v="bay" />
		<tag k="ssr:stedsnr" v="63906" />
	</node>
	<node id="-3780" lat="59.5074416665" lon="10.6285027718">
		<tag k="name" v="Bile" />
		<tag k="place" v="islet" />
		<tag k="ssr:stedsnr" v="63545" />
	</node>
	<node id="-3779" lat="59.5020055554" lon="10.6562222293">
		<tag k="name" v="Nordre Jeløya" />
		<tag k="place" v="island" />
		<tag k="ssr:stedsnr" v="63542" />
	</node>
	<node id="-3778" lat="59.4137749958" lon="10.7297444502">
		<tag k="name" v="Nesenga" />
		<tag k="place" v="farm" />
		<tag k="ssr:stedsnr" v="63347" />
	</node>
	<node id="-3777" lat="59.3872166677" lon="10.855947216">
		<tag k="alt_name" v="Vannsjø" />
		<tag k="name" v="Vansjø" />
		<tag k="natural" v="water" />
		<tag k="ssr:stedsnr" v="63316" />
		<tag k="water" v="lake" />
	</node>
	<node id="-3776" lat="59.4384416663" lon="10.632222214">
		<tag k="alt_name" v="Karlshus" />
		<tag k="name" v="Fjeldly" />
		<tag k="place" v="isolated_dwelling" />
		<tag k="ssr:stedsnr" v="60352" />
	</node>
	<node id="-3775" lat="59.4454638921" lon="10.6756666675">
		<tag k="name" v="Verket" />
		<tag k="place" v="quarter" />
		<tag k="ssr:stedsnr" v="56909" />
	</node>
	<node id="-3774" lat="59.4721361122" lon="10.6941444501">
		<tag k="name" v="Skoleåsen" />
		<tag k="place" v="quarter" />
		<tag k="ssr:stedsnr" v="56647" />
	</node>
	<node id="-3773" lat="59.4853722257" lon="10.6422916596">
		<tag k="name" v="Nesskogen" />
		<tag k="place" v="locality" />
		<tag k="ssr:stedsnr" v="56629" />
	</node>
	<node id="-3772" lat="59.4349111136" lon="10.651500008">
		<tag k="man_made" v="quay" />
		<tag k="name" v="Vestre Kanalbrygga" />
		<tag k="place" v="locality" />
		<tag k="ssr:stedsnr" v="56199" />
	</node>
	<node id="-3771" lat="59.435719448" lon="10.6494777756">
		<tag k="man_made" v="quay" />
		<tag k="name" v="Hesselbergbrygga" />
		<tag k="place" v="locality" />
		<tag k="ssr:stedsnr" v="55214" />
	</node>
	<node id="-3770" lat="59.4348750004" lon="10.7496583304">
		<tag k="name" v="Mossebukta" />
		<tag k="natural" v="bay" />
		<tag k="ssr:stedsnr" v="53912" />
	</node>
	<node id="-3769" lat="59.4719500035" lon="10.7262277856">
		<tag k="name" v="Tremannsdelet" />
		<tag k="place" v="locality" />
		<tag k="ssr:stedsnr" v="53892" />
	</node>
	<node id="-3768" lat="59.4207666704" lon="10.6711333281">
		<tag k="leisure" v="pitch" />
		<tag k="name" v="Melløs stadion" />
		<tag k="ssr:stedsnr" v="53807" />
	</node>
	<node id="-3767" lat="59.448850003" lon="10.7341333308">
		<tag k="fixme" v="consider natural=peak for the most distinct mountains in the district" />
		<tag k="name" v="Merraåsen" />
		<tag k="natural" v="hill" />
		<tag k="place" v="locality" />
		<tag k="ssr:stedsnr" v="53215" />
	</node>
	<node id="-3766" lat="59.4659555567" lon="10.7467638866">
		<tag k="fixme" v="consider natural=peak for the most distinct mountains in the district" />
		<tag k="name" v="Svartås" />
		<tag k="natural" v="hill" />
		<tag k="place" v="locality" />
		<tag k="ssr:stedsnr" v="53214" />
	</node>
	<node id="-3765" lat="59.4631944421" lon="10.7260444432">
		<tag k="amenity" v="cafe" />
		<tag k="name" v="Skihytta" />
		<tag k="ssr:stedsnr" v="53212" />
	</node>
	<node id="-3764" lat="59.4315805591" lon="10.7136083256">
		<tag k="name" v="Båten" />
		<tag k="natural" v="cape" />
		<tag k="ssr:stedsnr" v="53041" />
	</node>
	<node id="-3763" lat="59.4152222178" lon="10.7462833334">
		<tag k="name" v="Katthuet" />
		<tag k="place" v="islet" />
		<tag k="ssr:stedsnr" v="52876" />
	</node>
	<node id="-3762" lat="59.4688111129" lon="10.6824527739">
		<tag k="alt_name" v="Kilsås" />
		<tag k="fixme" v="consider natural=peak for the most distinct mountains in the district" />
		<tag k="name" v="Mølleåsen" />
		<tag k="natural" v="hill" />
		<tag k="place" v="locality" />
		<tag k="ssr:stedsnr" v="52749" />
	</node>
	<node id="-3761" lat="59.4426694421" lon="10.7288611149">
		<tag k="name" v="Dalemyra" />
		<tag k="natural" v="wetland" />
		<tag k="ssr:stedsnr" v="52567" />
	</node>
	<node id="-3760" lat="59.4655833298" lon="10.69959167">
		<tag k="bridge" v="yes" />
		<tag k="layer" v="1" />
		<tag k="name" v="Nøkkeland vest" />
		<tag k="ssr:stedsnr" v="46633" />
	</node>
	<node id="-3759" lat="59.4406277735" lon="10.7055388893">
		<tag k="bridge" v="yes" />
		<tag k="layer" v="1" />
		<tag k="name" v="Patterød vest" />
		<tag k="ssr:stedsnr" v="46631" />
	</node>
	<node id="-3758" lat="59.4447666681" lon="10.6844055563">
		<tag k="bridge" v="yes" />
		<tag k="layer" v="1" />
		<tag k="name" v="Tigerplassen" />
		<tag k="ssr:stedsnr" v="46628" />
	</node>
	<node id="-3757" lat="59.4596861149" lon="10.6191666585">
		<tag k="name" v="Rambergnebba" />
		<tag k="natural" v="cape" />
		<tag k="ssr:stedsnr" v="28133" />
	</node>
	<node id="-3756" lat="59.4835333349" lon="10.7530888948">
		<tag k="fixme" v="consider natural=peak for the most distinct mountains in the district" />
		<tag k="name" v="Skaran" />
		<tag k="natural" v="hill" />
		<tag k="place" v="locality" />
		<tag k="ssr:stedsnr" v="3658" />
	</node>
	<node id="-3755" lat="59.4879611095" lon="10.7769500046">
		<tag k="name" v="Kolsrød" />
		<tag k="place" v="farm" />
		<tag k="ssr:stedsnr" v="3653" />
	</node>
	<node id="-3754" lat="59.5268694402" lon="10.623125001">
		<tag k="name" v="Bevøykollen" />
		<tag k="natural" v="shoal" />
		<tag k="place" v="locality" />
		<tag k="ssr:stedsnr" v="3498" />
	</node>
	<node id="-3753" lat="59.5053861121" lon="10.6032249944">
		<tag k="name" v="Bilekrakken" />
		<tag k="natural" v="shoal" />
		<tag k="place" v="locality" />
		<tag k="ssr:stedsnr" v="3478" />
	</node>
	<node id="-3752" lat="59.4388416681" lon="10.6646888877">
		<tag k="name" v="Mosseelva" />
		<tag k="ssr:stedsnr" v="2995" />
		<tag k="waterway" v="river" />
	</node>
	<node id="-3751" lat="59.4377333297" lon="10.6046805579">
		<tag k="alt_name" v="Tronvik" />
		<tag k="name" v="Tronvika" />
		<tag k="place" v="farm" />
		<tag k="ssr:stedsnr" v="2933" />
	</node>
	<node id="-3750" lat="59.4190999957" lon="10.7607166684">
		<tag k="alt_name" v="Lille Kvernøy" />
		<tag k="name" v="Lille Kvernøya" />
		<tag k="place" v="islet" />
		<tag k="ssr:stedsnr" v="2358" />
	</node>
	<node id="-3749" lat="59.4402258874" lon="10.756209327">
		<tag k="name" v="Havnahuken" />
		<tag k="place" v="locality" />
		<tag k="ssr:stedsnr" v="988108" />
	</node>
	<node id="-3748" lat="59.4352227245" lon="10.651489046">
		<tag k="man_made" v="quay" />
		<tag k="name" v="Vestre Kanalkai" />
		<tag k="place" v="locality" />
		<tag k="ssr:stedsnr" v="987540" />
	</node>
	<node id="-3747" lat="59.4348090767" lon="10.6528484353">
		<tag k="man_made" v="quay" />
		<tag k="name" v="Tollbubrygga" />
		<tag k="place" v="locality" />
		<tag k="ssr:stedsnr" v="987539" />
	</node>
	<node id="-3746" lat="59.4332778537" lon="10.6527638275">
		<tag k="man_made" v="quay" />
		<tag k="name" v="Gjestebrygga" />
		<tag k="place" v="locality" />
		<tag k="ssr:stedsnr" v="987538" />
	</node>
	<node id="-3745" lat="59.4514450461" lon="10.6392068223">
		<tag k="fixme" v="consider boundary=protected_area and relevant protect_class if not nature reserve" />
		<tag k="leisure" v="nature_reserve" />
		<tag k="name" v="Orkerødskogen naturreservat" />
		<tag k="ssr:stedsnr" v="985573" />
	</node>
	<node id="-3744" lat="59.4466805558" lon="10.7110722183">
		<tag k="bridge" v="yes" />
		<tag k="layer" v="1" />
		<tag k="name" v="Nore" />
		<tag k="ssr:stedsnr" v="896621" />
	</node>
	<node id="-3743" lat="59.4745944406" lon="10.7020694372">
		<tag k="bridge" v="yes" />
		<tag k="layer" v="1" />
		<tag k="name" v="Ungerholt vest" />
		<tag k="ssr:stedsnr" v="896614" />
	</node>
	<node id="-3737" lat="59.419194442" lon="10.681683339">
		<tag k="name" v="Høyden" />
		<tag k="place" v="quarter" />
		<tag k="ssr:stedsnr" v="477824" />
	</node>
	<node id="-3736" lat="59.4269472244" lon="10.6363583272">
		<tag k="name" v="Framnes" />
		<tag k="place" v="suburb" />
		<tag k="ssr:stedsnr" v="476888" />
	</node>
	<node id="-3735" lat="59.4274750035" lon="10.746808329">
		<tag k="name" v="Torvstrømosen" />
		<tag k="natural" v="wetland" />
		<tag k="ssr:stedsnr" v="476867" />
	</node>
	<node id="-3734" lat="59.4890444406" lon="10.6444138948">
		<tag k="name" v="Kuskjærbukta" />
		<tag k="natural" v="bay" />
		<tag k="ssr:stedsnr" v="476836" />
	</node>
	<node id="-3733" lat="59.4716277759" lon="10.6495666678">
		<tag k="alt_name" v="Skallerød øvre" />
		<tag k="name" v="Øvre Skallerød" />
		<tag k="place" v="farm" />
		<tag k="ssr:stedsnr" v="476785" />
	</node>
	<node id="-3732" lat="59.4387833296" lon="10.6817555562">
		<tag k="name" v="Tollertangen" />
		<tag k="natural" v="cape" />
		<tag k="ssr:stedsnr" v="476600" />
	</node>
	<node id="-3731" lat="59.4408888861" lon="10.6855805511">
		<tag k="fixme" v="consider place=suburb, village or hamlet" />
		<tag k="name" v="Gjerrebogen" />
		<tag k="place" v="quarter" />
		<tag k="ssr:stedsnr" v="476599" />
	</node>
	<node id="-3729" lat="59.4745777796" lon="10.6936583388">
		<tag k="bridge" v="yes" />
		<tag k="layer" v="1" />
		<tag k="name" v="Kambo" />
		<tag k="ssr:stedsnr" v="410596" />
	</node>
	<node id="-3728" lat="59.4453944482" lon="10.7036250048">
		<tag k="bridge" v="yes" />
		<tag k="layer" v="1" />
		<tag k="name" v="Mosseporten" />
		<tag k="ssr:stedsnr" v="410594" />
	</node>
	<node id="-3727" lat="59.4734972202" lon="10.7017666649">
		<tag k="bridge" v="yes" />
		<tag k="layer" v="1" />
		<tag k="name" v="Ungerholt øst" />
		<tag k="ssr:stedsnr" v="410590" />
	</node>
	<node id="-3726" lat="59.434058329" lon="10.6573166729">
		<tag k="bridge" v="yes" />
		<tag k="layer" v="1" />
		<tag k="name" v="Værlegata" />
		<tag k="ssr:stedsnr" v="410589" />
	</node>
	<node id="-3724" lat="59.4768944428" lon="10.7787722227">
		<tag k="name" v="Enderød" />
		<tag k="place" v="farm" />
		<tag k="ssr:stedsnr" v="367690" />
	</node>
	<node id="-3723" lat="59.4320583299" lon="10.6201694461">
		<tag k="name" v="Reier" />
		<tag k="place" v="farm" />
		<tag k="ssr:stedsnr" v="366998" />
	</node>
	<node id="-3722" lat="59.429150004" lon="10.6064194476">
		<tag k="name" v="Grønli" />
		<tag k="place" v="farm" />
		<tag k="ssr:stedsnr" v="366995" />
	</node>
	<node id="-3721" lat="59.4306472257" lon="10.5942249995">
		<tag k="name" v="Kase" />
		<tag k="place" v="farm" />
		<tag k="ssr:stedsnr" v="366994" />
	</node>
	<node id="-3720" lat="59.4196583301" lon="10.629325008">
		<tag k="name" v="Reiertangen" />
		<tag k="natural" v="cape" />
		<tag k="ssr:stedsnr" v="366977" />
	</node>
	<node id="-3719" lat="59.4522499995" lon="10.6984361035">
		<tag k="fixme" v="multiple name tags, choose one and add the other to alt_name" />
		<tag k="name" v="Lauersbakken;Solbakken" />
		<tag k="place" v="farm" />
		<tag k="ssr:stedsnr" v="366945" />
	</node>
	<node id="-3718" lat="59.4774499957" lon="10.6333194478">
		<tag k="fixme" v="consider place=hamlet" />
		<tag k="name" v="Nes" />
		<tag k="place" v="farm" />
		<tag k="ssr:stedsnr" v="366894" />
	</node>
	<node id="-3717" lat="59.4273250028" lon="10.6355666595">
		<tag k="name" v="Solbakken" />
		<tag k="natural" v="slope" />
		<tag k="place" v="locality" />
		<tag k="ssr:stedsnr" v="359197" />
	</node>
	<node id="-3716" lat="59.4279777734" lon="10.6315944457">
		<tag k="name" v="Bråten" />
		<tag k="place" v="isolated_dwelling" />
		<tag k="ssr:stedsnr" v="359169" />
	</node>
	<node id="-3715" lat="59.4574305534" lon="10.6802833247">
		<tag k="fixme" v="consider highway=path" />
		<tag k="highway" v="track" />
		<tag k="name" v="Gamlevegen" />
		<tag k="ssr:stedsnr" v="356215" />
	</node>
	<node id="-3714" lat="59.4615972258" lon="10.6294222169">
		<tag k="name" v="Katrinestua" />
		<tag k="place" v="isolated_dwelling" />
		<tag k="ssr:stedsnr" v="356207" />
	</node>
	<node id="-3713" lat="59.4504333314" lon="10.672755556">
		<tag k="fixme" v="consider natural=peak for the most distinct mountains in the district" />
		<tag k="name" v="Røysås" />
		<tag k="natural" v="hill" />
		<tag k="place" v="locality" />
		<tag k="ssr:stedsnr" v="356205" />
	</node>
	<node id="-3712" lat="59.44858056" lon="10.6149666586">
		<tag k="name" v="Refsnesbukta" />
		<tag k="natural" v="bay" />
		<tag k="ssr:stedsnr" v="356058" />
	</node>
	<node id="-3711" lat="59.4333805514" lon="10.6390666592">
		<tag k="name" v="Helgerød" />
		<tag k="place" v="farm" />
		<tag k="ssr:stedsnr" v="355881" />
	</node>
	<node id="-3710" lat="59.4444000039" lon="10.6463722164">
		<tag k="name" v="Krossern" />
		<tag k="place" v="suburb" />
		<tag k="ssr:stedsnr" v="355868" />
	</node>
	<node id="-3709" lat="59.4798194456" lon="10.6966305591">
		<tag k="name" v="Kambo" />
		<tag k="place" v="farm" />
		<tag k="ssr:stedsnr" v="355751" />
	</node>
	<node id="-3708" lat="59.4862611125" lon="10.6747555617">
		<tag k="name" v="Kippenes" />
		<tag k="natural" v="cape" />
		<tag k="ssr:stedsnr" v="355745" />
	</node>
	<node id="-3707" lat="59.430280556" lon="10.7378194502">
		<tag k="name" v="Årvollfjorden" />
		<tag k="natural" v="water" />
		<tag k="ssr:stedsnr" v="355089" />
	</node>
	<node id="-3706" lat="59.4348250002" lon="10.6391194385">
		<tag k="amenity" v="school" />
		<tag k="name" v="Liljedalen skole" />
		<tag k="ssr:stedsnr" v="355073" />
	</node>
	<node id="-3705" lat="59.5066666697" lon="10.6536166719">
		<tag k="name" v="Hvittingbukta" />
		<tag k="natural" v="bay" />
		<tag k="ssr:stedsnr" v="331876" />
	</node>
	<node id="-3704" lat="59.4640999991" lon="10.5703222273">
		<tag k="name" v="Trollgrunnen" />
		<tag k="natural" v="shoal" />
		<tag k="place" v="locality" />
		<tag k="ssr:stedsnr" v="331873" />
	</node>
	<node id="-3703" lat="59.4332333341" lon="10.6300861147">
		<tag k="alt_name" v="Hoppern" />
		<tag k="name" v="Hopperen" />
		<tag k="place" v="suburb" />
		<tag k="ssr:stedsnr" v="331838" />
	</node>
	<node id="-3702" lat="59.4339194476" lon="10.5719277772">
		<tag k="name" v="Gullholmkrakken" />
		<tag k="natural" v="shoal" />
		<tag k="place" v="locality" />
		<tag k="ssr:stedsnr" v="331774" />
	</node>
	<node id="-3701" lat="59.4453999969" lon="10.7016111031">
		<tag k="junction" v="yes" />
		<tag k="name" v="Patterød" />
		<tag k="place" v="locality" />
		<tag k="ssr:stedsnr" v="328078" />
	</node>
	<node id="-3700" lat="59.4106555521" lon="10.7499166665">
		<tag k="name" v="Vestfjorden" />
		<tag k="natural" v="water" />
		<tag k="ssr:stedsnr" v="313844" />
	</node>
	<node id="-3699" lat="59.5044083322" lon="10.6624388844">
		<tag k="name" v="Høkesetodden" />
		<tag k="natural" v="cape" />
		<tag k="ssr:stedsnr" v="308899" />
	</node>
	<node id="-3698" lat="59.4871500009" lon="10.606099995">
		<tag k="name" v="Neskrakken" />
		<tag k="natural" v="shoal" />
		<tag k="place" v="locality" />
		<tag k="ssr:stedsnr" v="306925" />
	</node>
	<node id="-3697" lat="59.4813138926" lon="10.6308583365">
		<tag k="name" v="Alfheim" />
		<tag k="place" v="farm" />
		<tag k="ssr:stedsnr" v="306910" />
	</node>
	<node id="-3696" lat="59.4697361133" lon="10.7704138825">
		<tag k="alt_name" v="Grinnn" />
		<tag k="name" v="Grind" />
		<tag k="place" v="farm" />
		<tag k="ssr:stedsnr" v="306677" />
	</node>
	<node id="-3695" lat="59.4456749963" lon="10.6367472181">
		<tag k="name" v="Orkerød" />
		<tag k="place" v="farm" />
		<tag k="ssr:stedsnr" v="305963" />
	</node>
	<node id="-3694" lat="59.4443805582" lon="10.6463722237">
		<tag k="name" v="Rossnes" />
		<tag k="place" v="quarter" />
		<tag k="ssr:stedsnr" v="305958" />
	</node>
	<node id="-3693" lat="59.4463277793" lon="10.6582999999">
		<tag k="alt_name" v="Rosnestangen" />
		<tag k="name" v="Rossnestangen" />
		<tag k="natural" v="cape" />
		<tag k="ssr:stedsnr" v="305959" />
	</node>
	<node id="-3691" lat="59.4473749994" lon="10.6129861125">
		<tag k="name" v="Refsnestangen" />
		<tag k="natural" v="cape" />
		<tag k="ssr:stedsnr" v="56213" />
	</node>
	<node id="-3690" lat="59.4689416672" lon="10.6875611109">
		<tag k="name" v="Kilsbakken" />
		<tag k="natural" v="slope" />
		<tag k="place" v="locality" />
		<tag k="ssr:stedsnr" v="299730" />
	</node>
	<node id="-3689" lat="59.4801249991" lon="10.6867055637">
		<tag k="man_made" v="quay" />
		<tag k="name" v="Norsk Gulfs kai" />
		<tag k="place" v="locality" />
		<tag k="ssr:stedsnr" v="299731" />
	</node>
	<node id="-3688" lat="59.4200361079" lon="10.6294694388">
		<tag k="name" v="Bråtenskogen" />
		<tag k="place" v="locality" />
		<tag k="ssr:stedsnr" v="298912" />
	</node>
	<node id="-3687" lat="59.4362916666" lon="10.6568388891">
		<tag k="man_made" v="quay" />
		<tag k="name" v="Sundbrygga" />
		<tag k="place" v="locality" />
		<tag k="ssr:stedsnr" v="298198" />
	</node>
	<node id="-3686" lat="59.4220027736" lon="10.6345861071">
		<tag k="name" v="Baden-Baden" />
		<tag k="natural" v="beach" />
		<tag k="place" v="locality" />
		<tag k="ssr:stedsnr" v="298174" />
	</node>
	<node id="-3685" lat="59.4296027807" lon="10.7081138889">
		<tag k="name" v="Øvre Vrangen" />
		<tag k="natural" v="strait" />
		<tag k="ssr:stedsnr" v="296013" />
	</node>
	<node id="-3684" lat="59.4327388879" lon="10.597408327">
		<tag k="fixme" v="consider boundary=protected_area and relevant protect_class if not nature reserve" />
		<tag k="leisure" v="nature_reserve" />
		<tag k="name" v="Søndre Jeløy naturreservat" />
		<tag k="ssr:stedsnr" v="295904" />
	</node>
	<node id="-3683" lat="59.4952527786" lon="10.6635277752">
		<tag k="name" v="Kongshavn" />
		<tag k="place" v="farm" />
		<tag k="ssr:stedsnr" v="295868" />
	</node>
	<node id="-3682" lat="59.4783583361" lon="10.68728889">
		<tag k="fixme" v="consider natural=peak for the most distinct mountains in the district" />
		<tag k="name" v="Stokkås" />
		<tag k="natural" v="hill" />
		<tag k="place" v="locality" />
		<tag k="ssr:stedsnr" v="295799" />
	</node>
	<node id="-3681" lat="59.4363249975" lon="10.695422222">
		<tag k="fixme" v="consider natural=peak for the most distinct mountains in the district" />
		<tag k="name" v="Bjørnåsen" />
		<tag k="natural" v="hill" />
		<tag k="place" v="locality" />
		<tag k="ssr:stedsnr" v="295618" />
	</node>
	<node id="-3680" lat="59.436638887" lon="10.676799999">
		<tag k="leisure" v="park" />
		<tag k="name" v="Nesparken" />
		<tag k="ssr:stedsnr" v="295614" />
	</node>
	<node id="-3679" lat="59.4614722217" lon="10.7373027763">
		<tag k="name" v="Traphytta" />
		<tag k="place" v="isolated_dwelling" />
		<tag k="ssr:stedsnr" v="295221" />
	</node>
	<node id="-3678" lat="59.4446666674" lon="10.678961117">
		<tag k="amenity" v="school" />
		<tag k="name" v="Verket skole" />
		<tag k="ssr:stedsnr" v="295075" />
	</node>
	<node id="-3677" lat="59.4456361082" lon="10.6883722202">
		<tag k="bridge" v="yes" />
		<tag k="layer" v="1" />
		<tag k="name" v="Mossebakken" />
		<tag k="ssr:stedsnr" v="289639" />
	</node>
	<node id="-3676" lat="59.4765388901" lon="10.6882749994">
		<tag k="name" v="Kambobukta" />
		<tag k="natural" v="bay" />
		<tag k="ssr:stedsnr" v="271894" />
	</node>
	<node id="-3675" lat="59.4978111097" lon="10.651802778">
		<tag k="name" v="Singelbukta" />
		<tag k="natural" v="bay" />
		<tag k="ssr:stedsnr" v="271816" />
	</node>
	<node id="-3674" lat="59.4641777744" lon="10.6598944461">
		<tag k="name" v="Kjellandsvikbukta" />
		<tag k="natural" v="bay" />
		<tag k="ssr:stedsnr" v="271815" />
	</node>
</osm>
