<?xml version="1.0" encoding="UTF-8"?>
<osm generator="osmapis" version="0.6">
	<node id="-3684" lat="59.4327388879" lon="10.597408327">
		<tag k="fixme" v="consider boundary=protected_area and relevant protect_class if not nature reserve" />
		<tag k="leisure" v="nature_reserve" />
		<tag k="name" v="Søndre Jeløy naturreservat" />
		<tag k="ssr:stedsnr" v="295904" />
	</node>
	<node id="-3852" lat="59.4689472207" lon="10.6297916651">
		<tag k="fixme" v="consider boundary=protected_area and relevant protect_class if not nature reserve" />
		<tag k="leisure" v="nature_reserve" />
		<tag k="name" v="Rambergbukta naturreservat" />
		<tag k="ssr:stedsnr" v="416827" />
	</node>
	<node id="-3938" lat="59.4600583313" lon="10.6631194414">
		<tag k="fixme" v="consider boundary=protected_area and relevant protect_class if not nature reserve" />
		<tag k="leisure" v="nature_reserve" />
		<tag k="name" v="Eggholmen (Kjeholmen) naturreservat" />
		<tag k="ssr:stedsnr" v="659883" />
	</node>
	<node id="-3745" lat="59.4514450461" lon="10.6392068223">
		<tag k="fixme" v="consider boundary=protected_area and relevant protect_class if not nature reserve" />
		<tag k="leisure" v="nature_reserve" />
		<tag k="name" v="Orkerødskogen naturreservat" />
		<tag k="ssr:stedsnr" v="985573" />
	</node>
</osm>
