<?xml version="1.0" encoding="UTF-8"?>
<osm generator="osmapis" version="0.6">
	<node id="-3902" lat="59.4803611124" lon="10.7609444407">
		<tag k="name" v="Langemyr" />
		<tag k="natural" v="wetland" />
		<tag k="ssr:stedsnr" v="659884" />
	</node>
	<node id="-3933" lat="59.4679565459" lon="10.7248160668">
		<tag k="alt_name" v="Slettmosan;Slettemåsan" />
		<tag k="fixme" v="multiple name tags, choose one and add the other to alt_name" />
		<tag k="name" v="Bikkjemosen;Slettemosen" />
		<tag k="natural" v="wetland" />
		<tag k="ssr:stedsnr" v="791711" />
	</node>
	<node id="-3994" lat="59.4262888855" lon="10.6273361068">
		<tag k="name" v="Reierskogen" />
		<tag k="place" v="locality" />
		<tag k="ssr:stedsnr" v="962883" />
	</node>
	<node id="-3737" lat="59.4853722257" lon="10.6422916596">
		<tag k="name" v="Nesskogen" />
		<tag k="place" v="locality" />
		<tag k="ssr:stedsnr" v="56629" />
	</node>
	<node id="-3992" lat="59.4406833288" lon="10.6145722303">
		<tag k="name" v="Tronvikskogen" />
		<tag k="place" v="locality" />
		<tag k="ssr:stedsnr" v="962879" />
	</node>
	<node id="-3862" lat="59.4618333307" lon="10.6815583303">
		<tag k="loc_name" v="Mosseskauen" />
		<tag k="name" v="Mosseskogen" />
		<tag k="place" v="locality" />
		<tag k="ssr:stedsnr" v="548952" />
	</node>
	<node id="-3699" lat="59.4274750035" lon="10.746808329">
		<tag k="name" v="Torvstrømosen" />
		<tag k="natural" v="wetland" />
		<tag k="ssr:stedsnr" v="476867" />
	</node>
	<node id="-3984" lat="59.4437194449" lon="10.6834111131">
		<tag k="name" v="Tykkemyr" />
		<tag k="natural" v="wetland" />
		<tag k="ssr:stedsnr" v="906902" />
	</node>
	<node id="-3854" lat="59.4657083317" lon="10.7369222176">
		<tag k="name" v="Fuglemosen" />
		<tag k="natural" v="wetland" />
		<tag k="ssr:stedsnr" v="538208" />
	</node>
	<node id="-3725" lat="59.4426694421" lon="10.7288611149">
		<tag k="name" v="Dalemyra" />
		<tag k="natural" v="wetland" />
		<tag k="ssr:stedsnr" v="52567" />
	</node>
	<node id="-3979" lat="59.4490166709" lon="10.6554861137">
		<tag k="name" v="Sandgropa" />
		<tag k="natural" v="beach" />
		<tag k="ssr:stedsnr" v="905147" />
		<tag k="surface" v="sand" />
	</node>
	<node id="-3830" lat="59.4816333365" lon="10.7645055508">
		<tag k="alt_name" v="Enderødmosan" />
		<tag k="name" v="Enderødmosen" />
		<tag k="natural" v="wetland" />
		<tag k="ssr:stedsnr" v="428666" />
	</node>
	<node id="-3652" lat="59.4200361079" lon="10.6294694388">
		<tag k="name" v="Bråtenskogen" />
		<tag k="place" v="locality" />
		<tag k="ssr:stedsnr" v="298912" />
	</node>
	<node id="-3971" lat="59.4183333368" lon="10.7283250067">
		<tag k="name" v="Torvmosen" />
		<tag k="natural" v="wetland" />
		<tag k="ssr:stedsnr" v="901890" />
	</node>
</osm>
