<?xml version="1.0" encoding="UTF-8"?>
<osm generator="osmapis" version="0.6">
	<node id="-3833" lat="59.4374666692" lon="10.671622218">
		<tag k="name" v="Myra" />
		<tag k="place" v="locality" />
		<tag k="ssr:stedsnr" v="235035" />
	</node>
	<node id="-3834" lat="59.4470500021" lon="10.6369055581">
		<tag k="name" v="Orkerød skanse" />
		<tag k="ssr:stedsnr" v="235216" />
		<tag k="tourism" v="attraction" />
	</node>
	<node id="-3887" lat="59.4210999977" lon="10.7270750002">
		<tag k="name" v="Brånan" />
		<tag k="place" v="locality" />
		<tag k="ssr:stedsnr" v="537866" />
	</node>
	<node id="-3769" lat="59.4719500035" lon="10.7262277856">
		<tag k="name" v="Tremannsdelet" />
		<tag k="place" v="locality" />
		<tag k="ssr:stedsnr" v="53892" />
	</node>
	<node id="-3856" lat="59.4215750003" lon="10.6753666741">
		<tag k="name" v="Rabekk" />
		<tag k="place" v="locality" />
		<tag k="ssr:stedsnr" v="416875" />
	</node>
	<node id="-3951" lat="59.4380963572" lon="10.7332375094">
		<tag k="name" v="Greven" />
		<tag k="place" v="locality" />
		<tag k="ssr:stedsnr" v="720903" />
	</node>
	<node id="-3948" lat="59.4285305598" lon="10.7644916594">
		<tag k="name" v="Hattevik" />
		<tag k="place" v="locality" />
		<tag k="ssr:stedsnr" v="719846" />
	</node>
	<node id="-3979" lat="59.4356750019" lon="10.6937138908">
		<tag k="name" v="Thorbjørnsrød skanse" />
		<tag k="ssr:stedsnr" v="841587" />
		<tag k="tourism" v="attraction" />
	</node>
	<node id="-4007" lat="59.437405559" lon="10.6224388884">
		<tag k="alt_name" v="Krosser" />
		<tag k="name" v="Bellevue" />
		<tag k="place" v="locality" />
		<tag k="ssr:stedsnr" v="901888" />
	</node>
	<node id="-3877" lat="59.4364329311" lon="10.6372894872">
		<tag k="amenity" v="place_of_worship" />
		<tag k="denomination" v="lutheran" />
		<tag k="fixme" v="multiple name tags, choose one and add the other to alt_name" />
		<tag k="name" v="Jeløy kirke;Jeløy" />
		<tag k="religion" v="christian" />
		<tag k="ssr:stedsnr" v="487953" />
	</node>
	<node id="-4035" lat="59.4785388858" lon="10.7419222276">
		<tag k="name" v="Kjerringbakk" />
		<tag k="place" v="locality" />
		<tag k="ssr:stedsnr" v="963891" />
	</node>
	<node id="-4002" lat="59.4351694431" lon="10.6623583348">
		<tag k="amenity" v="place_of_worship" />
		<tag k="denomination" v="lutheran" />
		<tag k="name" v="Moss kirke" />
		<tag k="religion" v="christian" />
		<tag k="ssr:stedsnr" v="876312" />
	</node>
	<node id="-3915" lat="59.4219611142" lon="10.6572333357">
		<tag k="name" v="Kleberget" />
		<tag k="place" v="locality" />
		<tag k="ssr:stedsnr" v="599775" />
	</node>
</osm>
