<?xml version="1.0" encoding="UTF-8"?>
<osm generator="osmapis" version="0.6">
	<node id="-4041" lat="59.4586163185" lon="10.6964708908">
		<tag k="amenity" v="school" />
		<tag k="name" v="Åvangen skole" />
		<tag k="ssr:stedsnr" v="976102" />
	</node>
	<node id="-4036" lat="59.4371999993" lon="10.6351944492">
		<tag k="name" v="Bellevue" />
		<tag k="place" v="suburb" />
		<tag k="ssr:stedsnr" v="965163" />
	</node>
	<node id="-4034" lat="59.4494972247" lon="10.6936666633">
		<tag k="name" v="Grindvoll" />
		<tag k="place" v="suburb" />
		<tag k="ssr:stedsnr" v="963221" />
	</node>
	<node id="-4032" lat="59.4350944444" lon="10.6362388808">
		<tag k="name" v="Torderød" />
		<tag k="place" v="farm" />
		<tag k="ssr:stedsnr" v="962888" />
	</node>
	<node id="-4027" lat="59.4689194464" lon="10.6914777853">
		<tag k="amenity" v="school" />
		<tag k="name" v="Kambo skole" />
		<tag k="ssr:stedsnr" v="962069" />
	</node>
	<node id="-4025" lat="59.4330861122" lon="10.6137333368">
		<tag k="name" v="Kubberød" />
		<tag k="place" v="farm" />
		<tag k="ssr:stedsnr" v="913000" />
	</node>
	<node id="-4019" lat="59.4826694434" lon="10.656480564">
		<tag k="name" v="Fjellheim" />
		<tag k="place" v="isolated_dwelling" />
		<tag k="ssr:stedsnr" v="905884" />
	</node>
	<node id="-4015" lat="59.4286749964" lon="10.685538892">
		<tag k="name" v="Holmen" />
		<tag k="place" v="farm" />
		<tag k="ssr:stedsnr" v="903026" />
	</node>
	<node id="-4010" lat="59.4463861075" lon="10.6253222217">
		<tag k="name" v="Gjerthytta" />
		<tag k="place" v="isolated_dwelling" />
		<tag k="ssr:stedsnr" v="902055" />
	</node>
	<node id="-4009" lat="59.43208889" lon="10.6388444398">
		<tag k="name" v="Grimsrød" />
		<tag k="place" v="farm" />
		<tag k="ssr:stedsnr" v="901896" />
	</node>
	<node id="-4003" lat="59.4210055536" lon="10.666561104">
		<tag k="name" v="Melløs" />
		<tag k="place" v="suburb" />
		<tag k="ssr:stedsnr" v="877103" />
	</node>
	<node id="-4001" lat="59.4242000039" lon="10.6107333314">
		<tag k="name" v="Alby" />
		<tag k="place" v="farm" />
		<tag k="ssr:stedsnr" v="852986" />
	</node>
	<node id="-3999" lat="59.4240861087" lon="10.6803527764">
		<tag k="name" v="Øre" />
		<tag k="place" v="suburb" />
		<tag k="ssr:stedsnr" v="852981" />
	</node>
	<node id="-3995" lat="59.5056333345" lon="10.6526555504">
		<tag k="alt_name" v="Kolabonn;Kullebunn" />
		<tag k="name" v="Kolabotn" />
		<tag k="place" v="farm" />
		<tag k="ssr:stedsnr" v="852520" />
	</node>
	<node id="-3993" lat="59.4778972218" lon="10.6615777691">
		<tag k="name" v="Kjørbukt" />
		<tag k="place" v="isolated_dwelling" />
		<tag k="ssr:stedsnr" v="845895" />
	</node>
	<node id="-3988" lat="59.4221861142" lon="10.6112055602">
		<tag k="name" v="Fiskehytta" />
		<tag k="place" v="isolated_dwelling" />
		<tag k="ssr:stedsnr" v="842769" />
	</node>
	<node id="-3985" lat="59.4634027751" lon="10.6909027821">
		<tag k="name" v="Åvangen" />
		<tag k="place" v="farm" />
		<tag k="ssr:stedsnr" v="842195" />
	</node>
	<node id="-3984" lat="59.4559444407" lon="10.627402782">
		<tag k="alt_name" v="Ramberg nordre" />
		<tag k="name" v="Nordre Ramberg" />
		<tag k="place" v="farm" />
		<tag k="ssr:stedsnr" v="842181" />
	</node>
	<node id="-3981" lat="59.4436111112" lon="10.6167388889">
		<tag k="name" v="Refsnes gods" />
		<tag k="ssr:stedsnr" v="841887" />
		<tag k="tourism" v="hotel" />
	</node>
	<node id="-3980" lat="59.493483331" lon="10.6670611182">
		<tag k="name" v="Hesteløkka" />
		<tag k="place" v="farm" />
		<tag k="ssr:stedsnr" v="841851" />
	</node>
	<node id="-3978" lat="59.4352472206" lon="10.6632250052">
		<tag k="amenity" v="school" />
		<tag k="name" v="Kirkeparken videregående skole" />
		<tag k="ssr:stedsnr" v="841079" />
	</node>
	<node id="-3977" lat="59.4264444435" lon="10.6320666588">
		<tag k="amenity" v="school" />
		<tag k="name" v="Jeløy folkehøgskole" />
		<tag k="ssr:stedsnr" v="841075" />
	</node>
	<node id="-3973" lat="59.4546027798" lon="10.6254527848">
		<tag k="fixme" v="consider place=hamlet" />
		<tag k="name" v="Ramberg" />
		<tag k="place" v="farm" />
		<tag k="ssr:stedsnr" v="791963" />
	</node>
	<node id="-3972" lat="59.4779749995" lon="10.6433277852">
		<tag k="alt_name" v="Ås nordre" />
		<tag k="name" v="Nordre Ås" />
		<tag k="place" v="farm" />
		<tag k="ssr:stedsnr" v="791909" />
	</node>
	<node id="-3971" lat="59.4645666625" lon="10.7568888929">
		<tag k="name" v="Gashus" />
		<tag k="place" v="farm" />
		<tag k="ssr:stedsnr" v="791714" />
	</node>
	<node id="-3969" lat="59.438805559" lon="10.7776888883">
		<tag k="name" v="Dillingøy" />
		<tag k="place" v="farm" />
		<tag k="ssr:stedsnr" v="791340" />
	</node>
	<node id="-3966" lat="59.4324944464" lon="10.650958325">
		<tag k="name" v="Vestre Kanalområde" />
		<tag k="place" v="suburb" />
		<tag k="ssr:stedsnr" v="784222" />
	</node>
	<node id="-3965" lat="59.4382583301" lon="10.7322694431">
		<tag k="name" v="Vanemdalen" />
		<tag k="place" v="isolated_dwelling" />
		<tag k="ssr:stedsnr" v="781898" />
	</node>
	<node id="-3964" lat="59.4328666634" lon="10.6864000013">
		<tag k="name" v="Krapfoss" />
		<tag k="place" v="suburb" />
		<tag k="ssr:stedsnr" v="781023" />
	</node>
	<node id="-3961" lat="59.4314277735" lon="10.6464999966">
		<tag k="name" v="Fiske" />
		<tag k="place" v="suburb" />
		<tag k="ssr:stedsnr" v="780873" />
	</node>
	<node id="-3959" lat="59.4277000024" lon="10.6691138963">
		<tag k="amenity" v="school" />
		<tag k="name" v="Malakoff videregående skole" />
		<tag k="ssr:stedsnr" v="780077" />
	</node>
	<node id="-3957" lat="59.4829194442" lon="10.6957805521">
		<tag k="name" v="Kambo" />
		<tag k="place" v="village" />
		<tag k="ssr:stedsnr" v="731903" />
	</node>
	<node id="-3955" lat="59.4423162175" lon="10.7658932174">
		<tag k="alt_name" v="Vestheim" />
		<tag k="name" v="Vesterheim" />
		<tag k="old_name" v="Dillingøystua;Syverhytten" />
		<tag k="place" v="isolated_dwelling" />
		<tag k="ssr:stedsnr" v="731320" />
	</node>
	<node id="-3954" lat="59.4442813059" lon="10.7054179814">
		<tag k="alt_name" v="Solgård" />
		<tag k="name" v="Patterød" />
		<tag k="place" v="farm" />
		<tag k="ssr:stedsnr" v="730948" />
	</node>
	<node id="-3950" lat="59.4346527818" lon="10.6284972276">
		<tag k="amenity" v="school" />
		<tag k="name" v="Hoppern skole" />
		<tag k="ssr:stedsnr" v="720883" />
	</node>
	<node id="-3949" lat="59.4461027796" lon="10.7032305607">
		<tag k="building" v="commercial" />
		<tag k="name" v="Mosseporten senter" />
		<tag k="ssr:stedsnr" v="720207" />
	</node>
	<node id="-3947" lat="59.4371055571" lon="10.6752527736">
		<tag k="amenity" v="sports_centre" />
		<tag k="name" v="Mossehallen" />
		<tag k="ssr:stedsnr" v="719570" />
	</node>
	<node id="-3946" lat="59.463380558" lon="10.6967944464">
		<tag k="amenity" v="school" />
		<tag k="name" v="Steinerskolen" />
		<tag k="ssr:stedsnr" v="719065" />
	</node>
	<node id="-3942" lat="59.4701055525" lon="10.6513750049">
		<tag k="fixme" v="consider place=hamlet" />
		<tag k="name" v="Skallerød" />
		<tag k="place" v="farm" />
		<tag k="ssr:stedsnr" v="669961" />
	</node>
	<node id="-3941" lat="59.4622499994" lon="10.6509277708">
		<tag k="name" v="Kjellandsvik" />
		<tag k="place" v="farm" />
		<tag k="ssr:stedsnr" v="669956" />
	</node>
	<node id="-3937" lat="59.418713893" lon="10.7484527726">
		<tag k="name" v="Vestre Sørpa" />
		<tag k="place" v="locality" />
		<tag k="ssr:stedsnr" v="659329" />
	</node>
	<node id="-3936" lat="59.418713893" lon="10.7484527726">
		<tag k="name" v="Sørpa" />
		<tag k="place" v="locality" />
		<tag k="ssr:stedsnr" v="659327" />
	</node>
	<node id="-3935" lat="59.4294944468" lon="10.630311117">
		<tag k="amenity" v="school" />
		<tag k="name" v="Reier skole" />
		<tag k="ssr:stedsnr" v="658870" />
	</node>
	<node id="-3934" lat="59.4778861136" lon="10.6331555565">
		<tag k="alt_name" v="Nes vestre" />
		<tag k="name" v="Vestre Nes" />
		<tag k="place" v="farm" />
		<tag k="ssr:stedsnr" v="658771" />
	</node>
	<node id="-3932" lat="59.4845055551" lon="10.688425007">
		<tag k="name" v="Kulpe" />
		<tag k="place" v="isolated_dwelling" />
		<tag k="ssr:stedsnr" v="658765" />
	</node>
	<node id="-3931" lat="59.4537833306" lon="10.694213895">
		<tag k="amenity" v="school" />
		<tag k="name" v="Grindvold skole" />
		<tag k="ssr:stedsnr" v="658073" />
	</node>
	<node id="-3930" lat="59.43231944" lon="10.6683000002">
		<tag k="amenity" v="school" />
		<tag k="name" v="Bytårnet skole" />
		<tag k="ssr:stedsnr" v="658072" />
	</node>
	<node id="-3929" lat="59.4241499996" lon="10.6694138829">
		<tag k="leisure" v="park" />
		<tag k="name" v="Melløsparken" />
		<tag k="ssr:stedsnr" v="658067" />
	</node>
	<node id="-3922" lat="59.433261107" lon="10.7027222213">
		<tag k="name" v="Torbjørnsrød" />
		<tag k="place" v="farm" />
		<tag k="ssr:stedsnr" v="608995" />
	</node>
	<node id="-3921" lat="59.4488861094" lon="10.6349444359">
		<tag k="name" v="Høyenholm" />
		<tag k="place" v="farm" />
		<tag k="ssr:stedsnr" v="608966" />
	</node>
	<node id="-3920" lat="59.4345919165" lon="10.6000253821">
		<tag k="alt_name" v="Kaseløkka" />
		<tag k="name" v="Charlottenborg" />
		<tag k="place" v="farm" />
		<tag k="ssr:stedsnr" v="608956" />
	</node>
	<node id="-3914" lat="59.4266388887" lon="10.5892944523">
		<tag k="name" v="Kasekilden" />
		<tag k="place" v="isolated_dwelling" />
		<tag k="ssr:stedsnr" v="599770" />
	</node>
	<node id="-3911" lat="59.4456194418" lon="10.650630553">
		<tag k="alt_name" v="Rosnes" />
		<tag k="name" v="Rossnes" />
		<tag k="place" v="farm" />
		<tag k="ssr:stedsnr" v="599184" />
	</node>
	<node id="-3904" lat="59.4399111117" lon="10.6195444529">
		<tag k="amenity" v="school" />
		<tag k="name" v="Refsnes skole" />
		<tag k="ssr:stedsnr" v="598075" />
	</node>
	<node id="-3903" lat="59.4284777754" lon="10.6644083362">
		<tag k="name" v="Malakoff" />
		<tag k="place" v="suburb" />
		<tag k="ssr:stedsnr" v="598064" />
	</node>
	<node id="-3898" lat="59.4469166641" lon="10.7158111176">
		<tag k="alt_name" v="Nore;Nore nordre" />
		<tag k="name" v="Nordre Nore" />
		<tag k="place" v="farm" />
		<tag k="ssr:stedsnr" v="548949" />
	</node>
	<node id="-3896" lat="59.4231861129" lon="10.7507249979">
		<tag k="alt_name" v="Eklund" />
		<tag k="name" v="Ekelund" />
		<tag k="place" v="isolated_dwelling" />
		<tag k="ssr:stedsnr" v="548362" />
	</node>
	<node id="-3892" lat="59.4363000042" lon="10.5962722157">
		<tag k="name" v="Vangen" />
		<tag k="place" v="farm" />
		<tag k="ssr:stedsnr" v="538793" />
	</node>
	<node id="-3890" lat="59.4394388899" lon="10.669286117">
		<tag k="building" v="commercial" />
		<tag k="name" v="Konventionsgården" />
		<tag k="ssr:stedsnr" v="538040" />
	</node>
	<node id="-3889" lat="59.4303666665" lon="10.6734055541">
		<tag k="name" v="Klommesten" />
		<tag k="place" v="suburb" />
		<tag k="ssr:stedsnr" v="538015" />
	</node>
	<node id="-3881" lat="59.4722583334" lon="10.7736666738">
		<tag k="name" v="Sundet" />
		<tag k="place" v="farm" />
		<tag k="ssr:stedsnr" v="488694" />
	</node>
	<node id="-3871" lat="59.4792777786" lon="10.6382722226">
		<tag k="alt_name" v="Nes østre" />
		<tag k="name" v="Østre Nes" />
		<tag k="place" v="farm" />
		<tag k="ssr:stedsnr" v="464340" />
	</node>
	<node id="-3868" lat="59.4353361113" lon="10.6479055518">
		<tag k="name" v="Moss verft" />
		<tag k="place" v="quarter" />
		<tag k="ssr:stedsnr" v="480135" />
	</node>
	<node id="-3866" lat="59.4340166642" lon="10.6576972245">
		<tag k="name" v="Moss" />
		<tag k="place" v="town" />
		<tag k="ssr:stedsnr" v="427982" />
	</node>
	<node id="-3865" lat="59.4472666703" lon="10.6879222238">
		<tag k="name" v="Granli" />
		<tag k="place" v="farm" />
		<tag k="ssr:stedsnr" v="427951" />
	</node>
	<node id="-3864" lat="59.4897305563" lon="10.7014333268">
		<tag k="name" v="Rykkin" />
		<tag k="place" v="isolated_dwelling" />
		<tag k="ssr:stedsnr" v="427896" />
	</node>
	<node id="-3863" lat="59.4424027749" lon="10.7194083417">
		<tag k="alt_name" v="Nore søndre" />
		<tag k="name" v="Søndre Nore" />
		<tag k="place" v="farm" />
		<tag k="ssr:stedsnr" v="427391" />
	</node>
	<node id="-3861" lat="59.4443194409" lon="10.6240222191">
		<tag k="name" v="Refsnesskogen" />
		<tag k="place" v="quarter" />
		<tag k="ssr:stedsnr" v="420220" />
	</node>
	<node id="-3860" lat="59.4314333331" lon="10.6518083358">
		<tag k="leisure" v="park" />
		<tag k="name" v="Sjøbadet" />
		<tag k="ssr:stedsnr" v="420198" />
	</node>
	<node id="-3855" lat="59.4343500032" lon="10.6596888949">
		<tag k="amenity" v="townhall" />
		<tag k="name" v="Moss rådhus" />
		<tag k="ssr:stedsnr" v="416868" />
	</node>
	<node id="-3853" lat="59.4416166626" lon="10.6283722233">
		<tag k="amenity" v="school" />
		<tag k="name" v="Ramberg skole" />
		<tag k="ssr:stedsnr" v="416860" />
	</node>
	<node id="-3850" lat="59.4697444427" lon="10.65141667">
		<tag k="alt_name" v="Skallerød nedre;Søndre Skallerød" />
		<tag k="name" v="Nedre Skallerød" />
		<tag k="place" v="farm" />
		<tag k="ssr:stedsnr" v="416756" />
	</node>
	<node id="-3843" lat="59.4526749978" lon="10.7094694463">
		<tag k="alt_name" v="Noreødegård" />
		<tag k="name" v="Noreødegården" />
		<tag k="place" v="farm" />
		<tag k="ssr:stedsnr" v="245954" />
	</node>
	<node id="-3842" lat="59.4484583343" lon="10.6900777803">
		<tag k="name" v="Grindvoll" />
		<tag k="place" v="farm" />
		<tag k="ssr:stedsnr" v="245948" />
	</node>
	<node id="-3838" lat="59.4235222227" lon="10.6643249992">
		<tag k="leisure" v="park" />
		<tag k="name" v="Gernerlunden" />
		<tag k="ssr:stedsnr" v="237288" />
	</node>
	<node id="-3836" lat="59.4221138932" lon="10.6676027707">
		<tag k="amenity" v="school" />
		<tag k="name" v="Melløs skole" />
		<tag k="ssr:stedsnr" v="235791" />
	</node>
	<node id="-3830" lat="59.4899583364" lon="10.6708416601">
		<tag k="name" v="Åpensand" />
		<tag k="place" v="isolated_dwelling" />
		<tag k="ssr:stedsnr" v="234876" />
	</node>
	<node id="-3827" lat="59.4182222178" lon="10.7496444518">
		<tag k="alt_name" v="Sørpa østre" />
		<tag k="name" v="Østre Sørpa" />
		<tag k="place" v="locality" />
		<tag k="ssr:stedsnr" v="234313" />
	</node>
	<node id="-3826" lat="59.4260250023" lon="10.6792194495">
		<tag k="leisure" v="pitch" />
		<tag k="name" v="Ørejordet" />
		<tag k="ssr:stedsnr" v="234058" />
	</node>
	<node id="-3824" lat="59.4214694424" lon="10.767555564">
		<tag k="name" v="Kvernøyhuken" />
		<tag k="place" v="locality" />
		<tag k="ssr:stedsnr" v="223920" />
	</node>
	<node id="-3822" lat="59.4264666673" lon="10.5986249984">
		<tag k="name" v="Rød" />
		<tag k="place" v="farm" />
		<tag k="ssr:stedsnr" v="184978" />
	</node>
	<node id="-3819" lat="59.466775002" lon="10.6365138953">
		<tag k="name" v="Fuglevik" />
		<tag k="place" v="isolated_dwelling" />
		<tag k="ssr:stedsnr" v="184891" />
	</node>
	<node id="-3817" lat="59.4705666685" lon="10.7631000079">
		<tag k="name" v="Dalen" />
		<tag k="place" v="farm" />
		<tag k="ssr:stedsnr" v="184718" />
	</node>
	<node id="-3815" lat="59.4632166673" lon="10.6780111028">
		<tag k="name" v="Linnebaugen" />
		<tag k="place" v="farm" />
		<tag k="ssr:stedsnr" v="179249" />
	</node>
	<node id="-3813" lat="59.4368083297" lon="10.6212277738">
		<tag k="name" v="Bergersborg" />
		<tag k="place" v="quarter" />
		<tag k="ssr:stedsnr" v="177217" />
	</node>
	<node id="-3812" lat="59.4296611123" lon="10.6419888972">
		<tag k="name" v="Vårli" />
		<tag k="place" v="isolated_dwelling" />
		<tag k="ssr:stedsnr" v="177042" />
	</node>
	<node id="-3806" lat="59.4306500015" lon="10.667336116">
		<tag k="fixme" v="consider place=suburb, village or hamlet" />
		<tag k="name" v="Skarmyra" />
		<tag k="place" v="quarter" />
		<tag k="ssr:stedsnr" v="173061" />
	</node>
	<node id="-3803" lat="59.4761472196" lon="10.6459222177">
		<tag k="alt_name" v="Ås søndre" />
		<tag k="name" v="Søndre Ås" />
		<tag k="place" v="farm" />
		<tag k="ssr:stedsnr" v="124904" />
	</node>
	<node id="-3802" lat="59.4872361129" lon="10.6582583358">
		<tag k="name" v="Renneflot" />
		<tag k="place" v="farm" />
		<tag k="ssr:stedsnr" v="124898" />
	</node>
	<node id="-3801" lat="59.4478499994" lon="10.7465166659">
		<tag k="alt_name" v="Vannum;Vanem" />
		<tag k="name" v="Vannem" />
		<tag k="place" v="farm" />
		<tag k="ssr:stedsnr" v="124315" />
	</node>
	<node id="-3800" lat="59.4699361137" lon="10.6418944456">
		<tag k="name" v="Røre" />
		<tag k="place" v="farm" />
		<tag k="ssr:stedsnr" v="123968" />
	</node>
	<node id="-3798" lat="59.438933331" lon="10.6694888848">
		<tag k="name" v="Cellulosefabrikker" />
		<tag k="place" v="quarter" />
		<tag k="ssr:stedsnr" v="116157" />
	</node>
	<node id="-3796" lat="59.4540388881" lon="10.6260055539">
		<tag k="alt_name" v="Ramberg søndre" />
		<tag k="name" v="Søndre Ramberg" />
		<tag k="place" v="farm" />
		<tag k="ssr:stedsnr" v="114182" />
	</node>
	<node id="-3795" lat="59.42950556" lon="10.682336118">
		<tag k="name" v="Ørehavna" />
		<tag k="place" v="suburb" />
		<tag k="ssr:stedsnr" v="114025" />
	</node>
	<node id="-3792" lat="59.4668055569" lon="10.6416916699">
		<tag k="name" v="Fuglevik" />
		<tag k="place" v="farm" />
		<tag k="ssr:stedsnr" v="113785" />
	</node>
	<node id="-3791" lat="59.4332138861" lon="10.6818138935">
		<tag k="amenity" v="school" />
		<tag k="name" v="Krapfoss skole" />
		<tag k="ssr:stedsnr" v="113071" />
	</node>
	<node id="-3783" lat="59.4687000014" lon="10.6941111033">
		<tag k="name" v="Nøkkeland" />
		<tag k="place" v="farm" />
		<tag k="ssr:stedsnr" v="63967" />
	</node>
	<node id="-3782" lat="59.4470722266" lon="10.6136055602">
		<tag k="name" v="Refsnes" />
		<tag k="place" v="suburb" />
		<tag k="ssr:stedsnr" v="63960" />
	</node>
	<node id="-3778" lat="59.4137749958" lon="10.7297444502">
		<tag k="name" v="Nesenga" />
		<tag k="place" v="farm" />
		<tag k="ssr:stedsnr" v="63347" />
	</node>
	<node id="-3776" lat="59.4384416663" lon="10.632222214">
		<tag k="alt_name" v="Karlshus" />
		<tag k="name" v="Fjeldly" />
		<tag k="place" v="isolated_dwelling" />
		<tag k="ssr:stedsnr" v="60352" />
	</node>
	<node id="-3775" lat="59.4454638921" lon="10.6756666675">
		<tag k="name" v="Verket" />
		<tag k="place" v="quarter" />
		<tag k="ssr:stedsnr" v="56909" />
	</node>
	<node id="-3774" lat="59.4721361122" lon="10.6941444501">
		<tag k="name" v="Skoleåsen" />
		<tag k="place" v="quarter" />
		<tag k="ssr:stedsnr" v="56647" />
	</node>
	<node id="-3768" lat="59.4207666704" lon="10.6711333281">
		<tag k="leisure" v="pitch" />
		<tag k="name" v="Melløs stadion" />
		<tag k="ssr:stedsnr" v="53807" />
	</node>
	<node id="-3765" lat="59.4631944421" lon="10.7260444432">
		<tag k="amenity" v="cafe" />
		<tag k="name" v="Skihytta" />
		<tag k="ssr:stedsnr" v="53212" />
	</node>
	<node id="-3755" lat="59.4879611095" lon="10.7769500046">
		<tag k="name" v="Kolsrød" />
		<tag k="place" v="farm" />
		<tag k="ssr:stedsnr" v="3653" />
	</node>
	<node id="-3751" lat="59.4377333297" lon="10.6046805579">
		<tag k="alt_name" v="Tronvik" />
		<tag k="name" v="Tronvika" />
		<tag k="place" v="farm" />
		<tag k="ssr:stedsnr" v="2933" />
	</node>
	<node id="-3749" lat="59.4402258874" lon="10.756209327">
		<tag k="name" v="Havnahuken" />
		<tag k="place" v="locality" />
		<tag k="ssr:stedsnr" v="988108" />
	</node>
	<node id="-3737" lat="59.419194442" lon="10.681683339">
		<tag k="name" v="Høyden" />
		<tag k="place" v="quarter" />
		<tag k="ssr:stedsnr" v="477824" />
	</node>
	<node id="-3736" lat="59.4269472244" lon="10.6363583272">
		<tag k="name" v="Framnes" />
		<tag k="place" v="suburb" />
		<tag k="ssr:stedsnr" v="476888" />
	</node>
	<node id="-3733" lat="59.4716277759" lon="10.6495666678">
		<tag k="alt_name" v="Skallerød øvre" />
		<tag k="name" v="Øvre Skallerød" />
		<tag k="place" v="farm" />
		<tag k="ssr:stedsnr" v="476785" />
	</node>
	<node id="-3731" lat="59.4408888861" lon="10.6855805511">
		<tag k="fixme" v="consider place=suburb, village or hamlet" />
		<tag k="name" v="Gjerrebogen" />
		<tag k="place" v="quarter" />
		<tag k="ssr:stedsnr" v="476599" />
	</node>
	<node id="-3724" lat="59.4768944428" lon="10.7787722227">
		<tag k="name" v="Enderød" />
		<tag k="place" v="farm" />
		<tag k="ssr:stedsnr" v="367690" />
	</node>
	<node id="-3723" lat="59.4320583299" lon="10.6201694461">
		<tag k="name" v="Reier" />
		<tag k="place" v="farm" />
		<tag k="ssr:stedsnr" v="366998" />
	</node>
	<node id="-3722" lat="59.429150004" lon="10.6064194476">
		<tag k="name" v="Grønli" />
		<tag k="place" v="farm" />
		<tag k="ssr:stedsnr" v="366995" />
	</node>
	<node id="-3721" lat="59.4306472257" lon="10.5942249995">
		<tag k="name" v="Kase" />
		<tag k="place" v="farm" />
		<tag k="ssr:stedsnr" v="366994" />
	</node>
	<node id="-3719" lat="59.4522499995" lon="10.6984361035">
		<tag k="fixme" v="multiple name tags, choose one and add the other to alt_name" />
		<tag k="name" v="Lauersbakken;Solbakken" />
		<tag k="place" v="farm" />
		<tag k="ssr:stedsnr" v="366945" />
	</node>
	<node id="-3718" lat="59.4774499957" lon="10.6333194478">
		<tag k="fixme" v="consider place=hamlet" />
		<tag k="name" v="Nes" />
		<tag k="place" v="farm" />
		<tag k="ssr:stedsnr" v="366894" />
	</node>
	<node id="-3716" lat="59.4279777734" lon="10.6315944457">
		<tag k="name" v="Bråten" />
		<tag k="place" v="isolated_dwelling" />
		<tag k="ssr:stedsnr" v="359169" />
	</node>
	<node id="-3714" lat="59.4615972258" lon="10.6294222169">
		<tag k="name" v="Katrinestua" />
		<tag k="place" v="isolated_dwelling" />
		<tag k="ssr:stedsnr" v="356207" />
	</node>
	<node id="-3711" lat="59.4333805514" lon="10.6390666592">
		<tag k="name" v="Helgerød" />
		<tag k="place" v="farm" />
		<tag k="ssr:stedsnr" v="355881" />
	</node>
	<node id="-3710" lat="59.4444000039" lon="10.6463722164">
		<tag k="name" v="Krossern" />
		<tag k="place" v="suburb" />
		<tag k="ssr:stedsnr" v="355868" />
	</node>
	<node id="-3709" lat="59.4798194456" lon="10.6966305591">
		<tag k="name" v="Kambo" />
		<tag k="place" v="farm" />
		<tag k="ssr:stedsnr" v="355751" />
	</node>
	<node id="-3706" lat="59.4348250002" lon="10.6391194385">
		<tag k="amenity" v="school" />
		<tag k="name" v="Liljedalen skole" />
		<tag k="ssr:stedsnr" v="355073" />
	</node>
	<node id="-3703" lat="59.4332333341" lon="10.6300861147">
		<tag k="alt_name" v="Hoppern" />
		<tag k="name" v="Hopperen" />
		<tag k="place" v="suburb" />
		<tag k="ssr:stedsnr" v="331838" />
	</node>
	<node id="-3697" lat="59.4813138926" lon="10.6308583365">
		<tag k="name" v="Alfheim" />
		<tag k="place" v="farm" />
		<tag k="ssr:stedsnr" v="306910" />
	</node>
	<node id="-3696" lat="59.4697361133" lon="10.7704138825">
		<tag k="alt_name" v="Grinnn" />
		<tag k="name" v="Grind" />
		<tag k="place" v="farm" />
		<tag k="ssr:stedsnr" v="306677" />
	</node>
	<node id="-3695" lat="59.4456749963" lon="10.6367472181">
		<tag k="name" v="Orkerød" />
		<tag k="place" v="farm" />
		<tag k="ssr:stedsnr" v="305963" />
	</node>
	<node id="-3694" lat="59.4443805582" lon="10.6463722237">
		<tag k="name" v="Rossnes" />
		<tag k="place" v="quarter" />
		<tag k="ssr:stedsnr" v="305958" />
	</node>
	<node id="-3683" lat="59.4952527786" lon="10.6635277752">
		<tag k="name" v="Kongshavn" />
		<tag k="place" v="farm" />
		<tag k="ssr:stedsnr" v="295868" />
	</node>
	<node id="-3680" lat="59.436638887" lon="10.676799999">
		<tag k="leisure" v="park" />
		<tag k="name" v="Nesparken" />
		<tag k="ssr:stedsnr" v="295614" />
	</node>
	<node id="-3679" lat="59.4614722217" lon="10.7373027763">
		<tag k="name" v="Traphytta" />
		<tag k="place" v="isolated_dwelling" />
		<tag k="ssr:stedsnr" v="295221" />
	</node>
	<node id="-3678" lat="59.4446666674" lon="10.678961117">
		<tag k="amenity" v="school" />
		<tag k="name" v="Verket skole" />
		<tag k="ssr:stedsnr" v="295075" />
	</node>
</osm>
