<?xml version="1.0" encoding="UTF-8"?>
<osm generator="osmapis" version="0.6">
	<node id="-3962" lat="59.4269527819" lon="10.640888894">
		<tag k="alt_name" v="Sjøly" />
		<tag k="landuse" v="harbour" />
		<tag k="name" v="Søly båthavn" />
		<tag k="seamark:type" v="harbour" />
		<tag k="ssr:stedsnr" v="780875" />
	</node>
	<node id="-3789" lat="59.4532805518" lon="10.7508749923">
		<tag k="bridge" v="yes" />
		<tag k="layer" v="1" />
		<tag k="name" v="Rød" />
		<tag k="ssr:stedsnr" v="107601" />
	</node>
	<node id="-3854" lat="59.4426277788" lon="10.650041658">
		<tag k="landuse" v="harbour" />
		<tag k="name" v="Betongen båthavn" />
		<tag k="seamark:type" v="harbour" />
		<tag k="ssr:stedsnr" v="416867" />
	</node>
	<node id="-3701" lat="59.4453999969" lon="10.7016111031">
		<tag k="junction" v="yes" />
		<tag k="name" v="Patterød" />
		<tag k="place" v="locality" />
		<tag k="ssr:stedsnr" v="328078" />
	</node>
	<node id="-3825" lat="59.4338111116" lon="10.6529166583">
		<tag k="bridge" v="yes" />
		<tag k="layer" v="1" />
		<tag k="name" v="Moss kanal" />
		<tag k="ssr:stedsnr" v="228647" />
	</node>
	<node id="-3715" lat="59.4574305534" lon="10.6802833247">
		<tag k="fixme" v="consider highway=path" />
		<tag k="highway" v="track" />
		<tag k="name" v="Gamlevegen" />
		<tag k="ssr:stedsnr" v="356215" />
	</node>
	<node id="-3689" lat="59.4801249991" lon="10.6867055637">
		<tag k="man_made" v="quay" />
		<tag k="name" v="Norsk Gulfs kai" />
		<tag k="place" v="locality" />
		<tag k="ssr:stedsnr" v="299731" />
	</node>
	<node id="-3687" lat="59.4362916666" lon="10.6568388891">
		<tag k="man_made" v="quay" />
		<tag k="name" v="Sundbrygga" />
		<tag k="place" v="locality" />
		<tag k="ssr:stedsnr" v="298198" />
	</node>
	<node id="-3677" lat="59.4456361082" lon="10.6883722202">
		<tag k="bridge" v="yes" />
		<tag k="layer" v="1" />
		<tag k="name" v="Mossebakken" />
		<tag k="ssr:stedsnr" v="289639" />
	</node>
	<node id="-3928" lat="59.464783337" lon="10.6993583422">
		<tag k="bridge" v="yes" />
		<tag k="layer" v="1" />
		<tag k="name" v="Nøkkeland øst" />
		<tag k="ssr:stedsnr" v="652575" />
	</node>
	<node id="-3982" lat="59.4300638927" lon="10.6478277801">
		<tag k="landuse" v="harbour" />
		<tag k="name" v="Fiske båthavn" />
		<tag k="seamark:type" v="harbour" />
		<tag k="ssr:stedsnr" v="841901" />
	</node>
	<node id="-3919" lat="59.4294805552" lon="10.6542694479">
		<tag k="amenity" v="ferry_terminal" />
		<tag k="name" v="Moss ferjekai" />
		<tag k="ssr:stedsnr" v="605709" />
	</node>
	<node id="-3917" lat="59.4387388869" lon="10.660733334">
		<tag k="man_made" v="quay" />
		<tag k="name" v="Moss Aktiemøllers kai" />
		<tag k="place" v="locality" />
		<tag k="ssr:stedsnr" v="601196" />
	</node>
	<node id="-3916" lat="59.4253333364" lon="10.6574861112">
		<tag k="man_made" v="quay" />
		<tag k="name" v="Fyllinga" />
		<tag k="place" v="locality" />
		<tag k="ssr:stedsnr" v="601190" />
	</node>
	<node id="-3787" lat="59.4948805541" lon="10.664480558">
		<tag k="alt_name" v="Kongshamn" />
		<tag k="name" v="Kongshavn" />
		<tag k="place" v="locality" />
		<tag k="ssr:stedsnr" v="89774" />
	</node>
	<node id="-3913" lat="59.4367638898" lon="10.5943555517">
		<tag k="man_made" v="tower" />
		<tag k="name" v="Jeløy radio" />
		<tag k="ssr:stedsnr" v="599767" />
		<tag k="tower:type" v="communications" />
	</node>
	<node id="-3945" lat="59.4383861078" lon="10.6742194474">
		<tag k="bridge" v="yes" />
		<tag k="layer" v="1" />
		<tag k="name" v="Mosseelva" />
		<tag k="ssr:stedsnr" v="713609" />
	</node>
	<node id="-3744" lat="59.4466805558" lon="10.7110722183">
		<tag k="bridge" v="yes" />
		<tag k="layer" v="1" />
		<tag k="name" v="Nore" />
		<tag k="ssr:stedsnr" v="896621" />
	</node>
	<node id="-3902" lat="59.4336027761" lon="10.6587861197">
		<tag k="bridge" v="yes" />
		<tag k="layer" v="1" />
		<tag k="name" v="Fjordvegen" />
		<tag k="ssr:stedsnr" v="592626" />
	</node>
	<node id="-3901" lat="59.4319883823" lon="10.6573504107">
		<tag k="alt_name" v="Moss" />
		<tag k="name" v="Moss stasjon" />
		<tag k="old_name" v="Moss jernbanestasjon" />
		<tag k="railway" v="station" />
		<tag k="ssr:stedsnr" v="579137" />
		<tag k="train" v="yes" />
	</node>
	<node id="-3772" lat="59.4349111136" lon="10.651500008">
		<tag k="man_made" v="quay" />
		<tag k="name" v="Vestre Kanalbrygga" />
		<tag k="place" v="locality" />
		<tag k="ssr:stedsnr" v="56199" />
	</node>
	<node id="-3771" lat="59.435719448" lon="10.6494777756">
		<tag k="man_made" v="quay" />
		<tag k="name" v="Hesselbergbrygga" />
		<tag k="place" v="locality" />
		<tag k="ssr:stedsnr" v="55214" />
	</node>
	<node id="-3895" lat="59.476688892" lon="10.6865166596">
		<tag k="man_made" v="quay" />
		<tag k="name" v="Dyno Industriers kai" />
		<tag k="place" v="locality" />
		<tag k="ssr:stedsnr" v="541730" />
	</node>
	<node id="-4022" lat="59.4776095324" lon="10.6922507869">
		<tag k="name" v="Kambo holdeplass" />
		<tag k="railway" v="halt" />
		<tag k="ssr:stedsnr" v="913903" />
		<tag k="train" v="yes" />
	</node>
	<node id="-4020" lat="59.4720305555" lon="10.6807083362">
		<tag k="man_made" v="quay" />
		<tag k="name" v="Felleskjøpets kai" />
		<tag k="place" v="locality" />
		<tag k="ssr:stedsnr" v="906740" />
	</node>
	<node id="-4018" lat="59.4353138847" lon="10.6545888931">
		<tag k="man_made" v="quay" />
		<tag k="name" v="Brynildsens brygge" />
		<tag k="place" v="locality" />
		<tag k="ssr:stedsnr" v="905208" />
	</node>
	<node id="-4017" lat="59.4346138886" lon="10.6530388966">
		<tag k="man_made" v="quay" />
		<tag k="name" v="Østre Kanalbrygga" />
		<tag k="place" v="locality" />
		<tag k="ssr:stedsnr" v="905206" />
	</node>
	<node id="-3888" lat="59.43267778" lon="10.6527138817">
		<tag k="name" v="Kanalen" />
		<tag k="ssr:stedsnr" v="537879" />
		<tag k="waterway" v="canal" />
	</node>
	<node id="-3759" lat="59.4406277735" lon="10.7055388893">
		<tag k="bridge" v="yes" />
		<tag k="layer" v="1" />
		<tag k="name" v="Patterød vest" />
		<tag k="ssr:stedsnr" v="46631" />
	</node>
	<node id="-3758" lat="59.4447666681" lon="10.6844055563">
		<tag k="bridge" v="yes" />
		<tag k="layer" v="1" />
		<tag k="name" v="Tigerplassen" />
		<tag k="ssr:stedsnr" v="46628" />
	</node>
	<node id="-3885" lat="59.4563194474" lon="10.7588833414">
		<tag k="bridge" v="yes" />
		<tag k="layer" v="1" />
		<tag k="name" v="Gashus" />
		<tag k="ssr:stedsnr" v="531625" />
	</node>
	<node id="-3884" lat="59.4339222265" lon="10.6556555559">
		<tag k="bridge" v="yes" />
		<tag k="layer" v="1" />
		<tag k="name" v="Rådhusplassen" />
		<tag k="ssr:stedsnr" v="531619" />
	</node>
	<node id="-3748" lat="59.4352227245" lon="10.651489046">
		<tag k="man_made" v="quay" />
		<tag k="name" v="Vestre Kanalkai" />
		<tag k="place" v="locality" />
		<tag k="ssr:stedsnr" v="987540" />
	</node>
	<node id="-3747" lat="59.4348090767" lon="10.6528484353">
		<tag k="man_made" v="quay" />
		<tag k="name" v="Tollbubrygga" />
		<tag k="place" v="locality" />
		<tag k="ssr:stedsnr" v="987539" />
	</node>
	<node id="-3746" lat="59.4332778537" lon="10.6527638275">
		<tag k="man_made" v="quay" />
		<tag k="name" v="Gjestebrygga" />
		<tag k="place" v="locality" />
		<tag k="ssr:stedsnr" v="987538" />
	</node>
	<node id="-3873" lat="59.4517027745" lon="10.733694436">
		<tag k="bridge" v="yes" />
		<tag k="layer" v="1" />
		<tag k="name" v="Vanem" />
		<tag k="ssr:stedsnr" v="471577" />
	</node>
	<node id="-3872" lat="59.4236361135" lon="10.6724888871">
		<tag k="bridge" v="yes" />
		<tag k="layer" v="1" />
		<tag k="name" v="Melløs" />
		<tag k="ssr:stedsnr" v="470580" />
	</node>
	<node id="-3743" lat="59.4745944406" lon="10.7020694372">
		<tag k="bridge" v="yes" />
		<tag k="layer" v="1" />
		<tag k="name" v="Ungerholt vest" />
		<tag k="ssr:stedsnr" v="896614" />
	</node>
	<node id="-3760" lat="59.4655833298" lon="10.69959167">
		<tag k="bridge" v="yes" />
		<tag k="layer" v="1" />
		<tag k="name" v="Nøkkeland vest" />
		<tag k="ssr:stedsnr" v="46633" />
	</node>
	<node id="-3992" lat="59.4272305562" lon="10.6581611181">
		<tag k="man_made" v="quay" />
		<tag k="name" v="Gernerbrygga" />
		<tag k="place" v="locality" />
		<tag k="ssr:stedsnr" v="845221" />
	</node>
	<node id="-3991" lat="59.44374167" lon="10.6506777842">
		<tag k="man_made" v="quay" />
		<tag k="name" v="Rossnesstranda" />
		<tag k="place" v="locality" />
		<tag k="ssr:stedsnr" v="845158" />
	</node>
	<node id="-3990" lat="59.4444333325" lon="10.6549444519">
		<tag k="man_made" v="quay" />
		<tag k="name" v="Rossnesbrygga" />
		<tag k="place" v="locality" />
		<tag k="ssr:stedsnr" v="845151" />
	</node>
	<node id="-3729" lat="59.4745777796" lon="10.6936583388">
		<tag k="bridge" v="yes" />
		<tag k="layer" v="1" />
		<tag k="name" v="Kambo" />
		<tag k="ssr:stedsnr" v="410596" />
	</node>
	<node id="-3728" lat="59.4453944482" lon="10.7036250048">
		<tag k="bridge" v="yes" />
		<tag k="layer" v="1" />
		<tag k="name" v="Mosseporten" />
		<tag k="ssr:stedsnr" v="410594" />
	</node>
	<node id="-3727" lat="59.4734972202" lon="10.7017666649">
		<tag k="bridge" v="yes" />
		<tag k="layer" v="1" />
		<tag k="name" v="Ungerholt øst" />
		<tag k="ssr:stedsnr" v="410590" />
	</node>
	<node id="-3726" lat="59.434058329" lon="10.6573166729">
		<tag k="bridge" v="yes" />
		<tag k="layer" v="1" />
		<tag k="name" v="Værlegata" />
		<tag k="ssr:stedsnr" v="410589" />
	</node>
	<node id="-3849" lat="59.4290527785" lon="10.6545833281">
		<tag k="man_made" v="quay" />
		<tag k="name" v="Verlebrygga" />
		<tag k="place" v="locality" />
		<tag k="ssr:stedsnr" v="480054" />
	</node>
	<node id="-3976" lat="59.4357583352" lon="10.6708500066">
		<tag k="bridge" v="yes" />
		<tag k="layer" v="1" />
		<tag k="name" v="Myra" />
		<tag k="ssr:stedsnr" v="835607" />
	</node>
	<node id="-3862" lat="59.422083334" lon="10.6245444372">
		<tag k="man_made" v="quay" />
		<tag k="name" v="Reierbrygga" />
		<tag k="place" v="locality" />
		<tag k="ssr:stedsnr" v="420941" />
	</node>
</osm>
