<?xml version="1.0" encoding="UTF-8"?>
<osm generator="osmapis" version="0.6">
	<node id="-3838" lat="59.4256111149" lon="10.6196194452">
		<tag k="alt_name" v="Solbærsletta" />
		<tag k="name" v="Solbergsletta" />
		<tag k="place" v="locality" />
		<tag k="ssr:stedsnr" v="480955" />
	</node>
	<node id="-3960" lat="59.4559111082" lon="10.6221777837">
		<tag k="alt_name" v="Nebbeberget" />
		<tag k="fixme" v="consider natural=peak for the most distinct mountains in the district" />
		<tag k="name" v="Nebbåsen" />
		<tag k="natural" v="hill" />
		<tag k="place" v="locality" />
		<tag k="ssr:stedsnr" v="852962" />
	</node>
	<node id="-3820" lat="59.4554499988" lon="10.6972611168">
		<tag k="alt_name" v="Lauersbakåsen" />
		<tag k="fixme" v="consider natural=peak for the most distinct mountains in the district" />
		<tag k="name" v="Skredderåsen" />
		<tag k="natural" v="hill" />
		<tag k="place" v="locality" />
		<tag k="ssr:stedsnr" v="417007" />
	</node>
	<node id="-3730" lat="59.4659555567" lon="10.7467638866">
		<tag k="fixme" v="consider natural=peak for the most distinct mountains in the district" />
		<tag k="name" v="Svartås" />
		<tag k="natural" v="hill" />
		<tag k="place" v="locality" />
		<tag k="ssr:stedsnr" v="53214" />
	</node>
	<node id="-3814" lat="59.4825111153" lon="10.6275166688">
		<tag k="name" v="Hellebergene" />
		<tag k="place" v="locality" />
		<tag k="ssr:stedsnr" v="416758" />
	</node>
	<node id="-3811" lat="59.425649996" lon="10.6930194503">
		<tag k="fixme" v="consider natural=peak for the most distinct mountains in the district" />
		<tag k="name" v="Øreåsen" />
		<tag k="natural" v="hill" />
		<tag k="place" v="locality" />
		<tag k="ssr:stedsnr" v="480044" />
	</node>
	<node id="-3681" lat="59.4273250028" lon="10.6355666595">
		<tag k="name" v="Solbakken" />
		<tag k="natural" v="slope" />
		<tag k="place" v="locality" />
		<tag k="ssr:stedsnr" v="359197" />
	</node>
	<node id="-3677" lat="59.4504333314" lon="10.672755556">
		<tag k="fixme" v="consider natural=peak for the most distinct mountains in the district" />
		<tag k="name" v="Røysås" />
		<tag k="natural" v="hill" />
		<tag k="place" v="locality" />
		<tag k="ssr:stedsnr" v="356205" />
	</node>
	<node id="-3800" lat="59.4359055596" lon="10.7260472279">
		<tag k="name" v="Noresletta" />
		<tag k="place" v="locality" />
		<tag k="ssr:stedsnr" v="235898" />
	</node>
	<node id="-3798" lat="59.4411333376" lon="10.7449555638">
		<tag k="fixme" v="consider natural=peak for the most distinct mountains in the district" />
		<tag k="name" v="Slaåsen" />
		<tag k="natural" v="hill" />
		<tag k="place" v="locality" />
		<tag k="ssr:stedsnr" v="235645" />
	</node>
	<node id="-3795" lat="59.4344277756" lon="10.6837444495">
		<tag k="fixme" v="consider natural=peak for the most distinct mountains in the district" />
		<tag k="name" v="Skolekollen" />
		<tag k="natural" v="hill" />
		<tag k="place" v="locality" />
		<tag k="ssr:stedsnr" v="235031" />
	</node>
	<node id="-3784" lat="59.4526666641" lon="10.6869611028">
		<tag k="name" v="Trolldalen" />
		<tag k="natural" v="valley" />
		<tag k="place" v="locality" />
		<tag k="ssr:stedsnr" v="184944" />
	</node>
	<node id="-3654" lat="59.4689416672" lon="10.6875611109">
		<tag k="name" v="Kilsbakken" />
		<tag k="natural" v="slope" />
		<tag k="place" v="locality" />
		<tag k="ssr:stedsnr" v="299730" />
	</node>
	<node id="-3907" lat="59.4218277764" lon="10.5928416731">
		<tag k="fixme" v="consider natural=peak for the most distinct mountains in the district" />
		<tag k="name" v="Rødsåsen" />
		<tag k="natural" v="hill" />
		<tag k="place" v="locality" />
		<tag k="ssr:stedsnr" v="669983" />
	</node>
	<node id="-3906" lat="59.4550694421" lon="10.6353833374">
		<tag k="fixme" v="consider natural=peak for the most distinct mountains in the district" />
		<tag k="name" v="Rambergåsen" />
		<tag k="natural" v="hill" />
		<tag k="place" v="locality" />
		<tag k="ssr:stedsnr" v="669965" />
	</node>
	<node id="-3646" lat="59.4783583361" lon="10.68728889">
		<tag k="fixme" v="consider natural=peak for the most distinct mountains in the district" />
		<tag k="name" v="Stokkås" />
		<tag k="natural" v="hill" />
		<tag k="place" v="locality" />
		<tag k="ssr:stedsnr" v="295799" />
	</node>
	<node id="-3645" lat="59.4363249975" lon="10.695422222">
		<tag k="fixme" v="consider natural=peak for the most distinct mountains in the district" />
		<tag k="name" v="Bjørnåsen" />
		<tag k="natural" v="hill" />
		<tag k="place" v="locality" />
		<tag k="ssr:stedsnr" v="295618" />
	</node>
	<node id="-3772" lat="59.4531388931" lon="10.6731000063">
		<tag k="fixme" v="consider natural=peak for the most distinct mountains in the district" />
		<tag k="name" v="Vardås" />
		<tag k="natural" v="hill" />
		<tag k="place" v="locality" />
		<tag k="ssr:stedsnr" v="174225" />
	</node>
	<node id="-3757" lat="59.4307972192" lon="10.6776750028">
		<tag k="fixme" v="consider natural=peak for the most distinct mountains in the district" />
		<tag k="name" v="Blåbæråsen" />
		<tag k="natural" v="hill" />
		<tag k="place" v="locality" />
		<tag k="ssr:stedsnr" v="114010" />
	</node>
	<node id="-3868" lat="59.4736194415" lon="10.6460805561">
		<tag k="fixme" v="consider natural=peak for the most distinct mountains in the district" />
		<tag k="name" v="Prekestolen" />
		<tag k="natural" v="hill" />
		<tag k="place" v="locality" />
		<tag k="ssr:stedsnr" v="598765" />
	</node>
	<node id="-3871" lat="59.4338833358" lon="10.7228250063">
		<tag k="name" v="Nesa til han Nils" />
		<tag k="place" v="locality" />
		<tag k="ssr:stedsnr" v="598876" />
	</node>
	<node id="-3996" lat="59.4555472198" lon="10.6181750044">
		<tag k="name" v="Dragonfjellet" />
		<tag k="place" v="locality" />
		<tag k="ssr:stedsnr" v="963219" />
	</node>
	<node id="-3731" lat="59.448850003" lon="10.7341333308">
		<tag k="fixme" v="consider natural=peak for the most distinct mountains in the district" />
		<tag k="name" v="Merraåsen" />
		<tag k="natural" v="hill" />
		<tag k="place" v="locality" />
		<tag k="ssr:stedsnr" v="53215" />
	</node>
	<node id="-3986" lat="59.4829833289" lon="10.6483861125">
		<tag k="fixme" v="consider natural=peak for the most distinct mountains in the district" />
		<tag k="name" v="Bjørnåsen" />
		<tag k="natural" v="hill" />
		<tag k="place" v="locality" />
		<tag k="ssr:stedsnr" v="913918" />
	</node>
	<node id="-3726" lat="59.4688111129" lon="10.6824527739">
		<tag k="alt_name" v="Kilsås" />
		<tag k="fixme" v="consider natural=peak for the most distinct mountains in the district" />
		<tag k="name" v="Mølleåsen" />
		<tag k="natural" v="hill" />
		<tag k="place" v="locality" />
		<tag k="ssr:stedsnr" v="52749" />
	</node>
	<node id="-3720" lat="59.4835333349" lon="10.7530888948">
		<tag k="fixme" v="consider natural=peak for the most distinct mountains in the district" />
		<tag k="name" v="Skaran" />
		<tag k="natural" v="hill" />
		<tag k="place" v="locality" />
		<tag k="ssr:stedsnr" v="3658" />
	</node>
	<node id="-3974" lat="59.46825833" lon="10.6424666737">
		<tag k="name" v="Bjørnelabbene" />
		<tag k="natural" v="valley" />
		<tag k="place" v="locality" />
		<tag k="ssr:stedsnr" v="902802" />
	</node>
	<node id="-3841" lat="59.5001111135" lon="10.658200007">
		<tag k="fixme" v="consider natural=peak for the most distinct mountains in the district" />
		<tag k="name" v="Brattås" />
		<tag k="natural" v="hill" />
		<tag k="place" v="locality" />
		<tag k="ssr:stedsnr" v="488500" />
	</node>
</osm>
