<?xml version="1.0" encoding="UTF-8"?>
<osm version="0.6" generator="osmapis">
	<node lat="60.48096666846486" lon="8.79461944609743" id="-34582">
		<tag k="name" v="Nysetervegen" />
		<tag k="ssr:date" v="2019-12-27" />
		<tag k="ssr:gruppe" v="veg" />
		<tag k="ssr:hovedgruppe" v="infrastruktur" />
		<tag k="ssr:stedsnr" v="542311" />
		<tag k="ssr:type" v="vegstrekning" />
	</node>
	<node lat="60.26646944561118" lon="8.699052775744493" id="-34636">
		<tag k="name" v="Allmannavegen" />
		<tag k="ssr:date" v="2019-12-27" />
		<tag k="ssr:gruppe" v="veg" />
		<tag k="ssr:hovedgruppe" v="infrastruktur" />
		<tag k="ssr:stedsnr" v="584797" />
		<tag k="ssr:type" v="vegstrekning" />
	</node>
	<node lat="60.26035277855697" lon="8.976580553979561" id="-34710">
		<tag k="name" v="Hallandsvegen" />
		<tag k="ssr:date" v="2019-12-27" />
		<tag k="ssr:gruppe" v="veg" />
		<tag k="ssr:hovedgruppe" v="infrastruktur" />
		<tag k="ssr:stedsnr" v="646917" />
		<tag k="ssr:type" v="vegstrekning" />
	</node>
	<node lat="60.13947499682006" lon="9.038402775097545" id="-34754">
		<tag k="name" v="Skoganvegen" />
		<tag k="ssr:date" v="2019-12-27" />
		<tag k="ssr:gruppe" v="veg" />
		<tag k="ssr:hovedgruppe" v="infrastruktur" />
		<tag k="ssr:stedsnr" v="891038" />
		<tag k="ssr:type" v="vegstrekning" />
	</node>
	<node lat="60.29880615163066" lon="8.413875753824156" id="-34963">
		<tag k="name" v="Jønndalsvegen" />
		<tag k="ssr:date" v="2019-12-27" />
		<tag k="ssr:gruppe" v="veg" />
		<tag k="ssr:hovedgruppe" v="infrastruktur" />
		<tag k="ssr:stedsnr" v="830559" />
		<tag k="ssr:type" v="adressenavn" />
	</node>
	<node lat="60.1695472241159" lon="9.15110277328871" id="-35097">
		<tag k="name" v="Lauvbrennavegen" />
		<tag k="ssr:date" v="2019-12-27" />
		<tag k="ssr:gruppe" v="veg" />
		<tag k="ssr:hovedgruppe" v="infrastruktur" />
		<tag k="ssr:stedsnr" v="950111" />
		<tag k="ssr:type" v="vegstrekning" />
	</node>
	<node lat="60.24836666850399" lon="8.686086111946587" id="-35099">
		<tag k="name" v="Nysetervegen" />
		<tag k="ssr:date" v="2019-12-27" />
		<tag k="ssr:gruppe" v="veg" />
		<tag k="ssr:hovedgruppe" v="infrastruktur" />
		<tag k="ssr:stedsnr" v="950593" />
		<tag k="ssr:type" v="vegstrekning" />
	</node>
	<node lat="60.34923697903462" lon="8.492613108279642" id="-35116">
		<tag k="name" v="Gamle Vasstulan" />
		<tag k="ssr:date" v="2019-12-27" />
		<tag k="ssr:gruppe" v="veg" />
		<tag k="ssr:hovedgruppe" v="infrastruktur" />
		<tag k="ssr:stedsnr" v="975436" />
		<tag k="ssr:type" v="adressenavn" />
	</node>
	<node lat="60.346491307608446" lon="8.493463179545387" id="-35117">
		<tag k="name" v="Vasstulhalle" />
		<tag k="ssr:date" v="2019-12-27" />
		<tag k="ssr:gruppe" v="veg" />
		<tag k="ssr:hovedgruppe" v="infrastruktur" />
		<tag k="ssr:stedsnr" v="975437" />
		<tag k="ssr:type" v="adressenavn" />
	</node>
	<node lat="60.343743581188434" lon="8.51230093467737" id="-35118">
		<tag k="name" v="Åndetjønnvegen" />
		<tag k="ssr:date" v="2019-12-27" />
		<tag k="ssr:gruppe" v="veg" />
		<tag k="ssr:hovedgruppe" v="infrastruktur" />
		<tag k="ssr:stedsnr" v="975438" />
		<tag k="ssr:type" v="adressenavn" />
	</node>
	<node lat="60.34490312127658" lon="8.51483934519254" id="-35119">
		<tag k="name" v="Åndetjønnkroken" />
		<tag k="ssr:date" v="2019-12-27" />
		<tag k="ssr:gruppe" v="veg" />
		<tag k="ssr:hovedgruppe" v="infrastruktur" />
		<tag k="ssr:stedsnr" v="975439" />
		<tag k="ssr:type" v="adressenavn" />
	</node>
	<node lat="60.31624196628518" lon="8.47149415433118" id="-35126">
		<tag k="name" v="Berget" />
		<tag k="ssr:date" v="2019-12-27" />
		<tag k="ssr:gruppe" v="veg" />
		<tag k="ssr:hovedgruppe" v="infrastruktur" />
		<tag k="ssr:stedsnr" v="975446" />
		<tag k="ssr:type" v="adressenavn" />
	</node>
	<node lat="60.303700102316256" lon="8.402862751185461" id="-35127">
		<tag k="name" v="Småstølan" />
		<tag k="ssr:date" v="2019-12-27" />
		<tag k="ssr:gruppe" v="veg" />
		<tag k="ssr:hovedgruppe" v="infrastruktur" />
		<tag k="ssr:stedsnr" v="975447" />
		<tag k="ssr:type" v="adressenavn" />
	</node>
	<node lat="60.3074693913332" lon="8.361114015009417" id="-35128">
		<tag k="name" v="Gvonnestulen" />
		<tag k="ssr:date" v="2019-12-27" />
		<tag k="ssr:gruppe" v="veg" />
		<tag k="ssr:hovedgruppe" v="infrastruktur" />
		<tag k="ssr:stedsnr" v="975448" />
		<tag k="ssr:type" v="adressenavn" />
	</node>
	<node lat="60.30610093844289" lon="8.356807946850223" id="-35129">
		<tag k="name" v="Solheimstullie" />
		<tag k="ssr:date" v="2019-12-27" />
		<tag k="ssr:gruppe" v="veg" />
		<tag k="ssr:hovedgruppe" v="infrastruktur" />
		<tag k="ssr:stedsnr" v="975449" />
		<tag k="ssr:type" v="adressenavn" />
	</node>
	<node lat="60.30191880273953" lon="8.527004269988275" id="-35138">
		<tag k="name" v="Bjønnebekkvegen" />
		<tag k="ssr:date" v="2019-12-27" />
		<tag k="ssr:gruppe" v="veg" />
		<tag k="ssr:hovedgruppe" v="infrastruktur" />
		<tag k="ssr:stedsnr" v="975458" />
		<tag k="ssr:type" v="adressenavn" />
	</node>
	<node lat="60.298476992549396" lon="8.52866876975884" id="-35139">
		<tag k="name" v="Kulten" />
		<tag k="ssr:date" v="2019-12-27" />
		<tag k="ssr:gruppe" v="veg" />
		<tag k="ssr:hovedgruppe" v="infrastruktur" />
		<tag k="ssr:stedsnr" v="975459" />
		<tag k="ssr:type" v="adressenavn" />
	</node>
	<node lat="60.42036448463448" lon="8.815537787091355" id="-35143">
		<tag k="name" v="Fjølabuvegen" />
		<tag k="ssr:date" v="2019-12-27" />
		<tag k="ssr:gruppe" v="veg" />
		<tag k="ssr:hovedgruppe" v="infrastruktur" />
		<tag k="ssr:stedsnr" v="975494" />
		<tag k="ssr:type" v="adressenavn" />
	</node>
	<node lat="60.488755507644775" lon="8.679782276154898" id="-35146">
		<tag k="name" v="Hakatjønnvegen" />
		<tag k="ssr:date" v="2019-12-27" />
		<tag k="ssr:gruppe" v="veg" />
		<tag k="ssr:hovedgruppe" v="infrastruktur" />
		<tag k="ssr:stedsnr" v="975497" />
		<tag k="ssr:type" v="adressenavn" />
	</node>
	<node lat="60.49406331504606" lon="8.664969551472087" id="-35147">
		<tag k="name" v="Såtefjellvegen" />
		<tag k="ssr:date" v="2019-12-27" />
		<tag k="ssr:gruppe" v="veg" />
		<tag k="ssr:hovedgruppe" v="infrastruktur" />
		<tag k="ssr:stedsnr" v="975498" />
		<tag k="ssr:type" v="adressenavn" />
	</node>
	<node lat="60.317582157178975" lon="8.93403798349585" id="-35148">
		<tag k="name" v="Stornesvegen" />
		<tag k="ssr:date" v="2019-12-27" />
		<tag k="ssr:gruppe" v="veg" />
		<tag k="ssr:hovedgruppe" v="infrastruktur" />
		<tag k="ssr:stedsnr" v="975499" />
		<tag k="ssr:type" v="adressenavn" />
	</node>
	<node lat="60.26231905460927" lon="8.983041273412427" id="-35149">
		<tag k="name" v="Øygardsvegen" />
		<tag k="ssr:date" v="2019-12-27" />
		<tag k="ssr:gruppe" v="veg" />
		<tag k="ssr:hovedgruppe" v="infrastruktur" />
		<tag k="ssr:stedsnr" v="975500" />
		<tag k="ssr:type" v="adressenavn" />
	</node>
	<node lat="60.261768451755174" lon="8.993021417464105" id="-35150">
		<tag k="name" v="Borgegrendvegen" />
		<tag k="ssr:date" v="2019-12-27" />
		<tag k="ssr:gruppe" v="veg" />
		<tag k="ssr:hovedgruppe" v="infrastruktur" />
		<tag k="ssr:stedsnr" v="975501" />
		<tag k="ssr:type" v="adressenavn" />
	</node>
	<node lat="60.37311475018598" lon="9.011487419945656" id="-35151">
		<tag k="name" v="Briskerudvegen" />
		<tag k="ssr:date" v="2019-12-27" />
		<tag k="ssr:gruppe" v="veg" />
		<tag k="ssr:hovedgruppe" v="infrastruktur" />
		<tag k="ssr:stedsnr" v="975502" />
		<tag k="ssr:type" v="adressenavn" />
	</node>
	<node lat="60.43572779344109" lon="8.85140058550673" id="-35152">
		<tag k="name" v="Langedragvegen" />
		<tag k="ssr:date" v="2019-12-27" />
		<tag k="ssr:gruppe" v="veg" />
		<tag k="ssr:hovedgruppe" v="infrastruktur" />
		<tag k="ssr:stedsnr" v="975503" />
		<tag k="ssr:type" v="adressenavn" />
	</node>
	<node lat="60.252864599355625" lon="8.982393298035145" id="-35153">
		<tag k="name" v="Hallandsgrendvegen" />
		<tag k="ssr:date" v="2019-12-27" />
		<tag k="ssr:gruppe" v="veg" />
		<tag k="ssr:hovedgruppe" v="infrastruktur" />
		<tag k="ssr:stedsnr" v="975504" />
		<tag k="ssr:type" v="adressenavn" />
	</node>
	<node lat="60.38005363330953" lon="8.855421147984005" id="-35154">
		<tag k="name" v="Nuten" />
		<tag k="ssr:date" v="2019-12-27" />
		<tag k="ssr:gruppe" v="veg" />
		<tag k="ssr:hovedgruppe" v="infrastruktur" />
		<tag k="ssr:stedsnr" v="975505" />
		<tag k="ssr:type" v="adressenavn" />
	</node>
	<node lat="60.33194815231935" lon="8.868928529980439" id="-35155">
		<tag k="name" v="Sjåbuvegen" />
		<tag k="ssr:date" v="2019-12-27" />
		<tag k="ssr:gruppe" v="veg" />
		<tag k="ssr:hovedgruppe" v="infrastruktur" />
		<tag k="ssr:stedsnr" v="975506" />
		<tag k="ssr:type" v="adressenavn" />
	</node>
	<node lat="60.30246741822767" lon="9.140418987656934" id="-35157">
		<tag k="name" v="Nedre Bjørnlifjell" />
		<tag k="ssr:date" v="2019-12-27" />
		<tag k="ssr:gruppe" v="veg" />
		<tag k="ssr:hovedgruppe" v="infrastruktur" />
		<tag k="ssr:stedsnr" v="975508" />
		<tag k="ssr:type" v="adressenavn" />
	</node>
	<node lat="60.301383974129095" lon="9.141739121387776" id="-35158">
		<tag k="name" v="Øvre Bjørnlifjell" />
		<tag k="ssr:date" v="2019-12-27" />
		<tag k="ssr:gruppe" v="veg" />
		<tag k="ssr:hovedgruppe" v="infrastruktur" />
		<tag k="ssr:stedsnr" v="975509" />
		<tag k="ssr:type" v="adressenavn" />
	</node>
	<node lat="60.31717150052652" lon="9.044069073226074" id="-35159">
		<tag k="name" v="Steinsetvegen" />
		<tag k="ssr:date" v="2019-12-27" />
		<tag k="ssr:gruppe" v="veg" />
		<tag k="ssr:hovedgruppe" v="infrastruktur" />
		<tag k="ssr:stedsnr" v="975510" />
		<tag k="ssr:type" v="adressenavn" />
	</node>
	<node lat="60.33620388160151" lon="9.048163466275073" id="-35160">
		<tag k="name" v="Steinsetlie" />
		<tag k="ssr:date" v="2019-12-27" />
		<tag k="ssr:gruppe" v="veg" />
		<tag k="ssr:hovedgruppe" v="infrastruktur" />
		<tag k="ssr:stedsnr" v="975511" />
		<tag k="ssr:type" v="adressenavn" />
	</node>
	<node lat="60.32403945968393" lon="9.04592278893804" id="-35161">
		<tag k="name" v="Bruhaugen" />
		<tag k="ssr:date" v="2019-12-27" />
		<tag k="ssr:gruppe" v="veg" />
		<tag k="ssr:hovedgruppe" v="infrastruktur" />
		<tag k="ssr:stedsnr" v="975512" />
		<tag k="ssr:type" v="adressenavn" />
	</node>
	<node lat="60.462979052905695" lon="8.658349501242549" id="-35162">
		<tag k="name" v="Hallgrimstølvegen" />
		<tag k="ssr:date" v="2019-12-27" />
		<tag k="ssr:gruppe" v="veg" />
		<tag k="ssr:hovedgruppe" v="infrastruktur" />
		<tag k="ssr:stedsnr" v="975513" />
		<tag k="ssr:type" v="adressenavn" />
	</node>
	<node lat="60.29418057731227" lon="9.030239932823603" id="-35163">
		<tag k="name" v="Lemortjønnvegen" />
		<tag k="ssr:date" v="2019-12-27" />
		<tag k="ssr:gruppe" v="veg" />
		<tag k="ssr:hovedgruppe" v="infrastruktur" />
		<tag k="ssr:stedsnr" v="975514" />
		<tag k="ssr:type" v="adressenavn" />
	</node>
	<node lat="60.489644762887956" lon="8.51881591515912" id="-35165">
		<tag k="name" v="Skogstad" />
		<tag k="ssr:date" v="2019-12-27" />
		<tag k="ssr:gruppe" v="veg" />
		<tag k="ssr:hovedgruppe" v="infrastruktur" />
		<tag k="ssr:stedsnr" v="975540" />
		<tag k="ssr:type" v="adressenavn" />
	</node>
	<node lat="60.15076468846235" lon="8.947329083302016" id="-35167">
		<tag k="name" v="Breisetdalen" />
		<tag k="ssr:date" v="2019-12-27" />
		<tag k="ssr:gruppe" v="veg" />
		<tag k="ssr:hovedgruppe" v="infrastruktur" />
		<tag k="ssr:stedsnr" v="975542" />
		<tag k="ssr:type" v="adressenavn" />
	</node>
	<node lat="60.08669856171279" lon="9.027211188971272" id="-35168">
		<tag k="name" v="Roevegen" />
		<tag k="ssr:date" v="2019-12-27" />
		<tag k="ssr:gruppe" v="veg" />
		<tag k="ssr:hovedgruppe" v="infrastruktur" />
		<tag k="ssr:stedsnr" v="975545" />
		<tag k="ssr:type" v="adressenavn" />
	</node>
	<node lat="60.17318473265385" lon="9.023247961440875" id="-35169">
		<tag k="name" v="Åsen" />
		<tag k="ssr:date" v="2019-12-27" />
		<tag k="ssr:gruppe" v="veg" />
		<tag k="ssr:hovedgruppe" v="infrastruktur" />
		<tag k="ssr:stedsnr" v="975547" />
		<tag k="ssr:type" v="adressenavn" />
	</node>
	<node lat="60.189540420095945" lon="8.893062839732169" id="-35171">
		<tag k="name" v="Breisethalle" />
		<tag k="ssr:date" v="2019-12-27" />
		<tag k="ssr:gruppe" v="veg" />
		<tag k="ssr:hovedgruppe" v="infrastruktur" />
		<tag k="ssr:stedsnr" v="975549" />
		<tag k="ssr:type" v="adressenavn" />
	</node>
	<node lat="60.168698077003725" lon="9.011301799533818" id="-35172">
		<tag k="name" v="Åsbøvegen" />
		<tag k="ssr:date" v="2019-12-27" />
		<tag k="ssr:gruppe" v="veg" />
		<tag k="ssr:hovedgruppe" v="infrastruktur" />
		<tag k="ssr:stedsnr" v="975550" />
		<tag k="ssr:type" v="adressenavn" />
	</node>
	<node lat="60.16507177924672" lon="9.016576630569958" id="-35173">
		<tag k="name" v="Langodden" />
		<tag k="ssr:date" v="2019-12-27" />
		<tag k="ssr:gruppe" v="veg" />
		<tag k="ssr:hovedgruppe" v="infrastruktur" />
		<tag k="ssr:stedsnr" v="975551" />
		<tag k="ssr:type" v="adressenavn" />
	</node>
	<node lat="60.21270285081811" lon="9.035866223947753" id="-35175">
		<tag k="name" v="Nattevegen" />
		<tag k="ssr:date" v="2019-12-27" />
		<tag k="ssr:gruppe" v="veg" />
		<tag k="ssr:hovedgruppe" v="infrastruktur" />
		<tag k="ssr:stedsnr" v="975556" />
		<tag k="ssr:type" v="adressenavn" />
	</node>
	<node lat="60.2415389313434" lon="9.048465278012014" id="-35176">
		<tag k="name" v="Øktedalssetervegen" />
		<tag k="ssr:date" v="2019-12-27" />
		<tag k="ssr:gruppe" v="veg" />
		<tag k="ssr:hovedgruppe" v="infrastruktur" />
		<tag k="ssr:stedsnr" v="975557" />
		<tag k="ssr:type" v="adressenavn" />
	</node>
	<node lat="60.14075149221541" lon="9.050583053486248" id="-35179">
		<tag k="name" v="Heimseterdalen" />
		<tag k="ssr:date" v="2019-12-27" />
		<tag k="ssr:gruppe" v="veg" />
		<tag k="ssr:hovedgruppe" v="infrastruktur" />
		<tag k="ssr:stedsnr" v="975560" />
		<tag k="ssr:type" v="adressenavn" />
	</node>
	<node lat="60.23772823573099" lon="9.009797890412335" id="-35181">
		<tag k="name" v="Sevlevegen" />
		<tag k="ssr:date" v="2019-12-27" />
		<tag k="ssr:gruppe" v="veg" />
		<tag k="ssr:hovedgruppe" v="infrastruktur" />
		<tag k="ssr:stedsnr" v="975562" />
		<tag k="ssr:type" v="adressenavn" />
	</node>
	<node lat="60.23708693465234" lon="8.561354902775893" id="-35189">
		<tag k="name" v="Lortetjønnvegen" />
		<tag k="ssr:date" v="2019-12-27" />
		<tag k="ssr:gruppe" v="veg" />
		<tag k="ssr:hovedgruppe" v="infrastruktur" />
		<tag k="ssr:stedsnr" v="981083" />
		<tag k="ssr:type" v="adressenavn" />
	</node>
	<node lat="60.21729331457912" lon="8.896800638124486" id="-35193">
		<tag k="name" v="Trollhovdvegen" />
		<tag k="ssr:date" v="2019-12-27" />
		<tag k="ssr:gruppe" v="veg" />
		<tag k="ssr:hovedgruppe" v="infrastruktur" />
		<tag k="ssr:stedsnr" v="983588" />
		<tag k="ssr:type" v="adressenavn" />
	</node>
	<node lat="60.230065245841566" lon="8.896226638748054" id="-35198">
		<tag k="name" v="Hallandssetre" />
		<tag k="ssr:date" v="2019-12-27" />
		<tag k="ssr:gruppe" v="veg" />
		<tag k="ssr:hovedgruppe" v="infrastruktur" />
		<tag k="ssr:stedsnr" v="983593" />
		<tag k="ssr:type" v="adressenavn" />
	</node>
	<node lat="60.23468848619393" lon="8.895056413835817" id="-35199">
		<tag k="name" v="Langemyrhaugen" />
		<tag k="ssr:date" v="2019-12-27" />
		<tag k="ssr:gruppe" v="veg" />
		<tag k="ssr:hovedgruppe" v="infrastruktur" />
		<tag k="ssr:stedsnr" v="983594" />
		<tag k="ssr:type" v="adressenavn" />
	</node>
	<node lat="60.23678262015211" lon="8.897668058869405" id="-35200">
		<tag k="name" v="Osebekken" />
		<tag k="ssr:date" v="2019-12-27" />
		<tag k="ssr:gruppe" v="veg" />
		<tag k="ssr:hovedgruppe" v="infrastruktur" />
		<tag k="ssr:stedsnr" v="983595" />
		<tag k="ssr:type" v="adressenavn" />
	</node>
	<node lat="60.23904072485313" lon="8.90353011671277" id="-35201">
		<tag k="name" v="Nedre Heimtjønnbekken" />
		<tag k="ssr:date" v="2019-12-27" />
		<tag k="ssr:gruppe" v="veg" />
		<tag k="ssr:hovedgruppe" v="infrastruktur" />
		<tag k="ssr:stedsnr" v="983597" />
		<tag k="ssr:type" v="adressenavn" />
	</node>
	<node lat="60.26390647003846" lon="8.813672883710517" id="-35202">
		<tag k="name" v="Kyllesdalsvegen" />
		<tag k="ssr:date" v="2019-12-27" />
		<tag k="ssr:gruppe" v="veg" />
		<tag k="ssr:hovedgruppe" v="infrastruktur" />
		<tag k="ssr:stedsnr" v="983598" />
		<tag k="ssr:type" v="adressenavn" />
	</node>
	<node lat="60.36110865290619" lon="8.13119328195367" id="-35203">
		<tag k="name" v="Hein" />
		<tag k="ssr:date" v="2019-12-27" />
		<tag k="ssr:gruppe" v="veg" />
		<tag k="ssr:hovedgruppe" v="infrastruktur" />
		<tag k="ssr:stedsnr" v="983599" />
		<tag k="ssr:type" v="adressenavn" />
	</node>
	<node lat="60.27330040551615" lon="7.646192740832279" id="-35204">
		<tag k="name" v="Byen" />
		<tag k="ssr:date" v="2019-12-27" />
		<tag k="ssr:gruppe" v="veg" />
		<tag k="ssr:hovedgruppe" v="infrastruktur" />
		<tag k="ssr:stedsnr" v="983600" />
		<tag k="ssr:type" v="adressenavn" />
	</node>
	<node lat="60.300701415988385" lon="8.341615196455344" id="-35205">
		<tag k="name" v="Solheimstulen" />
		<tag k="ssr:date" v="2019-12-27" />
		<tag k="ssr:gruppe" v="veg" />
		<tag k="ssr:hovedgruppe" v="infrastruktur" />
		<tag k="ssr:stedsnr" v="983601" />
		<tag k="ssr:type" v="adressenavn" />
	</node>
	<node lat="60.2207974193094" lon="8.439817343009095" id="-35206">
		<tag k="name" v="Vikstul" />
		<tag k="ssr:date" v="2019-12-27" />
		<tag k="ssr:gruppe" v="veg" />
		<tag k="ssr:hovedgruppe" v="infrastruktur" />
		<tag k="ssr:stedsnr" v="983602" />
		<tag k="ssr:type" v="adressenavn" />
	</node>
	<node lat="60.36721666236871" lon="8.894466668491827" id="-35396">
		<tag k="name" v="Slåttlivegen" />
		<tag k="ssr:date" v="2019-12-27" />
		<tag k="ssr:gruppe" v="veg" />
		<tag k="ssr:hovedgruppe" v="infrastruktur" />
		<tag k="ssr:stedsnr" v="118157" />
		<tag k="ssr:type" v="vegstrekning" />
	</node>
	<node lat="60.26705833352515" lon="8.946352773208737" id="-35551">
		<tag k="name" v="Nore og Uvdal kommune" />
		<tag k="ssr:date" v="2019-12-27" />
		<tag k="ssr:gruppe" v="administrativeIndelinger" />
		<tag k="ssr:hovedgruppe" v="offentligAdministrasjon" />
		<tag k="ssr:stedsnr" v="208749" />
		<tag k="ssr:type" v="kommune" />
	</node>
	<node lat="60.278411109841024" lon="8.869044441845258" id="-35570">
		<tag k="name" v="Haugfossvegen" />
		<tag k="ssr:date" v="2019-12-27" />
		<tag k="ssr:gruppe" v="veg" />
		<tag k="ssr:hovedgruppe" v="infrastruktur" />
		<tag k="ssr:stedsnr" v="284393" />
		<tag k="ssr:type" v="vegstrekning" />
	</node>
	<node lat="60.2681388868757" lon="8.98192500033774" id="-35690">
		<tag k="name" v="Øygardsgrendvegen" />
		<tag k="ssr:date" v="2019-12-27" />
		<tag k="ssr:gruppe" v="veg" />
		<tag k="ssr:hovedgruppe" v="infrastruktur" />
		<tag k="ssr:stedsnr" v="362713" />
		<tag k="ssr:type" v="vegstrekning" />
	</node>
	<node lat="60.27549166359823" lon="8.75412777757032" id="-35771">
		<tag k="name" v="Grønneflåtabekken" />
		<tag k="ssr:date" v="2019-12-27" />
		<tag k="ssr:gruppe" v="veg" />
		<tag k="ssr:hovedgruppe" v="infrastruktur" />
		<tag k="ssr:stedsnr" v="422138" />
		<tag k="ssr:type" v="vegstrekning" />
	</node>
	<node lat="60.3892944447769" lon="8.523808341594176" id="-35858">
		<tag k="name" v="Smådølvegen" />
		<tag k="ssr:date" v="2019-12-27" />
		<tag k="ssr:gruppe" v="veg" />
		<tag k="ssr:hovedgruppe" v="infrastruktur" />
		<tag k="ssr:stedsnr" v="544299" />
		<tag k="ssr:type" v="vegstrekning" />
	</node>
	<node lat="60.263166667313264" lon="9.002727775829676" id="-35859">
		<tag k="name" v="Borgegrendvegen" />
		<tag k="ssr:date" v="2019-12-27" />
		<tag k="ssr:gruppe" v="veg" />
		<tag k="ssr:hovedgruppe" v="infrastruktur" />
		<tag k="ssr:stedsnr" v="544700" />
		<tag k="ssr:type" v="vegstrekning" />
	</node>
	<node lat="60.27115278096479" lon="8.758605546608852" id="-36011">
		<tag k="name" v="Kirkebygdvegen" />
		<tag k="ssr:date" v="2019-12-27" />
		<tag k="ssr:gruppe" v="veg" />
		<tag k="ssr:hovedgruppe" v="infrastruktur" />
		<tag k="ssr:stedsnr" v="664124" />
		<tag k="ssr:type" v="vegstrekning" />
	</node>
	<node lat="60.14871111251869" lon="9.097230563294818" id="-36118">
		<tag k="name" v="Bubekkvegen" />
		<tag k="ssr:date" v="2019-12-27" />
		<tag k="ssr:gruppe" v="veg" />
		<tag k="ssr:hovedgruppe" v="infrastruktur" />
		<tag k="ssr:stedsnr" v="785035" />
		<tag k="ssr:type" v="vegstrekning" />
	</node>
	<node lat="60.26670818902996" lon="8.873322054877933" id="-36317">
		<tag k="name" v="Fønnebøvegen" />
		<tag k="ssr:date" v="2019-12-27" />
		<tag k="ssr:gruppe" v="veg" />
		<tag k="ssr:hovedgruppe" v="infrastruktur" />
		<tag k="ssr:stedsnr" v="975246" />
		<tag k="ssr:type" v="adressenavn" />
	</node>
	<node lat="60.269115309552554" lon="8.837492793459003" id="-36322">
		<tag k="name" v="Baklivegen" />
		<tag k="ssr:date" v="2019-12-27" />
		<tag k="ssr:gruppe" v="veg" />
		<tag k="ssr:hovedgruppe" v="infrastruktur" />
		<tag k="ssr:stedsnr" v="975358" />
		<tag k="ssr:type" v="adressenavn" />
	</node>
	<node lat="60.26920865331018" lon="8.814034472738289" id="-36323">
		<tag k="name" v="Karlsrudvegen" />
		<tag k="ssr:date" v="2019-12-27" />
		<tag k="ssr:gruppe" v="veg" />
		<tag k="ssr:hovedgruppe" v="infrastruktur" />
		<tag k="ssr:stedsnr" v="975359" />
		<tag k="ssr:type" v="adressenavn" />
	</node>
	<node lat="60.22005021648187" lon="8.419099857084856" id="-36324">
		<tag k="name" v="Imingdalen" />
		<tag k="ssr:date" v="2019-12-27" />
		<tag k="ssr:gruppe" v="veg" />
		<tag k="ssr:hovedgruppe" v="infrastruktur" />
		<tag k="ssr:stedsnr" v="975361" />
		<tag k="ssr:type" v="adressenavn" />
	</node>
	<node lat="60.25193206957602" lon="8.940922838338938" id="-36325">
		<tag k="name" v="Kleivstulvegen" />
		<tag k="ssr:date" v="2019-12-27" />
		<tag k="ssr:gruppe" v="veg" />
		<tag k="ssr:hovedgruppe" v="infrastruktur" />
		<tag k="ssr:stedsnr" v="975362" />
		<tag k="ssr:type" v="adressenavn" />
	</node>
	<node lat="60.23723156721026" lon="8.692065000108535" id="-36327">
		<tag k="name" v="Brandsgardlie" />
		<tag k="ssr:date" v="2019-12-27" />
		<tag k="ssr:gruppe" v="veg" />
		<tag k="ssr:hovedgruppe" v="infrastruktur" />
		<tag k="ssr:stedsnr" v="975364" />
		<tag k="ssr:type" v="adressenavn" />
	</node>
	<node lat="60.22916327700031" lon="8.82242229477765" id="-36328">
		<tag k="name" v="Haugåsen" />
		<tag k="ssr:date" v="2019-12-27" />
		<tag k="ssr:gruppe" v="veg" />
		<tag k="ssr:hovedgruppe" v="infrastruktur" />
		<tag k="ssr:stedsnr" v="975365" />
		<tag k="ssr:type" v="adressenavn" />
	</node>
	<node lat="60.23508953987831" lon="8.772144534325701" id="-36329">
		<tag k="name" v="Søre Haugåsen" />
		<tag k="ssr:date" v="2019-12-27" />
		<tag k="ssr:gruppe" v="veg" />
		<tag k="ssr:hovedgruppe" v="infrastruktur" />
		<tag k="ssr:stedsnr" v="975366" />
		<tag k="ssr:type" v="adressenavn" />
	</node>
	<node lat="60.23825681222028" lon="8.766299234587159" id="-36330">
		<tag k="name" v="Nordre Haugåsen" />
		<tag k="ssr:date" v="2019-12-27" />
		<tag k="ssr:gruppe" v="veg" />
		<tag k="ssr:hovedgruppe" v="infrastruktur" />
		<tag k="ssr:stedsnr" v="975367" />
		<tag k="ssr:type" v="adressenavn" />
	</node>
	<node lat="60.25277561278588" lon="8.839802985627886" id="-36331">
		<tag k="name" v="Hovdesetervegen" />
		<tag k="ssr:date" v="2019-12-27" />
		<tag k="ssr:gruppe" v="veg" />
		<tag k="ssr:hovedgruppe" v="infrastruktur" />
		<tag k="ssr:stedsnr" v="975368" />
		<tag k="ssr:type" v="adressenavn" />
	</node>
	<node lat="60.31571293903562" lon="8.461609384014185" id="-36332">
		<tag k="name" v="Syningvegen" />
		<tag k="ssr:date" v="2019-12-27" />
		<tag k="ssr:gruppe" v="veg" />
		<tag k="ssr:hovedgruppe" v="infrastruktur" />
		<tag k="ssr:stedsnr" v="975369" />
		<tag k="ssr:type" v="adressenavn" />
	</node>
	<node lat="60.31552255640157" lon="8.456531318857788" id="-36333">
		<tag k="name" v="Tøddølvegen" />
		<tag k="ssr:date" v="2019-12-27" />
		<tag k="ssr:gruppe" v="veg" />
		<tag k="ssr:hovedgruppe" v="infrastruktur" />
		<tag k="ssr:stedsnr" v="975370" />
		<tag k="ssr:type" v="adressenavn" />
	</node>
	<node lat="60.30433506590147" lon="8.841576834633678" id="-36334">
		<tag k="name" v="Brennhovdvegen" />
		<tag k="ssr:date" v="2019-12-27" />
		<tag k="ssr:gruppe" v="veg" />
		<tag k="ssr:hovedgruppe" v="infrastruktur" />
		<tag k="ssr:stedsnr" v="975371" />
		<tag k="ssr:type" v="adressenavn" />
	</node>
	<node lat="60.39138180079646" lon="8.476770411022581" id="-36336">
		<tag k="name" v="Brostrudseterlie" />
		<tag k="ssr:date" v="2019-12-27" />
		<tag k="ssr:gruppe" v="veg" />
		<tag k="ssr:hovedgruppe" v="infrastruktur" />
		<tag k="ssr:stedsnr" v="975373" />
		<tag k="ssr:type" v="adressenavn" />
	</node>
	<node lat="60.314195143262296" lon="9.03301111258691" id="-36338">
		<tag k="name" v="Brattlivegen" />
		<tag k="ssr:date" v="2019-12-27" />
		<tag k="ssr:gruppe" v="veg" />
		<tag k="ssr:hovedgruppe" v="infrastruktur" />
		<tag k="ssr:stedsnr" v="975463" />
		<tag k="ssr:type" v="adressenavn" />
	</node>
	<node lat="60.46555331286609" lon="8.797307590479127" id="-36339">
		<tag k="name" v="Rukkedalsvegen" />
		<tag k="ssr:date" v="2019-12-27" />
		<tag k="ssr:gruppe" v="veg" />
		<tag k="ssr:hovedgruppe" v="infrastruktur" />
		<tag k="ssr:stedsnr" v="975476" />
		<tag k="ssr:type" v="adressenavn" />
	</node>
	<node lat="60.468990084570436" lon="8.801133076953809" id="-36340">
		<tag k="name" v="Tunhovdåsen" />
		<tag k="ssr:date" v="2019-12-27" />
		<tag k="ssr:gruppe" v="veg" />
		<tag k="ssr:hovedgruppe" v="infrastruktur" />
		<tag k="ssr:stedsnr" v="975477" />
		<tag k="ssr:type" v="adressenavn" />
	</node>
	<node lat="60.14601247453534" lon="9.189970979178739" id="-36341">
		<tag k="name" v="Brennbuvegen" />
		<tag k="ssr:date" v="2019-12-27" />
		<tag k="ssr:gruppe" v="veg" />
		<tag k="ssr:hovedgruppe" v="infrastruktur" />
		<tag k="ssr:stedsnr" v="975464" />
		<tag k="ssr:type" v="adressenavn" />
	</node>
	<node lat="60.266695542221996" lon="8.969402420599415" id="-36342">
		<tag k="name" v="Rågrendvegen" />
		<tag k="ssr:date" v="2019-12-27" />
		<tag k="ssr:gruppe" v="veg" />
		<tag k="ssr:hovedgruppe" v="infrastruktur" />
		<tag k="ssr:stedsnr" v="975465" />
		<tag k="ssr:type" v="adressenavn" />
	</node>
	<node lat="60.26759584608529" lon="8.448425980530235" id="-36343">
		<tag k="name" v="Juvenesvegen" />
		<tag k="ssr:date" v="2019-12-27" />
		<tag k="ssr:gruppe" v="veg" />
		<tag k="ssr:hovedgruppe" v="infrastruktur" />
		<tag k="ssr:stedsnr" v="975466" />
		<tag k="ssr:type" v="adressenavn" />
	</node>
	<node lat="60.32813917888467" lon="8.504941736961657" id="-36344">
		<tag k="name" v="Flåtajuvvegen" />
		<tag k="ssr:date" v="2019-12-27" />
		<tag k="ssr:gruppe" v="veg" />
		<tag k="ssr:hovedgruppe" v="infrastruktur" />
		<tag k="ssr:stedsnr" v="975467" />
		<tag k="ssr:type" v="adressenavn" />
	</node>
	<node lat="60.33014258174979" lon="8.811172945713917" id="-36346">
		<tag k="name" v="Fauskovegen" />
		<tag k="ssr:date" v="2019-12-27" />
		<tag k="ssr:gruppe" v="veg" />
		<tag k="ssr:hovedgruppe" v="infrastruktur" />
		<tag k="ssr:stedsnr" v="975469" />
		<tag k="ssr:type" v="adressenavn" />
	</node>
	<node lat="60.38405448894567" lon="8.656032892047284" id="-36347">
		<tag k="name" v="Larssetervegen" />
		<tag k="ssr:date" v="2019-12-27" />
		<tag k="ssr:gruppe" v="veg" />
		<tag k="ssr:hovedgruppe" v="infrastruktur" />
		<tag k="ssr:stedsnr" v="975470" />
		<tag k="ssr:type" v="adressenavn" />
	</node>
	<node lat="60.1762245510097" lon="8.587603687553921" id="-36350">
		<tag k="name" v="Tinnsvegen" />
		<tag k="ssr:date" v="2019-12-27" />
		<tag k="ssr:gruppe" v="veg" />
		<tag k="ssr:hovedgruppe" v="infrastruktur" />
		<tag k="ssr:stedsnr" v="975473" />
		<tag k="ssr:type" v="adressenavn" />
	</node>
	<node lat="60.32813917888467" lon="8.504941736961657" id="-36351">
		<tag k="name" v="Flåtajuvhalle" />
		<tag k="ssr:date" v="2019-12-27" />
		<tag k="ssr:gruppe" v="veg" />
		<tag k="ssr:hovedgruppe" v="infrastruktur" />
		<tag k="ssr:stedsnr" v="975474" />
		<tag k="ssr:type" v="adressenavn" />
	</node>
	<node lat="60.33043117675405" lon="8.510519814583523" id="-36352">
		<tag k="name" v="Flåtajuvkroken" />
		<tag k="ssr:date" v="2019-12-27" />
		<tag k="ssr:gruppe" v="veg" />
		<tag k="ssr:hovedgruppe" v="infrastruktur" />
		<tag k="ssr:stedsnr" v="975475" />
		<tag k="ssr:type" v="adressenavn" />
	</node>
	<node lat="60.48084097026579" lon="8.803412311638857" id="-36353">
		<tag k="name" v="Hyttestølvegen" />
		<tag k="ssr:date" v="2019-12-27" />
		<tag k="ssr:gruppe" v="veg" />
		<tag k="ssr:hovedgruppe" v="infrastruktur" />
		<tag k="ssr:stedsnr" v="975478" />
		<tag k="ssr:type" v="adressenavn" />
	</node>
	<node lat="60.08333260907843" lon="9.08702244566747" id="-36354">
		<tag k="name" v="Kallerudvegen" />
		<tag k="ssr:date" v="2019-12-27" />
		<tag k="ssr:gruppe" v="veg" />
		<tag k="ssr:hovedgruppe" v="infrastruktur" />
		<tag k="ssr:stedsnr" v="975563" />
		<tag k="ssr:type" v="adressenavn" />
	</node>
	<node lat="60.08714661318863" lon="9.096854721284403" id="-36355">
		<tag k="name" v="Numedalsvegen" />
		<tag k="ssr:date" v="2019-12-27" />
		<tag k="ssr:gruppe" v="veg" />
		<tag k="ssr:hovedgruppe" v="infrastruktur" />
		<tag k="ssr:stedsnr" v="975564" />
		<tag k="ssr:type" v="adressenavn" />
	</node>
	<node lat="60.147827063526385" lon="9.023792995974016" id="-36356">
		<tag k="name" v="Straumsvegen" />
		<tag k="ssr:date" v="2019-12-27" />
		<tag k="ssr:gruppe" v="veg" />
		<tag k="ssr:hovedgruppe" v="infrastruktur" />
		<tag k="ssr:stedsnr" v="975565" />
		<tag k="ssr:type" v="adressenavn" />
	</node>
	<node lat="60.09714186582448" lon="9.055229328200253" id="-36357">
		<tag k="name" v="Myrangrendvegen" />
		<tag k="ssr:date" v="2019-12-27" />
		<tag k="ssr:gruppe" v="veg" />
		<tag k="ssr:hovedgruppe" v="infrastruktur" />
		<tag k="ssr:stedsnr" v="975566" />
		<tag k="ssr:type" v="adressenavn" />
	</node>
	<node lat="60.1419769492175" lon="9.014238137267759" id="-36358">
		<tag k="name" v="Eidsstryken" />
		<tag k="ssr:date" v="2019-12-27" />
		<tag k="ssr:gruppe" v="veg" />
		<tag k="ssr:hovedgruppe" v="infrastruktur" />
		<tag k="ssr:stedsnr" v="975567" />
		<tag k="ssr:type" v="adressenavn" />
	</node>
	<node lat="60.371264178096034" lon="8.486833199739586" id="-36360">
		<tag k="name" v="Torsetstigen" />
		<tag k="ssr:date" v="2019-12-27" />
		<tag k="ssr:gruppe" v="veg" />
		<tag k="ssr:hovedgruppe" v="infrastruktur" />
		<tag k="ssr:stedsnr" v="975428" />
		<tag k="ssr:type" v="adressenavn" />
	</node>
	<node lat="60.368835198783394" lon="8.49038165073365" id="-36361">
		<tag k="name" v="Torsetlie" />
		<tag k="ssr:date" v="2019-12-27" />
		<tag k="ssr:gruppe" v="veg" />
		<tag k="ssr:hovedgruppe" v="infrastruktur" />
		<tag k="ssr:stedsnr" v="975429" />
		<tag k="ssr:type" v="adressenavn" />
	</node>
	<node lat="60.36686202111857" lon="8.489638493592485" id="-36362">
		<tag k="name" v="Torsethalle" />
		<tag k="ssr:date" v="2019-12-27" />
		<tag k="ssr:gruppe" v="veg" />
		<tag k="ssr:hovedgruppe" v="infrastruktur" />
		<tag k="ssr:stedsnr" v="975430" />
		<tag k="ssr:type" v="adressenavn" />
	</node>
	<node lat="60.36510612855549" lon="8.48836008850167" id="-36363">
		<tag k="name" v="Torsetåsen" />
		<tag k="ssr:date" v="2019-12-27" />
		<tag k="ssr:gruppe" v="veg" />
		<tag k="ssr:hovedgruppe" v="infrastruktur" />
		<tag k="ssr:stedsnr" v="975431" />
		<tag k="ssr:type" v="adressenavn" />
	</node>
	<node lat="60.35334400946314" lon="8.493657035313019" id="-36365">
		<tag k="name" v="Vasstullie" />
		<tag k="ssr:date" v="2019-12-27" />
		<tag k="ssr:gruppe" v="veg" />
		<tag k="ssr:hovedgruppe" v="infrastruktur" />
		<tag k="ssr:stedsnr" v="975433" />
		<tag k="ssr:type" v="adressenavn" />
	</node>
	<node lat="60.279715819343" lon="8.88930883704724" id="-36366">
		<tag k="name" v="Smådølvegen" />
		<tag k="ssr:date" v="2019-12-27" />
		<tag k="ssr:gruppe" v="veg" />
		<tag k="ssr:hovedgruppe" v="infrastruktur" />
		<tag k="ssr:stedsnr" v="975434" />
		<tag k="ssr:type" v="adressenavn" />
	</node>
	<node lat="60.34322551503652" lon="8.771492902732833" id="-36367">
		<tag k="name" v="Risdalen" />
		<tag k="ssr:date" v="2019-12-27" />
		<tag k="ssr:gruppe" v="veg" />
		<tag k="ssr:hovedgruppe" v="infrastruktur" />
		<tag k="ssr:stedsnr" v="975435" />
		<tag k="ssr:type" v="adressenavn" />
	</node>
	<node lat="60.31190844655683" lon="9.060708575525139" id="-36368">
		<tag k="name" v="Nordre Grotdalen" />
		<tag k="ssr:date" v="2019-12-27" />
		<tag k="ssr:gruppe" v="veg" />
		<tag k="ssr:hovedgruppe" v="infrastruktur" />
		<tag k="ssr:stedsnr" v="975515" />
		<tag k="ssr:type" v="adressenavn" />
	</node>
	<node lat="60.30695335865269" lon="9.063376176331484" id="-36369">
		<tag k="name" v="Søre Grotdalen" />
		<tag k="ssr:date" v="2019-12-27" />
		<tag k="ssr:gruppe" v="veg" />
		<tag k="ssr:hovedgruppe" v="infrastruktur" />
		<tag k="ssr:stedsnr" v="975516" />
		<tag k="ssr:type" v="adressenavn" />
	</node>
	<node lat="60.27529112656409" lon="9.016228623085516" id="-36370">
		<tag k="name" v="Øygarden" />
		<tag k="ssr:date" v="2019-12-27" />
		<tag k="ssr:gruppe" v="veg" />
		<tag k="ssr:hovedgruppe" v="infrastruktur" />
		<tag k="ssr:stedsnr" v="975517" />
		<tag k="ssr:type" v="adressenavn" />
	</node>
	<node lat="60.27442160493199" lon="9.014163584196181" id="-36371">
		<tag k="name" v="Lianvegen" />
		<tag k="ssr:date" v="2019-12-27" />
		<tag k="ssr:gruppe" v="veg" />
		<tag k="ssr:hovedgruppe" v="infrastruktur" />
		<tag k="ssr:stedsnr" v="975518" />
		<tag k="ssr:type" v="adressenavn" />
	</node>
	<node lat="60.327521499385846" lon="9.021529825477128" id="-36372">
		<tag k="name" v="Lisetervegen" />
		<tag k="ssr:date" v="2019-12-27" />
		<tag k="ssr:gruppe" v="veg" />
		<tag k="ssr:hovedgruppe" v="infrastruktur" />
		<tag k="ssr:stedsnr" v="975519" />
		<tag k="ssr:type" v="adressenavn" />
	</node>
	<node lat="60.293575410704484" lon="9.053518949484934" id="-36375">
		<tag k="name" v="Gamlesetre" />
		<tag k="ssr:date" v="2019-12-27" />
		<tag k="ssr:gruppe" v="veg" />
		<tag k="ssr:hovedgruppe" v="infrastruktur" />
		<tag k="ssr:stedsnr" v="975522" />
		<tag k="ssr:type" v="adressenavn" />
	</node>
	<node lat="60.39112081065016" lon="8.984396255204391" id="-36376">
		<tag k="name" v="Briskerudhaugan" />
		<tag k="ssr:date" v="2019-12-27" />
		<tag k="ssr:gruppe" v="veg" />
		<tag k="ssr:hovedgruppe" v="infrastruktur" />
		<tag k="ssr:stedsnr" v="975523" />
		<tag k="ssr:type" v="adressenavn" />
	</node>
	<node lat="60.38532055422908" lon="8.997203062164262" id="-36377">
		<tag k="name" v="Briskerudtjønne" />
		<tag k="ssr:date" v="2019-12-27" />
		<tag k="ssr:gruppe" v="veg" />
		<tag k="ssr:hovedgruppe" v="infrastruktur" />
		<tag k="ssr:stedsnr" v="975524" />
		<tag k="ssr:type" v="adressenavn" />
	</node>
	<node lat="60.28289318675457" lon="9.008221129711007" id="-36378">
		<tag k="name" v="Lykkjeåsvegen" />
		<tag k="ssr:date" v="2019-12-27" />
		<tag k="ssr:gruppe" v="veg" />
		<tag k="ssr:hovedgruppe" v="infrastruktur" />
		<tag k="ssr:stedsnr" v="975525" />
		<tag k="ssr:type" v="adressenavn" />
	</node>
	<node lat="60.314922434431544" lon="8.959066378436818" id="-36379">
		<tag k="name" v="Hesslivegen" />
		<tag k="ssr:date" v="2019-12-27" />
		<tag k="ssr:gruppe" v="veg" />
		<tag k="ssr:hovedgruppe" v="infrastruktur" />
		<tag k="ssr:stedsnr" v="975526" />
		<tag k="ssr:type" v="adressenavn" />
	</node>
	<node lat="60.36573153372374" lon="8.893100115952162" id="-36380">
		<tag k="name" v="Slåttelihaugvegen" />
		<tag k="ssr:date" v="2019-12-27" />
		<tag k="ssr:gruppe" v="veg" />
		<tag k="ssr:hovedgruppe" v="infrastruktur" />
		<tag k="ssr:stedsnr" v="975527" />
		<tag k="ssr:type" v="adressenavn" />
	</node>
	<node lat="60.374857841333686" lon="8.914067666129302" id="-36381">
		<tag k="name" v="Vestre Slåttelihaugen" />
		<tag k="ssr:date" v="2019-12-27" />
		<tag k="ssr:gruppe" v="veg" />
		<tag k="ssr:hovedgruppe" v="infrastruktur" />
		<tag k="ssr:stedsnr" v="975528" />
		<tag k="ssr:type" v="adressenavn" />
	</node>
	<node lat="60.37289059108939" lon="8.92524705768019" id="-36382">
		<tag k="name" v="Austre Slåttelihaugen" />
		<tag k="ssr:date" v="2019-12-27" />
		<tag k="ssr:gruppe" v="veg" />
		<tag k="ssr:hovedgruppe" v="infrastruktur" />
		<tag k="ssr:stedsnr" v="975529" />
		<tag k="ssr:type" v="adressenavn" />
	</node>
	<node lat="60.348296153293035" lon="8.898426212114517" id="-36384">
		<tag k="name" v="Skjenhølvegen" />
		<tag k="ssr:date" v="2019-12-27" />
		<tag k="ssr:gruppe" v="veg" />
		<tag k="ssr:hovedgruppe" v="infrastruktur" />
		<tag k="ssr:stedsnr" v="975531" />
		<tag k="ssr:type" v="adressenavn" />
	</node>
	<node lat="60.345558504035864" lon="8.893236237404558" id="-36385">
		<tag k="name" v="Bergeneset" />
		<tag k="ssr:date" v="2019-12-27" />
		<tag k="ssr:gruppe" v="veg" />
		<tag k="ssr:hovedgruppe" v="infrastruktur" />
		<tag k="ssr:stedsnr" v="975532" />
		<tag k="ssr:type" v="adressenavn" />
	</node>
	<node lat="60.3682095348632" lon="8.886501046452878" id="-36387">
		<tag k="name" v="Bustraumhøgde" />
		<tag k="ssr:date" v="2019-12-27" />
		<tag k="ssr:gruppe" v="veg" />
		<tag k="ssr:hovedgruppe" v="infrastruktur" />
		<tag k="ssr:stedsnr" v="975534" />
		<tag k="ssr:type" v="adressenavn" />
	</node>
	<node lat="60.362261441443444" lon="8.888855050603878" id="-36388">
		<tag k="name" v="Bustraumvegen" />
		<tag k="ssr:date" v="2019-12-27" />
		<tag k="ssr:gruppe" v="veg" />
		<tag k="ssr:hovedgruppe" v="infrastruktur" />
		<tag k="ssr:stedsnr" v="975535" />
		<tag k="ssr:type" v="adressenavn" />
	</node>
	<node lat="60.497158915142116" lon="8.658212874867209" id="-36390">
		<tag k="name" v="Vardhovdvegen" />
		<tag k="ssr:date" v="2019-12-27" />
		<tag k="ssr:gruppe" v="veg" />
		<tag k="ssr:hovedgruppe" v="infrastruktur" />
		<tag k="ssr:stedsnr" v="975537" />
		<tag k="ssr:type" v="adressenavn" />
	</node>
	<node lat="60.45618633266161" lon="8.689305058701521" id="-36391">
		<tag k="name" v="Breivikåsen" />
		<tag k="ssr:date" v="2019-12-27" />
		<tag k="ssr:gruppe" v="veg" />
		<tag k="ssr:hovedgruppe" v="infrastruktur" />
		<tag k="ssr:stedsnr" v="975538" />
		<tag k="ssr:type" v="adressenavn" />
	</node>
	<node lat="60.26633266056308" lon="8.930254929432216" id="-36395">
		<tag k="name" v="Hovdevegen" />
		<tag k="old_name" v="Høvdevegen" />
		<tag k="ssr:date" v="2019-12-27" />
		<tag k="ssr:gruppe" v="veg" />
		<tag k="ssr:hovedgruppe" v="infrastruktur" />
		<tag k="ssr:stedsnr" v="981085" />
		<tag k="ssr:type" v="adressenavn" />
	</node>
	<node lat="60.07670173850352" lon="9.037436793995857" id="-36397">
		<tag k="name" v="Dalsetvegen" />
		<tag k="ssr:date" v="2019-12-27" />
		<tag k="ssr:gruppe" v="veg" />
		<tag k="ssr:hovedgruppe" v="infrastruktur" />
		<tag k="ssr:stedsnr" v="981076" />
		<tag k="ssr:type" v="adressenavn" />
	</node>
	<node lat="60.08286639759355" lon="9.036721651329914" id="-36398">
		<tag k="name" v="Dalsetkollen" />
		<tag k="ssr:date" v="2019-12-27" />
		<tag k="ssr:gruppe" v="veg" />
		<tag k="ssr:hovedgruppe" v="infrastruktur" />
		<tag k="ssr:stedsnr" v="981077" />
		<tag k="ssr:type" v="adressenavn" />
	</node>
	<node lat="60.27376667662834" lon="8.918696733858317" id="-36399">
		<tag k="name" v="Solheimvegen" />
		<tag k="ssr:date" v="2019-12-27" />
		<tag k="ssr:gruppe" v="veg" />
		<tag k="ssr:hovedgruppe" v="infrastruktur" />
		<tag k="ssr:stedsnr" v="981078" />
		<tag k="ssr:type" v="adressenavn" />
	</node>
	<node lat="60.33058753596063" lon="9.015646431801708" id="-36401">
		<tag k="name" v="Skjønnemarka" />
		<tag k="ssr:date" v="2019-12-27" />
		<tag k="ssr:gruppe" v="veg" />
		<tag k="ssr:hovedgruppe" v="infrastruktur" />
		<tag k="ssr:stedsnr" v="981080" />
		<tag k="ssr:type" v="adressenavn" />
	</node>
	<node lat="60.30271466392535" lon="9.014918977013194" id="-36402">
		<tag k="name" v="Borgemarka" />
		<tag k="ssr:date" v="2019-12-27" />
		<tag k="ssr:gruppe" v="veg" />
		<tag k="ssr:hovedgruppe" v="infrastruktur" />
		<tag k="ssr:stedsnr" v="981081" />
		<tag k="ssr:type" v="adressenavn" />
	</node>
	<node lat="60.29904189597976" lon="8.553141343340116" id="-36403">
		<tag k="name" v="Dagalivegen" />
		<tag k="ssr:date" v="2019-12-27" />
		<tag k="ssr:gruppe" v="veg" />
		<tag k="ssr:hovedgruppe" v="infrastruktur" />
		<tag k="ssr:stedsnr" v="981082" />
		<tag k="ssr:type" v="adressenavn" />
	</node>
	<node lat="60.14694423114808" lon="9.065117795503815" id="-36405">
		<tag k="name" v="Vehusdalen" />
		<tag k="ssr:date" v="2019-12-27" />
		<tag k="ssr:gruppe" v="veg" />
		<tag k="ssr:hovedgruppe" v="infrastruktur" />
		<tag k="ssr:stedsnr" v="983577" />
		<tag k="ssr:type" v="adressenavn" />
	</node>
	<node lat="60.20001663577883" lon="8.98679669042065" id="-36406">
		<tag k="name" v="Grovesetervegen" />
		<tag k="ssr:date" v="2019-12-27" />
		<tag k="ssr:gruppe" v="veg" />
		<tag k="ssr:hovedgruppe" v="infrastruktur" />
		<tag k="ssr:stedsnr" v="983578" />
		<tag k="ssr:type" v="adressenavn" />
	</node>
	<node lat="60.207227303742854" lon="8.994515455086537" id="-36407">
		<tag k="name" v="Stakkhaugvegen" />
		<tag k="ssr:date" v="2019-12-27" />
		<tag k="ssr:gruppe" v="veg" />
		<tag k="ssr:hovedgruppe" v="infrastruktur" />
		<tag k="ssr:stedsnr" v="983579" />
		<tag k="ssr:type" v="adressenavn" />
	</node>
	<node lat="60.33858137783751" lon="8.496508810427441" id="-36408">
		<tag k="name" v="Vasstulan" />
		<tag k="ssr:date" v="2019-12-27" />
		<tag k="ssr:gruppe" v="veg" />
		<tag k="ssr:hovedgruppe" v="infrastruktur" />
		<tag k="ssr:stedsnr" v="983580" />
		<tag k="ssr:type" v="adressenavn" />
	</node>
	<node lat="60.25249790884559" lon="8.98095826470917" id="-36411">
		<tag k="name" v="Vedalsvegen" />
		<tag k="ssr:date" v="2019-12-27" />
		<tag k="ssr:gruppe" v="veg" />
		<tag k="ssr:hovedgruppe" v="infrastruktur" />
		<tag k="ssr:stedsnr" v="983583" />
		<tag k="ssr:type" v="adressenavn" />
	</node>
	<node lat="60.253727691733125" lon="8.978789529860089" id="-36412">
		<tag k="name" v="Grånåsetvegen" />
		<tag k="ssr:date" v="2019-12-27" />
		<tag k="ssr:gruppe" v="veg" />
		<tag k="ssr:hovedgruppe" v="infrastruktur" />
		<tag k="ssr:stedsnr" v="983584" />
		<tag k="ssr:type" v="adressenavn" />
	</node>
	<node lat="60.203729066554146" lon="8.897071308088938" id="-36413">
		<tag k="name" v="Svartepyttvegen" />
		<tag k="ssr:date" v="2019-12-27" />
		<tag k="ssr:gruppe" v="veg" />
		<tag k="ssr:hovedgruppe" v="infrastruktur" />
		<tag k="ssr:stedsnr" v="983585" />
		<tag k="ssr:type" v="adressenavn" />
	</node>
	<node lat="60.23950890320943" lon="8.905298524704127" id="-36414">
		<tag k="name" v="Nedre Hansetjønn" />
		<tag k="ssr:date" v="2019-12-27" />
		<tag k="ssr:gruppe" v="veg" />
		<tag k="ssr:hovedgruppe" v="infrastruktur" />
		<tag k="ssr:stedsnr" v="983692" />
		<tag k="ssr:type" v="adressenavn" />
	</node>
	<node lat="60.24072194083355" lon="8.906541142550207" id="-36415">
		<tag k="name" v="Øvre Hansetjønn" />
		<tag k="ssr:date" v="2019-12-27" />
		<tag k="ssr:gruppe" v="veg" />
		<tag k="ssr:hovedgruppe" v="infrastruktur" />
		<tag k="ssr:stedsnr" v="983693" />
		<tag k="ssr:type" v="adressenavn" />
	</node>
	<node lat="60.19777090363858" lon="8.989899256454388" id="-36486">
		<tag k="name" v="Nysetervegen" />
		<tag k="ssr:date" v="2020-02-18" />
		<tag k="ssr:gruppe" v="veg" />
		<tag k="ssr:hovedgruppe" v="infrastruktur" />
		<tag k="ssr:stedsnr" v="1075298" />
		<tag k="ssr:type" v="adressenavn" />
	</node>
	<node lat="60.31403543495119" lon="8.533651972169963" id="-36488">
		<tag k="name" v="Sønstebøåsen" />
		<tag k="ssr:date" v="2020-02-18" />
		<tag k="ssr:gruppe" v="veg" />
		<tag k="ssr:hovedgruppe" v="infrastruktur" />
		<tag k="ssr:stedsnr" v="1075300" />
		<tag k="ssr:type" v="adressenavn" />
	</node>
	<node lat="60.38862941387172" lon="8.56802855534559" id="-36489">
		<tag k="name" v="Slåtteliseter" />
		<tag k="ssr:date" v="2020-02-18" />
		<tag k="ssr:gruppe" v="veg" />
		<tag k="ssr:hovedgruppe" v="infrastruktur" />
		<tag k="ssr:stedsnr" v="1075302" />
		<tag k="ssr:type" v="adressenavn" />
	</node>
	<node lat="60.38899001123298" lon="8.520793788453005" id="-36491">
		<tag k="name" v="Trolltjønnstølan" />
		<tag k="ssr:date" v="2020-02-18" />
		<tag k="ssr:gruppe" v="veg" />
		<tag k="ssr:hovedgruppe" v="infrastruktur" />
		<tag k="ssr:stedsnr" v="1075305" />
		<tag k="ssr:type" v="adressenavn" />
	</node>
	<node lat="60.12136067290499" lon="9.133041548698664" id="-36492">
		<tag k="name" v="Markasetvegen" />
		<tag k="ssr:date" v="2020-02-18" />
		<tag k="ssr:gruppe" v="veg" />
		<tag k="ssr:hovedgruppe" v="infrastruktur" />
		<tag k="ssr:stedsnr" v="1075306" />
		<tag k="ssr:type" v="adressenavn" />
	</node>
</osm>
