<?xml version="1.0" encoding="UTF-8"?>
<osm generator="osmapis" version="0.6">
	<node id="-36736" lat="60.0999666659" lon="10.9802555624">
		<tag k="name" v="Slurka" />
		<tag k="ssr:stedsnr" v="855606" />
		<tag k="waterway" v="stream" />
	</node>
	<node id="-36733" lat="60.1155472248" lon="10.9278916732">
		<tag k="name" v="Gjermåa" />
		<tag k="ssr:stedsnr" v="855575" />
		<tag k="waterway" v="river" />
	</node>
	<node id="-36603" lat="60.1166249962" lon="10.9267777812">
		<tag k="alt_name" v="Løvstadtjern" />
		<tag k="name" v="Løvstadtjernet" />
		<tag k="natural" v="water" />
		<tag k="ssr:stedsnr" v="491679" />
	</node>
	<node id="-36596" lat="60.0440083332" lon="10.9671694491">
		<tag k="alt_name" v="Rundtjern" />
		<tag k="name" v="Rundetjern" />
		<tag k="natural" v="water" />
		<tag k="ssr:stedsnr" v="490436" />
	</node>
	<node id="-36591" lat="60.0582194407" lon="11.0528777785">
		<tag k="name" v="Tangeelva" />
		<tag k="ssr:stedsnr" v="448938" />
		<tag k="waterway" v="river" />
	</node>
	<node id="-36462" lat="60.0627027542" lon="11.0349440603">
		<tag k="alt_name" v="Fjelstadbekken" />
		<tag k="name" v="Tistilbekken" />
		<tag k="ssr:stedsnr" v="369432" />
		<tag k="waterway" v="stream" />
	</node>
	<node id="-36714" lat="60.0947777817" lon="10.9476277719">
		<tag k="alt_name" v="Buvannet" />
		<tag k="name" v="Buvatnet" />
		<tag k="natural" v="water" />
		<tag k="ssr:stedsnr" v="794617" />
		<tag k="water" v="lake" />
	</node>
	<node id="-36457" lat="60.0901277799" lon="10.9708027858">
		<tag k="name" v="Nordlåbekken" />
		<tag k="ssr:stedsnr" v="326933" />
		<tag k="waterway" v="stream" />
	</node>
	<node id="-36455" lat="60.0807833359" lon="11.0599833315">
		<tag k="name" v="Svensrudfossen" />
		<tag k="natural" v="waterfall" />
		<tag k="ssr:stedsnr" v="326895" />
	</node>
	<node id="-36709" lat="60.1126166628" lon="10.9442694365">
		<tag k="alt_name" v="Krustjern" />
		<tag k="name" v="Krustjernet" />
		<tag k="natural" v="water" />
		<tag k="ssr:stedsnr" v="794569" />
	</node>
	<node id="-36703" lat="60.1055999971" lon="10.9415249987">
		<tag k="name" v="Myrgruvefløyten" />
		<tag k="natural" v="water" />
		<tag k="ssr:stedsnr" v="751970" />
		<tag k="water" v="lake" />
	</node>
	<node id="-36446" lat="60.1068055597" lon="10.9406750017">
		<tag k="name" v="Myrgruvefossen" />
		<tag k="natural" v="waterfall" />
		<tag k="ssr:stedsnr" v="309613" />
	</node>
	<node id="-36573" lat="60.0438916637" lon="11.0174638864">
		<tag k="alt_name" v="Ulvedalstjernet, søndre;Ulvedalstjern søndre" />
		<tag k="name" v="Søndre Ulvedalstjern" />
		<tag k="natural" v="water" />
		<tag k="ssr:stedsnr" v="430430" />
	</node>
	<node id="-36562" lat="60.0808000021" lon="10.9894416625">
		<tag k="name" v="Lysdammen" />
		<tag k="natural" v="water" />
		<tag k="ssr:stedsnr" v="248515" />
	</node>
	<node id="-36688" lat="60.0887938868" lon="10.9365394741">
		<tag k="alt_name" v="Spikertjern" />
		<tag k="name" v="Spikertjernet" />
		<tag k="natural" v="water" />
		<tag k="ssr:stedsnr" v="733586" />
	</node>
	<node id="-36558" lat="60.0458361102" lon="10.9626500044">
		<tag k="alt_name" v="Skututjern" />
		<tag k="name" v="Skutetjerna" />
		<tag k="natural" v="water" />
		<tag k="ssr:stedsnr" v="248443" />
	</node>
	<node id="-36685" lat="60.0806500006" lon="10.9842916673">
		<tag k="alt_name" v="Grytefossen" />
		<tag k="name" v="Grytfossen" />
		<tag k="natural" v="waterfall" />
		<tag k="ssr:stedsnr" v="733482" />
	</node>
	<node id="-36683" lat="60.0454150965" lon="10.950670109">
		<tag k="name" v="Nordre Ryggevann" />
		<tag k="natural" v="water" />
		<tag k="ssr:stedsnr" v="733419" />
		<tag k="water" v="lake" />
	</node>
	<node id="-36682" lat="60.0511666628" lon="10.9447333398">
		<tag k="name" v="Svartputten" />
		<tag k="natural" v="water" />
		<tag k="ssr:stedsnr" v="691957" />
	</node>
	<node id="-36680" lat="60.1222916665" lon="10.9129999925">
		<tag k="name" v="Vestre Gjermenningen" />
		<tag k="natural" v="water" />
		<tag k="ssr:stedsnr" v="691923" />
	</node>
	<node id="-36673" lat="60.1015805514" lon="10.9996750081">
		<tag k="name" v="Mikkelsbekken" />
		<tag k="ssr:stedsnr" v="673612" />
		<tag k="waterway" v="stream" />
	</node>
	<node id="-36533" lat="60.0754861103" lon="10.9667583299">
		<tag k="name" v="Olstadbekken" />
		<tag k="ssr:stedsnr" v="144914" />
		<tag k="waterway" v="stream" />
	</node>
	<node id="-36527" lat="60.0839499988" lon="10.9312250084">
		<tag k="alt_name" v="Dretnetjern" />
		<tag k="name" v="Dretnetjernet" />
		<tag k="natural" v="water" />
		<tag k="ssr:stedsnr" v="126523" />
	</node>
	<node id="-36525" lat="60.0917805547" lon="10.9283138847">
		<tag k="name" v="Dagrosputten" />
		<tag k="natural" v="water" />
		<tag k="ssr:stedsnr" v="126604" />
	</node>
	<node id="-36652" lat="60.1238499998" lon="10.921999998">
		<tag k="name" v="Gjerdrumsgjermenningen" />
		<tag k="natural" v="water" />
		<tag k="ssr:stedsnr" v="612665" />
	</node>
	<node id="-36650" lat="60.1043888853" lon="10.9271805631">
		<tag k="name" v="Mårratjern" />
		<tag k="natural" v="water" />
		<tag k="ssr:stedsnr" v="612612" />
	</node>
	<node id="-36645" lat="60.0874500034" lon="11.0718916599">
		<tag k="name" v="Vangsbekken" />
		<tag k="ssr:stedsnr" v="612530" />
		<tag k="waterway" v="stream" />
	</node>
	<node id="-36509" lat="60.080780558" lon="11.011800001">
		<tag k="name" v="Kulsrudbekken" />
		<tag k="ssr:stedsnr" v="84917" />
		<tag k="waterway" v="stream" />
	</node>
	<node id="-36508" lat="60.1102611073" lon="11.0662388874">
		<tag k="name" v="Mobekken" />
		<tag k="ssr:stedsnr" v="84142" />
		<tag k="waterway" v="stream" />
	</node>
	<node id="-36630" lat="60.0898777736" lon="11.0299055604">
		<tag k="name" v="Kvernstufossen" />
		<tag k="natural" v="waterfall" />
		<tag k="ssr:stedsnr" v="568866" />
	</node>
	<node id="-36628" lat="60.1209166626" lon="10.9479638809">
		<tag k="alt_name" v="Stråtjern;Stråtjernet" />
		<tag k="name" v="Stråsjøen" />
		<tag k="natural" v="water" />
		<tag k="ssr:stedsnr" v="551669" />
	</node>
	<node id="-36755" lat="60.0651259941" lon="10.9352237451">
		<tag k="fixme" v="multiple name tags, choose one and add the other to alt_name" />
		<tag k="name" v="Flabben;Mastutjern" />
		<tag k="natural" v="water" />
		<tag k="ssr:stedsnr" v="916527" />
	</node>
	<node id="-36752" lat="60.0565472232" lon="10.9536388931">
		<tag k="alt_name" v="Langvatn" />
		<tag k="name" v="Langvatnet" />
		<tag k="natural" v="water" />
		<tag k="ssr:stedsnr" v="915459" />
	</node>
	<node id="-36621" lat="60.0466499969" lon="11.0173444528">
		<tag k="alt_name" v="Ulvedalstjernet, nordre;Ulvedalstjern nordre" />
		<tag k="name" v="Nordre Ulvedalstjern" />
		<tag k="natural" v="water" />
		<tag k="ssr:stedsnr" v="551431" />
	</node>
	<node id="-36748" lat="60.063719443" lon="11.0194611165">
		<tag k="name" v="Askdammen" />
		<tag k="natural" v="water" />
		<tag k="ssr:stedsnr" v="873946" />
		<tag k="water" v="lake" />
	</node>
	<node id="-36618" lat="60.057255558" lon="11.024502784">
		<tag k="name" v="Flatbydammen" />
		<tag k="natural" v="water" />
		<tag k="ssr:stedsnr" v="509934" />
		<tag k="water" v="lake" />
	</node>
	<node id="-36489" lat="60.1006999967" lon="10.9460388929">
		<tag k="name" v="Prestfossen" />
		<tag k="natural" v="waterfall" />
		<tag k="ssr:stedsnr" v="6622" />
	</node>
	<node id="-36742" lat="60.0826944433" lon="10.9561416607">
		<tag k="name" v="Skeisfløyten" />
		<tag k="natural" v="water" />
		<tag k="ssr:stedsnr" v="872928" />
		<tag k="water" v="lake" />
	</node>
</osm>
