<?xml version="1.0" encoding="UTF-8"?>
<osm generator="osmapis" version="0.6">
	<node id="-821758" lat="63.0753722223" lon="9.31793610675">
		<tag k="name" v="Vasslættet" />
		<tag k="place" v="locality" />
		<tag k="ssr:stedsnr" v="523118" />
	</node>
	<node id="-821243" lat="63.0800416651" lon="9.40728055869">
		<tag k="name" v="Stakkengan" />
		<tag k="place" v="locality" />
		<tag k="ssr:stedsnr" v="949666" />
	</node>
	<node id="-820564" lat="63.0528694454" lon="9.33026666661">
		<tag k="name" v="Tilfjellslåtta" />
		<tag k="place" v="locality" />
		<tag k="ssr:stedsnr" v="159123" />
	</node>
	<node id="-820393" lat="63.0565555546" lon="9.304244443">
		<tag k="name" v="Isvasslættet" />
		<tag k="place" v="locality" />
		<tag k="ssr:stedsnr" v="220004" />
	</node>
	<node id="-821236" lat="63.0363083374" lon="9.30635833698">
		<tag k="name" v="Stormyra" />
		<tag k="natural" v="wetland" />
		<tag k="ssr:stedsnr" v="948268" />
	</node>
	<node id="-821235" lat="63.0312583374" lon="9.30481666596">
		<tag k="historic" v="shieling" />
		<tag k="name" v="Skjennstøet" />
		<tag k="place" v="locality" />
		<tag k="ssr:stedsnr" v="948264" />
	</node>
	<node id="-821233" lat="63.1123027792" lon="9.27736945358">
		<tag k="name" v="Gåsmyra" />
		<tag k="natural" v="wetland" />
		<tag k="ssr:stedsnr" v="948057" />
	</node>
	<node id="-821231" lat="63.0200972185" lon="9.31880277634">
		<tag k="name" v="Stampmyra" />
		<tag k="natural" v="wetland" />
		<tag k="ssr:stedsnr" v="948326" />
	</node>
	<node id="-820718" lat="63.062919441" lon="9.27157221898">
		<tag k="name" v="Lomtjønnmyran" />
		<tag k="natural" v="wetland" />
		<tag k="ssr:stedsnr" v="463834" />
	</node>
	<node id="-820477" lat="63.0302722257" lon="9.19391111225">
		<tag k="name" v="Myran" />
		<tag k="natural" v="wetland" />
		<tag k="ssr:stedsnr" v="96610" />
	</node>
	<node id="-821739" lat="63.0497416646" lon="9.13850277716">
		<tag k="historic" v="shieling" />
		<tag k="name" v="Skjennstøet" />
		<tag k="place" v="locality" />
		<tag k="ssr:stedsnr" v="521991" />
	</node>
	<node id="-820710" lat="63.027836108" lon="9.29700278529">
		<tag k="name" v="Lintrøa" />
		<tag k="place" v="locality" />
		<tag k="ssr:stedsnr" v="462203" />
	</node>
	<node id="-821755" lat="63.0743444489" lon="9.14192500679">
		<tag k="name" v="Tørsåsmyran" />
		<tag k="natural" v="wetland" />
		<tag k="ssr:stedsnr" v="522912" />
	</node>
	<node id="-821727" lat="63.0327805589" lon="9.21180277985">
		<tag k="name" v="Kattuglmyra" />
		<tag k="natural" v="wetland" />
		<tag k="ssr:stedsnr" v="521257" />
	</node>
	<node id="-821723" lat="63.0323305527" lon="9.1041805591">
		<tag k="name" v="Teinøran" />
		<tag k="place" v="locality" />
		<tag k="ssr:stedsnr" v="520110" />
	</node>
	<node id="-821210" lat="63.1647388897" lon="9.28256666068">
		<tag k="name" v="Litlslættet" />
		<tag k="place" v="locality" />
		<tag k="ssr:stedsnr" v="888928" />
	</node>
	<node id="-820696" lat="63.0336027761" lon="9.17310000595">
		<tag k="name" v="Hekkelmyra" />
		<tag k="natural" v="wetland" />
		<tag k="ssr:stedsnr" v="461629" />
	</node>
	<node id="-821202" lat="62.9931194438" lon="9.38564444265">
		<tag k="name" v="Seterholtet" />
		<tag k="place" v="locality" />
		<tag k="ssr:stedsnr" v="887064" />
	</node>
	<node id="-821201" lat="63.0397805574" lon="9.37470832868">
		<tag k="name" v="Vidskomyra" />
		<tag k="natural" v="wetland" />
		<tag k="ssr:stedsnr" v="887025" />
	</node>
	<node id="-821198" lat="63.0395722258" lon="9.14080832526">
		<tag k="name" v="Geitaholtet" />
		<tag k="place" v="locality" />
		<tag k="ssr:stedsnr" v="886953" />
	</node>
	<node id="-820685" lat="63.0405750016" lon="9.25010556439">
		<tag k="name" v="Skarmyra" />
		<tag k="natural" v="wetland" />
		<tag k="ssr:stedsnr" v="461022" />
	</node>
	<node id="-821195" lat="63.0300666633" lon="9.15348610573">
		<tag k="name" v="Bokkråa" />
		<tag k="natural" v="wetland" />
		<tag k="ssr:stedsnr" v="886407" />
	</node>
	<node id="-820679" lat="62.9852666667" lon="9.4071750079">
		<tag k="name" v="Hølsteinen" />
		<tag k="natural" v="stone" />
		<tag k="ssr:stedsnr" v="281114" />
	</node>
	<node id="-821921" lat="63.034036114" lon="9.30393333473">
		<tag k="name" v="Brøsetmyra" />
		<tag k="natural" v="wetland" />
		<tag k="ssr:stedsnr" v="643261" />
	</node>
	<node id="-820673" lat="63.0423083296" lon="9.2133944411">
		<tag k="name" v="Stormyra" />
		<tag k="natural" v="wetland" />
		<tag k="ssr:stedsnr" v="279018" />
	</node>
	<node id="-820669" lat="63.0673388849" lon="9.3503972296">
		<tag k="name" v="Steinkjerka" />
		<tag k="natural" v="stone" />
		<tag k="ssr:stedsnr" v="463092" />
	</node>
	<node id="-821692" lat="63.0983972238" lon="9.42000278576">
		<tag k="name" v="Smågrindan" />
		<tag k="place" v="locality" />
		<tag k="ssr:stedsnr" v="406166" />
	</node>
	<node id="-820664" lat="63.0742944449" lon="9.27306389659">
		<tag k="name" v="Lykkja" />
		<tag k="place" v="locality" />
		<tag k="ssr:stedsnr" v="463072" />
	</node>
	<node id="-821173" lat="63.013236113" lon="9.36881666911">
		<tag k="name" v="Bruvollen" />
		<tag k="place" v="locality" />
		<tag k="ssr:stedsnr" v="948538" />
	</node>
	<node id="-820660" lat="62.9702972178" lon="9.22680555393">
		<tag k="name" v="Storbekkmyra" />
		<tag k="natural" v="wetland" />
		<tag k="ssr:stedsnr" v="453792" />
	</node>
	<node id="-821171" lat="63.0123027807" lon="9.38781944066">
		<tag k="name" v="Ljøsåslåtta" />
		<tag k="place" v="locality" />
		<tag k="ssr:stedsnr" v="948438" />
	</node>
	<node id="-820749" lat="63.021391665" lon="9.40404721669">
		<tag k="name" v="Langmyra" />
		<tag k="natural" v="wetland" />
		<tag k="ssr:stedsnr" v="497338" />
	</node>
	<node id="-821680" lat="62.8440111072" lon="9.43854444984">
		<tag k="name" v="Bukkan" />
		<tag k="natural" v="wetland" />
		<tag k="ssr:stedsnr" v="402085" />
	</node>
	<node id="-821678" lat="63.1179249995" lon="9.330391664">
		<tag k="name" v="Storslættet" />
		<tag k="place" v="locality" />
		<tag k="ssr:stedsnr" v="402033" />
	</node>
	<node id="-821163" lat="63.0220805519" lon="9.27353889653">
		<tag k="name" v="Brannåsmyra" />
		<tag k="natural" v="wetland" />
		<tag k="ssr:stedsnr" v="948280" />
	</node>
	<node id="-821161" lat="62.9845277764" lon="9.39756389101">
		<tag k="name" v="Stormyra" />
		<tag k="natural" v="wetland" />
		<tag k="ssr:stedsnr" v="948147" />
	</node>
	<node id="-821672" lat="63.0491388931" lon="9.31741667019">
		<tag k="name" v="Klatterslættet" />
		<tag k="place" v="locality" />
		<tag k="ssr:stedsnr" v="402002" />
	</node>
	<node id="-821156" lat="63.0419027789" lon="9.37278333851">
		<tag k="name" v="Midtslættet" />
		<tag k="place" v="locality" />
		<tag k="ssr:stedsnr" v="948026" />
	</node>
	<node id="-821153" lat="63.0020277757" lon="9.15352222365">
		<tag k="name" v="Vargdiket" />
		<tag k="natural" v="wetland" />
		<tag k="ssr:stedsnr" v="947322" />
	</node>
	<node id="-821148" lat="63.0276083298" lon="9.16173889423">
		<tag k="name" v="Torvutgarden" />
		<tag k="natural" v="wetland" />
		<tag k="ssr:stedsnr" v="946572" />
	</node>
	<node id="-821656" lat="63.0548055555" lon="9.2457027851">
		<tag k="name" v="Høgåsen" />
		<tag k="natural" v="wetland" />
		<tag k="ssr:stedsnr" v="401106" />
	</node>
	<node id="-821060" lat="63.0159222215" lon="9.46106111806">
		<tag k="landuse" v="meadow" />
		<tag k="name" v="Bjørnslåtta" />
		<tag k="ssr:stedsnr" v="757705" />
	</node>
	<node id="-821072" lat="63.0242888889" lon="9.38953332792">
		<tag k="name" v="Slipran" />
		<tag k="place" v="locality" />
		<tag k="ssr:stedsnr" v="765935" />
	</node>
	<node id="-821644" lat="63.0277861138" lon="9.21772777545">
		<tag k="name" v="Tjørvelmyra" />
		<tag k="natural" v="wetland" />
		<tag k="ssr:stedsnr" v="400264" />
	</node>
	<node id="-822155" lat="63.0939000015" lon="9.43407777193">
		<tag k="name" v="Fuglsmyra" />
		<tag k="natural" v="wetland" />
		<tag k="ssr:stedsnr" v="953180" />
	</node>
	<node id="-821129" lat="63.0256527761" lon="9.38422777687">
		<tag k="name" v="Merrabekkslættet" />
		<tag k="place" v="locality" />
		<tag k="ssr:stedsnr" v="826915" />
	</node>
	<node id="-821127" lat="63.0306472188" lon="9.31327222908">
		<tag k="name" v="Skarmyra" />
		<tag k="natural" v="wetland" />
		<tag k="ssr:stedsnr" v="826314" />
	</node>
	<node id="-820614" lat="63.1478388912" lon="9.40977500773">
		<tag k="name" v="Sollimyran" />
		<tag k="natural" v="wetland" />
		<tag k="ssr:stedsnr" v="285115" />
	</node>
	<node id="-820613" lat="63.1599555597" lon="9.27432222447">
		<tag k="name" v="Øyeslættet" />
		<tag k="place" v="locality" />
		<tag k="ssr:stedsnr" v="281950" />
	</node>
	<node id="-820612" lat="63.161080553" lon="9.28052777238">
		<tag k="name" v="Storslættet" />
		<tag k="place" v="locality" />
		<tag k="ssr:stedsnr" v="281946" />
	</node>
	<node id="-820592" lat="63.1213444485" lon="9.33426666461">
		<tag k="name" v="Litlslættet" />
		<tag k="place" v="locality" />
		<tag k="ssr:stedsnr" v="281034" />
	</node>
	<node id="-821615" lat="63.1531444481" lon="9.36165832587">
		<tag k="name" v="Torfjellmyra" />
		<tag k="natural" v="wetland" />
		<tag k="ssr:stedsnr" v="376510" />
	</node>
	<node id="-821614" lat="63.1124416667" lon="9.2870305547">
		<tag k="name" v="Homyra" />
		<tag k="natural" v="wetland" />
		<tag k="ssr:stedsnr" v="376506" />
	</node>
	<node id="-821100" lat="63.1011333339" lon="9.3120583241">
		<tag k="name" v="Rindalsskogen" />
		<tag k="place" v="locality" />
		<tag k="ssr:stedsnr" v="923491" />
	</node>
	<node id="-822116" lat="63.068952776" lon="9.29056943921">
		<tag k="name" v="Midtitrøa" />
		<tag k="place" v="locality" />
		<tag k="ssr:stedsnr" v="827887" />
	</node>
	<node id="-821600" lat="62.8986027762" lon="9.36341944029">
		<tag k="name" v="Dukfonna - Åejjiendielhtie" />
		<tag k="name:no" v="Dukfonna" />
		<tag k="name:sma" v="Åejjiendielhtie" />
		<tag k="natural" v="glacier" />
		<tag k="ssr:stedsnr" v="376192" />
	</node>
	<node id="-822109" lat="63.0182194437" lon="9.32589443868">
		<tag k="name" v="Haraholtmyra" />
		<tag k="natural" v="wetland" />
		<tag k="ssr:stedsnr" v="827333" />
	</node>
	<node id="-820571" lat="63.0376111109" lon="9.12641388872">
		<tag k="name" v="Stormyra" />
		<tag k="natural" v="wetland" />
		<tag k="ssr:stedsnr" v="279927" />
	</node>
	<node id="-821594" lat="63.0979777765" lon="9.40598612073">
		<tag k="name" v="Vargmyra" />
		<tag k="natural" v="wetland" />
		<tag k="ssr:stedsnr" v="346182" />
	</node>
	<node id="-822100" lat="63.0401805538" lon="9.36891111833">
		<tag k="name" v="Litlslættet" />
		<tag k="place" v="locality" />
		<tag k="ssr:stedsnr" v="827023" />
	</node>
	<node id="-821584" lat="63.1649944428" lon="9.30589721363">
		<tag k="name" v="Litlura" />
		<tag k="natural" v="scree" />
		<tag k="ssr:stedsnr" v="341934" />
	</node>
	<node id="-820536" lat="62.9604666683" lon="9.19715833082">
		<tag k="name" v="Purkfonna" />
		<tag k="place" v="locality" />
		<tag k="ssr:stedsnr" v="268744" />
	</node>
	<node id="-820848" lat="63.0080611144" lon="9.48804166854">
		<tag k="name" v="Sjurslåtta" />
		<tag k="place" v="locality" />
		<tag k="ssr:stedsnr" v="524123" />
	</node>
	<node id="-822089" lat="63.1547305579" lon="9.17892500735">
		<tag k="name" v="Snipmyra" />
		<tag k="natural" v="wetland" />
		<tag k="ssr:stedsnr" v="826185" />
	</node>
	<node id="-821217" lat="63.0517999978" lon="9.27882778583">
		<tag k="name" v="Vaulmyran" />
		<tag k="natural" v="wetland" />
		<tag k="ssr:stedsnr" v="947015" />
	</node>
	<node id="-822084" lat="62.9803749979" lon="9.3857638911">
		<tag k="name" v="Tømmerlunnholtet" />
		<tag k="place" v="locality" />
		<tag k="ssr:stedsnr" v="826065" />
	</node>
	<node id="-821570" lat="63.0573861148" lon="9.12661666964">
		<tag k="name" v="Vassmyra" />
		<tag k="natural" v="wetland" />
		<tag k="ssr:stedsnr" v="340991" />
	</node>
	<node id="-820545" lat="63.1007777804" lon="9.07596665985">
		<tag k="name" v="Stenholtet" />
		<tag k="place" v="locality" />
		<tag k="ssr:stedsnr" v="278850" />
	</node>
	<node id="-820541" lat="63.0824555524" lon="9.25759722389">
		<tag k="name" v="Knøskkjukråa" />
		<tag k="natural" v="wetland" />
		<tag k="ssr:stedsnr" v="278027" />
	</node>
	<node id="-822075" lat="62.9734333337" lon="9.25337499719">
		<tag k="name" v="Busteinen" />
		<tag k="natural" v="stone" />
		<tag k="ssr:stedsnr" v="825683" />
	</node>
	<node id="-821560" lat="62.9267388873" lon="9.17356944904">
		<tag k="name" v="Skrantmyran" />
		<tag k="natural" v="wetland" />
		<tag k="ssr:stedsnr" v="340654" />
	</node>
	<node id="-820534" lat="63.0606083326" lon="9.38379999743">
		<tag k="name" v="Storgrøa" />
		<tag k="natural" v="wetland" />
		<tag k="ssr:stedsnr" v="268297" />
	</node>
	<node id="-821557" lat="63.0307861146" lon="9.3029833321">
		<tag k="name" v="Jerusan" />
		<tag k="place" v="locality" />
		<tag k="ssr:stedsnr" v="340270" />
	</node>
	<node id="-821037" lat="63.1433805567" lon="9.42312500788">
		<tag k="name" v="Skjeppmyra" />
		<tag k="natural" v="wetland" />
		<tag k="ssr:stedsnr" v="892955" />
	</node>
	<node id="-821544" lat="63.0572638892" lon="9.15955556537">
		<tag k="name" v="Lassnimyran" />
		<tag k="natural" v="wetland" />
		<tag k="ssr:stedsnr" v="340057" />
	</node>
	<node id="-822052" lat="62.9973805552" lon="9.44712778661">
		<tag k="landuse" v="meadow" />
		<tag k="name" v="Bergslættet" />
		<tag k="ssr:stedsnr" v="813451" />
	</node>
	<node id="-821026" lat="63.0363611083" lon="9.20721945102">
		<tag k="name" v="Gravholtet" />
		<tag k="place" v="locality" />
		<tag k="ssr:stedsnr" v="703315" />
	</node>
	<node id="-820513" lat="63.072122221" lon="9.36630556288">
		<tag k="name" v="Langurveggen" />
		<tag k="natural" v="scree" />
		<tag k="ssr:stedsnr" v="99114" />
	</node>
	<node id="-820510" lat="63.0995111067" lon="9.2896138948">
		<tag k="name" v="Teigen" />
		<tag k="place" v="locality" />
		<tag k="ssr:stedsnr" v="98960" />
	</node>
	<node id="-821010" lat="63.0427666672" lon="9.33008056434">
		<tag k="name" v="Bakmyra" />
		<tag k="natural" v="wetland" />
		<tag k="ssr:stedsnr" v="888086" />
	</node>
	<node id="-821520" lat="63.1535638869" lon="9.27378056009">
		<tag k="name" v="Stormyra" />
		<tag k="natural" v="wetland" />
		<tag k="ssr:stedsnr" v="316601" />
	</node>
	<node id="-820495" lat="62.9415361112" lon="9.1502499972">
		<tag k="name" v="Fjellmyra" />
		<tag k="natural" v="wetland" />
		<tag k="ssr:stedsnr" v="97666" />
	</node>
	<node id="-822029" lat="63.1438250004" lon="9.44079167012">
		<tag k="name" v="Karilykkja" />
		<tag k="place" v="locality" />
		<tag k="ssr:stedsnr" v="771939" />
	</node>
	<node id="-820486" lat="63.00355" lon="9.14730555886">
		<tag k="name" v="Skjeftmyran" />
		<tag k="natural" v="wetland" />
		<tag k="ssr:stedsnr" v="97322" />
	</node>
	<node id="-822021" lat="62.9984138884" lon="9.41045555404">
		<tag k="name" v="Stakkråa" />
		<tag k="place" v="locality" />
		<tag k="ssr:stedsnr" v="766374" />
	</node>
	<node id="-820996" lat="63.0356777809" lon="9.13080832502">
		<tag k="name" v="Rypholtet" />
		<tag k="place" v="locality" />
		<tag k="ssr:stedsnr" v="886931" />
	</node>
	<node id="-820479" lat="63.04232778" lon="9.21323888629">
		<tag k="name" v="Storsandbrauta" />
		<tag k="natural" v="wetland" />
		<tag k="ssr:stedsnr" v="97024" />
	</node>
	<node id="-822013" lat="63.0443222237" lon="9.39360000084">
		<tag k="name" v="Kløftslættet" />
		<tag k="place" v="locality" />
		<tag k="ssr:stedsnr" v="766018" />
	</node>
	<node id="-820476" lat="63.0383749981" lon="9.18911667638">
		<tag k="name" v="Tjørhellmyra" />
		<tag k="natural" v="wetland" />
		<tag k="ssr:stedsnr" v="96609" />
	</node>
	<node id="-822011" lat="63.0054138882" lon="9.46616943729">
		<tag k="landuse" v="meadow" />
		<tag k="name" v="Burshøyløenga" />
		<tag k="ssr:stedsnr" v="766142" />
	</node>
	<node id="-820986" lat="62.9538361092" lon="9.13393888387">
		<tag k="name" v="Myran" />
		<tag k="natural" v="wetland" />
		<tag k="ssr:stedsnr" v="886038" />
	</node>
	<node id="-821492" lat="62.9868277767" lon="9.445977783">
		<tag k="name" v="Langvasskjølen" />
		<tag k="natural" v="wetland" />
		<tag k="ssr:stedsnr" v="207355" />
	</node>
	<node id="-822002" lat="63.0817638924" lon="9.22349721518">
		<tag k="name" v="Lintjønnmyra" />
		<tag k="natural" v="wetland" />
		<tag k="ssr:stedsnr" v="765192" />
	</node>
	<node id="-821032" lat="62.9951888854" lon="9.39978611243">
		<tag k="name" v="Setermarka" />
		<tag k="place" v="locality" />
		<tag k="ssr:stedsnr" v="705433" />
	</node>
	<node id="-821988" lat="63.0454916626" lon="9.11734166896">
		<tag k="name" v="Jøtulsteinan" />
		<tag k="natural" v="stone" />
		<tag k="ssr:stedsnr" v="764957" />
	</node>
	<node id="-820516" lat="63.0147694401" lon="9.46977221769">
		<tag k="name" v="Geitmyra" />
		<tag k="natural" v="wetland" />
		<tag k="ssr:stedsnr" v="99157" />
	</node>
	<node id="-820437" lat="63.0447416706" lon="9.3565916605">
		<tag k="name" v="Bergslættet" />
		<tag k="place" v="locality" />
		<tag k="ssr:stedsnr" v="38011" />
	</node>
	<node id="-820944" lat="62.9187305512" lon="9.1810305562">
		<tag k="name" v="Støggukinngrøa" />
		<tag k="natural" v="scree" />
		<tag k="ssr:stedsnr" v="582680" />
	</node>
	<node id="-820942" lat="63.0532111082" lon="9.2435777856">
		<tag k="name" v="Høgåsmyra" />
		<tag k="natural" v="wetland" />
		<tag k="ssr:stedsnr" v="582091" />
	</node>
	<node id="-820428" lat="62.9776000044" lon="9.38245278163">
		<tag k="name" v="Stormyra" />
		<tag k="natural" v="wetland" />
		<tag k="ssr:stedsnr" v="25303" />
	</node>
	<node id="-821952" lat="63.1121666623" lon="9.40315278574">
		<tag k="name" v="Liamyra" />
		<tag k="natural" v="wetland" />
		<tag k="ssr:stedsnr" v="649234" />
	</node>
	<node id="-821439" lat="63.0111333335" lon="9.43804723131">
		<tag k="name" v="Gjelmelen" />
		<tag k="place" v="locality" />
		<tag k="ssr:stedsnr" v="159448" />
	</node>
	<node id="-821949" lat="63.1500083336" lon="9.42000833008">
		<tag k="name" v="Lykkja" />
		<tag k="place" v="locality" />
		<tag k="ssr:stedsnr" v="648142" />
	</node>
	<node id="-821431" lat="63.1117861154" lon="9.30211943962">
		<tag k="name" v="Liabrontrøa" />
		<tag k="place" v="locality" />
		<tag k="ssr:stedsnr" v="159036" />
	</node>
	<node id="-820918" lat="63.1657416623" lon="9.29279999335">
		<tag k="name" v="Nyhøyløslættet" />
		<tag k="place" v="locality" />
		<tag k="ssr:stedsnr" v="705923" />
	</node>
	<node id="-820917" lat="63.0255611122" lon="9.38570555842">
		<tag k="name" v="Vidskoslættet" />
		<tag k="place" v="locality" />
		<tag k="ssr:stedsnr" v="705913" />
	</node>
	<node id="-820912" lat="63.0009249993" lon="9.43892499156">
		<tag k="name" v="Åkertjønnmyran" />
		<tag k="natural" v="wetland" />
		<tag k="ssr:stedsnr" v="705475" />
	</node>
	<node id="-820910" lat="63.0132000012" lon="9.39446389412">
		<tag k="name" v="Holttrøa" />
		<tag k="place" v="locality" />
		<tag k="ssr:stedsnr" v="705468" />
	</node>
	<node id="-821932" lat="62.9915750006" lon="9.39719445274">
		<tag k="name" v="Setermarka" />
		<tag k="place" v="locality" />
		<tag k="ssr:stedsnr" v="644122" />
	</node>
	<node id="-820906" lat="63.0349861138" lon="9.30418055873">
		<tag k="name" v="Litlslættet" />
		<tag k="place" v="locality" />
		<tag k="ssr:stedsnr" v="705280" />
	</node>
	<node id="-820905" lat="63.1616027796" lon="9.16891388316">
		<tag k="name" v="Rutmyran" />
		<tag k="natural" v="wetland" />
		<tag k="ssr:stedsnr" v="705206" />
	</node>
	<node id="-821928" lat="63.0313694469" lon="9.11373056334">
		<tag k="name" v="Kalvholta" />
		<tag k="place" v="locality" />
		<tag k="ssr:stedsnr" v="643938" />
	</node>
	<node id="-821927" lat="63.0391444458" lon="9.13006667633">
		<tag k="name" v="Blåbærholtet" />
		<tag k="place" v="locality" />
		<tag k="ssr:stedsnr" v="643928" />
	</node>
	<node id="-820900" lat="63.0813361074" lon="9.28064167538">
		<tag k="name" v="Rotslættmyran" />
		<tag k="natural" v="wetland" />
		<tag k="ssr:stedsnr" v="705121" />
	</node>
	<node id="-821409" lat="63.0284333348" lon="9.17645833753">
		<tag k="name" v="Nyhøylømyran" />
		<tag k="natural" v="wetland" />
		<tag k="ssr:stedsnr" v="157575" />
	</node>
	<node id="-821920" lat="63.0412333361" lon="9.19634722617">
		<tag k="name" v="Blomøylykkja" />
		<tag k="place" v="locality" />
		<tag k="ssr:stedsnr" v="643222" />
	</node>
	<node id="-821407" lat="63.0314055551" lon="9.18736389042">
		<tag k="name" v="Tøskjøten" />
		<tag k="natural" v="wetland" />
		<tag k="ssr:stedsnr" v="157567" />
	</node>
	<node id="-820591" lat="63.1222611085" lon="9.32337500521">
		<tag k="name" v="Godfarslættet" />
		<tag k="place" v="locality" />
		<tag k="ssr:stedsnr" v="281032" />
	</node>
	<node id="-820882" lat="63.1018166657" lon="9.06333610998">
		<tag k="name" v="Nermyran" />
		<tag k="natural" v="wetland" />
		<tag k="ssr:stedsnr" v="703849" />
	</node>
	<node id="-821903" lat="63.0231361139" lon="9.48381665759">
		<tag k="landuse" v="meadow" />
		<tag k="name" v="Innerslåtta" />
		<tag k="ssr:stedsnr" v="635710" />
	</node>
	<node id="-821390" lat="63.0851138891" lon="9.34434443771">
		<tag k="landuse" v="meadow" />
		<tag k="name" v="Larsslættet" />
		<tag k="ssr:stedsnr" v="145324" />
	</node>
	<node id="-820363" lat="63.0281944462" lon="9.22591666138">
		<tag k="name" v="Grytmyra" />
		<tag k="natural" v="wetland" />
		<tag k="ssr:stedsnr" v="218277" />
	</node>
	<node id="-820857" lat="62.9765138929" lon="9.26433611109">
		<tag k="name" v="Rikmyran" />
		<tag k="natural" v="wetland" />
		<tag k="ssr:stedsnr" v="692310" />
	</node>
	<node id="-821367" lat="63.0685722209" lon="9.29109167458">
		<tag k="name" v="Sommarfjøstrøa" />
		<tag k="place" v="locality" />
		<tag k="ssr:stedsnr" v="99877" />
	</node>
	<node id="-821364" lat="63.1218027798" lon="9.39048888394">
		<tag k="name" v="Kvennamyra" />
		<tag k="natural" v="wetland" />
		<tag k="ssr:stedsnr" v="99051" />
	</node>
	<node id="-820851" lat="63.1006638905" lon="9.30578889211">
		<tag k="name" v="Stormyra" />
		<tag k="natural" v="wetland" />
		<tag k="ssr:stedsnr" v="523972" />
	</node>
	<node id="-821874" lat="63.1287166643" lon="9.40016111678">
		<tag k="historic" v="shieling" />
		<tag k="name" v="Fødselsvollen" />
		<tag k="place" v="locality" />
		<tag k="ssr:stedsnr" v="588945" />
	</node>
	<node id="-821361" lat="63.0402916686" lon="9.3378472251">
		<tag k="name" v="Bakmyran" />
		<tag k="natural" v="wetland" />
		<tag k="ssr:stedsnr" v="99018" />
	</node>
	<node id="-821360" lat="63.0453277774" lon="9.38713056153">
		<tag k="name" v="Stokkvass slættet" />
		<tag k="place" v="locality" />
		<tag k="ssr:stedsnr" v="99011" />
	</node>
	<node id="-821359" lat="63.0828361085" lon="9.36234999368">
		<tag k="name" v="Høgslættet" />
		<tag k="place" v="locality" />
		<tag k="ssr:stedsnr" v="98949" />
	</node>
	<node id="-820755" lat="63.1111999975" lon="8.99369721884">
		<tag k="name" v="Grønkjølen" />
		<tag k="natural" v="wetland" />
		<tag k="ssr:stedsnr" v="497686" />
	</node>
	<node id="-821857" lat="63.0857333336" lon="9.36729721689">
		<tag k="name" v="Litlslættet" />
		<tag k="place" v="locality" />
		<tag k="ssr:stedsnr" v="583956" />
	</node>
	<node id="-821855" lat="63.088611108" lon="9.34965555832">
		<tag k="name" v="Bjønnahiet" />
		<tag k="natural" v="stone" />
		<tag k="ssr:stedsnr" v="583952" />
	</node>
	<node id="-821851" lat="63.027636109" lon="9.37398332634">
		<tag k="name" v="Åsmyra" />
		<tag k="natural" v="wetland" />
		<tag k="ssr:stedsnr" v="583929" />
	</node>
	<node id="-821850" lat="63.0082527755" lon="9.44392777947">
		<tag k="name" v="Tjønnhaugmyra" />
		<tag k="natural" v="wetland" />
		<tag k="ssr:stedsnr" v="583408" />
	</node>
	<node id="-820989" lat="62.9902166691" lon="9.35901110207">
		<tag k="landuse" v="meadow" />
		<tag k="name" v="Sverkeenga" />
		<tag k="ssr:stedsnr" v="886047" />
	</node>
	<node id="-821334" lat="62.9652055597" lon="9.32396111073">
		<tag k="name" v="Solmyran" />
		<tag k="natural" v="wetland" />
		<tag k="ssr:stedsnr" v="86299" />
	</node>
	<node id="-821840" lat="63.0198916689" lon="9.16850556413">
		<tag k="name" v="Storslettmyran" />
		<tag k="natural" v="wetland" />
		<tag k="ssr:stedsnr" v="582624" />
	</node>
	<node id="-821839" lat="63.1207472243" lon="9.07435833754">
		<tag k="name" v="Gulmyran" />
		<tag k="natural" v="wetland" />
		<tag k="ssr:stedsnr" v="582792" />
	</node>
	<node id="-820813" lat="63.0075694406" lon="9.42607499579">
		<tag k="name" v="Øygardsholtet" />
		<tag k="place" v="locality" />
		<tag k="ssr:stedsnr" v="463357" />
	</node>
	<node id="-820810" lat="63.0929611126" lon="9.28263888329">
		<tag k="name" v="Holtlykkja" />
		<tag k="place" v="locality" />
		<tag k="ssr:stedsnr" v="462972" />
	</node>
	<node id="-820919" lat="63.0294916702" lon="9.35454443617">
		<tag k="name" v="Kvennmyran" />
		<tag k="natural" v="wetland" />
		<tag k="ssr:stedsnr" v="705927" />
	</node>
	<node id="-821872" lat="63.1275583297" lon="9.31068054773">
		<tag k="name" v="Husatrøa" />
		<tag k="place" v="locality" />
		<tag k="ssr:stedsnr" v="584920" />
	</node>
	<node id="-820805" lat="63.1141666671" lon="9.38796666459">
		<tag k="name" v="Djupdompa" />
		<tag k="natural" v="wetland" />
		<tag k="ssr:stedsnr" v="463040" />
	</node>
	<node id="-821827" lat="63.0389083303" lon="9.23928611102">
		<tag k="name" v="Melatrøa" />
		<tag k="place" v="locality" />
		<tag k="ssr:stedsnr" v="582017" />
	</node>
	<node id="-820800" lat="63.1202305568" lon="9.31580000086">
		<tag k="name" v="Langhaugslættet" />
		<tag k="place" v="locality" />
		<tag k="ssr:stedsnr" v="463019" />
	</node>
	<node id="-821307" lat="62.9830638902" lon="9.41506666647">
		<tag k="name" v="Seterholtet" />
		<tag k="place" v="locality" />
		<tag k="ssr:stedsnr" v="38138" />
	</node>
	<node id="-821305" lat="63.1154361081" lon="9.3785388933">
		<tag k="name" v="Valan" />
		<tag k="natural" v="wetland" />
		<tag k="ssr:stedsnr" v="38049" />
	</node>
	<node id="-820789" lat="63.0341716696" lon="9.45509286862">
		<tag k="landuse" v="meadow" />
		<tag k="name" v="Årbuslættet" />
		<tag k="ssr:stedsnr" v="510239" />
	</node>
	<node id="-820784" lat="63.1588527787" lon="9.4336583278">
		<tag k="name" v="Lomundsjømyran" />
		<tag k="natural" v="wetland" />
		<tag k="ssr:stedsnr" v="407127" />
	</node>
	<node id="-820548" lat="63.0463222255" lon="9.1457277774">
		<tag k="historic" v="shieling" />
		<tag k="name" v="Gammellinvollen" />
		<tag k="place" v="locality" />
		<tag k="ssr:stedsnr" v="279050" />
	</node>
	<node id="-821337" lat="63.0907222228" lon="9.23216667104">
		<tag k="name" v="Blomholtan" />
		<tag k="place" v="locality" />
		<tag k="ssr:stedsnr" v="96030" />
	</node>
	<node id="-821780" lat="63.0868138849" lon="9.40632778336">
		<tag k="name" v="Kvennhusråa" />
		<tag k="place" v="locality" />
		<tag k="ssr:stedsnr" v="528195" />
	</node>
	<node id="-821779" lat="63.1491777744" lon="9.43422222144">
		<tag k="name" v="Torvhusmyra" />
		<tag k="natural" v="wetland" />
		<tag k="ssr:stedsnr" v="527044" />
	</node>
	<node id="-821773" lat="63.1666999996" lon="9.28203054583">
		<tag k="name" v="Tuvslættet" />
		<tag k="place" v="locality" />
		<tag k="ssr:stedsnr" v="523934" />
	</node>
	<node id="-820394" lat="63.0475555527" lon="9.31127777237">
		<tag k="name" v="Pallan" />
		<tag k="place" v="locality" />
		<tag k="ssr:stedsnr" v="220007" />
	</node>
	<node id="-820738" lat="63.0029805521" lon="9.47788333453">
		<tag k="landuse" v="meadow" />
		<tag k="name" v="Nyhøyløenga" />
		<tag k="ssr:stedsnr" v="341461" />
	</node>
	<node id="-820908" lat="63.0192527818" lon="9.28395832778">
		<tag k="name" v="Stormyra" />
		<tag k="natural" v="wetland" />
		<tag k="ssr:stedsnr" v="705292" />
	</node>
	<node id="-821250" lat="63.1746942763" lon="9.24032393671">
		<tag k="historic" v="shieling" />
		<tag k="name" v="Møkkelgardssetra" />
		<tag k="place" v="locality" />
		<tag k="ssr:stedsnr" v="12523" />
	</node>
</osm>
