<?xml version="1.0" encoding="UTF-8"?>
<osm version="0.6" generator="osmapis">
	<node lat="63.163995581213086" lon="9.43140817581514" id="-37622">
		<tag k="fixme" v="consider place=hamlet" />
		<tag k="name" v="Pelia" />
		<tag k="place" v="farm" />
		<tag k="ssr:stedsnr" v="12509" />
	</node>
	<node lat="63.17271388933027" lon="9.450736108207442" id="-37623">
		<tag k="name" v="Sagvoll" />
		<tag k="place" v="farm" />
		<tag k="ssr:stedsnr" v="12517" />
	</node>
	<node lat="63.00842606697459" lon="9.471798529717212" id="-37625">
		<tag k="fixme" v="consider place=hamlet" />
		<tag k="name" v="Tretta" />
		<tag k="place" v="farm" />
		<tag k="ssr:stedsnr" v="12284" />
	</node>
	<node lat="63.10513333228165" lon="9.386163891186628" id="-37626">
		<tag k="name" v="Semundset" />
		<tag k="place" v="farm" />
		<tag k="ssr:stedsnr" v="12429" />
	</node>
	<node lat="63.04676944732915" lon="9.249319453041517" id="-37636">
		<tag k="name" v="Ner-Løset" />
		<tag k="place" v="farm" />
		<tag k="ssr:stedsnr" v="36031" />
	</node>
	<node lat="63.041558331152906" lon="9.147008325109807" id="-37644">
		<tag k="name" v="Høgås" />
		<tag k="place" v="farm" />
		<tag k="ssr:stedsnr" v="37070" />
	</node>
	<node lat="63.12911944115658" lon="9.412547214292113" id="-37656">
		<tag k="name" v="Lian" />
		<tag k="place" v="farm" />
		<tag k="ssr:stedsnr" v="42928" />
	</node>
	<node lat="63.15821199551114" lon="9.417642078732001" id="-37657">
		<tag k="fixme" v="consider place=hamlet" />
		<tag k="name" v="Frekslia" />
		<tag k="place" v="farm" />
		<tag k="ssr:stedsnr" v="73524" />
	</node>
	<node lat="63.11378611021561" lon="9.336674995249737" id="-37658">
		<tag k="name" v="Høgholtgjerdet" />
		<tag k="place" v="farm" />
		<tag k="ssr:stedsnr" v="73463" />
	</node>
	<node lat="63.101591662879805" lon="9.365122230440411" id="-37659">
		<tag k="name" v="Såmmårvollen" />
		<tag k="place" v="farm" />
		<tag k="ssr:stedsnr" v="73464" />
	</node>
	<node lat="63.19596389012627" lon="9.304313880480748" id="-37660">
		<tag k="name" v="Storhaugen" />
		<tag k="place" v="isolated_dwelling" />
		<tag k="ssr:stedsnr" v="73615" />
	</node>
	<node lat="63.20482500335442" lon="9.330649999809754" id="-37662">
		<tag k="name" v="Perlivollen" />
		<tag k="place" v="isolated_dwelling" />
		<tag k="ssr:stedsnr" v="73625" />
	</node>
	<node lat="63.11921388666321" lon="9.19393332889859" id="-37663">
		<tag k="name" v="Trønsdalssetra" />
		<tag k="place" v="isolated_dwelling" />
		<tag k="ssr:stedsnr" v="73708" />
	</node>
	<node lat="63.09032221785134" lon="9.167655557528624" id="-37664">
		<tag k="historic" v="shieling" />
		<tag k="name" v="Bjørnåssetra" />
		<tag k="place" v="isolated_dwelling" />
		<tag k="ssr:stedsnr" v="73732" />
	</node>
	<node lat="63.11264722656797" lon="9.190880561431458" id="-37671">
		<tag k="historic" v="shieling" />
		<tag k="name" v="Vaulanseter" />
		<tag k="place" v="isolated_dwelling" />
		<tag k="ssr:stedsnr" v="97068" />
	</node>
	<node lat="63.03230000173216" lon="9.107291671239555" id="-37682">
		<tag k="name" v="Utistu Aune" />
		<tag k="place" v="farm" />
		<tag k="ssr:stedsnr" v="97909" />
	</node>
	<node lat="63.092625476680304" lon="9.269364244029223" id="-37694">
		<tag k="fixme" v="consider place=hamlet" />
		<tag k="name" v="Holten" />
		<tag k="place" v="farm" />
		<tag k="ssr:stedsnr" v="100202" />
	</node>
	<node lat="63.08214444105877" lon="9.311102774760222" id="-37698">
		<tag k="name" v="Solheim" />
		<tag k="place" v="farm" />
		<tag k="ssr:stedsnr" v="133375" />
	</node>
	<node lat="63.14501666324278" lon="9.44554445149809" id="-37699">
		<tag k="alt_name" v="Gåsvatn;Nordgard" />
		<tag k="name" v="Gåsvasstrøa" />
		<tag k="place" v="farm" />
		<tag k="ssr:stedsnr" v="133504" />
	</node>
	<node lat="62.849499341450546" lon="9.455321681499461" id="-37701">
		<tag k="name" v="Åssetra" />
		<tag k="place" v="locality" />
		<tag k="ssr:stedsnr" v="133819" />
	</node>
	<node lat="63.04577499903715" lon="9.254244443372675" id="-37702">
		<tag k="name" v="Langholten" />
		<tag k="place" v="farm" />
		<tag k="ssr:stedsnr" v="134413" />
	</node>
	<node lat="63.03796513718551" lon="9.218697403407973" id="-37703">
		<tag k="fixme" v="consider place=hamlet" />
		<tag k="name" v="Langlia" />
		<tag k="place" v="farm" />
		<tag k="ssr:stedsnr" v="134415" />
	</node>
	<node lat="63.103042365472525" lon="9.38203393552496" id="-37706">
		<tag k="fixme" v="consider place=hamlet" />
		<tag k="name" v="Nedgarden" />
		<tag k="place" v="farm" />
		<tag k="ssr:stedsnr" v="141138" />
	</node>
	<node lat="62.95311666477321" lon="9.26741389201456" id="-37711">
		<tag k="name" v="Dørgesetra" />
		<tag k="place" v="isolated_dwelling" />
		<tag k="ssr:stedsnr" v="255153" />
	</node>
	<node lat="63.01064550520861" lon="9.409013543664816" id="-37713">
		<tag k="fixme" v="consider place=hamlet" />
		<tag k="name" v="Stomprød" />
		<tag k="place" v="farm" />
		<tag k="ssr:stedsnr" v="255331" />
	</node>
	<node lat="63.02100000355315" lon="9.352749996671621" id="-37715">
		<tag k="name" v="Granlund" />
		<tag k="place" v="farm" />
		<tag k="ssr:stedsnr" v="255341" />
	</node>
	<node lat="63.03487742375432" lon="9.275495669109082" id="-37716">
		<tag k="alt_name" v="Rød" />
		<tag k="fixme" v="consider place=hamlet" />
		<tag k="name" v="Røen" />
		<tag k="place" v="farm" />
		<tag k="ssr:stedsnr" v="255359" />
	</node>
	<node lat="63.03524166368969" lon="9.271605559846975" id="-37717">
		<tag k="name" v="Røslykkja" />
		<tag k="place" v="farm" />
		<tag k="ssr:stedsnr" v="255360" />
	</node>
	<node lat="63.03680833086694" lon="9.270013882024152" id="-37718">
		<tag k="name" v="Løsetlia" />
		<tag k="place" v="farm" />
		<tag k="ssr:stedsnr" v="255361" />
	</node>
	<node lat="63.07591210290275" lon="9.222879752711373" id="-37719">
		<tag k="fixme" v="consider place=hamlet" />
		<tag k="name" v="Fosseide" />
		<tag k="place" v="farm" />
		<tag k="ssr:stedsnr" v="255424" />
	</node>
	<node lat="63.07790000291966" lon="9.293024991687934" id="-37720">
		<tag k="name" v="Løvset" />
		<tag k="place" v="farm" />
		<tag k="ssr:stedsnr" v="255427" />
	</node>
	<node lat="63.10334166858569" lon="9.367616665232616" id="-37725">
		<tag k="name" v="Vollen" />
		<tag k="place" v="farm" />
		<tag k="ssr:stedsnr" v="255445" />
	</node>
	<node lat="63.10358691577509" lon="9.293955024216764" id="-37726">
		<tag k="fixme" v="consider place=hamlet" />
		<tag k="name" v="Sverkelia" />
		<tag k="place" v="farm" />
		<tag k="ssr:stedsnr" v="255446" />
	</node>
	<node lat="63.07972499966561" lon="9.20114999602509" id="-37732">
		<tag k="name" v="Lauvlia" />
		<tag k="place" v="farm" />
		<tag k="ssr:stedsnr" v="255651" />
	</node>
	<node lat="62.84196666634965" lon="9.408455548342673" id="-37736">
		<tag k="historic" v="shieling" />
		<tag k="name" v="Bruholtsetra" />
		<tag k="place" v="isolated_dwelling" />
		<tag k="ssr:stedsnr" v="255855" />
	</node>
	<node lat="63.072652779650674" lon="9.343549997938545" id="-37753">
		<tag k="historic" v="shieling" />
		<tag k="name" v="Tisetsetrin" />
		<tag k="place" v="isolated_dwelling" />
		<tag k="ssr:stedsnr" v="159118" />
	</node>
	<node lat="63.19019444374931" lon="9.244741661962516" id="-37761">
		<tag k="name" v="Bendiksetra" />
		<tag k="place" v="isolated_dwelling" />
		<tag k="ssr:stedsnr" v="263154" />
	</node>
	<node lat="63.10059820124534" lon="9.430516750704895" id="-37763">
		<tag k="name" v="Tømmerhaugen" />
		<tag k="place" v="locality" />
		<tag k="ssr:stedsnr" v="195485" />
	</node>
	<node lat="63.101646673036505" lon="9.391970271791207" id="-37764">
		<tag k="name" v="Grøset" />
		<tag k="place" v="farm" />
		<tag k="ssr:stedsnr" v="195488" />
	</node>
	<node lat="63.153997219893874" lon="9.413147223450313" id="-37802">
		<tag k="name" v="Øytun" />
		<tag k="place" v="farm" />
		<tag k="ssr:stedsnr" v="224122" />
	</node>
	<node lat="63.16717777838447" lon="9.439913889563911" id="-37804">
		<tag k="name" v="Moen" />
		<tag k="place" v="farm" />
		<tag k="ssr:stedsnr" v="225101" />
	</node>
	<node lat="62.98583055782031" lon="9.227872213936537" id="-37812">
		<tag k="name" v="Bolmsetrin" />
		<tag k="place" v="isolated_dwelling" />
		<tag k="ssr:stedsnr" v="255183" />
	</node>
	<node lat="63.13348610843622" lon="9.309747214281716" id="-37814">
		<tag k="name" v="Trøa" />
		<tag k="place" v="farm" />
		<tag k="ssr:stedsnr" v="255469" />
	</node>
	<node lat="63.12443055704636" lon="9.389436104847904" id="-37815">
		<tag k="name" v="Damlia" />
		<tag k="place" v="farm" />
		<tag k="ssr:stedsnr" v="255481" />
	</node>
	<node lat="63.12446944770561" lon="9.38453888308228" id="-37816">
		<tag k="name" v="Solås" />
		<tag k="place" v="farm" />
		<tag k="ssr:stedsnr" v="255483" />
	</node>
	<node lat="63.17037991485953" lon="9.44789320963435" id="-37817">
		<tag k="name" v="Jolia" />
		<tag k="place" v="farm" />
		<tag k="ssr:stedsnr" v="255517" />
	</node>
	<node lat="63.045511112555424" lon="9.26290278694018" id="-37829">
		<tag k="name" v="Oppistu Løset" />
		<tag k="place" v="farm" />
		<tag k="ssr:stedsnr" v="279020" />
	</node>
	<node lat="63.04278055796937" lon="9.17166667457243" id="-37831">
		<tag k="name" v="Dalheim" />
		<tag k="place" v="farm" />
		<tag k="ssr:stedsnr" v="279034" />
	</node>
	<node lat="63.19078055206593" lon="9.252974991866283" id="-37839">
		<tag k="name" v="Storslettet" />
		<tag k="place" v="isolated_dwelling" />
		<tag k="ssr:stedsnr" v="280123" />
	</node>
	<node lat="63.14801666688548" lon="9.393652782377405" id="-37842">
		<tag k="name" v="Stenset" />
		<tag k="place" v="farm" />
		<tag k="ssr:stedsnr" v="280911" />
	</node>
	<node lat="63.07689444641369" lon="9.322574995016536" id="-37843">
		<tag k="name" v="Luli" />
		<tag k="place" v="farm" />
		<tag k="ssr:stedsnr" v="281086" />
	</node>
	<node lat="63.05234731119785" lon="9.20639366604234" id="-37854">
		<tag k="fixme" v="consider place=hamlet" />
		<tag k="name" v="Rindalen" />
		<tag k="place" v="farm" />
		<tag k="ssr:stedsnr" v="461042" />
	</node>
	<node lat="63.046033336998825" lon="9.130538889089408" id="-37865">
		<tag k="name" v="Almberg" />
		<tag k="place" v="farm" />
		<tag k="ssr:stedsnr" v="461990" />
	</node>
	<node lat="63.077716666624525" lon="9.093352785831291" id="-37868">
		<tag k="historic" v="shieling" />
		<tag k="name" v="Finnråa" />
		<tag k="place" v="isolated_dwelling" />
		<tag k="ssr:stedsnr" v="461945" />
	</node>
	<node lat="63.04152777785165" lon="9.123922221379923" id="-37869">
		<tag k="name" v="Aune" />
		<tag k="place" v="farm" />
		<tag k="ssr:stedsnr" v="461950" />
	</node>
	<node lat="63.04178333103169" lon="9.13001667472884" id="-37870">
		<tag k="name" v="Bølluøya" />
		<tag k="place" v="farm" />
		<tag k="ssr:stedsnr" v="461954" />
	</node>
	<node lat="63.17494880201149" lon="9.241091741544814" id="-37871">
		<tag k="name" v="Ljøsådalseter" />
		<tag k="place" v="isolated_dwelling" />
		<tag k="ssr:stedsnr" v="462125" />
	</node>
	<node lat="63.10340833381844" lon="9.29486388724131" id="-37875">
		<tag k="name" v="Sverkelia" />
		<tag k="place" v="farm" />
		<tag k="ssr:stedsnr" v="463030" />
	</node>
	<node lat="63.10271388787414" lon="9.39613055813547" id="-37876">
		<tag k="name" v="Grøset" />
		<tag k="place" v="farm" />
		<tag k="ssr:stedsnr" v="463033" />
	</node>
	<node lat="63.103102781299484" lon="9.354747225603091" id="-37877">
		<tag k="name" v="Oppheim" />
		<tag k="place" v="farm" />
		<tag k="ssr:stedsnr" v="463037" />
	</node>
	<node lat="63.101508331385546" lon="9.351447224874718" id="-37895">
		<tag k="name" v="Furuhaugen" />
		<tag k="place" v="farm" />
		<tag k="ssr:stedsnr" v="463952" />
	</node>
	<node lat="63.06677500263994" lon="9.221699998498545" id="-37898">
		<tag k="fixme" v="consider place=hamlet" />
		<tag k="name" v="Landsemn" />
		<tag k="place" v="farm" />
		<tag k="ssr:stedsnr" v="315360" />
	</node>
	<node lat="63.04508611130524" lon="9.174988897172453" id="-37917">
		<tag k="name" v="Austistua" />
		<tag k="place" v="farm" />
		<tag k="ssr:stedsnr" v="340206" />
	</node>
</osm>
