<?xml version="1.0" encoding="UTF-8"?>
<<<<<<< HEAD
<osm version="0.6" generator="osmapis">
	<node lat="63.158799999968096" lon="9.426352785801404" id="-41392">
=======
<osm generator="osmapis" version="0.6">
	<node id="-832151" lat="63.1029027751" lon="9.39245277994">
		<tag k="amenity" v="place_of_worship" />
		<tag k="fixme" v="specify religion=*, denomination=*, building=* etc" />
		<tag k="name" v="Fredly bedehus" />
		<tag k="ssr:stedsnr" v="220057" />
	</node>
	<node id="-832852" lat="63.0513500019" lon="9.17153889367">
		<tag k="amenity" v="community_centre" />
		<tag k="name" v="Torshall" />
		<tag k="ssr:stedsnr" v="97037" />
	</node>
	<node id="-832337" lat="63.0515247453" lon="9.20968841708">
>>>>>>> e1d4bc35ff8a6074a6f2e91616a996b547c36f15
		<tag k="amenity" v="place_of_worship" />
		<tag k="denomination" v="lutheran" />
		<tag k="name" v="Rindal kirke" />
		<tag k="religion" v="christian" />
		<tag k="ssr:stedsnr" v="679579" />
	</node>
<<<<<<< HEAD
=======
	<node id="-833680" lat="63.058550195" lon="9.21263211915">
		<tag k="amenity" v="community_centre" />
		<tag k="name" v="Rindalshuset" />
		<tag k="ssr:stedsnr" v="1076330" />
	</node>
	<node id="-833610" lat="63.0977666657" lon="9.32193611894">
		<tag k="amenity" v="place_of_worship" />
		<tag k="fixme" v="specify religion=*, denomination=*, building=* etc" />
		<tag k="name" v="Øvre Rindal kapell" />
		<tag k="ssr:stedsnr" v="826986" />
	</node>
	<node id="-832232" lat="63.1588" lon="9.4263527858">
		<tag k="amenity" v="place_of_worship" />
		<tag k="fixme" v="specify religion=*, denomination=*, building=* etc" />
		<tag k="name" v="Lomundsjø bedehus" />
		<tag k="ssr:stedsnr" v="467092" />
	</node>
>>>>>>> e1d4bc35ff8a6074a6f2e91616a996b547c36f15
</osm>
