<?xml version="1.0" encoding="UTF-8"?>
<osm version="0.6" generator="osmapis">
	<node lat="63.07253888870976" lon="9.219336104681616" id="-39629">
		<tag k="bridge" v="yes" />
		<tag k="layer" v="1" />
		<tag k="name" v="Djupdalsbrua" />
		<tag k="ssr:stedsnr" v="27306" />
	</node>
	<node lat="63.011627778307286" lon="9.439052776838535" id="-39732">
		<tag k="bridge" v="yes" />
		<tag k="layer" v="1" />
		<tag k="name" v="Geilmelbrua" />
		<tag k="ssr:stedsnr" v="148314" />
	</node>
	<node lat="63.08052222462411" lon="9.207094450895568" id="-39733">
		<tag k="bridge" v="yes" />
		<tag k="layer" v="1" />
		<tag k="name" v="Ljøsåbrua" />
		<tag k="ssr:stedsnr" v="148320" />
	</node>
	<node lat="63.12026389324404" lon="9.341861104547931" id="-39767">
		<tag k="bridge" v="yes" />
		<tag k="layer" v="1" />
		<tag k="name" v="Asphaugbrua" />
		<tag k="ssr:stedsnr" v="270299" />
	</node>
	<node lat="63.018802779850006" lon="9.349905551116892" id="-39802">
		<tag k="bridge" v="yes" />
		<tag k="layer" v="1" />
		<tag k="name" v="Kysingbrua" />
		<tag k="ssr:stedsnr" v="452292" />
	</node>
	<node lat="63.09432500071541" lon="9.282344450602576" id="-39803">
		<tag k="bridge" v="yes" />
		<tag k="layer" v="1" />
		<tag k="name" v="Holtbrua" />
		<tag k="ssr:stedsnr" v="452300" />
	</node>
	<node lat="63.1291444416404" lon="9.341936104111355" id="-39818">
		<tag k="bridge" v="yes" />
		<tag k="layer" v="1" />
		<tag k="name" v="Grøtbrua" />
		<tag k="ssr:stedsnr" v="270304" />
	</node>
	<node lat="63.03709999849181" lon="9.15524999676849" id="-39830">
		<tag k="highway" v="path" />
		<tag k="name" v="Trovegen" />
		<tag k="ssr:stedsnr" v="279411" />
	</node>
	<node lat="63.05085555249285" lon="9.172155553695351" id="-39903">
		<tag k="bridge" v="yes" />
		<tag k="layer" v="1" />
		<tag k="name" v="Bolmbrua" />
		<tag k="ssr:stedsnr" v="330308" />
	</node>
	<node lat="63.05147778181947" lon="9.173974993076333" id="-39904">
		<tag k="bridge" v="yes" />
		<tag k="layer" v="1" />
		<tag k="name" v="Nilsbrua" />
		<tag k="ssr:stedsnr" v="330309" />
	</node>
	<node lat="63.087488885779884" lon="9.208061104269449" id="-39905">
		<tag k="bridge" v="yes" />
		<tag k="layer" v="1" />
		<tag k="name" v="Brandåbrua" />
		<tag k="ssr:stedsnr" v="330311" />
	</node>
	<node lat="63.13269721945158" lon="9.241830560514432" id="-40096">
		<tag k="highway" v="path" />
		<tag k="name" v="Kløvvegen" />
		<tag k="ssr:stedsnr" v="582203" />
	</node>
	<node lat="63.051725002330336" lon="9.329577771546948" id="-40117">
		<tag k="highway" v="path" />
		<tag k="name" v="Sprangstigen" />
		<tag k="ssr:stedsnr" v="584119" />
	</node>
	<node lat="63.06253888737652" lon="9.22164166984873" id="-40125">
		<tag k="bridge" v="yes" />
		<tag k="layer" v="1" />
		<tag k="name" v="Jøåbrua" />
		<tag k="ssr:stedsnr" v="697170" />
	</node>
	<node lat="63.03538889267284" lon="9.273211111837938" id="-40269">
		<tag k="bridge" v="yes" />
		<tag k="layer" v="1" />
		<tag k="name" v="Kvennåbrua" />
		<tag k="ssr:stedsnr" v="755304" />
	</node>
	<node lat="63.04274444221656" lon="9.133025006183226" id="-40312">
		<tag k="bridge" v="yes" />
		<tag k="layer" v="1" />
		<tag k="name" v="Bølubrua" />
		<tag k="ssr:stedsnr" v="816308" />
	</node>
	<node lat="63.09383889258146" lon="9.223605547252747" id="-40313">
		<tag k="bridge" v="yes" />
		<tag k="layer" v="1" />
		<tag k="name" v="Stortrøknbrua" />
		<tag k="ssr:stedsnr" v="816310" />
	</node>
	<node lat="63.09676666524374" lon="9.233277773074514" id="-40314">
		<tag k="bridge" v="yes" />
		<tag k="layer" v="1" />
		<tag k="name" v="Litltrøknbrua" />
		<tag k="ssr:stedsnr" v="816312" />
	</node>
</osm>
