<?xml version="1.0" encoding="UTF-8"?>
<osm version="0.6" generator="osmapis">
	<node lat="62.9942194416181" lon="9.427297228260857" id="-39615">
		<tag k="name" v="Kringlåttjønna" />
		<tag k="natural" v="water" />
		<tag k="ssr:stedsnr" v="12181" />
	</node>
	<node lat="63.03057499885063" lon="9.380577771554766" id="-39616">
		<tag k="name" v="Kutjønna" />
		<tag k="natural" v="water" />
		<tag k="ssr:stedsnr" v="12324" />
	</node>
	<node lat="62.963441669294845" lon="9.131266666080444" id="-39630">
		<tag k="name" v="Hyllbekken" />
		<tag k="ssr:stedsnr" v="36026" />
		<tag k="waterway" v="stream" />
	</node>
	<node lat="63.036486113307674" lon="9.194616666003972" id="-39634">
		<tag k="name" v="Merrabekken" />
		<tag k="ssr:stedsnr" v="36569" />
		<tag k="waterway" v="stream" />
	</node>
	<node lat="63.03560832952811" lon="9.185108332827033" id="-39635">
		<tag k="name" v="Kolbekken" />
		<tag k="ssr:stedsnr" v="36570" />
		<tag k="waterway" v="stream" />
	</node>
	<node lat="63.04515555245826" lon="9.216105555367339" id="-39638">
		<tag k="name" v="Vikahølen" />
		<tag k="place" v="locality" />
		<tag k="ssr:stedsnr" v="37020" />
	</node>
	<node lat="63.06441666360803" lon="9.40178888025165" id="-39643">
		<tag k="name" v="Seterbekken" />
		<tag k="ssr:stedsnr" v="38105" />
		<tag k="waterway" v="stream" />
	</node>
	<node lat="63.01513888749709" lon="9.471997226009474" id="-39645">
		<tag k="name" v="Stangabogbekken" />
		<tag k="ssr:stedsnr" v="38157" />
		<tag k="waterway" v="stream" />
	</node>
	<node lat="63.0383694427212" lon="9.343752774587449" id="-39648">
		<tag k="name" v="Otertjønna" />
		<tag k="natural" v="water" />
		<tag k="ssr:stedsnr" v="38012" />
	</node>
	<node lat="62.995688891455345" lon="9.25825556116157" id="-39668">
		<tag k="name" v="Bjønnhilitjønna" />
		<tag k="natural" v="water" />
		<tag k="ssr:stedsnr" v="97414" />
	</node>
	<node lat="63.053233333175655" lon="9.286641676079773" id="-39679">
		<tag k="name" v="Vaulstoen" />
		<tag k="natural" v="waterfall" />
		<tag k="ssr:stedsnr" v="98010" />
	</node>
	<node lat="62.83571389143032" lon="9.41275555843699" id="-39681">
		<tag k="name" v="Litlsvartåa" />
		<tag k="ssr:stedsnr" v="98123" />
		<tag k="waterway" v="stream" />
	</node>
	<node lat="63.087197225866866" lon="9.293152787159665" id="-39685">
		<tag k="name" v="Pungtjønna" />
		<tag k="natural" v="water" />
		<tag k="ssr:stedsnr" v="98975" />
	</node>
	<node lat="63.0946833361736" lon="9.329836115259242" id="-39686">
		<tag k="name" v="Svarttjønna" />
		<tag k="natural" v="water" />
		<tag k="ssr:stedsnr" v="98976" />
	</node>
	<node lat="62.97152778038023" lon="9.344780560591142" id="-39691">
		<tag k="alt_name" v="Borter Stormyrbekken;Stormyrbekken, bortre" />
		<tag k="name" v="Bortre Stormyrbekken" />
		<tag k="ssr:stedsnr" v="133120" />
		<tag k="waterway" v="stream" />
	</node>
	<node lat="63.169619445706445" lon="9.406266669996795" id="-39695">
		<tag k="name" v="Rørbekken" />
		<tag k="ssr:stedsnr" v="133466" />
		<tag k="waterway" v="stream" />
	</node>
	<node lat="62.92950833315704" lon="9.354980554486616" id="-39699">
		<tag k="name" v="Litlrindvatnet" />
		<tag k="natural" v="water" />
		<tag k="ssr:stedsnr" v="255223" />
		<tag k="water" v="lake" />
	</node>
	<node lat="62.898024997846136" lon="9.31489721836008" id="-39703">
		<tag k="name" v="Nonstjønna" />
		<tag k="natural" v="water" />
		<tag k="ssr:stedsnr" v="255192" />
	</node>
	<node lat="63.000258333845395" lon="9.278680561497444" id="-39704">
		<tag k="name" v="Sandåvatnet" />
		<tag k="natural" v="water" />
		<tag k="ssr:stedsnr" v="255293" />
	</node>
	<node lat="63.027200003455086" lon="9.40944166239361" id="-39709">
		<tag k="name" v="Poppeltjønna" />
		<tag k="natural" v="water" />
		<tag k="ssr:stedsnr" v="255340" />
	</node>
	<node lat="63.05945833327258" lon="9.32490555995165" id="-39716">
		<tag k="name" v="Fjellbekken" />
		<tag k="ssr:stedsnr" v="255397" />
		<tag k="waterway" v="stream" />
	</node>
	<node lat="63.11671666526135" lon="9.281624993850519" id="-39717">
		<tag k="name" v="Kvernåa" />
		<tag k="ssr:stedsnr" v="255491" />
		<tag k="waterway" v="stream" />
	</node>
	<node lat="62.96551666833128" lon="9.119280557129638" id="-39718">
		<tag k="name" v="Foldsjøen" />
		<tag k="natural" v="water" />
		<tag k="ssr:stedsnr" v="255437" />
		<tag k="water" v="lake" />
	</node>
	<node lat="63.14920000001834" lon="9.451444436833341" id="-39723">
		<tag k="name" v="Høglitjønna" />
		<tag k="natural" v="water" />
		<tag k="ssr:stedsnr" v="255541" />
	</node>
	<node lat="63.14747500001451" lon="9.23004444663048" id="-39724">
		<tag k="name" v="Storbekken" />
		<tag k="ssr:stedsnr" v="255549" />
		<tag k="waterway" v="stream" />
	</node>
	<node lat="63.08955555982737" lon="9.216930553298814" id="-39734">
		<tag k="name" v="Røskvisla" />
		<tag k="ssr:stedsnr" v="156011" />
		<tag k="waterway" v="stream" />
	</node>
	<node lat="63.05429722361773" lon="9.279952769040744" id="-39742">
		<tag k="name" v="Ratdammen" />
		<tag k="natural" v="water" />
		<tag k="ssr:stedsnr" v="158022" />
	</node>
	<node lat="63.03219999910313" lon="9.298069448580238" id="-39745">
		<tag k="name" v="Skjørbekken" />
		<tag k="ssr:stedsnr" v="158269" />
		<tag k="waterway" v="stream" />
	</node>
	<node lat="63.02946111534222" lon="9.104574992408626" id="-39746">
		<tag k="name" v="Ferjemannshølen" />
		<tag k="place" v="locality" />
		<tag k="ssr:stedsnr" v="158911" />
	</node>
	<node lat="63.17579167010851" lon="9.298036108102922" id="-39747">
		<tag k="name" v="Nedre Gråortjern" />
		<tag k="natural" v="water" />
		<tag k="ssr:stedsnr" v="159106" />
	</node>
	<node lat="63.05838611375602" lon="9.096905559455257" id="-39760">
		<tag k="name" v="Langvatnet" />
		<tag k="natural" v="water" />
		<tag k="ssr:stedsnr" v="203095" />
		<tag k="water" v="lake" />
	</node>
	<node lat="62.98856666381842" lon="9.31606944097075" id="-39761">
		<tag k="name" v="Fjellbekken" />
		<tag k="ssr:stedsnr" v="207036" />
		<tag k="waterway" v="stream" />
	</node>
	<node lat="62.94805127576959" lon="9.151431853020345" id="-39763">
		<tag k="name" v="Storbekken" />
		<tag k="ssr:stedsnr" v="268742" />
		<tag k="waterway" v="stream" />
	</node>
	<node lat="63.112249995937475" lon="9.25830832878451" id="-39768">
		<tag k="name" v="Merkesbekken" />
		<tag k="ssr:stedsnr" v="218083" />
		<tag k="waterway" v="stream" />
	</node>
	<node lat="63.03710833062488" lon="9.160130553020423" id="-39774">
		<tag k="name" v="Kvennabekken" />
		<tag k="ssr:stedsnr" v="218410" />
		<tag k="waterway" v="stream" />
	</node>
	<node lat="63.094069448316105" lon="9.077174995976016" id="-39778">
		<tag k="name" v="Stenvegtjønna" />
		<tag k="natural" v="water" />
		<tag k="ssr:stedsnr" v="218791" />
	</node>
	<node lat="62.97541666742303" lon="9.229705555573446" id="-39800">
		<tag k="name" v="Børtre Stillbølu" />
		<tag k="place" v="locality" />
		<tag k="ssr:stedsnr" v="450756" />
	</node>
	<node lat="63.09828333717443" lon="9.020897231941634" id="-39801">
		<tag k="name" v="Storbekkdalstjønna" />
		<tag k="natural" v="water" />
		<tag k="ssr:stedsnr" v="450851" />
	</node>
	<node lat="63.0057777750139" lon="9.314322222638204" id="-39806">
		<tag k="name" v="Sagbekken" />
		<tag k="ssr:stedsnr" v="255181" />
		<tag k="waterway" v="stream" />
	</node>
	<node lat="62.994349997354924" lon="9.465938879028368" id="-39808">
		<tag k="name" v="Bjørnavatnet" />
		<tag k="natural" v="water" />
		<tag k="ssr:stedsnr" v="255185" />
	</node>
	<node lat="63.12136667103896" lon="9.03656110853267" id="-39814">
		<tag k="name" v="Fosselva" />
		<tag k="ssr:stedsnr" v="255715" />
		<tag k="waterway" v="river" />
	</node>
	<node lat="63.106963886295446" lon="9.210136102982048" id="-39815">
		<tag k="name" v="Trøknvatnet" />
		<tag k="natural" v="water" />
		<tag k="ssr:stedsnr" v="263098" />
		<tag k="water" v="lake" />
	</node>
	<node lat="62.95631110931056" lon="9.143994447469542" id="-39821">
		<tag k="name" v="Storstakkslættbekken" />
		<tag k="ssr:stedsnr" v="279013" />
		<tag k="waterway" v="stream" />
	</node>
	<node lat="62.95427221979704" lon="9.142758326653798" id="-39822">
		<tag k="name" v="Reinvassbekken" />
		<tag k="ssr:stedsnr" v="279017" />
		<tag k="waterway" v="stream" />
	</node>
	<node lat="63.02837777392832" lon="9.234238887626903" id="-39827">
		<tag k="name" v="Ilurbekken" />
		<tag k="ssr:stedsnr" v="279285" />
		<tag k="waterway" v="stream" />
	</node>
	<node lat="63.03853055319372" lon="9.113847228198411" id="-39833">
		<tag k="name" v="Fagghølen" />
		<tag k="place" v="island" />
		<tag k="ssr:stedsnr" v="279924" />
	</node>
	<node lat="63.07777500337959" lon="9.335880556455928" id="-39839">
		<tag k="name" v="Drøftingtjønna" />
		<tag k="natural" v="water" />
		<tag k="ssr:stedsnr" v="281097" />
	</node>
	<node lat="62.997169441495316" lon="9.401372216776837" id="-39840">
		<tag k="name" v="Setermarkstoen" />
		<tag k="natural" v="waterfall" />
		<tag k="ssr:stedsnr" v="281402" />
	</node>
	<node lat="63.06747500334476" lon="9.28053332461027" id="-39842">
		<tag k="name" v="Isvasstoen" />
		<tag k="natural" v="waterfall" />
		<tag k="ssr:stedsnr" v="281888" />
	</node>
	<node lat="63.05085833005451" lon="9.193550008157688" id="-39845">
		<tag k="name" v="Rindøyhølen" />
		<tag k="place" v="locality" />
		<tag k="ssr:stedsnr" v="461028" />
	</node>
	<node lat="63.070405558513414" lon="9.203408337519908" id="-39846">
		<tag k="name" v="Kvennabekken" />
		<tag k="ssr:stedsnr" v="461187" />
		<tag k="waterway" v="stream" />
	</node>
	<node lat="63.071700002393904" lon="9.228947220321603" id="-39848">
		<tag k="name" v="Djupdalsbekken" />
		<tag k="ssr:stedsnr" v="461192" />
		<tag k="waterway" v="stream" />
	</node>
	<node lat="63.13302777826132" lon="9.412050001965186" id="-39854">
		<tag k="name" v="Gjerdabekken" />
		<tag k="ssr:stedsnr" v="285930" />
		<tag k="waterway" v="stream" />
	</node>
	<node lat="63.03847499770089" lon="9.141433327145895" id="-39862">
		<tag k="name" v="Vargøya" />
		<tag k="place" v="island" />
		<tag k="ssr:stedsnr" v="461930" />
	</node>
	<node lat="63.03859444291521" lon="9.388797218498599" id="-39868">
		<tag k="name" v="Stokkvassbekken" />
		<tag k="ssr:stedsnr" v="462926" />
		<tag k="waterway" v="stream" />
	</node>
	<node lat="63.09394444653118" lon="9.323597227592806" id="-39869">
		<tag k="name" v="Øyabekken" />
		<tag k="ssr:stedsnr" v="462983" />
		<tag k="waterway" v="stream" />
	</node>
	<node lat="63.20919167052565" lon="9.34808610397256" id="-39874">
		<tag k="name" v="Søvatnet" />
		<tag k="natural" v="water" />
		<tag k="ssr:stedsnr" v="463064" />
		<tag k="water" v="lake" />
	</node>
	<node lat="63.175019443645205" lon="9.30800000153646" id="-39878">
		<tag k="name" v="Midtre Gråortjern" />
		<tag k="natural" v="water" />
		<tag k="old_name" v="Mitre Gråortjern" />
		<tag k="ssr:stedsnr" v="463079" />
	</node>
	<node lat="63.076774998794406" lon="9.293619448628991" id="-39879">
		<tag k="name" v="Lulibekken" />
		<tag k="ssr:stedsnr" v="463080" />
		<tag k="waterway" v="stream" />
	</node>
	<node lat="63.06237222603647" lon="9.295330552559129" id="-39886">
		<tag k="name" v="Fjellbekken" />
		<tag k="ssr:stedsnr" v="463878" />
		<tag k="waterway" v="stream" />
	</node>
	<node lat="63.07122500202893" lon="9.425588886540819" id="-39887">
		<tag k="name" v="Krokbekken" />
		<tag k="ssr:stedsnr" v="463709" />
		<tag k="waterway" v="stream" />
	</node>
	<node lat="63.132549998947134" lon="9.283480551741821" id="-39888">
		<tag k="name" v="Tordalsbekken" />
		<tag k="ssr:stedsnr" v="463888" />
		<tag k="waterway" v="stream" />
	</node>
	<node lat="62.93097500355194" lon="9.302980552150458" id="-39894">
		<tag k="name" v="Trollhøttråbekken" />
		<tag k="ssr:stedsnr" v="315213" />
		<tag k="waterway" v="stream" />
	</node>
	<node lat="63.12336389007181" lon="9.407191666087208" id="-39897">
		<tag k="name" v="Odden" />
		<tag k="natural" v="cape" />
		<tag k="ssr:stedsnr" v="467257" />
	</node>
	<node lat="63.04865833784063" lon="9.419888880514728" id="-39898">
		<tag k="name" v="Stokkfjelltjønna" />
		<tag k="natural" v="water" />
		<tag k="ssr:stedsnr" v="316403" />
	</node>
	<node lat="63.07556667106542" lon="9.142786120678855" id="-39909">
		<tag k="name" v="Ljøsåa" />
		<tag k="ssr:stedsnr" v="339905" />
		<tag k="waterway" v="stream" />
	</node>
	<node lat="63.06600833062329" lon="9.102008332959459" id="-39913">
		<tag k="name" v="Grytdalstjønna" />
		<tag k="natural" v="water" />
		<tag k="ssr:stedsnr" v="339946" />
	</node>
	<node lat="63.06200555540594" lon="9.231455547825151" id="-39915">
		<tag k="name" v="Kaldvassbekken" />
		<tag k="ssr:stedsnr" v="340194" />
		<tag k="waterway" v="stream" />
	</node>
	<node lat="63.039124996599604" lon="9.111530565035357" id="-39917">
		<tag k="name" v="Småøyan" />
		<tag k="place" v="island" />
		<tag k="ssr:stedsnr" v="340929" />
	</node>
	<node lat="63.1145222222035" lon="9.3720277740377" id="-39919">
		<tag k="name" v="Granåstjønna" />
		<tag k="natural" v="water" />
		<tag k="ssr:stedsnr" v="341046" />
	</node>
	<node lat="63.00723333445495" lon="9.490563897179301" id="-39931">
		<tag k="name" v="Sjurslåttbekken" />
		<tag k="ssr:stedsnr" v="376287" />
		<tag k="waterway" v="stream" />
	</node>
	<node lat="63.17739444882353" lon="9.320524993683474" id="-39938">
		<tag k="name" v="Storvatnet" />
		<tag k="natural" v="water" />
		<tag k="ssr:stedsnr" v="376531" />
	</node>
	<node lat="63.04716944480413" lon="9.293605548554355" id="-39940">
		<tag k="name" v="Svartvatnet" />
		<tag k="natural" v="water" />
		<tag k="ssr:stedsnr" v="376490" />
	</node>
	<node lat="63.09126111233081" lon="9.344455550773057" id="-39944">
		<tag k="name" v="Sagatjønna" />
		<tag k="natural" v="water" />
		<tag k="ssr:stedsnr" v="389346" />
	</node>
	<node lat="63.066013885580105" lon="9.375955557139052" id="-39947">
		<tag k="name" v="Dalaslættbekken" />
		<tag k="ssr:stedsnr" v="389751" />
		<tag k="waterway" v="stream" />
	</node>
	<node lat="63.10575833575598" lon="9.245833323713768" id="-39950">
		<tag k="name" v="Åstjønna" />
		<tag k="natural" v="water" />
		<tag k="ssr:stedsnr" v="400092" />
	</node>
	<node lat="63.02448055309958" lon="9.378694453964048" id="-39963">
		<tag k="name" v="Merrabekken" />
		<tag k="ssr:stedsnr" v="401883" />
		<tag k="waterway" v="stream" />
	</node>
	<node lat="63.02671666345521" lon="9.386041676052374" id="-39964">
		<tag k="name" v="Åstjønna" />
		<tag k="natural" v="water" />
		<tag k="ssr:stedsnr" v="401889" />
	</node>
	<node lat="62.84472777757353" lon="9.44128055275283" id="-39971">
		<tag k="name" v="Stillhølen" />
		<tag k="place" v="locality" />
		<tag k="ssr:stedsnr" v="402087" />
	</node>
	<node lat="63.00686944631748" lon="9.536502773088614" id="-39975">
		<tag k="name" v="Auster Fjelltjønna" />
		<tag k="natural" v="water" />
		<tag k="ssr:stedsnr" v="407119" />
	</node>
	<node lat="63.16441666912476" lon="9.444516669713996" id="-39976">
		<tag k="name" v="Furudalsbekken" />
		<tag k="ssr:stedsnr" v="407123" />
		<tag k="waterway" v="stream" />
	</node>
	<node lat="62.92267777871617" lon="9.168861107209375" id="-39980">
		<tag k="name" v="Storgrøvatnet" />
		<tag k="natural" v="water" />
		<tag k="ssr:stedsnr" v="437068" />
	</node>
	<node lat="63.00423055274467" lon="9.478327769353768" id="-39982">
		<tag k="name" v="Åkerbekken" />
		<tag k="ssr:stedsnr" v="437306" />
		<tag k="waterway" v="stream" />
	</node>
	<node lat="63.012888884905415" lon="9.49164166649727" id="-39983">
		<tag k="name" v="Ljøsåa" />
		<tag k="ssr:stedsnr" v="437319" />
		<tag k="waterway" v="river" />
	</node>
	<node lat="63.0821916642799" lon="9.337750007598995" id="-39986">
		<tag k="name" v="Stangavatnet" />
		<tag k="natural" v="water" />
		<tag k="ssr:stedsnr" v="437401" />
	</node>
	<node lat="63.11046944796202" lon="9.226549991911675" id="-39988">
		<tag k="name" v="Litltrøkna" />
		<tag k="ssr:stedsnr" v="437512" />
		<tag k="waterway" v="stream" />
	</node>
	<node lat="63.130016671138605" lon="9.336294449044297" id="-39990">
		<tag k="name" v="Kvernabekken" />
		<tag k="ssr:stedsnr" v="437561" />
		<tag k="waterway" v="stream" />
	</node>
	<node lat="63.08631944889431" lon="8.986138884861395" id="-39991">
		<tag k="name" v="Holmvassbekken" />
		<tag k="ssr:stedsnr" v="437719" />
		<tag k="waterway" v="stream" />
	</node>
	<node lat="63.09646110880882" lon="9.126808335426984" id="-39994">
		<tag k="name" v="Åkertjønna" />
		<tag k="natural" v="water" />
		<tag k="ssr:stedsnr" v="450250" />
	</node>
	<node lat="63.072350002599926" lon="9.16422777766109" id="-39996">
		<tag k="name" v="Møssmørbekken" />
		<tag k="ssr:stedsnr" v="450381" />
		<tag k="waterway" v="stream" />
	</node>
	<node lat="63.15456666228526" lon="9.193405562848925" id="-40005">
		<tag k="name" v="Snipbekken" />
		<tag k="ssr:stedsnr" v="462159" />
		<tag k="waterway" v="stream" />
	</node>
	<node lat="63.15048611225509" lon="9.384294447103473" id="-40008">
		<tag k="name" v="Høgåsdalsbekken" />
		<tag k="ssr:stedsnr" v="462902" />
		<tag k="waterway" v="stream" />
	</node>
	<node lat="63.13527777507379" lon="9.18417777716816" id="-40022">
		<tag k="name" v="Øvre Gravtjønna" />
		<tag k="natural" v="water" />
		<tag k="ssr:stedsnr" v="679700" />
	</node>
	<node lat="62.98483055178625" lon="9.472308341290951" id="-40023">
		<tag k="name" v="Svarttjønna" />
		<tag k="natural" v="water" />
		<tag k="ssr:stedsnr" v="680197" />
	</node>
	<node lat="63.05727777893178" lon="9.300950009285648" id="-40027">
		<tag k="name" v="Isvatnet" />
		<tag k="natural" v="water" />
		<tag k="ssr:stedsnr" v="680443" />
	</node>
	<node lat="62.933088888814034" lon="9.368969441949261" id="-40033">
		<tag k="name" v="Litlrinda" />
		<tag k="ssr:stedsnr" v="497209" />
		<tag k="waterway" v="river" />
	</node>
	<node lat="63.02661111190809" lon="9.283302775035656" id="-40035">
		<tag k="name" v="Gåstjønna" />
		<tag k="natural" v="water" />
		<tag k="ssr:stedsnr" v="497312" />
	</node>
	<node lat="63.01530555297701" lon="9.558705558156404" id="-40036">
		<tag k="name" v="Ljøsåa" />
		<tag k="ssr:stedsnr" v="497447" />
		<tag k="waterway" v="stream" />
	</node>
	<node lat="62.99354444403834" lon="9.27916944023707" id="-40037">
		<tag k="name" v="Bjørnahelitjønnin" />
		<tag k="natural" v="water" />
		<tag k="ssr:stedsnr" v="498194" />
	</node>
	<node lat="63.08916111066536" lon="9.252869448887285" id="-40048">
		<tag k="name" v="Krokbekken" />
		<tag k="ssr:stedsnr" v="521023" />
		<tag k="waterway" v="stream" />
	</node>
	<node lat="63.00953055184864" lon="9.202855562774907" id="-40052">
		<tag k="name" v="Storbølu" />
		<tag k="ssr:stedsnr" v="521404" />
		<tag k="waterway" v="river" />
	</node>
	<node lat="63.074430557224574" lon="9.128669447412296" id="-40054">
		<tag k="name" v="Østre Skinna" />
		<tag k="ssr:stedsnr" v="521918" />
		<tag k="waterway" v="stream" />
	</node>
	<node lat="63.1556250032375" lon="9.274886106976611" id="-40057">
		<tag k="name" v="Toråa" />
		<tag k="ssr:stedsnr" v="522207" />
		<tag k="waterway" v="river" />
	</node>
	<node lat="62.939702778333114" lon="9.413255560038118" id="-40063">
		<tag k="name" v="Hølbekken" />
		<tag k="ssr:stedsnr" v="523112" />
		<tag k="waterway" v="stream" />
	</node>
	<node lat="62.91617778130251" lon="9.333066662298954" id="-40074">
		<tag k="name" v="Nonsbekken" />
		<tag k="ssr:stedsnr" v="558251" />
		<tag k="waterway" v="stream" />
	</node>
	<node lat="63.00643611221936" lon="9.437052783029877" id="-40075">
		<tag k="name" v="Titbekken" />
		<tag k="ssr:stedsnr" v="558295" />
		<tag k="waterway" v="stream" />
	</node>
	<node lat="63.06452499808153" lon="9.287763887897883" id="-40076">
		<tag k="name" v="Isvassbekken" />
		<tag k="ssr:stedsnr" v="558404" />
		<tag k="waterway" v="stream" />
	</node>
	<node lat="63.08838055224136" lon="9.34731111122457" id="-40077">
		<tag k="name" v="Storvatnet" />
		<tag k="natural" v="water" />
		<tag k="ssr:stedsnr" v="558444" />
	</node>
	<node lat="63.02285277637243" lon="9.191827777404274" id="-40081">
		<tag k="name" v="Bolmbogsvatnet" />
		<tag k="natural" v="water" />
		<tag k="ssr:stedsnr" v="558704" />
	</node>
	<node lat="63.08284721807698" lon="9.143302772172966" id="-40084">
		<tag k="name" v="Ljøsåtjønna" />
		<tag k="natural" v="water" />
		<tag k="ssr:stedsnr" v="691473" />
	</node>
	<node lat="62.97650555174625" lon="9.243563883551612" id="-40087">
		<tag k="name" v="Busteinbekken" />
		<tag k="ssr:stedsnr" v="569521" />
		<tag k="waterway" v="stream" />
	</node>
	<node lat="63.028563892656734" lon="9.225750003708129" id="-40101">
		<tag k="name" v="Grytbekken" />
		<tag k="ssr:stedsnr" v="582294" />
		<tag k="waterway" v="stream" />
	</node>
	<node lat="63.1519611071409" lon="9.394266673802074" id="-40110">
		<tag k="name" v="Brattbekken" />
		<tag k="ssr:stedsnr" v="583902" />
		<tag k="waterway" v="stream" />
	</node>
	<node lat="63.05230277869093" lon="9.276394435608411" id="-40129">
		<tag k="name" v="Lomtjønna" />
		<tag k="natural" v="water" />
		<tag k="ssr:stedsnr" v="619386" />
	</node>
	<node lat="63.182058329415895" lon="9.293577774077976" id="-40134">
		<tag k="name" v="Sagbekken" />
		<tag k="ssr:stedsnr" v="619623" />
		<tag k="waterway" v="stream" />
	</node>
	<node lat="63.12084722212143" lon="9.176302768709126" id="-40139">
		<tag k="name" v="Vaultjønna" />
		<tag k="natural" v="water" />
		<tag k="ssr:stedsnr" v="703074" />
	</node>
	<node lat="63.09715277760995" lon="9.132850005266958" id="-40145">
		<tag k="name" v="Broka" />
		<tag k="natural" v="water" />
		<tag k="ssr:stedsnr" v="703843" />
	</node>
	<node lat="63.04042778196634" lon="9.240161105739027" id="-40148">
		<tag k="name" v="Storstoen" />
		<tag k="natural" v="waterfall" />
		<tag k="ssr:stedsnr" v="704017" />
	</node>
	<node lat="63.05943888769411" lon="9.242138886060964" id="-40153">
		<tag k="name" v="Askjellsåa" />
		<tag k="ssr:stedsnr" v="704186" />
		<tag k="waterway" v="stream" />
	</node>
	<node lat="62.94967221938287" lon="9.153930552831499" id="-40156">
		<tag k="name" v="Langurveggbekken" />
		<tag k="ssr:stedsnr" v="704636" />
		<tag k="waterway" v="stream" />
	</node>
	<node lat="63.18335278181337" lon="9.22425277201281" id="-40168">
		<tag k="name" v="Vasskardbekken" />
		<tag k="ssr:stedsnr" v="705153" />
		<tag k="waterway" v="stream" />
	</node>
	<node lat="62.97100555128206" lon="9.144450003853493" id="-40184">
		<tag k="name" v="Bjønnabekken" />
		<tag k="ssr:stedsnr" v="642017" />
		<tag k="waterway" v="stream" />
	</node>
	<node lat="63.0589694410828" lon="9.278850008670123" id="-40190">
		<tag k="name" v="Bergtjønna" />
		<tag k="natural" v="water" />
		<tag k="ssr:stedsnr" v="643008" />
	</node>
	<node lat="63.03208611004156" lon="9.301738892109206" id="-40197">
		<tag k="name" v="Røsstjønna" />
		<tag k="natural" v="water" />
		<tag k="ssr:stedsnr" v="644262" />
	</node>
	<node lat="63.074811111960145" lon="9.28799999680064" id="-40200">
		<tag k="name" v="Litlslættvika" />
		<tag k="natural" v="bay" />
		<tag k="ssr:stedsnr" v="645596" />
	</node>
	<node lat="63.14464444096049" lon="9.433266659629426" id="-40204">
		<tag k="name" v="Kattatjønna" />
		<tag k="natural" v="water" />
		<tag k="ssr:stedsnr" v="649940" />
	</node>
	<node lat="63.147500002740486" lon="9.45213333210097" id="-40205">
		<tag k="name" v="Seterlibekken" />
		<tag k="ssr:stedsnr" v="649943" />
		<tag k="waterway" v="stream" />
	</node>
	<node lat="63.00834722356577" lon="9.570477769779034" id="-40206">
		<tag k="name" v="Istjønna" />
		<tag k="natural" v="water" />
		<tag k="ssr:stedsnr" v="710068" />
	</node>
	<node lat="62.919699998597224" lon="9.35413332738554" id="-40208">
		<tag k="name" v="Middagsbekken" />
		<tag k="ssr:stedsnr" v="680265" />
		<tag k="waterway" v="stream" />
	</node>
	<node lat="63.072083337620406" lon="9.237013880781374" id="-40211">
		<tag k="name" v="Djupdalsvatnet" />
		<tag k="natural" v="water" />
		<tag k="ssr:stedsnr" v="680421" />
	</node>
	<node lat="62.99423333641846" lon="9.176244443622034" id="-40214">
		<tag k="name" v="Skartjønna" />
		<tag k="natural" v="water" />
		<tag k="ssr:stedsnr" v="680523" />
	</node>
	<node lat="63.08965833024903" lon="9.052775006962293" id="-40218">
		<tag k="name" v="Kvilingstjønnin" />
		<tag k="natural" v="water" />
		<tag k="ssr:stedsnr" v="680773" />
	</node>
	<node lat="63.099086115487296" lon="9.399052776045203" id="-40219">
		<tag k="name" v="Litlåa" />
		<tag k="ssr:stedsnr" v="892190" />
		<tag k="waterway" v="stream" />
	</node>
	<node lat="63.1750500038461" lon="9.448061117177943" id="-40223">
		<tag k="name" v="Kvennbekken" />
		<tag k="ssr:stedsnr" v="893094" />
		<tag k="waterway" v="stream" />
	</node>
	<node lat="63.01089722470865" lon="9.25966943931956" id="-40226">
		<tag k="name" v="Hanstjønna" />
		<tag k="natural" v="water" />
		<tag k="ssr:stedsnr" v="692404" />
	</node>
	<node lat="63.02885555801538" lon="9.238558334905123" id="-40233">
		<tag k="name" v="Sandåstoen" />
		<tag k="natural" v="waterfall" />
		<tag k="ssr:stedsnr" v="703330" />
	</node>
	<node lat="63.0675527750426" lon="9.19703611659562" id="-40235">
		<tag k="name" v="Bjønnabekken" />
		<tag k="ssr:stedsnr" v="704167" />
		<tag k="waterway" v="stream" />
	</node>
	<node lat="63.07602500401861" lon="9.14129444417307" id="-40237">
		<tag k="name" v="Ljøsåkrokan" />
		<tag k="natural" v="cape" />
		<tag k="ssr:stedsnr" v="704906" />
	</node>
	<node lat="63.12162500448854" lon="9.358391657659386" id="-40260">
		<tag k="name" v="Rørbekken" />
		<tag k="ssr:stedsnr" v="740448" />
		<tag k="waterway" v="stream" />
	</node>
	<node lat="63.076791666483025" lon="9.163674993663653" id="-40264">
		<tag k="name" v="Ljøsåa" />
		<tag k="ssr:stedsnr" v="748664" />
		<tag k="waterway" v="stream" />
	</node>
	<node lat="63.19835000017763" lon="9.305127771497002" id="-40272">
		<tag k="name" v="Jøssåa" />
		<tag k="ssr:stedsnr" v="758303" />
		<tag k="waterway" v="river" />
	</node>
	<node lat="63.03501944274967" lon="9.104358325266977" id="-40273">
		<tag k="name" v="Toskhølen" />
		<tag k="place" v="locality" />
		<tag k="ssr:stedsnr" v="762703" />
	</node>
	<node lat="63.127897221402264" lon="9.18321110277405" id="-40274">
		<tag k="name" v="Kojbekken" />
		<tag k="ssr:stedsnr" v="764148" />
		<tag k="waterway" v="stream" />
	</node>
	<node lat="63.13073888899332" lon="9.178669437131338" id="-40276">
		<tag k="name" v="Gravbekken" />
		<tag k="ssr:stedsnr" v="764153" />
		<tag k="waterway" v="stream" />
	</node>
	<node lat="63.02518333170619" lon="9.196002782572679" id="-40279">
		<tag k="name" v="Bokkvassbekken" />
		<tag k="ssr:stedsnr" v="764607" />
		<tag k="waterway" v="stream" />
	</node>
	<node lat="63.047452774448985" lon="9.186577781622564" id="-40281">
		<tag k="name" v="Gammelelva" />
		<tag k="ssr:stedsnr" v="765048" />
		<tag k="waterway" v="stream" />
	</node>
	<node lat="63.13354444024603" lon="9.092463882244196" id="-40292">
		<tag k="name" v="Slættbekken" />
		<tag k="ssr:stedsnr" v="765889" />
		<tag k="waterway" v="stream" />
	</node>
	<node lat="63.18248055396187" lon="9.325158334027707" id="-40294">
		<tag k="name" v="Rundtjerna" />
		<tag k="natural" v="water" />
		<tag k="ssr:stedsnr" v="766082" />
	</node>
	<node lat="63.070997224722504" lon="9.31178054598138" id="-40297">
		<tag k="name" v="Sløbekken" />
		<tag k="ssr:stedsnr" v="767105" />
		<tag k="waterway" v="stream" />
	</node>
	<node lat="62.853749995995074" lon="9.455783325004825" id="-40302">
		<tag k="name" v="Turen" />
		<tag k="ssr:stedsnr" v="801207" />
		<tag k="waterway" v="stream" />
	</node>
	<node lat="62.88512500431062" lon="9.308269441541462" id="-40303">
		<tag k="name" v="Tangvatna - Njuanajaevrieh" />
		<tag k="name:no" v="Tangvatna" />
		<tag k="name:sma" v="Njuanajaevrieh" />
		<tag k="natural" v="water" />
		<tag k="ssr:stedsnr" v="801183" />
		<tag k="water" v="lake" />
	</node>
	<node lat="63.06153888698367" lon="9.26642777288766" id="-40305">
		<tag k="name" v="Svartvatnet" />
		<tag k="natural" v="water" />
		<tag k="ssr:stedsnr" v="801387" />
	</node>
	<node lat="63.05884444348436" lon="9.416783331667453" id="-40306">
		<tag k="name" v="Tiåvatnet" />
		<tag k="natural" v="water" />
		<tag k="ssr:stedsnr" v="801390" />
	</node>
	<node lat="62.96490833708295" lon="9.128702770466868" id="-40316">
		<tag k="name" v="Larsslættbekken" />
		<tag k="ssr:stedsnr" v="825008" />
		<tag k="waterway" v="stream" />
	</node>
	<node lat="63.01913889197395" lon="9.166352770683428" id="-40318">
		<tag k="name" v="Damvatnet" />
		<tag k="natural" v="water" />
		<tag k="ssr:stedsnr" v="825565" />
	</node>
	<node lat="63.11367500317924" lon="9.142444452027412" id="-40319">
		<tag k="name" v="Brandåvatnet" />
		<tag k="natural" v="water" />
		<tag k="ssr:stedsnr" v="825764" />
		<tag k="water" v="lake" />
	</node>
	<node lat="63.055355556432495" lon="9.147266667205045" id="-40323">
		<tag k="name" v="Langtrøbakken" />
		<tag k="ssr:stedsnr" v="826080" />
		<tag k="waterway" v="stream" />
	</node>
	<node lat="63.08065277390932" lon="9.098033334581718" id="-40326">
		<tag k="name" v="Skåkleivbekken" />
		<tag k="ssr:stedsnr" v="825965" />
		<tag k="waterway" v="stream" />
	</node>
	<node lat="63.173927780334814" lon="9.192352780702109" id="-40327">
		<tag k="name" v="Slettbekken" />
		<tag k="ssr:stedsnr" v="826164" />
		<tag k="waterway" v="stream" />
	</node>
	<node lat="63.00792500250024" lon="9.529102774089994" id="-40339">
		<tag k="name" v="Fjelltjønnbekken" />
		<tag k="ssr:stedsnr" v="827463" />
		<tag k="waterway" v="stream" />
	</node>
	<node lat="63.033224996362556" lon="9.386341659225767" id="-40343">
		<tag k="name" v="Litlvatnet" />
		<tag k="natural" v="water" />
		<tag k="ssr:stedsnr" v="922297" />
	</node>
	<node lat="63.13093055685377" lon="9.422722215140388" id="-40348">
		<tag k="name" v="Sagbekken" />
		<tag k="ssr:stedsnr" v="831934" />
		<tag k="waterway" v="stream" />
	</node>
	<node lat="63.125305556642175" lon="9.414097217505105" id="-40350">
		<tag k="name" v="Vaulen" />
		<tag k="natural" v="shoal" />
		<tag k="place" v="locality" />
		<tag k="ssr:stedsnr" v="831987" />
	</node>
	<node lat="63.007086107090295" lon="9.54304444457273" id="-40353">
		<tag k="name" v="Slåstarvollen" />
		<tag k="natural" v="water" />
		<tag k="ssr:stedsnr" v="832091" />
	</node>
	<node lat="62.886469446171965" lon="9.355800000609293" id="-40356">
		<tag k="name" v="Langvatnet - Bijjiejaevrie" />
		<tag k="name:no" v="Langvatnet" />
		<tag k="name:sma" v="Bijjiejaevrie" />
		<tag k="natural" v="water" />
		<tag k="ssr:stedsnr" v="923230" />
		<tag k="water" v="lake" />
	</node>
	<node lat="63.06040278209305" lon="9.244419441609198" id="-40357">
		<tag k="name" v="Svartåa" />
		<tag k="ssr:stedsnr" v="923438" />
		<tag k="waterway" v="stream" />
	</node>
	<node lat="63.05814444673309" lon="9.221594440790653" id="-40358">
		<tag k="name" v="Igltjønna" />
		<tag k="natural" v="water" />
		<tag k="ssr:stedsnr" v="923441" />
	</node>
	<node lat="63.06038610700235" lon="9.43853610433896" id="-40359">
		<tag k="name" v="Snausskartjønna" />
		<tag k="natural" v="water" />
		<tag k="ssr:stedsnr" v="923444" />
	</node>
	<node lat="63.04117222552877" lon="9.282791666792548" id="-40362">
		<tag k="name" v="Svervatnet" />
		<tag k="natural" v="water" />
		<tag k="ssr:stedsnr" v="923409" />
	</node>
	<node lat="63.175749995832206" lon="9.297883338452515" id="-40364">
		<tag k="name" v="Gråurtjønnin" />
		<tag k="natural" v="water" />
		<tag k="ssr:stedsnr" v="923573" />
	</node>
	<node lat="63.08482221923601" lon="9.122697229129832" id="-40368">
		<tag k="name" v="Skåkleivtjønna" />
		<tag k="natural" v="water" />
		<tag k="ssr:stedsnr" v="923742" />
	</node>
	<node lat="63.103380556551514" lon="9.156338897311223" id="-40369">
		<tag k="name" v="Brandåvatnet" />
		<tag k="natural" v="water" />
		<tag k="ssr:stedsnr" v="923761" />
		<tag k="water" v="lake" />
	</node>
	<node lat="62.98225278128715" lon="9.363158330016786" id="-40370">
		<tag k="alt_name" v="Stormyrbekken, heimre;Heimer Stormyrbekken" />
		<tag k="name" v="Heimre Stormyrbekken" />
		<tag k="ssr:stedsnr" v="862211" />
		<tag k="waterway" v="stream" />
	</node>
	<node lat="63.04918333773694" lon="9.27015278211095" id="-40371">
		<tag k="name" v="Auntjønna" />
		<tag k="natural" v="water" />
		<tag k="ssr:stedsnr" v="862362" />
	</node>
	<node lat="63.09626110897256" lon="9.222111102293653" id="-40378">
		<tag k="name" v="Stortrøkna" />
		<tag k="ssr:stedsnr" v="885014" />
		<tag k="waterway" v="stream" />
	</node>
	<node lat="62.96263055445426" lon="9.128388897348449" id="-40381">
		<tag k="name" v="Gammelløbekken" />
		<tag k="ssr:stedsnr" v="886025" />
		<tag k="waterway" v="stream" />
	</node>
	<node lat="63.01426111088424" lon="9.162608337124952" id="-40384">
		<tag k="name" v="Bokksvassbekken" />
		<tag k="ssr:stedsnr" v="886338" />
		<tag k="waterway" v="stream" />
	</node>
	<node lat="63.031405555684906" lon="9.105294434947773" id="-40389">
		<tag k="name" v="Skarpsundet" />
		<tag k="natural" v="strait" />
		<tag k="ssr:stedsnr" v="886906" />
	</node>
	<node lat="63.094952775293706" lon="9.275236120185497" id="-40399">
		<tag k="name" v="Sunna" />
		<tag k="ssr:stedsnr" v="935220" />
		<tag k="waterway" v="river" />
	</node>
	<node lat="62.98981944187274" lon="9.26688056254156" id="-40413">
		<tag k="name" v="Langtjønna" />
		<tag k="natural" v="water" />
		<tag k="ssr:stedsnr" v="923212" />
	</node>
</osm>
