<?xml version="1.0" encoding="UTF-8"?>
<osm version="0.6" generator="osmapis">
	<node lat="62.91701580836255" lon="9.177916432603105" id="-41115">
		<tag k="fixme" v="multiple name tags, choose one and add the other to alt_name; consider natural=peak for the most distinct mountains in the district" />
		<tag k="name" v="Storgrøhausen;Gardfjellet" />
		<tag k="natural" v="hill" />
		<tag k="place" v="locality" />
		<tag k="ssr:stedsnr" v="12016" />
	</node>
	<node lat="62.9942194416181" lon="9.427297228260857" id="-41116">
		<tag k="name" v="Kringlåttjønna" />
		<tag k="natural" v="water" />
		<tag k="ssr:stedsnr" v="12181" />
	</node>
	<node lat="63.03057499885063" lon="9.380577771554766" id="-41117">
		<tag k="name" v="Kutjønna" />
		<tag k="natural" v="water" />
		<tag k="ssr:stedsnr" v="12324" />
	</node>
	<node lat="63.163995581213086" lon="9.43140817581514" id="-41118">
		<tag k="fixme" v="consider place=hamlet" />
		<tag k="name" v="Pelia" />
		<tag k="place" v="farm" />
		<tag k="ssr:stedsnr" v="12509" />
	</node>
	<node lat="63.17271388933027" lon="9.450736108207442" id="-41119">
		<tag k="name" v="Sagvoll" />
		<tag k="place" v="farm" />
		<tag k="ssr:stedsnr" v="12517" />
	</node>
	<node lat="63.17469427629695" lon="9.240323936706513" id="-41120">
		<tag k="historic" v="shieling" />
		<tag k="name" v="Møkkelgardssetra" />
		<tag k="place" v="locality" />
		<tag k="ssr:stedsnr" v="12523" />
	</node>
	<node lat="63.00842606697459" lon="9.471798529717212" id="-41121">
		<tag k="fixme" v="consider place=hamlet" />
		<tag k="name" v="Tretta" />
		<tag k="place" v="farm" />
		<tag k="ssr:stedsnr" v="12284" />
	</node>
	<node lat="63.10513333228165" lon="9.386163891186628" id="-41122">
		<tag k="name" v="Semundset" />
		<tag k="place" v="farm" />
		<tag k="ssr:stedsnr" v="12429" />
	</node>
	<node lat="63.11707221822818" lon="9.210661105809944" id="-41123">
		<tag k="fixme" v="consider natural=peak for the most distinct mountains in the district" />
		<tag k="name" v="Trønsdalshøgfjellet" />
		<tag k="natural" v="hill" />
		<tag k="place" v="locality" />
		<tag k="ssr:stedsnr" v="12705" />
	</node>
	<node lat="63.13280277467082" lon="9.176483329040616" id="-41124">
		<tag k="fixme" v="consider natural=peak for the most distinct mountains in the district" />
		<tag k="name" v="Gravfjellet" />
		<tag k="natural" v="hill" />
		<tag k="place" v="locality" />
		<tag k="ssr:stedsnr" v="21092" />
	</node>
	<node lat="62.98821388579777" lon="9.143080555838566" id="-41125">
		<tag k="name" v="Seggamyrhaugen" />
		<tag k="natural" v="hill" />
		<tag k="place" v="locality" />
		<tag k="ssr:stedsnr" v="24102" />
	</node>
	<node lat="62.94969444667294" lon="9.395747212466633" id="-41126">
		<tag k="name" v="Grønhaugen" />
		<tag k="natural" v="hill" />
		<tag k="place" v="locality" />
		<tag k="ssr:stedsnr" v="24410" />
	</node>
	<node lat="63.09157221805612" lon="9.353172213119825" id="-41127">
		<tag k="name" v="Bjørkholtet" />
		<tag k="natural" v="slope" />
		<tag k="place" v="locality" />
		<tag k="ssr:stedsnr" v="24492" />
	</node>
	<node lat="62.977600004381614" lon="9.382452781633114" id="-41128">
		<tag k="name" v="Stormyra" />
		<tag k="natural" v="wetland" />
		<tag k="ssr:stedsnr" v="25303" />
	</node>
	<node lat="62.990186107269636" lon="9.461955556368437" id="-41129">
		<tag k="name" v="Storslættet" />
		<tag k="place" v="locality" />
		<tag k="ssr:stedsnr" v="25305" />
	</node>
	<node lat="63.07253888870976" lon="9.219336104681616" id="-41130">
		<tag k="bridge" v="yes" />
		<tag k="layer" v="1" />
		<tag k="name" v="Djupdalsbrua" />
		<tag k="ssr:stedsnr" v="27306" />
	</node>
	<node lat="62.963441669294845" lon="9.131266666080444" id="-41131">
		<tag k="name" v="Hyllbekken" />
		<tag k="ssr:stedsnr" v="36026" />
		<tag k="waterway" v="stream" />
	</node>
	<node lat="63.04676944732915" lon="9.249319453041517" id="-41132">
		<tag k="name" v="Ner-Løset" />
		<tag k="place" v="farm" />
		<tag k="ssr:stedsnr" v="36031" />
	</node>
	<node lat="63.1264722212351" lon="9.249238893403348" id="-41133">
		<tag k="name" v="Smørdalen" />
		<tag k="natural" v="valley" />
		<tag k="place" v="locality" />
		<tag k="ssr:stedsnr" v="36165" />
	</node>
	<node lat="63.02013888957348" lon="9.199636103225437" id="-41134">
		<tag k="name" v="Kudalen" />
		<tag k="natural" v="valley" />
		<tag k="place" v="locality" />
		<tag k="ssr:stedsnr" v="36564" />
	</node>
	<node lat="63.036486113307674" lon="9.194616666003972" id="-41135">
		<tag k="name" v="Merrabekken" />
		<tag k="ssr:stedsnr" v="36569" />
		<tag k="waterway" v="stream" />
	</node>
	<node lat="63.03560832952811" lon="9.185108332827033" id="-41136">
		<tag k="name" v="Kolbekken" />
		<tag k="ssr:stedsnr" v="36570" />
		<tag k="waterway" v="stream" />
	</node>
	<node lat="63.06173332992856" lon="9.10081667398749" id="-41137">
		<tag k="name" v="Grytdalsora" />
		<tag k="place" v="locality" />
		<tag k="ssr:stedsnr" v="36968" />
	</node>
	<node lat="63.05515000017076" lon="9.286861120746961" id="-41138">
		<tag k="name" v="Røyurdalen" />
		<tag k="natural" v="valley" />
		<tag k="place" v="locality" />
		<tag k="ssr:stedsnr" v="37009" />
	</node>
	<node lat="63.04515555245826" lon="9.216105555367339" id="-41139">
		<tag k="name" v="Vikahølen" />
		<tag k="place" v="locality" />
		<tag k="ssr:stedsnr" v="37020" />
	</node>
	<node lat="63.041558331152906" lon="9.147008325109807" id="-41140">
		<tag k="name" v="Høgås" />
		<tag k="place" v="farm" />
		<tag k="ssr:stedsnr" v="37070" />
	</node>
	<node lat="63.01467777475423" lon="9.270886109045257" id="-41141">
		<tag k="name" v="Fekkenslættet" />
		<tag k="place" v="locality" />
		<tag k="ssr:stedsnr" v="37410" />
	</node>
	<node lat="63.00657778110314" lon="9.45312500095984" id="-41142">
		<tag k="name" v="Tortlia" />
		<tag k="natural" v="slope" />
		<tag k="place" v="locality" />
		<tag k="ssr:stedsnr" v="37416" />
	</node>
	<node lat="63.09014444009757" lon="9.292372212677776" id="-41143">
		<tag k="name" v="Fagerlibrona" />
		<tag k="natural" v="ridge" />
		<tag k="place" v="locality" />
		<tag k="ssr:stedsnr" v="37979" />
	</node>
	<node lat="63.06441666360803" lon="9.40178888025165" id="-41144">
		<tag k="name" v="Seterbekken" />
		<tag k="ssr:stedsnr" v="38105" />
		<tag k="waterway" v="stream" />
	</node>
	<node lat="63.03876388711887" lon="9.327402786635565" id="-41145">
		<tag k="name" v="Urdalsbrona" />
		<tag k="natural" v="ridge" />
		<tag k="place" v="locality" />
		<tag k="ssr:stedsnr" v="38119" />
	</node>
	<node lat="63.01513888749709" lon="9.471997226009474" id="-41146">
		<tag k="name" v="Stangabogbekken" />
		<tag k="ssr:stedsnr" v="38157" />
		<tag k="waterway" v="stream" />
	</node>
	<node lat="63.015094448873455" lon="9.481177774275626" id="-41147">
		<tag k="name" v="Kattugldalen" />
		<tag k="natural" v="valley" />
		<tag k="place" v="locality" />
		<tag k="ssr:stedsnr" v="38159" />
	</node>
	<node lat="63.044741670566296" lon="9.35659166049749" id="-41148">
		<tag k="name" v="Bergslættet" />
		<tag k="place" v="locality" />
		<tag k="ssr:stedsnr" v="38011" />
	</node>
	<node lat="63.0383694427212" lon="9.343752774587449" id="-41149">
		<tag k="name" v="Otertjønna" />
		<tag k="natural" v="water" />
		<tag k="ssr:stedsnr" v="38012" />
	</node>
	<node lat="63.013305559152876" lon="9.372927769329321" id="-41150">
		<tag k="name" v="Ljøsåsnipen" />
		<tag k="natural" v="ridge" />
		<tag k="place" v="locality" />
		<tag k="ssr:stedsnr" v="38413" />
	</node>
	<node lat="63.16106944303435" lon="9.411530562957905" id="-41151">
		<tag k="name" v="Dyrhaugen" />
		<tag k="natural" v="hill" />
		<tag k="place" v="locality" />
		<tag k="ssr:stedsnr" v="42114" />
	</node>
	<node lat="63.12911944115658" lon="9.412547214292113" id="-41152">
		<tag k="name" v="Lian" />
		<tag k="place" v="farm" />
		<tag k="ssr:stedsnr" v="42928" />
	</node>
	<node lat="63.15821199551114" lon="9.417642078732001" id="-41153">
		<tag k="fixme" v="consider place=hamlet" />
		<tag k="name" v="Frekslia" />
		<tag k="place" v="farm" />
		<tag k="ssr:stedsnr" v="73524" />
	</node>
	<node lat="63.11378611021561" lon="9.336674995249737" id="-41154">
		<tag k="name" v="Høgholtgjerdet" />
		<tag k="place" v="farm" />
		<tag k="ssr:stedsnr" v="73463" />
	</node>
	<node lat="63.101591662879805" lon="9.365122230440411" id="-41155">
		<tag k="name" v="Såmmårvollen" />
		<tag k="place" v="farm" />
		<tag k="ssr:stedsnr" v="73464" />
	</node>
	<node lat="63.19596389012627" lon="9.304313880480748" id="-41156">
		<tag k="name" v="Storhaugen" />
		<tag k="place" v="isolated_dwelling" />
		<tag k="ssr:stedsnr" v="73615" />
	</node>
	<node lat="63.19528333350701" lon="9.339208332392078" id="-41157">
		<tag k="fixme" v="consider natural=peak for the most distinct mountains in the district" />
		<tag k="name" v="Kofta" />
		<tag k="natural" v="hill" />
		<tag k="place" v="locality" />
		<tag k="ssr:stedsnr" v="73617" />
	</node>
	<node lat="63.20482500335442" lon="9.330649999809754" id="-41158">
		<tag k="name" v="Perlivollen" />
		<tag k="place" v="isolated_dwelling" />
		<tag k="ssr:stedsnr" v="73625" />
	</node>
	<node lat="63.11921388666321" lon="9.19393332889859" id="-41159">
		<tag k="name" v="Trønsdalssetra" />
		<tag k="place" v="isolated_dwelling" />
		<tag k="ssr:stedsnr" v="73708" />
	</node>
	<node lat="63.09032221785134" lon="9.167655557528624" id="-41160">
		<tag k="historic" v="shieling" />
		<tag k="name" v="Bjørnåssetra" />
		<tag k="place" v="isolated_dwelling" />
		<tag k="ssr:stedsnr" v="73732" />
	</node>
	<node lat="63.00362777361443" lon="9.156497229245414" id="-41161">
		<tag k="name" v="Grønhaugan" />
		<tag k="natural" v="hill" />
		<tag k="place" v="locality" />
		<tag k="ssr:stedsnr" v="84435" />
	</node>
	<node lat="62.96520555965801" lon="9.323961110733169" id="-41162">
		<tag k="name" v="Solmyran" />
		<tag k="natural" v="wetland" />
		<tag k="ssr:stedsnr" v="86299" />
	</node>
	<node lat="63.026722223390074" lon="9.18897500534982" id="-41163">
		<tag k="name" v="Gammelhøyløhaugen" />
		<tag k="natural" v="hill" />
		<tag k="place" v="locality" />
		<tag k="ssr:stedsnr" v="96602" />
	</node>
	<node lat="63.03837499807796" lon="9.189116676375832" id="-41164">
		<tag k="name" v="Tjørhellmyra" />
		<tag k="natural" v="wetland" />
		<tag k="ssr:stedsnr" v="96609" />
	</node>
	<node lat="63.03027222569209" lon="9.193911112251612" id="-41165">
		<tag k="name" v="Myran" />
		<tag k="natural" v="wetland" />
		<tag k="ssr:stedsnr" v="96610" />
	</node>
	<node lat="63.04232778001656" lon="9.213238886291565" id="-41166">
		<tag k="name" v="Storsandbrauta" />
		<tag k="natural" v="wetland" />
		<tag k="ssr:stedsnr" v="97024" />
	</node>
	<node lat="63.11264722656797" lon="9.190880561431458" id="-41167">
		<tag k="historic" v="shieling" />
		<tag k="name" v="Vaulanseter" />
		<tag k="place" v="isolated_dwelling" />
		<tag k="ssr:stedsnr" v="97068" />
	</node>
	<node lat="63.01917499984941" lon="9.23557222324238" id="-41168">
		<tag k="name" v="Knivshaugen" />
		<tag k="natural" v="hill" />
		<tag k="place" v="locality" />
		<tag k="ssr:stedsnr" v="97286" />
	</node>
	<node lat="62.995688891455345" lon="9.25825556116157" id="-41169">
		<tag k="name" v="Bjønnhilitjønna" />
		<tag k="natural" v="water" />
		<tag k="ssr:stedsnr" v="97414" />
	</node>
	<node lat="63.0101194421021" lon="9.246327786980341" id="-41170">
		<tag k="name" v="Øyan" />
		<tag k="place" v="locality" />
		<tag k="ssr:stedsnr" v="97418" />
	</node>
	<node lat="63.00355000000677" lon="9.147305558856267" id="-41171">
		<tag k="name" v="Skjeftmyran" />
		<tag k="natural" v="wetland" />
		<tag k="ssr:stedsnr" v="97322" />
	</node>
	<node lat="63.01356944352952" lon="9.174377779925369" id="-41172">
		<tag k="name" v="Seterlia" />
		<tag k="natural" v="slope" />
		<tag k="place" v="locality" />
		<tag k="ssr:stedsnr" v="97367" />
	</node>
	<node lat="63.01322500193591" lon="9.186236103953371" id="-41173">
		<tag k="name" v="Ormslættet" />
		<tag k="place" v="locality" />
		<tag k="ssr:stedsnr" v="97368" />
	</node>
	<node lat="63.01470000040446" lon="9.188447220203406" id="-41174">
		<tag k="name" v="Ormslætthaugen" />
		<tag k="natural" v="hill" />
		<tag k="place" v="locality" />
		<tag k="ssr:stedsnr" v="97370" />
	</node>
	<node lat="63.002086114800825" lon="9.175747214838337" id="-41175">
		<tag k="name" v="Fjelldalen" />
		<tag k="natural" v="valley" />
		<tag k="place" v="locality" />
		<tag k="ssr:stedsnr" v="97376" />
	</node>
	<node lat="62.941536111222135" lon="9.150249997200175" id="-41176">
		<tag k="name" v="Fjellmyra" />
		<tag k="natural" v="wetland" />
		<tag k="ssr:stedsnr" v="97666" />
	</node>
	<node lat="63.11517500339309" lon="9.105730561867722" id="-41177">
		<tag k="name" v="Porkryggen" />
		<tag k="natural" v="ridge" />
		<tag k="place" v="locality" />
		<tag k="ssr:stedsnr" v="97785" />
	</node>
	<node lat="63.03230000173216" lon="9.107291671239555" id="-41178">
		<tag k="name" v="Utistu Aune" />
		<tag k="place" v="farm" />
		<tag k="ssr:stedsnr" v="97909" />
	</node>
	<node lat="63.03300832887331" lon="9.13538612005541" id="-41179">
		<tag k="name" v="Helvetesdalen" />
		<tag k="natural" v="valley" />
		<tag k="place" v="locality" />
		<tag k="ssr:stedsnr" v="97926" />
	</node>
	<node lat="63.053233333175655" lon="9.286641676079773" id="-41180">
		<tag k="name" v="Vaulstoen" />
		<tag k="natural" v="waterfall" />
		<tag k="ssr:stedsnr" v="98010" />
	</node>
	<node lat="63.069172226269906" lon="9.113480558505115" id="-41181">
		<tag k="name" v="Grytslettlia" />
		<tag k="natural" v="slope" />
		<tag k="place" v="locality" />
		<tag k="ssr:stedsnr" v="97961" />
	</node>
	<node lat="62.83571389143032" lon="9.41275555843699" id="-41182">
		<tag k="name" v="Litlsvartåa" />
		<tag k="ssr:stedsnr" v="98123" />
		<tag k="waterway" v="stream" />
	</node>
	<node lat="63.018950000366125" lon="9.298999991866449" id="-41183">
		<tag k="name" v="Almlia" />
		<tag k="natural" v="slope" />
		<tag k="place" v="locality" />
		<tag k="ssr:stedsnr" v="98263" />
	</node>
	<node lat="63.01526111448127" lon="9.278269440382267" id="-41184">
		<tag k="name" v="Urdalen" />
		<tag k="natural" v="valley" />
		<tag k="place" v="locality" />
		<tag k="ssr:stedsnr" v="98408" />
	</node>
	<node lat="63.099511106658404" lon="9.289613894799896" id="-41185">
		<tag k="name" v="Teigen" />
		<tag k="place" v="locality" />
		<tag k="ssr:stedsnr" v="98960" />
	</node>
	<node lat="63.087197225866866" lon="9.293152787159665" id="-41186">
		<tag k="name" v="Pungtjønna" />
		<tag k="natural" v="water" />
		<tag k="ssr:stedsnr" v="98975" />
	</node>
	<node lat="63.0946833361736" lon="9.329836115259242" id="-41187">
		<tag k="name" v="Svarttjønna" />
		<tag k="natural" v="water" />
		<tag k="ssr:stedsnr" v="98976" />
	</node>
	<node lat="63.04532777740907" lon="9.387130561532139" id="-41188">
		<tag k="name" v="Stokkvass slættet" />
		<tag k="place" v="locality" />
		<tag k="ssr:stedsnr" v="99011" />
	</node>
	<node lat="63.06857222088605" lon="9.291091674581763" id="-41189">
		<tag k="name" v="Sommarfjøstrøa" />
		<tag k="place" v="locality" />
		<tag k="ssr:stedsnr" v="99877" />
	</node>
	<node lat="63.092625476680304" lon="9.269364244029223" id="-41190">
		<tag k="fixme" v="consider place=hamlet" />
		<tag k="name" v="Holten" />
		<tag k="place" v="farm" />
		<tag k="ssr:stedsnr" v="100202" />
	</node>
	<node lat="63.08773333772677" lon="9.407133328738047" id="-41191">
		<tag k="name" v="Ratøyan" />
		<tag k="place" v="locality" />
		<tag k="ssr:stedsnr" v="104192" />
	</node>
	<node lat="62.97152778038023" lon="9.344780560591142" id="-41192">
		<tag k="alt_name" v="Borter Stormyrbekken;Stormyrbekken, bortre" />
		<tag k="name" v="Bortre Stormyrbekken" />
		<tag k="ssr:stedsnr" v="133120" />
		<tag k="waterway" v="stream" />
	</node>
	<node lat="63.01995000421513" lon="9.264586112413257" id="-41193">
		<tag k="name" v="Trondshaugen" />
		<tag k="natural" v="hill" />
		<tag k="place" v="locality" />
		<tag k="ssr:stedsnr" v="133305" />
	</node>
	<node lat="63.08214444105877" lon="9.311102774760222" id="-41194">
		<tag k="name" v="Solheim" />
		<tag k="place" v="farm" />
		<tag k="ssr:stedsnr" v="133375" />
	</node>
	<node lat="63.14501666324278" lon="9.44554445149809" id="-41195">
		<tag k="alt_name" v="Gåsvatn;Nordgard" />
		<tag k="name" v="Gåsvasstrøa" />
		<tag k="place" v="farm" />
		<tag k="ssr:stedsnr" v="133504" />
	</node>
	<node lat="63.169619445706445" lon="9.406266669996795" id="-41196">
		<tag k="name" v="Rørbekken" />
		<tag k="ssr:stedsnr" v="133466" />
		<tag k="waterway" v="stream" />
	</node>
	<node lat="62.849499341450546" lon="9.455321681499461" id="-41197">
		<tag k="name" v="Åssetra" />
		<tag k="place" v="locality" />
		<tag k="ssr:stedsnr" v="133819" />
	</node>
	<node lat="63.04577499903715" lon="9.254244443372675" id="-41198">
		<tag k="name" v="Langholten" />
		<tag k="place" v="farm" />
		<tag k="ssr:stedsnr" v="134413" />
	</node>
	<node lat="63.03796513718551" lon="9.218697403407973" id="-41199">
		<tag k="fixme" v="consider place=hamlet" />
		<tag k="name" v="Langlia" />
		<tag k="place" v="farm" />
		<tag k="ssr:stedsnr" v="134415" />
	</node>
	<node lat="62.92950833315704" lon="9.354980554486616" id="-41200">
		<tag k="name" v="Litlrindvatnet" />
		<tag k="natural" v="water" />
		<tag k="ssr:stedsnr" v="255223" />
		<tag k="water" v="lake" />
	</node>
	<node lat="62.92410277336939" lon="9.306000006224394" id="-41201">
		<tag k="fixme" v="consider natural=peak for the most distinct mountains in the district" />
		<tag k="name" v="Tverrveggen" />
		<tag k="natural" v="hill" />
		<tag k="place" v="locality" />
		<tag k="ssr:stedsnr" v="255233" />
	</node>
	<node lat="63.103042365472525" lon="9.38203393552496" id="-41202">
		<tag k="fixme" v="consider place=hamlet" />
		<tag k="name" v="Nedgarden" />
		<tag k="place" v="farm" />
		<tag k="ssr:stedsnr" v="141138" />
	</node>
	<node lat="62.9485527808317" lon="9.177305549949452" id="-41203">
		<tag k="fixme" v="consider natural=peak for the most distinct mountains in the district" />
		<tag k="name" v="Langurveggen" />
		<tag k="natural" v="hill" />
		<tag k="place" v="locality" />
		<tag k="ssr:stedsnr" v="255050" />
	</node>
	<node lat="62.898024997846136" lon="9.31489721836008" id="-41204">
		<tag k="name" v="Nonstjønna" />
		<tag k="natural" v="water" />
		<tag k="ssr:stedsnr" v="255192" />
	</node>
	<node lat="63.000258333845395" lon="9.278680561497444" id="-41205">
		<tag k="name" v="Sandåvatnet" />
		<tag k="natural" v="water" />
		<tag k="ssr:stedsnr" v="255293" />
	</node>
	<node lat="62.96548055157435" lon="9.281291658659548" id="-41206">
		<tag k="fixme" v="consider natural=peak for the most distinct mountains in the district" />
		<tag k="name" v="Litltrollhøtta" />
		<tag k="natural" v="hill" />
		<tag k="place" v="locality" />
		<tag k="ssr:stedsnr" v="255145" />
	</node>
	<node lat="62.95311666477321" lon="9.26741389201456" id="-41207">
		<tag k="name" v="Dørgesetra" />
		<tag k="place" v="isolated_dwelling" />
		<tag k="ssr:stedsnr" v="255153" />
	</node>
	<node lat="62.908336108963745" lon="9.44007778032783" id="-41208">
		<tag k="name" v="Skaret" />
		<tag k="natural" v="valley" />
		<tag k="place" v="locality" />
		<tag k="ssr:stedsnr" v="255254" />
	</node>
	<node lat="63.01064550520861" lon="9.409013543664816" id="-41209">
		<tag k="fixme" v="consider place=hamlet" />
		<tag k="name" v="Stomprød" />
		<tag k="place" v="farm" />
		<tag k="ssr:stedsnr" v="255331" />
	</node>
	<node lat="63.027200003455086" lon="9.40944166239361" id="-41210">
		<tag k="name" v="Poppeltjønna" />
		<tag k="natural" v="water" />
		<tag k="ssr:stedsnr" v="255340" />
	</node>
	<node lat="63.02100000355315" lon="9.352749996671621" id="-41211">
		<tag k="name" v="Granlund" />
		<tag k="place" v="farm" />
		<tag k="ssr:stedsnr" v="255341" />
	</node>
	<node lat="63.03487742375432" lon="9.275495669109082" id="-41212">
		<tag k="alt_name" v="Rød" />
		<tag k="fixme" v="consider place=hamlet" />
		<tag k="name" v="Røen" />
		<tag k="place" v="farm" />
		<tag k="ssr:stedsnr" v="255359" />
	</node>
	<node lat="63.03524166368969" lon="9.271605559846975" id="-41213">
		<tag k="name" v="Røslykkja" />
		<tag k="place" v="farm" />
		<tag k="ssr:stedsnr" v="255360" />
	</node>
	<node lat="63.03680833086694" lon="9.270013882024152" id="-41214">
		<tag k="name" v="Løsetlia" />
		<tag k="place" v="farm" />
		<tag k="ssr:stedsnr" v="255361" />
	</node>
	<node lat="63.07591210290275" lon="9.222879752711373" id="-41215">
		<tag k="fixme" v="consider place=hamlet" />
		<tag k="name" v="Fosseide" />
		<tag k="place" v="farm" />
		<tag k="ssr:stedsnr" v="255424" />
	</node>
	<node lat="63.07790000291966" lon="9.293024991687934" id="-41216">
		<tag k="name" v="Løvset" />
		<tag k="place" v="farm" />
		<tag k="ssr:stedsnr" v="255427" />
	</node>
	<node lat="63.05945833327258" lon="9.32490555995165" id="-41217">
		<tag k="name" v="Fjellbekken" />
		<tag k="ssr:stedsnr" v="255397" />
		<tag k="waterway" v="stream" />
	</node>
	<node lat="63.11671666526135" lon="9.281624993850519" id="-41218">
		<tag k="name" v="Kvernåa" />
		<tag k="ssr:stedsnr" v="255491" />
		<tag k="waterway" v="stream" />
	</node>
	<node lat="62.96551666833128" lon="9.119280557129638" id="-41219">
		<tag k="name" v="Foldsjøen" />
		<tag k="natural" v="water" />
		<tag k="ssr:stedsnr" v="255437" />
		<tag k="water" v="lake" />
	</node>
	<node lat="63.11261110826808" lon="9.404933341132974" id="-41220">
		<tag k="fixme" v="consider natural=peak for the most distinct mountains in the district" />
		<tag k="name" v="Brannåsen" />
		<tag k="natural" v="hill" />
		<tag k="place" v="locality" />
		<tag k="ssr:stedsnr" v="255442" />
	</node>
	<node lat="63.10334166858569" lon="9.367616665232616" id="-41221">
		<tag k="name" v="Vollen" />
		<tag k="place" v="farm" />
		<tag k="ssr:stedsnr" v="255445" />
	</node>
	<node lat="63.10358691577509" lon="9.293955024216764" id="-41222">
		<tag k="fixme" v="consider place=hamlet" />
		<tag k="name" v="Sverkelia" />
		<tag k="place" v="farm" />
		<tag k="ssr:stedsnr" v="255446" />
	</node>
	<node lat="62.96360000117985" lon="9.167619449602439" id="-41223">
		<tag k="fixme" v="consider natural=peak for the most distinct mountains in the district" />
		<tag k="name" v="Skrommelvasshausen" />
		<tag k="natural" v="hill" />
		<tag k="place" v="locality" />
		<tag k="ssr:stedsnr" v="255447" />
	</node>
	<node lat="63.14920000001834" lon="9.451444436833341" id="-41224">
		<tag k="name" v="Høglitjønna" />
		<tag k="natural" v="water" />
		<tag k="ssr:stedsnr" v="255541" />
	</node>
	<node lat="63.14747500001451" lon="9.23004444663048" id="-41225">
		<tag k="name" v="Storbekken" />
		<tag k="ssr:stedsnr" v="255549" />
		<tag k="waterway" v="stream" />
	</node>
	<node lat="63.14617222490276" lon="9.25383334016943" id="-41226">
		<tag k="name" v="Løfallseterdalen" />
		<tag k="natural" v="valley" />
		<tag k="place" v="locality" />
		<tag k="ssr:stedsnr" v="255551" />
	</node>
	<node lat="63.148769448840866" lon="9.396052777405494" id="-41227">
		<tag k="name" v="Hermundslia" />
		<tag k="natural" v="slope" />
		<tag k="place" v="locality" />
		<tag k="ssr:stedsnr" v="255554" />
	</node>
	<node lat="63.07972499966561" lon="9.20114999602509" id="-41228">
		<tag k="name" v="Lauvlia" />
		<tag k="place" v="farm" />
		<tag k="ssr:stedsnr" v="255651" />
	</node>
	<node lat="63.06155000357131" lon="9.100877786021922" id="-41229">
		<tag k="name" v="Gomåkjølen" />
		<tag k="natural" v="hill" />
		<tag k="place" v="locality" />
		<tag k="ssr:stedsnr" v="255658" />
	</node>
	<node lat="63.13738611429358" lon="9.196727785243649" id="-41230">
		<tag k="fixme" v="consider natural=peak for the most distinct mountains in the district" />
		<tag k="name" v="Jørundholet" />
		<tag k="natural" v="hill" />
		<tag k="old_name" v="Jorenskardfjellet;Jørenskardfjellet;Jønskardfjellet" />
		<tag k="place" v="locality" />
		<tag k="ssr:stedsnr" v="255734" />
	</node>
	<node lat="63.008719444574226" lon="9.316288890797848" id="-41231">
		<tag k="name" v="Nonsgrevdalen" />
		<tag k="natural" v="valley" />
		<tag k="place" v="locality" />
		<tag k="ssr:stedsnr" v="146030" />
	</node>
	<node lat="62.84196666634965" lon="9.408455548342673" id="-41232">
		<tag k="historic" v="shieling" />
		<tag k="name" v="Bruholtsetra" />
		<tag k="place" v="isolated_dwelling" />
		<tag k="ssr:stedsnr" v="255855" />
	</node>
	<node lat="63.011627778307286" lon="9.439052776838535" id="-41233">
		<tag k="bridge" v="yes" />
		<tag k="layer" v="1" />
		<tag k="name" v="Geilmelbrua" />
		<tag k="ssr:stedsnr" v="148314" />
	</node>
	<node lat="63.08052222462411" lon="9.207094450895568" id="-41234">
		<tag k="bridge" v="yes" />
		<tag k="layer" v="1" />
		<tag k="name" v="Ljøsåbrua" />
		<tag k="ssr:stedsnr" v="148320" />
	</node>
	<node lat="63.08955555982737" lon="9.216930553298814" id="-41235">
		<tag k="name" v="Røskvisla" />
		<tag k="ssr:stedsnr" v="156011" />
		<tag k="waterway" v="stream" />
	</node>
	<node lat="63.105299995896814" lon="9.20608611087059" id="-41236">
		<tag k="fixme" v="consider natural=peak for the most distinct mountains in the district" />
		<tag k="name" v="Trøknavassfjellet" />
		<tag k="natural" v="hill" />
		<tag k="place" v="locality" />
		<tag k="ssr:stedsnr" v="157064" />
	</node>
	<node lat="63.116341667615494" lon="9.209963891418937" id="-41237">
		<tag k="fixme" v="consider natural=peak for the most distinct mountains in the district" />
		<tag k="name" v="Ytter Høgfjellet" />
		<tag k="natural" v="hill" />
		<tag k="place" v="locality" />
		<tag k="ssr:stedsnr" v="157068" />
	</node>
	<node lat="63.07623055969515" lon="9.263447222549825" id="-41238">
		<tag k="name" v="Kleivhaugen" />
		<tag k="natural" v="hill" />
		<tag k="place" v="locality" />
		<tag k="ssr:stedsnr" v="157199" />
	</node>
	<node lat="63.105994440155186" lon="9.264441669132538" id="-41239">
		<tag k="name" v="Morgosråket" />
		<tag k="natural" v="valley" />
		<tag k="place" v="locality" />
		<tag k="ssr:stedsnr" v="157355" />
	</node>
	<node lat="63.00529444690408" lon="9.260377769882325" id="-41240">
		<tag k="name" v="Sandåhaugen" />
		<tag k="natural" v="hill" />
		<tag k="place" v="locality" />
		<tag k="ssr:stedsnr" v="157357" />
	</node>
	<node lat="63.031405555138676" lon="9.1873638904181" id="-41241">
		<tag k="name" v="Tøskjøten" />
		<tag k="natural" v="wetland" />
		<tag k="ssr:stedsnr" v="157567" />
	</node>
	<node lat="62.82340277394166" lon="9.386569441745827" id="-41242">
		<tag k="name" v="Litlsvartådalen" />
		<tag k="natural" v="valley" />
		<tag k="place" v="locality" />
		<tag k="ssr:stedsnr" v="158010" />
	</node>
	<node lat="63.05429722361773" lon="9.279952769040744" id="-41243">
		<tag k="name" v="Ratdammen" />
		<tag k="natural" v="water" />
		<tag k="ssr:stedsnr" v="158022" />
	</node>
	<node lat="63.064186112902" lon="9.105980547681645" id="-41244">
		<tag k="name" v="Grytdalen" />
		<tag k="natural" v="valley" />
		<tag k="place" v="locality" />
		<tag k="ssr:stedsnr" v="157953" />
	</node>
	<node lat="63.067327775881914" lon="9.17631944031821" id="-41245">
		<tag k="name" v="Eldmyrdalen" />
		<tag k="natural" v="valley" />
		<tag k="place" v="locality" />
		<tag k="ssr:stedsnr" v="158202" />
	</node>
	<node lat="63.03219999910313" lon="9.298069448580238" id="-41246">
		<tag k="name" v="Skjørbekken" />
		<tag k="ssr:stedsnr" v="158269" />
		<tag k="waterway" v="stream" />
	</node>
	<node lat="63.02946111534222" lon="9.104574992408626" id="-41247">
		<tag k="name" v="Ferjemannshølen" />
		<tag k="place" v="locality" />
		<tag k="ssr:stedsnr" v="158911" />
	</node>
	<node lat="63.17579167010851" lon="9.298036108102922" id="-41248">
		<tag k="name" v="Nedre Gråortjern" />
		<tag k="natural" v="water" />
		<tag k="ssr:stedsnr" v="159106" />
	</node>
	<node lat="63.072652779650674" lon="9.343549997938545" id="-41249">
		<tag k="historic" v="shieling" />
		<tag k="name" v="Tisetsetrin" />
		<tag k="place" v="isolated_dwelling" />
		<tag k="ssr:stedsnr" v="159118" />
	</node>
	<node lat="63.052869445443484" lon="9.330266666610747" id="-41250">
		<tag k="name" v="Tilfjellslåtta" />
		<tag k="place" v="locality" />
		<tag k="ssr:stedsnr" v="159123" />
	</node>
	<node lat="63.01459721863696" lon="9.409855549491699" id="-41251">
		<tag k="name" v="Storlia" />
		<tag k="natural" v="slope" />
		<tag k="place" v="locality" />
		<tag k="ssr:stedsnr" v="159415" />
	</node>
	<node lat="63.01113333346058" lon="9.438047231310534" id="-41252">
		<tag k="name" v="Gjelmelen" />
		<tag k="place" v="locality" />
		<tag k="ssr:stedsnr" v="159448" />
	</node>
	<node lat="63.00562777819213" lon="9.38028888007101" id="-41253">
		<tag k="name" v="Storlia" />
		<tag k="natural" v="slope" />
		<tag k="place" v="locality" />
		<tag k="ssr:stedsnr" v="159450" />
	</node>
	<node lat="63.004908335809205" lon="9.337349992965926" id="-41254">
		<tag k="name" v="Tortdalen" />
		<tag k="natural" v="valley" />
		<tag k="place" v="locality" />
		<tag k="ssr:stedsnr" v="159519" />
	</node>
	<node lat="62.83621389316596" lon="9.40615833629469" id="-41255">
		<tag k="name" v="Småfjella" />
		<tag k="natural" v="ridge" />
		<tag k="place" v="locality" />
		<tag k="ssr:stedsnr" v="162099" />
	</node>
	<node lat="63.10525277863687" lon="9.442072229940482" id="-41256">
		<tag k="name" v="Ruggurdalen" />
		<tag k="natural" v="valley" />
		<tag k="place" v="locality" />
		<tag k="ssr:stedsnr" v="163223" />
	</node>
	<node lat="63.19019444374931" lon="9.244741661962516" id="-41257">
		<tag k="name" v="Bendiksetra" />
		<tag k="place" v="isolated_dwelling" />
		<tag k="ssr:stedsnr" v="263154" />
	</node>
	<node lat="63.009919445636406" lon="9.321455557356355" id="-41258">
		<tag k="name" v="Bjørnsengdalen" />
		<tag k="natural" v="valley" />
		<tag k="place" v="locality" />
		<tag k="ssr:stedsnr" v="267445" />
	</node>
	<node lat="63.10059820124534" lon="9.430516750704895" id="-41259">
		<tag k="name" v="Tømmerhaugen" />
		<tag k="place" v="locality" />
		<tag k="ssr:stedsnr" v="195485" />
	</node>
	<node lat="63.101646673036505" lon="9.391970271791207" id="-41260">
		<tag k="name" v="Grøset" />
		<tag k="place" v="farm" />
		<tag k="ssr:stedsnr" v="195488" />
	</node>
	<node lat="63.05838611375602" lon="9.096905559455257" id="-41261">
		<tag k="name" v="Langvatnet" />
		<tag k="natural" v="water" />
		<tag k="ssr:stedsnr" v="203095" />
		<tag k="water" v="lake" />
	</node>
	<node lat="62.98856666381842" lon="9.31606944097075" id="-41262">
		<tag k="name" v="Fjellbekken" />
		<tag k="ssr:stedsnr" v="207036" />
		<tag k="waterway" v="stream" />
	</node>
	<node lat="62.86942222353302" lon="9.338138880802614" id="-41263">
		<tag k="name" v="Govrenmehkie" />
		<tag k="name:sma" v="Govrenmehkie" />
		<tag k="natural" v="valley" />
		<tag k="place" v="locality" />
		<tag k="ssr:stedsnr" v="207136" />
	</node>
	<node lat="62.94805127576959" lon="9.151431853020345" id="-41264">
		<tag k="name" v="Storbekken" />
		<tag k="ssr:stedsnr" v="268742" />
		<tag k="waterway" v="stream" />
	</node>
	<node lat="62.960466668283544" lon="9.19715833081863" id="-41265">
		<tag k="name" v="Purkfonna" />
		<tag k="place" v="locality" />
		<tag k="ssr:stedsnr" v="268744" />
	</node>
	<node lat="62.91969722522406" lon="9.166800006599214" id="-41266">
		<tag k="name" v="Storgrøa" />
		<tag k="natural" v="slope" />
		<tag k="place" v="locality" />
		<tag k="ssr:stedsnr" v="207286" />
	</node>
	<node lat="62.91800833690948" lon="9.37561111207673" id="-41267">
		<tag k="fixme" v="consider natural=peak for the most distinct mountains in the district" />
		<tag k="name" v="Bakhatten" />
		<tag k="natural" v="hill" />
		<tag k="place" v="locality" />
		<tag k="ssr:stedsnr" v="210910" />
	</node>
	<node lat="63.12026389324404" lon="9.341861104547931" id="-41268">
		<tag k="bridge" v="yes" />
		<tag k="layer" v="1" />
		<tag k="name" v="Asphaugbrua" />
		<tag k="ssr:stedsnr" v="270299" />
	</node>
	<node lat="63.112249995937475" lon="9.25830832878451" id="-41269">
		<tag k="name" v="Merkesbekken" />
		<tag k="ssr:stedsnr" v="218083" />
		<tag k="waterway" v="stream" />
	</node>
	<node lat="63.10570000015398" lon="9.229927782481308" id="-41270">
		<tag k="name" v="Sletthaugan" />
		<tag k="natural" v="hill" />
		<tag k="place" v="locality" />
		<tag k="ssr:stedsnr" v="218087" />
	</node>
	<node lat="63.02819444616711" lon="9.225916661376719" id="-41271">
		<tag k="name" v="Grytmyra" />
		<tag k="natural" v="wetland" />
		<tag k="ssr:stedsnr" v="218277" />
	</node>
	<node lat="63.02346110941204" lon="9.231411101959893" id="-41272">
		<tag k="name" v="Geitostdalen" />
		<tag k="natural" v="valley" />
		<tag k="place" v="locality" />
		<tag k="ssr:stedsnr" v="218279" />
	</node>
	<node lat="63.03331388622582" lon="9.242977768584371" id="-41273">
		<tag k="name" v="Sponstolhaugen" />
		<tag k="natural" v="hill" />
		<tag k="place" v="locality" />
		<tag k="ssr:stedsnr" v="218280" />
	</node>
	<node lat="63.08026666393853" lon="9.249080555204651" id="-41274">
		<tag k="name" v="Skroggholet" />
		<tag k="natural" v="valley" />
		<tag k="place" v="locality" />
		<tag k="ssr:stedsnr" v="218194" />
	</node>
	<node lat="63.03710833062488" lon="9.160130553020423" id="-41275">
		<tag k="name" v="Kvennabekken" />
		<tag k="ssr:stedsnr" v="218410" />
		<tag k="waterway" v="stream" />
	</node>
	<node lat="63.02325833114718" lon="9.179458339487326" id="-41276">
		<tag k="name" v="Seterbuslættet" />
		<tag k="natural" v="valley" />
		<tag k="place" v="locality" />
		<tag k="ssr:stedsnr" v="218576" />
	</node>
	<node lat="63.02137221872122" lon="9.166727771826881" id="-41277">
		<tag k="name" v="Storslættet" />
		<tag k="place" v="locality" />
		<tag k="ssr:stedsnr" v="218581" />
	</node>
	<node lat="63.05491667029806" lon="9.274138891683457" id="-41278">
		<tag k="name" v="Sagøya" />
		<tag k="place" v="locality" />
		<tag k="ssr:stedsnr" v="219009" />
	</node>
	<node lat="63.094069448316105" lon="9.077174995976016" id="-41279">
		<tag k="name" v="Stenvegtjønna" />
		<tag k="natural" v="water" />
		<tag k="ssr:stedsnr" v="218791" />
	</node>
	<node lat="63.060025002151676" lon="9.11444166400317" id="-41280">
		<tag k="name" v="Råslættet" />
		<tag k="place" v="locality" />
		<tag k="ssr:stedsnr" v="218989" />
	</node>
	<node lat="63.04706944260539" lon="9.136791663538034" id="-41281">
		<tag k="name" v="Almdalen" />
		<tag k="natural" v="valley" />
		<tag k="place" v="locality" />
		<tag k="ssr:stedsnr" v="218993" />
	</node>
	<node lat="62.82924999614724" lon="9.398441672837416" id="-41282">
		<tag k="name" v="Litlsvartådalen" />
		<tag k="natural" v="valley" />
		<tag k="place" v="locality" />
		<tag k="ssr:stedsnr" v="219129" />
	</node>
	<node lat="63.06804722654295" lon="9.192341673145707" id="-41283">
		<tag k="name" v="Bjønnadalen" />
		<tag k="natural" v="valley" />
		<tag k="place" v="locality" />
		<tag k="ssr:stedsnr" v="219173" />
	</node>
	<node lat="63.06896666924256" lon="9.176938898146002" id="-41284">
		<tag k="name" v="Seljpilhaugen" />
		<tag k="natural" v="hill" />
		<tag k="place" v="locality" />
		<tag k="ssr:stedsnr" v="219175" />
	</node>
	<node lat="63.022216667075895" lon="9.308502779243597" id="-41285">
		<tag k="name" v="Svartegga" />
		<tag k="natural" v="hill" />
		<tag k="place" v="locality" />
		<tag k="ssr:stedsnr" v="219290" />
	</node>
	<node lat="63.09765555900145" lon="9.392052775689109" id="-41286">
		<tag k="name" v="Svahylla" />
		<tag k="natural" v="hill" />
		<tag k="place" v="locality" />
		<tag k="ssr:stedsnr" v="219970" />
	</node>
	<node lat="63.099763892749856" lon="9.28233333821439" id="-41287">
		<tag k="name" v="Stordalen" />
		<tag k="natural" v="valley" />
		<tag k="place" v="locality" />
		<tag k="ssr:stedsnr" v="219975" />
	</node>
	<node lat="63.08991666443653" lon="9.278605558574199" id="-41288">
		<tag k="name" v="Storhaugen" />
		<tag k="natural" v="hill" />
		<tag k="place" v="locality" />
		<tag k="ssr:stedsnr" v="219976" />
	</node>
	<node lat="63.081063892973575" lon="9.293733332888861" id="-41289">
		<tag k="name" v="Luberget" />
		<tag k="natural" v="hill" />
		<tag k="place" v="locality" />
		<tag k="ssr:stedsnr" v="220121" />
	</node>
	<node lat="63.1937805579331" lon="9.365874993891564" id="-41290">
		<tag k="name" v="Skruvtellia" />
		<tag k="natural" v="slope" />
		<tag k="place" v="locality" />
		<tag k="ssr:stedsnr" v="220071" />
	</node>
	<node lat="63.18145555821312" lon="9.393938898098655" id="-41291">
		<tag k="name" v="Espedalen" />
		<tag k="natural" v="valley" />
		<tag k="place" v="locality" />
		<tag k="ssr:stedsnr" v="220075" />
	</node>
	<node lat="63.01481111526276" lon="9.374477774149236" id="-41292">
		<tag k="name" v="Kirkholtgjerde" />
		<tag k="natural" v="slope" />
		<tag k="place" v="locality" />
		<tag k="ssr:stedsnr" v="220529" />
	</node>
	<node lat="63.00054166661247" lon="9.486852782110534" id="-41293">
		<tag k="name" v="Pelldalen" />
		<tag k="natural" v="valley" />
		<tag k="place" v="locality" />
		<tag k="ssr:stedsnr" v="220473" />
	</node>
	<node lat="63.02334722605885" lon="9.374036105707251" id="-41294">
		<tag k="name" v="Grønhaugen" />
		<tag k="natural" v="hill" />
		<tag k="place" v="locality" />
		<tag k="ssr:stedsnr" v="220910" />
	</node>
	<node lat="63.02072499642292" lon="9.470149992425789" id="-41295">
		<tag k="name" v="Haugadalen" />
		<tag k="natural" v="valley" />
		<tag k="place" v="locality" />
		<tag k="ssr:stedsnr" v="221587" />
	</node>
	<node lat="63.10805000246769" lon="9.419313885772887" id="-41296">
		<tag k="name" v="Øverliin" />
		<tag k="natural" v="slope" />
		<tag k="place" v="locality" />
		<tag k="ssr:stedsnr" v="224246" />
	</node>
	<node lat="63.12270833230363" lon="9.439216657576909" id="-41297">
		<tag k="name" v="Kåsan" />
		<tag k="natural" v="hill" />
		<tag k="place" v="locality" />
		<tag k="ssr:stedsnr" v="224249" />
	</node>
	<node lat="63.153997219893874" lon="9.413147223450313" id="-41298">
		<tag k="name" v="Øytun" />
		<tag k="place" v="farm" />
		<tag k="ssr:stedsnr" v="224122" />
	</node>
	<node lat="63.16615555145297" lon="9.40777777855251" id="-41299">
		<tag k="name" v="Kråkberget" />
		<tag k="natural" v="hill" />
		<tag k="place" v="locality" />
		<tag k="ssr:stedsnr" v="224123" />
	</node>
	<node lat="63.16717777838447" lon="9.439913889563911" id="-41300">
		<tag k="name" v="Moen" />
		<tag k="place" v="farm" />
		<tag k="ssr:stedsnr" v="225101" />
	</node>
	<node lat="62.97541666742303" lon="9.229705555573446" id="-41301">
		<tag k="name" v="Børtre Stillbølu" />
		<tag k="place" v="locality" />
		<tag k="ssr:stedsnr" v="450756" />
	</node>
	<node lat="63.09828333717443" lon="9.020897231941634" id="-41302">
		<tag k="name" v="Storbekkdalstjønna" />
		<tag k="natural" v="water" />
		<tag k="ssr:stedsnr" v="450851" />
	</node>
	<node lat="63.018802779850006" lon="9.349905551116892" id="-41303">
		<tag k="bridge" v="yes" />
		<tag k="layer" v="1" />
		<tag k="name" v="Kysingbrua" />
		<tag k="ssr:stedsnr" v="452292" />
	</node>
	<node lat="63.09432500071541" lon="9.282344450602576" id="-41304">
		<tag k="bridge" v="yes" />
		<tag k="layer" v="1" />
		<tag k="name" v="Holtbrua" />
		<tag k="ssr:stedsnr" v="452300" />
	</node>
	<node lat="62.97029721781365" lon="9.226805553926196" id="-41305">
		<tag k="name" v="Storbekkmyra" />
		<tag k="natural" v="wetland" />
		<tag k="ssr:stedsnr" v="453792" />
	</node>
	<node lat="62.93563610874197" lon="9.164958332583986" id="-41306">
		<tag k="fixme" v="consider natural=peak for the most distinct mountains in the district" />
		<tag k="name" v="Midtveggen" />
		<tag k="natural" v="hill" />
		<tag k="place" v="locality" />
		<tag k="ssr:stedsnr" v="255064" />
	</node>
	<node lat="63.0057777750139" lon="9.314322222638204" id="-41307">
		<tag k="name" v="Sagbekken" />
		<tag k="ssr:stedsnr" v="255181" />
		<tag k="waterway" v="stream" />
	</node>
	<node lat="62.98583055782031" lon="9.227872213936537" id="-41308">
		<tag k="name" v="Bolmsetrin" />
		<tag k="place" v="isolated_dwelling" />
		<tag k="ssr:stedsnr" v="255183" />
	</node>
	<node lat="62.994349997354924" lon="9.465938879028368" id="-41309">
		<tag k="name" v="Bjørnavatnet" />
		<tag k="natural" v="water" />
		<tag k="ssr:stedsnr" v="255185" />
	</node>
	<node lat="63.13348610843622" lon="9.309747214281716" id="-41310">
		<tag k="name" v="Trøa" />
		<tag k="place" v="farm" />
		<tag k="ssr:stedsnr" v="255469" />
	</node>
	<node lat="63.12443055704636" lon="9.389436104847904" id="-41311">
		<tag k="name" v="Damlia" />
		<tag k="place" v="farm" />
		<tag k="ssr:stedsnr" v="255481" />
	</node>
	<node lat="63.12446944770561" lon="9.38453888308228" id="-41312">
		<tag k="name" v="Solås" />
		<tag k="place" v="farm" />
		<tag k="ssr:stedsnr" v="255483" />
	</node>
	<node lat="63.17037991485953" lon="9.44789320963435" id="-41313">
		<tag k="name" v="Jolia" />
		<tag k="place" v="farm" />
		<tag k="ssr:stedsnr" v="255517" />
	</node>
	<node lat="63.17516388906208" lon="9.343405565258214" id="-41314">
		<tag k="fixme" v="consider natural=peak for the most distinct mountains in the district" />
		<tag k="name" v="Gråurfjellet" />
		<tag k="natural" v="hill" />
		<tag k="place" v="locality" />
		<tag k="ssr:stedsnr" v="255519" />
	</node>
	<node lat="63.12136667103896" lon="9.03656110853267" id="-41315">
		<tag k="name" v="Fosselva" />
		<tag k="ssr:stedsnr" v="255715" />
		<tag k="waterway" v="river" />
	</node>
	<node lat="63.106963886295446" lon="9.210136102982048" id="-41316">
		<tag k="name" v="Trøknvatnet" />
		<tag k="natural" v="water" />
		<tag k="ssr:stedsnr" v="263098" />
		<tag k="water" v="lake" />
	</node>
	<node lat="62.93145555227503" lon="9.149513895202325" id="-41317">
		<tag k="name" v="Slumpan" />
		<tag k="place" v="locality" />
		<tag k="ssr:stedsnr" v="268276" />
	</node>
	<node lat="63.06060833264979" lon="9.383799997431058" id="-41318">
		<tag k="name" v="Storgrøa" />
		<tag k="natural" v="wetland" />
		<tag k="ssr:stedsnr" v="268297" />
	</node>
	<node lat="63.1291444416404" lon="9.341936104111355" id="-41319">
		<tag k="bridge" v="yes" />
		<tag k="layer" v="1" />
		<tag k="name" v="Grøtbrua" />
		<tag k="ssr:stedsnr" v="270304" />
	</node>
	<node lat="63.18338055186211" lon="9.408252772397608" id="-41320">
		<tag k="fixme" v="consider natural=peak for the most distinct mountains in the district" />
		<tag k="name" v="Jolifjellet" />
		<tag k="natural" v="hill" />
		<tag k="place" v="locality" />
		<tag k="ssr:stedsnr" v="459589" />
	</node>
	<node lat="63.103124996449225" lon="9.231655562529753" id="-41321">
		<tag k="name" v="Slættet" />
		<tag k="place" v="locality" />
		<tag k="ssr:stedsnr" v="278020" />
	</node>
	<node lat="62.95631110931056" lon="9.143994447469542" id="-41322">
		<tag k="name" v="Storstakkslættbekken" />
		<tag k="ssr:stedsnr" v="279013" />
		<tag k="waterway" v="stream" />
	</node>
	<node lat="62.95427221979704" lon="9.142758326653798" id="-41323">
		<tag k="name" v="Reinvassbekken" />
		<tag k="ssr:stedsnr" v="279017" />
		<tag k="waterway" v="stream" />
	</node>
	<node lat="63.042308329627005" lon="9.213394441095524" id="-41324">
		<tag k="name" v="Stormyra" />
		<tag k="natural" v="wetland" />
		<tag k="ssr:stedsnr" v="279018" />
	</node>
	<node lat="63.045511112555424" lon="9.26290278694018" id="-41325">
		<tag k="name" v="Oppistu Løset" />
		<tag k="place" v="farm" />
		<tag k="ssr:stedsnr" v="279020" />
	</node>
	<node lat="63.0438305577833" lon="9.250183334320953" id="-41326">
		<tag k="name" v="Solegga" />
		<tag k="natural" v="ridge" />
		<tag k="place" v="locality" />
		<tag k="ssr:stedsnr" v="279022" />
	</node>
	<node lat="63.04278055796937" lon="9.17166667457243" id="-41327">
		<tag k="name" v="Dalheim" />
		<tag k="place" v="farm" />
		<tag k="ssr:stedsnr" v="279034" />
	</node>
	<node lat="63.02837777392832" lon="9.234238887626903" id="-41328">
		<tag k="name" v="Ilurbekken" />
		<tag k="ssr:stedsnr" v="279285" />
		<tag k="waterway" v="stream" />
	</node>
	<node lat="63.03213333020058" lon="9.261552775044926" id="-41329">
		<tag k="name" v="Livshaugen" />
		<tag k="natural" v="hill" />
		<tag k="place" v="locality" />
		<tag k="ssr:stedsnr" v="279294" />
	</node>
	<node lat="62.99979722233542" lon="9.245155553458899" id="-41330">
		<tag k="name" v="Litlbøludalen" />
		<tag k="natural" v="valley" />
		<tag k="place" v="locality" />
		<tag k="ssr:stedsnr" v="279402" />
	</node>
	<node lat="63.03709999849181" lon="9.15524999676849" id="-41331">
		<tag k="highway" v="path" />
		<tag k="name" v="Trovegen" />
		<tag k="ssr:stedsnr" v="279411" />
	</node>
	<node lat="63.03246388459101" lon="9.1811499914283" id="-41332">
		<tag k="name" v="Middagsgreiva" />
		<tag k="natural" v="valley" />
		<tag k="place" v="locality" />
		<tag k="ssr:stedsnr" v="279623" />
	</node>
	<node lat="62.93191667083815" lon="9.153958324948674" id="-41333">
		<tag k="fixme" v="consider natural=peak for the most distinct mountains in the district" />
		<tag k="name" v="Inner Slompen" />
		<tag k="natural" v="hill" />
		<tag k="place" v="locality" />
		<tag k="ssr:stedsnr" v="279688" />
	</node>
	<node lat="63.03853055319372" lon="9.113847228198411" id="-41334">
		<tag k="name" v="Fagghølen" />
		<tag k="place" v="island" />
		<tag k="ssr:stedsnr" v="279924" />
	</node>
	<node lat="63.19078055206593" lon="9.252974991866283" id="-41335">
		<tag k="name" v="Storslettet" />
		<tag k="place" v="isolated_dwelling" />
		<tag k="ssr:stedsnr" v="280123" />
	</node>
	<node lat="63.02146389256364" lon="9.290208335474563" id="-41336">
		<tag k="name" v="Bekkjabaklia" />
		<tag k="natural" v="slope" />
		<tag k="place" v="locality" />
		<tag k="ssr:stedsnr" v="280197" />
	</node>
	<node lat="62.986324999543065" lon="9.158694446707162" id="-41337">
		<tag k="name" v="Heimeseterlia" />
		<tag k="natural" v="slope" />
		<tag k="place" v="locality" />
		<tag k="ssr:stedsnr" v="280579" />
	</node>
	<node lat="63.14801666688548" lon="9.393652782377405" id="-41338">
		<tag k="name" v="Stenset" />
		<tag k="place" v="farm" />
		<tag k="ssr:stedsnr" v="280911" />
	</node>
	<node lat="63.07689444641369" lon="9.322574995016536" id="-41339">
		<tag k="name" v="Luli" />
		<tag k="place" v="farm" />
		<tag k="ssr:stedsnr" v="281086" />
	</node>
	<node lat="63.07777500337959" lon="9.335880556455928" id="-41340">
		<tag k="name" v="Drøftingtjønna" />
		<tag k="natural" v="water" />
		<tag k="ssr:stedsnr" v="281097" />
	</node>
	<node lat="62.997169441495316" lon="9.401372216776837" id="-41341">
		<tag k="name" v="Setermarkstoen" />
		<tag k="natural" v="waterfall" />
		<tag k="ssr:stedsnr" v="281402" />
	</node>
	<node lat="63.0280194401931" lon="9.41959165780167" id="-41342">
		<tag k="name" v="Ospaslættet" />
		<tag k="place" v="locality" />
		<tag k="ssr:stedsnr" v="281668" />
	</node>
	<node lat="63.06747500334476" lon="9.28053332461027" id="-41343">
		<tag k="name" v="Isvasstoen" />
		<tag k="natural" v="waterfall" />
		<tag k="ssr:stedsnr" v="281888" />
	</node>
	<node lat="63.061675002348856" lon="9.285241658932732" id="-41344">
		<tag k="name" v="Marikåpråa" />
		<tag k="natural" v="valley" />
		<tag k="place" v="locality" />
		<tag k="ssr:stedsnr" v="281904" />
	</node>
	<node lat="63.121116663536824" lon="9.08893332512678" id="-41345">
		<tag k="name" v="Finnhøtthaugen" />
		<tag k="natural" v="hill" />
		<tag k="place" v="locality" />
		<tag k="ssr:stedsnr" v="460799" />
	</node>
	<node lat="63.05085833005451" lon="9.193550008157688" id="-41346">
		<tag k="name" v="Rindøyhølen" />
		<tag k="place" v="locality" />
		<tag k="ssr:stedsnr" v="461028" />
	</node>
	<node lat="63.070405558513414" lon="9.203408337519908" id="-41347">
		<tag k="name" v="Kvennabekken" />
		<tag k="ssr:stedsnr" v="461187" />
		<tag k="waterway" v="stream" />
	</node>
	<node lat="63.0663999987856" lon="9.17696667262934" id="-41348">
		<tag k="name" v="Eldmyrhaugen" />
		<tag k="natural" v="hill" />
		<tag k="place" v="locality" />
		<tag k="ssr:stedsnr" v="461189" />
	</node>
	<node lat="63.071700002393904" lon="9.228947220321603" id="-41349">
		<tag k="name" v="Djupdalsbekken" />
		<tag k="ssr:stedsnr" v="461192" />
		<tag k="waterway" v="stream" />
	</node>
	<node lat="63.05234731119785" lon="9.20639366604234" id="-41350">
		<tag k="fixme" v="consider place=hamlet" />
		<tag k="name" v="Rindalen" />
		<tag k="place" v="farm" />
		<tag k="ssr:stedsnr" v="461042" />
	</node>
	<node lat="62.94521388934383" lon="9.13352223109033" id="-41351">
		<tag k="name" v="Nyhøyløslættet" />
		<tag k="place" v="locality" />
		<tag k="ssr:stedsnr" v="461047" />
	</node>
	<node lat="63.07576944753241" lon="9.158780562604894" id="-41352">
		<tag k="name" v="Ljøsådalen" />
		<tag k="natural" v="valley" />
		<tag k="place" v="locality" />
		<tag k="ssr:stedsnr" v="461128" />
	</node>
	<node lat="63.11477778134929" lon="9.233199994779964" id="-41353">
		<tag k="name" v="Slettdalskinn" />
		<tag k="natural" v="ridge" />
		<tag k="place" v="locality" />
		<tag k="ssr:stedsnr" v="461086" />
	</node>
	<node lat="63.0278361080213" lon="9.29700278529454" id="-41354">
		<tag k="name" v="Lintrøa" />
		<tag k="place" v="locality" />
		<tag k="ssr:stedsnr" v="462203" />
	</node>
	<node lat="63.13302777826132" lon="9.412050001965186" id="-41355">
		<tag k="name" v="Gjerdabekken" />
		<tag k="ssr:stedsnr" v="285930" />
		<tag k="waterway" v="stream" />
	</node>
	<node lat="63.033602776123196" lon="9.173100005950428" id="-41356">
		<tag k="name" v="Hekkelmyra" />
		<tag k="natural" v="wetland" />
		<tag k="ssr:stedsnr" v="461629" />
	</node>
	<node lat="63.1188472184866" lon="9.044013897142387" id="-41357">
		<tag k="name" v="Fossdalsbaklia" />
		<tag k="natural" v="slope" />
		<tag k="place" v="locality" />
		<tag k="ssr:stedsnr" v="461781" />
	</node>
	<node lat="63.02807777946663" lon="9.144780552664288" id="-41358">
		<tag k="name" v="Storlia" />
		<tag k="natural" v="slope" />
		<tag k="place" v="locality" />
		<tag k="ssr:stedsnr" v="461886" />
	</node>
	<node lat="63.02420833767185" lon="9.141422220913235" id="-41359">
		<tag k="name" v="Storslættet" />
		<tag k="place" v="locality" />
		<tag k="ssr:stedsnr" v="461888" />
	</node>
	<node lat="63.0558694402491" lon="9.128258327715317" id="-41360">
		<tag k="name" v="Kårlia" />
		<tag k="natural" v="slope" />
		<tag k="place" v="locality" />
		<tag k="ssr:stedsnr" v="461985" />
	</node>
	<node lat="63.046033336998825" lon="9.130538889089408" id="-41361">
		<tag k="name" v="Almberg" />
		<tag k="place" v="farm" />
		<tag k="ssr:stedsnr" v="461990" />
	</node>
	<node lat="63.04785555312458" lon="9.288552776608801" id="-41362">
		<tag k="fixme" v="consider natural=peak for the most distinct mountains in the district" />
		<tag k="name" v="Svartvassåsen" />
		<tag k="natural" v="hill" />
		<tag k="place" v="locality" />
		<tag k="ssr:stedsnr" v="462019" />
	</node>
	<node lat="63.03847499770089" lon="9.141433327145895" id="-41363">
		<tag k="name" v="Vargøya" />
		<tag k="place" v="island" />
		<tag k="ssr:stedsnr" v="461930" />
	</node>
	<node lat="63.077716666624525" lon="9.093352785831291" id="-41364">
		<tag k="historic" v="shieling" />
		<tag k="name" v="Finnråa" />
		<tag k="place" v="isolated_dwelling" />
		<tag k="ssr:stedsnr" v="461945" />
	</node>
	<node lat="63.04152777785165" lon="9.123922221379923" id="-41365">
		<tag k="name" v="Aune" />
		<tag k="place" v="farm" />
		<tag k="ssr:stedsnr" v="461950" />
	</node>
	<node lat="63.04178333103169" lon="9.13001667472884" id="-41366">
		<tag k="name" v="Bølluøya" />
		<tag k="place" v="farm" />
		<tag k="ssr:stedsnr" v="461954" />
	</node>
	<node lat="63.17494880201149" lon="9.241091741544814" id="-41367">
		<tag k="name" v="Ljøsådalseter" />
		<tag k="place" v="isolated_dwelling" />
		<tag k="ssr:stedsnr" v="462125" />
	</node>
	<node lat="63.00559444896338" lon="9.313466658256369" id="-41368">
		<tag k="name" v="Styggversstøggudalen" />
		<tag k="natural" v="valley" />
		<tag k="place" v="locality" />
		<tag k="ssr:stedsnr" v="462420" />
	</node>
	<node lat="63.03859444291521" lon="9.388797218498599" id="-41369">
		<tag k="name" v="Stokkvassbekken" />
		<tag k="ssr:stedsnr" v="462926" />
		<tag k="waterway" v="stream" />
	</node>
	<node lat="63.09394444653118" lon="9.323597227592806" id="-41370">
		<tag k="name" v="Øyabekken" />
		<tag k="ssr:stedsnr" v="462983" />
		<tag k="waterway" v="stream" />
	</node>
	<node lat="63.10340833381844" lon="9.29486388724131" id="-41371">
		<tag k="name" v="Sverkelia" />
		<tag k="place" v="farm" />
		<tag k="ssr:stedsnr" v="463030" />
	</node>
	<node lat="63.10271388787414" lon="9.39613055813547" id="-41372">
		<tag k="name" v="Grøset" />
		<tag k="place" v="farm" />
		<tag k="ssr:stedsnr" v="463033" />
	</node>
	<node lat="63.103102781299484" lon="9.354747225603091" id="-41373">
		<tag k="name" v="Oppheim" />
		<tag k="place" v="farm" />
		<tag k="ssr:stedsnr" v="463037" />
	</node>
	<node lat="63.11416666712212" lon="9.387966664589786" id="-41374">
		<tag k="name" v="Djupdompa" />
		<tag k="natural" v="wetland" />
		<tag k="ssr:stedsnr" v="463040" />
	</node>
	<node lat="63.20919167052565" lon="9.34808610397256" id="-41375">
		<tag k="name" v="Søvatnet" />
		<tag k="natural" v="water" />
		<tag k="ssr:stedsnr" v="463064" />
		<tag k="water" v="lake" />
	</node>
	<node lat="63.18399166720543" lon="9.305405560588184" id="-41376">
		<tag k="name" v="Storhauglia" />
		<tag k="natural" v="slope" />
		<tag k="place" v="locality" />
		<tag k="ssr:stedsnr" v="463071" />
	</node>
	<node lat="63.07429444485321" lon="9.273063896591223" id="-41377">
		<tag k="name" v="Lykkja" />
		<tag k="place" v="locality" />
		<tag k="ssr:stedsnr" v="463072" />
	</node>
	<node lat="63.07760000221552" lon="9.285275002802619" id="-41378">
		<tag k="name" v="Skansen" />
		<tag k="natural" v="hill" />
		<tag k="place" v="locality" />
		<tag k="ssr:stedsnr" v="463077" />
	</node>
	<node lat="63.175019443645205" lon="9.30800000153646" id="-41379">
		<tag k="name" v="Midtre Gråortjern" />
		<tag k="natural" v="water" />
		<tag k="old_name" v="Mitre Gråortjern" />
		<tag k="ssr:stedsnr" v="463079" />
	</node>
	<node lat="63.076774998794406" lon="9.293619448628991" id="-41380">
		<tag k="name" v="Lulibekken" />
		<tag k="ssr:stedsnr" v="463080" />
		<tag k="waterway" v="stream" />
	</node>
	<node lat="63.16886110985761" lon="9.305858342258773" id="-41381">
		<tag k="name" v="Brattråket" />
		<tag k="place" v="locality" />
		<tag k="ssr:stedsnr" v="463081" />
	</node>
	<node lat="63.06733888494842" lon="9.350397229603331" id="-41382">
		<tag k="name" v="Steinkjerka" />
		<tag k="natural" v="stone" />
		<tag k="ssr:stedsnr" v="463092" />
	</node>
	<node lat="63.00756944063825" lon="9.426074995789902" id="-41383">
		<tag k="name" v="Øygardsholtet" />
		<tag k="place" v="locality" />
		<tag k="ssr:stedsnr" v="463357" />
	</node>
	<node lat="63.01769166688768" lon="9.403783340394876" id="-41384">
		<tag k="name" v="Sigridslættet" />
		<tag k="place" v="locality" />
		<tag k="ssr:stedsnr" v="463631" />
	</node>
	<node lat="63.01643333525604" lon="9.427316665915644" id="-41385">
		<tag k="name" v="Øverbakkslættet" />
		<tag k="place" v="locality" />
		<tag k="ssr:stedsnr" v="463633" />
	</node>
	<node lat="63.062919441048244" lon="9.271572218978553" id="-41386">
		<tag k="name" v="Lomtjønnmyran" />
		<tag k="natural" v="wetland" />
		<tag k="ssr:stedsnr" v="463834" />
	</node>
	<node lat="63.06237222603647" lon="9.295330552559129" id="-41387">
		<tag k="name" v="Fjellbekken" />
		<tag k="ssr:stedsnr" v="463878" />
		<tag k="waterway" v="stream" />
	</node>
	<node lat="63.07122500202893" lon="9.425588886540819" id="-41388">
		<tag k="name" v="Krokbekken" />
		<tag k="ssr:stedsnr" v="463709" />
		<tag k="waterway" v="stream" />
	</node>
	<node lat="63.132549998947134" lon="9.283480551741821" id="-41389">
		<tag k="name" v="Tordalsbekken" />
		<tag k="ssr:stedsnr" v="463888" />
		<tag k="waterway" v="stream" />
	</node>
	<node lat="63.15435555445164" lon="9.31077778558627" id="-41390">
		<tag k="name" v="Skarven" />
		<tag k="place" v="locality" />
		<tag k="ssr:stedsnr" v="463949" />
	</node>
	<node lat="63.101508331385546" lon="9.351447224874718" id="-41391">
		<tag k="name" v="Furuhaugen" />
		<tag k="place" v="farm" />
		<tag k="ssr:stedsnr" v="463952" />
	</node>
	<node lat="63.158799999968096" lon="9.426352785801404" id="-41392">
		<tag k="amenity" v="place_of_worship" />
		<tag k="fixme" v="specify religion=*, denomination=*, building=* etc" />
		<tag k="name" v="Lomundsjø bedehus" />
		<tag k="ssr:stedsnr" v="467092" />
	</node>
	<node lat="63.147858336249975" lon="9.428183331045084" id="-41393">
		<tag k="fixme" v="consider natural=peak for the most distinct mountains in the district" />
		<tag k="name" v="Ytter Brannåsen" />
		<tag k="natural" v="hill" />
		<tag k="place" v="locality" />
		<tag k="ssr:stedsnr" v="467125" />
	</node>
	<node lat="63.06677500263994" lon="9.221699998498545" id="-41394">
		<tag k="fixme" v="consider place=hamlet" />
		<tag k="name" v="Landsemn" />
		<tag k="place" v="farm" />
		<tag k="ssr:stedsnr" v="315360" />
	</node>
	<node lat="62.93097500355194" lon="9.302980552150458" id="-41395">
		<tag k="name" v="Trollhøttråbekken" />
		<tag k="ssr:stedsnr" v="315213" />
		<tag k="waterway" v="stream" />
	</node>
	<node lat="63.12043889326221" lon="9.429124991953097" id="-41396">
		<tag k="name" v="Storlidalen" />
		<tag k="natural" v="valley" />
		<tag k="place" v="locality" />
		<tag k="ssr:stedsnr" v="467252" />
	</node>
	<node lat="63.113124999120956" lon="9.399777768827128" id="-41397">
		<tag k="name" v="Litlslåtta" />
		<tag k="place" v="locality" />
		<tag k="ssr:stedsnr" v="467253" />
	</node>
	<node lat="63.12336389007181" lon="9.407191666087208" id="-41398">
		<tag k="name" v="Odden" />
		<tag k="natural" v="cape" />
		<tag k="ssr:stedsnr" v="467257" />
	</node>
	<node lat="63.04865833784063" lon="9.419888880514728" id="-41399">
		<tag k="name" v="Stokkfjelltjønna" />
		<tag k="natural" v="water" />
		<tag k="ssr:stedsnr" v="316403" />
	</node>
	<node lat="62.97200555279603" lon="9.142080546102756" id="-41400">
		<tag k="name" v="Bjørnadalen" />
		<tag k="natural" v="valley" />
		<tag k="place" v="locality" />
		<tag k="ssr:stedsnr" v="316508" />
	</node>
	<node lat="63.138861112441404" lon="9.419175006126393" id="-41401">
		<tag k="name" v="Skosslan" />
		<tag k="natural" v="slope" />
		<tag k="place" v="locality" />
		<tag k="ssr:stedsnr" v="467973" />
	</node>
	<node lat="63.118283337611146" lon="9.174572231549904" id="-41402">
		<tag k="fixme" v="consider natural=peak for the most distinct mountains in the district" />
		<tag k="name" v="Fagerlifjellet" />
		<tag k="natural" v="hill" />
		<tag k="place" v="locality" />
		<tag k="ssr:stedsnr" v="323477" />
	</node>
	<node lat="63.099983330256016" lon="9.106975001032541" id="-41403">
		<tag k="fixme" v="consider natural=peak for the most distinct mountains in the district" />
		<tag k="name" v="Beinstigtela" />
		<tag k="natural" v="hill" />
		<tag k="place" v="locality" />
		<tag k="ssr:stedsnr" v="327488" />
	</node>
	<node lat="63.05085555249285" lon="9.172155553695351" id="-41404">
		<tag k="bridge" v="yes" />
		<tag k="layer" v="1" />
		<tag k="name" v="Bolmbrua" />
		<tag k="ssr:stedsnr" v="330308" />
	</node>
	<node lat="63.05147778181947" lon="9.173974993076333" id="-41405">
		<tag k="bridge" v="yes" />
		<tag k="layer" v="1" />
		<tag k="name" v="Nilsbrua" />
		<tag k="ssr:stedsnr" v="330309" />
	</node>
	<node lat="63.087488885779884" lon="9.208061104269449" id="-41406">
		<tag k="bridge" v="yes" />
		<tag k="layer" v="1" />
		<tag k="name" v="Brandåbrua" />
		<tag k="ssr:stedsnr" v="330311" />
	</node>
	<node lat="62.95593055646742" lon="9.132966672283548" id="-41407">
		<tag k="name" v="Stakkholet" />
		<tag k="natural" v="valley" />
		<tag k="place" v="locality" />
		<tag k="ssr:stedsnr" v="339019" />
	</node>
	<node lat="63.113938893275964" lon="9.232699996572396" id="-41408">
		<tag k="name" v="Høyløskaret" />
		<tag k="natural" v="valley" />
		<tag k="place" v="locality" />
		<tag k="ssr:stedsnr" v="339093" />
	</node>
	<node lat="63.01293332901266" lon="9.202594435163217" id="-41409">
		<tag k="name" v="Bolmseterlia" />
		<tag k="natural" v="slope" />
		<tag k="place" v="locality" />
		<tag k="ssr:stedsnr" v="339401" />
	</node>
	<node lat="63.07556667106542" lon="9.142786120678855" id="-41410">
		<tag k="name" v="Ljøsåa" />
		<tag k="ssr:stedsnr" v="339905" />
		<tag k="waterway" v="stream" />
	</node>
	<node lat="62.95612221814774" lon="9.123808330225504" id="-41411">
		<tag k="name" v="Halsen" />
		<tag k="natural" v="ridge" />
		<tag k="place" v="locality" />
		<tag k="ssr:stedsnr" v="340048" />
	</node>
	<node lat="62.956650003187946" lon="9.361641674145092" id="-41412">
		<tag k="fixme" v="consider natural=peak for the most distinct mountains in the district" />
		<tag k="name" v="Høgtelet" />
		<tag k="natural" v="hill" />
		<tag k="place" v="locality" />
		<tag k="ssr:stedsnr" v="340049" />
	</node>
	<node lat="63.04508611130524" lon="9.174988897172453" id="-41413">
		<tag k="name" v="Austistua" />
		<tag k="place" v="farm" />
		<tag k="ssr:stedsnr" v="340206" />
	</node>
	<node lat="63.06600833062329" lon="9.102008332959459" id="-41414">
		<tag k="name" v="Grytdalstjønna" />
		<tag k="natural" v="water" />
		<tag k="ssr:stedsnr" v="339946" />
	</node>
	<node lat="63.05076944250692" lon="9.263158329217646" id="-41415">
		<tag k="name" v="Beitaligreiva" />
		<tag k="natural" v="slope" />
		<tag k="place" v="locality" />
		<tag k="ssr:stedsnr" v="340121" />
	</node>
	<node lat="63.06200555540594" lon="9.231455547825151" id="-41416">
		<tag k="name" v="Kaldvassbekken" />
		<tag k="ssr:stedsnr" v="340194" />
		<tag k="waterway" v="stream" />
	</node>
	<node lat="63.01005278102683" lon="9.44452499643462" id="-41417">
		<tag k="name" v="Tjønnhaugen" />
		<tag k="natural" v="hill" />
		<tag k="place" v="locality" />
		<tag k="ssr:stedsnr" v="340399" />
	</node>
	<node lat="63.039124996599604" lon="9.111530565035357" id="-41418">
		<tag k="name" v="Småøyan" />
		<tag k="place" v="island" />
		<tag k="ssr:stedsnr" v="340929" />
	</node>
	<node lat="63.06923055379469" lon="9.31993611296442" id="-41419">
		<tag k="name" v="Bakliin" />
		<tag k="natural" v="slope" />
		<tag k="place" v="locality" />
		<tag k="ssr:stedsnr" v="341144" />
	</node>
	<node lat="63.1145222222035" lon="9.3720277740377" id="-41420">
		<tag k="name" v="Granåstjønna" />
		<tag k="natural" v="water" />
		<tag k="ssr:stedsnr" v="341046" />
	</node>
	<node lat="63.002980552073524" lon="9.477883334533713" id="-41421">
		<tag k="landuse" v="meadow" />
		<tag k="name" v="Nyhøyløenga" />
		<tag k="ssr:stedsnr" v="341461" />
	</node>
	<node lat="63.14033333233908" lon="9.306605548388761" id="-41422">
		<tag k="name" v="Kjerringhaugen" />
		<tag k="natural" v="hill" />
		<tag k="place" v="locality" />
		<tag k="ssr:stedsnr" v="341904" />
	</node>
	<node lat="63.027647226557214" lon="9.389075007200956" id="-41423">
		<tag k="fixme" v="consider natural=peak for the most distinct mountains in the district" />
		<tag k="name" v="Rotåsen" />
		<tag k="natural" v="hill" />
		<tag k="place" v="locality" />
		<tag k="ssr:stedsnr" v="341919" />
	</node>
</osm>
