<?xml version="1.0" encoding="UTF-8"?>
<osm version="0.6" generator="osmapis">
	<node id="3582036423" lat="69.5390165" lon="19.6271632" version="2" timestamp="2021-02-26T23:26:34Z" changeset="100078692" uid="395141" user="Tractor">
		<tag k="name" v="Storfossen" />
		<tag k="ssr:date" v="2019-12-27" />
		<tag k="ssr:gruppe" v="rennendeVann" />
		<tag k="ssr:hovedgruppe" v="ferskvann" />
		<tag k="ssr:stedsnr" v="653528" />
		<tag k="ssr:type" v="foss" />
		<tag k="waterway" v="waterfall" />
	</node>
	<node id="8441605998" lat="69.6093382" lon="19.3533837" version="1" timestamp="2021-02-20T21:50:37Z" changeset="99661434" uid="395141" user="Tractor">
		<tag k="name" v="Stormo" />
		<tag k="place" v="farm" />
		<tag k="ssr:date" v="2019-12-27" />
		<tag k="ssr:gruppe" v="gardsbebyggelse" />
		<tag k="ssr:hovedgruppe" v="bebyggelse" />
		<tag k="ssr:stedsnr" v="18133" />
		<tag k="ssr:type" v="bruk" />
	</node>
	<node id="8462525451" lat="69.5476593" lon="19.5828614" version="1" timestamp="2021-02-26T23:26:34Z" changeset="100078692" uid="395141" user="Tractor">
		<tag k="name" v="Rustad" />
		<tag k="place" v="farm" />
		<tag k="ssr:date" v="2019-12-27" />
		<tag k="ssr:gruppe" v="gardsbebyggelse" />
		<tag k="ssr:hovedgruppe" v="bebyggelse" />
		<tag k="ssr:stedsnr" v="443075" />
		<tag k="ssr:type" v="bruk" />
	</node>
	<node id="8507766385" lat="69.5074029" lon="19.0198695" version="1" timestamp="2021-03-11T17:32:58Z" changeset="100856331" uid="395141" user="Tractor">
		<tag k="name" v="Lillemoen" />
		<tag k="place" v="locality" />
		<tag k="ssr:date" v="2019-12-27" />
		<tag k="ssr:gruppe" v="flater" />
		<tag k="ssr:hovedgruppe" v="terreng" />
		<tag k="ssr:stedsnr" v="113215" />
		<tag k="ssr:type" v="mo" />
	</node>
	<node id="8672344181" lat="69.54835" lon="18.7003055" version="1" timestamp="2021-04-27T15:27:59Z" changeset="103716492" uid="395141" user="Tractor">
		<tag k="alt_name" v="Stegelneset" />
		<tag k="name" v="Steggelneset" />
		<tag k="natural" v="cape" />
		<tag k="ssr:date" v="2019-12-27" />
		<tag k="ssr:gruppe" v="kystkontur" />
		<tag k="ssr:hovedgruppe" v="sjø" />
		<tag k="ssr:stedsnr" v="396432" />
		<tag k="ssr:type" v="nesISjø" />
	</node>
	<node id="8689813071" lat="70.1" lon="18.0944444" version="1" timestamp="2021-05-02T07:05:52Z" changeset="103981569" uid="395141" user="Tractor">
		<tag k="name" v="Havbrubakken" />
		<tag k="place" v="locality" />
		<tag k="ssr:date" v="2019-12-27" />
		<tag k="ssr:gruppe" v="sjøbunn" />
		<tag k="ssr:hovedgruppe" v="sjø" />
		<tag k="ssr:stedsnr" v="727448" />
		<tag k="ssr:type" v="bakkeISjø" />
	</node>
</osm>
