<?xml version="1.0" encoding="UTF-8"?>
<osm generator="osmapis" version="0.6">
	<node id="-302463" lat="61.2222805568" lon="11.1464166644">
		<tag k="highway" v="path" />
		<tag k="name" v="Jøssingbuvegen" />
		<tag k="ssr:stedsnr" v="403774" />
	</node>
	<node id="-303274" lat="61.2568666673" lon="11.6709027841">
		<tag k="aeroway" v="aerodrome" />
		<tag k="name" v="Østre Æra flyplass" />
		<tag k="ssr:stedsnr" v="146448" />
	</node>
	<node id="-302714" lat="61.1641055598" lon="11.4570638867">
		<tag k="landuse" v="industrial" />
		<tag k="name" v="Løpet kraftverk" />
		<tag k="power" v="plant" />
		<tag k="ssr:stedsnr" v="648911" />
	</node>
	<node id="-303615" lat="61.0521249985" lon="11.2777833266">
		<tag k="highway" v="path" />
		<tag k="name" v="Brennsætervegen" />
		<tag k="ssr:stedsnr" v="544989" />
	</node>
	<node id="-303224" lat="61.103113886" lon="11.4723166704">
		<tag k="fixme" v="consider highway=path" />
		<tag k="highway" v="track" />
		<tag k="name" v="Nyvegen" />
		<tag k="ssr:stedsnr" v="120965" />
	</node>
	<node id="-303991" lat="61.0947861146" lon="11.1969472227">
		<tag k="name" v="Langvelta" />
		<tag k="place" v="locality" />
		<tag k="ssr:stedsnr" v="969027" />
	</node>
	<node id="-302320" lat="61.1506861091" lon="11.3639361086">
		<tag k="bridge" v="yes" />
		<tag k="layer" v="1" />
		<tag k="name" v="Lappland bru" />
		<tag k="ssr:stedsnr" v="471743" />
	</node>
	<node id="-302319" lat="61.1312111086" lon="11.3673305611">
		<tag k="bridge" v="yes" />
		<tag k="layer" v="1" />
		<tag k="name" v="Jernbanebrua" />
		<tag k="ssr:stedsnr" v="471741" />
	</node>
	<node id="-302830" lat="61.1056000014" lon="11.416725002">
		<tag k="highway" v="path" />
		<tag k="name" v="Vintervegen" />
		<tag k="ssr:stedsnr" v="723450" />
	</node>
	<node id="-303212" lat="61.1616277815" lon="11.1116083305">
		<tag k="highway" v="path" />
		<tag k="name" v="Vintervegen" />
		<tag k="ssr:stedsnr" v="118961" />
	</node>
	<node id="-302694" lat="61.2500000033" lon="11.6735833306">
		<tag k="highway" v="path" />
		<tag k="name" v="Gamle Osenvegen" />
		<tag k="ssr:stedsnr" v="723873" />
	</node>
	<node id="-303459" lat="61.0872999991" lon="11.2751944454">
		<tag k="name" v="Klossvelta" />
		<tag k="place" v="locality" />
		<tag k="ssr:stedsnr" v="360087" />
	</node>
	<node id="-303458" lat="61.1783250012" lon="11.4546805507">
		<tag k="junction" v="yes" />
		<tag k="name" v="Helsingbakken" />
		<tag k="place" v="locality" />
		<tag k="ssr:stedsnr" v="359900" />
	</node>
	<node id="-302093" lat="61.1324916663" lon="11.3724555627">
		<tag k="amenity" v="parking" />
		<tag k="name" v="Rena torg" />
		<tag k="ssr:stedsnr" v="237381" />
	</node>
	<node id="-302943" lat="61.2123027759" lon="11.5880166647">
		<tag k="bridge" v="yes" />
		<tag k="layer" v="1" />
		<tag k="name" v="Vestre Æra" />
		<tag k="ssr:stedsnr" v="835765" />
	</node>
	<node id="-302557" lat="61.1067250008" lon="11.3785472266">
		<tag k="landuse" v="industrial" />
		<tag k="name" v="Åsta Kraftverk" />
		<tag k="power" v="plant" />
		<tag k="ssr:stedsnr" v="480514" />
	</node>
	<node id="-302299" lat="61.1349444418" lon="11.2948111024">
		<tag k="fixme" v="consider highway=path" />
		<tag k="highway" v="track" />
		<tag k="name" v="Gamle Skramstadsætervegen" />
		<tag k="ssr:stedsnr" v="282007" />
	</node>
	<node id="-303503" lat="61.2022499963" lon="11.505999999">
		<tag k="landuse" v="industrial" />
		<tag k="name" v="Osfallet kraftverk" />
		<tag k="power" v="plant" />
		<tag k="ssr:stedsnr" v="372350" />
	</node>
	<node id="-303314" lat="61.1830083343" lon="11.1469138833">
		<tag k="bridge" v="yes" />
		<tag k="layer" v="1" />
		<tag k="name" v="Kloppa" />
		<tag k="ssr:stedsnr" v="180992" />
	</node>
	<node id="-303011" lat="61.0662472226" lon="11.3046638962">
		<tag k="highway" v="path" />
		<tag k="name" v="Gravingsvegen" />
		<tag k="ssr:stedsnr" v="965814" />
	</node>
	<node id="-303800" lat="61.0282250038" lon="11.3965722316">
		<tag k="name" v="Hummelnesvelta" />
		<tag k="place" v="locality" />
		<tag k="ssr:stedsnr" v="768206" />
	</node>
	<node id="-302285" lat="61.2142555537" lon="11.4864416648">
		<tag k="name" v="Bjørkøyvelta" />
		<tag k="place" v="locality" />
		<tag k="ssr:stedsnr" v="224554" />
	</node>
	<node id="-303691" lat="61.3735194465" lon="11.7593583274">
		<tag k="bridge" v="yes" />
		<tag k="layer" v="1" />
		<tag k="name" v="Svarstad bru" />
		<tag k="ssr:stedsnr" v="592799" />
	</node>
	<node id="-302794" lat="61.2627638865" lon="11.3209305555">
		<tag k="name" v="Simenstua" />
		<tag k="railway" v="station" />
		<tag k="ssr:stedsnr" v="676227" />
		<tag k="train" v="yes" />
	</node>
	<node id="-303689" lat="61.1313250009" lon="11.366238896">
		<tag k="bridge" v="yes" />
		<tag k="layer" v="1" />
		<tag k="name" v="Skaftet bru" />
		<tag k="ssr:stedsnr" v="592793" />
	</node>
	<node id="-303560" lat="61.0785277797" lon="11.3514472299">
		<tag k="name" v="Åsta" />
		<tag k="railway" v="station" />
		<tag k="ssr:stedsnr" v="432476" />
		<tag k="train" v="yes" />
	</node>
	<node id="-303815" lat="61.2991416672" lon="11.472366668">
		<tag k="landuse" v="industrial" />
		<tag k="name" v="Deset mellem kraftstasjon" />
		<tag k="power" v="plant" />
		<tag k="ssr:stedsnr" v="783514" />
	</node>
	<node id="-302318" lat="61.1115305579" lon="11.5420888881">
		<tag k="fixme" v="consider highway=path" />
		<tag k="highway" v="track" />
		<tag k="name" v="Gammelvegen" />
		<tag k="ssr:stedsnr" v="302953" />
	</node>
	<node id="-302531" lat="61.1296777756" lon="11.5195472143">
		<tag k="fixme" v="consider highway=path" />
		<tag k="highway" v="track" />
		<tag k="name" v="Gamle Blikkbergsvegen" />
		<tag k="ssr:stedsnr" v="666871" />
	</node>
	<node id="-302658" lat="61.3096750028" lon="11.7273472299">
		<tag k="bridge" v="yes" />
		<tag k="layer" v="1" />
		<tag k="name" v="Osvoll bru" />
		<tag k="ssr:stedsnr" v="714727" />
	</node>
	<node id="-303809" lat="61.0458805553" lon="11.3842111097">
		<tag k="bridge" v="yes" />
		<tag k="layer" v="1" />
		<tag k="name" v="Valså bru" />
		<tag k="ssr:stedsnr" v="774768" />
	</node>
	<node id="-302400" lat="61.0530027776" lon="11.2894611066">
		<tag k="bridge" v="yes" />
		<tag k="layer" v="1" />
		<tag k="name" v="Gitbrua" />
		<tag k="ssr:stedsnr" v="362984" />
	</node>
	<node id="-302399" lat="61.1662555555" lon="11.1786805607">
		<tag k="highway" v="path" />
		<tag k="name" v="Hemmeldalsvegen" />
		<tag k="ssr:stedsnr" v="362972" />
	</node>
	<node id="-303292" lat="61.1282833316" lon="11.0947750018">
		<tag k="highway" v="path" />
		<tag k="name" v="Bringbuvegen" />
		<tag k="ssr:stedsnr" v="179960" />
	</node>
	<node id="-303690" lat="61.2886861089" lon="11.8183694359">
		<tag k="bridge" v="yes" />
		<tag k="layer" v="1" />
		<tag k="name" v="Tverrenna bru" />
		<tag k="ssr:stedsnr" v="592797" />
	</node>
	<node id="-302393" lat="61.0679527801" lon="11.2999722154">
		<tag k="highway" v="path" />
		<tag k="name" v="Nordre Sætervegen" />
		<tag k="ssr:stedsnr" v="362113" />
	</node>
	<node id="-302264" lat="61.1472249993" lon="11.1832722155">
		<tag k="highway" v="path" />
		<tag k="name" v="Birkebeinerløypa" />
		<tag k="ssr:stedsnr" v="180973" />
	</node>
	<node id="-303926" lat="61.1863083326" lon="11.3741777838">
		<tag k="aeroway" v="aerodrome" />
		<tag k="name" v="Rena flyplass, Landsørkje" />
		<tag k="ssr:stedsnr" v="848273" />
	</node>
	<node id="-303120" lat="61.1926444455" lon="11.3521055486">
		<tag k="name" v="Almevelta" />
		<tag k="place" v="locality" />
		<tag k="ssr:stedsnr" v="59609" />
	</node>
	<node id="-303281" lat="61.0355444478" lon="11.3742333315">
		<tag k="bridge" v="yes" />
		<tag k="layer" v="1" />
		<tag k="name" v="Galåen bru" />
		<tag k="ssr:stedsnr" v="168738" />
	</node>
	<node id="-303280" lat="61.2062249979" lon="11.5383222165">
		<tag k="bridge" v="yes" />
		<tag k="layer" v="1" />
		<tag k="name" v="Deia bru" />
		<tag k="ssr:stedsnr" v="168736" />
	</node>
	<node id="-303279" lat="61.3832249982" lon="11.6264055521">
		<tag k="bridge" v="yes" />
		<tag k="layer" v="1" />
		<tag k="name" v="Dambrua bru" />
		<tag k="ssr:stedsnr" v="168735" />
	</node>
	<node id="-302634" lat="61.2198333294" lon="11.1427944439">
		<tag k="highway" v="path" />
		<tag k="name" v="Øvre Hemmeldalsvegen" />
		<tag k="ssr:stedsnr" v="707791" />
	</node>
	<node id="-302248" lat="61.1147027786" lon="11.6134388801">
		<tag k="fixme" v="consider highway=path" />
		<tag k="highway" v="track" />
		<tag k="name" v="Gransjøbergvegen" />
		<tag k="ssr:stedsnr" v="284888" />
	</node>
	<node id="-302480" lat="61.1401694476" lon="11.486766662">
		<tag k="fixme" v="consider highway=path" />
		<tag k="highway" v="track" />
		<tag k="name" v="Fantvegen" />
		<tag k="ssr:stedsnr" v="423906" />
	</node>
	<node id="-303781" lat="61.249680553" lon="11.3382777743">
		<tag k="bridge" v="yes" />
		<tag k="layer" v="1" />
		<tag k="name" v="Viken bru" />
		<tag k="ssr:stedsnr" v="653763" />
	</node>
	<node id="-302371" lat="61.1247972239" lon="11.4163666638">
		<tag k="highway" v="path" />
		<tag k="name" v="Ilsås-sætervegen" />
		<tag k="ssr:stedsnr" v="358360" />
	</node>
	<node id="-303523" lat="61.2365361088" lon="11.6640888836">
		<tag k="bridge" v="yes" />
		<tag k="layer" v="1" />
		<tag k="name" v="Æra østre" />
		<tag k="ssr:stedsnr" v="410753" />
	</node>
	<node id="-303777" lat="61.2942027765" lon="11.4515222298">
		<tag k="ford" v="yes" />
		<tag k="name" v="Vadstrømmen" />
		<tag k="place" v="locality" />
		<tag k="ssr:stedsnr" v="648581" />
	</node>
	<node id="-303898" lat="61.2822888853" lon="11.7334555606">
		<tag k="highway" v="path" />
		<tag k="name" v="Gamle Oskjølvegen" />
		<tag k="ssr:stedsnr" v="831074" />
	</node>
	<node id="-303203" lat="61.1604138916" lon="11.323394446">
		<tag k="highway" v="path" />
		<tag k="name" v="Skynnsvevegen" />
		<tag k="ssr:stedsnr" v="116384" />
	</node>
	<node id="-302614" lat="61.2258194461" lon="11.4995666646">
		<tag k="name" v="Rødsætervelta" />
		<tag k="place" v="locality" />
		<tag k="ssr:stedsnr" v="527586" />
	</node>
	<node id="-303124" lat="61.1147722242" lon="11.5221194479">
		<tag k="bridge" v="yes" />
		<tag k="layer" v="1" />
		<tag k="name" v="Julusbrua" />
		<tag k="ssr:stedsnr" v="59947" />
	</node>
	<node id="-303451" lat="61.156041664" lon="11.3532583279">
		<tag k="bridge" v="yes" />
		<tag k="layer" v="1" />
		<tag k="name" v="Sorka bru" />
		<tag k="ssr:stedsnr" v="349774" />
	</node>
	<node id="-303808" lat="61.0669416686" lon="11.3476611079">
		<tag k="bridge" v="yes" />
		<tag k="layer" v="1" />
		<tag k="name" v="Nygårdsmoen bru" />
		<tag k="ssr:stedsnr" v="774761" />
	</node>
	<node id="-303887" lat="61.0498444433" lon="11.3159194371">
		<tag k="highway" v="path" />
		<tag k="name" v="Kløvvegen" />
		<tag k="ssr:stedsnr" v="829182" />
	</node>
	<node id="-302349" lat="61.168336114" lon="11.1437972308">
		<tag k="highway" v="path" />
		<tag k="loc_name" v="Raudfjellsvegen" />
		<tag k="name" v="Raufjellsvegen" />
		<tag k="ssr:stedsnr" v="483985" />
	</node>
	<node id="-303778" lat="61.1198611148" lon="11.5791888971">
		<tag k="fixme" v="consider highway=path" />
		<tag k="highway" v="track" />
		<tag k="name" v="Svevegen" />
		<tag k="ssr:stedsnr" v="648648" />
	</node>
	<node id="-303883" lat="61.2371222233" lon="11.5175361205">
		<tag k="landuse" v="industrial" />
		<tag k="name" v="Osa kraftverk" />
		<tag k="power" v="plant" />
		<tag k="ssr:stedsnr" v="810151" />
	</node>
	<node id="-302602" lat="61.1959472204" lon="11.5490055549">
		<tag k="landuse" v="industrial" />
		<tag k="name" v="Kvernfallet kraftverk" />
		<tag k="power" v="plant" />
		<tag k="ssr:stedsnr" v="688146" />
	</node>
	<node id="-302855" lat="61.0903000001" lon="11.2309305593">
		<tag k="name" v="Øyvelta" />
		<tag k="place" v="locality" />
		<tag k="ssr:stedsnr" v="909022" />
	</node>
	<node id="-304005" lat="61.1345523622" lon="11.3698521691">
		<tag k="name" v="Rena stasjon" />
		<tag k="railway" v="station" />
		<tag k="ssr:stedsnr" v="990087" />
		<tag k="train" v="yes" />
	</node>
	<node id="-303522" lat="61.3514166644" lon="11.6763722215">
		<tag k="bridge" v="yes" />
		<tag k="layer" v="1" />
		<tag k="name" v="Bråtabekk" />
		<tag k="ssr:stedsnr" v="410744" />
	</node>
	<node id="-303126" lat="61.1630027813" lon="11.1832027705">
		<tag k="bridge" v="yes" />
		<tag k="layer" v="1" />
		<tag k="name" v="Kloppa" />
		<tag k="ssr:stedsnr" v="59976" />
	</node>
	<node id="-302849" lat="61.0701555569" lon="11.2889916685">
		<tag k="highway" v="path" />
		<tag k="name" v="Kløvvegen" />
		<tag k="ssr:stedsnr" v="908127" />
	</node>
</osm>
