<?xml version="1.0" encoding="UTF-8"?>
<osm version="0.6" generator="osmapis">
	<node lat="61.07183333451031" lon="11.524102780890779" id="-47635">
		<tag k="name" v="Marispronga" />
		<tag k="natural" v="valley" />
		<tag k="place" v="locality" />
		<tag k="ssr:stedsnr" v="7212" />
	</node>
	<node lat="61.41098610947153" lon="11.454263895987205" id="-47650">
		<tag k="fixme" v="consider natural=peak for the most distinct mountains in the district" />
		<tag k="name" v="Skarven" />
		<tag k="natural" v="hill" />
		<tag k="place" v="locality" />
		<tag k="ssr:stedsnr" v="8094" />
	</node>
	<node lat="61.20917499754099" lon="11.725349995486193" id="-47658">
		<tag k="fixme" v="consider natural=peak for the most distinct mountains in the district" />
		<tag k="name" v="Raskiftet" />
		<tag k="natural" v="hill" />
		<tag k="place" v="locality" />
		<tag k="ssr:stedsnr" v="8362" />
	</node>
	<node lat="61.336688890081675" lon="11.38662221900014" id="-47668">
		<tag k="name" v="Netlandsdalen" />
		<tag k="natural" v="valley" />
		<tag k="place" v="locality" />
		<tag k="ssr:stedsnr" v="237537" />
	</node>
	<node lat="61.30440833049656" lon="11.4888750084681" id="-47669">
		<tag k="name" v="Ådalen" />
		<tag k="natural" v="valley" />
		<tag k="place" v="locality" />
		<tag k="ssr:stedsnr" v="237540" />
	</node>
	<node lat="61.39301666938669" lon="11.421411109248892" id="-47670">
		<tag k="name" v="Soppåsdalen" />
		<tag k="natural" v="valley" />
		<tag k="place" v="locality" />
		<tag k="ssr:stedsnr" v="237545" />
	</node>
	<node lat="61.363513886620225" lon="11.825466668935173" id="-47674">
		<tag k="name" v="Støresåsen" />
		<tag k="natural" v="hill" />
		<tag k="place" v="locality" />
		<tag k="ssr:stedsnr" v="53890" />
	</node>
	<node lat="61.365583337692776" lon="11.489288886243491" id="-47677">
		<tag k="name" v="Fløthaugene" />
		<tag k="natural" v="hill" />
		<tag k="place" v="locality" />
		<tag k="ssr:stedsnr" v="239761" />
	</node>
	<node lat="61.264397225653944" lon="11.697355552503327" id="-47682">
		<tag k="name" v="Korshøgda" />
		<tag k="natural" v="hill" />
		<tag k="place" v="locality" />
		<tag k="ssr:stedsnr" v="55912" />
	</node>
	<node lat="61.061836111791294" lon="11.349619442672575" id="-47683">
		<tag k="name" v="Sætermoen" />
		<tag k="place" v="locality" />
		<tag k="ssr:stedsnr" v="56168" />
	</node>
	<node lat="61.10211944739358" lon="11.200758332327387" id="-47691">
		<tag k="name" v="Kamphauga" />
		<tag k="natural" v="hill" />
		<tag k="place" v="locality" />
		<tag k="ssr:stedsnr" v="59017" />
	</node>
	<node lat="61.42806110725534" lon="11.396413883801984" id="-47692">
		<tag k="name" v="Blæstermoen" />
		<tag k="place" v="locality" />
		<tag k="ssr:stedsnr" v="58918" />
	</node>
	<node lat="61.246494441451524" lon="11.675750006878404" id="-47693">
		<tag k="name" v="Sæteråsen" />
		<tag k="natural" v="hill" />
		<tag k="place" v="locality" />
		<tag k="ssr:stedsnr" v="58920" />
	</node>
	<node lat="61.43895277693328" lon="11.51963333726225" id="-47697">
		<tag k="name" v="Spellmannshaugen" />
		<tag k="natural" v="hill" />
		<tag k="place" v="locality" />
		<tag k="ssr:stedsnr" v="59728" />
	</node>
	<node lat="61.308744448023184" lon="11.582769442241368" id="-47705">
		<tag k="name" v="Støvelåsen" />
		<tag k="natural" v="hill" />
		<tag k="place" v="locality" />
		<tag k="ssr:stedsnr" v="240791" />
	</node>
	<node lat="61.130263888391326" lon="11.225819446443463" id="-47708">
		<tag k="name" v="Strupen" />
		<tag k="place" v="locality" />
		<tag k="ssr:stedsnr" v="241251" />
	</node>
	<node lat="61.06308333412831" lon="11.514047227753474" id="-47716">
		<tag k="fixme" v="consider natural=peak for the most distinct mountains in the district" />
		<tag k="name" v="Kråkberget" />
		<tag k="natural" v="hill" />
		<tag k="place" v="locality" />
		<tag k="ssr:stedsnr" v="68209" />
	</node>
	<node lat="61.20217778137826" lon="11.604180561048077" id="-47719">
		<tag k="name" v="Gardbekkskjera" />
		<tag k="natural" v="valley" />
		<tag k="place" v="locality" />
		<tag k="ssr:stedsnr" v="68346" />
	</node>
	<node lat="61.389572224846944" lon="11.42533612021928" id="-47727">
		<tag k="alt_name" v="Stubberget, Søre;Søndre Stubberget" />
		<tag k="name" v="Søre Stubberget" />
		<tag k="natural" v="hill" />
		<tag k="place" v="locality" />
		<tag k="ssr:stedsnr" v="69037" />
	</node>
	<node lat="61.3671805574149" lon="11.320841658722156" id="-47728">
		<tag k="fixme" v="consider natural=peak for the most distinct mountains in the district" />
		<tag k="name" v="Gravåsen" />
		<tag k="natural" v="hill" />
		<tag k="place" v="locality" />
		<tag k="ssr:stedsnr" v="69052" />
	</node>
	<node lat="61.37785555180502" lon="11.846524994245469" id="-47734">
		<tag k="fixme" v="consider natural=peak for the most distinct mountains in the district" />
		<tag k="name" v="Vondmannsåsen" />
		<tag k="natural" v="hill" />
		<tag k="place" v="locality" />
		<tag k="ssr:stedsnr" v="69940" />
	</node>
	<node lat="61.12177777880547" lon="11.257558330662144" id="-47738">
		<tag k="name" v="Bjønndalen" />
		<tag k="natural" v="valley" />
		<tag k="place" v="locality" />
		<tag k="ssr:stedsnr" v="100009" />
	</node>
	<node lat="61.03435833378889" lon="11.418644437910666" id="-47742">
		<tag k="fixme" v="consider natural=peak for the most distinct mountains in the district" />
		<tag k="name" v="Skjelmohammeren" />
		<tag k="natural" v="hill" />
		<tag k="place" v="locality" />
		<tag k="ssr:stedsnr" v="101179" />
	</node>
	<node lat="61.06154722402637" lon="11.260766672828378" id="-47749">
		<tag k="name" v="Nygardshauga" />
		<tag k="natural" v="hill" />
		<tag k="place" v="locality" />
		<tag k="ssr:stedsnr" v="249239" />
	</node>
	<node lat="61.06443611305828" lon="11.291888880689882" id="-47750">
		<tag k="alt_name" v="Kletten, nordre" />
		<tag k="fixme" v="consider natural=peak for the most distinct mountains in the district" />
		<tag k="name" v="Nordre Kletten" />
		<tag k="natural" v="hill" />
		<tag k="place" v="locality" />
		<tag k="ssr:stedsnr" v="249242" />
	</node>
	<node lat="61.24164999931711" lon="11.110286114040646" id="-47752">
		<tag k="fixme" v="consider natural=peak for the most distinct mountains in the district" />
		<tag k="name" v="Svartåfjellet" />
		<tag k="natural" v="hill" />
		<tag k="place" v="locality" />
		<tag k="ssr:stedsnr" v="249381" />
	</node>
	<node lat="61.38952500107034" lon="11.50140556001774" id="-47766">
		<tag k="name" v="Osdalshøgda" />
		<tag k="natural" v="hill" />
		<tag k="place" v="locality" />
		<tag k="ssr:stedsnr" v="250135" />
	</node>
	<node lat="61.2336805551895" lon="11.747900002256959" id="-47773">
		<tag k="fixme" v="consider natural=peak for the most distinct mountains in the district" />
		<tag k="name" v="Merraåsen" />
		<tag k="natural" v="hill" />
		<tag k="place" v="locality" />
		<tag k="ssr:stedsnr" v="250292" />
	</node>
	<node lat="61.01948611258692" lon="11.303058335737385" id="-47775">
		<tag k="name" v="Fjælabuhøgda" />
		<tag k="natural" v="hill" />
		<tag k="place" v="locality" />
		<tag k="ssr:stedsnr" v="250285" />
	</node>
	<node lat="61.19772499586068" lon="11.49777500872617" id="-47776">
		<tag k="name" v="Osmoen" />
		<tag k="place" v="locality" />
		<tag k="ssr:stedsnr" v="250341" />
	</node>
	<node lat="61.06651388812026" lon="11.329263888112987" id="-47783">
		<tag k="name" v="Digerskallen" />
		<tag k="natural" v="hill" />
		<tag k="place" v="locality" />
		<tag k="ssr:stedsnr" v="117210" />
	</node>
	<node lat="61.32061666652677" lon="11.499236110150553" id="-47795">
		<tag k="name" v="Skrubbhaugen" />
		<tag k="natural" v="hill" />
		<tag k="place" v="locality" />
		<tag k="ssr:stedsnr" v="250859" />
	</node>
	<node lat="61.07161110857065" lon="11.309188885293706" id="-47796">
		<tag k="name" v="Langdalen" />
		<tag k="natural" v="valley" />
		<tag k="place" v="locality" />
		<tag k="ssr:stedsnr" v="119117" />
	</node>
	<node lat="61.4352777788305" lon="11.495091674429464" id="-47805">
		<tag k="name" v="Buøykampen" />
		<tag k="natural" v="hill" />
		<tag k="place" v="locality" />
		<tag k="ssr:stedsnr" v="251166" />
	</node>
	<node lat="61.403013884982705" lon="11.691188887743081" id="-47818">
		<tag k="alt_name" v="Bjønnåsen" />
		<tag k="fixme" v="consider natural=peak for the most distinct mountains in the district" />
		<tag k="name" v="Bjørnåsen" />
		<tag k="natural" v="hill" />
		<tag k="place" v="locality" />
		<tag k="ssr:stedsnr" v="128104" />
	</node>
	<node lat="61.41523611413405" lon="11.555758341878088" id="-47819">
		<tag k="name" v="Luvdalen" />
		<tag k="natural" v="valley" />
		<tag k="place" v="locality" />
		<tag k="ssr:stedsnr" v="128143" />
	</node>
	<node lat="61.21179999639419" lon="11.762350005828186" id="-47833">
		<tag k="fixme" v="consider natural=peak for the most distinct mountains in the district" />
		<tag k="name" v="Gullåsen" />
		<tag k="natural" v="hill" />
		<tag k="place" v="locality" />
		<tag k="ssr:stedsnr" v="129346" />
	</node>
	<node lat="61.28043888768091" lon="11.902933341312991" id="-47834">
		<tag k="fixme" v="consider natural=peak for the most distinct mountains in the district" />
		<tag k="name" v="Svartåsen" />
		<tag k="natural" v="hill" />
		<tag k="place" v="locality" />
		<tag k="ssr:stedsnr" v="129507" />
	</node>
	<node lat="61.177466663352085" lon="11.332200007841957" id="-47835">
		<tag k="name" v="Hovdmoen" />
		<tag k="place" v="locality" />
		<tag k="ssr:stedsnr" v="142179" />
	</node>
	<node lat="61.41751110785781" lon="11.6016805467932" id="-47839">
		<tag k="name" v="Buruhalasletta" />
		<tag k="place" v="locality" />
		<tag k="ssr:stedsnr" v="163908" />
	</node>
	<node lat="61.43851667055645" lon="11.490777775649518" id="-47846">
		<tag k="name" v="Kampdalen" />
		<tag k="natural" v="valley" />
		<tag k="place" v="locality" />
		<tag k="ssr:stedsnr" v="179303" />
	</node>
	<node lat="61.35121944693826" lon="11.497944448682981" id="-47849">
		<tag k="name" v="Radden" />
		<tag k="natural" v="hill" />
		<tag k="place" v="locality" />
		<tag k="ssr:stedsnr" v="179712" />
	</node>
	<node lat="61.09596388747064" lon="11.211352784336416" id="-47850">
		<tag k="name" v="Svartåneset" />
		<tag k="place" v="locality" />
		<tag k="ssr:stedsnr" v="180014" />
	</node>
	<node lat="61.21478610748565" lon="11.676058329821943" id="-47851">
		<tag k="name" v="Milsmohøgda" />
		<tag k="natural" v="hill" />
		<tag k="place" v="locality" />
		<tag k="ssr:stedsnr" v="179926" />
	</node>
	<node lat="61.41091666952549" lon="11.507619448691234" id="-47871">
		<tag k="fixme" v="consider natural=peak for the most distinct mountains in the district" />
		<tag k="name" v="Gråfjellet" />
		<tag k="natural" v="hill" />
		<tag k="place" v="locality" />
		<tag k="ssr:stedsnr" v="189153" />
	</node>
	<node lat="61.22846110731987" lon="11.537924996743639" id="-47891">
		<tag k="alt_name" v="Orrehøgda" />
		<tag k="name" v="Orrhøgda" />
		<tag k="natural" v="hill" />
		<tag k="place" v="locality" />
		<tag k="ssr:stedsnr" v="190325" />
	</node>
	<node lat="61.17085555293282" lon="11.295591658232832" id="-47901">
		<tag k="fixme" v="consider natural=peak for the most distinct mountains in the district" />
		<tag k="name" v="Vestre Skarhøgda" />
		<tag k="natural" v="hill" />
		<tag k="place" v="locality" />
		<tag k="ssr:stedsnr" v="222192" />
	</node>
	<node lat="61.39002222649774" lon="11.40489444638237" id="-47915">
		<tag k="name" v="Berget" />
		<tag k="natural" v="hill" />
		<tag k="place" v="locality" />
		<tag k="ssr:stedsnr" v="237732" />
	</node>
	<node lat="61.27018333600786" lon="11.739572230599606" id="-47916">
		<tag k="name" v="Nordhue" />
		<tag k="natural" v="hill" />
		<tag k="place" v="locality" />
		<tag k="ssr:stedsnr" v="237900" />
	</node>
	<node lat="61.07615555151087" lon="11.529650000371923" id="-47919">
		<tag k="name" v="Østre Kalvtjennsdalen" />
		<tag k="natural" v="valley" />
		<tag k="place" v="locality" />
		<tag k="ssr:stedsnr" v="241824" />
	</node>
	<node lat="61.10282222542851" lon="11.227477776082175" id="-47933">
		<tag k="name" v="Bjønnhølet" />
		<tag k="natural" v="valley" />
		<tag k="place" v="locality" />
		<tag k="ssr:stedsnr" v="302022" />
	</node>
	<node lat="61.047338891281434" lon="11.340430549399565" id="-47938">
		<tag k="name" v="Syringsberget" />
		<tag k="natural" v="slope" />
		<tag k="place" v="locality" />
		<tag k="ssr:stedsnr" v="465185" />
	</node>
	<node lat="61.045244447050855" lon="11.343147227004676" id="-47939">
		<tag k="name" v="Fallsveberget" />
		<tag k="natural" v="slope" />
		<tag k="place" v="locality" />
		<tag k="ssr:stedsnr" v="465186" />
	</node>
	<node lat="61.05070833587452" lon="11.327797223804163" id="-47940">
		<tag k="name" v="Løvåsmoen" />
		<tag k="place" v="locality" />
		<tag k="ssr:stedsnr" v="465188" />
	</node>
	<node lat="61.38212499970952" lon="11.510063892452598" id="-47960">
		<tag k="name" v="Ørnhaugen" />
		<tag k="natural" v="hill" />
		<tag k="place" v="locality" />
		<tag k="ssr:stedsnr" v="311198" />
	</node>
	<node lat="61.15614999799699" lon="11.599149993391123" id="-47965">
		<tag k="fixme" v="consider natural=peak for the most distinct mountains in the district" />
		<tag k="name" v="Granåsen" />
		<tag k="natural" v="hill" />
		<tag k="place" v="locality" />
		<tag k="ssr:stedsnr" v="311514" />
	</node>
	<node lat="61.12053611126121" lon="11.60002222453376" id="-47972">
		<tag k="name" v="Hammeren" />
		<tag k="natural" v="slope" />
		<tag k="place" v="locality" />
		<tag k="ssr:stedsnr" v="466655" />
	</node>
	<node lat="61.03063610864684" lon="11.285733325321623" id="-47992">
		<tag k="name" v="Fiskebekklia" />
		<tag k="natural" v="slope" />
		<tag k="place" v="locality" />
		<tag k="ssr:stedsnr" v="358805" />
	</node>
	<node lat="61.38885555981572" lon="11.546397224323247" id="-47996">
		<tag k="alt_name" v="Løssetknubben" />
		<tag k="fixme" v="consider natural=peak for the most distinct mountains in the district" />
		<tag k="name" v="Løsetknubben" />
		<tag k="natural" v="hill" />
		<tag k="place" v="locality" />
		<tag k="ssr:stedsnr" v="371124" />
	</node>
	<node lat="61.199427775279446" lon="11.664811107402338" id="-47998">
		<tag k="name" v="Slettrusken" />
		<tag k="natural" v="hill" />
		<tag k="place" v="locality" />
		<tag k="ssr:stedsnr" v="371321" />
	</node>
	<node lat="61.07740277587968" lon="11.534208331734865" id="-48010">
		<tag k="fixme" v="consider natural=peak for the most distinct mountains in the district" />
		<tag k="loc_name" v="Skjærnubben" />
		<tag k="name" v="Skjærnupen" />
		<tag k="natural" v="hill" />
		<tag k="place" v="locality" />
		<tag k="ssr:stedsnr" v="372172" />
	</node>
	<node lat="61.31152222612804" lon="11.482888887270146" id="-48013">
		<tag k="name" v="Kvernbekkdalen" />
		<tag k="natural" v="valley" />
		<tag k="place" v="locality" />
		<tag k="ssr:stedsnr" v="479520" />
	</node>
	<node lat="61.109347223999805" lon="11.347369445029596" id="-48025">
		<tag k="name" v="Rundhaugen" />
		<tag k="natural" v="hill" />
		<tag k="place" v="locality" />
		<tag k="ssr:stedsnr" v="480509" />
	</node>
	<node lat="61.32865555627197" lon="11.40156111570327" id="-48029">
		<tag k="name" v="Ulvbergsdalen" />
		<tag k="natural" v="valley" />
		<tag k="place" v="locality" />
		<tag k="ssr:stedsnr" v="480543" />
	</node>
	<node lat="61.167891670557076" lon="11.475563898060681" id="-48030">
		<tag k="name" v="Stenmoen" />
		<tag k="place" v="locality" />
		<tag k="ssr:stedsnr" v="480887" />
	</node>
	<node lat="61.478972221769226" lon="11.6717222204411" id="-48034">
		<tag k="name" v="Villmoen" />
		<tag k="place" v="locality" />
		<tag k="ssr:stedsnr" v="482299" />
	</node>
	<node lat="61.3425555510688" lon="11.489286119215091" id="-48036">
		<tag k="name" v="Veltberget" />
		<tag k="natural" v="hill" />
		<tag k="place" v="locality" />
		<tag k="ssr:stedsnr" v="482696" />
	</node>
	<node lat="61.39056944269326" lon="11.520102784132888" id="-48037">
		<tag k="name" v="Vardhøgdene" />
		<tag k="natural" v="hill" />
		<tag k="place" v="locality" />
		<tag k="ssr:stedsnr" v="482748" />
	</node>
	<node lat="61.18618333127424" lon="11.403883327189712" id="-48051">
		<tag k="name" v="Stormoen" />
		<tag k="place" v="locality" />
		<tag k="ssr:stedsnr" v="405636" />
	</node>
	<node lat="61.279244444558245" lon="11.519813887327361" id="-48063">
		<tag k="fixme" v="consider natural=peak for the most distinct mountains in the district" />
		<tag k="name" v="Deifjellskaftet" />
		<tag k="natural" v="hill" />
		<tag k="place" v="locality" />
		<tag k="ssr:stedsnr" v="422601" />
	</node>
	<node lat="61.1908194459356" lon="11.404952770432883" id="-48065">
		<tag k="name" v="Stormoen" />
		<tag k="place" v="locality" />
		<tag k="ssr:stedsnr" v="423649" />
	</node>
	<node lat="61.332122224451545" lon="11.64446944986426" id="-48066">
		<tag k="fixme" v="consider natural=peak for the most distinct mountains in the district" />
		<tag k="name" v="Østre Skjæråsen" />
		<tag k="natural" v="hill" />
		<tag k="place" v="locality" />
		<tag k="ssr:stedsnr" v="423815" />
	</node>
	<node lat="61.15367499672262" lon="11.56402500399482" id="-48069">
		<tag k="alt_name" v="Veståsen" />
		<tag k="fixme" v="consider natural=peak for the most distinct mountains in the district" />
		<tag k="name" v="Vesteråsen" />
		<tag k="natural" v="hill" />
		<tag k="place" v="locality" />
		<tag k="ssr:stedsnr" v="432137" />
	</node>
	<node lat="61.141399997934805" lon="11.550700002557734" id="-48071">
		<tag k="name" v="Ingridsberget" />
		<tag k="natural" v="hill" />
		<tag k="place" v="locality" />
		<tag k="ssr:stedsnr" v="432148" />
	</node>
	<node lat="61.235049998294464" lon="11.809049998149547" id="-48090">
		<tag k="name" v="Moldbergkampen" />
		<tag k="natural" v="hill" />
		<tag k="place" v="locality" />
		<tag k="ssr:stedsnr" v="433314" />
	</node>
	<node lat="61.024213888797775" lon="11.346588888324915" id="-48095">
		<tag k="fixme" v="consider natural=peak for the most distinct mountains in the district" />
		<tag k="name" v="Bjørnberget" />
		<tag k="natural" v="hill" />
		<tag k="place" v="locality" />
		<tag k="ssr:stedsnr" v="492234" />
	</node>
	<node lat="61.1582777770329" lon="11.676080563068775" id="-48109">
		<tag k="fixme" v="consider natural=peak for the most distinct mountains in the district" />
		<tag k="name" v="Kvilåsen" />
		<tag k="natural" v="hill" />
		<tag k="place" v="locality" />
		<tag k="ssr:stedsnr" v="493158" />
	</node>
	<node lat="61.08088611233907" lon="11.510227769837536" id="-48143">
		<tag k="fixme" v="consider natural=peak for the most distinct mountains in the district" />
		<tag k="name" v="Lauvnubben" />
		<tag k="natural" v="hill" />
		<tag k="place" v="locality" />
		<tag k="ssr:stedsnr" v="675195" />
	</node>
	<node lat="61.267875004375526" lon="11.649874998247004" id="-48151">
		<tag k="fixme" v="consider natural=peak for the most distinct mountains in the district" />
		<tag k="name" v="Rakafjellet" />
		<tag k="natural" v="hill" />
		<tag k="place" v="locality" />
		<tag k="ssr:stedsnr" v="675787" />
	</node>
	<node lat="61.33082778204475" lon="11.632925006472039" id="-48154">
		<tag k="alt_name" v="Vestre Skjæråsen" />
		<tag k="fixme" v="consider natural=peak for the most distinct mountains in the district" />
		<tag k="name" v="Skjeråsen" />
		<tag k="natural" v="hill" />
		<tag k="place" v="locality" />
		<tag k="ssr:stedsnr" v="675871" />
	</node>
	<node lat="61.07340278224357" lon="11.341900000256622" id="-48161">
		<tag k="name" v="Åstvang-bakken" />
		<tag k="natural" v="slope" />
		<tag k="place" v="locality" />
		<tag k="ssr:stedsnr" v="480273" />
	</node>
	<node lat="61.22670277816118" lon="11.409155558477744" id="-48164">
		<tag k="fixme" v="consider natural=peak for the most distinct mountains in the district" />
		<tag k="name" v="Østre Yglekletten" />
		<tag k="natural" v="hill" />
		<tag k="place" v="locality" />
		<tag k="ssr:stedsnr" v="480625" />
	</node>
	<node lat="61.350091666382745" lon="11.477458339956321" id="-48168">
		<tag k="fixme" v="consider natural=peak for the most distinct mountains in the district" />
		<tag k="name" v="Granåsen" />
		<tag k="natural" v="hill" />
		<tag k="place" v="locality" />
		<tag k="ssr:stedsnr" v="678758" />
	</node>
	<node lat="61.3662805526382" lon="11.83398332785195" id="-48173">
		<tag k="fixme" v="consider natural=peak for the most distinct mountains in the district" />
		<tag k="name" v="Rødsåsen" />
		<tag k="natural" v="hill" />
		<tag k="place" v="locality" />
		<tag k="ssr:stedsnr" v="492106" />
	</node>
	<node lat="61.36225000288294" lon="11.471891671033566" id="-48186">
		<tag k="alt_name" v="Fagerfjell" />
		<tag k="fixme" v="consider natural=peak for the most distinct mountains in the district" />
		<tag k="name" v="Fagerfjellet" />
		<tag k="natural" v="hill" />
		<tag k="place" v="locality" />
		<tag k="ssr:stedsnr" v="492823" />
	</node>
	<node lat="61.44705833307591" lon="11.788569439568457" id="-48189">
		<tag k="alt_name" v="Vordkampen" />
		<tag k="fixme" v="consider natural=peak for the most distinct mountains in the district" />
		<tag k="name" v="Volkampen" />
		<tag k="natural" v="hill" />
		<tag k="place" v="locality" />
		<tag k="ssr:stedsnr" v="493183" />
	</node>
	<node lat="61.34874444156362" lon="11.336027777917298" id="-48202">
		<tag k="fixme" v="consider natural=peak for the most distinct mountains in the district" />
		<tag k="name" v="Vakkeråsen" />
		<tag k="natural" v="hill" />
		<tag k="place" v="locality" />
		<tag k="ssr:stedsnr" v="494062" />
	</node>
	<node lat="61.27920278180135" lon="11.862613884928308" id="-48204">
		<tag k="fixme" v="consider natural=peak for the most distinct mountains in the district" />
		<tag k="name" v="Talsneberget" />
		<tag k="natural" v="hill" />
		<tag k="place" v="locality" />
		<tag k="ssr:stedsnr" v="494485" />
	</node>
	<node lat="61.04577221992985" lon="11.313727781594448" id="-48207">
		<tag k="name" v="Almberget" />
		<tag k="natural" v="slope" />
		<tag k="place" v="locality" />
		<tag k="ssr:stedsnr" v="525204" />
	</node>
	<node lat="61.26499166531861" lon="11.52316111765342" id="-48213">
		<tag k="name" v="Skardløpa" />
		<tag k="natural" v="valley" />
		<tag k="place" v="locality" />
		<tag k="ssr:stedsnr" v="527581" />
	</node>
	<node lat="61.3025333312003" lon="11.50123888514216" id="-48217">
		<tag k="name" v="Deifjelltangen" />
		<tag k="place" v="locality" />
		<tag k="ssr:stedsnr" v="540517" />
	</node>
	<node lat="61.092594444484675" lon="11.238880550647513" id="-48221">
		<tag k="name" v="Fetegga" />
		<tag k="natural" v="slope" />
		<tag k="place" v="locality" />
		<tag k="ssr:stedsnr" v="544023" />
	</node>
	<node lat="61.2001944484419" lon="11.492369451824125" id="-48224">
		<tag k="name" v="Osøra" />
		<tag k="place" v="locality" />
		<tag k="ssr:stedsnr" v="544582" />
	</node>
	<node lat="61.34468055712505" lon="11.510505551212635" id="-48235">
		<tag k="alt_name" v="Haraåsen, store" />
		<tag k="fixme" v="consider natural=peak for the most distinct mountains in the district" />
		<tag k="name" v="Store Haraåsen" />
		<tag k="natural" v="hill" />
		<tag k="place" v="locality" />
		<tag k="ssr:stedsnr" v="553828" />
	</node>
	<node lat="60.928758332831066" lon="11.480424997080343" id="-48241">
		<tag k="name" v="Østerdalen" />
		<tag k="natural" v="valley" />
		<tag k="place" v="locality" />
		<tag k="ssr:stedsnr" v="692157" />
	</node>
	<node lat="61.15883055582136" lon="11.26463055076338" id="-48251">
		<tag k="name" v="Engulvsfjellia" />
		<tag k="natural" v="slope" />
		<tag k="place" v="locality" />
		<tag k="ssr:stedsnr" v="586216" />
	</node>
	<node lat="61.058163890481744" lon="11.318033324938778" id="-48252">
		<tag k="name" v="Jordbærsletta" />
		<tag k="place" v="locality" />
		<tag k="ssr:stedsnr" v="586190" />
	</node>
	<node lat="61.15121666676828" lon="11.40246111383843" id="-48255">
		<tag k="name" v="Kalihaugen" />
		<tag k="natural" v="hill" />
		<tag k="place" v="locality" />
		<tag k="ssr:stedsnr" v="587657" />
	</node>
	<node lat="61.39152777420315" lon="11.448324994686237" id="-48264">
		<tag k="fixme" v="consider natural=peak for the most distinct mountains in the district" />
		<tag k="name" v="Soppåsen" />
		<tag k="natural" v="hill" />
		<tag k="place" v="locality" />
		<tag k="ssr:stedsnr" v="603708" />
	</node>
	<node lat="61.202661106571746" lon="11.664213896690109" id="-48271">
		<tag k="fixme" v="consider natural=peak for the most distinct mountains in the district" />
		<tag k="name" v="Gjermundsåsen" />
		<tag k="natural" v="hill" />
		<tag k="place" v="locality" />
		<tag k="ssr:stedsnr" v="605857" />
	</node>
	<node lat="61.38813055672702" lon="11.651738880042394" id="-48286">
		<tag k="fixme" v="consider natural=peak for the most distinct mountains in the district" />
		<tag k="name" v="Slemberget" />
		<tag k="natural" v="hill" />
		<tag k="place" v="locality" />
		<tag k="ssr:stedsnr" v="614151" />
	</node>
	<node lat="61.43434444118" lon="11.554041667832355" id="-48288">
		<tag k="name" v="Slemdalen" />
		<tag k="natural" v="valley" />
		<tag k="place" v="locality" />
		<tag k="ssr:stedsnr" v="614162" />
	</node>
	<node lat="61.218241664861914" lon="11.628741670260553" id="-48290">
		<tag k="alt_name" v="Bogvelta" />
		<tag k="name" v="Bogvolta" />
		<tag k="place" v="locality" />
		<tag k="ssr:stedsnr" v="614319" />
	</node>
	<node lat="61.32706944012821" lon="11.500819446996688" id="-48317">
		<tag k="alt_name" v="Skardhaugane" />
		<tag k="name" v="Vestre Skardhaugen" />
		<tag k="natural" v="hill" />
		<tag k="place" v="locality" />
		<tag k="ssr:stedsnr" v="653505" />
	</node>
	<node lat="61.39077499677545" lon="11.838927779710867" id="-48318">
		<tag k="name" v="Rognåsen" />
		<tag k="natural" v="hill" />
		<tag k="place" v="locality" />
		<tag k="ssr:stedsnr" v="659892" />
	</node>
	<node lat="61.323580555146265" lon="11.423597215276422" id="-48325">
		<tag k="name" v="Torfantmoen" />
		<tag k="place" v="locality" />
		<tag k="ssr:stedsnr" v="662539" />
	</node>
	<node lat="61.35102499705229" lon="11.527077780345758" id="-48334">
		<tag k="name" v="Langradden" />
		<tag k="natural" v="hill" />
		<tag k="place" v="locality" />
		<tag k="ssr:stedsnr" v="664738" />
	</node>
	<node lat="61.08483888981844" lon="11.200208333816054" id="-48335">
		<tag k="name" v="Dansarhaugen" />
		<tag k="natural" v="hill" />
		<tag k="place" v="locality" />
		<tag k="ssr:stedsnr" v="665033" />
	</node>
	<node lat="61.34542500357935" lon="11.421583332649705" id="-48336">
		<tag k="name" v="Gammelstudalen" />
		<tag k="natural" v="valley" />
		<tag k="place" v="locality" />
		<tag k="ssr:stedsnr" v="709570" />
	</node>
	<node lat="61.378249997734784" lon="11.421811113572224" id="-48339">
		<tag k="name" v="Ådalen" />
		<tag k="natural" v="valley" />
		<tag k="place" v="locality" />
		<tag k="ssr:stedsnr" v="665598" />
	</node>
	<node lat="61.37569722155276" lon="11.403200009083767" id="-48340">
		<tag k="name" v="Berggjedsla" />
		<tag k="natural" v="slope" />
		<tag k="place" v="locality" />
		<tag k="ssr:stedsnr" v="665602" />
	</node>
	<node lat="61.13641110894667" lon="11.58886110318117" id="-48343">
		<tag k="name" v="Krismehøgda" />
		<tag k="natural" v="hill" />
		<tag k="place" v="locality" />
		<tag k="ssr:stedsnr" v="709863" />
	</node>
	<node lat="61.13225833702386" lon="11.607863892047588" id="-48344">
		<tag k="name" v="Syverinshaugen" />
		<tag k="natural" v="hill" />
		<tag k="place" v="locality" />
		<tag k="ssr:stedsnr" v="709865" />
	</node>
	<node lat="61.11812777751809" lon="11.576766664588469" id="-48348">
		<tag k="name" v="Kulhusmoen" />
		<tag k="place" v="locality" />
		<tag k="ssr:stedsnr" v="666623" />
	</node>
	<node lat="61.169661110266034" lon="11.306272219198485" id="-48351">
		<tag k="name" v="Hammerskaret" />
		<tag k="natural" v="valley" />
		<tag k="place" v="locality" />
		<tag k="ssr:stedsnr" v="890229" />
	</node>
	<node lat="61.468700002754886" lon="11.781208339013842" id="-48367">
		<tag k="name" v="Jakopsbrenna" />
		<tag k="natural" v="slope" />
		<tag k="place" v="locality" />
		<tag k="ssr:stedsnr" v="675248" />
	</node>
	<node lat="61.361663889288785" lon="11.72139167299532" id="-48371">
		<tag k="alt_name" v="Neskampen, nordre" />
		<tag k="fixme" v="consider natural=peak for the most distinct mountains in the district" />
		<tag k="name" v="Nordre Neskampen" />
		<tag k="natural" v="hill" />
		<tag k="place" v="locality" />
		<tag k="ssr:stedsnr" v="675849" />
	</node>
	<node lat="61.351277776869566" lon="11.399788879578656" id="-48374">
		<tag k="name" v="Vervadalen" />
		<tag k="natural" v="valley" />
		<tag k="place" v="locality" />
		<tag k="ssr:stedsnr" v="891591" />
	</node>
	<node lat="61.31149166817765" lon="11.41664444575453" id="-48388">
		<tag k="name" v="Løvsletta" />
		<tag k="place" v="locality" />
		<tag k="ssr:stedsnr" v="709602" />
	</node>
	<node lat="61.10420278094055" lon="11.163880555879427" id="-48392">
		<tag k="name" v="Skjærdalen" />
		<tag k="natural" v="valley" />
		<tag k="place" v="locality" />
		<tag k="ssr:stedsnr" v="709931" />
	</node>
	<node lat="61.11417500273033" lon="11.208200002215785" id="-48400">
		<tag k="name" v="Slagghaugene" />
		<tag k="natural" v="hill" />
		<tag k="place" v="locality" />
		<tag k="ssr:stedsnr" v="726012" />
	</node>
	<node lat="61.1127750033342" lon="11.244108337574412" id="-48401">
		<tag k="name" v="Ertilsmoen" />
		<tag k="natural" v="slope" />
		<tag k="place" v="locality" />
		<tag k="ssr:stedsnr" v="726014" />
	</node>
	<node lat="61.32464166698393" lon="11.593569444095651" id="-48406">
		<tag k="name" v="Ekorndalen" />
		<tag k="natural" v="valley" />
		<tag k="place" v="locality" />
		<tag k="ssr:stedsnr" v="726811" />
	</node>
	<node lat="61.217841663956996" lon="11.421213894865819" id="-48413">
		<tag k="fixme" v="consider natural=peak for the most distinct mountains in the district" />
		<tag k="name" v="Løvåsen" />
		<tag k="natural" v="hill" />
		<tag k="place" v="locality" />
		<tag k="ssr:stedsnr" v="735384" />
	</node>
	<node lat="61.28598889319397" lon="11.671136104896666" id="-48420">
		<tag k="fixme" v="consider natural=peak for the most distinct mountains in the district" />
		<tag k="name" v="Godfaråsen" />
		<tag k="natural" v="hill" />
		<tag k="place" v="locality" />
		<tag k="ssr:stedsnr" v="735775" />
	</node>
	<node lat="61.33555555521251" lon="11.317902780747122" id="-48437">
		<tag k="alt_name" v="Skjæråsen" />
		<tag k="fixme" v="consider natural=peak for the most distinct mountains in the district" />
		<tag k="name" v="Skjeråsen" />
		<tag k="natural" v="hill" />
		<tag k="place" v="locality" />
		<tag k="ssr:stedsnr" v="737009" />
	</node>
	<node lat="61.07171111044438" lon="11.29242777953245" id="-48450">
		<tag k="name" v="Trolldalsroa" />
		<tag k="natural" v="valley" />
		<tag k="place" v="locality" />
		<tag k="ssr:stedsnr" v="968125" />
	</node>
	<node lat="61.1087138922205" lon="11.142930552449476" id="-48457">
		<tag k="name" v="Djupdalen" />
		<tag k="natural" v="valley" />
		<tag k="place" v="locality" />
		<tag k="ssr:stedsnr" v="769921" />
	</node>
	<node lat="61.10944722593768" lon="11.219663898174103" id="-48466">
		<tag k="name" v="Allfarmoen" />
		<tag k="natural" v="slope" />
		<tag k="place" v="locality" />
		<tag k="ssr:stedsnr" v="909013" />
	</node>
	<node lat="61.090716662649356" lon="11.215125004752206" id="-48469">
		<tag k="name" v="Jammerdalen" />
		<tag k="natural" v="valley" />
		<tag k="place" v="locality" />
		<tag k="ssr:stedsnr" v="909024" />
	</node>
	<node lat="61.1370027794392" lon="11.414816665803016" id="-48475">
		<tag k="name" v="Høyhaugen" />
		<tag k="natural" v="hill" />
		<tag k="place" v="locality" />
		<tag k="ssr:stedsnr" v="783369" />
	</node>
	<node lat="61.070249997641504" lon="11.302088897189561" id="-48482">
		<tag k="name" v="Djupdalsberget" />
		<tag k="natural" v="hill" />
		<tag k="place" v="locality" />
		<tag k="ssr:stedsnr" v="786110" />
	</node>
	<node lat="61.02993889244451" lon="11.365066672970567" id="-48484">
		<tag k="name" v="Djupmyrhaugen" />
		<tag k="natural" v="hill" />
		<tag k="place" v="locality" />
		<tag k="ssr:stedsnr" v="787246" />
	</node>
	<node lat="61.12463055629561" lon="11.473280561725764" id="-48492">
		<tag k="alt_name" v="Garsjøåsen;Nabbsetåsen" />
		<tag k="fixme" v="consider natural=peak for the most distinct mountains in the district" />
		<tag k="name" v="Gardsjøåsen" />
		<tag k="natural" v="hill" />
		<tag k="place" v="locality" />
		<tag k="ssr:stedsnr" v="796118" />
	</node>
	<node lat="61.059002773883584" lon="11.492825006004294" id="-48496">
		<tag k="alt_name" v="Kråkberget, vesle" />
		<tag k="name" v="Vesle Kråkberget" />
		<tag k="natural" v="hill" />
		<tag k="place" v="locality" />
		<tag k="ssr:stedsnr" v="796205" />
	</node>
	<node lat="61.16308610800495" lon="11.416752771179226" id="-48499">
		<tag k="name" v="Lykkjebakken" />
		<tag k="natural" v="slope" />
		<tag k="place" v="locality" />
		<tag k="ssr:stedsnr" v="796422" />
	</node>
	<node lat="61.16939722519587" lon="11.1667861040644" id="-48500">
		<tag k="fixme" v="consider natural=peak for the most distinct mountains in the district" />
		<tag k="name" v="Hemmelfjellet" />
		<tag k="natural" v="hill" />
		<tag k="place" v="locality" />
		<tag k="ssr:stedsnr" v="796425" />
	</node>
	<node lat="61.38814166523263" lon="11.803858330597608" id="-48503">
		<tag k="fixme" v="consider natural=peak for the most distinct mountains in the district" />
		<tag k="name" v="Bruråsen" />
		<tag k="natural" v="hill" />
		<tag k="place" v="locality" />
		<tag k="ssr:stedsnr" v="796160" />
	</node>
	<node lat="61.37424166724838" lon="11.440511106740756" id="-48512">
		<tag k="fixme" v="consider natural=peak for the most distinct mountains in the district" />
		<tag k="name" v="Knøsen" />
		<tag k="natural" v="hill" />
		<tag k="place" v="locality" />
		<tag k="ssr:stedsnr" v="797052" />
	</node>
	<node lat="61.05992499929766" lon="11.485327783717947" id="-48516">
		<tag k="name" v="Djupdalen" />
		<tag k="natural" v="valley" />
		<tag k="place" v="locality" />
		<tag k="ssr:stedsnr" v="797504" />
	</node>
	<node lat="61.06715000082537" lon="11.491011102430424" id="-48519">
		<tag k="name" v="Langmyrdalen" />
		<tag k="natural" v="valley" />
		<tag k="place" v="locality" />
		<tag k="ssr:stedsnr" v="917132" />
	</node>
	<node lat="61.0365361092897" lon="11.260022212997315" id="-48520">
		<tag k="fixme" v="consider natural=peak for the most distinct mountains in the district" />
		<tag k="loc_name" v="Gjetholen" />
		<tag k="name" v="Gitvola" />
		<tag k="natural" v="hill" />
		<tag k="place" v="locality" />
		<tag k="ssr:stedsnr" v="917237" />
	</node>
	<node lat="61.184225000525934" lon="11.516158327415244" id="-48524">
		<tag k="name" v="Bjørnberget" />
		<tag k="natural" v="hill" />
		<tag k="place" v="locality" />
		<tag k="ssr:stedsnr" v="917337" />
	</node>
	<node lat="61.21683611115149" lon="11.746586115417074" id="-48540">
		<tag k="fixme" v="consider natural=peak for the most distinct mountains in the district" />
		<tag k="name" v="Kraggåsen" />
		<tag k="natural" v="hill" />
		<tag k="place" v="locality" />
		<tag k="ssr:stedsnr" v="918384" />
	</node>
	<node lat="61.35771666494886" lon="11.32188054654902" id="-48549">
		<tag k="fixme" v="consider natural=peak for the most distinct mountains in the district" />
		<tag k="name" v="Kloppåsen" />
		<tag k="natural" v="hill" />
		<tag k="place" v="locality" />
		<tag k="ssr:stedsnr" v="920775" />
	</node>
	<node lat="61.15831944192298" lon="11.453641674770887" id="-48558">
		<tag k="name" v="Haugedalen" />
		<tag k="natural" v="valley" />
		<tag k="place" v="locality" />
		<tag k="ssr:stedsnr" v="831890" />
	</node>
	<node lat="61.43367222495902" lon="11.569550007551877" id="-48559">
		<tag k="name" v="Brennsæterlia" />
		<tag k="natural" v="slope" />
		<tag k="place" v="locality" />
		<tag k="ssr:stedsnr" v="831896" />
	</node>
	<node lat="61.15663055708163" lon="11.314741668586146" id="-48560">
		<tag k="name" v="Brattegga" />
		<tag k="natural" v="hill" />
		<tag k="place" v="locality" />
		<tag k="ssr:stedsnr" v="844375" />
	</node>
	<node lat="61.10816388818837" lon="11.410308337192333" id="-48568">
		<tag k="name" v="Klokkerhaugen" />
		<tag k="natural" v="hill" />
		<tag k="place" v="locality" />
		<tag k="ssr:stedsnr" v="845478" />
	</node>
	<node lat="61.07588888583657" lon="11.305766664318124" id="-48572">
		<tag k="fixme" v="consider natural=peak for the most distinct mountains in the district" />
		<tag k="name" v="Vårsæterberget" />
		<tag k="natural" v="hill" />
		<tag k="place" v="locality" />
		<tag k="ssr:stedsnr" v="848117" />
	</node>
	<node lat="61.04371944549989" lon="11.28400277936793" id="-48573">
		<tag k="name" v="Slavådalen" />
		<tag k="natural" v="valley" />
		<tag k="place" v="locality" />
		<tag k="ssr:stedsnr" v="848121" />
	</node>
	<node lat="61.30006944078128" lon="11.894016670664687" id="-48575">
		<tag k="name" v="Livshammarn" />
		<tag k="natural" v="hill" />
		<tag k="place" v="locality" />
		<tag k="ssr:stedsnr" v="848512" />
	</node>
	<node lat="61.047336107025444" lon="11.491875002248339" id="-48581">
		<tag k="name" v="Svartbekkdalen" />
		<tag k="natural" v="valley" />
		<tag k="place" v="locality" />
		<tag k="ssr:stedsnr" v="857208" />
	</node>
	<node lat="61.477194441116744" lon="11.715008328875305" id="-48597">
		<tag k="fixme" v="consider natural=peak for the most distinct mountains in the district" />
		<tag k="name" v="Storåsen" />
		<tag k="natural" v="hill" />
		<tag k="place" v="locality" />
		<tag k="ssr:stedsnr" v="858220" />
	</node>
	<node lat="61.04693332906083" lon="11.314861116608645" id="-48604">
		<tag k="name" v="Rykinnfløtningen" />
		<tag k="natural" v="slope" />
		<tag k="place" v="locality" />
		<tag k="ssr:stedsnr" v="890204" />
	</node>
	<node lat="61.156991664608434" lon="11.39433889544558" id="-48611">
		<tag k="name" v="Ulvhammeren" />
		<tag k="natural" v="hill" />
		<tag k="place" v="locality" />
		<tag k="ssr:stedsnr" v="891654" />
	</node>
	<node lat="61.07120000393879" lon="11.316925003640764" id="-48618">
		<tag k="name" v="Runddulpen" />
		<tag k="natural" v="valley" />
		<tag k="place" v="locality" />
		<tag k="ssr:stedsnr" v="905303" />
	</node>
	<node lat="61.14436944713722" lon="11.127530553941478" id="-48625">
		<tag k="name" v="Tronget" />
		<tag k="natural" v="gorge" />
		<tag k="ssr:stedsnr" v="907963" />
	</node>
	<node lat="61.06869999884176" lon="11.306688890668118" id="-48628">
		<tag k="name" v="Djupdalen" />
		<tag k="natural" v="valley" />
		<tag k="place" v="locality" />
		<tag k="ssr:stedsnr" v="917217" />
	</node>
	<node lat="61.076038887119054" lon="11.39676111062109" id="-48629">
		<tag k="fixme" v="consider natural=peak for the most distinct mountains in the district" />
		<tag k="name" v="Hemberget" />
		<tag k="natural" v="hill" />
		<tag k="place" v="locality" />
		<tag k="ssr:stedsnr" v="917224" />
	</node>
	<node lat="61.029969442486106" lon="11.400411117165516" id="-48630">
		<tag k="name" v="Skjelmoen" />
		<tag k="place" v="locality" />
		<tag k="ssr:stedsnr" v="917264" />
	</node>
	<node lat="61.39227777877346" lon="11.661550005405457" id="-48634">
		<tag k="name" v="Dulthøgda" />
		<tag k="natural" v="hill" />
		<tag k="place" v="locality" />
		<tag k="ssr:stedsnr" v="917120" />
	</node>
	<node lat="61.20174999824705" lon="11.640524991926096" id="-48635">
		<tag k="fixme" v="consider natural=peak for the most distinct mountains in the district" />
		<tag k="name" v="Digeråsen" />
		<tag k="natural" v="hill" />
		<tag k="place" v="locality" />
		<tag k="ssr:stedsnr" v="917303" />
	</node>
	<node lat="61.089575000439496" lon="11.384613896851386" id="-48638">
		<tag k="name" v="Bergslia" />
		<tag k="natural" v="slope" />
		<tag k="place" v="locality" />
		<tag k="ssr:stedsnr" v="917457" />
	</node>
	<node lat="61.37143055345074" lon="11.432858334223939" id="-48652">
		<tag k="name" v="Jukulen" />
		<tag k="natural" v="hill" />
		<tag k="place" v="locality" />
		<tag k="ssr:stedsnr" v="919053" />
	</node>
	<node lat="61.05754722558092" lon="11.33353610406998" id="-48655">
		<tag k="name" v="Høybakkene" />
		<tag k="natural" v="slope" />
		<tag k="place" v="locality" />
		<tag k="ssr:stedsnr" v="950207" />
	</node>
	<node lat="61.03880555510767" lon="11.320241675699243" id="-48656">
		<tag k="name" v="Slåttbekkdalen" />
		<tag k="natural" v="valley" />
		<tag k="place" v="locality" />
		<tag k="ssr:stedsnr" v="950209" />
	</node>
	<node lat="61.057411111328406" lon="11.394600001155421" id="-48657">
		<tag k="name" v="Storhaugen" />
		<tag k="natural" v="hill" />
		<tag k="place" v="locality" />
		<tag k="ssr:stedsnr" v="950228" />
	</node>
	<node lat="61.100144440352196" lon="11.387849990556624" id="-48658">
		<tag k="name" v="Bekkedalen" />
		<tag k="natural" v="valley" />
		<tag k="place" v="locality" />
		<tag k="ssr:stedsnr" v="951339" />
	</node>
	<node lat="61.11861666905609" lon="11.56750277789807" id="-48659">
		<tag k="name" v="Krismebakken" />
		<tag k="natural" v="slope" />
		<tag k="place" v="locality" />
		<tag k="ssr:stedsnr" v="952605" />
	</node>
	<node lat="61.26936389096898" lon="11.485541670559902" id="-48660">
		<tag k="name" v="Halvmilsdalen" />
		<tag k="natural" v="valley" />
		<tag k="place" v="locality" />
		<tag k="ssr:stedsnr" v="952559" />
	</node>
	<node lat="61.156855551525275" lon="11.59460555084842" id="-48661">
		<tag k="name" v="Knappkjølen" />
		<tag k="natural" v="hill" />
		<tag k="place" v="locality" />
		<tag k="ssr:stedsnr" v="952847" />
	</node>
	<node lat="61.38903333062765" lon="11.53858888678582" id="-48669">
		<tag k="name" v="Vesleknubben" />
		<tag k="natural" v="hill" />
		<tag k="place" v="locality" />
		<tag k="ssr:stedsnr" v="967723" />
	</node>
	<node lat="61.38699166943683" lon="11.72295833784952" id="-48678">
		<tag k="fixme" v="consider natural=peak for the most distinct mountains in the district" />
		<tag k="name" v="Gardbergskampen" />
		<tag k="natural" v="hill" />
		<tag k="place" v="locality" />
		<tag k="ssr:stedsnr" v="7168" />
	</node>
	<node lat="61.358186108514296" lon="11.56137778367077" id="-48682">
		<tag k="alt_name" v="Nordre Desetknubben;Søndre Desetknubben" />
		<tag k="fixme" v="consider natural=peak for the most distinct mountains in the district" />
		<tag k="name" v="Desetknubben" />
		<tag k="natural" v="hill" />
		<tag k="place" v="locality" />
		<tag k="ssr:stedsnr" v="7833" />
	</node>
	<node lat="61.335883330719035" lon="11.524199995972863" id="-48685">
		<tag k="alt_name" v="Haraåsen, vesle" />
		<tag k="fixme" v="consider natural=peak for the most distinct mountains in the district" />
		<tag k="name" v="Vesle Haraåsen" />
		<tag k="natural" v="hill" />
		<tag k="place" v="locality" />
		<tag k="ssr:stedsnr" v="7865" />
	</node>
	<node lat="61.1309361108042" lon="11.426669435645369" id="-48688">
		<tag k="fixme" v="consider natural=peak for the most distinct mountains in the district" />
		<tag k="name" v="Oksåsen" />
		<tag k="natural" v="hill" />
		<tag k="place" v="locality" />
		<tag k="ssr:stedsnr" v="7441" />
	</node>
	<node lat="61.23486110934866" lon="11.425727780586586" id="-48693">
		<tag k="fixme" v="consider natural=peak for the most distinct mountains in the district" />
		<tag k="name" v="Granåsen" />
		<tag k="natural" v="hill" />
		<tag k="place" v="locality" />
		<tag k="ssr:stedsnr" v="7384" />
	</node>
	<node lat="61.43634999623672" lon="11.805580555295844" id="-48703">
		<tag k="fixme" v="consider natural=peak for the most distinct mountains in the district" />
		<tag k="name" v="Måsåknappen" />
		<tag k="natural" v="hill" />
		<tag k="place" v="locality" />
		<tag k="ssr:stedsnr" v="8167" />
	</node>
	<node lat="61.4323027732957" lon="11.500969447556818" id="-48704">
		<tag k="alt_name" v="Skårdalen" />
		<tag k="name" v="Skordalen" />
		<tag k="natural" v="valley" />
		<tag k="place" v="locality" />
		<tag k="ssr:stedsnr" v="8168" />
	</node>
	<node lat="61.2544777759022" lon="11.459163892673596" id="-48707">
		<tag k="name" v="Rødsåslia" />
		<tag k="natural" v="slope" />
		<tag k="place" v="locality" />
		<tag k="ssr:stedsnr" v="8210" />
	</node>
	<node lat="61.0331916670924" lon="11.317305561578534" id="-48724">
		<tag k="name" v="Gudmundsdalen" />
		<tag k="natural" v="valley" />
		<tag k="place" v="locality" />
		<tag k="ssr:stedsnr" v="41235" />
	</node>
	<node lat="61.388258337908766" lon="11.385958327511645" id="-48732">
		<tag k="name" v="Dulpen" />
		<tag k="natural" v="valley" />
		<tag k="place" v="locality" />
		<tag k="ssr:stedsnr" v="55509" />
	</node>
	<node lat="61.32151388902926" lon="11.501355552851292" id="-48734">
		<tag k="name" v="Skrubbdalen" />
		<tag k="natural" v="valley" />
		<tag k="place" v="locality" />
		<tag k="ssr:stedsnr" v="55512" />
	</node>
	<node lat="61.37118611269328" lon="11.442747213214034" id="-48737">
		<tag k="fixme" v="consider natural=peak for the most distinct mountains in the district" />
		<tag k="name" v="Høgsdagskampen" />
		<tag k="natural" v="hill" />
		<tag k="place" v="locality" />
		<tag k="ssr:stedsnr" v="57743" />
	</node>
	<node lat="61.366352780914355" lon="11.426649997808356" id="-48738">
		<tag k="fixme" v="consider natural=peak for the most distinct mountains in the district" />
		<tag k="name" v="Nordre Granberget" />
		<tag k="natural" v="hill" />
		<tag k="place" v="locality" />
		<tag k="ssr:stedsnr" v="59557" />
	</node>
	<node lat="61.04526666917137" lon="11.306186114334437" id="-48739">
		<tag k="name" v="Sirkusen" />
		<tag k="natural" v="slope" />
		<tag k="place" v="locality" />
		<tag k="ssr:stedsnr" v="59095" />
	</node>
	<node lat="61.12655555759653" lon="11.350558332695107" id="-48747">
		<tag k="name" v="Tallmoen" />
		<tag k="place" v="locality" />
		<tag k="ssr:stedsnr" v="67479" />
	</node>
	<node lat="61.15410000112141" lon="11.661580559752728" id="-48764">
		<tag k="name" v="Paradisberget" />
		<tag k="natural" v="hill" />
		<tag k="place" v="locality" />
		<tag k="ssr:stedsnr" v="68153" />
	</node>
	<node lat="61.165100003794684" lon="11.686449996658421" id="-48768">
		<tag k="name" v="Anisberget" />
		<tag k="natural" v="hill" />
		<tag k="place" v="locality" />
		<tag k="ssr:stedsnr" v="68383" />
	</node>
	<node lat="61.329627781642145" lon="11.485272230128139" id="-48775">
		<tag k="fixme" v="consider natural=peak for the most distinct mountains in the district" />
		<tag k="name" v="Leåsen" />
		<tag k="natural" v="hill" />
		<tag k="place" v="locality" />
		<tag k="ssr:stedsnr" v="68867" />
	</node>
	<node lat="61.381433337288286" lon="11.816913896373771" id="-48795">
		<tag k="fixme" v="consider natural=peak for the most distinct mountains in the district" />
		<tag k="name" v="Tjernsbuåsen" />
		<tag k="natural" v="hill" />
		<tag k="place" v="locality" />
		<tag k="ssr:stedsnr" v="114616" />
	</node>
	<node lat="61.20996388689223" lon="11.695355558817894" id="-48808">
		<tag k="fixme" v="consider natural=peak for the most distinct mountains in the district" />
		<tag k="name" v="Lisæteråsen" />
		<tag k="natural" v="hill" />
		<tag k="place" v="locality" />
		<tag k="ssr:stedsnr" v="118919" />
	</node>
	<node lat="61.10633611038296" lon="11.238399996202643" id="-48810">
		<tag k="name" v="Tollefsmoen" />
		<tag k="natural" v="slope" />
		<tag k="place" v="locality" />
		<tag k="ssr:stedsnr" v="120013" />
	</node>
	<node lat="61.09808611519676" lon="11.49965555645847" id="-48815">
		<tag k="name" v="Mørstadsagtomta" />
		<tag k="place" v="locality" />
		<tag k="ssr:stedsnr" v="120953" />
	</node>
	<node lat="61.06522500289473" lon="11.472580556092867" id="-48821">
		<tag k="name" v="Kråksæterberget" />
		<tag k="natural" v="hill" />
		<tag k="place" v="locality" />
		<tag k="ssr:stedsnr" v="128180" />
	</node>
	<node lat="61.209872221265314" lon="11.133597223147886" id="-48826">
		<tag k="name" v="Hemmelneset" />
		<tag k="natural" v="ridge" />
		<tag k="place" v="locality" />
		<tag k="ssr:stedsnr" v="128378" />
	</node>
	<node lat="61.34265000012291" lon="11.470941669977728" id="-48839">
		<tag k="alt_name" v="Tørberget" />
		<tag k="fixme" v="consider natural=peak for the most distinct mountains in the district" />
		<tag k="name" v="Tørrberget" />
		<tag k="natural" v="hill" />
		<tag k="place" v="locality" />
		<tag k="ssr:stedsnr" v="128825" />
	</node>
	<node lat="61.43054166653687" lon="11.479411111690608" id="-48844">
		<tag k="fixme" v="consider natural=peak for the most distinct mountains in the district" />
		<tag k="name" v="Slemfjellet" />
		<tag k="natural" v="hill" />
		<tag k="place" v="locality" />
		<tag k="ssr:stedsnr" v="129180" />
	</node>
	<node lat="61.080180556799334" lon="11.525713882744181" id="-48847">
		<tag k="name" v="Kalvtjenndalen" />
		<tag k="natural" v="valley" />
		<tag k="place" v="locality" />
		<tag k="ssr:stedsnr" v="129191" />
	</node>
	<node lat="61.42462777921545" lon="11.796202781659657" id="-48850">
		<tag k="name" v="Skaftet" />
		<tag k="natural" v="slope" />
		<tag k="place" v="locality" />
		<tag k="ssr:stedsnr" v="129197" />
	</node>
	<node lat="61.45346389221036" lon="11.564074994584745" id="-48852">
		<tag k="alt_name" v="Burusjøåsen;Burusjøåsen, vestre" />
		<tag k="fixme" v="consider natural=peak for the most distinct mountains in the district" />
		<tag k="name" v="Vestre Burusjøåsen" />
		<tag k="natural" v="hill" />
		<tag k="place" v="locality" />
		<tag k="ssr:stedsnr" v="129228" />
	</node>
	<node lat="61.26882777938472" lon="11.713952778282778" id="-48857">
		<tag k="alt_name" v="Jøsåsen" />
		<tag k="fixme" v="consider natural=peak for the most distinct mountains in the district" />
		<tag k="name" v="Jøssåsen" />
		<tag k="natural" v="hill" />
		<tag k="place" v="locality" />
		<tag k="ssr:stedsnr" v="129770" />
	</node>
	<node lat="61.121202774334506" lon="11.275749993811164" id="-48862">
		<tag k="fixme" v="consider natural=peak for the most distinct mountains in the district" />
		<tag k="name" v="Holeberget" />
		<tag k="natural" v="hill" />
		<tag k="place" v="locality" />
		<tag k="ssr:stedsnr" v="161013" />
	</node>
	<node lat="61.346652774831064" lon="11.45571111140403" id="-48882">
		<tag k="name" v="Rustlandsdalen" />
		<tag k="natural" v="valley" />
		<tag k="place" v="locality" />
		<tag k="ssr:stedsnr" v="179699" />
	</node>
	<node lat="61.31274167109637" lon="11.573619444955511" id="-48889">
		<tag k="name" v="Ravan" />
		<tag k="natural" v="hill" />
		<tag k="place" v="locality" />
		<tag k="ssr:stedsnr" v="180791" />
	</node>
	<node lat="61.36566666502813" lon="11.424108329374441" id="-48891">
		<tag k="name" v="Korphammeren" />
		<tag k="natural" v="slope" />
		<tag k="place" v="locality" />
		<tag k="ssr:stedsnr" v="180548" />
	</node>
	<node lat="61.049508337625426" lon="11.476730564212447" id="-48899">
		<tag k="name" v="Hyttmyrberget" />
		<tag k="natural" v="hill" />
		<tag k="place" v="locality" />
		<tag k="ssr:stedsnr" v="189196" />
	</node>
	<node lat="61.2234555519829" lon="11.402999991467498" id="-48905">
		<tag k="alt_name" v="Vestre Yglekletten" />
		<tag k="fixme" v="consider natural=peak for the most distinct mountains in the district" />
		<tag k="name" v="Yglekletten" />
		<tag k="natural" v="hill" />
		<tag k="place" v="locality" />
		<tag k="ssr:stedsnr" v="189360" />
	</node>
	<node lat="61.33001944437416" lon="11.50694166533282" id="-48915">
		<tag k="alt_name" v="Skardhaugane" />
		<tag k="name" v="Østre Skardhaugen" />
		<tag k="natural" v="hill" />
		<tag k="place" v="locality" />
		<tag k="ssr:stedsnr" v="189856" />
	</node>
	<node lat="61.31880555582784" lon="11.62995556179576" id="-48916">
		<tag k="alt_name" v="Hallfaråsen" />
		<tag k="fixme" v="consider natural=peak for the most distinct mountains in the district" />
		<tag k="name" v="Halvfaråsen" />
		<tag k="natural" v="hill" />
		<tag k="place" v="locality" />
		<tag k="ssr:stedsnr" v="189859" />
	</node>
	<node lat="61.03626389220406" lon="11.321063890855129" id="-48932">
		<tag k="name" v="Bjørnåteholet" />
		<tag k="natural" v="valley" />
		<tag k="place" v="locality" />
		<tag k="ssr:stedsnr" v="223238" />
	</node>
	<node lat="61.07406110937474" lon="11.387041667195449" id="-48935">
		<tag k="name" v="Søndre Oksdalen" />
		<tag k="natural" v="valley" />
		<tag k="place" v="locality" />
		<tag k="ssr:stedsnr" v="223370" />
	</node>
	<node lat="61.30221389114402" lon="11.430175000471289" id="-48941">
		<tag k="name" v="Kattrusta" />
		<tag k="natural" v="hill" />
		<tag k="place" v="locality" />
		<tag k="ssr:stedsnr" v="224572" />
	</node>
	<node lat="61.37318055845744" lon="11.584574995432781" id="-48946">
		<tag k="name" v="Knubbdalen" />
		<tag k="natural" v="valley" />
		<tag k="place" v="locality" />
		<tag k="ssr:stedsnr" v="224962" />
	</node>
	<node lat="61.04867499674575" lon="11.335236119764524" id="-48949">
		<tag k="name" v="Stormyrhaugen" />
		<tag k="natural" v="hill" />
		<tag k="place" v="locality" />
		<tag k="ssr:stedsnr" v="283158" />
	</node>
	<node lat="61.04064444520732" lon="11.322458330016673" id="-48951">
		<tag k="name" v="Nysæterberget" />
		<tag k="natural" v="slope" />
		<tag k="place" v="locality" />
		<tag k="ssr:stedsnr" v="283164" />
	</node>
	<node lat="61.31453055152672" lon="11.41919444311715" id="-48961">
		<tag k="name" v="Geitryggen" />
		<tag k="natural" v="ridge" />
		<tag k="place" v="locality" />
		<tag k="ssr:stedsnr" v="285583" />
	</node>
	<node lat="61.31266666777762" lon="11.434049999737473" id="-48962">
		<tag k="name" v="Langflekken" />
		<tag k="place" v="locality" />
		<tag k="ssr:stedsnr" v="285586" />
	</node>
	<node lat="61.22345833666546" lon="11.48095000362506" id="-48963">
		<tag k="name" v="Rødsmoen" />
		<tag k="place" v="locality" />
		<tag k="ssr:stedsnr" v="285566" />
	</node>
	<node lat="61.30895277859343" lon="11.43909722530722" id="-48966">
		<tag k="name" v="Hammersenget" />
		<tag k="place" v="locality" />
		<tag k="ssr:stedsnr" v="297492" />
	</node>
	<node lat="61.07049444890138" lon="11.318652776194355" id="-48970">
		<tag k="name" v="Langdalsberget" />
		<tag k="natural" v="hill" />
		<tag k="place" v="locality" />
		<tag k="ssr:stedsnr" v="299345" />
	</node>
	<node lat="61.417461113915074" lon="11.438830557991041" id="-48976">
		<tag k="name" v="Skarvhøgdene" />
		<tag k="natural" v="hill" />
		<tag k="place" v="locality" />
		<tag k="ssr:stedsnr" v="302735" />
	</node>
	<node lat="61.07672777438485" lon="11.506986116673986" id="-48978">
		<tag k="name" v="Vestre Kalvtjennsdalen" />
		<tag k="natural" v="valley" />
		<tag k="place" v="locality" />
		<tag k="ssr:stedsnr" v="302808" />
	</node>
	<node lat="61.06226944528801" lon="11.45573889075983" id="-48979">
		<tag k="fixme" v="consider natural=peak for the most distinct mountains in the district" />
		<tag k="name" v="Rørmyrberget" />
		<tag k="natural" v="hill" />
		<tag k="place" v="locality" />
		<tag k="ssr:stedsnr" v="302811" />
	</node>
	<node lat="61.409650003279346" lon="11.77223889756881" id="-48981">
		<tag k="fixme" v="consider natural=peak for the most distinct mountains in the district" />
		<tag k="name" v="Storbrenna" />
		<tag k="natural" v="hill" />
		<tag k="place" v="locality" />
		<tag k="ssr:stedsnr" v="311169" />
	</node>
	<node lat="61.44796944113986" lon="11.512747213262754" id="-48983">
		<tag k="fixme" v="consider natural=peak for the most distinct mountains in the district" />
		<tag k="name" v="Pottangen" />
		<tag k="natural" v="hill" />
		<tag k="place" v="locality" />
		<tag k="ssr:stedsnr" v="311218" />
	</node>
	<node lat="61.16823055647512" lon="11.226833330359367" id="-48986">
		<tag k="alt_name" v="Engulfsfjellet;Engulsfjellet" />
		<tag k="fixme" v="consider natural=peak for the most distinct mountains in the district" />
		<tag k="name" v="Engulvsfjellet" />
		<tag k="natural" v="hill" />
		<tag k="place" v="locality" />
		<tag k="ssr:stedsnr" v="310442" />
	</node>
	<node lat="61.1739833304454" lon="11.21444999775842" id="-48991">
		<tag k="fixme" v="consider natural=peak for the most distinct mountains in the district" />
		<tag k="name" v="Granfjellet" />
		<tag k="natural" v="hill" />
		<tag k="place" v="locality" />
		<tag k="ssr:stedsnr" v="310425" />
	</node>
	<node lat="61.38179444490314" lon="11.31934166415524" id="-48995">
		<tag k="alt_name" v="Tøråsen" />
		<tag k="fixme" v="consider natural=peak for the most distinct mountains in the district" />
		<tag k="name" v="Tørråsen" />
		<tag k="natural" v="hill" />
		<tag k="place" v="locality" />
		<tag k="ssr:stedsnr" v="312043" />
	</node>
	<node lat="61.35375278132469" lon="11.445366668151472" id="-48996">
		<tag k="name" v="Granberget" />
		<tag k="natural" v="hill" />
		<tag k="place" v="locality" />
		<tag k="ssr:stedsnr" v="312055" />
	</node>
	<node lat="61.306591666812125" lon="11.865652781689995" id="-49008">
		<tag k="name" v="Andershaugen" />
		<tag k="natural" v="hill" />
		<tag k="place" v="locality" />
		<tag k="ssr:stedsnr" v="311650" />
	</node>
	<node lat="61.2753861125759" lon="11.402341665380247" id="-49014">
		<tag k="fixme" v="consider natural=peak for the most distinct mountains in the district" />
		<tag k="name" v="Neveråsen" />
		<tag k="natural" v="hill" />
		<tag k="place" v="locality" />
		<tag k="ssr:stedsnr" v="312234" />
	</node>
	<node lat="61.19666944612009" lon="11.259174992657456" id="-49017">
		<tag k="name" v="Hovdlia" />
		<tag k="natural" v="slope" />
		<tag k="place" v="locality" />
		<tag k="ssr:stedsnr" v="324158" />
	</node>
	<node lat="61.125527780957476" lon="11.258802775758157" id="-49018">
		<tag k="name" v="Søndre Skramstadberget" />
		<tag k="natural" v="hill" />
		<tag k="place" v="locality" />
		<tag k="ssr:stedsnr" v="324161" />
	</node>
	<node lat="61.30351666938833" lon="11.442052775119189" id="-49032">
		<tag k="name" v="Båthusmoen" />
		<tag k="place" v="locality" />
		<tag k="ssr:stedsnr" v="358527" />
	</node>
	<node lat="61.04551944404825" lon="11.412116658142278" id="-49045">
		<tag k="name" v="Bjørnberget" />
		<tag k="natural" v="hill" />
		<tag k="place" v="locality" />
		<tag k="ssr:stedsnr" v="362233" />
	</node>
	<node lat="61.405708334793125" lon="11.529400003735676" id="-49054">
		<tag k="fixme" v="consider natural=peak for the most distinct mountains in the district" />
		<tag k="name" v="Vardhøgda" />
		<tag k="natural" v="hill" />
		<tag k="place" v="locality" />
		<tag k="ssr:stedsnr" v="371134" />
	</node>
	<node lat="61.339680559432466" lon="11.74431944230025" id="-49084">
		<tag k="name" v="Sollihøgda" />
		<tag k="natural" v="hill" />
		<tag k="place" v="locality" />
		<tag k="ssr:stedsnr" v="371821" />
	</node>
	<node lat="61.34202777901948" lon="11.56824445003415" id="-49085">
		<tag k="alt_name" v="Hemfjellet" />
		<tag k="fixme" v="consider natural=peak for the most distinct mountains in the district" />
		<tag k="name" v="Heimfjellet" />
		<tag k="natural" v="hill" />
		<tag k="place" v="locality" />
		<tag k="ssr:stedsnr" v="371824" />
	</node>
	<node lat="61.35938333744932" lon="11.591355563323125" id="-49088">
		<tag k="alt_name" v="Skarhaugen" />
		<tag k="name" v="Skardhaugen" />
		<tag k="natural" v="hill" />
		<tag k="place" v="locality" />
		<tag k="ssr:stedsnr" v="371838" />
	</node>
	<node lat="61.303361113594605" lon="11.584058341357414" id="-49090">
		<tag k="fixme" v="consider natural=peak for the most distinct mountains in the district" />
		<tag k="name" v="Jernskallen" />
		<tag k="natural" v="hill" />
		<tag k="place" v="locality" />
		<tag k="ssr:stedsnr" v="371848" />
	</node>
	<node lat="61.14045000386371" lon="11.270422227492235" id="-49098">
		<tag k="name" v="Nordre Skramstadberget" />
		<tag k="natural" v="slope" />
		<tag k="place" v="locality" />
		<tag k="ssr:stedsnr" v="384168" />
	</node>
	<node lat="61.077249997019436" lon="11.348869453292547" id="-49102">
		<tag k="name" v="Møllerbakken" />
		<tag k="natural" v="slope" />
		<tag k="place" v="locality" />
		<tag k="ssr:stedsnr" v="404339" />
	</node>
	<node lat="61.35432499743595" lon="11.619102783431739" id="-49107">
		<tag k="name" v="Fuglhaugen" />
		<tag k="natural" v="hill" />
		<tag k="place" v="locality" />
		<tag k="ssr:stedsnr" v="406787" />
	</node>
	<node lat="61.09781388808661" lon="11.155669451004208" id="-49113">
		<tag k="fixme" v="consider natural=peak for the most distinct mountains in the district" />
		<tag k="name" v="Djuphaugen" />
		<tag k="natural" v="hill" />
		<tag k="place" v="locality" />
		<tag k="ssr:stedsnr" v="420932" />
	</node>
	<node lat="61.342313891125976" lon="11.506300000050633" id="-49117">
		<tag k="name" v="Kudalen" />
		<tag k="natural" v="valley" />
		<tag k="place" v="locality" />
		<tag k="ssr:stedsnr" v="422709" />
	</node>
	<node lat="61.10475555927898" lon="11.211838881021018" id="-49122">
		<tag k="name" v="Svartådalen" />
		<tag k="natural" v="valley" />
		<tag k="place" v="locality" />
		<tag k="ssr:stedsnr" v="423020" />
	</node>
	<node lat="61.402516666086264" lon="11.812475002854047" id="-49130">
		<tag k="alt_name" v="Tøregga" />
		<tag k="fixme" v="consider natural=peak for the most distinct mountains in the district" />
		<tag k="name" v="Tørregga" />
		<tag k="natural" v="hill" />
		<tag k="place" v="locality" />
		<tag k="ssr:stedsnr" v="432129" />
	</node>
	<node lat="61.29140555760514" lon="11.517975000945412" id="-49152">
		<tag k="fixme" v="consider natural=peak for the most distinct mountains in the district" />
		<tag k="name" v="Deifjellet" />
		<tag k="natural" v="hill" />
		<tag k="place" v="locality" />
		<tag k="ssr:stedsnr" v="432765" />
	</node>
	<node lat="61.434394448944815" lon="11.712630548246961" id="-49160">
		<tag k="name" v="Osdalen" />
		<tag k="natural" v="valley" />
		<tag k="place" v="locality" />
		<tag k="ssr:stedsnr" v="433154" />
	</node>
	<node lat="61.276497220257404" lon="11.553541659149332" id="-49165">
		<tag k="alt_name" v="Tøråsen" />
		<tag k="fixme" v="consider natural=peak for the most distinct mountains in the district" />
		<tag k="name" v="Tørråsen" />
		<tag k="natural" v="hill" />
		<tag k="place" v="locality" />
		<tag k="ssr:stedsnr" v="495782" />
	</node>
	<node lat="61.13452777652865" lon="11.260427773879407" id="-49171">
		<tag k="name" v="Bjønnåtslet" />
		<tag k="place" v="locality" />
		<tag k="ssr:stedsnr" v="525256" />
	</node>
	<node lat="61.15454166911622" lon="11.412655553883184" id="-49174">
		<tag k="name" v="Storhaugen" />
		<tag k="natural" v="hill" />
		<tag k="place" v="locality" />
		<tag k="ssr:stedsnr" v="526648" />
	</node>
	<node lat="61.32860833199208" lon="11.519105556291217" id="-49190">
		<tag k="name" v="Vakkerbrenna" />
		<tag k="natural" v="hill" />
		<tag k="place" v="locality" />
		<tag k="ssr:stedsnr" v="540548" />
	</node>
	<node lat="61.19946944302713" lon="11.654836115825864" id="-49195">
		<tag k="fixme" v="consider natural=peak for the most distinct mountains in the district" />
		<tag k="name" v="Midtåsen" />
		<tag k="natural" v="hill" />
		<tag k="place" v="locality" />
		<tag k="ssr:stedsnr" v="544852" />
	</node>
	<node lat="61.387661109315715" lon="11.46967778255148" id="-49198">
		<tag k="fixme" v="consider natural=peak for the most distinct mountains in the district" />
		<tag k="name" v="Sæteråsen" />
		<tag k="natural" v="hill" />
		<tag k="place" v="locality" />
		<tag k="ssr:stedsnr" v="543744" />
	</node>
	<node lat="61.06048611345883" lon="11.30853888211729" id="-49200">
		<tag k="name" v="Sleppa" />
		<tag k="natural" v="valley" />
		<tag k="place" v="locality" />
		<tag k="ssr:stedsnr" v="544105" />
	</node>
	<node lat="61.16573611118201" lon="11.149169450778079" id="-49208">
		<tag k="fixme" v="consider natural=peak for the most distinct mountains in the district" />
		<tag k="name" v="Dølfjellet" />
		<tag k="natural" v="hill" />
		<tag k="place" v="locality" />
		<tag k="ssr:stedsnr" v="552461" />
	</node>
	<node lat="61.17449999756177" lon="11.270802780865528" id="-49209">
		<tag k="fixme" v="consider natural=peak for the most distinct mountains in the district" />
		<tag k="name" v="Digeråsen" />
		<tag k="natural" v="hill" />
		<tag k="place" v="locality" />
		<tag k="ssr:stedsnr" v="552464" />
	</node>
	<node lat="61.13087499891868" lon="11.623047221734872" id="-49214">
		<tag k="name" v="Djupdalen" />
		<tag k="natural" v="valley" />
		<tag k="place" v="locality" />
		<tag k="ssr:stedsnr" v="553121" />
	</node>
	<node lat="61.132125004139205" lon="11.607455559392069" id="-49215">
		<tag k="fixme" v="consider natural=peak for the most distinct mountains in the district" />
		<tag k="name" v="Godåsen" />
		<tag k="natural" v="hill" />
		<tag k="place" v="locality" />
		<tag k="ssr:stedsnr" v="553123" />
	</node>
	<node lat="61.23184999797837" lon="11.783900006915452" id="-49219">
		<tag k="fixme" v="multiple name tags, choose one and add the other to alt_name; consider natural=peak for the most distinct mountains in the district" />
		<tag k="name" v="Granåsen;Slåttmyråsen" />
		<tag k="natural" v="hill" />
		<tag k="place" v="locality" />
		<tag k="ssr:stedsnr" v="554338" />
	</node>
	<node lat="61.324674997471675" lon="11.583533331979027" id="-49227">
		<tag k="fixme" v="consider natural=peak for the most distinct mountains in the district" />
		<tag k="name" v="Raudfjellet" />
		<tag k="natural" v="hill" />
		<tag k="place" v="locality" />
		<tag k="ssr:stedsnr" v="553876" />
	</node>
	<node lat="61.45991111071751" lon="11.517750001150814" id="-49230">
		<tag k="name" v="Pottbekkdalen" />
		<tag k="natural" v="valley" />
		<tag k="place" v="locality" />
		<tag k="ssr:stedsnr" v="554222" />
	</node>
	<node lat="61.25900833238098" lon="11.885005564586997" id="-49232">
		<tag k="name" v="Brattberget" />
		<tag k="natural" v="hill" />
		<tag k="place" v="locality" />
		<tag k="ssr:stedsnr" v="554563" />
	</node>
	<node lat="61.04373611340122" lon="11.33173333287399" id="-49240">
		<tag k="name" v="Lemyrmoen" />
		<tag k="natural" v="hill" />
		<tag k="place" v="locality" />
		<tag k="ssr:stedsnr" v="586181" />
	</node>
	<node lat="61.04993611248349" lon="11.333963882441372" id="-49241">
		<tag k="name" v="Stormyrdalen" />
		<tag k="natural" v="valley" />
		<tag k="place" v="locality" />
		<tag k="ssr:stedsnr" v="586183" />
	</node>
	<node lat="61.395486113151414" lon="11.580866669979223" id="-49244">
		<tag k="name" v="Luvdalen" />
		<tag k="natural" v="valley" />
		<tag k="place" v="locality" />
		<tag k="ssr:stedsnr" v="587955" />
	</node>
	<node lat="61.218969446127055" lon="11.507716662070427" id="-49246">
		<tag k="fixme" v="consider natural=peak for the most distinct mountains in the district" />
		<tag k="name" v="Kjøllsæterberget" />
		<tag k="natural" v="hill" />
		<tag k="place" v="locality" />
		<tag k="ssr:stedsnr" v="588579" />
	</node>
	<node lat="61.07550555115755" lon="11.341405558700812" id="-49256">
		<tag k="name" v="Bakkegga" />
		<tag k="natural" v="slope" />
		<tag k="place" v="locality" />
		<tag k="ssr:stedsnr" v="601282" />
	</node>
	<node lat="61.156330556499505" lon="11.441094448685345" id="-49261">
		<tag k="name" v="Gjesliberget" />
		<tag k="natural" v="hill" />
		<tag k="place" v="locality" />
		<tag k="ssr:stedsnr" v="601863" />
	</node>
	<node lat="61.08836666533617" lon="11.266519451720653" id="-49262">
		<tag k="name" v="Lemyrberget" />
		<tag k="natural" v="hill" />
		<tag k="place" v="locality" />
		<tag k="ssr:stedsnr" v="603083" />
	</node>
	<node lat="61.3422527788331" lon="11.500077782284038" id="-49265">
		<tag k="name" v="Kråkbærhaugen" />
		<tag k="natural" v="hill" />
		<tag k="place" v="locality" />
		<tag k="ssr:stedsnr" v="603686" />
	</node>
	<node lat="61.22659444863991" lon="11.76270000025539" id="-49266">
		<tag k="name" v="Avlundshølet" />
		<tag k="natural" v="valley" />
		<tag k="place" v="locality" />
		<tag k="ssr:stedsnr" v="603943" />
	</node>
	<node lat="61.062475003708386" lon="11.25571943740657" id="-49267">
		<tag k="name" v="Tverrteighøgda" />
		<tag k="natural" v="hill" />
		<tag k="place" v="locality" />
		<tag k="ssr:stedsnr" v="604137" />
	</node>
	<node lat="61.0438111156714" lon="11.270105552681956" id="-49269">
		<tag k="name" v="Gitvolshaldet" />
		<tag k="natural" v="slope" />
		<tag k="place" v="locality" />
		<tag k="ssr:stedsnr" v="604995" />
	</node>
	<node lat="61.057333329559846" lon="11.296519444996543" id="-49270">
		<tag k="name" v="Kongshaugen" />
		<tag k="natural" v="hill" />
		<tag k="place" v="locality" />
		<tag k="ssr:stedsnr" v="604996" />
	</node>
	<node lat="61.35667778179165" lon="11.698430555674674" id="-49271">
		<tag k="name" v="Løvlia" />
		<tag k="natural" v="slope" />
		<tag k="place" v="locality" />
		<tag k="ssr:stedsnr" v="605210" />
	</node>
	<node lat="61.37261389169574" lon="11.78944722115596" id="-49272">
		<tag k="fixme" v="consider natural=peak for the most distinct mountains in the district" />
		<tag k="name" v="Fuglåsen" />
		<tag k="natural" v="hill" />
		<tag k="place" v="locality" />
		<tag k="ssr:stedsnr" v="605212" />
	</node>
	<node lat="61.43086944688027" lon="11.506911111997454" id="-49274">
		<tag k="name" v="Magget" />
		<tag k="place" v="locality" />
		<tag k="ssr:stedsnr" v="605723" />
	</node>
	<node lat="61.42050833282923" lon="11.503147216965852" id="-49275">
		<tag k="name" v="Bjørndalen" />
		<tag k="natural" v="valley" />
		<tag k="place" v="locality" />
		<tag k="ssr:stedsnr" v="605725" />
	</node>
	<node lat="61.05323889175008" lon="11.307805564676878" id="-49279">
		<tag k="alt_name" v="Kletten, s" />
		<tag k="fixme" v="consider natural=peak for the most distinct mountains in the district" />
		<tag k="name" v="Søndre Kletten" />
		<tag k="natural" v="hill" />
		<tag k="place" v="locality" />
		<tag k="ssr:stedsnr" v="613245" />
	</node>
	<node lat="61.13693610927313" lon="11.625577779009518" id="-49286">
		<tag k="name" v="Rolighaugen" />
		<tag k="natural" v="hill" />
		<tag k="place" v="locality" />
		<tag k="ssr:stedsnr" v="614141" />
	</node>
	<node lat="61.4034083327939" lon="11.398533326235048" id="-49306">
		<tag k="fixme" v="consider natural=peak for the most distinct mountains in the district" />
		<tag k="name" v="Glesåkampen" />
		<tag k="natural" v="hill" />
		<tag k="place" v="locality" />
		<tag k="ssr:stedsnr" v="615080" />
	</node>
	<node lat="61.33210555676652" lon="11.34566665974262" id="-49308">
		<tag k="fixme" v="consider natural=peak for the most distinct mountains in the district" />
		<tag k="name" v="Fugleåsen" />
		<tag k="natural" v="hill" />
		<tag k="place" v="locality" />
		<tag k="ssr:stedsnr" v="616774" />
	</node>
	<node lat="61.09295555816565" lon="11.411147228672572" id="-49317">
		<tag k="loc_name" v="Julgrashaugen" />
		<tag k="name" v="Hjulgrashaugen" />
		<tag k="natural" v="hill" />
		<tag k="place" v="locality" />
		<tag k="ssr:stedsnr" v="648379" />
	</node>
	<node lat="61.106430551260615" lon="11.149558340976322" id="-49320">
		<tag k="fixme" v="consider natural=peak for the most distinct mountains in the district" />
		<tag k="name" v="Holmberget" />
		<tag k="natural" v="hill" />
		<tag k="place" v="locality" />
		<tag k="ssr:stedsnr" v="648938" />
	</node>
	<node lat="61.308605558758835" lon="11.489202772118366" id="-49325">
		<tag k="name" v="Satan" />
		<tag k="place" v="locality" />
		<tag k="ssr:stedsnr" v="661502" />
	</node>
	<node lat="61.06345833338582" lon="11.34402222215121" id="-49328">
		<tag k="name" v="Revhiberget" />
		<tag k="natural" v="hill" />
		<tag k="place" v="locality" />
		<tag k="ssr:stedsnr" v="662172" />
	</node>
	<node lat="61.20213610839069" lon="11.214688891175165" id="-49333">
		<tag k="name" v="Torestronget" />
		<tag k="natural" v="gorge" />
		<tag k="ssr:stedsnr" v="664449" />
	</node>
	<node lat="61.029716666281935" lon="11.335683324842464" id="-49336">
		<tag k="name" v="Spikerudsberget" />
		<tag k="natural" v="hill" />
		<tag k="place" v="locality" />
		<tag k="ssr:stedsnr" v="665262" />
	</node>
	<node lat="61.02531388927949" lon="11.342758339374523" id="-49337">
		<tag k="name" v="Turtdalen" />
		<tag k="natural" v="valley" />
		<tag k="place" v="locality" />
		<tag k="ssr:stedsnr" v="665264" />
	</node>
	<node lat="61.31211388845626" lon="11.37035000126586" id="-49343">
		<tag k="name" v="Skjærveggen" />
		<tag k="natural" v="hill" />
		<tag k="place" v="locality" />
		<tag k="ssr:stedsnr" v="722871" />
	</node>
	<node lat="61.20568332965303" lon="11.367658341482374" id="-49354">
		<tag k="name" v="Bjønnåtsle" />
		<tag k="natural" v="hill" />
		<tag k="place" v="locality" />
		<tag k="ssr:stedsnr" v="726635" />
	</node>
	<node lat="61.11017500140623" lon="11.50716665769177" id="-49358">
		<tag k="name" v="Kvernhaugen" />
		<tag k="natural" v="hill" />
		<tag k="place" v="locality" />
		<tag k="ssr:stedsnr" v="727957" />
	</node>
	<node lat="61.10342777424121" lon="11.497561114099593" id="-49359">
		<tag k="name" v="Skytterkollen" />
		<tag k="natural" v="hill" />
		<tag k="place" v="locality" />
		<tag k="ssr:stedsnr" v="727959" />
	</node>
	<node lat="61.17250832994535" lon="11.703599991499532" id="-49364">
		<tag k="fixme" v="consider natural=peak for the most distinct mountains in the district" />
		<tag k="name" v="Otteråsen" />
		<tag k="natural" v="hill" />
		<tag k="place" v="locality" />
		<tag k="ssr:stedsnr" v="735365" />
	</node>
	<node lat="61.33032778080532" lon="11.593980562062152" id="-49379">
		<tag k="fixme" v="consider natural=peak for the most distinct mountains in the district" />
		<tag k="name" v="Ekornåsen" />
		<tag k="natural" v="hill" />
		<tag k="place" v="locality" />
		<tag k="ssr:stedsnr" v="735861" />
	</node>
	<node lat="61.3980722178821" lon="11.427080549733214" id="-49380">
		<tag k="alt_name" v="Stubberget, Nørdre;Nordre Stubberget" />
		<tag k="name" v="Nørdre Stubberget" />
		<tag k="natural" v="hill" />
		<tag k="place" v="locality" />
		<tag k="ssr:stedsnr" v="736043" />
	</node>
	<node lat="61.13019440965739" lon="11.60016324057859" id="-49384">
		<tag k="fixme" v="multiple name tags, choose one and add the other to alt_name" />
		<tag k="name" v="Knappkjølshaugen;Butjennhøgda" />
		<tag k="natural" v="hill" />
		<tag k="place" v="locality" />
		<tag k="ssr:stedsnr" v="736140" />
	</node>
	<node lat="61.27807500424575" lon="11.426319452488903" id="-49385">
		<tag k="fixme" v="consider natural=peak for the most distinct mountains in the district" />
		<tag k="name" v="Kolbuåsen" />
		<tag k="natural" v="hill" />
		<tag k="place" v="locality" />
		<tag k="ssr:stedsnr" v="736252" />
	</node>
	<node lat="61.27881666306711" lon="11.88889723069766" id="-49393">
		<tag k="alt_name" v="Sisselknollen" />
		<tag k="name" v="Sissilknollen" />
		<tag k="natural" v="hill" />
		<tag k="place" v="locality" />
		<tag k="ssr:stedsnr" v="736500" />
	</node>
	<node lat="61.45747499951691" lon="11.803469442079777" id="-49397">
		<tag k="alt_name" v="Blekufjellet" />
		<tag k="fixme" v="consider natural=peak for the most distinct mountains in the district" />
		<tag k="name" v="Blikufjellet" />
		<tag k="natural" v="hill" />
		<tag k="place" v="locality" />
		<tag k="ssr:stedsnr" v="736954" />
	</node>
	<node lat="61.240091665250375" lon="11.14988056441158" id="-49400">
		<tag k="name" v="Gjetdalen" />
		<tag k="natural" v="valley" />
		<tag k="place" v="locality" />
		<tag k="ssr:stedsnr" v="889777" />
	</node>
	<node lat="61.16371389316339" lon="11.408730552339023" id="-49404">
		<tag k="name" v="Dulpmoen" />
		<tag k="place" v="locality" />
		<tag k="ssr:stedsnr" v="769621" />
	</node>
	<node lat="61.15052499745478" lon="11.395911105418861" id="-49405">
		<tag k="name" v="Gardskoia" />
		<tag k="place" v="locality" />
		<tag k="ssr:stedsnr" v="769627" />
	</node>
	<node lat="61.09931666271881" lon="11.173674997992718" id="-49420">
		<tag k="name" v="Vikenhaugen" />
		<tag k="natural" v="hill" />
		<tag k="place" v="locality" />
		<tag k="ssr:stedsnr" v="784934" />
	</node>
	<node lat="61.41251666906219" lon="11.472958330313695" id="-49441">
		<tag k="alt_name" v="Hemfjellet" />
		<tag k="fixme" v="consider natural=peak for the most distinct mountains in the district" />
		<tag k="name" v="Heimfjellet" />
		<tag k="natural" v="hill" />
		<tag k="place" v="locality" />
		<tag k="ssr:stedsnr" v="796173" />
	</node>
	<node lat="61.19357499909042" lon="11.71292500467754" id="-49447">
		<tag k="fixme" v="multiple name tags, choose one and add the other to alt_name; consider natural=peak for the most distinct mountains in the district" />
		<tag k="name" v="Nysæteråsen;Lauvåsen" />
		<tag k="natural" v="hill" />
		<tag k="place" v="locality" />
		<tag k="ssr:stedsnr" v="796353" />
	</node>
	<node lat="61.41903889246821" lon="11.512377778188817" id="-49465">
		<tag k="alt_name" v="Stenfjellet" />
		<tag k="fixme" v="consider natural=peak for the most distinct mountains in the district" />
		<tag k="name" v="Steinfjellet" />
		<tag k="natural" v="hill" />
		<tag k="place" v="locality" />
		<tag k="ssr:stedsnr" v="797183" />
	</node>
	<node lat="61.822502776841596" lon="11.131394452955943" id="-49474">
		<tag k="name" v="Rendalen" />
		<tag k="natural" v="valley" />
		<tag k="place" v="locality" />
		<tag k="ssr:stedsnr" v="814461" />
	</node>
	<node lat="61.07566389326717" lon="11.39674721378792" id="-49476">
		<tag k="fixme" v="consider natural=peak for the most distinct mountains in the district" />
		<tag k="name" v="Harptjennsberget" />
		<tag k="natural" v="hill" />
		<tag k="place" v="locality" />
		<tag k="ssr:stedsnr" v="830329" />
	</node>
	<node lat="61.32614721890769" lon="11.423299998034688" id="-49488">
		<tag k="name" v="Raudhammeren" />
		<tag k="natural" v="hill" />
		<tag k="place" v="locality" />
		<tag k="ssr:stedsnr" v="844522" />
	</node>
	<node lat="61.37603888733644" lon="11.793400006682843" id="-49497">
		<tag k="fixme" v="consider natural=peak for the most distinct mountains in the district" />
		<tag k="name" v="Skjæråsen" />
		<tag k="natural" v="hill" />
		<tag k="place" v="locality" />
		<tag k="ssr:stedsnr" v="848202" />
	</node>
	<node lat="61.18184444136013" lon="11.162641673505806" id="-49500">
		<tag k="name" v="Knøsa" />
		<tag k="natural" v="slope" />
		<tag k="place" v="locality" />
		<tag k="ssr:stedsnr" v="848991" />
	</node>
	<node lat="61.081208337355605" lon="11.500594441553659" id="-49502">
		<tag k="name" v="Vestre Kalvtjenndalen" />
		<tag k="natural" v="valley" />
		<tag k="place" v="locality" />
		<tag k="ssr:stedsnr" v="848935" />
	</node>
	<node lat="61.17680555615792" lon="11.16082222266575" id="-49505">
		<tag k="fixme" v="consider natural=peak for the most distinct mountains in the district" />
		<tag k="name" v="Gilderåsen" />
		<tag k="natural" v="hill" />
		<tag k="place" v="locality" />
		<tag k="ssr:stedsnr" v="856476" />
	</node>
	<node lat="61.40362500313663" lon="11.58222221822166" id="-49510">
		<tag k="fixme" v="consider natural=peak for the most distinct mountains in the district" />
		<tag k="name" v="Luvdalsåsen" />
		<tag k="natural" v="hill" />
		<tag k="place" v="locality" />
		<tag k="ssr:stedsnr" v="857146" />
	</node>
	<node lat="61.17585000392286" lon="11.592450008462603" id="-49518">
		<tag k="name" v="Venberget" />
		<tag k="natural" v="hill" />
		<tag k="place" v="locality" />
		<tag k="ssr:stedsnr" v="857395" />
	</node>
	<node lat="61.1727249988205" lon="11.622500004784449" id="-49519">
		<tag k="alt_name" v="Løvåsen" />
		<tag k="fixme" v="consider natural=peak for the most distinct mountains in the district" />
		<tag k="name" v="Lauvåsen" />
		<tag k="natural" v="hill" />
		<tag k="place" v="locality" />
		<tag k="ssr:stedsnr" v="857477" />
	</node>
	<node lat="61.349288890006804" lon="11.718186114118371" id="-49522">
		<tag k="alt_name" v="Neskampen, søre;Søndre Neskampen" />
		<tag k="fixme" v="consider natural=peak for the most distinct mountains in the district" />
		<tag k="name" v="Søre Neskampen" />
		<tag k="natural" v="hill" />
		<tag k="place" v="locality" />
		<tag k="ssr:stedsnr" v="857833" />
	</node>
	<node lat="61.19401111138892" lon="11.16866944330676" id="-49541">
		<tag k="fixme" v="consider natural=peak for the most distinct mountains in the district" />
		<tag k="name" v="Bjørnberget" />
		<tag k="natural" v="hill" />
		<tag k="place" v="locality" />
		<tag k="ssr:stedsnr" v="950794" />
	</node>
	<node lat="61.07883611180375" lon="11.381269441481527" id="-49542">
		<tag k="name" v="Nordre Oksdalen" />
		<tag k="natural" v="valley" />
		<tag k="place" v="locality" />
		<tag k="ssr:stedsnr" v="951322" />
	</node>
	<node lat="61.16442777905971" lon="11.433958335280897" id="-49544">
		<tag k="name" v="Sveegga" />
		<tag k="natural" v="slope" />
		<tag k="place" v="locality" />
		<tag k="ssr:stedsnr" v="952883" />
	</node>
	<node lat="61.061224997221345" lon="11.339997229918813" id="-49551">
		<tag k="name" v="Turudalen" />
		<tag k="natural" v="valley" />
		<tag k="place" v="locality" />
		<tag k="ssr:stedsnr" v="966176" />
	</node>
	<node lat="61.11898610767499" lon="11.385202770266647" id="-49553">
		<tag k="name" v="Olastudalen" />
		<tag k="natural" v="valley" />
		<tag k="place" v="locality" />
		<tag k="ssr:stedsnr" v="966477" />
	</node>
	<node lat="61.34719166681873" lon="11.50249721441671" id="-49556">
		<tag k="name" v="Grønnbakken" />
		<tag k="natural" v="slope" />
		<tag k="place" v="locality" />
		<tag k="ssr:stedsnr" v="967677" />
	</node>
	<node lat="61.45629444001121" lon="11.636416666794036" id="-49557">
		<tag k="name" v="Sæterlia" />
		<tag k="natural" v="slope" />
		<tag k="place" v="locality" />
		<tag k="ssr:stedsnr" v="967873" />
	</node>
	<node lat="61.08376388970458" lon="11.437761102120874" id="-49564">
		<tag k="name" v="Halvfarmoen" />
		<tag k="place" v="locality" />
		<tag k="ssr:stedsnr" v="969938" />
	</node>
</osm>
