<?xml version="1.0" encoding="UTF-8"?>
<<<<<<< HEAD
<osm version="0.6" generator="osmapis">
	<node lat="61.303533332968726" lon="11.460188897251626" id="-15095">
=======
<osm generator="osmapis" version="0.6">
	<node id="-339903" lat="61.1302250009" lon="11.3078166655">
		<tag k="amenity" v="community_centre" />
		<tag k="name" v="Klingen" />
		<tag k="ssr:stedsnr" v="796447" />
	</node>
	<node id="-340317" lat="61.3001741797" lon="11.7627489818">
		<tag k="amenity" v="place_of_worship" />
		<tag k="denomination" v="lutheran" />
		<tag k="name" v="Nordre Osen kirke" />
		<tag k="religion" v="christian" />
		<tag k="ssr:stedsnr" v="189736" />
	</node>
	<node id="-340060" lat="61.303533333" lon="11.4601888973">
		<tag k="amenity" v="place_of_worship" />
		<tag k="denomination" v="lutheran" />
		<tag k="name" v="Deset kirke" />
		<tag k="religion" v="christian" />
		<tag k="ssr:stedsnr" v="8257" />
	</node>
	<node id="-339428" lat="61.3011277792" lon="11.7616083355">
		<tag k="amenity" v="community_centre" />
		<tag k="name" v="Skogskole" />
		<tag k="ssr:stedsnr" v="371773" />
	</node>
	<node id="-340688" lat="61.3009305579" lon="11.7629555575">
>>>>>>> e1d4bc35ff8a6074a6f2e91616a996b547c36f15
		<tag k="amenity" v="place_of_worship" />
		<tag k="denomination" v="lutheran" />
		<tag k="name" v="Deset kirke" />
		<tag k="religion" v="christian" />
<<<<<<< HEAD
		<tag k="ssr:stedsnr" v="8257" />
	</node>
	<node lat="61.301127779208706" lon="11.761608335511363" id="-15439">
		<tag k="amenity" v="community_centre" />
		<tag k="name" v="Skogskole" />
		<tag k="ssr:stedsnr" v="371773" />
	</node>
	<node lat="61.424994440119924" lon="11.710455552400482" id="-15476">
=======
		<tag k="ssr:stedsnr" v="603667" />
	</node>
	<node id="-340966" lat="61.2457361082" lon="11.7478722161">
		<tag k="amenity" v="community_centre" />
		<tag k="name" v="Haugtun" />
		<tag k="ssr:stedsnr" v="965911" />
	</node>
	<node id="-339333" lat="61.4249944401" lon="11.7104555524">
>>>>>>> e1d4bc35ff8a6074a6f2e91616a996b547c36f15
		<tag k="amenity" v="community_centre" />
		<tag k="name" v="Bruvang" />
		<tag k="ssr:stedsnr" v="483341" />
	</node>
<<<<<<< HEAD
	<node lat="61.13389999835217" lon="11.372613885898966" id="-15562">
=======
	<node id="-339556" lat="61.1338999984" lon="11.3726138859">
>>>>>>> e1d4bc35ff8a6074a6f2e91616a996b547c36f15
		<tag k="amenity" v="place_of_worship" />
		<tag k="denomination" v="lutheran" />
		<tag k="name" v="Åmot kirke" />
		<tag k="religion" v="christian" />
		<tag k="ssr:stedsnr" v="674424" />
	</node>
<<<<<<< HEAD
	<node lat="61.07340277946376" lon="11.343902781759548" id="-15755">
		<tag k="amenity" v="community_centre" />
		<tag k="name" v="Åstvang" />
		<tag k="ssr:stedsnr" v="662303" />
	</node>
	<node lat="61.077036113499574" lon="11.3692444503888" id="-15818">
		<tag k="amenity" v="community_centre" />
		<tag k="name" v="Fossheim" />
		<tag k="ssr:stedsnr" v="708371" />
	</node>
	<node lat="61.24573610824502" lon="11.747872216143815" id="-16097">
		<tag k="amenity" v="community_centre" />
		<tag k="name" v="Haugtun" />
		<tag k="ssr:stedsnr" v="965911" />
	</node>
	<node lat="61.30017417970258" lon="11.762748981816248" id="-16340">
		<tag k="amenity" v="place_of_worship" />
		<tag k="denomination" v="lutheran" />
		<tag k="name" v="Nordre Osen kirke" />
		<tag k="religion" v="christian" />
		<tag k="ssr:stedsnr" v="189736" />
	</node>
	<node lat="61.26467500251758" lon="11.47331388187616" id="-16574">
		<tag k="name" v="Kvarven" />
		<tag k="place" v="locality" />
		<tag k="ssr:stedsnr" v="432744" />
	</node>
	<node lat="61.30093055793843" lon="11.762955557493587" id="-16686">
		<tag k="amenity" v="place_of_worship" />
		<tag k="denomination" v="lutheran" />
		<tag k="name" v="Nordre Osen gamle kirke" />
		<tag k="religion" v="christian" />
		<tag k="ssr:stedsnr" v="603667" />
	</node>
	<node lat="61.130225000874205" lon="11.307816665511965" id="-16868">
		<tag k="amenity" v="community_centre" />
		<tag k="name" v="Klingen" />
		<tag k="ssr:stedsnr" v="796447" />
=======
	<node id="-339622" lat="61.0770361135" lon="11.3692444504">
		<tag k="amenity" v="community_centre" />
		<tag k="name" v="Fossheim" />
		<tag k="ssr:stedsnr" v="708371" />
	</node>
	<node id="-339746" lat="61.0734027795" lon="11.3439027818">
		<tag k="amenity" v="community_centre" />
		<tag k="name" v="Åstvang" />
		<tag k="ssr:stedsnr" v="662303" />
>>>>>>> e1d4bc35ff8a6074a6f2e91616a996b547c36f15
	</node>
</osm>
