<?xml version="1.0" encoding="UTF-8"?>
<osm generator="osmapis" version="0.6">
	<node id="-40953" lat="61.0464027775" lon="11.3015111197">
		<tag k="name" v="Gita" />
		<tag k="ssr:stedsnr" v="310275" />
		<tag k="waterway" v="stream" />
	</node>
	<node id="-40951" lat="61.2635999981" lon="11.8753027827">
		<tag k="name" v="Fuglsandbekken" />
		<tag k="ssr:stedsnr" v="312540" />
		<tag k="waterway" v="stream" />
	</node>
	<node id="-40949" lat="61.1382500006" lon="11.2305500025">
		<tag k="name" v="Åsmortjennet" />
		<tag k="natural" v="water" />
		<tag k="ssr:stedsnr" v="302285" />
	</node>
	<node id="-40947" lat="61.0469166663" lon="11.2915555612">
		<tag k="name" v="Fossbekken" />
		<tag k="ssr:stedsnr" v="302141" />
		<tag k="waterway" v="stream" />
	</node>
	<node id="-40942" lat="61.1556945482" lon="11.3725660134">
		<tag k="name" v="Rødøya" />
		<tag k="place" v="islet" />
		<tag k="ssr:stedsnr" v="204975" />
	</node>
	<node id="-40938" lat="61.3297722194" lon="11.8676249965">
		<tag k="name" v="Risbekken" />
		<tag k="ssr:stedsnr" v="191552" />
		<tag k="waterway" v="stream" />
	</node>
	<node id="-40937" lat="61.4770722239" lon="11.4325388935">
		<tag k="alt_name" v="Nordre Slemma" />
		<tag k="name" v="Slemma" />
		<tag k="ssr:stedsnr" v="191083" />
		<tag k="waterway" v="river" />
	</node>
	<node id="-40933" lat="61.2056305585" lon="11.7340000027">
		<tag k="name" v="Butjennet" />
		<tag k="natural" v="water" />
		<tag k="ssr:stedsnr" v="190347" />
	</node>
	<node id="-40930" lat="61.2432083325" lon="11.7770499972">
		<tag k="name" v="Valmen" />
		<tag k="natural" v="water" />
		<tag k="ssr:stedsnr" v="190316" />
	</node>
	<node id="-40925" lat="61.0935999979" lon="11.5332027861">
		<tag k="name" v="Nubbekken" />
		<tag k="ssr:stedsnr" v="190193" />
		<tag k="waterway" v="stream" />
	</node>
	<node id="-40915" lat="61.3167277741" lon="11.6174666641">
		<tag k="alt_name" v="Hallfarbekken" />
		<tag k="name" v="Halvfarbekken" />
		<tag k="ssr:stedsnr" v="189822" />
		<tag k="waterway" v="stream" />
	</node>
	<node id="-40903" lat="61.1437147804" lon="11.6066379629">
		<tag k="name" v="Østersjøen" />
		<tag k="natural" v="water" />
		<tag k="ssr:stedsnr" v="189435" />
		<tag k="water" v="lake" />
	</node>
	<node id="-40902" lat="61.1340750028" lon="11.1487055578">
		<tag k="name" v="Svartåtjennet" />
		<tag k="natural" v="water" />
		<tag k="ssr:stedsnr" v="189431" />
	</node>
	<node id="-40901" lat="61.1405249992" lon="11.4309527794">
		<tag k="name" v="Lomtjennet" />
		<tag k="natural" v="water" />
		<tag k="ssr:stedsnr" v="189419" />
	</node>
	<node id="-40897" lat="61.1704416695" lon="11.2285972214">
		<tag k="name" v="Pålstjennet" />
		<tag k="natural" v="water" />
		<tag k="ssr:stedsnr" v="189398" />
	</node>
	<node id="-40896" lat="61.1682944465" lon="11.461377777">
		<tag k="name" v="Løpsjøen" />
		<tag k="natural" v="water" />
		<tag k="ssr:stedsnr" v="189394" />
		<tag k="water" v="lake" />
	</node>
	<node id="-40895" lat="61.1929611085" lon="11.2934194428">
		<tag k="name" v="Nybubekken" />
		<tag k="ssr:stedsnr" v="189388" />
		<tag k="waterway" v="stream" />
	</node>
	<node id="-40888" lat="61.0534833365" lon="11.2683666611">
		<tag k="name" v="Sætergita" />
		<tag k="ssr:stedsnr" v="180988" />
		<tag k="waterway" v="stream" />
	</node>
	<node id="-40885" lat="61.1079249996" lon="11.4590222293">
		<tag k="name" v="Furutangen" />
		<tag k="natural" v="cape" />
		<tag k="ssr:stedsnr" v="180944" />
	</node>
	<node id="-40881" lat="61.4138888851" lon="11.4836555587">
		<tag k="name" v="Storjota" />
		<tag k="natural" v="water" />
		<tag k="ssr:stedsnr" v="180745" />
		<tag k="water" v="pond" />
	</node>
	<node id="-40877" lat="61.3638388853" lon="11.4111861097">
		<tag k="name" v="Dulpen" />
		<tag k="natural" v="water" />
		<tag k="ssr:stedsnr" v="180547" />
	</node>
	<node id="-40876" lat="61.0367722203" lon="11.3335444385">
		<tag k="name" v="Lemyrbekken" />
		<tag k="ssr:stedsnr" v="180231" />
		<tag k="waterway" v="stream" />
	</node>
	<node id="-40873" lat="61.0924083339" lon="11.3659805611">
		<tag k="name" v="Stillelva" />
		<tag k="natural" v="water" />
		<tag k="ssr:stedsnr" v="180488" />
		<tag k="water" v="lake" />
	</node>
	<node id="-40861" lat="61.1553833344" lon="11.3387527843">
		<tag k="name" v="Hemsbekken" />
		<tag k="ssr:stedsnr" v="176365" />
		<tag k="waterway" v="stream" />
	</node>
	<node id="-40860" lat="61.1247583337" lon="11.3568027845">
		<tag k="name" v="Fossbekken" />
		<tag k="ssr:stedsnr" v="176361" />
		<tag k="waterway" v="stream" />
	</node>
	<node id="-40858" lat="61.1430166637" lon="11.3768305551">
		<tag k="name" v="Prestegårdsøya" />
		<tag k="place" v="islet" />
		<tag k="ssr:stedsnr" v="176351" />
	</node>
	<node id="-40852" lat="61.321450002" lon="11.8758805558">
		<tag k="name" v="Bjørbekkdammen" />
		<tag k="natural" v="water" />
		<tag k="ssr:stedsnr" v="161435" />
	</node>
	<node id="-40851" lat="61.3198249978" lon="11.7951583386">
		<tag k="name" v="Lorttjennet" />
		<tag k="natural" v="water" />
		<tag k="ssr:stedsnr" v="161434" />
	</node>
	<node id="-40840" lat="61.0988583311" lon="11.4990749997">
		<tag k="alt_name" v="Skyttera, l;Velt-Skyttera" />
		<tag k="loc_name" v="Veslskytra" />
		<tag k="name" v="Vesl-Skyttera" />
		<tag k="ssr:stedsnr" v="129198" />
		<tag k="waterway" v="stream" />
	</node>
	<node id="-40836" lat="61.4237111134" lon="11.7556555572">
		<tag k="alt_name" v="Risbekken, nordre" />
		<tag k="name" v="Nordre Risbekken" />
		<tag k="ssr:stedsnr" v="129195" />
		<tag k="waterway" v="stream" />
	</node>
	<node id="-40823" lat="61.3552638888" lon="11.4992333315">
		<tag k="name" v="Fløttjennet" />
		<tag k="natural" v="water" />
		<tag k="ssr:stedsnr" v="128827" />
	</node>
	<node id="-40816" lat="61.114641663" lon="11.1541805493">
		<tag k="name" v="Venbergtjennet" />
		<tag k="natural" v="water" />
		<tag k="ssr:stedsnr" v="128442" />
	</node>
	<node id="-40808" lat="61.2078694469" lon="11.3722749949">
		<tag k="name" v="Halvfarbekken" />
		<tag k="ssr:stedsnr" v="128377" />
		<tag k="waterway" v="stream" />
	</node>
	<node id="-40804" lat="61.0300194432" lon="11.3562944444">
		<tag k="name" v="Galåa" />
		<tag k="ssr:stedsnr" v="128246" />
		<tag k="waterway" v="stream" />
	</node>
	<node id="-40798" lat="61.0912500036" lon="11.4556888982">
		<tag k="name" v="Kanalen" />
		<tag k="ssr:stedsnr" v="120956" />
		<tag k="waterway" v="drain" />
	</node>
	<node id="-40796" lat="61.2004861094" lon="11.6132777759">
		<tag k="name" v="Toerbubekken" />
		<tag k="ssr:stedsnr" v="120840" />
		<tag k="waterway" v="stream" />
	</node>
	<node id="-40793" lat="61.0949083354" lon="11.2729361171">
		<tag k="name" v="Brennbekken" />
		<tag k="ssr:stedsnr" v="120097" />
		<tag k="waterway" v="stream" />
	</node>
	<node id="-40791" lat="61.0963666626" lon="11.2473972209">
		<tag k="name" v="Tierbekken" />
		<tag k="ssr:stedsnr" v="120016" />
		<tag k="waterway" v="stream" />
	</node>
	<node id="-40786" lat="61.3781055547" lon="11.4935972193">
		<tag k="name" v="Øvre Finnskjeggtjennet" />
		<tag k="natural" v="water" />
		<tag k="ssr:stedsnr" v="118736" />
	</node>
	<node id="-40785" lat="61.1898416681" lon="11.2771194488">
		<tag k="name" v="Pålsbekken" />
		<tag k="ssr:stedsnr" v="118422" />
		<tag k="waterway" v="stream" />
	</node>
	<node id="-40783" lat="61.1037944473" lon="11.4292027797">
		<tag k="name" v="Midtstykkebekken" />
		<tag k="ssr:stedsnr" v="117467" />
		<tag k="waterway" v="stream" />
	</node>
	<node id="-40779" lat="61.2461805528" lon="11.7424638927">
		<tag k="name" v="Osdammen" />
		<tag k="ssr:stedsnr" v="116893" />
		<tag k="waterway" v="dam" />
	</node>
	<node id="-40775" lat="61.3095388933" lon="11.4086138836">
		<tag k="name" v="Løvslettbekken" />
		<tag k="ssr:stedsnr" v="103606" />
		<tag k="waterway" v="stream" />
	</node>
	<node id="-40774" lat="61.1167055514" lon="11.1382138867">
		<tag k="name" v="Storbekktangen" />
		<tag k="natural" v="cape" />
		<tag k="ssr:stedsnr" v="102960" />
	</node>
	<node id="-40772" lat="61.1630000045" lon="11.4373999973">
		<tag k="name" v="Nystedfossen" />
		<tag k="natural" v="waterfall" />
		<tag k="ssr:stedsnr" v="102905" />
	</node>
	<node id="-40766" lat="61.3260361068" lon="11.6772333385">
		<tag k="name" v="Kvernbekken" />
		<tag k="ssr:stedsnr" v="102052" />
		<tag k="waterway" v="stream" />
	</node>
	<node id="-40763" lat="61.0458444481" lon="11.3514861144">
		<tag k="name" v="Gjerdingsbekken" />
		<tag k="ssr:stedsnr" v="101194" />
		<tag k="waterway" v="stream" />
	</node>
	<node id="-40754" lat="61.4745833366" lon="11.6690055487">
		<tag k="name" v="Kvannholbekken" />
		<tag k="ssr:stedsnr" v="69220" />
		<tag k="waterway" v="stream" />
	</node>
	<node id="-40752" lat="61.4286583305" lon="11.6128750016">
		<tag k="name" v="Burua" />
		<tag k="ssr:stedsnr" v="69197" />
		<tag k="waterway" v="stream" />
	</node>
	<node id="-40750" lat="61.4450916664" lon="11.6861305524">
		<tag k="alt_name" v="Osa, nordre" />
		<tag k="name" v="Nordre Osa" />
		<tag k="ssr:stedsnr" v="69183" />
		<tag k="waterway" v="river" />
	</node>
	<node id="-40746" lat="61.3705500032" lon="11.3990833295">
		<tag k="name" v="Løa" />
		<tag k="ssr:stedsnr" v="69054" />
		<tag k="waterway" v="river" />
	</node>
	<node id="-40743" lat="61.3890194451" lon="11.3814694362">
		<tag k="name" v="Vellumsbekken" />
		<tag k="ssr:stedsnr" v="69027" />
		<tag k="waterway" v="stream" />
	</node>
	<node id="-40742" lat="61.3260694478" lon="11.4450972312">
		<tag k="name" v="Storgjettjennet" />
		<tag k="natural" v="water" />
		<tag k="ssr:stedsnr" v="69014" />
	</node>
	<node id="-40730" lat="61.3546444439" lon="11.4762305614">
		<tag k="name" v="Kvernbekktjennet" />
		<tag k="natural" v="water" />
		<tag k="ssr:stedsnr" v="68827" />
	</node>
	<node id="-40727" lat="61.1645500043" lon="11.5566888812">
		<tag k="name" v="Gravbekken" />
		<tag k="ssr:stedsnr" v="68381" />
		<tag k="waterway" v="stream" />
	</node>
	<node id="-40722" lat="61.1415249987" lon="11.5117749926">
		<tag k="alt_name" v="Grasbekken, nordre" />
		<tag k="name" v="Nordre Grasbekken" />
		<tag k="ssr:stedsnr" v="68162" />
		<tag k="waterway" v="stream" />
	</node>
	<node id="-40714" lat="61.1206750044" lon="11.6439305611">
		<tag k="name" v="Holma" />
		<tag k="ssr:stedsnr" v="68141" />
		<tag k="waterway" v="stream" />
	</node>
	<node id="-40705" lat="61.1567555512" lon="11.4607583308">
		<tag k="alt_name" v="Julusa" />
		<tag k="name" v="Julussa" />
		<tag k="ssr:stedsnr" v="67453" />
		<tag k="waterway" v="river" />
	</node>
	<node id="-40692" lat="61.2877222264" lon="11.806502784">
		<tag k="name" v="Tverrenhullet" />
		<tag k="natural" v="bay" />
		<tag k="ssr:stedsnr" v="59484" />
	</node>
	<node id="-40685" lat="61.3483333364" lon="11.5191222207">
		<tag k="name" v="Haraåstjennet" />
		<tag k="natural" v="water" />
		<tag k="ssr:stedsnr" v="57726" />
	</node>
	<node id="-40683" lat="61.1206472243" lon="11.4013777819">
		<tag k="name" v="Ekertjennbekken" />
		<tag k="ssr:stedsnr" v="56468" />
		<tag k="waterway" v="stream" />
	</node>
	<node id="-40676" lat="61.3947527791" lon="11.4257333409">
		<tag k="name" v="Soppåsbekken" />
		<tag k="ssr:stedsnr" v="55511" />
		<tag k="waterway" v="stream" />
	</node>
	<node id="-40668" lat="61.2776083313" lon="11.7555499977">
		<tag k="name" v="Gorrvika" />
		<tag k="natural" v="bay" />
		<tag k="ssr:stedsnr" v="42069" />
	</node>
	<node id="-40667" lat="61.3530277752" lon="11.4194888937">
		<tag k="name" v="Sandbekksvebekken" />
		<tag k="ssr:stedsnr" v="42540" />
		<tag k="waterway" v="stream" />
	</node>
	<node id="-40664" lat="61.1961305521" lon="11.3481694477">
		<tag k="name" v="Tømmerøya" />
		<tag k="place" v="islet" />
		<tag k="ssr:stedsnr" v="22971" />
	</node>
	<node id="-40662" lat="61.0321555537" lon="11.4233583289">
		<tag k="alt_name" v="Sagbekken" />
		<tag k="name" v="Skjelmobekken" />
		<tag k="ssr:stedsnr" v="21178" />
		<tag k="waterway" v="stream" />
	</node>
	<node id="-40661" lat="61.3313555523" lon="11.8478027803">
		<tag k="name" v="Bruråsbekken" />
		<tag k="old_name" v="Buruåsbekken" />
		<tag k="ssr:stedsnr" v="9588" />
		<tag k="waterway" v="stream" />
	</node>
	<node id="-40659" lat="61.2139555548" lon="11.0389749993">
		<tag k="name" v="Bergesjøen" />
		<tag k="natural" v="water" />
		<tag k="ssr:stedsnr" v="8576" />
	</node>
	<node id="-40657" lat="61.2263305536" lon="11.5992944407">
		<tag k="alt_name" v="Era, vestre" />
		<tag k="name" v="Vestre Æra" />
		<tag k="ssr:stedsnr" v="8349" />
		<tag k="waterway" v="stream" />
	</node>
	<node id="-40656" lat="61.2364027789" lon="11.5322666682">
		<tag k="name" v="Tuvtjennet" />
		<tag k="natural" v="water" />
		<tag k="ssr:stedsnr" v="8345" />
	</node>
	<node id="-40649" lat="61.2880333357" lon="11.4107527777">
		<tag k="name" v="Fredagsengbekken" />
		<tag k="ssr:stedsnr" v="8253" />
		<tag k="waterway" v="stream" />
	</node>
	<node id="-40648" lat="61.4511749965" lon="11.6121111104">
		<tag k="name" v="Burusjøen" />
		<tag k="natural" v="water" />
		<tag k="ssr:stedsnr" v="8225" />
	</node>
	<node id="-40643" lat="61.4465666685" lon="11.5694888841">
		<tag k="name" v="Veslburua" />
		<tag k="ssr:stedsnr" v="8176" />
		<tag k="waterway" v="stream" />
	</node>
	<node id="-40636" lat="61.3673805595" lon="11.4062138985">
		<tag k="name" v="Gravrusttjennet" />
		<tag k="natural" v="water" />
		<tag k="ssr:stedsnr" v="8062" />
	</node>
	<node id="-40623" lat="61.296580554" lon="11.8301722304">
		<tag k="name" v="Ena" />
		<tag k="ssr:stedsnr" v="7758" />
		<tag k="waterway" v="river" />
	</node>
	<node id="-40621" lat="61.2741749978" lon="11.7640305516">
		<tag k="name" v="Langodden" />
		<tag k="natural" v="cape" />
		<tag k="ssr:stedsnr" v="7742" />
	</node>
	<node id="-40618" lat="61.1336194418" lon="11.4076861065">
		<tag k="name" v="Hemtjennet" />
		<tag k="natural" v="water" />
		<tag k="ssr:stedsnr" v="7439" />
	</node>
	<node id="-40613" lat="61.2232750014" lon="11.4368861055">
		<tag k="alt_name" v="Yglesjøen, vle" />
		<tag k="name" v="Vesle Yglesjøen" />
		<tag k="natural" v="water" />
		<tag k="ssr:stedsnr" v="7394" />
	</node>
	<node id="-40610" lat="61.2459361103" lon="11.1257305497">
		<tag k="name" v="Svartåa" />
		<tag k="ssr:stedsnr" v="7374" />
		<tag k="waterway" v="stream" />
	</node>
	<node id="-40607" lat="61.1842249972" lon="11.7276000064">
		<tag k="alt_name" v="Nordre Tverr-Ulvåa" />
		<tag k="name" v="Tverråa" />
		<tag k="ssr:stedsnr" v="7349" />
		<tag k="waterway" v="stream" />
	</node>
	<node id="-40601" lat="61.3876555541" lon="11.6837805618">
		<tag k="name" v="Bråtebekken" />
		<tag k="ssr:stedsnr" v="7165" />
		<tag k="waterway" v="stream" />
	</node>
	<node id="-40588" lat="61.195036113" lon="11.2620000082">
		<tag k="name" v="Toerbubekken" />
		<tag k="ssr:stedsnr" v="967426" />
		<tag k="waterway" v="stream" />
	</node>
	<node id="-40583" lat="61.1202861112" lon="11.2906666617">
		<tag k="name" v="Sagbekken" />
		<tag k="ssr:stedsnr" v="950014" />
		<tag k="waterway" v="stream" />
	</node>
	<node id="-40580" lat="61.2197861076" lon="11.0774972185">
		<tag k="name" v="Hemla" />
		<tag k="ssr:stedsnr" v="918768" />
		<tag k="waterway" v="river" />
	</node>
	<node id="-40570" lat="61.431433333" lon="11.6436777859">
		<tag k="name" v="Fisketjennet" />
		<tag k="natural" v="water" />
		<tag k="ssr:stedsnr" v="918204" />
	</node>
	<node id="-40569" lat="61.3132194442" lon="11.4543888862">
		<tag k="name" v="Fiskeløstjennet" />
		<tag k="natural" v="water" />
		<tag k="ssr:stedsnr" v="918028" />
	</node>
	<node id="-40565" lat="61.1411583301" lon="11.19410833">
		<tag k="name" v="Dølbekken" />
		<tag k="ssr:stedsnr" v="917409" />
		<tag k="waterway" v="stream" />
	</node>
	<node id="-40559" lat="61.3283500026" lon="11.5589916714">
		<tag k="name" v="Grasbekken" />
		<tag k="ssr:stedsnr" v="908831" />
		<tag k="waterway" v="stream" />
	</node>
	<node id="-40557" lat="61.3675083301" lon="11.3599944384">
		<tag k="name" v="Fergestøbekken" />
		<tag k="ssr:stedsnr" v="905863" />
		<tag k="waterway" v="stream" />
	</node>
	<node id="-40552" lat="61.0611277733" lon="11.332069453">
		<tag k="name" v="Nordre Grindbekken" />
		<tag k="ssr:stedsnr" v="905177" />
		<tag k="waterway" v="stream" />
	</node>
	<node id="-40551" lat="61.2985861076" lon="11.4474805542">
		<tag k="name" v="Delstrømmen" />
		<tag k="ssr:stedsnr" v="904507" />
		<tag k="waterway" v="rapids" />
	</node>
	<node id="-40548" lat="61.1420027764" lon="11.2257444388">
		<tag k="name" v="Åsmora" />
		<tag k="ssr:stedsnr" v="950257" />
		<tag k="waterway" v="stream" />
	</node>
	<node id="-40544" lat="61.137767453" lon="11.3755890858">
		<tag k="name" v="Prestsjøen" />
		<tag k="natural" v="water" />
		<tag k="ssr:stedsnr" v="872976" />
	</node>
	<node id="-40543" lat="61.1629000005" lon="11.3623944479">
		<tag k="name" v="Bærøya" />
		<tag k="place" v="islet" />
		<tag k="ssr:stedsnr" v="872974" />
	</node>
	<node id="-40536" lat="61.3241361113" lon="11.4079583286">
		<tag k="name" v="Djupdalen" />
		<tag k="place" v="locality" />
		<tag k="ssr:stedsnr" v="858022" />
	</node>
	<node id="-40529" lat="61.2448277772" lon="11.8184527792">
		<tag k="name" v="Osensjøen" />
		<tag k="natural" v="water" />
		<tag k="ssr:stedsnr" v="857323" />
		<tag k="water" v="lake" />
	</node>
	<node id="-40519" lat="61.0263333336" lon="11.2908722283">
		<tag k="name" v="Svarttjernet" />
		<tag k="natural" v="water" />
		<tag k="ssr:stedsnr" v="844808" />
	</node>
	<node id="-40515" lat="61.1764305557" lon="11.391649993">
		<tag k="name" v="Svarttjennet" />
		<tag k="natural" v="water" />
		<tag k="ssr:stedsnr" v="931172" />
	</node>
	<node id="-40505" lat="61.470450003" lon="11.6852722268">
		<tag k="name" v="Villoset" />
		<tag k="natural" v="bay" />
		<tag k="ssr:stedsnr" v="797215" />
	</node>
	<node id="-40504" lat="61.48046389" lon="11.778783337">
		<tag k="alt_name" v="Fiskebekken;Fiskbekken" />
		<tag k="name" v="Vestre Fiskbekken" />
		<tag k="ssr:stedsnr" v="797210" />
		<tag k="waterway" v="stream" />
	</node>
	<node id="-40486" lat="61.139626795" lon="11.5969295615">
		<tag k="name" v="Krismesjøen" />
		<tag k="natural" v="water" />
		<tag k="ssr:stedsnr" v="796156" />
	</node>
	<node id="-40483" lat="61.1953583319" lon="11.4434527791">
		<tag k="name" v="Høkbekken" />
		<tag k="ssr:stedsnr" v="787607" />
		<tag k="waterway" v="stream" />
	</node>
	<node id="-40481" lat="61.0504972233" lon="11.4180361126">
		<tag k="name" v="Hernesingbekken" />
		<tag k="ssr:stedsnr" v="787224" />
		<tag k="waterway" v="stream" />
	</node>
	<node id="-40475" lat="61.3165888924" lon="11.7450250019">
		<tag k="name" v="Blambekken" />
		<tag k="ssr:stedsnr" v="918897" />
		<tag k="waterway" v="stream" />
	</node>
	<node id="-40473" lat="61.3025583357" lon="11.4872277849">
		<tag k="name" v="Deia" />
		<tag k="ssr:stedsnr" v="918886" />
		<tag k="waterway" v="river" />
	</node>
	<node id="-40471" lat="61.2990166697" lon="11.6263944447">
		<tag k="alt_name" v="Æra, østre" />
		<tag k="name" v="Østre Æra" />
		<tag k="old_name" v="Era, østre" />
		<tag k="ssr:stedsnr" v="918831" />
		<tag k="waterway" v="river" />
	</node>
	<node id="-40467" lat="61.0972611133" lon="11.4898444366">
		<tag k="name" v="Bjørntjenn" />
		<tag k="natural" v="water" />
		<tag k="ssr:stedsnr" v="918196" />
	</node>
	<node id="-40466" lat="61.4488111155" lon="11.7613444378">
		<tag k="name" v="Storbekken" />
		<tag k="ssr:stedsnr" v="918182" />
		<tag k="waterway" v="stream" />
	</node>
	<node id="-40462" lat="61.41203333" lon="11.3853249905">
		<tag k="alt_name" v="Glesåa, Nørdre" />
		<tag k="name" v="Nordre Glesåa" />
		<tag k="ssr:stedsnr" v="918087" />
		<tag k="waterway" v="stream" />
	</node>
	<node id="-40453" lat="61.0748194438" lon="11.2952138933">
		<tag k="name" v="Skjærbekken" />
		<tag k="ssr:stedsnr" v="917474" />
		<tag k="waterway" v="stream" />
	</node>
	<node id="-40445" lat="61.3866194485" lon="11.4826916589">
		<tag k="name" v="Finnskjeggtjennet" />
		<tag k="natural" v="water" />
		<tag k="ssr:stedsnr" v="917119" />
	</node>
	<node id="-40444" lat="61.4006805593" lon="11.4927083424">
		<tag k="name" v="Glesåtjenna" />
		<tag k="natural" v="water" />
		<tag k="ssr:stedsnr" v="917112" />
	</node>
	<node id="-40443" lat="61.3941250003" lon="11.6212666732">
		<tag k="alt_name" v="Slemsjøen, nordre" />
		<tag k="name" v="Nordre Slemsjøen" />
		<tag k="natural" v="water" />
		<tag k="old_name" v="Nørdre Slemsjøen" />
		<tag k="ssr:stedsnr" v="917106" />
		<tag k="water" v="lake" />
	</node>
	<node id="-40440" lat="61.2754249959" lon="11.8108888964">
		<tag k="name" v="Skravernodden" />
		<tag k="natural" v="cape" />
		<tag k="ssr:stedsnr" v="770454" />
	</node>
	<node id="-40433" lat="61.4330861114" lon="11.537247229">
		<tag k="name" v="Nedre Toløetjernet" />
		<tag k="natural" v="water" />
		<tag k="ssr:stedsnr" v="909731" />
	</node>
	<node id="-40426" lat="61.3789916625" lon="11.3904583245">
		<tag k="name" v="Laugdavan" />
		<tag k="natural" v="water" />
		<tag k="ssr:stedsnr" v="908584" />
	</node>
	<node id="-40422" lat="61.4018472252" lon="11.4865638937">
		<tag k="name" v="Nedre Glesåtjennet" />
		<tag k="natural" v="water" />
		<tag k="ssr:stedsnr" v="907702" />
	</node>
	<node id="-40418" lat="61.4237722268" lon="11.3471305544">
		<tag k="name" v="Undergangsvika" />
		<tag k="natural" v="bay" />
		<tag k="ssr:stedsnr" v="905732" />
	</node>
	<node id="-40415" lat="61.2470972225" lon="11.8012305594">
		<tag k="name" v="Øvre Skjeftodden" />
		<tag k="natural" v="cape" />
		<tag k="ssr:stedsnr" v="905275" />
	</node>
	<node id="-40414" lat="61.2950583345" lon="11.8433861132">
		<tag k="name" v="Tjærebutten" />
		<tag k="natural" v="water" />
		<tag k="ssr:stedsnr" v="736607" />
	</node>
	<node id="-40404" lat="61.0919194486" lon="11.4563527756">
		<tag k="name" v="Dulpa" />
		<tag k="ssr:stedsnr" v="709358" />
		<tag k="waterway" v="stream" />
	</node>
	<node id="-40395" lat="61.1232472211" lon="11.6120666696">
		<tag k="name" v="Bubekken" />
		<tag k="ssr:stedsnr" v="891874" />
		<tag k="waterway" v="stream" />
	</node>
	<node id="-40394" lat="61.3510361092" lon="11.6686500011">
		<tag k="name" v="Midtre Slemma" />
		<tag k="ssr:stedsnr" v="891810" />
		<tag k="waterway" v="river" />
	</node>
	<node id="-40385" lat="61.0736999983" lon="11.3668777794">
		<tag k="name" v="Gryta" />
		<tag k="natural" v="bay" />
		<tag k="ssr:stedsnr" v="890370" />
	</node>
	<node id="-40383" lat="61.1538611127" lon="11.2317277786">
		<tag k="name" v="Kløvstenbekken" />
		<tag k="ssr:stedsnr" v="890263" />
		<tag k="waterway" v="stream" />
	</node>
	<node id="-40379" lat="61.0571555525" lon="11.3448416577">
		<tag k="name" v="Bjørnstadbekken" />
		<tag k="ssr:stedsnr" v="890220" />
		<tag k="waterway" v="stream" />
	</node>
	<node id="-40378" lat="61.0526194421" lon="11.4207666589">
		<tag k="name" v="Smalteigbekken" />
		<tag k="ssr:stedsnr" v="890217" />
		<tag k="waterway" v="stream" />
	</node>
	<node id="-40372" lat="61.1326111115" lon="11.2947305599">
		<tag k="name" v="Rybekken" />
		<tag k="ssr:stedsnr" v="889010" />
		<tag k="waterway" v="stream" />
	</node>
	<node id="-40365" lat="61.3086361111" lon="11.8124666717">
		<tag k="name" v="Åbortjennet" />
		<tag k="natural" v="water" />
		<tag k="ssr:stedsnr" v="675867" />
	</node>
	<node id="-40361" lat="61.1390171611" lon="11.6076997763">
		<tag k="name" v="Mellomsjøen" />
		<tag k="natural" v="water" />
		<tag k="ssr:stedsnr" v="675173" />
	</node>
	<node id="-40360" lat="61.1586999982" lon="11.6193250027">
		<tag k="name" v="Holmsjøen" />
		<tag k="natural" v="water" />
		<tag k="ssr:stedsnr" v="675171" />
		<tag k="water" v="lake" />
	</node>
	<node id="-40359" lat="61.3714555549" lon="11.5672527796">
		<tag k="name" v="Knubba" />
		<tag k="ssr:stedsnr" v="675170" />
		<tag k="waterway" v="stream" />
	</node>
	<node id="-40357" lat="61.1519083372" lon="11.5776666663">
		<tag k="name" v="Svarttjennet" />
		<tag k="natural" v="water" />
		<tag k="ssr:stedsnr" v="675158" />
	</node>
	<node id="-40356" lat="61.4001805576" lon="11.6648083375">
		<tag k="alt_name" v="Bjønnåsbekken" />
		<tag k="name" v="Bjørnåsbekken" />
		<tag k="ssr:stedsnr" v="675153" />
		<tag k="waterway" v="stream" />
	</node>
	<node id="-40345" lat="61.1959777742" lon="11.3666777708">
		<tag k="name" v="Veslesæterbekken" />
		<tag k="ssr:stedsnr" v="665664" />
		<tag k="waterway" v="stream" />
	</node>
	<node id="-40339" lat="61.3824555518" lon="11.3646944461">
		<tag k="name" v="Smalneset" />
		<tag k="natural" v="cape" />
		<tag k="ssr:stedsnr" v="662729" />
	</node>
	<node id="-40335" lat="61.2300805567" lon="11.807180551">
		<tag k="name" v="Fiskhusbekken" />
		<tag k="ssr:stedsnr" v="661272" />
		<tag k="waterway" v="stream" />
	</node>
	<node id="-40332" lat="61.1251555598" lon="11.5152083348">
		<tag k="name" v="Mørstaddammen" />
		<tag k="place" v="locality" />
		<tag k="ssr:stedsnr" v="736135" />
	</node>
	<node id="-40331" lat="61.4100777783" lon="11.4029166737">
		<tag k="alt_name" v="Glesåa, Søre;Søndre Glesåa" />
		<tag k="name" v="Søre Glesåa" />
		<tag k="ssr:stedsnr" v="736091" />
		<tag k="waterway" v="stream" />
	</node>
	<node id="-40330" lat="61.4214333291" lon="11.3532166708">
		<tag k="name" v="Undergangstjennet" />
		<tag k="natural" v="water" />
		<tag k="ssr:stedsnr" v="736083" />
	</node>
	<node id="-40329" lat="61.3630611089" lon="11.4298527846">
		<tag k="name" v="Sandtjennet" />
		<tag k="natural" v="water" />
		<tag k="ssr:stedsnr" v="736062" />
	</node>
	<node id="-40326" lat="61.3221111073" lon="11.4529361129">
		<tag k="name" v="Veslgjettjennet" />
		<tag k="natural" v="water" />
		<tag k="ssr:stedsnr" v="736025" />
	</node>
	<node id="-40322" lat="61.300008337" lon="11.6000333271">
		<tag k="name" v="Skallbekken" />
		<tag k="ssr:stedsnr" v="735854" />
		<tag k="waterway" v="stream" />
	</node>
	<node id="-40316" lat="61.2811027809" lon="11.8402888849">
		<tag k="name" v="Skaverntjenna" />
		<tag k="natural" v="water" />
		<tag k="ssr:stedsnr" v="735744" />
	</node>
	<node id="-40301" lat="61.2303694416" lon="11.1572861062">
		<tag k="name" v="Hovda" />
		<tag k="ssr:stedsnr" v="735382" />
		<tag k="waterway" v="river" />
	</node>
	<node id="-40298" lat="61.197475" lon="11.7201583406">
		<tag k="name" v="Bubekken" />
		<tag k="ssr:stedsnr" v="735338" />
		<tag k="waterway" v="stream" />
	</node>
	<node id="-40296" lat="61.3885027783" lon="11.7714138853">
		<tag k="name" v="Rundmyrbekken" />
		<tag k="ssr:stedsnr" v="735145" />
		<tag k="waterway" v="stream" />
	</node>
	<node id="-40291" lat="61.3928666637" lon="11.5867666588">
		<tag k="name" v="Luva" />
		<tag k="ssr:stedsnr" v="735115" />
		<tag k="waterway" v="stream" />
	</node>
	<node id="-40286" lat="61.2715805563" lon="11.7668722217">
		<tag k="name" v="Fiskebuodden" />
		<tag k="natural" v="cape" />
		<tag k="ssr:stedsnr" v="648073" />
	</node>
	<node id="-40284" lat="61.1412583338" lon="11.4956472273">
		<tag k="name" v="Bellbekkfossen" />
		<tag k="natural" v="waterfall" />
		<tag k="ssr:stedsnr" v="727880" />
	</node>
	<node id="-40274" lat="61.1362694425" lon="11.2027861198">
		<tag k="name" v="Bubekken" />
		<tag k="ssr:stedsnr" v="726286" />
		<tag k="waterway" v="stream" />
	</node>
	<node id="-40273" lat="61.0461000004" lon="11.3062944509">
		<tag k="name" v="Svartbekken" />
		<tag k="ssr:stedsnr" v="726111" />
		<tag k="waterway" v="stream" />
	</node>
	<node id="-40268" lat="61.1752944436" lon="11.457916666">
		<tag k="name" v="Ottersbekken" />
		<tag k="ssr:stedsnr" v="723860" />
		<tag k="waterway" v="stream" />
	</node>
	<node id="-40263" lat="61.1098694408" lon="11.3833972135">
		<tag k="name" v="Mørstadbekken" />
		<tag k="ssr:stedsnr" v="723497" />
		<tag k="waterway" v="stream" />
	</node>
	<node id="-40256" lat="61.2670611098" lon="11.7689388883">
		<tag k="alt_name" v="Brevika" />
		<tag k="name" v="Breidvika" />
		<tag k="natural" v="bay" />
		<tag k="ssr:stedsnr" v="614793" />
	</node>
	<node id="-40251" lat="61.1780611145" lon="11.5418694495">
		<tag k="name" v="Halvorstjennet" />
		<tag k="natural" v="water" />
		<tag k="ssr:stedsnr" v="614359" />
	</node>
	<node id="-40246" lat="61.204208335" lon="11.3429222225">
		<tag k="name" v="Ygleøya" />
		<tag k="place" v="islet" />
		<tag k="ssr:stedsnr" v="613406" />
	</node>
	<node id="-40245" lat="61.2245138865" lon="11.4462999924">
		<tag k="alt_name" v="Yglesjøen, store" />
		<tag k="name" v="Store Yglesjøen" />
		<tag k="natural" v="water" />
		<tag k="ssr:stedsnr" v="613402" />
	</node>
	<node id="-40242" lat="61.2003694484" lon="11.3309638944">
		<tag k="name" v="Ørbekken" />
		<tag k="ssr:stedsnr" v="605614" />
		<tag k="waterway" v="stream" />
	</node>
	<node id="-40235" lat="61.2749027773" lon="11.5856666638">
		<tag k="name" v="Tiertjennet" />
		<tag k="natural" v="water" />
		<tag k="ssr:stedsnr" v="600778" />
	</node>
	<node id="-40224" lat="61.3609833345" lon="11.3712111166">
		<tag k="name" v="Storsjødammen" />
		<tag k="ssr:stedsnr" v="709877" />
		<tag k="waterway" v="dam" />
	</node>
	<node id="-40217" lat="61.209450004" lon="11.488725">
		<tag k="name" v="Granholmen" />
		<tag k="place" v="islet" />
		<tag k="ssr:stedsnr" v="709584" />
	</node>
	<node id="-40214" lat="61.2571305576" lon="11.7970277693">
		<tag k="name" v="Hammerneset" />
		<tag k="natural" v="cape" />
		<tag k="ssr:stedsnr" v="709498" />
	</node>
	<node id="-40208" lat="61.3023027764" lon="11.743111117">
		<tag k="name" v="Slemvika" />
		<tag k="natural" v="bay" />
		<tag k="ssr:stedsnr" v="707522" />
	</node>
	<node id="-40201" lat="61.3022000034" lon="11.9176305541">
		<tag k="name" v="Storena" />
		<tag k="ssr:stedsnr" v="554655" />
		<tag k="waterway" v="river" />
	</node>
	<node id="-40200" lat="61.2468555535" lon="11.4616083325">
		<tag k="name" v="Røa" />
		<tag k="ssr:stedsnr" v="552416" />
		<tag k="waterway" v="stream" />
	</node>
	<node id="-40193" lat="61.2199694447" lon="11.4923111116">
		<tag k="name" v="Rena" />
		<tag k="ssr:stedsnr" v="736316" />
		<tag k="waterway" v="river" />
	</node>
	<node id="-40192" lat="61.0658638877" lon="11.334383324">
		<tag k="name" v="Nygårdsbekken" />
		<tag k="ssr:stedsnr" v="541165" />
		<tag k="waterway" v="stream" />
	</node>
	<node id="-40184" lat="61.3124888906" lon="11.4233694473">
		<tag k="name" v="Strupen" />
		<tag k="natural" v="water" />
		<tag k="ssr:stedsnr" v="527609" />
	</node>
	<node id="-40182" lat="61.2406666664" lon="11.5591722163">
		<tag k="name" v="Dønna" />
		<tag k="ssr:stedsnr" v="736311" />
		<tag k="waterway" v="stream" />
	</node>
	<node id="-40178" lat="61.2361583289" lon="11.7231000084">
		<tag k="name" v="Fjerdingsbekken" />
		<tag k="ssr:stedsnr" v="736307" />
		<tag k="waterway" v="stream" />
	</node>
	<node id="-40173" lat="61.1442249983" lon="11.4963027861">
		<tag k="name" v="Bellbekken" />
		<tag k="ssr:stedsnr" v="493163" />
		<tag k="waterway" v="stream" />
	</node>
	<node id="-40172" lat="61.1626750005" lon="11.6116750035">
		<tag k="name" v="Lakavika" />
		<tag k="natural" v="bay" />
		<tag k="ssr:stedsnr" v="493159" />
	</node>
	<node id="-40168" lat="61.2648916665" lon="11.3608750025">
		<tag k="name" v="Vikåa" />
		<tag k="ssr:stedsnr" v="676231" />
		<tag k="waterway" v="stream" />
	</node>
	<node id="-40165" lat="61.360674999" lon="11.8103083397">
		<tag k="name" v="Granåsbekken" />
		<tag k="ssr:stedsnr" v="675842" />
		<tag k="waterway" v="stream" />
	</node>
	<node id="-40164" lat="61.350688889" lon="11.6329111023">
		<tag k="fixme" v="multiple name tags, choose one and add the other to alt_name" />
		<tag k="name" v="Bekkelundsbekken;Fuglehaugbekken" />
		<tag k="ssr:stedsnr" v="675833" />
		<tag k="waterway" v="stream" />
	</node>
	<node id="-40158" lat="61.1822749967" lon="11.5041749909">
		<tag k="name" v="Malmbekken" />
		<tag k="ssr:stedsnr" v="675380" />
		<tag k="waterway" v="stream" />
	</node>
	<node id="-40157" lat="61.1873999959" lon="11.544230552">
		<tag k="name" v="Tuppsjøen" />
		<tag k="natural" v="water" />
		<tag k="ssr:stedsnr" v="675379" />
	</node>
	<node id="-40152" lat="61.1377250035" lon="11.5144499957">
		<tag k="alt_name" v="Grasbekken, s" />
		<tag k="name" v="Søndre Grasbekken" />
		<tag k="ssr:stedsnr" v="675181" />
		<tag k="waterway" v="stream" />
	</node>
	<node id="-40149" lat="61.1282722212" lon="11.4143722279">
		<tag k="name" v="Ekertjennet" />
		<tag k="natural" v="water" />
		<tag k="ssr:stedsnr" v="674431" />
	</node>
	<node id="-40147" lat="61.1313416645" lon="11.1162583244">
		<tag k="name" v="Slåttbekken" />
		<tag k="ssr:stedsnr" v="674427" />
		<tag k="waterway" v="stream" />
	</node>
	<node id="-40145" lat="61.1380861105" lon="11.2638388806">
		<tag k="name" v="Kvernåa" />
		<tag k="ssr:stedsnr" v="674422" />
		<tag k="waterway" v="stream" />
	</node>
	<node id="-40140" lat="61.0802111082" lon="11.4102638882">
		<tag k="name" v="Ørtjennet" />
		<tag k="natural" v="water" />
		<tag k="ssr:stedsnr" v="674491" />
	</node>
	<node id="-40137" lat="61.2034333346" lon="11.4893777837">
		<tag k="name" v="Flåtåstøletet" />
		<tag k="natural" v="water" />
		<tag k="ssr:stedsnr" v="484561" />
		<tag k="water" v="lake" />
	</node>
	<node id="-40129" lat="61.1298916676" lon="11.3940611152">
		<tag k="name" v="Sagbekken" />
		<tag k="ssr:stedsnr" v="480361" />
		<tag k="waterway" v="stream" />
	</node>
	<node id="-40126" lat="61.4584194464" lon="11.7263999971">
		<tag k="name" v="Svartbekken" />
		<tag k="ssr:stedsnr" v="736221" />
		<tag k="waterway" v="stream" />
	</node>
	<node id="-40123" lat="61.4871083332" lon="11.6574388904">
		<tag k="name" v="Villa" />
		<tag k="ssr:stedsnr" v="736199" />
		<tag k="waterway" v="river" />
	</node>
	<node id="-40122" lat="61.4930416624" lon="11.769474998">
		<tag k="name" v="Villrobekken" />
		<tag k="ssr:stedsnr" v="736197" />
		<tag k="waterway" v="stream" />
	</node>
	<node id="-40111" lat="61.3054583311" lon="11.7095472183">
		<tag k="loc_name" v="Osvollbekken" />
		<tag k="name" v="Osvoldbekken" />
		<tag k="ssr:stedsnr" v="466055" />
		<tag k="waterway" v="stream" />
	</node>
	<node id="-40109" lat="61.068936108" lon="11.3645416715">
		<tag k="name" v="Ulvstueholmen" />
		<tag k="place" v="islet" />
		<tag k="ssr:stedsnr" v="465364" />
	</node>
	<node id="-40108" lat="61.0764444407" lon="11.3654888843">
		<tag k="name" v="Åstoset" />
		<tag k="natural" v="bay" />
		<tag k="ssr:stedsnr" v="465355" />
	</node>
	<node id="-40102" lat="61.3457111137" lon="11.6921472196">
		<tag k="name" v="Bessfarbekken" />
		<tag k="ssr:stedsnr" v="666195" />
		<tag k="waterway" v="stream" />
	</node>
	<node id="-40089" lat="61.1583888875" lon="11.3307305489">
		<tag k="name" v="Nørdstbekken" />
		<tag k="ssr:stedsnr" v="662389" />
		<tag k="waterway" v="stream" />
	</node>
	<node id="-40082" lat="61.329747218" lon="11.5254861194">
		<tag k="name" v="Vakkerbrennsbekken" />
		<tag k="ssr:stedsnr" v="661512" />
		<tag k="waterway" v="stream" />
	</node>
	<node id="-40079" lat="61.2751388916" lon="11.3454277824">
		<tag k="name" v="Bråtåsbekken" />
		<tag k="ssr:stedsnr" v="433235" />
		<tag k="waterway" v="stream" />
	</node>
	<node id="-40074" lat="61.3436750001" lon="11.3488333307">
		<tag k="name" v="Grønvollbekken" />
		<tag k="ssr:stedsnr" v="433003" />
		<tag k="waterway" v="stream" />
	</node>
	<node id="-40062" lat="61.1915055595" lon="11.6075055571">
		<tag k="name" v="Stokkbekken" />
		<tag k="ssr:stedsnr" v="432317" />
		<tag k="waterway" v="stream" />
	</node>
	<node id="-40060" lat="61.0502611079" lon="11.3677472241">
		<tag k="name" v="Hummelneset" />
		<tag k="natural" v="cape" />
		<tag k="ssr:stedsnr" v="432252" />
	</node>
	<node id="-40053" lat="61.067358331" lon="11.2433027856">
		<tag k="name" v="Odølingsbekken" />
		<tag k="ssr:stedsnr" v="423115" />
		<tag k="waterway" v="stream" />
	</node>
	<node id="-40051" lat="61.0737361101" lon="11.3033555639">
		<tag k="name" v="Langdalsbekken" />
		<tag k="ssr:stedsnr" v="423112" />
		<tag k="waterway" v="stream" />
	</node>
	<node id="-40050" lat="61.3988805521" lon="11.5000805578">
		<tag k="name" v="Øvre Glesåtjennet" />
		<tag k="natural" v="water" />
		<tag k="ssr:stedsnr" v="422745" />
	</node>
	<node id="-40045" lat="61.3359222239" lon="11.5019388855">
		<tag k="name" v="Benkevollsbekken" />
		<tag k="ssr:stedsnr" v="419534" />
		<tag k="waterway" v="stream" />
	</node>
	<node id="-40034" lat="61.1589638911" lon="11.367713885">
		<tag k="name" v="Arnestadøya" />
		<tag k="place" v="islet" />
		<tag k="ssr:stedsnr" v="507975" />
	</node>
	<node id="-40030" lat="61.3087499988" lon="11.4492027716">
		<tag k="name" v="Arnestutjennet" />
		<tag k="natural" v="water" />
		<tag k="ssr:stedsnr" v="372027" />
	</node>
	<node id="-40019" lat="61.2502555552" lon="11.6160527714">
		<tag k="name" v="Sæterbekken" />
		<tag k="ssr:stedsnr" v="371803" />
		<tag k="waterway" v="stream" />
	</node>
	<node id="-40017" lat="61.0771527794" lon="11.2462194438">
		<tag k="name" v="Jernåa" />
		<tag k="ssr:stedsnr" v="371469" />
		<tag k="waterway" v="stream" />
	</node>
	<node id="-40015" lat="61.0799027807" lon="11.1957944462">
		<tag k="name" v="Rugsvebekken" />
		<tag k="ssr:stedsnr" v="371462" />
		<tag k="waterway" v="stream" />
	</node>
	<node id="-40014" lat="61.1786583307" lon="11.6423250064">
		<tag k="name" v="Jonsmyrbekken" />
		<tag k="ssr:stedsnr" v="371357" />
		<tag k="waterway" v="stream" />
	</node>
	<node id="-40011" lat="61.3654666707" lon="11.509419453">
		<tag k="name" v="Østeråa" />
		<tag k="ssr:stedsnr" v="371141" />
		<tag k="waterway" v="stream" />
	</node>
	<node id="-40010" lat="61.1266749974" lon="11.6025777693">
		<tag k="name" v="Butjennet" />
		<tag k="natural" v="water" />
		<tag k="ssr:stedsnr" v="371140" />
	</node>
	<node id="-40006" lat="61.1236305574" lon="11.5563138971">
		<tag k="name" v="Krisma" />
		<tag k="ssr:stedsnr" v="371123" />
		<tag k="waterway" v="stream" />
	</node>
	<node id="-40001" lat="61.3685999966" lon="11.346211102">
		<tag k="name" v="Dalbybekken" />
		<tag k="ssr:stedsnr" v="494055" />
		<tag k="waterway" v="stream" />
	</node>
	<node id="-39999" lat="61.3203361089" lon="11.4880750007">
		<tag k="name" v="Kvernbekken" />
		<tag k="ssr:stedsnr" v="493883" />
		<tag k="waterway" v="stream" />
	</node>
	<node id="-39997" lat="61.3226861126" lon="11.596227784">
		<tag k="name" v="Ekornbekken" />
		<tag k="ssr:stedsnr" v="493878" />
		<tag k="waterway" v="stream" />
	</node>
	<node id="-39996" lat="61.3056722245" lon="11.585649996">
		<tag k="name" v="Skalltjennet" />
		<tag k="natural" v="water" />
		<tag k="ssr:stedsnr" v="493868" />
	</node>
	<node id="-39991" lat="61.2674666675" lon="11.8296638935">
		<tag k="name" v="Buholmen" />
		<tag k="place" v="islet" />
		<tag k="ssr:stedsnr" v="493771" />
	</node>
	<node id="-39989" lat="61.2710888919" lon="11.6795500059">
		<tag k="alt_name" v="Bjørnbekken" />
		<tag k="name" v="Bjørbekken" />
		<tag k="ssr:stedsnr" v="493767" />
		<tag k="waterway" v="stream" />
	</node>
	<node id="-39988" lat="61.2232277799" lon="11.0229777764">
		<tag k="name" v="Steinsjøbekken" />
		<tag k="ssr:stedsnr" v="493719" />
		<tag k="waterway" v="stream" />
	</node>
	<node id="-39987" lat="61.2022361082" lon="11.0448055627">
		<tag k="alt_name" v="Steinsjøen, store" />
		<tag k="name" v="Store Steinsjøen" />
		<tag k="natural" v="water" />
		<tag k="ssr:stedsnr" v="493554" />
	</node>
	<node id="-39986" lat="61.1634250001" lon="11.5968000082">
		<tag k="name" v="Kløfttjenn" />
		<tag k="natural" v="water" />
		<tag k="ssr:stedsnr" v="493355" />
	</node>
	<node id="-39983" lat="61.2592500035" lon="11.4202250015">
		<tag k="name" v="Lortmyrtjennet" />
		<tag k="natural" v="water" />
		<tag k="ssr:stedsnr" v="493249" />
	</node>
	<node id="-39980" lat="61.4292583305" lon="11.5325277826">
		<tag k="alt_name" v="Toløebekken" />
		<tag k="name" v="Tolobekken" />
		<tag k="ssr:stedsnr" v="493190" />
		<tag k="waterway" v="stream" />
	</node>
	<node id="-39972" lat="61.3590527732" lon="11.6208333408">
		<tag k="name" v="Storbekken" />
		<tag k="ssr:stedsnr" v="492833" />
		<tag k="waterway" v="stream" />
	</node>
	<node id="-39967" lat="61.095516669" lon="11.1744361096">
		<tag k="name" v="Manholmen" />
		<tag k="place" v="islet" />
		<tag k="ssr:stedsnr" v="359916" />
	</node>
	<node id="-39965" lat="61.0803277793" lon="11.2056000002">
		<tag k="name" v="Åstdalsbekken" />
		<tag k="ssr:stedsnr" v="492452" />
		<tag k="waterway" v="stream" />
	</node>
	<node id="-39964" lat="61.0977972253" lon="11.4576749943">
		<tag k="name" v="Abbortjennet" />
		<tag k="natural" v="water" />
		<tag k="ssr:stedsnr" v="492448" />
	</node>
	<node id="-39962" lat="61.0978000041" lon="11.4236249941">
		<tag k="name" v="Hemsjøen" />
		<tag k="natural" v="water" />
		<tag k="ssr:stedsnr" v="492442" />
		<tag k="water" v="lake" />
	</node>
	<node id="-39951" lat="61.1653194431" lon="11.3079249934">
		<tag k="name" v="Kvannbekken" />
		<tag k="ssr:stedsnr" v="492400" />
		<tag k="waterway" v="stream" />
	</node>
	<node id="-39948" lat="61.3294027818" lon="11.537894447">
		<tag k="name" v="Østre Østsæterbekken" />
		<tag k="ssr:stedsnr" v="358558" />
		<tag k="waterway" v="stream" />
	</node>
	<node id="-39944" lat="61.181224996" lon="11.6623055557">
		<tag k="name" v="Blekmyrbekken" />
		<tag k="ssr:stedsnr" v="492326" />
		<tag k="waterway" v="stream" />
	</node>
	<node id="-39933" lat="61.3054138902" lon="11.418825006">
		<tag k="name" v="Dulpen" />
		<tag k="natural" v="water" />
		<tag k="ssr:stedsnr" v="345558" />
	</node>
	<node id="-39932" lat="61.1216722208" lon="11.1705055569">
		<tag k="name" v="Rismyrbekken" />
		<tag k="ssr:stedsnr" v="344952" />
		<tag k="waterway" v="stream" />
	</node>
	<node id="-39926" lat="61.1820166628" lon="11.1865305607">
		<tag k="name" v="Gilleråsbekken" />
		<tag k="ssr:stedsnr" v="483996" />
		<tag k="waterway" v="stream" />
	</node>
	<node id="-39922" lat="61.0310694448" lon="11.3461611135">
		<tag k="name" v="Nedre Dammen" />
		<tag k="ssr:stedsnr" v="483260" />
		<tag k="waterway" v="dam" />
	</node>
	<node id="-39921" lat="61.0831111151" lon="11.2405055608">
		<tag k="name" v="Styggbekken" />
		<tag k="ssr:stedsnr" v="483140" />
		<tag k="waterway" v="stream" />
	</node>
	<node id="-39904" lat="61.159122225" lon="11.3153638801">
		<tag k="name" v="Fallet" />
		<tag k="natural" v="waterfall" />
		<tag k="ssr:stedsnr" v="480388" />
	</node>
	<node id="-39903" lat="61.1432805569" lon="11.3176472135">
		<tag k="name" v="Stokkbekken" />
		<tag k="ssr:stedsnr" v="480382" />
		<tag k="waterway" v="stream" />
	</node>
	<node id="-39901" lat="61.065461115" lon="11.3573222137">
		<tag k="name" v="Killingholmen" />
		<tag k="place" v="islet" />
		<tag k="ssr:stedsnr" v="480146" />
	</node>
	<node id="-39898" lat="61.3183972228" lon="11.4363444483">
		<tag k="name" v="Søndre Rena Hølen" />
		<tag k="place" v="locality" />
		<tag k="ssr:stedsnr" v="479510" />
	</node>
	<node id="-39896" lat="61.3253500025" lon="11.4028777745">
		<tag k="name" v="Vestretjennet" />
		<tag k="natural" v="water" />
		<tag k="ssr:stedsnr" v="311026" />
	</node>
	<node id="-39892" lat="61.1424666706" lon="11.4607916747">
		<tag k="name" v="Djupdalsbekken" />
		<tag k="ssr:stedsnr" v="302871" />
		<tag k="waterway" v="stream" />
	</node>
	<node id="-39888" lat="61.1956333326" lon="11.2419611187">
		<tag k="name" v="Firerbubekken" />
		<tag k="ssr:stedsnr" v="300468" />
		<tag k="waterway" v="stream" />
	</node>
	<node id="-39887" lat="61.0837000019" lon="11.2987222182">
		<tag k="name" v="Fallholmen" />
		<tag k="place" v="islet" />
		<tag k="ssr:stedsnr" v="300110" />
	</node>
	<node id="-39886" lat="61.0843666689" lon="11.3087944364">
		<tag k="name" v="Fallet" />
		<tag k="natural" v="waterfall" />
		<tag k="ssr:stedsnr" v="300109" />
	</node>
	<node id="-39885" lat="61.3476249993" lon="11.4158000052">
		<tag k="name" v="Asploken" />
		<tag k="ssr:stedsnr" v="466586" />
		<tag k="waterway" v="dam" />
	</node>
	<node id="-39884" lat="61.0814861134" lon="11.4236638957">
		<tag k="name" v="Harabekken" />
		<tag k="ssr:stedsnr" v="466384" />
		<tag k="waterway" v="stream" />
	</node>
	<node id="-39869" lat="61.2355277744" lon="11.7016500042">
		<tag k="name" v="Halvmilsbekken" />
		<tag k="ssr:stedsnr" v="250291" />
		<tag k="waterway" v="stream" />
	</node>
	<node id="-39867" lat="61.1527527781" lon="11.3757250029">
		<tag k="name" v="Kildeøyene" />
		<tag k="place" v="islet" />
		<tag k="ssr:stedsnr" v="447962" />
	</node>
	<node id="-39863" lat="61.103416668" lon="11.1492388977">
		<tag k="name" v="Djuposet" />
		<tag k="natural" v="bay" />
		<tag k="ssr:stedsnr" v="445156" />
	</node>
	<node id="-39857" lat="61.406674996" lon="11.3607555532">
		<tag k="name" v="Glesåa" />
		<tag k="ssr:stedsnr" v="298689" />
		<tag k="waterway" v="river" />
	</node>
	<node id="-39850" lat="61.3872333377" lon="11.5116527792">
		<tag k="name" v="Lislåttbekken" />
		<tag k="ssr:stedsnr" v="189135" />
		<tag k="waterway" v="stream" />
	</node>
	<node id="-39848" lat="61.3772916669" lon="11.5668694423">
		<tag k="name" v="Hornbekken" />
		<tag k="ssr:stedsnr" v="189130" />
		<tag k="waterway" v="stream" />
	</node>
	<node id="-39842" lat="61.2645944465" lon="11.836144439">
		<tag k="name" v="Blaskarvika" />
		<tag k="natural" v="bay" />
		<tag k="ssr:stedsnr" v="285494" />
	</node>
	<node id="-39841" lat="61.2565305599" lon="11.8498888901">
		<tag k="name" v="Kvernbekken" />
		<tag k="ssr:stedsnr" v="285492" />
		<tag k="waterway" v="stream" />
	</node>
	<node id="-39840" lat="61.2632722199" lon="11.7929694379">
		<tag k="name" v="Tørneset" />
		<tag k="natural" v="cape" />
		<tag k="ssr:stedsnr" v="285491" />
	</node>
	<node id="-39833" lat="61.0727388874" lon="11.2560999907">
		<tag k="name" v="Tverrteigbekken" />
		<tag k="ssr:stedsnr" v="180109" />
		<tag k="waterway" v="stream" />
	</node>
	<node id="-39828" lat="61.20542778" lon="11.2843500052">
		<tag k="name" v="Veslesæterbekken" />
		<tag k="ssr:stedsnr" v="179465" />
		<tag k="waterway" v="stream" />
	</node>
	<node id="-39827" lat="61.2000361068" lon="11.2072555554">
		<tag k="name" v="Toresholmen" />
		<tag k="place" v="islet" />
		<tag k="ssr:stedsnr" v="179464" />
	</node>
	<node id="-39822" lat="61.1047194485" lon="11.352766664">
		<tag k="name" v="Kvennbekken" />
		<tag k="ssr:stedsnr" v="177523" />
		<tag k="waterway" v="stream" />
	</node>
	<node id="-39819" lat="61.1777916653" lon="11.3406777738">
		<tag k="name" v="Mørsilbekken" />
		<tag k="ssr:stedsnr" v="284630" />
		<tag k="waterway" v="stream" />
	</node>
	<node id="-39817" lat="61.0756861136" lon="11.3883916583">
		<tag k="name" v="Kvernbekken" />
		<tag k="ssr:stedsnr" v="284340" />
		<tag k="waterway" v="stream" />
	</node>
	<node id="-39816" lat="61.0672166703" lon="11.3580055644">
		<tag k="name" v="Kåsa" />
		<tag k="natural" v="water" />
		<tag k="ssr:stedsnr" v="283306" />
		<tag k="water" v="lake" />
	</node>
	<node id="-39804" lat="61.1861944413" lon="11.3475722148">
		<tag k="name" v="Fjerdungsøyene" />
		<tag k="place" v="island" />
		<tag k="ssr:stedsnr" v="162652" />
	</node>
	<node id="-39796" lat="61.2233027803" lon="11.6122916679">
		<tag k="name" v="Grosstjenn" />
		<tag k="natural" v="water" />
		<tag k="ssr:stedsnr" v="129322" />
	</node>
	<node id="-39793" lat="61.3938416652" lon="11.4454305604">
		<tag k="name" v="Soppåstjennet" />
		<tag k="natural" v="water" />
		<tag k="ssr:stedsnr" v="129053" />
	</node>
	<node id="-39792" lat="61.3089500028" lon="11.4266722218">
		<tag k="name" v="Mostjennet" />
		<tag k="natural" v="water" />
		<tag k="ssr:stedsnr" v="129031" />
	</node>
	<node id="-39788" lat="61.1957333362" lon="11.5931305551">
		<tag k="name" v="Vesle Ulvåa" />
		<tag k="ssr:stedsnr" v="128321" />
		<tag k="waterway" v="river" />
	</node>
	<node id="-39783" lat="61.3106750032" lon="11.5951972216">
		<tag k="name" v="Munkbekken" />
		<tag k="ssr:stedsnr" v="119822" />
		<tag k="waterway" v="stream" />
	</node>
	<node id="-39779" lat="61.1081305527" lon="11.3468444475">
		<tag k="name" v="Bjørnstadbekken" />
		<tag k="ssr:stedsnr" v="117508" />
		<tag k="waterway" v="stream" />
	</node>
	<node id="-39769" lat="61.3115916691" lon="11.8742250018">
		<tag k="name" v="Stortjenn" />
		<tag k="natural" v="water" />
		<tag k="ssr:stedsnr" v="251632" />
	</node>
	<node id="-39767" lat="61.2745916662" lon="11.8428361074">
		<tag k="name" v="Søndre Skaverntjenna" />
		<tag k="natural" v="water" />
		<tag k="old_name" v="Skavtjørn" />
		<tag k="ssr:stedsnr" v="251537" />
	</node>
	<node id="-39765" lat="61.4694277773" lon="11.6299055479">
		<tag k="name" v="Ånstadtjennet" />
		<tag k="natural" v="water" />
		<tag k="ssr:stedsnr" v="251233" />
	</node>
	<node id="-39763" lat="61.4378944412" lon="11.7367444535">
		<tag k="alt_name" v="Blekua" />
		<tag k="name" v="Blikua" />
		<tag k="ssr:stedsnr" v="251186" />
		<tag k="waterway" v="river" />
	</node>
	<node id="-39760" lat="61.4520499983" lon="11.5213361075">
		<tag k="name" v="Pottbekken" />
		<tag k="ssr:stedsnr" v="251169" />
		<tag k="waterway" v="stream" />
	</node>
	<node id="-39757" lat="61.4127277813" lon="11.3580916737">
		<tag k="name" v="Glesåtjennet" />
		<tag k="natural" v="water" />
		<tag k="ssr:stedsnr" v="251087" />
	</node>
	<node id="-39753" lat="61.3022083318" lon="11.5267194371">
		<tag k="name" v="Svartbekken" />
		<tag k="ssr:stedsnr" v="250836" />
		<tag k="waterway" v="stream" />
	</node>
	<node id="-39750" lat="61.3366361144" lon="11.6924111021">
		<tag k="alt_name" v="Slemsjøen, søre" />
		<tag k="name" v="Søndre Slemsjøen" />
		<tag k="natural" v="water" />
		<tag k="old_name" v="Søre Slemsjøen" />
		<tag k="ssr:stedsnr" v="250803" />
		<tag k="water" v="lake" />
	</node>
	<node id="-39741" lat="61.2054805523" lon="11.5878249995">
		<tag k="alt_name" v="Osa, søndre" />
		<tag k="name" v="Søndre Osa" />
		<tag k="old_name" v="Søre Osa" />
		<tag k="ssr:stedsnr" v="250338" />
		<tag k="waterway" v="river" />
	</node>
	<node id="-39736" lat="61.4163305565" lon="11.7559777805">
		<tag k="alt_name" v="Risbekken, søre;Søndre Risbekken" />
		<tag k="name" v="Søre Risbekken" />
		<tag k="ssr:stedsnr" v="250174" />
		<tag k="waterway" v="stream" />
	</node>
	<node id="-39729" lat="61.1080416678" lon="11.1742166578">
		<tag k="name" v="Oksauget" />
		<tag k="natural" v="water" />
		<tag k="ssr:stedsnr" v="249483" />
	</node>
	<node id="-39728" lat="61.1111916687" lon="11.162169452">
		<tag k="name" v="Granmarktjennet" />
		<tag k="natural" v="water" />
		<tag k="ssr:stedsnr" v="249476" />
	</node>
	<node id="-39724" lat="61.1954611116" lon="11.4056749918">
		<tag k="name" v="Stormobekken" />
		<tag k="ssr:stedsnr" v="249411" />
		<tag k="waterway" v="stream" />
	</node>
	<node id="-39723" lat="61.2171638911" lon="11.0968416716">
		<tag k="name" v="Prestbekken" />
		<tag k="ssr:stedsnr" v="249408" />
		<tag k="waterway" v="stream" />
	</node>
	<node id="-39718" lat="61.2471472179" lon="11.1440444385">
		<tag k="name" v="Svartbekken" />
		<tag k="ssr:stedsnr" v="249386" />
		<tag k="waterway" v="stream" />
	</node>
	<node id="-39713" lat="61.224230556" lon="11.7949277842">
		<tag k="name" v="Skinnaråa" />
		<tag k="ssr:stedsnr" v="69334" />
		<tag k="waterway" v="stream" />
	</node>
	<node id="-39711" lat="61.3417527806" lon="11.6262888886">
		<tag k="name" v="Vestrengbekken" />
		<tag k="ssr:stedsnr" v="68811" />
		<tag k="waterway" v="stream" />
	</node>
	<node id="-39709" lat="61.2432999958" lon="11.5293527848">
		<tag k="name" v="Sætertjenn" />
		<tag k="natural" v="water" />
		<tag k="ssr:stedsnr" v="68308" />
	</node>
	<node id="-39692" lat="61.3478666655" lon="11.4589722257">
		<tag k="name" v="Rustlandsbekken" />
		<tag k="ssr:stedsnr" v="239719" />
		<tag k="waterway" v="stream" />
	</node>
	<node id="-39683" lat="61.3202305582" lon="11.354591673">
		<tag k="name" v="Åtterbekken" />
		<tag k="ssr:stedsnr" v="237841" />
		<tag k="waterway" v="stream" />
	</node>
	<node id="-39676" lat="61.336902774" lon="11.485877776">
		<tag k="name" v="Tørbergsbekken" />
		<tag k="ssr:stedsnr" v="237527" />
		<tag k="waterway" v="stream" />
	</node>
	<node id="-39672" lat="61.1371916674" lon="11.3858444379">
		<tag k="name" v="Nesvangen" />
		<tag k="natural" v="cape" />
		<tag k="ssr:stedsnr" v="55359" />
	</node>
	<node id="-39666" lat="61.0918194416" lon="11.4054694515">
		<tag k="loc_name" v="Frudiket" />
		<tag k="name" v="Brød-diket" />
		<tag k="ssr:stedsnr" v="41365" />
		<tag k="waterway" v="stream" />
	</node>
	<node id="-39665" lat="61.15494722" lon="11.2202305555">
		<tag k="name" v="Prestbekken" />
		<tag k="ssr:stedsnr" v="40263" />
		<tag k="waterway" v="stream" />
	</node>
	<node id="-39663" lat="61.2248000006" lon="11.1471027801">
		<tag k="name" v="Stormyrtjernsbekken" />
		<tag k="ssr:stedsnr" v="39752" />
		<tag k="waterway" v="stream" />
	</node>
	<node id="-39655" lat="61.2597638863" lon="11.4767944511">
		<tag k="name" v="Malungen" />
		<tag k="ssr:stedsnr" v="224545" />
		<tag k="waterway" v="rapids" />
	</node>
	<node id="-39652" lat="61.2603250042" lon="11.8902055633">
		<tag k="name" v="Dulpen" />
		<tag k="natural" v="water" />
		<tag k="ssr:stedsnr" v="224469" />
	</node>
	<node id="-39651" lat="61.299205555" lon="11.7691888851">
		<tag k="name" v="Osmund" />
		<tag k="natural" v="bay" />
		<tag k="ssr:stedsnr" v="224069" />
	</node>
	<node id="-39639" lat="61.056694442" lon="11.3704944406">
		<tag k="name" v="Vålsholmen" />
		<tag k="place" v="islet" />
		<tag k="ssr:stedsnr" v="222183" />
	</node>
	<node id="-39638" lat="61.0558416682" lon="11.3316166631">
		<tag k="name" v="Sagdammen" />
		<tag k="ssr:stedsnr" v="222162" />
		<tag k="waterway" v="dam" />
	</node>
	<node id="-39636" lat="61.3448333344" lon="11.4134777812">
		<tag k="name" v="Slettmotjennet" />
		<tag k="natural" v="water" />
		<tag k="ssr:stedsnr" v="9001" />
	</node>
	<node id="-39633" lat="61.2366499995" lon="10.9863861123">
		<tag k="name" v="Storbekken" />
		<tag k="ssr:stedsnr" v="8739" />
		<tag k="waterway" v="stream" />
	</node>
	<node id="-41565" lat="61.2402166712" lon="11.6992888862">
		<tag k="name" v="Nordre Halvmilsbekken" />
		<tag k="ssr:stedsnr" v="967890" />
		<tag k="waterway" v="stream" />
	</node>
	<node id="-41563" lat="61.3941222216" lon="11.43810834">
		<tag k="name" v="Soppåsbekken" />
		<tag k="ssr:stedsnr" v="967707" />
		<tag k="waterway" v="stream" />
	</node>
	<node id="-41558" lat="61.1191666692" lon="11.3719972222">
		<tag k="name" v="Amundstadtjennet" />
		<tag k="natural" v="water" />
		<tag k="ssr:stedsnr" v="966476" />
	</node>
	<node id="-41550" lat="61.2479805593" lon="11.8098472236">
		<tag k="name" v="Kråka" />
		<tag k="place" v="islet" />
		<tag k="ssr:stedsnr" v="965308" />
	</node>
	<node id="-41538" lat="61.2062750026" lon="11.6116249935">
		<tag k="alt_name" v="Gardbekken, vestre" />
		<tag k="name" v="Vestre Gardbekken" />
		<tag k="ssr:stedsnr" v="858344" />
		<tag k="waterway" v="stream" />
	</node>
	<node id="-41537" lat="61.2353500027" lon="11.4987249993">
		<tag k="name" v="Brannstrømmen" />
		<tag k="place" v="locality" />
		<tag k="ssr:stedsnr" v="858330" />
	</node>
	<node id="-41534" lat="61.1041749967" lon="11.4928000022">
		<tag k="alt_name" v="Skyttera, store;Store Skyttera" />
		<tag k="loc_name" v="Storskytra" />
		<tag k="name" v="Stor-Skyttera" />
		<tag k="ssr:stedsnr" v="858182" />
		<tag k="waterway" v="stream" />
	</node>
	<node id="-41533" lat="61.3975166696" lon="11.311516669">
		<tag k="name" v="Tømmernesbekken" />
		<tag k="ssr:stedsnr" v="858041" />
		<tag k="waterway" v="stream" />
	</node>
	<node id="-41527" lat="61.2329888889" lon="11.0271694515">
		<tag k="name" v="Kroktjennet" />
		<tag k="natural" v="water" />
		<tag k="ssr:stedsnr" v="857695" />
	</node>
	<node id="-41517" lat="61.4121999989" lon="11.5297777835">
		<tag k="name" v="Kvannbekken" />
		<tag k="ssr:stedsnr" v="857187" />
		<tag k="waterway" v="stream" />
	</node>
	<node id="-41513" lat="61.0488361131" lon="11.3988027855">
		<tag k="name" v="Vålsåa" />
		<tag k="ssr:stedsnr" v="857282" />
		<tag k="waterway" v="river" />
	</node>
	<node id="-41497" lat="61.3752111109" lon="11.4621777832">
		<tag k="name" v="Vollåa" />
		<tag k="ssr:stedsnr" v="847760" />
		<tag k="waterway" v="stream" />
	</node>
	<node id="-41494" lat="61.1002749994" lon="11.1607666743">
		<tag k="alt_name" v="Almusholmen" />
		<tag k="name" v="Almusholma" />
		<tag k="place" v="islet" />
		<tag k="ssr:stedsnr" v="845932" />
	</node>
	<node id="-41492" lat="61.2437194456" lon="11.6567611156">
		<tag k="name" v="Risbekken" />
		<tag k="ssr:stedsnr" v="844793" />
		<tag k="waterway" v="stream" />
	</node>
	<node id="-41491" lat="61.3277833335" lon="11.515836112">
		<tag k="name" v="Vestre Østsæterbekken" />
		<tag k="ssr:stedsnr" v="844537" />
		<tag k="waterway" v="stream" />
	</node>
	<node id="-41487" lat="61.3293999991" lon="11.4311222258">
		<tag k="name" v="Ulbekken" />
		<tag k="ssr:stedsnr" v="844518" />
		<tag k="waterway" v="stream" />
	</node>
	<node id="-41486" lat="61.3102694449" lon="11.4361416603">
		<tag k="name" v="Stokkligrunna" />
		<tag k="natural" v="shoal" />
		<tag k="place" v="locality" />
		<tag k="ssr:stedsnr" v="844511" />
	</node>
	<node id="-41471" lat="61.3290333361" lon="11.7182638883">
		<tag k="name" v="Søbydammen" />
		<tag k="ssr:stedsnr" v="831058" />
		<tag k="waterway" v="dam" />
	</node>
	<node id="-41468" lat="61.1751000018" lon="11.4075305508">
		<tag k="name" v="Vesle Ygla" />
		<tag k="ssr:stedsnr" v="830632" />
		<tag k="waterway" v="stream" />
	</node>
	<node id="-41464" lat="61.1564611114" lon="11.271611106">
		<tag k="name" v="Bergebekken" />
		<tag k="ssr:stedsnr" v="829212" />
		<tag k="waterway" v="stream" />
	</node>
	<node id="-41463" lat="61.0571611144" lon="11.3646527846">
		<tag k="name" v="Morøya" />
		<tag k="place" v="island" />
		<tag k="ssr:stedsnr" v="829210" />
	</node>
	<node id="-41454" lat="61.4193166653" lon="11.348933328">
		<tag k="name" v="Sandnestjenna" />
		<tag k="natural" v="water" />
		<tag k="ssr:stedsnr" v="797086" />
	</node>
	<node id="-41451" lat="61.2341166654" lon="11.6387944376">
		<tag k="name" v="Trøbekken" />
		<tag k="ssr:stedsnr" v="797319" />
		<tag k="waterway" v="stream" />
	</node>
	<node id="-41450" lat="61.2331333334" lon="11.5659388892">
		<tag k="name" v="Deisjøen" />
		<tag k="natural" v="water" />
		<tag k="ssr:stedsnr" v="797315" />
	</node>
	<node id="-41448" lat="61.2973805514" lon="11.4204166635">
		<tag k="name" v="Dulpa" />
		<tag k="place" v="locality" />
		<tag k="ssr:stedsnr" v="797229" />
	</node>
	<node id="-41437" lat="61.2286000022" lon="11.0000750013">
		<tag k="name" v="Kroksjøen" />
		<tag k="natural" v="water" />
		<tag k="ssr:stedsnr" v="796694" />
	</node>
	<node id="-41431" lat="61.1118916634" lon="11.1744861036">
		<tag k="name" v="Langmyrtjennet" />
		<tag k="natural" v="water" />
		<tag k="ssr:stedsnr" v="796460" />
	</node>
	<node id="-41430" lat="61.1779722247" lon="11.5230555586">
		<tag k="name" v="Svantjenn" />
		<tag k="natural" v="water" />
		<tag k="ssr:stedsnr" v="796345" />
	</node>
	<node id="-41427" lat="61.0441499979" lon="11.37408889">
		<tag k="name" v="Gardøya" />
		<tag k="place" v="islet" />
		<tag k="ssr:stedsnr" v="796271" />
	</node>
	<node id="-41426" lat="61.3850638905" lon="11.8169416607">
		<tag k="name" v="Bruråstjenna" />
		<tag k="natural" v="water" />
		<tag k="ssr:stedsnr" v="796150" />
	</node>
	<node id="-41409" lat="61.1017444435" lon="11.5600055606">
		<tag k="name" v="Krismestrømmen" />
		<tag k="ssr:stedsnr" v="787658" />
		<tag k="waterway" v="rapids" />
	</node>
	<node id="-41408" lat="61.038561111" lon="11.2876694461">
		<tag k="name" v="Slavåa" />
		<tag k="ssr:stedsnr" v="787115" />
		<tag k="waterway" v="stream" />
	</node>
	<node id="-41402" lat="61.1008333327" lon="11.1627194476">
		<tag k="name" v="Treerbekken" />
		<tag k="ssr:stedsnr" v="784930" />
		<tag k="waterway" v="stream" />
	</node>
	<node id="-41397" lat="61.0679444448" lon="11.3544444499">
		<tag k="name" v="Kvernveta" />
		<tag k="natural" v="bay" />
		<tag k="ssr:stedsnr" v="784353" />
	</node>
	<node id="-41396" lat="61.06597778" lon="11.3190111021">
		<tag k="name" v="Langdalsbekken" />
		<tag k="ssr:stedsnr" v="784178" />
		<tag k="waterway" v="stream" />
	</node>
	<node id="-41393" lat="61.4183333309" lon="11.3454499933">
		<tag k="name" v="Søndre Sandnestjennet" />
		<tag k="natural" v="water" />
		<tag k="ssr:stedsnr" v="783717" />
	</node>
	<node id="-41374" lat="61.0523444443" lon="11.3234222279">
		<tag k="name" v="Albogesvingen" />
		<tag k="place" v="locality" />
		<tag k="ssr:stedsnr" v="768196" />
	</node>
	<node id="-41373" lat="61.068161114" lon="11.3652833423">
		<tag k="name" v="Ulvstuevelta" />
		<tag k="natural" v="water" />
		<tag k="ssr:stedsnr" v="768333" />
		<tag k="water" v="lake" />
	</node>
	<node id="-41372" lat="61.0666111104" lon="11.3626611109">
		<tag k="name" v="Lysørfaret" />
		<tag k="natural" v="water" />
		<tag k="ssr:stedsnr" v="768332" />
		<tag k="water" v="lake" />
	</node>
	<node id="-41367" lat="61.2002194471" lon="11.1831499967">
		<tag k="name" v="Hemmeloset" />
		<tag k="natural" v="bay" />
		<tag k="ssr:stedsnr" v="749139" />
	</node>
	<node id="-41366" lat="61.3371499973" lon="11.7249666691">
		<tag k="name" v="Storbekken" />
		<tag k="ssr:stedsnr" v="738786" />
		<tag k="waterway" v="stream" />
	</node>
	<node id="-41365" lat="61.4009722202" lon="11.8969388906">
		<tag k="name" v="Tverrena" />
		<tag k="ssr:stedsnr" v="737588" />
		<tag k="waterway" v="river" />
	</node>
	<node id="-41359" lat="61.2299055517" lon="10.8304638946">
		<tag k="name" v="Åsta" />
		<tag k="ssr:stedsnr" v="736725" />
		<tag k="waterway" v="river" />
	</node>
	<node id="-41342" lat="61.1444944472" lon="11.2680611049">
		<tag k="name" v="Harabekken" />
		<tag k="ssr:stedsnr" v="646235" />
		<tag k="waterway" v="stream" />
	</node>
	<node id="-41336" lat="61.390994443" lon="11.3359250028">
		<tag k="alt_name" v="Næverdalsbekken" />
		<tag k="name" v="Neverdalsbekken" />
		<tag k="ssr:stedsnr" v="615036" />
		<tag k="waterway" v="stream" />
	</node>
	<node id="-41335" lat="61.2099305575" lon="11.0301305594">
		<tag k="alt_name" v="Steinsjøen, l" />
		<tag k="name" v="Vesle Steinsjøen" />
		<tag k="natural" v="water" />
		<tag k="old_name" v="L. Stensjøen" />
		<tag k="ssr:stedsnr" v="614724" />
	</node>
	<node id="-41334" lat="61.2443999996" lon="11.0608888874">
		<tag k="name" v="Staupa" />
		<tag k="ssr:stedsnr" v="614714" />
		<tag k="waterway" v="stream" />
	</node>
	<node id="-41329" lat="61.2015750024" lon="11.5230527852">
		<tag k="name" v="Osdammen" />
		<tag k="place" v="locality" />
		<tag k="ssr:stedsnr" v="614327" />
	</node>
	<node id="-41320" lat="61.4772972225" lon="11.2738083389">
		<tag k="name" v="Storsjøen" />
		<tag k="natural" v="water" />
		<tag k="ssr:stedsnr" v="614112" />
		<tag k="water" v="lake" />
	</node>
	<node id="-41314" lat="61.3176805557" lon="11.4073722167">
		<tag k="name" v="Melgardstjennet" />
		<tag k="natural" v="water" />
		<tag k="ssr:stedsnr" v="614037" />
	</node>
	<node id="-41306" lat="61.1476250018" lon="11.4488916598">
		<tag k="name" v="Gjesa" />
		<tag k="ssr:stedsnr" v="613444" />
		<tag k="waterway" v="stream" />
	</node>
	<node id="-41303" lat="61.2204305519" lon="11.1211416741">
		<tag k="name" v="Stormyrtjennet" />
		<tag k="natural" v="water" />
		<tag k="ssr:stedsnr" v="613401" />
	</node>
	<node id="-41300" lat="61.0308111152" lon="11.2899027758">
		<tag k="alt_name" v="Fiskebekken" />
		<tag k="name" v="Fiskbekken" />
		<tag k="ssr:stedsnr" v="613264" />
		<tag k="waterway" v="stream" />
	</node>
	<node id="-41293" lat="61.1271166676" lon="11.5092194386">
		<tag k="name" v="Heggeneskroken" />
		<tag k="place" v="locality" />
		<tag k="ssr:stedsnr" v="605889" />
	</node>
	<node id="-41289" lat="61.089483331" lon="11.3167500024">
		<tag k="name" v="Vesterbekken" />
		<tag k="ssr:stedsnr" v="605502" />
		<tag k="waterway" v="stream" />
	</node>
	<node id="-41283" lat="61.0280749972" lon="11.3418666581">
		<tag k="name" v="Galågrena" />
		<tag k="ssr:stedsnr" v="604251" />
		<tag k="waterway" v="stream" />
	</node>
	<node id="-41273" lat="61.3376694413" lon="11.3967500054">
		<tag k="name" v="Netlandsbekken" />
		<tag k="ssr:stedsnr" v="601515" />
		<tag k="waterway" v="stream" />
	</node>
	<node id="-41247" lat="61.3408111098" lon="11.8489944487">
		<tag k="name" v="Nysæter fiskedammer" />
		<tag k="ssr:stedsnr" v="585393" />
		<tag k="waterway" v="dam" />
	</node>
	<node id="-41244" lat="61.133419443" lon="11.3087388892">
		<tag k="name" v="Vårbekken" />
		<tag k="ssr:stedsnr" v="585005" />
		<tag k="waterway" v="stream" />
	</node>
	<node id="-41243" lat="61.1689277795" lon="11.3628833306">
		<tag k="name" v="Lukasøya" />
		<tag k="place" v="islet" />
		<tag k="ssr:stedsnr" v="568977" />
	</node>
	<node id="-41242" lat="61.1726027822" lon="11.3556805504">
		<tag k="name" v="Koksøya" />
		<tag k="place" v="islet" />
		<tag k="ssr:stedsnr" v="568968" />
	</node>
	<node id="-41235" lat="61.4611805585" lon="11.6087083327">
		<tag k="alt_name" v="Burua, nordre" />
		<tag k="name" v="Nordre Burua" />
		<tag k="ssr:stedsnr" v="554217" />
		<tag k="waterway" v="stream" />
	</node>
	<node id="-41232" lat="61.3792611147" lon="11.3334388863">
		<tag k="name" v="Bråtåbekken" />
		<tag k="ssr:stedsnr" v="554032" />
		<tag k="waterway" v="stream" />
	</node>
	<node id="-41227" lat="61.3673888918" lon="11.6477194457">
		<tag k="name" v="Åbortjennet" />
		<tag k="natural" v="water" />
		<tag k="ssr:stedsnr" v="553844" />
	</node>
	<node id="-41224" lat="61.3336166657" lon="11.7354861175">
		<tag k="name" v="Svellbekken" />
		<tag k="ssr:stedsnr" v="553825" />
		<tag k="waterway" v="stream" />
	</node>
	<node id="-41223" lat="61.2841611087" lon="11.7577805605">
		<tag k="name" v="Brennodden" />
		<tag k="natural" v="cape" />
		<tag k="ssr:stedsnr" v="553782" />
	</node>
	<node id="-41220" lat="61.1694500023" lon="11.6063749966">
		<tag k="name" v="Springrostjennet" />
		<tag k="natural" v="water" />
		<tag k="ssr:stedsnr" v="553350" />
	</node>
	<node id="-41204" lat="61.1518138848" lon="11.2654499955">
		<tag k="name" v="Skynna" />
		<tag k="ssr:stedsnr" v="552476" />
		<tag k="waterway" v="river" />
	</node>
	<node id="-41195" lat="61.2930527777" lon="11.5561111183">
		<tag k="name" v="Ærkroken" />
		<tag k="natural" v="water" />
		<tag k="ssr:stedsnr" v="544789" />
		<tag k="water" v="lake" />
	</node>
	<node id="-41192" lat="61.2951305523" lon="11.8871694476">
		<tag k="name" v="Skrikkjølbekken" />
		<tag k="ssr:stedsnr" v="544480" />
		<tag k="waterway" v="stream" />
	</node>
	<node id="-41191" lat="61.053472221" lon="11.3094277724">
		<tag k="name" v="Elgtjernet" />
		<tag k="natural" v="water" />
		<tag k="ssr:stedsnr" v="544991" />
	</node>
	<node id="-41188" lat="61.1222833362" lon="11.4493388815">
		<tag k="name" v="Va i land-holmen" />
		<tag k="place" v="islet" />
		<tag k="ssr:stedsnr" v="544965" />
	</node>
	<node id="-41186" lat="61.0436861096" lon="11.3713222288">
		<tag k="name" v="Kåsa" />
		<tag k="natural" v="water" />
		<tag k="ssr:stedsnr" v="544212" />
		<tag k="water" v="lake" />
	</node>
	<node id="-41185" lat="61.1605222177" lon="11.125211117">
		<tag k="name" v="Korsgolvtjenna" />
		<tag k="natural" v="water" />
		<tag k="ssr:stedsnr" v="543977" />
	</node>
	<node id="-41184" lat="61.399961108" lon="11.5451444442">
		<tag k="name" v="Nordsibekken" />
		<tag k="ssr:stedsnr" v="543750" />
		<tag k="waterway" v="stream" />
	</node>
	<node id="-41183" lat="61.2024277743" lon="11.2446416728">
		<tag k="name" v="Arnstadbubekken" />
		<tag k="ssr:stedsnr" v="543457" />
		<tag k="waterway" v="stream" />
	</node>
	<node id="-41181" lat="61.4187000025" lon="11.4127333374">
		<tag k="name" v="Skjærbekken" />
		<tag k="ssr:stedsnr" v="541736" />
		<tag k="waterway" v="stream" />
	</node>
	<node id="-41166" lat="61.2661250022" lon="11.8312388919">
		<tag k="name" v="Flåtåøra" />
		<tag k="natural" v="shoal" />
		<tag k="place" v="locality" />
		<tag k="ssr:stedsnr" v="527495" />
	</node>
	<node id="-41162" lat="61.1067444432" lon="11.1847388838">
		<tag k="name" v="Dalsmyrtjennet" />
		<tag k="natural" v="water" />
		<tag k="ssr:stedsnr" v="526937" />
	</node>
	<node id="-41154" lat="61.2156277764" lon="11.6448361148">
		<tag k="alt_name" v="Gardbekken, østre" />
		<tag k="name" v="Østre Gardbekken" />
		<tag k="ssr:stedsnr" v="433324" />
		<tag k="waterway" v="stream" />
	</node>
	<node id="-41152" lat="61.2317583348" lon="11.6838249909">
		<tag k="name" v="Fjølabubekken" />
		<tag k="ssr:stedsnr" v="433316" />
		<tag k="waterway" v="stream" />
	</node>
	<node id="-41150" lat="61.2157750015" lon="11.5018027837">
		<tag k="name" v="Flåtåstøtjennet" />
		<tag k="natural" v="water" />
		<tag k="ssr:stedsnr" v="433309" />
	</node>
	<node id="-41137" lat="61.3553416712" lon="11.7385444407">
		<tag k="name" v="Bergetjennet" />
		<tag k="natural" v="water" />
		<tag k="ssr:stedsnr" v="432833" />
	</node>
	<node id="-41134" lat="61.1037555557" lon="11.3059944478">
		<tag k="name" v="Bjørnbekken" />
		<tag k="ssr:stedsnr" v="432453" />
		<tag k="waterway" v="stream" />
	</node>
	<node id="-41132" lat="61.1013666648" lon="11.2234527837">
		<tag k="name" v="Allfarbekken" />
		<tag k="ssr:stedsnr" v="432449" />
		<tag k="waterway" v="stream" />
	</node>
	<node id="-41126" lat="61.178655554" lon="11.4202861172">
		<tag k="name" v="Ygla" />
		<tag k="ssr:stedsnr" v="432397" />
		<tag k="waterway" v="river" />
	</node>
	<node id="-41117" lat="60.9394388853" lon="11.516244439">
		<tag k="fixme" v="multiple name tags, choose one and add the other to alt_name" />
		<tag k="name" v="Glomma;Glåma" />
		<tag k="ssr:stedsnr" v="426301" />
		<tag k="waterway" v="river" />
	</node>
	<node id="-41116" lat="61.0557277759" lon="11.3071361189">
		<tag k="name" v="Grindbekken" />
		<tag k="ssr:stedsnr" v="423992" />
		<tag k="waterway" v="stream" />
	</node>
	<node id="-41114" lat="61.416255556" lon="11.482422218">
		<tag k="name" v="Okshølet" />
		<tag k="natural" v="water" />
		<tag k="ssr:stedsnr" v="423772" />
		<tag k="water" v="pond" />
	</node>
	<node id="-41113" lat="61.4325250002" lon="11.5308055628">
		<tag k="name" v="Øvre Toløetjernet" />
		<tag k="natural" v="water" />
		<tag k="ssr:stedsnr" v="423768" />
	</node>
	<node id="-41110" lat="61.1264444439" lon="11.2371138917">
		<tag k="name" v="Bjønnveta" />
		<tag k="ssr:stedsnr" v="423267" />
		<tag k="waterway" v="stream" />
	</node>
	<node id="-41102" lat="61.1144166678" lon="11.3893555601">
		<tag k="name" v="Øverjordsbekken" />
		<tag k="ssr:stedsnr" v="420484" />
		<tag k="waterway" v="stream" />
	</node>
	<node id="-41093" lat="61.2424944432" lon="11.4542916581">
		<tag k="name" v="Enbarbekken" />
		<tag k="ssr:stedsnr" v="406573" />
		<tag k="waterway" v="stream" />
	</node>
	<node id="-41079" lat="61.2076305564" lon="11.5517861096">
		<tag k="alt_name" v="Søndre Deia" />
		<tag k="name" v="Deia" />
		<tag k="ssr:stedsnr" v="372351" />
		<tag k="waterway" v="stream" />
	</node>
	<node id="-41071" lat="61.3222222197" lon="11.690852775">
		<tag k="name" v="Lemtjenna" />
		<tag k="natural" v="water" />
		<tag k="ssr:stedsnr" v="371866" />
	</node>
	<node id="-41063" lat="61.1059777736" lon="11.2112500002">
		<tag k="name" v="Svartåa" />
		<tag k="ssr:stedsnr" v="371447" />
		<tag k="waterway" v="stream" />
	</node>
	<node id="-41062" lat="61.2287027761" lon="11.0159694435">
		<tag k="name" v="Krokåa" />
		<tag k="ssr:stedsnr" v="371694" />
		<tag k="waterway" v="stream" />
	</node>
	<node id="-41061" lat="61.0758694419" lon="11.3291305538">
		<tag k="name" v="Posttjennet" />
		<tag k="natural" v="water" />
		<tag k="ssr:stedsnr" v="371480" />
	</node>
	<node id="-41060" lat="61.0800000045" lon="11.3974722239">
		<tag k="name" v="Harptjennet" />
		<tag k="natural" v="water" />
		<tag k="ssr:stedsnr" v="371475" />
	</node>
	<node id="-41055" lat="61.135477778" lon="11.4212944516">
		<tag k="name" v="Svarttjennet" />
		<tag k="natural" v="water" />
		<tag k="ssr:stedsnr" v="371428" />
	</node>
	<node id="-41041" lat="61.2826999987" lon="11.8068722285">
		<tag k="name" v="Killingpina" />
		<tag k="place" v="islet" />
		<tag k="ssr:stedsnr" v="362479" />
	</node>
	<node id="-41038" lat="61.061886112" lon="11.2288444404">
		<tag k="name" v="Jernfallet" />
		<tag k="natural" v="waterfall" />
		<tag k="ssr:stedsnr" v="362124" />
	</node>
	<node id="-41037" lat="61.0893444476" lon="11.2365472242">
		<tag k="name" v="Kvernøya" />
		<tag k="place" v="islet" />
		<tag k="ssr:stedsnr" v="362029" />
	</node>
	<node id="-41036" lat="61.0913944468" lon="11.2307250002">
		<tag k="name" v="Skomakerholmen" />
		<tag k="place" v="islet" />
		<tag k="ssr:stedsnr" v="362027" />
	</node>
	<node id="-41032" lat="61.0646916688" lon="11.3608805529">
		<tag k="name" v="Bjørnstadøya" />
		<tag k="place" v="island" />
		<tag k="ssr:stedsnr" v="359142" />
	</node>
	<node id="-41029" lat="61.3240027815" lon="11.4266888841">
		<tag k="name" v="Raudstrømmen" />
		<tag k="ssr:stedsnr" v="358539" />
		<tag k="waterway" v="rapids" />
	</node>
	<node id="-41018" lat="61.0572388928" lon="11.4091666753">
		<tag k="name" v="Holsetbubekken" />
		<tag k="ssr:stedsnr" v="343202" />
		<tag k="waterway" v="stream" />
	</node>
	<node id="-41012" lat="61.1326833374" lon="11.3251444501">
		<tag k="name" v="Skjerva" />
		<tag k="ssr:stedsnr" v="324163" />
		<tag k="waterway" v="stream" />
	</node>
	<node id="-41010" lat="61.2001916697" lon="11.1831777808">
		<tag k="name" v="Hemmeloset" />
		<tag k="natural" v="bay" />
		<tag k="ssr:stedsnr" v="324150" />
	</node>
	<node id="-41007" lat="61.2621277739" lon="11.4359055495">
		<tag k="name" v="Runddalssjøen" />
		<tag k="natural" v="water" />
		<tag k="ssr:stedsnr" v="312230" />
		<tag k="water" v="lake" />
	</node>
	<node id="-41005" lat="61.3608750038" lon="11.3804555645">
		<tag k="name" v="Harptjennet" />
		<tag k="natural" v="water" />
		<tag k="ssr:stedsnr" v="312060" />
	</node>
	<node id="-41002" lat="61.3992249967" lon="11.390336109">
		<tag k="name" v="Ingeborgbekken" />
		<tag k="ssr:stedsnr" v="312039" />
		<tag k="waterway" v="stream" />
	</node>
	<node id="-41000" lat="61.3574444446" lon="11.543355563">
		<tag k="name" v="Knubbetjennet" />
		<tag k="natural" v="water" />
		<tag k="ssr:stedsnr" v="311872" />
	</node>
	<node id="-40994" lat="61.1799277771" lon="11.0765111121">
		<tag k="alt_name" v="Djupa, nordre" />
		<tag k="name" v="Nordre Djupa" />
		<tag k="ssr:stedsnr" v="311590" />
		<tag k="waterway" v="stream" />
	</node>
	<node id="-40987" lat="61.2119861101" lon="11.6112305554">
		<tag k="name" v="Skjerodden" />
		<tag k="natural" v="cape" />
		<tag k="ssr:stedsnr" v="311404" />
	</node>
	<node id="-40985" lat="61.2060055575" lon="11.4997805616">
		<tag k="name" v="Flåtåstøbekken" />
		<tag k="ssr:stedsnr" v="311396" />
		<tag k="waterway" v="stream" />
	</node>
	<node id="-40981" lat="61.2368999956" lon="11.6148527781">
		<tag k="name" v="Vakkerbekken" />
		<tag k="ssr:stedsnr" v="311365" />
		<tag k="waterway" v="stream" />
	</node>
	<node id="-40979" lat="61.4575750019" lon="11.5812083329">
		<tag k="name" v="Fiskehansbekken" />
		<tag k="ssr:stedsnr" v="311261" />
		<tag k="waterway" v="stream" />
	</node>
	<node id="-40974" lat="61.3784805574" lon="11.82250833">
		<tag k="name" v="Granåstjennet" />
		<tag k="natural" v="water" />
		<tag k="ssr:stedsnr" v="311188" />
	</node>
	<node id="-40973" lat="61.385019447" lon="11.7012138832">
		<tag k="name" v="Gardbekken" />
		<tag k="ssr:stedsnr" v="311186" />
		<tag k="waterway" v="stream" />
	</node>
	<node id="-40968" lat="61.4274000044" lon="11.385877771">
		<tag k="alt_name" v="Blisterbekken" />
		<tag k="name" v="Blæsterbekken" />
		<tag k="ssr:stedsnr" v="311091" />
		<tag k="waterway" v="stream" />
	</node>
	<node id="-40967" lat="61.0964999974" lon="11.2554111172">
		<tag k="name" v="Fossbekken" />
		<tag k="ssr:stedsnr" v="310493" />
		<tag k="waterway" v="stream" />
	</node>
	<node id="-40965" lat="61.1188250011" lon="11.317900009">
		<tag k="name" v="Engåa" />
		<tag k="ssr:stedsnr" v="310476" />
		<tag k="waterway" v="stream" />
	</node>
	<node id="-40964" lat="61.1211027784" lon="11.1118555601">
		<tag k="name" v="Storbekken" />
		<tag k="ssr:stedsnr" v="310475" />
		<tag k="waterway" v="stream" />
	</node>
	<node id="-40963" lat="61.1647333346" lon="11.0992166663">
		<tag k="alt_name" v="Djupa, s" />
		<tag k="name" v="Søndre Djupa" />
		<tag k="ssr:stedsnr" v="310457" />
		<tag k="waterway" v="river" />
	</node>
</osm>
