<?xml version="1.0" encoding="UTF-8"?>
<osm generator="osmapis" version="0.6">
	<node id="-303104" lat="61.3884416624" lon="11.3703749986">
		<tag k="name" v="Evjestua" />
		<tag k="place" v="isolated_dwelling" />
		<tag k="ssr:stedsnr" v="55677" />
	</node>
	<node id="-303103" lat="61.4059944464" lon="11.3720694382">
		<tag k="name" v="Øvre Glesåen" />
		<tag k="place" v="isolated_dwelling" />
		<tag k="ssr:stedsnr" v="55675" />
	</node>
	<node id="-303099" lat="61.305002774" lon="11.4626333338">
		<tag k="name" v="Halvorsstua" />
		<tag k="place" v="farm" />
		<tag k="ssr:stedsnr" v="55499" />
	</node>
	<node id="-303098" lat="61.3194083348" lon="11.4387027822">
		<tag k="name" v="Skogheim" />
		<tag k="place" v="isolated_dwelling" />
		<tag k="ssr:stedsnr" v="55489" />
	</node>
	<node id="-303095" lat="61.3499444438" lon="11.6068305565">
		<tag k="name" v="Gjeldslikoia" />
		<tag k="place" v="isolated_dwelling" />
		<tag k="ssr:stedsnr" v="42946" />
	</node>
	<node id="-303090" lat="61.3012027791" lon="11.4574472224">
		<tag k="fixme" v="consider place=hamlet" />
		<tag k="name" v="Deset" />
		<tag k="place" v="village" />
		<tag k="ssr:stedsnr" v="25576" />
	</node>
	<node id="-303088" lat="61.168513891" lon="11.3558611082">
		<tag k="name" v="Neset" />
		<tag k="place" v="farm" />
		<tag k="ssr:stedsnr" v="21187" />
	</node>
	<node id="-303085" lat="61.347947219" lon="11.8639416649">
		<tag k="name" v="Nysted" />
		<tag k="place" v="farm" />
		<tag k="ssr:stedsnr" v="9574" />
	</node>
	<node id="-303080" lat="61.2364444404" lon="11.8214222164">
		<tag k="name" v="Østli" />
		<tag k="place" v="farm" />
		<tag k="ssr:stedsnr" v="8342" />
	</node>
	<node id="-303079" lat="61.2358888848" lon="11.662633332">
		<tag k="name" v="Østre Æra" />
		<tag k="ssr:stedsnr" v="8331" />
		<tag k="tourism" v="camp_site" />
	</node>
	<node id="-303078" lat="61.2411111094" lon="11.7750805612">
		<tag k="name" v="Nordli" />
		<tag k="place" v="farm" />
		<tag k="ssr:stedsnr" v="8329" />
	</node>
	<node id="-303077" lat="61.2388749994" lon="11.7832361082">
		<tag k="name" v="Lia" />
		<tag k="place" v="farm" />
		<tag k="ssr:stedsnr" v="8327" />
	</node>
	<node id="-303076" lat="61.2600638847" lon="11.3475861168">
		<tag k="name" v="Myrvoll" />
		<tag k="place" v="isolated_dwelling" />
		<tag k="ssr:stedsnr" v="8267" />
	</node>
	<node id="-303070" lat="61.4292027807" lon="11.6984000089">
		<tag k="alt_name" v="Løsset-Osdalen" />
		<tag k="name" v="Løsetdalen" />
		<tag k="place" v="farm" />
		<tag k="ssr:stedsnr" v="8198" />
	</node>
	<node id="-303069" lat="61.4217499966" lon="11.5898527711">
		<tag k="name" v="Torgersbua" />
		<tag k="place" v="isolated_dwelling" />
		<tag k="ssr:stedsnr" v="8196" />
	</node>
	<node id="-303065" lat="61.1251111138" lon="11.5679722275">
		<tag k="name" v="Brenna" />
		<tag k="place" v="farm" />
		<tag k="ssr:stedsnr" v="8136" />
	</node>
	<node id="-303064" lat="61.4051777805" lon="11.3683833367">
		<tag k="alt_name" v="Nedre Glesåen" />
		<tag k="name" v="Glesåa" />
		<tag k="place" v="isolated_dwelling" />
		<tag k="ssr:stedsnr" v="8100" />
	</node>
	<node id="-303063" lat="61.4038500031" lon="11.3595749909">
		<tag k="name" v="Sjømoen" />
		<tag k="place" v="isolated_dwelling" />
		<tag k="ssr:stedsnr" v="8097" />
	</node>
	<node id="-303059" lat="61.3320611098" lon="11.7979861126">
		<tag k="name" v="Heimli" />
		<tag k="place" v="farm" />
		<tag k="ssr:stedsnr" v="7861" />
	</node>
	<node id="-303058" lat="61.3088999989" lon="11.4974777864">
		<tag k="name" v="Bergset" />
		<tag k="place" v="farm" />
		<tag k="ssr:stedsnr" v="7843" />
	</node>
	<node id="-303057" lat="61.3096433764" lon="11.7261969797">
		<tag k="name" v="Osvoll" />
		<tag k="place" v="hamlet" />
		<tag k="ssr:stedsnr" v="7834" />
	</node>
	<node id="-303054" lat="61.3531805535" lon="11.7759083361">
		<tag k="name" v="Søberg" />
		<tag k="place" v="farm" />
		<tag k="ssr:stedsnr" v="7825" />
	</node>
	<node id="-303053" lat="61.3404916671" lon="11.57754723">
		<tag k="name" v="Elgstølen" />
		<tag k="place" v="isolated_dwelling" />
		<tag k="ssr:stedsnr" v="7810" />
	</node>
	<node id="-303052" lat="61.3495611088" lon="11.6768277867">
		<tag k="alt_name" v="Jensbua" />
		<tag k="name" v="Jensbu" />
		<tag k="place" v="farm" />
		<tag k="ssr:stedsnr" v="7799" />
	</node>
	<node id="-303051" lat="61.3448055552" lon="11.6855972302">
		<tag k="name" v="Vangen" />
		<tag k="place" v="farm" />
		<tag k="ssr:stedsnr" v="7798" />
	</node>
	<node id="-303050" lat="61.2559555516" lon="11.5826611054">
		<tag k="alt_name" v="Bjønnset" />
		<tag k="historic" v="shieling" />
		<tag k="name" v="Bjørasetsætra" />
		<tag k="place" v="locality" />
		<tag k="ssr:stedsnr" v="7788" />
	</node>
	<node id="-303049" lat="61.2920166698" lon="11.6369333245">
		<tag k="name" v="Statens brakke" />
		<tag k="place" v="isolated_dwelling" />
		<tag k="ssr:stedsnr" v="7766" />
	</node>
	<node id="-303047" lat="61.2565555597" lon="11.4938416734">
		<tag k="name" v="Pershytta" />
		<tag k="place" v="isolated_dwelling" />
		<tag k="ssr:stedsnr" v="7747" />
	</node>
	<node id="-303045" lat="61.2780305574" lon="11.7080999946">
		<tag k="name" v="Nybua" />
		<tag k="place" v="locality" />
		<tag k="ssr:stedsnr" v="7737" />
	</node>
	<node id="-303042" lat="61.1562638858" lon="11.2206805605">
		<tag k="historic" v="shieling" />
		<tag k="name" v="Kløvstadsætra" />
		<tag k="place" v="locality" />
		<tag k="ssr:stedsnr" v="7423" />
	</node>
	<node id="-303041" lat="61.1550888931" lon="11.2782749947">
		<tag k="name" v="Fallkoia" />
		<tag k="place" v="isolated_dwelling" />
		<tag k="ssr:stedsnr" v="7422" />
	</node>
	<node id="-303040" lat="61.1580944467" lon="11.3081388892">
		<tag k="name" v="Skynnsvea" />
		<tag k="place" v="isolated_dwelling" />
		<tag k="ssr:stedsnr" v="7421" />
	</node>
	<node id="-303039" lat="61.2043805582" lon="11.4494805557">
		<tag k="historic" v="shieling" />
		<tag k="name" v="Stavlia" />
		<tag k="place" v="locality" />
		<tag k="ssr:stedsnr" v="7397" />
	</node>
	<node id="-303036" lat="61.2352527806" lon="11.3399250043">
		<tag k="name" v="Hellestua" />
		<tag k="place" v="farm" />
		<tag k="ssr:stedsnr" v="7383" />
	</node>
	<node id="-303034" lat="61.1655333374" lon="11.7035555613">
		<tag k="name" v="Gransjøkoia" />
		<tag k="place" v="isolated_dwelling" />
		<tag k="ssr:stedsnr" v="7357" />
	</node>
	<node id="-303033" lat="61.1928027817" lon="11.5701777851">
		<tag k="name" v="Vollstua" />
		<tag k="place" v="farm" />
		<tag k="ssr:stedsnr" v="7353" />
	</node>
	<node id="-303031" lat="61.0474416629" lon="11.3454666618">
		<tag k="name" v="Fallsvea" />
		<tag k="place" v="farm" />
		<tag k="ssr:stedsnr" v="7276" />
	</node>
	<node id="-303030" lat="61.0289416671" lon="11.3183527822">
		<tag k="name" v="Gåsbua" />
		<tag k="place" v="isolated_dwelling" />
		<tag k="ssr:stedsnr" v="7272" />
	</node>
	<node id="-303029" lat="61.0669500043" lon="11.4657583255">
		<tag k="alt_name" v="Kråksætra, øvre;Kråksætra" />
		<tag k="historic" v="shieling" />
		<tag k="name" v="Øvre Kråksætra" />
		<tag k="place" v="locality" />
		<tag k="ssr:stedsnr" v="7268" />
	</node>
	<node id="-303025" lat="61.3832166682" lon="11.6062916689">
		<tag k="historic" v="shieling" />
		<tag k="name" v="Bakksætra" />
		<tag k="place" v="locality" />
		<tag k="ssr:stedsnr" v="7162" />
	</node>
	<node id="-303023" lat="61.3891583374" lon="11.5922222164">
		<tag k="name" v="Myrebua" />
		<tag k="place" v="isolated_dwelling" />
		<tag k="ssr:stedsnr" v="7140" />
	</node>
	<node id="-303022" lat="61.1716395637" lon="11.2922628852">
		<tag k="landuse" v="winter_sports" />
		<tag k="name" v="Rena Alpin og Skisenter" />
		<tag k="piste:type" v="downhill" />
		<tag k="ssr:stedsnr" v="982379" />
	</node>
	<node id="-303020" lat="61.0944222204" lon="11.3537499918">
		<tag k="name" v="Delebekk" />
		<tag k="place" v="isolated_dwelling" />
		<tag k="ssr:stedsnr" v="969516" />
	</node>
	<node id="-303016" lat="61.0622888903" lon="11.3047194492">
		<tag k="name" v="Langmokoia" />
		<tag k="place" v="locality" />
		<tag k="ssr:stedsnr" v="968124" />
	</node>
	<node id="-303015" lat="61.070991665" lon="11.2967111062">
		<tag k="name" v="Trolldalskoia" />
		<tag k="place" v="locality" />
		<tag k="ssr:stedsnr" v="968119" />
	</node>
	<node id="-303012" lat="61.0670916655" lon="11.3464250056">
		<tag k="name" v="Nygårdstua" />
		<tag k="place" v="farm" />
		<tag k="ssr:stedsnr" v="966174" />
	</node>
	<node id="-303010" lat="61.143592027" lon="11.3443852539">
		<tag k="fixme" v="consider place=hamlet" />
		<tag k="name" v="Store Arnestad" />
		<tag k="place" v="farm" />
		<tag k="ssr:stedsnr" v="965404" />
	</node>
	<node id="-303007" lat="61.3504416706" lon="11.3877972264">
		<tag k="alt_name" v="Grønvoll, Nørdre;Grønvollen" />
		<tag k="name" v="Nørdre Grønvoll" />
		<tag k="place" v="isolated_dwelling" />
		<tag k="ssr:stedsnr" v="919060" />
	</node>
	<node id="-303003" lat="61.2533277748" lon="11.4946555616">
		<tag k="name" v="Furulund" />
		<tag k="place" v="isolated_dwelling" />
		<tag k="ssr:stedsnr" v="918854" />
	</node>
	<node id="-303002" lat="61.2973722209" lon="11.7989666704">
		<tag k="name" v="Sandvika" />
		<tag k="ssr:stedsnr" v="918823" />
		<tag k="tourism" v="camp_site" />
	</node>
	<node id="-303001" lat="61.2645305544" lon="11.6721999916">
		<tag k="name" v="Lensmannskoia" />
		<tag k="place" v="isolated_dwelling" />
		<tag k="ssr:stedsnr" v="918815" />
	</node>
	<node id="-302999" lat="61.2730916672" lon="11.6048944412">
		<tag k="name" v="Elleverkoia" />
		<tag k="place" v="locality" />
		<tag k="ssr:stedsnr" v="918807" />
	</node>
	<node id="-302998" lat="61.1780027764" lon="11.6797833368">
		<tag k="name" v="Gleden" />
		<tag k="place" v="isolated_dwelling" />
		<tag k="ssr:stedsnr" v="918417" />
	</node>
	<node id="-302996" lat="61.2490583306" lon="11.8020055492">
		<tag k="name" v="Rømoen" />
		<tag k="place" v="farm" />
		<tag k="ssr:stedsnr" v="918361" />
	</node>
	<node id="-302993" lat="61.0896055578" lon="11.215449999">
		<tag k="historic" v="shieling" />
		<tag k="name" v="Åstdalsætra" />
		<tag k="place" v="locality" />
		<tag k="ssr:stedsnr" v="917459" />
	</node>
	<node id="-302991" lat="61.1382777758" lon="11.3971166639">
		<tag k="leisure" v="pitch" />
		<tag k="name" v="Renabakken" />
		<tag k="ssr:stedsnr" v="917422" />
	</node>
	<node id="-302986" lat="61.0552485443" lon="11.3760530043">
		<tag k="fixme" v="consider place=hamlet" />
		<tag k="name" v="Vål" />
		<tag k="place" v="farm" />
		<tag k="ssr:stedsnr" v="917209" />
	</node>
	<node id="-302981" lat="61.2532083369" lon="11.7118944355">
		<tag k="name" v="Solstad" />
		<tag k="place" v="isolated_dwelling" />
		<tag k="ssr:stedsnr" v="905915" />
	</node>
	<node id="-302980" lat="61.2424944426" lon="11.7819055521">
		<tag k="name" v="Sandneset" />
		<tag k="place" v="isolated_dwelling" />
		<tag k="ssr:stedsnr" v="905910" />
	</node>
	<node id="-302979" lat="61.2498208088" lon="11.759866634">
		<tag k="fixme" v="multiple name tags, choose one and add the other to alt_name; consider place=hamlet" />
		<tag k="name" v="Brevik;Tjernet" />
		<tag k="place" v="farm" />
		<tag k="ssr:stedsnr" v="905908" />
	</node>
	<node id="-302967" lat="61.1369861111" lon="11.287275008">
		<tag k="name" v="Lillehagen" />
		<tag k="place" v="farm" />
		<tag k="ssr:stedsnr" v="950001" />
	</node>
	<node id="-302964" lat="61.3222250036" lon="11.8564888855">
		<tag k="name" v="Saga" />
		<tag k="place" v="farm" />
		<tag k="ssr:stedsnr" v="858604" />
	</node>
	<node id="-302963" lat="61.2394444449" lon="11.8132027769">
		<tag k="name" v="Sørli" />
		<tag k="place" v="farm" />
		<tag k="ssr:stedsnr" v="858329" />
	</node>
	<node id="-302959" lat="61.3439694438" lon="11.6523472187">
		<tag k="name" v="Solvang" />
		<tag k="place" v="farm" />
		<tag k="ssr:stedsnr" v="857816" />
	</node>
	<node id="-302958" lat="61.3489694477" lon="11.673988888">
		<tag k="name" v="Eriksbu" />
		<tag k="place" v="farm" />
		<tag k="ssr:stedsnr" v="857814" />
	</node>
	<node id="-302957" lat="61.3435805531" lon="11.6860444376">
		<tag k="name" v="Hjemly" />
		<tag k="place" v="farm" />
		<tag k="ssr:stedsnr" v="857812" />
	</node>
	<node id="-302955" lat="61.2423833339" lon="11.4930999997">
		<tag k="name" v="Elvebakken" />
		<tag k="place" v="farm" />
		<tag k="ssr:stedsnr" v="857325" />
	</node>
	<node id="-302952" lat="61.1168527757" lon="11.3531083295">
		<tag k="name" v="Bekkelaget" />
		<tag k="place" v="hamlet" />
		<tag k="ssr:stedsnr" v="856518" />
	</node>
	<node id="-302951" lat="61.133058333" lon="11.4396750069">
		<tag k="name" v="Bakmyrbua" />
		<tag k="place" v="isolated_dwelling" />
		<tag k="ssr:stedsnr" v="856511" />
	</node>
	<node id="-302950" lat="61.1754444424" lon="11.1923111031">
		<tag k="name" v="Skynndalen" />
		<tag k="place" v="hamlet" />
		<tag k="ssr:stedsnr" v="856477" />
	</node>
	<node id="-302948" lat="61.2384416673" lon="11.1515750019">
		<tag k="name" v="Gjetodden" />
		<tag k="place" v="isolated_dwelling" />
		<tag k="ssr:stedsnr" v="856417" />
	</node>
	<node id="-302947" lat="61.1866833356" lon="11.6424861147">
		<tag k="name" v="Hovindkoia" />
		<tag k="place" v="isolated_dwelling" />
		<tag k="ssr:stedsnr" v="848840" />
	</node>
	<node id="-302945" lat="61.3848750024" lon="11.3498527855">
		<tag k="name" v="Lindrustkoia" />
		<tag k="place" v="isolated_dwelling" />
		<tag k="ssr:stedsnr" v="844727" />
	</node>
	<node id="-302941" lat="61.2964944416" lon="11.827124995">
		<tag k="name" v="Skavernsaga" />
		<tag k="place" v="locality" />
		<tag k="ssr:stedsnr" v="829444" />
	</node>
	<node id="-302939" lat="61.2228444456" lon="11.7171583382">
		<tag k="historic" v="shieling" />
		<tag k="name" v="Gransætra" />
		<tag k="place" v="locality" />
		<tag k="ssr:stedsnr" v="797307" />
	</node>
	<node id="-302938" lat="61.2215888903" lon="11.6146444435">
		<tag k="name" v="Grosstjennbua" />
		<tag k="place" v="isolated_dwelling" />
		<tag k="ssr:stedsnr" v="797306" />
	</node>
	<node id="-302936" lat="61.4295305548" lon="11.5525777739">
		<tag k="name" v="Sørensbua" />
		<tag k="place" v="isolated_dwelling" />
		<tag k="ssr:stedsnr" v="797187" />
	</node>
	<node id="-302935" lat="61.420605552" lon="11.5701277716">
		<tag k="name" v="Tierbua" />
		<tag k="place" v="isolated_dwelling" />
		<tag k="ssr:stedsnr" v="797186" />
	</node>
	<node id="-302933" lat="61.1009277788" lon="11.5352333349">
		<tag k="alt_name" v="Nytrøa" />
		<tag k="name" v="Nytrøen" />
		<tag k="place" v="farm" />
		<tag k="ssr:stedsnr" v="797182" />
	</node>
	<node id="-302932" lat="61.0978250025" lon="11.4987861159">
		<tag k="name" v="Mørstadsaga" />
		<tag k="place" v="isolated_dwelling" />
		<tag k="ssr:stedsnr" v="797181" />
	</node>
	<node id="-302931" lat="61.1102333295" lon="11.5143083293">
		<tag k="alt_name" v="Julusbakken" />
		<tag k="name" v="Julussbakken" />
		<tag k="place" v="farm" />
		<tag k="ssr:stedsnr" v="797178" />
	</node>
	<node id="-302928" lat="61.38100833" lon="11.3575583288">
		<tag k="alt_name" v="Bråten" />
		<tag k="name" v="Bråtån" />
		<tag k="place" v="locality" />
		<tag k="ssr:stedsnr" v="797041" />
	</node>
	<node id="-302927" lat="61.3294277798" lon="11.3921666747">
		<tag k="alt_name" v="Ulvberget" />
		<tag k="name" v="Ulberget" />
		<tag k="place" v="isolated_dwelling" />
		<tag k="ssr:stedsnr" v="797013" />
	</node>
	<node id="-302926" lat="61.303186115" lon="11.7985138845">
		<tag k="name" v="Øverås" />
		<tag k="place" v="farm" />
		<tag k="ssr:stedsnr" v="796777" />
	</node>
	<node id="-302925" lat="61.3405888852" lon="11.6952944503">
		<tag k="name" v="Nordli" />
		<tag k="place" v="farm" />
		<tag k="ssr:stedsnr" v="796832" />
	</node>
	<node id="-302924" lat="61.3438702385" lon="11.6634040766">
		<tag k="alt_name" v="Skjæråsen" />
		<tag k="fixme" v="consider place=hamlet" />
		<tag k="name" v="Skjeråsen" />
		<tag k="place" v="farm" />
		<tag k="ssr:stedsnr" v="796824" />
	</node>
	<node id="-302923" lat="61.262430555" lon="11.5505666646">
		<tag k="name" v="Syverbua" />
		<tag k="place" v="isolated_dwelling" />
		<tag k="ssr:stedsnr" v="796807" />
	</node>
	<node id="-302922" lat="61.2082305523" lon="11.0888000083">
		<tag k="name" v="Halvfjerds" />
		<tag k="place" v="isolated_dwelling" />
		<tag k="ssr:stedsnr" v="796557" />
	</node>
	<node id="-302912" lat="61.3872472231" lon="11.8404861087">
		<tag k="historic" v="shieling" />
		<tag k="name" v="Rognåsen" />
		<tag k="place" v="locality" />
		<tag k="ssr:stedsnr" v="796159" />
	</node>
	<node id="-302910" lat="61.165133331" lon="11.165658338">
		<tag k="name" v="Hemmelbu" />
		<tag k="place" v="isolated_dwelling" />
		<tag k="ssr:stedsnr" v="787975" />
	</node>
	<node id="-302909" lat="61.153061114" lon="11.1468083278">
		<tag k="name" v="Røysa" />
		<tag k="place" v="isolated_dwelling" />
		<tag k="ssr:stedsnr" v="787972" />
	</node>
	<node id="-302905" lat="61.0893666703" lon="11.2470944367">
		<tag k="name" v="Fetkoia" />
		<tag k="place" v="locality" />
		<tag k="ssr:stedsnr" v="787019" />
	</node>
	<node id="-302902" lat="61.3735777798" lon="11.3628861112">
		<tag k="name" v="Dalby" />
		<tag k="place" v="isolated_dwelling" />
		<tag k="ssr:stedsnr" v="919051" />
	</node>
	<node id="-302901" lat="61.3158416669" lon="11.5335861076">
		<tag k="historic" v="shieling" />
		<tag k="name" v="Deset-Østsætra" />
		<tag k="place" v="locality" />
		<tag k="ssr:stedsnr" v="918899" />
	</node>
	<node id="-302899" lat="61.3294444483" lon="11.7198444439">
		<tag k="alt_name" v="Søby" />
		<tag k="name" v="Sørby" />
		<tag k="place" v="farm" />
		<tag k="ssr:stedsnr" v="918889" />
	</node>
	<node id="-302897" lat="61.3073388901" lon="11.7828805467">
		<tag k="name" v="Mo" />
		<tag k="place" v="farm" />
		<tag k="ssr:stedsnr" v="918885" />
	</node>
	<node id="-302894" lat="61.2013555527" lon="11.4950555626">
		<tag k="name" v="Flåtåstøa" />
		<tag k="place" v="isolated_dwelling" />
		<tag k="ssr:stedsnr" v="918379" />
	</node>
	<node id="-302890" lat="61.469505555" lon="11.7442277766">
		<tag k="historic" v="shieling" />
		<tag k="name" v="Stenersætra" />
		<tag k="place" v="locality" />
		<tag k="ssr:stedsnr" v="918241" />
	</node>
	<node id="-302889" lat="61.4489472238" lon="11.6903444522">
		<tag k="name" v="Nygard" />
		<tag k="place" v="farm" />
		<tag k="ssr:stedsnr" v="918234" />
	</node>
	<node id="-302888" lat="61.4024027815" lon="11.3474722281">
		<tag k="name" v="Brenna" />
		<tag k="place" v="isolated_dwelling" />
		<tag k="ssr:stedsnr" v="918090" />
	</node>
	<node id="-302886" lat="61.1154305525" lon="11.5216722217">
		<tag k="name" v="Brunabben" />
		<tag k="place" v="farm" />
		<tag k="ssr:stedsnr" v="918137" />
	</node>
	<node id="-302884" lat="61.1102972262" lon="11.2004083401">
		<tag k="name" v="Svartåbua" />
		<tag k="place" v="isolated_dwelling" />
		<tag k="ssr:stedsnr" v="917443" />
	</node>
	<node id="-302883" lat="61.1198444413" lon="11.3785972258">
		<tag k="name" v="Kjellslykkja" />
		<tag k="place" v="farm" />
		<tag k="ssr:stedsnr" v="917439" />
	</node>
	<node id="-302882" lat="61.1219166685" lon="11.4304972163">
		<tag k="name" v="Utsikten" />
		<tag k="place" v="isolated_dwelling" />
		<tag k="ssr:stedsnr" v="917438" />
	</node>
	<node id="-302881" lat="61.1175061724" lon="11.375987782">
		<tag k="name" v="Amundstad" />
		<tag k="place" v="hamlet" />
		<tag k="ssr:stedsnr" v="917437" />
	</node>
	<node id="-302877" lat="61.0779486035" lon="11.3750120366">
		<tag k="alt_name" v="Søndre Glomstad" />
		<tag k="fixme" v="consider place=hamlet" />
		<tag k="name" v="Glomstad" />
		<tag k="place" v="farm" />
		<tag k="ssr:stedsnr" v="917473" />
	</node>
	<node id="-302876" lat="61.0779861155" lon="11.2191777774">
		<tag k="name" v="Nybua" />
		<tag k="place" v="isolated_dwelling" />
		<tag k="ssr:stedsnr" v="917467" />
	</node>
	<node id="-302875" lat="61.1487500009" lon="11.3677500017">
		<tag k="name" v="Vik" />
		<tag k="place" v="farm" />
		<tag k="ssr:stedsnr" v="917399" />
	</node>
	<node id="-302874" lat="61.1516904318" lon="11.4161027505">
		<tag k="fixme" v="consider place=hamlet" />
		<tag k="name" v="Melhagen" />
		<tag k="place" v="farm" />
		<tag k="ssr:stedsnr" v="917397" />
	</node>
	<node id="-302873" lat="61.0349862896" lon="11.3785955254">
		<tag k="fixme" v="consider place=hamlet" />
		<tag k="name" v="Bråten" />
		<tag k="place" v="farm" />
		<tag k="ssr:stedsnr" v="917239" />
	</node>
	<node id="-302867" lat="61.3833472226" lon="11.6287111025">
		<tag k="name" v="Søndre Dambua" />
		<tag k="place" v="isolated_dwelling" />
		<tag k="ssr:stedsnr" v="770949" />
	</node>
	<node id="-302864" lat="61.300347224" lon="11.7804055608">
		<tag k="fixme" v="consider natural=beach + surface=sand" />
		<tag k="leisure" v="swimming_area" />
		<tag k="name" v="Osmund sand" />
		<tag k="place" v="locality" />
		<tag k="ssr:stedsnr" v="770065" />
	</node>
	<node id="-302859" lat="61.0644972188" lon="11.484683332">
		<tag k="name" v="Tierbua" />
		<tag k="place" v="locality" />
		<tag k="ssr:stedsnr" v="909835" />
	</node>
	<node id="-302857" lat="61.1989722266" lon="11.4975083261">
		<tag k="name" v="Oset" />
		<tag k="place" v="isolated_dwelling" />
		<tag k="ssr:stedsnr" v="909582" />
	</node>
	<node id="-302844" lat="61.2650361156" lon="11.4105861153">
		<tag k="name" v="Storbua" />
		<tag k="place" v="isolated_dwelling" />
		<tag k="ssr:stedsnr" v="906628" />
	</node>
	<node id="-302842" lat="61.0757083301" lon="11.3436361192">
		<tag k="name" v="Bakkegrenda" />
		<tag k="place" v="quarter" />
		<tag k="ssr:stedsnr" v="905313" />
	</node>
	<node id="-302835" lat="61.0863388922" lon="11.3215638842">
		<tag k="name" v="Vesterbekkbua" />
		<tag k="place" v="locality" />
		<tag k="ssr:stedsnr" v="726525" />
	</node>
	<node id="-302834" lat="61.0864972214" lon="11.355369447">
		<tag k="name" v="Lilleåset" />
		<tag k="place" v="locality" />
		<tag k="ssr:stedsnr" v="726523" />
	</node>
	<node id="-302831" lat="61.1160638847" lon="11.2166527844">
		<tag k="name" v="Kvilua" />
		<tag k="place" v="locality" />
		<tag k="ssr:stedsnr" v="726011" />
	</node>
	<node id="-302828" lat="61.0895694486" lon="11.3955416658">
		<tag k="name" v="Stormoen" />
		<tag k="place" v="farm" />
		<tag k="ssr:stedsnr" v="709349" />
	</node>
	<node id="-302827" lat="61.088027782" lon="11.3772527791">
		<tag k="name" v="Brattli" />
		<tag k="place" v="isolated_dwelling" />
		<tag k="ssr:stedsnr" v="709348" />
	</node>
	<node id="-302826" lat="61.2357277767" lon="11.4691416672">
		<tag k="name" v="Øvre Rødsdalen" />
		<tag k="place" v="farm" />
		<tag k="ssr:stedsnr" v="892559" />
	</node>
	<node id="-302825" lat="61.2477833363" lon="11.4977249922">
		<tag k="name" v="Fredheim" />
		<tag k="place" v="isolated_dwelling" />
		<tag k="ssr:stedsnr" v="892557" />
	</node>
	<node id="-302824" lat="61.2768138913" lon="11.8487527808">
		<tag k="name" v="Skaverntjennskoia" />
		<tag k="place" v="isolated_dwelling" />
		<tag k="ssr:stedsnr" v="892466" />
	</node>
	<node id="-302823" lat="61.1347166689" lon="11.3008277828">
		<tag k="name" v="Øvre Oppgarden Skramstad" />
		<tag k="place" v="farm" />
		<tag k="ssr:stedsnr" v="892221" />
	</node>
	<node id="-302822" lat="61.3624472244" lon="11.652466667">
		<tag k="name" v="Marisbua" />
		<tag k="place" v="isolated_dwelling" />
		<tag k="ssr:stedsnr" v="891969" />
	</node>
	<node id="-302817" lat="61.1623972188" lon="11.4256833294">
		<tag k="name" v="Bergeløkken" />
		<tag k="place" v="isolated_dwelling" />
		<tag k="ssr:stedsnr" v="891649" />
	</node>
	<node id="-302815" lat="61.1691722184" lon="11.3195111033">
		<tag k="name" v="Nedre Kvannbekkbua" />
		<tag k="place" v="isolated_dwelling" />
		<tag k="ssr:stedsnr" v="891642" />
	</node>
	<node id="-302813" lat="61.0927638898" lon="11.3833194369">
		<tag k="name" v="Nyborg" />
		<tag k="place" v="isolated_dwelling" />
		<tag k="ssr:stedsnr" v="891384" />
	</node>
	<node id="-302812" lat="61.0704305582" lon="11.3768138827">
		<tag k="name" v="Mellum" />
		<tag k="place" v="farm" />
		<tag k="ssr:stedsnr" v="891367" />
	</node>
	<node id="-302811" lat="61.3259444402" lon="11.7755916675">
		<tag k="name" v="Atlungstad" />
		<tag k="place" v="isolated_dwelling" />
		<tag k="ssr:stedsnr" v="891059" />
	</node>
	<node id="-302809" lat="61.0752777779" lon="11.3441055625">
		<tag k="name" v="Tyristua" />
		<tag k="place" v="isolated_dwelling" />
		<tag k="ssr:stedsnr" v="890364" />
	</node>
	<node id="-302805" lat="61.0529555535" lon="11.3545527775">
		<tag k="name" v="Stenbakken" />
		<tag k="place" v="isolated_dwelling" />
		<tag k="ssr:stedsnr" v="890221" />
	</node>
	<node id="-302796" lat="61.1348027802" lon="11.2703444506">
		<tag k="name" v="Skog" />
		<tag k="place" v="farm" />
		<tag k="ssr:stedsnr" v="889004" />
	</node>
	<node id="-302792" lat="61.3286777818" lon="11.7878416698">
		<tag k="name" v="Bernts" />
		<tag k="place" v="farm" />
		<tag k="ssr:stedsnr" v="675873" />
	</node>
	<node id="-302788" lat="61.2318555528" lon="11.7340694463">
		<tag k="name" v="Nordstjerna" />
		<tag k="place" v="isolated_dwelling" />
		<tag k="ssr:stedsnr" v="675353" />
	</node>
	<node id="-302787" lat="61.2421121715" lon="11.7981044393">
		<tag k="fixme" v="consider place=hamlet" />
		<tag k="name" v="Valmslia" />
		<tag k="place" v="farm" />
		<tag k="ssr:stedsnr" v="675325" />
	</node>
	<node id="-302779" lat="61.0951305535" lon="11.2562805494">
		<tag k="alt_name" v="Fossbekkoia, nedre" />
		<tag k="name" v="Nedre Fossbekkoia" />
		<tag k="place" v="isolated_dwelling" />
		<tag k="ssr:stedsnr" v="674473" />
	</node>
	<node id="-302778" lat="61.103205559" lon="11.278680561">
		<tag k="alt_name" v="Nordre Vivelstadsvea" />
		<tag k="name" v="Vivelstadsvea" />
		<tag k="place" v="farm" />
		<tag k="ssr:stedsnr" v="674462" />
	</node>
	<node id="-302777" lat="61.1036277799" lon="11.2610888922">
		<tag k="name" v="Endeløsmyra" />
		<tag k="place" v="farm" />
		<tag k="ssr:stedsnr" v="674458" />
	</node>
	<node id="-302776" lat="61.0521527764" lon="11.269616674">
		<tag k="fixme" v="multiple name tags, choose one and add the other to alt_name" />
		<tag k="historic" v="shieling" />
		<tag k="name" v="Herregodset;Skjærbekkbua" />
		<tag k="place" v="locality" />
		<tag k="ssr:stedsnr" v="674270" />
	</node>
	<node id="-302775" lat="61.0450277753" lon="11.3830472189">
		<tag k="name" v="Vålsrønningen" />
		<tag k="place" v="farm" />
		<tag k="ssr:stedsnr" v="674264" />
	</node>
	<node id="-302774" lat="61.0395249988" lon="11.4277500062">
		<tag k="historic" v="shieling" />
		<tag k="name" v="Morsætra" />
		<tag k="place" v="locality" />
		<tag k="ssr:stedsnr" v="674262" />
	</node>
	<node id="-302773" lat="61.0376388932" lon="11.3121499933">
		<tag k="name" v="Rudstadhesten" />
		<tag k="place" v="isolated_dwelling" />
		<tag k="ssr:stedsnr" v="674258" />
	</node>
	<node id="-302772" lat="61.0687083317" lon="11.4232333255">
		<tag k="name" v="Jensbua" />
		<tag k="place" v="isolated_dwelling" />
		<tag k="ssr:stedsnr" v="674253" />
	</node>
	<node id="-302765" lat="61.3850166702" lon="11.324205552">
		<tag k="name" v="Skjæreggbua" />
		<tag k="place" v="locality" />
		<tag k="ssr:stedsnr" v="662730" />
	</node>
	<node id="-302763" lat="61.4060194459" lon="11.3571277747">
		<tag k="name" v="Glesodden" />
		<tag k="place" v="isolated_dwelling" />
		<tag k="ssr:stedsnr" v="662725" />
	</node>
	<node id="-302762" lat="61.0706222244" lon="11.3400138923">
		<tag k="name" v="Granheim" />
		<tag k="place" v="farm" />
		<tag k="ssr:stedsnr" v="662299" />
	</node>
	<node id="-302753" lat="61.384875001" lon="11.4510416629">
		<tag k="alt_name" v="Løsset-Nordsætra" />
		<tag k="name" v="Nordsætra" />
		<tag k="place" v="hamlet" />
		<tag k="ssr:stedsnr" v="736051" />
	</node>
	<node id="-302749" lat="61.3368700205" lon="11.7986635928">
		<tag k="alt_name" v="Nordre Storholm" />
		<tag k="fixme" v="consider place=hamlet" />
		<tag k="name" v="Storholm" />
		<tag k="place" v="farm" />
		<tag k="ssr:stedsnr" v="735872" />
	</node>
	<node id="-302746" lat="61.3049583327" lon="11.5627916738">
		<tag k="alt_name" v="Firerkoia" />
		<tag k="name" v="Firerbua" />
		<tag k="place" v="isolated_dwelling" />
		<tag k="ssr:stedsnr" v="735845" />
	</node>
	<node id="-302745" lat="61.3584750039" lon="11.6636972314">
		<tag k="name" v="Nordheim" />
		<tag k="place" v="farm" />
		<tag k="ssr:stedsnr" v="735832" />
	</node>
	<node id="-302744" lat="61.3504750013" lon="11.583174993">
		<tag k="historic" v="shieling" />
		<tag k="name" v="Knubblia" />
		<tag k="place" v="locality" />
		<tag k="ssr:stedsnr" v="735810" />
	</node>
	<node id="-302742" lat="61.2792774158" lon="11.8138334237">
		<tag k="name" v="Skavaren" />
		<tag k="old_name" v="Skavarn" />
		<tag k="place" v="hamlet" />
		<tag k="ssr:stedsnr" v="735748" />
	</node>
	<node id="-302739" lat="61.0877944408" lon="11.287972223">
		<tag k="name" v="Baysvea" />
		<tag k="place" v="isolated_dwelling" />
		<tag k="ssr:stedsnr" v="735468" />
	</node>
	<node id="-302738" lat="61.0939694427" lon="11.3580416758">
		<tag k="name" v="Bechsminne" />
		<tag k="place" v="farm" />
		<tag k="ssr:stedsnr" v="735465" />
	</node>
	<node id="-302737" lat="61.0938833376" lon="11.1823000029">
		<tag k="alt_name" v="Lavåbua" />
		<tag k="name" v="Lauvåbua" />
		<tag k="place" v="isolated_dwelling" />
		<tag k="ssr:stedsnr" v="735461" />
	</node>
	<node id="-302736" lat="61.1020111075" lon="11.188436107">
		<tag k="name" v="Flekkbua" />
		<tag k="place" v="isolated_dwelling" />
		<tag k="ssr:stedsnr" v="735458" />
	</node>
	<node id="-302735" lat="61.1204027818" lon="11.1797666693">
		<tag k="fixme" v="multiple name tags, choose one and add the other to alt_name" />
		<tag k="name" v="Femmerbua;Ljørkoia" />
		<tag k="place" v="isolated_dwelling" />
		<tag k="ssr:stedsnr" v="735444" />
	</node>
	<node id="-302734" lat="61.1353305553" lon="11.2752722168">
		<tag k="name" v="Jonsgarden" />
		<tag k="place" v="farm" />
		<tag k="ssr:stedsnr" v="735429" />
	</node>
	<node id="-302733" lat="61.1417005742" lon="11.3352181041">
		<tag k="fixme" v="consider place=hamlet" />
		<tag k="name" v="Rostad" />
		<tag k="place" v="farm" />
		<tag k="ssr:stedsnr" v="735420" />
	</node>
	<node id="-302730" lat="61.2127361128" lon="11.1056555592">
		<tag k="alt_name" v="Hemmeldalen, øvre" />
		<tag k="historic" v="shieling" />
		<tag k="name" v="Øvre Hemmeldalen" />
		<tag k="place" v="locality" />
		<tag k="ssr:stedsnr" v="735395" />
	</node>
	<node id="-302729" lat="61.2115062127" lon="11.3386919074">
		<tag k="fixme" v="consider place=hamlet" />
		<tag k="name" v="Hovdneset" />
		<tag k="place" v="farm" />
		<tag k="ssr:stedsnr" v="735393" />
	</node>
	<node id="-302728" lat="61.2211083322" lon="11.3488972251">
		<tag k="name" v="Østerås" />
		<tag k="place" v="farm" />
		<tag k="ssr:stedsnr" v="735386" />
	</node>
	<node id="-302724" lat="61.1936790963" lon="11.5523825263">
		<tag k="fixme" v="consider place=hamlet" />
		<tag k="name" v="Ulvåvollen" />
		<tag k="place" v="farm" />
		<tag k="ssr:stedsnr" v="735356" />
	</node>
	<node id="-302722" lat="61.0626999963" lon="11.3766861034">
		<tag k="name" v="Morsvea" />
		<tag k="old_name" v="Morasvea" />
		<tag k="place" v="farm" />
		<tag k="ssr:stedsnr" v="735245" />
	</node>
	<node id="-302720" lat="61.3732638918" lon="11.6302833252">
		<tag k="name" v="Sørgardsenget" />
		<tag k="place" v="isolated_dwelling" />
		<tag k="ssr:stedsnr" v="735135" />
	</node>
	<node id="-302719" lat="61.411602774" lon="11.6970916686">
		<tag k="name" v="Nykoia" />
		<tag k="place" v="isolated_dwelling" />
		<tag k="ssr:stedsnr" v="735129" />
	</node>
	<node id="-302718" lat="61.3996805514" lon="11.6458250085">
		<tag k="name" v="Trettenbua" />
		<tag k="place" v="isolated_dwelling" />
		<tag k="ssr:stedsnr" v="735125" />
	</node>
	<node id="-302717" lat="61.4012166641" lon="11.760416671">
		<tag k="name" v="Haug" />
		<tag k="place" v="farm" />
		<tag k="ssr:stedsnr" v="735122" />
	</node>
	<node id="-302710" lat="61.3158305548" lon="11.7939777851">
		<tag k="name" v="Bakke" />
		<tag k="place" v="isolated_dwelling" />
		<tag k="ssr:stedsnr" v="646423" />
	</node>
	<node id="-302705" lat="61.2794565409" lon="11.8110521116">
		<tag k="fixme" v="consider place=hamlet" />
		<tag k="name" v="Nordre Skavern" />
		<tag k="place" v="farm" />
		<tag k="ssr:stedsnr" v="727459" />
	</node>
	<node id="-302704" lat="61.1303249966" lon="11.5553249998">
		<tag k="name" v="Åtterbua" />
		<tag k="place" v="isolated_dwelling" />
		<tag k="ssr:stedsnr" v="627139" />
	</node>
	<node id="-302703" lat="61.2260138859" lon="11.6990999932">
		<tag k="name" v="Amundstadskogen" />
		<tag k="place" v="neighbourhood" />
		<tag k="ssr:stedsnr" v="627137" />
	</node>
	<node id="-302701" lat="61.3359000005" lon="11.4151666625">
		<tag k="name" v="Øvre Lindstad" />
		<tag k="place" v="isolated_dwelling" />
		<tag k="ssr:stedsnr" v="726567" />
	</node>
	<node id="-302700" lat="61.4289472198" lon="11.7099416618">
		<tag k="name" v="Tunheim" />
		<tag k="place" v="isolated_dwelling" />
		<tag k="ssr:stedsnr" v="726344" />
	</node>
	<node id="-302695" lat="61.3351749961" lon="11.7896416655">
		<tag k="alt_name" v="Fabros" />
		<tag k="name" v="Farbrors" />
		<tag k="place" v="farm" />
		<tag k="ssr:stedsnr" v="724887" />
	</node>
	<node id="-302691" lat="61.4052694465" lon="11.3715666715">
		<tag k="name" v="Toppen" />
		<tag k="place" v="isolated_dwelling" />
		<tag k="ssr:stedsnr" v="723701" />
	</node>
	<node id="-302689" lat="61.105827778" lon="11.3856499983">
		<tag k="name" v="Mælstua" />
		<tag k="place" v="isolated_dwelling" />
		<tag k="ssr:stedsnr" v="723498" />
	</node>
	<node id="-302687" lat="61.2117777799" lon="11.3917472135">
		<tag k="historic" v="shieling" />
		<tag k="name" v="Kås-Veltsætra" />
		<tag k="place" v="locality" />
		<tag k="ssr:stedsnr" v="723592" />
	</node>
	<node id="-302685" lat="61.3162916641" lon="11.4440805608">
		<tag k="name" v="Høye" />
		<tag k="place" v="isolated_dwelling" />
		<tag k="ssr:stedsnr" v="722529" />
	</node>
	<node id="-302684" lat="61.2832722267" lon="11.7362388859">
		<tag k="name" v="Søbakk" />
		<tag k="place" v="farm" />
		<tag k="ssr:stedsnr" v="614803" />
	</node>
	<node id="-302683" lat="61.2996250045" lon="11.8032694371">
		<tag k="name" v="Stormoen" />
		<tag k="place" v="farm" />
		<tag k="ssr:stedsnr" v="614799" />
	</node>
	<node id="-302682" lat="61.2968749995" lon="11.4812666628">
		<tag k="alt_name" v="Øvre Løklia" />
		<tag k="name" v="Lauklia" />
		<tag k="place" v="isolated_dwelling" />
		<tag k="ssr:stedsnr" v="614797" />
	</node>
	<node id="-302680" lat="61.2630277735" lon="11.5165694528">
		<tag k="alt_name" v="Skaret" />
		<tag k="name" v="Rødsskardet" />
		<tag k="place" v="farm" />
		<tag k="ssr:stedsnr" v="614792" />
	</node>
	<node id="-302679" lat="61.2625611136" lon="11.620252784">
		<tag k="alt_name" v="Firerbua" />
		<tag k="name" v="Firerkoia" />
		<tag k="place" v="isolated_dwelling" />
		<tag k="ssr:stedsnr" v="614789" />
	</node>
	<node id="-302678" lat="61.1668833293" lon="11.4809861127">
		<tag k="loc_name" v="Tjukkriset" />
		<tag k="name" v="Tykkeriset" />
		<tag k="place" v="locality" />
		<tag k="ssr:stedsnr" v="614367" />
	</node>
	<node id="-302677" lat="61.168911113" lon="11.4876472271">
		<tag k="name" v="Haug" />
		<tag k="place" v="farm" />
		<tag k="ssr:stedsnr" v="614364" />
	</node>
	<node id="-302675" lat="61.430683329" lon="11.7894138914">
		<tag k="alt_name" v="Vordkoia" />
		<tag k="name" v="Volkoia" />
		<tag k="place" v="isolated_dwelling" />
		<tag k="ssr:stedsnr" v="614158" />
	</node>
	<node id="-302674" lat="61.4820666709" lon="11.6985805486">
		<tag k="alt_name" v="Øvre Storåsen" />
		<tag k="name" v="Storåsen" />
		<tag k="place" v="farm" />
		<tag k="ssr:stedsnr" v="614216" />
	</node>
	<node id="-302673" lat="61.1954166707" lon="11.247463893">
		<tag k="name" v="Firerbua" />
		<tag k="place" v="isolated_dwelling" />
		<tag k="ssr:stedsnr" v="613418" />
	</node>
	<node id="-302672" lat="61.2046166641" lon="11.2775333301">
		<tag k="historic" v="shieling" />
		<tag k="name" v="Veslesætra" />
		<tag k="place" v="locality" />
		<tag k="ssr:stedsnr" v="613416" />
	</node>
	<node id="-302668" lat="61.1154555544" lon="11.5931861164">
		<tag k="amenity" v="school" />
		<tag k="name" v="Blikkberget skole" />
		<tag k="ssr:stedsnr" v="605642" />
	</node>
	<node id="-302661" lat="61.1643611101" lon="11.3685777858">
		<tag k="name" v="Kåssvea" />
		<tag k="place" v="farm" />
		<tag k="ssr:stedsnr" v="601379" />
	</node>
	<node id="-302657" lat="61.117236111" lon="11.6036777815">
		<tag k="name" v="Øvre Øverby" />
		<tag k="place" v="farm" />
		<tag k="ssr:stedsnr" v="587660" />
	</node>
	<node id="-302655" lat="61.3104805526" lon="11.7651972238">
		<tag k="name" v="Nordnes" />
		<tag k="place" v="farm" />
		<tag k="ssr:stedsnr" v="587052" />
	</node>
	<node id="-302654" lat="61.1522500039" lon="11.2496416658">
		<tag k="name" v="Moskoia" />
		<tag k="place" v="isolated_dwelling" />
		<tag k="ssr:stedsnr" v="586263" />
	</node>
	<node id="-302653" lat="61.1421361095" lon="11.2980222304">
		<tag k="name" v="Nordli" />
		<tag k="place" v="farm" />
		<tag k="ssr:stedsnr" v="585203" />
	</node>
	<node id="-302648" lat="61.1140583358" lon="11.6148666757">
		<tag k="name" v="Byggekoia" />
		<tag k="place" v="isolated_dwelling" />
		<tag k="ssr:stedsnr" v="709874" />
	</node>
	<node id="-302647" lat="61.1343166655" lon="11.6170166636">
		<tag k="name" v="Djupdalskoia" />
		<tag k="place" v="isolated_dwelling" />
		<tag k="ssr:stedsnr" v="709868" />
	</node>
	<node id="-302644" lat="61.2184027744" lon="11.3482305469">
		<tag k="name" v="Granheim" />
		<tag k="place" v="farm" />
		<tag k="ssr:stedsnr" v="709813" />
	</node>
	<node id="-302638" lat="61.0707999989" lon="11.369097222">
		<tag k="name" v="Nymoen" />
		<tag k="place" v="farm" />
		<tag k="ssr:stedsnr" v="708382" />
	</node>
	<node id="-302635" lat="61.1505666623" lon="11.2644722297">
		<tag k="name" v="Skynnbo" />
		<tag k="place" v="isolated_dwelling" />
		<tag k="ssr:stedsnr" v="708259" />
	</node>
	<node id="-302630" lat="61.2969277765" lon="11.804397214">
		<tag k="name" v="Saggrenda" />
		<tag k="place" v="quarter" />
		<tag k="ssr:stedsnr" v="707438" />
	</node>
	<node id="-302629" lat="61.0743055596" lon="11.348427787">
		<tag k="fixme" v="consider place=hamlet" />
		<tag k="name" v="Åsta" />
		<tag k="place" v="village" />
		<tag k="ssr:stedsnr" v="571653" />
	</node>
	<node id="-302624" lat="61.1191222232" lon="11.3254499914">
		<tag k="name" v="Bolstadrønningen" />
		<tag k="place" v="farm" />
		<tag k="ssr:stedsnr" v="299525" />
	</node>
	<node id="-302623" lat="61.3698083312" lon="11.3982638803">
		<tag k="name" v="Skrømtbua" />
		<tag k="place" v="locality" />
		<tag k="ssr:stedsnr" v="544545" />
	</node>
	<node id="-302615" lat="61.2489694433" lon="11.7003249921">
		<tag k="alt_name" v="Østre Nyland" />
		<tag k="name" v="Nyland" />
		<tag k="old_name" v="Nuland" />
		<tag k="place" v="farm" />
		<tag k="ssr:stedsnr" v="736312" />
	</node>
	<node id="-302613" lat="61.2396916655" lon="11.4679888868">
		<tag k="name" v="Solbakken" />
		<tag k="place" v="isolated_dwelling" />
		<tag k="ssr:stedsnr" v="527583" />
	</node>
	<node id="-302611" lat="61.253750004" lon="11.4675749981">
		<tag k="name" v="Rødsåslia" />
		<tag k="place" v="farm" />
		<tag k="ssr:stedsnr" v="527579" />
	</node>
	<node id="-302608" lat="61.2305611074" lon="11.3424944503">
		<tag k="name" v="Lykset" />
		<tag k="place" v="farm" />
		<tag k="ssr:stedsnr" v="526840" />
	</node>
	<node id="-302606" lat="61.0754638924" lon="11.3523166657">
		<tag k="name" v="Øvre Kvernen" />
		<tag k="place" v="farm" />
		<tag k="ssr:stedsnr" v="526368" />
	</node>
	<node id="-302604" lat="61.131027774" lon="11.3039444509">
		<tag k="name" v="Torgalslykkja" />
		<tag k="place" v="farm" />
		<tag k="ssr:stedsnr" v="525012" />
	</node>
	<node id="-302599" lat="61.4655027817" lon="11.7603027782">
		<tag k="alt_name" v="Mosehaugkoiene" />
		<tag k="name" v="Moshaugkoia" />
		<tag k="place" v="locality" />
		<tag k="ssr:stedsnr" v="736227" />
	</node>
	<node id="-302594" lat="61.3388944476" lon="11.8699638914">
		<tag k="name" v="Nysæterbakken" />
		<tag k="place" v="farm" />
		<tag k="ssr:stedsnr" v="676583" />
	</node>
	<node id="-302592" lat="61.3872388863" lon="11.371469437">
		<tag k="name" v="Evje" />
		<tag k="place" v="isolated_dwelling" />
		<tag k="ssr:stedsnr" v="676037" />
	</node>
	<node id="-302588" lat="61.2952083334" lon="11.4760972179">
		<tag k="alt_name" v="Stensvoll" />
		<tag k="name" v="Steinsvoll" />
		<tag k="place" v="farm" />
		<tag k="ssr:stedsnr" v="675794" />
	</node>
	<node id="-302586" lat="61.2483111137" lon="11.539127769">
		<tag k="name" v="Rødssætra" />
		<tag k="place" v="farm" />
		<tag k="ssr:stedsnr" v="675334" />
	</node>
	<node id="-302584" lat="61.193305556" lon="11.5668638948">
		<tag k="name" v="Volla" />
		<tag k="place" v="farm" />
		<tag k="ssr:stedsnr" v="675384" />
	</node>
	<node id="-302581" lat="61.1812749966" lon="11.7130499959">
		<tag k="name" v="Otteråskoia" />
		<tag k="place" v="isolated_dwelling" />
		<tag k="ssr:stedsnr" v="675372" />
	</node>
	<node id="-302579" lat="61.4633000043" lon="11.6672527693">
		<tag k="name" v="Femmerkoia" />
		<tag k="place" v="isolated_dwelling" />
		<tag k="ssr:stedsnr" v="675232" />
	</node>
	<node id="-302576" lat="61.1146527815" lon="11.1406722308">
		<tag k="name" v="Oppstubua" />
		<tag k="place" v="isolated_dwelling" />
		<tag k="ssr:stedsnr" v="674450" />
	</node>
	<node id="-302575" lat="61.1161773167" lon="11.2929765921">
		<tag k="fixme" v="consider place=hamlet" />
		<tag k="name" v="Vivelstad" />
		<tag k="place" v="farm" />
		<tag k="ssr:stedsnr" v="674438" />
	</node>
	<node id="-302573" lat="61.1258000006" lon="11.3152777742">
		<tag k="name" v="Gjerdinga" />
		<tag k="place" v="farm" />
		<tag k="ssr:stedsnr" v="674430" />
	</node>
	<node id="-302569" lat="61.1466138888" lon="11.3082111113">
		<tag k="name" v="Skoglund" />
		<tag k="old_name" v="Myre" />
		<tag k="place" v="farm" />
		<tag k="ssr:stedsnr" v="674411" />
	</node>
	<node id="-302568" lat="61.1783361092" lon="11.2770472265">
		<tag k="name" v="Nordberget" />
		<tag k="place" v="isolated_dwelling" />
		<tag k="ssr:stedsnr" v="674398" />
	</node>
	<node id="-302567" lat="61.2002666696" lon="11.2952166734">
		<tag k="name" v="Bløtbua" />
		<tag k="place" v="isolated_dwelling" />
		<tag k="ssr:stedsnr" v="674385" />
	</node>
	<node id="-302566" lat="61.1928833289" lon="11.1306416752">
		<tag k="alt_name" v="Hemmeldalen, nedre" />
		<tag k="historic" v="shieling" />
		<tag k="name" v="Nedre Hemmeldalen" />
		<tag k="place" v="locality" />
		<tag k="ssr:stedsnr" v="674383" />
	</node>
	<node id="-302564" lat="61.0824888882" lon="11.3507888884">
		<tag k="alt_name" v="Nordre Åset" />
		<tag k="name" v="Åset" />
		<tag k="place" v="farm" />
		<tag k="ssr:stedsnr" v="674482" />
	</node>
	<node id="-302563" lat="61.0648027734" lon="11.4076277756">
		<tag k="name" v="Gjertrudsbua" />
		<tag k="place" v="isolated_dwelling" />
		<tag k="ssr:stedsnr" v="674244" />
	</node>
	<node id="-302559" lat="61.2430805545" lon="11.7440416635">
		<tag k="name" v="Osli" />
		<tag k="place" v="isolated_dwelling" />
		<tag k="ssr:stedsnr" v="480914" />
	</node>
	<node id="-302558" lat="61.2557249969" lon="11.7212166638">
		<tag k="name" v="Øvergård" />
		<tag k="place" v="isolated_dwelling" />
		<tag k="ssr:stedsnr" v="480913" />
	</node>
	<node id="-302553" lat="61.1365222261" lon="11.3919666596">
		<tag k="name" v="Heien" />
		<tag k="place" v="quarter" />
		<tag k="ssr:stedsnr" v="480356" />
	</node>
	<node id="-302549" lat="61.2499972216" lon="11.4560111202">
		<tag k="name" v="Bekkevoll" />
		<tag k="place" v="isolated_dwelling" />
		<tag k="ssr:stedsnr" v="736207" />
	</node>
	<node id="-302546" lat="61.4155166664" lon="11.7324611088">
		<tag k="name" v="Skoglund" />
		<tag k="place" v="farm" />
		<tag k="ssr:stedsnr" v="736186" />
	</node>
	<node id="-302545" lat="61.1167555544" lon="11.5919027774">
		<tag k="fixme" v="consider place=hamlet" />
		<tag k="name" v="Arndal" />
		<tag k="place" v="farm" />
		<tag k="ssr:stedsnr" v="736184" />
	</node>
	<node id="-302543" lat="61.4528250006" lon="11.7676111059">
		<tag k="alt_name" v="Storbekkbua, øvre" />
		<tag k="name" v="Øvre Storbekkbua" />
		<tag k="place" v="locality" />
		<tag k="ssr:stedsnr" v="736178" />
	</node>
	<node id="-302542" lat="61.4437250018" lon="11.7137805541">
		<tag k="name" v="Tolverbua" />
		<tag k="place" v="isolated_dwelling" />
		<tag k="ssr:stedsnr" v="736175" />
	</node>
	<node id="-302541" lat="61.4415111115" lon="11.5118777843">
		<tag k="historic" v="shieling" />
		<tag k="name" v="Buøya" />
		<tag k="place" v="locality" />
		<tag k="ssr:stedsnr" v="736169" />
	</node>
	<node id="-302540" lat="61.4465000035" lon="11.7563361123">
		<tag k="alt_name" v="Storbekkbua, nedre" />
		<tag k="name" v="Nedre Storbekkbua" />
		<tag k="place" v="locality" />
		<tag k="ssr:stedsnr" v="736163" />
	</node>
	<node id="-302537" lat="61.3120666643" lon="11.7713166693">
		<tag k="name" v="Myrheim" />
		<tag k="place" v="farm" />
		<tag k="ssr:stedsnr" v="466056" />
	</node>
	<node id="-302532" lat="61.1258708671" lon="11.3066415756">
		<tag k="fixme" v="consider place=hamlet" />
		<tag k="name" v="Nedre Bolstad" />
		<tag k="place" v="farm" />
		<tag k="ssr:stedsnr" v="464004" />
	</node>
	<node id="-302530" lat="61.1410666703" lon="11.4607777851">
		<tag k="name" v="Sameiebua" />
		<tag k="place" v="isolated_dwelling" />
		<tag k="ssr:stedsnr" v="666870" />
	</node>
	<node id="-302528" lat="61.1161111118" lon="11.5633194476">
		<tag k="name" v="Krismo" />
		<tag k="place" v="isolated_dwelling" />
		<tag k="ssr:stedsnr" v="666619" />
	</node>
	<node id="-302526" lat="61.2641166708" lon="11.3160749916">
		<tag k="name" v="Vikstua" />
		<tag k="place" v="farm" />
		<tag k="ssr:stedsnr" v="665886" />
	</node>
	<node id="-302520" lat="61.1142444478" lon="11.2285305626">
		<tag k="name" v="Rubbua" />
		<tag k="place" v="locality" />
		<tag k="ssr:stedsnr" v="665018" />
	</node>
	<node id="-302513" lat="61.1406999984" lon="11.3483972259">
		<tag k="name" v="Grinihagen" />
		<tag k="place" v="isolated_dwelling" />
		<tag k="ssr:stedsnr" v="662386" />
	</node>
	<node id="-302512" lat="61.1304277743" lon="11.3118388886">
		<tag k="name" v="Skjerve" />
		<tag k="place" v="farm" />
		<tag k="ssr:stedsnr" v="662383" />
	</node>
	<node id="-302511" lat="61.1456499986" lon="11.3339388892">
		<tag k="name" v="Søndre Tingstad" />
		<tag k="place" v="farm" />
		<tag k="ssr:stedsnr" v="662379" />
	</node>
	<node id="-302509" lat="61.1360500035" lon="11.3902388961">
		<tag k="name" v="Broberg" />
		<tag k="place" v="isolated_dwelling" />
		<tag k="ssr:stedsnr" v="662372" />
	</node>
	<node id="-302505" lat="61.3203611133" lon="11.4367249965">
		<tag k="name" v="Solstad" />
		<tag k="place" v="farm" />
		<tag k="ssr:stedsnr" v="661482" />
	</node>
	<node id="-302503" lat="61.083792726" lon="11.4933985932">
		<tag k="name" v="Gunderbua" />
		<tag k="place" v="locality" />
		<tag k="ssr:stedsnr" v="433155" />
	</node>
	<node id="-302500" lat="61.3329416646" lon="11.40720277">
		<tag k="name" v="Lindstad" />
		<tag k="place" v="isolated_dwelling" />
		<tag k="ssr:stedsnr" v="433017" />
	</node>
	<node id="-302498" lat="61.3674138873" lon="11.6387027712">
		<tag k="name" v="Bråten" />
		<tag k="place" v="farm" />
		<tag k="ssr:stedsnr" v="432827" />
	</node>
	<node id="-302497" lat="61.2973305561" lon="11.5710388853">
		<tag k="alt_name" v="Sekserkoia" />
		<tag k="name" v="Sekserbua" />
		<tag k="place" v="isolated_dwelling" />
		<tag k="ssr:stedsnr" v="432751" />
	</node>
	<node id="-302495" lat="61.2646750025" lon="11.4733138819">
		<tag k="name" v="Kvarven" />
		<tag k="place" v="locality" />
		<tag k="ssr:stedsnr" v="432744" />
	</node>
	<node id="-302494" lat="61.2673250042" lon="11.6085750008">
		<tag k="name" v="Tolverkoia" />
		<tag k="place" v="isolated_dwelling" />
		<tag k="ssr:stedsnr" v="432742" />
	</node>
	<node id="-302493" lat="61.2744333307" lon="11.7552388864">
		<tag k="name" v="Vik" />
		<tag k="place" v="farm" />
		<tag k="ssr:stedsnr" v="432738" />
	</node>
	<node id="-302492" lat="61.276336111" lon="11.8194999914">
		<tag k="name" v="Rønningen" />
		<tag k="place" v="farm" />
		<tag k="ssr:stedsnr" v="432737" />
	</node>
	<node id="-302491" lat="61.2789555587" lon="11.492113884">
		<tag k="name" v="Tallrustbua" />
		<tag k="place" v="isolated_dwelling" />
		<tag k="ssr:stedsnr" v="432734" />
	</node>
	<node id="-302490" lat="61.1607833301" lon="11.4466611025">
		<tag k="name" v="Mælen" />
		<tag k="place" v="farm" />
		<tag k="ssr:stedsnr" v="432407" />
	</node>
	<node id="-302489" lat="61.1609944451" lon="11.4543944361">
		<tag k="name" v="Snippen" />
		<tag k="place" v="hamlet" />
		<tag k="ssr:stedsnr" v="432406" />
	</node>
	<node id="-302488" lat="61.1881972192" lon="11.4921861161">
		<tag k="name" v="Grasegga" />
		<tag k="place" v="isolated_dwelling" />
		<tag k="ssr:stedsnr" v="432325" />
	</node>
	<node id="-302486" lat="61.0520222204" lon="11.3167499998">
		<tag k="name" v="Oksbakk" />
		<tag k="place" v="locality" />
		<tag k="ssr:stedsnr" v="432257" />
	</node>
	<node id="-302483" lat="61.0639472188" lon="11.323586106">
		<tag k="name" v="Raudkoia" />
		<tag k="place" v="isolated_dwelling" />
		<tag k="ssr:stedsnr" v="432246" />
	</node>
	<node id="-302482" lat="61.3014388907" lon="11.763616673">
		<tag k="fixme" v="consider place=hamlet" />
		<tag k="name" v="Nordre Osen" />
		<tag k="place" v="village" />
		<tag k="ssr:stedsnr" v="516128" />
	</node>
	<node id="-302477" lat="61.0402333331" lon="11.3018722258">
		<tag k="name" v="Tangkoia" />
		<tag k="place" v="locality" />
		<tag k="ssr:stedsnr" v="423114" />
	</node>
	<node id="-302472" lat="61.1088583322" lon="11.3636055525">
		<tag k="name" v="Jordmorstua" />
		<tag k="place" v="isolated_dwelling" />
		<tag k="ssr:stedsnr" v="420549" />
	</node>
	<node id="-302471" lat="61.1142527792" lon="11.3356694461">
		<tag k="name" v="Bakstadgrenda" />
		<tag k="place" v="hamlet" />
		<tag k="ssr:stedsnr" v="420544" />
	</node>
	<node id="-302469" lat="61.303036109" lon="11.4677944423">
		<tag k="name" v="Høystad" />
		<tag k="place" v="isolated_dwelling" />
		<tag k="ssr:stedsnr" v="419520" />
	</node>
	<node id="-302468" lat="61.3357555513" lon="11.4580916621">
		<tag k="name" v="Tørbergskoia" />
		<tag k="place" v="isolated_dwelling" />
		<tag k="ssr:stedsnr" v="419516" />
	</node>
	<node id="-302467" lat="61.1418305553" lon="11.6018944397">
		<tag k="name" v="Krismesjøkoia" />
		<tag k="place" v="isolated_dwelling" />
		<tag k="ssr:stedsnr" v="406877" />
	</node>
	<node id="-302466" lat="61.3021416713" lon="11.7895916615">
		<tag k="name" v="Solbakken" />
		<tag k="place" v="farm" />
		<tag k="ssr:stedsnr" v="406058" />
	</node>
	<node id="-302462" lat="61.1410583341" lon="11.2981694456">
		<tag k="name" v="Frostad" />
		<tag k="place" v="farm" />
		<tag k="ssr:stedsnr" v="403212" />
	</node>
	<node id="-302461" lat="61.1338388858" lon="11.3033083322">
		<tag k="name" v="Nedre Oppgarden Skramstad" />
		<tag k="place" v="farm" />
		<tag k="ssr:stedsnr" v="403005" />
	</node>
	<node id="-302460" lat="61.1358750019" lon="11.2782888873">
		<tag k="name" v="Haraldstu" />
		<tag k="place" v="farm" />
		<tag k="ssr:stedsnr" v="403004" />
	</node>
	<node id="-302457" lat="61.2091750008" lon="11.636230564">
		<tag k="name" v="Tuvmyra" />
		<tag k="place" v="farm" />
		<tag k="ssr:stedsnr" v="372362" />
	</node>
	<node id="-302456" lat="61.4708000004" lon="11.6713305587">
		<tag k="name" v="Treerkoia" />
		<tag k="place" v="locality" />
		<tag k="ssr:stedsnr" v="372218" />
	</node>
	<node id="-302454" lat="61.3203583295" lon="11.4408333407">
		<tag k="name" v="Nordli" />
		<tag k="place" v="farm" />
		<tag k="ssr:stedsnr" v="372018" />
	</node>
	<node id="-302453" lat="61.3370638925" lon="11.3929500012">
		<tag k="alt_name" v="Netland" />
		<tag k="name" v="Netlandet" />
		<tag k="place" v="isolated_dwelling" />
		<tag k="ssr:stedsnr" v="372008" />
	</node>
	<node id="-302452" lat="61.3262777775" lon="11.7172972237">
		<tag k="name" v="Velta" />
		<tag k="place" v="farm" />
		<tag k="ssr:stedsnr" v="371852" />
	</node>
	<node id="-302450" lat="61.4463749994" lon="11.695047221">
		<tag k="name" v="Solheim" />
		<tag k="place" v="farm" />
		<tag k="ssr:stedsnr" v="372170" />
	</node>
	<node id="-302446" lat="61.3495472221" lon="11.8078388815">
		<tag k="name" v="Skogheim" />
		<tag k="place" v="farm" />
		<tag k="ssr:stedsnr" v="371819" />
	</node>
	<node id="-302445" lat="61.3463762098" lon="11.6804035182">
		<tag k="fixme" v="consider place=hamlet" />
		<tag k="name" v="Myre" />
		<tag k="place" v="farm" />
		<tag k="ssr:stedsnr" v="371815" />
	</node>
	<node id="-302441" lat="61.0857340078" lon="11.3814313857">
		<tag k="fixme" v="consider place=hamlet" />
		<tag k="name" v="Berge" />
		<tag k="place" v="farm" />
		<tag k="ssr:stedsnr" v="371467" />
	</node>
	<node id="-302438" lat="61.1608666669" lon="11.4387083248">
		<tag k="name" v="Nordby" />
		<tag k="place" v="farm" />
		<tag k="ssr:stedsnr" v="371409" />
	</node>
	<node id="-302437" lat="61.3682638865" lon="11.8055416617">
		<tag k="name" v="Furutangen" />
		<tag k="place" v="farm" />
		<tag k="ssr:stedsnr" v="371147" />
	</node>
	<node id="-302434" lat="61.1192000041" lon="11.5880805602">
		<tag k="fixme" v="multiple name tags, choose one and add the other to alt_name" />
		<tag k="name" v="Nordgarden;Nordre Blikkberget" />
		<tag k="place" v="farm" />
		<tag k="ssr:stedsnr" v="371139" />
	</node>
	<node id="-302428" lat="61.2875249983" lon="11.8588916721">
		<tag k="name" v="Julsbu" />
		<tag k="place" v="isolated_dwelling" />
		<tag k="ssr:stedsnr" v="494470" />
	</node>
	<node id="-302425" lat="61.3310472248" lon="11.4301694403">
		<tag k="name" v="Ulset" />
		<tag k="place" v="farm" />
		<tag k="ssr:stedsnr" v="494017" />
	</node>
	<node id="-302423" lat="61.3138083369" lon="11.775875003">
		<tag k="name" v="Østvang" />
		<tag k="place" v="farm" />
		<tag k="ssr:stedsnr" v="493881" />
	</node>
	<node id="-302420" lat="61.2512055552" lon="11.6098861201">
		<tag k="historic" v="shieling" />
		<tag k="name" v="Nysætra" />
		<tag k="place" v="locality" />
		<tag k="ssr:stedsnr" v="493825" />
	</node>
	<node id="-302418" lat="61.2547833355" lon="11.4842694492">
		<tag k="name" v="Helgtun" />
		<tag k="place" v="isolated_dwelling" />
		<tag k="ssr:stedsnr" v="493820" />
	</node>
	<node id="-302417" lat="61.2994194411" lon="11.7350694381">
		<tag k="name" v="Granli" />
		<tag k="place" v="isolated_dwelling" />
		<tag k="ssr:stedsnr" v="493785" />
	</node>
	<node id="-302415" lat="61.2718444403" lon="11.5007222203">
		<tag k="name" v="Hansberget" />
		<tag k="place" v="farm" />
		<tag k="ssr:stedsnr" v="493770" />
	</node>
	<node id="-302410" lat="61.2061305535" lon="11.553152777">
		<tag k="name" v="Tjurubua" />
		<tag k="place" v="isolated_dwelling" />
		<tag k="ssr:stedsnr" v="493338" />
	</node>
	<node id="-302407" lat="61.4730194457" lon="11.6548055478">
		<tag k="name" v="Gunnarsbua" />
		<tag k="place" v="isolated_dwelling" />
		<tag k="ssr:stedsnr" v="493222" />
	</node>
	<node id="-302406" lat="61.4252416634" lon="11.5757416641">
		<tag k="name" v="Syverinsbua" />
		<tag k="place" v="locality" />
		<tag k="ssr:stedsnr" v="493192" />
	</node>
	<node id="-302403" lat="61.1195305563" lon="11.5189583354">
		<tag k="name" v="Bolstadenga" />
		<tag k="place" v="farm" />
		<tag k="ssr:stedsnr" v="493149" />
	</node>
	<node id="-302402" lat="61.1281722193" lon="11.5369888964">
		<tag k="name" v="Tierbua" />
		<tag k="place" v="isolated_dwelling" />
		<tag k="ssr:stedsnr" v="493148" />
	</node>
	<node id="-302401" lat="61.4219249983" lon="11.3270250035">
		<tag k="name" v="Holmvika" />
		<tag k="place" v="locality" />
		<tag k="ssr:stedsnr" v="493094" />
	</node>
	<node id="-302398" lat="61.2500472237" lon="11.4630916696">
		<tag k="alt_name" v="Rødsåsen, Søre" />
		<tag k="name" v="Søndre Rødsåsen" />
		<tag k="place" v="farm" />
		<tag k="ssr:stedsnr" v="554202" />
	</node>
	<node id="-302396" lat="61.3591916668" lon="11.7624444525">
		<tag k="name" v="Evenstad" />
		<tag k="place" v="isolated_dwelling" />
		<tag k="ssr:stedsnr" v="492825" />
	</node>
	<node id="-302391" lat="61.0867246752" lon="11.3704189776">
		<tag k="fixme" v="consider place=hamlet" />
		<tag k="name" v="Nabbset" />
		<tag k="place" v="farm" />
		<tag k="ssr:stedsnr" v="492453" />
	</node>
	<node id="-302388" lat="61.0957138874" lon="11.1662277737">
		<tag k="name" v="Djuphaugbua" />
		<tag k="place" v="isolated_dwelling" />
		<tag k="ssr:stedsnr" v="492446" />
	</node>
	<node id="-302386" lat="61.1016861096" lon="11.268066663">
		<tag k="name" v="Brenna" />
		<tag k="place" v="farm" />
		<tag k="ssr:stedsnr" v="492440" />
	</node>
	<node id="-302385" lat="61.1283805554" lon="11.3200027752">
		<tag k="name" v="Stubbsvea" />
		<tag k="place" v="farm" />
		<tag k="ssr:stedsnr" v="492427" />
	</node>
	<node id="-302384" lat="61.1269592654" lon="11.3054605417">
		<tag k="name" v="Bolstad" />
		<tag k="place" v="hamlet" />
		<tag k="ssr:stedsnr" v="492425" />
	</node>
	<node id="-302383" lat="61.1267027786" lon="11.1349499932">
		<tag k="alt_name" v="Søstubua" />
		<tag k="name" v="Sørstubua" />
		<tag k="place" v="isolated_dwelling" />
		<tag k="ssr:stedsnr" v="492424" />
	</node>
	<node id="-302382" lat="61.138979812" lon="11.3582575898">
		<tag k="fixme" v="consider place=hamlet" />
		<tag k="name" v="Ødegarden" />
		<tag k="place" v="farm" />
		<tag k="ssr:stedsnr" v="492420" />
	</node>
	<node id="-302381" lat="61.0752777804" lon="11.3241527758">
		<tag k="name" v="Vindfallet" />
		<tag k="place" v="isolated_dwelling" />
		<tag k="ssr:stedsnr" v="359316" />
	</node>
	<node id="-302380" lat="61.1336053182" lon="11.3412184217">
		<tag k="fixme" v="consider place=hamlet" />
		<tag k="name" v="Blikstad" />
		<tag k="place" v="farm" />
		<tag k="ssr:stedsnr" v="492418" />
	</node>
	<node id="-302379" lat="61.1441111134" lon="11.2084527863">
		<tag k="historic" v="shieling" />
		<tag k="name" v="Tingstadsætra" />
		<tag k="place" v="locality" />
		<tag k="ssr:stedsnr" v="492415" />
	</node>
	<node id="-302378" lat="61.1445595414" lon="11.3355685914">
		<tag k="fixme" v="consider place=hamlet" />
		<tag k="name" v="Tingstad" />
		<tag k="place" v="farm" />
		<tag k="ssr:stedsnr" v="492404" />
	</node>
	<node id="-302377" lat="61.1416010114" lon="11.3541090639">
		<tag k="alt_name" v="Grenje" />
		<tag k="fixme" v="consider place=hamlet" />
		<tag k="name" v="Grønje" />
		<tag k="place" v="farm" />
		<tag k="ssr:stedsnr" v="492402" />
	</node>
	<node id="-302375" lat="61.191275004" lon="11.3192027845">
		<tag k="name" v="Skjerbua" />
		<tag k="place" v="isolated_dwelling" />
		<tag k="ssr:stedsnr" v="492390" />
	</node>
	<node id="-302367" lat="61.0485666696" lon="11.4320444398">
		<tag k="name" v="Sørstubua" />
		<tag k="place" v="isolated_dwelling" />
		<tag k="ssr:stedsnr" v="492248" />
	</node>
	<node id="-302366" lat="61.0380333362" lon="11.3892861049">
		<tag k="name" v="Søreng" />
		<tag k="place" v="farm" />
		<tag k="ssr:stedsnr" v="492243" />
	</node>
	<node id="-302364" lat="61.0596611109" lon="11.4503638853">
		<tag k="name" v="Rørmyrkoia" />
		<tag k="place" v="isolated_dwelling" />
		<tag k="ssr:stedsnr" v="492212" />
	</node>
	<node id="-302363" lat="61.0540277793" lon="11.4194305506">
		<tag k="alt_name" v="Smalteigbua, nedre" />
		<tag k="name" v="Nedre Smalteigbua" />
		<tag k="place" v="isolated_dwelling" />
		<tag k="ssr:stedsnr" v="492209" />
	</node>
	<node id="-302361" lat="61.3990944447" lon="11.5771083313">
		<tag k="name" v="Saubua" />
		<tag k="place" v="locality" />
		<tag k="ssr:stedsnr" v="492103" />
	</node>
	<node id="-302360" lat="61.3965805532" lon="11.7728194427">
		<tag k="name" v="Granli" />
		<tag k="place" v="farm" />
		<tag k="ssr:stedsnr" v="492099" />
	</node>
	<node id="-302356" lat="61.0728138916" lon="11.375827785">
		<tag k="name" v="Erikstua" />
		<tag k="place" v="isolated_dwelling" />
		<tag k="ssr:stedsnr" v="344343" />
	</node>
	<node id="-302355" lat="61.0717527813" lon="11.372230565">
		<tag k="name" v="Langerud" />
		<tag k="place" v="isolated_dwelling" />
		<tag k="ssr:stedsnr" v="344337" />
	</node>
	<node id="-302354" lat="61.1922194478" lon="11.5526638889">
		<tag k="name" v="Østre Ulvåen" />
		<tag k="place" v="farm" />
		<tag k="ssr:stedsnr" v="484842" />
	</node>
	<node id="-302353" lat="61.2909722224" lon="11.8684361049">
		<tag k="name" v="Bergeslottet" />
		<tag k="place" v="isolated_dwelling" />
		<tag k="ssr:stedsnr" v="484451" />
	</node>
	<node id="-302340" lat="61.2988972541" lon="11.4606750342">
		<tag k="fixme" v="consider place=hamlet" />
		<tag k="name" v="Søndre Deset" />
		<tag k="place" v="farm" />
		<tag k="ssr:stedsnr" v="334207" />
	</node>
	<node id="-302338" lat="61.0891833295" lon="11.1688222311">
		<tag k="name" v="Tjærebrennerbua" />
		<tag k="place" v="locality" />
		<tag k="ssr:stedsnr" v="480923" />
	</node>
	<node id="-302330" lat="61.1557277738" lon="11.3553444462">
		<tag k="name" v="Sorknesbakken" />
		<tag k="place" v="farm" />
		<tag k="ssr:stedsnr" v="480396" />
	</node>
	<node id="-302327" lat="61.1458499974" lon="11.3190333317">
		<tag k="name" v="Skogheim" />
		<tag k="place" v="isolated_dwelling" />
		<tag k="ssr:stedsnr" v="480376" />
	</node>
	<node id="-302324" lat="61.3067999995" lon="11.4667805587">
		<tag k="name" v="Vangen" />
		<tag k="place" v="isolated_dwelling" />
		<tag k="ssr:stedsnr" v="479518" />
	</node>
	<node id="-302322" lat="61.3095666697" lon="11.4663611155">
		<tag k="alt_name" v="Nordre Lemberget" />
		<tag k="name" v="Lemberget" />
		<tag k="place" v="farm" />
		<tag k="ssr:stedsnr" v="311036" />
	</node>
	<node id="-302307" lat="61.0893083367" lon="11.3774444368">
		<tag k="name" v="Lilleløkken" />
		<tag k="place" v="farm" />
		<tag k="ssr:stedsnr" v="466373" />
	</node>
	<node id="-302306" lat="61.3026305526" lon="11.7636499942">
		<tag k="amenity" v="school" />
		<tag k="name" v="Osen skole" />
		<tag k="ssr:stedsnr" v="466058" />
	</node>
	<node id="-302301" lat="61.1414055596" lon="11.2902861133">
		<tag k="name" v="Svea" />
		<tag k="place" v="isolated_dwelling" />
		<tag k="ssr:stedsnr" v="464240" />
	</node>
	<node id="-302298" lat="61.1376972238" lon="11.3096916727">
		<tag k="alt_name" v="Nordre Skramstad" />
		<tag k="name" v="Nestu Skramstad" />
		<tag k="place" v="farm" />
		<tag k="ssr:stedsnr" v="282005" />
	</node>
	<node id="-302297" lat="61.3001166624" lon="11.4581694484">
		<tag k="name" v="Melgarden" />
		<tag k="place" v="farm" />
		<tag k="ssr:stedsnr" v="251259" />
	</node>
	<node id="-302296" lat="61.2425249981" lon="11.6608750007">
		<tag k="historic" v="shieling" />
		<tag k="name" v="Kjølsætra" />
		<tag k="place" v="locality" />
		<tag k="ssr:stedsnr" v="250294" />
	</node>
	<node id="-302291" lat="61.0893500044" lon="11.5153638854">
		<tag k="name" v="Lauvnubbkoia" />
		<tag k="place" v="isolated_dwelling" />
		<tag k="ssr:stedsnr" v="241955" />
	</node>
	<node id="-302290" lat="61.0995611143" lon="11.5343083348">
		<tag k="name" v="Nubbkoia" />
		<tag k="place" v="isolated_dwelling" />
		<tag k="ssr:stedsnr" v="241952" />
	</node>
	<node id="-302289" lat="61.1015166679" lon="11.2748666631">
		<tag k="name" v="Meninga" />
		<tag k="place" v="farm" />
		<tag k="ssr:stedsnr" v="241076" />
	</node>
	<node id="-302287" lat="61.1132722192" lon="11.5977444455">
		<tag k="name" v="Kolstad" />
		<tag k="place" v="isolated_dwelling" />
		<tag k="ssr:stedsnr" v="224604" />
	</node>
	<node id="-302284" lat="61.3251499998" lon="11.3636527759">
		<tag k="name" v="Øvre Treerkoia" />
		<tag k="place" v="isolated_dwelling" />
		<tag k="ssr:stedsnr" v="298818" />
	</node>
	<node id="-302283" lat="61.411033335" lon="11.3541027786">
		<tag k="name" v="Buvika" />
		<tag k="place" v="isolated_dwelling" />
		<tag k="ssr:stedsnr" v="298690" />
	</node>
	<node id="-302281" lat="61.301711111" lon="11.4620527744">
		<tag k="amenity" v="school" />
		<tag k="name" v="Deset barneskole" />
		<tag k="ssr:stedsnr" v="297503" />
	</node>
	<node id="-302279" lat="61.2951722239" lon="11.864802782">
		<tag k="alt_name" v="Skavernsætra" />
		<tag k="historic" v="shieling" />
		<tag k="name" v="Skavarsætra" />
		<tag k="place" v="locality" />
		<tag k="ssr:stedsnr" v="190618" />
	</node>
	<node id="-302276" lat="61.3841777802" lon="11.6279472142">
		<tag k="alt_name" v="Nordre Dambua" />
		<tag k="name" v="Dambua" />
		<tag k="place" v="farm" />
		<tag k="ssr:stedsnr" v="189137" />
	</node>
	<node id="-302272" lat="61.4073138877" lon="11.7480166604">
		<tag k="name" v="Voll" />
		<tag k="place" v="farm" />
		<tag k="ssr:stedsnr" v="189123" />
	</node>
	<node id="-302269" lat="61.2346305587" lon="11.4728027702">
		<tag k="name" v="Bekkely" />
		<tag k="place" v="isolated_dwelling" />
		<tag k="ssr:stedsnr" v="285567" />
	</node>
	<node id="-302262" lat="61.1901277791" lon="11.5394638898">
		<tag k="name" v="Tuppsjøen" />
		<tag k="place" v="isolated_dwelling" />
		<tag k="ssr:stedsnr" v="180566" />
	</node>
	<node id="-302257" lat="61.2265083302" lon="11.7121722257">
		<tag k="name" v="Bua" />
		<tag k="place" v="isolated_dwelling" />
		<tag k="ssr:stedsnr" v="179955" />
	</node>
	<node id="-302245" lat="61.1704027793" lon="11.3471111141">
		<tag k="name" v="Hovdmoen industriområde" />
		<tag k="place" v="quarter" />
		<tag k="ssr:stedsnr" v="284631" />
	</node>
	<node id="-302243" lat="61.0890555526" lon="11.3874305609">
		<tag k="name" v="Bergsvea" />
		<tag k="place" v="isolated_dwelling" />
		<tag k="ssr:stedsnr" v="284349" />
	</node>
	<node id="-302240" lat="61.0657416644" lon="11.3663638943">
		<tag k="name" v="Søndre Lilleengen" />
		<tag k="place" v="farm" />
		<tag k="ssr:stedsnr" v="283304" />
	</node>
	<node id="-302233" lat="61.132452782" lon="11.271805552">
		<tag k="name" v="Slettrønningen" />
		<tag k="place" v="locality" />
		<tag k="ssr:stedsnr" v="282199" />
	</node>
	<node id="-302230" lat="61.156202779" lon="11.4345527859">
		<tag k="name" v="Svea" />
		<tag k="place" v="isolated_dwelling" />
		<tag k="ssr:stedsnr" v="163904" />
	</node>
	<node id="-302227" lat="61.1293583317" lon="11.2603027843">
		<tag k="historic" v="shieling" />
		<tag k="name" v="Bergesætra" />
		<tag k="place" v="locality" />
		<tag k="ssr:stedsnr" v="161010" />
	</node>
	<node id="-302226" lat="61.1240000004" lon="11.4572249975">
		<tag k="alt_name" v="Ilsåsåsen sæter;Ilsås sæter" />
		<tag k="historic" v="shieling" />
		<tag k="name" v="Ilsåsåsen" />
		<tag k="place" v="locality" />
		<tag k="ssr:stedsnr" v="279393" />
	</node>
	<node id="-302224" lat="61.1375805593" lon="11.1928055636">
		<tag k="fixme" v="consider place=hamlet" />
		<tag k="name" v="Skramstadsætra" />
		<tag k="place" v="village" />
		<tag k="ssr:stedsnr" v="268561" />
	</node>
	<node id="-302222" lat="61.2369694411" lon="11.4799333241">
		<tag k="name" v="Rød" />
		<tag k="place" v="farm" />
		<tag k="ssr:stedsnr" v="129329" />
	</node>
	<node id="-302220" lat="61.2459527789" lon="11.7917472228">
		<tag k="name" v="Tangen" />
		<tag k="place" v="isolated_dwelling" />
		<tag k="ssr:stedsnr" v="129313" />
	</node>
	<node id="-302219" lat="61.2378833361" lon="11.7654750073">
		<tag k="name" v="Åsheim" />
		<tag k="place" v="isolated_dwelling" />
		<tag k="ssr:stedsnr" v="129307" />
	</node>
	<node id="-302216" lat="61.2718666663" lon="11.6536416669">
		<tag k="name" v="Rakafjellskoia" />
		<tag k="place" v="isolated_dwelling" />
		<tag k="ssr:stedsnr" v="128747" />
	</node>
	<node id="-302215" lat="61.2459689232" lon="11.340347587">
		<tag k="alt_name" v="Øvre Viken" />
		<tag k="fixme" v="consider place=hamlet" />
		<tag k="name" v="Vika" />
		<tag k="place" v="farm" />
		<tag k="ssr:stedsnr" v="128351" />
	</node>
	<node id="-302214" lat="61.1860750004" lon="11.4911027843">
		<tag k="name" v="Heggtun" />
		<tag k="place" v="isolated_dwelling" />
		<tag k="ssr:stedsnr" v="128326" />
	</node>
	<node id="-302212" lat="61.1933777753" lon="11.575494444">
		<tag k="name" v="Vollbakken" />
		<tag k="place" v="farm" />
		<tag k="ssr:stedsnr" v="128319" />
	</node>
	<node id="-302211" lat="61.1990583341" lon="11.5102527815">
		<tag k="name" v="Furuset" />
		<tag k="place" v="farm" />
		<tag k="ssr:stedsnr" v="128305" />
	</node>
	<node id="-302210" lat="61.1335749968" lon="11.3864694447">
		<tag k="name" v="Pilgrimen" />
		<tag k="place" v="quarter" />
		<tag k="ssr:stedsnr" v="265975" />
	</node>
	<node id="-302205" lat="61.1046694409" lon="11.3781333357">
		<tag k="building" v="industrial" />
		<tag k="name" v="Bolstad Sag" />
		<tag k="ssr:stedsnr" v="117517" />
	</node>
	<node id="-302201" lat="61.1351554154" lon="11.3067142648">
		<tag k="alt_name" v="Søstu Skramstad" />
		<tag k="fixme" v="consider place=hamlet" />
		<tag k="name" v="Søndre Skramstad" />
		<tag k="place" v="farm" />
		<tag k="ssr:stedsnr" v="103216" />
	</node>
	<node id="-302200" lat="61.0746666691" lon="11.3694166738">
		<tag k="name" v="Velta" />
		<tag k="place" v="farm" />
		<tag k="ssr:stedsnr" v="101357" />
	</node>
	<node id="-302196" lat="61.1236944486" lon="11.295588897">
		<tag k="name" v="Holehagen" />
		<tag k="place" v="isolated_dwelling" />
		<tag k="ssr:stedsnr" v="100003" />
	</node>
	<node id="-302193" lat="61.2532226519" lon="11.8535612538">
		<tag k="alt_name" v="Fuglesand" />
		<tag k="fixme" v="consider place=hamlet" />
		<tag k="name" v="Fuglsanden" />
		<tag k="place" v="farm" />
		<tag k="ssr:stedsnr" v="251559" />
	</node>
	<node id="-302189" lat="61.4252805522" lon="11.7081222236">
		<tag k="alt_name" v="Jota" />
		<tag k="name" v="Gjota" />
		<tag k="place" v="farm" />
		<tag k="ssr:stedsnr" v="251203" />
	</node>
	<node id="-302187" lat="61.4183194451" lon="11.746525001">
		<tag k="name" v="Midtli" />
		<tag k="place" v="farm" />
		<tag k="ssr:stedsnr" v="251184" />
	</node>
	<node id="-302186" lat="61.4124166663" lon="11.7472472143">
		<tag k="alt_name" v="Lislelid" />
		<tag k="name" v="Lisleli" />
		<tag k="place" v="isolated_dwelling" />
		<tag k="ssr:stedsnr" v="251183" />
	</node>
	<node id="-302183" lat="61.431124998" lon="11.7405000033">
		<tag k="alt_name" v="Fabrosætra" />
		<tag k="historic" v="shieling" />
		<tag k="name" v="Farbrorssætra" />
		<tag k="place" v="locality" />
		<tag k="ssr:stedsnr" v="251165" />
	</node>
	<node id="-302181" lat="61.3854777738" lon="11.3722027723">
		<tag k="name" v="Aldershvile" />
		<tag k="place" v="isolated_dwelling" />
		<tag k="ssr:stedsnr" v="251049" />
	</node>
	<node id="-302180" lat="61.3446111087" lon="11.3924027795">
		<tag k="name" v="Søre Grønvoll" />
		<tag k="place" v="locality" />
		<tag k="ssr:stedsnr" v="251002" />
	</node>
	<node id="-302177" lat="61.3132611144" lon="11.7964638885">
		<tag k="name" v="Egga" />
		<tag k="place" v="farm" />
		<tag k="ssr:stedsnr" v="250824" />
	</node>
	<node id="-302176" lat="61.359036113" lon="11.6151083427">
		<tag k="name" v="Fallbua" />
		<tag k="place" v="isolated_dwelling" />
		<tag k="ssr:stedsnr" v="250821" />
	</node>
	<node id="-302174" lat="61.3439222197" lon="11.7687777796">
		<tag k="alt_name" v="Skjærstad" />
		<tag k="name" v="Skjerstad" />
		<tag k="place" v="isolated_dwelling" />
		<tag k="ssr:stedsnr" v="250793" />
	</node>
	<node id="-302172" lat="61.3021472204" lon="11.7895861028">
		<tag k="name" v="Solbakken" />
		<tag k="place" v="farm" />
		<tag k="ssr:stedsnr" v="250756" />
	</node>
	<node id="-302171" lat="61.264703003" lon="11.502853866">
		<tag k="fixme" v="consider place=hamlet" />
		<tag k="name" v="Rødsberget" />
		<tag k="place" v="farm" />
		<tag k="ssr:stedsnr" v="250751" />
	</node>
	<node id="-302170" lat="61.2830805596" lon="11.8188944367">
		<tag k="name" v="Opptun" />
		<tag k="place" v="farm" />
		<tag k="ssr:stedsnr" v="250746" />
	</node>
	<node id="-302169" lat="61.1687416693" lon="11.4934777697">
		<tag k="name" v="Skogheim" />
		<tag k="place" v="farm" />
		<tag k="ssr:stedsnr" v="250374" />
	</node>
	<node id="-302165" lat="61.2180250004" lon="11.688252777">
		<tag k="historic" v="shieling" />
		<tag k="name" v="Lisætra" />
		<tag k="place" v="locality" />
		<tag k="ssr:stedsnr" v="250318" />
	</node>
	<node id="-302164" lat="61.2439027791" lon="11.7467500081">
		<tag k="name" v="Torp" />
		<tag k="place" v="farm" />
		<tag k="ssr:stedsnr" v="250307" />
	</node>
	<node id="-302163" lat="61.2537833368" lon="11.4565583297">
		<tag k="alt_name" v="Rødsåsen, Nørdre" />
		<tag k="name" v="Nordre Rødsåsen" />
		<tag k="place" v="farm" />
		<tag k="ssr:stedsnr" v="250202" />
	</node>
	<node id="-302162" lat="61.4076861129" lon="11.6098111048">
		<tag k="name" v="Karinusbua" />
		<tag k="place" v="farm" />
		<tag k="ssr:stedsnr" v="250176" />
	</node>
	<node id="-302160" lat="61.4028027778" lon="11.7747888912">
		<tag k="alt_name" v="Granberg" />
		<tag k="name" v="Granberget" />
		<tag k="place" v="farm" />
		<tag k="ssr:stedsnr" v="250140" />
	</node>
	<node id="-302159" lat="61.3984277774" lon="11.7345416647">
		<tag k="alt_name" v="Gardbergsætra;Gardbergssætra" />
		<tag k="historic" v="shieling" />
		<tag k="name" v="Gardberget" />
		<tag k="place" v="locality" />
		<tag k="ssr:stedsnr" v="250137" />
	</node>
	<node id="-302157" lat="61.0788499956" lon="11.2304111108">
		<tag k="name" v="Bråtåbua" />
		<tag k="place" v="isolated_dwelling" />
		<tag k="ssr:stedsnr" v="249507" />
	</node>
	<node id="-302156" lat="61.1032090098" lon="11.3569178693">
		<tag k="fixme" v="consider place=hamlet" />
		<tag k="name" v="Korperud" />
		<tag k="place" v="farm" />
		<tag k="ssr:stedsnr" v="249489" />
	</node>
	<node id="-302155" lat="61.1034555554" lon="11.3861388844">
		<tag k="name" v="Grønstad" />
		<tag k="place" v="isolated_dwelling" />
		<tag k="ssr:stedsnr" v="249487" />
	</node>
	<node id="-302152" lat="61.1358510285" lon="11.3086541403">
		<tag k="name" v="Skramstad" />
		<tag k="place" v="hamlet" />
		<tag k="ssr:stedsnr" v="249461" />
	</node>
	<node id="-302151" lat="61.1575733138" lon="11.426087999">
		<tag k="fixme" v="consider place=hamlet" />
		<tag k="name" v="Østhagen" />
		<tag k="place" v="farm" />
		<tag k="ssr:stedsnr" v="249439" />
	</node>
	<node id="-302150" lat="61.200163891" lon="11.3676749977">
		<tag k="name" v="Hammarsmobua" />
		<tag k="place" v="isolated_dwelling" />
		<tag k="ssr:stedsnr" v="249420" />
	</node>
	<node id="-302145" lat="61.0582583353" lon="11.295500007">
		<tag k="name" v="Klettsætra" />
		<tag k="place" v="hamlet" />
		<tag k="ssr:stedsnr" v="249233" />
	</node>
	<node id="-302144" lat="61.2257547141" lon="11.342858639">
		<tag k="fixme" v="consider place=hamlet" />
		<tag k="name" v="Ygle" />
		<tag k="place" v="farm" />
		<tag k="ssr:stedsnr" v="249390" />
	</node>
	<node id="-302141" lat="61.2465611128" lon="11.4256444505">
		<tag k="name" v="Treerbua" />
		<tag k="place" v="isolated_dwelling" />
		<tag k="ssr:stedsnr" v="249379" />
	</node>
	<node id="-302140" lat="61.3414416644" lon="11.8596500046">
		<tag k="name" v="Elim" />
		<tag k="place" v="farm" />
		<tag k="ssr:stedsnr" v="69626" />
	</node>
	<node id="-302139" lat="61.2284589825" lon="11.8127416931">
		<tag k="fixme" v="consider place=hamlet" />
		<tag k="name" v="Moldberget" />
		<tag k="place" v="farm" />
		<tag k="ssr:stedsnr" v="69335" />
	</node>
	<node id="-302137" lat="61.3324305581" lon="11.7548888825">
		<tag k="name" v="Solli" />
		<tag k="place" v="farm" />
		<tag k="ssr:stedsnr" v="68814" />
	</node>
	<node id="-302135" lat="61.3457666684" lon="11.7809361157">
		<tag k="name" v="Heggeli" />
		<tag k="place" v="isolated_dwelling" />
		<tag k="ssr:stedsnr" v="68808" />
	</node>
	<node id="-302133" lat="61.2385888902" lon="11.7373222194">
		<tag k="name" v="Hanestad" />
		<tag k="place" v="isolated_dwelling" />
		<tag k="ssr:stedsnr" v="68305" />
	</node>
	<node id="-302131" lat="61.1968500034" lon="11.2220083294">
		<tag k="name" v="Nierbua" />
		<tag k="place" v="isolated_dwelling" />
		<tag k="ssr:stedsnr" v="67430" />
	</node>
	<node id="-302130" lat="61.1995055574" lon="11.3151944482">
		<tag k="name" v="Nybua" />
		<tag k="place" v="isolated_dwelling" />
		<tag k="ssr:stedsnr" v="67429" />
	</node>
	<node id="-302128" lat="61.0728333324" lon="11.4836055625">
		<tag k="name" v="Langmyrdalskoia" />
		<tag k="place" v="locality" />
		<tag k="ssr:stedsnr" v="241825" />
	</node>
	<node id="-302124" lat="61.099144446" lon="11.2686333378">
		<tag k="name" v="Brennkoia" />
		<tag k="place" v="isolated_dwelling" />
		<tag k="ssr:stedsnr" v="241078" />
	</node>
	<node id="-302120" lat="61.0738333357" lon="11.2868527865">
		<tag k="name" v="Skjærbekkbua" />
		<tag k="place" v="isolated_dwelling" />
		<tag k="ssr:stedsnr" v="240117" />
	</node>
	<node id="-302114" lat="61.2289305575" lon="11.696088881">
		<tag k="name" v="Næsskoia" />
		<tag k="place" v="isolated_dwelling" />
		<tag k="ssr:stedsnr" v="58924" />
	</node>
	<node id="-302109" lat="61.0764027756" lon="11.3436444378">
		<tag k="name" v="Smedbakken" />
		<tag k="place" v="farm" />
		<tag k="ssr:stedsnr" v="56323" />
	</node>
	<node id="-302102" lat="61.3210555513" lon="11.4362361151">
		<tag k="name" v="Bjørklund" />
		<tag k="place" v="isolated_dwelling" />
		<tag k="ssr:stedsnr" v="237530" />
	</node>
	<node id="-302100" lat="61.307208332" lon="11.4462249991">
		<tag k="name" v="Deset-Letet" />
		<tag k="place" v="isolated_dwelling" />
		<tag k="ssr:stedsnr" v="237526" />
	</node>
	<node id="-302099" lat="61.1659333342" lon="11.3528555609">
		<tag k="name" v="Øvre Neset" />
		<tag k="place" v="isolated_dwelling" />
		<tag k="ssr:stedsnr" v="55370" />
	</node>
	<node id="-302096" lat="61.145661115" lon="11.3626861087">
		<tag k="name" v="Nordre Kirkeberget" />
		<tag k="place" v="quarter" />
		<tag k="ssr:stedsnr" v="237394" />
	</node>
	<node id="-302095" lat="61.1461999997" lon="11.3476555553">
		<tag k="name" v="Hagen" />
		<tag k="place" v="farm" />
		<tag k="ssr:stedsnr" v="237392" />
	</node>
	<node id="-302094" lat="61.1255999956" lon="11.3201000064">
		<tag k="name" v="Bjørkhaug" />
		<tag k="place" v="farm" />
		<tag k="ssr:stedsnr" v="237384" />
	</node>
	<node id="-302092" lat="61.4837750021" lon="11.6956138962">
		<tag k="name" v="Nedre Storåsen" />
		<tag k="place" v="farm" />
		<tag k="ssr:stedsnr" v="237289" />
	</node>
	<node id="-302089" lat="61.0672861136" lon="11.3680805614">
		<tag k="name" v="Nordre Lilleengen" />
		<tag k="place" v="farm" />
		<tag k="ssr:stedsnr" v="40368" />
	</node>
	<node id="-302087" lat="61.3173888859" lon="11.7942916642">
		<tag k="name" v="Finstad" />
		<tag k="place" v="farm" />
		<tag k="ssr:stedsnr" v="39370" />
	</node>
	<node id="-302085" lat="61.2562583319" lon="11.728833325">
		<tag k="name" v="Valmen" />
		<tag k="place" v="isolated_dwelling" />
		<tag k="ssr:stedsnr" v="22834" />
	</node>
	<node id="-302083" lat="61.3414305552" lon="11.5755194455">
		<tag k="name" v="Lyngås" />
		<tag k="place" v="isolated_dwelling" />
		<tag k="ssr:stedsnr" v="224955" />
	</node>
	<node id="-302079" lat="61.2757916701" lon="11.4753500052">
		<tag k="name" v="Tallrustbua" />
		<tag k="place" v="isolated_dwelling" />
		<tag k="ssr:stedsnr" v="224543" />
	</node>
	<node id="-302078" lat="61.3544500018" lon="11.4204194411">
		<tag k="name" v="Sandbekksvea" />
		<tag k="place" v="locality" />
		<tag k="ssr:stedsnr" v="224537" />
	</node>
	<node id="-302074" lat="61.2469222194" lon="11.3404694512">
		<tag k="name" v="Nedre Viken" />
		<tag k="place" v="farm" />
		<tag k="ssr:stedsnr" v="223865" />
	</node>
	<node id="-302073" lat="61.0861777748" lon="11.3850361106">
		<tag k="name" v="Oppstu Berge" />
		<tag k="place" v="isolated_dwelling" />
		<tag k="ssr:stedsnr" v="223373" />
	</node>
	<node id="-302071" lat="61.0640611135" lon="11.3745361153">
		<tag k="name" v="Hemstad" />
		<tag k="place" v="isolated_dwelling" />
		<tag k="ssr:stedsnr" v="223348" />
	</node>
	<node id="-302070" lat="61.0678833344" lon="11.3781333367">
		<tag k="name" v="Svea" />
		<tag k="place" v="isolated_dwelling" />
		<tag k="ssr:stedsnr" v="223347" />
	</node>
	<node id="-302068" lat="61.30029444" lon="11.7975694502">
		<tag k="name" v="Solheim" />
		<tag k="place" v="farm" />
		<tag k="ssr:stedsnr" v="222399" />
	</node>
	<node id="-302066" lat="61.140908334" lon="11.3079888802">
		<tag k="name" v="Gjersla" />
		<tag k="place" v="farm" />
		<tag k="ssr:stedsnr" v="222215" />
	</node>
	<node id="-302062" lat="61.3439916676" lon="11.4017805541">
		<tag k="name" v="Øra" />
		<tag k="place" v="locality" />
		<tag k="ssr:stedsnr" v="9002" />
	</node>
	<node id="-302060" lat="61.2512777735" lon="11.5428055575">
		<tag k="alt_name" v="Rødsætervolla" />
		<tag k="historic" v="shieling" />
		<tag k="name" v="Volla" />
		<tag k="place" v="locality" />
		<tag k="ssr:stedsnr" v="8817" />
	</node>
	<node id="-304017" lat="61.2786623119" lon="11.8143047054">
		<tag k="alt_name" v="Skaveren søndre" />
		<tag k="fixme" v="consider place=hamlet" />
		<tag k="name" v="Søndre Skavern" />
		<tag k="place" v="farm" />
		<tag k="ssr:stedsnr" v="1076530" />
	</node>
	<node id="-304016" lat="61.3099255085" lon="11.7276325778">
		<tag k="fixme" v="consider place=hamlet" />
		<tag k="name" v="Nordre Osvoll" />
		<tag k="place" v="farm" />
		<tag k="ssr:stedsnr" v="1076524" />
	</node>
	<node id="-304015" lat="61.1266705407" lon="11.3838001545">
		<tag k="name" v="Søndre Ilsås" />
		<tag k="place" v="farm" />
		<tag k="ssr:stedsnr" v="1076523" />
	</node>
	<node id="-304014" lat="61.193280378" lon="11.5484301474">
		<tag k="name" v="Nedre Ulvåa" />
		<tag k="place" v="farm" />
		<tag k="ssr:stedsnr" v="1076522" />
	</node>
	<node id="-304013" lat="61.3920297997" lon="11.3685895857">
		<tag k="fixme" v="consider place=hamlet" />
		<tag k="name" v="Løset" />
		<tag k="place" v="farm" />
		<tag k="ssr:stedsnr" v="1076521" />
	</node>
	<node id="-304012" lat="61.1273847886" lon="11.3026267918">
		<tag k="fixme" v="consider place=hamlet" />
		<tag k="name" v="Øvre Bolstad" />
		<tag k="place" v="farm" />
		<tag k="ssr:stedsnr" v="1076507" />
	</node>
	<node id="-304003" lat="61.0839800358" lon="11.4864372817">
		<tag k="name" v="Lauritsbua" />
		<tag k="place" v="locality" />
		<tag k="ssr:stedsnr" v="989862" />
	</node>
	<node id="-303999" lat="61.3005402476" lon="11.4578462928">
		<tag k="fixme" v="consider place=hamlet" />
		<tag k="name" v="Melgarden" />
		<tag k="place" v="farm" />
		<tag k="ssr:stedsnr" v="971615" />
	</node>
	<node id="-303994" lat="61.1939916659" lon="11.5611722251">
		<tag k="name" v="Ulvåa" />
		<tag k="place" v="hamlet" />
		<tag k="ssr:stedsnr" v="969851" />
	</node>
	<node id="-303993" lat="61.0855944449" lon="11.5299833277">
		<tag k="name" v="Sameiekoia" />
		<tag k="place" v="isolated_dwelling" />
		<tag k="ssr:stedsnr" v="969933" />
	</node>
	<node id="-303986" lat="61.0800999956" lon="11.3491666645">
		<tag k="name" v="Søndre Åset" />
		<tag k="place" v="farm" />
		<tag k="ssr:stedsnr" v="966985" />
	</node>
	<node id="-303980" lat="61.2489083297" lon="11.6996499919">
		<tag k="name" v="Vestre Nyland" />
		<tag k="place" v="farm" />
		<tag k="ssr:stedsnr" v="965902" />
	</node>
	<node id="-303979" lat="61.3018666628" lon="11.4535472253">
		<tag k="loc_name" v="Gjetvolds" />
		<tag k="name" v="Gjetvoldstu" />
		<tag k="place" v="farm" />
		<tag k="ssr:stedsnr" v="965530" />
	</node>
	<node id="-303977" lat="61.1377833341" lon="11.3714527813">
		<tag k="name" v="Granlund" />
		<tag k="place" v="isolated_dwelling" />
		<tag k="ssr:stedsnr" v="965396" />
	</node>
	<node id="-303976" lat="61.1236833288" lon="11.3788055597">
		<tag k="name" v="Ilsåsrønningen" />
		<tag k="place" v="isolated_dwelling" />
		<tag k="ssr:stedsnr" v="965386" />
	</node>
	<node id="-303971" lat="61.158833334" lon="11.4380666675">
		<tag k="name" v="Haug" />
		<tag k="place" v="isolated_dwelling" />
		<tag k="ssr:stedsnr" v="952884" />
	</node>
	<node id="-303968" lat="61.1046000042" lon="11.1688722295">
		<tag k="name" v="Skjærdalskoia" />
		<tag k="place" v="locality" />
		<tag k="ssr:stedsnr" v="951930" />
	</node>
	<node id="-303961" lat="61.4196694446" lon="11.7746861092">
		<tag k="name" v="Berntsbua" />
		<tag k="place" v="isolated_dwelling" />
		<tag k="ssr:stedsnr" v="858186" />
	</node>
	<node id="-303960" lat="61.1124388869" lon="11.6003555607">
		<tag k="name" v="Halstensrud" />
		<tag k="place" v="farm" />
		<tag k="ssr:stedsnr" v="858184" />
	</node>
	<node id="-303957" lat="61.3180777741" lon="11.7923916706">
		<tag k="name" v="Tangen" />
		<tag k="place" v="farm" />
		<tag k="ssr:stedsnr" v="857847" />
	</node>
	<node id="-303956" lat="61.3199733193" lon="11.8037199069">
		<tag k="alt_name" v="Søndre Stener" />
		<tag k="fixme" v="consider place=hamlet" />
		<tag k="name" v="Stener" />
		<tag k="place" v="farm" />
		<tag k="ssr:stedsnr" v="857844" />
	</node>
	<node id="-303955" lat="61.3105638912" lon="11.6617750015">
		<tag k="name" v="Mårlia" />
		<tag k="place" v="isolated_dwelling" />
		<tag k="ssr:stedsnr" v="857841" />
	</node>
	<node id="-303951" lat="61.0826666686" lon="11.4483583249">
		<tag k="name" v="Mørstadbua" />
		<tag k="place" v="isolated_dwelling" />
		<tag k="ssr:stedsnr" v="857501" />
	</node>
	<node id="-303950" lat="61.2618444483" lon="11.7080111043">
		<tag k="alt_name" v="Følkrikkoia" />
		<tag k="name" v="Folkrikkoia" />
		<tag k="place" v="isolated_dwelling" />
		<tag k="ssr:stedsnr" v="857774" />
	</node>
	<node id="-303948" lat="61.1604499993" lon="11.4737250082">
		<tag k="building" v="industrial" />
		<tag k="industrial" v="factory" />
		<tag k="name" v="Snippen sag" />
		<tag k="ssr:stedsnr" v="857391" />
	</node>
	<node id="-303947" lat="61.1692888864" lon="11.6452861131">
		<tag k="name" v="Stenkoia" />
		<tag k="place" v="isolated_dwelling" />
		<tag k="ssr:stedsnr" v="857384" />
	</node>
	<node id="-303946" lat="61.1892527823" lon="11.4940527748">
		<tag k="name" v="Skoglund" />
		<tag k="place" v="farm" />
		<tag k="ssr:stedsnr" v="857382" />
	</node>
	<node id="-303945" lat="61.1866444437" lon="11.7091555526">
		<tag k="historic" v="shieling" />
		<tag k="name" v="Nysætra" />
		<tag k="place" v="locality" />
		<tag k="ssr:stedsnr" v="857374" />
	</node>
	<node id="-303941" lat="61.0985444483" lon="11.31321112">
		<tag k="name" v="Hølmyrbua" />
		<tag k="place" v="isolated_dwelling" />
		<tag k="ssr:stedsnr" v="857486" />
	</node>
	<node id="-303939" lat="61.043330557" lon="11.3574888907">
		<tag k="name" v="Gjerdinga" />
		<tag k="place" v="isolated_dwelling" />
		<tag k="ssr:stedsnr" v="857298" />
	</node>
	<node id="-303937" lat="61.4034305531" lon="11.5702138845">
		<tag k="name" v="Tutulbua" />
		<tag k="place" v="isolated_dwelling" />
		<tag k="ssr:stedsnr" v="857149" />
	</node>
	<node id="-303935" lat="61.4008277767" lon="11.6138305514">
		<tag k="name" v="Sjøbua" />
		<tag k="place" v="farm" />
		<tag k="ssr:stedsnr" v="857144" />
	</node>
	<node id="-303934" lat="61.1985027823" lon="11.1820472149">
		<tag k="name" v="Grytbua" />
		<tag k="place" v="isolated_dwelling" />
		<tag k="ssr:stedsnr" v="856446" />
	</node>
	<node id="-303933" lat="61.146709519" lon="11.3816731488">
		<tag k="fixme" v="consider place=hamlet" />
		<tag k="name" v="Kilde" />
		<tag k="place" v="farm" />
		<tag k="ssr:stedsnr" v="856499" />
	</node>
	<node id="-303928" lat="61.2928944483" lon="11.8003388958">
		<tag k="building" v="industrial" />
		<tag k="name" v="Osen Sag" />
		<tag k="ssr:stedsnr" v="848507" />
	</node>
	<node id="-303927" lat="61.1385333302" lon="11.1976416619">
		<tag k="name" v="Førstehjelpshytta" />
		<tag k="place" v="isolated_dwelling" />
		<tag k="ssr:stedsnr" v="848289" />
	</node>
	<node id="-303920" lat="61.0868527822" lon="11.2681250029">
		<tag k="name" v="Klossveltbua" />
		<tag k="place" v="isolated_dwelling" />
		<tag k="ssr:stedsnr" v="846087" />
	</node>
	<node id="-303915" lat="61.3980027759" lon="11.4201361064">
		<tag k="name" v="Øvre Bjørnsløa" />
		<tag k="place" v="locality" />
		<tag k="ssr:stedsnr" v="844536" />
	</node>
	<node id="-303913" lat="61.2978888894" lon="11.4784555483">
		<tag k="name" v="Nedre Løklia" />
		<tag k="place" v="isolated_dwelling" />
		<tag k="ssr:stedsnr" v="844519" />
	</node>
	<node id="-303910" lat="61.1501416654" lon="11.3366083331">
		<tag k="name" v="Arnstad" />
		<tag k="place" v="farm" />
		<tag k="ssr:stedsnr" v="844381" />
	</node>
	<node id="-303909" lat="61.1472500022" lon="11.3349722239">
		<tag k="name" v="Søndre Tingstad" />
		<tag k="place" v="farm" />
		<tag k="ssr:stedsnr" v="844380" />
	</node>
	<node id="-303907" lat="61.127130558" lon="11.3144694513">
		<tag k="name" v="Vinterstua" />
		<tag k="place" v="farm" />
		<tag k="ssr:stedsnr" v="844367" />
	</node>
	<node id="-303906" lat="61.1295194407" lon="11.3120638911">
		<tag k="name" v="Bjørkholen" />
		<tag k="place" v="farm" />
		<tag k="ssr:stedsnr" v="844366" />
	</node>
	<node id="-303905" lat="61.1387083355" lon="11.3806777744">
		<tag k="leisure" v="pitch" />
		<tag k="name" v="Åmot eng" />
		<tag k="ssr:stedsnr" v="844360" />
	</node>
	<node id="-303904" lat="61.0686805514" lon="11.3465500024">
		<tag k="name" v="Nygårdsmoen" />
		<tag k="place" v="farm" />
		<tag k="ssr:stedsnr" v="845328" />
	</node>
	<node id="-303900" lat="61.3391749982" lon="11.8676194435">
		<tag k="name" v="Skogly" />
		<tag k="place" v="farm" />
		<tag k="ssr:stedsnr" v="831428" />
	</node>
	<node id="-303899" lat="61.3397527811" lon="11.8632861075">
		<tag k="name" v="Nysætergrenda" />
		<tag k="place" v="hamlet" />
		<tag k="ssr:stedsnr" v="831424" />
	</node>
	<node id="-303894" lat="61.2268999984" lon="11.3466111134">
		<tag k="name" v="Ygle-Moen" />
		<tag k="place" v="farm" />
		<tag k="ssr:stedsnr" v="830840" />
	</node>
	<node id="-303890" lat="61.1586111083" lon="11.2750472181">
		<tag k="name" v="Maritmyrkoia" />
		<tag k="place" v="isolated_dwelling" />
		<tag k="ssr:stedsnr" v="829215" />
	</node>
	<node id="-303885" lat="61.1224055592" lon="11.3034527738">
		<tag k="name" v="Monsstua" />
		<tag k="place" v="isolated_dwelling" />
		<tag k="ssr:stedsnr" v="829015" />
	</node>
	<node id="-303882" lat="61.2520999973" lon="11.6484861037">
		<tag k="name" v="Nierkoia" />
		<tag k="place" v="isolated_dwelling" />
		<tag k="ssr:stedsnr" v="797817" />
	</node>
	<node id="-303878" lat="61.3689888845" lon="11.3808749959">
		<tag k="alt_name" v="Løset, Søre;Søndre Løsset" />
		<tag k="name" v="Søndre Løset" />
		<tag k="old_name" v="Søre Løset" />
		<tag k="place" v="farm" />
		<tag k="ssr:stedsnr" v="797057" />
	</node>
	<node id="-303874" lat="61.2717694404" lon="11.3658277814">
		<tag k="alt_name" v="Ygle-Nordsæter" />
		<tag k="historic" v="shieling" />
		<tag k="name" v="Øglesætra" />
		<tag k="place" v="locality" />
		<tag k="ssr:stedsnr" v="797235" />
	</node>
	<node id="-303872" lat="61.2941555534" lon="11.4638888873">
		<tag k="name" v="Slettmo" />
		<tag k="place" v="farm" />
		<tag k="ssr:stedsnr" v="797228" />
	</node>
	<node id="-303870" lat="61.324774998" lon="11.7921527708">
		<tag k="alt_name" v="Gammelgarden" />
		<tag k="name" v="Gamlegarden" />
		<tag k="place" v="farm" />
		<tag k="ssr:stedsnr" v="796890" />
	</node>
	<node id="-303867" lat="61.3035583347" lon="11.6929722298">
		<tag k="name" v="Fjellstad" />
		<tag k="place" v="isolated_dwelling" />
		<tag k="ssr:stedsnr" v="796872" />
	</node>
	<node id="-303866" lat="61.3040916636" lon="11.7307416668">
		<tag k="name" v="Vesterheim" />
		<tag k="place" v="farm" />
		<tag k="ssr:stedsnr" v="796870" />
	</node>
	<node id="-303865" lat="61.3127583349" lon="11.7420527732">
		<tag k="name" v="Vangli" />
		<tag k="place" v="farm" />
		<tag k="ssr:stedsnr" v="796859" />
	</node>
	<node id="-303864" lat="61.3540166708" lon="11.6749444369">
		<tag k="name" v="Solheim" />
		<tag k="place" v="isolated_dwelling" />
		<tag k="ssr:stedsnr" v="796848" />
	</node>
	<node id="-303863" lat="61.3622444472" lon="11.7643916592">
		<tag k="name" v="Otnes" />
		<tag k="place" v="isolated_dwelling" />
		<tag k="ssr:stedsnr" v="796841" />
	</node>
	<node id="-303861" lat="61.0764499995" lon="11.2717499959">
		<tag k="name" v="Syttenbua" />
		<tag k="place" v="isolated_dwelling" />
		<tag k="ssr:stedsnr" v="796493" />
	</node>
	<node id="-303860" lat="61.0845000019" lon="11.2881527848">
		<tag k="name" v="Fallsyringsbakken" />
		<tag k="place" v="farm" />
		<tag k="ssr:stedsnr" v="796487" />
	</node>
	<node id="-303859" lat="61.0888055581" lon="11.2533500041">
		<tag k="name" v="Jernåholmen" />
		<tag k="place" v="isolated_dwelling" />
		<tag k="ssr:stedsnr" v="796481" />
	</node>
	<node id="-303858" lat="61.0951250034" lon="11.1867749917">
		<tag k="name" v="Syringa" />
		<tag k="place" v="isolated_dwelling" />
		<tag k="ssr:stedsnr" v="796475" />
	</node>
	<node id="-303857" lat="61.1032611066" lon="11.1552250076">
		<tag k="name" v="Holmbua" />
		<tag k="place" v="isolated_dwelling" />
		<tag k="ssr:stedsnr" v="796467" />
	</node>
	<node id="-303853" lat="61.2466111149" lon="11.4927638914">
		<tag k="alt_name" v="Rødsbakken" />
		<tag k="name" v="Søndre Rødsbakken" />
		<tag k="place" v="farm" />
		<tag k="ssr:stedsnr" v="796274" />
	</node>
	<node id="-303850" lat="61.3757972179" lon="11.6371888865">
		<tag k="name" v="Fredheim" />
		<tag k="place" v="farm" />
		<tag k="ssr:stedsnr" v="796147" />
	</node>
	<node id="-303849" lat="61.3742749979" lon="11.8267111139">
		<tag k="historic" v="shieling" />
		<tag k="name" v="Granåsen" />
		<tag k="place" v="locality" />
		<tag k="ssr:stedsnr" v="796146" />
	</node>
	<node id="-303848" lat="61.1232083359" lon="11.5794083377">
		<tag k="name" v="Bakken" />
		<tag k="place" v="farm" />
		<tag k="ssr:stedsnr" v="796136" />
	</node>
	<node id="-303847" lat="61.4060583339" lon="11.7516638825">
		<tag k="name" v="Floen" />
		<tag k="place" v="isolated_dwelling" />
		<tag k="ssr:stedsnr" v="796134" />
	</node>
	<node id="-303846" lat="61.40021667" lon="11.5890666594">
		<tag k="name" v="Åsen" />
		<tag k="place" v="farm" />
		<tag k="ssr:stedsnr" v="796125" />
	</node>
	<node id="-303845" lat="61.3991166699" lon="11.6838277828">
		<tag k="alt_name" v="Bjønnåssætra" />
		<tag k="historic" v="shieling" />
		<tag k="name" v="Bjørnåssætra" />
		<tag k="place" v="locality" />
		<tag k="ssr:stedsnr" v="796123" />
	</node>
	<node id="-303842" lat="61.4197333297" lon="11.7507472286">
		<tag k="name" v="Høye" />
		<tag k="place" v="isolated_dwelling" />
		<tag k="ssr:stedsnr" v="796180" />
	</node>
	<node id="-303841" lat="61.177904611" lon="11.3531775436">
		<tag k="fixme" v="consider place=hamlet" />
		<tag k="name" v="Kåsa" />
		<tag k="place" v="farm" />
		<tag k="ssr:stedsnr" v="795479" />
	</node>
	<node id="-303840" lat="61.1139666671" lon="11.5216749996">
		<tag k="name" v="Elvegløtt" />
		<tag k="place" v="isolated_dwelling" />
		<tag k="ssr:stedsnr" v="787949" />
	</node>
	<node id="-303836" lat="61.1869972236" lon="11.654469442">
		<tag k="name" v="Jansenkoia" />
		<tag k="place" v="isolated_dwelling" />
		<tag k="ssr:stedsnr" v="787842" />
	</node>
	<node id="-303831" lat="61.0344722213" lon="11.3726138829">
		<tag k="name" v="Bråtenstua" />
		<tag k="place" v="isolated_dwelling" />
		<tag k="ssr:stedsnr" v="787249" />
	</node>
	<node id="-303826" lat="61.2553305547" lon="11.423325001">
		<tag k="name" v="Sjøbua" />
		<tag k="place" v="isolated_dwelling" />
		<tag k="ssr:stedsnr" v="784629" />
	</node>
	<node id="-303825" lat="61.1132194419" lon="11.3602444518">
		<tag k="name" v="Syringa" />
		<tag k="place" v="isolated_dwelling" />
		<tag k="ssr:stedsnr" v="784530" />
	</node>
	<node id="-303824" lat="61.113852781" lon="11.4246027783">
		<tag k="name" v="Midtstykkoia" />
		<tag k="place" v="locality" />
		<tag k="ssr:stedsnr" v="784483" />
	</node>
	<node id="-303817" lat="61.4004027749" lon="11.4068055565">
		<tag k="name" v="Nedre Bjørnsløa" />
		<tag k="place" v="locality" />
		<tag k="ssr:stedsnr" v="783525" />
	</node>
	<node id="-303816" lat="61.3094805582" lon="11.4641750023">
		<tag k="name" v="Solbakken" />
		<tag k="place" v="farm" />
		<tag k="ssr:stedsnr" v="783518" />
	</node>
	<node id="-303813" lat="61.1402444462" lon="11.3673444388">
		<tag k="amenity" v="school" />
		<tag k="name" v="Åmot ungdomsskole" />
		<tag k="ssr:stedsnr" v="783381" />
	</node>
	<node id="-303811" lat="61.14198354" lon="11.3732513452">
		<tag k="fixme" v="consider place=hamlet" />
		<tag k="name" v="Åmot prestegård" />
		<tag k="place" v="farm" />
		<tag k="ssr:stedsnr" v="783363" />
	</node>
	<node id="-303805" lat="61.2632361147" lon="11.8721222156">
		<tag k="name" v="Heksvollkoia" />
		<tag k="place" v="isolated_dwelling" />
		<tag k="ssr:stedsnr" v="770480" />
	</node>
	<node id="-303803" lat="61.1650305589" lon="11.3880638848">
		<tag k="name" v="Kattuglbua" />
		<tag k="place" v="locality" />
		<tag k="ssr:stedsnr" v="769623" />
	</node>
	<node id="-303801" lat="61.0968722243" lon="11.3814944425">
		<tag k="name" v="Bolstadstua" />
		<tag k="place" v="isolated_dwelling" />
		<tag k="ssr:stedsnr" v="769343" />
	</node>
	<node id="-303795" lat="61.1383583332" lon="11.309544443">
		<tag k="name" v="Oppstu Skramstad" />
		<tag k="place" v="isolated_dwelling" />
		<tag k="ssr:stedsnr" v="767001" />
	</node>
	<node id="-303794" lat="61.1320805569" lon="11.3850555528">
		<tag k="name" v="Ilsåslia" />
		<tag k="place" v="quarter" />
		<tag k="ssr:stedsnr" v="750972" />
	</node>
	<node id="-303793" lat="61.1395888875" lon="11.3861055495">
		<tag k="name" v="Kildemarka" />
		<tag k="place" v="quarter" />
		<tag k="ssr:stedsnr" v="750969" />
	</node>
	<node id="-303789" lat="61.3571000027" lon="11.8548250077">
		<tag k="alt_name" v="Gammelsætra" />
		<tag k="historic" v="shieling" />
		<tag k="name" v="Gamlesætra" />
		<tag k="place" v="locality" />
		<tag k="ssr:stedsnr" v="737566" />
	</node>
	<node id="-303786" lat="61.2497701417" lon="11.7450418066">
		<tag k="alt_name" v="Valmsnes" />
		<tag k="fixme" v="consider place=hamlet" />
		<tag k="name" v="Valmsneset" />
		<tag k="place" v="farm" />
		<tag k="ssr:stedsnr" v="736814" />
	</node>
	<node id="-303785" lat="61.26527778" lon="11.5063916671">
		<tag k="name" v="Svensberget" />
		<tag k="place" v="farm" />
		<tag k="ssr:stedsnr" v="736783" />
	</node>
	<node id="-303780" lat="61.2123305539" lon="11.3295027831">
		<tag k="name" v="Hovdbrua" />
		<tag k="place" v="isolated_dwelling" />
		<tag k="ssr:stedsnr" v="648807" />
	</node>
	<node id="-303779" lat="61.3583944449" lon="11.6136555582">
		<tag k="historic" v="shieling" />
		<tag k="name" v="Osen fellessæter" />
		<tag k="place" v="locality" />
		<tag k="ssr:stedsnr" v="648969" />
	</node>
	<node id="-303775" lat="61.085255558" lon="11.3986916759">
		<tag k="name" v="Østby" />
		<tag k="place" v="locality" />
		<tag k="ssr:stedsnr" v="648377" />
	</node>
	<node id="-303774" lat="61.0818027818" lon="11.3765666697">
		<tag k="name" v="Nordre Glomstad" />
		<tag k="place" v="farm" />
		<tag k="ssr:stedsnr" v="648374" />
	</node>
	<node id="-303773" lat="61.0895722226" lon="11.3844944488">
		<tag k="name" v="Nysvea" />
		<tag k="place" v="isolated_dwelling" />
		<tag k="ssr:stedsnr" v="648361" />
	</node>
	<node id="-303769" lat="61.0568861089" lon="11.4288222162">
		<tag k="name" v="Gammelstubua" />
		<tag k="place" v="isolated_dwelling" />
		<tag k="ssr:stedsnr" v="647239" />
	</node>
	<node id="-303768" lat="61.2795833297" lon="11.6849777804">
		<tag k="name" v="Tømmerhaugkoia" />
		<tag k="place" v="locality" />
		<tag k="ssr:stedsnr" v="647043" />
	</node>
	<node id="-303766" lat="61.1023972255" lon="11.2763666672">
		<tag k="name" v="Søndre Vivelstadsvea" />
		<tag k="place" v="farm" />
		<tag k="ssr:stedsnr" v="646016" />
	</node>
	<node id="-303765" lat="61.1388500012" lon="11.3044027829">
		<tag k="name" v="Haugen" />
		<tag k="place" v="farm" />
		<tag k="ssr:stedsnr" v="646005" />
	</node>
	<node id="-303763" lat="61.3391083294" lon="11.8638805592">
		<tag k="name" v="Nysætra" />
		<tag k="place" v="farm" />
		<tag k="ssr:stedsnr" v="615571" />
	</node>
	<node id="-303758" lat="61.3304916707" lon="11.6534611051">
		<tag k="name" v="Slemsrud" />
		<tag k="place" v="isolated_dwelling" />
		<tag k="ssr:stedsnr" v="614861" />
	</node>
	<node id="-303755" lat="61.1880805564" lon="11.6364638811">
		<tag k="historic" v="shieling" />
		<tag k="name" v="Ulvåsætra" />
		<tag k="place" v="locality" />
		<tag k="ssr:stedsnr" v="614340" />
	</node>
	<node id="-303752" lat="61.2522083292" lon="11.4591944381">
		<tag k="alt_name" v="Rødsåsen, midtre;Mellom Rødsåsen;Rødsåsen" />
		<tag k="name" v="Midtre Rødsåsen" />
		<tag k="place" v="farm" />
		<tag k="ssr:stedsnr" v="614199" />
	</node>
	<node id="-303750" lat="61.3776666658" lon="11.7825499992">
		<tag k="alt_name" v="Sandbekkbua" />
		<tag k="name" v="Sandbakken" />
		<tag k="place" v="isolated_dwelling" />
		<tag k="ssr:stedsnr" v="614144" />
	</node>
	<node id="-303748" lat="61.4096222202" lon="11.6329361125">
		<tag k="name" v="Elleverbua" />
		<tag k="place" v="isolated_dwelling" />
		<tag k="ssr:stedsnr" v="614135" />
	</node>
	<node id="-303746" lat="61.124375001" lon="11.5755027782">
		<tag k="name" v="Hanstad" />
		<tag k="place" v="farm" />
		<tag k="ssr:stedsnr" v="614125" />
	</node>
	<node id="-303744" lat="61.4282277755" lon="11.707502785">
		<tag k="name" v="Osheim" />
		<tag k="place" v="farm" />
		<tag k="ssr:stedsnr" v="614187" />
	</node>
	<node id="-303742" lat="61.4475388858" lon="11.6661166624">
		<tag k="name" v="Åtterkoia" />
		<tag k="place" v="isolated_dwelling" />
		<tag k="ssr:stedsnr" v="614164" />
	</node>
	<node id="-303740" lat="61.4383250024" lon="11.4520861046">
		<tag k="alt_name" v="Storåsen, Nørdre" />
		<tag k="historic" v="shieling" />
		<tag k="name" v="Nordre Storåsen" />
		<tag k="old_name" v="Nørdre Storåsen" />
		<tag k="place" v="locality" />
		<tag k="ssr:stedsnr" v="614068" />
	</node>
	<node id="-303738" lat="61.0743250037" lon="11.2526444418">
		<tag k="name" v="Tverrteigbua" />
		<tag k="place" v="isolated_dwelling" />
		<tag k="ssr:stedsnr" v="613506" />
	</node>
	<node id="-303737" lat="61.0933999995" lon="11.2866527769">
		<tag k="name" v="Endøra" />
		<tag k="place" v="isolated_dwelling" />
		<tag k="ssr:stedsnr" v="613493" />
	</node>
	<node id="-303736" lat="61.0936277792" lon="11.212055562">
		<tag k="name" v="Åstvollen" />
		<tag k="place" v="isolated_dwelling" />
		<tag k="ssr:stedsnr" v="613489" />
	</node>
	<node id="-303735" lat="61.1118768689" lon="11.3806327743">
		<tag k="fixme" v="consider place=hamlet" />
		<tag k="name" v="Mørstad" />
		<tag k="place" v="farm" />
		<tag k="ssr:stedsnr" v="613476" />
	</node>
	<node id="-303734" lat="61.1134638932" lon="11.461858331">
		<tag k="historic" v="shieling" />
		<tag k="name" v="Nabbsetåsen" />
		<tag k="place" v="locality" />
		<tag k="ssr:stedsnr" v="613467" />
	</node>
	<node id="-303733" lat="61.1273784829" lon="11.3863364771">
		<tag k="name" v="Ilsås" />
		<tag k="place" v="hamlet" />
		<tag k="ssr:stedsnr" v="613457" />
	</node>
	<node id="-303732" lat="61.1322194483" lon="11.3715638839">
		<tag k="name" v="Rena" />
		<tag k="place" v="village" />
		<tag k="ssr:stedsnr" v="613450" />
	</node>
	<node id="-303730" lat="61.1572958182" lon="11.3580959314">
		<tag k="fixme" v="consider place=hamlet" />
		<tag k="name" v="Sorknes" />
		<tag k="place" v="farm" />
		<tag k="ssr:stedsnr" v="613440" />
	</node>
	<node id="-303729" lat="61.1651249982" lon="11.3712444474">
		<tag k="name" v="Kåsmoen" />
		<tag k="place" v="hamlet" />
		<tag k="ssr:stedsnr" v="613435" />
	</node>
	<node id="-303727" lat="61.2168750024" lon="11.343663888">
		<tag k="name" v="Hammaren" />
		<tag k="place" v="isolated_dwelling" />
		<tag k="ssr:stedsnr" v="613400" />
	</node>
	<node id="-303726" lat="61.0343888875" lon="11.3371611152">
		<tag k="alt_name" v="Dambua, øvre;Øvre Dammen" />
		<tag k="name" v="Øvre Dambua" />
		<tag k="place" v="isolated_dwelling" />
		<tag k="ssr:stedsnr" v="613269" />
	</node>
	<node id="-303724" lat="61.0722083376" lon="11.4435583323">
		<tag k="name" v="Sandbakkoia" />
		<tag k="place" v="isolated_dwelling" />
		<tag k="ssr:stedsnr" v="613261" />
	</node>
	<node id="-303723" lat="61.0716166699" lon="11.4673055576">
		<tag k="alt_name" v="Kråksætra, nedre" />
		<tag k="historic" v="shieling" />
		<tag k="name" v="Nedre Kråksætra" />
		<tag k="place" v="locality" />
		<tag k="ssr:stedsnr" v="613260" />
	</node>
	<node id="-303722" lat="61.0663538247" lon="11.347855416">
		<tag k="fixme" v="consider place=hamlet" />
		<tag k="name" v="Nygarden" />
		<tag k="place" v="farm" />
		<tag k="ssr:stedsnr" v="613255" />
	</node>
	<node id="-303719" lat="61.124358336" lon="11.5159611036">
		<tag k="name" v="Damkoia" />
		<tag k="place" v="locality" />
		<tag k="ssr:stedsnr" v="605896" />
	</node>
	<node id="-303697" lat="61.3275833348" lon="11.4218388941">
		<tag k="name" v="Strømstad" />
		<tag k="place" v="isolated_dwelling" />
		<tag k="ssr:stedsnr" v="601513" />
	</node>
	<node id="-303695" lat="61.0661944452" lon="11.3485194537">
		<tag k="name" v="Nygarden" />
		<tag k="place" v="isolated_dwelling" />
		<tag k="ssr:stedsnr" v="601133" />
	</node>
	<node id="-303693" lat="61.3014500013" lon="11.4641555626">
		<tag k="name" v="Fredheim" />
		<tag k="place" v="isolated_dwelling" />
		<tag k="ssr:stedsnr" v="600499" />
	</node>
	<node id="-303684" lat="61.0827333346" lon="11.3728666757">
		<tag k="name" v="Østre Åbu skolejord" />
		<tag k="place" v="quarter" />
		<tag k="ssr:stedsnr" v="587372" />
	</node>
	<node id="-303683" lat="61.0742944436" lon="11.3755250087">
		<tag k="name" v="Haugen" />
		<tag k="place" v="isolated_dwelling" />
		<tag k="ssr:stedsnr" v="587356" />
	</node>
	<node id="-303682" lat="61.3082034988" lon="11.7228291875">
		<tag k="fixme" v="consider place=hamlet" />
		<tag k="name" v="Søndre Osvoll" />
		<tag k="place" v="farm" />
		<tag k="ssr:stedsnr" v="587047" />
	</node>
	<node id="-303680" lat="61.0516564788" lon="11.3655974286">
		<tag k="fixme" v="consider place=hamlet" />
		<tag k="name" v="Hummelneset" />
		<tag k="place" v="farm" />
		<tag k="ssr:stedsnr" v="586214" />
	</node>
	<node id="-303679" lat="61.057930553" lon="11.412405556">
		<tag k="name" v="Holsetbua" />
		<tag k="place" v="isolated_dwelling" />
		<tag k="ssr:stedsnr" v="586209" />
	</node>
	<node id="-303678" lat="61.074058331" lon="11.345822225">
		<tag k="name" v="Løkkebakken" />
		<tag k="place" v="isolated_dwelling" />
		<tag k="ssr:stedsnr" v="586375" />
	</node>
	<node id="-303677" lat="61.0458305517" lon="11.3826944523">
		<tag k="name" v="Glomvoll" />
		<tag k="place" v="farm" />
		<tag k="ssr:stedsnr" v="586202" />
	</node>
	<node id="-303676" lat="61.0292027811" lon="11.4142222225">
		<tag k="name" v="Skjelmokoia" />
		<tag k="place" v="locality" />
		<tag k="ssr:stedsnr" v="586196" />
	</node>
	<node id="-303671" lat="61.3208916662" lon="11.804119446">
		<tag k="name" v="Nordre Stener" />
		<tag k="place" v="farm" />
		<tag k="ssr:stedsnr" v="585388" />
	</node>
	<node id="-303670" lat="61.1389055516" lon="11.2998944459">
		<tag k="name" v="Lushattlykkja" />
		<tag k="place" v="isolated_dwelling" />
		<tag k="ssr:stedsnr" v="585009" />
	</node>
	<node id="-303666" lat="61.0992666635" lon="11.3357166624">
		<tag k="name" v="Dambua" />
		<tag k="place" v="isolated_dwelling" />
		<tag k="ssr:stedsnr" v="566159" />
	</node>
	<node id="-303665" lat="61.190366664" lon="11.445347222">
		<tag k="name" v="Nordre Risskogkoia" />
		<tag k="place" v="isolated_dwelling" />
		<tag k="ssr:stedsnr" v="566158" />
	</node>
	<node id="-303664" lat="61.1797249984" lon="11.4430777765">
		<tag k="name" v="Søndre Risskogkoia" />
		<tag k="place" v="isolated_dwelling" />
		<tag k="ssr:stedsnr" v="566157" />
	</node>
	<node id="-303662" lat="61.3026694456" lon="11.4528194365">
		<tag k="name" v="Moen" />
		<tag k="place" v="farm" />
		<tag k="ssr:stedsnr" v="554250" />
	</node>
	<node id="-303659" lat="61.2536750023" lon="11.3313250053">
		<tag k="name" v="Vikenga" />
		<tag k="place" v="farm" />
		<tag k="ssr:stedsnr" v="554211" />
	</node>
	<node id="-303658" lat="61.4404888908" lon="11.5293361033">
		<tag k="name" v="Pottbekkoia" />
		<tag k="place" v="locality" />
		<tag k="ssr:stedsnr" v="554174" />
	</node>
	<node id="-303656" lat="61.3936972215" lon="11.3678194413">
		<tag k="alt_name" v="Løset, Nørdre;Nordre Løsset" />
		<tag k="name" v="Nordre Løset" />
		<tag k="old_name" v="Nørdre Løset" />
		<tag k="place" v="farm" />
		<tag k="ssr:stedsnr" v="554030" />
	</node>
	<node id="-303655" lat="61.3926555549" lon="11.3545888932">
		<tag k="alt_name" v="Næverdalen" />
		<tag k="name" v="Neverdalen" />
		<tag k="place" v="isolated_dwelling" />
		<tag k="ssr:stedsnr" v="554027" />
	</node>
	<node id="-303654" lat="61.3180250027" lon="11.5368500056">
		<tag k="alt_name" v="Søgården Østsætra" />
		<tag k="historic" v="shieling" />
		<tag k="name" v="Sørgardsvollen" />
		<tag k="place" v="locality" />
		<tag k="ssr:stedsnr" v="553883" />
	</node>
	<node id="-303651" lat="61.3601277736" lon="11.6925555591">
		<tag k="alt_name" v="Hellemyrkoia" />
		<tag k="name" v="Helmyrkoia" />
		<tag k="place" v="isolated_dwelling" />
		<tag k="ssr:stedsnr" v="553837" />
	</node>
	<node id="-303647" lat="61.3128750033" lon="11.8349083304">
		<tag k="name" v="Riset" />
		<tag k="place" v="locality" />
		<tag k="ssr:stedsnr" v="553852" />
	</node>
	<node id="-303646" lat="61.1039666682" lon="11.2500638976">
		<tag k="alt_name" v="Fossbekkoia, øvre" />
		<tag k="name" v="Øvre Fossbekkoia" />
		<tag k="place" v="isolated_dwelling" />
		<tag k="ssr:stedsnr" v="553457" />
	</node>
	<node id="-303644" lat="61.0639111151" lon="11.3376777747">
		<tag k="name" v="Nyberget" />
		<tag k="place" v="farm" />
		<tag k="ssr:stedsnr" v="553250" />
	</node>
	<node id="-303643" lat="61.051663887" lon="11.3767249999">
		<tag k="name" v="Vålstua" />
		<tag k="place" v="farm" />
		<tag k="ssr:stedsnr" v="553241" />
	</node>
	<node id="-303641" lat="61.1924194402" lon="11.5636416578">
		<tag k="name" v="Sjølykkja" />
		<tag k="place" v="farm" />
		<tag k="ssr:stedsnr" v="553334" />
	</node>
	<node id="-303640" lat="61.2472361126" lon="11.7012749916">
		<tag k="name" v="Halvmilstykket" />
		<tag k="place" v="farm" />
		<tag k="ssr:stedsnr" v="553296" />
	</node>
	<node id="-303639" lat="61.241341671" lon="11.8163055552">
		<tag k="name" v="Sørlistøa" />
		<tag k="place" v="isolated_dwelling" />
		<tag k="ssr:stedsnr" v="553294" />
	</node>
	<node id="-303638" lat="61.2384527771" lon="11.7748222293">
		<tag k="name" v="Valmen" />
		<tag k="place" v="farm" />
		<tag k="ssr:stedsnr" v="553286" />
	</node>
	<node id="-303637" lat="61.0509277769" lon="11.4418166581">
		<tag k="name" v="Øvre Smalteigbua" />
		<tag k="place" v="locality" />
		<tag k="ssr:stedsnr" v="553262" />
	</node>
	<node id="-303636" lat="61.0418583369" lon="11.3834777795">
		<tag k="name" v="Enga" />
		<tag k="place" v="locality" />
		<tag k="ssr:stedsnr" v="553260" />
	</node>
	<node id="-303632" lat="61.1519249983" lon="11.4274749924">
		<tag k="name" v="Skredderstua" />
		<tag k="place" v="farm" />
		<tag k="ssr:stedsnr" v="552492" />
	</node>
	<node id="-303631" lat="61.1431305596" lon="11.3246666695">
		<tag k="name" v="Rostadmoen" />
		<tag k="place" v="hamlet" />
		<tag k="ssr:stedsnr" v="552484" />
	</node>
	<node id="-303630" lat="61.1666777751" lon="11.2635444386">
		<tag k="alt_name" v="Tingstad-Bergesæter" />
		<tag k="historic" v="shieling" />
		<tag k="name" v="Bergesætra" />
		<tag k="place" v="locality" />
		<tag k="ssr:stedsnr" v="552481" />
	</node>
	<node id="-303626" lat="61.1911944438" lon="11.1474583325">
		<tag k="name" v="Bjørnbergsbua" />
		<tag k="place" v="isolated_dwelling" />
		<tag k="ssr:stedsnr" v="552452" />
	</node>
	<node id="-303622" lat="61.062224996" lon="11.4868305609">
		<tag k="name" v="Nierbua" />
		<tag k="place" v="locality" />
		<tag k="ssr:stedsnr" v="544833" />
	</node>
	<node id="-303621" lat="61.073611108" lon="11.5195999956">
		<tag k="name" v="Pedersenkoia" />
		<tag k="place" v="locality" />
		<tag k="ssr:stedsnr" v="544832" />
	</node>
	<node id="-303619" lat="61.1166361134" lon="11.5894694529">
		<tag k="name" v="Granheim" />
		<tag k="place" v="isolated_dwelling" />
		<tag k="ssr:stedsnr" v="544642" />
	</node>
	<node id="-303605" lat="61.2535499977" lon="11.6110333374">
		<tag k="name" v="Nierbua" />
		<tag k="place" v="isolated_dwelling" />
		<tag k="ssr:stedsnr" v="540777" />
	</node>
	<node id="-303603" lat="61.3983305585" lon="11.406630552">
		<tag k="name" v="Kampdalsbua" />
		<tag k="place" v="locality" />
		<tag k="ssr:stedsnr" v="540540" />
	</node>
	<node id="-303602" lat="61.3079666677" lon="11.4668083269">
		<tag k="name" v="Søndre Lemberget" />
		<tag k="place" v="farm" />
		<tag k="ssr:stedsnr" v="540534" />
	</node>
	<node id="-303601" lat="61.3254083329" lon="11.3903805614">
		<tag k="name" v="Nedre Treerkoia" />
		<tag k="place" v="isolated_dwelling" />
		<tag k="ssr:stedsnr" v="540533" />
	</node>
	<node id="-303600" lat="61.3316694404" lon="11.4212555511">
		<tag k="name" v="Nyheim" />
		<tag k="place" v="isolated_dwelling" />
		<tag k="ssr:stedsnr" v="540530" />
	</node>
	<node id="-303599" lat="61.3061833313" lon="11.4484416711">
		<tag k="amenity" v="nursing_home" />
		<tag k="name" v="Deset aldershjem" />
		<tag k="ssr:stedsnr" v="540519" />
	</node>
	<node id="-303597" lat="61.153466664" lon="11.3413166703">
		<tag k="name" v="Skogly" />
		<tag k="place" v="farm" />
		<tag k="ssr:stedsnr" v="540378" />
	</node>
	<node id="-303596" lat="61.1506444414" lon="11.3424305533">
		<tag k="name" v="Arnestad" />
		<tag k="place" v="farm" />
		<tag k="ssr:stedsnr" v="540375" />
	</node>
	<node id="-303595" lat="61.1462611132" lon="11.3335249912">
		<tag k="name" v="Nordre Tingstad" />
		<tag k="place" v="farm" />
		<tag k="ssr:stedsnr" v="540367" />
	</node>
	<node id="-303594" lat="61.1390194439" lon="11.3848055496">
		<tag k="name" v="Støa" />
		<tag k="place" v="isolated_dwelling" />
		<tag k="ssr:stedsnr" v="540360" />
	</node>
	<node id="-303593" lat="61.406144446" lon="11.6312611029">
		<tag k="name" v="Nierbua" />
		<tag k="place" v="isolated_dwelling" />
		<tag k="ssr:stedsnr" v="527901" />
	</node>
	<node id="-303589" lat="61.0874083341" lon="11.3825583279">
		<tag k="name" v="Kautokeino" />
		<tag k="place" v="isolated_dwelling" />
		<tag k="ssr:stedsnr" v="527339" />
	</node>
	<node id="-303588" lat="61.3081416671" lon="11.767102779">
		<tag k="name" v="Mellum" />
		<tag k="old_name" v="Nes" />
		<tag k="place" v="farm" />
		<tag k="ssr:stedsnr" v="527053" />
	</node>
	<node id="-303585" lat="61.3302833348" lon="11.7982249995">
		<tag k="name" v="Søgård" />
		<tag k="place" v="isolated_dwelling" />
		<tag k="ssr:stedsnr" v="525441" />
	</node>
	<node id="-303581" lat="61.1355027814" lon="11.2678138908">
		<tag k="name" v="Høystad" />
		<tag k="place" v="farm" />
		<tag k="ssr:stedsnr" v="525254" />
	</node>
	<node id="-303578" lat="61.2157472266" lon="11.6179138897">
		<tag k="name" v="Kjølstad" />
		<tag k="place" v="farm" />
		<tag k="ssr:stedsnr" v="433323" />
	</node>
	<node id="-303574" lat="61.4169694481" lon="11.5459861188">
		<tag k="alt_name" v="Luvdalsætra" />
		<tag k="historic" v="shieling" />
		<tag k="name" v="Luvdalssætra" />
		<tag k="place" v="locality" />
		<tag k="ssr:stedsnr" v="433179" />
	</node>
	<node id="-303573" lat="61.4131083317" lon="11.7378138975">
		<tag k="alt_name" v="Tjennmoen" />
		<tag k="name" v="Tjernmoen" />
		<tag k="place" v="farm" />
		<tag k="ssr:stedsnr" v="433176" />
	</node>
	<node id="-303572" lat="61.1147111068" lon="11.5946305591">
		<tag k="name" v="Nysvea" />
		<tag k="place" v="farm" />
		<tag k="ssr:stedsnr" v="433175" />
	</node>
	<node id="-303571" lat="61.4435222264" lon="11.7423416711">
		<tag k="name" v="Damkoia" />
		<tag k="place" v="locality" />
		<tag k="ssr:stedsnr" v="433163" />
	</node>
	<node id="-303570" lat="61.361102782" lon="11.3625083381">
		<tag k="name" v="Lia" />
		<tag k="place" v="isolated_dwelling" />
		<tag k="ssr:stedsnr" v="433068" />
	</node>
	<node id="-303569" lat="61.2589583321" lon="11.7403249957">
		<tag k="name" v="Rudstad" />
		<tag k="place" v="farm" />
		<tag k="ssr:stedsnr" v="432791" />
	</node>
	<node id="-303568" lat="61.2551472187" lon="11.7179194479">
		<tag k="name" v="Bekkevoll" />
		<tag k="place" v="farm" />
		<tag k="ssr:stedsnr" v="432789" />
	</node>
	<node id="-303566" lat="61.3162305595" lon="11.6031305481">
		<tag k="name" v="Firerbua" />
		<tag k="place" v="isolated_dwelling" />
		<tag k="ssr:stedsnr" v="432871" />
	</node>
	<node id="-303564" lat="61.3029027747" lon="11.6201555575">
		<tag k="alt_name" v="Fjellslia Sæter" />
		<tag k="historic" v="shieling" />
		<tag k="name" v="Fjellslia" />
		<tag k="place" v="locality" />
		<tag k="ssr:stedsnr" v="432853" />
	</node>
	<node id="-303563" lat="61.3092416703" lon="11.7452611143">
		<tag k="alt_name" v="Nysted" />
		<tag k="name" v="Nystu" />
		<tag k="place" v="farm" />
		<tag k="ssr:stedsnr" v="432843" />
	</node>
	<node id="-303561" lat="61.355388782" lon="11.7786281014">
		<tag k="fixme" v="consider place=hamlet" />
		<tag k="name" v="Nordholm" />
		<tag k="place" v="farm" />
		<tag k="ssr:stedsnr" v="432832" />
	</node>
	<node id="-303558" lat="61.0992406849" lon="11.3778001026">
		<tag k="alt_name" v="Østre Bolstad" />
		<tag k="fixme" v="consider place=hamlet" />
		<tag k="name" v="Bolstad" />
		<tag k="place" v="farm" />
		<tag k="ssr:stedsnr" v="432451" />
	</node>
	<node id="-303556" lat="61.1101055568" lon="11.4507083387">
		<tag k="name" v="Lakarud" />
		<tag k="place" v="isolated_dwelling" />
		<tag k="ssr:stedsnr" v="432448" />
	</node>
	<node id="-303555" lat="61.1154583354" lon="11.3320194439">
		<tag k="name" v="Slåttmyra" />
		<tag k="place" v="farm" />
		<tag k="ssr:stedsnr" v="432442" />
	</node>
	<node id="-303553" lat="61.2790730562" lon="11.7532434678">
		<tag k="alt_name" v="Gåsvika" />
		<tag k="fixme" v="consider place=hamlet" />
		<tag k="name" v="Gørrvika" />
		<tag k="place" v="farm" />
		<tag k="ssr:stedsnr" v="432763" />
	</node>
	<node id="-303550" lat="61.1766611134" lon="11.3483111045">
		<tag k="name" v="Rusten" />
		<tag k="place" v="farm" />
		<tag k="ssr:stedsnr" v="432396" />
	</node>
	<node id="-303549" lat="61.1992055515" lon="11.4045749909">
		<tag k="name" v="Løytnantbua" />
		<tag k="place" v="isolated_dwelling" />
		<tag k="ssr:stedsnr" v="432390" />
	</node>
	<node id="-303547" lat="61.3779000028" lon="11.7649888854">
		<tag k="name" v="Andråstua" />
		<tag k="place" v="locality" />
		<tag k="ssr:stedsnr" v="432146" />
	</node>
	<node id="-303544" lat="61.2392916626" lon="11.4789499944">
		<tag k="name" v="Flaten" />
		<tag k="place" v="farm" />
		<tag k="ssr:stedsnr" v="432287" />
	</node>
	<node id="-303543" lat="61.2421083309" lon="11.8035916658">
		<tag k="fixme" v="multiple name tags, choose one and add the other to alt_name" />
		<tag k="name" v="Berget;Fallet" />
		<tag k="place" v="farm" />
		<tag k="ssr:stedsnr" v="432275" />
	</node>
	<node id="-303533" lat="61.2409777754" lon="11.7140249973">
		<tag k="name" v="Majorstua" />
		<tag k="place" v="isolated_dwelling" />
		<tag k="ssr:stedsnr" v="422923" />
	</node>
	<node id="-303528" lat="61.2430805541" lon="11.7641194512">
		<tag k="name" v="Nor" />
		<tag k="place" v="isolated_dwelling" />
		<tag k="ssr:stedsnr" v="421499" />
	</node>
	<node id="-303526" lat="61.1480222184" lon="11.3561194506">
		<tag k="name" v="Østby" />
		<tag k="place" v="farm" />
		<tag k="ssr:stedsnr" v="419387" />
	</node>
	<node id="-303524" lat="61.243902778" lon="11.4759027731">
		<tag k="loc_name" v="Harptjennsberget" />
		<tag k="name" v="Harptjernsberget" />
		<tag k="place" v="farm" />
		<tag k="ssr:stedsnr" v="414158" />
	</node>
	<node id="-303519" lat="61.2957861122" lon="11.378575005">
		<tag k="name" v="Sekserbua" />
		<tag k="place" v="isolated_dwelling" />
		<tag k="ssr:stedsnr" v="406599" />
	</node>
	<node id="-303516" lat="61.2193000019" lon="11.3482111087">
		<tag k="name" v="Perstu" />
		<tag k="place" v="isolated_dwelling" />
		<tag k="ssr:stedsnr" v="405847" />
	</node>
	<node id="-303514" lat="61.1667888915" lon="11.3673666695">
		<tag k="name" v="Almesvea" />
		<tag k="place" v="farm" />
		<tag k="ssr:stedsnr" v="405638" />
	</node>
	<node id="-303512" lat="61.3205277799" lon="11.8350277694">
		<tag k="name" v="Musfritt" />
		<tag k="place" v="isolated_dwelling" />
		<tag k="ssr:stedsnr" v="404428" />
	</node>
	<node id="-303510" lat="61.167375001" lon="11.3437055545">
		<tag k="name" v="Norlandia Østerdalen" />
		<tag k="ssr:stedsnr" v="386972" />
		<tag k="tourism" v="hotel" />
	</node>
	<node id="-303508" lat="61.1519777821" lon="11.357805556">
		<tag k="name" v="Lappland" />
		<tag k="place" v="quarter" />
		<tag k="ssr:stedsnr" v="384161" />
	</node>
	<node id="-303507" lat="61.2538916668" lon="11.5526333341">
		<tag k="name" v="Dønnbua" />
		<tag k="place" v="isolated_dwelling" />
		<tag k="ssr:stedsnr" v="372830" />
	</node>
	<node id="-303506" lat="61.2934305599" lon="11.8885055626">
		<tag k="name" v="Nybua" />
		<tag k="place" v="locality" />
		<tag k="ssr:stedsnr" v="372636" />
	</node>
	<node id="-303505" lat="61.3033514422" lon="11.844726899">
		<tag k="fixme" v="consider place=hamlet" />
		<tag k="name" v="Enåsen" />
		<tag k="place" v="farm" />
		<tag k="ssr:stedsnr" v="372624" />
	</node>
	<node id="-303502" lat="61.4929916654" lon="11.734119452">
		<tag k="name" v="Raudfjellkoia" />
		<tag k="place" v="isolated_dwelling" />
		<tag k="ssr:stedsnr" v="372198" />
	</node>
	<node id="-303501" lat="61.1159361129" lon="11.6050527731">
		<tag k="alt_name" v="Nedre Øverby" />
		<tag k="name" v="Øverby" />
		<tag k="place" v="farm" />
		<tag k="ssr:stedsnr" v="372185" />
	</node>
	<node id="-303500" lat="61.116834512" lon="11.5253455446">
		<tag k="name" v="Nabbsetbrua" />
		<tag k="place" v="farm" />
		<tag k="ssr:stedsnr" v="372182" />
	</node>
	<node id="-303499" lat="61.4020333299" lon="11.3594638959">
		<tag k="name" v="Velta" />
		<tag k="place" v="isolated_dwelling" />
		<tag k="ssr:stedsnr" v="372097" />
	</node>
	<node id="-303497" lat="61.2614805539" lon="11.3537249986">
		<tag k="name" v="Myrvang" />
		<tag k="place" v="isolated_dwelling" />
		<tag k="ssr:stedsnr" v="372243" />
	</node>
	<node id="-303494" lat="61.2905695858" lon="11.8107469771">
		<tag k="fixme" v="consider place=hamlet" />
		<tag k="name" v="Tverrenmoen" />
		<tag k="place" v="farm" />
		<tag k="ssr:stedsnr" v="371781" />
	</node>
	<node id="-303493" lat="61.2910638864" lon="11.81395">
		<tag k="alt_name" v="Osvik, søre;Søndre Osvik" />
		<tag k="name" v="Søre Osvik" />
		<tag k="place" v="farm" />
		<tag k="ssr:stedsnr" v="371779" />
	</node>
	<node id="-303491" lat="61.3152777798" lon="11.4693916664">
		<tag k="name" v="Svea" />
		<tag k="place" v="farm" />
		<tag k="ssr:stedsnr" v="371846" />
	</node>
	<node id="-303489" lat="61.3511749975" lon="11.784475007">
		<tag k="name" v="Nymoen" />
		<tag k="place" v="farm" />
		<tag k="ssr:stedsnr" v="371832" />
	</node>
	<node id="-303484" lat="61.1720944406" lon="11.1107500005">
		<tag k="name" v="Dambua" />
		<tag k="place" v="isolated_dwelling" />
		<tag k="ssr:stedsnr" v="371397" />
	</node>
	<node id="-303483" lat="61.201038891" lon="11.2366388904">
		<tag k="alt_name" v="Arnstadbua" />
		<tag k="name" v="Arnestadbua" />
		<tag k="place" v="isolated_dwelling" />
		<tag k="ssr:stedsnr" v="371389" />
	</node>
	<node id="-303481" lat="61.1199111091" lon="11.3644166731">
		<tag k="name" v="Brufallet" />
		<tag k="place" v="farm" />
		<tag k="ssr:stedsnr" v="371435" />
	</node>
	<node id="-303479" lat="61.1408861107" lon="11.284980561">
		<tag k="name" v="Rusta" />
		<tag k="old_name" v="Skramstadberget" />
		<tag k="place" v="farm" />
		<tag k="ssr:stedsnr" v="371423" />
	</node>
	<node id="-303478" lat="61.1379222236" lon="11.1961722259">
		<tag k="alt_name" v="Skramstadseter fjellstue" />
		<tag k="name" v="Skramstadsætra" />
		<tag k="ssr:stedsnr" v="371422" />
		<tag k="tourism" v="hotel" />
	</node>
	<node id="-303475" lat="61.0330361146" lon="11.2921750051">
		<tag k="name" v="Elgbua" />
		<tag k="place" v="isolated_dwelling" />
		<tag k="ssr:stedsnr" v="371251" />
	</node>
	<node id="-303474" lat="61.06596294" lon="11.3769148671">
		<tag k="fixme" v="consider place=hamlet" />
		<tag k="name" v="Mora" />
		<tag k="place" v="farm" />
		<tag k="ssr:stedsnr" v="371245" />
	</node>
	<node id="-303473" lat="61.0571820346" lon="11.3537202729">
		<tag k="fixme" v="consider place=hamlet" />
		<tag k="name" v="Bjørnstad" />
		<tag k="place" v="farm" />
		<tag k="ssr:stedsnr" v="371240" />
	</node>
	<node id="-303472" lat="61.2458333371" lon="11.4901500088">
		<tag k="name" v="Rødsbru" />
		<tag k="place" v="farm" />
		<tag k="ssr:stedsnr" v="371294" />
	</node>
	<node id="-303471" lat="61.2399916664" lon="11.7691027837">
		<tag k="name" v="Norderhaug" />
		<tag k="place" v="farm" />
		<tag k="ssr:stedsnr" v="371282" />
	</node>
	<node id="-303467" lat="61.1169638847" lon="11.5763444441">
		<tag k="name" v="Kulusmokoia" />
		<tag k="place" v="isolated_dwelling" />
		<tag k="ssr:stedsnr" v="362644" />
	</node>
	<node id="-303456" lat="61.4835083295" lon="11.698105548">
		<tag k="name" v="Storåsen" />
		<tag k="place" v="neighbourhood" />
		<tag k="ssr:stedsnr" v="359138" />
	</node>
	<node id="-303455" lat="61.4112444464" lon="11.3550805474">
		<tag k="name" v="Furumo" />
		<tag k="place" v="isolated_dwelling" />
		<tag k="ssr:stedsnr" v="358721" />
	</node>
	<node id="-303453" lat="61.1433472251" lon="11.324780547">
		<tag k="name" v="Kvislen" />
		<tag k="place" v="isolated_dwelling" />
		<tag k="ssr:stedsnr" v="358368" />
	</node>
	<node id="-303452" lat="61.1418777799" lon="11.3651111068">
		<tag k="amenity" v="school" />
		<tag k="name" v="Rena skole" />
		<tag k="ssr:stedsnr" v="358367" />
	</node>
	<node id="-303448" lat="61.0879499966" lon="11.3967111145">
		<tag k="name" v="Skarpsno" />
		<tag k="place" v="isolated_dwelling" />
		<tag k="ssr:stedsnr" v="344370" />
	</node>
	<node id="-303447" lat="61.0860944446" lon="11.3906472179">
		<tag k="name" v="Holsethaugen" />
		<tag k="place" v="isolated_dwelling" />
		<tag k="ssr:stedsnr" v="344367" />
	</node>
	<node id="-303445" lat="61.1494777772" lon="11.2474055558">
		<tag k="name" v="Grimsbua" />
		<tag k="place" v="isolated_dwelling" />
		<tag k="ssr:stedsnr" v="343234" />
	</node>
	<node id="-303441" lat="61.1164527788" lon="11.2848666609">
		<tag k="name" v="Bergsetstua" />
		<tag k="place" v="isolated_dwelling" />
		<tag k="ssr:stedsnr" v="343013" />
	</node>
	<node id="-303439" lat="61.13735" lon="11.2903249924">
		<tag k="name" v="Nerheim" />
		<tag k="place" v="farm" />
		<tag k="ssr:stedsnr" v="343001" />
	</node>
	<node id="-303438" lat="61.2208083372" lon="11.1575805611">
		<tag k="historic" v="shieling" />
		<tag k="name" v="Hovdedalen" />
		<tag k="place" v="locality" />
		<tag k="ssr:stedsnr" v="329548" />
	</node>
	<node id="-303431" lat="61.2573222251" lon="11.3286361118">
		<tag k="name" v="Larsstua" />
		<tag k="place" v="farm" />
		<tag k="ssr:stedsnr" v="312189" />
	</node>
	<node id="-303426" lat="61.3102694457" lon="11.4775222307">
		<tag k="name" v="Velta" />
		<tag k="place" v="isolated_dwelling" />
		<tag k="ssr:stedsnr" v="311879" />
	</node>
	<node id="-303424" lat="61.3555525753" lon="11.7733798375">
		<tag k="fixme" v="consider place=hamlet" />
		<tag k="name" v="Berge" />
		<tag k="place" v="farm" />
		<tag k="ssr:stedsnr" v="311860" />
	</node>
	<node id="-303423" lat="61.3374487236" lon="11.6694835461">
		<tag k="alt_name" v="Mo" />
		<tag k="fixme" v="consider place=hamlet" />
		<tag k="name" v="Moen" />
		<tag k="place" v="farm" />
		<tag k="ssr:stedsnr" v="311850" />
	</node>
	<node id="-303422" lat="61.339302778" lon="11.7672222302">
		<tag k="name" v="Solberg" />
		<tag k="place" v="farm" />
		<tag k="ssr:stedsnr" v="311842" />
	</node>
	<node id="-303421" lat="61.2586444435" lon="11.4829527775">
		<tag k="name" v="Persvika" />
		<tag k="place" v="isolated_dwelling" />
		<tag k="ssr:stedsnr" v="311803" />
	</node>
	<node id="-303417" lat="61.1731388897" lon="11.5364222258">
		<tag k="name" v="Veslebekk" />
		<tag k="place" v="farm" />
		<tag k="ssr:stedsnr" v="311428" />
	</node>
	<node id="-303416" lat="61.1694027783" lon="11.5517111175">
		<tag k="name" v="Nyberget" />
		<tag k="place" v="farm" />
		<tag k="ssr:stedsnr" v="311420" />
	</node>
	<node id="-303415" lat="61.1941749984" lon="11.5273499982">
		<tag k="name" v="Myrstad" />
		<tag k="place" v="farm" />
		<tag k="ssr:stedsnr" v="311415" />
	</node>
	<node id="-303414" lat="61.1816694466" lon="11.4878444463">
		<tag k="name" v="Brenna" />
		<tag k="place" v="isolated_dwelling" />
		<tag k="ssr:stedsnr" v="311413" />
	</node>
	<node id="-303413" lat="61.1741555571" lon="11.4847694434">
		<tag k="alt_name" v="Åkre" />
		<tag k="name" v="Akre" />
		<tag k="place" v="isolated_dwelling" />
		<tag k="ssr:stedsnr" v="311412" />
	</node>
	<node id="-303411" lat="61.2147499974" lon="11.585299999">
		<tag k="name" v="Svarstadbua" />
		<tag k="place" v="isolated_dwelling" />
		<tag k="ssr:stedsnr" v="311403" />
	</node>
	<node id="-303408" lat="61.2349777797" lon="11.6086472152">
		<tag k="name" v="Syttenbua" />
		<tag k="place" v="isolated_dwelling" />
		<tag k="ssr:stedsnr" v="311390" />
	</node>
	<node id="-303407" lat="61.2365083358" lon="11.4724388848">
		<tag k="alt_name" v="Nedre Rødsdalen" />
		<tag k="name" v="Rødsdalen" />
		<tag k="place" v="farm" />
		<tag k="ssr:stedsnr" v="311388" />
	</node>
	<node id="-303405" lat="61.2804547191" lon="11.3638651614">
		<tag k="historic" v="shieling" />
		<tag k="name" v="Viksætra" />
		<tag k="place" v="locality" />
		<tag k="ssr:stedsnr" v="311308" />
	</node>
	<node id="-303397" lat="61.363838888" lon="11.6312861174">
		<tag k="name" v="Nyberg" />
		<tag k="place" v="farm" />
		<tag k="ssr:stedsnr" v="311174" />
	</node>
	<node id="-303396" lat="61.1202361085" lon="11.5878444374">
		<tag k="name" v="Solberg" />
		<tag k="place" v="farm" />
		<tag k="ssr:stedsnr" v="311172" />
	</node>
	<node id="-303394" lat="61.3915638849" lon="11.6077083306">
		<tag k="name" v="Rusta" />
		<tag k="place" v="farm" />
		<tag k="ssr:stedsnr" v="311154" />
	</node>
	<node id="-303391" lat="61.1210575462" lon="11.2944781985">
		<tag k="fixme" v="consider place=hamlet" />
		<tag k="name" v="Hole" />
		<tag k="place" v="farm" />
		<tag k="ssr:stedsnr" v="310477" />
	</node>
	<node id="-303387" lat="61.1430722243" lon="11.1140527725">
		<tag k="name" v="Tingstadbua" />
		<tag k="place" v="isolated_dwelling" />
		<tag k="ssr:stedsnr" v="310456" />
	</node>
	<node id="-303386" lat="61.1457138844" lon="11.2187500029">
		<tag k="historic" v="shieling" />
		<tag k="name" v="Blikstadsætra" />
		<tag k="place" v="locality" />
		<tag k="ssr:stedsnr" v="310446" />
	</node>
	<node id="-303382" lat="61.1755367639" lon="11.3572092832">
		<tag k="fixme" v="consider place=hamlet" />
		<tag k="name" v="Alme" />
		<tag k="place" v="farm" />
		<tag k="ssr:stedsnr" v="310423" />
	</node>
	<node id="-303381" lat="61.1917416685" lon="11.3609388964">
		<tag k="name" v="Storbua" />
		<tag k="place" v="isolated_dwelling" />
		<tag k="ssr:stedsnr" v="310411" />
	</node>
	<node id="-303380" lat="61.2216250043" lon="11.4305555581">
		<tag k="name" v="Sjøbua" />
		<tag k="place" v="isolated_dwelling" />
		<tag k="ssr:stedsnr" v="310394" />
	</node>
	<node id="-303379" lat="61.2385472256" lon="11.4390222214">
		<tag k="name" v="Kavåsbua" />
		<tag k="place" v="isolated_dwelling" />
		<tag k="ssr:stedsnr" v="310390" />
	</node>
	<node id="-303377" lat="61.0597222237" lon="11.3507083389">
		<tag k="name" v="Nyjordet" />
		<tag k="place" v="farm" />
		<tag k="ssr:stedsnr" v="310233" />
	</node>
	<node id="-303369" lat="61.0393055556" lon="11.4062083389">
		<tag k="name" v="Pellerustkoia" />
		<tag k="place" v="locality" />
		<tag k="ssr:stedsnr" v="301200" />
	</node>
	<node id="-303368" lat="61.1487638902" lon="11.3868666746">
		<tag k="landuse" v="military" />
		<tag k="name" v="Rena leir" />
		<tag k="ssr:stedsnr" v="206449" />
	</node>
	<node id="-303366" lat="61.142399999" lon="11.2863111173">
		<tag k="name" v="Herstad" />
		<tag k="place" v="farm" />
		<tag k="ssr:stedsnr" v="203195" />
	</node>
	<node id="-303364" lat="61.2328305565" lon="11.3439361145">
		<tag k="name" v="Solås" />
		<tag k="place" v="farm" />
		<tag k="ssr:stedsnr" v="203164" />
	</node>
	<node id="-303361" lat="61.3388555599" lon="11.4321027788">
		<tag k="alt_name" v="Gjetvoll;Gjetvold" />
		<tag k="name" v="Gjetvål" />
		<tag k="place" v="farm" />
		<tag k="ssr:stedsnr" v="191001" />
	</node>
	<node id="-303360" lat="61.2501499983" lon="11.490900002">
		<tag k="name" v="Nordre Rødsbakken" />
		<tag k="old_name" v="Rødsbakken, nedre" />
		<tag k="place" v="farm" />
		<tag k="ssr:stedsnr" v="190828" />
	</node>
	<node id="-303357" lat="61.2199250044" lon="11.6452249956">
		<tag k="name" v="Renolskoia" />
		<tag k="place" v="isolated_dwelling" />
		<tag k="ssr:stedsnr" v="190328" />
	</node>
	<node id="-303354" lat="61.2586999997" lon="11.3253833283">
		<tag k="name" v="Nordvang" />
		<tag k="place" v="farm" />
		<tag k="ssr:stedsnr" v="190242" />
	</node>
	<node id="-303353" lat="61.2867499962" lon="11.4024638844">
		<tag k="name" v="Granli" />
		<tag k="place" v="farm" />
		<tag k="ssr:stedsnr" v="190226" />
	</node>
	<node id="-303352" lat="61.4563361069" lon="11.6447527777">
		<tag k="alt_name" v="Sæterlia Sæter" />
		<tag k="historic" v="shieling" />
		<tag k="name" v="Sæterlia" />
		<tag k="place" v="locality" />
		<tag k="ssr:stedsnr" v="190216" />
	</node>
	<node id="-303351" lat="61.4598611112" lon="11.7419027832">
		<tag k="alt_name" v="Fabrosbua" />
		<tag k="name" v="Farbrorsbua" />
		<tag k="place" v="isolated_dwelling" />
		<tag k="ssr:stedsnr" v="190211" />
	</node>
	<node id="-303349" lat="61.1123411472" lon="11.6078407566">
		<tag k="fixme" v="multiple name tags, choose one and add the other to alt_name" />
		<tag k="name" v="Søgarden;Søndre Blikkberget" />
		<tag k="place" v="farm" />
		<tag k="ssr:stedsnr" v="190187" />
	</node>
	<node id="-303347" lat="61.4260583337" lon="11.4590333321">
		<tag k="alt_name" v="Storåsen, Søre;Storåsen" />
		<tag k="historic" v="shieling" />
		<tag k="name" v="Søndre Storåsen" />
		<tag k="old_name" v="Søre Storåsen" />
		<tag k="place" v="locality" />
		<tag k="ssr:stedsnr" v="190087" />
	</node>
	<node id="-303346" lat="61.4244666675" lon="11.4062833296">
		<tag k="name" v="Granbergbua" />
		<tag k="place" v="isolated_dwelling" />
		<tag k="ssr:stedsnr" v="190081" />
	</node>
	<node id="-303343" lat="61.3343916622" lon="11.7889750086">
		<tag k="alt_name" v="Ulvevadet" />
		<tag k="fixme" v="consider place=hamlet" />
		<tag k="name" v="Ulvåvadet" />
		<tag k="place" v="farm" />
		<tag k="ssr:stedsnr" v="189852" />
	</node>
	<node id="-303342" lat="61.3044894972" lon="11.7824305685">
		<tag k="fixme" v="consider place=hamlet" />
		<tag k="name" v="Landet" />
		<tag k="place" v="farm" />
		<tag k="ssr:stedsnr" v="189839" />
	</node>
	<node id="-303341" lat="61.3049833294" lon="11.7507583403">
		<tag k="name" v="Hagen" />
		<tag k="place" v="farm" />
		<tag k="ssr:stedsnr" v="189824" />
	</node>
	<node id="-303339" lat="61.3539805541" lon="11.6515416668">
		<tag k="name" v="Bekkelund" />
		<tag k="place" v="farm" />
		<tag k="ssr:stedsnr" v="189817" />
	</node>
	<node id="-303338" lat="61.3619583378" lon="11.6439638926">
		<tag k="name" v="Knutsbua" />
		<tag k="place" v="isolated_dwelling" />
		<tag k="ssr:stedsnr" v="189811" />
	</node>
	<node id="-303336" lat="61.3472444428" lon="11.7858361091">
		<tag k="name" v="Myrbakken" />
		<tag k="place" v="farm" />
		<tag k="ssr:stedsnr" v="189801" />
	</node>
	<node id="-303335" lat="61.3427361084" lon="11.4946416691">
		<tag k="alt_name" v="Nordsætra" />
		<tag k="historic" v="shieling" />
		<tag k="name" v="Deset-Nordsætra" />
		<tag k="place" v="locality" />
		<tag k="ssr:stedsnr" v="189797" />
	</node>
	<node id="-303334" lat="61.3446222246" lon="11.7848333257">
		<tag k="alt_name" v="Lilleholm" />
		<tag k="name" v="Lislholm" />
		<tag k="place" v="farm" />
		<tag k="ssr:stedsnr" v="189786" />
	</node>
	<node id="-303333" lat="61.3402833338" lon="11.7886388881">
		<tag k="name" v="Skytterstua" />
		<tag k="place" v="farm" />
		<tag k="ssr:stedsnr" v="189785" />
	</node>
	<node id="-303331" lat="61.2663805541" lon="11.549066666">
		<tag k="name" v="Nierbua" />
		<tag k="place" v="isolated_dwelling" />
		<tag k="ssr:stedsnr" v="189731" />
	</node>
	<node id="-303330" lat="61.0824333373" lon="11.3094999971">
		<tag k="name" v="Hemstad" />
		<tag k="place" v="farm" />
		<tag k="ssr:stedsnr" v="189459" />
	</node>
	<node id="-303329" lat="61.0816833296" lon="11.3019777711">
		<tag k="name" v="Mellom" />
		<tag k="place" v="isolated_dwelling" />
		<tag k="ssr:stedsnr" v="189457" />
	</node>
	<node id="-303325" lat="61.1466333348" lon="11.2211527818">
		<tag k="historic" v="shieling" />
		<tag k="name" v="Rostadsætra" />
		<tag k="place" v="locality" />
		<tag k="ssr:stedsnr" v="189416" />
	</node>
	<node id="-303324" lat="61.1472914966" lon="11.3234599159">
		<tag k="fixme" v="consider place=hamlet" />
		<tag k="name" v="Kløvstad" />
		<tag k="place" v="farm" />
		<tag k="ssr:stedsnr" v="189415" />
	</node>
	<node id="-303323" lat="61.1504694483" lon="11.3557416681">
		<tag k="name" v="Rugsvea" />
		<tag k="place" v="quarter" />
		<tag k="ssr:stedsnr" v="189410" />
	</node>
	<node id="-303319" lat="61.1877666705" lon="11.2572277848">
		<tag k="name" v="Toerbua" />
		<tag k="place" v="isolated_dwelling" />
		<tag k="ssr:stedsnr" v="189385" />
	</node>
	<node id="-303318" lat="61.207686114" lon="11.3933361156">
		<tag k="name" v="Fløtningen" />
		<tag k="place" v="isolated_dwelling" />
		<tag k="ssr:stedsnr" v="189378" />
	</node>
	<node id="-303316" lat="61.229761112" lon="11.3825916673">
		<tag k="historic" v="shieling" />
		<tag k="name" v="Yglesætra" />
		<tag k="place" v="locality" />
		<tag k="ssr:stedsnr" v="189358" />
	</node>
	<node id="-303311" lat="61.0999694415" lon="11.4346416609">
		<tag k="name" v="Hemsjøkoia" />
		<tag k="place" v="isolated_dwelling" />
		<tag k="ssr:stedsnr" v="180946" />
	</node>
	<node id="-303309" lat="61.1922583344" lon="11.5608666698">
		<tag k="name" v="Nyløkken" />
		<tag k="place" v="farm" />
		<tag k="ssr:stedsnr" v="180854" />
	</node>
	<node id="-303304" lat="61.1118111157" lon="11.5635749953">
		<tag k="name" v="Treerkoia" />
		<tag k="place" v="isolated_dwelling" />
		<tag k="ssr:stedsnr" v="180628" />
	</node>
	<node id="-303299" lat="61.0986944421" lon="11.3573194419">
		<tag k="name" v="Fagerhøy" />
		<tag k="place" v="farm" />
		<tag k="ssr:stedsnr" v="180495" />
	</node>
	<node id="-303291" lat="61.0374583364" lon="11.3749333416">
		<tag k="name" v="Nordeng" />
		<tag k="place" v="farm" />
		<tag k="ssr:stedsnr" v="180216" />
	</node>
	<node id="-303289" lat="61.1162861127" lon="11.3663555611">
		<tag k="name" v="Skjærodden" />
		<tag k="place" v="isolated_dwelling" />
		<tag k="ssr:stedsnr" v="177532" />
	</node>
	<node id="-303288" lat="61.4040472229" lon="11.4139250027">
		<tag k="name" v="Kampdalsbua" />
		<tag k="place" v="isolated_dwelling" />
		<tag k="ssr:stedsnr" v="176716" />
	</node>
	<node id="-303287" lat="61.3086277773" lon="11.445827781">
		<tag k="name" v="Hammeren" />
		<tag k="place" v="isolated_dwelling" />
		<tag k="ssr:stedsnr" v="176485" />
	</node>
	<node id="-303284" lat="61.1391805531" lon="11.3130055544">
		<tag k="name" v="Nordre Skramstad" />
		<tag k="place" v="farm" />
		<tag k="ssr:stedsnr" v="176358" />
	</node>
	<node id="-303282" lat="61.128391667" lon="11.3852888947">
		<tag k="name" v="Nordre Ilsås" />
		<tag k="place" v="farm" />
		<tag k="ssr:stedsnr" v="176344" />
	</node>
	<node id="-303278" lat="61.0738138855" lon="11.354450007">
		<tag k="name" v="Nedre Kvernen" />
		<tag k="place" v="farm" />
		<tag k="ssr:stedsnr" v="162393" />
	</node>
	<node id="-303275" lat="61.1397611155" lon="11.275869445">
		<tag k="name" v="Renli" />
		<tag k="place" v="farm" />
		<tag k="ssr:stedsnr" v="161248" />
	</node>
	<node id="-303272" lat="61.3410555555" lon="11.862988898">
		<tag k="name" v="Eskol" />
		<tag k="place" v="isolated_dwelling" />
		<tag k="ssr:stedsnr" v="130562" />
	</node>
	<node id="-303269" lat="61.270686107" lon="11.5335333372">
		<tag k="alt_name" v="Styggdalen Seter" />
		<tag k="historic" v="shieling" />
		<tag k="name" v="Styggdalen" />
		<tag k="place" v="locality" />
		<tag k="ssr:stedsnr" v="129765" />
	</node>
	<node id="-303268" lat="61.2732055572" lon="11.7517861136">
		<tag k="alt_name" v="Brevik, nordre" />
		<tag k="name" v="Nordre Brevik" />
		<tag k="place" v="farm" />
		<tag k="ssr:stedsnr" v="129763" />
	</node>
	<node id="-303260" lat="61.4181305535" lon="11.7319416756">
		<tag k="alt_name" v="Blekuenget" />
		<tag k="name" v="Blikuenget" />
		<tag k="place" v="farm" />
		<tag k="ssr:stedsnr" v="129194" />
	</node>
	<node id="-303258" lat="61.4540833309" lon="11.6901499907">
		<tag k="name" v="Landenget" />
		<tag k="place" v="farm" />
		<tag k="ssr:stedsnr" v="129189" />
	</node>
	<node id="-303255" lat="61.1188250044" lon="11.4865555503">
		<tag k="name" v="Åskoia" />
		<tag k="place" v="isolated_dwelling" />
		<tag k="ssr:stedsnr" v="129159" />
	</node>
	<node id="-303254" lat="61.3146555572" lon="11.5345027827">
		<tag k="historic" v="shieling" />
		<tag k="name" v="Melgardssætra" />
		<tag k="place" v="locality" />
		<tag k="ssr:stedsnr" v="128850" />
	</node>
	<node id="-303253" lat="61.2894749973" lon="11.4857333369">
		<tag k="alt_name" v="Amundssveen" />
		<tag k="name" v="Amundssvea" />
		<tag k="place" v="farm" />
		<tag k="ssr:stedsnr" v="128779" />
	</node>
	<node id="-303252" lat="61.2910361119" lon="11.4809388962">
		<tag k="name" v="Bekk" />
		<tag k="place" v="farm" />
		<tag k="ssr:stedsnr" v="128773" />
	</node>
	<node id="-303251" lat="61.2918861082" lon="11.4815000089">
		<tag k="name" v="Fjellstad" />
		<tag k="place" v="farm" />
		<tag k="ssr:stedsnr" v="128769" />
	</node>
	<node id="-303250" lat="61.3621083342" lon="11.6562527719">
		<tag k="name" v="Venstad" />
		<tag k="place" v="isolated_dwelling" />
		<tag k="ssr:stedsnr" v="128833" />
	</node>
	<node id="-303249" lat="61.3649722239" lon="11.7656277822">
		<tag k="name" v="Bjørke" />
		<tag k="place" v="farm" />
		<tag k="ssr:stedsnr" v="128830" />
	</node>
	<node id="-303246" lat="61.337327774" lon="11.7009277789">
		<tag k="name" v="Sjøli" />
		<tag k="place" v="isolated_dwelling" />
		<tag k="ssr:stedsnr" v="128814" />
	</node>
	<node id="-303245" lat="61.0785555527" lon="11.3141361059">
		<tag k="alt_name" v="Skjærstad" />
		<tag k="name" v="Skjerstad" />
		<tag k="place" v="isolated_dwelling" />
		<tag k="ssr:stedsnr" v="128467" />
	</node>
	<node id="-303243" lat="61.106510654" lon="11.4868613666">
		<tag k="name" v="Nybukoia" />
		<tag k="place" v="locality" />
		<tag k="ssr:stedsnr" v="128457" />
	</node>
	<node id="-303242" lat="61.112919448" lon="11.3869111183">
		<tag k="name" v="Øverjordet" />
		<tag k="place" v="farm" />
		<tag k="ssr:stedsnr" v="128443" />
	</node>
	<node id="-303240" lat="61.1278583322" lon="11.4548472194">
		<tag k="name" v="Gjeskoia" />
		<tag k="place" v="locality" />
		<tag k="ssr:stedsnr" v="128431" />
	</node>
	<node id="-303239" lat="61.1549250035" lon="11.4247750048">
		<tag k="name" v="Ottershagen" />
		<tag k="place" v="farm" />
		<tag k="ssr:stedsnr" v="128417" />
	</node>
	<node id="-303238" lat="61.1529611105" lon="11.4449555511">
		<tag k="name" v="Gjeslia" />
		<tag k="place" v="isolated_dwelling" />
		<tag k="ssr:stedsnr" v="128415" />
	</node>
	<node id="-303237" lat="61.1669277821" lon="11.3335361133">
		<tag k="alt_name" v="Søndre Bjørsland" />
		<tag k="name" v="Bjørsland" />
		<tag k="place" v="isolated_dwelling" />
		<tag k="ssr:stedsnr" v="128408" />
	</node>
	<node id="-303236" lat="61.1506833376" lon="11.3299527872">
		<tag k="alt_name" v="Tingstadmyra" />
		<tag k="name" v="Myra" />
		<tag k="place" v="farm" />
		<tag k="ssr:stedsnr" v="128401" />
	</node>
	<node id="-303235" lat="61.2170222215" lon="11.4668000073">
		<tag k="name" v="Asprusta" />
		<tag k="place" v="farm" />
		<tag k="ssr:stedsnr" v="128380" />
	</node>
	<node id="-303232" lat="61.2144638899" lon="11.4066305615">
		<tag k="name" v="Nybua" />
		<tag k="place" v="isolated_dwelling" />
		<tag k="ssr:stedsnr" v="128367" />
	</node>
	<node id="-303230" lat="61.0450305538" lon="11.3249861174">
		<tag k="name" v="Levanger" />
		<tag k="place" v="isolated_dwelling" />
		<tag k="ssr:stedsnr" v="128254" />
	</node>
	<node id="-303228" lat="61.3945833311" lon="11.609683334">
		<tag k="name" v="Luvåsen" />
		<tag k="place" v="farm" />
		<tag k="ssr:stedsnr" v="128091" />
	</node>
	<node id="-303226" lat="61.1578944425" lon="11.578269441">
		<tag k="alt_name" v="Hølsætra" />
		<tag k="historic" v="shieling" />
		<tag k="name" v="Holsætra" />
		<tag k="place" v="locality" />
		<tag k="ssr:stedsnr" v="128112" />
	</node>
	<node id="-303209" lat="61.054100002" lon="11.3535583405">
		<tag k="name" v="Bjørnstadbakken" />
		<tag k="place" v="locality" />
		<tag k="ssr:stedsnr" v="117987" />
	</node>
	<node id="-303207" lat="61.1150555565" lon="11.3766638829">
		<tag k="name" v="Amundstadgrenda" />
		<tag k="place" v="quarter" />
		<tag k="ssr:stedsnr" v="117464" />
	</node>
	<node id="-303206" lat="61.0762388863" lon="11.3418444423">
		<tag k="name" v="Søndre Åstbrubakken" />
		<tag k="place" v="isolated_dwelling" />
		<tag k="ssr:stedsnr" v="117360" />
	</node>
	<node id="-303205" lat="61.0776111105" lon="11.340594442">
		<tag k="name" v="Nordre Åstbrubakken" />
		<tag k="place" v="isolated_dwelling" />
		<tag k="ssr:stedsnr" v="117347" />
	</node>
	<node id="-303202" lat="61.1361638848" lon="11.3740916617">
		<tag k="amenity" v="university" />
		<tag k="fixme" v="multiple name tags, choose one and add the other to alt_name" />
		<tag k="name" v="Høgskolen i Innlandet, Rena;Høgskolen i Hedmark avd. Rena" />
		<tag k="old_name" v="Hedmark distriktshøgskole" />
		<tag k="ssr:stedsnr" v="116364" />
	</node>
	<node id="-303198" lat="61.2018638921" lon="11.487536106">
		<tag k="name" v="Nøstervollen" />
		<tag k="place" v="isolated_dwelling" />
		<tag k="ssr:stedsnr" v="102937" />
	</node>
	<node id="-303196" lat="61.1680472179" lon="11.3537333275">
		<tag k="name" v="Nedre Neset" />
		<tag k="place" v="isolated_dwelling" />
		<tag k="ssr:stedsnr" v="102674" />
	</node>
	<node id="-303195" lat="61.0839861145" lon="11.3906972188">
		<tag k="name" v="Granerud" />
		<tag k="place" v="farm" />
		<tag k="ssr:stedsnr" v="102421" />
	</node>
	<node id="-303194" lat="61.0855160261" lon="11.3924111793">
		<tag k="fixme" v="consider place=hamlet" />
		<tag k="name" v="Holset" />
		<tag k="place" v="farm" />
		<tag k="ssr:stedsnr" v="102420" />
	</node>
	<node id="-303193" lat="61.074102782" lon="11.4247416738">
		<tag k="name" v="Søstbua" />
		<tag k="place" v="locality" />
		<tag k="ssr:stedsnr" v="102418" />
	</node>
	<node id="-303192" lat="61.309430554" lon="11.72846666">
		<tag k="name" v="Sjøvang" />
		<tag k="place" v="isolated_dwelling" />
		<tag k="ssr:stedsnr" v="102054" />
	</node>
	<node id="-303190" lat="61.1366888869" lon="11.3086694414">
		<tag k="name" v="Skramstadsletta" />
		<tag k="place" v="farm" />
		<tag k="ssr:stedsnr" v="101959" />
	</node>
	<node id="-303189" lat="61.1548472217" lon="11.271249996">
		<tag k="name" v="Søgårdskoia" />
		<tag k="place" v="isolated_dwelling" />
		<tag k="ssr:stedsnr" v="101198" />
	</node>
	<node id="-303182" lat="61.2504166632" lon="11.6498249938">
		<tag k="name" v="Tierkoia" />
		<tag k="place" v="isolated_dwelling" />
		<tag k="ssr:stedsnr" v="69830" />
	</node>
	<node id="-303181" lat="61.2625249992" lon="11.853105551">
		<tag k="name" v="Svenskkoia" />
		<tag k="place" v="isolated_dwelling" />
		<tag k="ssr:stedsnr" v="69565" />
	</node>
	<node id="-303180" lat="61.2887972205" lon="11.8741944454">
		<tag k="name" v="Berget" />
		<tag k="place" v="farm" />
		<tag k="ssr:stedsnr" v="69543" />
	</node>
	<node id="-303178" lat="61.2227805523" lon="11.5940444495">
		<tag k="name" v="Øglebua" />
		<tag k="place" v="isolated_dwelling" />
		<tag k="ssr:stedsnr" v="69337" />
	</node>
	<node id="-303176" lat="61.0885290993" lon="11.4662445647">
		<tag k="name" v="Vålsbua" />
		<tag k="place" v="locality" />
		<tag k="ssr:stedsnr" v="69188" />
	</node>
	<node id="-303172" lat="61.4332027802" lon="11.7684111156">
		<tag k="name" v="Nykoia" />
		<tag k="place" v="isolated_dwelling" />
		<tag k="ssr:stedsnr" v="69167" />
	</node>
	<node id="-303166" lat="61.2922333306" lon="11.7418527689">
		<tag k="name" v="Bakken" />
		<tag k="place" v="farm" />
		<tag k="ssr:stedsnr" v="68777" />
	</node>
	<node id="-303165" lat="61.2945305541" lon="11.4755194438">
		<tag k="name" v="Skogstad" />
		<tag k="place" v="farm" />
		<tag k="ssr:stedsnr" v="68774" />
	</node>
	<node id="-303164" lat="61.3017333324" lon="11.7619777742">
		<tag k="fixme" v="consider place=suburb, village or hamlet" />
		<tag k="name" v="Osneset" />
		<tag k="place" v="quarter" />
		<tag k="ssr:stedsnr" v="68772" />
	</node>
	<node id="-303163" lat="61.3002194412" lon="11.7371666587">
		<tag k="name" v="Øra" />
		<tag k="place" v="isolated_dwelling" />
		<tag k="ssr:stedsnr" v="68768" />
	</node>
	<node id="-303162" lat="61.2613777779" lon="11.74424445">
		<tag k="name" v="Jøstad" />
		<tag k="place" v="isolated_dwelling" />
		<tag k="ssr:stedsnr" v="68765" />
	</node>
	<node id="-303160" lat="61.3268833308" lon="11.7956805641">
		<tag k="name" v="Myrvang" />
		<tag k="place" v="farm" />
		<tag k="ssr:stedsnr" v="68852" />
	</node>
	<node id="-303159" lat="61.3023830157" lon="11.8403376963">
		<tag k="alt_name" v="Engemoen" />
		<tag k="fixme" v="consider place=hamlet" />
		<tag k="name" v="Engmoen" />
		<tag k="place" v="farm" />
		<tag k="ssr:stedsnr" v="68849" />
	</node>
	<node id="-303158" lat="61.3032499966" lon="11.4743111067">
		<tag k="name" v="Brenna" />
		<tag k="place" v="farm" />
		<tag k="ssr:stedsnr" v="68847" />
	</node>
	<node id="-303157" lat="61.3124555517" lon="11.7295361127">
		<tag k="name" v="Strand" />
		<tag k="place" v="farm" />
		<tag k="ssr:stedsnr" v="68835" />
	</node>
	<node id="-303156" lat="61.3578666707" lon="11.7952750012">
		<tag k="name" v="Raudkoia" />
		<tag k="place" v="isolated_dwelling" />
		<tag k="ssr:stedsnr" v="68829" />
	</node>
	<node id="-303154" lat="61.1794111083" lon="11.580375009">
		<tag k="historic" v="shieling" />
		<tag k="name" v="Gammelsætra" />
		<tag k="place" v="locality" />
		<tag k="ssr:stedsnr" v="68390" />
	</node>
	<node id="-303151" lat="61.1011083361" lon="11.3835861049">
		<tag k="name" v="Øverby" />
		<tag k="place" v="farm" />
		<tag k="ssr:stedsnr" v="68492" />
	</node>
	<node id="-303150" lat="61.2407527804" lon="11.7876777721">
		<tag k="name" v="Vestli" />
		<tag k="place" v="farm" />
		<tag k="ssr:stedsnr" v="68299" />
	</node>
	<node id="-303148" lat="61.1168999957" lon="11.5887388843">
		<tag k="fixme" v="consider place=hamlet" />
		<tag k="name" v="Blikberget" />
		<tag k="place" v="village" />
		<tag k="ssr:stedsnr" v="68180" />
	</node>
	<node id="-303145" lat="61.3685916642" lon="11.7781666678">
		<tag k="name" v="Murkoia" />
		<tag k="place" v="isolated_dwelling" />
		<tag k="ssr:stedsnr" v="68149" />
	</node>
	<node id="-303144" lat="61.3725583347" lon="11.7606805614">
		<tag k="name" v="Svarstad" />
		<tag k="place" v="farm" />
		<tag k="ssr:stedsnr" v="68148" />
	</node>
	<node id="-303143" lat="61.1487861087" lon="11.6606388809">
		<tag k="historic" v="shieling" />
		<tag k="name" v="Paradissætra" />
		<tag k="place" v="locality" />
		<tag k="ssr:stedsnr" v="68147" />
	</node>
	<node id="-303142" lat="61.3665305583" lon="11.6136194437">
		<tag k="name" v="Myrebua" />
		<tag k="place" v="isolated_dwelling" />
		<tag k="ssr:stedsnr" v="68146" />
	</node>
	<node id="-303141" lat="61.121822218" lon="11.5856611071">
		<tag k="name" v="Nordli" />
		<tag k="place" v="isolated_dwelling" />
		<tag k="ssr:stedsnr" v="68144" />
	</node>
	<node id="-303140" lat="61.1210833322" lon="11.5872916622">
		<tag k="name" v="Svea" />
		<tag k="place" v="farm" />
		<tag k="ssr:stedsnr" v="68143" />
	</node>
	<node id="-303138" lat="61.1326972226" lon="11.5732444453">
		<tag k="name" v="Heggediket" />
		<tag k="place" v="isolated_dwelling" />
		<tag k="ssr:stedsnr" v="68136" />
	</node>
	<node id="-303137" lat="61.3988611082" lon="11.7874777694">
		<tag k="alt_name" v="Tøregga" />
		<tag k="name" v="Tørregga" />
		<tag k="place" v="farm" />
		<tag k="ssr:stedsnr" v="68128" />
	</node>
	<node id="-303136" lat="61.1098055577" lon="11.3890333306">
		<tag k="name" v="Gunderslykkja" />
		<tag k="place" v="farm" />
		<tag k="ssr:stedsnr" v="67496" />
	</node>
	<node id="-303135" lat="61.1180691574" lon="11.3023263253">
		<tag k="fixme" v="consider place=hamlet" />
		<tag k="name" v="Almus" />
		<tag k="place" v="farm" />
		<tag k="ssr:stedsnr" v="67483" />
	</node>
	<node id="-303134" lat="61.1248888897" lon="11.1665055499">
		<tag k="historic" v="shieling" />
		<tag k="name" v="Holesætra" />
		<tag k="place" v="locality" />
		<tag k="ssr:stedsnr" v="67482" />
	</node>
	<node id="-303132" lat="61.1391333315" lon="11.2553861095">
		<tag k="name" v="Tierbua" />
		<tag k="place" v="isolated_dwelling" />
		<tag k="ssr:stedsnr" v="67464" />
	</node>
	<node id="-303131" lat="61.14651566" lon="11.4071324782">
		<tag k="fixme" v="consider place=hamlet" />
		<tag k="name" v="Sønsthagen" />
		<tag k="place" v="farm" />
		<tag k="ssr:stedsnr" v="67458" />
	</node>
	<node id="-303129" lat="61.1494450502" lon="11.3414338806">
		<tag k="name" v="Arnestad" />
		<tag k="place" v="hamlet" />
		<tag k="ssr:stedsnr" v="67448" />
	</node>
	<node id="-303128" lat="61.1808611119" lon="11.4015944378">
		<tag k="name" v="Kildesaga" />
		<tag k="place" v="isolated_dwelling" />
		<tag k="ssr:stedsnr" v="67440" />
	</node>
	<node id="-303122" lat="61.2631166677" lon="11.3171194408">
		<tag k="name" v="Simenstua" />
		<tag k="place" v="farm" />
		<tag k="ssr:stedsnr" v="59843" />
	</node>
	<node id="-303119" lat="61.1958666679" lon="11.449100005">
		<tag k="name" v="Persmyrkoia" />
		<tag k="place" v="isolated_dwelling" />
		<tag k="ssr:stedsnr" v="59583" />
	</node>
	<node id="-303105" lat="61.4070777795" lon="11.4283888981">
		<tag k="name" v="Skarvbua" />
		<tag k="place" v="locality" />
		<tag k="ssr:stedsnr" v="55685" />
	</node>
</osm>
