<?xml version="1.0" encoding="UTF-8"?>
<<<<<<< HEAD
<osm version="0.6" generator="osmapis">
	<node lat="61.07062222534703" lon="11.35723889237913" id="-15851">
=======
<osm generator="osmapis" version="0.6">
	<node id="-340987" lat="61.2860719705" lon="11.5066989789">
		<tag k="fixme" v="consider boundary=protected_area and relevant protect_class if not nature reserve" />
		<tag k="leisure" v="nature_reserve" />
		<tag k="name" v="Deifjellia naturreservat" />
		<tag k="ssr:stedsnr" v="989004" />
	</node>
	<node id="-340986" lat="61.4314128828" lon="11.5007544092">
		<tag k="fixme" v="consider boundary=protected_area and relevant protect_class if not nature reserve" />
		<tag k="leisure" v="nature_reserve" />
		<tag k="name" v="Skordalen naturreservat" />
		<tag k="ssr:stedsnr" v="976263" />
	</node>
	<node id="-340985" lat="61.4181950485" lon="11.5419268813">
		<tag k="fixme" v="consider boundary=protected_area and relevant protect_class if not nature reserve" />
		<tag k="leisure" v="nature_reserve" />
		<tag k="name" v="Luvdalsætra naturreservat" />
		<tag k="ssr:stedsnr" v="976258" />
	</node>
	<node id="-340983" lat="61.3711098207" lon="11.4201085474">
		<tag k="fixme" v="consider boundary=protected_area and relevant protect_class if not nature reserve" />
		<tag k="leisure" v="nature_reserve" />
		<tag k="name" v="Jukulen naturreservat" />
		<tag k="ssr:stedsnr" v="971435" />
	</node>
	<node id="-339725" lat="61.0706222253" lon="11.3572388924">
>>>>>>> e1d4bc35ff8a6074a6f2e91616a996b547c36f15
		<tag k="alt_name" v="Åbu, vestre" />
		<tag k="name" v="Vestre Åbu" />
		<tag k="place" v="locality" />
		<tag k="ssr:stedsnr" v="735480" />
	</node>
<<<<<<< HEAD
	<node lat="61.07633611452911" lon="11.376633335415013" id="-16016">
=======
	<node id="-340006" lat="61.442217845" lon="11.599137724">
		<tag k="fixme" v="consider boundary=protected_area and relevant protect_class if not nature reserve" />
		<tag k="leisure" v="nature_reserve" />
		<tag k="name" v="Halasbukjølen naturreservat" />
		<tag k="ssr:stedsnr" v="980923" />
	</node>
	<node id="-339941" lat="61.0763361145" lon="11.3766333354">
>>>>>>> e1d4bc35ff8a6074a6f2e91616a996b547c36f15
		<tag k="alt_name" v="Åbu, østre" />
		<tag k="name" v="Østre Åbu" />
		<tag k="place" v="locality" />
		<tag k="ssr:stedsnr" v="857503" />
	</node>
<<<<<<< HEAD
	<node lat="61.37110982068552" lon="11.420108547406405" id="-16106">
=======
	<node id="-340995" lat="61.4480359745" lon="11.7936009331">
>>>>>>> e1d4bc35ff8a6074a6f2e91616a996b547c36f15
		<tag k="fixme" v="consider boundary=protected_area and relevant protect_class if not nature reserve" />
		<tag k="leisure" v="nature_reserve" />
		<tag k="name" v="Jukulen naturreservat" />
		<tag k="ssr:stedsnr" v="971435" />
	</node>
<<<<<<< HEAD
	<node lat="61.418195048510086" lon="11.541926881341304" id="-16986">
=======
	<node id="-340994" lat="61.1535033543" lon="11.3743819301">
>>>>>>> e1d4bc35ff8a6074a6f2e91616a996b547c36f15
		<tag k="fixme" v="consider boundary=protected_area and relevant protect_class if not nature reserve" />
		<tag k="leisure" v="nature_reserve" />
		<tag k="name" v="Luvdalsætra naturreservat" />
		<tag k="ssr:stedsnr" v="976258" />
	</node>
<<<<<<< HEAD
	<node lat="61.431412882778645" lon="11.500754409154416" id="-16987">
=======
	<node id="-340993" lat="61.0545026569" lon="11.2558560178">
>>>>>>> e1d4bc35ff8a6074a6f2e91616a996b547c36f15
		<tag k="fixme" v="consider boundary=protected_area and relevant protect_class if not nature reserve" />
		<tag k="leisure" v="nature_reserve" />
		<tag k="name" v="Skordalen naturreservat" />
		<tag k="ssr:stedsnr" v="976263" />
	</node>
<<<<<<< HEAD
	<node lat="61.44453747953132" lon="11.627050202310423" id="-16988">
		<tag k="fixme" v="consider boundary=protected_area and relevant protect_class if not nature reserve" />
		<tag k="leisure" v="nature_reserve" />
		<tag k="name" v="Halasbukjølen naturreservat" />
		<tag k="ssr:stedsnr" v="980923" />
	</node>
	<node lat="61.28607197049904" lon="11.506698978876916" id="-16990">
		<tag k="fixme" v="consider boundary=protected_area and relevant protect_class if not nature reserve" />
		<tag k="leisure" v="nature_reserve" />
		<tag k="name" v="Deifjellia naturreservat" />
		<tag k="ssr:stedsnr" v="989004" />
	</node>
	<node lat="61.05450265685301" lon="11.255856017840612" id="-16995">
		<tag k="fixme" v="consider boundary=protected_area and relevant protect_class if not nature reserve" />
		<tag k="leisure" v="nature_reserve" />
		<tag k="name" v="Gitvola og Nordre Kletten naturreservat" />
		<tag k="ssr:stedsnr" v="1072107" />
	</node>
	<node lat="61.15350335425519" lon="11.374381930086797" id="-16996">
		<tag k="fixme" v="consider boundary=protected_area and relevant protect_class if not nature reserve" />
		<tag k="leisure" v="nature_reserve" />
		<tag k="name" v="Kildeøyene naturreservat" />
		<tag k="ssr:stedsnr" v="1072108" />
	</node>
	<node lat="61.44803597450677" lon="11.793600933099354" id="-16997">
		<tag k="fixme" v="consider boundary=protected_area and relevant protect_class if not nature reserve" />
		<tag k="leisure" v="nature_reserve" />
		<tag k="name" v="Turtroa naturreservat" />
		<tag k="ssr:stedsnr" v="1072109" />
	</node>
=======
>>>>>>> e1d4bc35ff8a6074a6f2e91616a996b547c36f15
</osm>
