<?xml version="1.0" encoding="UTF-8"?>
<osm generator="osmapis" version="0.6">
	<node id="-32329" lat="59.9798500013" lon="11.3874638933">
		<tag k="name" v="Murstua" />
		<tag k="place" v="isolated_dwelling" />
		<tag k="ssr:stedsnr" v="969616" />
	</node>
	<node id="-32328" lat="59.967613892" lon="11.3307333392">
		<tag k="name" v="Grinibekken" />
		<tag k="ssr:stedsnr" v="969610" />
		<tag k="waterway" v="stream" />
	</node>
	<node id="-32327" lat="60.0369555531" lon="11.1937527823">
		<tag k="name" v="Asak" />
		<tag k="place" v="farm" />
		<tag k="ssr:stedsnr" v="969233" />
	</node>
	<node id="-32326" lat="60.012102775" lon="11.2636166643">
		<tag k="alt_name" v="Val" />
		<tag k="name" v="Vall" />
		<tag k="place" v="farm" />
		<tag k="ssr:stedsnr" v="968914" />
	</node>
	<node id="-32325" lat="60.0205194456" lon="11.1647388978">
		<tag k="junction" v="yes" />
		<tag k="name" v="Hønsi" />
		<tag k="place" v="locality" />
		<tag k="ssr:stedsnr" v="967919" />
	</node>
	<node id="-32324" lat="60.0074777818" lon="11.2246805491">
		<tag k="alt_name" v="Smedsrud Nilsstun" />
		<tag k="name" v="Nilsstuen Smedsrud" />
		<tag k="place" v="farm" />
		<tag k="ssr:stedsnr" v="967917" />
	</node>
	<node id="-32323" lat="60.0100805538" lon="11.2022166603">
		<tag k="name" v="Bæreggsbekken" />
		<tag k="ssr:stedsnr" v="967914" />
		<tag k="waterway" v="stream" />
	</node>
	<node id="-32322" lat="60.0088416701" lon="11.1652861112">
		<tag k="name" v="Størsrudfjellet" />
		<tag k="place" v="locality" />
		<tag k="ssr:stedsnr" v="967906" />
	</node>
	<node id="-32321" lat="59.9909861117" lon="11.3516000073">
		<tag k="name" v="Tangen" />
		<tag k="place" v="farm" />
		<tag k="ssr:stedsnr" v="967758" />
	</node>
	<node id="-32320" lat="59.9948027767" lon="11.3176000074">
		<tag k="name" v="Store Huseby" />
		<tag k="place" v="farm" />
		<tag k="ssr:stedsnr" v="967749" />
	</node>
	<node id="-32319" lat="59.9944333337" lon="11.3430916651">
		<tag k="fixme" v="consider natural=peak for the most distinct mountains in the district" />
		<tag k="name" v="Skukstadåsen" />
		<tag k="natural" v="hill" />
		<tag k="place" v="locality" />
		<tag k="ssr:stedsnr" v="967750" />
	</node>
	<node id="-32318" lat="59.9871222182" lon="11.3258472254">
		<tag k="name" v="Skukstad" />
		<tag k="place" v="farm" />
		<tag k="ssr:stedsnr" v="967743" />
	</node>
	<node id="-32317" lat="59.9884999963" lon="11.2272250021">
		<tag k="name" v="Hofskjæret" />
		<tag k="place" v="islet" />
		<tag k="ssr:stedsnr" v="967679" />
	</node>
	<node id="-32316" lat="59.9986583317" lon="11.2010444484">
		<tag k="name" v="Bæreggskampen" />
		<tag k="natural" v="hill" />
		<tag k="place" v="locality" />
		<tag k="ssr:stedsnr" v="967671" />
	</node>
	<node id="-32315" lat="59.999325004" lon="11.1970166583">
		<tag k="name" v="Damsfjellet" />
		<tag k="natural" v="cliff" />
		<tag k="ssr:stedsnr" v="967670" />
	</node>
	<node id="-32314" lat="59.9851444464" lon="11.2011666754">
		<tag k="name" v="Korpefjellet" />
		<tag k="natural" v="cliff" />
		<tag k="ssr:stedsnr" v="967612" />
	</node>
	<node id="-32313" lat="59.9776060625" lon="11.3633408588">
		<tag k="fixme" v="consider place=suburb, village or hamlet" />
		<tag k="name" v="Hellne" />
		<tag k="place" v="quarter" />
		<tag k="ssr:stedsnr" v="967367" />
	</node>
	<node id="-32312" lat="59.9051222212" lon="11.282747226">
		<tag k="name" v="Helltjennhakan" />
		<tag k="natural" v="bay" />
		<tag k="ssr:stedsnr" v="967202" />
	</node>
	<node id="-32311" lat="59.9319416686" lon="11.250155558">
		<tag k="name" v="Valdreshullet" />
		<tag k="natural" v="valley" />
		<tag k="place" v="locality" />
		<tag k="ssr:stedsnr" v="967199" />
	</node>
	<node id="-32310" lat="59.9875472257" lon="11.3691055551">
		<tag k="name" v="Snekkerud" />
		<tag k="old_name" v="Snedkerrud" />
		<tag k="place" v="farm" />
		<tag k="ssr:stedsnr" v="965759" />
	</node>
	<node id="-32309" lat="59.8961833339" lon="11.3087027753">
		<tag k="fixme" v="consider natural=peak for the most distinct mountains in the district" />
		<tag k="name" v="Jarsjøhøgda" />
		<tag k="natural" v="hill" />
		<tag k="place" v="locality" />
		<tag k="ssr:stedsnr" v="967277" />
	</node>
	<node id="-32308" lat="59.9240666626" lon="11.3183888904">
		<tag k="name" v="Sarpdalen" />
		<tag k="natural" v="valley" />
		<tag k="place" v="locality" />
		<tag k="ssr:stedsnr" v="967245" />
	</node>
	<node id="-32307" lat="59.9226222214" lon="11.3167138932">
		<tag k="name" v="Sarpdalsmyra" />
		<tag k="natural" v="wetland" />
		<tag k="ssr:stedsnr" v="967244" />
	</node>
	<node id="-32306" lat="59.9319527795" lon="11.3519083266">
		<tag k="name" v="Jarsjøbekken" />
		<tag k="ssr:stedsnr" v="967232" />
		<tag k="waterway" v="stream" />
	</node>
	<node id="-32305" lat="59.920183335" lon="11.3092805625">
		<tag k="name" v="Seterlia" />
		<tag k="natural" v="slope" />
		<tag k="place" v="locality" />
		<tag k="ssr:stedsnr" v="967207" />
	</node>
	<node id="-32304" lat="59.917011109" lon="11.2836361175">
		<tag k="name" v="Sandhaugvangen" />
		<tag k="place" v="locality" />
		<tag k="ssr:stedsnr" v="967203" />
	</node>
	<node id="-32303" lat="60.0243888882" lon="11.0972999952">
		<tag k="bridge" v="yes" />
		<tag k="layer" v="1" />
		<tag k="name" v="Frogner" />
		<tag k="ssr:stedsnr" v="956056" />
	</node>
	<node id="-32302" lat="60.0104111087" lon="11.2370416627">
		<tag k="amenity" v="school" />
		<tag k="name" v="Sørum skole" />
		<tag k="ssr:stedsnr" v="952034" />
	</node>
	<node id="-32301" lat="60.0050111129" lon="11.2625611201">
		<tag k="name" v="Solstad" />
		<tag k="place" v="farm" />
		<tag k="ssr:stedsnr" v="952033" />
	</node>
	<node id="-32300" lat="59.9488055527" lon="11.2808083301">
		<tag k="name" v="Fossummåsan" />
		<tag k="natural" v="wetland" />
		<tag k="ssr:stedsnr" v="950443" />
	</node>
	<node id="-32299" lat="60.0563444411" lon="11.2404944532">
		<tag k="name" v="Vølner" />
		<tag k="place" v="farm" />
		<tag k="ssr:stedsnr" v="950434" />
	</node>
	<node id="-32298" lat="60.049363892" lon="11.177244437">
		<tag k="name" v="Nydal" />
		<tag k="place" v="locality" />
		<tag k="ssr:stedsnr" v="950406" />
	</node>
	<node id="-32297" lat="59.9683027769" lon="11.3165722144">
		<tag k="name" v="Øvre Olstad" />
		<tag k="place" v="farm" />
		<tag k="ssr:stedsnr" v="950386" />
	</node>
	<node id="-32296" lat="59.9787416639" lon="11.2851444429">
		<tag k="name" v="Granli" />
		<tag k="place" v="farm" />
		<tag k="ssr:stedsnr" v="950378" />
	</node>
	<node id="-32295" lat="59.9797750011" lon="11.2856111173">
		<tag k="name" v="Vestjordet" />
		<tag k="place" v="locality" />
		<tag k="ssr:stedsnr" v="950375" />
	</node>
	<node id="-32294" lat="59.9763888885" lon="11.200980547">
		<tag k="alt_name" v="Søhammeren;Hammaren, søndre" />
		<tag k="name" v="Søndre Hammaren" />
		<tag k="place" v="farm" />
		<tag k="ssr:stedsnr" v="950367" />
	</node>
	<node id="-32293" lat="60.0377305541" lon="11.3150777761">
		<tag k="name" v="Fjellvang" />
		<tag k="place" v="farm" />
		<tag k="ssr:stedsnr" v="950335" />
	</node>
	<node id="-32292" lat="60.035969444" lon="11.3022416594">
		<tag k="fixme" v="consider natural=peak for the most distinct mountains in the district" />
		<tag k="name" v="Tolerudåsen" />
		<tag k="natural" v="hill" />
		<tag k="place" v="locality" />
		<tag k="ssr:stedsnr" v="950334" />
	</node>
	<node id="-32291" lat="60.0396194439" lon="11.278288882">
		<tag k="fixme" v="consider natural=peak for the most distinct mountains in the district" />
		<tag k="name" v="Bøleråsen" />
		<tag k="natural" v="hill" />
		<tag k="place" v="locality" />
		<tag k="ssr:stedsnr" v="950332" />
	</node>
	<node id="-32290" lat="60.004538891" lon="11.3227833424">
		<tag k="name" v="Haugli" />
		<tag k="place" v="farm" />
		<tag k="ssr:stedsnr" v="916968" />
	</node>
	<node id="-32289" lat="60.0096833295" lon="11.27707222">
		<tag k="name" v="Imshaug" />
		<tag k="place" v="farm" />
		<tag k="ssr:stedsnr" v="916958" />
	</node>
	<node id="-32288" lat="60.0201361093" lon="11.1174277749">
		<tag k="name" v="Hval" />
		<tag k="place" v="farm" />
		<tag k="ssr:stedsnr" v="916944" />
	</node>
	<node id="-32287" lat="60.0297583345" lon="11.1474111113">
		<tag k="name" v="Stensrud" />
		<tag k="place" v="farm" />
		<tag k="ssr:stedsnr" v="916903" />
	</node>
	<node id="-32286" lat="60.0369138316" lon="11.2275404141">
		<tag k="name" v="Haga" />
		<tag k="place" v="farm" />
		<tag k="ssr:stedsnr" v="916895" />
	</node>
	<node id="-32285" lat="60.0318888877" lon="11.2626555489">
		<tag k="name" v="Åsgård" />
		<tag k="place" v="farm" />
		<tag k="ssr:stedsnr" v="916890" />
	</node>
	<node id="-32284" lat="60.0355555512" lon="11.081477786">
		<tag k="fixme" v="multiple name tags, choose one and add the other to alt_name" />
		<tag k="name" v="Haugen;Østli" />
		<tag k="place" v="isolated_dwelling" />
		<tag k="ssr:stedsnr" v="916448" />
	</node>
	<node id="-32283" lat="59.8942666678" lon="11.3272722161">
		<tag k="name" v="Hærfangkjerka" />
		<tag k="natural" v="cliff" />
		<tag k="ssr:stedsnr" v="915617" />
	</node>
	<node id="-32282" lat="59.9270111109" lon="11.3138694512">
		<tag k="fixme" v="consider natural=peak for the most distinct mountains in the district" />
		<tag k="name" v="Våråsen" />
		<tag k="natural" v="hill" />
		<tag k="place" v="locality" />
		<tag k="ssr:stedsnr" v="915575" />
	</node>
	<node id="-32281" lat="59.934505553" lon="11.3335444354">
		<tag k="name" v="Dammerud" />
		<tag k="place" v="farm" />
		<tag k="ssr:stedsnr" v="915560" />
	</node>
	<node id="-32280" lat="59.9571555538" lon="11.2830138898">
		<tag k="alt_name" v="Lavanstjennet" />
		<tag k="name" v="Lavanstjern" />
		<tag k="natural" v="water" />
		<tag k="ssr:stedsnr" v="915509" />
	</node>
	<node id="-32279" lat="59.9611138904" lon="11.3449611183">
		<tag k="name" v="Holen" />
		<tag k="place" v="farm" />
		<tag k="ssr:stedsnr" v="915504" />
	</node>
	<node id="-32278" lat="59.9764861076" lon="11.2306138834">
		<tag k="alt_name" v="Østby, nordre" />
		<tag k="name" v="Nordre Østby" />
		<tag k="place" v="farm" />
		<tag k="ssr:stedsnr" v="915490" />
	</node>
	<node id="-32277" lat="59.9741138927" lon="11.2243249955">
		<tag k="alt_name" v="Østby, søndre" />
		<tag k="name" v="Søndre Østby" />
		<tag k="place" v="farm" />
		<tag k="ssr:stedsnr" v="915489" />
	</node>
	<node id="-32276" lat="59.9919416666" lon="11.1823083245">
		<tag k="alt_name" v="Bæreggstjennet" />
		<tag k="name" v="Bæreggtjernet" />
		<tag k="natural" v="water" />
		<tag k="ssr:stedsnr" v="915465" />
	</node>
	<node id="-32275" lat="59.9829499981" lon="11.2639972281">
		<tag k="alt_name" v="Fossum, søndre" />
		<tag k="name" v="Søndre Fossum" />
		<tag k="place" v="farm" />
		<tag k="ssr:stedsnr" v="915463" />
	</node>
	<node id="-32274" lat="59.9864361125" lon="11.3377222219">
		<tag k="name" v="Kjølstad" />
		<tag k="place" v="farm" />
		<tag k="ssr:stedsnr" v="915442" />
	</node>
	<node id="-32273" lat="59.9903609366" lon="11.3863423676">
		<tag k="fixme" v="consider place=hamlet" />
		<tag k="name" v="Fjuk" />
		<tag k="place" v="farm" />
		<tag k="ssr:stedsnr" v="915432" />
	</node>
	<node id="-32272" lat="59.9772027781" lon="11.3949250085">
		<tag k="name" v="Dammåsan" />
		<tag k="natural" v="wetland" />
		<tag k="ssr:stedsnr" v="915428" />
	</node>
	<node id="-32271" lat="60.0535055532" lon="11.2819777737">
		<tag k="fixme" v="consider natural=peak for the most distinct mountains in the district" />
		<tag k="name" v="Jultonåsen" />
		<tag k="natural" v="hill" />
		<tag k="place" v="locality" />
		<tag k="ssr:stedsnr" v="915025" />
	</node>
	<node id="-32270" lat="60.0533795599" lon="11.1541750167">
		<tag k="fixme" v="consider place=hamlet" />
		<tag k="name" v="Arteid" />
		<tag k="place" v="farm" />
		<tag k="ssr:stedsnr" v="915018" />
	</node>
	<node id="-32269" lat="59.9902388874" lon="11.3681861155">
		<tag k="name" v="Skåningsrud" />
		<tag k="place" v="farm" />
		<tag k="ssr:stedsnr" v="914499" />
	</node>
	<node id="-32268" lat="59.9716500043" lon="11.3387388828">
		<tag k="name" v="Jødalsmåsan" />
		<tag k="natural" v="wetland" />
		<tag k="ssr:stedsnr" v="909590" />
	</node>
	<node id="-32267" lat="60.025558335" lon="11.1871277789">
		<tag k="amenity" v="nursing_home" />
		<tag k="name" v="Sørvald bo- og behandlingssenter" />
		<tag k="old_name" v="Sørum alders- og sykehjem" />
		<tag k="ssr:stedsnr" v="909261" />
	</node>
	<node id="-32266" lat="60.0263472188" lon="11.1779555613">
		<tag k="junction" v="yes" />
		<tag k="name" v="Knatten" />
		<tag k="place" v="locality" />
		<tag k="ssr:stedsnr" v="909259" />
	</node>
	<node id="-32265" lat="60.0327861143" lon="11.227066673">
		<tag k="name" v="Norum" />
		<tag k="place" v="farm" />
		<tag k="ssr:stedsnr" v="909247" />
	</node>
	<node id="-32264" lat="60.0336583306" lon="11.1991000077">
		<tag k="name" v="Asakbråten" />
		<tag k="place" v="farm" />
		<tag k="ssr:stedsnr" v="909245" />
	</node>
	<node id="-32263" lat="60.028733336" lon="11.2304194466">
		<tag k="alt_name" v="Søgarn" />
		<tag k="name" v="Søgarden" />
		<tag k="place" v="farm" />
		<tag k="ssr:stedsnr" v="909240" />
	</node>
	<node id="-32262" lat="60.0261194448" lon="11.2536666668">
		<tag k="name" v="Granerud" />
		<tag k="place" v="farm" />
		<tag k="ssr:stedsnr" v="909235" />
	</node>
	<node id="-32261" lat="60.0262000015" lon="11.2870777804">
		<tag k="name" v="Børgenmarka" />
		<tag k="place" v="locality" />
		<tag k="ssr:stedsnr" v="909212" />
	</node>
	<node id="-32260" lat="60.030711115" lon="11.1488722292">
		<tag k="name" v="Furulund" />
		<tag k="place" v="farm" />
		<tag k="ssr:stedsnr" v="908260" />
	</node>
	<node id="-32259" lat="59.9890277782" lon="11.2647888885">
		<tag k="name" v="Holmen" />
		<tag k="place" v="islet" />
		<tag k="ssr:stedsnr" v="907684" />
	</node>
	<node id="-32258" lat="60.0183055524" lon="11.1400833364">
		<tag k="name" v="Grønvoll" />
		<tag k="place" v="farm" />
		<tag k="ssr:stedsnr" v="906916" />
	</node>
	<node id="-32257" lat="60.0212944403" lon="11.0663388905">
		<tag k="name" v="Skillebekken" />
		<tag k="ssr:stedsnr" v="906819" />
		<tag k="waterway" v="stream" />
	</node>
	<node id="-32256" lat="59.9201194474" lon="11.2716638819">
		<tag k="name" v="Seterdalsmyra" />
		<tag k="natural" v="wetland" />
		<tag k="ssr:stedsnr" v="906269" />
	</node>
	<node id="-32255" lat="59.9315000008" lon="11.2633166653">
		<tag k="name" v="Engermåsan" />
		<tag k="natural" v="wetland" />
		<tag k="ssr:stedsnr" v="906268" />
	</node>
	<node id="-32254" lat="59.969219443" lon="11.2524694459">
		<tag k="name" v="Oleruddammen" />
		<tag k="natural" v="water" />
		<tag k="ssr:stedsnr" v="876211" />
	</node>
	<node id="-32251" lat="60.0033000014" lon="11.2892749952">
		<tag k="name" v="Sundfossen" />
		<tag k="natural" v="waterfall" />
		<tag k="ssr:stedsnr" v="855962" />
	</node>
	<node id="-32250" lat="60.025224998" lon="11.3648722225">
		<tag k="fixme" v="consider natural=peak for the most distinct mountains in the district" />
		<tag k="name" v="Tandbergfjellet" />
		<tag k="natural" v="hill" />
		<tag k="place" v="locality" />
		<tag k="ssr:stedsnr" v="855933" />
	</node>
	<node id="-32249" lat="60.0089277756" lon="11.1254805558">
		<tag k="fixme" v="multiple name tags, choose one and add the other to alt_name" />
		<tag k="name" v="Ausenflaen;Flaen" />
		<tag k="place" v="farm" />
		<tag k="ssr:stedsnr" v="855927" />
	</node>
	<node id="-32248" lat="60.013121485" lon="11.2804565541">
		<tag k="fixme" v="consider place=hamlet" />
		<tag k="name" v="Børgen" />
		<tag k="place" v="farm" />
		<tag k="ssr:stedsnr" v="855921" />
	</node>
	<node id="-32247" lat="60.0170083348" lon="11.2685500041">
		<tag k="name" v="Berg" />
		<tag k="place" v="farm" />
		<tag k="ssr:stedsnr" v="855920" />
	</node>
	<node id="-32246" lat="60.0150250018" lon="11.3035805555">
		<tag k="name" v="Tokerud" />
		<tag k="place" v="farm" />
		<tag k="ssr:stedsnr" v="855917" />
	</node>
	<node id="-32245" lat="60.0111083326" lon="11.2394055589">
		<tag k="fixme" v="multiple name tags, choose one and add the other to alt_name" />
		<tag k="name" v="Prestegarden;Sørum prestegård" />
		<tag k="place" v="farm" />
		<tag k="ssr:stedsnr" v="855914" />
	</node>
	<node id="-32244" lat="60.0400305595" lon="11.2585999984">
		<tag k="name" v="Vestenga" />
		<tag k="place" v="farm" />
		<tag k="ssr:stedsnr" v="855898" />
	</node>
	<node id="-32243" lat="60.0430427864" lon="11.2663781936">
		<tag k="fixme" v="consider place=hamlet" />
		<tag k="name" v="Bognerud" />
		<tag k="place" v="farm" />
		<tag k="ssr:stedsnr" v="855899" />
	</node>
	<node id="-32242" lat="60.0261527801" lon="11.1329583368">
		<tag k="name" v="Tangerud" />
		<tag k="place" v="farm" />
		<tag k="ssr:stedsnr" v="855893" />
	</node>
	<node id="-32241" lat="60.0191694466" lon="11.0835361066">
		<tag k="name" v="Svennerud" />
		<tag k="place" v="farm" />
		<tag k="ssr:stedsnr" v="855368" />
	</node>
	<node id="-32240" lat="59.9490361102" lon="11.2715666666">
		<tag k="alt_name" v="Klovhøgda" />
		<tag k="fixme" v="consider natural=peak for the most distinct mountains in the district" />
		<tag k="name" v="Klovehøgda" />
		<tag k="natural" v="hill" />
		<tag k="place" v="locality" />
		<tag k="ssr:stedsnr" v="854521" />
	</node>
	<node id="-32239" lat="59.9388583358" lon="11.2622055537">
		<tag k="name" v="Varsjø" />
		<tag k="place" v="farm" />
		<tag k="ssr:stedsnr" v="854519" />
	</node>
	<node id="-32238" lat="59.9706194419" lon="11.3202999963">
		<tag k="alt_name" v="Ingier" />
		<tag k="name" v="Ingjer" />
		<tag k="place" v="farm" />
		<tag k="ssr:stedsnr" v="854494" />
	</node>
	<node id="-32237" lat="59.9878514163" lon="11.3243716756">
		<tag k="fixme" v="consider place=hamlet" />
		<tag k="name" v="Skukstad" />
		<tag k="place" v="farm" />
		<tag k="ssr:stedsnr" v="854445" />
	</node>
	<node id="-32236" lat="59.9841083348" lon="11.3304555571">
		<tag k="name" v="Mo" />
		<tag k="place" v="farm" />
		<tag k="ssr:stedsnr" v="854446" />
	</node>
	<node id="-32235" lat="59.9789776566" lon="11.2514236704">
		<tag k="alt_name" v="Orderud" />
		<tag k="fixme" v="consider place=hamlet" />
		<tag k="name" v="Olerud" />
		<tag k="place" v="farm" />
		<tag k="ssr:stedsnr" v="854433" />
	</node>
	<node id="-32234" lat="59.9927027735" lon="11.1410555578">
		<tag k="name" v="Røverhula" />
		<tag k="natural" v="cave_entrance" />
		<tag k="ssr:stedsnr" v="848611" />
	</node>
	<node id="-32233" lat="59.9959416633" lon="11.1311944494">
		<tag k="name" v="Jutulkleiva" />
		<tag k="natural" v="cliff" />
		<tag k="ssr:stedsnr" v="848606" />
	</node>
	<node id="-32232" lat="60.0337277782" lon="11.1594999931">
		<tag k="alt_name" v="Nedre Vilberg Oppigarden" />
		<tag k="name" v="Oppigarden Nedre Vilberg" />
		<tag k="place" v="farm" />
		<tag k="ssr:stedsnr" v="848277" />
	</node>
	<node id="-32231" lat="60.0341277786" lon="11.1597777781">
		<tag k="alt_name" v="Nedre Vilberg Nordgarden" />
		<tag k="name" v="Nordgarden Nedre Vilberg" />
		<tag k="place" v="farm" />
		<tag k="ssr:stedsnr" v="848264" />
	</node>
	<node id="-32230" lat="60.0302027783" lon="11.1951527801">
		<tag k="name" v="Kvennhaugen" />
		<tag k="natural" v="hill" />
		<tag k="place" v="locality" />
		<tag k="ssr:stedsnr" v="848253" />
	</node>
	<node id="-32229" lat="60.0356666701" lon="11.1874361142">
		<tag k="name" v="Søndre Asak" />
		<tag k="place" v="farm" />
		<tag k="ssr:stedsnr" v="848241" />
	</node>
	<node id="-32228" lat="60.0244999993" lon="11.2489805592">
		<tag k="name" v="Skea" />
		<tag k="place" v="farm" />
		<tag k="ssr:stedsnr" v="848231" />
	</node>
	<node id="-32227" lat="60.0218416689" lon="11.2032138812">
		<tag k="name" v="Nyhus" />
		<tag k="place" v="farm" />
		<tag k="ssr:stedsnr" v="846937" />
	</node>
	<node id="-32226" lat="60.0208722206" lon="11.1040333378">
		<tag k="name" v="Nordre Frogner" />
		<tag k="place" v="farm" />
		<tag k="ssr:stedsnr" v="846799" />
	</node>
	<node id="-32225" lat="60.0106222253" lon="11.0971749992">
		<tag k="alt_name" v="Børke Søgarden" />
		<tag k="name" v="Søgarden Børke" />
		<tag k="place" v="farm" />
		<tag k="ssr:stedsnr" v="846794" />
	</node>
	<node id="-32224" lat="60.0003972206" lon="11.316216666">
		<tag k="amenity" v="school" />
		<tag k="name" v="Haugtun skole" />
		<tag k="ssr:stedsnr" v="846786" />
	</node>
	<node id="-32223" lat="59.9861583339" lon="11.3208861037">
		<tag k="name" v="Vestre Skukstad" />
		<tag k="place" v="farm" />
		<tag k="ssr:stedsnr" v="846770" />
	</node>
	<node id="-32222" lat="59.9879944456" lon="11.2389527734">
		<tag k="amenity" v="school" />
		<tag k="name" v="Sørumsand videregående skole" />
		<tag k="ssr:stedsnr" v="846728" />
	</node>
	<node id="-32221" lat="59.990022225" lon="11.2649805646">
		<tag k="landuse" v="industrial" />
		<tag k="name" v="Bingsfoss kraftanlegg" />
		<tag k="power" v="plant" />
		<tag k="ssr:stedsnr" v="846722" />
	</node>
	<node id="-32220" lat="60.0005305585" lon="11.2312638806">
		<tag k="name" v="Bingshagan" />
		<tag k="place" v="locality" />
		<tag k="ssr:stedsnr" v="846702" />
	</node>
	<node id="-32219" lat="59.9936388844" lon="11.1781166724">
		<tag k="name" v="Elghytta" />
		<tag k="place" v="isolated_dwelling" />
		<tag k="ssr:stedsnr" v="846699" />
	</node>
	<node id="-32218" lat="59.9931111095" lon="11.2359472283">
		<tag k="name" v="Elvestad" />
		<tag k="place" v="isolated_dwelling" />
		<tag k="ssr:stedsnr" v="846693" />
	</node>
	<node id="-32217" lat="59.9936388935" lon="11.1862027729">
		<tag k="name" v="Tjennshøgda" />
		<tag k="natural" v="hill" />
		<tag k="place" v="locality" />
		<tag k="ssr:stedsnr" v="846694" />
	</node>
	<node id="-32216" lat="59.9865944485" lon="11.2510500035">
		<tag k="junction" v="yes" />
		<tag k="name" v="Sørumsand" />
		<tag k="place" v="locality" />
		<tag k="ssr:stedsnr" v="846648" />
	</node>
	<node id="-32215" lat="59.986711111" lon="11.2839750053">
		<tag k="amenity" v="school" />
		<tag k="name" v="Fossum gamleskole" />
		<tag k="ssr:stedsnr" v="846647" />
	</node>
	<node id="-32214" lat="59.9851638925" lon="11.2273055588">
		<tag k="name" v="Solgården" />
		<tag k="place" v="farm" />
		<tag k="ssr:stedsnr" v="846645" />
	</node>
	<node id="-32213" lat="59.9016888866" lon="11.3214777747">
		<tag k="name" v="Drøplene" />
		<tag k="natural" v="water" />
		<tag k="ssr:stedsnr" v="846283" />
		<tag k="water" v="pond" />
	</node>
	<node id="-32212" lat="59.8805333317" lon="11.321966661">
		<tag k="name" v="Hulderberget" />
		<tag k="natural" v="hill" />
		<tag k="place" v="locality" />
		<tag k="ssr:stedsnr" v="846278" />
	</node>
	<node id="-32210" lat="59.9267166693" lon="11.2608944422">
		<tag k="name" v="Vanakleivmåsan" />
		<tag k="natural" v="wetland" />
		<tag k="ssr:stedsnr" v="846217" />
	</node>
	<node id="-32209" lat="59.9276777772" lon="11.2796972137">
		<tag k="alt_name" v="Krogstadenga" />
		<tag k="name" v="Krokstadenga" />
		<tag k="place" v="locality" />
		<tag k="ssr:stedsnr" v="846215" />
	</node>
	<node id="-32208" lat="60.0153444489" lon="11.1124833292">
		<tag k="bridge" v="yes" />
		<tag k="layer" v="1" />
		<tag k="name" v="Leirsundveien" />
		<tag k="ssr:stedsnr" v="835040" />
	</node>
	<node id="-32207" lat="60.005363889" lon="11.268666664">
		<tag k="name" v="Vallskog" />
		<tag k="place" v="locality" />
		<tag k="ssr:stedsnr" v="831046" />
	</node>
	<node id="-32206" lat="60.024186108" lon="11.289305553">
		<tag k="ford" v="yes" />
		<tag k="name" v="Steinsvadet" />
		<tag k="place" v="locality" />
		<tag k="ssr:stedsnr" v="831038" />
	</node>
	<node id="-32205" lat="60.0660027743" lon="11.2578250008">
		<tag k="alt_name" v="Egner negarn" />
		<tag k="name" v="Nedgarden Egner" />
		<tag k="place" v="farm" />
		<tag k="ssr:stedsnr" v="829451" />
	</node>
	<node id="-32204" lat="59.9216083356" lon="11.3238527854">
		<tag k="name" v="Tunnerudklubben" />
		<tag k="natural" v="hill" />
		<tag k="place" v="locality" />
		<tag k="ssr:stedsnr" v="829448" />
	</node>
	<node id="-32203" lat="60.0516083339" lon="11.2516861058">
		<tag k="amenity" v="school" />
		<tag k="name" v="Vølneberg skole" />
		<tag k="ssr:stedsnr" v="829440" />
	</node>
	<node id="-32202" lat="60.0521166624" lon="11.2503750023">
		<tag k="junction" v="yes" />
		<tag k="name" v="Vølneberg" />
		<tag k="place" v="locality" />
		<tag k="ssr:stedsnr" v="829439" />
	</node>
	<node id="-32201" lat="59.9749000012" lon="11.226600004">
		<tag k="name" v="Søndre Østby" />
		<tag k="place" v="farm" />
		<tag k="ssr:stedsnr" v="829436" />
	</node>
	<node id="-32200" lat="60.0532222211" lon="11.2868972137">
		<tag k="name" v="Lonehytta" />
		<tag k="place" v="isolated_dwelling" />
		<tag k="ssr:stedsnr" v="829437" />
	</node>
	<node id="-32199" lat="60.0479916644" lon="11.2446861168">
		<tag k="name" v="Tronsbråtan" />
		<tag k="place" v="locality" />
		<tag k="ssr:stedsnr" v="829432" />
	</node>
	<node id="-32198" lat="59.9764777809" lon="11.2091416714">
		<tag k="name" v="Bingen lenser" />
		<tag k="place" v="locality" />
		<tag k="ssr:stedsnr" v="829370" />
	</node>
	<node id="-32197" lat="60.0444416627" lon="11.2447333346">
		<tag k="name" v="Vølnermoen" />
		<tag k="place" v="locality" />
		<tag k="ssr:stedsnr" v="829339" />
	</node>
	<node id="-32196" lat="60.0386861113" lon="11.2854972272">
		<tag k="alt_name" v="Stua" />
		<tag k="name" v="Bølerstua" />
		<tag k="place" v="farm" />
		<tag k="ssr:stedsnr" v="829324" />
	</node>
	<node id="-32195" lat="60.0047111103" lon="11.3617583378">
		<tag k="name" v="Øvre Toreid" />
		<tag k="place" v="locality" />
		<tag k="ssr:stedsnr" v="829154" />
	</node>
	<node id="-32194" lat="60.0243111089" lon="11.3283888919">
		<tag k="name" v="Grønnvoll" />
		<tag k="place" v="farm" />
		<tag k="ssr:stedsnr" v="829155" />
	</node>
	<node id="-32193" lat="60.0106444442" lon="11.1544250014">
		<tag k="fixme" v="consider place=hamlet" />
		<tag k="name" v="Lunderåsen" />
		<tag k="old_name" v="Lundermoen" />
		<tag k="place" v="village" />
		<tag k="ssr:stedsnr" v="814346" />
	</node>
	<node id="-32192" lat="60.0099888898" lon="11.1845555497">
		<tag k="alt_name" v="Sørlilykkja" />
		<tag k="name" v="Sørliløkka" />
		<tag k="place" v="farm" />
		<tag k="ssr:stedsnr" v="794970" />
	</node>
	<node id="-32191" lat="60.0097194438" lon="11.1899916732">
		<tag k="alt_name" v="Sørlibråtan" />
		<tag k="name" v="Sørlibråten" />
		<tag k="place" v="farm" />
		<tag k="ssr:stedsnr" v="794968" />
	</node>
	<node id="-32190" lat="60.0197638862" lon="11.2300305507">
		<tag k="name" v="Lørenfallet" />
		<tag k="place" v="village" />
		<tag k="ssr:stedsnr" v="794930" />
	</node>
	<node id="-32189" lat="60.0131305551" lon="11.3760861027">
		<tag k="name" v="Svardal" />
		<tag k="place" v="farm" />
		<tag k="ssr:stedsnr" v="794916" />
	</node>
	<node id="-32188" lat="60.0127666645" lon="11.3335166618">
		<tag k="name" v="Langeland" />
		<tag k="place" v="farm" />
		<tag k="ssr:stedsnr" v="794913" />
	</node>
	<node id="-32187" lat="60.041963247" lon="11.1079693244">
		<tag k="alt_name" v="Gran, store" />
		<tag k="fixme" v="consider place=hamlet" />
		<tag k="name" v="Store Gran" />
		<tag k="place" v="farm" />
		<tag k="ssr:stedsnr" v="794888" />
	</node>
	<node id="-32186" lat="60.0331138906" lon="11.3436055538">
		<tag k="name" v="Sandnes" />
		<tag k="place" v="farm" />
		<tag k="ssr:stedsnr" v="794879" />
	</node>
	<node id="-32185" lat="60.038800004" lon="11.1375249927">
		<tag k="name" v="Ulverud" />
		<tag k="place" v="farm" />
		<tag k="ssr:stedsnr" v="794870" />
	</node>
	<node id="-32184" lat="59.9100250032" lon="11.2703305629">
		<tag k="alt_name" v="Brennmyrane" />
		<tag k="name" v="Brennmyrene" />
		<tag k="natural" v="wetland" />
		<tag k="ssr:stedsnr" v="794616" />
	</node>
	<node id="-32183" lat="59.9596694439" lon="11.3143333404">
		<tag k="name" v="Fjellet" />
		<tag k="place" v="farm" />
		<tag k="ssr:stedsnr" v="794510" />
	</node>
	<node id="-32182" lat="60.0560378947" lon="11.1088949429">
		<tag k="fixme" v="consider place=hamlet" />
		<tag k="name" v="Fløgstad" />
		<tag k="place" v="farm" />
		<tag k="ssr:stedsnr" v="794023" />
	</node>
	<node id="-32181" lat="60.052444447" lon="11.1392388849">
		<tag k="name" v="Bjørnstad" />
		<tag k="place" v="isolated_dwelling" />
		<tag k="ssr:stedsnr" v="794016" />
	</node>
	<node id="-32180" lat="59.9481618161" lon="11.3297641461">
		<tag k="alt_name" v="Mork, mellom" />
		<tag k="name" v="Mellom-Mork" />
		<tag k="place" v="farm" />
		<tag k="ssr:stedsnr" v="793567" />
	</node>
	<node id="-32179" lat="59.9712583373" lon="11.2183277804">
		<tag k="name" v="Lystad" />
		<tag k="place" v="farm" />
		<tag k="ssr:stedsnr" v="793544" />
	</node>
	<node id="-32178" lat="59.9672555601" lon="11.3241138828">
		<tag k="name" v="Bråten" />
		<tag k="place" v="farm" />
		<tag k="ssr:stedsnr" v="793537" />
	</node>
	<node id="-32177" lat="59.997527778" lon="11.2462333399">
		<tag k="alt_name" v="Bingen, mellom" />
		<tag k="name" v="Mellom-Bingen" />
		<tag k="place" v="farm" />
		<tag k="ssr:stedsnr" v="793528" />
	</node>
	<node id="-32176" lat="59.978372219" lon="11.3150166655">
		<tag k="name" v="Lille Kvevli" />
		<tag k="place" v="farm" />
		<tag k="ssr:stedsnr" v="787613" />
	</node>
	<node id="-32175" lat="60.0000861081" lon="11.1755805554">
		<tag k="name" v="Rundfjellet" />
		<tag k="natural" v="hill" />
		<tag k="place" v="locality" />
		<tag k="ssr:stedsnr" v="787603" />
	</node>
	<node id="-32174" lat="60.0298416655" lon="11.1978944508">
		<tag k="name" v="Asakbekken" />
		<tag k="ssr:stedsnr" v="787237" />
		<tag k="waterway" v="stream" />
	</node>
	<node id="-32173" lat="60.025736107" lon="11.1796361151">
		<tag k="name" v="Knatten" />
		<tag k="place" v="locality" />
		<tag k="ssr:stedsnr" v="787208" />
	</node>
	<node id="-32172" lat="60.0407861132" lon="11.2143888887">
		<tag k="name" v="Engebråtan" />
		<tag k="place" v="farm" />
		<tag k="ssr:stedsnr" v="787205" />
	</node>
	<node id="-32171" lat="60.0131008869" lon="11.2785633302">
		<tag k="alt_name" v="Borgen" />
		<tag k="name" v="Børgen" />
		<tag k="place" v="farm" />
		<tag k="ssr:stedsnr" v="786917" />
	</node>
	<node id="-32170" lat="60.0222472252" lon="11.2015166624">
		<tag k="name" v="Melihagan" />
		<tag k="place" v="farm" />
		<tag k="ssr:stedsnr" v="785955" />
	</node>
	<node id="-32169" lat="60.0211083306" lon="11.2158000029">
		<tag k="junction" v="yes" />
		<tag k="name" v="Nordli" />
		<tag k="place" v="locality" />
		<tag k="ssr:stedsnr" v="785951" />
	</node>
	<node id="-32168" lat="60.0223611136" lon="11.1532111135">
		<tag k="name" v="Hønsihagan" />
		<tag k="place" v="locality" />
		<tag k="ssr:stedsnr" v="785945" />
	</node>
	<node id="-32167" lat="60.0050055596" lon="11.2326583396">
		<tag k="name" v="Søndre Sørum" />
		<tag k="place" v="farm" />
		<tag k="ssr:stedsnr" v="785936" />
	</node>
	<node id="-32166" lat="60.0145777814" lon="11.2196500035">
		<tag k="alt_name" v="Ålgårdshagen;Ålgardshagan" />
		<tag k="name" v="Ålgårdshagan" />
		<tag k="place" v="locality" />
		<tag k="ssr:stedsnr" v="785933" />
	</node>
	<node id="-32165" lat="60.0115972222" lon="11.2109833417">
		<tag k="alt_name" v="Sørli østgarn" />
		<tag k="name" v="Østgarden Sørli" />
		<tag k="place" v="farm" />
		<tag k="ssr:stedsnr" v="785931" />
	</node>
	<node id="-32164" lat="59.9880166677" lon="11.2508777823">
		<tag k="amenity" v="school" />
		<tag k="name" v="Bingsfoss ungdomsskole" />
		<tag k="ssr:stedsnr" v="785712" />
	</node>
	<node id="-32163" lat="59.9147972202" lon="11.3208916686">
		<tag k="name" v="Setermåsan" />
		<tag k="natural" v="wetland" />
		<tag k="ssr:stedsnr" v="785244" />
	</node>
	<node id="-32162" lat="59.9140194484" lon="11.3201555558">
		<tag k="name" v="Svartputtåsen" />
		<tag k="natural" v="hill" />
		<tag k="place" v="locality" />
		<tag k="ssr:stedsnr" v="785234" />
	</node>
	<node id="-32161" lat="60.0292472222" lon="11.062113883">
		<tag k="name" v="Hekseberg terrasse" />
		<tag k="place" v="neighbourhood" />
		<tag k="ssr:stedsnr" v="783109" />
	</node>
	<node id="-32160" lat="59.9834750012" lon="11.306208328">
		<tag k="name" v="Lysaker" />
		<tag k="place" v="farm" />
		<tag k="ssr:stedsnr" v="793493" />
	</node>
	<node id="-32159" lat="59.9876277744" lon="11.4390722165">
		<tag k="name" v="Hauketjern" />
		<tag k="natural" v="water" />
		<tag k="ssr:stedsnr" v="793489" />
	</node>
	<node id="-32158" lat="59.9830388857" lon="11.4146583247">
		<tag k="fixme" v="consider natural=peak for the most distinct mountains in the district" />
		<tag k="name" v="Askhøgda" />
		<tag k="natural" v="hill" />
		<tag k="place" v="locality" />
		<tag k="ssr:stedsnr" v="793487" />
	</node>
	<node id="-32157" lat="59.9745666634" lon="11.3678000027">
		<tag k="name" v="Gran" />
		<tag k="place" v="farm" />
		<tag k="ssr:stedsnr" v="793483" />
	</node>
	<node id="-32156" lat="59.976461111" lon="11.2783388828">
		<tag k="name" v="Monsrud" />
		<tag k="place" v="farm" />
		<tag k="ssr:stedsnr" v="793476" />
	</node>
	<node id="-32155" lat="59.9774249987" lon="11.2556249939">
		<tag k="name" v="Solli" />
		<tag k="place" v="farm" />
		<tag k="ssr:stedsnr" v="793473" />
	</node>
	<node id="-32154" lat="59.9848027769" lon="11.3478499923">
		<tag k="bridge" v="yes" />
		<tag k="layer" v="1" />
		<tag k="name" v="Kjølstad" />
		<tag k="ssr:stedsnr" v="774039" />
	</node>
	<node id="-32153" lat="60.0299972266" lon="11.1145861104">
		<tag k="bridge" v="yes" />
		<tag k="layer" v="1" />
		<tag k="name" v="Mo" />
		<tag k="ssr:stedsnr" v="774037" />
	</node>
	<node id="-32152" lat="60.0039416635" lon="11.3014499969">
		<tag k="amenity" v="nursing_home" />
		<tag k="name" v="Blaker aldershjem" />
		<tag k="ssr:stedsnr" v="770039" />
	</node>
	<node id="-32151" lat="59.9684000039" lon="11.2184055527">
		<tag k="junction" v="yes" />
		<tag k="name" v="Lystad" />
		<tag k="place" v="locality" />
		<tag k="ssr:stedsnr" v="768440" />
	</node>
	<node id="-32149" lat="60.0509305574" lon="11.1081916624">
		<tag k="alt_name" v="Bjørke Vestigarden" />
		<tag k="name" v="Vestigarden Bjørke" />
		<tag k="place" v="locality" />
		<tag k="ssr:stedsnr" v="768395" />
	</node>
	<node id="-32147" lat="60.0560472183" lon="11.2299805625">
		<tag k="name" v="Sæter" />
		<tag k="place" v="farm" />
		<tag k="ssr:stedsnr" v="768385" />
	</node>
	<node id="-32146" lat="60.0557222179" lon="11.1696666632">
		<tag k="name" v="Bjønnmyra" />
		<tag k="natural" v="wetland" />
		<tag k="ssr:stedsnr" v="768382" />
	</node>
	<node id="-32145" lat="59.9779249961" lon="11.2710555641">
		<tag k="name" v="Breiholen" />
		<tag k="place" v="farm" />
		<tag k="ssr:stedsnr" v="768354" />
	</node>
	<node id="-32144" lat="59.9757888848" lon="11.2531111151">
		<tag k="name" v="Fjellet" />
		<tag k="place" v="farm" />
		<tag k="ssr:stedsnr" v="768348" />
	</node>
	<node id="-32143" lat="59.975375004" lon="11.1966472144">
		<tag k="name" v="Kikutåsen" />
		<tag k="natural" v="hill" />
		<tag k="place" v="locality" />
		<tag k="ssr:stedsnr" v="768336" />
	</node>
	<node id="-32142" lat="60.0339805542" lon="11.3291249984">
		<tag k="junction" v="yes" />
		<tag k="name" v="Neslerud" />
		<tag k="place" v="locality" />
		<tag k="ssr:stedsnr" v="768311" />
	</node>
	<node id="-32141" lat="60.0231888894" lon="11.3292972169">
		<tag k="name" v="Fjellvang" />
		<tag k="place" v="farm" />
		<tag k="ssr:stedsnr" v="768153" />
	</node>
	<node id="-32140" lat="59.9352555517" lon="11.324219453">
		<tag k="name" v="Rossdalstjennet" />
		<tag k="natural" v="water" />
		<tag k="ssr:stedsnr" v="767429" />
	</node>
	<node id="-32139" lat="60.0087944448" lon="11.3198527821">
		<tag k="fixme" v="consider place=hamlet" />
		<tag k="name" v="Eid" />
		<tag k="place" v="farm" />
		<tag k="ssr:stedsnr" v="734979" />
	</node>
	<node id="-32138" lat="60.0080666624" lon="11.3438583304">
		<tag k="alt_name" v="Myrmellom" />
		<tag k="name" v="Myrimellom" />
		<tag k="place" v="farm" />
		<tag k="ssr:stedsnr" v="734976" />
	</node>
	<node id="-32137" lat="60.0083638882" lon="11.2964999996">
		<tag k="alt_name" v="Sundet" />
		<tag k="name" v="Blakersundet" />
		<tag k="place" v="farm" />
		<tag k="ssr:stedsnr" v="734960" />
	</node>
	<node id="-32136" lat="60.0015583334" lon="11.3017138821">
		<tag k="alt_name" v="Blaker" />
		<tag k="amenity" v="place_of_worship" />
		<tag k="denomination" v="lutheran" />
		<tag k="name" v="Blaker kirke" />
		<tag k="religion" v="christian" />
		<tag k="ssr:stedsnr" v="734946" />
	</node>
	<node id="-32135" lat="60.0114529129" lon="11.2629056983">
		<tag k="fixme" v="consider place=hamlet" />
		<tag k="name" v="Vall" />
		<tag k="old_name" v="Vald" />
		<tag k="place" v="farm" />
		<tag k="ssr:stedsnr" v="734907" />
	</node>
	<node id="-32134" lat="60.0249444454" lon="11.2331250044">
		<tag k="name" v="Hol" />
		<tag k="place" v="farm" />
		<tag k="ssr:stedsnr" v="733914" />
	</node>
	<node id="-32133" lat="60.0461685788" lon="11.2691691311">
		<tag k="fixme" v="consider place=hamlet" />
		<tag k="name" v="Grindbakken" />
		<tag k="place" v="farm" />
		<tag k="ssr:stedsnr" v="733892" />
	</node>
	<node id="-32132" lat="59.9073666705" lon="11.2880527862">
		<tag k="alt_name" v="Helltjern, nedre;Nedre Helltjennet" />
		<tag k="name" v="Nedre Helltjern" />
		<tag k="natural" v="water" />
		<tag k="ssr:stedsnr" v="733592" />
	</node>
	<node id="-32131" lat="59.9584888849" lon="11.3184666678">
		<tag k="name" v="Åstad" />
		<tag k="place" v="farm" />
		<tag k="ssr:stedsnr" v="733493" />
	</node>
	<node id="-32130" lat="59.9813999988" lon="11.3646666619">
		<tag k="alt_name" v="Berg, nordre" />
		<tag k="name" v="Nordre Berg" />
		<tag k="place" v="farm" />
		<tag k="ssr:stedsnr" v="733413" />
	</node>
	<node id="-32129" lat="60.0553777817" lon="11.1421583358">
		<tag k="name" v="Arteidmoen" />
		<tag k="place" v="farm" />
		<tag k="ssr:stedsnr" v="733025" />
	</node>
	<node id="-32128" lat="60.0557999958" lon="11.2796527727">
		<tag k="alt_name" v="Søtjennet" />
		<tag k="name" v="Søltjernet" />
		<tag k="natural" v="water" />
		<tag k="ssr:stedsnr" v="733011" />
	</node>
	<node id="-32127" lat="59.8976611143" lon="11.2794277701">
		<tag k="alt_name" v="Mjøsjøen, søndre" />
		<tag k="name" v="Søndre Mjøsjøen" />
		<tag k="natural" v="water" />
		<tag k="ssr:stedsnr" v="732666" />
	</node>
	<node id="-32126" lat="59.9444933843" lon="11.3167299984">
		<tag k="fixme" v="consider natural=peak for the most distinct mountains in the district" />
		<tag k="name" v="Vestmorkåsen" />
		<tag k="natural" v="hill" />
		<tag k="place" v="locality" />
		<tag k="ssr:stedsnr" v="732588" />
	</node>
	<node id="-32125" lat="59.994391882" lon="11.3174719122">
		<tag k="name" v="Huseby" />
		<tag k="place" v="hamlet" />
		<tag k="ssr:stedsnr" v="732532" />
	</node>
	<node id="-32124" lat="59.9936388851" lon="11.2231388863">
		<tag k="name" v="Solberg" />
		<tag k="place" v="farm" />
		<tag k="ssr:stedsnr" v="732515" />
	</node>
	<node id="-32123" lat="59.9862083299" lon="11.2415388871">
		<tag k="name" v="Sørumsand" />
		<tag k="place" v="village" />
		<tag k="ssr:stedsnr" v="732513" />
	</node>
	<node id="-32122" lat="59.9842583308" lon="11.2968916667">
		<tag k="name" v="Hagen" />
		<tag k="place" v="farm" />
		<tag k="ssr:stedsnr" v="732505" />
	</node>
	<node id="-32121" lat="59.9945027803" lon="11.3335749918">
		<tag k="alt_name" v="Skauen" />
		<tag k="name" v="Skogen" />
		<tag k="place" v="farm" />
		<tag k="ssr:stedsnr" v="732501" />
	</node>
	<node id="-32120" lat="59.976766667" lon="11.3805583333">
		<tag k="name" v="Nyborg" />
		<tag k="place" v="farm" />
		<tag k="ssr:stedsnr" v="726626" />
	</node>
	<node id="-32119" lat="59.965211115" lon="11.3797638843">
		<tag k="name" v="Sandbakk" />
		<tag k="place" v="farm" />
		<tag k="ssr:stedsnr" v="726616" />
	</node>
	<node id="-32118" lat="60.0296666637" lon="11.1649972201">
		<tag k="name" v="Hønsibekken" />
		<tag k="ssr:stedsnr" v="726260" />
		<tag k="waterway" v="stream" />
	</node>
	<node id="-32117" lat="60.0305750021" lon="11.0936277858">
		<tag k="name" v="Melvoll" />
		<tag k="place" v="locality" />
		<tag k="ssr:stedsnr" v="726236" />
	</node>
	<node id="-32116" lat="60.0405944443" lon="11.2114666731">
		<tag k="alt_name" v="Smedstun" />
		<tag k="name" v="Smedstuen" />
		<tag k="place" v="isolated_dwelling" />
		<tag k="ssr:stedsnr" v="726217" />
	</node>
	<node id="-32115" lat="59.9874361156" lon="11.2553916689">
		<tag k="name" v="Fynsand" />
		<tag k="natural" v="beach" />
		<tag k="ssr:stedsnr" v="725684" />
	</node>
	<node id="-32114" lat="59.9931888915" lon="11.1830194361">
		<tag k="name" v="Smedsrudvika" />
		<tag k="natural" v="bay" />
		<tag k="ssr:stedsnr" v="725663" />
	</node>
	<node id="-32113" lat="60.0220527757" lon="11.2227888854">
		<tag k="name" v="Høgstad" />
		<tag k="place" v="farm" />
		<tag k="ssr:stedsnr" v="724961" />
	</node>
	<node id="-32112" lat="60.0207444466" lon="11.0962194414">
		<tag k="name" v="Børkefeltet" />
		<tag k="place" v="quarter" />
		<tag k="ssr:stedsnr" v="724803" />
	</node>
	<node id="-32111" lat="60.0173833309" lon="11.1037055471">
		<tag k="name" v="Søndre Frogner" />
		<tag k="place" v="farm" />
		<tag k="ssr:stedsnr" v="724790" />
	</node>
	<node id="-32110" lat="59.9895416641" lon="11.3740333306">
		<tag k="name" v="Hagen" />
		<tag k="place" v="farm" />
		<tag k="ssr:stedsnr" v="724785" />
	</node>
	<node id="-32109" lat="59.9986027795" lon="11.3068361194">
		<tag k="junction" v="yes" />
		<tag k="name" v="Fossmo" />
		<tag k="place" v="locality" />
		<tag k="ssr:stedsnr" v="724776" />
	</node>
	<node id="-32108" lat="59.9915083315" lon="11.2995444366">
		<tag k="name" v="Haglund" />
		<tag k="place" v="farm" />
		<tag k="ssr:stedsnr" v="724772" />
	</node>
	<node id="-32107" lat="60.002711107" lon="11.263105549">
		<tag k="name" v="Vallsmoen" />
		<tag k="place" v="locality" />
		<tag k="ssr:stedsnr" v="724768" />
	</node>
	<node id="-32106" lat="59.9941972248" lon="11.2719027855">
		<tag k="name" v="Bjønnskollen" />
		<tag k="natural" v="hill" />
		<tag k="place" v="locality" />
		<tag k="ssr:stedsnr" v="724764" />
	</node>
	<node id="-32105" lat="59.9224916639" lon="11.3302694466">
		<tag k="name" v="Kanamåsan" />
		<tag k="natural" v="wetland" />
		<tag k="ssr:stedsnr" v="724254" />
	</node>
	<node id="-32104" lat="59.9116583339" lon="11.3206194523">
		<tag k="name" v="Svartputten" />
		<tag k="natural" v="water" />
		<tag k="ssr:stedsnr" v="724216" />
		<tag k="water" v="pond" />
	</node>
	<node id="-32103" lat="60.0240333358" lon="11.0731305571">
		<tag k="bridge" v="yes" />
		<tag k="layer" v="1" />
		<tag k="name" v="Fjellbo" />
		<tag k="ssr:stedsnr" v="713041" />
	</node>
	<node id="-32102" lat="60.0207416667" lon="11.165405555">
		<tag k="bridge" v="yes" />
		<tag k="layer" v="1" />
		<tag k="name" v="Vesterskaun" />
		<tag k="ssr:stedsnr" v="713032" />
	</node>
	<node id="-32101" lat="60.0274833291" lon="11.0921944475">
		<tag k="bridge" v="yes" />
		<tag k="layer" v="1" />
		<tag k="name" v="Stygdalen" />
		<tag k="ssr:stedsnr" v="713030" />
	</node>
	<node id="-32100" lat="60.0295694406" lon="11.2254861081">
		<tag k="name" v="Holsbekken" />
		<tag k="ssr:stedsnr" v="709049" />
		<tag k="waterway" v="stream" />
	</node>
	<node id="-32099" lat="60.0214194455" lon="11.2689416647">
		<tag k="name" v="Brenna" />
		<tag k="place" v="locality" />
		<tag k="ssr:stedsnr" v="709022" />
	</node>
	<node id="-32098" lat="59.9445055586" lon="11.3360750077">
		<tag k="name" v="Kroken" />
		<tag k="place" v="locality" />
		<tag k="ssr:stedsnr" v="707449" />
	</node>
	<node id="-32097" lat="59.9337361136" lon="11.3042611101">
		<tag k="name" v="Lauvhyttåsen" />
		<tag k="natural" v="hill" />
		<tag k="place" v="locality" />
		<tag k="ssr:stedsnr" v="707446" />
	</node>
	<node id="-32096" lat="60.0694138856" lon="11.2647972298">
		<tag k="name" v="Nordre Egner" />
		<tag k="place" v="farm" />
		<tag k="ssr:stedsnr" v="707440" />
	</node>
	<node id="-32095" lat="60.0468222205" lon="11.2867250011">
		<tag k="name" v="Øvre Julton" />
		<tag k="place" v="farm" />
		<tag k="ssr:stedsnr" v="707436" />
	</node>
	<node id="-32094" lat="59.9767444413" lon="11.2130472241">
		<tag k="name" v="Vatterudevja" />
		<tag k="natural" v="bay" />
		<tag k="ssr:stedsnr" v="707390" />
	</node>
	<node id="-32093" lat="60.0462749997" lon="11.2741333295">
		<tag k="name" v="Bognerudlia" />
		<tag k="natural" v="slope" />
		<tag k="place" v="locality" />
		<tag k="ssr:stedsnr" v="707332" />
	</node>
	<node id="-32092" lat="60.0049388863" lon="11.3458972189">
		<tag k="name" v="Bakås" />
		<tag k="place" v="farm" />
		<tag k="ssr:stedsnr" v="707176" />
	</node>
	<node id="-32091" lat="60.013897226" lon="11.3356416706">
		<tag k="amenity" v="community_centre" />
		<tag k="name" v="Betania" />
		<tag k="ssr:stedsnr" v="707172" />
	</node>
	<node id="-32090" lat="60.0117333376" lon="11.3853694381">
		<tag k="name" v="Åmot" />
		<tag k="place" v="farm" />
		<tag k="ssr:stedsnr" v="707166" />
	</node>
	<node id="-32089" lat="60.0199361112" lon="11.3612638829">
		<tag k="fixme" v="consider natural=peak for the most distinct mountains in the district" />
		<tag k="name" v="Svarstdåsen" />
		<tag k="natural" v="hill" />
		<tag k="place" v="locality" />
		<tag k="ssr:stedsnr" v="707165" />
	</node>
	<node id="-32088" lat="60.0055194405" lon="11.389100002">
		<tag k="name" v="Nybakk" />
		<tag k="place" v="farm" />
		<tag k="ssr:stedsnr" v="707163" />
	</node>
	<node id="-32087" lat="60.0330916693" lon="11.1154916741">
		<tag k="name" v="Nordre Mo" />
		<tag k="place" v="farm" />
		<tag k="ssr:stedsnr" v="707160" />
	</node>
	<node id="-32086" lat="60.0052194405" lon="11.3059500064">
		<tag k="name" v="Blaker skanse" />
		<tag k="place" v="locality" />
		<tag k="ssr:stedsnr" v="692725" />
	</node>
	<node id="-32085" lat="59.9547444474" lon="11.3579000028">
		<tag k="name" v="Kville" />
		<tag k="place" v="farm" />
		<tag k="ssr:stedsnr" v="693561" />
	</node>
	<node id="-32084" lat="60.0062611138" lon="11.4097305538">
		<tag k="name" v="Bøss" />
		<tag k="place" v="farm" />
		<tag k="ssr:stedsnr" v="673964" />
	</node>
	<node id="-32083" lat="60.0066253848" lon="11.2345366833">
		<tag k="alt_name" v="Sørum" />
		<tag k="amenity" v="place_of_worship" />
		<tag k="denomination" v="lutheran" />
		<tag k="name" v="Sørum kirke" />
		<tag k="religion" v="christian" />
		<tag k="ssr:stedsnr" v="673958" />
	</node>
	<node id="-32082" lat="59.9135305534" lon="11.2857583349">
		<tag k="alt_name" v="Mjøsjøen, nordre" />
		<tag k="name" v="Nordre Mjøsjøen" />
		<tag k="natural" v="water" />
		<tag k="ssr:stedsnr" v="672592" />
		<tag k="water" v="lake" />
	</node>
	<node id="-32081" lat="59.92327222" lon="11.2606972234">
		<tag k="fixme" v="consider natural=peak for the most distinct mountains in the district" />
		<tag k="name" v="Vanakleiv" />
		<tag k="natural" v="hill" />
		<tag k="place" v="locality" />
		<tag k="ssr:stedsnr" v="672577" />
	</node>
	<node id="-32080" lat="59.9516749981" lon="11.2646861046">
		<tag k="alt_name" v="Svarttjennet" />
		<tag k="name" v="Svarttjern" />
		<tag k="natural" v="water" />
		<tag k="ssr:stedsnr" v="672503" />
	</node>
	<node id="-32079" lat="59.9571583347" lon="11.2599083394">
		<tag k="alt_name" v="Breidmåsan" />
		<tag k="name" v="Breimåsan" />
		<tag k="natural" v="wetland" />
		<tag k="ssr:stedsnr" v="672502" />
	</node>
	<node id="-32078" lat="59.9857194478" lon="11.3647777833">
		<tag k="alt_name" v="Løkka" />
		<tag k="name" v="Lykkja" />
		<tag k="place" v="farm" />
		<tag k="ssr:stedsnr" v="672431" />
	</node>
	<node id="-32077" lat="59.9787750008" lon="11.3807916615">
		<tag k="name" v="Husmo" />
		<tag k="place" v="farm" />
		<tag k="ssr:stedsnr" v="672423" />
	</node>
	<node id="-32076" lat="59.976408331" lon="11.3671249913">
		<tag k="name" v="Bjørnstad" />
		<tag k="place" v="farm" />
		<tag k="ssr:stedsnr" v="672424" />
	</node>
	<node id="-32075" lat="59.9827805513" lon="11.33398888">
		<tag k="name" v="Fossåa" />
		<tag k="old_name" v="Åa" />
		<tag k="ssr:stedsnr" v="672415" />
		<tag k="waterway" v="river" />
	</node>
	<node id="-32074" lat="60.0202638867" lon="11.0790277785">
		<tag k="fixme" v="multiple name tags, choose one and add the other to alt_name" />
		<tag k="name" v="Dyreheimen;Heimen" />
		<tag k="place" v="farm" />
		<tag k="ssr:stedsnr" v="672345" />
	</node>
	<node id="-32073" lat="59.9952194441" lon="11.1424111053">
		<tag k="fixme" v="consider natural=peak for the most distinct mountains in the district" />
		<tag k="name" v="Ausenfjellet" />
		<tag k="natural" v="hill" />
		<tag k="place" v="locality" />
		<tag k="ssr:stedsnr" v="671504" />
	</node>
	<node id="-32072" lat="59.9922777818" lon="11.2086527771">
		<tag k="name" v="Rømua" />
		<tag k="ssr:stedsnr" v="671500" />
		<tag k="waterway" v="river" />
	</node>
	<node id="-32071" lat="59.9986777798" lon="11.2615194456">
		<tag k="alt_name" v="Bråten" />
		<tag k="name" v="Bråtan" />
		<tag k="place" v="farm" />
		<tag k="ssr:stedsnr" v="671497" />
	</node>
	<node id="-32070" lat="59.9701583345" lon="11.3558916748">
		<tag k="name" v="Nordli" />
		<tag k="place" v="farm" />
		<tag k="ssr:stedsnr" v="666593" />
	</node>
	<node id="-32069" lat="59.9755638895" lon="11.3453972187">
		<tag k="name" v="Kauserudåa" />
		<tag k="ssr:stedsnr" v="666575" />
		<tag k="waterway" v="river" />
	</node>
	<node id="-32068" lat="59.9773055548" lon="11.31904723">
		<tag k="name" v="Store Kvevli" />
		<tag k="place" v="farm" />
		<tag k="ssr:stedsnr" v="666573" />
	</node>
	<node id="-32067" lat="60.0312305525" lon="11.1595888924">
		<tag k="alt_name" v="Nedre Vilberg Negarden" />
		<tag k="name" v="Nedgarden Nedre Vilberg" />
		<tag k="place" v="farm" />
		<tag k="ssr:stedsnr" v="665276" />
	</node>
	<node id="-32066" lat="60.0339027774" lon="11.1553277821">
		<tag k="alt_name" v="Nedre Vilberg Vestigarden" />
		<tag k="name" v="Vestigarden Nedre Vilberg" />
		<tag k="place" v="farm" />
		<tag k="ssr:stedsnr" v="665270" />
	</node>
	<node id="-32065" lat="60.0359277735" lon="11.1694277691">
		<tag k="name" v="Vilbergsbekken" />
		<tag k="ssr:stedsnr" v="665259" />
		<tag k="waterway" v="stream" />
	</node>
	<node id="-32064" lat="60.0428500021" lon="11.2230749965">
		<tag k="name" v="Mjønerudfossen" />
		<tag k="natural" v="waterfall" />
		<tag k="ssr:stedsnr" v="665246" />
	</node>
	<node id="-32063" lat="60.0334361135" lon="11.227900006">
		<tag k="name" v="Jordet" />
		<tag k="place" v="farm" />
		<tag k="ssr:stedsnr" v="665237" />
	</node>
	<node id="-32062" lat="60.0267972245" lon="11.237469443">
		<tag k="name" v="Vesle Skea" />
		<tag k="place" v="farm" />
		<tag k="ssr:stedsnr" v="665231" />
	</node>
	<node id="-32060" lat="60.0302444486" lon="11.2823111025">
		<tag k="name" v="Nylenna" />
		<tag k="place" v="locality" />
		<tag k="ssr:stedsnr" v="665214" />
	</node>
	<node id="-32059" lat="59.9883166647" lon="11.1799888832">
		<tag k="name" v="Pussemyra" />
		<tag k="natural" v="wetland" />
		<tag k="ssr:stedsnr" v="664709" />
	</node>
	<node id="-32058" lat="60.023502778" lon="11.1875666578">
		<tag k="name" v="Sørvall" />
		<tag k="place" v="farm" />
		<tag k="ssr:stedsnr" v="663944" />
	</node>
	<node id="-32057" lat="60.0240194413" lon="11.2131222283">
		<tag k="name" v="Vestre Nordli" />
		<tag k="place" v="farm" />
		<tag k="ssr:stedsnr" v="663939" />
	</node>
	<node id="-32056" lat="60.0059083343" lon="11.234011114">
		<tag k="name" v="Nordre Sørum" />
		<tag k="place" v="farm" />
		<tag k="ssr:stedsnr" v="663924" />
	</node>
	<node id="-32055" lat="60.0122694458" lon="11.2099694507">
		<tag k="alt_name" v="Sørli nordgarn" />
		<tag k="name" v="Nordgarden Sørli" />
		<tag k="place" v="farm" />
		<tag k="ssr:stedsnr" v="663922" />
	</node>
	<node id="-32054" lat="60.0047611082" lon="11.1747944381">
		<tag k="name" v="Dammyra" />
		<tag k="natural" v="wetland" />
		<tag k="ssr:stedsnr" v="663919" />
	</node>
	<node id="-32053" lat="60.0207333304" lon="11.1343888801">
		<tag k="alt_name" v="Yssi Nordgarden" />
		<tag k="name" v="Nordgarden Yssi" />
		<tag k="place" v="farm" />
		<tag k="ssr:stedsnr" v="663914" />
	</node>
	<node id="-32052" lat="60.0122861071" lon="11.136947217">
		<tag k="name" v="Skrøverhagan" />
		<tag k="place" v="farm" />
		<tag k="ssr:stedsnr" v="663910" />
	</node>
	<node id="-32051" lat="60.0050916658" lon="11.1043750081">
		<tag k="alt_name" v="Leirud østre" />
		<tag k="name" v="Østre Leirud" />
		<tag k="place" v="farm" />
		<tag k="ssr:stedsnr" v="663795" />
	</node>
	<node id="-32050" lat="59.9848555536" lon="11.3714583386">
		<tag k="name" v="Nyhus" />
		<tag k="place" v="farm" />
		<tag k="ssr:stedsnr" v="663784" />
	</node>
	<node id="-32049" lat="59.8868472225" lon="11.2985472186">
		<tag k="name" v="Vangshøgda" />
		<tag k="natural" v="hill" />
		<tag k="place" v="locality" />
		<tag k="ssr:stedsnr" v="663291" />
	</node>
	<node id="-32048" lat="59.8941944418" lon="11.3042750057">
		<tag k="name" v="Ulvegårdsmyrene" />
		<tag k="natural" v="wetland" />
		<tag k="ssr:stedsnr" v="663290" />
	</node>
	<node id="-32047" lat="59.9382249962" lon="11.2555388955">
		<tag k="name" v="Varsjøbråtan" />
		<tag k="place" v="locality" />
		<tag k="ssr:stedsnr" v="663264" />
	</node>
	<node id="-32046" lat="59.9108527792" lon="11.2755388965">
		<tag k="name" v="Mjøsjøåsen" />
		<tag k="natural" v="ridge" />
		<tag k="place" v="locality" />
		<tag k="ssr:stedsnr" v="663249" />
	</node>
	<node id="-32045" lat="59.9209861124" lon="11.2780944443">
		<tag k="name" v="Sandhaug" />
		<tag k="place" v="locality" />
		<tag k="ssr:stedsnr" v="663244" />
	</node>
	<node id="-32044" lat="60.0338416634" lon="11.3390361031">
		<tag k="bridge" v="yes" />
		<tag k="layer" v="1" />
		<tag k="name" v="Sandnesenga" />
		<tag k="ssr:stedsnr" v="652028" />
	</node>
	<node id="-32043" lat="60.0088722207" lon="11.290186115">
		<tag k="name" v="Blakersund" />
		<tag k="place" v="farm" />
		<tag k="ssr:stedsnr" v="648039" />
	</node>
	<node id="-32042" lat="60.0231249983" lon="11.2731888815">
		<tag k="name" v="Brudalen" />
		<tag k="natural" v="valley" />
		<tag k="place" v="locality" />
		<tag k="ssr:stedsnr" v="648037" />
	</node>
	<node id="-32041" lat="60.0079722232" lon="11.2689888954">
		<tag k="name" v="Veiby" />
		<tag k="place" v="farm" />
		<tag k="ssr:stedsnr" v="648023" />
	</node>
	<node id="-32040" lat="60.0231333357" lon="11.2559055552">
		<tag k="name" v="Skeamoen" />
		<tag k="place" v="locality" />
		<tag k="ssr:stedsnr" v="648021" />
	</node>
	<node id="-32038" lat="59.9291638888" lon="11.3273722302">
		<tag k="name" v="Mattisfalldalen" />
		<tag k="natural" v="valley" />
		<tag k="place" v="locality" />
		<tag k="ssr:stedsnr" v="646426" />
	</node>
	<node id="-32037" lat="59.972219445" lon="11.2247694439">
		<tag k="name" v="Bjørkeli" />
		<tag k="place" v="isolated_dwelling" />
		<tag k="ssr:stedsnr" v="646419" />
	</node>
	<node id="-32036" lat="59.9613055554" lon="11.3226749959">
		<tag k="name" v="Ringstad" />
		<tag k="place" v="farm" />
		<tag k="ssr:stedsnr" v="646362" />
	</node>
	<node id="-32035" lat="60.0417722183" lon="11.2966666639">
		<tag k="name" v="Hellesjøbekken" />
		<tag k="ssr:stedsnr" v="646323" />
		<tag k="waterway" v="stream" />
	</node>
	<node id="-32034" lat="60.0353333321" lon="11.3197388863">
		<tag k="fixme" v="consider natural=peak for the most distinct mountains in the district" />
		<tag k="name" v="Neslerudåsen" />
		<tag k="natural" v="hill" />
		<tag k="place" v="locality" />
		<tag k="ssr:stedsnr" v="646320" />
	</node>
	<node id="-32033" lat="60.0330805583" lon="11.3388638877">
		<tag k="name" v="Sandnesenga" />
		<tag k="place" v="farm" />
		<tag k="ssr:stedsnr" v="646319" />
	</node>
	<node id="-32032" lat="60.0381861138" lon="11.2665388906">
		<tag k="name" v="Østre Bøler" />
		<tag k="place" v="farm" />
		<tag k="ssr:stedsnr" v="646314" />
	</node>
	<node id="-32031" lat="60.0063194433" lon="11.3389833256">
		<tag k="name" v="Myrmellom" />
		<tag k="place" v="farm" />
		<tag k="ssr:stedsnr" v="646155" />
	</node>
	<node id="-32030" lat="60.0354388852" lon="11.1030388961">
		<tag k="junction" v="yes" />
		<tag k="name" v="Gran" />
		<tag k="place" v="locality" />
		<tag k="ssr:stedsnr" v="646139" />
	</node>
	<node id="-32029" lat="60.041663886" lon="11.1102222296">
		<tag k="name" v="Store Gran" />
		<tag k="place" v="farm" />
		<tag k="ssr:stedsnr" v="646132" />
	</node>
	<node id="-32028" lat="60.0310388877" lon="11.1175694378">
		<tag k="name" v="Søndre Mo" />
		<tag k="place" v="farm" />
		<tag k="ssr:stedsnr" v="646133" />
	</node>
	<node id="-32027" lat="60.0041055582" lon="11.3401527708">
		<tag k="name" v="Nordby" />
		<tag k="place" v="farm" />
		<tag k="ssr:stedsnr" v="646157" />
	</node>
	<node id="-32026" lat="60.0241055591" lon="11.0830055481">
		<tag k="name" v="Høybo" />
		<tag k="place" v="farm" />
		<tag k="ssr:stedsnr" v="632399" />
	</node>
	<node id="-32025" lat="60.0013470017" lon="11.357900636">
		<tag k="fixme" v="consider place=hamlet" />
		<tag k="name" v="Toreid" />
		<tag k="place" v="farm" />
		<tag k="ssr:stedsnr" v="612963" />
	</node>
	<node id="-32024" lat="60.0108194464" lon="11.1420194419">
		<tag k="name" v="Kamphus" />
		<tag k="place" v="farm" />
		<tag k="ssr:stedsnr" v="612960" />
	</node>
	<node id="-32023" lat="60.0244722249" lon="11.3213111064">
		<tag k="name" v="Fossberg" />
		<tag k="place" v="locality" />
		<tag k="ssr:stedsnr" v="612938" />
	</node>
	<node id="-32022" lat="60.0216722214" lon="11.2949472294">
		<tag k="name" v="Moen" />
		<tag k="place" v="farm" />
		<tag k="ssr:stedsnr" v="612937" />
	</node>
	<node id="-32021" lat="60.0270083351" lon="11.1644805488">
		<tag k="name" v="Haugen" />
		<tag k="place" v="farm" />
		<tag k="ssr:stedsnr" v="612934" />
	</node>
	<node id="-32020" lat="60.0173555567" lon="11.3812305597">
		<tag k="name" v="Tronrud" />
		<tag k="place" v="farm" />
		<tag k="ssr:stedsnr" v="612930" />
	</node>
	<node id="-32019" lat="60.0146361091" lon="11.2348694378">
		<tag k="name" v="Huseby" />
		<tag k="place" v="farm" />
		<tag k="ssr:stedsnr" v="612925" />
	</node>
	<node id="-32018" lat="60.0204277792" lon="11.1483138949">
		<tag k="name" v="Hønsiholtet" />
		<tag k="natural" v="cave_entrance" />
		<tag k="ssr:stedsnr" v="612920" />
	</node>
	<node id="-32017" lat="60.0374166656" lon="11.0949416639">
		<tag k="name" v="Semmerud" />
		<tag k="place" v="farm" />
		<tag k="ssr:stedsnr" v="612914" />
	</node>
	<node id="-32016" lat="60.0395999973" lon="11.3074138878">
		<tag k="name" v="Torbjørnsrud" />
		<tag k="place" v="farm" />
		<tag k="ssr:stedsnr" v="612911" />
	</node>
	<node id="-32015" lat="60.0364833374" lon="11.2139749936">
		<tag k="name" v="Asakenga" />
		<tag k="place" v="farm" />
		<tag k="ssr:stedsnr" v="612887" />
	</node>
	<node id="-32014" lat="60.0325728164" lon="11.2288301368">
		<tag k="name" v="Norum" />
		<tag k="place" v="hamlet" />
		<tag k="ssr:stedsnr" v="612885" />
	</node>
	<node id="-32013" lat="60.0474316464" lon="11.0766130578">
		<tag k="alt_name" v="Hekseberg, øvre;Hekseberg;Hekseberg øvre;Hekseberg" />
		<tag k="name" v="Øvre Hekseberg" />
		<tag k="old_name" v="Hexeberg" />
		<tag k="place" v="farm" />
		<tag k="ssr:stedsnr" v="612475" />
	</node>
	<node id="-32012" lat="60.0419805539" lon="11.0904194404">
		<tag k="name" v="Søndre Hekseberg" />
		<tag k="old_name" v="Hexeberg søndre;Hexeberg S;Hekseberg, nedre;Nedre Hekseberg" />
		<tag k="place" v="farm" />
		<tag k="ssr:stedsnr" v="612473" />
	</node>
	<node id="-32011" lat="60.0455277781" lon="11.305058331">
		<tag k="alt_name" v="Hellesjøtjennet" />
		<tag k="name" v="Hellesjøtjernet" />
		<tag k="natural" v="water" />
		<tag k="ssr:stedsnr" v="612032" />
	</node>
	<node id="-32010" lat="60.052477729" lon="11.2449767978">
		<tag k="fixme" v="consider place=hamlet" />
		<tag k="name" v="Vølneberg" />
		<tag k="place" v="farm" />
		<tag k="ssr:stedsnr" v="612025" />
	</node>
	<node id="-32009" lat="59.9275166631" lon="11.3377249993">
		<tag k="alt_name" v="Liåsen" />
		<tag k="fixme" v="consider natural=peak for the most distinct mountains in the district" />
		<tag k="name" v="Liaåsen" />
		<tag k="natural" v="hill" />
		<tag k="place" v="locality" />
		<tag k="ssr:stedsnr" v="611589" />
	</node>
	<node id="-32008" lat="59.9302027765" lon="11.2990555518">
		<tag k="fixme" v="multiple name tags, choose one and add the other to alt_name" />
		<tag k="name" v="Killingmyra;Kjellermyra" />
		<tag k="natural" v="wetland" />
		<tag k="ssr:stedsnr" v="611569" />
	</node>
	<node id="-32007" lat="59.966419445" lon="11.2272472285">
		<tag k="name" v="Åsheim" />
		<tag k="place" v="isolated_dwelling" />
		<tag k="ssr:stedsnr" v="611529" />
	</node>
	<node id="-32006" lat="59.9553416674" lon="11.3302638893">
		<tag k="alt_name" v="Jødal lille" />
		<tag k="fixme" v="multiple name tags, choose one and add the other to alt_name" />
		<tag k="name" v="Jødal;Lille Jødal" />
		<tag k="place" v="farm" />
		<tag k="ssr:stedsnr" v="611518" />
	</node>
	<node id="-32005" lat="59.9659333316" lon="11.3172999955">
		<tag k="name" v="Rundtom" />
		<tag k="place" v="farm" />
		<tag k="ssr:stedsnr" v="611501" />
	</node>
	<node id="-32004" lat="59.9967638928" lon="11.3418055603">
		<tag k="name" v="Skukstadmåsan" />
		<tag k="natural" v="wetland" />
		<tag k="ssr:stedsnr" v="611475" />
	</node>
	<node id="-32003" lat="59.9786833294" lon="11.2872527727">
		<tag k="fixme" v="multiple name tags, choose one and add the other to alt_name" />
		<tag k="name" v="Snekkerbråten;Sørli" />
		<tag k="place" v="farm" />
		<tag k="ssr:stedsnr" v="611447" />
	</node>
	<node id="-32002" lat="59.9901666686" lon="11.1648166685">
		<tag k="name" v="Bjønnmyra" />
		<tag k="natural" v="wetland" />
		<tag k="ssr:stedsnr" v="605601" />
	</node>
	<node id="-32001" lat="59.999649997" lon="11.1367416654">
		<tag k="name" v="Hellefjellet" />
		<tag k="place" v="locality" />
		<tag k="ssr:stedsnr" v="605582" />
	</node>
	<node id="-32000" lat="60.032811108" lon="11.1671777795">
		<tag k="name" v="Hesthagan" />
		<tag k="place" v="locality" />
		<tag k="ssr:stedsnr" v="605273" />
	</node>
	<node id="-31999" lat="60.029172218" lon="11.1949416672">
		<tag k="name" v="Kvennfossen" />
		<tag k="natural" v="waterfall" />
		<tag k="ssr:stedsnr" v="605255" />
	</node>
	<node id="-31998" lat="60.0351017572" lon="11.2327499886">
		<tag k="name" v="Norumsteiet" />
		<tag k="place" v="farm" />
		<tag k="ssr:stedsnr" v="605246" />
	</node>
	<node id="-31997" lat="60.0372555584" lon="11.1880083317">
		<tag k="name" v="Søndre Asak" />
		<tag k="place" v="farm" />
		<tag k="ssr:stedsnr" v="605236" />
	</node>
	<node id="-31996" lat="60.0298416661" lon="11.2538833346">
		<tag k="name" v="Åsgårddalen" />
		<tag k="natural" v="valley" />
		<tag k="place" v="locality" />
		<tag k="ssr:stedsnr" v="605228" />
	</node>
	<node id="-31995" lat="60.0472198473" lon="11.0747016698">
		<tag k="fixme" v="consider place=hamlet" />
		<tag k="name" v="Hekseberg" />
		<tag k="place" v="farm" />
		<tag k="ssr:stedsnr" v="604866" />
	</node>
	<node id="-31994" lat="59.9913138862" lon="11.2110083359">
		<tag k="name" v="Tangen" />
		<tag k="place" v="farm" />
		<tag k="ssr:stedsnr" v="603684" />
	</node>
	<node id="-31993" lat="59.991925002" lon="11.194286117">
		<tag k="name" v="Elgmyra" />
		<tag k="natural" v="wetland" />
		<tag k="ssr:stedsnr" v="603682" />
	</node>
	<node id="-31992" lat="60.0180499981" lon="11.1607388849">
		<tag k="name" v="Hønsimoen" />
		<tag k="place" v="farm" />
		<tag k="ssr:stedsnr" v="602930" />
	</node>
	<node id="-31991" lat="60.0114944411" lon="11.2063999978">
		<tag k="alt_name" v="Nystun" />
		<tag k="name" v="Nystuen" />
		<tag k="place" v="farm" />
		<tag k="ssr:stedsnr" v="602922" />
	</node>
	<node id="-31990" lat="60.0100361094" lon="11.2048694371">
		<tag k="name" v="Teie" />
		<tag k="place" v="farm" />
		<tag k="ssr:stedsnr" v="602917" />
	</node>
	<node id="-31989" lat="60.0111333349" lon="11.1343083249">
		<tag k="alt_name" v="Ausen Nordigarden" />
		<tag k="name" v="Nordigarden Ausen" />
		<tag k="place" v="farm" />
		<tag k="ssr:stedsnr" v="602904" />
	</node>
	<node id="-31988" lat="60.0146194453" lon="11.1474694482">
		<tag k="name" v="Nordre Vestby" />
		<tag k="place" v="farm" />
		<tag k="ssr:stedsnr" v="602902" />
	</node>
	<node id="-31987" lat="60.013466665" lon="11.1489194376">
		<tag k="name" v="Yssimoen" />
		<tag k="place" v="farm" />
		<tag k="ssr:stedsnr" v="602901" />
	</node>
	<node id="-31986" lat="59.9901100492" lon="11.3856891893">
		<tag k="name" v="Fjuk" />
		<tag k="place" v="farm" />
		<tag k="ssr:stedsnr" v="602798" />
	</node>
	<node id="-31985" lat="60.0012249979" lon="11.3827277764">
		<tag k="name" v="Haugen" />
		<tag k="place" v="farm" />
		<tag k="ssr:stedsnr" v="602795" />
	</node>
	<node id="-31984" lat="59.9944722206" lon="11.2829500046">
		<tag k="name" v="Setra" />
		<tag k="place" v="farm" />
		<tag k="ssr:stedsnr" v="602777" />
	</node>
	<node id="-31983" lat="59.914119442" lon="11.2710750076">
		<tag k="name" v="Seterdalsvangen" />
		<tag k="place" v="locality" />
		<tag k="ssr:stedsnr" v="602268" />
	</node>
	<node id="-31982" lat="60.0245416666" lon="11.2899222143">
		<tag k="name" v="Movika" />
		<tag k="place" v="locality" />
		<tag k="ssr:stedsnr" v="588035" />
	</node>
	<node id="-31981" lat="60.0243861143" lon="11.2646055613">
		<tag k="name" v="Bergsmoen" />
		<tag k="place" v="locality" />
		<tag k="ssr:stedsnr" v="588031" />
	</node>
	<node id="-31980" lat="60.0180861135" lon="11.2892611133">
		<tag k="name" v="Mangset" />
		<tag k="place" v="farm" />
		<tag k="ssr:stedsnr" v="588025" />
	</node>
	<node id="-31979" lat="59.9576694471" lon="11.3875333364">
		<tag k="name" v="Høyby" />
		<tag k="place" v="locality" />
		<tag k="ssr:stedsnr" v="585404" />
	</node>
	<node id="-31978" lat="59.9493722178" lon="11.353841672">
		<tag k="name" v="Enger" />
		<tag k="place" v="farm" />
		<tag k="ssr:stedsnr" v="585403" />
	</node>
	<node id="-31977" lat="60.0490944461" lon="11.1414638817">
		<tag k="name" v="Vallerud" />
		<tag k="place" v="farm" />
		<tag k="ssr:stedsnr" v="585371" />
	</node>
	<node id="-31976" lat="60.0485166681" lon="11.1773305605">
		<tag k="name" v="Vestre Refsum" />
		<tag k="place" v="farm" />
		<tag k="ssr:stedsnr" v="585368" />
	</node>
	<node id="-31975" lat="60.0556138891" lon="11.1186416679">
		<tag k="name" v="Åkerstua" />
		<tag k="place" v="locality" />
		<tag k="ssr:stedsnr" v="585366" />
	</node>
	<node id="-31973" lat="59.9729305588" lon="11.2085111036">
		<tag k="name" v="Lund" />
		<tag k="place" v="isolated_dwelling" />
		<tag k="ssr:stedsnr" v="585356" />
	</node>
	<node id="-31972" lat="60.0578527778" lon="11.1503138948">
		<tag k="name" v="Sletner" />
		<tag k="place" v="farm" />
		<tag k="ssr:stedsnr" v="585353" />
	</node>
	<node id="-31971" lat="59.9814083368" lon="11.1860972274">
		<tag k="name" v="Dammyra" />
		<tag k="natural" v="wetland" />
		<tag k="ssr:stedsnr" v="585326" />
	</node>
	<node id="-31970" lat="60.0397972192" lon="11.3257805572">
		<tag k="fixme" v="consider natural=peak for the most distinct mountains in the district" />
		<tag k="name" v="Simarudåsen" />
		<tag k="natural" v="hill" />
		<tag k="old_name" v="Smiarudåsen" />
		<tag k="place" v="locality" />
		<tag k="ssr:stedsnr" v="585296" />
	</node>
	<node id="-31969" lat="60.0392416695" lon="11.2668083368">
		<tag k="junction" v="yes" />
		<tag k="name" v="Bøler" />
		<tag k="place" v="locality" />
		<tag k="ssr:stedsnr" v="585282" />
	</node>
	<node id="-31968" lat="60.0038111088" lon="11.3642416629">
		<tag k="name" v="Solvang" />
		<tag k="place" v="farm" />
		<tag k="ssr:stedsnr" v="585151" />
	</node>
	<node id="-31967" lat="60.0221694401" lon="11.3265888907">
		<tag k="name" v="Granli" />
		<tag k="place" v="farm" />
		<tag k="ssr:stedsnr" v="585152" />
	</node>
	<node id="-31966" lat="60.046230552" lon="11.1185249928">
		<tag k="name" v="Bjørkeløkka" />
		<tag k="place" v="farm" />
		<tag k="ssr:stedsnr" v="585143" />
	</node>
	<node id="-31965" lat="60.0410027763" lon="11.1140777799">
		<tag k="name" v="Granstua" />
		<tag k="place" v="isolated_dwelling" />
		<tag k="ssr:stedsnr" v="585140" />
	</node>
	<node id="-31964" lat="60.038313885" lon="11.1242111034">
		<tag k="fixme" v="consider place=suburb, village or hamlet" />
		<tag k="name" v="Lindeberg" />
		<tag k="place" v="quarter" />
		<tag k="ssr:stedsnr" v="571185" />
	</node>
	<node id="-31963" lat="60.0170111153" lon="11.3132861132">
		<tag k="name" v="Dalbakk" />
		<tag k="place" v="farm" />
		<tag k="ssr:stedsnr" v="551919" />
	</node>
	<node id="-31962" lat="60.0458724654" lon="11.2982082945">
		<tag k="fixme" v="consider place=hamlet" />
		<tag k="name" v="Hellesjø" />
		<tag k="place" v="farm" />
		<tag k="ssr:stedsnr" v="551899" />
	</node>
	<node id="-31961" lat="60.0423666649" lon="11.1891555466">
		<tag k="name" v="Presterud" />
		<tag k="place" v="farm" />
		<tag k="ssr:stedsnr" v="551896" />
	</node>
	<node id="-31960" lat="60.0374166707" lon="11.1046555499">
		<tag k="alt_name" v="Gran, lille" />
		<tag k="name" v="Lille Gran" />
		<tag k="place" v="farm" />
		<tag k="ssr:stedsnr" v="551894" />
	</node>
	<node id="-31959" lat="60.0281370924" lon="11.1112192566">
		<tag k="name" v="Melvoll" />
		<tag k="place" v="hamlet" />
		<tag k="ssr:stedsnr" v="551893" />
	</node>
	<node id="-31958" lat="60.0397055575" lon="11.1225777853">
		<tag k="name" v="Jeksla" />
		<tag k="ssr:stedsnr" v="551892" />
		<tag k="waterway" v="stream" />
	</node>
	<node id="-31957" lat="60.0397194461" lon="11.1595138962">
		<tag k="alt_name" v="Vilberg, øvre" />
		<tag k="name" v="Øvre Vilberg" />
		<tag k="place" v="farm" />
		<tag k="ssr:stedsnr" v="551889" />
	</node>
	<node id="-31956" lat="59.9498888919" lon="11.2462444442">
		<tag k="name" v="Frysjua" />
		<tag k="natural" v="water" />
		<tag k="ssr:stedsnr" v="551534" />
	</node>
	<node id="-31955" lat="59.9630694407" lon="11.2745888923">
		<tag k="alt_name" v="Monsruddamtjennet" />
		<tag k="name" v="Monsruddamtjernet" />
		<tag k="natural" v="water" />
		<tag k="ssr:stedsnr" v="551508" />
	</node>
	<node id="-31954" lat="60.0546277746" lon="11.1786111128">
		<tag k="name" v="Sulerud" />
		<tag k="place" v="farm" />
		<tag k="ssr:stedsnr" v="551016" />
	</node>
	<node id="-31953" lat="60.0599888879" lon="11.2808055633">
		<tag k="name" v="Svartputten" />
		<tag k="natural" v="water" />
		<tag k="ssr:stedsnr" v="551006" />
	</node>
	<node id="-31952" lat="59.9386611143" lon="11.2489083379">
		<tag k="name" v="Korsvika" />
		<tag k="place" v="isolated_dwelling" />
		<tag k="ssr:stedsnr" v="550552" />
	</node>
	<node id="-31951" lat="59.9732416681" lon="11.1986222205">
		<tag k="name" v="Kikut" />
		<tag k="place" v="locality" />
		<tag k="ssr:stedsnr" v="550497" />
	</node>
	<node id="-31950" lat="59.9991340203" lon="11.3007946667">
		<tag k="alt_name" v="Foss, søndre" />
		<tag k="name" v="Søndre Foss" />
		<tag k="place" v="farm" />
		<tag k="ssr:stedsnr" v="550476" />
	</node>
	<node id="-31949" lat="59.9845775579" lon="11.2716788449">
		<tag k="alt_name" v="Fossum, nordre;Fossum nordre" />
		<tag k="name" v="Nordre Fossum" />
		<tag k="place" v="farm" />
		<tag k="ssr:stedsnr" v="550464" />
	</node>
	<node id="-31948" lat="59.9850111141" lon="11.1922111129">
		<tag k="fixme" v="consider natural=peak for the most distinct mountains in the district" />
		<tag k="name" v="Røysa" />
		<tag k="natural" v="hill" />
		<tag k="place" v="locality" />
		<tag k="ssr:stedsnr" v="550453" />
	</node>
	<node id="-31947" lat="59.9760638925" lon="11.2974138961">
		<tag k="fixme" v="consider natural=peak for the most distinct mountains in the district" />
		<tag k="name" v="Bjørneberget" />
		<tag k="natural" v="hill" />
		<tag k="place" v="locality" />
		<tag k="ssr:stedsnr" v="550431" />
	</node>
	<node id="-31946" lat="59.9802249972" lon="11.3252027698">
		<tag k="alt_name" v="Kvevli, nordre" />
		<tag k="name" v="Nordre Kvevli" />
		<tag k="place" v="farm" />
		<tag k="ssr:stedsnr" v="550426" />
	</node>
	<node id="-31945" lat="59.9764199978" lon="11.3174517589">
		<tag k="alt_name" v="Kvevli, vestre" />
		<tag k="name" v="Vestre Kvevli" />
		<tag k="place" v="farm" />
		<tag k="ssr:stedsnr" v="550423" />
	</node>
	<node id="-31944" lat="59.9523972247" lon="11.3302361111">
		<tag k="amenity" v="community_centre" />
		<tag k="name" v="Bethania" />
		<tag k="ssr:stedsnr" v="544760" />
	</node>
	<node id="-31943" lat="59.9663333357" lon="11.3698833377">
		<tag k="name" v="Ødegarden" />
		<tag k="place" v="farm" />
		<tag k="ssr:stedsnr" v="544596" />
	</node>
	<node id="-31942" lat="59.9677194452" lon="11.3424583271">
		<tag k="name" v="Korsåa" />
		<tag k="ssr:stedsnr" v="544587" />
		<tag k="waterway" v="river" />
	</node>
	<node id="-31941" lat="59.9603305523" lon="11.3824777761">
		<tag k="name" v="Høgmoen" />
		<tag k="place" v="farm" />
		<tag k="ssr:stedsnr" v="544584" />
	</node>
	<node id="-31940" lat="60.0028027815" lon="11.1539500006">
		<tag k="name" v="Tjennsdalen" />
		<tag k="natural" v="valley" />
		<tag k="place" v="locality" />
		<tag k="ssr:stedsnr" v="544580" />
	</node>
	<node id="-31939" lat="60.0384027815" lon="11.1310749945">
		<tag k="name" v="Ulverud" />
		<tag k="place" v="farm" />
		<tag k="ssr:stedsnr" v="544232" />
	</node>
	<node id="-31938" lat="60.0294722232" lon="11.2093583373">
		<tag k="name" v="Øvre Nyland" />
		<tag k="place" v="farm" />
		<tag k="ssr:stedsnr" v="544227" />
	</node>
	<node id="-31937" lat="60.0316694438" lon="11.203580552">
		<tag k="name" v="Bekkestua" />
		<tag k="place" v="isolated_dwelling" />
		<tag k="ssr:stedsnr" v="544207" />
	</node>
	<node id="-31936" lat="60.0305861127" lon="11.2083027747">
		<tag k="name" v="Nedre Nyland" />
		<tag k="place" v="farm" />
		<tag k="ssr:stedsnr" v="544208" />
	</node>
	<node id="-31935" lat="60.0281444482" lon="11.2775166669">
		<tag k="name" v="Bergsbekken" />
		<tag k="place" v="locality" />
		<tag k="ssr:stedsnr" v="544205" />
	</node>
	<node id="-31934" lat="60.0312944442" lon="11.2303583357">
		<tag k="alt_name" v="Olastun" />
		<tag k="name" v="Olastuen" />
		<tag k="place" v="farm" />
		<tag k="ssr:stedsnr" v="544206" />
	</node>
	<node id="-31933" lat="60.0279222214" lon="11.2464472226">
		<tag k="name" v="Solvang" />
		<tag k="place" v="isolated_dwelling" />
		<tag k="ssr:stedsnr" v="544202" />
	</node>
	<node id="-31932" lat="60.0246138883" lon="11.3318750011">
		<tag k="name" v="Skovli" />
		<tag k="old_name" v="Skovly;Skogly" />
		<tag k="place" v="farm" />
		<tag k="ssr:stedsnr" v="543931" />
	</node>
	<node id="-31931" lat="60.0200083353" lon="11.2032888835">
		<tag k="name" v="Monsrud" />
		<tag k="place" v="farm" />
		<tag k="ssr:stedsnr" v="542952" />
	</node>
	<node id="-31930" lat="60.011419444" lon="11.1930638908">
		<tag k="name" v="Bakketun" />
		<tag k="place" v="farm" />
		<tag k="ssr:stedsnr" v="542933" />
	</node>
	<node id="-31929" lat="60.0250750015" lon="11.0681527709">
		<tag k="name" v="Fjellbo" />
		<tag k="place" v="farm" />
		<tag k="ssr:stedsnr" v="542804" />
	</node>
	<node id="-31928" lat="59.993241668" lon="11.3861361189">
		<tag k="name" v="Nordre Fjuk" />
		<tag k="place" v="farm" />
		<tag k="ssr:stedsnr" v="542799" />
	</node>
	<node id="-31927" lat="59.9913611108" lon="11.3793111076">
		<tag k="name" v="Fjuk" />
		<tag k="place" v="farm" />
		<tag k="ssr:stedsnr" v="542798" />
	</node>
	<node id="-31926" lat="60.0006444441" lon="11.2989250048">
		<tag k="name" v="Søndre Foss" />
		<tag k="place" v="farm" />
		<tag k="ssr:stedsnr" v="542791" />
	</node>
	<node id="-31925" lat="60.0000611133" lon="11.3434000085">
		<tag k="fixme" v="consider natural=peak for the most distinct mountains in the district" />
		<tag k="name" v="Toreidåsen" />
		<tag k="natural" v="hill" />
		<tag k="place" v="locality" />
		<tag k="ssr:stedsnr" v="542789" />
	</node>
	<node id="-31924" lat="60.0006833301" lon="11.3371861094">
		<tag k="name" v="Øvre Kleiva" />
		<tag k="place" v="farm" />
		<tag k="ssr:stedsnr" v="542786" />
	</node>
	<node id="-31923" lat="59.9986916699" lon="11.3115222234">
		<tag k="junction" v="yes" />
		<tag k="name" v="Huseby" />
		<tag k="place" v="locality" />
		<tag k="ssr:stedsnr" v="542784" />
	</node>
	<node id="-31922" lat="59.9912361097" lon="11.3069138804">
		<tag k="name" v="Nyengen" />
		<tag k="place" v="farm" />
		<tag k="ssr:stedsnr" v="542782" />
	</node>
	<node id="-31921" lat="59.98219167" lon="11.2887361145">
		<tag k="name" v="Monserudpensen" />
		<tag k="place" v="locality" />
		<tag k="ssr:stedsnr" v="542722" />
	</node>
	<node id="-31920" lat="59.9883416691" lon="11.2322888898">
		<tag k="name" v="Rebakken" />
		<tag k="place" v="isolated_dwelling" />
		<tag k="ssr:stedsnr" v="542719" />
	</node>
	<node id="-31919" lat="59.9860055522" lon="11.2056722281">
		<tag k="name" v="Fiskeberget" />
		<tag k="place" v="locality" />
		<tag k="ssr:stedsnr" v="542651" />
	</node>
	<node id="-31918" lat="59.9034277808" lon="11.3002277814">
		<tag k="name" v="Kukollia" />
		<tag k="natural" v="slope" />
		<tag k="place" v="locality" />
		<tag k="ssr:stedsnr" v="542298" />
	</node>
	<node id="-31917" lat="59.9238166696" lon="11.3033416614">
		<tag k="name" v="Djupdalslia" />
		<tag k="natural" v="slope" />
		<tag k="place" v="locality" />
		<tag k="ssr:stedsnr" v="542277" />
	</node>
	<node id="-31916" lat="59.907027775" lon="11.2635277845">
		<tag k="name" v="Breisjødraget" />
		<tag k="natural" v="wetland" />
		<tag k="ssr:stedsnr" v="542253" />
	</node>
	<node id="-31915" lat="59.92549167" lon="11.2799777752">
		<tag k="name" v="Engeråsen" />
		<tag k="natural" v="hill" />
		<tag k="place" v="locality" />
		<tag k="ssr:stedsnr" v="542249" />
	</node>
	<node id="-31914" lat="59.9302416689" lon="11.3485833399">
		<tag k="name" v="Kamperudlia" />
		<tag k="natural" v="slope" />
		<tag k="place" v="locality" />
		<tag k="ssr:stedsnr" v="542239" />
	</node>
	<node id="-31913" lat="59.983955558" lon="11.2211833347">
		<tag k="alt_name" v="Vestby søndre;Stua" />
		<tag k="name" v="Søndre Vestby" />
		<tag k="place" v="farm" />
		<tag k="ssr:stedsnr" v="537006" />
	</node>
	<node id="-31912" lat="59.9833944486" lon="11.2231194421">
		<tag k="alt_name" v="Vestby nordre;Nordgarden" />
		<tag k="name" v="Nordre Vestby" />
		<tag k="place" v="farm" />
		<tag k="ssr:stedsnr" v="537001" />
	</node>
	<node id="-31911" lat="60.0039444444" lon="11.3002666618">
		<tag k="building" v="industrial" />
		<tag k="name" v="Blaker meieri" />
		<tag k="ssr:stedsnr" v="527010" />
	</node>
	<node id="-31910" lat="59.9485333378" lon="11.3519555497">
		<tag k="junction" v="yes" />
		<tag k="name" v="Steinsrud" />
		<tag k="place" v="locality" />
		<tag k="ssr:stedsnr" v="525457" />
	</node>
	<node id="-31909" lat="59.9443111101" lon="11.2559333264">
		<tag k="name" v="Setervika" />
		<tag k="natural" v="bay" />
		<tag k="ssr:stedsnr" v="525448" />
	</node>
	<node id="-31908" lat="60.0583916623" lon="11.2898611167">
		<tag k="name" v="Gravdalen" />
		<tag k="natural" v="valley" />
		<tag k="place" v="locality" />
		<tag k="ssr:stedsnr" v="525444" />
	</node>
	<node id="-31907" lat="60.0759916648" lon="11.2504555521">
		<tag k="name" v="Slemdalsfossen" />
		<tag k="natural" v="waterfall" />
		<tag k="ssr:stedsnr" v="525439" />
	</node>
	<node id="-31906" lat="60.0541499974" lon="11.1491944477">
		<tag k="name" v="Nyheim" />
		<tag k="place" v="farm" />
		<tag k="ssr:stedsnr" v="525421" />
	</node>
	<node id="-31905" lat="59.9703111141" lon="11.3223916615">
		<tag k="name" v="Nygård" />
		<tag k="place" v="farm" />
		<tag k="ssr:stedsnr" v="525400" />
	</node>
	<node id="-31904" lat="59.9749583362" lon="11.2564416736">
		<tag k="name" v="Nedre Låland" />
		<tag k="place" v="farm" />
		<tag k="ssr:stedsnr" v="525384" />
	</node>
	<node id="-31903" lat="60.0282472219" lon="11.3215750014">
		<tag k="landuse" v="industrial" />
		<tag k="name" v="Rånåsfoss kraftverk" />
		<tag k="power" v="plant" />
		<tag k="ssr:stedsnr" v="525346" />
	</node>
	<node id="-31902" lat="60.0431333307" lon="11.2666972238">
		<tag k="name" v="Vestre Bognerud" />
		<tag k="place" v="farm" />
		<tag k="ssr:stedsnr" v="525342" />
	</node>
	<node id="-31901" lat="60.0430833351" lon="11.2690638974">
		<tag k="name" v="Østre Bognerud" />
		<tag k="place" v="locality" />
		<tag k="ssr:stedsnr" v="525340" />
	</node>
	<node id="-31900" lat="60.0125138897" lon="11.3452694394">
		<tag k="name" v="Skullerudmåsan" />
		<tag k="natural" v="wetland" />
		<tag k="ssr:stedsnr" v="525173" />
	</node>
	<node id="-31899" lat="60.0179000025" lon="11.3241694453">
		<tag k="alt_name" v="Eid nordgarn" />
		<tag k="name" v="Nordgarden Eid" />
		<tag k="place" v="farm" />
		<tag k="ssr:stedsnr" v="525172" />
	</node>
	<node id="-31898" lat="60.0152777792" lon="11.2979861092">
		<tag k="name" v="Skulerudgrinda" />
		<tag k="place" v="hamlet" />
		<tag k="ssr:stedsnr" v="525171" />
	</node>
	<node id="-31897" lat="59.9636998061" lon="11.3285426641">
		<tag k="alt_name" v="Jødal store" />
		<tag k="fixme" v="multiple name tags, choose one and add the other to alt_name; consider place=hamlet" />
		<tag k="name" v="Jødal;Store Jødal" />
		<tag k="place" v="farm" />
		<tag k="ssr:stedsnr" v="497498" />
	</node>
	<node id="-31896" lat="60.008891671" lon="11.3362944378">
		<tag k="name" v="Bråten" />
		<tag k="place" v="farm" />
		<tag k="ssr:stedsnr" v="491966" />
	</node>
	<node id="-31895" lat="60.0281916655" lon="11.0981777771">
		<tag k="alt_name" v="Nedre Eidsvoll" />
		<tag k="name" v="Eisval" />
		<tag k="place" v="farm" />
		<tag k="ssr:stedsnr" v="491892" />
	</node>
	<node id="-31894" lat="60.0248194977" lon="11.0679202268">
		<tag k="name" v="Fjellbo" />
		<tag k="place" v="farm" />
		<tag k="ssr:stedsnr" v="491429" />
	</node>
	<node id="-31892" lat="59.9189472226" lon="11.3371944435">
		<tag k="name" v="Sjødalen" />
		<tag k="natural" v="valley" />
		<tag k="place" v="locality" />
		<tag k="ssr:stedsnr" v="490576" />
	</node>
	<node id="-31891" lat="59.9657638855" lon="11.2677861067">
		<tag k="fixme" v="consider natural=peak for the most distinct mountains in the district" />
		<tag k="name" v="Gullsmedåsen" />
		<tag k="natural" v="hill" />
		<tag k="place" v="locality" />
		<tag k="ssr:stedsnr" v="490498" />
	</node>
	<node id="-31890" lat="59.9711638898" lon="11.3276499952">
		<tag k="name" v="Myrvoll" />
		<tag k="place" v="farm" />
		<tag k="ssr:stedsnr" v="490490" />
	</node>
	<node id="-31889" lat="59.9898055551" lon="11.2072138894">
		<tag k="alt_name" v="Hammaren, nordre;Nordre Hammeren" />
		<tag k="name" v="Nordre Hammaren" />
		<tag k="place" v="farm" />
		<tag k="ssr:stedsnr" v="490463" />
	</node>
	<node id="-31888" lat="59.9891111132" lon="11.2596999967">
		<tag k="name" v="Bingsfossen" />
		<tag k="natural" v="waterfall" />
		<tag k="ssr:stedsnr" v="490461" />
	</node>
	<node id="-31887" lat="59.9913944441" lon="11.2921138925">
		<tag k="name" v="Gran" />
		<tag k="place" v="farm" />
		<tag k="ssr:stedsnr" v="490459" />
	</node>
	<node id="-31886" lat="59.9969972242" lon="11.4147249953">
		<tag k="name" v="Hauketjernbekken" />
		<tag k="ssr:stedsnr" v="490456" />
		<tag k="waterway" v="stream" />
	</node>
	<node id="-31885" lat="59.9507138882" lon="11.3223111108">
		<tag k="alt_name" v="Mork, vestre" />
		<tag k="loc_name" v="Vest-Mork" />
		<tag k="name" v="Vestre Mork" />
		<tag k="place" v="farm" />
		<tag k="ssr:stedsnr" v="489565" />
	</node>
	<node id="-31884" lat="59.998524999" lon="11.1619888918">
		<tag k="fixme" v="multiple name tags, choose one and add the other to alt_name; consider natural=peak for the most distinct mountains in the district" />
		<tag k="name" v="Størsrudfjellet;Størsrudåsen" />
		<tag k="natural" v="hill" />
		<tag k="place" v="locality" />
		<tag k="ssr:stedsnr" v="489518" />
	</node>
	<node id="-31883" lat="59.9943055562" lon="11.2348416626">
		<tag k="name" v="Elverhøy" />
		<tag k="place" v="farm" />
		<tag k="ssr:stedsnr" v="489514" />
	</node>
	<node id="-31882" lat="59.9950416649" lon="11.16328889">
		<tag k="name" v="Kastet" />
		<tag k="place" v="locality" />
		<tag k="ssr:stedsnr" v="484578" />
	</node>
	<node id="-31881" lat="60.0274833334" lon="11.2684250027">
		<tag k="name" v="Postkassa" />
		<tag k="place" v="locality" />
		<tag k="ssr:stedsnr" v="484202" />
	</node>
	<node id="-31880" lat="60.0377083356" lon="11.1501361138">
		<tag k="name" v="Kjerkefjellet" />
		<tag k="natural" v="hill" />
		<tag k="place" v="locality" />
		<tag k="ssr:stedsnr" v="483256" />
	</node>
	<node id="-31879" lat="60.0149250025" lon="11.2314444388">
		<tag k="name" v="Fjellbrauta" />
		<tag k="place" v="locality" />
		<tag k="ssr:stedsnr" v="481956" />
	</node>
	<node id="-31878" lat="60.0242861127" lon="11.2047222232">
		<tag k="name" v="Nordvoll" />
		<tag k="place" v="farm" />
		<tag k="ssr:stedsnr" v="481950" />
	</node>
	<node id="-31877" lat="60.0087972241" lon="11.1838305553">
		<tag k="name" v="Berget" />
		<tag k="place" v="farm" />
		<tag k="ssr:stedsnr" v="481926" />
	</node>
	<node id="-31876" lat="60.0244249957" lon="11.1653361092">
		<tag k="alt_name" v="Hønsi Oppigarden" />
		<tag k="name" v="Oppigarden Hønsi" />
		<tag k="place" v="farm" />
		<tag k="ssr:stedsnr" v="481921" />
	</node>
	<node id="-31875" lat="60.0161277797" lon="11.1409277737">
		<tag k="name" v="Pusset" />
		<tag k="place" v="farm" />
		<tag k="ssr:stedsnr" v="481907" />
	</node>
	<node id="-31874" lat="60.0120138899" lon="11.1007611046">
		<tag k="alt_name" v="Børke Østigarden" />
		<tag k="name" v="Østigarden Børke" />
		<tag k="place" v="farm" />
		<tag k="ssr:stedsnr" v="481789" />
	</node>
	<node id="-31873" lat="60.0014916637" lon="11.3350722236">
		<tag k="name" v="Nedre Kleiva" />
		<tag k="place" v="farm" />
		<tag k="ssr:stedsnr" v="481777" />
	</node>
	<node id="-31872" lat="59.9928833303" lon="11.3066888904">
		<tag k="name" v="Engen" />
		<tag k="place" v="farm" />
		<tag k="ssr:stedsnr" v="481770" />
	</node>
	<node id="-31871" lat="59.9833666644" lon="11.3217833283">
		<tag k="name" v="Åtangen" />
		<tag k="place" v="farm" />
		<tag k="ssr:stedsnr" v="481767" />
	</node>
	<node id="-31870" lat="59.9971527779" lon="11.2375638947">
		<tag k="name" v="Bingssund" />
		<tag k="place" v="farm" />
		<tag k="ssr:stedsnr" v="481697" />
	</node>
	<node id="-31869" lat="59.9198694411" lon="11.3190083378">
		<tag k="name" v="Sandbakkleiva" />
		<tag k="natural" v="slope" />
		<tag k="place" v="locality" />
		<tag k="ssr:stedsnr" v="481292" />
	</node>
	<node id="-31868" lat="59.9138861152" lon="11.3266416655">
		<tag k="name" v="Bikkjehølet" />
		<tag k="natural" v="water" />
		<tag k="ssr:stedsnr" v="481260" />
		<tag k="water" v="pond" />
	</node>
	<node id="-31867" lat="60.0392499985" lon="11.113119451">
		<tag k="bridge" v="yes" />
		<tag k="layer" v="1" />
		<tag k="name" v="Gran" />
		<tag k="ssr:stedsnr" v="471039" />
	</node>
	<node id="-31866" lat="59.9836805549" lon="11.2540305526">
		<tag k="bridge" v="yes" />
		<tag k="layer" v="1" />
		<tag k="name" v="Hobbybanen" />
		<tag k="ssr:stedsnr" v="471038" />
	</node>
	<node id="-31865" lat="59.9604555536" lon="11.3278194394">
		<tag k="bridge" v="yes" />
		<tag k="layer" v="1" />
		<tag k="name" v="Ramsås" />
		<tag k="ssr:stedsnr" v="470039" />
	</node>
	<node id="-31864" lat="59.9821944417" lon="11.3206555612">
		<tag k="bridge" v="yes" />
		<tag k="layer" v="1" />
		<tag k="name" v="Saghaug" />
		<tag k="ssr:stedsnr" v="470036" />
	</node>
	<node id="-31863" lat="60.0091749966" lon="11.2862416671">
		<tag k="name" v="Moskau" />
		<tag k="place" v="farm" />
		<tag k="ssr:stedsnr" v="467044" />
	</node>
	<node id="-31862" lat="60.0213027759" lon="11.2457666652">
		<tag k="name" v="Skea" />
		<tag k="place" v="farm" />
		<tag k="ssr:stedsnr" v="467019" />
	</node>
	<node id="-31861" lat="60.0162249959" lon="11.2858305632">
		<tag k="name" v="Børgendammen" />
		<tag k="natural" v="water" />
		<tag k="ssr:stedsnr" v="467017" />
	</node>
	<node id="-31860" lat="60.0172861138" lon="11.2737916616">
		<tag k="name" v="Bergsbekken" />
		<tag k="ssr:stedsnr" v="467015" />
		<tag k="waterway" v="stream" />
	</node>
	<node id="-31859" lat="59.9642076428" lon="11.3289090734">
		<tag k="alt_name" v="Jødal store" />
		<tag k="name" v="Store Jødal" />
		<tag k="place" v="farm" />
		<tag k="ssr:stedsnr" v="465446" />
	</node>
	<node id="-31858" lat="60.0058055581" lon="11.328972221">
		<tag k="name" v="Ingjer" />
		<tag k="place" v="farm" />
		<tag k="ssr:stedsnr" v="465167" />
	</node>
	<node id="-31857" lat="59.9666694404" lon="11.2166583389">
		<tag k="name" v="Holen" />
		<tag k="place" v="isolated_dwelling" />
		<tag k="ssr:stedsnr" v="464456" />
	</node>
	<node id="-31856" lat="59.9675138896" lon="11.2123972187">
		<tag k="name" v="Holendalen" />
		<tag k="natural" v="valley" />
		<tag k="place" v="locality" />
		<tag k="ssr:stedsnr" v="464455" />
	</node>
	<node id="-31855" lat="60.0636944402" lon="11.2566972287">
		<tag k="name" v="Nybakk" />
		<tag k="place" v="isolated_dwelling" />
		<tag k="ssr:stedsnr" v="464441" />
	</node>
	<node id="-31854" lat="59.9734722189" lon="11.2260027828">
		<tag k="name" v="Østby" />
		<tag k="place" v="farm" />
		<tag k="ssr:stedsnr" v="464431" />
	</node>
	<node id="-31853" lat="60.031347223" lon="11.3506083319">
		<tag k="name" v="Kroken" />
		<tag k="place" v="farm" />
		<tag k="ssr:stedsnr" v="464415" />
	</node>
	<node id="-31852" lat="60.056566665" lon="11.1514527789">
		<tag k="name" v="Midtskog" />
		<tag k="place" v="farm" />
		<tag k="ssr:stedsnr" v="464411" />
	</node>
	<node id="-31851" lat="59.9795694445" lon="11.2261972265">
		<tag k="name" v="Østbyhagen" />
		<tag k="place" v="locality" />
		<tag k="ssr:stedsnr" v="464386" />
	</node>
	<node id="-31850" lat="60.0386444402" lon="11.236024995">
		<tag k="name" v="Gjesterbekken" />
		<tag k="ssr:stedsnr" v="464317" />
		<tag k="waterway" v="stream" />
	</node>
	<node id="-31849" lat="60.0362722193" lon="11.2723138937">
		<tag k="name" v="Bølerenga" />
		<tag k="place" v="farm" />
		<tag k="ssr:stedsnr" v="464310" />
	</node>
	<node id="-31848" lat="60.0368083325" lon="11.0715277773">
		<tag k="name" v="Semmerudtoppen" />
		<tag k="natural" v="hill" />
		<tag k="place" v="locality" />
		<tag k="ssr:stedsnr" v="464160" />
	</node>
	<node id="-31847" lat="60.0023694458" lon="11.2754166665">
		<tag k="fixme" v="multiple name tags, choose one and add the other to alt_name" />
		<tag k="name" v="Hauer;Tangen" />
		<tag k="place" v="locality" />
		<tag k="ssr:stedsnr" v="430955" />
	</node>
	<node id="-31846" lat="60.0160194417" lon="11.1103638905">
		<tag k="name" v="Hol" />
		<tag k="place" v="farm" />
		<tag k="ssr:stedsnr" v="430937" />
	</node>
	<node id="-31845" lat="60.0257500038" lon="11.3103583281">
		<tag k="name" v="Fosserud" />
		<tag k="place" v="farm" />
		<tag k="ssr:stedsnr" v="430934" />
	</node>
	<node id="-31844" lat="60.022075001" lon="11.2251777832">
		<tag k="name" v="Løren" />
		<tag k="place" v="quarter" />
		<tag k="ssr:stedsnr" v="430931" />
	</node>
	<node id="-31843" lat="60.0103828695" lon="11.1351372713">
		<tag k="fixme" v="consider place=hamlet" />
		<tag k="name" v="Ausen" />
		<tag k="place" v="farm" />
		<tag k="ssr:stedsnr" v="430926" />
	</node>
	<node id="-31842" lat="60.0091716613" lon="11.1117222399">
		<tag k="fixme" v="consider place=hamlet" />
		<tag k="name" v="Myrer" />
		<tag k="place" v="farm" />
		<tag k="ssr:stedsnr" v="430923" />
	</node>
	<node id="-31841" lat="60.0125111067" lon="11.3144250059">
		<tag k="name" v="Nitteberg" />
		<tag k="place" v="farm" />
		<tag k="ssr:stedsnr" v="430919" />
	</node>
	<node id="-31840" lat="60.0195500043" lon="11.2350555475">
		<tag k="name" v="Holsenga" />
		<tag k="place" v="farm" />
		<tag k="ssr:stedsnr" v="430914" />
	</node>
	<node id="-31839" lat="60.0121777745" lon="11.2330722196">
		<tag k="loc_name" v="Ålgot" />
		<tag k="name" v="Ålgård" />
		<tag k="old_name" v="Aalgaard" />
		<tag k="place" v="farm" />
		<tag k="ssr:stedsnr" v="430910" />
	</node>
	<node id="-31838" lat="60.0473527809" lon="11.1178972218">
		<tag k="alt_name" v="Bjørkehaugen" />
		<tag k="name" v="Bjørkhaugen" />
		<tag k="place" v="farm" />
		<tag k="ssr:stedsnr" v="430891" />
	</node>
	<node id="-31837" lat="60.0371882596" lon="11.2661104168">
		<tag k="fixme" v="consider place=hamlet" />
		<tag k="name" v="Bøler" />
		<tag k="place" v="farm" />
		<tag k="ssr:stedsnr" v="430870" />
	</node>
	<node id="-31836" lat="60.0394447555" lon="11.1280034895">
		<tag k="alt_name" v="Lindeberg" />
		<tag k="name" v="Lindeberg stasjon" />
		<tag k="railway" v="station" />
		<tag k="ssr:stedsnr" v="430869" />
		<tag k="train" v="yes" />
	</node>
	<node id="-31835" lat="59.9627416687" lon="11.3681749917">
		<tag k="alt_name" v="Ånerud;Aanerud" />
		<tag k="name" v="Ånnerud" />
		<tag k="place" v="farm" />
		<tag k="ssr:stedsnr" v="430508" />
	</node>
	<node id="-31834" lat="59.9641443608" lon="11.3801090773">
		<tag k="name" v="Sandum" />
		<tag k="place" v="hamlet" />
		<tag k="ssr:stedsnr" v="430509" />
	</node>
	<node id="-31833" lat="59.9741361084" lon="11.2790749916">
		<tag k="name" v="Ekra" />
		<tag k="place" v="farm" />
		<tag k="ssr:stedsnr" v="430492" />
	</node>
	<node id="-31832" lat="59.968711108" lon="11.3599277755">
		<tag k="name" v="Hogset" />
		<tag k="place" v="farm" />
		<tag k="ssr:stedsnr" v="430488" />
	</node>
	<node id="-31831" lat="60.0219305562" lon="11.064116658">
		<tag k="name" v="Sorknes" />
		<tag k="place" v="farm" />
		<tag k="ssr:stedsnr" v="430377" />
	</node>
	<node id="-31830" lat="60.0532804102" lon="11.2341877203">
		<tag k="fixme" v="consider place=hamlet" />
		<tag k="name" v="Vølner" />
		<tag k="place" v="farm" />
		<tag k="ssr:stedsnr" v="430014" />
	</node>
	<node id="-31829" lat="60.055461107" lon="11.2359611031">
		<tag k="name" v="Flaen" />
		<tag k="place" v="farm" />
		<tag k="ssr:stedsnr" v="430012" />
	</node>
	<node id="-31828" lat="60.0621388889" lon="11.2858055539">
		<tag k="alt_name" v="Ormstadtjennet" />
		<tag k="name" v="Ormstadtjernet" />
		<tag k="natural" v="water" />
		<tag k="ssr:stedsnr" v="430004" />
	</node>
	<node id="-31827" lat="59.8956694424" lon="11.3148000067">
		<tag k="alt_name" v="Jarsjøen, vestre" />
		<tag k="name" v="Vestre Jarsjøen" />
		<tag k="natural" v="water" />
		<tag k="ssr:stedsnr" v="429622" />
	</node>
	<node id="-31826" lat="59.8944361086" lon="11.3232416748">
		<tag k="fixme" v="consider natural=peak for the most distinct mountains in the district" />
		<tag k="name" v="Hærfangen" />
		<tag k="natural" v="hill" />
		<tag k="place" v="locality" />
		<tag k="ssr:stedsnr" v="429621" />
	</node>
	<node id="-31825" lat="59.9375999967" lon="11.3413333316">
		<tag k="name" v="Kamperud" />
		<tag k="place" v="farm" />
		<tag k="ssr:stedsnr" v="429519" />
	</node>
	<node id="-31824" lat="59.9485527822" lon="11.3079194392">
		<tag k="name" v="Morkenga" />
		<tag k="place" v="farm" />
		<tag k="ssr:stedsnr" v="429509" />
	</node>
	<node id="-31823" lat="59.9030277806" lon="11.3086611045">
		<tag k="alt_name" v="Stutemåsan" />
		<tag k="name" v="Stutmåsan" />
		<tag k="natural" v="wetland" />
		<tag k="ssr:stedsnr" v="430627" />
	</node>
	<node id="-31822" lat="59.9969500023" lon="11.2532972171">
		<tag k="alt_name" v="Bingen, østre" />
		<tag k="name" v="Østre Bingen" />
		<tag k="place" v="farm" />
		<tag k="ssr:stedsnr" v="429470" />
	</node>
	<node id="-31821" lat="59.9986944416" lon="11.3955138867">
		<tag k="alt_name" v="Stagrum" />
		<tag k="fixme" v="consider place=hamlet" />
		<tag k="name" v="Stagrim" />
		<tag k="place" v="farm" />
		<tag k="ssr:stedsnr" v="429456" />
	</node>
	<node id="-31820" lat="59.9934888891" lon="11.1256749924">
		<tag k="name" v="Dragonleet" />
		<tag k="place" v="locality" />
		<tag k="ssr:stedsnr" v="423636" />
	</node>
	<node id="-31819" lat="59.9663583368" lon="11.3229750035">
		<tag k="name" v="Plassen Bråten" />
		<tag k="place" v="farm" />
		<tag k="ssr:stedsnr" v="423633" />
	</node>
	<node id="-31818" lat="60.0392611114" lon="11.1873694428">
		<tag k="name" v="Nordre Asak" />
		<tag k="place" v="farm" />
		<tag k="ssr:stedsnr" v="423226" />
	</node>
	<node id="-31817" lat="60.0276166687" lon="11.2627083405">
		<tag k="name" v="Gunhildrud" />
		<tag k="place" v="locality" />
		<tag k="ssr:stedsnr" v="423219" />
	</node>
	<node id="-31816" lat="60.0415361109" lon="11.1806250011">
		<tag k="name" v="Haug" />
		<tag k="place" v="farm" />
		<tag k="ssr:stedsnr" v="423215" />
	</node>
	<node id="-31815" lat="60.0224111095" lon="11.2073083277">
		<tag k="name" v="Frydenlund" />
		<tag k="place" v="isolated_dwelling" />
		<tag k="ssr:stedsnr" v="421946" />
	</node>
	<node id="-31814" lat="60.0242333319" lon="11.172036108">
		<tag k="alt_name" v="Hønsi Vestigarden" />
		<tag k="name" v="Vestigarden Hønsi" />
		<tag k="place" v="farm" />
		<tag k="ssr:stedsnr" v="421937" />
	</node>
	<node id="-31813" lat="60.0178749971" lon="11.1850777773">
		<tag k="name" v="Melimoen" />
		<tag k="place" v="locality" />
		<tag k="ssr:stedsnr" v="421934" />
	</node>
	<node id="-31812" lat="60.0094666677" lon="11.13465">
		<tag k="alt_name" v="Ausen Søgarden" />
		<tag k="name" v="Søgarden Ausen" />
		<tag k="place" v="farm" />
		<tag k="ssr:stedsnr" v="421927" />
	</node>
	<node id="-31810" lat="59.9863638918" lon="11.3724805595">
		<tag k="name" v="Linneberg" />
		<tag k="place" v="farm" />
		<tag k="ssr:stedsnr" v="421804" />
	</node>
	<node id="-31809" lat="59.9986388861" lon="11.2725833342">
		<tag k="name" v="Sollia" />
		<tag k="place" v="locality" />
		<tag k="ssr:stedsnr" v="421789" />
	</node>
	<node id="-31808" lat="59.9902583353" lon="11.2715777764">
		<tag k="name" v="Bingsfoss stasjon" />
		<tag k="railway" v="station" />
		<tag k="ssr:stedsnr" v="421728" />
		<tag k="train" v="yes" />
	</node>
	<node id="-31807" lat="59.9965888862" lon="11.2102499961">
		<tag k="name" v="Svartevja" />
		<tag k="natural" v="bay" />
		<tag k="ssr:stedsnr" v="421718" />
	</node>
	<node id="-31806" lat="60.001786111" lon="11.1986694508">
		<tag k="name" v="Kvennstua" />
		<tag k="place" v="locality" />
		<tag k="ssr:stedsnr" v="421714" />
	</node>
	<node id="-31805" lat="59.9991611154" lon="11.1982083282">
		<tag k="name" v="Dammen" />
		<tag k="place" v="locality" />
		<tag k="ssr:stedsnr" v="421715" />
	</node>
	<node id="-31804" lat="59.9839277759" lon="11.2859861027">
		<tag k="name" v="Grinda" />
		<tag k="place" v="farm" />
		<tag k="ssr:stedsnr" v="421657" />
	</node>
	<node id="-31803" lat="59.9036722258" lon="11.3276444439">
		<tag k="name" v="Buvika" />
		<tag k="natural" v="bay" />
		<tag k="ssr:stedsnr" v="421302" />
	</node>
	<node id="-31802" lat="59.8974833342" lon="11.2845472255">
		<tag k="name" v="Byseterlia" />
		<tag k="natural" v="slope" />
		<tag k="place" v="locality" />
		<tag k="ssr:stedsnr" v="421299" />
	</node>
	<node id="-31801" lat="59.9330500021" lon="11.2786166694">
		<tag k="historic" v="shieling" />
		<tag k="name" v="Baksetra" />
		<tag k="place" v="locality" />
		<tag k="ssr:stedsnr" v="421266" />
	</node>
	<node id="-31800" lat="59.9369694479" lon="11.2538611126">
		<tag k="name" v="Korsvikåsen" />
		<tag k="natural" v="hill" />
		<tag k="place" v="locality" />
		<tag k="ssr:stedsnr" v="421261" />
	</node>
	<node id="-31799" lat="59.9054444422" lon="11.3168750004">
		<tag k="fixme" v="consider natural=peak for the most distinct mountains in the district" />
		<tag k="name" v="Langmyrhøgda" />
		<tag k="natural" v="hill" />
		<tag k="place" v="locality" />
		<tag k="ssr:stedsnr" v="421240" />
	</node>
	<node id="-31798" lat="60.020669444" lon="11.3218694359">
		<tag k="name" v="Flaen" />
		<tag k="place" v="farm" />
		<tag k="ssr:stedsnr" v="248945" />
	</node>
	<node id="-31797" lat="60.0284388905" lon="11.239980562">
		<tag k="name" v="Leikvoll" />
		<tag k="place" v="farm" />
		<tag k="ssr:stedsnr" v="248943" />
	</node>
	<node id="-31796" lat="60.0125796322" lon="11.0999944626">
		<tag k="fixme" v="consider place=hamlet" />
		<tag k="name" v="Børke" />
		<tag k="place" v="farm" />
		<tag k="ssr:stedsnr" v="248937" />
	</node>
	<node id="-31795" lat="60.0090805517" lon="11.3894833411">
		<tag k="name" v="Kurland" />
		<tag k="place" v="farm" />
		<tag k="ssr:stedsnr" v="248933" />
	</node>
	<node id="-31794" lat="60.0301222265" lon="11.329894437">
		<tag k="name" v="Rånåsfoss" />
		<tag k="place" v="village" />
		<tag k="ssr:stedsnr" v="248894" />
	</node>
	<node id="-31793" lat="60.0159777755" lon="11.0685916721">
		<tag k="name" v="Spellvoll" />
		<tag k="place" v="isolated_dwelling" />
		<tag k="ssr:stedsnr" v="248352" />
	</node>
	<node id="-31792" lat="60.0514611076" lon="11.2957750016">
		<tag k="name" v="Jultonstua" />
		<tag k="place" v="farm" />
		<tag k="ssr:stedsnr" v="248022" />
	</node>
	<node id="-31791" lat="60.0563638872" lon="11.1819083246">
		<tag k="alt_name" v="Refsum, nordre" />
		<tag k="name" v="Nordre Refsum" />
		<tag k="place" v="farm" />
		<tag k="ssr:stedsnr" v="248019" />
	</node>
	<node id="-31790" lat="60.0611888917" lon="11.2751055511">
		<tag k="fixme" v="consider natural=peak for the most distinct mountains in the district" />
		<tag k="name" v="Egneråsen" />
		<tag k="natural" v="hill" />
		<tag k="place" v="locality" />
		<tag k="ssr:stedsnr" v="248008" />
	</node>
	<node id="-31789" lat="60.0586777819" lon="11.1524888883">
		<tag k="name" v="Trosterud" />
		<tag k="place" v="farm" />
		<tag k="ssr:stedsnr" v="248005" />
	</node>
	<node id="-31788" lat="59.9376388863" lon="11.3091138834">
		<tag k="alt_name" v="Rossdalen" />
		<tag k="name" v="Råsdalen" />
		<tag k="natural" v="valley" />
		<tag k="place" v="locality" />
		<tag k="ssr:stedsnr" v="247560" />
	</node>
	<node id="-31787" lat="59.9508388905" lon="11.3092944414">
		<tag k="alt_name" v="Vestreng" />
		<tag k="name" v="Vestereng" />
		<tag k="place" v="farm" />
		<tag k="ssr:stedsnr" v="247512" />
	</node>
	<node id="-31786" lat="59.9492916625" lon="11.3380944459">
		<tag k="alt_name" v="Mork, østre;Mork" />
		<tag k="name" v="Østre Mork" />
		<tag k="place" v="farm" />
		<tag k="ssr:stedsnr" v="247510" />
	</node>
	<node id="-31785" lat="59.9624277751" lon="11.2621111135">
		<tag k="name" v="Brånan" />
		<tag k="natural" v="wetland" />
		<tag k="ssr:stedsnr" v="247502" />
	</node>
	<node id="-31784" lat="59.9695472255" lon="11.2302722191">
		<tag k="name" v="Ånnerud" />
		<tag k="place" v="farm" />
		<tag k="ssr:stedsnr" v="247486" />
	</node>
	<node id="-31783" lat="59.9740444468" lon="11.2558416748">
		<tag k="name" v="Låland" />
		<tag k="place" v="farm" />
		<tag k="ssr:stedsnr" v="247483" />
	</node>
	<node id="-31782" lat="59.9990194406" lon="11.2424777816">
		<tag k="alt_name" v="Bingen, vestre" />
		<tag k="name" v="Vestre Bingen" />
		<tag k="place" v="farm" />
		<tag k="ssr:stedsnr" v="247467" />
	</node>
	<node id="-31781" lat="59.9986916654" lon="11.310280554">
		<tag k="name" v="Fossmoen" />
		<tag k="place" v="farm" />
		<tag k="ssr:stedsnr" v="247463" />
	</node>
	<node id="-31780" lat="59.9920333304" lon="11.2486944489">
		<tag k="name" v="Lushammeren" />
		<tag k="natural" v="cape" />
		<tag k="ssr:stedsnr" v="241742" />
	</node>
	<node id="-31779" lat="60.0271944444" lon="11.1679583367">
		<tag k="alt_name" v="Hønsi Nordgarden" />
		<tag k="name" v="Nordgarden Hønsi" />
		<tag k="place" v="farm" />
		<tag k="ssr:stedsnr" v="241235" />
	</node>
	<node id="-31778" lat="60.0384888848" lon="11.18783888">
		<tag k="name" v="Nordre Asak" />
		<tag k="place" v="farm" />
		<tag k="ssr:stedsnr" v="241212" />
	</node>
	<node id="-31777" lat="60.031441666" lon="11.2327750023">
		<tag k="alt_name" v="Iverstun" />
		<tag k="name" v="Iverstuen" />
		<tag k="place" v="locality" />
		<tag k="ssr:stedsnr" v="241208" />
	</node>
	<node id="-31776" lat="60.0179055515" lon="11.2258138965">
		<tag k="name" v="Lørenenga" />
		<tag k="place" v="farm" />
		<tag k="ssr:stedsnr" v="239968" />
	</node>
	<node id="-31775" lat="60.0215972226" lon="11.1652222253">
		<tag k="amenity" v="school" />
		<tag k="name" v="Vesterskaun skole" />
		<tag k="ssr:stedsnr" v="239959" />
	</node>
	<node id="-31774" lat="60.0253666698" lon="11.1020944368">
		<tag k="amenity" v="school" />
		<tag k="name" v="Frogner skole" />
		<tag k="ssr:stedsnr" v="239835" />
	</node>
	<node id="-31773" lat="60.0168527733" lon="11.0905888924">
		<tag k="name" v="Seterhaugen" />
		<tag k="natural" v="hill" />
		<tag k="place" v="locality" />
		<tag k="ssr:stedsnr" v="239830" />
	</node>
	<node id="-31772" lat="60.0089333292" lon="11.113588884">
		<tag k="name" v="Øvre Myrer" />
		<tag k="place" v="farm" />
		<tag k="ssr:stedsnr" v="239826" />
	</node>
	<node id="-31771" lat="60.0097861097" lon="11.1141472167">
		<tag k="name" v="Nedre Myrer" />
		<tag k="place" v="farm" />
		<tag k="ssr:stedsnr" v="239827" />
	</node>
	<node id="-31770" lat="59.9989972232" lon="11.31145556">
		<tag k="name" v="Bankplassen" />
		<tag k="place" v="square" />
		<tag k="ssr:stedsnr" v="239805" />
	</node>
	<node id="-31769" lat="59.989577775" lon="11.24565834">
		<tag k="name" v="Kuskerudnebben" />
		<tag k="natural" v="cape" />
		<tag k="ssr:stedsnr" v="239731" />
	</node>
	<node id="-31768" lat="59.9924388885" lon="11.2559305509">
		<tag k="name" v="Bingen" />
		<tag k="place" v="farm" />
		<tag k="ssr:stedsnr" v="239716" />
	</node>
	<node id="-31767" lat="59.9929694483" lon="11.2764083307">
		<tag k="name" v="Fjellvang st." />
		<tag k="railway" v="halt" />
		<tag k="ssr:stedsnr" v="239715" />
		<tag k="train" v="yes" />
	</node>
	<node id="-31766" lat="59.9247083344" lon="11.3298694478">
		<tag k="name" v="Kanamåsatjennet" />
		<tag k="natural" v="water" />
		<tag k="ssr:stedsnr" v="239276" />
	</node>
	<node id="-31765" lat="59.9237222191" lon="11.3112972159">
		<tag k="name" v="Mellom-Morksetra" />
		<tag k="place" v="locality" />
		<tag k="ssr:stedsnr" v="239271" />
	</node>
	<node id="-31764" lat="59.9306972183" lon="11.2889805478">
		<tag k="name" v="Fjellgrinda" />
		<tag k="place" v="locality" />
		<tag k="ssr:stedsnr" v="239270" />
	</node>
	<node id="-31763" lat="59.91455556" lon="11.3002999971">
		<tag k="fixme" v="consider natural=peak for the most distinct mountains in the district" />
		<tag k="name" v="Dammyrhøgda" />
		<tag k="natural" v="hill" />
		<tag k="place" v="locality" />
		<tag k="ssr:stedsnr" v="239250" />
	</node>
	<node id="-31762" lat="59.9634222194" lon="11.3442861047">
		<tag k="name" v="Steinsrudåa" />
		<tag k="ssr:stedsnr" v="239246" />
		<tag k="waterway" v="river" />
	</node>
	<node id="-31761" lat="59.9183916667" lon="11.3258472283">
		<tag k="name" v="Styggdalen" />
		<tag k="natural" v="valley" />
		<tag k="place" v="locality" />
		<tag k="ssr:stedsnr" v="239239" />
	</node>
	<node id="-31760" lat="59.9168777786" lon="11.3195166639">
		<tag k="name" v="Østmorksetra" />
		<tag k="place" v="locality" />
		<tag k="ssr:stedsnr" v="239233" />
	</node>
	<node id="-31759" lat="60.0141833322" lon="11.1284222137">
		<tag k="name" v="Skrøverhagan" />
		<tag k="place" v="locality" />
		<tag k="ssr:stedsnr" v="239939" />
	</node>
	<node id="-31758" lat="60.016672226" lon="11.1306999979">
		<tag k="name" v="Yssihagan" />
		<tag k="place" v="locality" />
		<tag k="ssr:stedsnr" v="239938" />
	</node>
	<node id="-31757" lat="60.0114194462" lon="11.1382750067">
		<tag k="name" v="Grønli" />
		<tag k="place" v="farm" />
		<tag k="ssr:stedsnr" v="239935" />
	</node>
	<node id="-31756" lat="60.0354055532" lon="11.1031861143">
		<tag k="bridge" v="yes" />
		<tag k="layer" v="1" />
		<tag k="name" v="Grankrysset" />
		<tag k="ssr:stedsnr" v="228052" />
	</node>
	<node id="-31755" lat="59.9497694488" lon="11.2638805487">
		<tag k="name" v="Storrmyra" />
		<tag k="natural" v="wetland" />
		<tag k="ssr:stedsnr" v="222422" />
	</node>
	<node id="-31754" lat="59.9519888919" lon="11.3308888839">
		<tag k="junction" v="yes" />
		<tag k="name" v="Mork" />
		<tag k="place" v="locality" />
		<tag k="ssr:stedsnr" v="222416" />
	</node>
	<node id="-31753" lat="59.9211722182" lon="11.3179361157">
		<tag k="name" v="Saueberga" />
		<tag k="place" v="locality" />
		<tag k="ssr:stedsnr" v="222409" />
	</node>
	<node id="-31752" lat="59.9371527776" lon="11.2979833247">
		<tag k="name" v="Sollilia" />
		<tag k="natural" v="slope" />
		<tag k="place" v="locality" />
		<tag k="ssr:stedsnr" v="222410" />
	</node>
	<node id="-31751" lat="60.0517972265" lon="11.1612722273">
		<tag k="name" v="Østre Arteid" />
		<tag k="place" v="farm" />
		<tag k="ssr:stedsnr" v="222392" />
	</node>
	<node id="-31750" lat="60.0510083378" lon="11.1534805561">
		<tag k="name" v="Vestre Arteid" />
		<tag k="place" v="farm" />
		<tag k="ssr:stedsnr" v="222393" />
	</node>
	<node id="-31749" lat="60.0275722208" lon="11.3531583246">
		<tag k="name" v="Damstokkmyra" />
		<tag k="natural" v="wetland" />
		<tag k="ssr:stedsnr" v="222321" />
	</node>
	<node id="-31748" lat="60.0463638919" lon="11.2674388973">
		<tag k="name" v="Grindbakken" />
		<tag k="place" v="farm" />
		<tag k="ssr:stedsnr" v="222313" />
	</node>
	<node id="-31746" lat="60.04115833" lon="11.2381722286">
		<tag k="name" v="Vølnerbekken" />
		<tag k="ssr:stedsnr" v="222308" />
		<tag k="waterway" v="stream" />
	</node>
	<node id="-31744" lat="60.0287921492" lon="11.1091972048">
		<tag k="fixme" v="consider place=hamlet" />
		<tag k="name" v="Vestre Melvoll" />
		<tag k="place" v="farm" />
		<tag k="ssr:stedsnr" v="222127" />
	</node>
	<node id="-31743" lat="60.0048222181" lon="11.3013583321">
		<tag k="name" v="Blaker stasjon" />
		<tag k="railway" v="station" />
		<tag k="ssr:stedsnr" v="219377" />
		<tag k="train" v="yes" />
	</node>
	<node id="-31742" lat="60.0319750016" lon="11.0918611129">
		<tag k="fixme" v="consider place=hamlet" />
		<tag k="name" v="Eidsvoll" />
		<tag k="place" v="farm" />
		<tag k="ssr:stedsnr" v="188459" />
	</node>
	<node id="-31741" lat="60.023427777" lon="11.0905749955">
		<tag k="name" v="Rud" />
		<tag k="place" v="farm" />
		<tag k="ssr:stedsnr" v="188448" />
	</node>
	<node id="-31740" lat="60.0106472259" lon="11.3273222239">
		<tag k="alt_name" v="Nordahl;Skulerud" />
		<tag k="name" v="Norddal" />
		<tag k="place" v="farm" />
		<tag k="ssr:stedsnr" v="187901" />
	</node>
	<node id="-31739" lat="60.0131027786" lon="11.1878833406">
		<tag k="name" v="Bakke" />
		<tag k="place" v="farm" />
		<tag k="ssr:stedsnr" v="187898" />
	</node>
	<node id="-31738" lat="60.0204249993" lon="11.1857833274">
		<tag k="alt_name" v="Skau" />
		<tag k="name" v="Skog" />
		<tag k="place" v="farm" />
		<tag k="ssr:stedsnr" v="187895" />
	</node>
	<node id="-31737" lat="60.0132361106" lon="11.17013055">
		<tag k="name" v="Størsrud" />
		<tag k="place" v="farm" />
		<tag k="ssr:stedsnr" v="187894" />
	</node>
	<node id="-31736" lat="60.03863056" lon="11.2409805546">
		<tag k="fixme" v="consider place=hamlet" />
		<tag k="name" v="Gjester" />
		<tag k="place" v="farm" />
		<tag k="ssr:stedsnr" v="187887" />
	</node>
	<node id="-31735" lat="60.0415277766" lon="11.2183888812">
		<tag k="alt_name" v="Mjølnerud" />
		<tag k="name" v="Mjønerud" />
		<tag k="place" v="farm" />
		<tag k="ssr:stedsnr" v="187886" />
	</node>
	<node id="-31734" lat="60.0070277766" lon="11.3739916736">
		<tag k="name" v="Slora" />
		<tag k="place" v="farm" />
		<tag k="ssr:stedsnr" v="187954" />
	</node>
	<node id="-31733" lat="60.0058877155" lon="11.231180169">
		<tag k="fixme" v="consider place=hamlet" />
		<tag k="name" v="Sørum" />
		<tag k="place" v="farm" />
		<tag k="ssr:stedsnr" v="187943" />
	</node>
	<node id="-31732" lat="60.0138527766" lon="11.1168972276">
		<tag k="fixme" v="consider place=hamlet" />
		<tag k="name" v="Skrøver" />
		<tag k="place" v="farm" />
		<tag k="ssr:stedsnr" v="187920" />
	</node>
	<node id="-31731" lat="60.0211555529" lon="11.183858333">
		<tag k="name" v="Løken" />
		<tag k="place" v="farm" />
		<tag k="ssr:stedsnr" v="187908" />
	</node>
	<node id="-31730" lat="59.9596666628" lon="11.2392972264">
		<tag k="fixme" v="consider natural=peak for the most distinct mountains in the district" />
		<tag k="name" v="Olerudåsen" />
		<tag k="natural" v="hill" />
		<tag k="place" v="locality" />
		<tag k="ssr:stedsnr" v="187497" />
	</node>
	<node id="-31729" lat="59.970849998" lon="11.3426027802">
		<tag k="name" v="Kauserud" />
		<tag k="place" v="farm" />
		<tag k="ssr:stedsnr" v="187471" />
	</node>
	<node id="-31728" lat="59.9036249997" lon="11.3298027751">
		<tag k="alt_name" v="Jarsjøen, østre" />
		<tag k="name" v="Østre Jarsjøen" />
		<tag k="natural" v="water" />
		<tag k="ssr:stedsnr" v="187577" />
	</node>
	<node id="-31727" lat="60.0615416693" lon="11.2527000062">
		<tag k="name" v="Vatterud" />
		<tag k="place" v="farm" />
		<tag k="ssr:stedsnr" v="187006" />
	</node>
	<node id="-31726" lat="59.9919555532" lon="11.2648444412">
		<tag k="name" v="Ekra" />
		<tag k="place" v="farm" />
		<tag k="ssr:stedsnr" v="186537" />
	</node>
	<node id="-31725" lat="59.9902583332" lon="11.3007972282">
		<tag k="name" v="Sylta" />
		<tag k="place" v="farm" />
		<tag k="ssr:stedsnr" v="186535" />
	</node>
	<node id="-31724" lat="59.9921583341" lon="11.1493083393">
		<tag k="fixme" v="consider natural=peak for the most distinct mountains in the district" />
		<tag k="name" v="Farshatten" />
		<tag k="natural" v="hill" />
		<tag k="place" v="locality" />
		<tag k="ssr:stedsnr" v="186551" />
	</node>
	<node id="-31723" lat="59.9816305512" lon="11.2681000046">
		<tag k="name" v="Lillejordet" />
		<tag k="place" v="farm" />
		<tag k="ssr:stedsnr" v="186491" />
	</node>
	<node id="-31722" lat="59.9868527818" lon="11.3687138909">
		<tag k="name" v="Grindbakken" />
		<tag k="place" v="farm" />
		<tag k="ssr:stedsnr" v="186507" />
	</node>
	<node id="-31721" lat="59.9748472192" lon="11.3569777698">
		<tag k="name" v="Vesthagan" />
		<tag k="place" v="locality" />
		<tag k="ssr:stedsnr" v="180589" />
	</node>
	<node id="-31720" lat="59.9897916635" lon="11.1320722171">
		<tag k="name" v="Trollheimen" />
		<tag k="place" v="isolated_dwelling" />
		<tag k="ssr:stedsnr" v="180587" />
	</node>
	<node id="-31719" lat="59.9797583325" lon="11.3368194359">
		<tag k="name" v="Mohagan" />
		<tag k="place" v="locality" />
		<tag k="ssr:stedsnr" v="180579" />
	</node>
	<node id="-31718" lat="60.0266888852" lon="11.2113972224">
		<tag k="name" v="Vestheim" />
		<tag k="place" v="isolated_dwelling" />
		<tag k="ssr:stedsnr" v="180225" />
	</node>
	<node id="-31717" lat="60.0219555584" lon="11.1888111134">
		<tag k="name" v="Vårum" />
		<tag k="place" v="farm" />
		<tag k="ssr:stedsnr" v="178946" />
	</node>
	<node id="-31716" lat="60.0215750007" lon="11.2201027717">
		<tag k="name" v="Luterud" />
		<tag k="place" v="isolated_dwelling" />
		<tag k="ssr:stedsnr" v="178936" />
	</node>
	<node id="-31715" lat="60.0110888878" lon="11.1858861141">
		<tag k="name" v="Holtet" />
		<tag k="place" v="locality" />
		<tag k="ssr:stedsnr" v="178925" />
	</node>
	<node id="-31714" lat="60.0165333323" lon="11.1568694448">
		<tag k="name" v="Hønsi" />
		<tag k="place" v="farm" />
		<tag k="ssr:stedsnr" v="178904" />
	</node>
	<node id="-31713" lat="60.0241249969" lon="11.1134666615">
		<tag k="name" v="Frognerhagan" />
		<tag k="place" v="quarter" />
		<tag k="ssr:stedsnr" v="178801" />
	</node>
	<node id="-31712" lat="60.0247388864" lon="11.095719448">
		<tag k="name" v="Bruhaugen" />
		<tag k="place" v="farm" />
		<tag k="ssr:stedsnr" v="178795" />
	</node>
	<node id="-31711" lat="59.9920638892" lon="11.3696055626">
		<tag k="amenity" v="nursing_home" />
		<tag k="name" v="Fjuk bofellesskap" />
		<tag k="ssr:stedsnr" v="178785" />
	</node>
	<node id="-31710" lat="59.9923888861" lon="11.3974777815">
		<tag k="name" v="Klingemåsan" />
		<tag k="natural" v="wetland" />
		<tag k="ssr:stedsnr" v="178781" />
	</node>
	<node id="-31709" lat="60.0005666635" lon="11.3417138972">
		<tag k="amenity" v="community_centre" />
		<tag k="name" v="Skytterhuset" />
		<tag k="ssr:stedsnr" v="178766" />
	</node>
	<node id="-31708" lat="59.9945555519" lon="11.2977666748">
		<tag k="name" v="Værhauglia" />
		<tag k="natural" v="slope" />
		<tag k="place" v="locality" />
		<tag k="ssr:stedsnr" v="178763" />
	</node>
	<node id="-31707" lat="59.9882194437" lon="11.3282027787">
		<tag k="name" v="Skukstad" />
		<tag k="place" v="farm" />
		<tag k="ssr:stedsnr" v="178758" />
	</node>
	<node id="-31706" lat="60.0009944455" lon="11.2578222143">
		<tag k="name" v="Myrvang" />
		<tag k="place" v="farm" />
		<tag k="ssr:stedsnr" v="178757" />
	</node>
	<node id="-31705" lat="59.994977775" lon="11.2046194532">
		<tag k="name" v="Linnerud" />
		<tag k="place" v="locality" />
		<tag k="ssr:stedsnr" v="178694" />
	</node>
	<node id="-31704" lat="60.0017083299" lon="11.2296388801">
		<tag k="name" v="Sørumsbråtan" />
		<tag k="place" v="farm" />
		<tag k="ssr:stedsnr" v="178689" />
	</node>
	<node id="-31703" lat="59.8837805519" lon="11.3217472274">
		<tag k="name" v="Svartputten" />
		<tag k="natural" v="bay" />
		<tag k="ssr:stedsnr" v="178288" />
	</node>
	<node id="-31702" lat="59.9245305545" lon="11.3210694419">
		<tag k="name" v="Kjeisomkring" />
		<tag k="place" v="locality" />
		<tag k="ssr:stedsnr" v="178269" />
	</node>
	<node id="-31701" lat="59.9187972196" lon="11.2815944412">
		<tag k="name" v="Vangsmåsan" />
		<tag k="natural" v="wetland" />
		<tag k="ssr:stedsnr" v="178238" />
	</node>
	<node id="-31700" lat="60.0055555514" lon="11.1392305621">
		<tag k="name" v="Ausenfjellet industriområde" />
		<tag k="place" v="quarter" />
		<tag k="ssr:stedsnr" v="176093" />
	</node>
	<node id="-31699" lat="59.9823750038" lon="11.2200916645">
		<tag k="alt_name" v="Vestby nordre;Arstun;Arstuen" />
		<tag k="name" v="Nordre Vestby" />
		<tag k="place" v="farm" />
		<tag k="ssr:stedsnr" v="173106" />
	</node>
	<node id="-31697" lat="60.0042083337" lon="11.2730916691">
		<tag k="name" v="Vallstad" />
		<tag k="place" v="locality" />
		<tag k="ssr:stedsnr" v="163040" />
	</node>
	<node id="-31696" lat="60.0214166696" lon="11.2717611044">
		<tag k="name" v="Bråtan" />
		<tag k="place" v="locality" />
		<tag k="ssr:stedsnr" v="163027" />
	</node>
	<node id="-31695" lat="59.9519833328" lon="11.3332527809">
		<tag k="building" v="industrial" />
		<tag k="name" v="Jødalssaga" />
		<tag k="ssr:stedsnr" v="161451" />
	</node>
	<node id="-31694" lat="59.9653749964" lon="11.2199027854">
		<tag k="name" v="Åsen" />
		<tag k="place" v="farm" />
		<tag k="ssr:stedsnr" v="161448" />
	</node>
	<node id="-31693" lat="59.9458083337" lon="11.2847944385">
		<tag k="name" v="Setermyra" />
		<tag k="natural" v="wetland" />
		<tag k="ssr:stedsnr" v="161444" />
	</node>
	<node id="-31692" lat="59.9490133577" lon="11.330304941">
		<tag k="fixme" v="consider place=hamlet" />
		<tag k="name" v="Mork" />
		<tag k="place" v="farm" />
		<tag k="ssr:stedsnr" v="161443" />
	</node>
	<node id="-31691" lat="59.9337055567" lon="11.3163416618">
		<tag k="name" v="Høgmåslia" />
		<tag k="natural" v="slope" />
		<tag k="place" v="locality" />
		<tag k="ssr:stedsnr" v="161439" />
	</node>
	<node id="-31690" lat="60.0672277788" lon="11.2591499992">
		<tag k="alt_name" v="Egner oppigarn" />
		<tag k="name" v="Oppigarden Egner" />
		<tag k="place" v="farm" />
		<tag k="ssr:stedsnr" v="161438" />
	</node>
	<node id="-31689" lat="60.0567305557" lon="11.2479222255">
		<tag k="name" v="Dalen" />
		<tag k="place" v="locality" />
		<tag k="ssr:stedsnr" v="161436" />
	</node>
	<node id="-31688" lat="59.9762194409" lon="11.2262027718">
		<tag k="name" v="Nordre Østby" />
		<tag k="place" v="farm" />
		<tag k="ssr:stedsnr" v="161431" />
	</node>
	<node id="-31687" lat="60.0539277752" lon="11.1167555627">
		<tag k="name" v="Bjørkelund" />
		<tag k="place" v="farm" />
		<tag k="ssr:stedsnr" v="161417" />
	</node>
	<node id="-31686" lat="60.0494138894" lon="11.1114888967">
		<tag k="alt_name" v="Bjørke Søgarden" />
		<tag k="name" v="Søgarden Bjørke" />
		<tag k="place" v="farm" />
		<tag k="ssr:stedsnr" v="161416" />
	</node>
	<node id="-31685" lat="60.0534305513" lon="11.2005777784">
		<tag k="name" v="Refsummyra" />
		<tag k="natural" v="wetland" />
		<tag k="ssr:stedsnr" v="161406" />
	</node>
	<node id="-31684" lat="59.9645083326" lon="11.2947527831">
		<tag k="name" v="Tjuvhølet" />
		<tag k="natural" v="wetland" />
		<tag k="ssr:stedsnr" v="161374" />
	</node>
	<node id="-31683" lat="59.9765083326" lon="11.2572305473">
		<tag k="name" v="Sameien" />
		<tag k="place" v="farm" />
		<tag k="ssr:stedsnr" v="161366" />
	</node>
	<node id="-31682" lat="59.9791027787" lon="11.2331361076">
		<tag k="amenity" v="school" />
		<tag k="name" v="Sørumsand skole" />
		<tag k="ssr:stedsnr" v="161364" />
	</node>
	<node id="-31681" lat="60.0108444457" lon="11.3237833337">
		<tag k="junction" v="yes" />
		<tag k="name" v="Eidsteiet" />
		<tag k="place" v="locality" />
		<tag k="ssr:stedsnr" v="161177" />
	</node>
	<node id="-31680" lat="60.0265860465" lon="11.1179310557">
		<tag k="fixme" v="consider place=hamlet" />
		<tag k="name" v="Østre Melvoll" />
		<tag k="place" v="farm" />
		<tag k="ssr:stedsnr" v="161166" />
	</node>
	<node id="-31679" lat="59.9629989345" lon="11.3298379957">
		<tag k="name" v="Jødal" />
		<tag k="place" v="hamlet" />
		<tag k="ssr:stedsnr" v="161653" />
	</node>
	<node id="-31678" lat="60.0002802738" lon="11.2976759733">
		<tag k="fixme" v="consider place=hamlet" />
		<tag k="name" v="Foss" />
		<tag k="place" v="farm" />
		<tag k="ssr:stedsnr" v="127947" />
	</node>
	<node id="-31677" lat="60.0008638858" lon="11.3372638892">
		<tag k="fixme" v="consider place=hamlet" />
		<tag k="name" v="Kleiva" />
		<tag k="place" v="farm" />
		<tag k="ssr:stedsnr" v="127967" />
	</node>
	<node id="-31676" lat="60.0064882322" lon="11.2275660366">
		<tag k="fixme" v="consider place=hamlet" />
		<tag k="name" v="Smedsrud" />
		<tag k="place" v="farm" />
		<tag k="ssr:stedsnr" v="127959" />
	</node>
	<node id="-31675" lat="60.0283527735" lon="11.0842972195">
		<tag k="name" v="Tømmereggen" />
		<tag k="place" v="farm" />
		<tag k="ssr:stedsnr" v="127418" />
	</node>
	<node id="-31674" lat="60.0117416709" lon="11.1781555553">
		<tag k="name" v="Bakenga" />
		<tag k="place" v="farm" />
		<tag k="ssr:stedsnr" v="126954" />
	</node>
	<node id="-31673" lat="60.0040611133" lon="11.2034472257">
		<tag k="name" v="Bæregg" />
		<tag k="place" v="farm" />
		<tag k="ssr:stedsnr" v="126951" />
	</node>
	<node id="-31672" lat="60.0130027765" lon="11.142538894">
		<tag k="name" v="Myrvoll" />
		<tag k="place" v="farm" />
		<tag k="ssr:stedsnr" v="126952" />
	</node>
	<node id="-31671" lat="60.0194083338" lon="11.1666777709">
		<tag k="name" v="Lunder" />
		<tag k="place" v="farm" />
		<tag k="ssr:stedsnr" v="126900" />
	</node>
	<node id="-31670" lat="60.0377833315" lon="11.3321027692">
		<tag k="name" v="Simarud" />
		<tag k="place" v="farm" />
		<tag k="ssr:stedsnr" v="126894" />
	</node>
	<node id="-31669" lat="60.0151638853" lon="11.1474833291">
		<tag k="name" v="Moen" />
		<tag k="place" v="farm" />
		<tag k="ssr:stedsnr" v="126929" />
	</node>
	<node id="-31668" lat="60.0200777787" lon="11.3641083345">
		<tag k="alt_name" v="Svarstadtjennet" />
		<tag k="name" v="Svarstadtjernet" />
		<tag k="natural" v="water" />
		<tag k="ssr:stedsnr" v="126923" />
	</node>
	<node id="-31667" lat="60.0234194428" lon="11.199100008">
		<tag k="name" v="Vestenga" />
		<tag k="place" v="farm" />
		<tag k="ssr:stedsnr" v="126917" />
	</node>
	<node id="-31666" lat="60.0052398505" lon="11.1042614658">
		<tag k="fixme" v="consider place=hamlet" />
		<tag k="name" v="Leirud" />
		<tag k="place" v="farm" />
		<tag k="ssr:stedsnr" v="126909" />
	</node>
	<node id="-31665" lat="60.0184444452" lon="11.3406472242">
		<tag k="name" v="Larsrud" />
		<tag k="place" v="farm" />
		<tag k="ssr:stedsnr" v="126907" />
	</node>
	<node id="-31664" lat="60.0133805568" lon="11.2925555522">
		<tag k="name" v="Skulerud" />
		<tag k="place" v="isolated_dwelling" />
		<tag k="ssr:stedsnr" v="126905" />
	</node>
	<node id="-31663" lat="59.9536083307" lon="11.2199055584">
		<tag k="alt_name" v="Lintjenna" />
		<tag k="name" v="Lintjerna" />
		<tag k="natural" v="water" />
		<tag k="ssr:stedsnr" v="126543" />
	</node>
	<node id="-31662" lat="59.9620277797" lon="11.2297666748">
		<tag k="name" v="Veamyra" />
		<tag k="natural" v="wetland" />
		<tag k="ssr:stedsnr" v="126524" />
	</node>
	<node id="-31661" lat="59.9372888913" lon="11.2780833345">
		<tag k="alt_name" v="Langtjennet" />
		<tag k="name" v="Langtjern" />
		<tag k="natural" v="water" />
		<tag k="ssr:stedsnr" v="126566" />
	</node>
	<node id="-31660" lat="59.9310027784" lon="11.2858861082">
		<tag k="name" v="Krokstad" />
		<tag k="place" v="farm" />
		<tag k="ssr:stedsnr" v="126565" />
	</node>
	<node id="-31659" lat="59.9831874825" lon="11.2212444498">
		<tag k="fixme" v="consider place=hamlet" />
		<tag k="name" v="Vestby" />
		<tag k="place" v="farm" />
		<tag k="ssr:stedsnr" v="126464" />
	</node>
	<node id="-31658" lat="59.9776388935" lon="11.4102833249">
		<tag k="alt_name" v="Høgmåsan" />
		<tag k="name" v="Høgemåsan" />
		<tag k="natural" v="wetland" />
		<tag k="ssr:stedsnr" v="126454" />
	</node>
	<node id="-31657" lat="60.0569166668" lon="11.2092527754">
		<tag k="name" v="Sagen" />
		<tag k="place" v="farm" />
		<tag k="ssr:stedsnr" v="126016" />
	</node>
	<node id="-31656" lat="59.8851611097" lon="11.3090638847">
		<tag k="name" v="Sankthansmyrene" />
		<tag k="natural" v="wetland" />
		<tag k="ssr:stedsnr" v="125676" />
	</node>
	<node id="-31655" lat="59.9886611072" lon="11.3350055559">
		<tag k="name" v="Nyhus" />
		<tag k="place" v="farm" />
		<tag k="ssr:stedsnr" v="125486" />
	</node>
	<node id="-31654" lat="59.9653805561" lon="11.37239444">
		<tag k="name" v="Ånerudstua" />
		<tag k="place" v="farm" />
		<tag k="ssr:stedsnr" v="120589" />
	</node>
	<node id="-31653" lat="59.9972333359" lon="11.1692416748">
		<tag k="name" v="Borkedalslia" />
		<tag k="natural" v="slope" />
		<tag k="place" v="locality" />
		<tag k="ssr:stedsnr" v="120580" />
	</node>
	<node id="-31652" lat="59.973222226" lon="11.321450007">
		<tag k="name" v="Olstad" />
		<tag k="place" v="farm" />
		<tag k="ssr:stedsnr" v="120576" />
	</node>
	<node id="-31651" lat="59.9643083351" lon="11.380002774">
		<tag k="junction" v="yes" />
		<tag k="name" v="Sandbakken" />
		<tag k="place" v="locality" />
		<tag k="ssr:stedsnr" v="120570" />
	</node>
	<node id="-31650" lat="59.9662055543" lon="11.3624722161">
		<tag k="name" v="Nyland" />
		<tag k="place" v="locality" />
		<tag k="ssr:stedsnr" v="120568" />
	</node>
	<node id="-31649" lat="60.0366083308" lon="11.1541583284">
		<tag k="name" v="Hasler" />
		<tag k="place" v="locality" />
		<tag k="ssr:stedsnr" v="120231" />
	</node>
	<node id="-31648" lat="60.0341166629" lon="11.2339055527">
		<tag k="alt_name" v="Nordgarn" />
		<tag k="name" v="Nordgarden" />
		<tag k="place" v="farm" />
		<tag k="ssr:stedsnr" v="120215" />
	</node>
	<node id="-31647" lat="60.0317861088" lon="11.1236138926">
		<tag k="name" v="Søndre Mo" />
		<tag k="place" v="farm" />
		<tag k="ssr:stedsnr" v="119235" />
	</node>
	<node id="-31645" lat="59.9957083339" lon="11.1990194454">
		<tag k="name" v="Sibilstua" />
		<tag k="place" v="locality" />
		<tag k="ssr:stedsnr" v="118692" />
	</node>
	<node id="-31644" lat="59.9863388848" lon="11.2617722278">
		<tag k="name" v="Tømmertangen" />
		<tag k="natural" v="cape" />
		<tag k="ssr:stedsnr" v="118620" />
	</node>
	<node id="-31643" lat="59.9873444415" lon="11.2826916583">
		<tag k="name" v="Fossum stasjon" />
		<tag k="railway" v="station" />
		<tag k="ssr:stedsnr" v="118619" />
		<tag k="train" v="yes" />
	</node>
	<node id="-31642" lat="60.0158527763" lon="11.2110333417">
		<tag k="name" v="Søndre Meli" />
		<tag k="place" v="farm" />
		<tag k="ssr:stedsnr" v="117943" />
	</node>
	<node id="-31641" lat="60.0235805538" lon="11.2038500086">
		<tag k="name" v="Grostua" />
		<tag k="place" v="isolated_dwelling" />
		<tag k="ssr:stedsnr" v="117939" />
	</node>
	<node id="-31640" lat="60.0208361105" lon="11.2009750058">
		<tag k="name" v="Granås" />
		<tag k="place" v="farm" />
		<tag k="ssr:stedsnr" v="117937" />
	</node>
	<node id="-31639" lat="60.0074805551" lon="11.2229055515">
		<tag k="alt_name" v="Smedsrud klokkerstua" />
		<tag k="name" v="Klokkerstua Smedsrud" />
		<tag k="place" v="farm" />
		<tag k="ssr:stedsnr" v="117921" />
	</node>
	<node id="-31638" lat="60.0189000002" lon="11.1339666751">
		<tag k="alt_name" v="Yssi Søgarden" />
		<tag k="name" v="Søgarden Yssi" />
		<tag k="place" v="farm" />
		<tag k="ssr:stedsnr" v="117907" />
	</node>
	<node id="-31637" lat="60.0154388893" lon="11.1623083301">
		<tag k="name" v="Lunderflaen" />
		<tag k="place" v="farm" />
		<tag k="ssr:stedsnr" v="117902" />
	</node>
	<node id="-31636" lat="60.0224472191" lon="11.1166611185">
		<tag k="junction" v="yes" />
		<tag k="name" v="Hval" />
		<tag k="place" v="locality" />
		<tag k="ssr:stedsnr" v="117808" />
	</node>
	<node id="-31635" lat="60.0089638894" lon="11.0924583343">
		<tag k="name" v="Børkeløkka" />
		<tag k="place" v="farm" />
		<tag k="ssr:stedsnr" v="117792" />
	</node>
	<node id="-31634" lat="59.9845499998" lon="11.3582944365">
		<tag k="name" v="Kjølstadhagan" />
		<tag k="place" v="locality" />
		<tag k="ssr:stedsnr" v="117786" />
	</node>
	<node id="-31633" lat="59.9978805558" lon="11.3168277736">
		<tag k="name" v="Lille Huseby" />
		<tag k="place" v="farm" />
		<tag k="ssr:stedsnr" v="117781" />
	</node>
	<node id="-31632" lat="59.9625133149" lon="11.3298627894">
		<tag k="alt_name" v="Jødal store" />
		<tag k="name" v="Store Jødal" />
		<tag k="place" v="farm" />
		<tag k="ssr:stedsnr" v="117637" />
	</node>
	<node id="-31631" lat="59.9087305581" lon="11.317463884">
		<tag k="name" v="Langmyrene" />
		<tag k="natural" v="wetland" />
		<tag k="ssr:stedsnr" v="117296" />
	</node>
	<node id="-31630" lat="59.9081666666" lon="11.3234861102">
		<tag k="name" v="Orremåsan" />
		<tag k="natural" v="wetland" />
		<tag k="ssr:stedsnr" v="117295" />
	</node>
	<node id="-31629" lat="60.0136611121" lon="11.2514722223">
		<tag k="name" v="Skeabekken" />
		<tag k="ssr:stedsnr" v="103021" />
		<tag k="waterway" v="stream" />
	</node>
	<node id="-31628" lat="59.9702916675" lon="11.2047694451">
		<tag k="name" v="Lystadtangen" />
		<tag k="natural" v="cape" />
		<tag k="ssr:stedsnr" v="100430" />
	</node>
	<node id="-31627" lat="59.9476027745" lon="11.2766250033">
		<tag k="name" v="Fossumsetra" />
		<tag k="place" v="locality" />
		<tag k="ssr:stedsnr" v="100427" />
	</node>
	<node id="-31626" lat="59.9625555589" lon="11.3349083399">
		<tag k="name" v="Krokstadåa" />
		<tag k="ssr:stedsnr" v="100417" />
		<tag k="waterway" v="stream" />
	</node>
	<node id="-31625" lat="60.0472111105" lon="11.2984444454">
		<tag k="name" v="Slottet" />
		<tag k="place" v="farm" />
		<tag k="ssr:stedsnr" v="100405" />
	</node>
	<node id="-31624" lat="60.0549527807" lon="11.2730944368">
		<tag k="name" v="Vølnebergåsen" />
		<tag k="natural" v="hill" />
		<tag k="place" v="locality" />
		<tag k="ssr:stedsnr" v="100398" />
	</node>
	<node id="-31623" lat="60.0497444449" lon="11.1133249941">
		<tag k="alt_name" v="Bjørke Nordigarden" />
		<tag k="name" v="Nordigarden Bjørke" />
		<tag k="place" v="farm" />
		<tag k="ssr:stedsnr" v="100385" />
	</node>
	<node id="-31622" lat="60.0524111077" lon="11.2346388845">
		<tag k="name" v="Vølner" />
		<tag k="place" v="farm" />
		<tag k="ssr:stedsnr" v="100375" />
	</node>
	<node id="-31621" lat="59.9689222227" lon="11.2553694424">
		<tag k="fixme" v="consider natural=peak for the most distinct mountains in the district" />
		<tag k="name" v="Løgnåsen" />
		<tag k="natural" v="hill" />
		<tag k="place" v="locality" />
		<tag k="ssr:stedsnr" v="100351" />
	</node>
	<node id="-31620" lat="60.0355222203" lon="11.3068777773">
		<tag k="name" v="Tolerud" />
		<tag k="place" v="farm" />
		<tag k="ssr:stedsnr" v="100307" />
	</node>
	<node id="-31619" lat="60.0255777821" lon="11.3031888848">
		<tag k="name" v="Fosserudhøgda" />
		<tag k="natural" v="hill" />
		<tag k="place" v="locality" />
		<tag k="ssr:stedsnr" v="100301" />
	</node>
	<node id="-31618" lat="60.0274972264" lon="11.322977783">
		<tag k="landuse" v="industrial" />
		<tag k="name" v="AEV" />
		<tag k="power" v="plant" />
		<tag k="ssr:stedsnr" v="100300" />
	</node>
	<node id="-31617" lat="60.0406194466" lon="11.2698277824">
		<tag k="fixme" v="consider highway=path" />
		<tag k="highway" v="track" />
		<tag k="name" v="Fjellvegen" />
		<tag k="ssr:stedsnr" v="100298" />
	</node>
	<node id="-31616" lat="60.0397638859" lon="11.2489416615">
		<tag k="name" v="Granerud" />
		<tag k="place" v="locality" />
		<tag k="ssr:stedsnr" v="100295" />
	</node>
	<node id="-31615" lat="60.0354888868" lon="11.2813083314">
		<tag k="name" v="Furulund" />
		<tag k="place" v="locality" />
		<tag k="ssr:stedsnr" v="100292" />
	</node>
	<node id="-31614" lat="60.0054166656" lon="11.3589388968">
		<tag k="name" v="Kringsjå" />
		<tag k="place" v="farm" />
		<tag k="ssr:stedsnr" v="100148" />
	</node>
	<node id="-31613" lat="60.0046194407" lon="11.3902194404">
		<tag k="name" v="Øverby" />
		<tag k="place" v="farm" />
		<tag k="ssr:stedsnr" v="100146" />
	</node>
	<node id="-31612" lat="60.0102416712" lon="11.3598027724">
		<tag k="fixme" v="consider natural=peak for the most distinct mountains in the district" />
		<tag k="name" v="Toreidfjellet" />
		<tag k="natural" v="hill" />
		<tag k="place" v="locality" />
		<tag k="ssr:stedsnr" v="100144" />
	</node>
	<node id="-31611" lat="60.0310888851" lon="11.0781166733">
		<tag k="name" v="Furulund" />
		<tag k="place" v="hamlet" />
		<tag k="ssr:stedsnr" v="100142" />
	</node>
	<node id="-31610" lat="60.0303888907" lon="11.1143694382">
		<tag k="junction" v="yes" />
		<tag k="name" v="Mo" />
		<tag k="place" v="locality" />
		<tag k="ssr:stedsnr" v="100139" />
	</node>
	<node id="-31609" lat="60.037377778" lon="11.1182083344">
		<tag k="amenity" v="nursing_home" />
		<tag k="name" v="Mohagen sykehjem" />
		<tag k="ssr:stedsnr" v="100137" />
	</node>
	<node id="-31608" lat="60.047136113" lon="11.215497226">
		<tag k="name" v="Tangerud" />
		<tag k="place" v="farm" />
		<tag k="ssr:stedsnr" v="66884" />
	</node>
	<node id="-31607" lat="60.0335808108" lon="11.1146038382">
		<tag k="fixme" v="consider place=hamlet" />
		<tag k="name" v="Mo" />
		<tag k="place" v="farm" />
		<tag k="ssr:stedsnr" v="66872" />
	</node>
	<node id="-31606" lat="59.9556583291" lon="11.2365694502">
		<tag k="alt_name" v="Damtjennet" />
		<tag k="name" v="Damtjern" />
		<tag k="natural" v="water" />
		<tag k="ssr:stedsnr" v="66518" />
	</node>
	<node id="-31605" lat="59.9509388914" lon="11.2846805483">
		<tag k="alt_name" v="Igletjennshøgda" />
		<tag k="fixme" v="consider natural=peak for the most distinct mountains in the district" />
		<tag k="name" v="Igletjernhøgda" />
		<tag k="natural" v="hill" />
		<tag k="place" v="locality" />
		<tag k="ssr:stedsnr" v="66512" />
	</node>
	<node id="-31604" lat="60.0371583349" lon="11.0649194437">
		<tag k="fixme" v="multiple name tags, choose one and add the other to alt_name; consider natural=peak for the most distinct mountains in the district" />
		<tag k="name" v="Heksebergfjellet;Vardåsen;Vardfjellet" />
		<tag k="natural" v="hill" />
		<tag k="old_name" v="Heksebergfjeldet" />
		<tag k="place" v="locality" />
		<tag k="ssr:stedsnr" v="66374" />
	</node>
	<node id="-31603" lat="60.0516166634" lon="11.1225527798">
		<tag k="name" v="Bjørkemoen" />
		<tag k="place" v="farm" />
		<tag k="ssr:stedsnr" v="66018" />
	</node>
	<node id="-31602" lat="59.9151305563" lon="11.3105916743">
		<tag k="name" v="Brumåsan" />
		<tag k="natural" v="wetland" />
		<tag k="ssr:stedsnr" v="65604" />
	</node>
	<node id="-31601" lat="59.9209277785" lon="11.2700194388">
		<tag k="alt_name" v="Seterdalen" />
		<tag k="name" v="Sæterdalen" />
		<tag k="natural" v="valley" />
		<tag k="place" v="locality" />
		<tag k="ssr:stedsnr" v="65602" />
	</node>
	<node id="-31600" lat="59.9783722226" lon="11.213819437">
		<tag k="fixme" v="multiple name tags, choose one and add the other to alt_name" />
		<tag k="name" v="Tangen;Østbytangen" />
		<tag k="place" v="farm" />
		<tag k="ssr:stedsnr" v="65453" />
	</node>
	<node id="-31599" lat="59.9788527783" lon="11.4193138866">
		<tag k="name" v="Fjuktjern" />
		<tag k="natural" v="water" />
		<tag k="ssr:stedsnr" v="65442" />
	</node>
	<node id="-31598" lat="59.9789830666" lon="11.3598425169">
		<tag k="name" v="Hellene" />
		<tag k="place" v="farm" />
		<tag k="ssr:stedsnr" v="65428" />
	</node>
	<node id="-31597" lat="59.9797166628" lon="11.3111527715">
		<tag k="name" v="Nebbenes" />
		<tag k="place" v="farm" />
		<tag k="ssr:stedsnr" v="65427" />
	</node>
	<node id="-31596" lat="60.0070444467" lon="11.3264027764">
		<tag k="name" v="Tømte" />
		<tag k="place" v="farm" />
		<tag k="ssr:stedsnr" v="66958" />
	</node>
	<node id="-31595" lat="60.0088055564" lon="11.1415305572">
		<tag k="name" v="Åslia" />
		<tag k="place" v="farm" />
		<tag k="ssr:stedsnr" v="66950" />
	</node>
	<node id="-31594" lat="59.9992750003" lon="11.1237888906">
		<tag k="highway" v="path" />
		<tag k="name" v="Dragonvegen" />
		<tag k="ssr:stedsnr" v="59595" />
	</node>
	<node id="-31593" lat="59.998705554" lon="11.1335444495">
		<tag k="name" v="Ulvemyra" />
		<tag k="natural" v="wetland" />
		<tag k="ssr:stedsnr" v="59594" />
	</node>
	<node id="-31592" lat="60.0255305563" lon="11.1756750048">
		<tag k="name" v="Østhagan" />
		<tag k="place" v="locality" />
		<tag k="ssr:stedsnr" v="59244" />
	</node>
	<node id="-31591" lat="60.0386861102" lon="11.1296944484">
		<tag k="name" v="Ulverudbekken" />
		<tag k="ssr:stedsnr" v="59243" />
		<tag k="waterway" v="stream" />
	</node>
	<node id="-31590" lat="60.0375333344" lon="11.1690499968">
		<tag k="name" v="Øgarden" />
		<tag k="place" v="locality" />
		<tag k="ssr:stedsnr" v="59238" />
	</node>
	<node id="-31588" lat="59.9907694418" lon="11.3716472287">
		<tag k="amenity" v="school" />
		<tag k="name" v="Fjuk skole" />
		<tag k="ssr:stedsnr" v="57788" />
	</node>
	<node id="-31587" lat="59.9895805552" lon="11.3238861065">
		<tag k="name" v="Skukstadmoen" />
		<tag k="place" v="locality" />
		<tag k="ssr:stedsnr" v="57779" />
	</node>
	<node id="-31586" lat="59.9901583288" lon="11.3124861164">
		<tag k="name" v="Høyås" />
		<tag k="place" v="farm" />
		<tag k="ssr:stedsnr" v="57774" />
	</node>
	<node id="-31585" lat="60.0164611075" lon="11.211200001">
		<tag k="name" v="Nordre Meli" />
		<tag k="place" v="farm" />
		<tag k="ssr:stedsnr" v="57941" />
	</node>
	<node id="-31584" lat="60.0241194463" lon="11.2162333271">
		<tag k="name" v="Østre Nordli" />
		<tag k="place" v="farm" />
		<tag k="ssr:stedsnr" v="57937" />
	</node>
	<node id="-31583" lat="60.0229083349" lon="11.2059777831">
		<tag k="name" v="Veiby" />
		<tag k="place" v="isolated_dwelling" />
		<tag k="ssr:stedsnr" v="57936" />
	</node>
	<node id="-31582" lat="60.0188055528" lon="11.173813897">
		<tag k="name" v="Øgarden" />
		<tag k="place" v="locality" />
		<tag k="ssr:stedsnr" v="57926" />
	</node>
	<node id="-31581" lat="60.0061333353" lon="11.1868666674">
		<tag k="name" v="Flalykkja" />
		<tag k="place" v="locality" />
		<tag k="ssr:stedsnr" v="57927" />
	</node>
	<node id="-31580" lat="60.0143777803" lon="11.1624166607">
		<tag k="name" v="Lunderenga" />
		<tag k="place" v="farm" />
		<tag k="ssr:stedsnr" v="57909" />
	</node>
	<node id="-31579" lat="59.990113886" lon="11.1777583381">
		<tag k="name" v="Tjennsdalen" />
		<tag k="natural" v="valley" />
		<tag k="place" v="locality" />
		<tag k="ssr:stedsnr" v="57700" />
	</node>
	<node id="-31578" lat="59.996386107" lon="11.2138583301">
		<tag k="name" v="Markensevja" />
		<tag k="natural" v="bay" />
		<tag k="ssr:stedsnr" v="57696" />
	</node>
	<node id="-31577" lat="59.9865444412" lon="11.2242611133">
		<tag k="name" v="Sprengen" />
		<tag k="place" v="farm" />
		<tag k="ssr:stedsnr" v="57632" />
	</node>
	<node id="-31576" lat="59.9159944422" lon="11.2908472307">
		<tag k="fixme" v="consider natural=peak for the most distinct mountains in the district" />
		<tag k="name" v="Jervedalshøgda" />
		<tag k="natural" v="hill" />
		<tag k="place" v="locality" />
		<tag k="ssr:stedsnr" v="57234" />
	</node>
	<node id="-31575" lat="59.9189638933" lon="11.2983694489">
		<tag k="name" v="Jervedalen" />
		<tag k="natural" v="valley" />
		<tag k="place" v="locality" />
		<tag k="ssr:stedsnr" v="57218" />
	</node>
	<node id="-31574" lat="59.9085916699" lon="11.3105499927">
		<tag k="name" v="Bjønnehibakken" />
		<tag k="place" v="locality" />
		<tag k="ssr:stedsnr" v="57215" />
	</node>
	<node id="-31573" lat="59.9160027781" lon="11.3059472289">
		<tag k="name" v="Dammyrene" />
		<tag k="natural" v="wetland" />
		<tag k="ssr:stedsnr" v="57210" />
	</node>
	<node id="-31572" lat="59.9055111101" lon="11.3074722209">
		<tag k="fixme" v="consider natural=peak for the most distinct mountains in the district" />
		<tag k="name" v="Bjønnehihøgda" />
		<tag k="natural" v="hill" />
		<tag k="place" v="locality" />
		<tag k="ssr:stedsnr" v="57205" />
	</node>
	<node id="-31571" lat="59.9062916701" lon="11.3018027798">
		<tag k="name" v="Måruddalen" />
		<tag k="natural" v="valley" />
		<tag k="place" v="locality" />
		<tag k="ssr:stedsnr" v="57204" />
	</node>
	<node id="-31570" lat="59.9914388906" lon="11.3201500089">
		<tag k="bridge" v="yes" />
		<tag k="layer" v="1" />
		<tag k="name" v="Huseby" />
		<tag k="ssr:stedsnr" v="46041" />
	</node>
	<node id="-31569" lat="60.0075999977" lon="11.2618611058">
		<tag k="junction" v="yes" />
		<tag k="name" v="Vall" />
		<tag k="place" v="locality" />
		<tag k="ssr:stedsnr" v="42038" />
	</node>
	<node id="-31568" lat="60.0192861103" lon="11.2776444456">
		<tag k="name" v="Mangemannsdalen" />
		<tag k="natural" v="valley" />
		<tag k="place" v="locality" />
		<tag k="ssr:stedsnr" v="42017" />
	</node>
	<node id="-31567" lat="60.0186472181" lon="11.2854777733">
		<tag k="fixme" v="consider natural=peak for the most distinct mountains in the district" />
		<tag k="name" v="Smiuåsen" />
		<tag k="natural" v="hill" />
		<tag k="place" v="locality" />
		<tag k="ssr:stedsnr" v="42016" />
	</node>
	<node id="-31566" lat="60.0389499963" lon="11.3163305608">
		<tag k="name" v="Fjellstad" />
		<tag k="place" v="farm" />
		<tag k="ssr:stedsnr" v="40354" />
	</node>
	<node id="-31565" lat="60.0287222262" lon="11.3425055607">
		<tag k="name" v="Kroken" />
		<tag k="place" v="farm" />
		<tag k="ssr:stedsnr" v="40353" />
	</node>
	<node id="-31564" lat="60.0347416665" lon="11.3103250017">
		<tag k="name" v="Børgifallet" />
		<tag k="place" v="farm" />
		<tag k="ssr:stedsnr" v="40349" />
	</node>
	<node id="-31563" lat="60.0405972258" lon="11.2447583347">
		<tag k="name" v="Vølnerdalen" />
		<tag k="natural" v="valley" />
		<tag k="place" v="locality" />
		<tag k="ssr:stedsnr" v="40343" />
	</node>
	<node id="-31562" lat="60.0384272756" lon="11.2408411396">
		<tag k="name" v="Gjester" />
		<tag k="place" v="farm" />
		<tag k="ssr:stedsnr" v="40340" />
	</node>
	<node id="-31561" lat="60.0637083303" lon="11.2542888875">
		<tag k="name" v="Nygård" />
		<tag k="place" v="farm" />
		<tag k="ssr:stedsnr" v="40467" />
	</node>
	<node id="-31560" lat="60.0584805539" lon="11.2883222225">
		<tag k="alt_name" v="Gravdalshytta;Tyrihytta" />
		<tag k="name" v="Fyhrihytta" />
		<tag k="place" v="isolated_dwelling" />
		<tag k="ssr:stedsnr" v="40468" />
	</node>
	<node id="-31559" lat="60.0537638868" lon="11.2470555588">
		<tag k="alt_name" v="Vølneberg nordgarn" />
		<tag k="name" v="Nordgarden Vølneberg" />
		<tag k="place" v="farm" />
		<tag k="ssr:stedsnr" v="40453" />
	</node>
	<node id="-31558" lat="60.0521250021" lon="11.2436027738">
		<tag k="alt_name" v="Vølneberg nordgarn" />
		<tag k="name" v="Nordgarden Vølneberg" />
		<tag k="place" v="farm" />
		<tag k="ssr:stedsnr" v="40452" />
	</node>
	<node id="-31557" lat="60.0521944445" lon="11.1178638969">
		<tag k="name" v="Øgarden" />
		<tag k="place" v="farm" />
		<tag k="ssr:stedsnr" v="40437" />
	</node>
	<node id="-31556" lat="60.0541055518" lon="11.1063111035">
		<tag k="name" v="Fløgstad" />
		<tag k="place" v="farm" />
		<tag k="ssr:stedsnr" v="40433" />
	</node>
	<node id="-31555" lat="60.0339527748" lon="11.1133749963">
		<tag k="name" v="Nordre Mo" />
		<tag k="place" v="farm" />
		<tag k="ssr:stedsnr" v="40175" />
	</node>
	<node id="-31554" lat="59.9699083315" lon="11.2168222245">
		<tag k="name" v="Solstad" />
		<tag k="place" v="isolated_dwelling" />
		<tag k="ssr:stedsnr" v="39388" />
	</node>
	<node id="-31553" lat="59.9424388902" lon="11.3426972235">
		<tag k="name" v="Morkhagan" />
		<tag k="place" v="locality" />
		<tag k="ssr:stedsnr" v="39380" />
	</node>
	<node id="-31552" lat="59.9360527783" lon="11.3294472229">
		<tag k="fixme" v="consider natural=peak for the most distinct mountains in the district" />
		<tag k="name" v="Rabben" />
		<tag k="natural" v="hill" />
		<tag k="place" v="locality" />
		<tag k="ssr:stedsnr" v="39372" />
	</node>
	<node id="-31551" lat="59.9805361126" lon="11.2821861182">
		<tag k="name" v="Nordre Monsrud" />
		<tag k="place" v="farm" />
		<tag k="ssr:stedsnr" v="39321" />
	</node>
	<node id="-31550" lat="59.9772444489" lon="11.234661107">
		<tag k="name" v="Bråtan" />
		<tag k="place" v="farm" />
		<tag k="ssr:stedsnr" v="39317" />
	</node>
	<node id="-31549" lat="59.9747722198" lon="11.2626500001">
		<tag k="name" v="Delerud" />
		<tag k="place" v="farm" />
		<tag k="ssr:stedsnr" v="39312" />
	</node>
	<node id="-31548" lat="60.0246277791" lon="11.1028361162">
		<tag k="name" v="Frogner" />
		<tag k="place" v="village" />
		<tag k="ssr:stedsnr" v="25347" />
	</node>
	<node id="-31547" lat="60.0287777814" lon="11.0764249946">
		<tag k="name" v="Steinerud" />
		<tag k="place" v="farm" />
		<tag k="ssr:stedsnr" v="6446" />
	</node>
	<node id="-31546" lat="60.0112875928" lon="11.2102449277">
		<tag k="fixme" v="consider place=hamlet" />
		<tag k="name" v="Sørli" />
		<tag k="place" v="farm" />
		<tag k="ssr:stedsnr" v="5945" />
	</node>
	<node id="-31545" lat="60.0249109525" lon="11.2494561712">
		<tag k="fixme" v="consider place=hamlet" />
		<tag k="name" v="Skjea" />
		<tag k="place" v="farm" />
		<tag k="ssr:stedsnr" v="5916" />
	</node>
	<node id="-31544" lat="60.0073527784" lon="11.1296111199">
		<tag k="name" v="Fjellstad" />
		<tag k="place" v="farm" />
		<tag k="ssr:stedsnr" v="5912" />
	</node>
	<node id="-31543" lat="60.018855559" lon="11.2061194506">
		<tag k="name" v="Melienga" />
		<tag k="place" v="farm" />
		<tag k="ssr:stedsnr" v="5893" />
	</node>
	<node id="-31542" lat="60.0473555599" lon="11.1758722192">
		<tag k="name" v="Omdal" />
		<tag k="place" v="farm" />
		<tag k="ssr:stedsnr" v="5878" />
	</node>
	<node id="-31541" lat="60.03066509" lon="11.2086524309">
		<tag k="fixme" v="consider place=hamlet" />
		<tag k="name" v="Nyland" />
		<tag k="place" v="farm" />
		<tag k="ssr:stedsnr" v="5862" />
	</node>
	<node id="-31540" lat="60.0332166627" lon="11.2391027788">
		<tag k="alt_name" v="Skeastua" />
		<tag k="name" v="Skjeastua" />
		<tag k="place" v="farm" />
		<tag k="ssr:stedsnr" v="5861" />
	</node>
	<node id="-31539" lat="60.0336033009" lon="11.1605103524">
		<tag k="alt_name" v="Vilberg, nedre" />
		<tag k="fixme" v="consider place=hamlet" />
		<tag k="name" v="Nedre Vilberg" />
		<tag k="place" v="farm" />
		<tag k="ssr:stedsnr" v="5852" />
	</node>
	<node id="-31538" lat="59.9098166712" lon="11.299436104">
		<tag k="alt_name" v="Helltjern, øvre;Øvre Helltjennet" />
		<tag k="name" v="Øvre Helltjern" />
		<tag k="natural" v="water" />
		<tag k="ssr:stedsnr" v="5606" />
	</node>
	<node id="-31537" lat="59.904910645" lon="11.2708555908">
		<tag k="alt_name" v="Breidsjøen" />
		<tag k="name" v="Breisjøen" />
		<tag k="natural" v="water" />
		<tag k="ssr:stedsnr" v="5602" />
		<tag k="water" v="lake" />
	</node>
	<node id="-31536" lat="59.9511749979" lon="11.2901916621">
		<tag k="alt_name" v="Igletjennet" />
		<tag k="name" v="Igletjern" />
		<tag k="natural" v="water" />
		<tag k="ssr:stedsnr" v="5524" />
	</node>
	<node id="-31535" lat="59.9580333305" lon="11.3152194375">
		<tag k="name" v="Hellås" />
		<tag k="place" v="farm" />
		<tag k="ssr:stedsnr" v="5505" />
	</node>
	<node id="-31534" lat="59.9676444429" lon="11.2179055476">
		<tag k="name" v="Innlaget" />
		<tag k="place" v="farm" />
		<tag k="ssr:stedsnr" v="5492" />
	</node>
	<node id="-31533" lat="60.0500777804" lon="11.111183337">
		<tag k="fixme" v="consider place=hamlet" />
		<tag k="name" v="Bjørke" />
		<tag k="place" v="farm" />
		<tag k="ssr:stedsnr" v="5012" />
	</node>
	<node id="-31532" lat="60.0567527578" lon="11.2324273105">
		<tag k="fixme" v="consider place=hamlet" />
		<tag k="name" v="Sæter" />
		<tag k="place" v="farm" />
		<tag k="ssr:stedsnr" v="5001" />
	</node>
	<node id="-31531" lat="59.8883999993" lon="11.3155083309">
		<tag k="alt_name" v="Rundtjenna" />
		<tag k="name" v="Rundtjerna" />
		<tag k="natural" v="water" />
		<tag k="ssr:stedsnr" v="4655" />
	</node>
	<node id="-31530" lat="59.8985500014" lon="11.300641662">
		<tag k="fixme" v="consider natural=peak for the most distinct mountains in the district" />
		<tag k="name" v="Kukollen" />
		<tag k="natural" v="hill" />
		<tag k="place" v="locality" />
		<tag k="ssr:stedsnr" v="4636" />
	</node>
	<node id="-31529" lat="59.9350555551" lon="11.2716111137">
		<tag k="alt_name" v="Klopptjennet" />
		<tag k="name" v="Klopptjern" />
		<tag k="natural" v="water" />
		<tag k="ssr:stedsnr" v="4563" />
	</node>
	<node id="-31528" lat="59.994074998" lon="11.1970749942">
		<tag k="name" v="Dammen" />
		<tag k="natural" v="water" />
		<tag k="ssr:stedsnr" v="4491" />
		<tag k="water" v="pond" />
	</node>
	<node id="-31527" lat="59.9886777769" lon="11.2786555493">
		<tag k="name" v="Haug" />
		<tag k="place" v="farm" />
		<tag k="ssr:stedsnr" v="4473" />
	</node>
	<node id="-31526" lat="59.9968333363" lon="11.366236111">
		<tag k="name" v="Mjøluken" />
		<tag k="old_name" v="Melrugen" />
		<tag k="place" v="farm" />
		<tag k="ssr:stedsnr" v="4470" />
	</node>
	<node id="-31525" lat="59.9796500011" lon="11.2014083385">
		<tag k="name" v="Mellomhammeren" />
		<tag k="place" v="farm" />
		<tag k="ssr:stedsnr" v="4457" />
	</node>
	<node id="-31524" lat="59.9783749992" lon="11.239936109">
		<tag k="name" v="Sennerud" />
		<tag k="place" v="quarter" />
		<tag k="ssr:stedsnr" v="4438" />
	</node>
	<node id="-31523" lat="59.9798694409" lon="11.3649527809">
		<tag k="alt_name" v="Berg, søndre" />
		<tag k="name" v="Søndre Berg" />
		<tag k="place" v="farm" />
		<tag k="ssr:stedsnr" v="4434" />
	</node>
	<node id="-31520" lat="60.0205985857" lon="11.1048034438">
		<tag k="amenity" v="place_of_worship" />
		<tag k="denomination" v="lutheran" />
		<tag k="name" v="Frogner gamle kirke" />
		<tag k="religion" v="christian" />
		<tag k="ssr:stedsnr" v="990994" />
	</node>
	<node id="-31519" lat="59.9858885991" lon="11.2401870362">
		<tag k="name" v="Sørumsand stasjon" />
		<tag k="railway" v="station" />
		<tag k="ssr:stedsnr" v="990090" />
		<tag k="train" v="yes" />
	</node>
	<node id="-31517" lat="59.9601347075" lon="11.2203379399">
		<tag k="name" v="Lystadmoen" />
		<tag k="place" v="hamlet" />
		<tag k="ssr:stedsnr" v="551518" />
	</node>
	<node id="-31514" lat="60.0291555516" lon="11.1818555492">
		<tag k="bridge" v="yes" />
		<tag k="layer" v="1" />
		<tag k="name" v="Asak" />
		<tag k="ssr:stedsnr" v="896036" />
	</node>
	<node id="-31513" lat="60.0176666625" lon="11.2415000045">
		<tag k="name" v="Prestenga" />
		<tag k="place" v="farm" />
		<tag k="ssr:stedsnr" v="892018" />
	</node>
	<node id="-31512" lat="60.0179583334" lon="11.2581361141">
		<tag k="name" v="Mostue" />
		<tag k="place" v="farm" />
		<tag k="ssr:stedsnr" v="892014" />
	</node>
	<node id="-31511" lat="60.0529027738" lon="11.2369555514">
		<tag k="name" v="Vølner" />
		<tag k="place" v="farm" />
		<tag k="ssr:stedsnr" v="890462" />
	</node>
	<node id="-31510" lat="60.0032666626" lon="11.3221388803">
		<tag k="name" v="Brudal" />
		<tag k="place" v="farm" />
		<tag k="ssr:stedsnr" v="890181" />
	</node>
	<node id="-31509" lat="59.9583472222" lon="11.293091659">
		<tag k="name" v="Bråtenmyra" />
		<tag k="natural" v="wetland" />
		<tag k="ssr:stedsnr" v="889450" />
	</node>
	<node id="-31508" lat="59.9716249985" lon="11.206649993">
		<tag k="name" v="Stranda" />
		<tag k="place" v="isolated_dwelling" />
		<tag k="ssr:stedsnr" v="889446" />
	</node>
	<node id="-31507" lat="59.9471222182" lon="11.2975083373">
		<tag k="name" v="Holmselia" />
		<tag k="natural" v="slope" />
		<tag k="place" v="locality" />
		<tag k="ssr:stedsnr" v="889435" />
	</node>
	<node id="-31506" lat="59.9472499978" lon="11.3067222216">
		<tag k="name" v="Dalen" />
		<tag k="place" v="farm" />
		<tag k="ssr:stedsnr" v="889436" />
	</node>
	<node id="-31505" lat="60.0663888906" lon="11.2589305552">
		<tag k="name" v="Søstua Egner" />
		<tag k="place" v="farm" />
		<tag k="ssr:stedsnr" v="889425" />
	</node>
	<node id="-31504" lat="60.0555638925" lon="11.1083972203">
		<tag k="name" v="Vestre Fløgstad" />
		<tag k="place" v="farm" />
		<tag k="ssr:stedsnr" v="889397" />
	</node>
	<node id="-31503" lat="60.0504222249" lon="11.1398444398">
		<tag k="name" v="Nyjord" />
		<tag k="place" v="farm" />
		<tag k="ssr:stedsnr" v="889393" />
	</node>
	<node id="-31502" lat="60.0469055581" lon="11.230908331">
		<tag k="name" v="Stubberud" />
		<tag k="place" v="locality" />
		<tag k="ssr:stedsnr" v="889385" />
	</node>
	<node id="-31501" lat="59.9752166649" lon="11.2655638971">
		<tag k="name" v="Lysedalen" />
		<tag k="natural" v="valley" />
		<tag k="place" v="locality" />
		<tag k="ssr:stedsnr" v="889375" />
	</node>
	<node id="-31500" lat="59.9764583355" lon="11.298680558">
		<tag k="name" v="Bjønnmyra" />
		<tag k="natural" v="wetland" />
		<tag k="ssr:stedsnr" v="889371" />
	</node>
	<node id="-31499" lat="59.9788750031" lon="11.2136194363">
		<tag k="name" v="Villingsundet" />
		<tag k="natural" v="bay" />
		<tag k="ssr:stedsnr" v="889364" />
	</node>
	<node id="-31498" lat="60.0323388856" lon="11.3147888945">
		<tag k="junction" v="yes" />
		<tag k="name" v="Fosserud" />
		<tag k="place" v="locality" />
		<tag k="ssr:stedsnr" v="889327" />
	</node>
	<node id="-31497" lat="60.0263305563" lon="11.3557611088">
		<tag k="name" v="Damstokklia" />
		<tag k="natural" v="slope" />
		<tag k="place" v="locality" />
		<tag k="ssr:stedsnr" v="889328" />
	</node>
	<node id="-31496" lat="60.0377638863" lon="11.2529888924">
		<tag k="name" v="Gjestermoen" />
		<tag k="place" v="locality" />
		<tag k="ssr:stedsnr" v="889316" />
	</node>
	<node id="-31495" lat="60.0015361073" lon="11.3591611175">
		<tag k="name" v="Toreid" />
		<tag k="place" v="farm" />
		<tag k="ssr:stedsnr" v="889155" />
	</node>
	<node id="-31494" lat="60.0270111095" lon="11.1157805586">
		<tag k="bridge" v="yes" />
		<tag k="layer" v="1" />
		<tag k="name" v="Melvold" />
		<tag k="ssr:stedsnr" v="410035" />
	</node>
	<node id="-31493" lat="60.013519444" lon="11.2879583379">
		<tag k="name" v="Berli" />
		<tag k="place" v="farm" />
		<tag k="ssr:stedsnr" v="406029" />
	</node>
	<node id="-31492" lat="60.0359166654" lon="11.2830972253">
		<tag k="alt_name" v="Østre Bøler" />
		<tag k="name" v="Sylta" />
		<tag k="place" v="farm" />
		<tag k="ssr:stedsnr" v="404874" />
	</node>
	<node id="-31491" lat="60.056483333" lon="11.2518750057">
		<tag k="name" v="Nordal" />
		<tag k="place" v="farm" />
		<tag k="ssr:stedsnr" v="404430" />
	</node>
	<node id="-31490" lat="59.9447583312" lon="11.3425222245">
		<tag k="name" v="Frøshaug" />
		<tag k="place" v="isolated_dwelling" />
		<tag k="ssr:stedsnr" v="404415" />
	</node>
	<node id="-31489" lat="60.0466083369" lon="11.29030277">
		<tag k="name" v="Nedre Julton" />
		<tag k="place" v="farm" />
		<tag k="ssr:stedsnr" v="404412" />
	</node>
	<node id="-31488" lat="60.0582166669" lon="11.2312416713">
		<tag k="name" v="Sæter" />
		<tag k="place" v="farm" />
		<tag k="ssr:stedsnr" v="404411" />
	</node>
	<node id="-31487" lat="60.0286250034" lon="11.3526222237">
		<tag k="name" v="Damstokken" />
		<tag k="place" v="locality" />
		<tag k="ssr:stedsnr" v="404395" />
	</node>
	<node id="-31486" lat="59.969141666" lon="11.2953416675">
		<tag k="name" v="Delemyrene" />
		<tag k="natural" v="wetland" />
		<tag k="ssr:stedsnr" v="404363" />
	</node>
	<node id="-31485" lat="60.0457611116" lon="11.2991333422">
		<tag k="name" v="Hellesjø" />
		<tag k="place" v="farm" />
		<tag k="ssr:stedsnr" v="404331" />
	</node>
	<node id="-31484" lat="60.00564444" lon="11.3673138933">
		<tag k="name" v="Møllerhagen" />
		<tag k="place" v="farm" />
		<tag k="ssr:stedsnr" v="404149" />
	</node>
	<node id="-31483" lat="60.0039777811" lon="11.3569527818">
		<tag k="name" v="Toreid" />
		<tag k="place" v="farm" />
		<tag k="ssr:stedsnr" v="404147" />
	</node>
	<node id="-31482" lat="60.0419722242" lon="11.1056444465">
		<tag k="name" v="Store Gran" />
		<tag k="place" v="farm" />
		<tag k="ssr:stedsnr" v="404142" />
	</node>
	<node id="-31481" lat="59.9472750005" lon="11.3332972162">
		<tag k="name" v="Østre Mork" />
		<tag k="place" v="farm" />
		<tag k="ssr:stedsnr" v="403419" />
	</node>
	<node id="-31480" lat="59.9379111108" lon="11.3492694524">
		<tag k="name" v="Bråten" />
		<tag k="place" v="farm" />
		<tag k="ssr:stedsnr" v="403412" />
	</node>
	<node id="-31479" lat="59.97588611" lon="11.219211108">
		<tag k="name" v="Lystadbekken" />
		<tag k="ssr:stedsnr" v="403350" />
		<tag k="waterway" v="stream" />
	</node>
	<node id="-31478" lat="60.0005416624" lon="11.2544194417">
		<tag k="name" v="Setil" />
		<tag k="place" v="farm" />
		<tag k="ssr:stedsnr" v="400385" />
	</node>
	<node id="-31477" lat="60.0471497056" lon="11.2878896378">
		<tag k="fixme" v="consider place=hamlet" />
		<tag k="name" v="Julton" />
		<tag k="place" v="farm" />
		<tag k="ssr:stedsnr" v="369891" />
	</node>
	<node id="-31476" lat="60.0428166702" lon="11.1427055524">
		<tag k="alt_name" v="Vilbergholtet" />
		<tag k="name" v="Vilbergsholtet" />
		<tag k="place" v="farm" />
		<tag k="ssr:stedsnr" v="369886" />
	</node>
	<node id="-31475" lat="60.0250074547" lon="11.1666858348">
		<tag k="fixme" v="consider place=hamlet" />
		<tag k="name" v="Hønsi" />
		<tag k="place" v="farm" />
		<tag k="ssr:stedsnr" v="369882" />
	</node>
	<node id="-31474" lat="60.036353133" lon="11.193678599">
		<tag k="fixme" v="consider place=hamlet" />
		<tag k="name" v="Asak" />
		<tag k="place" v="farm" />
		<tag k="ssr:stedsnr" v="369870" />
	</node>
	<node id="-31473" lat="60.0514972249" lon="11.1812277775">
		<tag k="alt_name" v="Refsum, søndre;Refsum" />
		<tag k="name" v="Søndre Refsum" />
		<tag k="place" v="farm" />
		<tag k="ssr:stedsnr" v="369014" />
	</node>
	<node id="-31472" lat="59.9238416692" lon="11.2825027732">
		<tag k="name" v="Sandhaug" />
		<tag k="natural" v="hill" />
		<tag k="place" v="locality" />
		<tag k="ssr:stedsnr" v="368642" />
	</node>
	<node id="-31471" lat="59.9362416634" lon="11.3470388925">
		<tag k="name" v="Jensrud" />
		<tag k="place" v="farm" />
		<tag k="ssr:stedsnr" v="368626" />
	</node>
	<node id="-31470" lat="59.9340250043" lon="11.3293416634">
		<tag k="name" v="Dalbakk" />
		<tag k="place" v="farm" />
		<tag k="ssr:stedsnr" v="368624" />
	</node>
	<node id="-31469" lat="59.9398416678" lon="11.3053638886">
		<tag k="alt_name" v="Sollia" />
		<tag k="name" v="Solli" />
		<tag k="place" v="farm" />
		<tag k="ssr:stedsnr" v="368579" />
	</node>
	<node id="-31468" lat="59.9463805561" lon="11.3547749945">
		<tag k="name" v="Steinsrud" />
		<tag k="place" v="farm" />
		<tag k="ssr:stedsnr" v="368575" />
	</node>
	<node id="-31467" lat="59.9992138847" lon="11.321691659">
		<tag k="name" v="Hellerud" />
		<tag k="place" v="farm" />
		<tag k="ssr:stedsnr" v="368514" />
	</node>
	<node id="-31466" lat="59.9791055547" lon="11.2674027844">
		<tag k="name" v="Stykket" />
		<tag k="place" v="farm" />
		<tag k="ssr:stedsnr" v="368472" />
	</node>
	<node id="-31465" lat="59.9779750023" lon="11.3644749948">
		<tag k="name" v="Rennespellet" />
		<tag k="place" v="isolated_dwelling" />
		<tag k="ssr:stedsnr" v="368468" />
	</node>
	<node id="-31464" lat="60.0022166626" lon="11.3096888808">
		<tag k="name" v="Svarstad" />
		<tag k="place" v="farm" />
		<tag k="ssr:stedsnr" v="369956" />
	</node>
	<node id="-31463" lat="60.0041722192" lon="11.3831555527">
		<tag k="name" v="Staurhaugen" />
		<tag k="place" v="farm" />
		<tag k="ssr:stedsnr" v="369953" />
	</node>
	<node id="-31462" lat="60.0198583298" lon="11.1341527778">
		<tag k="fixme" v="consider place=hamlet" />
		<tag k="name" v="Yssi" />
		<tag k="place" v="farm" />
		<tag k="ssr:stedsnr" v="369932" />
	</node>
	<node id="-31461" lat="60.0200166656" lon="11.1057555554">
		<tag k="alt_name" v="Frogner" />
		<tag k="amenity" v="place_of_worship" />
		<tag k="denomination" v="lutheran" />
		<tag k="name" v="Frogner kirke" />
		<tag k="religion" v="christian" />
		<tag k="ssr:stedsnr" v="369928" />
	</node>
	<node id="-31460" lat="60.0236472253" lon="11.2923916664">
		<tag k="name" v="Børgimåsan" />
		<tag k="natural" v="wetland" />
		<tag k="ssr:stedsnr" v="369920" />
	</node>
	<node id="-31459" lat="60.0227205945" lon="11.2134996878">
		<tag k="fixme" v="consider place=hamlet" />
		<tag k="name" v="Nordli" />
		<tag k="place" v="farm" />
		<tag k="ssr:stedsnr" v="369917" />
	</node>
	<node id="-31458" lat="60.016171269" lon="11.2114927689">
		<tag k="fixme" v="consider place=hamlet" />
		<tag k="name" v="Meli" />
		<tag k="place" v="farm" />
		<tag k="ssr:stedsnr" v="369910" />
	</node>
	<node id="-31457" lat="59.9767081659" lon="11.3199474191">
		<tag k="fixme" v="consider place=hamlet" />
		<tag k="name" v="Kvevli" />
		<tag k="place" v="farm" />
		<tag k="ssr:stedsnr" v="362596" />
	</node>
	<node id="-31456" lat="60.0349944462" lon="11.1423638922">
		<tag k="name" v="Tømte" />
		<tag k="place" v="locality" />
		<tag k="ssr:stedsnr" v="362269" />
	</node>
	<node id="-31455" lat="60.0461972259" lon="11.1339138887">
		<tag k="name" v="Skogholt" />
		<tag k="place" v="locality" />
		<tag k="ssr:stedsnr" v="362261" />
	</node>
	<node id="-31454" lat="60.0335472231" lon="11.16934444">
		<tag k="name" v="Kvennhusbråtan" />
		<tag k="place" v="locality" />
		<tag k="ssr:stedsnr" v="362252" />
	</node>
	<node id="-31453" lat="60.0273555581" lon="11.2348305583">
		<tag k="junction" v="yes" />
		<tag k="name" v="Skea" />
		<tag k="place" v="locality" />
		<tag k="ssr:stedsnr" v="362217" />
	</node>
	<node id="-31452" lat="60.0433166627" lon="11.2129583306">
		<tag k="name" v="Engeskau" />
		<tag k="place" v="farm" />
		<tag k="ssr:stedsnr" v="362211" />
	</node>
	<node id="-31451" lat="60.0313888871" lon="11.2804694461">
		<tag k="name" v="Bekkelykkja" />
		<tag k="place" v="locality" />
		<tag k="ssr:stedsnr" v="362203" />
	</node>
	<node id="-31450" lat="59.967763886" lon="11.3787638855">
		<tag k="junction" v="yes" />
		<tag k="name" v="Aremoen" />
		<tag k="place" v="locality" />
		<tag k="ssr:stedsnr" v="362606" />
	</node>
	<node id="-31449" lat="60.0193833376" lon="11.211000005">
		<tag k="name" v="Melibekken" />
		<tag k="ssr:stedsnr" v="360953" />
		<tag k="waterway" v="stream" />
	</node>
	<node id="-31448" lat="60.0223222252" lon="11.2049694416">
		<tag k="name" v="Lund" />
		<tag k="place" v="farm" />
		<tag k="ssr:stedsnr" v="360949" />
	</node>
	<node id="-31447" lat="60.0244194406" lon="11.1441749974">
		<tag k="name" v="Yssimyra" />
		<tag k="place" v="locality" />
		<tag k="ssr:stedsnr" v="360933" />
	</node>
	<node id="-31446" lat="60.0215638893" lon="11.1679111093">
		<tag k="alt_name" v="Hønsi Søgarden" />
		<tag k="name" v="Søgarden Hønsi" />
		<tag k="place" v="farm" />
		<tag k="ssr:stedsnr" v="360924" />
	</node>
	<node id="-31445" lat="60.0104305527" lon="11.1881916669">
		<tag k="name" v="Jegerhaugen" />
		<tag k="place" v="locality" />
		<tag k="ssr:stedsnr" v="360916" />
	</node>
	<node id="-31444" lat="60.0099833318" lon="11.1881444359">
		<tag k="name" v="Haugen" />
		<tag k="place" v="locality" />
		<tag k="ssr:stedsnr" v="360917" />
	</node>
	<node id="-31443" lat="60.0118444448" lon="11.2090083399">
		<tag k="alt_name" v="Sørli vestgarn" />
		<tag k="name" v="Vestgarden Sørli" />
		<tag k="place" v="farm" />
		<tag k="ssr:stedsnr" v="360913" />
	</node>
	<node id="-31442" lat="60.0136722214" lon="11.116566675">
		<tag k="alt_name" v="Skrøver Søgarden" />
		<tag k="name" v="Søgarden Skrøver" />
		<tag k="place" v="farm" />
		<tag k="ssr:stedsnr" v="360791" />
	</node>
	<node id="-31441" lat="60.0229722257" lon="11.0835833369">
		<tag k="name" v="Kvennenga" />
		<tag k="place" v="locality" />
		<tag k="ssr:stedsnr" v="360787" />
	</node>
	<node id="-31440" lat="60.0049999984" lon="11.1012305553">
		<tag k="alt_name" v="Leirud vestre" />
		<tag k="name" v="Vestre Leirud" />
		<tag k="place" v="farm" />
		<tag k="ssr:stedsnr" v="360784" />
	</node>
	<node id="-31439" lat="59.9859277747" lon="11.2543027716">
		<tag k="name" v="Fynsfeltet" />
		<tag k="place" v="quarter" />
		<tag k="ssr:stedsnr" v="360711" />
	</node>
	<node id="-31438" lat="59.993977778" lon="11.2320249934">
		<tag k="name" v="Furulund" />
		<tag k="place" v="isolated_dwelling" />
		<tag k="ssr:stedsnr" v="360688" />
	</node>
	<node id="-31437" lat="59.9931111141" lon="11.18661667">
		<tag k="name" v="Tjennsbekken" />
		<tag k="ssr:stedsnr" v="360684" />
		<tag k="waterway" v="stream" />
	</node>
	<node id="-31436" lat="59.9940222182" lon="11.2626361157">
		<tag k="alt_name" v="Valsfeltet" />
		<tag k="name" v="Vallsfeltet" />
		<tag k="place" v="quarter" />
		<tag k="ssr:stedsnr" v="360681" />
	</node>
	<node id="-31435" lat="59.9245333338" lon="11.3347416599">
		<tag k="name" v="Limultemyra" />
		<tag k="natural" v="wetland" />
		<tag k="ssr:stedsnr" v="360249" />
	</node>
	<node id="-31434" lat="60.0212777811" lon="11.2205138896">
		<tag k="bridge" v="yes" />
		<tag k="layer" v="1" />
		<tag k="name" v="Nordli" />
		<tag k="ssr:stedsnr" v="349053" />
	</node>
	<node id="-31433" lat="60.0337750017" lon="11.3411249999">
		<tag k="bridge" v="yes" />
		<tag k="layer" v="1" />
		<tag k="name" v="Sandnes" />
		<tag k="ssr:stedsnr" v="349052" />
	</node>
	<node id="-31432" lat="60.0121361136" lon="11.2518527829">
		<tag k="name" v="Skjegget" />
		<tag k="place" v="locality" />
		<tag k="ssr:stedsnr" v="345032" />
	</node>
	<node id="-31431" lat="59.9426361115" lon="11.2962138886">
		<tag k="name" v="Lønndalen" />
		<tag k="natural" v="valley" />
		<tag k="place" v="locality" />
		<tag k="ssr:stedsnr" v="343437" />
	</node>
	<node id="-31430" lat="60.0548916632" lon="11.2540833289">
		<tag k="name" v="Hesthagan" />
		<tag k="place" v="farm" />
		<tag k="ssr:stedsnr" v="343430" />
	</node>
	<node id="-31429" lat="60.0157249991" lon="11.3302805536">
		<tag k="name" v="Eidshagan" />
		<tag k="place" v="locality" />
		<tag k="ssr:stedsnr" v="343428" />
	</node>
	<node id="-31428" lat="60.048094448" lon="11.137663891">
		<tag k="name" v="Arteidbråtan" />
		<tag k="place" v="locality" />
		<tag k="ssr:stedsnr" v="343381" />
	</node>
	<node id="-31427" lat="59.9721833319" lon="11.2496777692">
		<tag k="name" v="Bråtan" />
		<tag k="place" v="locality" />
		<tag k="ssr:stedsnr" v="343342" />
	</node>
	<node id="-31426" lat="59.9743250038" lon="11.2515083301">
		<tag k="name" v="Skog" />
		<tag k="place" v="locality" />
		<tag k="ssr:stedsnr" v="343332" />
	</node>
	<node id="-31425" lat="59.9766277767" lon="11.1893472149">
		<tag k="name" v="Agntjennsbekken" />
		<tag k="ssr:stedsnr" v="343328" />
		<tag k="waterway" v="stream" />
	</node>
	<node id="-31424" lat="60.0292138869" lon="11.3279277701">
		<tag k="name" v="Rånåsfoss stasjon" />
		<tag k="railway" v="station" />
		<tag k="ssr:stedsnr" v="343293" />
		<tag k="train" v="yes" />
	</node>
	<node id="-31423" lat="60.0366611103" lon="11.2618000033">
		<tag k="alt_name" v="Bøler negarn" />
		<tag k="name" v="Nedgarden Bøler" />
		<tag k="place" v="farm" />
		<tag k="ssr:stedsnr" v="343286" />
	</node>
	<node id="-31422" lat="60.0382138917" lon="11.2649944369">
		<tag k="name" v="Vestre Bøler" />
		<tag k="place" v="farm" />
		<tag k="ssr:stedsnr" v="343285" />
	</node>
	<node id="-31421" lat="60.0037388896" lon="11.3622444408">
		<tag k="name" v="Engerhaugen" />
		<tag k="place" v="farm" />
		<tag k="ssr:stedsnr" v="343152" />
	</node>
	<node id="-31420" lat="60.0325194421" lon="11.0917583376">
		<tag k="name" v="Øvre Eidsvoll" />
		<tag k="place" v="farm" />
		<tag k="ssr:stedsnr" v="343144" />
	</node>
	<node id="-31419" lat="60.0034944433" lon="11.3019749925">
		<tag k="fixme" v="consider place=suburb, village or hamlet" />
		<tag k="name" v="Blaker" />
		<tag k="place" v="quarter" />
		<tag k="ssr:stedsnr" v="329170" />
	</node>
	<node id="-31418" lat="59.975452774" lon="11.3611611145">
		<tag k="fixme" v="consider place=hamlet" />
		<tag k="name" v="Hogsetgrenda" />
		<tag k="old_name" v="Hogsetfeltet" />
		<tag k="place" v="village" />
		<tag k="ssr:stedsnr" v="327310" />
	</node>
	<node id="-31417" lat="59.9651166675" lon="11.3938944407">
		<tag k="fixme" v="consider natural=peak for the most distinct mountains in the district" />
		<tag k="name" v="Sameieåsen" />
		<tag k="natural" v="hill" />
		<tag k="old_name" v="Aurskog Varde" />
		<tag k="place" v="locality" />
		<tag k="ssr:stedsnr" v="325490" />
	</node>
	<node id="-31416" lat="60.0037083293" lon="11.3949611101">
		<tag k="fixme" v="consider natural=peak for the most distinct mountains in the district" />
		<tag k="name" v="Stagrumsåsen" />
		<tag k="natural" v="hill" />
		<tag k="place" v="locality" />
		<tag k="ssr:stedsnr" v="309964" />
	</node>
	<node id="-31415" lat="60.0049583314" lon="11.193138888">
		<tag k="alt_name" v="Haga" />
		<tag k="name" v="Sørlihagan" />
		<tag k="place" v="farm" />
		<tag k="ssr:stedsnr" v="309956" />
	</node>
	<node id="-31414" lat="60.0229131842" lon="11.1034081087">
		<tag k="alt_name" v="Frogner" />
		<tag k="name" v="Frogner stasjon" />
		<tag k="railway" v="station" />
		<tag k="ssr:stedsnr" v="309935" />
		<tag k="train" v="yes" />
	</node>
	<node id="-31413" lat="60.0057694437" lon="11.1145972295">
		<tag k="name" v="Oppsal" />
		<tag k="place" v="farm" />
		<tag k="ssr:stedsnr" v="309926" />
	</node>
	<node id="-31412" lat="60.0317277734" lon="11.3229805491">
		<tag k="fixme" v="consider place=hamlet" />
		<tag k="name" v="Neslerud" />
		<tag k="place" v="farm" />
		<tag k="ssr:stedsnr" v="309891" />
	</node>
	<node id="-31411" lat="60.0356916644" lon="11.1504000073">
		<tag k="fixme" v="consider natural=peak for the most distinct mountains in the district" />
		<tag k="name" v="Vilbergfjellet" />
		<tag k="natural" v="hill" />
		<tag k="place" v="locality" />
		<tag k="ssr:stedsnr" v="309879" />
	</node>
	<node id="-31410" lat="60.0572388895" lon="11.1192305475">
		<tag k="name" v="Nygard" />
		<tag k="place" v="farm" />
		<tag k="ssr:stedsnr" v="309020" />
	</node>
	<node id="-31409" lat="60.0566861145" lon="11.258694448">
		<tag k="name" v="Fjellet" />
		<tag k="place" v="farm" />
		<tag k="ssr:stedsnr" v="309006" />
	</node>
	<node id="-31408" lat="59.9234999999" lon="11.2661694412">
		<tag k="name" v="Vanakleivdalen" />
		<tag k="natural" v="valley" />
		<tag k="place" v="locality" />
		<tag k="ssr:stedsnr" v="308576" />
	</node>
	<node id="-31407" lat="59.9243027811" lon="11.2974111172">
		<tag k="name" v="Djupdalen" />
		<tag k="natural" v="valley" />
		<tag k="place" v="locality" />
		<tag k="ssr:stedsnr" v="308575" />
	</node>
	<node id="-31406" lat="59.9529361108" lon="11.2440166643">
		<tag k="alt_name" v="Svartputten" />
		<tag k="name" v="Svartpytten" />
		<tag k="natural" v="water" />
		<tag k="ssr:stedsnr" v="308510" />
	</node>
	<node id="-31405" lat="59.9532805545" lon="11.3234722267">
		<tag k="name" v="Mork" />
		<tag k="place" v="farm" />
		<tag k="ssr:stedsnr" v="308508" />
	</node>
	<node id="-31404" lat="59.9740805566" lon="11.2974944494">
		<tag k="alt_name" v="Strupmyra" />
		<tag k="name" v="Strupemyr" />
		<tag k="natural" v="wetland" />
		<tag k="ssr:stedsnr" v="308473" />
	</node>
	<node id="-31403" lat="59.9706166642" lon="11.3752388921">
		<tag k="name" v="Armoen" />
		<tag k="place" v="farm" />
		<tag k="ssr:stedsnr" v="308465" />
	</node>
	<node id="-31402" lat="59.9917027759" lon="11.2794944366">
		<tag k="alt_name" v="Setra" />
		<tag k="name" v="Sætra" />
		<tag k="place" v="farm" />
		<tag k="ssr:stedsnr" v="308436" />
	</node>
	<node id="-31401" lat="59.9848555599" lon="11.3487805557">
		<tag k="amenity" v="community_centre" />
		<tag k="name" v="Bruvollen" />
		<tag k="ssr:stedsnr" v="308413" />
	</node>
	<node id="-31400" lat="60.0663113523" lon="11.2597494697">
		<tag k="fixme" v="consider place=hamlet" />
		<tag k="name" v="Egner" />
		<tag k="place" v="farm" />
		<tag k="ssr:stedsnr" v="308045" />
	</node>
	<node id="-31399" lat="59.949055559" lon="11.3553222222">
		<tag k="alt_name" v="Kville, søndre" />
		<tag k="name" v="Søndre Kville" />
		<tag k="place" v="farm" />
		<tag k="ssr:stedsnr" v="307549" />
	</node>
	<node id="-31398" lat="59.9968166639" lon="11.1527305626">
		<tag k="name" v="Lundertjernet" />
		<tag k="natural" v="water" />
		<tag k="ssr:stedsnr" v="307514" />
	</node>
	<node id="-31396" lat="60.0333027763" lon="11.1591861136">
		<tag k="alt_name" v="Nedre Vilberg Søgarden" />
		<tag k="name" v="Søgarden Nedre Vilberg" />
		<tag k="place" v="farm" />
		<tag k="ssr:stedsnr" v="302273" />
	</node>
	<node id="-31395" lat="60.0386916634" lon="11.1531083413">
		<tag k="name" v="St. Olavs gang" />
		<tag k="natural" v="valley" />
		<tag k="place" v="locality" />
		<tag k="ssr:stedsnr" v="302264" />
	</node>
	<node id="-31394" lat="60.0425666684" lon="11.1539888805">
		<tag k="name" v="Rulla" />
		<tag k="place" v="farm" />
		<tag k="ssr:stedsnr" v="302262" />
	</node>
	<node id="-31393" lat="60.0360583306" lon="11.130405552">
		<tag k="name" v="Mohagan" />
		<tag k="place" v="farm" />
		<tag k="ssr:stedsnr" v="302257" />
	</node>
	<node id="-31392" lat="60.0343500026" lon="11.225913893">
		<tag k="name" v="Hagan" />
		<tag k="place" v="farm" />
		<tag k="ssr:stedsnr" v="302241" />
	</node>
	<node id="-31391" lat="60.0493250016" lon="11.082083334">
		<tag k="fixme" v="multiple name tags, choose one and add the other to alt_name" />
		<tag k="name" v="Nedre Hekseberg;Hekseberg" />
		<tag k="old_name" v="Hekseberg nedre;Hexeberg" />
		<tag k="place" v="farm" />
		<tag k="ssr:stedsnr" v="301864" />
	</node>
	<node id="-31390" lat="59.9975388923" lon="11.180794451">
		<tag k="name" v="Vivangsmyra" />
		<tag k="natural" v="wetland" />
		<tag k="ssr:stedsnr" v="300715" />
	</node>
	<node id="-31389" lat="59.984126295" lon="11.2723881434">
		<tag k="fixme" v="consider place=hamlet" />
		<tag k="name" v="Fossum" />
		<tag k="place" v="farm" />
		<tag k="ssr:stedsnr" v="300661" />
	</node>
	<node id="-31388" lat="60.0241194446" lon="11.1844472311">
		<tag k="name" v="Simenslykkja" />
		<tag k="place" v="farm" />
		<tag k="ssr:stedsnr" v="299951" />
	</node>
	<node id="-31387" lat="60.0074583328" lon="11.1838861139">
		<tag k="name" v="Huken" />
		<tag k="place" v="locality" />
		<tag k="ssr:stedsnr" v="299928" />
	</node>
	<node id="-31386" lat="60.0191722177" lon="11.1630000027">
		<tag k="name" v="Haraset" />
		<tag k="place" v="farm" />
		<tag k="ssr:stedsnr" v="299925" />
	</node>
	<node id="-31385" lat="60.0220583322" lon="11.1716249998">
		<tag k="name" v="Østhagan" />
		<tag k="place" v="farm" />
		<tag k="ssr:stedsnr" v="299926" />
	</node>
	<node id="-31384" lat="60.0165527797" lon="11.2046749958">
		<tag k="name" v="Vestre Meli" />
		<tag k="place" v="farm" />
		<tag k="ssr:stedsnr" v="299920" />
	</node>
	<node id="-31383" lat="60.0171972199" lon="11.1419666578">
		<tag k="name" v="Furuseter" />
		<tag k="place" v="farm" />
		<tag k="ssr:stedsnr" v="299908" />
	</node>
	<node id="-31382" lat="60.0139777756" lon="11.1506222303">
		<tag k="name" v="Lunder" />
		<tag k="place" v="farm" />
		<tag k="ssr:stedsnr" v="299905" />
	</node>
	<node id="-31381" lat="60.0157000021" lon="11.1163000002">
		<tag k="alt_name" v="Skrøver Nordgarden" />
		<tag k="name" v="Nordgarden Skrøver" />
		<tag k="place" v="farm" />
		<tag k="ssr:stedsnr" v="299811" />
	</node>
	<node id="-31380" lat="59.9949805601" lon="11.3782444426">
		<tag k="name" v="Smestad" />
		<tag k="place" v="farm" />
		<tag k="ssr:stedsnr" v="299795" />
	</node>
	<node id="-31379" lat="59.991022225" lon="11.3705916628">
		<tag k="amenity" v="school" />
		<tag k="name" v="Skåningsrud skole" />
		<tag k="ssr:stedsnr" v="299794" />
	</node>
	<node id="-31378" lat="59.9208555561" lon="11.3088972143">
		<tag k="name" v="Steinbakken" />
		<tag k="natural" v="slope" />
		<tag k="place" v="locality" />
		<tag k="ssr:stedsnr" v="299306" />
	</node>
	<node id="-31377" lat="59.9183083352" lon="11.2640277716">
		<tag k="fixme" v="consider natural=peak for the most distinct mountains in the district" />
		<tag k="name" v="Telefonåsen" />
		<tag k="natural" v="hill" />
		<tag k="place" v="locality" />
		<tag k="ssr:stedsnr" v="299267" />
	</node>
	<node id="-31376" lat="59.9823388897" lon="11.2190861173">
		<tag k="alt_name" v="Vestby søndre;Nystua;Nystun" />
		<tag k="name" v="Søndre Vestby" />
		<tag k="place" v="farm" />
		<tag k="ssr:stedsnr" v="294006" />
	</node>
	<node id="-31375" lat="59.9844444456" lon="11.2530111129">
		<tag k="bridge" v="yes" />
		<tag k="layer" v="1" />
		<tag k="name" v="Fyn" />
		<tag k="ssr:stedsnr" v="289042" />
	</node>
	<node id="-31374" lat="60.0509222246" lon="11.2450305581">
		<tag k="alt_name" v="Vølneberg søgarn" />
		<tag k="name" v="Søgarden Vølneberg" />
		<tag k="place" v="farm" />
		<tag k="ssr:stedsnr" v="283368" />
	</node>
	<node id="-31373" lat="60.0535666663" lon="11.1442527694">
		<tag k="name" v="Bråten" />
		<tag k="place" v="farm" />
		<tag k="ssr:stedsnr" v="283350" />
	</node>
	<node id="-31372" lat="60.0525932299" lon="11.1796943871">
		<tag k="fixme" v="consider place=hamlet" />
		<tag k="name" v="Refsum" />
		<tag k="place" v="farm" />
		<tag k="ssr:stedsnr" v="283347" />
	</node>
	<node id="-31371" lat="60.0066333352" lon="11.3384305618">
		<tag k="name" v="Langbråten" />
		<tag k="place" v="farm" />
		<tag k="ssr:stedsnr" v="283137" />
	</node>
	<node id="-31370" lat="59.9635194405" lon="11.2191694362">
		<tag k="name" v="Holåsen" />
		<tag k="natural" v="hill" />
		<tag k="place" v="locality" />
		<tag k="ssr:stedsnr" v="282431" />
	</node>
	<node id="-31369" lat="59.9669694477" lon="11.2179500084">
		<tag k="name" v="Lystadbråten" />
		<tag k="place" v="farm" />
		<tag k="ssr:stedsnr" v="282428" />
	</node>
	<node id="-31368" lat="59.9600444451" lon="11.2391805489">
		<tag k="name" v="Olerudhytta" />
		<tag k="place" v="isolated_dwelling" />
		<tag k="ssr:stedsnr" v="282422" />
	</node>
	<node id="-31367" lat="59.9302694418" lon="11.3180888891">
		<tag k="name" v="Høgmåsan" />
		<tag k="natural" v="wetland" />
		<tag k="ssr:stedsnr" v="282419" />
	</node>
	<node id="-31366" lat="59.9427083375" lon="11.2827361136">
		<tag k="name" v="Bjønnmyra" />
		<tag k="natural" v="wetland" />
		<tag k="ssr:stedsnr" v="282412" />
	</node>
	<node id="-31365" lat="59.9569666679" lon="11.2221000083">
		<tag k="fixme" v="consider natural=peak for the most distinct mountains in the district" />
		<tag k="name" v="Lintjennåsen" />
		<tag k="natural" v="hill" />
		<tag k="place" v="locality" />
		<tag k="ssr:stedsnr" v="282413" />
	</node>
	<node id="-31364" lat="59.960222225" lon="11.2235166624">
		<tag k="name" v="Brenneppåsen" />
		<tag k="natural" v="hill" />
		<tag k="place" v="locality" />
		<tag k="ssr:stedsnr" v="282411" />
	</node>
	<node id="-31363" lat="60.056199999" lon="11.2955472303">
		<tag k="name" v="Askedalsmyra" />
		<tag k="natural" v="wetland" />
		<tag k="ssr:stedsnr" v="282405" />
	</node>
	<node id="-31362" lat="59.9723666662" lon="11.3019999996">
		<tag k="name" v="Torvstrømyra" />
		<tag k="natural" v="wetland" />
		<tag k="ssr:stedsnr" v="282363" />
	</node>
	<node id="-31361" lat="59.9724416667" lon="11.2387277807">
		<tag k="name" v="Jensrud" />
		<tag k="place" v="locality" />
		<tag k="ssr:stedsnr" v="282354" />
	</node>
	<node id="-31360" lat="59.9761527803" lon="11.2559333298">
		<tag k="name" v="Haugen" />
		<tag k="place" v="farm" />
		<tag k="ssr:stedsnr" v="282351" />
	</node>
	<node id="-31359" lat="59.9760694487" lon="11.2115861068">
		<tag k="name" v="Nordlund" />
		<tag k="place" v="isolated_dwelling" />
		<tag k="ssr:stedsnr" v="282341" />
	</node>
	<node id="-31358" lat="60.0438999966" lon="11.2810805639">
		<tag k="name" v="Jenshus" />
		<tag k="place" v="locality" />
		<tag k="ssr:stedsnr" v="282290" />
	</node>
	<node id="-31357" lat="60.0102611093" lon="11.3788749985">
		<tag k="name" v="Granberg" />
		<tag k="place" v="farm" />
		<tag k="ssr:stedsnr" v="282143" />
	</node>
</osm>
