<?xml version="1.0" encoding="UTF-8"?>
<osm generator="osmapis" version="0.6">
	<node id="-31487" lat="60.0286250034" lon="11.3526222237">
		<tag k="name" v="Damstokken" />
		<tag k="place" v="locality" />
		<tag k="ssr:stedsnr" v="404395" />
	</node>
	<node id="-32117" lat="60.0305750021" lon="11.0936277858">
		<tag k="name" v="Melvoll" />
		<tag k="place" v="locality" />
		<tag k="ssr:stedsnr" v="726236" />
	</node>
	<node id="-31983" lat="59.914119442" lon="11.2710750076">
		<tag k="name" v="Seterdalsvangen" />
		<tag k="place" v="locality" />
		<tag k="ssr:stedsnr" v="602268" />
	</node>
	<node id="-31979" lat="59.9576694471" lon="11.3875333364">
		<tag k="name" v="Høyby" />
		<tag k="place" v="locality" />
		<tag k="ssr:stedsnr" v="585404" />
	</node>
	<node id="-31592" lat="60.0255305563" lon="11.1756750048">
		<tag k="name" v="Østhagan" />
		<tag k="place" v="locality" />
		<tag k="ssr:stedsnr" v="59244" />
	</node>
	<node id="-31719" lat="59.9797583325" lon="11.3368194359">
		<tag k="name" v="Mohagan" />
		<tag k="place" v="locality" />
		<tag k="ssr:stedsnr" v="180579" />
	</node>
	<node id="-31590" lat="60.0375333344" lon="11.1690499968">
		<tag k="name" v="Øgarden" />
		<tag k="place" v="locality" />
		<tag k="ssr:stedsnr" v="59238" />
	</node>
	<node id="-31461" lat="60.0200166656" lon="11.1057555554">
		<tag k="alt_name" v="Frogner" />
		<tag k="amenity" v="place_of_worship" />
		<tag k="denomination" v="lutheran" />
		<tag k="name" v="Frogner kirke" />
		<tag k="religion" v="christian" />
		<tag k="ssr:stedsnr" v="369928" />
	</node>
	<node id="-31454" lat="60.0335472231" lon="11.16934444">
		<tag k="name" v="Kvennhusbråtan" />
		<tag k="place" v="locality" />
		<tag k="ssr:stedsnr" v="362252" />
	</node>
	<node id="-31709" lat="60.0005666635" lon="11.3417138972">
		<tag k="amenity" v="community_centre" />
		<tag k="name" v="Skytterhuset" />
		<tag k="ssr:stedsnr" v="178766" />
	</node>
	<node id="-32091" lat="60.013897226" lon="11.3356416706">
		<tag k="amenity" v="community_centre" />
		<tag k="name" v="Betania" />
		<tag k="ssr:stedsnr" v="707172" />
	</node>
	<node id="-31574" lat="59.9085916699" lon="11.3105499927">
		<tag k="name" v="Bjønnehibakken" />
		<tag k="place" v="locality" />
		<tag k="ssr:stedsnr" v="57215" />
	</node>
	<node id="-31444" lat="60.0099833318" lon="11.1881444359">
		<tag k="name" v="Haugen" />
		<tag k="place" v="locality" />
		<tag k="ssr:stedsnr" v="360917" />
	</node>
	<node id="-32083" lat="60.0066253848" lon="11.2345366833">
		<tag k="alt_name" v="Sørum" />
		<tag k="amenity" v="place_of_worship" />
		<tag k="denomination" v="lutheran" />
		<tag k="name" v="Sørum kirke" />
		<tag k="religion" v="christian" />
		<tag k="ssr:stedsnr" v="673958" />
	</node>
	<node id="-31944" lat="59.9523972247" lon="11.3302361111">
		<tag k="amenity" v="community_centre" />
		<tag k="name" v="Bethania" />
		<tag k="ssr:stedsnr" v="544760" />
	</node>
	<node id="-31921" lat="59.98219167" lon="11.2887361145">
		<tag k="name" v="Monserudpensen" />
		<tag k="place" v="locality" />
		<tag k="ssr:stedsnr" v="542722" />
	</node>
	<node id="-32173" lat="60.025736107" lon="11.1796361151">
		<tag k="name" v="Knatten" />
		<tag k="place" v="locality" />
		<tag k="ssr:stedsnr" v="787208" />
	</node>
	<node id="-31401" lat="59.9848555599" lon="11.3487805557">
		<tag k="amenity" v="community_centre" />
		<tag k="name" v="Bruvollen" />
		<tag k="ssr:stedsnr" v="308413" />
	</node>
	<node id="-31649" lat="60.0366083308" lon="11.1541583284">
		<tag k="name" v="Hasler" />
		<tag k="place" v="locality" />
		<tag k="ssr:stedsnr" v="120231" />
	</node>
	<node id="-31520" lat="60.0205985857" lon="11.1048034438">
		<tag k="amenity" v="place_of_worship" />
		<tag k="denomination" v="lutheran" />
		<tag k="name" v="Frogner gamle kirke" />
		<tag k="religion" v="christian" />
		<tag k="ssr:stedsnr" v="990994" />
	</node>
	<node id="-32045" lat="59.9209861124" lon="11.2780944443">
		<tag k="name" v="Sandhaug" />
		<tag k="place" v="locality" />
		<tag k="ssr:stedsnr" v="663244" />
	</node>
	<node id="-31881" lat="60.0274833334" lon="11.2684250027">
		<tag k="name" v="Postkassa" />
		<tag k="place" v="locality" />
		<tag k="ssr:stedsnr" v="484202" />
	</node>
	<node id="-32136" lat="60.0015583334" lon="11.3017138821">
		<tag k="alt_name" v="Blaker" />
		<tag k="amenity" v="place_of_worship" />
		<tag k="denomination" v="lutheran" />
		<tag k="name" v="Blaker kirke" />
		<tag k="religion" v="christian" />
		<tag k="ssr:stedsnr" v="734946" />
	</node>
	<node id="-31879" lat="60.0149250025" lon="11.2314444388">
		<tag k="name" v="Fjellbrauta" />
		<tag k="place" v="locality" />
		<tag k="ssr:stedsnr" v="481956" />
	</node>
	<node id="-32086" lat="60.0052194405" lon="11.3059500064">
		<tag k="name" v="Blaker skanse" />
		<tag k="place" v="locality" />
		<tag k="ssr:stedsnr" v="692725" />
	</node>
</osm>
