<?xml version="1.0" encoding="UTF-8"?>
<osm generator="osmapis" version="0.6">
	<node id="-32128" lat="60.0557999958" lon="11.2796527727">
		<tag k="alt_name" v="Søtjennet" />
		<tag k="name" v="Søltjernet" />
		<tag k="natural" v="water" />
		<tag k="ssr:stedsnr" v="733011" />
	</node>
	<node id="-32127" lat="59.8976611143" lon="11.2794277701">
		<tag k="alt_name" v="Mjøsjøen, søndre" />
		<tag k="name" v="Søndre Mjøsjøen" />
		<tag k="natural" v="water" />
		<tag k="ssr:stedsnr" v="732666" />
	</node>
	<node id="-32254" lat="59.969219443" lon="11.2524694459">
		<tag k="name" v="Oleruddammen" />
		<tag k="natural" v="water" />
		<tag k="ssr:stedsnr" v="876211" />
	</node>
	<node id="-31868" lat="59.9138861152" lon="11.3266416655">
		<tag k="name" v="Bikkjehølet" />
		<tag k="natural" v="water" />
		<tag k="ssr:stedsnr" v="481260" />
		<tag k="water" v="pond" />
	</node>
	<node id="-32251" lat="60.0033000014" lon="11.2892749952">
		<tag k="name" v="Sundfossen" />
		<tag k="natural" v="waterfall" />
		<tag k="ssr:stedsnr" v="855962" />
	</node>
	<node id="-31999" lat="60.029172218" lon="11.1949416672">
		<tag k="name" v="Kvennfossen" />
		<tag k="natural" v="waterfall" />
		<tag k="ssr:stedsnr" v="605255" />
	</node>
	<node id="-31828" lat="60.0621388889" lon="11.2858055539">
		<tag k="alt_name" v="Ormstadtjennet" />
		<tag k="name" v="Ormstadtjernet" />
		<tag k="natural" v="water" />
		<tag k="ssr:stedsnr" v="430004" />
	</node>
	<node id="-32118" lat="60.0296666637" lon="11.1649972201">
		<tag k="name" v="Hønsibekken" />
		<tag k="ssr:stedsnr" v="726260" />
		<tag k="waterway" v="stream" />
	</node>
	<node id="-31861" lat="60.0162249959" lon="11.2858305632">
		<tag k="name" v="Børgendammen" />
		<tag k="natural" v="water" />
		<tag k="ssr:stedsnr" v="467017" />
	</node>
	<node id="-31860" lat="60.0172861138" lon="11.2737916616">
		<tag k="name" v="Bergsbekken" />
		<tag k="ssr:stedsnr" v="467015" />
		<tag k="waterway" v="stream" />
	</node>
	<node id="-32115" lat="59.9874361156" lon="11.2553916689">
		<tag k="name" v="Fynsand" />
		<tag k="natural" v="beach" />
		<tag k="ssr:stedsnr" v="725684" />
	</node>
	<node id="-32114" lat="59.9931888915" lon="11.1830194361">
		<tag k="name" v="Smedsrudvika" />
		<tag k="natural" v="bay" />
		<tag k="ssr:stedsnr" v="725663" />
	</node>
	<node id="-31827" lat="59.8956694424" lon="11.3148000067">
		<tag k="alt_name" v="Jarsjøen, vestre" />
		<tag k="name" v="Vestre Jarsjøen" />
		<tag k="natural" v="water" />
		<tag k="ssr:stedsnr" v="429622" />
	</node>
	<node id="-31728" lat="59.9036249997" lon="11.3298027751">
		<tag k="alt_name" v="Jarsjøen, østre" />
		<tag k="name" v="Østre Jarsjøen" />
		<tag k="natural" v="water" />
		<tag k="ssr:stedsnr" v="187577" />
	</node>
	<node id="-31599" lat="59.9788527783" lon="11.4193138866">
		<tag k="name" v="Fjuktjern" />
		<tag k="natural" v="water" />
		<tag k="ssr:stedsnr" v="65442" />
	</node>
	<node id="-31850" lat="60.0386444402" lon="11.236024995">
		<tag k="name" v="Gjesterbekken" />
		<tag k="ssr:stedsnr" v="464317" />
		<tag k="waterway" v="stream" />
	</node>
	<node id="-32035" lat="60.0417722183" lon="11.2966666639">
		<tag k="name" v="Hellesjøbekken" />
		<tag k="ssr:stedsnr" v="646323" />
		<tag k="waterway" v="stream" />
	</node>
	<node id="-32104" lat="59.9116583339" lon="11.3206194523">
		<tag k="name" v="Svartputten" />
		<tag k="natural" v="water" />
		<tag k="ssr:stedsnr" v="724216" />
		<tag k="water" v="pond" />
	</node>
	<node id="-31591" lat="60.0386861102" lon="11.1296944484">
		<tag k="name" v="Ulverudbekken" />
		<tag k="ssr:stedsnr" v="59243" />
		<tag k="waterway" v="stream" />
	</node>
	<node id="-31886" lat="59.9969972242" lon="11.4147249953">
		<tag k="name" v="Hauketjernbekken" />
		<tag k="ssr:stedsnr" v="490456" />
		<tag k="waterway" v="stream" />
	</node>
	<node id="-32100" lat="60.0295694406" lon="11.2254861081">
		<tag k="name" v="Holsbekken" />
		<tag k="ssr:stedsnr" v="709049" />
		<tag k="waterway" v="stream" />
	</node>
	<node id="-32094" lat="59.9767444413" lon="11.2130472241">
		<tag k="name" v="Vatterudevja" />
		<tag k="natural" v="bay" />
		<tag k="ssr:stedsnr" v="707390" />
	</node>
	<node id="-31578" lat="59.996386107" lon="11.2138583301">
		<tag k="name" v="Markensevja" />
		<tag k="natural" v="bay" />
		<tag k="ssr:stedsnr" v="57696" />
	</node>
	<node id="-31449" lat="60.0193833376" lon="11.211000005">
		<tag k="name" v="Melibekken" />
		<tag k="ssr:stedsnr" v="360953" />
		<tag k="waterway" v="stream" />
	</node>
	<node id="-31703" lat="59.8837805519" lon="11.3217472274">
		<tag k="name" v="Svartputten" />
		<tag k="natural" v="bay" />
		<tag k="ssr:stedsnr" v="178288" />
	</node>
	<node id="-31958" lat="60.0397055575" lon="11.1225777853">
		<tag k="name" v="Jeksla" />
		<tag k="ssr:stedsnr" v="551892" />
		<tag k="waterway" v="stream" />
	</node>
	<node id="-32213" lat="59.9016888866" lon="11.3214777747">
		<tag k="name" v="Drøplene" />
		<tag k="natural" v="water" />
		<tag k="ssr:stedsnr" v="846283" />
		<tag k="water" v="pond" />
	</node>
	<node id="-31956" lat="59.9498888919" lon="11.2462444442">
		<tag k="name" v="Frysjua" />
		<tag k="natural" v="water" />
		<tag k="ssr:stedsnr" v="551534" />
	</node>
	<node id="-31955" lat="59.9630694407" lon="11.2745888923">
		<tag k="alt_name" v="Monsruddamtjennet" />
		<tag k="name" v="Monsruddamtjernet" />
		<tag k="natural" v="water" />
		<tag k="ssr:stedsnr" v="551508" />
	</node>
	<node id="-32082" lat="59.9135305534" lon="11.2857583349">
		<tag k="alt_name" v="Mjøsjøen, nordre" />
		<tag k="name" v="Nordre Mjøsjøen" />
		<tag k="natural" v="water" />
		<tag k="ssr:stedsnr" v="672592" />
		<tag k="water" v="lake" />
	</node>
	<node id="-31953" lat="60.0599888879" lon="11.2808055633">
		<tag k="name" v="Svartputten" />
		<tag k="natural" v="water" />
		<tag k="ssr:stedsnr" v="551006" />
	</node>
	<node id="-32080" lat="59.9516749981" lon="11.2646861046">
		<tag k="alt_name" v="Svarttjennet" />
		<tag k="name" v="Svarttjern" />
		<tag k="natural" v="water" />
		<tag k="ssr:stedsnr" v="672503" />
	</node>
	<node id="-31437" lat="59.9931111141" lon="11.18661667">
		<tag k="name" v="Tjennsbekken" />
		<tag k="ssr:stedsnr" v="360684" />
		<tag k="waterway" v="stream" />
	</node>
	<node id="-32075" lat="59.9827805513" lon="11.33398888">
		<tag k="name" v="Fossåa" />
		<tag k="old_name" v="Åa" />
		<tag k="ssr:stedsnr" v="672415" />
		<tag k="waterway" v="river" />
	</node>
	<node id="-31479" lat="59.97588611" lon="11.219211108">
		<tag k="name" v="Lystadbekken" />
		<tag k="ssr:stedsnr" v="403350" />
		<tag k="waterway" v="stream" />
	</node>
	<node id="-32328" lat="59.967613892" lon="11.3307333392">
		<tag k="name" v="Grinibekken" />
		<tag k="ssr:stedsnr" v="969610" />
		<tag k="waterway" v="stream" />
	</node>
	<node id="-31628" lat="59.9702916675" lon="11.2047694451">
		<tag k="name" v="Lystadtangen" />
		<tag k="natural" v="cape" />
		<tag k="ssr:stedsnr" v="100430" />
	</node>
	<node id="-32198" lat="59.9764777809" lon="11.2091416714">
		<tag k="name" v="Bingen lenser" />
		<tag k="place" v="locality" />
		<tag k="ssr:stedsnr" v="829370" />
	</node>
	<node id="-32069" lat="59.9755638895" lon="11.3453972187">
		<tag k="name" v="Kauserudåa" />
		<tag k="ssr:stedsnr" v="666575" />
		<tag k="waterway" v="river" />
	</node>
	<node id="-32323" lat="60.0100805538" lon="11.2022166603">
		<tag k="name" v="Bæreggsbekken" />
		<tag k="ssr:stedsnr" v="967914" />
		<tag k="waterway" v="stream" />
	</node>
	<node id="-32065" lat="60.0359277735" lon="11.1694277691">
		<tag k="name" v="Vilbergsbekken" />
		<tag k="ssr:stedsnr" v="665259" />
		<tag k="waterway" v="stream" />
	</node>
	<node id="-32064" lat="60.0428500021" lon="11.2230749965">
		<tag k="name" v="Mjønerudfossen" />
		<tag k="natural" v="waterfall" />
		<tag k="ssr:stedsnr" v="665246" />
	</node>
	<node id="-31807" lat="59.9965888862" lon="11.2102499961">
		<tag k="name" v="Svartevja" />
		<tag k="natural" v="bay" />
		<tag k="ssr:stedsnr" v="421718" />
	</node>
	<node id="-32317" lat="59.9884999963" lon="11.2272250021">
		<tag k="name" v="Hofskjæret" />
		<tag k="place" v="islet" />
		<tag k="ssr:stedsnr" v="967679" />
	</node>
	<node id="-31803" lat="59.9036722258" lon="11.3276444439">
		<tag k="name" v="Buvika" />
		<tag k="natural" v="bay" />
		<tag k="ssr:stedsnr" v="421302" />
	</node>
	<node id="-32312" lat="59.9051222212" lon="11.282747226">
		<tag k="name" v="Helltjennhakan" />
		<tag k="natural" v="bay" />
		<tag k="ssr:stedsnr" v="967202" />
	</node>
	<node id="-31668" lat="60.0200777787" lon="11.3641083345">
		<tag k="alt_name" v="Svarstadtjennet" />
		<tag k="name" v="Svarstadtjernet" />
		<tag k="natural" v="water" />
		<tag k="ssr:stedsnr" v="126923" />
	</node>
	<node id="-32306" lat="59.9319527795" lon="11.3519083266">
		<tag k="name" v="Jarsjøbekken" />
		<tag k="ssr:stedsnr" v="967232" />
		<tag k="waterway" v="stream" />
	</node>
	<node id="-31537" lat="59.904910645" lon="11.2708555908">
		<tag k="alt_name" v="Breidsjøen" />
		<tag k="name" v="Breisjøen" />
		<tag k="natural" v="water" />
		<tag k="ssr:stedsnr" v="5602" />
		<tag k="water" v="lake" />
	</node>
	<node id="-31536" lat="59.9511749979" lon="11.2901916621">
		<tag k="alt_name" v="Igletjennet" />
		<tag k="name" v="Igletjern" />
		<tag k="natural" v="water" />
		<tag k="ssr:stedsnr" v="5524" />
	</node>
	<node id="-31663" lat="59.9536083307" lon="11.2199055584">
		<tag k="alt_name" v="Lintjenna" />
		<tag k="name" v="Lintjerna" />
		<tag k="natural" v="water" />
		<tag k="ssr:stedsnr" v="126543" />
	</node>
	<node id="-32174" lat="60.0298416655" lon="11.1978944508">
		<tag k="name" v="Asakbekken" />
		<tag k="ssr:stedsnr" v="787237" />
		<tag k="waterway" v="stream" />
	</node>
	<node id="-31661" lat="59.9372888913" lon="11.2780833345">
		<tag k="alt_name" v="Langtjennet" />
		<tag k="name" v="Langtjern" />
		<tag k="natural" v="water" />
		<tag k="ssr:stedsnr" v="126566" />
	</node>
	<node id="-31531" lat="59.8883999993" lon="11.3155083309">
		<tag k="alt_name" v="Rundtjenna" />
		<tag k="name" v="Rundtjerna" />
		<tag k="natural" v="water" />
		<tag k="ssr:stedsnr" v="4655" />
	</node>
	<node id="-31606" lat="59.9556583291" lon="11.2365694502">
		<tag k="alt_name" v="Damtjennet" />
		<tag k="name" v="Damtjern" />
		<tag k="natural" v="water" />
		<tag k="ssr:stedsnr" v="66518" />
	</node>
	<node id="-31529" lat="59.9350555551" lon="11.2716111137">
		<tag k="alt_name" v="Klopptjennet" />
		<tag k="name" v="Klopptjern" />
		<tag k="natural" v="water" />
		<tag k="ssr:stedsnr" v="4563" />
	</node>
	<node id="-31528" lat="59.994074998" lon="11.1970749942">
		<tag k="name" v="Dammen" />
		<tag k="natural" v="water" />
		<tag k="ssr:stedsnr" v="4491" />
		<tag k="water" v="pond" />
	</node>
	<node id="-31398" lat="59.9968166639" lon="11.1527305626">
		<tag k="name" v="Lundertjernet" />
		<tag k="natural" v="water" />
		<tag k="ssr:stedsnr" v="307514" />
	</node>
	<node id="-31909" lat="59.9443111101" lon="11.2559333264">
		<tag k="name" v="Setervika" />
		<tag k="natural" v="bay" />
		<tag k="ssr:stedsnr" v="525448" />
	</node>
	<node id="-31780" lat="59.9920333304" lon="11.2486944489">
		<tag k="name" v="Lushammeren" />
		<tag k="natural" v="cape" />
		<tag k="ssr:stedsnr" v="241742" />
	</node>
	<node id="-31907" lat="60.0759916648" lon="11.2504555521">
		<tag k="name" v="Slemdalsfossen" />
		<tag k="natural" v="waterfall" />
		<tag k="ssr:stedsnr" v="525439" />
	</node>
	<node id="-32159" lat="59.9876277744" lon="11.4390722165">
		<tag k="name" v="Hauketjern" />
		<tag k="natural" v="water" />
		<tag k="ssr:stedsnr" v="793489" />
	</node>
	<node id="-31499" lat="59.9788750031" lon="11.2136194363">
		<tag k="name" v="Villingsundet" />
		<tag k="natural" v="bay" />
		<tag k="ssr:stedsnr" v="889364" />
	</node>
	<node id="-31644" lat="59.9863388848" lon="11.2617722278">
		<tag k="name" v="Tømmertangen" />
		<tag k="natural" v="cape" />
		<tag k="ssr:stedsnr" v="118620" />
	</node>
	<node id="-31769" lat="59.989577775" lon="11.24565834">
		<tag k="name" v="Kuskerudnebben" />
		<tag k="natural" v="cape" />
		<tag k="ssr:stedsnr" v="239731" />
	</node>
	<node id="-32280" lat="59.9571555538" lon="11.2830138898">
		<tag k="alt_name" v="Lavanstjennet" />
		<tag k="name" v="Lavanstjern" />
		<tag k="natural" v="water" />
		<tag k="ssr:stedsnr" v="915509" />
	</node>
	<node id="-31766" lat="59.9247083344" lon="11.3298694478">
		<tag k="name" v="Kanamåsatjennet" />
		<tag k="natural" v="water" />
		<tag k="ssr:stedsnr" v="239276" />
	</node>
	<node id="-31942" lat="59.9677194452" lon="11.3424583271">
		<tag k="name" v="Korsåa" />
		<tag k="ssr:stedsnr" v="544587" />
		<tag k="waterway" v="river" />
	</node>
	<node id="-32276" lat="59.9919416666" lon="11.1823083245">
		<tag k="alt_name" v="Bæreggstjennet" />
		<tag k="name" v="Bæreggtjernet" />
		<tag k="natural" v="water" />
		<tag k="ssr:stedsnr" v="915465" />
	</node>
	<node id="-31406" lat="59.9529361108" lon="11.2440166643">
		<tag k="alt_name" v="Svartputten" />
		<tag k="name" v="Svartpytten" />
		<tag k="natural" v="water" />
		<tag k="ssr:stedsnr" v="308510" />
	</node>
	<node id="-31762" lat="59.9634222194" lon="11.3442861047">
		<tag k="name" v="Steinsrudåa" />
		<tag k="ssr:stedsnr" v="239246" />
		<tag k="waterway" v="river" />
	</node>
	<node id="-31888" lat="59.9891111132" lon="11.2596999967">
		<tag k="name" v="Bingsfossen" />
		<tag k="natural" v="waterfall" />
		<tag k="ssr:stedsnr" v="490461" />
	</node>
	<node id="-31538" lat="59.9098166712" lon="11.299436104">
		<tag k="alt_name" v="Helltjern, øvre;Øvre Helltjennet" />
		<tag k="name" v="Øvre Helltjern" />
		<tag k="natural" v="water" />
		<tag k="ssr:stedsnr" v="5606" />
	</node>
	<node id="-31629" lat="60.0136611121" lon="11.2514722223">
		<tag k="name" v="Skeabekken" />
		<tag k="ssr:stedsnr" v="103021" />
		<tag k="waterway" v="stream" />
	</node>
	<node id="-32140" lat="59.9352555517" lon="11.324219453">
		<tag k="name" v="Rossdalstjennet" />
		<tag k="natural" v="water" />
		<tag k="ssr:stedsnr" v="767429" />
	</node>
	<node id="-32011" lat="60.0455277781" lon="11.305058331">
		<tag k="alt_name" v="Hellesjøtjennet" />
		<tag k="name" v="Hellesjøtjernet" />
		<tag k="natural" v="water" />
		<tag k="ssr:stedsnr" v="612032" />
	</node>
	<node id="-31626" lat="59.9625555589" lon="11.3349083399">
		<tag k="name" v="Krokstadåa" />
		<tag k="ssr:stedsnr" v="100417" />
		<tag k="waterway" v="stream" />
	</node>
	<node id="-32072" lat="59.9922777818" lon="11.2086527771">
		<tag k="name" v="Rømua" />
		<tag k="ssr:stedsnr" v="671500" />
		<tag k="waterway" v="river" />
	</node>
	<node id="-31425" lat="59.9766277767" lon="11.1893472149">
		<tag k="name" v="Agntjennsbekken" />
		<tag k="ssr:stedsnr" v="343328" />
		<tag k="waterway" v="stream" />
	</node>
	<node id="-32132" lat="59.9073666705" lon="11.2880527862">
		<tag k="alt_name" v="Helltjern, nedre;Nedre Helltjennet" />
		<tag k="name" v="Nedre Helltjern" />
		<tag k="natural" v="water" />
		<tag k="ssr:stedsnr" v="733592" />
	</node>
	<node id="-32259" lat="59.9890277782" lon="11.2647888885">
		<tag k="name" v="Holmen" />
		<tag k="place" v="islet" />
		<tag k="ssr:stedsnr" v="907684" />
	</node>
	<node id="-31746" lat="60.04115833" lon="11.2381722286">
		<tag k="name" v="Vølnerbekken" />
		<tag k="ssr:stedsnr" v="222308" />
		<tag k="waterway" v="stream" />
	</node>
	<node id="-32257" lat="60.0212944403" lon="11.0663388905">
		<tag k="name" v="Skillebekken" />
		<tag k="ssr:stedsnr" v="906819" />
		<tag k="waterway" v="stream" />
	</node>
</osm>
