<?xml version="1.0" encoding="UTF-8"?>
<osm generator="osmapis" version="0.6">
	<node id="-32255" lat="60.0262000015" lon="11.2870777804">
		<tag k="name" v="Børgenmarka" />
		<tag k="place" v="locality" />
		<tag k="ssr:stedsnr" v="909212" />
	</node>
	<node id="-31998" lat="59.9967638928" lon="11.3418055603">
		<tag k="name" v="Skukstadmåsan" />
		<tag k="natural" v="wetland" />
		<tag k="ssr:stedsnr" v="611475" />
	</node>
	<node id="-31996" lat="59.9901666686" lon="11.1648166685">
		<tag k="name" v="Bjønnmyra" />
		<tag k="natural" v="wetland" />
		<tag k="ssr:stedsnr" v="605601" />
	</node>
	<node id="-31995" lat="59.999649997" lon="11.1367416654">
		<tag k="name" v="Hellefjellet" />
		<tag k="place" v="locality" />
		<tag k="ssr:stedsnr" v="605582" />
	</node>
	<node id="-32250" lat="59.9201194474" lon="11.2716638819">
		<tag k="name" v="Seterdalsmyra" />
		<tag k="natural" v="wetland" />
		<tag k="ssr:stedsnr" v="906269" />
	</node>
	<node id="-32249" lat="59.9315000008" lon="11.2633166653">
		<tag k="name" v="Engermåsan" />
		<tag k="natural" v="wetland" />
		<tag k="ssr:stedsnr" v="906268" />
	</node>
	<node id="-31478" lat="59.969141666" lon="11.2953416675">
		<tag k="name" v="Delemyrene" />
		<tag k="natural" v="wetland" />
		<tag k="ssr:stedsnr" v="404363" />
	</node>
	<node id="-31987" lat="59.991925002" lon="11.194286117">
		<tag k="name" v="Elgmyra" />
		<tag k="natural" v="wetland" />
		<tag k="ssr:stedsnr" v="603682" />
	</node>
	<node id="-31587" lat="59.998705554" lon="11.1335444495">
		<tag k="name" v="Ulvemyra" />
		<tag k="natural" v="wetland" />
		<tag k="ssr:stedsnr" v="59594" />
	</node>
	<node id="-31596" lat="59.9151305563" lon="11.3105916743">
		<tag k="name" v="Brumåsan" />
		<tag k="natural" v="wetland" />
		<tag k="ssr:stedsnr" v="65604" />
	</node>
	<node id="-31845" lat="59.9795694445" lon="11.2261972265">
		<tag k="name" v="Østbyhagen" />
		<tag k="place" v="locality" />
		<tag k="ssr:stedsnr" v="464386" />
	</node>
	<node id="-32099" lat="59.9224916639" lon="11.3302694466">
		<tag k="name" v="Kanamåsan" />
		<tag k="natural" v="wetland" />
		<tag k="ssr:stedsnr" v="724254" />
	</node>
	<node id="-31355" lat="60.056199999" lon="11.2955472303">
		<tag k="name" v="Askedalsmyra" />
		<tag k="natural" v="wetland" />
		<tag k="ssr:stedsnr" v="282405" />
	</node>
	<node id="-31894" lat="60.0125138897" lon="11.3452694394">
		<tag k="name" v="Skullerudmåsan" />
		<tag k="natural" v="wetland" />
		<tag k="ssr:stedsnr" v="525173" />
	</node>
	<node id="-31965" lat="59.9814083368" lon="11.1860972274">
		<tag k="name" v="Dammyra" />
		<tag k="natural" v="wetland" />
		<tag k="ssr:stedsnr" v="585326" />
	</node>
	<node id="-31452" lat="60.0236472253" lon="11.2923916664">
		<tag k="name" v="Børgimåsan" />
		<tag k="natural" v="wetland" />
		<tag k="ssr:stedsnr" v="369920" />
	</node>
	<node id="-31994" lat="60.032811108" lon="11.1671777795">
		<tag k="name" v="Hesthagan" />
		<tag k="place" v="locality" />
		<tag k="ssr:stedsnr" v="605273" />
	</node>
	<node id="-31695" lat="59.9187972196" lon="11.2815944412">
		<tag k="name" v="Vangsmåsan" />
		<tag k="natural" v="wetland" />
		<tag k="ssr:stedsnr" v="178238" />
	</node>
	<node id="-31704" lat="59.9923888861" lon="11.3974777815">
		<tag k="name" v="Klingemåsan" />
		<tag k="natural" v="wetland" />
		<tag k="ssr:stedsnr" v="178781" />
	</node>
	<node id="-31396" lat="59.9740805566" lon="11.2974944494">
		<tag k="alt_name" v="Strupmyra" />
		<tag k="name" v="Strupemyr" />
		<tag k="natural" v="wetland" />
		<tag k="ssr:stedsnr" v="308473" />
	</node>
	<node id="-32214" lat="60.0005305585" lon="11.2312638806">
		<tag k="name" v="Bingshagan" />
		<tag k="place" v="locality" />
		<tag k="ssr:stedsnr" v="846702" />
	</node>
	<node id="-31910" lat="59.907027775" lon="11.2635277845">
		<tag k="name" v="Breisjødraget" />
		<tag k="natural" v="wetland" />
		<tag k="ssr:stedsnr" v="542253" />
	</node>
	<node id="-31715" lat="59.9748472192" lon="11.3569777698">
		<tag k="name" v="Vesthagan" />
		<tag k="place" v="locality" />
		<tag k="ssr:stedsnr" v="180589" />
	</node>
	<node id="-31696" lat="59.9245305545" lon="11.3210694419">
		<tag k="name" v="Kjeisomkring" />
		<tag k="place" v="locality" />
		<tag k="ssr:stedsnr" v="178269" />
	</node>
	<node id="-31439" lat="60.0244194406" lon="11.1441749974">
		<tag k="name" v="Yssimyra" />
		<tag k="place" v="locality" />
		<tag k="ssr:stedsnr" v="360933" />
	</node>
	<node id="-32204" lat="59.9267166693" lon="11.2608944422">
		<tag k="name" v="Vanakleivmåsan" />
		<tag k="natural" v="wetland" />
		<tag k="ssr:stedsnr" v="846217" />
	</node>
	<node id="-32203" lat="59.9276777772" lon="11.2796972137">
		<tag k="alt_name" v="Krogstadenga" />
		<tag k="name" v="Krokstadenga" />
		<tag k="place" v="locality" />
		<tag k="ssr:stedsnr" v="846215" />
	</node>
	<node id="-31743" lat="60.0275722208" lon="11.3531583246">
		<tag k="name" v="Damstokkmyra" />
		<tag k="natural" v="wetland" />
		<tag k="ssr:stedsnr" v="222321" />
	</node>
	<node id="-31817" lat="59.9030277806" lon="11.3086611045">
		<tag k="alt_name" v="Stutemåsan" />
		<tag k="name" v="Stutmåsan" />
		<tag k="natural" v="wetland" />
		<tag k="ssr:stedsnr" v="430627" />
	</node>
	<node id="-31687" lat="59.9458083337" lon="11.2847944385">
		<tag k="name" v="Setermyra" />
		<tag k="natural" v="wetland" />
		<tag k="ssr:stedsnr" v="161444" />
	</node>
	<node id="-31427" lat="59.9245333338" lon="11.3347416599">
		<tag k="name" v="Limultemyra" />
		<tag k="natural" v="wetland" />
		<tag k="ssr:stedsnr" v="360249" />
	</node>
	<node id="-31650" lat="59.8851611097" lon="11.3090638847">
		<tag k="name" v="Sankthansmyrene" />
		<tag k="natural" v="wetland" />
		<tag k="ssr:stedsnr" v="125676" />
	</node>
	<node id="-31424" lat="60.0121361136" lon="11.2518527829">
		<tag k="name" v="Skjegget" />
		<tag k="place" v="locality" />
		<tag k="ssr:stedsnr" v="345032" />
	</node>
	<node id="-31679" lat="60.0534305513" lon="11.2005777784">
		<tag k="name" v="Refsummyra" />
		<tag k="natural" v="wetland" />
		<tag k="ssr:stedsnr" v="161406" />
	</node>
	<node id="-31678" lat="59.9645083326" lon="11.2947527831">
		<tag k="name" v="Tjuvhølet" />
		<tag k="natural" v="wetland" />
		<tag k="ssr:stedsnr" v="161374" />
	</node>
	<node id="-31421" lat="60.0157249991" lon="11.3302805536">
		<tag k="name" v="Eidshagan" />
		<tag k="place" v="locality" />
		<tag k="ssr:stedsnr" v="343428" />
	</node>
	<node id="-32316" lat="60.0088416701" lon="11.1652861112">
		<tag k="name" v="Størsrudfjellet" />
		<tag k="place" v="locality" />
		<tag k="ssr:stedsnr" v="967906" />
	</node>
	<node id="-31547" lat="59.9424388902" lon="11.3426972235">
		<tag k="name" v="Morkhagan" />
		<tag k="place" v="locality" />
		<tag k="ssr:stedsnr" v="39380" />
	</node>
	<node id="-32073" lat="59.9571583347" lon="11.2599083394">
		<tag k="alt_name" v="Breidmåsan" />
		<tag k="name" v="Breimåsan" />
		<tag k="natural" v="wetland" />
		<tag k="ssr:stedsnr" v="672502" />
	</node>
	<node id="-32178" lat="59.9100250032" lon="11.2703305629">
		<tag k="alt_name" v="Brennmyrane" />
		<tag k="name" v="Brennmyrene" />
		<tag k="natural" v="wetland" />
		<tag k="ssr:stedsnr" v="794616" />
	</node>
	<node id="-31628" lat="59.9845499998" lon="11.3582944365">
		<tag k="name" v="Kjølstadhagan" />
		<tag k="place" v="locality" />
		<tag k="ssr:stedsnr" v="117786" />
	</node>
	<node id="-32048" lat="60.0047611082" lon="11.1747944381">
		<tag k="name" v="Dammyra" />
		<tag k="natural" v="wetland" />
		<tag k="ssr:stedsnr" v="663919" />
	</node>
	<node id="-31624" lat="59.9081666666" lon="11.3234861102">
		<tag k="name" v="Orremåsan" />
		<tag k="natural" v="wetland" />
		<tag k="ssr:stedsnr" v="117295" />
	</node>
	<node id="-31709" lat="60.0110888878" lon="11.1858861141">
		<tag k="name" v="Holtet" />
		<tag k="place" v="locality" />
		<tag k="ssr:stedsnr" v="178925" />
	</node>
	<node id="-32042" lat="59.8941944418" lon="11.3042750057">
		<tag k="name" v="Ulvegårdsmyrene" />
		<tag k="natural" v="wetland" />
		<tag k="ssr:stedsnr" v="663290" />
	</node>
	<node id="-31913" lat="59.9860055522" lon="11.2056722281">
		<tag k="name" v="Fiskeberget" />
		<tag k="place" v="locality" />
		<tag k="ssr:stedsnr" v="542651" />
	</node>
	<node id="-31656" lat="59.9620277797" lon="11.2297666748">
		<tag k="name" v="Veamyra" />
		<tag k="natural" v="wetland" />
		<tag k="ssr:stedsnr" v="126524" />
	</node>
	<node id="-31625" lat="59.9087305581" lon="11.317463884">
		<tag k="name" v="Langmyrene" />
		<tag k="natural" v="wetland" />
		<tag k="ssr:stedsnr" v="117296" />
	</node>
	<node id="-32294" lat="59.9488055527" lon="11.2808083301">
		<tag k="name" v="Fossummåsan" />
		<tag k="natural" v="wetland" />
		<tag k="ssr:stedsnr" v="950443" />
	</node>
	<node id="-31652" lat="59.9776388935" lon="11.4102833249">
		<tag k="alt_name" v="Høgmåsan" />
		<tag k="name" v="Høgemåsan" />
		<tag k="natural" v="wetland" />
		<tag k="ssr:stedsnr" v="126454" />
	</node>
	<node id="-31779" lat="59.9624277751" lon="11.2621111135">
		<tag k="name" v="Brånan" />
		<tag k="natural" v="wetland" />
		<tag k="ssr:stedsnr" v="247502" />
	</node>
	<node id="-32162" lat="60.0223611136" lon="11.1532111135">
		<tag k="name" v="Hønsihagan" />
		<tag k="place" v="locality" />
		<tag k="ssr:stedsnr" v="785945" />
	</node>
	<node id="-32289" lat="59.9797750011" lon="11.2856111173">
		<tag k="name" v="Vestjordet" />
		<tag k="place" v="locality" />
		<tag k="ssr:stedsnr" v="950375" />
	</node>
	<node id="-32160" lat="60.0145777814" lon="11.2196500035">
		<tag k="alt_name" v="Ålgårdshagen;Ålgardshagan" />
		<tag k="name" v="Ålgårdshagan" />
		<tag k="place" v="locality" />
		<tag k="ssr:stedsnr" v="785933" />
	</node>
	<node id="-32157" lat="59.9147972202" lon="11.3208916686">
		<tag k="name" v="Setermåsan" />
		<tag k="natural" v="wetland" />
		<tag k="ssr:stedsnr" v="785244" />
	</node>
	<node id="-32053" lat="59.9883166647" lon="11.1799888832">
		<tag k="name" v="Pussemyra" />
		<tag k="natural" v="wetland" />
		<tag k="ssr:stedsnr" v="664709" />
	</node>
	<node id="-32301" lat="59.9226222214" lon="11.3167138932">
		<tag k="name" v="Sarpdalsmyra" />
		<tag k="natural" v="wetland" />
		<tag k="ssr:stedsnr" v="967244" />
	</node>
	<node id="-31567" lat="59.9160027781" lon="11.3059472289">
		<tag k="name" v="Dammyrene" />
		<tag k="natural" v="wetland" />
		<tag k="ssr:stedsnr" v="57210" />
	</node>
	<node id="-31382" lat="59.9975388923" lon="11.180794451">
		<tag k="name" v="Vivangsmyra" />
		<tag k="natural" v="wetland" />
		<tag k="ssr:stedsnr" v="300715" />
	</node>
	<node id="-31358" lat="59.9427083375" lon="11.2827361136">
		<tag k="name" v="Bjønnmyra" />
		<tag k="natural" v="wetland" />
		<tag k="ssr:stedsnr" v="282412" />
	</node>
	<node id="-31354" lat="59.9723666662" lon="11.3019999996">
		<tag k="name" v="Torvstrømyra" />
		<tag k="natural" v="wetland" />
		<tag k="ssr:stedsnr" v="282363" />
	</node>
	<node id="-31359" lat="59.9302694418" lon="11.3180888891">
		<tag k="name" v="Høgmåsan" />
		<tag k="natural" v="wetland" />
		<tag k="ssr:stedsnr" v="282419" />
	</node>
	<node id="-31501" lat="59.9583472222" lon="11.293091659">
		<tag k="name" v="Bråtenmyra" />
		<tag k="natural" v="wetland" />
		<tag k="ssr:stedsnr" v="889450" />
	</node>
	<node id="-32140" lat="60.0557222179" lon="11.1696666632">
		<tag k="name" v="Bjønnmyra" />
		<tag k="natural" v="wetland" />
		<tag k="ssr:stedsnr" v="768382" />
	</node>
	<node id="-32266" lat="59.9772027781" lon="11.3949250085">
		<tag k="name" v="Dammåsan" />
		<tag k="natural" v="wetland" />
		<tag k="ssr:stedsnr" v="915428" />
	</node>
	<node id="-31753" lat="60.0141833322" lon="11.1284222137">
		<tag k="name" v="Skrøverhagan" />
		<tag k="place" v="locality" />
		<tag k="ssr:stedsnr" v="239939" />
	</node>
	<node id="-31752" lat="60.016672226" lon="11.1306999979">
		<tag k="name" v="Yssihagan" />
		<tag k="place" v="locality" />
		<tag k="ssr:stedsnr" v="239938" />
	</node>
	<node id="-32262" lat="59.9716500043" lon="11.3387388828">
		<tag k="name" v="Jødalsmåsan" />
		<tag k="natural" v="wetland" />
		<tag k="ssr:stedsnr" v="909590" />
	</node>
	<node id="-31749" lat="59.9497694488" lon="11.2638805487">
		<tag k="name" v="Storrmyra" />
		<tag k="natural" v="wetland" />
		<tag k="ssr:stedsnr" v="222422" />
	</node>
	<node id="-31492" lat="59.9764583355" lon="11.298680558">
		<tag k="name" v="Bjønnmyra" />
		<tag k="natural" v="wetland" />
		<tag k="ssr:stedsnr" v="889371" />
	</node>
	<node id="-31747" lat="59.9211722182" lon="11.3179361157">
		<tag k="name" v="Saueberga" />
		<tag k="place" v="locality" />
		<tag k="ssr:stedsnr" v="222409" />
	</node>
	<node id="-32002" lat="59.9302027765" lon="11.2990555518">
		<tag k="fixme" v="multiple name tags, choose one and add the other to alt_name" />
		<tag k="name" v="Killingmyra;Kjellermyra" />
		<tag k="natural" v="wetland" />
		<tag k="ssr:stedsnr" v="611569" />
	</node>
</osm>
