<?xml version="1.0" encoding="UTF-8"?>
<osm generator="osmapis" version="0.6">
	<node id="-32244" lat="60.025224998" lon="11.3648722225">
		<tag k="fixme" v="consider natural=peak for the most distinct mountains in the district" />
		<tag k="name" v="Tandbergfjellet" />
		<tag k="natural" v="hill" />
		<tag k="place" v="locality" />
		<tag k="ssr:stedsnr" v="855933" />
	</node>
	<node id="-31400" lat="59.9234999999" lon="11.2661694412">
		<tag k="name" v="Vanakleivdalen" />
		<tag k="natural" v="valley" />
		<tag k="place" v="locality" />
		<tag k="ssr:stedsnr" v="308576" />
	</node>
	<node id="-31724" lat="59.9596666628" lon="11.2392972264">
		<tag k="fixme" v="consider natural=peak for the most distinct mountains in the district" />
		<tag k="name" v="Olerudåsen" />
		<tag k="natural" v="hill" />
		<tag k="place" v="locality" />
		<tag k="ssr:stedsnr" v="187497" />
	</node>
	<node id="-32234" lat="59.9490361102" lon="11.2715666666">
		<tag k="alt_name" v="Klovhøgda" />
		<tag k="fixme" v="consider natural=peak for the most distinct mountains in the district" />
		<tag k="name" v="Klovehøgda" />
		<tag k="natural" v="hill" />
		<tag k="place" v="locality" />
		<tag k="ssr:stedsnr" v="854521" />
	</node>
	<node id="-31399" lat="59.9243027811" lon="11.2974111172">
		<tag k="name" v="Djupdalen" />
		<tag k="natural" v="valley" />
		<tag k="place" v="locality" />
		<tag k="ssr:stedsnr" v="308575" />
	</node>
	<node id="-31718" lat="59.9921583341" lon="11.1493083393">
		<tag k="fixme" v="consider natural=peak for the most distinct mountains in the district" />
		<tag k="name" v="Farshatten" />
		<tag k="natural" v="hill" />
		<tag k="place" v="locality" />
		<tag k="ssr:stedsnr" v="186551" />
	</node>
	<node id="-32228" lat="59.9927027735" lon="11.1410555578">
		<tag k="name" v="Røverhula" />
		<tag k="natural" v="cave_entrance" />
		<tag k="ssr:stedsnr" v="848611" />
	</node>
	<node id="-32227" lat="59.9959416633" lon="11.1311944494">
		<tag k="name" v="Jutulkleiva" />
		<tag k="natural" v="cliff" />
		<tag k="ssr:stedsnr" v="848606" />
	</node>
	<node id="-32224" lat="60.0302027783" lon="11.1951527801">
		<tag k="name" v="Kvennhaugen" />
		<tag k="natural" v="hill" />
		<tag k="place" v="locality" />
		<tag k="ssr:stedsnr" v="848253" />
	</node>
	<node id="-31702" lat="59.9945555519" lon="11.2977666748">
		<tag k="name" v="Værhauglia" />
		<tag k="natural" v="slope" />
		<tag k="place" v="locality" />
		<tag k="ssr:stedsnr" v="178763" />
	</node>
	<node id="-32211" lat="59.9936388935" lon="11.1862027729">
		<tag k="name" v="Tjennshøgda" />
		<tag k="natural" v="hill" />
		<tag k="place" v="locality" />
		<tag k="ssr:stedsnr" v="846694" />
	</node>
	<node id="-32206" lat="59.8805333317" lon="11.321966661">
		<tag k="name" v="Hulderberget" />
		<tag k="natural" v="hill" />
		<tag k="place" v="locality" />
		<tag k="ssr:stedsnr" v="846278" />
	</node>
	<node id="-32198" lat="59.9216083356" lon="11.3238527854">
		<tag k="name" v="Tunnerudklubben" />
		<tag k="natural" v="hill" />
		<tag k="place" v="locality" />
		<tag k="ssr:stedsnr" v="829448" />
	</node>
	<node id="-31685" lat="59.9337055567" lon="11.3163416618">
		<tag k="name" v="Høgmåslia" />
		<tag k="natural" v="slope" />
		<tag k="place" v="locality" />
		<tag k="ssr:stedsnr" v="161439" />
	</node>
	<node id="-32191" lat="60.0444416627" lon="11.2447333346">
		<tag k="name" v="Vølnermoen" />
		<tag k="place" v="locality" />
		<tag k="ssr:stedsnr" v="829339" />
	</node>
	<node id="-32169" lat="60.0000861081" lon="11.1755805554">
		<tag k="name" v="Rundfjellet" />
		<tag k="natural" v="hill" />
		<tag k="place" v="locality" />
		<tag k="ssr:stedsnr" v="787603" />
	</node>
	<node id="-31647" lat="59.9972333359" lon="11.1692416748">
		<tag k="name" v="Borkedalslia" />
		<tag k="natural" v="slope" />
		<tag k="place" v="locality" />
		<tag k="ssr:stedsnr" v="120580" />
	</node>
	<node id="-32156" lat="59.9140194484" lon="11.3201555558">
		<tag k="name" v="Svartputtåsen" />
		<tag k="natural" v="hill" />
		<tag k="place" v="locality" />
		<tag k="ssr:stedsnr" v="785234" />
	</node>
	<node id="-32152" lat="59.9830388857" lon="11.4146583247">
		<tag k="fixme" v="consider natural=peak for the most distinct mountains in the district" />
		<tag k="name" v="Askhøgda" />
		<tag k="natural" v="hill" />
		<tag k="place" v="locality" />
		<tag k="ssr:stedsnr" v="793487" />
	</node>
	<node id="-32137" lat="59.975375004" lon="11.1966472144">
		<tag k="name" v="Kikutåsen" />
		<tag k="natural" v="hill" />
		<tag k="place" v="locality" />
		<tag k="ssr:stedsnr" v="768336" />
	</node>
	<node id="-31618" lat="60.0549527807" lon="11.2730944368">
		<tag k="name" v="Vølnebergåsen" />
		<tag k="natural" v="hill" />
		<tag k="place" v="locality" />
		<tag k="ssr:stedsnr" v="100398" />
	</node>
	<node id="-31615" lat="59.9689222227" lon="11.2553694424">
		<tag k="fixme" v="consider natural=peak for the most distinct mountains in the district" />
		<tag k="name" v="Løgnåsen" />
		<tag k="natural" v="hill" />
		<tag k="place" v="locality" />
		<tag k="ssr:stedsnr" v="100351" />
	</node>
	<node id="-31613" lat="60.0255777821" lon="11.3031888848">
		<tag k="name" v="Fosserudhøgda" />
		<tag k="natural" v="hill" />
		<tag k="place" v="locality" />
		<tag k="ssr:stedsnr" v="100301" />
	</node>
	<node id="-32120" lat="59.9444933843" lon="11.3167299984">
		<tag k="fixme" v="consider natural=peak for the most distinct mountains in the district" />
		<tag k="name" v="Vestmorkåsen" />
		<tag k="natural" v="hill" />
		<tag k="place" v="locality" />
		<tag k="ssr:stedsnr" v="732588" />
	</node>
	<node id="-31606" lat="60.0102416712" lon="11.3598027724">
		<tag k="fixme" v="consider natural=peak for the most distinct mountains in the district" />
		<tag k="name" v="Toreidfjellet" />
		<tag k="natural" v="hill" />
		<tag k="place" v="locality" />
		<tag k="ssr:stedsnr" v="100144" />
	</node>
	<node id="-31599" lat="59.9509388914" lon="11.2846805483">
		<tag k="alt_name" v="Igletjennshøgda" />
		<tag k="fixme" v="consider natural=peak for the most distinct mountains in the district" />
		<tag k="name" v="Igletjernhøgda" />
		<tag k="natural" v="hill" />
		<tag k="place" v="locality" />
		<tag k="ssr:stedsnr" v="66512" />
	</node>
	<node id="-31598" lat="60.0371583349" lon="11.0649194437">
		<tag k="fixme" v="multiple name tags, choose one and add the other to alt_name; consider natural=peak for the most distinct mountains in the district" />
		<tag k="name" v="Heksebergfjellet;Vardåsen;Vardfjellet" />
		<tag k="natural" v="hill" />
		<tag k="old_name" v="Heksebergfjeldet" />
		<tag k="place" v="locality" />
		<tag k="ssr:stedsnr" v="66374" />
	</node>
	<node id="-31595" lat="59.9209277785" lon="11.2700194388">
		<tag k="alt_name" v="Seterdalen" />
		<tag k="name" v="Sæterdalen" />
		<tag k="natural" v="valley" />
		<tag k="place" v="locality" />
		<tag k="ssr:stedsnr" v="65602" />
	</node>
	<node id="-32101" lat="60.002711107" lon="11.263105549">
		<tag k="name" v="Vallsmoen" />
		<tag k="place" v="locality" />
		<tag k="ssr:stedsnr" v="724768" />
	</node>
	<node id="-32100" lat="59.9941972248" lon="11.2719027855">
		<tag k="name" v="Bjønnskollen" />
		<tag k="natural" v="hill" />
		<tag k="place" v="locality" />
		<tag k="ssr:stedsnr" v="724764" />
	</node>
	<node id="-31581" lat="59.9895805552" lon="11.3238861065">
		<tag k="name" v="Skukstadmoen" />
		<tag k="place" v="locality" />
		<tag k="ssr:stedsnr" v="57779" />
	</node>
	<node id="-32091" lat="59.9337361136" lon="11.3042611101">
		<tag k="name" v="Lauvhyttåsen" />
		<tag k="natural" v="hill" />
		<tag k="place" v="locality" />
		<tag k="ssr:stedsnr" v="707446" />
	</node>
	<node id="-32087" lat="60.0462749997" lon="11.2741333295">
		<tag k="name" v="Bognerudlia" />
		<tag k="natural" v="slope" />
		<tag k="place" v="locality" />
		<tag k="ssr:stedsnr" v="707332" />
	</node>
	<node id="-31573" lat="59.990113886" lon="11.1777583381">
		<tag k="name" v="Tjennsdalen" />
		<tag k="natural" v="valley" />
		<tag k="place" v="locality" />
		<tag k="ssr:stedsnr" v="57700" />
	</node>
	<node id="-32083" lat="60.0199361112" lon="11.3612638829">
		<tag k="fixme" v="consider natural=peak for the most distinct mountains in the district" />
		<tag k="name" v="Svarstadåsen" />
		<tag k="natural" v="hill" />
		<tag k="place" v="locality" />
		<tag k="ssr:stedsnr" v="707165" />
	</node>
	<node id="-31570" lat="59.9159944422" lon="11.2908472307">
		<tag k="fixme" v="consider natural=peak for the most distinct mountains in the district" />
		<tag k="name" v="Jervedalshøgda" />
		<tag k="natural" v="hill" />
		<tag k="place" v="locality" />
		<tag k="ssr:stedsnr" v="57234" />
	</node>
	<node id="-31569" lat="59.9189638933" lon="11.2983694489">
		<tag k="name" v="Jervedalen" />
		<tag k="natural" v="valley" />
		<tag k="place" v="locality" />
		<tag k="ssr:stedsnr" v="57218" />
	</node>
	<node id="-31566" lat="59.9055111101" lon="11.3074722209">
		<tag k="fixme" v="consider natural=peak for the most distinct mountains in the district" />
		<tag k="name" v="Bjønnehihøgda" />
		<tag k="natural" v="hill" />
		<tag k="place" v="locality" />
		<tag k="ssr:stedsnr" v="57205" />
	</node>
	<node id="-31565" lat="59.9062916701" lon="11.3018027798">
		<tag k="name" v="Måruddalen" />
		<tag k="natural" v="valley" />
		<tag k="place" v="locality" />
		<tag k="ssr:stedsnr" v="57204" />
	</node>
	<node id="-32075" lat="59.92327222" lon="11.2606972234">
		<tag k="fixme" v="consider natural=peak for the most distinct mountains in the district" />
		<tag k="name" v="Vanakleiv" />
		<tag k="natural" v="hill" />
		<tag k="place" v="locality" />
		<tag k="ssr:stedsnr" v="672577" />
	</node>
	<node id="-31562" lat="60.0192861103" lon="11.2776444456">
		<tag k="name" v="Mangemannsdalen" />
		<tag k="natural" v="valley" />
		<tag k="place" v="locality" />
		<tag k="ssr:stedsnr" v="42017" />
	</node>
	<node id="-31561" lat="60.0186472181" lon="11.2854777733">
		<tag k="fixme" v="consider natural=peak for the most distinct mountains in the district" />
		<tag k="name" v="Smiuåsen" />
		<tag k="natural" v="hill" />
		<tag k="place" v="locality" />
		<tag k="ssr:stedsnr" v="42016" />
	</node>
	<node id="-31557" lat="60.0405972258" lon="11.2447583347">
		<tag k="name" v="Vølnerdalen" />
		<tag k="natural" v="valley" />
		<tag k="place" v="locality" />
		<tag k="ssr:stedsnr" v="40343" />
	</node>
	<node id="-32067" lat="59.9952194441" lon="11.1424111053">
		<tag k="fixme" v="consider natural=peak for the most distinct mountains in the district" />
		<tag k="name" v="Ausenfjellet" />
		<tag k="natural" v="hill" />
		<tag k="place" v="locality" />
		<tag k="ssr:stedsnr" v="671504" />
	</node>
	<node id="-31546" lat="59.9360527783" lon="11.3294472229">
		<tag k="fixme" v="consider natural=peak for the most distinct mountains in the district" />
		<tag k="name" v="Rabben" />
		<tag k="natural" v="hill" />
		<tag k="place" v="locality" />
		<tag k="ssr:stedsnr" v="39372" />
	</node>
	<node id="-32308" lat="59.9851444464" lon="11.2011666754">
		<tag k="name" v="Korpefjellet" />
		<tag k="natural" v="cliff" />
		<tag k="ssr:stedsnr" v="967612" />
	</node>
	<node id="-32043" lat="59.8868472225" lon="11.2985472186">
		<tag k="name" v="Vangshøgda" />
		<tag k="natural" v="hill" />
		<tag k="place" v="locality" />
		<tag k="ssr:stedsnr" v="663291" />
	</node>
	<node id="-32040" lat="59.9108527792" lon="11.2755388965">
		<tag k="name" v="Mjøsjøåsen" />
		<tag k="natural" v="ridge" />
		<tag k="place" v="locality" />
		<tag k="ssr:stedsnr" v="663249" />
	</node>
	<node id="-31793" lat="59.9054444422" lon="11.3168750004">
		<tag k="fixme" v="consider natural=peak for the most distinct mountains in the district" />
		<tag k="name" v="Langmyrhøgda" />
		<tag k="natural" v="hill" />
		<tag k="place" v="locality" />
		<tag k="ssr:stedsnr" v="421240" />
	</node>
	<node id="-32036" lat="60.0231249983" lon="11.2731888815">
		<tag k="name" v="Brudalen" />
		<tag k="natural" v="valley" />
		<tag k="place" v="locality" />
		<tag k="ssr:stedsnr" v="648037" />
	</node>
	<node id="-32034" lat="60.0231333357" lon="11.2559055552">
		<tag k="name" v="Skeamoen" />
		<tag k="place" v="locality" />
		<tag k="ssr:stedsnr" v="648021" />
	</node>
	<node id="-32032" lat="59.9291638888" lon="11.3273722302">
		<tag k="name" v="Mattisfalldalen" />
		<tag k="natural" v="valley" />
		<tag k="place" v="locality" />
		<tag k="ssr:stedsnr" v="646426" />
	</node>
	<node id="-32028" lat="60.0353333321" lon="11.3197388863">
		<tag k="fixme" v="consider natural=peak for the most distinct mountains in the district" />
		<tag k="name" v="Neslerudåsen" />
		<tag k="natural" v="hill" />
		<tag k="place" v="locality" />
		<tag k="ssr:stedsnr" v="646320" />
	</node>
	<node id="-32012" lat="60.0204277792" lon="11.1483138949">
		<tag k="name" v="Hønsiholtet" />
		<tag k="natural" v="cave_entrance" />
		<tag k="ssr:stedsnr" v="612920" />
	</node>
	<node id="-31362" lat="59.9635194405" lon="11.2191694362">
		<tag k="name" v="Holåsen" />
		<tag k="natural" v="hill" />
		<tag k="place" v="locality" />
		<tag k="ssr:stedsnr" v="282431" />
	</node>
	<node id="-31493" lat="59.9752166649" lon="11.2655638971">
		<tag k="name" v="Lysedalen" />
		<tag k="natural" v="valley" />
		<tag k="place" v="locality" />
		<tag k="ssr:stedsnr" v="889375" />
	</node>
	<node id="-32003" lat="59.9275166631" lon="11.3377249993">
		<tag k="alt_name" v="Liåsen" />
		<tag k="fixme" v="consider natural=peak for the most distinct mountains in the district" />
		<tag k="name" v="Liaåsen" />
		<tag k="natural" v="hill" />
		<tag k="place" v="locality" />
		<tag k="ssr:stedsnr" v="611589" />
	</node>
	<node id="-31489" lat="60.0263305563" lon="11.3557611088">
		<tag k="name" v="Damstokklia" />
		<tag k="natural" v="slope" />
		<tag k="place" v="locality" />
		<tag k="ssr:stedsnr" v="889328" />
	</node>
	<node id="-31488" lat="60.0377638863" lon="11.2529888924">
		<tag k="name" v="Gjestermoen" />
		<tag k="place" v="locality" />
		<tag k="ssr:stedsnr" v="889316" />
	</node>
	<node id="-31990" lat="60.0298416661" lon="11.2538833346">
		<tag k="name" v="Åsgårddalen" />
		<tag k="natural" v="valley" />
		<tag k="place" v="locality" />
		<tag k="ssr:stedsnr" v="605228" />
	</node>
	<node id="-31464" lat="59.9238416692" lon="11.2825027732">
		<tag k="name" v="Sandhaug" />
		<tag k="natural" v="hill" />
		<tag k="place" v="locality" />
		<tag k="ssr:stedsnr" v="368642" />
	</node>
	<node id="-31975" lat="60.0243861143" lon="11.2646055613">
		<tag k="name" v="Bergsmoen" />
		<tag k="place" v="locality" />
		<tag k="ssr:stedsnr" v="588031" />
	</node>
	<node id="-31964" lat="60.0397972192" lon="11.3257805572">
		<tag k="fixme" v="consider natural=peak for the most distinct mountains in the district" />
		<tag k="name" v="Simarudåsen" />
		<tag k="natural" v="hill" />
		<tag k="old_name" v="Smiarudåsen" />
		<tag k="place" v="locality" />
		<tag k="ssr:stedsnr" v="585296" />
	</node>
	<node id="-31524" lat="59.8985500014" lon="11.300641662">
		<tag k="fixme" v="consider natural=peak for the most distinct mountains in the district" />
		<tag k="name" v="Kukollen" />
		<tag k="natural" v="hill" />
		<tag k="place" v="locality" />
		<tag k="ssr:stedsnr" v="4636" />
	</node>
	<node id="-31942" lat="59.9850111141" lon="11.1922111129">
		<tag k="fixme" v="consider natural=peak for the most distinct mountains in the district" />
		<tag k="name" v="Røysa" />
		<tag k="natural" v="hill" />
		<tag k="place" v="locality" />
		<tag k="ssr:stedsnr" v="550453" />
	</node>
	<node id="-31941" lat="59.9760638925" lon="11.2974138961">
		<tag k="fixme" v="consider natural=peak for the most distinct mountains in the district" />
		<tag k="name" v="Bjørneberget" />
		<tag k="natural" v="hill" />
		<tag k="place" v="locality" />
		<tag k="ssr:stedsnr" v="550431" />
	</node>
	<node id="-31423" lat="59.9426361115" lon="11.2962138886">
		<tag k="name" v="Lønndalen" />
		<tag k="natural" v="valley" />
		<tag k="place" v="locality" />
		<tag k="ssr:stedsnr" v="343437" />
	</node>
	<node id="-31934" lat="60.0028027815" lon="11.1539500006">
		<tag k="name" v="Tjennsdalen" />
		<tag k="natural" v="valley" />
		<tag k="place" v="locality" />
		<tag k="ssr:stedsnr" v="544580" />
	</node>
	<node id="-31409" lat="59.9651166675" lon="11.3938944407">
		<tag k="fixme" v="consider natural=peak for the most distinct mountains in the district" />
		<tag k="name" v="Sameieåsen" />
		<tag k="natural" v="hill" />
		<tag k="old_name" v="Aurskog Varde" />
		<tag k="place" v="locality" />
		<tag k="ssr:stedsnr" v="325490" />
	</node>
	<node id="-31408" lat="60.0037083293" lon="11.3949611101">
		<tag k="fixme" v="consider natural=peak for the most distinct mountains in the district" />
		<tag k="name" v="Stagrumsåsen" />
		<tag k="natural" v="hill" />
		<tag k="place" v="locality" />
		<tag k="ssr:stedsnr" v="309964" />
	</node>
	<node id="-31919" lat="60.0000611133" lon="11.3434000085">
		<tag k="fixme" v="consider natural=peak for the most distinct mountains in the district" />
		<tag k="name" v="Toreidåsen" />
		<tag k="natural" v="hill" />
		<tag k="place" v="locality" />
		<tag k="ssr:stedsnr" v="542789" />
	</node>
	<node id="-31403" lat="60.0356916644" lon="11.1504000073">
		<tag k="fixme" v="consider natural=peak for the most distinct mountains in the district" />
		<tag k="name" v="Vilbergfjellet" />
		<tag k="natural" v="hill" />
		<tag k="place" v="locality" />
		<tag k="ssr:stedsnr" v="309879" />
	</node>
	<node id="-31912" lat="59.9034277808" lon="11.3002277814">
		<tag k="name" v="Kukollia" />
		<tag k="natural" v="slope" />
		<tag k="place" v="locality" />
		<tag k="ssr:stedsnr" v="542298" />
	</node>
	<node id="-31911" lat="59.9238166696" lon="11.3033416614">
		<tag k="name" v="Djupdalslia" />
		<tag k="natural" v="slope" />
		<tag k="place" v="locality" />
		<tag k="ssr:stedsnr" v="542277" />
	</node>
	<node id="-31909" lat="59.92549167" lon="11.2799777752">
		<tag k="name" v="Engeråsen" />
		<tag k="natural" v="hill" />
		<tag k="place" v="locality" />
		<tag k="ssr:stedsnr" v="542249" />
	</node>
	<node id="-31908" lat="59.9302416689" lon="11.3485833399">
		<tag k="name" v="Kamperudlia" />
		<tag k="natural" v="slope" />
		<tag k="place" v="locality" />
		<tag k="ssr:stedsnr" v="542239" />
	</node>
	<node id="-31902" lat="60.0583916623" lon="11.2898611167">
		<tag k="name" v="Gravdalen" />
		<tag k="natural" v="valley" />
		<tag k="place" v="locality" />
		<tag k="ssr:stedsnr" v="525444" />
	</node>
	<node id="-31387" lat="60.0386916634" lon="11.1531083413">
		<tag k="name" v="St. Olavs gang" />
		<tag k="natural" v="valley" />
		<tag k="place" v="locality" />
		<tag k="ssr:stedsnr" v="302264" />
	</node>
	<node id="-31886" lat="59.9189472226" lon="11.3371944435">
		<tag k="name" v="Sjødalen" />
		<tag k="natural" v="valley" />
		<tag k="place" v="locality" />
		<tag k="ssr:stedsnr" v="490576" />
	</node>
	<node id="-31885" lat="59.9657638855" lon="11.2677861067">
		<tag k="fixme" v="consider natural=peak for the most distinct mountains in the district" />
		<tag k="name" v="Gullsmedåsen" />
		<tag k="natural" v="hill" />
		<tag k="place" v="locality" />
		<tag k="ssr:stedsnr" v="490498" />
	</node>
	<node id="-31370" lat="59.9208555561" lon="11.3088972143">
		<tag k="name" v="Steinbakken" />
		<tag k="natural" v="slope" />
		<tag k="place" v="locality" />
		<tag k="ssr:stedsnr" v="299306" />
	</node>
	<node id="-31369" lat="59.9183083352" lon="11.2640277716">
		<tag k="fixme" v="consider natural=peak for the most distinct mountains in the district" />
		<tag k="name" v="Telefonåsen" />
		<tag k="natural" v="hill" />
		<tag k="place" v="locality" />
		<tag k="ssr:stedsnr" v="299267" />
	</node>
	<node id="-31878" lat="59.998524999" lon="11.1619888918">
		<tag k="fixme" v="multiple name tags, choose one and add the other to alt_name; consider natural=peak for the most distinct mountains in the district" />
		<tag k="name" v="Størsrudfjellet;Størsrudåsen" />
		<tag k="natural" v="hill" />
		<tag k="place" v="locality" />
		<tag k="ssr:stedsnr" v="489518" />
	</node>
	<node id="-31876" lat="59.9950416649" lon="11.16328889">
		<tag k="name" v="Kastet" />
		<tag k="place" v="locality" />
		<tag k="ssr:stedsnr" v="484578" />
	</node>
	<node id="-31874" lat="60.0377083356" lon="11.1501361138">
		<tag k="name" v="Kjerkefjellet" />
		<tag k="natural" v="hill" />
		<tag k="place" v="locality" />
		<tag k="ssr:stedsnr" v="483256" />
	</node>
	<node id="-31357" lat="59.9569666679" lon="11.2221000083">
		<tag k="fixme" v="consider natural=peak for the most distinct mountains in the district" />
		<tag k="name" v="Lintjennåsen" />
		<tag k="natural" v="hill" />
		<tag k="place" v="locality" />
		<tag k="ssr:stedsnr" v="282413" />
	</node>
	<node id="-31356" lat="59.960222225" lon="11.2235166624">
		<tag k="name" v="Brenneppåsen" />
		<tag k="natural" v="hill" />
		<tag k="place" v="locality" />
		<tag k="ssr:stedsnr" v="282411" />
	</node>
	<node id="-31863" lat="59.9198694411" lon="11.3190083378">
		<tag k="name" v="Sandbakkleiva" />
		<tag k="natural" v="slope" />
		<tag k="place" v="locality" />
		<tag k="ssr:stedsnr" v="481292" />
	</node>
	<node id="-31850" lat="59.9675138896" lon="11.2123972187">
		<tag k="name" v="Holendalen" />
		<tag k="natural" v="valley" />
		<tag k="place" v="locality" />
		<tag k="ssr:stedsnr" v="464455" />
	</node>
	<node id="-31842" lat="60.0368083325" lon="11.0715277773">
		<tag k="name" v="Semmerudtoppen" />
		<tag k="natural" v="hill" />
		<tag k="place" v="locality" />
		<tag k="ssr:stedsnr" v="464160" />
	</node>
	<node id="-31820" lat="59.8944361086" lon="11.3232416748">
		<tag k="fixme" v="consider natural=peak for the most distinct mountains in the district" />
		<tag k="name" v="Hærfangen" />
		<tag k="natural" v="hill" />
		<tag k="place" v="locality" />
		<tag k="ssr:stedsnr" v="429621" />
	</node>
	<node id="-31499" lat="59.9471222182" lon="11.2975083373">
		<tag k="name" v="Holmselia" />
		<tag k="natural" v="slope" />
		<tag k="place" v="locality" />
		<tag k="ssr:stedsnr" v="889435" />
	</node>
	<node id="-31807" lat="60.0178749971" lon="11.1850777773">
		<tag k="name" v="Melimoen" />
		<tag k="place" v="locality" />
		<tag k="ssr:stedsnr" v="421934" />
	</node>
	<node id="-32313" lat="59.9944333337" lon="11.3430916651">
		<tag k="fixme" v="consider natural=peak for the most distinct mountains in the district" />
		<tag k="name" v="Skukstadåsen" />
		<tag k="natural" v="hill" />
		<tag k="place" v="locality" />
		<tag k="ssr:stedsnr" v="967750" />
	</node>
	<node id="-32310" lat="59.9986583317" lon="11.2010444484">
		<tag k="name" v="Bæreggskampen" />
		<tag k="natural" v="hill" />
		<tag k="place" v="locality" />
		<tag k="ssr:stedsnr" v="967671" />
	</node>
	<node id="-32309" lat="59.999325004" lon="11.1970166583">
		<tag k="name" v="Damsfjellet" />
		<tag k="natural" v="cliff" />
		<tag k="ssr:stedsnr" v="967670" />
	</node>
	<node id="-31796" lat="59.8974833342" lon="11.2845472255">
		<tag k="name" v="Byseterlia" />
		<tag k="natural" v="slope" />
		<tag k="place" v="locality" />
		<tag k="ssr:stedsnr" v="421299" />
	</node>
	<node id="-31794" lat="59.9369694479" lon="11.2538611126">
		<tag k="name" v="Korsvikåsen" />
		<tag k="natural" v="hill" />
		<tag k="place" v="locality" />
		<tag k="ssr:stedsnr" v="421261" />
	</node>
	<node id="-32305" lat="59.9319416686" lon="11.250155558">
		<tag k="name" v="Valdreshullet" />
		<tag k="natural" v="valley" />
		<tag k="place" v="locality" />
		<tag k="ssr:stedsnr" v="967199" />
	</node>
	<node id="-32303" lat="59.8961833339" lon="11.3087027753">
		<tag k="fixme" v="consider natural=peak for the most distinct mountains in the district" />
		<tag k="name" v="Jarsjøhøgda" />
		<tag k="natural" v="hill" />
		<tag k="place" v="locality" />
		<tag k="ssr:stedsnr" v="967277" />
	</node>
	<node id="-32302" lat="59.9240666626" lon="11.3183888904">
		<tag k="name" v="Sarpdalen" />
		<tag k="natural" v="valley" />
		<tag k="place" v="locality" />
		<tag k="ssr:stedsnr" v="967245" />
	</node>
	<node id="-32299" lat="59.920183335" lon="11.3092805625">
		<tag k="name" v="Seterlia" />
		<tag k="natural" v="slope" />
		<tag k="place" v="locality" />
		<tag k="ssr:stedsnr" v="967207" />
	</node>
	<node id="-31784" lat="60.0611888917" lon="11.2751055511">
		<tag k="fixme" v="consider natural=peak for the most distinct mountains in the district" />
		<tag k="name" v="Egneråsen" />
		<tag k="natural" v="hill" />
		<tag k="place" v="locality" />
		<tag k="ssr:stedsnr" v="248008" />
	</node>
	<node id="-31782" lat="59.9376388863" lon="11.3091138834">
		<tag k="alt_name" v="Rossdalen" />
		<tag k="name" v="Råsdalen" />
		<tag k="natural" v="valley" />
		<tag k="place" v="locality" />
		<tag k="ssr:stedsnr" v="247560" />
	</node>
	<node id="-32286" lat="60.035969444" lon="11.3022416594">
		<tag k="fixme" v="consider natural=peak for the most distinct mountains in the district" />
		<tag k="name" v="Tolerudåsen" />
		<tag k="natural" v="hill" />
		<tag k="place" v="locality" />
		<tag k="ssr:stedsnr" v="950334" />
	</node>
	<node id="-32285" lat="60.0396194439" lon="11.278288882">
		<tag k="fixme" v="consider natural=peak for the most distinct mountains in the district" />
		<tag k="name" v="Bøleråsen" />
		<tag k="natural" v="hill" />
		<tag k="place" v="locality" />
		<tag k="ssr:stedsnr" v="950332" />
	</node>
	<node id="-31767" lat="60.0168527733" lon="11.0905888924">
		<tag k="name" v="Seterhaugen" />
		<tag k="natural" v="hill" />
		<tag k="place" v="locality" />
		<tag k="ssr:stedsnr" v="239830" />
	</node>
	<node id="-32277" lat="59.8942666678" lon="11.3272722161">
		<tag k="name" v="Hærfangkjerka" />
		<tag k="natural" v="cliff" />
		<tag k="ssr:stedsnr" v="915617" />
	</node>
	<node id="-32276" lat="59.9270111109" lon="11.3138694512">
		<tag k="fixme" v="consider natural=peak for the most distinct mountains in the district" />
		<tag k="name" v="Våråsen" />
		<tag k="natural" v="hill" />
		<tag k="place" v="locality" />
		<tag k="ssr:stedsnr" v="915575" />
	</node>
	<node id="-31757" lat="59.91455556" lon="11.3002999971">
		<tag k="fixme" v="consider natural=peak for the most distinct mountains in the district" />
		<tag k="name" v="Dammyrhøgda" />
		<tag k="natural" v="hill" />
		<tag k="place" v="locality" />
		<tag k="ssr:stedsnr" v="239250" />
	</node>
	<node id="-31755" lat="59.9183916667" lon="11.3258472283">
		<tag k="name" v="Styggdalen" />
		<tag k="natural" v="valley" />
		<tag k="place" v="locality" />
		<tag k="ssr:stedsnr" v="239239" />
	</node>
	<node id="-32265" lat="60.0535055532" lon="11.2819777737">
		<tag k="fixme" v="consider natural=peak for the most distinct mountains in the district" />
		<tag k="name" v="Jultonåsen" />
		<tag k="natural" v="hill" />
		<tag k="place" v="locality" />
		<tag k="ssr:stedsnr" v="915025" />
	</node>
	<node id="-31746" lat="59.9371527776" lon="11.2979833247">
		<tag k="name" v="Sollilia" />
		<tag k="natural" v="slope" />
		<tag k="place" v="locality" />
		<tag k="ssr:stedsnr" v="222410" />
	</node>
</osm>
