<?xml version="1.0" encoding="UTF-8"?>
<osm generator="osmapis" version="0.6">
	<node id="-31486" lat="60.0270111095" lon="11.1157805586">
		<tag k="bridge" v="yes" />
		<tag k="layer" v="1" />
		<tag k="name" v="Melvold" />
		<tag k="ssr:stedsnr" v="410035" />
	</node>
	<node id="-31612" lat="60.0274972264" lon="11.322977783">
		<tag k="landuse" v="industrial" />
		<tag k="name" v="AEV" />
		<tag k="power" v="plant" />
		<tag k="ssr:stedsnr" v="100300" />
	</node>
	<node id="-31611" lat="60.0406194466" lon="11.2698277824">
		<tag k="fixme" v="consider highway=path" />
		<tag k="highway" v="track" />
		<tag k="name" v="Fjellvegen" />
		<tag k="ssr:stedsnr" v="100298" />
	</node>
	<node id="-31737" lat="60.0048222181" lon="11.3013583321">
		<tag k="name" v="Blaker stasjon" />
		<tag k="railway" v="station" />
		<tag k="ssr:stedsnr" v="219377" />
		<tag k="train" v="yes" />
	</node>
	<node id="-31861" lat="60.0392499985" lon="11.113119451">
		<tag k="bridge" v="yes" />
		<tag k="layer" v="1" />
		<tag k="name" v="Gran" />
		<tag k="ssr:stedsnr" v="471039" />
	</node>
	<node id="-31860" lat="59.9836805549" lon="11.2540305526">
		<tag k="bridge" v="yes" />
		<tag k="layer" v="1" />
		<tag k="name" v="Hobbybanen" />
		<tag k="ssr:stedsnr" v="471038" />
	</node>
	<node id="-31859" lat="59.9604555536" lon="11.3278194394">
		<tag k="bridge" v="yes" />
		<tag k="layer" v="1" />
		<tag k="name" v="Ramsås" />
		<tag k="ssr:stedsnr" v="470039" />
	</node>
	<node id="-31858" lat="59.9821944417" lon="11.3206555612">
		<tag k="bridge" v="yes" />
		<tag k="layer" v="1" />
		<tag k="name" v="Saghaug" />
		<tag k="ssr:stedsnr" v="470036" />
	</node>
	<node id="-32210" lat="59.9865944485" lon="11.2510500035">
		<tag k="junction" v="yes" />
		<tag k="name" v="Sørumsand" />
		<tag k="place" v="locality" />
		<tag k="ssr:stedsnr" v="846648" />
	</node>
	<node id="-32103" lat="59.9986027795" lon="11.3068361194">
		<tag k="junction" v="yes" />
		<tag k="name" v="Fossmo" />
		<tag k="place" v="locality" />
		<tag k="ssr:stedsnr" v="724776" />
	</node>
	<node id="-31761" lat="59.9929694483" lon="11.2764083307">
		<tag k="name" v="Fjellvang st." />
		<tag k="railway" v="halt" />
		<tag k="ssr:stedsnr" v="239715" />
		<tag k="train" v="yes" />
	</node>
	<node id="-31588" lat="59.9992750003" lon="11.1237888906">
		<tag k="highway" v="path" />
		<tag k="name" v="Dragonvegen" />
		<tag k="ssr:stedsnr" v="59595" />
	</node>
	<node id="-32097" lat="60.0240333358" lon="11.0731305571">
		<tag k="bridge" v="yes" />
		<tag k="layer" v="1" />
		<tag k="name" v="Fjellbo" />
		<tag k="ssr:stedsnr" v="713041" />
	</node>
	<node id="-32096" lat="60.0207416667" lon="11.165405555">
		<tag k="bridge" v="yes" />
		<tag k="layer" v="1" />
		<tag k="name" v="Vesterskaun" />
		<tag k="ssr:stedsnr" v="713032" />
	</node>
	<node id="-32095" lat="60.0274833291" lon="11.0921944475">
		<tag k="bridge" v="yes" />
		<tag k="layer" v="1" />
		<tag k="name" v="Stygdalen" />
		<tag k="ssr:stedsnr" v="713030" />
	</node>
	<node id="-31963" lat="60.0392416695" lon="11.2668083368">
		<tag k="junction" v="yes" />
		<tag k="name" v="Bøler" />
		<tag k="place" v="locality" />
		<tag k="ssr:stedsnr" v="585282" />
	</node>
	<node id="-32215" lat="59.990022225" lon="11.2649805646">
		<tag k="landuse" v="industrial" />
		<tag k="name" v="Bingsfoss kraftanlegg" />
		<tag k="power" v="plant" />
		<tag k="ssr:stedsnr" v="846722" />
	</node>
	<node id="-31830" lat="60.0394447555" lon="11.1280034895">
		<tag k="alt_name" v="Lindeberg" />
		<tag k="name" v="Lindeberg stasjon" />
		<tag k="railway" v="station" />
		<tag k="ssr:stedsnr" v="430869" />
		<tag k="train" v="yes" />
	</node>
	<node id="-31445" lat="60.0273555581" lon="11.2348305583">
		<tag k="junction" v="yes" />
		<tag k="name" v="Skea" />
		<tag k="place" v="locality" />
		<tag k="ssr:stedsnr" v="362217" />
	</node>
	<node id="-31630" lat="60.0224472191" lon="11.1166611185">
		<tag k="junction" v="yes" />
		<tag k="name" v="Hval" />
		<tag k="place" v="locality" />
		<tag k="ssr:stedsnr" v="117808" />
	</node>
	<node id="-31442" lat="59.967763886" lon="11.3787638855">
		<tag k="junction" v="yes" />
		<tag k="name" v="Aremoen" />
		<tag k="place" v="locality" />
		<tag k="ssr:stedsnr" v="362606" />
	</node>
	<node id="-31897" lat="60.0282472219" lon="11.3215750014">
		<tag k="landuse" v="industrial" />
		<tag k="name" v="Rånåsfoss kraftverk" />
		<tag k="power" v="plant" />
		<tag k="ssr:stedsnr" v="525346" />
	</node>
	<node id="-31564" lat="59.9914388906" lon="11.3201500089">
		<tag k="bridge" v="yes" />
		<tag k="layer" v="1" />
		<tag k="name" v="Huseby" />
		<tag k="ssr:stedsnr" v="46041" />
	</node>
	<node id="-31563" lat="60.0075999977" lon="11.2618611058">
		<tag k="junction" v="yes" />
		<tag k="name" v="Vall" />
		<tag k="place" v="locality" />
		<tag k="ssr:stedsnr" v="42038" />
	</node>
	<node id="-32202" lat="60.0153444489" lon="11.1124833292">
		<tag k="bridge" v="yes" />
		<tag k="layer" v="1" />
		<tag k="name" v="Leirsundveien" />
		<tag k="ssr:stedsnr" v="835040" />
	</node>
	<node id="-32200" lat="60.024186108" lon="11.289305553">
		<tag k="ford" v="yes" />
		<tag k="name" v="Steinsvadet" />
		<tag k="place" v="locality" />
		<tag k="ssr:stedsnr" v="831038" />
	</node>
	<node id="-31814" lat="59.9934888891" lon="11.1256749924">
		<tag k="name" v="Dragonleet" />
		<tag k="place" v="locality" />
		<tag k="ssr:stedsnr" v="423636" />
	</node>
	<node id="-32196" lat="60.0521166624" lon="11.2503750023">
		<tag k="junction" v="yes" />
		<tag k="name" v="Vølneberg" />
		<tag k="place" v="locality" />
		<tag k="ssr:stedsnr" v="829439" />
	</node>
	<node id="-31426" lat="60.0212777811" lon="11.2205138896">
		<tag k="bridge" v="yes" />
		<tag k="layer" v="1" />
		<tag k="name" v="Nordli" />
		<tag k="ssr:stedsnr" v="349053" />
	</node>
	<node id="-31425" lat="60.0337750017" lon="11.3411249999">
		<tag k="bridge" v="yes" />
		<tag k="layer" v="1" />
		<tag k="name" v="Sandnes" />
		<tag k="ssr:stedsnr" v="349052" />
	</node>
	<node id="-32319" lat="60.0205194456" lon="11.1647388978">
		<tag k="junction" v="yes" />
		<tag k="name" v="Hønsi" />
		<tag k="place" v="locality" />
		<tag k="ssr:stedsnr" v="967919" />
	</node>
	<node id="-31675" lat="60.0108444457" lon="11.3237833337">
		<tag k="junction" v="yes" />
		<tag k="name" v="Eidsteiet" />
		<tag k="place" v="locality" />
		<tag k="ssr:stedsnr" v="161177" />
	</node>
	<node id="-31802" lat="59.9902583353" lon="11.2715777764">
		<tag k="name" v="Bingsfoss stasjon" />
		<tag k="railway" v="station" />
		<tag k="ssr:stedsnr" v="421728" />
		<tag k="train" v="yes" />
	</node>
	<node id="-31416" lat="60.0292138869" lon="11.3279277701">
		<tag k="name" v="Rånåsfoss stasjon" />
		<tag k="railway" v="station" />
		<tag k="ssr:stedsnr" v="343293" />
		<tag k="train" v="yes" />
	</node>
	<node id="-31604" lat="60.0303888907" lon="11.1143694382">
		<tag k="junction" v="yes" />
		<tag k="name" v="Mo" />
		<tag k="place" v="locality" />
		<tag k="ssr:stedsnr" v="100139" />
	</node>
	<node id="-31406" lat="60.0229131842" lon="11.1034081087">
		<tag k="alt_name" v="Frogner" />
		<tag k="name" v="Frogner stasjon" />
		<tag k="railway" v="station" />
		<tag k="ssr:stedsnr" v="309935" />
		<tag k="train" v="yes" />
	</node>
	<node id="-31917" lat="59.9986916699" lon="11.3115222234">
		<tag k="junction" v="yes" />
		<tag k="name" v="Huseby" />
		<tag k="place" v="locality" />
		<tag k="ssr:stedsnr" v="542784" />
	</node>
	<node id="-32297" lat="60.0243888882" lon="11.0972999952">
		<tag k="bridge" v="yes" />
		<tag k="layer" v="1" />
		<tag k="name" v="Frogner" />
		<tag k="ssr:stedsnr" v="956056" />
	</node>
	<node id="-32038" lat="60.0338416634" lon="11.3390361031">
		<tag k="bridge" v="yes" />
		<tag k="layer" v="1" />
		<tag k="name" v="Sandnesenga" />
		<tag k="ssr:stedsnr" v="652028" />
	</node>
	<node id="-32163" lat="60.0211083306" lon="11.2158000029">
		<tag k="junction" v="yes" />
		<tag k="name" v="Nordli" />
		<tag k="place" v="locality" />
		<tag k="ssr:stedsnr" v="785951" />
	</node>
	<node id="-31904" lat="59.9485333378" lon="11.3519555497">
		<tag k="junction" v="yes" />
		<tag k="name" v="Steinsrud" />
		<tag k="place" v="locality" />
		<tag k="ssr:stedsnr" v="525457" />
	</node>
	<node id="-31645" lat="59.9643083351" lon="11.380002774">
		<tag k="junction" v="yes" />
		<tag k="name" v="Sandbakken" />
		<tag k="place" v="locality" />
		<tag k="ssr:stedsnr" v="120570" />
	</node>
	<node id="-31513" lat="59.9858885991" lon="11.2401870362">
		<tag k="name" v="Sørumsand stasjon" />
		<tag k="railway" v="station" />
		<tag k="ssr:stedsnr" v="990090" />
		<tag k="train" v="yes" />
	</node>
	<node id="-32024" lat="60.0354388852" lon="11.1030388961">
		<tag k="junction" v="yes" />
		<tag k="name" v="Gran" />
		<tag k="place" v="locality" />
		<tag k="ssr:stedsnr" v="646139" />
	</node>
	<node id="-31748" lat="59.9519888919" lon="11.3308888839">
		<tag k="junction" v="yes" />
		<tag k="name" v="Mork" />
		<tag k="place" v="locality" />
		<tag k="ssr:stedsnr" v="222416" />
	</node>
	<node id="-31637" lat="59.9873444415" lon="11.2826916583">
		<tag k="name" v="Fossum stasjon" />
		<tag k="railway" v="station" />
		<tag k="ssr:stedsnr" v="118619" />
		<tag k="train" v="yes" />
	</node>
	<node id="-32148" lat="59.9848027769" lon="11.3478499923">
		<tag k="bridge" v="yes" />
		<tag k="layer" v="1" />
		<tag k="name" v="Kjølstad" />
		<tag k="ssr:stedsnr" v="774039" />
	</node>
	<node id="-32147" lat="60.0299972266" lon="11.1145861104">
		<tag k="bridge" v="yes" />
		<tag k="layer" v="1" />
		<tag k="name" v="Mo" />
		<tag k="ssr:stedsnr" v="774037" />
	</node>
	<node id="-31506" lat="60.0291555516" lon="11.1818555492">
		<tag k="bridge" v="yes" />
		<tag k="layer" v="1" />
		<tag k="name" v="Asak" />
		<tag k="ssr:stedsnr" v="896036" />
	</node>
	<node id="-32145" lat="59.9684000039" lon="11.2184055527">
		<tag k="junction" v="yes" />
		<tag k="name" v="Lystad" />
		<tag k="place" v="locality" />
		<tag k="ssr:stedsnr" v="768440" />
	</node>
	<node id="-31758" lat="59.9306972183" lon="11.2889805478">
		<tag k="name" v="Fjellgrinda" />
		<tag k="place" v="locality" />
		<tag k="ssr:stedsnr" v="239270" />
	</node>
	<node id="-32136" lat="60.0339805542" lon="11.3291249984">
		<tag k="junction" v="yes" />
		<tag k="name" v="Neslerud" />
		<tag k="place" v="locality" />
		<tag k="ssr:stedsnr" v="768311" />
	</node>
	<node id="-31367" lat="59.9844444456" lon="11.2530111129">
		<tag k="bridge" v="yes" />
		<tag k="layer" v="1" />
		<tag k="name" v="Fyn" />
		<tag k="ssr:stedsnr" v="289042" />
	</node>
	<node id="-31750" lat="60.0354055532" lon="11.1031861143">
		<tag k="bridge" v="yes" />
		<tag k="layer" v="1" />
		<tag k="name" v="Grankrysset" />
		<tag k="ssr:stedsnr" v="228052" />
	</node>
	<node id="-32260" lat="60.0263472188" lon="11.1779555613">
		<tag k="junction" v="yes" />
		<tag k="name" v="Knatten" />
		<tag k="place" v="locality" />
		<tag k="ssr:stedsnr" v="909259" />
	</node>
	<node id="-31490" lat="60.0323388856" lon="11.3147888945">
		<tag k="junction" v="yes" />
		<tag k="name" v="Fosserud" />
		<tag k="place" v="locality" />
		<tag k="ssr:stedsnr" v="889327" />
	</node>
</osm>
