<?xml version="1.0" encoding="UTF-8"?>
<osm generator="osmapis" version="0.6">
	<node id="-845818" lat="63.8993472181" lon="9.85122500673">
		<tag k="name" v="Åkerskardflua" />
		<tag k="natural" v="shoal" />
		<tag k="place" v="locality" />
		<tag k="ssr:stedsnr" v="516962" />
	</node>
	<node id="-845816" lat="63.8376027807" lon="9.77655832872">
		<tag k="name" v="Vikabukta" />
		<tag k="natural" v="bay" />
		<tag k="ssr:stedsnr" v="698695" />
	</node>
	<node id="-845815" lat="63.8701777739" lon="9.71726111379">
		<tag k="name" v="Kvaløya" />
		<tag k="place" v="islet" />
		<tag k="ssr:stedsnr" v="134853" />
	</node>
	<node id="-845812" lat="63.862036113" lon="9.71563055789">
		<tag k="name" v="Valsøya" />
		<tag k="place" v="island" />
		<tag k="ssr:stedsnr" v="134852" />
	</node>
	<node id="-845810" lat="63.8936027754" lon="9.66636945242">
		<tag k="fixme" v="consider seamark:type=rock or natural=shoal" />
		<tag k="name" v="Seiskjæret" />
		<tag k="place" v="islet" />
		<tag k="ssr:stedsnr" v="394445" />
	</node>
	<node id="-845809" lat="63.753966665" lon="9.68110832581">
		<tag k="fixme" v="consider seamark:type=rock or natural=shoal" />
		<tag k="name" v="Kannaskjæret" />
		<tag k="place" v="islet" />
		<tag k="ssr:stedsnr" v="880369" />
	</node>
	<node id="-845806" lat="63.8717500023" lon="9.75951389907">
		<tag k="name" v="Malenevika" />
		<tag k="natural" v="bay" />
		<tag k="ssr:stedsnr" v="842424" />
	</node>
	<node id="-845805" lat="63.8856305524" lon="9.83535833614">
		<tag k="name" v="Eidsbukta" />
		<tag k="natural" v="bay" />
		<tag k="ssr:stedsnr" v="273356" />
	</node>
	<node id="-845794" lat="63.8703361089" lon="9.88379166794">
		<tag k="name" v="Kvennavika" />
		<tag k="natural" v="bay" />
		<tag k="ssr:stedsnr" v="212607" />
	</node>
	<node id="-845792" lat="63.8918000005" lon="9.79199999623">
		<tag k="fixme" v="consider seamark:type=rock or natural=shoal" />
		<tag k="name" v="Skjåskjæret" />
		<tag k="place" v="islet" />
		<tag k="ssr:stedsnr" v="515672" />
	</node>
	<node id="-845788" lat="63.8208027816" lon="9.39997499277">
		<tag k="fixme" v="consider seamark:type=rock or natural=shoal" />
		<tag k="name" v="Krona" />
		<tag k="place" v="islet" />
		<tag k="ssr:stedsnr" v="758253" />
	</node>
	<node id="-845787" lat="63.8180972202" lon="9.3981944488">
		<tag k="fixme" v="consider seamark:type=rock or natural=shoal" />
		<tag k="name" v="Gustavskjæret" />
		<tag k="place" v="islet" />
		<tag k="ssr:stedsnr" v="758254" />
	</node>
	<node id="-845782" lat="63.8220555584" lon="9.72218333475">
		<tag k="name" v="Langstranda" />
		<tag k="natural" v="beach" />
		<tag k="place" v="locality" />
		<tag k="ssr:stedsnr" v="151700" />
	</node>
	<node id="-845780" lat="63.8637944442" lon="9.59263888241">
		<tag k="fixme" v="consider seamark:type=rock or natural=shoal" />
		<tag k="name" v="Svartskjæret" />
		<tag k="place" v="islet" />
		<tag k="ssr:stedsnr" v="134850" />
	</node>
	<node id="-845778" lat="63.7915944446" lon="9.38233611865">
		<tag k="name" v="Karlsøyvalen" />
		<tag k="natural" v="strait" />
		<tag k="ssr:stedsnr" v="195662" />
	</node>
	<node id="-845775" lat="63.8302111091" lon="9.44215833273">
		<tag k="fixme" v="consider seamark:type=rock or natural=shoal" />
		<tag k="name" v="Stor-Håkka" />
		<tag k="place" v="islet" />
		<tag k="ssr:stedsnr" v="333192" />
	</node>
	<node id="-845772" lat="63.8257833355" lon="9.71226111731">
		<tag k="name" v="Raueidet" />
		<tag k="natural" v="cape" />
		<tag k="ssr:stedsnr" v="151701" />
	</node>
	<node id="-845771" lat="63.8572250039" lon="9.73667222164">
		<tag k="name" v="Øset" />
		<tag k="natural" v="bay" />
		<tag k="ssr:stedsnr" v="333628" />
	</node>
	<node id="-845769" lat="63.8273722187" lon="9.72011666779">
		<tag k="name" v="Eriksteinan" />
		<tag k="natural" v="shoal" />
		<tag k="place" v="locality" />
		<tag k="ssr:stedsnr" v="151698" />
	</node>
	<node id="-845763" lat="63.8929722255" lon="9.80263054907">
		<tag k="name" v="Storhaugstranda" />
		<tag k="natural" v="beach" />
		<tag k="place" v="locality" />
		<tag k="ssr:stedsnr" v="758674" />
	</node>
	<node id="-845761" lat="63.8727277755" lon="9.79373055857">
		<tag k="fixme" v="consider seamark:type=rock or natural=shoal" />
		<tag k="name" v="Ørnvikskjæra" />
		<tag k="place" v="islet" />
		<tag k="ssr:stedsnr" v="273758" />
	</node>
	<node id="-845758" lat="63.8532055544" lon="9.53221388975">
		<tag k="fixme" v="consider seamark:type=rock or natural=shoal" />
		<tag k="name" v="Knubban" />
		<tag k="place" v="islet" />
		<tag k="ssr:stedsnr" v="802864" />
	</node>
	<node id="-845755" lat="63.7827000012" lon="9.36559999678">
		<tag k="name" v="Brusværet" />
		<tag k="place" v="islet" />
		<tag k="ssr:stedsnr" v="195656" />
	</node>
	<node id="-845754" lat="63.8829916679" lon="9.66683055194">
		<tag k="fixme" v="consider seamark:type=rock or natural=shoal" />
		<tag k="name" v="Flatskjæra" />
		<tag k="place" v="islet" />
		<tag k="ssr:stedsnr" v="620827" />
	</node>
	<node id="-845753" lat="63.869391663" lon="9.78250832375">
		<tag k="fixme" v="consider seamark:type=rock or natural=shoal" />
		<tag k="name" v="Raudskjæret" />
		<tag k="place" v="islet" />
		<tag k="ssr:stedsnr" v="273770" />
	</node>
	<node id="-845748" lat="63.8422750008" lon="9.47359722021">
		<tag k="name" v="Langtaren" />
		<tag k="natural" v="shoal" />
		<tag k="place" v="locality" />
		<tag k="ssr:stedsnr" v="212600" />
	</node>
	<node id="-845745" lat="63.8140333308" lon="9.39734722376">
		<tag k="name" v="Stranda" />
		<tag k="natural" v="beach" />
		<tag k="place" v="locality" />
		<tag k="ssr:stedsnr" v="758247" />
	</node>
	<node id="-845743" lat="63.7183111146" lon="9.83644721968">
		<tag k="name" v="Småholmen" />
		<tag k="place" v="islet" />
		<tag k="ssr:stedsnr" v="13261" />
	</node>
	<node id="-845731" lat="63.8921055534" lon="9.69083333133">
		<tag k="name" v="Moholmen" />
		<tag k="place" v="islet" />
		<tag k="ssr:stedsnr" v="377829" />
	</node>
	<node id="-845729" lat="63.8267222225" lon="9.69422778307">
		<tag k="name" v="Herstabukta" />
		<tag k="natural" v="bay" />
		<tag k="ssr:stedsnr" v="940393" />
	</node>
	<node id="-845722" lat="63.7499944464" lon="9.92675832804">
		<tag k="name" v="Vorpneset" />
		<tag k="natural" v="cape" />
		<tag k="ssr:stedsnr" v="30658" />
	</node>
	<node id="-845718" lat="63.8562111109" lon="9.70657222928">
		<tag k="alt_name" v="Storøy" />
		<tag k="name" v="Storøya" />
		<tag k="natural" v="cape" />
		<tag k="ssr:stedsnr" v="802865" />
	</node>
	<node id="-845714" lat="63.713650003" lon="9.81245833767">
		<tag k="fixme" v="consider seamark:type=rock or natural=shoal" />
		<tag k="name" v="Markbuktskjæret" />
		<tag k="place" v="islet" />
		<tag k="ssr:stedsnr" v="455371" />
	</node>
	<node id="-845713" lat="63.7615694442" lon="9.71317500991">
		<tag k="name" v="Krokvikneset" />
		<tag k="natural" v="cape" />
		<tag k="ssr:stedsnr" v="394415" />
	</node>
	<node id="-845712" lat="63.848416669" lon="9.74220555432">
		<tag k="name" v="Bålfjordvågen" />
		<tag k="natural" v="bay" />
		<tag k="ssr:stedsnr" v="273751" />
	</node>
	<node id="-845707" lat="63.8168722212" lon="9.69308611975">
		<tag k="name" v="Jøvika" />
		<tag k="natural" v="bay" />
		<tag k="ssr:stedsnr" v="698677" />
	</node>
	<node id="-845703" lat="63.8787694472" lon="9.79709167491">
		<tag k="fixme" v="consider seamark:type=rock or natural=shoal" />
		<tag k="name" v="Holmskjæret" />
		<tag k="place" v="islet" />
		<tag k="ssr:stedsnr" v="30653" />
	</node>
	<node id="-845701" lat="63.7685000032" lon="9.77041667174">
		<tag k="name" v="Fløhammaren" />
		<tag k="natural" v="cape" />
		<tag k="ssr:stedsnr" v="576471" />
	</node>
	<node id="-845700" lat="63.8204444411" lon="9.40576110857">
		<tag k="name" v="Bukklingen" />
		<tag k="place" v="islet" />
		<tag k="ssr:stedsnr" v="515219" />
	</node>
	<node id="-844438" lat="63.8003833339" lon="9.47307777133">
		<tag k="name" v="Gjelværhauflua" />
		<tag k="natural" v="shoal" />
		<tag k="place" v="locality" />
		<tag k="ssr:stedsnr" v="213236" />
	</node>
	<node id="-845693" lat="63.8184833322" lon="9.51575555679">
		<tag k="fixme" v="consider seamark:type=rock or natural=shoal" />
		<tag k="name" v="Bangskjæret" />
		<tag k="place" v="islet" />
		<tag k="ssr:stedsnr" v="758261" />
	</node>
	<node id="-845692" lat="63.8886666702" lon="9.78754444147">
		<tag k="name" v="Langstranda" />
		<tag k="natural" v="beach" />
		<tag k="place" v="locality" />
		<tag k="ssr:stedsnr" v="758684" />
	</node>
	<node id="-845682" lat="63.8903249978" lon="9.66665833172">
		<tag k="fixme" v="consider seamark:type=rock or natural=shoal" />
		<tag k="name" v="Seiskjæra" />
		<tag k="place" v="islet" />
		<tag k="ssr:stedsnr" v="802873" />
	</node>
	<node id="-845681" lat="63.7949972261" lon="9.42543332962">
		<tag k="name" v="Tunga" />
		<tag k="place" v="island" />
		<tag k="ssr:stedsnr" v="212172" />
	</node>
	<node id="-845675" lat="63.8578444488" lon="9.60612221876">
		<tag k="name" v="Kvernflua" />
		<tag k="natural" v="shoal" />
		<tag k="place" v="locality" />
		<tag k="ssr:stedsnr" v="394421" />
	</node>
	<node id="-845673" lat="63.8709944433" lon="9.80525000629">
		<tag k="name" v="Galten" />
		<tag k="natural" v="shoal" />
		<tag k="place" v="locality" />
		<tag k="ssr:stedsnr" v="577323" />
	</node>
	<node id="-845669" lat="64.0109666686" lon="9.68796111871">
		<tag k="name" v="Stabbflua" />
		<tag k="natural" v="shoal" />
		<tag k="place" v="locality" />
		<tag k="ssr:stedsnr" v="499972" />
	</node>
	<node id="-845667" lat="63.8545055558" lon="9.63157777332">
		<tag k="name" v="Tristeinflua" />
		<tag k="natural" v="shoal" />
		<tag k="place" v="locality" />
		<tag k="ssr:stedsnr" v="394423" />
	</node>
	<node id="-845665" lat="63.8208999983" lon="9.39278055269">
		<tag k="name" v="Nord Gabrielholmen" />
		<tag k="place" v="islet" />
		<tag k="ssr:stedsnr" v="515222" />
	</node>
	<node id="-845661" lat="63.755186114" lon="9.70357500055">
		<tag k="name" v="Vedneset" />
		<tag k="natural" v="cape" />
		<tag k="ssr:stedsnr" v="940404" />
	</node>
	<node id="-845660" lat="63.7581777753" lon="9.38188610302">
		<tag k="name" v="Stabbflua" />
		<tag k="natural" v="shoal" />
		<tag k="place" v="locality" />
		<tag k="ssr:stedsnr" v="334052" />
	</node>
	<node id="-845658" lat="63.8234888856" lon="9.40425833815">
		<tag k="name" v="Singsholmen" />
		<tag k="place" v="islet" />
		<tag k="ssr:stedsnr" v="515223" />
	</node>
	<node id="-845657" lat="64.0059111105" lon="9.66390832903">
		<tag k="name" v="Steltfluen" />
		<tag k="natural" v="shoal" />
		<tag k="place" v="locality" />
		<tag k="ssr:stedsnr" v="499973" />
	</node>
	<node id="-845655" lat="63.891441663" lon="9.78645555162">
		<tag k="name" v="Purkholmknubben" />
		<tag k="place" v="islet" />
		<tag k="ssr:stedsnr" v="758683" />
	</node>
	<node id="-845650" lat="63.7895805553" lon="9.43545554937">
		<tag k="name" v="Fårøytaren" />
		<tag k="natural" v="shoal" />
		<tag k="place" v="locality" />
		<tag k="ssr:stedsnr" v="30223" />
	</node>
	<node id="-845648" lat="63.8894416633" lon="9.76893056316">
		<tag k="name" v="Kjerringholmen" />
		<tag k="place" v="islet" />
		<tag k="ssr:stedsnr" v="498633" />
	</node>
	<node id="-845647" lat="63.9156166682" lon="9.7941888803">
		<tag k="fixme" v="consider seamark:type=rock or natural=shoal" />
		<tag k="name" v="Håskallen" />
		<tag k="place" v="islet" />
		<tag k="ssr:stedsnr" v="91057" />
	</node>
	<node id="-845642" lat="63.8234555559" lon="9.76740556416">
		<tag k="name" v="Purkvika" />
		<tag k="natural" v="bay" />
		<tag k="ssr:stedsnr" v="819812" />
	</node>
	<node id="-845639" lat="63.8871583329" lon="9.67218055452">
		<tag k="name" v="Gjæsingen" />
		<tag k="place" v="island" />
		<tag k="ssr:stedsnr" v="620832" />
	</node>
	<node id="-845630" lat="63.937366669" lon="9.78848055138">
		<tag k="name" v="Lønngrunnen" />
		<tag k="natural" v="shoal" />
		<tag k="place" v="locality" />
		<tag k="ssr:stedsnr" v="394003" />
	</node>
	<node id="-845629" lat="63.753652779" lon="9.5854861207">
		<tag k="name" v="Snellørskjærstøtta" />
		<tag k="natural" v="shoal" />
		<tag k="place" v="locality" />
		<tag k="ssr:stedsnr" v="941230" />
	</node>
	<node id="-845626" lat="63.8627638879" lon="9.80666944529">
		<tag k="name" v="Manndalsbukta" />
		<tag k="natural" v="bay" />
		<tag k="ssr:stedsnr" v="758652" />
	</node>
	<node id="-845624" lat="63.8378749993" lon="9.91320554723">
		<tag k="name" v="Krekkaneset" />
		<tag k="natural" v="cape" />
		<tag k="ssr:stedsnr" v="880714" />
	</node>
	<node id="-845623" lat="63.821416666" lon="9.70145000631">
		<tag k="name" v="Grimstranda" />
		<tag k="natural" v="beach" />
		<tag k="place" v="locality" />
		<tag k="ssr:stedsnr" v="273736" />
	</node>
	<node id="-845610" lat="63.8934194464" lon="9.93056388425">
		<tag k="name" v="Tiltremsvika" />
		<tag k="natural" v="bay" />
		<tag k="ssr:stedsnr" v="681592" />
	</node>
	<node id="-844423" lat="63.8945000009" lon="9.79185000852">
		<tag k="name" v="Vondholmen" />
		<tag k="place" v="islet" />
		<tag k="ssr:stedsnr" v="91675" />
	</node>
	<node id="-845608" lat="63.8837777801" lon="9.79301944295">
		<tag k="name" v="Maritvika" />
		<tag k="natural" v="bay" />
		<tag k="ssr:stedsnr" v="698635" />
	</node>
	<node id="-845607" lat="63.8224166686" lon="9.40956666827">
		<tag k="name" v="Joneset" />
		<tag k="natural" v="cape" />
		<tag k="ssr:stedsnr" v="30217" />
	</node>
	<node id="-845606" lat="63.9553416646" lon="9.7553249912">
		<tag k="fixme" v="consider seamark:type=rock or natural=shoal" />
		<tag k="name" v="Langskjæret" />
		<tag k="place" v="islet" />
		<tag k="ssr:stedsnr" v="377547" />
	</node>
	<node id="-845595" lat="63.8335999989" lon="9.66990000369">
		<tag k="name" v="Osen" />
		<tag k="natural" v="bay" />
		<tag k="ssr:stedsnr" v="455363" />
	</node>
	<node id="-845581" lat="63.81213333" lon="9.44442221466">
		<tag k="name" v="Vikern" />
		<tag k="natural" v="bay" />
		<tag k="ssr:stedsnr" v="758217" />
	</node>
	<node id="-845580" lat="63.8605194474" lon="9.8755416736">
		<tag k="name" v="Lislandet" />
		<tag k="natural" v="cape" />
		<tag k="ssr:stedsnr" v="498117" />
	</node>
	<node id="-845575" lat="63.8062111143" lon="9.630352774">
		<tag k="fixme" v="consider seamark:type=rock or natural=shoal" />
		<tag k="name" v="Tiltervågskjæra" />
		<tag k="place" v="islet" />
		<tag k="ssr:stedsnr" v="637144" />
	</node>
	<node id="-845574" lat="63.8337083331" lon="9.74572500982">
		<tag k="name" v="Fagervollvika" />
		<tag k="natural" v="bay" />
		<tag k="ssr:stedsnr" v="455782" />
	</node>
	<node id="-845573" lat="63.8565944404" lon="9.73234445447">
		<tag k="fixme" v="consider seamark:type=rock or natural=shoal" />
		<tag k="name" v="Bryggskjæret" />
		<tag k="place" v="islet" />
		<tag k="ssr:stedsnr" v="273316" />
	</node>
	<node id="-845572" lat="63.8217416655" lon="9.68265000716">
		<tag k="name" v="Valseidet" />
		<tag k="place" v="locality" />
		<tag k="ssr:stedsnr" v="636715" />
	</node>
	<node id="-845571" lat="63.7554055558" lon="9.96698610306">
		<tag k="name" v="Akseldalsbukta" />
		<tag k="natural" v="bay" />
		<tag k="ssr:stedsnr" v="212580" />
	</node>
	<node id="-845569" lat="63.840377779" lon="9.65423334178">
		<tag k="name" v="Kråkungan" />
		<tag k="natural" v="shoal" />
		<tag k="place" v="locality" />
		<tag k="ssr:stedsnr" v="394408" />
	</node>
	<node id="-845563" lat="63.8348305562" lon="9.63581111625">
		<tag k="name" v="Litlflua" />
		<tag k="natural" v="shoal" />
		<tag k="place" v="locality" />
		<tag k="ssr:stedsnr" v="91438" />
	</node>
	<node id="-845559" lat="63.817369448" lon="9.67986666602">
		<tag k="name" v="Oksvollbukta" />
		<tag k="natural" v="bay" />
		<tag k="ssr:stedsnr" v="880726" />
	</node>
	<node id="-844411" lat="63.7812277812" lon="9.49289999236">
		<tag k="bay" v="fjord" />
		<tag k="name" v="Tarvafjorden" />
		<tag k="natural" v="bay" />
		<tag k="ssr:stedsnr" v="13649" />
	</node>
	<node id="-845531" lat="63.9458055557" lon="9.77296667058">
		<tag k="fixme" v="consider seamark:type=rock or natural=shoal" />
		<tag k="name" v="Vågsøyskjæra" />
		<tag k="place" v="islet" />
		<tag k="ssr:stedsnr" v="377540" />
	</node>
	<node id="-845527" lat="63.7966805551" lon="9.61243054672">
		<tag k="name" v="Hellemsvika" />
		<tag k="natural" v="bay" />
		<tag k="ssr:stedsnr" v="880325" />
	</node>
	<node id="-845524" lat="63.8763583341" lon="9.80762499927">
		<tag k="name" v="Madsøya" />
		<tag k="place" v="island" />
		<tag k="ssr:stedsnr" v="498614" />
	</node>
	<node id="-845519" lat="63.7147194403" lon="9.81442776808">
		<tag k="name" v="Markbuktneset" />
		<tag k="natural" v="cape" />
		<tag k="ssr:stedsnr" v="91431" />
	</node>
	<node id="-845518" lat="63.8726555556" lon="9.75906388569">
		<tag k="name" v="Davebukta" />
		<tag k="natural" v="bay" />
		<tag k="ssr:stedsnr" v="758657" />
	</node>
	<node id="-845514" lat="63.8516555517" lon="9.84140833007">
		<tag k="name" v="Korssundet" />
		<tag k="natural" v="strait" />
		<tag k="ssr:stedsnr" v="212562" />
	</node>
	<node id="-845511" lat="63.8571611151" lon="9.76441388502">
		<tag k="name" v="Nesaodden" />
		<tag k="natural" v="cape" />
		<tag k="ssr:stedsnr" v="515642" />
	</node>
	<node id="-845508" lat="63.9183750007" lon="9.70212221982">
		<tag k="name" v="Ytter Leirbakkfalla" />
		<tag k="natural" v="shoal" />
		<tag k="place" v="locality" />
		<tag k="ssr:stedsnr" v="636731" />
	</node>
	<node id="-845504" lat="63.7806083289" lon="9.39383056168">
		<tag k="alt_name" v="Store Flatøya" />
		<tag k="name" v="Flatøya" />
		<tag k="place" v="islet" />
		<tag k="ssr:stedsnr" v="559651" />
	</node>
	<node id="-845501" lat="63.7846027777" lon="9.58387500645">
		<tag k="name" v="Islandsvika" />
		<tag k="natural" v="bay" />
		<tag k="ssr:stedsnr" v="195636" />
	</node>
	<node id="-845494" lat="63.8545444468" lon="9.85760555529">
		<tag k="name" v="Valavågen" />
		<tag k="natural" v="bay" />
		<tag k="ssr:stedsnr" v="333573" />
	</node>
	<node id="-845490" lat="63.7706750029" lon="9.36519721344">
		<tag k="name" v="Storgyltingen" />
		<tag k="place" v="island" />
		<tag k="ssr:stedsnr" v="333143" />
	</node>
	<node id="-845482" lat="63.8563361082" lon="9.87845276825">
		<tag k="name" v="Øren" />
		<tag k="natural" v="shoal" />
		<tag k="place" v="locality" />
		<tag k="ssr:stedsnr" v="333571" />
	</node>
	<node id="-845470" lat="63.9024305525" lon="9.64962778722">
		<tag k="name" v="Ranen" />
		<tag k="natural" v="shoal" />
		<tag k="place" v="locality" />
		<tag k="ssr:stedsnr" v="30614" />
	</node>
	<node id="-845465" lat="63.8452388905" lon="9.53881389215">
		<tag k="name" v="Oterholmen" />
		<tag k="place" v="islet" />
		<tag k="ssr:stedsnr" v="923692" />
	</node>
	<node id="-845464" lat="63.8151527797" lon="9.62508611693">
		<tag k="name" v="Storbukta" />
		<tag k="natural" v="bay" />
		<tag k="ssr:stedsnr" v="91427" />
	</node>
	<node id="-845459" lat="63.8908888913" lon="9.70713888771">
		<tag k="name" v="Stortaren" />
		<tag k="natural" v="shoal" />
		<tag k="place" v="locality" />
		<tag k="ssr:stedsnr" v="30616" />
	</node>
	<node id="-845456" lat="63.7502694429" lon="9.96093332596">
		<tag k="name" v="Søtvikflua" />
		<tag k="natural" v="shoal" />
		<tag k="place" v="locality" />
		<tag k="ssr:stedsnr" v="881553" />
	</node>
	<node id="-845454" lat="63.8759805597" lon="9.58222778032">
		<tag k="fixme" v="consider seamark:type=rock or natural=shoal" />
		<tag k="name" v="Seiskjæret" />
		<tag k="place" v="islet" />
		<tag k="ssr:stedsnr" v="498862" />
	</node>
	<node id="-845453" lat="63.8322222207" lon="9.66211111996">
		<tag k="name" v="Sandvika" />
		<tag k="natural" v="bay" />
		<tag k="ssr:stedsnr" v="455747" />
	</node>
	<node id="-844396" lat="63.8912083337" lon="9.82488054728">
		<tag k="name" v="Lysøyhundan" />
		<tag k="place" v="islet" />
		<tag k="ssr:stedsnr" v="698473" />
	</node>
	<node id="-845440" lat="63.766938887" lon="9.49640278222">
		<tag k="name" v="Kjerkflua" />
		<tag k="natural" v="shoal" />
		<tag k="place" v="locality" />
		<tag k="ssr:stedsnr" v="941200" />
	</node>
	<node id="-845438" lat="63.8623888928" lon="9.54162500269">
		<tag k="name" v="Høgskjærtaran" />
		<tag k="natural" v="shoal" />
		<tag k="place" v="locality" />
		<tag k="ssr:stedsnr" v="30611" />
	</node>
	<node id="-845431" lat="63.761886108" lon="9.71056667048">
		<tag k="name" v="Krokvika" />
		<tag k="natural" v="bay" />
		<tag k="ssr:stedsnr" v="395231" />
	</node>
	<node id="-845423" lat="63.9120083352" lon="9.7184722122">
		<tag k="name" v="Indre Leirbakkfalla" />
		<tag k="natural" v="shoal" />
		<tag k="place" v="locality" />
		<tag k="ssr:stedsnr" v="819741" />
	</node>
	<node id="-845422" lat="63.9507888874" lon="9.55296388178">
		<tag k="fixme" v="consider seamark:type=rock or natural=shoal" />
		<tag k="name" v="Andsteinskjæra" />
		<tag k="place" v="islet" />
		<tag k="ssr:stedsnr" v="377798" />
	</node>
	<node id="-845418" lat="63.8193055543" lon="9.63932221402">
		<tag k="name" v="Fagervika" />
		<tag k="natural" v="bay" />
		<tag k="ssr:stedsnr" v="455750" />
	</node>
	<node id="-845417" lat="63.9051222205" lon="9.84591666169">
		<tag k="name" v="Skjelholmen" />
		<tag k="place" v="islet" />
		<tag k="ssr:stedsnr" v="74615" />
	</node>
	<node id="-845412" lat="63.8474416694" lon="9.83147222154">
		<tag k="name" v="Asserøya" />
		<tag k="natural" v="cape" />
		<tag k="ssr:stedsnr" v="438075" />
	</node>
	<node id="-845409" lat="63.8599305583" lon="9.69090278626">
		<tag k="fixme" v="consider seamark:type=rock or natural=shoal" />
		<tag k="name" v="Raudskjæret" />
		<tag k="place" v="islet" />
		<tag k="ssr:stedsnr" v="880688" />
	</node>
	<node id="-845408" lat="63.9102055597" lon="9.84046389845">
		<tag k="name" v="Knubben" />
		<tag k="place" v="islet" />
		<tag k="ssr:stedsnr" v="438608" />
	</node>
	<node id="-845407" lat="63.835405552" lon="9.55736666763">
		<tag k="name" v="Kobbholmgrunnen" />
		<tag k="natural" v="shoal" />
		<tag k="place" v="locality" />
		<tag k="ssr:stedsnr" v="30607" />
	</node>
	<node id="-845398" lat="63.8227083311" lon="9.65513611248">
		<tag k="name" v="Litlvika" />
		<tag k="natural" v="bay" />
		<tag k="ssr:stedsnr" v="455754" />
	</node>
	<node id="-845396" lat="63.8285194416" lon="9.77603055065">
		<tag k="name" v="Sundsetstranda" />
		<tag k="natural" v="beach" />
		<tag k="place" v="locality" />
		<tag k="ssr:stedsnr" v="91418" />
	</node>
	<node id="-845381" lat="63.833658335" lon="9.57954722405">
		<tag k="fixme" v="consider seamark:type=rock or natural=shoal" />
		<tag k="name" v="Medfjordskjæret" />
		<tag k="place" v="islet" />
		<tag k="ssr:stedsnr" v="758641" />
	</node>
	<node id="-845372" lat="63.7545277787" lon="9.72098333884">
		<tag k="name" v="Ervikbukta" />
		<tag k="natural" v="bay" />
		<tag k="ssr:stedsnr" v="880299" />
	</node>
	<node id="-844247" lat="63.8443416627" lon="9.84381389661">
		<tag k="fixme" v="consider seamark:type=rock or natural=shoal" />
		<tag k="name" v="Kjellskjæret" />
		<tag k="place" v="islet" />
		<tag k="ssr:stedsnr" v="819578" />
	</node>
	<node id="-845370" lat="63.8746111131" lon="9.79777777954">
		<tag k="name" v="Stor-Ørnvika" />
		<tag k="natural" v="bay" />
		<tag k="ssr:stedsnr" v="819765" />
	</node>
	<node id="-845368" lat="63.8492555578" lon="9.53801666801">
		<tag k="fixme" v="consider seamark:type=rock or natural=shoal" />
		<tag k="name" v="Oterungan" />
		<tag k="place" v="islet" />
		<tag k="ssr:stedsnr" v="758635" />
	</node>
	<node id="-845348" lat="63.8306638904" lon="9.46470555323">
		<tag k="name" v="Kløvholmen" />
		<tag k="place" v="islet" />
		<tag k="ssr:stedsnr" v="758632" />
	</node>
	<node id="-845344" lat="63.8124888933" lon="9.42073610335">
		<tag k="name" v="Tarva" />
		<tag k="place" v="island" />
		<tag k="ssr:stedsnr" v="923694" />
	</node>
	<node id="-845339" lat="63.8696361122" lon="9.76791389313">
		<tag k="name" v="Toskillingen" />
		<tag k="place" v="islet" />
		<tag k="ssr:stedsnr" v="151624" />
	</node>
	<node id="-845335" lat="63.8796694477" lon="9.76852221505">
		<tag k="name" v="Svinøya" />
		<tag k="place" v="islet" />
		<tag k="ssr:stedsnr" v="256547" />
	</node>
	<node id="-845329" lat="63.8869361085" lon="9.86141388399">
		<tag k="name" v="Valvikholmen" />
		<tag k="place" v="island" />
		<tag k="ssr:stedsnr" v="940350" />
	</node>
	<node id="-845324" lat="63.8904111077" lon="9.90082221698">
		<tag k="name" v="Hellesvikbukta" />
		<tag k="natural" v="bay" />
		<tag k="ssr:stedsnr" v="455328" />
	</node>
	<node id="-845321" lat="63.788388887" lon="9.41283333273">
		<tag k="name" v="Tryggholmen" />
		<tag k="place" v="islet" />
		<tag k="ssr:stedsnr" v="151200" />
	</node>
	<node id="-845316" lat="63.8071361112" lon="9.37347499222">
		<tag k="fixme" v="consider seamark:type=rock or natural=shoal" />
		<tag k="name" v="Hegersteinskjæra" />
		<tag k="place" v="islet" />
		<tag k="ssr:stedsnr" v="151199" />
	</node>
	<node id="-845313" lat="63.8251972243" lon="9.7714305497">
		<tag k="name" v="Purkvikodden" />
		<tag k="natural" v="cape" />
		<tag k="ssr:stedsnr" v="940797" />
	</node>
	<node id="-845307" lat="63.872377777" lon="9.75109722437">
		<tag k="name" v="Bremvika" />
		<tag k="natural" v="bay" />
		<tag k="ssr:stedsnr" v="698618" />
	</node>
	<node id="-845306" lat="63.7158250015" lon="9.8269027855">
		<tag k="alt_name" v="Storholmen" />
		<tag k="name" v="Brattingen" />
		<tag k="place" v="islet" />
		<tag k="ssr:stedsnr" v="134810" />
	</node>
	<node id="-845304" lat="63.8811222201" lon="9.67161112118">
		<tag k="fixme" v="consider seamark:type=rock or natural=shoal" />
		<tag k="name" v="Annsteinen" />
		<tag k="place" v="islet" />
		<tag k="ssr:stedsnr" v="498859" />
	</node>
	<node id="-845297" lat="63.8724861085" lon="9.9327583432">
		<tag k="name" v="Oldbukta" />
		<tag k="natural" v="bay" />
		<tag k="ssr:stedsnr" v="515589" />
	</node>
	<node id="-845295" lat="63.7433527801" lon="9.57861389347">
		<tag k="bay" v="fjord" />
		<tag k="name" v="Bjugnfjorden" />
		<tag k="natural" v="bay" />
		<tag k="ssr:stedsnr" v="802011" />
	</node>
	<node id="-845291" lat="63.8743583333" lon="9.93728610357">
		<tag k="name" v="Kopparneset" />
		<tag k="natural" v="cape" />
		<tag k="ssr:stedsnr" v="758598" />
	</node>
	<node id="-845289" lat="63.7594527738" lon="9.69268056033">
		<tag k="alt_name" v="Hjellskjæret" />
		<tag k="fixme" v="consider seamark:type=rock or natural=shoal" />
		<tag k="name" v="Gyltskjæret" />
		<tag k="place" v="islet" />
		<tag k="ssr:stedsnr" v="940317" />
	</node>
	<node id="-845288" lat="63.754761113" lon="9.71588888109">
		<tag k="name" v="Ervikneset" />
		<tag k="natural" v="cape" />
		<tag k="ssr:stedsnr" v="334387" />
	</node>
	<node id="-845286" lat="63.7575916712" lon="9.60437777114">
		<tag k="name" v="Rødnesøra" />
		<tag k="natural" v="beach" />
		<tag k="place" v="locality" />
		<tag k="ssr:stedsnr" v="212529" />
	</node>
	<node id="-844369" lat="63.8207472253" lon="9.54675554977">
		<tag k="fixme" v="consider seamark:type=rock or natural=shoal" />
		<tag k="name" v="Steinskjæra" />
		<tag k="place" v="islet" />
		<tag k="ssr:stedsnr" v="213233" />
	</node>
	<node id="-845281" lat="63.868222224" lon="9.6090111168">
		<tag k="name" v="Tristeinen" />
		<tag k="place" v="islet" />
		<tag k="ssr:stedsnr" v="681837" />
	</node>
	<node id="-844368" lat="63.9653388921" lon="9.56170554792">
		<tag k="fixme" v="consider seamark:type=rock or natural=shoal" />
		<tag k="name" v="Nubbskjæra" />
		<tag k="place" v="islet" />
		<tag k="ssr:stedsnr" v="636985" />
	</node>
	<node id="-845278" lat="63.8323444472" lon="9.4209305485">
		<tag k="name" v="Kvitingen" />
		<tag k="place" v="islet" />
		<tag k="ssr:stedsnr" v="698179" />
	</node>
	<node id="-845276" lat="63.8572888855" lon="9.71070278083">
		<tag k="name" v="Storøyvalen" />
		<tag k="place" v="locality" />
		<tag k="ssr:stedsnr" v="273677" />
	</node>
	<node id="-845275" lat="63.8259972259" lon="9.44074443867">
		<tag k="alt_name" v="Hokka" />
		<tag k="fixme" v="consider seamark:type=rock or natural=shoal" />
		<tag k="name" v="Litl-Håkka" />
		<tag k="place" v="islet" />
		<tag k="ssr:stedsnr" v="30161" />
	</node>
	<node id="-845272" lat="63.7929527742" lon="9.38216665877">
		<tag k="fixme" v="consider seamark:type=rock or natural=shoal" />
		<tag k="name" v="Karlsøyskjæret" />
		<tag k="place" v="islet" />
		<tag k="ssr:stedsnr" v="151196" />
	</node>
	<node id="-845268" lat="63.7190916672" lon="9.83778056558">
		<tag k="fixme" v="consider seamark:type=rock or natural=shoal" />
		<tag k="name" v="Bryggskjæret" />
		<tag k="place" v="islet" />
		<tag k="ssr:stedsnr" v="334383" />
	</node>
	<node id="-845265" lat="63.8689472264" lon="9.72956944798">
		<tag k="name" v="Tinnvika" />
		<tag k="natural" v="bay" />
		<tag k="ssr:stedsnr" v="636668" />
	</node>
	<node id="-845261" lat="63.7546861111" lon="9.96149445406">
		<tag k="name" v="Kuppelvikneset" />
		<tag k="natural" v="cape" />
		<tag k="ssr:stedsnr" v="515591" />
	</node>
	<node id="-845259" lat="63.8576500011" lon="9.83135832975">
		<tag k="name" v="Stor-Flatøya" />
		<tag k="place" v="island" />
		<tag k="ssr:stedsnr" v="30589" />
	</node>
	<node id="-845254" lat="63.8332111073" lon="9.4541777878">
		<tag k="fixme" v="consider seamark:type=rock or natural=shoal" />
		<tag k="name" v="Oddskjæret" />
		<tag k="place" v="islet" />
		<tag k="ssr:stedsnr" v="698581" />
	</node>
	<node id="-845252" lat="63.7637611073" lon="9.78689165646">
		<tag k="name" v="Klakkbukta" />
		<tag k="natural" v="bay" />
		<tag k="ssr:stedsnr" v="455312" />
	</node>
	<node id="-845251" lat="63.8885027778" lon="9.61401388881">
		<tag k="name" v="Oddtaren" />
		<tag k="natural" v="shoal" />
		<tag k="place" v="locality" />
		<tag k="ssr:stedsnr" v="334395" />
	</node>
	<node id="-845242" lat="63.8762361106" lon="9.76274999334">
		<tag k="name" v="Svinøyflua" />
		<tag k="natural" v="shoal" />
		<tag k="place" v="locality" />
		<tag k="ssr:stedsnr" v="758171" />
	</node>
	<node id="-845234" lat="63.8922750035" lon="9.93890276878">
		<tag k="fixme" v="consider seamark:type=rock or natural=shoal" />
		<tag k="name" v="Notskjæret" />
		<tag k="place" v="islet" />
		<tag k="ssr:stedsnr" v="758593" />
	</node>
	<node id="-845227" lat="63.8799694469" lon="9.93120555986">
		<tag k="name" v="Skammingsundet" />
		<tag k="natural" v="strait" />
		<tag k="ssr:stedsnr" v="880663" />
	</node>
	<node id="-845225" lat="63.8220138892" lon="9.6595472298">
		<tag k="name" v="Litlråsa" />
		<tag k="natural" v="bay" />
		<tag k="ssr:stedsnr" v="940754" />
	</node>
	<node id="-845222" lat="63.8238472262" lon="9.41212221404">
		<tag k="name" v="Kuppelvika" />
		<tag k="natural" v="bay" />
		<tag k="ssr:stedsnr" v="636219" />
	</node>
	<node id="-845221" lat="63.8060472261" lon="9.36399444692">
		<tag k="name" v="Karlsøyflua" />
		<tag k="natural" v="shoal" />
		<tag k="place" v="locality" />
		<tag k="ssr:stedsnr" v="698174" />
	</node>
	<node id="-845220" lat="63.8339333364" lon="9.78556665921">
		<tag k="fixme" v="consider seamark:type=rock or natural=shoal" />
		<tag k="name" v="Sundsetskjæra" />
		<tag k="place" v="islet" />
		<tag k="ssr:stedsnr" v="498083" />
	</node>
	<node id="-845217" lat="63.8543472237" lon="9.84699722731">
		<tag k="name" v="Prestvika" />
		<tag k="natural" v="bay" />
		<tag k="ssr:stedsnr" v="758611" />
	</node>
	<node id="-845214" lat="63.8237777747" lon="9.7458638865">
		<tag k="name" v="Gravdalsbukta" />
		<tag k="natural" v="bay" />
		<tag k="ssr:stedsnr" v="91804" />
	</node>
	<node id="-845211" lat="63.8585361127" lon="9.73268334117">
		<tag k="name" v="Kortneset" />
		<tag k="natural" v="cape" />
		<tag k="ssr:stedsnr" v="273669" />
	</node>
	<node id="-845201" lat="63.8629361101" lon="9.85065556262">
		<tag k="name" v="Kalvneset" />
		<tag k="natural" v="cape" />
		<tag k="ssr:stedsnr" v="941593" />
	</node>
	<node id="-845199" lat="63.8244166709" lon="9.59463611879">
		<tag k="name" v="Hauråsflua" />
		<tag k="natural" v="shoal" />
		<tag k="place" v="locality" />
		<tag k="ssr:stedsnr" v="758191" />
	</node>
	<node id="-845198" lat="63.7159138886" lon="9.8215111126">
		<tag k="fixme" v="consider seamark:type=rock or natural=shoal" />
		<tag k="name" v="Geitskjæret" />
		<tag k="place" v="islet" />
		<tag k="ssr:stedsnr" v="334375" />
	</node>
	<node id="-845195" lat="63.860650004" lon="9.72701666915">
		<tag k="name" v="Trollholmen" />
		<tag k="place" v="islet" />
		<tag k="ssr:stedsnr" v="880682" />
	</node>
	<node id="-845189" lat="63.8591055589" lon="9.7332722321">
		<tag k="name" v="Nordneset" />
		<tag k="natural" v="cape" />
		<tag k="ssr:stedsnr" v="880681" />
	</node>
	<node id="-845180" lat="63.971861111" lon="9.59782499633">
		<tag k="name" v="Melsteinodden" />
		<tag k="place" v="islet" />
		<tag k="ssr:stedsnr" v="498842" />
	</node>
	<node id="-845179" lat="63.7838888905" lon="10.1195305649">
		<tag k="name" v="Keila" />
		<tag k="natural" v="bay" />
		<tag k="ssr:stedsnr" v="151607" />
	</node>
	<node id="-845177" lat="63.9617833335" lon="9.55965276856">
		<tag k="alt_name" v="Flatholmen, l" />
		<tag k="name" v="Litle Flatholmen" />
		<tag k="place" v="islet" />
		<tag k="ssr:stedsnr" v="498843" />
	</node>
	<node id="-845172" lat="63.8536444467" lon="9.76166943875">
		<tag k="name" v="Sandnesvågen" />
		<tag k="natural" v="bay" />
		<tag k="ssr:stedsnr" v="863113" />
	</node>
	<node id="-845166" lat="63.8646194416" lon="9.84869165721">
		<tag k="name" v="Gammelnaustbukta" />
		<tag k="natural" v="bay" />
		<tag k="ssr:stedsnr" v="151599" />
	</node>
	<node id="-845163" lat="63.8334444413" lon="9.75280555282">
		<tag k="name" v="Storvika" />
		<tag k="natural" v="bay" />
		<tag k="ssr:stedsnr" v="576813" />
	</node>
	<node id="-845162" lat="63.8479472189" lon="9.66118055704">
		<tag k="fixme" v="consider seamark:type=rock or natural=shoal" />
		<tag k="name" v="Langtaren" />
		<tag k="place" v="islet" />
		<tag k="ssr:stedsnr" v="334380" />
	</node>
	<node id="-845159" lat="63.7520138919" lon="9.40427778582">
		<tag k="name" v="Vestre Tørrskjærflua" />
		<tag k="natural" v="shoal" />
		<tag k="place" v="locality" />
		<tag k="ssr:stedsnr" v="941189" />
	</node>
	<node id="-845155" lat="63.9170999974" lon="9.52374166858">
		<tag k="name" v="Ufsfluryggen" />
		<tag k="natural" v="shoal" />
		<tag k="place" v="locality" />
		<tag k="ssr:stedsnr" v="256799" />
	</node>
	<node id="-845154" lat="63.9496333321" lon="9.53833056282">
		<tag k="name" v="Vidflua" />
		<tag k="natural" v="shoal" />
		<tag k="place" v="locality" />
		<tag k="ssr:stedsnr" v="333976" />
	</node>
	<node id="-845150" lat="63.8787916655" lon="9.80331943725">
		<tag k="name" v="Valholmen" />
		<tag k="place" v="islet" />
		<tag k="ssr:stedsnr" v="636677" />
	</node>
	<node id="-845148" lat="63.8403777754" lon="9.80505832345">
		<tag k="name" v="Nesodden" />
		<tag k="natural" v="cape" />
		<tag k="ssr:stedsnr" v="819733" />
	</node>
	<node id="-845146" lat="63.7712055572" lon="9.37482222986">
		<tag k="name" v="Litlgyltingen" />
		<tag k="place" v="island" />
		<tag k="ssr:stedsnr" v="515150" />
	</node>
	<node id="-845141" lat="63.8481416696" lon="9.48492221219">
		<tag k="name" v="Balan" />
		<tag k="natural" v="shoal" />
		<tag k="place" v="locality" />
		<tag k="ssr:stedsnr" v="151602" />
	</node>
	<node id="-845139" lat="63.8858083372" lon="9.79928333356">
		<tag k="name" v="Eabenken" />
		<tag k="natural" v="cape" />
		<tag k="ssr:stedsnr" v="636675" />
	</node>
	<node id="-845137" lat="63.8814972231" lon="9.69244722982">
		<tag k="name" v="Gjæsingholman" />
		<tag k="place" v="islet" />
		<tag k="ssr:stedsnr" v="195847" />
	</node>
	<node id="-845135" lat="63.908938887" lon="9.65699166765">
		<tag k="name" v="Litlgrunnen" />
		<tag k="natural" v="shoal" />
		<tag k="place" v="locality" />
		<tag k="ssr:stedsnr" v="212951" />
	</node>
	<node id="-845132" lat="63.9424083353" lon="9.53839445164">
		<tag k="name" v="Brattaren" />
		<tag k="natural" v="shoal" />
		<tag k="place" v="locality" />
		<tag k="ssr:stedsnr" v="30983" />
	</node>
	<node id="-845131" lat="63.7588416637" lon="9.44730834313">
		<tag k="name" v="Tørrskjærflua" />
		<tag k="natural" v="shoal" />
		<tag k="place" v="locality" />
		<tag k="ssr:stedsnr" v="698187" />
	</node>
	<node id="-845125" lat="63.8974194445" lon="9.9105749914">
		<tag k="name" v="Litlrogna" />
		<tag k="place" v="islet" />
		<tag k="ssr:stedsnr" v="636643" />
	</node>
	<node id="-845122" lat="63.8788833358" lon="9.9187027725">
		<tag k="name" v="Skammingen" />
		<tag k="natural" v="bay" />
		<tag k="ssr:stedsnr" v="438570" />
	</node>
	<node id="-844683" lat="63.7489027775" lon="9.62636110555">
		<tag k="name" v="Tønnølsflua" />
		<tag k="natural" v="shoal" />
		<tag k="place" v="locality" />
		<tag k="ssr:stedsnr" v="819237" />
	</node>
	<node id="-845119" lat="63.8831277822" lon="9.81103333663">
		<tag k="name" v="Madsøyflua" />
		<tag k="place" v="locality" />
		<tag k="ssr:stedsnr" v="212503" />
	</node>
	<node id="-844682" lat="63.8884055574" lon="9.79753611618">
		<tag k="name" v="Skjørøya" />
		<tag k="place" v="island" />
		<tag k="ssr:stedsnr" v="863600" />
	</node>
	<node id="-845114" lat="63.9904222221" lon="9.6520361099">
		<tag k="name" v="Kristskallfluen" />
		<tag k="natural" v="shoal" />
		<tag k="place" v="locality" />
		<tag k="ssr:stedsnr" v="333957" />
	</node>
	<node id="-845113" lat="63.8711944451" lon="9.78760555283">
		<tag k="name" v="Rauskjerråsa" />
		<tag k="natural" v="strait" />
		<tag k="ssr:stedsnr" v="82171" />
	</node>
	<node id="-845112" lat="63.9426138907" lon="9.60063054681">
		<tag k="name" v="Andsteinryggen" />
		<tag k="place" v="locality" />
		<tag k="ssr:stedsnr" v="30980" />
	</node>
	<node id="-845111" lat="63.806091666" lon="9.4835472257">
		<tag k="name" v="Passholmen" />
		<tag k="place" v="islet" />
		<tag k="ssr:stedsnr" v="923659" />
	</node>
	<node id="-845110" lat="63.8910833347" lon="9.87922222734">
		<tag k="name" v="Trettvika" />
		<tag k="natural" v="bay" />
		<tag k="ssr:stedsnr" v="195598" />
	</node>
	<node id="-845107" lat="63.8819138849" lon="9.80903888959">
		<tag k="name" v="Litlholmen" />
		<tag k="place" v="islet" />
		<tag k="ssr:stedsnr" v="212505" />
	</node>
	<node id="-845105" lat="63.7843194472" lon="9.36391389456">
		<tag k="name" v="Brusværvalen" />
		<tag k="natural" v="strait" />
		<tag k="ssr:stedsnr" v="758148" />
	</node>
	<node id="-845103" lat="63.8521722234" lon="9.84346667451">
		<tag k="fixme" v="consider seamark:type=rock or natural=shoal" />
		<tag k="name" v="Stefføyskjæret" />
		<tag k="place" v="islet" />
		<tag k="ssr:stedsnr" v="515566" />
	</node>
	<node id="-845100" lat="63.8266777815" lon="9.69329445003">
		<tag k="name" v="Leirvika" />
		<tag k="natural" v="bay" />
		<tag k="ssr:stedsnr" v="316722" />
	</node>
	<node id="-845099" lat="63.8070972212" lon="9.64212500326">
		<tag k="name" v="Mannbukta" />
		<tag k="natural" v="bay" />
		<tag k="ssr:stedsnr" v="91378" />
	</node>
	<node id="-845097" lat="63.9773027748" lon="9.63559167156">
		<tag k="name" v="Austflua" />
		<tag k="natural" v="shoal" />
		<tag k="place" v="locality" />
		<tag k="ssr:stedsnr" v="333956" />
	</node>
	<node id="-845095" lat="63.8382972259" lon="9.58881110684">
		<tag k="name" v="Hytta" />
		<tag k="natural" v="shoal" />
		<tag k="place" v="locality" />
		<tag k="ssr:stedsnr" v="636639" />
	</node>
	<node id="-845087" lat="63.8230194467" lon="9.65000556421">
		<tag k="name" v="Kråkvikbukta" />
		<tag k="natural" v="bay" />
		<tag k="ssr:stedsnr" v="91785" />
	</node>
	<node id="-845082" lat="63.8696333316" lon="9.73410277043">
		<tag k="name" v="Gryta" />
		<tag k="natural" v="bay" />
		<tag k="ssr:stedsnr" v="273663" />
	</node>
	<node id="-845081" lat="63.9087138873" lon="9.52700832398">
		<tag k="name" v="Kopparfluen" />
		<tag k="natural" v="shoal" />
		<tag k="place" v="locality" />
		<tag k="ssr:stedsnr" v="195837" />
	</node>
	<node id="-845077" lat="63.8945611108" lon="9.77467221479">
		<tag k="name" v="Treholmen" />
		<tag k="place" v="islet" />
		<tag k="ssr:stedsnr" v="438574" />
	</node>
	<node id="-845073" lat="63.8917916655" lon="9.87034443609">
		<tag k="name" v="Breidvika" />
		<tag k="natural" v="cape" />
		<tag k="ssr:stedsnr" v="438573" />
	</node>
	<node id="-845064" lat="63.8822916624" lon="9.74933332409">
		<tag k="name" v="Lamholmen" />
		<tag k="place" v="islet" />
		<tag k="ssr:stedsnr" v="74580" />
	</node>
	<node id="-845063" lat="63.8256944421" lon="9.5485388799">
		<tag k="fixme" v="consider seamark:type=rock or natural=shoal" />
		<tag k="name" v="Burøyskjæret" />
		<tag k="place" v="islet" />
		<tag k="ssr:stedsnr" v="636635" />
	</node>
	<node id="-845060" lat="63.761027779" lon="9.58713889868">
		<tag k="name" v="Storsnelløra" />
		<tag k="natural" v="beach" />
		<tag k="place" v="locality" />
		<tag k="ssr:stedsnr" v="758562" />
	</node>
	<node id="-845058" lat="63.9450972233" lon="9.55793334262">
		<tag k="name" v="Annsteinen" />
		<tag k="place" v="islet" />
		<tag k="ssr:stedsnr" v="195839" />
	</node>
	<node id="-845052" lat="63.8525555585" lon="9.72937500234">
		<tag k="name" v="Leira" />
		<tag k="natural" v="bay" />
		<tag k="ssr:stedsnr" v="940728" />
	</node>
	<node id="-845050" lat="63.8459194434" lon="9.84228055353">
		<tag k="name" v="Asserøysunda" />
		<tag k="natural" v="bay" />
		<tag k="ssr:stedsnr" v="515569" />
	</node>
	<node id="-845049" lat="63.8288777749" lon="9.48809166168">
		<tag k="name" v="Værholmen" />
		<tag k="place" v="islet" />
		<tag k="ssr:stedsnr" v="636218" />
	</node>
	<node id="-845046" lat="63.8646472195" lon="9.81092222444">
		<tag k="name" v="Digerneset" />
		<tag k="natural" v="cape" />
		<tag k="ssr:stedsnr" v="923144" />
	</node>
	<node id="-845044" lat="63.9413138924" lon="9.75182777172">
		<tag k="alt_name" v="Auholmen, søre" />
		<tag k="fixme" v="multiple name tags, choose one and add the other to alt_name" />
		<tag k="name" v="Indre Auholmen;Søre Auholmen" />
		<tag k="place" v="islet" />
		<tag k="ssr:stedsnr" v="256519" />
	</node>
	<node id="-845040" lat="63.973097226" lon="9.57432222736">
		<tag k="name" v="Børøyflua" />
		<tag k="natural" v="shoal" />
		<tag k="place" v="locality" />
		<tag k="ssr:stedsnr" v="30964" />
	</node>
	<node id="-845033" lat="63.8713722222" lon="9.59613611023">
		<tag k="fixme" v="consider seamark:type=rock or natural=shoal" />
		<tag k="name" v="Tristeinskjæra" />
		<tag k="place" v="islet" />
		<tag k="ssr:stedsnr" v="256787" />
	</node>
	<node id="-845032" lat="63.7805472249" lon="9.53041943887">
		<tag k="name" v="Haukviktaren" />
		<tag k="natural" v="shoal" />
		<tag k="place" v="locality" />
		<tag k="ssr:stedsnr" v="273226" />
	</node>
	<node id="-845028" lat="63.8537611115" lon="9.81458610897">
		<tag k="name" v="Pevika" />
		<tag k="natural" v="bay" />
		<tag k="ssr:stedsnr" v="576369" />
	</node>
	<node id="-845024" lat="63.8907944427" lon="9.85096388894">
		<tag k="name" v="Lysøyvågen" />
		<tag k="natural" v="bay" />
		<tag k="ssr:stedsnr" v="195591" />
	</node>
	<node id="-845023" lat="63.9628499999" lon="9.58948610654">
		<tag k="fixme" v="consider seamark:type=rock or natural=shoal" />
		<tag k="name" v="Tennskjæret" />
		<tag k="place" v="islet" />
		<tag k="ssr:stedsnr" v="30963" />
	</node>
	<node id="-845019" lat="63.8202277789" lon="9.42266111914">
		<tag k="name" v="Myravågen" />
		<tag k="natural" v="bay" />
		<tag k="ssr:stedsnr" v="316708" />
	</node>
	<node id="-845016" lat="63.870086115" lon="9.80128333373">
		<tag k="name" v="Madsøygalten" />
		<tag k="natural" v="shoal" />
		<tag k="place" v="locality" />
		<tag k="ssr:stedsnr" v="940747" />
	</node>
	<node id="-845014" lat="63.8630666641" lon="9.80519445244">
		<tag k="fixme" v="consider seamark:type=rock or natural=shoal" />
		<tag k="name" v="Bryggskjæret" />
		<tag k="place" v="islet" />
		<tag k="ssr:stedsnr" v="940748" />
	</node>
	<node id="-845012" lat="63.8543833297" lon="9.85458056417">
		<tag k="name" v="Korssundet" />
		<tag k="natural" v="strait" />
		<tag k="ssr:stedsnr" v="151579" />
	</node>
	<node id="-845003" lat="63.8382888913" lon="9.78845278117">
		<tag k="name" v="Jøssundbukta" />
		<tag k="natural" v="bay" />
		<tag k="ssr:stedsnr" v="559073" />
	</node>
	<node id="-845000" lat="63.8891166637" lon="9.94078333492">
		<tag k="name" v="Inner Sandvika" />
		<tag k="natural" v="bay" />
		<tag k="ssr:stedsnr" v="758580" />
	</node>
	<node id="-844991" lat="63.8495249962" lon="9.84791945254">
		<tag k="name" v="Brandøyholmen" />
		<tag k="place" v="islet" />
		<tag k="ssr:stedsnr" v="151574" />
	</node>
	<node id="-844989" lat="63.8913583326" lon="9.93858332422">
		<tag k="name" v="Ytter Sandvika" />
		<tag k="natural" v="bay" />
		<tag k="ssr:stedsnr" v="30538" />
	</node>
	<node id="-844988" lat="63.7920833374" lon="9.48643333945">
		<tag k="name" v="Tørrisholmflua" />
		<tag k="natural" v="shoal" />
		<tag k="place" v="locality" />
		<tag k="ssr:stedsnr" v="273231" />
	</node>
	<node id="-844983" lat="63.7382500032" lon="9.95150833353">
		<tag k="alt_name" v="Hoøya" />
		<tag k="name" v="Håøya" />
		<tag k="place" v="islet" />
		<tag k="ssr:stedsnr" v="680238" />
	</node>
	<node id="-844978" lat="63.7938166709" lon="9.59409444893">
		<tag k="fixme" v="consider seamark:type=rock or natural=shoal" />
		<tag k="name" v="Larsskjæret" />
		<tag k="place" v="islet" />
		<tag k="ssr:stedsnr" v="758156" />
	</node>
	<node id="-844659" lat="63.8838249979" lon="9.58408332443">
		<tag k="name" v="Seiskjærfluen" />
		<tag k="natural" v="shoal" />
		<tag k="place" v="locality" />
		<tag k="ssr:stedsnr" v="212426" />
	</node>
	<node id="-844976" lat="63.8371805554" lon="9.65247222839">
		<tag k="name" v="Kråka" />
		<tag k="place" v="islet" />
		<tag k="ssr:stedsnr" v="316713" />
	</node>
	<node id="-844968" lat="63.8672388891" lon="9.70914999918">
		<tag k="name" v="Litlkvaløya" />
		<tag k="place" v="islet" />
		<tag k="ssr:stedsnr" v="195834" />
	</node>
	<node id="-844963" lat="63.8640111151" lon="9.77335277834">
		<tag k="fixme" v="consider seamark:type=rock or natural=shoal" />
		<tag k="name" v="Langskjæret" />
		<tag k="place" v="islet" />
		<tag k="ssr:stedsnr" v="91766" />
	</node>
	<node id="-844955" lat="63.8554305553" lon="9.81920833171">
		<tag k="fixme" v="consider seamark:type=rock or natural=shoal" />
		<tag k="name" v="Vedøyskjæret" />
		<tag k="place" v="islet" />
		<tag k="ssr:stedsnr" v="880615" />
	</node>
	<node id="-844949" lat="63.8106722207" lon="9.65351945011">
		<tag k="name" v="Aunholmen" />
		<tag k="place" v="islet" />
		<tag k="ssr:stedsnr" v="758544" />
	</node>
	<node id="-844948" lat="63.8803805576" lon="9.92466110322">
		<tag k="name" v="Oldneset" />
		<tag k="natural" v="cape" />
		<tag k="ssr:stedsnr" v="273628" />
	</node>
	<node id="-844943" lat="63.8966972244" lon="9.95918333394">
		<tag k="name" v="Åfjordsstraumen" />
		<tag k="natural" v="strait" />
		<tag k="ssr:stedsnr" v="30532" />
	</node>
	<node id="-844653" lat="63.7583472185" lon="9.41817221855">
		<tag k="name" v="Konradsgrunnen" />
		<tag k="natural" v="shoal" />
		<tag k="place" v="locality" />
		<tag k="ssr:stedsnr" v="30069" />
	</node>
	<node id="-844932" lat="63.8937555522" lon="9.86778055795">
		<tag k="name" v="Breivikbukta" />
		<tag k="natural" v="bay" />
		<tag k="ssr:stedsnr" v="576361" />
	</node>
	<node id="-844929" lat="63.8964611143" lon="9.95348889798">
		<tag k="name" v="Tamburvika" />
		<tag k="natural" v="bay" />
		<tag k="ssr:stedsnr" v="515542" />
	</node>
	<node id="-844309" lat="63.8575555515" lon="9.76214166466">
		<tag k="alt_name" v="Bergsfjordneset" />
		<tag k="name" v="Bålfjordnes" />
		<tag k="natural" v="cape" />
		<tag k="ssr:stedsnr" v="741146" />
	</node>
	<node id="-844923" lat="63.8644611072" lon="9.77089722072">
		<tag k="fixme" v="consider seamark:type=rock or natural=shoal" />
		<tag k="name" v="Knubben" />
		<tag k="place" v="islet" />
		<tag k="ssr:stedsnr" v="576771" />
	</node>
	<node id="-844921" lat="63.7935333318" lon="9.44574445037">
		<tag k="fixme" v="consider seamark:type=rock or natural=shoal" />
		<tag k="name" v="Svartskjæret" />
		<tag k="place" v="islet" />
		<tag k="ssr:stedsnr" v="619668" />
	</node>
	<node id="-844917" lat="63.8492833344" lon="9.82026110501">
		<tag k="name" v="Lesetvika" />
		<tag k="natural" v="bay" />
		<tag k="ssr:stedsnr" v="636609" />
	</node>
	<node id="-844911" lat="63.8660583363" lon="9.76689721452">
		<tag k="name" v="Vedøya" />
		<tag k="place" v="island" />
		<tag k="ssr:stedsnr" v="576772" />
	</node>
	<node id="-844910" lat="63.8308083339" lon="9.4278499949">
		<tag k="fixme" v="consider seamark:type=rock or natural=shoal" />
		<tag k="name" v="Buaskjæret" />
		<tag k="place" v="islet" />
		<tag k="ssr:stedsnr" v="636171" />
	</node>
	<node id="-844908" lat="63.8501499974" lon="9.6020916717">
		<tag k="fixme" v="consider seamark:type=rock or natural=shoal" />
		<tag k="name" v="Medfjordskjæra" />
		<tag k="place" v="islet" />
		<tag k="ssr:stedsnr" v="741736" />
	</node>
	<node id="-844904" lat="63.8191527734" lon="9.69716388944">
		<tag k="name" v="Tørremsbukta" />
		<tag k="natural" v="bay" />
		<tag k="ssr:stedsnr" v="940695" />
	</node>
	<node id="-844903" lat="63.8508861094" lon="9.52846666682">
		<tag k="name" v="Vågholmen" />
		<tag k="place" v="islet" />
		<tag k="ssr:stedsnr" v="74824" />
	</node>
	<node id="-844900" lat="63.8030277746" lon="9.43750555807">
		<tag k="name" v="Nausthaugholmen" />
		<tag k="place" v="islet" />
		<tag k="ssr:stedsnr" v="636170" />
	</node>
	<node id="-844897" lat="63.8972611081" lon="9.86423333065">
		<tag k="fixme" v="consider seamark:type=rock or natural=shoal" />
		<tag k="name" v="Varpskjæret" />
		<tag k="place" v="islet" />
		<tag k="ssr:stedsnr" v="576365" />
	</node>
	<node id="-844895" lat="63.831536112" lon="9.41915278623">
		<tag k="name" v="Kvitingan" />
		<tag k="place" v="islet" />
		<tag k="ssr:stedsnr" v="13700" />
	</node>
	<node id="-844885" lat="63.8128972256" lon="9.3844333282">
		<tag k="fixme" v="consider seamark:type=rock or natural=shoal" />
		<tag k="name" v="Grønnskjæra" />
		<tag k="place" v="islet" />
		<tag k="ssr:stedsnr" v="273203" />
	</node>
	<node id="-844883" lat="63.8810055548" lon="9.77088610616">
		<tag k="name" v="Svinøysundet" />
		<tag k="natural" v="strait" />
		<tag k="ssr:stedsnr" v="819683" />
	</node>
	<node id="-844880" lat="63.9646444486" lon="9.74007777746">
		<tag k="fixme" v="consider seamark:type=rock or natural=shoal" />
		<tag k="name" v="Båskjæra" />
		<tag k="place" v="islet" />
		<tag k="ssr:stedsnr" v="741751" />
	</node>
	<node id="-844875" lat="63.8974416678" lon="9.80139722532">
		<tag k="name" v="Persholmen" />
		<tag k="place" v="islet" />
		<tag k="ssr:stedsnr" v="863617" />
	</node>
	<node id="-844867" lat="63.8260916662" lon="9.47653333545">
		<tag k="name" v="Været" />
		<tag k="place" v="island" />
		<tag k="ssr:stedsnr" v="619682" />
	</node>
	<node id="-844866" lat="63.8209083298" lon="9.69486111577">
		<tag k="name" v="Kaukholet" />
		<tag k="natural" v="bay" />
		<tag k="ssr:stedsnr" v="880227" />
	</node>
	<node id="-846617" lat="63.7650666659" lon="9.80022499508">
		<tag k="name" v="Botngårdsleira" />
		<tag k="natural" v="shoal" />
		<tag k="place" v="locality" />
		<tag k="ssr:stedsnr" v="333345" />
	</node>
	<node id="-844864" lat="63.8928777781" lon="9.94444445047">
		<tag k="name" v="Tiltremsstranda" />
		<tag k="natural" v="beach" />
		<tag k="place" v="locality" />
		<tag k="ssr:stedsnr" v="151550" />
	</node>
	<node id="-844639" lat="63.8735555519" lon="9.72529721759">
		<tag k="bay" v="fjord" />
		<tag k="name" v="Gjæsingfjorden" />
		<tag k="natural" v="bay" />
		<tag k="ssr:stedsnr" v="819653" />
	</node>
	<node id="-844843" lat="63.977166665" lon="9.68298333161">
		<tag k="name" v="Kjelgrunnen" />
		<tag k="natural" v="shoal" />
		<tag k="place" v="locality" />
		<tag k="ssr:stedsnr" v="515972" />
	</node>
	<node id="-844840" lat="63.843994441" lon="9.67367499586">
		<tag k="fixme" v="consider seamark:type=rock or natural=shoal" />
		<tag k="name" v="Grytskjæret" />
		<tag k="place" v="islet" />
		<tag k="ssr:stedsnr" v="516377" />
	</node>
	<node id="-844838" lat="63.7565472238" lon="9.668369448">
		<tag k="name" v="Kabyholmen" />
		<tag k="place" v="islet" />
		<tag k="ssr:stedsnr" v="515521" />
	</node>
	<node id="-844835" lat="63.7943083299" lon="9.37149444452">
		<tag k="name" v="Karlsøya" />
		<tag k="place" v="island" />
		<tag k="ssr:stedsnr" v="316693" />
	</node>
	<node id="-844830" lat="63.8924888921" lon="9.91300000648">
		<tag k="name" v="Fjæra" />
		<tag k="natural" v="beach" />
		<tag k="place" v="locality" />
		<tag k="ssr:stedsnr" v="273624" />
	</node>
	<node id="-844824" lat="63.7660166654" lon="9.35178055855">
		<tag k="name" v="Gyltingstaren" />
		<tag k="natural" v="shoal" />
		<tag k="place" v="locality" />
		<tag k="ssr:stedsnr" v="637059" />
	</node>
	<node id="-844823" lat="63.878177782" lon="9.84462777461">
		<tag k="name" v="Bergabukta" />
		<tag k="natural" v="bay" />
		<tag k="ssr:stedsnr" v="636622" />
	</node>
	<node id="-844818" lat="63.9907305511" lon="9.61860555797">
		<tag k="name" v="Sør Avbregda" />
		<tag k="natural" v="shoal" />
		<tag k="place" v="locality" />
		<tag k="ssr:stedsnr" v="697705" />
	</node>
	<node id="-844816" lat="63.8310777757" lon="9.40506389703">
		<tag k="name" v="Valøyflua" />
		<tag k="natural" v="shoal" />
		<tag k="place" v="locality" />
		<tag k="ssr:stedsnr" v="636621" />
	</node>
	<node id="-844806" lat="63.8689722233" lon="9.77537221871">
		<tag k="name" v="Tranøya" />
		<tag k="place" v="islet" />
		<tag k="ssr:stedsnr" v="619137" />
	</node>
	<node id="-844803" lat="63.8539750042" lon="9.67505277662">
		<tag k="fixme" v="multiple name tags, choose one and add the other to alt_name; consider seamark:type=rock or natural=shoal" />
		<tag k="name" v="Torramuren;Torraskjæret" />
		<tag k="place" v="islet" />
		<tag k="ssr:stedsnr" v="74818" />
	</node>
	<node id="-844782" lat="63.9286666633" lon="9.72046944265">
		<tag k="fixme" v="consider seamark:type=rock or natural=shoal" />
		<tag k="name" v="Langskjæret" />
		<tag k="place" v="islet" />
		<tag k="ssr:stedsnr" v="256490" />
	</node>
	<node id="-844779" lat="63.9843944481" lon="9.60377222305">
		<tag k="name" v="Oddtaren" />
		<tag k="natural" v="shoal" />
		<tag k="place" v="locality" />
		<tag k="ssr:stedsnr" v="151969" />
	</node>
	<node id="-844777" lat="63.8528111098" lon="9.76724443814">
		<tag k="name" v="Øsefjæra" />
		<tag k="natural" v="shoal" />
		<tag k="place" v="locality" />
		<tag k="ssr:stedsnr" v="91735" />
	</node>
	<node id="-844770" lat="63.8539777816" lon="9.86205556188">
		<tag k="name" v="Valaholman" />
		<tag k="place" v="islet" />
		<tag k="ssr:stedsnr" v="880591" />
	</node>
	<node id="-844769" lat="63.8614166633" lon="9.74234445223">
		<tag k="name" v="Meieristranda" />
		<tag k="natural" v="beach" />
		<tag k="place" v="locality" />
		<tag k="ssr:stedsnr" v="819647" />
	</node>
	<node id="-844763" lat="63.8367611101" lon="9.50334443506">
		<tag k="name" v="Tryggholmen" />
		<tag k="place" v="islet" />
		<tag k="ssr:stedsnr" v="680714" />
	</node>
	<node id="-844755" lat="63.8022250005" lon="9.21777499956">
		<tag k="name" v="Tarvahavet" />
		<tag k="place" v="sea" />
		<tag k="ssr:stedsnr" v="389151" />
	</node>
	<node id="-844749" lat="63.8939111115" lon="9.64580555253">
		<tag k="name" v="Stabbflua" />
		<tag k="natural" v="shoal" />
		<tag k="place" v="locality" />
		<tag k="ssr:stedsnr" v="212436" />
	</node>
	<node id="-844748" lat="63.8793555591" lon="9.61228610157">
		<tag k="name" v="Tristeinodden" />
		<tag k="place" v="islet" />
		<tag k="ssr:stedsnr" v="74812" />
	</node>
	<node id="-844742" lat="63.9619138859" lon="9.63062777632">
		<tag k="name" v="Ytter Haglryggen" />
		<tag k="natural" v="shoal" />
		<tag k="place" v="locality" />
		<tag k="ssr:stedsnr" v="576747" />
	</node>
	<node id="-844732" lat="63.9867055539" lon="9.5977944448">
		<tag k="name" v="Ursbakkfallet" />
		<tag k="natural" v="shoal" />
		<tag k="place" v="locality" />
		<tag k="ssr:stedsnr" v="515967" />
	</node>
	<node id="-844723" lat="63.730766667" lon="9.88037499475">
		<tag k="name" v="Prestvika" />
		<tag k="natural" v="bay" />
		<tag k="ssr:stedsnr" v="576336" />
	</node>
	<node id="-844719" lat="63.9701333331" lon="9.60152499254">
		<tag k="fixme" v="consider seamark:type=rock or natural=shoal" />
		<tag k="name" v="Kråka" />
		<tag k="place" v="islet" />
		<tag k="ssr:stedsnr" v="151965" />
	</node>
	<node id="-844718" lat="63.8765999968" lon="9.77233887982">
		<tag k="name" v="Leia" />
		<tag k="natural" v="strait" />
		<tag k="ssr:stedsnr" v="819640" />
	</node>
	<node id="-846765" lat="63.8624138867" lon="9.55881665991">
		<tag k="name" v="Storflua" />
		<tag k="natural" v="shoal" />
		<tag k="place" v="locality" />
		<tag k="ssr:stedsnr" v="91630" />
	</node>
	<node id="-844715" lat="63.9107555584" lon="9.86628611853">
		<tag k="name" v="Halvkannflua" />
		<tag k="natural" v="shoal" />
		<tag k="place" v="locality" />
		<tag k="ssr:stedsnr" v="758091" />
	</node>
	<node id="-844710" lat="63.8883055596" lon="9.86686944043">
		<tag k="name" v="Brustranda" />
		<tag k="natural" v="beach" />
		<tag k="place" v="locality" />
		<tag k="ssr:stedsnr" v="515514" />
	</node>
	<node id="-846754" lat="63.7882666676" lon="9.59302223157">
		<tag k="name" v="Trollhaugfjæra" />
		<tag k="natural" v="beach" />
		<tag k="place" v="locality" />
		<tag k="ssr:stedsnr" v="819535" />
	</node>
	<node id="-844702" lat="63.8224055564" lon="9.733705557">
		<tag k="name" v="Håkadalsbukta" />
		<tag k="natural" v="bay" />
		<tag k="ssr:stedsnr" v="940685" />
	</node>
	<node id="-844701" lat="63.7569638881" lon="9.98368056306">
		<tag k="name" v="Stallvikbukta" />
		<tag k="natural" v="bay" />
		<tag k="ssr:stedsnr" v="273588" />
	</node>
	<node id="-846747" lat="63.8627944453" lon="9.52952777393">
		<tag k="name" v="Oddflua" />
		<tag k="natural" v="shoal" />
		<tag k="place" v="locality" />
		<tag k="ssr:stedsnr" v="91628" />
	</node>
	<node id="-846744" lat="63.7865249976" lon="9.38293610874">
		<tag k="fixme" v="consider seamark:type=rock or natural=shoal" />
		<tag k="name" v="Ressøyskjæret" />
		<tag k="place" v="islet" />
		<tag k="ssr:stedsnr" v="940139" />
	</node>
	<node id="-846741" lat="63.878594444" lon="9.73551389">
		<tag k="name" v="Lamholmstøtta" />
		<tag k="natural" v="shoal" />
		<tag k="place" v="locality" />
		<tag k="ssr:stedsnr" v="91227" />
	</node>
	<node id="-844692" lat="63.9442138849" lon="9.74825278575">
		<tag k="alt_name" v="Auholmen, nordre" />
		<tag k="fixme" v="multiple name tags, choose one and add the other to alt_name" />
		<tag k="name" v="Nordre Auholmen;Ytre Auholmen" />
		<tag k="place" v="islet" />
		<tag k="ssr:stedsnr" v="74544" />
	</node>
	<node id="-844690" lat="63.786572224" lon="9.35392222458">
		<tag k="fixme" v="consider seamark:type=rock or natural=shoal" />
		<tag k="name" v="Buaskjæret" />
		<tag k="place" v="islet" />
		<tag k="ssr:stedsnr" v="30074" />
	</node>
	<node id="-846737" lat="63.8095694416" lon="9.63698887938">
		<tag k="bay" v="fjord" />
		<tag k="name" v="Valsfjorden" />
		<tag k="natural" v="bay" />
		<tag k="ssr:stedsnr" v="134692" />
	</node>
	<node id="-844685" lat="63.8039833343" lon="9.38534722211">
		<tag k="fixme" v="multiple name tags, choose one and add the other to alt_name; consider seamark:type=rock or natural=shoal" />
		<tag k="name" v="Stallhaugskjæra;Stallskjæra" />
		<tag k="place" v="islet" />
		<tag k="ssr:stedsnr" v="619664" />
	</node>
	<node id="-846731" lat="63.819558335" lon="9.43577777784">
		<tag k="name" v="Skanken" />
		<tag k="natural" v="cape" />
		<tag k="ssr:stedsnr" v="91225" />
	</node>
	<node id="-846730" lat="63.9009361115" lon="9.82464166473">
		<tag k="name" v="Gangløysa" />
		<tag k="place" v="islet" />
		<tag k="ssr:stedsnr" v="680656" />
	</node>
	<node id="-844677" lat="63.824194446" lon="9.43652221781">
		<tag k="fixme" v="consider seamark:type=rock or natural=shoal" />
		<tag k="name" v="Nordbuskjæret" />
		<tag k="place" v="islet" />
		<tag k="ssr:stedsnr" v="697243" />
	</node>
	<node id="-846722" lat="63.8515666703" lon="9.6761333423">
		<tag k="name" v="Torraflua" />
		<tag k="natural" v="shoal" />
		<tag k="place" v="locality" />
		<tag k="ssr:stedsnr" v="151420" />
	</node>
	<node id="-846720" lat="63.8534527734" lon="9.82091389865">
		<tag k="name" v="Vedøya" />
		<tag k="place" v="islet" />
		<tag k="ssr:stedsnr" v="680134" />
	</node>
	<node id="-844668" lat="63.8080944437" lon="9.54381111841">
		<tag k="name" v="Markusflua" />
		<tag k="natural" v="shoal" />
		<tag k="place" v="locality" />
		<tag k="ssr:stedsnr" v="819228" />
	</node>
	<node id="-846715" lat="63.8214444488" lon="9.71028333405">
		<tag k="name" v="Buvika" />
		<tag k="natural" v="bay" />
		<tag k="ssr:stedsnr" v="30395" />
	</node>
	<node id="-846710" lat="63.8121972233" lon="9.58280277179">
		<tag k="name" v="Valsholmflua" />
		<tag k="place" v="locality" />
		<tag k="seamark:type" v="rock" />
		<tag k="ssr:stedsnr" v="275232" />
	</node>
	<node id="-846707" lat="63.9391916683" lon="9.76972221887">
		<tag k="name" v="Vågsøya" />
		<tag k="place" v="islet" />
		<tag k="ssr:stedsnr" v="75558" />
	</node>
	<node id="-846702" lat="63.7681527796" lon="9.55916111771">
		<tag k="name" v="Festholmen" />
		<tag k="place" v="islet" />
		<tag k="ssr:stedsnr" v="438737" />
	</node>
	<node id="-846701" lat="63.8564833321" lon="9.85648888471">
		<tag k="name" v="Holmen" />
		<tag k="place" v="islet" />
		<tag k="ssr:stedsnr" v="455549" />
	</node>
	<node id="-844649" lat="63.900480555" lon="9.7340083411">
		<tag k="name" v="Årvær" />
		<tag k="place" v="islet" />
		<tag k="ssr:stedsnr" v="923627" />
	</node>
	<node id="-844647" lat="63.8284999963" lon="9.39606666987">
		<tag k="name" v="Lamholmflua" />
		<tag k="natural" v="shoal" />
		<tag k="place" v="locality" />
		<tag k="ssr:stedsnr" v="273591" />
	</node>
	<node id="-844645" lat="63.788022226" lon="9.53593611664">
		<tag k="name" v="Lysfluen" />
		<tag k="natural" v="shoal" />
		<tag k="place" v="locality" />
		<tag k="ssr:stedsnr" v="880199" />
	</node>
	<node id="-846692" lat="63.821172218" lon="9.41550555866">
		<tag k="name" v="Valøyvågen" />
		<tag k="natural" v="bay" />
		<tag k="ssr:stedsnr" v="134688" />
	</node>
	<node id="-846688" lat="63.9780444487" lon="9.5876">
		<tag k="fixme" v="consider seamark:type=rock or natural=shoal" />
		<tag k="name" v="Oddskjæra" />
		<tag k="place" v="islet" />
		<tag k="ssr:stedsnr" v="455968" />
	</node>
	<node id="-846687" lat="63.7777777771" lon="9.38406110429">
		<tag k="name" v="Litlflatøya" />
		<tag k="place" v="island" />
		<tag k="ssr:stedsnr" v="940135" />
	</node>
	<node id="-846684" lat="63.8251222244" lon="9.44604165944">
		<tag k="name" v="Skankflua" />
		<tag k="natural" v="shoal" />
		<tag k="place" v="locality" />
		<tag k="ssr:stedsnr" v="91212" />
	</node>
	<node id="-844633" lat="63.8679666644" lon="9.73316388238">
		<tag k="name" v="Bekkavika" />
		<tag k="natural" v="bay" />
		<tag k="ssr:stedsnr" v="819652" />
	</node>
	<node id="-846679" lat="63.8316583314" lon="9.80093332869">
		<tag k="name" v="Josopvika" />
		<tag k="natural" v="bay" />
		<tag k="ssr:stedsnr" v="151414" />
	</node>
	<node id="-846678" lat="63.7624388873" lon="9.79745555161">
		<tag k="name" v="Skafthammaren" />
		<tag k="natural" v="cape" />
		<tag k="ssr:stedsnr" v="636495" />
	</node>
	<node id="-844629" lat="63.7746416645" lon="9.51357500277">
		<tag k="fixme" v="consider seamark:type=rock or natural=shoal" />
		<tag k="name" v="Taraskjæret" />
		<tag k="place" v="islet" />
		<tag k="ssr:stedsnr" v="819229" />
	</node>
	<node id="-846675" lat="63.830291666" lon="9.50786110958">
		<tag k="name" v="Oksholmen" />
		<tag k="place" v="islet" />
		<tag k="ssr:stedsnr" v="498720" />
	</node>
	<node id="-844626" lat="63.7834583307" lon="10.1107388812">
		<tag k="name" v="Pettersvikbukta" />
		<tag k="natural" v="bay" />
		<tag k="ssr:stedsnr" v="819619" />
	</node>
	<node id="-844259" lat="63.8235861093" lon="9.44191111653">
		<tag k="fixme" v="consider seamark:type=rock or natural=shoal" />
		<tag k="name" v="Skankskjæra" />
		<tag k="place" v="islet" />
		<tag k="ssr:stedsnr" v="394208" />
	</node>
	<node id="-846667" lat="63.9713250041" lon="9.73831388407">
		<tag k="name" v="Båflua" />
		<tag k="natural" v="shoal" />
		<tag k="place" v="locality" />
		<tag k="ssr:stedsnr" v="455949" />
	</node>
	<node id="-846666" lat="63.8212138857" lon="9.41045555369">
		<tag k="name" v="Vestervågen" />
		<tag k="natural" v="bay" />
		<tag k="ssr:stedsnr" v="91216" />
	</node>
	<node id="-844617" lat="63.8229194429" lon="9.67940834068">
		<tag k="name" v="Dynnvika" />
		<tag k="natural" v="bay" />
		<tag k="ssr:stedsnr" v="680700" />
	</node>
	<node id="-844616" lat="63.8786305564" lon="9.7463055638">
		<tag k="fixme" v="consider seamark:type=rock or natural=shoal" />
		<tag k="name" v="Hysskjæret" />
		<tag k="place" v="islet" />
		<tag k="ssr:stedsnr" v="455207" />
	</node>
	<node id="-846661" lat="63.8568055548" lon="9.76804166786">
		<tag k="fixme" v="consider seamark:type=rock or natural=shoal" />
		<tag k="name" v="Fauskaskjæret" />
		<tag k="place" v="islet" />
		<tag k="ssr:stedsnr" v="153961" />
	</node>
	<node id="-846660" lat="63.7394888921" lon="9.88839722537">
		<tag k="name" v="Garnesbukta" />
		<tag k="natural" v="bay" />
		<tag k="ssr:stedsnr" v="698421" />
	</node>
	<node id="-844610" lat="63.8432972264" lon="9.64719723137">
		<tag k="name" v="Kråktaren" />
		<tag k="natural" v="shoal" />
		<tag k="place" v="locality" />
		<tag k="ssr:stedsnr" v="699333" />
	</node>
	<node id="-846655" lat="63.8424833336" lon="9.81431944547">
		<tag k="name" v="Langstrandøra" />
		<tag k="natural" v="beach" />
		<tag k="place" v="locality" />
		<tag k="ssr:stedsnr" v="940578" />
	</node>
	<node id="-844606" lat="63.8147277784" lon="9.36868333491">
		<tag k="name" v="Bukklingen" />
		<tag k="place" v="locality" />
		<tag k="ssr:stedsnr" v="255684" />
	</node>
	<node id="-844605" lat="63.8942111091" lon="9.83889443987">
		<tag k="fixme" v="consider seamark:type=rock or natural=shoal" />
		<tag k="name" v="Lensmannskjæret" />
		<tag k="place" v="islet" />
		<tag k="ssr:stedsnr" v="151509" />
	</node>
	<node id="-846652" lat="63.9046250034" lon="9.75149444548">
		<tag k="fixme" v="consider seamark:type=rock or natural=shoal" />
		<tag k="name" v="Hatten" />
		<tag k="place" v="islet" />
		<tag k="ssr:stedsnr" v="273076" />
	</node>
	<node id="-844603" lat="63.8615861119" lon="9.83214999934">
		<tag k="name" v="Litl-Flatøya" />
		<tag k="place" v="island" />
		<tag k="ssr:stedsnr" v="819621" />
	</node>
	<node id="-846649" lat="63.9248361144" lon="9.75903332845">
		<tag k="name" v="Asen" />
		<tag k="place" v="island" />
		<tag k="ssr:stedsnr" v="803521" />
	</node>
	<node id="-844599" lat="63.7191388931" lon="9.85008333848">
		<tag k="name" v="Trillsteinvika" />
		<tag k="natural" v="bay" />
		<tag k="ssr:stedsnr" v="212422" />
	</node>
	<node id="-846645" lat="63.8191722186" lon="9.39615277822">
		<tag k="name" v="Verholmen" />
		<tag k="place" v="islet" />
		<tag k="ssr:stedsnr" v="91214" />
	</node>
	<node id="-844594" lat="63.7816416625" lon="9.38323611762">
		<tag k="name" v="Annsteinen" />
		<tag k="place" v="islet" />
		<tag k="ssr:stedsnr" v="741705" />
	</node>
	<node id="-846641" lat="63.8456916624" lon="9.65958332487">
		<tag k="fixme" v="consider seamark:type=rock or natural=shoal" />
		<tag k="name" v="Hystaren" />
		<tag k="place" v="islet" />
		<tag k="ssr:stedsnr" v="151416" />
	</node>
	<node id="-846640" lat="63.8479027772" lon="9.85545000931">
		<tag k="name" v="Strandabukta" />
		<tag k="natural" v="bay" />
		<tag k="ssr:stedsnr" v="515380" />
	</node>
	<node id="-844590" lat="63.8265972236" lon="9.70814722002">
		<tag k="name" v="Bekkavika" />
		<tag k="natural" v="bay" />
		<tag k="ssr:stedsnr" v="576306" />
	</node>
	<node id="-846642" lat="63.8287833304" lon="9.63512500276">
		<tag k="name" v="Bangvalholmen" />
		<tag k="place" v="islet" />
		<tag k="ssr:stedsnr" v="558711" />
	</node>
	<node id="-846633" lat="63.8818277822" lon="9.8496750043">
		<tag k="name" v="Lysøysundet" />
		<tag k="natural" v="strait" />
		<tag k="ssr:stedsnr" v="741661" />
	</node>
	<node id="-844583" lat="63.770038893" lon="9.35416110652">
		<tag k="fixme" v="consider seamark:type=rock or natural=shoal" />
		<tag k="name" v="Gyltingsskjæra" />
		<tag k="place" v="islet" />
		<tag k="ssr:stedsnr" v="377717" />
	</node>
	<node id="-846630" lat="63.8616527815" lon="9.7928333312">
		<tag k="name" v="Veianeset" />
		<tag k="natural" v="cape" />
		<tag k="ssr:stedsnr" v="212753" />
	</node>
	<node id="-844580" lat="63.8759000026" lon="9.74649722392">
		<tag k="name" v="Valsøyråsa" />
		<tag k="place" v="locality" />
		<tag k="ssr:stedsnr" v="598462" />
	</node>
	<node id="-844579" lat="63.7566611131" lon="9.71545832495">
		<tag k="fixme" v="consider seamark:type=rock or natural=shoal" />
		<tag k="name" v="Galten" />
		<tag k="place" v="islet" />
		<tag k="ssr:stedsnr" v="576308" />
	</node>
	<node id="-846624" lat="63.8733055553" lon="9.80819722742">
		<tag k="name" v="Stranda" />
		<tag k="natural" v="beach" />
		<tag k="place" v="locality" />
		<tag k="ssr:stedsnr" v="576632" />
	</node>
	<node id="-846622" lat="63.8214222247" lon="9.41651943436">
		<tag k="name" v="Mastervika" />
		<tag k="natural" v="bay" />
		<tag k="ssr:stedsnr" v="91203" />
	</node>
	<node id="-844573" lat="63.8350166628" lon="9.61366111497">
		<tag k="name" v="Hestvadfluen" />
		<tag k="natural" v="shoal" />
		<tag k="place" v="locality" />
		<tag k="ssr:stedsnr" v="212415" />
	</node>
	<node id="-846620" lat="63.8543083378" lon="9.86816666018">
		<tag k="name" v="Straumen" />
		<tag k="natural" v="strait" />
		<tag k="ssr:stedsnr" v="316105" />
	</node>
	<node id="-844570" lat="63.8819083297" lon="9.82540000255">
		<tag k="name" v="Galdskjeret" />
		<tag k="natural" v="cape" />
		<tag k="ssr:stedsnr" v="698475" />
	</node>
	<node id="-844569" lat="63.8200083371" lon="9.60804166818">
		<tag k="fixme" v="consider seamark:type=rock or natural=shoal" />
		<tag k="name" v="Hauråsskjæret" />
		<tag k="place" v="islet" />
		<tag k="ssr:stedsnr" v="32184" />
	</node>
	<node id="-844564" lat="63.932458337" lon="9.53514444429">
		<tag k="name" v="Heimflua" />
		<tag k="natural" v="shoal" />
		<tag k="place" v="locality" />
		<tag k="ssr:stedsnr" v="880974" />
	</node>
	<node id="-846609" lat="63.7668333333" lon="10.0426499979">
		<tag k="name" v="Ytter Duskardbukta" />
		<tag k="natural" v="bay" />
		<tag k="ssr:stedsnr" v="940572" />
	</node>
	<node id="-844560" lat="63.8100416632" lon="9.38494722967">
		<tag k="alt_name" v="Brannøya" />
		<tag k="name" v="Brandøya" />
		<tag k="place" v="island" />
		<tag k="ssr:stedsnr" v="880181" />
	</node>
	<node id="-846607" lat="63.9330666672" lon="9.56391387882">
		<tag k="name" v="Nordavindflua" />
		<tag k="natural" v="shoal" />
		<tag k="place" v="locality" />
		<tag k="ssr:stedsnr" v="819975" />
	</node>
	<node id="-846604" lat="63.900086108" lon="9.91803055641">
		<tag k="alt_name" v="Rognan;Rognen" />
		<tag k="name" v="Rogna" />
		<tag k="place" v="islet" />
		<tag k="ssr:stedsnr" v="680660" />
	</node>
	<node id="-846601" lat="63.8024166639" lon="9.47938334232">
		<tag k="name" v="Tørrisholmen" />
		<tag k="place" v="islet" />
		<tag k="ssr:stedsnr" v="377644" />
	</node>
	<node id="-846598" lat="63.8238444458" lon="9.62136111004">
		<tag k="name" v="Spanskholmen" />
		<tag k="place" v="islet" />
		<tag k="ssr:stedsnr" v="437658" />
	</node>
	<node id="-846596" lat="63.9691333312" lon="9.67175834033">
		<tag k="name" v="Oldskålflua" />
		<tag k="natural" v="shoal" />
		<tag k="place" v="locality" />
		<tag k="ssr:stedsnr" v="940980" />
	</node>
	<node id="-846595" lat="63.8669805558" lon="9.83321111561">
		<tag k="name" v="Høgholmen" />
		<tag k="place" v="islet" />
		<tag k="ssr:stedsnr" v="134145" />
	</node>
	<node id="-846594" lat="63.9087305581" lon="9.81427222744">
		<tag k="name" v="Lørdagsflua" />
		<tag k="natural" v="shoal" />
		<tag k="place" v="locality" />
		<tag k="ssr:stedsnr" v="273067" />
	</node>
	<node id="-846635" lat="63.7595722232" lon="9.59362222595">
		<tag k="name" v="Langøra" />
		<tag k="natural" v="beach" />
		<tag k="place" v="locality" />
		<tag k="ssr:stedsnr" v="819544" />
	</node>
	<node id="-844540" lat="63.8896916652" lon="9.78229722399">
		<tag k="name" v="Purkholmen" />
		<tag k="place" v="islet" />
		<tag k="ssr:stedsnr" v="923614" />
	</node>
	<node id="-846587" lat="63.7604000036" lon="9.55185277536">
		<tag k="fixme" v="consider seamark:type=rock or natural=shoal" />
		<tag k="name" v="Bjugnskjæra" />
		<tag k="place" v="islet" />
		<tag k="ssr:stedsnr" v="821231" />
	</node>
	<node id="-844533" lat="63.7534166709" lon="9.6687388842">
		<tag k="name" v="Merraskjeret" />
		<tag k="place" v="islet" />
		<tag k="ssr:stedsnr" v="377700" />
	</node>
	<node id="-846580" lat="63.9106250036" lon="9.78813889055">
		<tag k="name" v="Lønntaren" />
		<tag k="natural" v="shoal" />
		<tag k="place" v="locality" />
		<tag k="ssr:stedsnr" v="273065" />
	</node>
	<node id="-846578" lat="63.809913886" lon="9.65634999165">
		<tag k="name" v="Aunbukta" />
		<tag k="natural" v="bay" />
		<tag k="ssr:stedsnr" v="819512" />
	</node>
	<node id="-846577" lat="63.8215222238" lon="9.39303611414">
		<tag k="name" v="Ane-leia" />
		<tag k="natural" v="strait" />
		<tag k="ssr:stedsnr" v="576202" />
	</node>
	<node id="-846575" lat="63.7743777778" lon="9.56705278378">
		<tag k="name" v="Langstranda" />
		<tag k="natural" v="beach" />
		<tag k="place" v="locality" />
		<tag k="ssr:stedsnr" v="802690" />
	</node>
	<node id="-846571" lat="63.8407027778" lon="9.67561110463">
		<tag k="name" v="Nordneset" />
		<tag k="natural" v="cape" />
		<tag k="ssr:stedsnr" v="819511" />
	</node>
	<node id="-846569" lat="63.9438194412" lon="9.67351945218">
		<tag k="name" v="Medbåfallet" />
		<tag k="natural" v="shoal" />
		<tag k="place" v="locality" />
		<tag k="ssr:stedsnr" v="819944" />
	</node>
	<node id="-844509" lat="63.7100999991" lon="9.86376666579">
		<tag k="bay" v="fjord" />
		<tag k="name" v="Stjørnfjorden" />
		<tag k="natural" v="bay" />
		<tag k="ssr:stedsnr" v="195268" />
	</node>
	<node id="-846549" lat="63.8337805533" lon="9.66759443887">
		<tag k="name" v="Skipparvika" />
		<tag k="natural" v="bay" />
		<tag k="ssr:stedsnr" v="498716" />
	</node>
	<node id="-844500" lat="63.864486111" lon="9.76239444411">
		<tag k="name" v="Kattholmen" />
		<tag k="place" v="islet" />
		<tag k="ssr:stedsnr" v="455607" />
	</node>
	<node id="-844499" lat="63.7648499961" lon="9.76926388417">
		<tag k="name" v="Grønvikmelen" />
		<tag k="natural" v="cape" />
		<tag k="ssr:stedsnr" v="30461" />
	</node>
	<node id="-846544" lat="63.7898277775" lon="9.41806666616">
		<tag k="name" v="Tryggholman" />
		<tag k="place" v="islet" />
		<tag k="ssr:stedsnr" v="802683" />
	</node>
	<node id="-844495" lat="63.8700861067" lon="9.73610000352">
		<tag k="name" v="Nordvika" />
		<tag k="natural" v="bay" />
		<tag k="ssr:stedsnr" v="455613" />
	</node>
	<node id="-844492" lat="63.7789000012" lon="9.36729443995">
		<tag k="name" v="Valsholmen" />
		<tag k="place" v="islet" />
		<tag k="ssr:stedsnr" v="741711" />
	</node>
	<node id="-846539" lat="63.8576361078" lon="9.8830500036">
		<tag k="name" v="Naustbukta" />
		<tag k="natural" v="bay" />
		<tag k="ssr:stedsnr" v="515374" />
	</node>
	<node id="-846538" lat="63.8600972259" lon="9.53541388362">
		<tag k="fixme" v="consider seamark:type=rock or natural=shoal" />
		<tag k="name" v="Oddskjæra" />
		<tag k="place" v="islet" />
		<tag k="ssr:stedsnr" v="316873" />
	</node>
	<node id="-846537" lat="63.911688891" lon="9.8005416639">
		<tag k="name" v="Flatøygrunnan" />
		<tag k="natural" v="shoal" />
		<tag k="place" v="locality" />
		<tag k="ssr:stedsnr" v="273070" />
	</node>
	<node id="-846534" lat="63.8916861118" lon="9.60400278218">
		<tag k="name" v="Hørflua" />
		<tag k="natural" v="shoal" />
		<tag k="place" v="locality" />
		<tag k="ssr:stedsnr" v="698376" />
	</node>
	<node id="-846531" lat="63.8224388899" lon="9.39622223189">
		<tag k="name" v="Lamholman" />
		<tag k="place" v="islet" />
		<tag k="ssr:stedsnr" v="558706" />
	</node>
	<node id="-846528" lat="63.8081111144" lon="9.44382222017">
		<tag k="name" v="Havsundet" />
		<tag k="natural" v="strait" />
		<tag k="ssr:stedsnr" v="377647" />
	</node>
	<node id="-846525" lat="63.9304111105" lon="9.78057778172">
		<tag k="name" v="Nautflua" />
		<tag k="natural" v="shoal" />
		<tag k="place" v="locality" />
		<tag k="ssr:stedsnr" v="578755" />
	</node>
	<node id="-846524" lat="63.8193555533" lon="9.46695555001">
		<tag k="name" v="Grindøya" />
		<tag k="place" v="island" />
		<tag k="ssr:stedsnr" v="73666" />
	</node>
	<node id="-846522" lat="63.7907388885" lon="9.3907277752">
		<tag k="alt_name" v="Resøya" />
		<tag k="name" v="Husøya" />
		<tag k="place" v="island" />
		<tag k="ssr:stedsnr" v="134674" />
	</node>
	<node id="-846519" lat="63.8319666699" lon="9.73999444119">
		<tag k="fixme" v="consider seamark:type=rock or natural=shoal" />
		<tag k="name" v="Flysjaskjæret" />
		<tag k="place" v="islet" />
		<tag k="ssr:stedsnr" v="515801" />
	</node>
	<node id="-844468" lat="63.7365055532" lon="9.87556667318">
		<tag k="name" v="Sanden" />
		<tag k="natural" v="beach" />
		<tag k="place" v="locality" />
		<tag k="ssr:stedsnr" v="30454" />
	</node>
	<node id="-846512" lat="63.7521861102" lon="9.65348889806">
		<tag k="fixme" v="consider seamark:type=rock or natural=shoal" />
		<tag k="name" v="Gåsskjæret" />
		<tag k="place" v="islet" />
		<tag k="ssr:stedsnr" v="559744" />
	</node>
	<node id="-846511" lat="63.8010555555" lon="9.36895555561">
		<tag k="fixme" v="consider seamark:type=rock or natural=shoal" />
		<tag k="name" v="Karlsøyskjæra" />
		<tag k="place" v="islet" />
		<tag k="ssr:stedsnr" v="91187" />
	</node>
	<node id="-844460" lat="63.8633083363" lon="9.74311110522">
		<tag k="name" v="Tynnrasten" />
		<tag k="natural" v="beach" />
		<tag k="place" v="locality" />
		<tag k="ssr:stedsnr" v="940623" />
	</node>
	<node id="-844459" lat="63.7955027776" lon="9.40189165856">
		<tag k="name" v="Fruholmen" />
		<tag k="place" v="islet" />
		<tag k="ssr:stedsnr" v="940190" />
	</node>
	<node id="-846506" lat="63.8749027821" lon="9.93762500415">
		<tag k="name" v="Sildvika" />
		<tag k="natural" v="bay" />
		<tag k="ssr:stedsnr" v="619590" />
	</node>
	<node id="-846505" lat="63.823808336" lon="9.6321611118">
		<tag k="name" v="Vågabukta" />
		<tag k="natural" v="bay" />
		<tag k="ssr:stedsnr" v="151826" />
	</node>
	<node id="-846501" lat="63.8112194404" lon="9.37665000054">
		<tag k="name" v="Hegersteinen" />
		<tag k="place" v="islet" />
		<tag k="ssr:stedsnr" v="558691" />
	</node>
	<node id="-844448" lat="63.8643388885" lon="9.7145583269">
		<tag k="name" v="Kvalvikern" />
		<tag k="natural" v="bay" />
		<tag k="ssr:stedsnr" v="394629" />
	</node>
	<node id="-844447" lat="63.7837638857" lon="9.5462444526">
		<tag k="name" v="Flutaren" />
		<tag k="natural" v="shoal" />
		<tag k="place" v="locality" />
		<tag k="ssr:stedsnr" v="680683" />
	</node>
	<node id="-846493" lat="63.764144448" lon="9.78367776965">
		<tag k="name" v="Torshoggklovet" />
		<tag k="natural" v="cape" />
		<tag k="ssr:stedsnr" v="636465" />
	</node>
	<node id="-846490" lat="63.8332472216" lon="9.6489666704">
		<tag k="name" v="Skipparvikholmen" />
		<tag k="place" v="islet" />
		<tag k="ssr:stedsnr" v="333748" />
	</node>
	<node id="-846487" lat="63.8723222265" lon="9.82763889612">
		<tag k="fixme" v="consider seamark:type=rock or natural=shoal" />
		<tag k="name" v="Svartvikskjæret" />
		<tag k="place" v="islet" />
		<tag k="ssr:stedsnr" v="334581" />
	</node>
	<node id="-846486" lat="63.8188333318" lon="9.56561111819">
		<tag k="fixme" v="consider seamark:type=rock or natural=shoal" />
		<tag k="name" v="Melumskjæret" />
		<tag k="place" v="islet" />
		<tag k="ssr:stedsnr" v="394140" />
	</node>
	<node id="-846485" lat="63.9656777803" lon="9.58011111158">
		<tag k="name" v="Melsteinen" />
		<tag k="place" v="islet" />
		<tag k="ssr:stedsnr" v="316861" />
	</node>
	<node id="-844436" lat="63.7925166708" lon="9.40134166936">
		<tag k="name" v="Meithaugvalen" />
		<tag k="natural" v="bay" />
		<tag k="ssr:stedsnr" v="940180" />
	</node>
	<node id="-844435" lat="63.8934916684" lon="9.67646945424">
		<tag k="name" v="Teistholman" />
		<tag k="place" v="islet" />
		<tag k="ssr:stedsnr" v="923856" />
	</node>
	<node id="-846482" lat="63.81538333" lon="9.61311666544">
		<tag k="fixme" v="consider seamark:type=rock or natural=shoal" />
		<tag k="name" v="Eleseusskjæret" />
		<tag k="place" v="islet" />
		<tag k="ssr:stedsnr" v="151830" />
	</node>
	<node id="-844429" lat="63.8830388907" lon="9.84759167501">
		<tag k="name" v="Plassan" />
		<tag k="natural" v="shoal" />
		<tag k="place" v="locality" />
		<tag k="ssr:stedsnr" v="880527" />
	</node>
	<node id="-846471" lat="63.8711638917" lon="9.82885554661">
		<tag k="name" v="Stangholmen" />
		<tag k="place" v="islet" />
		<tag k="ssr:stedsnr" v="334580" />
	</node>
	<node id="-844420" lat="63.7435138876" lon="9.91014999496">
		<tag k="name" v="Råddavika" />
		<tag k="natural" v="bay" />
		<tag k="ssr:stedsnr" v="30447" />
	</node>
	<node id="-844416" lat="63.9437194454" lon="9.63148332447">
		<tag k="name" v="Melsteinleia" />
		<tag k="place" v="sea" />
		<tag k="ssr:stedsnr" v="636969" />
	</node>
	<node id="-846459" lat="63.8423305598" lon="9.51681945109">
		<tag k="name" v="Kråkøya" />
		<tag k="place" v="islet" />
		<tag k="ssr:stedsnr" v="558695" />
	</node>
	<node id="-846458" lat="63.8290861121" lon="9.41996389406">
		<tag k="name" v="Teistholmen" />
		<tag k="place" v="islet" />
		<tag k="ssr:stedsnr" v="576192" />
	</node>
	<node id="-846457" lat="63.8527638864" lon="9.68628888576">
		<tag k="name" v="Vallersundet" />
		<tag k="natural" v="strait" />
		<tag k="ssr:stedsnr" v="620649" />
	</node>
	<node id="-846452" lat="63.8340166682" lon="9.42510555408">
		<tag k="name" v="Kvitingsodden" />
		<tag k="natural" v="cape" />
		<tag k="ssr:stedsnr" v="576607" />
	</node>
	<node id="-846451" lat="63.7898138919" lon="9.41264167639">
		<tag k="name" v="Valsholmleia" />
		<tag k="natural" v="strait" />
		<tag k="ssr:stedsnr" v="576195" />
	</node>
	<node id="-844402" lat="63.8237249979" lon="9.62915832408">
		<tag k="name" v="Guri Kunna-holet" />
		<tag k="natural" v="shoal" />
		<tag k="place" v="locality" />
		<tag k="ssr:stedsnr" v="212825" />
	</node>
	<node id="-844400" lat="63.9567944416" lon="9.73588889842">
		<tag k="name" v="Båråsa" />
		<tag k="place" v="locality" />
		<tag k="ssr:stedsnr" v="880948" />
	</node>
	<node id="-846446" lat="63.857547226" lon="9.83327777527">
		<tag k="name" v="Flatøya" />
		<tag k="place" v="islet" />
		<tag k="ssr:stedsnr" v="680124" />
	</node>
	<node id="-846444" lat="63.7760944482" lon="9.36906388527">
		<tag k="name" v="Strandøya" />
		<tag k="place" v="islet" />
		<tag k="ssr:stedsnr" v="802695" />
	</node>
	<node id="-844395" lat="63.8469277784" lon="9.8130777761">
		<tag k="alt_name" v="Straumen" />
		<tag k="name" v="Jøssundstraumen" />
		<tag k="natural" v="strait" />
		<tag k="ssr:stedsnr" v="13120" />
	</node>
	<node id="-844389" lat="63.9368749958" lon="9.75988889853">
		<tag k="name" v="Nautsundet" />
		<tag k="natural" v="strait" />
		<tag k="ssr:stedsnr" v="135515" />
	</node>
	<node id="-846432" lat="63.7748111112" lon="9.35564166236">
		<tag k="fixme" v="consider seamark:type=rock or natural=shoal" />
		<tag k="name" v="Strandøyskjæra" />
		<tag k="place" v="islet" />
		<tag k="ssr:stedsnr" v="802694" />
	</node>
	<node id="-846428" lat="63.9033583352" lon="9.886838879">
		<tag k="name" v="Skallen" />
		<tag k="natural" v="shoal" />
		<tag k="place" v="locality" />
		<tag k="ssr:stedsnr" v="880080" />
	</node>
	<node id="-844376" lat="63.8168861086" lon="9.62431666968">
		<tag k="name" v="Valsneset" />
		<tag k="natural" v="cape" />
		<tag k="ssr:stedsnr" v="255662" />
	</node>
	<node id="-844373" lat="63.8872249996" lon="9.78262500443">
		<tag k="name" v="Storgardsbukta" />
		<tag k="natural" v="bay" />
		<tag k="ssr:stedsnr" v="576677" />
	</node>
	<node id="-844370" lat="63.8200166629" lon="9.40113054975">
		<tag k="fixme" v="consider seamark:type=rock or natural=shoal" />
		<tag k="name" v="Tindskjæra" />
		<tag k="place" v="islet" />
		<tag k="ssr:stedsnr" v="940204" />
	</node>
	<node id="-846417" lat="63.8083611075" lon="9.64666388797">
		<tag k="name" v="Steinvikneset" />
		<tag k="natural" v="cape" />
		<tag k="ssr:stedsnr" v="455486" />
	</node>
	<node id="-846416" lat="63.8980277767" lon="9.63826111223">
		<tag k="name" v="Storflua" />
		<tag k="natural" v="shoal" />
		<tag k="place" v="locality" />
		<tag k="ssr:stedsnr" v="516614" />
	</node>
	<node id="-844366" lat="63.8788805583" lon="9.77688055328">
		<tag k="name" v="Svinøystøtta" />
		<tag k="place" v="locality" />
		<tag k="seamark:type" v="rock" />
		<tag k="ssr:stedsnr" v="91672" />
	</node>
	<node id="-844364" lat="63.8801583347" lon="9.80085277754">
		<tag k="name" v="Lyngholmen" />
		<tag k="place" v="islet" />
		<tag k="ssr:stedsnr" v="91671" />
	</node>
	<node id="-844361" lat="63.8781111129" lon="9.76331389669">
		<tag k="name" v="Litl-Svinøya" />
		<tag k="place" v="islet" />
		<tag k="ssr:stedsnr" v="576680" />
	</node>
	<node id="-846408" lat="63.8307694483" lon="9.78678333877">
		<tag k="name" v="Sundsetodden" />
		<tag k="natural" v="cape" />
		<tag k="ssr:stedsnr" v="151810" />
	</node>
	<node id="-846407" lat="63.7709749977" lon="9.37443056111">
		<tag k="name" v="Gyltingen" />
		<tag k="place" v="islet" />
		<tag k="ssr:stedsnr" v="559737" />
	</node>
	<node id="-844358" lat="63.7550111149" lon="9.66916111321">
		<tag k="name" v="Bjugnholmen" />
		<tag k="place" v="islet" />
		<tag k="ssr:stedsnr" v="256714" />
	</node>
	<node id="-844355" lat="63.9646722245" lon="9.58772776888">
		<tag k="name" v="Korsholmen" />
		<tag k="place" v="islet" />
		<tag k="ssr:stedsnr" v="880957" />
	</node>
	<node id="-844354" lat="63.8961805546" lon="9.9564888904">
		<tag k="name" v="Tiltremsneset" />
		<tag k="natural" v="cape" />
		<tag k="ssr:stedsnr" v="636540" />
	</node>
	<node id="-844351" lat="63.7970999959" lon="9.40589443834">
		<tag k="name" v="Straumen" />
		<tag k="natural" v="strait" />
		<tag k="ssr:stedsnr" v="455177" />
	</node>
	<node id="-844350" lat="63.7828249992" lon="9.3719583357">
		<tag k="name" v="Brusværholmen" />
		<tag k="place" v="islet" />
		<tag k="ssr:stedsnr" v="273134" />
	</node>
	<node id="-844349" lat="63.8769777737" lon="9.78683055132">
		<tag k="name" v="Leiskjærflua" />
		<tag k="natural" v="shoal" />
		<tag k="place" v="locality" />
		<tag k="ssr:stedsnr" v="636105" />
	</node>
	<node id="-846395" lat="63.9413972206" lon="9.71926666057">
		<tag k="name" v="Grunnfluen" />
		<tag k="natural" v="shoal" />
		<tag k="place" v="locality" />
		<tag k="ssr:stedsnr" v="697950" />
	</node>
	<node id="-846394" lat="63.8538027802" lon="9.84901110684">
		<tag k="name" v="Stefføya" />
		<tag k="place" v="islet" />
		<tag k="ssr:stedsnr" v="802133" />
	</node>
	<node id="-846393" lat="63.9336388906" lon="9.68194445336">
		<tag k="name" v="Medbåflua" />
		<tag k="natural" v="shoal" />
		<tag k="place" v="locality" />
		<tag k="ssr:stedsnr" v="940957" />
	</node>
	<node id="-844553" lat="63.8128499979" lon="9.65440832844">
		<tag k="name" v="Olsvikpynten" />
		<tag k="natural" v="cape" />
		<tag k="ssr:stedsnr" v="394238" />
	</node>
	<node id="-846388" lat="63.8714333299" lon="9.78215556536">
		<tag k="name" v="Litl-Tranøya" />
		<tag k="place" v="islet" />
		<tag k="ssr:stedsnr" v="333743" />
	</node>
	<node id="-846385" lat="63.8099749967" lon="9.4603222198">
		<tag k="name" v="Litl Svinøya" />
		<tag k="place" v="islet" />
		<tag k="ssr:stedsnr" v="152220" />
	</node>
	<node id="-846384" lat="63.7294249957" lon="9.88122222466">
		<tag k="name" v="Saltneset" />
		<tag k="natural" v="cape" />
		<tag k="ssr:stedsnr" v="819473" />
	</node>
	<node id="-844333" lat="63.7935583367" lon="9.42786388118">
		<tag k="name" v="Fårøya" />
		<tag k="place" v="islet" />
		<tag k="ssr:stedsnr" v="75843" />
	</node>
	<node id="-846380" lat="63.7560722241" lon="9.67801388276">
		<tag k="name" v="Holmøra" />
		<tag k="natural" v="beach" />
		<tag k="place" v="locality" />
		<tag k="ssr:stedsnr" v="940498" />
	</node>
	<node id="-844330" lat="63.8105333348" lon="9.59468889639">
		<tag k="fixme" v="consider seamark:type=rock or natural=shoal" />
		<tag k="name" v="Valsholmskjæret" />
		<tag k="place" v="islet" />
		<tag k="ssr:stedsnr" v="880153" />
	</node>
	<node id="-844325" lat="63.7968777734" lon="9.57941945426">
		<tag k="name" v="Vettabåen" />
		<tag k="natural" v="shoal" />
		<tag k="place" v="locality" />
		<tag k="ssr:stedsnr" v="638226" />
	</node>
	<node id="-846372" lat="63.9580277734" lon="9.70509722384">
		<tag k="name" v="Storfluen" />
		<tag k="natural" v="shoal" />
		<tag k="place" v="locality" />
		<tag k="ssr:stedsnr" v="697947" />
	</node>
	<node id="-846370" lat="63.8790638887" lon="9.60285277166">
		<tag k="fixme" v="consider seamark:type=rock or natural=shoal" />
		<tag k="name" v="Storskjæra" />
		<tag k="place" v="islet" />
		<tag k="ssr:stedsnr" v="741881" />
	</node>
	<node id="-846369" lat="63.8205972206" lon="9.65474721513">
		<tag k="name" v="Litlkrinsholmen" />
		<tag k="place" v="islet" />
		<tag k="ssr:stedsnr" v="30763" />
	</node>
	<node id="-846366" lat="63.8787083342" lon="9.82277500792">
		<tag k="name" v="Madsøyholet" />
		<tag k="natural" v="strait" />
		<tag k="ssr:stedsnr" v="455498" />
	</node>
	<node id="-846363" lat="63.7530916701" lon="9.72338610949">
		<tag k="name" v="Ervikstranda" />
		<tag k="natural" v="beach" />
		<tag k="place" v="locality" />
		<tag k="ssr:stedsnr" v="636413" />
	</node>
	<node id="-844311" lat="63.7921499975" lon="9.42996667116">
		<tag k="fixme" v="consider seamark:type=rock or natural=shoal" />
		<tag k="name" v="Fårøyskjæret" />
		<tag k="place" v="islet" />
		<tag k="ssr:stedsnr" v="455161" />
	</node>
	<node id="-844310" lat="63.7614694444" lon="9.45738332719">
		<tag k="fixme" v="consider seamark:type=rock or natural=shoal" />
		<tag k="name" v="Tørrskjæret" />
		<tag k="place" v="islet" />
		<tag k="ssr:stedsnr" v="275255" />
	</node>
	<node id="-846357" lat="63.7961611118" lon="9.60216110865">
		<tag k="fixme" v="consider seamark:type=rock or natural=shoal" />
		<tag k="name" v="Raudskjæret" />
		<tag k="place" v="islet" />
		<tag k="ssr:stedsnr" v="213144" />
	</node>
	<node id="-846351" lat="63.7669027773" lon="9.45280833278">
		<tag k="name" v="Jonsflua" />
		<tag k="natural" v="shoal" />
		<tag k="place" v="locality" />
		<tag k="ssr:stedsnr" v="516223" />
	</node>
	<node id="-846349" lat="63.8088638928" lon="9.59672499496">
		<tag k="name" v="Valsholman" />
		<tag k="place" v="islet" />
		<tag k="ssr:stedsnr" v="498702" />
	</node>
	<node id="-844546" lat="63.8666972245" lon="9.87974166191">
		<tag k="name" v="Holkeila" />
		<tag k="natural" v="bay" />
		<tag k="ssr:stedsnr" v="13137" />
	</node>
	<node id="-844297" lat="63.88213889" lon="9.96480277598">
		<tag k="alt_name" v="Gjøvika" />
		<tag k="name" v="Jøvika" />
		<tag k="natural" v="bay" />
		<tag k="ssr:stedsnr" v="135781" />
	</node>
	<node id="-846344" lat="63.8613500009" lon="9.79746110262">
		<tag k="name" v="Kjempabukta" />
		<tag k="natural" v="bay" />
		<tag k="ssr:stedsnr" v="30755" />
	</node>
	<node id="-844295" lat="63.8442861137" lon="9.83095555233">
		<tag k="name" v="Eidet" />
		<tag k="place" v="locality" />
		<tag k="ssr:stedsnr" v="13109" />
	</node>
	<node id="-844294" lat="63.8384638895" lon="9.46903888389">
		<tag k="fixme" v="consider seamark:type=rock or natural=shoal" />
		<tag k="name" v="Seiskjæret" />
		<tag k="place" v="islet" />
		<tag k="ssr:stedsnr" v="802723" />
	</node>
	<node id="-846593" lat="63.8332972217" lon="9.44009444866">
		<tag k="name" v="Bøtna" />
		<tag k="natural" v="shoal" />
		<tag k="place" v="locality" />
		<tag k="ssr:stedsnr" v="576610" />
	</node>
	<node id="-846340" lat="63.9078472209" lon="9.7621583412">
		<tag k="name" v="Bruntaren" />
		<tag k="natural" v="shoal" />
		<tag k="place" v="locality" />
		<tag k="ssr:stedsnr" v="333285" />
	</node>
	<node id="-844288" lat="63.8625361077" lon="9.85744166326">
		<tag k="name" v="Leikvangbukta" />
		<tag k="natural" v="bay" />
		<tag k="ssr:stedsnr" v="212359" />
	</node>
	<node id="-846335" lat="63.8806944469" lon="9.84233055888">
		<tag k="name" v="Gåsholmen" />
		<tag k="natural" v="cape" />
		<tag k="ssr:stedsnr" v="394524" />
	</node>
	<node id="-844286" lat="63.9095555589" lon="9.85326388183">
		<tag k="fixme" v="consider seamark:type=rock or natural=shoal" />
		<tag k="name" v="Børskjæret" />
		<tag k="place" v="islet" />
		<tag k="ssr:stedsnr" v="680668" />
	</node>
	<node id="-844284" lat="63.8233055524" lon="9.42943333838">
		<tag k="fixme" v="consider seamark:type=rock or natural=shoal" />
		<tag k="name" v="Kuskjæra" />
		<tag k="place" v="islet" />
		<tag k="ssr:stedsnr" v="394209" />
	</node>
	<node id="-846327" lat="63.8111138864" lon="9.39421667499">
		<tag k="name" v="Lyngøya" />
		<tag k="natural" v="cape" />
		<tag k="ssr:stedsnr" v="576164" />
	</node>
	<node id="-844273" lat="63.806819445" lon="9.45304167187">
		<tag k="alt_name" v="Store Svinøya" />
		<tag k="name" v="Svinøya" />
		<tag k="place" v="islet" />
		<tag k="ssr:stedsnr" v="255649" />
	</node>
	<node id="-846320" lat="63.7857805587" lon="9.39928055537">
		<tag k="fixme" v="consider seamark:type=rock or natural=shoal" />
		<tag k="name" v="Steinskjæra" />
		<tag k="place" v="islet" />
		<tag k="ssr:stedsnr" v="802682" />
	</node>
	<node id="-846319" lat="63.8142388854" lon="9.6137083272">
		<tag k="name" v="Skåholmen" />
		<tag k="place" v="islet" />
		<tag k="ssr:stedsnr" v="698783" />
	</node>
	<node id="-846318" lat="63.8492277748" lon="9.70857221397">
		<tag k="name" v="Melemsvika" />
		<tag k="natural" v="cape" />
		<tag k="ssr:stedsnr" v="256653" />
	</node>
	<node id="-846313" lat="63.8033972257" lon="9.36243888169">
		<tag k="name" v="Karlsøybåen" />
		<tag k="natural" v="shoal" />
		<tag k="place" v="locality" />
		<tag k="ssr:stedsnr" v="516205" />
	</node>
	<node id="-846307" lat="63.7621333332" lon="9.58397221653">
		<tag k="name" v="Leiteøra" />
		<tag k="natural" v="beach" />
		<tag k="place" v="locality" />
		<tag k="ssr:stedsnr" v="394528" />
	</node>
	<node id="-846305" lat="63.849436109" lon="9.69146944957">
		<tag k="name" v="Banvalen" />
		<tag k="place" v="islet" />
		<tag k="ssr:stedsnr" v="30749" />
	</node>
	<node id="-846302" lat="63.9149833306" lon="9.82729444586">
		<tag k="name" v="Persflua" />
		<tag k="natural" v="shoal" />
		<tag k="place" v="locality" />
		<tag k="ssr:stedsnr" v="455076" />
	</node>
	<node id="-844250" lat="63.815636107" lon="9.3872833299">
		<tag k="name" v="Sølvhundvika" />
		<tag k="natural" v="bay" />
		<tag k="ssr:stedsnr" v="394191" />
	</node>
	<node id="-846295" lat="63.8199500011" lon="9.65995554554">
		<tag k="name" v="Krinsholmen" />
		<tag k="place" v="islet" />
		<tag k="ssr:stedsnr" v="498694" />
	</node>
	<node id="-844246" lat="63.8463472236" lon="9.67686110294">
		<tag k="name" v="Naglen" />
		<tag k="place" v="islet" />
		<tag k="ssr:stedsnr" v="134698" />
	</node>
	<node id="-844244" lat="63.891483336" lon="9.57670554936">
		<tag k="name" v="Tristeingrunnen" />
		<tag k="natural" v="shoal" />
		<tag k="place" v="locality" />
		<tag k="ssr:stedsnr" v="151440" />
	</node>
	<node id="-844242" lat="63.7734805594" lon="9.41438055631">
		<tag k="name" v="Flatøybakken" />
		<tag k="natural" v="shoal" />
		<tag k="place" v="locality" />
		<tag k="ssr:stedsnr" v="698048" />
	</node>
	<node id="-844238" lat="63.8318083295" lon="9.79227499846">
		<tag k="name" v="Jektvika" />
		<tag k="natural" v="bay" />
		<tag k="ssr:stedsnr" v="515403" />
	</node>
	<node id="-846284" lat="63.742644447" lon="9.90444999701">
		<tag k="name" v="Berget" />
		<tag k="natural" v="cape" />
		<tag k="ssr:stedsnr" v="559206" />
	</node>
	<node id="-844234" lat="63.8306500024" lon="9.42779721309">
		<tag k="fixme" v="consider seamark:type=rock or natural=shoal" />
		<tag k="name" v="Valøyskjæra" />
		<tag k="place" v="islet" />
		<tag k="ssr:stedsnr" v="437683" />
	</node>
	<node id="-844231" lat="63.8965722232" lon="9.92282222066">
		<tag k="name" v="Hestneset" />
		<tag k="natural" v="cape" />
		<tag k="ssr:stedsnr" v="13623" />
	</node>
	<node id="-846274" lat="63.8973166648" lon="9.91052499013">
		<tag k="fixme" v="consider seamark:type=rock or natural=shoal" />
		<tag k="name" v="Rognsteinan" />
		<tag k="place" v="islet" />
		<tag k="ssr:stedsnr" v="134643" />
	</node>
	<node id="-846272" lat="63.7188638908" lon="9.8478055589">
		<tag k="fixme" v="consider seamark:type=rock or natural=shoal" />
		<tag k="name" v="Seiskjæret" />
		<tag k="place" v="islet" />
		<tag k="ssr:stedsnr" v="880408" />
	</node>
	<node id="-844223" lat="63.7567416671" lon="9.72220277324">
		<tag k="name" v="Ospneshammaren" />
		<tag k="natural" v="cape" />
		<tag k="ssr:stedsnr" v="758448" />
	</node>
	<node id="-844217" lat="63.7779027744" lon="9.35395556408">
		<tag k="name" v="Valsholmflua" />
		<tag k="natural" v="shoal" />
		<tag k="place" v="locality" />
		<tag k="ssr:stedsnr" v="941050" />
	</node>
	<node id="-844207" lat="63.8381638895" lon="9.80261110773">
		<tag k="name" v="Nøklan" />
		<tag k="place" v="islet" />
		<tag k="ssr:stedsnr" v="619073" />
	</node>
	<node id="-844206" lat="63.8226194487" lon="9.71013889255">
		<tag k="bay" v="fjord" />
		<tag k="name" v="Koet" />
		<tag k="natural" v="bay" />
		<tag k="ssr:stedsnr" v="134693" />
	</node>
	<node id="-844204" lat="63.7968805524" lon="9.5431888848">
		<tag k="name" v="Vidflua" />
		<tag k="natural" v="shoal" />
		<tag k="place" v="locality" />
		<tag k="ssr:stedsnr" v="394199" />
	</node>
	<node id="-844199" lat="63.9295388885" lon="9.52128055236">
		<tag k="name" v="Ufsflua" />
		<tag k="natural" v="shoal" />
		<tag k="place" v="locality" />
		<tag k="ssr:stedsnr" v="515863" />
	</node>
	<node id="-844198" lat="63.8214944432" lon="9.40197500065">
		<tag k="fixme" v="consider seamark:type=rock or natural=shoal" />
		<tag k="name" v="Lyngskjæret" />
		<tag k="place" v="islet" />
		<tag k="ssr:stedsnr" v="394200" />
	</node>
	<node id="-844194" lat="63.7150638883" lon="9.82192221979">
		<tag k="fixme" v="consider seamark:type=rock or natural=shoal" />
		<tag k="name" v="Langskjæret" />
		<tag k="place" v="islet" />
		<tag k="ssr:stedsnr" v="758440" />
	</node>
	<node id="-846240" lat="63.8631694488" lon="9.80008610293">
		<tag k="name" v="Kjerkneset" />
		<tag k="natural" v="cape" />
		<tag k="ssr:stedsnr" v="515765" />
	</node>
	<node id="-846238" lat="63.8606083335" lon="9.51310833897">
		<tag k="name" v="Bågan" />
		<tag k="natural" v="shoal" />
		<tag k="place" v="locality" />
		<tag k="ssr:stedsnr" v="516597" />
	</node>
	<node id="-846236" lat="63.7807222186" lon="9.57701944337">
		<tag k="name" v="Djupfestvågen" />
		<tag k="natural" v="bay" />
		<tag k="ssr:stedsnr" v="394515" />
	</node>
	<node id="-846232" lat="63.889330558" lon="9.81148333694">
		<tag k="name" v="Skipparvika" />
		<tag k="natural" v="bay" />
		<tag k="ssr:stedsnr" v="394516" />
	</node>
	<node id="-846231" lat="63.8627194449" lon="9.62016667554">
		<tag k="name" v="Litltaren" />
		<tag k="natural" v="shoal" />
		<tag k="place" v="locality" />
		<tag k="ssr:stedsnr" v="880402" />
	</node>
	<node id="-846229" lat="63.9023583345" lon="9.83811111525">
		<tag k="name" v="Flatøya" />
		<tag k="place" v="islet" />
		<tag k="ssr:stedsnr" v="499766" />
	</node>
	<node id="-844179" lat="63.85948333" lon="9.71914445108">
		<tag k="fixme" v="consider seamark:type=rock or natural=shoal" />
		<tag k="name" v="Kobbskjæra" />
		<tag k="place" v="islet" />
		<tag k="ssr:stedsnr" v="576660" />
	</node>
	<node id="-844178" lat="63.8547527811" lon="9.69514722593">
		<tag k="name" v="Halsøya" />
		<tag k="place" v="islet" />
		<tag k="ssr:stedsnr" v="923852" />
	</node>
	<node id="-844176" lat="63.8623038854" lon="9.83873392532">
		<tag k="name" v="Rømmesvika" />
		<tag k="natural" v="bay" />
		<tag k="ssr:stedsnr" v="741148" />
	</node>
	<node id="-846217" lat="63.8052861078" lon="9.63137500816">
		<tag k="name" v="Tiltervågen" />
		<tag k="natural" v="bay" />
		<tag k="ssr:stedsnr" v="394511" />
	</node>
	<node id="-846203" lat="63.7600111095" lon="9.73556388614">
		<tag k="name" v="Kjerkøra" />
		<tag k="natural" v="shoal" />
		<tag k="place" v="locality" />
		<tag k="ssr:stedsnr" v="273400" />
	</node>
	<node id="-846201" lat="63.8535750021" lon="9.7159611059">
		<tag k="name" v="Skaget" />
		<tag k="natural" v="cape" />
		<tag k="ssr:stedsnr" v="515742" />
	</node>
	<node id="-846200" lat="63.8152083365" lon="9.66616111953">
		<tag k="name" v="Olsvika" />
		<tag k="natural" v="bay" />
		<tag k="ssr:stedsnr" v="758770" />
	</node>
	<node id="-846191" lat="63.7393083291" lon="9.89318056044">
		<tag k="name" v="Båtvikklubben" />
		<tag k="natural" v="cape" />
		<tag k="ssr:stedsnr" v="819471" />
	</node>
	<node id="-846188" lat="63.7554472179" lon="9.71379999216">
		<tag k="name" v="Ervikøra" />
		<tag k="natural" v="shoal" />
		<tag k="place" v="locality" />
		<tag k="ssr:stedsnr" v="636407" />
	</node>
	<node id="-846187" lat="63.8779749968" lon="9.76320277842">
		<tag k="fixme" v="consider seamark:type=rock or natural=shoal" />
		<tag k="name" v="Svinøyflua" />
		<tag k="place" v="islet" />
		<tag k="ssr:stedsnr" v="255580" />
	</node>
	<node id="-846179" lat="63.8883222182" lon="9.68583333489">
		<tag k="name" v="Skurvholmen" />
		<tag k="place" v="islet" />
		<tag k="ssr:stedsnr" v="741875" />
	</node>
	<node id="-846176" lat="63.7564333376" lon="9.61234721548">
		<tag k="name" v="Engnesøra" />
		<tag k="natural" v="beach" />
		<tag k="place" v="locality" />
		<tag k="ssr:stedsnr" v="576549" />
	</node>
	<node id="-846224" lat="63.8205027814" lon="9.42782777349">
		<tag k="name" v="Nordhamna" />
		<tag k="natural" v="bay" />
		<tag k="ssr:stedsnr" v="516200" />
	</node>
	<node id="-846174" lat="63.8197749978" lon="9.66140000419">
		<tag k="name" v="Storkrinsholmen" />
		<tag k="place" v="islet" />
		<tag k="ssr:stedsnr" v="151769" />
	</node>
	<node id="-846169" lat="63.9083583349" lon="9.88080277003">
		<tag k="bay" v="fjord" />
		<tag k="name" v="Lauvøyfjorden" />
		<tag k="natural" v="bay" />
		<tag k="ssr:stedsnr" v="802664" />
	</node>
	<node id="-846164" lat="63.9028277812" lon="9.86950277284">
		<tag k="name" v="Veddersholmen" />
		<tag k="place" v="islet" />
		<tag k="ssr:stedsnr" v="802659" />
	</node>
	<node id="-846155" lat="63.850936111" lon="9.85136666377">
		<tag k="name" v="Brannøya" />
		<tag k="place" v="islet" />
		<tag k="ssr:stedsnr" v="802116" />
	</node>
	<node id="-846154" lat="63.8661638925" lon="9.84861110809">
		<tag k="name" v="Gullvika" />
		<tag k="natural" v="cape" />
		<tag k="ssr:stedsnr" v="862151" />
	</node>
	<node id="-846152" lat="63.8319305517" lon="9.73984443781">
		<tag k="alt_name" v="Flysjaskjæret" />
		<tag k="fixme" v="consider seamark:type=rock or natural=shoal" />
		<tag k="name" v="Kvislan" />
		<tag k="place" v="islet" />
		<tag k="ssr:stedsnr" v="741085" />
	</node>
	<node id="-846151" lat="63.798441667" lon="9.59758055556">
		<tag k="fixme" v="consider seamark:type=rock or natural=shoal" />
		<tag k="name" v="Langskjæret" />
		<tag k="place" v="islet" />
		<tag k="ssr:stedsnr" v="91130" />
	</node>
	<node id="-846147" lat="63.7216000038" lon="9.83590277508">
		<tag k="name" v="Eidsbukta" />
		<tag k="natural" v="bay" />
		<tag k="ssr:stedsnr" v="636401" />
	</node>
	<node id="-846144" lat="63.7191305514" lon="9.83541111706">
		<tag k="name" v="Rundholmen" />
		<tag k="place" v="islet" />
		<tag k="ssr:stedsnr" v="636400" />
	</node>
	<node id="-846138" lat="63.7157972242" lon="9.81469722483">
		<tag k="name" v="Markbukta" />
		<tag k="natural" v="bay" />
		<tag k="ssr:stedsnr" v="636399" />
	</node>
	<node id="-846135" lat="63.8645861128" lon="9.77780832852">
		<tag k="name" v="Høgholmen" />
		<tag k="place" v="islet" />
		<tag k="ssr:stedsnr" v="151761" />
	</node>
	<node id="-846130" lat="63.9139277802" lon="9.78272776948">
		<tag k="name" v="Håskallflua" />
		<tag k="natural" v="shoal" />
		<tag k="place" v="locality" />
		<tag k="ssr:stedsnr" v="819051" />
	</node>
	<node id="-846129" lat="63.8574888881" lon="9.68353610876">
		<tag k="name" v="Torra" />
		<tag k="place" v="islet" />
		<tag k="ssr:stedsnr" v="13832" />
	</node>
	<node id="-846128" lat="63.7791999996" lon="9.56856388473">
		<tag k="fixme" v="consider seamark:type=rock or natural=shoal" />
		<tag k="name" v="Rastskjæret" />
		<tag k="place" v="islet" />
		<tag k="ssr:stedsnr" v="940490" />
	</node>
	<node id="-846126" lat="63.9658638852" lon="9.72601944006">
		<tag k="fixme" v="consider seamark:type=rock or natural=shoal" />
		<tag k="name" v="Båan" />
		<tag k="place" v="islet" />
		<tag k="ssr:stedsnr" v="91961" />
	</node>
	<node id="-846124" lat="63.8002722263" lon="9.37601666203">
		<tag k="name" v="Litlkarlsøya" />
		<tag k="place" v="islet" />
		<tag k="ssr:stedsnr" v="498678" />
	</node>
	<node id="-846121" lat="63.8428305558" lon="9.53256666783">
		<tag k="fixme" v="consider seamark:type=rock or natural=shoal" />
		<tag k="name" v="Klauvskjæret" />
		<tag k="place" v="islet" />
		<tag k="ssr:stedsnr" v="862665" />
	</node>
	<node id="-846118" lat="63.876277776" lon="9.80016666057">
		<tag k="name" v="Sør-Madsøybukta" />
		<tag k="natural" v="bay" />
		<tag k="ssr:stedsnr" v="698717" />
	</node>
	<node id="-846117" lat="63.849613886" lon="9.66132221562">
		<tag k="fixme" v="consider seamark:type=rock or natural=shoal" />
		<tag k="name" v="Råskjæret" />
		<tag k="place" v="islet" />
		<tag k="ssr:stedsnr" v="880383" />
	</node>
	<node id="-844340" lat="63.9230055543" lon="9.74311665806">
		<tag k="name" v="Hestøyråsa" />
		<tag k="place" v="locality" />
		<tag k="ssr:stedsnr" v="30017" />
	</node>
	<node id="-846115" lat="63.8553749995" lon="9.54993055167">
		<tag k="fixme" v="consider seamark:type=rock or natural=shoal" />
		<tag k="name" v="Høgskjæra" />
		<tag k="place" v="islet" />
		<tag k="ssr:stedsnr" v="13830" />
	</node>
	<node id="-846114" lat="63.8930777787" lon="9.74466945413">
		<tag k="fixme" v="consider seamark:type=rock or natural=shoal" />
		<tag k="name" v="Leiaskjæra" />
		<tag k="place" v="islet" />
		<tag k="ssr:stedsnr" v="377595" />
	</node>
	<node id="-846111" lat="63.8416861143" lon="9.80343054851">
		<tag k="name" v="Rønningsbukta" />
		<tag k="natural" v="bay" />
		<tag k="ssr:stedsnr" v="134097" />
	</node>
	<node id="-846108" lat="63.8435138863" lon="9.62055554807">
		<tag k="name" v="Albakflua" />
		<tag k="natural" v="shoal" />
		<tag k="place" v="locality" />
		<tag k="ssr:stedsnr" v="819425" />
	</node>
	<node id="-846107" lat="63.878650003" lon="9.81225833411">
		<tag k="name" v="Madsøybukta" />
		<tag k="natural" v="bay" />
		<tag k="ssr:stedsnr" v="636366" />
	</node>
	<node id="-846103" lat="63.879486115" lon="9.9476111118">
		<tag k="bay" v="fjord" />
		<tag k="name" v="Oldfjorden" />
		<tag k="natural" v="bay" />
		<tag k="ssr:stedsnr" v="134626" />
	</node>
	<node id="-846094" lat="63.8584750002" lon="9.62029445335">
		<tag k="fixme" v="consider seamark:type=rock or natural=shoal" />
		<tag k="name" v="Kverna" />
		<tag k="place" v="islet" />
		<tag k="ssr:stedsnr" v="13827" />
	</node>
	<node id="-846092" lat="63.8395111072" lon="9.54219999854">
		<tag k="name" v="Kobbholman" />
		<tag k="place" v="islet" />
		<tag k="ssr:stedsnr" v="862667" />
	</node>
	<node id="-846089" lat="63.74972778" lon="9.69297500058">
		<tag k="name" v="Nervikstranda" />
		<tag k="natural" v="beach" />
		<tag k="place" v="locality" />
		<tag k="ssr:stedsnr" v="151323" />
	</node>
	<node id="-846080" lat="63.88924444" lon="9.83674166776">
		<tag k="name" v="Lysøya" />
		<tag k="place" v="island" />
		<tag k="ssr:stedsnr" v="134628" />
	</node>
	<node id="-846075" lat="63.802147218" lon="9.60238889793">
		<tag k="fixme" v="consider seamark:type=rock or natural=shoal" />
		<tag k="name" v="Rundklumpen" />
		<tag k="place" v="islet" />
		<tag k="ssr:stedsnr" v="576128" />
	</node>
	<node id="-846069" lat="63.7679305575" lon="9.57221667205">
		<tag k="name" v="Festholmbukta" />
		<tag k="natural" v="bay" />
		<tag k="ssr:stedsnr" v="923755" />
	</node>
	<node id="-846063" lat="63.8025916695" lon="9.51501666319">
		<tag k="fixme" v="consider seamark:type=rock or natural=shoal" />
		<tag k="name" v="Undtarva" />
		<tag k="place" v="islet" />
		<tag k="ssr:stedsnr" v="637226" />
	</node>
	<node id="-846060" lat="63.7668527787" lon="9.77645277929">
		<tag k="fixme" v="consider seamark:type=rock or natural=shoal" />
		<tag k="name" v="Karlestrandskjeret" />
		<tag k="place" v="islet" />
		<tag k="ssr:stedsnr" v="455440" />
	</node>
	<node id="-846058" lat="63.7580833358" lon="9.72523611016">
		<tag k="fixme" v="consider seamark:type=rock or natural=shoal" />
		<tag k="name" v="Purka" />
		<tag k="place" v="islet" />
		<tag k="ssr:stedsnr" v="819419" />
	</node>
	<node id="-846057" lat="63.7955944478" lon="9.41638610861">
		<tag k="name" v="Haugen" />
		<tag k="natural" v="cape" />
		<tag k="ssr:stedsnr" v="438669" />
	</node>
	<node id="-846053" lat="63.8843277746" lon="9.94093611853">
		<tag k="name" v="Øyabukta" />
		<tag k="natural" v="bay" />
		<tag k="ssr:stedsnr" v="334519" />
	</node>
	<node id="-844496" lat="63.8185388873" lon="9.39179444353">
		<tag k="name" v="Sør Gabrielholmen" />
		<tag k="place" v="islet" />
		<tag k="ssr:stedsnr" v="455200" />
	</node>
	<node id="-846543" lat="63.826719445" lon="9.50828333866">
		<tag k="name" v="Stavøya" />
		<tag k="place" v="island" />
		<tag k="ssr:stedsnr" v="498719" />
	</node>
	<node id="-846040" lat="63.8766666712" lon="9.79771110216">
		<tag k="name" v="Holmtåa" />
		<tag k="natural" v="cape" />
		<tag k="ssr:stedsnr" v="151748" />
	</node>
	<node id="-846036" lat="63.8837638853" lon="9.9455166735">
		<tag k="name" v="Oldøya" />
		<tag k="place" v="islet" />
		<tag k="ssr:stedsnr" v="134624" />
	</node>
	<node id="-846034" lat="63.8813333294" lon="9.80671667233">
		<tag k="name" v="Fiskholmen" />
		<tag k="place" v="islet" />
		<tag k="ssr:stedsnr" v="576518" />
	</node>
	<node id="-846021" lat="63.8285333307" lon="9.42106667485">
		<tag k="name" v="Kvitingskeila" />
		<tag k="natural" v="strait" />
		<tag k="ssr:stedsnr" v="333231" />
	</node>
	<node id="-844490" lat="63.8234916701" lon="9.41791666868">
		<tag k="alt_name" v="Valøy" />
		<tag k="name" v="Valøya" />
		<tag k="natural" v="cape" />
		<tag k="ssr:stedsnr" v="680704" />
	</node>
	<node id="-846003" lat="63.8272694459" lon="9.7405333394">
		<tag k="name" v="Gravdalsholmen" />
		<tag k="place" v="islet" />
		<tag k="ssr:stedsnr" v="134088" />
	</node>
	<node id="-846001" lat="63.8498611138" lon="9.57178610525">
		<tag k="fixme" v="consider seamark:type=rock or natural=shoal" />
		<tag k="name" v="Kronborgskjæra" />
		<tag k="place" v="islet" />
		<tag k="ssr:stedsnr" v="195689" />
	</node>
	<node id="-846041" lat="63.846427781" lon="9.63119444626">
		<tag k="name" v="Medflua" />
		<tag k="natural" v="shoal" />
		<tag k="place" v="locality" />
		<tag k="ssr:stedsnr" v="819423" />
	</node>
	<node id="-845995" lat="63.8552416656" lon="9.72536389461">
		<tag k="name" v="Vasøya" />
		<tag k="natural" v="cape" />
		<tag k="ssr:stedsnr" v="862134" />
	</node>
	<node id="-845992" lat="63.8246583309" lon="9.76043889474">
		<tag k="name" v="Kaldkleivneset" />
		<tag k="natural" v="cape" />
		<tag k="ssr:stedsnr" v="880801" />
	</node>
	<node id="-845991" lat="63.7399305529" lon="9.89356666829">
		<tag k="name" v="Båtvika" />
		<tag k="natural" v="bay" />
		<tag k="ssr:stedsnr" v="455429" />
	</node>
	<node id="-845988" lat="63.7816722215" lon="9.35400276768">
		<tag k="fixme" v="consider seamark:type=rock or natural=shoal" />
		<tag k="name" v="Skarvskjæret" />
		<tag k="place" v="islet" />
		<tag k="ssr:stedsnr" v="213077" />
	</node>
	<node id="-844486" lat="63.9421333374" lon="9.74431944471">
		<tag k="fixme" v="consider seamark:type=rock or natural=shoal" />
		<tag k="name" v="Leiskjæret" />
		<tag k="place" v="islet" />
		<tag k="ssr:stedsnr" v="742522" />
	</node>
	<node id="-845984" lat="63.8995000044" lon="9.79214445295">
		<tag k="name" v="Oterholmen" />
		<tag k="place" v="islet" />
		<tag k="ssr:stedsnr" v="455027" />
	</node>
	<node id="-845981" lat="63.9290861142" lon="9.80915277336">
		<tag k="name" v="Storfalla" />
		<tag k="natural" v="shoal" />
		<tag k="place" v="locality" />
		<tag k="ssr:stedsnr" v="697025" />
	</node>
	<node id="-845980" lat="63.8623777738" lon="9.7759694412">
		<tag k="fixme" v="consider seamark:type=rock or natural=shoal" />
		<tag k="name" v="Småskjæra" />
		<tag k="place" v="islet" />
		<tag k="ssr:stedsnr" v="698725" />
	</node>
	<node id="-845978" lat="63.9591555529" lon="9.54247223123">
		<tag k="alt_name" v="Flatholmen, store" />
		<tag k="name" v="Store Flatholmen" />
		<tag k="place" v="islet" />
		<tag k="ssr:stedsnr" v="13816" />
	</node>
	<node id="-845977" lat="63.8365722233" lon="9.77980277333">
		<tag k="name" v="Vikagrunnen" />
		<tag k="natural" v="shoal" />
		<tag k="place" v="locality" />
		<tag k="ssr:stedsnr" v="151731" />
	</node>
	<node id="-845974" lat="63.8317944412" lon="9.80531944634">
		<tag k="name" v="Rauhammaren" />
		<tag k="natural" v="cape" />
		<tag k="ssr:stedsnr" v="273809" />
	</node>
	<node id="-845970" lat="63.9242583292" lon="9.68232778731">
		<tag k="name" v="Leirbakken" />
		<tag k="place" v="locality" />
		<tag k="ssr:stedsnr" v="576950" />
	</node>
	<node id="-845967" lat="63.7674861089" lon="9.75824722549">
		<tag k="fixme" v="consider seamark:type=rock or natural=shoal" />
		<tag k="name" v="Smeplasskjæret" />
		<tag k="place" v="islet" />
		<tag k="ssr:stedsnr" v="394472" />
	</node>
	<node id="-845966" lat="63.8367777774" lon="9.52121111406">
		<tag k="name" v="Burøya" />
		<tag k="place" v="islet" />
		<tag k="ssr:stedsnr" v="195684" />
	</node>
	<node id="-845959" lat="63.9986111127" lon="9.64722222642">
		<tag k="name" v="Nord Avbregda" />
		<tag k="natural" v="shoal" />
		<tag k="place" v="locality" />
		<tag k="ssr:stedsnr" v="803962" />
	</node>
	<node id="-845957" lat="63.7531027775" lon="10.0260472249">
		<tag k="name" v="Bjørkvikflua" />
		<tag k="natural" v="shoal" />
		<tag k="place" v="locality" />
		<tag k="ssr:stedsnr" v="334924" />
	</node>
	<node id="-845952" lat="63.8311694449" lon="9.72955832952">
		<tag k="name" v="Båtvika" />
		<tag k="natural" v="bay" />
		<tag k="ssr:stedsnr" v="515700" />
	</node>
	<node id="-845950" lat="63.7961166623" lon="9.59083332342">
		<tag k="fixme" v="consider seamark:type=rock or natural=shoal" />
		<tag k="name" v="Tindskjæret" />
		<tag k="place" v="islet" />
		<tag k="ssr:stedsnr" v="152151" />
	</node>
	<node id="-845947" lat="63.8561833349" lon="9.87400555963">
		<tag k="name" v="Naustbukta" />
		<tag k="natural" v="bay" />
		<tag k="ssr:stedsnr" v="819398" />
	</node>
	<node id="-845937" lat="63.8868583337" lon="9.65934444854">
		<tag k="fixme" v="consider seamark:type=rock or natural=shoal" />
		<tag k="name" v="Svartskjæra" />
		<tag k="place" v="islet" />
		<tag k="ssr:stedsnr" v="134865" />
	</node>
	<node id="-845930" lat="63.7840194438" lon="9.58094165902">
		<tag k="name" v="Raunesa" />
		<tag k="natural" v="cape" />
		<tag k="ssr:stedsnr" v="334485" />
	</node>
	<node id="-845928" lat="63.8059861095" lon="9.64996388317">
		<tag k="name" v="Steinvikbukta" />
		<tag k="natural" v="bay" />
		<tag k="ssr:stedsnr" v="576510" />
	</node>
	<node id="-845925" lat="63.8732500001" lon="9.74886944562">
		<tag k="name" v="Mosholmen" />
		<tag k="place" v="islet" />
		<tag k="ssr:stedsnr" v="880363" />
	</node>
	<node id="-845919" lat="63.8134527755" lon="9.61857222297">
		<tag k="fixme" v="consider seamark:type=rock or natural=shoal" />
		<tag k="name" v="Gjemsøyskjæra" />
		<tag k="place" v="islet" />
		<tag k="ssr:stedsnr" v="819825" />
	</node>
	<node id="-845914" lat="63.9087333318" lon="9.67194444503">
		<tag k="name" v="Fallråsa" />
		<tag k="natural" v="strait" />
		<tag k="ssr:stedsnr" v="134858" />
	</node>
	<node id="-845909" lat="63.8489000041" lon="9.70057500738">
		<tag k="name" v="Ormhaugneset" />
		<tag k="natural" v="cape" />
		<tag k="ssr:stedsnr" v="880761" />
	</node>
	<node id="-845905" lat="63.8495722214" lon="9.70821667244">
		<tag k="name" v="Nausthylla" />
		<tag k="natural" v="cape" />
		<tag k="ssr:stedsnr" v="880764" />
	</node>
	<node id="-845899" lat="63.8237194435" lon="9.66234722408">
		<tag k="name" v="Valsfjæra" />
		<tag k="natural" v="shoal" />
		<tag k="place" v="locality" />
		<tag k="ssr:stedsnr" v="636774" />
	</node>
	<node id="-845898" lat="63.8218972205" lon="9.62472222872">
		<tag k="name" v="Hesvadholmen" />
		<tag k="place" v="islet" />
		<tag k="ssr:stedsnr" v="819822" />
	</node>
	<node id="-845895" lat="63.9054555562" lon="9.72971388539">
		<tag k="name" v="Årværtaren" />
		<tag k="natural" v="shoal" />
		<tag k="place" v="locality" />
		<tag k="ssr:stedsnr" v="455015" />
	</node>
	<node id="-845889" lat="63.8136916707" lon="9.46196666253">
		<tag k="name" v="Fårøya" />
		<tag k="place" v="islet" />
		<tag k="ssr:stedsnr" v="862648" />
	</node>
	<node id="-845888" lat="63.8380722258" lon="9.90515278032">
		<tag k="name" v="Vasslineset" />
		<tag k="natural" v="cape" />
		<tag k="ssr:stedsnr" v="30682" />
	</node>
	<node id="-845887" lat="63.8209527762" lon="9.44357499856">
		<tag k="fixme" v="consider seamark:type=rock or natural=shoal" />
		<tag k="name" v="Frøya" />
		<tag k="place" v="islet" />
		<tag k="ssr:stedsnr" v="758267" />
	</node>
	<node id="-845884" lat="63.8038555544" lon="9.62377777316">
		<tag k="name" v="Lavikan" />
		<tag k="natural" v="beach" />
		<tag k="place" v="locality" />
		<tag k="ssr:stedsnr" v="576516" />
	</node>
	<node id="-846175" lat="63.8355250002" lon="9.79309165883">
		<tag k="name" v="Jøssundøya" />
		<tag k="place" v="islet" />
		<tag k="ssr:stedsnr" v="680091" />
	</node>
	<node id="-845877" lat="63.8601944438" lon="9.73679445335">
		<tag k="name" v="Hylla" />
		<tag k="natural" v="beach" />
		<tag k="place" v="locality" />
		<tag k="ssr:stedsnr" v="212634" />
	</node>
	<node id="-845871" lat="63.8688250031" lon="9.76344721479">
		<tag k="fixme" v="consider seamark:type=rock or natural=shoal" />
		<tag k="name" v="Tranøygalten" />
		<tag k="place" v="islet" />
		<tag k="ssr:stedsnr" v="212624" />
	</node>
	<node id="-845870" lat="63.8781333351" lon="9.70026388532">
		<tag k="name" v="Gjæsingfluen" />
		<tag k="natural" v="shoal" />
		<tag k="place" v="locality" />
		<tag k="ssr:stedsnr" v="394443" />
	</node>
	<node id="-845869" lat="63.7335666707" lon="9.88939723199">
		<tag k="name" v="Storflua" />
		<tag k="natural" v="shoal" />
		<tag k="place" v="locality" />
		<tag k="ssr:stedsnr" v="334475" />
	</node>
	<node id="-845860" lat="63.736663891" lon="9.88483611663">
		<tag k="name" v="Kjerkfluen" />
		<tag k="natural" v="shoal" />
		<tag k="place" v="locality" />
		<tag k="ssr:stedsnr" v="152546" />
	</node>
	<node id="-845856" lat="63.881355556" lon="9.64358056179">
		<tag k="name" v="Asenleia" />
		<tag k="place" v="locality" />
		<tag k="ssr:stedsnr" v="377833" />
	</node>
	<node id="-845853" lat="63.7877694421" lon="9.58625278746">
		<tag k="name" v="Skjelholmen" />
		<tag k="place" v="islet" />
		<tag k="ssr:stedsnr" v="438644" />
	</node>
	<node id="-845851" lat="63.8763555587" lon="9.68128888656">
		<tag k="name" v="Brattaren" />
		<tag k="natural" v="shoal" />
		<tag k="place" v="locality" />
		<tag k="ssr:stedsnr" v="455397" />
	</node>
	<node id="-845832" lat="63.8916166647" lon="9.89011944155">
		<tag k="name" v="Håmannvika" />
		<tag k="natural" v="bay" />
		<tag k="ssr:stedsnr" v="212617" />
	</node>
	<node id="-845827" lat="63.8946527762" lon="9.86629721944">
		<tag k="alt_name" v="Varpbukta" />
		<tag k="name" v="Vorpbukta" />
		<tag k="natural" v="bay" />
		<tag k="ssr:stedsnr" v="377573" />
	</node>
</osm>
