<?xml version="1.0" encoding="UTF-8"?>
<osm generator="osmapis" version="0.6">
	<node id="-844800" lat="63.7928694439" lon="9.99108055886">
		<tag k="name" v="Vårhaug" />
		<tag k="place" v="locality" />
		<tag k="ssr:stedsnr" v="273619" />
	</node>
	<node id="-846334" lat="63.7617416625" lon="9.98928054689">
		<tag k="name" v="Stallvikmarka" />
		<tag k="place" v="locality" />
		<tag k="ssr:stedsnr" v="74177" />
	</node>
	<node id="-845309" lat="63.8678416703" lon="9.74791111441">
		<tag k="name" v="Vallingen" />
		<tag k="place" v="locality" />
		<tag k="ssr:stedsnr" v="234405" />
	</node>
	<node id="-846331" lat="63.7463555599" lon="9.89216388065">
		<tag k="name" v="Grønnvollen" />
		<tag k="place" v="locality" />
		<tag k="ssr:stedsnr" v="880446" />
	</node>
	<node id="-846328" lat="63.8248138859" lon="10.0440777744">
		<tag k="name" v="Storrognholmyra" />
		<tag k="natural" v="wetland" />
		<tag k="ssr:stedsnr" v="819084" />
	</node>
	<node id="-846325" lat="63.845661115" lon="9.9942249987">
		<tag k="name" v="Skjervasslihalsen" />
		<tag k="place" v="locality" />
		<tag k="ssr:stedsnr" v="394517" />
	</node>
	<node id="-846324" lat="63.7759833318" lon="9.88825278577">
		<tag k="name" v="Stakkstongmyra" />
		<tag k="natural" v="wetland" />
		<tag k="ssr:stedsnr" v="576576" />
	</node>
	<node id="-844456" lat="63.7425916696" lon="9.89452222445">
		<tag k="name" v="Kongsvollen" />
		<tag k="place" v="locality" />
		<tag k="ssr:stedsnr" v="30449" />
	</node>
	<node id="-846312" lat="63.8027638906" lon="10.0583055484">
		<tag k="name" v="Saga" />
		<tag k="place" v="locality" />
		<tag k="ssr:stedsnr" v="91559" />
	</node>
	<node id="-846311" lat="63.7930222213" lon="9.77949721931">
		<tag k="name" v="Langmyra" />
		<tag k="natural" v="wetland" />
		<tag k="ssr:stedsnr" v="923269" />
	</node>
	<node id="-844257" lat="63.8835055573" lon="9.78279167394">
		<tag k="name" v="Sørmyra" />
		<tag k="natural" v="wetland" />
		<tag k="ssr:stedsnr" v="576673" />
	</node>
	<node id="-844253" lat="63.7675833327" lon="9.83379165784">
		<tag k="name" v="Botngårdsmyran" />
		<tag k="natural" v="wetland" />
		<tag k="ssr:stedsnr" v="333368" />
	</node>
	<node id="-844761" lat="63.8379416693" lon="9.78597500321">
		<tag k="name" v="Kveita" />
		<tag k="place" v="locality" />
		<tag k="ssr:stedsnr" v="576743" />
	</node>
	<node id="-844760" lat="63.7530111128" lon="9.86033611695">
		<tag k="name" v="Hellandsmyran" />
		<tag k="natural" v="wetland" />
		<tag k="ssr:stedsnr" v="802229" />
	</node>
	<node id="-845781" lat="63.7598388926" lon="9.88119165728">
		<tag k="name" v="Sibir" />
		<tag k="place" v="locality" />
		<tag k="ssr:stedsnr" v="30664" />
	</node>
	<node id="-844750" lat="63.8274944402" lon="9.8349944415">
		<tag k="name" v="Granskardmyra" />
		<tag k="natural" v="wetland" />
		<tag k="ssr:stedsnr" v="940666" />
	</node>
	<node id="-844621" lat="63.8718944456" lon="9.75519999751">
		<tag k="name" v="Valsøyneset" />
		<tag k="place" v="locality" />
		<tag k="ssr:stedsnr" v="923606" />
	</node>
	<node id="-845218" lat="63.7653805514" lon="9.64951666586">
		<tag k="name" v="Brudalsmyra" />
		<tag k="natural" v="wetland" />
		<tag k="ssr:stedsnr" v="151605" />
	</node>
	<node id="-846280" lat="63.7748944403" lon="9.68557499377">
		<tag k="name" v="Stormyra" />
		<tag k="place" v="locality" />
		<tag k="ssr:stedsnr" v="559733" />
	</node>
	<node id="-846268" lat="63.8351138926" lon="9.860380556">
		<tag k="name" v="Flakalimyran" />
		<tag k="natural" v="wetland" />
		<tag k="ssr:stedsnr" v="620078" />
	</node>
	<node id="-844209" lat="63.7637638901" lon="9.59288611198">
		<tag k="name" v="Nes" />
		<tag k="place" v="locality" />
		<tag k="ssr:stedsnr" v="273512" />
	</node>
	<node id="-845231" lat="63.8154277814" lon="9.43454444553">
		<tag k="name" v="Åkervikmyran" />
		<tag k="natural" v="wetland" />
		<tag k="ssr:stedsnr" v="636223" />
	</node>
	<node id="-844713" lat="63.7898194408" lon="9.73652778016">
		<tag k="name" v="Råmarka" />
		<tag k="place" v="locality" />
		<tag k="ssr:stedsnr" v="498285" />
	</node>
	<node id="-846760" lat="63.7379972186" lon="9.79146944854">
		<tag k="name" v="Råmyra" />
		<tag k="natural" v="wetland" />
		<tag k="ssr:stedsnr" v="455135" />
	</node>
	<node id="-846242" lat="63.7640999974" lon="9.69291666996">
		<tag k="name" v="Strupen" />
		<tag k="place" v="locality" />
		<tag k="ssr:stedsnr" v="636388" />
	</node>
	<node id="-846751" lat="63.8665027784" lon="9.74751666366">
		<tag k="name" v="Plassen" />
		<tag k="place" v="locality" />
		<tag k="ssr:stedsnr" v="515389" />
	</node>
	<node id="-844190" lat="63.7455444473" lon="9.77645555522">
		<tag k="name" v="Svartskogan" />
		<tag k="place" v="locality" />
		<tag k="ssr:stedsnr" v="819154" />
	</node>
	<node id="-846749" lat="63.7525638889" lon="9.81477499925">
		<tag k="name" v="Sætermyra" />
		<tag k="natural" v="wetland" />
		<tag k="ssr:stedsnr" v="698413" />
	</node>
	<node id="-846748" lat="63.740294443" lon="9.78853888134">
		<tag k="name" v="Stjernmyra" />
		<tag k="natural" v="wetland" />
		<tag k="ssr:stedsnr" v="455133" />
	</node>
	<node id="-844696" lat="63.8712333372" lon="9.90577777393">
		<tag k="name" v="Lindsetet" />
		<tag k="place" v="locality" />
		<tag k="ssr:stedsnr" v="273587" />
	</node>
	<node id="-845205" lat="63.8192888871" lon="9.74646667533">
		<tag k="name" v="Gravdalsmyran" />
		<tag k="natural" v="wetland" />
		<tag k="ssr:stedsnr" v="91803" />
	</node>
	<node id="-844180" lat="63.8255888905" lon="10.1222138968">
		<tag k="name" v="Ner Perholet" />
		<tag k="place" v="locality" />
		<tag k="ssr:stedsnr" v="636072" />
	</node>
	<node id="-846226" lat="63.7825555601" lon="9.85723333699">
		<tag k="name" v="Gråsteinen" />
		<tag k="natural" v="stone" />
		<tag k="ssr:stedsnr" v="880404" />
	</node>
	<node id="-844611" lat="63.7724222235" lon="9.59874444176">
		<tag k="name" v="Ålbåsen" />
		<tag k="place" v="locality" />
		<tag k="ssr:stedsnr" v="698483" />
	</node>
	<node id="-846219" lat="63.7648527785" lon="9.60705277711">
		<tag k="name" v="Andersskogen" />
		<tag k="place" v="locality" />
		<tag k="ssr:stedsnr" v="91545" />
	</node>
	<node id="-846729" lat="63.8757805538" lon="10.0355027738">
		<tag k="historic" v="shieling" />
		<tag k="name" v="Sandtjønnvollen" />
		<tag k="place" v="locality" />
		<tag k="ssr:stedsnr" v="940130" />
	</node>
	<node id="-845187" lat="63.7837416659" lon="9.91457223026">
		<tag k="name" v="Skogtoppen" />
		<tag k="place" v="locality" />
		<tag k="ssr:stedsnr" v="758608" />
	</node>
	<node id="-846717" lat="63.7749333305" lon="9.5721833414">
		<tag k="landuse" v="meadow" />
		<tag k="name" v="Hesthagan" />
		<tag k="ssr:stedsnr" v="819528" />
	</node>
	<node id="-846712" lat="63.7745555526" lon="9.90524445304">
		<tag k="name" v="Gråsteinen" />
		<tag k="natural" v="stone" />
		<tag k="ssr:stedsnr" v="455543" />
	</node>
	<node id="-846711" lat="63.8653861102" lon="9.74684166945">
		<tag k="name" v="Urda" />
		<tag k="natural" v="scree" />
		<tag k="ssr:stedsnr" v="576646" />
	</node>
	<node id="-844150" lat="63.8757833366" lon="10.0356055546">
		<tag k="historic" v="shieling" />
		<tag k="name" v="Sandtjønnvollen" />
		<tag k="place" v="locality" />
		<tag k="ssr:stedsnr" v="759071" />
	</node>
	<node id="-845171" lat="63.7775111114" lon="9.92515276792">
		<tag k="name" v="Råa" />
		<tag k="place" v="locality" />
		<tag k="ssr:stedsnr" v="30571" />
	</node>
	<node id="-844658" lat="63.7482500023" lon="9.77438056143">
		<tag k="name" v="Svartmyra" />
		<tag k="natural" v="wetland" />
		<tag k="ssr:stedsnr" v="636158" />
	</node>
	<node id="-846192" lat="63.7463444457" lon="9.78355833345">
		<tag k="name" v="Litlfrødalsholet" />
		<tag k="place" v="locality" />
		<tag k="ssr:stedsnr" v="576138" />
	</node>
	<node id="-846700" lat="63.7546861069" lon="9.7779333247">
		<tag k="name" v="Svartmyra" />
		<tag k="natural" v="wetland" />
		<tag k="ssr:stedsnr" v="636470" />
	</node>
	<node id="-844650" lat="63.816647224" lon="9.72621110425">
		<tag k="name" v="Rørmyra" />
		<tag k="natural" v="wetland" />
		<tag k="ssr:stedsnr" v="940682" />
	</node>
	<node id="-845799" lat="63.8352750011" lon="9.66841665933">
		<tag k="name" v="Sørvika" />
		<tag k="place" v="locality" />
		<tag k="ssr:stedsnr" v="334464" />
	</node>
	<node id="-846184" lat="63.7611166674" lon="9.65875555186">
		<tag k="name" v="Storrisvika" />
		<tag k="place" v="locality" />
		<tag k="ssr:stedsnr" v="91539" />
	</node>
	<node id="-846695" lat="63.7294416631" lon="9.81165000448">
		<tag k="name" v="Breilineset" />
		<tag k="place" v="locality" />
		<tag k="ssr:stedsnr" v="698401" />
	</node>
	<node id="-844433" lat="63.7587194451" lon="9.85143611453">
		<tag k="name" v="Slættemyra" />
		<tag k="natural" v="wetland" />
		<tag k="ssr:stedsnr" v="941441" />
	</node>
	<node id="-845666" lat="63.8472333355" lon="9.81241944109">
		<tag k="name" v="Steggan" />
		<tag k="place" v="locality" />
		<tag k="ssr:stedsnr" v="880342" />
	</node>
	<node id="-846689" lat="63.8409666624" lon="9.87643333018">
		<tag k="name" v="Oksdiket" />
		<tag k="place" v="locality" />
		<tag k="ssr:stedsnr" v="940560" />
	</node>
	<node id="-844640" lat="63.7848166683" lon="9.9423888808">
		<tag k="name" v="Granholmyran" />
		<tag k="natural" v="wetland" />
		<tag k="ssr:stedsnr" v="636593" />
	</node>
	<node id="-844638" lat="63.7644055566" lon="9.83819721575">
		<tag k="name" v="Vasskogen" />
		<tag k="place" v="locality" />
		<tag k="ssr:stedsnr" v="377200" />
	</node>
	<node id="-844637" lat="63.8315972188" lon="10.0020138812">
		<tag k="name" v="Selja" />
		<tag k="place" v="locality" />
		<tag k="ssr:stedsnr" v="863061" />
	</node>
	<node id="-845145" lat="63.7831888856" lon="9.93499167358">
		<tag k="name" v="Granholet" />
		<tag k="place" v="locality" />
		<tag k="ssr:stedsnr" v="515585" />
	</node>
	<node id="-844630" lat="63.8406138919" lon="9.88861943622">
		<tag k="name" v="Vargspranget" />
		<tag k="place" v="locality" />
		<tag k="ssr:stedsnr" v="880597" />
	</node>
	<node id="-846163" lat="63.7422805586" lon="9.73650555296">
		<tag k="name" v="Vester Langmyra" />
		<tag k="natural" v="wetland" />
		<tag k="ssr:stedsnr" v="576142" />
	</node>
	<node id="-846674" lat="63.8692972225" lon="9.88561111063">
		<tag k="name" v="Levikmyra" />
		<tag k="place" v="locality" />
		<tag k="ssr:stedsnr" v="394572" />
	</node>
	<node id="-845649" lat="63.8005361112" lon="10.202163883">
		<tag k="name" v="Melbugjøta" />
		<tag k="place" v="locality" />
		<tag k="ssr:stedsnr" v="42970" />
	</node>
	<node id="-846669" lat="63.7612055514" lon="9.97637776843">
		<tag k="name" v="Gardmyra" />
		<tag k="natural" v="wetland" />
		<tag k="ssr:stedsnr" v="940577" />
	</node>
	<node id="-844619" lat="63.7901722249" lon="10.1076500041">
		<tag k="historic" v="shieling" />
		<tag k="name" v="Skardsetra" />
		<tag k="place" v="locality" />
		<tag k="ssr:stedsnr" v="819617" />
	</node>
	<node id="-846153" lat="63.8662361068" lon="9.97560833406">
		<tag k="name" v="Seterhesten" />
		<tag k="place" v="locality" />
		<tag k="ssr:stedsnr" v="576554" />
	</node>
	<node id="-846664" lat="63.8819805524" lon="9.91889723195">
		<tag k="name" v="Ingerreitan" />
		<tag k="place" v="locality" />
		<tag k="ssr:stedsnr" v="334609" />
	</node>
	<node id="-844615" lat="63.7987916656" lon="9.629027784">
		<tag k="name" v="Gråsteinmyra" />
		<tag k="natural" v="wetland" />
		<tag k="ssr:stedsnr" v="151506" />
	</node>
	<node id="-846662" lat="63.8790277749" lon="9.98790833305">
		<tag k="historic" v="shieling" />
		<tag k="name" v="Gammelsetra" />
		<tag k="place" v="locality" />
		<tag k="ssr:stedsnr" v="455529" />
	</node>
	<node id="-845637" lat="63.7439916673" lon="9.88698889304">
		<tag k="name" v="Hønsteinmyra" />
		<tag k="natural" v="wetland" />
		<tag k="ssr:stedsnr" v="91457" />
	</node>
	<node id="-845635" lat="63.7881499968" lon="9.85519721886">
		<tag k="name" v="Duhaugmyra" />
		<tag k="natural" v="wetland" />
		<tag k="ssr:stedsnr" v="394420" />
	</node>
	<node id="-846472" lat="63.8273222209" lon="9.97101389133">
		<tag k="name" v="Nordmarka" />
		<tag k="place" v="locality" />
		<tag k="ssr:stedsnr" v="273050" />
	</node>
	<node id="-845628" lat="63.8113666635" lon="10.0404527763">
		<tag k="name" v="Trenetatesmyra" />
		<tag k="natural" v="wetland" />
		<tag k="ssr:stedsnr" v="680022" />
	</node>
	<node id="-844602" lat="63.8131472244" lon="9.42719721637">
		<tag k="name" v="Langmyra" />
		<tag k="natural" v="wetland" />
		<tag k="ssr:stedsnr" v="940219" />
	</node>
	<node id="-844598" lat="63.7673194461" lon="9.88386667114">
		<tag k="name" v="Svartskogen" />
		<tag k="place" v="locality" />
		<tag k="ssr:stedsnr" v="394662" />
	</node>
	<node id="-844681" lat="63.7603750045" lon="9.67165277475">
		<tag k="name" v="Abrahamsrommet" />
		<tag k="place" v="locality" />
		<tag k="ssr:stedsnr" v="151523" />
	</node>
	<node id="-845619" lat="63.7487861093" lon="9.92069443845">
		<tag k="name" v="Tømmervika" />
		<tag k="place" v="locality" />
		<tag k="ssr:stedsnr" v="576456" />
	</node>
	<node id="-844591" lat="63.8304527767" lon="10.1186583353">
		<tag k="name" v="Perholhytta" />
		<tag k="place" v="locality" />
		<tag k="ssr:stedsnr" v="758070" />
	</node>
	<node id="-845277" lat="63.7394250021" lon="9.74188055128">
		<tag k="name" v="Helvetetesmyra" />
		<tag k="natural" v="wetland" />
		<tag k="ssr:stedsnr" v="316220" />
	</node>
	<node id="-845612" lat="63.7399777762" lon="9.74233611384">
		<tag k="name" v="Helvetesmyra" />
		<tag k="natural" v="wetland" />
		<tag k="ssr:stedsnr" v="212157" />
	</node>
	<node id="-846634" lat="63.7354333303" lon="9.79153333014">
		<tag k="name" v="Bekkakrokan" />
		<tag k="place" v="locality" />
		<tag k="ssr:stedsnr" v="940142" />
	</node>
	<node id="-845532" lat="63.8245111099" lon="9.87150556207">
		<tag k="name" v="Kalkbergmyra" />
		<tag k="natural" v="wetland" />
		<tag k="ssr:stedsnr" v="698649" />
	</node>
	<node id="-846628" lat="63.7953722254" lon="9.64080833547">
		<tag k="name" v="Saumyran" />
		<tag k="natural" v="wetland" />
		<tag k="ssr:stedsnr" v="273485" />
	</node>
	<node id="-846626" lat="63.8284777804" lon="9.84471389481">
		<tag k="name" v="Orrmyran" />
		<tag k="natural" v="wetland" />
		<tag k="ssr:stedsnr" v="516660" />
	</node>
	<node id="-845085" lat="63.8418888867" lon="10.1270388871">
		<tag k="historic" v="shieling" />
		<tag k="name" v="Torsengsetra" />
		<tag k="place" v="locality" />
		<tag k="ssr:stedsnr" v="559081" />
	</node>
	<node id="-844506" lat="63.7997055558" lon="9.41723889046">
		<tag k="name" v="Melkstan" />
		<tag k="place" v="locality" />
		<tag k="ssr:stedsnr" v="880173" />
	</node>
	<node id="-844505" lat="63.7768166658" lon="10.020741663">
		<tag k="name" v="Stormyra" />
		<tag k="natural" v="wetland" />
		<tag k="ssr:stedsnr" v="498260" />
	</node>
	<node id="-845576" lat="63.7663944406" lon="9.9317694342">
		<tag k="historic" v="shieling" />
		<tag k="name" v="Søtviksetra" />
		<tag k="place" v="locality" />
		<tag k="ssr:stedsnr" v="151670" />
	</node>
	<node id="-845062" lat="63.7897222243" lon="9.90768889594">
		<tag k="name" v="Langlineset" />
		<tag k="place" v="locality" />
		<tag k="ssr:stedsnr" v="515570" />
	</node>
	<node id="-845059" lat="63.8094055598" lon="10.1911777691">
		<tag k="name" v="Elgholet" />
		<tag k="place" v="locality" />
		<tag k="ssr:stedsnr" v="119209" />
	</node>
	<node id="-844424" lat="63.8945361144" lon="9.92273333645">
		<tag k="name" v="Vorpa" />
		<tag k="place" v="locality" />
		<tag k="ssr:stedsnr" v="455595" />
	</node>
	<node id="-845558" lat="63.8328972227" lon="9.73691388783">
		<tag k="name" v="Flysjan" />
		<tag k="place" v="locality" />
		<tag k="ssr:stedsnr" v="394802" />
	</node>
	<node id="-845557" lat="63.7622861106" lon="9.71556111713">
		<tag k="name" v="Skarpnæringen" />
		<tag k="place" v="locality" />
		<tag k="ssr:stedsnr" v="91437" />
	</node>
	<node id="-845556" lat="63.8676055522" lon="9.7467250081">
		<tag k="name" v="Maritparken" />
		<tag k="place" v="locality" />
		<tag k="ssr:stedsnr" v="758665" />
	</node>
	<node id="-845041" lat="63.7463861096" lon="9.84306666308">
		<tag k="name" v="Furunesmyran" />
		<tag k="natural" v="wetland" />
		<tag k="ssr:stedsnr" v="91363" />
	</node>
	<node id="-846574" lat="63.8171888873" lon="10.0071027747">
		<tag k="name" v="Siverthogsten" />
		<tag k="place" v="locality" />
		<tag k="ssr:stedsnr" v="273064" />
	</node>
	<node id="-845035" lat="63.8326888912" lon="9.71444998995">
		<tag k="name" v="Stolpmyra" />
		<tag k="natural" v="wetland" />
		<tag k="ssr:stedsnr" v="819709" />
	</node>
	<node id="-846054" lat="63.8485694468" lon="9.78568334142">
		<tag k="name" v="Jøssundmyran" />
		<tag k="natural" v="wetland" />
		<tag k="ssr:stedsnr" v="30708" />
	</node>
	<node id="-846051" lat="63.7746972218" lon="9.62730555637">
		<tag k="name" v="Nesurda" />
		<tag k="natural" v="scree" />
		<tag k="ssr:stedsnr" v="576540" />
	</node>
	<node id="-846559" lat="63.8536361074" lon="10.0403138808">
		<tag k="name" v="Steinvassholet" />
		<tag k="place" v="locality" />
		<tag k="ssr:stedsnr" v="940102" />
	</node>
	<node id="-846046" lat="63.7357305587" lon="9.80026945004">
		<tag k="name" v="Vikamyra" />
		<tag k="natural" v="wetland" />
		<tag k="ssr:stedsnr" v="576132" />
	</node>
	<node id="-844814" lat="63.8001555568" lon="9.42237499699">
		<tag k="landuse" v="meadow" />
		<tag k="name" v="Sand" />
		<tag k="ssr:stedsnr" v="636182" />
	</node>
	<node id="-846044" lat="63.843788893" lon="9.95659166258">
		<tag k="name" v="Sauholet" />
		<tag k="place" v="locality" />
		<tag k="ssr:stedsnr" v="576542" />
	</node>
	<node id="-846042" lat="63.7371694447" lon="9.80338332574">
		<tag k="name" v="Pålmyra" />
		<tag k="natural" v="wetland" />
		<tag k="ssr:stedsnr" v="576133" />
	</node>
	<node id="-845529" lat="63.7643333326" lon="9.69033611348">
		<tag k="name" v="Bergvollen" />
		<tag k="place" v="locality" />
		<tag k="ssr:stedsnr" v="940387" />
	</node>
	<node id="-845525" lat="63.8225888861" lon="9.97189166301">
		<tag k="name" v="Nordmyran" />
		<tag k="natural" v="wetland" />
		<tag k="ssr:stedsnr" v="91036" />
	</node>
	<node id="-845011" lat="63.76634444" lon="10.0263861143">
		<tag k="name" v="Ørnklova" />
		<tag k="natural" v="scree" />
		<tag k="ssr:stedsnr" v="698573" />
	</node>
	<node id="-845010" lat="63.7324305515" lon="9.79351388574">
		<tag k="name" v="Lomtjønnmyra" />
		<tag k="natural" v="wetland" />
		<tag k="ssr:stedsnr" v="758162" />
	</node>
	<node id="-846032" lat="63.7495749988" lon="9.72895833378">
		<tag k="name" v="Brandmoen" />
		<tag k="place" v="locality" />
		<tag k="ssr:stedsnr" v="880395" />
	</node>
	<node id="-845007" lat="63.7864083318" lon="10.0464583292">
		<tag k="name" v="Aneplassen" />
		<tag k="place" v="locality" />
		<tag k="ssr:stedsnr" v="636650" />
	</node>
	<node id="-844237" lat="63.8178666633" lon="9.96438054863">
		<tag k="name" v="Sagplassen" />
		<tag k="place" v="locality" />
		<tag k="ssr:stedsnr" v="698047" />
	</node>
	<node id="-844491" lat="63.7883305513" lon="9.60679444149">
		<tag k="name" v="Brusletta" />
		<tag k="place" v="locality" />
		<tag k="ssr:stedsnr" v="698488" />
	</node>
	<node id="-846031" lat="63.830427775" lon="10.0289888856">
		<tag k="name" v="Tømmerbrua" />
		<tag k="place" v="locality" />
		<tag k="ssr:stedsnr" v="394068" />
	</node>
	<node id="-846532" lat="63.7350638862" lon="9.8151527835">
		<tag k="name" v="Skavdalsbrekka" />
		<tag k="place" v="locality" />
		<tag k="ssr:stedsnr" v="636440" />
	</node>
	<node id="-844995" lat="63.815238893" lon="9.41654167634">
		<tag k="name" v="Stråmyra" />
		<tag k="natural" v="wetland" />
		<tag k="ssr:stedsnr" v="636208" />
	</node>
	<node id="-845506" lat="63.7232638884" lon="9.81634166284">
		<tag k="name" v="Fabrikkmyra" />
		<tag k="natural" v="wetland" />
		<tag k="ssr:stedsnr" v="91433" />
	</node>
	<node id="-844481" lat="63.7662861108" lon="9.95303610172">
		<tag k="historic" v="shieling" />
		<tag k="name" v="Setervollen" />
		<tag k="place" v="locality" />
		<tag k="ssr:stedsnr" v="697613" />
	</node>
	<node id="-845503" lat="63.7427638861" lon="9.78069999473">
		<tag k="name" v="Lomstjønnmyra" />
		<tag k="natural" v="wetland" />
		<tag k="ssr:stedsnr" v="212140" />
	</node>
	<node id="-845496" lat="63.8065555552" lon="9.42278889659">
		<tag k="name" v="Gammelgården" />
		<tag k="place" v="locality" />
		<tag k="ssr:stedsnr" v="515179" />
	</node>
	<node id="-844981" lat="63.8731388857" lon="9.90197777465">
		<tag k="name" v="Flymyra" />
		<tag k="natural" v="wetland" />
		<tag k="ssr:stedsnr" v="698567" />
	</node>
	<node id="-844980" lat="63.8700944477" lon="9.94670000722">
		<tag k="name" v="Brenna" />
		<tag k="place" v="locality" />
		<tag k="ssr:stedsnr" v="30541" />
	</node>
	<node id="-844977" lat="63.8896083318" lon="9.79301110462">
		<tag k="name" v="Skjåbergmyra" />
		<tag k="natural" v="wetland" />
		<tag k="ssr:stedsnr" v="576377" />
	</node>
	<node id="-845998" lat="63.8146972196" lon="10.0746805548">
		<tag k="name" v="Rundhaugmyran" />
		<tag k="natural" v="wetland" />
		<tag k="ssr:stedsnr" v="316036" />
	</node>
	<node id="-845485" lat="63.7878805551" lon="10.1444027814">
		<tag k="name" v="Petterholet" />
		<tag k="place" v="locality" />
		<tag k="ssr:stedsnr" v="770908" />
	</node>
	<node id="-846508" lat="63.7887166652" lon="9.95333888145">
		<tag k="name" v="Torvmyran" />
		<tag k="natural" v="wetland" />
		<tag k="ssr:stedsnr" v="91593" />
	</node>
	<node id="-845480" lat="63.8685333333" lon="9.73463055563">
		<tag k="name" v="Korsvollen" />
		<tag k="place" v="locality" />
		<tag k="ssr:stedsnr" v="394378" />
	</node>
	<node id="-846500" lat="63.8554722218" lon="9.74273334224">
		<tag k="name" v="Nebben" />
		<tag k="place" v="locality" />
		<tag k="ssr:stedsnr" v="212734" />
	</node>
	<node id="-844446" lat="63.7997611085" lon="10.2011527873">
		<tag k="name" v="Lunbrua" />
		<tag k="place" v="locality" />
		<tag k="ssr:stedsnr" v="273542" />
	</node>
	<node id="-845935" lat="63.824405558" lon="9.80858611265">
		<tag k="name" v="Nyheim" />
		<tag k="place" v="locality" />
		<tag k="ssr:stedsnr" v="273364" />
	</node>
	<node id="-845460" lat="63.7717972199" lon="9.89684999591">
		<tag k="name" v="Flakamyra" />
		<tag k="natural" v="wetland" />
		<tag k="ssr:stedsnr" v="333567" />
	</node>
	<node id="-845971" lat="63.7418277761" lon="9.87737223179">
		<tag k="name" v="Liagardan" />
		<tag k="place" v="locality" />
		<tag k="ssr:stedsnr" v="455432" />
	</node>
	<node id="-845507" lat="63.7893416653" lon="9.92013333492">
		<tag k="name" v="Rogndalsholet" />
		<tag k="place" v="locality" />
		<tag k="ssr:stedsnr" v="212563" />
	</node>
	<node id="-846479" lat="63.7885750036" lon="9.69252221815">
		<tag k="name" v="Åskleivmyran" />
		<tag k="natural" v="wetland" />
		<tag k="ssr:stedsnr" v="802698" />
	</node>
	<node id="-844430" lat="63.7679638918" lon="9.70392778458">
		<tag k="name" v="Høgmyran" />
		<tag k="natural" v="wetland" />
		<tag k="ssr:stedsnr" v="212385" />
	</node>
	<node id="-845965" lat="63.7355111111" lon="9.80238056057">
		<tag k="name" v="Vikanmyran" />
		<tag k="natural" v="wetland" />
		<tag k="ssr:stedsnr" v="559173" />
	</node>
	<node id="-845451" lat="63.8833055581" lon="9.91476944231">
		<tag k="name" v="Torvmoen" />
		<tag k="place" v="locality" />
		<tag k="ssr:stedsnr" v="30615" />
	</node>
	<node id="-846474" lat="63.7805249995" lon="9.69070000633">
		<tag k="alt_name" v="Brandvikgårdamyran" />
		<tag k="name" v="Brandvikgårdsmyran" />
		<tag k="natural" v="wetland" />
		<tag k="ssr:stedsnr" v="134669" />
	</node>
	<node id="-845960" lat="63.8465500026" lon="9.75558610939">
		<tag k="name" v="Ner Tussamyra" />
		<tag k="natural" v="wetland" />
		<tag k="ssr:stedsnr" v="698692" />
	</node>
	<node id="-844933" lat="63.8375944475" lon="9.68893611995">
		<tag k="name" v="Oksmyra" />
		<tag k="place" v="locality" />
		<tag k="ssr:stedsnr" v="576769" />
	</node>
	<node id="-844930" lat="63.7561166678" lon="9.86456666454">
		<tag k="name" v="Gollikken" />
		<tag k="place" v="locality" />
		<tag k="ssr:stedsnr" v="212465" />
	</node>
	<node id="-846463" lat="63.8560333327" lon="10.0835249963">
		<tag k="name" v="Seksortmyra" />
		<tag k="natural" v="wetland" />
		<tag k="ssr:stedsnr" v="940116" />
	</node>
	<node id="-844414" lat="63.8181722252" lon="9.90516111266">
		<tag k="historic" v="shieling" />
		<tag k="name" v="Gammelsetervollen" />
		<tag k="place" v="locality" />
		<tag k="ssr:stedsnr" v="576697" />
	</node>
	<node id="-844924" lat="63.7977527788" lon="9.63775278654">
		<tag k="name" v="Steinvikmyran" />
		<tag k="natural" v="wetland" />
		<tag k="ssr:stedsnr" v="758541" />
	</node>
	<node id="-845435" lat="63.7847833311" lon="9.7152277728">
		<tag k="name" v="Ryskogen" />
		<tag k="place" v="locality" />
		<tag k="ssr:stedsnr" v="516468" />
	</node>
	<node id="-845945" lat="63.8285750025" lon="9.84418888917">
		<tag k="name" v="Årmyra" />
		<tag k="natural" v="wetland" />
		<tag k="ssr:stedsnr" v="134080" />
	</node>
	<node id="-845941" lat="63.8190527741" lon="9.72166944129">
		<tag k="name" v="Tørrem" />
		<tag k="place" v="locality" />
		<tag k="ssr:stedsnr" v="377048" />
	</node>
	<node id="-846448" lat="63.8849888911" lon="9.89538334281">
		<tag k="name" v="Rabben" />
		<tag k="place" v="locality" />
		<tag k="ssr:stedsnr" v="30358" />
	</node>
	<node id="-846447" lat="63.7594888856" lon="9.87370555828">
		<tag k="name" v="Svean" />
		<tag k="place" v="locality" />
		<tag k="ssr:stedsnr" v="880469" />
	</node>
	<node id="-844398" lat="63.7404027751" lon="9.88505000496">
		<tag k="name" v="Holekra" />
		<tag k="place" v="locality" />
		<tag k="ssr:stedsnr" v="515458" />
	</node>
	<node id="-845932" lat="63.8330194424" lon="9.86001388283">
		<tag k="name" v="Flaklimyra" />
		<tag k="natural" v="wetland" />
		<tag k="ssr:stedsnr" v="333652" />
	</node>
	<node id="-844907" lat="63.8589999975" lon="9.92593887907">
		<tag k="name" v="Helstian" />
		<tag k="place" v="locality" />
		<tag k="ssr:stedsnr" v="636608" />
	</node>
	<node id="-845929" lat="63.8043555558" lon="9.77319167206">
		<tag k="name" v="Kopparmyra" />
		<tag k="natural" v="wetland" />
		<tag k="ssr:stedsnr" v="13007" />
	</node>
	<node id="-845922" lat="63.7617805576" lon="9.86652221372">
		<tag k="name" v="Karttrøa" />
		<tag k="place" v="locality" />
		<tag k="ssr:stedsnr" v="91501" />
	</node>
	<node id="-844894" lat="63.7721222261" lon="9.89527222059">
		<tag k="name" v="Solemsmyran" />
		<tag k="natural" v="wetland" />
		<tag k="ssr:stedsnr" v="134241" />
	</node>
	<node id="-844380" lat="63.8154249981" lon="9.40621665749">
		<tag k="name" v="Lommyra" />
		<tag k="natural" v="wetland" />
		<tag k="ssr:stedsnr" v="940202" />
	</node>
	<node id="-844890" lat="63.8905833291" lon="9.93005277572">
		<tag k="name" v="Munken" />
		<tag k="place" v="locality" />
		<tag k="ssr:stedsnr" v="273633" />
	</node>
	<node id="-846425" lat="63.807888893" lon="10.0115194453">
		<tag k="name" v="Tyssbotnmarka" />
		<tag k="place" v="locality" />
		<tag k="ssr:stedsnr" v="394534" />
	</node>
	<node id="-845400" lat="63.7832361085" lon="9.7660888825">
		<tag k="landuse" v="meadow" />
		<tag k="name" v="Kottenget" />
		<tag k="ssr:stedsnr" v="516472" />
	</node>
	<node id="-844299" lat="63.7292388894" lon="9.85410278086">
		<tag k="name" v="Vargmyra" />
		<tag k="natural" v="wetland" />
		<tag k="ssr:stedsnr" v="151451" />
	</node>
	<node id="-845907" lat="63.8169027777" lon="9.85504445341">
		<tag k="name" v="Skogsmyra" />
		<tag k="natural" v="wetland" />
		<tag k="ssr:stedsnr" v="880355" />
	</node>
	<node id="-844878" lat="63.7793222264" lon="9.59522499635">
		<tag k="name" v="Hellemsmyran" />
		<tag k="natural" v="wetland" />
		<tag k="ssr:stedsnr" v="515519" />
	</node>
	<node id="-844360" lat="63.8041722265" lon="9.40096110243">
		<tag k="name" v="Stallmyra" />
		<tag k="natural" v="wetland" />
		<tag k="ssr:stedsnr" v="255655" />
	</node>
	<node id="-845892" lat="63.8050333297" lon="10.0311833295">
		<tag k="name" v="Flymyra" />
		<tag k="natural" v="wetland" />
		<tag k="ssr:stedsnr" v="13001" />
	</node>
	<node id="-846402" lat="63.7262333289" lon="9.82367500313">
		<tag k="name" v="Trøamyra" />
		<tag k="natural" v="wetland" />
		<tag k="ssr:stedsnr" v="698356" />
	</node>
	<node id="-844865" lat="63.7690527811" lon="9.93364165739">
		<tag k="name" v="Vilhelmskogen" />
		<tag k="place" v="locality" />
		<tag k="ssr:stedsnr" v="819680" />
	</node>
	<node id="-846400" lat="63.8361666658" lon="10.0469527874">
		<tag k="name" v="Olamonslåtten" />
		<tag k="place" v="locality" />
		<tag k="ssr:stedsnr" v="940086" />
	</node>
	<node id="-844863" lat="63.8861722246" lon="9.88443889229">
		<tag k="name" v="Trettvikmyran" />
		<tag k="natural" v="wetland" />
		<tag k="ssr:stedsnr" v="273613" />
	</node>
	<node id="-844859" lat="63.8487111106" lon="9.71948888907">
		<tag k="name" v="Drilsvika" />
		<tag k="place" v="locality" />
		<tag k="ssr:stedsnr" v="91756" />
	</node>
	<node id="-844346" lat="63.8810611131" lon="9.78112222815">
		<tag k="name" v="Tinnan" />
		<tag k="place" v="locality" />
		<tag k="ssr:stedsnr" v="576682" />
	</node>
	<node id="-845881" lat="63.8166861098" lon="10.0680083428">
		<tag k="landuse" v="meadow" />
		<tag k="name" v="Skjeftslættet" />
		<tag k="ssr:stedsnr" v="91097" />
	</node>
	<node id="-845367" lat="63.7755722246" lon="9.85795277175">
		<tag k="name" v="Botnsaga" />
		<tag k="place" v="locality" />
		<tag k="ssr:stedsnr" v="576421" />
	</node>
	<node id="-845875" lat="63.7332833362" lon="9.83784444339">
		<tag k="name" v="Litlheggdalsmyra" />
		<tag k="natural" v="wetland" />
		<tag k="ssr:stedsnr" v="940418" />
	</node>
	<node id="-845357" lat="63.7395916656" lon="9.80504443667">
		<tag k="name" v="Kvernhusrabben" />
		<tag k="place" v="locality" />
		<tag k="ssr:stedsnr" v="212120" />
	</node>
	<node id="-846173" lat="63.7653999956" lon="9.65938611433">
		<tag k="name" v="Risvikholet" />
		<tag k="place" v="locality" />
		<tag k="ssr:stedsnr" v="91537" />
	</node>
	<node id="-846376" lat="63.884627775" lon="9.83732221514">
		<tag k="name" v="Stranda" />
		<tag k="place" v="locality" />
		<tag k="ssr:stedsnr" v="455492" />
	</node>
	<node id="-844327" lat="63.7545472217" lon="9.85733888202">
		<tag k="name" v="Furunesmyran" />
		<tag k="natural" v="wetland" />
		<tag k="ssr:stedsnr" v="151462" />
	</node>
	<node id="-844326" lat="63.8938777742" lon="9.94859166879">
		<tag k="name" v="Aunet" />
		<tag k="place" v="locality" />
		<tag k="ssr:stedsnr" v="273535" />
	</node>
	<node id="-844322" lat="63.8157388931" lon="9.99895555814">
		<tag k="name" v="Langmyra" />
		<tag k="natural" v="wetland" />
		<tag k="ssr:stedsnr" v="151040" />
	</node>
	<node id="-845345" lat="63.8053722267" lon="9.42091665977">
		<tag k="name" v="Steffenkåret" />
		<tag k="place" v="locality" />
		<tag k="ssr:stedsnr" v="758208" />
	</node>
	<node id="-845340" lat="63.803833337" lon="9.41146665683">
		<tag k="name" v="Botnet" />
		<tag k="place" v="locality" />
		<tag k="ssr:stedsnr" v="758209" />
	</node>
	<node id="-844313" lat="63.7751416689" lon="9.61276943643">
		<tag k="name" v="Langmyran" />
		<tag k="natural" v="wetland" />
		<tag k="ssr:stedsnr" v="819562" />
	</node>
	<node id="-845336" lat="63.8187444409" lon="9.85086389695">
		<tag k="name" v="Masterlimyra" />
		<tag k="natural" v="wetland" />
		<tag k="ssr:stedsnr" v="273702" />
	</node>
	<node id="-845334" lat="63.7793805576" lon="9.71343055559">
		<tag k="name" v="Mølnargårdsmyran" />
		<tag k="natural" v="wetland" />
		<tag k="ssr:stedsnr" v="940349" />
	</node>
	<node id="-844821" lat="63.7395166671" lon="9.88578332538">
		<tag k="name" v="Bryggholet" />
		<tag k="place" v="locality" />
		<tag k="ssr:stedsnr" v="394295" />
	</node>
	<node id="-846356" lat="63.7458916694" lon="9.87095278132">
		<tag k="name" v="Saglimyra" />
		<tag k="natural" v="wetland" />
		<tag k="ssr:stedsnr" v="30341" />
	</node>
	<node id="-844819" lat="63.8900722247" lon="9.93839444302">
		<tag k="name" v="Sandvikhalsen" />
		<tag k="place" v="locality" />
		<tag k="ssr:stedsnr" v="151543" />
	</node>
	<node id="-846354" lat="63.8720194465" lon="9.97871111205">
		<tag k="name" v="Mjøsundteigen" />
		<tag k="place" v="locality" />
		<tag k="ssr:stedsnr" v="394537" />
	</node>
	<node id="-844888" lat="63.8701750016" lon="9.9141500054">
		<tag k="name" v="Moen" />
		<tag k="place" v="locality" />
		<tag k="ssr:stedsnr" v="636605" />
	</node>
	<node id="-845326" lat="63.8726222206" lon="9.86525000782">
		<tag k="name" v="Gaupurda" />
		<tag k="natural" v="scree" />
		<tag k="ssr:stedsnr" v="30595" />
	</node>
	<node id="-844973" lat="63.8638277752" lon="9.75523611744">
		<tag k="name" v="Breivika" />
		<tag k="place" v="locality" />
		<tag k="ssr:stedsnr" v="334351" />
	</node>
	<node id="-844811" lat="63.7271083378" lon="9.81256944823">
		<tag k="name" v="Langmyran" />
		<tag k="natural" v="wetland" />
		<tag k="ssr:stedsnr" v="802254" />
	</node>
	<node id="-845484" lat="63.8161888881" lon="9.40933054934">
		<tag k="name" v="Gråsteinmyra" />
		<tag k="natural" v="wetland" />
		<tag k="ssr:stedsnr" v="151215" />
	</node>
	<node id="-845318" lat="63.803477782" lon="9.42662499105">
		<tag k="name" v="Måsmyra" />
		<tag k="natural" v="wetland" />
		<tag k="ssr:stedsnr" v="515176" />
	</node>
	<node id="-845317" lat="63.7629305546" lon="9.88981388615">
		<tag k="name" v="Stormyra" />
		<tag k="natural" v="wetland" />
		<tag k="ssr:stedsnr" v="273699" />
	</node>
	<node id="-845826" lat="63.8116638932" lon="9.4043416639">
		<tag k="name" v="Måsmyra" />
		<tag k="natural" v="wetland" />
		<tag k="ssr:stedsnr" v="212192" />
	</node>
</osm>
