<?xml version="1.0" encoding="UTF-8"?>
<osm generator="osmapis" version="0.6">
	<node id="-846208" lat="63.7385638929" lon="9.87954721928">
		<tag k="cemetery" v="grave" />
		<tag k="name" v="Heggvik kirkegård" />
		<tag k="place" v="locality" />
		<tag k="ssr:stedsnr" v="118276" />
	</node>
	<node id="-844992" lat="63.7384055587" lon="9.87891388318">
		<tag k="alt_name" v="Heggvik kirke;Stjørna" />
		<tag k="amenity" v="place_of_worship" />
		<tag k="denomination" v="lutheran" />
		<tag k="name" v="Hegvik kirke" />
		<tag k="religion" v="christian" />
		<tag k="ssr:stedsnr" v="134253" />
	</node>
	<node id="-845720" lat="63.8614851967" lon="9.80955304098">
		<tag k="alt_name" v="Jøssund" />
		<tag k="amenity" v="place_of_worship" />
		<tag k="denomination" v="lutheran" />
		<tag k="name" v="Jøssund kirke" />
		<tag k="religion" v="christian" />
		<tag k="ssr:stedsnr" v="438109" />
	</node>
	<node id="-846509" lat="63.8540666636" lon="9.9000944501">
		<tag k="name" v="Torsholet" />
		<tag k="ssr:stedsnr" v="151386" />
		<tag k="tourism" v="attraction" />
	</node>
	<node id="-845165" lat="63.7848521449" lon="9.60399624162">
		<tag k="alt_name" v="Nes kirke" />
		<tag k="amenity" v="place_of_worship" />
		<tag k="denomination" v="lutheran" />
		<tag k="name" v="Nes" />
		<tag k="religion" v="christian" />
		<tag k="ssr:stedsnr" v="863645" />
	</node>
	<node id="-845257" lat="63.8031694434" lon="10.0583166747">
		<tag k="name" v="Sagen" />
		<tag k="place" v="locality" />
		<tag k="ssr:stedsnr" v="134007" />
	</node>
	<node id="-845224" lat="63.7590972218" lon="9.73491666567">
		<tag k="alt_name" v="Bjugn" />
		<tag k="amenity" v="place_of_worship" />
		<tag k="denomination" v="lutheran" />
		<tag k="name" v="Bjugn kirke" />
		<tag k="religion" v="christian" />
		<tag k="ssr:stedsnr" v="13205" />
	</node>
</osm>
