<?xml version="1.0" encoding="UTF-8"?>
<osm generator="osmapis" version="0.6">
	<node id="-839872" lat="63.7311555525" lon="9.83303332796">
		<tag k="fixme" v="consider highway=path" />
		<tag k="highway" v="track" />
		<tag k="name" v="Storråa" />
		<tag k="ssr:stedsnr" v="212312" />
	</node>
	<node id="-838718" lat="63.7962611095" lon="9.42835832548">
		<tag k="man_made" v="quay" />
		<tag k="name" v="D/S-kaia" />
		<tag k="place" v="locality" />
		<tag k="ssr:stedsnr" v="758196" />
	</node>
	<node id="-837877" lat="63.7751916628" lon="9.85303888333">
		<tag k="highway" v="path" />
		<tag k="name" v="Botnkleiva" />
		<tag k="ssr:stedsnr" v="212413" />
	</node>
	<node id="-837818" lat="63.8528166664" lon="9.9094222182">
		<tag k="highway" v="path" />
		<tag k="name" v="Helstian" />
		<tag k="ssr:stedsnr" v="91700" />
	</node>
	<node id="-839258" lat="63.8124555572" lon="9.84340556511">
		<tag k="highway" v="path" />
		<tag k="name" v="Finnstien" />
		<tag k="ssr:stedsnr" v="880010" />
	</node>
	<node id="-838872" lat="63.8667222236" lon="9.89030554829">
		<tag k="junction" v="yes" />
		<tag k="name" v="Oldkrysset" />
		<tag k="place" v="locality" />
		<tag k="ssr:stedsnr" v="273317" />
	</node>
	<node id="-837876" lat="63.7959875605" lon="9.42737361279">
		<tag k="leisure" v="marina" />
		<tag k="name" v="Tarva hamn" />
		<tag k="ssr:stedsnr" v="880164" />
	</node>
	<node id="-838006" lat="63.7693055587" lon="9.79581667668">
		<tag k="bridge" v="yes" />
		<tag k="layer" v="1" />
		<tag k="name" v="Mebostadbrua" />
		<tag k="ssr:stedsnr" v="110570" />
	</node>
	<node id="-838805" lat="63.7327694411" lon="9.8795055496">
		<tag k="landuse" v="harbour" />
		<tag k="name" v="Høybakken havn" />
		<tag k="seamark:type" v="harbour" />
		<tag k="ssr:stedsnr" v="334431" />
	</node>
	<node id="-839700" lat="63.7567032789" lon="9.78694565596">
		<tag k="bridge" v="yes" />
		<tag k="layer" v="1" />
		<tag k="name" v="Klakkabrua" />
		<tag k="ssr:stedsnr" v="30351" />
	</node>
	<node id="-838771" lat="63.7700750016" lon="9.36911945435">
		<tag k="landuse" v="harbour" />
		<tag k="name" v="Gyltingshamna" />
		<tag k="seamark:type" v="harbour" />
		<tag k="ssr:stedsnr" v="212130" />
	</node>
	<node id="-839921" lat="63.7805944479" lon="9.38662500009">
		<tag k="landuse" v="harbour" />
		<tag k="name" v="Flatøyhamna" />
		<tag k="seamark:type" v="harbour" />
		<tag k="ssr:stedsnr" v="455128" />
	</node>
	<node id="-838840" lat="63.8339222214" lon="9.70867777024">
		<tag k="fixme" v="consider highway=path" />
		<tag k="highway" v="track" />
		<tag k="name" v="Buskarvegen" />
		<tag k="ssr:stedsnr" v="880729" />
	</node>
	<node id="-838177" lat="63.8000000013" lon="10.2025277729">
		<tag k="bridge" v="yes" />
		<tag k="layer" v="1" />
		<tag k="name" v="Lunbrua" />
		<tag k="ssr:stedsnr" v="831975" />
	</node>
	<node id="-839975" lat="63.7339138902" lon="9.87570556425">
		<tag k="man_made" v="quay" />
		<tag k="name" v="Kaineset" />
		<tag k="place" v="locality" />
		<tag k="ssr:stedsnr" v="698425" />
	</node>
	<node id="-838758" lat="63.8753888917" lon="9.97088889034">
		<tag k="highway" v="path" />
		<tag k="name" v="Jøvikbakken" />
		<tag k="ssr:stedsnr" v="212558" />
	</node>
	<node id="-838533" lat="63.7562805539" lon="9.79960000602">
		<tag k="fixme" v="consider highway=path" />
		<tag k="highway" v="track" />
		<tag k="name" v="Haslavegen" />
		<tag k="ssr:stedsnr" v="455310" />
	</node>
	<node id="-839361" lat="63.790302778" lon="9.59971666076">
		<tag k="man_made" v="quay" />
		<tag k="name" v="Hellem kai" />
		<tag k="place" v="locality" />
		<tag k="ssr:stedsnr" v="212669" />
	</node>
</osm>
