<?xml version="1.0" encoding="UTF-8"?>
<osm generator="osmapis" version="0.6">
	<node id="-844800" lat="63.8740194488" lon="9.83582222865">
		<tag k="name" v="Svartvika" />
		<tag k="place" v="farm" />
		<tag k="ssr:stedsnr" v="680626" />
	</node>
	<node id="-843772" lat="63.8012666699" lon="10.0659500072">
		<tag k="name" v="Skard" />
		<tag k="place" v="farm" />
		<tag k="ssr:stedsnr" v="819290" />
	</node>
	<node id="-843770" lat="63.755058336" lon="9.9454194545">
		<tag k="name" v="Støa" />
		<tag k="place" v="isolated_dwelling" />
		<tag k="ssr:stedsnr" v="515596" />
	</node>
	<node id="-843765" lat="63.7994138932" lon="10.0401138929">
		<tag k="name" v="Nygård" />
		<tag k="place" v="farm" />
		<tag k="ssr:stedsnr" v="134001" />
	</node>
	<node id="-843758" lat="63.8731638898" lon="9.92391110667">
		<tag k="name" v="Olden" />
		<tag k="place" v="farm" />
		<tag k="ssr:stedsnr" v="515594" />
	</node>
	<node id="-843757" lat="63.786997218" lon="9.87821110256">
		<tag k="name" v="Tjønnstua" />
		<tag k="place" v="farm" />
		<tag k="ssr:stedsnr" v="680243" />
	</node>
	<node id="-843752" lat="63.7412666666" lon="9.821141664">
		<tag k="name" v="Vikan" />
		<tag k="place" v="farm" />
		<tag k="ssr:stedsnr" v="13207" />
	</node>
	<node id="-843729" lat="63.7706083355" lon="9.58762221577">
		<tag k="fixme" v="consider place=hamlet" />
		<tag k="name" v="Nes" />
		<tag k="place" v="farm" />
		<tag k="ssr:stedsnr" v="741781" />
	</node>
	<node id="-843724" lat="63.8818361086" lon="9.85346945055">
		<tag k="name" v="Lysøysund" />
		<tag k="place" v="farm" />
		<tag k="ssr:stedsnr" v="516842" />
	</node>
	<node id="-844790" lat="63.7572527806" lon="9.79881943619">
		<tag k="name" v="Grønvollen" />
		<tag k="place" v="farm" />
		<tag k="ssr:stedsnr" v="819885" />
	</node>
	<node id="-843710" lat="63.757705558" lon="9.96773610969">
		<tag k="name" v="Sauholet" />
		<tag k="place" v="isolated_dwelling" />
		<tag k="ssr:stedsnr" v="30574" />
	</node>
	<node id="-843702" lat="63.8508472184" lon="9.75137221546">
		<tag k="name" v="Stor-Sandnes" />
		<tag k="place" v="farm" />
		<tag k="ssr:stedsnr" v="455708" />
	</node>
	<node id="-843701" lat="63.8469416711" lon="9.85230834143">
		<tag k="name" v="Skjeret" />
		<tag k="place" v="farm" />
		<tag k="ssr:stedsnr" v="515575" />
	</node>
	<node id="-843698" lat="63.8515944445" lon="9.89244999003">
		<tag k="fixme" v="consider place=hamlet" />
		<tag k="loc_name" v="Teksdalen" />
		<tag k="name" v="Teksdal" />
		<tag k="place" v="farm" />
		<tag k="ssr:stedsnr" v="559087" />
	</node>
	<node id="-843695" lat="63.7555638904" lon="9.94718888584">
		<tag k="name" v="Søtvika" />
		<tag k="place" v="farm" />
		<tag k="ssr:stedsnr" v="32717" />
	</node>
	<node id="-843692" lat="63.7798472184" lon="9.99200556187">
		<tag k="name" v="Myra" />
		<tag k="place" v="farm" />
		<tag k="ssr:stedsnr" v="636239" />
	</node>
	<node id="-843686" lat="63.8193249989" lon="9.41897222512">
		<tag k="name" v="Myra" />
		<tag k="place" v="farm" />
		<tag k="ssr:stedsnr" v="923676" />
	</node>
	<node id="-844785" lat="63.7500055541" lon="9.71055000127">
		<tag k="name" v="Haug" />
		<tag k="place" v="farm" />
		<tag k="ssr:stedsnr" v="698746" />
	</node>
	<node id="-843678" lat="63.803752778" lon="10.0987305524">
		<tag k="name" v="Berg" />
		<tag k="place" v="farm" />
		<tag k="ssr:stedsnr" v="273256" />
	</node>
	<node id="-843077" lat="63.8429444431" lon="9.83672221669">
		<tag k="name" v="Bakken" />
		<tag k="place" v="farm" />
		<tag k="ssr:stedsnr" v="151940" />
	</node>
	<node id="-843674" lat="63.8327333356" lon="9.8818138925">
		<tag k="name" v="Setra" />
		<tag k="place" v="farm" />
		<tag k="ssr:stedsnr" v="498072" />
	</node>
	<node id="-843673" lat="63.7514083297" lon="9.69532222049">
		<tag k="name" v="Nervika" />
		<tag k="place" v="farm" />
		<tag k="ssr:stedsnr" v="802014" />
	</node>
	<node id="-843668" lat="63.7498638928" lon="9.72258611952">
		<tag k="name" v="Øvergård" />
		<tag k="place" v="farm" />
		<tag k="ssr:stedsnr" v="91795" />
	</node>
	<node id="-843664" lat="63.8299111132" lon="10.0624805563">
		<tag k="name" v="Amunddalshytta" />
		<tag k="place" v="isolated_dwelling" />
		<tag k="ssr:stedsnr" v="212084" />
	</node>
	<node id="-843661" lat="63.7824166657" lon="9.59045833314">
		<tag k="leisure" v="pitch" />
		<tag k="name" v="Nes idrettsplass" />
		<tag k="ssr:stedsnr" v="212511" />
	</node>
	<node id="-843660" lat="63.888788893" lon="9.92666389601">
		<tag k="name" v="Marka" />
		<tag k="place" v="farm" />
		<tag k="ssr:stedsnr" v="516855" />
	</node>
	<node id="-843657" lat="63.7689138875" lon="9.73869721911">
		<tag k="name" v="Moen" />
		<tag k="place" v="farm" />
		<tag k="ssr:stedsnr" v="91800" />
	</node>
	<node id="-843653" lat="63.7476249979" lon="9.69765000333">
		<tag k="name" v="Engvik" />
		<tag k="place" v="farm" />
		<tag k="ssr:stedsnr" v="880272" />
	</node>
	<node id="-843645" lat="63.8048972203" lon="9.67001944062">
		<tag k="name" v="Sandstad" />
		<tag k="place" v="farm" />
		<tag k="ssr:stedsnr" v="923657" />
	</node>
	<node id="-843640" lat="63.7507027783" lon="9.71670278691">
		<tag k="name" v="Myrvang" />
		<tag k="place" v="farm" />
		<tag k="ssr:stedsnr" v="576792" />
	</node>
	<node id="-843639" lat="63.8419055512" lon="9.85727221232">
		<tag k="name" v="Audalen" />
		<tag k="place" v="farm" />
		<tag k="ssr:stedsnr" v="559076" />
	</node>
	<node id="-843636" lat="63.8735083308" lon="9.88469445105">
		<tag k="name" v="Fagerenget" />
		<tag k="place" v="farm" />
		<tag k="ssr:stedsnr" v="880637" />
	</node>
	<node id="-844776" lat="63.740072223" lon="9.71298888674">
		<tag k="name" v="Engan" />
		<tag k="place" v="farm" />
		<tag k="ssr:stedsnr" v="758325" />
	</node>
	<node id="-843624" lat="63.8448694416" lon="9.7100305632">
		<tag k="name" v="Melemsvika" />
		<tag k="place" v="hamlet" />
		<tag k="ssr:stedsnr" v="394731" />
	</node>
	<node id="-843622" lat="63.7687916668" lon="9.56158888734">
		<tag k="name" v="Sandvika" />
		<tag k="place" v="farm" />
		<tag k="ssr:stedsnr" v="880241" />
	</node>
	<node id="-843614" lat="63.7388638894" lon="9.85473888254">
		<tag k="name" v="Volladal" />
		<tag k="place" v="farm" />
		<tag k="ssr:stedsnr" v="316207" />
	</node>
	<node id="-843612" lat="63.7519944438" lon="9.71673889625">
		<tag k="name" v="Ervik" />
		<tag k="place" v="farm" />
		<tag k="ssr:stedsnr" v="91793" />
	</node>
	<node id="-843610" lat="63.7431472206" lon="9.71405555321">
		<tag k="name" v="Erviksletta" />
		<tag k="place" v="farm" />
		<tag k="ssr:stedsnr" v="940298" />
	</node>
	<node id="-843609" lat="63.769133334" lon="9.58306389227">
		<tag k="name" v="Nergården" />
		<tag k="place" v="farm" />
		<tag k="ssr:stedsnr" v="697281" />
	</node>
	<node id="-843605" lat="63.7624666696" lon="9.85981387907">
		<tag k="fixme" v="consider place=hamlet" />
		<tag k="name" v="Haugen" />
		<tag k="place" v="farm" />
		<tag k="ssr:stedsnr" v="924192" />
	</node>
	<node id="-843602" lat="63.7577861083" lon="9.97121944859">
		<tag k="name" v="Stallvik" />
		<tag k="place" v="farm" />
		<tag k="ssr:stedsnr" v="880232" />
	</node>
	<node id="-843595" lat="63.7862499992" lon="9.81348055885">
		<tag k="fixme" v="consider place=hamlet" />
		<tag k="name" v="Lia" />
		<tag k="place" v="farm" />
		<tag k="ssr:stedsnr" v="134258" />
	</node>
	<node id="-843585" lat="63.768208329" lon="9.87361389372">
		<tag k="fixme" v="consider place=hamlet" />
		<tag k="name" v="Solem" />
		<tag k="place" v="farm" />
		<tag k="ssr:stedsnr" v="741230" />
	</node>
	<node id="-843582" lat="63.8623944478" lon="9.81520278165">
		<tag k="name" v="Otervika" />
		<tag k="place" v="farm" />
		<tag k="ssr:stedsnr" v="212932" />
	</node>
	<node id="-843577" lat="63.8653722264" lon="9.75819445149">
		<tag k="name" v="Hambåra" />
		<tag k="place" v="farm" />
		<tag k="ssr:stedsnr" v="212933" />
	</node>
	<node id="-843573" lat="63.7704972212" lon="9.79084165708">
		<tag k="fixme" v="consider place=hamlet" />
		<tag k="name" v="Mebostad" />
		<tag k="place" v="farm" />
		<tag k="ssr:stedsnr" v="620230" />
	</node>
	<node id="-843567" lat="63.7936111117" lon="10.0737972313">
		<tag k="name" v="Nordli" />
		<tag k="place" v="farm" />
		<tag k="ssr:stedsnr" v="256247" />
	</node>
	<node id="-843564" lat="63.7610388859" lon="9.77604166582">
		<tag k="fixme" v="consider place=hamlet" />
		<tag k="name" v="Stuaneset" />
		<tag k="place" v="farm" />
		<tag k="ssr:stedsnr" v="437222" />
	</node>
	<node id="-845105" lat="63.8295411797" lon="9.67389467141">
		<tag k="fixme" v="consider place=hamlet" />
		<tag k="name" v="Val" />
		<tag k="place" v="farm" />
		<tag k="ssr:stedsnr" v="355292" />
	</node>
	<node id="-843555" lat="63.7801555519" lon="9.60431943542">
		<tag k="name" v="Hellem" />
		<tag k="place" v="farm" />
		<tag k="ssr:stedsnr" v="819283" />
	</node>
	<node id="-843554" lat="63.8653333366" lon="9.75368055776">
		<tag k="name" v="Hyllneset" />
		<tag k="place" v="farm" />
		<tag k="ssr:stedsnr" v="273644" />
	</node>
	<node id="-843553" lat="63.7927111132" lon="9.96491389245">
		<tag k="name" v="Gjøljalia" />
		<tag k="place" v="farm" />
		<tag k="ssr:stedsnr" v="151578" />
	</node>
	<node id="-843546" lat="63.8692888853" lon="9.93563611536">
		<tag k="name" v="Øverås" />
		<tag k="place" v="farm" />
		<tag k="ssr:stedsnr" v="212924" />
	</node>
	<node id="-843545" lat="63.7428222194" lon="9.71098889744">
		<tag k="name" v="Solvang" />
		<tag k="place" v="farm" />
		<tag k="ssr:stedsnr" v="455265" />
	</node>
	<node id="-843541" lat="63.8281444407" lon="9.65986389656">
		<tag k="name" v="Bakkavarden hyttefelt" />
		<tag k="place" v="neighbourhood" />
		<tag k="ssr:stedsnr" v="162022" />
	</node>
	<node id="-843538" lat="63.8714999962" lon="9.92635832821">
		<tag k="name" v="Aunet" />
		<tag k="place" v="farm" />
		<tag k="ssr:stedsnr" v="212926" />
	</node>
	<node id="-843525" lat="63.8475138851" lon="9.70507499665">
		<tag k="name" v="Nausthylla hyttefelt" />
		<tag k="place" v="neighbourhood" />
		<tag k="ssr:stedsnr" v="526024" />
	</node>
	<node id="-843524" lat="63.7899055524" lon="9.60506944301">
		<tag k="name" v="Stranda" />
		<tag k="place" v="farm" />
		<tag k="ssr:stedsnr" v="697288" />
	</node>
	<node id="-843522" lat="63.747594445" lon="9.72380277754">
		<tag k="name" v="Fjellheim" />
		<tag k="place" v="farm" />
		<tag k="ssr:stedsnr" v="455273" />
	</node>
	<node id="-843521" lat="63.8000277786" lon="10.050516662">
		<tag k="name" v="Grobekken" />
		<tag k="place" v="isolated_dwelling" />
		<tag k="ssr:stedsnr" v="758579" />
	</node>
	<node id="-843514" lat="63.7572527756" lon="9.98736111797">
		<tag k="name" v="Stallvikberga hyttefelt" />
		<tag k="place" v="neighbourhood" />
		<tag k="ssr:stedsnr" v="180114" />
	</node>
	<node id="-843512" lat="63.8373416642" lon="9.82436666505">
		<tag k="name" v="Einan" />
		<tag k="place" v="farm" />
		<tag k="ssr:stedsnr" v="559074" />
	</node>
	<node id="-844756" lat="63.7548388901" lon="9.81843056178">
		<tag k="name" v="Solbakken" />
		<tag k="place" v="farm" />
		<tag k="ssr:stedsnr" v="819877" />
	</node>
	<node id="-843503" lat="63.7633888922" lon="10.0223861194">
		<tag k="name" v="Brannvika" />
		<tag k="place" v="farm" />
		<tag k="ssr:stedsnr" v="741233" />
	</node>
	<node id="-843501" lat="63.7827833352" lon="9.71633333415">
		<tag k="name" v="Solhaug" />
		<tag k="place" v="farm" />
		<tag k="ssr:stedsnr" v="516828" />
	</node>
	<node id="-843495" lat="63.7252916686" lon="9.83371944338">
		<tag k="name" v="Sørgården" />
		<tag k="place" v="farm" />
		<tag k="ssr:stedsnr" v="802270" />
	</node>
	<node id="-843490" lat="63.8184888858" lon="9.42483889259">
		<tag k="name" v="Nordbuaunet" />
		<tag k="place" v="isolated_dwelling" />
		<tag k="ssr:stedsnr" v="273229" />
	</node>
	<node id="-843483" lat="63.7838972186" lon="9.96223889266">
		<tag k="fixme" v="multiple name tags, choose one and add the other to alt_name" />
		<tag k="name" v="Kammen;Åsheim" />
		<tag k="place" v="farm" />
		<tag k="ssr:stedsnr" v="620221" />
	</node>
	<node id="-843480" lat="63.7701527765" lon="9.58510832323">
		<tag k="name" v="Trøa" />
		<tag k="place" v="farm" />
		<tag k="ssr:stedsnr" v="940264" />
	</node>
	<node id="-843477" lat="63.806733331" lon="10.1130916744">
		<tag k="alt_name" v="Lauvli" />
		<tag k="name" v="Løvli" />
		<tag k="place" v="farm" />
		<tag k="ssr:stedsnr" v="438014" />
	</node>
	<node id="-843475" lat="63.8068249968" lon="9.43706110176">
		<tag k="name" v="Sørstøa" />
		<tag k="place" v="farm" />
		<tag k="ssr:stedsnr" v="516386" />
	</node>
	<node id="-843472" lat="63.8704722268" lon="9.93326666268">
		<tag k="fixme" v="consider place=hamlet" />
		<tag k="name" v="Olden" />
		<tag k="place" v="farm" />
		<tag k="ssr:stedsnr" v="485974" />
	</node>
	<node id="-843469" lat="63.7610805547" lon="9.65507499114">
		<tag k="name" v="Risvika hyttefelt" />
		<tag k="place" v="neighbourhood" />
		<tag k="ssr:stedsnr" v="59094" />
	</node>
	<node id="-843467" lat="63.7979388874" lon="9.64833889039">
		<tag k="name" v="Skogen" />
		<tag k="place" v="farm" />
		<tag k="ssr:stedsnr" v="758543" />
	</node>
	<node id="-843461" lat="63.8202388896" lon="9.95145277604">
		<tag k="name" v="Teksdalssetra" />
		<tag k="place" v="isolated_dwelling" />
		<tag k="ssr:stedsnr" v="498048" />
	</node>
	<node id="-844405" lat="63.8908888897" lon="9.89476389301">
		<tag k="name" v="Nordgården" />
		<tag k="place" v="farm" />
		<tag k="ssr:stedsnr" v="455836" />
	</node>
	<node id="-843452" lat="63.82773611" lon="9.67452499397">
		<tag k="name" v="Breidteig" />
		<tag k="place" v="farm" />
		<tag k="ssr:stedsnr" v="741741" />
	</node>
	<node id="-843447" lat="63.7909472178" lon="9.83762500721">
		<tag k="fixme" v="consider place=hamlet" />
		<tag k="name" v="Grova" />
		<tag k="place" v="farm" />
		<tag k="ssr:stedsnr" v="377224" />
	</node>
	<node id="-843444" lat="63.7310055541" lon="9.84480277714">
		<tag k="name" v="Vassaunet" />
		<tag k="place" v="farm" />
		<tag k="ssr:stedsnr" v="256234" />
	</node>
	<node id="-843443" lat="63.7769472212" lon="9.58759443558">
		<tag k="name" v="Nes" />
		<tag k="place" v="farm" />
		<tag k="ssr:stedsnr" v="940258" />
	</node>
	<node id="-843432" lat="63.8578083371" lon="9.77565556237">
		<tag k="name" v="Fauskan" />
		<tag k="place" v="farm" />
		<tag k="ssr:stedsnr" v="212903" />
	</node>
	<node id="-845084" lat="63.8289583343" lon="9.67597778103">
		<tag k="fixme" v="consider place=hamlet" />
		<tag k="name" v="Val" />
		<tag k="place" v="village" />
		<tag k="ssr:stedsnr" v="498714" />
	</node>
	<node id="-843415" lat="63.8000361113" lon="10.0943027768">
		<tag k="name" v="Haugen" />
		<tag k="place" v="farm" />
		<tag k="ssr:stedsnr" v="377221" />
	</node>
	<node id="-843409" lat="63.7602861075" lon="9.62399722294">
		<tag k="name" v="Lunden" />
		<tag k="place" v="farm" />
		<tag k="ssr:stedsnr" v="802782" />
	</node>
	<node id="-843408" lat="63.7660555529" lon="9.57511944279">
		<tag k="name" v="Sjøhaugen" />
		<tag k="place" v="farm" />
		<tag k="ssr:stedsnr" v="819241" />
	</node>
	<node id="-843400" lat="63.7306090941" lon="9.85192368362">
		<tag k="name" v="Nyheim" />
		<tag k="place" v="farm" />
		<tag k="ssr:stedsnr" v="256229" />
	</node>
	<node id="-843390" lat="63.7392777799" lon="9.80912499221">
		<tag k="name" v="Fjellstad" />
		<tag k="place" v="farm" />
		<tag k="ssr:stedsnr" v="394286" />
	</node>
	<node id="-843387" lat="63.790488889" lon="9.96779444008">
		<tag k="name" v="Slættet" />
		<tag k="place" v="farm" />
		<tag k="ssr:stedsnr" v="498287" />
	</node>
	<node id="-843378" lat="63.7619111075" lon="9.76714444492">
		<tag k="name" v="Stuaneset boligfelt" />
		<tag k="place" v="quarter" />
		<tag k="ssr:stedsnr" v="605134" />
	</node>
	<node id="-843376" lat="63.813508331" lon="9.7071499931">
		<tag k="name" v="Tørrem" />
		<tag k="place" v="hamlet" />
		<tag k="ssr:stedsnr" v="86174" />
	</node>
	<node id="-843373" lat="63.742225002" lon="9.69895833263">
		<tag k="name" v="Aspmyr" />
		<tag k="place" v="farm" />
		<tag k="ssr:stedsnr" v="819687" />
	</node>
	<node id="-843370" lat="63.81451111" lon="9.6678111015">
		<tag k="name" v="Olsvika" />
		<tag k="place" v="farm" />
		<tag k="ssr:stedsnr" v="880229" />
	</node>
	<node id="-843368" lat="63.8693416623" lon="9.9385222279">
		<tag k="name" v="Olden øv." />
		<tag k="place" v="farm" />
		<tag k="ssr:stedsnr" v="151555" />
	</node>
	<node id="-843367" lat="63.7482583352" lon="9.72011110115">
		<tag k="name" v="Heim" />
		<tag k="place" v="farm" />
		<tag k="ssr:stedsnr" v="394283" />
	</node>
	<node id="-843362" lat="63.7989666632" lon="10.0578666641">
		<tag k="name" v="Osen" />
		<tag k="place" v="farm" />
		<tag k="ssr:stedsnr" v="940284" />
	</node>
	<node id="-843361" lat="63.7386972181" lon="9.71255278101">
		<tag k="name" v="Nysetvollen" />
		<tag k="place" v="farm" />
		<tag k="ssr:stedsnr" v="394284" />
	</node>
	<node id="-843355" lat="63.8085222236" lon="10.1259666699">
		<tag k="name" v="Sørli" />
		<tag k="place" v="farm" />
		<tag k="ssr:stedsnr" v="455245" />
	</node>
	<node id="-843352" lat="63.8159416691" lon="9.67115556516">
		<tag k="name" v="Rabben boligfelt" />
		<tag k="place" v="quarter" />
		<tag k="ssr:stedsnr" v="466034" />
	</node>
	<node id="-843350" lat="63.7796500001" lon="10.0816666706">
		<tag k="name" v="Fjellset" />
		<tag k="place" v="farm" />
		<tag k="ssr:stedsnr" v="802252" />
	</node>
	<node id="-843343" lat="63.8478694437" lon="9.81914722965">
		<tag k="name" v="Leset" />
		<tag k="place" v="farm" />
		<tag k="ssr:stedsnr" v="905025" />
	</node>
	<node id="-843338" lat="63.7519277809" lon="9.72941111501">
		<tag k="fixme" v="consider place=hamlet" />
		<tag k="name" v="Ervika" />
		<tag k="place" v="village" />
		<tag k="ssr:stedsnr" v="134761" />
	</node>
	<node id="-843336" lat="63.736411114" lon="9.71302221479">
		<tag k="name" v="Reitan" />
		<tag k="place" v="farm" />
		<tag k="ssr:stedsnr" v="862014" />
	</node>
	<node id="-843326" lat="63.8402777746" lon="9.68323610794">
		<tag k="name" v="Tollefsvika" />
		<tag k="place" v="farm" />
		<tag k="ssr:stedsnr" v="741745" />
	</node>
	<node id="-845066" lat="63.8437638888" lon="9.86844444143">
		<tag k="name" v="Solli" />
		<tag k="place" v="farm" />
		<tag k="ssr:stedsnr" v="455938" />
	</node>
	<node id="-843320" lat="63.8215166699" lon="9.72063612099">
		<tag k="name" v="Skavikan" />
		<tag k="place" v="isolated_dwelling" />
		<tag k="ssr:stedsnr" v="559055" />
	</node>
	<node id="-843315" lat="63.8288194422" lon="9.78542499309">
		<tag k="fixme" v="consider place=hamlet" />
		<tag k="name" v="Sundset" />
		<tag k="place" v="farm" />
		<tag k="ssr:stedsnr" v="863078" />
	</node>
	<node id="-843314" lat="63.7881277756" lon="9.97126388434">
		<tag k="name" v="Åsvang" />
		<tag k="place" v="farm" />
		<tag k="ssr:stedsnr" v="819255" />
	</node>
	<node id="-843306" lat="63.8426027758" lon="9.84403056484">
		<tag k="name" v="Øra" />
		<tag k="place" v="farm" />
		<tag k="ssr:stedsnr" v="698932" />
	</node>
	<node id="-843304" lat="63.8551805547" lon="9.88788333777">
		<tag k="name" v="Åstøa" />
		<tag k="place" v="farm" />
		<tag k="ssr:stedsnr" v="30925" />
	</node>
	<node id="-843300" lat="63.7627145511" lon="9.71378816962">
		<tag k="name" v="Krokvika" />
		<tag k="place" v="farm" />
		<tag k="ssr:stedsnr" v="134759" />
	</node>
	<node id="-843293" lat="63.8003305524" lon="10.0616305638">
		<tag k="name" v="Midtli" />
		<tag k="place" v="farm" />
		<tag k="ssr:stedsnr" v="394273" />
	</node>
	<node id="-843290" lat="63.8010194482" lon="9.64911944129">
		<tag k="fixme" v="consider place=hamlet" />
		<tag k="name" v="Steinvik" />
		<tag k="place" v="farm" />
		<tag k="ssr:stedsnr" v="619658" />
	</node>
	<node id="-843272" lat="63.8231694466" lon="9.81209721389">
		<tag k="name" v="Moan" />
		<tag k="place" v="farm" />
		<tag k="ssr:stedsnr" v="30922" />
	</node>
	<node id="-843271" lat="63.8041249957" lon="9.6368472186">
		<tag k="name" v="Bekkavika" />
		<tag k="place" v="farm" />
		<tag k="ssr:stedsnr" v="316686" />
	</node>
	<node id="-843269" lat="63.8551166637" lon="9.77025555522">
		<tag k="name" v="Fauskan" />
		<tag k="place" v="farm" />
		<tag k="ssr:stedsnr" v="91731" />
	</node>
	<node id="-844995" lat="63.8562388933" lon="9.74083054845">
		<tag k="fixme" v="consider place=hamlet" />
		<tag k="name" v="Drilen" />
		<tag k="place" v="farm" />
		<tag k="ssr:stedsnr" v="73127" />
	</node>
	<node id="-843258" lat="63.7439138901" lon="9.84478332573">
		<tag k="name" v="Furuly" />
		<tag k="place" v="farm" />
		<tag k="ssr:stedsnr" v="212878" />
	</node>
	<node id="-845055" lat="63.7984833292" lon="9.42605277563">
		<tag k="alt_name" v="Sørvika" />
		<tag k="name" v="Sørvik" />
		<tag k="place" v="farm" />
		<tag k="ssr:stedsnr" v="377646" />
	</node>
	<node id="-843253" lat="63.8501944484" lon="9.88851667068">
		<tag k="name" v="Aunet" />
		<tag k="place" v="farm" />
		<tag k="ssr:stedsnr" v="698926" />
	</node>
	<node id="-843251" lat="63.8811527793" lon="9.90654165908">
		<tag k="name" v="Nygården" />
		<tag k="place" v="farm" />
		<tag k="ssr:stedsnr" v="559579" />
	</node>
	<node id="-843250" lat="63.77129722" lon="9.80879167518">
		<tag k="name" v="Solemslistykket" />
		<tag k="place" v="quarter" />
		<tag k="ssr:stedsnr" v="605129" />
	</node>
	<node id="-843248" lat="63.8880194411" lon="9.89747499269">
		<tag k="fixme" v="consider place=hamlet" />
		<tag k="name" v="Hellesvika" />
		<tag k="place" v="farm" />
		<tag k="ssr:stedsnr" v="559580" />
	</node>
	<node id="-843244" lat="63.8636138855" lon="9.86054167607">
		<tag k="name" v="Leikvang" />
		<tag k="place" v="farm" />
		<tag k="ssr:stedsnr" v="30913" />
	</node>
	<node id="-843237" lat="63.8873777733" lon="9.79096667185">
		<tag k="name" v="Skjørøy" />
		<tag k="place" v="farm" />
		<tag k="ssr:stedsnr" v="941914" />
	</node>
	<node id="-843236" lat="63.8058749973" lon="10.116727775">
		<tag k="name" v="Myrmo" />
		<tag k="place" v="farm" />
		<tag k="ssr:stedsnr" v="697661" />
	</node>
	<node id="-845283" lat="63.7633277776" lon="9.83021666435">
		<tag k="name" v="Damman" />
		<tag k="place" v="farm" />
		<tag k="ssr:stedsnr" v="698412" />
	</node>
	<node id="-845282" lat="63.81130556" lon="9.66438334065">
		<tag k="fixme" v="consider place=hamlet" />
		<tag k="name" v="Aune" />
		<tag k="place" v="farm" />
		<tag k="ssr:stedsnr" v="134690" />
	</node>
	<node id="-845281" lat="63.7601083307" lon="9.86318889667">
		<tag k="name" v="Elvemo" />
		<tag k="place" v="farm" />
		<tag k="ssr:stedsnr" v="151866" />
	</node>
	<node id="-845280" lat="63.7834499969" lon="9.80451389475">
		<tag k="name" v="Tonakken" />
		<tag k="place" v="farm" />
		<tag k="ssr:stedsnr" v="30820" />
	</node>
	<node id="-843229" lat="63.7608907532" lon="9.80327505583">
		<tag k="name" v="Sæterstranda" />
		<tag k="place" v="farm" />
		<tag k="ssr:stedsnr" v="973933" />
	</node>
	<node id="-845276" lat="63.7862972264" lon="9.83631110309">
		<tag k="fixme" v="consider place=hamlet" />
		<tag k="name" v="Ekset" />
		<tag k="place" v="farm" />
		<tag k="ssr:stedsnr" v="74213" />
	</node>
	<node id="-843226" lat="63.8413611099" lon="9.72254444511">
		<tag k="name" v="Birkeli" />
		<tag k="place" v="farm" />
		<tag k="ssr:stedsnr" v="923104" />
	</node>
	<node id="-845264" lat="63.8527638891" lon="10.0083416701">
		<tag k="historic" v="shieling" />
		<tag k="name" v="Oldsetra" />
		<tag k="place" v="locality" />
		<tag k="ssr:stedsnr" v="316112" />
	</node>
	<node id="-843215" lat="63.7598083342" lon="9.96161943482">
		<tag k="name" v="Kukleiva" />
		<tag k="place" v="isolated_dwelling" />
		<tag k="ssr:stedsnr" v="636603" />
	</node>
	<node id="-845261" lat="63.7816777799" lon="9.99769721269">
		<tag k="amenity" v="school" />
		<tag k="name" v="Gjølja skole" />
		<tag k="ssr:stedsnr" v="91633" />
	</node>
	<node id="-843209" lat="63.8076305514" lon="10.1315583409">
		<tag k="name" v="Langeng" />
		<tag k="place" v="farm" />
		<tag k="ssr:stedsnr" v="498023" />
	</node>
	<node id="-845255" lat="63.7681500044" lon="9.77883332996">
		<tag k="fixme" v="consider place=hamlet" />
		<tag k="name" v="Karlestranda" />
		<tag k="place" v="farm" />
		<tag k="ssr:stedsnr" v="438201" />
	</node>
	<node id="-843206" lat="63.8603666645" lon="9.85895277436">
		<tag k="name" v="Neset" />
		<tag k="place" v="farm" />
		<tag k="ssr:stedsnr" v="30911" />
	</node>
	<node id="-845253" lat="63.7872972263" lon="9.80566666675">
		<tag k="name" v="Solli" />
		<tag k="place" v="farm" />
		<tag k="ssr:stedsnr" v="30818" />
	</node>
	<node id="-845252" lat="63.8436027814" lon="9.82414166477">
		<tag k="name" v="Leset" />
		<tag k="place" v="farm" />
		<tag k="ssr:stedsnr" v="273925" />
	</node>
	<node id="-843201" lat="63.8308194425" lon="9.66405278225">
		<tag k="name" v="Bakkan hyttefelt" />
		<tag k="place" v="neighbourhood" />
		<tag k="ssr:stedsnr" v="587024" />
	</node>
	<node id="-843199" lat="63.7706083355" lon="9.58762221577">
		<tag k="fixme" v="consider place=hamlet" />
		<tag k="name" v="Nes" />
		<tag k="place" v="village" />
		<tag k="ssr:stedsnr" v="849902" />
	</node>
	<node id="-845244" lat="63.7453777807" lon="9.82778611393">
		<tag k="building" v="industrial" />
		<tag k="industrial" v="factory" />
		<tag k="name" v="Furunes meieri" />
		<tag k="ssr:stedsnr" v="333362" />
	</node>
	<node id="-843194" lat="63.756452782" lon="9.9667166579">
		<tag k="name" v="Akseldalen" />
		<tag k="place" v="isolated_dwelling" />
		<tag k="ssr:stedsnr" v="880605" />
	</node>
	<node id="-843191" lat="63.7426277747" lon="9.83716945364">
		<tag k="name" v="Østre Furuneset" />
		<tag k="place" v="farm" />
		<tag k="ssr:stedsnr" v="212435" />
	</node>
	<node id="-843190" lat="63.7675722179" lon="9.58985555893">
		<tag k="name" v="Berg" />
		<tag k="place" v="farm" />
		<tag k="ssr:stedsnr" v="819235" />
	</node>
	<node id="-845237" lat="63.7397309477" lon="9.8814725507">
		<tag k="fixme" v="consider place=hamlet" />
		<tag k="name" v="Heggvik" />
		<tag k="place" v="farm" />
		<tag k="ssr:stedsnr" v="438202" />
	</node>
	<node id="-843187" lat="63.8707805597" lon="9.93421111081">
		<tag k="name" v="Olden" />
		<tag k="place" v="farm" />
		<tag k="ssr:stedsnr" v="30908" />
	</node>
	<node id="-843185" lat="63.7758777781" lon="9.85624444928">
		<tag k="name" v="Botnet" />
		<tag k="place" v="farm" />
		<tag k="ssr:stedsnr" v="620205" />
	</node>
	<node id="-843184" lat="63.7800583307" lon="9.82419445064">
		<tag k="name" v="Fjellhaug" />
		<tag k="place" v="farm" />
		<tag k="ssr:stedsnr" v="212862" />
	</node>
	<node id="-843182" lat="63.8377833371" lon="9.88628332705">
		<tag k="name" v="Heimly" />
		<tag k="place" v="farm" />
		<tag k="ssr:stedsnr" v="941923" />
	</node>
	<node id="-845228" lat="63.8515027753" lon="9.7456055537">
		<tag k="amenity" v="school" />
		<tag k="name" v="Vallersund oppvekstsenter" />
		<tag k="ssr:stedsnr" v="969865" />
	</node>
	<node id="-843179" lat="63.7896861099" lon="9.97741110187">
		<tag k="name" v="Skårås" />
		<tag k="place" v="farm" />
		<tag k="ssr:stedsnr" v="455224" />
	</node>
	<node id="-843177" lat="63.8778944444" lon="9.84685554642">
		<tag k="name" v="Berget" />
		<tag k="place" v="farm" />
		<tag k="ssr:stedsnr" v="273594" />
	</node>
	<node id="-845223" lat="63.8644583298" lon="9.85457499213">
		<tag k="name" v="Hersålan" />
		<tag k="place" v="farm" />
		<tag k="ssr:stedsnr" v="273934" />
	</node>
	<node id="-843172" lat="63.8557888884" lon="9.7267222287">
		<tag k="fixme" v="consider place=suburb, village or hamlet" />
		<tag k="name" v="Vasøya" />
		<tag k="place" v="quarter" />
		<tag k="ssr:stedsnr" v="587028" />
	</node>
	<node id="-845216" lat="63.8163083348" lon="9.44344444215">
		<tag k="name" v="Åkervika" />
		<tag k="place" v="isolated_dwelling" />
		<tag k="ssr:stedsnr" v="134689" />
	</node>
	<node id="-843167" lat="63.8316916632" lon="9.67291110556">
		<tag k="name" v="Rabben" />
		<tag k="place" v="farm" />
		<tag k="ssr:stedsnr" v="680720" />
	</node>
	<node id="-843166" lat="63.7389083301" lon="9.71064166507">
		<tag k="name" v="Haugtun" />
		<tag k="place" v="farm" />
		<tag k="ssr:stedsnr" v="91307" />
	</node>
	<node id="-845212" lat="63.7470166652" lon="9.81711944588">
		<tag k="name" v="Skogan" />
		<tag k="place" v="farm" />
		<tag k="ssr:stedsnr" v="515852" />
	</node>
	<node id="-843163" lat="63.7579833363" lon="9.96249999835">
		<tag k="name" v="Tonstad" />
		<tag k="place" v="farm" />
		<tag k="ssr:stedsnr" v="455228" />
	</node>
	<node id="-843161" lat="63.8112777749" lon="9.6997250079">
		<tag k="name" v="Rønningen" />
		<tag k="place" v="farm" />
		<tag k="ssr:stedsnr" v="30899" />
	</node>
	<node id="-843158" lat="63.7674694444" lon="9.7407333359">
		<tag k="name" v="Myrskardet" />
		<tag k="place" v="hamlet" />
		<tag k="ssr:stedsnr" v="576324" />
	</node>
	<node id="-845200" lat="63.7957055588" lon="9.63040276893">
		<tag k="name" v="Nyvoll" />
		<tag k="place" v="isolated_dwelling" />
		<tag k="ssr:stedsnr" v="377650" />
	</node>
	<node id="-845199" lat="63.8849805513" lon="9.87960833528">
		<tag k="name" v="Sletten" />
		<tag k="place" v="farm" />
		<tag k="ssr:stedsnr" v="151852" />
	</node>
	<node id="-842989" lat="63.786722226" lon="9.83844444527">
		<tag k="name" v="Ekset" />
		<tag k="place" v="farm" />
		<tag k="ssr:stedsnr" v="333846" />
	</node>
	<node id="-843146" lat="63.8108888905" lon="9.7058694397">
		<tag k="name" v="Tørrem" />
		<tag k="place" v="farm" />
		<tag k="ssr:stedsnr" v="30901" />
	</node>
	<node id="-845191" lat="63.8274694431" lon="9.64871943631">
		<tag k="name" v="Rabben" />
		<tag k="place" v="farm" />
		<tag k="ssr:stedsnr" v="212759" />
	</node>
	<node id="-843142" lat="63.847722224" lon="9.80996388007">
		<tag k="name" v="Strømsli" />
		<tag k="place" v="farm" />
		<tag k="ssr:stedsnr" v="698906" />
	</node>
	<node id="-845189" lat="63.7955500016" lon="9.62174721315">
		<tag k="name" v="Nyvoll" />
		<tag k="place" v="farm" />
		<tag k="ssr:stedsnr" v="941825" />
	</node>
	<node id="-843139" lat="63.7580972236" lon="9.86718054853">
		<tag k="alt_name" v="Helland øvre" />
		<tag k="name" v="Øvre Helland" />
		<tag k="place" v="farm" />
		<tag k="ssr:stedsnr" v="758490" />
	</node>
	<node id="-843138" lat="63.7659194479" lon="9.81871667411">
		<tag k="amenity" v="school" />
		<tag k="name" v="Fosen videregående skole" />
		<tag k="ssr:stedsnr" v="42010" />
	</node>
	<node id="-845184" lat="63.8846222204" lon="9.86427778612">
		<tag k="name" v="Lysøysundet" />
		<tag k="place" v="village" />
		<tag k="ssr:stedsnr" v="741662" />
	</node>
	<node id="-843133" lat="63.7855083327" lon="9.71487499888">
		<tag k="name" v="Ryset" />
		<tag k="place" v="farm" />
		<tag k="ssr:stedsnr" v="30479" />
	</node>
	<node id="-845177" lat="63.7862027774" lon="9.80975832685">
		<tag k="name" v="Bergli" />
		<tag k="place" v="farm" />
		<tag k="ssr:stedsnr" v="333773" />
	</node>
	<node id="-845176" lat="63.8685472223" lon="9.86793610535">
		<tag k="name" v="Rømmen" />
		<tag k="place" v="farm" />
		<tag k="ssr:stedsnr" v="91622" />
	</node>
	<node id="-843127" lat="63.8187527814" lon="9.62665000383">
		<tag k="name" v="Vestheim" />
		<tag k="place" v="farm" />
		<tag k="ssr:stedsnr" v="698902" />
	</node>
	<node id="-845173" lat="63.8692250043" lon="9.93053333869">
		<tag k="name" v="Oldbakken" />
		<tag k="place" v="farm" />
		<tag k="ssr:stedsnr" v="880914" />
	</node>
	<node id="-843124" lat="63.8250472254" lon="9.65020000409">
		<tag k="alt_name" v="Kråkvika" />
		<tag k="name" v="Kråkvik" />
		<tag k="place" v="farm" />
		<tag k="ssr:stedsnr" v="680699" />
	</node>
	<node id="-845169" lat="63.7556305587" lon="9.9400138942">
		<tag k="fixme" v="consider place=hamlet" />
		<tag k="name" v="Søtvika" />
		<tag k="place" v="farm" />
		<tag k="ssr:stedsnr" v="195225" />
	</node>
	<node id="-843119" lat="63.796852777" lon="9.69749722916">
		<tag k="alt_name" v="Vassmyra" />
		<tag k="name" v="Vassmyr" />
		<tag k="place" v="farm" />
		<tag k="ssr:stedsnr" v="13671" />
	</node>
	<node id="-845165" lat="64.1718540446" lon="10.3741069797">
		<tag k="fixme" v="consider place=hamlet" />
		<tag k="name" v="Straum" />
		<tag k="place" v="farm" />
		<tag k="ssr:stedsnr" v="971139" />
	</node>
	<node id="-843111" lat="63.7797361085" lon="9.57803611737">
		<tag k="fixme" v="consider place=hamlet" />
		<tag k="name" v="Djupfest" />
		<tag k="place" v="farm" />
		<tag k="ssr:stedsnr" v="316679" />
	</node>
	<node id="-843107" lat="63.7345500023" lon="9.87373055402">
		<tag k="fixme" v="consider place=hamlet" />
		<tag k="name" v="Høybakken" />
		<tag k="place" v="village" />
		<tag k="ssr:stedsnr" v="498270" />
	</node>
	<node id="-843104" lat="63.7859444483" lon="9.76936110868">
		<tag k="fixme" v="consider place=hamlet" />
		<tag k="name" v="Kottenget" />
		<tag k="place" v="farm" />
		<tag k="ssr:stedsnr" v="195276" />
	</node>
	<node id="-845151" lat="63.8004527788" lon="9.66679445272">
		<tag k="name" v="Nyheim" />
		<tag k="place" v="farm" />
		<tag k="ssr:stedsnr" v="515836" />
	</node>
	<node id="-845144" lat="63.8802388862" lon="9.83449999541">
		<tag k="name" v="Øya" />
		<tag k="place" v="farm" />
		<tag k="ssr:stedsnr" v="13604" />
	</node>
	<node id="-845142" lat="63.8908027814" lon="9.93562499896">
		<tag k="name" v="Sandvika" />
		<tag k="place" v="farm" />
		<tag k="ssr:stedsnr" v="758847" />
	</node>
	<node id="-843091" lat="63.8496666691" lon="9.83072778165">
		<tag k="fixme" v="consider place=hamlet" />
		<tag k="name" v="Asserøya" />
		<tag k="place" v="farm" />
		<tag k="ssr:stedsnr" v="758909" />
	</node>
	<node id="-843089" lat="63.8216722216" lon="9.64010556193">
		<tag k="name" v="Moen" />
		<tag k="place" v="farm" />
		<tag k="ssr:stedsnr" v="698895" />
	</node>
	<node id="-845133" lat="63.7586777804" lon="9.86941389412">
		<tag k="fixme" v="consider place=hamlet" />
		<tag k="name" v="Helland" />
		<tag k="place" v="farm" />
		<tag k="ssr:stedsnr" v="195220" />
	</node>
	<node id="-845132" lat="63.8861138867" lon="9.90198611027">
		<tag k="name" v="Innlegget" />
		<tag k="place" v="farm" />
		<tag k="ssr:stedsnr" v="758842" />
	</node>
	<node id="-845131" lat="63.7588805558" lon="9.63161111554">
		<tag k="name" v="Feta" />
		<tag k="place" v="farm" />
		<tag k="ssr:stedsnr" v="576218" />
	</node>
	<node id="-843082" lat="63.817866669" lon="10.0286277816">
		<tag k="name" v="Andersbua" />
		<tag k="place" v="isolated_dwelling" />
		<tag k="ssr:stedsnr" v="30054" />
	</node>
	<node id="-843078" lat="63.7426388863" lon="9.86441666566">
		<tag k="name" v="Bjørnstad" />
		<tag k="place" v="farm" />
		<tag k="ssr:stedsnr" v="498271" />
	</node>
	<node id="-845125" lat="63.8267138911" lon="9.66562778595">
		<tag k="name" v="Bakkan" />
		<tag k="place" v="farm" />
		<tag k="ssr:stedsnr" v="273918" />
	</node>
	<node id="-845122" lat="63.7656333359" lon="9.73648055507">
		<tag k="name" v="Bergheim" />
		<tag k="place" v="farm" />
		<tag k="ssr:stedsnr" v="333779" />
	</node>
	<node id="-843073" lat="63.7483130305" lon="9.82364005287">
		<tag k="name" v="Smååkran" />
		<tag k="place" v="farm" />
		<tag k="ssr:stedsnr" v="134204" />
	</node>
	<node id="-843070" lat="63.8523000019" lon="9.88461387942">
		<tag k="name" v="Aunet" />
		<tag k="place" v="farm" />
		<tag k="ssr:stedsnr" v="758934" />
	</node>
	<node id="-843066" lat="63.8118527737" lon="10.1488833268">
		<tag k="name" v="Bjørnåsen" />
		<tag k="place" v="farm" />
		<tag k="ssr:stedsnr" v="648920" />
	</node>
	<node id="-843062" lat="63.8682611068" lon="9.94103611894">
		<tag k="name" v="Romsgården" />
		<tag k="place" v="farm" />
		<tag k="ssr:stedsnr" v="212842" />
	</node>
	<node id="-845109" lat="63.8017027794" lon="9.6428777799">
		<tag k="name" v="Rabben" />
		<tag k="place" v="farm" />
		<tag k="ssr:stedsnr" v="698802" />
	</node>
	<node id="-843060" lat="63.7988361144" lon="10.082402771">
		<tag k="name" v="Oppheim" />
		<tag k="place" v="farm" />
		<tag k="ssr:stedsnr" v="91284" />
	</node>
	<node id="-843059" lat="63.7569472258" lon="9.96995834315">
		<tag k="fixme" v="consider place=hamlet" />
		<tag k="name" v="Stallvika" />
		<tag k="place" v="village" />
		<tag k="ssr:stedsnr" v="73196" />
	</node>
	<node id="-843057" lat="63.7866027752" lon="9.60420834025">
		<tag k="fixme" v="consider place=hamlet" />
		<tag k="name" v="Hellem" />
		<tag k="place" v="farm" />
		<tag k="ssr:stedsnr" v="619649" />
	</node>
	<node id="-843055" lat="63.7600194466" lon="9.74739723172">
		<tag k="building" v="industrial" />
		<tag k="industrial" v="factory" />
		<tag k="name" v="Salteriet" />
		<tag k="ssr:stedsnr" v="758506" />
	</node>
	<node id="-845102" lat="63.7817555591" lon="9.80594722963">
		<tag k="name" v="Rotbakken" />
		<tag k="place" v="farm" />
		<tag k="ssr:stedsnr" v="151838" />
	</node>
	<node id="-843051" lat="63.7369583343" lon="9.85227221675">
		<tag k="name" v="Grøneng" />
		<tag k="place" v="farm" />
		<tag k="ssr:stedsnr" v="802220" />
	</node>
	<node id="-843049" lat="63.8606305565" lon="9.80864999756">
		<tag k="name" v="Manndal" />
		<tag k="place" v="farm" />
		<tag k="ssr:stedsnr" v="698916" />
	</node>
	<node id="-845095" lat="63.7615111129" lon="9.69852499772">
		<tag k="name" v="Bertelsvikan" />
		<tag k="place" v="isolated_dwelling" />
		<tag k="ssr:stedsnr" v="151403" />
	</node>
	<node id="-843046" lat="63.7456722242" lon="9.82909166723">
		<tag k="name" v="Skåkhaugen" />
		<tag k="place" v="farm" />
		<tag k="ssr:stedsnr" v="333856" />
	</node>
	<node id="-845092" lat="63.7709305572" lon="10.0457805473">
		<tag k="name" v="Ytre Dueskard" />
		<tag k="place" v="farm" />
		<tag k="ssr:stedsnr" v="74198" />
	</node>
	<node id="-843043" lat="63.8482400654" lon="9.85878213594">
		<tag k="name" v="Asserøystranda" />
		<tag k="place" v="farm" />
		<tag k="ssr:stedsnr" v="151934" />
	</node>
	<node id="-845089" lat="63.8147305518" lon="9.67882499741">
		<tag k="fixme" v="consider place=hamlet" />
		<tag k="name" v="Oksvoll" />
		<tag k="place" v="farm" />
		<tag k="ssr:stedsnr" v="273899" />
	</node>
	<node id="-843039" lat="63.8513527806" lon="9.77772222852">
		<tag k="name" v="Hvileberget" />
		<tag k="place" v="farm" />
		<tag k="ssr:stedsnr" v="30880" />
	</node>
	<node id="-843038" lat="63.7598083377" lon="9.98401388509">
		<tag k="name" v="Birkeli" />
		<tag k="place" v="farm" />
		<tag k="ssr:stedsnr" v="455606" />
	</node>
	<node id="-843037" lat="63.7870388853" lon="9.7110499953">
		<tag k="name" v="Myrset" />
		<tag k="place" v="farm" />
		<tag k="ssr:stedsnr" v="13662" />
	</node>
	<node id="-843036" lat="63.8145194439" lon="9.67989722137">
		<tag k="fixme" v="consider place=hamlet" />
		<tag k="name" v="Oksvoll" />
		<tag k="place" v="village" />
		<tag k="ssr:stedsnr" v="741717" />
	</node>
	<node id="-845081" lat="63.7508388887" lon="9.70433888602">
		<tag k="name" v="Gråstein" />
		<tag k="place" v="farm" />
		<tag k="ssr:stedsnr" v="333757" />
	</node>
	<node id="-843032" lat="63.8207777761" lon="9.80833610813">
		<tag k="name" v="Fagervoll" />
		<tag k="place" v="farm" />
		<tag k="ssr:stedsnr" v="758931" />
	</node>
	<node id="-845079" lat="63.8655583326" lon="9.88942499783">
		<tag k="name" v="Vikvang" />
		<tag k="place" v="farm" />
		<tag k="ssr:stedsnr" v="576615" />
	</node>
	<node id="-845076" lat="63.8446472214" lon="9.7364555546">
		<tag k="alt_name" v="Kverngjerdet" />
		<tag k="name" v="Kvenngjerdet" />
		<tag k="place" v="isolated_dwelling" />
		<tag k="ssr:stedsnr" v="316100" />
	</node>
	<node id="-843027" lat="63.7663083311" lon="9.985811111">
		<tag k="name" v="Vadmyra" />
		<tag k="place" v="farm" />
		<tag k="ssr:stedsnr" v="802218" />
	</node>
	<node id="-843026" lat="63.7620388892" lon="9.97455000051">
		<tag k="name" v="Øyan" />
		<tag k="place" v="farm" />
		<tag k="ssr:stedsnr" v="394242" />
	</node>
	<node id="-845073" lat="63.7679222266" lon="9.73676667007">
		<tag k="name" v="Smedstua" />
		<tag k="place" v="farm" />
		<tag k="ssr:stedsnr" v="30790" />
	</node>
	<node id="-845071" lat="63.7538833359" lon="9.70832222011">
		<tag k="name" v="Bergly" />
		<tag k="place" v="farm" />
		<tag k="ssr:stedsnr" v="333767" />
	</node>
	<node id="-843022" lat="63.7474722202" lon="9.77819999602">
		<tag k="name" v="Bustad" />
		<tag k="place" v="farm" />
		<tag k="ssr:stedsnr" v="680190" />
	</node>
	<node id="-843021" lat="63.8044249965" lon="10.0013333433">
		<tag k="name" v="Tyssbotn" />
		<tag k="place" v="farm" />
		<tag k="ssr:stedsnr" v="195002" />
	</node>
	<node id="-843018" lat="63.7606027789" lon="9.85036943905">
		<tag k="name" v="Slættet" />
		<tag k="place" v="farm" />
		<tag k="ssr:stedsnr" v="317735" />
	</node>
	<node id="-845064" lat="63.7831861108" lon="9.77606667151">
		<tag k="name" v="Øyvang" />
		<tag k="place" v="farm" />
		<tag k="ssr:stedsnr" v="151835" />
	</node>
	<node id="-843007" lat="63.7425194461" lon="9.81111111724">
		<tag k="fixme" v="consider place=hamlet" />
		<tag k="name" v="Skavdalen" />
		<tag k="place" v="farm" />
		<tag k="ssr:stedsnr" v="680187" />
	</node>
	<node id="-845052" lat="63.8604750001" lon="9.74952222118">
		<tag k="fixme" v="consider place=hamlet" />
		<tag k="name" v="Vallersund" />
		<tag k="place" v="village" />
		<tag k="ssr:stedsnr" v="134143" />
	</node>
	<node id="-843002" lat="63.7595416706" lon="9.64619999815">
		<tag k="name" v="Tønnølsstranda hyttefelt" />
		<tag k="place" v="neighbourhood" />
		<tag k="ssr:stedsnr" v="484088" />
	</node>
	<node id="-843001" lat="63.7910833327" lon="10.0504027828">
		<tag k="fixme" v="consider place=hamlet" />
		<tag k="name" v="Varghiet" />
		<tag k="place" v="farm" />
		<tag k="ssr:stedsnr" v="195271" />
	</node>
	<node id="-842998" lat="63.862588885" lon="9.74970556495">
		<tag k="fixme" v="consider place=hamlet" />
		<tag k="name" v="Vallersund" />
		<tag k="place" v="farm" />
		<tag k="ssr:stedsnr" v="758924" />
	</node>
	<node id="-842997" lat="63.8429749993" lon="9.78663332827">
		<tag k="fixme" v="consider place=hamlet" />
		<tag k="name" v="Jøssund" />
		<tag k="place" v="farm" />
		<tag k="ssr:stedsnr" v="606960" />
	</node>
	<node id="-842996" lat="63.7582388912" lon="9.73854443641">
		<tag k="name" v="Tinbua" />
		<tag k="place" v="isolated_dwelling" />
		<tag k="ssr:stedsnr" v="73190" />
	</node>
	<node id="-845037" lat="63.8768972224" lon="9.88925276985">
		<tag k="name" v="Brenna" />
		<tag k="place" v="farm" />
		<tag k="ssr:stedsnr" v="455920" />
	</node>
	<node id="-842988" lat="63.8886750002" lon="9.88243055921">
		<tag k="name" v="Trettvika" />
		<tag k="place" v="farm" />
		<tag k="ssr:stedsnr" v="455590" />
	</node>
	<node id="-842987" lat="63.7749777786" lon="9.58485554703">
		<tag k="name" v="Nordgård" />
		<tag k="place" v="farm" />
		<tag k="ssr:stedsnr" v="91273" />
	</node>
	<node id="-845033" lat="63.8166916701" lon="9.4013638799">
		<tag k="name" v="Grønndalen" />
		<tag k="place" v="farm" />
		<tag k="ssr:stedsnr" v="498705" />
	</node>
	<node id="-842983" lat="63.7159083305" lon="9.81075277362">
		<tag k="name" v="Myrstad" />
		<tag k="place" v="farm" />
		<tag k="ssr:stedsnr" v="74785" />
	</node>
	<node id="-845029" lat="63.8032388893" lon="10.1089083431">
		<tag k="name" v="Foss" />
		<tag k="place" v="farm" />
		<tag k="ssr:stedsnr" v="333313" />
	</node>
	<node id="-842978" lat="63.7837833355" lon="9.83744167033">
		<tag k="name" v="Nordset" />
		<tag k="place" v="farm" />
		<tag k="ssr:stedsnr" v="333844" />
	</node>
	<node id="-842976" lat="63.8699472197" lon="9.89112778718">
		<tag k="name" v="Håbrekke" />
		<tag k="place" v="farm" />
		<tag k="ssr:stedsnr" v="151916" />
	</node>
	<node id="-842966" lat="63.7778750044" lon="9.7490527751">
		<tag k="name" v="Naustan" />
		<tag k="place" v="farm" />
		<tag k="ssr:stedsnr" v="30867" />
	</node>
	<node id="-842965" lat="63.8423777785" lon="9.79783889845">
		<tag k="name" v="Rønningan" />
		<tag k="place" v="farm" />
		<tag k="ssr:stedsnr" v="698875" />
	</node>
	<node id="-842964" lat="63.7851305547" lon="10.0248277746">
		<tag k="alt_name" v="Grandalen øvre" />
		<tag k="name" v="Øvre Grandalen" />
		<tag k="place" v="farm" />
		<tag k="ssr:stedsnr" v="394227" />
	</node>
	<node id="-845011" lat="63.8018472199" lon="10.0715166686">
		<tag k="name" v="Nordeng" />
		<tag k="place" v="farm" />
		<tag k="ssr:stedsnr" v="333311" />
	</node>
	<node id="-845010" lat="63.8150861133" lon="9.98670832467">
		<tag k="name" v="Jeriko" />
		<tag k="place" v="isolated_dwelling" />
		<tag k="ssr:stedsnr" v="636034" />
	</node>
	<node id="-845008" lat="63.7639305598" lon="9.6872972194">
		<tag k="alt_name" v="Brandvik" />
		<tag k="fixme" v="consider place=hamlet" />
		<tag k="name" v="Brandvika" />
		<tag k="place" v="farm" />
		<tag k="ssr:stedsnr" v="74727" />
	</node>
	<node id="-842955" lat="63.7450527789" lon="9.81379722312">
		<tag k="fixme" v="consider place=hamlet" />
		<tag k="name" v="Skavdalen" />
		<tag k="place" v="village" />
		<tag k="ssr:stedsnr" v="424882" />
	</node>
	<node id="-844999" lat="63.7635138844" lon="10.0287194507">
		<tag k="fixme" v="consider place=hamlet" />
		<tag k="name" v="Kippneset" />
		<tag k="place" v="farm" />
		<tag k="ssr:stedsnr" v="438176" />
	</node>
	<node id="-844997" lat="63.7631527778" lon="9.82075834238">
		<tag k="fixme" v="consider place=hamlet" />
		<tag k="name" v="Brekka" />
		<tag k="place" v="farm" />
		<tag k="ssr:stedsnr" v="273885" />
	</node>
	<node id="-842947" lat="63.8547055538" lon="9.7409305578">
		<tag k="name" v="Drilen" />
		<tag k="place" v="farm" />
		<tag k="ssr:stedsnr" v="758888" />
	</node>
	<node id="-842945" lat="63.7594361102" lon="9.80644722249">
		<tag k="name" v="Sæter" />
		<tag k="place" v="farm" />
		<tag k="ssr:stedsnr" v="303997" />
	</node>
	<node id="-842941" lat="63.7639305598" lon="9.6872972194">
		<tag k="name" v="Brandvika" />
		<tag k="place" v="hamlet" />
		<tag k="ssr:stedsnr" v="910914" />
	</node>
	<node id="-842940" lat="63.7436916707" lon="9.85628332558">
		<tag k="name" v="Lyngset" />
		<tag k="place" v="farm" />
		<tag k="ssr:stedsnr" v="256186" />
	</node>
	<node id="-842939" lat="63.8562611126" lon="9.81401667233">
		<tag k="name" v="Engedal" />
		<tag k="place" v="farm" />
		<tag k="ssr:stedsnr" v="151910" />
	</node>
	<node id="-844986" lat="63.7541333318" lon="9.70450555757">
		<tag k="name" v="Vedneset" />
		<tag k="place" v="farm" />
		<tag k="ssr:stedsnr" v="30781" />
	</node>
	<node id="-844983" lat="63.8195333336" lon="9.63147500976">
		<tag k="name" v="Valsnes" />
		<tag k="place" v="farm" />
		<tag k="ssr:stedsnr" v="151828" />
	</node>
	<node id="-842931" lat="63.7193722256" lon="9.82368611743">
		<tag k="name" v="Eidsaunet" />
		<tag k="place" v="farm" />
		<tag k="ssr:stedsnr" v="74237" />
	</node>
	<node id="-842926" lat="63.8674805533" lon="9.86242499274">
		<tag k="fixme" v="consider place=hamlet" />
		<tag k="name" v="Rømmen" />
		<tag k="place" v="village" />
		<tag k="ssr:stedsnr" v="376124" />
	</node>
	<node id="-842923" lat="63.8125805561" lon="10.1466444489">
		<tag k="alt_name" v="Bjørnåsen" />
		<tag k="name" v="Bjørnås" />
		<tag k="place" v="farm" />
		<tag k="ssr:stedsnr" v="863019" />
	</node>
	<node id="-842922" lat="63.7829305555" lon="9.98979721223">
		<tag k="name" v="Bjørklund" />
		<tag k="place" v="farm" />
		<tag k="ssr:stedsnr" v="394231" />
	</node>
	<node id="-842921" lat="63.7922861099" lon="9.99224722645">
		<tag k="name" v="Nysæter" />
		<tag k="place" v="farm" />
		<tag k="ssr:stedsnr" v="438235" />
	</node>
	<node id="-844962" lat="63.8341472184" lon="9.69223056009">
		<tag k="name" v="Melgården" />
		<tag k="place" v="farm" />
		<tag k="ssr:stedsnr" v="880883" />
	</node>
	<node id="-842912" lat="63.7837972221" lon="9.81004999363">
		<tag k="fixme" v="consider place=hamlet" />
		<tag k="name" v="Lia" />
		<tag k="place" v="village" />
		<tag k="ssr:stedsnr" v="910917" />
	</node>
	<node id="-844959" lat="63.86945278" lon="9.74843055158">
		<tag k="fixme" v="consider place=hamlet" />
		<tag k="name" v="Valsøya" />
		<tag k="place" v="farm" />
		<tag k="ssr:stedsnr" v="455929" />
	</node>
	<node id="-842910" lat="63.7921638933" lon="9.83342499587">
		<tag k="name" v="Grovahalsen" />
		<tag k="place" v="farm" />
		<tag k="ssr:stedsnr" v="333848" />
	</node>
	<node id="-842905" lat="63.7669138906" lon="9.57820556054">
		<tag k="name" v="Rabben" />
		<tag k="place" v="farm" />
		<tag k="ssr:stedsnr" v="394215" />
	</node>
	<node id="-842904" lat="63.816355555" lon="10.0881388923">
		<tag k="historic" v="shieling" />
		<tag k="name" v="Jakobsetra" />
		<tag k="place" v="locality" />
		<tag k="ssr:stedsnr" v="698072" />
	</node>
	<node id="-842901" lat="63.8150777759" lon="10.1437638865">
		<tag k="name" v="Granås" />
		<tag k="place" v="farm" />
		<tag k="ssr:stedsnr" v="406918" />
	</node>
	<node id="-842900" lat="63.7206638886" lon="9.85439166816">
		<tag k="name" v="Risvika" />
		<tag k="place" v="isolated_dwelling" />
		<tag k="ssr:stedsnr" v="74235" />
	</node>
	<node id="-844946" lat="63.87838056" lon="9.92966389435">
		<tag k="name" v="Oldneset" />
		<tag k="place" v="farm" />
		<tag k="ssr:stedsnr" v="819914" />
	</node>
	<node id="-842897" lat="63.7674055553" lon="9.58130833523">
		<tag k="name" v="Berg" />
		<tag k="place" v="farm" />
		<tag k="ssr:stedsnr" v="394216" />
	</node>
	<node id="-842896" lat="63.8269555561" lon="9.67685278468">
		<tag k="name" v="Litlhaugen" />
		<tag k="place" v="farm" />
		<tag k="ssr:stedsnr" v="698891" />
	</node>
	<node id="-844943" lat="63.8255728884" lon="9.66991254142">
		<tag k="name" v="Val" />
		<tag k="place" v="farm" />
		<tag k="ssr:stedsnr" v="455907" />
	</node>
	<node id="-842892" lat="63.7466944419" lon="9.81305834299">
		<tag k="name" v="Midtskogen" />
		<tag k="place" v="farm" />
		<tag k="ssr:stedsnr" v="758478" />
	</node>
	<node id="-842890" lat="63.8451777747" lon="9.72626110282">
		<tag k="name" v="Skiftet" />
		<tag k="place" v="farm" />
		<tag k="ssr:stedsnr" v="13121" />
	</node>
	<node id="-842887" lat="63.857163885" lon="9.78417778675">
		<tag k="name" v="Sletten" />
		<tag k="place" v="farm" />
		<tag k="ssr:stedsnr" v="941879" />
	</node>
	<node id="-844933" lat="63.8906138913" lon="9.86132222669">
		<tag k="name" v="Lauvika" />
		<tag k="place" v="farm" />
		<tag k="ssr:stedsnr" v="880850" />
	</node>
	<node id="-844932" lat="63.7218833352" lon="9.82221111577">
		<tag k="name" v="Øverås" />
		<tag k="place" v="farm" />
		<tag k="ssr:stedsnr" v="515785" />
	</node>
	<node id="-842880" lat="63.8476750034" lon="9.81746945188">
		<tag k="fixme" v="consider place=hamlet" />
		<tag k="name" v="Leset" />
		<tag k="place" v="farm" />
		<tag k="ssr:stedsnr" v="619092" />
	</node>
	<node id="-844924" lat="63.7345888917" lon="9.87041111402">
		<tag k="name" v="Tussegrend" />
		<tag k="place" v="hamlet" />
		<tag k="ssr:stedsnr" v="30346" />
	</node>
	<node id="-842874" lat="63.8779139668" lon="9.81092525792">
		<tag k="fixme" v="consider place=hamlet" />
		<tag k="name" v="Madsøya" />
		<tag k="place" v="farm" />
		<tag k="ssr:stedsnr" v="420170" />
	</node>
	<node id="-842871" lat="63.7783888915" lon="10.0777361204">
		<tag k="name" v="Solstad" />
		<tag k="place" v="farm" />
		<tag k="ssr:stedsnr" v="394222" />
	</node>
	<node id="-842869" lat="63.7316861087" lon="9.85554721307">
		<tag k="name" v="Vassbukta" />
		<tag k="place" v="farm" />
		<tag k="ssr:stedsnr" v="30851" />
	</node>
	<node id="-844916" lat="63.8670277785" lon="9.8591611086">
		<tag k="fixme" v="consider place=hamlet" />
		<tag k="name" v="Rømmen" />
		<tag k="place" v="farm" />
		<tag k="ssr:stedsnr" v="819916" />
	</node>
	<node id="-844915" lat="63.8146722179" lon="10.1032000051">
		<tag k="name" v="Nordslett" />
		<tag k="place" v="farm" />
		<tag k="ssr:stedsnr" v="333295" />
	</node>
	<node id="-844911" lat="63.8113222227" lon="10.1333305487">
		<tag k="name" v="Tangen" />
		<tag k="place" v="farm" />
		<tag k="ssr:stedsnr" v="923019" />
	</node>
	<node id="-844910" lat="63.7838138848" lon="10.1092194464">
		<tag k="name" v="Pettersvika" />
		<tag k="place" v="farm" />
		<tag k="ssr:stedsnr" v="923260" />
	</node>
	<node id="-844909" lat="63.849080559" lon="9.8324638891">
		<tag k="name" v="Vangen" />
		<tag k="place" v="farm" />
		<tag k="ssr:stedsnr" v="455913" />
	</node>
	<node id="-842859" lat="63.848908329" lon="9.77979721708">
		<tag k="name" v="Nygården" />
		<tag k="place" v="farm" />
		<tag k="ssr:stedsnr" v="698884" />
	</node>
	<node id="-842857" lat="63.8526083313" lon="9.80523055151">
		<tag k="name" v="Sommervoll" />
		<tag k="place" v="farm" />
		<tag k="ssr:stedsnr" v="941870" />
	</node>
	<node id="-842853" lat="63.8315583342" lon="9.67266666357">
		<tag k="name" v="Knarvika" />
		<tag k="place" v="farm" />
		<tag k="ssr:stedsnr" v="758904" />
	</node>
	<node id="-844900" lat="63.7476277809" lon="9.68920278579">
		<tag k="name" v="Skutberg" />
		<tag k="place" v="farm" />
		<tag k="ssr:stedsnr" v="212281" />
	</node>
	<node id="-842851" lat="63.8704722268" lon="9.93326666268">
		<tag k="alt_name" v="Oldgrenda" />
		<tag k="name" v="Olden" />
		<tag k="place" v="hamlet" />
		<tag k="ssr:stedsnr" v="316138" />
	</node>
	<node id="-844987" lat="63.7420472228" lon="9.84440278174">
		<tag k="alt_name" v="Nordpolen" />
		<tag k="name" v="Nordpol" />
		<tag k="place" v="farm" />
		<tag k="ssr:stedsnr" v="195208" />
	</node>
	<node id="-842848" lat="63.8464388888" lon="9.79453611323">
		<tag k="name" v="Mogården" />
		<tag k="place" v="farm" />
		<tag k="ssr:stedsnr" v="698882" />
	</node>
	<node id="-842847" lat="63.7721138854" lon="9.87551388857">
		<tag k="name" v="Solbu" />
		<tag k="place" v="farm" />
		<tag k="ssr:stedsnr" v="91258" />
	</node>
	<node id="-842846" lat="63.7696010607" lon="9.81094303373">
		<tag k="name" v="Botngård" />
		<tag k="place" v="farm" />
		<tag k="ssr:stedsnr" v="424876" />
	</node>
	<node id="-842844" lat="63.8119388926" lon="9.66332222913">
		<tag k="name" v="Sanden" />
		<tag k="place" v="farm" />
		<tag k="ssr:stedsnr" v="698462" />
	</node>
	<node id="-842938" lat="63.7432444403" lon="9.80636388781">
		<tag k="name" v="Hyllmarka" />
		<tag k="place" v="farm" />
		<tag k="ssr:stedsnr" v="576281" />
	</node>
	<node id="-842836" lat="63.7519972255" lon="9.92384722787">
		<tag k="name" v="Vakkermoen" />
		<tag k="place" v="isolated_dwelling" />
		<tag k="ssr:stedsnr" v="689638" />
	</node>
	<node id="-844883" lat="63.8510444423" lon="9.77646666364">
		<tag k="alt_name" v="Fauskangrenda" />
		<tag k="name" v="Fauskagrenda" />
		<tag k="place" v="hamlet" />
		<tag k="ssr:stedsnr" v="212715" />
	</node>
	<node id="-842832" lat="63.7822888907" lon="10.0012111199">
		<tag k="name" v="Nydalen" />
		<tag k="place" v="farm" />
		<tag k="ssr:stedsnr" v="91251" />
	</node>
	<node id="-844877" lat="63.8233527788" lon="9.41657499021">
		<tag k="name" v="Valøya" />
		<tag k="place" v="hamlet" />
		<tag k="ssr:stedsnr" v="875947" />
	</node>
	<node id="-842827" lat="63.7513972205" lon="9.77705001006">
		<tag k="name" v="Åsbakken" />
		<tag k="place" v="farm" />
		<tag k="ssr:stedsnr" v="698855" />
	</node>
	<node id="-842826" lat="63.8777249917" lon="9.81002350547">
		<tag k="name" v="Madsøya" />
		<tag k="place" v="farm" />
		<tag k="ssr:stedsnr" v="30844" />
	</node>
	<node id="-844871" lat="63.8864499975" lon="9.84162221447">
		<tag k="name" v="Bukta" />
		<tag k="place" v="farm" />
		<tag k="ssr:stedsnr" v="880846" />
	</node>
	<node id="-842820" lat="63.7815888876" lon="9.83229721389">
		<tag k="name" v="Nordvang" />
		<tag k="place" v="farm" />
		<tag k="ssr:stedsnr" v="30846" />
	</node>
	<node id="-842818" lat="63.8596194412" lon="9.80191110419">
		<tag k="name" v="Myra" />
		<tag k="place" v="farm" />
		<tag k="ssr:stedsnr" v="151890" />
	</node>
	<node id="-842814" lat="63.8428111077" lon="9.68957777763">
		<tag k="name" v="Skardet" />
		<tag k="place" v="farm" />
		<tag k="ssr:stedsnr" v="151891" />
	</node>
	<node id="-844852" lat="63.7992361139" lon="9.69250000583">
		<tag k="name" v="Myrvang" />
		<tag k="place" v="farm" />
		<tag k="ssr:stedsnr" v="558676" />
	</node>
	<node id="-842803" lat="63.7567361102" lon="9.79323333677">
		<tag k="fixme" v="consider place=hamlet" />
		<tag k="name" v="Klakken" />
		<tag k="place" v="farm" />
		<tag k="ssr:stedsnr" v="498234" />
	</node>
	<node id="-844849" lat="63.852641665" lon="9.74880833918">
		<tag k="name" v="Strømsvika" />
		<tag k="place" v="farm" />
		<tag k="ssr:stedsnr" v="636877" />
	</node>
	<node id="-844842" lat="63.7685527792" lon="9.75371943888">
		<tag k="fixme" v="consider place=hamlet" />
		<tag k="name" v="Mølnargården" />
		<tag k="place" v="farm" />
		<tag k="ssr:stedsnr" v="559201" />
	</node>
	<node id="-842791" lat="63.7640444478" lon="9.82433889177">
		<tag k="name" v="Moen" />
		<tag k="place" v="farm" />
		<tag k="ssr:stedsnr" v="698850" />
	</node>
	<node id="-842790" lat="63.7593319028" lon="9.80803366654">
		<tag k="fixme" v="consider place=hamlet" />
		<tag k="name" v="Sæter" />
		<tag k="place" v="farm" />
		<tag k="ssr:stedsnr" v="498236" />
	</node>
	<node id="-844836" lat="63.7357861155" lon="9.85526111958">
		<tag k="name" v="Fredheim" />
		<tag k="place" v="farm" />
		<tag k="ssr:stedsnr" v="880864" />
	</node>
	<node id="-842786" lat="63.7588250029" lon="9.80975278201">
		<tag k="name" v="Sæter" />
		<tag k="place" v="farm" />
		<tag k="ssr:stedsnr" v="758862" />
	</node>
	<node id="-844833" lat="63.8882499966" lon="9.89944167364">
		<tag k="name" v="Sandan" />
		<tag k="place" v="farm" />
		<tag k="ssr:stedsnr" v="273857" />
	</node>
	<node id="-842783" lat="63.7937027806" lon="9.94993611084">
		<tag k="name" v="Svartvasshytta" />
		<tag k="place" v="isolated_dwelling" />
		<tag k="ssr:stedsnr" v="819560" />
	</node>
	<node id="-842782" lat="63.7314666696" lon="9.85520555237">
		<tag k="name" v="Nordheim" />
		<tag k="place" v="farm" />
		<tag k="ssr:stedsnr" v="74221" />
	</node>
	<node id="-842781" lat="63.8653000023" lon="9.81354166976">
		<tag k="name" v="Manndalsvika" />
		<tag k="place" v="farm" />
		<tag k="ssr:stedsnr" v="880921" />
	</node>
	<node id="-844828" lat="63.8138055557" lon="9.67076111094">
		<tag k="amenity" v="school" />
		<tag k="name" v="Oksvoll skole" />
		<tag k="ssr:stedsnr" v="515777" />
	</node>
	<node id="-844827" lat="63.7417805525" lon="9.8117777842">
		<tag k="name" v="Skavdalen" />
		<tag k="place" v="farm" />
		<tag k="ssr:stedsnr" v="880858" />
	</node>
	<node id="-842778" lat="63.7640771908" lon="9.70287058956">
		<tag k="name" v="Bjørkly" />
		<tag k="place" v="farm" />
		<tag k="ssr:stedsnr" v="256710" />
	</node>
	<node id="-842777" lat="63.8179277782" lon="9.41180277543">
		<tag k="name" v="Nordbuaunet" />
		<tag k="place" v="farm" />
		<tag k="ssr:stedsnr" v="802719" />
	</node>
	<node id="-842775" lat="63.8022861081" lon="9.41504444492">
		<tag k="fixme" v="consider place=hamlet" />
		<tag k="name" v="Tarva" />
		<tag k="place" v="farm" />
		<tag k="ssr:stedsnr" v="255650" />
	</node>
	<node id="-842774" lat="63.8156555534" lon="10.1831555553">
		<tag k="name" v="Blanktjønnhytta" />
		<tag k="place" v="isolated_dwelling" />
		<tag k="ssr:stedsnr" v="273120" />
	</node>
	<node id="-842773" lat="63.7579083348" lon="9.7363861022">
		<tag k="fixme" v="consider place=hamlet" />
		<tag k="name" v="Erisvik" />
		<tag k="place" v="farm" />
		<tag k="ssr:stedsnr" v="788968" />
	</node>
	<node id="-842766" lat="63.7329361153" lon="9.86296666465">
		<tag k="name" v="Saltnes" />
		<tag k="place" v="farm" />
		<tag k="ssr:stedsnr" v="74223" />
	</node>
	<node id="-844813" lat="63.8071666645" lon="9.64491389633">
		<tag k="name" v="Klungervollen hyttefelt" />
		<tag k="place" v="neighbourhood" />
		<tag k="ssr:stedsnr" v="969116" />
	</node>
	<node id="-842764" lat="63.8835694404" lon="9.8341611086">
		<tag k="name" v="Erikplassen" />
		<tag k="place" v="isolated_dwelling" />
		<tag k="ssr:stedsnr" v="212352" />
	</node>
	<node id="-842763" lat="63.7665249996" lon="9.57829166914">
		<tag k="name" v="Berg" />
		<tag k="place" v="farm" />
		<tag k="ssr:stedsnr" v="438740" />
	</node>
	<node id="-844808" lat="63.8507750011" lon="9.71912778559">
		<tag k="name" v="Hestbergflauget hyttefelt" />
		<tag k="place" v="neighbourhood" />
		<tag k="ssr:stedsnr" v="648030" />
	</node>
	<node id="-844806" lat="63.8473666697" lon="9.85751944431">
		<tag k="name" v="Stranda" />
		<tag k="place" v="farm" />
		<tag k="ssr:stedsnr" v="394939" />
	</node>
	<node id="-842757" lat="63.8155277814" lon="9.70730833054">
		<tag k="name" v="Indergård" />
		<tag k="place" v="farm" />
		<tag k="ssr:stedsnr" v="698868" />
	</node>
	<node id="-842755" lat="63.8453333354" lon="9.80113888441">
		<tag k="name" v="Rønningan" />
		<tag k="place" v="farm" />
		<tag k="ssr:stedsnr" v="758883" />
	</node>
	<node id="-844801" lat="63.7551749976" lon="9.72527777776">
		<tag k="name" v="Ospneset" />
		<tag k="place" v="farm" />
		<tag k="ssr:stedsnr" v="515781" />
	</node>
	<node id="-842752" lat="63.7626444448" lon="9.97280832365">
		<tag k="name" v="Oldren" />
		<tag k="place" v="farm" />
		<tag k="ssr:stedsnr" v="498225" />
	</node>
	<node id="-842751" lat="63.8280583344" lon="9.80611110822">
		<tag k="name" v="Trettenget" />
		<tag k="place" v="farm" />
		<tag k="ssr:stedsnr" v="698870" />
	</node>
	<node id="-844796" lat="63.7524444464" lon="9.71788332677">
		<tag k="fixme" v="consider place=hamlet" />
		<tag k="name" v="Ervik" />
		<tag k="place" v="farm" />
		<tag k="ssr:stedsnr" v="30326" />
	</node>
	<node id="-842747" lat="63.8878972249" lon="9.7955666682">
		<tag k="fixme" v="consider place=hamlet" />
		<tag k="name" v="Skjørøy" />
		<tag k="place" v="farm" />
		<tag k="ssr:stedsnr" v="273942" />
	</node>
	<node id="-842745" lat="63.7572361082" lon="9.95855000427">
		<tag k="name" v="Aunet" />
		<tag k="place" v="farm" />
		<tag k="ssr:stedsnr" v="91647" />
	</node>
	<node id="-842742" lat="63.8300583299" lon="9.79054444078">
		<tag k="name" v="Sundset" />
		<tag k="place" v="farm" />
		<tag k="ssr:stedsnr" v="698865" />
	</node>
	<node id="-842739" lat="63.8382972253" lon="9.70870556008">
		<tag k="fixme" v="consider place=hamlet" />
		<tag k="name" v="Melem" />
		<tag k="place" v="farm" />
		<tag k="ssr:stedsnr" v="802733" />
	</node>
	<node id="-844786" lat="63.7824111108" lon="9.99735555537">
		<tag k="name" v="Dalberg" />
		<tag k="place" v="farm" />
		<tag k="ssr:stedsnr" v="333274" />
	</node>
	<node id="-842737" lat="63.7767527754" lon="9.74377777939">
		<tag k="name" v="Elvegård" />
		<tag k="place" v="farm" />
		<tag k="ssr:stedsnr" v="30829" />
	</node>
	<node id="-843944" lat="63.7559249985" lon="9.96188610621">
		<tag k="name" v="Moan" />
		<tag k="place" v="isolated_dwelling" />
		<tag k="ssr:stedsnr" v="333579" />
	</node>
	<node id="-842734" lat="63.8126888894" lon="9.70020278164">
		<tag k="name" v="Tørrem" />
		<tag k="place" v="farm" />
		<tag k="ssr:stedsnr" v="135771" />
	</node>
	<node id="-844781" lat="63.8663472197" lon="9.85386666989">
		<tag k="name" v="Grindfaret" />
		<tag k="place" v="farm" />
		<tag k="ssr:stedsnr" v="394925" />
	</node>
	<node id="-844777" lat="63.8784035659" lon="9.80972760345">
		<tag k="name" v="Madsøya" />
		<tag k="place" v="farm" />
		<tag k="ssr:stedsnr" v="636836" />
	</node>
	<node id="-842728" lat="63.8066138865" lon="9.68140000442">
		<tag k="name" v="Sagatun" />
		<tag k="place" v="farm" />
		<tag k="ssr:stedsnr" v="758880" />
	</node>
	<node id="-842727" lat="63.7582694432" lon="9.80048889475">
		<tag k="name" v="Storbakken" />
		<tag k="place" v="farm" />
		<tag k="ssr:stedsnr" v="698862" />
	</node>
	<node id="-842726" lat="63.725541663" lon="9.83800556057">
		<tag k="name" v="Eid" />
		<tag k="place" v="farm" />
		<tag k="ssr:stedsnr" v="212789" />
	</node>
	<node id="-842724" lat="63.8570444457" lon="9.70800832652">
		<tag k="name" v="Storøya" />
		<tag k="place" v="farm" />
		<tag k="ssr:stedsnr" v="880930" />
	</node>
	<node id="-842722" lat="63.766958336" lon="9.6919722297">
		<tag k="name" v="Solvang" />
		<tag k="place" v="farm" />
		<tag k="ssr:stedsnr" v="195753" />
	</node>
	<node id="-844769" lat="63.8482250005" lon="9.83562778191">
		<tag k="name" v="Asserøya" />
		<tag k="place" v="farm" />
		<tag k="ssr:stedsnr" v="802114" />
	</node>
	<node id="-844766" lat="63.9235555586" lon="9.75853054724">
		<tag k="fixme" v="consider place=hamlet" />
		<tag k="name" v="Asen" />
		<tag k="place" v="farm" />
		<tag k="ssr:stedsnr" v="363943" />
	</node>
	<node id="-844765" lat="63.8887611095" lon="9.92656111199">
		<tag k="fixme" v="consider place=hamlet" />
		<tag k="name" v="Tiltrem" />
		<tag k="place" v="farm" />
		<tag k="ssr:stedsnr" v="924577" />
	</node>
	<node id="-842715" lat="63.7717249981" lon="9.56708333915">
		<tag k="name" v="Haugvika" />
		<tag k="place" v="farm" />
		<tag k="ssr:stedsnr" v="91229" />
	</node>
	<node id="-842713" lat="63.7724694446" lon="9.58988333142">
		<tag k="name" v="Mjølven" />
		<tag k="place" v="farm" />
		<tag k="ssr:stedsnr" v="576243" />
	</node>
	<node id="-844760" lat="63.7896055526" lon="9.96371944736">
		<tag k="name" v="Slettvoll" />
		<tag k="place" v="farm" />
		<tag k="ssr:stedsnr" v="333281" />
	</node>
	<node id="-842708" lat="63.7512083359" lon="9.77635833279">
		<tag k="name" v="Frødalen" />
		<tag k="place" v="farm" />
		<tag k="ssr:stedsnr" v="317163" />
	</node>
	<node id="-842707" lat="63.7582138886" lon="9.9820222174">
		<tag k="fixme" v="consider place=hamlet" />
		<tag k="name" v="Stallvika" />
		<tag k="place" v="farm" />
		<tag k="ssr:stedsnr" v="303967" />
	</node>
	<node id="-842705" lat="63.7652916694" lon="9.82141943585">
		<tag k="fixme" v="consider place=hamlet" />
		<tag k="name" v="Botngården" />
		<tag k="place" v="farm" />
		<tag k="ssr:stedsnr" v="515867" />
	</node>
	<node id="-842703" lat="63.7529555521" lon="9.93003889109">
		<tag k="name" v="Høgberget" />
		<tag k="place" v="isolated_dwelling" />
		<tag k="ssr:stedsnr" v="91640" />
	</node>
	<node id="-842701" lat="63.7802083327" lon="9.75191389362">
		<tag k="name" v="Nordheim" />
		<tag k="place" v="farm" />
		<tag k="ssr:stedsnr" v="698859" />
	</node>
	<node id="-842697" lat="63.8923500008" lon="9.86981944573">
		<tag k="name" v="Vika" />
		<tag k="place" v="farm" />
		<tag k="ssr:stedsnr" v="880518" />
	</node>
	<node id="-842696" lat="63.7610999993" lon="9.79008055384">
		<tag k="name" v="Klaksdal" />
		<tag k="place" v="farm" />
		<tag k="ssr:stedsnr" v="758872" />
	</node>
	<node id="-842694" lat="63.7640055559" lon="9.97680832627">
		<tag k="name" v="Litlmyra" />
		<tag k="place" v="isolated_dwelling" />
		<tag k="ssr:stedsnr" v="455561" />
	</node>
	<node id="-844741" lat="63.8283416622" lon="9.81183056118">
		<tag k="alt_name" v="Nedre Barset;Barset, nedre" />
		<tag k="name" v="Barset" />
		<tag k="place" v="farm" />
		<tag k="ssr:stedsnr" v="620072" />
	</node>
	<node id="-844740" lat="63.7587916677" lon="9.61908056342">
		<tag k="name" v="Engsnes" />
		<tag k="place" v="farm" />
		<tag k="ssr:stedsnr" v="863741" />
	</node>
	<node id="-844739" lat="63.8430194443" lon="9.70093610102">
		<tag k="name" v="Melem" />
		<tag k="place" v="hamlet" />
		<tag k="ssr:stedsnr" v="363942" />
	</node>
	<node id="-842689" lat="63.753405559" lon="9.70681945168">
		<tag k="name" v="Skoglund" />
		<tag k="place" v="farm" />
		<tag k="ssr:stedsnr" v="212783" />
	</node>
	<node id="-844960" lat="63.8486398484" lon="9.85980184513">
		<tag k="name" v="Stranda" />
		<tag k="place" v="hamlet" />
		<tag k="ssr:stedsnr" v="316089" />
	</node>
	<node id="-842686" lat="63.8478166705" lon="9.89923887983">
		<tag k="name" v="Teksdal" />
		<tag k="place" v="farm" />
		<tag k="ssr:stedsnr" v="273946" />
	</node>
	<node id="-844731" lat="63.7707555556" lon="9.56264167475">
		<tag k="name" v="Kjemphaugan" />
		<tag k="place" v="farm" />
		<tag k="ssr:stedsnr" v="212256" />
	</node>
	<node id="-844730" lat="63.8305638877" lon="9.67458611015">
		<tag k="name" v="Haugen" />
		<tag k="place" v="farm" />
		<tag k="ssr:stedsnr" v="394909" />
	</node>
	<node id="-844728" lat="63.7611972255" lon="9.69592223227">
		<tag k="name" v="Vika" />
		<tag k="place" v="farm" />
		<tag k="ssr:stedsnr" v="758768" />
	</node>
	<node id="-844726" lat="63.8278250035" lon="9.81114443692">
		<tag k="fixme" v="consider place=hamlet" />
		<tag k="name" v="Barset" />
		<tag k="place" v="farm" />
		<tag k="ssr:stedsnr" v="60965" />
	</node>
	<node id="-844723" lat="63.7454694436" lon="9.80787221285">
		<tag k="name" v="Skavdalslia" />
		<tag k="place" v="farm" />
		<tag k="ssr:stedsnr" v="30308" />
	</node>
	<node id="-844721" lat="63.7447638899" lon="9.69370278361">
		<tag k="name" v="Aspervoll" />
		<tag k="place" v="farm" />
		<tag k="ssr:stedsnr" v="515291" />
	</node>
	<node id="-844615" lat="63.8188166625" lon="9.97410277171">
		<tag k="name" v="Aunhytta" />
		<tag k="place" v="isolated_dwelling" />
		<tag k="ssr:stedsnr" v="940035" />
	</node>
	<node id="-844712" lat="63.7995888893" lon="9.43033611197">
		<tag k="name" v="Nordvika" />
		<tag k="place" v="farm" />
		<tag k="ssr:stedsnr" v="30310" />
	</node>
	<node id="-844709" lat="63.8661666689" lon="9.9453638849">
		<tag k="name" v="Fossheim" />
		<tag k="place" v="farm" />
		<tag k="ssr:stedsnr" v="880838" />
	</node>
	<node id="-844708" lat="63.7853638897" lon="9.81321388591">
		<tag k="name" v="Lia" />
		<tag k="place" v="farm" />
		<tag k="ssr:stedsnr" v="698753" />
	</node>
	<node id="-844705" lat="63.779127782" lon="9.78115277222">
		<tag k="name" v="Stokkeng" />
		<tag k="place" v="farm" />
		<tag k="ssr:stedsnr" v="394490" />
	</node>
	<node id="-844704" lat="63.7817249999" lon="9.76275277987">
		<tag k="name" v="Vassaunet" />
		<tag k="place" v="farm" />
		<tag k="ssr:stedsnr" v="273830" />
	</node>
	<node id="-844699" lat="63.8684361142" lon="9.93686111116">
		<tag k="name" v="Lund" />
		<tag k="place" v="farm" />
		<tag k="ssr:stedsnr" v="880840" />
	</node>
	<node id="-844770" lat="63.8036749978" lon="9.65114445085">
		<tag k="name" v="Klungervollen" />
		<tag k="place" v="farm" />
		<tag k="ssr:stedsnr" v="636834" />
	</node>
	<node id="-844690" lat="63.7441361104" lon="9.71284444036">
		<tag k="name" v="Nordheim" />
		<tag k="place" v="farm" />
		<tag k="ssr:stedsnr" v="515295" />
	</node>
	<node id="-844952" lat="63.8339305555" lon="9.67334166775">
		<tag k="name" v="Skardet" />
		<tag k="place" v="farm" />
		<tag k="ssr:stedsnr" v="636895" />
	</node>
	<node id="-844686" lat="63.7412333366" lon="9.81493611423">
		<tag k="name" v="Rabben" />
		<tag k="place" v="farm" />
		<tag k="ssr:stedsnr" v="636845" />
	</node>
	<node id="-844685" lat="63.7587388899" lon="9.63256388993">
		<tag k="name" v="Tønnølsstranda" />
		<tag k="place" v="farm" />
		<tag k="ssr:stedsnr" v="333267" />
	</node>
	<node id="-844680" lat="63.7647055511" lon="9.699686121">
		<tag k="name" v="Brandvik" />
		<tag k="place" v="farm" />
		<tag k="ssr:stedsnr" v="698341" />
	</node>
	<node id="-844675" lat="63.8034888925" lon="9.43290833617">
		<tag k="name" v="Nausthaug" />
		<tag k="place" v="isolated_dwelling" />
		<tag k="ssr:stedsnr" v="558666" />
	</node>
	<node id="-844668" lat="63.7405916706" lon="9.7089611159">
		<tag k="name" v="Nyheim" />
		<tag k="place" v="farm" />
		<tag k="ssr:stedsnr" v="30303" />
	</node>
	<node id="-844667" lat="63.8609361111" lon="9.88531944892">
		<tag k="name" v="Vikan" />
		<tag k="place" v="farm" />
		<tag k="ssr:stedsnr" v="862152" />
	</node>
	<node id="-844662" lat="63.7794527771" lon="9.7253722212">
		<tag k="name" v="Elvebakken" />
		<tag k="place" v="farm" />
		<tag k="ssr:stedsnr" v="880830" />
	</node>
	<node id="-844653" lat="63.875575002" lon="9.84175278133">
		<tag k="name" v="Moen" />
		<tag k="place" v="farm" />
		<tag k="ssr:stedsnr" v="25163" />
	</node>
	<node id="-844651" lat="63.8866277742" lon="9.89932500736">
		<tag k="name" v="Lunnan" />
		<tag k="place" v="farm" />
		<tag k="ssr:stedsnr" v="636841" />
	</node>
	<node id="-844646" lat="63.7798444416" lon="9.79617500184">
		<tag k="name" v="Vestheim" />
		<tag k="place" v="farm" />
		<tag k="ssr:stedsnr" v="273836" />
	</node>
	<node id="-844638" lat="63.7786361106" lon="9.74762776949">
		<tag k="name" v="Setermoen" />
		<tag k="place" v="farm" />
		<tag k="ssr:stedsnr" v="394894" />
	</node>
	<node id="-844631" lat="63.842630558" lon="9.85630555022">
		<tag k="name" v="Audalen" />
		<tag k="place" v="farm" />
		<tag k="ssr:stedsnr" v="91952" />
	</node>
	<node id="-844628" lat="63.7534750008" lon="9.72726111497">
		<tag k="name" v="Solheim" />
		<tag k="place" v="farm" />
		<tag k="ssr:stedsnr" v="880796" />
	</node>
	<node id="-844623" lat="63.8552388909" lon="9.87779445358">
		<tag k="name" v="Skardet" />
		<tag k="place" v="farm" />
		<tag k="ssr:stedsnr" v="91951" />
	</node>
	<node id="-844621" lat="63.7586638915" lon="9.79206666917">
		<tag k="name" v="Klakkagrenda" />
		<tag k="place" v="hamlet" />
		<tag k="ssr:stedsnr" v="455433" />
	</node>
	<node id="-844619" lat="63.789569446" lon="9.6105805483">
		<tag k="name" v="Skjerpingen" />
		<tag k="place" v="farm" />
		<tag k="ssr:stedsnr" v="758305" />
	</node>
	<node id="-844617" lat="63.7689138911" lon="9.57248889802">
		<tag k="name" v="Innlegget" />
		<tag k="place" v="farm" />
		<tag k="ssr:stedsnr" v="758299" />
	</node>
	<node id="-844940" lat="63.7314166626" lon="9.87545555595">
		<tag k="alt_name" v="Saltneset" />
		<tag k="name" v="Saltnes" />
		<tag k="place" v="farm" />
		<tag k="ssr:stedsnr" v="863226" />
	</node>
	<node id="-844612" lat="63.8557888884" lon="9.7267222287">
		<tag k="name" v="Avkrokhaugen hyttefelt" />
		<tag k="place" v="neighbourhood" />
		<tag k="ssr:stedsnr" v="709017" />
	</node>
	<node id="-844610" lat="63.7991388858" lon="9.96851665973">
		<tag k="name" v="Gammelgården" />
		<tag k="place" v="farm" />
		<tag k="ssr:stedsnr" v="30291" />
	</node>
	<node id="-844609" lat="63.781099997" lon="9.75891944976">
		<tag k="name" v="Grønbukta" />
		<tag k="place" v="farm" />
		<tag k="ssr:stedsnr" v="394891" />
	</node>
	<node id="-844604" lat="63.7987194466" lon="9.61675000188">
		<tag k="alt_name" v="Hellemsvikan" />
		<tag k="name" v="Hellemsvika" />
		<tag k="place" v="farm" />
		<tag k="ssr:stedsnr" v="438668" />
	</node>
	<node id="-844938" lat="63.8944000005" lon="9.85317221979">
		<tag k="fixme" v="consider place=hamlet" />
		<tag k="name" v="Lysøy" />
		<tag k="place" v="farm" />
		<tag k="ssr:stedsnr" v="880848" />
	</node>
	<node id="-844601" lat="63.7462861124" lon="9.83816667345">
		<tag k="name" v="Furuhaugen" />
		<tag k="place" v="farm" />
		<tag k="ssr:stedsnr" v="455852" />
	</node>
	<node id="-844600" lat="63.798511109" lon="10.0274194358">
		<tag k="name" v="Kaldvollen" />
		<tag k="place" v="farm" />
		<tag k="ssr:stedsnr" v="30294" />
	</node>
	<node id="-844598" lat="63.7656694473" lon="9.72991389346">
		<tag k="name" v="Åsgården" />
		<tag k="place" v="farm" />
		<tag k="ssr:stedsnr" v="880798" />
	</node>
	<node id="-844596" lat="63.7986999978" lon="10.0448861048">
		<tag k="name" v="Vimo" />
		<tag k="place" v="farm" />
		<tag k="ssr:stedsnr" v="30293" />
	</node>
	<node id="-844595" lat="63.8447027778" lon="9.86664721481">
		<tag k="name" v="Nordli" />
		<tag k="place" v="farm" />
		<tag k="ssr:stedsnr" v="91954" />
	</node>
	<node id="-844593" lat="63.8475472246" lon="9.81814167077">
		<tag k="name" v="Leset" />
		<tag k="place" v="farm" />
		<tag k="ssr:stedsnr" v="116022" />
	</node>
	<node id="-845277" lat="63.8850611148" lon="9.85104999864">
		<tag k="name" v="Østerplassen" />
		<tag k="place" v="farm" />
		<tag k="ssr:stedsnr" v="819536" />
	</node>
	<node id="-844586" lat="63.8843611126" lon="9.89849722528">
		<tag k="name" v="Hellesvikmoen" />
		<tag k="place" v="farm" />
		<tag k="ssr:stedsnr" v="819851" />
	</node>
	<node id="-844585" lat="63.783099996" lon="9.99240276755">
		<tag k="fixme" v="consider place=hamlet" />
		<tag k="name" v="Gjølja" />
		<tag k="old_name" v="Gjølga" />
		<tag k="place" v="village" />
		<tag k="ssr:stedsnr" v="268227" />
	</node>
	<node id="-844571" lat="63.7475805538" lon="9.70909722414">
		<tag k="name" v="Austrått" />
		<tag k="place" v="farm" />
		<tag k="ssr:stedsnr" v="515290" />
	</node>
	<node id="-844567" lat="63.8519277772" lon="9.86701666778">
		<tag k="name" v="Stranda" />
		<tag k="place" v="farm" />
		<tag k="ssr:stedsnr" v="91949" />
	</node>
	<node id="-844562" lat="63.7388638861" lon="9.85186389849">
		<tag k="name" v="Sørmyr" />
		<tag k="place" v="farm" />
		<tag k="ssr:stedsnr" v="863198" />
	</node>
	<node id="-844558" lat="63.802444448" lon="10.1057805595">
		<tag k="name" v="Myr" />
		<tag k="place" v="farm" />
		<tag k="ssr:stedsnr" v="30287" />
	</node>
	<node id="-844589" lat="63.8468305516" lon="9.89319166821">
		<tag k="name" v="Moen" />
		<tag k="place" v="farm" />
		<tag k="ssr:stedsnr" v="91946" />
	</node>
	<node id="-844556" lat="63.7844083309" lon="9.84019999316">
		<tag k="name" v="Bekkhaugen" />
		<tag k="place" v="isolated_dwelling" />
		<tag k="ssr:stedsnr" v="819422" />
	</node>
	<node id="-844552" lat="63.7398666697" lon="9.88078334089">
		<tag k="name" v="Heggvik" />
		<tag k="place" v="farm" />
		<tag k="ssr:stedsnr" v="967247" />
	</node>
	<node id="-844548" lat="63.8149083372" lon="10.1059111154">
		<tag k="name" v="Buås" />
		<tag k="place" v="farm" />
		<tag k="ssr:stedsnr" v="437052" />
	</node>
	<node id="-844545" lat="63.7620305584" lon="9.86047499049">
		<tag k="name" v="Haugen" />
		<tag k="place" v="farm" />
		<tag k="ssr:stedsnr" v="394881" />
	</node>
	<node id="-844439" lat="63.8010194486" lon="10.1014888833">
		<tag k="name" v="Austerli" />
		<tag k="place" v="farm" />
		<tag k="ssr:stedsnr" v="151289" />
	</node>
	<node id="-844538" lat="63.7476944442" lon="9.70615556542">
		<tag k="name" v="Moen" />
		<tag k="place" v="farm" />
		<tag k="ssr:stedsnr" v="758319" />
	</node>
	<node id="-844533" lat="63.8044805569" lon="9.68539722636">
		<tag k="name" v="Skillestad" />
		<tag k="place" v="farm" />
		<tag k="ssr:stedsnr" v="880812" />
	</node>
	<node id="-844532" lat="63.7393000044" lon="9.84754166427">
		<tag k="name" v="Vollan" />
		<tag k="place" v="farm" />
		<tag k="ssr:stedsnr" v="559168" />
	</node>
	<node id="-844530" lat="63.8403055551" lon="9.83057499086">
		<tag k="fixme" v="consider place=hamlet" />
		<tag k="name" v="Valan" />
		<tag k="place" v="farm" />
		<tag k="ssr:stedsnr" v="802107" />
	</node>
	<node id="-844529" lat="63.7888972207" lon="9.59914443569">
		<tag k="name" v="Brekkan" />
		<tag k="place" v="farm" />
		<tag k="ssr:stedsnr" v="515270" />
	</node>
	<node id="-844525" lat="63.731330557" lon="9.87564166275">
		<tag k="name" v="Saltneshaugen" />
		<tag k="place" v="farm" />
		<tag k="ssr:stedsnr" v="394879" />
	</node>
	<node id="-844524" lat="63.7817638911" lon="10.0484777755">
		<tag k="name" v="Neset" />
		<tag k="place" v="farm" />
		<tag k="ssr:stedsnr" v="212227" />
	</node>
	<node id="-844521" lat="63.7579972248" lon="9.87309999086">
		<tag k="name" v="Grindbakken" />
		<tag k="place" v="farm" />
		<tag k="ssr:stedsnr" v="394880" />
	</node>
	<node id="-844518" lat="63.7491194445" lon="9.72791943817">
		<tag k="name" v="Litllia" />
		<tag k="place" v="farm" />
		<tag k="ssr:stedsnr" v="273799" />
	</node>
	<node id="-844513" lat="63.8368083335" lon="9.82089721768">
		<tag k="fixme" v="consider place=hamlet" />
		<tag k="name" v="Råka" />
		<tag k="place" v="farm" />
		<tag k="ssr:stedsnr" v="802101" />
	</node>
	<node id="-844922" lat="63.7476305538" lon="9.81499445067">
		<tag k="name" v="Skogen" />
		<tag k="place" v="farm" />
		<tag k="ssr:stedsnr" v="273872" />
	</node>
	<node id="-844506" lat="63.827941669" lon="9.65563332433">
		<tag k="name" v="Valstad hyttefelt" />
		<tag k="place" v="neighbourhood" />
		<tag k="ssr:stedsnr" v="709028" />
	</node>
	<node id="-844494" lat="63.7665111116" lon="9.85664999774">
		<tag k="name" v="Einhaugen" />
		<tag k="place" v="farm" />
		<tag k="ssr:stedsnr" v="394884" />
	</node>
	<node id="-844483" lat="63.7880166708" lon="9.81584722106">
		<tag k="name" v="Lia" />
		<tag k="place" v="farm" />
		<tag k="ssr:stedsnr" v="455847" />
	</node>
	<node id="-844475" lat="63.8452916684" lon="9.80894443482">
		<tag k="name" v="Brubakken" />
		<tag k="place" v="farm" />
		<tag k="ssr:stedsnr" v="576928" />
	</node>
	<node id="-844470" lat="63.7698138881" lon="9.58735278305">
		<tag k="name" v="Nesgården" />
		<tag k="place" v="farm" />
		<tag k="ssr:stedsnr" v="30273" />
	</node>
	<node id="-845257" lat="63.7580083344" lon="9.9829666646">
		<tag k="name" v="Stallvik" />
		<tag k="place" v="farm" />
		<tag k="ssr:stedsnr" v="576225" />
	</node>
	<node id="-844468" lat="63.7490527819" lon="9.69780000713">
		<tag k="name" v="Fauskan" />
		<tag k="place" v="farm" />
		<tag k="ssr:stedsnr" v="273788" />
	</node>
	<node id="-844458" lat="63.7493555526" lon="9.78056389317">
		<tag k="name" v="Moberg" />
		<tag k="place" v="farm" />
		<tag k="ssr:stedsnr" v="863184" />
	</node>
	<node id="-844455" lat="63.7839305585" lon="9.77748334063">
		<tag k="name" v="Ratdalen" />
		<tag k="place" v="farm" />
		<tag k="ssr:stedsnr" v="819833" />
	</node>
	<node id="-844452" lat="63.7624388894" lon="9.70554444548">
		<tag k="name" v="Abelvika" />
		<tag k="place" v="farm" />
		<tag k="ssr:stedsnr" v="273785" />
	</node>
	<node id="-845254" lat="63.7588027767" lon="9.73086388127">
		<tag k="name" v="Stranda" />
		<tag k="place" v="isolated_dwelling" />
		<tag k="ssr:stedsnr" v="151427" />
	</node>
	<node id="-844446" lat="63.7628277794" lon="9.61541944229">
		<tag k="fixme" v="consider place=hamlet" />
		<tag k="name" v="Tønnøl" />
		<tag k="place" v="farm" />
		<tag k="ssr:stedsnr" v="619771" />
	</node>
	<node id="-844442" lat="63.7517805529" lon="9.72353333634">
		<tag k="amenity" v="school" />
		<tag k="name" v="Ervik skole" />
		<tag k="ssr:stedsnr" v="636333" />
	</node>
	<node id="-843204" lat="63.7489527746" lon="9.81991388337">
		<tag k="name" v="Nordaker" />
		<tag k="place" v="farm" />
		<tag k="ssr:stedsnr" v="212873" />
	</node>
	<node id="-844436" lat="63.800763891" lon="10.0064027773">
		<tag k="name" v="Nybråten" />
		<tag k="place" v="farm" />
		<tag k="ssr:stedsnr" v="13003" />
	</node>
	<node id="-844435" lat="63.8752027764" lon="9.83936944444">
		<tag k="name" v="Haugen" />
		<tag k="place" v="farm" />
		<tag k="ssr:stedsnr" v="576934" />
	</node>
	<node id="-844430" lat="63.7504055592" lon="9.82089999649">
		<tag k="name" v="Hegglia" />
		<tag k="place" v="farm" />
		<tag k="ssr:stedsnr" v="196183" />
	</node>
	<node id="-844429" lat="63.7961805589" lon="10.0720555627">
		<tag k="name" v="Alm" />
		<tag k="place" v="farm" />
		<tag k="ssr:stedsnr" v="151290" />
	</node>
	<node id="-844422" lat="63.7446333306" lon="9.83068611179">
		<tag k="name" v="Furuneset" />
		<tag k="place" v="farm" />
		<tag k="ssr:stedsnr" v="275949" />
	</node>
	<node id="-844421" lat="63.7656305592" lon="9.59648056219">
		<tag k="name" v="Lauvskardet" />
		<tag k="place" v="farm" />
		<tag k="ssr:stedsnr" v="30266" />
	</node>
	<node id="-844419" lat="63.8080472254" lon="10.1471333334">
		<tag k="name" v="Høgset" />
		<tag k="place" v="farm" />
		<tag k="ssr:stedsnr" v="151288" />
	</node>
	<node id="-844410" lat="63.7715222217" lon="9.68670832919">
		<tag k="name" v="Norheim" />
		<tag k="place" v="farm" />
		<tag k="ssr:stedsnr" v="619768" />
	</node>
	<node id="-845247" lat="63.891150003" lon="9.84330833407">
		<tag k="name" v="Lysøy" />
		<tag k="place" v="farm" />
		<tag k="ssr:stedsnr" v="758832" />
	</node>
	<node id="-844905" lat="63.7468388879" lon="9.70181110149">
		<tag k="name" v="Østerheim" />
		<tag k="place" v="farm" />
		<tag k="ssr:stedsnr" v="212279" />
	</node>
	<node id="-844399" lat="63.8089611078" lon="9.4392888886">
		<tag k="name" v="Sørstøa" />
		<tag k="place" v="farm" />
		<tag k="ssr:stedsnr" v="195676" />
	</node>
	<node id="-844395" lat="63.7835416684" lon="9.59801943581">
		<tag k="name" v="Hellem" />
		<tag k="place" v="farm" />
		<tag k="ssr:stedsnr" v="151283" />
	</node>
	<node id="-844393" lat="63.8835228702" lon="9.8598230087">
		<tag k="name" v="Lysøysund" />
		<tag k="place" v="farm" />
		<tag k="ssr:stedsnr" v="394853" />
	</node>
	<node id="-844392" lat="63.8091583298" lon="9.66362499402">
		<tag k="name" v="Aunet" />
		<tag k="place" v="farm" />
		<tag k="ssr:stedsnr" v="819843" />
	</node>
	<node id="-844391" lat="63.7583527739" lon="9.98153889652">
		<tag k="name" v="Stallvik" />
		<tag k="place" v="farm" />
		<tag k="ssr:stedsnr" v="30257" />
	</node>
	<node id="-844385" lat="63.8230250044" lon="9.63635832884">
		<tag k="name" v="Vågan" />
		<tag k="place" v="farm" />
		<tag k="ssr:stedsnr" v="195669" />
	</node>
	<node id="-844380" lat="63.8183083349" lon="9.42901111685">
		<tag k="alt_name" v="Nordbuen" />
		<tag k="name" v="Nordbuan" />
		<tag k="place" v="farm" />
		<tag k="ssr:stedsnr" v="195670" />
	</node>
	<node id="-844377" lat="63.8566388874" lon="9.76278333089">
		<tag k="name" v="Bålfjordneset" />
		<tag k="place" v="farm" />
		<tag k="ssr:stedsnr" v="334908" />
	</node>
	<node id="-844376" lat="63.7593999983" lon="9.79973611133">
		<tag k="name" v="Setergrenda" />
		<tag k="place" v="hamlet" />
		<tag k="ssr:stedsnr" v="576496" />
	</node>
	<node id="-844373" lat="63.7357833297" lon="9.85515277163">
		<tag k="name" v="Romstad" />
		<tag k="place" v="farm" />
		<tag k="ssr:stedsnr" v="923227" />
	</node>
	<node id="-844368" lat="63.8899055588" lon="9.8660250028">
		<tag k="name" v="Veavika" />
		<tag k="place" v="farm" />
		<tag k="ssr:stedsnr" v="394852" />
	</node>
	<node id="-844366" lat="63.8127194488" lon="9.69554999135">
		<tag k="name" v="Nergård" />
		<tag k="place" v="farm" />
		<tag k="ssr:stedsnr" v="576920" />
	</node>
	<node id="-844557" lat="63.8150166685" lon="9.70336944874">
		<tag k="name" v="Tørrem" />
		<tag k="place" v="farm" />
		<tag k="ssr:stedsnr" v="394899" />
	</node>
	<node id="-844363" lat="63.8590555558" lon="9.79930556498">
		<tag k="name" v="Kjempa" />
		<tag k="place" v="farm" />
		<tag k="ssr:stedsnr" v="871144" />
	</node>
	<node id="-844359" lat="63.7832333289" lon="9.99305556394">
		<tag k="name" v="Gammelgården" />
		<tag k="place" v="farm" />
		<tag k="ssr:stedsnr" v="758282" />
	</node>
	<node id="-844358" lat="63.7602611122" lon="9.79495277962">
		<tag k="name" v="Høgsetet" />
		<tag k="place" v="farm" />
		<tag k="ssr:stedsnr" v="940875" />
	</node>
	<node id="-842849" lat="63.7475611101" lon="9.82388888411">
		<tag k="name" v="Søraker" />
		<tag k="place" v="farm" />
		<tag k="ssr:stedsnr" v="30848" />
	</node>
	<node id="-844356" lat="63.782052778" lon="9.72379999735">
		<tag k="name" v="Lund" />
		<tag k="place" v="farm" />
		<tag k="ssr:stedsnr" v="455820" />
	</node>
	<node id="-844355" lat="63.873633334" lon="9.88451944579">
		<tag k="amenity" v="school" />
		<tag k="name" v="Fagerenget" />
		<tag k="ssr:stedsnr" v="134597" />
	</node>
	<node id="-844352" lat="63.8469611145" lon="9.90192778234">
		<tag k="name" v="Fosseng" />
		<tag k="place" v="farm" />
		<tag k="ssr:stedsnr" v="334915" />
	</node>
	<node id="-844896" lat="63.7719499983" lon="9.68410277177">
		<tag k="name" v="Nordbo" />
		<tag k="place" v="farm" />
		<tag k="ssr:stedsnr" v="74717" />
	</node>
	<node id="-844350" lat="63.7888611143" lon="9.96047499528">
		<tag k="name" v="Kleiva" />
		<tag k="place" v="farm" />
		<tag k="ssr:stedsnr" v="30253" />
	</node>
	<node id="-843189" lat="63.8416472208" lon="9.83759721386">
		<tag k="name" v="Valmyra" />
		<tag k="place" v="farm" />
		<tag k="ssr:stedsnr" v="941934" />
	</node>
	<node id="-844348" lat="63.8036388903" lon="9.43360277991">
		<tag k="name" v="Nausthaugan" />
		<tag k="place" v="farm" />
		<tag k="ssr:stedsnr" v="637211" />
	</node>
	<node id="-844344" lat="63.843697226" lon="9.83244999562">
		<tag k="name" v="Eidet" />
		<tag k="place" v="farm" />
		<tag k="ssr:stedsnr" v="576923" />
	</node>
	<node id="-844340" lat="63.7446333306" lon="9.83068611179">
		<tag k="name" v="Vestre Furuneset" />
		<tag k="place" v="farm" />
		<tag k="ssr:stedsnr" v="455406" />
	</node>
	<node id="-844339" lat="63.7799083341" lon="9.98985555491">
		<tag k="name" v="Haugen" />
		<tag k="place" v="farm" />
		<tag k="ssr:stedsnr" v="758279" />
	</node>
	<node id="-844349" lat="63.7494138873" lon="9.78084444598">
		<tag k="name" v="Kvitbergmoen" />
		<tag k="place" v="farm" />
		<tag k="ssr:stedsnr" v="940877" />
	</node>
	<node id="-844332" lat="63.8454583303" lon="10.1810611113">
		<tag k="historic" v="shieling" />
		<tag k="name" v="Inner Torsenget" />
		<tag k="place" v="locality" />
		<tag k="ssr:stedsnr" v="334076" />
	</node>
	<node id="-844330" lat="63.8281906757" lon="9.67521286325">
		<tag k="name" v="Val" />
		<tag k="place" v="farm" />
		<tag k="ssr:stedsnr" v="91907" />
	</node>
	<node id="-844892" lat="63.7799555551" lon="10.0598694467">
		<tag k="name" v="Råa" />
		<tag k="place" v="farm" />
		<tag k="ssr:stedsnr" v="923261" />
	</node>
	<node id="-844323" lat="63.8050972235" lon="9.66146389864">
		<tag k="name" v="Sandstad" />
		<tag k="place" v="farm" />
		<tag k="ssr:stedsnr" v="819839" />
	</node>
	<node id="-844321" lat="63.7565305594" lon="9.95222776875">
		<tag k="name" v="Steggan" />
		<tag k="place" v="farm" />
		<tag k="ssr:stedsnr" v="151269" />
	</node>
	<node id="-844320" lat="63.8553055532" lon="9.7779750028">
		<tag k="fixme" v="consider place=hamlet" />
		<tag k="name" v="Fauskan" />
		<tag k="place" v="village" />
		<tag k="ssr:stedsnr" v="498128" />
	</node>
	<node id="-844312" lat="63.7183333361" lon="9.81393889581">
		<tag k="name" v="Solberg" />
		<tag k="place" v="farm" />
		<tag k="ssr:stedsnr" v="741295" />
	</node>
	<node id="-844302" lat="63.7806444468" lon="9.99393332411">
		<tag k="name" v="Lauvhaug" />
		<tag k="place" v="farm" />
		<tag k="ssr:stedsnr" v="30243" />
	</node>
	<node id="-844295" lat="63.8202527811" lon="9.41827499107">
		<tag k="name" v="Husøya" />
		<tag k="place" v="hamlet" />
		<tag k="ssr:stedsnr" v="758250" />
	</node>
	<node id="-844293" lat="63.7227666636" lon="9.82981943886">
		<tag k="fixme" v="multiple name tags, choose one and add the other to alt_name" />
		<tag k="name" v="Eidsvoll;Trøa" />
		<tag k="place" v="farm" />
		<tag k="ssr:stedsnr" v="741294" />
	</node>
	<node id="-844289" lat="63.8122722188" lon="9.65739999892">
		<tag k="name" v="Sanden hyttefelt" />
		<tag k="place" v="neighbourhood" />
		<tag k="ssr:stedsnr" v="223023" />
	</node>
	<node id="-844286" lat="63.7556583308" lon="9.9368111156">
		<tag k="name" v="Kvennhusoldren" />
		<tag k="place" v="isolated_dwelling" />
		<tag k="ssr:stedsnr" v="151271" />
	</node>
	<node id="-844285" lat="63.8591333327" lon="9.85855278189">
		<tag k="name" v="Rømmen hyttefelt" />
		<tag k="place" v="neighbourhood" />
		<tag k="ssr:stedsnr" v="969015" />
	</node>
	<node id="-844281" lat="63.8040583299" lon="10.1034944381">
		<tag k="name" v="Elveng" />
		<tag k="place" v="hamlet" />
		<tag k="ssr:stedsnr" v="452066" />
	</node>
	<node id="-844278" lat="63.8441194479" lon="9.79089165801">
		<tag k="name" v="Jøssund" />
		<tag k="place" v="farm" />
		<tag k="ssr:stedsnr" v="880735" />
	</node>
	<node id="-844269" lat="63.8296916698" lon="9.80640277893">
		<tag k="name" v="Barsetbakken" />
		<tag k="place" v="farm" />
		<tag k="ssr:stedsnr" v="91890" />
	</node>
	<node id="-844257" lat="63.7588305576" lon="9.97191945249">
		<tag k="name" v="Asplund" />
		<tag k="place" v="farm" />
		<tag k="ssr:stedsnr" v="151266" />
	</node>
	<node id="-844255" lat="63.866936109" lon="9.84892500247">
		<tag k="name" v="Gullvika" />
		<tag k="place" v="farm" />
		<tag k="ssr:stedsnr" v="334901" />
	</node>
	<node id="-844254" lat="63.8010277754" lon="9.64907777135">
		<tag k="name" v="Steinvik" />
		<tag k="place" v="hamlet" />
		<tag k="ssr:stedsnr" v="273345" />
	</node>
	<node id="-844246" lat="63.7216555547" lon="9.84510833898">
		<tag k="name" v="Strandheim" />
		<tag k="place" v="isolated_dwelling" />
		<tag k="ssr:stedsnr" v="394431" />
	</node>
	<node id="-844244" lat="63.8057027753" lon="10.1069111206">
		<tag k="name" v="Elveng" />
		<tag k="place" v="farm" />
		<tag k="ssr:stedsnr" v="316016" />
	</node>
	<node id="-844242" lat="63.818399999" lon="10.1212638931">
		<tag k="name" v="Høgås" />
		<tag k="place" v="farm" />
		<tag k="ssr:stedsnr" v="802058" />
	</node>
	<node id="-844235" lat="63.8248638888" lon="9.64008332901">
		<tag k="name" v="Øver Vågan" />
		<tag k="place" v="farm" />
		<tag k="ssr:stedsnr" v="455808" />
	</node>
	<node id="-844234" lat="63.8633416671" lon="9.73383612123">
		<tag k="name" v="Åsheim" />
		<tag k="place" v="farm" />
		<tag k="ssr:stedsnr" v="333633" />
	</node>
	<node id="-844221" lat="63.8514916687" lon="9.74563611241">
		<tag k="amenity" v="school" />
		<tag k="name" v="Sandnes skole" />
		<tag k="ssr:stedsnr" v="273750" />
	</node>
	<node id="-844218" lat="63.7709194453" lon="9.8167527867">
		<tag k="name" v="Kamhaugfeltet" />
		<tag k="place" v="quarter" />
		<tag k="ssr:stedsnr" v="241101" />
	</node>
	<node id="-844215" lat="63.7805694421" lon="9.75595555542">
		<tag k="name" v="Nordheim" />
		<tag k="place" v="farm" />
		<tag k="ssr:stedsnr" v="91882" />
	</node>
	<node id="-844208" lat="63.7837999967" lon="9.83003888835">
		<tag k="name" v="Myrset" />
		<tag k="place" v="farm" />
		<tag k="ssr:stedsnr" v="940858" />
	</node>
	<node id="-844206" lat="63.7255432205" lon="9.83801089133">
		<tag k="alt_name" v="Eid" />
		<tag k="fixme" v="consider place=hamlet" />
		<tag k="name" v="Eide" />
		<tag k="place" v="farm" />
		<tag k="ssr:stedsnr" v="13251" />
	</node>
	<node id="-844204" lat="63.78889722" lon="9.96891110103">
		<tag k="name" v="Åsbakk" />
		<tag k="place" v="farm" />
		<tag k="ssr:stedsnr" v="151258" />
	</node>
	<node id="-844198" lat="63.789294445" lon="9.97464166988">
		<tag k="name" v="Haugen" />
		<tag k="place" v="farm" />
		<tag k="ssr:stedsnr" v="151259" />
	</node>
	<node id="-844197" lat="63.764208332" lon="9.60594166657">
		<tag k="name" v="Tønnøl" />
		<tag k="place" v="farm" />
		<tag k="ssr:stedsnr" v="30226" />
	</node>
	<node id="-844182" lat="63.8120361092" lon="10.0941583298">
		<tag k="alt_name" v="Stuavoll" />
		<tag k="name" v="Stuevoll" />
		<tag k="place" v="farm" />
		<tag k="ssr:stedsnr" v="437020" />
	</node>
	<node id="-844178" lat="63.7337472187" lon="9.86085000377">
		<tag k="name" v="Torkilstad" />
		<tag k="place" v="farm" />
		<tag k="ssr:stedsnr" v="91874" />
	</node>
	<node id="-844173" lat="63.7909166697" lon="9.99395555211">
		<tag k="name" v="Gjøljasetra" />
		<tag k="place" v="farm" />
		<tag k="ssr:stedsnr" v="741298" />
	</node>
	<node id="-844172" lat="63.7868361128" lon="9.97803333214">
		<tag k="name" v="Buåsen" />
		<tag k="place" v="farm" />
		<tag k="ssr:stedsnr" v="151254" />
	</node>
	<node id="-844170" lat="63.849025002" lon="9.73854445316">
		<tag k="fixme" v="consider place=hamlet" />
		<tag k="name" v="Bålfjorden" />
		<tag k="place" v="farm" />
		<tag k="ssr:stedsnr" v="74101" />
	</node>
	<node id="-843841" lat="63.8467749969" lon="9.69279443591">
		<tag k="name" v="Haldorhamn" />
		<tag k="place" v="farm" />
		<tag k="ssr:stedsnr" v="923697" />
	</node>
	<node id="-844155" lat="63.7886888911" lon="10.0022861168">
		<tag k="name" v="Heggøya" />
		<tag k="place" v="farm" />
		<tag k="ssr:stedsnr" v="151253" />
	</node>
	<node id="-844151" lat="63.7579083348" lon="9.7363861022">
		<tag k="name" v="Prestgården" />
		<tag k="place" v="farm" />
		<tag k="ssr:stedsnr" v="455773" />
	</node>
	<node id="-844132" lat="63.7854166691" lon="10.0267750048">
		<tag k="alt_name" v="Grandalen ned." />
		<tag k="name" v="Grandalen" />
		<tag k="place" v="farm" />
		<tag k="ssr:stedsnr" v="13244" />
	</node>
	<node id="-844130" lat="63.7432027758" lon="9.90566388733">
		<tag k="fixme" v="consider place=hamlet" />
		<tag k="name" v="Berge" />
		<tag k="place" v="farm" />
		<tag k="ssr:stedsnr" v="91873" />
	</node>
	<node id="-844128" lat="63.8506749988" lon="9.75805833099">
		<tag k="fixme" v="consider place=hamlet" />
		<tag k="name" v="Sandnes" />
		<tag k="place" v="village" />
		<tag k="ssr:stedsnr" v="74098" />
	</node>
	<node id="-843151" lat="63.7778805569" lon="10.0615555639">
		<tag k="name" v="Indre Dueskard" />
		<tag k="place" v="farm" />
		<tag k="ssr:stedsnr" v="256213" />
	</node>
	<node id="-843833" lat="63.7604472206" lon="9.63801111221">
		<tag k="name" v="Tønnølsstranda" />
		<tag k="place" v="farm" />
		<tag k="ssr:stedsnr" v="741790" />
	</node>
	<node id="-844113" lat="63.8037555591" lon="10.1102638922">
		<tag k="name" v="Ny Jord" />
		<tag k="place" v="farm" />
		<tag k="ssr:stedsnr" v="316257" />
	</node>
	<node id="-844327" lat="63.7843555599" lon="9.99290278568">
		<tag k="name" v="Ner-Gjølja" />
		<tag k="place" v="farm" />
		<tag k="ssr:stedsnr" v="515250" />
	</node>
	<node id="-844104" lat="63.784669449" lon="9.99332776952">
		<tag k="fixme" v="consider place=hamlet" />
		<tag k="name" v="Gjølja" />
		<tag k="place" v="farm" />
		<tag k="ssr:stedsnr" v="13243" />
	</node>
	<node id="-844103" lat="63.7603666703" lon="9.61622776935">
		<tag k="name" v="Tønnøl" />
		<tag k="place" v="farm" />
		<tag k="ssr:stedsnr" v="151237" />
	</node>
	<node id="-844096" lat="63.8569638901" lon="9.85950276958">
		<tag k="name" v="Valen" />
		<tag k="place" v="farm" />
		<tag k="ssr:stedsnr" v="438091" />
	</node>
	<node id="-844409" lat="63.7685416683" lon="9.87207500605">
		<tag k="name" v="Solem øv." />
		<tag k="place" v="farm" />
		<tag k="ssr:stedsnr" v="91497" />
	</node>
	<node id="-844085" lat="63.8131388883" lon="10.1259499907">
		<tag k="alt_name" v="Torseng" />
		<tag k="name" v="Torsenget" />
		<tag k="place" v="farm" />
		<tag k="ssr:stedsnr" v="134032" />
	</node>
	<node id="-844079" lat="63.7508750032" lon="9.77127221985">
		<tag k="name" v="Åsdal" />
		<tag k="place" v="farm" />
		<tag k="ssr:stedsnr" v="334859" />
	</node>
	<node id="-844074" lat="63.7455694482" lon="9.71654166337">
		<tag k="name" v="Fjellset" />
		<tag k="place" v="farm" />
		<tag k="ssr:stedsnr" v="636298" />
	</node>
	<node id="-844072" lat="63.8315333312" lon="9.67558611307">
		<tag k="name" v="Haugen" />
		<tag k="place" v="farm" />
		<tag k="ssr:stedsnr" v="516896" />
	</node>
	<node id="-844068" lat="63.8374444467" lon="9.70726111102">
		<tag k="name" v="Melem" />
		<tag k="place" v="hamlet" />
		<tag k="ssr:stedsnr" v="636741" />
	</node>
	<node id="-844067" lat="63.8840638866" lon="9.89337499002">
		<tag k="name" v="Nymoen" />
		<tag k="place" v="farm" />
		<tag k="ssr:stedsnr" v="91855" />
	</node>
	<node id="-844066" lat="63.8148194435" lon="9.67718055456">
		<tag k="name" v="Oksvoll" />
		<tag k="place" v="farm" />
		<tag k="ssr:stedsnr" v="516897" />
	</node>
	<node id="-844060" lat="63.7641388902" lon="9.72133334042">
		<tag k="name" v="Voltersvika" />
		<tag k="place" v="farm" />
		<tag k="ssr:stedsnr" v="455762" />
	</node>
	<node id="-844059" lat="63.7837972228" lon="9.99425833876">
		<tag k="name" v="Øver-Gjølja" />
		<tag k="place" v="farm" />
		<tag k="ssr:stedsnr" v="273720" />
	</node>
	<node id="-844057" lat="63.8456305554" lon="9.79447500613">
		<tag k="name" v="Jøssund" />
		<tag k="place" v="hamlet" />
		<tag k="ssr:stedsnr" v="195111" />
	</node>
	<node id="-844055" lat="63.7641416701" lon="9.81568333864">
		<tag k="amenity" v="school" />
		<tag k="name" v="Botngård skole" />
		<tag k="ssr:stedsnr" v="787857" />
	</node>
	<node id="-843180" lat="63.7601027764" lon="9.87097221281">
		<tag k="alt_name" v="Helland ned." />
		<tag k="name" v="Helland" />
		<tag k="place" v="farm" />
		<tag k="ssr:stedsnr" v="849895" />
	</node>
	<node id="-844045" lat="63.7824111113" lon="9.82908889162">
		<tag k="name" v="Kvolva" />
		<tag k="place" v="farm" />
		<tag k="ssr:stedsnr" v="91858" />
	</node>
	<node id="-844042" lat="63.8155222261" lon="9.71666666526">
		<tag k="name" v="Østheim" />
		<tag k="place" v="farm" />
		<tag k="ssr:stedsnr" v="334865" />
	</node>
	<node id="-844039" lat="63.7483500004" lon="9.71500277666">
		<tag k="alt_name" v="Ervikhaug" />
		<tag k="name" v="Ervikhaugen" />
		<tag k="place" v="farm" />
		<tag k="ssr:stedsnr" v="455767" />
	</node>
	<node id="-844028" lat="63.8449555565" lon="9.71253332858">
		<tag k="fixme" v="consider place=hamlet" />
		<tag k="name" v="Melem" />
		<tag k="place" v="farm" />
		<tag k="ssr:stedsnr" v="545943" />
	</node>
	<node id="-844018" lat="63.8889472237" lon="9.86642222307">
		<tag k="name" v="Valvika" />
		<tag k="place" v="farm" />
		<tag k="ssr:stedsnr" v="91851" />
	</node>
	<node id="-844017" lat="63.8400388881" lon="9.78143611022">
		<tag k="name" v="Jøssund" />
		<tag k="place" v="farm" />
		<tag k="ssr:stedsnr" v="516884" />
	</node>
	<node id="-844014" lat="63.7951138905" lon="9.62572222713">
		<tag k="name" v="Stokkbekken" />
		<tag k="place" v="farm" />
		<tag k="ssr:stedsnr" v="576846" />
	</node>
	<node id="-844012" lat="63.7459722198" lon="9.69736388047">
		<tag k="name" v="Sørheim" />
		<tag k="place" v="farm" />
		<tag k="ssr:stedsnr" v="273289" />
	</node>
	<node id="-844011" lat="63.8000250015" lon="10.0768222145">
		<tag k="name" v="Fagerli" />
		<tag k="place" v="farm" />
		<tag k="ssr:stedsnr" v="680003" />
	</node>
	<node id="-844010" lat="63.7706250003" lon="9.80362222119">
		<tag k="name" v="Tjuvskardmyra boligfelt" />
		<tag k="place" v="quarter" />
		<tag k="ssr:stedsnr" v="362114" />
	</node>
	<node id="-844007" lat="63.835774997" lon="9.67307221722">
		<tag k="name" v="Rabben" />
		<tag k="place" v="farm" />
		<tag k="ssr:stedsnr" v="91843" />
	</node>
	<node id="-844006" lat="63.7755638923" lon="10.0929500078">
		<tag k="name" v="Monsvollen" />
		<tag k="place" v="farm" />
		<tag k="ssr:stedsnr" v="700787" />
	</node>
	<node id="-844001" lat="63.8452527773" lon="10.1809972224">
		<tag k="name" v="Torsenget" />
		<tag k="place" v="isolated_dwelling" />
		<tag k="ssr:stedsnr" v="498092" />
	</node>
	<node id="-843996" lat="63.7507111099" lon="9.92483332422">
		<tag k="name" v="Vorpstykket" />
		<tag k="place" v="isolated_dwelling" />
		<tag k="ssr:stedsnr" v="636256" />
	</node>
	<node id="-843984" lat="63.8875194434" lon="9.85390556421">
		<tag k="name" v="Øra" />
		<tag k="place" v="farm" />
		<tag k="ssr:stedsnr" v="91847" />
	</node>
	<node id="-843980" lat="63.7711166659" lon="9.8215222198">
		<tag k="name" v="Prestdalen boligfelt" />
		<tag k="place" v="quarter" />
		<tag k="ssr:stedsnr" v="362111" />
	</node>
	<node id="-843979" lat="63.7958638854" lon="9.96183610145">
		<tag k="name" v="Gjøljalia" />
		<tag k="old_name" v="Gjølgali" />
		<tag k="place" v="farm" />
		<tag k="ssr:stedsnr" v="273285" />
	</node>
	<node id="-843976" lat="63.7704694489" lon="9.70055555579">
		<tag k="name" v="Østervoll" />
		<tag k="place" v="farm" />
		<tag k="ssr:stedsnr" v="13757" />
	</node>
	<node id="-843041" lat="63.8150583311" lon="9.86289721215">
		<tag k="name" v="Osplia" />
		<tag k="place" v="farm" />
		<tag k="ssr:stedsnr" v="758930" />
	</node>
	<node id="-843966" lat="63.7532249978" lon="9.70153888149">
		<tag k="name" v="Varden" />
		<tag k="place" v="farm" />
		<tag k="ssr:stedsnr" v="940777" />
	</node>
	<node id="-843964" lat="63.8130500011" lon="9.70390833515">
		<tag k="fixme" v="consider place=hamlet" />
		<tag k="name" v="Tørrem" />
		<tag k="place" v="farm" />
		<tag k="ssr:stedsnr" v="923686" />
	</node>
	<node id="-843963" lat="63.7419361152" lon="9.80669166391">
		<tag k="name" v="Geilmyra" />
		<tag k="place" v="farm" />
		<tag k="ssr:stedsnr" v="273295" />
	</node>
	<node id="-843962" lat="63.8226416667" lon="9.80523055046">
		<tag k="alt_name" v="Barset;Barset, øvre" />
		<tag k="name" v="Øvre Barset" />
		<tag k="place" v="farm" />
		<tag k="ssr:stedsnr" v="74079" />
	</node>
	<node id="-843961" lat="63.8858222238" lon="9.84044167011">
		<tag k="name" v="Nygård" />
		<tag k="place" v="farm" />
		<tag k="ssr:stedsnr" v="576852" />
	</node>
	<node id="-844829" lat="63.8221833372" lon="10.0346138908">
		<tag k="name" v="Hildremshytta" />
		<tag k="place" v="isolated_dwelling" />
		<tag k="ssr:stedsnr" v="940090" />
	</node>
	<node id="-843947" lat="63.768955557" lon="9.68693056326">
		<tag k="name" v="Høgtun" />
		<tag k="place" v="farm" />
		<tag k="ssr:stedsnr" v="741784" />
	</node>
	<node id="-842962" lat="63.7727138917" lon="9.5923055512">
		<tag k="name" v="Bakkteigan" />
		<tag k="place" v="farm" />
		<tag k="ssr:stedsnr" v="91276" />
	</node>
	<node id="-843943" lat="63.7370694458" lon="9.86623611704">
		<tag k="name" v="Kammen" />
		<tag k="place" v="farm" />
		<tag k="ssr:stedsnr" v="334850" />
	</node>
	<node id="-843939" lat="63.8949638903" lon="9.85365555794">
		<tag k="name" v="Lysøy" />
		<tag k="place" v="farm" />
		<tag k="ssr:stedsnr" v="576855" />
	</node>
	<node id="-843934" lat="63.7155361127" lon="9.80701944366">
		<tag k="alt_name" v="Aune" />
		<tag k="name" v="Aunet" />
		<tag k="place" v="farm" />
		<tag k="ssr:stedsnr" v="802831" />
	</node>
	<node id="-843933" lat="63.7467222196" lon="9.71976111776">
		<tag k="name" v="Slettmarka" />
		<tag k="place" v="farm" />
		<tag k="ssr:stedsnr" v="273292" />
	</node>
	<node id="-843932" lat="63.7770249989" lon="10.0631472309">
		<tag k="fixme" v="consider place=hamlet" />
		<tag k="name" v="Dueskard" />
		<tag k="place" v="farm" />
		<tag k="ssr:stedsnr" v="849966" />
	</node>
	<node id="-845167" lat="63.7539833297" lon="9.71105556105">
		<tag k="name" v="Bakken" />
		<tag k="place" v="farm" />
		<tag k="ssr:stedsnr" v="333771" />
	</node>
	<node id="-843928" lat="63.7524444464" lon="9.71788332677">
		<tag k="fixme" v="consider place=hamlet" />
		<tag k="name" v="Ervik" />
		<tag k="place" v="village" />
		<tag k="ssr:stedsnr" v="121896" />
	</node>
	<node id="-844825" lat="63.8071222263" lon="9.94128610459">
		<tag k="name" v="Sørbotnhytta" />
		<tag k="place" v="isolated_dwelling" />
		<tag k="ssr:stedsnr" v="91557" />
	</node>
	<node id="-843924" lat="63.8024000018" lon="9.6642027851">
		<tag k="name" v="Fagerheim" />
		<tag k="place" v="farm" />
		<tag k="ssr:stedsnr" v="91840" />
	</node>
	<node id="-843922" lat="63.7513444421" lon="9.72915833462">
		<tag k="fixme" v="consider place=hamlet" />
		<tag k="name" v="Storlia" />
		<tag k="place" v="farm" />
		<tag k="ssr:stedsnr" v="940783" />
	</node>
	<node id="-843921" lat="63.7934666639" lon="9.65019443656">
		<tag k="name" v="Heia" />
		<tag k="place" v="farm" />
		<tag k="ssr:stedsnr" v="91839" />
	</node>
	<node id="-843919" lat="63.8927444489" lon="9.84551667222">
		<tag k="name" v="Lysøy" />
		<tag k="place" v="farm" />
		<tag k="ssr:stedsnr" v="576857" />
	</node>
	<node id="-843903" lat="63.7493944453" lon="9.71569443507">
		<tag k="name" v="Bjørgan" />
		<tag k="place" v="farm" />
		<tag k="ssr:stedsnr" v="394774" />
	</node>
	<node id="-843901" lat="63.722733334" lon="9.80373888445">
		<tag k="name" v="Vårtun" />
		<tag k="place" v="farm" />
		<tag k="ssr:stedsnr" v="134290" />
	</node>
	<node id="-843896" lat="63.8870805572" lon="9.89834166253">
		<tag k="name" v="Hellesvika" />
		<tag k="place" v="hamlet" />
		<tag k="ssr:stedsnr" v="940355" />
	</node>
	<node id="-843895" lat="63.783855553" lon="9.58690555252">
		<tag k="name" v="Islandsvika hyttefelt" />
		<tag k="place" v="neighbourhood" />
		<tag k="ssr:stedsnr" v="769019" />
	</node>
	<node id="-843892" lat="63.7877638928" lon="9.77502222597">
		<tag k="name" v="Fosshaug" />
		<tag k="place" v="farm" />
		<tag k="ssr:stedsnr" v="91829" />
	</node>
	<node id="-843884" lat="63.7899916672" lon="9.71076110396">
		<tag k="name" v="Holten" />
		<tag k="place" v="farm" />
		<tag k="ssr:stedsnr" v="91834" />
	</node>
	<node id="-843881" lat="63.7814805537" lon="9.82506110824">
		<tag k="name" v="Vassmo" />
		<tag k="place" v="farm" />
		<tag k="ssr:stedsnr" v="334399" />
	</node>
	<node id="-843880" lat="63.7928138928" lon="10.0520083343">
		<tag k="building" v="industrial" />
		<tag k="name" v="Grøtan Sagbruk" />
		<tag k="ssr:stedsnr" v="636710" />
	</node>
	<node id="-843879" lat="63.7734416641" lon="9.58550555861">
		<tag k="name" v="Musgården" />
		<tag k="place" v="farm" />
		<tag k="ssr:stedsnr" v="636268" />
	</node>
	<node id="-843869" lat="63.7830388905" lon="9.8059083274">
		<tag k="name" v="Veabakken" />
		<tag k="place" v="farm" />
		<tag k="ssr:stedsnr" v="576838" />
	</node>
	<node id="-843864" lat="63.7927166699" lon="9.82995833046">
		<tag k="name" v="Brulia" />
		<tag k="place" v="farm" />
		<tag k="ssr:stedsnr" v="273282" />
	</node>
	<node id="-843861" lat="63.88254269" lon="9.86094019075">
		<tag k="fixme" v="consider place=hamlet" />
		<tag k="name" v="Lysøysund" />
		<tag k="place" v="farm" />
		<tag k="ssr:stedsnr" v="416283" />
	</node>
	<node id="-845155" lat="63.8180194473" lon="9.62343055012">
		<tag k="name" v="Solheim" />
		<tag k="place" v="farm" />
		<tag k="ssr:stedsnr" v="880905" />
	</node>
	<node id="-843851" lat="63.7697805512" lon="9.57523055643">
		<tag k="name" v="Langvollan" />
		<tag k="place" v="farm" />
		<tag k="ssr:stedsnr" v="636263" />
	</node>
	<node id="-843849" lat="63.7688027787" lon="9.74212778415">
		<tag k="name" v="Myrskardet" />
		<tag k="place" v="farm" />
		<tag k="ssr:stedsnr" v="316232" />
	</node>
	<node id="-844812" lat="63.8251249981" lon="9.64961944252">
		<tag k="name" v="Valstad" />
		<tag k="place" v="farm" />
		<tag k="ssr:stedsnr" v="455904" />
	</node>
	<node id="-844811" lat="63.8721555551" lon="9.83975000555">
		<tag k="name" v="Moen" />
		<tag k="place" v="farm" />
		<tag k="ssr:stedsnr" v="819924" />
	</node>
	<node id="-843838" lat="63.7605000026" lon="9.65818055589">
		<tag k="name" v="Risvika" />
		<tag k="place" v="isolated_dwelling" />
		<tag k="ssr:stedsnr" v="741789" />
	</node>
	<node id="-843837" lat="63.7653111114" lon="9.81112221419">
		<tag k="name" v="Botngård" />
		<tag k="place" v="village" />
		<tag k="ssr:stedsnr" v="741267" />
	</node>
	<node id="-843103" lat="63.8918388879" lon="9.8425944452">
		<tag k="name" v="Lysøybakken" />
		<tag k="place" v="farm" />
		<tag k="ssr:stedsnr" v="212847" />
	</node>
	<node id="-843830" lat="63.7735333307" lon="9.57785832364">
		<tag k="name" v="Svølgen" />
		<tag k="place" v="farm" />
		<tag k="ssr:stedsnr" v="636260" />
	</node>
	<node id="-843829" lat="63.7605638848" lon="9.65853056486">
		<tag k="name" v="Storrisvika hyttefelt" />
		<tag k="place" v="neighbourhood" />
		<tag k="ssr:stedsnr" v="787112" />
	</node>
	<node id="-843824" lat="63.8001972223" lon="10.0619472157">
		<tag k="name" v="Osen" />
		<tag k="place" v="farm" />
		<tag k="ssr:stedsnr" v="680005" />
	</node>
	<node id="-843819" lat="63.8152055542" lon="10.1439083353">
		<tag k="name" v="Granås" />
		<tag k="place" v="farm" />
		<tag k="ssr:stedsnr" v="862045" />
	</node>
	<node id="-843818" lat="63.8090694448" lon="10.13911111">
		<tag k="name" v="Flatabø" />
		<tag k="place" v="farm" />
		<tag k="ssr:stedsnr" v="273264" />
	</node>
	<node id="-843817" lat="63.8078583297" lon="9.68574722942">
		<tag k="name" v="Korsgata" />
		<tag k="place" v="farm" />
		<tag k="ssr:stedsnr" v="923673" />
	</node>
	<node id="-843804" lat="63.8887833348" lon="9.83607222589">
		<tag k="name" v="Haugen" />
		<tag k="place" v="farm" />
		<tag k="ssr:stedsnr" v="334815" />
	</node>
	<node id="-843802" lat="63.7843694456" lon="9.77312777002">
		<tag k="name" v="Kottenget" />
		<tag k="place" v="farm" />
		<tag k="ssr:stedsnr" v="212967" />
	</node>
	<node id="-844121" lat="63.8628111117" lon="9.75201666575">
		<tag k="name" v="Magasinet" />
		<tag k="place" v="locality" />
		<tag k="ssr:stedsnr" v="515648" />
	</node>
	<node id="-843787" lat="63.8201305559" lon="9.7074972199">
		<tag k="name" v="Buvika" />
		<tag k="place" v="farm" />
		<tag k="ssr:stedsnr" v="923675" />
	</node>
	<node id="-843780" lat="63.860758333" lon="9.80682500964">
		<tag k="fixme" v="consider place=hamlet" />
		<tag k="name" v="Manndal" />
		<tag k="place" v="farm" />
		<tag k="ssr:stedsnr" v="863110" />
	</node>
	<node id="-843779" lat="63.7630638905" lon="9.68855833395">
		<tag k="alt_name" v="Vikan" />
		<tag k="name" v="Tønnølvikan" />
		<tag k="place" v="farm" />
		<tag k="ssr:stedsnr" v="940762" />
	</node>
</osm>
