<?xml version="1.0" encoding="UTF-8"?>
<osm generator="osmapis" version="0.6">
	<node id="-839168" lat="63.7695777738" lon="9.90549167475">
		<tag k="name" v="Tverrelva" />
		<tag k="ssr:stedsnr" v="758694" />
		<tag k="waterway" v="river" />
	</node>
	<node id="-839679" lat="63.7555833301" lon="9.95156388955">
		<tag k="name" v="Steggabekken" />
		<tag k="ssr:stedsnr" v="576593" />
		<tag k="waterway" v="stream" />
	</node>
	<node id="-839677" lat="63.8112555592" lon="9.79900278181">
		<tag k="name" v="Langneset" />
		<tag k="natural" v="cape" />
		<tag k="ssr:stedsnr" v="576180" />
	</node>
	<node id="-838140" lat="63.778258334" lon="9.73137776894">
		<tag k="name" v="Torsidalselva" />
		<tag k="ssr:stedsnr" v="802258" />
		<tag k="waterway" v="stream" />
	</node>
	<node id="-838139" lat="63.7748749976" lon="9.75410832682">
		<tag k="name" v="Kottengsvatnet" />
		<tag k="natural" v="water" />
		<tag k="ssr:stedsnr" v="620227" />
		<tag k="water" v="lake" />
	</node>
	<node id="-838138" lat="63.8597111098" lon="10.0559472297">
		<tag k="name" v="Tverrbekken" />
		<tag k="ssr:stedsnr" v="151131" />
		<tag k="waterway" v="stream" />
	</node>
	<node id="-838649" lat="63.7783138901" lon="9.86186388227">
		<tag k="name" v="Botnelva" />
		<tag k="ssr:stedsnr" v="576423" />
		<tag k="waterway" v="river" />
	</node>
	<node id="-839672" lat="63.7390383521" lon="9.87945660358">
		<tag k="name" v="Kjerkbekken" />
		<tag k="ssr:stedsnr" v="515339" />
		<tag k="waterway" v="stream" />
	</node>
	<node id="-838484" lat="63.8309055532" lon="10.0540611154">
		<tag k="name" v="Amunddalstjønna" />
		<tag k="natural" v="water" />
		<tag k="ssr:stedsnr" v="74054" />
	</node>
	<node id="-838134" lat="63.8415138895" lon="10.1684583366">
		<tag k="name" v="Torsengtjønna" />
		<tag k="natural" v="water" />
		<tag k="ssr:stedsnr" v="863082" />
	</node>
	<node id="-839669" lat="63.8288972234" lon="10.0295166653">
		<tag k="name" v="Øvre Storslættjønna" />
		<tag k="natural" v="water" />
		<tag k="ssr:stedsnr" v="455088" />
	</node>
	<node id="-838644" lat="63.8423083312" lon="10.1215222218">
		<tag k="alt_name" v="Øver Tomasvatnet;Tomasvatnet, øvre" />
		<tag k="name" v="Øvre Tomasvatnet" />
		<tag k="natural" v="water" />
		<tag k="ssr:stedsnr" v="195093" />
	</node>
	<node id="-838643" lat="63.8230388897" lon="9.85475277224">
		<tag k="name" v="Sagdalsbekken" />
		<tag k="ssr:stedsnr" v="880707" />
		<tag k="waterway" v="stream" />
	</node>
	<node id="-839665" lat="63.8068777809" lon="10.1561194488">
		<tag k="alt_name" v="Ner Høgsetvatnet;Høgsetvatnet, nedre" />
		<tag k="name" v="Nedre Høgsetvatnet" />
		<tag k="natural" v="water" />
		<tag k="ssr:stedsnr" v="923012" />
	</node>
	<node id="-838640" lat="63.8371499994" lon="9.93825832909">
		<tag k="alt_name" v="Klumptjønna" />
		<tag k="name" v="Klumptjønnen" />
		<tag k="natural" v="water" />
		<tag k="ssr:stedsnr" v="438065" />
	</node>
	<node id="-838158" lat="63.8015777736" lon="9.40901388408">
		<tag k="name" v="Holbekken" />
		<tag k="ssr:stedsnr" v="636189" />
		<tag k="waterway" v="stream" />
	</node>
	<node id="-838192" lat="63.7617138849" lon="9.84093333598">
		<tag k="name" v="Brekkvatnet" />
		<tag k="natural" v="water" />
		<tag k="ssr:stedsnr" v="620212" />
	</node>
	<node id="-837611" lat="63.8500805526" lon="9.94003611769">
		<tag k="name" v="Middagsskardtjønna" />
		<tag k="natural" v="water" />
		<tag k="ssr:stedsnr" v="273521" />
	</node>
	<node id="-839145" lat="63.8698805531" lon="10.1002555641">
		<tag k="name" v="Tremannsvatna" />
		<tag k="natural" v="water" />
		<tag k="ssr:stedsnr" v="134603" />
	</node>
	<node id="-839655" lat="63.8294055544" lon="9.92923333234">
		<tag k="name" v="Storbuktbekken" />
		<tag k="ssr:stedsnr" v="819065" />
		<tag k="waterway" v="stream" />
	</node>
	<node id="-839142" lat="63.8162722202" lon="9.97384445172">
		<tag k="name" v="Storholmen" />
		<tag k="place" v="islet" />
		<tag k="ssr:stedsnr" v="741054" />
	</node>
	<node id="-839140" lat="63.777280558" lon="9.70983055128">
		<tag k="name" v="Steinhølen" />
		<tag k="ssr:stedsnr" v="923753" />
		<tag k="waterway" v="stream" />
	</node>
	<node id="-839138" lat="63.8287083343" lon="9.87891388133">
		<tag k="name" v="Merkesbekken" />
		<tag k="ssr:stedsnr" v="940013" />
		<tag k="waterway" v="stream" />
	</node>
	<node id="-838724" lat="63.7971527736" lon="9.90388333395">
		<tag k="name" v="Elgtjønna" />
		<tag k="natural" v="water" />
		<tag k="ssr:stedsnr" v="680260" />
	</node>
	<node id="-838720" lat="63.7865638932" lon="9.92509444038">
		<tag k="alt_name" v="Tvillingtjønnen" />
		<tag k="name" v="Tvillingtjønna" />
		<tag k="natural" v="water" />
		<tag k="ssr:stedsnr" v="316242" />
	</node>
	<node id="-839131" lat="63.7787694473" lon="9.98856665954">
		<tag k="name" v="Luna" />
		<tag k="ssr:stedsnr" v="212615" />
		<tag k="waterway" v="river" />
	</node>
	<node id="-839638" lat="63.8525277766" lon="10.0263944396">
		<tag k="name" v="Langtjønna" />
		<tag k="natural" v="water" />
		<tag k="ssr:stedsnr" v="134121" />
	</node>
	<node id="-839125" lat="63.8288805596" lon="10.1442583302">
		<tag k="name" v="Storelva" />
		<tag k="ssr:stedsnr" v="802084" />
		<tag k="waterway" v="stream" />
	</node>
	<node id="-838612" lat="63.8762916629" lon="9.98952500248">
		<tag k="name" v="Gammelseterneset" />
		<tag k="natural" v="cape" />
		<tag k="ssr:stedsnr" v="212537" />
	</node>
	<node id="-839635" lat="63.7708277778" lon="10.0045250001">
		<tag k="name" v="Stallvikvatnet" />
		<tag k="natural" v="water" />
		<tag k="ssr:stedsnr" v="74175" />
	</node>
	<node id="-837586" lat="63.7980888905" lon="10.2024833272">
		<tag k="name" v="Luna" />
		<tag k="natural" v="water" />
		<tag k="ssr:stedsnr" v="819566" />
		<tag k="water" v="lake" />
	</node>
	<node id="-838563" lat="63.7404944462" lon="9.77294722763">
		<tag k="name" v="Pissaren" />
		<tag k="ssr:stedsnr" v="515158" />
		<tag k="waterway" v="stream" />
	</node>
	<node id="-838095" lat="63.8306555596" lon="9.90731944111">
		<tag k="name" v="Merkesodden" />
		<tag k="place" v="islet" />
		<tag k="ssr:stedsnr" v="333048" />
	</node>
	<node id="-838604" lat="63.7483222185" lon="9.87879444222">
		<tag k="name" v="Rotbakktjønna" />
		<tag k="natural" v="water" />
		<tag k="ssr:stedsnr" v="13214" />
	</node>
	<node id="-838091" lat="63.7838861089" lon="10.1210305608">
		<tag k="name" v="Øra" />
		<tag k="natural" v="beach" />
		<tag k="ssr:stedsnr" v="636619" />
	</node>
	<node id="-839114" lat="63.7870861156" lon="9.86591943646">
		<tag k="name" v="Kattjønnen" />
		<tag k="natural" v="water" />
		<tag k="ssr:stedsnr" v="394444" />
	</node>
	<node id="-838259" lat="63.7877305597" lon="10.0242777764">
		<tag k="name" v="Grandalsosen" />
		<tag k="natural" v="bay" />
		<tag k="ssr:stedsnr" v="880648" />
	</node>
	<node id="-838598" lat="63.8529694422" lon="9.98838332572">
		<tag k="name" v="Storvassneset" />
		<tag k="natural" v="cape" />
		<tag k="ssr:stedsnr" v="819328" />
	</node>
	<node id="-838085" lat="63.7992166693" lon="10.0551611093">
		<tag k="name" v="Breiosen" />
		<tag k="natural" v="bay" />
		<tag k="ssr:stedsnr" v="151546" />
	</node>
	<node id="-838084" lat="63.7765861084" lon="9.91875278758">
		<tag k="name" v="Råbekken" />
		<tag k="ssr:stedsnr" v="394679" />
		<tag k="waterway" v="stream" />
	</node>
	<node id="-839619" lat="63.8617694408" lon="9.93832777323">
		<tag k="name" v="Sørvassbekken" />
		<tag k="ssr:stedsnr" v="91563" />
		<tag k="waterway" v="stream" />
	</node>
	<node id="-838082" lat="63.8097166696" lon="10.0961638936">
		<tag k="name" v="Storrholet" />
		<tag k="natural" v="water" />
		<tag k="ssr:stedsnr" v="880587" />
		<tag k="water" v="lake" />
	</node>
	<node id="-839104" lat="63.8514583313" lon="10.0162944434">
		<tag k="name" v="Rekstertjønna" />
		<tag k="natural" v="water" />
		<tag k="ssr:stedsnr" v="576096" />
	</node>
	<node id="-837567" lat="63.8322083335" lon="10.1576888851">
		<tag k="name" v="Nordre Storfisktjønna" />
		<tag k="natural" v="water" />
		<tag k="ssr:stedsnr" v="273122" />
	</node>
	<node id="-837989" lat="63.8488138924" lon="9.92760556397">
		<tag k="alt_name" v="Dummeltjønnen" />
		<tag k="name" v="Dumbeltjønnen" />
		<tag k="natural" v="water" />
		<tag k="ssr:stedsnr" v="923114" />
	</node>
	<node id="-838645" lat="63.7569888894" lon="9.93596389119">
		<tag k="name" v="Søtvikelva" />
		<tag k="ssr:stedsnr" v="151634" />
		<tag k="waterway" v="river" />
	</node>
	<node id="-838588" lat="63.7909999964" lon="10.036288885">
		<tag k="name" v="Litlgrandalen" />
		<tag k="natural" v="bay" />
		<tag k="ssr:stedsnr" v="880664" />
	</node>
	<node id="-839611" lat="63.8250194482" lon="9.91995278551">
		<tag k="name" v="Storholman" />
		<tag k="place" v="islet" />
		<tag k="ssr:stedsnr" v="880061" />
	</node>
	<node id="-837747" lat="63.7674361114" lon="9.97365834033">
		<tag k="name" v="Aundalsbekken" />
		<tag k="ssr:stedsnr" v="819594" />
		<tag k="waterway" v="stream" />
	</node>
	<node id="-839606" lat="63.8099694439" lon="10.000352782">
		<tag k="name" v="Almfjelltjønnen" />
		<tag k="natural" v="water" />
		<tag k="ssr:stedsnr" v="619022" />
	</node>
	<node id="-839093" lat="63.8312722204" lon="9.91814999463">
		<tag k="name" v="Buaholmen" />
		<tag k="place" v="islet" />
		<tag k="ssr:stedsnr" v="394047" />
	</node>
	<node id="-839090" lat="63.7852444469" lon="10.1369638957">
		<tag k="name" v="Teinøya" />
		<tag k="place" v="island" />
		<tag k="ssr:stedsnr" v="212608" />
	</node>
	<node id="-837619" lat="63.7606388906" lon="9.92998333895">
		<tag k="name" v="Søtvikvatnet" />
		<tag k="natural" v="water" />
		<tag k="ssr:stedsnr" v="498245" />
	</node>
	<node id="-839087" lat="63.8222638906" lon="10.2096000099">
		<tag k="name" v="Blanktjønna" />
		<tag k="natural" v="water" />
		<tag k="ssr:stedsnr" v="680038" />
	</node>
	<node id="-838574" lat="63.7165916661" lon="9.80390832726">
		<tag k="name" v="Fossen" />
		<tag k="natural" v="waterfall" />
		<tag k="ssr:stedsnr" v="333110" />
	</node>
	<node id="-839085" lat="63.8654388898" lon="9.94331110128">
		<tag k="name" v="Hyllfossen" />
		<tag k="natural" v="waterfall" />
		<tag k="ssr:stedsnr" v="273340" />
	</node>
	<node id="-837546" lat="63.798186114" lon="9.98524167447">
		<tag k="name" v="Litlholmen" />
		<tag k="place" v="islet" />
		<tag k="ssr:stedsnr" v="758015" />
	</node>
	<node id="-838056" lat="63.8206861123" lon="9.49308055163">
		<tag k="name" v="Storvatnet" />
		<tag k="natural" v="water" />
		<tag k="ssr:stedsnr" v="376674" />
	</node>
	<node id="-837788" lat="63.7378055574" lon="9.72150277458">
		<tag k="name" v="Reitbekken" />
		<tag k="ssr:stedsnr" v="256195" />
		<tag k="waterway" v="stream" />
	</node>
	<node id="-838054" lat="63.8011944474" lon="10.0129861083">
		<tag k="name" v="Tømmerbekken" />
		<tag k="ssr:stedsnr" v="698509" />
		<tag k="waterway" v="stream" />
	</node>
	<node id="-838564" lat="63.8360638859" lon="10.087144448">
		<tag k="name" v="Fiskløysan" />
		<tag k="natural" v="water" />
		<tag k="ssr:stedsnr" v="498079" />
	</node>
	<node id="-839587" lat="63.8177388898" lon="10.0804111146">
		<tag k="name" v="Olalibekken" />
		<tag k="ssr:stedsnr" v="940092" />
		<tag k="waterway" v="stream" />
	</node>
	<node id="-839586" lat="63.7874861125" lon="9.87302500491">
		<tag k="name" v="Damhølen" />
		<tag k="natural" v="water" />
		<tag k="ssr:stedsnr" v="273431" />
	</node>
	<node id="-838049" lat="63.7395111131" lon="9.83919999696">
		<tag k="name" v="Eidsvatnet" />
		<tag k="natural" v="water" />
		<tag k="ssr:stedsnr" v="680199" />
		<tag k="water" v="lake" />
	</node>
	<node id="-839069" lat="63.8130055578" lon="10.087066675">
		<tag k="name" v="Svartdalselva" />
		<tag k="ssr:stedsnr" v="741025" />
		<tag k="waterway" v="stream" />
	</node>
	<node id="-839580" lat="63.8761972257" lon="9.98353055718">
		<tag k="name" v="Blåvatnet" />
		<tag k="natural" v="water" />
		<tag k="ssr:stedsnr" v="376574" />
	</node>
	<node id="-837531" lat="63.8277527769" lon="9.88454166049">
		<tag k="fixme" v="multiple name tags, choose one and add the other to alt_name" />
		<tag k="name" v="Inner Setertjønna;Rognlitjønna" />
		<tag k="natural" v="water" />
		<tag k="ssr:stedsnr" v="923073" />
	</node>
	<node id="-839576" lat="63.8543916654" lon="10.1830444542">
		<tag k="name" v="Laugatjønnen" />
		<tag k="natural" v="water" />
		<tag k="ssr:stedsnr" v="819077" />
	</node>
	<node id="-839063" lat="63.8459194445" lon="10.168102776">
		<tag k="name" v="Laugaelva" />
		<tag k="ssr:stedsnr" v="576077" />
		<tag k="waterway" v="river" />
	</node>
	<node id="-839339" lat="63.7375833329" lon="9.75984165949">
		<tag k="name" v="Grøntjønna" />
		<tag k="natural" v="water" />
		<tag k="ssr:stedsnr" v="863200" />
	</node>
	<node id="-838894" lat="63.8128861096" lon="9.77395276827">
		<tag k="alt_name" v="Molarlivatnet" />
		<tag k="name" v="Mordrvatnet" />
		<tag k="natural" v="water" />
		<tag k="ssr:stedsnr" v="802046" />
	</node>
	<node id="-838546" lat="63.742616671" lon="9.83155277596">
		<tag k="name" v="Furunes" />
		<tag k="natural" v="cape" />
		<tag k="ssr:stedsnr" v="13206" />
	</node>
	<node id="-839569" lat="63.8231055547" lon="9.909608336">
		<tag k="name" v="Tjønnvalneset" />
		<tag k="place" v="islet" />
		<tag k="ssr:stedsnr" v="880055" />
	</node>
	<node id="-838031" lat="63.8575916698" lon="10.1637666717">
		<tag k="name" v="Laugabekken" />
		<tag k="ssr:stedsnr" v="515077" />
		<tag k="waterway" v="stream" />
	</node>
	<node id="-837518" lat="63.7900888932" lon="10.0389861083">
		<tag k="name" v="Litlgrandalsbekken" />
		<tag k="ssr:stedsnr" v="940608" />
		<tag k="waterway" v="stream" />
	</node>
	<node id="-838029" lat="63.7938111104" lon="10.1087083265">
		<tag k="name" v="Fusslidammen" />
		<tag k="ssr:stedsnr" v="697663" />
		<tag k="waterway" v="dam" />
	</node>
	<node id="-838539" lat="63.8209527787" lon="10.0098027772">
		<tag k="name" v="Hildremsvatnet" />
		<tag k="natural" v="water" />
		<tag k="ssr:stedsnr" v="558039" />
		<tag k="water" v="lake" />
	</node>
	<node id="-837514" lat="63.7506305582" lon="9.72565833859">
		<tag k="name" v="Kjølbekken" />
		<tag k="ssr:stedsnr" v="30411" />
		<tag k="waterway" v="stream" />
	</node>
	<node id="-838537" lat="63.8667333358" lon="9.95326666348">
		<tag k="name" v="Oldelva" />
		<tag k="ssr:stedsnr" v="923149" />
		<tag k="waterway" v="stream" />
	</node>
	<node id="-839047" lat="63.8161583331" lon="9.98962499959">
		<tag k="name" v="Hildremselva" />
		<tag k="ssr:stedsnr" v="394034" />
		<tag k="waterway" v="river" />
	</node>
	<node id="-839554" lat="63.7965249989" lon="9.91455277757">
		<tag k="name" v="Ytre Raudhammartjønna" />
		<tag k="natural" v="water" />
		<tag k="ssr:stedsnr" v="880027" />
	</node>
	<node id="-839553" lat="63.8605583358" lon="9.96396389015">
		<tag k="name" v="Nyvassdalselva" />
		<tag k="ssr:stedsnr" v="334542" />
		<tag k="waterway" v="river" />
	</node>
	<node id="-838208" lat="63.8164249976" lon="9.95974999633">
		<tag k="name" v="Sagdammen" />
		<tag k="ssr:stedsnr" v="333063" />
		<tag k="waterway" v="dam" />
	</node>
	<node id="-838526" lat="63.8777611067" lon="10.0345833307">
		<tag k="name" v="Sandtjønna" />
		<tag k="natural" v="water" />
		<tag k="ssr:stedsnr" v="256539" />
	</node>
	<node id="-839546" lat="63.7941416697" lon="10.0462138954">
		<tag k="name" v="Båtstøa" />
		<tag k="natural" v="bay" />
		<tag k="ssr:stedsnr" v="91555" />
	</node>
	<node id="-839544" lat="63.7915000001" lon="9.71292777685">
		<tag k="name" v="Ryvatnet" />
		<tag k="natural" v="water" />
		<tag k="ssr:stedsnr" v="498682" />
		<tag k="water" v="lake" />
	</node>
	<node id="-839542" lat="63.7581311858" lon="9.80889789201">
		<tag k="name" v="Sæterbekken" />
		<tag k="ssr:stedsnr" v="455462" />
		<tag k="waterway" v="stream" />
	</node>
	<node id="-839027" lat="63.7917472255" lon="9.94093056258">
		<tag k="name" v="Svartvatnet" />
		<tag k="natural" v="water" />
		<tag k="ssr:stedsnr" v="741290" />
	</node>
	<node id="-839538" lat="63.797361115" lon="10.0713361161">
		<tag k="name" v="Almtjønnbekken" />
		<tag k="ssr:stedsnr" v="576566" />
		<tag k="waterway" v="stream" />
	</node>
	<node id="-839024" lat="63.819436112" lon="9.78611943551">
		<tag k="name" v="Sørfjelldalstjønna" />
		<tag k="natural" v="water" />
		<tag k="ssr:stedsnr" v="256052" />
	</node>
	<node id="-837999" lat="63.810047223" lon="9.7636361209">
		<tag k="name" v="Bunstlitjønna" />
		<tag k="natural" v="water" />
		<tag k="ssr:stedsnr" v="880189" />
	</node>
	<node id="-837557" lat="63.802349997" lon="9.97855833653">
		<tag k="name" v="Lianeset" />
		<tag k="natural" v="cape" />
		<tag k="ssr:stedsnr" v="758013" />
	</node>
	<node id="-838717" lat="63.8656861131" lon="9.94936388392">
		<tag k="name" v="Kvennavasselva" />
		<tag k="ssr:stedsnr" v="212550" />
		<tag k="waterway" v="river" />
	</node>
	<node id="-837996" lat="63.8315027745" lon="9.97243887905">
		<tag k="name" v="Gammelgårdstjønna" />
		<tag k="natural" v="water" />
		<tag k="ssr:stedsnr" v="863065" />
	</node>
	<node id="-837995" lat="63.8708694434" lon="9.93091388853">
		<tag k="name" v="Sagdammen" />
		<tag k="natural" v="water" />
		<tag k="ssr:stedsnr" v="636604" />
		<tag k="water" v="lake" />
	</node>
	<node id="-838648" lat="63.7975027778" lon="9.92664999205">
		<tag k="name" v="Raudhammartjønna" />
		<tag k="natural" v="water" />
		<tag k="ssr:stedsnr" v="256011" />
	</node>
	<node id="-838631" lat="63.7376555591" lon="9.75989166628">
		<tag k="name" v="Grønvatnet" />
		<tag k="natural" v="water" />
		<tag k="ssr:stedsnr" v="515172" />
		<tag k="water" v="lake" />
	</node>
	<node id="-838742" lat="63.7896638896" lon="10.0217138909">
		<tag k="name" v="Grandalsgrunnen" />
		<tag k="natural" v="shoal" />
		<tag k="place" v="locality" />
		<tag k="ssr:stedsnr" v="515620" />
	</node>
	<node id="-839014" lat="63.7965166669" lon="10.1972222239">
		<tag k="name" v="Luna" />
		<tag k="natural" v="water" />
		<tag k="ssr:stedsnr" v="180212" />
		<tag k="water" v="lake" />
	</node>
	<node id="-839525" lat="63.8651000008" lon="9.89857499735">
		<tag k="name" v="Vikavatnet" />
		<tag k="natural" v="water" />
		<tag k="ssr:stedsnr" v="558140" />
	</node>
	<node id="-838498" lat="63.7676694457" lon="9.66838610928">
		<tag k="fixme" v="multiple name tags, choose one and add the other to alt_name" />
		<tag k="name" v="Bomtjønna;Pomtjønna" />
		<tag k="natural" v="water" />
		<tag k="ssr:stedsnr" v="741782" />
	</node>
	<node id="-839520" lat="63.8232972209" lon="9.96478054616">
		<tag k="fixme" v="multiple name tags, choose one and add the other to alt_name" />
		<tag k="name" v="Svanatjønna;Nedre Svanatjønna" />
		<tag k="natural" v="water" />
		<tag k="ssr:stedsnr" v="316064" />
	</node>
	<node id="-839841" lat="63.7911722258" lon="10.0072944521">
		<tag k="name" v="Seterholmen" />
		<tag k="place" v="islet" />
		<tag k="ssr:stedsnr" v="576617" />
	</node>
	<node id="-840029" lat="63.8294500014" lon="10.1541277721">
		<tag k="name" v="Nedre Storfisktjønna" />
		<tag k="natural" v="water" />
		<tag k="ssr:stedsnr" v="819123" />
	</node>
	<node id="-837653" lat="63.7994333355" lon="10.0086277702">
		<tag k="name" v="Trollbukta" />
		<tag k="natural" v="bay" />
		<tag k="ssr:stedsnr" v="273527" />
	</node>
	<node id="-839515" lat="63.8416250042" lon="9.9713666733">
		<tag k="name" v="Åltjønna" />
		<tag k="natural" v="water" />
		<tag k="ssr:stedsnr" v="377089" />
	</node>
	<node id="-839513" lat="63.7769666644" lon="9.99671111922">
		<tag k="name" v="Litl-Gjøljavatnet" />
		<tag k="natural" v="water" />
		<tag k="old_name" v="Gjølgavatnet, l" />
		<tag k="ssr:stedsnr" v="863212" />
	</node>
	<node id="-838996" lat="63.8571833368" lon="10.0480861042">
		<tag k="name" v="Nyvassdalsvatnet" />
		<tag k="natural" v="water" />
		<tag k="ssr:stedsnr" v="438093" />
	</node>
	<node id="-839506" lat="63.7410833327" lon="9.78172777406">
		<tag k="name" v="Lomstjønna" />
		<tag k="natural" v="water" />
		<tag k="ssr:stedsnr" v="91148" />
	</node>
	<node id="-840017" lat="63.7699666689" lon="9.75783888565">
		<tag k="name" v="Mølnargårdselva" />
		<tag k="ssr:stedsnr" v="212332" />
		<tag k="waterway" v="river" />
	</node>
	<node id="-840016" lat="63.8568916669" lon="10.0773027826">
		<tag k="name" v="Tomasvasselva" />
		<tag k="ssr:stedsnr" v="819114" />
		<tag k="waterway" v="river" />
	</node>
	<node id="-838478" lat="63.8350694423" lon="9.88432499211">
		<tag k="name" v="Setertjønna" />
		<tag k="natural" v="water" />
		<tag k="ssr:stedsnr" v="195079" />
	</node>
	<node id="-838289" lat="63.7879388913" lon="9.73903610387">
		<tag k="alt_name" v="Råmarkbekken" />
		<tag k="name" v="Råmarksbekken" />
		<tag k="ssr:stedsnr" v="620240" />
		<tag k="waterway" v="stream" />
	</node>
	<node id="-838985" lat="63.8625972192" lon="10.0035055651">
		<tag k="name" v="Flaugtjønna" />
		<tag k="natural" v="water" />
		<tag k="ssr:stedsnr" v="195126" />
	</node>
	<node id="-839496" lat="63.7694583378" lon="9.79949443582">
		<tag k="name" v="Okelva" />
		<tag k="ssr:stedsnr" v="394494" />
		<tag k="waterway" v="river" />
	</node>
	<node id="-839495" lat="63.8615527775" lon="9.95756666619">
		<tag k="name" v="Melvatnet" />
		<tag k="natural" v="water" />
		<tag k="ssr:stedsnr" v="558126" />
	</node>
	<node id="-837956" lat="63.7732416671" lon="9.70103055227">
		<tag k="name" v="Rotbakktjønna" />
		<tag k="natural" v="water" />
		<tag k="ssr:stedsnr" v="802773" />
	</node>
	<node id="-839489" lat="63.7747638891" lon="9.83647499856">
		<tag k="name" v="Litlkruktjønna" />
		<tag k="natural" v="water" />
		<tag k="ssr:stedsnr" v="559186" />
	</node>
	<node id="-838464" lat="63.7751138884" lon="9.90405277272">
		<tag k="name" v="Gråsteinbekken" />
		<tag k="ssr:stedsnr" v="515576" />
		<tag k="waterway" v="stream" />
	</node>
	<node id="-839487" lat="63.8204638885" lon="9.89762222042">
		<tag k="name" v="Storvalen" />
		<tag k="natural" v="shoal" />
		<tag k="place" v="locality" />
		<tag k="ssr:stedsnr" v="455045" />
	</node>
	<node id="-838709" lat="63.8019555585" lon="9.81783056056">
		<tag k="name" v="Furuneset" />
		<tag k="natural" v="cape" />
		<tag k="ssr:stedsnr" v="802022" />
	</node>
	<node id="-839484" lat="63.8068111123" lon="9.81799166308">
		<tag k="name" v="Seterbukta" />
		<tag k="natural" v="bay" />
		<tag k="ssr:stedsnr" v="619007" />
	</node>
	<node id="-839995" lat="63.83578333" lon="10.0105722296">
		<tag k="name" v="Skjervassneset" />
		<tag k="natural" v="cape" />
		<tag k="ssr:stedsnr" v="636039" />
	</node>
	<node id="-838970" lat="63.8245611088" lon="9.93355277402">
		<tag k="name" v="Storbukta" />
		<tag k="natural" v="bay" />
		<tag k="ssr:stedsnr" v="256049" />
	</node>
	<node id="-838457" lat="63.7411666696" lon="9.83008611095">
		<tag k="name" v="Langkastneset" />
		<tag k="natural" v="cape" />
		<tag k="ssr:stedsnr" v="516431" />
	</node>
	<node id="-838964" lat="63.89048611" lon="9.80006667192">
		<tag k="name" v="Nøkktjønna" />
		<tag k="natural" v="water" />
		<tag k="ssr:stedsnr" v="30648" />
	</node>
	<node id="-838961" lat="63.873849996" lon="10.0711805494">
		<tag k="name" v="Svartvasstjønna" />
		<tag k="natural" v="water" />
		<tag k="ssr:stedsnr" v="437574" />
	</node>
	<node id="-839984" lat="63.802033329" lon="9.77706110708">
		<tag k="name" v="Sandtjønna" />
		<tag k="natural" v="water" />
		<tag k="ssr:stedsnr" v="394184" />
	</node>
	<node id="-839471" lat="63.8237638926" lon="10.1323083314">
		<tag k="name" v="Perholfossen" />
		<tag k="natural" v="waterfall" />
		<tag k="ssr:stedsnr" v="940073" />
	</node>
	<node id="-837934" lat="63.7792499999" lon="9.98449721258">
		<tag k="name" v="Damtjønna" />
		<tag k="natural" v="water" />
		<tag k="ssr:stedsnr" v="802236" />
	</node>
	<node id="-838368" lat="63.7950249958" lon="9.8881444381">
		<tag k="name" v="Stortjønna" />
		<tag k="natural" v="water" />
		<tag k="ssr:stedsnr" v="256245" />
	</node>
	<node id="-839467" lat="63.7849111087" lon="9.60660555891">
		<tag k="name" v="Hellemsbekken" />
		<tag k="ssr:stedsnr" v="940495" />
		<tag k="waterway" v="stream" />
	</node>
	<node id="-838535" lat="63.80981944" lon="10.1481305619">
		<tag k="name" v="Høgsetelva" />
		<tag k="ssr:stedsnr" v="710891" />
		<tag k="waterway" v="river" />
	</node>
	<node id="-838876" lat="63.7961027804" lon="10.1747805584">
		<tag k="name" v="Måssåtjønna" />
		<tag k="natural" v="water" />
		<tag k="ssr:stedsnr" v="316256" />
	</node>
	<node id="-839460" lat="63.794377779" lon="9.91895555113">
		<tag k="name" v="Oksbåsen" />
		<tag k="natural" v="bay" />
		<tag k="ssr:stedsnr" v="273003" />
	</node>
	<node id="-838424" lat="63.8313444402" lon="9.91448888596">
		<tag k="name" v="Teksdalsvatnet" />
		<tag k="natural" v="water" />
		<tag k="ssr:stedsnr" v="498073" />
		<tag k="water" v="lake" />
	</node>
	<node id="-838946" lat="63.7399666639" lon="9.85533611192">
		<tag k="name" v="Volladalsbekken" />
		<tag k="ssr:stedsnr" v="273332" />
		<tag k="waterway" v="stream" />
	</node>
	<node id="-838432" lat="63.8252361143" lon="10.1624000061">
		<tag k="name" v="Smådammen" />
		<tag k="place" v="locality" />
		<tag k="ssr:stedsnr" v="74048" />
	</node>
	<node id="-839472" lat="63.8297277811" lon="10.1586833368">
		<tag k="fixme" v="multiple name tags, choose one and add the other to alt_name" />
		<tag k="name" v="Storfisktjønna;Søre Storfisktjønna" />
		<tag k="natural" v="water" />
		<tag k="ssr:stedsnr" v="316051" />
	</node>
	<node id="-837918" lat="63.7919222208" lon="10.1417861069">
		<tag k="name" v="Ramsbakktjønna" />
		<tag k="natural" v="water" />
		<tag k="ssr:stedsnr" v="195281" />
	</node>
	<node id="-837810" lat="63.8697333331" lon="9.95977222371">
		<tag k="name" v="Gammelkvennfossen" />
		<tag k="natural" v="waterfall" />
		<tag k="ssr:stedsnr" v="273554" />
	</node>
	<node id="-839448" lat="63.8099444489" lon="9.88660556347">
		<tag k="name" v="Setertjønna" />
		<tag k="natural" v="water" />
		<tag k="ssr:stedsnr" v="376037" />
	</node>
	<node id="-839447" lat="63.874033331" lon="9.98657223073">
		<tag k="name" v="Vester Mjøsundet" />
		<tag k="natural" v="strait" />
		<tag k="ssr:stedsnr" v="576553" />
	</node>
	<node id="-838933" lat="63.8139055551" lon="9.82337777608">
		<tag k="fixme" v="multiple name tags, choose one and add the other to alt_name" />
		<tag k="name" v="Slønglivatnet;Slønglitjønna" />
		<tag k="natural" v="water" />
		<tag k="ssr:stedsnr" v="73038" />
	</node>
	<node id="-837571" lat="63.7978416629" lon="9.99162222472">
		<tag k="name" v="Midtiholmen" />
		<tag k="place" v="islet" />
		<tag k="ssr:stedsnr" v="758017" />
	</node>
	<node id="-838930" lat="63.7583638908" lon="9.96972499439">
		<tag k="name" v="Akseldalsbekken" />
		<tag k="ssr:stedsnr" v="212594" />
		<tag k="waterway" v="stream" />
	</node>
	<node id="-839299" lat="63.8370111148" lon="10.0032833324">
		<tag k="name" v="Skjervatnet" />
		<tag k="natural" v="water" />
		<tag k="ssr:stedsnr" v="620068" />
		<tag k="water" v="lake" />
	</node>
	<node id="-837904" lat="63.803741665" lon="10.0486222278">
		<tag k="name" v="Grobekken" />
		<tag k="ssr:stedsnr" v="636557" />
		<tag k="waterway" v="stream" />
	</node>
	<node id="-838018" lat="63.8084472182" lon="9.79773332458">
		<tag k="name" v="Storbuktneset" />
		<tag k="natural" v="cape" />
		<tag k="ssr:stedsnr" v="697219" />
	</node>
	<node id="-837897" lat="63.8181611122" lon="10.1581305567">
		<tag k="name" v="Litlelva" />
		<tag k="ssr:stedsnr" v="636122" />
		<tag k="waterway" v="river" />
	</node>
	<node id="-839943" lat="63.7984444477" lon="10.0136222272">
		<tag k="name" v="Eidet" />
		<tag k="natural" v="strait" />
		<tag k="ssr:stedsnr" v="819553" />
	</node>
	<node id="-839430" lat="63.8471361072" lon="10.069472212">
		<tag k="name" v="Sundtjønna" />
		<tag k="natural" v="water" />
		<tag k="ssr:stedsnr" v="134103" />
	</node>
	<node id="-838529" lat="63.811516671" lon="9.85472499697">
		<tag k="name" v="Jøvatnet" />
		<tag k="natural" v="water" />
		<tag k="ssr:stedsnr" v="862041" />
	</node>
	<node id="-839427" lat="63.8470277772" lon="10.0620666759">
		<tag k="name" v="Holmtjønna" />
		<tag k="natural" v="water" />
		<tag k="ssr:stedsnr" v="134102" />
	</node>
	<node id="-839426" lat="63.7708694405" lon="9.84749445068">
		<tag k="name" v="Krukeidet" />
		<tag k="natural" v="strait" />
		<tag k="ssr:stedsnr" v="273403" />
	</node>
	<node id="-837675" lat="63.8211138928" lon="9.78107222152">
		<tag k="name" v="Kaldkleivbekken" />
		<tag k="ssr:stedsnr" v="212811" />
		<tag k="waterway" v="stream" />
	</node>
	<node id="-838911" lat="63.8103944419" lon="9.96035833335">
		<tag k="name" v="Kleivtjønna" />
		<tag k="natural" v="water" />
		<tag k="ssr:stedsnr" v="802044" />
	</node>
	<node id="-838910" lat="63.7851361139" lon="9.71130833608">
		<tag k="name" v="Koltjønna" />
		<tag k="natural" v="water" />
		<tag k="ssr:stedsnr" v="195646" />
	</node>
	<node id="-837885" lat="63.8482888875" lon="9.951972213">
		<tag k="name" v="Søvatnet" />
		<tag k="natural" v="water" />
		<tag k="ssr:stedsnr" v="619099" />
		<tag k="water" v="lake" />
	</node>
	<node id="-837867" lat="63.763991667" lon="9.95668611988">
		<tag k="name" v="Butlibekken" />
		<tag k="ssr:stedsnr" v="273578" />
		<tag k="waterway" v="stream" />
	</node>
	<node id="-838527" lat="63.8771388902" lon="9.84795833171">
		<tag k="name" v="Bergabekken" />
		<tag k="ssr:stedsnr" v="394359" />
		<tag k="waterway" v="stream" />
	</node>
	<node id="-839928" lat="63.8171805561" lon="9.89128054866">
		<tag k="name" v="Langdalsneset" />
		<tag k="natural" v="cape" />
		<tag k="ssr:stedsnr" v="758009" />
	</node>
	<node id="-839415" lat="63.7425083331" lon="9.81770833376">
		<tag k="name" v="Skavdalsbekken" />
		<tag k="ssr:stedsnr" v="151328" />
		<tag k="waterway" v="stream" />
	</node>
	<node id="-839750" lat="63.7888833296" lon="10.1188777812">
		<tag k="name" v="Skardsetertjønna" />
		<tag k="natural" v="water" />
		<tag k="ssr:stedsnr" v="576606" />
	</node>
	<node id="-838099" lat="63.7841888884" lon="9.98305277603">
		<tag k="name" v="Gjøljaelva" />
		<tag k="ssr:stedsnr" v="273620" />
		<tag k="waterway" v="river" />
	</node>
	<node id="-839919" lat="63.7599777794" lon="9.94115000619">
		<tag k="name" v="Gammeldamselva" />
		<tag k="ssr:stedsnr" v="940569" />
		<tag k="waterway" v="river" />
	</node>
	<node id="-839406" lat="63.7963305544" lon="10.0446000026">
		<tag k="name" v="Øratangen" />
		<tag k="natural" v="cape" />
		<tag k="ssr:stedsnr" v="334516" />
	</node>
	<node id="-837868" lat="63.8034222259" lon="9.87669443452">
		<tag k="name" v="Dragavatnet" />
		<tag k="natural" v="water" />
		<tag k="ssr:stedsnr" v="195013" />
	</node>
	<node id="-838891" lat="63.7612055599" lon="9.64780833032">
		<tag k="name" v="Risvikbekken" />
		<tag k="ssr:stedsnr" v="333597" />
		<tag k="waterway" v="stream" />
	</node>
	<node id="-839786" lat="63.7963444487" lon="10.1425166631">
		<tag k="name" v="Jutultjønna" />
		<tag k="natural" v="water" />
		<tag k="ssr:stedsnr" v="394547" />
	</node>
	<node id="-837862" lat="63.8559916643" lon="9.94194444812">
		<tag k="name" v="Sørvassneset" />
		<tag k="natural" v="cape" />
		<tag k="ssr:stedsnr" v="636549" />
	</node>
	<node id="-839908" lat="63.7843444449" lon="9.87760276984">
		<tag k="name" v="Luna" />
		<tag k="ssr:stedsnr" v="394574" />
		<tag k="waterway" v="river" />
	</node>
	<node id="-838881" lat="63.8112027739" lon="9.93010555571">
		<tag k="name" v="Sørbotnan" />
		<tag k="natural" v="water" />
		<tag k="ssr:stedsnr" v="73033" />
		<tag k="water" v="lake" />
	</node>
	<node id="-838880" lat="63.7745250044" lon="9.66288889425">
		<tag k="name" v="Baklivatnet" />
		<tag k="natural" v="water" />
		<tag k="ssr:stedsnr" v="195642" />
	</node>
	<node id="-837855" lat="63.8667527796" lon="9.97856666522">
		<tag k="name" v="Svartdalsbekken" />
		<tag k="ssr:stedsnr" v="880559" />
		<tag k="waterway" v="stream" />
	</node>
	<node id="-838878" lat="63.8083138853" lon="10.1658777693">
		<tag k="name" v="Blanktjønnbekken" />
		<tag k="ssr:stedsnr" v="880711" />
		<tag k="waterway" v="stream" />
	</node>
	<node id="-837842" lat="63.8183055586" lon="9.99704166883">
		<tag k="name" v="Hildremsdammen" />
		<tag k="ssr:stedsnr" v="91696" />
		<tag k="waterway" v="dam" />
	</node>
	<node id="-839900" lat="63.7864166631" lon="10.125744451">
		<tag k="name" v="Ramsbakktjønnbekken" />
		<tag k="ssr:stedsnr" v="91615" />
		<tag k="waterway" v="stream" />
	</node>
	<node id="-839387" lat="63.7735166654" lon="9.65541111428">
		<tag k="name" v="Brudalslivatnet" />
		<tag k="natural" v="water" />
		<tag k="ssr:stedsnr" v="91528" />
		<tag k="water" v="lake" />
	</node>
	<node id="-839385" lat="63.7669444479" lon="9.74586111218">
		<tag k="name" v="Soffibekken" />
		<tag k="ssr:stedsnr" v="394476" />
		<tag k="waterway" v="stream" />
	</node>
	<node id="-839423" lat="63.834733329" lon="9.90994443682">
		<tag k="name" v="Tennskjæret" />
		<tag k="natural" v="shoal" />
		<tag k="place" v="locality" />
		<tag k="ssr:stedsnr" v="819052" />
	</node>
	<node id="-838493" lat="63.8090833338" lon="9.41266667617">
		<tag k="name" v="Gårdsvatnet" />
		<tag k="natural" v="water" />
		<tag k="ssr:stedsnr" v="923682" />
	</node>
	<node id="-838355" lat="63.824369447" lon="9.86297777155">
		<tag k="name" v="Fagerdalsbekken" />
		<tag k="ssr:stedsnr" v="819688" />
		<tag k="waterway" v="stream" />
	</node>
	<node id="-839378" lat="63.7709277821" lon="9.90135556106">
		<tag k="name" v="Flakamyrbekken" />
		<tag k="ssr:stedsnr" v="212667" />
		<tag k="waterway" v="stream" />
	</node>
	<node id="-839889" lat="63.7356666685" lon="9.83728332997">
		<tag k="name" v="Heggdalsbekken" />
		<tag k="ssr:stedsnr" v="698386" />
		<tag k="waterway" v="stream" />
	</node>
	<node id="-838163" lat="63.8232305518" lon="10.0064805531">
		<tag k="name" v="Storholmen" />
		<tag k="place" v="islet" />
		<tag k="ssr:stedsnr" v="212035" />
	</node>
	<node id="-837752" lat="63.7520499972" lon="9.90031389136">
		<tag k="name" v="Damtjønna" />
		<tag k="natural" v="water" />
		<tag k="ssr:stedsnr" v="620162" />
	</node>
	<node id="-837838" lat="63.7693027782" lon="9.88897778072">
		<tag k="name" v="Svartskogbekken" />
		<tag k="ssr:stedsnr" v="697657" />
		<tag k="waterway" v="stream" />
	</node>
	<node id="-837922" lat="63.8713750038" lon="9.89604721996">
		<tag k="name" v="Klårtjønna" />
		<tag k="natural" v="water" />
		<tag k="ssr:stedsnr" v="567175" />
	</node>
	<node id="-838858" lat="63.7831833351" lon="9.82057500458">
		<tag k="name" v="Liavatnet" />
		<tag k="natural" v="water" />
		<tag k="ssr:stedsnr" v="13240" />
		<tag k="water" v="lake" />
	</node>
	<node id="-839881" lat="63.7628999975" lon="9.77293611475">
		<tag k="name" v="Sarabekken" />
		<tag k="ssr:stedsnr" v="880461" />
		<tag k="waterway" v="stream" />
	</node>
	<node id="-838344" lat="63.8594166649" lon="10.0166777876">
		<tag k="name" v="Setertjønna" />
		<tag k="natural" v="water" />
		<tag k="ssr:stedsnr" v="923133" />
	</node>
	<node id="-839879" lat="63.8697638875" lon="10.1305361205">
		<tag k="name" v="Lonen" />
		<tag k="natural" v="water" />
		<tag k="ssr:stedsnr" v="802149" />
		<tag k="water" v="lake" />
	</node>
	<node id="-839878" lat="63.8055000024" lon="10.166866666">
		<tag k="name" v="Øver Høgsetelva" />
		<tag k="ssr:stedsnr" v="940535" />
		<tag k="waterway" v="river" />
	</node>
	<node id="-837828" lat="63.8295333343" lon="10.025761121">
		<tag k="name" v="Storslættjønna" />
		<tag k="natural" v="water" />
		<tag k="ssr:stedsnr" v="30051" />
	</node>
	<node id="-839363" lat="63.8166666699" lon="9.9094222231">
		<tag k="name" v="Kjerkøya" />
		<tag k="natural" v="cape" />
		<tag k="ssr:stedsnr" v="924032" />
	</node>
	<node id="-839627" lat="63.8200944476" lon="10.0360416609">
		<tag k="alt_name" v="Hildremstjønnen" />
		<tag k="name" v="Hildremstjønna" />
		<tag k="natural" v="water" />
		<tag k="ssr:stedsnr" v="376051" />
	</node>
	<node id="-838557" lat="63.8311472198" lon="10.1503944374">
		<tag k="name" v="Elvasvingen" />
		<tag k="natural" v="water" />
		<tag k="ssr:stedsnr" v="212107" />
		<tag k="water" v="lake" />
	</node>
	<node id="-838332" lat="63.7938333324" lon="10.0799361036">
		<tag k="fixme" v="multiple name tags, choose one and add the other to alt_name" />
		<tag k="name" v="Almtjønna;Nedre Almtjønna" />
		<tag k="natural" v="water" />
		<tag k="ssr:stedsnr" v="802272" />
	</node>
	<node id="-839631" lat="63.7439333376" lon="9.77204722638">
		<tag k="alt_name" v="Klakkselva" />
		<tag k="name" v="Klakksbekken" />
		<tag k="ssr:stedsnr" v="195192" />
		<tag k="waterway" v="stream" />
	</node>
	<node id="-839352" lat="63.7307055536" lon="9.80015000315">
		<tag k="name" v="Krulltjønna" />
		<tag k="natural" v="water" />
		<tag k="ssr:stedsnr" v="576130" />
	</node>
	<node id="-839862" lat="63.8714694446" lon="9.96696110426">
		<tag k="name" v="Kvennavatnet" />
		<tag k="natural" v="water" />
		<tag k="ssr:stedsnr" v="316606" />
	</node>
	<node id="-838857" lat="63.7971555534" lon="9.98175000276">
		<tag k="name" v="Gjøljavatnet" />
		<tag k="natural" v="water" />
		<tag k="ssr:stedsnr" v="741009" />
		<tag k="water" v="lake" />
	</node>
	<node id="-838324" lat="63.7989694411" lon="10.133788896">
		<tag k="alt_name" v="Fusslitjønna" />
		<tag k="name" v="Fuslitjønna" />
		<tag k="natural" v="water" />
		<tag k="ssr:stedsnr" v="256243" />
	</node>
	<node id="-839346" lat="63.8071666625" lon="10.0439138851">
		<tag k="name" v="Småtjønnen" />
		<tag k="natural" v="water" />
		<tag k="ssr:stedsnr" v="376029" />
	</node>
	<node id="-839539" lat="63.8286972196" lon="10.1215388813">
		<tag k="name" v="Perholdammen" />
		<tag k="ssr:stedsnr" v="455066" />
		<tag k="waterway" v="dam" />
	</node>
	<node id="-839856" lat="63.79745278" lon="9.81729443651">
		<tag k="name" v="Langstrandneset" />
		<tag k="natural" v="cape" />
		<tag k="ssr:stedsnr" v="559228" />
	</node>
	<node id="-837806" lat="63.8290166678" lon="10.144241662">
		<tag k="name" v="Breiåa" />
		<tag k="ssr:stedsnr" v="698095" />
		<tag k="waterway" v="river" />
	</node>
	<node id="-837661" lat="63.8751805596" lon="10.0077638805">
		<tag k="name" v="Sandtjønnelva" />
		<tag k="ssr:stedsnr" v="273126" />
		<tag k="waterway" v="river" />
	</node>
	<node id="-838062" lat="63.8345833304" lon="10.1829555636">
		<tag k="name" v="Golidammen" />
		<tag k="ssr:stedsnr" v="698107" />
		<tag k="waterway" v="dam" />
	</node>
	<node id="-837490" lat="63.8575749965" lon="10.0651888984">
		<tag k="name" v="Sagfossen" />
		<tag k="natural" v="waterfall" />
		<tag k="ssr:stedsnr" v="273110" />
	</node>
	<node id="-837503" lat="63.7860388934" lon="10.0269777751">
		<tag k="name" v="Karidalsbekken" />
		<tag k="ssr:stedsnr" v="940596" />
		<tag k="waterway" v="stream" />
	</node>
	<node id="-839335" lat="63.8262694439" lon="9.94988612067">
		<tag k="name" v="Øvre Svanatjønna" />
		<tag k="natural" v="water" />
		<tag k="ssr:stedsnr" v="620058" />
	</node>
	<node id="-838825" lat="63.8535666661" lon="10.1542111088">
		<tag k="name" v="Laugen" />
		<tag k="natural" v="water" />
		<tag k="ssr:stedsnr" v="498104" />
		<tag k="water" v="lake" />
	</node>
	<node id="-839843" lat="63.8411666654" lon="9.85576110478">
		<tag k="name" v="Audalsbekken" />
		<tag k="ssr:stedsnr" v="151391" />
		<tag k="waterway" v="stream" />
	</node>
	<node id="-837793" lat="63.7802499971" lon="9.74252777834">
		<tag k="name" v="Ryelva" />
		<tag k="ssr:stedsnr" v="74249" />
		<tag k="waterway" v="stream" />
	</node>
	<node id="-838303" lat="63.7601861093" lon="9.8868555468">
		<tag k="name" v="Bjønnadalsbekken" />
		<tag k="ssr:stedsnr" v="273640" />
		<tag k="waterway" v="stream" />
	</node>
	<node id="-839325" lat="63.8545083319" lon="10.040502772">
		<tag k="name" v="Steinvatnet" />
		<tag k="natural" v="water" />
		<tag k="ssr:stedsnr" v="256089" />
	</node>
	<node id="-839836" lat="63.8629611131" lon="9.94478332425">
		<tag k="name" v="Melvasselva" />
		<tag k="ssr:stedsnr" v="940529" />
		<tag k="waterway" v="river" />
	</node>
	<node id="-839018" lat="63.8143277771" lon="9.91706944024">
		<tag k="alt_name" v="Klingertjønna" />
		<tag k="name" v="Klingra" />
		<tag k="natural" v="bay" />
		<tag k="ssr:stedsnr" v="680033" />
	</node>
	<node id="-839320" lat="63.8029611123" lon="9.99628054745">
		<tag k="name" v="Tyssbotnbukta" />
		<tag k="natural" v="bay" />
		<tag k="ssr:stedsnr" v="455023" />
	</node>
	<node id="-837783" lat="63.8199833293" lon="9.96233610419">
		<tag k="name" v="Svanabekken" />
		<tag k="ssr:stedsnr" v="151068" />
		<tag k="waterway" v="stream" />
	</node>
	<node id="-838806" lat="63.8273333309" lon="10.0104388929">
		<tag k="name" v="Jensneset" />
		<tag k="natural" v="cape" />
		<tag k="ssr:stedsnr" v="576043" />
	</node>
	<node id="-839374" lat="63.8258722195" lon="9.97690277256">
		<tag k="name" v="Langtjønnbekken" />
		<tag k="ssr:stedsnr" v="940037" />
		<tag k="waterway" v="stream" />
	</node>
	<node id="-839314" lat="63.8277666685" lon="9.98751110648">
		<tag k="name" v="Langtjønna" />
		<tag k="natural" v="water" />
		<tag k="ssr:stedsnr" v="741072" />
	</node>
	<node id="-837777" lat="63.8619277764" lon="10.143100004">
		<tag k="name" v="Hauktjønna" />
		<tag k="natural" v="water" />
		<tag k="ssr:stedsnr" v="13130" />
	</node>
	<node id="-839312" lat="63.8482861074" lon="9.72698334084">
		<tag k="name" v="Drilsvatnet" />
		<tag k="natural" v="water" />
		<tag k="ssr:stedsnr" v="636381" />
		<tag k="water" v="lake" />
	</node>
	<node id="-838287" lat="63.7946500037" lon="10.051516664">
		<tag k="name" v="Varghiosen" />
		<tag k="natural" v="bay" />
		<tag k="ssr:stedsnr" v="758574" />
	</node>
	<node id="-839820" lat="63.772394446" lon="9.75433055733">
		<tag k="name" v="Mølnargårdselva" />
		<tag k="ssr:stedsnr" v="273468" />
		<tag k="waterway" v="river" />
	</node>
	<node id="-838795" lat="63.7798083374" lon="10.0528833428">
		<tag k="name" v="Dueskardtjønna" />
		<tag k="natural" v="water" />
		<tag k="ssr:stedsnr" v="316248" />
	</node>
	<node id="-837754" lat="63.8553972215" lon="9.9721055489">
		<tag k="name" v="Storvasstjønna" />
		<tag k="natural" v="water" />
		<tag k="ssr:stedsnr" v="13128" />
	</node>
	<node id="-837769" lat="63.726769447" lon="9.84061944448">
		<tag k="name" v="Eidselva" />
		<tag k="ssr:stedsnr" v="758463" />
		<tag k="waterway" v="river" />
	</node>
	<node id="-839816" lat="63.7706527799" lon="9.8546666719">
		<tag k="name" v="Solemsvatnet" />
		<tag k="natural" v="water" />
		<tag k="ssr:stedsnr" v="74194" />
	</node>
	<node id="-837767" lat="63.843624999" lon="10.1053305633">
		<tag k="alt_name" v="Ner Tomasvatnet;Tomasvatnet, nedre" />
		<tag k="name" v="Nedre Tomasvatnet" />
		<tag k="natural" v="water" />
		<tag k="ssr:stedsnr" v="619087" />
	</node>
	<node id="-838790" lat="63.8099222208" lon="9.80260833393">
		<tag k="name" v="Barsetvatnet" />
		<tag k="natural" v="water" />
		<tag k="ssr:stedsnr" v="802049" />
		<tag k="water" v="lake" />
	</node>
	<node id="-838337" lat="63.8205444439" lon="10.0755361201">
		<tag k="name" v="Søre Svarttjønna" />
		<tag k="natural" v="water" />
		<tag k="ssr:stedsnr" v="326901" />
	</node>
	<node id="-839811" lat="63.8187555538" lon="9.93261943472">
		<tag k="name" v="Elgsneset" />
		<tag k="natural" v="cape" />
		<tag k="ssr:stedsnr" v="273068" />
	</node>
	<node id="-837946" lat="63.7950694435" lon="9.81314444105">
		<tag k="name" v="Eidskardbukta" />
		<tag k="natural" v="bay" />
		<tag k="ssr:stedsnr" v="212002" />
	</node>
	<node id="-839297" lat="63.8782500016" lon="10.0376805487">
		<tag k="name" v="Svartvasselva" />
		<tag k="ssr:stedsnr" v="576113" />
		<tag k="waterway" v="river" />
	</node>
	<node id="-838272" lat="63.8393805588" lon="9.84071667595">
		<tag k="name" v="Kvennabekken" />
		<tag k="ssr:stedsnr" v="151571" />
		<tag k="waterway" v="stream" />
	</node>
	<node id="-837759" lat="63.7821722254" lon="9.969902778">
		<tag k="name" v="Kammatjønnbekken" />
		<tag k="ssr:stedsnr" v="819589" />
		<tag k="waterway" v="stream" />
	</node>
	<node id="-839806" lat="63.8147805557" lon="10.0846805521">
		<tag k="name" v="Svartdalsdammen" />
		<tag k="ssr:stedsnr" v="940548" />
		<tag k="waterway" v="dam" />
	</node>
	<node id="-837757" lat="63.78801111" lon="10.0904694518">
		<tag k="name" v="Øvre Almtjønna" />
		<tag k="natural" v="water" />
		<tag k="ssr:stedsnr" v="74245" />
	</node>
	<node id="-838779" lat="63.7988583349" lon="9.99744166026">
		<tag k="name" v="Storholmen" />
		<tag k="place" v="islet" />
		<tag k="ssr:stedsnr" v="576024" />
	</node>
	<node id="-839290" lat="63.8276666635" lon="9.92381944559">
		<tag k="name" v="Buen" />
		<tag k="natural" v="cape" />
		<tag k="ssr:stedsnr" v="377057" />
	</node>
	<node id="-838777" lat="63.8314083373" lon="9.88501110161">
		<tag k="name" v="Seterbekken" />
		<tag k="ssr:stedsnr" v="334012" />
		<tag k="waterway" v="stream" />
	</node>
	<node id="-838776" lat="63.8431638919" lon="10.0478916642">
		<tag k="name" v="Høgtjønna" />
		<tag k="natural" v="water" />
		<tag k="ssr:stedsnr" v="438067" />
	</node>
	<node id="-837751" lat="63.7728388869" lon="9.652444451">
		<tag k="name" v="Brudalsvatna" />
		<tag k="natural" v="water" />
		<tag k="ssr:stedsnr" v="680684" />
	</node>
	<node id="-837772" lat="63.7916833296" lon="10.1758416684">
		<tag k="name" v="Rundhølen" />
		<tag k="place" v="locality" />
		<tag k="ssr:stedsnr" v="819627" />
	</node>
	<node id="-837748" lat="63.8050444441" lon="9.97048888802">
		<tag k="name" v="Granlibukta" />
		<tag k="natural" v="bay" />
		<tag k="ssr:stedsnr" v="515020" />
	</node>
	<node id="-839283" lat="63.7928194439" lon="9.88132499089">
		<tag k="name" v="Langtjønna" />
		<tag k="natural" v="water" />
		<tag k="ssr:stedsnr" v="819026" />
	</node>
	<node id="-839793" lat="63.8494583294" lon="9.98936945265">
		<tag k="name" v="Skjervasslineset" />
		<tag k="natural" v="cape" />
		<tag k="ssr:stedsnr" v="455500" />
	</node>
	<node id="-837744" lat="63.8285083367" lon="9.91014165758">
		<tag k="name" v="Grunnodden" />
		<tag k="natural" v="cape" />
		<tag k="ssr:stedsnr" v="758049" />
	</node>
	<node id="-838248" lat="63.8220611154" lon="9.91203334325">
		<tag k="name" v="Daumannsholmen" />
		<tag k="place" v="islet" />
		<tag k="ssr:stedsnr" v="333056" />
	</node>
	<node id="-838765" lat="63.7663611104" lon="9.86605833554">
		<tag k="name" v="Hermanneset" />
		<tag k="natural" v="cape" />
		<tag k="ssr:stedsnr" v="516463" />
	</node>
	<node id="-838764" lat="63.8200000042" lon="9.88683889689">
		<tag k="name" v="Rognlivatnet" />
		<tag k="natural" v="water" />
		<tag k="ssr:stedsnr" v="681040" />
		<tag k="water" v="lake" />
	</node>
	<node id="-839787" lat="63.7654194432" lon="9.8878027699">
		<tag k="name" v="Djupelva" />
		<tag k="ssr:stedsnr" v="438174" />
		<tag k="waterway" v="stream" />
	</node>
	<node id="-839875" lat="63.8395722222" lon="9.77740833878">
		<tag k="name" v="Vikabekken" />
		<tag k="ssr:stedsnr" v="30378" />
		<tag k="waterway" v="stream" />
	</node>
	<node id="-839785" lat="63.8423972255" lon="9.82824444524">
		<tag k="name" v="Valatjønna" />
		<tag k="natural" v="water" />
		<tag k="ssr:stedsnr" v="940550" />
	</node>
	<node id="-839784" lat="63.8168583312" lon="9.94251944327">
		<tag k="name" v="Strauman" />
		<tag k="natural" v="strait" />
		<tag k="ssr:stedsnr" v="619041" />
	</node>
	<node id="-838247" lat="63.8301305564" lon="10.1776166616">
		<tag k="name" v="Golibekken" />
		<tag k="ssr:stedsnr" v="151139" />
		<tag k="waterway" v="stream" />
	</node>
	<node id="-837733" lat="63.822375" lon="9.93012223047">
		<tag k="name" v="Storbuktneset" />
		<tag k="natural" v="cape" />
		<tag k="ssr:stedsnr" v="151060" />
	</node>
	<node id="-837478" lat="63.817938888" lon="9.88758332832">
		<tag k="name" v="Rognlineset" />
		<tag k="place" v="islet" />
		<tag k="ssr:stedsnr" v="151016" />
	</node>
	<node id="-839778" lat="63.7320472201" lon="9.79448610742">
		<tag k="name" v="Lomtjønna" />
		<tag k="natural" v="water" />
		<tag k="ssr:stedsnr" v="559216" />
	</node>
	<node id="-839440" lat="63.8202333329" lon="10.0241833233">
		<tag k="name" v="Gammelbubukta" />
		<tag k="natural" v="bay" />
		<tag k="ssr:stedsnr" v="819048" />
	</node>
	<node id="-839262" lat="63.7989166688" lon="9.84687500863">
		<tag k="name" v="Dragabekken" />
		<tag k="ssr:stedsnr" v="13011" />
		<tag k="waterway" v="stream" />
	</node>
	<node id="-839269" lat="63.8262444483" lon="9.85631110742">
		<tag k="name" v="Audalsvatnet" />
		<tag k="natural" v="water" />
		<tag k="ssr:stedsnr" v="134082" />
	</node>
	<node id="-838745" lat="63.7837777805" lon="9.92761388453">
		<tag k="name" v="Reinstjønna" />
		<tag k="natural" v="water" />
		<tag k="ssr:stedsnr" v="212560" />
	</node>
	<node id="-838230" lat="63.7981083295" lon="10.1092638906">
		<tag k="name" v="Fusslibekken" />
		<tag k="ssr:stedsnr" v="151567" />
		<tag k="waterway" v="stream" />
	</node>
	<node id="-839253" lat="63.7679749984" lon="9.57273055071">
		<tag k="name" v="Osen" />
		<tag k="natural" v="bay" />
		<tag k="ssr:stedsnr" v="576529" />
	</node>
	<node id="-838228" lat="63.7885583372" lon="9.8636305527">
		<tag k="name" v="Duhaugtjønna" />
		<tag k="natural" v="water" />
		<tag k="ssr:stedsnr" v="620216" />
	</node>
	<node id="-839251" lat="63.8302722212" lon="10.2007555651">
		<tag k="name" v="Fisktjønna" />
		<tag k="natural" v="water" />
		<tag k="ssr:stedsnr" v="802081" />
	</node>
	<node id="-837735" lat="63.8021138856" lon="10.1419499944">
		<tag k="name" v="Fusslibekken" />
		<tag k="ssr:stedsnr" v="285884" />
		<tag k="waterway" v="stream" />
	</node>
	<node id="-838792" lat="63.8058583317" lon="10.0827305533">
		<tag k="name" v="Storelva" />
		<tag k="ssr:stedsnr" v="680023" />
		<tag k="waterway" v="river" />
	</node>
	<node id="-839756" lat="63.8334027792" lon="10.0647555574">
		<tag k="name" v="Fiskløysbekken" />
		<tag k="ssr:stedsnr" v="455096" />
		<tag k="waterway" v="stream" />
	</node>
	<node id="-839755" lat="63.7463777819" lon="9.76553056504">
		<tag k="name" v="Raudsteintjønna" />
		<tag k="natural" v="water" />
		<tag k="ssr:stedsnr" v="394141" />
	</node>
	<node id="-837820" lat="63.8159222262" lon="9.9393777819">
		<tag k="name" v="Trollholet" />
		<tag k="natural" v="strait" />
		<tag k="ssr:stedsnr" v="151075" />
	</node>
	<node id="-838727" lat="63.7872305567" lon="9.87412777336">
		<tag k="name" v="Damtjønna" />
		<tag k="natural" v="water" />
		<tag k="ssr:stedsnr" v="333582" />
	</node>
	<node id="-839238" lat="63.7963972218" lon="9.83187222483">
		<tag k="name" v="Liafallet" />
		<tag k="ssr:stedsnr" v="940009" />
		<tag k="waterway" v="stream" />
	</node>
	<node id="-839236" lat="63.8030499962" lon="10.1789888966">
		<tag k="alt_name" v="Høgsetvatnet, øvre;Øver Høgsetvatnet" />
		<tag k="name" v="Øvre Høgsetvatnet" />
		<tag k="natural" v="water" />
		<tag k="ssr:stedsnr" v="255018" />
	</node>
	<node id="-838723" lat="63.78825278" lon="9.99552223217">
		<tag k="name" v="Langneset" />
		<tag k="natural" v="cape" />
		<tag k="ssr:stedsnr" v="515623" />
	</node>
	<node id="-839745" lat="63.771072218" lon="9.84289722355">
		<tag k="alt_name" v="Kruktjønna" />
		<tag k="name" v="Storkruktjønna" />
		<tag k="natural" v="water" />
		<tag k="ssr:stedsnr" v="74190" />
	</node>
	<node id="-839232" lat="63.8046305514" lon="9.98986944641">
		<tag k="name" v="Nordbukta" />
		<tag k="natural" v="bay" />
		<tag k="ssr:stedsnr" v="13005" />
	</node>
	<node id="-837695" lat="63.8206305531" lon="9.89075276769">
		<tag k="name" v="Okslikromneset" />
		<tag k="natural" v="cape" />
		<tag k="ssr:stedsnr" v="151053" />
	</node>
	<node id="-839701" lat="63.8475638867" lon="10.1661805593">
		<tag k="name" v="Laugadammen" />
		<tag k="ssr:stedsnr" v="455080" />
		<tag k="waterway" v="dam" />
	</node>
	<node id="-838205" lat="63.8279972188" lon="10.1229861125">
		<tag k="name" v="Perholbekken" />
		<tag k="ssr:stedsnr" v="559062" />
		<tag k="waterway" v="stream" />
	</node>
	<node id="-839740" lat="63.7958750041" lon="9.61718889242">
		<tag k="name" v="Stokkbekken" />
		<tag k="ssr:stedsnr" v="515355" />
		<tag k="waterway" v="stream" />
	</node>
	<node id="-838326" lat="63.7356416692" lon="9.7786861056">
		<tag k="name" v="Pissarvatnet" />
		<tag k="natural" v="water" />
		<tag k="ssr:stedsnr" v="741238" />
	</node>
	<node id="-837632" lat="63.7551138885" lon="9.8777888873">
		<tag k="alt_name" v="Grindbakkbekken" />
		<tag k="name" v="Grinddalsbekken" />
		<tag k="ssr:stedsnr" v="862227" />
		<tag k="waterway" v="stream" />
	</node>
	<node id="-839263" lat="63.8325277799" lon="9.84548611683">
		<tag k="fixme" v="multiple name tags, choose one and add the other to alt_name" />
		<tag k="name" v="Kvennavatnet;Valavatnet" />
		<tag k="natural" v="water" />
		<tag k="ssr:stedsnr" v="620065" />
		<tag k="water" v="lake" />
	</node>
	<node id="-839763" lat="63.8438388921" lon="9.88537222401">
		<tag k="name" v="Teksdalselva" />
		<tag k="ssr:stedsnr" v="741118" />
		<tag k="waterway" v="stream" />
	</node>
	<node id="-838710" lat="63.8013055532" lon="9.98804721403">
		<tag k="name" v="Tyssbotnneset" />
		<tag k="natural" v="cape" />
		<tag k="ssr:stedsnr" v="256013" />
	</node>
	<node id="-838740" lat="63.8435999971" lon="10.0609194402">
		<tag k="name" v="Lakstjønna" />
		<tag k="natural" v="water" />
		<tag k="ssr:stedsnr" v="438068" />
	</node>
	<node id="-838092" lat="63.8461972252" lon="9.9865055463">
		<tag k="name" v="Skjervassbekken" />
		<tag k="ssr:stedsnr" v="515528" />
		<tag k="waterway" v="stream" />
	</node>
	<node id="-837680" lat="63.7489805531" lon="9.73556666603">
		<tag k="name" v="Storlibekken" />
		<tag k="ssr:stedsnr" v="256181" />
		<tag k="waterway" v="stream" />
	</node>
	<node id="-838191" lat="63.8748277768" lon="9.99298055269">
		<tag k="name" v="Øyster Mjøsundet" />
		<tag k="natural" v="strait" />
		<tag k="ssr:stedsnr" v="515545" />
	</node>
	<node id="-839214" lat="63.8205833338" lon="9.75758610801">
		<tag k="name" v="Gravdalsbekken" />
		<tag k="ssr:stedsnr" v="377050" />
		<tag k="waterway" v="stream" />
	</node>
	<node id="-839725" lat="63.7634472252" lon="9.77721389578">
		<tag k="name" v="Stuanesbekken" />
		<tag k="ssr:stedsnr" v="30355" />
		<tag k="waterway" v="stream" />
	</node>
	<node id="-837676" lat="63.8725194472" lon="9.99079167562">
		<tag k="name" v="Mellomvatnet" />
		<tag k="natural" v="water" />
		<tag k="ssr:stedsnr" v="923598" />
	</node>
	<node id="-839211" lat="63.8126305559" lon="9.43355555927">
		<tag k="name" v="Åkervikvatnet" />
		<tag k="natural" v="water" />
		<tag k="ssr:stedsnr" v="195673" />
	</node>
	<node id="-838186" lat="63.8246861132" lon="10.0661416731">
		<tag k="name" v="Svarttjønna" />
		<tag k="natural" v="water" />
		<tag k="ssr:stedsnr" v="559064" />
	</node>
	<node id="-838407" lat="63.7830416624" lon="9.7732750041">
		<tag k="name" v="Kottengselva" />
		<tag k="ssr:stedsnr" v="394327" />
		<tag k="waterway" v="river" />
	</node>
	<node id="-837672" lat="63.8104444482" lon="9.4161138887">
		<tag k="name" v="Hestdammen" />
		<tag k="natural" v="water" />
		<tag k="ssr:stedsnr" v="819184" />
	</node>
	<node id="-837671" lat="63.7822583298" lon="9.66741388859">
		<tag k="name" v="Steinvikvatnet" />
		<tag k="natural" v="water" />
		<tag k="ssr:stedsnr" v="741702" />
	</node>
	<node id="-839857" lat="63.8423777738" lon="10.0707750048">
		<tag k="name" v="Røyrtjønna" />
		<tag k="natural" v="water" />
		<tag k="ssr:stedsnr" v="741109" />
	</node>
	<node id="-839716" lat="63.8342361135" lon="9.95293888795">
		<tag k="name" v="Svartholstjønna" />
		<tag k="natural" v="water" />
		<tag k="ssr:stedsnr" v="741096" />
	</node>
	<node id="-838406" lat="63.8648833309" lon="10.0882166713">
		<tag k="name" v="Pertjønna" />
		<tag k="natural" v="water" />
		<tag k="ssr:stedsnr" v="923135" />
	</node>
	<node id="-838176" lat="63.7725833323" lon="9.89926112023">
		<tag k="name" v="Liabekken" />
		<tag k="ssr:stedsnr" v="698549" />
		<tag k="waterway" v="stream" />
	</node>
	<node id="-838687" lat="63.8751888848" lon="10.059058324">
		<tag k="name" v="Svartvatnet" />
		<tag k="natural" v="water" />
		<tag k="ssr:stedsnr" v="498607" />
	</node>
	<node id="-837662" lat="63.7963194465" lon="9.75031666798">
		<tag k="name" v="Koppartjønna" />
		<tag k="natural" v="water" />
		<tag k="ssr:stedsnr" v="438225" />
	</node>
	<node id="-838405" lat="63.8351416673" lon="10.1839888846">
		<tag k="name" v="Golitjønna" />
		<tag k="natural" v="water" />
		<tag k="ssr:stedsnr" v="195071" />
	</node>
	<node id="-838392" lat="63.8364638858" lon="9.82609444988">
		<tag k="name" v="Råkabekken" />
		<tag k="ssr:stedsnr" v="576382" />
		<tag k="waterway" v="stream" />
	</node>
	<node id="-839194" lat="63.8328027741" lon="10.0437666696">
		<tag k="name" v="Lomtjønna" />
		<tag k="natural" v="water" />
		<tag k="ssr:stedsnr" v="698279" />
	</node>
	<node id="-839705" lat="63.780283335" lon="9.95761110772">
		<tag k="name" v="Kammatjønna" />
		<tag k="natural" v="water" />
		<tag k="ssr:stedsnr" v="863225" />
	</node>
	<node id="-839702" lat="63.856919447" lon="9.99386387946">
		<tag k="name" v="Storvatnet" />
		<tag k="natural" v="water" />
		<tag k="ssr:stedsnr" v="377102" />
		<tag k="water" v="lake" />
	</node>
	<node id="-838677" lat="63.8746138877" lon="9.97520278245">
		<tag k="name" v="Blåvasselva" />
		<tag k="ssr:stedsnr" v="212540" />
		<tag k="waterway" v="river" />
	</node>
	<node id="-838676" lat="63.8396111098" lon="9.95864999671">
		<tag k="name" v="Sofustjønna" />
		<tag k="natural" v="water" />
		<tag k="ssr:stedsnr" v="498086" />
	</node>
	<node id="-839187" lat="63.8265055597" lon="10.0380055605">
		<tag k="name" v="Amunddalselva" />
		<tag k="ssr:stedsnr" v="134072" />
		<tag k="waterway" v="stream" />
	</node>
	<node id="-839186" lat="63.8211694401" lon="9.90684166265">
		<tag k="name" v="Tjønnvalen" />
		<tag k="natural" v="strait" />
		<tag k="ssr:stedsnr" v="333664" />
	</node>
	<node id="-838917" lat="63.8283388867" lon="9.80788888629">
		<tag k="name" v="Barsetbekken" />
		<tag k="ssr:stedsnr" v="940368" />
		<tag k="waterway" v="stream" />
	</node>
	<node id="-839183" lat="63.8369583314" lon="10.0083083335">
		<tag k="name" v="Bjønnaneset" />
		<tag k="natural" v="cape" />
		<tag k="ssr:stedsnr" v="91099" />
	</node>
	<node id="-837801" lat="63.7831861145" lon="9.65497778771">
		<tag k="name" v="Jørnlivatnet" />
		<tag k="natural" v="water" />
		<tag k="ssr:stedsnr" v="316672" />
	</node>
	<node id="-838061" lat="63.7620499988" lon="9.86373888332">
		<tag k="name" v="Haugaelva" />
		<tag k="ssr:stedsnr" v="758515" />
		<tag k="waterway" v="river" />
	</node>
	<node id="-838010" lat="63.8154138866" lon="9.94497499378">
		<tag k="name" v="Sagneset" />
		<tag k="natural" v="cape" />
		<tag k="ssr:stedsnr" v="30077" />
	</node>
	<node id="-839275" lat="63.8146000025" lon="10.2104277817">
		<tag k="alt_name" v="Hammeldalstjønna" />
		<tag k="name" v="Hammardalstjønna" />
		<tag k="natural" v="water" />
		<tag k="ssr:stedsnr" v="255021" />
	</node>
	<node id="-837511" lat="63.7729499972" lon="9.65259444011">
		<tag k="name" v="Hopparsteinvatnet" />
		<tag k="natural" v="water" />
		<tag k="ssr:stedsnr" v="636517" />
		<tag k="water" v="lake" />
	</node>
	<node id="-838227" lat="63.7664388921" lon="9.98929166576">
		<tag k="name" v="Vamyrbekken" />
		<tag k="ssr:stedsnr" v="636612" />
		<tag k="waterway" v="stream" />
	</node>
	<node id="-839172" lat="63.8768666646" lon="9.99839444385">
		<tag k="alt_name" v="Gammalsætervatnet" />
		<tag k="name" v="Gammelsetervatnet" />
		<tag k="natural" v="water" />
		<tag k="ssr:stedsnr" v="134606" />
	</node>
	<node id="-838659" lat="63.8140333363" lon="9.9680194536">
		<tag k="name" v="Båtsmedholmen" />
		<tag k="place" v="islet" />
		<tag k="ssr:stedsnr" v="802037" />
	</node>
	<node id="-837633" lat="63.7957833328" lon="9.95661389141">
		<tag k="name" v="Liaelva" />
		<tag k="ssr:stedsnr" v="273538" />
		<tag k="waterway" v="river" />
	</node>
</osm>
