<?xml version="1.0" encoding="UTF-8"?>
<osm generator="osmapis" version="0.6">
	<node id="-845823" lat="63.8411638882" lon="9.76983333223">
		<tag k="fixme" v="consider natural=peak for the most distinct mountains in the district" />
		<tag k="name" v="Tussakallen" />
		<tag k="natural" v="hill" />
		<tag k="place" v="locality" />
		<tag k="ssr:stedsnr" v="698696" />
	</node>
	<node id="-845822" lat="63.8163555527" lon="9.68469721854">
		<tag k="name" v="Sjøhaugan" />
		<tag k="natural" v="hill" />
		<tag k="place" v="locality" />
		<tag k="ssr:stedsnr" v="151708" />
	</node>
	<node id="-845819" lat="63.7867555581" lon="10.129186109">
		<tag k="name" v="Ramsbakken" />
		<tag k="natural" v="slope" />
		<tag k="place" v="locality" />
		<tag k="ssr:stedsnr" v="758706" />
	</node>
	<node id="-845817" lat="63.8205722236" lon="9.83486666828">
		<tag k="name" v="Slønglidalen" />
		<tag k="natural" v="valley" />
		<tag k="place" v="locality" />
		<tag k="ssr:stedsnr" v="377044" />
	</node>
	<node id="-845807" lat="63.8179833313" lon="9.92600000523">
		<tag k="name" v="Kjerkøyflauget" />
		<tag k="natural" v="cliff" />
		<tag k="ssr:stedsnr" v="394046" />
	</node>
	<node id="-845798" lat="63.7939361082" lon="10.1390888833">
		<tag k="fixme" v="consider natural=peak for the most distinct mountains in the district" />
		<tag k="name" v="Fuslikammen" />
		<tag k="natural" v="hill" />
		<tag k="place" v="locality" />
		<tag k="ssr:stedsnr" v="316267" />
	</node>
	<node id="-845796" lat="63.7647527758" lon="9.60008333641">
		<tag k="name" v="Lauvskardbakken" />
		<tag k="natural" v="slope" />
		<tag k="place" v="locality" />
		<tag k="ssr:stedsnr" v="151697" />
	</node>
	<node id="-845791" lat="63.8085194409" lon="9.66943611335">
		<tag k="name" v="Brandmodalan" />
		<tag k="natural" v="valley" />
		<tag k="place" v="locality" />
		<tag k="ssr:stedsnr" v="334465" />
	</node>
	<node id="-845790" lat="63.8896694459" lon="9.80406388122">
		<tag k="name" v="Staurhallaren" />
		<tag k="natural" v="hill" />
		<tag k="place" v="locality" />
		<tag k="ssr:stedsnr" v="758677" />
	</node>
	<node id="-845789" lat="63.718950002" lon="9.80314723192">
		<tag k="name" v="Karthaugen" />
		<tag k="natural" v="hill" />
		<tag k="place" v="locality" />
		<tag k="ssr:stedsnr" v="741296" />
	</node>
	<node id="-845786" lat="63.8046194449" lon="9.90058055529">
		<tag k="name" v="Røybakklumpen" />
		<tag k="natural" v="hill" />
		<tag k="place" v="locality" />
		<tag k="ssr:stedsnr" v="394029" />
	</node>
	<node id="-845785" lat="63.8176249995" lon="9.86713889094">
		<tag k="name" v="Rognlia" />
		<tag k="natural" v="slope" />
		<tag k="place" v="locality" />
		<tag k="ssr:stedsnr" v="134063" />
	</node>
	<node id="-845784" lat="63.8723777807" lon="9.80051667364">
		<tag k="name" v="Moahaugan" />
		<tag k="natural" v="hill" />
		<tag k="place" v="locality" />
		<tag k="ssr:stedsnr" v="273761" />
	</node>
	<node id="-845777" lat="63.8116755645" lon="10.1623357261">
		<tag k="alt_name" v="Sør Bjønndalshøgda" />
		<tag k="name" v="Sør Bjønnadalshøgda" />
		<tag k="natural" v="hill" />
		<tag k="place" v="locality" />
		<tag k="ssr:stedsnr" v="224905" />
	</node>
	<node id="-844450" lat="63.8003666687" lon="9.39035833184">
		<tag k="name" v="Stallhaugan" />
		<tag k="natural" v="hill" />
		<tag k="place" v="locality" />
		<tag k="ssr:stedsnr" v="455186" />
	</node>
	<node id="-845768" lat="63.8178972211" lon="9.40301665869">
		<tag k="name" v="Grønhaugen" />
		<tag k="natural" v="hill" />
		<tag k="place" v="locality" />
		<tag k="ssr:stedsnr" v="758251" />
	</node>
	<node id="-845765" lat="63.7708222228" lon="9.88013332466">
		<tag k="name" v="Torvbuhaugen" />
		<tag k="natural" v="hill" />
		<tag k="place" v="locality" />
		<tag k="ssr:stedsnr" v="515676" />
	</node>
	<node id="-845764" lat="63.7678861131" lon="9.81758611083">
		<tag k="name" v="Århaugen" />
		<tag k="natural" v="hill" />
		<tag k="place" v="locality" />
		<tag k="ssr:stedsnr" v="91476" />
	</node>
	<node id="-845760" lat="63.7658611106" lon="9.97262499423">
		<tag k="name" v="Aundalen" />
		<tag k="natural" v="valley" />
		<tag k="place" v="locality" />
		<tag k="ssr:stedsnr" v="333626" />
	</node>
	<node id="-845756" lat="63.806835601" lon="9.42566193812">
		<tag k="name" v="Gammalgårdshaugen" />
		<tag k="natural" v="hill" />
		<tag k="place" v="locality" />
		<tag k="ssr:stedsnr" v="862626" />
	</node>
	<node id="-845752" lat="63.7248138878" lon="9.8597444533">
		<tag k="fixme" v="consider natural=peak for the most distinct mountains in the district" />
		<tag k="name" v="Piksteinen" />
		<tag k="natural" v="hill" />
		<tag k="place" v="locality" />
		<tag k="ssr:stedsnr" v="394434" />
	</node>
	<node id="-845751" lat="63.7663194455" lon="9.6882166635">
		<tag k="name" v="Luktsteinan" />
		<tag k="natural" v="hill" />
		<tag k="place" v="locality" />
		<tag k="ssr:stedsnr" v="940389" />
	</node>
	<node id="-845749" lat="63.8001027765" lon="9.66412778191">
		<tag k="name" v="Rundhaugen" />
		<tag k="natural" v="hill" />
		<tag k="place" v="locality" />
		<tag k="ssr:stedsnr" v="880327" />
	</node>
	<node id="-845747" lat="63.7209083354" lon="9.85945832902">
		<tag k="name" v="Risvikklumpen" />
		<tag k="natural" v="hill" />
		<tag k="place" v="locality" />
		<tag k="ssr:stedsnr" v="455389" />
	</node>
	<node id="-845746" lat="63.8266166632" lon="10.0521999922">
		<tag k="name" v="Storrognholknoppan" />
		<tag k="natural" v="hill" />
		<tag k="place" v="locality" />
		<tag k="ssr:stedsnr" v="576080" />
	</node>
	<node id="-845744" lat="63.8159749965" lon="9.87076666665">
		<tag k="fixme" v="consider natural=peak for the most distinct mountains in the district" />
		<tag k="name" v="Rauurdfjellet" />
		<tag k="natural" v="hill" />
		<tag k="place" v="locality" />
		<tag k="ssr:stedsnr" v="30662" />
	</node>
	<node id="-845742" lat="63.8022972266" lon="9.71376943709">
		<tag k="name" v="Eldskardet" />
		<tag k="natural" v="valley" />
		<tag k="place" v="locality" />
		<tag k="ssr:stedsnr" v="455804" />
	</node>
	<node id="-845741" lat="63.8687000041" lon="9.8542611028">
		<tag k="name" v="Grønholet" />
		<tag k="natural" v="slope" />
		<tag k="place" v="locality" />
		<tag k="ssr:stedsnr" v="212602" />
	</node>
	<node id="-845740" lat="63.854074997" lon="9.88929721808">
		<tag k="name" v="Kolmilhaugen" />
		<tag k="natural" v="hill" />
		<tag k="place" v="locality" />
		<tag k="ssr:stedsnr" v="151689" />
	</node>
	<node id="-845739" lat="63.7461666623" lon="9.68919444955">
		<tag k="name" v="Middagshaugen" />
		<tag k="natural" v="hill" />
		<tag k="place" v="locality" />
		<tag k="ssr:stedsnr" v="30661" />
	</node>
	<node id="-845733" lat="63.7575583338" lon="9.91398333205">
		<tag k="name" v="Bjønnheia" />
		<tag k="natural" v="hill" />
		<tag k="place" v="locality" />
		<tag k="ssr:stedsnr" v="30656" />
	</node>
	<node id="-845732" lat="63.7812305543" lon="9.86641945351">
		<tag k="name" v="Høgseterhaugen" />
		<tag k="natural" v="hill" />
		<tag k="place" v="locality" />
		<tag k="ssr:stedsnr" v="394430" />
	</node>
	<node id="-845730" lat="63.8174277783" lon="9.98851666629">
		<tag k="name" v="Hildremslia" />
		<tag k="natural" v="slope" />
		<tag k="place" v="locality" />
		<tag k="ssr:stedsnr" v="394031" />
	</node>
	<node id="-845726" lat="63.7812194456" lon="9.5951250067">
		<tag k="alt_name" v="Selliberget" />
		<tag k="name" v="Selleberget" />
		<tag k="natural" v="hill" />
		<tag k="place" v="locality" />
		<tag k="ssr:stedsnr" v="438640" />
	</node>
	<node id="-845721" lat="63.8198416636" lon="10.0421861187">
		<tag k="name" v="Hildremskråa" />
		<tag k="natural" v="valley" />
		<tag k="place" v="locality" />
		<tag k="ssr:stedsnr" v="576084" />
	</node>
	<node id="-845719" lat="63.7523777758" lon="9.80645277397">
		<tag k="name" v="Skinnstakkhaugan" />
		<tag k="natural" v="hill" />
		<tag k="place" v="locality" />
		<tag k="ssr:stedsnr" v="576492" />
	</node>
	<node id="-845717" lat="63.7656555533" lon="9.92759443987">
		<tag k="name" v="Slåttalia" />
		<tag k="natural" v="slope" />
		<tag k="place" v="locality" />
		<tag k="ssr:stedsnr" v="30657" />
	</node>
	<node id="-845711" lat="63.8253027738" lon="9.82188055351">
		<tag k="name" v="Granskardet" />
		<tag k="natural" v="valley" />
		<tag k="place" v="locality" />
		<tag k="ssr:stedsnr" v="802072" />
	</node>
	<node id="-845709" lat="63.8727215315" lon="10.0421419876">
		<tag k="name" v="Sandtjønnskardet" />
		<tag k="natural" v="valley" />
		<tag k="place" v="locality" />
		<tag k="ssr:stedsnr" v="73587" />
	</node>
	<node id="-845708" lat="63.8163666656" lon="9.91899999262">
		<tag k="name" v="Tømmerløyfta" />
		<tag k="natural" v="valley" />
		<tag k="place" v="locality" />
		<tag k="ssr:stedsnr" v="91060" />
	</node>
	<node id="-845705" lat="63.7486916653" lon="9.71669443615">
		<tag k="name" v="Rishaugen" />
		<tag k="natural" v="hill" />
		<tag k="place" v="locality" />
		<tag k="ssr:stedsnr" v="394416" />
	</node>
	<node id="-845704" lat="63.8670750013" lon="9.96921110999">
		<tag k="fixme" v="consider natural=peak for the most distinct mountains in the district" />
		<tag k="name" v="Litlhollifjellet" />
		<tag k="natural" v="hill" />
		<tag k="place" v="locality" />
		<tag k="ssr:stedsnr" v="195125" />
	</node>
	<node id="-845698" lat="63.7882055538" lon="9.94325000175">
		<tag k="name" v="Kollen" />
		<tag k="natural" v="hill" />
		<tag k="place" v="locality" />
		<tag k="ssr:stedsnr" v="151683" />
	</node>
	<node id="-845697" lat="63.8497833294" lon="9.71920555352">
		<tag k="name" v="Lia" />
		<tag k="natural" v="hill" />
		<tag k="place" v="locality" />
		<tag k="ssr:stedsnr" v="880756" />
	</node>
	<node id="-845694" lat="63.817400001" lon="10.0547333261">
		<tag k="name" v="Bjørkliheia" />
		<tag k="natural" v="hill" />
		<tag k="place" v="locality" />
		<tag k="ssr:stedsnr" v="680044" />
	</node>
	<node id="-845691" lat="63.7428583355" lon="9.71376110171">
		<tag k="name" v="Ervikhaugen" />
		<tag k="natural" v="hill" />
		<tag k="place" v="locality" />
		<tag k="ssr:stedsnr" v="333177" />
	</node>
	<node id="-845688" lat="63.8226805556" lon="9.65261667071">
		<tag k="name" v="Småhaugan" />
		<tag k="natural" v="hill" />
		<tag k="place" v="locality" />
		<tag k="ssr:stedsnr" v="636767" />
	</node>
	<node id="-845686" lat="63.7687722265" lon="9.65529443676">
		<tag k="fixme" v="multiple name tags, choose one and add the other to alt_name; consider natural=peak for the most distinct mountains in the district" />
		<tag k="name" v="Brudalsfjellet;Brudalskallen" />
		<tag k="natural" v="hill" />
		<tag k="place" v="locality" />
		<tag k="ssr:stedsnr" v="316779" />
	</node>
	<node id="-845684" lat="63.7655194471" lon="9.71621666322">
		<tag k="fixme" v="consider natural=peak for the most distinct mountains in the district" />
		<tag k="name" v="Fruskolten" />
		<tag k="natural" v="hill" />
		<tag k="place" v="locality" />
		<tag k="ssr:stedsnr" v="273322" />
	</node>
	<node id="-845683" lat="63.8392194425" lon="9.75674999501">
		<tag k="name" v="Slåttaklova" />
		<tag k="natural" v="valley" />
		<tag k="place" v="locality" />
		<tag k="ssr:stedsnr" v="273746" />
	</node>
	<node id="-845676" lat="63.8066277744" lon="9.73674445215">
		<tag k="fixme" v="consider natural=peak for the most distinct mountains in the district" />
		<tag k="name" v="Kopparen" />
		<tag k="natural" v="hill" />
		<tag k="place" v="locality" />
		<tag k="ssr:stedsnr" v="134046" />
	</node>
	<node id="-845672" lat="63.820988887" lon="9.43449444052">
		<tag k="name" v="Stordamhaugen" />
		<tag k="natural" v="hill" />
		<tag k="place" v="locality" />
		<tag k="ssr:stedsnr" v="30225" />
	</node>
	<node id="-845670" lat="63.8533472215" lon="9.89848889555">
		<tag k="name" v="Storhaugen" />
		<tag k="natural" v="hill" />
		<tag k="place" v="locality" />
		<tag k="ssr:stedsnr" v="698670" />
	</node>
	<node id="-845668" lat="63.769966668" lon="9.98271388525">
		<tag k="fixme" v="consider natural=peak for the most distinct mountains in the district" />
		<tag k="name" v="Søykjkammen" />
		<tag k="natural" v="hill" />
		<tag k="place" v="locality" />
		<tag k="ssr:stedsnr" v="212590" />
	</node>
	<node id="-845664" lat="63.8090666675" lon="10.055619435">
		<tag k="name" v="Rundhaugen" />
		<tag k="natural" v="hill" />
		<tag k="place" v="locality" />
		<tag k="ssr:stedsnr" v="741032" />
	</node>
	<node id="-845662" lat="63.7733944429" lon="9.77534165998">
		<tag k="name" v="Vardheia" />
		<tag k="natural" v="hill" />
		<tag k="place" v="locality" />
		<tag k="ssr:stedsnr" v="273333" />
	</node>
	<node id="-844431" lat="63.7800916676" lon="9.87740556389">
		<tag k="name" v="Eksdalen" />
		<tag k="natural" v="valley" />
		<tag k="place" v="locality" />
		<tag k="ssr:stedsnr" v="819583" />
	</node>
	<node id="-845652" lat="63.8083444483" lon="9.95314722223">
		<tag k="fixme" v="consider natural=peak for the most distinct mountains in the district" />
		<tag k="name" v="Gudafjellet" />
		<tag k="natural" v="hill" />
		<tag k="place" v="locality" />
		<tag k="ssr:stedsnr" v="394017" />
	</node>
	<node id="-845646" lat="63.8377527773" lon="9.81534444928">
		<tag k="name" v="Bryggberget" />
		<tag k="natural" v="hill" />
		<tag k="place" v="locality" />
		<tag k="ssr:stedsnr" v="880343" />
	</node>
	<node id="-845645" lat="63.8188666689" lon="9.96321667496">
		<tag k="name" v="Saghaugen" />
		<tag k="natural" v="hill" />
		<tag k="place" v="locality" />
		<tag k="ssr:stedsnr" v="151679" />
	</node>
	<node id="-845644" lat="63.7414944452" lon="9.88327500633">
		<tag k="name" v="Olderlia" />
		<tag k="natural" v="slope" />
		<tag k="place" v="locality" />
		<tag k="ssr:stedsnr" v="91458" />
	</node>
	<node id="-845641" lat="63.8386416664" lon="9.89977222263">
		<tag k="name" v="Vasslia" />
		<tag k="natural" v="slope" />
		<tag k="place" v="locality" />
		<tag k="ssr:stedsnr" v="698669" />
	</node>
	<node id="-845638" lat="63.7432805561" lon="9.7396500032">
		<tag k="name" v="Langmyrhaugan" />
		<tag k="natural" v="hill" />
		<tag k="place" v="locality" />
		<tag k="ssr:stedsnr" v="333182" />
	</node>
	<node id="-845634" lat="63.7697638901" lon="9.84700278373">
		<tag k="fixme" v="consider natural=peak for the most distinct mountains in the district" />
		<tag k="name" v="Krukfjellet" />
		<tag k="natural" v="hill" />
		<tag k="place" v="locality" />
		<tag k="ssr:stedsnr" v="273328" />
	</node>
	<node id="-845633" lat="63.75437778" lon="9.75429721603">
		<tag k="name" v="Åsen" />
		<tag k="place" v="locality" />
		<tag k="ssr:stedsnr" v="576479" />
	</node>
	<node id="-845631" lat="63.8018472232" lon="9.72151944369">
		<tag k="name" v="Tørremheia" />
		<tag k="natural" v="hill" />
		<tag k="place" v="locality" />
		<tag k="ssr:stedsnr" v="394815" />
	</node>
	<node id="-845625" lat="63.75798611" lon="9.86061944663">
		<tag k="name" v="Bustbakken" />
		<tag k="natural" v="slope" />
		<tag k="place" v="locality" />
		<tag k="ssr:stedsnr" v="819347" />
	</node>
	<node id="-845622" lat="63.7545750002" lon="9.94760000331">
		<tag k="name" v="Notneshaugen" />
		<tag k="natural" v="hill" />
		<tag k="place" v="locality" />
		<tag k="ssr:stedsnr" v="212581" />
	</node>
	<node id="-845618" lat="63.8709111091" lon="9.85661389885">
		<tag k="fixme" v="consider natural=peak for the most distinct mountains in the district" />
		<tag k="name" v="Litlrømmesfjellet" />
		<tag k="natural" v="hill" />
		<tag k="place" v="locality" />
		<tag k="ssr:stedsnr" v="333600" />
	</node>
	<node id="-845617" lat="63.744813893" lon="9.78275833748">
		<tag k="name" v="Litlfrødalsklumpen" />
		<tag k="natural" v="hill" />
		<tag k="place" v="locality" />
		<tag k="ssr:stedsnr" v="333167" />
	</node>
	<node id="-845616" lat="63.8447555568" lon="9.76463055046">
		<tag k="fixme" v="consider natural=peak for the most distinct mountains in the district" />
		<tag k="name" v="Tussan" />
		<tag k="natural" v="hill" />
		<tag k="place" v="locality" />
		<tag k="ssr:stedsnr" v="438083" />
	</node>
	<node id="-845615" lat="63.8078055563" lon="10.0769166601">
		<tag k="name" v="Hansslettlia" />
		<tag k="natural" v="slope" />
		<tag k="place" v="locality" />
		<tag k="ssr:stedsnr" v="134040" />
	</node>
	<node id="-845614" lat="63.8296861071" lon="9.70714165811">
		<tag k="name" v="Bekkavikskardet" />
		<tag k="natural" v="valley" />
		<tag k="place" v="locality" />
		<tag k="ssr:stedsnr" v="273734" />
	</node>
	<node id="-844255" lat="63.8317666633" lon="9.83977499157">
		<tag k="name" v="Felia" />
		<tag k="natural" v="slope" />
		<tag k="place" v="locality" />
		<tag k="ssr:stedsnr" v="334652" />
	</node>
	<node id="-845605" lat="63.8691361095" lon="9.863036116">
		<tag k="fixme" v="consider natural=peak for the most distinct mountains in the district" />
		<tag k="name" v="Trøfjellet" />
		<tag k="natural" v="hill" />
		<tag k="place" v="locality" />
		<tag k="ssr:stedsnr" v="333596" />
	</node>
	<node id="-845603" lat="63.8666750023" lon="9.72016944293">
		<tag k="name" v="Kvalvikhaugen" />
		<tag k="natural" v="hill" />
		<tag k="place" v="locality" />
		<tag k="ssr:stedsnr" v="30641" />
	</node>
	<node id="-845599" lat="63.8519361143" lon="9.79031944411">
		<tag k="fixme" v="consider natural=peak for the most distinct mountains in the district" />
		<tag k="name" v="Ursfjellet" />
		<tag k="natural" v="hill" />
		<tag k="place" v="locality" />
		<tag k="ssr:stedsnr" v="195113" />
	</node>
	<node id="-845598" lat="63.7825888873" lon="9.94981666799">
		<tag k="fixme" v="consider natural=peak for the most distinct mountains in the district" />
		<tag k="name" v="Kammen" />
		<tag k="natural" v="hill" />
		<tag k="place" v="locality" />
		<tag k="ssr:stedsnr" v="741277" />
	</node>
	<node id="-845597" lat="63.7860638846" lon="9.869194454">
		<tag k="name" v="Damhaugen" />
		<tag k="natural" v="hill" />
		<tag k="place" v="locality" />
		<tag k="ssr:stedsnr" v="880302" />
	</node>
	<node id="-845596" lat="63.7658027757" lon="9.89503889637">
		<tag k="name" v="Skabakken" />
		<tag k="natural" v="slope" />
		<tag k="place" v="locality" />
		<tag k="ssr:stedsnr" v="880709" />
	</node>
	<node id="-845593" lat="63.9325166625" lon="9.75410000158">
		<tag k="fixme" v="consider natural=peak for the most distinct mountains in the district" />
		<tag k="name" v="Storfjellet" />
		<tag k="natural" v="hill" />
		<tag k="place" v="locality" />
		<tag k="ssr:stedsnr" v="924510" />
	</node>
	<node id="-845592" lat="63.7745333364" lon="10.0022000102">
		<tag k="name" v="Blomdalen" />
		<tag k="natural" v="valley" />
		<tag k="place" v="locality" />
		<tag k="ssr:stedsnr" v="333609" />
	</node>
	<node id="-845589" lat="63.8229944428" lon="9.98069443675">
		<tag k="name" v="Tverrlia" />
		<tag k="natural" v="slope" />
		<tag k="place" v="locality" />
		<tag k="ssr:stedsnr" v="91040" />
	</node>
	<node id="-845587" lat="63.7697638889" lon="9.7162527848">
		<tag k="fixme" v="consider natural=peak for the most distinct mountains in the district" />
		<tag k="name" v="Jørnåsen" />
		<tag k="natural" v="hill" />
		<tag k="place" v="locality" />
		<tag k="ssr:stedsnr" v="680790" />
	</node>
	<node id="-845583" lat="63.762219443" lon="9.90667499387">
		<tag k="name" v="Blankheidalen" />
		<tag k="natural" v="valley" />
		<tag k="place" v="locality" />
		<tag k="ssr:stedsnr" v="151665" />
	</node>
	<node id="-845579" lat="63.8191388899" lon="9.73615555969">
		<tag k="name" v="Håkadalsletta" />
		<tag k="place" v="locality" />
		<tag k="ssr:stedsnr" v="455783" />
	</node>
	<node id="-845578" lat="63.8098750008" lon="9.4274888989">
		<tag k="name" v="Gammelgårdsholet" />
		<tag k="place" v="locality" />
		<tag k="ssr:stedsnr" v="758218" />
	</node>
	<node id="-845565" lat="63.7575833323" lon="9.9945666568">
		<tag k="name" v="Stallvikberga" />
		<tag k="natural" v="hill" />
		<tag k="place" v="locality" />
		<tag k="ssr:stedsnr" v="333587" />
	</node>
	<node id="-845564" lat="63.8541222216" lon="9.8816916711">
		<tag k="fixme" v="consider natural=peak for the most distinct mountains in the district" />
		<tag k="name" v="Skarafjellet" />
		<tag k="natural" v="hill" />
		<tag k="place" v="locality" />
		<tag k="ssr:stedsnr" v="212568" />
	</node>
	<node id="-845562" lat="63.8272416647" lon="9.66069166794">
		<tag k="name" v="Bakkavarden" />
		<tag k="natural" v="hill" />
		<tag k="place" v="locality" />
		<tag k="ssr:stedsnr" v="394389" />
	</node>
	<node id="-845561" lat="63.7282888881" lon="9.86563889253">
		<tag k="fixme" v="consider natural=peak for the most distinct mountains in the district" />
		<tag k="name" v="Saltnesfjellet" />
		<tag k="natural" v="hill" />
		<tag k="place" v="locality" />
		<tag k="ssr:stedsnr" v="316247" />
	</node>
	<node id="-845552" lat="63.8912111092" lon="9.92995278578">
		<tag k="name" v="Nausthaugen" />
		<tag k="natural" v="hill" />
		<tag k="place" v="locality" />
		<tag k="ssr:stedsnr" v="515631" />
	</node>
	<node id="-845551" lat="63.7936027806" lon="9.90546666293">
		<tag k="name" v="Tjønnliheia" />
		<tag k="natural" v="hill" />
		<tag k="place" v="locality" />
		<tag k="ssr:stedsnr" v="576037" />
	</node>
	<node id="-845546" lat="63.787297222" lon="10.0390138903">
		<tag k="name" v="Kvolva" />
		<tag k="place" v="locality" />
		<tag k="ssr:stedsnr" v="515632" />
	</node>
	<node id="-845545" lat="63.8345472225" lon="9.70830833375">
		<tag k="name" v="Buskardet" />
		<tag k="natural" v="valley" />
		<tag k="place" v="locality" />
		<tag k="ssr:stedsnr" v="636740" />
	</node>
	<node id="-845544" lat="63.8205583317" lon="9.97109167564">
		<tag k="name" v="Aunhalsen" />
		<tag k="natural" v="valley" />
		<tag k="place" v="locality" />
		<tag k="ssr:stedsnr" v="576038" />
	</node>
	<node id="-845543" lat="63.8414916681" lon="9.91782777641">
		<tag k="name" v="Klumpan" />
		<tag k="natural" v="hill" />
		<tag k="place" v="locality" />
		<tag k="ssr:stedsnr" v="438078" />
	</node>
	<node id="-845542" lat="63.8562694469" lon="9.88394443613">
		<tag k="name" v="Litl Neshaugen" />
		<tag k="natural" v="hill" />
		<tag k="place" v="locality" />
		<tag k="ssr:stedsnr" v="212571" />
	</node>
	<node id="-845539" lat="63.8257194483" lon="9.69808334255">
		<tag k="name" v="Herstan" />
		<tag k="natural" v="hill" />
		<tag k="place" v="locality" />
		<tag k="ssr:stedsnr" v="880730" />
	</node>
	<node id="-845537" lat="63.8155166662" lon="10.1500555648">
		<tag k="name" v="Mydalen" />
		<tag k="natural" v="valley" />
		<tag k="place" v="locality" />
		<tag k="ssr:stedsnr" v="802054" />
	</node>
	<node id="-845534" lat="63.8114777737" lon="9.87143888481">
		<tag k="name" v="Jøvassheian" />
		<tag k="natural" v="hill" />
		<tag k="place" v="locality" />
		<tag k="ssr:stedsnr" v="680028" />
	</node>
	<node id="-845533" lat="63.8609416634" lon="9.90544444981">
		<tag k="name" v="Trollholan" />
		<tag k="natural" v="valley" />
		<tag k="place" v="locality" />
		<tag k="ssr:stedsnr" v="212573" />
	</node>
	<node id="-845530" lat="63.7598472196" lon="9.82894999545">
		<tag k="name" v="Djupdalen" />
		<tag k="natural" v="valley" />
		<tag k="place" v="locality" />
		<tag k="ssr:stedsnr" v="334423" />
	</node>
	<node id="-845528" lat="63.8821472256" lon="9.97810000964">
		<tag k="fixme" v="consider natural=peak for the most distinct mountains in the district" />
		<tag k="name" v="Blåvassfjellet" />
		<tag k="natural" v="hill" />
		<tag k="place" v="locality" />
		<tag k="ssr:stedsnr" v="620553" />
	</node>
	<node id="-845522" lat="63.7514277795" lon="9.83487222319">
		<tag k="fixme" v="consider natural=peak for the most distinct mountains in the district" />
		<tag k="name" v="Almfjellet" />
		<tag k="natural" v="hill" />
		<tag k="place" v="locality" />
		<tag k="ssr:stedsnr" v="499132" />
	</node>
	<node id="-845521" lat="63.852624998" lon="10.1115416672">
		<tag k="fixme" v="consider natural=peak for the most distinct mountains in the district" />
		<tag k="name" v="Seksortklumpen" />
		<tag k="natural" v="hill" />
		<tag k="place" v="locality" />
		<tag k="ssr:stedsnr" v="195104" />
	</node>
	<node id="-845517" lat="63.8159000023" lon="9.87045834062">
		<tag k="name" v="Raudholtuva" />
		<tag k="natural" v="hill" />
		<tag k="place" v="locality" />
		<tag k="ssr:stedsnr" v="680027" />
	</node>
	<node id="-845513" lat="63.8510972183" lon="9.8784277826">
		<tag k="fixme" v="consider natural=peak for the most distinct mountains in the district" />
		<tag k="name" v="Aunafjellet" />
		<tag k="natural" v="hill" />
		<tag k="place" v="locality" />
		<tag k="ssr:stedsnr" v="455348" />
	</node>
	<node id="-845512" lat="63.7617999986" lon="9.82536112065">
		<tag k="fixme" v="consider natural=peak for the most distinct mountains in the district" />
		<tag k="name" v="Brekkfjellet" />
		<tag k="natural" v="hill" />
		<tag k="place" v="locality" />
		<tag k="ssr:stedsnr" v="819352" />
	</node>
	<node id="-845510" lat="63.7214250003" lon="9.82091111446">
		<tag k="name" v="Nonsklumpen" />
		<tag k="natural" v="hill" />
		<tag k="place" v="locality" />
		<tag k="ssr:stedsnr" v="91435" />
	</node>
	<node id="-844406" lat="63.7362999963" lon="9.71134166568">
		<tag k="name" v="Kakkelhaugen" />
		<tag k="natural" v="hill" />
		<tag k="place" v="locality" />
		<tag k="ssr:stedsnr" v="819166" />
	</node>
	<node id="-845497" lat="63.7878916674" lon="9.90782221506">
		<tag k="name" v="Marikollen" />
		<tag k="natural" v="hill" />
		<tag k="place" v="locality" />
		<tag k="ssr:stedsnr" v="212565" />
	</node>
	<node id="-845479" lat="63.8135444426" lon="9.98518610942">
		<tag k="name" v="Baklia" />
		<tag k="natural" v="slope" />
		<tag k="place" v="locality" />
		<tag k="ssr:stedsnr" v="91020" />
	</node>
	<node id="-845477" lat="63.8152972191" lon="9.74526388003">
		<tag k="name" v="Håkadalsskarda" />
		<tag k="natural" v="valley" />
		<tag k="place" v="locality" />
		<tag k="ssr:stedsnr" v="940787" />
	</node>
	<node id="-845476" lat="63.8431388918" lon="9.76578333699">
		<tag k="fixme" v="consider natural=peak for the most distinct mountains in the district" />
		<tag k="name" v="Tussakjerringa" />
		<tag k="natural" v="hill" />
		<tag k="place" v="locality" />
		<tag k="ssr:stedsnr" v="819746" />
	</node>
	<node id="-845473" lat="63.8466972209" lon="10.0333805652">
		<tag k="alt_name" v="Oldskorda" />
		<tag k="fixme" v="consider natural=peak for the most distinct mountains in the district" />
		<tag k="name" v="Oldskora" />
		<tag k="natural" v="hill" />
		<tag k="place" v="locality" />
		<tag k="ssr:stedsnr" v="438066" />
	</node>
	<node id="-845472" lat="63.7811666703" lon="9.98345556317">
		<tag k="name" v="Kråkhaugen" />
		<tag k="natural" v="hill" />
		<tag k="place" v="locality" />
		<tag k="ssr:stedsnr" v="515621" />
	</node>
	<node id="-845471" lat="63.8103416653" lon="9.68311110556">
		<tag k="name" v="Nebbeten" />
		<tag k="natural" v="hill" />
		<tag k="place" v="locality" />
		<tag k="ssr:stedsnr" v="91428" />
	</node>
	<node id="-845467" lat="63.8034805532" lon="9.8275388866">
		<tag k="name" v="Barsetlibrotet" />
		<tag k="natural" v="hill" />
		<tag k="place" v="locality" />
		<tag k="ssr:stedsnr" v="256018" />
	</node>
	<node id="-845463" lat="63.8287472201" lon="9.80033888206">
		<tag k="fixme" v="consider natural=peak for the most distinct mountains in the district" />
		<tag k="name" v="Sellifjellet" />
		<tag k="natural" v="hill" />
		<tag k="place" v="locality" />
		<tag k="ssr:stedsnr" v="940789" />
	</node>
	<node id="-845457" lat="63.7490083292" lon="9.76691945177">
		<tag k="fixme" v="consider natural=peak for the most distinct mountains in the district" />
		<tag k="name" v="Hundfjellet" />
		<tag k="natural" v="hill" />
		<tag k="place" v="locality" />
		<tag k="ssr:stedsnr" v="940345" />
	</node>
	<node id="-845449" lat="63.7982361067" lon="9.75785833959">
		<tag k="name" v="Knappen" />
		<tag k="natural" v="hill" />
		<tag k="place" v="locality" />
		<tag k="ssr:stedsnr" v="134024" />
	</node>
	<node id="-845447" lat="63.7941166696" lon="9.38890832706">
		<tag k="name" v="Karlsøysletta" />
		<tag k="place" v="locality" />
		<tag k="ssr:stedsnr" v="30185" />
	</node>
	<node id="-845442" lat="63.8912222195" lon="9.88718055656">
		<tag k="name" v="Håmannvikberga" />
		<tag k="natural" v="hill" />
		<tag k="place" v="locality" />
		<tag k="ssr:stedsnr" v="455338" />
	</node>
	<node id="-845441" lat="63.7989472197" lon="9.75678889476">
		<tag k="fixme" v="consider natural=peak for the most distinct mountains in the district" />
		<tag k="name" v="Bjønnakammen" />
		<tag k="natural" v="hill" />
		<tag k="place" v="locality" />
		<tag k="ssr:stedsnr" v="151210" />
	</node>
	<node id="-845439" lat="63.7864833359" lon="9.9988333274">
		<tag k="name" v="Nordlia" />
		<tag k="natural" v="slope" />
		<tag k="place" v="locality" />
		<tag k="ssr:stedsnr" v="273717" />
	</node>
	<node id="-845436" lat="63.8179333348" lon="9.84410833106">
		<tag k="name" v="Bualia" />
		<tag k="natural" v="slope" />
		<tag k="place" v="locality" />
		<tag k="ssr:stedsnr" v="636692" />
	</node>
	<node id="-844394" lat="63.8091583326" lon="9.39989166624">
		<tag k="name" v="Kråkhaugen" />
		<tag k="natural" v="hill" />
		<tag k="place" v="locality" />
		<tag k="ssr:stedsnr" v="455171" />
	</node>
	<node id="-845432" lat="63.8060472243" lon="9.94988054934">
		<tag k="name" v="Sørbotnhøgda" />
		<tag k="natural" v="hill" />
		<tag k="place" v="locality" />
		<tag k="ssr:stedsnr" v="91014" />
	</node>
	<node id="-845424" lat="63.8789333362" lon="9.90164722256">
		<tag k="name" v="Brekka" />
		<tag k="natural" v="slope" />
		<tag k="place" v="locality" />
		<tag k="ssr:stedsnr" v="30613" />
	</node>
	<node id="-845413" lat="63.7356388849" lon="9.7541777873">
		<tag k="name" v="Rundbø" />
		<tag k="natural" v="hill" />
		<tag k="place" v="locality" />
		<tag k="ssr:stedsnr" v="13221" />
	</node>
	<node id="-845402" lat="63.8224277769" lon="10.0426111122">
		<tag k="name" v="Storrognholhøgden" />
		<tag k="natural" v="hill" />
		<tag k="place" v="locality" />
		<tag k="ssr:stedsnr" v="273712" />
	</node>
	<node id="-845399" lat="63.873016671" lon="9.94891944036">
		<tag k="alt_name" v="Nesafjellet" />
		<tag k="fixme" v="consider natural=peak for the most distinct mountains in the district" />
		<tag k="name" v="Nessafjellet" />
		<tag k="natural" v="hill" />
		<tag k="place" v="locality" />
		<tag k="ssr:stedsnr" v="558590" />
	</node>
	<node id="-845395" lat="63.8548694473" lon="9.98268334038">
		<tag k="name" v="Storvassheia" />
		<tag k="natural" v="hill" />
		<tag k="place" v="locality" />
		<tag k="ssr:stedsnr" v="559101" />
	</node>
	<node id="-845394" lat="63.8930666644" lon="9.81473610252">
		<tag k="alt_name" v="Skjørøyhauet, nordre" />
		<tag k="fixme" v="multiple name tags, choose one and add the other to alt_name" />
		<tag k="name" v="Nordre Skjørøyhauet;Vardfjellet" />
		<tag k="natural" v="hill" />
		<tag k="place" v="locality" />
		<tag k="ssr:stedsnr" v="681587" />
	</node>
	<node id="-845393" lat="63.7465444423" lon="9.86599166667">
		<tag k="name" v="Småliklumpan" />
		<tag k="natural" v="hill" />
		<tag k="place" v="locality" />
		<tag k="ssr:stedsnr" v="334402" />
	</node>
	<node id="-845392" lat="63.8114388857" lon="9.73867777201">
		<tag k="fixme" v="consider natural=peak for the most distinct mountains in the district" />
		<tag k="name" v="Bjønnastokken" />
		<tag k="natural" v="hill" />
		<tag k="place" v="locality" />
		<tag k="ssr:stedsnr" v="576832" />
	</node>
	<node id="-845391" lat="63.8470944439" lon="10.0024833233">
		<tag k="name" v="Vikern" />
		<tag k="natural" v="slope" />
		<tag k="place" v="locality" />
		<tag k="ssr:stedsnr" v="195090" />
	</node>
	<node id="-845390" lat="63.8302388909" lon="9.71543333223">
		<tag k="fixme" v="consider natural=peak for the most distinct mountains in the district" />
		<tag k="name" v="Båtfjellet" />
		<tag k="natural" v="hill" />
		<tag k="place" v="locality" />
		<tag k="ssr:stedsnr" v="923699" />
	</node>
	<node id="-845389" lat="63.8501527796" lon="9.73086388229">
		<tag k="fixme" v="consider natural=peak for the most distinct mountains in the district" />
		<tag k="name" v="Vassfjellet" />
		<tag k="natural" v="hill" />
		<tag k="place" v="locality" />
		<tag k="ssr:stedsnr" v="819762" />
	</node>
	<node id="-845388" lat="63.8101222245" lon="10.1887083379">
		<tag k="name" v="Bjørndalsklumpen" />
		<tag k="natural" v="hill" />
		<tag k="place" v="locality" />
		<tag k="ssr:stedsnr" v="680013" />
	</node>
	<node id="-845384" lat="63.7912472187" lon="9.75753889865">
		<tag k="fixme" v="consider natural=peak for the most distinct mountains in the district" />
		<tag k="name" v="Husfjellet" />
		<tag k="natural" v="hill" />
		<tag k="place" v="locality" />
		<tag k="ssr:stedsnr" v="697347" />
	</node>
	<node id="-845380" lat="63.7619444436" lon="9.81016665703">
		<tag k="name" v="Ulvstuhaugen" />
		<tag k="natural" v="hill" />
		<tag k="place" v="locality" />
		<tag k="ssr:stedsnr" v="697349" />
	</node>
	<node id="-845379" lat="63.7973722263" lon="9.71654443579">
		<tag k="name" v="Oksvolldalen" />
		<tag k="natural" v="valley" />
		<tag k="place" v="locality" />
		<tag k="ssr:stedsnr" v="940801" />
	</node>
	<node id="-845376" lat="63.8516583375" lon="9.80696944555">
		<tag k="name" v="Stormyrhaugen" />
		<tag k="natural" v="hill" />
		<tag k="place" v="locality" />
		<tag k="ssr:stedsnr" v="515602" />
	</node>
	<node id="-845375" lat="63.7850472264" lon="9.85054443669">
		<tag k="name" v="Langhaugen" />
		<tag k="natural" v="hill" />
		<tag k="place" v="locality" />
		<tag k="ssr:stedsnr" v="576419" />
	</node>
	<node id="-845373" lat="63.7939583315" lon="9.70455277706">
		<tag k="name" v="Munken" />
		<tag k="natural" v="hill" />
		<tag k="place" v="locality" />
		<tag k="ssr:stedsnr" v="940802" />
	</node>
	<node id="-845371" lat="63.800705558" lon="9.94894443477">
		<tag k="name" v="Liaheia" />
		<tag k="natural" v="hill" />
		<tag k="place" v="locality" />
		<tag k="ssr:stedsnr" v="741006" />
	</node>
	<node id="-845365" lat="63.755058335" lon="9.88459721586">
		<tag k="name" v="Søtvikskardet" />
		<tag k="natural" v="valley" />
		<tag k="place" v="locality" />
		<tag k="ssr:stedsnr" v="880705" />
	</node>
	<node id="-845364" lat="63.8258138893" lon="9.68451665954">
		<tag k="name" v="Malihaugen" />
		<tag k="natural" v="hill" />
		<tag k="place" v="locality" />
		<tag k="ssr:stedsnr" v="923702" />
	</node>
	<node id="-845360" lat="63.886291668" lon="9.77819999443">
		<tag k="name" v="Singstrandhaugen" />
		<tag k="natural" v="hill" />
		<tag k="place" v="locality" />
		<tag k="ssr:stedsnr" v="273692" />
	</node>
	<node id="-845356" lat="63.8108944473" lon="9.98354999053">
		<tag k="fixme" v="consider natural=peak for the most distinct mountains in the district" />
		<tag k="name" v="Almfjellet" />
		<tag k="natural" v="hill" />
		<tag k="place" v="locality" />
		<tag k="ssr:stedsnr" v="802036" />
	</node>
	<node id="-845352" lat="63.7690194446" lon="9.94434445034">
		<tag k="name" v="Storlia" />
		<tag k="natural" v="slope" />
		<tag k="place" v="locality" />
		<tag k="ssr:stedsnr" v="273690" />
	</node>
	<node id="-845349" lat="63.757191663" lon="9.89371111481">
		<tag k="name" v="Bjønnadalen" />
		<tag k="natural" v="valley" />
		<tag k="place" v="locality" />
		<tag k="ssr:stedsnr" v="880696" />
	</node>
	<node id="-845347" lat="63.8040749995" lon="9.92067222971">
		<tag k="name" v="Slåttheia" />
		<tag k="natural" v="hill" />
		<tag k="place" v="locality" />
		<tag k="ssr:stedsnr" v="680008" />
	</node>
	<node id="-845342" lat="63.8024083297" lon="9.91775278227">
		<tag k="name" v="Støttingdalen" />
		<tag k="natural" v="valley" />
		<tag k="place" v="locality" />
		<tag k="ssr:stedsnr" v="334002" />
	</node>
	<node id="-845338" lat="63.7688722211" lon="9.91246388095">
		<tag k="name" v="Granlia" />
		<tag k="natural" v="slope" />
		<tag k="place" v="locality" />
		<tag k="ssr:stedsnr" v="567673" />
	</node>
	<node id="-845337" lat="63.8427666671" lon="9.75311388814">
		<tag k="fixme" v="consider natural=peak for the most distinct mountains in the district" />
		<tag k="name" v="Middagsfjellet" />
		<tag k="natural" v="hill" />
		<tag k="place" v="locality" />
		<tag k="ssr:stedsnr" v="819753" />
	</node>
	<node id="-845332" lat="63.806786108" lon="9.95239722259">
		<tag k="name" v="Sørbotnheia" />
		<tag k="natural" v="hill" />
		<tag k="place" v="locality" />
		<tag k="ssr:stedsnr" v="680007" />
	</node>
	<node id="-845330" lat="63.8710111075" lon="9.86607222524">
		<tag k="name" v="Andbuskardet" />
		<tag k="natural" v="valley" />
		<tag k="place" v="locality" />
		<tag k="ssr:stedsnr" v="758629" />
	</node>
	<node id="-845328" lat="63.8065500039" lon="10.1948194442">
		<tag k="name" v="Hammerdalsheian" />
		<tag k="natural" v="hill" />
		<tag k="place" v="locality" />
		<tag k="ssr:stedsnr" v="770910" />
	</node>
	<node id="-845325" lat="63.8688944415" lon="9.87498610826">
		<tag k="name" v="Stokkmyrlia" />
		<tag k="natural" v="slope" />
		<tag k="place" v="locality" />
		<tag k="ssr:stedsnr" v="515614" />
	</node>
	<node id="-845310" lat="63.8445249988" lon="9.98580000931">
		<tag k="name" v="Skjervasslia" />
		<tag k="natural" v="slope" />
		<tag k="place" v="locality" />
		<tag k="ssr:stedsnr" v="498089" />
	</node>
	<node id="-845305" lat="63.7455583368" lon="9.8815944501">
		<tag k="name" v="Rundhaugen" />
		<tag k="natural" v="hill" />
		<tag k="place" v="locality" />
		<tag k="ssr:stedsnr" v="334405" />
	</node>
	<node id="-845303" lat="63.8201111067" lon="9.97650555193">
		<tag k="name" v="Aunlia" />
		<tag k="natural" v="slope" />
		<tag k="place" v="locality" />
		<tag k="ssr:stedsnr" v="636701" />
	</node>
	<node id="-845296" lat="63.8200805577" lon="10.1103999905">
		<tag k="alt_name" v="Høgåskamman" />
		<tag k="fixme" v="consider natural=peak for the most distinct mountains in the district" />
		<tag k="name" v="Høgåskammen" />
		<tag k="natural" v="hill" />
		<tag k="place" v="locality" />
		<tag k="ssr:stedsnr" v="862046" />
	</node>
	<node id="-845294" lat="63.7923444453" lon="10.0831583286">
		<tag k="name" v="Almtjønndalen" />
		<tag k="natural" v="valley" />
		<tag k="place" v="locality" />
		<tag k="ssr:stedsnr" v="30591" />
	</node>
	<node id="-845293" lat="63.7344527819" lon="9.80796389184">
		<tag k="fixme" v="consider natural=peak for the most distinct mountains in the district" />
		<tag k="name" v="Middagsfjellet" />
		<tag k="natural" v="hill" />
		<tag k="place" v="locality" />
		<tag k="ssr:stedsnr" v="515154" />
	</node>
	<node id="-845292" lat="63.8568416704" lon="9.88970277237">
		<tag k="fixme" v="consider natural=peak for the most distinct mountains in the district" />
		<tag k="name" v="Åstøfjellet" />
		<tag k="natural" v="hill" />
		<tag k="place" v="locality" />
		<tag k="ssr:stedsnr" v="91399" />
	</node>
	<node id="-845290" lat="63.7653166637" lon="9.62886388877">
		<tag k="name" v="Skansen" />
		<tag k="natural" v="hill" />
		<tag k="place" v="locality" />
		<tag k="ssr:stedsnr" v="30593" />
	</node>
	<node id="-845283" lat="63.8189916703" lon="10.1876611088">
		<tag k="name" v="Blanktjønnhøgda" />
		<tag k="natural" v="hill" />
		<tag k="place" v="locality" />
		<tag k="ssr:stedsnr" v="212106" />
	</node>
	<node id="-845282" lat="63.7950222203" lon="9.40625556283">
		<tag k="name" v="Meithaugan" />
		<tag k="natural" v="hill" />
		<tag k="place" v="locality" />
		<tag k="ssr:stedsnr" v="151195" />
	</node>
	<node id="-845280" lat="63.7456999993" lon="9.88185554711">
		<tag k="name" v="Storhaugen" />
		<tag k="natural" v="hill" />
		<tag k="place" v="locality" />
		<tag k="ssr:stedsnr" v="741245" />
	</node>
	<node id="-845279" lat="63.7195916702" lon="9.80896943538">
		<tag k="name" v="Reinsklumpen" />
		<tag k="natural" v="hill" />
		<tag k="place" v="locality" />
		<tag k="ssr:stedsnr" v="333111" />
	</node>
	<node id="-845271" lat="63.7271555562" lon="9.82611389405">
		<tag k="name" v="Sandmoen" />
		<tag k="place" v="locality" />
		<tag k="ssr:stedsnr" v="576409" />
	</node>
	<node id="-845269" lat="63.7883583324" lon="10.0282583369">
		<tag k="name" v="Ytter Grandalshaugen" />
		<tag k="natural" v="hill" />
		<tag k="place" v="locality" />
		<tag k="ssr:stedsnr" v="151620" />
	</node>
	<node id="-844707" lat="63.847747224" lon="9.90735277591">
		<tag k="name" v="Brandhaugen" />
		<tag k="natural" v="hill" />
		<tag k="place" v="locality" />
		<tag k="ssr:stedsnr" v="394684" />
	</node>
	<node id="-845264" lat="63.8397638924" lon="9.72571944981">
		<tag k="name" v="Espeskardet" />
		<tag k="natural" v="valley" />
		<tag k="place" v="locality" />
		<tag k="ssr:stedsnr" v="455722" />
	</node>
	<node id="-845260" lat="63.8185305512" lon="9.63866110168">
		<tag k="name" v="Laksgarnberget" />
		<tag k="natural" v="hill" />
		<tag k="place" v="locality" />
		<tag k="ssr:stedsnr" v="394760" />
	</node>
	<node id="-845258" lat="63.8614972233" lon="9.99820833842">
		<tag k="name" v="Storflauget" />
		<tag k="natural" v="cliff" />
		<tag k="ssr:stedsnr" v="212533" />
	</node>
	<node id="-845250" lat="63.7972361112" lon="9.77066666592">
		<tag k="name" v="Bjønnadalen" />
		<tag k="natural" v="valley" />
		<tag k="place" v="locality" />
		<tag k="ssr:stedsnr" v="698176" />
	</node>
	<node id="-844704" lat="63.8174361114" lon="9.42836110794">
		<tag k="name" v="Rundhaugen" />
		<tag k="natural" v="hill" />
		<tag k="place" v="locality" />
		<tag k="ssr:stedsnr" v="880202" />
	</node>
	<node id="-845246" lat="63.8124833312" lon="9.41924721729">
		<tag k="name" v="Sellikjerhaugen" />
		<tag k="natural" v="hill" />
		<tag k="place" v="locality" />
		<tag k="ssr:stedsnr" v="151184" />
	</node>
	<node id="-845244" lat="63.8596777762" lon="9.73829722297">
		<tag k="name" v="Høgberga" />
		<tag k="natural" v="hill" />
		<tag k="place" v="locality" />
		<tag k="ssr:stedsnr" v="636665" />
	</node>
	<node id="-845238" lat="63.747402776" lon="9.76853334073">
		<tag k="name" v="Ervikskardet" />
		<tag k="natural" v="valley" />
		<tag k="place" v="locality" />
		<tag k="ssr:stedsnr" v="515159" />
	</node>
	<node id="-845233" lat="63.8665472196" lon="9.9246666582">
		<tag k="fixme" v="consider natural=peak for the most distinct mountains in the district" />
		<tag k="name" v="Litlfjellet" />
		<tag k="natural" v="hill" />
		<tag k="place" v="locality" />
		<tag k="ssr:stedsnr" v="30586" />
	</node>
	<node id="-845232" lat="63.7669861086" lon="9.91860000963">
		<tag k="name" v="Granlikammen" />
		<tag k="natural" v="hill" />
		<tag k="place" v="locality" />
		<tag k="ssr:stedsnr" v="273686" />
	</node>
	<node id="-845230" lat="63.7925166708" lon="9.40905000837">
		<tag k="name" v="Ramnberget" />
		<tag k="natural" v="hill" />
		<tag k="place" v="locality" />
		<tag k="ssr:stedsnr" v="151187" />
	</node>
	<node id="-845229" lat="63.8453194464" lon="9.81621944379">
		<tag k="name" v="Straumhaugan" />
		<tag k="natural" v="hill" />
		<tag k="place" v="locality" />
		<tag k="ssr:stedsnr" v="515601" />
	</node>
	<node id="-845228" lat="63.7755472238" lon="10.0645611143">
		<tag k="name" v="Dueskardbakken" />
		<tag k="natural" v="slope" />
		<tag k="place" v="locality" />
		<tag k="ssr:stedsnr" v="880661" />
	</node>
	<node id="-845226" lat="63.7663638894" lon="9.65004444626">
		<tag k="name" v="Brudalsrabban" />
		<tag k="natural" v="hill" />
		<tag k="place" v="locality" />
		<tag k="ssr:stedsnr" v="698579" />
	</node>
	<node id="-845223" lat="63.8762888922" lon="9.97495555686">
		<tag k="name" v="Blåvasslia" />
		<tag k="natural" v="slope" />
		<tag k="place" v="locality" />
		<tag k="ssr:stedsnr" v="940314" />
	</node>
	<node id="-845219" lat="63.7608138861" lon="9.91228888124">
		<tag k="fixme" v="consider natural=peak for the most distinct mountains in the district" />
		<tag k="name" v="Blankheia" />
		<tag k="natural" v="hill" />
		<tag k="place" v="locality" />
		<tag k="ssr:stedsnr" v="376206" />
	</node>
	<node id="-845216" lat="63.7320333327" lon="9.83818888653">
		<tag k="name" v="Ørnklumpen" />
		<tag k="natural" v="hill" />
		<tag k="place" v="locality" />
		<tag k="ssr:stedsnr" v="134272" />
	</node>
	<node id="-845215" lat="63.8292249976" lon="10.0690583392">
		<tag k="name" v="Stordalen" />
		<tag k="natural" v="valley" />
		<tag k="place" v="locality" />
		<tag k="ssr:stedsnr" v="333099" />
	</node>
	<node id="-845213" lat="63.8005666708" lon="9.61386111497">
		<tag k="name" v="Rauberghammaren" />
		<tag k="natural" v="hill" />
		<tag k="place" v="locality" />
		<tag k="ssr:stedsnr" v="394339" />
	</node>
	<node id="-844698" lat="63.8231749988" lon="10.0927972164">
		<tag k="name" v="Olalia" />
		<tag k="natural" v="slope" />
		<tag k="place" v="locality" />
		<tag k="ssr:stedsnr" v="151099" />
	</node>
	<node id="-845210" lat="63.7793972203" lon="9.63306111683">
		<tag k="name" v="Olaklova" />
		<tag k="natural" v="valley" />
		<tag k="place" v="locality" />
		<tag k="ssr:stedsnr" v="863652" />
	</node>
	<node id="-845209" lat="63.7732138879" lon="9.97541110722">
		<tag k="name" v="Ramsen" />
		<tag k="natural" v="hill" />
		<tag k="place" v="locality" />
		<tag k="ssr:stedsnr" v="758613" />
	</node>
	<node id="-844356" lat="63.7752611127" lon="9.60613333487">
		<tag k="fixme" v="consider natural=peak for the most distinct mountains in the district" />
		<tag k="name" v="Høystakkfjellet" />
		<tag k="natural" v="hill" />
		<tag k="place" v="locality" />
		<tag k="ssr:stedsnr" v="273540" />
	</node>
	<node id="-845206" lat="63.866019441" lon="9.85607222452">
		<tag k="name" v="Fanghushaugen" />
		<tag k="natural" v="hill" />
		<tag k="place" v="locality" />
		<tag k="ssr:stedsnr" v="941592" />
	</node>
	<node id="-845204" lat="63.7859194472" lon="9.60129166809">
		<tag k="name" v="Vettahaugen" />
		<tag k="natural" v="hill" />
		<tag k="place" v="locality" />
		<tag k="ssr:stedsnr" v="212516" />
	</node>
	<node id="-845202" lat="63.7816833341" lon="10.0356472203">
		<tag k="name" v="Karidalsheia" />
		<tag k="natural" v="hill" />
		<tag k="place" v="locality" />
		<tag k="ssr:stedsnr" v="134270" />
	</node>
	<node id="-845200" lat="63.8179583348" lon="9.75680833519">
		<tag k="name" v="Kleivhaugen" />
		<tag k="natural" v="hill" />
		<tag k="place" v="locality" />
		<tag k="ssr:stedsnr" v="91802" />
	</node>
	<node id="-845197" lat="63.7531972206" lon="9.73227500132">
		<tag k="name" v="Tårndalen" />
		<tag k="natural" v="valley" />
		<tag k="place" v="locality" />
		<tag k="ssr:stedsnr" v="940328" />
	</node>
	<node id="-844695" lat="63.8103888933" lon="9.66969167164">
		<tag k="name" v="Kletten" />
		<tag k="natural" v="hill" />
		<tag k="place" v="locality" />
		<tag k="ssr:stedsnr" v="758534" />
	</node>
	<node id="-845192" lat="63.8655499982" lon="9.72881389095">
		<tag k="name" v="Brandhaugen" />
		<tag k="natural" v="hill" />
		<tag k="place" v="locality" />
		<tag k="ssr:stedsnr" v="273667" />
	</node>
	<node id="-845191" lat="63.7482138892" lon="9.7867583364">
		<tag k="fixme" v="consider natural=peak for the most distinct mountains in the district" />
		<tag k="name" v="Middagskammen" />
		<tag k="natural" v="hill" />
		<tag k="place" v="locality" />
		<tag k="ssr:stedsnr" v="30149" />
	</node>
	<node id="-845190" lat="63.8258472207" lon="9.43096110937">
		<tag k="name" v="Otersteinen" />
		<tag k="natural" v="hill" />
		<tag k="place" v="locality" />
		<tag k="ssr:stedsnr" v="151180" />
	</node>
	<node id="-844353" lat="63.8013732729" lon="10.1956709579">
		<tag k="name" v="Lunbakken" />
		<tag k="natural" v="slope" />
		<tag k="place" v="locality" />
		<tag k="ssr:stedsnr" v="831893" />
	</node>
	<node id="-845186" lat="63.7360027766" lon="9.78353611204">
		<tag k="fixme" v="consider natural=peak for the most distinct mountains in the district" />
		<tag k="name" v="Råfjellet" />
		<tag k="natural" v="hill" />
		<tag k="place" v="locality" />
		<tag k="ssr:stedsnr" v="680254" />
	</node>
	<node id="-845182" lat="63.8489805597" lon="9.8078694431">
		<tag k="fixme" v="consider natural=peak for the most distinct mountains in the district" />
		<tag k="name" v="Lauvåsen" />
		<tag k="natural" v="hill" />
		<tag k="place" v="locality" />
		<tag k="ssr:stedsnr" v="91390" />
	</node>
	<node id="-845176" lat="63.8765305588" lon="9.89728055286">
		<tag k="name" v="Vasskardet" />
		<tag k="natural" v="valley" />
		<tag k="place" v="locality" />
		<tag k="ssr:stedsnr" v="30575" />
	</node>
	<node id="-845173" lat="63.7996472179" lon="9.87024166763">
		<tag k="alt_name" v="Dragaheian" />
		<tag k="fixme" v="consider natural=peak for the most distinct mountains in the district" />
		<tag k="name" v="Dragaheia" />
		<tag k="natural" v="hill" />
		<tag k="place" v="locality" />
		<tag k="ssr:stedsnr" v="802020" />
	</node>
	<node id="-845170" lat="63.8532555517" lon="9.78337223077">
		<tag k="name" v="Herskardet" />
		<tag k="natural" v="valley" />
		<tag k="place" v="locality" />
		<tag k="ssr:stedsnr" v="819730" />
	</node>
	<node id="-845168" lat="63.7912666629" lon="10.0417388856">
		<tag k="name" v="Inner Grandalshaugen" />
		<tag k="natural" v="hill" />
		<tag k="place" v="locality" />
		<tag k="ssr:stedsnr" v="698593" />
	</node>
	<node id="-845164" lat="63.8039805556" lon="9.6970472304">
		<tag k="name" v="Stolan" />
		<tag k="natural" v="hill" />
		<tag k="place" v="locality" />
		<tag k="ssr:stedsnr" v="576400" />
	</node>
	<node id="-845160" lat="63.8550472243" lon="9.78577221411">
		<tag k="name" v="Herskardheia" />
		<tag k="natural" v="hill" />
		<tag k="place" v="locality" />
		<tag k="ssr:stedsnr" v="819728" />
	</node>
	<node id="-845158" lat="63.8227944432" lon="10.1146722288">
		<tag k="name" v="Tverrlia" />
		<tag k="natural" v="slope" />
		<tag k="place" v="locality" />
		<tag k="ssr:stedsnr" v="438046" />
	</node>
	<node id="-845152" lat="63.8710750031" lon="9.84645832503">
		<tag k="name" v="Petterbakken" />
		<tag k="natural" v="slope" />
		<tag k="place" v="locality" />
		<tag k="ssr:stedsnr" v="941587" />
	</node>
	<node id="-845149" lat="63.7971999961" lon="9.80652777957">
		<tag k="name" v="Rognhaugen" />
		<tag k="natural" v="hill" />
		<tag k="place" v="locality" />
		<tag k="ssr:stedsnr" v="802017" />
	</node>
	<node id="-846558" lat="63.77209167" lon="9.62333056231">
		<tag k="name" v="Duhallarholet" />
		<tag k="natural" v="valley" />
		<tag k="place" v="locality" />
		<tag k="ssr:stedsnr" v="455519" />
	</node>
	<node id="-845138" lat="63.7506305538" lon="9.86690000134">
		<tag k="fixme" v="consider natural=peak for the most distinct mountains in the district" />
		<tag k="name" v="Middagsfjellet" />
		<tag k="natural" v="hill" />
		<tag k="place" v="locality" />
		<tag k="ssr:stedsnr" v="516435" />
	</node>
	<node id="-845133" lat="63.8377777781" lon="9.71886111634">
		<tag k="name" v="Selliskardet" />
		<tag k="natural" v="valley" />
		<tag k="place" v="locality" />
		<tag k="ssr:stedsnr" v="455714" />
	</node>
	<node id="-845130" lat="63.7823722197" lon="10.0524361035">
		<tag k="name" v="Kamneset" />
		<tag k="natural" v="ridge" />
		<tag k="place" v="locality" />
		<tag k="ssr:stedsnr" v="636644" />
	</node>
	<node id="-845128" lat="63.8617694421" lon="10.1231944442">
		<tag k="fixme" v="consider natural=peak for the most distinct mountains in the district" />
		<tag k="name" v="Nyvassdalsheian" />
		<tag k="natural" v="hill" />
		<tag k="place" v="locality" />
		<tag k="ssr:stedsnr" v="863090" />
	</node>
	<node id="-845127" lat="63.8376499959" lon="10.0655555654">
		<tag k="name" v="Amunddalsklumpen" />
		<tag k="natural" v="hill" />
		<tag k="place" v="locality" />
		<tag k="ssr:stedsnr" v="195069" />
	</node>
	<node id="-845126" lat="63.8479583319" lon="9.93121111173">
		<tag k="fixme" v="consider natural=peak for the most distinct mountains in the district" />
		<tag k="name" v="Brattflauget" />
		<tag k="natural" v="hill" />
		<tag k="place" v="locality" />
		<tag k="ssr:stedsnr" v="819696" />
	</node>
	<node id="-844307" lat="63.8518944431" lon="9.93707777942">
		<tag k="name" v="Middagsskardet" />
		<tag k="natural" v="valley" />
		<tag k="place" v="locality" />
		<tag k="ssr:stedsnr" v="273519" />
	</node>
	<node id="-845118" lat="63.8064027812" lon="9.65843055635">
		<tag k="name" v="Stihaugan" />
		<tag k="natural" v="hill" />
		<tag k="place" v="locality" />
		<tag k="ssr:stedsnr" v="91374" />
	</node>
	<node id="-845109" lat="63.8786999962" lon="9.96416945214">
		<tag k="name" v="Slåttaklova" />
		<tag k="natural" v="ridge" />
		<tag k="place" v="locality" />
		<tag k="ssr:stedsnr" v="941553" />
	</node>
	<node id="-845104" lat="63.810408332" lon="9.40635000837">
		<tag k="name" v="Stormåsmyrhaugen" />
		<tag k="natural" v="hill" />
		<tag k="place" v="locality" />
		<tag k="ssr:stedsnr" v="698155" />
	</node>
	<node id="-845092" lat="63.7790027776" lon="9.97424445366">
		<tag k="name" v="Granaksla" />
		<tag k="natural" v="ridge" />
		<tag k="place" v="locality" />
		<tag k="ssr:stedsnr" v="819699" />
	</node>
	<node id="-845091" lat="63.8623777796" lon="9.74759721766">
		<tag k="name" v="Brygghaugen" />
		<tag k="natural" v="hill" />
		<tag k="place" v="locality" />
		<tag k="ssr:stedsnr" v="273652" />
	</node>
	<node id="-845090" lat="63.7882527754" lon="10.0189305626">
		<tag k="name" v="Helvetet" />
		<tag k="natural" v="cliff" />
		<tag k="ssr:stedsnr" v="880642" />
	</node>
	<node id="-845088" lat="63.8514555573" lon="9.96562221363">
		<tag k="alt_name" v="Mellomfjella" />
		<tag k="fixme" v="consider natural=peak for the most distinct mountains in the district" />
		<tag k="name" v="Mellømfjella" />
		<tag k="natural" v="hill" />
		<tag k="place" v="locality" />
		<tag k="ssr:stedsnr" v="863085" />
	</node>
	<node id="-845084" lat="63.8405555518" lon="9.70286944605">
		<tag k="fixme" v="consider natural=peak for the most distinct mountains in the district" />
		<tag k="name" v="Lunkavalen" />
		<tag k="natural" v="hill" />
		<tag k="place" v="locality" />
		<tag k="ssr:stedsnr" v="940721" />
	</node>
	<node id="-845083" lat="63.7993111112" lon="9.42215000764">
		<tag k="name" v="Svineshaugen" />
		<tag k="natural" v="hill" />
		<tag k="place" v="locality" />
		<tag k="ssr:stedsnr" v="698151" />
	</node>
	<node id="-845080" lat="63.8345388917" lon="10.192525007">
		<tag k="name" v="Golia" />
		<tag k="natural" v="slope" />
		<tag k="place" v="locality" />
		<tag k="ssr:stedsnr" v="758146" />
	</node>
	<node id="-845076" lat="63.8226638908" lon="9.76131944182">
		<tag k="name" v="Kaldkleiva" />
		<tag k="natural" v="slope" />
		<tag k="place" v="locality" />
		<tag k="ssr:stedsnr" v="74042" />
	</node>
	<node id="-845075" lat="63.8526500043" lon="10.1824472139">
		<tag k="name" v="Inner Laugaheian" />
		<tag k="natural" v="hill" />
		<tag k="place" v="locality" />
		<tag k="ssr:stedsnr" v="212068" />
	</node>
	<node id="-845074" lat="63.755602775" lon="9.84283610779">
		<tag k="name" v="Sæterlian" />
		<tag k="natural" v="slope" />
		<tag k="place" v="locality" />
		<tag k="ssr:stedsnr" v="255201" />
	</node>
	<node id="-845072" lat="63.7898861078" lon="9.93062500362">
		<tag k="name" v="Svartvasslia" />
		<tag k="natural" v="slope" />
		<tag k="place" v="locality" />
		<tag k="ssr:stedsnr" v="515567" />
	</node>
	<node id="-845071" lat="63.8444888851" lon="9.87433055497">
		<tag k="fixme" v="consider natural=peak for the most distinct mountains in the district" />
		<tag k="name" v="Årfjellet" />
		<tag k="natural" v="hill" />
		<tag k="place" v="locality" />
		<tag k="ssr:stedsnr" v="863084" />
	</node>
	<node id="-845070" lat="63.801225003" lon="9.63173612133">
		<tag k="name" v="Bekkavikhaugan" />
		<tag k="natural" v="hill" />
		<tag k="place" v="locality" />
		<tag k="ssr:stedsnr" v="212497" />
	</node>
	<node id="-845068" lat="63.8132499973" lon="10.160719441">
		<tag k="name" v="Bjønnadalen" />
		<tag k="natural" v="valley" />
		<tag k="place" v="locality" />
		<tag k="ssr:stedsnr" v="42885" />
	</node>
	<node id="-845067" lat="63.8479361069" lon="9.76011110246">
		<tag k="name" v="Langskardet" />
		<tag k="natural" v="valley" />
		<tag k="place" v="locality" />
		<tag k="ssr:stedsnr" v="455698" />
	</node>
	<node id="-844673" lat="63.8025972247" lon="9.69741388224">
		<tag k="name" v="Oksbåsen" />
		<tag k="natural" v="valley" />
		<tag k="place" v="locality" />
		<tag k="ssr:stedsnr" v="13676" />
	</node>
	<node id="-845055" lat="63.8199555514" lon="9.84782222076">
		<tag k="name" v="Masterliklumpen" />
		<tag k="natural" v="hill" />
		<tag k="place" v="locality" />
		<tag k="ssr:stedsnr" v="819692" />
	</node>
	<node id="-845053" lat="63.7652694421" lon="9.61349999706">
		<tag k="name" v="Burshaugen" />
		<tag k="natural" v="hill" />
		<tag k="place" v="locality" />
		<tag k="ssr:stedsnr" v="758564" />
	</node>
	<node id="-844671" lat="63.8192694421" lon="9.42770832844">
		<tag k="name" v="Nausthaugen" />
		<tag k="natural" v="hill" />
		<tag k="place" v="locality" />
		<tag k="ssr:stedsnr" v="697238" />
	</node>
	<node id="-845045" lat="63.8162888869" lon="9.42563056507">
		<tag k="name" v="Brattberget" />
		<tag k="natural" v="hill" />
		<tag k="place" v="locality" />
		<tag k="ssr:stedsnr" v="273228" />
	</node>
	<node id="-845043" lat="63.7787833295" lon="9.97863055377">
		<tag k="name" v="Stoppskarda" />
		<tag k="natural" v="valley" />
		<tag k="place" v="locality" />
		<tag k="ssr:stedsnr" v="151577" />
	</node>
	<node id="-845031" lat="63.8289027804" lon="9.95768610875">
		<tag k="name" v="Tømmerholan" />
		<tag k="place" v="locality" />
		<tag k="ssr:stedsnr" v="204108" />
	</node>
	<node id="-845027" lat="63.8184000009" lon="10.1282166596">
		<tag k="name" v="Nord Øyan" />
		<tag k="place" v="locality" />
		<tag k="ssr:stedsnr" v="212062" />
	</node>
	<node id="-845026" lat="63.8164472261" lon="9.73123610543">
		<tag k="name" v="Langmyrhaugen" />
		<tag k="natural" v="hill" />
		<tag k="place" v="locality" />
		<tag k="ssr:stedsnr" v="819714" />
	</node>
	<node id="-845021" lat="63.8375250041" lon="9.97783055506">
		<tag k="fixme" v="consider natural=peak for the most distinct mountains in the district" />
		<tag k="name" v="Keipen" />
		<tag k="natural" v="hill" />
		<tag k="place" v="locality" />
		<tag k="ssr:stedsnr" v="559070" />
	</node>
	<node id="-845020" lat="63.8485888906" lon="10.025880549">
		<tag k="fixme" v="consider natural=peak for the most distinct mountains in the district" />
		<tag k="name" v="Svarttrappen" />
		<tag k="natural" v="hill" />
		<tag k="place" v="locality" />
		<tag k="ssr:stedsnr" v="515115" />
	</node>
	<node id="-845018" lat="63.8167083309" lon="9.4074361155">
		<tag k="name" v="Valhaugen" />
		<tag k="natural" v="hill" />
		<tag k="place" v="locality" />
		<tag k="ssr:stedsnr" v="636213" />
	</node>
	<node id="-845017" lat="63.877722223" lon="9.96735000829">
		<tag k="name" v="Jøvikklumpen" />
		<tag k="natural" v="hill" />
		<tag k="place" v="locality" />
		<tag k="ssr:stedsnr" v="30548" />
	</node>
	<node id="-845015" lat="63.7861250006" lon="9.86006666062">
		<tag k="name" v="Litl-Duhaugen" />
		<tag k="natural" v="hill" />
		<tag k="place" v="locality" />
		<tag k="ssr:stedsnr" v="516400" />
	</node>
	<node id="-844323" lat="63.8255388861" lon="10.2071555631">
		<tag k="name" v="Blanktjønnheia" />
		<tag k="natural" v="hill" />
		<tag k="place" v="locality" />
		<tag k="ssr:stedsnr" v="636071" />
	</node>
	<node id="-845004" lat="63.8494944442" lon="9.91498610535">
		<tag k="name" v="Bjønnaheia" />
		<tag k="natural" v="hill" />
		<tag k="place" v="locality" />
		<tag k="ssr:stedsnr" v="819702" />
	</node>
	<node id="-845002" lat="63.7890138846" lon="9.38610554998">
		<tag k="name" v="Ressøyhaugen" />
		<tag k="natural" v="hill" />
		<tag k="place" v="locality" />
		<tag k="ssr:stedsnr" v="698164" />
	</node>
	<node id="-845001" lat="63.8748222201" lon="9.91395554926">
		<tag k="name" v="Tjyvlihaugan" />
		<tag k="natural" v="hill" />
		<tag k="place" v="locality" />
		<tag k="ssr:stedsnr" v="698570" />
	</node>
	<node id="-844994" lat="63.8504472239" lon="9.73581389105">
		<tag k="name" v="Bålfjordvalen" />
		<tag k="natural" v="hill" />
		<tag k="place" v="locality" />
		<tag k="ssr:stedsnr" v="394724" />
	</node>
	<node id="-844993" lat="63.8812111153" lon="9.89671665734">
		<tag k="name" v="Hellesvikskardet" />
		<tag k="natural" v="valley" />
		<tag k="place" v="locality" />
		<tag k="ssr:stedsnr" v="880647" />
	</node>
	<node id="-844990" lat="63.8031194474" lon="10.036541662">
		<tag k="name" v="Goholkollen" />
		<tag k="natural" v="hill" />
		<tag k="place" v="locality" />
		<tag k="ssr:stedsnr" v="758575" />
	</node>
	<node id="-844986" lat="63.7943833289" lon="9.37489445369">
		<tag k="name" v="Storskarsøyhaugen" />
		<tag k="natural" v="hill" />
		<tag k="place" v="locality" />
		<tag k="ssr:stedsnr" v="698159" />
	</node>
	<node id="-844319" lat="63.8501277739" lon="9.88127777386">
		<tag k="fixme" v="consider natural=peak for the most distinct mountains in the district" />
		<tag k="name" v="Aunfjellet" />
		<tag k="natural" v="hill" />
		<tag k="place" v="locality" />
		<tag k="ssr:stedsnr" v="13112" />
	</node>
	<node id="-844984" lat="63.8297638901" lon="9.72229444383">
		<tag k="name" v="Lian" />
		<tag k="natural" v="slope" />
		<tag k="place" v="locality" />
		<tag k="ssr:stedsnr" v="819707" />
	</node>
	<node id="-844660" lat="63.8027666646" lon="9.41744444506">
		<tag k="name" v="Kaukarhaugen" />
		<tag k="natural" v="hill" />
		<tag k="place" v="locality" />
		<tag k="ssr:stedsnr" v="273181" />
	</node>
	<node id="-844972" lat="63.8821055568" lon="9.77612221824">
		<tag k="alt_name" v="Skjørøyhauet, s" />
		<tag k="fixme" v="multiple name tags, choose one and add the other to alt_name" />
		<tag k="name" v="Søre Skjørøyhauet;Vassdalshaugen" />
		<tag k="natural" v="hill" />
		<tag k="place" v="locality" />
		<tag k="ssr:stedsnr" v="195588" />
	</node>
	<node id="-844971" lat="63.8552388917" lon="9.8948333288">
		<tag k="fixme" v="consider natural=peak for the most distinct mountains in the district" />
		<tag k="name" v="Skorafjellet" />
		<tag k="natural" v="hill" />
		<tag k="place" v="locality" />
		<tag k="ssr:stedsnr" v="819705" />
	</node>
	<node id="-844970" lat="63.8127444441" lon="9.89499722315">
		<tag k="name" v="Langdalen" />
		<tag k="natural" v="valley" />
		<tag k="place" v="locality" />
		<tag k="ssr:stedsnr" v="558016" />
	</node>
	<node id="-844966" lat="63.8206194437" lon="10.1795666687">
		<tag k="name" v="Mydalshøgda" />
		<tag k="natural" v="hill" />
		<tag k="place" v="locality" />
		<tag k="ssr:stedsnr" v="758125" />
	</node>
	<node id="-844965" lat="63.8513722245" lon="9.71653889713">
		<tag k="name" v="Hestbergflauget" />
		<tag k="natural" v="hill" />
		<tag k="place" v="locality" />
		<tag k="ssr:stedsnr" v="576763" />
	</node>
	<node id="-844962" lat="63.8718249972" lon="9.83286389217">
		<tag k="name" v="Varden" />
		<tag k="natural" v="hill" />
		<tag k="place" v="locality" />
		<tag k="ssr:stedsnr" v="636616" />
	</node>
	<node id="-844960" lat="63.8774722214" lon="9.95079166637">
		<tag k="name" v="Vannaskardet" />
		<tag k="natural" v="valley" />
		<tag k="place" v="locality" />
		<tag k="ssr:stedsnr" v="151563" />
	</node>
	<node id="-844954" lat="63.826205558" lon="10.0350055592">
		<tag k="name" v="Amunddalen" />
		<tag k="natural" v="valley" />
		<tag k="place" v="locality" />
		<tag k="ssr:stedsnr" v="515100" />
	</node>
	<node id="-844952" lat="63.8293749981" lon="9.69015000107">
		<tag k="name" v="Herstaskardet" />
		<tag k="natural" v="valley" />
		<tag k="place" v="locality" />
		<tag k="ssr:stedsnr" v="394703" />
	</node>
	<node id="-844947" lat="63.8292388864" lon="9.94319444759">
		<tag k="name" v="Øver Svanalia" />
		<tag k="natural" v="slope" />
		<tag k="place" v="locality" />
		<tag k="ssr:stedsnr" v="212050" />
	</node>
	<node id="-844946" lat="63.8857444435" lon="9.78633889787">
		<tag k="name" v="Storgardshaugen" />
		<tag k="natural" v="hill" />
		<tag k="place" v="locality" />
		<tag k="ssr:stedsnr" v="819672" />
	</node>
	<node id="-844944" lat="63.8905305557" lon="9.92201388206">
		<tag k="fixme" v="consider natural=peak for the most distinct mountains in the district" />
		<tag k="name" v="Liafjellet" />
		<tag k="natural" v="hill" />
		<tag k="place" v="locality" />
		<tag k="ssr:stedsnr" v="273627" />
	</node>
	<node id="-844312" lat="63.7643777759" lon="9.62012222402">
		<tag k="name" v="Sankthanshaugen" />
		<tag k="natural" v="hill" />
		<tag k="place" v="locality" />
		<tag k="ssr:stedsnr" v="940590" />
	</node>
	<node id="-844942" lat="63.8366611154" lon="9.76161388859">
		<tag k="name" v="Svartholbakken" />
		<tag k="natural" v="slope" />
		<tag k="place" v="locality" />
		<tag k="ssr:stedsnr" v="940705" />
	</node>
	<node id="-844941" lat="63.7883416657" lon="10.1163527747">
		<tag k="name" v="Jutulen" />
		<tag k="natural" v="hill" />
		<tag k="place" v="locality" />
		<tag k="ssr:stedsnr" v="880618" />
	</node>
	<node id="-844939" lat="63.7894305531" lon="9.75301666946">
		<tag k="name" v="Grasheia" />
		<tag k="natural" v="hill" />
		<tag k="place" v="locality" />
		<tag k="ssr:stedsnr" v="212478" />
	</node>
	<node id="-844935" lat="63.7762111102" lon="9.79061665736">
		<tag k="name" v="Nordhaugen" />
		<tag k="natural" v="hill" />
		<tag k="place" v="locality" />
		<tag k="ssr:stedsnr" v="576359" />
	</node>
	<node id="-844934" lat="63.8266805571" lon="10.1511805578">
		<tag k="alt_name" v="Avkrokhaugan" />
		<tag k="name" v="Avkrokhaugen" />
		<tag k="natural" v="hill" />
		<tag k="place" v="locality" />
		<tag k="ssr:stedsnr" v="195047" />
	</node>
	<node id="-844926" lat="63.8393555533" lon="10.1233249968">
		<tag k="name" v="Tomasvasskollen" />
		<tag k="natural" v="hill" />
		<tag k="place" v="locality" />
		<tag k="ssr:stedsnr" v="758118" />
	</node>
	<node id="-844925" lat="63.8239722253" lon="9.9448416636">
		<tag k="name" v="Teksdalsseterklumpen" />
		<tag k="natural" v="hill" />
		<tag k="place" v="locality" />
		<tag k="ssr:stedsnr" v="333065" />
	</node>
	<node id="-844922" lat="63.8601166626" lon="9.71483056012">
		<tag k="name" v="Kobbskjerhaugen" />
		<tag k="natural" v="hill" />
		<tag k="place" v="locality" />
		<tag k="ssr:stedsnr" v="819661" />
	</node>
	<node id="-844920" lat="63.8300111086" lon="10.0946777723">
		<tag k="name" v="Fiskløysskardet" />
		<tag k="natural" v="valley" />
		<tag k="place" v="locality" />
		<tag k="ssr:stedsnr" v="515105" />
	</node>
	<node id="-844919" lat="63.8913694482" lon="9.83623611973">
		<tag k="name" v="Heimskoret" />
		<tag k="natural" v="valley" />
		<tag k="place" v="locality" />
		<tag k="ssr:stedsnr" v="576363" />
	</node>
	<node id="-844914" lat="63.86543333" lon="9.98376666047">
		<tag k="name" v="Storvassheia" />
		<tag k="natural" v="hill" />
		<tag k="place" v="locality" />
		<tag k="ssr:stedsnr" v="30530" />
	</node>
	<node id="-844913" lat="63.7911388845" lon="9.82004722722">
		<tag k="name" v="Eidsskardet" />
		<tag k="natural" v="valley" />
		<tag k="place" v="locality" />
		<tag k="ssr:stedsnr" v="394308" />
	</node>
	<node id="-844912" lat="63.8452694446" lon="10.1242138902">
		<tag k="name" v="Tomasvasslia" />
		<tag k="natural" v="slope" />
		<tag k="place" v="locality" />
		<tag k="ssr:stedsnr" v="758120" />
	</node>
	<node id="-844909" lat="63.7829638853" lon="10.0619305569">
		<tag k="alt_name" v="Indre Dueskardfjellet" />
		<tag k="fixme" v="consider natural=peak for the most distinct mountains in the district" />
		<tag k="name" v="Dueskardheia" />
		<tag k="natural" v="hill" />
		<tag k="old_name" v="Duskardheia" />
		<tag k="place" v="locality" />
		<tag k="ssr:stedsnr" v="256236" />
	</node>
	<node id="-844906" lat="63.841505558" lon="9.77935556274">
		<tag k="name" v="Staurhylla" />
		<tag k="natural" v="hill" />
		<tag k="place" v="locality" />
		<tag k="ssr:stedsnr" v="394710" />
	</node>
	<node id="-844905" lat="63.8715805591" lon="9.97158054931">
		<tag k="fixme" v="consider natural=peak for the most distinct mountains in the district" />
		<tag k="name" v="Kvennavassteigen" />
		<tag k="natural" v="hill" />
		<tag k="place" v="locality" />
		<tag k="ssr:stedsnr" v="151561" />
	</node>
	<node id="-844898" lat="63.8034305516" lon="9.64238610624">
		<tag k="name" v="Varden" />
		<tag k="natural" v="hill" />
		<tag k="place" v="locality" />
		<tag k="ssr:stedsnr" v="758537" />
	</node>
	<node id="-844891" lat="63.730744447" lon="9.80184999043">
		<tag k="name" v="Krulltjønntoppen" />
		<tag k="natural" v="hill" />
		<tag k="place" v="locality" />
		<tag k="ssr:stedsnr" v="698125" />
	</node>
	<node id="-844882" lat="63.8219444424" lon="9.70362221571">
		<tag k="name" v="Masterberget" />
		<tag k="natural" v="hill" />
		<tag k="place" v="locality" />
		<tag k="ssr:stedsnr" v="394692" />
	</node>
	<node id="-844881" lat="63.7972750035" lon="9.94017777069">
		<tag k="name" v="Rauhammarheia" />
		<tag k="natural" v="hill" />
		<tag k="place" v="locality" />
		<tag k="ssr:stedsnr" v="151551" />
	</node>
	<node id="-844879" lat="63.8407944475" lon="9.90456945466">
		<tag k="fixme" v="consider natural=peak for the most distinct mountains in the district" />
		<tag k="name" v="Dyrfjellet" />
		<tag k="natural" v="hill" />
		<tag k="place" v="locality" />
		<tag k="ssr:stedsnr" v="863081" />
	</node>
	<node id="-844877" lat="63.7659472188" lon="9.67300555966">
		<tag k="name" v="Tørberliklimpen" />
		<tag k="natural" v="hill" />
		<tag k="place" v="locality" />
		<tag k="ssr:stedsnr" v="758559" />
	</node>
	<node id="-844876" lat="63.7687305588" lon="9.92874444141">
		<tag k="name" v="Tronholet" />
		<tag k="natural" v="valley" />
		<tag k="place" v="locality" />
		<tag k="ssr:stedsnr" v="819682" />
	</node>
	<node id="-844642" lat="63.8048138883" lon="10.0228416742">
		<tag k="name" v="Dammyrråa" />
		<tag k="place" v="locality" />
		<tag k="ssr:stedsnr" v="698513" />
	</node>
	<node id="-844872" lat="63.7792361073" lon="9.77545000809">
		<tag k="name" v="Brandheia" />
		<tag k="natural" v="hill" />
		<tag k="place" v="locality" />
		<tag k="ssr:stedsnr" v="576341" />
	</node>
	<node id="-844870" lat="63.7834083371" lon="10.0156444445">
		<tag k="name" v="Sørlia" />
		<tag k="natural" v="slope" />
		<tag k="place" v="locality" />
		<tag k="ssr:stedsnr" v="273614" />
	</node>
	<node id="-844869" lat="63.77030556" lon="9.89456389237">
		<tag k="name" v="Setervollhaugen" />
		<tag k="natural" v="hill" />
		<tag k="place" v="locality" />
		<tag k="ssr:stedsnr" v="455651" />
	</node>
	<node id="-844861" lat="63.8700638904" lon="10.2025555477">
		<tag k="fixme" v="consider natural=peak for the most distinct mountains in the district" />
		<tag k="name" v="Austdalsbrotet" />
		<tag k="natural" v="hill" />
		<tag k="place" v="locality" />
		<tag k="ssr:stedsnr" v="619142" />
	</node>
	<node id="-844298" lat="63.8892694447" lon="9.87512500746">
		<tag k="fixme" v="consider natural=peak for the most distinct mountains in the district" />
		<tag k="name" v="Trettvikhammaren" />
		<tag k="natural" v="hill" />
		<tag k="place" v="locality" />
		<tag k="ssr:stedsnr" v="940593" />
	</node>
	<node id="-844858" lat="63.7757027802" lon="9.67714721545">
		<tag k="name" v="Budalen" />
		<tag k="natural" v="valley" />
		<tag k="place" v="locality" />
		<tag k="ssr:stedsnr" v="455658" />
	</node>
	<node id="-844856" lat="63.7880833333" lon="9.74864165992">
		<tag k="name" v="Leitarheia" />
		<tag k="natural" v="hill" />
		<tag k="place" v="locality" />
		<tag k="ssr:stedsnr" v="576343" />
	</node>
	<node id="-844855" lat="63.7856388927" lon="9.60083888545">
		<tag k="name" v="Vetta" />
		<tag k="natural" v="hill" />
		<tag k="place" v="locality" />
		<tag k="ssr:stedsnr" v="923650" />
	</node>
	<node id="-844853" lat="63.8810250011" lon="9.85882777612">
		<tag k="name" v="Varghaugen" />
		<tag k="natural" v="hill" />
		<tag k="place" v="locality" />
		<tag k="ssr:stedsnr" v="758556" />
	</node>
	<node id="-844847" lat="63.758444448" lon="9.76279166838">
		<tag k="name" v="Hatten" />
		<tag k="natural" v="hill" />
		<tag k="place" v="locality" />
		<tag k="ssr:stedsnr" v="212462" />
	</node>
	<node id="-844842" lat="63.8693416664" lon="10.0270472237">
		<tag k="fixme" v="consider natural=peak for the most distinct mountains in the district" />
		<tag k="name" v="Sandtjønnheian" />
		<tag k="natural" v="hill" />
		<tag k="place" v="locality" />
		<tag k="ssr:stedsnr" v="862554" />
	</node>
	<node id="-844841" lat="63.8145055593" lon="9.85304722293">
		<tag k="fixme" v="consider natural=peak for the most distinct mountains in the district" />
		<tag k="name" v="Snellifjellet" />
		<tag k="natural" v="hill" />
		<tag k="place" v="locality" />
		<tag k="ssr:stedsnr" v="819685" />
	</node>
	<node id="-844837" lat="63.8010805561" lon="9.40556666682">
		<tag k="name" v="Smørhaugen" />
		<tag k="natural" v="hill" />
		<tag k="place" v="locality" />
		<tag k="ssr:stedsnr" v="273196" />
	</node>
	<node id="-844833" lat="63.7667027793" lon="9.60253888092">
		<tag k="name" v="Olahaugen" />
		<tag k="natural" v="hill" />
		<tag k="place" v="locality" />
		<tag k="ssr:stedsnr" v="515526" />
	</node>
	<node id="-844832" lat="63.8958944404" lon="9.81082222393">
		<tag k="name" v="Skjørøyhauet" />
		<tag k="natural" v="hill" />
		<tag k="place" v="locality" />
		<tag k="ssr:stedsnr" v="758551" />
	</node>
	<node id="-844829" lat="63.8188388881" lon="9.72381944662">
		<tag k="name" v="Ørnhaugen" />
		<tag k="natural" v="hill" />
		<tag k="place" v="locality" />
		<tag k="ssr:stedsnr" v="394700" />
	</node>
	<node id="-844828" lat="63.7246777795" lon="9.81061667553">
		<tag k="alt_name" v="Tvartforhaugen" />
		<tag k="name" v="Tvertforhaugen" />
		<tag k="natural" v="hill" />
		<tag k="place" v="locality" />
		<tag k="ssr:stedsnr" v="498291" />
	</node>
	<node id="-844634" lat="63.8342444423" lon="9.73318888933">
		<tag k="fixme" v="consider natural=peak for the most distinct mountains in the district" />
		<tag k="name" v="Båtvikfjellet" />
		<tag k="natural" v="hill" />
		<tag k="place" v="locality" />
		<tag k="ssr:stedsnr" v="940684" />
	</node>
	<node id="-844826" lat="63.886813888" lon="9.90870556339">
		<tag k="name" v="Øysterskardet" />
		<tag k="natural" v="valley" />
		<tag k="place" v="locality" />
		<tag k="ssr:stedsnr" v="273623" />
	</node>
	<node id="-844825" lat="63.7925777775" lon="10.0954138862">
		<tag k="name" v="Almtjønnkollen" />
		<tag k="natural" v="hill" />
		<tag k="place" v="locality" />
		<tag k="ssr:stedsnr" v="498290" />
	</node>
	<node id="-844817" lat="63.7817583321" lon="9.58450000605">
		<tag k="name" v="Storhaugen" />
		<tag k="natural" v="hill" />
		<tag k="place" v="locality" />
		<tag k="ssr:stedsnr" v="30511" />
	</node>
	<node id="-844815" lat="63.8319416662" lon="10.2100166743">
		<tag k="name" v="Nordseterheia" />
		<tag k="natural" v="hill" />
		<tag k="place" v="locality" />
		<tag k="ssr:stedsnr" v="225596" />
	</node>
	<node id="-844813" lat="63.8137833365" lon="9.72978610765">
		<tag k="fixme" v="consider natural=peak for the most distinct mountains in the district" />
		<tag k="name" v="Grønholan" />
		<tag k="natural" v="hill" />
		<tag k="place" v="locality" />
		<tag k="ssr:stedsnr" v="394697" />
	</node>
	<node id="-844812" lat="63.8378472213" lon="9.7404999988">
		<tag k="fixme" v="consider natural=peak for the most distinct mountains in the district" />
		<tag k="name" v="Kronfjellet" />
		<tag k="natural" v="hill" />
		<tag k="place" v="locality" />
		<tag k="ssr:stedsnr" v="940711" />
	</node>
	<node id="-844290" lat="63.8833027773" lon="9.88767776782">
		<tag k="fixme" v="consider natural=peak for the most distinct mountains in the district" />
		<tag k="name" v="Brandfjellet" />
		<tag k="natural" v="hill" />
		<tag k="place" v="locality" />
		<tag k="ssr:stedsnr" v="940595" />
	</node>
	<node id="-844808" lat="63.8359416685" lon="10.0242638836">
		<tag k="name" v="Snøholet" />
		<tag k="natural" v="valley" />
		<tag k="place" v="locality" />
		<tag k="ssr:stedsnr" v="515098" />
	</node>
	<node id="-844807" lat="63.816719448" lon="10.168211103">
		<tag k="name" v="Bjønnadalshøgda" />
		<tag k="natural" v="hill" />
		<tag k="place" v="locality" />
		<tag k="ssr:stedsnr" v="758129" />
	</node>
	<node id="-844797" lat="63.7911277823" lon="9.67837778156">
		<tag k="fixme" v="consider natural=peak for the most distinct mountains in the district" />
		<tag k="name" v="Tindan" />
		<tag k="natural" v="hill" />
		<tag k="place" v="locality" />
		<tag k="ssr:stedsnr" v="316696" />
	</node>
	<node id="-844796" lat="63.8121749999" lon="9.43298888483">
		<tag k="name" v="Vasshaugan" />
		<tag k="natural" v="hill" />
		<tag k="place" v="locality" />
		<tag k="ssr:stedsnr" v="636180" />
	</node>
	<node id="-844793" lat="63.8088111071" lon="9.42800556391">
		<tag k="name" v="Brunhaugen" />
		<tag k="natural" v="hill" />
		<tag k="place" v="locality" />
		<tag k="ssr:stedsnr" v="273189" />
	</node>
	<node id="-844790" lat="63.8286527803" lon="10.1300111171">
		<tag k="name" v="Perholhaugan" />
		<tag k="natural" v="hill" />
		<tag k="place" v="locality" />
		<tag k="ssr:stedsnr" v="30086" />
	</node>
	<node id="-844788" lat="63.8368694489" lon="9.73671389704">
		<tag k="fixme" v="consider natural=peak for the most distinct mountains in the district" />
		<tag k="name" v="Flysjafjellet" />
		<tag k="natural" v="hill" />
		<tag k="place" v="locality" />
		<tag k="ssr:stedsnr" v="91737" />
	</node>
	<node id="-844787" lat="63.7994583319" lon="10.1206999962">
		<tag k="name" v="Fusslikollen" />
		<tag k="natural" v="hill" />
		<tag k="place" v="locality" />
		<tag k="ssr:stedsnr" v="151537" />
	</node>
	<node id="-844786" lat="63.7381388874" lon="9.83000556075">
		<tag k="name" v="Vikastiklumpen" />
		<tag k="natural" v="hill" />
		<tag k="place" v="locality" />
		<tag k="ssr:stedsnr" v="680203" />
	</node>
	<node id="-844784" lat="63.7896861088" lon="10.048936102">
		<tag k="name" v="Varghihalsen" />
		<tag k="place" v="locality" />
		<tag k="ssr:stedsnr" v="697668" />
	</node>
	<node id="-844783" lat="63.7730000002" lon="9.62487500988">
		<tag k="name" v="Duhallaren" />
		<tag k="place" v="locality" />
		<tag k="ssr:stedsnr" v="151534" />
	</node>
	<node id="-844781" lat="63.8161805589" lon="9.77021110261">
		<tag k="name" v="Smørhatten" />
		<tag k="natural" v="hill" />
		<tag k="place" v="locality" />
		<tag k="ssr:stedsnr" v="498031" />
	</node>
	<node id="-844780" lat="63.8167916629" lon="10.0170277759">
		<tag k="name" v="Grasdalskollen" />
		<tag k="natural" v="hill" />
		<tag k="place" v="locality" />
		<tag k="ssr:stedsnr" v="195035" />
	</node>
	<node id="-844776" lat="63.8438333317" lon="9.94953611009">
		<tag k="name" v="Granskardet" />
		<tag k="natural" v="valley" />
		<tag k="place" v="locality" />
		<tag k="ssr:stedsnr" v="151535" />
	</node>
	<node id="-844774" lat="63.8561388858" lon="9.86786667149">
		<tag k="name" v="Storhaugen" />
		<tag k="natural" v="hill" />
		<tag k="place" v="locality" />
		<tag k="ssr:stedsnr" v="880588" />
	</node>
	<node id="-844773" lat="63.7483138892" lon="9.68861110336">
		<tag k="name" v="Skutberget" />
		<tag k="natural" v="hill" />
		<tag k="place" v="locality" />
		<tag k="ssr:stedsnr" v="91321" />
	</node>
	<node id="-844768" lat="63.8033055539" lon="10.1205361156">
		<tag k="name" v="Fusslia" />
		<tag k="natural" v="slope" />
		<tag k="place" v="locality" />
		<tag k="ssr:stedsnr" v="698507" />
	</node>
	<node id="-844767" lat="63.8621472215" lon="9.97937777808">
		<tag k="name" v="Storvassbakken" />
		<tag k="natural" v="slope" />
		<tag k="place" v="locality" />
		<tag k="ssr:stedsnr" v="151538" />
	</node>
	<node id="-844765" lat="63.7780138904" lon="9.65075832584">
		<tag k="name" v="Jørnlia" />
		<tag k="natural" v="slope" />
		<tag k="place" v="locality" />
		<tag k="ssr:stedsnr" v="30506" />
	</node>
	<node id="-844762" lat="63.7615166706" lon="9.95685278185">
		<tag k="name" v="Butlia" />
		<tag k="natural" v="slope" />
		<tag k="place" v="locality" />
		<tag k="ssr:stedsnr" v="447668" />
	</node>
	<node id="-844758" lat="63.7843388925" lon="10.0762222294">
		<tag k="name" v="Råadalen" />
		<tag k="natural" v="valley" />
		<tag k="place" v="locality" />
		<tag k="ssr:stedsnr" v="273596" />
	</node>
	<node id="-844751" lat="63.8568944405" lon="9.89598611824">
		<tag k="name" v="Porten" />
		<tag k="natural" v="hill" />
		<tag k="place" v="locality" />
		<tag k="ssr:stedsnr" v="394685" />
	</node>
	<node id="-844747" lat="63.8794638893" lon="9.86915278786">
		<tag k="name" v="Klaven" />
		<tag k="natural" v="ridge" />
		<tag k="place" v="locality" />
		<tag k="ssr:stedsnr" v="515512" />
	</node>
	<node id="-844746" lat="63.7772416704" lon="9.78666943511">
		<tag k="name" v="Nordhaugan" />
		<tag k="natural" v="hill" />
		<tag k="place" v="locality" />
		<tag k="ssr:stedsnr" v="498283" />
	</node>
	<node id="-844745" lat="63.8152888906" lon="9.8342222197">
		<tag k="fixme" v="consider natural=peak for the most distinct mountains in the district" />
		<tag k="name" v="Finnstifjellet" />
		<tag k="natural" v="hill" />
		<tag k="place" v="locality" />
		<tag k="ssr:stedsnr" v="863051" />
	</node>
	<node id="-844744" lat="63.767572219" lon="9.60593055101">
		<tag k="name" v="Prekstolen" />
		<tag k="natural" v="hill" />
		<tag k="place" v="locality" />
		<tag k="ssr:stedsnr" v="698506" />
	</node>
	<node id="-844620" lat="63.7859194402" lon="10.107461101">
		<tag k="name" v="Pettersvikskardet" />
		<tag k="natural" v="valley" />
		<tag k="place" v="locality" />
		<tag k="ssr:stedsnr" v="819618" />
	</node>
	<node id="-844740" lat="63.7716944467" lon="9.62978611048">
		<tag k="fixme" v="consider natural=peak for the most distinct mountains in the district" />
		<tag k="name" v="Duehellaren" />
		<tag k="natural" v="hill" />
		<tag k="place" v="locality" />
		<tag k="ssr:stedsnr" v="619654" />
	</node>
	<node id="-844737" lat="63.7639861113" lon="9.62376666959">
		<tag k="name" v="Toreskardet" />
		<tag k="natural" v="valley" />
		<tag k="place" v="locality" />
		<tag k="ssr:stedsnr" v="273606" />
	</node>
	<node id="-844635" lat="63.8000777775" lon="9.71160277923">
		<tag k="fixme" v="consider natural=peak for the most distinct mountains in the district" />
		<tag k="name" v="Litlkopparen" />
		<tag k="natural" v="hill" />
		<tag k="place" v="locality" />
		<tag k="ssr:stedsnr" v="13675" />
	</node>
	<node id="-844734" lat="63.852869446" lon="9.92381389508">
		<tag k="name" v="Moltheia" />
		<tag k="natural" v="hill" />
		<tag k="place" v="locality" />
		<tag k="ssr:stedsnr" v="394682" />
	</node>
	<node id="-844731" lat="63.8441055596" lon="9.96190834228">
		<tag k="name" v="Nedre Åltjønnbakken" />
		<tag k="natural" v="slope" />
		<tag k="place" v="locality" />
		<tag k="ssr:stedsnr" v="698501" />
	</node>
	<node id="-844730" lat="63.8932583353" lon="9.85959166988">
		<tag k="fixme" v="consider natural=peak for the most distinct mountains in the district" />
		<tag k="name" v="Lysøyfjellet" />
		<tag k="natural" v="hill" />
		<tag k="place" v="locality" />
		<tag k="ssr:stedsnr" v="515515" />
	</node>
	<node id="-844727" lat="63.8941916689" lon="9.84893333948">
		<tag k="name" v="Stanghaugen" />
		<tag k="natural" v="hill" />
		<tag k="place" v="locality" />
		<tag k="ssr:stedsnr" v="515516" />
	</node>
	<node id="-844726" lat="63.8467361125" lon="10.1385944539">
		<tag k="name" v="Ytter Laugaheian" />
		<tag k="natural" v="hill" />
		<tag k="place" v="locality" />
		<tag k="ssr:stedsnr" v="515083" />
	</node>
	<node id="-844725" lat="63.8219166635" lon="9.79205832568">
		<tag k="fixme" v="consider natural=peak for the most distinct mountains in the district" />
		<tag k="name" v="Stongfjellet" />
		<tag k="natural" v="hill" />
		<tag k="place" v="locality" />
		<tag k="ssr:stedsnr" v="863054" />
	</node>
	<node id="-844724" lat="63.8286472231" lon="10.1069361117">
		<tag k="name" v="Ytter Vakkerseterlia" />
		<tag k="natural" v="slope" />
		<tag k="place" v="locality" />
		<tag k="ssr:stedsnr" v="940670" />
	</node>
	<node id="-846766" lat="63.77443333" lon="9.93151111794">
		<tag k="name" v="Murudalen" />
		<tag k="natural" v="valley" />
		<tag k="place" v="locality" />
		<tag k="ssr:stedsnr" v="195231" />
	</node>
	<node id="-844717" lat="63.8780138914" lon="9.96003610933">
		<tag k="name" v="Grønnlia" />
		<tag k="natural" v="slope" />
		<tag k="place" v="locality" />
		<tag k="ssr:stedsnr" v="636577" />
	</node>
	<node id="-844712" lat="63.7628250032" lon="9.63763333583">
		<tag k="name" v="Vettan" />
		<tag k="natural" v="hill" />
		<tag k="place" v="locality" />
		<tag k="ssr:stedsnr" v="273603" />
	</node>
	<node id="-846759" lat="63.850975" lon="9.87578889465">
		<tag k="name" v="Rasmusdalen" />
		<tag k="natural" v="valley" />
		<tag k="place" v="locality" />
		<tag k="ssr:stedsnr" v="940562" />
	</node>
	<node id="-844708" lat="63.8039611119" lon="10.0808666707">
		<tag k="name" v="Langgraslia" />
		<tag k="natural" v="slope" />
		<tag k="place" v="locality" />
		<tag k="ssr:stedsnr" v="880584" />
	</node>
	<node id="-846755" lat="63.8675083311" lon="9.8959166614">
		<tag k="name" v="Storhammaren" />
		<tag k="natural" v="hill" />
		<tag k="place" v="locality" />
		<tag k="ssr:stedsnr" v="940563" />
	</node>
	<node id="-846753" lat="63.7755361137" lon="10.0715555522">
		<tag k="name" v="Løkholberga" />
		<tag k="natural" v="hill" />
		<tag k="place" v="locality" />
		<tag k="ssr:stedsnr" v="394585" />
	</node>
	<node id="-846752" lat="63.8228500041" lon="9.75320832758">
		<tag k="name" v="Haltlan" />
		<tag k="natural" v="hill" />
		<tag k="place" v="locality" />
		<tag k="ssr:stedsnr" v="333789" />
	</node>
	<node id="-844703" lat="63.8143944408" lon="9.77704166131">
		<tag k="alt_name" v="Flatheian" />
		<tag k="name" v="Flatheia" />
		<tag k="natural" v="hill" />
		<tag k="place" v="locality" />
		<tag k="ssr:stedsnr" v="195026" />
	</node>
	<node id="-846750" lat="63.7496527798" lon="9.71161389136">
		<tag k="name" v="Ørnhaugen" />
		<tag k="natural" v="hill" />
		<tag k="place" v="locality" />
		<tag k="ssr:stedsnr" v="333354" />
	</node>
	<node id="-846746" lat="63.7800138867" lon="10.0758138953">
		<tag k="fixme" v="consider natural=peak for the most distinct mountains in the district" />
		<tag k="name" v="Fjellet" />
		<tag k="natural" v="hill" />
		<tag k="place" v="locality" />
		<tag k="ssr:stedsnr" v="394586" />
	</node>
	<node id="-844697" lat="63.8377138933" lon="9.67566111238">
		<tag k="name" v="Kleiva" />
		<tag k="natural" v="hill" />
		<tag k="place" v="locality" />
		<tag k="ssr:stedsnr" v="515491" />
	</node>
	<node id="-846743" lat="63.8679361086" lon="9.96104167562">
		<tag k="name" v="Litlhollia" />
		<tag k="natural" v="slope" />
		<tag k="place" v="locality" />
		<tag k="ssr:stedsnr" v="455542" />
	</node>
	<node id="-844693" lat="63.8870000035" lon="9.79613055182">
		<tag k="name" v="Bastuhaugen" />
		<tag k="natural" v="hill" />
		<tag k="place" v="locality" />
		<tag k="ssr:stedsnr" v="455627" />
	</node>
	<node id="-846740" lat="63.8594722201" lon="9.76140555177">
		<tag k="name" v="Hammaren" />
		<tag k="natural" v="ridge" />
		<tag k="place" v="locality" />
		<tag k="ssr:stedsnr" v="576641" />
	</node>
	<node id="-844688" lat="63.7769722231" lon="10.0405249992">
		<tag k="fixme" v="consider natural=peak for the most distinct mountains in the district" />
		<tag k="name" v="Ytre Dueskardfjellet" />
		<tag k="natural" v="hill" />
		<tag k="place" v="locality" />
		<tag k="ssr:stedsnr" v="256214" />
	</node>
	<node id="-844687" lat="63.8116805524" lon="10.1817444385">
		<tag k="name" v="Blanktjønndalen" />
		<tag k="natural" v="valley" />
		<tag k="place" v="locality" />
		<tag k="ssr:stedsnr" v="195028" />
	</node>
	<node id="-846732" lat="63.8328222227" lon="10.0195861194">
		<tag k="name" v="Oterstokkdalen" />
		<tag k="natural" v="valley" />
		<tag k="place" v="locality" />
		<tag k="ssr:stedsnr" v="636043" />
	</node>
	<node id="-844680" lat="63.7779194407" lon="9.60968055908">
		<tag k="fixme" v="consider natural=peak for the most distinct mountains in the district" />
		<tag k="name" v="Middagsfjellet" />
		<tag k="natural" v="hill" />
		<tag k="place" v="locality" />
		<tag k="ssr:stedsnr" v="316680" />
	</node>
	<node id="-844678" lat="63.8338111068" lon="9.92762500509">
		<tag k="name" v="Krekkanheia" />
		<tag k="natural" v="hill" />
		<tag k="place" v="locality" />
		<tag k="ssr:stedsnr" v="515059" />
	</node>
	<node id="-846724" lat="63.8614388898" lon="9.75499166942">
		<tag k="name" v="Vallersundvarden" />
		<tag k="natural" v="hill" />
		<tag k="place" v="locality" />
		<tag k="ssr:stedsnr" v="576644" />
	</node>
	<node id="-846723" lat="63.8224583292" lon="9.65303332526">
		<tag k="name" v="Bryggberget" />
		<tag k="natural" v="hill" />
		<tag k="place" v="locality" />
		<tag k="ssr:stedsnr" v="212765" />
	</node>
	<node id="-846721" lat="63.78176389" lon="9.89174443607">
		<tag k="name" v="Vardheia" />
		<tag k="natural" v="hill" />
		<tag k="place" v="locality" />
		<tag k="ssr:stedsnr" v="74210" />
	</node>
	<node id="-846719" lat="63.7381694472" lon="9.82696111407">
		<tag k="fixme" v="consider natural=peak for the most distinct mountains in the district" />
		<tag k="name" v="Vikastiklumpen" />
		<tag k="natural" v="hill" />
		<tag k="place" v="locality" />
		<tag k="ssr:stedsnr" v="698407" />
	</node>
	<node id="-846716" lat="63.8343388914" lon="9.99207777119">
		<tag k="name" v="Simendalen" />
		<tag k="natural" v="valley" />
		<tag k="place" v="locality" />
		<tag k="ssr:stedsnr" v="636041" />
	</node>
	<node id="-846714" lat="63.8227722202" lon="10.0847638984">
		<tag k="name" v="Stinusdalen" />
		<tag k="natural" v="valley" />
		<tag k="place" v="locality" />
		<tag k="ssr:stedsnr" v="880090" />
	</node>
	<node id="-846713" lat="63.78665278" lon="9.96724722876">
		<tag k="name" v="Kammalia" />
		<tag k="natural" v="slope" />
		<tag k="place" v="locality" />
		<tag k="ssr:stedsnr" v="940556" />
	</node>
	<node id="-844663" lat="63.7711555598" lon="9.96259166625">
		<tag k="name" v="Svartskardet" />
		<tag k="natural" v="valley" />
		<tag k="place" v="locality" />
		<tag k="ssr:stedsnr" v="636597" />
	</node>
	<node id="-844661" lat="63.7726638901" lon="9.81278611263">
		<tag k="fixme" v="consider natural=peak for the most distinct mountains in the district" />
		<tag k="name" v="Brattlia" />
		<tag k="natural" v="hill" />
		<tag k="place" v="locality" />
		<tag k="ssr:stedsnr" v="802233" />
	</node>
	<node id="-846708" lat="63.8562555534" lon="10.1427888926">
		<tag k="name" v="Laugalia" />
		<tag k="natural" v="slope" />
		<tag k="place" v="locality" />
		<tag k="ssr:stedsnr" v="273096" />
	</node>
	<node id="-846706" lat="63.8055916637" lon="10.138027779">
		<tag k="name" v="Fusslia" />
		<tag k="natural" v="slope" />
		<tag k="place" v="locality" />
		<tag k="ssr:stedsnr" v="467909" />
	</node>
	<node id="-844655" lat="63.7425972266" lon="9.79650277999">
		<tag k="fixme" v="consider natural=peak for the most distinct mountains in the district" />
		<tag k="name" v="Anderslegda" />
		<tag k="natural" v="hill" />
		<tag k="place" v="locality" />
		<tag k="ssr:stedsnr" v="698118" />
	</node>
	<node id="-846699" lat="63.8653388934" lon="9.86392499359">
		<tag k="name" v="Hannaskardhaugan" />
		<tag k="natural" v="hill" />
		<tag k="place" v="locality" />
		<tag k="ssr:stedsnr" v="394588" />
	</node>
	<node id="-846698" lat="63.781919441" lon="9.96068055798">
		<tag k="name" v="Kammahaugen" />
		<tag k="natural" v="hill" />
		<tag k="place" v="locality" />
		<tag k="ssr:stedsnr" v="940558" />
	</node>
	<node id="-846696" lat="63.7413222262" lon="9.71093889752">
		<tag k="name" v="Grønnbakkhaugan" />
		<tag k="natural" v="hill" />
		<tag k="place" v="locality" />
		<tag k="ssr:stedsnr" v="455146" />
	</node>
	<node id="-846690" lat="63.8473583349" lon="9.8253027695">
		<tag k="fixme" v="consider natural=peak for the most distinct mountains in the district" />
		<tag k="name" v="Rugåsen" />
		<tag k="natural" v="hill" />
		<tag k="place" v="locality" />
		<tag k="ssr:stedsnr" v="758402" />
	</node>
	<node id="-844641" lat="63.7950999975" lon="9.3878027773">
		<tag k="alt_name" v="Stallhaugen, s" />
		<tag k="name" v="Søre Stallhaugen" />
		<tag k="natural" v="hill" />
		<tag k="place" v="locality" />
		<tag k="ssr:stedsnr" v="13674" />
	</node>
	<node id="-846683" lat="63.7944249987" lon="9.99201388918">
		<tag k="name" v="Digermulen" />
		<tag k="natural" v="hill" />
		<tag k="place" v="locality" />
		<tag k="ssr:stedsnr" v="698019" />
	</node>
	<node id="-846682" lat="63.8767805594" lon="9.87853056548">
		<tag k="fixme" v="consider natural=peak for the most distinct mountains in the district" />
		<tag k="name" v="Rømmesfjellet" />
		<tag k="natural" v="hill" />
		<tag k="place" v="locality" />
		<tag k="ssr:stedsnr" v="316618" />
	</node>
	<node id="-846677" lat="63.7942055522" lon="9.6649361071">
		<tag k="name" v="Høglia" />
		<tag k="natural" v="slope" />
		<tag k="place" v="locality" />
		<tag k="ssr:stedsnr" v="273479" />
	</node>
	<node id="-846673" lat="63.7802750037" lon="9.99874721832">
		<tag k="name" v="Finnkjerringhaugen" />
		<tag k="natural" v="hill" />
		<tag k="place" v="locality" />
		<tag k="ssr:stedsnr" v="576624" />
	</node>
	<node id="-846671" lat="63.8524527771" lon="10.0919805639">
		<tag k="name" v="Nyvassdalsskardet" />
		<tag k="natural" v="valley" />
		<tag k="place" v="locality" />
		<tag k="ssr:stedsnr" v="880109" />
	</node>
	<node id="-844622" lat="63.8871444466" lon="9.83358056483">
		<tag k="name" v="Buktakallen" />
		<tag k="natural" v="hill" />
		<tag k="place" v="locality" />
		<tag k="ssr:stedsnr" v="151508" />
	</node>
	<node id="-846668" lat="63.8879666683" lon="9.91436943506">
		<tag k="fixme" v="consider natural=peak for the most distinct mountains in the district" />
		<tag k="name" v="Nøklafjellet" />
		<tag k="natural" v="hill" />
		<tag k="place" v="locality" />
		<tag k="ssr:stedsnr" v="576625" />
	</node>
	<node id="-846663" lat="63.8310027814" lon="9.6582944367">
		<tag k="name" v="Gangstøhaugen" />
		<tag k="natural" v="hill" />
		<tag k="place" v="locality" />
		<tag k="ssr:stedsnr" v="212762" />
	</node>
	<node id="-844613" lat="63.8047888895" lon="10.0515999963">
		<tag k="name" v="Småtjønndalen" />
		<tag k="natural" v="valley" />
		<tag k="place" v="locality" />
		<tag k="ssr:stedsnr" v="880562" />
	</node>
	<node id="-846659" lat="63.8098444411" lon="9.96565276762">
		<tag k="fixme" v="consider natural=peak for the most distinct mountains in the district" />
		<tag k="name" v="Merrakleiva" />
		<tag k="natural" v="hill" />
		<tag k="place" v="locality" />
		<tag k="ssr:stedsnr" v="698015" />
	</node>
	<node id="-846656" lat="63.8596111092" lon="9.74836389221">
		<tag k="name" v="Barholten" />
		<tag k="place" v="locality" />
		<tag k="ssr:stedsnr" v="30382" />
	</node>
	<node id="-846651" lat="63.8395472248" lon="9.83593610939">
		<tag k="fixme" v="consider natural=peak for the most distinct mountains in the district" />
		<tag k="name" v="Stangfjellet" />
		<tag k="natural" v="hill" />
		<tag k="place" v="locality" />
		<tag k="ssr:stedsnr" v="515382" />
	</node>
	<node id="-844601" lat="63.7805055586" lon="9.67181388573">
		<tag k="fixme" v="consider natural=peak for the most distinct mountains in the district" />
		<tag k="name" v="Tømmeråsen" />
		<tag k="natural" v="hill" />
		<tag k="place" v="locality" />
		<tag k="ssr:stedsnr" v="741707" />
	</node>
	<node id="-844600" lat="63.8691638852" lon="9.84216389249">
		<tag k="name" v="Gullvika" />
		<tag k="natural" v="slope" />
		<tag k="place" v="locality" />
		<tag k="ssr:stedsnr" v="819620" />
	</node>
	<node id="-846647" lat="63.8363805599" lon="10.1648777698">
		<tag k="alt_name" v="Torsengheia, Ytter" />
		<tag k="name" v="Ytter Torsengheia" />
		<tag k="natural" v="hill" />
		<tag k="place" v="locality" />
		<tag k="ssr:stedsnr" v="750871" />
	</node>
	<node id="-844597" lat="63.7664694457" lon="9.8737777717">
		<tag k="name" v="Middagshaugen" />
		<tag k="natural" v="hill" />
		<tag k="place" v="locality" />
		<tag k="ssr:stedsnr" v="30473" />
	</node>
	<node id="-846644" lat="63.8579333294" lon="9.75802222279">
		<tag k="name" v="Nesavarden" />
		<tag k="natural" v="hill" />
		<tag k="place" v="locality" />
		<tag k="ssr:stedsnr" v="30385" />
	</node>
	<node id="-846643" lat="63.8106444455" lon="10.0175194482">
		<tag k="name" v="Høgden" />
		<tag k="natural" v="hill" />
		<tag k="place" v="locality" />
		<tag k="ssr:stedsnr" v="819551" />
	</node>
	<node id="-844593" lat="63.8755083325" lon="9.92598055594">
		<tag k="name" v="Storhaugen" />
		<tag k="natural" v="hill" />
		<tag k="place" v="locality" />
		<tag k="ssr:stedsnr" v="273581" />
	</node>
	<node id="-846639" lat="63.7622583336" lon="9.64450556396">
		<tag k="name" v="Litlrisvika" />
		<tag k="place" v="locality" />
		<tag k="ssr:stedsnr" v="91620" />
	</node>
	<node id="-846637" lat="63.8059249993" lon="9.96368610431">
		<tag k="name" v="Granlia" />
		<tag k="natural" v="slope" />
		<tag k="place" v="locality" />
		<tag k="ssr:stedsnr" v="698016" />
	</node>
	<node id="-844585" lat="63.8086333369" lon="9.39453610311">
		<tag k="name" v="Lyngøyvalen" />
		<tag k="place" v="locality" />
		<tag k="ssr:stedsnr" v="697197" />
	</node>
	<node id="-844584" lat="63.7726250036" lon="9.7502472218">
		<tag k="name" v="Merrahaugen" />
		<tag k="natural" v="hill" />
		<tag k="place" v="locality" />
		<tag k="ssr:stedsnr" v="151499" />
	</node>
	<node id="-844582" lat="63.7973472195" lon="9.41351389546">
		<tag k="name" v="Stanghaugan" />
		<tag k="natural" v="hill" />
		<tag k="place" v="locality" />
		<tag k="ssr:stedsnr" v="819189" />
	</node>
	<node id="-844581" lat="63.8351944445" lon="9.99268611037">
		<tag k="name" v="Keipen" />
		<tag k="natural" v="hill" />
		<tag k="place" v="locality" />
		<tag k="ssr:stedsnr" v="515049" />
	</node>
	<node id="-844575" lat="63.8066638872" lon="10.1902083321">
		<tag k="alt_name" v="Hammeldalen;Hammerdalen" />
		<tag k="name" v="Hammardalen" />
		<tag k="natural" v="valley" />
		<tag k="place" v="locality" />
		<tag k="ssr:stedsnr" v="195015" />
	</node>
	<node id="-846621" lat="63.8494500016" lon="10.1206472143">
		<tag k="alt_name" v="Laugadalen, ytre;Ytter Laugadalen" />
		<tag k="name" v="Ytre Laugadalen" />
		<tag k="natural" v="valley" />
		<tag k="place" v="locality" />
		<tag k="ssr:stedsnr" v="741131" />
	</node>
	<node id="-846619" lat="63.7870027815" lon="9.77946943777">
		<tag k="name" v="Ratdalshaugen" />
		<tag k="natural" v="hill" />
		<tag k="place" v="locality" />
		<tag k="ssr:stedsnr" v="636486" />
	</node>
	<node id="-844568" lat="63.7788416644" lon="9.73283611102">
		<tag k="name" v="Torsidalen" />
		<tag k="natural" v="valley" />
		<tag k="place" v="locality" />
		<tag k="ssr:stedsnr" v="941471" />
	</node>
	<node id="-846615" lat="63.8227861146" lon="9.64046944874">
		<tag k="name" v="Hestberga" />
		<tag k="natural" v="hill" />
		<tag k="place" v="locality" />
		<tag k="ssr:stedsnr" v="151411" />
	</node>
	<node id="-844566" lat="63.8002249962" lon="9.39016666658">
		<tag k="alt_name" v="Stallhaugen, nordre" />
		<tag k="name" v="Nordre Stallhaugen" />
		<tag k="natural" v="hill" />
		<tag k="place" v="locality" />
		<tag k="ssr:stedsnr" v="680693" />
	</node>
	<node id="-846611" lat="63.7510000018" lon="9.91218610585">
		<tag k="name" v="Tømmerdalen" />
		<tag k="natural" v="valley" />
		<tag k="place" v="locality" />
		<tag k="ssr:stedsnr" v="576634" />
	</node>
	<node id="-844561" lat="63.771758334" lon="9.58161943796">
		<tag k="name" v="Åberget" />
		<tag k="natural" v="hill" />
		<tag k="place" v="locality" />
		<tag k="ssr:stedsnr" v="698477" />
	</node>
	<node id="-846608" lat="63.858791667" lon="9.92951944093">
		<tag k="alt_name" v="Sørvasslia" />
		<tag k="name" v="Søvasslia" />
		<tag k="natural" v="slope" />
		<tag k="place" v="locality" />
		<tag k="ssr:stedsnr" v="316104" />
	</node>
	<node id="-844559" lat="63.8588472242" lon="10.0322555628">
		<tag k="name" v="Øverlia" />
		<tag k="natural" v="slope" />
		<tag k="place" v="locality" />
		<tag k="ssr:stedsnr" v="698097" />
	</node>
	<node id="-846605" lat="63.8554388872" lon="9.73659443468">
		<tag k="name" v="Drilsvalen" />
		<tag k="natural" v="hill" />
		<tag k="place" v="locality" />
		<tag k="ssr:stedsnr" v="758416" />
	</node>
	<node id="-844556" lat="63.8113333343" lon="10.0741833387">
		<tag k="name" v="Svartdalshøgda" />
		<tag k="natural" v="hill" />
		<tag k="place" v="locality" />
		<tag k="ssr:stedsnr" v="636575" />
	</node>
	<node id="-844554" lat="63.7462833348" lon="9.76760000211">
		<tag k="name" v="Honnadørklumpen" />
		<tag k="natural" v="hill" />
		<tag k="place" v="locality" />
		<tag k="ssr:stedsnr" v="273152" />
	</node>
	<node id="-844550" lat="63.79396944" lon="9.79535556519">
		<tag k="fixme" v="consider natural=peak for the most distinct mountains in the district" />
		<tag k="name" v="Lauvåsen" />
		<tag k="natural" v="hill" />
		<tag k="place" v="locality" />
		<tag k="ssr:stedsnr" v="742784" />
	</node>
	<node id="-846597" lat="63.8875138901" lon="9.89461666303">
		<tag k="fixme" v="consider natural=peak for the most distinct mountains in the district" />
		<tag k="name" v="Husfjellet" />
		<tag k="natural" v="hill" />
		<tag k="place" v="locality" />
		<tag k="ssr:stedsnr" v="334599" />
	</node>
	<node id="-846592" lat="63.8209527761" lon="9.63395832475">
		<tag k="name" v="Martahaugen" />
		<tag k="natural" v="hill" />
		<tag k="place" v="locality" />
		<tag k="ssr:stedsnr" v="515816" />
	</node>
	<node id="-844543" lat="63.8446388894" lon="9.8528083336">
		<tag k="name" v="Varden" />
		<tag k="natural" v="hill" />
		<tag k="place" v="locality" />
		<tag k="ssr:stedsnr" v="273557" />
	</node>
	<node id="-844539" lat="63.8150166659" lon="9.81636112001">
		<tag k="fixme" v="consider natural=peak for the most distinct mountains in the district" />
		<tag k="name" v="Kleivfjellet" />
		<tag k="natural" v="hill" />
		<tag k="place" v="locality" />
		<tag k="ssr:stedsnr" v="91694" />
	</node>
	<node id="-846584" lat="63.7239277744" lon="9.85364166879">
		<tag k="fixme" v="consider natural=peak for the most distinct mountains in the district" />
		<tag k="name" v="Eidsfjellet" />
		<tag k="natural" v="hill" />
		<tag k="place" v="locality" />
		<tag k="ssr:stedsnr" v="559225" />
	</node>
	<node id="-844534" lat="63.7805027794" lon="9.84204167633">
		<tag k="fixme" v="consider natural=peak for the most distinct mountains in the district" />
		<tag k="name" v="Seterfjellet" />
		<tag k="natural" v="hill" />
		<tag k="place" v="locality" />
		<tag k="ssr:stedsnr" v="256200" />
	</node>
	<node id="-846581" lat="63.8765805536" lon="9.96092778199">
		<tag k="fixme" v="consider natural=peak for the most distinct mountains in the district" />
		<tag k="name" v="Grønnlifjellet" />
		<tag k="natural" v="hill" />
		<tag k="place" v="locality" />
		<tag k="ssr:stedsnr" v="316608" />
	</node>
	<node id="-846579" lat="63.8404361091" lon="9.97391665892">
		<tag k="name" v="Øvre Åltjønnbakken" />
		<tag k="natural" v="slope" />
		<tag k="place" v="locality" />
		<tag k="ssr:stedsnr" v="455517" />
	</node>
	<node id="-844521" lat="63.8235527775" lon="9.94400278046">
		<tag k="name" v="Seterheia" />
		<tag k="natural" v="hill" />
		<tag k="place" v="locality" />
		<tag k="ssr:stedsnr" v="863048" />
	</node>
	<node id="-846568" lat="63.8008638932" lon="9.76565277972">
		<tag k="fixme" v="consider natural=peak for the most distinct mountains in the district" />
		<tag k="name" v="Knoppen" />
		<tag k="natural" v="hill" />
		<tag k="place" v="locality" />
		<tag k="ssr:stedsnr" v="91200" />
	</node>
	<node id="-844519" lat="63.7862305522" lon="9.66227221772">
		<tag k="fixme" v="consider natural=peak for the most distinct mountains in the district" />
		<tag k="name" v="Steinvikfjellet" />
		<tag k="natural" v="hill" />
		<tag k="place" v="locality" />
		<tag k="ssr:stedsnr" v="619648" />
	</node>
	<node id="-844517" lat="63.7400249994" lon="9.7163333292">
		<tag k="name" v="Nålhaugen" />
		<tag k="natural" v="hill" />
		<tag k="place" v="locality" />
		<tag k="ssr:stedsnr" v="697653" />
	</node>
	<node id="-846564" lat="63.7664722261" lon="9.62741944543">
		<tag k="name" v="Steinskardet" />
		<tag k="natural" v="valley" />
		<tag k="place" v="locality" />
		<tag k="ssr:stedsnr" v="576614" />
	</node>
	<node id="-844515" lat="63.7729972179" lon="9.6079055615">
		<tag k="fixme" v="consider natural=peak for the most distinct mountains in the district" />
		<tag k="name" v="Futfjellet" />
		<tag k="natural" v="hill" />
		<tag k="place" v="locality" />
		<tag k="ssr:stedsnr" v="940664" />
	</node>
	<node id="-844514" lat="63.841086112" lon="9.91475832528">
		<tag k="fixme" v="consider natural=peak for the most distinct mountains in the district" />
		<tag k="name" v="Solløysklumpen" />
		<tag k="natural" v="hill" />
		<tag k="place" v="locality" />
		<tag k="ssr:stedsnr" v="91698" />
	</node>
	<node id="-846561" lat="63.838224997" lon="9.87718611634">
		<tag k="name" v="Heimalia" />
		<tag k="natural" v="slope" />
		<tag k="place" v="locality" />
		<tag k="ssr:stedsnr" v="30370" />
	</node>
	<node id="-844510" lat="63.8281722263" lon="9.84199999347">
		<tag k="name" v="Gåshaugen" />
		<tag k="natural" v="hill" />
		<tag k="place" v="locality" />
		<tag k="ssr:stedsnr" v="91689" />
	</node>
	<node id="-846556" lat="63.7692138875" lon="9.80331389353">
		<tag k="fixme" v="consider natural=peak for the most distinct mountains in the district" />
		<tag k="name" v="Sjulafjellet" />
		<tag k="natural" v="hill" />
		<tag k="place" v="locality" />
		<tag k="ssr:stedsnr" v="819500" />
	</node>
	<node id="-846555" lat="63.8068805532" lon="9.73709166121">
		<tag k="fixme" v="consider natural=peak for the most distinct mountains in the district" />
		<tag k="name" v="Stor-Kopparen" />
		<tag k="natural" v="hill" />
		<tag k="place" v="locality" />
		<tag k="ssr:stedsnr" v="151832" />
	</node>
	<node id="-844502" lat="63.7908222246" lon="10.1688722268">
		<tag k="name" v="Finnkjerringberget" />
		<tag k="natural" v="hill" />
		<tag k="place" v="locality" />
		<tag k="ssr:stedsnr" v="648912" />
	</node>
	<node id="-844501" lat="63.7451388928" lon="9.79560832764">
		<tag k="fixme" v="consider natural=peak for the most distinct mountains in the district" />
		<tag k="name" v="Liafjellet" />
		<tag k="natural" v="hill" />
		<tag k="place" v="locality" />
		<tag k="ssr:stedsnr" v="273157" />
	</node>
	<node id="-846548" lat="63.82156389" lon="9.93432777357">
		<tag k="name" v="Langliheia" />
		<tag k="natural" v="hill" />
		<tag k="place" v="locality" />
		<tag k="ssr:stedsnr" v="273071" />
	</node>
	<node id="-844497" lat="63.7807944422" lon="9.88399445345">
		<tag k="name" v="Grasholet" />
		<tag k="place" v="locality" />
		<tag k="ssr:stedsnr" v="273563" />
	</node>
	<node id="-846542" lat="63.8111305521" lon="9.89898889068">
		<tag k="name" v="Skurvheia" />
		<tag k="natural" v="hill" />
		<tag k="place" v="locality" />
		<tag k="ssr:stedsnr" v="923029" />
	</node>
	<node id="-846540" lat="63.7515972187" lon="9.79416111896">
		<tag k="fixme" v="consider natural=peak for the most distinct mountains in the district" />
		<tag k="name" v="Rundklumpen" />
		<tag k="natural" v="hill" />
		<tag k="place" v="locality" />
		<tag k="ssr:stedsnr" v="880455" />
	</node>
	<node id="-846535" lat="63.7996194445" lon="9.79077777492">
		<tag k="fixme" v="consider natural=peak for the most distinct mountains in the district" />
		<tag k="name" v="Langmyrstrupen" />
		<tag k="natural" v="hill" />
		<tag k="place" v="locality" />
		<tag k="ssr:stedsnr" v="91196" />
	</node>
	<node id="-844422" lat="63.7786944422" lon="9.58514999392">
		<tag k="name" v="Moberget" />
		<tag k="natural" v="hill" />
		<tag k="place" v="locality" />
		<tag k="ssr:stedsnr" v="636526" />
	</node>
	<node id="-846529" lat="63.8409055592" lon="9.86466944817">
		<tag k="fixme" v="consider natural=peak for the most distinct mountains in the district" />
		<tag k="name" v="Strandafjellet" />
		<tag k="natural" v="hill" />
		<tag k="place" v="locality" />
		<tag k="ssr:stedsnr" v="151394" />
	</node>
	<node id="-844480" lat="63.7381861133" lon="9.75319166583">
		<tag k="name" v="Kammersholan" />
		<tag k="natural" v="valley" />
		<tag k="place" v="locality" />
		<tag k="ssr:stedsnr" v="697175" />
	</node>
	<node id="-846527" lat="63.8310194446" lon="10.028875003">
		<tag k="alt_name" v="Storslette" />
		<tag k="name" v="Storslættet" />
		<tag k="place" v="locality" />
		<tag k="ssr:stedsnr" v="13071" />
	</node>
	<node id="-844478" lat="63.7327916647" lon="9.75967222877">
		<tag k="name" v="Pellkus" />
		<tag k="natural" v="hill" />
		<tag k="place" v="locality" />
		<tag k="ssr:stedsnr" v="195264" />
	</node>
	<node id="-846523" lat="63.7772694447" lon="9.81582778614">
		<tag k="name" v="Brattliklumpen" />
		<tag k="natural" v="hill" />
		<tag k="place" v="locality" />
		<tag k="ssr:stedsnr" v="698378" />
	</node>
	<node id="-844473" lat="63.7776888858" lon="9.87621944062">
		<tag k="fixme" v="consider natural=peak for the most distinct mountains in the district" />
		<tag k="name" v="Lauvåsen" />
		<tag k="natural" v="hill" />
		<tag k="place" v="locality" />
		<tag k="ssr:stedsnr" v="697612" />
	</node>
	<node id="-846520" lat="63.8492388903" lon="10.0264944533">
		<tag k="fixme" v="consider natural=peak for the most distinct mountains in the district" />
		<tag k="name" v="Søndagsbenken" />
		<tag k="natural" v="hill" />
		<tag k="place" v="locality" />
		<tag k="ssr:stedsnr" v="819107" />
	</node>
	<node id="-844471" lat="63.8231666686" lon="9.87654167179">
		<tag k="name" v="Rognlihaugen" />
		<tag k="natural" v="hill" />
		<tag k="place" v="locality" />
		<tag k="ssr:stedsnr" v="515014" />
	</node>
	<node id="-846517" lat="63.7318194453" lon="9.81426388709">
		<tag k="name" v="Riarskardet" />
		<tag k="natural" v="valley" />
		<tag k="place" v="locality" />
		<tag k="ssr:stedsnr" v="698399" />
	</node>
	<node id="-846515" lat="63.7572361082" lon="9.76860834013">
		<tag k="name" v="Brandskardheia" />
		<tag k="natural" v="hill" />
		<tag k="place" v="locality" />
		<tag k="ssr:stedsnr" v="515348" />
	</node>
	<node id="-844466" lat="63.7878833336" lon="10.1444361146">
		<tag k="fixme" v="consider natural=peak for the most distinct mountains in the district" />
		<tag k="name" v="Petterholet" />
		<tag k="natural" v="hill" />
		<tag k="place" v="locality" />
		<tag k="ssr:stedsnr" v="455589" />
	</node>
	<node id="-846513" lat="63.7985777738" lon="9.77266944302">
		<tag k="name" v="Knoppen" />
		<tag k="natural" v="hill" />
		<tag k="place" v="locality" />
		<tag k="ssr:stedsnr" v="576186" />
	</node>
	<node id="-846504" lat="63.8211611092" lon="9.743294439">
		<tag k="name" v="Gravdalshauan" />
		<tag k="natural" v="hill" />
		<tag k="place" v="locality" />
		<tag k="ssr:stedsnr" v="515799" />
	</node>
	<node id="-846502" lat="63.820941667" lon="10.1806111199">
		<tag k="name" v="Mydalsklumpen" />
		<tag k="natural" v="hill" />
		<tag k="place" v="locality" />
		<tag k="ssr:stedsnr" v="923038" />
	</node>
	<node id="-846499" lat="63.7934083375" lon="9.69138333668">
		<tag k="fixme" v="consider natural=peak for the most distinct mountains in the district" />
		<tag k="name" v="Gråsteinfjellet" />
		<tag k="natural" v="hill" />
		<tag k="place" v="locality" />
		<tag k="ssr:stedsnr" v="151823" />
	</node>
	<node id="-846498" lat="63.755047222" lon="9.97593055148">
		<tag k="name" v="Leverberget" />
		<tag k="natural" v="hill" />
		<tag k="place" v="locality" />
		<tag k="ssr:stedsnr" v="576601" />
	</node>
	<node id="-844571" lat="63.7641527766" lon="9.96896111233">
		<tag k="fixme" v="consider natural=peak for the most distinct mountains in the district" />
		<tag k="name" v="Jobrenna" />
		<tag k="natural" v="hill" />
		<tag k="place" v="locality" />
		<tag k="ssr:stedsnr" v="273577" />
	</node>
	<node id="-844444" lat="63.7385222222" lon="9.76367500558">
		<tag k="name" v="Frødalen" />
		<tag k="natural" v="valley" />
		<tag k="place" v="locality" />
		<tag k="ssr:stedsnr" v="377172" />
	</node>
	<node id="-844441" lat="63.7800666711" lon="9.883672226">
		<tag k="fixme" v="consider natural=peak for the most distinct mountains in the district" />
		<tag k="name" v="Slettåsen" />
		<tag k="natural" v="hill" />
		<tag k="place" v="locality" />
		<tag k="ssr:stedsnr" v="697610" />
	</node>
	<node id="-844440" lat="63.7705222238" lon="9.95492777391">
		<tag k="name" v="Brotta" />
		<tag k="natural" v="hill" />
		<tag k="place" v="locality" />
		<tag k="ssr:stedsnr" v="91684" />
	</node>
	<node id="-844439" lat="63.7853361104" lon="10.0373972138">
		<tag k="name" v="Seterlia" />
		<tag k="natural" v="slope" />
		<tag k="place" v="locality" />
		<tag k="ssr:stedsnr" v="940611" />
	</node>
	<node id="-844437" lat="63.7547027737" lon="9.89611388283">
		<tag k="name" v="Hellandsdalen" />
		<tag k="natural" v="valley" />
		<tag k="place" v="locality" />
		<tag k="ssr:stedsnr" v="91677" />
	</node>
	<node id="-846483" lat="63.8603611085" lon="9.95054722307">
		<tag k="name" v="Melvassheia" />
		<tag k="natural" v="hill" />
		<tag k="place" v="locality" />
		<tag k="ssr:stedsnr" v="680129" />
	</node>
	<node id="-846481" lat="63.8002055582" lon="9.64192223025">
		<tag k="name" v="Tinnberget" />
		<tag k="natural" v="hill" />
		<tag k="place" v="locality" />
		<tag k="ssr:stedsnr" v="515353" />
	</node>
	<node id="-846616" lat="63.8460388888" lon="9.78127499767">
		<tag k="fixme" v="consider natural=peak for the most distinct mountains in the district" />
		<tag k="name" v="Varden" />
		<tag k="natural" v="hill" />
		<tag k="place" v="locality" />
		<tag k="ssr:stedsnr" v="758414" />
	</node>
	<node id="-846477" lat="63.8240277796" lon="9.79872500252">
		<tag k="fixme" v="consider natural=peak for the most distinct mountains in the district" />
		<tag k="name" v="Bekkpynten" />
		<tag k="natural" v="hill" />
		<tag k="place" v="locality" />
		<tag k="ssr:stedsnr" v="515802" />
	</node>
	<node id="-846475" lat="63.8605472187" lon="10.1712444456">
		<tag k="alt_name" v="Laugadalen, indre;Inner Laugadalen" />
		<tag k="name" v="Indre Laugadalen" />
		<tag k="natural" v="valley" />
		<tag k="place" v="locality" />
		<tag k="ssr:stedsnr" v="134137" />
	</node>
	<node id="-846470" lat="63.793975003" lon="9.64473610694">
		<tag k="name" v="Dallen" />
		<tag k="natural" v="hill" />
		<tag k="place" v="locality" />
		<tag k="ssr:stedsnr" v="515351" />
	</node>
	<node id="-844421" lat="63.8120499971" lon="10.2014333325">
		<tag k="name" v="Hammeldalen" />
		<tag k="natural" v="valley" />
		<tag k="place" v="locality" />
		<tag k="ssr:stedsnr" v="103977" />
	</node>
	<node id="-844419" lat="63.7858416674" lon="10.0518083341">
		<tag k="name" v="Kvennhusbakkan" />
		<tag k="natural" v="slope" />
		<tag k="place" v="locality" />
		<tag k="ssr:stedsnr" v="455594" />
	</node>
	<node id="-844417" lat="63.8248972185" lon="9.4150583248">
		<tag k="name" v="Valøyhaugen" />
		<tag k="natural" v="hill" />
		<tag k="place" v="locality" />
		<tag k="ssr:stedsnr" v="455194" />
	</node>
	<node id="-844415" lat="63.7548861107" lon="9.91569999044">
		<tag k="name" v="Tuvheia" />
		<tag k="natural" v="hill" />
		<tag k="place" v="locality" />
		<tag k="ssr:stedsnr" v="91680" />
	</node>
	<node id="-846462" lat="63.8220638882" lon="9.76972777855">
		<tag k="name" v="Kleivan" />
		<tag k="natural" v="valley" />
		<tag k="place" v="locality" />
		<tag k="ssr:stedsnr" v="515807" />
	</node>
	<node id="-846461" lat="63.8599027765" lon="9.94020833282">
		<tag k="name" v="Sørvasshøgda" />
		<tag k="natural" v="hill" />
		<tag k="place" v="locality" />
		<tag k="ssr:stedsnr" v="394551" />
	</node>
	<node id="-844412" lat="63.8343972257" lon="10.130419437">
		<tag k="name" v="Perholknoppen" />
		<tag k="natural" v="hill" />
		<tag k="place" v="locality" />
		<tag k="ssr:stedsnr" v="698051" />
	</node>
	<node id="-846456" lat="63.8298361141" lon="10.117613879">
		<tag k="name" v="Perholet" />
		<tag k="natural" v="valley" />
		<tag k="place" v="locality" />
		<tag k="ssr:stedsnr" v="13064" />
	</node>
	<node id="-844407" lat="63.7865722215" lon="9.90268611404">
		<tag k="name" v="Marikollskardet" />
		<tag k="natural" v="valley" />
		<tag k="place" v="locality" />
		<tag k="ssr:stedsnr" v="940617" />
	</node>
	<node id="-846454" lat="63.7971972179" lon="9.39783333811">
		<tag k="name" v="Lamberget" />
		<tag k="natural" v="hill" />
		<tag k="place" v="locality" />
		<tag k="ssr:stedsnr" v="91179" />
	</node>
	<node id="-846453" lat="63.7916694441" lon="9.64376943802">
		<tag k="name" v="Middagsreva" />
		<tag k="natural" v="valley" />
		<tag k="place" v="locality" />
		<tag k="ssr:stedsnr" v="515354" />
	</node>
	<node id="-844404" lat="63.7726055566" lon="9.97939999674">
		<tag k="name" v="Osphaugen" />
		<tag k="natural" v="hill" />
		<tag k="place" v="locality" />
		<tag k="ssr:stedsnr" v="819586" />
	</node>
	<node id="-844403" lat="63.8098083296" lon="10.1861888932">
		<tag k="name" v="Hammerdalshøgda" />
		<tag k="natural" v="hill" />
		<tag k="place" v="locality" />
		<tag k="ssr:stedsnr" v="588914" />
	</node>
	<node id="-846449" lat="63.8202694402" lon="9.63609722797">
		<tag k="name" v="Vorphaugen" />
		<tag k="natural" v="hill" />
		<tag k="place" v="locality" />
		<tag k="ssr:stedsnr" v="333751" />
	</node>
	<node id="-846445" lat="63.8392416671" lon="10.1531166714">
		<tag k="name" v="Elgholet" />
		<tag k="natural" v="valley" />
		<tag k="place" v="locality" />
		<tag k="ssr:stedsnr" v="880079" />
	</node>
	<node id="-846442" lat="63.7940999986" lon="9.67415277318">
		<tag k="fixme" v="consider natural=peak for the most distinct mountains in the district" />
		<tag k="name" v="Sal-lifjellet" />
		<tag k="natural" v="hill" />
		<tag k="place" v="locality" />
		<tag k="ssr:stedsnr" v="819518" />
	</node>
	<node id="-844393" lat="63.8962555523" lon="9.94856665744">
		<tag k="name" v="Øysterberga" />
		<tag k="natural" v="hill" />
		<tag k="place" v="locality" />
		<tag k="ssr:stedsnr" v="273534" />
	</node>
	<node id="-846438" lat="63.7346502967" lon="9.8166735112">
		<tag k="alt_name" v="Bjønnakammen" />
		<tag k="name" v="Bjørnakammen" />
		<tag k="natural" v="hill" />
		<tag k="place" v="locality" />
		<tag k="ssr:stedsnr" v="438180" />
	</node>
	<node id="-846437" lat="63.8154111106" lon="9.41285833615">
		<tag k="name" v="Gråsteinen" />
		<tag k="place" v="locality" />
		<tag k="ssr:stedsnr" v="576197" />
	</node>
	<node id="-846436" lat="63.8702166651" lon="10.0008861202">
		<tag k="name" v="Olaskardet" />
		<tag k="natural" v="valley" />
		<tag k="place" v="locality" />
		<tag k="ssr:stedsnr" v="13586" />
	</node>
	<node id="-846434" lat="63.8478027756" lon="10.1854777803">
		<tag k="name" v="Torsengdalen" />
		<tag k="natural" v="valley" />
		<tag k="place" v="locality" />
		<tag k="ssr:stedsnr" v="741113" />
	</node>
	<node id="-846431" lat="63.810127782" lon="10.1879083257">
		<tag k="name" v="Hammerdalshøgda" />
		<tag k="natural" v="hill" />
		<tag k="place" v="locality" />
		<tag k="ssr:stedsnr" v="394550" />
	</node>
	<node id="-846430" lat="63.8566055591" lon="10.0197249919">
		<tag k="name" v="Kubenken" />
		<tag k="natural" v="slope" />
		<tag k="place" v="locality" />
		<tag k="ssr:stedsnr" v="455102" />
	</node>
	<node id="-846429" lat="63.8083055544" lon="10.1909472132">
		<tag k="name" v="Hammerdalen" />
		<tag k="natural" v="valley" />
		<tag k="place" v="locality" />
		<tag k="ssr:stedsnr" v="103886" />
	</node>
	<node id="-844375" lat="63.7841055597" lon="9.64183055715">
		<tag k="fixme" v="consider natural=peak for the most distinct mountains in the district" />
		<tag k="name" v="Tønnølsfjellet" />
		<tag k="natural" v="hill" />
		<tag k="place" v="locality" />
		<tag k="ssr:stedsnr" v="13646" />
	</node>
	<node id="-846422" lat="63.8832527754" lon="9.90406388152">
		<tag k="fixme" v="consider natural=peak for the most distinct mountains in the district" />
		<tag k="name" v="Dyrfjellet" />
		<tag k="natural" v="hill" />
		<tag k="place" v="locality" />
		<tag k="ssr:stedsnr" v="151372" />
	</node>
	<node id="-846420" lat="63.7685111128" lon="9.63928611164">
		<tag k="name" v="Brudalslia" />
		<tag k="natural" v="slope" />
		<tag k="place" v="locality" />
		<tag k="ssr:stedsnr" v="74720" />
	</node>
	<node id="-846418" lat="63.7602361125" lon="9.83955555206">
		<tag k="fixme" v="consider natural=peak for the most distinct mountains in the district" />
		<tag k="name" v="Skjenstallen" />
		<tag k="natural" v="hill" />
		<tag k="place" v="locality" />
		<tag k="ssr:stedsnr" v="273440" />
	</node>
	<node id="-844365" lat="63.7846972185" lon="9.88416388659">
		<tag k="name" v="Langlien" />
		<tag k="natural" v="slope" />
		<tag k="place" v="locality" />
		<tag k="ssr:stedsnr" v="819606" />
	</node>
	<node id="-846756" lat="63.8204527742" lon="9.64275000192">
		<tag k="name" v="Harraberga" />
		<tag k="natural" v="hill" />
		<tag k="place" v="locality" />
		<tag k="ssr:stedsnr" v="30400" />
	</node>
	<node id="-846409" lat="63.8401361093" lon="10.2083638861">
		<tag k="name" v="Godliheia" />
		<tag k="natural" v="hill" />
		<tag k="place" v="locality" />
		<tag k="ssr:stedsnr" v="224216" />
	</node>
	<node id="-846406" lat="63.8534527816" lon="9.94852221376">
		<tag k="name" v="Sørvassvikern" />
		<tag k="natural" v="slope" />
		<tag k="place" v="locality" />
		<tag k="ssr:stedsnr" v="394530" />
	</node>
	<node id="-846404" lat="63.8319055588" lon="10.0550388834">
		<tag k="name" v="Bjønnastokken" />
		<tag k="natural" v="slope" />
		<tag k="place" v="locality" />
		<tag k="ssr:stedsnr" v="455086" />
	</node>
	<node id="-846401" lat="63.8400083302" lon="9.76044444031">
		<tag k="fixme" v="consider natural=peak for the most distinct mountains in the district" />
		<tag k="name" v="Jofjellet" />
		<tag k="natural" v="hill" />
		<tag k="place" v="locality" />
		<tag k="ssr:stedsnr" v="316074" />
	</node>
	<node id="-844352" lat="63.8275861152" lon="9.96846666058">
		<tag k="name" v="Svanaklumpen" />
		<tag k="natural" v="hill" />
		<tag k="place" v="locality" />
		<tag k="ssr:stedsnr" v="151037" />
	</node>
	<node id="-846399" lat="63.7575444447" lon="9.8426194474">
		<tag k="name" v="Bol" />
		<tag k="natural" v="hill" />
		<tag k="place" v="locality" />
		<tag k="ssr:stedsnr" v="880435" />
	</node>
	<node id="-846398" lat="63.7868583373" lon="9.6523027702">
		<tag k="name" v="Steinvikskardet" />
		<tag k="natural" v="valley" />
		<tag k="place" v="locality" />
		<tag k="ssr:stedsnr" v="802675" />
	</node>
	<node id="-844348" lat="63.770333335" lon="9.60130556489">
		<tag k="fixme" v="consider natural=peak for the most distinct mountains in the district" />
		<tag k="name" v="Makersfjellet" />
		<tag k="natural" v="hill" />
		<tag k="place" v="locality" />
		<tag k="ssr:stedsnr" v="498763" />
	</node>
	<node id="-844344" lat="63.7664000006" lon="9.9489388956">
		<tag k="name" v="Granlia" />
		<tag k="natural" v="slope" />
		<tag k="place" v="locality" />
		<tag k="ssr:stedsnr" v="576683" />
	</node>
	<node id="-844338" lat="63.8943250008" lon="9.80252500106">
		<tag k="name" v="Storhaugen" />
		<tag k="natural" v="hill" />
		<tag k="place" v="locality" />
		<tag k="ssr:stedsnr" v="91666" />
	</node>
	<node id="-844211" lat="63.8797000002" lon="9.91208333602">
		<tag k="name" v="Olderdalen" />
		<tag k="natural" v="valley" />
		<tag k="place" v="locality" />
		<tag k="ssr:stedsnr" v="394601" />
	</node>
	<node id="-846383" lat="63.7413194465" lon="9.89221111374">
		<tag k="name" v="Klubben" />
		<tag k="natural" v="hill" />
		<tag k="place" v="locality" />
		<tag k="ssr:stedsnr" v="863219" />
	</node>
	<node id="-844331" lat="63.8465944486" lon="10.1800027717">
		<tag k="name" v="Torsenglia" />
		<tag k="natural" v="slope" />
		<tag k="place" v="locality" />
		<tag k="ssr:stedsnr" v="698061" />
	</node>
	<node id="-846378" lat="63.8195972181" lon="9.79625000003">
		<tag k="name" v="Stokknesheia" />
		<tag k="natural" v="hill" />
		<tag k="place" v="locality" />
		<tag k="ssr:stedsnr" v="698765" />
	</node>
	<node id="-844328" lat="63.7826750029" lon="10.0957472189">
		<tag k="fixme" v="consider natural=peak for the most distinct mountains in the district" />
		<tag k="name" v="Holan" />
		<tag k="natural" v="hill" />
		<tag k="place" v="locality" />
		<tag k="ssr:stedsnr" v="455585" />
	</node>
	<node id="-846374" lat="63.7867583297" lon="9.85698056336">
		<tag k="name" v="Duhaugen" />
		<tag k="natural" v="hill" />
		<tag k="place" v="locality" />
		<tag k="ssr:stedsnr" v="863220" />
	</node>
	<node id="-846371" lat="63.8850999973" lon="9.99786665891">
		<tag k="name" v="Husmannslia" />
		<tag k="natural" v="slope" />
		<tag k="place" v="locality" />
		<tag k="ssr:stedsnr" v="940499" />
	</node>
	<node id="-846368" lat="63.8351333344" lon="9.73446111594">
		<tag k="fixme" v="consider natural=peak for the most distinct mountains in the district" />
		<tag k="name" v="Middagsfjellet" />
		<tag k="natural" v="hill" />
		<tag k="place" v="locality" />
		<tag k="ssr:stedsnr" v="741089" />
	</node>
	<node id="-846367" lat="63.8679694433" lon="9.77356667433">
		<tag k="name" v="Grytberget" />
		<tag k="natural" v="hill" />
		<tag k="place" v="locality" />
		<tag k="ssr:stedsnr" v="333740" />
	</node>
	<node id="-844318" lat="63.8222555555" lon="10.13436944">
		<tag k="name" v="Avkroken" />
		<tag k="natural" v="slope" />
		<tag k="place" v="locality" />
		<tag k="ssr:stedsnr" v="880121" />
	</node>
	<node id="-844317" lat="63.748100001" lon="9.85776111496">
		<tag k="name" v="Eidsskardet" />
		<tag k="natural" v="valley" />
		<tag k="place" v="locality" />
		<tag k="ssr:stedsnr" v="151452" />
	</node>
	<node id="-844316" lat="63.7460111122" lon="9.71565278658">
		<tag k="name" v="Reksterberget" />
		<tag k="natural" v="hill" />
		<tag k="place" v="locality" />
		<tag k="ssr:stedsnr" v="940160" />
	</node>
	<node id="-846362" lat="63.8286611096" lon="9.67044999958">
		<tag k="name" v="Laugåshaugen" />
		<tag k="natural" v="hill" />
		<tag k="place" v="locality" />
		<tag k="ssr:stedsnr" v="758772" />
	</node>
	<node id="-846361" lat="63.8025166682" lon="9.88913333589">
		<tag k="name" v="Slåttheia" />
		<tag k="natural" v="hill" />
		<tag k="place" v="locality" />
		<tag k="ssr:stedsnr" v="273044" />
	</node>
	<node id="-846360" lat="63.8038694446" lon="9.72702777621">
		<tag k="name" v="Fjøshaugen" />
		<tag k="natural" v="hill" />
		<tag k="place" v="locality" />
		<tag k="ssr:stedsnr" v="923013" />
	</node>
	<node id="-846359" lat="63.8772555517" lon="9.90617223053">
		<tag k="name" v="Skammingslia" />
		<tag k="natural" v="slope" />
		<tag k="place" v="locality" />
		<tag k="ssr:stedsnr" v="334573" />
	</node>
	<node id="-846355" lat="63.7586277761" lon="9.78924999251">
		<tag k="fixme" v="consider natural=peak for the most distinct mountains in the district" />
		<tag k="name" v="Dårfjellet" />
		<tag k="natural" v="hill" />
		<tag k="place" v="locality" />
		<tag k="ssr:stedsnr" v="819477" />
	</node>
	<node id="-846353" lat="63.8354972207" lon="10.025452779">
		<tag k="name" v="Snøholhøgden" />
		<tag k="natural" v="hill" />
		<tag k="place" v="locality" />
		<tag k="ssr:stedsnr" v="880045" />
	</node>
	<node id="-844304" lat="63.7463999988" lon="9.7941194348">
		<tag k="name" v="Klakkshaugen" />
		<tag k="natural" v="hill" />
		<tag k="place" v="locality" />
		<tag k="ssr:stedsnr" v="256174" />
	</node>
	<node id="-844303" lat="63.7419861124" lon="9.76468612046">
		<tag k="name" v="Flatheia" />
		<tag k="natural" v="hill" />
		<tag k="place" v="locality" />
		<tag k="ssr:stedsnr" v="940162" />
	</node>
	<node id="-846350" lat="63.7881944451" lon="9.79097222416">
		<tag k="name" v="Åkgårdshaugen" />
		<tag k="natural" v="hill" />
		<tag k="place" v="locality" />
		<tag k="ssr:stedsnr" v="863223" />
	</node>
	<node id="-844301" lat="63.7850138882" lon="10.005130548">
		<tag k="fixme" v="consider natural=peak for the most distinct mountains in the district" />
		<tag k="name" v="Gjøljakammen" />
		<tag k="natural" v="hill" />
		<tag k="old_name" v="Gjølgakammen" />
		<tag k="place" v="locality" />
		<tag k="ssr:stedsnr" v="438214" />
	</node>
	<node id="-844300" lat="63.7395694425" lon="9.76964722335">
		<tag k="name" v="Storkleiva" />
		<tag k="natural" v="hill" />
		<tag k="place" v="locality" />
		<tag k="ssr:stedsnr" v="940163" />
	</node>
	<node id="-846347" lat="63.7959444451" lon="10.0576750031">
		<tag k="name" v="Vargolliklumpen" />
		<tag k="natural" v="hill" />
		<tag k="place" v="locality" />
		<tag k="ssr:stedsnr" v="394538" />
	</node>
	<node id="-846346" lat="63.801858335" lon="9.7376333243">
		<tag k="name" v="Kopparlia" />
		<tag k="natural" v="slope" />
		<tag k="place" v="locality" />
		<tag k="ssr:stedsnr" v="698785" />
	</node>
	<node id="-846343" lat="63.7768499968" lon="9.84801944663">
		<tag k="fixme" v="consider natural=peak for the most distinct mountains in the district" />
		<tag k="name" v="Botnåsen" />
		<tag k="natural" v="hill" />
		<tag k="place" v="locality" />
		<tag k="ssr:stedsnr" v="758368" />
	</node>
	<node id="-846342" lat="63.8071222178" lon="9.72141388898">
		<tag k="name" v="Kjerralia" />
		<tag k="natural" v="slope" />
		<tag k="place" v="locality" />
		<tag k="ssr:stedsnr" v="758798" />
	</node>
	<node id="-844293" lat="63.8404361144" lon="9.73463889151">
		<tag k="fixme" v="consider natural=peak for the most distinct mountains in the district" />
		<tag k="name" v="Salfjellet" />
		<tag k="natural" v="hill" />
		<tag k="place" v="locality" />
		<tag k="ssr:stedsnr" v="212369" />
	</node>
	<node id="-844292" lat="63.7457777779" lon="9.887036109">
		<tag k="fixme" v="consider natural=peak for the most distinct mountains in the district" />
		<tag k="name" v="Novafjellet" />
		<tag k="natural" v="hill" />
		<tag k="place" v="locality" />
		<tag k="ssr:stedsnr" v="151454" />
	</node>
	<node id="-846339" lat="63.7589222209" lon="9.74030278242">
		<tag k="name" v="Ustaberget" />
		<tag k="natural" v="hill" />
		<tag k="place" v="locality" />
		<tag k="ssr:stedsnr" v="758369" />
	</node>
	<node id="-846338" lat="63.8557668138" lon="10.1967742853">
		<tag k="alt_name" v="Laugheia" />
		<tag k="name" v="Laugaheia" />
		<tag k="natural" v="hill" />
		<tag k="place" v="locality" />
		<tag k="ssr:stedsnr" v="680111" />
	</node>
	<node id="-844289" lat="63.8586361069" lon="9.95311667234">
		<tag k="name" v="Melvasslia" />
		<tag k="natural" v="slope" />
		<tag k="place" v="locality" />
		<tag k="ssr:stedsnr" v="819564" />
	</node>
	<node id="-846336" lat="63.8244972197" lon="9.65198055181">
		<tag k="name" v="Kråkberget" />
		<tag k="natural" v="hill" />
		<tag k="place" v="locality" />
		<tag k="ssr:stedsnr" v="515770" />
	</node>
	<node id="-844287" lat="63.8622999959" lon="9.70903888731">
		<tag k="name" v="Valan" />
		<tag k="natural" v="hill" />
		<tag k="place" v="locality" />
		<tag k="ssr:stedsnr" v="576668" />
	</node>
	<node id="-844285" lat="63.8472833344" lon="9.80461111084">
		<tag k="name" v="Storskardet" />
		<tag k="natural" v="valley" />
		<tag k="place" v="locality" />
		<tag k="ssr:stedsnr" v="758429" />
	</node>
	<node id="-846332" lat="63.7839777752" lon="9.78594165917">
		<tag k="name" v="Skurvheia" />
		<tag k="natural" v="hill" />
		<tag k="place" v="locality" />
		<tag k="ssr:stedsnr" v="923275" />
	</node>
	<node id="-844283" lat="63.7729222197" lon="9.81355278489">
		<tag k="name" v="Kamhaugen" />
		<tag k="natural" v="hill" />
		<tag k="place" v="locality" />
		<tag k="ssr:stedsnr" v="151446" />
	</node>
	<node id="-844282" lat="63.7686361142" lon="10.0275472129">
		<tag k="fixme" v="consider natural=peak for the most distinct mountains in the district" />
		<tag k="name" v="Kippnesklumpen" />
		<tag k="natural" v="hill" />
		<tag k="place" v="locality" />
		<tag k="ssr:stedsnr" v="455571" />
	</node>
	<node id="-846326" lat="63.7523583337" lon="9.6981666764">
		<tag k="name" v="Storvarden" />
		<tag k="natural" v="hill" />
		<tag k="place" v="locality" />
		<tag k="ssr:stedsnr" v="758363" />
	</node>
	<node id="-844276" lat="63.8572694457" lon="9.75241112106">
		<tag k="name" v="Hummelvarden" />
		<tag k="natural" v="hill" />
		<tag k="place" v="locality" />
		<tag k="ssr:stedsnr" v="91648" />
	</node>
	<node id="-844275" lat="63.7638555514" lon="10.0107805651">
		<tag k="name" v="Bekkadalen" />
		<tag k="natural" v="valley" />
		<tag k="place" v="locality" />
		<tag k="ssr:stedsnr" v="455569" />
	</node>
	<node id="-846322" lat="63.8963083316" lon="9.85072222027">
		<tag k="name" v="Larsskoret" />
		<tag k="natural" v="valley" />
		<tag k="place" v="locality" />
		<tag k="ssr:stedsnr" v="394518" />
	</node>
	<node id="-844272" lat="63.8749638919" lon="9.86826945456">
		<tag k="fixme" v="consider natural=peak for the most distinct mountains in the district" />
		<tag k="name" v="Storrømmesfjellet" />
		<tag k="natural" v="hill" />
		<tag k="place" v="locality" />
		<tag k="ssr:stedsnr" v="940585" />
	</node>
	<node id="-844268" lat="63.7480083373" lon="9.78824445401">
		<tag k="name" v="Grønskogskarda" />
		<tag k="natural" v="valley" />
		<tag k="place" v="locality" />
		<tag k="ssr:stedsnr" v="940157" />
	</node>
	<node id="-844260" lat="63.8045166655" lon="9.89193610331">
		<tag k="name" v="Dragan" />
		<tag k="natural" v="hill" />
		<tag k="place" v="locality" />
		<tag k="ssr:stedsnr" v="698024" />
	</node>
	<node id="-846304" lat="63.8136527769" lon="9.65746667641">
		<tag k="name" v="Sandahaugan" />
		<tag k="natural" v="hill" />
		<tag k="place" v="locality" />
		<tag k="ssr:stedsnr" v="515778" />
	</node>
	<node id="-846303" lat="63.8541499965" lon="10.007455546">
		<tag k="alt_name" v="Roliholet" />
		<tag k="name" v="Roligholet" />
		<tag k="natural" v="valley" />
		<tag k="place" v="locality" />
		<tag k="ssr:stedsnr" v="802135" />
	</node>
	<node id="-846301" lat="63.8073611092" lon="9.663247214">
		<tag k="name" v="Skjulberget" />
		<tag k="natural" v="hill" />
		<tag k="place" v="locality" />
		<tag k="ssr:stedsnr" v="151355" />
	</node>
	<node id="-846300" lat="63.7371083375" lon="9.82387500198">
		<tag k="name" v="Eidsbrekka" />
		<tag k="natural" v="valley" />
		<tag k="place" v="locality" />
		<tag k="ssr:stedsnr" v="515326" />
	</node>
	<node id="-846298" lat="63.8733944419" lon="9.79812221247">
		<tag k="name" v="Litl-Ørnvikhaugan" />
		<tag k="natural" v="hill" />
		<tag k="place" v="locality" />
		<tag k="ssr:stedsnr" v="30747" />
	</node>
	<node id="-844249" lat="63.7770472219" lon="9.86184165727">
		<tag k="name" v="Kjerringdalen" />
		<tag k="natural" v="valley" />
		<tag k="place" v="locality" />
		<tag k="ssr:stedsnr" v="151439" />
	</node>
	<node id="-844248" lat="63.7894611149" lon="10.0584361177">
		<tag k="name" v="Barelia" />
		<tag k="natural" v="slope" />
		<tag k="place" v="locality" />
		<tag k="ssr:stedsnr" v="940603" />
	</node>
	<node id="-846291" lat="63.8384416709" lon="10.0205138802">
		<tag k="name" v="Snøholet" />
		<tag k="natural" v="valley" />
		<tag k="place" v="locality" />
		<tag k="ssr:stedsnr" v="316069" />
	</node>
	<node id="-846288" lat="63.7372388854" lon="9.78770834082">
		<tag k="name" v="Råa" />
		<tag k="natural" v="slope" />
		<tag k="place" v="locality" />
		<tag k="ssr:stedsnr" v="394123" />
	</node>
	<node id="-844536" lat="63.8091472189" lon="10.1914999924">
		<tag k="name" v="Elgholet" />
		<tag k="natural" v="valley" />
		<tag k="place" v="locality" />
		<tag k="ssr:stedsnr" v="636571" />
	</node>
	<node id="-846285" lat="63.7454833354" lon="9.90284444353">
		<tag k="name" v="Merraberget" />
		<tag k="natural" v="hill" />
		<tag k="place" v="locality" />
		<tag k="ssr:stedsnr" v="880444" />
	</node>
	<node id="-844236" lat="63.8524805568" lon="9.85588055766">
		<tag k="name" v="Bryggberget" />
		<tag k="natural" v="hill" />
		<tag k="place" v="locality" />
		<tag k="ssr:stedsnr" v="455551" />
	</node>
	<node id="-846283" lat="63.825836112" lon="9.68428889113">
		<tag k="name" v="Valskardhaugen" />
		<tag k="natural" v="hill" />
		<tag k="place" v="locality" />
		<tag k="ssr:stedsnr" v="212703" />
	</node>
	<node id="-844232" lat="63.7889583291" lon="9.60451667212">
		<tag k="name" v="Strandahaugen" />
		<tag k="natural" v="hill" />
		<tag k="place" v="locality" />
		<tag k="ssr:stedsnr" v="880524" />
	</node>
	<node id="-846276" lat="63.7269833363" lon="9.87305833662">
		<tag k="fixme" v="consider natural=peak for the most distinct mountains in the district" />
		<tag k="name" v="Skarvskjettet" />
		<tag k="natural" v="hill" />
		<tag k="place" v="locality" />
		<tag k="ssr:stedsnr" v="515330" />
	</node>
	<node id="-846275" lat="63.767225002" lon="9.67587778236">
		<tag k="name" v="Nephaugen" />
		<tag k="natural" v="hill" />
		<tag k="place" v="locality" />
		<tag k="ssr:stedsnr" v="394526" />
	</node>
	<node id="-844226" lat="63.7149027751" lon="9.80529723136">
		<tag k="name" v="Kvernaholet" />
		<tag k="natural" v="valley" />
		<tag k="place" v="locality" />
		<tag k="ssr:stedsnr" v="819159" />
	</node>
	<node id="-846273" lat="63.7320611108" lon="9.82419721538">
		<tag k="name" v="Heggdalen" />
		<tag k="natural" v="valley" />
		<tag k="place" v="locality" />
		<tag k="ssr:stedsnr" v="819455" />
	</node>
	<node id="-846270" lat="63.8183305549" lon="10.139238898">
		<tag k="fixme" v="consider natural=peak for the most distinct mountains in the district" />
		<tag k="name" v="Torsengkammen" />
		<tag k="natural" v="hill" />
		<tag k="place" v="locality" />
		<tag k="ssr:stedsnr" v="255044" />
	</node>
	<node id="-846269" lat="63.8003444474" lon="9.94506667377">
		<tag k="name" v="Liaskardet" />
		<tag k="natural" v="valley" />
		<tag k="place" v="locality" />
		<tag k="ssr:stedsnr" v="576558" />
	</node>
	<node id="-844220" lat="63.891316667" lon="9.92651111466">
		<tag k="name" v="Sjøbakken" />
		<tag k="natural" v="slope" />
		<tag k="place" v="locality" />
		<tag k="ssr:stedsnr" v="940610" />
	</node>
	<node id="-844219" lat="63.8340250016" lon="9.89331666887">
		<tag k="fixme" v="consider natural=peak for the most distinct mountains in the district" />
		<tag k="name" v="Middagsfjellet" />
		<tag k="natural" v="hill" />
		<tag k="place" v="locality" />
		<tag k="ssr:stedsnr" v="923074" />
	</node>
	<node id="-844218" lat="63.876952774" lon="9.86794444706">
		<tag k="name" v="Kulia" />
		<tag k="natural" v="slope" />
		<tag k="place" v="locality" />
		<tag k="ssr:stedsnr" v="394594" />
	</node>
	<node id="-846265" lat="63.8021111122" lon="9.69003056534">
		<tag k="name" v="Ryskardet" />
		<tag k="natural" v="valley" />
		<tag k="place" v="locality" />
		<tag k="ssr:stedsnr" v="636394" />
	</node>
	<node id="-846261" lat="63.8594444418" lon="9.78278055683">
		<tag k="name" v="Århaugen" />
		<tag k="natural" v="hill" />
		<tag k="place" v="locality" />
		<tag k="ssr:stedsnr" v="515758" />
	</node>
	<node id="-846260" lat="63.8009416672" lon="9.8822000067">
		<tag k="name" v="Granholskardet" />
		<tag k="natural" v="valley" />
		<tag k="place" v="locality" />
		<tag k="ssr:stedsnr" v="880026" />
	</node>
	<node id="-846259" lat="63.7338305518" lon="9.76723055033">
		<tag k="name" v="Hatten" />
		<tag k="natural" v="hill" />
		<tag k="place" v="locality" />
		<tag k="ssr:stedsnr" v="576150" />
	</node>
	<node id="-844531" lat="63.8385055565" lon="9.9170472323">
		<tag k="name" v="Krekkan" />
		<tag k="natural" v="slope" />
		<tag k="place" v="locality" />
		<tag k="ssr:stedsnr" v="576704" />
	</node>
	<node id="-844208" lat="63.7728472225" lon="9.57608056173">
		<tag k="name" v="Klaskarberget" />
		<tag k="natural" v="hill" />
		<tag k="place" v="locality" />
		<tag k="ssr:stedsnr" v="880515" />
	</node>
	<node id="-846255" lat="63.8372305514" lon="9.66974444458">
		<tag k="name" v="Oterhaugen" />
		<tag k="natural" v="hill" />
		<tag k="place" v="locality" />
		<tag k="ssr:stedsnr" v="394503" />
	</node>
	<node id="-846253" lat="63.7914055594" lon="9.80928610531">
		<tag k="fixme" v="consider natural=peak for the most distinct mountains in the district" />
		<tag k="name" v="Liafjellet" />
		<tag k="natural" v="hill" />
		<tag k="place" v="locality" />
		<tag k="ssr:stedsnr" v="619271" />
	</node>
	<node id="-844202" lat="63.8043611118" lon="9.43216667424">
		<tag k="name" v="Nausthaugan" />
		<tag k="natural" v="hill" />
		<tag k="place" v="locality" />
		<tag k="ssr:stedsnr" v="940168" />
	</node>
	<node id="-844549" lat="63.8574055544" lon="10.008866671">
		<tag k="name" v="Seterheian" />
		<tag k="natural" v="hill" />
		<tag k="place" v="locality" />
		<tag k="ssr:stedsnr" v="698099" />
	</node>
	<node id="-846245" lat="63.7723777745" lon="9.98954999011">
		<tag k="name" v="Stallvikheia" />
		<tag k="natural" v="hill" />
		<tag k="place" v="locality" />
		<tag k="ssr:stedsnr" v="863211" />
	</node>
	<node id="-846244" lat="63.7541361079" lon="9.8647888893">
		<tag k="name" v="Slættskardet" />
		<tag k="natural" v="valley" />
		<tag k="place" v="locality" />
		<tag k="ssr:stedsnr" v="151338" />
	</node>
	<node id="-846243" lat="63.7796583337" lon="9.84823610728">
		<tag k="name" v="Kronglidalen" />
		<tag k="natural" v="valley" />
		<tag k="place" v="locality" />
		<tag k="ssr:stedsnr" v="880401" />
	</node>
	<node id="-844192" lat="63.8497555586" lon="10.203774999">
		<tag k="name" v="Torsengdalen" />
		<tag k="natural" v="valley" />
		<tag k="place" v="locality" />
		<tag k="ssr:stedsnr" v="952536" />
	</node>
	<node id="-846239" lat="63.8107833324" lon="9.40897222531">
		<tag k="name" v="Måsmyrskardet" />
		<tag k="natural" v="valley" />
		<tag k="place" v="locality" />
		<tag k="ssr:stedsnr" v="576155" />
	</node>
	<node id="-844187" lat="63.7501777785" lon="9.74208333842">
		<tag k="name" v="Storhaugen" />
		<tag k="natural" v="hill" />
		<tag k="place" v="locality" />
		<tag k="ssr:stedsnr" v="30404" />
	</node>
	<node id="-846234" lat="63.8627666688" lon="9.91986388962">
		<tag k="fixme" v="consider natural=peak for the most distinct mountains in the district" />
		<tag k="name" v="Bakkafjellet" />
		<tag k="natural" v="hill" />
		<tag k="place" v="locality" />
		<tag k="ssr:stedsnr" v="558139" />
	</node>
	<node id="-846233" lat="63.7536166706" lon="9.79689165808">
		<tag k="name" v="Grønvollaksla" />
		<tag k="natural" v="hill" />
		<tag k="place" v="locality" />
		<tag k="ssr:stedsnr" v="455465" />
	</node>
	<node id="-844183" lat="63.8822472187" lon="9.88349722948">
		<tag k="name" v="Breiskardet" />
		<tag k="natural" v="valley" />
		<tag k="place" v="locality" />
		<tag k="ssr:stedsnr" v="394600" />
	</node>
	<node id="-844181" lat="63.7825611074" lon="10.0292722176">
		<tag k="name" v="Karidalsbrottet" />
		<tag k="natural" v="valley" />
		<tag k="place" v="locality" />
		<tag k="ssr:stedsnr" v="91638" />
	</node>
	<node id="-846228" lat="63.8408666665" lon="9.75348333379">
		<tag k="fixme" v="consider natural=peak for the most distinct mountains in the district" />
		<tag k="name" v="Osplifjellet" />
		<tag k="natural" v="hill" />
		<tag k="place" v="locality" />
		<tag k="ssr:stedsnr" v="30734" />
	</node>
	<node id="-846227" lat="63.8144083351" lon="9.85583056522">
		<tag k="name" v="Osplia" />
		<tag k="natural" v="slope" />
		<tag k="place" v="locality" />
		<tag k="ssr:stedsnr" v="376042" />
	</node>
	<node id="-846218" lat="63.8147333331" lon="10.0884166737">
		<tag k="name" v="Svartdalskammen" />
		<tag k="natural" v="hill" />
		<tag k="place" v="locality" />
		<tag k="ssr:stedsnr" v="334546" />
	</node>
	<node id="-846215" lat="63.759913891" lon="9.7649500094">
		<tag k="fixme" v="consider natural=peak for the most distinct mountains in the district" />
		<tag k="name" v="Kleivafjellet" />
		<tag k="natural" v="hill" />
		<tag k="place" v="locality" />
		<tag k="ssr:stedsnr" v="515314" />
	</node>
	<node id="-846214" lat="63.8725805517" lon="9.95877778221">
		<tag k="name" v="Kvennavasslia" />
		<tag k="natural" v="slope" />
		<tag k="place" v="locality" />
		<tag k="ssr:stedsnr" v="576571" />
	</node>
	<node id="-846213" lat="63.8449416669" lon="9.74568055961">
		<tag k="name" v="Barskardet" />
		<tag k="natural" v="valley" />
		<tag k="place" v="locality" />
		<tag k="ssr:stedsnr" v="333713" />
	</node>
	<node id="-846210" lat="63.7303416656" lon="9.78961388089">
		<tag k="fixme" v="consider natural=peak for the most distinct mountains in the district" />
		<tag k="name" v="Kalvåfjellet" />
		<tag k="natural" v="hill" />
		<tag k="place" v="locality" />
		<tag k="ssr:stedsnr" v="91139" />
	</node>
	<node id="-844154" lat="63.8840916627" lon="9.97953333788">
		<tag k="name" v="Seterskardet" />
		<tag k="natural" v="valley" />
		<tag k="place" v="locality" />
		<tag k="ssr:stedsnr" v="334336" />
	</node>
	<node id="-844153" lat="63.8683666667" lon="10.0029138959">
		<tag k="name" v="Øver Olaskardet" />
		<tag k="natural" v="valley" />
		<tag k="place" v="locality" />
		<tag k="ssr:stedsnr" v="334071" />
	</node>
	<node id="-844151" lat="63.7209169146" lon="9.7975976015">
		<tag k="name" v="Reksterhaugen" />
		<tag k="natural" v="hill" />
		<tag k="place" v="locality" />
		<tag k="ssr:stedsnr" v="217768" />
	</node>
	<node id="-846198" lat="63.8432111075" lon="9.74303888805">
		<tag k="fixme" v="consider natural=peak for the most distinct mountains in the district" />
		<tag k="name" v="Kristianfjellet" />
		<tag k="natural" v="hill" />
		<tag k="place" v="locality" />
		<tag k="ssr:stedsnr" v="30731" />
	</node>
	<node id="-846196" lat="63.7538166624" lon="9.8715249972">
		<tag k="name" v="Krylskardet" />
		<tag k="natural" v="valley" />
		<tag k="place" v="locality" />
		<tag k="ssr:stedsnr" v="455446" />
	</node>
	<node id="-846195" lat="63.7980194488" lon="9.93338056276">
		<tag k="fixme" v="consider natural=peak for the most distinct mountains in the district" />
		<tag k="name" v="Rauhammaren" />
		<tag k="natural" v="hill" />
		<tag k="place" v="locality" />
		<tag k="ssr:stedsnr" v="273006" />
	</node>
	<node id="-846183" lat="63.8079555601" lon="9.8312638861">
		<tag k="alt_name" v="Toftheia;Toftheian" />
		<tag k="name" v="Tofteheia" />
		<tag k="natural" v="hill" />
		<tag k="place" v="locality" />
		<tag k="ssr:stedsnr" v="255039" />
	</node>
	<node id="-846178" lat="63.7424694443" lon="9.89811112022">
		<tag k="name" v="Kuppelvikdalen" />
		<tag k="natural" v="valley" />
		<tag k="place" v="locality" />
		<tag k="ssr:stedsnr" v="819469" />
	</node>
	<node id="-844197" lat="63.8027722242" lon="9.85040278582">
		<tag k="name" v="Nyseterlibakken" />
		<tag k="natural" v="slope" />
		<tag k="place" v="locality" />
		<tag k="ssr:stedsnr" v="151011" />
	</node>
	<node id="-846172" lat="63.8104305579" lon="10.1018111196">
		<tag k="name" v="Storrholkammen" />
		<tag k="natural" v="hill" />
		<tag k="place" v="locality" />
		<tag k="ssr:stedsnr" v="576550" />
	</node>
	<node id="-846168" lat="63.796794448" lon="10.066752784">
		<tag k="name" v="Halsen" />
		<tag k="natural" v="hill" />
		<tag k="place" v="locality" />
		<tag k="ssr:stedsnr" v="619004" />
	</node>
	<node id="-846165" lat="63.8398527764" lon="10.2109444449">
		<tag k="alt_name" v="Godliheia" />
		<tag k="name" v="Goliheia" />
		<tag k="natural" v="hill" />
		<tag k="place" v="locality" />
		<tag k="ssr:stedsnr" v="741083" />
	</node>
	<node id="-846162" lat="63.7889833372" lon="10.1262249909">
		<tag k="name" v="Jutulheia" />
		<tag k="natural" v="hill" />
		<tag k="place" v="locality" />
		<tag k="ssr:stedsnr" v="619278" />
	</node>
	<node id="-846160" lat="63.8410305553" lon="9.76597776973">
		<tag k="fixme" v="consider natural=peak for the most distinct mountains in the district" />
		<tag k="name" v="Innertussen" />
		<tag k="natural" v="hill" />
		<tag k="place" v="locality" />
		<tag k="ssr:stedsnr" v="333704" />
	</node>
	<node id="-846159" lat="63.8271111108" lon="9.97682777608">
		<tag k="name" v="Langtjønnlia" />
		<tag k="natural" v="slope" />
		<tag k="place" v="locality" />
		<tag k="ssr:stedsnr" v="880032" />
	</node>
	<node id="-844205" lat="63.7881222265" lon="9.92682778723">
		<tag k="name" v="Svartvasskollen" />
		<tag k="natural" v="hill" />
		<tag k="place" v="locality" />
		<tag k="ssr:stedsnr" v="74217" />
	</node>
	<node id="-846146" lat="63.832999996" lon="9.83339723077">
		<tag k="fixme" v="consider natural=peak for the most distinct mountains in the district" />
		<tag k="name" v="Kattafjellet" />
		<tag k="natural" v="hill" />
		<tag k="place" v="locality" />
		<tag k="ssr:stedsnr" v="212675" />
	</node>
	<node id="-846145" lat="63.7415444443" lon="9.79485556339">
		<tag k="name" v="Stortrengselsborg" />
		<tag k="natural" v="hill" />
		<tag k="place" v="locality" />
		<tag k="ssr:stedsnr" v="91135" />
	</node>
	<node id="-846142" lat="63.7727888858" lon="9.76238611864">
		<tag k="name" v="Smedheia" />
		<tag k="natural" v="hill" />
		<tag k="place" v="locality" />
		<tag k="ssr:stedsnr" v="455457" />
	</node>
	<node id="-846141" lat="63.8946638913" lon="9.8456222134">
		<tag k="name" v="Akimskoret" />
		<tag k="natural" v="valley" />
		<tag k="place" v="locality" />
		<tag k="ssr:stedsnr" v="91533" />
	</node>
	<node id="-846139" lat="63.7676111109" lon="9.68224999529">
		<tag k="name" v="Vikamoen" />
		<tag k="place" v="locality" />
		<tag k="ssr:stedsnr" v="698337" />
	</node>
	<node id="-846131" lat="63.7571638901" lon="9.80463887911">
		<tag k="name" v="Nonshaugen" />
		<tag k="natural" v="hill" />
		<tag k="place" v="locality" />
		<tag k="ssr:stedsnr" v="394497" />
	</node>
	<node id="-846123" lat="63.8168027811" lon="9.67468888589">
		<tag k="fixme" v="consider natural=peak for the most distinct mountains in the district" />
		<tag k="name" v="Oksvollvarden" />
		<tag k="natural" v="hill" />
		<tag k="place" v="locality" />
		<tag k="ssr:stedsnr" v="698339" />
	</node>
	<node id="-846122" lat="63.8446472213" lon="10.1979944435">
		<tag k="name" v="Torsengheia" />
		<tag k="natural" v="hill" />
		<tag k="place" v="locality" />
		<tag k="ssr:stedsnr" v="377079" />
	</node>
	<node id="-846120" lat="63.7677972204" lon="9.58528610672">
		<tag k="name" v="Varden" />
		<tag k="natural" v="hill" />
		<tag k="place" v="locality" />
		<tag k="ssr:stedsnr" v="576530" />
	</node>
	<node id="-846113" lat="63.8373722212" lon="9.75396944964">
		<tag k="fixme" v="consider natural=peak for the most distinct mountains in the district" />
		<tag k="name" v="Tømmervikklumpen" />
		<tag k="natural" v="hill" />
		<tag k="place" v="locality" />
		<tag k="ssr:stedsnr" v="30716" />
	</node>
	<node id="-846110" lat="63.8188555598" lon="9.98344444293">
		<tag k="name" v="Skjenngrasholet" />
		<tag k="place" v="locality" />
		<tag k="ssr:stedsnr" v="455035" />
	</node>
	<node id="-846106" lat="63.7484277818" lon="9.85537221608">
		<tag k="name" v="Eidskarklumpen" />
		<tag k="natural" v="hill" />
		<tag k="place" v="locality" />
		<tag k="ssr:stedsnr" v="559177" />
	</node>
	<node id="-846105" lat="63.8193055561" lon="9.68341110462">
		<tag k="name" v="Eidshaugen" />
		<tag k="natural" v="hill" />
		<tag k="place" v="locality" />
		<tag k="ssr:stedsnr" v="333684" />
	</node>
	<node id="-846101" lat="63.7686499994" lon="9.88768055816">
		<tag k="name" v="Svartskoghaugen" />
		<tag k="natural" v="hill" />
		<tag k="place" v="locality" />
		<tag k="ssr:stedsnr" v="212665" />
	</node>
	<node id="-846099" lat="63.8721305573" lon="9.98826944753">
		<tag k="fixme" v="consider natural=peak for the most distinct mountains in the district" />
		<tag k="name" v="Bjønnastokken" />
		<tag k="natural" v="hill" />
		<tag k="place" v="locality" />
		<tag k="ssr:stedsnr" v="334512" />
	</node>
	<node id="-844186" lat="63.8625166698" lon="10.04903888">
		<tag k="name" v="Tverrbekklia" />
		<tag k="natural" v="slope" />
		<tag k="place" v="locality" />
		<tag k="ssr:stedsnr" v="316123" />
	</node>
	<node id="-846087" lat="63.7681055563" lon="9.59490276987">
		<tag k="name" v="Lauvskardhaugen" />
		<tag k="natural" v="hill" />
		<tag k="place" v="locality" />
		<tag k="ssr:stedsnr" v="576535" />
	</node>
	<node id="-846086" lat="63.8487527766" lon="9.71145833711">
		<tag k="name" v="Nordhaugen" />
		<tag k="natural" v="hill" />
		<tag k="place" v="locality" />
		<tag k="ssr:stedsnr" v="151755" />
	</node>
	<node id="-846083" lat="63.8174333366" lon="9.82566388486">
		<tag k="name" v="Sløngliheia" />
		<tag k="natural" v="hill" />
		<tag k="place" v="locality" />
		<tag k="ssr:stedsnr" v="212670" />
	</node>
	<node id="-846078" lat="63.8582222257" lon="9.90464166078">
		<tag k="fixme" v="consider natural=peak for the most distinct mountains in the district" />
		<tag k="name" v="Steggafjellet" />
		<tag k="natural" v="hill" />
		<tag k="place" v="locality" />
		<tag k="ssr:stedsnr" v="558122" />
	</node>
	<node id="-846072" lat="63.8786583322" lon="9.99795000997">
		<tag k="name" v="Gammelseterflauget" />
		<tag k="natural" v="cliff" />
		<tag k="ssr:stedsnr" v="334522" />
	</node>
	<node id="-846068" lat="63.8107638864" lon="9.67455000313">
		<tag k="name" v="Myrahaugan" />
		<tag k="natural" v="hill" />
		<tag k="place" v="locality" />
		<tag k="ssr:stedsnr" v="91518" />
	</node>
	<node id="-846065" lat="63.812930552" lon="9.87814721655">
		<tag k="name" v="Jøvassheia" />
		<tag k="natural" v="hill" />
		<tag k="place" v="locality" />
		<tag k="ssr:stedsnr" v="940027" />
	</node>
	<node id="-846064" lat="63.7580194424" lon="9.74735556514">
		<tag k="name" v="Ramberget" />
		<tag k="natural" v="hill" />
		<tag k="place" v="locality" />
		<tag k="ssr:stedsnr" v="923229" />
	</node>
	<node id="-846061" lat="63.8395305599" lon="9.79726388996">
		<tag k="fixme" v="consider natural=peak for the most distinct mountains in the district" />
		<tag k="name" v="Hammaren" />
		<tag k="natural" v="hill" />
		<tag k="place" v="locality" />
		<tag k="ssr:stedsnr" v="880378" />
	</node>
	<node id="-846059" lat="63.8331694474" lon="9.86588055265">
		<tag k="name" v="Seterskardet" />
		<tag k="natural" v="valley" />
		<tag k="place" v="locality" />
		<tag k="ssr:stedsnr" v="212657" />
	</node>
	<node id="-846055" lat="63.8764111114" lon="9.8981416697">
		<tag k="name" v="Breidskardet" />
		<tag k="natural" v="valley" />
		<tag k="place" v="locality" />
		<tag k="ssr:stedsnr" v="255566" />
	</node>
	<node id="-846028" lat="63.8435277756" lon="9.69434721469">
		<tag k="name" v="Skardaheia" />
		<tag k="natural" v="hill" />
		<tag k="place" v="locality" />
		<tag k="ssr:stedsnr" v="636382" />
	</node>
	<node id="-846027" lat="63.8611416642" lon="9.79449999195">
		<tag k="name" v="Kjempaberga" />
		<tag k="natural" v="hill" />
		<tag k="place" v="locality" />
		<tag k="ssr:stedsnr" v="698729" />
	</node>
	<node id="-846023" lat="63.8597944452" lon="9.8122972122">
		<tag k="fixme" v="consider natural=peak for the most distinct mountains in the district" />
		<tag k="name" v="Kamfjellet" />
		<tag k="natural" v="hill" />
		<tag k="place" v="locality" />
		<tag k="ssr:stedsnr" v="698323" />
	</node>
	<node id="-846020" lat="63.8479222182" lon="9.87619999414">
		<tag k="fixme" v="multiple name tags, choose one and add the other to alt_name; consider natural=peak for the most distinct mountains in the district" />
		<tag k="name" v="Kamfjellet;Strandafjellet" />
		<tag k="natural" v="hill" />
		<tag k="place" v="locality" />
		<tag k="ssr:stedsnr" v="256082" />
	</node>
	<node id="-846018" lat="63.855916668" lon="9.85904723223">
		<tag k="name" v="Bryggberget" />
		<tag k="natural" v="hill" />
		<tag k="place" v="locality" />
		<tag k="ssr:stedsnr" v="636380" />
	</node>
	<node id="-846017" lat="63.831583333" lon="9.66524166988">
		<tag k="name" v="Gangstøa" />
		<tag k="natural" v="hill" />
		<tag k="place" v="locality" />
		<tag k="ssr:stedsnr" v="273376" />
	</node>
	<node id="-846016" lat="63.8310305534" lon="10.0985555541">
		<tag k="alt_name" v="Vakkerseterliheia" />
		<tag k="name" v="Vakkersæterliheia" />
		<tag k="natural" v="hill" />
		<tag k="place" v="locality" />
		<tag k="ssr:stedsnr" v="620069" />
	</node>
	<node id="-846015" lat="63.7942555578" lon="9.65604722099">
		<tag k="name" v="Ormlian" />
		<tag k="natural" v="slope" />
		<tag k="place" v="locality" />
		<tag k="ssr:stedsnr" v="91515" />
	</node>
	<node id="-846012" lat="63.8398611096" lon="9.72817499817">
		<tag k="fixme" v="consider natural=peak for the most distinct mountains in the district" />
		<tag k="name" v="Espefjellet" />
		<tag k="natural" v="hill" />
		<tag k="place" v="locality" />
		<tag k="ssr:stedsnr" v="151742" />
	</node>
	<node id="-846004" lat="63.8884305576" lon="9.78425554781">
		<tag k="name" v="Nausthaugen" />
		<tag k="natural" v="hill" />
		<tag k="place" v="locality" />
		<tag k="ssr:stedsnr" v="212654" />
	</node>
	<node id="-845997" lat="63.8552000004" lon="10.0723833248">
		<tag k="name" v="Nyvassdalen" />
		<tag k="natural" v="valley" />
		<tag k="place" v="locality" />
		<tag k="ssr:stedsnr" v="256084" />
	</node>
	<node id="-845996" lat="63.8345250022" lon="9.67399167251">
		<tag k="name" v="Maridalen" />
		<tag k="natural" v="valley" />
		<tag k="place" v="locality" />
		<tag k="ssr:stedsnr" v="940469" />
	</node>
	<node id="-845990" lat="63.8197222237" lon="9.76440555909">
		<tag k="name" v="Smørskardet" />
		<tag k="natural" v="valley" />
		<tag k="place" v="locality" />
		<tag k="ssr:stedsnr" v="880800" />
	</node>
	<node id="-845989" lat="63.8119527793" lon="9.99188611374">
		<tag k="name" v="Trolldalen" />
		<tag k="natural" v="valley" />
		<tag k="place" v="locality" />
		<tag k="ssr:stedsnr" v="819025" />
	</node>
	<node id="-845986" lat="63.820508335" lon="9.40888611593">
		<tag k="name" v="Boklingshaugen" />
		<tag k="natural" v="hill" />
		<tag k="place" v="locality" />
		<tag k="ssr:stedsnr" v="333238" />
	</node>
	<node id="-845983" lat="63.8275361097" lon="9.79615278659">
		<tag k="name" v="Skardet" />
		<tag k="natural" v="valley" />
		<tag k="place" v="locality" />
		<tag k="ssr:stedsnr" v="273810" />
	</node>
	<node id="-845982" lat="63.762738891" lon="9.71884999791">
		<tag k="name" v="Fruvika" />
		<tag k="natural" v="slope" />
		<tag k="place" v="locality" />
		<tag k="ssr:stedsnr" v="880390" />
	</node>
	<node id="-846469" lat="63.8242694458" lon="10.0508944363">
		<tag k="name" v="Storrognholet" />
		<tag k="natural" v="valley" />
		<tag k="place" v="locality" />
		<tag k="ssr:stedsnr" v="880086" />
	</node>
	<node id="-844608" lat="63.8151111081" lon="9.90305554845">
		<tag k="name" v="Svartdalen" />
		<tag k="natural" v="valley" />
		<tag k="place" v="locality" />
		<tag k="ssr:stedsnr" v="30059" />
	</node>
	<node id="-845969" lat="63.7252749995" lon="9.86675278338">
		<tag k="fixme" v="consider natural=peak for the most distinct mountains in the district" />
		<tag k="name" v="Råddavika" />
		<tag k="natural" v="hill" />
		<tag k="place" v="locality" />
		<tag k="ssr:stedsnr" v="819437" />
	</node>
	<node id="-845962" lat="63.8308444415" lon="9.8227944478">
		<tag k="fixme" v="consider natural=peak for the most distinct mountains in the district" />
		<tag k="name" v="Kufjellet" />
		<tag k="natural" v="hill" />
		<tag k="place" v="locality" />
		<tag k="ssr:stedsnr" v="620064" />
	</node>
	<node id="-845958" lat="63.8162083339" lon="9.753366664">
		<tag k="alt_name" v="Bolinskardet" />
		<tag k="name" v="Bolingskardet" />
		<tag k="natural" v="valley" />
		<tag k="place" v="locality" />
		<tag k="ssr:stedsnr" v="377051" />
	</node>
	<node id="-845955" lat="63.8564916669" lon="9.90073611551">
		<tag k="fixme" v="consider natural=peak for the most distinct mountains in the district" />
		<tag k="name" v="Støren" />
		<tag k="natural" v="hill" />
		<tag k="place" v="locality" />
		<tag k="ssr:stedsnr" v="758704" />
	</node>
	<node id="-845954" lat="63.7496361104" lon="9.86095276882">
		<tag k="name" v="Tjuvskardet" />
		<tag k="natural" v="valley" />
		<tag k="place" v="locality" />
		<tag k="ssr:stedsnr" v="394455" />
	</node>
	<node id="-845953" lat="63.8371527818" lon="9.78208056378">
		<tag k="name" v="Ørnhaugen" />
		<tag k="natural" v="hill" />
		<tag k="place" v="locality" />
		<tag k="ssr:stedsnr" v="698694" />
	</node>
	<node id="-845944" lat="63.8844055527" lon="9.84480000781">
		<tag k="name" v="Varden" />
		<tag k="natural" v="hill" />
		<tag k="place" v="locality" />
		<tag k="ssr:stedsnr" v="334487" />
	</node>
	<node id="-845943" lat="63.7430166671" lon="9.8828250033">
		<tag k="fixme" v="consider natural=peak for the most distinct mountains in the district" />
		<tag k="name" v="Olderlifjellet" />
		<tag k="natural" v="hill" />
		<tag k="place" v="locality" />
		<tag k="ssr:stedsnr" v="940423" />
	</node>
	<node id="-845940" lat="63.8488138924" lon="9.79839999822">
		<tag k="name" v="Mogårdshaugan" />
		<tag k="natural" v="hill" />
		<tag k="place" v="locality" />
		<tag k="ssr:stedsnr" v="698688" />
	</node>
	<node id="-845938" lat="63.8634111098" lon="9.72411111602">
		<tag k="name" v="Falkberget" />
		<tag k="natural" v="hill" />
		<tag k="place" v="locality" />
		<tag k="ssr:stedsnr" v="212639" />
	</node>
	<node id="-845934" lat="63.8086750039" lon="9.75570278619">
		<tag k="fixme" v="consider natural=peak for the most distinct mountains in the district" />
		<tag k="name" v="Kopparaksla" />
		<tag k="natural" v="hill" />
		<tag k="place" v="locality" />
		<tag k="ssr:stedsnr" v="437044" />
	</node>
	<node id="-845931" lat="63.8230416645" lon="10.2063083236">
		<tag k="name" v="Blanktjønnbrotta" />
		<tag k="place" v="locality" />
		<tag k="ssr:stedsnr" v="394053" />
	</node>
	<node id="-845926" lat="63.8468083343" lon="9.76043610116">
		<tag k="name" v="Gråheia" />
		<tag k="natural" v="hill" />
		<tag k="place" v="locality" />
		<tag k="ssr:stedsnr" v="151727" />
	</node>
	<node id="-845918" lat="63.8297666698" lon="10.0782027686">
		<tag k="name" v="Lauvkammen" />
		<tag k="natural" v="hill" />
		<tag k="place" v="locality" />
		<tag k="ssr:stedsnr" v="134073" />
	</node>
	<node id="-845915" lat="63.7950138926" lon="9.38781111377">
		<tag k="name" v="Margidohaugen" />
		<tag k="natural" v="hill" />
		<tag k="place" v="locality" />
		<tag k="ssr:stedsnr" v="212202" />
	</node>
	<node id="-845913" lat="63.8566555556" lon="9.79708611953">
		<tag k="fixme" v="consider natural=peak for the most distinct mountains in the district" />
		<tag k="name" v="Langåsen" />
		<tag k="natural" v="hill" />
		<tag k="place" v="locality" />
		<tag k="ssr:stedsnr" v="273373" />
	</node>
	<node id="-845912" lat="63.8214333307" lon="9.98858888666">
		<tag k="alt_name" v="Raufjellet" />
		<tag k="fixme" v="consider natural=peak for the most distinct mountains in the district" />
		<tag k="name" v="Raudfjellet" />
		<tag k="natural" v="hill" />
		<tag k="place" v="locality" />
		<tag k="ssr:stedsnr" v="680046" />
	</node>
	<node id="-845908" lat="63.8801777811" lon="9.98791944708">
		<tag k="name" v="Gammelseterlia" />
		<tag k="natural" v="slope" />
		<tag k="place" v="locality" />
		<tag k="ssr:stedsnr" v="334495" />
	</node>
	<node id="-845906" lat="63.8745972201" lon="10.047819445">
		<tag k="name" v="Sandtjønnaksla" />
		<tag k="natural" v="hill" />
		<tag k="place" v="locality" />
		<tag k="ssr:stedsnr" v="134604" />
	</node>
	<node id="-844472" lat="63.7392861079" lon="9.87546388619">
		<tag k="name" v="Kjerkdalen" />
		<tag k="natural" v="valley" />
		<tag k="place" v="locality" />
		<tag k="ssr:stedsnr" v="515446" />
	</node>
	<node id="-845901" lat="63.8101861099" lon="9.72739166309">
		<tag k="name" v="Dyrhatten" />
		<tag k="natural" v="hill" />
		<tag k="place" v="locality" />
		<tag k="ssr:stedsnr" v="437046" />
	</node>
	<node id="-844401" lat="63.7417861125" lon="9.7791333418">
		<tag k="name" v="Høyfjellsklumpen" />
		<tag k="natural" v="hill" />
		<tag k="place" v="locality" />
		<tag k="ssr:stedsnr" v="880143" />
	</node>
	<node id="-845894" lat="63.7542000029" lon="9.70103889517">
		<tag k="name" v="Klukstadberget" />
		<tag k="natural" v="hill" />
		<tag k="place" v="locality" />
		<tag k="ssr:stedsnr" v="698274" />
	</node>
	<node id="-845885" lat="63.8549777811" lon="9.79724443516">
		<tag k="name" v="Bjønnadalen" />
		<tag k="natural" v="valley" />
		<tag k="place" v="locality" />
		<tag k="ssr:stedsnr" v="151722" />
	</node>
	<node id="-845883" lat="63.8405916709" lon="9.90989721509">
		<tag k="fixme" v="consider natural=peak for the most distinct mountains in the district" />
		<tag k="name" v="Vasskardklumpen" />
		<tag k="natural" v="hill" />
		<tag k="place" v="locality" />
		<tag k="ssr:stedsnr" v="636327" />
	</node>
	<node id="-845879" lat="63.8045722205" lon="9.93565276925">
		<tag k="name" v="Trolldalen" />
		<tag k="natural" v="valley" />
		<tag k="place" v="locality" />
		<tag k="ssr:stedsnr" v="940005" />
	</node>
	<node id="-844557" lat="63.7755527822" lon="9.78171666793">
		<tag k="name" v="Sjåhaugen" />
		<tag k="natural" v="hill" />
		<tag k="place" v="locality" />
		<tag k="ssr:stedsnr" v="151493" />
	</node>
	<node id="-845868" lat="63.7774888896" lon="9.82636389023">
		<tag k="name" v="Rundklumpen" />
		<tag k="natural" v="hill" />
		<tag k="place" v="locality" />
		<tag k="ssr:stedsnr" v="455394" />
	</node>
	<node id="-845867" lat="63.8336694474" lon="10.0964638941">
		<tag k="name" v="Finnknoppen" />
		<tag k="natural" v="hill" />
		<tag k="place" v="locality" />
		<tag k="ssr:stedsnr" v="576088" />
	</node>
	<node id="-845865" lat="63.7552972234" lon="9.66545832501">
		<tag k="name" v="Sauberget" />
		<tag k="natural" v="hill" />
		<tag k="place" v="locality" />
		<tag k="ssr:stedsnr" v="515687" />
	</node>
	<node id="-845864" lat="63.8304777747" lon="9.71538332425">
		<tag k="fixme" v="consider natural=peak for the most distinct mountains in the district" />
		<tag k="name" v="Skjervikfjellet" />
		<tag k="natural" v="hill" />
		<tag k="place" v="locality" />
		<tag k="ssr:stedsnr" v="515691" />
	</node>
	<node id="-845863" lat="63.8301750023" lon="10.0180805482">
		<tag k="name" v="Høylasset" />
		<tag k="natural" v="hill" />
		<tag k="place" v="locality" />
		<tag k="ssr:stedsnr" v="256063" />
	</node>
	<node id="-845862" lat="63.8142027818" lon="9.68723333519">
		<tag k="name" v="Storhaugen" />
		<tag k="natural" v="hill" />
		<tag k="place" v="locality" />
		<tag k="ssr:stedsnr" v="151714" />
	</node>
	<node id="-844625" lat="63.773250004" lon="9.862891668">
		<tag k="name" v="Solemslia" />
		<tag k="natural" v="slope" />
		<tag k="place" v="locality" />
		<tag k="ssr:stedsnr" v="212417" />
	</node>
	<node id="-845846" lat="63.8047027815" lon="9.3925083259">
		<tag k="name" v="Kvalvika" />
		<tag k="place" v="locality" />
		<tag k="ssr:stedsnr" v="212188" />
	</node>
	<node id="-845845" lat="63.7681055587" lon="9.60195556509">
		<tag k="fixme" v="consider natural=peak for the most distinct mountains in the district" />
		<tag k="name" v="Spanskfjellet" />
		<tag k="natural" v="hill" />
		<tag k="place" v="locality" />
		<tag k="ssr:stedsnr" v="758709" />
	</node>
	<node id="-845843" lat="63.8281555557" lon="9.81866110606">
		<tag k="fixme" v="consider natural=peak for the most distinct mountains in the district" />
		<tag k="name" v="Jakobsfjellet" />
		<tag k="natural" v="hill" />
		<tag k="place" v="locality" />
		<tag k="ssr:stedsnr" v="30673" />
	</node>
	<node id="-845842" lat="63.8215416626" lon="9.73749445197">
		<tag k="name" v="Håkadalen" />
		<tag k="natural" v="valley" />
		<tag k="place" v="locality" />
		<tag k="ssr:stedsnr" v="151704" />
	</node>
	<node id="-845838" lat="63.8151416628" lon="9.8738999933">
		<tag k="name" v="Rognliheia" />
		<tag k="natural" v="hill" />
		<tag k="place" v="locality" />
		<tag k="ssr:stedsnr" v="940014" />
	</node>
	<node id="-845828" lat="63.7760722216" lon="9.60303888317">
		<tag k="name" v="Grønskardet" />
		<tag k="natural" v="valley" />
		<tag k="place" v="locality" />
		<tag k="ssr:stedsnr" v="334482" />
	</node>
</osm>
