<?xml version="1.0" encoding="UTF-8"?>
<osm generator="osmapis" version="0.6">
	<node id="-596992" lat="63.0213083362" lon="7.9406722188">
		<tag k="name" v="Fossbekken" />
		<tag k="ssr:stedsnr" v="348661" />
		<tag k="waterway" v="stream" />
	</node>
	<node id="-596991" lat="63.0293166625" lon="7.92302499067">
		<tag k="name" v="Sallauptjønna" />
		<tag k="natural" v="water" />
		<tag k="ssr:stedsnr" v="348650" />
	</node>
	<node id="-598526" lat="62.8626583315" lon="8.37419443857">
		<tag k="name" v="Åsprongvatnet" />
		<tag k="natural" v="water" />
		<tag k="ssr:stedsnr" v="801364" />
	</node>
	<node id="-597500" lat="62.9440333372" lon="8.19973055703">
		<tag k="name" v="Seterosen" />
		<tag k="natural" v="bay" />
		<tag k="ssr:stedsnr" v="108811" />
	</node>
	<node id="-597930" lat="62.8371777744" lon="8.21654721447">
		<tag k="name" v="Breitjørna" />
		<tag k="natural" v="water" />
		<tag k="ssr:stedsnr" v="498601" />
	</node>
	<node id="-598008" lat="62.844408335" lon="8.33197222186">
		<tag k="name" v="Trøelva" />
		<tag k="ssr:stedsnr" v="532982" />
		<tag k="waterway" v="stream" />
	</node>
	<node id="-598007" lat="62.8309333315" lon="8.33190000179">
		<tag k="name" v="Rørskarbekken" />
		<tag k="ssr:stedsnr" v="532956" />
		<tag k="waterway" v="stream" />
	</node>
	<node id="-598518" lat="62.8819944463" lon="8.2531249903">
		<tag k="name" v="Støltjørna" />
		<tag k="natural" v="water" />
		<tag k="ssr:stedsnr" v="801256" />
	</node>
	<node id="-598517" lat="62.8757527812" lon="8.25961666436">
		<tag k="name" v="Spennvatnet" />
		<tag k="natural" v="water" />
		<tag k="ssr:stedsnr" v="801255" />
	</node>
	<node id="-598000" lat="62.9929527776" lon="8.24119999075">
		<tag k="name" v="Vikavollbekken" />
		<tag k="ssr:stedsnr" v="532727" />
		<tag k="waterway" v="stream" />
	</node>
	<node id="-598440" lat="63.0439305537" lon="7.98759999121">
		<tag k="name" v="Liatjønna" />
		<tag k="natural" v="water" />
		<tag k="ssr:stedsnr" v="774310" />
	</node>
	<node id="-597485" lat="63.0220527756" lon="8.10797776934">
		<tag k="name" v="Kvennhusvatnet" />
		<tag k="natural" v="water" />
		<tag k="ssr:stedsnr" v="108272" />
	</node>
	<node id="-597484" lat="62.8792888882" lon="8.22481388622">
		<tag k="name" v="Odden" />
		<tag k="natural" v="cape" />
		<tag k="ssr:stedsnr" v="108165" />
	</node>
	<node id="-596971" lat="62.8360083354" lon="8.36418056071">
		<tag k="name" v="Rennåa" />
		<tag k="ssr:stedsnr" v="316387" />
		<tag k="waterway" v="stream" />
	</node>
	<node id="-597482" lat="62.870549999" lon="8.2111666694">
		<tag k="name" v="Mjosundet" />
		<tag k="natural" v="strait" />
		<tag k="ssr:stedsnr" v="108094" />
	</node>
	<node id="-596969" lat="63.0948944479" lon="8.03394166356">
		<tag k="name" v="Oselva" />
		<tag k="ssr:stedsnr" v="316369" />
		<tag k="waterway" v="stream" />
	</node>
	<node id="-598524" lat="62.8390444423" lon="8.27400555241">
		<tag k="name" v="Hanemsvatnet" />
		<tag k="natural" v="water" />
		<tag k="ssr:stedsnr" v="801341" />
		<tag k="water" v="lake" />
	</node>
	<node id="-597478" lat="62.8514638872" lon="8.30150833519">
		<tag k="name" v="Ørabekken" />
		<tag k="ssr:stedsnr" v="107954" />
		<tag k="waterway" v="stream" />
	</node>
	<node id="-598082" lat="63.0094999972" lon="8.09433888283">
		<tag k="name" v="Herredsdalselva" />
		<tag k="ssr:stedsnr" v="592438" />
		<tag k="waterway" v="stream" />
	</node>
	<node id="-597474" lat="62.9694472208" lon="8.09795834313">
		<tag k="name" v="Kandsdalbekken" />
		<tag k="ssr:stedsnr" v="107792" />
		<tag k="waterway" v="stream" />
	</node>
	<node id="-598496" lat="62.8496249961" lon="8.33901110914">
		<tag k="name" v="Høndalsbekken" />
		<tag k="ssr:stedsnr" v="775893" />
		<tag k="waterway" v="stream" />
	</node>
	<node id="-597471" lat="62.9827611119" lon="8.18405278663">
		<tag k="name" v="Nør Steinvatnet" />
		<tag k="natural" v="water" />
		<tag k="ssr:stedsnr" v="107635" />
	</node>
	<node id="-597981" lat="62.9962305531" lon="8.04656389694">
		<tag k="name" v="Dammen" />
		<tag k="natural" v="water" />
		<tag k="ssr:stedsnr" v="532412" />
	</node>
	<node id="-596955" lat="62.8971222244" lon="8.25352777897">
		<tag k="name" v="Gryttjørna" />
		<tag k="natural" v="water" />
		<tag k="ssr:stedsnr" v="315282" />
	</node>
	<node id="-598484" lat="62.9646416635" lon="8.20618055492">
		<tag k="name" v="Hoplielva" />
		<tag k="ssr:stedsnr" v="775606" />
		<tag k="waterway" v="stream" />
	</node>
	<node id="-597457" lat="62.9461583358" lon="8.29576667104">
		<tag k="name" v="Holmeidelva" />
		<tag k="ssr:stedsnr" v="107237" />
		<tag k="waterway" v="stream" />
	</node>
	<node id="-597456" lat="62.9532277773" lon="8.31408611481">
		<tag k="name" v="Kvennabekken" />
		<tag k="ssr:stedsnr" v="107235" />
		<tag k="waterway" v="stream" />
	</node>
	<node id="-597967" lat="62.8741944416" lon="8.21116388972">
		<tag k="name" v="Honnhammarlangneset" />
		<tag k="natural" v="cape" />
		<tag k="ssr:stedsnr" v="532152" />
	</node>
	<node id="-596939" lat="62.836136115" lon="8.33293055408">
		<tag k="name" v="Seterbekken" />
		<tag k="ssr:stedsnr" v="290952" />
		<tag k="waterway" v="stream" />
	</node>
	<node id="-597495" lat="62.8812527804" lon="8.30532778102">
		<tag k="name" v="Bakkelva" />
		<tag k="ssr:stedsnr" v="108683" />
		<tag k="waterway" v="stream" />
	</node>
	<node id="-597448" lat="62.862099998" lon="8.17886666598">
		<tag k="name" v="Stortjønna" />
		<tag k="natural" v="water" />
		<tag k="ssr:stedsnr" v="108113" />
	</node>
	<node id="-596933" lat="62.819038885" lon="8.33608055516">
		<tag k="name" v="Langneset" />
		<tag k="natural" v="cape" />
		<tag k="ssr:stedsnr" v="290819" />
	</node>
	<node id="-598467" lat="62.8606861133" lon="8.1763833269">
		<tag k="name" v="Honnhammarelva" />
		<tag k="ssr:stedsnr" v="775104" />
		<tag k="waterway" v="stream" />
	</node>
	<node id="-598142" lat="62.841827775" lon="8.21436388629">
		<tag k="name" v="Løådalsbekken" />
		<tag k="ssr:stedsnr" v="593861" />
		<tag k="waterway" v="stream" />
	</node>
	<node id="-598432" lat="62.9879583358" lon="8.15604445089">
		<tag k="name" v="Grønlibekken" />
		<tag k="ssr:stedsnr" v="773602" />
		<tag k="waterway" v="stream" />
	</node>
	<node id="-597950" lat="63.0680500002" lon="8.0981583238">
		<tag k="name" v="Seterbekken" />
		<tag k="ssr:stedsnr" v="531459" />
		<tag k="waterway" v="stream" />
	</node>
	<node id="-597949" lat="63.063086115" lon="8.06895833941">
		<tag k="name" v="Tettingstjønna" />
		<tag k="natural" v="water" />
		<tag k="ssr:stedsnr" v="531445" />
	</node>
	<node id="-597436" lat="62.8235166649" lon="8.36484166284">
		<tag k="name" v="Myrelva" />
		<tag k="ssr:stedsnr" v="73318" />
		<tag k="waterway" v="stream" />
	</node>
	<node id="-597886" lat="62.8666611142" lon="8.36835278678">
		<tag k="name" v="Åsprongelva" />
		<tag k="ssr:stedsnr" v="472886" />
		<tag k="waterway" v="stream" />
	</node>
	<node id="-596918" lat="62.9726666673" lon="8.2321750044">
		<tag k="name" v="Hoplielva" />
		<tag k="ssr:stedsnr" v="290570" />
		<tag k="waterway" v="stream" />
	</node>
	<node id="-596914" lat="62.8940166673" lon="8.20748334157">
		<tag k="name" v="Tennbekken" />
		<tag k="ssr:stedsnr" v="290304" />
		<tag k="waterway" v="stream" />
	</node>
	<node id="-597425" lat="63.0170833301" lon="8.01713610693">
		<tag k="name" v="Litlvatnet" />
		<tag k="natural" v="water" />
		<tag k="ssr:stedsnr" v="73208" />
	</node>
	<node id="-597936" lat="63.0055777788" lon="8.20402499245">
		<tag k="name" v="Biraelva" />
		<tag k="ssr:stedsnr" v="530049" />
		<tag k="waterway" v="stream" />
	</node>
	<node id="-597422" lat="63.0797027736" lon="8.02947499146">
		<tag k="name" v="Fjellsetervatnet" />
		<tag k="natural" v="water" />
		<tag k="ssr:stedsnr" v="73181" />
		<tag k="water" v="lake" />
	</node>
	<node id="-596909" lat="62.8766138855" lon="8.22394443985">
		<tag k="name" v="Sommarfjøsbekken" />
		<tag k="ssr:stedsnr" v="290180" />
		<tag k="waterway" v="stream" />
	</node>
	<node id="-597418" lat="62.9973861067" lon="8.11171110549">
		<tag k="name" v="Herresdalsvatnet" />
		<tag k="natural" v="water" />
		<tag k="ssr:stedsnr" v="72849" />
	</node>
	<node id="-596904" lat="62.8434222244" lon="8.22083055798">
		<tag k="name" v="Helvetesbekken" />
		<tag k="ssr:stedsnr" v="290103" />
		<tag k="waterway" v="stream" />
	</node>
	<node id="-597415" lat="62.9621361095" lon="8.23402778184">
		<tag k="name" v="Vågelva" />
		<tag k="ssr:stedsnr" v="72650" />
		<tag k="waterway" v="stream" />
	</node>
	<node id="-598438" lat="63.0551777806" lon="8.07036944057">
		<tag k="name" v="Årøybekken" />
		<tag k="ssr:stedsnr" v="774282" />
		<tag k="waterway" v="stream" />
	</node>
	<node id="-598257" lat="62.8531805538" lon="8.29606389414">
		<tag k="name" v="Storelva" />
		<tag k="ssr:stedsnr" v="653943" />
		<tag k="waterway" v="river" />
	</node>
	<node id="-598598" lat="62.960941667" lon="8.23290834058">
		<tag k="name" v="Stølselva" />
		<tag k="ssr:stedsnr" v="836620" />
		<tag k="waterway" v="stream" />
	</node>
	<node id="-597920" lat="62.9811916698" lon="8.15207777709">
		<tag k="name" v="Sandvikvatnet" />
		<tag k="natural" v="water" />
		<tag k="ssr:stedsnr" v="497897" />
	</node>
	<node id="-597406" lat="62.8615444453" lon="8.29676389147">
		<tag k="name" v="Gjøvikelva" />
		<tag k="ssr:stedsnr" v="47928" />
		<tag k="waterway" v="stream" />
	</node>
	<node id="-598426" lat="63.0075115808" lon="8.1509187414">
		<tag k="name" v="Sautunga" />
		<tag k="natural" v="water" />
		<tag k="ssr:stedsnr" v="773002" />
	</node>
	<node id="-597402" lat="62.8374944439" lon="8.22166943815">
		<tag k="name" v="Litltjønna" />
		<tag k="natural" v="water" />
		<tag k="ssr:stedsnr" v="47877" />
	</node>
	<node id="-597399" lat="62.8184972257" lon="8.33135554747">
		<tag k="name" v="Fiskarneset" />
		<tag k="natural" v="cape" />
		<tag k="ssr:stedsnr" v="47839" />
	</node>
	<node id="-597908" lat="62.8268416711" lon="8.32916112007">
		<tag k="name" v="Myravatnet" />
		<tag k="natural" v="water" />
		<tag k="ssr:stedsnr" v="497323" />
		<tag k="water" v="lake" />
	</node>
	<node id="-597903" lat="63.0714499984" lon="8.10068611726">
		<tag k="name" v="Halselva" />
		<tag k="ssr:stedsnr" v="497174" />
		<tag k="waterway" v="stream" />
	</node>
	<node id="-598414" lat="62.9260361102" lon="8.20162776913">
		<tag k="name" v="Reittjørna" />
		<tag k="natural" v="water" />
		<tag k="ssr:stedsnr" v="740961" />
	</node>
	<node id="-598412" lat="62.8162555592" lon="8.37207221389">
		<tag k="name" v="Viddalselva" />
		<tag k="ssr:stedsnr" v="740845" />
		<tag k="waterway" v="river" />
	</node>
	<node id="-597899" lat="62.9717694423" lon="8.17562777731">
		<tag k="name" v="Lomtjørna" />
		<tag k="natural" v="water" />
		<tag k="ssr:stedsnr" v="496875" />
	</node>
	<node id="-597385" lat="62.8946305517" lon="8.32501112005">
		<tag k="name" v="Kvennåa" />
		<tag k="ssr:stedsnr" v="47595" />
		<tag k="waterway" v="stream" />
	</node>
	<node id="-598405" lat="62.8638138928" lon="8.28719167489">
		<tag k="name" v="Jøvikelva" />
		<tag k="ssr:stedsnr" v="740353" />
		<tag k="waterway" v="stream" />
	</node>
	<node id="-597892" lat="62.8414694409" lon="8.30300832877">
		<tag k="name" v="Ripabekken" />
		<tag k="ssr:stedsnr" v="472974" />
		<tag k="waterway" v="stream" />
	</node>
	<node id="-598403" lat="62.8396638879" lon="8.22170277197">
		<tag k="name" v="Langtjørna" />
		<tag k="natural" v="water" />
		<tag k="ssr:stedsnr" v="740337" />
	</node>
	<node id="-597890" lat="62.8380444402" lon="8.35141388518">
		<tag k="name" v="Lomtjønna" />
		<tag k="natural" v="water" />
		<tag k="ssr:stedsnr" v="472956" />
	</node>
	<node id="-596864" lat="63.0421222218" lon="8.0111833412">
		<tag k="name" v="Gjengsetvatnet" />
		<tag k="natural" v="water" />
		<tag k="ssr:stedsnr" v="289238" />
	</node>
	<node id="-598398" lat="62.8201361147" lon="8.25375277134">
		<tag k="name" v="Ballstadvatnet" />
		<tag k="natural" v="water" />
		<tag k="ssr:stedsnr" v="740317" />
	</node>
	<node id="-597885" lat="62.8603249977" lon="8.36978888617">
		<tag k="name" v="Dompabekken" />
		<tag k="ssr:stedsnr" v="472885" />
		<tag k="waterway" v="stream" />
	</node>
	<node id="-598392" lat="63.0034861139" lon="8.13733333135">
		<tag k="name" v="Kamlivatnet" />
		<tag k="natural" v="water" />
		<tag k="ssr:stedsnr" v="740182" />
	</node>
	<node id="-597879" lat="62.9183638902" lon="8.16706944943">
		<tag k="name" v="Almvikbekken" />
		<tag k="ssr:stedsnr" v="472812" />
		<tag k="waterway" v="stream" />
	</node>
	<node id="-597878" lat="62.9254472266" lon="8.1535499981">
		<tag k="name" v="Lauvikbekken" />
		<tag k="ssr:stedsnr" v="472803" />
		<tag k="waterway" v="stream" />
	</node>
	<node id="-597876" lat="62.9978249969" lon="8.21080556255">
		<tag k="name" v="Bjønnahølen" />
		<tag k="natural" v="water" />
		<tag k="ssr:stedsnr" v="472743" />
	</node>
	<node id="-597871" lat="62.8730944454" lon="8.38198333644">
		<tag k="name" v="Sagbekken" />
		<tag k="ssr:stedsnr" v="472628" />
		<tag k="waterway" v="stream" />
	</node>
	<node id="-597869" lat="62.9661833332" lon="8.25404999528">
		<tag k="name" v="Leitbekken" />
		<tag k="ssr:stedsnr" v="472615" />
		<tag k="waterway" v="stream" />
	</node>
	<node id="-597868" lat="62.9610138927" lon="8.24240556392">
		<tag k="name" v="Reitelva" />
		<tag k="ssr:stedsnr" v="472600" />
		<tag k="waterway" v="stream" />
	</node>
	<node id="-597355" lat="63.0785777782" lon="8.09154167391">
		<tag k="name" v="Rakstangelva" />
		<tag k="ssr:stedsnr" v="46478" />
		<tag k="waterway" v="stream" />
	</node>
	<node id="-597354" lat="63.0753416679" lon="8.03103333124">
		<tag k="name" v="Heileidet" />
		<tag k="natural" v="strait" />
		<tag k="ssr:stedsnr" v="46459" />
	</node>
	<node id="-598503" lat="62.8305277817" lon="8.30988610593">
		<tag k="name" v="Skarselva" />
		<tag k="ssr:stedsnr" v="775986" />
		<tag k="waterway" v="stream" />
	</node>
	<node id="-598373" lat="62.8591750008" lon="8.2969083371">
		<tag k="name" v="Vågåenden" />
		<tag k="natural" v="bay" />
		<tag k="ssr:stedsnr" v="714943" />
	</node>
	<node id="-598372" lat="62.8582972244" lon="8.28485278573">
		<tag k="name" v="Brennabekken" />
		<tag k="ssr:stedsnr" v="714933" />
		<tag k="waterway" v="stream" />
	</node>
	<node id="-597344" lat="62.9381833297" lon="8.18011388523">
		<tag k="name" v="Kammtjønna" />
		<tag k="natural" v="water" />
		<tag k="ssr:stedsnr" v="46286" />
	</node>
	<node id="-598364" lat="62.9409750021" lon="8.23041388522">
		<tag k="name" v="Stølneset" />
		<tag k="natural" v="cape" />
		<tag k="ssr:stedsnr" v="714838" />
	</node>
	<node id="-597847" lat="62.9935166651" lon="8.07198888266">
		<tag k="name" v="Lomtjønna" />
		<tag k="natural" v="water" />
		<tag k="ssr:stedsnr" v="471733" />
	</node>
	<node id="-597333" lat="62.9824694477" lon="8.23618333417">
		<tag k="name" v="Storbekken" />
		<tag k="ssr:stedsnr" v="44740" />
		<tag k="waterway" v="stream" />
	</node>
	<node id="-597844" lat="62.9820166653" lon="8.17810277281">
		<tag k="name" v="Sør Steinvatnet" />
		<tag k="natural" v="water" />
		<tag k="ssr:stedsnr" v="471615" />
	</node>
	<node id="-597842" lat="62.9826833374" lon="8.16296945126">
		<tag k="name" v="Svarttjønna" />
		<tag k="natural" v="water" />
		<tag k="ssr:stedsnr" v="471612" />
	</node>
	<node id="-598352" lat="62.9968527758" lon="8.12321665959">
		<tag k="name" v="Kamlivassbekken" />
		<tag k="ssr:stedsnr" v="714639" />
		<tag k="waterway" v="stream" />
	</node>
	<node id="-597327" lat="62.8452861074" lon="8.25988889135">
		<tag k="name" v="Toskelva" />
		<tag k="ssr:stedsnr" v="21520" />
		<tag k="waterway" v="river" />
	</node>
	<node id="-596962" lat="62.9160777775" lon="8.22168611597">
		<tag k="name" v="Litlvatnet" />
		<tag k="natural" v="water" />
		<tag k="ssr:stedsnr" v="315742" />
	</node>
	<node id="-598344" lat="63.0645611151" lon="8.09945834128">
		<tag k="name" v="Dammen" />
		<tag k="natural" v="water" />
		<tag k="ssr:stedsnr" v="714371" />
	</node>
	<node id="-597314" lat="63.0184972237" lon="8.07223055789">
		<tag k="name" v="Storvatnet" />
		<tag k="natural" v="water" />
		<tag k="ssr:stedsnr" v="12444" />
		<tag k="water" v="lake" />
	</node>
	<node id="-598173" lat="63.0483500012" lon="8.06994999699">
		<tag k="name" v="Langvatnet" />
		<tag k="natural" v="water" />
		<tag k="ssr:stedsnr" v="619164" />
	</node>
	<node id="-597312" lat="62.8650250004" lon="8.37772223038">
		<tag k="name" v="Åsprongtjørna" />
		<tag k="natural" v="water" />
		<tag k="ssr:stedsnr" v="12362" />
	</node>
	<node id="-597821" lat="63.074866671" lon="7.99453334204">
		<tag k="name" v="Stabursvikbekken" />
		<tag k="ssr:stedsnr" v="471224" />
		<tag k="waterway" v="stream" />
	</node>
	<node id="-597306" lat="63.0235527808" lon="8.05086388079">
		<tag k="name" v="Storvassøya" />
		<tag k="place" v="islet" />
		<tag k="ssr:stedsnr" v="12219" />
	</node>
	<node id="-597305" lat="63.018141664" lon="8.05815277518">
		<tag k="name" v="Ytre Hegerneset" />
		<tag k="natural" v="cape" />
		<tag k="ssr:stedsnr" v="12218" />
	</node>
	<node id="-598325" lat="63.0066305563" lon="8.07040555397">
		<tag k="name" v="Åreielva" />
		<tag k="ssr:stedsnr" v="714091" />
		<tag k="waterway" v="stream" />
	</node>
	<node id="-597300" lat="63.0478499987" lon="8.10600278461">
		<tag k="name" v="Nervågen" />
		<tag k="natural" v="water" />
		<tag k="ssr:stedsnr" v="12146" />
	</node>
	<node id="-597298" lat="62.949669444" lon="8.20802777293">
		<tag k="alt_name" v="Bergemvatnet" />
		<tag k="name" v="Bergemsvatnet" />
		<tag k="natural" v="water" />
		<tag k="ssr:stedsnr" v="11933" />
		<tag k="water" v="lake" />
	</node>
	<node id="-597809" lat="62.9546777768" lon="8.3211361013">
		<tag k="name" v="Ildribekken" />
		<tag k="ssr:stedsnr" v="469167" />
		<tag k="waterway" v="stream" />
	</node>
	<node id="-598319" lat="62.9154388849" lon="8.2721722263">
		<tag k="name" v="Seterbekken" />
		<tag k="ssr:stedsnr" v="714069" />
		<tag k="waterway" v="stream" />
	</node>
	<node id="-598493" lat="62.9394277757" lon="8.22465277205">
		<tag k="name" v="Storneset" />
		<tag k="natural" v="cape" />
		<tag k="ssr:stedsnr" v="775835" />
	</node>
	<node id="-598306" lat="62.8138388926" lon="8.3106750042">
		<tag k="name" v="Lomtjørna" />
		<tag k="natural" v="water" />
		<tag k="ssr:stedsnr" v="712162" />
	</node>
	<node id="-597791" lat="63.0534222219" lon="8.01251111799">
		<tag k="name" v="Nøsavatnet" />
		<tag k="natural" v="water" />
		<tag k="ssr:stedsnr" v="437185" />
	</node>
	<node id="-597789" lat="63.0572583332" lon="8.0390472271">
		<tag k="name" v="Slettavatnet" />
		<tag k="natural" v="water" />
		<tag k="ssr:stedsnr" v="437182" />
	</node>
	<node id="-597274" lat="62.8404166698" lon="8.27510000041">
		<tag k="name" v="Langneset" />
		<tag k="natural" v="cape" />
		<tag k="ssr:stedsnr" v="897962" />
	</node>
	<node id="-597273" lat="62.8395472179" lon="8.2848777708">
		<tag k="name" v="Fiskarneset" />
		<tag k="natural" v="cape" />
		<tag k="ssr:stedsnr" v="897961" />
	</node>
	<node id="-597272" lat="62.8340888874" lon="8.27200276845">
		<tag k="name" v="Typperneset" />
		<tag k="natural" v="cape" />
		<tag k="ssr:stedsnr" v="897958" />
	</node>
	<node id="-597783" lat="62.9215805559" lon="8.25363333973">
		<tag k="name" v="Holtavatnet" />
		<tag k="natural" v="water" />
		<tag k="ssr:stedsnr" v="436719" />
	</node>
	<node id="-597268" lat="62.859316671" lon="8.21062777196">
		<tag k="name" v="Kuholmen" />
		<tag k="natural" v="cape" />
		<tag k="ssr:stedsnr" v="897872" />
	</node>
	<node id="-597263" lat="62.9140083313" lon="8.20936943587">
		<tag k="name" v="Koksvikelva" />
		<tag k="ssr:stedsnr" v="897780" />
		<tag k="waterway" v="stream" />
	</node>
	<node id="-597260" lat="62.9943722198" lon="8.21968610918">
		<tag k="name" v="Dompavatnet" />
		<tag k="natural" v="water" />
		<tag k="ssr:stedsnr" v="897709" />
	</node>
	<node id="-598170" lat="62.9481361097" lon="8.14217776872">
		<tag k="name" v="Sandvikbekken" />
		<tag k="ssr:stedsnr" v="618925" />
		<tag k="waterway" v="stream" />
	</node>
	<node id="-597258" lat="62.9703833315" lon="8.15119722996">
		<tag k="name" v="Kattatjønna" />
		<tag k="natural" v="water" />
		<tag k="ssr:stedsnr" v="897659" />
	</node>
	<node id="-598060" lat="62.984461112" lon="8.10871666958">
		<tag k="name" v="Svarttjønna" />
		<tag k="natural" v="water" />
		<tag k="ssr:stedsnr" v="592706" />
	</node>
	<node id="-597766" lat="62.8220472233" lon="8.33587222943">
		<tag k="name" v="Hafstadvatnet" />
		<tag k="natural" v="water" />
		<tag k="ssr:stedsnr" v="255324" />
		<tag k="water" v="lake" />
	</node>
	<node id="-598145" lat="62.862002782" lon="8.21269166465">
		<tag k="name" v="Fiskarneset" />
		<tag k="natural" v="cape" />
		<tag k="ssr:stedsnr" v="593880" />
	</node>
	<node id="-598276" lat="63.0292749981" lon="8.11566111708">
		<tag k="name" v="Litlvatnet" />
		<tag k="natural" v="water" />
		<tag k="ssr:stedsnr" v="679190" />
	</node>
	<node id="-598787" lat="62.8326749967" lon="8.28721667133">
		<tag k="name" v="Vidneset" />
		<tag k="natural" v="cape" />
		<tag k="ssr:stedsnr" v="957975" />
	</node>
	<node id="-597761" lat="63.020561107" lon="8.0373888838">
		<tag k="name" v="Melsåstjørna" />
		<tag k="natural" v="water" />
		<tag k="ssr:stedsnr" v="255215" />
	</node>
	<node id="-598656" lat="62.8680305523" lon="8.23363056026">
		<tag k="name" v="Brennabekken" />
		<tag k="ssr:stedsnr" v="862285" />
		<tag k="waterway" v="stream" />
	</node>
	<node id="-598270" lat="62.8710638909" lon="8.35801389277">
		<tag k="name" v="Åsprongelva" />
		<tag k="ssr:stedsnr" v="654742" />
		<tag k="waterway" v="stream" />
	</node>
	<node id="-598781" lat="62.841847223" lon="8.25750556309">
		<tag k="name" v="Hanemsvatnet" />
		<tag k="natural" v="water" />
		<tag k="ssr:stedsnr" v="957884" />
		<tag k="water" v="lake" />
	</node>
	<node id="-597755" lat="62.9758722232" lon="8.13481388693">
		<tag k="name" v="Gylvatnet" />
		<tag k="natural" v="water" />
		<tag k="ssr:stedsnr" v="254892" />
		<tag k="water" v="lake" />
	</node>
	<node id="-597242" lat="62.9644222233" lon="8.26893889104">
		<tag k="name" v="Leitbekken" />
		<tag k="ssr:stedsnr" v="897106" />
		<tag k="waterway" v="stream" />
	</node>
	<node id="-598777" lat="62.9304888917" lon="8.18229722747">
		<tag k="name" v="Presttjønna" />
		<tag k="natural" v="water" />
		<tag k="ssr:stedsnr" v="957833" />
	</node>
	<node id="-598262" lat="62.841024999" lon="8.27211388921">
		<tag k="name" v="Bergsliholmen" />
		<tag k="place" v="islet" />
		<tag k="ssr:stedsnr" v="653977" />
	</node>
	<node id="-598261" lat="62.8321833333" lon="8.38103333337">
		<tag k="name" v="Myraelva" />
		<tag k="ssr:stedsnr" v="653971" />
		<tag k="waterway" v="stream" />
	</node>
	<node id="-597118" lat="62.8192222235" lon="8.25189999031">
		<tag k="name" v="Postneset" />
		<tag k="natural" v="cape" />
		<tag k="ssr:stedsnr" v="410140" />
	</node>
	<node id="-598769" lat="63.0174472186" lon="8.01724721793">
		<tag k="name" v="Litlvatnet" />
		<tag k="natural" v="water" />
		<tag k="ssr:stedsnr" v="957389" />
		<tag k="water" v="lake" />
	</node>
	<node id="-598256" lat="62.8588638894" lon="8.21347777622">
		<tag k="name" v="Langneset" />
		<tag k="natural" v="cape" />
		<tag k="ssr:stedsnr" v="653913" />
	</node>
	<node id="-598254" lat="62.7991916663" lon="8.33917499136">
		<tag k="name" v="Inner Skrøobekken" />
		<tag k="ssr:stedsnr" v="653864" />
		<tag k="waterway" v="stream" />
	</node>
	<node id="-598377" lat="62.8343111139" lon="8.34810277301">
		<tag k="name" v="Skarbekken" />
		<tag k="ssr:stedsnr" v="714974" />
		<tag k="waterway" v="stream" />
	</node>
	<node id="-597202" lat="63.0421972246" lon="8.0918166701">
		<tag k="name" v="Monkbekken" />
		<tag k="ssr:stedsnr" v="896271" />
		<tag k="waterway" v="stream" />
	</node>
	<node id="-598481" lat="62.9937000007" lon="8.05028333249">
		<tag k="name" v="Slettabekken" />
		<tag k="ssr:stedsnr" v="775402" />
		<tag k="waterway" v="stream" />
	</node>
	<node id="-598755" lat="62.9599500026" lon="8.30267778352">
		<tag k="name" v="Strupstadtjønna" />
		<tag k="natural" v="water" />
		<tag k="ssr:stedsnr" v="957100" />
	</node>
	<node id="-598754" lat="62.9222361107" lon="8.26749999399">
		<tag k="name" v="Husaelva" />
		<tag k="ssr:stedsnr" v="957092" />
		<tag k="waterway" v="stream" />
	</node>
	<node id="-597215" lat="63.0276388847" lon="8.02069443627">
		<tag k="name" v="Møkjavassøya" />
		<tag k="place" v="island" />
		<tag k="ssr:stedsnr" v="896426" />
	</node>
	<node id="-598748" lat="62.8626250022" lon="8.18251666599">
		<tag k="name" v="Litltjønna" />
		<tag k="natural" v="water" />
		<tag k="ssr:stedsnr" v="957065" />
	</node>
	<node id="-598138" lat="62.8169194424" lon="8.3596777711">
		<tag k="name" v="Kvernabekken" />
		<tag k="ssr:stedsnr" v="593815" />
		<tag k="waterway" v="stream" />
	</node>
	<node id="-598233" lat="63.0641833352" lon="8.02141943647">
		<tag k="name" v="Gladheim" />
		<tag k="place" v="island" />
		<tag k="ssr:stedsnr" v="653406" />
	</node>
	<node id="-597208" lat="63.0877166653" lon="8.10764167594">
		<tag k="name" v="Rakstangbekken" />
		<tag k="ssr:stedsnr" v="896315" />
		<tag k="waterway" v="stream" />
	</node>
	<node id="-598231" lat="63.0274472236" lon="8.04011388542">
		<tag k="name" v="Ulsetelva" />
		<tag k="ssr:stedsnr" v="653363" />
		<tag k="waterway" v="stream" />
	</node>
	<node id="-597718" lat="62.9653555576" lon="8.24230555989">
		<tag k="name" v="Øya" />
		<tag k="natural" v="cape" />
		<tag k="ssr:stedsnr" v="229654" />
	</node>
	<node id="-597714" lat="62.8269916653" lon="8.21894444338">
		<tag k="name" v="Innerbekken" />
		<tag k="ssr:stedsnr" v="229139" />
		<tag k="waterway" v="stream" />
	</node>
	<node id="-598136" lat="62.9359749997" lon="8.21986944494">
		<tag k="name" v="Litlneset" />
		<tag k="natural" v="cape" />
		<tag k="ssr:stedsnr" v="593790" />
	</node>
	<node id="-598520" lat="62.8939388852" lon="8.24754999898">
		<tag k="name" v="Lomtjørna" />
		<tag k="natural" v="water" />
		<tag k="ssr:stedsnr" v="801280" />
	</node>
	<node id="-598287" lat="62.9847166623" lon="8.16537500499">
		<tag k="name" v="Grønlivatnet" />
		<tag k="natural" v="water" />
		<tag k="ssr:stedsnr" v="679841" />
	</node>
	<node id="-597187" lat="62.8425361119" lon="8.37464999514">
		<tag k="name" v="Lomtjønna" />
		<tag k="natural" v="water" />
		<tag k="ssr:stedsnr" v="411958" />
	</node>
	<node id="-598721" lat="63.0619416703" lon="8.0182444405">
		<tag k="name" v="Kopparholmen" />
		<tag k="natural" v="cape" />
		<tag k="ssr:stedsnr" v="956272" />
	</node>
	<node id="-597184" lat="62.8521277742" lon="8.33696388043">
		<tag k="name" v="Hjellbekken" />
		<tag k="ssr:stedsnr" v="411902" />
		<tag k="waterway" v="stream" />
	</node>
	<node id="-598017" lat="62.9864805532" lon="8.23437499255">
		<tag k="name" v="Torjulelva" />
		<tag k="ssr:stedsnr" v="557600" />
		<tag k="waterway" v="stream" />
	</node>
	<node id="-598718" lat="62.984216665" lon="8.23512777224">
		<tag k="name" v="Litlbekken" />
		<tag k="ssr:stedsnr" v="955732" />
		<tag k="waterway" v="stream" />
	</node>
	<node id="-598716" lat="63.0072083365" lon="8.13903332545">
		<tag k="name" v="Aurestaupet" />
		<tag k="natural" v="water" />
		<tag k="ssr:stedsnr" v="955003" />
	</node>
	<node id="-597691" lat="63.0675666651" lon="8.12269167224">
		<tag k="name" v="Sandvikelva" />
		<tag k="ssr:stedsnr" v="228483" />
		<tag k="waterway" v="stream" />
	</node>
	<node id="-597689" lat="63.0118722252" lon="8.07074166529">
		<tag k="name" v="Tjønna" />
		<tag k="natural" v="water" />
		<tag k="ssr:stedsnr" v="228453" />
	</node>
	<node id="-598200" lat="62.990647221" lon="8.24060000407">
		<tag k="name" v="Rønningbekken" />
		<tag k="ssr:stedsnr" v="651735" />
		<tag k="waterway" v="stream" />
	</node>
	<node id="-597175" lat="62.9349361112" lon="8.22080000283">
		<tag k="name" v="Sollisanden" />
		<tag k="natural" v="beach" />
		<tag k="ssr:stedsnr" v="411832" />
	</node>
	<node id="-596937" lat="62.8450611117" lon="8.20456944896">
		<tag k="name" v="Stordalsbekken" />
		<tag k="ssr:stedsnr" v="290865" />
		<tag k="waterway" v="stream" />
	</node>
	<node id="-598196" lat="63.0039583298" lon="8.14855555867">
		<tag k="name" v="Måstjønna" />
		<tag k="natural" v="water" />
		<tag k="ssr:stedsnr" v="651001" />
	</node>
	<node id="-597681" lat="62.9506305592" lon="8.12881943657">
		<tag k="name" v="Gylelva" />
		<tag k="ssr:stedsnr" v="227683" />
		<tag k="waterway" v="stream" />
	</node>
	<node id="-597167" lat="62.9875749957" lon="8.20735834094">
		<tag k="name" v="Vasshalsen" />
		<tag k="natural" v="bay" />
		<tag k="ssr:stedsnr" v="411742" />
	</node>
	<node id="-597166" lat="62.9615111074" lon="8.15152778185">
		<tag k="name" v="Geilbekken" />
		<tag k="ssr:stedsnr" v="411661" />
		<tag k="waterway" v="stream" />
	</node>
	<node id="-597676" lat="62.9879249959" lon="8.18163055581">
		<tag k="name" v="Bustidalsbekken" />
		<tag k="ssr:stedsnr" v="227599" />
		<tag k="waterway" v="stream" />
	</node>
	<node id="-598644" lat="62.9663277791" lon="8.13911944423">
		<tag k="name" v="Gylelva" />
		<tag k="ssr:stedsnr" v="861882" />
		<tag k="waterway" v="river" />
	</node>
	<node id="-598691" lat="62.959177779" lon="8.25801944369">
		<tag k="name" v="Ratlibekken" />
		<tag k="ssr:stedsnr" v="922664" />
		<tag k="waterway" v="stream" />
	</node>
	<node id="-597154" lat="63.0963166628" lon="8.06401667201">
		<tag k="name" v="Mørkedalselva" />
		<tag k="ssr:stedsnr" v="411292" />
		<tag k="waterway" v="stream" />
	</node>
	<node id="-598174" lat="63.0502305514" lon="8.04333332853">
		<tag k="name" v="Årøyvatnet" />
		<tag k="natural" v="water" />
		<tag k="ssr:stedsnr" v="619163" />
	</node>
	<node id="-597661" lat="62.9914888926" lon="8.20852778496">
		<tag k="name" v="Huslivatnet" />
		<tag k="natural" v="water" />
		<tag k="ssr:stedsnr" v="194846" />
	</node>
	<node id="-598684" lat="62.8965722244" lon="8.2347333381">
		<tag k="name" v="Tennbekkvatnet" />
		<tag k="natural" v="water" />
		<tag k="ssr:stedsnr" v="922266" />
	</node>
	<node id="-598683" lat="62.8935750034" lon="8.26028611208">
		<tag k="name" v="Åvatnet" />
		<tag k="natural" v="water" />
		<tag k="ssr:stedsnr" v="922267" />
	</node>
	<node id="-597658" lat="62.9394194439" lon="8.22606945037">
		<tag k="name" v="Reitvatnet" />
		<tag k="natural" v="water" />
		<tag k="ssr:stedsnr" v="194659" />
	</node>
	<node id="-598679" lat="63.0276083291" lon="8.01776945383">
		<tag k="name" v="Møkjavatnet" />
		<tag k="natural" v="water" />
		<tag k="ssr:stedsnr" v="922217" />
	</node>
	<node id="-598166" lat="62.9911000033" lon="8.19405833802">
		<tag k="name" v="Litlvatnet" />
		<tag k="natural" v="water" />
		<tag k="ssr:stedsnr" v="618831" />
	</node>
	<node id="-597653" lat="62.8606944464" lon="8.21169444454">
		<tag k="name" v="Håkkåsvatnet" />
		<tag k="natural" v="water" />
		<tag k="ssr:stedsnr" v="194467" />
	</node>
	<node id="-598163" lat="62.861330554" lon="8.266561109">
		<tag k="name" v="Liabekken" />
		<tag k="ssr:stedsnr" v="618345" />
		<tag k="waterway" v="stream" />
	</node>
	<node id="-597138" lat="62.9754333318" lon="8.13088612004">
		<tag k="name" v="Gylvatnet" />
		<tag k="natural" v="water" />
		<tag k="ssr:stedsnr" v="410683" />
		<tag k="water" v="lake" />
	</node>
	<node id="-597645" lat="63.0131833367" lon="8.02554445059">
		<tag k="name" v="Grunnsjøen" />
		<tag k="natural" v="water" />
		<tag k="ssr:stedsnr" v="194183" />
	</node>
	<node id="-598666" lat="62.8685722256" lon="8.3874472197">
		<tag k="name" v="Kjerringtjønna" />
		<tag k="natural" v="water" />
		<tag k="ssr:stedsnr" v="874239" />
	</node>
	<node id="-598664" lat="62.8507749973" lon="8.24767222672">
		<tag k="name" v="Toskelva" />
		<tag k="ssr:stedsnr" v="870218" />
		<tag k="waterway" v="river" />
	</node>
	<node id="-598657" lat="62.8898277766" lon="8.29427221611">
		<tag k="name" v="Røttingsnesvatnet" />
		<tag k="natural" v="water" />
		<tag k="ssr:stedsnr" v="862302" />
	</node>
	<node id="-597632" lat="63.0182833348" lon="7.94606945082">
		<tag k="name" v="Seterbekken" />
		<tag k="ssr:stedsnr" v="168973" />
		<tag k="waterway" v="stream" />
	</node>
	<node id="-597630" lat="62.8389083317" lon="8.33333610687">
		<tag k="name" v="Seterbekken" />
		<tag k="ssr:stedsnr" v="168958" />
		<tag k="waterway" v="stream" />
	</node>
	<node id="-598652" lat="63.0237749982" lon="8.11604721271">
		<tag k="name" v="Vollvatnet" />
		<tag k="natural" v="water" />
		<tag k="ssr:stedsnr" v="862231" />
	</node>
	<node id="-598651" lat="63.0070861084" lon="8.12539721902">
		<tag k="name" v="Salvatnet" />
		<tag k="natural" v="water" />
		<tag k="ssr:stedsnr" v="862219" />
	</node>
	<node id="-598650" lat="63.074402782" lon="8.08673889083">
		<tag k="name" v="Rokstongelva" />
		<tag k="ssr:stedsnr" v="862212" />
		<tag k="waterway" v="stream" />
	</node>
	<node id="-598648" lat="63.0439750023" lon="8.0743249903">
		<tag k="name" v="Vågen" />
		<tag k="natural" v="water" />
		<tag k="ssr:stedsnr" v="862160" />
		<tag k="water" v="lake" />
	</node>
	<node id="-598134" lat="62.9406222194" lon="8.20459721878">
		<tag k="name" v="Langdalsbekken" />
		<tag k="ssr:stedsnr" v="593778" />
		<tag k="waterway" v="stream" />
	</node>
	<node id="-597109" lat="62.8214249968" lon="8.38760832832">
		<tag k="name" v="Hyllbekken" />
		<tag k="ssr:stedsnr" v="388358" />
		<tag k="waterway" v="stream" />
	</node>
	<node id="-597620" lat="62.8112055523" lon="8.36895833715">
		<tag k="name" v="Kvernaskarbekken" />
		<tag k="ssr:stedsnr" v="168860" />
		<tag k="waterway" v="stream" />
	</node>
	<node id="-598131" lat="62.9822777772" lon="8.2039777854">
		<tag k="name" v="Litlvasseivatnet" />
		<tag k="natural" v="water" />
		<tag k="ssr:stedsnr" v="593685" />
		<tag k="water" v="lake" />
	</node>
	<node id="-597615" lat="62.9297000009" lon="8.16007500753">
		<tag k="name" v="Kvennhusvikbekken" />
		<tag k="ssr:stedsnr" v="168810" />
		<tag k="waterway" v="stream" />
	</node>
	<node id="-598634" lat="62.9008222191" lon="8.3248805552">
		<tag k="name" v="Løsetelva" />
		<tag k="ssr:stedsnr" v="861277" />
		<tag k="waterway" v="stream" />
	</node>
	<node id="-597609" lat="62.9809527809" lon="8.22142222679">
		<tag k="name" v="Slettelva" />
		<tag k="ssr:stedsnr" v="168747" />
		<tag k="waterway" v="stream" />
	</node>
	<node id="-597608" lat="62.9896444404" lon="8.2197722307">
		<tag k="name" v="Huslielva" />
		<tag k="ssr:stedsnr" v="168744" />
		<tag k="waterway" v="stream" />
	</node>
	<node id="-598460" lat="62.8838611077" lon="8.22158333633">
		<tag k="name" v="Negardselva" />
		<tag k="ssr:stedsnr" v="775011" />
		<tag k="waterway" v="stream" />
	</node>
	<node id="-597084" lat="63.0089527744" lon="8.14756111211">
		<tag k="name" v="Kroktjørna" />
		<tag k="natural" v="water" />
		<tag k="ssr:stedsnr" v="376201" />
	</node>
	<node id="-597082" lat="63.0016527794" lon="8.03783332717">
		<tag k="alt_name" v="Tveekremvatnet;Øygardsvatnet;Tveekravatnet" />
		<tag k="name" v="Tveekervatnet" />
		<tag k="natural" v="water" />
		<tag k="ssr:stedsnr" v="376187" />
	</node>
	<node id="-598105" lat="63.0734111094" lon="8.00341666831">
		<tag k="name" v="Trolltjønna" />
		<tag k="natural" v="water" />
		<tag k="ssr:stedsnr" v="592986" />
	</node>
	<node id="-596903" lat="62.8658249993" lon="8.25270556528">
		<tag k="name" v="Dammen" />
		<tag k="natural" v="water" />
		<tag k="ssr:stedsnr" v="290097" />
	</node>
	<node id="-597078" lat="63.0735555577" lon="8.01283612063">
		<tag k="name" v="Setervatnet" />
		<tag k="natural" v="water" />
		<tag k="ssr:stedsnr" v="376181" />
	</node>
	<node id="-597589" lat="62.9516527774" lon="8.26668610935">
		<tag k="name" v="Norskbekken" />
		<tag k="ssr:stedsnr" v="168282" />
		<tag k="waterway" v="stream" />
	</node>
	<node id="-597076" lat="63.0609805598" lon="8.02501944443">
		<tag k="name" v="Storvatnet" />
		<tag k="natural" v="water" />
		<tag k="ssr:stedsnr" v="376165" />
		<tag k="water" v="lake" />
	</node>
	<node id="-597075" lat="63.0637138923" lon="8.05260555108">
		<tag k="name" v="Slettabekken" />
		<tag k="ssr:stedsnr" v="376164" />
		<tag k="waterway" v="stream" />
	</node>
	<node id="-598609" lat="62.9314416696" lon="8.19002777779">
		<tag k="name" v="Liatjønna" />
		<tag k="natural" v="water" />
		<tag k="ssr:stedsnr" v="836825" />
	</node>
	<node id="-597582" lat="62.9286333321" lon="8.28078055474">
		<tag k="name" v="Båtneselva" />
		<tag k="ssr:stedsnr" v="168099" />
		<tag k="waterway" v="stream" />
	</node>
	<node id="-597575" lat="62.992561108" lon="8.1214222254">
		<tag k="name" v="Korslivassbekken" />
		<tag k="ssr:stedsnr" v="167715" />
		<tag k="waterway" v="stream" />
	</node>
	<node id="-597062" lat="62.9485388899" lon="8.23434167263">
		<tag k="name" v="Reitelva" />
		<tag k="ssr:stedsnr" v="375658" />
		<tag k="waterway" v="stream" />
	</node>
	<node id="-597572" lat="62.9806777776" lon="8.08309443723">
		<tag k="name" v="Vulvikelva" />
		<tag k="ssr:stedsnr" v="167703" />
		<tag k="waterway" v="stream" />
	</node>
	<node id="-598595" lat="62.9050083348" lon="8.28828332446">
		<tag k="name" v="Bytelva" />
		<tag k="ssr:stedsnr" v="836550" />
		<tag k="waterway" v="stream" />
	</node>
	<node id="-598594" lat="62.9905777734" lon="8.14041944814">
		<tag k="name" v="Korslivatnet" />
		<tag k="natural" v="water" />
		<tag k="ssr:stedsnr" v="836471" />
	</node>
	<node id="-598081" lat="63.026413887" lon="8.0441944451">
		<tag k="name" v="Dammen" />
		<tag k="natural" v="bay" />
		<tag k="ssr:stedsnr" v="592417" />
	</node>
	<node id="-597056" lat="62.8347999975" lon="8.36925833136">
		<tag k="name" v="Rennåa" />
		<tag k="ssr:stedsnr" v="350949" />
		<tag k="waterway" v="stream" />
	</node>
	<node id="-597054" lat="62.8638416666" lon="8.22878889055">
		<tag k="name" v="Brennhaugbekken" />
		<tag k="ssr:stedsnr" v="350900" />
		<tag k="waterway" v="stream" />
	</node>
	<node id="-598589" lat="62.8269916653" lon="8.21894444338">
		<tag k="name" v="Ytterbekken" />
		<tag k="ssr:stedsnr" v="836097" />
		<tag k="waterway" v="stream" />
	</node>
	<node id="-597049" lat="62.8722972211" lon="8.27941944731">
		<tag k="name" v="Gjøvikelva" />
		<tag k="ssr:stedsnr" v="350664" />
		<tag k="waterway" v="stream" />
	</node>
	<node id="-597043" lat="62.8970694442" lon="8.29344444406">
		<tag k="name" v="Bytbekken" />
		<tag k="ssr:stedsnr" v="350562" />
		<tag k="waterway" v="stream" />
	</node>
	<node id="-597554" lat="63.0433666711" lon="7.9783194429">
		<tag k="name" v="Smidammen" />
		<tag k="natural" v="water" />
		<tag k="ssr:stedsnr" v="167292" />
		<tag k="water" v="pond" />
	</node>
	<node id="-597552" lat="63.0607277773" lon="8.01092222608">
		<tag k="name" v="Litlvatnet" />
		<tag k="natural" v="water" />
		<tag k="ssr:stedsnr" v="167255" />
	</node>
	<node id="-597039" lat="62.9008500012" lon="8.19082222794">
		<tag k="name" v="Rimstadelva" />
		<tag k="ssr:stedsnr" v="350282" />
		<tag k="waterway" v="stream" />
	</node>
	<node id="-598573" lat="63.0650388902" lon="8.00958054589">
		<tag k="name" v="Vassbotten" />
		<tag k="natural" v="bay" />
		<tag k="ssr:stedsnr" v="835467" />
	</node>
	<node id="-597548" lat="62.8117000021" lon="8.28860277938">
		<tag k="name" v="Seterbekken" />
		<tag k="ssr:stedsnr" v="165171" />
		<tag k="waterway" v="stream" />
	</node>
	<node id="-597545" lat="62.9509166638" lon="8.27839167234">
		<tag k="name" v="Holmeidvatnet" />
		<tag k="natural" v="water" />
		<tag k="ssr:stedsnr" v="141236" />
		<tag k="water" v="lake" />
	</node>
	<node id="-597080" lat="63.0792916632" lon="8.0022861093">
		<tag k="name" v="Terjeråsvatnet" />
		<tag k="natural" v="water" />
		<tag k="ssr:stedsnr" v="376184" />
	</node>
	<node id="-597542" lat="63.0892416701" lon="8.07031110198">
		<tag k="name" v="Mørkedalsvatnet" />
		<tag k="natural" v="water" />
		<tag k="ssr:stedsnr" v="134382" />
		<tag k="water" v="lake" />
	</node>
	<node id="-598705" lat="63.0528694474" lon="8.03921110575">
		<tag k="name" v="Asplivatnet" />
		<tag k="natural" v="water" />
		<tag k="ssr:stedsnr" v="923192" />
	</node>
	<node id="-597540" lat="62.881711112" lon="8.20380833793">
		<tag k="name" v="Stølvatnet" />
		<tag k="natural" v="water" />
		<tag k="ssr:stedsnr" v="133977" />
		<tag k="water" v="lake" />
	</node>
	<node id="-597254" lat="62.9702083314" lon="8.20263610433">
		<tag k="name" v="Trongstadlielva" />
		<tag k="ssr:stedsnr" v="897610" />
		<tag k="waterway" v="stream" />
	</node>
	<node id="-597026" lat="62.9670638878" lon="8.31280834181">
		<tag k="name" v="Sprenå" />
		<tag k="ssr:stedsnr" v="350101" />
		<tag k="waterway" v="stream" />
	</node>
	<node id="-597626" lat="62.8652749993" lon="8.2609194372">
		<tag k="name" v="Lossgrovbekken" />
		<tag k="ssr:stedsnr" v="168931" />
		<tag k="waterway" v="stream" />
	</node>
	<node id="-598618" lat="62.8645250027" lon="8.3697277795">
		<tag k="name" v="Teppenden" />
		<tag k="natural" v="water" />
		<tag k="ssr:stedsnr" v="836899" />
		<tag k="water" v="lake" />
	</node>
	<node id="-598042" lat="63.0370805579" lon="8.02737500221">
		<tag k="name" v="Kramlivatnet" />
		<tag k="natural" v="water" />
		<tag k="ssr:stedsnr" v="558249" />
	</node>
	<node id="-597016" lat="62.9576666684" lon="8.32386666797">
		<tag k="name" v="Aksnesbekken" />
		<tag k="ssr:stedsnr" v="350004" />
		<tag k="waterway" v="stream" />
	</node>
	<node id="-598039" lat="63.0151138882" lon="8.06032499317">
		<tag k="name" v="Indre Hegerneset" />
		<tag k="natural" v="cape" />
		<tag k="ssr:stedsnr" v="558223" />
	</node>
	<node id="-598037" lat="63.0240916687" lon="8.09060555461">
		<tag k="name" v="Storholmen" />
		<tag k="place" v="islet" />
		<tag k="ssr:stedsnr" v="558209" />
	</node>
	<node id="-597519" lat="63.0010888851" lon="8.10520000904">
		<tag k="name" v="Herresdalsvatnet" />
		<tag k="natural" v="water" />
		<tag k="ssr:stedsnr" v="133176" />
	</node>
	<node id="-597005" lat="63.0269416681" lon="8.06143333239">
		<tag k="name" v="Banamann" />
		<tag k="natural" v="cape" />
		<tag k="ssr:stedsnr" v="349431" />
	</node>
	<node id="-598024" lat="62.9872138862" lon="8.09720000618">
		<tag k="name" v="Vulvikvatnet" />
		<tag k="natural" v="water" />
		<tag k="ssr:stedsnr" v="557841" />
	</node>
	<node id="-598023" lat="62.9876805588" lon="8.1984055516">
		<tag k="name" v="Torjulvatnet" />
		<tag k="natural" v="water" />
		<tag k="ssr:stedsnr" v="557840" />
	</node>
	<node id="-598534" lat="62.9076833348" lon="8.30411666347">
		<tag k="name" v="Tristeinbekken" />
		<tag k="ssr:stedsnr" v="801731" />
		<tag k="waterway" v="stream" />
	</node>
	<node id="-598021" lat="62.9127638909" lon="8.30017778322">
		<tag k="name" v="Bytelva" />
		<tag k="ssr:stedsnr" v="557715" />
		<tag k="waterway" v="stream" />
	</node>
	<node id="-598531" lat="62.8623388889" lon="8.179324998">
		<tag k="name" v="Honnhammartjørna" />
		<tag k="natural" v="water" />
		<tag k="ssr:stedsnr" v="801514" />
	</node>
	<node id="-596993" lat="62.9862333295" lon="8.23231666655">
		<tag k="name" v="Nordbøelva" />
		<tag k="ssr:stedsnr" v="348721" />
		<tag k="waterway" v="stream" />
	</node>
</osm>
