<?xml version="1.0" encoding="UTF-8"?>
<osm version="0.6" generator="osmapis">
	<node lat="63.00595555245994" lon="7.978447217156576" id="-5053">
		<tag k="name" v="Langøya" />
		<tag k="place" v="islet" />
		<tag k="ssr:stedsnr" v="12201" />
	</node>
	<node lat="63.010977778820425" lon="7.989866671897487" id="-5063">
		<tag k="name" v="Smalgrasneset" />
		<tag k="natural" v="cape" />
		<tag k="ssr:stedsnr" v="232500" />
	</node>
	<node lat="63.03859166420268" lon="7.96597778492411" id="-5064">
		<tag k="name" v="Esskjeften" />
		<tag k="natural" v="bay" />
		<tag k="ssr:stedsnr" v="44405" />
	</node>
	<node lat="63.04663888979373" lon="8.084338889248658" id="-5065">
		<tag k="name" v="Øvervågen" />
		<tag k="natural" v="bay" />
		<tag k="ssr:stedsnr" v="46272" />
	</node>
	<node lat="62.94963611525819" lon="8.190002776597758" id="-5073">
		<tag k="name" v="Storliholmen" />
		<tag k="place" v="islet" />
		<tag k="ssr:stedsnr" v="46492" />
	</node>
	<node lat="63.07703889122322" lon="7.966763887239207" id="-5076">
		<tag k="name" v="Indre Skaraneset" />
		<tag k="natural" v="cape" />
		<tag k="ssr:stedsnr" v="46925" />
	</node>
	<node lat="62.982788890947674" lon="8.272375000134053" id="-5077">
		<tag k="name" v="Håberget" />
		<tag k="natural" v="cape" />
		<tag k="ssr:stedsnr" v="47102" />
	</node>
	<node lat="62.92311944604914" lon="8.151816675615608" id="-5086">
		<tag k="name" v="Lauvikbukta" />
		<tag k="natural" v="bay" />
		<tag k="ssr:stedsnr" v="47804" />
	</node>
	<node lat="62.90728333377984" lon="8.13313611017188" id="-5098">
		<tag k="fixme" v="consider seamark:type=rock or natural=shoal" />
		<tag k="name" v="Tingvollflua" />
		<tag k="place" v="islet" />
		<tag k="ssr:stedsnr" v="72984" />
	</node>
	<node lat="63.02390833392116" lon="7.885577784151356" id="-5099">
		<tag k="name" v="Bøyfotholmen" />
		<tag k="place" v="islet" />
		<tag k="ssr:stedsnr" v="73220" />
	</node>
	<node lat="63.03200555963039" lon="7.966149996005629" id="-5100">
		<tag k="name" v="Nastadholmen" />
		<tag k="place" v="islet" />
		<tag k="ssr:stedsnr" v="73225" />
	</node>
	<node lat="62.9716888930482" lon="8.07137777127262" id="-5113">
		<tag k="name" v="Furuneset" />
		<tag k="natural" v="cape" />
		<tag k="ssr:stedsnr" v="107433" />
	</node>
	<node lat="63.000574998182664" lon="7.890566672183601" id="-5115">
		<tag k="name" v="Buavika" />
		<tag k="natural" v="bay" />
		<tag k="ssr:stedsnr" v="107578" />
	</node>
	<node lat="63.03369166947069" lon="8.1386749957524" id="-5139">
		<tag k="name" v="Storhaugneset" />
		<tag k="natural" v="cape" />
		<tag k="ssr:stedsnr" v="255218" />
	</node>
	<node lat="62.80623610902669" lon="8.267683339161424" id="-5147">
		<tag k="bay" v="fjord" />
		<tag k="name" v="Tingvollfjorden" />
		<tag k="natural" v="bay" />
		<tag k="ssr:stedsnr" v="254881" />
	</node>
	<node lat="63.08338332914847" lon="8.132222216255006" id="-5155">
		<tag k="name" v="Husabukta" />
		<tag k="natural" v="bay" />
		<tag k="ssr:stedsnr" v="255334" />
	</node>
	<node lat="63.11348889246748" lon="8.087772223340826" id="-5156">
		<tag k="name" v="Svartholmen" />
		<tag k="place" v="islet" />
		<tag k="ssr:stedsnr" v="255351" />
	</node>
	<node lat="63.01723611015934" lon="7.893144436846435" id="-5162">
		<tag k="name" v="Hommelnesleira" />
		<tag k="natural" v="beach" />
		<tag k="ssr:stedsnr" v="167603" />
	</node>
	<node lat="63.03196944045867" lon="7.9041361090167" id="-5164">
		<tag k="name" v="Storbogen" />
		<tag k="natural" v="bay" />
		<tag k="ssr:stedsnr" v="167702" />
	</node>
	<node lat="62.931488885596124" lon="8.150963898312806" id="-5175">
		<tag k="name" v="Bergemsbukta" />
		<tag k="natural" v="bay" />
		<tag k="ssr:stedsnr" v="168808" />
	</node>
	<node lat="62.98961111237014" lon="7.880863880618702" id="-5184">
		<tag k="name" v="Snekkarneset" />
		<tag k="natural" v="cape" />
		<tag k="ssr:stedsnr" v="171763" />
	</node>
	<node lat="62.87657500346323" lon="8.394813895898007" id="-5191">
		<tag k="name" v="Gjuraneset" />
		<tag k="natural" v="cape" />
		<tag k="ssr:stedsnr" v="267167" />
	</node>
	<node lat="62.94355277373168" lon="8.165361107171494" id="-5198">
		<tag k="name" v="Litl-Langneset" />
		<tag k="natural" v="cape" />
		<tag k="ssr:stedsnr" v="228500" />
	</node>
	<node lat="63.01537221964499" lon="7.891005556644274" id="-5200">
		<tag k="name" v="Hommelneset" />
		<tag k="natural" v="cape" />
		<tag k="ssr:stedsnr" v="228613" />
	</node>
	<node lat="63.02665555735823" lon="7.988666667252068" id="-5202">
		<tag k="name" v="Ulneset" />
		<tag k="natural" v="cape" />
		<tag k="ssr:stedsnr" v="228508" />
	</node>
	<node lat="62.962461111843865" lon="8.333355559802264" id="-5205">
		<tag k="name" v="Finfjøra" />
		<tag k="natural" v="cape" />
		<tag k="ssr:stedsnr" v="229006" />
	</node>
	<node lat="62.967302777992955" lon="8.324141660105665" id="-5207">
		<tag k="name" v="Mastubukta" />
		<tag k="natural" v="bay" />
		<tag k="ssr:stedsnr" v="229010" />
	</node>
	<node lat="63.02438055408831" lon="7.996597223920518" id="-5218">
		<tag k="name" v="Ulsetvågen" />
		<tag k="natural" v="bay" />
		<tag k="ssr:stedsnr" v="232496" />
	</node>
	<node lat="63.019427777564516" lon="7.996886103001184" id="-5219">
		<tag k="name" v="Langsetholman" />
		<tag k="place" v="islet" />
		<tag k="ssr:stedsnr" v="232497" />
	</node>
	<node lat="62.9343527798582" lon="8.321388898389502" id="-5225">
		<tag k="name" v="Kvitholmen" />
		<tag k="place" v="islet" />
		<tag k="ssr:stedsnr" v="254673" />
	</node>
	<node lat="63.0031361096632" lon="7.883474993868008" id="-5249">
		<tag k="name" v="Bollåtholmen" />
		<tag k="place" v="islet" />
		<tag k="ssr:stedsnr" v="289604" />
	</node>
	<node lat="63.01121388690894" lon="7.895024993120827" id="-5250">
		<tag k="name" v="Jåvikbukta" />
		<tag k="natural" v="bay" />
		<tag k="ssr:stedsnr" v="289607" />
	</node>
	<node lat="62.95951944133025" lon="8.332966657652614" id="-5253">
		<tag k="fixme" v="consider seamark:type=rock or natural=shoal" />
		<tag k="name" v="Tangskjeret" />
		<tag k="place" v="islet" />
		<tag k="ssr:stedsnr" v="290008" />
	</node>
	<node lat="62.930936108123014" lon="8.29044721715951" id="-5274">
		<tag k="name" v="Båtneset" />
		<tag k="natural" v="cape" />
		<tag k="ssr:stedsnr" v="315711" />
	</node>
	<node lat="63.03150833103065" lon="7.992294442258425" id="-5280">
		<tag k="name" v="Svanavågen" />
		<tag k="natural" v="bay" />
		<tag k="ssr:stedsnr" v="470452" />
	</node>
	<node lat="62.89804444089931" lon="8.33422778187155" id="-5293">
		<tag k="name" v="Olvika" />
		<tag k="natural" v="bay" />
		<tag k="ssr:stedsnr" v="471620" />
	</node>
	<node lat="63.0093666693623" lon="7.967111118721282" id="-5294">
		<tag k="name" v="Djupbukta" />
		<tag k="natural" v="bay" />
		<tag k="ssr:stedsnr" v="471699" />
	</node>
	<node lat="62.92189722475228" lon="8.29751944417957" id="-5324">
		<tag k="fixme" v="consider seamark:type=rock or natural=shoal" />
		<tag k="name" v="Haugaskjæret" />
		<tag k="place" v="islet" />
		<tag k="ssr:stedsnr" v="473130" />
	</node>
	<node lat="63.0886805542812" lon="7.980913884953209" id="-5326">
		<tag k="name" v="Furuneset" />
		<tag k="natural" v="cape" />
		<tag k="ssr:stedsnr" v="473601" />
	</node>
	<node lat="63.04701388507686" lon="8.122897219128431" id="-5332">
		<tag k="name" v="Kattholmen" />
		<tag k="place" v="islet" />
		<tag k="ssr:stedsnr" v="349314" />
	</node>
	<node lat="62.79080278164526" lon="8.333791669258156" id="-5353">
		<tag k="name" v="Almskårgrunnen" />
		<tag k="natural" v="shoal" />
		<tag k="place" v="locality" />
		<tag k="ssr:stedsnr" v="474569" />
	</node>
	<node lat="63.02135555621156" lon="7.919702783172997" id="-5355">
		<tag k="name" v="Aspøya" />
		<tag k="place" v="island" />
		<tag k="ssr:stedsnr" v="375800" />
	</node>
	<node lat="63.03986388810739" lon="7.963105559935006" id="-5356">
		<tag k="name" v="Nålsundet" />
		<tag k="natural" v="strait" />
		<tag k="ssr:stedsnr" v="376129" />
	</node>
	<node lat="63.01281389310659" lon="7.89724165966155" id="-5365">
		<tag k="name" v="Aspbukta" />
		<tag k="natural" v="bay" />
		<tag k="ssr:stedsnr" v="376212" />
	</node>
	<node lat="62.993383332507584" lon="8.258002780375742" id="-5370">
		<tag k="name" v="Innerneset" />
		<tag k="natural" v="cape" />
		<tag k="ssr:stedsnr" v="410009" />
	</node>
	<node lat="62.99094006604104" lon="8.01808597418105" id="-5381">
		<tag k="name" v="Bortpåholmen" />
		<tag k="place" v="islet" />
		<tag k="ssr:stedsnr" v="411419" />
	</node>
	<node lat="62.86104166477762" lon="8.313361111217453" id="-5385">
		<tag k="name" v="Hanemsvågen" />
		<tag k="natural" v="bay" />
		<tag k="ssr:stedsnr" v="411821" />
	</node>
	<node lat="62.82626666315292" lon="8.198075005209574" id="-5394">
		<tag k="name" v="Skottneset" />
		<tag k="natural" v="cape" />
		<tag k="ssr:stedsnr" v="411901" />
	</node>
	<node lat="62.95411388871446" lon="8.116236115591343" id="-5396">
		<tag k="name" v="Saltkjelneset" />
		<tag k="natural" v="cape" />
		<tag k="ssr:stedsnr" v="436923" />
	</node>
	<node lat="63.051822222809825" lon="8.12542222416049" id="-5397">
		<tag k="name" v="Kanestraumen" />
		<tag k="natural" v="bay" />
		<tag k="ssr:stedsnr" v="437163" />
	</node>
	<node lat="62.82116944018973" lon="8.250969452109372" id="-5407">
		<tag k="name" v="Parkholmen" />
		<tag k="place" v="islet" />
		<tag k="ssr:stedsnr" v="471117" />
	</node>
	<node lat="63.095491662587634" lon="7.959625009841687" id="-5409">
		<tag k="name" v="Hvalenbukta" />
		<tag k="natural" v="bay" />
		<tag k="ssr:stedsnr" v="471311" />
	</node>
	<node lat="63.11019722312518" lon="8.081077787238058" id="-5413">
		<tag k="name" v="Naustneset" />
		<tag k="natural" v="cape" />
		<tag k="ssr:stedsnr" v="471274" />
	</node>
	<node lat="63.02669721988012" lon="8.106630549887814" id="-5425">
		<tag k="name" v="Eidsfjøra" />
		<tag k="natural" v="shoal" />
		<tag k="place" v="locality" />
		<tag k="ssr:stedsnr" v="472268" />
	</node>
	<node lat="63.102769447057085" lon="8.021069445002393" id="-5427">
		<tag k="name" v="Mjøkvika" />
		<tag k="natural" v="bay" />
		<tag k="ssr:stedsnr" v="472312" />
	</node>
	<node lat="62.871477777665426" lon="8.336202776551046" id="-5429">
		<tag k="name" v="Leirvikbukta" />
		<tag k="natural" v="bay" />
		<tag k="ssr:stedsnr" v="472704" />
	</node>
	<node lat="63.03066666662435" lon="7.97430278366365" id="-5438">
		<tag k="name" v="Børkjeneset" />
		<tag k="natural" v="cape" />
		<tag k="ssr:stedsnr" v="679197" />
	</node>
	<node lat="63.11576944016973" lon="8.14610278054566" id="-5442">
		<tag k="bay" v="fjord" />
		<tag k="name" v="Halsafjorden" />
		<tag k="natural" v="bay" />
		<tag k="ssr:stedsnr" v="679286" />
	</node>
	<node lat="62.95725278028183" lon="8.332766669518291" id="-5443">
		<tag k="name" v="Aksneset" />
		<tag k="natural" v="cape" />
		<tag k="ssr:stedsnr" v="679657" />
	</node>
	<node lat="62.92794166680907" lon="8.291286113812236" id="-5446">
		<tag k="name" v="Svanaholmen" />
		<tag k="place" v="islet" />
		<tag k="ssr:stedsnr" v="679702" />
	</node>
	<node lat="62.989525004396235" lon="7.894369449959911" id="-5448">
		<tag k="name" v="Larsneset" />
		<tag k="natural" v="cape" />
		<tag k="ssr:stedsnr" v="679844" />
	</node>
	<node lat="62.99843888850261" lon="7.953144438470519" id="-5449">
		<tag k="name" v="Boksaspneset" />
		<tag k="natural" v="cape" />
		<tag k="ssr:stedsnr" v="679858" />
	</node>
	<node lat="63.06281944568189" lon="7.978374994997407" id="-5451">
		<tag k="name" v="Kvisvika" />
		<tag k="natural" v="bay" />
		<tag k="ssr:stedsnr" v="680184" />
	</node>
	<node lat="62.95954444865545" lon="7.841672218210539" id="-5462">
		<tag k="bay" v="fjord" />
		<tag k="name" v="Bergsøyfjorden" />
		<tag k="natural" v="bay" />
		<tag k="ssr:stedsnr" v="497908" />
	</node>
	<node lat="63.089566666324764" lon="8.127338884547264" id="-5476">
		<tag k="name" v="Slåttaneset" />
		<tag k="natural" v="cape" />
		<tag k="ssr:stedsnr" v="531324" />
	</node>
	<node lat="62.90612777412679" lon="8.193972217977405" id="-5488">
		<tag k="name" v="Kråkneset" />
		<tag k="natural" v="cape" />
		<tag k="ssr:stedsnr" v="532322" />
	</node>
	<node lat="63.02676110879356" lon="8.073761120779604" id="-5491">
		<tag k="name" v="Rundsvanaholmen" />
		<tag k="place" v="islet" />
		<tag k="ssr:stedsnr" v="532270" />
	</node>
	<node lat="62.98820000048334" lon="8.034880548630408" id="-5494">
		<tag k="fixme" v="consider seamark:type=rock or natural=shoal" />
		<tag k="name" v="Treekerskjeret" />
		<tag k="place" v="islet" />
		<tag k="ssr:stedsnr" v="532478" />
	</node>
	<node lat="63.08724444277983" lon="7.975716659377556" id="-5504">
		<tag k="name" v="Klakken" />
		<tag k="natural" v="shoal" />
		<tag k="place" v="locality" />
		<tag k="ssr:stedsnr" v="534616" />
	</node>
	<node lat="63.071094443969514" lon="8.141847230261888" id="-5505">
		<tag k="name" v="Jutvikneset" />
		<tag k="natural" v="cape" />
		<tag k="ssr:stedsnr" v="534623" />
	</node>
	<node lat="63.04439722651412" lon="7.928116660125593" id="-5506">
		<tag k="name" v="Gildertaren" />
		<tag k="natural" v="shoal" />
		<tag k="place" v="locality" />
		<tag k="ssr:stedsnr" v="535271" />
	</node>
	<node lat="63.03942777643001" lon="7.91195277517288" id="-5514">
		<tag k="name" v="Sallaupneset" />
		<tag k="natural" v="cape" />
		<tag k="ssr:stedsnr" v="558148" />
	</node>
	<node lat="62.999325003023095" lon="8.001186110178306" id="-5515">
		<tag k="name" v="Strupneset" />
		<tag k="natural" v="cape" />
		<tag k="ssr:stedsnr" v="557856" />
	</node>
	<node lat="63.02128888481452" lon="7.887327772834478" id="-5527">
		<tag k="fixme" v="consider seamark:type=rock or natural=shoal" />
		<tag k="name" v="Porkvikskjeret" />
		<tag k="place" v="islet" />
		<tag k="ssr:stedsnr" v="591653" />
	</node>
	<node lat="63.0351416662693" lon="7.905091662619939" id="-5529">
		<tag k="name" v="Litlvika" />
		<tag k="natural" v="bay" />
		<tag k="ssr:stedsnr" v="591660" />
	</node>
	<node lat="63.038373272529455" lon="7.908813387793885" id="-5530">
		<tag k="fixme" v="consider seamark:type=rock or natural=shoal" />
		<tag k="name" v="Sallaupskjæra" />
		<tag k="place" v="islet" />
		<tag k="ssr:stedsnr" v="591661" />
	</node>
	<node lat="62.86131388937042" lon="8.300927786098928" id="-5542">
		<tag k="name" v="Litlvågen" />
		<tag k="natural" v="bay" />
		<tag k="ssr:stedsnr" v="592955" />
	</node>
	<node lat="62.91188055296037" lon="8.319724992810828" id="-5560">
		<tag k="name" v="Olneset" />
		<tag k="natural" v="cape" />
		<tag k="ssr:stedsnr" v="594111" />
	</node>
	<node lat="62.93142222426857" lon="8.318111119707492" id="-5561">
		<tag k="name" v="Flua" />
		<tag k="place" v="locality" />
		<tag k="seamark:type" v="rock" />
		<tag k="ssr:stedsnr" v="594113" />
	</node>
	<node lat="63.111563891093056" lon="8.046172227400351" id="-5565">
		<tag k="name" v="Midtholmen" />
		<tag k="place" v="islet" />
		<tag k="ssr:stedsnr" v="618326" />
	</node>
	<node lat="63.11284166480191" lon="8.08196388383777" id="-5566">
		<tag k="name" v="Kjeøya" />
		<tag k="place" v="islet" />
		<tag k="ssr:stedsnr" v="618327" />
	</node>
	<node lat="62.90950277431359" lon="8.153874996068895" id="-5570">
		<tag k="name" v="Øygardsneset" />
		<tag k="natural" v="cape" />
		<tag k="ssr:stedsnr" v="618982" />
	</node>
	<node lat="63.003549998485006" lon="8.234336118178147" id="-5579">
		<tag k="name" v="Grønbukta" />
		<tag k="natural" v="bay" />
		<tag k="ssr:stedsnr" v="651035" />
	</node>
	<node lat="63.09581944732853" lon="8.005158338551082" id="-5590">
		<tag k="alt_name" v="Nordbukta" />
		<tag k="name" v="Nordbukt" />
		<tag k="natural" v="bay" />
		<tag k="ssr:stedsnr" v="653321" />
	</node>
	<node lat="63.018511107312555" lon="7.986724991610223" id="-5594">
		<tag k="name" v="Einsetbukta" />
		<tag k="natural" v="bay" />
		<tag k="ssr:stedsnr" v="653730" />
	</node>
	<node lat="63.009652780053564" lon="7.973069440585812" id="-5595">
		<tag k="name" v="Arnvikneset" />
		<tag k="natural" v="cape" />
		<tag k="ssr:stedsnr" v="653737" />
	</node>
	<node lat="63.028352777790204" lon="8.095274995789053" id="-5603">
		<tag k="name" v="Gjelen" />
		<tag k="natural" v="bay" />
		<tag k="ssr:stedsnr" v="654294" />
	</node>
	<node lat="62.878669448038806" lon="8.347786119768273" id="-5606">
		<tag k="fixme" v="consider seamark:type=rock or natural=shoal" />
		<tag k="name" v="Reitskjeret" />
		<tag k="place" v="islet" />
		<tag k="ssr:stedsnr" v="654737" />
	</node>
	<node lat="62.983497223564676" lon="8.260383339147138" id="-5608">
		<tag k="name" v="Torjulvågen" />
		<tag k="natural" v="bay" />
		<tag k="ssr:stedsnr" v="656005" />
	</node>
	<node lat="62.99403333612016" lon="7.895236116791234" id="-5619">
		<tag k="name" v="Skjelvågen" />
		<tag k="natural" v="bay" />
		<tag k="ssr:stedsnr" v="895673" />
	</node>
	<node lat="63.09671944112165" lon="7.956736118867742" id="-5621">
		<tag k="alt_name" v="Holmen" />
		<tag k="name" v="Halinen" />
		<tag k="place" v="islet" />
		<tag k="ssr:stedsnr" v="896327" />
	</node>
	<node lat="63.04125833515329" lon="7.954672231902987" id="-5628">
		<tag k="name" v="Nastadsanden" />
		<tag k="natural" v="beach" />
		<tag k="ssr:stedsnr" v="896282" />
	</node>
	<node lat="63.051027775702984" lon="7.945452770711714" id="-5629">
		<tag k="name" v="Flatholmen" />
		<tag k="place" v="islet" />
		<tag k="ssr:stedsnr" v="896283" />
	</node>
	<node lat="62.94275000051267" lon="8.179452787200013" id="-5632">
		<tag k="name" v="Mjølknesbukta" />
		<tag k="natural" v="bay" />
		<tag k="ssr:stedsnr" v="896483" />
	</node>
	<node lat="62.80760833069019" lon="8.278225001239072" id="-5637">
		<tag k="name" v="Ferneset" />
		<tag k="natural" v="cape" />
		<tag k="ssr:stedsnr" v="896814" />
	</node>
	<node lat="62.835191662776964" lon="8.183613890530502" id="-5645">
		<tag k="name" v="Fjøsneset" />
		<tag k="natural" v="cape" />
		<tag k="ssr:stedsnr" v="896949" />
	</node>
	<node lat="63.02796111316807" lon="8.0804638890803" id="-5650">
		<tag k="name" v="Gjelneset" />
		<tag k="natural" v="cape" />
		<tag k="ssr:stedsnr" v="897283" />
	</node>
	<node lat="63.02093889229208" lon="7.949425004904745" id="-5661">
		<tag k="name" v="Faksvågen" />
		<tag k="natural" v="bay" />
		<tag k="old_name" v="Faksevågen" />
		<tag k="ssr:stedsnr" v="713413" />
	</node>
	<node lat="62.80941944088385" lon="8.24708333046454" id="-5665">
		<tag k="alt_name" v="Stomsvikneset" />
		<tag k="name" v="Ytter Stomsvikneset" />
		<tag k="natural" v="cape" />
		<tag k="ssr:stedsnr" v="714118" />
	</node>
	<node lat="63.04404721860066" lon="8.128874990349106" id="-5669">
		<tag k="name" v="Jensneset" />
		<tag k="natural" v="cape" />
		<tag k="ssr:stedsnr" v="714238" />
	</node>
	<node lat="62.93971110899256" lon="8.30138056473972" id="-5670">
		<tag k="name" v="Bjerkaneset" />
		<tag k="natural" v="cape" />
		<tag k="ssr:stedsnr" v="714240" />
	</node>
	<node lat="62.99106868396047" lon="8.018071727208964" id="-5674">
		<tag k="name" v="Øygardsholmen" />
		<tag k="place" v="islet" />
		<tag k="ssr:stedsnr" v="714585" />
	</node>
	<node lat="62.9741472205698" lon="8.309027773207065" id="-5680">
		<tag k="name" v="Hamnaneset" />
		<tag k="natural" v="cape" />
		<tag k="ssr:stedsnr" v="716117" />
	</node>
	<node lat="63.01609722260982" lon="7.988961115811078" id="-5681">
		<tag k="fixme" v="consider seamark:type=rock or natural=shoal" />
		<tag k="name" v="Einsetskjæret" />
		<tag k="place" v="islet" />
		<tag k="ssr:stedsnr" v="900563" />
	</node>
	<node lat="62.85740000061943" lon="8.158852781428424" id="-5687">
		<tag k="name" v="Honnhammarneset" />
		<tag k="natural" v="cape" />
		<tag k="ssr:stedsnr" v="740504" />
	</node>
	<node lat="62.97882499905081" lon="8.25329999609641" id="-5691">
		<tag k="name" v="Holmen" />
		<tag k="place" v="islet" />
		<tag k="ssr:stedsnr" v="772527" />
	</node>
	<node lat="63.06128333729937" lon="7.978480564357757" id="-5697">
		<tag k="name" v="Hestvikneset" />
		<tag k="natural" v="cape" />
		<tag k="ssr:stedsnr" v="774315" />
	</node>
	<node lat="63.04076666439858" lon="7.9463805601994775" id="-5698">
		<tag k="name" v="Aspøy" />
		<tag k="place" v="island" />
		<tag k="ssr:stedsnr" v="774316" />
	</node>
	<node lat="63.02805833656557" lon="7.980491671789096" id="-5701">
		<tag k="name" v="Skjerneset" />
		<tag k="natural" v="cape" />
		<tag k="ssr:stedsnr" v="774506" />
	</node>
	<node lat="63.0238000007406" lon="7.954477769239499" id="-5705">
		<tag k="name" v="Skareneset" />
		<tag k="natural" v="cape" />
		<tag k="ssr:stedsnr" v="774456" />
	</node>
	<node lat="62.822800001063044" lon="8.216399993967162" id="-5709">
		<tag k="alt_name" v="Rotåsbukta" />
		<tag k="name" v="Rottåsbukta" />
		<tag k="natural" v="bay" />
		<tag k="ssr:stedsnr" v="775121" />
	</node>
	<node lat="63.02697777829993" lon="8.099200009254995" id="-5718">
		<tag k="name" v="Båtvikneset" />
		<tag k="natural" v="cape" />
		<tag k="ssr:stedsnr" v="775257" />
	</node>
	<node lat="63.0266583295519" lon="8.091955560918773" id="-5719">
		<tag k="name" v="Gjelneset" />
		<tag k="natural" v="cape" />
		<tag k="ssr:stedsnr" v="775258" />
	</node>
	<node lat="62.929744448014304" lon="8.14952222062219" id="-5727">
		<tag k="name" v="Kobben" />
		<tag k="natural" v="cape" />
		<tag k="ssr:stedsnr" v="775809" />
	</node>
	<node lat="62.87992777387545" lon="8.35340555680242" id="-5728">
		<tag k="name" v="Møkkalasset" />
		<tag k="natural" v="beach" />
		<tag k="ssr:stedsnr" v="775715" />
	</node>
	<node lat="62.809347218040486" lon="8.275102774602823" id="-5729">
		<tag k="name" v="Fjøseidbukta" />
		<tag k="natural" v="bay" />
		<tag k="ssr:stedsnr" v="775766" />
	</node>
	<node lat="63.076777775643265" lon="8.13195834096982" id="-5735">
		<tag k="name" v="Halsbukta" />
		<tag k="natural" v="bay" />
		<tag k="ssr:stedsnr" v="801174" />
	</node>
	<node lat="62.99376389284299" lon="7.882916657885927" id="-5765">
		<tag k="name" v="Krabbholmen" />
		<tag k="place" v="islet" />
		<tag k="ssr:stedsnr" v="922859" />
	</node>
	<node lat="62.90852499974806" lon="8.184352787463013" id="-5767">
		<tag k="name" v="Tingvollvågen" />
		<tag k="natural" v="bay" />
		<tag k="ssr:stedsnr" v="922991" />
	</node>
	<node lat="63.047724998519094" lon="8.120580556711094" id="-5771">
		<tag k="name" v="Straumen" />
		<tag k="natural" v="bay" />
		<tag k="ssr:stedsnr" v="923167" />
	</node>
	<node lat="63.099894442421935" lon="7.996649996934082" id="-5776">
		<tag k="name" v="Mjøkvika" />
		<tag k="natural" v="bay" />
		<tag k="ssr:stedsnr" v="835330" />
	</node>
	<node lat="62.97704722263766" lon="8.260288886709885" id="-5780">
		<tag k="name" v="Langrompå" />
		<tag k="natural" v="cape" />
		<tag k="ssr:stedsnr" v="836076" />
	</node>
	<node lat="62.874150000152405" lon="8.161430564020158" id="-5782">
		<tag k="name" v="Litlneset" />
		<tag k="natural" v="cape" />
		<tag k="ssr:stedsnr" v="836078" />
	</node>
	<node lat="62.975013889520206" lon="8.25477777842761" id="-5789">
		<tag k="name" v="Vågaleira" />
		<tag k="natural" v="shoal" />
		<tag k="place" v="locality" />
		<tag k="ssr:stedsnr" v="836612" />
	</node>
	<node lat="63.002236110685004" lon="7.956102778599535" id="-5791">
		<tag k="name" v="Markabukta" />
		<tag k="natural" v="bay" />
		<tag k="ssr:stedsnr" v="836681" />
	</node>
	<node lat="63.10043888994558" lon="7.994669440319556" id="-5799">
		<tag k="name" v="Purkvika" />
		<tag k="natural" v="bay" />
		<tag k="ssr:stedsnr" v="837606" />
	</node>
	<node lat="62.88023888555017" lon="8.150630555248073" id="-5800">
		<tag k="name" v="Kårsteingrunnen" />
		<tag k="natural" v="shoal" />
		<tag k="place" v="locality" />
		<tag k="ssr:stedsnr" v="838433" />
	</node>
	<node lat="62.9005527817515" lon="8.167041660024234" id="-5801">
		<tag k="fixme" v="consider seamark:type=rock or natural=shoal" />
		<tag k="name" v="Saltbunesskjæret" />
		<tag k="place" v="islet" />
		<tag k="ssr:stedsnr" v="838434" />
	</node>
	<node lat="62.93026389078174" lon="8.298202770847368" id="-5804">
		<tag k="name" v="Vågbøøya" />
		<tag k="place" v="islet" />
		<tag k="ssr:stedsnr" v="861684" />
	</node>
	<node lat="62.96397778013722" lon="8.333688881616867" id="-5828">
		<tag k="name" v="Ytter Aksneset" />
		<tag k="natural" v="cape" />
		<tag k="ssr:stedsnr" v="897010" />
	</node>
	<node lat="62.96699722301324" lon="8.326091675115832" id="-5829">
		<tag k="name" v="Attrortangen" />
		<tag k="natural" v="cape" />
		<tag k="ssr:stedsnr" v="897017" />
	</node>
	<node lat="63.03430000044089" lon="8.13265554961106" id="-5840">
		<tag k="name" v="Vassbukta" />
		<tag k="natural" v="bay" />
		<tag k="ssr:stedsnr" v="897268" />
	</node>
	<node lat="63.01931944228766" lon="7.882911111733305" id="-5856">
		<tag k="name" v="Purkviktaran" />
		<tag k="natural" v="shoal" />
		<tag k="place" v="locality" />
		<tag k="ssr:stedsnr" v="900708" />
	</node>
	<node lat="63.11233055393682" lon="8.050605551690007" id="-5864">
		<tag k="name" v="Raudhatten" />
		<tag k="old_name" v="Røhatt" />
		<tag k="place" v="islet" />
		<tag k="ssr:stedsnr" v="922326" />
	</node>
	<node lat="63.106969447011394" lon="8.095172218872145" id="-5866">
		<tag k="name" v="Vorpbukta" />
		<tag k="natural" v="bay" />
		<tag k="ssr:stedsnr" v="922331" />
	</node>
	<node lat="63.11526110915257" lon="8.074197221848674" id="-5871">
		<tag k="fixme" v="consider seamark:type=rock or natural=shoal" />
		<tag k="name" v="Fjordskjæra" />
		<tag k="place" v="islet" />
		<tag k="ssr:stedsnr" v="923308" />
	</node>
	<node lat="62.99170833179189" lon="8.260016664223338" id="-5877">
		<tag k="name" v="Grunnen" />
		<tag k="natural" v="shoal" />
		<tag k="place" v="locality" />
		<tag k="ssr:stedsnr" v="956013" />
	</node>
	<node lat="63.10828055343713" lon="8.033102772722991" id="-5879">
		<tag k="name" v="Bogaskaget" />
		<tag k="natural" v="cape" />
		<tag k="ssr:stedsnr" v="956308" />
	</node>
	<node lat="63.04845833530922" lon="8.099758342996983" id="-5883">
		<tag k="name" v="Øverstraumen" />
		<tag k="natural" v="strait" />
		<tag k="ssr:stedsnr" v="956289" />
	</node>
	<node lat="62.98243611170207" lon="8.278922212343087" id="-5890">
		<tag k="name" v="Svinnesbukta" />
		<tag k="natural" v="bay" />
		<tag k="ssr:stedsnr" v="957104" />
	</node>
	<node lat="62.97394166319878" lon="8.309952786335481" id="-5891">
		<tag k="name" v="Hamna" />
		<tag k="natural" v="bay" />
		<tag k="ssr:stedsnr" v="957107" />
	</node>
	<node lat="62.92635237051162" lon="8.287687187080556" id="-5894">
		<tag k="name" v="Fetta" />
		<tag k="natural" v="cape" />
		<tag k="ssr:stedsnr" v="957086" />
	</node>
	<node lat="62.99830277606411" lon="8.014216665134875" id="-5898">
		<tag k="name" v="Eikrembukta" />
		<tag k="natural" v="bay" />
		<tag k="ssr:stedsnr" v="957387" />
	</node>
	<node lat="63.01724999995235" lon="7.990613891598758" id="-5900">
		<tag k="name" v="Kjerringneset" />
		<tag k="natural" v="cape" />
		<tag k="ssr:stedsnr" v="957720" />
	</node>
	<node lat="62.97942777354128" lon="8.046977772596078" id="-5901">
		<tag k="alt_name" v="Bronnesbukta" />
		<tag k="name" v="Brunnesbukta" />
		<tag k="natural" v="bay" />
		<tag k="ssr:stedsnr" v="957485" />
	</node>
	<node lat="62.923102776575014" lon="8.151838897462905" id="-5903">
		<tag k="name" v="Lauvikneset" />
		<tag k="natural" v="cape" />
		<tag k="ssr:stedsnr" v="957819" />
	</node>
	<node lat="62.91981944808391" lon="8.152219452089088" id="-5904">
		<tag k="name" v="Spelaneset" />
		<tag k="natural" v="cape" />
		<tag k="ssr:stedsnr" v="957821" />
	</node>
	<node lat="63.038112395927214" lon="7.907387566740181" id="-5916">
		<tag k="fixme" v="consider seamark:type=rock or natural=shoal" />
		<tag k="name" v="Sallaupskjæret" />
		<tag k="place" v="islet" />
		<tag k="ssr:stedsnr" v="980570" />
	</node>
	<node lat="62.977316670646594" lon="8.04713610117456" id="-5927">
		<tag k="alt_name" v="Bronneset" />
		<tag k="name" v="Brunneset" />
		<tag k="natural" v="cape" />
		<tag k="ssr:stedsnr" v="12891" />
	</node>
	<node lat="62.981849997518836" lon="8.31320277738869" id="-5930">
		<tag k="bay" v="fjord" />
		<tag k="name" v="Trongfjorden" />
		<tag k="natural" v="bay" />
		<tag k="ssr:stedsnr" v="11641" />
	</node>
	<node lat="63.04470555880201" lon="8.140544443983142" id="-5934">
		<tag k="name" v="Brattholmen" />
		<tag k="place" v="islet" />
		<tag k="ssr:stedsnr" v="12149" />
	</node>
	<node lat="62.828575002516175" lon="8.19405832779002" id="-5950">
		<tag k="name" v="Skrøhammarbukta" />
		<tag k="natural" v="bay" />
		<tag k="ssr:stedsnr" v="46932" />
	</node>
	<node lat="63.00626944287326" lon="8.218766672089304" id="-5955">
		<tag k="alt_name" v="Biraskjeret" />
		<tag k="fixme" v="consider seamark:type=rock or natural=shoal" />
		<tag k="name" v="Biraskjæret" />
		<tag k="place" v="islet" />
		<tag k="ssr:stedsnr" v="45037" />
	</node>
	<node lat="63.07880833193517" lon="7.9676472179250135" id="-5958">
		<tag k="name" v="Skarabukta" />
		<tag k="natural" v="bay" />
		<tag k="ssr:stedsnr" v="46233" />
	</node>
	<node lat="62.81149166398275" lon="8.244858323628154" id="-5961">
		<tag k="name" v="Lefterbukta" />
		<tag k="natural" v="bay" />
		<tag k="ssr:stedsnr" v="46146" />
	</node>
	<node lat="63.101319443022405" lon="8.108597231392315" id="-5964">
		<tag k="name" v="Liabukta" />
		<tag k="natural" v="bay" />
		<tag k="ssr:stedsnr" v="46316" />
	</node>
	<node lat="63.03826935811176" lon="8.059448272563781" id="-5965">
		<tag k="name" v="Straumsvågen" />
		<tag k="natural" v="bay" />
		<tag k="ssr:stedsnr" v="46422" />
	</node>
	<node lat="63.011819448906685" lon="7.895863890899119" id="-5973">
		<tag k="name" v="Utgardsneset" />
		<tag k="natural" v="cape" />
		<tag k="ssr:stedsnr" v="46607" />
	</node>
	<node lat="62.96432221993802" lon="8.08236666848341" id="-5976">
		<tag k="name" v="Hammarklubben" />
		<tag k="natural" v="cape" />
		<tag k="ssr:stedsnr" v="46797" />
	</node>
	<node lat="63.028399997280516" lon="8.075402781768611" id="-5980">
		<tag k="name" v="Aureneset" />
		<tag k="natural" v="cape" />
		<tag k="ssr:stedsnr" v="47295" />
	</node>
	<node lat="62.878308334674806" lon="8.341849993469973" id="-5986">
		<tag k="name" v="Lundaneset" />
		<tag k="natural" v="cape" />
		<tag k="ssr:stedsnr" v="47728" />
	</node>
	<node lat="62.8817333351202" lon="8.337461108353668" id="-5998">
		<tag k="bay" v="fjord" />
		<tag k="name" v="Meisingsetfjorden" />
		<tag k="natural" v="bay" />
		<tag k="ssr:stedsnr" v="47652" />
	</node>
	<node lat="63.01204166541576" lon="8.063041660797984" id="-6003">
		<tag k="name" v="Åreibukta" />
		<tag k="natural" v="bay" />
		<tag k="ssr:stedsnr" v="229106" />
	</node>
	<node lat="62.85029444765398" lon="8.168977771166995" id="-6006">
		<tag k="name" v="Hagabukta" />
		<tag k="natural" v="bay" />
		<tag k="ssr:stedsnr" v="229114" />
	</node>
	<node lat="63.099088888692" lon="8.013338892891685" id="-6008">
		<tag k="name" v="Grunnvalen" />
		<tag k="natural" v="shoal" />
		<tag k="place" v="locality" />
		<tag k="ssr:stedsnr" v="48560" />
	</node>
	<node lat="62.89922222306143" lon="8.167197227809172" id="-6011">
		<tag k="name" v="Saltbuneset" />
		<tag k="natural" v="cape" />
		<tag k="ssr:stedsnr" v="72993" />
	</node>
	<node lat="63.04087222054322" lon="8.132866664143021" id="-6020">
		<tag k="name" v="Geilen" />
		<tag k="natural" v="cape" />
		<tag k="ssr:stedsnr" v="73478" />
	</node>
	<node lat="63.04214999572919" lon="8.136269446164496" id="-6024">
		<tag k="name" v="Flatholmen" />
		<tag k="place" v="islet" />
		<tag k="ssr:stedsnr" v="73245" />
	</node>
	<node lat="62.865800000435826" lon="8.31277222782487" id="-6025">
		<tag k="fixme" v="multiple name tags, choose one and add the other to alt_name" />
		<tag k="name" v="Fjørnestangen;Fjølnestangen" />
		<tag k="natural" v="cape" />
		<tag k="ssr:stedsnr" v="73257" />
	</node>
	<node lat="63.085619440934074" lon="7.973527785076101" id="-6042">
		<tag k="name" v="Rausandbukta" />
		<tag k="natural" v="bay" />
		<tag k="ssr:stedsnr" v="107307" />
	</node>
	<node lat="62.99934166310226" lon="8.00674444428546" id="-6057">
		<tag k="name" v="Brevikbukta" />
		<tag k="natural" v="bay" />
		<tag k="ssr:stedsnr" v="108398" />
	</node>
	<node lat="62.99051119180644" lon="8.034603542122909" id="-6058">
		<tag k="name" v="Treekerbukta" />
		<tag k="natural" v="bay" />
		<tag k="ssr:stedsnr" v="108494" />
	</node>
	<node lat="63.1010888860674" lon="8.023863892709805" id="-6061">
		<tag k="name" v="Osaholmen" />
		<tag k="place" v="islet" />
		<tag k="ssr:stedsnr" v="108334" />
	</node>
	<node lat="62.88795833430455" lon="8.33058887997627" id="-6069">
		<tag k="name" v="Grønvika" />
		<tag k="natural" v="bay" />
		<tag k="ssr:stedsnr" v="108756" />
	</node>
	<node lat="63.104052774385714" lon="8.040830557146828" id="-6076">
		<tag k="name" v="Saltkjelbukta" />
		<tag k="natural" v="bay" />
		<tag k="ssr:stedsnr" v="110181" />
	</node>
	<node lat="63.04794722232123" lon="7.938274995867188" id="-6081">
		<tag k="fixme" v="consider seamark:type=rock or natural=shoal" />
		<tag k="name" v="Trettskjæret" />
		<tag k="place" v="islet" />
		<tag k="ssr:stedsnr" v="133134" />
	</node>
	<node lat="62.890911112277976" lon="8.338108325577677" id="-6092">
		<tag k="name" v="Røttingsneset" />
		<tag k="natural" v="cape" />
		<tag k="ssr:stedsnr" v="133247" />
	</node>
	<node lat="63.00537499752243" lon="8.220805550678085" id="-6101">
		<tag k="name" v="Aspabukta" />
		<tag k="natural" v="bay" />
		<tag k="ssr:stedsnr" v="166032" />
	</node>
	<node lat="63.08289444587579" lon="8.139094452516858" id="-6102">
		<tag k="alt_name" v="Halsneset" />
		<tag k="name" v="Halsaneset" />
		<tag k="natural" v="cape" />
		<tag k="ssr:stedsnr" v="166046" />
	</node>
	<node lat="63.09545555300198" lon="7.981186102573532" id="-6104">
		<tag k="name" v="Bellsundet" />
		<tag k="natural" v="strait" />
		<tag k="ssr:stedsnr" v="167333" />
	</node>
	<node lat="63.088774996075486" lon="7.9519249981034275" id="-6105">
		<tag k="name" v="Skarvbergneset" />
		<tag k="natural" v="cape" />
		<tag k="ssr:stedsnr" v="167338" />
	</node>
	<node lat="62.87629999914474" lon="8.34199167604732" id="-6140">
		<tag k="name" v="Lundafjøra" />
		<tag k="natural" v="beach" />
		<tag k="ssr:stedsnr" v="168718" />
	</node>
	<node lat="62.99035555609801" lon="8.254450003324335" id="-6141">
		<tag k="name" v="Nordbøbukta" />
		<tag k="natural" v="bay" />
		<tag k="ssr:stedsnr" v="168723" />
	</node>
	<node lat="62.886308329572095" lon="8.36562500180736" id="-6143">
		<tag k="name" v="Furuneset" />
		<tag k="natural" v="cape" />
		<tag k="ssr:stedsnr" v="168734" />
	</node>
	<node lat="62.87486944123058" lon="8.312911107848608" id="-6160">
		<tag k="name" v="Røyaneset" />
		<tag k="natural" v="cape" />
		<tag k="ssr:stedsnr" v="169670" />
	</node>
	<node lat="63.013938885430186" lon="7.850424992768456" id="-6163">
		<tag k="name" v="Aspgrunnen" />
		<tag k="natural" v="shoal" />
		<tag k="place" v="locality" />
		<tag k="ssr:stedsnr" v="171733" />
	</node>
	<node lat="62.989275002944986" lon="7.902449993454901" id="-6164">
		<tag k="name" v="Larsnesholman" />
		<tag k="place" v="islet" />
		<tag k="ssr:stedsnr" v="193867" />
	</node>
	<node lat="62.99039787409468" lon="7.885647173218509" id="-6165">
		<tag k="name" v="Skjevlingsneset" />
		<tag k="natural" v="cape" />
		<tag k="ssr:stedsnr" v="193869" />
	</node>
	<node lat="63.04487499949682" lon="8.1286944350237" id="-6167">
		<tag k="name" v="Jensneset" />
		<tag k="natural" v="cape" />
		<tag k="ssr:stedsnr" v="194139" />
	</node>
	<node lat="63.009691663147315" lon="7.887936113346422" id="-6169">
		<tag k="name" v="Jåvikneset" />
		<tag k="natural" v="cape" />
		<tag k="ssr:stedsnr" v="194193" />
	</node>
	<node lat="63.11146111524606" lon="8.02175834221152" id="-6171">
		<tag k="fixme" v="consider seamark:type=rock or natural=shoal" />
		<tag k="name" v="Årsundbåen" />
		<tag k="place" v="islet" />
		<tag k="ssr:stedsnr" v="194318" />
	</node>
	<node lat="62.983258331858586" lon="8.276902782034895" id="-6178">
		<tag k="name" v="Svinneset" />
		<tag k="natural" v="cape" />
		<tag k="ssr:stedsnr" v="194609" />
	</node>
	<node lat="62.97192778020145" lon="8.073427776945229" id="-6186">
		<tag k="name" v="Fårråneset" />
		<tag k="natural" v="cape" />
		<tag k="ssr:stedsnr" v="194862" />
	</node>
	<node lat="63.00530000411477" lon="8.22702222257696" id="-6194">
		<tag k="name" v="Kvalsida" />
		<tag k="natural" v="cape" />
		<tag k="ssr:stedsnr" v="227036" />
	</node>
	<node lat="63.02238111922589" lon="7.887372802525832" id="-6196">
		<tag k="name" v="Porkvika" />
		<tag k="natural" v="bay" />
		<tag k="ssr:stedsnr" v="227643" />
	</node>
	<node lat="63.09571111144994" lon="7.973163890511862" id="-6203">
		<tag k="name" v="Årsundbukta" />
		<tag k="natural" v="bay" />
		<tag k="ssr:stedsnr" v="228338" />
	</node>
	<node lat="63.00824444543352" lon="8.205172214051794" id="-6211">
		<tag k="name" v="Måsen" />
		<tag k="natural" v="cape" />
		<tag k="ssr:stedsnr" v="288049" />
	</node>
	<node lat="62.97268333569539" lon="8.05987221796552" id="-6215">
		<tag k="name" v="Vulvikneset" />
		<tag k="natural" v="cape" />
		<tag k="ssr:stedsnr" v="288665" />
	</node>
	<node lat="63.09078889092862" lon="8.114500005659892" id="-6218">
		<tag k="name" v="Rakstangbukta" />
		<tag k="natural" v="bay" />
		<tag k="ssr:stedsnr" v="289294" />
	</node>
	<node lat="63.04717777576048" lon="8.096588897228212" id="-6221">
		<tag k="name" v="Bjønnavika" />
		<tag k="natural" v="bay" />
		<tag k="ssr:stedsnr" v="289251" />
	</node>
	<node lat="62.94195555528807" lon="8.303538883775078" id="-6223">
		<tag k="name" v="Gammelstøbukta" />
		<tag k="natural" v="bay" />
		<tag k="ssr:stedsnr" v="289259" />
	</node>
	<node lat="63.11538888668062" lon="8.075197225469235" id="-6225">
		<tag k="name" v="Hestholmen" />
		<tag k="place" v="islet" />
		<tag k="ssr:stedsnr" v="289265" />
	</node>
	<node lat="63.00996944820778" lon="7.970516660371379" id="-6237">
		<tag k="name" v="Arnvikbukta" />
		<tag k="natural" v="bay" />
		<tag k="ssr:stedsnr" v="289756" />
	</node>
	<node lat="63.01618888877507" lon="7.993294440177443" id="-6238">
		<tag k="name" v="Skipøya" />
		<tag k="place" v="island" />
		<tag k="ssr:stedsnr" v="289774" />
	</node>
	<node lat="63.03377499906252" lon="8.134991658841255" id="-6246">
		<tag k="name" v="Muntvika" />
		<tag k="natural" v="bay" />
		<tag k="ssr:stedsnr" v="290266" />
	</node>
	<node lat="63.03057778149212" lon="8.148472215048837" id="-6248">
		<tag k="alt_name" v="Fløystadskjera" />
		<tag k="fixme" v="consider seamark:type=rock or natural=shoal" />
		<tag k="name" v="Fløystadskjæra" />
		<tag k="place" v="islet" />
		<tag k="ssr:stedsnr" v="290269" />
	</node>
	<node lat="63.06575278162155" lon="7.963055553303179" id="-6265">
		<tag k="name" v="Kvisviktaren" />
		<tag k="natural" v="shoal" />
		<tag k="place" v="locality" />
		<tag k="ssr:stedsnr" v="293561" />
	</node>
	<node lat="63.08358055628048" lon="8.051938882980712" id="-6266">
		<tag k="name" v="Straumsnes" />
		<tag k="natural" v="cape" />
		<tag k="ssr:stedsnr" v="315177" />
	</node>
	<node lat="63.00024166336002" lon="7.884822226402322" id="-6268">
		<tag k="alt_name" v="Vikeholman" />
		<tag k="name" v="Flatholmen" />
		<tag k="place" v="islet" />
		<tag k="ssr:stedsnr" v="315185" />
	</node>
	<node lat="62.861713887828024" lon="8.301155554913134" id="-6274">
		<tag k="name" v="Meisingsetvågen" />
		<tag k="natural" v="bay" />
		<tag k="ssr:stedsnr" v="315245" />
	</node>
	<node lat="63.10111110693395" lon="8.007347230496816" id="-6275">
		<tag k="name" v="Langøya" />
		<tag k="place" v="island" />
		<tag k="ssr:stedsnr" v="315333" />
	</node>
	<node lat="63.09486388828663" lon="7.993019449876224" id="-6277">
		<tag k="name" v="Langøysundet" />
		<tag k="natural" v="strait" />
		<tag k="ssr:stedsnr" v="315340" />
	</node>
	<node lat="63.03096388542975" lon="7.9804305593890925" id="-6299">
		<tag k="name" v="Saltkjelbukta" />
		<tag k="natural" v="bay" />
		<tag k="ssr:stedsnr" v="348446" />
	</node>
	<node lat="63.02992777691931" lon="7.897275000257971" id="-6300">
		<tag k="name" v="Tuvikneset" />
		<tag k="natural" v="cape" />
		<tag k="ssr:stedsnr" v="348638" />
	</node>
	<node lat="63.028138887998665" lon="7.896258342190449" id="-6301">
		<tag k="name" v="Tuvikbukta" />
		<tag k="natural" v="bay" />
		<tag k="ssr:stedsnr" v="348639" />
	</node>
	<node lat="63.04896111486939" lon="7.976994449364182" id="-6312">
		<tag k="alt_name" v="Vika" />
		<tag k="name" v="Litlvika" />
		<tag k="natural" v="bay" />
		<tag k="ssr:stedsnr" v="349346" />
	</node>
	<node lat="63.01030426053402" lon="7.981420715435475" id="-6342">
		<tag k="name" v="Risholmen" />
		<tag k="place" v="islet" />
		<tag k="ssr:stedsnr" v="350704" />
	</node>
	<node lat="62.99391389183167" lon="7.88857777113754" id="-6355">
		<tag k="name" v="Skjevlingvågen" />
		<tag k="natural" v="bay" />
		<tag k="ssr:stedsnr" v="375853" />
	</node>
	<node lat="63.05044999623046" lon="7.974377769806445" id="-6357">
		<tag k="name" v="Mjølkneset" />
		<tag k="natural" v="cape" />
		<tag k="ssr:stedsnr" v="376141" />
	</node>
	<node lat="63.052013886904994" lon="7.938286102296019" id="-6359">
		<tag k="name" v="Flatholmen" />
		<tag k="place" v="islet" />
		<tag k="ssr:stedsnr" v="376150" />
	</node>
	<node lat="63.02320000148759" lon="7.995866662535124" id="-6365">
		<tag k="name" v="Langsetvågen" />
		<tag k="natural" v="strait" />
		<tag k="ssr:stedsnr" v="376218" />
	</node>
	<node lat="63.10924999632266" lon="8.042263885735412" id="-6371">
		<tag k="name" v="Skurholmen" />
		<tag k="place" v="islet" />
		<tag k="ssr:stedsnr" v="376360" />
	</node>
	<node lat="63.002294443058595" lon="8.240872213202817" id="-6372">
		<tag k="name" v="Digermulen" />
		<tag k="natural" v="cape" />
		<tag k="ssr:stedsnr" v="376878" />
	</node>
	<node lat="62.96681111067598" lon="8.078955548972475" id="-6373">
		<tag k="name" v="Hammaren" />
		<tag k="natural" v="cape" />
		<tag k="ssr:stedsnr" v="376884" />
	</node>
	<node lat="62.993416668660096" lon="8.02497777019733" id="-6379">
		<tag k="name" v="Landholmen" />
		<tag k="place" v="islet" />
		<tag k="ssr:stedsnr" v="385664" />
	</node>
	<node lat="63.016658966944206" lon="8.18694630178521" id="-6383">
		<tag k="name" v="Seterneset" />
		<tag k="natural" v="cape" />
		<tag k="ssr:stedsnr" v="409009" />
	</node>
	<node lat="63.00284444697715" lon="8.237872224448429" id="-6384">
		<tag k="name" v="Digermulbukta" />
		<tag k="natural" v="bay" />
		<tag k="ssr:stedsnr" v="409034" />
	</node>
	<node lat="63.023027778347995" lon="7.886588881920763" id="-6385">
		<tag k="name" v="Utgardsneset" />
		<tag k="natural" v="cape" />
		<tag k="ssr:stedsnr" v="409651" />
	</node>
	<node lat="63.05282778163149" lon="7.9385055633956485" id="-6388">
		<tag k="name" v="Nastadholmane" />
		<tag k="place" v="islet" />
		<tag k="ssr:stedsnr" v="410199" />
	</node>
	<node lat="63.006622224886044" lon="7.892872230594553" id="-6407">
		<tag k="name" v="Tømmerviken" />
		<tag k="natural" v="bay" />
		<tag k="ssr:stedsnr" v="410572" />
	</node>
	<node lat="62.956027776471" lon="8.331261104691741" id="-6409">
		<tag k="name" v="Amundneset" />
		<tag k="natural" v="cape" />
		<tag k="ssr:stedsnr" v="411003" />
	</node>
	<node lat="62.82611944616351" lon="8.195113890845265" id="-6411">
		<tag k="name" v="Skottnesgrunnen" />
		<tag k="natural" v="shoal" />
		<tag k="place" v="locality" />
		<tag k="ssr:stedsnr" v="410933" />
	</node>
	<node lat="63.026261112270916" lon="8.086841666088366" id="-6420">
		<tag k="name" v="Jensneset" />
		<tag k="natural" v="cape" />
		<tag k="ssr:stedsnr" v="411275" />
	</node>
	<node lat="63.09680832890105" lon="7.968130547786782" id="-6438">
		<tag k="name" v="Årsundøya" />
		<tag k="place" v="island" />
		<tag k="ssr:stedsnr" v="437386" />
	</node>
	<node lat="62.92943611031264" lon="8.310177774901012" id="-6442">
		<tag k="name" v="Rognholmen" />
		<tag k="place" v="islet" />
		<tag k="ssr:stedsnr" v="436697" />
	</node>
	<node lat="63.08738055310049" lon="7.971255546555172" id="-6456">
		<tag k="name" v="Rotmalen" />
		<tag k="place" v="islet" />
		<tag k="ssr:stedsnr" v="437346" />
	</node>
	<node lat="63.01554658302232" lon="7.836398540814701" id="-6467">
		<tag k="bay" v="fjord" />
		<tag k="name" v="Freifjorden" />
		<tag k="natural" v="bay" />
		<tag k="ssr:stedsnr" v="497153" />
	</node>
	<node lat="62.85793055305369" lon="8.307572226766968" id="-6475">
		<tag k="name" v="Bortervågen" />
		<tag k="natural" v="bay" />
		<tag k="ssr:stedsnr" v="497368" />
	</node>
	<node lat="62.901461111771404" lon="8.356997228259507" id="-6486">
		<tag k="bay" v="fjord" />
		<tag k="name" v="Ålvundfjorden" />
		<tag k="natural" v="bay" />
		<tag k="ssr:stedsnr" v="498336" />
	</node>
	<node lat="63.00445000124268" lon="8.228033326480151" id="-6489">
		<tag k="name" v="Porkvika" />
		<tag k="natural" v="bay" />
		<tag k="ssr:stedsnr" v="530036" />
	</node>
	<node lat="63.02377777922397" lon="7.996588888878259" id="-6494">
		<tag k="name" v="Vorpneset" />
		<tag k="natural" v="cape" />
		<tag k="ssr:stedsnr" v="531474" />
	</node>
	<node lat="63.11175000089843" lon="8.094113888831822" id="-6496">
		<tag k="fixme" v="consider seamark:type=rock or natural=shoal" />
		<tag k="name" v="Risholmen" />
		<tag k="place" v="islet" />
		<tag k="ssr:stedsnr" v="531293" />
	</node>
	<node lat="63.039986114103115" lon="7.912777780413906" id="-6500">
		<tag k="name" v="Sallaupklubben" />
		<tag k="natural" v="cape" />
		<tag k="ssr:stedsnr" v="531709" />
	</node>
	<node lat="63.07138055131935" lon="7.97078333558188" id="-6502">
		<tag k="name" v="Langneset" />
		<tag k="natural" v="cape" />
		<tag k="ssr:stedsnr" v="531928" />
	</node>
	<node lat="62.918186109964836" lon="8.299711101926569" id="-6503">
		<tag k="name" v="Brevikleira" />
		<tag k="natural" v="beach" />
		<tag k="ssr:stedsnr" v="532066" />
	</node>
	<node lat="62.99896110893438" lon="7.955677771159003" id="-6521">
		<tag k="name" v="Vorpneset" />
		<tag k="natural" v="cape" />
		<tag k="ssr:stedsnr" v="532702" />
	</node>
	<node lat="63.05558333679589" lon="7.944919452877499" id="-6549">
		<tag k="name" v="Storholmen" />
		<tag k="place" v="islet" />
		<tag k="ssr:stedsnr" v="558170" />
	</node>
	<node lat="63.06486944078896" lon="8.13971388416453" id="-6550">
		<tag k="name" v="Sandvikholmen" />
		<tag k="place" v="islet" />
		<tag k="ssr:stedsnr" v="558181" />
	</node>
	<node lat="63.09988888481122" lon="7.962930549227883" id="-6554">
		<tag k="name" v="Grønningen" />
		<tag k="place" v="islet" />
		<tag k="ssr:stedsnr" v="558326" />
	</node>
	<node lat="63.10576188524302" lon="8.109111229662199" id="-6558">
		<tag k="name" v="Fåråneset" />
		<tag k="natural" v="cape" />
		<tag k="ssr:stedsnr" v="558387" />
	</node>
	<node lat="62.99931944424989" lon="8.24598054985311" id="-6566">
		<tag k="name" v="Djupdalsbukta" />
		<tag k="natural" v="bay" />
		<tag k="ssr:stedsnr" v="591030" />
	</node>
	<node lat="62.94542222553962" lon="8.30931943914654" id="-6567">
		<tag k="name" v="Plassbukta" />
		<tag k="natural" v="bay" />
		<tag k="ssr:stedsnr" v="592266" />
	</node>
	<node lat="62.92764167046883" lon="8.286475006128486" id="-6577">
		<tag k="name" v="Båtnesleira" />
		<tag k="natural" v="beach" />
		<tag k="ssr:stedsnr" v="593096" />
	</node>
	<node lat="63.11086944603163" lon="8.068450005175764" id="-6582">
		<tag k="fixme" v="consider seamark:type=rock or natural=shoal" />
		<tag k="name" v="Saltflua" />
		<tag k="place" v="islet" />
		<tag k="ssr:stedsnr" v="592296" />
	</node>
	<node lat="62.99078611063486" lon="8.014669452859811" id="-6586">
		<tag k="name" v="Skjelklubben" />
		<tag k="place" v="islet" />
		<tag k="ssr:stedsnr" v="592498" />
	</node>
	<node lat="63.00047221866365" lon="7.953838892443558" id="-6589">
		<tag k="name" v="Kvitneset" />
		<tag k="natural" v="cape" />
		<tag k="ssr:stedsnr" v="592749" />
	</node>
	<node lat="63.09758055440183" lon="8.01323334139116" id="-6596">
		<tag k="name" v="Stranda" />
		<tag k="natural" v="beach" />
		<tag k="ssr:stedsnr" v="593298" />
	</node>
	<node lat="62.872080558404875" lon="8.334847229681142" id="-6605">
		<tag k="name" v="Holmen" />
		<tag k="place" v="islet" />
		<tag k="ssr:stedsnr" v="593663" />
	</node>
	<node lat="63.10703333574968" lon="7.981758341007821" id="-6615">
		<tag k="name" v="Kokvikgrunnen" />
		<tag k="natural" v="shoal" />
		<tag k="place" v="locality" />
		<tag k="ssr:stedsnr" v="594582" />
	</node>
	<node lat="62.79569444883482" lon="8.332130552977938" id="-6617">
		<tag k="name" v="Skarvhammaren" />
		<tag k="natural" v="cape" />
		<tag k="ssr:stedsnr" v="595540" />
	</node>
	<node lat="63.01277222552725" lon="7.8616250082801145" id="-6618">
		<tag k="name" v="Galten" />
		<tag k="natural" v="shoal" />
		<tag k="place" v="locality" />
		<tag k="ssr:stedsnr" v="596676" />
	</node>
	<node lat="62.99236001621382" lon="8.020630422101856" id="-6626">
		<tag k="name" v="Tveekerholman" />
		<tag k="place" v="islet" />
		<tag k="ssr:stedsnr" v="618847" />
	</node>
	<node lat="62.99996667112517" lon="7.9803944389524775" id="-6631">
		<tag k="name" v="Hestholmen" />
		<tag k="place" v="islet" />
		<tag k="ssr:stedsnr" v="619230" />
	</node>
	<node lat="63.03800833127072" lon="8.131530558050654" id="-6635">
		<tag k="name" v="Kamsvågen" />
		<tag k="natural" v="bay" />
		<tag k="ssr:stedsnr" v="619267" />
	</node>
	<node lat="63.03314166597998" lon="7.960938898634389" id="-6646">
		<tag k="name" v="Gjelvika" />
		<tag k="natural" v="bay" />
		<tag k="ssr:stedsnr" v="651430" />
	</node>
	<node lat="62.91305555933916" lon="8.137080563656173" id="-6654">
		<tag k="fixme" v="consider seamark:type=rock or natural=shoal" />
		<tag k="name" v="Almvikskjæret" />
		<tag k="place" v="islet" />
		<tag k="ssr:stedsnr" v="656099" />
	</node>
	<node lat="62.92759166697849" lon="8.292438879858878" id="-6655">
		<tag k="name" v="Båtnesholmen" />
		<tag k="place" v="islet" />
		<tag k="ssr:stedsnr" v="653062" />
	</node>
	<node lat="63.090494444676466" lon="7.987808330648788" id="-6666">
		<tag k="name" v="Krikja" />
		<tag k="natural" v="bay" />
		<tag k="ssr:stedsnr" v="653290" />
	</node>
	<node lat="63.10269722192871" lon="7.97815556015964" id="-6667">
		<tag k="name" v="Kovikneset" />
		<tag k="natural" v="cape" />
		<tag k="ssr:stedsnr" v="653297" />
	</node>
	<node lat="62.997755559414486" lon="7.968766673905975" id="-6691">
		<tag k="name" v="Hestholmgrunnan" />
		<tag k="natural" v="shoal" />
		<tag k="place" v="locality" />
		<tag k="ssr:stedsnr" v="657561" />
	</node>
	<node lat="62.97931666826135" lon="8.243002778487085" id="-6694">
		<tag k="name" v="Sponåsleira" />
		<tag k="natural" v="shoal" />
		<tag k="place" v="locality" />
		<tag k="ssr:stedsnr" v="712716" />
	</node>
	<node lat="62.94861944056681" lon="8.12815000544943" id="-6704">
		<tag k="name" v="Nesaberget" />
		<tag k="natural" v="cape" />
		<tag k="ssr:stedsnr" v="713735" />
	</node>
	<node lat="63.080569448360066" lon="7.968116659362903" id="-6719">
		<tag k="name" v="Ytre Skaraneset" />
		<tag k="natural" v="cape" />
		<tag k="ssr:stedsnr" v="714176" />
	</node>
	<node lat="62.992154856935606" lon="8.023616717007515" id="-6724">
		<tag k="alt_name" v="Mellemholmen" />
		<tag k="name" v="Mellomholmen" />
		<tag k="place" v="islet" />
		<tag k="ssr:stedsnr" v="714387" />
	</node>
	<node lat="62.80956944780795" lon="8.26278611984017" id="-6738">
		<tag k="name" v="Sauvikbukta" />
		<tag k="natural" v="bay" />
		<tag k="ssr:stedsnr" v="714760" />
	</node>
	<node lat="62.870011108392504" lon="8.326991664123922" id="-6749">
		<tag k="name" v="Småvikan" />
		<tag k="natural" v="bay" />
		<tag k="ssr:stedsnr" v="715725" />
	</node>
	<node lat="62.8029861090394" lon="8.321297220787105" id="-6751">
		<tag k="name" v="Havdalsbukta" />
		<tag k="natural" v="bay" />
		<tag k="ssr:stedsnr" v="716559" />
	</node>
	<node lat="63.04382222014608" lon="7.917561104971799" id="-6752">
		<tag k="name" v="Pelgrunnen" />
		<tag k="natural" v="shoal" />
		<tag k="place" v="locality" />
		<tag k="ssr:stedsnr" v="717268" />
	</node>
	<node lat="63.05109167015352" lon="7.945774992468455" id="-6757">
		<tag k="name" v="Klubbholmen" />
		<tag k="place" v="islet" />
		<tag k="ssr:stedsnr" v="740137" />
	</node>
	<node lat="63.04376111348561" lon="7.963222218173561" id="-6758">
		<tag k="name" v="Nausthaugen" />
		<tag k="natural" v="cape" />
		<tag k="ssr:stedsnr" v="740139" />
	</node>
	<node lat="63.024333334286034" lon="7.9628666571255025" id="-6761">
		<tag k="name" v="Karihavet" />
		<tag k="natural" v="bay" />
		<tag k="ssr:stedsnr" v="740219" />
	</node>
	<node lat="62.935194444060286" lon="8.34321665840543" id="-6777">
		<tag k="bay" v="fjord" />
		<tag k="name" v="Breifjorden" />
		<tag k="natural" v="bay" />
		<tag k="ssr:stedsnr" v="748508" />
	</node>
	<node lat="62.973119442042275" lon="8.054072224573648" id="-6781">
		<tag k="name" v="Haganes" />
		<tag k="natural" v="cape" />
		<tag k="ssr:stedsnr" v="773670" />
	</node>
	<node lat="62.97415833192053" lon="8.065277778221088" id="-6782">
		<tag k="name" v="Vulvikbukta" />
		<tag k="natural" v="bay" />
		<tag k="ssr:stedsnr" v="773672" />
	</node>
	<node lat="62.998391667381306" lon="8.251333327611958" id="-6785">
		<tag k="name" v="Gilderneståja" />
		<tag k="natural" v="cape" />
		<tag k="ssr:stedsnr" v="773038" />
	</node>
	<node lat="63.00712222621972" lon="8.21258333232191" id="-6786">
		<tag k="name" v="Biren" />
		<tag k="natural" v="cape" />
		<tag k="ssr:stedsnr" v="773046" />
	</node>
	<node lat="63.036880555570185" lon="7.97904167051941" id="-6787">
		<tag k="name" v="Orsetbogen" />
		<tag k="natural" v="bay" />
		<tag k="ssr:stedsnr" v="773455" />
	</node>
	<node lat="63.07295625635289" lon="7.971565307279815" id="-6790">
		<tag k="name" v="Stabbursvika" />
		<tag k="natural" v="bay" />
		<tag k="old_name" v="Stabursvika" />
		<tag k="ssr:stedsnr" v="774230" />
	</node>
	<node lat="63.100500002019444" lon="7.978877774820127" id="-6793">
		<tag k="name" v="Maren" />
		<tag k="natural" v="cape" />
		<tag k="ssr:stedsnr" v="774361" />
	</node>
	<node lat="62.94666666446334" lon="8.311252767984199" id="-6801">
		<tag k="alt_name" v="Bjørkaneset" />
		<tag k="name" v="Vikahammaren" />
		<tag k="natural" v="cape" />
		<tag k="ssr:stedsnr" v="775235" />
	</node>
	<node lat="62.94734999568893" lon="8.311088897120513" id="-6802">
		<tag k="name" v="Tessvikbukta" />
		<tag k="natural" v="bay" />
		<tag k="ssr:stedsnr" v="775236" />
	</node>
	<node lat="63.025547218282036" lon="7.99408610802639" id="-6818">
		<tag k="fixme" v="consider seamark:type=rock or natural=shoal" />
		<tag k="name" v="Olvikskjæret" />
		<tag k="place" v="islet" />
		<tag k="ssr:stedsnr" v="778543" />
	</node>
	<node lat="63.11230000068143" lon="8.091119443926795" id="-6835">
		<tag k="name" v="Fåråholmen" />
		<tag k="place" v="islet" />
		<tag k="ssr:stedsnr" v="801347" />
	</node>
	<node lat="62.98190277971657" lon="8.243169439610867" id="-6849">
		<tag k="name" v="Gullabukta" />
		<tag k="natural" v="bay" />
		<tag k="ssr:stedsnr" v="833747" />
	</node>
	<node lat="63.0014777797648" lon="8.242555561278325" id="-6850">
		<tag k="name" v="Tovstejnbukta" />
		<tag k="natural" v="cape" />
		<tag k="ssr:stedsnr" v="834031" />
	</node>
	<node lat="63.039908333257124" lon="7.964494452164878" id="-6852">
		<tag k="name" v="Nålsundeidet" />
		<tag k="place" v="locality" />
		<tag k="ssr:stedsnr" v="834411" />
	</node>
	<node lat="62.81667500277073" lon="8.23392777945444" id="-6856">
		<tag k="name" v="Innervika" />
		<tag k="natural" v="bay" />
		<tag k="ssr:stedsnr" v="835121" />
	</node>
	<node lat="63.05188055671195" lon="7.975175007212939" id="-6858">
		<tag k="name" v="Storvika" />
		<tag k="natural" v="bay" />
		<tag k="ssr:stedsnr" v="835296" />
	</node>
	<node lat="63.07046944478122" lon="7.969013892234875" id="-6862">
		<tag k="name" v="Driggelholmen" />
		<tag k="place" v="islet" />
		<tag k="ssr:stedsnr" v="835924" />
	</node>
	<node lat="63.09745000440185" lon="7.9760888876156155" id="-6863">
		<tag k="name" v="Vorpneset" />
		<tag k="natural" v="cape" />
		<tag k="ssr:stedsnr" v="835331" />
	</node>
	<node lat="63.02579722626479" lon="8.096961103069981" id="-6877">
		<tag k="name" v="Båtvikholmen" />
		<tag k="place" v="islet" />
		<tag k="ssr:stedsnr" v="836239" />
	</node>
	<node lat="62.99649444680489" lon="8.256177778017797" id="-6884">
		<tag k="alt_name" v="Ytre Nordbøneset" />
		<tag k="name" v="Nordbøneset" />
		<tag k="natural" v="cape" />
		<tag k="ssr:stedsnr" v="836720" />
	</node>
	<node lat="62.91638611073643" lon="8.312158331341664" id="-6901">
		<tag k="name" v="Breivikflua" />
		<tag k="place" v="locality" />
		<tag k="seamark:type" v="rock" />
		<tag k="ssr:stedsnr" v="838138" />
	</node>
	<node lat="63.048363890215754" lon="8.130786119880048" id="-6903">
		<tag k="fixme" v="consider seamark:type=rock or natural=shoal" />
		<tag k="name" v="Kjerkeskjæret" />
		<tag k="place" v="islet" />
		<tag k="ssr:stedsnr" v="838257" />
	</node>
	<node lat="62.94448611343426" lon="8.185322231097594" id="-6908">
		<tag k="name" v="Mjølkneset" />
		<tag k="natural" v="cape" />
		<tag k="ssr:stedsnr" v="861921" />
	</node>
	<node lat="63.02500277721567" lon="8.173413893263344" id="-6916">
		<tag k="name" v="Fløystadneset" />
		<tag k="natural" v="cape" />
		<tag k="ssr:stedsnr" v="862234" />
	</node>
	<node lat="63.01529444296893" lon="7.873441674581712" id="-6917">
		<tag k="name" v="Aspholmen" />
		<tag k="place" v="islet" />
		<tag k="ssr:stedsnr" v="862237" />
	</node>
	<node lat="63.02817222205374" lon="7.955797221227439" id="-6928">
		<tag k="name" v="Kvennavika" />
		<tag k="natural" v="bay" />
		<tag k="ssr:stedsnr" v="955428" />
	</node>
	<node lat="63.01891111558683" lon="7.96622222230233" id="-6937">
		<tag k="name" v="Skjelvågen" />
		<tag k="natural" v="bay" />
		<tag k="ssr:stedsnr" v="956500" />
	</node>
	<node lat="63.067030551222715" lon="7.974088894847514" id="-6941">
		<tag k="name" v="Kvisvikbukta" />
		<tag k="natural" v="bay" />
		<tag k="old_name" v="Kvisvik-bukta" />
		<tag k="ssr:stedsnr" v="956922" />
	</node>
	<node lat="62.92685000029317" lon="8.284763896760996" id="-6946">
		<tag k="name" v="Joneset" />
		<tag k="natural" v="cape" />
		<tag k="ssr:stedsnr" v="957090" />
	</node>
	<node lat="63.0213666710222" lon="8.092619444930286" id="-6953">
		<tag k="name" v="Sagneset" />
		<tag k="natural" v="cape" />
		<tag k="ssr:stedsnr" v="957283" />
	</node>
	<node lat="62.88160000134504" lon="8.382611116213646" id="-6956">
		<tag k="name" v="Geilneset" />
		<tag k="natural" v="cape" />
		<tag k="ssr:stedsnr" v="957624" />
	</node>
	<node lat="62.863961109977865" lon="8.303061117887049" id="-6965">
		<tag k="name" v="Smivågen" />
		<tag k="place" v="islet" />
		<tag k="ssr:stedsnr" v="957929" />
	</node>
	<node lat="63.029808334645026" lon="7.887355553932389" id="-6970">
		<tag k="name" v="Bøyfotgrunnen" />
		<tag k="natural" v="shoal" />
		<tag k="place" v="locality" />
		<tag k="ssr:stedsnr" v="960246" />
	</node>
</osm>
