<?xml version="1.0" encoding="UTF-8"?>
<osm generator="osmapis" version="0.6">
	<node id="-10230" lat="62.7990416645" lon="8.35717221289">
		<tag k="fixme" v="consider natural=peak for the most distinct mountains in the district" />
		<tag k="name" v="Hufatet" />
		<tag k="natural" v="hill" />
		<tag k="place" v="locality" />
		<tag k="ssr:stedsnr" v="133372" />
	</node>
	<node id="-10217" lat="62.8385333339" lon="8.31449721879">
		<tag k="name" v="Hardholtet" />
		<tag k="natural" v="slope" />
		<tag k="place" v="locality" />
		<tag k="ssr:stedsnr" v="108980" />
	</node>
	<node id="-10216" lat="62.8635611079" lon="8.35008611168">
		<tag k="name" v="Svarthammaren" />
		<tag k="natural" v="hill" />
		<tag k="place" v="locality" />
		<tag k="ssr:stedsnr" v="108884" />
	</node>
	<node id="-10215" lat="62.8335888846" lon="8.22787222231">
		<tag k="name" v="Djupdalen" />
		<tag k="natural" v="valley" />
		<tag k="place" v="locality" />
		<tag k="ssr:stedsnr" v="108877" />
	</node>
	<node id="-10214" lat="62.8518777744" lon="8.32294721782">
		<tag k="name" v="Skrøå" />
		<tag k="place" v="locality" />
		<tag k="ssr:stedsnr" v="108859" />
	</node>
	<node id="-10213" lat="62.8398888882" lon="8.37143333943">
		<tag k="name" v="Vasslibrona" />
		<tag k="natural" v="ridge" />
		<tag k="place" v="locality" />
		<tag k="ssr:stedsnr" v="108969" />
	</node>
	<node id="-10211" lat="62.8524055586" lon="8.2011250033">
		<tag k="name" v="Kleivan" />
		<tag k="place" v="locality" />
		<tag k="ssr:stedsnr" v="108909" />
	</node>
	<node id="-10210" lat="62.9274444446" lon="8.2072583373">
		<tag k="fixme" v="consider natural=peak for the most distinct mountains in the district" />
		<tag k="name" v="Kammen" />
		<tag k="natural" v="hill" />
		<tag k="place" v="locality" />
		<tag k="ssr:stedsnr" v="108787" />
	</node>
	<node id="-10208" lat="62.9728777761" lon="8.17396944247">
		<tag k="name" v="Neverskarhaugen" />
		<tag k="natural" v="hill" />
		<tag k="place" v="locality" />
		<tag k="ssr:stedsnr" v="108674" />
	</node>
	<node id="-10207" lat="62.8736500001" lon="8.37272778396">
		<tag k="name" v="Durmålhaugen" />
		<tag k="natural" v="hill" />
		<tag k="place" v="locality" />
		<tag k="ssr:stedsnr" v="108651" />
	</node>
	<node id="-10205" lat="62.9734972198" lon="8.22213610468">
		<tag k="name" v="Trøbakken" />
		<tag k="natural" v="slope" />
		<tag k="place" v="locality" />
		<tag k="ssr:stedsnr" v="108645" />
	</node>
	<node id="-10201" lat="63.0842166667" lon="8.02852778404">
		<tag k="name" v="Gullberget" />
		<tag k="natural" v="hill" />
		<tag k="place" v="locality" />
		<tag k="ssr:stedsnr" v="108333" />
	</node>
	<node id="-10200" lat="63.085544442" lon="8.0388833265">
		<tag k="name" v="Kvisviktuva" />
		<tag k="natural" v="hill" />
		<tag k="place" v="locality" />
		<tag k="ssr:stedsnr" v="108331" />
	</node>
	<node id="-10195" lat="62.8484027779" lon="8.24579722528">
		<tag k="name" v="Bytesdalteigen" />
		<tag k="natural" v="slope" />
		<tag k="place" v="locality" />
		<tag k="ssr:stedsnr" v="108099" />
	</node>
	<node id="-10193" lat="62.8505888909" lon="8.23379166325">
		<tag k="name" v="Holtalia" />
		<tag k="natural" v="slope" />
		<tag k="place" v="locality" />
		<tag k="ssr:stedsnr" v="108088" />
	</node>
	<node id="-10192" lat="62.9251250029" lon="8.29299723023">
		<tag k="name" v="Sjøhaugan" />
		<tag k="natural" v="hill" />
		<tag k="place" v="locality" />
		<tag k="ssr:stedsnr" v="108081" />
	</node>
	<node id="-10185" lat="62.8205055582" lon="8.30787500374">
		<tag k="name" v="Helvete" />
		<tag k="natural" v="cliff" />
		<tag k="ssr:stedsnr" v="107776" />
	</node>
	<node id="-10182" lat="63.0183694426" lon="7.93123888441">
		<tag k="name" v="Seterhaugen" />
		<tag k="natural" v="hill" />
		<tag k="place" v="locality" />
		<tag k="ssr:stedsnr" v="107586" />
	</node>
	<node id="-10181" lat="63.0167499976" lon="7.92974166796">
		<tag k="name" v="Aspskaret" />
		<tag k="natural" v="valley" />
		<tag k="place" v="locality" />
		<tag k="ssr:stedsnr" v="107585" />
	</node>
	<node id="-10179" lat="63.0145666634" lon="7.90468055462">
		<tag k="name" v="Aspdalen" />
		<tag k="natural" v="valley" />
		<tag k="place" v="locality" />
		<tag k="ssr:stedsnr" v="107575" />
	</node>
	<node id="-10176" lat="63.014955553" lon="8.11665555469">
		<tag k="name" v="Svarthammaren" />
		<tag k="natural" v="hill" />
		<tag k="place" v="locality" />
		<tag k="ssr:stedsnr" v="107424" />
	</node>
	<node id="-10173" lat="63.0898555587" lon="8.11866666364">
		<tag k="name" v="Veaberget" />
		<tag k="natural" v="hill" />
		<tag k="place" v="locality" />
		<tag k="ssr:stedsnr" v="107298" />
	</node>
	<node id="-10172" lat="63.0606583339" lon="8.11262777204">
		<tag k="name" v="Høghein" />
		<tag k="natural" v="hill" />
		<tag k="place" v="locality" />
		<tag k="ssr:stedsnr" v="107281" />
	</node>
	<node id="-10171" lat="62.9516805522" lon="8.1231361066">
		<tag k="name" v="Vedaberget" />
		<tag k="natural" v="hill" />
		<tag k="place" v="locality" />
		<tag k="ssr:stedsnr" v="106697" />
	</node>
	<node id="-10170" lat="63.0374027757" lon="7.916158328">
		<tag k="name" v="Hålå" />
		<tag k="natural" v="valley" />
		<tag k="place" v="locality" />
		<tag k="ssr:stedsnr" v="106674" />
	</node>
	<node id="-10169" lat="62.9959027787" lon="8.17604999301">
		<tag k="name" v="Tuvå" />
		<tag k="natural" v="hill" />
		<tag k="place" v="locality" />
		<tag k="ssr:stedsnr" v="106607" />
	</node>
	<node id="-10168" lat="62.9905388922" lon="8.17204443848">
		<tag k="name" v="Grønlihøgda" />
		<tag k="natural" v="hill" />
		<tag k="place" v="locality" />
		<tag k="ssr:stedsnr" v="106606" />
	</node>
	<node id="-10167" lat="63.0011444439" lon="8.21090278289">
		<tag k="name" v="Aksla" />
		<tag k="place" v="locality" />
		<tag k="ssr:stedsnr" v="106033" />
	</node>
	<node id="-10166" lat="62.9800611085" lon="8.23402777626">
		<tag k="name" v="Hattberget" />
		<tag k="natural" v="hill" />
		<tag k="place" v="locality" />
		<tag k="ssr:stedsnr" v="105745" />
	</node>
	<node id="-10165" lat="62.8131416639" lon="8.30049999182">
		<tag k="name" v="Svarthammaren" />
		<tag k="natural" v="hill" />
		<tag k="place" v="locality" />
		<tag k="ssr:stedsnr" v="105195" />
	</node>
	<node id="-10163" lat="62.9796361092" lon="8.20212222215">
		<tag k="name" v="Almlibrona" />
		<tag k="natural" v="ridge" />
		<tag k="place" v="locality" />
		<tag k="ssr:stedsnr" v="108749" />
	</node>
	<node id="-10162" lat="62.9842166635" lon="8.19793055021">
		<tag k="name" v="Baklibrona" />
		<tag k="natural" v="ridge" />
		<tag k="place" v="locality" />
		<tag k="ssr:stedsnr" v="108747" />
	</node>
	<node id="-10161" lat="62.8058138875" lon="8.39684166186">
		<tag k="name" v="Yttervadet" />
		<tag k="natural" v="valley" />
		<tag k="place" v="locality" />
		<tag k="ssr:stedsnr" v="85331" />
	</node>
	<node id="-10159" lat="63.0322027819" lon="8.10859721234">
		<tag k="fixme" v="consider natural=peak for the most distinct mountains in the district" />
		<tag k="name" v="Kammen" />
		<tag k="natural" v="hill" />
		<tag k="place" v="locality" />
		<tag k="ssr:stedsnr" v="73480" />
	</node>
	<node id="-10157" lat="63.0934888874" lon="8.07223610387">
		<tag k="fixme" v="consider natural=peak for the most distinct mountains in the district" />
		<tag k="name" v="Liafjellet" />
		<tag k="natural" v="hill" />
		<tag k="place" v="locality" />
		<tag k="ssr:stedsnr" v="73381" />
	</node>
	<node id="-10156" lat="63.1022944466" lon="8.08033611419">
		<tag k="name" v="Magnhildberget" />
		<tag k="natural" v="hill" />
		<tag k="place" v="locality" />
		<tag k="ssr:stedsnr" v="73379" />
	</node>
	<node id="-10154" lat="63.0816666649" lon="8.05699165808">
		<tag k="fixme" v="multiple name tags, choose one and add the other to alt_name; consider natural=peak for the most distinct mountains in the district" />
		<tag k="name" v="Valfjellet;Vardfjellet" />
		<tag k="natural" v="hill" />
		<tag k="place" v="locality" />
		<tag k="ssr:stedsnr" v="73336" />
	</node>
	<node id="-10151" lat="62.8824055534" lon="8.27692776839">
		<tag k="name" v="Høgheia" />
		<tag k="natural" v="hill" />
		<tag k="place" v="locality" />
		<tag k="ssr:stedsnr" v="73274" />
	</node>
	<node id="-10147" lat="63.0564333345" lon="7.97893611005">
		<tag k="fixme" v="consider natural=peak for the most distinct mountains in the district" />
		<tag k="name" v="Åsen" />
		<tag k="natural" v="hill" />
		<tag k="place" v="locality" />
		<tag k="ssr:stedsnr" v="73158" />
	</node>
	<node id="-10140" lat="62.8948055518" lon="8.22041943677">
		<tag k="name" v="Dormuldalen" />
		<tag k="natural" v="valley" />
		<tag k="place" v="locality" />
		<tag k="ssr:stedsnr" v="72290" />
	</node>
	<node id="-10137" lat="62.8268999977" lon="8.27813334263">
		<tag k="name" v="Skidalen" />
		<tag k="natural" v="valley" />
		<tag k="place" v="locality" />
		<tag k="ssr:stedsnr" v="47964" />
	</node>
	<node id="-10135" lat="62.8288972191" lon="8.25528887931">
		<tag k="name" v="Trondalen" />
		<tag k="natural" v="valley" />
		<tag k="place" v="locality" />
		<tag k="ssr:stedsnr" v="47930" />
	</node>
	<node id="-10133" lat="62.8675722193" lon="8.28114444986">
		<tag k="name" v="Skaret" />
		<tag k="natural" v="valley" />
		<tag k="place" v="locality" />
		<tag k="ssr:stedsnr" v="47919" />
	</node>
	<node id="-10132" lat="62.8593194468" lon="8.20544167224">
		<tag k="name" v="Ytter Måssåholdalen" />
		<tag k="natural" v="valley" />
		<tag k="place" v="locality" />
		<tag k="ssr:stedsnr" v="47894" />
	</node>
	<node id="-10129" lat="62.8652277761" lon="8.34091111346">
		<tag k="name" v="Sørteigen" />
		<tag k="natural" v="slope" />
		<tag k="place" v="locality" />
		<tag k="ssr:stedsnr" v="47868" />
	</node>
	<node id="-10128" lat="62.8297527747" lon="8.23956945145">
		<tag k="name" v="Tortdalen" />
		<tag k="natural" v="valley" />
		<tag k="place" v="locality" />
		<tag k="ssr:stedsnr" v="47866" />
	</node>
	<node id="-10126" lat="62.9358166631" lon="8.23056111335">
		<tag k="name" v="Tørrlendskaret" />
		<tag k="natural" v="valley" />
		<tag k="place" v="locality" />
		<tag k="ssr:stedsnr" v="47830" />
	</node>
	<node id="-10125" lat="62.9443666678" lon="8.20835556339">
		<tag k="name" v="Brannhaugen" />
		<tag k="natural" v="hill" />
		<tag k="place" v="locality" />
		<tag k="ssr:stedsnr" v="47820" />
	</node>
	<node id="-10124" lat="62.9418055585" lon="8.2122916626">
		<tag k="name" v="Vargskaret" />
		<tag k="natural" v="valley" />
		<tag k="place" v="locality" />
		<tag k="ssr:stedsnr" v="47816" />
	</node>
	<node id="-10123" lat="62.9215694422" lon="8.17558888763">
		<tag k="name" v="Trøhaugen" />
		<tag k="natural" v="hill" />
		<tag k="place" v="locality" />
		<tag k="ssr:stedsnr" v="47814" />
	</node>
	<node id="-10116" lat="62.9720250036" lon="8.23576666772">
		<tag k="name" v="Halsen" />
		<tag k="natural" v="valley" />
		<tag k="place" v="locality" />
		<tag k="ssr:stedsnr" v="47642" />
	</node>
	<node id="-10115" lat="62.9623999983" lon="8.20038055775">
		<tag k="name" v="Hoplia" />
		<tag k="natural" v="slope" />
		<tag k="place" v="locality" />
		<tag k="ssr:stedsnr" v="47638" />
	</node>
	<node id="-10112" lat="62.8934250038" lon="8.28875833511">
		<tag k="name" v="Porkbotnin" />
		<tag k="natural" v="valley" />
		<tag k="place" v="locality" />
		<tag k="ssr:stedsnr" v="47590" />
	</node>
	<node id="-10108" lat="63.0056722249" lon="8.01881945214">
		<tag k="fixme" v="consider natural=peak for the most distinct mountains in the district" />
		<tag k="name" v="Kolåsen" />
		<tag k="natural" v="hill" />
		<tag k="place" v="locality" />
		<tag k="ssr:stedsnr" v="47391" />
	</node>
	<node id="-10107" lat="62.9065222237" lon="8.24405554859">
		<tag k="name" v="Djupbotnen" />
		<tag k="natural" v="valley" />
		<tag k="place" v="locality" />
		<tag k="ssr:stedsnr" v="47326" />
	</node>
	<node id="-10105" lat="62.8773055596" lon="8.20326388518">
		<tag k="name" v="Hjellen" />
		<tag k="place" v="locality" />
		<tag k="ssr:stedsnr" v="47180" />
	</node>
	<node id="-10103" lat="62.9669277746" lon="8.27403611611">
		<tag k="name" v="Sleen" />
		<tag k="place" v="locality" />
		<tag k="ssr:stedsnr" v="47118" />
	</node>
	<node id="-10101" lat="62.9576666661" lon="8.2806722301">
		<tag k="name" v="Kvennalidalen" />
		<tag k="natural" v="valley" />
		<tag k="place" v="locality" />
		<tag k="ssr:stedsnr" v="47107" />
	</node>
	<node id="-10099" lat="62.872177774" lon="8.18675277224">
		<tag k="name" v="Tørrlendhaugen" />
		<tag k="natural" v="hill" />
		<tag k="place" v="locality" />
		<tag k="ssr:stedsnr" v="47083" />
	</node>
	<node id="-10093" lat="62.9636805592" lon="8.09848889419">
		<tag k="name" v="Slettet" />
		<tag k="natural" v="slope" />
		<tag k="place" v="locality" />
		<tag k="ssr:stedsnr" v="46795" />
	</node>
	<node id="-10092" lat="62.9776777747" lon="8.14727222722">
		<tag k="name" v="Sandvikdalen" />
		<tag k="natural" v="valley" />
		<tag k="place" v="locality" />
		<tag k="ssr:stedsnr" v="46690" />
	</node>
	<node id="-10091" lat="63.0098416652" lon="7.91086111257">
		<tag k="name" v="Middagshaugen" />
		<tag k="natural" v="hill" />
		<tag k="place" v="locality" />
		<tag k="ssr:stedsnr" v="46612" />
	</node>
	<node id="-10087" lat="63.0754000005" lon="8.07879444268">
		<tag k="name" v="Kjølen" />
		<tag k="natural" v="ridge" />
		<tag k="place" v="locality" />
		<tag k="ssr:stedsnr" v="46482" />
	</node>
	<node id="-10086" lat="63.083255554" lon="8.08053055788">
		<tag k="name" v="Rognhaug" />
		<tag k="natural" v="hill" />
		<tag k="place" v="locality" />
		<tag k="ssr:stedsnr" v="46479" />
	</node>
	<node id="-10075" lat="63.0449888924" lon="8.02049445066">
		<tag k="name" v="Storhaugen" />
		<tag k="natural" v="hill" />
		<tag k="place" v="locality" />
		<tag k="ssr:stedsnr" v="46262" />
	</node>
	<node id="-10073" lat="62.8139194468" lon="8.24086388134">
		<tag k="name" v="Bytberget" />
		<tag k="natural" v="hill" />
		<tag k="place" v="locality" />
		<tag k="ssr:stedsnr" v="46148" />
	</node>
	<node id="-10071" lat="62.8220333301" lon="8.23753055508">
		<tag k="name" v="Ressel" />
		<tag k="natural" v="hill" />
		<tag k="place" v="locality" />
		<tag k="ssr:stedsnr" v="46119" />
	</node>
	<node id="-10070" lat="63.0334416691" lon="7.91464166453">
		<tag k="name" v="Ramsdalen" />
		<tag k="natural" v="valley" />
		<tag k="place" v="locality" />
		<tag k="ssr:stedsnr" v="45654" />
	</node>
	<node id="-10069" lat="63.0357638923" lon="7.93080834309">
		<tag k="name" v="Seterdalen" />
		<tag k="natural" v="hill" />
		<tag k="place" v="locality" />
		<tag k="ssr:stedsnr" v="45642" />
	</node>
	<node id="-10068" lat="63.0013138903" lon="8.23162222048">
		<tag k="name" v="Storhammaren" />
		<tag k="natural" v="cliff" />
		<tag k="ssr:stedsnr" v="45044" />
	</node>
	<node id="-10063" lat="62.8128111114" lon="8.38503888248">
		<tag k="name" v="Knutslættet" />
		<tag k="natural" v="slope" />
		<tag k="place" v="locality" />
		<tag k="ssr:stedsnr" v="24371" />
	</node>
	<node id="-10061" lat="62.8856527815" lon="8.17525277499">
		<tag k="fixme" v="consider natural=peak for the most distinct mountains in the district" />
		<tag k="name" v="Hegerbergfjellet" />
		<tag k="natural" v="hill" />
		<tag k="place" v="locality" />
		<tag k="ssr:stedsnr" v="12984" />
	</node>
	<node id="-10052" lat="62.7879388904" lon="8.43242777425">
		<tag k="name" v="Blåviddalen" />
		<tag k="natural" v="valley" />
		<tag k="place" v="locality" />
		<tag k="ssr:stedsnr" v="12378" />
	</node>
	<node id="-10047" lat="63.0669888913" lon="8.05792221622">
		<tag k="name" v="Seterlia" />
		<tag k="natural" v="slope" />
		<tag k="place" v="locality" />
		<tag k="ssr:stedsnr" v="12170" />
	</node>
	<node id="-10042" lat="62.9291666682" lon="8.18419167155">
		<tag k="fixme" v="consider natural=peak for the most distinct mountains in the district" />
		<tag k="name" v="Fjøslia" />
		<tag k="natural" v="hill" />
		<tag k="place" v="locality" />
		<tag k="ssr:stedsnr" v="11965" />
	</node>
	<node id="-10028" lat="62.896697223" lon="8.18577777195">
		<tag k="name" v="Jenshellaren" />
		<tag k="place" v="locality" />
		<tag k="ssr:stedsnr" v="957336" />
	</node>
	<node id="-10026" lat="63.0537888914" lon="7.98663334166">
		<tag k="name" v="Skadalstrøhammaren" />
		<tag k="natural" v="cliff" />
		<tag k="ssr:stedsnr" v="956313" />
	</node>
	<node id="-10019" lat="62.8686250021" lon="8.38619444807">
		<tag k="name" v="Durmålhaugen" />
		<tag k="natural" v="hill" />
		<tag k="place" v="locality" />
		<tag k="ssr:stedsnr" v="922237" />
	</node>
	<node id="-10013" lat="63.0078499988" lon="8.19866389361">
		<tag k="name" v="Jordalen" />
		<tag k="natural" v="valley" />
		<tag k="place" v="locality" />
		<tag k="ssr:stedsnr" v="922183" />
	</node>
	<node id="-10012" lat="63.0755527776" lon="8.09681944519">
		<tag k="fixme" v="consider natural=peak for the most distinct mountains in the district" />
		<tag k="name" v="Svarthamran" />
		<tag k="natural" v="hill" />
		<tag k="place" v="locality" />
		<tag k="ssr:stedsnr" v="922175" />
	</node>
	<node id="-10002" lat="62.9634305545" lon="8.13684722857">
		<tag k="name" v="Ådalskammen" />
		<tag k="natural" v="ridge" />
		<tag k="place" v="locality" />
		<tag k="ssr:stedsnr" v="897657" />
	</node>
	<node id="-9999" lat="62.9746944474" lon="8.21783055039">
		<tag k="name" v="Ramskrøå" />
		<tag k="natural" v="slope" />
		<tag k="place" v="locality" />
		<tag k="ssr:stedsnr" v="897605" />
	</node>
	<node id="-9998" lat="62.8978694432" lon="8.22433610592">
		<tag k="name" v="Finnskjeggbakkan" />
		<tag k="natural" v="slope" />
		<tag k="place" v="locality" />
		<tag k="ssr:stedsnr" v="897317" />
	</node>
	<node id="-9997" lat="62.8988138921" lon="8.22025833113">
		<tag k="name" v="Bjønnahammaren" />
		<tag k="natural" v="hill" />
		<tag k="place" v="locality" />
		<tag k="ssr:stedsnr" v="897316" />
	</node>
	<node id="-9996" lat="62.8696722194" lon="8.21991667209">
		<tag k="name" v="Røsbrekka" />
		<tag k="natural" v="slope" />
		<tag k="place" v="locality" />
		<tag k="ssr:stedsnr" v="897170" />
	</node>
	<node id="-9995" lat="63.0217638892" lon="8.1365388851">
		<tag k="name" v="Storslåbradden" />
		<tag k="natural" v="ridge" />
		<tag k="place" v="locality" />
		<tag k="ssr:stedsnr" v="897271" />
	</node>
	<node id="-9993" lat="63.0253972204" lon="8.15627777056">
		<tag k="name" v="Røysen" />
		<tag k="natural" v="slope" />
		<tag k="place" v="locality" />
		<tag k="ssr:stedsnr" v="897254" />
	</node>
	<node id="-9992" lat="62.8677833344" lon="8.17059443496">
		<tag k="name" v="Løfterhjellen" />
		<tag k="place" v="locality" />
		<tag k="ssr:stedsnr" v="897063" />
	</node>
	<node id="-9991" lat="62.860813892" lon="8.23923611616">
		<tag k="name" v="Høghaugen" />
		<tag k="natural" v="hill" />
		<tag k="place" v="locality" />
		<tag k="ssr:stedsnr" v="897104" />
	</node>
	<node id="-9990" lat="62.959441663" lon="8.30437500185">
		<tag k="fixme" v="consider natural=peak for the most distinct mountains in the district" />
		<tag k="name" v="Strupstadfjellet" />
		<tag k="natural" v="hill" />
		<tag k="place" v="locality" />
		<tag k="ssr:stedsnr" v="897103" />
	</node>
	<node id="-9988" lat="62.9746527752" lon="8.10303332627">
		<tag k="name" v="Bytkua" />
		<tag k="place" v="locality" />
		<tag k="ssr:stedsnr" v="896820" />
	</node>
	<node id="-9987" lat="62.9697888874" lon="8.10199722292">
		<tag k="name" v="Prestseterhaugen" />
		<tag k="natural" v="hill" />
		<tag k="place" v="locality" />
		<tag k="ssr:stedsnr" v="896817" />
	</node>
	<node id="-9985" lat="63.0101916646" lon="7.93221389771">
		<tag k="name" v="Ytter Vettafjellbakkan" />
		<tag k="natural" v="slope" />
		<tag k="place" v="locality" />
		<tag k="ssr:stedsnr" v="896662" />
	</node>
	<node id="-9973" lat="62.8412722226" lon="8.34540278467">
		<tag k="name" v="Solskinnshaugen" />
		<tag k="natural" v="hill" />
		<tag k="place" v="locality" />
		<tag k="ssr:stedsnr" v="836959" />
	</node>
	<node id="-9971" lat="62.8206249981" lon="8.28619999741">
		<tag k="name" v="Holtahaugen" />
		<tag k="natural" v="hill" />
		<tag k="place" v="locality" />
		<tag k="ssr:stedsnr" v="836760" />
	</node>
	<node id="-9969" lat="62.796430556" lon="8.34053333624">
		<tag k="name" v="Fonndalen" />
		<tag k="natural" v="valley" />
		<tag k="place" v="locality" />
		<tag k="ssr:stedsnr" v="836863" />
	</node>
	<node id="-9968" lat="62.9438861153" lon="8.25033333705">
		<tag k="name" v="Norskbrona" />
		<tag k="natural" v="ridge" />
		<tag k="place" v="locality" />
		<tag k="ssr:stedsnr" v="836856" />
	</node>
	<node id="-9965" lat="62.9891333325" lon="8.14031388058">
		<tag k="name" v="Korslihaugen" />
		<tag k="natural" v="hill" />
		<tag k="place" v="locality" />
		<tag k="ssr:stedsnr" v="836469" />
	</node>
	<node id="-9964" lat="63.1001333333" lon="8.06548056173">
		<tag k="name" v="Mørkdalen" />
		<tag k="natural" v="valley" />
		<tag k="place" v="locality" />
		<tag k="ssr:stedsnr" v="836263" />
	</node>
	<node id="-9963" lat="62.9576444427" lon="8.22984999477">
		<tag k="name" v="Baklia" />
		<tag k="natural" v="slope" />
		<tag k="place" v="locality" />
		<tag k="ssr:stedsnr" v="836622" />
	</node>
	<node id="-9960" lat="62.8666444467" lon="8.246672229">
		<tag k="name" v="Løådalen" />
		<tag k="natural" v="valley" />
		<tag k="place" v="locality" />
		<tag k="ssr:stedsnr" v="836070" />
	</node>
	<node id="-9959" lat="62.8677111108" lon="8.23049721524">
		<tag k="name" v="Stordalen" />
		<tag k="natural" v="valley" />
		<tag k="place" v="locality" />
		<tag k="ssr:stedsnr" v="836068" />
	</node>
	<node id="-9957" lat="62.8700611086" lon="8.23838333252">
		<tag k="name" v="Stordalen" />
		<tag k="natural" v="valley" />
		<tag k="place" v="locality" />
		<tag k="ssr:stedsnr" v="836005" />
	</node>
	<node id="-9956" lat="62.9343416708" lon="8.1679916626">
		<tag k="name" v="Vidskaret" />
		<tag k="natural" v="valley" />
		<tag k="place" v="locality" />
		<tag k="ssr:stedsnr" v="835507" />
	</node>
	<node id="-9954" lat="63.0687277775" lon="8.03016389785">
		<tag k="name" v="Livlaushammaren" />
		<tag k="natural" v="hill" />
		<tag k="place" v="locality" />
		<tag k="ssr:stedsnr" v="835461" />
	</node>
	<node id="-9953" lat="63.0053555575" lon="8.11731666605">
		<tag k="name" v="Middagsforhøyene" />
		<tag k="natural" v="hill" />
		<tag k="place" v="locality" />
		<tag k="ssr:stedsnr" v="835454" />
	</node>
	<node id="-9952" lat="63.0088638927" lon="8.06201111971">
		<tag k="name" v="Marinn" />
		<tag k="place" v="locality" />
		<tag k="ssr:stedsnr" v="835423" />
	</node>
	<node id="-9949" lat="63.0344638926" lon="7.98342221261">
		<tag k="name" v="Trøhaugen" />
		<tag k="natural" v="hill" />
		<tag k="place" v="locality" />
		<tag k="ssr:stedsnr" v="834458" />
	</node>
	<node id="-9947" lat="62.8391972179" lon="8.19577777781">
		<tag k="fixme" v="consider natural=peak for the most distinct mountains in the district" />
		<tag k="name" v="Vetten" />
		<tag k="natural" v="hill" />
		<tag k="place" v="locality" />
		<tag k="ssr:stedsnr" v="931664" />
	</node>
	<node id="-9945" lat="62.8333444407" lon="8.20382777658">
		<tag k="name" v="Rottås" />
		<tag k="natural" v="hill" />
		<tag k="place" v="locality" />
		<tag k="ssr:stedsnr" v="931141" />
	</node>
	<node id="-9944" lat="62.8061277807" lon="8.39123332647">
		<tag k="name" v="Midtbotnryggen" />
		<tag k="natural" v="ridge" />
		<tag k="place" v="locality" />
		<tag k="ssr:stedsnr" v="813348" />
	</node>
	<node id="-9943" lat="63.0413944465" lon="7.97105833107">
		<tag k="name" v="Høgdin" />
		<tag k="natural" v="hill" />
		<tag k="place" v="locality" />
		<tag k="ssr:stedsnr" v="802277" />
	</node>
	<node id="-9941" lat="62.9866656932" lon="8.06275970844">
		<tag k="fixme" v="consider natural=peak for the most distinct mountains in the district" />
		<tag k="name" v="Ranken" />
		<tag k="natural" v="hill" />
		<tag k="place" v="locality" />
		<tag k="ssr:stedsnr" v="801837" />
	</node>
	<node id="-9938" lat="63.0046527746" lon="8.1297944359">
		<tag k="name" v="Kamlia" />
		<tag k="natural" v="hill" />
		<tag k="place" v="locality" />
		<tag k="ssr:stedsnr" v="801178" />
	</node>
	<node id="-9934" lat="62.8093083351" lon="8.33560832977">
		<tag k="name" v="Havdalen" />
		<tag k="natural" v="valley" />
		<tag k="place" v="locality" />
		<tag k="ssr:stedsnr" v="923454" />
	</node>
	<node id="-9933" lat="62.8030805552" lon="8.41058334112">
		<tag k="name" v="Viddalen" />
		<tag k="natural" v="valley" />
		<tag k="place" v="locality" />
		<tag k="ssr:stedsnr" v="923450" />
	</node>
	<node id="-9922" lat="62.9920055527" lon="8.09842221353">
		<tag k="fixme" v="consider natural=peak for the most distinct mountains in the district" />
		<tag k="name" v="Grønlia" />
		<tag k="natural" v="hill" />
		<tag k="place" v="locality" />
		<tag k="ssr:stedsnr" v="922850" />
	</node>
	<node id="-9921" lat="62.9847055587" lon="8.17589443689">
		<tag k="name" v="Steinhøgda" />
		<tag k="natural" v="hill" />
		<tag k="place" v="locality" />
		<tag k="ssr:stedsnr" v="922835" />
	</node>
	<node id="-9920" lat="62.9332222187" lon="8.22692222287">
		<tag k="name" v="Sollihøgda" />
		<tag k="natural" v="hill" />
		<tag k="place" v="locality" />
		<tag k="ssr:stedsnr" v="922699" />
	</node>
	<node id="-9917" lat="62.9555527753" lon="8.23007778416">
		<tag k="name" v="Marhaugen" />
		<tag k="natural" v="hill" />
		<tag k="place" v="locality" />
		<tag k="ssr:stedsnr" v="922661" />
	</node>
	<node id="-9915" lat="63.0126972199" lon="8.14334166365">
		<tag k="fixme" v="consider natural=peak for the most distinct mountains in the district" />
		<tag k="name" v="Fløystadfjellet" />
		<tag k="natural" v="hill" />
		<tag k="place" v="locality" />
		<tag k="ssr:stedsnr" v="922419" />
	</node>
	<node id="-9913" lat="62.8468416639" lon="8.34426667579">
		<tag k="fixme" v="consider natural=peak for the most distinct mountains in the district" />
		<tag k="name" v="Torsknyken" />
		<tag k="natural" v="hill" />
		<tag k="place" v="locality" />
		<tag k="ssr:stedsnr" v="922327" />
	</node>
	<node id="-9905" lat="62.8487027762" lon="8.20919999743">
		<tag k="name" v="Stordalen" />
		<tag k="natural" v="valley" />
		<tag k="place" v="locality" />
		<tag k="ssr:stedsnr" v="775907" />
	</node>
	<node id="-9903" lat="62.849402781" lon="8.35051667624">
		<tag k="name" v="Torsknuken" />
		<tag k="natural" v="hill" />
		<tag k="place" v="locality" />
		<tag k="ssr:stedsnr" v="775889" />
	</node>
	<node id="-9901" lat="62.8890722223" lon="8.26405834134">
		<tag k="name" v="Jamnheia" />
		<tag k="natural" v="hill" />
		<tag k="place" v="locality" />
		<tag k="ssr:stedsnr" v="775670" />
	</node>
	<node id="-9900" lat="62.8846555589" lon="8.28363611384">
		<tag k="name" v="Litlknuken" />
		<tag k="natural" v="hill" />
		<tag k="place" v="locality" />
		<tag k="ssr:stedsnr" v="775669" />
	</node>
	<node id="-9899" lat="62.8217583316" lon="8.31769721545">
		<tag k="name" v="Aspdalen" />
		<tag k="natural" v="valley" />
		<tag k="place" v="locality" />
		<tag k="ssr:stedsnr" v="775748" />
	</node>
	<node id="-9897" lat="63.0311555546" lon="8.07634166214">
		<tag k="name" v="Brennslå" />
		<tag k="natural" v="hill" />
		<tag k="place" v="locality" />
		<tag k="ssr:stedsnr" v="775263" />
	</node>
	<node id="-9889" lat="62.8596638894" lon="8.18894167092">
		<tag k="name" v="Godmathaugen" />
		<tag k="natural" v="hill" />
		<tag k="place" v="locality" />
		<tag k="ssr:stedsnr" v="775063" />
	</node>
	<node id="-9888" lat="62.8559666663" lon="8.18759166281">
		<tag k="name" v="Hjellen" />
		<tag k="place" v="locality" />
		<tag k="ssr:stedsnr" v="775061" />
	</node>
	<node id="-9886" lat="62.9781138901" lon="8.09690555915">
		<tag k="fixme" v="consider natural=peak for the most distinct mountains in the district" />
		<tag k="name" v="Gylfjellet" />
		<tag k="natural" v="hill" />
		<tag k="place" v="locality" />
		<tag k="ssr:stedsnr" v="774708" />
	</node>
	<node id="-9885" lat="63.013894448" lon="8.1249972136">
		<tag k="name" v="Skjorthompan" />
		<tag k="natural" v="hill" />
		<tag k="place" v="locality" />
		<tag k="ssr:stedsnr" v="774459" />
	</node>
	<node id="-9881" lat="63.0477611135" lon="7.97519444971">
		<tag k="name" v="Hylla" />
		<tag k="natural" v="hill" />
		<tag k="place" v="locality" />
		<tag k="ssr:stedsnr" v="774317" />
	</node>
	<node id="-9877" lat="63.0533583319" lon="8.00589722271">
		<tag k="name" v="Nøsen" />
		<tag k="natural" v="ridge" />
		<tag k="place" v="locality" />
		<tag k="ssr:stedsnr" v="774306" />
	</node>
	<node id="-9863" lat="62.8622722189" lon="8.30880555586">
		<tag k="fixme" v="consider natural=peak for the most distinct mountains in the district" />
		<tag k="name" v="Neset" />
		<tag k="natural" v="hill" />
		<tag k="place" v="locality" />
		<tag k="ssr:stedsnr" v="740357" />
	</node>
	<node id="-9861" lat="62.8334972259" lon="8.3547722288">
		<tag k="name" v="Hafstadhaugen" />
		<tag k="natural" v="hill" />
		<tag k="place" v="locality" />
		<tag k="ssr:stedsnr" v="740322" />
	</node>
	<node id="-9860" lat="62.8396277811" lon="8.38662499625">
		<tag k="name" v="Vasslia" />
		<tag k="natural" v="slope" />
		<tag k="place" v="locality" />
		<tag k="ssr:stedsnr" v="740320" />
	</node>
	<node id="-9857" lat="63.0264694454" lon="7.9231666738">
		<tag k="fixme" v="consider natural=peak for the most distinct mountains in the district" />
		<tag k="name" v="Sallaupkamman" />
		<tag k="natural" v="hill" />
		<tag k="place" v="locality" />
		<tag k="ssr:stedsnr" v="740222" />
	</node>
	<node id="-9854" lat="62.8309555521" lon="8.32285555877">
		<tag k="name" v="Kvenhushaugen" />
		<tag k="natural" v="hill" />
		<tag k="place" v="locality" />
		<tag k="ssr:stedsnr" v="897947" />
	</node>
	<node id="-9853" lat="62.8304500029" lon="8.33401943589">
		<tag k="name" v="Slåa" />
		<tag k="natural" v="slope" />
		<tag k="place" v="locality" />
		<tag k="ssr:stedsnr" v="897945" />
	</node>
	<node id="-9851" lat="62.8663166636" lon="8.21926666909">
		<tag k="name" v="Håkkåshaugen" />
		<tag k="natural" v="hill" />
		<tag k="place" v="locality" />
		<tag k="ssr:stedsnr" v="897876" />
	</node>
	<node id="-9849" lat="62.8505861134" lon="8.34902221927">
		<tag k="name" v="Høndalskjerka" />
		<tag k="natural" v="hill" />
		<tag k="place" v="locality" />
		<tag k="ssr:stedsnr" v="897862" />
	</node>
	<node id="-9848" lat="62.9885416703" lon="8.21165278258">
		<tag k="name" v="Kvennalia" />
		<tag k="natural" v="slope" />
		<tag k="place" v="locality" />
		<tag k="ssr:stedsnr" v="897722" />
	</node>
	<node id="-9847" lat="62.9845416657" lon="8.2205138845">
		<tag k="name" v="Ådalslia" />
		<tag k="natural" v="slope" />
		<tag k="place" v="locality" />
		<tag k="ssr:stedsnr" v="897712" />
	</node>
	<node id="-9845" lat="62.9977972257" lon="8.22521111276">
		<tag k="fixme" v="consider natural=peak for the most distinct mountains in the district" />
		<tag k="name" v="Mulen" />
		<tag k="natural" v="hill" />
		<tag k="place" v="locality" />
		<tag k="ssr:stedsnr" v="897704" />
	</node>
	<node id="-9844" lat="62.8171277809" lon="8.37075832621">
		<tag k="name" v="Gammelseterrabben" />
		<tag k="place" v="locality" />
		<tag k="ssr:stedsnr" v="897823" />
	</node>
	<node id="-9842" lat="62.9474333353" lon="8.22084721562">
		<tag k="name" v="Baklia" />
		<tag k="natural" v="slope" />
		<tag k="place" v="locality" />
		<tag k="ssr:stedsnr" v="897794" />
	</node>
	<node id="-9841" lat="62.8775583375" lon="8.29539444306">
		<tag k="name" v="Slettet" />
		<tag k="place" v="locality" />
		<tag k="ssr:stedsnr" v="897628" />
	</node>
	<node id="-9839" lat="63.0369944451" lon="8.10504721431">
		<tag k="name" v="Handsagbotnen" />
		<tag k="natural" v="valley" />
		<tag k="place" v="locality" />
		<tag k="ssr:stedsnr" v="897276" />
	</node>
	<node id="-9836" lat="62.9691972254" lon="8.31260554897">
		<tag k="name" v="Løftradalen" />
		<tag k="natural" v="valley" />
		<tag k="place" v="locality" />
		<tag k="ssr:stedsnr" v="897112" />
	</node>
	<node id="-9833" lat="62.9242999974" lon="8.27063889631">
		<tag k="name" v="Gullhanen" />
		<tag k="place" v="locality" />
		<tag k="ssr:stedsnr" v="897088" />
	</node>
	<node id="-9832" lat="62.8710444421" lon="8.17241666916">
		<tag k="name" v="Storhammaren" />
		<tag k="natural" v="hill" />
		<tag k="place" v="locality" />
		<tag k="ssr:stedsnr" v="897082" />
	</node>
	<node id="-9831" lat="62.8862916691" lon="8.1746444519">
		<tag k="fixme" v="consider natural=peak for the most distinct mountains in the district" />
		<tag k="name" v="Varden" />
		<tag k="natural" v="hill" />
		<tag k="place" v="locality" />
		<tag k="ssr:stedsnr" v="897079" />
	</node>
	<node id="-9826" lat="62.82004444" lon="8.31778054947">
		<tag k="name" v="Skrøå" />
		<tag k="natural" v="valley" />
		<tag k="place" v="locality" />
		<tag k="ssr:stedsnr" v="896795" />
	</node>
	<node id="-9825" lat="62.8229722233" lon="8.30741666937">
		<tag k="name" v="Høgberghammaren" />
		<tag k="natural" v="cliff" />
		<tag k="ssr:stedsnr" v="896793" />
	</node>
	<node id="-9824" lat="63.006586109" lon="7.95852499203">
		<tag k="name" v="Raumelen" />
		<tag k="natural" v="hill" />
		<tag k="place" v="locality" />
		<tag k="ssr:stedsnr" v="896750" />
	</node>
	<node id="-9823" lat="62.9855083361" lon="8.16087777747">
		<tag k="name" v="Grønlihaugen" />
		<tag k="natural" v="hill" />
		<tag k="place" v="locality" />
		<tag k="ssr:stedsnr" v="896688" />
	</node>
	<node id="-9822" lat="62.9018944426" lon="8.27800833371">
		<tag k="name" v="Grønhaugen" />
		<tag k="natural" v="hill" />
		<tag k="place" v="locality" />
		<tag k="ssr:stedsnr" v="896647" />
	</node>
	<node id="-9821" lat="62.9870388921" lon="8.04771667602">
		<tag k="name" v="Mjølkehammaren" />
		<tag k="natural" v="hill" />
		<tag k="place" v="locality" />
		<tag k="ssr:stedsnr" v="896539" />
	</node>
	<node id="-9820" lat="62.9817138868" lon="8.05341944041">
		<tag k="name" v="Raudhammaren" />
		<tag k="natural" v="cliff" />
		<tag k="ssr:stedsnr" v="896537" />
	</node>
	<node id="-9819" lat="62.9452444471" lon="8.15264443849">
		<tag k="name" v="Risset" />
		<tag k="natural" v="slope" />
		<tag k="place" v="locality" />
		<tag k="ssr:stedsnr" v="896496" />
	</node>
	<node id="-9812" lat="62.8959583343" lon="8.17207500044">
		<tag k="name" v="Bugåshammaren" />
		<tag k="natural" v="hill" />
		<tag k="place" v="locality" />
		<tag k="ssr:stedsnr" v="896363" />
	</node>
	<node id="-9808" lat="63.0875833331" lon="8.07411111112">
		<tag k="name" v="Skarshaugen" />
		<tag k="natural" v="hill" />
		<tag k="place" v="locality" />
		<tag k="ssr:stedsnr" v="896306" />
	</node>
	<node id="-9807" lat="63.0500555572" lon="7.98664722909">
		<tag k="name" v="Skadalsmana" />
		<tag k="place" v="locality" />
		<tag k="ssr:stedsnr" v="896286" />
	</node>
	<node id="-9804" lat="62.9447305575" lon="8.30906665765">
		<tag k="name" v="Kalvryggen" />
		<tag k="natural" v="ridge" />
		<tag k="place" v="locality" />
		<tag k="ssr:stedsnr" v="896278" />
	</node>
	<node id="-9797" lat="63.0311138874" lon="7.91604443577">
		<tag k="name" v="Brannhaugen" />
		<tag k="natural" v="hill" />
		<tag k="place" v="locality" />
		<tag k="ssr:stedsnr" v="895658" />
	</node>
	<node id="-9794" lat="62.8421388858" lon="8.36699443882">
		<tag k="name" v="Botn" />
		<tag k="natural" v="valley" />
		<tag k="place" v="locality" />
		<tag k="ssr:stedsnr" v="714973" />
	</node>
	<node id="-9793" lat="62.8272611072" lon="8.32370834024">
		<tag k="name" v="Brøstenhaugen" />
		<tag k="natural" v="hill" />
		<tag k="place" v="locality" />
		<tag k="ssr:stedsnr" v="714970" />
	</node>
	<node id="-9792" lat="62.8425916669" lon="8.32351667457">
		<tag k="name" v="Kålmiltøfta" />
		<tag k="natural" v="ridge" />
		<tag k="place" v="locality" />
		<tag k="ssr:stedsnr" v="714959" />
	</node>
	<node id="-9790" lat="62.8067694464" lon="8.29730554788">
		<tag k="name" v="Bleberga" />
		<tag k="natural" v="cliff" />
		<tag k="ssr:stedsnr" v="714755" />
	</node>
	<node id="-9788" lat="62.9042249981" lon="8.28622222972">
		<tag k="name" v="Berdalen" />
		<tag k="natural" v="valley" />
		<tag k="place" v="locality" />
		<tag k="ssr:stedsnr" v="714560" />
	</node>
	<node id="-9787" lat="62.907302776" lon="8.30090555042">
		<tag k="name" v="Småliin" />
		<tag k="natural" v="slope" />
		<tag k="place" v="locality" />
		<tag k="ssr:stedsnr" v="714559" />
	</node>
	<node id="-9786" lat="62.9868305538" lon="8.06253333437">
		<tag k="fixme" v="consider natural=peak for the most distinct mountains in the district" />
		<tag k="name" v="Middagsfjellet" />
		<tag k="natural" v="hill" />
		<tag k="place" v="locality" />
		<tag k="ssr:stedsnr" v="714439" />
	</node>
	<node id="-9785" lat="62.949455557" lon="8.28903610592">
		<tag k="name" v="Åskaret" />
		<tag k="natural" v="valley" />
		<tag k="place" v="locality" />
		<tag k="ssr:stedsnr" v="714217" />
	</node>
	<node id="-9782" lat="63.0014611082" lon="8.21981944065">
		<tag k="name" v="Svånådalen" />
		<tag k="natural" v="valley" />
		<tag k="place" v="locality" />
		<tag k="ssr:stedsnr" v="895034" />
	</node>
	<node id="-9778" lat="62.9881388863" lon="8.22962499084">
		<tag k="name" v="Ner Huslia" />
		<tag k="natural" v="slope" />
		<tag k="place" v="locality" />
		<tag k="ssr:stedsnr" v="894749" />
	</node>
	<node id="-9765" lat="62.8805138897" lon="8.26682778454">
		<tag k="name" v="Storheia" />
		<tag k="natural" v="hill" />
		<tag k="place" v="locality" />
		<tag k="ssr:stedsnr" v="654682" />
	</node>
	<node id="-9764" lat="62.8759027786" lon="8.27525833235">
		<tag k="name" v="Furudalen" />
		<tag k="natural" v="valley" />
		<tag k="place" v="locality" />
		<tag k="ssr:stedsnr" v="654676" />
	</node>
	<node id="-9759" lat="62.9844805574" lon="8.12289721653">
		<tag k="name" v="Trongskaret" />
		<tag k="natural" v="valley" />
		<tag k="place" v="locality" />
		<tag k="ssr:stedsnr" v="653688" />
	</node>
	<node id="-9758" lat="62.9662500019" lon="8.18866665928">
		<tag k="name" v="Baklia" />
		<tag k="natural" v="slope" />
		<tag k="place" v="locality" />
		<tag k="ssr:stedsnr" v="653687" />
	</node>
	<node id="-9757" lat="62.9583861092" lon="8.19735278533">
		<tag k="name" v="Kuskaret" />
		<tag k="natural" v="valley" />
		<tag k="place" v="locality" />
		<tag k="ssr:stedsnr" v="653666" />
	</node>
	<node id="-9756" lat="62.9694749958" lon="8.24295555285">
		<tag k="name" v="Kalvhusdompa" />
		<tag k="natural" v="valley" />
		<tag k="place" v="locality" />
		<tag k="ssr:stedsnr" v="653656" />
	</node>
	<node id="-9755" lat="62.9921750022" lon="8.13604444515">
		<tag k="name" v="Krokan" />
		<tag k="place" v="locality" />
		<tag k="ssr:stedsnr" v="653513" />
	</node>
	<node id="-9754" lat="63.0924527755" lon="7.96681667477">
		<tag k="name" v="Storhaugen" />
		<tag k="natural" v="hill" />
		<tag k="place" v="locality" />
		<tag k="ssr:stedsnr" v="653306" />
	</node>
	<node id="-9751" lat="62.9424861132" lon="8.2694638849">
		<tag k="name" v="Dåa" />
		<tag k="place" v="locality" />
		<tag k="ssr:stedsnr" v="653258" />
	</node>
	<node id="-9750" lat="63.0422833291" lon="7.96438056512">
		<tag k="name" v="Makrellberghaugen" />
		<tag k="natural" v="hill" />
		<tag k="place" v="locality" />
		<tag k="ssr:stedsnr" v="653257" />
	</node>
	<node id="-9748" lat="62.818350003" lon="8.25741387955">
		<tag k="name" v="Vasslia" />
		<tag k="natural" v="slope" />
		<tag k="place" v="locality" />
		<tag k="ssr:stedsnr" v="653130" />
	</node>
	<node id="-9747" lat="62.8241833305" lon="8.21042777776">
		<tag k="name" v="Gjehammaren" />
		<tag k="natural" v="hill" />
		<tag k="place" v="locality" />
		<tag k="ssr:stedsnr" v="653117" />
	</node>
	<node id="-9744" lat="63.0697916676" lon="7.97017221905">
		<tag k="name" v="Ørntua" />
		<tag k="natural" v="hill" />
		<tag k="place" v="locality" />
		<tag k="ssr:stedsnr" v="652900" />
	</node>
	<node id="-9743" lat="63.0056481038" lon="8.19805596123">
		<tag k="name" v="Jordalskammen" />
		<tag k="natural" v="hill" />
		<tag k="place" v="locality" />
		<tag k="ssr:stedsnr" v="651054" />
	</node>
	<node id="-9740" lat="62.8698277753" lon="8.40151388593">
		<tag k="name" v="Brakkdalen" />
		<tag k="natural" v="valley" />
		<tag k="place" v="locality" />
		<tag k="ssr:stedsnr" v="630219" />
	</node>
	<node id="-9736" lat="63.0162666672" lon="8.08146389556">
		<tag k="name" v="Skiftesdalen" />
		<tag k="natural" v="valley" />
		<tag k="place" v="locality" />
		<tag k="ssr:stedsnr" v="619225" />
	</node>
	<node id="-9728" lat="63.0197555537" lon="8.10403056017">
		<tag k="name" v="Kvennhushaugen" />
		<tag k="natural" v="hill" />
		<tag k="place" v="locality" />
		<tag k="ssr:stedsnr" v="715302" />
	</node>
	<node id="-9724" lat="62.8560527817" lon="8.20363610263">
		<tag k="name" v="Inner Måssåholdalen" />
		<tag k="natural" v="valley" />
		<tag k="place" v="locality" />
		<tag k="ssr:stedsnr" v="714910" />
	</node>
	<node id="-9723" lat="62.8292222227" lon="8.20921945113">
		<tag k="name" v="Sautårnet" />
		<tag k="natural" v="hill" />
		<tag k="place" v="locality" />
		<tag k="ssr:stedsnr" v="714897" />
	</node>
	<node id="-9722" lat="62.8366694453" lon="8.22408888886">
		<tag k="name" v="Lunnan" />
		<tag k="natural" v="slope" />
		<tag k="place" v="locality" />
		<tag k="ssr:stedsnr" v="714893" />
	</node>
	<node id="-9719" lat="62.79453611" lon="8.3398111039">
		<tag k="name" v="Spikhammerteigen" />
		<tag k="natural" v="slope" />
		<tag k="place" v="locality" />
		<tag k="ssr:stedsnr" v="714854" />
	</node>
	<node id="-9717" lat="62.8219805567" lon="8.27389722286">
		<tag k="name" v="Gjehammaren" />
		<tag k="natural" v="hill" />
		<tag k="place" v="locality" />
		<tag k="ssr:stedsnr" v="714743" />
	</node>
	<node id="-9716" lat="62.8232972247" lon="8.29723610961">
		<tag k="name" v="Korshaugen" />
		<tag k="natural" v="hill" />
		<tag k="place" v="locality" />
		<tag k="ssr:stedsnr" v="714739" />
	</node>
	<node id="-9715" lat="62.9951249999" lon="8.24120832586">
		<tag k="name" v="Trollhaugen" />
		<tag k="natural" v="hill" />
		<tag k="place" v="locality" />
		<tag k="ssr:stedsnr" v="714713" />
	</node>
	<node id="-9713" lat="62.9944750023" lon="8.24815555666">
		<tag k="name" v="Kvithaugen" />
		<tag k="natural" v="hill" />
		<tag k="place" v="locality" />
		<tag k="ssr:stedsnr" v="714709" />
	</node>
	<node id="-9712" lat="62.9589749957" lon="8.15416944299">
		<tag k="name" v="Løngsora" />
		<tag k="natural" v="slope" />
		<tag k="place" v="locality" />
		<tag k="ssr:stedsnr" v="714667" />
	</node>
	<node id="-9711" lat="62.9729611109" lon="8.188344454">
		<tag k="name" v="Seterlia" />
		<tag k="natural" v="slope" />
		<tag k="place" v="locality" />
		<tag k="ssr:stedsnr" v="714664" />
	</node>
	<node id="-9709" lat="62.9648555553" lon="8.19202499258">
		<tag k="name" v="Bytbekkholen" />
		<tag k="natural" v="hill" />
		<tag k="place" v="locality" />
		<tag k="ssr:stedsnr" v="714647" />
	</node>
	<node id="-9707" lat="62.968458332" lon="8.21664444516">
		<tag k="name" v="Ballhaugen" />
		<tag k="natural" v="hill" />
		<tag k="place" v="locality" />
		<tag k="ssr:stedsnr" v="714636" />
	</node>
	<node id="-9706" lat="63.0117333369" lon="8.03189166557">
		<tag k="name" v="Revholteigen" />
		<tag k="natural" v="slope" />
		<tag k="place" v="locality" />
		<tag k="ssr:stedsnr" v="714330" />
	</node>
	<node id="-9705" lat="63.0929527744" lon="8.02004443708">
		<tag k="name" v="Svarthammaren" />
		<tag k="natural" v="hill" />
		<tag k="place" v="locality" />
		<tag k="ssr:stedsnr" v="714294" />
	</node>
	<node id="-9703" lat="63.0717805567" lon="8.10255276852">
		<tag k="name" v="Markaslette" />
		<tag k="place" v="locality" />
		<tag k="ssr:stedsnr" v="714375" />
	</node>
	<node id="-9701" lat="62.9950361096" lon="8.04924167101">
		<tag k="name" v="Bronin" />
		<tag k="place" v="locality" />
		<tag k="ssr:stedsnr" v="714370" />
	</node>
	<node id="-9700" lat="63.0757944403" lon="8.00835277492">
		<tag k="name" v="Krestibudalane" />
		<tag k="natural" v="valley" />
		<tag k="place" v="locality" />
		<tag k="ssr:stedsnr" v="714366" />
	</node>
	<node id="-9698" lat="62.8486944436" lon="8.18467778299">
		<tag k="name" v="Svarthammaren" />
		<tag k="natural" v="cliff" />
		<tag k="ssr:stedsnr" v="714140" />
	</node>
	<node id="-9696" lat="62.8165888858" lon="8.24794999944">
		<tag k="name" v="Ljøsmyrdalen" />
		<tag k="natural" v="valley" />
		<tag k="place" v="locality" />
		<tag k="ssr:stedsnr" v="714116" />
	</node>
	<node id="-9695" lat="62.8172194471" lon="8.24990834143">
		<tag k="name" v="Jutulhammaren" />
		<tag k="natural" v="hill" />
		<tag k="place" v="locality" />
		<tag k="ssr:stedsnr" v="714114" />
	</node>
	<node id="-9694" lat="62.8565416634" lon="8.17586388999">
		<tag k="name" v="Kammen" />
		<tag k="natural" v="ridge" />
		<tag k="place" v="locality" />
		<tag k="ssr:stedsnr" v="714097" />
	</node>
	<node id="-9691" lat="62.8735083374" lon="8.24921110898">
		<tag k="name" v="Djupdalen" />
		<tag k="natural" v="valley" />
		<tag k="place" v="locality" />
		<tag k="ssr:stedsnr" v="714089" />
	</node>
	<node id="-9690" lat="62.8553972236" lon="8.25153610321">
		<tag k="name" v="Venåslia" />
		<tag k="natural" v="slope" />
		<tag k="place" v="locality" />
		<tag k="ssr:stedsnr" v="714088" />
	</node>
	<node id="-9689" lat="62.8652333368" lon="8.25486943725">
		<tag k="name" v="Svarthaugen" />
		<tag k="natural" v="hill" />
		<tag k="place" v="locality" />
		<tag k="ssr:stedsnr" v="714086" />
	</node>
	<node id="-9685" lat="62.8655777758" lon="8.17624999967">
		<tag k="name" v="Varghaugen" />
		<tag k="natural" v="hill" />
		<tag k="place" v="locality" />
		<tag k="ssr:stedsnr" v="714063" />
	</node>
	<node id="-9684" lat="62.8604527815" lon="8.18119722118">
		<tag k="name" v="Galtpehaugen" />
		<tag k="natural" v="hill" />
		<tag k="place" v="locality" />
		<tag k="ssr:stedsnr" v="714058" />
	</node>
	<node id="-9683" lat="63.1016861082" lon="8.09059166616">
		<tag k="name" v="Kammen" />
		<tag k="natural" v="ridge" />
		<tag k="place" v="locality" />
		<tag k="ssr:stedsnr" v="714261" />
	</node>
	<node id="-9682" lat="62.9398111097" lon="8.26809722749">
		<tag k="name" v="Svaiin" />
		<tag k="place" v="locality" />
		<tag k="ssr:stedsnr" v="714244" />
	</node>
	<node id="-9678" lat="63.0019972216" lon="8.00659167002">
		<tag k="name" v="Skarahaugen" />
		<tag k="natural" v="hill" />
		<tag k="place" v="locality" />
		<tag k="ssr:stedsnr" v="713745" />
	</node>
	<node id="-9675" lat="63.0202749992" lon="7.99132222199">
		<tag k="name" v="Bruraknappen" />
		<tag k="natural" v="hill" />
		<tag k="place" v="locality" />
		<tag k="ssr:stedsnr" v="713459" />
	</node>
	<node id="-9674" lat="62.9845638892" lon="8.04825832574">
		<tag k="name" v="Tørrhammaren" />
		<tag k="natural" v="cliff" />
		<tag k="ssr:stedsnr" v="592540" />
	</node>
	<node id="-9670" lat="63.0287833298" lon="8.05121944689">
		<tag k="name" v="Asplia" />
		<tag k="natural" v="slope" />
		<tag k="place" v="locality" />
		<tag k="ssr:stedsnr" v="592405" />
	</node>
	<node id="-9669" lat="62.9846138925" lon="8.24729722744">
		<tag k="name" v="Skiveberget" />
		<tag k="natural" v="hill" />
		<tag k="place" v="locality" />
		<tag k="ssr:stedsnr" v="712719" />
	</node>
	<node id="-9663" lat="63.0156444469" lon="7.92540277911">
		<tag k="name" v="Skaret" />
		<tag k="natural" v="valley" />
		<tag k="place" v="locality" />
		<tag k="ssr:stedsnr" v="558214" />
	</node>
	<node id="-9648" lat="62.8762250041" lon="8.30088334143">
		<tag k="name" v="Remberget" />
		<tag k="natural" v="hill" />
		<tag k="place" v="locality" />
		<tag k="ssr:stedsnr" v="532612" />
	</node>
	<node id="-9645" lat="63.0032944438" lon="7.90342777478">
		<tag k="name" v="Gjenptohaugen" />
		<tag k="natural" v="hill" />
		<tag k="place" v="locality" />
		<tag k="ssr:stedsnr" v="531611" />
	</node>
	<node id="-9643" lat="62.8108166663" lon="8.31176389721">
		<tag k="name" v="Stordalen" />
		<tag k="natural" v="valley" />
		<tag k="place" v="locality" />
		<tag k="ssr:stedsnr" v="530216" />
	</node>
	<node id="-9641" lat="62.8935166685" lon="8.183086102">
		<tag k="fixme" v="consider natural=peak for the most distinct mountains in the district" />
		<tag k="name" v="Saglimana" />
		<tag k="natural" v="hill" />
		<tag k="place" v="locality" />
		<tag k="ssr:stedsnr" v="688161" />
	</node>
	<node id="-9640" lat="63.0179694434" lon="8.03923334181">
		<tag k="fixme" v="consider natural=peak for the most distinct mountains in the district" />
		<tag k="name" v="Melåsen" />
		<tag k="natural" v="hill" />
		<tag k="place" v="locality" />
		<tag k="ssr:stedsnr" v="505255" />
	</node>
	<node id="-9638" lat="62.8756222209" lon="8.23634166348">
		<tag k="fixme" v="consider natural=peak for the most distinct mountains in the district" />
		<tag k="name" v="Langheia" />
		<tag k="natural" v="hill" />
		<tag k="place" v="locality" />
		<tag k="ssr:stedsnr" v="498312" />
	</node>
	<node id="-9635" lat="62.9925027783" lon="8.05726111741">
		<tag k="fixme" v="consider natural=peak for the most distinct mountains in the district" />
		<tag k="name" v="Nipa" />
		<tag k="natural" v="hill" />
		<tag k="place" v="locality" />
		<tag k="ssr:stedsnr" v="497861" />
	</node>
	<node id="-9634" lat="62.8607472223" lon="8.19891111796">
		<tag k="name" v="Kjøllia" />
		<tag k="natural" v="hill" />
		<tag k="place" v="locality" />
		<tag k="ssr:stedsnr" v="497508" />
	</node>
	<node id="-9633" lat="62.8080250036" lon="8.28816943597">
		<tag k="fixme" v="consider natural=peak for the most distinct mountains in the district" />
		<tag k="name" v="Aksla" />
		<tag k="natural" v="hill" />
		<tag k="place" v="locality" />
		<tag k="ssr:stedsnr" v="680452" />
	</node>
	<node id="-9632" lat="62.8033833326" lon="8.43411111428">
		<tag k="fixme" v="consider natural=peak for the most distinct mountains in the district" />
		<tag k="name" v="Smisetnebba" />
		<tag k="natural" v="hill" />
		<tag k="place" v="locality" />
		<tag k="ssr:stedsnr" v="680451" />
	</node>
	<node id="-9630" lat="63.0180194471" lon="8.14753333542">
		<tag k="name" v="Svartberget" />
		<tag k="natural" v="hill" />
		<tag k="place" v="locality" />
		<tag k="ssr:stedsnr" v="680223" />
	</node>
	<node id="-9628" lat="63.0154194412" lon="8.16305554999">
		<tag k="name" v="Høglia" />
		<tag k="natural" v="hill" />
		<tag k="place" v="locality" />
		<tag k="ssr:stedsnr" v="680208" />
	</node>
	<node id="-9615" lat="63.0200305568" lon="7.92136943653">
		<tag k="fixme" v="consider natural=peak for the most distinct mountains in the district" />
		<tag k="name" v="Nipa" />
		<tag k="natural" v="hill" />
		<tag k="place" v="locality" />
		<tag k="ssr:stedsnr" v="679182" />
	</node>
	<node id="-9610" lat="62.9745333317" lon="8.22378334075">
		<tag k="name" v="Jutuldalen" />
		<tag k="natural" v="valley" />
		<tag k="place" v="locality" />
		<tag k="ssr:stedsnr" v="472625" />
	</node>
	<node id="-9601" lat="62.9941527802" lon="8.06263056176">
		<tag k="name" v="Treekerdalen" />
		<tag k="natural" v="valley" />
		<tag k="place" v="locality" />
		<tag k="ssr:stedsnr" v="411409" />
	</node>
	<node id="-9593" lat="63.0922777745" lon="8.04654444647">
		<tag k="fixme" v="consider natural=peak for the most distinct mountains in the district" />
		<tag k="name" v="Strandafjellet" />
		<tag k="natural" v="hill" />
		<tag k="place" v="locality" />
		<tag k="ssr:stedsnr" v="498391" />
	</node>
	<node id="-9588" lat="62.9599722257" lon="8.20458610912">
		<tag k="fixme" v="consider natural=peak for the most distinct mountains in the district" />
		<tag k="name" v="Storlia" />
		<tag k="natural" v="hill" />
		<tag k="place" v="locality" />
		<tag k="ssr:stedsnr" v="375918" />
	</node>
	<node id="-9586" lat="62.9443166695" lon="8.25889721993">
		<tag k="name" v="Norskå" />
		<tag k="natural" v="hill" />
		<tag k="place" v="locality" />
		<tag k="ssr:stedsnr" v="375666" />
	</node>
	<node id="-9583" lat="63.0489000033" lon="7.99610833672">
		<tag k="fixme" v="consider natural=peak for the most distinct mountains in the district" />
		<tag k="name" v="Høglia" />
		<tag k="natural" v="hill" />
		<tag k="place" v="locality" />
		<tag k="ssr:stedsnr" v="498166" />
	</node>
	<node id="-9579" lat="62.9003999957" lon="8.25049444777">
		<tag k="fixme" v="consider natural=peak for the most distinct mountains in the district" />
		<tag k="name" v="Kjerkjeberget" />
		<tag k="natural" v="hill" />
		<tag k="place" v="locality" />
		<tag k="ssr:stedsnr" v="497740" />
	</node>
	<node id="-9574" lat="62.7941666677" lon="8.41658333929">
		<tag k="name" v="Midtbotnen" />
		<tag k="natural" v="valley" />
		<tag k="place" v="locality" />
		<tag k="ssr:stedsnr" v="497389" />
	</node>
	<node id="-9571" lat="62.8395138898" lon="8.22392500094">
		<tag k="fixme" v="consider natural=peak for the most distinct mountains in the district" />
		<tag k="name" v="Rottåsfjellet" />
		<tag k="natural" v="hill" />
		<tag k="place" v="locality" />
		<tag k="ssr:stedsnr" v="497345" />
	</node>
	<node id="-9558" lat="62.8640694484" lon="8.27669999814">
		<tag k="name" v="Slettlia" />
		<tag k="natural" v="slope" />
		<tag k="place" v="locality" />
		<tag k="ssr:stedsnr" v="350910" />
	</node>
	<node id="-9555" lat="62.9910472196" lon="8.0781916746">
		<tag k="fixme" v="consider natural=peak for the most distinct mountains in the district" />
		<tag k="name" v="Mannen" />
		<tag k="natural" v="hill" />
		<tag k="place" v="locality" />
		<tag k="ssr:stedsnr" v="349749" />
	</node>
	<node id="-9553" lat="63.0441388902" lon="8.11120555479">
		<tag k="name" v="Ruskhaugen" />
		<tag k="natural" v="hill" />
		<tag k="place" v="locality" />
		<tag k="ssr:stedsnr" v="349311" />
	</node>
	<node id="-9552" lat="63.0575805515" lon="8.0905305572">
		<tag k="fixme" v="consider natural=peak for the most distinct mountains in the district" />
		<tag k="name" v="Skruvfuruhammaren" />
		<tag k="natural" v="hill" />
		<tag k="place" v="locality" />
		<tag k="ssr:stedsnr" v="349302" />
	</node>
	<node id="-9551" lat="62.8095416662" lon="8.25114166645">
		<tag k="name" v="Nausthaugen" />
		<tag k="natural" v="hill" />
		<tag k="place" v="locality" />
		<tag k="ssr:stedsnr" v="349179" />
	</node>
	<node id="-9548" lat="62.8099277795" lon="8.2824916649">
		<tag k="name" v="Hustufthamran" />
		<tag k="natural" v="hill" />
		<tag k="place" v="locality" />
		<tag k="ssr:stedsnr" v="347177" />
	</node>
	<node id="-9546" lat="62.8662138846" lon="8.39341944546">
		<tag k="name" v="Gardan" />
		<tag k="natural" v="slope" />
		<tag k="place" v="locality" />
		<tag k="ssr:stedsnr" v="327214" />
	</node>
	<node id="-9544" lat="62.8475694414" lon="8.23783054691">
		<tag k="fixme" v="consider natural=peak for the most distinct mountains in the district" />
		<tag k="name" v="Svarthammaren" />
		<tag k="natural" v="hill" />
		<tag k="place" v="locality" />
		<tag k="ssr:stedsnr" v="316903" />
	</node>
	<node id="-9540" lat="63.0476944404" lon="8.02816667212">
		<tag k="name" v="Høghaugen" />
		<tag k="natural" v="hill" />
		<tag k="place" v="locality" />
		<tag k="ssr:stedsnr" v="316154" />
	</node>
	<node id="-9537" lat="62.9469444414" lon="8.16521110274">
		<tag k="fixme" v="consider natural=peak for the most distinct mountains in the district" />
		<tag k="name" v="Litllia" />
		<tag k="natural" v="hill" />
		<tag k="place" v="locality" />
		<tag k="ssr:stedsnr" v="314909" />
	</node>
	<node id="-9531" lat="62.838858334" lon="8.37998889659">
		<tag k="name" v="Vasslia" />
		<tag k="natural" v="slope" />
		<tag k="place" v="locality" />
		<tag k="ssr:stedsnr" v="472954" />
	</node>
	<node id="-9526" lat="62.8121722252" lon="8.36281945316">
		<tag k="name" v="Veden" />
		<tag k="place" v="locality" />
		<tag k="ssr:stedsnr" v="472853" />
	</node>
	<node id="-9525" lat="62.8186611134" lon="8.37970278727">
		<tag k="name" v="Storslættet" />
		<tag k="natural" v="slope" />
		<tag k="place" v="locality" />
		<tag k="ssr:stedsnr" v="472846" />
	</node>
	<node id="-9524" lat="62.8148138926" lon="8.382094441">
		<tag k="name" v="Ivarslættet" />
		<tag k="natural" v="slope" />
		<tag k="place" v="locality" />
		<tag k="ssr:stedsnr" v="472845" />
	</node>
	<node id="-9523" lat="62.8173000004" lon="8.32414167034">
		<tag k="name" v="Hamna" />
		<tag k="natural" v="slope" />
		<tag k="place" v="locality" />
		<tag k="ssr:stedsnr" v="472833" />
	</node>
	<node id="-9522" lat="62.8203722249" lon="8.32717500544">
		<tag k="name" v="Gunnabakken" />
		<tag k="natural" v="slope" />
		<tag k="place" v="locality" />
		<tag k="ssr:stedsnr" v="472829" />
	</node>
	<node id="-9519" lat="62.9282916634" lon="8.19636945122">
		<tag k="name" v="Knebben" />
		<tag k="natural" v="hill" />
		<tag k="place" v="locality" />
		<tag k="ssr:stedsnr" v="472789" />
	</node>
	<node id="-9517" lat="62.9845194442" lon="8.21143888567">
		<tag k="name" v="Myrskarbrona" />
		<tag k="natural" v="ridge" />
		<tag k="place" v="locality" />
		<tag k="ssr:stedsnr" v="472741" />
	</node>
	<node id="-9515" lat="62.9722138879" lon="8.15719722631">
		<tag k="name" v="Kjøraskaret" />
		<tag k="natural" v="valley" />
		<tag k="place" v="locality" />
		<tag k="ssr:stedsnr" v="472662" />
	</node>
	<node id="-9514" lat="62.9683861141" lon="8.15373888935">
		<tag k="name" v="Stølkammen" />
		<tag k="natural" v="ridge" />
		<tag k="place" v="locality" />
		<tag k="ssr:stedsnr" v="472656" />
	</node>
	<node id="-9511" lat="63.0103527737" lon="8.03589443979">
		<tag k="name" v="Storhaugen" />
		<tag k="natural" v="hill" />
		<tag k="place" v="locality" />
		<tag k="ssr:stedsnr" v="472373" />
	</node>
	<node id="-9507" lat="62.969983329" lon="8.26828611679">
		<tag k="name" v="Mjølurddalen" />
		<tag k="natural" v="valley" />
		<tag k="place" v="locality" />
		<tag k="ssr:stedsnr" v="472116" />
	</node>
	<node id="-9502" lat="62.8662388909" lon="8.27682777477">
		<tag k="name" v="Svarthammaren" />
		<tag k="natural" v="hill" />
		<tag k="place" v="locality" />
		<tag k="ssr:stedsnr" v="471935" />
	</node>
	<node id="-9501" lat="62.8676555527" lon="8.28552499149">
		<tag k="name" v="Balstadlia" />
		<tag k="natural" v="slope" />
		<tag k="place" v="locality" />
		<tag k="ssr:stedsnr" v="471934" />
	</node>
	<node id="-9500" lat="62.8470944472" lon="8.17597222977">
		<tag k="name" v="Svain" />
		<tag k="natural" v="hill" />
		<tag k="place" v="locality" />
		<tag k="ssr:stedsnr" v="471927" />
	</node>
	<node id="-9499" lat="62.8314833303" lon="8.18926944867">
		<tag k="name" v="Skarvhammaren" />
		<tag k="natural" v="hill" />
		<tag k="place" v="locality" />
		<tag k="ssr:stedsnr" v="471922" />
	</node>
	<node id="-9498" lat="62.8465583327" lon="8.23985834152">
		<tag k="name" v="Rogndalen" />
		<tag k="natural" v="valley" />
		<tag k="place" v="locality" />
		<tag k="ssr:stedsnr" v="471892" />
	</node>
	<node id="-9497" lat="62.8436305541" lon="8.23737777085">
		<tag k="name" v="Bårdteigen" />
		<tag k="place" v="locality" />
		<tag k="ssr:stedsnr" v="471886" />
	</node>
	<node id="-9496" lat="62.8239166683" lon="8.28593334134">
		<tag k="name" v="Leibekkdalen" />
		<tag k="natural" v="valley" />
		<tag k="place" v="locality" />
		<tag k="ssr:stedsnr" v="471790" />
	</node>
	<node id="-9495" lat="62.819683335" lon="8.26439165717">
		<tag k="name" v="Kuhjellholet" />
		<tag k="natural" v="valley" />
		<tag k="place" v="locality" />
		<tag k="ssr:stedsnr" v="471785" />
	</node>
	<node id="-9494" lat="62.8145416699" lon="8.27306111123">
		<tag k="name" v="Steinskrøå" />
		<tag k="natural" v="slope" />
		<tag k="place" v="locality" />
		<tag k="ssr:stedsnr" v="471783" />
	</node>
	<node id="-9488" lat="62.896199999" lon="8.27873888784">
		<tag k="name" v="Storbjørkaliheia" />
		<tag k="natural" v="hill" />
		<tag k="place" v="locality" />
		<tag k="ssr:stedsnr" v="471613" />
	</node>
	<node id="-9486" lat="62.9373555537" lon="8.14008610716">
		<tag k="name" v="Vorpvikberget" />
		<tag k="natural" v="hill" />
		<tag k="place" v="locality" />
		<tag k="ssr:stedsnr" v="471482" />
	</node>
	<node id="-9485" lat="62.9522027752" lon="8.17715555398">
		<tag k="name" v="Rognlia" />
		<tag k="natural" v="slope" />
		<tag k="place" v="locality" />
		<tag k="ssr:stedsnr" v="471472" />
	</node>
	<node id="-9484" lat="63.0777611092" lon="8.07103055339">
		<tag k="name" v="Svartbekkhaugen" />
		<tag k="natural" v="hill" />
		<tag k="place" v="locality" />
		<tag k="ssr:stedsnr" v="471454" />
	</node>
	<node id="-9483" lat="63.0795944441" lon="8.01085556476">
		<tag k="fixme" v="consider natural=peak for the most distinct mountains in the district" />
		<tag k="name" v="Terjeåsen" />
		<tag k="natural" v="hill" />
		<tag k="place" v="locality" />
		<tag k="ssr:stedsnr" v="471439" />
	</node>
	<node id="-9480" lat="63.0110111126" lon="8.11458055329">
		<tag k="name" v="Klubben" />
		<tag k="natural" v="hill" />
		<tag k="place" v="locality" />
		<tag k="ssr:stedsnr" v="471421" />
	</node>
	<node id="-9479" lat="63.0188222186" lon="8.04286389328">
		<tag k="name" v="Sopalia" />
		<tag k="natural" v="slope" />
		<tag k="place" v="locality" />
		<tag k="ssr:stedsnr" v="471399" />
	</node>
	<node id="-9474" lat="63.0540777782" lon="7.98403888708">
		<tag k="name" v="Røyskattholet" />
		<tag k="natural" v="valley" />
		<tag k="place" v="locality" />
		<tag k="ssr:stedsnr" v="471281" />
	</node>
	<node id="-9471" lat="62.938066665" lon="8.26256944067">
		<tag k="name" v="Hålå" />
		<tag k="place" v="locality" />
		<tag k="ssr:stedsnr" v="471269" />
	</node>
	<node id="-9470" lat="62.9442805599" lon="8.30756945197">
		<tag k="name" v="Skiveberget" />
		<tag k="natural" v="hill" />
		<tag k="place" v="locality" />
		<tag k="ssr:stedsnr" v="471266" />
	</node>
	<node id="-9469" lat="63.0564499993" lon="8.10317776833">
		<tag k="name" v="Haukarhaugen" />
		<tag k="natural" v="hill" />
		<tag k="place" v="locality" />
		<tag k="ssr:stedsnr" v="471262" />
	</node>
	<node id="-9468" lat="62.9468444403" lon="8.27888055756">
		<tag k="name" v="Dompa" />
		<tag k="natural" v="valley" />
		<tag k="place" v="locality" />
		<tag k="ssr:stedsnr" v="471254" />
	</node>
	<node id="-9463" lat="62.9763388901" lon="8.29647777416">
		<tag k="name" v="Skrøådalen" />
		<tag k="natural" v="valley" />
		<tag k="place" v="locality" />
		<tag k="ssr:stedsnr" v="471104" />
	</node>
	<node id="-9461" lat="63.0720250044" lon="7.98539444878">
		<tag k="name" v="Øvre fjellhaugen" />
		<tag k="natural" v="hill" />
		<tag k="place" v="locality" />
		<tag k="ssr:stedsnr" v="470922" />
	</node>
	<node id="-9460" lat="63.0280416681" lon="7.93930277011">
		<tag k="name" v="Nastaddalen" />
		<tag k="natural" v="valley" />
		<tag k="place" v="locality" />
		<tag k="ssr:stedsnr" v="470683" />
	</node>
	<node id="-9458" lat="63.0092666685" lon="7.9161416602">
		<tag k="name" v="Hermannsenhaugen" />
		<tag k="natural" v="hill" />
		<tag k="place" v="locality" />
		<tag k="ssr:stedsnr" v="470564" />
	</node>
	<node id="-9457" lat="63.0022777759" lon="7.88974722536">
		<tag k="name" v="Litl Rambjørnhaugen" />
		<tag k="natural" v="hill" />
		<tag k="place" v="locality" />
		<tag k="ssr:stedsnr" v="470560" />
	</node>
	<node id="-9451" lat="62.8276944452" lon="8.20697222075">
		<tag k="name" v="Aspaskaret" />
		<tag k="natural" v="valley" />
		<tag k="place" v="locality" />
		<tag k="ssr:stedsnr" v="290869" />
	</node>
	<node id="-9449" lat="62.8263361098" lon="8.22514722639">
		<tag k="name" v="Smihaugen" />
		<tag k="natural" v="hill" />
		<tag k="place" v="locality" />
		<tag k="ssr:stedsnr" v="290863" />
	</node>
	<node id="-9446" lat="62.9679833363" lon="8.18313334226">
		<tag k="name" v="Smålia" />
		<tag k="natural" v="slope" />
		<tag k="place" v="locality" />
		<tag k="ssr:stedsnr" v="290610" />
	</node>
	<node id="-9445" lat="62.972297225" lon="8.16518054801">
		<tag k="name" v="Gammelbusletten" />
		<tag k="place" v="locality" />
		<tag k="ssr:stedsnr" v="290606" />
	</node>
	<node id="-9443" lat="62.8881527755" lon="8.32398334204">
		<tag k="name" v="Olderbrekka" />
		<tag k="natural" v="slope" />
		<tag k="place" v="locality" />
		<tag k="ssr:stedsnr" v="290712" />
	</node>
	<node id="-9441" lat="62.9643527739" lon="8.25127778355">
		<tag k="name" v="Leitlia" />
		<tag k="natural" v="slope" />
		<tag k="place" v="locality" />
		<tag k="ssr:stedsnr" v="290552" />
	</node>
	<node id="-9440" lat="62.8934722178" lon="8.2238083349">
		<tag k="name" v="Sølvberget" />
		<tag k="natural" v="hill" />
		<tag k="place" v="locality" />
		<tag k="ssr:stedsnr" v="290308" />
	</node>
	<node id="-9437" lat="63.0261944462" lon="8.1151277835">
		<tag k="name" v="Sommarfjøshaugen" />
		<tag k="natural" v="hill" />
		<tag k="place" v="locality" />
		<tag k="ssr:stedsnr" v="290268" />
	</node>
	<node id="-9435" lat="62.9752555578" lon="8.19899443696">
		<tag k="name" v="Seterlia" />
		<tag k="natural" v="slope" />
		<tag k="place" v="locality" />
		<tag k="ssr:stedsnr" v="290258" />
	</node>
	<node id="-9434" lat="62.964391667" lon="8.31624443883">
		<tag k="name" v="Vettakuhaugen" />
		<tag k="natural" v="hill" />
		<tag k="place" v="locality" />
		<tag k="ssr:stedsnr" v="290104" />
	</node>
	<node id="-9430" lat="63.0134361156" lon="7.93435555948">
		<tag k="name" v="Pillirøra" />
		<tag k="natural" v="valley" />
		<tag k="place" v="locality" />
		<tag k="ssr:stedsnr" v="289618" />
	</node>
	<node id="-9427" lat="62.8777472216" lon="8.25225833221">
		<tag k="name" v="Spennvasskaret" />
		<tag k="natural" v="valley" />
		<tag k="place" v="locality" />
		<tag k="ssr:stedsnr" v="290011" />
	</node>
	<node id="-9426" lat="62.8786694446" lon="8.24028333422">
		<tag k="name" v="Baklia" />
		<tag k="natural" v="slope" />
		<tag k="place" v="locality" />
		<tag k="ssr:stedsnr" v="290009" />
	</node>
	<node id="-9424" lat="63.0649111134" lon="8.08626388178">
		<tag k="name" v="Knobben" />
		<tag k="natural" v="hill" />
		<tag k="place" v="locality" />
		<tag k="ssr:stedsnr" v="289453" />
	</node>
	<node id="-9422" lat="62.9364416669" lon="8.17993054606">
		<tag k="name" v="Tjørrhjelldalen" />
		<tag k="natural" v="valley" />
		<tag k="place" v="locality" />
		<tag k="ssr:stedsnr" v="289271" />
	</node>
	<node id="-9420" lat="62.9352805556" lon="8.18293332371">
		<tag k="name" v="Marsteinslåin" />
		<tag k="natural" v="slope" />
		<tag k="place" v="locality" />
		<tag k="ssr:stedsnr" v="289269" />
	</node>
	<node id="-9418" lat="62.9371750044" lon="8.26964444376">
		<tag k="name" v="Kvilarplassen" />
		<tag k="place" v="locality" />
		<tag k="ssr:stedsnr" v="289264" />
	</node>
	<node id="-9415" lat="63.0724027757" lon="7.99510277767">
		<tag k="name" v="Sverriholmana" />
		<tag k="natural" v="hill" />
		<tag k="place" v="locality" />
		<tag k="ssr:stedsnr" v="289210" />
	</node>
	<node id="-9414" lat="63.0756694449" lon="7.97036388092">
		<tag k="name" v="Ørnhammaren" />
		<tag k="natural" v="hill" />
		<tag k="place" v="locality" />
		<tag k="ssr:stedsnr" v="289208" />
	</node>
	<node id="-9411" lat="62.9917111104" lon="7.89012500048">
		<tag k="name" v="Skjevlingsneshaugen" />
		<tag k="natural" v="hill" />
		<tag k="place" v="locality" />
		<tag k="ssr:stedsnr" v="288657" />
	</node>
	<node id="-9410" lat="63.0270083333" lon="7.90939444433">
		<tag k="name" v="Høglia" />
		<tag k="natural" v="slope" />
		<tag k="place" v="locality" />
		<tag k="ssr:stedsnr" v="288622" />
	</node>
	<node id="-9409" lat="63.0707416651" lon="8.13664721274">
		<tag k="name" v="Myrahaugen" />
		<tag k="natural" v="hill" />
		<tag k="place" v="locality" />
		<tag k="ssr:stedsnr" v="288066" />
	</node>
	<node id="-9408" lat="62.8079472223" lon="8.31188889669">
		<tag k="name" v="Bukkholet" />
		<tag k="natural" v="cliff" />
		<tag k="ssr:stedsnr" v="287176" />
	</node>
	<node id="-9407" lat="62.8154694403" lon="8.24366943973">
		<tag k="name" v="Vettahaugen" />
		<tag k="natural" v="hill" />
		<tag k="place" v="locality" />
		<tag k="ssr:stedsnr" v="255421" />
	</node>
	<node id="-9405" lat="62.8095472254" lon="8.30892500903">
		<tag k="name" v="Stordalsnebba" />
		<tag k="natural" v="hill" />
		<tag k="place" v="locality" />
		<tag k="ssr:stedsnr" v="255410" />
	</node>
	<node id="-9400" lat="63.087961113" lon="8.03221110491">
		<tag k="fixme" v="multiple name tags, choose one and add the other to alt_name" />
		<tag k="name" v="Modalen;Mådalen" />
		<tag k="natural" v="valley" />
		<tag k="place" v="locality" />
		<tag k="ssr:stedsnr" v="255321" />
	</node>
	<node id="-9395" lat="62.8089333328" lon="8.36301944035">
		<tag k="name" v="Svålåberget" />
		<tag k="natural" v="hill" />
		<tag k="place" v="locality" />
		<tag k="ssr:stedsnr" v="229867" />
	</node>
	<node id="-9394" lat="62.8031666663" lon="8.33528889568">
		<tag k="name" v="Øverslættet" />
		<tag k="place" v="locality" />
		<tag k="ssr:stedsnr" v="229855" />
	</node>
	<node id="-9393" lat="62.9205055525" lon="8.21873610444">
		<tag k="name" v="Vasshaugan" />
		<tag k="natural" v="hill" />
		<tag k="place" v="locality" />
		<tag k="ssr:stedsnr" v="229809" />
	</node>
	<node id="-9390" lat="62.8895805571" lon="8.15010277654">
		<tag k="name" v="Hegerberghammaren" />
		<tag k="natural" v="hill" />
		<tag k="place" v="locality" />
		<tag k="ssr:stedsnr" v="229070" />
	</node>
	<node id="-9385" lat="62.8592500034" lon="8.1642749954">
		<tag k="name" v="Liaflata" />
		<tag k="natural" v="slope" />
		<tag k="place" v="locality" />
		<tag k="ssr:stedsnr" v="229115" />
	</node>
	<node id="-9383" lat="62.8512138932" lon="8.16547778161">
		<tag k="name" v="Hinna" />
		<tag k="place" v="locality" />
		<tag k="ssr:stedsnr" v="229111" />
	</node>
	<node id="-9382" lat="62.8532277742" lon="8.16868056274">
		<tag k="name" v="Høghaugen" />
		<tag k="natural" v="hill" />
		<tag k="place" v="locality" />
		<tag k="ssr:stedsnr" v="229109" />
	</node>
	<node id="-9380" lat="62.9988083377" lon="8.0913111186">
		<tag k="fixme" v="consider natural=peak for the most distinct mountains in the district" />
		<tag k="name" v="Eikremsfjellet" />
		<tag k="natural" v="hill" />
		<tag k="place" v="locality" />
		<tag k="ssr:stedsnr" v="228772" />
	</node>
	<node id="-9377" lat="63.0022388903" lon="8.11535278095">
		<tag k="name" v="Stakkslettkammen" />
		<tag k="natural" v="ridge" />
		<tag k="place" v="locality" />
		<tag k="ssr:stedsnr" v="228455" />
	</node>
	<node id="-9372" lat="63.024969447" lon="7.91610277177">
		<tag k="name" v="Bjerkalia" />
		<tag k="natural" v="slope" />
		<tag k="place" v="locality" />
		<tag k="ssr:stedsnr" v="227654" />
	</node>
	<node id="-9371" lat="63.0031027746" lon="8.19160833494">
		<tag k="name" v="Kamsvågdalen" />
		<tag k="natural" v="valley" />
		<tag k="place" v="locality" />
		<tag k="ssr:stedsnr" v="227609" />
	</node>
	<node id="-9367" lat="63.0049277795" lon="7.92571944285">
		<tag k="fixme" v="consider natural=peak for the most distinct mountains in the district" />
		<tag k="name" v="Vettafjellet" />
		<tag k="natural" v="hill" />
		<tag k="place" v="locality" />
		<tag k="ssr:stedsnr" v="194405" />
	</node>
	<node id="-9362" lat="62.8159138847" lon="8.35730555821">
		<tag k="name" v="Seterbrekke" />
		<tag k="natural" v="slope" />
		<tag k="place" v="locality" />
		<tag k="ssr:stedsnr" v="290832" />
	</node>
	<node id="-9360" lat="62.9449055546" lon="8.22139165797">
		<tag k="name" v="Gammelseterdalen" />
		<tag k="natural" v="valley" />
		<tag k="place" v="locality" />
		<tag k="ssr:stedsnr" v="290801" />
	</node>
	<node id="-9359" lat="62.9396805513" lon="8.21896110812">
		<tag k="name" v="Seterlia" />
		<tag k="natural" v="slope" />
		<tag k="place" v="locality" />
		<tag k="ssr:stedsnr" v="290797" />
	</node>
	<node id="-9357" lat="62.8851666688" lon="8.26028333782">
		<tag k="name" v="Finnskjeggvollan" />
		<tag k="natural" v="slope" />
		<tag k="place" v="locality" />
		<tag k="ssr:stedsnr" v="290627" />
	</node>
	<node id="-9356" lat="62.9632638917" lon="8.24008889764">
		<tag k="name" v="Marhaugbakkan" />
		<tag k="natural" v="slope" />
		<tag k="place" v="locality" />
		<tag k="ssr:stedsnr" v="290545" />
	</node>
	<node id="-9355" lat="62.9527722226" lon="8.19993055831">
		<tag k="name" v="Storlia" />
		<tag k="natural" v="slope" />
		<tag k="place" v="locality" />
		<tag k="ssr:stedsnr" v="290789" />
	</node>
	<node id="-9354" lat="62.8502194416" lon="8.29573888227">
		<tag k="name" v="Krokslia" />
		<tag k="natural" v="slope" />
		<tag k="place" v="locality" />
		<tag k="ssr:stedsnr" v="290785" />
	</node>
	<node id="-9353" lat="62.9213222247" lon="8.16076666003">
		<tag k="name" v="Utsikta" />
		<tag k="natural" v="hill" />
		<tag k="place" v="locality" />
		<tag k="ssr:stedsnr" v="290783" />
	</node>
	<node id="-9352" lat="62.9906888923" lon="8.22260834049">
		<tag k="name" v="Øver Huslia" />
		<tag k="natural" v="slope" />
		<tag k="place" v="locality" />
		<tag k="ssr:stedsnr" v="290696" />
	</node>
	<node id="-9351" lat="62.971683331" lon="8.21954166976">
		<tag k="name" v="Brattenden" />
		<tag k="place" v="locality" />
		<tag k="ssr:stedsnr" v="290577" />
	</node>
	<node id="-9350" lat="62.8547361076" lon="8.17526943947">
		<tag k="name" v="Haugeskaret" />
		<tag k="natural" v="valley" />
		<tag k="place" v="locality" />
		<tag k="ssr:stedsnr" v="290133" />
	</node>
	<node id="-9349" lat="62.971605554" lon="8.29016389135">
		<tag k="name" v="Grønlia" />
		<tag k="natural" v="slope" />
		<tag k="place" v="locality" />
		<tag k="ssr:stedsnr" v="290117" />
	</node>
	<node id="-9346" lat="62.8659111071" lon="8.2416055618">
		<tag k="name" v="Kolmiltøftin" />
		<tag k="natural" v="hill" />
		<tag k="place" v="locality" />
		<tag k="ssr:stedsnr" v="290098" />
	</node>
	<node id="-9344" lat="62.865694442" lon="8.17778055283">
		<tag k="name" v="Stortjønnskaret" />
		<tag k="natural" v="valley" />
		<tag k="place" v="locality" />
		<tag k="ssr:stedsnr" v="290073" />
	</node>
	<node id="-9343" lat="63.0172083312" lon="7.97378887985">
		<tag k="name" v="Høgkrona" />
		<tag k="natural" v="hill" />
		<tag k="place" v="locality" />
		<tag k="ssr:stedsnr" v="289985" />
	</node>
	<node id="-9342" lat="62.8172999961" lon="8.29058333282">
		<tag k="name" v="Blomdalsskrøå" />
		<tag k="place" v="locality" />
		<tag k="ssr:stedsnr" v="289834" />
	</node>
	<node id="-9340" lat="62.9040361078" lon="8.26470277788">
		<tag k="name" v="Kjerkjebergdalen" />
		<tag k="natural" v="valley" />
		<tag k="place" v="locality" />
		<tag k="ssr:stedsnr" v="289680" />
	</node>
	<node id="-9339" lat="62.9660833331" lon="8.09720277636">
		<tag k="name" v="Kilen" />
		<tag k="natural" v="valley" />
		<tag k="place" v="locality" />
		<tag k="ssr:stedsnr" v="289827" />
	</node>
	<node id="-9338" lat="62.9402250026" lon="8.13868054877">
		<tag k="name" v="Lyrberget" />
		<tag k="natural" v="hill" />
		<tag k="place" v="locality" />
		<tag k="ssr:stedsnr" v="289491" />
	</node>
	<node id="-9336" lat="62.9410694474" lon="8.17189999489">
		<tag k="name" v="Hjellhaugen" />
		<tag k="natural" v="hill" />
		<tag k="place" v="locality" />
		<tag k="ssr:stedsnr" v="289480" />
	</node>
	<node id="-9335" lat="62.9478250041" lon="8.16054166708">
		<tag k="name" v="Litlhaugen" />
		<tag k="natural" v="hill" />
		<tag k="place" v="locality" />
		<tag k="ssr:stedsnr" v="289468" />
	</node>
	<node id="-9333" lat="63.0002333348" lon="7.91601111026">
		<tag k="name" v="Seterhaugen" />
		<tag k="natural" v="hill" />
		<tag k="place" v="locality" />
		<tag k="ssr:stedsnr" v="289437" />
	</node>
	<node id="-9332" lat="63.0767888933" lon="8.05766667113">
		<tag k="name" v="Stabbskaret" />
		<tag k="natural" v="valley" />
		<tag k="place" v="locality" />
		<tag k="ssr:stedsnr" v="289427" />
	</node>
	<node id="-9331" lat="63.0303027821" lon="7.94541389809">
		<tag k="name" v="Kvennabekken" />
		<tag k="natural" v="slope" />
		<tag k="place" v="locality" />
		<tag k="ssr:stedsnr" v="289426" />
	</node>
	<node id="-9330" lat="62.9110861071" lon="8.16737777709">
		<tag k="name" v="Saltkjelen" />
		<tag k="place" v="locality" />
		<tag k="ssr:stedsnr" v="289343" />
	</node>
	<node id="-9326" lat="62.9499749987" lon="8.29027777385">
		<tag k="name" v="Skjetnskarshaugen" />
		<tag k="natural" v="hill" />
		<tag k="place" v="locality" />
		<tag k="ssr:stedsnr" v="289233" />
	</node>
	<node id="-9324" lat="63.0960333313" lon="8.08621666937">
		<tag k="name" v="Dyrskaret" />
		<tag k="natural" v="valley" />
		<tag k="place" v="locality" />
		<tag k="ssr:stedsnr" v="289288" />
	</node>
	<node id="-9323" lat="63.1026944423" lon="8.08018610696">
		<tag k="fixme" v="consider natural=peak for the most distinct mountains in the district" />
		<tag k="name" v="Magnhildfjellet" />
		<tag k="natural" v="hill" />
		<tag k="place" v="locality" />
		<tag k="ssr:stedsnr" v="289286" />
	</node>
	<node id="-9321" lat="62.9984027769" lon="8.19884166008">
		<tag k="name" v="Hundskaret" />
		<tag k="natural" v="valley" />
		<tag k="place" v="locality" />
		<tag k="ssr:stedsnr" v="288044" />
	</node>
	<node id="-9309" lat="62.8276972258" lon="8.26598611582">
		<tag k="name" v="Balstaddalen" />
		<tag k="natural" v="valley" />
		<tag k="place" v="locality" />
		<tag k="ssr:stedsnr" v="168764" />
	</node>
	<node id="-9308" lat="62.9960416624" lon="8.20631665799">
		<tag k="name" v="Svarttjønna" />
		<tag k="natural" v="hill" />
		<tag k="place" v="locality" />
		<tag k="ssr:stedsnr" v="168754" />
	</node>
	<node id="-9304" lat="63.096194446" lon="8.05796111206">
		<tag k="name" v="Bollåthaugen" />
		<tag k="natural" v="hill" />
		<tag k="place" v="locality" />
		<tag k="ssr:stedsnr" v="168305" />
	</node>
	<node id="-9303" lat="62.8866777804" lon="8.21441111543">
		<tag k="name" v="Kamberget" />
		<tag k="natural" v="hill" />
		<tag k="place" v="locality" />
		<tag k="ssr:stedsnr" v="168014" />
	</node>
	<node id="-9302" lat="62.9577972209" lon="8.2639805471">
		<tag k="name" v="Ratlidalen" />
		<tag k="natural" v="valley" />
		<tag k="place" v="locality" />
		<tag k="ssr:stedsnr" v="168003" />
	</node>
	<node id="-9301" lat="62.9810388846" lon="8.28015276925">
		<tag k="name" v="Svaiin" />
		<tag k="place" v="locality" />
		<tag k="ssr:stedsnr" v="168105" />
	</node>
	<node id="-9296" lat="63.0363666622" lon="7.91753888537">
		<tag k="name" v="Gaupslåa" />
		<tag k="place" v="locality" />
		<tag k="ssr:stedsnr" v="167711" />
	</node>
	<node id="-9293" lat="63.0728000012" lon="8.05608887905">
		<tag k="name" v="Grimstadkammen" />
		<tag k="natural" v="ridge" />
		<tag k="place" v="locality" />
		<tag k="ssr:stedsnr" v="167453" />
	</node>
	<node id="-9289" lat="63.0793722193" lon="7.99976943503">
		<tag k="fixme" v="consider natural=peak for the most distinct mountains in the district" />
		<tag k="name" v="Skarnibba" />
		<tag k="natural" v="hill" />
		<tag k="place" v="locality" />
		<tag k="ssr:stedsnr" v="133307" />
	</node>
	<node id="-9288" lat="63.0826027775" lon="8.01106666038">
		<tag k="fixme" v="consider natural=peak for the most distinct mountains in the district" />
		<tag k="name" v="Årsundfjellet" />
		<tag k="natural" v="hill" />
		<tag k="place" v="locality" />
		<tag k="ssr:stedsnr" v="133306" />
	</node>
	<node id="-9285" lat="63.0255583328" lon="7.94507778272">
		<tag k="name" v="Skjelberget" />
		<tag k="natural" v="hill" />
		<tag k="place" v="locality" />
		<tag k="ssr:stedsnr" v="133204" />
	</node>
	<node id="-9277" lat="62.8232388917" lon="8.32297221622">
		<tag k="name" v="Hola" />
		<tag k="natural" v="valley" />
		<tag k="place" v="locality" />
		<tag k="ssr:stedsnr" v="108825" />
	</node>
	<node id="-9276" lat="62.9383249966" lon="8.24362500836">
		<tag k="name" v="Langdalen" />
		<tag k="natural" v="valley" />
		<tag k="place" v="locality" />
		<tag k="ssr:stedsnr" v="108816" />
	</node>
	<node id="-9273" lat="63.0461666643" lon="8.02785277277">
		<tag k="name" v="Haukarhaugen" />
		<tag k="natural" v="hill" />
		<tag k="place" v="locality" />
		<tag k="ssr:stedsnr" v="107245" />
	</node>
	<node id="-9270" lat="62.8093277808" lon="8.42552221258">
		<tag k="fixme" v="consider natural=peak for the most distinct mountains in the district" />
		<tag k="name" v="Indre Nonshaugen" />
		<tag k="natural" v="hill" />
		<tag k="place" v="locality" />
		<tag k="ssr:stedsnr" v="255399" />
	</node>
	<node id="-9267" lat="63.0448166687" lon="8.02078887919">
		<tag k="name" v="Gjengsethaugen" />
		<tag k="natural" v="hill" />
		<tag k="place" v="locality" />
		<tag k="ssr:stedsnr" v="255148" />
	</node>
	<node id="-9261" lat="62.9871916671" lon="8.13053332354">
		<tag k="fixme" v="consider natural=peak for the most distinct mountains in the district" />
		<tag k="name" v="Korslihaugen" />
		<tag k="natural" v="hill" />
		<tag k="place" v="locality" />
		<tag k="ssr:stedsnr" v="254839" />
	</node>
	<node id="-9259" lat="62.9778888861" lon="8.0970722287">
		<tag k="fixme" v="consider natural=peak for the most distinct mountains in the district" />
		<tag k="name" v="Høgfjellet" />
		<tag k="natural" v="hill" />
		<tag k="place" v="locality" />
		<tag k="ssr:stedsnr" v="254891" />
	</node>
	<node id="-9252" lat="62.9642388857" lon="8.31681110397">
		<tag k="name" v="Bjørnahaugen" />
		<tag k="natural" v="hill" />
		<tag k="place" v="locality" />
		<tag k="ssr:stedsnr" v="254635" />
	</node>
	<node id="-9250" lat="62.8312944484" lon="8.39606110196">
		<tag k="name" v="Turtlia" />
		<tag k="natural" v="slope" />
		<tag k="place" v="locality" />
		<tag k="ssr:stedsnr" v="73315" />
	</node>
	<node id="-9244" lat="63.0259749988" lon="8.00505832666">
		<tag k="name" v="Nonshaugen" />
		<tag k="natural" v="hill" />
		<tag k="place" v="locality" />
		<tag k="ssr:stedsnr" v="73209" />
	</node>
	<node id="-9242" lat="63.0168682469" lon="7.98572235319">
		<tag k="name" v="Feta" />
		<tag k="place" v="locality" />
		<tag k="ssr:stedsnr" v="73205" />
	</node>
	<node id="-9240" lat="62.9592611141" lon="8.18071110636">
		<tag k="name" v="Seterhaugen" />
		<tag k="natural" v="hill" />
		<tag k="place" v="locality" />
		<tag k="ssr:stedsnr" v="72912" />
	</node>
	<node id="-9239" lat="62.9427138896" lon="8.14820833709">
		<tag k="name" v="Glåmen" />
		<tag k="natural" v="hill" />
		<tag k="place" v="locality" />
		<tag k="ssr:stedsnr" v="72902" />
	</node>
	<node id="-9237" lat="62.9968027783" lon="8.15839723047">
		<tag k="fixme" v="consider natural=peak for the most distinct mountains in the district" />
		<tag k="name" v="Kamsvågfjellet" />
		<tag k="natural" v="hill" />
		<tag k="place" v="locality" />
		<tag k="ssr:stedsnr" v="72847" />
	</node>
	<node id="-9233" lat="63.0229555535" lon="8.01715833522">
		<tag k="fixme" v="consider natural=peak for the most distinct mountains in the district" />
		<tag k="name" v="Langsethøgda" />
		<tag k="natural" v="hill" />
		<tag k="place" v="locality" />
		<tag k="ssr:stedsnr" v="46411" />
	</node>
	<node id="-9232" lat="63.0014527751" lon="8.02893889675">
		<tag k="name" v="Kjerringhaugen" />
		<tag k="natural" v="hill" />
		<tag k="place" v="locality" />
		<tag k="ssr:stedsnr" v="46410" />
	</node>
	<node id="-9224" lat="62.8394944474" lon="8.33934166764">
		<tag k="name" v="Skreddarhaugen" />
		<tag k="natural" v="hill" />
		<tag k="place" v="locality" />
		<tag k="ssr:stedsnr" v="229950" />
	</node>
	<node id="-9223" lat="62.8453472194" lon="8.30843334273">
		<tag k="name" v="Trongen" />
		<tag k="place" v="locality" />
		<tag k="ssr:stedsnr" v="229973" />
	</node>
	<node id="-9221" lat="62.8644499986" lon="8.19759167304">
		<tag k="name" v="Bangan" />
		<tag k="natural" v="slope" />
		<tag k="place" v="locality" />
		<tag k="ssr:stedsnr" v="229899" />
	</node>
	<node id="-9220" lat="62.8508277746" lon="8.34364445332">
		<tag k="name" v="Hesthaugen" />
		<tag k="natural" v="hill" />
		<tag k="place" v="locality" />
		<tag k="ssr:stedsnr" v="229892" />
	</node>
	<node id="-9219" lat="62.8550555526" lon="8.32592222259">
		<tag k="name" v="Larsslåa" />
		<tag k="natural" v="slope" />
		<tag k="place" v="locality" />
		<tag k="ssr:stedsnr" v="229879" />
	</node>
	<node id="-9218" lat="62.845288893" lon="8.33621110464">
		<tag k="name" v="Hondalslia" />
		<tag k="natural" v="slope" />
		<tag k="place" v="locality" />
		<tag k="ssr:stedsnr" v="229943" />
	</node>
	<node id="-9217" lat="62.8500833341" lon="8.27824443945">
		<tag k="name" v="Trølandet" />
		<tag k="natural" v="slope" />
		<tag k="place" v="locality" />
		<tag k="ssr:stedsnr" v="229930" />
	</node>
	<node id="-9216" lat="62.941958329" lon="8.252686114">
		<tag k="name" v="Viddalen" />
		<tag k="natural" v="valley" />
		<tag k="place" v="locality" />
		<tag k="ssr:stedsnr" v="229847" />
	</node>
	<node id="-9215" lat="62.8103361141" lon="8.340430557">
		<tag k="name" v="Hyllberget" />
		<tag k="natural" v="hill" />
		<tag k="place" v="locality" />
		<tag k="ssr:stedsnr" v="229844" />
	</node>
	<node id="-9214" lat="62.9434638912" lon="8.21728333431">
		<tag k="name" v="Brannhauglia" />
		<tag k="natural" v="slope" />
		<tag k="place" v="locality" />
		<tag k="ssr:stedsnr" v="229832" />
	</node>
	<node id="-9213" lat="62.8487361154" lon="8.31608054611">
		<tag k="fixme" v="consider natural=peak for the most distinct mountains in the district" />
		<tag k="name" v="Seterlibrona" />
		<tag k="natural" v="hill" />
		<tag k="place" v="locality" />
		<tag k="ssr:stedsnr" v="229830" />
	</node>
	<node id="-9212" lat="62.9952499961" lon="8.21715555777">
		<tag k="name" v="Dompin" />
		<tag k="natural" v="valley" />
		<tag k="place" v="locality" />
		<tag k="ssr:stedsnr" v="229745" />
	</node>
	<node id="-9211" lat="62.8817749981" lon="8.27028333763">
		<tag k="name" v="Dårdiheia" />
		<tag k="natural" v="hill" />
		<tag k="place" v="locality" />
		<tag k="ssr:stedsnr" v="229687" />
	</node>
	<node id="-9209" lat="63.0382472183" lon="8.11758333467">
		<tag k="name" v="Ruskhaugen" />
		<tag k="natural" v="hill" />
		<tag k="place" v="locality" />
		<tag k="ssr:stedsnr" v="229280" />
	</node>
	<node id="-9208" lat="62.9487250029" lon="8.28640000211">
		<tag k="name" v="Litlskaret" />
		<tag k="natural" v="valley" />
		<tag k="place" v="locality" />
		<tag k="ssr:stedsnr" v="229258" />
	</node>
	<node id="-9204" lat="62.9578944435" lon="8.10319721776">
		<tag k="name" v="Gylhammaren" />
		<tag k="natural" v="hill" />
		<tag k="place" v="locality" />
		<tag k="ssr:stedsnr" v="228809" />
	</node>
	<node id="-9203" lat="62.9877333353" lon="8.12111110756">
		<tag k="name" v="Hundalen" />
		<tag k="natural" v="valley" />
		<tag k="place" v="locality" />
		<tag k="ssr:stedsnr" v="228721" />
	</node>
	<node id="-9200" lat="63.0784972256" lon="8.1047999921">
		<tag k="name" v="Straumskaret" />
		<tag k="natural" v="valley" />
		<tag k="place" v="locality" />
		<tag k="ssr:stedsnr" v="228485" />
	</node>
	<node id="-9197" lat="62.8911972184" lon="8.17348889309">
		<tag k="name" v="Sauberget" />
		<tag k="natural" v="hill" />
		<tag k="place" v="locality" />
		<tag k="ssr:stedsnr" v="228385" />
	</node>
	<node id="-9195" lat="63.1094750042" lon="8.07440834275">
		<tag k="name" v="Storhaugen" />
		<tag k="natural" v="hill" />
		<tag k="place" v="locality" />
		<tag k="ssr:stedsnr" v="228294" />
	</node>
	<node id="-9193" lat="63.041850003" lon="8.00381388414">
		<tag k="name" v="Gjengseteidet" />
		<tag k="place" v="locality" />
		<tag k="ssr:stedsnr" v="228289" />
	</node>
	<node id="-9191" lat="63.030522219" lon="7.93296388224">
		<tag k="name" v="Nastadlia" />
		<tag k="natural" v="valley" />
		<tag k="place" v="locality" />
		<tag k="ssr:stedsnr" v="227668" />
	</node>
	<node id="-9189" lat="63.0320305562" lon="7.98962222289">
		<tag k="name" v="Haffelhaugen" />
		<tag k="natural" v="hill" />
		<tag k="place" v="locality" />
		<tag k="ssr:stedsnr" v="227479" />
	</node>
	<node id="-9187" lat="63.0033111069" lon="8.20631111362">
		<tag k="name" v="Durmåldalen" />
		<tag k="natural" v="valley" />
		<tag k="place" v="locality" />
		<tag k="ssr:stedsnr" v="227061" />
	</node>
	<node id="-9185" lat="62.8107083348" lon="8.29437221638">
		<tag k="name" v="Middagslia" />
		<tag k="natural" v="slope" />
		<tag k="place" v="locality" />
		<tag k="ssr:stedsnr" v="226203" />
	</node>
	<node id="-11126" lat="62.9951365387" lon="8.17989811518">
		<tag k="alt_name" v="Raudskaret" />
		<tag k="name" v="Rauskaret" />
		<tag k="natural" v="valley" />
		<tag k="place" v="locality" />
		<tag k="ssr:stedsnr" v="988945" />
	</node>
	<node id="-11125" lat="63.0053336879" lon="8.18675775689">
		<tag k="fixme" v="consider natural=peak for the most distinct mountains in the district" />
		<tag k="name" v="Bjønnahaugen" />
		<tag k="natural" v="hill" />
		<tag k="ssr:stedsnr" v="988944" />
	</node>
	<node id="-11123" lat="63.0077774135" lon="8.15708960619">
		<tag k="name" v="Salen" />
		<tag k="place" v="locality" />
		<tag k="ssr:stedsnr" v="988941" />
	</node>
	<node id="-11098" lat="63.070455553" lon="8.00185277445">
		<tag k="name" v="Kammen" />
		<tag k="natural" v="ridge" />
		<tag k="place" v="locality" />
		<tag k="ssr:stedsnr" v="957984" />
	</node>
	<node id="-11095" lat="62.8434750035" lon="8.35788611966">
		<tag k="name" v="Grønlia" />
		<tag k="natural" v="slope" />
		<tag k="place" v="locality" />
		<tag k="ssr:stedsnr" v="957965" />
	</node>
	<node id="-11094" lat="62.832700002" lon="8.32971944501">
		<tag k="name" v="Tømmerberget" />
		<tag k="natural" v="hill" />
		<tag k="place" v="locality" />
		<tag k="ssr:stedsnr" v="957958" />
	</node>
	<node id="-11092" lat="62.8481194462" lon="8.3432361107">
		<tag k="name" v="Høndalslia" />
		<tag k="natural" v="slope" />
		<tag k="place" v="locality" />
		<tag k="ssr:stedsnr" v="957887" />
	</node>
	<node id="-11091" lat="62.8320972182" lon="8.19762499237">
		<tag k="name" v="Djupdalen" />
		<tag k="place" v="locality" />
		<tag k="ssr:stedsnr" v="957886" />
	</node>
	<node id="-11088" lat="62.8210583357" lon="8.3777611062">
		<tag k="name" v="Vollalia" />
		<tag k="natural" v="slope" />
		<tag k="place" v="locality" />
		<tag k="ssr:stedsnr" v="957860" />
	</node>
	<node id="-11083" lat="62.9935833335" lon="8.19919167052">
		<tag k="name" v="Høghaugen" />
		<tag k="natural" v="hill" />
		<tag k="place" v="locality" />
		<tag k="ssr:stedsnr" v="957756" />
	</node>
	<node id="-11081" lat="63.0075888906" lon="7.96348333613">
		<tag k="name" v="Sandviksletta" />
		<tag k="place" v="locality" />
		<tag k="ssr:stedsnr" v="957692" />
	</node>
	<node id="-11080" lat="62.8760361076" lon="8.36620277372">
		<tag k="name" v="Grønvollen" />
		<tag k="natural" v="slope" />
		<tag k="place" v="locality" />
		<tag k="ssr:stedsnr" v="957627" />
	</node>
	<node id="-11073" lat="63.0050194437" lon="8.04083611543">
		<tag k="name" v="Buen" />
		<tag k="natural" v="hill" />
		<tag k="place" v="locality" />
		<tag k="ssr:stedsnr" v="957376" />
	</node>
	<node id="-11070" lat="63.0346583304" lon="8.10356945156">
		<tag k="name" v="Petrohaugen" />
		<tag k="natural" v="hill" />
		<tag k="place" v="locality" />
		<tag k="ssr:stedsnr" v="957276" />
	</node>
	<node id="-11069" lat="63.0231777791" lon="8.13350555639">
		<tag k="name" v="Litlslåbradden" />
		<tag k="natural" v="ridge" />
		<tag k="place" v="locality" />
		<tag k="ssr:stedsnr" v="957274" />
	</node>
	<node id="-11067" lat="62.9759388933" lon="8.27695554566">
		<tag k="name" v="Storurddalen" />
		<tag k="natural" v="valley" />
		<tag k="place" v="locality" />
		<tag k="ssr:stedsnr" v="957112" />
	</node>
	<node id="-11066" lat="62.9730861146" lon="8.27801389822">
		<tag k="fixme" v="consider natural=peak for the most distinct mountains in the district" />
		<tag k="name" v="Stornebba" />
		<tag k="natural" v="hill" />
		<tag k="place" v="locality" />
		<tag k="ssr:stedsnr" v="957110" />
	</node>
	<node id="-11058" lat="62.8873305565" lon="8.15761111048">
		<tag k="name" v="Geilen" />
		<tag k="natural" v="hill" />
		<tag k="place" v="locality" />
		<tag k="ssr:stedsnr" v="957078" />
	</node>
	<node id="-11057" lat="62.8675305588" lon="8.17497778577">
		<tag k="name" v="Ormsetdalen" />
		<tag k="natural" v="valley" />
		<tag k="place" v="locality" />
		<tag k="ssr:stedsnr" v="957067" />
	</node>
	<node id="-11055" lat="62.9642250027" lon="8.32400834085">
		<tag k="name" v="Djupdalshammaren" />
		<tag k="natural" v="cliff" />
		<tag k="ssr:stedsnr" v="957009" />
	</node>
	<node id="-11054" lat="63.0689527811" lon="7.9782750055">
		<tag k="name" v="Einstihaugen" />
		<tag k="natural" v="hill" />
		<tag k="place" v="locality" />
		<tag k="ssr:stedsnr" v="956929" />
	</node>
	<node id="-11051" lat="63.0265111141" lon="7.92439445171">
		<tag k="name" v="Grønlia" />
		<tag k="natural" v="slope" />
		<tag k="place" v="locality" />
		<tag k="ssr:stedsnr" v="956715" />
	</node>
	<node id="-11044" lat="63.0752638903" lon="8.09048888538">
		<tag k="name" v="Rundhaugen" />
		<tag k="natural" v="hill" />
		<tag k="place" v="locality" />
		<tag k="ssr:stedsnr" v="956481" />
	</node>
	<node id="-11042" lat="63.0500333291" lon="8.10758888042">
		<tag k="name" v="Geilhaugen" />
		<tag k="natural" v="hill" />
		<tag k="place" v="locality" />
		<tag k="ssr:stedsnr" v="956290" />
	</node>
	<node id="-11040" lat="63.0592027783" lon="8.07659444533">
		<tag k="name" v="Møssmørdalen" />
		<tag k="natural" v="valley" />
		<tag k="place" v="locality" />
		<tag k="ssr:stedsnr" v="956286" />
	</node>
	<node id="-11039" lat="63.0621527821" lon="8.06074167189">
		<tag k="name" v="Brannhaugen" />
		<tag k="natural" v="hill" />
		<tag k="place" v="locality" />
		<tag k="ssr:stedsnr" v="956282" />
	</node>
	<node id="-11037" lat="63.0422694406" lon="7.92781943904">
		<tag k="name" v="Gilderberget" />
		<tag k="natural" v="hill" />
		<tag k="place" v="locality" />
		<tag k="ssr:stedsnr" v="956224" />
	</node>
	<node id="-11034" lat="63.0016916674" lon="7.92011111499">
		<tag k="name" v="Hestlidalen" />
		<tag k="natural" v="valley" />
		<tag k="place" v="locality" />
		<tag k="ssr:stedsnr" v="956408" />
	</node>
	<node id="-11028" lat="62.8357138861" lon="8.18503332407">
		<tag k="name" v="Rottåsberga" />
		<tag k="natural" v="slope" />
		<tag k="place" v="locality" />
		<tag k="ssr:stedsnr" v="862541" />
	</node>
	<node id="-11027" lat="62.869036113" lon="8.17958888227">
		<tag k="name" v="Ormsetdalen" />
		<tag k="natural" v="valley" />
		<tag k="place" v="locality" />
		<tag k="ssr:stedsnr" v="862492" />
	</node>
	<node id="-11026" lat="62.8171999998" lon="8.39303889715">
		<tag k="name" v="Kvilhaugen" />
		<tag k="natural" v="hill" />
		<tag k="place" v="locality" />
		<tag k="ssr:stedsnr" v="862421" />
	</node>
	<node id="-11024" lat="62.8515222252" lon="8.32986110904">
		<tag k="name" v="Høndalan" />
		<tag k="natural" v="valley" />
		<tag k="place" v="locality" />
		<tag k="ssr:stedsnr" v="862363" />
	</node>
	<node id="-11009" lat="62.9333944434" lon="8.1629166607">
		<tag k="name" v="Kløyvahaugen" />
		<tag k="natural" v="hill" />
		<tag k="place" v="locality" />
		<tag k="ssr:stedsnr" v="861959" />
	</node>
	<node id="-11005" lat="62.959361108" lon="8.30464165903">
		<tag k="name" v="Strupstadnebba" />
		<tag k="natural" v="hill" />
		<tag k="place" v="locality" />
		<tag k="ssr:stedsnr" v="861640" />
	</node>
	<node id="-10996" lat="62.9387916655" lon="8.19811111684">
		<tag k="name" v="Grønskarbotnen" />
		<tag k="natural" v="valley" />
		<tag k="place" v="locality" />
		<tag k="ssr:stedsnr" v="836841" />
	</node>
	<node id="-10995" lat="62.8558888864" lon="8.32008888386">
		<tag k="name" v="Mathaugen" />
		<tag k="natural" v="hill" />
		<tag k="place" v="locality" />
		<tag k="ssr:stedsnr" v="836836" />
	</node>
	<node id="-10994" lat="62.8267333298" lon="8.212294441">
		<tag k="name" v="Skårvhaugen" />
		<tag k="natural" v="valley" />
		<tag k="place" v="locality" />
		<tag k="ssr:stedsnr" v="836901" />
	</node>
	<node id="-10993" lat="62.8545527779" lon="8.34603332499">
		<tag k="name" v="Midtlia" />
		<tag k="natural" v="hill" />
		<tag k="place" v="locality" />
		<tag k="ssr:stedsnr" v="836900" />
	</node>
	<node id="-10991" lat="62.8294777755" lon="8.22509167075">
		<tag k="name" v="Høgreitan" />
		<tag k="place" v="locality" />
		<tag k="ssr:stedsnr" v="836896" />
	</node>
	<node id="-10990" lat="62.8521277742" lon="8.33696388043">
		<tag k="name" v="Skjenstøet" />
		<tag k="place" v="locality" />
		<tag k="ssr:stedsnr" v="836889" />
	</node>
	<node id="-10987" lat="62.9876083289" lon="8.21181665767">
		<tag k="name" v="Llitlseterdalen" />
		<tag k="natural" v="valley" />
		<tag k="place" v="locality" />
		<tag k="ssr:stedsnr" v="836749" />
	</node>
	<node id="-10984" lat="63.0124416668" lon="7.94615833862">
		<tag k="name" v="Mørkdalen" />
		<tag k="natural" v="valley" />
		<tag k="place" v="locality" />
		<tag k="ssr:stedsnr" v="836690" />
	</node>
	<node id="-10981" lat="62.968341666" lon="8.20154444998">
		<tag k="name" v="Vargdalen" />
		<tag k="natural" v="valley" />
		<tag k="place" v="locality" />
		<tag k="ssr:stedsnr" v="836639" />
	</node>
	<node id="-10980" lat="62.8760527765" lon="8.36044444819">
		<tag k="name" v="Jarfallia" />
		<tag k="natural" v="slope" />
		<tag k="place" v="locality" />
		<tag k="ssr:stedsnr" v="836630" />
	</node>
	<node id="-10979" lat="62.9781777815" lon="8.1402888916">
		<tag k="name" v="Kråkhaugen" />
		<tag k="natural" v="hill" />
		<tag k="place" v="locality" />
		<tag k="ssr:stedsnr" v="836588" />
	</node>
	<node id="-10978" lat="62.9885416702" lon="8.05350000759">
		<tag k="name" v="Storrundhaugen" />
		<tag k="natural" v="hill" />
		<tag k="place" v="locality" />
		<tag k="ssr:stedsnr" v="836451" />
	</node>
	<node id="-10977" lat="62.9935416639" lon="8.0363166703">
		<tag k="name" v="Stabben" />
		<tag k="natural" v="hill" />
		<tag k="place" v="locality" />
		<tag k="ssr:stedsnr" v="836432" />
	</node>
	<node id="-10969" lat="62.9749194445" lon="8.08425833162">
		<tag k="name" v="Vettaskaret" />
		<tag k="natural" v="valley" />
		<tag k="place" v="locality" />
		<tag k="ssr:stedsnr" v="835791" />
	</node>
	<node id="-10968" lat="63.0110694448" lon="8.04933054877">
		<tag k="name" v="Haltbakken" />
		<tag k="natural" v="slope" />
		<tag k="place" v="locality" />
		<tag k="ssr:stedsnr" v="836080" />
	</node>
	<node id="-10963" lat="62.8408305567" lon="8.18812777817">
		<tag k="name" v="Klaven" />
		<tag k="natural" v="cliff" />
		<tag k="ssr:stedsnr" v="835946" />
	</node>
	<node id="-10962" lat="63.0553416625" lon="8.05616943485">
		<tag k="name" v="Sjåhaugen" />
		<tag k="natural" v="hill" />
		<tag k="place" v="locality" />
		<tag k="ssr:stedsnr" v="835548" />
	</node>
	<node id="-10961" lat="63.0506166638" lon="8.0463999931">
		<tag k="name" v="Høybuhaugen" />
		<tag k="natural" v="hill" />
		<tag k="place" v="locality" />
		<tag k="ssr:stedsnr" v="835544" />
	</node>
	<node id="-10960" lat="63.0809361111" lon="8.07521110558">
		<tag k="name" v="Inner-Vidalen" />
		<tag k="natural" v="valley" />
		<tag k="place" v="locality" />
		<tag k="ssr:stedsnr" v="835496" />
	</node>
	<node id="-10955" lat="63.1074166675" lon="8.06955832488">
		<tag k="name" v="Pikhaugen" />
		<tag k="natural" v="hill" />
		<tag k="place" v="locality" />
		<tag k="ssr:stedsnr" v="835292" />
	</node>
	<node id="-10953" lat="63.0265972241" lon="7.93373610515">
		<tag k="name" v="Breidalen" />
		<tag k="natural" v="valley" />
		<tag k="place" v="locality" />
		<tag k="ssr:stedsnr" v="834688" />
	</node>
	<node id="-10952" lat="63.0232944445" lon="7.90135833526">
		<tag k="name" v="Bøyfotleftra" />
		<tag k="place" v="locality" />
		<tag k="ssr:stedsnr" v="834666" />
	</node>
	<node id="-10948" lat="62.8138944481" lon="8.29836111721">
		<tag k="name" v="Svarthammarendalen" />
		<tag k="natural" v="hill" />
		<tag k="place" v="locality" />
		<tag k="ssr:stedsnr" v="833182" />
	</node>
	<node id="-10947" lat="63.0103638863" lon="8.13014165995">
		<tag k="name" v="Skarven" />
		<tag k="place" v="locality" />
		<tag k="ssr:stedsnr" v="826154" />
	</node>
	<node id="-10943" lat="63.097244447" lon="8.09363055761">
		<tag k="name" v="Damskaret" />
		<tag k="natural" v="valley" />
		<tag k="place" v="locality" />
		<tag k="ssr:stedsnr" v="802382" />
	</node>
	<node id="-10938" lat="62.9046111101" lon="8.22748055955">
		<tag k="fixme" v="consider natural=peak for the most distinct mountains in the district" />
		<tag k="name" v="Svarthammaren" />
		<tag k="natural" v="hill" />
		<tag k="place" v="locality" />
		<tag k="ssr:stedsnr" v="801727" />
	</node>
	<node id="-10932" lat="62.8317333319" lon="8.22564166247">
		<tag k="name" v="Åsbakkan" />
		<tag k="natural" v="slope" />
		<tag k="place" v="locality" />
		<tag k="ssr:stedsnr" v="801336" />
	</node>
	<node id="-10928" lat="62.8881083338" lon="8.30774721521">
		<tag k="name" v="Seterhaugen" />
		<tag k="natural" v="hill" />
		<tag k="place" v="locality" />
		<tag k="ssr:stedsnr" v="801271" />
	</node>
	<node id="-10926" lat="62.8563611097" lon="8.33601944868">
		<tag k="name" v="Svalia" />
		<tag k="natural" v="slope" />
		<tag k="place" v="locality" />
		<tag k="ssr:stedsnr" v="801365" />
	</node>
	<node id="-10920" lat="62.8783638899" lon="8.28501111827">
		<tag k="name" v="Storknuken" />
		<tag k="natural" v="hill" />
		<tag k="place" v="locality" />
		<tag k="ssr:stedsnr" v="801254" />
	</node>
	<node id="-10913" lat="62.8338416655" lon="8.31686387917">
		<tag k="name" v="Stavelskaren" />
		<tag k="place" v="locality" />
		<tag k="ssr:stedsnr" v="775984" />
	</node>
	<node id="-10908" lat="62.929036107" lon="8.20841110779">
		<tag k="name" v="Tjønndalen" />
		<tag k="natural" v="valley" />
		<tag k="place" v="locality" />
		<tag k="ssr:stedsnr" v="775798" />
	</node>
	<node id="-10907" lat="62.8452666688" lon="8.32598332748">
		<tag k="name" v="Midtlia" />
		<tag k="natural" v="slope" />
		<tag k="place" v="locality" />
		<tag k="ssr:stedsnr" v="775954" />
	</node>
	<node id="-10906" lat="62.8271388928" lon="8.24513333531">
		<tag k="name" v="Åsdalen" />
		<tag k="natural" v="valley" />
		<tag k="place" v="locality" />
		<tag k="ssr:stedsnr" v="775937" />
	</node>
	<node id="-10905" lat="62.9694750026" lon="8.21066389745">
		<tag k="name" v="Møteskaret" />
		<tag k="natural" v="valley" />
		<tag k="place" v="locality" />
		<tag k="ssr:stedsnr" v="775633" />
	</node>
	<node id="-10903" lat="62.9639750037" lon="8.2270361084">
		<tag k="name" v="Tørrisberget" />
		<tag k="natural" v="hill" />
		<tag k="place" v="locality" />
		<tag k="ssr:stedsnr" v="775598" />
	</node>
	<node id="-10900" lat="62.9025916642" lon="8.22006111388">
		<tag k="name" v="Mariorflata" />
		<tag k="place" v="locality" />
		<tag k="ssr:stedsnr" v="775292" />
	</node>
	<node id="-10898" lat="62.971938885" lon="8.14377222185">
		<tag k="name" v="Damlia" />
		<tag k="natural" v="slope" />
		<tag k="place" v="locality" />
		<tag k="ssr:stedsnr" v="775592" />
	</node>
	<node id="-10893" lat="62.8727749986" lon="8.22469165745">
		<tag k="name" v="Stygglia" />
		<tag k="natural" v="slope" />
		<tag k="place" v="locality" />
		<tag k="ssr:stedsnr" v="775150" />
	</node>
	<node id="-10892" lat="63.1026222218" lon="8.04808333917">
		<tag k="name" v="Djupdalen" />
		<tag k="natural" v="valley" />
		<tag k="place" v="locality" />
		<tag k="ssr:stedsnr" v="775284" />
	</node>
	<node id="-10890" lat="62.8864888863" lon="8.24498333956">
		<tag k="name" v="Oppigardsheia" />
		<tag k="natural" v="hill" />
		<tag k="place" v="locality" />
		<tag k="ssr:stedsnr" v="775009" />
	</node>
	<node id="-10889" lat="62.9644500025" lon="8.32828610932">
		<tag k="name" v="Djupdalen" />
		<tag k="natural" v="valley" />
		<tag k="place" v="locality" />
		<tag k="ssr:stedsnr" v="775007" />
	</node>
	<node id="-10888" lat="62.9559944444" lon="8.26591944382">
		<tag k="name" v="Litllia" />
		<tag k="natural" v="hill" />
		<tag k="place" v="locality" />
		<tag k="ssr:stedsnr" v="775003" />
	</node>
	<node id="-10887" lat="62.9735999995" lon="8.30476665747">
		<tag k="name" v="Hamnadalen" />
		<tag k="natural" v="valley" />
		<tag k="place" v="locality" />
		<tag k="ssr:stedsnr" v="775100" />
	</node>
	<node id="-10886" lat="62.8518416629" lon="8.21650555822">
		<tag k="name" v="Lauvdalen" />
		<tag k="natural" v="valley" />
		<tag k="place" v="locality" />
		<tag k="ssr:stedsnr" v="775091" />
	</node>
	<node id="-10885" lat="62.9979694406" lon="7.89426111833">
		<tag k="name" v="Høgrambjøra" />
		<tag k="natural" v="ridge" />
		<tag k="place" v="locality" />
		<tag k="ssr:stedsnr" v="774619" />
	</node>
	<node id="-10883" lat="63.0085722235" lon="7.93385834248">
		<tag k="fixme" v="consider natural=peak for the most distinct mountains in the district" />
		<tag k="name" v="Ytter Vettafjellet" />
		<tag k="natural" v="hill" />
		<tag k="place" v="locality" />
		<tag k="ssr:stedsnr" v="774428" />
	</node>
	<node id="-10880" lat="62.9534666664" lon="8.17188611246">
		<tag k="name" v="Topplia" />
		<tag k="natural" v="slope" />
		<tag k="place" v="locality" />
		<tag k="ssr:stedsnr" v="774502" />
	</node>
	<node id="-10877" lat="62.8141361151" lon="8.25243333769">
		<tag k="name" v="Bergulhammaren" />
		<tag k="natural" v="hill" />
		<tag k="place" v="locality" />
		<tag k="ssr:stedsnr" v="774158" />
	</node>
	<node id="-10875" lat="63.0443666684" lon="8.02939722641">
		<tag k="name" v="Grønhola" />
		<tag k="natural" v="valley" />
		<tag k="place" v="locality" />
		<tag k="ssr:stedsnr" v="774275" />
	</node>
	<node id="-10873" lat="62.9974083355" lon="8.1580611057">
		<tag k="fixme" v="consider natural=peak for the most distinct mountains in the district" />
		<tag k="name" v="Varden" />
		<tag k="natural" v="hill" />
		<tag k="place" v="locality" />
		<tag k="ssr:stedsnr" v="773601" />
	</node>
	<node id="-10872" lat="62.8055027747" lon="8.30852222789">
		<tag k="name" v="Kjeholet" />
		<tag k="natural" v="valley" />
		<tag k="place" v="locality" />
		<tag k="ssr:stedsnr" v="773168" />
	</node>
	<node id="-10868" lat="62.8130888895" lon="8.2867361151">
		<tag k="name" v="Sneret" />
		<tag k="natural" v="cliff" />
		<tag k="ssr:stedsnr" v="772189" />
	</node>
	<node id="-10861" lat="62.9970138863" lon="8.13551110132">
		<tag k="fixme" v="consider natural=peak for the most distinct mountains in the district" />
		<tag k="name" v="Vassfjella" />
		<tag k="natural" v="hill" />
		<tag k="place" v="locality" />
		<tag k="ssr:stedsnr" v="740846" />
	</node>
	<node id="-10844" lat="62.8468694479" lon="8.28933055359">
		<tag k="name" v="Bergslihaugen" />
		<tag k="natural" v="hill" />
		<tag k="place" v="locality" />
		<tag k="ssr:stedsnr" v="653982" />
	</node>
	<node id="-10843" lat="62.8434861129" lon="8.2754222296">
		<tag k="name" v="Brandhaugen" />
		<tag k="natural" v="hill" />
		<tag k="place" v="locality" />
		<tag k="ssr:stedsnr" v="653979" />
	</node>
	<node id="-10840" lat="62.8376166652" lon="8.35424166659">
		<tag k="name" v="Systulia" />
		<tag k="natural" v="slope" />
		<tag k="place" v="locality" />
		<tag k="ssr:stedsnr" v="653968" />
	</node>
	<node id="-10839" lat="62.8365055592" lon="8.33695278175">
		<tag k="name" v="Nilshaugen" />
		<tag k="natural" v="hill" />
		<tag k="place" v="locality" />
		<tag k="ssr:stedsnr" v="653961" />
	</node>
	<node id="-10838" lat="62.8267666688" lon="8.23371944789">
		<tag k="name" v="Buktahamran" />
		<tag k="natural" v="hill" />
		<tag k="place" v="locality" />
		<tag k="ssr:stedsnr" v="653886" />
	</node>
	<node id="-10837" lat="62.9338833333" lon="8.22600277838">
		<tag k="name" v="Solliskaret" />
		<tag k="natural" v="valley" />
		<tag k="place" v="locality" />
		<tag k="ssr:stedsnr" v="653851" />
	</node>
	<node id="-10835" lat="62.8899138929" lon="8.27335555963">
		<tag k="name" v="Spindelheia" />
		<tag k="natural" v="hill" />
		<tag k="place" v="locality" />
		<tag k="ssr:stedsnr" v="653628" />
	</node>
	<node id="-10834" lat="62.8916777736" lon="8.27934444114">
		<tag k="name" v="Dårdiheia" />
		<tag k="natural" v="hill" />
		<tag k="place" v="locality" />
		<tag k="ssr:stedsnr" v="653616" />
	</node>
	<node id="-10832" lat="62.9964166696" lon="8.2412611106">
		<tag k="name" v="Djupdalen" />
		<tag k="natural" v="valley" />
		<tag k="place" v="locality" />
		<tag k="ssr:stedsnr" v="653745" />
	</node>
	<node id="-10831" lat="62.9879888856" lon="8.25613888212">
		<tag k="name" v="Galten" />
		<tag k="natural" v="hill" />
		<tag k="place" v="locality" />
		<tag k="ssr:stedsnr" v="653743" />
	</node>
	<node id="-10827" lat="63.0722166647" lon="8.11861111019">
		<tag k="name" v="Brekka" />
		<tag k="natural" v="slope" />
		<tag k="place" v="locality" />
		<tag k="ssr:stedsnr" v="653426" />
	</node>
	<node id="-10823" lat="62.9985166656" lon="8.03850556085">
		<tag k="name" v="Damskaret" />
		<tag k="natural" v="valley" />
		<tag k="place" v="locality" />
		<tag k="ssr:stedsnr" v="653378" />
	</node>
	<node id="-10821" lat="62.9029166688" lon="8.18836944257">
		<tag k="name" v="Laberget" />
		<tag k="natural" v="hill" />
		<tag k="place" v="locality" />
		<tag k="ssr:stedsnr" v="653340" />
	</node>
	<node id="-10820" lat="62.9881749976" lon="8.03596667615">
		<tag k="name" v="Skjerahammaren" />
		<tag k="natural" v="hill" />
		<tag k="place" v="locality" />
		<tag k="ssr:stedsnr" v="653489" />
	</node>
	<node id="-10818" lat="63.0450694428" lon="8.10589722724">
		<tag k="name" v="Indre Stølshaugen" />
		<tag k="natural" v="hill" />
		<tag k="place" v="locality" />
		<tag k="ssr:stedsnr" v="653250" />
	</node>
	<node id="-10817" lat="63.0441527764" lon="8.08693333436">
		<tag k="fixme" v="consider natural=peak for the most distinct mountains in the district" />
		<tag k="name" v="Knutkammen" />
		<tag k="natural" v="hill" />
		<tag k="place" v="locality" />
		<tag k="ssr:stedsnr" v="653248" />
	</node>
	<node id="-10814" lat="62.8756777774" lon="8.2303749998">
		<tag k="name" v="Dyrtjønnskaret" />
		<tag k="natural" v="valley" />
		<tag k="place" v="locality" />
		<tag k="ssr:stedsnr" v="653152" />
	</node>
	<node id="-10813" lat="63.0031333325" lon="8.05548333987">
		<tag k="name" v="Seterhaugen" />
		<tag k="natural" v="hill" />
		<tag k="place" v="locality" />
		<tag k="ssr:stedsnr" v="653096" />
	</node>
	<node id="-10812" lat="62.964902778" lon="8.27603332382">
		<tag k="name" v="Storbekkdalen" />
		<tag k="natural" v="valley" />
		<tag k="place" v="locality" />
		<tag k="ssr:stedsnr" v="653092" />
	</node>
	<node id="-10810" lat="62.9797222253" lon="8.28469167248">
		<tag k="name" v="Merraberget" />
		<tag k="natural" v="cliff" />
		<tag k="ssr:stedsnr" v="653081" />
	</node>
	<node id="-10809" lat="62.8733138869" lon="8.1791027749">
		<tag k="name" v="Høghaugen" />
		<tag k="natural" v="hill" />
		<tag k="place" v="locality" />
		<tag k="ssr:stedsnr" v="653074" />
	</node>
	<node id="-10808" lat="62.8838500001" lon="8.1690416677">
		<tag k="name" v="Ørnhammaren" />
		<tag k="natural" v="hill" />
		<tag k="place" v="locality" />
		<tag k="ssr:stedsnr" v="653071" />
	</node>
	<node id="-10807" lat="62.8838750015" lon="8.18504166053">
		<tag k="name" v="Alteret" />
		<tag k="place" v="locality" />
		<tag k="ssr:stedsnr" v="653067" />
	</node>
	<node id="-10806" lat="63.0157777749" lon="7.93982776917">
		<tag k="name" v="Andershaugen" />
		<tag k="natural" v="hill" />
		<tag k="place" v="locality" />
		<tag k="ssr:stedsnr" v="652564" />
	</node>
	<node id="-10805" lat="63.0221416632" lon="7.9407583329">
		<tag k="name" v="Sylhaugen" />
		<tag k="natural" v="hill" />
		<tag k="place" v="locality" />
		<tag k="ssr:stedsnr" v="652679" />
	</node>
	<node id="-10804" lat="63.0243194415" lon="7.90163610282">
		<tag k="name" v="Bøyfotlia" />
		<tag k="natural" v="slope" />
		<tag k="place" v="locality" />
		<tag k="ssr:stedsnr" v="652666" />
	</node>
	<node id="-10803" lat="63.0251777747" lon="7.90132500029">
		<tag k="name" v="Yt færkjedalen" />
		<tag k="natural" v="valley" />
		<tag k="place" v="locality" />
		<tag k="ssr:stedsnr" v="652664" />
	</node>
	<node id="-10802" lat="63.0370111106" lon="7.94461943708">
		<tag k="name" v="Trøhaugen" />
		<tag k="natural" v="hill" />
		<tag k="place" v="locality" />
		<tag k="ssr:stedsnr" v="652394" />
	</node>
	<node id="-10801" lat="62.9899416629" lon="8.23634166597">
		<tag k="name" v="Ormstadlia" />
		<tag k="natural" v="slope" />
		<tag k="place" v="locality" />
		<tag k="ssr:stedsnr" v="651736" />
	</node>
	<node id="-10796" lat="63.01795556" lon="8.03921388432">
		<tag k="fixme" v="consider natural=peak for the most distinct mountains in the district" />
		<tag k="name" v="Melsåsen" />
		<tag k="natural" v="hill" />
		<tag k="place" v="locality" />
		<tag k="ssr:stedsnr" v="627605" />
	</node>
	<node id="-10794" lat="62.8157222241" lon="8.25959444464">
		<tag k="fixme" v="consider natural=peak for the most distinct mountains in the district" />
		<tag k="name" v="Åsen" />
		<tag k="natural" v="hill" />
		<tag k="place" v="locality" />
		<tag k="ssr:stedsnr" v="619886" />
	</node>
	<node id="-10793" lat="62.8140027757" lon="8.41888055652">
		<tag k="fixme" v="consider natural=peak for the most distinct mountains in the district" />
		<tag k="name" v="Dauen" />
		<tag k="natural" v="hill" />
		<tag k="ssr:stedsnr" v="619483" />
	</node>
	<node id="-10792" lat="62.8196611147" lon="8.42175000092">
		<tag k="fixme" v="consider natural=peak for the most distinct mountains in the district" />
		<tag k="name" v="Kaldbaken" />
		<tag k="natural" v="hill" />
		<tag k="place" v="locality" />
		<tag k="ssr:stedsnr" v="619479" />
	</node>
	<node id="-10776" lat="62.9700388876" lon="8.15881111769">
		<tag k="name" v="Bukkhaugan" />
		<tag k="natural" v="hill" />
		<tag k="place" v="locality" />
		<tag k="ssr:stedsnr" v="618864" />
	</node>
	<node id="-10773" lat="62.9129361156" lon="8.24686666717">
		<tag k="name" v="Holtalia" />
		<tag k="natural" v="slope" />
		<tag k="place" v="locality" />
		<tag k="ssr:stedsnr" v="618714" />
	</node>
	<node id="-10755" lat="62.8434833358" lon="8.30814445129">
		<tag k="name" v="Hjelldalen" />
		<tag k="natural" v="valley" />
		<tag k="place" v="locality" />
		<tag k="ssr:stedsnr" v="593970" />
	</node>
	<node id="-10754" lat="62.8360111111" lon="8.36521388366">
		<tag k="name" v="Hallvardskaret" />
		<tag k="natural" v="valley" />
		<tag k="place" v="locality" />
		<tag k="ssr:stedsnr" v="593949" />
	</node>
	<node id="-10752" lat="62.8559833328" lon="8.36394166375">
		<tag k="name" v="Dompa" />
		<tag k="natural" v="valley" />
		<tag k="place" v="locality" />
		<tag k="ssr:stedsnr" v="593879" />
	</node>
	<node id="-10751" lat="62.8408527738" lon="8.23998332729">
		<tag k="name" v="Sleen" />
		<tag k="natural" v="slope" />
		<tag k="place" v="locality" />
		<tag k="ssr:stedsnr" v="593865" />
	</node>
	<node id="-10749" lat="62.8336249989" lon="8.22045555705">
		<tag k="name" v="Nyhjelldalen" />
		<tag k="natural" v="valley" />
		<tag k="place" v="locality" />
		<tag k="ssr:stedsnr" v="593854" />
	</node>
	<node id="-10748" lat="62.8447055554" lon="8.24443888234">
		<tag k="name" v="Bytesdalen" />
		<tag k="natural" v="valley" />
		<tag k="place" v="locality" />
		<tag k="ssr:stedsnr" v="593847" />
	</node>
	<node id="-10745" lat="62.8054611151" lon="8.3315583235">
		<tag k="name" v="Litlslættet" />
		<tag k="natural" v="slope" />
		<tag k="place" v="locality" />
		<tag k="ssr:stedsnr" v="593800" />
	</node>
	<node id="-10743" lat="62.8141388906" lon="8.33963888373">
		<tag k="name" v="Brenthammaren" />
		<tag k="natural" v="hill" />
		<tag k="place" v="locality" />
		<tag k="ssr:stedsnr" v="593783" />
	</node>
	<node id="-10741" lat="62.9254861133" lon="8.17354999844">
		<tag k="name" v="Høglia" />
		<tag k="natural" v="slope" />
		<tag k="place" v="locality" />
		<tag k="ssr:stedsnr" v="593771" />
	</node>
	<node id="-10740" lat="62.9323333294" lon="8.21219166901">
		<tag k="name" v="Baklia" />
		<tag k="natural" v="slope" />
		<tag k="place" v="locality" />
		<tag k="ssr:stedsnr" v="593751" />
	</node>
	<node id="-10737" lat="62.8803111111" lon="8.26030277744">
		<tag k="name" v="Sør Steorheiskaret" />
		<tag k="natural" v="valley" />
		<tag k="place" v="locality" />
		<tag k="ssr:stedsnr" v="593630" />
	</node>
	<node id="-10736" lat="62.8706500021" lon="8.29744167231">
		<tag k="name" v="Stortolla" />
		<tag k="place" v="locality" />
		<tag k="ssr:stedsnr" v="593594" />
	</node>
	<node id="-10734" lat="62.9703777742" lon="8.21533055784">
		<tag k="name" v="Seterbrattå" />
		<tag k="place" v="locality" />
		<tag k="ssr:stedsnr" v="593589" />
	</node>
	<node id="-10731" lat="62.9838388865" lon="8.13968889257">
		<tag k="name" v="Korslia" />
		<tag k="natural" v="slope" />
		<tag k="place" v="locality" />
		<tag k="ssr:stedsnr" v="593463" />
	</node>
	<node id="-10730" lat="63.0949916667" lon="8.0149694371">
		<tag k="name" v="Varghålå" />
		<tag k="natural" v="valley" />
		<tag k="place" v="locality" />
		<tag k="ssr:stedsnr" v="593301" />
	</node>
	<node id="-10727" lat="63.033083334" lon="8.0804888891">
		<tag k="name" v="Navarhaugen" />
		<tag k="natural" v="hill" />
		<tag k="place" v="locality" />
		<tag k="ssr:stedsnr" v="593263" />
	</node>
	<node id="-10726" lat="63.039569446" lon="8.09277223161">
		<tag k="name" v="Nedre Grasbrekkhaugen" />
		<tag k="natural" v="hill" />
		<tag k="place" v="locality" />
		<tag k="ssr:stedsnr" v="593257" />
	</node>
	<node id="-10725" lat="63.031058335" lon="8.11206110407">
		<tag k="name" v="Skaret" />
		<tag k="natural" v="valley" />
		<tag k="place" v="locality" />
		<tag k="ssr:stedsnr" v="593254" />
	</node>
	<node id="-10724" lat="62.8227694449" lon="8.22144166233">
		<tag k="name" v="Geilen" />
		<tag k="natural" v="slope" />
		<tag k="place" v="locality" />
		<tag k="ssr:stedsnr" v="593138" />
	</node>
	<node id="-10723" lat="63.0071055523" lon="8.05409445262">
		<tag k="name" v="Nybuhaugen" />
		<tag k="natural" v="hill" />
		<tag k="place" v="locality" />
		<tag k="ssr:stedsnr" v="593118" />
	</node>
	<node id="-10722" lat="62.8604027816" lon="8.25186666732">
		<tag k="name" v="Hjellen" />
		<tag k="place" v="locality" />
		<tag k="ssr:stedsnr" v="593114" />
	</node>
	<node id="-10720" lat="62.8635583294" lon="8.20934445027">
		<tag k="name" v="Håkkåssaga" />
		<tag k="place" v="locality" />
		<tag k="ssr:stedsnr" v="593101" />
	</node>
	<node id="-10718" lat="62.8807333332" lon="8.18999722022">
		<tag k="name" v="Blomskaret" />
		<tag k="natural" v="valley" />
		<tag k="place" v="locality" />
		<tag k="ssr:stedsnr" v="593093" />
	</node>
	<node id="-10717" lat="62.8870416654" lon="8.16140832404">
		<tag k="name" v="Grovin" />
		<tag k="place" v="locality" />
		<tag k="ssr:stedsnr" v="593084" />
	</node>
	<node id="-10716" lat="62.8782527764" lon="8.164405552">
		<tag k="name" v="Blomhålå" />
		<tag k="place" v="locality" />
		<tag k="ssr:stedsnr" v="593079" />
	</node>
	<node id="-10713" lat="62.8526944432" lon="8.27923610628">
		<tag k="name" v="Malmhaugen" />
		<tag k="natural" v="hill" />
		<tag k="place" v="locality" />
		<tag k="ssr:stedsnr" v="592959" />
	</node>
	<node id="-10708" lat="63.010583334" lon="7.95414166512">
		<tag k="name" v="Grønvåtådalen" />
		<tag k="natural" v="valley" />
		<tag k="place" v="locality" />
		<tag k="ssr:stedsnr" v="592753" />
	</node>
	<node id="-10707" lat="63.0144555552" lon="7.94409443809">
		<tag k="name" v="Høyhuhaugen" />
		<tag k="natural" v="hill" />
		<tag k="place" v="locality" />
		<tag k="ssr:stedsnr" v="592751" />
	</node>
	<node id="-10705" lat="62.9792666644" lon="8.1227666725">
		<tag k="name" v="Stuålia" />
		<tag k="natural" v="slope" />
		<tag k="place" v="locality" />
		<tag k="ssr:stedsnr" v="592712" />
	</node>
	<node id="-10702" lat="62.9097222211" lon="8.26151111416">
		<tag k="name" v="Bjørkalibrauta" />
		<tag k="place" v="locality" />
		<tag k="ssr:stedsnr" v="592651" />
	</node>
	<node id="-10701" lat="62.9787750027" lon="8.17039722019">
		<tag k="name" v="Drivskarhaugen" />
		<tag k="natural" v="hill" />
		<tag k="place" v="locality" />
		<tag k="ssr:stedsnr" v="592648" />
	</node>
	<node id="-10697" lat="63.0692361153" lon="8.09146110751">
		<tag k="name" v="Storseterdalen" />
		<tag k="natural" v="valley" />
		<tag k="place" v="locality" />
		<tag k="ssr:stedsnr" v="592482" />
	</node>
	<node id="-10696" lat="63.0685222266" lon="8.0838722222">
		<tag k="name" v="Storhaugen" />
		<tag k="natural" v="hill" />
		<tag k="place" v="locality" />
		<tag k="ssr:stedsnr" v="592481" />
	</node>
	<node id="-10695" lat="63.0741444443" lon="8.12737778032">
		<tag k="name" v="Assvikhammaren" />
		<tag k="natural" v="hill" />
		<tag k="place" v="locality" />
		<tag k="ssr:stedsnr" v="592466" />
	</node>
	<node id="-10692" lat="63.0048694457" lon="8.10713611782">
		<tag k="name" v="Sjølgjetlkammen" />
		<tag k="natural" v="ridge" />
		<tag k="place" v="locality" />
		<tag k="ssr:stedsnr" v="592448" />
	</node>
	<node id="-10690" lat="62.9436777803" lon="8.30672500029">
		<tag k="name" v="Kråkberget" />
		<tag k="natural" v="hill" />
		<tag k="place" v="locality" />
		<tag k="ssr:stedsnr" v="592292" />
	</node>
	<node id="-10689" lat="62.9496055563" lon="8.27593610204">
		<tag k="name" v="Rogndalen" />
		<tag k="natural" v="valley" />
		<tag k="place" v="locality" />
		<tag k="ssr:stedsnr" v="592278" />
	</node>
	<node id="-10688" lat="63.0537722206" lon="8.02358610517">
		<tag k="name" v="Grimstadhaugen" />
		<tag k="natural" v="hill" />
		<tag k="place" v="locality" />
		<tag k="ssr:stedsnr" v="592276" />
	</node>
	<node id="-10686" lat="62.9501694439" lon="8.31535555171">
		<tag k="name" v="Mortberget" />
		<tag k="natural" v="hill" />
		<tag k="place" v="locality" />
		<tag k="ssr:stedsnr" v="592263" />
	</node>
	<node id="-10682" lat="63.0327444476" lon="7.93454999177">
		<tag k="name" v="Djupdalen" />
		<tag k="natural" v="valley" />
		<tag k="place" v="locality" />
		<tag k="ssr:stedsnr" v="591654" />
	</node>
	<node id="-10680" lat="63.0286777757" lon="7.90926666178">
		<tag k="name" v="Godalen" />
		<tag k="natural" v="valley" />
		<tag k="place" v="locality" />
		<tag k="ssr:stedsnr" v="591641" />
	</node>
	<node id="-10679" lat="62.9940083347" lon="8.1484388928">
		<tag k="name" v="Skovlia" />
		<tag k="natural" v="slope" />
		<tag k="place" v="locality" />
		<tag k="ssr:stedsnr" v="591602" />
	</node>
	<node id="-10678" lat="63.0212249994" lon="7.99168610159">
		<tag k="name" v="Bjønnahiet" />
		<tag k="place" v="locality" />
		<tag k="ssr:stedsnr" v="591427" />
	</node>
	<node id="-10675" lat="62.9769527792" lon="8.24623055983">
		<tag k="name" v="Osahaugen" />
		<tag k="natural" v="hill" />
		<tag k="place" v="locality" />
		<tag k="ssr:stedsnr" v="590729" />
	</node>
	<node id="-10671" lat="63.0320472252" lon="8.0705333351">
		<tag k="fixme" v="consider natural=peak for the most distinct mountains in the district" />
		<tag k="name" v="Høglia" />
		<tag k="natural" v="hill" />
		<tag k="place" v="locality" />
		<tag k="ssr:stedsnr" v="558486" />
	</node>
	<node id="-10670" lat="63.0552138891" lon="7.98924443812">
		<tag k="fixme" v="consider natural=peak for the most distinct mountains in the district" />
		<tag k="name" v="Litllia" />
		<tag k="natural" v="hill" />
		<tag k="place" v="locality" />
		<tag k="ssr:stedsnr" v="558478" />
	</node>
	<node id="-10659" lat="63.0369944461" lon="8.00861667001">
		<tag k="fixme" v="consider natural=peak for the most distinct mountains in the district" />
		<tag k="name" v="Høgåsen" />
		<tag k="natural" v="hill" />
		<tag k="place" v="locality" />
		<tag k="ssr:stedsnr" v="558250" />
	</node>
	<node id="-10656" lat="63.0289972203" lon="8.06659722521">
		<tag k="name" v="Bjørnahaugen" />
		<tag k="natural" v="hill" />
		<tag k="place" v="locality" />
		<tag k="ssr:stedsnr" v="558235" />
	</node>
	<node id="-10648" lat="62.9905472256" lon="8.16455832413">
		<tag k="name" v="Grønlia" />
		<tag k="natural" v="hill" />
		<tag k="place" v="locality" />
		<tag k="ssr:stedsnr" v="557843" />
	</node>
	<node id="-10639" lat="62.8829972217" lon="8.31341944661">
		<tag k="name" v="Dråppsberghamran" />
		<tag k="place" v="locality" />
		<tag k="ssr:stedsnr" v="533696" />
	</node>
	<node id="-10638" lat="62.8262916644" lon="8.25143611683">
		<tag k="name" v="Djupdalen" />
		<tag k="natural" v="valley" />
		<tag k="place" v="locality" />
		<tag k="ssr:stedsnr" v="532924" />
	</node>
	<node id="-10636" lat="62.8487527765" lon="8.36447777702">
		<tag k="name" v="Botn" />
		<tag k="natural" v="valley" />
		<tag k="place" v="locality" />
		<tag k="ssr:stedsnr" v="532893" />
	</node>
	<node id="-10633" lat="63.0094444405" lon="7.94535555924">
		<tag k="name" v="Storhaugen" />
		<tag k="natural" v="hill" />
		<tag k="place" v="locality" />
		<tag k="ssr:stedsnr" v="532703" />
	</node>
	<node id="-10630" lat="62.963144442" lon="8.15287221881">
		<tag k="name" v="Geildalen" />
		<tag k="natural" v="valley" />
		<tag k="place" v="locality" />
		<tag k="ssr:stedsnr" v="532679" />
	</node>
	<node id="-10629" lat="62.975102782" lon="8.15650277155">
		<tag k="name" v="Dalbuslettet" />
		<tag k="place" v="locality" />
		<tag k="ssr:stedsnr" v="532673" />
	</node>
	<node id="-10627" lat="62.9639333376" lon="8.16881110744">
		<tag k="name" v="Gammelseterhaugen" />
		<tag k="natural" v="hill" />
		<tag k="place" v="locality" />
		<tag k="ssr:stedsnr" v="532662" />
	</node>
	<node id="-10626" lat="62.9310222263" lon="8.21160833436">
		<tag k="name" v="Baklikammen" />
		<tag k="natural" v="ridge" />
		<tag k="place" v="locality" />
		<tag k="ssr:stedsnr" v="532800" />
	</node>
	<node id="-10625" lat="62.8177916689" lon="8.26512499715">
		<tag k="name" v="Bjørnahammaren" />
		<tag k="natural" v="hill" />
		<tag k="place" v="locality" />
		<tag k="ssr:stedsnr" v="532771" />
	</node>
	<node id="-10624" lat="62.8077416648" lon="8.28838332748">
		<tag k="name" v="Svala" />
		<tag k="natural" v="slope" />
		<tag k="place" v="locality" />
		<tag k="ssr:stedsnr" v="532766" />
	</node>
	<node id="-10622" lat="62.9389055531" lon="8.13833888874">
		<tag k="name" v="Laberget" />
		<tag k="natural" v="hill" />
		<tag k="place" v="locality" />
		<tag k="ssr:stedsnr" v="532443" />
	</node>
	<node id="-10621" lat="62.9762694481" lon="8.22156666375">
		<tag k="name" v="Brattå" />
		<tag k="place" v="locality" />
		<tag k="ssr:stedsnr" v="532644" />
	</node>
	<node id="-10620" lat="62.8797055591" lon="8.38217776909">
		<tag k="name" v="Velte" />
		<tag k="place" v="locality" />
		<tag k="ssr:stedsnr" v="532637" />
	</node>
	<node id="-10619" lat="62.9655638923" lon="8.2357611087">
		<tag k="name" v="Geilhaugen" />
		<tag k="natural" v="hill" />
		<tag k="place" v="locality" />
		<tag k="ssr:stedsnr" v="532628" />
	</node>
	<node id="-10618" lat="62.8983027787" lon="8.28368611794">
		<tag k="name" v="Litlbjørkaliheia" />
		<tag k="natural" v="hill" />
		<tag k="place" v="locality" />
		<tag k="ssr:stedsnr" v="532589" />
	</node>
	<node id="-10617" lat="62.8990527779" lon="8.28002500982">
		<tag k="name" v="Høybudalen" />
		<tag k="natural" v="valley" />
		<tag k="place" v="locality" />
		<tag k="ssr:stedsnr" v="532588" />
	</node>
	<node id="-10615" lat="63.0901666681" lon="8.02928611947">
		<tag k="name" v="Gohaugen" />
		<tag k="natural" v="hill" />
		<tag k="place" v="locality" />
		<tag k="ssr:stedsnr" v="532312" />
	</node>
	<node id="-10614" lat="62.9002694437" lon="8.22113611707">
		<tag k="name" v="Setertrøa" />
		<tag k="natural" v="hill" />
		<tag k="place" v="locality" />
		<tag k="ssr:stedsnr" v="532303" />
	</node>
	<node id="-10612" lat="63.09288889" lon="8.04461389747">
		<tag k="name" v="Geitaberga" />
		<tag k="natural" v="hill" />
		<tag k="place" v="locality" />
		<tag k="ssr:stedsnr" v="532288" />
	</node>
	<node id="-10610" lat="63.0316500024" lon="8.08483056446">
		<tag k="name" v="Ravnskyttarhaugen" />
		<tag k="natural" v="hill" />
		<tag k="place" v="locality" />
		<tag k="ssr:stedsnr" v="532271" />
	</node>
	<node id="-10607" lat="62.9503861155" lon="8.16968333382">
		<tag k="name" v="Djupskaret" />
		<tag k="natural" v="valley" />
		<tag k="place" v="locality" />
		<tag k="ssr:stedsnr" v="532435" />
	</node>
	<node id="-10606" lat="62.9549027784" lon="8.18368056155">
		<tag k="name" v="Åbithaugen" />
		<tag k="natural" v="hill" />
		<tag k="place" v="locality" />
		<tag k="ssr:stedsnr" v="532433" />
	</node>
	<node id="-10604" lat="63.0041916633" lon="8.01271944521">
		<tag k="name" v="Furuhaugen" />
		<tag k="natural" v="hill" />
		<tag k="place" v="locality" />
		<tag k="ssr:stedsnr" v="532374" />
	</node>
	<node id="-10603" lat="62.82529722" lon="8.20529999981">
		<tag k="name" v="Preikstolen" />
		<tag k="natural" v="hill" />
		<tag k="place" v="locality" />
		<tag k="ssr:stedsnr" v="532119" />
	</node>
	<node id="-10602" lat="62.9700027796" lon="8.28050833038">
		<tag k="fixme" v="consider natural=peak for the most distinct mountains in the district" />
		<tag k="name" v="Litlnebba" />
		<tag k="natural" v="hill" />
		<tag k="place" v="locality" />
		<tag k="ssr:stedsnr" v="532098" />
	</node>
	<node id="-10601" lat="62.8728444435" lon="8.1707333258">
		<tag k="name" v="Sandbakkan" />
		<tag k="natural" v="slope" />
		<tag k="place" v="locality" />
		<tag k="ssr:stedsnr" v="532078" />
	</node>
	<node id="-10600" lat="62.8830999992" lon="8.18239165914">
		<tag k="name" v="Prekestolen" />
		<tag k="natural" v="hill" />
		<tag k="place" v="locality" />
		<tag k="ssr:stedsnr" v="532071" />
	</node>
	<node id="-10599" lat="62.8793083332" lon="8.17267221403">
		<tag k="name" v="Bekkjadalen" />
		<tag k="natural" v="valley" />
		<tag k="place" v="locality" />
		<tag k="ssr:stedsnr" v="532069" />
	</node>
	<node id="-10593" lat="63.0305944449" lon="7.9859666728">
		<tag k="name" v="Saltkjelhaugen" />
		<tag k="natural" v="hill" />
		<tag k="place" v="locality" />
		<tag k="ssr:stedsnr" v="531493" />
	</node>
	<node id="-10591" lat="63.0811083377" lon="8.10493333722">
		<tag k="name" v="Svarthammarlia" />
		<tag k="natural" v="slope" />
		<tag k="place" v="locality" />
		<tag k="ssr:stedsnr" v="531470" />
	</node>
	<node id="-10588" lat="63.0693583349" lon="8.06530832672">
		<tag k="name" v="Hunnan" />
		<tag k="natural" v="hill" />
		<tag k="place" v="locality" />
		<tag k="ssr:stedsnr" v="531443" />
	</node>
	<node id="-10585" lat="63.0193111068" lon="7.93102500882">
		<tag k="name" v="Midthaugen" />
		<tag k="natural" v="hill" />
		<tag k="place" v="locality" />
		<tag k="ssr:stedsnr" v="531714" />
	</node>
	<node id="-10581" lat="63.0486000003" lon="7.982911103">
		<tag k="name" v="Avlessmana" />
		<tag k="place" v="locality" />
		<tag k="ssr:stedsnr" v="531303" />
	</node>
	<node id="-10579" lat="63.0433611147" lon="7.9824888833">
		<tag k="name" v="Gjellskarberget" />
		<tag k="natural" v="hill" />
		<tag k="place" v="locality" />
		<tag k="ssr:stedsnr" v="531295" />
	</node>
	<node id="-10577" lat="63.0505222188" lon="7.98930833125">
		<tag k="name" v="Bjønnahola" />
		<tag k="natural" v="valley" />
		<tag k="place" v="locality" />
		<tag k="ssr:stedsnr" v="531291" />
	</node>
	<node id="-10570" lat="62.9731638908" lon="8.08558056265">
		<tag k="name" v="Gammelvetten" />
		<tag k="natural" v="hill" />
		<tag k="place" v="locality" />
		<tag k="ssr:stedsnr" v="437871" />
	</node>
	<node id="-10569" lat="62.8190138921" lon="8.31219444629">
		<tag k="name" v="Skarsknuken" />
		<tag k="natural" v="hill" />
		<tag k="place" v="locality" />
		<tag k="ssr:stedsnr" v="437446" />
	</node>
	<node id="-10568" lat="62.8000027795" lon="8.37738887943">
		<tag k="name" v="Kammen" />
		<tag k="natural" v="hill" />
		<tag k="place" v="locality" />
		<tag k="ssr:stedsnr" v="437442" />
	</node>
	<node id="-10567" lat="62.8082055526" lon="8.38743333089">
		<tag k="name" v="Heimerbotnen" />
		<tag k="natural" v="valley" />
		<tag k="place" v="locality" />
		<tag k="ssr:stedsnr" v="437432" />
	</node>
	<node id="-10564" lat="62.8519361086" lon="8.37326388437">
		<tag k="fixme" v="consider natural=peak for the most distinct mountains in the district" />
		<tag k="name" v="Sørlinebba" />
		<tag k="natural" v="hill" />
		<tag k="place" v="locality" />
		<tag k="ssr:stedsnr" v="437374" />
	</node>
	<node id="-10561" lat="63.0033358265" lon="8.15382508664">
		<tag k="name" v="Snødalen" />
		<tag k="natural" v="valley" />
		<tag k="place" v="locality" />
		<tag k="ssr:stedsnr" v="437215" />
	</node>
	<node id="-10560" lat="63.0091926519" lon="8.16726214971">
		<tag k="name" v="Fløystaddalen" />
		<tag k="natural" v="valley" />
		<tag k="place" v="locality" />
		<tag k="ssr:stedsnr" v="437213" />
	</node>
	<node id="-10558" lat="63.0588194453" lon="8.09361665738">
		<tag k="name" v="Hundan" />
		<tag k="natural" v="hill" />
		<tag k="place" v="locality" />
		<tag k="ssr:stedsnr" v="437184" />
	</node>
	<node id="-10552" lat="62.8280611102" lon="8.23673056304">
		<tag k="fixme" v="consider natural=peak for the most distinct mountains in the district" />
		<tag k="name" v="Åsen" />
		<tag k="natural" v="hill" />
		<tag k="place" v="locality" />
		<tag k="ssr:stedsnr" v="437343" />
	</node>
	<node id="-10549" lat="62.9084888875" lon="8.22127500006">
		<tag k="name" v="Koksviklia" />
		<tag k="natural" v="slope" />
		<tag k="place" v="locality" />
		<tag k="ssr:stedsnr" v="436734" />
	</node>
	<node id="-10544" lat="62.8363166705" lon="8.31403055334">
		<tag k="name" v="Hjellen" />
		<tag k="place" v="locality" />
		<tag k="ssr:stedsnr" v="411983" />
	</node>
	<node id="-10537" lat="62.8364499993" lon="8.1994611104">
		<tag k="fixme" v="consider natural=peak for the most distinct mountains in the district" />
		<tag k="name" v="Grønliåsen" />
		<tag k="natural" v="hill" />
		<tag k="place" v="locality" />
		<tag k="ssr:stedsnr" v="411899" />
	</node>
	<node id="-10536" lat="62.8633250036" lon="8.38294999299">
		<tag k="name" v="Halsen" />
		<tag k="natural" v="valley" />
		<tag k="place" v="locality" />
		<tag k="ssr:stedsnr" v="411895" />
	</node>
	<node id="-10535" lat="62.8506972179" lon="8.32842778073">
		<tag k="name" v="Svarthammaren" />
		<tag k="natural" v="hill" />
		<tag k="place" v="locality" />
		<tag k="ssr:stedsnr" v="411894" />
	</node>
	<node id="-10534" lat="62.8605388853" lon="8.32595000723">
		<tag k="name" v="Olderpellan" />
		<tag k="natural" v="slope" />
		<tag k="place" v="locality" />
		<tag k="ssr:stedsnr" v="411884" />
	</node>
	<node id="-10533" lat="62.8330666709" lon="8.25207221709">
		<tag k="name" v="Teigen" />
		<tag k="place" v="locality" />
		<tag k="ssr:stedsnr" v="411879" />
	</node>
	<node id="-10532" lat="62.81438611" lon="8.35675832525">
		<tag k="name" v="Halsaryggen" />
		<tag k="natural" v="ridge" />
		<tag k="place" v="locality" />
		<tag k="ssr:stedsnr" v="411858" />
	</node>
	<node id="-10528" lat="62.9520805527" lon="8.25482500845">
		<tag k="name" v="Asplihaugen" />
		<tag k="natural" v="hill" />
		<tag k="place" v="locality" />
		<tag k="ssr:stedsnr" v="411816" />
	</node>
	<node id="-10526" lat="62.8189027762" lon="8.27473055761">
		<tag k="name" v="Djupdalen" />
		<tag k="natural" v="valley" />
		<tag k="place" v="locality" />
		<tag k="ssr:stedsnr" v="411772" />
	</node>
	<node id="-10523" lat="62.9968472267" lon="8.19648610786">
		<tag k="name" v="Blindsaulia" />
		<tag k="natural" v="slope" />
		<tag k="place" v="locality" />
		<tag k="ssr:stedsnr" v="411748" />
	</node>
	<node id="-10519" lat="62.9895416631" lon="8.04753055511">
		<tag k="name" v="Heimseterdalen" />
		<tag k="natural" v="valley" />
		<tag k="place" v="locality" />
		<tag k="ssr:stedsnr" v="411459" />
	</node>
	<node id="-10518" lat="62.9820138892" lon="8.04469999907">
		<tag k="name" v="Berget" />
		<tag k="natural" v="hill" />
		<tag k="place" v="locality" />
		<tag k="ssr:stedsnr" v="411455" />
	</node>
	<node id="-10517" lat="62.9724416633" lon="8.21620554622">
		<tag k="name" v="Høgaflata" />
		<tag k="place" v="locality" />
		<tag k="ssr:stedsnr" v="411634" />
	</node>
	<node id="-10515" lat="63.097722223" lon="8.0365777848">
		<tag k="name" v="Brannan" />
		<tag k="natural" v="ridge" />
		<tag k="place" v="locality" />
		<tag k="ssr:stedsnr" v="411318" />
	</node>
	<node id="-10512" lat="62.9369888913" lon="8.28250277799">
		<tag k="name" v="Henrikhaugen" />
		<tag k="natural" v="hill" />
		<tag k="place" v="locality" />
		<tag k="ssr:stedsnr" v="411288" />
	</node>
	<node id="-10509" lat="62.8508305587" lon="8.18509444707">
		<tag k="name" v="Liaflata" />
		<tag k="natural" v="slope" />
		<tag k="place" v="locality" />
		<tag k="ssr:stedsnr" v="411171" />
	</node>
	<node id="-10508" lat="63.0129999963" lon="8.04342500836">
		<tag k="name" v="Høglia" />
		<tag k="natural" v="slope" />
		<tag k="place" v="locality" />
		<tag k="ssr:stedsnr" v="411125" />
	</node>
	<node id="-10507" lat="62.9730888874" lon="8.27012500671">
		<tag k="name" v="Olderlunnan" />
		<tag k="place" v="locality" />
		<tag k="ssr:stedsnr" v="411124" />
	</node>
	<node id="-10505" lat="62.8497666677" lon="8.22189721963">
		<tag k="name" v="Helvete" />
		<tag k="natural" v="valley" />
		<tag k="place" v="locality" />
		<tag k="ssr:stedsnr" v="411100" />
	</node>
	<node id="-10504" lat="62.8700194456" lon="8.17800555425">
		<tag k="name" v="Fjøslia" />
		<tag k="natural" v="slope" />
		<tag k="place" v="locality" />
		<tag k="ssr:stedsnr" v="411095" />
	</node>
	<node id="-10503" lat="62.8888138901" lon="8.1541805559">
		<tag k="name" v="Geilberget" />
		<tag k="natural" v="hill" />
		<tag k="place" v="locality" />
		<tag k="ssr:stedsnr" v="411082" />
	</node>
	<node id="-10502" lat="62.889883334" lon="8.21732222433">
		<tag k="name" v="Svarthammaren" />
		<tag k="natural" v="hill" />
		<tag k="place" v="locality" />
		<tag k="ssr:stedsnr" v="411007" />
	</node>
	<node id="-10499" lat="62.9900555524" lon="8.072361102">
		<tag k="name" v="Treekremslia" />
		<tag k="natural" v="slope" />
		<tag k="place" v="locality" />
		<tag k="ssr:stedsnr" v="410734" />
	</node>
	<node id="-10498" lat="62.9904222235" lon="8.12380833324">
		<tag k="name" v="Småhaugan" />
		<tag k="natural" v="valley" />
		<tag k="place" v="locality" />
		<tag k="ssr:stedsnr" v="410687" />
	</node>
	<node id="-10496" lat="62.9811250026" lon="8.08259722607">
		<tag k="name" v="Vulvikdalen" />
		<tag k="natural" v="valley" />
		<tag k="place" v="locality" />
		<tag k="ssr:stedsnr" v="410674" />
	</node>
	<node id="-10494" lat="63.0644944406" lon="8.12088054989">
		<tag k="name" v="Sandviklia" />
		<tag k="natural" v="slope" />
		<tag k="place" v="locality" />
		<tag k="ssr:stedsnr" v="410458" />
	</node>
	<node id="-10492" lat="63.0116000016" lon="8.09455556502">
		<tag k="name" v="Båtråa" />
		<tag k="natural" v="slope" />
		<tag k="place" v="locality" />
		<tag k="ssr:stedsnr" v="410442" />
	</node>
	<node id="-10491" lat="63.0388805567" lon="7.94285278064">
		<tag k="name" v="Kringlåthaugen" />
		<tag k="natural" v="hill" />
		<tag k="place" v="locality" />
		<tag k="ssr:stedsnr" v="410441" />
	</node>
	<node id="-10489" lat="63.0011499974" lon="8.07883332666">
		<tag k="name" v="Ådalen" />
		<tag k="natural" v="valley" />
		<tag k="place" v="locality" />
		<tag k="ssr:stedsnr" v="410429" />
	</node>
	<node id="-10488" lat="63.0402388925" lon="8.05490000624">
		<tag k="name" v="Ekornslåa" />
		<tag k="natural" v="hill" />
		<tag k="place" v="locality" />
		<tag k="ssr:stedsnr" v="410411" />
	</node>
	<node id="-10485" lat="63.0857472187" lon="8.05590277797">
		<tag k="name" v="Snøfondalen" />
		<tag k="natural" v="valley" />
		<tag k="place" v="locality" />
		<tag k="ssr:stedsnr" v="410323" />
	</node>
	<node id="-10484" lat="63.0476944481" lon="8.0022166665">
		<tag k="name" v="Brannhaugen" />
		<tag k="natural" v="hill" />
		<tag k="place" v="locality" />
		<tag k="ssr:stedsnr" v="410293" />
	</node>
	<node id="-10473" lat="63.0398250038" lon="7.92637500195">
		<tag k="name" v="Vikaskaret" />
		<tag k="natural" v="valley" />
		<tag k="place" v="locality" />
		<tag k="ssr:stedsnr" v="409658" />
	</node>
	<node id="-10471" lat="62.998483336" lon="8.21993888831">
		<tag k="name" v="Øver Svånådalen" />
		<tag k="natural" v="valley" />
		<tag k="place" v="locality" />
		<tag k="ssr:stedsnr" v="409045" />
	</node>
	<node id="-10464" lat="62.9688777741" lon="8.11571110542">
		<tag k="fixme" v="consider natural=peak for the most distinct mountains in the district" />
		<tag k="name" v="Hesten" />
		<tag k="natural" v="hill" />
		<tag k="place" v="locality" />
		<tag k="ssr:stedsnr" v="376888" />
	</node>
	<node id="-10463" lat="62.9667777753" lon="8.11311387969">
		<tag k="name" v="Nypa" />
		<tag k="natural" v="hill" />
		<tag k="place" v="locality" />
		<tag k="ssr:stedsnr" v="376887" />
	</node>
	<node id="-10460" lat="62.8492333372" lon="8.19559999509">
		<tag k="fixme" v="consider natural=peak for the most distinct mountains in the district" />
		<tag k="name" v="Gjørsvikfjellet" />
		<tag k="natural" v="hill" />
		<tag k="place" v="locality" />
		<tag k="ssr:stedsnr" v="376535" />
	</node>
	<node id="-10458" lat="62.8687583374" lon="8.1935333341">
		<tag k="name" v="Honnhammarlia" />
		<tag k="natural" v="hill" />
		<tag k="place" v="locality" />
		<tag k="ssr:stedsnr" v="376513" />
	</node>
	<node id="-10457" lat="62.8633888884" lon="8.22530000731">
		<tag k="name" v="Hokkahaug" />
		<tag k="natural" v="hill" />
		<tag k="place" v="locality" />
		<tag k="ssr:stedsnr" v="376252" />
	</node>
	<node id="-10453" lat="63.0134611152" lon="8.01376111116">
		<tag k="fixme" v="consider natural=peak for the most distinct mountains in the district" />
		<tag k="name" v="Ramslia" />
		<tag k="natural" v="hill" />
		<tag k="place" v="locality" />
		<tag k="ssr:stedsnr" v="376213" />
	</node>
	<node id="-10448" lat="62.8313555593" lon="8.23888332621">
		<tag k="name" v="Rottåsdalen" />
		<tag k="natural" v="valley" />
		<tag k="place" v="locality" />
		<tag k="ssr:stedsnr" v="376349" />
	</node>
	<node id="-10445" lat="63.0049277785" lon="8.20855833033">
		<tag k="name" v="Biren" />
		<tag k="natural" v="slope" />
		<tag k="place" v="locality" />
		<tag k="ssr:stedsnr" v="376197" />
	</node>
	<node id="-10439" lat="63.0739833347" lon="8.04761945073">
		<tag k="fixme" v="consider natural=peak for the most distinct mountains in the district" />
		<tag k="name" v="Kammen" />
		<tag k="natural" v="hill" />
		<tag k="place" v="locality" />
		<tag k="ssr:stedsnr" v="376179" />
	</node>
	<node id="-10435" lat="63.0574194413" lon="8.05366110363">
		<tag k="name" v="Skjelberget" />
		<tag k="natural" v="hill" />
		<tag k="place" v="locality" />
		<tag k="ssr:stedsnr" v="376148" />
	</node>
	<node id="-10427" lat="62.8301249973" lon="8.26391665937">
		<tag k="name" v="Skarselva" />
		<tag k="natural" v="valley" />
		<tag k="place" v="locality" />
		<tag k="ssr:stedsnr" v="350956" />
	</node>
	<node id="-10426" lat="62.8340916635" lon="8.36140833284">
		<tag k="name" v="Karlstudalen" />
		<tag k="natural" v="valley" />
		<tag k="place" v="locality" />
		<tag k="ssr:stedsnr" v="350955" />
	</node>
	<node id="-10421" lat="62.9777361129" lon="8.22534443648">
		<tag k="name" v="Lienden" />
		<tag k="natural" v="slope" />
		<tag k="place" v="locality" />
		<tag k="ssr:stedsnr" v="350721" />
	</node>
	<node id="-10418" lat="62.969336109" lon="8.18889999837">
		<tag k="name" v="Botnan" />
		<tag k="natural" v="valley" />
		<tag k="place" v="locality" />
		<tag k="ssr:stedsnr" v="350659" />
	</node>
	<node id="-10417" lat="62.9706583375" lon="8.21130832908">
		<tag k="name" v="Baklia" />
		<tag k="natural" v="slope" />
		<tag k="place" v="locality" />
		<tag k="ssr:stedsnr" v="350629" />
	</node>
	<node id="-10416" lat="62.9729194473" lon="8.2119249951">
		<tag k="name" v="Trongstadlia" />
		<tag k="natural" v="slope" />
		<tag k="place" v="locality" />
		<tag k="ssr:stedsnr" v="350626" />
	</node>
	<node id="-10412" lat="62.8925333305" lon="8.310036117">
		<tag k="name" v="Storhaugen" />
		<tag k="natural" v="hill" />
		<tag k="place" v="locality" />
		<tag k="ssr:stedsnr" v="350560" />
	</node>
	<node id="-10410" lat="62.8979277786" lon="8.20000555257">
		<tag k="name" v="Brekka" />
		<tag k="natural" v="slope" />
		<tag k="place" v="locality" />
		<tag k="ssr:stedsnr" v="350280" />
	</node>
	<node id="-10409" lat="63.0319388874" lon="8.10845554826">
		<tag k="fixme" v="consider natural=peak for the most distinct mountains in the district" />
		<tag k="name" v="Vatnkammen" />
		<tag k="natural" v="hill" />
		<tag k="place" v="locality" />
		<tag k="ssr:stedsnr" v="350248" />
	</node>
	<node id="-10406" lat="62.9503361141" lon="8.29425555835">
		<tag k="name" v="Skjetnskaret" />
		<tag k="natural" v="valley" />
		<tag k="place" v="locality" />
		<tag k="ssr:stedsnr" v="350230" />
	</node>
	<node id="-10405" lat="62.9523666674" lon="8.29793333713">
		<tag k="name" v="Almskaret" />
		<tag k="natural" v="valley" />
		<tag k="place" v="locality" />
		<tag k="ssr:stedsnr" v="350228" />
	</node>
	<node id="-10404" lat="62.9517333333" lon="8.31806944209">
		<tag k="name" v="Skiveberget" />
		<tag k="natural" v="hill" />
		<tag k="place" v="locality" />
		<tag k="ssr:stedsnr" v="350227" />
	</node>
	<node id="-10402" lat="62.8252861144" lon="8.20950000097">
		<tag k="name" v="Raudleftra" />
		<tag k="natural" v="hill" />
		<tag k="place" v="locality" />
		<tag k="ssr:stedsnr" v="350124" />
	</node>
	<node id="-10401" lat="62.8244194401" lon="8.2202138979">
		<tag k="name" v="Bakken" />
		<tag k="natural" v="slope" />
		<tag k="place" v="locality" />
		<tag k="ssr:stedsnr" v="350123" />
	</node>
	<node id="-10400" lat="62.9677444457" lon="8.27162778472">
		<tag k="name" v="Bronin" />
		<tag k="place" v="locality" />
		<tag k="ssr:stedsnr" v="350112" />
	</node>
	<node id="-10399" lat="62.9706444421" lon="8.31536111668">
		<tag k="name" v="Jutulfaret" />
		<tag k="place" v="locality" />
		<tag k="ssr:stedsnr" v="350102" />
	</node>
	<node id="-10397" lat="63.0130444468" lon="8.04678055547">
		<tag k="name" v="Kjærhjelldalen" />
		<tag k="natural" v="valley" />
		<tag k="place" v="locality" />
		<tag k="ssr:stedsnr" v="350098" />
	</node>
	<node id="-10396" lat="62.9788611132" lon="8.2743611192">
		<tag k="name" v="Brenslå" />
		<tag k="natural" v="hill" />
		<tag k="place" v="locality" />
		<tag k="ssr:stedsnr" v="350096" />
	</node>
	<node id="-10395" lat="62.8619472212" lon="8.23420278509">
		<tag k="name" v="Skardalen" />
		<tag k="natural" v="valley" />
		<tag k="place" v="locality" />
		<tag k="ssr:stedsnr" v="350095" />
	</node>
	<node id="-10394" lat="62.9575083318" lon="8.299947219">
		<tag k="name" v="Bytskaret" />
		<tag k="natural" v="valley" />
		<tag k="place" v="locality" />
		<tag k="ssr:stedsnr" v="350091" />
	</node>
	<node id="-10393" lat="62.9606500044" lon="8.31619722334">
		<tag k="name" v="Gammelseterdalen" />
		<tag k="natural" v="valley" />
		<tag k="place" v="locality" />
		<tag k="ssr:stedsnr" v="350088" />
	</node>
	<node id="-10392" lat="62.8625666643" lon="8.22581111775">
		<tag k="name" v="Brennahaugen" />
		<tag k="natural" v="hill" />
		<tag k="place" v="locality" />
		<tag k="ssr:stedsnr" v="350081" />
	</node>
	<node id="-10391" lat="62.8655611108" lon="8.23357221253">
		<tag k="name" v="Litldalen" />
		<tag k="natural" v="valley" />
		<tag k="place" v="locality" />
		<tag k="ssr:stedsnr" v="350079" />
	</node>
	<node id="-10389" lat="62.9136555591" lon="8.27623333506">
		<tag k="name" v="Skrøåhamran" />
		<tag k="natural" v="hill" />
		<tag k="place" v="locality" />
		<tag k="ssr:stedsnr" v="350066" />
	</node>
	<node id="-10385" lat="62.9942916628" lon="8.08965833362">
		<tag k="name" v="Ådalen" />
		<tag k="natural" v="valley" />
		<tag k="place" v="locality" />
		<tag k="ssr:stedsnr" v="349753" />
	</node>
	<node id="-10383" lat="63.0826555577" lon="8.07305555014">
		<tag k="name" v="Ytter-Vidalen" />
		<tag k="natural" v="valley" />
		<tag k="place" v="locality" />
		<tag k="ssr:stedsnr" v="349515" />
	</node>
	<node id="-10381" lat="63.0150472259" lon="8.08747223065">
		<tag k="name" v="Dyrfallhaugen" />
		<tag k="natural" v="hill" />
		<tag k="place" v="locality" />
		<tag k="ssr:stedsnr" v="349471" />
	</node>
	<node id="-10380" lat="63.0180277792" lon="8.11457221796">
		<tag k="name" v="Bradden" />
		<tag k="place" v="locality" />
		<tag k="ssr:stedsnr" v="349467" />
	</node>
	<node id="-10379" lat="63.0049972215" lon="7.92398611756">
		<tag k="name" v="Styggdalen" />
		<tag k="natural" v="valley" />
		<tag k="place" v="locality" />
		<tag k="ssr:stedsnr" v="349445" />
	</node>
	<node id="-10378" lat="63.0218777752" lon="8.04513889039">
		<tag k="name" v="Soplia" />
		<tag k="natural" v="slope" />
		<tag k="place" v="locality" />
		<tag k="ssr:stedsnr" v="349437" />
	</node>
	<node id="-10375" lat="63.0555666654" lon="7.97195833483">
		<tag k="name" v="Storhammaren" />
		<tag k="natural" v="hill" />
		<tag k="place" v="locality" />
		<tag k="ssr:stedsnr" v="349339" />
	</node>
	<node id="-10374" lat="62.9424444454" lon="8.19318333771">
		<tag k="name" v="Trongdalshaugen" />
		<tag k="natural" v="hill" />
		<tag k="place" v="locality" />
		<tag k="ssr:stedsnr" v="349338" />
	</node>
	<node id="-10373" lat="63.1103000042" lon="8.08666111924">
		<tag k="name" v="Vorphaugen" />
		<tag k="natural" v="hill" />
		<tag k="place" v="locality" />
		<tag k="ssr:stedsnr" v="349335" />
	</node>
	<node id="-10372" lat="62.82293889" lon="8.23615278256">
		<tag k="name" v="Jutulhammaren" />
		<tag k="natural" v="slope" />
		<tag k="place" v="locality" />
		<tag k="ssr:stedsnr" v="349139" />
	</node>
	<node id="-10370" lat="63.0320805541" lon="7.9204527704">
		<tag k="name" v="Øver kammen" />
		<tag k="natural" v="hill" />
		<tag k="place" v="locality" />
		<tag k="ssr:stedsnr" v="348651" />
	</node>
	<node id="-10368" lat="63.0352388864" lon="7.9205999952">
		<tag k="name" v="Ner kammen" />
		<tag k="natural" v="hill" />
		<tag k="place" v="locality" />
		<tag k="ssr:stedsnr" v="348649" />
	</node>
	<node id="-10367" lat="63.0219527768" lon="7.89490277522">
		<tag k="name" v="Blåbærhaugen" />
		<tag k="natural" v="hill" />
		<tag k="place" v="locality" />
		<tag k="ssr:stedsnr" v="348640" />
	</node>
	<node id="-10364" lat="62.9977134235" lon="8.1946910344">
		<tag k="name" v="Storskaret" />
		<tag k="natural" v="valley" />
		<tag k="place" v="locality" />
		<tag k="ssr:stedsnr" v="348600" />
	</node>
	<node id="-10362" lat="62.8126333339" lon="8.30481666176">
		<tag k="name" v="Grønlia" />
		<tag k="natural" v="slope" />
		<tag k="place" v="locality" />
		<tag k="ssr:stedsnr" v="347185" />
	</node>
	<node id="-10361" lat="62.8154749958" lon="8.30159167316">
		<tag k="name" v="Fagerhaugan" />
		<tag k="natural" v="hill" />
		<tag k="place" v="locality" />
		<tag k="ssr:stedsnr" v="347181" />
	</node>
	<node id="-10358" lat="62.8131583322" lon="8.31137221368">
		<tag k="name" v="Storhaugen" />
		<tag k="natural" v="hill" />
		<tag k="place" v="locality" />
		<tag k="ssr:stedsnr" v="316478" />
	</node>
	<node id="-10354" lat="63.0448555542" lon="8.09956944163">
		<tag k="name" v="Stølshaugen" />
		<tag k="natural" v="hill" />
		<tag k="place" v="locality" />
		<tag k="ssr:stedsnr" v="316149" />
	</node>
	<node id="-10353" lat="62.9641527811" lon="8.16980833762">
		<tag k="name" v="Nørdre Beskålikammen" />
		<tag k="natural" v="hill" />
		<tag k="place" v="locality" />
		<tag k="ssr:stedsnr" v="315891" />
	</node>
	<node id="-10351" lat="62.9880666657" lon="8.08440278062">
		<tag k="fixme" v="consider natural=peak for the most distinct mountains in the district" />
		<tag k="name" v="Skorva" />
		<tag k="natural" v="hill" />
		<tag k="place" v="locality" />
		<tag k="ssr:stedsnr" v="315851" />
	</node>
	<node id="-10347" lat="62.9755666701" lon="8.28573332986">
		<tag k="name" v="Svinnesnebba" />
		<tag k="natural" v="hill" />
		<tag k="place" v="locality" />
		<tag k="ssr:stedsnr" v="315648" />
	</node>
	<node id="-10344" lat="62.8561666629" lon="8.34242777444">
		<tag k="name" v="Middagshaugen" />
		<tag k="natural" v="hill" />
		<tag k="place" v="locality" />
		<tag k="ssr:stedsnr" v="315347" />
	</node>
	<node id="-10336" lat="63.0194138889" lon="8.10323610624">
		<tag k="name" v="Kvernhaugen" />
		<tag k="natural" v="hill" />
		<tag k="place" v="locality" />
		<tag k="ssr:stedsnr" v="315189" />
	</node>
	<node id="-10331" lat="63.0350722207" lon="7.98673889095">
		<tag k="name" v="Storhaugen" />
		<tag k="natural" v="hill" />
		<tag k="place" v="locality" />
		<tag k="ssr:stedsnr" v="195272" />
	</node>
	<node id="-10329" lat="62.9059333312" lon="8.20853334235">
		<tag k="name" v="Svortdalen" />
		<tag k="natural" v="valley" />
		<tag k="place" v="locality" />
		<tag k="ssr:stedsnr" v="194985" />
	</node>
	<node id="-10317" lat="62.822536109" lon="8.42029999485">
		<tag k="name" v="Ytre Nonshaugen" />
		<tag k="natural" v="hill" />
		<tag k="place" v="locality" />
		<tag k="ssr:stedsnr" v="194286" />
	</node>
	<node id="-10313" lat="62.9350972224" lon="8.19172778665">
		<tag k="fixme" v="consider natural=peak for the most distinct mountains in the district" />
		<tag k="name" v="Kammen" />
		<tag k="natural" v="hill" />
		<tag k="place" v="locality" />
		<tag k="ssr:stedsnr" v="193954" />
	</node>
	<node id="-10309" lat="62.8867166642" lon="8.26831665745">
		<tag k="name" v="Myrbarheia" />
		<tag k="natural" v="hill" />
		<tag k="place" v="locality" />
		<tag k="ssr:stedsnr" v="169674" />
	</node>
	<node id="-10307" lat="62.877574997" lon="8.28244444432">
		<tag k="name" v="Legdin" />
		<tag k="place" v="locality" />
		<tag k="ssr:stedsnr" v="169644" />
	</node>
	<node id="-10305" lat="62.8291527822" lon="8.27953888449">
		<tag k="name" v="Vasslia" />
		<tag k="natural" v="valley" />
		<tag k="place" v="locality" />
		<tag k="ssr:stedsnr" v="168971" />
	</node>
	<node id="-10303" lat="62.8366472259" lon="8.32829722723">
		<tag k="name" v="Marsteinhaugen" />
		<tag k="natural" v="hill" />
		<tag k="place" v="locality" />
		<tag k="ssr:stedsnr" v="168954" />
	</node>
	<node id="-10302" lat="62.8438027783" lon="8.34381110436">
		<tag k="name" v="Høglia" />
		<tag k="natural" v="slope" />
		<tag k="place" v="locality" />
		<tag k="ssr:stedsnr" v="168952" />
	</node>
	<node id="-10300" lat="62.8301249982" lon="8.19781388051">
		<tag k="name" v="Skrøhammaren" />
		<tag k="natural" v="cliff" />
		<tag k="ssr:stedsnr" v="168896" />
	</node>
	<node id="-10296" lat="62.838444445" lon="8.18137222522">
		<tag k="alt_name" v="Samuelsberget" />
		<tag k="name" v="Samuelberget" />
		<tag k="natural" v="hill" />
		<tag k="place" v="locality" />
		<tag k="ssr:stedsnr" v="168927" />
	</node>
	<node id="-10295" lat="62.8449722214" lon="8.17851944346">
		<tag k="name" v="Ørnhammaren" />
		<tag k="natural" v="hill" />
		<tag k="place" v="locality" />
		<tag k="ssr:stedsnr" v="168925" />
	</node>
	<node id="-10294" lat="62.8480500043" lon="8.21201111967">
		<tag k="name" v="Middagsskaret" />
		<tag k="natural" v="valley" />
		<tag k="place" v="locality" />
		<tag k="ssr:stedsnr" v="168916" />
	</node>
	<node id="-10293" lat="62.8561472261" lon="8.22270555272">
		<tag k="name" v="Håkkåshaugen" />
		<tag k="natural" v="hill" />
		<tag k="place" v="locality" />
		<tag k="ssr:stedsnr" v="168915" />
	</node>
	<node id="-10292" lat="62.7981777773" lon="8.33819722104">
		<tag k="name" v="Skarvelettflata" />
		<tag k="place" v="locality" />
		<tag k="ssr:stedsnr" v="168845" />
	</node>
	<node id="-10290" lat="62.8129722251" lon="8.33383611408">
		<tag k="name" v="Trøhammaren" />
		<tag k="natural" v="hill" />
		<tag k="place" v="locality" />
		<tag k="ssr:stedsnr" v="168842" />
	</node>
	<node id="-10288" lat="62.9282027795" lon="8.21652776909">
		<tag k="name" v="Molstihammaren" />
		<tag k="natural" v="hill" />
		<tag k="place" v="locality" />
		<tag k="ssr:stedsnr" v="168797" />
	</node>
	<node id="-10286" lat="62.9633666676" lon="8.2531944501">
		<tag k="name" v="Kleivan" />
		<tag k="natural" v="valley" />
		<tag k="place" v="locality" />
		<tag k="ssr:stedsnr" v="168642" />
	</node>
	<node id="-10285" lat="62.9700555536" lon="8.23131944966">
		<tag k="name" v="Mossaholan" />
		<tag k="natural" v="hill" />
		<tag k="place" v="locality" />
		<tag k="ssr:stedsnr" v="168639" />
	</node>
	<node id="-10284" lat="62.9756583368" lon="8.23704722345">
		<tag k="name" v="Kopparhaugen" />
		<tag k="natural" v="hill" />
		<tag k="place" v="locality" />
		<tag k="ssr:stedsnr" v="168636" />
	</node>
	<node id="-10281" lat="63.008172224" lon="8.01464165931">
		<tag k="name" v="Kløbakkhaugen" />
		<tag k="natural" v="hill" />
		<tag k="place" v="locality" />
		<tag k="ssr:stedsnr" v="168397" />
	</node>
	<node id="-10279" lat="63.0004499987" lon="8.04424445323">
		<tag k="name" v="Hagan" />
		<tag k="natural" v="hill" />
		<tag k="place" v="locality" />
		<tag k="ssr:stedsnr" v="168386" />
	</node>
	<node id="-10276" lat="62.896283331" lon="8.17830832451">
		<tag k="name" v="Blåhammaren" />
		<tag k="natural" v="hill" />
		<tag k="place" v="locality" />
		<tag k="ssr:stedsnr" v="168342" />
	</node>
	<node id="-10275" lat="63.0959333332" lon="8.03194722194">
		<tag k="name" v="Fosskleiva" />
		<tag k="natural" v="valley" />
		<tag k="place" v="locality" />
		<tag k="ssr:stedsnr" v="168333" />
	</node>
	<node id="-10274" lat="63.0377361076" lon="8.09510277447">
		<tag k="name" v="Øvre Grasbrekkhaugen" />
		<tag k="natural" v="hill" />
		<tag k="place" v="locality" />
		<tag k="ssr:stedsnr" v="168283" />
	</node>
	<node id="-10272" lat="63.0333472195" lon="8.13699167016">
		<tag k="name" v="Storhaugen" />
		<tag k="natural" v="hill" />
		<tag k="place" v="locality" />
		<tag k="ssr:stedsnr" v="168278" />
	</node>
	<node id="-10271" lat="62.9739055518" lon="8.21115000327">
		<tag k="name" v="Høghaugen" />
		<tag k="natural" v="hill" />
		<tag k="place" v="locality" />
		<tag k="ssr:stedsnr" v="168266" />
	</node>
	<node id="-10270" lat="62.8207027754" lon="8.24379167615">
		<tag k="name" v="Sjøletrøa" />
		<tag k="place" v="locality" />
		<tag k="ssr:stedsnr" v="168134" />
	</node>
	<node id="-10264" lat="62.8760861106" lon="8.16051111307">
		<tag k="name" v="Oterhammaren" />
		<tag k="natural" v="hill" />
		<tag k="place" v="locality" />
		<tag k="ssr:stedsnr" v="168091" />
	</node>
	<node id="-10258" lat="63.0306972249" lon="8.01040278398">
		<tag k="name" v="Urdalen" />
		<tag k="natural" v="valley" />
		<tag k="place" v="locality" />
		<tag k="ssr:stedsnr" v="167401" />
	</node>
	<node id="-10257" lat="63.0787444406" lon="8.11255554861">
		<tag k="name" v="Almhaugen" />
		<tag k="natural" v="hill" />
		<tag k="place" v="locality" />
		<tag k="ssr:stedsnr" v="167473" />
	</node>
	<node id="-10256" lat="63.0763666664" lon="8.11214165954">
		<tag k="name" v="Vasshaugen" />
		<tag k="natural" v="hill" />
		<tag k="place" v="locality" />
		<tag k="ssr:stedsnr" v="167472" />
	</node>
	<node id="-10255" lat="63.0825388887" lon="8.11249999576">
		<tag k="name" v="Svarthammarskaret" />
		<tag k="natural" v="valley" />
		<tag k="place" v="locality" />
		<tag k="ssr:stedsnr" v="167470" />
	</node>
	<node id="-10254" lat="63.0690333324" lon="8.01320832469">
		<tag k="name" v="Høghaugen" />
		<tag k="natural" v="hill" />
		<tag k="place" v="locality" />
		<tag k="ssr:stedsnr" v="167463" />
	</node>
	<node id="-10251" lat="63.0608444457" lon="8.00089445068">
		<tag k="name" v="Holtaskaret" />
		<tag k="natural" v="valley" />
		<tag k="place" v="locality" />
		<tag k="ssr:stedsnr" v="167294" />
	</node>
	<node id="-10250" lat="63.0576083299" lon="7.98248889485">
		<tag k="name" v="Skjønstøa" />
		<tag k="natural" v="slope" />
		<tag k="place" v="locality" />
		<tag k="ssr:stedsnr" v="167293" />
	</node>
	<node id="-10248" lat="63.0414388871" lon="7.97848333354">
		<tag k="name" v="Barhaugen" />
		<tag k="natural" v="hill" />
		<tag k="place" v="locality" />
		<tag k="ssr:stedsnr" v="167281" />
	</node>
	<node id="-10244" lat="62.8046916692" lon="8.39615554775">
		<tag k="name" v="Slåttamyran" />
		<tag k="natural" v="slope" />
		<tag k="place" v="locality" />
		<tag k="ssr:stedsnr" v="145363" />
	</node>
	<node id="-10241" lat="62.839172226" lon="8.1959361143">
		<tag k="fixme" v="consider natural=peak for the most distinct mountains in the district" />
		<tag k="name" v="Veten" />
		<tag k="natural" v="hill" />
		<tag k="place" v="locality" />
		<tag k="ssr:stedsnr" v="141142" />
	</node>
</osm>
