<?xml version="1.0" encoding="UTF-8"?>
<<<<<<< HEAD
<osm version="0.6" generator="osmapis">
	<node lat="62.85593333030999" lon="8.292027782645528" id="-1735">
		<tag k="name" v="Stormyra" />
=======
<osm generator="osmapis" version="0.6">
	<node id="-82942" lat="62.8253583352" lon="8.25040000456">
		<tag k="name" v="Gulbergmyra" />
		<tag k="natural" v="wetland" />
		<tag k="ssr:stedsnr" v="835129" />
	</node>
	<node id="-81404" lat="63.0454888919" lon="8.11376111734">
		<tag k="name" v="Garmyra" />
		<tag k="natural" v="wetland" />
		<tag k="ssr:stedsnr" v="289254" />
	</node>
	<node id="-82416" lat="63.0150749961" lon="7.95575277156">
		<tag k="name" v="Svalgrasmyra" />
		<tag k="natural" v="wetland" />
		<tag k="ssr:stedsnr" v="350960" />
	</node>
	<node id="-82411" lat="62.8247777738" lon="8.28330277752">
		<tag k="name" v="Skidalsmyra" />
		<tag k="natural" v="wetland" />
		<tag k="ssr:stedsnr" v="350761" />
	</node>
	<node id="-81379" lat="62.8559333303" lon="8.29202778265">
		<tag k="name" v="Stormyra" />
		<tag k="natural" v="wetland" />
		<tag k="ssr:stedsnr" v="229926" />
	</node>
	<node id="-81890" lat="62.8272083338" lon="8.22783055329">
		<tag k="name" v="Stormyra" />
		<tag k="natural" v="wetland" />
		<tag k="ssr:stedsnr" v="775883" />
	</node>
	<node id="-82395" lat="63.0351250037" lon="8.11826389377">
		<tag k="name" v="Dammyra" />
		<tag k="natural" v="wetland" />
		<tag k="ssr:stedsnr" v="350244" />
	</node>
	<node id="-81879" lat="62.9320750021" lon="8.26688889735">
		<tag k="name" v="Gammelgeilen" />
		<tag k="place" v="locality" />
		<tag k="ssr:stedsnr" v="775084" />
	</node>
	<node id="-82900" lat="62.8354194427" lon="8.26416944787">
		<tag k="name" v="Langmyra" />
		<tag k="natural" v="wetland" />
		<tag k="ssr:stedsnr" v="775967" />
	</node>
	<node id="-82899" lat="62.8318611095" lon="8.32261666101">
		<tag k="name" v="Staveskormyra" />
		<tag k="natural" v="wetland" />
		<tag k="ssr:stedsnr" v="775963" />
	</node>
	<node id="-82887" lat="62.8960444453" lon="8.25698889257">
		<tag k="name" v="Grytsteinen" />
		<tag k="natural" v="stone" />
		<tag k="ssr:stedsnr" v="775290" />
	</node>
	<node id="-81336" lat="63.0048222246" lon="8.05278056272">
		<tag k="name" v="Ormmyra" />
		<tag k="natural" v="wetland" />
		<tag k="ssr:stedsnr" v="290116" />
	</node>
	<node id="-82359" lat="62.823741667" lon="8.24022776846">
		<tag k="name" v="Hestmyra" />
		<tag k="natural" v="wetland" />
		<tag k="ssr:stedsnr" v="349136" />
	</node>
	<node id="-82867" lat="62.9447944481" lon="8.15587777253">
		<tag k="name" v="Litllimyra" />
		<tag k="natural" v="wetland" />
		<tag k="ssr:stedsnr" v="774500" />
	</node>
	<node id="-81325" lat="62.9404444434" lon="8.14098333188">
		<tag k="name" v="Kalvhagen" />
		<tag k="place" v="locality" />
		<tag k="ssr:stedsnr" v="289490" />
	</node>
	<node id="-81831" lat="62.8157111107" lon="8.33985277811">
		<tag k="name" v="Knukhjellmyra" />
		<tag k="natural" v="wetland" />
		<tag k="ssr:stedsnr" v="897800" />
	</node>
	<node id="-81817" lat="62.8293166635" lon="8.19177777414">
		<tag k="name" v="Saltsteinen" />
		<tag k="natural" v="stone" />
		<tag k="ssr:stedsnr" v="896942" />
	</node>
	<node id="-81815" lat="62.8224555585" lon="8.26424444364">
		<tag k="name" v="Øver Dammyra" />
		<tag k="natural" v="wetland" />
		<tag k="ssr:stedsnr" v="896798" />
	</node>
	<node id="-82836" lat="62.8784222179" lon="8.36950278098">
		<tag k="name" v="Grønvikmyra" />
		<tag k="natural" v="wetland" />
		<tag k="ssr:stedsnr" v="654643" />
	</node>
	<node id="-82322" lat="63.0080305585" lon="8.06811666772">
		<tag k="name" v="Årøyan" />
		<tag k="natural" v="wetland" />
		<tag k="ssr:stedsnr" v="315181" />
	</node>
	<node id="-81293" lat="63.0987638886" lon="8.05975277502">
		<tag k="name" v="Ånemyra" />
		<tag k="natural" v="wetland" />
		<tag k="ssr:stedsnr" v="168313" />
	</node>
	<node id="-82824" lat="62.9789500045" lon="8.1355083266">
		<tag k="name" v="Evja" />
		<tag k="natural" v="wetland" />
		<tag k="ssr:stedsnr" v="653647" />
	</node>
	<node id="-82821" lat="62.9957277791" lon="8.23605555805">
		<tag k="name" v="Brenndalsstenan" />
		<tag k="natural" v="stone" />
		<tag k="ssr:stedsnr" v="653755" />
	</node>
	<node id="-82814" lat="63.0706777821" lon="8.12519445238">
		<tag k="name" v="Langmyra" />
		<tag k="natural" v="wetland" />
		<tag k="ssr:stedsnr" v="653424" />
	</node>
	<node id="-82813" lat="62.9958805525" lon="8.05355278189">
		<tag k="name" v="Lauvsetermyra" />
		<tag k="natural" v="wetland" />
		<tag k="ssr:stedsnr" v="653422" />
	</node>
	<node id="-81788" lat="62.8203861126" lon="8.2394972126">
		<tag k="name" v="Langmyra" />
		<tag k="natural" v="wetland" />
		<tag k="ssr:stedsnr" v="896104" />
	</node>
	<node id="-82289" lat="62.8490027755" lon="8.26535000064">
		<tag k="name" v="Stormyra" />
		<tag k="natural" v="wetland" />
		<tag k="ssr:stedsnr" v="168934" />
	</node>
	<node id="-82799" lat="62.8534472191" lon="8.22299444305">
		<tag k="name" v="Håkkåsmyra" />
		<tag k="natural" v="wetland" />
		<tag k="ssr:stedsnr" v="653086" />
	</node>
	<node id="-81771" lat="63.023833336" lon="7.93652500535">
		<tag k="name" v="Ratmyra" />
		<tag k="natural" v="wetland" />
		<tag k="ssr:stedsnr" v="713722" />
	</node>
	<node id="-82270" lat="62.939588887" lon="8.16726389785">
		<tag k="name" v="Småmyra" />
		<tag k="natural" v="wetland" />
		<tag k="ssr:stedsnr" v="168444" />
	</node>
	<node id="-82256" lat="63.0135638933" lon="8.03858055802">
		<tag k="name" v="Stormyra" />
		<tag k="natural" v="wetland" />
		<tag k="ssr:stedsnr" v="168381" />
	</node>
	<node id="-82255" lat="62.9442805576" lon="8.28202221578">
		<tag k="name" v="Brennmyra" />
		<tag k="natural" v="wetland" />
		<tag k="ssr:stedsnr" v="168248" />
	</node>
	<node id="-82251" lat="62.9963583376" lon="7.91348889481">
		<tag k="historic" v="shieling" />
		<tag k="name" v="Storsetra" />
		<tag k="place" v="locality" />
		<tag k="ssr:stedsnr" v="167732" />
	</node>
	<node id="-82248" lat="63.0077166634" lon="8.07424166407">
		<tag k="name" v="Åreimyra" />
		<tag k="natural" v="wetland" />
		<tag k="ssr:stedsnr" v="167433" />
	</node>
	<node id="-82247" lat="63.0163555514" lon="8.09833888119">
		<tag k="name" v="Svartbekkmyra" />
		<tag k="natural" v="wetland" />
		<tag k="ssr:stedsnr" v="167432" />
	</node>
	<node id="-81734" lat="62.8255500008" lon="8.23490277568">
		<tag k="name" v="Ner Fuggelmyra" />
		<tag k="natural" v="wetland" />
		<tag k="ssr:stedsnr" v="653105" />
	</node>
	<node id="-81717" lat="63.0275638909" lon="8.12364999734">
		<tag k="name" v="Litlvassmyra" />
		<tag k="natural" v="wetland" />
		<tag k="ssr:stedsnr" v="715308" />
	</node>
	<node id="-82227" lat="63.0390249989" lon="7.93954722136">
		<tag k="name" v="Nastadmyran" />
>>>>>>> e1d4bc35ff8a6074a6f2e91616a996b547c36f15
		<tag k="natural" v="wetland" />
		<tag k="ssr:stedsnr" v="229926" />
	</node>
<<<<<<< HEAD
	<node lat="62.82373610680481" lon="8.233616657623298" id="-1764">
		<tag k="name" v="Kringelmyra" />
=======
	<node id="-81713" lat="62.8597500037" lon="8.27255277937">
		<tag k="name" v="Småmyran" />
>>>>>>> e1d4bc35ff8a6074a6f2e91616a996b547c36f15
		<tag k="natural" v="wetland" />
		<tag k="ssr:stedsnr" v="47120" />
	</node>
<<<<<<< HEAD
	<node lat="63.00476666921746" lon="7.955986105724552" id="-1800">
		<tag k="name" v="Trøbakkan" />
		<tag k="place" v="locality" />
		<tag k="ssr:stedsnr" v="107722" />
	</node>
	<node lat="63.03902499892498" lon="7.939547221359497" id="-1821">
		<tag k="name" v="Nastadmyran" />
=======
	<node id="-82735" lat="62.8675888931" lon="8.32664166603">
		<tag k="name" v="Holtan" />
		<tag k="place" v="locality" />
		<tag k="ssr:stedsnr" v="593841" />
	</node>
	<node id="-81198" lat="62.9544416706" lon="8.26531667635">
		<tag k="name" v="Moldstimyra" />
		<tag k="natural" v="wetland" />
		<tag k="ssr:stedsnr" v="229285" />
	</node>
	<node id="-81709" lat="62.8393583309" lon="8.25296387923">
		<tag k="name" v="Vargmyra" />
>>>>>>> e1d4bc35ff8a6074a6f2e91616a996b547c36f15
		<tag k="natural" v="wetland" />
		<tag k="ssr:stedsnr" v="134151" />
	</node>
<<<<<<< HEAD
	<node lat="63.023263888210444" lon="7.976469446919446" id="-1883">
=======
	<node id="-81190" lat="63.0232638882" lon="7.97646944692">
>>>>>>> e1d4bc35ff8a6074a6f2e91616a996b547c36f15
		<tag k="name" v="Stormyra" />
		<tag k="natural" v="wetland" />
		<tag k="ssr:stedsnr" v="228501" />
	</node>
<<<<<<< HEAD
	<node lat="62.954441670611345" lon="8.265316676353354" id="-1895">
		<tag k="name" v="Moldstimyra" />
=======
	<node id="-82721" lat="62.8796138898" lon="8.36134444678">
		<tag k="name" v="Tørmyra" />
>>>>>>> e1d4bc35ff8a6074a6f2e91616a996b547c36f15
		<tag k="natural" v="wetland" />
		<tag k="ssr:stedsnr" v="229285" />
	</node>
<<<<<<< HEAD
	<node lat="62.94044444335403" lon="8.140983331879307" id="-1931">
		<tag k="name" v="Kalvhagen" />
		<tag k="place" v="locality" />
		<tag k="ssr:stedsnr" v="289490" />
	</node>
	<node lat="62.814349996714526" lon="8.250274999217886" id="-1965">
		<tag k="name" v="Slåa" />
=======
	<node id="-82720" lat="62.9677666655" lon="8.25650555238">
		<tag k="name" v="Blåmyra" />
		<tag k="natural" v="wetland" />
		<tag k="ssr:stedsnr" v="593574" />
	</node>
	<node id="-82716" lat="63.0347944477" lon="8.08301944793">
		<tag k="name" v="Postmyra" />
>>>>>>> e1d4bc35ff8a6074a6f2e91616a996b547c36f15
		<tag k="natural" v="wetland" />
		<tag k="ssr:stedsnr" v="471137" />
	</node>
<<<<<<< HEAD
	<node lat="62.925458331117746" lon="8.26079166377798" id="-1984">
		<tag k="name" v="Storsetmyran" />
=======
	<node id="-82200" lat="62.837463892" lon="8.26070554683">
		<tag k="name" v="Tømmermyra" />
>>>>>>> e1d4bc35ff8a6074a6f2e91616a996b547c36f15
		<tag k="natural" v="wetland" />
		<tag k="ssr:stedsnr" v="472089" />
	</node>
<<<<<<< HEAD
	<node lat="62.86144999861011" lon="8.188516674866284" id="-1985">
		<tag k="name" v="Galtbermyra" />
=======
	<node id="-82709" lat="62.849202781" lon="8.25647499123">
		<tag k="name" v="Raudmyra" />
>>>>>>> e1d4bc35ff8a6074a6f2e91616a996b547c36f15
		<tag k="natural" v="wetland" />
		<tag k="ssr:stedsnr" v="472057" />
	</node>
<<<<<<< HEAD
	<node lat="62.83214722135666" lon="8.338038887091196" id="-2005">
		<tag k="name" v="Fagermyra" />
=======
	<node id="-82703" lat="62.9195472203" lon="8.28372777382">
		<tag k="name" v="Bergmyran" />
>>>>>>> e1d4bc35ff8a6074a6f2e91616a996b547c36f15
		<tag k="natural" v="wetland" />
		<tag k="ssr:stedsnr" v="472953" />
	</node>
<<<<<<< HEAD
	<node lat="62.89582500401317" lon="8.161694443408724" id="-2027">
		<tag k="name" v="Sjølvgjetla" />
		<tag k="place" v="locality" />
		<tag k="ssr:stedsnr" v="350304" />
	</node>
	<node lat="62.89722500059171" lon="8.325241671646728" id="-2031">
		<tag k="name" v="Porklemyra" />
=======
	<node id="-81166" lat="62.8629250027" lon="8.23063889066">
		<tag k="name" v="Kloppmyra" />
		<tag k="natural" v="wetland" />
		<tag k="ssr:stedsnr" v="12244" />
	</node>
	<node id="-81676" lat="62.8767055598" lon="8.17868334157">
		<tag k="name" v="Sandbakkmyra" />
>>>>>>> e1d4bc35ff8a6074a6f2e91616a996b547c36f15
		<tag k="natural" v="wetland" />
		<tag k="ssr:stedsnr" v="350579" />
	</node>
<<<<<<< HEAD
	<node lat="63.01507499612703" lon="7.955752771555396" id="-2035">
		<tag k="name" v="Svalgrasmyra" />
=======
	<node id="-82699" lat="62.8185861098" lon="8.2829694526">
		<tag k="name" v="Kringelmyra" />
>>>>>>> e1d4bc35ff8a6074a6f2e91616a996b547c36f15
		<tag k="natural" v="wetland" />
		<tag k="ssr:stedsnr" v="350960" />
	</node>
<<<<<<< HEAD
	<node lat="62.97916110679093" lon="8.290986113704188" id="-2057">
		<tag k="name" v="Testora" />
		<tag k="natural" v="scree" />
		<tag k="ssr:stedsnr" v="411102" />
	</node>
	<node lat="62.94868888688699" lon="8.31248333098561" id="-2060">
		<tag k="name" v="Storsteinen" />
		<tag k="natural" v="stone" />
		<tag k="ssr:stedsnr" v="411252" />
	</node>
	<node lat="62.88427499922635" lon="8.302980564445926" id="-2067">
		<tag k="name" v="Tjønnmyran" />
=======
	<node id="-82691" lat="62.8978388907" lon="8.26588888461">
		<tag k="name" v="Gråora" />
		<tag k="natural" v="scree" />
		<tag k="ssr:stedsnr" v="592658" />
	</node>
	<node id="-81664" lat="63.0228777764" lon="7.9272972296">
		<tag k="name" v="Vuggemyran" />
>>>>>>> e1d4bc35ff8a6074a6f2e91616a996b547c36f15
		<tag k="natural" v="wetland" />
		<tag k="ssr:stedsnr" v="411647" />
	</node>
<<<<<<< HEAD
	<node lat="63.04105277882732" lon="8.103066674680228" id="-2082">
		<tag k="name" v="Stormyran" />
		<tag k="natural" v="wetland" />
		<tag k="ssr:stedsnr" v="437263" />
	</node>
	<node lat="63.0336749998182" lon="7.920288894646047" id="-2084">
		<tag k="name" v="Litlsetermyra" />
		<tag k="natural" v="wetland" />
		<tag k="ssr:stedsnr" v="470673" />
	</node>
	<node lat="62.87768888461691" lon="8.17014722495775" id="-2089">
=======
	<node id="-82172" lat="63.0047666692" lon="7.95598610572">
		<tag k="name" v="Trøbakkan" />
		<tag k="place" v="locality" />
		<tag k="ssr:stedsnr" v="107722" />
	</node>
	<node id="-81450" lat="62.8776888846" lon="8.17014722496">
>>>>>>> e1d4bc35ff8a6074a6f2e91616a996b547c36f15
		<tag k="name" v="Myrbærmyra" />
		<tag k="natural" v="wetland" />
		<tag k="ssr:stedsnr" v="471075" />
	</node>
<<<<<<< HEAD
	<node lat="63.033008333555756" lon="7.943930548025997" id="-2100">
		<tag k="name" v="Skaramyrane" />
=======
	<node id="-82681" lat="63.0384472249" lon="7.94514999309">
		<tag k="name" v="Nastadmyra" />
		<tag k="natural" v="wetland" />
		<tag k="ssr:stedsnr" v="592453" />
	</node>
	<node id="-82166" lat="62.9534055578" lon="8.19035000683">
		<tag k="name" v="Storlimyra" />
>>>>>>> e1d4bc35ff8a6074a6f2e91616a996b547c36f15
		<tag k="natural" v="wetland" />
		<tag k="ssr:stedsnr" v="471424" />
	</node>
<<<<<<< HEAD
	<node lat="62.81304999951064" lon="8.262105548931192" id="-2103">
		<tag k="name" v="Trøin" />
		<tag k="place" v="locality" />
		<tag k="ssr:stedsnr" v="471780" />
	</node>
	<node lat="62.95586388608465" lon="8.325388879585253" id="-2107">
		<tag k="name" v="Amundtrøa" />
		<tag k="place" v="locality" />
		<tag k="ssr:stedsnr" v="472004" />
	</node>
	<node lat="63.054519446530875" lon="7.972547224267085" id="-2159">
		<tag k="name" v="Otersteinen" />
		<tag k="natural" v="stone" />
		<tag k="ssr:stedsnr" v="531306" />
	</node>
	<node lat="62.95249722565764" lon="8.12405555276253" id="-2164">
		<tag k="name" v="Hesthagen" />
		<tag k="place" v="locality" />
		<tag k="ssr:stedsnr" v="531723" />
	</node>
	<node lat="62.89783889066486" lon="8.265888884610469" id="-2223">
		<tag k="name" v="Gråora" />
		<tag k="natural" v="scree" />
		<tag k="ssr:stedsnr" v="592658" />
	</node>
	<node lat="62.84920278103943" lon="8.256474991233558" id="-2228">
		<tag k="name" v="Raudmyra" />
=======
	<node id="-82673" lat="62.8082777813" lon="8.2833416632">
		<tag k="name" v="Bergeslættet" />
		<tag k="place" v="locality" />
		<tag k="ssr:stedsnr" v="592195" />
	</node>
	<node id="-81958" lat="62.8222055537" lon="8.28796111961">
		<tag k="name" v="Råmyra" />
		<tag k="natural" v="wetland" />
		<tag k="ssr:stedsnr" v="836757" />
	</node>
	<node id="-82108" lat="62.8223611073" lon="8.27891665813">
		<tag k="name" v="Hjellmyra" />
		<tag k="natural" v="wetland" />
		<tag k="ssr:stedsnr" v="47760" />
	</node>
	<node id="-82106" lat="62.9643499984" lon="8.16060833854">
		<tag k="name" v="Teigaløkan" />
		<tag k="natural" v="wetland" />
		<tag k="ssr:stedsnr" v="47684" />
	</node>
	<node id="-81593" lat="63.0410527788" lon="8.10306667468">
		<tag k="name" v="Stormyran" />
		<tag k="natural" v="wetland" />
		<tag k="ssr:stedsnr" v="437263" />
	</node>
	<node id="-82974" lat="62.9820972249" lon="8.22429166239">
		<tag k="name" v="Slettmyra" />
		<tag k="natural" v="wetland" />
		<tag k="ssr:stedsnr" v="836743" />
	</node>
	<node id="-82092" lat="62.8237361068" lon="8.23361665762">
		<tag k="name" v="Kringelmyra" />
>>>>>>> e1d4bc35ff8a6074a6f2e91616a996b547c36f15
		<tag k="natural" v="wetland" />
		<tag k="ssr:stedsnr" v="593111" />
	</node>
<<<<<<< HEAD
	<node lat="63.034794447736665" lon="8.08301944793246" id="-2235">
		<tag k="name" v="Postmyra" />
=======
	<node id="-83114" lat="62.8329490103" lon="8.21932472795">
		<tag k="name" v="Nyhjelldalsmyra" />
>>>>>>> e1d4bc35ff8a6074a6f2e91616a996b547c36f15
		<tag k="natural" v="wetland" />
		<tag k="ssr:stedsnr" v="593265" />
	</node>
<<<<<<< HEAD
	<node lat="62.825550000808406" lon="8.234902775681242" id="-2269">
		<tag k="name" v="Ner Fuggelmyra" />
		<tag k="natural" v="wetland" />
		<tag k="ssr:stedsnr" v="653105" />
	</node>
	<node lat="62.9789500044715" lon="8.1355083266022" id="-2277">
		<tag k="name" v="Evja" />
=======
	<node id="-82599" lat="62.9407166635" lon="8.27764444021">
		<tag k="name" v="Storsteinen" />
		<tag k="natural" v="stone" />
		<tag k="ssr:stedsnr" v="532283" />
	</node>
	<node id="-82086" lat="62.8453611082" lon="8.18725277006">
		<tag k="name" v="Finmyra" />
>>>>>>> e1d4bc35ff8a6074a6f2e91616a996b547c36f15
		<tag k="natural" v="wetland" />
		<tag k="ssr:stedsnr" v="653647" />
	</node>
<<<<<<< HEAD
	<node lat="62.878422217857846" lon="8.369502780977658" id="-2288">
		<tag k="name" v="Grønvikmyra" />
=======
	<node id="-82596" lat="63.0332722245" lon="8.08925833618">
		<tag k="name" v="Kloppmyra" />
>>>>>>> e1d4bc35ff8a6074a6f2e91616a996b547c36f15
		<tag k="natural" v="wetland" />
		<tag k="ssr:stedsnr" v="654643" />
	</node>
<<<<<<< HEAD
	<node lat="62.81584721791334" lon="8.260172226897033" id="-2324">
		<tag k="name" v="Kolmyra" />
		<tag k="natural" v="wetland" />
		<tag k="ssr:stedsnr" v="896821" />
	</node>
	<node lat="62.82245555853003" lon="8.264244443644545" id="-2327">
		<tag k="name" v="Øver Dammyra" />
=======
	<node id="-82574" lat="62.9524972257" lon="8.12405555276">
		<tag k="name" v="Hesthagen" />
		<tag k="place" v="locality" />
		<tag k="ssr:stedsnr" v="531723" />
	</node>
	<node id="-83084" lat="62.84306389" lon="8.30121667391">
		<tag k="name" v="Ner Myran" />
>>>>>>> e1d4bc35ff8a6074a6f2e91616a996b547c36f15
		<tag k="natural" v="wetland" />
		<tag k="ssr:stedsnr" v="896798" />
	</node>
<<<<<<< HEAD
	<node lat="62.82931666353465" lon="8.191777774143672" id="-2328">
		<tag k="name" v="Saltsteinen" />
=======
	<node id="-82570" lat="63.0545194465" lon="7.97254722427">
		<tag k="name" v="Otersteinen" />
>>>>>>> e1d4bc35ff8a6074a6f2e91616a996b547c36f15
		<tag k="natural" v="stone" />
		<tag k="ssr:stedsnr" v="896942" />
	</node>
<<<<<<< HEAD
	<node lat="62.815711110722305" lon="8.339852778109798" id="-2339">
		<tag k="name" v="Knukhjellmyra" />
		<tag k="natural" v="wetland" />
		<tag k="ssr:stedsnr" v="897800" />
	</node>
	<node lat="63.02287777638011" lon="7.92729722959504" id="-2346">
		<tag k="name" v="Vuggemyran" />
=======
	<node id="-81545" lat="62.895825004" lon="8.16169444341">
		<tag k="name" v="Sjølvgjetla" />
		<tag k="place" v="locality" />
		<tag k="ssr:stedsnr" v="350304" />
	</node>
	<node id="-82402" lat="62.8972250006" lon="8.32524167165">
		<tag k="name" v="Porklemyra" />
		<tag k="natural" v="wetland" />
		<tag k="ssr:stedsnr" v="350579" />
	</node>
	<node id="-83076" lat="62.8411444443" lon="8.22946110696">
		<tag k="name" v="Stormyra" />
>>>>>>> e1d4bc35ff8a6074a6f2e91616a996b547c36f15
		<tag k="natural" v="wetland" />
		<tag k="ssr:stedsnr" v="713724" />
	</node>
<<<<<<< HEAD
	<node lat="63.05221944576424" lon="8.071863886549446" id="-2352">
		<tag k="name" v="Vintermyra" />
=======
	<node id="-82038" lat="62.8639361079" lon="8.3262388944">
		<tag k="name" v="Åsprongmyran" />
>>>>>>> e1d4bc35ff8a6074a6f2e91616a996b547c36f15
		<tag k="natural" v="wetland" />
		<tag k="ssr:stedsnr" v="714229" />
	</node>
<<<<<<< HEAD
	<node lat="62.83935833089331" lon="8.252963879231343" id="-2359">
		<tag k="name" v="Vargmyra" />
=======
	<node id="-81518" lat="62.8321472214" lon="8.33803888709">
		<tag k="name" v="Fagermyra" />
>>>>>>> e1d4bc35ff8a6074a6f2e91616a996b547c36f15
		<tag k="natural" v="wetland" />
		<tag k="ssr:stedsnr" v="714887" />
	</node>
<<<<<<< HEAD
	<node lat="62.85975000369472" lon="8.272552779374054" id="-2361">
		<tag k="name" v="Småmyran" />
		<tag k="natural" v="wetland" />
		<tag k="ssr:stedsnr" v="714929" />
	</node>
	<node lat="63.02756389091382" lon="8.123649997336157" id="-2363">
		<tag k="name" v="Litlvassmyra" />
		<tag k="natural" v="wetland" />
		<tag k="ssr:stedsnr" v="715308" />
	</node>
	<node lat="62.83186110946355" lon="8.322616661014157" id="-2416">
		<tag k="name" v="Staveskormyra" />
=======
	<node id="-83049" lat="62.9327555595" lon="8.28576666257">
		<tag k="name" v="Båtnesgeilen" />
		<tag k="place" v="locality" />
		<tag k="ssr:stedsnr" v="957091" />
	</node>
	<node id="-82015" lat="63.0925305562" lon="8.01393332456">
		<tag k="name" v="Syrsteinen" />
		<tag k="natural" v="stone" />
		<tag k="ssr:stedsnr" v="957317" />
	</node>
	<node id="-83038" lat="63.0237444422" lon="7.89443610333">
		<tag k="name" v="Myrhålet" />
>>>>>>> e1d4bc35ff8a6074a6f2e91616a996b547c36f15
		<tag k="natural" v="wetland" />
		<tag k="ssr:stedsnr" v="775963" />
	</node>
<<<<<<< HEAD
	<node lat="62.835419442689776" lon="8.264169447867355" id="-2417">
		<tag k="name" v="Langmyra" />
=======
	<node id="-83033" lat="62.9488055523" lon="8.1744833303">
		<tag k="name" v="Gammel-Pemyra" />
>>>>>>> e1d4bc35ff8a6074a6f2e91616a996b547c36f15
		<tag k="natural" v="wetland" />
		<tag k="ssr:stedsnr" v="775967" />
	</node>
<<<<<<< HEAD
	<node lat="62.82535833521008" lon="8.250400004555813" id="-2459">
		<tag k="name" v="Gulbergmyra" />
=======
	<node id="-81494" lat="62.9254583311" lon="8.26079166378">
		<tag k="name" v="Storsetmyran" />
>>>>>>> e1d4bc35ff8a6074a6f2e91616a996b547c36f15
		<tag k="natural" v="wetland" />
		<tag k="ssr:stedsnr" v="835129" />
	</node>
<<<<<<< HEAD
	<node lat="63.03701388508558" lon="8.124944449275539" id="-2468">
		<tag k="name" v="Nonshaugmyra" />
=======
	<node id="-81493" lat="62.8614499986" lon="8.18851667487">
		<tag k="name" v="Galtbermyra" />
>>>>>>> e1d4bc35ff8a6074a6f2e91616a996b547c36f15
		<tag k="natural" v="wetland" />
		<tag k="ssr:stedsnr" v="836230" />
	</node>
<<<<<<< HEAD
	<node lat="62.864475000932586" lon="8.203797222670186" id="-2478">
		<tag k="name" v="Sagtrøa" />
=======
	<node id="-81491" lat="62.9558638861" lon="8.32538887959">
		<tag k="name" v="Amundtrøa" />
>>>>>>> e1d4bc35ff8a6074a6f2e91616a996b547c36f15
		<tag k="place" v="locality" />
		<tag k="ssr:stedsnr" v="836910" />
	</node>
<<<<<<< HEAD
	<node lat="62.831161113792746" lon="8.29228611951877" id="-2479">
		<tag k="name" v="Stormyra" />
=======
	<node id="-82513" lat="62.8247055584" lon="8.27215833256">
		<tag k="name" v="Ner Dammyra" />
>>>>>>> e1d4bc35ff8a6074a6f2e91616a996b547c36f15
		<tag k="natural" v="wetland" />
		<tag k="ssr:stedsnr" v="836975" />
	</node>
<<<<<<< HEAD
	<node lat="62.83467778103232" lon="8.247666676037213" id="-2480">
		<tag k="name" v="Olderskogen" />
		<tag k="place" v="locality" />
		<tag k="ssr:stedsnr" v="836884" />
	</node>
	<node lat="62.839880556407515" lon="8.247447225375817" id="-2481">
		<tag k="name" v="Haltbakkmyra" />
		<tag k="natural" v="wetland" />
		<tag k="ssr:stedsnr" v="836886" />
	</node>
	<node lat="62.820386112556086" lon="8.239497212598785" id="-2502">
		<tag k="name" v="Langmyra" />
=======
	<node id="-82512" lat="62.8239444447" lon="8.27545833086">
		<tag k="name" v="Hestmyra" />
		<tag k="natural" v="wetland" />
		<tag k="ssr:stedsnr" v="411750" />
	</node>
	<node id="-82508" lat="62.8842749992" lon="8.30298056445">
		<tag k="name" v="Tjønnmyran" />
		<tag k="natural" v="wetland" />
		<tag k="ssr:stedsnr" v="411647" />
	</node>
	<node id="-81481" lat="62.8130499995" lon="8.26210554893">
		<tag k="name" v="Trøin" />
		<tag k="place" v="locality" />
		<tag k="ssr:stedsnr" v="471780" />
	</node>
	<node id="-82504" lat="63.0959777798" lon="8.01380833541">
		<tag k="name" v="Jøsmyra" />
>>>>>>> e1d4bc35ff8a6074a6f2e91616a996b547c36f15
		<tag k="natural" v="wetland" />
		<tag k="ssr:stedsnr" v="896104" />
	</node>
<<<<<<< HEAD
	<node lat="62.87219444038497" lon="8.286274992926568" id="-2533">
=======
	<node id="-81989" lat="62.8721944404" lon="8.28627499293">
>>>>>>> e1d4bc35ff8a6074a6f2e91616a996b547c36f15
		<tag k="name" v="Pipgaddmyra" />
		<tag k="natural" v="wetland" />
		<tag k="ssr:stedsnr" v="897624" />
	</node>
<<<<<<< HEAD
	<node lat="63.02374444217549" lon="7.894436103329294" id="-2570">
		<tag k="name" v="Myrhålet" />
		<tag k="natural" v="wetland" />
		<tag k="ssr:stedsnr" v="956707" />
	</node>
	<node lat="63.092530556200046" lon="8.013933324564674" id="-2580">
		<tag k="name" v="Syrsteinen" />
		<tag k="natural" v="stone" />
		<tag k="ssr:stedsnr" v="957317" />
	</node>
	<node lat="62.86292500265757" lon="8.230638890658097" id="-2610">
		<tag k="name" v="Kloppmyra" />
=======
	<node id="-82498" lat="62.9486888869" lon="8.31248333099">
		<tag k="name" v="Storsteinen" />
		<tag k="natural" v="stone" />
		<tag k="ssr:stedsnr" v="411252" />
	</node>
	<node id="-82494" lat="62.9791611068" lon="8.2909861137">
		<tag k="name" v="Testora" />
		<tag k="natural" v="scree" />
		<tag k="ssr:stedsnr" v="411102" />
	</node>
	<node id="-81469" lat="63.0330083336" lon="7.94393054803">
		<tag k="name" v="Skaramyrane" />
>>>>>>> e1d4bc35ff8a6074a6f2e91616a996b547c36f15
		<tag k="natural" v="wetland" />
		<tag k="ssr:stedsnr" v="12244" />
	</node>
<<<<<<< HEAD
	<node lat="62.86393610794589" lon="8.326238894400221" id="-2622">
		<tag k="name" v="Åsprongmyran" />
=======
	<node id="-81977" lat="62.8158472179" lon="8.2601722269">
		<tag k="name" v="Kolmyra" />
>>>>>>> e1d4bc35ff8a6074a6f2e91616a996b547c36f15
		<tag k="natural" v="wetland" />
		<tag k="ssr:stedsnr" v="12359" />
	</node>
<<<<<<< HEAD
	<node lat="62.84536110819725" lon="8.1872527700608" id="-2635">
		<tag k="name" v="Finmyra" />
=======
	<node id="-82478" lat="63.0292833356" lon="7.94971388025">
		<tag k="name" v="Leftemyran" />
>>>>>>> e1d4bc35ff8a6074a6f2e91616a996b547c36f15
		<tag k="natural" v="wetland" />
		<tag k="ssr:stedsnr" v="46934" />
	</node>
<<<<<<< HEAD
	<node lat="62.82236110728821" lon="8.278916658129747" id="-2671">
		<tag k="name" v="Hjellmyra" />
		<tag k="natural" v="wetland" />
		<tag k="ssr:stedsnr" v="47760" />
	</node>
	<node lat="62.96434999844247" lon="8.160608338537493" id="-2676">
		<tag k="name" v="Teigaløkan" />
=======
	<node id="-81453" lat="62.8143499967" lon="8.25027499922">
		<tag k="name" v="Slåa" />
		<tag k="natural" v="wetland" />
		<tag k="ssr:stedsnr" v="471137" />
	</node>
	<node id="-82474" lat="62.9999499988" lon="7.93955832993">
		<tag k="name" v="Rugtrøa" />
		<tag k="place" v="locality" />
		<tag k="ssr:stedsnr" v="410398" />
	</node>
	<node id="-82985" lat="62.8311611138" lon="8.29228611952">
		<tag k="name" v="Stormyra" />
>>>>>>> e1d4bc35ff8a6074a6f2e91616a996b547c36f15
		<tag k="natural" v="wetland" />
		<tag k="ssr:stedsnr" v="47684" />
	</node>
<<<<<<< HEAD
	<node lat="62.95340555784953" lon="8.190350006834512" id="-2729">
		<tag k="name" v="Storlimyra" />
		<tag k="natural" v="wetland" />
		<tag k="ssr:stedsnr" v="107468" />
	</node>
	<node lat="62.837463892045214" lon="8.260705546829739" id="-2757">
		<tag k="name" v="Tømmermyra" />
=======
	<node id="-81960" lat="62.8644750009" lon="8.20379722267">
		<tag k="name" v="Sagtrøa" />
		<tag k="place" v="locality" />
		<tag k="ssr:stedsnr" v="836910" />
	</node>
	<node id="-81447" lat="63.0336749998" lon="7.92028889465">
		<tag k="name" v="Litlsetermyra" />
>>>>>>> e1d4bc35ff8a6074a6f2e91616a996b547c36f15
		<tag k="natural" v="wetland" />
		<tag k="ssr:stedsnr" v="108966" />
	</node>
<<<<<<< HEAD
	<node lat="63.016355551397254" lon="8.098338881187406" id="-2790">
		<tag k="name" v="Svartbekkmyra" />
		<tag k="natural" v="wetland" />
		<tag k="ssr:stedsnr" v="167432" />
	</node>
	<node lat="63.00771666339427" lon="8.074241664072945" id="-2791">
		<tag k="name" v="Åreimyra" />
=======
	<node id="-82470" lat="63.0570416679" lon="8.07374999358">
		<tag k="name" v="Mjøkhaugmyra" />
		<tag k="natural" v="wetland" />
		<tag k="ssr:stedsnr" v="410270" />
	</node>
	<node id="-82977" lat="62.8398805564" lon="8.24744722538">
		<tag k="name" v="Haltbakkmyra" />
>>>>>>> e1d4bc35ff8a6074a6f2e91616a996b547c36f15
		<tag k="natural" v="wetland" />
		<tag k="ssr:stedsnr" v="167433" />
	</node>
<<<<<<< HEAD
	<node lat="62.99635833761719" lon="7.913488894813175" id="-2801">
		<tag k="historic" v="shieling" />
		<tag k="name" v="Storsetra" />
=======
	<node id="-82976" lat="62.834677781" lon="8.24766667604">
		<tag k="name" v="Olderskogen" />
>>>>>>> e1d4bc35ff8a6074a6f2e91616a996b547c36f15
		<tag k="place" v="locality" />
		<tag k="ssr:stedsnr" v="167732" />
	</node>
<<<<<<< HEAD
	<node lat="63.0135638932934" lon="8.038580558024826" id="-2811">
		<tag k="name" v="Stormyra" />
		<tag k="natural" v="wetland" />
		<tag k="ssr:stedsnr" v="168381" />
	</node>
	<node lat="62.944280557610185" lon="8.282022215783273" id="-2815">
		<tag k="name" v="Brennmyra" />
		<tag k="natural" v="wetland" />
		<tag k="ssr:stedsnr" v="168248" />
	</node>
	<node lat="63.09876388860623" lon="8.059752775015944" id="-2816">
		<tag k="name" v="Ånemyra" />
=======
	<node id="-82462" lat="63.0202277816" lon="7.92887778127">
		<tag k="name" v="Nipura" />
		<tag k="natural" v="scree" />
		<tag k="ssr:stedsnr" v="409672" />
	</node>
	<node id="-81436" lat="62.8297828085" lon="8.22038382562">
		<tag k="name" v="Geilmyra" />
		<tag k="natural" v="wetland" />
		<tag k="ssr:stedsnr" v="290861" />
	</node>
	<node id="-81435" lat="62.9858944452" lon="8.25190554967">
		<tag k="name" v="Sagøra" />
		<tag k="place" v="locality" />
		<tag k="ssr:stedsnr" v="290673" />
	</node>
	<node id="-81432" lat="62.985124998" lon="8.18628611291">
		<tag k="name" v="Høgmyra" />
>>>>>>> e1d4bc35ff8a6074a6f2e91616a996b547c36f15
		<tag k="natural" v="wetland" />
		<tag k="ssr:stedsnr" v="168313" />
	</node>
<<<<<<< HEAD
	<node lat="62.93958888696051" lon="8.167263897851686" id="-2819">
		<tag k="name" v="Småmyra" />
=======
	<node id="-81939" lat="63.022225004" lon="8.0092472186">
		<tag k="name" v="Halsmyra" />
>>>>>>> e1d4bc35ff8a6074a6f2e91616a996b547c36f15
		<tag k="natural" v="wetland" />
		<tag k="ssr:stedsnr" v="168444" />
	</node>
<<<<<<< HEAD
	<node lat="62.84900277551833" lon="8.265350000636621" id="-2838">
		<tag k="name" v="Stormyra" />
=======
	<node id="-82962" lat="63.0325222217" lon="8.09459999925">
		<tag k="name" v="Trømyra" />
>>>>>>> e1d4bc35ff8a6074a6f2e91616a996b547c36f15
		<tag k="natural" v="wetland" />
		<tag k="ssr:stedsnr" v="168934" />
	</node>
<<<<<<< HEAD
	<node lat="63.04548889186758" lon="8.113761117344875" id="-2906">
		<tag k="name" v="Garmyra" />
		<tag k="natural" v="wetland" />
		<tag k="ssr:stedsnr" v="289254" />
	</node>
	<node lat="63.02286110840406" lon="7.94704722115138" id="-2918">
=======
	<node id="-81667" lat="63.0522194458" lon="8.07186388655">
		<tag k="name" v="Vintermyra" />
		<tag k="natural" v="wetland" />
		<tag k="ssr:stedsnr" v="714229" />
	</node>
	<node id="-82959" lat="63.0370138851" lon="8.12494444928">
		<tag k="name" v="Nonshaugmyra" />
		<tag k="natural" v="wetland" />
		<tag k="ssr:stedsnr" v="836230" />
	</node>
	<node id="-81411" lat="63.0228611084" lon="7.94704722115">
>>>>>>> e1d4bc35ff8a6074a6f2e91616a996b547c36f15
		<tag k="name" v="Langmyra" />
		<tag k="natural" v="wetland" />
		<tag k="ssr:stedsnr" v="289422" />
	</node>
<<<<<<< HEAD
	<node lat="63.00482222458452" lon="8.052780562715677" id="-2927">
		<tag k="name" v="Ormmyra" />
		<tag k="natural" v="wetland" />
		<tag k="ssr:stedsnr" v="290116" />
	</node>
	<node lat="62.98589444521267" lon="8.251905549673436" id="-2936">
		<tag k="name" v="Sagøra" />
		<tag k="place" v="locality" />
		<tag k="ssr:stedsnr" v="290673" />
	</node>
	<node lat="62.98512499799693" lon="8.186286112906451" id="-2942">
		<tag k="name" v="Høgmyra" />
		<tag k="natural" v="wetland" />
		<tag k="ssr:stedsnr" v="290763" />
	</node>
	<node lat="62.8297828084791" lon="8.220383825615661" id="-2944">
		<tag k="name" v="Geilmyra" />
		<tag k="natural" v="wetland" />
		<tag k="ssr:stedsnr" v="290861" />
	</node>
	<node lat="63.008030558522954" lon="8.068116667716037" id="-2951">
		<tag k="name" v="Årøyan" />
		<tag k="natural" v="wetland" />
		<tag k="ssr:stedsnr" v="315181" />
	</node>
	<node lat="62.82374166702474" lon="8.240227768461512" id="-2991">
		<tag k="name" v="Hestmyra" />
		<tag k="natural" v="wetland" />
		<tag k="ssr:stedsnr" v="349136" />
	</node>
	<node lat="63.03512500367497" lon="8.11826389376855" id="-3017">
		<tag k="name" v="Dammyra" />
		<tag k="natural" v="wetland" />
		<tag k="ssr:stedsnr" v="350244" />
	</node>
	<node lat="62.824777773830554" lon="8.283302777518204" id="-3029">
		<tag k="name" v="Skidalsmyra" />
		<tag k="natural" v="wetland" />
		<tag k="ssr:stedsnr" v="350761" />
	</node>
	<node lat="63.02022778158114" lon="7.928877781274533" id="-3071">
		<tag k="name" v="Nipura" />
		<tag k="natural" v="scree" />
		<tag k="ssr:stedsnr" v="409672" />
	</node>
	<node lat="63.05704166792384" lon="8.07374999358318" id="-3076">
		<tag k="name" v="Mjøkhaugmyra" />
		<tag k="natural" v="wetland" />
		<tag k="ssr:stedsnr" v="410270" />
	</node>
	<node lat="62.99994999876034" lon="7.939558329932325" id="-3079">
		<tag k="name" v="Rugtrøa" />
		<tag k="place" v="locality" />
		<tag k="ssr:stedsnr" v="410398" />
	</node>
	<node lat="63.029283335639434" lon="7.949713880247134" id="-3083">
		<tag k="name" v="Leftemyran" />
		<tag k="natural" v="wetland" />
		<tag k="ssr:stedsnr" v="410437" />
	</node>
	<node lat="63.09597777978492" lon="8.013808335411753" id="-3103">
		<tag k="name" v="Jøsmyra" />
		<tag k="natural" v="wetland" />
		<tag k="ssr:stedsnr" v="411321" />
	</node>
	<node lat="62.823944444671525" lon="8.275458330864643" id="-3110">
		<tag k="name" v="Hestmyra" />
		<tag k="natural" v="wetland" />
		<tag k="ssr:stedsnr" v="411750" />
	</node>
	<node lat="62.82470555836737" lon="8.27215833255944" id="-3111">
		<tag k="name" v="Ner Dammyra" />
		<tag k="natural" v="wetland" />
		<tag k="ssr:stedsnr" v="411752" />
	</node>
	<node lat="63.03327222448792" lon="8.089258336175938" id="-3195">
		<tag k="name" v="Kloppmyra" />
		<tag k="natural" v="wetland" />
		<tag k="ssr:stedsnr" v="532261" />
	</node>
	<node lat="62.94071666346517" lon="8.277644440206364" id="-3196">
		<tag k="name" v="Storsteinen" />
		<tag k="natural" v="stone" />
		<tag k="ssr:stedsnr" v="532283" />
	</node>
	<node lat="62.80827778134282" lon="8.28334166319808" id="-3256">
		<tag k="name" v="Bergeslættet" />
		<tag k="place" v="locality" />
		<tag k="ssr:stedsnr" v="592195" />
	</node>
	<node lat="62.919547220281665" lon="8.283727773820193" id="-3257">
		<tag k="name" v="Bergmyran" />
		<tag k="natural" v="wetland" />
		<tag k="ssr:stedsnr" v="593077" />
	</node>
	<node lat="62.818586109781954" lon="8.282969452601039" id="-3274">
		<tag k="name" v="Kringelmyra" />
		<tag k="natural" v="wetland" />
		<tag k="ssr:stedsnr" v="592830" />
	</node>
	<node lat="62.967766665541944" lon="8.256505552383837" id="-3284">
		<tag k="name" v="Blåmyra" />
		<tag k="natural" v="wetland" />
		<tag k="ssr:stedsnr" v="593574" />
	</node>
	<node lat="62.87961388976971" lon="8.361344446782226" id="-3285">
		<tag k="name" v="Tørmyra" />
		<tag k="natural" v="wetland" />
		<tag k="ssr:stedsnr" v="593580" />
	</node>
	<node lat="62.86758889312482" lon="8.326641666030934" id="-3296">
		<tag k="name" v="Holtan" />
		<tag k="place" v="locality" />
		<tag k="ssr:stedsnr" v="593841" />
	</node>
	<node lat="62.85344721905824" lon="8.222994443054558" id="-3332">
		<tag k="name" v="Håkkåsmyra" />
		<tag k="natural" v="wetland" />
		<tag k="ssr:stedsnr" v="653086" />
	</node>
	<node lat="62.99588055248884" lon="8.053552781892002" id="-3353">
		<tag k="name" v="Lauvsetermyra" />
		<tag k="natural" v="wetland" />
		<tag k="ssr:stedsnr" v="653422" />
	</node>
	<node lat="63.07067778208658" lon="8.125194452375219" id="-3354">
		<tag k="name" v="Langmyra" />
		<tag k="natural" v="wetland" />
		<tag k="ssr:stedsnr" v="653424" />
	</node>
	<node lat="62.99572777909627" lon="8.236055558048438" id="-3366">
		<tag k="name" v="Brenndalsstenan" />
		<tag k="natural" v="stone" />
		<tag k="ssr:stedsnr" v="653755" />
	</node>
	<node lat="63.0238333360041" lon="7.9365250053537455" id="-3383">
		<tag k="name" v="Ratmyra" />
		<tag k="natural" v="wetland" />
		<tag k="ssr:stedsnr" v="713722" />
	</node>
	<node lat="62.87670555976069" lon="8.178683341565817" id="-3390">
		<tag k="name" v="Sandbakkmyra" />
		<tag k="natural" v="wetland" />
		<tag k="ssr:stedsnr" v="714082" />
	</node>
	<node lat="62.94479444808591" lon="8.155877772527186" id="-3473">
		<tag k="name" v="Litllimyra" />
		<tag k="natural" v="wetland" />
		<tag k="ssr:stedsnr" v="774500" />
	</node>
	<node lat="62.932075002105364" lon="8.26688889734865" id="-3481">
		<tag k="name" v="Gammelgeilen" />
		<tag k="place" v="locality" />
		<tag k="ssr:stedsnr" v="775084" />
	</node>
	<node lat="62.89604444534679" lon="8.256988892574494" id="-3488">
		<tag k="name" v="Grytsteinen" />
		<tag k="natural" v="stone" />
		<tag k="ssr:stedsnr" v="775290" />
	</node>
	<node lat="62.82720833384299" lon="8.227830553289602" id="-3497">
		<tag k="name" v="Stormyra" />
		<tag k="natural" v="wetland" />
		<tag k="ssr:stedsnr" v="775883" />
	</node>
	<node lat="63.09352499745996" lon="7.980263898312276" id="-3543">
=======
	<node id="-82945" lat="63.0935249975" lon="7.98026389831">
>>>>>>> e1d4bc35ff8a6074a6f2e91616a996b547c36f15
		<tag k="name" v="Bellora" />
		<tag k="natural" v="scree" />
		<tag k="ssr:stedsnr" v="835323" />
	</node>
<<<<<<< HEAD
	<node lat="63.02222500398695" lon="8.009247218599642" id="-3544">
		<tag k="name" v="Halsmyra" />
		<tag k="natural" v="wetland" />
		<tag k="ssr:stedsnr" v="835413" />
	</node>
	<node lat="63.03252222168663" lon="8.094599999246649" id="-3560">
		<tag k="name" v="Trømyra" />
		<tag k="natural" v="wetland" />
		<tag k="ssr:stedsnr" v="836238" />
	</node>
	<node lat="62.982097224854385" lon="8.224291662394027" id="-3571">
		<tag k="name" v="Slettmyra" />
		<tag k="natural" v="wetland" />
		<tag k="ssr:stedsnr" v="836743" />
	</node>
	<node lat="62.82220555365316" lon="8.28796111961333" id="-3573">
		<tag k="name" v="Råmyra" />
		<tag k="natural" v="wetland" />
		<tag k="ssr:stedsnr" v="836757" />
	</node>
	<node lat="62.948805552337106" lon="8.174483330302326" id="-3620">
		<tag k="name" v="Gammel-Pemyra" />
		<tag k="natural" v="wetland" />
		<tag k="ssr:stedsnr" v="956499" />
	</node>
	<node lat="62.932755559471595" lon="8.2857666625713" id="-3631">
		<tag k="name" v="Båtnesgeilen" />
		<tag k="place" v="locality" />
		<tag k="ssr:stedsnr" v="957091" />
	</node>
	<node lat="62.84114444432447" lon="8.229461106962274" id="-3644">
		<tag k="name" v="Stormyra" />
		<tag k="natural" v="wetland" />
		<tag k="ssr:stedsnr" v="957881" />
	</node>
	<node lat="62.84306388996094" lon="8.301216673906563" id="-3653">
		<tag k="name" v="Ner Myran" />
		<tag k="natural" v="wetland" />
		<tag k="ssr:stedsnr" v="957982" />
	</node>
	<node lat="62.83294901033807" lon="8.219324727951841" id="-3678">
		<tag k="name" v="Nyhjelldalsmyra" />
		<tag k="natural" v="wetland" />
		<tag k="ssr:stedsnr" v="1073109" />
	</node>
=======
>>>>>>> e1d4bc35ff8a6074a6f2e91616a996b547c36f15
</osm>
