<?xml version="1.0" encoding="UTF-8"?>
<<<<<<< HEAD
<osm version="0.6" generator="osmapis">
	<node lat="62.83495277717151" lon="8.299080550656198" id="-1733">
		<tag k="name" v="Nistua" />
		<tag k="place" v="farm" />
		<tag k="ssr:stedsnr" v="229964" />
	</node>
	<node lat="62.827700002718636" lon="8.341452776879999" id="-1739">
		<tag k="name" v="Lia" />
		<tag k="place" v="farm" />
		<tag k="ssr:stedsnr" v="12325" />
	</node>
	<node lat="62.87732498001541" lon="8.19580377532603" id="-1740">
		<tag k="fixme" v="consider place=hamlet" />
		<tag k="name" v="Hafella" />
		<tag k="place" v="farm" />
		<tag k="ssr:stedsnr" v="12507" />
	</node>
	<node lat="62.966286115428666" lon="8.231097216239066" id="-1743">
		<tag k="alt_name" v="Nerland" />
		<tag k="name" v="Nordland" />
		<tag k="place" v="farm" />
		<tag k="ssr:stedsnr" v="12668" />
	</node>
	<node lat="62.96774139433963" lon="8.2416780928466" id="-1744">
		<tag k="fixme" v="consider place=hamlet" />
		<tag k="name" v="Stølen" />
		<tag k="place" v="farm" />
		<tag k="ssr:stedsnr" v="12670" />
	</node>
	<node lat="62.98971388676957" lon="8.100772230056275" id="-1745">
		<tag k="historic" v="shieling" />
		<tag k="name" v="Vulviksetra" />
		<tag k="place" v="isolated_dwelling" />
		<tag k="ssr:stedsnr" v="12843" />
	</node>
	<node lat="63.00041388882928" lon="8.025713883189715" id="-1751">
		<tag k="name" v="Leikvoll" />
		<tag k="place" v="farm" />
		<tag k="ssr:stedsnr" v="46407" />
	</node>
	<node lat="62.974830554687216" lon="8.25943056293385" id="-1763">
		<tag k="name" v="Nervågen" />
		<tag k="place" v="farm" />
		<tag k="ssr:stedsnr" v="47112" />
	</node>
	<node lat="62.9916980458741" lon="8.03838109009025" id="-1768">
		<tag k="fixme" v="consider place=hamlet" />
		<tag k="name" v="Treekra" />
		<tag k="place" v="farm" />
		<tag k="ssr:stedsnr" v="47471" />
	</node>
	<node lat="62.83078888842706" lon="8.204813885671472" id="-1775">
		<tag k="historic" v="shieling" />
		<tag k="name" v="Rotåssetra" />
		<tag k="place" v="isolated_dwelling" />
		<tag k="ssr:stedsnr" v="47888" />
	</node>
	<node lat="63.02375832951571" lon="7.887897217680822" id="-1776">
		<tag k="name" v="Bøyfoten hyttefelt" />
		<tag k="place" v="neighbourhood" />
		<tag k="ssr:stedsnr" v="239301" />
	</node>
	<node lat="62.9701583372641" lon="8.223875005503853" id="-1778">
		<tag k="name" v="Myran" />
		<tag k="place" v="farm" />
		<tag k="ssr:stedsnr" v="72644" />
	</node>
	<node lat="63.026105559810276" lon="7.983138893869163" id="-1785">
		<tag k="name" v="Skjæret" />
		<tag k="place" v="farm" />
		<tag k="ssr:stedsnr" v="73226" />
	</node>
	<node lat="63.10148486261692" lon="8.062591900899859" id="-1786">
		<tag k="historic" v="shieling" />
		<tag k="name" v="Ossetra" />
		<tag k="place" v="isolated_dwelling" />
		<tag k="ssr:stedsnr" v="73375" />
	</node>
	<node lat="63.06599166786504" lon="7.984408331889946" id="-1801">
		<tag k="name" v="Bøen" />
		<tag k="place" v="farm" />
		<tag k="ssr:stedsnr" v="107926" />
	</node>
	<node lat="62.85592493216508" lon="8.234638420346721" id="-1802">
=======
<osm generator="osmapis" version="0.6">
	<node id="-81919" lat="63.0417880534" lon="8.06476108619">
		<tag k="alt_name" v="Strømsvåg" />
		<tag k="fixme" v="consider place=hamlet" />
		<tag k="name" v="Straumsvågen" />
		<tag k="place" v="farm" />
		<tag k="ssr:stedsnr" v="923277" />
	</node>
	<node id="-81917" lat="63.0548611079" lon="8.01956111073">
		<tag k="name" v="Kleiva" />
		<tag k="place" v="farm" />
		<tag k="ssr:stedsnr" v="923187" />
	</node>
	<node id="-81916" lat="63.0495499984" lon="8.0774888884">
		<tag k="name" v="Vollan" />
		<tag k="place" v="farm" />
		<tag k="ssr:stedsnr" v="923174" />
	</node>
	<node id="-81915" lat="63.0472765729" lon="8.04987929502">
		<tag k="fixme" v="consider place=hamlet" />
		<tag k="name" v="Åsen" />
		<tag k="old_name" v="Aasen" />
		<tag k="place" v="farm" />
		<tag k="ssr:stedsnr" v="923172" />
	</node>
	<node id="-81913" lat="63.0366539433" lon="7.95678163905">
		<tag k="fixme" v="consider place=hamlet" />
		<tag k="name" v="Nastad" />
		<tag k="place" v="farm" />
		<tag k="ssr:stedsnr" v="923159" />
	</node>
	<node id="-81911" lat="62.9912583377" lon="8.0648611061">
		<tag k="historic" v="shieling" />
		<tag k="name" v="Treekersetra" />
		<tag k="place" v="locality" />
		<tag k="ssr:stedsnr" v="922852" />
	</node>
	<node id="-81907" lat="62.9359410922" lon="8.29091955628">
		<tag k="name" v="Strandheim" />
		<tag k="place" v="farm" />
		<tag k="ssr:stedsnr" v="922696" />
	</node>
	<node id="-81904" lat="62.9749944416" lon="8.24298332698">
		<tag k="fixme" v="consider place=hamlet" />
		<tag k="name" v="Torjulvågen" />
		<tag k="place" v="village" />
		<tag k="ssr:stedsnr" v="922635" />
	</node>
	<node id="-81897" lat="63.0217691133" lon="8.0142642059">
		<tag k="name" v="Langset" />
		<tag k="place" v="farm" />
		<tag k="ssr:stedsnr" v="922194" />
	</node>
	<node id="-81896" lat="62.9588034528" lon="8.21325552509">
		<tag k="fixme" v="consider place=hamlet" />
		<tag k="name" v="Vasslia" />
		<tag k="place" v="farm" />
		<tag k="ssr:stedsnr" v="921912" />
	</node>
	<node id="-81895" lat="62.9555267684" lon="8.17265821982">
>>>>>>> e1d4bc35ff8a6074a6f2e91616a996b547c36f15
		<tag k="fixme" v="consider place=hamlet" />
		<tag k="name" v="Ramslia" />
		<tag k="place" v="farm" />
		<tag k="ssr:stedsnr" v="921911" />
	</node>
<<<<<<< HEAD
	<node lat="62.896311112911995" lon="8.207022216501597" id="-1812">
		<tag k="alt_name" v="Saghøgda industriområde" />
		<tag k="name" v="Tingvoll næringspark" />
		<tag k="place" v="quarter" />
		<tag k="ssr:stedsnr" v="118302" />
	</node>
	<node lat="62.99462694676109" lon="7.908157165577535" id="-1814">
		<tag k="fixme" v="consider place=hamlet" />
		<tag k="name" v="Skjevlingen" />
		<tag k="place" v="farm" />
		<tag k="ssr:stedsnr" v="132861" />
	</node>
	<node lat="62.89581666955474" lon="8.33374999166896" id="-1819">
		<tag k="name" v="Haugen" />
		<tag k="place" v="farm" />
		<tag k="ssr:stedsnr" v="133260" />
	</node>
	<node lat="62.826080551861345" lon="8.356249993438096" id="-1820">
		<tag k="name" v="Vollan" />
		<tag k="place" v="farm" />
		<tag k="ssr:stedsnr" v="133275" />
	</node>
	<node lat="63.098104693332225" lon="8.101936793399618" id="-1822">
		<tag k="fixme" v="consider place=hamlet" />
		<tag k="name" v="Li" />
		<tag k="place" v="farm" />
		<tag k="ssr:stedsnr" v="134420" />
	</node>
	<node lat="62.92173888672957" lon="8.229411119043677" id="-1826">
		<tag k="name" v="Solstad" />
		<tag k="place" v="farm" />
		<tag k="ssr:stedsnr" v="254691" />
	</node>
	<node lat="62.96173055493092" lon="8.218991662364385" id="-1828">
		<tag k="name" v="Vollan" />
		<tag k="place" v="farm" />
		<tag k="ssr:stedsnr" v="254647" />
	</node>
	<node lat="62.920477774007125" lon="8.296036112261966" id="-1829">
		<tag k="name" v="Vårtun" />
		<tag k="place" v="farm" />
		<tag k="ssr:stedsnr" v="254699" />
	</node>
	<node lat="62.976274199368035" lon="8.064315255025878" id="-1832">
		<tag k="fixme" v="consider place=hamlet" />
		<tag k="name" v="Vulvika" />
		<tag k="place" v="farm" />
		<tag k="ssr:stedsnr" v="254889" />
	</node>
	<node lat="62.99428055794555" lon="8.120116665112278" id="-1835">
		<tag k="historic" v="shieling" />
		<tag k="name" v="Herresdalssetra" />
		<tag k="place" v="isolated_dwelling" />
		<tag k="ssr:stedsnr" v="254850" />
	</node>
	<node lat="63.03821797074917" lon="7.912994522065459" id="-1836">
		<tag k="fixme" v="consider place=hamlet" />
		<tag k="name" v="Sallaupen" />
		<tag k="place" v="farm" />
		<tag k="ssr:stedsnr" v="255142" />
	</node>
	<node lat="63.032902775024354" lon="8.013022220253973" id="-1844">
		<tag k="alt_name" v="Ulset" />
		<tag k="name" v="Øverhaugen" />
		<tag k="place" v="farm" />
		<tag k="ssr:stedsnr" v="167418" />
	</node>
	<node lat="63.01567222506872" lon="7.897416666561596" id="-1847">
		<tag k="name" v="Hamran" />
		<tag k="place" v="farm" />
		<tag k="ssr:stedsnr" v="167608" />
	</node>
	<node lat="62.88563055723494" lon="8.208658338962625" id="-1855">
		<tag k="name" v="Bønn" />
		<tag k="place" v="isolated_dwelling" />
		<tag k="ssr:stedsnr" v="168167" />
	</node>
	<node lat="62.85691389036682" lon="8.309127787404806" id="-1861">
		<tag k="name" v="Naustan" />
		<tag k="place" v="farm" />
		<tag k="ssr:stedsnr" v="168823" />
	</node>
	<node lat="62.811005552976454" lon="8.272644442049309" id="-1864">
		<tag k="name" v="Hagen" />
		<tag k="place" v="farm" />
		<tag k="ssr:stedsnr" v="168778" />
	</node>
	<node lat="62.910411114059805" lon="8.319974996829528" id="-1869">
		<tag k="name" v="Bølset hytte- og naustområde" />
		<tag k="place" v="neighbourhood" />
		<tag k="ssr:stedsnr" v="179310" />
	</node>
	<node lat="63.06422054428564" lon="7.982704505074561" id="-1870">
		<tag k="name" v="Kvisvika camping" />
		<tag k="ssr:stedsnr" v="179457" />
		<tag k="tourism" v="camp_site" />
	</node>
	<node lat="63.10259444296349" lon="8.048269444728982" id="-1871">
		<tag k="name" v="Saltgjelen hyttefelt" />
		<tag k="place" v="neighbourhood" />
		<tag k="ssr:stedsnr" v="179463" />
	</node>
	<node lat="62.97484444632329" lon="8.228986119566672" id="-1872">
		<tag k="name" v="Sponnåsen" />
		<tag k="place" v="farm" />
		<tag k="ssr:stedsnr" v="262237" />
	</node>
	<node lat="63.091147221624425" lon="7.996872217147911" id="-1873">
		<tag k="fixme" v="consider place=hamlet" />
		<tag k="name" v="Årsund" />
		<tag k="place" v="village" />
		<tag k="ssr:stedsnr" v="195356" />
	</node>
	<node lat="62.80555833706711" lon="8.32453332523553" id="-1874">
		<tag k="name" v="Ytterbakkan" />
		<tag k="place" v="farm" />
		<tag k="ssr:stedsnr" v="195433" />
	</node>
	<node lat="62.96678773203921" lon="8.080720623072978" id="-1888">
		<tag k="fixme" v="consider place=hamlet" />
		<tag k="name" v="Hammaren" />
		<tag k="place" v="farm" />
		<tag k="ssr:stedsnr" v="228810" />
	</node>
	<node lat="62.88761389125451" lon="8.225513887789896" id="-1890">
		<tag k="historic" v="shieling" />
		<tag k="name" v="Stølhaugsetra" />
		<tag k="place" v="isolated_dwelling" />
		<tag k="ssr:stedsnr" v="229009" />
	</node>
	<node lat="62.87705278204339" lon="8.189511102515537" id="-1893">
		<tag k="historic" v="shieling" />
		<tag k="name" v="Ormsetsetra" />
		<tag k="place" v="isolated_dwelling" />
		<tag k="ssr:stedsnr" v="229082" />
	</node>
	<node lat="63.01277222209617" lon="7.971022215217227" id="-1904">
		<tag k="name" v="Einset industriområde" />
		<tag k="place" v="quarter" />
		<tag k="ssr:stedsnr" v="240296" />
	</node>
	<node lat="62.91138055751526" lon="8.208288892410947" id="-1905">
		<tag k="name" v="Midtvågen i Tingvollvågen" />
		<tag k="place" v="quarter" />
		<tag k="ssr:stedsnr" v="240298" />
	</node>
	<node lat="62.932841665743275" lon="8.289413894582422" id="-1910">
		<tag k="name" v="Geilen" />
		<tag k="place" v="farm" />
		<tag k="ssr:stedsnr" v="254679" />
	</node>
	<node lat="63.05202622659321" lon="8.025480407585489" id="-1912">
		<tag k="fixme" v="consider place=hamlet" />
		<tag k="name" v="Grimstad" />
		<tag k="place" v="farm" />
		<tag k="ssr:stedsnr" v="255164" />
	</node>
	<node lat="63.06674444744586" lon="8.13065277267812" id="-1913">
		<tag k="name" v="Sandvika" />
		<tag k="place" v="farm" />
		<tag k="ssr:stedsnr" v="255179" />
	</node>
	<node lat="63.00686111510607" lon="8.085494450447815" id="-1914">
		<tag k="name" v="Eikremsetra" />
		<tag k="place" v="isolated_dwelling" />
		<tag k="ssr:stedsnr" v="255189" />
	</node>
	<node lat="62.87131388985322" lon="8.337961107339197" id="-1916">
		<tag k="name" v="Leirvika" />
		<tag k="place" v="isolated_dwelling" />
		<tag k="ssr:stedsnr" v="255267" />
	</node>
	<node lat="62.8762573905383" lon="8.347181926256352" id="-1917">
		<tag k="fixme" v="consider place=hamlet" />
		<tag k="name" v="Åsprong" />
		<tag k="place" v="farm" />
		<tag k="ssr:stedsnr" v="255277" />
	</node>
	<node lat="62.811969440137595" lon="8.265986113200205" id="-1919">
		<tag k="name" v="Sauvika" />
		<tag k="place" v="farm" />
		<tag k="ssr:stedsnr" v="255417" />
	</node>
	<node lat="62.86995833035141" lon="8.30758611506258" id="-1921">
		<tag k="name" v="Nedre Bruksgrenda" />
		<tag k="place" v="quarter" />
		<tag k="ssr:stedsnr" v="283406" />
	</node>
	<node lat="63.081922225398024" lon="7.976044439084507" id="-1922">
		<tag k="name" v="Jutvika hyttefelt" />
		<tag k="place" v="neighbourhood" />
		<tag k="ssr:stedsnr" v="283410" />
	</node>
	<node lat="63.06948611545312" lon="7.979633342837674" id="-1924">
		<tag k="name" v="Reita" />
		<tag k="place" v="farm" />
		<tag k="ssr:stedsnr" v="288907" />
	</node>
	<node lat="62.87162778147513" lon="8.339350007899544" id="-1954">
		<tag k="name" v="Seterlia" />
		<tag k="place" v="farm" />
		<tag k="ssr:stedsnr" v="292386" />
	</node>
	<node lat="62.91140277527157" lon="8.31926388058029" id="-1955">
		<tag k="name" v="Nyheim hyttefelt" />
		<tag k="place" v="neighbourhood" />
		<tag k="ssr:stedsnr" v="465448" />
	</node>
	<node lat="63.03289721970294" lon="7.9079861066482255" id="-1957">
		<tag k="name" v="Storvika" />
		<tag k="place" v="farm" />
		<tag k="ssr:stedsnr" v="315225" />
	</node>
	<node lat="62.88741111278245" lon="8.225591670260766" id="-1960">
		<tag k="name" v="Nergardssetra" />
		<tag k="place" v="isolated_dwelling" />
		<tag k="ssr:stedsnr" v="316320" />
	</node>
	<node lat="63.071100002982185" lon="8.03856111523591" id="-1963">
		<tag k="historic" v="shieling" />
		<tag k="name" v="Vassellsetra" />
		<tag k="place" v="isolated_dwelling" />
		<tag k="ssr:stedsnr" v="471425" />
	</node>
	<node lat="63.066499998655615" lon="7.988338880004325" id="-1966">
		<tag k="fixme" v="consider place=hamlet" />
		<tag k="name" v="Kvisvik" />
		<tag k="place" v="village" />
		<tag k="ssr:stedsnr" v="471223" />
	</node>
	<node lat="62.897458336520515" lon="8.227366674343072" id="-1970">
		<tag k="historic" v="shieling" />
		<tag k="name" v="Gløtten" />
		<tag k="place" v="isolated_dwelling" />
		<tag k="ssr:stedsnr" v="471322" />
	</node>
	<node lat="63.016552774128755" lon="8.042574998766991" id="-1971">
		<tag k="historic" v="shieling" />
		<tag k="name" v="Melsåssetra" />
		<tag k="place" v="isolated_dwelling" />
		<tag k="ssr:stedsnr" v="471387" />
	</node>
	<node lat="63.0013499977855" lon="8.016941672661066" id="-1988">
		<tag k="name" v="Halten" />
		<tag k="place" v="farm" />
		<tag k="ssr:stedsnr" v="472378" />
	</node>
	<node lat="63.09086389114798" lon="8.111952780887108" id="-2017">
		<tag k="name" v="Rakstang" />
		<tag k="place" v="hamlet" />
		<tag k="ssr:stedsnr" v="349365" />
	</node>
	<node lat="62.880219444404446" lon="8.215747220333858" id="-2026">
		<tag k="name" v="Negarden" />
		<tag k="place" v="farm" />
		<tag k="ssr:stedsnr" v="350162" />
	</node>
	<node lat="62.960138887780644" lon="8.213994447345065" id="-2028">
		<tag k="name" v="Gammelgarden" />
		<tag k="place" v="farm" />
		<tag k="ssr:stedsnr" v="350608" />
	</node>
	<node lat="62.903124999607314" lon="8.298655548744595" id="-2038">
		<tag k="historic" v="shieling" />
		<tag k="name" v="Bølsetsetra" />
		<tag k="place" v="isolated_dwelling" />
		<tag k="ssr:stedsnr" v="375723" />
	</node>
	<node lat="63.07869664630371" lon="7.978492379015898" id="-2043">
		<tag k="fixme" v="consider place=hamlet" />
		<tag k="name" v="Skaret" />
		<tag k="place" v="farm" />
		<tag k="ssr:stedsnr" v="376183" />
	</node>
	<node lat="63.074538889559136" lon="7.974024996096947" id="-2045">
		<tag k="name" v="Stabbursvika" />
		<tag k="place" v="farm" />
		<tag k="ssr:stedsnr" v="376185" />
	</node>
	<node lat="62.88164510538498" lon="8.216985410641641" id="-2052">
		<tag k="fixme" v="consider place=hamlet" />
		<tag k="name" v="Stølan" />
		<tag k="place" v="farm" />
		<tag k="ssr:stedsnr" v="376516" />
	</node>
	<node lat="63.10294444884098" lon="8.040950007825984" id="-2063">
		<tag k="name" v="Saltgjelen" />
		<tag k="place" v="farm" />
		<tag k="ssr:stedsnr" v="411297" />
	</node>
	<node lat="62.99380833241451" lon="8.032130562958937" id="-2066">
		<tag k="name" v="Gjelen" />
		<tag k="place" v="farm" />
		<tag k="ssr:stedsnr" v="411444" />
	</node>
	<node lat="62.81122584041507" lon="8.337853668159147" id="-2071">
		<tag k="alt_name" v="Havdalen" />
		<tag k="fixme" v="consider place=hamlet" />
		<tag k="name" v="Havdal" />
		<tag k="place" v="farm" />
		<tag k="ssr:stedsnr" v="411841" />
	</node>
	<node lat="62.91860555241222" lon="8.204852782095905" id="-2072">
		<tag k="name" v="Holan" />
		<tag k="place" v="farm" />
		<tag k="ssr:stedsnr" v="411792" />
	</node>
	<node lat="62.85168333431609" lon="8.284383332925238" id="-2074">
		<tag k="name" v="Myra" />
		<tag k="place" v="farm" />
		<tag k="ssr:stedsnr" v="411935" />
	</node>
	<node lat="63.06606110980316" lon="8.002208333967499" id="-2079">
		<tag k="name" v="Årsund" />
		<tag k="place" v="quarter" />
		<tag k="ssr:stedsnr" v="423305" />
	</node>
	<node lat="62.90600387695148" lon="8.201563881094067" id="-2092">
		<tag k="fixme" v="consider place=hamlet" />
		<tag k="name" v="Svortdal" />
		<tag k="place" v="farm" />
		<tag k="ssr:stedsnr" v="471308" />
	</node>
	<node lat="63.058205559204445" lon="8.105988888910705" id="-2098">
		<tag k="name" v="Litlhankarhaugen" />
		<tag k="place" v="farm" />
		<tag k="ssr:stedsnr" v="471279" />
	</node>
	<node lat="62.957510018001805" lon="8.331479978921179" id="-2108">
		<tag k="fixme" v="consider place=hamlet" />
		<tag k="name" v="Aksnes" />
		<tag k="place" v="farm" />
		<tag k="ssr:stedsnr" v="472011" />
	</node>
	<node lat="62.883086114372475" lon="8.21150278060904" id="-2110">
		<tag k="name" v="Stølhaugen" />
		<tag k="place" v="farm" />
		<tag k="ssr:stedsnr" v="472176" />
	</node>
	<node lat="62.82906666580713" lon="8.296686116521185" id="-2116">
		<tag k="name" v="Lunde" />
		<tag k="place" v="farm" />
		<tag k="ssr:stedsnr" v="472963" />
	</node>
	<node lat="62.919080551170666" lon="8.29230832496564" id="-2118">
		<tag k="name" v="Breivika hyttefelt" />
		<tag k="place" v="neighbourhood" />
		<tag k="ssr:stedsnr" v="482304" />
	</node>
	<node lat="63.088741670339175" lon="7.985408335903008" id="-2119">
		<tag k="name" v="Årsund Vest hyttefelt" />
		<tag k="place" v="neighbourhood" />
		<tag k="ssr:stedsnr" v="482315" />
	</node>
	<node lat="62.99278888605539" lon="8.255863886482162" id="-2120">
		<tag k="name" v="Vikavollen hyttefelt" />
		<tag k="place" v="neighbourhood" />
		<tag k="ssr:stedsnr" v="482317" />
	</node>
	<node lat="62.949347224662844" lon="8.135874998737425" id="-2121">
		<tag k="name" v="Lerkebakken" />
		<tag k="place" v="quarter" />
		<tag k="ssr:stedsnr" v="483319" />
	</node>
	<node lat="62.90064999830275" lon="8.224119436453005" id="-2123">
		<tag k="historic" v="shieling" />
		<tag k="name" v="Rimstadsetra" />
		<tag k="place" v="isolated_dwelling" />
		<tag k="ssr:stedsnr" v="679260" />
	</node>
	<node lat="62.8521500042801" lon="8.289380560527805" id="-2124">
		<tag k="fixme" v="consider place=hamlet" />
		<tag k="name" v="Meisingset" />
		<tag k="place" v="village" />
		<tag k="ssr:stedsnr" v="679330" />
	</node>
	<node lat="63.10178055717048" lon="8.03000833243429" id="-2125">
		<tag k="name" v="Finnvika" />
		<tag k="place" v="farm" />
		<tag k="ssr:stedsnr" v="679331" />
	</node>
	<node lat="62.929160242325494" lon="8.260167465657734" id="-2128">
		<tag k="fixme" v="consider place=hamlet" />
		<tag k="name" v="Storset" />
		<tag k="place" v="farm" />
		<tag k="ssr:stedsnr" v="679690" />
	</node>
	<node lat="62.92334166550661" lon="8.280113891587128" id="-2129">
		<tag k="name" v="Vollan" />
		<tag k="place" v="farm" />
		<tag k="ssr:stedsnr" v="679701" />
	</node>
	<node lat="63.003291997825535" lon="7.894598640085276" id="-2134">
		<tag k="fixme" v="consider place=hamlet" />
		<tag k="name" v="Sunnmørsvika" />
		<tag k="place" v="farm" />
		<tag k="ssr:stedsnr" v="680214" />
	</node>
	<node lat="62.81298339997615" lon="8.257308029051558" id="-2137">
		<tag k="fixme" v="consider place=hamlet" />
		<tag k="name" v="Stomsvika" />
		<tag k="place" v="farm" />
		<tag k="ssr:stedsnr" v="680463" />
	</node>
	<node lat="62.81497010242642" lon="8.346270341479824" id="-2138">
		<tag k="name" v="Einbu" />
		<tag k="place" v="locality" />
		<tag k="ssr:stedsnr" v="680464" />
	</node>
	<node lat="63.030180554142" lon="7.9037583358823476" id="-2141">
		<tag k="name" v="Tuvika" />
		<tag k="place" v="farm" />
		<tag k="ssr:stedsnr" v="497213" />
	</node>
	<node lat="63.0330388850815" lon="8.010016661545816" id="-2142">
		<tag k="name" v="Ulset" />
		<tag k="place" v="farm" />
		<tag k="ssr:stedsnr" v="497219" />
	</node>
	<node lat="62.86613323921575" lon="8.300030806491026" id="-2143">
		<tag k="fixme" v="consider place=hamlet" />
		<tag k="name" v="Jøvika" />
		<tag k="place" v="farm" />
		<tag k="ssr:stedsnr" v="497251" />
	</node>
	<node lat="62.98787169643578" lon="8.248133796142943" id="-2145">
		<tag k="alt_name" v="Nordbø" />
		<tag k="fixme" v="consider place=hamlet" />
		<tag k="name" v="Nordbøen" />
		<tag k="place" v="farm" />
		<tag k="ssr:stedsnr" v="497623" />
	</node>
	<node lat="62.92999147005811" lon="8.240124637344838" id="-2147">
		<tag k="fixme" v="consider place=hamlet" />
		<tag k="name" v="Tørrlenda" />
		<tag k="place" v="farm" />
		<tag k="ssr:stedsnr" v="497694" />
	</node>
	<node lat="63.03977951771494" lon="8.049100497845208" id="-2149">
		<tag k="name" v="Midttun" />
		<tag k="place" v="farm" />
		<tag k="ssr:stedsnr" v="498300" />
	</node>
	<node lat="63.10551388800401" lon="8.051302785806428" id="-2150">
		<tag k="name" v="Vika" />
		<tag k="place" v="farm" />
		<tag k="ssr:stedsnr" v="498428" />
	</node>
	<node lat="62.92092777430447" lon="8.204466675695484" id="-2153">
		<tag k="name" v="Reitan" />
		<tag k="place" v="quarter" />
		<tag k="ssr:stedsnr" v="510459" />
	</node>
	<node lat="62.89040277779057" lon="8.33277221803638" id="-2154">
		<tag k="name" v="Røttingsnes" />
		<tag k="place" v="farm" />
		<tag k="ssr:stedsnr" v="521406" />
	</node>
	<node lat="63.032986108730235" lon="8.010055552986229" id="-2161">
		<tag k="name" v="Garden" />
		<tag k="place" v="farm" />
		<tag k="ssr:stedsnr" v="531398" />
	</node>
	<node lat="63.01167222095374" lon="7.905086106036653" id="-2162">
		<tag k="name" v="Brekka" />
		<tag k="place" v="farm" />
		<tag k="ssr:stedsnr" v="531608" />
	</node>
	<node lat="63.00688055484513" lon="7.998275003144692" id="-2165">
		<tag k="name" v="Solhaug" />
		<tag k="place" v="farm" />
		<tag k="ssr:stedsnr" v="531733" />
	</node>
	<node lat="62.94282777778498" lon="8.292961114785408" id="-2169">
		<tag k="leisure" v="pitch" />
		<tag k="name" v="Nylykkja" />
		<tag k="ssr:stedsnr" v="532226" />
	</node>
	<node lat="62.9516111110777" lon="8.282508339323286" id="-2170">
		<tag k="historic" v="shieling" />
		<tag k="name" v="Gammelsetra" />
		<tag k="place" v="isolated_dwelling" />
		<tag k="ssr:stedsnr" v="532229" />
	</node>
	<node lat="63.00169166865808" lon="8.023547225423133" id="-2174">
		<tag k="name" v="Oppistua" />
		<tag k="place" v="farm" />
		<tag k="ssr:stedsnr" v="532381" />
	</node>
	<node lat="63.01760278010518" lon="8.004786103604957" id="-2180">
		<tag k="name" v="Nes" />
		<tag k="place" v="farm" />
		<tag k="ssr:stedsnr" v="532719" />
	</node>
	<node lat="62.95541944002743" lon="8.186611115101588" id="-2185">
		<tag k="historic" v="shieling" />
		<tag k="name" v="Johansetra" />
		<tag k="place" v="isolated_dwelling" />
		<tag k="ssr:stedsnr" v="532669" />
	</node>
	<node lat="63.013833454728626" lon="8.179971840510069" id="-2192">
		<tag k="historic" v="shieling" />
		<tag k="name" v="Fløystadsetra" />
		<tag k="place" v="isolated_dwelling" />
		<tag k="ssr:stedsnr" v="688591" />
	</node>
	<node lat="62.81316388849088" lon="8.2918111121221" id="-2193">
		<tag k="historic" v="shieling" />
		<tag k="name" v="Fjøseidsetra" />
		<tag k="place" v="isolated_dwelling" />
		<tag k="ssr:stedsnr" v="688608" />
	</node>
	<node lat="62.91744096948293" lon="8.296736487235883" id="-2196">
		<tag k="fixme" v="consider place=hamlet" />
		<tag k="name" v="Breivika" />
		<tag k="place" v="farm" />
		<tag k="ssr:stedsnr" v="557718" />
	</node>
	<node lat="62.92255882594764" lon="8.199509314912616" id="-2197">
		<tag k="fixme" v="consider place=hamlet" />
		<tag k="name" v="Reitan" />
		<tag k="place" v="farm" />
		<tag k="ssr:stedsnr" v="557951" />
	</node>
	<node lat="62.83274721786495" lon="8.310088897565402" id="-2200">
		<tag k="name" v="Lauvlia" />
		<tag k="place" v="farm" />
		<tag k="ssr:stedsnr" v="558343" />
	</node>
	<node lat="63.0387083328987" lon="8.055591668192832" id="-2204">
		<tag k="name" v="Bakken" />
		<tag k="place" v="farm" />
		<tag k="ssr:stedsnr" v="558256" />
	</node>
	<node lat="62.86934444641438" lon="8.389647214608841" id="-2205">
		<tag k="name" v="Sandnessetra" />
		<tag k="place" v="locality" />
		<tag k="ssr:stedsnr" v="691246" />
	</node>
	<node lat="62.83088333305758" lon="8.304872216195548" id="-2206">
		<tag k="loc_name" v="Skard" />
		<tag k="name" v="Skar" />
		<tag k="place" v="hamlet" />
		<tag k="ssr:stedsnr" v="693560" />
	</node>
	<node lat="63.01598889111309" lon="8.001863886745317" id="-2207">
		<tag k="name" v="Vika" />
		<tag k="place" v="quarter" />
		<tag k="ssr:stedsnr" v="586459" />
	</node>
	<node lat="62.975611108356674" lon="8.125008340443054" id="-2216">
		<tag k="historic" v="shieling" />
		<tag k="name" v="Gylsetra" />
		<tag k="place" v="isolated_dwelling" />
		<tag k="ssr:stedsnr" v="592458" />
	</node>
	<node lat="62.953644442981506" lon="8.133363891312303" id="-2219">
		<tag k="name" v="Bruvollen" />
		<tag k="place" v="farm" />
		<tag k="ssr:stedsnr" v="592505" />
	</node>
	<node lat="62.81078611122736" lon="8.268741659468965" id="-2224">
		<tag k="name" v="Vikan" />
		<tag k="place" v="farm" />
		<tag k="ssr:stedsnr" v="592823" />
	</node>
	<node lat="62.90483055738797" lon="8.322838894297774" id="-2246">
		<tag k="fixme" v="multiple name tags, choose one and add the other to alt_name" />
		<tag k="name" v="Myran;Myra" />
		<tag k="place" v="farm" />
		<tag k="ssr:stedsnr" v="618282" />
	</node>
	<node lat="63.02954981632639" lon="8.106181978764369" id="-2247">
		<tag k="fixme" v="consider place=hamlet" />
		<tag k="name" v="Vatn" />
		<tag k="place" v="farm" />
		<tag k="ssr:stedsnr" v="618193" />
	</node>
	<node lat="63.080470771432985" lon="8.128618379020404" id="-2248">
		<tag k="fixme" v="consider place=hamlet" />
		<tag k="name" v="Hals" />
		<tag k="place" v="farm" />
		<tag k="ssr:stedsnr" v="618304" />
	</node>
	<node lat="62.971808331689324" lon="8.229827777776931" id="-2251">
		<tag k="name" v="Tuvteigen" />
		<tag k="place" v="farm" />
		<tag k="ssr:stedsnr" v="618645" />
	</node>
	<node lat="62.97706388474225" lon="8.12720278773853" id="-2252">
		<tag k="historic" v="shieling" />
		<tag k="name" v="Gylsetra" />
		<tag k="place" v="isolated_dwelling" />
		<tag k="ssr:stedsnr" v="618886" />
	</node>
	<node lat="63.0440861136025" lon="8.064177774471304" id="-2255">
		<tag k="fixme" v="multiple name tags, choose one and add the other to alt_name" />
		<tag k="name" v="Haugen;Hauan" />
		<tag k="place" v="farm" />
		<tag k="ssr:stedsnr" v="619274" />
	</node>
	<node lat="63.070355556436034" lon="8.011877784336944" id="-2258">
		<tag k="name" v="Kvisviksetra" />
		<tag k="place" v="isolated_dwelling" />
		<tag k="ssr:stedsnr" v="627604" />
	</node>
	<node lat="62.913205559022735" lon="8.2137499981885" id="-2261">
		<tag k="name" v="Koksvikgeilen" />
		<tag k="place" v="quarter" />
		<tag k="ssr:stedsnr" v="646428" />
	</node>
	<node lat="62.82303333215183" lon="8.224969448682554" id="-2268">
		<tag k="name" v="Solås" />
		<tag k="place" v="farm" />
		<tag k="ssr:stedsnr" v="653104" />
	</node>
	<node lat="63.01729424177356" lon="7.9854867694049645" id="-2280">
		<tag k="alt_name" v="Norstrand" />
		<tag k="name" v="Nordstrand" />
		<tag k="place" v="farm" />
		<tag k="ssr:stedsnr" v="653738" />
	</node>
	<node lat="62.84940833619471" lon="8.290361117308636" id="-2284">
		<tag k="amenity" v="school" />
		<tag k="name" v="Skole" />
		<tag k="ssr:stedsnr" v="653944" />
	</node>
	<node lat="62.95378844297545" lon="8.315590160407298" id="-2295">
		<tag k="fixme" v="consider place=hamlet" />
		<tag k="name" v="Strupstad" />
		<tag k="place" v="farm" />
		<tag k="ssr:stedsnr" v="679668" />
	</node>
	<node lat="62.94845295554257" lon="8.135858153808503" id="-2296">
		<tag k="fixme" v="consider place=hamlet" />
		<tag k="name" v="Sandvika" />
		<tag k="place" v="farm" />
		<tag k="ssr:stedsnr" v="679925" />
	</node>
	<node lat="62.826478897034804" lon="8.221051673628024" id="-2299">
		<tag k="fixme" v="consider place=hamlet" />
		<tag k="name" v="Rottås" />
=======
	<node id="-81882" lat="63.0316444466" lon="8.12195277512">
		<tag k="name" v="Solbakken" />
		<tag k="place" v="farm" />
		<tag k="ssr:stedsnr" v="775253" />
	</node>
	<node id="-81878" lat="62.8622750009" lon="8.19405000404">
		<tag k="historic" v="shieling" />
		<tag k="name" v="Gjørsviksetra" />
		<tag k="place" v="locality" />
		<tag k="ssr:stedsnr" v="775065" />
	</node>
	<node id="-81870" lat="63.0520916635" lon="8.11820556475">
		<tag k="name" v="Skogstad" />
		<tag k="place" v="farm" />
		<tag k="ssr:stedsnr" v="774318" />
	</node>
	<node id="-81860" lat="62.8448542899" lon="8.25895581503">
		<tag k="name" v="Toskå" />
		<tag k="place" v="isolated_dwelling" />
		<tag k="ssr:stedsnr" v="748509" />
	</node>
	<node id="-81858" lat="62.8866472236" lon="8.19644444157">
		<tag k="name" v="Hjellan" />
		<tag k="place" v="farm" />
		<tag k="ssr:stedsnr" v="740976" />
	</node>
	<node id="-81856" lat="62.9243786119" lon="8.18697038459">
		<tag k="fixme" v="consider place=hamlet" />
		<tag k="name" v="Tingvollia" />
		<tag k="place" v="farm" />
		<tag k="ssr:stedsnr" v="740957" />
	</node>
	<node id="-81855" lat="62.9235972191" lon="8.27729167047">
		<tag k="name" v="Brekka" />
		<tag k="place" v="farm" />
		<tag k="ssr:stedsnr" v="740718" />
	</node>
	<node id="-81853" lat="62.8042416625" lon="8.32550278696">
		<tag k="name" v="Innerbakkan" />
		<tag k="place" v="farm" />
		<tag k="ssr:stedsnr" v="740382" />
	</node>
	<node id="-81852" lat="62.8596249999" lon="8.35838333749">
		<tag k="name" v="Åsprongsetra" />
		<tag k="place" v="isolated_dwelling" />
		<tag k="ssr:stedsnr" v="740360" />
	</node>
	<node id="-81847" lat="62.8264444408" lon="8.2935916687">
		<tag k="name" v="Hjellen" />
		<tag k="place" v="farm" />
		<tag k="ssr:stedsnr" v="740319" />
	</node>
	<node id="-81840" lat="62.8298805568" lon="8.30786666466">
		<tag k="name" v="Oppistua" />
		<tag k="place" v="farm" />
		<tag k="ssr:stedsnr" v="897978" />
	</node>
	<node id="-81823" lat="63.0014055546" lon="8.05643055279">
		<tag k="historic" v="shieling" />
		<tag k="name" v="Nersetra" />
		<tag k="place" v="locality" />
		<tag k="ssr:stedsnr" v="897109" />
	</node>
	<node id="-81816" lat="63.0668111084" lon="8.00067500768">
		<tag k="name" v="Myren" />
		<tag k="place" v="farm" />
		<tag k="ssr:stedsnr" v="896986" />
	</node>
	<node id="-81805" lat="63.0730166694" lon="8.10997776799">
		<tag k="historic" v="shieling" />
		<tag k="name" v="Halssetra" />
		<tag k="place" v="locality" />
		<tag k="ssr:stedsnr" v="896466" />
	</node>
	<node id="-81803" lat="63.0010416635" lon="8.02262778708">
		<tag k="name" v="Nistua" />
		<tag k="place" v="farm" />
		<tag k="ssr:stedsnr" v="896417" />
	</node>
	<node id="-81802" lat="62.9024611108" lon="8.182472219">
		<tag k="name" v="Nausthaugen" />
		<tag k="place" v="farm" />
		<tag k="ssr:stedsnr" v="896368" />
	</node>
	<node id="-81801" lat="62.9006611077" lon="8.17927777612">
		<tag k="name" v="Ånesmyra" />
		<tag k="place" v="farm" />
		<tag k="ssr:stedsnr" v="896366" />
	</node>
	<node id="-81790" lat="63.0490694434" lon="8.08375833811">
		<tag k="name" v="Skogen" />
		<tag k="place" v="farm" />
		<tag k="ssr:stedsnr" v="896267" />
	</node>
	<node id="-81789" lat="63.0546583312" lon="8.03286666409">
		<tag k="name" v="Saghaugen" />
		<tag k="place" v="farm" />
		<tag k="ssr:stedsnr" v="896262" />
	</node>
	<node id="-81784" lat="63.000572226" lon="8.01039721406">
		<tag k="name" v="Brevik" />
		<tag k="place" v="farm" />
		<tag k="ssr:stedsnr" v="715422" />
	</node>
	<node id="-81779" lat="62.9558416703" lon="8.11805556241">
		<tag k="name" v="Gylvikan" />
		<tag k="place" v="farm" />
		<tag k="ssr:stedsnr" v="714756" />
	</node>
	<node id="-81769" lat="63.0382166671" lon="8.04223889088">
		<tag k="name" v="Bytås" />
		<tag k="place" v="farm" />
		<tag k="ssr:stedsnr" v="713395" />
	</node>
	<node id="-81767" lat="62.9860065259" lon="8.24589570631">
		<tag k="fixme" v="consider place=hamlet" />
		<tag k="name" v="Torjul" />
		<tag k="place" v="farm" />
		<tag k="ssr:stedsnr" v="713010" />
	</node>
	<node id="-81764" lat="62.8308833331" lon="8.3048722162">
		<tag k="loc_name" v="Skard" />
		<tag k="name" v="Skar" />
		<tag k="place" v="hamlet" />
		<tag k="ssr:stedsnr" v="693560" />
	</node>
	<node id="-81763" lat="62.8131638885" lon="8.29181111212">
		<tag k="historic" v="shieling" />
		<tag k="name" v="Fjøseidsetra" />
		<tag k="place" v="locality" />
		<tag k="ssr:stedsnr" v="688608" />
	</node>
	<node id="-81761" lat="62.8129834" lon="8.25730802905">
		<tag k="fixme" v="consider place=hamlet" />
		<tag k="name" v="Stomsvika" />
		<tag k="place" v="farm" />
		<tag k="ssr:stedsnr" v="680463" />
	</node>
	<node id="-81760" lat="62.826478897" lon="8.22105167363">
		<tag k="fixme" v="consider place=hamlet" />
		<tag k="name" v="Rottås" />
		<tag k="place" v="farm" />
		<tag k="ssr:stedsnr" v="680363" />
	</node>
	<node id="-81757" lat="62.953788443" lon="8.31559016041">
		<tag k="fixme" v="consider place=hamlet" />
		<tag k="name" v="Strupstad" />
		<tag k="place" v="farm" />
		<tag k="ssr:stedsnr" v="679668" />
	</node>
	<node id="-81755" lat="62.9006499983" lon="8.22411943645">
		<tag k="historic" v="shieling" />
		<tag k="name" v="Rimstadsetra" />
		<tag k="place" v="locality" />
		<tag k="ssr:stedsnr" v="679260" />
	</node>
	<node id="-81754" lat="62.9092833313" lon="8.20730277636">
		<tag k="name" v="Kaibakken" />
		<tag k="place" v="quarter" />
		<tag k="ssr:stedsnr" v="665329" />
	</node>
	<node id="-81750" lat="62.8494083362" lon="8.29036111731">
		<tag k="amenity" v="school" />
		<tag k="name" v="Skole" />
		<tag k="ssr:stedsnr" v="653944" />
	</node>
	<node id="-81733" lat="62.8230333322" lon="8.22496944868">
		<tag k="name" v="Solås" />
		<tag k="place" v="farm" />
		<tag k="ssr:stedsnr" v="653104" />
	</node>
	<node id="-81730" lat="62.913205559" lon="8.21374999819">
		<tag k="name" v="Koksvikgeilen" />
		<tag k="place" v="quarter" />
		<tag k="ssr:stedsnr" v="646428" />
	</node>
	<node id="-81729" lat="63.0443916665" lon="7.97085555489">
		<tag k="name" v="Nålsund grusuttak" />
		<tag k="place" v="quarter" />
		<tag k="ssr:stedsnr" v="646425" />
	</node>
	<node id="-81727" lat="63.0668611144" lon="7.99487777098">
		<tag k="name" v="Kvisvik Øst" />
		<tag k="place" v="quarter" />
		<tag k="ssr:stedsnr" v="726326" />
	</node>
	<node id="-81726" lat="62.9616166673" lon="8.21927222435">
		<tag k="name" v="Vollan hyttefelt" />
		<tag k="place" v="neighbourhood" />
		<tag k="ssr:stedsnr" v="726322" />
	</node>
	<node id="-81723" lat="62.9718083317" lon="8.22982777778">
		<tag k="name" v="Tuvteigen" />
>>>>>>> e1d4bc35ff8a6074a6f2e91616a996b547c36f15
		<tag k="place" v="farm" />
		<tag k="ssr:stedsnr" v="680363" />
	</node>
<<<<<<< HEAD
	<node lat="62.90066110772358" lon="8.179277776118271" id="-2308">
		<tag k="name" v="Ånesmyra" />
		<tag k="place" v="farm" />
		<tag k="ssr:stedsnr" v="896366" />
	</node>
	<node lat="62.90246111075692" lon="8.182472219000138" id="-2309">
		<tag k="name" v="Nausthaugen" />
		<tag k="place" v="farm" />
		<tag k="ssr:stedsnr" v="896368" />
	</node>
	<node lat="63.001041663490376" lon="8.022627787083643" id="-2310">
		<tag k="name" v="Nistua" />
=======
	<node id="-81722" lat="62.8654722246" lon="8.26372500357">
		<tag k="historic" v="shieling" />
		<tag k="name" v="Nygardssetra" />
		<tag k="place" v="locality" />
		<tag k="ssr:stedsnr" v="618221" />
	</node>
	<node id="-81718" lat="62.8819583319" lon="8.30074722148">
		<tag k="historic" v="shieling" />
		<tag k="name" v="Gjøviklisetra" />
		<tag k="place" v="locality" />
		<tag k="ssr:stedsnr" v="715655" />
	</node>
	<node id="-81708" lat="62.8038527741" lon="8.3253083309">
		<tag k="name" v="Solbakken" />
>>>>>>> e1d4bc35ff8a6074a6f2e91616a996b547c36f15
		<tag k="place" v="farm" />
		<tag k="ssr:stedsnr" v="896417" />
	</node>
<<<<<<< HEAD
	<node lat="63.07301666943438" lon="8.109977767993959" id="-2315">
=======
	<node id="-81698" lat="62.9899888854" lon="8.12777778179">
>>>>>>> e1d4bc35ff8a6074a6f2e91616a996b547c36f15
		<tag k="historic" v="shieling" />
		<tag k="name" v="Halssetra" />
		<tag k="place" v="isolated_dwelling" />
		<tag k="ssr:stedsnr" v="896466" />
	</node>
<<<<<<< HEAD
	<node lat="63.01581388691585" lon="7.901758325833278" id="-2318">
		<tag k="name" v="Nedre Aspa" />
=======
	<node id="-81687" lat="62.8790611127" lon="8.21583332621">
		<tag k="name" v="Innerstølan" />
>>>>>>> e1d4bc35ff8a6074a6f2e91616a996b547c36f15
		<tag k="place" v="farm" />
		<tag k="ssr:stedsnr" v="896602" />
	</node>
<<<<<<< HEAD
	<node lat="63.066811108412814" lon="8.00067500768268" id="-2330">
		<tag k="name" v="Myren" />
		<tag k="place" v="farm" />
		<tag k="ssr:stedsnr" v="896986" />
	</node>
	<node lat="62.82988055684639" lon="8.307866664663388" id="-2343">
		<tag k="name" v="Oppistua" />
		<tag k="place" v="farm" />
		<tag k="ssr:stedsnr" v="897978" />
	</node>
	<node lat="62.88598159030207" lon="8.194099897712373" id="-2350">
=======
	<node id="-81681" lat="62.9611305587" lon="8.26004443723">
		<tag k="historic" v="shieling" />
		<tag k="name" v="Vågasetra" />
		<tag k="place" v="locality" />
		<tag k="ssr:stedsnr" v="714096" />
	</node>
	<node id="-81675" lat="62.8859815903" lon="8.19409989771">
>>>>>>> e1d4bc35ff8a6074a6f2e91616a996b547c36f15
		<tag k="fixme" v="consider place=hamlet" />
		<tag k="name" v="Hjellen" />
		<tag k="place" v="farm" />
		<tag k="ssr:stedsnr" v="714074" />
	</node>
<<<<<<< HEAD
	<node lat="63.00057222598814" lon="8.010397214059852" id="-2362">
		<tag k="name" v="Brevik" />
		<tag k="place" v="farm" />
		<tag k="ssr:stedsnr" v="715422" />
	</node>
	<node lat="62.96161666734507" lon="8.219272224348178" id="-2366">
		<tag k="name" v="Vollan hyttefelt" />
		<tag k="place" v="neighbourhood" />
		<tag k="ssr:stedsnr" v="726322" />
	</node>
	<node lat="62.92992718604397" lon="8.157280042108836" id="-2367">
		<tag k="fixme" v="consider place=hamlet" />
		<tag k="loc_name" v="Kvennhusvika" />
		<tag k="name" v="Kvernhusvika" />
		<tag k="place" v="farm" />
		<tag k="ssr:stedsnr" v="739941" />
	</node>
	<node lat="62.840302778920574" lon="8.33940556390106" id="-2368">
=======
	<node id="-81661" lat="62.953644443" lon="8.13336389131">
		<tag k="name" v="Bruvollen" />
		<tag k="place" v="farm" />
		<tag k="ssr:stedsnr" v="592505" />
	</node>
	<node id="-81655" lat="63.0445166658" lon="7.97915554864">
		<tag k="name" v="Skadalen" />
		<tag k="place" v="quarter" />
		<tag k="ssr:stedsnr" v="586463" />
	</node>
	<node id="-81654" lat="63.0159888911" lon="8.00186388675">
		<tag k="name" v="Vika" />
		<tag k="place" v="quarter" />
		<tag k="ssr:stedsnr" v="586459" />
	</node>
	<node id="-81653" lat="63.0387083329" lon="8.05559166819">
		<tag k="name" v="Bakken" />
		<tag k="place" v="farm" />
		<tag k="ssr:stedsnr" v="558256" />
	</node>
	<node id="-81649" lat="63.001718118" lon="8.18711911915">
>>>>>>> e1d4bc35ff8a6074a6f2e91616a996b547c36f15
		<tag k="historic" v="shieling" />
		<tag k="name" v="Hanemssetra" />
		<tag k="place" v="isolated_dwelling" />
		<tag k="ssr:stedsnr" v="740341" />
	</node>
<<<<<<< HEAD
	<node lat="62.913080556214574" lon="8.205563883148727" id="-2372">
		<tag k="name" v="Tingvoll" />
		<tag k="place" v="village" />
		<tag k="ssr:stedsnr" v="740984" />
	</node>
	<node lat="63.0382444425114" lon="8.042638891734146" id="-2373">
		<tag k="name" v="Beiteråsen" />
=======
	<node id="-81647" lat="63.0597722197" lon="8.00618888193">
		<tag k="name" v="Vasseng" />
		<tag k="place" v="farm" />
		<tag k="ssr:stedsnr" v="558166" />
	</node>
	<node id="-81646" lat="62.9947444446" lon="7.89823888918">
		<tag k="name" v="Rambjøra" />
>>>>>>> e1d4bc35ff8a6074a6f2e91616a996b547c36f15
		<tag k="place" v="farm" />
		<tag k="ssr:stedsnr" v="741299" />
	</node>
<<<<<<< HEAD
	<node lat="63.052091663499844" lon="8.118205564750419" id="-2384">
		<tag k="name" v="Skogstad" />
		<tag k="place" v="farm" />
		<tag k="ssr:stedsnr" v="774318" />
	</node>
	<node lat="62.86227500085417" lon="8.19405000404008" id="-2400">
		<tag k="historic" v="shieling" />
		<tag k="name" v="Gjørsviksetra" />
		<tag k="place" v="isolated_dwelling" />
		<tag k="ssr:stedsnr" v="775065" />
	</node>
	<node lat="63.03164444661918" lon="8.1219527751218" id="-2401">
		<tag k="name" v="Solbakken" />
=======
	<node id="-81644" lat="62.9174409695" lon="8.29673648724">
		<tag k="fixme" v="consider place=hamlet" />
		<tag k="name" v="Breivika" />
		<tag k="place" v="farm" />
		<tag k="ssr:stedsnr" v="557718" />
	</node>
	<node id="-81642" lat="62.8167166651" lon="8.35753333916">
		<tag k="name" v="Kvernabekken hyttefelt" />
		<tag k="place" v="neighbourhood" />
		<tag k="ssr:stedsnr" v="543336" />
	</node>
	<node id="-81641" lat="62.8693444464" lon="8.38964721461">
		<tag k="name" v="Sandnessetra" />
		<tag k="place" v="locality" />
		<tag k="ssr:stedsnr" v="691246" />
	</node>
	<node id="-81632" lat="63.011672221" lon="7.90508610604">
		<tag k="name" v="Brekka" />
>>>>>>> e1d4bc35ff8a6074a6f2e91616a996b547c36f15
		<tag k="place" v="farm" />
		<tag k="ssr:stedsnr" v="775253" />
	</node>
<<<<<<< HEAD
	<node lat="62.881555559490344" lon="8.230638879562802" id="-2405">
=======
	<node id="-81630" lat="63.0138334547" lon="8.17997184051">
>>>>>>> e1d4bc35ff8a6074a6f2e91616a996b547c36f15
		<tag k="historic" v="shieling" />
		<tag k="name" v="Innerstølsetra" />
		<tag k="place" v="isolated_dwelling" />
		<tag k="ssr:stedsnr" v="775154" />
	</node>
<<<<<<< HEAD
	<node lat="62.88893888859869" lon="8.207811116812437" id="-2406">
		<tag k="name" v="Stølhagan" />
=======
	<node id="-81625" lat="62.8832222188" lon="8.36260833471">
		<tag k="name" v="Nordheim" />
>>>>>>> e1d4bc35ff8a6074a6f2e91616a996b547c36f15
		<tag k="place" v="farm" />
		<tag k="ssr:stedsnr" v="775159" />
	</node>
<<<<<<< HEAD
	<node lat="63.02594444705434" lon="7.9980444385033564" id="-2418">
		<tag k="name" v="Olvika hyttefelt" />
		<tag k="place" v="neighbourhood" />
		<tag k="ssr:stedsnr" v="785415" />
	</node>
	<node lat="62.837683334065574" lon="8.335927778117245" id="-2421">
		<tag k="historic" v="shieling" />
		<tag k="name" v="Skarssetra" />
		<tag k="place" v="isolated_dwelling" />
		<tag k="ssr:stedsnr" v="801322" />
	</node>
	<node lat="62.81375000168492" lon="8.378844444446964" id="-2425">
		<tag k="name" v="Havdalssetra" />
		<tag k="place" v="isolated_dwelling" />
		<tag k="ssr:stedsnr" v="801410" />
	</node>
	<node lat="62.92508055449716" lon="8.282672213554354" id="-2426">
=======
	<node id="-81619" lat="62.8149701024" lon="8.34627034148">
		<tag k="name" v="Einbu" />
		<tag k="place" v="locality" />
		<tag k="ssr:stedsnr" v="680464" />
	</node>
	<node id="-81617" lat="63.0032919978" lon="7.89459864009">
>>>>>>> e1d4bc35ff8a6074a6f2e91616a996b547c36f15
		<tag k="fixme" v="consider place=hamlet" />
		<tag k="name" v="Vågbøen" />
		<tag k="place" v="village" />
		<tag k="ssr:stedsnr" v="801708" />
	</node>
<<<<<<< HEAD
	<node lat="63.04226570645325" lon="8.00053377582521" id="-2427">
=======
	<node id="-81612" lat="62.9484529555" lon="8.13585815381">
>>>>>>> e1d4bc35ff8a6074a6f2e91616a996b547c36f15
		<tag k="fixme" v="consider place=hamlet" />
		<tag k="name" v="Gjengset" />
		<tag k="place" v="farm" />
		<tag k="ssr:stedsnr" v="802275" />
	</node>
<<<<<<< HEAD
	<node lat="63.058036112802434" lon="8.024183337865974" id="-2430">
		<tag k="name" v="Nymo" />
=======
	<node id="-81610" lat="62.9233416655" lon="8.28011389159">
		<tag k="name" v="Vollan" />
>>>>>>> e1d4bc35ff8a6074a6f2e91616a996b547c36f15
		<tag k="place" v="farm" />
		<tag k="ssr:stedsnr" v="922153" />
	</node>
	<node lat="63.06573333154758" lon="7.9803500063437385" id="-2431">
		<tag k="name" v="Haugen" />
		<tag k="place" v="farm" />
		<tag k="ssr:stedsnr" v="922166" />
	</node>
	<node lat="63.074586111918016" lon="8.137327782698181" id="-2432">
		<tag k="name" v="Myra" />
		<tag k="place" v="farm" />
		<tag k="ssr:stedsnr" v="922173" />
	</node>
<<<<<<< HEAD
	<node lat="62.858217161884276" lon="8.2458689769411" id="-2433">
=======
	<node id="-81609" lat="62.9291602423" lon="8.26016746566">
>>>>>>> e1d4bc35ff8a6074a6f2e91616a996b547c36f15
		<tag k="fixme" v="consider place=hamlet" />
		<tag k="name" v="Venås" />
		<tag k="place" v="farm" />
		<tag k="ssr:stedsnr" v="922231" />
	</node>
<<<<<<< HEAD
	<node lat="63.021769113338415" lon="8.014264205898579" id="-2435">
		<tag k="name" v="Langset" />
=======
	<node id="-81606" lat="63.1017805572" lon="8.03000833243">
		<tag k="name" v="Finnvika" />
>>>>>>> e1d4bc35ff8a6074a6f2e91616a996b547c36f15
		<tag k="place" v="farm" />
		<tag k="ssr:stedsnr" v="922194" />
	</node>
	<node lat="63.027316664662045" lon="7.998194440094065" id="-2437">
		<tag k="alt_name" v="Ulset" />
		<tag k="name" v="Olvika" />
		<tag k="place" v="farm" />
		<tag k="ssr:stedsnr" v="922218" />
	</node>
<<<<<<< HEAD
	<node lat="62.974994441644995" lon="8.242983326976582" id="-2441">
=======
	<node id="-81605" lat="62.8521500043" lon="8.28938056053">
>>>>>>> e1d4bc35ff8a6074a6f2e91616a996b547c36f15
		<tag k="fixme" v="consider place=hamlet" />
		<tag k="name" v="Torjulvågen" />
		<tag k="place" v="village" />
		<tag k="ssr:stedsnr" v="922635" />
	</node>
<<<<<<< HEAD
	<node lat="62.935941092152575" lon="8.29091955628418" id="-2444">
		<tag k="name" v="Strandheim" />
		<tag k="place" v="farm" />
		<tag k="ssr:stedsnr" v="922696" />
	</node>
	<node lat="62.99125833772507" lon="8.064861106103448" id="-2448">
		<tag k="historic" v="shieling" />
		<tag k="name" v="Treekersetra" />
		<tag k="place" v="isolated_dwelling" />
		<tag k="ssr:stedsnr" v="922852" />
	</node>
	<node lat="62.94315555234569" lon="8.203683342939373" id="-2450">
		<tag k="name" v="Bergemssetra" />
		<tag k="place" v="isolated_dwelling" />
		<tag k="ssr:stedsnr" v="922915" />
	</node>
	<node lat="63.036653943340475" lon="7.956781639048367" id="-2454">
		<tag k="fixme" v="consider place=hamlet" />
		<tag k="name" v="Nastad" />
		<tag k="place" v="farm" />
		<tag k="ssr:stedsnr" v="923159" />
	</node>
	<node lat="62.81254567173046" lon="8.280869332191388" id="-2458">
=======
	<node id="-81602" lat="62.9927888861" lon="8.25586388648">
		<tag k="name" v="Vikavollen hyttefelt" />
		<tag k="place" v="neighbourhood" />
		<tag k="ssr:stedsnr" v="482317" />
	</node>
	<node id="-81601" lat="63.0887416703" lon="7.9854083359">
		<tag k="name" v="Årsund Vest hyttefelt" />
		<tag k="place" v="neighbourhood" />
		<tag k="ssr:stedsnr" v="482315" />
	</node>
	<node id="-81600" lat="62.9190805512" lon="8.29230832497">
		<tag k="name" v="Breivika hyttefelt" />
		<tag k="place" v="neighbourhood" />
		<tag k="ssr:stedsnr" v="482304" />
	</node>
	<node id="-81591" lat="63.0660611098" lon="8.00220833397">
		<tag k="name" v="Årsund" />
		<tag k="place" v="quarter" />
		<tag k="ssr:stedsnr" v="423305" />
	</node>
	<node id="-81588" lat="63.0200266719" lon="8.0121823194">
>>>>>>> e1d4bc35ff8a6074a6f2e91616a996b547c36f15
		<tag k="fixme" v="consider place=hamlet" />
		<tag k="name" v="Fjøseid" />
		<tag k="place" v="farm" />
		<tag k="ssr:stedsnr" v="923464" />
	</node>
<<<<<<< HEAD
	<node lat="62.980122224157654" lon="8.26968334093136" id="-2465">
		<tag k="historic" v="shieling" />
		<tag k="name" v="Stranda" />
		<tag k="place" v="isolated_dwelling" />
		<tag k="ssr:stedsnr" v="836077" />
	</node>
	<node lat="62.974244443982144" lon="8.201366656927204" id="-2467">
		<tag k="historic" v="shieling" />
		<tag k="name" v="Sponåssetra" />
=======
	<node id="-81587" lat="62.9209277743" lon="8.2044666757">
		<tag k="name" v="Reitan" />
		<tag k="place" v="quarter" />
		<tag k="ssr:stedsnr" v="510459" />
	</node>
	<node id="-81586" lat="63.1000499967" lon="7.97045278127">
		<tag k="name" v="Bukta" />
>>>>>>> e1d4bc35ff8a6074a6f2e91616a996b547c36f15
		<tag k="place" v="isolated_dwelling" />
		<tag k="ssr:stedsnr" v="836226" />
	</node>
<<<<<<< HEAD
	<node lat="63.0346888914657" lon="8.129116666545764" id="-2469">
		<tag k="name" v="Trøen" />
=======
	<node id="-81582" lat="63.105513888" lon="8.05130278581">
		<tag k="name" v="Vika" />
>>>>>>> e1d4bc35ff8a6074a6f2e91616a996b547c36f15
		<tag k="place" v="farm" />
		<tag k="ssr:stedsnr" v="836232" />
	</node>
<<<<<<< HEAD
	<node lat="63.029352781563254" lon="8.140088879038027" id="-2470">
		<tag k="name" v="Fredheim" />
=======
	<node id="-81580" lat="63.0397795177" lon="8.04910049785">
		<tag k="name" v="Midttun" />
>>>>>>> e1d4bc35ff8a6074a6f2e91616a996b547c36f15
		<tag k="place" v="farm" />
		<tag k="ssr:stedsnr" v="836233" />
	</node>
<<<<<<< HEAD
	<node lat="63.01300833234095" lon="7.966569451909408" id="-2486">
		<tag k="name" v="Einset" />
		<tag k="place" v="quarter" />
		<tag k="ssr:stedsnr" v="846287" />
	</node>
	<node lat="62.91865277546479" lon="8.29521111471336" id="-2487">
		<tag k="name" v="Skogstad" />
=======
	<node id="-81579" lat="63.0866583355" lon="8.12744445063">
		<tag k="name" v="Vikan" />
>>>>>>> e1d4bc35ff8a6074a6f2e91616a996b547c36f15
		<tag k="place" v="farm" />
		<tag k="ssr:stedsnr" v="861723" />
	</node>
<<<<<<< HEAD
	<node lat="62.93423888987371" lon="8.290483325231682" id="-2489">
		<tag k="name" v="Kleiva" />
=======
	<node id="-81577" lat="62.996519442" lon="7.92227499397">
		<tag k="alt_name" v="Hagan" />
		<tag k="name" v="Hagen" />
>>>>>>> e1d4bc35ff8a6074a6f2e91616a996b547c36f15
		<tag k="place" v="farm" />
		<tag k="ssr:stedsnr" v="861687" />
	</node>
<<<<<<< HEAD
	<node lat="62.99986922642083" lon="7.947468012638353" id="-2490">
		<tag k="fixme" v="consider place=hamlet" />
		<tag k="name" v="Boksaspa" />
=======
	<node id="-81575" lat="62.9514944447" lon="8.315158327">
		<tag k="name" v="Naustvollen" />
>>>>>>> e1d4bc35ff8a6074a6f2e91616a996b547c36f15
		<tag k="place" v="farm" />
		<tag k="ssr:stedsnr" v="861814" />
	</node>
<<<<<<< HEAD
	<node lat="62.99907778015522" lon="7.928422228970218" id="-2491">
		<tag k="name" v="Sletta" />
=======
	<node id="-81572" lat="63.0554472236" lon="8.0198777707">
		<tag k="name" v="Hagan" />
>>>>>>> e1d4bc35ff8a6074a6f2e91616a996b547c36f15
		<tag k="place" v="farm" />
		<tag k="ssr:stedsnr" v="861822" />
	</node>
<<<<<<< HEAD
	<node lat="63.066861108571096" lon="8.00006110873336" id="-2492">
		<tag k="name" v="Myra" />
=======
	<node id="-81570" lat="63.0506972239" lon="8.03141111638">
		<tag k="name" v="Vårtun" />
>>>>>>> e1d4bc35ff8a6074a6f2e91616a996b547c36f15
		<tag k="place" v="farm" />
		<tag k="ssr:stedsnr" v="862205" />
	</node>
<<<<<<< HEAD
	<node lat="62.836350147559266" lon="8.301852066233607" id="-2495">
		<tag k="name" v="Hanemstrøa" />
=======
	<node id="-81569" lat="62.924747551" lon="8.15878460174">
		<tag k="fixme" v="consider place=hamlet" />
		<tag k="name" v="Lauvvika" />
>>>>>>> e1d4bc35ff8a6074a6f2e91616a996b547c36f15
		<tag k="place" v="farm" />
		<tag k="ssr:stedsnr" v="862348" />
	</node>
<<<<<<< HEAD
	<node lat="62.820591668379095" lon="8.383272222567506" id="-2501">
		<tag k="name" v="Hafstadsetra" />
		<tag k="place" v="locality" />
		<tag k="ssr:stedsnr" v="934352" />
	</node>
	<node lat="63.054658331249584" lon="8.032866664091706" id="-2504">
		<tag k="name" v="Saghaugen" />
=======
	<node id="-81566" lat="62.9299914701" lon="8.24012463734">
		<tag k="fixme" v="consider place=hamlet" />
		<tag k="name" v="Tørrlenda" />
>>>>>>> e1d4bc35ff8a6074a6f2e91616a996b547c36f15
		<tag k="place" v="farm" />
		<tag k="ssr:stedsnr" v="896262" />
	</node>
<<<<<<< HEAD
	<node lat="63.04906944341589" lon="8.0837583381139" id="-2505">
		<tag k="name" v="Skogen" />
=======
	<node id="-81565" lat="62.9731416623" lon="8.22768332894">
		<tag k="name" v="Hagen" />
>>>>>>> e1d4bc35ff8a6074a6f2e91616a996b547c36f15
		<tag k="place" v="farm" />
		<tag k="ssr:stedsnr" v="896267" />
	</node>
<<<<<<< HEAD
	<node lat="63.0014055545768" lon="8.05643055278639" id="-2518">
		<tag k="historic" v="shieling" />
		<tag k="name" v="Nersetra" />
		<tag k="place" v="isolated_dwelling" />
		<tag k="ssr:stedsnr" v="897109" />
	</node>
	<node lat="62.95552676835308" lon="8.17265821981674" id="-2542">
=======
	<node id="-81564" lat="62.9878716964" lon="8.24813379614">
		<tag k="alt_name" v="Nordbø" />
>>>>>>> e1d4bc35ff8a6074a6f2e91616a996b547c36f15
		<tag k="fixme" v="consider place=hamlet" />
		<tag k="name" v="Ramslia" />
		<tag k="place" v="farm" />
		<tag k="ssr:stedsnr" v="921911" />
	</node>
<<<<<<< HEAD
	<node lat="62.95880345280209" lon="8.213255525088313" id="-2543">
		<tag k="fixme" v="consider place=hamlet" />
		<tag k="name" v="Vasslia" />
=======
	<node id="-81563" lat="62.9394444471" lon="8.29585554893">
		<tag k="name" v="Bøavollen" />
>>>>>>> e1d4bc35ff8a6074a6f2e91616a996b547c36f15
		<tag k="place" v="farm" />
		<tag k="ssr:stedsnr" v="921912" />
	</node>
<<<<<<< HEAD
	<node lat="63.026080558302795" lon="7.891325008188258" id="-2544">
		<tag k="name" v="Bøyfoten" />
=======
	<node id="-81560" lat="62.8546333349" lon="8.27649166742">
		<tag k="name" v="Haugen" />
>>>>>>> e1d4bc35ff8a6074a6f2e91616a996b547c36f15
		<tag k="place" v="farm" />
		<tag k="ssr:stedsnr" v="922215" />
	</node>
<<<<<<< HEAD
	<node lat="63.004281048065224" lon="7.9002342584815874" id="-2547">
=======
	<node id="-81557" lat="62.8661332392" lon="8.30003080649">
>>>>>>> e1d4bc35ff8a6074a6f2e91616a996b547c36f15
		<tag k="fixme" v="consider place=hamlet" />
		<tag k="name" v="Draga" />
		<tag k="place" v="farm" />
		<tag k="ssr:stedsnr" v="922184" />
	</node>
<<<<<<< HEAD
	<node lat="63.04727657294203" lon="8.049879295022643" id="-2551">
		<tag k="fixme" v="consider place=hamlet" />
		<tag k="name" v="Åsen" />
		<tag k="old_name" v="Aasen" />
=======
	<node id="-81556" lat="63.0330388851" lon="8.01001666155">
		<tag k="name" v="Ulset" />
>>>>>>> e1d4bc35ff8a6074a6f2e91616a996b547c36f15
		<tag k="place" v="farm" />
		<tag k="ssr:stedsnr" v="923172" />
	</node>
<<<<<<< HEAD
	<node lat="63.0495499984385" lon="8.077488888400703" id="-2552">
		<tag k="name" v="Vollan" />
=======
	<node id="-81555" lat="63.0301805541" lon="7.90375833588">
		<tag k="name" v="Tuvika" />
>>>>>>> e1d4bc35ff8a6074a6f2e91616a996b547c36f15
		<tag k="place" v="farm" />
		<tag k="ssr:stedsnr" v="923174" />
	</node>
<<<<<<< HEAD
	<node lat="63.05486110792474" lon="8.01956111073351" id="-2553">
		<tag k="name" v="Kleiva" />
=======
	<node id="-81554" lat="63.0005611114" lon="7.94789165863">
		<tag k="name" v="Boksaspa" />
>>>>>>> e1d4bc35ff8a6074a6f2e91616a996b547c36f15
		<tag k="place" v="farm" />
		<tag k="ssr:stedsnr" v="923187" />
	</node>
<<<<<<< HEAD
	<node lat="63.04178805342209" lon="8.06476108619243" id="-2554">
		<tag k="alt_name" v="Strømsvåg" />
=======
	<node id="-81552" lat="63.0647063217" lon="7.98856925048">
>>>>>>> e1d4bc35ff8a6074a6f2e91616a996b547c36f15
		<tag k="fixme" v="consider place=hamlet" />
		<tag k="name" v="Straumsvågen" />
		<tag k="place" v="farm" />
		<tag k="ssr:stedsnr" v="923277" />
	</node>
<<<<<<< HEAD
	<node lat="62.838872221349405" lon="8.254005550461727" id="-2558">
		<tag k="name" v="Skaret" />
		<tag k="place" v="isolated_dwelling" />
		<tag k="ssr:stedsnr" v="931617" />
	</node>
	<node lat="63.00442222418365" lon="8.00464444749722" id="-2559">
		<tag k="name" v="Innergården" />
=======
	<node id="-81551" lat="63.0665805563" lon="8.02290832987">
		<tag k="name" v="Berget" />
>>>>>>> e1d4bc35ff8a6074a6f2e91616a996b547c36f15
		<tag k="place" v="farm" />
		<tag k="ssr:stedsnr" v="228755" />
	</node>
<<<<<<< HEAD
	<node lat="63.106980555098694" lon="8.02899721762511" id="-2562">
		<tag k="name" v="Bogen" />
=======
	<node id="-81549" lat="62.9560527739" lon="8.11732222883">
		<tag k="name" v="Vikan" />
>>>>>>> e1d4bc35ff8a6074a6f2e91616a996b547c36f15
		<tag k="place" v="farm" />
		<tag k="ssr:stedsnr" v="956306" />
	</node>
<<<<<<< HEAD
	<node lat="63.05298055870794" lon="7.977016665128063" id="-2564">
		<tag k="name" v="Årheim" />
=======
	<node id="-81547" lat="62.9762166637" lon="8.24646389787">
		<tag k="name" v="Osahaugen" />
		<tag k="place" v="quarter" />
		<tag k="ssr:stedsnr" v="362302" />
	</node>
	<node id="-81535" lat="62.9493472247" lon="8.13587499874">
		<tag k="name" v="Lerkebakken" />
		<tag k="place" v="quarter" />
		<tag k="ssr:stedsnr" v="483319" />
	</node>
	<node id="-81531" lat="63.1026444437" lon="8.0344972183">
		<tag k="name" v="Haugen" />
		<tag k="place" v="farm" />
		<tag k="ssr:stedsnr" v="316421" />
	</node>
	<node id="-81529" lat="63.0516542619" lon="8.08909068851">
		<tag k="name" v="Skeisvollen" />
		<tag k="place" v="farm" />
		<tag k="ssr:stedsnr" v="316170" />
	</node>
	<node id="-81526" lat="63.0328972197" lon="7.90798610665">
		<tag k="name" v="Storvika" />
		<tag k="place" v="farm" />
		<tag k="ssr:stedsnr" v="315225" />
	</node>
	<node id="-81521" lat="62.8290666658" lon="8.29668611652">
		<tag k="name" v="Lunde" />
>>>>>>> e1d4bc35ff8a6074a6f2e91616a996b547c36f15
		<tag k="place" v="farm" />
		<tag k="ssr:stedsnr" v="956312" />
	</node>
<<<<<<< HEAD
	<node lat="63.06494999979046" lon="7.98968333617239" id="-2573">
		<tag k="name" v="Tunga" />
=======
	<node id="-81500" lat="63.0013499978" lon="8.01694167266">
		<tag k="name" v="Halten" />
>>>>>>> e1d4bc35ff8a6074a6f2e91616a996b547c36f15
		<tag k="place" v="farm" />
		<tag k="ssr:stedsnr" v="956913" />
	</node>
<<<<<<< HEAD
	<node lat="63.0973805525847" lon="8.046916673869076" id="-2579">
		<tag k="historic" v="shieling" />
		<tag k="name" v="Strandasetra" />
		<tag k="place" v="isolated_dwelling" />
		<tag k="ssr:stedsnr" v="957302" />
	</node>
	<node lat="62.890157600090355" lon="8.333154709580912" id="-2583">
=======
	<node id="-81496" lat="62.8830861144" lon="8.21150278061">
		<tag k="name" v="Stølhaugen" />
		<tag k="place" v="farm" />
		<tag k="ssr:stedsnr" v="472176" />
	</node>
	<node id="-81492" lat="62.957510018" lon="8.33147997892">
>>>>>>> e1d4bc35ff8a6074a6f2e91616a996b547c36f15
		<tag k="fixme" v="consider place=hamlet" />
		<tag k="name" v="Røttingsnes" />
		<tag k="place" v="farm" />
		<tag k="ssr:stedsnr" v="957585" />
	</node>
<<<<<<< HEAD
	<node lat="63.07033889203806" lon="7.973955548666159" id="-2591">
		<tag k="name" v="Kvisvika hyttefelt" />
		<tag k="place" v="neighbourhood" />
		<tag k="ssr:stedsnr" v="968303" />
	</node>
	<node lat="62.95605555833727" lon="8.326505552593872" id="-2592">
		<tag k="name" v="Aksnes hyttefelt" />
		<tag k="place" v="neighbourhood" />
		<tag k="ssr:stedsnr" v="968306" />
	</node>
	<node lat="62.954063885387924" lon="8.322786105384013" id="-2593">
		<tag k="name" v="Holmeid hyttefelt" />
		<tag k="place" v="neighbourhood" />
		<tag k="ssr:stedsnr" v="968310" />
	</node>
	<node lat="62.914041151392375" lon="8.187887888753114" id="-2595">
=======
	<node id="-81470" lat="63.071100003" lon="8.03856111524">
		<tag k="historic" v="shieling" />
		<tag k="name" v="Vassellsetra" />
		<tag k="place" v="locality" />
		<tag k="ssr:stedsnr" v="471425" />
	</node>
	<node id="-81466" lat="63.0165527741" lon="8.04257499877">
		<tag k="historic" v="shieling" />
		<tag k="name" v="Melsåssetra" />
		<tag k="place" v="locality" />
		<tag k="ssr:stedsnr" v="471387" />
	</node>
	<node id="-81465" lat="62.8974583365" lon="8.22736667434">
		<tag k="historic" v="shieling" />
		<tag k="name" v="Gløtten" />
		<tag k="place" v="locality" />
		<tag k="ssr:stedsnr" v="471322" />
	</node>
	<node id="-81463" lat="62.906003877" lon="8.20156388109">
>>>>>>> e1d4bc35ff8a6074a6f2e91616a996b547c36f15
		<tag k="fixme" v="consider place=hamlet" />
		<tag k="name" v="Tingvoll" />
		<tag k="place" v="farm" />
		<tag k="ssr:stedsnr" v="980319" />
	</node>
<<<<<<< HEAD
	<node lat="62.92977449608044" lon="8.285046674208205" id="-2596">
		<tag k="fixme" v="consider place=hamlet" />
		<tag k="name" v="Båtnes" />
=======
	<node id="-81461" lat="63.0582055592" lon="8.10598888891">
		<tag k="name" v="Litlhankarhaugen" />
>>>>>>> e1d4bc35ff8a6074a6f2e91616a996b547c36f15
		<tag k="place" v="farm" />
		<tag k="ssr:stedsnr" v="980328" />
	</node>
<<<<<<< HEAD
	<node lat="62.93017691557698" lon="8.29851884909463" id="-2597">
		<tag k="fixme" v="consider place=hamlet" />
		<tag k="name" v="Vågbøøya" />
		<tag k="place" v="farm" />
		<tag k="ssr:stedsnr" v="980331" />
	</node>
	<node lat="62.99091709847018" lon="7.883909276952214" id="-2599">
		<tag k="fixme" v="consider place=hamlet" />
		<tag k="name" v="Skjevlingsnes" />
=======
	<node id="-81454" lat="63.0664999987" lon="7.98833888">
		<tag k="fixme" v="consider place=hamlet" />
		<tag k="name" v="Kvisvik" />
		<tag k="place" v="village" />
		<tag k="ssr:stedsnr" v="471223" />
	</node>
	<node id="-81442" lat="62.9114027753" lon="8.31926388058">
		<tag k="name" v="Nyheim hyttefelt" />
		<tag k="place" v="neighbourhood" />
		<tag k="ssr:stedsnr" v="465448" />
	</node>
	<node id="-81441" lat="62.8716277815" lon="8.3393500079">
		<tag k="name" v="Seterlia" />
		<tag k="place" v="farm" />
		<tag k="ssr:stedsnr" v="292386" />
	</node>
	<node id="-81420" lat="62.8622972244" lon="8.29715277715">
		<tag k="leisure" v="pitch" />
		<tag k="name" v="Meisingset stadion" />
		<tag k="ssr:stedsnr" v="289971" />
	</node>
	<node id="-81409" lat="63.0414805596" lon="7.99362221569">
		<tag k="name" v="Groven" />
		<tag k="place" v="isolated_dwelling" />
		<tag k="ssr:stedsnr" v="289270" />
	</node>
	<node id="-81401" lat="63.0694861155" lon="7.97963334284">
		<tag k="name" v="Reita" />
>>>>>>> e1d4bc35ff8a6074a6f2e91616a996b547c36f15
		<tag k="place" v="farm" />
		<tag k="ssr:stedsnr" v="980434" />
	</node>
<<<<<<< HEAD
	<node lat="62.99122218273023" lon="7.885077527822257" id="-2601">
		<tag k="name" v="Skjevlingsnes" />
		<tag k="place" v="farm" />
		<tag k="ssr:stedsnr" v="982724" />
	</node>
	<node lat="62.87684729302035" lon="8.346795394680129" id="-2602">
		<tag k="alt_name" v="Nistua" />
		<tag k="name" v="Åsprong" />
=======
	<node id="-81394" lat="62.8119694401" lon="8.2659861132">
		<tag k="name" v="Sauvika" />
		<tag k="place" v="farm" />
		<tag k="ssr:stedsnr" v="255417" />
	</node>
	<node id="-81392" lat="62.8713138899" lon="8.33796110734">
		<tag k="name" v="Leirvika" />
		<tag k="place" v="isolated_dwelling" />
		<tag k="ssr:stedsnr" v="255267" />
	</node>
	<node id="-81387" lat="63.0520262266" lon="8.02548040759">
		<tag k="fixme" v="consider place=hamlet" />
		<tag k="name" v="Grimstad" />
>>>>>>> e1d4bc35ff8a6074a6f2e91616a996b547c36f15
		<tag k="place" v="farm" />
		<tag k="ssr:stedsnr" v="982732" />
	</node>
<<<<<<< HEAD
	<node lat="63.01785889843687" lon="7.978253658486856" id="-2605">
		<tag k="name" v="Einset" />
=======
	<node id="-81385" lat="63.0760469025" lon="8.12671785994">
		<tag k="name" v="Hals" />
>>>>>>> e1d4bc35ff8a6074a6f2e91616a996b547c36f15
		<tag k="place" v="farm" />
		<tag k="ssr:stedsnr" v="986848" />
	</node>
<<<<<<< HEAD
	<node lat="63.016374974687814" lon="7.97611000501854" id="-2606">
		<tag k="name" v="Einset" />
		<tag k="place" v="farm" />
		<tag k="ssr:stedsnr" v="986849" />
	</node>
	<node lat="62.86289166972258" lon="8.19351666441259" id="-2608">
=======
	<node id="-81384" lat="62.8691638906" lon="8.30632499316">
		<tag k="name" v="Bruksgrenda" />
		<tag k="place" v="quarter" />
		<tag k="ssr:stedsnr" v="445242" />
	</node>
	<node id="-81377" lat="62.8628916697" lon="8.19351666441">
>>>>>>> e1d4bc35ff8a6074a6f2e91616a996b547c36f15
		<tag k="historic" v="shieling" />
		<tag k="name" v="Honnhammarsetra" />
		<tag k="place" v="isolated_dwelling" />
		<tag k="ssr:stedsnr" v="229064" />
	</node>
<<<<<<< HEAD
	<node lat="62.97485555151511" lon="8.187533326942237" id="-2612">
		<tag k="name" v="Sponåssetra" />
		<tag k="place" v="isolated_dwelling" />
		<tag k="ssr:stedsnr" v="12897" />
	</node>
	<node lat="62.918438885059906" lon="8.197108337224925" id="-2613">
		<tag k="name" v="Einlia" />
		<tag k="place" v="quarter" />
		<tag k="ssr:stedsnr" v="12962" />
	</node>
	<node lat="63.05834722158094" lon="8.122713893677247" id="-2619">
		<tag k="name" v="Hagan" />
=======
	<node id="-81375" lat="62.8876138913" lon="8.22551388779">
		<tag k="historic" v="shieling" />
		<tag k="name" v="Stølhaugsetra" />
		<tag k="place" v="locality" />
		<tag k="ssr:stedsnr" v="229009" />
	</node>
	<node id="-81367" lat="63.0044222242" lon="8.0046444475">
		<tag k="name" v="Innergården" />
		<tag k="place" v="farm" />
		<tag k="ssr:stedsnr" v="228755" />
	</node>
	<node id="-81363" lat="63.0322527737" lon="8.00143333566">
		<tag k="name" v="Hagen" />
>>>>>>> e1d4bc35ff8a6074a6f2e91616a996b547c36f15
		<tag k="place" v="farm" />
		<tag k="ssr:stedsnr" v="12159" />
	</node>
<<<<<<< HEAD
	<node lat="63.105088885017864" lon="8.024605548321983" id="-2620">
		<tag k="name" v="Langøya" />
		<tag k="place" v="farm" />
		<tag k="ssr:stedsnr" v="12356" />
	</node>
	<node lat="62.856065903729444" lon="8.274082827709309" id="-2621">
		<tag k="name" v="Nygarden" />
=======
	<node id="-81361" lat="63.0449249969" lon="8.07138888311">
		<tag k="name" v="Vikan" />
		<tag k="place" v="farm" />
		<tag k="ssr:stedsnr" v="228263" />
	</node>
	<node id="-81358" lat="62.9286333337" lon="8.25174166002">
		<tag k="name" v="Skaret" />
		<tag k="place" v="isolated_dwelling" />
		<tag k="ssr:stedsnr" v="202235" />
	</node>
	<node id="-81354" lat="62.8536638905" lon="8.30325278498">
		<tag k="name" v="Skålneset" />
>>>>>>> e1d4bc35ff8a6074a6f2e91616a996b547c36f15
		<tag k="place" v="farm" />
		<tag k="ssr:stedsnr" v="12358" />
	</node>
<<<<<<< HEAD
	<node lat="62.87920833164708" lon="8.160036101446677" id="-2625">
		<tag k="name" v="Ormsettrøa" />
=======
	<node id="-81353" lat="62.8516166642" lon="8.31051111777">
		<tag k="name" v="Nordlia" />
>>>>>>> e1d4bc35ff8a6074a6f2e91616a996b547c36f15
		<tag k="place" v="farm" />
		<tag k="ssr:stedsnr" v="12496" />
	</node>
<<<<<<< HEAD
	<node lat="62.93015043029102" lon="8.269230132645935" id="-2627">
=======
	<node id="-81352" lat="63.1087959875" lon="8.07972509971">
>>>>>>> e1d4bc35ff8a6074a6f2e91616a996b547c36f15
		<tag k="fixme" v="consider place=hamlet" />
		<tag k="name" v="Kringstad" />
		<tag k="place" v="farm" />
		<tag k="ssr:stedsnr" v="12714" />
	</node>
<<<<<<< HEAD
	<node lat="63.04113055563973" lon="7.941408330859348" id="-2629">
		<tag k="name" v="Svartvorpa" />
=======
	<node id="-81322" lat="63.0054500014" lon="8.0270916652">
		<tag k="name" v="Rønningen" />
>>>>>>> e1d4bc35ff8a6074a6f2e91616a996b547c36f15
		<tag k="place" v="farm" />
		<tag k="ssr:stedsnr" v="13141" />
	</node>
	<node lat="63.040436481529326" lon="8.12950863227108" id="-2630">
		<tag k="fixme" v="consider place=hamlet" />
		<tag k="name" v="Kamsvåg" />
		<tag k="place" v="farm" />
		<tag k="ssr:stedsnr" v="13266" />
	</node>
<<<<<<< HEAD
	<node lat="63.01036944118747" lon="8.104661105509486" id="-2632">
=======
	<node id="-81316" lat="63.0545583294" lon="8.10883055143">
>>>>>>> e1d4bc35ff8a6074a6f2e91616a996b547c36f15
		<tag k="historic" v="shieling" />
		<tag k="name" v="Gammelsetra" />
		<tag k="place" v="isolated_dwelling" />
		<tag k="ssr:stedsnr" v="21604" />
	</node>
<<<<<<< HEAD
	<node lat="62.9258277786176" lon="8.269283337437844" id="-2636">
		<tag k="name" v="Husabrekka hyttefelt" />
=======
	<node id="-81308" lat="63.102594443" lon="8.04826944473">
		<tag k="name" v="Saltgjelen hyttefelt" />
>>>>>>> e1d4bc35ff8a6074a6f2e91616a996b547c36f15
		<tag k="place" v="neighbourhood" />
		<tag k="ssr:stedsnr" v="40475" />
	</node>
<<<<<<< HEAD
	<node lat="63.03864444184658" lon="8.05533332461909" id="-2650">
		<tag k="name" v="Bjerkelund" />
		<tag k="place" v="farm" />
		<tag k="ssr:stedsnr" v="46424" />
	</node>
	<node lat="63.040249997893056" lon="8.0442277840293" id="-2651">
		<tag k="name" v="Åsheim" />
		<tag k="place" v="farm" />
		<tag k="ssr:stedsnr" v="46430" />
	</node>
	<node lat="62.911397219736735" lon="8.183038891882306" id="-2654">
		<tag k="name" v="Prestgarden" />
		<tag k="place" v="farm" />
		<tag k="ssr:stedsnr" v="46358" />
	</node>
	<node lat="63.0152055563733" lon="7.902538890237202" id="-2656">
		<tag k="name" v="Kongsvoll" />
		<tag k="place" v="farm" />
		<tag k="ssr:stedsnr" v="46599" />
	</node>
	<node lat="63.06544166559275" lon="7.986236102449659" id="-2661">
		<tag k="name" v="Bakken" />
		<tag k="place" v="farm" />
		<tag k="ssr:stedsnr" v="46913" />
	</node>
	<node lat="63.041083334932374" lon="8.051175008103085" id="-2662">
		<tag k="alt_name" v="Sveeback" />
		<tag k="name" v="Svebakk" />
=======
	<node id="-81307" lat="63.0642205443" lon="7.98270450507">
		<tag k="name" v="Kvisvika camping" />
		<tag k="ssr:stedsnr" v="179457" />
		<tag k="tourism" v="camp_site" />
	</node>
	<node id="-81306" lat="62.9104111141" lon="8.31997499683">
		<tag k="name" v="Bølset hytte- og naustområde" />
		<tag k="place" v="neighbourhood" />
		<tag k="ssr:stedsnr" v="179310" />
	</node>
	<node id="-81305" lat="63.0819222254" lon="7.97604443908">
		<tag k="name" v="Jutvika hyttefelt" />
		<tag k="place" v="neighbourhood" />
		<tag k="ssr:stedsnr" v="283410" />
	</node>
	<node id="-81304" lat="62.8699583304" lon="8.30758611506">
		<tag k="name" v="Nedre Bruksgrenda" />
		<tag k="place" v="quarter" />
		<tag k="ssr:stedsnr" v="283406" />
	</node>
	<node id="-81303" lat="62.8729166648" lon="8.3102666683">
		<tag k="name" v="Naustvollan" />
		<tag k="place" v="quarter" />
		<tag k="ssr:stedsnr" v="283395" />
	</node>
	<node id="-81300" lat="62.8569138904" lon="8.3091277874">
		<tag k="name" v="Naustan" />
>>>>>>> e1d4bc35ff8a6074a6f2e91616a996b547c36f15
		<tag k="place" v="farm" />
		<tag k="ssr:stedsnr" v="46548" />
	</node>
<<<<<<< HEAD
	<node lat="63.00088333327891" lon="8.01321666416438" id="-2666">
		<tag k="name" v="Hagen" />
=======
	<node id="-81288" lat="63.0667083338" lon="7.9867916632">
		<tag k="name" v="Nygarden" />
>>>>>>> e1d4bc35ff8a6074a6f2e91616a996b547c36f15
		<tag k="place" v="farm" />
		<tag k="ssr:stedsnr" v="47393" />
	</node>
<<<<<<< HEAD
	<node lat="62.99446111463684" lon="8.038238892510952" id="-2668">
		<tag k="name" v="Rønningen" />
=======
	<node id="-81287" lat="63.0156722251" lon="7.89741666656">
		<tag k="name" v="Hamran" />
>>>>>>> e1d4bc35ff8a6074a6f2e91616a996b547c36f15
		<tag k="place" v="farm" />
		<tag k="ssr:stedsnr" v="47458" />
	</node>
<<<<<<< HEAD
	<node lat="62.91878611259073" lon="8.212605557227217" id="-2677">
		<tag k="name" v="Vonheim" />
=======
	<node id="-81280" lat="63.032902775" lon="8.01302222025">
		<tag k="alt_name" v="Ulset" />
		<tag k="name" v="Øverhaugen" />
>>>>>>> e1d4bc35ff8a6074a6f2e91616a996b547c36f15
		<tag k="place" v="farm" />
		<tag k="ssr:stedsnr" v="47793" />
	</node>
<<<<<<< HEAD
	<node lat="62.90159478732361" lon="8.326036242564891" id="-2694">
=======
	<node id="-81278" lat="63.0981046933" lon="8.1019367934">
>>>>>>> e1d4bc35ff8a6074a6f2e91616a996b547c36f15
		<tag k="fixme" v="consider place=hamlet" />
		<tag k="name" v="Løset" />
		<tag k="place" v="farm" />
		<tag k="ssr:stedsnr" v="72300" />
	</node>
<<<<<<< HEAD
	<node lat="62.94478758053498" lon="8.302478036800135" id="-2696">
		<tag k="alt_name" v="Holmeidet" />
		<tag k="fixme" v="consider place=hamlet" />
		<tag k="name" v="Holmeid" />
=======
	<node id="-81275" lat="63.032947222" lon="8.02946943534">
		<tag k="name" v="Elvelund" />
>>>>>>> e1d4bc35ff8a6074a6f2e91616a996b547c36f15
		<tag k="place" v="farm" />
		<tag k="ssr:stedsnr" v="72680" />
	</node>
<<<<<<< HEAD
	<node lat="63.01086389000734" lon="7.96703889212656" id="-2700">
		<tag k="name" v="Sletta" />
=======
	<node id="-81274" lat="63.030388888" lon="8.02137221416">
		<tag k="name" v="Stavne" />
>>>>>>> e1d4bc35ff8a6074a6f2e91616a996b547c36f15
		<tag k="place" v="farm" />
		<tag k="ssr:stedsnr" v="73202" />
	</node>
	<node lat="63.041316669012375" lon="8.040283324970352" id="-2707">
		<tag k="name" v="Skogmo" />
		<tag k="place" v="farm" />
		<tag k="ssr:stedsnr" v="73241" />
	</node>
<<<<<<< HEAD
	<node lat="62.87369625631799" lon="8.301666836908517" id="-2710">
=======
	<node id="-81270" lat="63.0459393281" lon="8.03882343345">
>>>>>>> e1d4bc35ff8a6074a6f2e91616a996b547c36f15
		<tag k="fixme" v="consider place=hamlet" />
		<tag k="name" v="Jøviklia" />
		<tag k="place" v="farm" />
		<tag k="ssr:stedsnr" v="73272" />
	</node>
<<<<<<< HEAD
	<node lat="62.82933056098446" lon="8.361918929059067" id="-2714">
		<tag k="fixme" v="consider place=hamlet" />
		<tag k="name" v="Åkerfallet" />
=======
	<node id="-81269" lat="62.9516694464" lon="8.13600277855">
		<tag k="name" v="Teigan" />
>>>>>>> e1d4bc35ff8a6074a6f2e91616a996b547c36f15
		<tag k="place" v="farm" />
		<tag k="ssr:stedsnr" v="73327" />
	</node>
<<<<<<< HEAD
	<node lat="62.830666937835055" lon="8.306575537607086" id="-2715">
		<tag k="fixme" v="consider place=hamlet" />
		<tag k="name" v="Skar" />
=======
	<node id="-81268" lat="62.9748444463" lon="8.22898611957">
		<tag k="name" v="Sponnåsen" />
>>>>>>> e1d4bc35ff8a6074a6f2e91616a996b547c36f15
		<tag k="place" v="farm" />
		<tag k="ssr:stedsnr" v="73330" />
	</node>
<<<<<<< HEAD
	<node lat="62.993325000952545" lon="8.226655555066786" id="-2717">
		<tag k="historic" v="shieling" />
		<tag k="name" v="Nordbøsetra" />
		<tag k="place" v="isolated_dwelling" />
		<tag k="ssr:stedsnr" v="81620" />
	</node>
	<node lat="63.09485555958456" lon="8.10181111485855" id="-2725">
		<tag k="name" v="Indrebøen" />
		<tag k="place" v="farm" />
		<tag k="ssr:stedsnr" v="107299" />
	</node>
	<node lat="62.9507416658791" lon="8.272088880949545" id="-2728">
=======
	<node id="-81266" lat="62.8963111129" lon="8.2070222165">
		<tag k="alt_name" v="Saghøgda industriområde" />
		<tag k="name" v="Tingvoll næringspark" />
		<tag k="place" v="quarter" />
		<tag k="ssr:stedsnr" v="118302" />
	</node>
	<node id="-81262" lat="62.9507416659" lon="8.27208888095">
>>>>>>> e1d4bc35ff8a6074a6f2e91616a996b547c36f15
		<tag k="historic" v="shieling" />
		<tag k="name" v="Anderssetra" />
		<tag k="place" v="isolated_dwelling" />
		<tag k="ssr:stedsnr" v="107249" />
	</node>
<<<<<<< HEAD
	<node lat="62.97711666333548" lon="8.12466110284639" id="-2734">
		<tag k="historic" v="shieling" />
		<tag k="name" v="Gylsetra" />
		<tag k="place" v="isolated_dwelling" />
		<tag k="ssr:stedsnr" v="107795" />
	</node>
	<node lat="62.86755000437725" lon="8.277883329471816" id="-2735">
		<tag k="historic" v="shieling" />
		<tag k="name" v="Oppistusetra" />
=======
	<node id="-81254" lat="63.0382179707" lon="7.91299452207">
		<tag k="fixme" v="consider place=hamlet" />
		<tag k="name" v="Sallaupen" />
		<tag k="place" v="farm" />
		<tag k="ssr:stedsnr" v="255142" />
	</node>
	<node id="-81253" lat="62.8762573905" lon="8.34718192626">
		<tag k="fixme" v="consider place=hamlet" />
		<tag k="name" v="Åsprong" />
		<tag k="place" v="farm" />
		<tag k="ssr:stedsnr" v="255277" />
	</node>
	<node id="-81252" lat="63.0068611151" lon="8.08549445045">
		<tag k="name" v="Eikremsetra" />
>>>>>>> e1d4bc35ff8a6074a6f2e91616a996b547c36f15
		<tag k="place" v="isolated_dwelling" />
		<tag k="ssr:stedsnr" v="107951" />
	</node>
<<<<<<< HEAD
	<node lat="63.01893889033343" lon="7.948922231475017" id="-2739">
		<tag k="name" v="Faksvåg" />
=======
	<node id="-81251" lat="63.0667444474" lon="8.13065277268">
		<tag k="name" v="Sandvika" />
>>>>>>> e1d4bc35ff8a6074a6f2e91616a996b547c36f15
		<tag k="place" v="farm" />
		<tag k="ssr:stedsnr" v="107983" />
	</node>
<<<<<<< HEAD
	<node lat="62.9672166711255" lon="8.207308327074738" id="-2747">
=======
	<node id="-81250" lat="62.9942805579" lon="8.12011666511">
>>>>>>> e1d4bc35ff8a6074a6f2e91616a996b547c36f15
		<tag k="historic" v="shieling" />
		<tag k="name" v="Torjulseter" />
		<tag k="place" v="isolated_dwelling" />
		<tag k="ssr:stedsnr" v="108650" />
	</node>
<<<<<<< HEAD
	<node lat="63.07955277624978" lon="8.12902500149012" id="-2761">
		<tag k="name" v="Haugen hytte- og landbruksområde" />
		<tag k="place" v="neighbourhood" />
		<tag k="ssr:stedsnr" v="118298" />
	</node>
	<node lat="62.9158888923449" lon="8.19450277630394" id="-2762">
		<tag k="name" v="Midtvågen Nord" />
		<tag k="place" v="quarter" />
		<tag k="ssr:stedsnr" v="119285" />
	</node>
	<node lat="62.95166944639762" lon="8.136002778546855" id="-2763">
		<tag k="name" v="Teigan" />
=======
	<node id="-81246" lat="62.9762741994" lon="8.06431525503">
		<tag k="fixme" v="consider place=hamlet" />
		<tag k="name" v="Vulvika" />
		<tag k="place" v="farm" />
		<tag k="ssr:stedsnr" v="254889" />
	</node>
	<node id="-81244" lat="62.920477774" lon="8.29603611226">
		<tag k="name" v="Vårtun" />
		<tag k="place" v="farm" />
		<tag k="ssr:stedsnr" v="254699" />
	</node>
	<node id="-81243" lat="62.9217388867" lon="8.22941111904">
		<tag k="name" v="Solstad" />
>>>>>>> e1d4bc35ff8a6074a6f2e91616a996b547c36f15
		<tag k="place" v="farm" />
		<tag k="ssr:stedsnr" v="132933" />
	</node>
<<<<<<< HEAD
	<node lat="63.0459393280635" lon="8.038823433451958" id="-2764">
		<tag k="fixme" v="consider place=hamlet" />
		<tag k="name" v="Liabøen" />
=======
	<node id="-81242" lat="62.9328416657" lon="8.28941389458">
		<tag k="name" v="Geilen" />
>>>>>>> e1d4bc35ff8a6074a6f2e91616a996b547c36f15
		<tag k="place" v="farm" />
		<tag k="ssr:stedsnr" v="133131" />
	</node>
<<<<<<< HEAD
	<node lat="62.8258193737173" lon="8.349022081212944" id="-2766">
		<tag k="fixme" v="consider place=hamlet" />
		<tag k="name" v="Hafstad" />
=======
	<node id="-81241" lat="62.9617305549" lon="8.21899166236">
		<tag k="name" v="Vollan" />
>>>>>>> e1d4bc35ff8a6074a6f2e91616a996b547c36f15
		<tag k="place" v="farm" />
		<tag k="ssr:stedsnr" v="133290" />
	</node>
<<<<<<< HEAD
	<node lat="62.82872222569736" lon="8.291222226230579" id="-2767">
		<tag k="name" v="Skarshaugen" />
=======
	<node id="-81236" lat="63.041316669" lon="8.04028332497">
		<tag k="name" v="Skogmo" />
>>>>>>> e1d4bc35ff8a6074a6f2e91616a996b547c36f15
		<tag k="place" v="farm" />
		<tag k="ssr:stedsnr" v="133293" />
	</node>
<<<<<<< HEAD
	<node lat="62.863074996859794" lon="8.16533333637851" id="-2768">
		<tag k="name" v="Honnhammarvika" />
=======
	<node id="-81235" lat="63.0261055598" lon="7.98313889387">
		<tag k="name" v="Skjæret" />
>>>>>>> e1d4bc35ff8a6074a6f2e91616a996b547c36f15
		<tag k="place" v="farm" />
		<tag k="ssr:stedsnr" v="133480" />
	</node>
<<<<<<< HEAD
	<node lat="62.854398935426275" lon="8.162409124518295" id="-2769">
		<tag k="fixme" v="consider place=hamlet" />
		<tag k="name" v="Honnhammaren" />
		<tag k="place" v="farm" />
		<tag k="ssr:stedsnr" v="133497" />
	</node>
	<node lat="63.01698701600351" lon="7.978094877801145" id="-2771">
		<tag k="fixme" v="consider place=hamlet" />
		<tag k="name" v="Einset" />
=======
	<node id="-81229" lat="63.01086389" lon="7.96703889213">
		<tag k="name" v="Sletta" />
		<tag k="place" v="farm" />
		<tag k="ssr:stedsnr" v="73202" />
	</node>
	<node id="-81224" lat="62.9113805575" lon="8.20828889241">
		<tag k="name" v="Midtvågen i Tingvollvågen" />
		<tag k="place" v="quarter" />
		<tag k="ssr:stedsnr" v="240298" />
	</node>
	<node id="-81223" lat="63.0127722221" lon="7.97102221522">
		<tag k="name" v="Einset industriområde" />
		<tag k="place" v="quarter" />
		<tag k="ssr:stedsnr" v="240296" />
	</node>
	<node id="-81222" lat="63.0237583295" lon="7.88789721768">
		<tag k="name" v="Bøyfoten hyttefelt" />
		<tag k="place" v="neighbourhood" />
		<tag k="ssr:stedsnr" v="239301" />
	</node>
	<node id="-81219" lat="63.0004138888" lon="8.02571388319">
		<tag k="name" v="Leikvoll" />
>>>>>>> e1d4bc35ff8a6074a6f2e91616a996b547c36f15
		<tag k="place" v="farm" />
		<tag k="ssr:stedsnr" v="133191" />
	</node>
<<<<<<< HEAD
	<node lat="63.026701144143715" lon="8.143866895501192" id="-2772">
		<tag k="fixme" v="consider place=hamlet" />
		<tag k="name" v="Fløystad" />
		<tag k="place" v="farm" />
		<tag k="ssr:stedsnr" v="133196" />
	</node>
	<node lat="63.030388888044165" lon="8.021372214159973" id="-2773">
		<tag k="name" v="Stavne" />
		<tag k="place" v="farm" />
		<tag k="ssr:stedsnr" v="133211" />
	</node>
	<node lat="63.03294722203977" lon="8.029469435339124" id="-2774">
		<tag k="name" v="Elvelund" />
		<tag k="place" v="farm" />
		<tag k="ssr:stedsnr" v="133212" />
	</node>
	<node lat="62.88433625267039" lon="8.371493481682469" id="-2775">
		<tag k="fixme" v="consider place=hamlet" />
		<tag k="name" v="Sandneset" />
		<tag k="place" v="farm" />
		<tag k="ssr:stedsnr" v="133246" />
	</node>
	<node lat="62.85000737965847" lon="8.306054633177002" id="-2777">
		<tag k="fixme" v="consider place=hamlet" />
		<tag k="name" v="Seterlia" />
		<tag k="place" v="farm" />
		<tag k="ssr:stedsnr" v="133337" />
	</node>
	<node lat="62.85298055234771" lon="8.301225001382624" id="-2778">
		<tag k="name" v="Øra" />
		<tag k="place" v="farm" />
		<tag k="ssr:stedsnr" v="133338" />
	</node>
	<node lat="62.962710301457925" lon="8.239029963532884" id="-2779">
		<tag k="fixme" v="consider place=hamlet" />
		<tag k="name" v="Marhaugen" />
		<tag k="place" v="farm" />
		<tag k="ssr:stedsnr" v="133648" />
	</node>
	<node lat="62.91969722300441" lon="8.224147216633497" id="-2780">
		<tag k="name" v="Flata" />
		<tag k="place" v="farm" />
		<tag k="ssr:stedsnr" v="133694" />
	</node>
	<node lat="63.06339166628264" lon="8.042155557211036" id="-2792">
		<tag k="name" v="Østergården" />
		<tag k="place" v="farm" />
		<tag k="ssr:stedsnr" v="167449" />
	</node>
	<node lat="63.0186999956481" lon="7.893219436525492" id="-2802">
		<tag k="alt_name" v="Naustvolden" />
		<tag k="name" v="Naustvollen" />
		<tag k="place" v="farm" />
		<tag k="ssr:stedsnr" v="167601" />
	</node>
	<node lat="63.06670833378668" lon="7.986791663199925" id="-2804">
		<tag k="name" v="Nygarden" />
		<tag k="place" v="farm" />
		<tag k="ssr:stedsnr" v="167924" />
	</node>
	<node lat="62.887405559119465" lon="8.165122221772837" id="-2807">
		<tag k="historic" v="shieling" />
		<tag k="name" v="Hegerbergsetra" />
		<tag k="place" v="isolated_dwelling" />
		<tag k="ssr:stedsnr" v="168095" />
	</node>
	<node lat="63.00309166687658" lon="8.02439722325107" id="-2813">
		<tag k="name" v="Myrdalen" />
		<tag k="place" v="farm" />
		<tag k="ssr:stedsnr" v="168396" />
	</node>
	<node lat="62.88243055322623" lon="8.359436103238975" id="-2826">
		<tag k="name" v="Mindnes" />
		<tag k="place" v="farm" />
		<tag k="ssr:stedsnr" v="168732" />
	</node>
	<node lat="62.82139444018083" lon="8.359733330757713" id="-2831">
		<tag k="name" v="Hjelltun" />
		<tag k="place" v="farm" />
		<tag k="ssr:stedsnr" v="168829" />
	</node>
	<node lat="62.81178055620178" lon="8.338819441775227" id="-2833">
		<tag k="name" v="Oppigarden" />
		<tag k="place" v="farm" />
		<tag k="ssr:stedsnr" v="168844" />
	</node>
	<node lat="63.108795987521404" lon="8.07972509970583" id="-2856">
		<tag k="fixme" v="consider place=hamlet" />
		<tag k="name" v="Magnhildberget" />
		<tag k="place" v="farm" />
		<tag k="ssr:stedsnr" v="194320" />
	</node>
	<node lat="62.853663890514554" lon="8.303252784979534" id="-2857">
		<tag k="name" v="Skålneset" />
		<tag k="place" v="farm" />
		<tag k="ssr:stedsnr" v="194332" />
	</node>
	<node lat="62.8516166641746" lon="8.310511117766" id="-2859">
		<tag k="name" v="Nordlia" />
		<tag k="place" v="farm" />
		<tag k="ssr:stedsnr" v="194330" />
	</node>
	<node lat="62.98540555873754" lon="8.241408330630284" id="-2861">
		<tag k="name" v="Øvre Torjul" />
		<tag k="place" v="farm" />
		<tag k="ssr:stedsnr" v="194600" />
	</node>
	<node lat="62.97846944154229" lon="8.238550001894668" id="-2863">
		<tag k="name" v="Brekka" />
		<tag k="place" v="farm" />
		<tag k="ssr:stedsnr" v="194612" />
	</node>
	<node lat="62.97789166670241" lon="8.248113895042218" id="-2864">
		<tag k="name" v="Osen" />
		<tag k="place" v="farm" />
		<tag k="ssr:stedsnr" v="194617" />
	</node>
	<node lat="62.927508749359724" lon="8.230091005307807" id="-2865">
		<tag k="fixme" v="consider place=hamlet" />
		<tag k="name" v="Sollia" />
		<tag k="place" v="farm" />
		<tag k="ssr:stedsnr" v="194683" />
	</node>
	<node lat="62.927358329743676" lon="8.247855557636473" id="-2866">
		<tag k="name" v="Myrset" />
		<tag k="place" v="farm" />
		<tag k="ssr:stedsnr" v="194699" />
	</node>
	<node lat="62.995848464726" lon="8.073326335382207" id="-2869">
		<tag k="historic" v="shieling" />
		<tag k="name" v="Fjellsetra" />
		<tag k="place" v="isolated_dwelling" />
		<tag k="ssr:stedsnr" v="194849" />
	</node>
	<node lat="62.92863333365959" lon="8.251741660021581" id="-2874">
		<tag k="name" v="Skaret" />
		<tag k="place" v="isolated_dwelling" />
		<tag k="ssr:stedsnr" v="202235" />
	</node>
	<node lat="63.00639166297952" lon="8.001480559819155" id="-2875">
		<tag k="name" v="Kjervika" />
		<tag k="place" v="quarter" />
		<tag k="ssr:stedsnr" v="222424" />
	</node>
	<node lat="62.916169446076644" lon="8.190008334309256" id="-2876">
		<tag k="name" v="Rønningen" />
		<tag k="place" v="quarter" />
		<tag k="ssr:stedsnr" v="222427" />
	</node>
	<node lat="63.041102780746016" lon="7.996097226497" id="-2884">
		<tag k="name" v="Statsvoll" />
		<tag k="place" v="farm" />
		<tag k="ssr:stedsnr" v="228291" />
	</node>
	<node lat="63.04492499694852" lon="8.071388883111048" id="-2886">
		<tag k="name" v="Vikan" />
		<tag k="place" v="farm" />
		<tag k="ssr:stedsnr" v="228263" />
	</node>
	<node lat="62.901306183681235" lon="8.18456274503151" id="-2888">
		<tag k="fixme" v="consider place=hamlet" />
		<tag k="name" v="Åneset" />
		<tag k="place" v="farm" />
		<tag k="ssr:stedsnr" v="228379" />
	</node>
	<node lat="63.03225277367218" lon="8.001433335656328" id="-2891">
		<tag k="name" v="Hagen" />
		<tag k="place" v="farm" />
		<tag k="ssr:stedsnr" v="228518" />
	</node>
	<node lat="62.87291666482032" lon="8.310266668299542" id="-2892">
		<tag k="name" v="Naustvollan" />
		<tag k="place" v="quarter" />
		<tag k="ssr:stedsnr" v="283395" />
	</node>
	<node lat="63.05455832937203" lon="8.10883055143467" id="-2904">
		<tag k="historic" v="shieling" />
		<tag k="name" v="Litlsetra" />
		<tag k="place" v="isolated_dwelling" />
		<tag k="ssr:stedsnr" v="289244" />
	</node>
	<node lat="63.04148055956313" lon="7.993622215686249" id="-2911">
		<tag k="name" v="Groven" />
		<tag k="place" v="isolated_dwelling" />
		<tag k="ssr:stedsnr" v="289270" />
	</node>
	<node lat="63.00545000137922" lon="8.027091665195021" id="-2917">
		<tag k="name" v="Rønningen" />
		<tag k="place" v="farm" />
		<tag k="ssr:stedsnr" v="289397" />
	</node>
	<node lat="62.86229722444548" lon="8.297152777145643" id="-2923">
		<tag k="leisure" v="pitch" />
		<tag k="name" v="Meisingset stadion" />
		<tag k="ssr:stedsnr" v="289971" />
	</node>
	<node lat="63.00949719006615" lon="7.9998734743104" id="-2954">
		<tag k="alt_name" v="Ødegården" />
		<tag k="fixme" v="consider place=hamlet" />
		<tag k="name" v="Øygarden" />
		<tag k="place" v="farm" />
		<tag k="ssr:stedsnr" v="315191" />
	</node>
	<node lat="63.017727779727565" lon="7.936113886625922" id="-2955">
		<tag k="name" v="Aspsetra" />
		<tag k="place" v="farm" />
		<tag k="ssr:stedsnr" v="315195" />
	</node>
	<node lat="62.85717500147618" lon="8.236052769296476" id="-2957">
		<tag k="name" v="Solvang" />
		<tag k="place" v="farm" />
		<tag k="ssr:stedsnr" v="315238" />
	</node>
	<node lat="62.85571944862386" lon="8.261336120324374" id="-2960">
		<tag k="name" v="Venåsmyra" />
		<tag k="place" v="farm" />
		<tag k="ssr:stedsnr" v="315335" />
	</node>
	<node lat="62.97655833109959" lon="8.250516660632947" id="-2963">
		<tag k="name" v="Myra" />
		<tag k="place" v="farm" />
		<tag k="ssr:stedsnr" v="315646" />
	</node>
	<node lat="62.92093238107719" lon="8.243194625935056" id="-2965">
		<tag k="fixme" v="consider place=hamlet" />
		<tag k="name" v="Harholten" />
		<tag k="place" v="farm" />
		<tag k="ssr:stedsnr" v="315725" />
	</node>
	<node lat="62.967322222143856" lon="8.089786110146846" id="-2967">
		<tag k="historic" v="shieling" />
		<tag k="name" v="Hammarsetra" />
		<tag k="place" v="isolated_dwelling" />
		<tag k="ssr:stedsnr" v="315879" />
	</node>
	<node lat="62.9151548628665" lon="8.21325729925529" id="-2969">
		<tag k="fixme" v="consider place=hamlet" />
		<tag k="name" v="Koksvika" />
		<tag k="place" v="farm" />
		<tag k="ssr:stedsnr" v="315939" />
	</node>
	<node lat="63.05165426187843" lon="8.089090688509788" id="-2972">
		<tag k="name" v="Skeisvollen" />
		<tag k="place" v="farm" />
		<tag k="ssr:stedsnr" v="316170" />
	</node>
	<node lat="63.10264444371753" lon="8.034497218297433" id="-2973">
		<tag k="name" v="Haugen" />
		<tag k="place" v="farm" />
		<tag k="ssr:stedsnr" v="316421" />
	</node>
	<node lat="63.089674590573374" lon="8.113428800277248" id="-2975">
		<tag k="fixme" v="consider place=hamlet" />
		<tag k="name" v="Rokstonga" />
		<tag k="place" v="farm" />
		<tag k="ssr:stedsnr" v="316384" />
	</node>
	<node lat="63.01444443998447" lon="7.983919436586775" id="-2978">
		<tag k="name" v="Einset" />
		<tag k="place" v="quarter" />
		<tag k="ssr:stedsnr" v="343443" />
	</node>
	<node lat="62.88531110827559" lon="8.365513888597537" id="-2979">
		<tag k="name" v="Furuneset hyttefelt" />
		<tag k="place" v="neighbourhood" />
		<tag k="ssr:stedsnr" v="343444" />
	</node>
	<node lat="63.070977780712454" lon="8.063369439603118" id="-2999">
		<tag k="historic" v="shieling" />
		<tag k="name" v="Grimstadsetra" />
		<tag k="place" v="isolated_dwelling" />
		<tag k="ssr:stedsnr" v="349484" />
	</node>
	<node lat="63.070455552954506" lon="8.001852774450896" id="-3004">
		<tag k="name" v="Kammen" />
		<tag k="place" v="farm" />
		<tag k="ssr:stedsnr" v="349953" />
	</node>
	<node lat="63.06445832974764" lon="7.977625002108846" id="-3005">
		<tag k="name" v="Sandvoll" />
		<tag k="place" v="farm" />
		<tag k="ssr:stedsnr" v="349943" />
	</node>
	<node lat="62.85295833621921" lon="8.192816675261277" id="-3007">
		<tag k="historic" v="shieling" />
		<tag k="name" v="Gammelsetra" />
		<tag k="place" v="isolated_dwelling" />
		<tag k="ssr:stedsnr" v="350067" />
	</node>
	<node lat="63.040419444885636" lon="8.127247216460505" id="-3018">
		<tag k="name" v="Nistua" />
		<tag k="place" v="farm" />
		<tag k="ssr:stedsnr" v="350245" />
	</node>
	<node lat="62.996369442368916" lon="8.051850006859912" id="-3020">
		<tag k="historic" v="shieling" />
		<tag k="name" v="Lauvsetra" />
		<tag k="place" v="isolated_dwelling" />
		<tag k="ssr:stedsnr" v="350386" />
	</node>
	<node lat="62.8201694474691" lon="8.290202786198135" id="-3028">
		<tag k="historic" v="shieling" />
		<tag k="name" v="Holtan" />
		<tag k="place" v="isolated_dwelling" />
		<tag k="ssr:stedsnr" v="350760" />
	</node>
	<node lat="62.91677221916549" lon="8.301461120049524" id="-3032">
		<tag k="name" v="Skogheim hytte- og naustområde" />
		<tag k="place" v="neighbourhood" />
		<tag k="ssr:stedsnr" v="360279" />
	</node>
	<node lat="62.976216663687566" lon="8.246463897868933" id="-3033">
		<tag k="name" v="Osahaugen" />
		<tag k="place" v="quarter" />
		<tag k="ssr:stedsnr" v="362302" />
	</node>
	<node lat="62.92713008726272" lon="8.15817272632388" id="-3034">
		<tag k="fixme" v="consider place=hamlet" />
		<tag k="name" v="Brøddvika" />
		<tag k="place" v="farm" />
		<tag k="ssr:stedsnr" v="375955" />
	</node>
	<node lat="62.951494444652305" lon="8.315158326996674" id="-3037">
		<tag k="name" v="Naustvollen" />
		<tag k="place" v="farm" />
		<tag k="ssr:stedsnr" v="375674" />
	</node>
	<node lat="62.99651944204475" lon="7.922274993972296" id="-3038">
		<tag k="alt_name" v="Hagan" />
		<tag k="name" v="Hagen" />
		<tag k="place" v="farm" />
		<tag k="ssr:stedsnr" v="375852" />
	</node>
	<node lat="63.03765555162853" lon="8.040522221371571" id="-3044">
		<tag k="name" v="Leitet" />
		<tag k="place" v="isolated_dwelling" />
		<tag k="ssr:stedsnr" v="376251" />
	</node>
	<node lat="63.01909076142891" lon="7.961442577596389" id="-3048">
		<tag k="fixme" v="consider place=hamlet" />
		<tag k="name" v="Skjelvågen" />
		<tag k="place" v="farm" />
		<tag k="ssr:stedsnr" v="376215" />
	</node>
	<node lat="63.08665833551394" lon="8.127444450628227" id="-3050">
		<tag k="name" v="Vikan" />
		<tag k="place" v="farm" />
		<tag k="ssr:stedsnr" v="376334" />
	</node>
	<node lat="62.837002777836" lon="8.295636112917101" id="-3051">
		<tag k="name" v="Nygård" />
		<tag k="place" v="farm" />
		<tag k="ssr:stedsnr" v="376346" />
	</node>
	<node lat="62.84311513417665" lon="8.282328482578096" id="-3053">
		<tag k="fixme" v="consider place=hamlet" />
		<tag k="name" v="Bergslia" />
		<tag k="place" v="farm" />
		<tag k="ssr:stedsnr" v="376353" />
	</node>
	<node lat="62.84063223104003" lon="8.295903519375697" id="-3054">
		<tag k="fixme" v="consider place=hamlet" />
		<tag k="name" v="Hanem" />
		<tag k="place" v="farm" />
		<tag k="ssr:stedsnr" v="376355" />
	</node>
	<node lat="62.889772085613075" lon="8.153927432478389" id="-3060">
		<tag k="fixme" v="consider place=hamlet" />
		<tag k="name" v="Hegerberget" />
		<tag k="place" v="farm" />
		<tag k="ssr:stedsnr" v="376984" />
	</node>
	<node lat="62.89507778084669" lon="8.20054444688548" id="-3061">
		<tag k="name" v="Stølbygda" />
		<tag k="place" v="hamlet" />
		<tag k="ssr:stedsnr" v="376994" />
	</node>
	<node lat="63.00921110745293" lon="8.117494454262747" id="-3062">
		<tag k="historic" v="shieling" />
		<tag k="name" v="Nysetra" />
		<tag k="place" v="isolated_dwelling" />
		<tag k="ssr:stedsnr" v="384578" />
	</node>
	<node lat="62.86478889018612" lon="8.32262221587429" id="-3065">
		<tag k="name" v="Åsprong hyttefelt" />
		<tag k="place" v="neighbourhood" />
		<tag k="ssr:stedsnr" v="404433" />
	</node>
	<node lat="63.06206944542956" lon="8.009619439203737" id="-3073">
		<tag k="name" v="Vassbotn" />
		<tag k="place" v="farm" />
		<tag k="ssr:stedsnr" v="410257" />
	</node>
	<node lat="63.05261388972487" lon="8.026902785337315" id="-3074">
		<tag k="name" v="Sundet" />
		<tag k="place" v="farm" />
		<tag k="ssr:stedsnr" v="410262" />
	</node>
	<node lat="63.05119444219062" lon="8.026108323593535" id="-3075">
		<tag k="name" v="Isaksstua" />
		<tag k="place" v="farm" />
		<tag k="ssr:stedsnr" v="410263" />
	</node>
	<node lat="63.04756944551484" lon="8.118347227249847" id="-3077">
		<tag k="name" v="Straumen" />
		<tag k="place" v="farm" />
		<tag k="ssr:stedsnr" v="410284" />
	</node>
	<node lat="63.03316944427261" lon="8.012444442242943" id="-3080">
		<tag k="fixme" v="consider place=hamlet" />
		<tag k="name" v="Ulset" />
		<tag k="place" v="farm" />
		<tag k="ssr:stedsnr" v="410401" />
	</node>
	<node lat="63.06948055740084" lon="8.100577777341115" id="-3086">
		<tag k="historic" v="shieling" />
		<tag k="name" v="Storsetra" />
		<tag k="place" v="isolated_dwelling" />
		<tag k="ssr:stedsnr" v="410454" />
	</node>
	<node lat="63.0200266718615" lon="8.01218231940398" id="-3096">
		<tag k="fixme" v="consider place=hamlet" />
		<tag k="name" v="Langset" />
		<tag k="place" v="farm" />
		<tag k="ssr:stedsnr" v="411373" />
	</node>
	<node lat="62.84012222299095" lon="8.339105555646906" id="-3113">
		<tag k="historic" v="shieling" />
		<tag k="name" v="Hanemsetra" />
		<tag k="place" v="isolated_dwelling" />
		<tag k="ssr:stedsnr" v="411951" />
	</node>
	<node lat="63.015149996452976" lon="7.969733339555861" id="-3118">
		<tag k="name" v="Skjelvåg" />
		<tag k="place" v="hamlet" />
		<tag k="ssr:stedsnr" v="411979" />
	</node>
	<node lat="63.06615833099429" lon="8.016175003428513" id="-3120">
		<tag k="name" v="Slåa hyttefelt" />
		<tag k="place" v="neighbourhood" />
		<tag k="ssr:stedsnr" v="422456" />
	</node>
	<node lat="63.099711107712025" lon="8.026966658925348" id="-3123">
		<tag k="name" v="Osen" />
		<tag k="place" v="farm" />
		<tag k="ssr:stedsnr" v="437389" />
	</node>
	<node lat="62.938405551567286" lon="8.296175008207396" id="-3125">
		<tag k="name" v="Kleivavollen" />
		<tag k="place" v="farm" />
		<tag k="ssr:stedsnr" v="436694" />
	</node>
	<node lat="62.907153754657315" lon="8.318719385672816" id="-3128">
		<tag k="fixme" v="consider place=hamlet" />
		<tag k="name" v="Bølset" />
		<tag k="place" v="farm" />
		<tag k="ssr:stedsnr" v="436736" />
	</node>
	<node lat="63.016354080994184" lon="7.904461294348052" id="-3131">
		<tag k="fixme" v="consider place=hamlet" />
		<tag k="name" v="Aspa" />
		<tag k="place" v="farm" />
		<tag k="ssr:stedsnr" v="437233" />
	</node>
	<node lat="63.034883333508986" lon="8.129724994585944" id="-3132">
		<tag k="name" v="Kamsvågtrøa" />
		<tag k="place" v="farm" />
		<tag k="ssr:stedsnr" v="437240" />
	</node>
	<node lat="63.05870833007173" lon="8.03458610549229" id="-3133">
		<tag k="name" v="Trøa" />
		<tag k="place" v="farm" />
		<tag k="ssr:stedsnr" v="437180" />
	</node>
	<node lat="62.87937865991239" lon="8.31283566039403" id="-3137">
		<tag k="fixme" v="consider place=hamlet" />
		<tag k="name" v="Bekken" />
		<tag k="place" v="farm" />
		<tag k="ssr:stedsnr" v="437287" />
	</node>
	<node lat="63.089458329274315" lon="7.993263885404966" id="-3139">
		<tag k="name" v="Setra" />
		<tag k="place" v="farm" />
		<tag k="ssr:stedsnr" v="437344" />
	</node>
	<node lat="62.89344444485998" lon="8.158666669728529" id="-3145">
		<tag k="name" v="Hegerbergslættet" />
		<tag k="place" v="farm" />
		<tag k="ssr:stedsnr" v="437994" />
	</node>
	<node lat="62.869163890553764" lon="8.306324993163377" id="-3146">
		<tag k="name" v="Bruksgrenda" />
		<tag k="place" v="quarter" />
		<tag k="ssr:stedsnr" v="445242" />
	</node>
	<node lat="63.07604690252475" lon="8.126717859937068" id="-3147">
		<tag k="name" v="Hals" />
		<tag k="place" v="farm" />
		<tag k="ssr:stedsnr" v="445249" />
	</node>
	<node lat="62.95605277393478" lon="8.117322228833155" id="-3150">
		<tag k="name" v="Vikan" />
		<tag k="place" v="farm" />
		<tag k="ssr:stedsnr" v="496883" />
	</node>
	<node lat="63.06658055626662" lon="8.022908329873948" id="-3152">
		<tag k="name" v="Berget" />
		<tag k="place" v="farm" />
		<tag k="ssr:stedsnr" v="497159" />
	</node>
	<node lat="63.064706321719065" lon="7.988569250479758" id="-3153">
		<tag k="fixme" v="consider place=hamlet" />
		<tag k="name" v="Kvisvika" />
		<tag k="place" v="farm" />
		<tag k="ssr:stedsnr" v="497161" />
	</node>
	<node lat="63.000561111440824" lon="7.947891658629673" id="-3155">
		<tag k="name" v="Boksaspa" />
		<tag k="place" v="farm" />
		<tag k="ssr:stedsnr" v="497185" />
	</node>
	<node lat="62.93944444712667" lon="8.295855548934211" id="-3156">
		<tag k="name" v="Bøavollen" />
		<tag k="place" v="farm" />
		<tag k="ssr:stedsnr" v="497685" />
	</node>
	<node lat="62.854633334944324" lon="8.276491667419883" id="-3158">
		<tag k="name" v="Haugen" />
		<tag k="place" v="farm" />
		<tag k="ssr:stedsnr" v="497364" />
	</node>
	<node lat="62.97314166229399" lon="8.227683328936823" id="-3161">
		<tag k="name" v="Hagan" />
		<tag k="old_name" v="Hagen" />
		<tag k="place" v="farm" />
		<tag k="ssr:stedsnr" v="497630" />
	</node>
	<node lat="63.050697223873144" lon="8.031411116376098" id="-3163">
		<tag k="name" v="Vårtun" />
		<tag k="place" v="farm" />
		<tag k="ssr:stedsnr" v="498161" />
	</node>
	<node lat="62.92474755104389" lon="8.158784601739162" id="-3166">
		<tag k="fixme" v="consider place=hamlet" />
		<tag k="name" v="Lauvvika" />
		<tag k="place" v="farm" />
		<tag k="ssr:stedsnr" v="497968" />
	</node>
	<node lat="63.05544722358886" lon="8.019877770695865" id="-3167">
		<tag k="name" v="Hagan" />
		<tag k="place" v="farm" />
		<tag k="ssr:stedsnr" v="498183" />
	</node>
	<node lat="62.88322221880578" lon="8.36260833470911" id="-3168">
		<tag k="name" v="Nordheim" />
		<tag k="place" v="farm" />
		<tag k="ssr:stedsnr" v="498311" />
	</node>
	<node lat="63.100049996730036" lon="7.970452781271347" id="-3172">
		<tag k="name" v="Bukta" />
		<tag k="place" v="isolated_dwelling" />
		<tag k="ssr:stedsnr" v="506579" />
	</node>
	<node lat="63.04036111165076" lon="7.984902782820535" id="-3175">
		<tag k="name" v="Rønninghaug" />
		<tag k="place" v="farm" />
		<tag k="ssr:stedsnr" v="530442" />
	</node>
	<node lat="63.053736108874865" lon="8.029991669203444" id="-3176">
		<tag k="name" v="Røten" />
		<tag k="place" v="farm" />
		<tag k="ssr:stedsnr" v="531266" />
	</node>
	<node lat="63.09439999878485" lon="7.970094444080354" id="-3198">
		<tag k="name" v="Årsund" />
		<tag k="place" v="farm" />
		<tag k="ssr:stedsnr" v="532301" />
	</node>
	<node lat="62.97904288937037" lon="8.251581330591554" id="-3204">
		<tag k="fixme" v="consider place=hamlet" />
		<tag k="name" v="Holmen" />
		<tag k="place" v="farm" />
		<tag k="ssr:stedsnr" v="532689" />
	</node>
	<node lat="62.816716665143794" lon="8.357533339159756" id="-3214">
		<tag k="name" v="Kvernabekken hyttefelt" />
		<tag k="place" v="neighbourhood" />
		<tag k="ssr:stedsnr" v="543336" />
	</node>
	<node lat="63.010958332361994" lon="7.9933833360535305" id="-3215">
		<tag k="name" v="Øygarden hyttefelt" />
		<tag k="place" v="neighbourhood" />
		<tag k="ssr:stedsnr" v="543339" />
	</node>
	<node lat="62.99936944146922" lon="7.936941664250425" id="-3216">
		<tag k="name" v="Boksaspa" />
		<tag k="place" v="quarter" />
		<tag k="ssr:stedsnr" v="543450" />
	</node>
	<node lat="62.971240061533244" lon="8.251698906392459" id="-3217">
		<tag k="fixme" v="consider place=hamlet" />
		<tag k="name" v="Vågen" />
		<tag k="place" v="farm" />
		<tag k="ssr:stedsnr" v="557630" />
	</node>
	<node lat="62.95390000264106" lon="8.127816657096805" id="-3221">
		<tag k="fixme" v="consider place=hamlet" />
		<tag k="name" v="Gyl" />
		<tag k="place" v="village" />
		<tag k="ssr:stedsnr" v="557920" />
	</node>
	<node lat="62.99357778044141" lon="8.254166667661226" id="-3222">
		<tag k="name" v="Vika" />
		<tag k="place" v="farm" />
		<tag k="ssr:stedsnr" v="557591" />
	</node>
	<node lat="62.92497500255253" lon="8.243583336024063" id="-3223">
		<tag k="name" v="Midtgarden" />
		<tag k="place" v="farm" />
		<tag k="ssr:stedsnr" v="557691" />
	</node>
	<node lat="62.92276944366257" lon="8.239269446141574" id="-3224">
		<tag k="name" v="Mardal" />
		<tag k="place" v="farm" />
		<tag k="ssr:stedsnr" v="557692" />
	</node>
	<node lat="62.99474444456449" lon="7.898238889183849" id="-3225">
		<tag k="name" v="Rambjøra" />
		<tag k="place" v="farm" />
		<tag k="ssr:stedsnr" v="557865" />
	</node>
	<node lat="62.96417221850069" lon="8.09426111210128" id="-3226">
		<tag k="fixme" v="consider place=hamlet" />
		<tag k="name" v="Kansdalen" />
		<tag k="place" v="farm" />
		<tag k="ssr:stedsnr" v="557877" />
	</node>
	<node lat="62.89896840259362" lon="8.193953403550534" id="-3227">
		<tag k="fixme" v="consider place=hamlet" />
		<tag k="name" v="Saglia" />
		<tag k="place" v="farm" />
		<tag k="ssr:stedsnr" v="557990" />
	</node>
	<node lat="63.001718117964295" lon="8.187119119147825" id="-3228">
		<tag k="historic" v="shieling" />
		<tag k="name" v="Kamsvågsetra" />
		<tag k="place" v="isolated_dwelling" />
		<tag k="ssr:stedsnr" v="558202" />
	</node>
	<node lat="63.05977221974545" lon="8.00618888192782" id="-3232">
		<tag k="name" v="Vasseng" />
		<tag k="place" v="farm" />
		<tag k="ssr:stedsnr" v="558166" />
	</node>
	<node lat="63.02974722401703" lon="8.100724998486298" id="-3236">
		<tag k="name" v="Utigarden" />
		<tag k="place" v="farm" />
		<tag k="ssr:stedsnr" v="558239" />
	</node>
	<node lat="62.82743716987694" lon="8.377380902118743" id="-3237">
		<tag k="historic" v="shieling" />
		<tag k="name" v="Myra" />
		<tag k="place" v="isolated_dwelling" />
		<tag k="ssr:stedsnr" v="558322" />
	</node>
	<node lat="62.82861011691075" lon="8.335544066665241" id="-3239">
		<tag k="fixme" v="consider place=hamlet" />
		<tag k="name" v="Røskaret" />
		<tag k="place" v="farm" />
		<tag k="ssr:stedsnr" v="558331" />
	</node>
	<node lat="62.8201944463889" lon="8.291052785699762" id="-3240">
		<tag k="name" v="Fjøseidholtan" />
		<tag k="place" v="farm" />
		<tag k="ssr:stedsnr" v="558334" />
	</node>
	<node lat="62.857041666753354" lon="8.28427222524608" id="-3241">
		<tag k="name" v="Nistua" />
		<tag k="place" v="farm" />
		<tag k="ssr:stedsnr" v="558383" />
	</node>
	<node lat="62.88197157745199" lon="8.159831471373733" id="-3245">
		<tag k="fixme" v="consider place=hamlet" />
		<tag k="name" v="Kårsteinen" />
		<tag k="place" v="farm" />
		<tag k="ssr:stedsnr" v="558536" />
	</node>
	<node lat="62.851725126602425" lon="8.177178811386845" id="-3246">
		<tag k="fixme" v="consider place=hamlet" />
		<tag k="name" v="Gjørsvika" />
		<tag k="place" v="farm" />
		<tag k="ssr:stedsnr" v="558566" />
	</node>
	<node lat="62.89972500231761" lon="8.309675001614774" id="-3247">
		<tag k="historic" v="shieling" />
		<tag k="name" v="Løsetsetra" />
		<tag k="place" v="isolated_dwelling" />
		<tag k="ssr:stedsnr" v="566598" />
	</node>
	<node lat="63.04451666581227" lon="7.9791555486374275" id="-3248">
		<tag k="name" v="Skadalen" />
		<tag k="place" v="quarter" />
		<tag k="ssr:stedsnr" v="586463" />
	</node>
	<node lat="63.062583330364866" lon="8.000436118811596" id="-3255">
		<tag k="name" v="Bjergheim" />
		<tag k="place" v="farm" />
		<tag k="ssr:stedsnr" v="591882" />
	</node>
	<node lat="62.952883329642155" lon="8.160483339455883" id="-3269">
		<tag k="historic" v="shieling" />
		<tag k="name" v="Heststølen" />
		<tag k="place" v="isolated_dwelling" />
		<tag k="ssr:stedsnr" v="592491" />
	</node>
	<node lat="63.01606944049118" lon="7.89280833475557" id="-3275">
		<tag k="name" v="Solvang" />
		<tag k="place" v="farm" />
		<tag k="ssr:stedsnr" v="592588" />
	</node>
	<node lat="63.016391662505356" lon="7.982311110135478" id="-3277">
		<tag k="name" v="Sørstrand" />
=======
	<node id="-81218" lat="63.0410833349" lon="8.0511750081">
		<tag k="alt_name" v="Sveeback" />
		<tag k="name" v="Svebakk" />
		<tag k="place" v="farm" />
		<tag k="ssr:stedsnr" v="46548" />
	</node>
	<node id="-81217" lat="62.9258277786" lon="8.26928333744">
		<tag k="name" v="Husabrekka hyttefelt" />
		<tag k="place" v="neighbourhood" />
		<tag k="ssr:stedsnr" v="40475" />
	</node>
	<node id="-81210" lat="62.8349527772" lon="8.29908055066">
		<tag k="name" v="Nistua" />
		<tag k="place" v="farm" />
		<tag k="ssr:stedsnr" v="229964" />
	</node>
	<node id="-81194" lat="62.877052782" lon="8.18951110252">
		<tag k="historic" v="shieling" />
		<tag k="name" v="Ormsetsetra" />
		<tag k="place" v="locality" />
		<tag k="ssr:stedsnr" v="229082" />
	</node>
	<node id="-81193" lat="62.966787732" lon="8.08072062307">
		<tag k="fixme" v="consider place=hamlet" />
		<tag k="name" v="Hammaren" />
		<tag k="place" v="farm" />
		<tag k="ssr:stedsnr" v="228810" />
	</node>
	<node id="-81184" lat="62.9013061837" lon="8.18456274503">
		<tag k="fixme" v="consider place=hamlet" />
		<tag k="name" v="Åneset" />
		<tag k="place" v="farm" />
		<tag k="ssr:stedsnr" v="228379" />
	</node>
	<node id="-81182" lat="63.0411027807" lon="7.9960972265">
		<tag k="name" v="Statsvoll" />
		<tag k="place" v="farm" />
		<tag k="ssr:stedsnr" v="228291" />
	</node>
	<node id="-81172" lat="63.0103694412" lon="8.10466110551">
		<tag k="historic" v="shieling" />
		<tag k="name" v="Gammelsetra" />
		<tag k="place" v="locality" />
		<tag k="ssr:stedsnr" v="21604" />
	</node>
	<node id="-81169" lat="62.9301504303" lon="8.26923013265">
		<tag k="fixme" v="consider place=hamlet" />
		<tag k="name" v="Kringstad" />
		<tag k="place" v="farm" />
		<tag k="ssr:stedsnr" v="12714" />
	</node>
	<node id="-81168" lat="62.9897138868" lon="8.10077223006">
		<tag k="historic" v="shieling" />
		<tag k="name" v="Vulviksetra" />
		<tag k="place" v="locality" />
		<tag k="ssr:stedsnr" v="12843" />
	</node>
	<node id="-81167" lat="62.8277000027" lon="8.34145277688">
		<tag k="name" v="Lia" />
		<tag k="place" v="farm" />
		<tag k="ssr:stedsnr" v="12325" />
	</node>
	<node id="-81161" lat="62.9161694461" lon="8.19000833431">
		<tag k="name" v="Rønningen" />
		<tag k="place" v="quarter" />
		<tag k="ssr:stedsnr" v="222427" />
	</node>
	<node id="-81160" lat="63.006391663" lon="8.00148055982">
		<tag k="name" v="Kjervika" />
		<tag k="place" v="quarter" />
		<tag k="ssr:stedsnr" v="222424" />
	</node>
	<node id="-83108" lat="62.998609692" lon="8.02886402235">
		<tag k="name" v="Tveekrem" />
		<tag k="place" v="isolated_dwelling" />
		<tag k="ssr:stedsnr" v="987345" />
	</node>
	<node id="-83107" lat="63.0163749747" lon="7.97611000502">
		<tag k="name" v="Einset" />
		<tag k="place" v="farm" />
		<tag k="ssr:stedsnr" v="986849" />
	</node>
	<node id="-83106" lat="63.0178588984" lon="7.97825365849">
		<tag k="name" v="Einset" />
		<tag k="place" v="farm" />
		<tag k="ssr:stedsnr" v="986848" />
	</node>
	<node id="-83100" lat="62.8553998849" lon="8.23506166672">
		<tag k="name" v="Holtan" />
		<tag k="place" v="farm" />
		<tag k="ssr:stedsnr" v="983541" />
	</node>
	<node id="-83099" lat="62.876847293" lon="8.34679539468">
		<tag k="alt_name" v="Nistua" />
		<tag k="name" v="Åsprong" />
		<tag k="place" v="farm" />
		<tag k="ssr:stedsnr" v="982732" />
	</node>
	<node id="-83098" lat="62.9912221827" lon="7.88507752782">
		<tag k="name" v="Skjevlingsnes" />
		<tag k="place" v="farm" />
		<tag k="ssr:stedsnr" v="982724" />
	</node>
	<node id="-83096" lat="62.8579579455" lon="8.28462115468">
		<tag k="fixme" v="consider place=hamlet" />
		<tag k="name" v="Meisingset" />
		<tag k="place" v="farm" />
		<tag k="ssr:stedsnr" v="980338" />
	</node>
	<node id="-83095" lat="63.1046991064" lon="8.10699765102">
		<tag k="fixme" v="consider place=hamlet" />
		<tag k="loc_name" v="Fåråneset" />
		<tag k="name" v="Furunes" />
		<tag k="place" v="farm" />
		<tag k="ssr:stedsnr" v="980406" />
	</node>
	<node id="-83094" lat="62.8578508931" lon="8.27768660129">
		<tag k="alt_name" v="Løkken" />
		<tag k="name" v="Lykkja" />
		<tag k="place" v="farm" />
		<tag k="ssr:stedsnr" v="980021" />
	</node>
	<node id="-83093" lat="63.0308045223" lon="8.01642281394">
		<tag k="name" v="Ulset" />
		<tag k="place" v="farm" />
		<tag k="ssr:stedsnr" v="978903" />
	</node>
	<node id="-83089" lat="63.019662608" lon="7.89507547754">
		<tag k="name" v="Mekran" />
		<tag k="place" v="farm" />
		<tag k="ssr:stedsnr" v="975296" />
	</node>
	<node id="-83088" lat="62.9540638854" lon="8.32278610538">
		<tag k="name" v="Holmeid hyttefelt" />
		<tag k="place" v="neighbourhood" />
		<tag k="ssr:stedsnr" v="968310" />
	</node>
	<node id="-83087" lat="62.9560555583" lon="8.32650555259">
		<tag k="name" v="Aksnes hyttefelt" />
		<tag k="place" v="neighbourhood" />
		<tag k="ssr:stedsnr" v="968306" />
	</node>
	<node id="-83074" lat="62.808888887" lon="8.33302222975">
		<tag k="name" v="Negarden" />
		<tag k="place" v="farm" />
		<tag k="ssr:stedsnr" v="957852" />
	</node>
	<node id="-83065" lat="62.8901576001" lon="8.33315470958">
		<tag k="fixme" v="consider place=hamlet" />
		<tag k="name" v="Røttingsnes" />
		<tag k="place" v="farm" />
		<tag k="ssr:stedsnr" v="957585" />
	</node>
	<node id="-83064" lat="62.8941583361" lon="8.30006111821">
		<tag k="historic" v="shieling" />
		<tag k="name" v="Nysetra" />
		<tag k="place" v="locality" />
		<tag k="ssr:stedsnr" v="957578" />
	</node>
	<node id="-83060" lat="63.0973805526" lon="8.04691667387">
		<tag k="historic" v="shieling" />
		<tag k="name" v="Strandasetra" />
		<tag k="place" v="locality" />
		<tag k="ssr:stedsnr" v="957302" />
	</node>
	<node id="-83056" lat="62.9757916689" lon="8.21222222312">
		<tag k="historic" v="shieling" />
		<tag k="name" v="Gammelsetra" />
		<tag k="place" v="locality" />
		<tag k="ssr:stedsnr" v="957268" />
	</node>
	<node id="-83040" lat="63.0649499998" lon="7.98968333617">
		<tag k="name" v="Tunga" />
		<tag k="place" v="farm" />
		<tag k="ssr:stedsnr" v="956913" />
	</node>
	<node id="-83037" lat="63.0420305514" lon="8.04960277244">
		<tag k="name" v="Solstad" />
		<tag k="place" v="farm" />
		<tag k="ssr:stedsnr" v="956559" />
	</node>
	<node id="-83036" lat="63.0432388902" lon="8.05660555149">
		<tag k="name" v="Bjørkås" />
		<tag k="place" v="farm" />
		<tag k="ssr:stedsnr" v="956557" />
	</node>
	<node id="-83035" lat="63.042647225" lon="8.05248054561">
		<tag k="name" v="Nordheim" />
		<tag k="place" v="farm" />
		<tag k="ssr:stedsnr" v="956555" />
	</node>
	<node id="-83031" lat="63.0626944469" lon="8.07764445307">
		<tag k="historic" v="shieling" />
		<tag k="name" v="Skeisvollsetra" />
		<tag k="place" v="locality" />
		<tag k="ssr:stedsnr" v="956476" />
	</node>
	<node id="-83021" lat="63.0915277803" lon="7.99452500839">
		<tag k="name" v="Sørbugt" />
		<tag k="place" v="farm" />
		<tag k="ssr:stedsnr" v="956390" />
	</node>
	<node id="-83017" lat="62.9739788411" lon="8.22727553643">
		<tag k="fixme" v="consider place=hamlet" />
		<tag k="name" v="Sponnåsen" />
		<tag k="place" v="farm" />
		<tag k="ssr:stedsnr" v="870594" />
	</node>
	<node id="-83013" lat="62.8590305562" lon="8.31589723084">
		<tag k="name" v="Buneset" />
		<tag k="place" v="farm" />
		<tag k="ssr:stedsnr" v="862379" />
	</node>
	<node id="-83011" lat="62.8363501476" lon="8.30185206623">
		<tag k="name" v="Hanemstrøa" />
		<tag k="place" v="farm" />
		<tag k="ssr:stedsnr" v="862348" />
	</node>
	<node id="-83010" lat="63.0948596569" lon="7.97197005459">
		<tag k="fixme" v="consider place=hamlet" />
		<tag k="name" v="Årsund" />
		<tag k="place" v="farm" />
		<tag k="ssr:stedsnr" v="862336" />
	</node>
	<node id="-83007" lat="63.0409162534" lon="7.97632939353">
		<tag k="fixme" v="consider place=hamlet" />
		<tag k="name" v="Nålsund" />
		<tag k="place" v="farm" />
		<tag k="ssr:stedsnr" v="862263" />
	</node>
	<node id="-83001" lat="62.9912683182" lon="8.0372519523">
		<tag k="name" v="Treekra" />
		<tag k="old_name" v="Tveekra" />
		<tag k="place" v="farm" />
		<tag k="ssr:stedsnr" v="861874" />
	</node>
	<node id="-83000" lat="62.9981992968" lon="8.02838941636">
		<tag k="fixme" v="multiple name tags, choose one and add the other to alt_name; consider place=hamlet" />
		<tag k="name" v="Tveekra;Inner-Øygarden" />
		<tag k="place" v="farm" />
		<tag k="ssr:stedsnr" v="861873" />
	</node>
	<node id="-82999" lat="62.9868833366" lon="8.04129999881">
		<tag k="name" v="Treekerhagan" />
		<tag k="place" v="farm" />
		<tag k="ssr:stedsnr" v="861861" />
	</node>
	<node id="-82998" lat="62.9990777802" lon="7.92842222897">
		<tag k="name" v="Sletta" />
		<tag k="place" v="farm" />
		<tag k="ssr:stedsnr" v="861822" />
	</node>
	<node id="-82996" lat="62.9120638872" lon="8.1575611045">
		<tag k="name" v="Øygarden" />
		<tag k="place" v="locality" />
		<tag k="ssr:stedsnr" v="861949" />
	</node>
	<node id="-82995" lat="62.9342388899" lon="8.29048332523">
		<tag k="name" v="Kleiva" />
		<tag k="place" v="farm" />
		<tag k="ssr:stedsnr" v="861687" />
	</node>
	<node id="-82991" lat="63.0675000002" lon="7.99135277757">
		<tag k="name" v="Kvisvik Nord" />
		<tag k="place" v="quarter" />
		<tag k="ssr:stedsnr" v="848312" />
	</node>
	<node id="-82990" lat="63.0130083323" lon="7.96656945191">
		<tag k="name" v="Einset" />
		<tag k="place" v="quarter" />
		<tag k="ssr:stedsnr" v="846287" />
	</node>
	<node id="-82987" lat="62.9215583375" lon="8.23593333987">
		<tag k="name" v="Bjørge" />
		<tag k="place" v="farm" />
		<tag k="ssr:stedsnr" v="838140" />
	</node>
	<node id="-82961" lat="63.0293527816" lon="8.14008887904">
		<tag k="name" v="Fredheim" />
		<tag k="place" v="farm" />
		<tag k="ssr:stedsnr" v="836233" />
	</node>
	<node id="-82960" lat="63.0346888915" lon="8.12911666655">
		<tag k="name" v="Trøen" />
		<tag k="place" v="farm" />
		<tag k="ssr:stedsnr" v="836232" />
	</node>
	<node id="-82958" lat="62.974244444" lon="8.20136665693">
		<tag k="historic" v="shieling" />
		<tag k="name" v="Sponåssetra" />
		<tag k="place" v="locality" />
		<tag k="ssr:stedsnr" v="836226" />
	</node>
	<node id="-82954" lat="62.9801222242" lon="8.26968334093">
		<tag k="historic" v="shieling" />
		<tag k="name" v="Stranda" />
		<tag k="place" v="locality" />
		<tag k="ssr:stedsnr" v="836077" />
	</node>
	<node id="-82952" lat="62.9571027757" lon="8.30800834027">
		<tag k="historic" v="shieling" />
		<tag k="name" v="Strupstadsetra" />
		<tag k="place" v="locality" />
		<tag k="ssr:stedsnr" v="836074" />
	</node>
	<node id="-82939" lat="63.0093308444" lon="8.1973010159">
		<tag k="name" v="Jordal" />
		<tag k="place" v="hamlet" />
		<tag k="ssr:stedsnr" v="834051" />
	</node>
	<node id="-82933" lat="62.8819972223" lon="8.22990277304">
		<tag k="historic" v="shieling" />
		<tag k="name" v="Stølsetra" />
		<tag k="place" v="locality" />
		<tag k="ssr:stedsnr" v="809622" />
	</node>
	<node id="-82932" lat="63.1000666695" lon="7.9704694478">
		<tag k="name" v="Bukta" />
		<tag k="place" v="isolated_dwelling" />
		<tag k="ssr:stedsnr" v="809262" />
	</node>
	<node id="-82930" lat="62.917579571" lon="8.16063300258">
		<tag k="fixme" v="consider place=hamlet" />
		<tag k="name" v="Almvika" />
		<tag k="place" v="farm" />
		<tag k="ssr:stedsnr" v="801950" />
	</node>
	<node id="-82929" lat="62.9023974983" lon="8.19368681267">
		<tag k="fixme" v="consider place=hamlet" />
		<tag k="name" v="Rimstad" />
		<tag k="place" v="farm" />
		<tag k="ssr:stedsnr" v="801992" />
	</node>
	<node id="-82928" lat="62.8861638902" lon="8.15671110891">
		<tag k="name" v="Hegerbergtrøa" />
		<tag k="place" v="farm" />
		<tag k="ssr:stedsnr" v="801987" />
	</node>
	<node id="-82925" lat="62.9250805545" lon="8.28267221355">
		<tag k="fixme" v="consider place=hamlet" />
		<tag k="name" v="Vågbøen" />
		<tag k="place" v="village" />
		<tag k="ssr:stedsnr" v="801708" />
	</node>
	<node id="-82923" lat="62.8699799431" lon="8.16513263032">
		<tag k="fixme" v="consider place=hamlet" />
		<tag k="name" v="Ormset" />
		<tag k="place" v="farm" />
		<tag k="ssr:stedsnr" v="801496" />
	</node>
	<node id="-82919" lat="62.8376833341" lon="8.33592777812">
		<tag k="historic" v="shieling" />
		<tag k="name" v="Skarssetra" />
		<tag k="place" v="locality" />
		<tag k="ssr:stedsnr" v="801322" />
	</node>
	<node id="-82918" lat="62.9042777821" lon="8.32527222933">
		<tag k="name" v="Plassen" />
		<tag k="place" v="farm" />
		<tag k="ssr:stedsnr" v="801301" />
	</node>
	<node id="-82915" lat="62.8105499995" lon="8.26923611967">
		<tag k="name" v="Vika" />
		<tag k="place" v="farm" />
		<tag k="ssr:stedsnr" v="801394" />
	</node>
	<node id="-82912" lat="63.0526416665" lon="8.12177777794">
		<tag k="name" v="Skjerran" />
		<tag k="place" v="farm" />
		<tag k="ssr:stedsnr" v="801147" />
	</node>
	<node id="-82907" lat="62.8817472211" lon="8.31967499749">
		<tag k="name" v="Strand" />
		<tag k="place" v="farm" />
		<tag k="ssr:stedsnr" v="801253" />
	</node>
	<node id="-82906" lat="62.8740277742" lon="8.28883055651">
		<tag k="historic" v="shieling" />
		<tag k="name" v="Jøviksetra" />
		<tag k="place" v="locality" />
		<tag k="ssr:stedsnr" v="801236" />
	</node>
	<node id="-82905" lat="62.9916638852" lon="8.25194444193">
		<tag k="name" v="Vikavollen" />
		<tag k="place" v="farm" />
		<tag k="ssr:stedsnr" v="800640" />
	</node>
	<node id="-82904" lat="63.0259444471" lon="7.9980444385">
		<tag k="name" v="Olvika hyttefelt" />
		<tag k="place" v="neighbourhood" />
		<tag k="ssr:stedsnr" v="785415" />
	</node>
	<node id="-82903" lat="63.0272805597" lon="8.13406389373">
		<tag k="name" v="Fløystadmyran hyttefelt" />
		<tag k="place" v="neighbourhood" />
		<tag k="ssr:stedsnr" v="785290" />
	</node>
	<node id="-82883" lat="62.8889388886" lon="8.20781111681">
		<tag k="name" v="Stølhagan" />
		<tag k="place" v="farm" />
		<tag k="ssr:stedsnr" v="775159" />
	</node>
	<node id="-82882" lat="62.8815555595" lon="8.23063887956">
		<tag k="historic" v="shieling" />
		<tag k="name" v="Innerstølsetra" />
		<tag k="place" v="locality" />
		<tag k="ssr:stedsnr" v="775154" />
	</node>
	<node id="-82872" lat="63.0383388883" lon="8.03340277077">
		<tag k="historic" v="shieling" />
		<tag k="name" v="Ulsetsetra" />
		<tag k="place" v="locality" />
		<tag k="ssr:stedsnr" v="774446" />
	</node>
	<node id="-82869" lat="63.0922250029" lon="8.11054722921">
		<tag k="name" v="Rydningen" />
		<tag k="place" v="farm" />
		<tag k="ssr:stedsnr" v="774346" />
	</node>
	<node id="-82855" lat="62.9979527801" lon="7.94441666462">
		<tag k="name" v="Boksaspa hyttefelt" />
		<tag k="place" v="neighbourhood" />
		<tag k="ssr:stedsnr" v="768437" />
	</node>
	<node id="-82853" lat="62.8384444458" lon="8.38923332684">
		<tag k="name" v="Vasslisetra" />
		<tag k="place" v="locality" />
		<tag k="ssr:stedsnr" v="752035" />
	</node>
	<node id="-82852" lat="62.8997416668" lon="8.30969444293">
		<tag k="historic" v="shieling" />
		<tag k="name" v="Løvsetsetra" />
		<tag k="place" v="locality" />
		<tag k="ssr:stedsnr" v="748245" />
	</node>
	<node id="-82851" lat="63.0382444425" lon="8.04263889173">
		<tag k="name" v="Beiteråsen" />
		<tag k="place" v="farm" />
		<tag k="ssr:stedsnr" v="741299" />
	</node>
	<node id="-82850" lat="62.9130805562" lon="8.20556388315">
		<tag k="name" v="Tingvoll" />
		<tag k="place" v="village" />
		<tag k="ssr:stedsnr" v="740984" />
	</node>
	<node id="-82847" lat="62.8403027789" lon="8.3394055639">
		<tag k="historic" v="shieling" />
		<tag k="name" v="Hanemssetra" />
		<tag k="place" v="locality" />
		<tag k="ssr:stedsnr" v="740341" />
	</node>
	<node id="-82845" lat="62.8359861137" lon="8.29375555049">
		<tag k="name" v="Enga" />
		<tag k="place" v="farm" />
		<tag k="ssr:stedsnr" v="740335" />
	</node>
	<node id="-82844" lat="62.8914916678" lon="8.31907500446">
		<tag k="historic" v="shieling" />
		<tag k="name" v="Røttingsnesetra" />
		<tag k="place" v="locality" />
		<tag k="ssr:stedsnr" v="740272" />
	</node>
	<node id="-82841" lat="63.0195176718" lon="7.94342136418">
		<tag k="fixme" v="consider place=hamlet" />
		<tag k="name" v="Faksvågen" />
		<tag k="place" v="farm" />
		<tag k="ssr:stedsnr" v="740198" />
	</node>
	<node id="-82840" lat="63.0143277758" lon="7.99944999727">
		<tag k="alt_name" v="Viken" />
		<tag k="name" v="Vika" />
		<tag k="place" v="farm" />
		<tag k="ssr:stedsnr" v="740197" />
	</node>
	<node id="-82838" lat="62.929927186" lon="8.15728004211">
		<tag k="fixme" v="consider place=hamlet" />
		<tag k="loc_name" v="Kvennhusvika" />
		<tag k="name" v="Kvernhusvika" />
		<tag k="place" v="farm" />
		<tag k="ssr:stedsnr" v="739941" />
	</node>
	<node id="-82837" lat="62.9400402724" lon="8.14894107633">
		<tag k="fixme" v="consider place=hamlet" />
		<tag k="name" v="Bergem" />
		<tag k="place" v="farm" />
		<tag k="ssr:stedsnr" v="739890" />
	</node>
	<node id="-82818" lat="63.0172942418" lon="7.9854867694">
		<tag k="alt_name" v="Norstrand" />
		<tag k="name" v="Nordstrand" />
		<tag k="place" v="farm" />
		<tag k="ssr:stedsnr" v="653738" />
	</node>
	<node id="-82807" lat="62.9868527735" lon="8.04178332617">
		<tag k="name" v="Hagan" />
		<tag k="place" v="farm" />
		<tag k="ssr:stedsnr" v="653488" />
	</node>
	<node id="-82803" lat="62.8918833294" lon="8.20861943603">
		<tag k="fixme" v="consider place=hamlet" />
		<tag k="name" v="Slettbakk" />
		<tag k="place" v="farm" />
		<tag k="ssr:stedsnr" v="653302" />
	</node>
	<node id="-82783" lat="63.0703555564" lon="8.01187778434">
		<tag k="name" v="Kvisviksetra" />
		<tag k="place" v="isolated_dwelling" />
		<tag k="ssr:stedsnr" v="627604" />
	</node>
	<node id="-82779" lat="63.1063097664" lon="8.05776614858">
		<tag k="fixme" v="consider place=hamlet" />
		<tag k="name" v="Mørkedalen" />
		<tag k="place" v="farm" />
		<tag k="ssr:stedsnr" v="619400" />
	</node>
	<node id="-82778" lat="63.091663891" lon="8.00305278015">
		<tag k="name" v="Nygarden" />
		<tag k="place" v="farm" />
		<tag k="ssr:stedsnr" v="619369" />
	</node>
	<node id="-82777" lat="62.8226447592" lon="8.24752738498">
		<tag k="fixme" v="consider place=hamlet" />
		<tag k="name" v="Ballstad" />
		<tag k="place" v="farm" />
		<tag k="ssr:stedsnr" v="619367" />
	</node>
	<node id="-82776" lat="63.0912111068" lon="7.99847221796">
		<tag k="name" v="Myra" />
		<tag k="place" v="farm" />
		<tag k="ssr:stedsnr" v="619366" />
	</node>
	<node id="-82775" lat="63.0440861136" lon="8.06417777447">
		<tag k="fixme" v="multiple name tags, choose one and add the other to alt_name" />
		<tag k="name" v="Hauan;Haugen" />
		<tag k="place" v="farm" />
		<tag k="ssr:stedsnr" v="619274" />
	</node>
	<node id="-82773" lat="63.0093833328" lon="7.89796389795">
		<tag k="name" v="Jåvika" />
		<tag k="place" v="farm" />
		<tag k="ssr:stedsnr" v="619242" />
	</node>
	<node id="-82772" lat="63.025122222" lon="8.14975555189">
		<tag k="name" v="Nystua" />
		<tag k="place" v="farm" />
		<tag k="ssr:stedsnr" v="619237" />
	</node>
	<node id="-82771" lat="63.0064463829" lon="8.00862348011">
		<tag k="fixme" v="consider place=hamlet" />
		<tag k="name" v="Kjervika" />
		<tag k="place" v="farm" />
		<tag k="ssr:stedsnr" v="619234" />
	</node>
	<node id="-82770" lat="63.0627423485" lon="8.04284905694">
		<tag k="fixme" v="consider place=hamlet" />
		<tag k="name" v="Vasselen" />
		<tag k="place" v="farm" />
		<tag k="ssr:stedsnr" v="619200" />
	</node>
	<node id="-82769" lat="63.0518972181" lon="7.97790278076">
		<tag k="name" v="Storvika" />
		<tag k="place" v="isolated_dwelling" />
		<tag k="ssr:stedsnr" v="619186" />
	</node>
	<node id="-82766" lat="63.0501166038" lon="8.1022996619">
		<tag k="alt_name" v="Kanestrøm" />
		<tag k="fixme" v="consider place=hamlet" />
		<tag k="name" v="Kanestraum" />
		<tag k="place" v="farm" />
		<tag k="ssr:stedsnr" v="619158" />
	</node>
	<node id="-82765" lat="62.9770638847" lon="8.12720278774">
		<tag k="historic" v="shieling" />
		<tag k="name" v="Gylsetra" />
		<tag k="place" v="locality" />
		<tag k="ssr:stedsnr" v="618886" />
	</node>
	<node id="-82755" lat="63.0804707714" lon="8.12861837902">
		<tag k="fixme" v="consider place=hamlet" />
		<tag k="name" v="Hals" />
		<tag k="place" v="farm" />
		<tag k="ssr:stedsnr" v="618304" />
	</node>
	<node id="-82754" lat="62.9048305574" lon="8.3228388943">
		<tag k="fixme" v="multiple name tags, choose one and add the other to alt_name" />
		<tag k="name" v="Myra;Myran" />
		<tag k="place" v="farm" />
		<tag k="ssr:stedsnr" v="618282" />
	</node>
	<node id="-82753" lat="63.0295498163" lon="8.10618197876">
		<tag k="fixme" v="consider place=hamlet" />
		<tag k="name" v="Vatn" />
		<tag k="place" v="farm" />
		<tag k="ssr:stedsnr" v="618193" />
	</node>
	<node id="-82752" lat="62.90575833" lon="8.19802777734">
		<tag k="name" v="Sortdal" />
		<tag k="place" v="quarter" />
		<tag k="ssr:stedsnr" v="604297" />
	</node>
	<node id="-82751" lat="63.0217944471" lon="7.98986944975">
		<tag k="name" v="Almlia hyttefelt" />
		<tag k="place" v="neighbourhood" />
		<tag k="ssr:stedsnr" v="603444" />
	</node>
	<node id="-82750" lat="63.0400777767" lon="7.95420278054">
		<tag k="name" v="Vikahaugen hyttefelt" />
		<tag k="place" v="neighbourhood" />
		<tag k="ssr:stedsnr" v="603443" />
	</node>
	<node id="-82747" lat="63.0718805562" lon="8.13974444131">
		<tag k="name" v="Jutvika" />
		<tag k="place" v="locality" />
		<tag k="ssr:stedsnr" v="594592" />
	</node>
	<node id="-82723" lat="62.8711111116" lon="8.37917499298">
		<tag k="historic" v="shieling" />
		<tag k="name" v="Nysetra" />
		<tag k="place" v="locality" />
		<tag k="ssr:stedsnr" v="593591" />
	</node>
	<node id="-82698" lat="62.8107861112" lon="8.26874165947">
		<tag k="name" v="Vikan" />
		<tag k="place" v="farm" />
		<tag k="ssr:stedsnr" v="592823" />
	</node>
	<node id="-82697" lat="63.0163916625" lon="7.98231111014">
		<tag k="name" v="Sørstrand" />
		<tag k="place" v="farm" />
		<tag k="ssr:stedsnr" v="592769" />
	</node>
	<node id="-82688" lat="63.0160694405" lon="7.89280833476">
		<tag k="name" v="Solvang" />
		<tag k="place" v="farm" />
		<tag k="ssr:stedsnr" v="592588" />
	</node>
	<node id="-82686" lat="62.9528833296" lon="8.16048333946">
		<tag k="historic" v="shieling" />
		<tag k="name" v="Heststølen" />
		<tag k="place" v="locality" />
		<tag k="ssr:stedsnr" v="592491" />
	</node>
	<node id="-82682" lat="62.9756111084" lon="8.12500834044">
		<tag k="historic" v="shieling" />
		<tag k="name" v="Gylsetra" />
		<tag k="place" v="locality" />
		<tag k="ssr:stedsnr" v="592458" />
	</node>
	<node id="-82665" lat="63.0625833304" lon="8.00043611881">
		<tag k="name" v="Bjergheim" />
		<tag k="place" v="farm" />
		<tag k="ssr:stedsnr" v="591882" />
	</node>
	<node id="-82661" lat="62.8997250023" lon="8.30967500161">
		<tag k="historic" v="shieling" />
		<tag k="name" v="Løsetsetra" />
		<tag k="place" v="locality" />
		<tag k="ssr:stedsnr" v="566598" />
	</node>
	<node id="-82660" lat="62.8819715775" lon="8.15983147137">
		<tag k="fixme" v="consider place=hamlet" />
		<tag k="name" v="Kårsteinen" />
		<tag k="place" v="farm" />
		<tag k="ssr:stedsnr" v="558536" />
	</node>
	<node id="-82657" lat="62.8517251266" lon="8.17717881139">
		<tag k="fixme" v="consider place=hamlet" />
		<tag k="name" v="Gjørsvika" />
		<tag k="place" v="farm" />
		<tag k="ssr:stedsnr" v="558566" />
	</node>
	<node id="-82655" lat="62.8570416668" lon="8.28427222525">
		<tag k="name" v="Nistua" />
		<tag k="place" v="farm" />
		<tag k="ssr:stedsnr" v="558383" />
	</node>
	<node id="-82653" lat="62.8327472179" lon="8.31008889757">
		<tag k="name" v="Lauvlia" />
		<tag k="place" v="farm" />
		<tag k="ssr:stedsnr" v="558343" />
	</node>
	<node id="-82652" lat="62.8201944464" lon="8.2910527857">
		<tag k="name" v="Fjøseidholtan" />
		<tag k="place" v="farm" />
		<tag k="ssr:stedsnr" v="558334" />
	</node>
	<node id="-82651" lat="62.8286101169" lon="8.33554406667">
		<tag k="fixme" v="consider place=hamlet" />
		<tag k="name" v="Røskaret" />
		<tag k="place" v="farm" />
		<tag k="ssr:stedsnr" v="558331" />
	</node>
	<node id="-82649" lat="62.8274371699" lon="8.37738090212">
		<tag k="historic" v="shieling" />
		<tag k="name" v="Myra" />
		<tag k="place" v="locality" />
		<tag k="ssr:stedsnr" v="558322" />
	</node>
	<node id="-82645" lat="63.029747224" lon="8.10072499849">
		<tag k="name" v="Utigarden" />
		<tag k="place" v="farm" />
		<tag k="ssr:stedsnr" v="558239" />
	</node>
	<node id="-82642" lat="62.9225588259" lon="8.19950931491">
		<tag k="fixme" v="consider place=hamlet" />
		<tag k="name" v="Reitan" />
		<tag k="place" v="farm" />
		<tag k="ssr:stedsnr" v="557951" />
	</node>
	<node id="-82641" lat="62.9539000026" lon="8.1278166571">
		<tag k="fixme" v="consider place=hamlet" />
		<tag k="name" v="Gyl" />
		<tag k="place" v="village" />
		<tag k="ssr:stedsnr" v="557920" />
	</node>
	<node id="-82640" lat="62.9641722185" lon="8.0942611121">
		<tag k="fixme" v="consider place=hamlet" />
		<tag k="name" v="Kansdalen" />
		<tag k="place" v="farm" />
		<tag k="ssr:stedsnr" v="557877" />
	</node>
	<node id="-82639" lat="62.9227694437" lon="8.23926944614">
		<tag k="name" v="Mardal" />
		<tag k="place" v="farm" />
		<tag k="ssr:stedsnr" v="557692" />
	</node>
	<node id="-82638" lat="62.9249750026" lon="8.24358333602">
		<tag k="name" v="Midtgarden" />
		<tag k="place" v="farm" />
		<tag k="ssr:stedsnr" v="557691" />
	</node>
	<node id="-82637" lat="62.8989684026" lon="8.19395340355">
		<tag k="fixme" v="consider place=hamlet" />
		<tag k="name" v="Saglia" />
		<tag k="place" v="farm" />
		<tag k="ssr:stedsnr" v="557990" />
	</node>
	<node id="-82633" lat="62.9712400615" lon="8.25169890639">
		<tag k="fixme" v="consider place=hamlet" />
		<tag k="name" v="Vågen" />
		<tag k="place" v="farm" />
		<tag k="ssr:stedsnr" v="557630" />
	</node>
	<node id="-82631" lat="62.9935777804" lon="8.25416666766">
		<tag k="name" v="Vika" />
		<tag k="place" v="farm" />
		<tag k="ssr:stedsnr" v="557591" />
	</node>
	<node id="-82630" lat="62.9993694415" lon="7.93694166425">
		<tag k="name" v="Boksaspa" />
		<tag k="place" v="quarter" />
		<tag k="ssr:stedsnr" v="543450" />
	</node>
	<node id="-82629" lat="63.0109583324" lon="7.99338333605">
		<tag k="name" v="Øygarden hyttefelt" />
		<tag k="place" v="neighbourhood" />
		<tag k="ssr:stedsnr" v="543339" />
	</node>
	<node id="-82622" lat="63.0176027801" lon="8.0047861036">
		<tag k="name" v="Nes" />
		<tag k="place" v="farm" />
		<tag k="ssr:stedsnr" v="532719" />
	</node>
	<node id="-82619" lat="62.9790428894" lon="8.25158133059">
		<tag k="fixme" v="consider place=hamlet" />
		<tag k="name" v="Holmen" />
		<tag k="place" v="farm" />
		<tag k="ssr:stedsnr" v="532689" />
	</node>
	<node id="-82616" lat="62.95541944" lon="8.1866111151">
		<tag k="historic" v="shieling" />
		<tag k="name" v="Johansetra" />
		<tag k="place" v="locality" />
		<tag k="ssr:stedsnr" v="532669" />
	</node>
	<node id="-82601" lat="63.0943999988" lon="7.97009444408">
		<tag k="name" v="Årsund" />
		<tag k="place" v="farm" />
		<tag k="ssr:stedsnr" v="532301" />
	</node>
	<node id="-82593" lat="63.0016916687" lon="8.02354722542">
		<tag k="name" v="Oppistua" />
		<tag k="place" v="farm" />
		<tag k="ssr:stedsnr" v="532381" />
	</node>
	<node id="-82585" lat="62.9516111111" lon="8.28250833932">
		<tag k="historic" v="shieling" />
		<tag k="name" v="Gammelsetra" />
		<tag k="place" v="locality" />
		<tag k="ssr:stedsnr" v="532229" />
	</node>
	<node id="-82584" lat="62.9428277778" lon="8.29296111479">
		<tag k="leisure" v="pitch" />
		<tag k="name" v="Nylykkja" />
		<tag k="ssr:stedsnr" v="532226" />
	</node>
	<node id="-82582" lat="63.0068805548" lon="7.99827500314">
		<tag k="name" v="Solhaug" />
		<tag k="place" v="farm" />
		<tag k="ssr:stedsnr" v="531733" />
	</node>
	<node id="-82575" lat="63.0329861087" lon="8.01005555299">
		<tag k="name" v="Garden" />
		<tag k="place" v="farm" />
		<tag k="ssr:stedsnr" v="531398" />
	</node>
	<node id="-82564" lat="63.0537361089" lon="8.0299916692">
		<tag k="name" v="Røten" />
		<tag k="place" v="farm" />
		<tag k="ssr:stedsnr" v="531266" />
	</node>
	<node id="-82563" lat="63.0403611117" lon="7.98490278282">
		<tag k="name" v="Rønninghaug" />
		<tag k="place" v="farm" />
		<tag k="ssr:stedsnr" v="530442" />
	</node>
	<node id="-82560" lat="62.8904027778" lon="8.33277221804">
		<tag k="name" v="Røttingsnes" />
		<tag k="place" v="farm" />
		<tag k="ssr:stedsnr" v="521406" />
	</node>
	<node id="-82559" lat="62.8934444449" lon="8.15866666973">
		<tag k="name" v="Hegerbergslættet" />
		<tag k="place" v="farm" />
		<tag k="ssr:stedsnr" v="437994" />
	</node>
	<node id="-82554" lat="63.0997111077" lon="8.02696665893">
		<tag k="name" v="Osen" />
		<tag k="place" v="farm" />
		<tag k="ssr:stedsnr" v="437389" />
	</node>
	<node id="-82551" lat="63.0348833335" lon="8.12972499459">
		<tag k="name" v="Kamsvågtrøa" />
		<tag k="place" v="farm" />
		<tag k="ssr:stedsnr" v="437240" />
	</node>
	<node id="-82550" lat="63.016354081" lon="7.90446129435">
		<tag k="fixme" v="consider place=hamlet" />
		<tag k="name" v="Aspa" />
		<tag k="place" v="farm" />
		<tag k="ssr:stedsnr" v="437233" />
	</node>
	<node id="-82544" lat="63.0587083301" lon="8.03458610549">
		<tag k="name" v="Trøa" />
		<tag k="place" v="farm" />
		<tag k="ssr:stedsnr" v="437180" />
	</node>
	<node id="-82541" lat="63.0894583293" lon="7.9932638854">
		<tag k="name" v="Setra" />
		<tag k="place" v="farm" />
		<tag k="ssr:stedsnr" v="437344" />
	</node>
	<node id="-82539" lat="62.8793786599" lon="8.31283566039">
		<tag k="fixme" v="consider place=hamlet" />
		<tag k="name" v="Bekken" />
		<tag k="place" v="farm" />
		<tag k="ssr:stedsnr" v="437287" />
	</node>
	<node id="-82538" lat="62.9071537547" lon="8.31871938567">
		<tag k="fixme" v="consider place=hamlet" />
		<tag k="name" v="Bølset" />
		<tag k="place" v="farm" />
		<tag k="ssr:stedsnr" v="436736" />
	</node>
	<node id="-82534" lat="62.9384055516" lon="8.29617500821">
		<tag k="name" v="Kleivavollen" />
		<tag k="place" v="farm" />
		<tag k="ssr:stedsnr" v="436694" />
	</node>
	<node id="-82533" lat="63.066158331" lon="8.01617500343">
		<tag k="name" v="Slåa hyttefelt" />
		<tag k="place" v="neighbourhood" />
		<tag k="ssr:stedsnr" v="422456" />
	</node>
	<node id="-82531" lat="63.0151499965" lon="7.96973333956">
		<tag k="name" v="Skjelvåg" />
		<tag k="place" v="hamlet" />
		<tag k="ssr:stedsnr" v="411979" />
	</node>
	<node id="-82529" lat="62.840122223" lon="8.33910555565">
		<tag k="historic" v="shieling" />
		<tag k="name" v="Hanemsetra" />
		<tag k="place" v="locality" />
		<tag k="ssr:stedsnr" v="411951" />
	</node>
	<node id="-82528" lat="62.8516833343" lon="8.28438333293">
		<tag k="name" v="Myra" />
		<tag k="place" v="farm" />
		<tag k="ssr:stedsnr" v="411935" />
	</node>
	<node id="-82519" lat="62.8112258404" lon="8.33785366816">
		<tag k="alt_name" v="Havdalen" />
		<tag k="fixme" v="consider place=hamlet" />
		<tag k="name" v="Havdal" />
		<tag k="place" v="farm" />
		<tag k="ssr:stedsnr" v="411841" />
	</node>
	<node id="-82515" lat="62.9186055524" lon="8.2048527821">
		<tag k="name" v="Holan" />
		<tag k="place" v="farm" />
		<tag k="ssr:stedsnr" v="411792" />
	</node>
	<node id="-82502" lat="63.1029444488" lon="8.04095000783">
		<tag k="name" v="Saltgjelen" />
		<tag k="place" v="farm" />
		<tag k="ssr:stedsnr" v="411297" />
	</node>
	<node id="-82483" lat="62.9938083324" lon="8.03213056296">
		<tag k="name" v="Gjelen" />
		<tag k="place" v="farm" />
		<tag k="ssr:stedsnr" v="411444" />
	</node>
	<node id="-82481" lat="63.0694805574" lon="8.10057777734">
		<tag k="historic" v="shieling" />
		<tag k="name" v="Storsetra" />
		<tag k="place" v="locality" />
		<tag k="ssr:stedsnr" v="410454" />
	</node>
	<node id="-82475" lat="63.0331694443" lon="8.01244444224">
		<tag k="fixme" v="consider place=hamlet" />
		<tag k="name" v="Ulset" />
		<tag k="place" v="farm" />
		<tag k="ssr:stedsnr" v="410401" />
	</node>
	<node id="-82471" lat="63.0475694455" lon="8.11834722725">
		<tag k="name" v="Straumen" />
		<tag k="place" v="farm" />
		<tag k="ssr:stedsnr" v="410284" />
	</node>
	<node id="-82469" lat="63.0511944422" lon="8.02610832359">
		<tag k="name" v="Isaksstua" />
		<tag k="place" v="farm" />
		<tag k="ssr:stedsnr" v="410263" />
	</node>
	<node id="-82468" lat="63.0526138897" lon="8.02690278534">
		<tag k="name" v="Sundet" />
		<tag k="place" v="farm" />
		<tag k="ssr:stedsnr" v="410262" />
	</node>
	<node id="-82467" lat="63.0620694454" lon="8.0096194392">
		<tag k="name" v="Vassbotn" />
		<tag k="place" v="farm" />
		<tag k="ssr:stedsnr" v="410257" />
	</node>
	<node id="-82456" lat="62.8647888902" lon="8.32262221587">
		<tag k="name" v="Åsprong hyttefelt" />
		<tag k="place" v="neighbourhood" />
		<tag k="ssr:stedsnr" v="404433" />
	</node>
	<node id="-82455" lat="63.0092111075" lon="8.11749445426">
		<tag k="historic" v="shieling" />
		<tag k="name" v="Nysetra" />
		<tag k="place" v="locality" />
		<tag k="ssr:stedsnr" v="384578" />
	</node>
	<node id="-82454" lat="62.8950777808" lon="8.20054444689">
		<tag k="name" v="Stølbygda" />
		<tag k="place" v="hamlet" />
		<tag k="ssr:stedsnr" v="376994" />
	</node>
	<node id="-82453" lat="62.8897720856" lon="8.15392743248">
		<tag k="fixme" v="consider place=hamlet" />
		<tag k="name" v="Hegerberget" />
		<tag k="place" v="farm" />
		<tag k="ssr:stedsnr" v="376984" />
	</node>
	<node id="-82447" lat="62.8816451054" lon="8.21698541064">
		<tag k="fixme" v="consider place=hamlet" />
		<tag k="name" v="Stølan" />
		<tag k="place" v="farm" />
		<tag k="ssr:stedsnr" v="376516" />
	</node>
	<node id="-82444" lat="63.0376555516" lon="8.04052222137">
		<tag k="name" v="Leitet" />
		<tag k="place" v="isolated_dwelling" />
		<tag k="ssr:stedsnr" v="376251" />
	</node>
	<node id="-82442" lat="63.0190907614" lon="7.9614425776">
		<tag k="fixme" v="consider place=hamlet" />
		<tag k="name" v="Skjelvågen" />
		<tag k="place" v="farm" />
		<tag k="ssr:stedsnr" v="376215" />
	</node>
	<node id="-82438" lat="62.840632231" lon="8.29590351938">
		<tag k="fixme" v="consider place=hamlet" />
		<tag k="name" v="Hanem" />
		<tag k="place" v="farm" />
		<tag k="ssr:stedsnr" v="376355" />
	</node>
	<node id="-82437" lat="62.8431151342" lon="8.28232848258">
		<tag k="fixme" v="consider place=hamlet" />
		<tag k="name" v="Bergslia" />
		<tag k="place" v="farm" />
		<tag k="ssr:stedsnr" v="376353" />
	</node>
	<node id="-82435" lat="62.8370027778" lon="8.29563611292">
		<tag k="name" v="Nygård" />
		<tag k="place" v="farm" />
		<tag k="ssr:stedsnr" v="376346" />
	</node>
	<node id="-82431" lat="63.0745388896" lon="7.9740249961">
		<tag k="name" v="Stabbursvika" />
		<tag k="place" v="farm" />
		<tag k="ssr:stedsnr" v="376185" />
	</node>
	<node id="-82429" lat="63.0786966463" lon="7.97849237902">
		<tag k="fixme" v="consider place=hamlet" />
		<tag k="name" v="Skaret" />
		<tag k="place" v="farm" />
		<tag k="ssr:stedsnr" v="376183" />
	</node>
	<node id="-82420" lat="62.9271300873" lon="8.15817272632">
		<tag k="fixme" v="consider place=hamlet" />
		<tag k="name" v="Brøddvika" />
		<tag k="place" v="farm" />
		<tag k="ssr:stedsnr" v="375955" />
	</node>
	<node id="-82418" lat="62.9031249996" lon="8.29865554874">
		<tag k="historic" v="shieling" />
		<tag k="name" v="Bølsetsetra" />
		<tag k="place" v="locality" />
		<tag k="ssr:stedsnr" v="375723" />
	</node>
	<node id="-82417" lat="62.9167722192" lon="8.30146112005">
		<tag k="name" v="Skogheim hytte- og naustområde" />
		<tag k="place" v="neighbourhood" />
		<tag k="ssr:stedsnr" v="360279" />
	</node>
	<node id="-82410" lat="62.8201694475" lon="8.2902027862">
		<tag k="historic" v="shieling" />
		<tag k="name" v="Holtan" />
		<tag k="place" v="locality" />
		<tag k="ssr:stedsnr" v="350760" />
	</node>
	<node id="-82403" lat="62.9601388878" lon="8.21399444735">
		<tag k="name" v="Gammelgarden" />
		<tag k="place" v="farm" />
		<tag k="ssr:stedsnr" v="350608" />
	</node>
	<node id="-82396" lat="63.0404194449" lon="8.12724721646">
		<tag k="name" v="Nistua" />
>>>>>>> e1d4bc35ff8a6074a6f2e91616a996b547c36f15
		<tag k="place" v="farm" />
		<tag k="ssr:stedsnr" v="350245" />
	</node>
<<<<<<< HEAD
	<node lat="62.87111111162118" lon="8.379174992980934" id="-3287">
		<tag k="historic" v="shieling" />
		<tag k="name" v="Nysetra" />
		<tag k="place" v="isolated_dwelling" />
		<tag k="ssr:stedsnr" v="593591" />
	</node>
	<node lat="63.07188055623662" lon="8.139744441314008" id="-3300">
		<tag k="name" v="Jutvika" />
		<tag k="place" v="locality" />
		<tag k="ssr:stedsnr" v="594592" />
	</node>
	<node lat="63.040077776667516" lon="7.954202780535512" id="-3303">
		<tag k="name" v="Vikahaugen hyttefelt" />
		<tag k="place" v="neighbourhood" />
		<tag k="ssr:stedsnr" v="603443" />
	</node>
	<node lat="63.02179444709245" lon="7.989869449746889" id="-3304">
		<tag k="name" v="Almlia hyttefelt" />
		<tag k="place" v="neighbourhood" />
		<tag k="ssr:stedsnr" v="603444" />
	</node>
	<node lat="62.90575833004686" lon="8.198027777344675" id="-3305">
		<tag k="name" v="Sortdal" />
		<tag k="place" v="quarter" />
		<tag k="ssr:stedsnr" v="604297" />
	</node>
	<node lat="62.86547222456349" lon="8.263725003568599" id="-3306">
		<tag k="historic" v="shieling" />
		<tag k="name" v="Nygardssetra" />
		<tag k="place" v="isolated_dwelling" />
		<tag k="ssr:stedsnr" v="618221" />
	</node>
	<node lat="63.051897218136034" lon="7.977902780760196" id="-3312">
		<tag k="name" v="Storvika" />
		<tag k="place" v="isolated_dwelling" />
		<tag k="ssr:stedsnr" v="619186" />
	</node>
	<node lat="63.06274234853259" lon="8.042849056941424" id="-3313">
		<tag k="fixme" v="consider place=hamlet" />
		<tag k="name" v="Vasselen" />
		<tag k="place" v="farm" />
		<tag k="ssr:stedsnr" v="619200" />
	</node>
	<node lat="63.00644638286314" lon="8.008623480105351" id="-3316">
		<tag k="fixme" v="consider place=hamlet" />
		<tag k="name" v="Kjervika" />
		<tag k="place" v="farm" />
		<tag k="ssr:stedsnr" v="619234" />
	</node>
	<node lat="63.02512222198447" lon="8.149755551891374" id="-3317">
		<tag k="name" v="Nystua" />
		<tag k="place" v="farm" />
		<tag k="ssr:stedsnr" v="619237" />
	</node>
	<node lat="63.00938333277214" lon="7.897963897950366" id="-3318">
		<tag k="name" v="Jåvika" />
		<tag k="place" v="farm" />
		<tag k="ssr:stedsnr" v="619242" />
	</node>
	<node lat="63.10630976635117" lon="8.0577661485841" id="-3320">
		<tag k="fixme" v="consider place=hamlet" />
		<tag k="name" v="Mørkedalen" />
		<tag k="place" v="farm" />
		<tag k="ssr:stedsnr" v="619400" />
	</node>
	<node lat="63.05011660375505" lon="8.102299661901093" id="-3321">
		<tag k="alt_name" v="Kanestrøm" />
		<tag k="fixme" v="consider place=hamlet" />
		<tag k="name" v="Kanestraum" />
		<tag k="place" v="farm" />
		<tag k="ssr:stedsnr" v="619158" />
	</node>
	<node lat="63.091211106751565" lon="7.998472217962722" id="-3324">
		<tag k="name" v="Myra" />
		<tag k="place" v="farm" />
		<tag k="ssr:stedsnr" v="619366" />
	</node>
	<node lat="62.82189344137021" lon="8.246095548110674" id="-3325">
		<tag k="fixme" v="consider place=hamlet" />
		<tag k="name" v="Ballstad" />
		<tag k="place" v="farm" />
		<tag k="ssr:stedsnr" v="619367" />
	</node>
	<node lat="63.091663891008096" lon="8.003052780146453" id="-3326">
		<tag k="name" v="Nygarden" />
		<tag k="place" v="farm" />
		<tag k="ssr:stedsnr" v="619369" />
	</node>
	<node lat="62.89188332937871" lon="8.20861943602746" id="-3352">
		<tag k="fixme" v="consider place=hamlet" />
		<tag k="name" v="Slettbakk" />
		<tag k="place" v="farm" />
		<tag k="ssr:stedsnr" v="653302" />
	</node>
	<node lat="62.98685277346138" lon="8.041783326169453" id="-3358">
		<tag k="name" v="Hagan" />
		<tag k="place" v="farm" />
		<tag k="ssr:stedsnr" v="653488" />
	</node>
	<node lat="62.9092833312997" lon="8.20730277635767" id="-3376">
		<tag k="name" v="Kaibakken" />
		<tag k="place" v="quarter" />
		<tag k="ssr:stedsnr" v="665329" />
	</node>
	<node lat="62.986006525942535" lon="8.24589570631158" id="-3380">
		<tag k="fixme" v="consider place=hamlet" />
		<tag k="name" v="Torjul" />
		<tag k="place" v="farm" />
		<tag k="ssr:stedsnr" v="713010" />
	</node>
	<node lat="63.03821666708496" lon="8.042238890884494" id="-3382">
		<tag k="name" v="Bytås" />
		<tag k="place" v="farm" />
		<tag k="ssr:stedsnr" v="713395" />
	</node>
	<node lat="62.96113055873924" lon="8.26004443723377" id="-3398">
		<tag k="historic" v="shieling" />
		<tag k="name" v="Vågasetra" />
		<tag k="place" v="isolated_dwelling" />
		<tag k="ssr:stedsnr" v="714096" />
	</node>
	<node lat="62.879061112716236" lon="8.215833326213447" id="-3401">
		<tag k="name" v="Innerstølan" />
		<tag k="place" v="farm" />
		<tag k="ssr:stedsnr" v="714141" />
	</node>
	<node lat="62.989988885414675" lon="8.127777781787383" id="-3415">
		<tag k="historic" v="shieling" />
		<tag k="name" v="Gammelsetra" />
		<tag k="place" v="isolated_dwelling" />
		<tag k="ssr:stedsnr" v="714652" />
	</node>
	<node lat="62.955841670316794" lon="8.118055562407012" id="-3421">
		<tag k="name" v="Gylvikan" />
		<tag k="place" v="farm" />
		<tag k="ssr:stedsnr" v="714756" />
	</node>
	<node lat="62.80385277411482" lon="8.325308330896133" id="-3425">
		<tag k="name" v="Solbakken" />
		<tag k="place" v="farm" />
		<tag k="ssr:stedsnr" v="714870" />
	</node>
	<node lat="62.88195833191928" lon="8.30074722147555" id="-3434">
		<tag k="historic" v="shieling" />
		<tag k="name" v="Gjøviklisetra" />
		<tag k="place" v="isolated_dwelling" />
		<tag k="ssr:stedsnr" v="715655" />
	</node>
	<node lat="63.06686111444804" lon="7.994877770977961" id="-3437">
		<tag k="name" v="Kvisvik Øst" />
		<tag k="place" v="quarter" />
		<tag k="ssr:stedsnr" v="726326" />
	</node>
	<node lat="62.94004027239199" lon="8.148941076334571" id="-3438">
		<tag k="fixme" v="consider place=hamlet" />
		<tag k="name" v="Bergem" />
		<tag k="place" v="farm" />
		<tag k="ssr:stedsnr" v="739890" />
	</node>
	<node lat="62.89149166783011" lon="8.319075004462539" id="-3440">
		<tag k="historic" v="shieling" />
		<tag k="name" v="Røttingsnesetra" />
		<tag k="place" v="isolated_dwelling" />
		<tag k="ssr:stedsnr" v="740272" />
	</node>
	<node lat="63.01432777575422" lon="7.9994499972747315" id="-3443">
		<tag k="alt_name" v="Viken" />
		<tag k="name" v="Vika" />
		<tag k="place" v="farm" />
		<tag k="ssr:stedsnr" v="740197" />
	</node>
	<node lat="63.01951767183314" lon="7.943421364180132" id="-3444">
		<tag k="fixme" v="consider place=hamlet" />
		<tag k="name" v="Faksvågen" />
		<tag k="place" v="farm" />
		<tag k="ssr:stedsnr" v="740198" />
	</node>
	<node lat="62.826444440845194" lon="8.293591668704005" id="-3448">
		<tag k="name" v="Hjellen" />
		<tag k="place" v="farm" />
		<tag k="ssr:stedsnr" v="740319" />
	</node>
	<node lat="62.835986113734386" lon="8.2937555504867" id="-3451">
		<tag k="name" v="Enga" />
		<tag k="place" v="farm" />
		<tag k="ssr:stedsnr" v="740335" />
	</node>
	<node lat="62.859624999893455" lon="8.358383337492334" id="-3453">
		<tag k="name" v="Åsprongsetra" />
		<tag k="place" v="isolated_dwelling" />
		<tag k="ssr:stedsnr" v="740360" />
	</node>
	<node lat="62.804241662456334" lon="8.325502786958166" id="-3454">
		<tag k="name" v="Innerbakkan" />
		<tag k="place" v="farm" />
		<tag k="ssr:stedsnr" v="740382" />
	</node>
	<node lat="62.92359721911769" lon="8.277291670472582" id="-3455">
		<tag k="name" v="Brekka" />
		<tag k="place" v="farm" />
		<tag k="ssr:stedsnr" v="740718" />
	</node>
	<node lat="62.92437861191952" lon="8.186970384587317" id="-3458">
		<tag k="fixme" v="consider place=hamlet" />
		<tag k="name" v="Tingvollia" />
		<tag k="place" v="farm" />
		<tag k="ssr:stedsnr" v="740957" />
	</node>
	<node lat="62.886647223649845" lon="8.196444441567897" id="-3460">
		<tag k="name" v="Hjellan" />
		<tag k="place" v="farm" />
		<tag k="ssr:stedsnr" v="740976" />
	</node>
	<node lat="62.84485428986355" lon="8.258955815034831" id="-3462">
		<tag k="name" v="Toskå" />
		<tag k="place" v="isolated_dwelling" />
		<tag k="ssr:stedsnr" v="748509" />
	</node>
	<node lat="62.838444445762924" lon="8.389233326841866" id="-3463">
		<tag k="name" v="Vasslisetra" />
		<tag k="place" v="locality" />
		<tag k="ssr:stedsnr" v="752035" />
	</node>
	<node lat="62.99795278014779" lon="7.94441666462033" id="-3464">
		<tag k="name" v="Boksaspa hyttefelt" />
		<tag k="place" v="neighbourhood" />
		<tag k="ssr:stedsnr" v="768437" />
	</node>
	<node lat="63.09222500288242" lon="8.11054722920815" id="-3478">
		<tag k="name" v="Rydningen" />
		<tag k="place" v="farm" />
		<tag k="ssr:stedsnr" v="774346" />
	</node>
	<node lat="63.03833888825484" lon="8.033402770770415" id="-3480">
		<tag k="historic" v="shieling" />
		<tag k="name" v="Ulsetsetra" />
		<tag k="place" v="isolated_dwelling" />
		<tag k="ssr:stedsnr" v="774446" />
	</node>
	<node lat="63.027280559715926" lon="8.134063893729714" id="-3503">
		<tag k="name" v="Fløystadmyran hyttefelt" />
		<tag k="place" v="neighbourhood" />
		<tag k="ssr:stedsnr" v="785290" />
	</node>
	<node lat="63.05264166650472" lon="8.12177777794166" id="-3505">
		<tag k="name" v="Skjerran" />
		<tag k="place" v="farm" />
		<tag k="ssr:stedsnr" v="801147" />
	</node>
	<node lat="63.062366662496935" lon="7.990422215500524" id="-3506">
		<tag k="name" v="Myrvang" />
		<tag k="place" v="farm" />
		<tag k="ssr:stedsnr" v="801164" />
	</node>
	<node lat="62.87402777418841" lon="8.288830556509737" id="-3507">
		<tag k="historic" v="shieling" />
		<tag k="name" v="Jøviksetra" />
		<tag k="place" v="isolated_dwelling" />
		<tag k="ssr:stedsnr" v="801236" />
	</node>
	<node lat="62.99166388523989" lon="8.25194444193129" id="-3508">
		<tag k="name" v="Vikavollen" />
		<tag k="place" v="farm" />
		<tag k="ssr:stedsnr" v="800640" />
	</node>
	<node lat="63.00016023711029" lon="8.01740642142375" id="-3509">
		<tag k="fixme" v="consider place=hamlet" />
		<tag k="name" v="Eikrem" />
		<tag k="place" v="farm" />
		<tag k="ssr:stedsnr" v="801194" />
	</node>
	<node lat="62.904277782054095" lon="8.325272229327155" id="-3510">
		<tag k="name" v="Plassen" />
		<tag k="place" v="farm" />
		<tag k="ssr:stedsnr" v="801301" />
	</node>
	<node lat="62.81054999948167" lon="8.269236119665603" id="-3511">
		<tag k="name" v="Vika" />
		<tag k="place" v="farm" />
		<tag k="ssr:stedsnr" v="801394" />
	</node>
	<node lat="62.8699799431136" lon="8.16513263031917" id="-3512">
		<tag k="fixme" v="consider place=hamlet" />
		<tag k="name" v="Ormset" />
		<tag k="place" v="farm" />
		<tag k="ssr:stedsnr" v="801496" />
	</node>
	<node lat="62.88174722114047" lon="8.319674997485317" id="-3513">
		<tag k="name" v="Strand" />
		<tag k="place" v="farm" />
		<tag k="ssr:stedsnr" v="801253" />
	</node>
	<node lat="62.886163890199064" lon="8.156711108910732" id="-3522">
		<tag k="name" v="Hegerbergtrøa" />
		<tag k="place" v="farm" />
		<tag k="ssr:stedsnr" v="801987" />
	</node>
	<node lat="62.902397498314464" lon="8.193686812666925" id="-3523">
		<tag k="fixme" v="consider place=hamlet" />
		<tag k="name" v="Rimstad" />
		<tag k="place" v="farm" />
		<tag k="ssr:stedsnr" v="801992" />
	</node>
	<node lat="62.91757957103573" lon="8.160633002575501" id="-3527">
		<tag k="fixme" v="consider place=hamlet" />
		<tag k="name" v="Almvika" />
		<tag k="place" v="farm" />
		<tag k="ssr:stedsnr" v="801950" />
	</node>
	<node lat="63.1000666695106" lon="7.970469447801361" id="-3529">
		<tag k="name" v="Bukta" />
		<tag k="place" v="isolated_dwelling" />
		<tag k="ssr:stedsnr" v="809262" />
	</node>
	<node lat="62.88199722229865" lon="8.229902773039036" id="-3530">
		<tag k="historic" v="shieling" />
		<tag k="name" v="Stølsetra" />
		<tag k="place" v="isolated_dwelling" />
		<tag k="ssr:stedsnr" v="809622" />
	</node>
	<node lat="63.00933084439294" lon="8.197301015895091" id="-3535">
		<tag k="name" v="Jordal" />
		<tag k="place" v="hamlet" />
		<tag k="ssr:stedsnr" v="834051" />
	</node>
	<node lat="62.95710277565289" lon="8.308008340272316" id="-3557">
		<tag k="historic" v="shieling" />
		<tag k="name" v="Strupstadsetra" />
		<tag k="place" v="isolated_dwelling" />
		<tag k="ssr:stedsnr" v="836074" />
	</node>
	<node lat="62.833016665669916" lon="8.341433338631342" id="-3580">
		<tag k="historic" v="shieling" />
		<tag k="name" v="Rørskarsetra" />
		<tag k="place" v="isolated_dwelling" />
		<tag k="ssr:stedsnr" v="836962" />
	</node>
	<node lat="62.92155833745639" lon="8.235933339874043" id="-3586">
		<tag k="name" v="Bjørge" />
		<tag k="place" v="farm" />
		<tag k="ssr:stedsnr" v="838140" />
	</node>
	<node lat="63.06750000019826" lon="7.99135277757271" id="-3588">
		<tag k="name" v="Kvisvik Nord" />
		<tag k="place" v="quarter" />
		<tag k="ssr:stedsnr" v="848312" />
	</node>
	<node lat="62.912063887243825" lon="8.157561104497635" id="-3593">
		<tag k="name" v="Øygarden" />
		<tag k="place" v="locality" />
		<tag k="ssr:stedsnr" v="861949" />
	</node>
	<node lat="62.986883336644965" lon="8.041299998809613" id="-3594">
		<tag k="name" v="Treekerhagan" />
		<tag k="place" v="farm" />
		<tag k="ssr:stedsnr" v="861861" />
	</node>
	<node lat="62.99819929677353" lon="8.028389416363495" id="-3595">
		<tag k="fixme" v="multiple name tags, choose one and add the other to alt_name; consider place=hamlet" />
		<tag k="name" v="Tveekra;Inner-Øygarden" />
		<tag k="place" v="farm" />
		<tag k="ssr:stedsnr" v="861873" />
	</node>
	<node lat="62.99126831818329" lon="8.037251952299053" id="-3596">
		<tag k="name" v="Treekra" />
		<tag k="old_name" v="Tveekra" />
		<tag k="place" v="farm" />
		<tag k="ssr:stedsnr" v="861874" />
	</node>
	<node lat="63.094859656926786" lon="7.971970054590206" id="-3602">
		<tag k="fixme" v="consider place=hamlet" />
		<tag k="name" v="Årsund" />
		<tag k="place" v="farm" />
		<tag k="ssr:stedsnr" v="862336" />
	</node>
	<node lat="63.04091625335804" lon="7.976329393527426" id="-3603">
		<tag k="fixme" v="consider place=hamlet" />
		<tag k="name" v="Nålsund" />
		<tag k="place" v="farm" />
		<tag k="ssr:stedsnr" v="862263" />
	</node>
	<node lat="62.85903055624334" lon="8.315897230844213" id="-3605">
		<tag k="name" v="Buneset" />
		<tag k="place" v="farm" />
		<tag k="ssr:stedsnr" v="862379" />
	</node>
	<node lat="62.97397884109142" lon="8.227275536433211" id="-3608">
		<tag k="fixme" v="consider place=hamlet" />
		<tag k="name" v="Sponnåsen" />
		<tag k="place" v="farm" />
		<tag k="ssr:stedsnr" v="870594" />
	</node>
	<node lat="63.09152778025809" lon="7.994525008394686" id="-3617">
		<tag k="name" v="Sørbugt" />
		<tag k="place" v="farm" />
		<tag k="ssr:stedsnr" v="956390" />
	</node>
	<node lat="63.06269444686772" lon="8.077644453068684" id="-3618">
		<tag k="historic" v="shieling" />
		<tag k="name" v="Skeisvollsetra" />
		<tag k="place" v="isolated_dwelling" />
		<tag k="ssr:stedsnr" v="956476" />
	</node>
	<node lat="63.042647224993395" lon="8.052480545613921" id="-3622">
		<tag k="name" v="Nordheim" />
		<tag k="place" v="farm" />
		<tag k="ssr:stedsnr" v="956555" />
	</node>
	<node lat="63.04323889018387" lon="8.056605551493899" id="-3623">
		<tag k="name" v="Bjørkås" />
		<tag k="place" v="farm" />
		<tag k="ssr:stedsnr" v="956557" />
	</node>
	<node lat="63.04203055144246" lon="8.049602772439576" id="-3624">
		<tag k="name" v="Solstad" />
		<tag k="place" v="farm" />
		<tag k="ssr:stedsnr" v="956559" />
	</node>
	<node lat="62.97579166890105" lon="8.212222223123684" id="-3634">
		<tag k="historic" v="shieling" />
		<tag k="name" v="Gammelsetra" />
		<tag k="place" v="isolated_dwelling" />
		<tag k="ssr:stedsnr" v="957268" />
	</node>
	<node lat="62.89415833611968" lon="8.300061118211385" id="-3639">
		<tag k="historic" v="shieling" />
		<tag k="name" v="Nysetra" />
		<tag k="place" v="isolated_dwelling" />
		<tag k="ssr:stedsnr" v="957578" />
	</node>
	<node lat="62.8088888869762" lon="8.333022229749696" id="-3642">
		<tag k="name" v="Negarden" />
		<tag k="place" v="farm" />
		<tag k="ssr:stedsnr" v="957852" />
	</node>
	<node lat="63.01966260798095" lon="7.895075477544098" id="-3655">
		<tag k="name" v="Mekran" />
		<tag k="place" v="farm" />
		<tag k="ssr:stedsnr" v="975296" />
	</node>
	<node lat="63.030804522335075" lon="8.016422813943597" id="-3658">
		<tag k="name" v="Ulset" />
		<tag k="place" v="farm" />
		<tag k="ssr:stedsnr" v="978903" />
	</node>
	<node lat="62.85785089312317" lon="8.277686601290355" id="-3659">
		<tag k="alt_name" v="Løkken" />
		<tag k="name" v="Lykkja" />
		<tag k="place" v="farm" />
		<tag k="ssr:stedsnr" v="980021" />
	</node>
	<node lat="62.954183873187155" lon="8.127976117694981" id="-3660">
		<tag k="fixme" v="consider place=hamlet" />
		<tag k="name" v="Gyl" />
		<tag k="place" v="farm" />
		<tag k="ssr:stedsnr" v="980276" />
	</node>
	<node lat="62.982661020256764" lon="8.276956417243715" id="-3661">
		<tag k="name" v="Svinnes" />
		<tag k="place" v="locality" />
		<tag k="ssr:stedsnr" v="980279" />
	</node>
	<node lat="62.85795794554177" lon="8.284621154684677" id="-3662">
		<tag k="fixme" v="consider place=hamlet" />
		<tag k="name" v="Meisingset" />
		<tag k="place" v="farm" />
		<tag k="ssr:stedsnr" v="980338" />
	</node>
	<node lat="62.99774891058987" lon="8.028047875271733" id="-3664">
		<tag k="fixme" v="multiple name tags, choose one and add the other to alt_name" />
		<tag k="name" v="Tveekrem;Inner-Øygarden" />
		<tag k="place" v="farm" />
		<tag k="ssr:stedsnr" v="980401" />
	</node>
	<node lat="63.10469910636532" lon="8.106997651022734" id="-3665">
		<tag k="fixme" v="consider place=hamlet" />
		<tag k="loc_name" v="Fåråneset" />
		<tag k="name" v="Furunes" />
		<tag k="place" v="farm" />
		<tag k="ssr:stedsnr" v="980406" />
	</node>
	<node lat="62.855399884944696" lon="8.235061666724475" id="-3667">
		<tag k="name" v="Holtan" />
		<tag k="place" v="farm" />
		<tag k="ssr:stedsnr" v="983541" />
	</node>
	<node lat="62.99860969198839" lon="8.028864022346397" id="-3672">
		<tag k="name" v="Tveekrem" />
		<tag k="place" v="isolated_dwelling" />
		<tag k="ssr:stedsnr" v="987345" />
=======
	<node id="-82391" lat="62.8802194444" lon="8.21574722033">
		<tag k="name" v="Negarden" />
		<tag k="place" v="farm" />
		<tag k="ssr:stedsnr" v="350162" />
	</node>
	<node id="-82378" lat="62.8529583362" lon="8.19281667526">
		<tag k="historic" v="shieling" />
		<tag k="name" v="Gammelsetra" />
		<tag k="place" v="locality" />
		<tag k="ssr:stedsnr" v="350067" />
	</node>
	<node id="-82376" lat="63.070455553" lon="8.00185277445">
		<tag k="name" v="Kammen" />
		<tag k="place" v="farm" />
		<tag k="ssr:stedsnr" v="349953" />
	</node>
	<node id="-82375" lat="63.0644583297" lon="7.97762500211">
		<tag k="name" v="Sandvoll" />
		<tag k="place" v="farm" />
		<tag k="ssr:stedsnr" v="349943" />
	</node>
	<node id="-82374" lat="62.9963694424" lon="8.05185000686">
		<tag k="historic" v="shieling" />
		<tag k="name" v="Lauvsetra" />
		<tag k="place" v="locality" />
		<tag k="ssr:stedsnr" v="350386" />
	</node>
	<node id="-82372" lat="63.0908638911" lon="8.11195278089">
		<tag k="name" v="Rakstang" />
		<tag k="place" v="hamlet" />
		<tag k="ssr:stedsnr" v="349365" />
	</node>
	<node id="-82370" lat="63.0709777807" lon="8.0633694396">
		<tag k="historic" v="shieling" />
		<tag k="name" v="Grimstadsetra" />
		<tag k="place" v="locality" />
		<tag k="ssr:stedsnr" v="349484" />
	</node>
	<node id="-82348" lat="62.8853111083" lon="8.3655138886">
		<tag k="name" v="Furuneset hyttefelt" />
		<tag k="place" v="neighbourhood" />
		<tag k="ssr:stedsnr" v="343444" />
	</node>
	<node id="-82347" lat="63.01444444" lon="7.98391943659">
		<tag k="name" v="Einset" />
		<tag k="place" v="quarter" />
		<tag k="ssr:stedsnr" v="343443" />
	</node>
	<node id="-82344" lat="63.0896745906" lon="8.11342880028">
		<tag k="fixme" v="consider place=hamlet" />
		<tag k="name" v="Rokstonga" />
		<tag k="place" v="farm" />
		<tag k="ssr:stedsnr" v="316384" />
	</node>
	<node id="-82343" lat="62.8874111128" lon="8.22559167026">
		<tag k="name" v="Nergardssetra" />
		<tag k="place" v="isolated_dwelling" />
		<tag k="ssr:stedsnr" v="316320" />
	</node>
	<node id="-82340" lat="62.9151548629" lon="8.21325729926">
		<tag k="fixme" v="consider place=hamlet" />
		<tag k="name" v="Koksvika" />
		<tag k="place" v="farm" />
		<tag k="ssr:stedsnr" v="315939" />
	</node>
	<node id="-82338" lat="62.9673222221" lon="8.08978611015">
		<tag k="historic" v="shieling" />
		<tag k="name" v="Hammarsetra" />
		<tag k="place" v="locality" />
		<tag k="ssr:stedsnr" v="315879" />
	</node>
	<node id="-82336" lat="62.9209323811" lon="8.24319462594">
		<tag k="fixme" v="consider place=hamlet" />
		<tag k="name" v="Harholten" />
		<tag k="place" v="farm" />
		<tag k="ssr:stedsnr" v="315725" />
	</node>
	<node id="-82334" lat="62.9765583311" lon="8.25051666063">
		<tag k="name" v="Myra" />
		<tag k="place" v="farm" />
		<tag k="ssr:stedsnr" v="315646" />
	</node>
	<node id="-82330" lat="62.8557194486" lon="8.26133612032">
		<tag k="name" v="Venåsmyra" />
		<tag k="place" v="farm" />
		<tag k="ssr:stedsnr" v="315335" />
	</node>
	<node id="-82327" lat="62.8571750015" lon="8.2360527693">
		<tag k="name" v="Solvang" />
		<tag k="place" v="farm" />
		<tag k="ssr:stedsnr" v="315238" />
	</node>
	<node id="-82326" lat="63.0177277797" lon="7.93611388663">
		<tag k="name" v="Aspsetra" />
		<tag k="place" v="farm" />
		<tag k="ssr:stedsnr" v="315195" />
	</node>
	<node id="-82325" lat="63.0094971901" lon="7.99987347431">
		<tag k="alt_name" v="Ødegården" />
		<tag k="fixme" v="consider place=hamlet" />
		<tag k="name" v="Øygarden" />
		<tag k="place" v="farm" />
		<tag k="ssr:stedsnr" v="315191" />
	</node>
	<node id="-82320" lat="62.8055583371" lon="8.32453332524">
		<tag k="name" v="Ytterbakkan" />
		<tag k="place" v="farm" />
		<tag k="ssr:stedsnr" v="195433" />
	</node>
	<node id="-82318" lat="63.0911472216" lon="7.99687221715">
		<tag k="fixme" v="consider place=hamlet" />
		<tag k="name" v="Årsund" />
		<tag k="place" v="village" />
		<tag k="ssr:stedsnr" v="195356" />
	</node>
	<node id="-82314" lat="62.9958484647" lon="8.07332633538">
		<tag k="name" v="Fjellsetra" />
		<tag k="place" v="locality" />
		<tag k="ssr:stedsnr" v="194849" />
	</node>
	<node id="-82313" lat="62.9273583297" lon="8.24785555764">
		<tag k="name" v="Myrset" />
		<tag k="place" v="farm" />
		<tag k="ssr:stedsnr" v="194699" />
	</node>
	<node id="-82312" lat="62.9854055587" lon="8.24140833063">
		<tag k="name" v="Øvre Torjul" />
		<tag k="place" v="farm" />
		<tag k="ssr:stedsnr" v="194600" />
	</node>
	<node id="-82311" lat="62.9275087494" lon="8.23009100531">
		<tag k="fixme" v="consider place=hamlet" />
		<tag k="name" v="Sollia" />
		<tag k="place" v="farm" />
		<tag k="ssr:stedsnr" v="194683" />
	</node>
	<node id="-82309" lat="62.9778916667" lon="8.24811389504">
		<tag k="name" v="Osen" />
		<tag k="place" v="farm" />
		<tag k="ssr:stedsnr" v="194617" />
	</node>
	<node id="-82308" lat="62.9784694415" lon="8.23855000189">
		<tag k="name" v="Brekka" />
		<tag k="place" v="farm" />
		<tag k="ssr:stedsnr" v="194612" />
	</node>
	<node id="-82279" lat="62.8117805562" lon="8.33881944178">
		<tag k="name" v="Oppigarden" />
		<tag k="place" v="farm" />
		<tag k="ssr:stedsnr" v="168844" />
	</node>
	<node id="-82277" lat="62.8213944402" lon="8.35973333076">
		<tag k="name" v="Hjelltun" />
		<tag k="place" v="farm" />
		<tag k="ssr:stedsnr" v="168829" />
	</node>
	<node id="-82275" lat="62.811005553" lon="8.27264444205">
		<tag k="name" v="Hagen" />
		<tag k="place" v="farm" />
		<tag k="ssr:stedsnr" v="168778" />
	</node>
	<node id="-82268" lat="63.0030916669" lon="8.02439722325">
		<tag k="name" v="Myrdalen" />
		<tag k="place" v="farm" />
		<tag k="ssr:stedsnr" v="168396" />
	</node>
	<node id="-82265" lat="62.8824305532" lon="8.35943610324">
		<tag k="name" v="Mindnes" />
		<tag k="place" v="farm" />
		<tag k="ssr:stedsnr" v="168732" />
	</node>
	<node id="-82254" lat="62.8856305572" lon="8.20865833896">
		<tag k="name" v="Bønn" />
		<tag k="place" v="isolated_dwelling" />
		<tag k="ssr:stedsnr" v="168167" />
	</node>
	<node id="-82253" lat="62.8874055591" lon="8.16512222177">
		<tag k="historic" v="shieling" />
		<tag k="name" v="Hegerbergsetra" />
		<tag k="place" v="locality" />
		<tag k="ssr:stedsnr" v="168095" />
	</node>
	<node id="-82250" lat="63.0186999956" lon="7.89321943653">
		<tag k="alt_name" v="Naustvolden" />
		<tag k="name" v="Naustvollen" />
		<tag k="place" v="farm" />
		<tag k="ssr:stedsnr" v="167601" />
	</node>
	<node id="-82249" lat="63.0633916663" lon="8.04215555721">
		<tag k="name" v="Østergården" />
		<tag k="place" v="farm" />
		<tag k="ssr:stedsnr" v="167449" />
	</node>
	<node id="-82225" lat="62.919697223" lon="8.22414721663">
		<tag k="name" v="Flata" />
		<tag k="place" v="farm" />
		<tag k="ssr:stedsnr" v="133694" />
	</node>
	<node id="-82224" lat="62.9627103015" lon="8.23902996353">
		<tag k="fixme" v="consider place=hamlet" />
		<tag k="name" v="Marhaugen" />
		<tag k="place" v="farm" />
		<tag k="ssr:stedsnr" v="133648" />
	</node>
	<node id="-82223" lat="62.8543989354" lon="8.16240912452">
		<tag k="fixme" v="consider place=hamlet" />
		<tag k="name" v="Honnhammaren" />
		<tag k="place" v="farm" />
		<tag k="ssr:stedsnr" v="133497" />
	</node>
	<node id="-82222" lat="62.8630749969" lon="8.16533333638">
		<tag k="name" v="Honnhammarvika" />
		<tag k="place" v="farm" />
		<tag k="ssr:stedsnr" v="133480" />
	</node>
	<node id="-82221" lat="62.8287222257" lon="8.29122222623">
		<tag k="name" v="Skarshaugen" />
		<tag k="place" v="farm" />
		<tag k="ssr:stedsnr" v="133293" />
	</node>
	<node id="-82220" lat="62.8258193737" lon="8.34902208121">
		<tag k="fixme" v="consider place=hamlet" />
		<tag k="name" v="Hafstad" />
		<tag k="place" v="farm" />
		<tag k="ssr:stedsnr" v="133290" />
	</node>
	<node id="-82219" lat="62.8260805519" lon="8.35624999344">
		<tag k="name" v="Vollan" />
		<tag k="place" v="farm" />
		<tag k="ssr:stedsnr" v="133275" />
	</node>
	<node id="-82217" lat="62.8529805523" lon="8.30122500138">
		<tag k="name" v="Øra" />
		<tag k="place" v="farm" />
		<tag k="ssr:stedsnr" v="133338" />
	</node>
	<node id="-82216" lat="62.8500073797" lon="8.30605463318">
		<tag k="fixme" v="consider place=hamlet" />
		<tag k="name" v="Seterlia" />
		<tag k="place" v="farm" />
		<tag k="ssr:stedsnr" v="133337" />
	</node>
	<node id="-82215" lat="63.0267011441" lon="8.1438668955">
		<tag k="fixme" v="consider place=hamlet" />
		<tag k="name" v="Fløystad" />
		<tag k="place" v="farm" />
		<tag k="ssr:stedsnr" v="133196" />
	</node>
	<node id="-82214" lat="63.016987016" lon="7.9780948778">
		<tag k="fixme" v="consider place=hamlet" />
		<tag k="name" v="Einset" />
		<tag k="place" v="farm" />
		<tag k="ssr:stedsnr" v="133191" />
	</node>
	<node id="-82213" lat="62.8958166696" lon="8.33374999167">
		<tag k="name" v="Haugen" />
		<tag k="place" v="farm" />
		<tag k="ssr:stedsnr" v="133260" />
	</node>
	<node id="-82211" lat="62.8843362527" lon="8.37149348168">
		<tag k="fixme" v="consider place=hamlet" />
		<tag k="name" v="Sandneset" />
		<tag k="place" v="farm" />
		<tag k="ssr:stedsnr" v="133246" />
	</node>
	<node id="-82209" lat="62.9946269468" lon="7.90815716558">
		<tag k="fixme" v="consider place=hamlet" />
		<tag k="name" v="Skjevlingen" />
		<tag k="place" v="farm" />
		<tag k="ssr:stedsnr" v="132861" />
	</node>
	<node id="-82208" lat="62.9158888923" lon="8.1945027763">
		<tag k="name" v="Midtvågen Nord" />
		<tag k="place" v="quarter" />
		<tag k="ssr:stedsnr" v="119285" />
	</node>
	<node id="-82207" lat="63.0795527762" lon="8.12902500149">
		<tag k="name" v="Haugen hytte- og landbruksområde" />
		<tag k="place" v="neighbourhood" />
		<tag k="ssr:stedsnr" v="118298" />
	</node>
	<node id="-82194" lat="62.9672166711" lon="8.20730832707">
		<tag k="historic" v="shieling" />
		<tag k="name" v="Torjulseter" />
		<tag k="place" v="locality" />
		<tag k="ssr:stedsnr" v="108650" />
	</node>
	<node id="-82184" lat="62.8559249322" lon="8.23463842035">
		<tag k="fixme" v="consider place=hamlet" />
		<tag k="name" v="Holtan" />
		<tag k="place" v="farm" />
		<tag k="ssr:stedsnr" v="108103" />
	</node>
	<node id="-82179" lat="63.0189388903" lon="7.94892223148">
		<tag k="name" v="Faksvåg" />
		<tag k="place" v="farm" />
		<tag k="ssr:stedsnr" v="107983" />
	</node>
	<node id="-82177" lat="62.8675500044" lon="8.27788332947">
		<tag k="historic" v="shieling" />
		<tag k="name" v="Oppistusetra" />
		<tag k="place" v="locality" />
		<tag k="ssr:stedsnr" v="107951" />
	</node>
	<node id="-82176" lat="63.0659916679" lon="7.98440833189">
		<tag k="name" v="Bøen" />
		<tag k="place" v="farm" />
		<tag k="ssr:stedsnr" v="107926" />
	</node>
	<node id="-82175" lat="62.9771166633" lon="8.12466110285">
		<tag k="historic" v="shieling" />
		<tag k="name" v="Gylsetra" />
		<tag k="place" v="locality" />
		<tag k="ssr:stedsnr" v="107795" />
	</node>
	<node id="-82162" lat="63.0948555596" lon="8.10181111486">
		<tag k="name" v="Indrebøen" />
		<tag k="place" v="farm" />
		<tag k="ssr:stedsnr" v="107299" />
	</node>
	<node id="-82148" lat="62.993325001" lon="8.22665555507">
		<tag k="historic" v="shieling" />
		<tag k="name" v="Nordbøsetra" />
		<tag k="place" v="locality" />
		<tag k="ssr:stedsnr" v="81620" />
	</node>
	<node id="-82143" lat="63.1014848626" lon="8.0625919009">
		<tag k="name" v="Ossetra" />
		<tag k="place" v="locality" />
		<tag k="ssr:stedsnr" v="73375" />
	</node>
	<node id="-82141" lat="62.8306669378" lon="8.30657553761">
		<tag k="fixme" v="consider place=hamlet" />
		<tag k="name" v="Skar" />
		<tag k="place" v="farm" />
		<tag k="ssr:stedsnr" v="73330" />
	</node>
	<node id="-82140" lat="62.829330561" lon="8.36191892906">
		<tag k="fixme" v="consider place=hamlet" />
		<tag k="name" v="Åkerfallet" />
		<tag k="place" v="farm" />
		<tag k="ssr:stedsnr" v="73327" />
	</node>
	<node id="-82138" lat="62.8736962563" lon="8.30166683691">
		<tag k="fixme" v="consider place=hamlet" />
		<tag k="name" v="Jøviklia" />
		<tag k="place" v="farm" />
		<tag k="ssr:stedsnr" v="73272" />
	</node>
	<node id="-82132" lat="62.9447875805" lon="8.3024780368">
		<tag k="alt_name" v="Holmeidet" />
		<tag k="fixme" v="consider place=hamlet" />
		<tag k="name" v="Holmeid" />
		<tag k="place" v="farm" />
		<tag k="ssr:stedsnr" v="72680" />
	</node>
	<node id="-82130" lat="62.9701583373" lon="8.2238750055">
		<tag k="name" v="Myran" />
		<tag k="place" v="farm" />
		<tag k="ssr:stedsnr" v="72644" />
	</node>
	<node id="-82129" lat="62.9015947873" lon="8.32603624256">
		<tag k="fixme" v="consider place=hamlet" />
		<tag k="name" v="Løset" />
		<tag k="place" v="farm" />
		<tag k="ssr:stedsnr" v="72300" />
	</node>
	<node id="-82119" lat="62.8307888884" lon="8.20481388567">
		<tag k="historic" v="shieling" />
		<tag k="name" v="Rotåssetra" />
		<tag k="place" v="locality" />
		<tag k="ssr:stedsnr" v="47888" />
	</node>
	<node id="-82109" lat="62.9187861126" lon="8.21260555723">
		<tag k="name" v="Vonheim" />
		<tag k="place" v="farm" />
		<tag k="ssr:stedsnr" v="47793" />
	</node>
	<node id="-82099" lat="62.9916980459" lon="8.03838109009">
		<tag k="fixme" v="consider place=hamlet" />
		<tag k="name" v="Treekra" />
		<tag k="place" v="farm" />
		<tag k="ssr:stedsnr" v="47471" />
	</node>
	<node id="-82098" lat="62.9944611146" lon="8.03823889251">
		<tag k="name" v="Rønningen" />
		<tag k="place" v="farm" />
		<tag k="ssr:stedsnr" v="47458" />
	</node>
	<node id="-82097" lat="63.0008833333" lon="8.01321666416">
		<tag k="name" v="Hagen" />
		<tag k="place" v="farm" />
		<tag k="ssr:stedsnr" v="47393" />
	</node>
	<node id="-82090" lat="62.9748305547" lon="8.25943056293">
		<tag k="name" v="Nervågen" />
		<tag k="place" v="farm" />
		<tag k="ssr:stedsnr" v="47112" />
	</node>
	<node id="-82083" lat="63.0654416656" lon="7.98623610245">
		<tag k="name" v="Bakken" />
		<tag k="place" v="farm" />
		<tag k="ssr:stedsnr" v="46913" />
	</node>
	<node id="-82077" lat="63.0152055564" lon="7.90253889024">
		<tag k="name" v="Kongsvoll" />
		<tag k="place" v="farm" />
		<tag k="ssr:stedsnr" v="46599" />
	</node>
	<node id="-82071" lat="63.0402499979" lon="8.04422778403">
		<tag k="name" v="Åsheim" />
		<tag k="place" v="farm" />
		<tag k="ssr:stedsnr" v="46430" />
	</node>
	<node id="-82070" lat="63.0386444418" lon="8.05533332462">
		<tag k="name" v="Bjerkelund" />
		<tag k="place" v="farm" />
		<tag k="ssr:stedsnr" v="46424" />
	</node>
	<node id="-82068" lat="62.9113972197" lon="8.18303889188">
		<tag k="name" v="Prestgarden" />
		<tag k="place" v="farm" />
		<tag k="ssr:stedsnr" v="46358" />
	</node>
	<node id="-82050" lat="63.0404364815" lon="8.12950863227">
		<tag k="fixme" v="consider place=hamlet" />
		<tag k="name" v="Kamsvåg" />
		<tag k="place" v="farm" />
		<tag k="ssr:stedsnr" v="13266" />
	</node>
	<node id="-82048" lat="62.9184388851" lon="8.19710833722">
		<tag k="name" v="Einlia" />
		<tag k="place" v="quarter" />
		<tag k="ssr:stedsnr" v="12962" />
	</node>
	<node id="-82047" lat="63.0411305556" lon="7.94140833086">
		<tag k="name" v="Svartvorpa" />
		<tag k="place" v="farm" />
		<tag k="ssr:stedsnr" v="13141" />
	</node>
	<node id="-82046" lat="62.9748555515" lon="8.18753332694">
		<tag k="name" v="Sponåssetra" />
		<tag k="place" v="isolated_dwelling" />
		<tag k="ssr:stedsnr" v="12897" />
	</node>
	<node id="-82044" lat="62.9677413943" lon="8.24167809285">
		<tag k="fixme" v="consider place=hamlet" />
		<tag k="name" v="Stølen" />
		<tag k="place" v="farm" />
		<tag k="ssr:stedsnr" v="12670" />
	</node>
	<node id="-82043" lat="62.9662861154" lon="8.23109721624">
		<tag k="alt_name" v="Nerland" />
		<tag k="name" v="Nordland" />
		<tag k="place" v="farm" />
		<tag k="ssr:stedsnr" v="12668" />
	</node>
	<node id="-82042" lat="62.8792083316" lon="8.16003610145">
		<tag k="name" v="Ormsettrøa" />
		<tag k="place" v="farm" />
		<tag k="ssr:stedsnr" v="12496" />
	</node>
	<node id="-82037" lat="62.8560659037" lon="8.27408282771">
		<tag k="name" v="Nygarden" />
		<tag k="place" v="farm" />
		<tag k="ssr:stedsnr" v="12358" />
	</node>
	<node id="-82036" lat="62.87732498" lon="8.19580377533">
		<tag k="fixme" v="consider place=hamlet" />
		<tag k="name" v="Hafella" />
		<tag k="place" v="farm" />
		<tag k="ssr:stedsnr" v="12507" />
	</node>
	<node id="-82034" lat="63.0583472216" lon="8.12271389368">
		<tag k="name" v="Hagan" />
		<tag k="place" v="farm" />
		<tag k="ssr:stedsnr" v="12159" />
	</node>
	<node id="-82031" lat="63.105088885" lon="8.02460554832">
		<tag k="name" v="Langøya" />
		<tag k="place" v="farm" />
		<tag k="ssr:stedsnr" v="12356" />
	</node>
	<node id="-82025" lat="62.9977489106" lon="8.02804787527">
		<tag k="fixme" v="multiple name tags, choose one and add the other to alt_name" />
		<tag k="name" v="Tveekrem;Inner-Øygarden" />
		<tag k="place" v="farm" />
		<tag k="ssr:stedsnr" v="980401" />
	</node>
	<node id="-82023" lat="62.9301769156" lon="8.29851884909">
		<tag k="fixme" v="consider place=hamlet" />
		<tag k="name" v="Vågbøøya" />
		<tag k="place" v="farm" />
		<tag k="ssr:stedsnr" v="980331" />
	</node>
	<node id="-82022" lat="62.9297744961" lon="8.28504667421">
		<tag k="fixme" v="consider place=hamlet" />
		<tag k="name" v="Båtnes" />
		<tag k="place" v="farm" />
		<tag k="ssr:stedsnr" v="980328" />
	</node>
	<node id="-82021" lat="62.9140411514" lon="8.18788788875">
		<tag k="fixme" v="consider place=hamlet" />
		<tag k="name" v="Tingvoll" />
		<tag k="place" v="farm" />
		<tag k="ssr:stedsnr" v="980319" />
	</node>
	<node id="-82020" lat="62.9909170985" lon="7.88390927695">
		<tag k="fixme" v="consider place=hamlet" />
		<tag k="name" v="Skjevlingsnes" />
		<tag k="place" v="farm" />
		<tag k="ssr:stedsnr" v="980434" />
	</node>
	<node id="-82019" lat="62.9826610203" lon="8.27695641724">
		<tag k="name" v="Svinnes" />
		<tag k="place" v="locality" />
		<tag k="ssr:stedsnr" v="980279" />
	</node>
	<node id="-82018" lat="62.9541838732" lon="8.12797611769">
		<tag k="fixme" v="consider place=hamlet" />
		<tag k="name" v="Gyl" />
		<tag k="place" v="farm" />
		<tag k="ssr:stedsnr" v="980276" />
	</node>
	<node id="-82017" lat="63.070338892" lon="7.97395554867">
		<tag k="name" v="Kvisvika hyttefelt" />
		<tag k="place" v="neighbourhood" />
		<tag k="ssr:stedsnr" v="968303" />
	</node>
	<node id="-82013" lat="63.0529805587" lon="7.97701666513">
		<tag k="name" v="Årheim" />
		<tag k="place" v="farm" />
		<tag k="ssr:stedsnr" v="956312" />
	</node>
	<node id="-82011" lat="63.1069805551" lon="8.02899721763">
		<tag k="name" v="Bogen" />
		<tag k="place" v="farm" />
		<tag k="ssr:stedsnr" v="956306" />
	</node>
	<node id="-82010" lat="62.8205916684" lon="8.38327222257">
		<tag k="name" v="Hafstadsetra" />
		<tag k="place" v="locality" />
		<tag k="ssr:stedsnr" v="934352" />
	</node>
	<node id="-82009" lat="62.9431555523" lon="8.20368334294">
		<tag k="name" v="Bergemssetra" />
		<tag k="place" v="isolated_dwelling" />
		<tag k="ssr:stedsnr" v="922915" />
	</node>
	<node id="-82006" lat="62.8582171619" lon="8.24586897694">
		<tag k="fixme" v="consider place=hamlet" />
		<tag k="name" v="Venås" />
		<tag k="place" v="farm" />
		<tag k="ssr:stedsnr" v="922231" />
	</node>
	<node id="-82005" lat="63.0273166647" lon="7.99819444009">
		<tag k="alt_name" v="Ulset" />
		<tag k="name" v="Olvika" />
		<tag k="place" v="farm" />
		<tag k="ssr:stedsnr" v="922218" />
	</node>
	<node id="-82003" lat="63.0260805583" lon="7.89132500819">
		<tag k="name" v="Bøyfoten" />
		<tag k="place" v="farm" />
		<tag k="ssr:stedsnr" v="922215" />
	</node>
	<node id="-82002" lat="63.0042810481" lon="7.90023425848">
		<tag k="fixme" v="consider place=hamlet" />
		<tag k="name" v="Draga" />
		<tag k="place" v="farm" />
		<tag k="ssr:stedsnr" v="922184" />
	</node>
	<node id="-81999" lat="63.0745861119" lon="8.1373277827">
		<tag k="name" v="Myra" />
		<tag k="place" v="farm" />
		<tag k="ssr:stedsnr" v="922173" />
	</node>
	<node id="-81998" lat="63.0657333315" lon="7.98035000634">
		<tag k="name" v="Haugen" />
		<tag k="place" v="farm" />
		<tag k="ssr:stedsnr" v="922166" />
	</node>
	<node id="-81997" lat="63.0580361128" lon="8.02418333787">
		<tag k="name" v="Nymo" />
		<tag k="place" v="farm" />
		<tag k="ssr:stedsnr" v="922153" />
	</node>
	<node id="-81972" lat="63.0158138869" lon="7.90175832583">
		<tag k="name" v="Nedre Aspa" />
		<tag k="place" v="farm" />
		<tag k="ssr:stedsnr" v="896602" />
	</node>
	<node id="-81968" lat="63.0668611086" lon="8.00006110873">
		<tag k="name" v="Myra" />
		<tag k="place" v="farm" />
		<tag k="ssr:stedsnr" v="862205" />
	</node>
	<node id="-81967" lat="62.9998692264" lon="7.94746801264">
		<tag k="fixme" v="consider place=hamlet" />
		<tag k="name" v="Boksaspa" />
		<tag k="place" v="farm" />
		<tag k="ssr:stedsnr" v="861814" />
	</node>
	<node id="-81965" lat="62.9186527755" lon="8.29521111471">
		<tag k="name" v="Skogstad" />
		<tag k="place" v="farm" />
		<tag k="ssr:stedsnr" v="861723" />
	</node>
	<node id="-81962" lat="62.8330166657" lon="8.34143333863">
		<tag k="historic" v="shieling" />
		<tag k="name" v="Rørskarsetra" />
		<tag k="place" v="locality" />
		<tag k="ssr:stedsnr" v="836962" />
	</node>
	<node id="-81934" lat="62.8388722213" lon="8.25400555046">
		<tag k="name" v="Skaret" />
		<tag k="place" v="isolated_dwelling" />
		<tag k="ssr:stedsnr" v="931617" />
	</node>
	<node id="-81930" lat="63.0422657065" lon="8.00053377583">
		<tag k="fixme" v="consider place=hamlet" />
		<tag k="name" v="Gjengset" />
		<tag k="place" v="farm" />
		<tag k="ssr:stedsnr" v="802275" />
	</node>
	<node id="-81928" lat="62.8137500017" lon="8.37884444445">
		<tag k="name" v="Havdalssetra" />
		<tag k="place" v="isolated_dwelling" />
		<tag k="ssr:stedsnr" v="801410" />
	</node>
	<node id="-81927" lat="63.0001602371" lon="8.01740642142">
		<tag k="fixme" v="consider place=hamlet" />
		<tag k="name" v="Eikrem" />
		<tag k="place" v="farm" />
		<tag k="ssr:stedsnr" v="801194" />
	</node>
	<node id="-81924" lat="63.0623666625" lon="7.9904222155">
		<tag k="name" v="Myrvang" />
		<tag k="place" v="farm" />
		<tag k="ssr:stedsnr" v="801164" />
	</node>
	<node id="-81923" lat="62.8125456717" lon="8.28086933219">
		<tag k="fixme" v="consider place=hamlet" />
		<tag k="name" v="Fjøseid" />
		<tag k="place" v="farm" />
		<tag k="ssr:stedsnr" v="923464" />
>>>>>>> e1d4bc35ff8a6074a6f2e91616a996b547c36f15
	</node>
</osm>
