<?xml version="1.0" encoding="UTF-8"?>
<osm generator="osmapis" version="0.6">
	<node id="-278528" lat="58.4381805549" lon="8.83627777673">
		<tag k="alt_name" v="Hoveskog" />
		<tag k="name" v="Hoveskogen" />
		<tag k="place" v="locality" />
		<tag k="ssr:stedsnr" v="182609" />
	</node>
	<node id="-279040" lat="58.5816083298" lon="8.78616111934">
		<tag k="name" v="Grimsåshagen" />
		<tag k="natural" v="wetland" />
		<tag k="ssr:stedsnr" v="515468" />
	</node>
	<node id="-279550" lat="58.551666666" lon="8.84709166402">
		<tag k="name" v="Folehagen" />
		<tag k="place" v="locality" />
		<tag k="ssr:stedsnr" v="697012" />
	</node>
	<node id="-277501" lat="58.4413055586" lon="8.67608611339">
		<tag k="name" v="Heiremyra" />
		<tag k="natural" v="wetland" />
		<tag k="ssr:stedsnr" v="272786" />
	</node>
	<node id="-279568" lat="58.5218527803" lon="8.91406667229">
		<tag k="name" v="Blåbærkjerr" />
		<tag k="natural" v="wetland" />
		<tag k="ssr:stedsnr" v="697215" />
	</node>
	<node id="-279039" lat="58.5803361088" lon="8.77678888956">
		<tag k="name" v="Moltemyra" />
		<tag k="natural" v="wetland" />
		<tag k="ssr:stedsnr" v="515464" />
	</node>
	<node id="-279032" lat="58.5328416627" lon="8.80017500845">
		<tag k="name" v="Holtebekkmyra" />
		<tag k="natural" v="wetland" />
		<tag k="ssr:stedsnr" v="515415" />
	</node>
	<node id="-279027" lat="58.4913138869" lon="8.83353333993">
		<tag k="name" v="Saltrødmyra" />
		<tag k="natural" v="wetland" />
		<tag k="ssr:stedsnr" v="515381" />
	</node>
	<node id="-279379" lat="58.5908138889" lon="8.83569445095">
		<tag k="name" v="Simonsskog" />
		<tag k="place" v="locality" />
		<tag k="ssr:stedsnr" v="636136" />
	</node>
	<node id="-279022" lat="58.5166916657" lon="8.81085555997">
		<tag k="name" v="Monmyra" />
		<tag k="natural" v="wetland" />
		<tag k="ssr:stedsnr" v="515356" />
	</node>
	<node id="-279021" lat="58.5477472259" lon="8.74492222662">
		<tag k="name" v="Herselkjerr" />
		<tag k="natural" v="wetland" />
		<tag k="ssr:stedsnr" v="515337" />
	</node>
	<node id="-280044" lat="58.572375002" lon="8.78212777573">
		<tag k="name" v="Grasteinmyra" />
		<tag k="natural" v="wetland" />
		<tag k="ssr:stedsnr" v="819489" />
	</node>
	<node id="-277483" lat="58.4911638867" lon="8.78103055993">
		<tag k="name" v="Dyblemyr" />
		<tag k="natural" v="wetland" />
		<tag k="ssr:stedsnr" v="272666" />
	</node>
	<node id="-279017" lat="58.4583944484" lon="8.88428889549">
		<tag k="name" v="Langemyr" />
		<tag k="place" v="locality" />
		<tag k="ssr:stedsnr" v="515307" />
	</node>
	<node id="-279804" lat="58.5299722192" lon="8.78669444943">
		<tag k="name" v="Puttjønnmyra" />
		<tag k="natural" v="wetland" />
		<tag k="ssr:stedsnr" v="758453" />
	</node>
	<node id="-279377" lat="58.5289722265" lon="8.85092500627">
		<tag k="name" v="Træfjellmyra" />
		<tag k="natural" v="wetland" />
		<tag k="ssr:stedsnr" v="636132" />
	</node>
	<node id="-280035" lat="58.5133416658" lon="8.79963888342">
		<tag k="name" v="Brommyr" />
		<tag k="natural" v="wetland" />
		<tag k="ssr:stedsnr" v="819371" />
	</node>
	<node id="-280034" lat="58.5129027782" lon="8.79688055452">
		<tag k="name" v="Rundemyr" />
		<tag k="natural" v="wetland" />
		<tag k="ssr:stedsnr" v="819366" />
	</node>
	<node id="-278496" lat="58.5731277808" lon="8.98000555048">
		<tag k="name" v="Slåttekjerr" />
		<tag k="natural" v="wetland" />
		<tag k="ssr:stedsnr" v="151787" />
	</node>
	<node id="-279005" lat="58.5656083334" lon="8.98423888847">
		<tag k="name" v="Stemkjerr" />
		<tag k="natural" v="wetland" />
		<tag k="ssr:stedsnr" v="515216" />
	</node>
	<node id="-278491" lat="58.5750638853" lon="8.9739833402">
		<tag k="name" v="Sletta" />
		<tag k="place" v="locality" />
		<tag k="ssr:stedsnr" v="151765" />
	</node>
	<node id="-279260" lat="58.4805944459" lon="8.72589444198">
		<tag k="name" v="Storemyr" />
		<tag k="place" v="locality" />
		<tag k="ssr:stedsnr" v="575655" />
	</node>
	<node id="-280024" lat="58.4985694471" lon="8.82557499619">
		<tag k="name" v="Dyremyr" />
		<tag k="natural" v="wetland" />
		<tag k="ssr:stedsnr" v="819033" />
	</node>
	<node id="-279460" lat="58.4466861072" lon="8.73430277714">
		<tag k="name" v="Trygveskjerr" />
		<tag k="place" v="locality" />
		<tag k="ssr:stedsnr" v="636797" />
	</node>
	<node id="-280022" lat="58.4635055548" lon="8.70169166155">
		<tag k="landuse" v="quarry" />
		<tag k="name" v="Bråstad gruver" />
		<tag k="ssr:stedsnr" v="818995" />
	</node>
	<node id="-278997" lat="58.56476111" lon="8.83661667036">
		<tag k="name" v="Storestø" />
		<tag k="place" v="locality" />
		<tag k="ssr:stedsnr" v="515169" />
	</node>
	<node id="-277970" lat="58.5046638863" lon="8.80879165932">
		<tag k="name" v="Bjormyr" />
		<tag k="natural" v="wetland" />
		<tag k="ssr:stedsnr" v="503" />
	</node>
	<node id="-280017" lat="58.4334611069" lon="8.64120277956">
		<tag k="name" v="Trikantmyra" />
		<tag k="natural" v="wetland" />
		<tag k="ssr:stedsnr" v="818965" />
	</node>
	<node id="-277456" lat="58.5888333301" lon="8.76231110802">
		<tag k="name" v="Jerpekjerr" />
		<tag k="natural" v="wetland" />
		<tag k="ssr:stedsnr" v="272392" />
	</node>
	<node id="-277454" lat="58.5872916708" lon="8.75883888646">
		<tag k="name" v="Høymyr" />
		<tag k="natural" v="wetland" />
		<tag k="ssr:stedsnr" v="272379" />
	</node>
	<node id="-278476" lat="58.4715527792" lon="8.75031945258">
		<tag k="name" v="Rånaskogen" />
		<tag k="place" v="locality" />
		<tag k="ssr:stedsnr" v="151565" />
	</node>
	<node id="-278987" lat="58.5273555513" lon="8.84554999681">
		<tag k="name" v="Langekjær" />
		<tag k="natural" v="wetland" />
		<tag k="ssr:stedsnr" v="515087" />
	</node>
	<node id="-278473" lat="58.4252444457" lon="8.80304166331">
		<tag k="name" v="Myra" />
		<tag k="place" v="locality" />
		<tag k="ssr:stedsnr" v="151527" />
	</node>
	<node id="-277448" lat="58.5060805571" lon="8.79561389549">
		<tag k="name" v="Snømyr" />
		<tag k="natural" v="wetland" />
		<tag k="ssr:stedsnr" v="272323" />
	</node>
	<node id="-277447" lat="58.5093333341" lon="8.78361389044">
		<tag k="name" v="Torvmyra" />
		<tag k="natural" v="wetland" />
		<tag k="ssr:stedsnr" v="272311" />
	</node>
	<node id="-277444" lat="58.4641305571" lon="8.88556665822">
		<tag k="name" v="Gamlekjerr" />
		<tag k="natural" v="wetland" />
		<tag k="ssr:stedsnr" v="272288" />
	</node>
	<node id="-279491" lat="58.4719583354" lon="8.52247499383">
		<tag k="name" v="Stutemyra" />
		<tag k="natural" v="wetland" />
		<tag k="ssr:stedsnr" v="636962" />
	</node>
	<node id="-278465" lat="58.5501055577" lon="8.7535972138">
		<tag k="name" v="Røykjerr" />
		<tag k="natural" v="wetland" />
		<tag k="ssr:stedsnr" v="151458" />
	</node>
	<node id="-280000" lat="58.4371666651" lon="8.75513333809">
		<tag k="name" v="Nordskogen" />
		<tag k="place" v="locality" />
		<tag k="ssr:stedsnr" v="818808" />
	</node>
	<node id="-279109" lat="58.4723111127" lon="8.51549166837">
		<tag k="name" v="Storemyr" />
		<tag k="natural" v="wetland" />
		<tag k="ssr:stedsnr" v="515965" />
	</node>
	<node id="-278462" lat="58.5960388852" lon="8.81503610531">
		<tag k="name" v="Slåttemyrene" />
		<tag k="natural" v="wetland" />
		<tag k="ssr:stedsnr" v="151404" />
	</node>
	<node id="-279997" lat="58.4467305595" lon="8.7257916677">
		<tag k="name" v="Moltemyr" />
		<tag k="place" v="locality" />
		<tag k="ssr:stedsnr" v="818798" />
	</node>
	<node id="-279479" lat="58.4477527761" lon="8.55683056009">
		<tag k="name" v="Tverrmyr" />
		<tag k="natural" v="wetland" />
		<tag k="ssr:stedsnr" v="636893" />
	</node>
	<node id="-280016" lat="58.4358833339" lon="8.65078055709">
		<tag k="name" v="Stølemarka" />
		<tag k="place" v="locality" />
		<tag k="ssr:stedsnr" v="818966" />
	</node>
	<node id="-278453" lat="58.4586861068" lon="8.88023332981">
		<tag k="name" v="Østrejordet" />
		<tag k="place" v="locality" />
		<tag k="ssr:stedsnr" v="151311" />
	</node>
	<node id="-277406" lat="58.5321722258" lon="8.84691667227">
		<tag k="name" v="Kvartsbergmyra" />
		<tag k="natural" v="wetland" />
		<tag k="ssr:stedsnr" v="272080" />
	</node>
	<node id="-279473" lat="58.4522555552" lon="8.58441388858">
		<tag k="name" v="Bjørndalsmyr" />
		<tag k="natural" v="wetland" />
		<tag k="ssr:stedsnr" v="636865" />
	</node>
	<node id="-279981" lat="58.4766249994" lon="8.73665555098">
		<tag k="name" v="Hestehagen" />
		<tag k="place" v="locality" />
		<tag k="ssr:stedsnr" v="818693" />
	</node>
	<node id="-279468" lat="58.4262416627" lon="8.59682499234">
		<tag k="name" v="Sundmyra" />
		<tag k="place" v="locality" />
		<tag k="ssr:stedsnr" v="636837" />
	</node>
	<node id="-278589" lat="58.5866555529" lon="8.82753055318">
		<tag k="name" v="Råbuhagen" />
		<tag k="place" v="locality" />
		<tag k="ssr:stedsnr" v="212137" />
	</node>
	<node id="-278439" lat="58.5607222256" lon="8.9859611061">
		<tag k="name" v="Tjønnmyrene" />
		<tag k="natural" v="wetland" />
		<tag k="ssr:stedsnr" v="151217" />
	</node>
	<node id="-277412" lat="58.5329361086" lon="8.85544723">
		<tag k="name" v="Røyersmyr" />
		<tag k="natural" v="wetland" />
		<tag k="ssr:stedsnr" v="272119" />
	</node>
	<node id="-277410" lat="58.5401333377" lon="8.9040361116">
		<tag k="name" v="Vivesølmyra" />
		<tag k="natural" v="wetland" />
		<tag k="ssr:stedsnr" v="272109" />
	</node>
	<node id="-278430" lat="58.5739222241" lon="8.84790832917">
		<tag k="name" v="Storemyr" />
		<tag k="place" v="locality" />
		<tag k="ssr:stedsnr" v="151142" />
	</node>
	<node id="-279453" lat="58.4018638869" lon="8.67035277291">
		<tag k="name" v="Gamlestem" />
		<tag k="place" v="locality" />
		<tag k="ssr:stedsnr" v="636776" />
	</node>
	<node id="-279964" lat="58.5619083365" lon="8.77986388173">
		<tag k="name" v="Kvernhuskjerra" />
		<tag k="natural" v="wetland" />
		<tag k="ssr:stedsnr" v="818494" />
	</node>
	<node id="-279451" lat="58.5703861073" lon="8.99131944665">
		<tag k="name" v="Askefluhaven" />
		<tag k="place" v="locality" />
		<tag k="ssr:stedsnr" v="636768" />
	</node>
	<node id="-278425" lat="58.5394972261" lon="8.89005832614">
		<tag k="name" v="Moltemyra" />
		<tag k="natural" v="wetland" />
		<tag k="ssr:stedsnr" v="151119" />
	</node>
	<node id="-279960" lat="58.5838611147" lon="8.76152500569">
		<tag k="name" v="Beruldsmyr" />
		<tag k="natural" v="wetland" />
		<tag k="ssr:stedsnr" v="818399" />
	</node>
	<node id="-278420" lat="58.5421277738" lon="8.85263888602">
		<tag k="name" v="Lefseklingen" />
		<tag k="place" v="locality" />
		<tag k="ssr:stedsnr" v="151072" />
	</node>
	<node id="-279440" lat="58.5065805519" lon="8.7296888955">
		<tag k="name" v="Ålemyra" />
		<tag k="natural" v="wetland" />
		<tag k="ssr:stedsnr" v="636681" />
	</node>
	<node id="-278415" lat="58.5074722214" lon="8.82809167144">
		<tag k="name" v="Haugereidmyra" />
		<tag k="place" v="locality" />
		<tag k="ssr:stedsnr" v="151039" />
	</node>
	<node id="-278587" lat="58.5767388908" lon="8.86423333745">
		<tag k="name" v="Fjellmyr" />
		<tag k="natural" v="wetland" />
		<tag k="ssr:stedsnr" v="212123" />
	</node>
	<node id="-278413" lat="58.557519447" lon="8.84231389619">
		<tag k="name" v="Nordmyr" />
		<tag k="natural" v="wetland" />
		<tag k="ssr:stedsnr" v="151013" />
	</node>
	<node id="-278679" lat="58.566927777" lon="8.98917499456">
		<tag k="name" v="Bløta" />
		<tag k="natural" v="wetland" />
		<tag k="ssr:stedsnr" v="212791" />
	</node>
	<node id="-279944" lat="58.5593305555" lon="8.96223054793">
		<tag k="name" v="Lønvikjordene" />
		<tag k="place" v="locality" />
		<tag k="ssr:stedsnr" v="818257" />
	</node>
	<node id="-278405" lat="58.4134833314" lon="8.65795554917">
		<tag k="name" v="Degnekjerr" />
		<tag k="place" v="locality" />
		<tag k="ssr:stedsnr" v="150852" />
	</node>
	<node id="-277892" lat="58.4193500026" lon="8.66142777819">
		<tag k="name" v="Karten" />
		<tag k="place" v="locality" />
		<tag k="ssr:stedsnr" v="393758" />
	</node>
	<node id="-277891" lat="58.5713166675" lon="8.94651111203">
		<tag k="name" v="Svendsmyra" />
		<tag k="natural" v="wetland" />
		<tag k="ssr:stedsnr" v="393757" />
	</node>
	<node id="-278402" lat="58.448938888" lon="8.5551055472">
		<tag k="name" v="Kvernemyr" />
		<tag k="natural" v="wetland" />
		<tag k="ssr:stedsnr" v="150834" />
	</node>
	<node id="-280043" lat="58.5672888883" lon="8.78487499828">
		<tag k="name" v="Diplemyra" />
		<tag k="natural" v="wetland" />
		<tag k="ssr:stedsnr" v="819474" />
	</node>
	<node id="-277888" lat="58.5786888847" lon="8.96107778071">
		<tag k="name" v="Husmyrene" />
		<tag k="place" v="locality" />
		<tag k="ssr:stedsnr" v="393740" />
	</node>
	<node id="-278911" lat="58.4585361076" lon="8.56640000309">
		<tag k="name" v="Strandebakkmyra" />
		<tag k="natural" v="wetland" />
		<tag k="ssr:stedsnr" v="454888" />
	</node>
	<node id="-278397" lat="58.4242527805" lon="8.56608333276">
		<tag k="name" v="Bjordammen" />
		<tag k="natural" v="wetland" />
		<tag k="ssr:stedsnr" v="150800" />
	</node>
	<node id="-277883" lat="58.5297111109" lon="8.74307499225">
		<tag k="name" v="Eiesteinen" />
		<tag k="natural" v="stone" />
		<tag k="ssr:stedsnr" v="393709" />
	</node>
	<node id="-277882" lat="58.5221833366" lon="8.75328888864">
		<tag k="name" v="Storemyr" />
		<tag k="natural" v="wetland" />
		<tag k="ssr:stedsnr" v="393708" />
	</node>
	<node id="-280169" lat="58.5966277757" lon="8.8112166724">
		<tag k="name" v="Skarken" />
		<tag k="natural" v="wetland" />
		<tag k="ssr:stedsnr" v="879386" />
	</node>
	<node id="-279928" lat="58.56373333" lon="8.84415278292">
		<tag k="name" v="Ingeborgsmyr" />
		<tag k="natural" v="wetland" />
		<tag k="ssr:stedsnr" v="818116" />
	</node>
	<node id="-277879" lat="58.4795250026" lon="8.73599167382">
		<tag k="name" v="Dypmyr" />
		<tag k="place" v="locality" />
		<tag k="ssr:stedsnr" v="393674" />
	</node>
	<node id="-278390" lat="58.4306138897" lon="8.67270556216">
		<tag k="name" v="Langekjerr" />
		<tag k="natural" v="wetland" />
		<tag k="ssr:stedsnr" v="150730" />
	</node>
	<node id="-279925" lat="58.5186583315" lon="8.8638999971">
		<tag k="name" v="Lykkreimyr" />
		<tag k="natural" v="wetland" />
		<tag k="ssr:stedsnr" v="818086" />
	</node>
	<node id="-279924" lat="58.5192111094" lon="8.87607499928">
		<tag k="name" v="Nordkjær" />
		<tag k="natural" v="wetland" />
		<tag k="ssr:stedsnr" v="818084" />
	</node>
	<node id="-280433" lat="58.4468916708" lon="8.539452775">
		<tag k="name" v="Nistemyr" />
		<tag k="natural" v="wetland" />
		<tag k="ssr:stedsnr" v="940856" />
	</node>
	<node id="-279919" lat="58.5588388918" lon="8.83058888904">
		<tag k="name" v="Vågsmyra" />
		<tag k="natural" v="wetland" />
		<tag k="ssr:stedsnr" v="818014" />
	</node>
	<node id="-279918" lat="58.5532916656" lon="8.8547055513">
		<tag k="name" v="Lisletjønnmyra" />
		<tag k="natural" v="wetland" />
		<tag k="ssr:stedsnr" v="818006" />
	</node>
	<node id="-278381" lat="58.463830552" lon="8.84272778192">
		<tag k="name" v="Josfjellmyra" />
		<tag k="natural" v="wetland" />
		<tag k="ssr:stedsnr" v="150328" />
	</node>
	<node id="-279404" lat="58.5513055598" lon="8.74734444001">
		<tag k="name" v="Pilemyr" />
		<tag k="natural" v="wetland" />
		<tag k="ssr:stedsnr" v="636342" />
	</node>
	<node id="-279371" lat="58.5232972191" lon="8.85104443692">
		<tag k="name" v="Øvre Øygardsmyr" />
		<tag k="natural" v="wetland" />
		<tag k="ssr:stedsnr" v="636073" />
	</node>
	<node id="-278638" lat="58.5068277757" lon="8.86697499726">
		<tag k="name" v="Kloppedalsmyra" />
		<tag k="natural" v="wetland" />
		<tag k="ssr:stedsnr" v="212445" />
	</node>
	<node id="-278375" lat="58.549033337" lon="8.9667055483">
		<tag k="name" v="Sundmyrene" />
		<tag k="natural" v="wetland" />
		<tag k="ssr:stedsnr" v="150247" />
	</node>
	<node id="-277862" lat="58.4413194427" lon="8.60486110563">
		<tag k="name" v="Furremyra" />
		<tag k="place" v="locality" />
		<tag k="ssr:stedsnr" v="393511" />
	</node>
	<node id="-278885" lat="58.5261916642" lon="8.75923055795">
		<tag k="name" v="Elgemyr" />
		<tag k="natural" v="wetland" />
		<tag k="ssr:stedsnr" v="454752" />
	</node>
	<node id="-277859" lat="58.5782750006" lon="8.81797777472">
		<tag k="name" v="Knutsøygard" />
		<tag k="place" v="locality" />
		<tag k="ssr:stedsnr" v="393483" />
	</node>
	<node id="-277858" lat="58.567008335" lon="8.7967583253">
		<tag k="name" v="Ingreidsmyr" />
		<tag k="natural" v="wetland" />
		<tag k="ssr:stedsnr" v="393476" />
	</node>
	<node id="-278881" lat="58.5267361081" lon="8.75359721442">
		<tag k="name" v="Vinterkjærr" />
		<tag k="natural" v="wetland" />
		<tag k="ssr:stedsnr" v="454746" />
	</node>
	<node id="-279392" lat="58.4080972231" lon="8.69013333064">
		<tag k="name" v="Hestekjær" />
		<tag k="place" v="locality" />
		<tag k="ssr:stedsnr" v="636232" />
	</node>
	<node id="-278879" lat="58.5237444418" lon="8.74446666558">
		<tag k="name" v="Tømmerkjerr" />
		<tag k="natural" v="wetland" />
		<tag k="ssr:stedsnr" v="454742" />
	</node>
	<node id="-280412" lat="58.4760138881" lon="8.73215278463">
		<tag k="name" v="Myntekjerr" />
		<tag k="natural" v="wetland" />
		<tag k="ssr:stedsnr" v="940694" />
	</node>
	<node id="-277851" lat="58.5538083348" lon="8.79289166813">
		<tag k="name" v="Kringlemoen" />
		<tag k="place" v="locality" />
		<tag k="ssr:stedsnr" v="393425" />
	</node>
	<node id="-277850" lat="58.5236472181" lon="8.8195166653">
		<tag k="name" v="Høykjerrene" />
		<tag k="natural" v="wetland" />
		<tag k="ssr:stedsnr" v="393418" />
	</node>
	<node id="-280409" lat="58.5073972219" lon="8.75380555243">
		<tag k="name" v="Vikemyra" />
		<tag k="natural" v="wetland" />
		<tag k="ssr:stedsnr" v="940658" />
	</node>
	<node id="-277848" lat="58.5254722223" lon="8.82099723033">
		<tag k="name" v="Stormyr" />
		<tag k="place" v="locality" />
		<tag k="ssr:stedsnr" v="393416" />
	</node>
	<node id="-277847" lat="58.5215083348" lon="8.82048055283">
		<tag k="name" v="Paddekjerr" />
		<tag k="natural" v="wetland" />
		<tag k="ssr:stedsnr" v="393413" />
	</node>
	<node id="-278585" lat="58.5176222208" lon="8.87472221613">
		<tag k="name" v="Flaten" />
		<tag k="place" v="locality" />
		<tag k="ssr:stedsnr" v="212114" />
	</node>
	<node id="-280403" lat="58.4428472251" lon="8.80136388628">
		<tag k="name" v="Østermyr" />
		<tag k="natural" v="wetland" />
		<tag k="ssr:stedsnr" v="940636" />
	</node>
	<node id="-280401" lat="58.4482944479" lon="8.7992305478">
		<tag k="name" v="Stormyr" />
		<tag k="place" v="locality" />
		<tag k="ssr:stedsnr" v="940619" />
	</node>
	<node id="-280400" lat="58.4521749961" lon="8.79564722345">
		<tag k="name" v="Langhaven" />
		<tag k="place" v="locality" />
		<tag k="ssr:stedsnr" v="940618" />
	</node>
	<node id="-277458" lat="58.5441694444" lon="8.7834722198">
		<tag k="name" v="Langemyr" />
		<tag k="natural" v="wetland" />
		<tag k="ssr:stedsnr" v="272419" />
	</node>
	<node id="-277836" lat="58.5584722228" lon="8.75619722954">
		<tag k="name" v="Bjørnholtmyra" />
		<tag k="natural" v="wetland" />
		<tag k="ssr:stedsnr" v="393332" />
	</node>
	<node id="-279010" lat="58.5407083358" lon="8.96875555914">
		<tag k="name" v="Kalvesundmyrene" />
		<tag k="natural" v="wetland" />
		<tag k="ssr:stedsnr" v="515244" />
	</node>
	<node id="-278071" lat="58.4550583297" lon="8.57273611127">
		<tag k="name" v="Storemyr" />
		<tag k="natural" v="wetland" />
		<tag k="ssr:stedsnr" v="29856" />
	</node>
	<node id="-279367" lat="58.5563694469" lon="8.83535278581">
		<tag k="name" v="Halvorskjerr" />
		<tag k="natural" v="wetland" />
		<tag k="ssr:stedsnr" v="636012" />
	</node>
	<node id="-278853" lat="58.5836055571" lon="8.82250833018">
		<tag k="name" v="Kroksmyr" />
		<tag k="natural" v="wetland" />
		<tag k="ssr:stedsnr" v="454512" />
	</node>
	<node id="-280388" lat="58.4246611152" lon="8.80550555725">
		<tag k="landuse" v="meadow" />
		<tag k="name" v="Grønne-voll" />
		<tag k="ssr:stedsnr" v="940502" />
	</node>
	<node id="-279362" lat="58.5409333374" lon="8.95812778416">
		<tag k="name" v="Øygardsmyra" />
		<tag k="natural" v="wetland" />
		<tag k="ssr:stedsnr" v="635238" />
	</node>
	<node id="-279265" lat="58.4533611105" lon="8.8469249937">
		<tag k="name" v="Kjerra" />
		<tag k="place" v="locality" />
		<tag k="ssr:stedsnr" v="575713" />
	</node>
	<node id="-280383" lat="58.5653333326" lon="8.7909500026">
		<tag k="name" v="Kolhuskjerra" />
		<tag k="natural" v="wetland" />
		<tag k="ssr:stedsnr" v="940438" />
	</node>
	<node id="-280382" lat="58.5524249959" lon="8.76149166454">
		<tag k="name" v="Lauvvelskjerrene" />
		<tag k="natural" v="wetland" />
		<tag k="ssr:stedsnr" v="940425" />
	</node>
	<node id="-278845" lat="58.5296333322" lon="8.8221333318">
		<tag k="name" v="Lillemyr" />
		<tag k="place" v="locality" />
		<tag k="ssr:stedsnr" v="454418" />
	</node>
	<node id="-277819" lat="58.4507833342" lon="8.72352222413">
		<tag k="landuse" v="quarry" />
		<tag k="name" v="Klodeborg gruber" />
		<tag k="ssr:stedsnr" v="393198" />
	</node>
	<node id="-278239" lat="58.5405416652" lon="8.79227222902">
		<tag k="name" v="Torvmyra" />
		<tag k="natural" v="wetland" />
		<tag k="ssr:stedsnr" v="90422" />
	</node>
	<node id="-278580" lat="58.5310777755" lon="8.84743332985">
		<tag k="name" v="Dypmyr" />
		<tag k="natural" v="wetland" />
		<tag k="ssr:stedsnr" v="212072" />
	</node>
	<node id="-278838" lat="58.4784861087" lon="8.89214443848">
		<tag k="name" v="Gurienga" />
		<tag k="place" v="locality" />
		<tag k="ssr:stedsnr" v="454382" />
	</node>
	<node id="-277813" lat="58.5260888889" lon="8.85162221838">
		<tag k="name" v="Dypmyr" />
		<tag k="natural" v="wetland" />
		<tag k="ssr:stedsnr" v="393138" />
	</node>
	<node id="-278833" lat="58.553683335" lon="8.76454722054">
		<tag k="name" v="Svintokskjerret" />
		<tag k="natural" v="wetland" />
		<tag k="ssr:stedsnr" v="454339" />
	</node>
	<node id="-277396" lat="58.5568305542" lon="8.84757500379">
		<tag k="name" v="Bjellemyr" />
		<tag k="natural" v="wetland" />
		<tag k="ssr:stedsnr" v="272003" />
	</node>
	<node id="-280366" lat="58.4604833353" lon="8.84202222467">
		<tag k="name" v="Storefet" />
		<tag k="place" v="locality" />
		<tag k="ssr:stedsnr" v="940319" />
	</node>
	<node id="-278829" lat="58.4612083352" lon="8.88926666072">
		<tag k="name" v="Botneskogen" />
		<tag k="place" v="locality" />
		<tag k="ssr:stedsnr" v="454303" />
	</node>
	<node id="-277804" lat="58.5062916639" lon="8.83566111735">
		<tag k="name" v="Tjønnimellom" />
		<tag k="natural" v="wetland" />
		<tag k="ssr:stedsnr" v="393038" />
	</node>
	<node id="-277801" lat="58.5488555579" lon="8.85628055944">
		<tag k="name" v="Mørkoppmyra" />
		<tag k="place" v="locality" />
		<tag k="ssr:stedsnr" v="393023" />
	</node>
	<node id="-279847" lat="58.5779527767" lon="8.95159445117">
		<tag k="name" v="Varden" />
		<tag k="natural" v="stone" />
		<tag k="ssr:stedsnr" v="758786" />
	</node>
	<node id="-277798" lat="58.5501777741" lon="8.85558333954">
		<tag k="name" v="Myrhagen" />
		<tag k="place" v="locality" />
		<tag k="ssr:stedsnr" v="393013" />
	</node>
	<node id="-278572" lat="58.5437861113" lon="8.86685832911">
		<tag k="name" v="Krossmyr" />
		<tag k="natural" v="wetland" />
		<tag k="ssr:stedsnr" v="212016" />
	</node>
	<node id="-279330" lat="58.5228555522" lon="8.84915833704">
		<tag k="name" v="Øygardsmyra" />
		<tag k="natural" v="wetland" />
		<tag k="ssr:stedsnr" v="607252" />
	</node>
	<node id="-280352" lat="58.4401472238" lon="8.7491777853">
		<tag k="name" v="Myra" />
		<tag k="natural" v="wetland" />
		<tag k="ssr:stedsnr" v="940243" />
	</node>
	<node id="-279088" lat="58.4519805532" lon="8.72757221962">
		<tag k="name" v="Åsbie-skogen" />
		<tag k="place" v="locality" />
		<tag k="ssr:stedsnr" v="515795" />
	</node>
	<node id="-279838" lat="58.5221111124" lon="8.76518611687">
		<tag k="name" v="Hessmyr" />
		<tag k="natural" v="wetland" />
		<tag k="ssr:stedsnr" v="758719" />
	</node>
	<node id="-279941" lat="58.5557527789" lon="8.95686944167">
		<tag k="name" v="Skaumyra" />
		<tag k="natural" v="wetland" />
		<tag k="ssr:stedsnr" v="818233" />
	</node>
	<node id="-279275" lat="58.4491499992" lon="8.6811972256">
		<tag k="name" v="Hovemyra" />
		<tag k="natural" v="wetland" />
		<tag k="ssr:stedsnr" v="575752" />
	</node>
	<node id="-278117" lat="58.5493666681" lon="8.76254721909">
		<tag k="name" v="Byttingsmyr" />
		<tag k="natural" v="wetland" />
		<tag k="ssr:stedsnr" v="30339" />
	</node>
	<node id="-278809" lat="58.5256388899" lon="8.88226945301">
		<tag k="name" v="Furuvollen" />
		<tag k="place" v="locality" />
		<tag k="ssr:stedsnr" v="454170" />
	</node>
	<node id="-278807" lat="58.5304805547" lon="8.88881944879">
		<tag k="name" v="Småhagene" />
		<tag k="place" v="locality" />
		<tag k="ssr:stedsnr" v="454164" />
	</node>
	<node id="-278294" lat="58.4219972241" lon="8.57686389411">
		<tag k="name" v="Moltemyr" />
		<tag k="natural" v="wetland" />
		<tag k="ssr:stedsnr" v="90809" />
	</node>
	<node id="-279100" lat="58.4196111142" lon="8.65583610557">
		<tag k="name" v="Fladen" />
		<tag k="place" v="locality" />
		<tag k="ssr:stedsnr" v="515898" />
	</node>
	<node id="-278830" lat="58.4629111092" lon="8.84631667267">
		<tag k="name" v="Klomrekjerr" />
		<tag k="natural" v="wetland" />
		<tag k="ssr:stedsnr" v="454314" />
	</node>
	<node id="-278802" lat="58.545969447" lon="8.92601111797">
		<tag k="name" v="Gullbergmyra" />
		<tag k="natural" v="wetland" />
		<tag k="ssr:stedsnr" v="454109" />
	</node>
	<node id="-279427" lat="58.5767111092" lon="8.76982777348">
		<tag k="name" v="Lusemyrkilen" />
		<tag k="natural" v="wetland" />
		<tag k="ssr:stedsnr" v="636502" />
	</node>
	<node id="-278799" lat="58.5525222202" lon="8.91900278011">
		<tag k="name" v="Moltemyr" />
		<tag k="natural" v="wetland" />
		<tag k="ssr:stedsnr" v="454098" />
	</node>
	<node id="-279853" lat="58.4357333303" lon="8.64343334102">
		<tag k="name" v="Hespensmyr" />
		<tag k="natural" v="wetland" />
		<tag k="ssr:stedsnr" v="758967" />
	</node>
	<node id="-279820" lat="58.5611861151" lon="8.7682972204">
		<tag k="name" v="Store Siringsmyr" />
		<tag k="natural" v="wetland" />
		<tag k="ssr:stedsnr" v="758531" />
	</node>
	<node id="-279426" lat="58.5726111111" lon="8.80707777351">
		<tag k="name" v="Svåa" />
		<tag k="place" v="locality" />
		<tag k="ssr:stedsnr" v="636487" />
	</node>
	<node id="-279818" lat="58.5804972202" lon="8.8071999941">
		<tag k="name" v="Småmyrene" />
		<tag k="natural" v="wetland" />
		<tag k="ssr:stedsnr" v="758524" />
	</node>
	<node id="-279816" lat="58.5719249976" lon="8.79285832774">
		<tag k="name" v="Store Helgesmyr" />
		<tag k="natural" v="wetland" />
		<tag k="ssr:stedsnr" v="758514" />
	</node>
	<node id="-279852" lat="58.4515277777" lon="8.64854999563">
		<tag k="name" v="Treskollsmyra" />
		<tag k="natural" v="wetland" />
		<tag k="ssr:stedsnr" v="758952" />
	</node>
	<node id="-280326" lat="58.5216833355" lon="8.82846388804">
		<tag k="name" v="Berulvsmyr" />
		<tag k="natural" v="wetland" />
		<tag k="ssr:stedsnr" v="940070" />
	</node>
	<node id="-279812" lat="58.5733027813" lon="8.77525000367">
		<tag k="name" v="Lusemyr" />
		<tag k="natural" v="wetland" />
		<tag k="ssr:stedsnr" v="758504" />
	</node>
	<node id="-279299" lat="58.4630583339" lon="8.52577222689">
		<tag k="name" v="Halvmannstykket" />
		<tag k="place" v="locality" />
		<tag k="ssr:stedsnr" v="575896" />
	</node>
	<node id="-278786" lat="58.5574722226" lon="8.85406666954">
		<tag k="name" v="Store Lyngmyr" />
		<tag k="natural" v="wetland" />
		<tag k="ssr:stedsnr" v="454016" />
	</node>
	<node id="-280320" lat="58.4993138878" lon="8.92354722361">
		<tag k="name" v="Sandvigmyr" />
		<tag k="natural" v="wetland" />
		<tag k="ssr:stedsnr" v="940043" />
	</node>
	<node id="-279168" lat="58.5522972237" lon="8.84387221432">
		<tag k="name" v="Ospelunden" />
		<tag k="place" v="locality" />
		<tag k="ssr:stedsnr" v="575005" />
	</node>
	<node id="-279294" lat="58.4717861099" lon="8.52980833343">
		<tag k="name" v="Linddalsslåtta" />
		<tag k="place" v="locality" />
		<tag k="ssr:stedsnr" v="575871" />
	</node>
	<node id="-280316" lat="58.5545361112" lon="8.85414166856">
		<tag k="name" v="Nordskauen" />
		<tag k="place" v="locality" />
		<tag k="ssr:stedsnr" v="940010" />
	</node>
	<node id="-279290" lat="58.456175" lon="8.59743055066">
		<tag k="name" v="Bjelkemyr" />
		<tag k="natural" v="wetland" />
		<tag k="ssr:stedsnr" v="575860" />
	</node>
	<node id="-279289" lat="58.4143000022" lon="8.55711944764">
		<tag k="name" v="Fiskeura" />
		<tag k="natural" v="scree" />
		<tag k="ssr:stedsnr" v="575853" />
	</node>
	<node id="-279599" lat="58.5470861142" lon="8.75392222865">
		<tag k="name" v="Lille Heimyr" />
		<tag k="natural" v="wetland" />
		<tag k="ssr:stedsnr" v="697439" />
	</node>
	<node id="-279797" lat="58.5596361111" lon="8.75013332926">
		<tag k="name" v="Småmyrene" />
		<tag k="natural" v="wetland" />
		<tag k="ssr:stedsnr" v="758376" />
	</node>
	<node id="-279794" lat="58.4983888913" lon="8.77583332723">
		<tag k="name" v="Lillemyr" />
		<tag k="place" v="locality" />
		<tag k="ssr:stedsnr" v="758370" />
	</node>
	<node id="-280129" lat="58.5304138928" lon="8.89238055439">
		<tag k="name" v="Øygardsmyra" />
		<tag k="natural" v="wetland" />
		<tag k="ssr:stedsnr" v="879176" />
	</node>
	<node id="-280104" lat="58.5452750002" lon="8.86582777112">
		<tag k="name" v="Lille Krossmyr" />
		<tag k="natural" v="wetland" />
		<tag k="ssr:stedsnr" v="879028" />
	</node>
	<node id="-280445" lat="58.4393277786" lon="8.54184445117">
		<tag k="name" v="Buhagen" />
		<tag k="place" v="locality" />
		<tag k="ssr:stedsnr" v="940928" />
	</node>
	<node id="-278252" lat="58.4487250017" lon="8.60725832642">
		<tag k="name" v="Furremyra" />
		<tag k="place" v="locality" />
		<tag k="ssr:stedsnr" v="90494" />
	</node>
	<node id="-278251" lat="58.5891805588" lon="8.80263334048">
		<tag k="name" v="Moltemyr" />
		<tag k="natural" v="wetland" />
		<tag k="ssr:stedsnr" v="90490" />
	</node>
	<node id="-279274" lat="58.5720444484" lon="8.95173889307">
		<tag k="name" v="Løvmyra" />
		<tag k="natural" v="wetland" />
		<tag k="ssr:stedsnr" v="575751" />
	</node>
	<node id="-278249" lat="58.5813277776" lon="8.76632778578">
		<tag k="name" v="Storemyrmyra" />
		<tag k="natural" v="wetland" />
		<tag k="ssr:stedsnr" v="90477" />
	</node>
	<node id="-278248" lat="58.5718888876" lon="8.761330548">
		<tag k="name" v="Dølemyr" />
		<tag k="natural" v="wetland" />
		<tag k="ssr:stedsnr" v="90475" />
	</node>
	<node id="-279270" lat="58.4435027808" lon="8.66835832639">
		<tag k="name" v="Kirkemyr" />
		<tag k="natural" v="wetland" />
		<tag k="ssr:stedsnr" v="575732" />
	</node>
	<node id="-277733" lat="58.4298249977" lon="8.55992500225">
		<tag k="name" v="Ingeborgsmyr" />
		<tag k="natural" v="wetland" />
		<tag k="ssr:stedsnr" v="333875" />
	</node>
	<node id="-279780" lat="58.5826305512" lon="8.83097778197">
		<tag k="name" v="Fiene" />
		<tag k="natural" v="wetland" />
		<tag k="ssr:stedsnr" v="758167" />
	</node>
	<node id="-279846" lat="58.4158722251" lon="8.66384999142">
		<tag k="name" v="Hestehaven" />
		<tag k="place" v="locality" />
		<tag k="ssr:stedsnr" v="758777" />
	</node>
	<node id="-277730" lat="58.4493722189" lon="8.54035556351">
		<tag k="name" v="Storemyr" />
		<tag k="natural" v="wetland" />
		<tag k="ssr:stedsnr" v="333859" />
	</node>
	<node id="-278907" lat="58.4448444456" lon="8.59490555704">
		<tag k="name" v="Småmyrene" />
		<tag k="natural" v="wetland" />
		<tag k="ssr:stedsnr" v="454858" />
	</node>
	<node id="-277728" lat="58.4552694488" lon="8.53847499373">
		<tag k="name" v="Skarkekjerra" />
		<tag k="natural" v="wetland" />
		<tag k="ssr:stedsnr" v="333849" />
	</node>
	<node id="-279775" lat="58.5374333293" lon="8.88586389094">
		<tag k="name" v="Småmyrene" />
		<tag k="natural" v="wetland" />
		<tag k="ssr:stedsnr" v="758106" />
	</node>
	<node id="-279773" lat="58.5261277789" lon="8.84168611953">
		<tag k="name" v="Bjormyr" />
		<tag k="place" v="locality" />
		<tag k="ssr:stedsnr" v="758086" />
	</node>
	<node id="-277724" lat="58.4802083342" lon="8.87901944586">
		<tag k="name" v="Kjempevollen" />
		<tag k="place" v="locality" />
		<tag k="ssr:stedsnr" v="333809" />
	</node>
	<node id="-278235" lat="58.553355555" lon="8.7735527831">
		<tag k="name" v="Knut Moens myr" />
		<tag k="natural" v="wetland" />
		<tag k="ssr:stedsnr" v="90403" />
	</node>
	<node id="-278234" lat="58.5256111116" lon="8.81484722089">
		<tag k="name" v="Linhage" />
		<tag k="place" v="locality" />
		<tag k="ssr:stedsnr" v="90391" />
	</node>
	<node id="-278399" lat="58.4427194462" lon="8.57561111283">
		<tag k="name" v="Blekkekjerrene" />
		<tag k="natural" v="wetland" />
		<tag k="ssr:stedsnr" v="150810" />
	</node>
	<node id="-279254" lat="58.4464194438" lon="8.80031111408">
		<tag k="name" v="Sverresmyr" />
		<tag k="natural" v="wetland" />
		<tag k="ssr:stedsnr" v="575624" />
	</node>
	<node id="-279765" lat="58.5070972211" lon="8.85208055746">
		<tag k="name" v="Helleskogen" />
		<tag k="place" v="locality" />
		<tag k="ssr:stedsnr" v="758025" />
	</node>
	<node id="-279763" lat="58.5549305511" lon="8.83749443907">
		<tag k="name" v="Igletjønnmyra" />
		<tag k="natural" v="wetland" />
		<tag k="ssr:stedsnr" v="758010" />
	</node>
	<node id="-277579" lat="58.5471333313" lon="8.96629999593">
		<tag k="name" v="Sundmyrene" />
		<tag k="natural" v="wetland" />
		<tag k="ssr:stedsnr" v="90213" />
	</node>
	<node id="-278222" lat="58.4932444446" lon="8.90048055652">
		<tag k="name" v="Brønnemyra" />
		<tag k="natural" v="wetland" />
		<tag k="ssr:stedsnr" v="90325" />
	</node>
	<node id="-278221" lat="58.508508334" lon="8.81063611114">
		<tag k="name" v="Kloppekjerr" />
		<tag k="place" v="locality" />
		<tag k="ssr:stedsnr" v="90319" />
	</node>
	<node id="-278220" lat="58.5008666624" lon="8.80949166045">
		<tag k="name" v="Lille Bjormyr" />
		<tag k="natural" v="wetland" />
		<tag k="ssr:stedsnr" v="90317" />
	</node>
	<node id="-278219" lat="58.5510638851" lon="8.76652222307">
		<tag k="name" v="Store Fjærbumyra" />
		<tag k="natural" v="wetland" />
		<tag k="ssr:stedsnr" v="90313" />
	</node>
	<node id="-279754" lat="58.4565833301" lon="8.57798611697">
		<tag k="name" v="Rundemyra" />
		<tag k="natural" v="wetland" />
		<tag k="ssr:stedsnr" v="757897" />
	</node>
	<node id="-277705" lat="58.4929166662" lon="8.7412111194">
		<tag k="name" v="Storemyr" />
		<tag k="natural" v="wetland" />
		<tag k="ssr:stedsnr" v="333679" />
	</node>
	<node id="-277452" lat="58.4817777796" lon="8.82475832546">
		<tag k="name" v="Trollnesmyra" />
		<tag k="natural" v="wetland" />
		<tag k="ssr:stedsnr" v="272366" />
	</node>
	<node id="-277701" lat="58.5106083365" lon="8.71560000027">
		<tag k="name" v="Bjorstemmen" />
		<tag k="natural" v="wetland" />
		<tag k="ssr:stedsnr" v="333653" />
	</node>
	<node id="-279236" lat="58.585027779" lon="8.80768054926">
		<tag k="name" v="Hongsmyr" />
		<tag k="natural" v="wetland" />
		<tag k="ssr:stedsnr" v="575480" />
	</node>
	<node id="-279926" lat="58.5289277739" lon="8.86350000686">
		<tag k="name" v="Moltemyra" />
		<tag k="natural" v="wetland" />
		<tag k="ssr:stedsnr" v="818106" />
	</node>
	<node id="-279746" lat="58.4152861123" lon="8.57183054992">
		<tag k="name" v="Øvre Kvernmyr" />
		<tag k="natural" v="wetland" />
		<tag k="ssr:stedsnr" v="757794" />
	</node>
	<node id="-277963" lat="58.5152194449" lon="8.85403333065">
		<tag k="alt_name" v="Stormyr" />
		<tag k="name" v="Stormyra" />
		<tag k="natural" v="wetland" />
		<tag k="ssr:stedsnr" v="207" />
	</node>
	<node id="-279232" lat="58.5744361098" lon="8.7529666679">
		<tag k="name" v="Åsesmyr" />
		<tag k="natural" v="wetland" />
		<tag k="ssr:stedsnr" v="575467" />
	</node>
	<node id="-278207" lat="58.452102778" lon="8.73660000001">
		<tag k="name" v="Engene" />
		<tag k="place" v="locality" />
		<tag k="ssr:stedsnr" v="90157" />
	</node>
	<node id="-279742" lat="58.4522388891" lon="8.87095000082">
		<tag k="name" v="Limyr" />
		<tag k="place" v="locality" />
		<tag k="ssr:stedsnr" v="757269" />
	</node>
	<node id="-278205" lat="58.5285916641" lon="8.88004167072">
		<tag k="name" v="Tangkjerr" />
		<tag k="natural" v="wetland" />
		<tag k="ssr:stedsnr" v="90137" />
	</node>
	<node id="-278218" lat="58.5076166627" lon="8.79380833768">
		<tag k="name" v="Snømyr" />
		<tag k="natural" v="wetland" />
		<tag k="ssr:stedsnr" v="90301" />
	</node>
	<node id="-279226" lat="58.5576305556" lon="8.79440554729">
		<tag k="name" v="Langemyr" />
		<tag k="natural" v="wetland" />
		<tag k="ssr:stedsnr" v="575416" />
	</node>
	<node id="-279736" lat="58.4134611128" lon="8.73132778295">
		<tag k="name" v="Storemyr" />
		<tag k="natural" v="wetland" />
		<tag k="ssr:stedsnr" v="757190" />
	</node>
	<node id="-278644" lat="58.5650722206" lon="8.81889722455">
		<tag k="name" v="Likjerra" />
		<tag k="place" v="locality" />
		<tag k="ssr:stedsnr" v="212473" />
	</node>
	<node id="-277449" lat="58.491958333" lon="8.89665278385">
		<tag k="name" v="Kjennemyra" />
		<tag k="natural" v="wetland" />
		<tag k="ssr:stedsnr" v="272330" />
	</node>
	<node id="-279219" lat="58.5877944482" lon="8.81275832947">
		<tag k="name" v="Storhage" />
		<tag k="natural" v="wetland" />
		<tag k="ssr:stedsnr" v="575362" />
	</node>
	<node id="-280242" lat="58.4527638931" lon="8.64167221443">
		<tag k="name" v="Lyngmyr" />
		<tag k="natural" v="wetland" />
		<tag k="ssr:stedsnr" v="879949" />
	</node>
	<node id="-280239" lat="58.458563887" lon="8.53574723051">
		<tag k="name" v="Lauvåsmyrane" />
		<tag k="natural" v="wetland" />
		<tag k="ssr:stedsnr" v="879916" />
	</node>
	<node id="-277678" lat="58.4279111131" lon="8.60596666144">
		<tag k="name" v="Lindtveitmyra" />
		<tag k="place" v="locality" />
		<tag k="ssr:stedsnr" v="333526" />
	</node>
	<node id="-280235" lat="58.4487222239" lon="8.54660555203">
		<tag k="name" v="Nordmyr" />
		<tag k="natural" v="wetland" />
		<tag k="ssr:stedsnr" v="879899" />
	</node>
	<node id="-279659" lat="58.4499138877" lon="8.58738611106">
		<tag k="name" v="Solegladmyra" />
		<tag k="natural" v="wetland" />
		<tag k="ssr:stedsnr" v="697881" />
	</node>
	<node id="-277671" lat="58.5640861121" lon="8.77368055394">
		<tag k="name" v="Lille Siringsmyra" />
		<tag k="natural" v="wetland" />
		<tag k="ssr:stedsnr" v="333490" />
	</node>
	<node id="-278994" lat="58.5956277814" lon="8.83110278159">
		<tag k="name" v="Simonsmyrene" />
		<tag k="natural" v="wetland" />
		<tag k="ssr:stedsnr" v="515156" />
	</node>
	<node id="-279204" lat="58.4034277813" lon="8.69981110548">
		<tag k="name" v="Nedenessaulene" />
		<tag k="place" v="locality" />
		<tag k="ssr:stedsnr" v="575240" />
	</node>
	<node id="-280227" lat="58.4331083342" lon="8.58718610789">
		<tag k="name" v="Blautemyr" />
		<tag k="natural" v="wetland" />
		<tag k="ssr:stedsnr" v="879835" />
	</node>
	<node id="-277666" lat="58.5472972208" lon="8.76341388277">
		<tag k="name" v="Langemyr" />
		<tag k="natural" v="wetland" />
		<tag k="ssr:stedsnr" v="333466" />
	</node>
	<node id="-277664" lat="58.5477555556" lon="8.78833333507">
		<tag k="name" v="Myrastokk" />
		<tag k="natural" v="wetland" />
		<tag k="ssr:stedsnr" v="333448" />
	</node>
	<node id="-279199" lat="58.5591083375" lon="8.9550222148">
		<tag k="name" v="Maurtukjæret" />
		<tag k="place" v="locality" />
		<tag k="ssr:stedsnr" v="575224" />
	</node>
	<node id="-280119" lat="58.525105558" lon="8.8468694377">
		<tag k="name" v="Heimyr" />
		<tag k="natural" v="wetland" />
		<tag k="ssr:stedsnr" v="879127" />
	</node>
	<node id="-278665" lat="58.4870916679" lon="8.79796666463">
		<tag k="name" v="Blåbærkjær" />
		<tag k="natural" v="wetland" />
		<tag k="ssr:stedsnr" v="212686" />
	</node>
	<node id="-279196" lat="58.5358944429" lon="8.95798333631">
		<tag k="name" v="Kringlemyr" />
		<tag k="natural" v="wetland" />
		<tag k="ssr:stedsnr" v="575218" />
	</node>
	<node id="-279748" lat="58.4443972226" lon="8.53791945139">
		<tag k="name" v="Nordjordet" />
		<tag k="place" v="locality" />
		<tag k="ssr:stedsnr" v="757829" />
	</node>
	<node id="-277614" lat="58.5407138855" lon="8.89612221557">
		<tag k="name" v="Kolbotnjordene" />
		<tag k="place" v="locality" />
		<tag k="ssr:stedsnr" v="333117" />
	</node>
	<node id="-279235" lat="58.5738444463" lon="8.76810277078">
		<tag k="name" v="Kjærgårdmyra" />
		<tag k="natural" v="wetland" />
		<tag k="ssr:stedsnr" v="575479" />
	</node>
	<node id="-277580" lat="58.5537111155" lon="8.97366389322">
		<tag k="name" v="Kilsundskauen" />
		<tag k="place" v="locality" />
		<tag k="ssr:stedsnr" v="90215" />
	</node>
	<node id="-278671" lat="58.4716361067" lon="8.85332222225">
		<tag k="name" v="Fellesbeitet" />
		<tag k="place" v="locality" />
		<tag k="ssr:stedsnr" v="212746" />
	</node>
	<node id="-279405" lat="58.5055666648" lon="8.81031667085">
		<tag k="name" v="Store Bjormyr" />
		<tag k="natural" v="wetland" />
		<tag k="ssr:stedsnr" v="636351" />
	</node>
	<node id="-277642" lat="58.4931916709" lon="8.83576666949">
		<tag k="name" v="Allevikmyra" />
		<tag k="place" v="locality" />
		<tag k="ssr:stedsnr" v="333308" />
	</node>
	<node id="-277641" lat="58.4831583301" lon="8.87078056317">
		<tag k="alt_name" v="Anntjennmyra;Annkjennmyra" />
		<tag k="name" v="Anntjennsmyra" />
		<tag k="place" v="locality" />
		<tag k="ssr:stedsnr" v="333298" />
	</node>
	<node id="-279840" lat="58.5194999994" lon="8.75324444514">
		<tag k="name" v="Røyermyr" />
		<tag k="natural" v="wetland" />
		<tag k="ssr:stedsnr" v="758739" />
	</node>
	<node id="-278636" lat="58.5429138934" lon="8.76092778497">
		<tag k="name" v="Svarttjønnmyra" />
		<tag k="natural" v="wetland" />
		<tag k="ssr:stedsnr" v="212431" />
	</node>
	<node id="-279174" lat="58.5218305546" lon="8.84786111836">
		<tag k="name" v="Nedre Øygardsmyr" />
		<tag k="natural" v="wetland" />
		<tag k="ssr:stedsnr" v="575055" />
	</node>
	<node id="-279233" lat="58.577355554" lon="8.75909444467">
		<tag k="name" v="Middmyr" />
		<tag k="natural" v="wetland" />
		<tag k="ssr:stedsnr" v="575470" />
	</node>
	<node id="-279170" lat="58.5465277758" lon="8.85411944538">
		<tag k="name" v="Grisebakken" />
		<tag k="place" v="locality" />
		<tag k="ssr:stedsnr" v="575018" />
	</node>
	<node id="-279169" lat="58.5514166658" lon="8.85410000588">
		<tag k="name" v="Rundemyr" />
		<tag k="natural" v="wetland" />
		<tag k="ssr:stedsnr" v="575014" />
	</node>
	<node id="-279777" lat="58.5438277752" lon="8.89419999305">
		<tag k="name" v="Kringlemyr" />
		<tag k="natural" v="wetland" />
		<tag k="ssr:stedsnr" v="758119" />
	</node>
	<node id="-280123" lat="58.5566888911" lon="8.9859500023">
		<tag k="name" v="Ytrebøskau" />
		<tag k="place" v="locality" />
		<tag k="ssr:stedsnr" v="879141" />
	</node>
	<node id="-277629" lat="58.5853805541" lon="8.97738333828">
		<tag k="name" v="Kjerringura" />
		<tag k="natural" v="scree" />
		<tag k="ssr:stedsnr" v="333242" />
	</node>
	<node id="-277628" lat="58.5328583365" lon="8.95645833597">
		<tag k="name" v="Ulsbumyrene" />
		<tag k="natural" v="wetland" />
		<tag k="ssr:stedsnr" v="333228" />
	</node>
	<node id="-279306" lat="58.4410194486" lon="8.63391666941">
		<tag k="name" v="Kvernmyra" />
		<tag k="place" v="locality" />
		<tag k="ssr:stedsnr" v="575937" />
	</node>
	<node id="-280186" lat="58.4250222261" lon="8.80450277947">
		<tag k="name" v="Museumsjordet" />
		<tag k="place" v="locality" />
		<tag k="ssr:stedsnr" v="879499" />
	</node>
	<node id="-279008" lat="58.5815166689" lon="8.97849166636">
		<tag k="name" v="Kvernhushaven" />
		<tag k="place" v="locality" />
		<tag k="ssr:stedsnr" v="515227" />
	</node>
	<node id="-280184" lat="58.4353472254" lon="8.60493611049">
		<tag k="name" v="Grådaren" />
		<tag k="place" v="locality" />
		<tag k="ssr:stedsnr" v="879485" />
	</node>
	<node id="-280181" lat="58.5723083335" lon="8.76643610269">
		<tag k="name" v="Langemyr" />
		<tag k="natural" v="wetland" />
		<tag k="ssr:stedsnr" v="879469" />
	</node>
	<node id="-280180" lat="58.5634972207" lon="8.75928333109">
		<tag k="name" v="Lonemyrene" />
		<tag k="natural" v="wetland" />
		<tag k="ssr:stedsnr" v="879466" />
	</node>
	<node id="-278642" lat="58.5768638887" lon="8.80954444641">
		<tag k="name" v="Bjørnekjerr" />
		<tag k="natural" v="wetland" />
		<tag k="ssr:stedsnr" v="212469" />
	</node>
	<node id="-277617" lat="58.5686333363" lon="8.84494443592">
		<tag k="name" v="Røyermyr" />
		<tag k="natural" v="wetland" />
		<tag k="ssr:stedsnr" v="333147" />
	</node>
	<node id="-278640" lat="58.570022218" lon="8.79008611878">
		<tag k="name" v="Lille Helgesmyr" />
		<tag k="natural" v="wetland" />
		<tag k="ssr:stedsnr" v="212453" />
	</node>
	<node id="-279663" lat="58.4356000044" lon="8.54004999752">
		<tag k="name" v="Rundmyr" />
		<tag k="natural" v="wetland" />
		<tag k="ssr:stedsnr" v="697911" />
	</node>
	<node id="-278126" lat="58.5106138932" lon="8.71250556382">
		<tag k="name" v="Bjorstemmen" />
		<tag k="natural" v="wetland" />
		<tag k="ssr:stedsnr" v="30513" />
	</node>
	<node id="-279229" lat="58.565613892" lon="8.77851110459">
		<tag k="name" v="Snørismyr" />
		<tag k="natural" v="wetland" />
		<tag k="ssr:stedsnr" v="575449" />
	</node>
	<node id="-278124" lat="58.5847499967" lon="8.81790000765">
		<tag k="name" v="Veveråsmyr" />
		<tag k="natural" v="wetland" />
		<tag k="ssr:stedsnr" v="30495" />
	</node>
	<node id="-279664" lat="58.4629833324" lon="8.52906944319">
		<tag k="name" v="Steene" />
		<tag k="natural" v="wetland" />
		<tag k="ssr:stedsnr" v="697920" />
	</node>
	<node id="-279658" lat="58.4288111117" lon="8.55275833497">
		<tag k="name" v="Eikelimyra" />
		<tag k="natural" v="wetland" />
		<tag k="ssr:stedsnr" v="697876" />
	</node>
	<node id="-278633" lat="58.54318611" lon="8.776519438">
		<tag k="name" v="Blautemyr" />
		<tag k="natural" v="wetland" />
		<tag k="ssr:stedsnr" v="212409" />
	</node>
	<node id="-279966" lat="58.4337083376" lon="8.64412777383">
		<tag k="name" v="Tranglekjerr" />
		<tag k="natural" v="wetland" />
		<tag k="ssr:stedsnr" v="818535" />
	</node>
	<node id="-277607" lat="58.5233888873" lon="8.85819722867">
		<tag k="name" v="Bjørnhimyr" />
		<tag k="natural" v="wetland" />
		<tag k="ssr:stedsnr" v="333070" />
	</node>
	<node id="-278629" lat="58.5984027804" lon="8.8131777825">
		<tag k="name" v="Skarkemyr" />
		<tag k="natural" v="wetland" />
		<tag k="ssr:stedsnr" v="212380" />
	</node>
	<node id="-280164" lat="58.5104055572" lon="8.80216110667">
		<tag k="name" v="Harekjerr" />
		<tag k="natural" v="wetland" />
		<tag k="ssr:stedsnr" v="879342" />
	</node>
	<node id="-278115" lat="58.5708972194" lon="8.7810527858">
		<tag k="name" v="Moltemyr" />
		<tag k="natural" v="wetland" />
		<tag k="ssr:stedsnr" v="30467" />
	</node>
	<node id="-278114" lat="58.5768861085" lon="8.77884722172">
		<tag k="name" v="Ubergtjønnslåtta" />
		<tag k="natural" v="wetland" />
		<tag k="ssr:stedsnr" v="30462" />
	</node>
	<node id="-278203" lat="58.5332361126" lon="8.85920833637">
		<tag k="name" v="Storhogget" />
		<tag k="place" v="locality" />
		<tag k="ssr:stedsnr" v="90100" />
	</node>
	<node id="-277600" lat="58.5484999994" lon="8.82731667306">
		<tag k="name" v="Stiansrønning" />
		<tag k="place" v="locality" />
		<tag k="ssr:stedsnr" v="333024" />
	</node>
	<node id="-278623" lat="58.496363885" lon="8.80835554872">
		<tag k="name" v="Bjørnemyr" />
		<tag k="natural" v="wetland" />
		<tag k="ssr:stedsnr" v="212344" />
	</node>
	<node id="-277861" lat="58.5832944424" lon="8.77041111255">
		<tag k="name" v="Bjorstemkjerret" />
		<tag k="natural" v="wetland" />
		<tag k="ssr:stedsnr" v="393501" />
	</node>
	<node id="-278618" lat="58.5022444471" lon="8.81814166821">
		<tag k="name" v="Allensmyr" />
		<tag k="natural" v="wetland" />
		<tag k="ssr:stedsnr" v="212322" />
	</node>
	<node id="-278116" lat="58.4961111121" lon="8.77554444039">
		<tag k="name" v="Storemyr" />
		<tag k="place" v="locality" />
		<tag k="ssr:stedsnr" v="30334" />
	</node>
	<node id="-278611" lat="58.446777781" lon="8.85570000469">
		<tag k="name" v="Myra" />
		<tag k="place" v="locality" />
		<tag k="ssr:stedsnr" v="212278" />
	</node>
	<node id="-278906" lat="58.4517055555" lon="8.55668611825">
		<tag k="name" v="Kløftemyr" />
		<tag k="natural" v="wetland" />
		<tag k="ssr:stedsnr" v="454842" />
	</node>
	<node id="-278883" lat="58.5329333318" lon="8.74919721491">
		<tag k="name" v="Blåfjellmyra" />
		<tag k="place" v="locality" />
		<tag k="ssr:stedsnr" v="454749" />
	</node>
	<node id="-278241" lat="58.5435027772" lon="8.74916388645">
		<tag k="name" v="Tjuvkjerr" />
		<tag k="natural" v="wetland" />
		<tag k="ssr:stedsnr" v="90436" />
	</node>
	<node id="-279630" lat="58.5195888908" lon="8.76210834051">
		<tag k="name" v="Engemyr" />
		<tag k="natural" v="wetland" />
		<tag k="ssr:stedsnr" v="697723" />
	</node>
	<node id="-280333" lat="58.5981527769" lon="8.82629167454">
		<tag k="name" v="Spøsmyr" />
		<tag k="natural" v="wetland" />
		<tag k="ssr:stedsnr" v="940144" />
	</node>
	<node id="-278092" lat="58.5323416696" lon="8.90794722006">
		<tag k="name" v="Skauhagen" />
		<tag k="natural" v="wetland" />
		<tag k="ssr:stedsnr" v="30091" />
	</node>
	<node id="-278882" lat="58.5284083295" lon="8.74837776945">
		<tag k="name" v="Kalstadmyra" />
		<tag k="natural" v="wetland" />
		<tag k="ssr:stedsnr" v="454745" />
	</node>
	<node id="-278089" lat="58.5203527736" lon="8.85810556256">
		<tag k="name" v="Monemyr" />
		<tag k="natural" v="wetland" />
		<tag k="ssr:stedsnr" v="30087" />
	</node>
	<node id="-280423" lat="58.5743805535" lon="8.97936110891">
		<tag k="name" v="Øvrebø" />
		<tag k="place" v="locality" />
		<tag k="ssr:stedsnr" v="940774" />
	</node>
	<node id="-279605" lat="58.574652781" lon="8.78999167396">
		<tag k="name" v="Masovnura" />
		<tag k="natural" v="scree" />
		<tag k="ssr:stedsnr" v="697467" />
	</node>
	<node id="-278113" lat="58.5674638852" lon="8.77384444069">
		<tag k="name" v="Roksmyr" />
		<tag k="natural" v="wetland" />
		<tag k="ssr:stedsnr" v="30458" />
	</node>
	<node id="-278595" lat="58.5305138865" lon="8.88246665846">
		<tag k="historic" v="shieling" />
		<tag k="name" v="Sommerfjøsene" />
		<tag k="place" v="locality" />
		<tag k="ssr:stedsnr" v="212176" />
	</node>
	<node id="-278082" lat="58.4446055559" lon="8.64258888737">
		<tag k="name" v="Bjørnemyra" />
		<tag k="natural" v="wetland" />
		<tag k="ssr:stedsnr" v="29965" />
	</node>
	<node id="-278283" lat="58.4307944414" lon="8.67524722764">
		<tag k="name" v="Kringlemyrstykket" />
		<tag k="place" v="locality" />
		<tag k="ssr:stedsnr" v="90737" />
	</node>
	<node id="-279104" lat="58.4385750042" lon="8.54709999239">
		<tag k="name" v="Byttingskjerr" />
		<tag k="natural" v="wetland" />
		<tag k="ssr:stedsnr" v="515927" />
	</node>
	<node id="-278079" lat="58.4886333343" lon="8.50316666082">
		<tag k="name" v="Røyrmyra" />
		<tag k="natural" v="wetland" />
		<tag k="ssr:stedsnr" v="29922" />
	</node>
	<node id="-279102" lat="58.4469750026" lon="8.55982222749">
		<tag k="name" v="Fladen" />
		<tag k="natural" v="wetland" />
		<tag k="ssr:stedsnr" v="515905" />
	</node>
	<node id="-280125" lat="58.5683361125" lon="8.82555832967">
		<tag k="name" v="Allemannshagen" />
		<tag k="place" v="locality" />
		<tag k="ssr:stedsnr" v="879147" />
	</node>
	<node id="-280124" lat="58.5738166624" lon="8.82902222012">
		<tag k="name" v="Landbømyrene" />
		<tag k="natural" v="wetland" />
		<tag k="ssr:stedsnr" v="879144" />
	</node>
	<node id="-279176" lat="58.5246750045" lon="8.92424999594">
		<tag k="name" v="Kortebergmyrene" />
		<tag k="natural" v="wetland" />
		<tag k="ssr:stedsnr" v="575066" />
	</node>
	<node id="-278074" lat="58.4691861131" lon="8.50863333111">
		<tag k="name" v="Surtemyr" />
		<tag k="natural" v="wetland" />
		<tag k="ssr:stedsnr" v="29909" />
	</node>
	<node id="-277855" lat="58.5487499981" lon="8.74829166625">
		<tag k="name" v="Store Heimyr" />
		<tag k="natural" v="wetland" />
		<tag k="ssr:stedsnr" v="393438" />
	</node>
	<node id="-278072" lat="58.4808111097" lon="8.53438334163">
		<tag k="name" v="Tverrmyra" />
		<tag k="natural" v="wetland" />
		<tag k="ssr:stedsnr" v="29868" />
	</node>
	<node id="-279607" lat="58.59032778" lon="8.79792778545">
		<tag k="name" v="Bjørnekjerr" />
		<tag k="natural" v="wetland" />
		<tag k="ssr:stedsnr" v="697493" />
	</node>
	<node id="-280118" lat="58.5237472219" lon="8.86668056367">
		<tag k="name" v="Dåstemyra" />
		<tag k="natural" v="wetland" />
		<tag k="ssr:stedsnr" v="879122" />
	</node>
	<node id="-280117" lat="58.523524996" lon="8.8644999956">
		<tag k="name" v="Lillemyr" />
		<tag k="natural" v="wetland" />
		<tag k="ssr:stedsnr" v="879119" />
	</node>
	<node id="-279604" lat="58.5639583297" lon="8.78575000341">
		<tag k="name" v="Kallestadmyra" />
		<tag k="natural" v="wetland" />
		<tag k="ssr:stedsnr" v="697459" />
	</node>
	<node id="-278581" lat="58.5305833335" lon="8.84479999482">
		<tag k="name" v="Moltemyra" />
		<tag k="natural" v="wetland" />
		<tag k="ssr:stedsnr" v="212075" />
	</node>
	<node id="-278577" lat="58.5083722207" lon="8.92843889721">
		<tag k="name" v="Pershave" />
		<tag k="place" v="locality" />
		<tag k="ssr:stedsnr" v="212043" />
	</node>
	<node id="-278064" lat="58.4451527776" lon="8.58475000583">
		<tag k="name" v="Paddemyr" />
		<tag k="natural" v="wetland" />
		<tag k="ssr:stedsnr" v="29831" />
	</node>
	<node id="-280328" lat="58.5351249999" lon="8.91316667133">
		<tag k="name" v="Sagkjerr" />
		<tag k="natural" v="wetland" />
		<tag k="ssr:stedsnr" v="940084" />
	</node>
	<node id="-278621" lat="58.5140361104" lon="8.80450833787">
		<tag k="name" v="Stemmekjerr" />
		<tag k="natural" v="wetland" />
		<tag k="ssr:stedsnr" v="212337" />
	</node>
	<node id="-280108" lat="58.5020027804" lon="8.91772499328">
		<tag k="name" v="Langekjær" />
		<tag k="natural" v="wetland" />
		<tag k="ssr:stedsnr" v="879051" />
	</node>
	<node id="-278570" lat="58.5559583345" lon="8.85574999981">
		<tag k="name" v="Lille Lyngmyr" />
		<tag k="natural" v="wetland" />
		<tag k="ssr:stedsnr" v="212004" />
	</node>
	<node id="-278056" lat="58.4546277814" lon="8.86917222617">
		<tag k="name" v="Lisletta" />
		<tag k="place" v="locality" />
		<tag k="ssr:stedsnr" v="29748" />
	</node>
	<node id="-277660" lat="58.537077779" lon="8.80446111124">
		<tag k="name" v="Rønningen" />
		<tag k="place" v="locality" />
		<tag k="ssr:stedsnr" v="333424" />
	</node>
	<node id="-280101" lat="58.5520305513" lon="8.85311944339">
		<tag k="name" v="Stemmyra" />
		<tag k="natural" v="wetland" />
		<tag k="ssr:stedsnr" v="879011" />
	</node>
	<node id="-279076" lat="58.4591361076" lon="8.87107500216">
		<tag k="name" v="Kirkestenskjerr" />
		<tag k="place" v="locality" />
		<tag k="ssr:stedsnr" v="515753" />
	</node>
	<node id="-279075" lat="58.4720500002" lon="8.85948888096">
		<tag k="name" v="Lofstadmyra" />
		<tag k="natural" v="wetland" />
		<tag k="ssr:stedsnr" v="515750" />
	</node>
	<node id="-279585" lat="58.5494722189" lon="8.76606389735">
		<tag k="name" v="Lille Fjærbumyr" />
		<tag k="natural" v="wetland" />
		<tag k="ssr:stedsnr" v="697341" />
	</node>
	<node id="-279584" lat="58.4705333353" lon="8.84849999159">
		<tag k="name" v="Marteskjerr" />
		<tag k="place" v="locality" />
		<tag k="ssr:stedsnr" v="697328" />
	</node>
	<node id="-278103" lat="58.5733611128" lon="8.84190278187">
		<tag k="name" v="Smalsund" />
		<tag k="natural" v="wetland" />
		<tag k="ssr:stedsnr" v="30150" />
	</node>
	<node id="-278046" lat="58.4431361117" lon="8.79758889119">
		<tag k="name" v="Nymyr" />
		<tag k="place" v="locality" />
		<tag k="ssr:stedsnr" v="29661" />
	</node>
	<node id="-278874" lat="58.5022638916" lon="8.72169443921">
		<tag k="name" v="Langemyr" />
		<tag k="natural" v="wetland" />
		<tag k="ssr:stedsnr" v="454677" />
	</node>
	<node id="-279927" lat="58.5677611126" lon="8.8476944379">
		<tag k="name" v="Einerkjerr" />
		<tag k="natural" v="wetland" />
		<tag k="ssr:stedsnr" v="818111" />
	</node>
	<node id="-279063" lat="58.4400361107" lon="8.7964666652">
		<tag k="name" v="Myra" />
		<tag k="place" v="locality" />
		<tag k="ssr:stedsnr" v="515652" />
	</node>
	<node id="-278583" lat="58.5368055559" lon="8.92766665982">
		<tag k="name" v="Ragnhildshage" />
		<tag k="place" v="locality" />
		<tag k="ssr:stedsnr" v="212091" />
	</node>
	<node id="-278037" lat="58.4395666682" lon="8.6106861027">
		<tag k="name" v="Løddesølmyrene" />
		<tag k="place" v="locality" />
		<tag k="ssr:stedsnr" v="29530" />
	</node>
	<node id="-278631" lat="58.5322388854" lon="8.78361388534">
		<tag k="name" v="Mosemyra" />
		<tag k="natural" v="wetland" />
		<tag k="ssr:stedsnr" v="212391" />
	</node>
	<node id="-277519" lat="58.4414027763" lon="8.68018055132">
		<tag k="name" v="Vædingskjerr" />
		<tag k="natural" v="wetland" />
		<tag k="ssr:stedsnr" v="29803" />
	</node>
	<node id="-277517" lat="58.5564192767" lon="8.76572324481">
		<tag k="name" v="Diple" />
		<tag k="natural" v="wetland" />
		<tag k="ssr:stedsnr" v="272994" />
	</node>
	<node id="-279051" lat="58.4560055573" lon="8.72685833855">
		<tag k="name" v="Langekjerr" />
		<tag k="natural" v="wetland" />
		<tag k="ssr:stedsnr" v="515548" />
	</node>
	<node id="-279383" lat="58.5604638932" lon="8.84736944084">
		<tag k="name" v="Ragnhilds hage" />
		<tag k="place" v="locality" />
		<tag k="ssr:stedsnr" v="636162" />
	</node>
	<node id="-279560" lat="58.517252778" lon="8.85815554995">
		<tag k="name" v="Diplemyr" />
		<tag k="natural" v="wetland" />
		<tag k="ssr:stedsnr" v="697144" />
	</node>
	<node id="-278022" lat="58.4364222256" lon="8.76590000132">
		<tag k="name" v="Sandvighaven" />
		<tag k="place" v="locality" />
		<tag k="ssr:stedsnr" v="29219" />
	</node>
	<node id="-277616" lat="58.5290222237" lon="8.85575278151">
		<tag k="name" v="Tjønnmyra" />
		<tag k="natural" v="wetland" />
		<tag k="ssr:stedsnr" v="333134" />
	</node>
	<node id="-278240" lat="58.5444916629" lon="8.8012583291">
		<tag k="name" v="Sturingen" />
		<tag k="place" v="locality" />
		<tag k="ssr:stedsnr" v="90424" />
	</node>
	<node id="-279043" lat="58.5814222194" lon="8.80111666413">
		<tag k="name" v="Lyngmyr" />
		<tag k="natural" v="wetland" />
		<tag k="ssr:stedsnr" v="515478" />
	</node>
</osm>
