<?xml version="1.0" encoding="UTF-8"?>
<osm generator="osmapis" version="0.6">
	<node id="-277494" lat="58.5613249972" lon="8.99391944454">
		<tag k="landuse" v="harbour" />
		<tag k="name" v="Skjeggestøhavna" />
		<tag k="seamark:type" v="harbour" />
		<tag k="ssr:stedsnr" v="272721" />
	</node>
	<node id="-278515" lat="58.4681138898" lon="8.8053333293">
		<tag k="man_made" v="breakwater" />
		<tag k="name" v="Vindholmpynten" />
		<tag k="place" v="locality" />
		<tag k="ssr:stedsnr" v="177037" />
	</node>
	<node id="-278513" lat="58.5255138919" lon="8.76507222265">
		<tag k="bridge" v="yes" />
		<tag k="layer" v="1" />
		<tag k="name" v="Skjævestadlonene" />
		<tag k="ssr:stedsnr" v="167048" />
	</node>
	<node id="-278512" lat="58.4091722195" lon="8.63664444757">
		<tag k="bridge" v="yes" />
		<tag k="layer" v="1" />
		<tag k="name" v="Rykene" />
		<tag k="ssr:stedsnr" v="167039" />
	</node>
	<node id="-278511" lat="58.47140556" lon="8.75748610647">
		<tag k="bridge" v="yes" />
		<tag k="layer" v="1" />
		<tag k="name" v="Langsæ bru" />
		<tag k="ssr:stedsnr" v="167036" />
	</node>
	<node id="-278510" lat="58.5075138885" lon="8.7767777804">
		<tag k="bridge" v="yes" />
		<tag k="layer" v="1" />
		<tag k="name" v="Longum" />
		<tag k="ssr:stedsnr" v="167035" />
	</node>
	<node id="-278509" lat="58.4170611075" lon="8.69546388758">
		<tag k="bridge" v="yes" />
		<tag k="layer" v="1" />
		<tag k="name" v="Tollemoen" />
		<tag k="ssr:stedsnr" v="167002" />
	</node>
	<node id="-279974" lat="58.460175003" lon="8.76818611341">
		<tag k="man_made" v="quay" />
		<tag k="name" v="Langbryggen" />
		<tag k="place" v="locality" />
		<tag k="ssr:stedsnr" v="818585" />
	</node>
	<node id="-278498" lat="58.4255361156" lon="8.66070277546">
		<tag k="name" v="Kjerkeleet" />
		<tag k="place" v="locality" />
		<tag k="ssr:stedsnr" v="151794" />
	</node>
	<node id="-277985" lat="58.4628111137" lon="8.68948332904">
		<tag k="name" v="Bråstad" />
		<tag k="railway" v="halt" />
		<tag k="ssr:stedsnr" v="631" />
		<tag k="train" v="yes" />
	</node>
	<node id="-277962" lat="58.5374735888" lon="8.84890370778">
		<tag k="bridge" v="yes" />
		<tag k="layer" v="1" />
		<tag k="name" v="Sagenebrua" />
		<tag k="ssr:stedsnr" v="991172" />
	</node>
	<node id="-277961" lat="58.4905780299" lon="8.76612306164">
		<tag k="bridge" v="yes" />
		<tag k="layer" v="1" />
		<tag k="name" v="Stølenbrua" />
		<tag k="ssr:stedsnr" v="990924" />
	</node>
	<node id="-277960" lat="58.6102038579" lon="8.89955209356">
		<tag k="bridge" v="yes" />
		<tag k="layer" v="1" />
		<tag k="name" v="Vennevannsbrua" />
		<tag k="ssr:stedsnr" v="990918" />
	</node>
	<node id="-277959" lat="58.514925478" lon="8.82707029968">
		<tag k="bridge" v="yes" />
		<tag k="layer" v="1" />
		<tag k="name" v="Røydalsbrua" />
		<tag k="ssr:stedsnr" v="990917" />
	</node>
	<node id="-277958" lat="58.5191221978" lon="8.83816339671">
		<tag k="layer" v="-1" />
		<tag k="name" v="Hesthagtunnelen" />
		<tag k="ssr:stedsnr" v="990916" />
		<tag k="tunnel" v="yes" />
	</node>
	<node id="-277957" lat="58.4793135863" lon="8.75307539189">
		<tag k="layer" v="-1" />
		<tag k="name" v="Torsbuåstunnelen" />
		<tag k="ssr:stedsnr" v="990915" />
		<tag k="tunnel" v="yes" />
	</node>
	<node id="-277956" lat="58.5293176213" lon="8.84618733103">
		<tag k="layer" v="-1" />
		<tag k="name" v="Træfjelltunnelen" />
		<tag k="ssr:stedsnr" v="990788" />
		<tag k="tunnel" v="yes" />
	</node>
	<node id="-277955" lat="58.5005373724" lon="8.79353663607">
		<tag k="junction" v="yes" />
		<tag k="name" v="Longumkrysset" />
		<tag k="place" v="locality" />
		<tag k="ssr:stedsnr" v="990787" />
	</node>
	<node id="-277954" lat="58.5436845967" lon="8.86032891635">
		<tag k="bridge" v="yes" />
		<tag k="layer" v="1" />
		<tag k="name" v="Mørkoppdalsbrua" />
		<tag k="ssr:stedsnr" v="990786" />
	</node>
	<node id="-277953" lat="58.4932803374" lon="8.80412046533">
		<tag k="bridge" v="yes" />
		<tag k="layer" v="1" />
		<tag k="name" v="Elgtråkkbrua" />
		<tag k="ssr:stedsnr" v="990785" />
	</node>
	<node id="-277436" lat="58.4364638915" lon="8.73792222807">
		<tag k="man_made" v="quay" />
		<tag k="name" v="Hisebrygga" />
		<tag k="place" v="locality" />
		<tag k="ssr:stedsnr" v="272244" />
	</node>
	<node id="-279994" lat="58.4416416626" lon="8.72426944671">
		<tag k="man_made" v="quay" />
		<tag k="name" v="Malmbryggen" />
		<tag k="place" v="locality" />
		<tag k="ssr:stedsnr" v="818771" />
	</node>
	<node id="-277430" lat="58.4256777813" lon="8.7270833295">
		<tag k="alt_name" v="Vippa" />
		<tag k="bridge" v="yes" />
		<tag k="layer" v="1" />
		<tag k="name" v="Vippa bru" />
		<tag k="ssr:stedsnr" v="272220" />
	</node>
	<node id="-277941" lat="58.4915722267" lon="8.84241943962">
		<tag k="bridge" v="yes" />
		<tag k="layer" v="1" />
		<tag k="name" v="Saltrød" />
		<tag k="ssr:stedsnr" v="895059" />
	</node>
	<node id="-277940" lat="58.4184083333" lon="8.69736666151">
		<tag k="bridge" v="yes" />
		<tag k="layer" v="1" />
		<tag k="name" v="Skyttervollen" />
		<tag k="ssr:stedsnr" v="895058" />
	</node>
	<node id="-277939" lat="58.4424583372" lon="8.58385277425">
		<tag k="bridge" v="yes" />
		<tag k="layer" v="1" />
		<tag k="name" v="Rulle" />
		<tag k="ssr:stedsnr" v="895051" />
	</node>
	<node id="-277938" lat="58.4501583368" lon="8.70548056387">
		<tag k="bridge" v="yes" />
		<tag k="layer" v="1" />
		<tag k="name" v="Verpet" />
		<tag k="ssr:stedsnr" v="895001" />
	</node>
	<node id="-277937" lat="58.537730552" lon="8.80247222529">
		<tag k="bridge" v="yes" />
		<tag k="layer" v="1" />
		<tag k="name" v="Skjulestad" />
		<tag k="ssr:stedsnr" v="410048" />
	</node>
	<node id="-277936" lat="58.4635277821" lon="8.72810554825">
		<tag k="bridge" v="yes" />
		<tag k="layer" v="1" />
		<tag k="name" v="Solberg midtre" />
		<tag k="ssr:stedsnr" v="410047" />
	</node>
	<node id="-277935" lat="58.538752778" lon="8.84736110379">
		<tag k="bridge" v="yes" />
		<tag k="layer" v="1" />
		<tag k="name" v="Smalsund" />
		<tag k="ssr:stedsnr" v="410046" />
	</node>
	<node id="-277934" lat="58.4256777809" lon="8.69925554937">
		<tag k="bridge" v="yes" />
		<tag k="layer" v="1" />
		<tag k="name" v="Rannekleiv" />
		<tag k="ssr:stedsnr" v="410041" />
	</node>
	<node id="-277933" lat="58.5256194481" lon="8.87917778614">
		<tag k="bridge" v="yes" />
		<tag k="layer" v="1" />
		<tag k="name" v="Råna" />
		<tag k="ssr:stedsnr" v="410038" />
	</node>
	<node id="-277932" lat="58.4422000026" lon="8.6934916635">
		<tag k="bridge" v="yes" />
		<tag k="layer" v="1" />
		<tag k="name" v="Lilleelv" />
		<tag k="ssr:stedsnr" v="410034" />
	</node>
	<node id="-277931" lat="58.4692555572" lon="8.71673333508">
		<tag k="bridge" v="yes" />
		<tag k="layer" v="1" />
		<tag k="name" v="Daletjenn" />
		<tag k="ssr:stedsnr" v="410031" />
	</node>
	<node id="-277414" lat="58.5746444454" lon="8.84565000736">
		<tag k="bridge" v="yes" />
		<tag k="layer" v="1" />
		<tag k="name" v="Svartebrua" />
		<tag k="ssr:stedsnr" v="272132" />
	</node>
	<node id="-280049" lat="58.4481055555" lon="8.83919721448">
		<tag k="bridge" v="yes" />
		<tag k="layer" v="1" />
		<tag k="name" v="Sandum bru" />
		<tag k="ssr:stedsnr" v="819820" />
	</node>
	<node id="-279454" lat="58.5649583351" lon="8.975719436">
		<tag k="leisure" v="marina" />
		<tag k="name" v="Verven" />
		<tag k="ssr:stedsnr" v="636780" />
	</node>
	<node id="-277913" lat="58.4197194481" lon="8.55845834055">
		<tag k="fixme" v="verify maritime location" />
		<tag k="mooring" v="yes" />
		<tag k="name" v="Storheft" />
		<tag k="place" v="locality" />
		<tag k="ssr:stedsnr" v="393866" />
	</node>
	<node id="-278145" lat="58.466027774" lon="8.7681527715">
		<tag k="bridge" v="yes" />
		<tag k="layer" v="1" />
		<tag k="name" v="Barbudalen bru" />
		<tag k="ssr:stedsnr" v="46033" />
	</node>
	<node id="-280467" lat="58.443855555" lon="8.68891666695">
		<tag k="bridge" v="yes" />
		<tag k="layer" v="1" />
		<tag k="name" v="Stampefoss" />
		<tag k="ssr:stedsnr" v="956062" />
	</node>
	<node id="-280466" lat="58.4136416652" lon="8.68728889617">
		<tag k="bridge" v="yes" />
		<tag k="layer" v="1" />
		<tag k="name" v="Nedenes" />
		<tag k="ssr:stedsnr" v="956060" />
	</node>
	<node id="-280465" lat="58.5110805523" lon="8.77122222534">
		<tag k="bridge" v="yes" />
		<tag k="layer" v="1" />
		<tag k="name" v="Lona" />
		<tag k="ssr:stedsnr" v="956049" />
	</node>
	<node id="-280464" lat="58.4625861094" lon="8.77405833221">
		<tag k="bridge" v="yes" />
		<tag k="layer" v="1" />
		<tag k="name" v="Barbu bru" />
		<tag k="ssr:stedsnr" v="956048" />
	</node>
	<node id="-280463" lat="58.5514111104" lon="8.8076972193">
		<tag k="bridge" v="yes" />
		<tag k="layer" v="1" />
		<tag k="name" v="Brekka" />
		<tag k="ssr:stedsnr" v="956046" />
	</node>
	<node id="-280462" lat="58.4056527759" lon="8.67877222085">
		<tag k="bridge" v="yes" />
		<tag k="layer" v="1" />
		<tag k="name" v="Tingstveit" />
		<tag k="ssr:stedsnr" v="956007" />
	</node>
	<node id="-280461" lat="58.466050003" lon="8.75183889475">
		<tag k="bridge" v="yes" />
		<tag k="layer" v="1" />
		<tag k="name" v="Sykehuset" />
		<tag k="ssr:stedsnr" v="956002" />
	</node>
	<node id="-280460" lat="58.4660277763" lon="8.78757499858">
		<tag k="layer" v="-1" />
		<tag k="name" v="Havstad-Kuviga" />
		<tag k="ssr:stedsnr" v="954486" />
		<tag k="tunnel" v="yes" />
	</node>
	<node id="-278921" lat="58.4732861071" lon="8.79815000081">
		<tag k="bridge" v="yes" />
		<tag k="layer" v="1" />
		<tag k="name" v="Songe" />
		<tag k="ssr:stedsnr" v="470045" />
	</node>
	<node id="-278920" lat="58.5373888911" lon="8.91601944115">
		<tag k="bridge" v="yes" />
		<tag k="layer" v="1" />
		<tag k="name" v="Kverndal" />
		<tag k="ssr:stedsnr" v="470040" />
	</node>
	<node id="-278919" lat="58.477969445" lon="8.67648610365">
		<tag k="bridge" v="yes" />
		<tag k="layer" v="1" />
		<tag k="name" v="Li" />
		<tag k="ssr:stedsnr" v="470038" />
	</node>
	<node id="-278400" lat="58.4424111076" lon="8.59828333898">
		<tag k="man_made" v="cairn" />
		<tag k="name" v="Varden" />
		<tag k="place" v="locality" />
		<tag k="ssr:stedsnr" v="150813" />
	</node>
	<node id="-279935" lat="58.4250194401" lon="8.74028888145">
		<tag k="junction" v="yes" />
		<tag k="name" v="Korsen" />
		<tag k="place" v="locality" />
		<tag k="ssr:stedsnr" v="818196" />
	</node>
	<node id="-280435" lat="58.4141055536" lon="8.65284721522">
		<tag k="highway" v="path" />
		<tag k="name" v="Kirkeveien" />
		<tag k="ssr:stedsnr" v="940886" />
	</node>
	<node id="-279443" lat="58.4790638856" lon="8.7429583344">
		<tag k="junction" v="yes" />
		<tag k="name" v="Eiga" />
		<tag k="place" v="locality" />
		<tag k="ssr:stedsnr" v="636707" />
	</node>
	<node id="-277868" lat="58.4611777792" lon="8.76315556329">
		<tag k="highway" v="path" />
		<tag k="name" v="1880" />
		<tag k="ssr:stedsnr" v="393545" />
	</node>
	<node id="-278891" lat="58.4462833373" lon="8.62198055624">
		<tag k="ford" v="yes" />
		<tag k="name" v="Sandva" />
		<tag k="place" v="locality" />
		<tag k="ssr:stedsnr" v="454786" />
	</node>
	<node id="-277856" lat="58.5059805535" lon="8.86179444831">
		<tag k="alt_name" v="Neskil" />
		<tag k="bridge" v="yes" />
		<tag k="layer" v="1" />
		<tag k="name" v="Neskil bru" />
		<tag k="ssr:stedsnr" v="393446" />
	</node>
	<node id="-280411" lat="58.4934361146" lon="8.72380833726">
		<tag k="junction" v="yes" />
		<tag k="name" v="Bjørka" />
		<tag k="place" v="locality" />
		<tag k="ssr:stedsnr" v="940683" />
	</node>
	<node id="-277815" lat="58.5719777749" lon="8.8307861136">
		<tag k="name" v="Petters le" />
		<tag k="place" v="locality" />
		<tag k="ssr:stedsnr" v="393169" />
	</node>
	<node id="-279350" lat="58.4861666663" lon="8.8383527826">
		<tag k="fixme" v="verify maritime location" />
		<tag k="mooring" v="yes" />
		<tag k="name" v="Labakken" />
		<tag k="place" v="locality" />
		<tag k="ssr:stedsnr" v="633326" />
	</node>
	<node id="-279861" lat="58.4617194415" lon="8.72449444855">
		<tag k="bridge" v="yes" />
		<tag k="layer" v="1" />
		<tag k="name" v="Sandbekktoppen" />
		<tag k="ssr:stedsnr" v="774057" />
	</node>
	<node id="-279860" lat="58.5005000044" lon="8.83909721874">
		<tag k="bridge" v="yes" />
		<tag k="layer" v="1" />
		<tag k="name" v="Mørfjær" />
		<tag k="ssr:stedsnr" v="774034" />
	</node>
	<node id="-279859" lat="58.5504749993" lon="8.973744449">
		<tag k="bridge" v="yes" />
		<tag k="layer" v="1" />
		<tag k="name" v="Strømsund" />
		<tag k="ssr:stedsnr" v="774004" />
	</node>
	<node id="-279858" lat="58.4657694489" lon="8.76692777291">
		<tag k="layer" v="-1" />
		<tag k="name" v="Blødekjær 3" />
		<tag k="ssr:stedsnr" v="772146" />
		<tag k="tunnel" v="yes" />
	</node>
	<node id="-278320" lat="58.4284166695" lon="8.70690554886">
		<tag k="bridge" v="yes" />
		<tag k="layer" v="1" />
		<tag k="name" v="Hammeren" />
		<tag k="ssr:stedsnr" v="107031" />
	</node>
	<node id="-278319" lat="58.4546416629" lon="8.70875000321">
		<tag k="bridge" v="yes" />
		<tag k="layer" v="1" />
		<tag k="name" v="Seldalen" />
		<tag k="ssr:stedsnr" v="106074" />
	</node>
	<node id="-278318" lat="58.461466671" lon="8.72191111318">
		<tag k="bridge" v="yes" />
		<tag k="layer" v="1" />
		<tag k="name" v="Sandbekkdalen" />
		<tag k="ssr:stedsnr" v="106073" />
	</node>
	<node id="-278317" lat="58.4658861118" lon="8.72055277192">
		<tag k="bridge" v="yes" />
		<tag k="layer" v="1" />
		<tag k="name" v="Stoholla" />
		<tag k="ssr:stedsnr" v="106068" />
	</node>
	<node id="-278316" lat="58.4717805559" lon="8.75573610683">
		<tag k="bridge" v="yes" />
		<tag k="layer" v="1" />
		<tag k="name" v="Odden" />
		<tag k="ssr:stedsnr" v="106060" />
	</node>
	<node id="-278315" lat="58.4098777794" lon="8.65589166328">
		<tag k="bridge" v="yes" />
		<tag k="layer" v="1" />
		<tag k="name" v="Refsnes" />
		<tag k="ssr:stedsnr" v="106055" />
	</node>
	<node id="-278314" lat="58.4721777753" lon="8.82213888588">
		<tag k="bridge" v="yes" />
		<tag k="layer" v="1" />
		<tag k="name" v="Tromøybrua" />
		<tag k="ssr:stedsnr" v="106004" />
	</node>
	<node id="-278313" lat="58.4664916702" lon="8.8294805542">
		<tag k="bridge" v="yes" />
		<tag k="layer" v="1" />
		<tag k="name" v="Ubekilen" />
		<tag k="ssr:stedsnr" v="106002" />
	</node>
	<node id="-278312" lat="58.4647333375" lon="8.75858610366">
		<tag k="layer" v="-1" />
		<tag k="name" v="Blødekjær 4" />
		<tag k="ssr:stedsnr" v="105146" />
		<tag k="tunnel" v="yes" />
	</node>
	<node id="-280339" lat="58.5306888933" lon="8.90042221695">
		<tag k="junction" v="yes" />
		<tag k="name" v="Løvøykrysset" />
		<tag k="place" v="locality" />
		<tag k="ssr:stedsnr" v="940194" />
	</node>
	<node id="-279310" lat="58.4848083372" lon="8.75879722603">
		<tag k="bridge" v="yes" />
		<tag k="layer" v="1" />
		<tag k="name" v="Frednes" />
		<tag k="ssr:stedsnr" v="592033" />
	</node>
	<node id="-279309" lat="58.4514388921" lon="8.76799445012">
		<tag k="bridge" v="yes" />
		<tag k="layer" v="1" />
		<tag k="name" v="Tolleholtet" />
		<tag k="ssr:stedsnr" v="591009" />
	</node>
	<node id="-279308" lat="58.4654388863" lon="8.76251943866">
		<tag k="layer" v="-1" />
		<tag k="name" v="Blødekjær 1" />
		<tag k="ssr:stedsnr" v="590149" />
		<tag k="tunnel" v="yes" />
	</node>
	<node id="-280325" lat="58.5529555554" lon="8.87118056263">
		<tag k="name" v="Vargarden" />
		<tag k="place" v="locality" />
		<tag k="ssr:stedsnr" v="940066" />
	</node>
	<node id="-279679" lat="58.4425666671" lon="8.69380554846">
		<tag k="bridge" v="yes" />
		<tag k="layer" v="1" />
		<tag k="name" v="Omdal" />
		<tag k="ssr:stedsnr" v="713040" />
	</node>
	<node id="-279680" lat="58.4463305601" lon="8.74176111652">
		<tag k="bridge" v="yes" />
		<tag k="layer" v="1" />
		<tag k="name" v="Biebekken" />
		<tag k="ssr:stedsnr" v="714040" />
	</node>
	<node id="-277756" lat="58.4567222222" lon="8.71091944606">
		<tag k="bridge" v="yes" />
		<tag k="layer" v="1" />
		<tag k="name" v="Skrubbedalen" />
		<tag k="ssr:stedsnr" v="349071" />
	</node>
	<node id="-277755" lat="58.4648277738" lon="8.73131110928">
		<tag k="bridge" v="yes" />
		<tag k="layer" v="1" />
		<tag k="name" v="Solberg østre" />
		<tag k="ssr:stedsnr" v="349070" />
	</node>
	<node id="-277754" lat="58.4481222212" lon="8.70325277434">
		<tag k="bridge" v="yes" />
		<tag k="layer" v="1" />
		<tag k="name" v="Nygårdshaven" />
		<tag k="ssr:stedsnr" v="349063" />
	</node>
	<node id="-277753" lat="58.4368277822" lon="8.70031389596">
		<tag k="bridge" v="yes" />
		<tag k="layer" v="1" />
		<tag k="name" v="Naute" />
		<tag k="ssr:stedsnr" v="349064" />
	</node>
	<node id="-277752" lat="58.4760666651" lon="8.74689166393">
		<tag k="bridge" v="yes" />
		<tag k="layer" v="1" />
		<tag k="name" v="Katthølen" />
		<tag k="ssr:stedsnr" v="349055" />
	</node>
	<node id="-277751" lat="58.553599998" lon="8.96665832594">
		<tag k="bridge" v="yes" />
		<tag k="layer" v="1" />
		<tag k="name" v="Flosta" />
		<tag k="ssr:stedsnr" v="349045" />
	</node>
	<node id="-277750" lat="58.4661833318" lon="8.78837222497">
		<tag k="bridge" v="yes" />
		<tag k="layer" v="1" />
		<tag k="name" v="Havstad" />
		<tag k="ssr:stedsnr" v="349043" />
	</node>
	<node id="-279678" lat="58.4357277783" lon="8.74151944229">
		<tag k="bridge" v="yes" />
		<tag k="layer" v="1" />
		<tag k="name" v="His" />
		<tag k="ssr:stedsnr" v="713038" />
	</node>
	<node id="-277738" lat="58.4470777791" lon="8.52893610441">
		<tag k="fixme" v="verify maritime location" />
		<tag k="mooring" v="yes" />
		<tag k="name" v="Bjellandstøa" />
		<tag k="place" v="locality" />
		<tag k="ssr:stedsnr" v="333899" />
	</node>
	<node id="-278238" lat="58.5516472215" lon="8.80515278192">
		<tag k="highway" v="path" />
		<tag k="name" v="Tempeltur" />
		<tag k="ssr:stedsnr" v="90414" />
	</node>
	<node id="-279498" lat="58.4228138856" lon="8.71132500583">
		<tag k="bridge" v="yes" />
		<tag k="layer" v="1" />
		<tag k="name" v="Natvig" />
		<tag k="ssr:stedsnr" v="652037" />
	</node>
	<node id="-279224" lat="58.5524194478" lon="8.78463610852">
		<tag k="ford" v="yes" />
		<tag k="name" v="Vaet" />
		<tag k="place" v="locality" />
		<tag k="ssr:stedsnr" v="575396" />
	</node>
	<node id="-278711" lat="58.4835805559" lon="8.75600555273">
		<tag k="bridge" v="yes" />
		<tag k="layer" v="1" />
		<tag k="name" v="Sprøkilen" />
		<tag k="ssr:stedsnr" v="228056" />
	</node>
	<node id="-278710" lat="58.4708805573" lon="8.75929721669">
		<tag k="bridge" v="yes" />
		<tag k="layer" v="1" />
		<tag k="name" v="Kjørestranda" />
		<tag k="ssr:stedsnr" v="228050" />
	</node>
	<node id="-279497" lat="58.4133083305" lon="8.70775555806">
		<tag k="bridge" v="yes" />
		<tag k="layer" v="1" />
		<tag k="name" v="Nedenes" />
		<tag k="ssr:stedsnr" v="652034" />
	</node>
	<node id="-278708" lat="58.4166750036" lon="8.70040833262">
		<tag k="bridge" v="yes" />
		<tag k="layer" v="1" />
		<tag k="name" v="Ellengård" />
		<tag k="ssr:stedsnr" v="228041" />
	</node>
	<node id="-278707" lat="58.4747166631" lon="8.74396945119">
		<tag k="bridge" v="yes" />
		<tag k="layer" v="1" />
		<tag k="name" v="Harebakken" />
		<tag k="ssr:stedsnr" v="228038" />
	</node>
	<node id="-278706" lat="58.4271277822" lon="8.72978054941">
		<tag k="bridge" v="yes" />
		<tag k="layer" v="1" />
		<tag k="name" v="Willumstad" />
		<tag k="ssr:stedsnr" v="228006" />
	</node>
	<node id="-278705" lat="58.4646638887" lon="8.75921944166">
		<tag k="layer" v="-1" />
		<tag k="name" v="Blødekjær 2" />
		<tag k="ssr:stedsnr" v="226150" />
		<tag k="tunnel" v="yes" />
	</node>
	<node id="-279496" lat="58.4244166675" lon="8.69996389474">
		<tag k="bridge" v="yes" />
		<tag k="layer" v="1" />
		<tag k="name" v="Nidelva" />
		<tag k="ssr:stedsnr" v="652033" />
	</node>
	<node id="-278981" lat="58.5502388904" lon="8.86404444296">
		<tag k="fixme" v="verify maritime location" />
		<tag k="mooring" v="yes" />
		<tag k="name" v="Granstøa" />
		<tag k="place" v="locality" />
		<tag k="ssr:stedsnr" v="515012" />
	</node>
	<node id="-280212" lat="58.4288361084" lon="8.66681667397">
		<tag k="highway" v="path" />
		<tag k="name" v="Skomakerkleiva" />
		<tag k="ssr:stedsnr" v="879750" />
	</node>
	<node id="-278163" lat="58.4651750004" lon="8.65711111353">
		<tag k="name" v="Rossedalen" />
		<tag k="railway" v="halt" />
		<tag k="ssr:stedsnr" v="61624" />
		<tag k="train" v="yes" />
	</node>
	<node id="-279573" lat="58.412727774" lon="8.71281388418">
		<tag k="highway" v="path" />
		<tag k="name" v="Bjørnestien" />
		<tag k="ssr:stedsnr" v="697246" />
	</node>
	<node id="-279184" lat="58.5260666665" lon="8.90320277161">
		<tag k="alt_name" v="Flosta Vestre" />
		<tag k="bridge" v="yes" />
		<tag k="layer" v="1" />
		<tag k="name" v="Løvøybrua" />
		<tag k="ssr:stedsnr" v="575151" />
	</node>
	<node id="-278039" lat="58.4679305567" lon="8.88327777902">
		<tag k="fixme" v="verify maritime location" />
		<tag k="mooring" v="yes" />
		<tag k="name" v="Timmerstø" />
		<tag k="place" v="locality" />
		<tag k="ssr:stedsnr" v="29321" />
	</node>
	<node id="-278146" lat="58.4409805563" lon="8.62158611371">
		<tag k="bridge" v="yes" />
		<tag k="layer" v="1" />
		<tag k="name" v="Løddesøl" />
		<tag k="ssr:stedsnr" v="46038" />
	</node>
	<node id="-280427" lat="58.4447888898" lon="8.7526500063">
		<tag k="junction" v="yes" />
		<tag k="name" v="Sveven" />
		<tag k="place" v="locality" />
		<tag k="ssr:stedsnr" v="940791" />
	</node>
	<node id="-278144" lat="58.4263527759" lon="8.72833889671">
		<tag k="bridge" v="yes" />
		<tag k="layer" v="1" />
		<tag k="name" v="Engholmen lille" />
		<tag k="ssr:stedsnr" v="46028" />
	</node>
	<node id="-278143" lat="58.4585222254" lon="8.71405000113">
		<tag k="bridge" v="yes" />
		<tag k="layer" v="1" />
		<tag k="name" v="Sørsvann" />
		<tag k="ssr:stedsnr" v="45013" />
	</node>
	<node id="-278142" lat="58.5068583356" lon="8.83611944896">
		<tag k="bridge" v="yes" />
		<tag k="layer" v="1" />
		<tag k="name" v="Tjennimellom" />
		<tag k="ssr:stedsnr" v="45010" />
	</node>
	<node id="-279677" lat="58.4053833367" lon="8.6413944429">
		<tag k="bridge" v="yes" />
		<tag k="layer" v="1" />
		<tag k="name" v="Klomra" />
		<tag k="ssr:stedsnr" v="713037" />
	</node>
	<node id="-279676" lat="58.472580556" lon="8.8136777842">
		<tag k="bridge" v="yes" />
		<tag k="layer" v="1" />
		<tag k="name" v="Krøgenes" />
		<tag k="ssr:stedsnr" v="713034" />
	</node>
	<node id="-279675" lat="58.4252555559" lon="8.72541111458">
		<tag k="bridge" v="yes" />
		<tag k="layer" v="1" />
		<tag k="name" v="Mose" />
		<tag k="ssr:stedsnr" v="713029" />
	</node>
	<node id="-279674" lat="58.4456027759" lon="8.74493055627">
		<tag k="bridge" v="yes" />
		<tag k="layer" v="1" />
		<tag k="name" v="Strømmen" />
		<tag k="ssr:stedsnr" v="713006" />
	</node>
	<node id="-279673" lat="58.5062277821" lon="8.93424999694">
		<tag k="bridge" v="yes" />
		<tag k="layer" v="1" />
		<tag k="name" v="Øyna" />
		<tag k="ssr:stedsnr" v="713004" />
	</node>
	<node id="-279672" lat="58.4651027768" lon="8.76338611147">
		<tag k="layer" v="-1" />
		<tag k="name" v="Blødekjær 5" />
		<tag k="ssr:stedsnr" v="711149" />
		<tag k="tunnel" v="yes" />
	</node>
	<node id="-279648" lat="58.4481055555" lon="8.83919721448">
		<tag k="alt_name" v="Sandum" />
		<tag k="bridge" v="yes" />
		<tag k="layer" v="1" />
		<tag k="name" v="Sandum bru" />
		<tag k="ssr:stedsnr" v="697809" />
	</node>
	<node id="-278615" lat="58.4641111148" lon="8.85746388057">
		<tag k="bridge" v="yes" />
		<tag k="layer" v="1" />
		<tag k="name" v="Kloppa" />
		<tag k="ssr:stedsnr" v="212301" />
	</node>
	<node id="-279120" lat="58.462947221" lon="8.72652500157">
		<tag k="bridge" v="yes" />
		<tag k="layer" v="1" />
		<tag k="name" v="Solberg vestre" />
		<tag k="ssr:stedsnr" v="531045" />
	</node>
	<node id="-279119" lat="58.4408944475" lon="8.69261110658">
		<tag k="bridge" v="yes" />
		<tag k="layer" v="1" />
		<tag k="name" v="Lunderød" />
		<tag k="ssr:stedsnr" v="531031" />
	</node>
	<node id="-279118" lat="58.4362555565" lon="8.59700834167">
		<tag k="bridge" v="yes" />
		<tag k="layer" v="1" />
		<tag k="name" v="Mjønnevollen" />
		<tag k="ssr:stedsnr" v="531028" />
	</node>
	<node id="-279117" lat="58.4269277781" lon="8.72921667246">
		<tag k="bridge" v="yes" />
		<tag k="layer" v="1" />
		<tag k="name" v="Engholmen" />
		<tag k="ssr:stedsnr" v="531024" />
	</node>
	<node id="-277661" lat="58.5318138883" lon="8.8053833331">
		<tag k="leisure" v="marina" />
		<tag k="name" v="Båtstøyten" />
		<tag k="ssr:stedsnr" v="333435" />
	</node>
	<node id="-278083" lat="58.4626444412" lon="8.51700556391">
		<tag k="highway" v="path" />
		<tag k="name" v="Lauvstien" />
		<tag k="ssr:stedsnr" v="29968" />
	</node>
	<node id="-278080" lat="58.4420638889" lon="8.62782222393">
		<tag k="junction" v="yes" />
		<tag k="name" v="Skeiet" />
		<tag k="place" v="locality" />
		<tag k="ssr:stedsnr" v="29927" />
	</node>
	<node id="-278709" lat="58.4737583338" lon="8.74905555858">
		<tag k="bridge" v="yes" />
		<tag k="layer" v="1" />
		<tag k="name" v="Rånagården" />
		<tag k="ssr:stedsnr" v="228051" />
	</node>
	<node id="-279085" lat="58.5717638926" lon="8.97422500782">
		<tag k="fixme" v="verify maritime location" />
		<tag k="mooring" v="yes" />
		<tag k="name" v="Høverstø" />
		<tag k="place" v="locality" />
		<tag k="ssr:stedsnr" v="515787" />
	</node>
	<node id="-278060" lat="58.4164833312" lon="8.57071389584">
		<tag k="fixme" v="verify maritime location" />
		<tag k="mooring" v="yes" />
		<tag k="name" v="Stoe" />
		<tag k="place" v="locality" />
		<tag k="ssr:stedsnr" v="29819" />
	</node>
	<node id="-279592" lat="58.5850805588" lon="8.76921943752">
		<tag k="fixme" v="verify maritime location" />
		<tag k="mooring" v="yes" />
		<tag k="name" v="Brekkestø" />
		<tag k="place" v="locality" />
		<tag k="ssr:stedsnr" v="697398" />
	</node>
	<node id="-277536" lat="58.4713361078" lon="8.82263055029">
		<tag k="bridge" v="yes" />
		<tag k="layer" v="1" />
		<tag k="name" v="Tromøy bru" />
		<tag k="ssr:stedsnr" v="301936" />
	</node>
	<node id="-279983" lat="58.4755305579" lon="8.74758611679">
		<tag k="name" v="Rånakanalen" />
		<tag k="ssr:stedsnr" v="818700" />
		<tag k="waterway" v="canal" />
	</node>
	<node id="-277527" lat="58.4779416634" lon="8.68373055016">
		<tag k="bridge" v="yes" />
		<tag k="layer" v="1" />
		<tag k="name" v="Nautenes" />
		<tag k="ssr:stedsnr" v="288069" />
	</node>
	<node id="-277526" lat="58.515608333" lon="8.76898888448">
		<tag k="bridge" v="yes" />
		<tag k="layer" v="1" />
		<tag k="name" v="Rønningsbekken" />
		<tag k="ssr:stedsnr" v="288058" />
	</node>
	<node id="-277525" lat="58.401608333" lon="8.67599721654">
		<tag k="bridge" v="yes" />
		<tag k="layer" v="1" />
		<tag k="name" v="Bjønnum" />
		<tag k="ssr:stedsnr" v="289035" />
	</node>
	<node id="-277524" lat="58.4766444482" lon="8.74787222524">
		<tag k="bridge" v="yes" />
		<tag k="layer" v="1" />
		<tag k="name" v="Eidet" />
		<tag k="ssr:stedsnr" v="289034" />
	</node>
	<node id="-277523" lat="58.4441111068" lon="8.60782500296">
		<tag k="bridge" v="yes" />
		<tag k="layer" v="1" />
		<tag k="name" v="Furre" />
		<tag k="ssr:stedsnr" v="289030" />
	</node>
	<node id="-277515" lat="58.4620888907" lon="8.52177222749">
		<tag k="highway" v="path" />
		<tag k="name" v="Hellelandskleiva" />
		<tag k="ssr:stedsnr" v="272966" />
	</node>
	<node id="-278025" lat="58.4286944467" lon="8.69536111163">
		<tag k="fixme" v="verify maritime location" />
		<tag k="mooring" v="yes" />
		<tag k="name" v="Øvre Sandstø" />
		<tag k="place" v="locality" />
		<tag k="ssr:stedsnr" v="29246" />
	</node>
	<node id="-280072" lat="58.4682611139" lon="8.62377499451">
		<tag k="name" v="Rise" />
		<tag k="railway" v="station" />
		<tag k="ssr:stedsnr" v="850649" />
		<tag k="train" v="yes" />
	</node>
</osm>
