<?xml version="1.0" encoding="UTF-8"?>
<osm generator="osmapis" version="0.6">
	<node id="-280574" lat="58.4217638918" lon="8.74420277807">
		<tag k="name" v="Saulekilen" />
		<tag k="natural" v="bay" />
		<tag k="ssr:stedsnr" v="879757" />
	</node>
	<node id="-278186" lat="58.5554333345" lon="8.97000554862">
		<tag k="name" v="Paddelandet" />
		<tag k="natural" v="beach" />
		<tag k="place" v="locality" />
		<tag k="ssr:stedsnr" v="393241" />
	</node>
	<node id="-278520" lat="58.4301000013" lon="8.79833332722">
		<tag k="name" v="Lyngholmen" />
		<tag k="place" v="islet" />
		<tag k="ssr:stedsnr" v="61582" />
	</node>
	<node id="-278519" lat="58.4287722218" lon="8.79304999887">
		<tag k="alt_name" v="Skuteholmen" />
		<tag k="name" v="Skudeholmen" />
		<tag k="place" v="islet" />
		<tag k="ssr:stedsnr" v="61581" />
	</node>
	<node id="-278515" lat="58.400516671" lon="8.73894444505">
		<tag k="name" v="Jerkholmen" />
		<tag k="place" v="islet" />
		<tag k="ssr:stedsnr" v="61525" />
	</node>
	<node id="-280555" lat="58.4484944448" lon="8.77515278106">
		<tag k="name" v="Langodden" />
		<tag k="natural" v="cape" />
		<tag k="ssr:stedsnr" v="879614" />
	</node>
	<node id="-280549" lat="58.4266555591" lon="8.79817777454">
		<tag k="name" v="Nabben" />
		<tag k="natural" v="cape" />
		<tag k="ssr:stedsnr" v="879517" />
	</node>
	<node id="-280548" lat="58.4229222227" lon="8.80787778278">
		<tag k="name" v="Støttavlbukta" />
		<tag k="natural" v="bay" />
		<tag k="ssr:stedsnr" v="879513" />
	</node>
	<node id="-278495" lat="58.5794083359" lon="8.98728332771">
		<tag k="name" v="Trivikspynten" />
		<tag k="natural" v="cape" />
		<tag k="ssr:stedsnr" v="30761" />
	</node>
	<node id="-278491" lat="58.4460722244" lon="8.77562778329">
		<tag k="name" v="Helsviga" />
		<tag k="natural" v="bay" />
		<tag k="ssr:stedsnr" v="30621" />
	</node>
	<node id="-278488" lat="58.4599694445" lon="8.79263610987">
		<tag k="name" v="Ternenabben" />
		<tag k="natural" v="cape" />
		<tag k="ssr:stedsnr" v="30581" />
	</node>
	<node id="-278179" lat="58.5583277821" lon="8.99708333564">
		<tag k="name" v="Teineholmen" />
		<tag k="place" v="islet" />
		<tag k="ssr:stedsnr" v="393200" />
	</node>
	<node id="-280528" lat="58.4775638855" lon="8.92761111648">
		<tag k="fixme" v="consider seamark:type=rock or natural=shoal" />
		<tag k="name" v="Klinkeren" />
		<tag k="place" v="islet" />
		<tag k="ssr:stedsnr" v="879378" />
	</node>
	<node id="-280520" lat="58.4668944402" lon="8.82943888723">
		<tag k="name" v="Speiderholmen" />
		<tag k="place" v="islet" />
		<tag k="ssr:stedsnr" v="879311" />
	</node>
	<node id="-278470" lat="58.4752083326" lon="8.91803054908">
		<tag k="name" v="Briggeholla" />
		<tag k="natural" v="bay" />
		<tag k="ssr:stedsnr" v="30368" />
	</node>
	<node id="-278469" lat="58.4784999958" lon="8.91251388776">
		<tag k="name" v="Buholmen" />
		<tag k="natural" v="cape" />
		<tag k="ssr:stedsnr" v="30365" />
	</node>
	<node id="-280516" lat="58.4498138914" lon="8.84151666422">
		<tag k="name" v="Sandumkilen" />
		<tag k="natural" v="bay" />
		<tag k="ssr:stedsnr" v="879283" />
	</node>
	<node id="-278466" lat="58.5532944454" lon="8.96746111231">
		<tag k="name" v="Fantoddsund" />
		<tag k="natural" v="strait" />
		<tag k="ssr:stedsnr" v="30229" />
	</node>
	<node id="-280513" lat="58.5436250025" lon="8.9444999997">
		<tag k="fixme" v="consider seamark:type=rock or natural=shoal" />
		<tag k="name" v="Alveskjærene" />
		<tag k="place" v="islet" />
		<tag k="ssr:stedsnr" v="879254" />
	</node>
	<node id="-280512" lat="58.5411083326" lon="8.94268889077">
		<tag k="name" v="Rollsøy" />
		<tag k="place" v="island" />
		<tag k="ssr:stedsnr" v="879251" />
	</node>
	<node id="-280510" lat="58.5397722243" lon="8.93806943763">
		<tag k="name" v="Langesand" />
		<tag k="natural" v="beach" />
		<tag k="place" v="locality" />
		<tag k="ssr:stedsnr" v="879246" />
	</node>
	<node id="-280508" lat="58.5510111082" lon="8.97295833995">
		<tag k="name" v="Holmen" />
		<tag k="place" v="islet" />
		<tag k="ssr:stedsnr" v="879233" />
	</node>
	<node id="-278459" lat="58.5314388914" lon="8.97030556196">
		<tag k="name" v="Stangeneskilen" />
		<tag k="natural" v="bay" />
		<tag k="ssr:stedsnr" v="30195" />
	</node>
	<node id="-278458" lat="58.559052778" lon="8.99676111403">
		<tag k="name" v="Storeholmen" />
		<tag k="place" v="islet" />
		<tag k="ssr:stedsnr" v="30191" />
	</node>
	<node id="-280505" lat="58.5525388919" lon="8.96856388297">
		<tag k="name" v="Steinodden" />
		<tag k="natural" v="cape" />
		<tag k="ssr:stedsnr" v="879223" />
	</node>
	<node id="-280499" lat="58.5357888869" lon="8.93709443766">
		<tag k="name" v="Fonøya" />
		<tag k="place" v="islet" />
		<tag k="ssr:stedsnr" v="879210" />
	</node>
	<node id="-280496" lat="58.5535277757" lon="9.00431666064">
		<tag k="name" v="Grisholmen" />
		<tag k="place" v="islet" />
		<tag k="ssr:stedsnr" v="879203" />
	</node>
	<node id="-280495" lat="58.5521611076" lon="8.99260277526">
		<tag k="name" v="Kvaknes" />
		<tag k="natural" v="cape" />
		<tag k="ssr:stedsnr" v="879201" />
	</node>
	<node id="-278446" lat="58.5071972227" lon="8.88615277329">
		<tag k="name" v="Breiviksfjorden" />
		<tag k="natural" v="bay" />
		<tag k="ssr:stedsnr" v="30066" />
	</node>
	<node id="-280492" lat="58.4100666686" lon="8.71810278509">
		<tag k="name" v="Lakseholmen" />
		<tag k="place" v="islet" />
		<tag k="ssr:stedsnr" v="879191" />
	</node>
	<node id="-280488" lat="58.5226750015" lon="8.89502222927">
		<tag k="name" v="Store Stråholmen" />
		<tag k="place" v="islet" />
		<tag k="ssr:stedsnr" v="879174" />
	</node>
	<node id="-280487" lat="58.5275083318" lon="8.89734166857">
		<tag k="name" v="Kastet" />
		<tag k="natural" v="bay" />
		<tag k="ssr:stedsnr" v="879165" />
	</node>
	<node id="-280486" lat="58.5182916652" lon="8.92262221433">
		<tag k="name" v="Dalskilen" />
		<tag k="natural" v="bay" />
		<tag k="ssr:stedsnr" v="879154" />
	</node>
	<node id="-280482" lat="58.5476972222" lon="8.98720277699">
		<tag k="name" v="Jonsvika" />
		<tag k="natural" v="bay" />
		<tag k="ssr:stedsnr" v="879137" />
	</node>
	<node id="-280481" lat="58.5004611098" lon="8.93633054992">
		<tag k="name" v="Vragbukta" />
		<tag k="natural" v="bay" />
		<tag k="ssr:stedsnr" v="879136" />
	</node>
	<node id="-278427" lat="58.4202472236" lon="8.7501694517">
		<tag k="name" v="Langviga" />
		<tag k="natural" v="bay" />
		<tag k="ssr:stedsnr" v="29776" />
	</node>
	<node id="-280469" lat="58.4979305577" lon="8.93183054719">
		<tag k="name" v="Langholmen" />
		<tag k="place" v="islet" />
		<tag k="ssr:stedsnr" v="879053" />
	</node>
	<node id="-279874" lat="58.4940111121" lon="8.86466666915">
		<tag k="alt_name" v="Friisøya" />
		<tag k="name" v="Frisøya" />
		<tag k="place" v="islet" />
		<tag k="ssr:stedsnr" v="667906" />
	</node>
	<node id="-280458" lat="58.4145388931" lon="8.80499722778">
		<tag k="name" v="Lauvåsbåen" />
		<tag k="place" v="locality" />
		<tag k="seamark:type" v="rock" />
		<tag k="ssr:stedsnr" v="876779" />
	</node>
	<node id="-280457" lat="58.4530684335" lon="8.77310128974">
		<tag k="name" v="Jomfruholmen" />
		<tag k="place" v="islet" />
		<tag k="ssr:stedsnr" v="876731" />
	</node>
	<node id="-280456" lat="58.4371083328" lon="8.78258889615">
		<tag k="name" v="Sandvigodden" />
		<tag k="natural" v="cape" />
		<tag k="ssr:stedsnr" v="876725" />
	</node>
	<node id="-280455" lat="58.4635527781" lon="8.88012222279">
		<tag k="name" v="Danmarksfjell" />
		<tag k="natural" v="cape" />
		<tag k="ssr:stedsnr" v="876715" />
	</node>
	<node id="-280454" lat="58.5676083358" lon="8.96754444894">
		<tag k="name" v="Fårholmen" />
		<tag k="place" v="islet" />
		<tag k="ssr:stedsnr" v="876313" />
	</node>
	<node id="-280453" lat="58.5221611084" lon="8.94124999768">
		<tag k="name" v="Breivika" />
		<tag k="natural" v="bay" />
		<tag k="ssr:stedsnr" v="876311" />
	</node>
	<node id="-278404" lat="58.4359666652" lon="8.8166805602">
		<tag k="name" v="Badeholmen" />
		<tag k="place" v="islet" />
		<tag k="ssr:stedsnr" v="29626" />
	</node>
	<node id="-278402" lat="58.4627527812" lon="8.78166944449">
		<tag k="name" v="Kuviga" />
		<tag k="natural" v="bay" />
		<tag k="ssr:stedsnr" v="29620" />
	</node>
	<node id="-278507" lat="58.4266444485" lon="8.75277499937">
		<tag k="name" v="Flødevigen" />
		<tag k="natural" v="bay" />
		<tag k="ssr:stedsnr" v="55216" />
	</node>
	<node id="-280444" lat="58.5606527744" lon="9.00275000324">
		<tag k="name" v="Skjeggestøholmen" />
		<tag k="place" v="islet" />
		<tag k="ssr:stedsnr" v="851258" />
	</node>
	<node id="-280443" lat="58.523647221" lon="8.94619166122">
		<tag k="name" v="Flosterøya" />
		<tag k="place" v="island" />
		<tag k="ssr:stedsnr" v="851232" />
	</node>
	<node id="-278391" lat="58.5523444486" lon="8.9959749985">
		<tag k="name" v="Kvaknesholmen" />
		<tag k="place" v="islet" />
		<tag k="ssr:stedsnr" v="29266" />
	</node>
	<node id="-280426" lat="58.4436416623" lon="8.83198055799">
		<tag k="name" v="Hovekilen" />
		<tag k="natural" v="bay" />
		<tag k="ssr:stedsnr" v="850609" />
	</node>
	<node id="-278377" lat="58.5419249976" lon="9.01005000136">
		<tag k="name" v="Langvikbåene" />
		<tag k="place" v="locality" />
		<tag k="seamark:type" v="rock" />
		<tag k="ssr:stedsnr" v="28299" />
	</node>
	<node id="-278373" lat="58.5047583348" lon="8.91262221879">
		<tag k="name" v="Hånestangen" />
		<tag k="natural" v="cape" />
		<tag k="ssr:stedsnr" v="27275" />
	</node>
	<node id="-278372" lat="58.5081944427" lon="8.90580000097">
		<tag k="name" v="Stølene" />
		<tag k="natural" v="shoal" />
		<tag k="place" v="locality" />
		<tag k="ssr:stedsnr" v="27268" />
	</node>
	<node id="-278371" lat="58.4779111105" lon="8.90987500246">
		<tag k="name" v="Tromlingsundet" />
		<tag k="natural" v="strait" />
		<tag k="ssr:stedsnr" v="27333" />
	</node>
	<node id="-278370" lat="58.5317749995" lon="8.97961665986">
		<tag k="name" v="Raudsteinbåen" />
		<tag k="place" v="locality" />
		<tag k="seamark:type" v="rock" />
		<tag k="ssr:stedsnr" v="27330" />
	</node>
	<node id="-278369" lat="58.4975638897" lon="8.87964722593">
		<tag k="name" v="Bukkevika" />
		<tag k="natural" v="bay" />
		<tag k="ssr:stedsnr" v="27331" />
	</node>
	<node id="-280414" lat="58.459102782" lon="8.7810638951">
		<tag k="name" v="Omsodden" />
		<tag k="natural" v="cape" />
		<tag k="ssr:stedsnr" v="846965" />
	</node>
	<node id="-280413" lat="58.4479833299" lon="8.75159722951">
		<tag k="name" v="Skarvedalsbukta" />
		<tag k="natural" v="bay" />
		<tag k="ssr:stedsnr" v="846938" />
	</node>
	<node id="-280411" lat="58.4265722203" lon="8.77210555747">
		<tag k="name" v="Vragvigen" />
		<tag k="natural" v="bay" />
		<tag k="ssr:stedsnr" v="819934" />
	</node>
	<node id="-278354" lat="58.440627777" lon="8.86332499335">
		<tag k="alt_name" v="Spornesskjera" />
		<tag k="fixme" v="consider seamark:type=rock or natural=shoal" />
		<tag k="name" v="Spornesskjæra" />
		<tag k="place" v="islet" />
		<tag k="ssr:stedsnr" v="926" />
	</node>
	<node id="-280401" lat="58.497499998" lon="8.8691833255">
		<tag k="name" v="Bekkevika" />
		<tag k="natural" v="bay" />
		<tag k="ssr:stedsnr" v="819467" />
	</node>
	<node id="-280390" lat="58.5659833317" lon="8.96584999489">
		<tag k="name" v="Langodden" />
		<tag k="natural" v="cape" />
		<tag k="ssr:stedsnr" v="819225" />
	</node>
	<node id="-280389" lat="58.5220972254" lon="8.96354445143">
		<tag k="fixme" v="consider seamark:type=rock or natural=shoal" />
		<tag k="name" v="Støyda" />
		<tag k="place" v="islet" />
		<tag k="ssr:stedsnr" v="819209" />
	</node>
	<node id="-278338" lat="58.4326916677" lon="8.81439722401">
		<tag k="alt_name" v="Gjessøya" />
		<tag k="name" v="Gjesøya" />
		<tag k="place" v="island" />
		<tag k="ssr:stedsnr" v="586" />
	</node>
	<node id="-280385" lat="58.4959388906" lon="8.92462222498">
		<tag k="name" v="Sandvig" />
		<tag k="natural" v="bay" />
		<tag k="ssr:stedsnr" v="819045" />
	</node>
	<node id="-278144" lat="58.4510277777" lon="8.78149167402">
		<tag k="alt_name" v="Skottholmen, Store;Skottholmen" />
		<tag k="name" v="Store Skottholmen" />
		<tag k="place" v="islet" />
		<tag k="ssr:stedsnr" v="390634" />
	</node>
	<node id="-280314" lat="58.4641861067" lon="8.89601111441">
		<tag k="name" v="Blåmannen" />
		<tag k="natural" v="cape" />
		<tag k="ssr:stedsnr" v="818309" />
	</node>
	<node id="-280313" lat="58.469352776" lon="8.90067222669">
		<tag k="fixme" v="consider seamark:type=rock or natural=shoal" />
		<tag k="name" v="Stangholmen" />
		<tag k="place" v="islet" />
		<tag k="ssr:stedsnr" v="818306" />
	</node>
	<node id="-280312" lat="58.4618833306" lon="8.89762221782">
		<tag k="fixme" v="consider seamark:type=rock or natural=shoal" />
		<tag k="name" v="Lille Tallagen" />
		<tag k="place" v="islet" />
		<tag k="ssr:stedsnr" v="818307" />
	</node>
	<node id="-280311" lat="58.4439083318" lon="8.86050834105">
		<tag k="name" v="Spornes" />
		<tag k="natural" v="cape" />
		<tag k="ssr:stedsnr" v="818294" />
	</node>
	<node id="-278258" lat="58.5165083353" lon="8.92311944838">
		<tag k="alt_name" v="Dalsholmen" />
		<tag k="name" v="Bukkholmen/Dalsholmen" />
		<tag k="place" v="islet" />
		<tag k="ssr:stedsnr" v="393813" />
	</node>
	<node id="-280303" lat="58.4235777734" lon="8.7676861087">
		<tag k="name" v="Mortensbukt" />
		<tag k="natural" v="bay" />
		<tag k="ssr:stedsnr" v="818256" />
	</node>
	<node id="-278254" lat="58.5366250042" lon="8.93668055527">
		<tag k="bay" v="fjord" />
		<tag k="name" v="Flosterfjorden" />
		<tag k="natural" v="bay" />
		<tag k="ssr:stedsnr" v="393780" />
	</node>
	<node id="-280299" lat="58.4136944421" lon="8.72348888296">
		<tag k="name" v="Saulekilen" />
		<tag k="natural" v="bay" />
		<tag k="ssr:stedsnr" v="818216" />
	</node>
	<node id="-278249" lat="58.5672777795" lon="8.95821110983">
		<tag k="name" v="Boråskilen" />
		<tag k="natural" v="bay" />
		<tag k="ssr:stedsnr" v="393750" />
	</node>
	<node id="-280296" lat="58.5578250011" lon="8.99704721825">
		<tag k="name" v="Gurisholmen" />
		<tag k="place" v="islet" />
		<tag k="ssr:stedsnr" v="818198" />
	</node>
	<node id="-280294" lat="58.4309527769" lon="8.72075277991">
		<tag k="name" v="Salvehølen" />
		<tag k="place" v="locality" />
		<tag k="ssr:stedsnr" v="818194" />
	</node>
	<node id="-278245" lat="58.5717694431" lon="8.9584777825">
		<tag k="fixme" v="consider seamark:type=rock or natural=shoal" />
		<tag k="name" v="Olavsskjær" />
		<tag k="place" v="islet" />
		<tag k="ssr:stedsnr" v="393729" />
	</node>
	<node id="-280291" lat="58.5319888876" lon="8.92654999257">
		<tag k="name" v="Sanden" />
		<tag k="natural" v="beach" />
		<tag k="place" v="locality" />
		<tag k="ssr:stedsnr" v="818187" />
	</node>
	<node id="-280290" lat="58.5262222235" lon="8.90014167193">
		<tag k="name" v="Løvøypynten" />
		<tag k="natural" v="cape" />
		<tag k="ssr:stedsnr" v="818160" />
	</node>
	<node id="-280289" lat="58.540127778" lon="8.98874999426">
		<tag k="name" v="Makholmen" />
		<tag k="place" v="islet" />
		<tag k="ssr:stedsnr" v="818134" />
	</node>
	<node id="-280282" lat="58.5249805572" lon="8.88989166421">
		<tag k="name" v="Strengereidstranda" />
		<tag k="natural" v="beach" />
		<tag k="place" v="locality" />
		<tag k="ssr:stedsnr" v="818073" />
	</node>
	<node id="-279503" lat="58.5387277774" lon="8.93985833062">
		<tag k="alt_name" v="Vrangsund" />
		<tag k="name" v="Vrangesund" />
		<tag k="natural" v="strait" />
		<tag k="ssr:stedsnr" v="547279" />
	</node>
	<node id="-280276" lat="58.5495055596" lon="9.00132222909">
		<tag k="fixme" v="consider seamark:type=rock or natural=shoal" />
		<tag k="name" v="Teineskjæra" />
		<tag k="place" v="islet" />
		<tag k="ssr:stedsnr" v="817286" />
	</node>
	<node id="-280275" lat="58.4854694443" lon="8.84814999201">
		<tag k="name" v="Paulus holme" />
		<tag k="place" v="islet" />
		<tag k="ssr:stedsnr" v="816326" />
	</node>
	<node id="-278226" lat="58.425772225" lon="8.79269165908">
		<tag k="name" v="Tørnforbi" />
		<tag k="natural" v="cape" />
		<tag k="ssr:stedsnr" v="393543" />
	</node>
	<node id="-280273" lat="58.4073361088" lon="8.78872778585">
		<tag k="name" v="Mellombåene" />
		<tag k="place" v="locality" />
		<tag k="seamark:type" v="rock" />
		<tag k="ssr:stedsnr" v="815743" />
	</node>
	<node id="-278224" lat="58.4233750036" lon="8.79336945278">
		<tag k="name" v="Lilleøya" />
		<tag k="natural" v="cape" />
		<tag k="ssr:stedsnr" v="393526" />
	</node>
	<node id="-280271" lat="58.4584583297" lon="8.79464167382">
		<tag k="name" v="Styrsviga" />
		<tag k="natural" v="bay" />
		<tag k="ssr:stedsnr" v="815728" />
	</node>
	<node id="-280270" lat="58.4349277798" lon="8.79426666388">
		<tag k="alt_name" v="St Brattholmen" />
		<tag k="name" v="Brattholmene, Nordre" />
		<tag k="place" v="islet" />
		<tag k="ssr:stedsnr" v="815700" />
	</node>
	<node id="-280269" lat="58.4264472244" lon="8.82431111618">
		<tag k="name" v="Klitten" />
		<tag k="natural" v="shoal" />
		<tag k="place" v="locality" />
		<tag k="ssr:stedsnr" v="815694" />
	</node>
	<node id="-280268" lat="58.431936111" lon="8.84415000441">
		<tag k="name" v="Grunnbåen" />
		<tag k="place" v="locality" />
		<tag k="seamark:type" v="rock" />
		<tag k="ssr:stedsnr" v="815693" />
	</node>
	<node id="-280267" lat="58.4218500028" lon="8.79928888811">
		<tag k="fixme" v="consider seamark:type=rock or natural=shoal" />
		<tag k="name" v="Svartskjær" />
		<tag k="place" v="islet" />
		<tag k="ssr:stedsnr" v="815690" />
	</node>
	<node id="-280266" lat="58.448199997" lon="8.78176667182">
		<tag k="name" v="Pinneholmene" />
		<tag k="place" v="islet" />
		<tag k="ssr:stedsnr" v="815686" />
	</node>
	<node id="-280259" lat="58.5350000033" lon="8.92045555357">
		<tag k="alt_name" v="Jorundstadkilen" />
		<tag k="name" v="Jorunnstadkilen" />
		<tag k="natural" v="bay" />
		<tag k="ssr:stedsnr" v="790211" />
	</node>
	<node id="-280258" lat="58.5452333349" lon="8.99018054898">
		<tag k="alt_name" v="Teistholmene" />
		<tag k="name" v="Teistholmane" />
		<tag k="place" v="islet" />
		<tag k="ssr:stedsnr" v="790193" />
	</node>
	<node id="-280253" lat="58.4956388866" lon="8.92958888166">
		<tag k="name" v="Grones" />
		<tag k="natural" v="cape" />
		<tag k="ssr:stedsnr" v="789925" />
	</node>
	<node id="-280252" lat="58.490583331" lon="8.85910278239">
		<tag k="alt_name" v="Skipevik;Skibvika" />
		<tag k="name" v="Skibviga" />
		<tag k="natural" v="bay" />
		<tag k="ssr:stedsnr" v="789920" />
	</node>
	<node id="-278201" lat="58.4854138908" lon="8.91790278102">
		<tag k="name" v="Krosseholla" />
		<tag k="natural" v="bay" />
		<tag k="ssr:stedsnr" v="393382" />
	</node>
	<node id="-278200" lat="58.4830777793" lon="8.92277499447">
		<tag k="name" v="Tavlebergtangen" />
		<tag k="natural" v="cape" />
		<tag k="ssr:stedsnr" v="393383" />
	</node>
	<node id="-278192" lat="58.4725666634" lon="8.84019443873">
		<tag k="name" v="Rabelsnes" />
		<tag k="natural" v="cape" />
		<tag k="ssr:stedsnr" v="393313" />
	</node>
	<node id="-278191" lat="58.4937305595" lon="8.86117499809">
		<tag k="name" v="Vestre Hellesund" />
		<tag k="natural" v="strait" />
		<tag k="ssr:stedsnr" v="393288" />
	</node>
	<node id="-280238" lat="58.5757027799" lon="8.97902221459">
		<tag k="name" v="Tverrdalsøya" />
		<tag k="place" v="island" />
		<tag k="ssr:stedsnr" v="789305" />
	</node>
	<node id="-280236" lat="58.5579305527" lon="9.01645833546">
		<tag k="name" v="Buskjera" />
		<tag k="place" v="islet" />
		<tag k="ssr:stedsnr" v="789272" />
	</node>
	<node id="-280234" lat="58.5085638856" lon="8.92117499656">
		<tag k="name" v="Hasteinsundet" />
		<tag k="natural" v="strait" />
		<tag k="ssr:stedsnr" v="789202" />
	</node>
	<node id="-278185" lat="58.4334444483" lon="8.72188055293">
		<tag k="name" v="Engholmen" />
		<tag k="place" v="islet" />
		<tag k="ssr:stedsnr" v="393237" />
	</node>
	<node id="-280232" lat="58.4347194437" lon="8.8470944422">
		<tag k="alt_name" v="Marikoffskjæra" />
		<tag k="name" v="Markopskjera" />
		<tag k="place" v="islet" />
		<tag k="ssr:stedsnr" v="788920" />
	</node>
	<node id="-278182" lat="58.5340888874" lon="8.93744167231">
		<tag k="name" v="Gulløya" />
		<tag k="natural" v="cape" />
		<tag k="ssr:stedsnr" v="393217" />
	</node>
	<node id="-278181" lat="58.4053833323" lon="8.71424999428">
		<tag k="name" v="Ytre Skauholmen" />
		<tag k="place" v="islet" />
		<tag k="ssr:stedsnr" v="393215" />
	</node>
	<node id="-278180" lat="58.5537333351" lon="8.99583611347">
		<tag k="name" v="Bjørnsvik" />
		<tag k="natural" v="bay" />
		<tag k="ssr:stedsnr" v="393207" />
	</node>
	<node id="-280227" lat="58.4701527738" lon="8.84490556295">
		<tag k="name" v="Seikilen" />
		<tag k="natural" v="bay" />
		<tag k="ssr:stedsnr" v="786313" />
	</node>
	<node id="-280226" lat="58.3913722221" lon="8.77057222881">
		<tag k="name" v="Fladskjær" />
		<tag k="place" v="islet" />
		<tag k="ssr:stedsnr" v="785387" />
	</node>
	<node id="-278177" lat="58.5308527761" lon="8.92728610706">
		<tag k="fixme" v="consider seamark:type=rock or natural=shoal" />
		<tag k="name" v="Sandeskjæra" />
		<tag k="place" v="islet" />
		<tag k="ssr:stedsnr" v="393196" />
	</node>
	<node id="-280223" lat="58.5403638874" lon="9.00333333835">
		<tag k="fixme" v="consider seamark:type=rock or natural=shoal" />
		<tag k="name" v="Ytre Møkkalasset" />
		<tag k="place" v="islet" />
		<tag k="ssr:stedsnr" v="784113" />
	</node>
	<node id="-280222" lat="58.4701638921" lon="8.80208332772">
		<tag k="fixme" v="consider seamark:type=rock or natural=shoal" />
		<tag k="name" v="Bakkeskjær" />
		<tag k="place" v="islet" />
		<tag k="ssr:stedsnr" v="784043" />
	</node>
	<node id="-278169" lat="58.5324944453" lon="8.91832499369">
		<tag k="name" v="Bekkevika" />
		<tag k="natural" v="bay" />
		<tag k="ssr:stedsnr" v="393091" />
	</node>
	<node id="-278167" lat="58.5025083307" lon="8.88403611225">
		<tag k="name" v="Heggedalsbukta" />
		<tag k="natural" v="bay" />
		<tag k="ssr:stedsnr" v="393060" />
	</node>
	<node id="-278164" lat="58.4970805551" lon="8.92846667153">
		<tag k="name" v="Gronestjønn" />
		<tag k="natural" v="bay" />
		<tag k="ssr:stedsnr" v="393050" />
	</node>
	<node id="-280209" lat="58.5051555532" lon="8.93431944108">
		<tag k="name" v="Hølen" />
		<tag k="natural" v="bay" />
		<tag k="ssr:stedsnr" v="758808" />
	</node>
	<node id="-280205" lat="58.4228111111" lon="8.75287222448">
		<tag k="name" v="Lillehavn" />
		<tag k="natural" v="bay" />
		<tag k="ssr:stedsnr" v="758776" />
	</node>
	<node id="-278155" lat="58.549386114" lon="9.02388334036">
		<tag k="name" v="Østre Kirkegrunnen" />
		<tag k="natural" v="shoal" />
		<tag k="place" v="locality" />
		<tag k="ssr:stedsnr" v="392303" />
	</node>
	<node id="-278154" lat="58.4718666664" lon="8.81153611093">
		<tag k="name" v="Krøgeneskilen" />
		<tag k="natural" v="bay" />
		<tag k="ssr:stedsnr" v="391329" />
	</node>
	<node id="-278152" lat="58.4699416666" lon="8.91932500297">
		<tag k="name" v="Terjesknatten" />
		<tag k="natural" v="shoal" />
		<tag k="place" v="locality" />
		<tag k="ssr:stedsnr" v="391282" />
	</node>
	<node id="-278150" lat="58.4208388868" lon="8.7901861126">
		<tag k="name" v="Vestergab" />
		<tag k="natural" v="strait" />
		<tag k="ssr:stedsnr" v="390740" />
	</node>
	<node id="-278149" lat="58.3996000022" lon="8.80441111027">
		<tag k="name" v="Skånegrunnene" />
		<tag k="natural" v="shoal" />
		<tag k="place" v="locality" />
		<tag k="ssr:stedsnr" v="390737" />
	</node>
	<node id="-278148" lat="58.4060249956" lon="8.80054167382">
		<tag k="name" v="Hågåsgrunnen" />
		<tag k="natural" v="shoal" />
		<tag k="old_name" v="Haagaasgrunnen" />
		<tag k="place" v="locality" />
		<tag k="ssr:stedsnr" v="390735" />
	</node>
	<node id="-278147" lat="58.3862305537" lon="8.7730333249">
		<tag k="name" v="Fladskjærgrunnen" />
		<tag k="natural" v="shoal" />
		<tag k="place" v="locality" />
		<tag k="ssr:stedsnr" v="390683" />
	</node>
	<node id="-278703" lat="58.5148138886" lon="8.89649443956">
		<tag k="bay" v="fjord" />
		<tag k="name" v="Gartafjorden" />
		<tag k="natural" v="bay" />
		<tag k="ssr:stedsnr" v="122186" />
	</node>
	<node id="-278145" lat="58.4501527742" lon="8.77920277663">
		<tag k="alt_name" v="Skottholmen, Lille" />
		<tag k="name" v="Lille Skottholmen" />
		<tag k="place" v="islet" />
		<tag k="ssr:stedsnr" v="390633" />
	</node>
	<node id="-280192" lat="58.4392833375" lon="8.78593054895">
		<tag k="fixme" v="consider seamark:type=rock or natural=shoal" />
		<tag k="name" v="Ringskjær" />
		<tag k="place" v="islet" />
		<tag k="ssr:stedsnr" v="758678" />
	</node>
	<node id="-280191" lat="58.4331722187" lon="8.82063055379">
		<tag k="name" v="Øddegabet" />
		<tag k="natural" v="strait" />
		<tag k="ssr:stedsnr" v="758649" />
	</node>
	<node id="-280190" lat="58.4488055564" lon="8.82050277298">
		<tag k="name" v="Prestholmen" />
		<tag k="natural" v="cape" />
		<tag k="ssr:stedsnr" v="758648" />
	</node>
	<node id="-280185" lat="58.4543888916" lon="8.75504722561">
		<tag k="name" v="Strømsbubukt" />
		<tag k="natural" v="bay" />
		<tag k="ssr:stedsnr" v="758591" />
	</node>
	<node id="-280184" lat="58.424922222" lon="8.77507499782">
		<tag k="name" v="Vragvigtangen" />
		<tag k="natural" v="cape" />
		<tag k="ssr:stedsnr" v="758568" />
	</node>
	<node id="-280183" lat="58.4304499982" lon="8.7731166688">
		<tag k="name" v="Grødvigen" />
		<tag k="natural" v="bay" />
		<tag k="ssr:stedsnr" v="758566" />
	</node>
	<node id="-278134" lat="58.4988388865" lon="8.93371666831">
		<tag k="alt_name" v="Saueholmen" />
		<tag k="name" v="Sauholmane" />
		<tag k="place" v="islet" />
		<tag k="ssr:stedsnr" v="364934" />
	</node>
	<node id="-278129" lat="58.4408916666" lon="8.75318888754">
		<tag k="name" v="Hisøy" />
		<tag k="place" v="island" />
		<tag k="ssr:stedsnr" v="364640" />
	</node>
	<node id="-278128" lat="58.4563666658" lon="8.78317223023">
		<tag k="name" v="Skilsøy" />
		<tag k="place" v="islet" />
		<tag k="ssr:stedsnr" v="364639" />
	</node>
	<node id="-278124" lat="58.3939722211" lon="8.77313888884">
		<tag k="name" v="Tvesteinen" />
		<tag k="place" v="islet" />
		<tag k="ssr:stedsnr" v="364545" />
	</node>
	<node id="-278118" lat="58.443961115" lon="8.86806111354">
		<tag k="fixme" v="consider seamark:type=rock or natural=shoal" />
		<tag k="name" v="Svartskjær" />
		<tag k="place" v="islet" />
		<tag k="ssr:stedsnr" v="360372" />
	</node>
	<node id="-278702" lat="58.5160888875" lon="8.97748889014">
		<tag k="alt_name" v="Fladeskjæra" />
		<tag k="fixme" v="consider seamark:type=rock or natural=shoal" />
		<tag k="name" v="Flatskjera" />
		<tag k="place" v="islet" />
		<tag k="ssr:stedsnr" v="122183" />
	</node>
	<node id="-280162" lat="58.483694446" lon="8.8350111046">
		<tag k="name" v="Bråtebukta" />
		<tag k="natural" v="bay" />
		<tag k="ssr:stedsnr" v="758408" />
	</node>
	<node id="-280160" lat="58.4789888869" lon="8.92004166205">
		<tag k="name" v="Østerbukt" />
		<tag k="natural" v="bay" />
		<tag k="ssr:stedsnr" v="758391" />
	</node>
	<node id="-280152" lat="58.4671111068" lon="8.88256388795">
		<tag k="name" v="Pernes" />
		<tag k="natural" v="cape" />
		<tag k="ssr:stedsnr" v="758330" />
	</node>
	<node id="-280148" lat="58.5383861142" lon="8.98188888627">
		<tag k="name" v="Båtholmene" />
		<tag k="place" v="islet" />
		<tag k="ssr:stedsnr" v="758281" />
	</node>
	<node id="-280147" lat="58.5340138904" lon="8.94078888302">
		<tag k="bay" v="fjord" />
		<tag k="name" v="Låddalsfjorden" />
		<tag k="natural" v="bay" />
		<tag k="ssr:stedsnr" v="758264" />
	</node>
	<node id="-280146" lat="58.5338583358" lon="8.9732416609">
		<tag k="name" v="Raudstenkilen" />
		<tag k="natural" v="bay" />
		<tag k="ssr:stedsnr" v="758244" />
	</node>
	<node id="-280141" lat="58.5033777759" lon="8.93700555092">
		<tag k="name" v="Laksehytta" />
		<tag k="natural" v="bay" />
		<tag k="ssr:stedsnr" v="758174" />
	</node>
	<node id="-280139" lat="58.5180166689" lon="8.90274721502">
		<tag k="name" v="Kjenestangen" />
		<tag k="natural" v="cape" />
		<tag k="ssr:stedsnr" v="758161" />
	</node>
	<node id="-280128" lat="58.5009666703" lon="8.93311667082">
		<tag k="name" v="Furuholmen" />
		<tag k="place" v="islet" />
		<tag k="ssr:stedsnr" v="758039" />
	</node>
	<node id="-278075" lat="58.4207611126" lon="8.75280278399">
		<tag k="name" v="Ausa" />
		<tag k="natural" v="bay" />
		<tag k="ssr:stedsnr" v="333777" />
	</node>
	<node id="-278074" lat="58.5741249982" lon="8.96420833708">
		<tag k="name" v="Eikelandsbukta" />
		<tag k="natural" v="bay" />
		<tag k="ssr:stedsnr" v="333770" />
	</node>
	<node id="-278073" lat="58.5736972222" lon="8.96549166424">
		<tag k="name" v="Furuholmen" />
		<tag k="place" v="islet" />
		<tag k="ssr:stedsnr" v="333768" />
	</node>
	<node id="-278059" lat="58.4347138916" lon="8.79168333396">
		<tag k="fixme" v="consider seamark:type=rock or natural=shoal" />
		<tag k="name" v="Abelholmen" />
		<tag k="place" v="islet" />
		<tag k="ssr:stedsnr" v="333645" />
	</node>
	<node id="-278057" lat="58.4323305587" lon="8.79076666248">
		<tag k="name" v="Tvillingholmene" />
		<tag k="place" v="islet" />
		<tag k="ssr:stedsnr" v="333630" />
	</node>
	<node id="-280101" lat="58.5403888931" lon="8.95069167131">
		<tag k="name" v="Finnskottbukta" />
		<tag k="natural" v="bay" />
		<tag k="ssr:stedsnr" v="757248" />
	</node>
	<node id="-278051" lat="58.4626805582" lon="8.78405000792">
		<tag k="name" v="Fluet" />
		<tag k="natural" v="cape" />
		<tag k="ssr:stedsnr" v="333594" />
	</node>
	<node id="-280098" lat="58.5564722227" lon="8.99999721599">
		<tag k="name" v="Vika" />
		<tag k="natural" v="bay" />
		<tag k="ssr:stedsnr" v="757195" />
	</node>
	<node id="-278049" lat="58.4566916676" lon="8.78529165826">
		<tag k="name" v="Fjellvig" />
		<tag k="natural" v="bay" />
		<tag k="ssr:stedsnr" v="333590" />
	</node>
	<node id="-280095" lat="58.55009444" lon="8.99061111387">
		<tag k="name" v="Vestre Kvaknes" />
		<tag k="natural" v="cape" />
		<tag k="ssr:stedsnr" v="757189" />
	</node>
	<node id="-280094" lat="58.5269527785" lon="8.99579443725">
		<tag k="name" v="Raudsteinflaket" />
		<tag k="natural" v="shoal" />
		<tag k="place" v="locality" />
		<tag k="ssr:stedsnr" v="756292" />
	</node>
	<node id="-280093" lat="58.5637555567" lon="8.97160277099">
		<tag k="name" v="Teiersnes" />
		<tag k="natural" v="cape" />
		<tag k="ssr:stedsnr" v="756284" />
	</node>
	<node id="-280092" lat="58.5146166681" lon="8.96625278041">
		<tag k="fixme" v="consider seamark:type=rock or natural=shoal" />
		<tag k="name" v="Østre Svartskjær" />
		<tag k="place" v="islet" />
		<tag k="ssr:stedsnr" v="756259" />
	</node>
	<node id="-280091" lat="58.4231944458" lon="8.81051110302">
		<tag k="name" v="Lakseberget" />
		<tag k="natural" v="cape" />
		<tag k="ssr:stedsnr" v="755766" />
	</node>
	<node id="-280090" lat="58.4302472228" lon="8.77239166814">
		<tag k="name" v="Graudviga" />
		<tag k="natural" v="bay" />
		<tag k="ssr:stedsnr" v="755760" />
	</node>
	<node id="-280089" lat="58.4371805514" lon="8.78777778516">
		<tag k="name" v="Nabben" />
		<tag k="natural" v="cape" />
		<tag k="ssr:stedsnr" v="755759" />
	</node>
	<node id="-280088" lat="58.4470722246" lon="8.81896665967">
		<tag k="alt_name" v="Færvigkilen" />
		<tag k="name" v="Færvikkilen" />
		<tag k="natural" v="bay" />
		<tag k="ssr:stedsnr" v="755745" />
	</node>
	<node id="-280087" lat="58.3977722253" lon="8.7793583276">
		<tag k="fixme" v="consider seamark:type=rock or natural=shoal" />
		<tag k="name" v="Betelskjær" />
		<tag k="place" v="islet" />
		<tag k="ssr:stedsnr" v="755726" />
	</node>
	<node id="-280086" lat="58.3935861091" lon="8.77866667484">
		<tag k="name" v="Tvesteingabet" />
		<tag k="place" v="locality" />
		<tag k="ssr:stedsnr" v="755716" />
	</node>
	<node id="-280085" lat="58.4651555547" lon="8.89473888095">
		<tag k="name" v="Bottstangen" />
		<tag k="natural" v="cape" />
		<tag k="ssr:stedsnr" v="755710" />
	</node>
	<node id="-280084" lat="58.3880277801" lon="8.76406111483">
		<tag k="name" v="Grynbåen" />
		<tag k="place" v="locality" />
		<tag k="seamark:type" v="rock" />
		<tag k="ssr:stedsnr" v="755661" />
	</node>
	<node id="-280082" lat="58.5556138931" lon="9.01223610297">
		<tag k="fixme" v="consider seamark:type=rock or natural=shoal" />
		<tag k="name" v="Lille Buskjær" />
		<tag k="place" v="islet" />
		<tag k="ssr:stedsnr" v="755300" />
	</node>
	<node id="-280067" lat="58.5223916681" lon="8.8989527799">
		<tag k="name" v="Klokkøya" />
		<tag k="place" v="island" />
		<tag k="ssr:stedsnr" v="729261" />
	</node>
	<node id="-280066" lat="58.5232444414" lon="8.96241110264">
		<tag k="alt_name" v="Måkeholmene" />
		<tag k="name" v="Måkeholmane" />
		<tag k="place" v="islet" />
		<tag k="ssr:stedsnr" v="729262" />
	</node>
	<node id="-278013" lat="58.4760833293" lon="8.92123334148">
		<tag k="name" v="Bagrassrenna" />
		<tag k="place" v="locality" />
		<tag k="ssr:stedsnr" v="333384" />
	</node>
	<node id="-278010" lat="58.4736444435" lon="8.90916666355">
		<tag k="name" v="Vabukta" />
		<tag k="natural" v="bay" />
		<tag k="ssr:stedsnr" v="333358" />
	</node>
	<node id="-278008" lat="58.4712166674" lon="8.8304999932">
		<tag k="name" v="Furuholmen" />
		<tag k="place" v="islet" />
		<tag k="ssr:stedsnr" v="333350" />
	</node>
	<node id="-278007" lat="58.4661944404" lon="8.88470554959">
		<tag k="name" v="Lille Danmark" />
		<tag k="natural" v="cape" />
		<tag k="ssr:stedsnr" v="333335" />
	</node>
	<node id="-278006" lat="58.4719055569" lon="8.8995749948">
		<tag k="name" v="Sønningspyntholmen" />
		<tag k="place" v="islet" />
		<tag k="ssr:stedsnr" v="333326" />
	</node>
	<node id="-278005" lat="58.4949611113" lon="8.87490555759">
		<tag k="name" v="Pålsodden" />
		<tag k="natural" v="cape" />
		<tag k="ssr:stedsnr" v="333322" />
	</node>
	<node id="-280052" lat="58.4750833332" lon="8.82780278151">
		<tag k="name" v="Taraldsnes" />
		<tag k="natural" v="cape" />
		<tag k="ssr:stedsnr" v="728620" />
	</node>
	<node id="-277999" lat="58.4155611084" lon="8.74107778189">
		<tag k="fixme" v="consider seamark:type=rock or natural=shoal" />
		<tag k="name" v="Klauvaskjæra" />
		<tag k="place" v="islet" />
		<tag k="ssr:stedsnr" v="333284" />
	</node>
	<node id="-277998" lat="58.5577750021" lon="8.97386944613">
		<tag k="name" v="Slottholmen" />
		<tag k="place" v="islet" />
		<tag k="ssr:stedsnr" v="333271" />
	</node>
	<node id="-277997" lat="58.5544277774" lon="8.96584721593">
		<tag k="name" v="Vindkollvika" />
		<tag k="natural" v="bay" />
		<tag k="ssr:stedsnr" v="333269" />
	</node>
	<node id="-280044" lat="58.4153250043" lon="8.76560555784">
		<tag k="name" v="Ærøya" />
		<tag k="place" v="island" />
		<tag k="ssr:stedsnr" v="728547" />
	</node>
	<node id="-277995" lat="58.4349472244" lon="8.71654166489">
		<tag k="name" v="Storeholmen" />
		<tag k="place" v="islet" />
		<tag k="ssr:stedsnr" v="333263" />
	</node>
	<node id="-277990" lat="58.4034499997" lon="8.72555276997">
		<tag k="name" v="Rusesund" />
		<tag k="natural" v="strait" />
		<tag k="ssr:stedsnr" v="333244" />
	</node>
	<node id="-277989" lat="58.5848833338" lon="8.97985832915">
		<tag k="name" v="Hummerbukta" />
		<tag k="natural" v="bay" />
		<tag k="ssr:stedsnr" v="333243" />
	</node>
	<node id="-277985" lat="58.5285972235" lon="8.97053610576">
		<tag k="fixme" v="consider seamark:type=rock or natural=shoal" />
		<tag k="name" v="Korshavnskjæret" />
		<tag k="place" v="islet" />
		<tag k="ssr:stedsnr" v="333224" />
	</node>
	<node id="-277983" lat="58.5255916702" lon="8.89613055565">
		<tag k="name" v="Strengereidfjorden" />
		<tag k="natural" v="bay" />
		<tag k="ssr:stedsnr" v="333199" />
	</node>
	<node id="-277979" lat="58.5065361143" lon="8.94589722922">
		<tag k="alt_name" v="Hviddingseivholmen" />
		<tag k="name" v="Hviddingsevholmen" />
		<tag k="place" v="islet" />
		<tag k="ssr:stedsnr" v="333169" />
	</node>
	<node id="-277978" lat="58.5049888914" lon="8.94163611463">
		<tag k="name" v="Spruta" />
		<tag k="natural" v="bay" />
		<tag k="ssr:stedsnr" v="333164" />
	</node>
	<node id="-277974" lat="58.5210305529" lon="8.87459166019">
		<tag k="name" v="Gartastranda" />
		<tag k="natural" v="beach" />
		<tag k="place" v="locality" />
		<tag k="ssr:stedsnr" v="333127" />
	</node>
	<node id="-277964" lat="58.5082694403" lon="8.89556388918">
		<tag k="name" v="Ytre Stølen" />
		<tag k="natural" v="bay" />
		<tag k="ssr:stedsnr" v="333055" />
	</node>
	<node id="-277963" lat="58.5163944443" lon="8.90441110858">
		<tag k="name" v="Rørvikholmene" />
		<tag k="place" v="islet" />
		<tag k="ssr:stedsnr" v="333054" />
	</node>
	<node id="-277962" lat="58.5075388913" lon="8.89086944313">
		<tag k="name" v="Juleholmen" />
		<tag k="place" v="islet" />
		<tag k="ssr:stedsnr" v="333053" />
	</node>
	<node id="-279799" lat="58.433741671" lon="8.79413332566">
		<tag k="name" v="Lille Brattholmen" />
		<tag k="place" v="islet" />
		<tag k="ssr:stedsnr" v="636662" />
	</node>
	<node id="-277956" lat="58.5548472214" lon="9.01831111038">
		<tag k="fixme" v="consider seamark:type=rock or natural=shoal" />
		<tag k="name" v="Flateskjær" />
		<tag k="place" v="islet" />
		<tag k="ssr:stedsnr" v="332241" />
	</node>
	<node id="-277953" lat="58.5363472228" lon="8.99761388888">
		<tag k="fixme" v="consider seamark:type=rock or natural=shoal" />
		<tag k="name" v="Skibeskjær" />
		<tag k="place" v="islet" />
		<tag k="ssr:stedsnr" v="331293" />
	</node>
	<node id="-277952" lat="58.5383416647" lon="8.97949166963">
		<tag k="name" v="Værholmen" />
		<tag k="place" v="islet" />
		<tag k="ssr:stedsnr" v="331290" />
	</node>
	<node id="-277949" lat="58.4278916672" lon="8.81615556267">
		<tag k="name" v="Østergab" />
		<tag k="natural" v="strait" />
		<tag k="ssr:stedsnr" v="330783" />
	</node>
	<node id="-279996" lat="58.4294916688" lon="8.72498334032">
		<tag k="name" v="Narret" />
		<tag k="place" v="islet" />
		<tag k="ssr:stedsnr" v="697767" />
	</node>
	<node id="-277947" lat="58.5579750032" lon="9.01608610767">
		<tag k="fixme" v="consider seamark:type=rock or natural=shoal" />
		<tag k="name" v="Store Buskjær" />
		<tag k="place" v="islet" />
		<tag k="ssr:stedsnr" v="330301" />
	</node>
	<node id="-277946" lat="58.471525003" lon="8.92166944076">
		<tag k="name" v="Øyebåen" />
		<tag k="place" v="locality" />
		<tag k="seamark:type" v="rock" />
		<tag k="ssr:stedsnr" v="330283" />
	</node>
	<node id="-277945" lat="58.4927416683" lon="8.92961667108">
		<tag k="name" v="Gronesbåen" />
		<tag k="place" v="locality" />
		<tag k="seamark:type" v="rock" />
		<tag k="ssr:stedsnr" v="330279" />
	</node>
	<node id="-277944" lat="58.4702527752" lon="8.89598054944">
		<tag k="name" v="Gibbergapet" />
		<tag k="natural" v="strait" />
		<tag k="ssr:stedsnr" v="90252" />
	</node>
	<node id="-279991" lat="58.4697666666" lon="8.82401110909">
		<tag k="alt_name" v="Brunes;Bruneset" />
		<tag k="name" v="Broneset" />
		<tag k="natural" v="cape" />
		<tag k="ssr:stedsnr" v="697727" />
	</node>
	<node id="-277941" lat="58.5579250044" lon="8.97695277248">
		<tag k="name" v="Indrestrand" />
		<tag k="natural" v="beach" />
		<tag k="place" v="locality" />
		<tag k="ssr:stedsnr" v="90220" />
	</node>
	<node id="-277937" lat="58.5492111094" lon="9.01446388466">
		<tag k="fixme" v="consider seamark:type=rock or natural=shoal" />
		<tag k="name" v="Holmesundbråta" />
		<tag k="place" v="islet" />
		<tag k="ssr:stedsnr" v="90211" />
	</node>
	<node id="-279975" lat="58.4469194477" lon="8.78310555797">
		<tag k="fixme" v="consider seamark:type=rock or natural=shoal" />
		<tag k="name" v="Potta" />
		<tag k="place" v="islet" />
		<tag k="ssr:stedsnr" v="697609" />
	</node>
	<node id="-279974" lat="58.4417944469" lon="8.82146388361">
		<tag k="name" v="Sankt Helena" />
		<tag k="place" v="islet" />
		<tag k="ssr:stedsnr" v="697600" />
	</node>
	<node id="-279971" lat="58.4690472241" lon="8.80338611691">
		<tag k="name" v="Løkholmen" />
		<tag k="natural" v="cape" />
		<tag k="ssr:stedsnr" v="697564" />
	</node>
	<node id="-277919" lat="58.5781166695" lon="8.98921666283">
		<tag k="bay" v="fjord" />
		<tag k="name" v="Oksefjorden" />
		<tag k="natural" v="bay" />
		<tag k="ssr:stedsnr" v="304283" />
	</node>
	<node id="-279963" lat="58.5133999978" lon="8.86680833689">
		<tag k="name" v="Grunnen" />
		<tag k="natural" v="shoal" />
		<tag k="place" v="locality" />
		<tag k="ssr:stedsnr" v="697457" />
	</node>
	<node id="-277913" lat="58.551822225" lon="8.98536111335">
		<tag k="alt_name" v="Kilsundfjorden" />
		<tag k="name" v="Kilsundet" />
		<tag k="natural" v="strait" />
		<tag k="ssr:stedsnr" v="304205" />
	</node>
	<node id="-277911" lat="58.5150138906" lon="8.92406110968">
		<tag k="name" v="Storbukta" />
		<tag k="natural" v="bay" />
		<tag k="ssr:stedsnr" v="304180" />
	</node>
	<node id="-277910" lat="58.5181472227" lon="8.94513055516">
		<tag k="name" v="Skinnfelltangen" />
		<tag k="natural" v="cape" />
		<tag k="ssr:stedsnr" v="304179" />
	</node>
	<node id="-279948" lat="58.4744583313" lon="8.91721666266">
		<tag k="name" v="Vestre Bagrassen" />
		<tag k="natural" v="cape" />
		<tag k="ssr:stedsnr" v="697370" />
	</node>
	<node id="-277899" lat="58.4392944416" lon="8.73166943882">
		<tag k="name" v="Hølen" />
		<tag k="natural" v="strait" />
		<tag k="ssr:stedsnr" v="303595" />
	</node>
	<node id="-277896" lat="58.4303111149" lon="8.80078334002">
		<tag k="name" v="Langrumpa" />
		<tag k="place" v="islet" />
		<tag k="ssr:stedsnr" v="303081" />
	</node>
	<node id="-277894" lat="58.4547916656" lon="8.78195000212">
		<tag k="name" v="Skilsøy pynt" />
		<tag k="natural" v="cape" />
		<tag k="ssr:stedsnr" v="299962" />
	</node>
	<node id="-277893" lat="58.4562777793" lon="8.77357778567">
		<tag k="name" v="Arendalsbåen" />
		<tag k="natural" v="shoal" />
		<tag k="place" v="locality" />
		<tag k="ssr:stedsnr" v="299781" />
	</node>
	<node id="-279940" lat="58.5441499974" lon="8.94732221572">
		<tag k="name" v="Blekodden" />
		<tag k="natural" v="cape" />
		<tag k="ssr:stedsnr" v="697278" />
	</node>
	<node id="-277891" lat="58.4719611075" lon="8.81968054855">
		<tag k="name" v="Ekevalen" />
		<tag k="natural" v="bay" />
		<tag k="ssr:stedsnr" v="299049" />
	</node>
	<node id="-277890" lat="58.4711833334" lon="8.816819449">
		<tag k="name" v="Østerbukta" />
		<tag k="natural" v="bay" />
		<tag k="ssr:stedsnr" v="299046" />
	</node>
	<node id="-277889" lat="58.4709444431" lon="8.80029445188">
		<tag k="fixme" v="consider seamark:type=rock or natural=shoal" />
		<tag k="name" v="Kroneskjær" />
		<tag k="place" v="islet" />
		<tag k="ssr:stedsnr" v="299043" />
	</node>
	<node id="-279929" lat="58.5346027811" lon="8.97431388546">
		<tag k="name" v="Nautholmsbukta" />
		<tag k="natural" v="bay" />
		<tag k="ssr:stedsnr" v="697223" />
	</node>
	<node id="-279924" lat="58.5255611118" lon="8.89326666467">
		<tag k="name" v="Dernes" />
		<tag k="natural" v="cape" />
		<tag k="ssr:stedsnr" v="697181" />
	</node>
	<node id="-279919" lat="58.520194449" lon="8.8667388817">
		<tag k="name" v="Ubergvika" />
		<tag k="natural" v="bay" />
		<tag k="ssr:stedsnr" v="697136" />
	</node>
	<node id="-279914" lat="58.5113472199" lon="8.90616111238">
		<tag k="fixme" v="consider seamark:type=rock or natural=shoal" />
		<tag k="name" v="Terneskjæret" />
		<tag k="place" v="islet" />
		<tag k="ssr:stedsnr" v="697076" />
	</node>
	<node id="-279909" lat="58.5419083356" lon="8.9465944426">
		<tag k="fixme" v="consider seamark:type=rock or natural=shoal" />
		<tag k="name" v="Seilskjær" />
		<tag k="place" v="islet" />
		<tag k="ssr:stedsnr" v="696252" />
	</node>
	<node id="-279907" lat="58.5588472179" lon="8.99933055452">
		<tag k="fixme" v="consider seamark:type=rock or natural=shoal" />
		<tag k="name" v="Båtskjær" />
		<tag k="place" v="islet" />
		<tag k="ssr:stedsnr" v="696213" />
	</node>
	<node id="-279906" lat="58.5404472263" lon="9.00327777732">
		<tag k="name" v="Møkkalasset" />
		<tag k="place" v="islet" />
		<tag k="ssr:stedsnr" v="696211" />
	</node>
	<node id="-279904" lat="58.5459305565" lon="9.02078888127">
		<tag k="name" v="Vestre Kirkegrunnen" />
		<tag k="natural" v="shoal" />
		<tag k="place" v="locality" />
		<tag k="ssr:stedsnr" v="695294" />
	</node>
	<node id="-279902" lat="58.4229749957" lon="8.77351666331">
		<tag k="alt_name" v="Havsøysundet" />
		<tag k="name" v="Havsøysund" />
		<tag k="natural" v="strait" />
		<tag k="ssr:stedsnr" v="694742" />
	</node>
	<node id="-279901" lat="58.4647249978" lon="8.8162361149">
		<tag k="name" v="Tybakkilen" />
		<tag k="natural" v="bay" />
		<tag k="ssr:stedsnr" v="694728" />
	</node>
	<node id="-279900" lat="58.4813666641" lon="8.85048055734">
		<tag k="name" v="Nautholmen" />
		<tag k="place" v="islet" />
		<tag k="ssr:stedsnr" v="694275" />
	</node>
	<node id="-277833" lat="58.4484222245" lon="8.77330555881">
		<tag k="name" v="Gimlebukta" />
		<tag k="natural" v="bay" />
		<tag k="ssr:stedsnr" v="272604" />
	</node>
	<node id="-277826" lat="58.4556750011" lon="8.75769166238">
		<tag k="name" v="Varmekrogen" />
		<tag k="natural" v="bay" />
		<tag k="ssr:stedsnr" v="272517" />
	</node>
	<node id="-277825" lat="58.4274944445" lon="8.80814444227">
		<tag k="name" v="Lille Brekkvateret" />
		<tag k="natural" v="cape" />
		<tag k="ssr:stedsnr" v="272492" />
	</node>
	<node id="-277820" lat="58.5048388887" lon="8.86196943702">
		<tag k="name" v="Snekkenes" />
		<tag k="natural" v="cape" />
		<tag k="ssr:stedsnr" v="272445" />
	</node>
	<node id="-279863" lat="58.4002305568" lon="8.72431666862">
		<tag k="name" v="Brattholmene" />
		<tag k="place" v="islet" />
		<tag k="ssr:stedsnr" v="667525" />
	</node>
	<node id="-279862" lat="58.4515944442" lon="8.75760277832">
		<tag k="name" v="Gullsmedengbukta" />
		<tag k="natural" v="bay" />
		<tag k="ssr:stedsnr" v="663823" />
	</node>
	<node id="-279861" lat="58.454858329" lon="8.8888583266">
		<tag k="fixme" v="consider seamark:type=rock or natural=shoal" />
		<tag k="name" v="Bjellandskjæra" />
		<tag k="place" v="islet" />
		<tag k="ssr:stedsnr" v="663384" />
	</node>
	<node id="-277812" lat="58.4845111124" lon="8.91285277097">
		<tag k="name" v="Krøglevik" />
		<tag k="natural" v="bay" />
		<tag k="ssr:stedsnr" v="272372" />
	</node>
	<node id="-279859" lat="58.4354611149" lon="8.84752500067">
		<tag k="fixme" v="consider seamark:type=rock or natural=shoal" />
		<tag k="name" v="Markopskjæra" />
		<tag k="place" v="islet" />
		<tag k="ssr:stedsnr" v="663382" />
	</node>
	<node id="-277805" lat="58.4696138913" lon="8.82825833763">
		<tag k="name" v="Gjerstadholmen" />
		<tag k="place" v="islet" />
		<tag k="ssr:stedsnr" v="272307" />
	</node>
	<node id="-277804" lat="58.467508337" lon="8.83216944142">
		<tag k="name" v="Rørendalsbukta" />
		<tag k="natural" v="bay" />
		<tag k="ssr:stedsnr" v="272302" />
	</node>
	<node id="-277802" lat="58.4695361118" lon="8.89798055996">
		<tag k="fixme" v="consider seamark:type=rock or natural=shoal" />
		<tag k="name" v="Stangeskjær" />
		<tag k="place" v="islet" />
		<tag k="ssr:stedsnr" v="272280" />
	</node>
	<node id="-277801" lat="58.4733499984" lon="8.90243888946">
		<tag k="name" v="Båsen" />
		<tag k="natural" v="cape" />
		<tag k="ssr:stedsnr" v="272279" />
	</node>
	<node id="-277800" lat="58.470755553" lon="8.90805833563">
		<tag k="fixme" v="consider seamark:type=rock or natural=shoal" />
		<tag k="name" v="Østre Tromlingskjær" />
		<tag k="place" v="islet" />
		<tag k="ssr:stedsnr" v="272277" />
	</node>
	<node id="-277798" lat="58.4480722212" lon="8.87026944142">
		<tag k="name" v="Osto" />
		<tag k="natural" v="cape" />
		<tag k="ssr:stedsnr" v="272268" />
	</node>
	<node id="-277797" lat="58.4864749962" lon="8.840433338">
		<tag k="name" v="Granodden" />
		<tag k="natural" v="cape" />
		<tag k="ssr:stedsnr" v="272260" />
	</node>
	<node id="-277793" lat="58.5514138887" lon="8.96957221388">
		<tag k="name" v="Sønningen" />
		<tag k="natural" v="strait" />
		<tag k="ssr:stedsnr" v="272231" />
	</node>
	<node id="-277792" lat="58.5249527751" lon="8.95361388567">
		<tag k="name" v="Store Sandvika" />
		<tag k="natural" v="bay" />
		<tag k="ssr:stedsnr" v="272223" />
	</node>
	<node id="-277791" lat="58.5190250032" lon="8.95172778235">
		<tag k="fixme" v="consider seamark:type=rock or natural=shoal" />
		<tag k="name" v="Skinnfellskjæret" />
		<tag k="place" v="islet" />
		<tag k="ssr:stedsnr" v="272222" />
	</node>
	<node id="-277790" lat="58.5346555512" lon="8.94201111297">
		<tag k="name" v="Låddalsholmene" />
		<tag k="place" v="islet" />
		<tag k="ssr:stedsnr" v="272218" />
	</node>
	<node id="-278405" lat="58.4349250009" lon="8.78150555337">
		<tag k="name" v="Steinbukta" />
		<tag k="natural" v="bay" />
		<tag k="ssr:stedsnr" v="29643" />
	</node>
	<node id="-277788" lat="58.4097055573" lon="8.72575278361">
		<tag k="name" v="Blikkmakerbukt" />
		<tag k="natural" v="bay" />
		<tag k="ssr:stedsnr" v="272216" />
	</node>
	<node id="-277782" lat="58.5341083346" lon="8.97468055801">
		<tag k="name" v="Nautholmen" />
		<tag k="natural" v="cape" />
		<tag k="ssr:stedsnr" v="272192" />
	</node>
	<node id="-277780" lat="58.4127305519" lon="8.7410611153">
		<tag k="name" v="Hesviga" />
		<tag k="natural" v="bay" />
		<tag k="ssr:stedsnr" v="272190" />
	</node>
	<node id="-277779" lat="58.5298027798" lon="8.92298610717">
		<tag k="name" v="Espenes" />
		<tag k="natural" v="cape" />
		<tag k="ssr:stedsnr" v="272183" />
	</node>
	<node id="-277776" lat="58.5528194406" lon="8.98872499752">
		<tag k="name" v="Landvik" />
		<tag k="natural" v="bay" />
		<tag k="ssr:stedsnr" v="272151" />
	</node>
	<node id="-279821" lat="58.4377500011" lon="8.72823888348">
		<tag k="name" v="Kjeholmen" />
		<tag k="place" v="islet" />
		<tag k="ssr:stedsnr" v="636806" />
	</node>
	<node id="-280450" lat="58.4827611094" lon="8.92598333878">
		<tag k="fixme" v="consider seamark:type=rock or natural=shoal" />
		<tag k="name" v="Finkelskjær" />
		<tag k="place" v="islet" />
		<tag k="ssr:stedsnr" v="876259" />
	</node>
	<node id="-279816" lat="58.4249250033" lon="8.76144443621">
		<tag k="name" v="Stølsvigen" />
		<tag k="natural" v="bay" />
		<tag k="ssr:stedsnr" v="636786" />
	</node>
	<node id="-278401" lat="58.4729833367" lon="8.90395554815">
		<tag k="name" v="Båsebukta" />
		<tag k="natural" v="bay" />
		<tag k="ssr:stedsnr" v="29336" />
	</node>
	<node id="-279812" lat="58.5636250015" lon="8.99706943652">
		<tag k="name" v="Geitholmene" />
		<tag k="place" v="islet" />
		<tag k="ssr:stedsnr" v="636771" />
	</node>
	<node id="-277763" lat="58.5008833305" lon="8.88526111934">
		<tag k="name" v="Langnes" />
		<tag k="natural" v="cape" />
		<tag k="ssr:stedsnr" v="272050" />
	</node>
	<node id="-279808" lat="58.4708694483" lon="8.84192777048">
		<tag k="name" v="Båtvigen" />
		<tag k="natural" v="bay" />
		<tag k="ssr:stedsnr" v="636749" />
	</node>
	<node id="-277753" lat="58.4764277811" lon="8.90622777743">
		<tag k="name" v="Skarekilen" />
		<tag k="natural" v="strait" />
		<tag k="ssr:stedsnr" v="270277" />
	</node>
	<node id="-277752" lat="58.4301861103" lon="8.82552778147">
		<tag k="fixme" v="consider seamark:type=rock or natural=shoal" />
		<tag k="name" v="Oddebåen" />
		<tag k="place" v="islet" />
		<tag k="ssr:stedsnr" v="269748" />
	</node>
	<node id="-277751" lat="58.45999722" lon="8.79615833125">
		<tag k="fixme" v="consider seamark:type=rock or natural=shoal" />
		<tag k="name" v="Sankt Helena" />
		<tag k="place" v="islet" />
		<tag k="ssr:stedsnr" v="269729" />
	</node>
	<node id="-279797" lat="58.4481000034" lon="8.81834166674">
		<tag k="name" v="Færvigkilen" />
		<tag k="natural" v="bay" />
		<tag k="ssr:stedsnr" v="636636" />
	</node>
	<node id="-279795" lat="58.4595388907" lon="8.78064166373">
		<tag k="name" v="Omsødden" />
		<tag k="natural" v="cape" />
		<tag k="ssr:stedsnr" v="636629" />
	</node>
	<node id="-279793" lat="58.4712027818" lon="8.79818611496">
		<tag k="alt_name" v="Furuholmen" />
		<tag k="name" v="Holmen" />
		<tag k="natural" v="cape" />
		<tag k="ssr:stedsnr" v="636602" />
	</node>
	<node id="-279791" lat="58.4703694458" lon="8.79764722606">
		<tag k="name" v="Mortenstøbukta" />
		<tag k="natural" v="bay" />
		<tag k="ssr:stedsnr" v="636600" />
	</node>
	<node id="-279790" lat="58.4536694489" lon="8.76432223061">
		<tag k="name" v="Nordodden" />
		<tag k="natural" v="cape" />
		<tag k="ssr:stedsnr" v="636562" />
	</node>
	<node id="-279789" lat="58.4579305565" lon="8.76214999761">
		<tag k="name" v="Kittelsbukt" />
		<tag k="natural" v="bay" />
		<tag k="ssr:stedsnr" v="636560" />
	</node>
	<node id="-279788" lat="58.4283305581" lon="8.80131666922">
		<tag k="name" v="Merdøfjorden" />
		<tag k="natural" v="strait" />
		<tag k="ssr:stedsnr" v="636546" />
	</node>
	<node id="-279781" lat="58.5036333296" lon="8.86270555585">
		<tag k="name" v="Bruvika" />
		<tag k="natural" v="bay" />
		<tag k="ssr:stedsnr" v="636454" />
	</node>
	<node id="-278053" lat="58.4364138865" lon="8.80979167112">
		<tag k="name" v="Kattehaue" />
		<tag k="natural" v="cape" />
		<tag k="ssr:stedsnr" v="333614" />
	</node>
	<node id="-279769" lat="58.4783222224" lon="8.91415554731">
		<tag k="name" v="Østre Buholmbukta" />
		<tag k="natural" v="bay" />
		<tag k="ssr:stedsnr" v="636374" />
	</node>
	<node id="-279768" lat="58.4756361136" lon="8.90533055459">
		<tag k="name" v="Haringsholmen" />
		<tag k="place" v="islet" />
		<tag k="ssr:stedsnr" v="636371" />
	</node>
	<node id="-279762" lat="58.4216555583" lon="8.805544449">
		<tag k="name" v="Støttavlbåen" />
		<tag k="place" v="locality" />
		<tag k="seamark:type" v="rock" />
		<tag k="ssr:stedsnr" v="636542" />
	</node>
	<node id="-279759" lat="58.4712138923" lon="8.89739722143">
		<tag k="fixme" v="consider seamark:type=rock or natural=shoal" />
		<tag k="name" v="Hannas skjær" />
		<tag k="place" v="islet" />
		<tag k="ssr:stedsnr" v="636301" />
	</node>
	<node id="-279755" lat="58.4514222224" lon="8.7512499968">
		<tag k="name" v="Ormeviga" />
		<tag k="natural" v="bay" />
		<tag k="ssr:stedsnr" v="636245" />
	</node>
	<node id="-278732" lat="58.5554000011" lon="8.99931388234">
		<tag k="name" v="Hesvika" />
		<tag k="natural" v="bay" />
		<tag k="ssr:stedsnr" v="150210" />
	</node>
	<node id="-279750" lat="58.5355166698" lon="8.97425277834">
		<tag k="name" v="Taddervika" />
		<tag k="natural" v="bay" />
		<tag k="ssr:stedsnr" v="636206" />
	</node>
	<node id="-279749" lat="58.4148499955" lon="8.71990277202">
		<tag k="name" v="Lyngholmen" />
		<tag k="place" v="islet" />
		<tag k="ssr:stedsnr" v="636204" />
	</node>
	<node id="-278730" lat="58.5566000022" lon="9.02490278459">
		<tag k="fixme" v="consider seamark:type=rock or natural=shoal" />
		<tag k="name" v="Knubben" />
		<tag k="place" v="islet" />
		<tag k="ssr:stedsnr" v="149267" />
	</node>
	<node id="-279735" lat="58.5221722192" lon="8.87713333173">
		<tag k="name" v="Mikkels" />
		<tag k="natural" v="beach" />
		<tag k="place" v="locality" />
		<tag k="ssr:stedsnr" v="636113" />
	</node>
	<node id="-279734" lat="58.5239388877" lon="8.88948610836">
		<tag k="name" v="Hønseholmene" />
		<tag k="place" v="islet" />
		<tag k="ssr:stedsnr" v="636100" />
	</node>
	<node id="-278728" lat="58.4171249985" lon="8.79400832486">
		<tag k="name" v="Kankene" />
		<tag k="natural" v="shoal" />
		<tag k="place" v="locality" />
		<tag k="ssr:stedsnr" v="148776" />
	</node>
	<node id="-279724" lat="58.5522611067" lon="8.93574999458">
		<tag k="name" v="St.Helena" />
		<tag k="place" v="islet" />
		<tag k="ssr:stedsnr" v="635248" />
	</node>
	<node id="-279723" lat="58.5592083344" lon="8.97688610501">
		<tag k="name" v="Lilleskudhaugen" />
		<tag k="place" v="islet" />
		<tag k="ssr:stedsnr" v="635241" />
	</node>
	<node id="-279721" lat="58.5252000003" lon="8.98274444549">
		<tag k="name" v="Saltbåen" />
		<tag k="place" v="locality" />
		<tag k="seamark:type" v="rock" />
		<tag k="ssr:stedsnr" v="634320" />
	</node>
	<node id="-279718" lat="58.4090611136" lon="8.80538611798">
		<tag k="name" v="Langrumpa" />
		<tag k="natural" v="shoal" />
		<tag k="place" v="locality" />
		<tag k="ssr:stedsnr" v="633780" />
	</node>
	<node id="-279716" lat="58.4100444449" lon="8.72135000319">
		<tag k="name" v="Lille Bryllupsholmen" />
		<tag k="place" v="islet" />
		<tag k="ssr:stedsnr" v="633770" />
	</node>
	<node id="-279715" lat="58.4084750032" lon="8.71742778223">
		<tag k="name" v="Store Bryllupsholmen" />
		<tag k="place" v="islet" />
		<tag k="ssr:stedsnr" v="633769" />
	</node>
	<node id="-279714" lat="58.3811944442" lon="8.77428055658">
		<tag k="name" v="Fiskeskjærgabet" />
		<tag k="place" v="locality" />
		<tag k="ssr:stedsnr" v="633690" />
	</node>
	<node id="-279713" lat="58.5232499965" lon="8.97313055134">
		<tag k="name" v="Romlingsbåene" />
		<tag k="place" v="locality" />
		<tag k="seamark:type" v="rock" />
		<tag k="ssr:stedsnr" v="633335" />
	</node>
	<node id="-279712" lat="58.5024361155" lon="8.89358055596">
		<tag k="name" v="Buøyskjæra" />
		<tag k="place" v="islet" />
		<tag k="ssr:stedsnr" v="633331" />
	</node>
	<node id="-279709" lat="58.5232249996" lon="8.97616944875">
		<tag k="name" v="Vestre Romlingsbåen" />
		<tag k="place" v="locality" />
		<tag k="seamark:type" v="rock" />
		<tag k="ssr:stedsnr" v="633309" />
	</node>
	<node id="-279708" lat="58.5190055534" lon="8.93162499592">
		<tag k="name" v="Helgetangen" />
		<tag k="natural" v="cape" />
		<tag k="ssr:stedsnr" v="633289" />
	</node>
	<node id="-279707" lat="58.5070527763" lon="8.95953333354">
		<tag k="name" v="Eigebåen" />
		<tag k="place" v="locality" />
		<tag k="seamark:type" v="rock" />
		<tag k="ssr:stedsnr" v="633285" />
	</node>
	<node id="-278041" lat="58.4551194418" lon="8.75633888717">
		<tag k="name" v="Svinodden" />
		<tag k="natural" v="cape" />
		<tag k="ssr:stedsnr" v="333553" />
	</node>
	<node id="-278040" lat="58.4281250021" lon="8.81047222093">
		<tag k="name" v="Store Brekkvateret" />
		<tag k="natural" v="cape" />
		<tag k="ssr:stedsnr" v="333539" />
	</node>
	<node id="-279691" lat="58.5385305599" lon="8.98494722125">
		<tag k="name" v="Kalvøya" />
		<tag k="place" v="island" />
		<tag k="ssr:stedsnr" v="607254" />
	</node>
	<node id="-279687" lat="58.5076666626" lon="8.93421111319">
		<tag k="alt_name" v="Kjørvika" />
		<tag k="name" v="Kjørviga" />
		<tag k="natural" v="bay" />
		<tag k="ssr:stedsnr" v="607200" />
	</node>
	<node id="-279677" lat="58.4049749977" lon="8.72404167061">
		<tag k="alt_name" v="Aspholmen" />
		<tag k="name" v="Asperholmen" />
		<tag k="place" v="islet" />
		<tag k="ssr:stedsnr" v="606563" />
	</node>
	<node id="-278378" lat="58.5352444411" lon="9.01073333297">
		<tag k="name" v="Håvikbåen" />
		<tag k="place" v="locality" />
		<tag k="seamark:type" v="rock" />
		<tag k="ssr:stedsnr" v="28310" />
	</node>
	<node id="-279674" lat="58.4210194458" lon="8.77539444875">
		<tag k="name" v="Havsøya" />
		<tag k="place" v="island" />
		<tag k="ssr:stedsnr" v="606556" />
	</node>
	<node id="-279673" lat="58.3982138877" lon="8.74091389637">
		<tag k="alt_name" v="Tjuvholmene" />
		<tag k="name" v="Tjuvholmane" />
		<tag k="place" v="islet" />
		<tag k="ssr:stedsnr" v="606546" />
	</node>
	<node id="-279672" lat="58.4493861105" lon="8.74874444981">
		<tag k="name" v="Gårdalsbukta" />
		<tag k="natural" v="bay" />
		<tag k="ssr:stedsnr" v="602784" />
	</node>
	<node id="-278716" lat="58.4672694476" lon="8.91321111825">
		<tag k="name" v="Teinebåen" />
		<tag k="place" v="locality" />
		<tag k="seamark:type" v="rock" />
		<tag k="ssr:stedsnr" v="147666" />
	</node>
	<node id="-279636" lat="58.5376777783" lon="8.99410555359">
		<tag k="fixme" v="consider seamark:type=rock or natural=shoal" />
		<tag k="name" v="Kalvøysundsbråttene" />
		<tag k="place" v="islet" />
		<tag k="ssr:stedsnr" v="575761" />
	</node>
	<node id="-280419" lat="58.5261999998" lon="8.95888332796">
		<tag k="alt_name" v="Breiangen" />
		<tag k="name" v="Breidvika" />
		<tag k="natural" v="bay" />
		<tag k="ssr:stedsnr" v="850243" />
	</node>
	<node id="-279628" lat="58.5738000033" lon="8.963380549">
		<tag k="name" v="Labakkholmen" />
		<tag k="place" v="islet" />
		<tag k="ssr:stedsnr" v="575725" />
	</node>
	<node id="-280418" lat="58.466822218" lon="8.89206111041">
		<tag k="alt_name" v="Botsfjorden" />
		<tag k="bay" v="fjord" />
		<tag k="name" v="Bottsfjorden" />
		<tag k="natural" v="bay" />
		<tag k="ssr:stedsnr" v="849939" />
	</node>
	<node id="-280417" lat="58.475719444" lon="8.92935555352">
		<tag k="fixme" v="consider seamark:type=rock or natural=shoal" />
		<tag k="name" v="Brenningane" />
		<tag k="place" v="islet" />
		<tag k="ssr:stedsnr" v="849934" />
	</node>
	<node id="-279616" lat="58.4337388891" lon="8.79218055971">
		<tag k="fixme" v="consider seamark:type=rock or natural=shoal" />
		<tag k="name" v="Sugga" />
		<tag k="place" v="islet" />
		<tag k="ssr:stedsnr" v="575635" />
	</node>
	<node id="-279612" lat="58.4642305534" lon="8.81685833239">
		<tag k="name" v="Tybakkilen" />
		<tag k="natural" v="bay" />
		<tag k="ssr:stedsnr" v="575577" />
	</node>
	<node id="-279609" lat="58.4686166688" lon="8.79728888924">
		<tag k="name" v="Havstadodden" />
		<tag k="natural" v="cape" />
		<tag k="ssr:stedsnr" v="575569" />
	</node>
	<node id="-279601" lat="58.4237638933" lon="8.79467222861">
		<tag k="name" v="Dynnvikbukta" />
		<tag k="natural" v="bay" />
		<tag k="ssr:stedsnr" v="575503" />
	</node>
	<node id="-279577" lat="58.4757666699" lon="8.90174999366">
		<tag k="name" v="Munkevigen" />
		<tag k="natural" v="bay" />
		<tag k="ssr:stedsnr" v="575311" />
	</node>
	<node id="-279572" lat="58.4557916679" lon="8.88314723044">
		<tag k="name" v="Bjellandstranda" />
		<tag k="natural" v="beach" />
		<tag k="place" v="locality" />
		<tag k="ssr:stedsnr" v="575280" />
	</node>
	<node id="-279571" lat="58.4579861098" lon="8.89137777549">
		<tag k="fixme" v="consider seamark:type=rock or natural=shoal" />
		<tag k="name" v="Østerskjær" />
		<tag k="place" v="islet" />
		<tag k="ssr:stedsnr" v="575277" />
	</node>
	<node id="-279570" lat="58.4714361117" lon="8.88956666153">
		<tag k="name" v="Saulekilen" />
		<tag k="natural" v="bay" />
		<tag k="ssr:stedsnr" v="575275" />
	</node>
	<node id="-279568" lat="58.4427916625" lon="8.85363610782">
		<tag k="name" v="Spornesstranda" />
		<tag k="natural" v="beach" />
		<tag k="place" v="locality" />
		<tag k="ssr:stedsnr" v="575263" />
	</node>
	<node id="-279563" lat="58.4102722241" lon="8.73294722676">
		<tag k="name" v="Indre Skallviga" />
		<tag k="natural" v="bay" />
		<tag k="ssr:stedsnr" v="575238" />
	</node>
	<node id="-279558" lat="58.5496527779" lon="8.96162500552">
		<tag k="name" v="Kvalstien" />
		<tag k="place" v="locality" />
		<tag k="ssr:stedsnr" v="575221" />
	</node>
	<node id="-279554" lat="58.5250972258" lon="8.95568610366">
		<tag k="name" v="Fleskenes" />
		<tag k="natural" v="cape" />
		<tag k="ssr:stedsnr" v="575214" />
	</node>
	<node id="-279553" lat="58.4140416681" lon="8.71810833274">
		<tag k="name" v="Malina" />
		<tag k="natural" v="bay" />
		<tag k="ssr:stedsnr" v="575210" />
	</node>
	<node id="-279551" lat="58.5664916701" lon="8.96474999979">
		<tag k="name" v="Knattholmen" />
		<tag k="place" v="islet" />
		<tag k="ssr:stedsnr" v="575202" />
	</node>
	<node id="-279548" lat="58.5221972201" lon="8.95300277026">
		<tag k="name" v="Grundesundholmen" />
		<tag k="place" v="islet" />
		<tag k="ssr:stedsnr" v="575189" />
	</node>
	<node id="-279547" lat="58.5284555597" lon="8.91222499838">
		<tag k="name" v="Arneviksundet" />
		<tag k="natural" v="strait" />
		<tag k="ssr:stedsnr" v="575185" />
	</node>
	<node id="-279542" lat="58.5109333356" lon="8.94770555322">
		<tag k="name" v="Lørdagsholla" />
		<tag k="natural" v="bay" />
		<tag k="ssr:stedsnr" v="575129" />
	</node>
	<node id="-279537" lat="58.5236305595" lon="8.89557222337">
		<tag k="name" v="Lille Stråholmen" />
		<tag k="place" v="islet" />
		<tag k="ssr:stedsnr" v="575082" />
	</node>
	<node id="-280061" lat="58.5199333298" lon="8.94795832659">
		<tag k="name" v="Skinnfellholmen" />
		<tag k="place" v="islet" />
		<tag k="ssr:stedsnr" v="729188" />
	</node>
	<node id="-279532" lat="58.507111111" lon="8.88184999789">
		<tag k="name" v="Breivikholmene" />
		<tag k="place" v="islet" />
		<tag k="ssr:stedsnr" v="575048" />
	</node>
	<node id="-279527" lat="58.4932944429" lon="8.92314722579">
		<tag k="name" v="Eidsnes" />
		<tag k="natural" v="cape" />
		<tag k="ssr:stedsnr" v="573310" />
	</node>
	<node id="-279525" lat="58.4690583332" lon="8.80680278634">
		<tag k="name" v="Vindholmen" />
		<tag k="natural" v="cape" />
		<tag k="ssr:stedsnr" v="573302" />
	</node>
	<node id="-279524" lat="58.4659833292" lon="8.87721945243">
		<tag k="name" v="Alvekilen" />
		<tag k="natural" v="bay" />
		<tag k="ssr:stedsnr" v="573299" />
	</node>
	<node id="-279522" lat="58.4859222248" lon="8.92403889029">
		<tag k="name" v="Klovebåen" />
		<tag k="place" v="locality" />
		<tag k="seamark:type" v="rock" />
		<tag k="ssr:stedsnr" v="573266" />
	</node>
	<node id="-279521" lat="58.5058333336" lon="8.96473610369">
		<tag k="name" v="Østre Fladen" />
		<tag k="natural" v="shoal" />
		<tag k="place" v="locality" />
		<tag k="ssr:stedsnr" v="573265" />
	</node>
	<node id="-279520" lat="58.5064194485" lon="8.97436110759">
		<tag k="name" v="Ytre Torskehausen" />
		<tag k="natural" v="shoal" />
		<tag k="place" v="locality" />
		<tag k="ssr:stedsnr" v="573263" />
	</node>
	<node id="-279519" lat="58.5101583333" lon="8.97950833351">
		<tag k="name" v="Teinebåen" />
		<tag k="place" v="locality" />
		<tag k="seamark:type" v="rock" />
		<tag k="ssr:stedsnr" v="573261" />
	</node>
	<node id="-279518" lat="58.422611107" lon="8.80380555448">
		<tag k="name" v="Støttavla" />
		<tag k="natural" v="cape" />
		<tag k="ssr:stedsnr" v="572771" />
	</node>
	<node id="-279516" lat="58.4578944486" lon="8.77889722309">
		<tag k="fixme" v="consider seamark:type=rock or natural=shoal" />
		<tag k="name" v="Fladeskjær" />
		<tag k="place" v="islet" />
		<tag k="ssr:stedsnr" v="572759" />
	</node>
	<node id="-279515" lat="58.408150004" lon="8.73438888613">
		<tag k="name" v="Terneholmen" />
		<tag k="place" v="islet" />
		<tag k="ssr:stedsnr" v="572755" />
	</node>
	<node id="-279514" lat="58.4301944466" lon="8.83196388076">
		<tag k="name" v="Røysbåene" />
		<tag k="place" v="locality" />
		<tag k="seamark:type" v="rock" />
		<tag k="ssr:stedsnr" v="572739" />
	</node>
	<node id="-279513" lat="58.4337333332" lon="8.79399722693">
		<tag k="alt_name" v="L Brattholmen" />
		<tag k="name" v="Brattholmene, Søndre" />
		<tag k="place" v="islet" />
		<tag k="ssr:stedsnr" v="572737" />
	</node>
	<node id="-279512" lat="58.4330555222" lon="8.78725547692">
		<tag k="name" v="Håholmen" />
		<tag k="place" v="islet" />
		<tag k="ssr:stedsnr" v="572726" />
	</node>
	<node id="-280056" lat="58.4914916697" lon="8.91853333325">
		<tag k="name" v="Skarekilen" />
		<tag k="natural" v="strait" />
		<tag k="ssr:stedsnr" v="728898" />
	</node>
	<node id="-279502" lat="58.4972777757" lon="8.8561333302">
		<tag k="name" v="Neskilen" />
		<tag k="natural" v="strait" />
		<tag k="ssr:stedsnr" v="546905" />
	</node>
	<node id="-279487" lat="58.4022611084" lon="8.758422224">
		<tag k="alt_name" v="Halvorsholmane" />
		<tag k="name" v="Halvorsholmene" />
		<tag k="place" v="islet" />
		<tag k="ssr:stedsnr" v="546516" />
	</node>
	<node id="-279481" lat="58.5225972237" lon="8.98557778484">
		<tag k="name" v="Bonden" />
		<tag k="place" v="islet" />
		<tag k="ssr:stedsnr" v="542121" />
	</node>
	<node id="-278570" lat="58.5542555514" lon="8.99815277016">
		<tag k="name" v="Hålholmen" />
		<tag k="place" v="islet" />
		<tag k="ssr:stedsnr" v="90169" />
	</node>
	<node id="-279446" lat="58.5653777773" lon="8.97886943593">
		<tag k="name" v="Lislekilen" />
		<tag k="natural" v="bay" />
		<tag k="ssr:stedsnr" v="515788" />
	</node>
	<node id="-279444" lat="58.5629611082" lon="8.96760555534">
		<tag k="name" v="Lønvikbukta" />
		<tag k="natural" v="bay" />
		<tag k="ssr:stedsnr" v="515784" />
	</node>
	<node id="-279443" lat="58.4190527773" lon="8.7456361168">
		<tag k="name" v="Kavåga" />
		<tag k="natural" v="bay" />
		<tag k="ssr:stedsnr" v="515782" />
	</node>
	<node id="-279437" lat="58.4666361143" lon="8.87718056279">
		<tag k="name" v="Gruveholmen" />
		<tag k="place" v="islet" />
		<tag k="ssr:stedsnr" v="515756" />
	</node>
	<node id="-280043" lat="58.4523861125" lon="8.76733055648">
		<tag k="name" v="Slebabukta" />
		<tag k="natural" v="bay" />
		<tag k="ssr:stedsnr" v="724829" />
	</node>
	<node id="-279424" lat="58.434986109" lon="8.79434166116">
		<tag k="name" v="Store Brattholmen" />
		<tag k="place" v="islet" />
		<tag k="ssr:stedsnr" v="515662" />
	</node>
	<node id="-279422" lat="58.4369222215" lon="8.79878333978">
		<tag k="name" v="Klomra" />
		<tag k="natural" v="bay" />
		<tag k="ssr:stedsnr" v="515644" />
	</node>
	<node id="-279420" lat="58.4432833362" lon="8.81359166351">
		<tag k="name" v="Storengbukta" />
		<tag k="natural" v="bay" />
		<tag k="ssr:stedsnr" v="515627" />
	</node>
	<node id="-279410" lat="58.4237361091" lon="8.81105833001">
		<tag k="name" v="Holla" />
		<tag k="natural" v="bay" />
		<tag k="ssr:stedsnr" v="515535" />
	</node>
	<node id="-279409" lat="58.4270305583" lon="8.81416110262">
		<tag k="fixme" v="consider seamark:type=rock or natural=shoal" />
		<tag k="name" v="Bakkoppskjær" />
		<tag k="place" v="islet" />
		<tag k="ssr:stedsnr" v="515527" />
	</node>
	<node id="-279408" lat="58.4230416662" lon="8.79164444915">
		<tag k="fixme" v="consider seamark:type=rock or natural=shoal" />
		<tag k="name" v="Ringeskjær" />
		<tag k="place" v="islet" />
		<tag k="ssr:stedsnr" v="515523" />
	</node>
	<node id="-279385" lat="58.4745916656" lon="8.90341111885">
		<tag k="fixme" v="consider seamark:type=rock or natural=shoal" />
		<tag k="name" v="Sankt Helena" />
		<tag k="place" v="islet" />
		<tag k="ssr:stedsnr" v="515368" />
	</node>
	<node id="-280449" lat="58.5115277742" lon="8.96829999563">
		<tag k="name" v="Svartskjærbåen" />
		<tag k="place" v="locality" />
		<tag k="seamark:type" v="rock" />
		<tag k="ssr:stedsnr" v="876253" />
	</node>
	<node id="-279379" lat="58.4651055593" lon="8.83005554704">
		<tag k="name" v="Ubekilen" />
		<tag k="natural" v="bay" />
		<tag k="ssr:stedsnr" v="515316" />
	</node>
	<node id="-279378" lat="58.4728222194" lon="8.84301666045">
		<tag k="name" v="Lyngholmen" />
		<tag k="place" v="islet" />
		<tag k="ssr:stedsnr" v="515315" />
	</node>
	<node id="-279374" lat="58.470947221" lon="8.89473055313">
		<tag k="name" v="Halvholmen" />
		<tag k="natural" v="cape" />
		<tag k="ssr:stedsnr" v="515279" />
	</node>
	<node id="-279371" lat="58.5396805593" lon="8.98088611017">
		<tag k="fixme" v="consider seamark:type=rock or natural=shoal" />
		<tag k="name" v="V. og Ø. Ringskjær" />
		<tag k="place" v="islet" />
		<tag k="ssr:stedsnr" v="515246" />
	</node>
	<node id="-279366" lat="58.4031583346" lon="8.7326444469">
		<tag k="name" v="Sven Johnsens holmer" />
		<tag k="place" v="islet" />
		<tag k="ssr:stedsnr" v="515220" />
	</node>
	<node id="-279363" lat="58.5224750029" lon="8.89865277579">
		<tag k="name" v="Store Klokkøya" />
		<tag k="place" v="islet" />
		<tag k="ssr:stedsnr" v="515195" />
	</node>
	<node id="-279362" lat="58.5194027806" lon="8.90074721893">
		<tag k="name" v="Værholmen" />
		<tag k="place" v="islet" />
		<tag k="ssr:stedsnr" v="515182" />
	</node>
	<node id="-279360" lat="58.5276916711" lon="8.9035333393">
		<tag k="name" v="Østrebukt" />
		<tag k="natural" v="bay" />
		<tag k="ssr:stedsnr" v="515175" />
	</node>
	<node id="-279359" lat="58.512786112" lon="8.94412221849">
		<tag k="name" v="Revsholmen" />
		<tag k="place" v="islet" />
		<tag k="ssr:stedsnr" v="515173" />
	</node>
	<node id="-279355" lat="58.5077611081" lon="8.94516110905">
		<tag k="name" v="Skorsteinsbukta" />
		<tag k="natural" v="bay" />
		<tag k="ssr:stedsnr" v="515157" />
	</node>
	<node id="-279339" lat="58.5438361122" lon="8.95169166937">
		<tag k="name" v="Blekestrandfjorden" />
		<tag k="natural" v="bay" />
		<tag k="ssr:stedsnr" v="514273" />
	</node>
	<node id="-279338" lat="58.5546249996" lon="8.99781389244">
		<tag k="name" v="Hølen" />
		<tag k="natural" v="bay" />
		<tag k="ssr:stedsnr" v="514234" />
	</node>
	<node id="-279337" lat="58.5334111095" lon="8.99460833351">
		<tag k="name" v="Kalvøybrotta" />
		<tag k="natural" v="shoal" />
		<tag k="place" v="locality" />
		<tag k="ssr:stedsnr" v="513321" />
	</node>
	<node id="-279336" lat="58.5357916636" lon="8.98634444184">
		<tag k="fixme" v="consider seamark:type=rock or natural=shoal" />
		<tag k="name" v="Renneskjær" />
		<tag k="place" v="islet" />
		<tag k="ssr:stedsnr" v="513318" />
	</node>
	<node id="-279335" lat="58.5527916683" lon="9.00175278127">
		<tag k="name" v="Klåholmen" />
		<tag k="place" v="islet" />
		<tag k="ssr:stedsnr" v="513314" />
	</node>
	<node id="-279334" lat="58.5602999968" lon="9.01888888234">
		<tag k="fixme" v="consider seamark:type=rock or natural=shoal" />
		<tag k="name" v="Selskjær" />
		<tag k="place" v="islet" />
		<tag k="ssr:stedsnr" v="513312" />
	</node>
	<node id="-279332" lat="58.5145499979" lon="8.95104721649">
		<tag k="name" v="Almebåen" />
		<tag k="place" v="locality" />
		<tag k="seamark:type" v="rock" />
		<tag k="ssr:stedsnr" v="513295" />
	</node>
	<node id="-279331" lat="58.4180722192" lon="8.7599749929">
		<tag k="fixme" v="consider seamark:type=rock or natural=shoal" />
		<tag k="name" v="Rødskjær" />
		<tag k="place" v="islet" />
		<tag k="ssr:stedsnr" v="512780" />
	</node>
	<node id="-279330" lat="58.4533927482" lon="8.75578098369">
		<tag k="name" v="Terneholmen" />
		<tag k="place" v="islet" />
		<tag k="ssr:stedsnr" v="512778" />
	</node>
	<node id="-279329" lat="58.4222944429" lon="8.72918055151">
		<tag k="name" v="Rossøya" />
		<tag k="place" v="islet" />
		<tag k="ssr:stedsnr" v="512774" />
	</node>
	<node id="-279328" lat="58.4493666702" lon="8.77692777037">
		<tag k="name" v="Galten" />
		<tag k="place" v="islet" />
		<tag k="ssr:stedsnr" v="512766" />
	</node>
	<node id="-279326" lat="58.422205558" lon="8.75655556325">
		<tag k="name" v="Terneholmen" />
		<tag k="place" v="islet" />
		<tag k="ssr:stedsnr" v="512743" />
	</node>
	<node id="-279325" lat="58.5509583365" lon="8.97396943677">
		<tag k="name" v="Strømsund" />
		<tag k="natural" v="strait" />
		<tag k="ssr:stedsnr" v="512328" />
	</node>
	<node id="-279324" lat="58.4788055521" lon="8.8499444514">
		<tag k="name" v="Terneholmen" />
		<tag k="place" v="islet" />
		<tag k="ssr:stedsnr" v="512313" />
	</node>
	<node id="-279323" lat="58.4720638887" lon="8.79920833402">
		<tag k="name" v="Songekilen" />
		<tag k="natural" v="bay" />
		<tag k="ssr:stedsnr" v="512306" />
	</node>
	<node id="-279322" lat="58.5495055596" lon="9.00132222909">
		<tag k="fixme" v="consider seamark:type=rock or natural=shoal" />
		<tag k="name" v="Indre Teineskjær" />
		<tag k="place" v="islet" />
		<tag k="ssr:stedsnr" v="512289" />
	</node>
	<node id="-279307" lat="58.5166694457" lon="8.92312500106">
		<tag k="name" v="Dalsholmen" />
		<tag k="place" v="islet" />
		<tag k="ssr:stedsnr" v="486191" />
	</node>
	<node id="-279293" lat="58.4074083368" lon="8.74560278223">
		<tag k="alt_name" v="Skjellbergholmene;Skjelbergholmane" />
		<tag k="name" v="Skjelbergholmene" />
		<tag k="place" v="islet" />
		<tag k="ssr:stedsnr" v="485496" />
	</node>
	<node id="-279291" lat="58.4617147253" lon="8.84683021863">
		<tag k="alt_name" v="Tromøy" />
		<tag k="name" v="Tromøya" />
		<tag k="place" v="island" />
		<tag k="ssr:stedsnr" v="485945" />
	</node>
	<node id="-279288" lat="58.4744444407" lon="8.91207777752">
		<tag k="alt_name" v="Tromlinga" />
		<tag k="name" v="Tromlingene" />
		<tag k="place" v="island" />
		<tag k="ssr:stedsnr" v="485935" />
	</node>
	<node id="-279284" lat="58.4899333366" lon="8.95283054934">
		<tag k="name" v="Rossbåen" />
		<tag k="place" v="locality" />
		<tag k="seamark:type" v="rock" />
		<tag k="ssr:stedsnr" v="485903" />
	</node>
	<node id="-279283" lat="58.5835749998" lon="8.97631389381">
		<tag k="name" v="Øytangen" />
		<tag k="natural" v="cape" />
		<tag k="ssr:stedsnr" v="485083" />
	</node>
	<node id="-279282" lat="58.4704222203" lon="8.82566944578">
		<tag k="name" v="Sauholmene" />
		<tag k="place" v="islet" />
		<tag k="ssr:stedsnr" v="481044" />
	</node>
	<node id="-279252" lat="58.5602944485" lon="9.00231943756">
		<tag k="name" v="Korporalsund" />
		<tag k="natural" v="strait" />
		<tag k="ssr:stedsnr" v="454791" />
	</node>
	<node id="-279233" lat="58.4385555562" lon="8.7875805555">
		<tag k="name" v="Torjusholmen" />
		<tag k="natural" v="cape" />
		<tag k="ssr:stedsnr" v="454671" />
	</node>
	<node id="-279231" lat="58.4362611107" lon="8.78756666593">
		<tag k="fixme" v="consider seamark:type=rock or natural=shoal" />
		<tag k="name" v="Vestre Nabbeskjær" />
		<tag k="place" v="islet" />
		<tag k="ssr:stedsnr" v="454656" />
	</node>
	<node id="-279230" lat="58.4324805595" lon="8.79255278513">
		<tag k="fixme" v="consider seamark:type=rock or natural=shoal" />
		<tag k="name" v="Jordbærholmen" />
		<tag k="place" v="islet" />
		<tag k="ssr:stedsnr" v="454654" />
	</node>
	<node id="-279229" lat="58.4366472267" lon="8.78981388661">
		<tag k="fixme" v="consider seamark:type=rock or natural=shoal" />
		<tag k="name" v="Østre Nabbeskjær" />
		<tag k="place" v="islet" />
		<tag k="ssr:stedsnr" v="454652" />
	</node>
	<node id="-279228" lat="58.4447361075" lon="8.81662223057">
		<tag k="name" v="Slåttøya" />
		<tag k="natural" v="cape" />
		<tag k="ssr:stedsnr" v="454638" />
	</node>
	<node id="-279224" lat="58.4532861104" lon="8.77246388947">
		<tag k="name" v="Sperreviga" />
		<tag k="natural" v="bay" />
		<tag k="ssr:stedsnr" v="454614" />
	</node>
	<node id="-279223" lat="58.4544638845" lon="8.77133334094">
		<tag k="name" v="Tangen" />
		<tag k="natural" v="cape" />
		<tag k="ssr:stedsnr" v="454610" />
	</node>
	<node id="-279220" lat="58.459711108" lon="8.76811944798">
		<tag k="name" v="Pollen" />
		<tag k="natural" v="bay" />
		<tag k="ssr:stedsnr" v="454579" />
	</node>
	<node id="-279218" lat="58.420849998" lon="8.7789944484">
		<tag k="name" v="Røverhola" />
		<tag k="natural" v="bay" />
		<tag k="ssr:stedsnr" v="454559" />
	</node>
	<node id="-279217" lat="58.426136112" lon="8.7944222268">
		<tag k="name" v="Gravene steina" />
		<tag k="natural" v="beach" />
		<tag k="place" v="locality" />
		<tag k="ssr:stedsnr" v="454556" />
	</node>
	<node id="-279216" lat="58.4305583372" lon="8.81483889368">
		<tag k="fixme" v="consider seamark:type=rock or natural=shoal" />
		<tag k="name" v="Gjessøyskjæret" />
		<tag k="place" v="islet" />
		<tag k="ssr:stedsnr" v="454554" />
	</node>
	<node id="-279215" lat="58.420605554" lon="8.77964445075">
		<tag k="name" v="Karensholmen" />
		<tag k="place" v="islet" />
		<tag k="ssr:stedsnr" v="454553" />
	</node>
	<node id="-279202" lat="58.4886527788" lon="8.84341944776">
		<tag k="name" v="Saltrødbukta" />
		<tag k="natural" v="bay" />
		<tag k="ssr:stedsnr" v="454395" />
	</node>
	<node id="-279200" lat="58.4829222242" lon="8.91262500005">
		<tag k="name" v="Bådholla" />
		<tag k="natural" v="bay" />
		<tag k="ssr:stedsnr" v="454388" />
	</node>
	<node id="-279196" lat="58.4774944435" lon="8.91121111114">
		<tag k="name" v="Vestre Buholmbukta" />
		<tag k="natural" v="bay" />
		<tag k="ssr:stedsnr" v="454371" />
	</node>
	<node id="-279191" lat="58.4615138865" lon="8.85095833681">
		<tag k="name" v="Fislevig" />
		<tag k="natural" v="bay" />
		<tag k="ssr:stedsnr" v="454316" />
	</node>
	<node id="-279188" lat="58.4890749956" lon="8.86939999421">
		<tag k="name" v="Dybdalsbukta" />
		<tag k="natural" v="bay" />
		<tag k="ssr:stedsnr" v="454292" />
	</node>
	<node id="-279187" lat="58.4451861088" lon="8.86456944637">
		<tag k="name" v="Lillespornes" />
		<tag k="natural" v="cape" />
		<tag k="ssr:stedsnr" v="454286" />
	</node>
	<node id="-279182" lat="58.4050944488" lon="8.71020555566">
		<tag k="name" v="Mauås" />
		<tag k="natural" v="bay" />
		<tag k="ssr:stedsnr" v="454252" />
	</node>
	<node id="-279181" lat="58.5571694407" lon="8.97082500386">
		<tag k="name" v="Staubøfjorden" />
		<tag k="natural" v="bay" />
		<tag k="ssr:stedsnr" v="454250" />
	</node>
	<node id="-279180" lat="58.4101805572" lon="8.73646111238">
		<tag k="name" v="Ytre Skallviga" />
		<tag k="natural" v="bay" />
		<tag k="ssr:stedsnr" v="454251" />
	</node>
	<node id="-279177" lat="58.5379777735" lon="8.97565555871">
		<tag k="name" v="Skjøllvika" />
		<tag k="natural" v="bay" />
		<tag k="ssr:stedsnr" v="454222" />
	</node>
	<node id="-279173" lat="58.5314666669" lon="8.91881665995">
		<tag k="name" v="Tjuvholla" />
		<tag k="natural" v="bay" />
		<tag k="ssr:stedsnr" v="454187" />
	</node>
	<node id="-279168" lat="58.52508056" lon="8.89714443901">
		<tag k="name" v="Sødderholmen" />
		<tag k="place" v="islet" />
		<tag k="ssr:stedsnr" v="454168" />
	</node>
	<node id="-279166" lat="58.5279722189" lon="8.91135833265">
		<tag k="name" v="Ørna" />
		<tag k="place" v="islet" />
		<tag k="ssr:stedsnr" v="454161" />
	</node>
	<node id="-279151" lat="58.5057583308" lon="8.88702777687">
		<tag k="name" v="Pinseholmen" />
		<tag k="place" v="islet" />
		<tag k="ssr:stedsnr" v="454047" />
	</node>
	<node id="-279150" lat="58.5084555524" lon="8.89314166935">
		<tag k="name" v="Indre Stølen" />
		<tag k="natural" v="bay" />
		<tag k="ssr:stedsnr" v="454044" />
	</node>
	<node id="-279145" lat="58.5268916695" lon="9.00841389254">
		<tag k="name" v="Dalsgrunnen" />
		<tag k="natural" v="shoal" />
		<tag k="place" v="locality" />
		<tag k="ssr:stedsnr" v="453315" />
	</node>
	<node id="-279144" lat="58.5614416653" lon="8.99793611916">
		<tag k="name" v="Store Havneholmen" />
		<tag k="place" v="islet" />
		<tag k="ssr:stedsnr" v="452318" />
	</node>
	<node id="-279143" lat="58.541241669" lon="8.9859666613">
		<tag k="name" v="Krøgleholmen" />
		<tag k="place" v="islet" />
		<tag k="ssr:stedsnr" v="452280" />
	</node>
	<node id="-279142" lat="58.5099000042" lon="8.96107500719">
		<tag k="name" v="Svartskjærgrunnen" />
		<tag k="natural" v="shoal" />
		<tag k="place" v="locality" />
		<tag k="ssr:stedsnr" v="452248" />
	</node>
	<node id="-279140" lat="58.4048805567" lon="8.73793889505">
		<tag k="name" v="Badstuholmen" />
		<tag k="place" v="islet" />
		<tag k="ssr:stedsnr" v="451768" />
	</node>
	<node id="-279138" lat="58.4105888867" lon="8.81217222939">
		<tag k="name" v="Makrellbåen" />
		<tag k="place" v="locality" />
		<tag k="seamark:type" v="rock" />
		<tag k="ssr:stedsnr" v="451727" />
	</node>
	<node id="-279137" lat="58.4348583349" lon="8.82728333787">
		<tag k="name" v="Hoveodden" />
		<tag k="natural" v="cape" />
		<tag k="ssr:stedsnr" v="451710" />
	</node>
	<node id="-279134" lat="58.3979166655" lon="8.72770833396">
		<tag k="fixme" v="consider seamark:type=rock or natural=shoal" />
		<tag k="name" v="Målen" />
		<tag k="place" v="islet" />
		<tag k="ssr:stedsnr" v="480163" />
	</node>
	<node id="-279131" lat="58.5727138882" lon="8.96873888289">
		<tag k="bay" v="fjord" />
		<tag k="name" v="Eikelandsfjorden" />
		<tag k="natural" v="bay" />
		<tag k="ssr:stedsnr" v="426289" />
	</node>
	<node id="-279126" lat="58.4582249955" lon="8.90162778106">
		<tag k="fixme" v="consider seamark:type=rock or natural=shoal" />
		<tag k="name" v="Tallaken" />
		<tag k="place" v="islet" />
		<tag k="ssr:stedsnr" v="425929" />
	</node>
	<node id="-278626" lat="58.437522224" lon="8.81180554829">
		<tag k="name" v="Sildevig" />
		<tag k="natural" v="bay" />
		<tag k="ssr:stedsnr" v="90607" />
	</node>
	<node id="-279103" lat="58.4381111109" lon="8.78679723078">
		<tag k="alt_name" v="Vaskskjær" />
		<tag k="fixme" v="consider seamark:type=rock or natural=shoal" />
		<tag k="name" v="Vaskjær" />
		<tag k="place" v="islet" />
		<tag k="ssr:stedsnr" v="421942" />
	</node>
	<node id="-279101" lat="58.472913886" lon="8.90428333413">
		<tag k="name" v="Basebukta" />
		<tag k="natural" v="bay" />
		<tag k="ssr:stedsnr" v="419025" />
	</node>
	<node id="-279081" lat="58.4216888877" lon="8.73618610783">
		<tag k="name" v="Ramsøya" />
		<tag k="place" v="islet" />
		<tag k="ssr:stedsnr" v="243579" />
	</node>
	<node id="-279080" lat="58.4118861079" lon="8.79289167342">
		<tag k="alt_name" v="Torungen, in" />
		<tag k="name" v="Lille Torungen" />
		<tag k="place" v="islet" />
		<tag k="ssr:stedsnr" v="243559" />
	</node>
	<node id="-279078" lat="58.513419441" lon="8.89911667224">
		<tag k="name" v="Furuholmen" />
		<tag k="place" v="islet" />
		<tag k="ssr:stedsnr" v="243188" />
	</node>
	<node id="-279077" lat="58.5071444424" lon="8.94015832574">
		<tag k="alt_name" v="Gitmertangen" />
		<tag k="name" v="Gitmartangen" />
		<tag k="natural" v="cape" />
		<tag k="ssr:stedsnr" v="243183" />
	</node>
	<node id="-279076" lat="58.4439264255" lon="8.86815410717">
		<tag k="alt_name" v="Svarteskjær" />
		<tag k="fixme" v="consider seamark:type=rock or natural=shoal" />
		<tag k="name" v="Svartskjer" />
		<tag k="place" v="islet" />
		<tag k="ssr:stedsnr" v="242927" />
	</node>
	<node id="-279072" lat="58.4557249962" lon="8.78622778446">
		<tag k="name" v="Grunnesundsbukta" />
		<tag k="natural" v="bay" />
		<tag k="ssr:stedsnr" v="238004" />
	</node>
	<node id="-278618" lat="58.4532861134" lon="8.75316389168">
		<tag k="name" v="Strømsbuneset" />
		<tag k="natural" v="cape" />
		<tag k="ssr:stedsnr" v="90536" />
	</node>
	<node id="-278617" lat="58.4195999967" lon="8.7745472282">
		<tag k="name" v="Vestre Breidbukta" />
		<tag k="natural" v="bay" />
		<tag k="ssr:stedsnr" v="90523" />
	</node>
	<node id="-278616" lat="58.4287833354" lon="8.81075833717">
		<tag k="name" v="Østergap" />
		<tag k="natural" v="strait" />
		<tag k="ssr:stedsnr" v="90519" />
	</node>
	<node id="-280097" lat="58.5587722224" lon="8.99819445001">
		<tag k="name" v="Lilleholmen" />
		<tag k="place" v="islet" />
		<tag k="ssr:stedsnr" v="757192" />
	</node>
	<node id="-278615" lat="58.4253277768" lon="8.81033889204">
		<tag k="name" v="Laksebergbukta" />
		<tag k="natural" v="bay" />
		<tag k="ssr:stedsnr" v="90515" />
	</node>
	<node id="-279033" lat="58.5729249966" lon="8.96353888458">
		<tag k="name" v="Lillesund" />
		<tag k="natural" v="strait" />
		<tag k="ssr:stedsnr" v="212764" />
	</node>
	<node id="-279018" lat="58.4383472247" lon="8.78851667482">
		<tag k="alt_name" v="Ytterbukta" />
		<tag k="name" v="Yderbukt" />
		<tag k="natural" v="bay" />
		<tag k="ssr:stedsnr" v="212640" />
	</node>
	<node id="-279633" lat="58.5636916669" lon="8.99994166123">
		<tag k="bay" v="fjord" />
		<tag k="name" v="Buskjærfjorden" />
		<tag k="natural" v="bay" />
		<tag k="ssr:stedsnr" v="575741" />
	</node>
	<node id="-279012" lat="58.4229055579" lon="8.77374444836">
		<tag k="name" v="Havsøysundet" />
		<tag k="natural" v="strait" />
		<tag k="ssr:stedsnr" v="212538" />
	</node>
	<node id="-279010" lat="58.4226777752" lon="8.80255278083">
		<tag k="name" v="Lille havn" />
		<tag k="natural" v="bay" />
		<tag k="ssr:stedsnr" v="212526" />
	</node>
	<node id="-278999" lat="58.4981111105" lon="8.85951388766">
		<tag k="fixme" v="consider seamark:type=rock or natural=shoal" />
		<tag k="name" v="Nesskjæra" />
		<tag k="place" v="islet" />
		<tag k="ssr:stedsnr" v="212444" />
	</node>
	<node id="-278984" lat="58.4819999974" lon="8.84021943855">
		<tag k="name" v="Breiungen" />
		<tag k="natural" v="strait" />
		<tag k="ssr:stedsnr" v="212362" />
	</node>
	<node id="-278972" lat="58.4548249957" lon="8.88895833271">
		<tag k="fixme" v="consider seamark:type=rock or natural=shoal" />
		<tag k="name" v="Lakseskjær" />
		<tag k="place" v="islet" />
		<tag k="ssr:stedsnr" v="212289" />
	</node>
	<node id="-278969" lat="58.4880055589" lon="8.85613888904">
		<tag k="name" v="Gallevika" />
		<tag k="natural" v="bay" />
		<tag k="ssr:stedsnr" v="212260" />
	</node>
	<node id="-278966" lat="58.4058638911" lon="8.71226388667">
		<tag k="name" v="Indre Skauholmen" />
		<tag k="place" v="islet" />
		<tag k="ssr:stedsnr" v="212245" />
	</node>
	<node id="-278961" lat="58.4105749985" lon="8.71763888237">
		<tag k="name" v="Gretesholmen" />
		<tag k="place" v="islet" />
		<tag k="ssr:stedsnr" v="212214" />
	</node>
	<node id="-278957" lat="58.5222444422" lon="8.89006944964">
		<tag k="name" v="Hestøya" />
		<tag k="place" v="island" />
		<tag k="ssr:stedsnr" v="212184" />
	</node>
	<node id="-278950" lat="58.5459777772" lon="8.98602778514">
		<tag k="name" v="Ulvika" />
		<tag k="natural" v="bay" />
		<tag k="ssr:stedsnr" v="212146" />
	</node>
	<node id="-278942" lat="58.5368861087" lon="8.93313610643">
		<tag k="name" v="Langesand" />
		<tag k="natural" v="beach" />
		<tag k="place" v="locality" />
		<tag k="ssr:stedsnr" v="212080" />
	</node>
	<node id="-278936" lat="58.4990333327" lon="8.93266389683">
		<tag k="name" v="Klevsund" />
		<tag k="natural" v="strait" />
		<tag k="ssr:stedsnr" v="212038" />
	</node>
	<node id="-278928" lat="58.5546694453" lon="9.00511944885">
		<tag k="name" v="Rundholmen" />
		<tag k="place" v="islet" />
		<tag k="ssr:stedsnr" v="211204" />
	</node>
	<node id="-278927" lat="58.5304388855" lon="9.00408611583">
		<tag k="name" v="Bondedypet" />
		<tag k="place" v="locality" />
		<tag k="ssr:stedsnr" v="210321" />
	</node>
	<node id="-278926" lat="58.5434805556" lon="8.99792222926">
		<tag k="name" v="Fjordbåen" />
		<tag k="place" v="locality" />
		<tag k="seamark:type" v="rock" />
		<tag k="ssr:stedsnr" v="210311" />
	</node>
	<node id="-278925" lat="58.4518916684" lon="8.77274722981">
		<tag k="name" v="Geideholmen" />
		<tag k="place" v="islet" />
		<tag k="ssr:stedsnr" v="209761" />
	</node>
	<node id="-278924" lat="58.4653123854" lon="8.82985386474">
		<tag k="name" v="Gjerstadkilen" />
		<tag k="natural" v="bay" />
		<tag k="ssr:stedsnr" v="209748" />
	</node>
	<node id="-278923" lat="58.3864527764" lon="8.78832222077">
		<tag k="name" v="Heksebåen" />
		<tag k="place" v="locality" />
		<tag k="seamark:type" v="rock" />
		<tag k="ssr:stedsnr" v="209682" />
	</node>
	<node id="-278921" lat="58.494380554" lon="8.84174444051">
		<tag k="name" v="Mørfjærkilen" />
		<tag k="natural" v="bay" />
		<tag k="ssr:stedsnr" v="209303" />
	</node>
	<node id="-278920" lat="58.5028500023" lon="8.95976111672">
		<tag k="name" v="Vestre Fladen" />
		<tag k="natural" v="shoal" />
		<tag k="place" v="locality" />
		<tag k="ssr:stedsnr" v="209277" />
	</node>
	<node id="-278916" lat="58.4128166682" lon="8.7414222162">
		<tag k="name" v="Hesvika" />
		<tag k="natural" v="bay" />
		<tag k="ssr:stedsnr" v="204194" />
	</node>
	<node id="-278902" lat="58.4544555552" lon="8.88688332622">
		<tag k="fixme" v="consider seamark:type=rock or natural=shoal" />
		<tag k="name" v="Bjellandskjera" />
		<tag k="place" v="islet" />
		<tag k="ssr:stedsnr" v="182918" />
	</node>
	<node id="-278882" lat="58.4145333337" lon="8.73002777724">
		<tag k="name" v="Gjervoldsøy" />
		<tag k="place" v="island" />
		<tag k="ssr:stedsnr" v="182561" />
	</node>
	<node id="-278878" lat="58.4545249987" lon="8.76748888652">
		<tag k="name" v="Kolbjørnsvikbukta" />
		<tag k="natural" v="bay" />
		<tag k="ssr:stedsnr" v="178780" />
	</node>
	<node id="-278876" lat="58.5379472212" lon="8.9941944467">
		<tag k="fixme" v="consider seamark:type=rock or natural=shoal" />
		<tag k="name" v="Indre Møkkalasset" />
		<tag k="place" v="islet" />
		<tag k="ssr:stedsnr" v="177107" />
	</node>
	<node id="-278874" lat="58.4599083357" lon="8.78584165983">
		<tag k="name" v="Pusnesbukta" />
		<tag k="natural" v="bay" />
		<tag k="ssr:stedsnr" v="177003" />
	</node>
	<node id="-278860" lat="58.5383638882" lon="8.98067500738">
		<tag k="name" v="Koddesund" />
		<tag k="natural" v="strait" />
		<tag k="ssr:stedsnr" v="151825" />
	</node>
	<node id="-278852" lat="58.5720305571" lon="8.96641666485">
		<tag k="fixme" v="consider seamark:type=rock or natural=shoal" />
		<tag k="name" v="Selskjæra" />
		<tag k="place" v="islet" />
		<tag k="ssr:stedsnr" v="151770" />
	</node>
	<node id="-278847" lat="58.4404916678" lon="8.78629166897">
		<tag k="loc_name" v="Iankersbakke" />
		<tag k="name" v="Jankesbakke" />
		<tag k="natural" v="cape" />
		<tag k="ssr:stedsnr" v="151655" />
	</node>
	<node id="-278835" lat="58.4233555519" lon="8.78390834103">
		<tag k="name" v="Havsøyfjorden" />
		<tag k="natural" v="strait" />
		<tag k="ssr:stedsnr" v="151536" />
	</node>
	<node id="-278832" lat="58.4234138848" lon="8.79219722752">
		<tag k="name" v="Lillesand" />
		<tag k="natural" v="bay" />
		<tag k="ssr:stedsnr" v="151524" />
	</node>
	<node id="-278827" lat="58.496852778" lon="8.8662500069">
		<tag k="name" v="Stranda" />
		<tag k="natural" v="beach" />
		<tag k="place" v="locality" />
		<tag k="ssr:stedsnr" v="151468" />
	</node>
	<node id="-278820" lat="58.4742305562" lon="8.91476388732">
		<tag k="name" v="Øybukta" />
		<tag k="natural" v="bay" />
		<tag k="ssr:stedsnr" v="151380" />
	</node>
	<node id="-279942" lat="58.4891944471" lon="8.8586333415">
		<tag k="name" v="Trulsholla" />
		<tag k="natural" v="bay" />
		<tag k="ssr:stedsnr" v="697291" />
	</node>
	<node id="-278818" lat="58.4811583289" lon="8.92057500806">
		<tag k="name" v="Østre Tangva" />
		<tag k="natural" v="bay" />
		<tag k="ssr:stedsnr" v="151368" />
	</node>
	<node id="-278812" lat="58.4545500034" lon="8.88603054707">
		<tag k="fixme" v="consider seamark:type=rock or natural=shoal" />
		<tag k="name" v="Mågeskjær" />
		<tag k="place" v="islet" />
		<tag k="ssr:stedsnr" v="151308" />
	</node>
	<node id="-278811" lat="58.4585611096" lon="8.90133888142">
		<tag k="name" v="Store Tallagen" />
		<tag k="place" v="locality" />
		<tag k="seamark:type" v="rock" />
		<tag k="ssr:stedsnr" v="151303" />
	</node>
	<node id="-278810" lat="58.4461111114" lon="8.82720278206">
		<tag k="name" v="Flangeborgholmen" />
		<tag k="place" v="islet" />
		<tag k="ssr:stedsnr" v="151297" />
	</node>
	<node id="-278808" lat="58.4948999976" lon="8.85719722313">
		<tag k="name" v="Møllebukta" />
		<tag k="natural" v="bay" />
		<tag k="ssr:stedsnr" v="151279" />
	</node>
	<node id="-277892" lat="58.4956583359" lon="8.92444722188">
		<tag k="name" v="Sandviga" />
		<tag k="natural" v="bay" />
		<tag k="ssr:stedsnr" v="299134" />
	</node>
	<node id="-278806" lat="58.4500916673" lon="8.75009165884">
		<tag k="name" v="Hansnes" />
		<tag k="natural" v="cape" />
		<tag k="ssr:stedsnr" v="151255" />
	</node>
	<node id="-278805" lat="58.5446944457" lon="8.98138610451">
		<tag k="name" v="Brårvikkilen" />
		<tag k="natural" v="bay" />
		<tag k="ssr:stedsnr" v="151250" />
	</node>
	<node id="-278797" lat="58.5220444428" lon="8.93054722465">
		<tag k="name" v="Skibeholmen" />
		<tag k="place" v="islet" />
		<tag k="ssr:stedsnr" v="151202" />
	</node>
	<node id="-278796" lat="58.5225611106" lon="8.89347500126">
		<tag k="name" v="Stensholmen" />
		<tag k="place" v="islet" />
		<tag k="ssr:stedsnr" v="151188" />
	</node>
	<node id="-278794" lat="58.5399611151" lon="8.98662500739">
		<tag k="fixme" v="consider seamark:type=rock or natural=shoal" />
		<tag k="name" v="Kalvøyskjæra" />
		<tag k="place" v="islet" />
		<tag k="ssr:stedsnr" v="151162" />
	</node>
	<node id="-278793" lat="58.5060027799" lon="8.94365277504">
		<tag k="name" v="Skjeggerota" />
		<tag k="natural" v="bay" />
		<tag k="ssr:stedsnr" v="151157" />
	</node>
	<node id="-278572" lat="58.5317138916" lon="8.93614999838">
		<tag k="name" v="Flosternes" />
		<tag k="natural" v="cape" />
		<tag k="ssr:stedsnr" v="90184" />
	</node>
	<node id="-278571" lat="58.403172221" lon="8.71651388768">
		<tag k="name" v="Båsen" />
		<tag k="place" v="islet" />
		<tag k="ssr:stedsnr" v="90177" />
	</node>
	<node id="-278784" lat="58.5189194431" lon="8.86938055375">
		<tag k="name" v="Tangen" />
		<tag k="natural" v="cape" />
		<tag k="ssr:stedsnr" v="151114" />
	</node>
	<node id="-278782" lat="58.5240194475" lon="8.90212500451">
		<tag k="name" v="Lille Klokkøya" />
		<tag k="place" v="islet" />
		<tag k="ssr:stedsnr" v="151092" />
	</node>
	<node id="-280829" lat="58.491711111" lon="8.91735277581">
		<tag k="name" v="Skarkilen" />
		<tag k="natural" v="bay" />
		<tag k="ssr:stedsnr" v="966145" />
	</node>
	<node id="-280828" lat="58.4209944461" lon="8.76093055483">
		<tag k="fixme" v="consider seamark:type=rock or natural=shoal" />
		<tag k="name" v="Svarteskjær" />
		<tag k="place" v="islet" />
		<tag k="ssr:stedsnr" v="965223" />
	</node>
	<node id="-278779" lat="58.5097555533" lon="8.88743055713">
		<tag k="name" v="Hamnevollneset" />
		<tag k="natural" v="cape" />
		<tag k="ssr:stedsnr" v="151070" />
	</node>
	<node id="-278778" lat="58.5124166691" lon="8.90045555725">
		<tag k="name" v="Skarsholmen" />
		<tag k="place" v="islet" />
		<tag k="ssr:stedsnr" v="151057" />
	</node>
	<node id="-278777" lat="58.5163277767" lon="8.89711388444">
		<tag k="name" v="Skrinodden" />
		<tag k="natural" v="cape" />
		<tag k="ssr:stedsnr" v="151058" />
	</node>
	<node id="-280812" lat="58.4778055584" lon="8.81978333207">
		<tag k="name" v="Dyviga" />
		<tag k="natural" v="bay" />
		<tag k="ssr:stedsnr" v="940954" />
	</node>
	<node id="-280615" lat="58.4416138865" lon="8.82129167239">
		<tag k="name" v="St.Helena" />
		<tag k="place" v="islet" />
		<tag k="ssr:stedsnr" v="905021" />
	</node>
	<node id="-278749" lat="58.467322218" lon="8.8771111117">
		<tag k="name" v="Skibernes" />
		<tag k="natural" v="cape" />
		<tag k="ssr:stedsnr" v="150723" />
	</node>
	<node id="-278739" lat="58.4701055522" lon="8.89942777701">
		<tag k="name" v="Ytre Vonholla" />
		<tag k="natural" v="bay" />
		<tag k="ssr:stedsnr" v="150305" />
	</node>
	<node id="-278738" lat="58.4501472214" lon="8.87407499674">
		<tag k="name" v="Listranda" />
		<tag k="natural" v="beach" />
		<tag k="place" v="locality" />
		<tag k="ssr:stedsnr" v="150281" />
	</node>
	<node id="-278737" lat="58.4487888908" lon="8.87333889286">
		<tag k="name" v="Røykpynten" />
		<tag k="natural" v="cape" />
		<tag k="ssr:stedsnr" v="150280" />
	</node>
	<node id="-280780" lat="58.5789666637" lon="8.97515833839">
		<tag k="fixme" v="consider seamark:type=rock or natural=shoal" />
		<tag k="name" v="Småskjæra" />
		<tag k="place" v="islet" />
		<tag k="ssr:stedsnr" v="940766" />
	</node>
	<node id="-278731" lat="58.53317778" lon="9.01542223046">
		<tag k="name" v="Kirkedypet" />
		<tag k="place" v="locality" />
		<tag k="ssr:stedsnr" v="149275" />
	</node>
	<node id="-280778" lat="58.572122218" lon="8.99200833296">
		<tag k="name" v="Garpvollpynten" />
		<tag k="natural" v="cape" />
		<tag k="ssr:stedsnr" v="940763" />
	</node>
	<node id="-278729" lat="58.5128083376" lon="8.95149444436">
		<tag k="fixme" v="consider seamark:type=rock or natural=shoal" />
		<tag k="name" v="Vestre Svartskjær" />
		<tag k="place" v="islet" />
		<tag k="ssr:stedsnr" v="149240" />
	</node>
	<node id="-280776" lat="58.5714861099" lon="8.95852777017">
		<tag k="name" v="Tustebukilen" />
		<tag k="natural" v="bay" />
		<tag k="ssr:stedsnr" v="940753" />
	</node>
	<node id="-278727" lat="58.4503055519" lon="8.77452222698">
		<tag k="name" v="Sagholmen" />
		<tag k="place" v="islet" />
		<tag k="ssr:stedsnr" v="148730" />
	</node>
	<node id="-278726" lat="58.4563055575" lon="8.77878610735">
		<tag k="fixme" v="consider seamark:type=rock or natural=shoal" />
		<tag k="name" v="Knubben" />
		<tag k="place" v="islet" />
		<tag k="ssr:stedsnr" v="148728" />
	</node>
	<node id="-278724" lat="58.5214583305" lon="8.99948610624">
		<tag k="fixme" v="consider seamark:type=rock or natural=shoal" />
		<tag k="name" v="Molen" />
		<tag k="place" v="islet" />
		<tag k="ssr:stedsnr" v="148345" />
	</node>
	<node id="-278722" lat="58.5232249996" lon="8.97616944875">
		<tag k="name" v="Østre Romlingsbåen" />
		<tag k="place" v="locality" />
		<tag k="seamark:type" v="rock" />
		<tag k="ssr:stedsnr" v="148312" />
	</node>
	<node id="-278721" lat="58.4897222224" lon="8.94226388988">
		<tag k="name" v="Dybingsbåen" />
		<tag k="place" v="locality" />
		<tag k="seamark:type" v="rock" />
		<tag k="ssr:stedsnr" v="148293" />
	</node>
	<node id="-278720" lat="58.5008138893" lon="8.96959722679">
		<tag k="name" v="Meleskjærbåen" />
		<tag k="place" v="locality" />
		<tag k="seamark:type" v="rock" />
		<tag k="ssr:stedsnr" v="148289" />
	</node>
	<node id="-278718" lat="58.5039055533" lon="8.97220277397">
		<tag k="name" v="Lillegrunnen" />
		<tag k="natural" v="shoal" />
		<tag k="place" v="locality" />
		<tag k="ssr:stedsnr" v="148286" />
	</node>
	<node id="-278717" lat="58.4631027739" lon="8.78376667065">
		<tag k="name" v="Flyndra" />
		<tag k="place" v="islet" />
		<tag k="ssr:stedsnr" v="147713" />
	</node>
	<node id="-280764" lat="58.451299999" lon="8.78141944554">
		<tag k="name" v="Skottholmen" />
		<tag k="place" v="islet" />
		<tag k="ssr:stedsnr" v="940638" />
	</node>
	<node id="-280759" lat="58.4461833325" lon="8.82120834112">
		<tag k="fixme" v="consider seamark:type=rock or natural=shoal" />
		<tag k="name" v="Terneholmene" />
		<tag k="place" v="islet" />
		<tag k="ssr:stedsnr" v="940609" />
	</node>
	<node id="-280758" lat="58.4391500045" lon="8.81306389292">
		<tag k="name" v="Bukkevig" />
		<tag k="natural" v="bay" />
		<tag k="ssr:stedsnr" v="940604" />
	</node>
	<node id="-280757" lat="58.4614916662" lon="8.77583889122">
		<tag k="name" v="Barbubukt" />
		<tag k="natural" v="bay" />
		<tag k="ssr:stedsnr" v="940592" />
	</node>
	<node id="-278707" lat="58.5523027763" lon="9.01224166742">
		<tag k="alt_name" v="Måkeskjera" />
		<tag k="name" v="Måkeskjæra" />
		<tag k="place" v="islet" />
		<tag k="ssr:stedsnr" v="122283" />
	</node>
	<node id="-280753" lat="58.4245222234" lon="8.79169722103">
		<tag k="name" v="Bikkjehola" />
		<tag k="natural" v="bay" />
		<tag k="ssr:stedsnr" v="940521" />
	</node>
	<node id="-280752" lat="58.421777774" lon="8.7781972293">
		<tag k="name" v="Østre Breidbukta" />
		<tag k="natural" v="bay" />
		<tag k="ssr:stedsnr" v="940514" />
	</node>
	<node id="-280751" lat="58.4307027773" lon="8.77774444687">
		<tag k="name" v="Grødvighaue" />
		<tag k="natural" v="cape" />
		<tag k="ssr:stedsnr" v="940509" />
	</node>
	<node id="-280750" lat="58.4223444406" lon="8.80201389621">
		<tag k="fixme" v="consider seamark:type=rock or natural=shoal" />
		<tag k="name" v="Lille Svartskjær" />
		<tag k="place" v="islet" />
		<tag k="ssr:stedsnr" v="940508" />
	</node>
	<node id="-278693" lat="58.445699997" lon="8.78042778476">
		<tag k="name" v="Galtesund" />
		<tag k="natural" v="strait" />
		<tag k="ssr:stedsnr" v="121630" />
	</node>
	<node id="-280737" lat="58.4931500038" lon="8.92036111256">
		<tag k="name" v="Glovs" />
		<tag k="natural" v="bay" />
		<tag k="ssr:stedsnr" v="940378" />
	</node>
	<node id="-280735" lat="58.4840833306" lon="8.91184165964">
		<tag k="name" v="Bådvik" />
		<tag k="natural" v="bay" />
		<tag k="ssr:stedsnr" v="940372" />
	</node>
	<node id="-280734" lat="58.4797694425" lon="8.82918889746">
		<tag k="name" v="Stiglevika" />
		<tag k="natural" v="bay" />
		<tag k="ssr:stedsnr" v="940370" />
	</node>
	<node id="-280733" lat="58.4802166702" lon="8.9215138949">
		<tag k="fixme" v="consider seamark:type=rock or natural=shoal" />
		<tag k="name" v="Tangskjæret" />
		<tag k="place" v="islet" />
		<tag k="ssr:stedsnr" v="940364" />
	</node>
	<node id="-280732" lat="58.4780166673" lon="8.92051388525">
		<tag k="name" v="Østre Bagrassen" />
		<tag k="natural" v="cape" />
		<tag k="ssr:stedsnr" v="940351" />
	</node>
	<node id="-280722" lat="58.4430750045" lon="8.83270833645">
		<tag k="name" v="Kaninholmen" />
		<tag k="place" v="islet" />
		<tag k="ssr:stedsnr" v="940286" />
	</node>
	<node id="-280719" lat="58.4885166633" lon="8.85725000428">
		<tag k="name" v="Gallevikodden" />
		<tag k="natural" v="cape" />
		<tag k="ssr:stedsnr" v="940274" />
	</node>
	<node id="-280718" lat="58.4862027811" lon="8.83916111315">
		<tag k="name" v="Lindvika" />
		<tag k="natural" v="bay" />
		<tag k="ssr:stedsnr" v="940270" />
	</node>
	<node id="-280713" lat="58.39958333" lon="8.79294167464">
		<tag k="fixme" v="consider seamark:type=rock or natural=shoal" />
		<tag k="name" v="Torungskjæret" />
		<tag k="place" v="islet" />
		<tag k="ssr:stedsnr" v="940245" />
	</node>
	<node id="-280711" lat="58.5393972233" lon="8.98062500368">
		<tag k="fixme" v="consider seamark:type=rock or natural=shoal" />
		<tag k="name" v="Karenskjær" />
		<tag k="place" v="islet" />
		<tag k="ssr:stedsnr" v="940237" />
	</node>
	<node id="-280706" lat="58.4140722183" lon="8.74011111023">
		<tag k="name" v="Sildeviga" />
		<tag k="natural" v="bay" />
		<tag k="ssr:stedsnr" v="940222" />
	</node>
	<node id="-280704" lat="58.5830499965" lon="8.96857777222">
		<tag k="name" v="Sildevika" />
		<tag k="natural" v="bay" />
		<tag k="ssr:stedsnr" v="940213" />
	</node>
	<node id="-280703" lat="58.407991664" lon="8.72535278473">
		<tag k="name" v="Øytangen" />
		<tag k="natural" v="cape" />
		<tag k="ssr:stedsnr" v="940211" />
	</node>
	<node id="-280698" lat="58.521683334" lon="8.8884861109">
		<tag k="name" v="Latkilen" />
		<tag k="natural" v="bay" />
		<tag k="ssr:stedsnr" v="940191" />
	</node>
	<node id="-280694" lat="58.5008277775" lon="8.93849444515">
		<tag k="name" v="Rossholmen" />
		<tag k="natural" v="cape" />
		<tag k="ssr:stedsnr" v="940155" />
	</node>
	<node id="-280684" lat="58.5063138891" lon="8.88825834031">
		<tag k="name" v="Påskeholmen" />
		<tag k="place" v="islet" />
		<tag k="ssr:stedsnr" v="940063" />
	</node>
	<node id="-280683" lat="58.5153694471" lon="8.92030278343">
		<tag k="name" v="Østre Ramsvika" />
		<tag k="natural" v="bay" />
		<tag k="ssr:stedsnr" v="940054" />
	</node>
	<node id="-280682" lat="58.5115972214" lon="8.91031666535">
		<tag k="name" v="Trollnes" />
		<tag k="natural" v="cape" />
		<tag k="ssr:stedsnr" v="940051" />
	</node>
	<node id="-280674" lat="58.530844446" lon="8.92280000689">
		<tag k="name" v="Smalsund" />
		<tag k="natural" v="strait" />
		<tag k="ssr:stedsnr" v="940000" />
	</node>
	<node id="-278625" lat="58.4428861072" lon="8.82207222205">
		<tag k="name" v="Furuholmen" />
		<tag k="natural" v="cape" />
		<tag k="ssr:stedsnr" v="90603" />
	</node>
	<node id="-280672" lat="58.5574805547" lon="9.01918333791">
		<tag k="fixme" v="consider seamark:type=rock or natural=shoal" />
		<tag k="name" v="Buskjærflaka" />
		<tag k="place" v="islet" />
		<tag k="ssr:stedsnr" v="939254" />
	</node>
	<node id="-280671" lat="58.5514388911" lon="9.0061333296">
		<tag k="fixme" v="consider seamark:type=rock or natural=shoal" />
		<tag k="name" v="Guleskjæret" />
		<tag k="place" v="islet" />
		<tag k="ssr:stedsnr" v="939217" />
	</node>
	<node id="-280669" lat="58.5371027766" lon="9.00611389074">
		<tag k="name" v="Steinmolen" />
		<tag k="natural" v="shoal" />
		<tag k="place" v="locality" />
		<tag k="ssr:stedsnr" v="938289" />
	</node>
	<node id="-280668" lat="58.5498472222" lon="9.00570556299">
		<tag k="name" v="Stangholmen" />
		<tag k="place" v="islet" />
		<tag k="ssr:stedsnr" v="938281" />
	</node>
	<node id="-280667" lat="58.4299777821" lon="8.81097222426">
		<tag k="name" v="Lille Gjessøya" />
		<tag k="place" v="island" />
		<tag k="ssr:stedsnr" v="937769" />
	</node>
	<node id="-280666" lat="58.528466665" lon="8.96338889694">
		<tag k="name" v="Korshavn" />
		<tag k="natural" v="bay" />
		<tag k="ssr:stedsnr" v="937348" />
	</node>
	<node id="-280665" lat="58.469955554" lon="8.83114165887">
		<tag k="name" v="Saulevika" />
		<tag k="natural" v="bay" />
		<tag k="ssr:stedsnr" v="937331" />
	</node>
	<node id="-280664" lat="58.5138111091" lon="8.9286138888">
		<tag k="name" v="Sjøversbåen" />
		<tag k="place" v="locality" />
		<tag k="seamark:type" v="rock" />
		<tag k="ssr:stedsnr" v="937291" />
	</node>
	<node id="-280663" lat="58.5108361136" lon="8.93682222421">
		<tag k="name" v="Gåsholmen" />
		<tag k="place" v="islet" />
		<tag k="ssr:stedsnr" v="937289" />
	</node>
	<node id="-280659" lat="58.4893777797" lon="8.92166389062">
		<tag k="alt_name" v="Kattsundholmene" />
		<tag k="name" v="Krosseholmene" />
		<tag k="old_name" v="Dyblingsholmane;Dybingsholmen" />
		<tag k="place" v="islet" />
		<tag k="ssr:stedsnr" v="911893" />
	</node>
	<node id="-278590" lat="58.4876250033" lon="8.91903055703">
		<tag k="name" v="Klove" />
		<tag k="natural" v="bay" />
		<tag k="ssr:stedsnr" v="90365" />
	</node>
	<node id="-278589" lat="58.4791166699" lon="8.83080556013">
		<tag k="name" v="Terneholmene" />
		<tag k="place" v="islet" />
		<tag k="ssr:stedsnr" v="90363" />
	</node>
	<node id="-280635" lat="58.5029805588" lon="8.88927222495">
		<tag k="name" v="Buøya" />
		<tag k="place" v="island" />
		<tag k="ssr:stedsnr" v="911202" />
	</node>
	<node id="-278586" lat="58.4751277807" lon="8.84108333435">
		<tag k="fixme" v="consider seamark:type=rock or natural=shoal" />
		<tag k="name" v="Seilskjærene" />
		<tag k="place" v="islet" />
		<tag k="ssr:stedsnr" v="90356" />
	</node>
	<node id="-280630" lat="58.4648972224" lon="8.79985277805">
		<tag k="alt_name" v="Tromøysund" />
		<tag k="name" v="Tromøysundet" />
		<tag k="natural" v="strait" />
		<tag k="ssr:stedsnr" v="910630" />
	</node>
	<node id="-278687" lat="58.3995277785" lon="8.78755833514">
		<tag k="alt_name" v="Torungen, ytre" />
		<tag k="name" v="Store Torungen" />
		<tag k="place" v="islet" />
		<tag k="ssr:stedsnr" v="121562" />
	</node>
	<node id="-280626" lat="58.424608331" lon="8.80021389348">
		<tag k="name" v="Merdø" />
		<tag k="place" v="island" />
		<tag k="ssr:stedsnr" v="910595" />
	</node>
	<node id="-278577" lat="58.466063891" lon="8.89118889338">
		<tag k="fixme" v="consider seamark:type=rock or natural=shoal" />
		<tag k="name" v="Skagen" />
		<tag k="place" v="islet" />
		<tag k="ssr:stedsnr" v="90270" />
	</node>
	<node id="-278576" lat="58.4322472207" lon="8.8259833266">
		<tag k="name" v="Krossen" />
		<tag k="natural" v="cape" />
		<tag k="ssr:stedsnr" v="90263" />
	</node>
	<node id="-280622" lat="58.3952777757" lon="8.78821389096">
		<tag k="name" v="Skurvene" />
		<tag k="place" v="islet" />
		<tag k="ssr:stedsnr" v="910555" />
	</node>
	<node id="-280621" lat="58.3914694447" lon="8.77079167002">
		<tag k="alt_name" v="Fladeskjær;Flatskjer" />
		<tag k="fixme" v="consider seamark:type=rock or natural=shoal" />
		<tag k="name" v="Flatskjær" />
		<tag k="place" v="islet" />
		<tag k="ssr:stedsnr" v="910554" />
	</node>
	<node id="-280620" lat="58.3945305533" lon="8.78442499865">
		<tag k="name" v="Slurvene" />
		<tag k="place" v="islet" />
		<tag k="ssr:stedsnr" v="906354" />
	</node>
	<node id="-280619" lat="58.5164805584" lon="8.977411119">
		<tag k="name" v="Flatskjæra" />
		<tag k="place" v="islet" />
		<tag k="ssr:stedsnr" v="906103" />
	</node>
	<node id="-280618" lat="58.4705333306" lon="8.82011388848">
		<tag k="name" v="Smålingen" />
		<tag k="natural" v="strait" />
		<tag k="ssr:stedsnr" v="906041" />
	</node>
	<node id="-280617" lat="58.4310888876" lon="8.77682222256">
		<tag k="name" v="Graudvighaue" />
		<tag k="natural" v="cape" />
		<tag k="ssr:stedsnr" v="905216" />
	</node>
	<node id="-277852" lat="58.5698805544" lon="8.96254999459">
		<tag k="name" v="Bergyltholmen" />
		<tag k="place" v="islet" />
		<tag k="ssr:stedsnr" v="272714" />
	</node>
	<node id="-278566" lat="58.5206361084" lon="8.92593332802">
		<tag k="name" v="Mae(id)" />
		<tag k="place" v="locality" />
		<tag k="ssr:stedsnr" v="90151" />
	</node>
	<node id="-278561" lat="58.5244388911" lon="8.88808056018">
		<tag k="name" v="Langenes" />
		<tag k="natural" v="cape" />
		<tag k="ssr:stedsnr" v="90085" />
	</node>
	<node id="-280217" lat="58.3982138877" lon="8.74091389637">
		<tag k="name" v="Tjuvholmen" />
		<tag k="place" v="islet" />
		<tag k="ssr:stedsnr" v="770006" />
	</node>
	<node id="-278553" lat="58.511677776" lon="8.91368610945">
		<tag k="name" v="Vestre Ramsvika" />
		<tag k="natural" v="bay" />
		<tag k="ssr:stedsnr" v="90040" />
	</node>
	<node id="-278547" lat="58.5495055596" lon="9.00132222909">
		<tag k="fixme" v="consider seamark:type=rock or natural=shoal" />
		<tag k="name" v="Ytre Teineskjær" />
		<tag k="place" v="islet" />
		<tag k="ssr:stedsnr" v="88246" />
	</node>
	<node id="-278546" lat="58.5013416632" lon="8.8863777811">
		<tag k="name" v="Bleksund" />
		<tag k="natural" v="strait" />
		<tag k="ssr:stedsnr" v="88228" />
	</node>
	<node id="-278545" lat="58.495941667" lon="8.8838388857">
		<tag k="name" v="Skalle" />
		<tag k="natural" v="cape" />
		<tag k="ssr:stedsnr" v="88225" />
	</node>
	<node id="-278544" lat="58.4365611094" lon="8.86974999924">
		<tag k="name" v="Flagene" />
		<tag k="natural" v="shoal" />
		<tag k="place" v="locality" />
		<tag k="ssr:stedsnr" v="87763" />
	</node>
	<node id="-278543" lat="58.4459916625" lon="8.87660277605">
		<tag k="fixme" v="consider seamark:type=rock or natural=shoal" />
		<tag k="name" v="Snorreskjær" />
		<tag k="place" v="islet" />
		<tag k="ssr:stedsnr" v="87761" />
	</node>
	<node id="-278542" lat="58.4272947548" lon="8.78910594149">
		<tag k="name" v="Småholmene" />
		<tag k="place" v="islet" />
		<tag k="ssr:stedsnr" v="87737" />
	</node>
	<node id="-278541" lat="58.4662777819" lon="8.79224721556">
		<tag k="name" v="Halvøya" />
		<tag k="place" v="islet" />
		<tag k="ssr:stedsnr" v="87714" />
	</node>
	<node id="-278540" lat="58.419674997" lon="8.81094167165">
		<tag k="name" v="Hellebåene" />
		<tag k="place" v="locality" />
		<tag k="seamark:type" v="rock" />
		<tag k="ssr:stedsnr" v="87712" />
	</node>
	<node id="-278539" lat="58.4144666706" lon="8.74408055307">
		<tag k="fixme" v="consider seamark:type=rock or natural=shoal" />
		<tag k="name" v="Rødskjær" />
		<tag k="place" v="islet" />
		<tag k="ssr:stedsnr" v="87709" />
	</node>
	<node id="-278538" lat="58.4649555592" lon="8.91832500816">
		<tag k="name" v="Ravnåsknatten" />
		<tag k="place" v="locality" />
		<tag k="seamark:type" v="rock" />
		<tag k="ssr:stedsnr" v="87703" />
	</node>
	<node id="-280577" lat="58.5674055532" lon="8.96379722">
		<tag k="name" v="Landholmen" />
		<tag k="place" v="islet" />
		<tag k="ssr:stedsnr" v="879762" />
	</node>
</osm>
