<?xml version="1.0" encoding="UTF-8"?>
<osm generator="osmapis" version="0.6">
	<node id="-752128" lat="69.2017444441" lon="17.7841472166">
		<tag k="name" v="Øverli" />
		<tag k="place" v="isolated_dwelling" />
		<tag k="ssr:stedsnr" v="533947" />
	</node>
	<node id="-752127" lat="69.1992527733" lon="17.6947055628">
		<tag k="name" v="Molund" />
		<tag k="place" v="farm" />
		<tag k="ssr:stedsnr" v="533624" />
	</node>
	<node id="-751101" lat="69.0394083353" lon="17.2216860988">
		<tag k="name" v="Brenna" />
		<tag k="place" v="farm" />
		<tag k="ssr:stedsnr" v="333864" />
	</node>
	<node id="-751615" lat="69.0242416637" lon="17.2077805633">
		<tag k="fixme" v="consider place=hamlet" />
		<tag k="name" v="Lekangen" />
		<tag k="place" v="farm" />
		<tag k="ssr:stedsnr" v="138082" />
	</node>
	<node id="-752117" lat="69.0739555544" lon="16.788583321">
		<tag k="name" v="Olfinnvika" />
		<tag k="place" v="farm" />
		<tag k="ssr:stedsnr" v="515103" />
	</node>
	<node id="-751090" lat="69.1976888867" lon="17.6940833197">
		<tag k="alt_name" v="Storvassjord" />
		<tag k="name" v="Storvassjorda" />
		<tag k="place" v="farm" />
		<tag k="ssr:stedsnr" v="322482" />
	</node>
	<node id="-752113" lat="69.2017833354" lon="17.7868416756">
		<tag k="name" v="Øverslått" />
		<tag k="place" v="hamlet" />
		<tag k="ssr:stedsnr" v="504493" />
	</node>
	<node id="-752111" lat="69.165097223" lon="17.8197861205">
		<tag k="name" v="Bakken" />
		<tag k="place" v="farm" />
		<tag k="ssr:stedsnr" v="504446" />
	</node>
	<node id="-752620" lat="69.2566722205" lon="17.5899805491">
		<tag k="alt_name" v="Svanelvmo" />
		<tag k="fixme" v="consider place=hamlet" />
		<tag k="name" v="Svanelvmoen" />
		<tag k="place" v="village" />
		<tag k="ssr:stedsnr" v="746590" />
	</node>
	<node id="-751083" lat="69.2101305534" lon="17.4983888845">
		<tag k="name" v="Ås" />
		<tag k="place" v="farm" />
		<tag k="ssr:stedsnr" v="322369" />
	</node>
	<node id="-751082" lat="69.2119333347" lon="17.6098249945">
		<tag k="name" v="Bjørkhaug" />
		<tag k="place" v="farm" />
		<tag k="ssr:stedsnr" v="322366" />
	</node>
	<node id="-751081" lat="69.2142694491" lon="17.6123333294">
		<tag k="name" v="Utheim" />
		<tag k="place" v="farm" />
		<tag k="ssr:stedsnr" v="322364" />
	</node>
	<node id="-751089" lat="69.2037305547" lon="17.5425305484">
		<tag k="name" v="Sætervoll" />
		<tag k="place" v="farm" />
		<tag k="ssr:stedsnr" v="322476" />
	</node>
	<node id="-752613" lat="69.1641083305" lon="17.7019444353">
		<tag k="name" v="Gunnarheim" />
		<tag k="place" v="farm" />
		<tag k="ssr:stedsnr" v="746437" />
	</node>
	<node id="-752612" lat="69.163794446" lon="17.7760000047">
		<tag k="name" v="Aspesletta" />
		<tag k="place" v="farm" />
		<tag k="ssr:stedsnr" v="746435" />
	</node>
	<node id="-752611" lat="69.2453055572" lon="17.5060249962">
		<tag k="name" v="Kaperdal" />
		<tag k="place" v="locality" />
		<tag k="ssr:stedsnr" v="746420" />
	</node>
	<node id="-752610" lat="69.205752782" lon="17.5051444489">
		<tag k="name" v="Skogtun" />
		<tag k="place" v="farm" />
		<tag k="ssr:stedsnr" v="746369" />
	</node>
	<node id="-752608" lat="69.1496305519" lon="17.0827277815">
		<tag k="name" v="Stordalen" />
		<tag k="place" v="isolated_dwelling" />
		<tag k="ssr:stedsnr" v="746224" />
	</node>
	<node id="-751890" lat="69.1153222213" lon="17.0588138856">
		<tag k="name" v="Olaheim" />
		<tag k="place" v="farm" />
		<tag k="ssr:stedsnr" v="240272" />
	</node>
	<node id="-752091" lat="69.0816472201" lon="17.0036916667">
		<tag k="alt_name" v="Å, austre" />
		<tag k="name" v="Austre Å" />
		<tag k="place" v="farm" />
		<tag k="ssr:stedsnr" v="503050" />
	</node>
	<node id="-751066" lat="69.0431305549" lon="17.0510888809">
		<tag k="alt_name" v="Straumsneset" />
		<tag k="name" v="Straumsnes" />
		<tag k="place" v="farm" />
		<tag k="ssr:stedsnr" v="321104" />
	</node>
	<node id="-751063" lat="69.0274944474" lon="17.1950583432">
		<tag k="name" v="Gullvang" />
		<tag k="place" v="farm" />
		<tag k="ssr:stedsnr" v="321056" />
	</node>
	<node id="-752598" lat="69.0813361077" lon="17.1687111016">
		<tag k="name" v="Øverland" />
		<tag k="place" v="farm" />
		<tag k="ssr:stedsnr" v="746057" />
	</node>
	<node id="-752085" lat="69.0560388923" lon="17.0849472229">
		<tag k="name" v="Bakken" />
		<tag k="place" v="farm" />
		<tag k="ssr:stedsnr" v="503011" />
	</node>
	<node id="-752084" lat="69.01635556" lon="17.1220194417">
		<tag k="name" v="Ryvoll" />
		<tag k="place" v="farm" />
		<tag k="ssr:stedsnr" v="502085" />
	</node>
	<node id="-751057" lat="69.0177111089" lon="17.1626833345">
		<tag k="name" v="Silsand" />
		<tag k="place" v="farm" />
		<tag k="ssr:stedsnr" v="320063" />
	</node>
	<node id="-752590" lat="69.0770055567" lon="17.0448472299">
		<tag k="name" v="Frovåg" />
		<tag k="place" v="hamlet" />
		<tag k="ssr:stedsnr" v="746016" />
	</node>
	<node id="-752589" lat="69.0735500041" lon="17.1979361088">
		<tag k="name" v="Risøynes" />
		<tag k="place" v="farm" />
		<tag k="ssr:stedsnr" v="746010" />
	</node>
	<node id="-752586" lat="69.0158944413" lon="17.1322888777">
		<tag k="alt_name" v="Stangneset" />
		<tag k="name" v="Stangnes" />
		<tag k="place" v="farm" />
		<tag k="ssr:stedsnr" v="745108" />
	</node>
	<node id="-752584" lat="69.0922777793" lon="16.7906999881">
		<tag k="name" v="Sjursvika" />
		<tag k="place" v="hamlet" />
		<tag k="ssr:stedsnr" v="745021" />
	</node>
	<node id="-752716" lat="69.0600861152" lon="17.1715777834">
		<tag k="name" v="Myrsnes" />
		<tag k="place" v="farm" />
		<tag k="ssr:stedsnr" v="807020" />
	</node>
	<node id="-752069" lat="69.2004749977" lon="17.8008222294">
		<tag k="name" v="Dalen" />
		<tag k="place" v="farm" />
		<tag k="ssr:stedsnr" v="443493" />
	</node>
	<node id="-751040" lat="69.2342916697" lon="17.6014694371">
		<tag k="fixme" v="consider place=hamlet" />
		<tag k="name" v="Brygghaug vestre" />
		<tag k="place" v="farm" />
		<tag k="ssr:stedsnr" v="295552" />
	</node>
	<node id="-751923" lat="69.2375249996" lon="17.6144777642">
		<tag k="alt_name" v="Brygghaug" />
		<tag k="fixme" v="consider place=hamlet" />
		<tag k="name" v="Brygghaugen" />
		<tag k="place" v="village" />
		<tag k="ssr:stedsnr" v="261437" />
	</node>
	<node id="-751549" lat="69.0911361128" lon="16.9438805671">
		<tag k="name" v="Gammen" />
		<tag k="place" v="locality" />
		<tag k="ssr:stedsnr" v="112587" />
	</node>
	<node id="-751036" lat="69.1641111072" lon="17.6006333371">
		<tag k="name" v="Øverlandet" />
		<tag k="place" v="farm" />
		<tag k="ssr:stedsnr" v="294979" />
	</node>
	<node id="-751263" lat="69.2203916632" lon="17.6520027853">
		<tag k="name" v="Sætra" />
		<tag k="place" v="locality" />
		<tag k="ssr:stedsnr" v="476544" />
	</node>
	<node id="-752053" lat="69.0499611088" lon="17.0523805481">
		<tag k="name" v="Storslett" />
		<tag k="place" v="farm" />
		<tag k="ssr:stedsnr" v="443112" />
	</node>
	<node id="-751028" lat="69.0315111119" lon="16.9003527851">
		<tag k="fixme" v="consider place=hamlet" />
		<tag k="name" v="Lemmingvær" />
		<tag k="place" v="farm" />
		<tag k="ssr:stedsnr" v="294930" />
	</node>
	<node id="-752050" lat="69.0514777737" lon="17.1676166638">
		<tag k="name" v="Nordås" />
		<tag k="place" v="farm" />
		<tag k="ssr:stedsnr" v="443105" />
	</node>
	<node id="-752044" lat="69.0168027742" lon="17.1436416556">
		<tag k="name" v="Nylandet" />
		<tag k="place" v="farm" />
		<tag k="ssr:stedsnr" v="443073" />
	</node>
	<node id="-752042" lat="69.0679888876" lon="17.1914333228">
		<tag k="alt_name" v="Laneset" />
		<tag k="name" v="Lanes" />
		<tag k="place" v="farm" />
		<tag k="ssr:stedsnr" v="443029" />
	</node>
	<node id="-752041" lat="69.0558833307" lon="16.8870166727">
		<tag k="alt_name" v="Skjervika" />
		<tag k="name" v="Skjærvik" />
		<tag k="place" v="farm" />
		<tag k="ssr:stedsnr" v="443023" />
	</node>
	<node id="-752037" lat="69.1506944457" lon="17.0772111056">
		<tag k="name" v="Steinjorda" />
		<tag k="place" v="isolated_dwelling" />
		<tag k="ssr:stedsnr" v="442281" />
	</node>
	<node id="-752033" lat="69.1140916708" lon="17.059502771">
		<tag k="name" v="Olaheimen" />
		<tag k="place" v="farm" />
		<tag k="ssr:stedsnr" v="442257" />
	</node>
	<node id="-752026" lat="69.0230861084" lon="17.1895833183">
		<tag k="alt_name" v="Bakkemoen" />
		<tag k="name" v="Bakkemo" />
		<tag k="place" v="farm" />
		<tag k="ssr:stedsnr" v="442090" />
	</node>
	<node id="-751512" lat="69.0834750005" lon="17.1745444389">
		<tag k="fixme" v="consider place=hamlet" />
		<tag k="name" v="Stonglandseidet" />
		<tag k="place" v="village" />
		<tag k="ssr:stedsnr" v="79061" />
	</node>
	<node id="-752531" lat="69.2398722191" lon="17.6199722274">
		<tag k="fixme" v="consider place=hamlet" />
		<tag k="name" v="Brygghaug østre" />
		<tag k="place" v="farm" />
		<tag k="ssr:stedsnr" v="719513" />
	</node>
	<node id="-752018" lat="69.2634138887" lon="17.5339222139">
		<tag k="name" v="Roseniusgammen" />
		<tag k="place" v="locality" />
		<tag k="ssr:stedsnr" v="417663" />
	</node>
	<node id="-752013" lat="69.1520555533" lon="17.6321055414">
		<tag k="name" v="Sedenesheimen" />
		<tag k="place" v="locality" />
		<tag k="ssr:stedsnr" v="416997" />
	</node>
	<node id="-751498" lat="69.1138555586" lon="17.2754833347">
		<tag k="name" v="Vassvik" />
		<tag k="place" v="hamlet" />
		<tag k="ssr:stedsnr" v="78243" />
	</node>
	<node id="-752108" lat="69.1614638902" lon="17.5850916668">
		<tag k="name" v="Stranda" />
		<tag k="place" v="farm" />
		<tag k="ssr:stedsnr" v="504281" />
	</node>
	<node id="-752105" lat="69.1517777761" lon="17.4847750002">
		<tag k="alt_name" v="Refsnes" />
		<tag k="name" v="Revsnes" />
		<tag k="place" v="farm" />
		<tag k="ssr:stedsnr" v="504271" />
	</node>
	<node id="-751476" lat="69.0389694432" lon="17.0494972319">
		<tag k="name" v="Bakken" />
		<tag k="place" v="farm" />
		<tag k="ssr:stedsnr" v="52623" />
	</node>
	<node id="-753009" lat="69.1350444465" lon="17.3161916667">
		<tag k="name" v="Skoglund" />
		<tag k="place" v="farm" />
		<tag k="ssr:stedsnr" v="961391" />
	</node>
	<node id="-751470" lat="69.1557166663" lon="16.8832249915">
		<tag k="fixme" v="consider place=hamlet" />
		<tag k="name" v="Hallvardsøy" />
		<tag k="place" v="farm" />
		<tag k="ssr:stedsnr" v="52503" />
	</node>
	<node id="-752491" lat="69.2594555524" lon="17.6119638838">
		<tag k="name" v="Vestland" />
		<tag k="place" v="farm" />
		<tag k="ssr:stedsnr" v="686606" />
	</node>
	<node id="-752490" lat="69.1818916663" lon="17.4378999858">
		<tag k="alt_name" v="Lyngmoen" />
		<tag k="name" v="Lyngmo" />
		<tag k="place" v="farm" />
		<tag k="ssr:stedsnr" v="686492" />
	</node>
	<node id="-752483" lat="69.2300472201" lon="17.6985277817">
		<tag k="name" v="Østheim" />
		<tag k="place" v="farm" />
		<tag k="ssr:stedsnr" v="686404" />
	</node>
	<node id="-752994" lat="69.1646361144" lon="17.804830557">
		<tag k="name" v="Solvang" />
		<tag k="place" v="farm" />
		<tag k="ssr:stedsnr" v="929419" />
	</node>
	<node id="-752993" lat="69.2249250022" lon="17.621383333">
		<tag k="name" v="Moan" />
		<tag k="place" v="farm" />
		<tag k="ssr:stedsnr" v="929384" />
	</node>
	<node id="-752479" lat="69.2646138904" lon="17.632430563">
		<tag k="name" v="Rydningen" />
		<tag k="place" v="farm" />
		<tag k="ssr:stedsnr" v="685588" />
	</node>
	<node id="-752990" lat="69.2493722253" lon="17.6094416686">
		<tag k="name" v="Utvoll" />
		<tag k="place" v="farm" />
		<tag k="ssr:stedsnr" v="928390" />
	</node>
	<node id="-752472" lat="69.2075250006" lon="17.4141750013">
		<tag k="alt_name" v="Skogli" />
		<tag k="name" v="Skoglia" />
		<tag k="place" v="isolated_dwelling" />
		<tag k="ssr:stedsnr" v="685129" />
	</node>
	<node id="-752465" lat="69.0759361105" lon="16.9676500029">
		<tag k="name" v="Finnelv" />
		<tag k="place" v="farm" />
		<tag k="ssr:stedsnr" v="685056" />
	</node>
	<node id="-752462" lat="69.067916665" lon="17.1913750037">
		<tag k="name" v="Stranda" />
		<tag k="place" v="farm" />
		<tag k="ssr:stedsnr" v="685039" />
	</node>
	<node id="-752968" lat="69.0621055528" lon="16.9197610963">
		<tag k="alt_name" v="Buvika" />
		<tag k="name" v="Buvik" />
		<tag k="place" v="farm" />
		<tag k="ssr:stedsnr" v="928023" />
	</node>
	<node id="-751941" lat="69.1154638877" lon="17.2561444497">
		<tag k="name" v="Bjørkeng" />
		<tag k="place" v="farm" />
		<tag k="ssr:stedsnr" v="415531" />
	</node>
	<node id="-751953" lat="69.0825500036" lon="17.0015472293">
		<tag k="fixme" v="consider place=hamlet" />
		<tag k="name" v="Å" />
		<tag k="place" v="farm" />
		<tag k="ssr:stedsnr" v="415666" />
	</node>
	<node id="-752448" lat="69.2429722181" lon="17.6185500024">
		<tag k="name" v="Åsland" />
		<tag k="place" v="farm" />
		<tag k="ssr:stedsnr" v="659671" />
	</node>
	<node id="-752447" lat="69.241358336" lon="17.6220250096">
		<tag k="name" v="Bjørkli" />
		<tag k="place" v="farm" />
		<tag k="ssr:stedsnr" v="659669" />
	</node>
	<node id="-751420" lat="69.1438166701" lon="17.4409027745">
		<tag k="name" v="Fjøsvollen" />
		<tag k="place" v="farm" />
		<tag k="ssr:stedsnr" v="51505" />
	</node>
	<node id="-751930" lat="69.2602777786" lon="17.6169111035">
		<tag k="alt_name" v="Sørli, vestre" />
		<tag k="fixme" v="multiple name tags, choose one and add the other to alt_name" />
		<tag k="name" v="Sørli;Vestre Sørli" />
		<tag k="place" v="hamlet" />
		<tag k="ssr:stedsnr" v="261600" />
	</node>
	<node id="-751929" lat="69.1966638931" lon="17.4531361144">
		<tag k="name" v="Marknes" />
		<tag k="place" v="farm" />
		<tag k="ssr:stedsnr" v="261513" />
	</node>
	<node id="-751927" lat="69.19998889" lon="17.7963555572">
		<tag k="fixme" v="consider place=hamlet" />
		<tag k="name" v="Solli" />
		<tag k="place" v="village" />
		<tag k="ssr:stedsnr" v="261506" />
	</node>
	<node id="-751411" lat="69.0810249954" lon="17.1839222272">
		<tag k="name" v="Lynghaug" />
		<tag k="place" v="farm" />
		<tag k="ssr:stedsnr" v="29382" />
	</node>
	<node id="-751921" lat="69.2322611085" lon="17.6295277855">
		<tag k="name" v="Fredly" />
		<tag k="place" v="farm" />
		<tag k="ssr:stedsnr" v="261420" />
	</node>
	<node id="-751407" lat="69.2022083345" lon="17.6504083259">
		<tag k="name" v="Fagerbakken" />
		<tag k="place" v="farm" />
		<tag k="ssr:stedsnr" v="19471" />
	</node>
	<node id="-751405" lat="69.264266663" lon="17.6341888952">
		<tag k="name" v="Slettemoen" />
		<tag k="place" v="farm" />
		<tag k="ssr:stedsnr" v="18555" />
	</node>
	<node id="-752940" lat="69.040099998" lon="17.0487277862">
		<tag k="fixme" v="consider place=hamlet" />
		<tag k="name" v="Hofsøya" />
		<tag k="place" v="farm" />
		<tag k="ssr:stedsnr" v="901729" />
	</node>
	<node id="-751401" lat="69.1339944461" lon="17.0273388843">
		<tag k="fixme" v="consider place=hamlet" />
		<tag k="name" v="Rødsand" />
		<tag k="place" v="village" />
		<tag k="ssr:stedsnr" v="18222" />
	</node>
	<node id="-751907" lat="69.1041694422" lon="17.0279305459">
		<tag k="name" v="Dalheim" />
		<tag k="place" v="farm" />
		<tag k="ssr:stedsnr" v="260273" />
	</node>
	<node id="-752347" lat="69.0322027814" lon="16.8994861061">
		<tag k="name" v="Vestberg" />
		<tag k="place" v="farm" />
		<tag k="ssr:stedsnr" v="624134" />
	</node>
	<node id="-751899" lat="69.0490305579" lon="17.1589555462">
		<tag k="name" v="Heimtun" />
		<tag k="place" v="farm" />
		<tag k="ssr:stedsnr" v="260138" />
	</node>
	<node id="-751895" lat="69.1028361094" lon="17.0837777645">
		<tag k="name" v="Finngamman" />
		<tag k="place" v="isolated_dwelling" />
		<tag k="ssr:stedsnr" v="260075" />
	</node>
	<node id="-751378" lat="69.072097223" lon="16.9525083352">
		<tag k="name" v="Lonkan" />
		<tag k="place" v="farm" />
		<tag k="ssr:stedsnr" v="18003" />
	</node>
	<node id="-752401" lat="69.1681888884" lon="17.6782305403">
		<tag k="name" v="Sætra" />
		<tag k="place" v="locality" />
		<tag k="ssr:stedsnr" v="658514" />
	</node>
	<node id="-751376" lat="69.0224555532" lon="17.2146749904">
		<tag k="name" v="Fjordgløtt" />
		<tag k="place" v="farm" />
		<tag k="ssr:stedsnr" v="17092" />
	</node>
	<node id="-751373" lat="69.1655388916" lon="17.8161277742">
		<tag k="name" v="Berget" />
		<tag k="place" v="farm" />
		<tag k="ssr:stedsnr" v="18410" />
	</node>
	<node id="-752905" lat="69.1612916714" lon="17.6090694373">
		<tag k="name" v="Lundgård" />
		<tag k="place" v="farm" />
		<tag k="ssr:stedsnr" v="901528" />
	</node>
	<node id="-751061" lat="69.092869442" lon="17.0273111064">
		<tag k="alt_name" v="Nymoen" />
		<tag k="name" v="Nymo" />
		<tag k="place" v="farm" />
		<tag k="ssr:stedsnr" v="321026" />
	</node>
	<node id="-751060" lat="69.014416666" lon="17.1284138874">
		<tag k="alt_name" v="Sandmoen" />
		<tag k="name" v="Sandmo" />
		<tag k="place" v="farm" />
		<tag k="ssr:stedsnr" v="320096" />
	</node>
	<node id="-752374" lat="69.0492222186" lon="17.1674610981">
		<tag k="fixme" v="consider place=hamlet" />
		<tag k="name" v="Valvåg" />
		<tag k="place" v="village" />
		<tag k="ssr:stedsnr" v="635291" />
	</node>
	<node id="-752373" lat="69.2036083305" lon="17.6583166681">
		<tag k="fixme" v="consider place=hamlet" />
		<tag k="name" v="Torslia" />
		<tag k="place" v="farm" />
		<tag k="ssr:stedsnr" v="627277" />
	</node>
	<node id="-752872" lat="69.1971194422" lon="17.8003888885">
		<tag k="name" v="Holmen" />
		<tag k="place" v="farm" />
		<tag k="ssr:stedsnr" v="870276" />
	</node>
	<node id="-752358" lat="69.1951777781" lon="17.4462472096">
		<tag k="name" v="Lauveng" />
		<tag k="place" v="farm" />
		<tag k="ssr:stedsnr" v="624500" />
	</node>
	<node id="-752357" lat="69.1959194446" lon="17.7987888953">
		<tag k="name" v="Nyset" />
		<tag k="place" v="farm" />
		<tag k="ssr:stedsnr" v="624479" />
	</node>
	<node id="-752868" lat="69.2005972198" lon="17.8156388763">
		<tag k="name" v="Soleng" />
		<tag k="place" v="farm" />
		<tag k="ssr:stedsnr" v="868490" />
	</node>
	<node id="-752348" lat="69.0390472193" lon="17.0640666554">
		<tag k="name" v="Selnes" />
		<tag k="place" v="farm" />
		<tag k="ssr:stedsnr" v="624138" />
	</node>
	<node id="-752859" lat="69.216513889" lon="17.5024027704">
		<tag k="name" v="Solstad" />
		<tag k="place" v="farm" />
		<tag k="ssr:stedsnr" v="868362" />
	</node>
	<node id="-751455" lat="69.0824861079" lon="17.1692527635">
		<tag k="fixme" v="consider place=hamlet" />
		<tag k="name" v="Eidet" />
		<tag k="place" v="farm" />
		<tag k="ssr:stedsnr" v="52243" />
	</node>
	<node id="-751823" lat="69.2347305538" lon="17.5853083249">
		<tag k="name" v="Myrvang" />
		<tag k="place" v="farm" />
		<tag k="ssr:stedsnr" v="233586" />
	</node>
	<node id="-752332" lat="69.1694638883" lon="17.7380305522">
		<tag k="name" v="Litjenga" />
		<tag k="place" v="farm" />
		<tag k="ssr:stedsnr" v="598694" />
	</node>
	<node id="-752842" lat="69.0800972255" lon="16.9843388794">
		<tag k="name" v="Fjelly" />
		<tag k="place" v="farm" />
		<tag k="ssr:stedsnr" v="867063" />
	</node>
	<node id="-752841" lat="69.0799138875" lon="16.9946361069">
		<tag k="alt_name" v="Å, vestre" />
		<tag k="name" v="Vestre Å" />
		<tag k="place" v="farm" />
		<tag k="ssr:stedsnr" v="867059" />
	</node>
	<node id="-751393" lat="69.0446333296" lon="17.0589999994">
		<tag k="name" v="Kroken" />
		<tag k="place" v="farm" />
		<tag k="ssr:stedsnr" v="18117" />
	</node>
	<node id="-752836" lat="69.055811111" lon="16.8698833338">
		<tag k="alt_name" v="Gjerdvika" />
		<tag k="name" v="Gjærvik" />
		<tag k="place" v="farm" />
		<tag k="ssr:stedsnr" v="867026" />
	</node>
	<node id="-752835" lat="69.0560833319" lon="17.0892944438">
		<tag k="name" v="Nygård" />
		<tag k="place" v="farm" />
		<tag k="ssr:stedsnr" v="867022" />
	</node>
	<node id="-752834" lat="69.0695388864" lon="16.8256111127">
		<tag k="alt_name" v="Skogli" />
		<tag k="name" v="Skoglund" />
		<tag k="place" v="farm" />
		<tag k="ssr:stedsnr" v="867009" />
	</node>
	<node id="-752826" lat="69.2394027781" lon="17.6231027869">
		<tag k="name" v="Moholt" />
		<tag k="place" v="farm" />
		<tag k="ssr:stedsnr" v="842669" />
	</node>
	<node id="-751220" lat="69.2072805519" lon="17.5772944326">
		<tag k="name" v="Nystad" />
		<tag k="place" v="farm" />
		<tag k="ssr:stedsnr" v="382483" />
	</node>
	<node id="-752822" lat="69.2711277795" lon="17.6700888888">
		<tag k="name" v="Nordli" />
		<tag k="place" v="farm" />
		<tag k="ssr:stedsnr" v="842626" />
	</node>
	<node id="-751797" lat="69.2027444414" lon="17.4652638763">
		<tag k="alt_name" v="Storjord" />
		<tag k="name" v="Storjorda" />
		<tag k="place" v="farm" />
		<tag k="ssr:stedsnr" v="201361" />
	</node>
	<node id="-751284" lat="69.1702361087" lon="17.7279888867">
		<tag k="name" v="Hågen" />
		<tag k="place" v="farm" />
		<tag k="ssr:stedsnr" v="476724" />
	</node>
	<node id="-751795" lat="69.1817444462" lon="17.7412110977">
		<tag k="name" v="Støstad" />
		<tag k="place" v="farm" />
		<tag k="ssr:stedsnr" v="200495" />
	</node>
	<node id="-751792" lat="69.1643444469" lon="17.8190999911">
		<tag k="fixme" v="consider place=hamlet" />
		<tag k="name" v="Rubbestad" />
		<tag k="place" v="village" />
		<tag k="ssr:stedsnr" v="200456" />
	</node>
	<node id="-751218" lat="69.1730444413" lon="17.7367555451">
		<tag k="name" v="Seljesletta" />
		<tag k="place" v="farm" />
		<tag k="ssr:stedsnr" v="382458" />
	</node>
	<node id="-751692" lat="69.0688166685" lon="16.8293888789">
		<tag k="name" v="Elvekroken" />
		<tag k="place" v="farm" />
		<tag k="ssr:stedsnr" v="172898" />
	</node>
	<node id="-751779" lat="69.0791722197" lon="17.0319777675">
		<tag k="name" v="Bråten" />
		<tag k="place" v="farm" />
		<tag k="ssr:stedsnr" v="200048" />
	</node>
	<node id="-751775" lat="69.0552444469" lon="17.0846500063">
		<tag k="name" v="Sletten" />
		<tag k="place" v="farm" />
		<tag k="ssr:stedsnr" v="200018" />
	</node>
	<node id="-751773" lat="69.0781138896" lon="17.1939749874">
		<tag k="name" v="Viklund" />
		<tag k="place" v="farm" />
		<tag k="ssr:stedsnr" v="200008" />
	</node>
	<node id="-751772" lat="69.0654277738" lon="16.9398361142">
		<tag k="name" v="Hamn" />
		<tag k="place" v="farm" />
		<tag k="ssr:stedsnr" v="200003" />
	</node>
	<node id="-751215" lat="69.1636722249" lon="17.7959750076">
		<tag k="name" v="Brandvoll" />
		<tag k="place" v="farm" />
		<tag k="ssr:stedsnr" v="382440" />
	</node>
	<node id="-751766" lat="69.1411999992" lon="17.086305565">
		<tag k="name" v="Bunkan" />
		<tag k="place" v="farm" />
		<tag k="ssr:stedsnr" v="200168" />
	</node>
	<node id="-751251" lat="69.115230553" lon="17.2771972119">
		<tag k="fixme" v="consider place=hamlet" />
		<tag k="name" v="Vassjord" />
		<tag k="place" v="farm" />
		<tag k="ssr:stedsnr" v="476468" />
	</node>
	<node id="-751758" lat="69.069882521" lon="16.8070406974">
		<tag k="alt_name" v="Finnjord" />
		<tag k="name" v="Finnjorda" />
		<tag k="place" v="hamlet" />
		<tag k="ssr:stedsnr" v="199129" />
	</node>
	<node id="-752235" lat="69.2252583324" lon="17.481769433">
		<tag k="name" v="Fosslund" />
		<tag k="place" v="farm" />
		<tag k="ssr:stedsnr" v="564413" />
	</node>
	<node id="-751232" lat="69.1693777752" lon="17.4069249853">
		<tag k="name" v="Storset" />
		<tag k="place" v="farm" />
		<tag k="ssr:stedsnr" v="393477" />
	</node>
	<node id="-751226" lat="69.1904194421" lon="17.4390333277">
		<tag k="name" v="Grunnvåg" />
		<tag k="place" v="farm" />
		<tag k="ssr:stedsnr" v="384228" />
	</node>
	<node id="-751221" lat="69.2026222229" lon="17.6843111055">
		<tag k="alt_name" v="Halvardslia" />
		<tag k="fixme" v="consider place=hamlet" />
		<tag k="name" v="Halvorslia" />
		<tag k="place" v="farm" />
		<tag k="ssr:stedsnr" v="382490" />
	</node>
	<node id="-752244" lat="69.2066222258" lon="17.6080361083">
		<tag k="name" v="Minde" />
		<tag k="place" v="farm" />
		<tag k="ssr:stedsnr" v="566263" />
	</node>
	<node id="-751219" lat="69.2027388932" lon="17.5110722096">
		<tag k="name" v="Kampevoll" />
		<tag k="place" v="farm" />
		<tag k="ssr:stedsnr" v="382481" />
	</node>
	<node id="-752242" lat="69.2052138909" lon="17.8117416683">
		<tag k="name" v="Fagerli" />
		<tag k="place" v="farm" />
		<tag k="ssr:stedsnr" v="564511" />
	</node>
	<node id="-752241" lat="69.1983527802" lon="17.7880694502">
		<tag k="name" v="Grindmoen" />
		<tag k="place" v="farm" />
		<tag k="ssr:stedsnr" v="564508" />
	</node>
	<node id="-752239" lat="69.1697472202" lon="17.7417833239">
		<tag k="alt_name" v="Vangsvik" />
		<tag k="fixme" v="consider place=hamlet" />
		<tag k="name" v="Vangsvika" />
		<tag k="place" v="village" />
		<tag k="ssr:stedsnr" v="564461" />
	</node>
	<node id="-752238" lat="69.1630749966" lon="17.7899722089">
		<tag k="fixme" v="consider place=hamlet" />
		<tag k="name" v="Bårdsletta" />
		<tag k="place" v="farm" />
		<tag k="ssr:stedsnr" v="564458" />
	</node>
	<node id="-751211" lat="69.2299861092" lon="17.7029333381">
		<tag k="name" v="Torsmoen" />
		<tag k="place" v="farm" />
		<tag k="ssr:stedsnr" v="382393" />
	</node>
	<node id="-752233" lat="69.1618361155" lon="17.6019749874">
		<tag k="alt_name" v="Skatvik" />
		<tag k="name" v="Skatvika" />
		<tag k="place" v="hamlet" />
		<tag k="ssr:stedsnr" v="564297" />
	</node>
	<node id="-752743" lat="69.2029611105" lon="17.6731166717">
		<tag k="alt_name" v="Vesterfjellet" />
		<tag k="fixme" v="consider place=hamlet" />
		<tag k="name" v="Vesterfjell" />
		<tag k="place" v="village" />
		<tag k="ssr:stedsnr" v="808468" />
	</node>
	<node id="-752742" lat="69.2045999977" lon="17.6526222129">
		<tag k="name" v="Åsvang" />
		<tag k="place" v="farm" />
		<tag k="ssr:stedsnr" v="808466" />
	</node>
	<node id="-752741" lat="69.2541611127" lon="17.5637000096">
		<tag k="alt_name" v="Svanelvplass" />
		<tag k="name" v="Svanelvplassen" />
		<tag k="place" v="farm" />
		<tag k="ssr:stedsnr" v="807592" />
	</node>
	<node id="-752227" lat="69.0292805533" lon="17.2283444445">
		<tag k="name" v="Nordheim" />
		<tag k="place" v="farm" />
		<tag k="ssr:stedsnr" v="564057" />
	</node>
	<node id="-751202" lat="69.054366669" lon="17.0769916692">
		<tag k="name" v="Hals" />
		<tag k="place" v="farm" />
		<tag k="ssr:stedsnr" v="382109" />
	</node>
	<node id="-751201" lat="69.0467666696" lon="17.062308323">
		<tag k="name" v="Knausen" />
		<tag k="place" v="farm" />
		<tag k="ssr:stedsnr" v="382106" />
	</node>
	<node id="-752735" lat="69.1762055562" lon="17.4968111113">
		<tag k="fixme" v="multiple name tags, choose one and add the other to alt_name" />
		<tag k="name" v="Miklebostad;Myklenes" />
		<tag k="place" v="isolated_dwelling" />
		<tag k="ssr:stedsnr" v="807448" />
	</node>
	<node id="-752734" lat="69.1680611122" lon="17.7585333263">
		<tag k="name" v="Vika" />
		<tag k="place" v="farm" />
		<tag k="ssr:stedsnr" v="807434" />
	</node>
	<node id="-751197" lat="69.0800305544" lon="16.9719944315">
		<tag k="alt_name" v="Litleeng;Lilleng" />
		<tag k="name" v="Lilleeng" />
		<tag k="place" v="farm" />
		<tag k="ssr:stedsnr" v="382053" />
	</node>
	<node id="-751196" lat="69.0721249965" lon="17.0333972129">
		<tag k="alt_name" v="Dragøya" />
		<tag k="fixme" v="consider place=hamlet" />
		<tag k="name" v="Dragøy" />
		<tag k="place" v="farm" />
		<tag k="ssr:stedsnr" v="382048" />
	</node>
	<node id="-752219" lat="69.1357027798" lon="17.3171416694">
		<tag k="name" v="Nygård" />
		<tag k="place" v="farm" />
		<tag k="ssr:stedsnr" v="563196" />
	</node>
	<node id="-751705" lat="69.0754750021" lon="17.0684250097">
		<tag k="name" v="Sommarsætet" />
		<tag k="place" v="locality" />
		<tag k="ssr:stedsnr" v="173258" />
	</node>
	<node id="-752727" lat="69.0392666624" lon="17.1850111204">
		<tag k="name" v="Skogvang" />
		<tag k="place" v="farm" />
		<tag k="ssr:stedsnr" v="807132" />
	</node>
	<node id="-752725" lat="69.0538638901" lon="17.059991657">
		<tag k="name" v="Seiltan" />
		<tag k="place" v="farm" />
		<tag k="ssr:stedsnr" v="807109" />
	</node>
	<node id="-752724" lat="69.0259527801" lon="17.219925004">
		<tag k="name" v="Tunheim" />
		<tag k="place" v="farm" />
		<tag k="ssr:stedsnr" v="807086" />
	</node>
	<node id="-752211" lat="69.0550111153" lon="16.8415777818">
		<tag k="name" v="Rydningen" />
		<tag k="place" v="farm" />
		<tag k="ssr:stedsnr" v="563109" />
	</node>
	<node id="-751185" lat="69.1389500003" lon="17.3158749906">
		<tag k="name" v="Jøvik" />
		<tag k="place" v="farm" />
		<tag k="ssr:stedsnr" v="381214" />
	</node>
	<node id="-752208" lat="69.0749166647" lon="17.0185277756">
		<tag k="name" v="Åhamn" />
		<tag k="place" v="farm" />
		<tag k="ssr:stedsnr" v="563045" />
	</node>
	<node id="-752207" lat="69.0770444422" lon="17.0157805412">
		<tag k="alt_name" v="Grønvik" />
		<tag k="name" v="Grønvika" />
		<tag k="place" v="isolated_dwelling" />
		<tag k="ssr:stedsnr" v="563044" />
	</node>
	<node id="-751180" lat="69.0216833323" lon="17.1812555565">
		<tag k="alt_name" v="Breidvika" />
		<tag k="name" v="Breivik" />
		<tag k="place" v="farm" />
		<tag k="ssr:stedsnr" v="381088" />
	</node>
	<node id="-752482" lat="69.0798972205" lon="16.9988527754">
		<tag k="fixme" v="consider place=hamlet" />
		<tag k="name" v="Å" />
		<tag k="place" v="village" />
		<tag k="ssr:stedsnr" v="686090" />
	</node>
	<node id="-751075" lat="69.1687416693" lon="17.4075860998">
		<tag k="alt_name" v="Gammalsæter" />
		<tag k="name" v="Gammelsæter" />
		<tag k="place" v="farm" />
		<tag k="ssr:stedsnr" v="321211" />
	</node>
	<node id="-751798" lat="69.2044583337" lon="17.5322472194">
		<tag k="name" v="Solheim" />
		<tag k="place" v="farm" />
		<tag k="ssr:stedsnr" v="201459" />
	</node>
	<node id="-752706" lat="69.0786027751" lon="16.7859999888">
		<tag k="name" v="Sæter" />
		<tag k="place" v="isolated_dwelling" />
		<tag k="ssr:stedsnr" v="806083" />
	</node>
	<node id="-752231" lat="69.1527166713" lon="17.6113055486">
		<tag k="name" v="Mølnevika" />
		<tag k="place" v="farm" />
		<tag k="ssr:stedsnr" v="564287" />
	</node>
	<node id="-752991" lat="69.1979472247" lon="17.6680555593">
		<tag k="alt_name" v="Ottemo" />
		<tag k="name" v="Ottemoen" />
		<tag k="place" v="farm" />
		<tag k="ssr:stedsnr" v="928433" />
	</node>
	<node id="-751283" lat="69.0539999999" lon="17.0768833229">
		<tag k="fixme" v="consider place=hamlet" />
		<tag k="name" v="Stonglandshals" />
		<tag k="place" v="village" />
		<tag k="ssr:stedsnr" v="476718" />
	</node>
	<node id="-752745" lat="69.2111305592" lon="17.6183555538">
		<tag k="amenity" v="school" />
		<tag k="name" v="Øverbotn skole" />
		<tag k="old_name" v="Øvrebotn" />
		<tag k="ssr:stedsnr" v="809257" />
	</node>
	<node id="-751203" lat="69.0448388904" lon="17.1731527794">
		<tag k="alt_name" v="Valvågen, s;Valvågen søndre" />
		<tag k="name" v="Søre Valvågen" />
		<tag k="place" v="farm" />
		<tag k="ssr:stedsnr" v="382113" />
	</node>
	<node id="-751658" lat="69.1987999999" lon="17.4583444421">
		<tag k="name" v="Hyttekroa" />
		<tag k="place" v="isolated_dwelling" />
		<tag k="ssr:stedsnr" v="139520" />
	</node>
	<node id="-751656" lat="69.1876055569" lon="17.7258000009">
		<tag k="name" v="Fjellstad" />
		<tag k="place" v="farm" />
		<tag k="ssr:stedsnr" v="139501" />
	</node>
	<node id="-751653" lat="69.1593222217" lon="17.5464194397">
		<tag k="name" v="Rotvika" />
		<tag k="place" v="isolated_dwelling" />
		<tag k="ssr:stedsnr" v="139471" />
	</node>
	<node id="-752674" lat="69.1128777821" lon="17.0613499916">
		<tag k="name" v="Beretgammen" />
		<tag k="place" v="isolated_dwelling" />
		<tag k="ssr:stedsnr" v="780308" />
	</node>
	<node id="-751195" lat="69.0848194453" lon="17.0002027676">
		<tag k="name" v="Skogli" />
		<tag k="place" v="farm" />
		<tag k="ssr:stedsnr" v="382036" />
	</node>
	<node id="-751648" lat="69.2237527776" lon="17.4933777803">
		<tag k="name" v="Nylund" />
		<tag k="place" v="farm" />
		<tag k="ssr:stedsnr" v="139417" />
	</node>
	<node id="-751634" lat="69.056555557" lon="16.8567499945">
		<tag k="alt_name" v="Tømmervik" />
		<tag k="name" v="Tømmervika" />
		<tag k="place" v="hamlet" />
		<tag k="ssr:stedsnr" v="139111" />
	</node>
	<node id="-752150" lat="69.0817083312" lon="17.1781388815">
		<tag k="name" v="Sellevoll" />
		<tag k="place" v="farm" />
		<tag k="ssr:stedsnr" v="537257" />
	</node>
	<node id="-751636" lat="69.0464972238" lon="17.0496250059">
		<tag k="name" v="Halsnes" />
		<tag k="place" v="farm" />
		<tag k="ssr:stedsnr" v="139114" />
	</node>
	<node id="-751122" lat="69.2034666683" lon="17.5531055547">
		<tag k="historic" v="shieling" />
		<tag k="name" v="Sætra" />
		<tag k="place" v="locality" />
		<tag k="ssr:stedsnr" v="354590" />
	</node>
	<node id="-751633" lat="69.0495083374" lon="17.1614777786">
		<tag k="alt_name" v="Valvågen, nordre;Valvågen nordre" />
		<tag k="name" v="Nordre Valvågen" />
		<tag k="place" v="farm" />
		<tag k="ssr:stedsnr" v="139109" />
	</node>
	<node id="-751629" lat="69.0796833324" lon="17.0588305637">
		<tag k="name" v="Frovåg" />
		<tag k="place" v="farm" />
		<tag k="ssr:stedsnr" v="139012" />
	</node>
	<node id="-751115" lat="69.1109277781" lon="17.2659611022">
		<tag k="name" v="Uteng" />
		<tag k="place" v="farm" />
		<tag k="ssr:stedsnr" v="354506" />
	</node>
	<node id="-751738" lat="69.0539750038" lon="17.075374988">
		<tag k="name" v="Slottet" />
		<tag k="place" v="farm" />
		<tag k="ssr:stedsnr" v="173665" />
	</node>
	<node id="-751617" lat="69.0640861142" lon="16.8148944484">
		<tag k="alt_name" v="Skrollsvika" />
		<tag k="fixme" v="consider place=hamlet" />
		<tag k="name" v="Skrolsvik" />
		<tag k="place" v="village" />
		<tag k="ssr:stedsnr" v="138122" />
	</node>
</osm>
