<?xml version="1.0" encoding="UTF-8"?>
<osm generator="osmapis" version="0.6">
	<node id="-752893" lat="69.1430861108" lon="17.2958416773">
		<tag k="highway" v="path" />
		<tag k="name" v="Fjellmyrveien" />
		<tag k="ssr:stedsnr" v="901385" />
	</node>
	<node id="-752507" lat="69.1202611116" lon="17.3078083331">
		<tag k="highway" v="path" />
		<tag k="name" v="Bergestien" />
		<tag k="ssr:stedsnr" v="719433" />
	</node>
	<node id="-753012" lat="69.1225805569" lon="17.246488892">
		<tag k="ford" v="yes" />
		<tag k="name" v="Reinlivaet" />
		<tag k="place" v="locality" />
		<tag k="ssr:stedsnr" v="961496" />
	</node>
	<node id="-751844" lat="69.1631138871" lon="17.5846583325">
		<tag k="highway" v="path" />
		<tag k="name" v="Buveien" />
		<tag k="ssr:stedsnr" v="233988" />
	</node>
	<node id="-751703" lat="69.1651611136" lon="17.5910777703">
		<tag k="highway" v="path" />
		<tag k="name" v="Skursandveien" />
		<tag k="ssr:stedsnr" v="172983" />
	</node>
	<node id="-751181" lat="69.0166777746" lon="17.0707527704">
		<tag k="alt_name" v="Skittenstigen" />
		<tag k="highway" v="path" />
		<tag k="name" v="Skittenstien" />
		<tag k="ssr:stedsnr" v="381107" />
	</node>
	<node id="-751043" lat="69.0691527801" lon="16.9478555435">
		<tag k="highway" v="path" />
		<tag k="name" v="Steinveien" />
		<tag k="ssr:stedsnr" v="295594" />
	</node>
	<node id="-751426" lat="69.2290749991" lon="17.6841388808">
		<tag k="ford" v="yes" />
		<tag k="name" v="Vaet" />
		<tag k="place" v="locality" />
		<tag k="ssr:stedsnr" v="51593" />
	</node>
	<node id="-752449" lat="69.2534499975" lon="17.6129027737">
		<tag k="fixme" v="verify maritime location" />
		<tag k="mooring" v="yes" />
		<tag k="name" v="Ånestøa" />
		<tag k="place" v="locality" />
		<tag k="ssr:stedsnr" v="659677" />
	</node>
	<node id="-752574" lat="69.202916668" lon="17.6380527819">
		<tag k="fixme" v="verify maritime location" />
		<tag k="mooring" v="yes" />
		<tag k="name" v="Badestøa" />
		<tag k="place" v="locality" />
		<tag k="ssr:stedsnr" v="720613" />
	</node>
	<node id="-752439" lat="69.1993777802" lon="17.6363861088">
		<tag k="fixme" v="verify maritime location" />
		<tag k="mooring" v="yes" />
		<tag k="name" v="Båtstøa" />
		<tag k="place" v="locality" />
		<tag k="ssr:stedsnr" v="659595" />
	</node>
	<node id="-752691" lat="69.0553194466" lon="17.159669455">
		<tag k="highway" v="path" />
		<tag k="name" v="Breiveien" />
		<tag k="ssr:stedsnr" v="780579" />
	</node>
	<node id="-752687" lat="69.014463891" lon="17.1029861157">
		<tag k="highway" v="path" />
		<tag k="name" v="Vassveien" />
		<tag k="ssr:stedsnr" v="780503" />
	</node>
	<node id="-752423" lat="69.1671222239" lon="17.7136305495">
		<tag k="landuse" v="harbour" />
		<tag k="name" v="Hamna" />
		<tag k="seamark:type" v="harbour" />
		<tag k="ssr:stedsnr" v="658694" />
	</node>
	<node id="-751140" lat="69.0752333359" lon="17.0729694524">
		<tag k="highway" v="path" />
		<tag k="name" v="Stien" />
		<tag k="ssr:stedsnr" v="355273" />
	</node>
	<node id="-751137" lat="69.1649777782" lon="17.589063876">
		<tag k="highway" v="path" />
		<tag k="name" v="Tømmerveien" />
		<tag k="ssr:stedsnr" v="354978" />
	</node>
	<node id="-753047" lat="69.1175305524" lon="17.0712444523">
		<tag k="fixme" v="verify maritime location" />
		<tag k="mooring" v="yes" />
		<tag k="name" v="Jollstøa" />
		<tag k="place" v="locality" />
		<tag k="ssr:stedsnr" v="962293" />
	</node>
	<node id="-752789" lat="69.0598888892" lon="16.8235527783">
		<tag k="highway" v="path" />
		<tag k="name" v="Fjellveien" />
		<tag k="ssr:stedsnr" v="840934" />
	</node>
	<node id="-752530" lat="69.2238750003" lon="17.5647027835">
		<tag k="highway" v="path" />
		<tag k="name" v="Sjøveien" />
		<tag k="ssr:stedsnr" v="719512" />
	</node>
	<node id="-752142" lat="69.0333555561" lon="16.9007638758">
		<tag k="fixme" v="verify maritime location" />
		<tag k="mooring" v="yes" />
		<tag k="name" v="Smistøa" />
		<tag k="place" v="locality" />
		<tag k="ssr:stedsnr" v="536919" />
	</node>
	<node id="-752780" lat="69.2207472258" lon="17.4933361148">
		<tag k="fixme" v="verify maritime location" />
		<tag k="mooring" v="yes" />
		<tag k="name" v="Djupstøa" />
		<tag k="place" v="locality" />
		<tag k="ssr:stedsnr" v="840889" />
	</node>
	<node id="-752010" lat="69.0128250008" lon="17.1317638965">
		<tag k="fixme" v="verify maritime location" />
		<tag k="mooring" v="yes" />
		<tag k="name" v="Støa" />
		<tag k="place" v="locality" />
		<tag k="ssr:stedsnr" v="416662" />
	</node>
	<node id="-752151" lat="69.0825694451" lon="17.066458337">
		<tag k="highway" v="path" />
		<tag k="name" v="Rødveien" />
		<tag k="ssr:stedsnr" v="537261" />
	</node>
	<node id="-752519" lat="69.0829138866" lon="17.0721916607">
		<tag k="highway" v="path" />
		<tag k="name" v="Kråveien" />
		<tag k="ssr:stedsnr" v="719286" />
	</node>
	<node id="-751425" lat="69.1613527746" lon="17.5871472314">
		<tag k="highway" v="path" />
		<tag k="name" v="Holtemyrveien" />
		<tag k="ssr:stedsnr" v="51560" />
	</node>
	<node id="-751492" lat="69.1790416655" lon="17.7544222262">
		<tag k="highway" v="path" />
		<tag k="name" v="Gotlib-Persaveien" />
		<tag k="ssr:stedsnr" v="53711" />
	</node>
	<node id="-751874" lat="69.215469446" lon="17.5486527866">
		<tag k="highway" v="path" />
		<tag k="name" v="Haillveien" />
		<tag k="ssr:stedsnr" v="234560" />
	</node>
</osm>
