<?xml version="1.0" encoding="UTF-8"?>
<osm generator="osmapis" version="0.6">
	<node id="-751615" lat="69.1781666646" lon="17.589244433">
		<tag k="name" v="Sørlia" />
		<tag k="natural" v="slope" />
		<tag k="place" v="locality" />
		<tag k="ssr:stedsnr" v="901996" />
	</node>
	<node id="-751613" lat="69.0733111074" lon="16.8235416645">
		<tag k="name" v="Bjørnbakken" />
		<tag k="natural" v="slope" />
		<tag k="place" v="locality" />
		<tag k="ssr:stedsnr" v="901887" />
	</node>
	<node id="-751612" lat="69.2171416668" lon="17.3614250002">
		<tag k="alt_name" v="Skoglifjellet, store" />
		<tag k="fixme" v="consider natural=peak for the most distinct mountains in the district" />
		<tag k="name" v="Store Skoglifjellet" />
		<tag k="natural" v="hill" />
		<tag k="place" v="locality" />
		<tag k="ssr:stedsnr" v="901880" />
	</node>
	<node id="-751606" lat="69.0517388907" lon="17.1165388792">
		<tag k="name" v="Flatholtan" />
		<tag k="natural" v="hill" />
		<tag k="place" v="locality" />
		<tag k="ssr:stedsnr" v="901731" />
	</node>
	<node id="-751604" lat="69.1668499982" lon="17.6955916511">
		<tag k="name" v="Bjørnberget" />
		<tag k="natural" v="hill" />
		<tag k="place" v="locality" />
		<tag k="ssr:stedsnr" v="901726" />
	</node>
	<node id="-751603" lat="69.1732833324" lon="17.7467833393">
		<tag k="name" v="Maria-Finskadalen" />
		<tag k="natural" v="valley" />
		<tag k="place" v="locality" />
		<tag k="ssr:stedsnr" v="901723" />
	</node>
	<node id="-751602" lat="69.0632916699" lon="17.1198361146">
		<tag k="name" v="Rødbergholtet" />
		<tag k="natural" v="hill" />
		<tag k="place" v="locality" />
		<tag k="ssr:stedsnr" v="901719" />
	</node>
	<node id="-751601" lat="69.1834972223" lon="17.7837555501">
		<tag k="name" v="Skredmoan" />
		<tag k="place" v="locality" />
		<tag k="ssr:stedsnr" v="901718" />
	</node>
	<node id="-751600" lat="69.0328194434" lon="17.2002499973">
		<tag k="name" v="Stormyrbakken" />
		<tag k="natural" v="slope" />
		<tag k="place" v="locality" />
		<tag k="ssr:stedsnr" v="901706" />
	</node>
	<node id="-751599" lat="69.1853833322" lon="17.8189249937">
		<tag k="name" v="Livelausbakken" />
		<tag k="natural" v="slope" />
		<tag k="place" v="locality" />
		<tag k="ssr:stedsnr" v="901694" />
	</node>
	<node id="-751598" lat="69.1930611087" lon="17.7901027729">
		<tag k="name" v="Holmen" />
		<tag k="place" v="locality" />
		<tag k="ssr:stedsnr" v="901690" />
	</node>
	<node id="-751597" lat="69.1911361127" lon="17.8294666523">
		<tag k="name" v="Grønnebakken" />
		<tag k="natural" v="slope" />
		<tag k="place" v="locality" />
		<tag k="ssr:stedsnr" v="901689" />
	</node>
	<node id="-751594" lat="69.0334638908" lon="17.0694277761">
		<tag k="name" v="Skittmyrholtet" />
		<tag k="natural" v="hill" />
		<tag k="place" v="locality" />
		<tag k="ssr:stedsnr" v="901665" />
	</node>
	<node id="-751593" lat="69.0394250017" lon="17.0557055436">
		<tag k="name" v="Naustberget" />
		<tag k="natural" v="hill" />
		<tag k="place" v="locality" />
		<tag k="ssr:stedsnr" v="901666" />
	</node>
	<node id="-751592" lat="69.0519027742" lon="17.1523361015">
		<tag k="name" v="Tømmerhågen" />
		<tag k="natural" v="hill" />
		<tag k="place" v="locality" />
		<tag k="ssr:stedsnr" v="901663" />
	</node>
	<node id="-751588" lat="69.0841444434" lon="16.9971749981">
		<tag k="name" v="Undbakkan" />
		<tag k="natural" v="slope" />
		<tag k="place" v="locality" />
		<tag k="ssr:stedsnr" v="901622" />
	</node>
	<node id="-751587" lat="69.0822249999" lon="16.9855749957">
		<tag k="name" v="Rapet" />
		<tag k="natural" v="hill" />
		<tag k="place" v="locality" />
		<tag k="ssr:stedsnr" v="901620" />
	</node>
	<node id="-751586" lat="69.0833305529" lon="16.9767111015">
		<tag k="name" v="Ramberget" />
		<tag k="natural" v="hill" />
		<tag k="place" v="locality" />
		<tag k="ssr:stedsnr" v="901618" />
	</node>
	<node id="-751585" lat="69.2112527757" lon="17.6695083394">
		<tag k="name" v="Hunddalshøgda" />
		<tag k="natural" v="hill" />
		<tag k="place" v="locality" />
		<tag k="ssr:stedsnr" v="901614" />
	</node>
	<node id="-751584" lat="69.0846972253" lon="17.0051083206">
		<tag k="name" v="Mølnhaugan" />
		<tag k="natural" v="hill" />
		<tag k="place" v="locality" />
		<tag k="ssr:stedsnr" v="901612" />
	</node>
	<node id="-751583" lat="69.208483334" lon="17.6224833374">
		<tag k="name" v="Småbakkan" />
		<tag k="natural" v="slope" />
		<tag k="place" v="locality" />
		<tag k="ssr:stedsnr" v="901605" />
	</node>
	<node id="-751582" lat="69.1990055515" lon="17.5417250043">
		<tag k="name" v="Langvassholtet" />
		<tag k="natural" v="hill" />
		<tag k="place" v="locality" />
		<tag k="ssr:stedsnr" v="901601" />
	</node>
	<node id="-751581" lat="69.0837972253" lon="16.975219453">
		<tag k="name" v="Høgliberget" />
		<tag k="natural" v="hill" />
		<tag k="place" v="locality" />
		<tag k="ssr:stedsnr" v="901600" />
	</node>
	<node id="-751578" lat="69.2171416698" lon="17.5496833422">
		<tag k="name" v="Haillbakken" />
		<tag k="natural" v="slope" />
		<tag k="place" v="locality" />
		<tag k="ssr:stedsnr" v="901577" />
	</node>
	<node id="-751575" lat="69.111950003" lon="17.0223916775">
		<tag k="fixme" v="consider natural=peak for the most distinct mountains in the district" />
		<tag k="name" v="Stibergnakken" />
		<tag k="natural" v="hill" />
		<tag k="place" v="locality" />
		<tag k="ssr:stedsnr" v="901557" />
	</node>
	<node id="-751573" lat="69.1573555565" lon="17.6661888952">
		<tag k="name" v="Vest med landet" />
		<tag k="place" v="locality" />
		<tag k="ssr:stedsnr" v="901540" />
	</node>
	<node id="-751572" lat="69.1391333314" lon="16.9785360974">
		<tag k="name" v="Rødberget" />
		<tag k="natural" v="hill" />
		<tag k="place" v="locality" />
		<tag k="ssr:stedsnr" v="901533" />
	</node>
	<node id="-751571" lat="69.161494449" lon="17.632813888">
		<tag k="name" v="Durmålskaret" />
		<tag k="natural" v="valley" />
		<tag k="place" v="locality" />
		<tag k="ssr:stedsnr" v="901530" />
	</node>
	<node id="-751569" lat="69.1175583363" lon="17.0245694515">
		<tag k="name" v="Rødsandbotn" />
		<tag k="natural" v="valley" />
		<tag k="place" v="locality" />
		<tag k="ssr:stedsnr" v="901523" />
	</node>
	<node id="-751568" lat="69.1604055588" lon="17.5743305663">
		<tag k="name" v="Mølnehaugen" />
		<tag k="natural" v="hill" />
		<tag k="place" v="locality" />
		<tag k="ssr:stedsnr" v="901514" />
	</node>
	<node id="-751567" lat="69.0783555581" lon="17.0156500006">
		<tag k="name" v="Svartholla" />
		<tag k="natural" v="valley" />
		<tag k="place" v="locality" />
		<tag k="ssr:stedsnr" v="901500" />
	</node>
	<node id="-751564" lat="69.1700166672" lon="17.788161114">
		<tag k="fixme" v="consider natural=peak for the most distinct mountains in the district" />
		<tag k="name" v="Fløya" />
		<tag k="natural" v="hill" />
		<tag k="place" v="locality" />
		<tag k="ssr:stedsnr" v="901480" />
	</node>
	<node id="-751563" lat="69.2029499982" lon="17.2217777867">
		<tag k="name" v="Storgropa" />
		<tag k="natural" v="valley" />
		<tag k="place" v="locality" />
		<tag k="ssr:stedsnr" v="901479" />
	</node>
	<node id="-751562" lat="69.1625583318" lon="17.0733527642">
		<tag k="name" v="Lomslian" />
		<tag k="natural" v="slope" />
		<tag k="place" v="locality" />
		<tag k="ssr:stedsnr" v="901428" />
	</node>
	<node id="-751560" lat="69.1064111139" lon="17.2567444452">
		<tag k="name" v="Elveskaret" />
		<tag k="natural" v="valley" />
		<tag k="place" v="locality" />
		<tag k="ssr:stedsnr" v="901418" />
	</node>
	<node id="-751559" lat="69.1430861108" lon="17.3279722094">
		<tag k="name" v="Vedryet" />
		<tag k="natural" v="slope" />
		<tag k="place" v="locality" />
		<tag k="ssr:stedsnr" v="901386" />
	</node>
	<node id="-751557" lat="69.1428944401" lon="17.0885055619">
		<tag k="name" v="Naustlia" />
		<tag k="natural" v="slope" />
		<tag k="place" v="locality" />
		<tag k="ssr:stedsnr" v="901382" />
	</node>
	<node id="-751554" lat="69.1450833321" lon="17.087858326">
		<tag k="name" v="Kvesmeberget" />
		<tag k="natural" v="hill" />
		<tag k="place" v="locality" />
		<tag k="ssr:stedsnr" v="901363" />
	</node>
	<node id="-751553" lat="69.124024999" lon="17.0973694304">
		<tag k="name" v="Austersia" />
		<tag k="natural" v="slope" />
		<tag k="place" v="locality" />
		<tag k="ssr:stedsnr" v="901314" />
	</node>
	<node id="-751552" lat="69.0982249964" lon="17.0682110963">
		<tag k="name" v="Rypungkråa" />
		<tag k="natural" v="slope" />
		<tag k="place" v="locality" />
		<tag k="ssr:stedsnr" v="901304" />
	</node>
	<node id="-751551" lat="69.0809583303" lon="17.0497083304">
		<tag k="name" v="Verselbakkan" />
		<tag k="natural" v="slope" />
		<tag k="place" v="locality" />
		<tag k="ssr:stedsnr" v="901285" />
	</node>
	<node id="-751550" lat="69.0873027749" lon="17.071399986">
		<tag k="name" v="Hermannsbakkan" />
		<tag k="natural" v="slope" />
		<tag k="place" v="locality" />
		<tag k="ssr:stedsnr" v="901273" />
	</node>
	<node id="-751549" lat="69.0888777796" lon="17.1746083394">
		<tag k="name" v="Reinlia" />
		<tag k="natural" v="slope" />
		<tag k="place" v="locality" />
		<tag k="ssr:stedsnr" v="901256" />
	</node>
	<node id="-751548" lat="69.0794305529" lon="17.1695027678">
		<tag k="name" v="Storforrhågen" />
		<tag k="natural" v="hill" />
		<tag k="place" v="locality" />
		<tag k="ssr:stedsnr" v="901257" />
	</node>
	<node id="-751547" lat="69.0889638912" lon="17.1564305493">
		<tag k="name" v="Bjørndalen" />
		<tag k="natural" v="valley" />
		<tag k="place" v="locality" />
		<tag k="ssr:stedsnr" v="901250" />
	</node>
	<node id="-751546" lat="69.0636500009" lon="16.8765972126">
		<tag k="name" v="Jorddalen" />
		<tag k="natural" v="valley" />
		<tag k="place" v="locality" />
		<tag k="ssr:stedsnr" v="900993" />
	</node>
	<node id="-751536" lat="69.2703416631" lon="17.5826416704">
		<tag k="fixme" v="consider natural=peak for the most distinct mountains in the district" />
		<tag k="name" v="Midnattsfjellet" />
		<tag k="natural" v="hill" />
		<tag k="place" v="locality" />
		<tag k="ssr:stedsnr" v="868560" />
	</node>
	<node id="-751535" lat="69.294683335" lon="17.5736944389">
		<tag k="name" v="Reindalen - Boazovággi" />
		<tag k="name:no" v="Reindalen" />
		<tag k="name:se" v="Boazovággi" />
		<tag k="natural" v="valley" />
		<tag k="old_name:se" v="Boazuvaggi" />
		<tag k="place" v="locality" />
		<tag k="ssr:stedsnr" v="868549" />
	</node>
	<node id="-751530" lat="69.1765833296" lon="17.8389055501">
		<tag k="alt_name" v="Stangefjell" />
		<tag k="fixme" v="consider natural=peak for the most distinct mountains in the district" />
		<tag k="name" v="Stangerfjellet" />
		<tag k="natural" v="hill" />
		<tag k="place" v="locality" />
		<tag k="ssr:stedsnr" v="868464" />
	</node>
	<node id="-751521" lat="69.151211112" lon="17.0701333435">
		<tag k="alt_name" v="Laberg" />
		<tag k="name" v="Laberget" />
		<tag k="natural" v="hill" />
		<tag k="place" v="locality" />
		<tag k="ssr:stedsnr" v="867277" />
	</node>
	<node id="-751520" lat="69.1672611115" lon="17.2714222166">
		<tag k="fixme" v="consider natural=peak for the most distinct mountains in the district" />
		<tag k="name" v="Jøvikfjellet" />
		<tag k="natural" v="hill" />
		<tag k="place" v="locality" />
		<tag k="ssr:stedsnr" v="867263" />
	</node>
	<node id="-751519" lat="69.1793166684" lon="17.1840583284">
		<tag k="fixme" v="consider natural=peak for the most distinct mountains in the district" />
		<tag k="name" v="Luten" />
		<tag k="natural" v="hill" />
		<tag k="place" v="locality" />
		<tag k="ssr:stedsnr" v="867255" />
	</node>
	<node id="-751518" lat="69.2260250036" lon="17.2535083259">
		<tag k="alt_name" v="Ånderdalen, in" />
		<tag k="name" v="Indre Ånderdalen" />
		<tag k="natural" v="valley" />
		<tag k="place" v="locality" />
		<tag k="ssr:stedsnr" v="867212" />
	</node>
	<node id="-751516" lat="69.2371138872" lon="17.2743333307">
		<tag k="fixme" v="consider natural=peak for the most distinct mountains in the district" />
		<tag k="name" v="Kolkjerka" />
		<tag k="natural" v="hill" />
		<tag k="place" v="locality" />
		<tag k="ssr:stedsnr" v="867204" />
	</node>
	<node id="-751512" lat="69.0350972239" lon="17.2156111004">
		<tag k="name" v="Ramfløyholtet" />
		<tag k="natural" v="hill" />
		<tag k="place" v="locality" />
		<tag k="ssr:stedsnr" v="867141" />
	</node>
	<node id="-751505" lat="69.1067222242" lon="17.0562194534">
		<tag k="name" v="Vasslia" />
		<tag k="natural" v="slope" />
		<tag k="place" v="locality" />
		<tag k="ssr:stedsnr" v="867058" />
	</node>
	<node id="-751496" lat="69.1769694475" lon="17.757163892">
		<tag k="name" v="Hopen" />
		<tag k="natural" v="slope" />
		<tag k="place" v="locality" />
		<tag k="ssr:stedsnr" v="842706" />
	</node>
	<node id="-751495" lat="69.1743388903" lon="17.7577638832">
		<tag k="name" v="Askefisen" />
		<tag k="natural" v="slope" />
		<tag k="place" v="locality" />
		<tag k="ssr:stedsnr" v="842705" />
	</node>
	<node id="-751493" lat="69.2472638861" lon="17.6131472183">
		<tag k="name" v="Oråttan" />
		<tag k="natural" v="hill" />
		<tag k="place" v="locality" />
		<tag k="ssr:stedsnr" v="842691" />
	</node>
	<node id="-751489" lat="69.2408361117" lon="17.6025305563">
		<tag k="name" v="Trolltjønnhøgda" />
		<tag k="natural" v="hill" />
		<tag k="place" v="locality" />
		<tag k="ssr:stedsnr" v="842654" />
	</node>
	<node id="-751488" lat="69.2507277744" lon="17.5730888925">
		<tag k="name" v="Øvervollen" />
		<tag k="place" v="locality" />
		<tag k="ssr:stedsnr" v="842648" />
	</node>
	<node id="-751486" lat="69.0289333291" lon="17.1919444388">
		<tag k="fixme" v="consider natural=peak for the most distinct mountains in the district" />
		<tag k="name" v="Stangnesåkerholtet" />
		<tag k="natural" v="hill" />
		<tag k="place" v="locality" />
		<tag k="ssr:stedsnr" v="841666" />
	</node>
	<node id="-751483" lat="69.0755583307" lon="16.9137860988">
		<tag k="name" v="Fossebakken" />
		<tag k="natural" v="slope" />
		<tag k="place" v="locality" />
		<tag k="ssr:stedsnr" v="841581" />
	</node>
	<node id="-751481" lat="69.2256000008" lon="17.6448749972">
		<tag k="name" v="Mathaugen" />
		<tag k="natural" v="hill" />
		<tag k="place" v="locality" />
		<tag k="ssr:stedsnr" v="841554" />
	</node>
	<node id="-751479" lat="69.2356472235" lon="17.6074499865">
		<tag k="name" v="Innerlia" />
		<tag k="natural" v="slope" />
		<tag k="place" v="locality" />
		<tag k="ssr:stedsnr" v="841538" />
	</node>
	<node id="-751477" lat="69.2376055534" lon="17.5761138803">
		<tag k="name" v="Humpen" />
		<tag k="natural" v="hill" />
		<tag k="place" v="locality" />
		<tag k="ssr:stedsnr" v="841526" />
	</node>
	<node id="-751474" lat="69.1352722258" lon="17.0153111207">
		<tag k="name" v="Bjørnebakken" />
		<tag k="natural" v="slope" />
		<tag k="place" v="locality" />
		<tag k="ssr:stedsnr" v="841511" />
	</node>
	<node id="-751471" lat="69.1703638885" lon="17.7531499971">
		<tag k="name" v="Høghågen" />
		<tag k="natural" v="hill" />
		<tag k="place" v="locality" />
		<tag k="ssr:stedsnr" v="841462" />
	</node>
	<node id="-751470" lat="69.0419444447" lon="17.221816675">
		<tag k="name" v="Bukkholmholtet" />
		<tag k="natural" v="hill" />
		<tag k="place" v="locality" />
		<tag k="ssr:stedsnr" v="841414" />
	</node>
	<node id="-751469" lat="69.1380972248" lon="17.0934111208">
		<tag k="name" v="Råvedberget" />
		<tag k="natural" v="hill" />
		<tag k="place" v="locality" />
		<tag k="ssr:stedsnr" v="841369" />
	</node>
	<node id="-751466" lat="69.1159805586" lon="17.0591527659">
		<tag k="name" v="Kristianbrottet" />
		<tag k="natural" v="slope" />
		<tag k="place" v="locality" />
		<tag k="ssr:stedsnr" v="841324" />
	</node>
	<node id="-751464" lat="69.0960416634" lon="17.0533333388">
		<tag k="name" v="Storlia" />
		<tag k="natural" v="slope" />
		<tag k="place" v="locality" />
		<tag k="ssr:stedsnr" v="841309" />
	</node>
	<node id="-751462" lat="69.0570527763" lon="16.831141672">
		<tag k="name" v="Djupedalen" />
		<tag k="natural" v="valley" />
		<tag k="place" v="locality" />
		<tag k="ssr:stedsnr" v="840991" />
	</node>
	<node id="-749686" lat="69.0481333344" lon="17.0522333345">
		<tag k="name" v="Seljesletta" />
		<tag k="place" v="locality" />
		<tag k="ssr:stedsnr" v="294719" />
	</node>
	<node id="-751459" lat="69.167225" lon="17.5905916562">
		<tag k="name" v="Flaten" />
		<tag k="place" v="locality" />
		<tag k="ssr:stedsnr" v="840975" />
	</node>
	<node id="-751451" lat="69.115308332" lon="16.8105472099">
		<tag k="name" v="Skallhammaren" />
		<tag k="natural" v="hill" />
		<tag k="place" v="locality" />
		<tag k="ssr:stedsnr" v="840925" />
	</node>
	<node id="-751444" lat="69.2280472238" lon="17.4856527889">
		<tag k="name" v="Røyrmodalen" />
		<tag k="natural" v="valley" />
		<tag k="place" v="locality" />
		<tag k="ssr:stedsnr" v="840886" />
	</node>
	<node id="-751439" lat="69.1862666657" lon="17.3701083268">
		<tag k="name" v="Holmedalen" />
		<tag k="natural" v="valley" />
		<tag k="place" v="locality" />
		<tag k="ssr:stedsnr" v="840850" />
	</node>
	<node id="-751438" lat="69.1777500006" lon="17.4914944395">
		<tag k="name" v="Gjerdesletta" />
		<tag k="place" v="locality" />
		<tag k="ssr:stedsnr" v="840841" />
	</node>
	<node id="-751436" lat="69.1765111078" lon="17.7727222278">
		<tag k="name" v="Storbakken" />
		<tag k="natural" v="slope" />
		<tag k="place" v="locality" />
		<tag k="ssr:stedsnr" v="840721" />
	</node>
	<node id="-751435" lat="69.0888472216" lon="17.0397972282">
		<tag k="name" v="Hillesåshågen" />
		<tag k="natural" v="hill" />
		<tag k="place" v="locality" />
		<tag k="ssr:stedsnr" v="840617" />
	</node>
	<node id="-751434" lat="69.0831194474" lon="16.9803833405">
		<tag k="name" v="Kringelhamran" />
		<tag k="natural" v="hill" />
		<tag k="place" v="locality" />
		<tag k="ssr:stedsnr" v="840615" />
	</node>
	<node id="-751433" lat="69.084699999" lon="16.9732416687">
		<tag k="name" v="Svarteberget" />
		<tag k="natural" v="hill" />
		<tag k="place" v="locality" />
		<tag k="ssr:stedsnr" v="840587" />
	</node>
	<node id="-751432" lat="69.200838891" lon="17.6047166673">
		<tag k="name" v="Storgrubakken" />
		<tag k="natural" v="slope" />
		<tag k="place" v="locality" />
		<tag k="ssr:stedsnr" v="840582" />
	</node>
	<node id="-751429" lat="69.1027027801" lon="17.0183694475">
		<tag k="name" v="Bjørnliryggen" />
		<tag k="natural" v="ridge" />
		<tag k="place" v="locality" />
		<tag k="ssr:stedsnr" v="840561" />
	</node>
	<node id="-751427" lat="69.2283277764" lon="17.688372218">
		<tag k="name" v="Forrebakken" />
		<tag k="natural" v="slope" />
		<tag k="place" v="locality" />
		<tag k="ssr:stedsnr" v="840556" />
	</node>
	<node id="-751422" lat="69.1397527766" lon="17.4390638784">
		<tag k="name" v="Teinsletta" />
		<tag k="place" v="locality" />
		<tag k="ssr:stedsnr" v="840460" />
	</node>
	<node id="-751421" lat="69.1510527741" lon="17.388327767">
		<tag k="name" v="Hestegjerdet" />
		<tag k="place" v="locality" />
		<tag k="ssr:stedsnr" v="840455" />
	</node>
	<node id="-751420" lat="69.1443611086" lon="17.3046111206">
		<tag k="name" v="Aksla" />
		<tag k="place" v="locality" />
		<tag k="ssr:stedsnr" v="840384" />
	</node>
	<node id="-751419" lat="69.2043083315" lon="17.7252444471">
		<tag k="name" v="Smålian" />
		<tag k="natural" v="slope" />
		<tag k="place" v="locality" />
		<tag k="ssr:stedsnr" v="837610" />
	</node>
	<node id="-751418" lat="69.2025694422" lon="17.7159555613">
		<tag k="name" v="Moan" />
		<tag k="place" v="locality" />
		<tag k="ssr:stedsnr" v="837538" />
	</node>
	<node id="-751415" lat="69.1581277763" lon="17.5578305555">
		<tag k="name" v="Kvesmebolhaugen" />
		<tag k="natural" v="hill" />
		<tag k="place" v="locality" />
		<tag k="ssr:stedsnr" v="818490" />
	</node>
	<node id="-751411" lat="69.2680138875" lon="17.2810694299">
		<tag k="name" v="Veidmannsaksla" />
		<tag k="natural" v="ridge" />
		<tag k="place" v="locality" />
		<tag k="ssr:stedsnr" v="809387" />
	</node>
	<node id="-751409" lat="69.1068111085" lon="17.1599749885">
		<tag k="fixme" v="consider natural=peak for the most distinct mountains in the district" />
		<tag k="name" v="Eidefjellet - Áiddevárri" />
		<tag k="name:no" v="Eidefjellet" />
		<tag k="name:se" v="Áiddevárri" />
		<tag k="natural" v="hill" />
		<tag k="old_name:se" v="Aidevarri" />
		<tag k="place" v="locality" />
		<tag k="ssr:stedsnr" v="809052" />
	</node>
	<node id="-751405" lat="69.2613888864" lon="17.457236109">
		<tag k="fixme" v="consider natural=peak for the most distinct mountains in the district" />
		<tag k="name" v="Førstefjellet" />
		<tag k="natural" v="hill" />
		<tag k="place" v="locality" />
		<tag k="ssr:stedsnr" v="807589" />
	</node>
	<node id="-751403" lat="69.3104416648" lon="17.5563472208">
		<tag k="fixme" v="consider natural=peak for the most distinct mountains in the district" />
		<tag k="name" v="Helleryggen - Unna Čeroš" />
		<tag k="name:no" v="Helleryggen" />
		<tag k="name:se" v="Unna Čeroš" />
		<tag k="natural" v="hill" />
		<tag k="old_name:se" v="Čeruš, unna" />
		<tag k="place" v="locality" />
		<tag k="ssr:stedsnr" v="807573" />
	</node>
	<node id="-751396" lat="69.1057638893" lon="16.9895333285">
		<tag k="name" v="Steinskardet" />
		<tag k="natural" v="valley" />
		<tag k="place" v="locality" />
		<tag k="ssr:stedsnr" v="807210" />
	</node>
	<node id="-751395" lat="69.1109611106" lon="17.1141805476">
		<tag k="name" v="Finnskarddalen" />
		<tag k="natural" v="valley" />
		<tag k="place" v="locality" />
		<tag k="ssr:stedsnr" v="807205" />
	</node>
	<node id="-751394" lat="69.1135416659" lon="16.8316972132">
		<tag k="fixme" v="consider natural=peak for the most distinct mountains in the district" />
		<tag k="name" v="Dova" />
		<tag k="natural" v="hill" />
		<tag k="place" v="locality" />
		<tag k="ssr:stedsnr" v="807203" />
	</node>
	<node id="-751388" lat="69.0354388857" lon="17.1206138765">
		<tag k="name" v="Veten" />
		<tag k="natural" v="hill" />
		<tag k="place" v="locality" />
		<tag k="ssr:stedsnr" v="807082" />
	</node>
	<node id="-751375" lat="69.1343666627" lon="17.0942861075">
		<tag k="name" v="Bunkheia" />
		<tag k="natural" v="hill" />
		<tag k="place" v="locality" />
		<tag k="ssr:stedsnr" v="806201" />
	</node>
	<node id="-751369" lat="69.1780833367" lon="17.76820278">
		<tag k="name" v="Bergmannen" />
		<tag k="natural" v="hill" />
		<tag k="place" v="locality" />
		<tag k="ssr:stedsnr" v="781708" />
	</node>
	<node id="-751368" lat="69.1740111097" lon="17.7355750089">
		<tag k="name" v="Lauvsletta" />
		<tag k="place" v="locality" />
		<tag k="ssr:stedsnr" v="781705" />
	</node>
	<node id="-751366" lat="69.2150527783" lon="17.6576444318">
		<tag k="name" v="Storbakken" />
		<tag k="natural" v="slope" />
		<tag k="place" v="locality" />
		<tag k="ssr:stedsnr" v="781609" />
	</node>
	<node id="-751365" lat="69.204458336" lon="17.6263666629">
		<tag k="name" v="Kvalryggen" />
		<tag k="natural" v="ridge" />
		<tag k="place" v="locality" />
		<tag k="ssr:stedsnr" v="781603" />
	</node>
	<node id="-751364" lat="69.170791671" lon="17.7578694325">
		<tag k="name" v="Petterbakken" />
		<tag k="natural" v="slope" />
		<tag k="place" v="locality" />
		<tag k="ssr:stedsnr" v="780692" />
	</node>
	<node id="-751360" lat="69.026280554" lon="17.1901777647">
		<tag k="name" v="Ryhågen" />
		<tag k="natural" v="hill" />
		<tag k="place" v="locality" />
		<tag k="ssr:stedsnr" v="780625" />
	</node>
	<node id="-751358" lat="69.0405138875" lon="17.1209194405">
		<tag k="fixme" v="consider natural=peak for the most distinct mountains in the district" />
		<tag k="name" v="Botnfjellet" />
		<tag k="natural" v="hill" />
		<tag k="place" v="locality" />
		<tag k="ssr:stedsnr" v="780584" />
	</node>
	<node id="-751355" lat="69.0544472262" lon="17.15271111">
		<tag k="name" v="Vedhegran" />
		<tag k="natural" v="slope" />
		<tag k="place" v="locality" />
		<tag k="ssr:stedsnr" v="780578" />
	</node>
	<node id="-751354" lat="69.0370888857" lon="17.0558888793">
		<tag k="name" v="Hamnhågen" />
		<tag k="natural" v="hill" />
		<tag k="place" v="locality" />
		<tag k="ssr:stedsnr" v="780577" />
	</node>
	<node id="-751353" lat="69.0113444408" lon="17.1106722167">
		<tag k="name" v="Tevikstrandhågen" />
		<tag k="natural" v="hill" />
		<tag k="place" v="locality" />
		<tag k="ssr:stedsnr" v="780506" />
	</node>
	<node id="-751350" lat="69.0247861105" lon="17.0871194472">
		<tag k="name" v="Trollnuten" />
		<tag k="natural" v="hill" />
		<tag k="place" v="locality" />
		<tag k="ssr:stedsnr" v="780482" />
	</node>
	<node id="-751347" lat="69.1235888904" lon="17.0397444336">
		<tag k="name" v="Rødsandheia" />
		<tag k="natural" v="hill" />
		<tag k="place" v="locality" />
		<tag k="ssr:stedsnr" v="780465" />
	</node>
	<node id="-751345" lat="69.1618333358" lon="17.575505544">
		<tag k="name" v="Benkholla" />
		<tag k="natural" v="valley" />
		<tag k="place" v="locality" />
		<tag k="ssr:stedsnr" v="780449" />
	</node>
	<node id="-751344" lat="69.1696305524" lon="17.5822027848">
		<tag k="name" v="Bukkholla" />
		<tag k="natural" v="valley" />
		<tag k="place" v="locality" />
		<tag k="ssr:stedsnr" v="780442" />
	</node>
	<node id="-751343" lat="69.1723499975" lon="17.765305551">
		<tag k="name" v="Kjellslåtta" />
		<tag k="natural" v="slope" />
		<tag k="place" v="locality" />
		<tag k="ssr:stedsnr" v="780423" />
	</node>
	<node id="-751342" lat="69.1689361109" lon="17.7767250097">
		<tag k="fixme" v="consider natural=peak for the most distinct mountains in the district" />
		<tag k="name" v="Aspeslettkollen" />
		<tag k="natural" v="hill" />
		<tag k="place" v="locality" />
		<tag k="ssr:stedsnr" v="780418" />
	</node>
	<node id="-751341" lat="69.0333805552" lon="17.2172944504">
		<tag k="name" v="Småholtan" />
		<tag k="natural" v="hill" />
		<tag k="place" v="locality" />
		<tag k="ssr:stedsnr" v="780362" />
	</node>
	<node id="-751337" lat="69.1013833363" lon="17.0456416621">
		<tag k="name" v="Kvannhollan" />
		<tag k="natural" v="valley" />
		<tag k="place" v="locality" />
		<tag k="ssr:stedsnr" v="780288" />
	</node>
	<node id="-751336" lat="69.0878027748" lon="17.1737222246">
		<tag k="name" v="Rødberget" />
		<tag k="natural" v="hill" />
		<tag k="place" v="locality" />
		<tag k="ssr:stedsnr" v="780266" />
	</node>
	<node id="-751335" lat="69.0744694467" lon="17.160224994">
		<tag k="fixme" v="consider natural=peak for the most distinct mountains in the district" />
		<tag k="name" v="Mossholtan" />
		<tag k="natural" v="hill" />
		<tag k="place" v="locality" />
		<tag k="ssr:stedsnr" v="780256" />
	</node>
	<node id="-751333" lat="69.0567305549" lon="16.8353277772">
		<tag k="fixme" v="consider natural=peak for the most distinct mountains in the district" />
		<tag k="name" v="Korsvikhøgda" />
		<tag k="natural" v="hill" />
		<tag k="place" v="locality" />
		<tag k="ssr:stedsnr" v="779997" />
	</node>
	<node id="-751330" lat="69.1792666672" lon="17.6275194422">
		<tag k="name" v="Skaret" />
		<tag k="natural" v="valley" />
		<tag k="place" v="locality" />
		<tag k="ssr:stedsnr" v="779991" />
	</node>
	<node id="-751328" lat="69.054347226" lon="16.8542111124">
		<tag k="name" v="Sjøberget" />
		<tag k="natural" v="hill" />
		<tag k="place" v="locality" />
		<tag k="ssr:stedsnr" v="779973" />
	</node>
	<node id="-751321" lat="69.2087749974" lon="17.4785000084">
		<tag k="name" v="Gammskaret" />
		<tag k="natural" v="valley" />
		<tag k="place" v="locality" />
		<tag k="ssr:stedsnr" v="779929" />
	</node>
	<node id="-751319" lat="69.0603638902" lon="16.9277111069">
		<tag k="name" v="Durmålshågen" />
		<tag k="natural" v="hill" />
		<tag k="place" v="locality" />
		<tag k="ssr:stedsnr" v="779912" />
	</node>
	<node id="-751317" lat="69.2174555539" lon="17.4188416753">
		<tag k="name" v="Skolpeholla" />
		<tag k="natural" v="valley" />
		<tag k="place" v="locality" />
		<tag k="ssr:stedsnr" v="779878" />
	</node>
	<node id="-751315" lat="69.177725" lon="17.4165750028">
		<tag k="name" v="Syregressholla" />
		<tag k="natural" v="valley" />
		<tag k="place" v="locality" />
		<tag k="ssr:stedsnr" v="779824" />
	</node>
	<node id="-751314" lat="69.0591388898" lon="16.8010444372">
		<tag k="name" v="Jensevarden" />
		<tag k="natural" v="hill" />
		<tag k="place" v="locality" />
		<tag k="ssr:stedsnr" v="779794" />
	</node>
	<node id="-751312" lat="69.1923833339" lon="17.84366667">
		<tag k="name" v="Slettlia" />
		<tag k="natural" v="slope" />
		<tag k="place" v="locality" />
		<tag k="ssr:stedsnr" v="779686" />
	</node>
	<node id="-751307" lat="69.1574972224" lon="17.6211916662">
		<tag k="name" v="Vardhøgda" />
		<tag k="natural" v="hill" />
		<tag k="place" v="locality" />
		<tag k="ssr:stedsnr" v="779536" />
	</node>
	<node id="-751306" lat="69.1656583295" lon="17.68624167">
		<tag k="name" v="Kjerringdalen" />
		<tag k="natural" v="valley" />
		<tag k="place" v="locality" />
		<tag k="ssr:stedsnr" v="779530" />
	</node>
	<node id="-751301" lat="69.1476972193" lon="17.2622472141">
		<tag k="name" v="Flabergan" />
		<tag k="natural" v="hill" />
		<tag k="place" v="locality" />
		<tag k="ssr:stedsnr" v="779414" />
	</node>
	<node id="-751299" lat="69.198174997" lon="17.7714111129">
		<tag k="name" v="Litjeslåttkollen" />
		<tag k="natural" v="hill" />
		<tag k="place" v="locality" />
		<tag k="ssr:stedsnr" v="776946" />
	</node>
	<node id="-751298" lat="69.2037722265" lon="17.802291659">
		<tag k="name" v="Kudalsberget" />
		<tag k="natural" v="hill" />
		<tag k="place" v="locality" />
		<tag k="ssr:stedsnr" v="776940" />
	</node>
	<node id="-751297" lat="69.2314055576" lon="17.7002360987">
		<tag k="name" v="Kvernmoen" />
		<tag k="place" v="locality" />
		<tag k="ssr:stedsnr" v="776555" />
	</node>
	<node id="-751295" lat="69.2081194446" lon="17.7184027864">
		<tag k="name" v="Djupdalsmoan" />
		<tag k="place" v="locality" />
		<tag k="ssr:stedsnr" v="776515" />
	</node>
	<node id="-751290" lat="69.1589222262" lon="17.3980333217">
		<tag k="name" v="Mollvikhalsen" />
		<tag k="natural" v="valley" />
		<tag k="place" v="locality" />
		<tag k="ssr:stedsnr" v="757478" />
	</node>
	<node id="-751286" lat="69.2793638888" lon="17.4414916588">
		<tag k="fixme" v="consider natural=peak for the most distinct mountains in the district" />
		<tag k="name" v="Andrefjellet" />
		<tag k="natural" v="hill" />
		<tag k="place" v="locality" />
		<tag k="ssr:stedsnr" v="747611" />
	</node>
	<node id="-751283" lat="69.1742444461" lon="17.7145416743">
		<tag k="alt_name" v="Nattmålhaugen" />
		<tag k="name" v="Nattmålshågen" />
		<tag k="natural" v="hill" />
		<tag k="place" v="locality" />
		<tag k="ssr:stedsnr" v="746471" />
	</node>
	<node id="-751281" lat="69.177083333" lon="17.8033444431">
		<tag k="fixme" v="consider natural=peak for the most distinct mountains in the district" />
		<tag k="name" v="Rubbestadfjellet" />
		<tag k="natural" v="hill" />
		<tag k="place" v="locality" />
		<tag k="ssr:stedsnr" v="746469" />
	</node>
	<node id="-751270" lat="69.1281388845" lon="17.0191583392">
		<tag k="name" v="Tønnerten" />
		<tag k="natural" v="hill" />
		<tag k="place" v="locality" />
		<tag k="ssr:stedsnr" v="746189" />
	</node>
	<node id="-751269" lat="69.1892277772" lon="17.3791388989">
		<tag k="name" v="Storholtet" />
		<tag k="natural" v="hill" />
		<tag k="place" v="locality" />
		<tag k="ssr:stedsnr" v="746147" />
	</node>
	<node id="-751268" lat="69.0379472199" lon="17.1417972137">
		<tag k="fixme" v="multiple name tags, choose one and add the other to alt_name; consider natural=peak for the most distinct mountains in the district" />
		<tag k="name" v="Klubban;Åttetuva" />
		<tag k="natural" v="hill" />
		<tag k="place" v="locality" />
		<tag k="ssr:stedsnr" v="746127" />
	</node>
	<node id="-751261" lat="69.1062250023" lon="17.0646694359">
		<tag k="fixme" v="multiple name tags, choose one and add the other to alt_name; consider natural=peak for the most distinct mountains in the district" />
		<tag k="name" v="Fagerkollen;Fageråsen" />
		<tag k="natural" v="hill" />
		<tag k="place" v="locality" />
		<tag k="ssr:stedsnr" v="746051" />
	</node>
	<node id="-751258" lat="69.0852888904" lon="16.953677769">
		<tag k="name" v="Rundhaugen" />
		<tag k="natural" v="hill" />
		<tag k="place" v="locality" />
		<tag k="ssr:stedsnr" v="746040" />
	</node>
	<node id="-751256" lat="69.0758749992" lon="17.0701916667">
		<tag k="name" v="Stigberget" />
		<tag k="natural" v="hill" />
		<tag k="place" v="locality" />
		<tag k="ssr:stedsnr" v="746015" />
	</node>
	<node id="-751248" lat="69.109638889" lon="16.8054777798">
		<tag k="name" v="Melkeråelvdalen" />
		<tag k="natural" v="valley" />
		<tag k="place" v="locality" />
		<tag k="ssr:stedsnr" v="745008" />
	</node>
	<node id="-751247" lat="69.1748305565" lon="17.7629472237">
		<tag k="name" v="Ommelshågan" />
		<tag k="natural" v="hill" />
		<tag k="place" v="locality" />
		<tag k="ssr:stedsnr" v="720705" />
	</node>
	<node id="-751246" lat="69.2401388859" lon="17.6112527736">
		<tag k="name" v="Røyrslåka" />
		<tag k="natural" v="slope" />
		<tag k="place" v="locality" />
		<tag k="ssr:stedsnr" v="720685" />
	</node>
	<node id="-751240" lat="69.2789305596" lon="17.6447166566">
		<tag k="name" v="Reingjerdan" />
		<tag k="place" v="locality" />
		<tag k="ssr:stedsnr" v="720625" />
	</node>
	<node id="-751238" lat="69.2017722262" lon="17.6464749951">
		<tag k="name" v="Svarthammaren" />
		<tag k="natural" v="hill" />
		<tag k="place" v="locality" />
		<tag k="ssr:stedsnr" v="720614" />
	</node>
	<node id="-751235" lat="69.2074416649" lon="17.5123472102">
		<tag k="name" v="Litjeholtet" />
		<tag k="natural" v="hill" />
		<tag k="place" v="locality" />
		<tag k="ssr:stedsnr" v="719914" />
	</node>
	<node id="-751234" lat="69.2082055585" lon="17.5251166593">
		<tag k="name" v="Kjærrgårdholtet" />
		<tag k="natural" v="hill" />
		<tag k="place" v="locality" />
		<tag k="ssr:stedsnr" v="719915" />
	</node>
	<node id="-751231" lat="69.1216222232" lon="16.8428361155">
		<tag k="name" v="Ørnflåget" />
		<tag k="natural" v="hill" />
		<tag k="place" v="locality" />
		<tag k="ssr:stedsnr" v="719907" />
	</node>
	<node id="-751230" lat="69.0297138927" lon="16.900650004">
		<tag k="name" v="Storhågen" />
		<tag k="natural" v="hill" />
		<tag k="place" v="locality" />
		<tag k="ssr:stedsnr" v="719901" />
	</node>
	<node id="-751229" lat="69.2056111134" lon="17.4869055633">
		<tag k="name" v="Gammbakken" />
		<tag k="natural" v="hill" />
		<tag k="place" v="locality" />
		<tag k="ssr:stedsnr" v="719902" />
	</node>
	<node id="-751228" lat="69.0663750028" lon="16.9213888863">
		<tag k="name" v="Labakkan" />
		<tag k="natural" v="slope" />
		<tag k="place" v="locality" />
		<tag k="ssr:stedsnr" v="719896" />
	</node>
	<node id="-751227" lat="69.0589583377" lon="16.8919472213">
		<tag k="name" v="Skjærvikbotn" />
		<tag k="natural" v="valley" />
		<tag k="place" v="locality" />
		<tag k="ssr:stedsnr" v="719897" />
	</node>
	<node id="-751224" lat="69.0927527791" lon="16.7877333365">
		<tag k="name" v="Vardhågen" />
		<tag k="natural" v="hill" />
		<tag k="place" v="locality" />
		<tag k="ssr:stedsnr" v="719865" />
	</node>
	<node id="-751223" lat="69.2205833315" lon="17.5176833373">
		<tag k="name" v="Brannhaugen" />
		<tag k="natural" v="hill" />
		<tag k="place" v="locality" />
		<tag k="ssr:stedsnr" v="719857" />
	</node>
	<node id="-751219" lat="69.2023555585" lon="17.3813027812">
		<tag k="name" v="Første velta" />
		<tag k="natural" v="hill" />
		<tag k="place" v="locality" />
		<tag k="ssr:stedsnr" v="719847" />
	</node>
	<node id="-751217" lat="69.1797916638" lon="17.4061333223">
		<tag k="name" v="Preikestolhøgda" />
		<tag k="natural" v="hill" />
		<tag k="place" v="locality" />
		<tag k="ssr:stedsnr" v="719824" />
	</node>
	<node id="-751216" lat="69.1676861116" lon="17.7092861084">
		<tag k="name" v="Rønneholla" />
		<tag k="natural" v="valley" />
		<tag k="place" v="locality" />
		<tag k="ssr:stedsnr" v="719700" />
	</node>
	<node id="-751214" lat="69.1728666659" lon="17.7408777761">
		<tag k="name" v="Ryet" />
		<tag k="natural" v="slope" />
		<tag k="place" v="locality" />
		<tag k="ssr:stedsnr" v="719686" />
	</node>
	<node id="-751212" lat="69.1807861075" lon="17.8173972247">
		<tag k="name" v="Salthågen" />
		<tag k="natural" v="hill" />
		<tag k="place" v="locality" />
		<tag k="ssr:stedsnr" v="719676" />
	</node>
	<node id="-751211" lat="69.1895111155" lon="17.8251138877">
		<tag k="name" v="Laslettdalen" />
		<tag k="natural" v="valley" />
		<tag k="place" v="locality" />
		<tag k="ssr:stedsnr" v="719652" />
	</node>
	<node id="-751206" lat="69.0782055589" lon="16.9902305574">
		<tag k="name" v="Gluggeberget" />
		<tag k="natural" v="hill" />
		<tag k="place" v="locality" />
		<tag k="ssr:stedsnr" v="719596" />
	</node>
	<node id="-751203" lat="69.0798166647" lon="16.9195055631">
		<tag k="name" v="Klokkarhågen" />
		<tag k="natural" v="hill" />
		<tag k="place" v="locality" />
		<tag k="ssr:stedsnr" v="719554" />
	</node>
	<node id="-751201" lat="69.2087305531" lon="17.5667333239">
		<tag k="name" v="Øvre Lahaug" />
		<tag k="natural" v="hill" />
		<tag k="place" v="locality" />
		<tag k="ssr:stedsnr" v="719541" />
	</node>
	<node id="-751200" lat="69.0992861073" lon="16.9873222274">
		<tag k="fixme" v="consider natural=peak for the most distinct mountains in the district" />
		<tag k="name" v="Stortuva" />
		<tag k="natural" v="hill" />
		<tag k="place" v="locality" />
		<tag k="ssr:stedsnr" v="719537" />
	</node>
	<node id="-751198" lat="69.2371861102" lon="17.6542805519">
		<tag k="name" v="Mølnemoen" />
		<tag k="place" v="locality" />
		<tag k="ssr:stedsnr" v="719521" />
	</node>
	<node id="-751194" lat="69.236452776" lon="17.6015000052">
		<tag k="name" v="Reingjerdet" />
		<tag k="place" v="locality" />
		<tag k="ssr:stedsnr" v="719502" />
	</node>
	<node id="-751192" lat="69.1550277789" lon="17.6646444316">
		<tag k="name" v="Brenteberget" />
		<tag k="natural" v="hill" />
		<tag k="place" v="locality" />
		<tag k="ssr:stedsnr" v="719492" />
	</node>
	<node id="-751191" lat="69.1540749992" lon="17.6535666667">
		<tag k="name" v="Moldforholla" />
		<tag k="natural" v="valley" />
		<tag k="place" v="locality" />
		<tag k="ssr:stedsnr" v="719487" />
	</node>
	<node id="-751188" lat="69.1177999996" lon="17.0593749937">
		<tag k="name" v="Kollbakkan" />
		<tag k="natural" v="slope" />
		<tag k="place" v="locality" />
		<tag k="ssr:stedsnr" v="719317" />
	</node>
	<node id="-751186" lat="69.0797277789" lon="17.0453000061">
		<tag k="fixme" v="consider natural=peak for the most distinct mountains in the district" />
		<tag k="name" v="Aspåsen" />
		<tag k="natural" v="hill" />
		<tag k="place" v="locality" />
		<tag k="ssr:stedsnr" v="719292" />
	</node>
	<node id="-751185" lat="69.0852083306" lon="17.0468416626">
		<tag k="name" v="Lia" />
		<tag k="natural" v="slope" />
		<tag k="place" v="locality" />
		<tag k="ssr:stedsnr" v="719290" />
	</node>
	<node id="-751174" lat="69.1170527781" lon="17.2614388945">
		<tag k="name" v="Forraberget" />
		<tag k="natural" v="hill" />
		<tag k="place" v="locality" />
		<tag k="ssr:stedsnr" v="719447" />
	</node>
	<node id="-751173" lat="69.1694583296" lon="17.8069555487">
		<tag k="fixme" v="consider natural=peak for the most distinct mountains in the district" />
		<tag k="name" v="Nålekollen" />
		<tag k="natural" v="hill" />
		<tag k="place" v="locality" />
		<tag k="ssr:stedsnr" v="719435" />
	</node>
	<node id="-751171" lat="69.1977583294" lon="17.8131027699">
		<tag k="name" v="Hailla" />
		<tag k="natural" v="slope" />
		<tag k="place" v="locality" />
		<tag k="ssr:stedsnr" v="716946" />
	</node>
	<node id="-751170" lat="69.1966972239" lon="17.82714999">
		<tag k="name" v="Vedhøgste" />
		<tag k="natural" v="slope" />
		<tag k="place" v="locality" />
		<tag k="ssr:stedsnr" v="716945" />
	</node>
	<node id="-751169" lat="69.2025750021" lon="17.7771499971">
		<tag k="name" v="Storlia" />
		<tag k="natural" v="slope" />
		<tag k="place" v="locality" />
		<tag k="ssr:stedsnr" v="716942" />
	</node>
	<node id="-751168" lat="69.2096222185" lon="17.7751972108">
		<tag k="name" v="Dansarlia" />
		<tag k="natural" v="slope" />
		<tag k="place" v="locality" />
		<tag k="ssr:stedsnr" v="715961" />
	</node>
	<node id="-751158" lat="69.2638583292" lon="17.2494222187">
		<tag k="fixme" v="consider natural=peak for the most distinct mountains in the district" />
		<tag k="name" v="Tverrfjellet - Doaresoaivi" />
		<tag k="name:no" v="Tverrfjellet" />
		<tag k="name:se" v="Doaresoaivi" />
		<tag k="natural" v="hill" />
		<tag k="place" v="locality" />
		<tag k="ssr:stedsnr" v="689385" />
	</node>
	<node id="-751157" lat="69.2886944456" lon="17.4819111063">
		<tag k="name" v="Geađgevággi" />
		<tag k="name:se" v="Geađgevággi" />
		<tag k="natural" v="valley" />
		<tag k="old_name:se" v="Gæđgevaggi" />
		<tag k="place" v="locality" />
		<tag k="ssr:stedsnr" v="686620" />
	</node>
	<node id="-751151" lat="69.237094442" lon="17.5796972271">
		<tag k="name" v="Høgholtet" />
		<tag k="natural" v="hill" />
		<tag k="place" v="locality" />
		<tag k="ssr:stedsnr" v="686438" />
	</node>
	<node id="-751140" lat="69.1242305585" lon="17.3020361066">
		<tag k="fixme" v="consider natural=peak for the most distinct mountains in the district" />
		<tag k="name" v="Håkjerringfjellet" />
		<tag k="natural" v="hill" />
		<tag k="place" v="locality" />
		<tag k="ssr:stedsnr" v="685194" />
	</node>
	<node id="-751139" lat="69.1263027828" lon="17.2177527665">
		<tag k="name" v="Reinlian" />
		<tag k="natural" v="slope" />
		<tag k="place" v="locality" />
		<tag k="ssr:stedsnr" v="685192" />
	</node>
	<node id="-751121" lat="69.2170472202" lon="17.3617444329">
		<tag k="fixme" v="consider natural=peak for the most distinct mountains in the district" />
		<tag k="name" v="Store Skoglifjellet" />
		<tag k="natural" v="hill" />
		<tag k="place" v="locality" />
		<tag k="ssr:stedsnr" v="663346" />
	</node>
	<node id="-751120" lat="69.1811555548" lon="17.7635472282">
		<tag k="name" v="Forskoghågen" />
		<tag k="natural" v="hill" />
		<tag k="place" v="locality" />
		<tag k="ssr:stedsnr" v="659709" />
	</node>
	<node id="-751118" lat="69.2438583305" lon="17.6550444358">
		<tag k="name" v="Oldermoen" />
		<tag k="place" v="locality" />
		<tag k="ssr:stedsnr" v="659689" />
	</node>
	<node id="-751117" lat="69.2428777748" lon="17.6300527866">
		<tag k="name" v="Vargemyrhågen" />
		<tag k="natural" v="hill" />
		<tag k="place" v="locality" />
		<tag k="ssr:stedsnr" v="659684" />
	</node>
	<node id="-751111" lat="69.2469305569" lon="17.6273527868">
		<tag k="name" v="Røyrmoen" />
		<tag k="place" v="locality" />
		<tag k="ssr:stedsnr" v="659664" />
	</node>
	<node id="-751108" lat="69.2783583349" lon="17.6280694537">
		<tag k="name" v="Storelvdalen" />
		<tag k="natural" v="valley" />
		<tag k="place" v="locality" />
		<tag k="ssr:stedsnr" v="659631" />
	</node>
	<node id="-751107" lat="69.2796888911" lon="17.6445027647">
		<tag k="name" v="Reingjerdhaugen" />
		<tag k="natural" v="hill" />
		<tag k="place" v="locality" />
		<tag k="ssr:stedsnr" v="659627" />
	</node>
	<node id="-751106" lat="69.263983335" lon="17.6220222314">
		<tag k="name" v="Blombakken" />
		<tag k="natural" v="slope" />
		<tag k="place" v="locality" />
		<tag k="ssr:stedsnr" v="659621" />
	</node>
	<node id="-751098" lat="69.213658336" lon="17.489061101">
		<tag k="name" v="Reingjerdet" />
		<tag k="place" v="locality" />
		<tag k="ssr:stedsnr" v="658899" />
	</node>
	<node id="-751096" lat="69.2250388927" lon="17.4694833445">
		<tag k="name" v="Kapermoen" />
		<tag k="place" v="locality" />
		<tag k="ssr:stedsnr" v="658864" />
	</node>
	<node id="-751094" lat="69.1850611096" lon="17.5047694537">
		<tag k="name" v="Gråberget" />
		<tag k="natural" v="hill" />
		<tag k="place" v="locality" />
		<tag k="ssr:stedsnr" v="658807" />
	</node>
	<node id="-751092" lat="69.0567722206" lon="17.0821111083">
		<tag k="name" v="Tørrsletta" />
		<tag k="place" v="locality" />
		<tag k="ssr:stedsnr" v="658715" />
	</node>
	<node id="-751087" lat="69.1905" lon="17.7798027763">
		<tag k="name" v="Vintervassbakkan" />
		<tag k="natural" v="slope" />
		<tag k="place" v="locality" />
		<tag k="ssr:stedsnr" v="658682" />
	</node>
	<node id="-751086" lat="69.1943972244" lon="17.7807305575">
		<tag k="name" v="Rundhaugen" />
		<tag k="natural" v="hill" />
		<tag k="place" v="locality" />
		<tag k="ssr:stedsnr" v="658677" />
	</node>
	<node id="-751085" lat="69.0416333334" lon="17.1669194455">
		<tag k="name" v="Tømmerhågen" />
		<tag k="natural" v="hill" />
		<tag k="place" v="locality" />
		<tag k="ssr:stedsnr" v="658662" />
	</node>
	<node id="-751083" lat="69.0778527821" lon="16.9804083249">
		<tag k="name" v="Trollhågen" />
		<tag k="natural" v="hill" />
		<tag k="place" v="locality" />
		<tag k="ssr:stedsnr" v="658631" />
	</node>
	<node id="-751080" lat="69.0933916686" lon="17.0355250028">
		<tag k="name" v="Stordalen" />
		<tag k="natural" v="valley" />
		<tag k="place" v="locality" />
		<tag k="ssr:stedsnr" v="658593" />
	</node>
	<node id="-751078" lat="69.0795000032" lon="16.9990861103">
		<tag k="name" v="Sirihågen" />
		<tag k="natural" v="hill" />
		<tag k="place" v="locality" />
		<tag k="ssr:stedsnr" v="658588" />
	</node>
	<node id="-751076" lat="69.0791083335" lon="16.9747972156">
		<tag k="name" v="Lahågen" />
		<tag k="natural" v="hill" />
		<tag k="place" v="locality" />
		<tag k="ssr:stedsnr" v="658584" />
	</node>
	<node id="-751075" lat="69.10893333" lon="17.0249277868">
		<tag k="name" v="Stiliaksla" />
		<tag k="place" v="locality" />
		<tag k="ssr:stedsnr" v="658570" />
	</node>
	<node id="-751073" lat="69.2193222254" lon="17.6291500029">
		<tag k="name" v="Hans-Kristianverslet" />
		<tag k="natural" v="hill" />
		<tag k="place" v="locality" />
		<tag k="ssr:stedsnr" v="658560" />
	</node>
	<node id="-751071" lat="69.158358329" lon="16.8853416711">
		<tag k="fixme" v="consider natural=peak for the most distinct mountains in the district" />
		<tag k="name" v="Mannen" />
		<tag k="natural" v="hill" />
		<tag k="place" v="locality" />
		<tag k="ssr:stedsnr" v="658549" />
	</node>
	<node id="-751070" lat="69.1567749975" lon="17.6683111169">
		<tag k="name" v="Lakseberget" />
		<tag k="natural" v="hill" />
		<tag k="place" v="locality" />
		<tag k="ssr:stedsnr" v="658539" />
	</node>
	<node id="-751065" lat="69.1645583337" lon="17.6484388814">
		<tag k="name" v="Templet" />
		<tag k="natural" v="hill" />
		<tag k="place" v="locality" />
		<tag k="ssr:stedsnr" v="658511" />
	</node>
	<node id="-751061" lat="69.0772250006" lon="17.0033722329">
		<tag k="name" v="Naustbergan" />
		<tag k="natural" v="hill" />
		<tag k="place" v="locality" />
		<tag k="ssr:stedsnr" v="658486" />
	</node>
	<node id="-751059" lat="69.1426111127" lon="17.3292833211">
		<tag k="name" v="Hesjelia" />
		<tag k="natural" v="slope" />
		<tag k="place" v="locality" />
		<tag k="ssr:stedsnr" v="658477" />
	</node>
	<node id="-751058" lat="69.1354777765" lon="17.3111777764">
		<tag k="name" v="Tverrbakkan" />
		<tag k="natural" v="slope" />
		<tag k="place" v="locality" />
		<tag k="ssr:stedsnr" v="658474" />
	</node>
	<node id="-751057" lat="69.1724333319" lon="17.7387555555">
		<tag k="name" v="Ramnfløyet" />
		<tag k="natural" v="hill" />
		<tag k="place" v="locality" />
		<tag k="ssr:stedsnr" v="658465" />
	</node>
	<node id="-751056" lat="69.1668472187" lon="17.7904555566">
		<tag k="name" v="Tennelia" />
		<tag k="natural" v="slope" />
		<tag k="place" v="locality" />
		<tag k="ssr:stedsnr" v="658462" />
	</node>
	<node id="-751054" lat="69.0817222214" lon="17.0712750079">
		<tag k="name" v="Kråa" />
		<tag k="natural" v="slope" />
		<tag k="place" v="locality" />
		<tag k="ssr:stedsnr" v="658293" />
	</node>
	<node id="-751051" lat="69.198019442" lon="17.7821944292">
		<tag k="name" v="Laukmyrhaugen" />
		<tag k="natural" v="hill" />
		<tag k="place" v="locality" />
		<tag k="ssr:stedsnr" v="655945" />
	</node>
	<node id="-751050" lat="69.2038472244" lon="17.7971499956">
		<tag k="name" v="Kollen" />
		<tag k="natural" v="hill" />
		<tag k="place" v="locality" />
		<tag k="ssr:stedsnr" v="655937" />
	</node>
	<node id="-751049" lat="69.2030694408" lon="17.7897111078">
		<tag k="name" v="Rishågen" />
		<tag k="natural" v="hill" />
		<tag k="place" v="locality" />
		<tag k="ssr:stedsnr" v="654970" />
	</node>
	<node id="-751047" lat="69.2063500018" lon="17.7496527639">
		<tag k="name" v="Jordbærlia" />
		<tag k="natural" v="slope" />
		<tag k="place" v="locality" />
		<tag k="ssr:stedsnr" v="654556" />
	</node>
	<node id="-751045" lat="69.202549996" lon="17.7239444485">
		<tag k="name" v="Rørvikbakken" />
		<tag k="natural" v="slope" />
		<tag k="place" v="locality" />
		<tag k="ssr:stedsnr" v="654547" />
	</node>
	<node id="-751042" lat="69.1998944464" lon="17.2040472213">
		<tag k="name" v="Selfjordbotn" />
		<tag k="natural" v="valley" />
		<tag k="place" v="locality" />
		<tag k="ssr:stedsnr" v="649163" />
	</node>
	<node id="-751040" lat="69.0982111086" lon="17.2538388931">
		<tag k="name" v="Brenneberget" />
		<tag k="natural" v="hill" />
		<tag k="place" v="locality" />
		<tag k="ssr:stedsnr" v="636297" />
	</node>
	<node id="-749666" lat="69.0767861144" lon="17.0308444499">
		<tag k="name" v="Botnan" />
		<tag k="natural" v="valley" />
		<tag k="place" v="locality" />
		<tag k="ssr:stedsnr" v="294507" />
	</node>
	<node id="-751036" lat="69.3499583337" lon="17.5689805568">
		<tag k="name" v="Bratthaugen" />
		<tag k="natural" v="hill" />
		<tag k="place" v="locality" />
		<tag k="ssr:stedsnr" v="625527" />
	</node>
	<node id="-751034" lat="69.2993166686" lon="17.4042666644">
		<tag k="fixme" v="consider natural=peak for the most distinct mountains in the district" />
		<tag k="name" v="Tredjefjellet" />
		<tag k="natural" v="hill" />
		<tag k="place" v="locality" />
		<tag k="ssr:stedsnr" v="625425" />
	</node>
	<node id="-751033" lat="69.2356027769" lon="17.5134583355">
		<tag k="fixme" v="multiple name tags, choose one and add the other to alt_name; consider natural=peak for the most distinct mountains in the district" />
		<tag k="name" v="Litjefjellet;Vardnesfjellet - Várgošvárri" />
		<tag k="name:no" v="Litjefjellet;Vardnesfjellet" />
		<tag k="name:se" v="Várgošvárri" />
		<tag k="natural" v="hill" />
		<tag k="place" v="locality" />
		<tag k="ssr:stedsnr" v="625413" />
	</node>
	<node id="-751031" lat="69.2201472195" lon="17.6939055591">
		<tag k="alt_name" v="Heikampen" />
		<tag k="name" v="Høgkampen" />
		<tag k="natural" v="hill" />
		<tag k="place" v="locality" />
		<tag k="ssr:stedsnr" v="625401" />
	</node>
	<node id="-751030" lat="69.2222416677" lon="17.5385249976">
		<tag k="name" v="Skavlia" />
		<tag k="natural" v="slope" />
		<tag k="place" v="locality" />
		<tag k="ssr:stedsnr" v="625380" />
	</node>
	<node id="-751028" lat="69.1621999987" lon="17.664430542">
		<tag k="fixme" v="multiple name tags, choose one and add the other to alt_name; consider natural=peak for the most distinct mountains in the district" />
		<tag k="name" v="Heia;Snauheia" />
		<tag k="natural" v="hill" />
		<tag k="place" v="locality" />
		<tag k="ssr:stedsnr" v="625310" />
	</node>
	<node id="-751018" lat="69.144744444" lon="17.0023861129">
		<tag k="alt_name" v="Skarvberget" />
		<tag k="name" v="Skarvebergan" />
		<tag k="natural" v="hill" />
		<tag k="place" v="locality" />
		<tag k="ssr:stedsnr" v="624247" />
	</node>
	<node id="-751015" lat="69.1420472248" lon="17.1721555497">
		<tag k="fixme" v="consider natural=peak for the most distinct mountains in the district" />
		<tag k="name" v="Durmålsfjellet" />
		<tag k="natural" v="hill" />
		<tag k="place" v="locality" />
		<tag k="ssr:stedsnr" v="624210" />
	</node>
	<node id="-751010" lat="69.0502194483" lon="17.1420166734">
		<tag k="name" v="Halsekråa" />
		<tag k="natural" v="valley" />
		<tag k="place" v="locality" />
		<tag k="ssr:stedsnr" v="624110" />
	</node>
	<node id="-751009" lat="69.0086305588" lon="17.0897638781">
		<tag k="name" v="Storklubben" />
		<tag k="natural" v="hill" />
		<tag k="place" v="locality" />
		<tag k="ssr:stedsnr" v="624107" />
	</node>
	<node id="-751004" lat="69.077138885" lon="16.9374583254">
		<tag k="fixme" v="consider natural=peak for the most distinct mountains in the district" />
		<tag k="name" v="Storfjellet" />
		<tag k="natural" v="hill" />
		<tag k="place" v="locality" />
		<tag k="ssr:stedsnr" v="624062" />
	</node>
	<node id="-751003" lat="69.0939833295" lon="16.9155583384">
		<tag k="fixme" v="multiple name tags, choose one and add the other to alt_name; consider natural=peak for the most distinct mountains in the district" />
		<tag k="name" v="Lonketind;Stortinden" />
		<tag k="natural" v="hill" />
		<tag k="place" v="locality" />
		<tag k="ssr:stedsnr" v="624052" />
	</node>
	<node id="-751002" lat="69.0894555548" lon="16.8655611073">
		<tag k="fixme" v="consider natural=peak for the most distinct mountains in the district" />
		<tag k="name" v="Skardtinden" />
		<tag k="natural" v="hill" />
		<tag k="place" v="locality" />
		<tag k="ssr:stedsnr" v="624045" />
	</node>
	<node id="-751001" lat="69.0670111091" lon="16.8860805615">
		<tag k="name" v="Jorddalen" />
		<tag k="natural" v="valley" />
		<tag k="place" v="locality" />
		<tag k="ssr:stedsnr" v="624013" />
	</node>
	<node id="-751000" lat="69.0737666636" lon="16.8538694344">
		<tag k="fixme" v="consider natural=peak for the most distinct mountains in the district" />
		<tag k="name" v="Sørtuva" />
		<tag k="natural" v="hill" />
		<tag k="place" v="locality" />
		<tag k="ssr:stedsnr" v="624006" />
	</node>
	<node id="-750999" lat="69.1718833306" lon="17.7507694392">
		<tag k="name" v="Overlandet" />
		<tag k="place" v="locality" />
		<tag k="ssr:stedsnr" v="598716" />
	</node>
	<node id="-750996" lat="69.0611833348" lon="17.1168472242">
		<tag k="name" v="Rødbergdalen" />
		<tag k="natural" v="valley" />
		<tag k="place" v="locality" />
		<tag k="ssr:stedsnr" v="598690" />
	</node>
	<node id="-750994" lat="69.2386777768" lon="17.6488194324">
		<tag k="name" v="Rundmoen" />
		<tag k="place" v="locality" />
		<tag k="ssr:stedsnr" v="598667" />
	</node>
	<node id="-750993" lat="69.2440361152" lon="17.6656694413">
		<tag k="name" v="Litjevassbakken" />
		<tag k="natural" v="slope" />
		<tag k="place" v="locality" />
		<tag k="ssr:stedsnr" v="598664" />
	</node>
	<node id="-750992" lat="69.2398583346" lon="17.5863249908">
		<tag k="name" v="Steinrabben" />
		<tag k="natural" v="hill" />
		<tag k="place" v="locality" />
		<tag k="ssr:stedsnr" v="598651" />
	</node>
	<node id="-750991" lat="69.2407805557" lon="17.5818027777">
		<tag k="name" v="Vollhøgdslåka" />
		<tag k="natural" v="slope" />
		<tag k="place" v="locality" />
		<tag k="ssr:stedsnr" v="598650" />
	</node>
	<node id="-750990" lat="69.2470250031" lon="17.5914555535">
		<tag k="name" v="Sløkjedalen" />
		<tag k="natural" v="valley" />
		<tag k="place" v="locality" />
		<tag k="ssr:stedsnr" v="598648" />
	</node>
	<node id="-750989" lat="69.259219443" lon="17.5531055547">
		<tag k="name" v="Rabben" />
		<tag k="natural" v="hill" />
		<tag k="place" v="locality" />
		<tag k="ssr:stedsnr" v="598636" />
	</node>
	<node id="-750987" lat="69.2418111078" lon="17.5547527867">
		<tag k="name" v="Millingshaugen" />
		<tag k="natural" v="hill" />
		<tag k="place" v="locality" />
		<tag k="ssr:stedsnr" v="598626" />
	</node>
	<node id="-750986" lat="69.2596416622" lon="17.5879722248">
		<tag k="name" v="Harrgårdlia" />
		<tag k="natural" v="slope" />
		<tag k="place" v="locality" />
		<tag k="ssr:stedsnr" v="598621" />
	</node>
	<node id="-750985" lat="69.2672416699" lon="17.6379694359">
		<tag k="name" v="Litjelvbakken" />
		<tag k="natural" v="slope" />
		<tag k="place" v="locality" />
		<tag k="ssr:stedsnr" v="598609" />
	</node>
	<node id="-750983" lat="69.2064388889" lon="17.6685888762">
		<tag k="name" v="Øverlandet" />
		<tag k="natural" v="slope" />
		<tag k="place" v="locality" />
		<tag k="ssr:stedsnr" v="598607" />
	</node>
	<node id="-750982" lat="69.204499999" lon="17.6732027693">
		<tag k="name" v="Austerlandet" />
		<tag k="natural" v="slope" />
		<tag k="place" v="locality" />
		<tag k="ssr:stedsnr" v="598608" />
	</node>
	<node id="-750981" lat="69.2073694451" lon="17.6560222155">
		<tag k="name" v="Torahaugen" />
		<tag k="natural" v="hill" />
		<tag k="place" v="locality" />
		<tag k="ssr:stedsnr" v="598599" />
	</node>
	<node id="-750980" lat="69.0966666647" lon="17.0218333431">
		<tag k="name" v="Soppholtan" />
		<tag k="natural" v="hill" />
		<tag k="place" v="locality" />
		<tag k="ssr:stedsnr" v="598587" />
	</node>
	<node id="-750976" lat="69.0163388861" lon="17.1116777698">
		<tag k="name" v="Kvesmekleiva" />
		<tag k="natural" v="slope" />
		<tag k="place" v="locality" />
		<tag k="ssr:stedsnr" v="598527" />
	</node>
	<node id="-750975" lat="69.1825555584" lon="17.5373333326">
		<tag k="name" v="Preikstolen" />
		<tag k="natural" v="hill" />
		<tag k="place" v="locality" />
		<tag k="ssr:stedsnr" v="597996" />
	</node>
	<node id="-750973" lat="69.0616750027" lon="16.8151222261">
		<tag k="name" v="Revhollet" />
		<tag k="natural" v="valley" />
		<tag k="place" v="locality" />
		<tag k="ssr:stedsnr" v="597957" />
	</node>
	<node id="-750972" lat="69.155586113" lon="16.8723055536">
		<tag k="name" v="Flagdishågen" />
		<tag k="natural" v="hill" />
		<tag k="place" v="locality" />
		<tag k="ssr:stedsnr" v="597947" />
	</node>
	<node id="-750970" lat="69.0633444423" lon="16.9122666635">
		<tag k="name" v="Storbakken" />
		<tag k="natural" v="slope" />
		<tag k="place" v="locality" />
		<tag k="ssr:stedsnr" v="597922" />
	</node>
	<node id="-750967" lat="69.0751916647" lon="16.789763889">
		<tag k="name" v="Klubben" />
		<tag k="natural" v="hill" />
		<tag k="place" v="locality" />
		<tag k="ssr:stedsnr" v="597891" />
	</node>
	<node id="-750966" lat="69.2047666657" lon="17.3983860983">
		<tag k="name" v="Brattlia" />
		<tag k="natural" v="slope" />
		<tag k="place" v="locality" />
		<tag k="ssr:stedsnr" v="597882" />
	</node>
	<node id="-750962" lat="69.1864805566" lon="17.8440555444">
		<tag k="name" v="Fiskevassheia" />
		<tag k="natural" v="hill" />
		<tag k="place" v="locality" />
		<tag k="ssr:stedsnr" v="597699" />
	</node>
	<node id="-750960" lat="69.03200278" lon="17.1798749921">
		<tag k="name" v="Aspen" />
		<tag k="natural" v="slope" />
		<tag k="place" v="locality" />
		<tag k="ssr:stedsnr" v="597692" />
	</node>
	<node id="-750958" lat="69.0410361133" lon="17.1814722311">
		<tag k="name" v="Elsebakken" />
		<tag k="natural" v="slope" />
		<tag k="place" v="locality" />
		<tag k="ssr:stedsnr" v="597681" />
	</node>
	<node id="-750957" lat="69.0255916676" lon="17.1180249935">
		<tag k="name" v="Ardalen" />
		<tag k="natural" v="valley" />
		<tag k="place" v="locality" />
		<tag k="ssr:stedsnr" v="597677" />
	</node>
	<node id="-750955" lat="69.0558416643" lon="17.1494638988">
		<tag k="name" v="Vedheggerhøgda" />
		<tag k="natural" v="hill" />
		<tag k="place" v="locality" />
		<tag k="ssr:stedsnr" v="597662" />
	</node>
	<node id="-750954" lat="69.0388638861" lon="17.0411194485">
		<tag k="name" v="Brennhågen" />
		<tag k="natural" v="hill" />
		<tag k="place" v="locality" />
		<tag k="ssr:stedsnr" v="597580" />
	</node>
	<node id="-750953" lat="69.1077749999" lon="17.0217527849">
		<tag k="name" v="Bjørnlikråa" />
		<tag k="natural" v="hill" />
		<tag k="place" v="locality" />
		<tag k="ssr:stedsnr" v="597570" />
	</node>
	<node id="-750951" lat="69.2268666659" lon="17.5705444363">
		<tag k="name" v="Kirkesletta" />
		<tag k="place" v="locality" />
		<tag k="ssr:stedsnr" v="597546" />
	</node>
	<node id="-750949" lat="69.2338138927" lon="17.5926111055">
		<tag k="name" v="Slækerflaten" />
		<tag k="place" v="locality" />
		<tag k="ssr:stedsnr" v="597537" />
	</node>
	<node id="-750946" lat="69.1415972184" lon="16.9821083344">
		<tag k="name" v="Brannen" />
		<tag k="natural" v="slope" />
		<tag k="place" v="locality" />
		<tag k="ssr:stedsnr" v="597526" />
	</node>
	<node id="-750945" lat="69.1316972213" lon="16.9815138767">
		<tag k="name" v="Ørnvikbotn" />
		<tag k="natural" v="valley" />
		<tag k="place" v="locality" />
		<tag k="ssr:stedsnr" v="597517" />
	</node>
	<node id="-750941" lat="69.1423694441" lon="17.3337888941">
		<tag k="name" v="Høglia" />
		<tag k="natural" v="slope" />
		<tag k="place" v="locality" />
		<tag k="ssr:stedsnr" v="597492" />
	</node>
	<node id="-750939" lat="69.1180083354" lon="17.2454166772">
		<tag k="name" v="Bjørkhaugen" />
		<tag k="natural" v="hill" />
		<tag k="place" v="locality" />
		<tag k="ssr:stedsnr" v="597480" />
	</node>
	<node id="-750938" lat="69.1263138881" lon="17.3193416624">
		<tag k="name" v="Høgholtet" />
		<tag k="natural" v="hill" />
		<tag k="place" v="locality" />
		<tag k="ssr:stedsnr" v="597477" />
	</node>
	<node id="-750936" lat="69.1977527826" lon="17.218572216">
		<tag k="name" v="Litjegropa" />
		<tag k="natural" v="valley" />
		<tag k="place" v="locality" />
		<tag k="ssr:stedsnr" v="597471" />
	</node>
	<node id="-750933" lat="69.1394777754" lon="17.1154444326">
		<tag k="name" v="Brannen" />
		<tag k="natural" v="slope" />
		<tag k="place" v="locality" />
		<tag k="ssr:stedsnr" v="597383" />
	</node>
	<node id="-750932" lat="69.1251666691" lon="17.0609500021">
		<tag k="name" v="Grønnbakkan" />
		<tag k="natural" v="slope" />
		<tag k="place" v="locality" />
		<tag k="ssr:stedsnr" v="597327" />
	</node>
	<node id="-750931" lat="69.102819446" lon="17.0612833331">
		<tag k="fixme" v="consider natural=peak for the most distinct mountains in the district" />
		<tag k="name" v="Middagstuva" />
		<tag k="natural" v="hill" />
		<tag k="place" v="locality" />
		<tag k="ssr:stedsnr" v="597315" />
	</node>
	<node id="-750929" lat="69.0734916637" lon="17.0445444448">
		<tag k="name" v="Strandstrupen" />
		<tag k="natural" v="valley" />
		<tag k="place" v="locality" />
		<tag k="ssr:stedsnr" v="597283" />
	</node>
	<node id="-750928" lat="69.0557861125" lon="16.8161166688">
		<tag k="name" v="Haillingen" />
		<tag k="natural" v="hill" />
		<tag k="place" v="locality" />
		<tag k="ssr:stedsnr" v="596996" />
	</node>
	<node id="-750927" lat="69.0592555528" lon="16.8813861189">
		<tag k="name" v="Høyholdalen" />
		<tag k="natural" v="valley" />
		<tag k="place" v="locality" />
		<tag k="ssr:stedsnr" v="596988" />
	</node>
	<node id="-750926" lat="69.0636972184" lon="16.8631805652">
		<tag k="name" v="Lallebakkan" />
		<tag k="natural" v="slope" />
		<tag k="place" v="locality" />
		<tag k="ssr:stedsnr" v="596987" />
	</node>
	<node id="-750925" lat="69.208466663" lon="17.8250777811">
		<tag k="name" v="Eggen" />
		<tag k="place" v="locality" />
		<tag k="ssr:stedsnr" v="594986" />
	</node>
	<node id="-750924" lat="69.1964277753" lon="17.8100638787">
		<tag k="name" v="Haillbakken" />
		<tag k="natural" v="slope" />
		<tag k="place" v="locality" />
		<tag k="ssr:stedsnr" v="594943" />
	</node>
	<node id="-750923" lat="69.2038861148" lon="17.8080611034">
		<tag k="name" v="Brattebakken" />
		<tag k="natural" v="slope" />
		<tag k="place" v="locality" />
		<tag k="ssr:stedsnr" v="594936" />
	</node>
	<node id="-750922" lat="69.2042027735" lon="17.7926777743">
		<tag k="name" v="Krøkebærhågen" />
		<tag k="natural" v="hill" />
		<tag k="place" v="locality" />
		<tag k="ssr:stedsnr" v="593952" />
	</node>
	<node id="-750919" lat="69.2116972232" lon="17.7561083363">
		<tag k="name" v="Rødbergan" />
		<tag k="natural" v="hill" />
		<tag k="place" v="locality" />
		<tag k="ssr:stedsnr" v="593500" />
	</node>
	<node id="-750902" lat="69.2493916707" lon="17.6137055619">
		<tag k="name" v="Kuskemoen" />
		<tag k="place" v="locality" />
		<tag k="ssr:stedsnr" v="564435" />
	</node>
	<node id="-750899" lat="69.2640416686" lon="17.2819888906">
		<tag k="name" v="Tverrdalen - Doaresvággi" />
		<tag k="name:no" v="Tverrdalen" />
		<tag k="name:se" v="Doaresvággi" />
		<tag k="natural" v="valley" />
		<tag k="old_name:se" v="Doaresvaggi" />
		<tag k="place" v="locality" />
		<tag k="ssr:stedsnr" v="564411" />
	</node>
	<node id="-750887" lat="69.120477781" lon="17.0227249887">
		<tag k="name" v="Botndalen" />
		<tag k="natural" v="valley" />
		<tag k="place" v="locality" />
		<tag k="ssr:stedsnr" v="563211" />
	</node>
	<node id="-750885" lat="69.1262555563" lon="17.0546111226">
		<tag k="alt_name" v="Kvitalægda" />
		<tag k="name" v="Kvitalegda" />
		<tag k="natural" v="valley" />
		<tag k="place" v="locality" />
		<tag k="ssr:stedsnr" v="563200" />
	</node>
	<node id="-750881" lat="69.2453583311" lon="17.2421972194">
		<tag k="alt_name" v="Kaperskardet, s" />
		<tag k="name" v="Søre Kaperskardet" />
		<tag k="natural" v="valley" />
		<tag k="place" v="locality" />
		<tag k="ssr:stedsnr" v="563171" />
	</node>
	<node id="-750874" lat="69.0770333358" lon="16.8276666619">
		<tag k="fixme" v="consider natural=peak for the most distinct mountains in the district" />
		<tag k="name" v="Nordtuva" />
		<tag k="natural" v="hill" />
		<tag k="place" v="locality" />
		<tag k="ssr:stedsnr" v="563056" />
	</node>
	<node id="-750871" lat="69.0927194445" lon="16.8397611185">
		<tag k="fixme" v="consider natural=peak for the most distinct mountains in the district" />
		<tag k="name" v="Senjehesten" />
		<tag k="natural" v="hill" />
		<tag k="place" v="locality" />
		<tag k="ssr:stedsnr" v="563039" />
	</node>
	<node id="-750870" lat="69.0617361085" lon="17.1221444507">
		<tag k="name" v="Rødberget" />
		<tag k="natural" v="hill" />
		<tag k="place" v="locality" />
		<tag k="ssr:stedsnr" v="563010" />
	</node>
	<node id="-750868" lat="69.1761694425" lon="17.7588277628">
		<tag k="name" v="Frilia" />
		<tag k="natural" v="slope" />
		<tag k="place" v="locality" />
		<tag k="ssr:stedsnr" v="538690" />
	</node>
	<node id="-750867" lat="69.1834416645" lon="17.7464249925">
		<tag k="name" v="Butten" />
		<tag k="natural" v="slope" />
		<tag k="place" v="locality" />
		<tag k="ssr:stedsnr" v="538672" />
	</node>
	<node id="-750865" lat="69.2666055597" lon="17.6035194488">
		<tag k="name" v="Sølvfosshågen" />
		<tag k="natural" v="hill" />
		<tag k="place" v="locality" />
		<tag k="ssr:stedsnr" v="538633" />
	</node>
	<node id="-750864" lat="69.2045805581" lon="17.6530305598">
		<tag k="name" v="Høgda" />
		<tag k="natural" v="hill" />
		<tag k="place" v="locality" />
		<tag k="ssr:stedsnr" v="538625" />
	</node>
	<node id="-750862" lat="69.0667861132" lon="16.8339110995">
		<tag k="name" v="Hansemarka" />
		<tag k="natural" v="slope" />
		<tag k="place" v="locality" />
		<tag k="ssr:stedsnr" v="537932" />
	</node>
	<node id="-750859" lat="69.1742333333" lon="17.4062749935">
		<tag k="fixme" v="consider natural=peak for the most distinct mountains in the district" />
		<tag k="name" v="Fjellenden" />
		<tag k="natural" v="hill" />
		<tag k="place" v="locality" />
		<tag k="ssr:stedsnr" v="537832" />
	</node>
	<node id="-750858" lat="69.165725004" lon="17.7016055652">
		<tag k="name" v="Bjørnskottholla" />
		<tag k="natural" v="valley" />
		<tag k="place" v="locality" />
		<tag k="ssr:stedsnr" v="537681" />
	</node>
	<node id="-750857" lat="69.0534499996" lon="17.077205544">
		<tag k="name" v="Lebakken" />
		<tag k="natural" v="slope" />
		<tag k="place" v="locality" />
		<tag k="ssr:stedsnr" v="537674" />
	</node>
	<node id="-750855" lat="69.0326999987" lon="17.1688944354">
		<tag k="name" v="Skjellberget" />
		<tag k="natural" v="hill" />
		<tag k="place" v="locality" />
		<tag k="ssr:stedsnr" v="537651" />
	</node>
	<node id="-750851" lat="69.0618027775" lon="17.1614361171">
		<tag k="name" v="Anfinnjorddalen" />
		<tag k="natural" v="valley" />
		<tag k="place" v="locality" />
		<tag k="ssr:stedsnr" v="537613" />
	</node>
	<node id="-750849" lat="69.2145111102" lon="17.6457500013">
		<tag k="name" v="Gammel-Larsholla" />
		<tag k="natural" v="valley" />
		<tag k="place" v="locality" />
		<tag k="ssr:stedsnr" v="537581" />
	</node>
	<node id="-750848" lat="69.0995666677" lon="17.0383361122">
		<tag k="name" v="Kvannhollen" />
		<tag k="natural" v="slope" />
		<tag k="place" v="locality" />
		<tag k="ssr:stedsnr" v="537569" />
	</node>
	<node id="-750846" lat="69.2190861088" lon="17.6535111041">
		<tag k="name" v="Veltbakkflaten" />
		<tag k="place" v="locality" />
		<tag k="ssr:stedsnr" v="537546" />
	</node>
	<node id="-750844" lat="69.2285777811" lon="17.6107972165">
		<tag k="name" v="Vedskjulhågen" />
		<tag k="natural" v="hill" />
		<tag k="place" v="locality" />
		<tag k="ssr:stedsnr" v="537542" />
	</node>
	<node id="-750843" lat="69.0186611084" lon="17.0780500041">
		<tag k="name" v="Rødberget" />
		<tag k="natural" v="hill" />
		<tag k="place" v="locality" />
		<tag k="ssr:stedsnr" v="537526" />
	</node>
	<node id="-750842" lat="69.0213666651" lon="17.0717694357">
		<tag k="name" v="Skjellforra" />
		<tag k="natural" v="slope" />
		<tag k="place" v="locality" />
		<tag k="ssr:stedsnr" v="537527" />
	</node>
	<node id="-750841" lat="69.0212944482" lon="17.113630546">
		<tag k="fixme" v="consider natural=peak for the most distinct mountains in the district" />
		<tag k="name" v="Sægelholtet" />
		<tag k="natural" v="hill" />
		<tag k="place" v="locality" />
		<tag k="ssr:stedsnr" v="537522" />
	</node>
	<node id="-750840" lat="69.0188305531" lon="17.0986972316">
		<tag k="fixme" v="consider natural=peak for the most distinct mountains in the district" />
		<tag k="name" v="Eineryholtan" />
		<tag k="natural" v="hill" />
		<tag k="place" v="locality" />
		<tag k="ssr:stedsnr" v="537521" />
	</node>
	<node id="-750839" lat="69.2292416652" lon="17.5988166536">
		<tag k="name" v="Rabben" />
		<tag k="natural" v="hill" />
		<tag k="place" v="locality" />
		<tag k="ssr:stedsnr" v="537519" />
	</node>
	<node id="-750835" lat="69.1313750021" lon="17.0405972302">
		<tag k="name" v="Mannforholla" />
		<tag k="natural" v="valley" />
		<tag k="place" v="locality" />
		<tag k="ssr:stedsnr" v="537500" />
	</node>
	<node id="-750829" lat="69.1665638939" lon="17.8000777675">
		<tag k="name" v="Finnelia" />
		<tag k="natural" v="slope" />
		<tag k="place" v="locality" />
		<tag k="ssr:stedsnr" v="537454" />
	</node>
	<node id="-750827" lat="69.1716749954" lon="17.8354388915">
		<tag k="fixme" v="consider natural=peak for the most distinct mountains in the district" />
		<tag k="name" v="Oksehollen" />
		<tag k="natural" v="hill" />
		<tag k="place" v="locality" />
		<tag k="ssr:stedsnr" v="537445" />
	</node>
	<node id="-750826" lat="69.1637583358" lon="17.0712472147">
		<tag k="name" v="Skredan" />
		<tag k="natural" v="slope" />
		<tag k="place" v="locality" />
		<tag k="ssr:stedsnr" v="537403" />
	</node>
	<node id="-750825" lat="69.0260555566" lon="17.2126722155">
		<tag k="name" v="Nebbesteinhågen" />
		<tag k="natural" v="hill" />
		<tag k="place" v="locality" />
		<tag k="ssr:stedsnr" v="537399" />
	</node>
	<node id="-750824" lat="69.0323027812" lon="17.2229472176">
		<tag k="name" v="Storskitdikholtet" />
		<tag k="natural" v="hill" />
		<tag k="place" v="locality" />
		<tag k="ssr:stedsnr" v="537397" />
	</node>
	<node id="-750823" lat="69.1475333356" lon="17.2690805588">
		<tag k="name" v="Kvanntoskaret" />
		<tag k="natural" v="valley" />
		<tag k="place" v="locality" />
		<tag k="ssr:stedsnr" v="537385" />
	</node>
	<node id="-750822" lat="69.1452305578" lon="17.2558472126">
		<tag k="name" v="Finnegammholtet" />
		<tag k="natural" v="hill" />
		<tag k="place" v="locality" />
		<tag k="ssr:stedsnr" v="537384" />
	</node>
	<node id="-750819" lat="69.1156083327" lon="17.0543138945">
		<tag k="name" v="Litjhågen" />
		<tag k="natural" v="hill" />
		<tag k="place" v="locality" />
		<tag k="ssr:stedsnr" v="537295" />
	</node>
	<node id="-750818" lat="69.0935249978" lon="17.0806305566">
		<tag k="name" v="Trollvassmarka" />
		<tag k="place" v="locality" />
		<tag k="ssr:stedsnr" v="537287" />
	</node>
	<node id="-750817" lat="69.0825666642" lon="17.0569666675">
		<tag k="name" v="Saudalen" />
		<tag k="natural" v="valley" />
		<tag k="place" v="locality" />
		<tag k="ssr:stedsnr" v="537274" />
	</node>
	<node id="-750813" lat="69.069375003" lon="17.184116661">
		<tag k="fixme" v="consider natural=peak for the most distinct mountains in the district" />
		<tag k="name" v="Lanesåsen" />
		<tag k="natural" v="hill" />
		<tag k="place" v="locality" />
		<tag k="ssr:stedsnr" v="537236" />
	</node>
	<node id="-750812" lat="69.0560416659" lon="16.8072833305">
		<tag k="name" v="Fehyrden" />
		<tag k="natural" v="hill" />
		<tag k="place" v="locality" />
		<tag k="ssr:stedsnr" v="536999" />
	</node>
	<node id="-750811" lat="69.0568249971" lon="16.8145972284">
		<tag k="name" v="Innergropa" />
		<tag k="natural" v="hill" />
		<tag k="place" v="locality" />
		<tag k="ssr:stedsnr" v="536997" />
	</node>
	<node id="-750810" lat="69.0587249953" lon="16.8434194534">
		<tag k="name" v="Tøssebolia" />
		<tag k="natural" v="slope" />
		<tag k="place" v="locality" />
		<tag k="ssr:stedsnr" v="536996" />
	</node>
	<node id="-750809" lat="69.1828861123" lon="17.5977777772">
		<tag k="fixme" v="consider natural=peak for the most distinct mountains in the district" />
		<tag k="name" v="Nordpynten" />
		<tag k="natural" v="hill" />
		<tag k="place" v="locality" />
		<tag k="ssr:stedsnr" v="536993" />
	</node>
	<node id="-750806" lat="69.0649611076" lon="16.9130611086">
		<tag k="name" v="Leirbakken" />
		<tag k="natural" v="slope" />
		<tag k="place" v="locality" />
		<tag k="ssr:stedsnr" v="536917" />
	</node>
	<node id="-750805" lat="69.0866222244" lon="16.7879611154">
		<tag k="name" v="Varden" />
		<tag k="natural" v="hill" />
		<tag k="place" v="locality" />
		<tag k="ssr:stedsnr" v="536885" />
	</node>
	<node id="-750803" lat="69.1892583302" lon="17.8312666677">
		<tag k="name" v="Grønnebakklia" />
		<tag k="natural" v="slope" />
		<tag k="place" v="locality" />
		<tag k="ssr:stedsnr" v="536680" />
	</node>
	<node id="-750802" lat="69.0806861114" lon="17.0349222169">
		<tag k="name" v="Høgda" />
		<tag k="natural" v="hill" />
		<tag k="place" v="locality" />
		<tag k="ssr:stedsnr" v="536612" />
	</node>
	<node id="-750798" lat="69.1393416681" lon="17.3247555483">
		<tag k="name" v="Nausthågen" />
		<tag k="natural" v="hill" />
		<tag k="place" v="locality" />
		<tag k="ssr:stedsnr" v="536498" />
	</node>
	<node id="-750796" lat="69.2058027827" lon="17.8233444314">
		<tag k="name" v="Rundhaugen" />
		<tag k="natural" v="hill" />
		<tag k="place" v="locality" />
		<tag k="ssr:stedsnr" v="534987" />
	</node>
	<node id="-750795" lat="69.2016388899" lon="17.8493166537">
		<tag k="name" v="Klubben" />
		<tag k="natural" v="hill" />
		<tag k="place" v="locality" />
		<tag k="ssr:stedsnr" v="534959" />
	</node>
	<node id="-750794" lat="69.1996111082" lon="17.7732944526">
		<tag k="name" v="Hågen" />
		<tag k="natural" v="hill" />
		<tag k="place" v="locality" />
		<tag k="ssr:stedsnr" v="534947" />
	</node>
	<node id="-750775" lat="69.1629583329" lon="17.6300861203">
		<tag k="fixme" v="consider natural=peak for the most distinct mountains in the district" />
		<tag k="name" v="Gardsvikfjellet" />
		<tag k="natural" v="hill" />
		<tag k="place" v="locality" />
		<tag k="ssr:stedsnr" v="504431" />
	</node>
	<node id="-750774" lat="69.2133333309" lon="17.6217805525">
		<tag k="name" v="Styrmannshaugen" />
		<tag k="natural" v="hill" />
		<tag k="place" v="locality" />
		<tag k="ssr:stedsnr" v="504357" />
	</node>
	<node id="-750765" lat="69.1740972258" lon="17.2662833422">
		<tag k="fixme" v="consider natural=peak for the most distinct mountains in the district" />
		<tag k="name" v="Muvračohkka" />
		<tag k="name:se" v="Muvračohkka" />
		<tag k="natural" v="hill" />
		<tag k="old_name:se" v="Muvračåkka" />
		<tag k="place" v="locality" />
		<tag k="ssr:stedsnr" v="503193" />
	</node>
	<node id="-750762" lat="69.1175861104" lon="17.1306861012">
		<tag k="name" v="Finnskardet" />
		<tag k="natural" v="valley" />
		<tag k="place" v="locality" />
		<tag k="ssr:stedsnr" v="503184" />
	</node>
	<node id="-750760" lat="69.1365027765" lon="17.0784055518">
		<tag k="name" v="Vasskroken" />
		<tag k="natural" v="valley" />
		<tag k="place" v="locality" />
		<tag k="ssr:stedsnr" v="503173" />
	</node>
	<node id="-750759" lat="69.1402638886" lon="17.0638055456">
		<tag k="name" v="Rovanholtan" />
		<tag k="natural" v="slope" />
		<tag k="place" v="locality" />
		<tag k="ssr:stedsnr" v="503171" />
	</node>
	<node id="-750758" lat="69.1404333348" lon="17.0719027811">
		<tag k="name" v="Varden" />
		<tag k="natural" v="hill" />
		<tag k="place" v="locality" />
		<tag k="ssr:stedsnr" v="503170" />
	</node>
	<node id="-750754" lat="69.0860833315" lon="16.9807250063">
		<tag k="fixme" v="consider natural=peak for the most distinct mountains in the district" />
		<tag k="name" v="Åkollen" />
		<tag k="natural" v="hill" />
		<tag k="place" v="locality" />
		<tag k="ssr:stedsnr" v="503037" />
	</node>
	<node id="-750753" lat="69.0709250045" lon="17.1764916573">
		<tag k="fixme" v="multiple name tags, choose one and add the other to alt_name" />
		<tag k="name" v="Middagshaugen;Middagsheia" />
		<tag k="natural" v="hill" />
		<tag k="place" v="locality" />
		<tag k="ssr:stedsnr" v="503032" />
	</node>
	<node id="-750738" lat="69.190469448" lon="17.7350305611">
		<tag k="fixme" v="consider natural=peak for the most distinct mountains in the district" />
		<tag k="name" v="Storvassåsen" />
		<tag k="natural" v="hill" />
		<tag k="place" v="locality" />
		<tag k="ssr:stedsnr" v="445256" />
	</node>
	<node id="-750735" lat="69.331313888" lon="17.5638194298">
		<tag k="name" v="Riehppi" />
		<tag k="name:se" v="Riehppi" />
		<tag k="natural" v="valley" />
		<tag k="old_name:se" v="Rieppi" />
		<tag k="place" v="locality" />
		<tag k="ssr:stedsnr" v="443537" />
	</node>
	<node id="-750724" lat="69.1544000031" lon="17.6288305426">
		<tag k="fixme" v="consider natural=peak for the most distinct mountains in the district" />
		<tag k="name" v="Kvitfloget" />
		<tag k="natural" v="hill" />
		<tag k="place" v="locality" />
		<tag k="ssr:stedsnr" v="443302" />
	</node>
	<node id="-750722" lat="69.0405777752" lon="17.0982694508">
		<tag k="alt_name" v="Vanskelegbergan" />
		<tag k="name" v="Vanskeligbergan" />
		<tag k="natural" v="hill" />
		<tag k="place" v="locality" />
		<tag k="ssr:stedsnr" v="443129" />
	</node>
	<node id="-750716" lat="69.1051305557" lon="17.0187194361">
		<tag k="name" v="Bjørnlia" />
		<tag k="natural" v="slope" />
		<tag k="place" v="locality" />
		<tag k="ssr:stedsnr" v="443104" />
	</node>
	<node id="-750710" lat="69.0530138875" lon="17.1106666577">
		<tag k="alt_name" v="Sæterhaugen" />
		<tag k="name" v="Sæterhågen" />
		<tag k="natural" v="hill" />
		<tag k="place" v="locality" />
		<tag k="ssr:stedsnr" v="443092" />
	</node>
	<node id="-750708" lat="69.0294055527" lon="17.1296916662">
		<tag k="name" v="Bjørndalen" />
		<tag k="natural" v="valley" />
		<tag k="place" v="locality" />
		<tag k="ssr:stedsnr" v="443061" />
	</node>
	<node id="-750701" lat="69.1624694463" lon="17.0793722118">
		<tag k="alt_name" v="Lomstinden" />
		<tag k="fixme" v="consider natural=peak for the most distinct mountains in the district" />
		<tag k="name" v="Lomstind" />
		<tag k="natural" v="hill" />
		<tag k="place" v="locality" />
		<tag k="ssr:stedsnr" v="442278" />
	</node>
	<node id="-750696" lat="69.1975583378" lon="17.2514722198">
		<tag k="fixme" v="consider natural=peak for the most distinct mountains in the district" />
		<tag k="name" v="Blåfjellet" />
		<tag k="natural" v="hill" />
		<tag k="place" v="locality" />
		<tag k="ssr:stedsnr" v="442170" />
	</node>
	<node id="-750690" lat="69.0970694449" lon="17.0463444319">
		<tag k="fixme" v="consider natural=peak for the most distinct mountains in the district" />
		<tag k="name" v="Hillesåsen" />
		<tag k="natural" v="hill" />
		<tag k="place" v="locality" />
		<tag k="ssr:stedsnr" v="442048" />
	</node>
	<node id="-750689" lat="69.0998249966" lon="17.0744444531">
		<tag k="name" v="Rypungen" />
		<tag k="natural" v="hill" />
		<tag k="place" v="locality" />
		<tag k="ssr:stedsnr" v="442047" />
	</node>
	<node id="-750688" lat="69.080530553" lon="16.9095750064">
		<tag k="name" v="Kvanntobotn" />
		<tag k="natural" v="valley" />
		<tag k="place" v="locality" />
		<tag k="ssr:stedsnr" v="442040" />
	</node>
	<node id="-750686" lat="69.2528611132" lon="17.5725833227">
		<tag k="name" v="Lamoen" />
		<tag k="place" v="locality" />
		<tag k="ssr:stedsnr" v="417675" />
	</node>
	<node id="-750685" lat="69.2644138924" lon="17.6279250096">
		<tag k="name" v="Rotbakken" />
		<tag k="natural" v="slope" />
		<tag k="place" v="locality" />
		<tag k="ssr:stedsnr" v="417670" />
	</node>
	<node id="-750680" lat="69.1980305556" lon="17.6632916577">
		<tag k="name" v="Mølnsletten" />
		<tag k="place" v="locality" />
		<tag k="ssr:stedsnr" v="417650" />
	</node>
	<node id="-750679" lat="69.1968944405" lon="17.6237638962">
		<tag k="name" v="Vassbekken" />
		<tag k="natural" v="slope" />
		<tag k="place" v="locality" />
		<tag k="ssr:stedsnr" v="417642" />
	</node>
	<node id="-750673" lat="69.0349055517" lon="17.1915638913">
		<tag k="name" v="Sandbakken" />
		<tag k="natural" v="slope" />
		<tag k="place" v="locality" />
		<tag k="ssr:stedsnr" v="416637" />
	</node>
	<node id="-750670" lat="69.0338250016" lon="17.0551055478">
		<tag k="name" v="Sørstehågen" />
		<tag k="natural" v="hill" />
		<tag k="place" v="locality" />
		<tag k="ssr:stedsnr" v="416618" />
	</node>
	<node id="-750669" lat="69.0431805533" lon="17.1580750087">
		<tag k="name" v="Mellahågen" />
		<tag k="natural" v="hill" />
		<tag k="place" v="locality" />
		<tag k="ssr:stedsnr" v="416611" />
	</node>
	<node id="-750668" lat="69.0600638875" lon="17.1611888758">
		<tag k="name" v="Åsalia" />
		<tag k="natural" v="slope" />
		<tag k="place" v="locality" />
		<tag k="ssr:stedsnr" v="416594" />
	</node>
	<node id="-750667" lat="69.0593305577" lon="17.1411250034">
		<tag k="fixme" v="consider natural=peak for the most distinct mountains in the district" />
		<tag k="name" v="Bakfjellet" />
		<tag k="natural" v="hill" />
		<tag k="place" v="locality" />
		<tag k="ssr:stedsnr" v="416592" />
	</node>
	<node id="-750666" lat="69.0474611095" lon="17.1539055627">
		<tag k="name" v="Moen" />
		<tag k="place" v="locality" />
		<tag k="ssr:stedsnr" v="416591" />
	</node>
	<node id="-750665" lat="69.2153499965" lon="17.6284416613">
		<tag k="name" v="Moløbakken" />
		<tag k="natural" v="slope" />
		<tag k="place" v="locality" />
		<tag k="ssr:stedsnr" v="416551" />
	</node>
	<node id="-750664" lat="69.0779888868" lon="16.9370166742">
		<tag k="name" v="Hesteskaret" />
		<tag k="natural" v="valley" />
		<tag k="place" v="locality" />
		<tag k="ssr:stedsnr" v="416540" />
	</node>
	<node id="-750661" lat="69.0154638866" lon="17.1531749882">
		<tag k="name" v="Natthågen" />
		<tag k="natural" v="hill" />
		<tag k="place" v="locality" />
		<tag k="ssr:stedsnr" v="416520" />
	</node>
	<node id="-750660" lat="69.022213889" lon="17.186191675">
		<tag k="name" v="Breivikhågen" />
		<tag k="natural" v="hill" />
		<tag k="place" v="locality" />
		<tag k="ssr:stedsnr" v="416516" />
	</node>
	<node id="-750659" lat="69.0230666637" lon="17.1784861087">
		<tag k="name" v="Varghågen" />
		<tag k="natural" v="hill" />
		<tag k="place" v="locality" />
		<tag k="ssr:stedsnr" v="416512" />
	</node>
	<node id="-750658" lat="69.1553166657" lon="16.8837944553">
		<tag k="name" v="Ehågen" />
		<tag k="natural" v="hill" />
		<tag k="place" v="locality" />
		<tag k="ssr:stedsnr" v="416500" />
	</node>
	<node id="-750657" lat="69.2282388889" lon="17.5741194453">
		<tag k="name" v="Skarhumpen" />
		<tag k="natural" v="hill" />
		<tag k="place" v="locality" />
		<tag k="ssr:stedsnr" v="416494" />
	</node>
	<node id="-750656" lat="69.1474027805" lon="16.9944222162">
		<tag k="name" v="Sjurbergan" />
		<tag k="natural" v="hill" />
		<tag k="place" v="locality" />
		<tag k="ssr:stedsnr" v="416482" />
	</node>
	<node id="-750649" lat="69.024380559" lon="17.2178638988">
		<tag k="name" v="Vardhågen" />
		<tag k="natural" v="hill" />
		<tag k="place" v="locality" />
		<tag k="ssr:stedsnr" v="416373" />
	</node>
	<node id="-750647" lat="69.134761111" lon="17.0925611125">
		<tag k="name" v="Nedre Hesjebakken" />
		<tag k="natural" v="slope" />
		<tag k="place" v="locality" />
		<tag k="ssr:stedsnr" v="416347" />
	</node>
	<node id="-750645" lat="69.1129583315" lon="17.0597750084">
		<tag k="name" v="Beretbakken" />
		<tag k="natural" v="slope" />
		<tag k="place" v="locality" />
		<tag k="ssr:stedsnr" v="416296" />
	</node>
	<node id="-750643" lat="69.1772277768" lon="17.5956388757">
		<tag k="name" v="Nordlia" />
		<tag k="natural" v="slope" />
		<tag k="place" v="locality" />
		<tag k="ssr:stedsnr" v="415993" />
	</node>
	<node id="-750642" lat="69.0643472264" lon="16.8595222287">
		<tag k="name" v="Dragholla" />
		<tag k="natural" v="valley" />
		<tag k="place" v="locality" />
		<tag k="ssr:stedsnr" v="415990" />
	</node>
	<node id="-750640" lat="69.1678388857" lon="17.5913944418">
		<tag k="name" v="Heggholla" />
		<tag k="natural" v="valley" />
		<tag k="place" v="locality" />
		<tag k="ssr:stedsnr" v="415985" />
	</node>
	<node id="-750638" lat="69.0672833358" lon="16.8234916549">
		<tag k="name" v="Storhågen" />
		<tag k="natural" v="hill" />
		<tag k="place" v="locality" />
		<tag k="ssr:stedsnr" v="415972" />
	</node>
	<node id="-750637" lat="69.2427083363" lon="17.5223222281">
		<tag k="name" v="Aksla" />
		<tag k="place" v="locality" />
		<tag k="ssr:stedsnr" v="415971" />
	</node>
	<node id="-750636" lat="69.2397361144" lon="17.5181055482">
		<tag k="fixme" v="consider natural=peak for the most distinct mountains in the district" />
		<tag k="name" v="Litjefjellet" />
		<tag k="natural" v="hill" />
		<tag k="place" v="locality" />
		<tag k="ssr:stedsnr" v="415970" />
	</node>
	<node id="-750631" lat="69.2069333329" lon="17.4363361096">
		<tag k="name" v="Lappe-Joholtet" />
		<tag k="natural" v="hill" />
		<tag k="place" v="locality" />
		<tag k="ssr:stedsnr" v="415899" />
	</node>
	<node id="-750630" lat="69.2004555529" lon="17.3965749868">
		<tag k="name" v="Kleiva" />
		<tag k="natural" v="slope" />
		<tag k="place" v="locality" />
		<tag k="ssr:stedsnr" v="415898" />
	</node>
	<node id="-750629" lat="69.2144499971" lon="17.3910666672">
		<tag k="alt_name" v="Skoglifjellet, l" />
		<tag k="fixme" v="consider natural=peak for the most distinct mountains in the district" />
		<tag k="name" v="Litje Skoglifjellet" />
		<tag k="natural" v="hill" />
		<tag k="place" v="locality" />
		<tag k="ssr:stedsnr" v="415896" />
	</node>
	<node id="-750624" lat="69.0579111087" lon="16.7872749961">
		<tag k="name" v="Vardhågen" />
		<tag k="natural" v="hill" />
		<tag k="place" v="locality" />
		<tag k="ssr:stedsnr" v="415820" />
	</node>
	<node id="-750623" lat="69.1663111127" lon="17.7111333427">
		<tag k="name" v="Hamneberget" />
		<tag k="natural" v="hill" />
		<tag k="place" v="locality" />
		<tag k="ssr:stedsnr" v="415758" />
	</node>
	<node id="-750622" lat="69.177347226" lon="17.7909916672">
		<tag k="name" v="Gammelskaret" />
		<tag k="natural" v="valley" />
		<tag k="place" v="locality" />
		<tag k="ssr:stedsnr" v="415755" />
	</node>
	<node id="-750620" lat="69.1837055582" lon="17.8402360988">
		<tag k="name" v="Bøttekjølpen" />
		<tag k="place" v="locality" />
		<tag k="ssr:stedsnr" v="415749" />
	</node>
	<node id="-750617" lat="69.0808111129" lon="16.9782166688">
		<tag k="name" v="Kjerkesteinen" />
		<tag k="natural" v="hill" />
		<tag k="place" v="locality" />
		<tag k="ssr:stedsnr" v="415659" />
	</node>
	<node id="-750614" lat="69.0904138919" lon="17.0026694467">
		<tag k="name" v="Bjørnhågen" />
		<tag k="natural" v="hill" />
		<tag k="place" v="locality" />
		<tag k="ssr:stedsnr" v="415612" />
	</node>
	<node id="-750613" lat="69.1053055599" lon="17.004533333">
		<tag k="fixme" v="consider natural=peak for the most distinct mountains in the district" />
		<tag k="name" v="Smålikollen" />
		<tag k="natural" v="hill" />
		<tag k="place" v="locality" />
		<tag k="ssr:stedsnr" v="415613" />
	</node>
	<node id="-750611" lat="69.2308305564" lon="17.6879222246">
		<tag k="name" v="Djupelvbakken" />
		<tag k="natural" v="slope" />
		<tag k="place" v="locality" />
		<tag k="ssr:stedsnr" v="415593" />
	</node>
	<node id="-750610" lat="69.1608305582" lon="17.6583972181">
		<tag k="fixme" v="consider natural=peak for the most distinct mountains in the district" />
		<tag k="name" v="Bruna" />
		<tag k="natural" v="hill" />
		<tag k="place" v="locality" />
		<tag k="ssr:stedsnr" v="415576" />
	</node>
	<node id="-750604" lat="69.1194138911" lon="17.2777833369">
		<tag k="name" v="Smålian" />
		<tag k="natural" v="slope" />
		<tag k="place" v="locality" />
		<tag k="ssr:stedsnr" v="415523" />
	</node>
	<node id="-750599" lat="69.139174998" lon="17.2469611001">
		<tag k="fixme" v="consider natural=peak for the most distinct mountains in the district" />
		<tag k="name" v="Blåfjellet" />
		<tag k="natural" v="hill" />
		<tag k="place" v="locality" />
		<tag k="ssr:stedsnr" v="415430" />
	</node>
	<node id="-750598" lat="69.1408555535" lon="17.3163805424">
		<tag k="name" v="Rybakken" />
		<tag k="natural" v="slope" />
		<tag k="place" v="locality" />
		<tag k="ssr:stedsnr" v="415409" />
	</node>
	<node id="-750597" lat="69.1448388921" lon="17.3271527658">
		<tag k="fixme" v="consider natural=peak for the most distinct mountains in the district" />
		<tag k="name" v="Rødlifjellet" />
		<tag k="natural" v="hill" />
		<tag k="place" v="locality" />
		<tag k="ssr:stedsnr" v="415407" />
	</node>
	<node id="-750585" lat="69.2044416682" lon="17.7765916773">
		<tag k="name" v="Slåttkollen" />
		<tag k="natural" v="hill" />
		<tag k="place" v="locality" />
		<tag k="ssr:stedsnr" v="261398" />
	</node>
	<node id="-750583" lat="69.2846722248" lon="17.2704916549">
		<tag k="fixme" v="consider natural=peak for the most distinct mountains in the district" />
		<tag k="name" v="Istind - Jieŋas" />
		<tag k="name:no" v="Istind" />
		<tag k="name:se" v="Jieŋas" />
		<tag k="natural" v="hill" />
		<tag k="place" v="locality" />
		<tag k="ssr:stedsnr" v="261384" />
	</node>
	<node id="-750574" lat="69.161725003" lon="17.1036861223">
		<tag k="fixme" v="consider natural=peak for the most distinct mountains in the district" />
		<tag k="name" v="Hatten" />
		<tag k="natural" v="hill" />
		<tag k="place" v="locality" />
		<tag k="ssr:stedsnr" v="260290" />
	</node>
	<node id="-750573" lat="69.1704833304" lon="17.1492611085">
		<tag k="fixme" v="consider natural=peak for the most distinct mountains in the district" />
		<tag k="name" v="Grinda" />
		<tag k="natural" v="hill" />
		<tag k="place" v="locality" />
		<tag k="ssr:stedsnr" v="260283" />
	</node>
	<node id="-750571" lat="69.1260527746" lon="17.0020861041">
		<tag k="name" v="Ørnvikskardet" />
		<tag k="natural" v="valley" />
		<tag k="place" v="locality" />
		<tag k="ssr:stedsnr" v="260260" />
	</node>
	<node id="-750567" lat="69.0521861096" lon="17.0644250022">
		<tag k="name" v="Halsvarden" />
		<tag k="natural" v="hill" />
		<tag k="place" v="locality" />
		<tag k="ssr:stedsnr" v="260144" />
	</node>
	<node id="-750562" lat="69.0757499971" lon="16.8428972148">
		<tag k="name" v="Skrolsvikdalen" />
		<tag k="natural" v="valley" />
		<tag k="old_name" v="Skredsvikdalen" />
		<tag k="place" v="locality" />
		<tag k="ssr:stedsnr" v="260089" />
	</node>
	<node id="-750559" lat="69.0977972242" lon="16.8450527706">
		<tag k="fixme" v="consider natural=peak for the most distinct mountains in the district" />
		<tag k="name" v="Manen" />
		<tag k="natural" v="hill" />
		<tag k="place" v="locality" />
		<tag k="ssr:stedsnr" v="260069" />
	</node>
	<node id="-750551" lat="69.0385138883" lon="17.1602722127">
		<tag k="name" v="Tortendalen" />
		<tag k="natural" v="valley" />
		<tag k="place" v="locality" />
		<tag k="ssr:stedsnr" v="234691" />
	</node>
	<node id="-750549" lat="69.2821333301" lon="17.6453861107">
		<tag k="name" v="Steinhaugen" />
		<tag k="natural" v="hill" />
		<tag k="place" v="locality" />
		<tag k="ssr:stedsnr" v="234671" />
	</node>
	<node id="-750544" lat="69.2460666699" lon="17.619911121">
		<tag k="name" v="Djupedalen" />
		<tag k="natural" v="valley" />
		<tag k="place" v="locality" />
		<tag k="ssr:stedsnr" v="234651" />
	</node>
	<node id="-750543" lat="69.2084388862" lon="17.6859638843">
		<tag k="name" v="Haillen" />
		<tag k="natural" v="slope" />
		<tag k="place" v="locality" />
		<tag k="ssr:stedsnr" v="234587" />
	</node>
	<node id="-750541" lat="69.0716305516" lon="16.9207694356">
		<tag k="fixme" v="consider natural=peak for the most distinct mountains in the district" />
		<tag k="name" v="Storfjellklubben" />
		<tag k="natural" v="hill" />
		<tag k="place" v="locality" />
		<tag k="ssr:stedsnr" v="234579" />
	</node>
	<node id="-750540" lat="69.0697222183" lon="16.9500138812">
		<tag k="name" v="Likholla" />
		<tag k="natural" v="valley" />
		<tag k="place" v="locality" />
		<tag k="ssr:stedsnr" v="234564" />
	</node>
	<node id="-750538" lat="69.0133527739" lon="17.0889111138">
		<tag k="name" v="Storklubbholtet" />
		<tag k="natural" v="hill" />
		<tag k="place" v="locality" />
		<tag k="ssr:stedsnr" v="234547" />
	</node>
	<node id="-750536" lat="69.0160722187" lon="17.1432444485">
		<tag k="name" v="Nylandshågen" />
		<tag k="natural" v="hill" />
		<tag k="place" v="locality" />
		<tag k="ssr:stedsnr" v="234539" />
	</node>
	<node id="-750534" lat="69.2351694404" lon="17.5997277835">
		<tag k="name" v="Einehågen" />
		<tag k="natural" v="hill" />
		<tag k="place" v="locality" />
		<tag k="ssr:stedsnr" v="234517" />
	</node>
	<node id="-750531" lat="69.1672666644" lon="17.7503888835">
		<tag k="name" v="Sjøhågen" />
		<tag k="natural" v="hill" />
		<tag k="place" v="locality" />
		<tag k="ssr:stedsnr" v="234466" />
	</node>
	<node id="-750526" lat="69.2522861087" lon="17.5901583311">
		<tag k="name" v="Stornesbakken" />
		<tag k="natural" v="slope" />
		<tag k="place" v="locality" />
		<tag k="ssr:stedsnr" v="234631" />
	</node>
	<node id="-750523" lat="69.0212444462" lon="17.2106861038">
		<tag k="name" v="Nausthågen" />
		<tag k="natural" v="hill" />
		<tag k="place" v="locality" />
		<tag k="ssr:stedsnr" v="234397" />
	</node>
	<node id="-750522" lat="69.0280277812" lon="17.2135722223">
		<tag k="name" v="Perjonsahågen" />
		<tag k="natural" v="hill" />
		<tag k="place" v="locality" />
		<tag k="ssr:stedsnr" v="234390" />
	</node>
	<node id="-750521" lat="69.1144305543" lon="17.0694666647">
		<tag k="name" v="Moen" />
		<tag k="place" v="locality" />
		<tag k="ssr:stedsnr" v="234311" />
	</node>
	<node id="-750518" lat="69.0883055514" lon="17.0512000059">
		<tag k="fixme" v="consider natural=peak for the most distinct mountains in the district" />
		<tag k="name" v="Myrhøgda" />
		<tag k="natural" v="hill" />
		<tag k="place" v="locality" />
		<tag k="ssr:stedsnr" v="234293" />
	</node>
	<node id="-750514" lat="69.1715944438" lon="17.7998916714">
		<tag k="fixme" v="consider natural=peak for the most distinct mountains in the district" />
		<tag k="name" v="Ingeborgfjellet" />
		<tag k="natural" v="hill" />
		<tag k="place" v="locality" />
		<tag k="ssr:stedsnr" v="234461" />
	</node>
	<node id="-750513" lat="69.1693638931" lon="17.8181916703">
		<tag k="name" v="Bjørnlia" />
		<tag k="natural" v="slope" />
		<tag k="place" v="locality" />
		<tag k="ssr:stedsnr" v="234458" />
	</node>
	<node id="-750512" lat="69.1917333375" lon="17.6408888894">
		<tag k="name" v="Storlia" />
		<tag k="natural" v="slope" />
		<tag k="place" v="locality" />
		<tag k="ssr:stedsnr" v="233995" />
	</node>
	<node id="-750508" lat="69.1651000013" lon="17.6046833328">
		<tag k="name" v="Størlandsbakken" />
		<tag k="natural" v="slope" />
		<tag k="place" v="locality" />
		<tag k="ssr:stedsnr" v="233987" />
	</node>
	<node id="-750506" lat="69.0274527795" lon="16.9047361">
		<tag k="name" v="Båthågen" />
		<tag k="natural" v="hill" />
		<tag k="place" v="locality" />
		<tag k="ssr:stedsnr" v="233935" />
	</node>
	<node id="-750498" lat="69.1623138882" lon="17.697527765">
		<tag k="name" v="Hammaren" />
		<tag k="natural" v="hill" />
		<tag k="place" v="locality" />
		<tag k="ssr:stedsnr" v="233752" />
	</node>
	<node id="-750497" lat="69.1815472215" lon="17.7828500089">
		<tag k="name" v="Skreden" />
		<tag k="natural" v="slope" />
		<tag k="place" v="locality" />
		<tag k="ssr:stedsnr" v="233744" />
	</node>
	<node id="-750495" lat="69.1680861089" lon="17.7021249903">
		<tag k="fixme" v="consider natural=peak for the most distinct mountains in the district" />
		<tag k="name" v="Rønnekollen" />
		<tag k="natural" v="hill" />
		<tag k="place" v="locality" />
		<tag k="ssr:stedsnr" v="233738" />
	</node>
	<node id="-750494" lat="69.0847555519" lon="16.9668194294">
		<tag k="name" v="Finnelvdalen" />
		<tag k="natural" v="valley" />
		<tag k="place" v="locality" />
		<tag k="ssr:stedsnr" v="233628" />
	</node>
	<node id="-750491" lat="69.0913833346" lon="16.991202783">
		<tag k="name" v="Tverrelvbakkan" />
		<tag k="natural" v="slope" />
		<tag k="place" v="locality" />
		<tag k="ssr:stedsnr" v="233617" />
	</node>
	<node id="-750490" lat="69.1088944491" lon="17.0266583283">
		<tag k="name" v="Stilian" />
		<tag k="natural" v="slope" />
		<tag k="place" v="locality" />
		<tag k="ssr:stedsnr" v="233614" />
	</node>
	<node id="-750489" lat="69.2377611125" lon="17.6489860995">
		<tag k="name" v="Runemoen" />
		<tag k="place" v="locality" />
		<tag k="ssr:stedsnr" v="233592" />
	</node>
	<node id="-750485" lat="69.1424027748" lon="17.3393333229">
		<tag k="name" v="Nilselia" />
		<tag k="natural" v="slope" />
		<tag k="place" v="locality" />
		<tag k="ssr:stedsnr" v="233533" />
	</node>
	<node id="-750484" lat="69.1395916643" lon="17.3440416569">
		<tag k="name" v="Rødberget" />
		<tag k="natural" v="hill" />
		<tag k="place" v="locality" />
		<tag k="ssr:stedsnr" v="233531" />
	</node>
	<node id="-750483" lat="69.1218888917" lon="17.2643055431">
		<tag k="name" v="Djupholla" />
		<tag k="natural" v="valley" />
		<tag k="place" v="locality" />
		<tag k="ssr:stedsnr" v="233521" />
	</node>
	<node id="-750482" lat="69.1296472228" lon="17.2706194433">
		<tag k="fixme" v="consider natural=peak for the most distinct mountains in the district" />
		<tag k="name" v="Åsan" />
		<tag k="natural" v="hill" />
		<tag k="place" v="locality" />
		<tag k="ssr:stedsnr" v="233522" />
	</node>
	<node id="-750481" lat="69.1671527799" lon="17.8375000005">
		<tag k="name" v="Smørlibrekka" />
		<tag k="natural" v="hill" />
		<tag k="place" v="locality" />
		<tag k="ssr:stedsnr" v="233503" />
	</node>
	<node id="-750478" lat="69.0624611135" lon="16.8462916678">
		<tag k="name" v="Austerdalen" />
		<tag k="natural" v="valley" />
		<tag k="place" v="locality" />
		<tag k="ssr:stedsnr" v="232983" />
	</node>
	<node id="-750474" lat="69.299905555" lon="17.6376888772">
		<tag k="name" v="Bumannskjerringdalen" />
		<tag k="natural" v="valley" />
		<tag k="place" v="locality" />
		<tag k="ssr:stedsnr" v="230023" />
	</node>
	<node id="-750473" lat="69.2007777825" lon="17.7465194373">
		<tag k="name" v="Rimklamsen" />
		<tag k="natural" v="slope" />
		<tag k="place" v="locality" />
		<tag k="ssr:stedsnr" v="229946" />
	</node>
	<node id="-750472" lat="69.2045249967" lon="17.7585416522">
		<tag k="fixme" v="consider natural=peak for the most distinct mountains in the district" />
		<tag k="name" v="Lomtjønnhøgda" />
		<tag k="natural" v="hill" />
		<tag k="place" v="locality" />
		<tag k="ssr:stedsnr" v="229544" />
	</node>
	<node id="-750469" lat="69.1059499967" lon="16.9156638798">
		<tag k="name" v="Blyfjordbotn" />
		<tag k="natural" v="valley" />
		<tag k="place" v="locality" />
		<tag k="ssr:stedsnr" v="212133" />
	</node>
	<node id="-750465" lat="69.2170333381" lon="17.3620194349">
		<tag k="fixme" v="consider natural=peak for the most distinct mountains in the district" />
		<tag k="name" v="Vuopmevárri" />
		<tag k="name:se" v="Vuopmevárri" />
		<tag k="natural" v="hill" />
		<tag k="old_name:se" v="Vuobmevarri" />
		<tag k="place" v="locality" />
		<tag k="ssr:stedsnr" v="202178" />
	</node>
	<node id="-750464" lat="69.2946277758" lon="17.4719388982">
		<tag k="name" v="Steindalen - Njuollaborvággi" />
		<tag k="name:no" v="Steindalen" />
		<tag k="name:se" v="Njuollaborvággi" />
		<tag k="natural" v="valley" />
		<tag k="old_name:se" v="Njuollabårvaggi" />
		<tag k="place" v="locality" />
		<tag k="ssr:stedsnr" v="201536" />
	</node>
	<node id="-750458" lat="69.1763111105" lon="17.8023138934">
		<tag k="name" v="Veten" />
		<tag k="natural" v="hill" />
		<tag k="place" v="locality" />
		<tag k="ssr:stedsnr" v="200477" />
	</node>
	<node id="-750450" lat="69.2394944441" lon="17.6004499954">
		<tag k="name" v="Brygghaugen" />
		<tag k="natural" v="hill" />
		<tag k="place" v="locality" />
		<tag k="ssr:stedsnr" v="200431" />
	</node>
	<node id="-750449" lat="69.2189416631" lon="17.5218388847">
		<tag k="alt_name" v="Likskardet" />
		<tag k="name" v="Likskaret" />
		<tag k="natural" v="valley" />
		<tag k="place" v="locality" />
		<tag k="ssr:stedsnr" v="200405" />
	</node>
	<node id="-750434" lat="69.1212972239" lon="17.0527611205">
		<tag k="fixme" v="consider natural=peak for the most distinct mountains in the district" />
		<tag k="name" v="Ørnkollen" />
		<tag k="natural" v="hill" />
		<tag k="place" v="locality" />
		<tag k="ssr:stedsnr" v="200188" />
	</node>
	<node id="-750430" lat="69.2008694486" lon="17.2312194318">
		<tag k="name" v="Ruovdevággi" />
		<tag k="name:se" v="Ruovdevággi" />
		<tag k="natural" v="valley" />
		<tag k="old_name:se" v="Ruovdevaggi" />
		<tag k="place" v="locality" />
		<tag k="ssr:stedsnr" v="200134" />
	</node>
	<node id="-750426" lat="69.03812222" lon="17.2045388896">
		<tag k="name" v="Storholtet" />
		<tag k="natural" v="hill" />
		<tag k="place" v="locality" />
		<tag k="ssr:stedsnr" v="200104" />
	</node>
	<node id="-750421" lat="69.1771749976" lon="17.7409166644">
		<tag k="name" v="Himmelhågen" />
		<tag k="natural" v="hill" />
		<tag k="place" v="locality" />
		<tag k="ssr:stedsnr" v="174722" />
	</node>
	<node id="-750418" lat="69.2657694481" lon="17.6249750059">
		<tag k="name" v="Risorbakken" />
		<tag k="natural" v="slope" />
		<tag k="place" v="locality" />
		<tag k="ssr:stedsnr" v="174644" />
	</node>
	<node id="-750417" lat="69.2068444438" lon="17.6609610962">
		<tag k="name" v="Hundelvdalen" />
		<tag k="natural" v="valley" />
		<tag k="place" v="locality" />
		<tag k="ssr:stedsnr" v="174630" />
	</node>
	<node id="-750415" lat="69.181869443" lon="17.7363083268">
		<tag k="name" v="Lammdalen" />
		<tag k="natural" v="valley" />
		<tag k="place" v="locality" />
		<tag k="ssr:stedsnr" v="174694" />
	</node>
	<node id="-750411" lat="69.2432111122" lon="17.5442916691">
		<tag k="name" v="Fisketjønnelvdalen" />
		<tag k="natural" v="valley" />
		<tag k="place" v="locality" />
		<tag k="ssr:stedsnr" v="174665" />
	</node>
	<node id="-750408" lat="69.0405777817" lon="17.1609749979">
		<tag k="name" v="Skavskardalen" />
		<tag k="natural" v="valley" />
		<tag k="place" v="locality" />
		<tag k="ssr:stedsnr" v="173642" />
	</node>
	<node id="-750406" lat="69.0442750038" lon="17.1681333337">
		<tag k="name" v="Skavholla" />
		<tag k="natural" v="valley" />
		<tag k="place" v="locality" />
		<tag k="ssr:stedsnr" v="173628" />
	</node>
	<node id="-750405" lat="69.0414861114" lon="17.159511103">
		<tag k="name" v="Nonshågen" />
		<tag k="natural" v="hill" />
		<tag k="place" v="locality" />
		<tag k="ssr:stedsnr" v="173622" />
	</node>
	<node id="-750401" lat="69.0721166639" lon="16.934088896">
		<tag k="fixme" v="consider natural=peak for the most distinct mountains in the district" />
		<tag k="name" v="Storfjellet" />
		<tag k="natural" v="hill" />
		<tag k="place" v="locality" />
		<tag k="ssr:stedsnr" v="173537" />
	</node>
	<node id="-750400" lat="69.0744166635" lon="16.9410944362">
		<tag k="fixme" v="consider natural=peak for the most distinct mountains in the district" />
		<tag k="name" v="Lenndalsfjellet" />
		<tag k="natural" v="hill" />
		<tag k="place" v="locality" />
		<tag k="ssr:stedsnr" v="173536" />
	</node>
	<node id="-750399" lat="69.220347223" lon="17.6607666661">
		<tag k="name" v="Sæterhamran" />
		<tag k="natural" v="hill" />
		<tag k="place" v="locality" />
		<tag k="ssr:stedsnr" v="173525" />
	</node>
	<node id="-750397" lat="69.0239388856" lon="17.1391527847">
		<tag k="name" v="Ramnklauva" />
		<tag k="natural" v="valley" />
		<tag k="place" v="locality" />
		<tag k="ssr:stedsnr" v="173510" />
	</node>
	<node id="-750393" lat="69.0789000029" lon="16.9641361148">
		<tag k="name" v="Moen" />
		<tag k="place" v="locality" />
		<tag k="ssr:stedsnr" v="173590" />
	</node>
	<node id="-750392" lat="69.0873611126" lon="17.0136916784">
		<tag k="name" v="Vassoshågen" />
		<tag k="natural" v="hill" />
		<tag k="place" v="locality" />
		<tag k="ssr:stedsnr" v="173564" />
	</node>
	<node id="-750390" lat="69.0170361126" lon="17.0994777713">
		<tag k="fixme" v="consider natural=peak for the most distinct mountains in the district" />
		<tag k="name" v="Åsebakkholtan" />
		<tag k="natural" v="hill" />
		<tag k="place" v="locality" />
		<tag k="ssr:stedsnr" v="173493" />
	</node>
	<node id="-750386" lat="69.13168889" lon="17.0156111141">
		<tag k="name" v="Tønnertholla" />
		<tag k="natural" v="valley" />
		<tag k="place" v="locality" />
		<tag k="ssr:stedsnr" v="173470" />
	</node>
	<node id="-750384" lat="69.069261113" lon="17.0208361099">
		<tag k="fixme" v="consider natural=peak for the most distinct mountains in the district" />
		<tag k="name" v="Dragøytuva" />
		<tag k="natural" v="hill" />
		<tag k="place" v="locality" />
		<tag k="ssr:stedsnr" v="173457" />
	</node>
	<node id="-750381" lat="69.1677944471" lon="17.8252249902">
		<tag k="name" v="Støvellia" />
		<tag k="natural" v="slope" />
		<tag k="place" v="locality" />
		<tag k="ssr:stedsnr" v="173427" />
	</node>
	<node id="-750379" lat="69.1675916673" lon="17.1124249987">
		<tag k="fixme" v="consider natural=peak for the most distinct mountains in the district" />
		<tag k="name" v="Grindbåsen" />
		<tag k="natural" v="hill" />
		<tag k="place" v="locality" />
		<tag k="ssr:stedsnr" v="173376" />
	</node>
	<node id="-750377" lat="69.1167388896" lon="17.0514027766">
		<tag k="name" v="Brattlihammaren" />
		<tag k="natural" v="hill" />
		<tag k="place" v="locality" />
		<tag k="ssr:stedsnr" v="173298" />
	</node>
	<node id="-750376" lat="69.1225722268" lon="17.0988416622">
		<tag k="name" v="Finnskarhollet" />
		<tag k="natural" v="valley" />
		<tag k="place" v="locality" />
		<tag k="ssr:stedsnr" v="173293" />
	</node>
	<node id="-750375" lat="69.1061194461" lon="17.0696611091">
		<tag k="name" v="Seljelia" />
		<tag k="natural" v="slope" />
		<tag k="place" v="locality" />
		<tag k="ssr:stedsnr" v="173280" />
	</node>
	<node id="-750372" lat="69.0873861086" lon="17.1634583291">
		<tag k="name" v="Lysbakkan" />
		<tag k="natural" v="slope" />
		<tag k="place" v="locality" />
		<tag k="ssr:stedsnr" v="173265" />
	</node>
	<node id="-750367" lat="69.1691638885" lon="17.6070861035">
		<tag k="name" v="Bergenden" />
		<tag k="natural" v="hill" />
		<tag k="place" v="locality" />
		<tag k="ssr:stedsnr" v="172982" />
	</node>
	<node id="-750365" lat="69.0350916709" lon="16.9090305501">
		<tag k="name" v="Sandvikberget" />
		<tag k="natural" v="hill" />
		<tag k="place" v="locality" />
		<tag k="ssr:stedsnr" v="172936" />
	</node>
	<node id="-750361" lat="69.0301249975" lon="16.9111305596">
		<tag k="name" v="Langhågen" />
		<tag k="natural" v="hill" />
		<tag k="place" v="locality" />
		<tag k="ssr:stedsnr" v="172933" />
	</node>
	<node id="-750355" lat="69.1559333304" lon="17.5260222193">
		<tag k="name" v="Hamneklubben" />
		<tag k="natural" v="hill" />
		<tag k="place" v="locality" />
		<tag k="ssr:stedsnr" v="172880" />
	</node>
	<node id="-750354" lat="69.058594444" lon="16.8271583324">
		<tag k="name" v="Haukhågen" />
		<tag k="natural" v="hill" />
		<tag k="place" v="locality" />
		<tag k="ssr:stedsnr" v="172973" />
	</node>
	<node id="-750350" lat="69.1687638868" lon="17.7154472124">
		<tag k="name" v="Klubbebakkan" />
		<tag k="natural" v="slope" />
		<tag k="place" v="locality" />
		<tag k="ssr:stedsnr" v="172765" />
	</node>
	<node id="-750348" lat="69.1750972226" lon="17.827686099">
		<tag k="name" v="Drågsmeden" />
		<tag k="natural" v="slope" />
		<tag k="place" v="locality" />
		<tag k="ssr:stedsnr" v="172754" />
	</node>
	<node id="-750347" lat="69.1883972247" lon="17.8230027868">
		<tag k="name" v="Rødlia" />
		<tag k="natural" v="slope" />
		<tag k="place" v="locality" />
		<tag k="ssr:stedsnr" v="172727" />
	</node>
	<node id="-750346" lat="69.1883861134" lon="17.7727944419">
		<tag k="name" v="Dalan" />
		<tag k="natural" v="valley" />
		<tag k="place" v="locality" />
		<tag k="ssr:stedsnr" v="172721" />
	</node>
	<node id="-750345" lat="69.2086583343" lon="17.591961121">
		<tag k="name" v="Tennvassholtet" />
		<tag k="natural" v="hill" />
		<tag k="place" v="locality" />
		<tag k="ssr:stedsnr" v="172599" />
	</node>
	<node id="-750344" lat="69.1019916706" lon="17.0351916647">
		<tag k="name" v="Kvannholldalen" />
		<tag k="natural" v="valley" />
		<tag k="place" v="locality" />
		<tag k="ssr:stedsnr" v="172596" />
	</node>
	<node id="-750341" lat="69.119888889" lon="17.2710666546">
		<tag k="name" v="Skaret" />
		<tag k="natural" v="valley" />
		<tag k="place" v="locality" />
		<tag k="ssr:stedsnr" v="172509" />
	</node>
	<node id="-750340" lat="69.2043805541" lon="17.2306611095">
		<tag k="name" v="Ryphaugen" />
		<tag k="natural" v="hill" />
		<tag k="place" v="locality" />
		<tag k="ssr:stedsnr" v="172507" />
	</node>
	<node id="-750339" lat="69.0828555553" lon="16.9953749882">
		<tag k="name" v="Trollberget" />
		<tag k="natural" v="hill" />
		<tag k="place" v="locality" />
		<tag k="ssr:stedsnr" v="172633" />
	</node>
	<node id="-750336" lat="69.1422972188" lon="17.443099999">
		<tag k="name" v="Tjønnsletta" />
		<tag k="place" v="locality" />
		<tag k="ssr:stedsnr" v="172488" />
	</node>
	<node id="-750335" lat="69.1435194418" lon="17.3244194473">
		<tag k="name" v="Rødlia" />
		<tag k="natural" v="slope" />
		<tag k="place" v="locality" />
		<tag k="ssr:stedsnr" v="172390" />
	</node>
	<node id="-750333" lat="69.2136499999" lon="17.711274988">
		<tag k="fixme" v="consider natural=peak for the most distinct mountains in the district" />
		<tag k="name" v="Grønnveten" />
		<tag k="natural" v="hill" />
		<tag k="place" v="locality" />
		<tag k="ssr:stedsnr" v="169542" />
	</node>
	<node id="-750324" lat="69.269019442" lon="17.5634777688">
		<tag k="name" v="Sørlia" />
		<tag k="natural" v="slope" />
		<tag k="place" v="locality" />
		<tag k="ssr:stedsnr" v="139604" />
	</node>
	<node id="-749694" lat="69.0657666667" lon="16.9259027798">
		<tag k="name" v="Småhågan" />
		<tag k="natural" v="hill" />
		<tag k="place" v="locality" />
		<tag k="ssr:stedsnr" v="294918" />
	</node>
	<node id="-750322" lat="69.1819111126" lon="17.8325333197">
		<tag k="name" v="Hanken" />
		<tag k="natural" v="hill" />
		<tag k="place" v="locality" />
		<tag k="ssr:stedsnr" v="139503" />
	</node>
	<node id="-750320" lat="69.1930500033" lon="17.6805027862">
		<tag k="fixme" v="multiple name tags, choose one and add the other to alt_name; consider natural=peak for the most distinct mountains in the district" />
		<tag k="name" v="Halsehaugen;Moåsen" />
		<tag k="natural" v="hill" />
		<tag k="place" v="locality" />
		<tag k="ssr:stedsnr" v="139494" />
	</node>
	<node id="-750317" lat="69.2383194456" lon="17.4826500072">
		<tag k="name" v="Kaperdalen - Gahpervággi" />
		<tag k="name:no" v="Kaperdalen" />
		<tag k="name:se" v="Gahpervággi" />
		<tag k="natural" v="valley" />
		<tag k="place" v="locality" />
		<tag k="ssr:stedsnr" v="139448" />
	</node>
	<node id="-750314" lat="69.2247722249" lon="17.582783325">
		<tag k="alt_name" v="Brygghaugen, s" />
		<tag k="fixme" v="multiple name tags, choose one and add the other to alt_name" />
		<tag k="name" v="Brygghaugen;Søre Brygghaugen" />
		<tag k="natural" v="hill" />
		<tag k="place" v="locality" />
		<tag k="ssr:stedsnr" v="139418" />
	</node>
	<node id="-749692" lat="69.0747833345" lon="16.786744448">
		<tag k="name" v="Vardhågen" />
		<tag k="natural" v="hill" />
		<tag k="place" v="locality" />
		<tag k="ssr:stedsnr" v="294889" />
	</node>
	<node id="-750307" lat="69.1125833316" lon="17.0311000012">
		<tag k="alt_name" v="Stigberget" />
		<tag k="name" v="Stiberget" />
		<tag k="natural" v="hill" />
		<tag k="place" v="locality" />
		<tag k="ssr:stedsnr" v="139215" />
	</node>
	<node id="-750306" lat="69.1166666703" lon="16.9419388981">
		<tag k="fixme" v="multiple name tags, choose one and add the other to alt_name; consider natural=peak for the most distinct mountains in the district" />
		<tag k="name" v="Bukkehornet;Oksehornet" />
		<tag k="natural" v="hill" />
		<tag k="place" v="locality" />
		<tag k="ssr:stedsnr" v="139213" />
	</node>
	<node id="-750296" lat="69.0942083365" lon="16.8228472258">
		<tag k="fixme" v="consider natural=peak for the most distinct mountains in the district" />
		<tag k="name" v="Sjursviktindan" />
		<tag k="natural" v="hill" />
		<tag k="place" v="locality" />
		<tag k="ssr:stedsnr" v="139034" />
	</node>
	<node id="-750295" lat="69.0989777803" lon="17.021469438">
		<tag k="name" v="Ådalen" />
		<tag k="natural" v="valley" />
		<tag k="place" v="locality" />
		<tag k="ssr:stedsnr" v="139029" />
	</node>
	<node id="-750293" lat="69.0729611112" lon="16.9052000043">
		<tag k="alt_name" v="Tortenbakken" />
		<tag k="name" v="Tortenbakkan" />
		<tag k="natural" v="slope" />
		<tag k="place" v="locality" />
		<tag k="ssr:stedsnr" v="139010" />
	</node>
	<node id="-750290" lat="69.1327416705" lon="17.0515972327">
		<tag k="fixme" v="consider natural=peak for the most distinct mountains in the district" />
		<tag k="name" v="Fagervikkollen" />
		<tag k="natural" v="hill" />
		<tag k="place" v="locality" />
		<tag k="ssr:stedsnr" v="139195" />
	</node>
	<node id="-750288" lat="69.086452781" lon="17.0917888919">
		<tag k="fixme" v="consider natural=peak for the most distinct mountains in the district" />
		<tag k="name" v="Snauheia" />
		<tag k="natural" v="hill" />
		<tag k="place" v="locality" />
		<tag k="ssr:stedsnr" v="139060" />
	</node>
	<node id="-750287" lat="69.0862888907" lon="17.0345888888">
		<tag k="name" v="Sørbotn" />
		<tag k="natural" v="valley" />
		<tag k="place" v="locality" />
		<tag k="ssr:stedsnr" v="139058" />
	</node>
	<node id="-750286" lat="69.1504555582" lon="17.3401222253">
		<tag k="fixme" v="consider natural=peak for the most distinct mountains in the district" />
		<tag k="name" v="Skipbåtnesvarden" />
		<tag k="natural" v="hill" />
		<tag k="place" v="locality" />
		<tag k="ssr:stedsnr" v="138261" />
	</node>
	<node id="-750284" lat="69.1881083335" lon="17.4164638863">
		<tag k="fixme" v="consider natural=peak for the most distinct mountains in the district" />
		<tag k="name" v="Grunnvågfjellet" />
		<tag k="natural" v="hill" />
		<tag k="place" v="locality" />
		<tag k="ssr:stedsnr" v="138169" />
	</node>
	<node id="-750277" lat="69.1766444462" lon="17.7544722294">
		<tag k="name" v="Helvete" />
		<tag k="natural" v="cliff" />
		<tag k="ssr:stedsnr" v="113676" />
	</node>
	<node id="-750276" lat="69.0317055568" lon="17.198208327">
		<tag k="name" v="Donneveiholtet" />
		<tag k="natural" v="hill" />
		<tag k="place" v="locality" />
		<tag k="ssr:stedsnr" v="113673" />
	</node>
	<node id="-750275" lat="69.1762777828" lon="17.7396444321">
		<tag k="name" v="Finnebakken" />
		<tag k="natural" v="slope" />
		<tag k="place" v="locality" />
		<tag k="ssr:stedsnr" v="113672" />
	</node>
	<node id="-750274" lat="69.0324638919" lon="17.1562944523">
		<tag k="name" v="Bjørnsprekken" />
		<tag k="natural" v="slope" />
		<tag k="place" v="locality" />
		<tag k="ssr:stedsnr" v="113663" />
	</node>
	<node id="-750273" lat="69.1679000007" lon="17.7438361169">
		<tag k="name" v="Storvollen" />
		<tag k="place" v="locality" />
		<tag k="ssr:stedsnr" v="113726" />
	</node>
	<node id="-750271" lat="69.2514583319" lon="17.5999055461">
		<tag k="name" v="Nervollen" />
		<tag k="place" v="locality" />
		<tag k="ssr:stedsnr" v="113593" />
	</node>
	<node id="-750268" lat="69.2678222236" lon="17.6210194318">
		<tag k="name" v="Torvebakken" />
		<tag k="natural" v="slope" />
		<tag k="place" v="locality" />
		<tag k="ssr:stedsnr" v="113581" />
	</node>
	<node id="-750267" lat="69.2041138853" lon="17.6675222282">
		<tag k="name" v="Hammaren" />
		<tag k="natural" v="hill" />
		<tag k="place" v="locality" />
		<tag k="ssr:stedsnr" v="113577" />
	</node>
	<node id="-750266" lat="69.0929638856" lon="17.0055888755">
		<tag k="name" v="Hanselabakkan" />
		<tag k="natural" v="slope" />
		<tag k="place" v="locality" />
		<tag k="ssr:stedsnr" v="113563" />
	</node>
	<node id="-750264" lat="69.2192999985" lon="17.6493916577">
		<tag k="name" v="Sætermoen" />
		<tag k="place" v="locality" />
		<tag k="ssr:stedsnr" v="113543" />
	</node>
	<node id="-750259" lat="69.2333472186" lon="17.5801361091">
		<tag k="name" v="Litjeholtet" />
		<tag k="natural" v="hill" />
		<tag k="place" v="locality" />
		<tag k="ssr:stedsnr" v="113506" />
	</node>
	<node id="-749683" lat="69.1014138893" lon="17.0066416699">
		<tag k="name" v="Smålian" />
		<tag k="natural" v="slope" />
		<tag k="place" v="locality" />
		<tag k="ssr:stedsnr" v="294599" />
	</node>
	<node id="-750256" lat="69.1368361083" lon="17.029577783">
		<tag k="name" v="Rødbergan" />
		<tag k="natural" v="hill" />
		<tag k="place" v="locality" />
		<tag k="ssr:stedsnr" v="113494" />
	</node>
	<node id="-750255" lat="69.0783750038" lon="17.0116361228">
		<tag k="name" v="Kleiva" />
		<tag k="natural" v="slope" />
		<tag k="place" v="locality" />
		<tag k="ssr:stedsnr" v="113473" />
	</node>
	<node id="-750253" lat="69.1644277776" lon="17.6064694305">
		<tag k="name" v="Olahågen" />
		<tag k="natural" v="hill" />
		<tag k="place" v="locality" />
		<tag k="ssr:stedsnr" v="113469" />
	</node>
	<node id="-750251" lat="69.0234666701" lon="17.2053222198">
		<tag k="name" v="Sjåberget" />
		<tag k="natural" v="hill" />
		<tag k="place" v="locality" />
		<tag k="ssr:stedsnr" v="113390" />
	</node>
	<node id="-750247" lat="69.0818444402" lon="17.0603388898">
		<tag k="fixme" v="consider natural=peak for the most distinct mountains in the district" />
		<tag k="name" v="Åsen" />
		<tag k="natural" v="hill" />
		<tag k="place" v="locality" />
		<tag k="ssr:stedsnr" v="113289" />
	</node>
	<node id="-750246" lat="69.0857388853" lon="17.0848888876">
		<tag k="name" v="Tverrheia" />
		<tag k="natural" v="hill" />
		<tag k="place" v="locality" />
		<tag k="ssr:stedsnr" v="113286" />
	</node>
	<node id="-750243" lat="69.0769305523" lon="17.0467222082">
		<tag k="name" v="Myrvanghaugen" />
		<tag k="natural" v="hill" />
		<tag k="place" v="locality" />
		<tag k="ssr:stedsnr" v="113268" />
	</node>
	<node id="-750242" lat="69.0779944419" lon="17.0626638969">
		<tag k="name" v="Myrskaret" />
		<tag k="natural" v="valley" />
		<tag k="place" v="locality" />
		<tag k="ssr:stedsnr" v="113264" />
	</node>
	<node id="-750239" lat="69.1828166686" lon="17.5489194376">
		<tag k="name" v="Hesjemoen" />
		<tag k="place" v="locality" />
		<tag k="ssr:stedsnr" v="112998" />
	</node>
	<node id="-750237" lat="69.1641638924" lon="17.5840500118">
		<tag k="name" v="Elvesletten" />
		<tag k="place" v="locality" />
		<tag k="ssr:stedsnr" v="112981" />
	</node>
	<node id="-750229" lat="69.239016664" lon="17.6201999947">
		<tag k="name" v="Kvalskolten" />
		<tag k="natural" v="hill" />
		<tag k="place" v="locality" />
		<tag k="ssr:stedsnr" v="113625" />
	</node>
	<node id="-749678" lat="69.0244916647" lon="17.2009694471">
		<tag k="name" v="Jektevikhågen" />
		<tag k="natural" v="hill" />
		<tag k="place" v="locality" />
		<tag k="ssr:stedsnr" v="294575" />
	</node>
	<node id="-750226" lat="69.0734416618" lon="16.812733341">
		<tag k="name" v="Finnjorddalen" />
		<tag k="natural" v="valley" />
		<tag k="place" v="locality" />
		<tag k="ssr:stedsnr" v="112872" />
	</node>
	<node id="-750225" lat="69.1556861114" lon="17.5012722201">
		<tag k="name" v="Liksandskaret" />
		<tag k="natural" v="valley" />
		<tag k="place" v="locality" />
		<tag k="ssr:stedsnr" v="112846" />
	</node>
	<node id="-750224" lat="69.1720638857" lon="17.4073722151">
		<tag k="name" v="Båtholtet" />
		<tag k="natural" v="hill" />
		<tag k="place" v="locality" />
		<tag k="ssr:stedsnr" v="112845" />
	</node>
	<node id="-750221" lat="69.1895361146" lon="17.8426388805">
		<tag k="name" v="Fiskevassdalen" />
		<tag k="natural" v="valley" />
		<tag k="place" v="locality" />
		<tag k="ssr:stedsnr" v="112689" />
	</node>
	<node id="-750219" lat="69.0584305576" lon="17.1599500082">
		<tag k="name" v="Jamdalen" />
		<tag k="natural" v="valley" />
		<tag k="place" v="locality" />
		<tag k="ssr:stedsnr" v="112655" />
	</node>
	<node id="-750218" lat="69.0771888896" lon="16.8643000092">
		<tag k="name" v="Stillvasshalsen" />
		<tag k="natural" v="slope" />
		<tag k="place" v="locality" />
		<tag k="ssr:stedsnr" v="112928" />
	</node>
	<node id="-750212" lat="69.1096166643" lon="17.0339416739">
		<tag k="name" v="Salamoen" />
		<tag k="place" v="locality" />
		<tag k="ssr:stedsnr" v="112574" />
	</node>
	<node id="-750211" lat="69.2368388861" lon="17.5956277632">
		<tag k="name" v="Djupedalen" />
		<tag k="natural" v="valley" />
		<tag k="place" v="locality" />
		<tag k="ssr:stedsnr" v="112554" />
	</node>
	<node id="-750210" lat="69.2273583287" lon="17.5832444525">
		<tag k="name" v="Lemdalen" />
		<tag k="natural" v="valley" />
		<tag k="place" v="locality" />
		<tag k="ssr:stedsnr" v="112551" />
	</node>
	<node id="-750208" lat="69.1407500038" lon="17.3062694493">
		<tag k="name" v="Hågen" />
		<tag k="natural" v="hill" />
		<tag k="place" v="locality" />
		<tag k="ssr:stedsnr" v="112509" />
	</node>
	<node id="-750207" lat="69.1424027818" lon="17.2885416579">
		<tag k="name" v="Blomholthøgda" />
		<tag k="natural" v="hill" />
		<tag k="place" v="locality" />
		<tag k="ssr:stedsnr" v="112507" />
	</node>
	<node id="-750206" lat="69.1676833314" lon="17.8298277678">
		<tag k="name" v="Bollhågen" />
		<tag k="natural" v="hill" />
		<tag k="place" v="locality" />
		<tag k="ssr:stedsnr" v="112494" />
	</node>
	<node id="-750204" lat="69.1432472244" lon="17.4444138817">
		<tag k="name" v="Smihågen" />
		<tag k="natural" v="hill" />
		<tag k="place" v="locality" />
		<tag k="ssr:stedsnr" v="112482" />
	</node>
	<node id="-750203" lat="69.0801444452" lon="16.9831249877">
		<tag k="name" v="Åholla" />
		<tag k="natural" v="valley" />
		<tag k="place" v="locality" />
		<tag k="ssr:stedsnr" v="112614" />
	</node>
	<node id="-750202" lat="69.0615611077" lon="16.8425805462">
		<tag k="name" v="Haregjerdet" />
		<tag k="natural" v="slope" />
		<tag k="place" v="locality" />
		<tag k="ssr:stedsnr" v="111998" />
	</node>
	<node id="-750198" lat="69.2121444438" lon="17.8269166707">
		<tag k="name" v="Læstemyrhaugen" />
		<tag k="natural" v="hill" />
		<tag k="place" v="locality" />
		<tag k="ssr:stedsnr" v="109985" />
	</node>
	<node id="-750189" lat="69.1780861115" lon="17.5790416742">
		<tag k="fixme" v="consider natural=peak for the most distinct mountains in the district" />
		<tag k="name" v="Skatvikfjellet" />
		<tag k="natural" v="hill" />
		<tag k="place" v="locality" />
		<tag k="ssr:stedsnr" v="79437" />
	</node>
	<node id="-750172" lat="69.0644000029" lon="16.886322223">
		<tag k="fixme" v="consider natural=peak for the most distinct mountains in the district" />
		<tag k="name" v="Skredåsen" />
		<tag k="natural" v="hill" />
		<tag k="place" v="locality" />
		<tag k="ssr:stedsnr" v="79015" />
	</node>
	<node id="-750164" lat="69.1785861086" lon="17.4127861188">
		<tag k="fixme" v="consider natural=peak for the most distinct mountains in the district" />
		<tag k="name" v="Jordnesfjellet" />
		<tag k="natural" v="hill" />
		<tag k="place" v="locality" />
		<tag k="ssr:stedsnr" v="78247" />
	</node>
	<node id="-750162" lat="69.1167805528" lon="17.2114916524">
		<tag k="name" v="Bjørnlia" />
		<tag k="natural" v="slope" />
		<tag k="place" v="locality" />
		<tag k="ssr:stedsnr" v="78235" />
	</node>
	<node id="-750161" lat="69.2029388914" lon="17.3466222195">
		<tag k="name" v="Ånderdalen - Álddovuopmi" />
		<tag k="name:no" v="Ånderdalen" />
		<tag k="name:se" v="Álddovuopmi" />
		<tag k="natural" v="valley" />
		<tag k="old_name:se" v="Alduvuobmi" />
		<tag k="place" v="locality" />
		<tag k="ssr:stedsnr" v="78148" />
	</node>
	<node id="-750159" lat="69.0827833296" lon="17.0268555604">
		<tag k="name" v="Åheia" />
		<tag k="natural" v="hill" />
		<tag k="place" v="locality" />
		<tag k="ssr:stedsnr" v="78064" />
	</node>
	<node id="-750156" lat="69.1739305579" lon="17.7524638893">
		<tag k="name" v="Brattlia" />
		<tag k="natural" v="slope" />
		<tag k="place" v="locality" />
		<tag k="ssr:stedsnr" v="53708" />
	</node>
	<node id="-750155" lat="69.1828305531" lon="17.7237861065">
		<tag k="name" v="Bostadbakken" />
		<tag k="natural" v="slope" />
		<tag k="place" v="locality" />
		<tag k="ssr:stedsnr" v="53698" />
	</node>
	<node id="-750153" lat="69.2435305571" lon="17.646655543">
		<tag k="name" v="Geitberget" />
		<tag k="natural" v="hill" />
		<tag k="place" v="locality" />
		<tag k="ssr:stedsnr" v="53681" />
	</node>
	<node id="-750151" lat="69.2416666666" lon="17.6448083309">
		<tag k="name" v="Lamoen" />
		<tag k="place" v="locality" />
		<tag k="ssr:stedsnr" v="53678" />
	</node>
	<node id="-750150" lat="69.2544194458" lon="17.569958337">
		<tag k="name" v="Brentemoen" />
		<tag k="place" v="locality" />
		<tag k="ssr:stedsnr" v="53670" />
	</node>
	<node id="-750149" lat="69.2558027797" lon="17.5552861099">
		<tag k="name" v="Plasslia" />
		<tag k="natural" v="slope" />
		<tag k="place" v="locality" />
		<tag k="ssr:stedsnr" v="53669" />
	</node>
	<node id="-750138" lat="69.2264583301" lon="17.6303166606">
		<tag k="name" v="Lortholla" />
		<tag k="natural" v="valley" />
		<tag k="place" v="locality" />
		<tag k="ssr:stedsnr" v="52526" />
	</node>
	<node id="-750132" lat="69.1404999957" lon="17.0155166695">
		<tag k="name" v="Småseibergan" />
		<tag k="natural" v="hill" />
		<tag k="place" v="locality" />
		<tag k="ssr:stedsnr" v="52483" />
	</node>
	<node id="-749662" lat="69.1697277807" lon="17.8103444318">
		<tag k="fixme" v="consider natural=peak for the most distinct mountains in the district" />
		<tag k="name" v="Olderkollen" />
		<tag k="natural" v="hill" />
		<tag k="place" v="locality" />
		<tag k="ssr:stedsnr" v="294484" />
	</node>
	<node id="-750130" lat="69.1179611132" lon="16.9175194337">
		<tag k="name" v="Rævryggen" />
		<tag k="natural" v="ridge" />
		<tag k="place" v="locality" />
		<tag k="ssr:stedsnr" v="52472" />
	</node>
	<node id="-750129" lat="69.1135555571" lon="17.0255555643">
		<tag k="name" v="Storlia" />
		<tag k="natural" v="slope" />
		<tag k="place" v="locality" />
		<tag k="ssr:stedsnr" v="52471" />
	</node>
	<node id="-750127" lat="69.0747583343" lon="17.0390888767">
		<tag k="name" v="Nonhågen" />
		<tag k="natural" v="hill" />
		<tag k="place" v="locality" />
		<tag k="ssr:stedsnr" v="52456" />
	</node>
	<node id="-750125" lat="69.1665555531" lon="17.8099611029">
		<tag k="name" v="Storlia" />
		<tag k="natural" v="slope" />
		<tag k="place" v="locality" />
		<tag k="ssr:stedsnr" v="52444" />
	</node>
	<node id="-750124" lat="69.1688249971" lon="17.7522249898">
		<tag k="name" v="Lia" />
		<tag k="natural" v="slope" />
		<tag k="place" v="locality" />
		<tag k="ssr:stedsnr" v="52431" />
	</node>
	<node id="-750123" lat="69.1624638901" lon="17.8312666641">
		<tag k="name" v="Telgebakken" />
		<tag k="natural" v="slope" />
		<tag k="place" v="locality" />
		<tag k="ssr:stedsnr" v="52426" />
	</node>
	<node id="-750121" lat="69.1305222244" lon="17.1221777673">
		<tag k="fixme" v="consider natural=peak for the most distinct mountains in the district" />
		<tag k="name" v="Austerkantfjellet" />
		<tag k="natural" v="hill" />
		<tag k="place" v="locality" />
		<tag k="ssr:stedsnr" v="52277" />
	</node>
	<node id="-750118" lat="69.1423305562" lon="17.0722805427">
		<tag k="name" v="Orberget" />
		<tag k="natural" v="hill" />
		<tag k="place" v="locality" />
		<tag k="ssr:stedsnr" v="52240" />
	</node>
	<node id="-750117" lat="69.0613333325" lon="16.837844435">
		<tag k="fixme" v="consider natural=peak for the most distinct mountains in the district" />
		<tag k="name" v="Rakeltuva" />
		<tag k="natural" v="hill" />
		<tag k="place" v="locality" />
		<tag k="ssr:stedsnr" v="51960" />
	</node>
	<node id="-750114" lat="69.0663499996" lon="16.8157861">
		<tag k="name" v="Smibergan" />
		<tag k="natural" v="hill" />
		<tag k="place" v="locality" />
		<tag k="ssr:stedsnr" v="51943" />
	</node>
	<node id="-750112" lat="69.0700333305" lon="16.8695388806">
		<tag k="name" v="Stillvasshøgda" />
		<tag k="natural" v="hill" />
		<tag k="place" v="locality" />
		<tag k="ssr:stedsnr" v="51931" />
	</node>
	<node id="-750111" lat="69.0505361111" lon="17.038819433">
		<tag k="name" v="Kjerkesletta" />
		<tag k="place" v="locality" />
		<tag k="ssr:stedsnr" v="51928" />
	</node>
	<node id="-750106" lat="69.0644499958" lon="16.8951805492">
		<tag k="fixme" v="consider natural=peak for the most distinct mountains in the district" />
		<tag k="name" v="Marivassåsen" />
		<tag k="natural" v="hill" />
		<tag k="place" v="locality" />
		<tag k="ssr:stedsnr" v="51922" />
	</node>
	<node id="-750103" lat="69.1068222187" lon="16.7984583256">
		<tag k="name" v="Bukkholla" />
		<tag k="natural" v="valley" />
		<tag k="place" v="locality" />
		<tag k="ssr:stedsnr" v="51907" />
	</node>
	<node id="-750102" lat="69.0710638924" lon="16.7984111227">
		<tag k="fixme" v="consider natural=peak for the most distinct mountains in the district" />
		<tag k="name" v="Skjellnestuva" />
		<tag k="natural" v="hill" />
		<tag k="place" v="locality" />
		<tag k="ssr:stedsnr" v="51895" />
	</node>
	<node id="-749657" lat="69.0419972218" lon="17.1729972083">
		<tag k="fixme" v="consider natural=peak for the most distinct mountains in the district" />
		<tag k="name" v="Middagsholtet" />
		<tag k="natural" v="hill" />
		<tag k="place" v="locality" />
		<tag k="ssr:stedsnr" v="294685" />
	</node>
	<node id="-750098" lat="69.056327777" lon="16.7971277851">
		<tag k="name" v="Varden" />
		<tag k="natural" v="hill" />
		<tag k="place" v="locality" />
		<tag k="ssr:stedsnr" v="51815" />
	</node>
	<node id="-750097" lat="69.1897499984" lon="17.8153777705">
		<tag k="name" v="Sløkjesletta" />
		<tag k="place" v="locality" />
		<tag k="ssr:stedsnr" v="51722" />
	</node>
	<node id="-750096" lat="69.1852472192" lon="17.831652764">
		<tag k="name" v="Drakebergheia" />
		<tag k="natural" v="hill" />
		<tag k="place" v="locality" />
		<tag k="ssr:stedsnr" v="51719" />
	</node>
	<node id="-750095" lat="69.0808277752" lon="16.9720166607">
		<tag k="name" v="Blåhammaren" />
		<tag k="natural" v="hill" />
		<tag k="place" v="locality" />
		<tag k="ssr:stedsnr" v="51646" />
	</node>
	<node id="-750094" lat="69.2055138857" lon="17.5452638825">
		<tag k="name" v="Moen" />
		<tag k="place" v="locality" />
		<tag k="ssr:stedsnr" v="51633" />
	</node>
	<node id="-750092" lat="69.1099666674" lon="16.8867277681">
		<tag k="name" v="Rishågen" />
		<tag k="natural" v="hill" />
		<tag k="place" v="locality" />
		<tag k="ssr:stedsnr" v="51612" />
	</node>
	<node id="-750087" lat="69.147916665" lon="17.4321916605">
		<tag k="name" v="Kjerringberget" />
		<tag k="natural" v="hill" />
		<tag k="place" v="locality" />
		<tag k="ssr:stedsnr" v="51509" />
	</node>
	<node id="-750084" lat="69.1326277792" lon="17.323586105">
		<tag k="name" v="Lakseberget" />
		<tag k="natural" v="hill" />
		<tag k="place" v="locality" />
		<tag k="ssr:stedsnr" v="51433" />
	</node>
	<node id="-750083" lat="69.2025333353" lon="17.8217750103">
		<tag k="name" v="Tyttebærhaugan" />
		<tag k="natural" v="hill" />
		<tag k="place" v="locality" />
		<tag k="ssr:stedsnr" v="48983" />
	</node>
	<node id="-750081" lat="69.2259527779" lon="17.7094638883">
		<tag k="name" v="Austerelvbakken" />
		<tag k="natural" v="slope" />
		<tag k="place" v="locality" />
		<tag k="ssr:stedsnr" v="47591" />
	</node>
	<node id="-750080" lat="69.2277444462" lon="17.7018055615">
		<tag k="name" v="Brattbakken" />
		<tag k="natural" v="slope" />
		<tag k="place" v="locality" />
		<tag k="ssr:stedsnr" v="47592" />
	</node>
	<node id="-750079" lat="69.2033138869" lon="17.7009361041">
		<tag k="name" v="Kjerringholla" />
		<tag k="natural" v="valley" />
		<tag k="place" v="locality" />
		<tag k="ssr:stedsnr" v="47550" />
	</node>
	<node id="-749653" lat="69.2036944481" lon="17.5931388975">
		<tag k="name" v="Litjehammaren" />
		<tag k="natural" v="hill" />
		<tag k="place" v="locality" />
		<tag k="ssr:stedsnr" v="294609" />
	</node>
	<node id="-750075" lat="69.016002777" lon="17.1366305616">
		<tag k="name" v="Elvesletta" />
		<tag k="place" v="locality" />
		<tag k="ssr:stedsnr" v="29324" />
	</node>
	<node id="-749652" lat="69.2089222198" lon="17.6077583282">
		<tag k="name" v="Mølnemoen" />
		<tag k="place" v="locality" />
		<tag k="ssr:stedsnr" v="294604" />
	</node>
	<node id="-750060" lat="69.1366638859" lon="17.1124277766">
		<tag k="name" v="Durmålsdalen" />
		<tag k="natural" v="valley" />
		<tag k="place" v="locality" />
		<tag k="ssr:stedsnr" v="18170" />
	</node>
	<node id="-749649" lat="69.1033972216" lon="17.0803138936">
		<tag k="name" v="Vassmoan" />
		<tag k="place" v="locality" />
		<tag k="ssr:stedsnr" v="294292" />
	</node>
	<node id="-750051" lat="69.0815111136" lon="16.9268083216">
		<tag k="fixme" v="multiple name tags, choose one and add the other to alt_name; consider natural=peak for the most distinct mountains in the district" />
		<tag k="name" v="Hesteskartuva;Lonketuva" />
		<tag k="natural" v="hill" />
		<tag k="place" v="locality" />
		<tag k="ssr:stedsnr" v="18059" />
	</node>
	<node id="-750048" lat="69.0930388879" lon="16.9842555511">
		<tag k="name" v="Øverdalen" />
		<tag k="natural" v="valley" />
		<tag k="place" v="locality" />
		<tag k="ssr:stedsnr" v="18048" />
	</node>
	<node id="-750046" lat="69.0847361069" lon="16.8391861073">
		<tag k="fixme" v="consider natural=peak for the most distinct mountains in the district" />
		<tag k="name" v="Lyshorntinden" />
		<tag k="natural" v="hill" />
		<tag k="place" v="locality" />
		<tag k="ssr:stedsnr" v="18039" />
	</node>
	<node id="-750045" lat="69.0600333376" lon="17.1487944507">
		<tag k="alt_name" v="Leirpollfjellet" />
		<tag k="fixme" v="consider natural=peak for the most distinct mountains in the district" />
		<tag k="name" v="Leirfjellet" />
		<tag k="natural" v="hill" />
		<tag k="place" v="locality" />
		<tag k="ssr:stedsnr" v="18028" />
	</node>
	<node id="-749647" lat="69.1531694404" lon="17.0622833331">
		<tag k="name" v="St.Hanshågen" />
		<tag k="natural" v="hill" />
		<tag k="place" v="locality" />
		<tag k="ssr:stedsnr" v="294259" />
	</node>
	<node id="-749644" lat="69.1327361129" lon="17.2746916697">
		<tag k="name" v="Lahågen" />
		<tag k="natural" v="hill" />
		<tag k="place" v="locality" />
		<tag k="ssr:stedsnr" v="294409" />
	</node>
	<node id="-749641" lat="69.1718138898" lon="17.7834722123">
		<tag k="name" v="Tortenlia" />
		<tag k="natural" v="slope" />
		<tag k="place" v="locality" />
		<tag k="ssr:stedsnr" v="291555" />
	</node>
	<node id="-749640" lat="69.2099861092" lon="17.8081250016">
		<tag k="name" v="Skavlia" />
		<tag k="natural" v="slope" />
		<tag k="place" v="locality" />
		<tag k="ssr:stedsnr" v="290966" />
	</node>
	<node id="-749982" lat="69.201663885" lon="17.7729916653">
		<tag k="name" v="Skaret" />
		<tag k="natural" v="valley" />
		<tag k="place" v="locality" />
		<tag k="ssr:stedsnr" v="898953" />
	</node>
	<node id="-749981" lat="69.2111388922" lon="17.779875001">
		<tag k="name" v="Tømmermoen" />
		<tag k="place" v="locality" />
		<tag k="ssr:stedsnr" v="897949" />
	</node>
	<node id="-749980" lat="69.2061305548" lon="17.7128916546">
		<tag k="name" v="Tortenlia" />
		<tag k="natural" v="slope" />
		<tag k="place" v="locality" />
		<tag k="ssr:stedsnr" v="897573" />
	</node>
	<node id="-749977" lat="69.2439638877" lon="17.6744666539">
		<tag k="name" v="Djupholmmoen" />
		<tag k="place" v="locality" />
		<tag k="ssr:stedsnr" v="477702" />
	</node>
	<node id="-749975" lat="69.2477444408" lon="17.6044472183">
		<tag k="name" v="Frøskeverslet" />
		<tag k="natural" v="slope" />
		<tag k="place" v="locality" />
		<tag k="ssr:stedsnr" v="477686" />
	</node>
	<node id="-749974" lat="69.2593333365" lon="17.5622361154">
		<tag k="name" v="Storbergan" />
		<tag k="natural" v="hill" />
		<tag k="place" v="locality" />
		<tag k="ssr:stedsnr" v="477675" />
	</node>
	<node id="-749973" lat="69.2496027769" lon="17.5618972236">
		<tag k="name" v="Plassfosstangen" />
		<tag k="natural" v="valley" />
		<tag k="place" v="locality" />
		<tag k="ssr:stedsnr" v="477673" />
	</node>
	<node id="-749972" lat="69.2701305595" lon="17.6167888766">
		<tag k="name" v="Nordhågen" />
		<tag k="natural" v="hill" />
		<tag k="place" v="locality" />
		<tag k="ssr:stedsnr" v="477652" />
	</node>
	<node id="-749970" lat="69.2662805522" lon="17.6137638942">
		<tag k="name" v="Høgbakken" />
		<tag k="natural" v="slope" />
		<tag k="place" v="locality" />
		<tag k="ssr:stedsnr" v="477629" />
	</node>
	<node id="-749967" lat="69.1508111102" lon="17.6458388835">
		<tag k="name" v="Renna" />
		<tag k="natural" v="valley" />
		<tag k="place" v="locality" />
		<tag k="ssr:stedsnr" v="476999" />
	</node>
	<node id="-749965" lat="69.1644416661" lon="17.5894277682">
		<tag k="name" v="Teinebakken" />
		<tag k="natural" v="slope" />
		<tag k="place" v="locality" />
		<tag k="ssr:stedsnr" v="476984" />
	</node>
	<node id="-749964" lat="69.0609916655" lon="16.8243472331">
		<tag k="fixme" v="consider natural=peak for the most distinct mountains in the district" />
		<tag k="name" v="Vassfjellet" />
		<tag k="natural" v="hill" />
		<tag k="place" v="locality" />
		<tag k="ssr:stedsnr" v="476966" />
	</node>
	<node id="-749963" lat="69.0662000012" lon="16.8356444503">
		<tag k="name" v="Ørnflåget" />
		<tag k="natural" v="hill" />
		<tag k="place" v="locality" />
		<tag k="ssr:stedsnr" v="476946" />
	</node>
	<node id="-749961" lat="69.1095083364" lon="16.7999361108">
		<tag k="name" v="Flaberget" />
		<tag k="natural" v="hill" />
		<tag k="place" v="locality" />
		<tag k="ssr:stedsnr" v="476897" />
	</node>
	<node id="-749960" lat="69.0759249997" lon="16.8088750035">
		<tag k="name" v="Ladalen" />
		<tag k="natural" v="valley" />
		<tag k="place" v="locality" />
		<tag k="ssr:stedsnr" v="476884" />
	</node>
	<node id="-749959" lat="69.229280559" lon="17.4828361153">
		<tag k="fixme" v="consider natural=peak for the most distinct mountains in the district" />
		<tag k="name" v="Røyrmofjellet" />
		<tag k="natural" v="hill" />
		<tag k="place" v="locality" />
		<tag k="ssr:stedsnr" v="476877" />
	</node>
	<node id="-749955" lat="69.1550666628" lon="17.5123388963">
		<tag k="name" v="Hamnebakken" />
		<tag k="natural" v="slope" />
		<tag k="place" v="locality" />
		<tag k="ssr:stedsnr" v="476847" />
	</node>
	<node id="-749954" lat="69.1707805534" lon="17.7658638962">
		<tag k="fixme" v="consider natural=peak for the most distinct mountains in the district" />
		<tag k="name" v="Åsen" />
		<tag k="natural" v="hill" />
		<tag k="place" v="locality" />
		<tag k="ssr:stedsnr" v="476758" />
	</node>
	<node id="-749944" lat="69.0334861142" lon="17.2014944559">
		<tag k="name" v="Finnkonholtet" />
		<tag k="natural" v="hill" />
		<tag k="place" v="locality" />
		<tag k="ssr:stedsnr" v="476684" />
	</node>
	<node id="-749942" lat="69.0773194478" lon="16.976066654">
		<tag k="name" v="Daumannen" />
		<tag k="natural" v="hill" />
		<tag k="place" v="locality" />
		<tag k="ssr:stedsnr" v="476630" />
	</node>
	<node id="-749941" lat="69.0808972198" lon="17.0192222206">
		<tag k="fixme" v="consider natural=peak for the most distinct mountains in the district" />
		<tag k="name" v="Himmelbergan" />
		<tag k="natural" v="hill" />
		<tag k="place" v="locality" />
		<tag k="ssr:stedsnr" v="476601" />
	</node>
	<node id="-749939" lat="69.2089388886" lon="17.6379499891">
		<tag k="name" v="Langebakken" />
		<tag k="natural" v="slope" />
		<tag k="place" v="locality" />
		<tag k="ssr:stedsnr" v="476581" />
	</node>
	<node id="-749938" lat="69.0926944414" lon="17.0094833429">
		<tag k="name" v="Karelsletta" />
		<tag k="place" v="locality" />
		<tag k="ssr:stedsnr" v="476579" />
	</node>
	<node id="-749936" lat="69.2073638897" lon="17.5597527643">
		<tag k="name" v="Kråa" />
		<tag k="natural" v="slope" />
		<tag k="place" v="locality" />
		<tag k="ssr:stedsnr" v="476563" />
	</node>
	<node id="-749933" lat="69.0899444439" lon="16.9586444389">
		<tag k="name" v="Nordheia" />
		<tag k="natural" v="hill" />
		<tag k="place" v="locality" />
		<tag k="ssr:stedsnr" v="476548" />
	</node>
	<node id="-749929" lat="69.2282555519" lon="17.594577771">
		<tag k="name" v="Kolmilbakken" />
		<tag k="natural" v="slope" />
		<tag k="place" v="locality" />
		<tag k="ssr:stedsnr" v="476533" />
	</node>
	<node id="-749926" lat="69.1583527805" lon="17.593166667">
		<tag k="name" v="Naustnesbergan" />
		<tag k="natural" v="hill" />
		<tag k="place" v="locality" />
		<tag k="ssr:stedsnr" v="476496" />
	</node>
	<node id="-749924" lat="69.1630777781" lon="17.6054777829">
		<tag k="name" v="Rishågen" />
		<tag k="natural" v="hill" />
		<tag k="place" v="locality" />
		<tag k="ssr:stedsnr" v="476487" />
	</node>
	<node id="-749922" lat="69.1678666634" lon="17.766124986">
		<tag k="name" v="Brennlia" />
		<tag k="natural" v="slope" />
		<tag k="place" v="locality" />
		<tag k="ssr:stedsnr" v="476476" />
	</node>
	<node id="-749921" lat="69.1287166695" lon="17.3235472185">
		<tag k="name" v="Karilia" />
		<tag k="natural" v="slope" />
		<tag k="place" v="locality" />
		<tag k="ssr:stedsnr" v="476474" />
	</node>
	<node id="-749919" lat="69.1727916712" lon="17.8199722209">
		<tag k="fixme" v="consider natural=peak for the most distinct mountains in the district" />
		<tag k="name" v="Sommarmarkkollen" />
		<tag k="natural" v="hill" />
		<tag k="place" v="locality" />
		<tag k="ssr:stedsnr" v="476465" />
	</node>
	<node id="-749918" lat="69.1710944485" lon="17.8288555541">
		<tag k="name" v="Nipan" />
		<tag k="natural" v="slope" />
		<tag k="place" v="locality" />
		<tag k="ssr:stedsnr" v="476459" />
	</node>
	<node id="-749916" lat="69.146019444" lon="17.3740750071">
		<tag k="name" v="Rødberget" />
		<tag k="natural" v="hill" />
		<tag k="place" v="locality" />
		<tag k="ssr:stedsnr" v="476444" />
	</node>
	<node id="-749915" lat="69.0297138904" lon="17.2183749989">
		<tag k="name" v="Sommarfjøsholtet" />
		<tag k="natural" v="hill" />
		<tag k="place" v="locality" />
		<tag k="ssr:stedsnr" v="476399" />
	</node>
	<node id="-749914" lat="69.1440249988" lon="17.320216652">
		<tag k="name" v="Lamarka" />
		<tag k="natural" v="slope" />
		<tag k="place" v="locality" />
		<tag k="ssr:stedsnr" v="476381" />
	</node>
	<node id="-749912" lat="69.1265194481" lon="17.0483444393">
		<tag k="name" v="Tverrbotn" />
		<tag k="natural" v="valley" />
		<tag k="place" v="locality" />
		<tag k="ssr:stedsnr" v="476339" />
	</node>
	<node id="-749911" lat="69.1226694441" lon="17.1193027778">
		<tag k="fixme" v="consider natural=peak for the most distinct mountains in the district" />
		<tag k="name" v="Flatfjellan" />
		<tag k="natural" v="hill" />
		<tag k="place" v="locality" />
		<tag k="ssr:stedsnr" v="476312" />
	</node>
	<node id="-749910" lat="69.0842055595" lon="17.1191222219">
		<tag k="name" v="Skreddalen" />
		<tag k="natural" v="valley" />
		<tag k="place" v="locality" />
		<tag k="ssr:stedsnr" v="476293" />
	</node>
	<node id="-749909" lat="69.0801027819" lon="17.0967805597">
		<tag k="name" v="Veltarberget" />
		<tag k="natural" v="hill" />
		<tag k="place" v="locality" />
		<tag k="ssr:stedsnr" v="476291" />
	</node>
	<node id="-749908" lat="69.0544222199" lon="16.8161777668">
		<tag k="name" v="Orrebakken" />
		<tag k="natural" v="slope" />
		<tag k="place" v="locality" />
		<tag k="ssr:stedsnr" v="475997" />
	</node>
	<node id="-749907" lat="69.2146805593" lon="17.7940638927">
		<tag k="fixme" v="consider natural=peak for the most distinct mountains in the district" />
		<tag k="name" v="Storholtet" />
		<tag k="natural" v="hill" />
		<tag k="place" v="locality" />
		<tag k="ssr:stedsnr" v="412951" />
	</node>
	<node id="-749906" lat="69.2096833341" lon="17.7255222091">
		<tag k="name" v="Rundhaugen" />
		<tag k="natural" v="hill" />
		<tag k="place" v="locality" />
		<tag k="ssr:stedsnr" v="412500" />
	</node>
	<node id="-749905" lat="69.200002775" lon="17.7033833243">
		<tag k="name" v="Jordbakkan" />
		<tag k="natural" v="slope" />
		<tag k="place" v="locality" />
		<tag k="ssr:stedsnr" v="412499" />
	</node>
	<node id="-749703" lat="69.0546444451" lon="16.7916472226">
		<tag k="name" v="Storhågen" />
		<tag k="natural" v="hill" />
		<tag k="place" v="locality" />
		<tag k="ssr:stedsnr" v="294963" />
	</node>
	<node id="-749893" lat="69.3220388925" lon="17.5857111124">
		<tag k="name" v="Helledalen - Heallovággi" />
		<tag k="name:no" v="Helledalen" />
		<tag k="name:se" v="Heallovággi" />
		<tag k="natural" v="valley" />
		<tag k="old_name:se" v="Hælluvaggi" />
		<tag k="place" v="locality" />
		<tag k="ssr:stedsnr" v="382567" />
	</node>
	<node id="-749885" lat="69.1564499987" lon="17.5113111013">
		<tag k="name" v="Liksandberget" />
		<tag k="natural" v="hill" />
		<tag k="place" v="locality" />
		<tag k="ssr:stedsnr" v="382450" />
	</node>
	<node id="-749879" lat="69.2837722229" lon="17.2990999861">
		<tag k="fixme" v="consider natural=peak for the most distinct mountains in the district" />
		<tag k="name" v="Kaperfjellet" />
		<tag k="natural" v="hill" />
		<tag k="place" v="locality" />
		<tag k="ssr:stedsnr" v="382371" />
	</node>
	<node id="-749877" lat="69.2080055539" lon="17.5651861085">
		<tag k="name" v="Lahaugan" />
		<tag k="natural" v="hill" />
		<tag k="place" v="locality" />
		<tag k="ssr:stedsnr" v="382366" />
	</node>
	<node id="-749873" lat="69.0485916695" lon="17.138072228">
		<tag k="alt_name" v="Flatholtan" />
		<tag k="name" v="Flatholtet" />
		<tag k="natural" v="hill" />
		<tag k="place" v="locality" />
		<tag k="ssr:stedsnr" v="382115" />
	</node>
	<node id="-749857" lat="69.1073472237" lon="17.2325055562">
		<tag k="fixme" v="consider natural=peak for the most distinct mountains in the district" />
		<tag k="name" v="Sørfjellet" />
		<tag k="natural" v="hill" />
		<tag k="place" v="locality" />
		<tag k="ssr:stedsnr" v="381247" />
	</node>
	<node id="-749848" lat="69.0275000001" lon="17.099999998">
		<tag k="fixme" v="consider natural=peak for the most distinct mountains in the district" />
		<tag k="name" v="Nattmålstuva" />
		<tag k="natural" v="hill" />
		<tag k="place" v="locality" />
		<tag k="ssr:stedsnr" v="381083" />
	</node>
	<node id="-749845" lat="69.1772333325" lon="17.7613083341">
		<tag k="name" v="Dordiholla" />
		<tag k="natural" v="valley" />
		<tag k="place" v="locality" />
		<tag k="ssr:stedsnr" v="356698" />
	</node>
	<node id="-749843" lat="69.1745972261" lon="17.7234389003">
		<tag k="name" v="Steinskredholla" />
		<tag k="natural" v="valley" />
		<tag k="place" v="locality" />
		<tag k="ssr:stedsnr" v="356679" />
	</node>
	<node id="-749841" lat="69.2410333305" lon="17.6233250031">
		<tag k="name" v="Fiskemannsbergan" />
		<tag k="natural" v="hill" />
		<tag k="place" v="locality" />
		<tag k="ssr:stedsnr" v="356661" />
	</node>
	<node id="-749840" lat="69.2399805585" lon="17.6329638794">
		<tag k="name" v="Skjeftemoholtet" />
		<tag k="natural" v="hill" />
		<tag k="place" v="locality" />
		<tag k="ssr:stedsnr" v="356656" />
	</node>
	<node id="-749838" lat="69.2413694412" lon="17.5802305402">
		<tag k="name" v="Vollhøgda" />
		<tag k="natural" v="hill" />
		<tag k="place" v="locality" />
		<tag k="ssr:stedsnr" v="356643" />
	</node>
	<node id="-749835" lat="69.2703611123" lon="17.6050611091">
		<tag k="name" v="Langholtet" />
		<tag k="natural" v="hill" />
		<tag k="place" v="locality" />
		<tag k="ssr:stedsnr" v="356620" />
	</node>
	<node id="-749834" lat="69.2758694451" lon="17.6076222076">
		<tag k="name" v="Blåberget" />
		<tag k="natural" v="hill" />
		<tag k="place" v="locality" />
		<tag k="ssr:stedsnr" v="356619" />
	</node>
	<node id="-749832" lat="69.0509250018" lon="17.0438444556">
		<tag k="name" v="Revmoan" />
		<tag k="place" v="locality" />
		<tag k="ssr:stedsnr" v="355684" />
	</node>
	<node id="-749830" lat="69.035258335" lon="17.1645361039">
		<tag k="fixme" v="consider natural=peak for the most distinct mountains in the district" />
		<tag k="name" v="Grøtskarholtan" />
		<tag k="natural" v="hill" />
		<tag k="place" v="locality" />
		<tag k="ssr:stedsnr" v="355665" />
	</node>
	<node id="-749829" lat="69.0346000019" lon="17.1873472127">
		<tag k="fixme" v="consider natural=peak for the most distinct mountains in the district" />
		<tag k="name" v="Sandbakkholtet" />
		<tag k="natural" v="hill" />
		<tag k="place" v="locality" />
		<tag k="ssr:stedsnr" v="355661" />
	</node>
	<node id="-749827" lat="69.0406277789" lon="17.1860444384">
		<tag k="name" v="Kjosholtet" />
		<tag k="natural" v="hill" />
		<tag k="place" v="locality" />
		<tag k="ssr:stedsnr" v="355619" />
	</node>
	<node id="-749823" lat="69.093905556" lon="17.0240916612">
		<tag k="name" v="Ryphågen" />
		<tag k="natural" v="hill" />
		<tag k="place" v="locality" />
		<tag k="ssr:stedsnr" v="355556" />
	</node>
	<node id="-749822" lat="69.0084000003" lon="17.0800333279">
		<tag k="name" v="Jobbonhågen" />
		<tag k="natural" v="hill" />
		<tag k="place" v="locality" />
		<tag k="ssr:stedsnr" v="355531" />
	</node>
	<node id="-749821" lat="69.0135055523" lon="17.0947833209">
		<tag k="name" v="Mikkjelmoen" />
		<tag k="place" v="locality" />
		<tag k="ssr:stedsnr" v="355528" />
	</node>
	<node id="-749818" lat="69.0203916705" lon="17.1256138914">
		<tag k="fixme" v="consider natural=peak for the most distinct mountains in the district" />
		<tag k="name" v="Basstuholtan" />
		<tag k="natural" v="hill" />
		<tag k="place" v="locality" />
		<tag k="ssr:stedsnr" v="355520" />
	</node>
	<node id="-749817" lat="69.2342416653" lon="17.578547223">
		<tag k="name" v="Langevassflaten" />
		<tag k="place" v="locality" />
		<tag k="ssr:stedsnr" v="355508" />
	</node>
	<node id="-749813" lat="69.0758861149" lon="17.0311361197">
		<tag k="fixme" v="consider natural=peak for the most distinct mountains in the district" />
		<tag k="name" v="Steinåsen" />
		<tag k="natural" v="hill" />
		<tag k="place" v="locality" />
		<tag k="ssr:stedsnr" v="355462" />
	</node>
	<node id="-749810" lat="69.1012527778" lon="17.0913944392">
		<tag k="fixme" v="consider natural=peak for the most distinct mountains in the district" />
		<tag k="name" v="Trollvasshøgda" />
		<tag k="natural" v="hill" />
		<tag k="place" v="locality" />
		<tag k="ssr:stedsnr" v="355293" />
	</node>
	<node id="-749807" lat="69.1832722211" lon="17.690027775">
		<tag k="fixme" v="consider natural=peak for the most distinct mountains in the district" />
		<tag k="name" v="Krokelvåsen" />
		<tag k="natural" v="hill" />
		<tag k="place" v="locality" />
		<tag k="ssr:stedsnr" v="354989" />
	</node>
	<node id="-749803" lat="69.0648388876" lon="16.8195250024">
		<tag k="name" v="Hamnhågen" />
		<tag k="natural" v="hill" />
		<tag k="place" v="locality" />
		<tag k="ssr:stedsnr" v="354939" />
	</node>
	<node id="-749802" lat="69.1226666651" lon="16.8146277727">
		<tag k="name" v="Flaberget" />
		<tag k="natural" v="hill" />
		<tag k="place" v="locality" />
		<tag k="ssr:stedsnr" v="354931" />
	</node>
	<node id="-749800" lat="69.0613027785" lon="16.8835944411">
		<tag k="name" v="Høyholldalshågen" />
		<tag k="natural" v="hill" />
		<tag k="place" v="locality" />
		<tag k="ssr:stedsnr" v="354912" />
	</node>
	<node id="-749796" lat="69.2243972225" lon="17.4742888891">
		<tag k="name" v="Røyrmoen" />
		<tag k="place" v="locality" />
		<tag k="ssr:stedsnr" v="354883" />
	</node>
	<node id="-749794" lat="69.1641277819" lon="17.6981027682">
		<tag k="name" v="Pryddalen" />
		<tag k="natural" v="valley" />
		<tag k="place" v="locality" />
		<tag k="ssr:stedsnr" v="354723" />
	</node>
	<node id="-749789" lat="69.218816668" lon="17.5944861046">
		<tag k="name" v="Tverrholtan" />
		<tag k="natural" v="hill" />
		<tag k="place" v="locality" />
		<tag k="ssr:stedsnr" v="354563" />
	</node>
	<node id="-749787" lat="69.1669888899" lon="17.6554416763">
		<tag k="name" v="Flaten" />
		<tag k="place" v="locality" />
		<tag k="ssr:stedsnr" v="354539" />
	</node>
	<node id="-749783" lat="69.1268027788" lon="17.3264638974">
		<tag k="name" v="Knutberget" />
		<tag k="natural" v="hill" />
		<tag k="place" v="locality" />
		<tag k="ssr:stedsnr" v="354496" />
	</node>
	<node id="-749781" lat="69.1191527747" lon="17.2859555529">
		<tag k="name" v="Bjørnholtet" />
		<tag k="natural" v="hill" />
		<tag k="place" v="locality" />
		<tag k="ssr:stedsnr" v="354485" />
	</node>
	<node id="-749780" lat="69.1449277771" lon="17.4245805542">
		<tag k="name" v="Kongshågen" />
		<tag k="natural" v="hill" />
		<tag k="place" v="locality" />
		<tag k="ssr:stedsnr" v="354476" />
	</node>
	<node id="-749776" lat="69.1524666676" lon="17.3157472307">
		<tag k="fixme" v="consider natural=peak for the most distinct mountains in the district" />
		<tag k="name" v="Vardfjellet" />
		<tag k="natural" v="hill" />
		<tag k="place" v="locality" />
		<tag k="ssr:stedsnr" v="354401" />
	</node>
	<node id="-749771" lat="69.206483335" lon="17.7437694308">
		<tag k="name" v="Matteslia" />
		<tag k="natural" v="slope" />
		<tag k="place" v="locality" />
		<tag k="ssr:stedsnr" v="351496" />
	</node>
	<node id="-749762" lat="69.2847166632" lon="17.5808777768">
		<tag k="fixme" v="consider natural=peak for the most distinct mountains in the district" />
		<tag k="name" v="Sørlifjellet - Njeaiva" />
		<tag k="name:no" v="Sørlifjellet" />
		<tag k="name:se" v="Njeaiva" />
		<tag k="natural" v="hill" />
		<tag k="old_name:se" v="Njæiva" />
		<tag k="place" v="locality" />
		<tag k="ssr:stedsnr" v="322619" />
	</node>
	<node id="-749760" lat="69.2052666649" lon="17.7331111185">
		<tag k="name" v="Vassenglia" />
		<tag k="natural" v="slope" />
		<tag k="place" v="locality" />
		<tag k="ssr:stedsnr" v="322485" />
	</node>
	<node id="-749755" lat="69.2150888933" lon="17.7207916681">
		<tag k="fixme" v="consider natural=peak for the most distinct mountains in the district" />
		<tag k="name" v="Gamleveten" />
		<tag k="natural" v="hill" />
		<tag k="place" v="locality" />
		<tag k="ssr:stedsnr" v="322398" />
	</node>
	<node id="-749754" lat="69.2063277768" lon="17.461955541">
		<tag k="fixme" v="consider natural=peak for the most distinct mountains in the district" />
		<tag k="name" v="Storjordfjellet" />
		<tag k="natural" v="hill" />
		<tag k="place" v="locality" />
		<tag k="ssr:stedsnr" v="322374" />
	</node>
	<node id="-749747" lat="69.1388666667" lon="17.014058325">
		<tag k="name" v="Loftan" />
		<tag k="natural" v="hill" />
		<tag k="place" v="locality" />
		<tag k="ssr:stedsnr" v="321229" />
	</node>
	<node id="-749746" lat="69.1498055527" lon="17.1473000074">
		<tag k="fixme" v="consider natural=peak for the most distinct mountains in the district" />
		<tag k="name" v="Bunkeskjolet" />
		<tag k="natural" v="hill" />
		<tag k="place" v="locality" />
		<tag k="ssr:stedsnr" v="321228" />
	</node>
	<node id="-749742" lat="69.1161888919" lon="17.2664666759">
		<tag k="fixme" v="consider natural=peak for the most distinct mountains in the district" />
		<tag k="name" v="Vassåsen" />
		<tag k="natural" v="hill" />
		<tag k="place" v="locality" />
		<tag k="ssr:stedsnr" v="321194" />
	</node>
	<node id="-749738" lat="69.1390861093" lon="17.237552781">
		<tag k="fixme" v="consider natural=peak for the most distinct mountains in the district" />
		<tag k="name" v="Blåfjellkollen" />
		<tag k="natural" v="hill" />
		<tag k="place" v="locality" />
		<tag k="ssr:stedsnr" v="321180" />
	</node>
	<node id="-749737" lat="69.2321305604" lon="17.3816222122">
		<tag k="name" v="Trolldalen" />
		<tag k="natural" v="valley" />
		<tag k="place" v="locality" />
		<tag k="ssr:stedsnr" v="321164" />
	</node>
	<node id="-749736" lat="69.1860638905" lon="17.3324638867">
		<tag k="name" v="Holmedalen - Gárdevuopmi" />
		<tag k="name:no" v="Holmedalen" />
		<tag k="name:se" v="Gárdevuopmi" />
		<tag k="natural" v="valley" />
		<tag k="old_name:se" v="Gardevuobmi" />
		<tag k="place" v="locality" />
		<tag k="ssr:stedsnr" v="321141" />
	</node>
	<node id="-749731" lat="69.0322055514" lon="17.1114499955">
		<tag k="fixme" v="consider natural=peak for the most distinct mountains in the district" />
		<tag k="name" v="Stangnesfjellet" />
		<tag k="natural" v="hill" />
		<tag k="place" v="locality" />
		<tag k="ssr:stedsnr" v="321055" />
	</node>
	<node id="-749724" lat="69.1721555538" lon="17.7573111192">
		<tag k="name" v="Porkholla" />
		<tag k="natural" v="valley" />
		<tag k="place" v="locality" />
		<tag k="ssr:stedsnr" v="295747" />
	</node>
	<node id="-749721" lat="69.2519333376" lon="17.5681444466">
		<tag k="name" v="Hestholla" />
		<tag k="natural" v="valley" />
		<tag k="place" v="locality" />
		<tag k="ssr:stedsnr" v="295655" />
	</node>
	<node id="-749720" lat="69.260630553" lon="17.6312166587">
		<tag k="name" v="Revbergan" />
		<tag k="natural" v="hill" />
		<tag k="place" v="locality" />
		<tag k="ssr:stedsnr" v="295642" />
	</node>
	<node id="-749719" lat="69.265994444" lon="17.6489888775">
		<tag k="name" v="Stakkemyrbakken" />
		<tag k="natural" v="slope" />
		<tag k="place" v="locality" />
		<tag k="ssr:stedsnr" v="295641" />
	</node>
	<node id="-749715" lat="69.206022221" lon="17.6513610962">
		<tag k="name" v="Snebakken" />
		<tag k="natural" v="slope" />
		<tag k="place" v="locality" />
		<tag k="ssr:stedsnr" v="295606" />
	</node>
	<node id="-749714" lat="69.0999055547" lon="17.0027833299">
		<tag k="name" v="Steinskarteigen" />
		<tag k="natural" v="slope" />
		<tag k="place" v="locality" />
		<tag k="ssr:stedsnr" v="295603" />
	</node>
	<node id="-749713" lat="69.0805472229" lon="16.9940333283">
		<tag k="name" v="Langhågen" />
		<tag k="natural" v="hill" />
		<tag k="place" v="locality" />
		<tag k="ssr:stedsnr" v="295596" />
	</node>
	<node id="-749711" lat="69.205783334" lon="17.5561555585">
		<tag k="name" v="Nedre Lahaug" />
		<tag k="natural" v="hill" />
		<tag k="place" v="locality" />
		<tag k="ssr:stedsnr" v="295588" />
	</node>
	<node id="-749710" lat="69.2219222207" lon="17.6634111144">
		<tag k="name" v="Røstan" />
		<tag k="place" v="locality" />
		<tag k="ssr:stedsnr" v="295580" />
	</node>
	<node id="-751753" lat="69.1301277807" lon="17.0078944342">
		<tag k="fixme" v="consider natural=peak for the most distinct mountains in the district" />
		<tag k="name" v="Fiskenestindane" />
		<tag k="natural" v="hill" />
		<tag k="place" v="locality" />
		<tag k="ssr:stedsnr" v="964617" />
	</node>
	<node id="-751751" lat="69.2591888905" lon="17.647499999">
		<tag k="name" v="Steinhaugen" />
		<tag k="natural" v="hill" />
		<tag k="place" v="locality" />
		<tag k="ssr:stedsnr" v="963696" />
	</node>
	<node id="-751750" lat="69.2500000023" lon="17.5834305473">
		<tag k="name" v="Mellavollen" />
		<tag k="place" v="locality" />
		<tag k="ssr:stedsnr" v="963676" />
	</node>
	<node id="-751749" lat="69.2677861127" lon="17.5865638872">
		<tag k="name" v="Grønnslåka" />
		<tag k="natural" v="slope" />
		<tag k="place" v="locality" />
		<tag k="ssr:stedsnr" v="963670" />
	</node>
	<node id="-751747" lat="69.1956916702" lon="17.6717166738">
		<tag k="name" v="Verselhågen" />
		<tag k="natural" v="hill" />
		<tag k="place" v="locality" />
		<tag k="ssr:stedsnr" v="963653" />
	</node>
	<node id="-751746" lat="69.1734055564" lon="17.7532305558">
		<tag k="name" v="Staet" />
		<tag k="natural" v="slope" />
		<tag k="place" v="locality" />
		<tag k="ssr:stedsnr" v="962732" />
	</node>
	<node id="-751745" lat="69.0571555555" lon="17.0956166616">
		<tag k="name" v="Holtet" />
		<tag k="natural" v="hill" />
		<tag k="place" v="locality" />
		<tag k="ssr:stedsnr" v="962699" />
	</node>
	<node id="-751743" lat="69.0294055596" lon="17.1815944554">
		<tag k="name" v="Kjørarveiholtet" />
		<tag k="natural" v="hill" />
		<tag k="place" v="locality" />
		<tag k="ssr:stedsnr" v="962674" />
	</node>
	<node id="-751742" lat="69.0393249991" lon="17.1708027653">
		<tag k="name" v="Grøtskargropa" />
		<tag k="natural" v="valley" />
		<tag k="place" v="locality" />
		<tag k="ssr:stedsnr" v="962667" />
	</node>
	<node id="-749693" lat="69.0658888894" lon="16.9326111161">
		<tag k="fixme" v="consider natural=peak for the most distinct mountains in the district" />
		<tag k="name" v="Geitkollen" />
		<tag k="natural" v="hill" />
		<tag k="place" v="locality" />
		<tag k="ssr:stedsnr" v="294913" />
	</node>
	<node id="-751740" lat="69.0359499965" lon="17.1637777815">
		<tag k="name" v="Grøtskaret" />
		<tag k="natural" v="valley" />
		<tag k="place" v="locality" />
		<tag k="ssr:stedsnr" v="962660" />
	</node>
	<node id="-751739" lat="69.0259499971" lon="17.1080416582">
		<tag k="name" v="Blomhollen" />
		<tag k="natural" v="valley" />
		<tag k="place" v="locality" />
		<tag k="ssr:stedsnr" v="962645" />
	</node>
	<node id="-751738" lat="69.0372527768" lon="17.177011104">
		<tag k="fixme" v="consider natural=peak for the most distinct mountains in the district" />
		<tag k="name" v="Torvskjåholtet" />
		<tag k="natural" v="hill" />
		<tag k="place" v="locality" />
		<tag k="ssr:stedsnr" v="962643" />
	</node>
	<node id="-751737" lat="69.0452222253" lon="17.176975009">
		<tag k="name" v="Gammhågen" />
		<tag k="natural" v="hill" />
		<tag k="place" v="locality" />
		<tag k="ssr:stedsnr" v="962639" />
	</node>
	<node id="-749688" lat="69.163638888" lon="17.699555543">
		<tag k="name" v="Halsen" />
		<tag k="natural" v="valley" />
		<tag k="place" v="locality" />
		<tag k="ssr:stedsnr" v="294724" />
	</node>
	<node id="-751734" lat="69.0479527742" lon="17.1696000077">
		<tag k="name" v="Hesjemoen" />
		<tag k="place" v="locality" />
		<tag k="ssr:stedsnr" v="962624" />
	</node>
	<node id="-749685" lat="69.1912833292" lon="17.8160555495">
		<tag k="name" v="Langmyrbakken" />
		<tag k="natural" v="slope" />
		<tag k="place" v="locality" />
		<tag k="ssr:stedsnr" v="294715" />
	</node>
	<node id="-751732" lat="69.0821722247" lon="17.0155000116">
		<tag k="name" v="Strøypa" />
		<tag k="natural" v="valley" />
		<tag k="place" v="locality" />
		<tag k="ssr:stedsnr" v="962602" />
	</node>
	<node id="-751731" lat="69.0882999961" lon="17.0031777671">
		<tag k="name" v="Bjørnhågen" />
		<tag k="natural" v="hill" />
		<tag k="place" v="locality" />
		<tag k="ssr:stedsnr" v="962585" />
	</node>
	<node id="-751728" lat="69.2107777761" lon="17.5370361131">
		<tag k="name" v="Skarbakken" />
		<tag k="natural" v="slope" />
		<tag k="place" v="locality" />
		<tag k="ssr:stedsnr" v="962550" />
	</node>
	<node id="-751727" lat="69.007808337" lon="17.0703666606">
		<tag k="name" v="Finnhellaren" />
		<tag k="natural" v="hill" />
		<tag k="place" v="locality" />
		<tag k="ssr:stedsnr" v="962548" />
	</node>
	<node id="-751726" lat="69.2181166679" lon="17.6476805503">
		<tag k="name" v="Slækeren" />
		<tag k="natural" v="hill" />
		<tag k="place" v="locality" />
		<tag k="ssr:stedsnr" v="962540" />
	</node>
	<node id="-749677" lat="69.2264250032" lon="17.5772666735">
		<tag k="name" v="Vedskjulhaugen" />
		<tag k="natural" v="hill" />
		<tag k="place" v="locality" />
		<tag k="ssr:stedsnr" v="294568" />
	</node>
	<node id="-751723" lat="69.1575694491" lon="17.6708777747">
		<tag k="name" v="Matisenberget" />
		<tag k="natural" v="hill" />
		<tag k="place" v="locality" />
		<tag k="ssr:stedsnr" v="962519" />
	</node>
	<node id="-749674" lat="69.2278222238" lon="17.5929583241">
		<tag k="name" v="Blomholla" />
		<tag k="natural" v="valley" />
		<tag k="place" v="locality" />
		<tag k="ssr:stedsnr" v="294560" />
	</node>
	<node id="-751721" lat="69.1274166666" lon="17.0315472274">
		<tag k="name" v="Mutterhaugen" />
		<tag k="natural" v="hill" />
		<tag k="place" v="locality" />
		<tag k="ssr:stedsnr" v="962512" />
	</node>
	<node id="-751720" lat="69.1294555525" lon="17.041247229">
		<tag k="name" v="Kvitberget" />
		<tag k="natural" v="hill" />
		<tag k="place" v="locality" />
		<tag k="ssr:stedsnr" v="962510" />
	</node>
	<node id="-751719" lat="69.1624777798" lon="17.5857916642">
		<tag k="name" v="Buhågen" />
		<tag k="natural" v="hill" />
		<tag k="place" v="locality" />
		<tag k="ssr:stedsnr" v="962487" />
	</node>
	<node id="-751718" lat="69.1705777748" lon="17.7375138907">
		<tag k="name" v="Haugan" />
		<tag k="natural" v="hill" />
		<tag k="place" v="locality" />
		<tag k="ssr:stedsnr" v="962472" />
	</node>
	<node id="-749669" lat="69.1620499985" lon="17.5956999968">
		<tag k="name" v="Holtet" />
		<tag k="natural" v="hill" />
		<tag k="place" v="locality" />
		<tag k="ssr:stedsnr" v="294520" />
	</node>
	<node id="-749667" lat="69.1634027786" lon="17.5957583396">
		<tag k="name" v="Finnebuhågen" />
		<tag k="natural" v="hill" />
		<tag k="place" v="locality" />
		<tag k="ssr:stedsnr" v="294510" />
	</node>
	<node id="-751714" lat="69.1334305529" lon="17.0935666542">
		<tag k="name" v="Øvre Hesjebakken" />
		<tag k="natural" v="slope" />
		<tag k="place" v="locality" />
		<tag k="ssr:stedsnr" v="962354" />
	</node>
	<node id="-749664" lat="69.1718277792" lon="17.8080916566">
		<tag k="fixme" v="consider natural=peak for the most distinct mountains in the district" />
		<tag k="name" v="Vetelikollen" />
		<tag k="natural" v="hill" />
		<tag k="place" v="locality" />
		<tag k="ssr:stedsnr" v="294490" />
	</node>
	<node id="-751711" lat="69.0851361072" lon="17.0588888799">
		<tag k="fixme" v="consider natural=peak for the most distinct mountains in the district" />
		<tag k="name" v="Hundåsen" />
		<tag k="natural" v="hill" />
		<tag k="place" v="locality" />
		<tag k="ssr:stedsnr" v="962279" />
	</node>
	<node id="-751710" lat="69.0848194416" lon="17.051702775">
		<tag k="name" v="Jenspersabakken" />
		<tag k="natural" v="slope" />
		<tag k="place" v="locality" />
		<tag k="ssr:stedsnr" v="962272" />
	</node>
	<node id="-751708" lat="69.1508277792" lon="17.0921611015">
		<tag k="name" v="Stordalen" />
		<tag k="natural" v="valley" />
		<tag k="place" v="locality" />
		<tag k="ssr:stedsnr" v="962247" />
	</node>
	<node id="-749659" lat="69.1490500002" lon="17.4791749951">
		<tag k="name" v="Brannholtet" />
		<tag k="natural" v="hill" />
		<tag k="place" v="locality" />
		<tag k="ssr:stedsnr" v="294466" />
	</node>
	<node id="-751706" lat="69.0565722212" lon="16.8182111207">
		<tag k="name" v="Skruven" />
		<tag k="natural" v="hill" />
		<tag k="place" v="locality" />
		<tag k="ssr:stedsnr" v="962000" />
	</node>
	<node id="-751705" lat="69.1703083297" lon="17.5943110968">
		<tag k="name" v="Småhågan" />
		<tag k="natural" v="hill" />
		<tag k="place" v="locality" />
		<tag k="ssr:stedsnr" v="961989" />
	</node>
	<node id="-749655" lat="69.0819833374" lon="17.0092305443">
		<tag k="name" v="Kalvegjerdshågen" />
		<tag k="natural" v="hill" />
		<tag k="place" v="locality" />
		<tag k="ssr:stedsnr" v="294633" />
	</node>
	<node id="-749654" lat="69.2044694437" lon="17.5863861199">
		<tag k="name" v="Storhammaren" />
		<tag k="natural" v="hill" />
		<tag k="place" v="locality" />
		<tag k="ssr:stedsnr" v="294615" />
	</node>
	<node id="-751701" lat="69.0327722238" lon="16.904822213">
		<tag k="name" v="Tofta" />
		<tag k="natural" v="slope" />
		<tag k="place" v="locality" />
		<tag k="ssr:stedsnr" v="961937" />
	</node>
	<node id="-751700" lat="69.1053305591" lon="16.7945416657">
		<tag k="name" v="Skallhammaren" />
		<tag k="natural" v="hill" />
		<tag k="place" v="locality" />
		<tag k="ssr:stedsnr" v="961919" />
	</node>
	<node id="-751698" lat="69.22460278" lon="17.5127638952">
		<tag k="fixme" v="consider natural=peak for the most distinct mountains in the district" />
		<tag k="name" v="Vardnesfjellet" />
		<tag k="natural" v="hill" />
		<tag k="place" v="locality" />
		<tag k="ssr:stedsnr" v="961914" />
	</node>
	<node id="-751697" lat="69.0738777743" lon="16.8325222305">
		<tag k="name" v="Dalbakken" />
		<tag k="natural" v="slope" />
		<tag k="place" v="locality" />
		<tag k="ssr:stedsnr" v="961906" />
	</node>
	<node id="-749648" lat="69.0861555547" lon="17.0547916538">
		<tag k="name" v="Skjellsletten" />
		<tag k="place" v="locality" />
		<tag k="ssr:stedsnr" v="294276" />
	</node>
	<node id="-751695" lat="69.1816861104" lon="17.5133638871">
		<tag k="fixme" v="consider natural=peak for the most distinct mountains in the district" />
		<tag k="name" v="Myklenesåsen" />
		<tag k="natural" v="hill" />
		<tag k="place" v="locality" />
		<tag k="ssr:stedsnr" v="961860" />
	</node>
	<node id="-751694" lat="69.1823638853" lon="17.4970166534">
		<tag k="name" v="Skjellberget" />
		<tag k="natural" v="hill" />
		<tag k="place" v="locality" />
		<tag k="ssr:stedsnr" v="961859" />
	</node>
	<node id="-751693" lat="69.1768416651" lon="17.8203944342">
		<tag k="name" v="Pilevasskaret" />
		<tag k="natural" v="valley" />
		<tag k="place" v="locality" />
		<tag k="ssr:stedsnr" v="961739" />
	</node>
	<node id="-751692" lat="69.1747444443" lon="17.8332916549">
		<tag k="fixme" v="consider natural=peak for the most distinct mountains in the district" />
		<tag k="name" v="Litjestangerfjellet" />
		<tag k="natural" v="hill" />
		<tag k="place" v="locality" />
		<tag k="ssr:stedsnr" v="961737" />
	</node>
	<node id="-749643" lat="69.2043388929" lon="17.831619454">
		<tag k="name" v="Forravasshaugen" />
		<tag k="natural" v="hill" />
		<tag k="place" v="locality" />
		<tag k="ssr:stedsnr" v="291948" />
	</node>
	<node id="-751690" lat="69.1864027784" lon="17.8170638773">
		<tag k="name" v="Brennevinsbakkholla" />
		<tag k="natural" v="valley" />
		<tag k="place" v="locality" />
		<tag k="ssr:stedsnr" v="961706" />
	</node>
	<node id="-751689" lat="69.0869722191" lon="17.0015250001">
		<tag k="name" v="Blomaksla" />
		<tag k="place" v="locality" />
		<tag k="ssr:stedsnr" v="961627" />
	</node>
	<node id="-751688" lat="69.0819888919" lon="16.9639083332">
		<tag k="name" v="Finnelvheia" />
		<tag k="natural" v="hill" />
		<tag k="place" v="locality" />
		<tag k="ssr:stedsnr" v="961625" />
	</node>
	<node id="-749639" lat="69.0744666647" lon="16.8405277839">
		<tag k="fixme" v="consider natural=peak for the most distinct mountains in the district" />
		<tag k="name" v="Dalbruna" />
		<tag k="natural" v="hill" />
		<tag k="place" v="locality" />
		<tag k="ssr:stedsnr" v="415904" />
	</node>
	<node id="-751686" lat="69.1024916641" lon="16.9266194472">
		<tag k="name" v="Blyfjordskaret" />
		<tag k="natural" v="valley" />
		<tag k="place" v="locality" />
		<tag k="ssr:stedsnr" v="961584" />
	</node>
	<node id="-751684" lat="69.0389583317" lon="17.0353888748">
		<tag k="name" v="Klokkholmhågen" />
		<tag k="natural" v="hill" />
		<tag k="place" v="locality" />
		<tag k="ssr:stedsnr" v="961577" />
	</node>
	<node id="-751682" lat="69.162525003" lon="17.6822750092">
		<tag k="name" v="Storvikholtet" />
		<tag k="natural" v="hill" />
		<tag k="place" v="locality" />
		<tag k="ssr:stedsnr" v="961536" />
	</node>
	<node id="-751681" lat="69.1593722228" lon="17.6657055498">
		<tag k="fixme" v="consider natural=peak for the most distinct mountains in the district" />
		<tag k="name" v="Mellagongsfjellet" />
		<tag k="natural" v="hill" />
		<tag k="place" v="locality" />
		<tag k="ssr:stedsnr" v="961535" />
	</node>
	<node id="-751678" lat="69.1266722179" lon="17.2470861125">
		<tag k="name" v="Lysebakkan" />
		<tag k="natural" v="slope" />
		<tag k="place" v="locality" />
		<tag k="ssr:stedsnr" v="961501" />
	</node>
	<node id="-751675" lat="69.1413027802" lon="17.280316665">
		<tag k="name" v="Langholtet" />
		<tag k="natural" v="hill" />
		<tag k="place" v="locality" />
		<tag k="ssr:stedsnr" v="961406" />
	</node>
	<node id="-751673" lat="69.2049027741" lon="17.7926499978">
		<tag k="name" v="Storholla" />
		<tag k="natural" v="valley" />
		<tag k="place" v="locality" />
		<tag k="ssr:stedsnr" v="958976" />
	</node>
	<node id="-751671" lat="69.2048999979" lon="17.6974610991">
		<tag k="name" v="Lian" />
		<tag k="natural" v="slope" />
		<tag k="place" v="locality" />
		<tag k="ssr:stedsnr" v="958624" />
	</node>
	<node id="-751669" lat="69.2060083361" lon="17.707477765">
		<tag k="name" v="Brottan" />
		<tag k="natural" v="slope" />
		<tag k="place" v="locality" />
		<tag k="ssr:stedsnr" v="958562" />
	</node>
	<node id="-751661" lat="69.2872111069" lon="17.6254944438">
		<tag k="alt_name" v="Syregrasfjellet" />
		<tag k="fixme" v="consider natural=peak for the most distinct mountains in the district" />
		<tag k="name" v="Syrgrasfjellet" />
		<tag k="natural" v="hill" />
		<tag k="place" v="locality" />
		<tag k="ssr:stedsnr" v="929588" />
	</node>
	<node id="-751660" lat="69.3125361128" lon="17.6169138971">
		<tag k="alt_name:no" v="Daumannsfjellet" />
		<tag k="fixme" v="consider natural=peak for the most distinct mountains in the district" />
		<tag k="name" v="Daudmannsfjellet - Čearru" />
		<tag k="name:no" v="Daudmannsfjellet" />
		<tag k="name:se" v="Čearru" />
		<tag k="natural" v="hill" />
		<tag k="old_name:se" v="Čærro" />
		<tag k="place" v="locality" />
		<tag k="ssr:stedsnr" v="929562" />
	</node>
	<node id="-751722" lat="69.0174444463" lon="17.097663876">
		<tag k="name" v="Magdalen" />
		<tag k="natural" v="valley" />
		<tag k="place" v="locality" />
		<tag k="ssr:stedsnr" v="962518" />
	</node>
	<node id="-751654" lat="69.2687666705" lon="17.3550166547">
		<tag k="fixme" v="consider natural=peak for the most distinct mountains in the district" />
		<tag k="name" v="Bieggaloapmi" />
		<tag k="name:se" v="Bieggaloapmi" />
		<tag k="natural" v="hill" />
		<tag k="old_name:se" v="Bieggaloabmi" />
		<tag k="place" v="locality" />
		<tag k="ssr:stedsnr" v="928378" />
	</node>
	<node id="-751652" lat="69.1348999994" lon="17.0026416586">
		<tag k="fixme" v="consider natural=peak for the most distinct mountains in the district" />
		<tag k="name" v="Fiskenestindan" />
		<tag k="natural" v="hill" />
		<tag k="place" v="locality" />
		<tag k="ssr:stedsnr" v="928217" />
	</node>
	<node id="-751650" lat="69.1004472236" lon="16.9054333446">
		<tag k="alt_name" v="Botntind" />
		<tag k="fixme" v="consider natural=peak for the most distinct mountains in the district" />
		<tag k="name" v="Botntinden" />
		<tag k="natural" v="hill" />
		<tag k="place" v="locality" />
		<tag k="ssr:stedsnr" v="928191" />
	</node>
	<node id="-751649" lat="69.1175083329" lon="16.9867305551">
		<tag k="fixme" v="consider natural=peak for the most distinct mountains in the district" />
		<tag k="name" v="Steinskardfjellet" />
		<tag k="natural" v="hill" />
		<tag k="place" v="locality" />
		<tag k="ssr:stedsnr" v="928185" />
	</node>
	<node id="-751648" lat="69.125394445" lon="16.9282861102">
		<tag k="fixme" v="consider natural=peak for the most distinct mountains in the district" />
		<tag k="name" v="Oksen" />
		<tag k="natural" v="hill" />
		<tag k="place" v="locality" />
		<tag k="ssr:stedsnr" v="928180" />
	</node>
	<node id="-751647" lat="69.1190666683" lon="17.0479500004">
		<tag k="alt_name" v="Brattlia" />
		<tag k="name" v="Brattlian" />
		<tag k="natural" v="slope" />
		<tag k="place" v="locality" />
		<tag k="ssr:stedsnr" v="928179" />
	</node>
	<node id="-751646" lat="69.2315027746" lon="17.3604138742">
		<tag k="fixme" v="consider natural=peak for the most distinct mountains in the district" />
		<tag k="name" v="Litlefjellet" />
		<tag k="natural" v="hill" />
		<tag k="place" v="locality" />
		<tag k="ssr:stedsnr" v="928155" />
	</node>
	<node id="-751645" lat="69.241641666" lon="17.3802972105">
		<tag k="fixme" v="consider natural=peak for the most distinct mountains in the district" />
		<tag k="name" v="Midnattesfjellet - Gazzoaivi" />
		<tag k="name:no" v="Midnattesfjellet" />
		<tag k="name:se" v="Gazzoaivi" />
		<tag k="natural" v="hill" />
		<tag k="place" v="locality" />
		<tag k="ssr:stedsnr" v="928145" />
	</node>
	<node id="-751644" lat="69.2059444485" lon="17.2459722139">
		<tag k="name" v="Ryphaugen" />
		<tag k="natural" v="hill" />
		<tag k="place" v="locality" />
		<tag k="ssr:stedsnr" v="928121" />
	</node>
	<node id="-751638" lat="69.0841944414" lon="16.8820833335">
		<tag k="alt_name" v="Buviktind" />
		<tag k="fixme" v="consider natural=peak for the most distinct mountains in the district" />
		<tag k="name" v="Buviktinden" />
		<tag k="natural" v="hill" />
		<tag k="place" v="locality" />
		<tag k="ssr:stedsnr" v="928052" />
	</node>
	<node id="-751637" lat="69.1027999964" lon="17.0673249873">
		<tag k="name" v="Vassmodalen" />
		<tag k="natural" v="valley" />
		<tag k="place" v="locality" />
		<tag k="ssr:stedsnr" v="928044" />
	</node>
	<node id="-751636" lat="69.0945472208" lon="17.1597444402">
		<tag k="alt_name" v="Buelvkrommen" />
		<tag k="name" v="Buelvkrammen" />
		<tag k="natural" v="valley" />
		<tag k="place" v="locality" />
		<tag k="ssr:stedsnr" v="928036" />
	</node>
	<node id="-751632" lat="69.057402777" lon="17.1251361098">
		<tag k="alt_name" v="Resmålstuva" />
		<tag k="name" v="Rismålstuva" />
		<tag k="natural" v="hill" />
		<tag k="place" v="locality" />
		<tag k="ssr:stedsnr" v="928020" />
	</node>
	<node id="-751625" lat="69.1744611091" lon="17.746124999">
		<tag k="name" v="Skarsletta" />
		<tag k="place" v="locality" />
		<tag k="ssr:stedsnr" v="902705" />
	</node>
	<node id="-751624" lat="69.2429027765" lon="17.6207444334">
		<tag k="fixme" v="consider natural=peak for the most distinct mountains in the district" />
		<tag k="name" v="Lakselvveiåsen" />
		<tag k="natural" v="hill" />
		<tag k="place" v="locality" />
		<tag k="ssr:stedsnr" v="902672" />
	</node>
	<node id="-751620" lat="69.2021888852" lon="17.6485222087">
		<tag k="name" v="Bakkan" />
		<tag k="natural" v="slope" />
		<tag k="place" v="locality" />
		<tag k="ssr:stedsnr" v="902635" />
	</node>
	<node id="-751619" lat="69.2740277807" lon="17.5790722301">
		<tag k="fixme" v="consider natural=peak for the most distinct mountains in the district" />
		<tag k="name" v="Varden" />
		<tag k="natural" v="hill" />
		<tag k="place" v="locality" />
		<tag k="ssr:stedsnr" v="902631" />
	</node>
	<node id="-751618" lat="69.1995666662" lon="17.619969439">
		<tag k="name" v="Heltbergberget" />
		<tag k="natural" v="hill" />
		<tag k="place" v="locality" />
		<tag k="ssr:stedsnr" v="902628" />
	</node>
</osm>
