<?xml version="1.0" encoding="UTF-8"?>
<osm generator="osmapis" version="0.6">
	<node id="-752639" lat="69.1419611086" lon="17.4159416667">
		<tag k="name" v="Stormyra" />
		<tag k="natural" v="wetland" />
		<tag k="ssr:stedsnr" v="779469" />
	</node>
	<node id="-751119" lat="69.2321972208" lon="17.5892305441">
		<tag k="name" v="Storsteinen" />
		<tag k="natural" v="stone" />
		<tag k="ssr:stedsnr" v="354556" />
	</node>
	<node id="-752635" lat="69.208944444" lon="17.7942277734">
		<tag k="name" v="Holtan" />
		<tag k="place" v="locality" />
		<tag k="ssr:stedsnr" v="776965" />
	</node>
	<node id="-752631" lat="69.2141111105" lon="17.7066805529">
		<tag k="name" v="Gammelvetmyra" />
		<tag k="natural" v="wetland" />
		<tag k="ssr:stedsnr" v="776518" />
	</node>
	<node id="-751604" lat="69.2738833339" lon="17.62618611">
		<tag k="name" v="Trollhollmyra" />
		<tag k="natural" v="wetland" />
		<tag k="ssr:stedsnr" v="113585" />
	</node>
	<node id="-751600" lat="69.2056694485" lon="17.580694447">
		<tag k="name" v="Aurmyra" />
		<tag k="natural" v="wetland" />
		<tag k="ssr:stedsnr" v="113556" />
	</node>
	<node id="-751087" lat="69.2303777818" lon="17.6186527667">
		<tag k="name" v="Flotmyra" />
		<tag k="natural" v="wetland" />
		<tag k="ssr:stedsnr" v="322408" />
	</node>
	<node id="-751442" lat="69.2709472261" lon="17.5268722304">
		<tag k="name" v="Svåmyran" />
		<tag k="natural" v="wetland" />
		<tag k="ssr:stedsnr" v="51923" />
	</node>
	<node id="-751271" lat="69.095227779" lon="17.0130583248">
		<tag k="name" v="Steinskarmyra" />
		<tag k="natural" v="wetland" />
		<tag k="ssr:stedsnr" v="476583" />
	</node>
	<node id="-751585" lat="69.0286027767" lon="17.2085444532">
		<tag k="name" v="Perjonsamyra" />
		<tag k="natural" v="wetland" />
		<tag k="ssr:stedsnr" v="113387" />
	</node>
	<node id="-751583" lat="69.1030555541" lon="17.0885250084">
		<tag k="name" v="Finngammsanden" />
		<tag k="natural" v="beach" />
		<tag k="ssr:stedsnr" v="113294" />
		<tag k="surface" v="sand" />
	</node>
	<node id="-751573" lat="69.1880749992" lon="17.6778999889">
		<tag k="name" v="Stengselmyran" />
		<tag k="natural" v="wetland" />
		<tag k="ssr:stedsnr" v="112985" />
	</node>
	<node id="-751569" lat="69.1505305542" lon="17.6342888816">
		<tag k="name" v="Uran" />
		<tag k="natural" v="scree" />
		<tag k="ssr:stedsnr" v="112942" />
	</node>
	<node id="-751567" lat="69.2386416672" lon="17.6628305451">
		<tag k="name" v="Hyttemyran" />
		<tag k="natural" v="wetland" />
		<tag k="ssr:stedsnr" v="113652" />
	</node>
	<node id="-751054" lat="69.2444444474" lon="17.6338083289">
		<tag k="name" v="Vargemyra" />
		<tag k="natural" v="wetland" />
		<tag k="ssr:stedsnr" v="295683" />
	</node>
	<node id="-751562" lat="69.254350004" lon="17.6037972271">
		<tag k="name" v="Sivertmyra" />
		<tag k="natural" v="wetland" />
		<tag k="ssr:stedsnr" v="113603" />
	</node>
	<node id="-751048" lat="69.2518499967" lon="17.5458111102">
		<tag k="name" v="Tjønnmyra" />
		<tag k="natural" v="wetland" />
		<tag k="ssr:stedsnr" v="295636" />
	</node>
	<node id="-752067" lat="69.1858000007" lon="17.5223444485">
		<tag k="name" v="Brannskogen" />
		<tag k="place" v="locality" />
		<tag k="ssr:stedsnr" v="443484" />
	</node>
	<node id="-752576" lat="69.2577444461" lon="17.5349055585">
		<tag k="name" v="Stormyra" />
		<tag k="natural" v="wetland" />
		<tag k="ssr:stedsnr" v="720634" />
	</node>
	<node id="-751037" lat="69.1933388906" lon="17.667716656">
		<tag k="name" v="Moskogen" />
		<tag k="place" v="locality" />
		<tag k="ssr:stedsnr" v="294988" />
	</node>
	<node id="-752568" lat="69.0719111086" lon="16.8594361112">
		<tag k="name" v="Trollskogen" />
		<tag k="place" v="locality" />
		<tag k="ssr:stedsnr" v="719911" />
	</node>
	<node id="-752567" lat="69.1230388861" lon="16.8310833301">
		<tag k="name" v="Skogen" />
		<tag k="place" v="locality" />
		<tag k="ssr:stedsnr" v="719909" />
	</node>
	<node id="-753076" lat="69.0272055593" lon="17.1555277775">
		<tag k="name" v="Langmyra" />
		<tag k="natural" v="wetland" />
		<tag k="ssr:stedsnr" v="962663" />
	</node>
	<node id="-751262" lat="69.0166916715" lon="17.1554222154">
		<tag k="name" v="Natthågmyra" />
		<tag k="natural" v="wetland" />
		<tag k="ssr:stedsnr" v="476541" />
	</node>
	<node id="-751534" lat="69.080311108" lon="17.0847500067">
		<tag k="name" v="Grønnskogen" />
		<tag k="place" v="locality" />
		<tag k="ssr:stedsnr" v="112324" />
	</node>
	<node id="-751261" lat="69.2245472231" lon="17.6001000073">
		<tag k="name" v="Haillmyra" />
		<tag k="natural" v="wetland" />
		<tag k="ssr:stedsnr" v="476534" />
	</node>
	<node id="-752550" lat="69.0574972207" lon="17.1116749997">
		<tag k="name" v="Gjettjordmyra" />
		<tag k="natural" v="wetland" />
		<tag k="ssr:stedsnr" v="719695" />
	</node>
	<node id="-751013" lat="69.1040361123" lon="17.0307583335">
		<tag k="name" v="Stilimyran" />
		<tag k="natural" v="wetland" />
		<tag k="ssr:stedsnr" v="294594" />
	</node>
	<node id="-751010" lat="69.0178361089" lon="17.1479250017">
		<tag k="name" v="Åklomyra" />
		<tag k="natural" v="wetland" />
		<tag k="ssr:stedsnr" v="294578" />
	</node>
	<node id="-752544" lat="69.0385083312" lon="17.1849055411">
		<tag k="name" v="Gammelingermyra" />
		<tag k="natural" v="wetland" />
		<tag k="ssr:stedsnr" v="719628" />
	</node>
	<node id="-751519" lat="69.2241833353" lon="17.6535527662">
		<tag k="alt_name" v="Sætermyra" />
		<tag k="name" v="Sætermyran" />
		<tag k="natural" v="wetland" />
		<tag k="ssr:stedsnr" v="79392" />
	</node>
	<node id="-751004" lat="69.0153861091" lon="17.0810444408">
		<tag k="name" v="Heimervassmyra" />
		<tag k="natural" v="wetland" />
		<tag k="ssr:stedsnr" v="294559" />
	</node>
	<node id="-751003" lat="69.0192000038" lon="17.0972805454">
		<tag k="name" v="Mikkjelmyra" />
		<tag k="natural" v="wetland" />
		<tag k="ssr:stedsnr" v="294555" />
	</node>
	<node id="-753050" lat="69.0914833336" lon="17.2303861109">
		<tag k="name" v="Finnsetjorda" />
		<tag k="place" v="locality" />
		<tag k="ssr:stedsnr" v="962382" />
	</node>
	<node id="-752537" lat="69.0793388908" lon="16.9781333437">
		<tag k="name" v="Kjerkesteinmyra" />
		<tag k="natural" v="wetland" />
		<tag k="ssr:stedsnr" v="719548" />
	</node>
	<node id="-752019" lat="69.263927776" lon="17.6533972102">
		<tag k="name" v="Stakkemyra" />
		<tag k="natural" v="wetland" />
		<tag k="ssr:stedsnr" v="417669" />
	</node>
	<node id="-752017" lat="69.2731638927" lon="17.6480416768">
		<tag k="name" v="Nordskogen" />
		<tag k="place" v="locality" />
		<tag k="ssr:stedsnr" v="417659" />
	</node>
	<node id="-752528" lat="69.0138694461" lon="17.0707638833">
		<tag k="name" v="Yttervassmyra" />
		<tag k="natural" v="wetland" />
		<tag k="ssr:stedsnr" v="719497" />
	</node>
	<node id="-752525" lat="69.160030556" lon="17.0619472124">
		<tag k="name" v="Storsteinen" />
		<tag k="natural" v="stone" />
		<tag k="ssr:stedsnr" v="719391" />
	</node>
	<node id="-752524" lat="69.1516027792" lon="17.0687861124">
		<tag k="name" v="Kubbsteinen" />
		<tag k="natural" v="stone" />
		<tag k="ssr:stedsnr" v="719343" />
	</node>
	<node id="-752011" lat="69.0569805577" lon="17.0789444409">
		<tag k="landuse" v="meadow" />
		<tag k="name" v="Langåkeren" />
		<tag k="ssr:stedsnr" v="416685" />
	</node>
	<node id="-752009" lat="69.040177778" lon="17.1806110974">
		<tag k="name" v="Kariskogen" />
		<tag k="place" v="locality" />
		<tag k="ssr:stedsnr" v="416645" />
	</node>
	<node id="-751493" lat="69.0928055537" lon="17.062583322">
		<tag k="name" v="Hillesåsmyran" />
		<tag k="natural" v="wetland" />
		<tag k="ssr:stedsnr" v="78035" />
	</node>
	<node id="-750977" lat="69.0718333304" lon="17.148044445">
		<tag k="name" v="Bestefarsmyra" />
		<tag k="natural" v="wetland" />
		<tag k="ssr:stedsnr" v="294249" />
	</node>
	<node id="-750976" lat="69.0575861079" lon="16.8046277842">
		<tag k="name" v="Senjahestmyran" />
		<tag k="natural" v="wetland" />
		<tag k="ssr:stedsnr" v="293970" />
	</node>
	<node id="-753022" lat="69.2065861093" lon="17.5351333221">
		<tag k="name" v="Kjærrdalsskogen" />
		<tag k="place" v="locality" />
		<tag k="ssr:stedsnr" v="961591" />
	</node>
	<node id="-750973" lat="69.1933500028" lon="17.8131166772">
		<tag k="name" v="Langmyra" />
		<tag k="natural" v="wetland" />
		<tag k="ssr:stedsnr" v="291944" />
	</node>
	<node id="-753020" lat="69.2120055573" lon="17.6050194473">
		<tag k="name" v="Kartmyra" />
		<tag k="natural" v="wetland" />
		<tag k="ssr:stedsnr" v="961579" />
	</node>
	<node id="-751423" lat="69.1264444409" lon="17.2604749968">
		<tag k="name" v="Vasskogen" />
		<tag k="place" v="locality" />
		<tag k="ssr:stedsnr" v="51545" />
	</node>
	<node id="-751479" lat="69.0393972212" lon="17.1987027739">
		<tag k="name" v="Storskogen" />
		<tag k="place" v="locality" />
		<tag k="ssr:stedsnr" v="52640" />
	</node>
	<node id="-751478" lat="69.0429750029" lon="17.1693833431">
		<tag k="name" v="Grønnjorda" />
		<tag k="place" v="locality" />
		<tag k="ssr:stedsnr" v="52634" />
	</node>
	<node id="-751983" lat="69.1702222216" lon="17.0686611065">
		<tag k="name" v="Lomsjorda" />
		<tag k="place" v="locality" />
		<tag k="ssr:stedsnr" v="416374" />
	</node>
	<node id="-753005" lat="69.2069694435" lon="17.7319972302">
		<tag k="name" v="Vassenglimyra" />
		<tag k="natural" v="wetland" />
		<tag k="ssr:stedsnr" v="958565" />
	</node>
	<node id="-752992" lat="69.26907778" lon="17.515563891">
		<tag k="alt_name" v="Svodan, nedre" />
		<tag k="name" v="Nedre Svodan" />
		<tag k="natural" v="wetland" />
		<tag k="ssr:stedsnr" v="928563" />
	</node>
	<node id="-751454" lat="69.0688666649" lon="17.1449166593">
		<tag k="name" v="Deggemyra" />
		<tag k="natural" v="wetland" />
		<tag k="ssr:stedsnr" v="52242" />
	</node>
	<node id="-751963" lat="69.2158916647" lon="17.4240749989">
		<tag k="name" v="Skolpemyra" />
		<tag k="natural" v="wetland" />
		<tag k="ssr:stedsnr" v="415893" />
	</node>
	<node id="-751954" lat="69.1929416702" lon="17.8019527886">
		<tag k="name" v="Vintervassmyra" />
		<tag k="natural" v="wetland" />
		<tag k="ssr:stedsnr" v="415729" />
	</node>
	<node id="-752975" lat="69.028130553" lon="17.1718500024">
		<tag k="alt_name" v="Latraumyra" />
		<tag k="name" v="Latrauvmyra" />
		<tag k="natural" v="wetland" />
		<tag k="ssr:stedsnr" v="928067" />
	</node>
	<node id="-751950" lat="69.1077666686" lon="16.8984027824">
		<tag k="name" v="De tre brødre" />
		<tag k="natural" v="stone" />
		<tag k="ssr:stedsnr" v="415627" />
	</node>
	<node id="-753037" lat="69.0723166713" lon="16.8139222182">
		<tag k="name" v="Finnjordholtan" />
		<tag k="place" v="locality" />
		<tag k="ssr:stedsnr" v="961944" />
	</node>
	<node id="-752460" lat="69.0710138889" lon="16.9125638764">
		<tag k="name" v="Lysmyra" />
		<tag k="natural" v="wetland" />
		<tag k="ssr:stedsnr" v="685011" />
	</node>
	<node id="-751947" lat="69.2330083354" lon="17.6380388875">
		<tag k="name" v="Austerflotmyra" />
		<tag k="natural" v="wetland" />
		<tag k="ssr:stedsnr" v="415594" />
	</node>
	<node id="-751942" lat="69.1237194482" lon="17.2554110997">
		<tag k="name" v="Peder-Tingstadkjærran" />
		<tag k="place" v="locality" />
		<tag k="ssr:stedsnr" v="415533" />
	</node>
	<node id="-752451" lat="69.2393833372" lon="17.6279583327">
		<tag k="name" v="Langemyra" />
		<tag k="natural" v="wetland" />
		<tag k="ssr:stedsnr" v="659683" />
	</node>
	<node id="-752450" lat="69.2593500021" lon="17.6374916742">
		<tag k="name" v="Vassmyra" />
		<tag k="natural" v="wetland" />
		<tag k="ssr:stedsnr" v="659678" />
	</node>
	<node id="-751935" lat="69.149508334" lon="17.4840388804">
		<tag k="name" v="Torslåtta" />
		<tag k="place" v="locality" />
		<tag k="ssr:stedsnr" v="415488" />
	</node>
	<node id="-751421" lat="69.1444027823" lon="17.4280472111">
		<tag k="name" v="Torvmyra" />
		<tag k="natural" v="wetland" />
		<tag k="ssr:stedsnr" v="51506" />
	</node>
	<node id="-752444" lat="69.2648638857" lon="17.6740277743">
		<tag k="name" v="Almenningsmyran" />
		<tag k="natural" v="wetland" />
		<tag k="ssr:stedsnr" v="659637" />
	</node>
	<node id="-751417" lat="69.2096222185" lon="17.7751972108">
		<tag k="name" v="Stormyra" />
		<tag k="natural" v="wetland" />
		<tag k="ssr:stedsnr" v="47955" />
	</node>
	<node id="-752180" lat="69.2266166643" lon="17.6591583205">
		<tag k="name" v="Lomtjønnmyra" />
		<tag k="natural" v="wetland" />
		<tag k="ssr:stedsnr" v="537545" />
	</node>
	<node id="-752949" lat="69.2193722229" lon="17.4350249994">
		<tag k="name" v="Vardnesmyran" />
		<tag k="natural" v="wetland" />
		<tag k="ssr:stedsnr" v="901913" />
	</node>
	<node id="-751406" lat="69.2126777758" lon="17.4338972279">
		<tag k="name" v="Stormyra" />
		<tag k="natural" v="wetland" />
		<tag k="ssr:stedsnr" v="19370" />
	</node>
	<node id="-752931" lat="69.0369916651" lon="17.1896666747">
		<tag k="name" v="Blombakkskogen" />
		<tag k="place" v="locality" />
		<tag k="ssr:stedsnr" v="901679" />
	</node>
	<node id="-752930" lat="69.0348305572" lon="17.0624666734">
		<tag k="name" v="Skittmyra" />
		<tag k="natural" v="wetland" />
		<tag k="ssr:stedsnr" v="901675" />
	</node>
	<node id="-752926" lat="69.0521277792" lon="17.148797213">
		<tag k="name" v="Mormyra" />
		<tag k="natural" v="wetland" />
		<tag k="ssr:stedsnr" v="901662" />
	</node>
	<node id="-751389" lat="69.0330999968" lon="17.1923111196">
		<tag k="name" v="Stormyra" />
		<tag k="natural" v="wetland" />
		<tag k="ssr:stedsnr" v="18080" />
	</node>
	<node id="-752924" lat="69.0869944484" lon="17.0096638965">
		<tag k="name" v="Reinmyra" />
		<tag k="natural" v="wetland" />
		<tag k="ssr:stedsnr" v="901638" />
	</node>
	<node id="-752403" lat="69.1458583335" lon="17.0022638804">
		<tag k="name" v="Oterura" />
		<tag k="natural" v="scree" />
		<tag k="ssr:stedsnr" v="658529" />
	</node>
	<node id="-752399" lat="69.1278722264" lon="17.0379055484">
		<tag k="name" v="Torvemyran" />
		<tag k="natural" v="wetland" />
		<tag k="ssr:stedsnr" v="658505" />
	</node>
	<node id="-752909" lat="69.2296805542" lon="17.5713555456">
		<tag k="name" v="Deggemyra" />
		<tag k="natural" v="wetland" />
		<tag k="ssr:stedsnr" v="901544" />
	</node>
	<node id="-752900" lat="69.1425222266" lon="17.3071638879">
		<tag k="name" v="Nattmålsmyra" />
		<tag k="natural" v="wetland" />
		<tag k="ssr:stedsnr" v="901494" />
	</node>
	<node id="-752387" lat="69.0779138841" lon="17.0738277864">
		<tag k="name" v="Tjonnemyra" />
		<tag k="natural" v="wetland" />
		<tag k="ssr:stedsnr" v="658279" />
	</node>
	<node id="-751872" lat="69.2211194455" lon="17.6143499976">
		<tag k="name" v="Skjellelvmyra" />
		<tag k="natural" v="wetland" />
		<tag k="ssr:stedsnr" v="234542" />
	</node>
	<node id="-751870" lat="69.0162027734" lon="17.0624722288">
		<tag k="name" v="Tjønnmyra" />
		<tag k="natural" v="wetland" />
		<tag k="ssr:stedsnr" v="234522" />
	</node>
	<node id="-751868" lat="69.0224944475" lon="17.1117416775">
		<tag k="name" v="Storskogen" />
		<tag k="place" v="locality" />
		<tag k="ssr:stedsnr" v="234515" />
	</node>
	<node id="-752379" lat="69.201047227" lon="17.7072916547">
		<tag k="name" v="Gammeljorda" />
		<tag k="place" v="locality" />
		<tag k="ssr:stedsnr" v="654543" />
	</node>
	<node id="-751863" lat="69.246175003" lon="17.5690833329">
		<tag k="name" v="Plassfossmyran" />
		<tag k="natural" v="wetland" />
		<tag k="ssr:stedsnr" v="234637" />
	</node>
	<node id="-752169" lat="69.1198361099" lon="17.0247305625">
		<tag k="name" v="Martinslåtta" />
		<tag k="place" v="locality" />
		<tag k="ssr:stedsnr" v="537492" />
	</node>
	<node id="-751860" lat="69.2606944456" lon="17.6564194314">
		<tag k="name" v="Sandmyra" />
		<tag k="natural" v="wetland" />
		<tag k="ssr:stedsnr" v="234615" />
	</node>
	<node id="-751859" lat="69.0821555552" lon="17.0364638867">
		<tag k="name" v="Mortenholla" />
		<tag k="natural" v="wetland" />
		<tag k="ssr:stedsnr" v="234611" />
	</node>
	<node id="-751855" lat="69.1133083294" lon="17.0538222124">
		<tag k="name" v="Stormyra" />
		<tag k="natural" v="wetland" />
		<tag k="ssr:stedsnr" v="234312" />
	</node>
	<node id="-751854" lat="69.1010000004" lon="17.0850111017">
		<tag k="name" v="Rypesteinen" />
		<tag k="natural" v="stone" />
		<tag k="ssr:stedsnr" v="234297" />
	</node>
	<node id="-751846" lat="69.0663722252" lon="16.8489055536">
		<tag k="name" v="Langevassmyra" />
		<tag k="natural" v="wetland" />
		<tag k="ssr:stedsnr" v="233993" />
	</node>
	<node id="-751845" lat="69.0611249992" lon="16.8512222193">
		<tag k="name" v="Tømmervikmyran" />
		<tag k="natural" v="wetland" />
		<tag k="ssr:stedsnr" v="233990" />
	</node>
	<node id="-751828" lat="69.2017444461" lon="17.5556055612">
		<tag k="name" v="Sætermyra" />
		<tag k="natural" v="wetland" />
		<tag k="ssr:stedsnr" v="233627" />
	</node>
	<node id="-751314" lat="69.1942388883" lon="17.8174055509">
		<tag k="alt_name" v="Langemyraskogen" />
		<tag k="name" v="Langmyrskogen" />
		<tag k="place" v="locality" />
		<tag k="ssr:stedsnr" v="898956" />
	</node>
	<node id="-752844" lat="69.0232249993" lon="17.1736694435">
		<tag k="alt_name" v="Vedheggemyra" />
		<tag k="name" v="Vedheggermyra" />
		<tag k="natural" v="wetland" />
		<tag k="ssr:stedsnr" v="867092" />
	</node>
	<node id="-752330" lat="69.2392888865" lon="17.6551444447">
		<tag k="name" v="Rundmomyra" />
		<tag k="natural" v="wetland" />
		<tag k="ssr:stedsnr" v="598673" />
	</node>
	<node id="-751814" lat="69.0532694431" lon="16.8392249928">
		<tag k="name" v="Oterora" />
		<tag k="natural" v="scree" />
		<tag k="ssr:stedsnr" v="232996" />
	</node>
	<node id="-752323" lat="69.2441805598" lon="17.5728194352">
		<tag k="name" v="Mellamyra" />
		<tag k="natural" v="wetland" />
		<tag k="ssr:stedsnr" v="598628" />
	</node>
	<node id="-751297" lat="69.0584305597" lon="16.8523999916">
		<tag k="name" v="Jobonmyra" />
		<tag k="natural" v="wetland" />
		<tag k="ssr:stedsnr" v="476990" />
	</node>
	<node id="-752319" lat="69.2707694448" lon="17.6555277638">
		<tag k="name" v="Nordlaen" />
		<tag k="natural" v="wetland" />
		<tag k="ssr:stedsnr" v="598610" />
	</node>
	<node id="-752829" lat="69.2481638889" lon="17.631830557">
		<tag k="name" v="Kjosmyra" />
		<tag k="natural" v="wetland" />
		<tag k="ssr:stedsnr" v="842694" />
	</node>
	<node id="-752313" lat="69.2153805551" lon="17.5865972075">
		<tag k="name" v="Brygghaugmyra" />
		<tag k="natural" v="wetland" />
		<tag k="ssr:stedsnr" v="598569" />
	</node>
	<node id="-752820" lat="69.0273472196" lon="17.1081527737">
		<tag k="name" v="Ardalsmyra" />
		<tag k="natural" v="wetland" />
		<tag k="ssr:stedsnr" v="841646" />
	</node>
	<node id="-751794" lat="69.1985333377" lon="17.5558361003">
		<tag k="alt_name" v="Brannmyra" />
		<tag k="name" v="Brannmyran" />
		<tag k="natural" v="wetland" />
		<tag k="ssr:stedsnr" v="200481" />
	</node>
	<node id="-751280" lat="69.1910944416" lon="17.8067138878">
		<tag k="name" v="Kvitemyra" />
		<tag k="natural" v="wetland" />
		<tag k="ssr:stedsnr" v="476711" />
	</node>
	<node id="-751277" lat="69.0579972212" lon="17.140091672">
		<tag k="name" v="Bakfjellmyra" />
		<tag k="natural" v="wetland" />
		<tag k="ssr:stedsnr" v="476703" />
	</node>
	<node id="-752811" lat="69.2371944477" lon="17.5580055469">
		<tag k="name" v="Brønnstamyra" />
		<tag k="natural" v="wetland" />
		<tag k="ssr:stedsnr" v="841518" />
	</node>
	<node id="-752681" lat="69.0740666648" lon="17.0286583381">
		<tag k="name" v="Holtet" />
		<tag k="place" v="locality" />
		<tag k="ssr:stedsnr" v="780456" />
	</node>
	<node id="-752296" lat="69.0261333333" lon="17.1524166526">
		<tag k="name" v="Ura" />
		<tag k="natural" v="scree" />
		<tag k="ssr:stedsnr" v="597695" />
	</node>
	<node id="-751388" lat="69.0307916633" lon="17.2078888795">
		<tag k="name" v="Ramfløymyra" />
		<tag k="natural" v="wetland" />
		<tag k="ssr:stedsnr" v="18079" />
	</node>
	<node id="-752294" lat="69.0313583311" lon="17.2014555601">
		<tag k="name" v="Skjolforra" />
		<tag k="natural" v="wetland" />
		<tag k="ssr:stedsnr" v="597689" />
	</node>
	<node id="-751302" lat="69.2655472197" lon="17.6613222247">
		<tag k="name" v="Holmemyra" />
		<tag k="natural" v="wetland" />
		<tag k="ssr:stedsnr" v="477650" />
	</node>
	<node id="-751265" lat="69.1085166675" lon="17.038061102">
		<tag k="name" v="Øyra" />
		<tag k="place" v="locality" />
		<tag k="ssr:stedsnr" v="476552" />
	</node>
	<node id="-752287" lat="69.2357333374" lon="17.6277444443">
		<tag k="name" v="Stormyra" />
		<tag k="natural" v="wetland" />
		<tag k="ssr:stedsnr" v="597553" />
	</node>
	<node id="-752798" lat="69.0732916698" lon="17.1560694514">
		<tag k="name" v="Tjønnemyra" />
		<tag k="natural" v="wetland" />
		<tag k="ssr:stedsnr" v="841263" />
	</node>
	<node id="-752285" lat="69.01584722" lon="17.0727027735">
		<tag k="name" v="Tollesmyra" />
		<tag k="natural" v="wetland" />
		<tag k="ssr:stedsnr" v="597543" />
	</node>
	<node id="-752796" lat="69.1810388904" lon="17.5410666545">
		<tag k="name" v="Russemyra" />
		<tag k="natural" v="wetland" />
		<tag k="ssr:stedsnr" v="840990" />
	</node>
	<node id="-751130" lat="69.2026416683" lon="17.4925000112">
		<tag k="name" v="Vardnesøyra" />
		<tag k="place" v="locality" />
		<tag k="ssr:stedsnr" v="354911" />
	</node>
	<node id="-752785" lat="69.2153027777" lon="17.4517777827">
		<tag k="name" v="Gallenkjærran" />
		<tag k="place" v="locality" />
		<tag k="ssr:stedsnr" v="840922" />
	</node>
	<node id="-752783" lat="69.2762694413" lon="17.5263027737">
		<tag k="name" v="Steinhøllmyran" />
		<tag k="natural" v="wetland" />
		<tag k="ssr:stedsnr" v="840909" />
	</node>
	<node id="-751244" lat="69.1467666714" lon="17.0858055502">
		<tag k="name" v="Storsteinen" />
		<tag k="natural" v="stone" />
		<tag k="ssr:stedsnr" v="476361" />
	</node>
	<node id="-751755" lat="69.2408722236" lon="17.6736055524">
		<tag k="name" v="Stormyra" />
		<tag k="natural" v="wetland" />
		<tag k="ssr:stedsnr" v="174709" />
	</node>
	<node id="-752265" lat="69.0932361095" lon="17.0697000069">
		<tag k="name" v="Frovågmyran" />
		<tag k="natural" v="wetland" />
		<tag k="ssr:stedsnr" v="597305" />
	</node>
	<node id="-751745" lat="69.162955554" lon="17.5892277773">
		<tag k="name" v="Holtemyra" />
		<tag k="natural" v="wetland" />
		<tag k="ssr:stedsnr" v="173980" />
	</node>
	<node id="-752765" lat="69.2128861117" lon="17.5805888913">
		<tag k="name" v="Merkesmyra" />
		<tag k="natural" v="wetland" />
		<tag k="ssr:stedsnr" v="840571" />
	</node>
	<node id="-752763" lat="69.1011638885" lon="17.025591662">
		<tag k="name" v="Bjørnlimyran" />
		<tag k="natural" v="wetland" />
		<tag k="ssr:stedsnr" v="840558" />
	</node>
	<node id="-752761" lat="69.2325749973" lon="17.6264527794">
		<tag k="name" v="Rødmyra" />
		<tag k="natural" v="wetland" />
		<tag k="ssr:stedsnr" v="840550" />
	</node>
	<node id="-752760" lat="69.232261114" lon="17.6831166618">
		<tag k="name" v="Djupelvmyra" />
		<tag k="natural" v="wetland" />
		<tag k="ssr:stedsnr" v="840549" />
	</node>
	<node id="-751733" lat="69.0139916708" lon="17.1142555443">
		<tag k="name" v="Mormyra" />
		<tag k="natural" v="wetland" />
		<tag k="ssr:stedsnr" v="173514" />
	</node>
	<node id="-751730" lat="69.1183000004" lon="17.0218222157">
		<tag k="name" v="Henrikslåtta" />
		<tag k="place" v="locality" />
		<tag k="ssr:stedsnr" v="173506" />
	</node>
	<node id="-752915" lat="69.0879694462" lon="16.9674583275">
		<tag k="name" v="Kvitormyra" />
		<tag k="natural" v="wetland" />
		<tag k="ssr:stedsnr" v="901599" />
	</node>
	<node id="-752752" lat="69.2086694403" lon="17.6921361193">
		<tag k="name" v="Haillmyra" />
		<tag k="natural" v="wetland" />
		<tag k="ssr:stedsnr" v="837539" />
	</node>
	<node id="-751726" lat="69.0153638878" lon="17.0873499922">
		<tag k="name" v="Klokhollmyra" />
		<tag k="natural" v="wetland" />
		<tag k="ssr:stedsnr" v="173497" />
	</node>
	<node id="-751724" lat="69.2368138889" lon="17.5660555472">
		<tag k="name" v="Vestfjordmyra" />
		<tag k="natural" v="wetland" />
		<tag k="ssr:stedsnr" v="173490" />
	</node>
	<node id="-751209" lat="69.2163472221" lon="17.5831860978">
		<tag k="name" v="Merkesmyra" />
		<tag k="natural" v="wetland" />
		<tag k="ssr:stedsnr" v="382368" />
	</node>
	<node id="-751718" lat="69.1612194443" lon="17.5690833206">
		<tag k="name" v="Stornesmyra" />
		<tag k="natural" v="wetland" />
		<tag k="ssr:stedsnr" v="173454" />
	</node>
	<node id="-751717" lat="69.1592166688" lon="17.5511027716">
		<tag k="name" v="Svartskogen" />
		<tag k="place" v="locality" />
		<tag k="ssr:stedsnr" v="173451" />
	</node>
	<node id="-751198" lat="69.0756611124" lon="16.9261027693">
		<tag k="name" v="Hesteskomyra" />
		<tag k="natural" v="wetland" />
		<tag k="old_name" v="Hesteskarsmyra" />
		<tag k="ssr:stedsnr" v="382055" />
	</node>
	<node id="-752221" lat="69.1320305525" lon="17.2690999875">
		<tag k="name" v="Lahaugmyra" />
		<tag k="natural" v="wetland" />
		<tag k="ssr:stedsnr" v="563205" />
	</node>
	<node id="-751887" lat="69.1769222209" lon="17.7472416722">
		<tag k="name" v="Stølandsmyra" />
		<tag k="natural" v="wetland" />
		<tag k="ssr:stedsnr" v="234695" />
	</node>
	<node id="-751704" lat="69.0677999996" lon="16.8538416711">
		<tag k="name" v="Hesjeskogen" />
		<tag k="place" v="locality" />
		<tag k="ssr:stedsnr" v="172996" />
	</node>
	<node id="-752825" lat="69.2537250034" lon="17.5882027651">
		<tag k="name" v="Litjenesmyra" />
		<tag k="natural" v="wetland" />
		<tag k="ssr:stedsnr" v="842656" />
	</node>
	<node id="-751184" lat="69.1364083344" lon="17.2601972194">
		<tag k="name" v="Blåfjellkollmyra" />
		<tag k="natural" v="wetland" />
		<tag k="ssr:stedsnr" v="381213" />
	</node>
	<node id="-751544" lat="69.2222111072" lon="17.6067972103">
		<tag k="name" v="Tennemyra" />
		<tag k="natural" v="wetland" />
		<tag k="ssr:stedsnr" v="112548" />
	</node>
	<node id="-751672" lat="69.119261114" lon="17.2952000032">
		<tag k="name" v="Preikestolen" />
		<tag k="natural" v="stone" />
		<tag k="ssr:stedsnr" v="172497" />
	</node>
	<node id="-752711" lat="69.1259861135" lon="17.248119446">
		<tag k="name" v="Stormyra" />
		<tag k="natural" v="wetland" />
		<tag k="ssr:stedsnr" v="806207" />
	</node>
	<node id="-751168" lat="69.261777778" lon="17.6500694412">
		<tag k="name" v="Rødmyra" />
		<tag k="natural" v="wetland" />
		<tag k="ssr:stedsnr" v="356638" />
	</node>
	<node id="-752191" lat="69.0254694444" lon="17.1772472178">
		<tag k="name" v="Mellabreivikmyra" />
		<tag k="natural" v="wetland" />
		<tag k="ssr:stedsnr" v="537660" />
	</node>
	<node id="-751677" lat="69.1336555595" lon="17.2877499947">
		<tag k="name" v="Stormyra" />
		<tag k="natural" v="wetland" />
		<tag k="ssr:stedsnr" v="172536" />
	</node>
	<node id="-751164" lat="69.2082194411" lon="17.6724722172">
		<tag k="name" v="Øverlandsmyra" />
		<tag k="natural" v="wetland" />
		<tag k="ssr:stedsnr" v="356614" />
	</node>
	<node id="-751162" lat="69.0600250016" lon="17.1052472207">
		<tag k="name" v="Tranmyra" />
		<tag k="natural" v="wetland" />
		<tag k="ssr:stedsnr" v="355683" />
	</node>
	<node id="-752696" lat="69.0345222225" lon="17.1836583334">
		<tag k="name" v="Skjellmyra" />
		<tag k="natural" v="wetland" />
		<tag k="ssr:stedsnr" v="780633" />
	</node>
	<node id="-752182" lat="69.2094250014" lon="17.6054944504">
		<tag k="name" v="Stormyra" />
		<tag k="natural" v="wetland" />
		<tag k="ssr:stedsnr" v="537557" />
	</node>
	<node id="-752692" lat="69.0472944398" lon="17.1276916695">
		<tag k="name" v="Halsekråmyra" />
		<tag k="natural" v="wetland" />
		<tag k="ssr:stedsnr" v="780582" />
	</node>
	<node id="-751155" lat="69.0777472242" lon="16.9048388824">
		<tag k="name" v="Blåuran" />
		<tag k="natural" v="scree" />
		<tag k="ssr:stedsnr" v="355557" />
	</node>
	<node id="-752173" lat="69.228766665" lon="17.6041694457">
		<tag k="name" v="Stormyra" />
		<tag k="natural" v="wetland" />
		<tag k="ssr:stedsnr" v="537514" />
	</node>
	<node id="-751145" lat="69.0146166645" lon="17.0705833379">
		<tag k="name" v="Tollesmyrholtan" />
		<tag k="place" v="locality" />
		<tag k="ssr:stedsnr" v="355497" />
	</node>
	<node id="-752675" lat="69.1354805577" lon="17.0857583294">
		<tag k="name" v="Myran" />
		<tag k="natural" v="wetland" />
		<tag k="ssr:stedsnr" v="780335" />
	</node>
	<node id="-751136" lat="69.0610416704" lon="16.8339833266">
		<tag k="name" v="Langmyra" />
		<tag k="natural" v="wetland" />
		<tag k="ssr:stedsnr" v="354940" />
	</node>
	<node id="-752666" lat="69.0580194478" lon="16.8439388975">
		<tag k="name" v="Kariura" />
		<tag k="natural" v="scree" />
		<tag k="ssr:stedsnr" v="779994" />
	</node>
	<node id="-751121" lat="69.2373944483" lon="17.6294388833">
		<tag k="name" v="Langmyra" />
		<tag k="natural" v="wetland" />
		<tag k="ssr:stedsnr" v="354565" />
	</node>
	<node id="-752655" lat="69.0646666666" lon="16.9056333329">
		<tag k="name" v="Bjørnskogholtet" />
		<tag k="place" v="locality" />
		<tag k="ssr:stedsnr" v="779915" />
	</node>
	<node id="-752134" lat="69.0757444484" lon="17.0385527833">
		<tag k="name" v="Frovågmyra" />
		<tag k="natural" v="wetland" />
		<tag k="ssr:stedsnr" v="536504" />
	</node>
	<node id="-752645" lat="69.1974222257" lon="17.5425500048">
		<tag k="name" v="Kolskogen" />
		<tag k="place" v="locality" />
		<tag k="ssr:stedsnr" v="779580" />
	</node>
	<node id="-752643" lat="69.2082861121" lon="17.5319222307">
		<tag k="name" v="Skarmyra" />
		<tag k="natural" v="wetland" />
		<tag k="ssr:stedsnr" v="779555" />
	</node>
	<node id="-751105" lat="69.201813887" lon="17.8432277654">
		<tag k="name" v="Alettamyra" />
		<tag k="natural" v="wetland" />
		<tag k="ssr:stedsnr" v="351957" />
	</node>
</osm>
