<?xml version="1.0" encoding="UTF-8"?>
<osm generator="osmapis" version="0.6">
	<node id="-751616" lat="69.1799722224" lon="17.6423638807">
		<tag k="name" v="Bjørndragarvatnet" />
		<tag k="natural" v="water" />
		<tag k="ssr:stedsnr" v="901998" />
	</node>
	<node id="-751103" lat="69.1839138871" lon="17.6966944397">
		<tag k="name" v="Krokelva" />
		<tag k="ssr:stedsnr" v="658989" />
		<tag k="waterway" v="stream" />
	</node>
	<node id="-751102" lat="69.1768833364" lon="17.6587888994">
		<tag k="name" v="Kringelvatnet" />
		<tag k="natural" v="water" />
		<tag k="ssr:stedsnr" v="658983" />
	</node>
	<node id="-750589" lat="69.2012861074" lon="17.6289638786">
		<tag k="alt_name" v="Litlevatnet" />
		<tag k="name" v="Litjevatnet" />
		<tag k="natural" v="water" />
		<tag k="ssr:stedsnr" v="261481" />
		<tag k="water" v="lake" />
	</node>
	<node id="-751100" lat="69.2074194461" lon="17.4827916627">
		<tag k="name" v="Gammbekken" />
		<tag k="ssr:stedsnr" v="658919" />
		<tag k="waterway" v="stream" />
	</node>
	<node id="-750587" lat="69.2398027787" lon="17.5473333424">
		<tag k="alt_name" v="Fisketjørna" />
		<tag k="name" v="Fisketjønna" />
		<tag k="natural" v="water" />
		<tag k="ssr:stedsnr" v="261434" />
	</node>
	<node id="-751609" lat="69.1823111078" lon="17.3843861102">
		<tag k="name" v="Kvisla" />
		<tag k="natural" v="strait" />
		<tag k="ssr:stedsnr" v="901843" />
	</node>
	<node id="-750069" lat="69.1654749994" lon="17.646483319">
		<tag k="alt_name" v="Mølndalsvatnet" />
		<tag k="name" v="Mølnedalsvatnet" />
		<tag k="natural" v="water" />
		<tag k="ssr:stedsnr" v="18398" />
	</node>
	<node id="-750068" lat="69.2587833303" lon="17.528316674">
		<tag k="name" v="Svanelva - Njukčajohka" />
		<tag k="name:no" v="Svanelva" />
		<tag k="name:se" v="Njukčajohka" />
		<tag k="ssr:stedsnr" v="18393" />
		<tag k="waterway" v="river" />
	</node>
	<node id="-751091" lat="69.0600444406" lon="17.1145805645">
		<tag k="name" v="Litjehalsvatnet" />
		<tag k="natural" v="water" />
		<tag k="ssr:stedsnr" v="658710" />
	</node>
	<node id="-750578" lat="69.1593527764" lon="17.2425638906">
		<tag k="name" v="Langvatnet" />
		<tag k="natural" v="water" />
		<tag k="ssr:stedsnr" v="261097" />
		<tag k="water" v="lake" />
	</node>
	<node id="-751089" lat="69.1789666642" lon="17.8139333346">
		<tag k="name" v="Salthågvatnet" />
		<tag k="natural" v="water" />
		<tag k="ssr:stedsnr" v="658707" />
	</node>
	<node id="-750576" lat="69.1433388862" lon="17.3152583224">
		<tag k="name" v="Skreddarelva" />
		<tag k="ssr:stedsnr" v="260298" />
		<tag k="waterway" v="stream" />
	</node>
	<node id="-750062" lat="69.1218555574" lon="17.2359250033">
		<tag k="name" v="Vassvikelva" />
		<tag k="ssr:stedsnr" v="18192" />
		<tag k="waterway" v="river" />
	</node>
	<node id="-750061" lat="69.1328750029" lon="17.1268805539">
		<tag k="name" v="Durmålsvatnet" />
		<tag k="natural" v="water" />
		<tag k="ssr:stedsnr" v="18174" />
	</node>
	<node id="-751082" lat="69.0865583375" lon="17.0361444494">
		<tag k="name" v="Sørbotnelva" />
		<tag k="ssr:stedsnr" v="658628" />
		<tag k="waterway" v="stream" />
	</node>
	<node id="-751081" lat="69.0827944423" lon="17.0067916551">
		<tag k="name" v="Torvhallneset" />
		<tag k="natural" v="cape" />
		<tag k="ssr:stedsnr" v="658626" />
	</node>
	<node id="-750568" lat="69.1274944468" lon="17.0916388927">
		<tag k="alt_name" v="Holmevatnet" />
		<tag k="name" v="Holmenvatnet" />
		<tag k="natural" v="water" />
		<tag k="ssr:stedsnr" v="260241" />
	</node>
	<node id="-751079" lat="69.0912611083" lon="17.0252527754">
		<tag k="name" v="Skogneset" />
		<tag k="natural" v="cape" />
		<tag k="ssr:stedsnr" v="658591" />
	</node>
	<node id="-751077" lat="69.2008388863" lon="17.5825444402">
		<tag k="name" v="Straumhølla" />
		<tag k="place" v="locality" />
		<tag k="ssr:stedsnr" v="658585" />
	</node>
	<node id="-751014" lat="69.228433336" lon="17.3078833449">
		<tag k="name" v="Kaperelva" />
		<tag k="ssr:stedsnr" v="624205" />
		<tag k="waterway" v="stream" />
	</node>
	<node id="-751074" lat="69.2193777794" lon="17.6636055601">
		<tag k="name" v="Litjeelva" />
		<tag k="ssr:stedsnr" v="658563" />
		<tag k="waterway" v="stream" />
	</node>
	<node id="-750561" lat="69.073538889" lon="16.8682083309">
		<tag k="name" v="Stillevatnet" />
		<tag k="natural" v="water" />
		<tag k="ssr:stedsnr" v="260085" />
	</node>
	<node id="-751072" lat="69.1168999968" lon="17.025666657">
		<tag k="name" v="Stibergelva" />
		<tag k="ssr:stedsnr" v="658551" />
		<tag k="waterway" v="stream" />
	</node>
	<node id="-750416" lat="69.1875472248" lon="17.6967388832">
		<tag k="name" v="Langholmkjosen" />
		<tag k="natural" v="bay" />
		<tag k="ssr:stedsnr" v="174698" />
	</node>
	<node id="-751069" lat="69.1557833366" lon="17.6365861078">
		<tag k="name" v="Vestre heimvatn" />
		<tag k="natural" v="water" />
		<tag k="ssr:stedsnr" v="658532" />
	</node>
	<node id="-750185" lat="69.2364388925" lon="17.4535555635">
		<tag k="alt_name" v="Kaperfoss" />
		<tag k="name" v="Kaperfossen" />
		<tag k="natural" v="waterfall" />
		<tag k="ssr:stedsnr" v="79394" />
	</node>
	<node id="-751579" lat="69.0925000031" lon="16.9445305677">
		<tag k="name" v="Iver-Lundneset" />
		<tag k="natural" v="cape" />
		<tag k="ssr:stedsnr" v="901594" />
	</node>
	<node id="-751063" lat="69.1707333307" lon="17.6443472302">
		<tag k="name" v="Bjørkkollvatnet" />
		<tag k="natural" v="water" />
		<tag k="ssr:stedsnr" v="658501" />
	</node>
	<node id="-750548" lat="69.1928194455" lon="17.7142805611">
		<tag k="name" v="Kiholmen" />
		<tag k="place" v="islet" />
		<tag k="ssr:stedsnr" v="234668" />
	</node>
	<node id="-750230" lat="69.2498694466" lon="17.6354555496">
		<tag k="name" v="Kjosneset" />
		<tag k="natural" v="cape" />
		<tag k="ssr:stedsnr" v="113628" />
	</node>
	<node id="-751566" lat="69.1637555593" lon="17.5777500097">
		<tag k="name" v="Gammelva" />
		<tag k="ssr:stedsnr" v="901499" />
		<tag k="waterway" v="stream" />
	</node>
	<node id="-751105" lat="69.196083334" lon="17.6540388753">
		<tag k="name" v="Maritdammen" />
		<tag k="natural" v="water" />
		<tag k="ssr:stedsnr" v="659606" />
		<tag k="water" v="lake" />
	</node>
	<node id="-749815" lat="69.2285027784" lon="17.5913194416">
		<tag k="name" v="Aurveita" />
		<tag k="ssr:stedsnr" v="355498" />
		<tag k="waterway" v="stream" />
	</node>
	<node id="-751048" lat="69.2171527771" lon="17.7085694427">
		<tag k="name" v="Langvatnet" />
		<tag k="natural" v="water" />
		<tag k="ssr:stedsnr" v="654586" />
	</node>
	<node id="-751046" lat="69.2009777814" lon="17.7115472187">
		<tag k="name" v="Mølnelva" />
		<tag k="ssr:stedsnr" v="654551" />
		<tag k="waterway" v="stream" />
	</node>
	<node id="-751556" lat="69.1394083354" lon="17.0903138903">
		<tag k="name" v="Tenneneset" />
		<tag k="natural" v="cape" />
		<tag k="ssr:stedsnr" v="901377" />
	</node>
	<node id="-751555" lat="69.133611111" lon="17.0846749906">
		<tag k="name" v="Middagselva" />
		<tag k="ssr:stedsnr" v="901376" />
		<tag k="waterway" v="stream" />
	</node>
	<node id="-750529" lat="69.2537805559" lon="17.5328972317">
		<tag k="name" v="Storfossen" />
		<tag k="natural" v="waterfall" />
		<tag k="ssr:stedsnr" v="234639" />
	</node>
	<node id="-750527" lat="69.2512416641" lon="17.5902861198">
		<tag k="name" v="Litjeneset" />
		<tag k="natural" v="cape" />
		<tag k="ssr:stedsnr" v="234632" />
	</node>
	<node id="-750104" lat="69.279927775" lon="17.5196833202">
		<tag k="name" v="Steinhølla" />
		<tag k="place" v="locality" />
		<tag k="ssr:stedsnr" v="51919" />
	</node>
	<node id="-750593" lat="69.2025583338" lon="17.8348222116">
		<tag k="alt_name" v="Forravatnet" />
		<tag k="name" v="Forevatnet" />
		<tag k="natural" v="water" />
		<tag k="ssr:stedsnr" v="261507" />
	</node>
	<node id="-751032" lat="69.2250138925" lon="17.4347222093">
		<tag k="alt_name" v="Vardnesvatnet, tredje" />
		<tag k="fixme" v="multiple name tags, choose one and add the other to alt_name" />
		<tag k="name" v="Trollvatnet;Tredje Vardnesvatnet" />
		<tag k="natural" v="water" />
		<tag k="ssr:stedsnr" v="625406" />
	</node>
	<node id="-751029" lat="69.2191833295" lon="17.6057777684">
		<tag k="fixme" v="multiple name tags, choose one and add the other to alt_name" />
		<tag k="name" v="Teinelva;Tenna" />
		<tag k="ssr:stedsnr" v="625378" />
		<tag k="waterway" v="river" />
	</node>
	<node id="-750516" lat="69.0764277768" lon="17.0466750028">
		<tag k="name" v="Limoelva" />
		<tag k="ssr:stedsnr" v="234267" />
		<tag k="waterway" v="stream" />
	</node>
	<node id="-750515" lat="69.1705972174" lon="17.7904555606">
		<tag k="name" v="Lomtjønna" />
		<tag k="natural" v="water" />
		<tag k="ssr:stedsnr" v="234463" />
	</node>
	<node id="-751025" lat="69.2607583349" lon="17.5611666738">
		<tag k="name" v="Lamoelva" />
		<tag k="ssr:stedsnr" v="624593" />
		<tag k="waterway" v="stream" />
	</node>
	<node id="-750695" lat="69.2112638855" lon="17.3327361071">
		<tag k="name" v="Floan" />
		<tag k="place" v="locality" />
		<tag k="ssr:stedsnr" v="442156" />
	</node>
	<node id="-750152" lat="69.2477333298" lon="17.6417500065">
		<tag k="name" v="Hundeneset" />
		<tag k="natural" v="cape" />
		<tag k="ssr:stedsnr" v="53679" />
	</node>
	<node id="-751021" lat="69.1886972185" lon="17.6564583233">
		<tag k="alt_name" v="Stengselselva" />
		<tag k="name" v="Stengselelva" />
		<tag k="ssr:stedsnr" v="624476" />
		<tag k="waterway" v="stream" />
	</node>
	<node id="-751020" lat="69.1509388849" lon="17.098488883">
		<tag k="name" v="Stordalselva" />
		<tag k="ssr:stedsnr" v="624249" />
		<tag k="waterway" v="stream" />
	</node>
	<node id="-751019" lat="69.1466277753" lon="17.2380583339">
		<tag k="name" v="Blåfjellkollvatnet" />
		<tag k="natural" v="water" />
		<tag k="ssr:stedsnr" v="624248" />
	</node>
	<node id="-751017" lat="69.1806833327" lon="17.4151222187">
		<tag k="fixme" v="multiple name tags, choose one and add the other to alt_name" />
		<tag k="name" v="Lamyrtjønna;Stortjørna" />
		<tag k="natural" v="water" />
		<tag k="ssr:stedsnr" v="624231" />
	</node>
	<node id="-751527" lat="69.2529361095" lon="17.6432694477">
		<tag k="fixme" v="multiple name tags, choose one and add the other to alt_name" />
		<tag k="name" v="Almenningsvatnet;Sørlivatnet" />
		<tag k="natural" v="water" />
		<tag k="ssr:stedsnr" v="868421" />
		<tag k="water" v="lake" />
	</node>
	<node id="-751526" lat="69.2208111143" lon="17.485811118">
		<tag k="name" v="Vardnesvatnet" />
		<tag k="natural" v="water" />
		<tag k="ssr:stedsnr" v="868393" />
		<tag k="water" v="lake" />
	</node>
	<node id="-751525" lat="69.2048750035" lon="17.434558334">
		<tag k="fixme" v="multiple name tags, choose one and add the other to alt_name" />
		<tag k="name" v="Mølnelva;Smalelva" />
		<tag k="ssr:stedsnr" v="868372" />
		<tag k="waterway" v="stream" />
	</node>
	<node id="-750496" lat="69.1781944418" lon="17.8319999939">
		<tag k="name" v="Husvatnet" />
		<tag k="natural" v="water" />
		<tag k="ssr:stedsnr" v="233740" />
	</node>
	<node id="-751517" lat="69.2261583339" lon="17.3948416668">
		<tag k="name" v="Trolldalselva" />
		<tag k="ssr:stedsnr" v="867210" />
		<tag k="waterway" v="stream" />
	</node>
	<node id="-750492" lat="69.0974833307" lon="16.9339916692">
		<tag k="name" v="Sløkjebekkan" />
		<tag k="ssr:stedsnr" v="233621" />
		<tag k="waterway" v="stream" />
	</node>
	<node id="-749976" lat="69.1879083334" lon="17.7120805479">
		<tag k="name" v="Storholmen" />
		<tag k="place" v="islet" />
		<tag k="ssr:stedsnr" v="477696" />
	</node>
	<node id="-749969" lat="69.2051666652" lon="17.6817222301">
		<tag k="name" v="Skjellelva" />
		<tag k="ssr:stedsnr" v="477625" />
		<tag k="waterway" v="stream" />
	</node>
	<node id="-751504" lat="69.0686027766" lon="17.1428583302">
		<tag k="name" v="Lakselva" />
		<tag k="ssr:stedsnr" v="867040" />
		<tag k="waterway" v="stream" />
	</node>
	<node id="-751503" lat="69.0632305559" lon="16.8357472216">
		<tag k="name" v="Stallbuvatnet" />
		<tag k="natural" v="water" />
		<tag k="ssr:stedsnr" v="867033" />
	</node>
	<node id="-751497" lat="69.0650805547" lon="16.9118416685">
		<tag k="name" v="Buvikelva" />
		<tag k="ssr:stedsnr" v="867001" />
		<tag k="waterway" v="stream" />
	</node>
	<node id="-750471" lat="69.2028138917" lon="17.7388111045">
		<tag k="name" v="Sørkjosen" />
		<tag k="natural" v="bay" />
		<tag k="ssr:stedsnr" v="229537" />
	</node>
	<node id="-751529" lat="69.1678916652" lon="17.6015888856">
		<tag k="name" v="Skatvikvatnet" />
		<tag k="natural" v="water" />
		<tag k="ssr:stedsnr" v="868432" />
		<tag k="water" v="lake" />
	</node>
	<node id="-751492" lat="69.1893805548" lon="17.7103944321">
		<tag k="name" v="Verholmen" />
		<tag k="place" v="islet" />
		<tag k="ssr:stedsnr" v="842687" />
	</node>
	<node id="-750979" lat="69.0778611128" lon="16.9942416543">
		<tag k="name" v="Åbukta" />
		<tag k="natural" v="bay" />
		<tag k="ssr:stedsnr" v="598586" />
	</node>
	<node id="-750977" lat="69.2185555584" lon="17.6668666747">
		<tag k="name" v="Første gammelvetelv" />
		<tag k="ssr:stedsnr" v="598559" />
		<tag k="waterway" v="stream" />
	</node>
	<node id="-750216" lat="69.2143666649" lon="17.498997213">
		<tag k="name" v="Storhølla" />
		<tag k="place" v="locality" />
		<tag k="ssr:stedsnr" v="112914" />
	</node>
	<node id="-750974" lat="69.1658888849" lon="17.5945416632">
		<tag k="name" v="Teinan" />
		<tag k="natural" v="bay" />
		<tag k="ssr:stedsnr" v="597988" />
	</node>
	<node id="-751484" lat="69.0787000024" lon="16.9674305501">
		<tag k="name" v="Lillelva" />
		<tag k="ssr:stedsnr" v="841609" />
		<tag k="waterway" v="stream" />
	</node>
	<node id="-749947" lat="69.1767944409" lon="17.8254833307">
		<tag k="name" v="Pilevatnet" />
		<tag k="natural" v="water" />
		<tag k="ssr:stedsnr" v="476707" />
	</node>
	<node id="-751482" lat="69.2201694443" lon="17.6576861139">
		<tag k="name" v="Sæterelva" />
		<tag k="ssr:stedsnr" v="841560" />
		<tag k="waterway" v="stream" />
	</node>
	<node id="-751480" lat="69.0172166697" lon="17.1264083269">
		<tag k="name" v="Gravarveita" />
		<tag k="ssr:stedsnr" v="841551" />
		<tag k="waterway" v="stream" />
	</node>
	<node id="-749943" lat="69.0341638855" lon="17.0588472081">
		<tag k="name" v="Torvedamelva" />
		<tag k="ssr:stedsnr" v="476647" />
		<tag k="waterway" v="stream" />
	</node>
	<node id="-751478" lat="69.0191611126" lon="17.0820277862">
		<tag k="name" v="Rødbergelva" />
		<tag k="ssr:stedsnr" v="841534" />
		<tag k="waterway" v="stream" />
	</node>
	<node id="-750569" lat="69.1248694414" lon="17.2661249857">
		<tag k="name" v="Vassvikvatnet" />
		<tag k="natural" v="water" />
		<tag k="ssr:stedsnr" v="260249" />
	</node>
	<node id="-750963" lat="69.0616861088" lon="17.1110750067">
		<tag k="name" v="Halsvatnet" />
		<tag k="natural" v="water" />
		<tag k="ssr:stedsnr" v="597717" />
	</node>
	<node id="-749937" lat="69.0990388889" lon="16.9542083374">
		<tag k="name" v="Finnelvskjæran" />
		<tag k="place" v="islet" />
		<tag k="ssr:stedsnr" v="476567" />
	</node>
	<node id="-751472" lat="69.1670777745" lon="17.5919361085">
		<tag k="name" v="Krokelva" />
		<tag k="ssr:stedsnr" v="841481" />
		<tag k="waterway" v="stream" />
	</node>
	<node id="-751176" lat="69.1613972213" lon="17.5793888821">
		<tag k="name" v="Storelva" />
		<tag k="ssr:stedsnr" v="719461" />
		<tag k="waterway" v="stream" />
	</node>
	<node id="-750653" lat="69.1183361158" lon="17.0248416594">
		<tag k="name" v="Botnelva" />
		<tag k="ssr:stedsnr" v="416459" />
		<tag k="waterway" v="stream" />
	</node>
	<node id="-751468" lat="69.140833334" lon="17.0854388844">
		<tag k="name" v="Bunkelva" />
		<tag k="ssr:stedsnr" v="841367" />
		<tag k="waterway" v="stream" />
	</node>
	<node id="-751467" lat="69.1116666697" lon="17.1130305485">
		<tag k="name" v="Finnskarelva" />
		<tag k="ssr:stedsnr" v="841332" />
		<tag k="waterway" v="stream" />
	</node>
	<node id="-750442" lat="69.0964444471" lon="17.0266138947">
		<tag k="fixme" v="multiple name tags, choose one and add the other to alt_name" />
		<tag k="name" v="Rødsandelva;Åelva" />
		<tag k="ssr:stedsnr" v="200034" />
		<tag k="waterway" v="stream" />
	</node>
	<node id="-751465" lat="69.1072194438" lon="17.0775333314">
		<tag k="name" v="Neset" />
		<tag k="natural" v="cape" />
		<tag k="ssr:stedsnr" v="841315" />
	</node>
	<node id="-750140" lat="69.0869166652" lon="17.0216361142">
		<tag k="name" v="Hellarneset" />
		<tag k="natural" v="cape" />
		<tag k="ssr:stedsnr" v="52584" />
	</node>
	<node id="-750505" lat="69.0859222186" lon="16.7879027694">
		<tag k="name" v="Oterneselva" />
		<tag k="ssr:stedsnr" v="233910" />
		<tag k="waterway" v="stream" />
	</node>
	<node id="-751460" lat="69.1821749989" lon="17.6601166726">
		<tag k="name" v="Langonetta" />
		<tag k="natural" v="water" />
		<tag k="ssr:stedsnr" v="840989" />
	</node>
	<node id="-751456" lat="69.2667277766" lon="17.5233666596">
		<tag k="name" v="Nedre Svåan" />
		<tag k="place" v="locality" />
		<tag k="ssr:stedsnr" v="840957" />
	</node>
	<node id="-750943" lat="69.1202138883" lon="17.0391277698">
		<tag k="name" v="Sanden" />
		<tag k="natural" v="beach" />
		<tag k="ssr:stedsnr" v="597511" />
	</node>
	<node id="-750590" lat="69.1893138891" lon="17.7926777745">
		<tag k="name" v="Vintervatnet" />
		<tag k="natural" v="water" />
		<tag k="ssr:stedsnr" v="261485" />
		<tag k="water" v="lake" />
	</node>
	<node id="-751453" lat="69.0635277782" lon="16.8204194537">
		<tag k="name" v="Mellavikvatnet" />
		<tag k="natural" v="water" />
		<tag k="ssr:stedsnr" v="840932" />
	</node>
	<node id="-750940" lat="69.131852779" lon="17.2715805474">
		<tag k="name" v="Lomtjønna" />
		<tag k="natural" v="water" />
		<tag k="ssr:stedsnr" v="597482" />
	</node>
	<node id="-749882" lat="69.2248305509" lon="17.6720361148">
		<tag k="name" v="Djupelva" />
		<tag k="ssr:stedsnr" v="382417" />
		<tag k="waterway" v="stream" />
	</node>
	<node id="-751449" lat="69.2112777734" lon="17.5102388887">
		<tag k="name" v="Nedre Likskarelv" />
		<tag k="ssr:stedsnr" v="840916" />
		<tag k="waterway" v="stream" />
	</node>
	<node id="-750308" lat="69.1009333369" lon="17.0056500056">
		<tag k="name" v="Steinskardelva" />
		<tag k="ssr:stedsnr" v="139220" />
		<tag k="waterway" v="stream" />
	</node>
	<node id="-750944" lat="69.1672416667" lon="17.6384249877">
		<tag k="name" v="Bjørkkollvatnet" />
		<tag k="natural" v="water" />
		<tag k="ssr:stedsnr" v="597513" />
	</node>
	<node id="-749836" lat="69.1995111111" lon="17.648094448">
		<tag k="name" v="Hundelva" />
		<tag k="ssr:stedsnr" v="356623" />
		<tag k="waterway" v="stream" />
	</node>
	<node id="-750419" lat="69.2492250041" lon="17.673216671">
		<tag k="name" v="Eideneset" />
		<tag k="natural" v="cape" />
		<tag k="ssr:stedsnr" v="174707" />
	</node>
	<node id="-751442" lat="69.1685444436" lon="17.3998999864">
		<tag k="name" v="Gammelsæterelva" />
		<tag k="ssr:stedsnr" v="840863" />
		<tag k="waterway" v="stream" />
	</node>
	<node id="-750563" lat="69.0741805592" lon="16.8061305554">
		<tag k="name" v="Olfinnvikelva" />
		<tag k="ssr:stedsnr" v="260133" />
		<tag k="waterway" v="stream" />
	</node>
	<node id="-751440" lat="69.1819833309" lon="17.3879583298">
		<tag k="name" v="Holman" />
		<tag k="place" v="islet" />
		<tag k="ssr:stedsnr" v="840852" />
	</node>
	<node id="-750414" lat="69.1858277771" lon="17.7125527671">
		<tag k="name" v="Litjekjosen" />
		<tag k="natural" v="bay" />
		<tag k="ssr:stedsnr" v="174690" />
	</node>
	<node id="-750413" lat="69.2513305532" lon="17.6119388808">
		<tag k="name" v="Kuskemokjosen" />
		<tag k="natural" v="bay" />
		<tag k="ssr:stedsnr" v="174688" />
	</node>
	<node id="-750412" lat="69.252322225" lon="17.6217027823">
		<tag k="name" v="Åneneset" />
		<tag k="natural" v="cape" />
		<tag k="ssr:stedsnr" v="174686" />
	</node>
	<node id="-750921" lat="69.2315916641" lon="17.7117972264">
		<tag k="name" v="Austerelva" />
		<tag k="ssr:stedsnr" v="593544" />
		<tag k="waterway" v="stream" />
	</node>
	<node id="-750920" lat="69.2038972254" lon="17.7633361206">
		<tag k="name" v="Fiskevassbekken" />
		<tag k="ssr:stedsnr" v="593513" />
		<tag k="waterway" v="stream" />
	</node>
	<node id="-751431" lat="69.1035333375" lon="16.9407361056">
		<tag k="name" v="Holman" />
		<tag k="place" v="islet" />
		<tag k="ssr:stedsnr" v="840573" />
	</node>
	<node id="-749793" lat="69.1875749976" lon="17.8407416602">
		<tag k="name" v="Fiskevatnet" />
		<tag k="natural" v="water" />
		<tag k="ssr:stedsnr" v="354720" />
	</node>
	<node id="-749891" lat="69.2010583324" lon="17.7617027794">
		<tag k="name" v="Fiskevatnet" />
		<tag k="natural" v="water" />
		<tag k="ssr:stedsnr" v="382491" />
	</node>
	<node id="-750402" lat="69.0943194416" lon="17.0200833325">
		<tag k="name" v="Ausa" />
		<tag k="place" v="locality" />
		<tag k="ssr:stedsnr" v="173540" />
	</node>
	<node id="-749707" lat="69.1847944481" lon="17.6724499928">
		<tag k="name" v="Storhøllen" />
		<tag k="place" v="locality" />
		<tag k="ssr:stedsnr" v="294990" />
	</node>
	<node id="-751424" lat="69.1676472237" lon="17.6348444409">
		<tag k="name" v="Gardsvikvatnet" />
		<tag k="natural" v="water" />
		<tag k="ssr:stedsnr" v="840527" />
	</node>
	<node id="-750908" lat="69.2676111086" lon="17.4734083347">
		<tag k="name" v="Strompvatnan" />
		<tag k="natural" v="water" />
		<tag k="ssr:stedsnr" v="564593" />
	</node>
	<node id="-750394" lat="69.0478277743" lon="17.1503333296">
		<tag k="name" v="Motjønna" />
		<tag k="natural" v="water" />
		<tag k="ssr:stedsnr" v="173606" />
	</node>
	<node id="-749881" lat="69.2371611073" lon="17.7104222238">
		<tag k="name" v="Trollbuvatnet - Ruollajávri" />
		<tag k="name:no" v="Trollbuvatnet" />
		<tag k="name:se" v="Ruollajávri" />
		<tag k="natural" v="water" />
		<tag k="ssr:stedsnr" v="382410" />
		<tag k="water" v="lake" />
	</node>
	<node id="-751748" lat="69.2029194401" lon="17.6290361104">
		<tag k="name" v="Langholmen" />
		<tag k="place" v="islet" />
		<tag k="ssr:stedsnr" v="963659" />
	</node>
	<node id="-750901" lat="69.2323833348" lon="17.5671499864">
		<tag k="alt_name" v="Langevatnet" />
		<tag k="name" v="Langvatnet" />
		<tag k="natural" v="water" />
		<tag k="ssr:stedsnr" v="564425" />
		<tag k="water" v="lake" />
	</node>
	<node id="-750047" lat="69.090388893" lon="17.1989499944">
		<tag k="name" v="Sandelva" />
		<tag k="ssr:stedsnr" v="18041" />
		<tag k="waterway" v="stream" />
	</node>
	<node id="-750728" lat="69.2356277785" lon="17.6737694479">
		<tag k="name" v="Bjørnvadet" />
		<tag k="place" v="locality" />
		<tag k="ssr:stedsnr" v="443428" />
	</node>
	<node id="-750893" lat="69.2010749971" lon="17.5595055631">
		<tag k="name" v="Langvasselva" />
		<tag k="ssr:stedsnr" v="564090" />
		<tag k="waterway" v="river" />
	</node>
	<node id="-751404" lat="69.265577778" lon="17.6017499932">
		<tag k="alt_name" v="Sølvforselva" />
		<tag k="name" v="Sølvfosselva" />
		<tag k="ssr:stedsnr" v="807583" />
		<tag k="waterway" v="stream" />
	</node>
	<node id="-750891" lat="69.1537611119" lon="17.2603805642">
		<tag k="name" v="Storelvvatnet" />
		<tag k="natural" v="water" />
		<tag k="ssr:stedsnr" v="563241" />
	</node>
	<node id="-751402" lat="69.1884611106" lon="17.7574805635">
		<tag k="name" v="Langevatnet" />
		<tag k="natural" v="water" />
		<tag k="ssr:stedsnr" v="807463" />
	</node>
	<node id="-750888" lat="69.1857888922" lon="17.2304999982">
		<tag k="name" v="Selfjordvatnet" />
		<tag k="natural" v="water" />
		<tag k="ssr:stedsnr" v="563223" />
		<tag k="water" v="lake" />
	</node>
	<node id="-749863" lat="69.0611527729" lon="16.8677027869">
		<tag k="name" v="Tømmervikelva" />
		<tag k="ssr:stedsnr" v="382028" />
		<tag k="waterway" v="stream" />
	</node>
	<node id="-751398" lat="69.2447638895" lon="17.5084111091">
		<tag k="name" v="Kaperelva" />
		<tag k="ssr:stedsnr" v="807418" />
		<tag k="waterway" v="river" />
	</node>
	<node id="-751397" lat="69.2314250002" lon="17.5933611117">
		<tag k="alt_name" v="Litlevatnet" />
		<tag k="name" v="Litjevatnet" />
		<tag k="natural" v="water" />
		<tag k="ssr:stedsnr" v="807407" />
	</node>
	<node id="-750883" lat="69.1391805535" lon="17.1863666552">
		<tag k="name" v="Reinlivatnet" />
		<tag k="natural" v="water" />
		<tag k="ssr:stedsnr" v="563194" />
	</node>
	<node id="-749858" lat="69.1753361123" lon="17.3908388776">
		<tag k="alt_name" v="Gammelsæterfossen" />
		<tag k="name" v="Gammalsæterfossen" />
		<tag k="natural" v="waterfall" />
		<tag k="ssr:stedsnr" v="381255" />
	</node>
	<node id="-751067" lat="69.159458336" lon="17.6397777719">
		<tag k="name" v="Krokelva" />
		<tag k="ssr:stedsnr" v="658526" />
		<tag k="waterway" v="stream" />
	</node>
	<node id="-750880" lat="69.187716668" lon="17.363072231">
		<tag k="alt_name" v="Holmelva" />
		<tag k="name" v="Holmeelva" />
		<tag k="ssr:stedsnr" v="563153" />
		<tag k="waterway" v="river" />
	</node>
	<node id="-749855" lat="69.1304833362" lon="17.0834694405">
		<tag k="name" v="Heiavatnet" />
		<tag k="natural" v="water" />
		<tag k="ssr:stedsnr" v="381221" />
	</node>
	<node id="-750366" lat="69.2060138895" lon="17.4974833333">
		<tag k="name" v="Skreddarelva" />
		<tag k="ssr:stedsnr" v="172938" />
		<tag k="waterway" v="stream" />
	</node>
	<node id="-750213" lat="69.109572225" lon="16.9469527684">
		<tag k="name" v="Botn" />
		<tag k="natural" v="bay" />
		<tag k="ssr:stedsnr" v="112585" />
	</node>
	<node id="-750364" lat="69.1992472201" lon="17.4588583254">
		<tag k="name" v="Sagfossen" />
		<tag k="natural" v="waterfall" />
		<tag k="ssr:stedsnr" v="172937" />
	</node>
	<node id="-751387" lat="69.0886388874" lon="17.0232777674">
		<tag k="name" v="Åvatnet" />
		<tag k="natural" v="water" />
		<tag k="ssr:stedsnr" v="807064" />
		<tag k="water" v="lake" />
	</node>
	<node id="-749847" lat="69.1001361155" lon="17.1527805568">
		<tag k="name" v="Mølnevatnet" />
		<tag k="natural" v="water" />
		<tag k="ssr:stedsnr" v="381063" />
	</node>
	<node id="-750358" lat="69.218138889" lon="17.4882360972">
		<tag k="name" v="Neset" />
		<tag k="natural" v="cape" />
		<tag k="ssr:stedsnr" v="172899" />
	</node>
	<node id="-751380" lat="69.155697222" lon="17.3202305468">
		<tag k="name" v="Olemunnselvvatnet" />
		<tag k="natural" v="water" />
		<tag k="old_name" v="Olemunnsetvatnet" />
		<tag k="ssr:stedsnr" v="806249" />
	</node>
	<node id="-749842" lat="69.2509944472" lon="17.6305027819">
		<tag k="name" v="Litjeholmen" />
		<tag k="place" v="islet" />
		<tag k="ssr:stedsnr" v="356670" />
	</node>
	<node id="-750863" lat="69.1721499988" lon="17.6043916533">
		<tag k="name" v="Moelva" />
		<tag k="ssr:stedsnr" v="537975" />
		<tag k="waterway" v="stream" />
	</node>
	<node id="-751374" lat="69.1378027779" lon="17.2956888903">
		<tag k="alt_name" v="Litlevatnet" />
		<tag k="name" v="Litjevatnet" />
		<tag k="natural" v="water" />
		<tag k="ssr:stedsnr" v="806188" />
	</node>
	<node id="-751373" lat="69.219372223" lon="17.3126444438">
		<tag k="name" v="Åndervatnet" />
		<tag k="natural" v="water" />
		<tag k="ssr:stedsnr" v="806119" />
		<tag k="water" v="lake" />
	</node>
	<node id="-750860" lat="69.2139000025" lon="17.450811122">
		<tag k="name" v="Sennetjønna" />
		<tag k="natural" v="water" />
		<tag k="ssr:stedsnr" v="537929" />
	</node>
	<node id="-751370" lat="69.0204527761" lon="17.1214611145">
		<tag k="name" v="Mølnelva" />
		<tag k="ssr:stedsnr" v="806064" />
		<tag k="waterway" v="stream" />
	</node>
	<node id="-750039" lat="69.1739222243" lon="17.6488444442">
		<tag k="name" v="Bjørkkollvatnan" />
		<tag k="natural" v="water" />
		<tag k="ssr:stedsnr" v="18427" />
		<tag k="water" v="lake" />
	</node>
	<node id="-751367" lat="69.2511888894" lon="17.5691972141">
		<tag k="name" v="Lamoholmen" />
		<tag k="place" v="islet" />
		<tag k="ssr:stedsnr" v="781653" />
	</node>
	<node id="-750853" lat="69.0312611136" lon="17.0608027659">
		<tag k="name" v="Mølnelva" />
		<tag k="ssr:stedsnr" v="537627" />
		<tag k="waterway" v="stream" />
	</node>
	<node id="-750338" lat="69.0913749975" lon="16.956011118">
		<tag k="name" v="Hartvikneset" />
		<tag k="natural" v="cape" />
		<tag k="ssr:stedsnr" v="172602" />
	</node>
	<node id="-751359" lat="69.0367194481" lon="17.193447213">
		<tag k="name" v="Sandbakkelva" />
		<tag k="ssr:stedsnr" v="780607" />
		<tag k="waterway" v="stream" />
	</node>
	<node id="-750334" lat="69.2078527747" lon="17.7997444411">
		<tag k="name" v="Mølnebekken" />
		<tag k="ssr:stedsnr" v="169962" />
		<tag k="waterway" v="stream" />
	</node>
	<node id="-750332" lat="69.2047472227" lon="17.7441055628">
		<tag k="name" v="Nordkjosen" />
		<tag k="natural" v="bay" />
		<tag k="ssr:stedsnr" v="169538" />
	</node>
	<node id="-749816" lat="69.2310861074" lon="17.5842944343">
		<tag k="name" v="Steikpannelva" />
		<tag k="ssr:stedsnr" v="355500" />
		<tag k="waterway" v="stream" />
	</node>
	<node id="-749700" lat="69.2106722252" lon="17.4725527832">
		<tag k="name" v="Gammskartjønna" />
		<tag k="natural" v="water" />
		<tag k="ssr:stedsnr" v="294947" />
	</node>
	<node id="-749811" lat="69.1507527804" lon="17.0857055569">
		<tag k="name" v="Kvitbekken" />
		<tag k="ssr:stedsnr" v="355337" />
		<tag k="waterway" v="stream" />
	</node>
	<node id="-750228" lat="69.2547722223" lon="17.5847333402">
		<tag k="name" v="Krokelva" />
		<tag k="ssr:stedsnr" v="113611" />
		<tag k="waterway" v="stream" />
	</node>
	<node id="-749808" lat="69.1753861137" lon="17.6760138887">
		<tag k="name" v="Bergevatnan" />
		<tag k="natural" v="water" />
		<tag k="ssr:stedsnr" v="354997" />
		<tag k="water" v="lake" />
	</node>
	<node id="-750319" lat="69.1756722233" lon="17.6789333311">
		<tag k="name" v="Bergvatnet" />
		<tag k="natural" v="water" />
		<tag k="ssr:stedsnr" v="139489" />
	</node>
	<node id="-750830" lat="69.1129361102" lon="17.2633527853">
		<tag k="name" v="Fossen" />
		<tag k="natural" v="waterfall" />
		<tag k="ssr:stedsnr" v="537460" />
	</node>
	<node id="-750828" lat="69.1662944444" lon="17.838952763">
		<tag k="name" v="Mollvikelva" />
		<tag k="ssr:stedsnr" v="537450" />
		<tag k="waterway" v="stream" />
	</node>
	<node id="-750315" lat="69.2366416695" lon="17.6603861092">
		<tag k="name" v="Leirelva" />
		<tag k="ssr:stedsnr" v="139426" />
		<tag k="waterway" v="stream" />
	</node>
	<node id="-751338" lat="69.1237944453" lon="17.0712861166">
		<tag k="name" v="Småbekkan" />
		<tag k="ssr:stedsnr" v="780297" />
		<tag k="waterway" v="stream" />
	</node>
	<node id="-749948" lat="69.064202781" lon="17.1143027881">
		<tag k="name" v="Vasselva" />
		<tag k="ssr:stedsnr" v="476706" />
		<tag k="waterway" v="stream" />
	</node>
	<node id="-750310" lat="69.1477472212" lon="17.3169833228">
		<tag k="name" v="Skreddarelvvatnet" />
		<tag k="natural" v="water" />
		<tag k="ssr:stedsnr" v="139244" />
	</node>
	<node id="-749797" lat="69.22115" lon="17.4734416629">
		<tag k="name" v="Andre elva" />
		<tag k="ssr:stedsnr" v="354891" />
		<tag k="waterway" v="stream" />
	</node>
	<node id="-750820" lat="69.1166777781" lon="17.0942777879">
		<tag k="name" v="Holmen" />
		<tag k="place" v="islet" />
		<tag k="ssr:stedsnr" v="537297" />
	</node>
	<node id="-750374" lat="69.1025722194" lon="17.0722916593">
		<tag k="name" v="Vassmodalselva" />
		<tag k="ssr:stedsnr" v="173278" />
		<tag k="waterway" v="stream" />
	</node>
	<node id="-750305" lat="69.1194361149" lon="17.1589388973">
		<tag k="name" v="Finnskardvatnet" />
		<tag k="natural" v="water" />
		<tag k="ssr:stedsnr" v="139209" />
	</node>
	<node id="-749968" lat="69.2004277742" lon="17.665480547">
		<tag k="name" v="Moelva" />
		<tag k="ssr:stedsnr" v="477620" />
		<tag k="waterway" v="stream" />
	</node>
	<node id="-751325" lat="69.1565888847" lon="16.8790416656">
		<tag k="name" v="Stortjønna" />
		<tag k="natural" v="water" />
		<tag k="ssr:stedsnr" v="779936" />
	</node>
	<node id="-749775" lat="69.1986027818" lon="17.7678611069">
		<tag k="name" v="Slåttlangevatnet" />
		<tag k="natural" v="water" />
		<tag k="ssr:stedsnr" v="351963" />
	</node>
	<node id="-750432" lat="69.1377388873" lon="17.0874860975">
		<tag k="alt_name" v="Bunkevatnet, l;Litje Bunkevatn" />
		<tag k="name" v="Litje Bunkevatnet" />
		<tag k="natural" v="water" />
		<tag k="ssr:stedsnr" v="200171" />
	</node>
	<node id="-750542" lat="69.1968666703" lon="17.6367888937">
		<tag k="name" v="Stillen" />
		<tag k="natural" v="water" />
		<tag k="ssr:stedsnr" v="234585" />
		<tag k="water" v="lake" />
	</node>
	<node id="-749777" lat="69.1763361064" lon="17.392005561">
		<tag k="name" v="Storfossen" />
		<tag k="natural" v="waterfall" />
		<tag k="ssr:stedsnr" v="354453" />
	</node>
	<node id="-750800" lat="69.1654166683" lon="17.6374499886">
		<tag k="name" v="Bukketjønna" />
		<tag k="natural" v="water" />
		<tag k="ssr:stedsnr" v="536519" />
	</node>
	<node id="-750456" lat="69.1637972249" lon="17.6813222238">
		<tag k="name" v="Svinvatnet" />
		<tag k="natural" v="water" />
		<tag k="ssr:stedsnr" v="200451" />
	</node>
	<node id="-750285" lat="69.1932194416" lon="17.2152972091">
		<tag k="name" v="Sørelva" />
		<tag k="ssr:stedsnr" v="138175" />
		<tag k="waterway" v="stream" />
	</node>
	<node id="-749772" lat="69.2361000027" lon="17.7223250052">
		<tag k="name" v="Trollvassrompa" />
		<tag k="natural" v="cape" />
		<tag k="ssr:stedsnr" v="351568" />
	</node>
	<node id="-750882" lat="69.1418749996" lon="17.1293138789">
		<tag k="name" v="Bunkeskjolvatnet" />
		<tag k="natural" v="water" />
		<tag k="ssr:stedsnr" v="563192" />
	</node>
	<node id="-749869" lat="69.1359583353" lon="17.3014861056">
		<tag k="name" v="Storelva" />
		<tag k="ssr:stedsnr" v="382105" />
		<tag k="waterway" v="river" />
	</node>
	<node id="-751735" lat="69.0446472187" lon="17.1203916727">
		<tag k="name" v="Botnelva" />
		<tag k="ssr:stedsnr" v="962629" />
		<tag k="waterway" v="stream" />
	</node>
	<node id="-750791" lat="69.206077781" lon="17.7565666539">
		<tag k="name" v="Lomtjønna" />
		<tag k="natural" v="water" />
		<tag k="ssr:stedsnr" v="533545" />
	</node>
	<node id="-750283" lat="69.1992222232" lon="17.3800277653">
		<tag k="name" v="Ånderelva" />
		<tag k="ssr:stedsnr" v="138166" />
		<tag k="waterway" v="river" />
	</node>
	<node id="-750272" lat="69.2476583378" lon="17.5981860986">
		<tag k="name" v="Trolltjønnelva" />
		<tag k="ssr:stedsnr" v="113600" />
		<tag k="waterway" v="stream" />
	</node>
	<node id="-749856" lat="69.1192805518" lon="17.08245277">
		<tag k="alt_name" v="Bunkevatnet, store" />
		<tag k="name" v="Storbunkevatnet" />
		<tag k="natural" v="water" />
		<tag k="old_name" v="Bunkevatnet" />
		<tag k="ssr:stedsnr" v="381241" />
		<tag k="water" v="lake" />
	</node>
	<node id="-750270" lat="69.2660583323" lon="17.6693888755">
		<tag k="name" v="Tverrelva" />
		<tag k="ssr:stedsnr" v="113589" />
		<tag k="waterway" v="stream" />
	</node>
	<node id="-749757" lat="69.2296055544" lon="17.4715194507">
		<tag k="name" v="Kapertjørna" />
		<tag k="natural" v="water" />
		<tag k="ssr:stedsnr" v="322416" />
	</node>
	<node id="-750380" lat="69.1398749981" lon="17.086580554">
		<tag k="name" v="Flatneset" />
		<tag k="natural" v="cape" />
		<tag k="ssr:stedsnr" v="173338" />
	</node>
	<node id="-750779" lat="69.2874194433" lon="17.4994333278">
		<tag k="name" v="Steindalselva" />
		<tag k="ssr:stedsnr" v="504619" />
		<tag k="waterway" v="stream" />
	</node>
	<node id="-749753" lat="69.21604167" lon="17.4547416615">
		<tag k="alt_name" v="Vardnesvatnet, andre" />
		<tag k="name" v="Andre Vardnesvatn" />
		<tag k="natural" v="water" />
		<tag k="ssr:stedsnr" v="322371" />
	</node>
	<node id="-751110" lat="69.2524361118" lon="17.5795194317">
		<tag k="name" v="Litjenesholmen" />
		<tag k="place" v="islet" />
		<tag k="ssr:stedsnr" v="659645" />
	</node>
	<node id="-749749" lat="69.1578583372" lon="17.6451972331">
		<tag k="fixme" v="multiple name tags, choose one and add the other to alt_name" />
		<tag k="name" v="Heimvatnet;Østre heimvatn" />
		<tag k="natural" v="water" />
		<tag k="ssr:stedsnr" v="322283" />
	</node>
	<node id="-751284" lat="69.1979555564" lon="17.7212499959">
		<tag k="name" v="Storvatnet" />
		<tag k="natural" v="water" />
		<tag k="ssr:stedsnr" v="746478" />
		<tag k="water" v="lake" />
	</node>
	<node id="-751282" lat="69.1797611093" lon="17.6422722228">
		<tag k="name" v="Bjørndragarvatnan" />
		<tag k="natural" v="water" />
		<tag k="ssr:stedsnr" v="746470" />
		<tag k="water" v="lake" />
	</node>
	<node id="-750451" lat="69.1602944433" lon="17.1704055648">
		<tag k="name" v="Langvatnet" />
		<tag k="natural" v="water" />
		<tag k="ssr:stedsnr" v="200213" />
		<tag k="water" v="lake" />
	</node>
	<node id="-750768" lat="69.2431333359" lon="17.5971388906">
		<tag k="alt_name" v="Trolltjørna" />
		<tag k="name" v="Trolltjønna" />
		<tag k="natural" v="water" />
		<tag k="ssr:stedsnr" v="503418" />
	</node>
	<node id="-749743" lat="69.113177777" lon="17.0436777645">
		<tag k="fixme" v="multiple name tags, choose one and add the other to alt_name" />
		<tag k="name" v="Olaheimvatnet;Rødsandvatnet" />
		<tag k="natural" v="water" />
		<tag k="ssr:stedsnr" v="321199" />
		<tag k="water" v="lake" />
	</node>
	<node id="-749708" lat="69.2311583376" lon="17.6038749978">
		<tag k="name" v="Mølnelva" />
		<tag k="ssr:stedsnr" v="295546" />
		<tag k="waterway" v="stream" />
	</node>
	<node id="-749740" lat="69.1284249967" lon="17.2558972211">
		<tag k="name" v="Vasskogelva" />
		<tag k="ssr:stedsnr" v="321188" />
		<tag k="waterway" v="stream" />
	</node>
	<node id="-750249" lat="69.1082000029" lon="17.077902769">
		<tag k="name" v="Tømmervika" />
		<tag k="natural" v="bay" />
		<tag k="ssr:stedsnr" v="113298" />
	</node>
	<node id="-750755" lat="69.0963750011" lon="17.2278305619">
		<tag k="fixme" v="multiple name tags, choose one and add the other to alt_name" />
		<tag k="name" v="Finnsetelva;Sagelva" />
		<tag k="ssr:stedsnr" v="503046" />
		<tag k="waterway" v="stream" />
	</node>
	<node id="-749728" lat="69.0113194426" lon="17.0973027874">
		<tag k="name" v="Vassåa" />
		<tag k="ssr:stedsnr" v="320094" />
		<tag k="waterway" v="stream" />
	</node>
	<node id="-750751" lat="69.0743555601" lon="17.1678444401">
		<tag k="name" v="Eidevatnet" />
		<tag k="natural" v="water" />
		<tag k="ssr:stedsnr" v="503010" />
	</node>
	<node id="-751262" lat="69.0806500032" lon="16.949855561">
		<tag k="fixme" v="multiple name tags, choose one and add the other to alt_name" />
		<tag k="name" v="Finnelva;Stillelva" />
		<tag k="ssr:stedsnr" v="746053" />
		<tag k="waterway" v="stream" />
	</node>
	<node id="-751260" lat="69.1043333302" lon="17.2087444532">
		<tag k="name" v="Sagvatnan" />
		<tag k="natural" v="water" />
		<tag k="ssr:stedsnr" v="746048" />
		<tag k="water" v="lake" />
	</node>
	<node id="-751259" lat="69.2685944459" lon="17.6492555576">
		<tag k="name" v="Storelva" />
		<tag k="ssr:stedsnr" v="746046" />
		<tag k="waterway" v="river" />
	</node>
	<node id="-749722" lat="69.249747224" lon="17.6281500069">
		<tag k="name" v="Litjesundet" />
		<tag k="natural" v="strait" />
		<tag k="ssr:stedsnr" v="295672" />
	</node>
	<node id="-750231" lat="69.254777779" lon="17.6206583432">
		<tag k="name" v="Vestre Sandbukt" />
		<tag k="natural" v="bay" />
		<tag k="ssr:stedsnr" v="113630" />
	</node>
	<node id="-749718" lat="69.268169447" lon="17.6663805514">
		<tag k="name" v="Skjellelva" />
		<tag k="ssr:stedsnr" v="295638" />
		<tag k="waterway" v="stream" />
	</node>
	<node id="-749716" lat="69.1996972216" lon="17.6587999865">
		<tag k="name" v="Bakktjønna" />
		<tag k="natural" v="water" />
		<tag k="ssr:stedsnr" v="295627" />
	</node>
	<node id="-750737" lat="69.3112499988" lon="17.5691416632">
		<tag k="fixme" v="multiple name tags, choose one and add the other to alt_name" />
		<tag k="name" v="Hellevatnet;Tennvatnet - Čearrojávri" />
		<tag k="name:no" v="Hellevatnet;Tennvatnet" />
		<tag k="name:se" v="Čearrojávri" />
		<tag k="natural" v="water" />
		<tag k="old_name:se" v="Čærrujavri" />
		<tag k="ssr:stedsnr" v="443574" />
	</node>
	<node id="-750736" lat="69.3047444427" lon="17.6311472193">
		<tag k="name" v="Daudmannsfjellvatnet" />
		<tag k="natural" v="water" />
		<tag k="ssr:stedsnr" v="443557" />
	</node>
	<node id="-751128" lat="69.0907861113" lon="17.1484499885">
		<tag k="name" v="Mølnelva" />
		<tag k="ssr:stedsnr" v="685045" />
		<tag k="waterway" v="stream" />
	</node>
	<node id="-750733" lat="69.1806888871" lon="17.7501388869">
		<tag k="alt_name" v="Litlevatnet" />
		<tag k="name" v="Litjevatnet" />
		<tag k="natural" v="water" />
		<tag k="ssr:stedsnr" v="443487" />
	</node>
	<node id="-750220" lat="69.0339749998" lon="17.1148499961">
		<tag k="name" v="Lomvatnet" />
		<tag k="natural" v="water" />
		<tag k="ssr:stedsnr" v="112678" />
	</node>
	<node id="-751243" lat="69.2566055524" lon="17.5977388935">
		<tag k="name" v="Litje sølvfosselv" />
		<tag k="ssr:stedsnr" v="720657" />
		<tag k="waterway" v="stream" />
	</node>
	<node id="-751242" lat="69.247925002" lon="17.5623555628">
		<tag k="name" v="Plassfossen" />
		<tag k="natural" v="waterfall" />
		<tag k="ssr:stedsnr" v="720647" />
	</node>
	<node id="-750359" lat="69.109344446" lon="16.8086444373">
		<tag k="name" v="Melkeråelva" />
		<tag k="ssr:stedsnr" v="172916" />
		<tag k="waterway" v="stream" />
	</node>
	<node id="-751752" lat="69.1860388862" lon="17.7173749855">
		<tag k="name" v="Bostadkjosen" />
		<tag k="natural" v="bay" />
		<tag k="ssr:stedsnr" v="963697" />
	</node>
	<node id="-750727" lat="69.2133166663" lon="17.4982444484">
		<tag k="alt_name" v="Vardnesbekken" />
		<tag k="name" v="Vardneselva" />
		<tag k="ssr:stedsnr" v="443391" />
		<tag k="waterway" v="stream" />
	</node>
	<node id="-751237" lat="69.1869166705" lon="17.5586361095">
		<tag k="name" v="Leirhølla" />
		<tag k="place" v="locality" />
		<tag k="ssr:stedsnr" v="719999" />
	</node>
	<node id="-751236" lat="69.0652944406" lon="16.895102766">
		<tag k="name" v="Marivatnet" />
		<tag k="natural" v="water" />
		<tag k="ssr:stedsnr" v="719923" />
	</node>
	<node id="-751043" lat="69.213458329" lon="17.7561249952">
		<tag k="name" v="Kvanntjønna" />
		<tag k="natural" v="water" />
		<tag k="ssr:stedsnr" v="654541" />
	</node>
	<node id="-750443" lat="69.0998638914" lon="16.8786944442">
		<tag k="alt_name" v="Åborsvatnet" />
		<tag k="name" v="Aborsvatnet" />
		<tag k="natural" v="water" />
		<tag k="ssr:stedsnr" v="200036" />
	</node>
	<node id="-749773" lat="69.2173277779" lon="17.7139305598">
		<tag k="name" v="Rundvatnet" />
		<tag k="natural" v="water" />
		<tag k="ssr:stedsnr" v="351570" />
	</node>
	<node id="-750717" lat="69.247336116" lon="17.5506860986">
		<tag k="name" v="Lakselva" />
		<tag k="ssr:stedsnr" v="443110" />
		<tag k="waterway" v="river" />
	</node>
	<node id="-751119" lat="69.2458888885" lon="17.6718694516">
		<tag k="name" v="Litjevasselva" />
		<tag k="ssr:stedsnr" v="659691" />
		<tag k="waterway" v="stream" />
	</node>
	<node id="-750821" lat="69.1362861129" lon="17.1043110989">
		<tag k="name" v="Durmålselva" />
		<tag k="ssr:stedsnr" v="537352" />
		<tag k="waterway" v="stream" />
	</node>
	<node id="-749844" lat="69.2490083332" lon="17.6252527758">
		<tag k="name" v="Kjosen" />
		<tag k="natural" v="bay" />
		<tag k="ssr:stedsnr" v="356685" />
	</node>
	<node id="-751733" lat="69.0836166629" lon="17.0038555443">
		<tag k="name" v="Nonsmålselva" />
		<tag k="ssr:stedsnr" v="962603" />
		<tag k="waterway" v="stream" />
	</node>
	<node id="-751634" lat="69.059716663" lon="16.8346000037">
		<tag k="name" v="Rakelvatnet" />
		<tag k="natural" v="water" />
		<tag k="ssr:stedsnr" v="928029" />
	</node>
	<node id="-751730" lat="69.2057583335" lon="17.6364527656">
		<tag k="name" v="Kvannbekken" />
		<tag k="ssr:stedsnr" v="962584" />
		<tag k="waterway" v="stream" />
	</node>
	<node id="-751729" lat="69.0863055558" lon="17.0011138993">
		<tag k="name" v="Tverrelva" />
		<tag k="ssr:stedsnr" v="962565" />
		<tag k="waterway" v="stream" />
	</node>
	<node id="-749680" lat="69.017638888" lon="17.14289722">
		<tag k="name" v="Engerøa" />
		<tag k="ssr:stedsnr" v="294581" />
		<tag k="waterway" v="stream" />
	</node>
	<node id="-750373" lat="69.1034583351" lon="17.0945694394">
		<tag k="name" v="Trollvasselva" />
		<tag k="ssr:stedsnr" v="173276" />
		<tag k="waterway" v="stream" />
	</node>
	<node id="-751724" lat="69.2374694451" lon="17.5430361006">
		<tag k="name" v="Fisketjønnelva" />
		<tag k="ssr:stedsnr" v="962520" />
		<tag k="waterway" v="stream" />
	</node>
	<node id="-751378" lat="69.1622027756" lon="17.3893472246">
		<tag k="name" v="Finnsetelva" />
		<tag k="ssr:stedsnr" v="806235" />
		<tag k="waterway" v="stream" />
	</node>
	<node id="-750697" lat="69.1288805562" lon="17.0869666616">
		<tag k="alt_name" v="Mellomvatnet" />
		<tag k="name" v="Mellavatnet" />
		<tag k="natural" v="water" />
		<tag k="ssr:stedsnr" v="442236" />
	</node>
	<node id="-749671" lat="69.1644944456" lon="17.6582888934">
		<tag k="name" v="Flatvatnet" />
		<tag k="natural" v="water" />
		<tag k="ssr:stedsnr" v="294534" />
	</node>
	<node id="-749670" lat="69.1294638934" lon="17.0353360995">
		<tag k="name" v="Tjøvatnan" />
		<tag k="natural" v="water" />
		<tag k="ssr:stedsnr" v="294528" />
		<tag k="water" v="lake" />
	</node>
	<node id="-751204" lat="69.2011805563" lon="17.6111722218">
		<tag k="name" v="Mellavatnet" />
		<tag k="natural" v="water" />
		<tag k="ssr:stedsnr" v="719557" />
	</node>
	<node id="-751532" lat="69.2050166703" lon="17.5906694449">
		<tag k="name" v="Tennevatnet" />
		<tag k="natural" v="water" />
		<tag k="ssr:stedsnr" v="868482" />
	</node>
	<node id="-750748" lat="69.2060583294" lon="17.6918777692">
		<tag k="name" v="Brattlielva" />
		<tag k="ssr:stedsnr" v="472524" />
		<tag k="waterway" v="stream" />
	</node>
	<node id="-751199" lat="69.2104638854" lon="17.540058335">
		<tag k="name" v="Skarbekken" />
		<tag k="ssr:stedsnr" v="719532" />
		<tag k="waterway" v="stream" />
	</node>
	<node id="-751197" lat="69.2362555539" lon="17.6599333318">
		<tag k="name" v="Leirelvkroken" />
		<tag k="natural" v="bay" />
		<tag k="ssr:stedsnr" v="719516" />
	</node>
	<node id="-751707" lat="69.0769027793" lon="17.180675011">
		<tag k="name" v="Oldervikelva" />
		<tag k="ssr:stedsnr" v="962245" />
		<tag k="waterway" v="stream" />
	</node>
	<node id="-749839" lat="69.2502750003" lon="17.5352222084">
		<tag k="name" v="Litjefossen" />
		<tag k="natural" v="waterfall" />
		<tag k="ssr:stedsnr" v="356648" />
	</node>
	<node id="-749656" lat="69.0867305511" lon="17.0169722313">
		<tag k="name" v="Vassosneset" />
		<tag k="natural" v="cape" />
		<tag k="ssr:stedsnr" v="294650" />
	</node>
	<node id="-750692" lat="69.0144833298" lon="17.0784555495">
		<tag k="name" v="Stangnesvatnet" />
		<tag k="natural" v="water" />
		<tag k="ssr:stedsnr" v="442109" />
	</node>
	<node id="-750166" lat="69.1641833368" lon="17.2029944528">
		<tag k="name" v="Lutvatnet" />
		<tag k="natural" v="water" />
		<tag k="ssr:stedsnr" v="78255" />
		<tag k="water" v="lake" />
	</node>
	<node id="-749651" lat="69.1223527787" lon="17.0687833334">
		<tag k="name" v="Skjellelva" />
		<tag k="ssr:stedsnr" v="294304" />
		<tag k="waterway" v="stream" />
	</node>
	<node id="-749650" lat="69.0936333367" lon="17.060391669">
		<tag k="name" v="Steinbrua" />
		<tag k="place" v="locality" />
		<tag k="ssr:stedsnr" v="294303" />
	</node>
	<node id="-750672" lat="69.0375611133" lon="17.1825055667">
		<tag k="name" v="Skjellelva" />
		<tag k="ssr:stedsnr" v="416633" />
		<tag k="waterway" v="stream" />
	</node>
	<node id="-750240" lat="69.1939277758" lon="17.5742277692">
		<tag k="name" v="Olderholla" />
		<tag k="place" v="locality" />
		<tag k="ssr:stedsnr" v="112999" />
	</node>
	<node id="-750349" lat="69.1694222205" lon="17.716411104">
		<tag k="name" v="Jonslettelva" />
		<tag k="ssr:stedsnr" v="172764" />
		<tag k="waterway" v="stream" />
	</node>
	<node id="-751180" lat="69.0687861115" lon="17.1576083406">
		<tag k="name" v="Litjevatnet" />
		<tag k="natural" v="water" />
		<tag k="ssr:stedsnr" v="719260" />
	</node>
	<node id="-750154" lat="69.1892527781" lon="17.6962444495">
		<tag k="name" v="Landfastholmen" />
		<tag k="place" v="islet" />
		<tag k="ssr:stedsnr" v="53692" />
	</node>
	<node id="-750591" lat="69.1852027786" lon="17.6169111045">
		<tag k="name" v="Mølnekromvatnet" />
		<tag k="natural" v="water" />
		<tag k="ssr:stedsnr" v="261494" />
	</node>
	<node id="-750663" lat="69.2206916693" lon="17.6743833216">
		<tag k="name" v="Andre gammelvetelv" />
		<tag k="ssr:stedsnr" v="416525" />
		<tag k="waterway" v="stream" />
	</node>
	<node id="-749761" lat="69.3009861074" lon="17.5800416707">
		<tag k="name" v="Komagelva - Gámajohka" />
		<tag k="name:no" v="Komagelva" />
		<tag k="name:se" v="Gámajohka" />
		<tag k="old_name:se" v="Gamajåkka" />
		<tag k="ssr:stedsnr" v="322562" />
		<tag k="waterway" v="stream" />
	</node>
	<node id="-750148" lat="69.2475333302" lon="17.5433305408">
		<tag k="name" v="Elveskjellan" />
		<tag k="natural" v="bay" />
		<tag k="ssr:stedsnr" v="53663" />
	</node>
	<node id="-751683" lat="69.2346055597" lon="17.6777666695">
		<tag k="name" v="Litjeholmen" />
		<tag k="place" v="islet" />
		<tag k="ssr:stedsnr" v="961555" />
	</node>
	<node id="-750145" lat="69.0366666669" lon="17.1870027707">
		<tag k="name" v="Blombakkelva" />
		<tag k="ssr:stedsnr" v="52645" />
		<tag k="waterway" v="stream" />
	</node>
	<node id="-751679" lat="69.140197224" lon="17.3271860985">
		<tag k="name" v="Oselva" />
		<tag k="ssr:stedsnr" v="961504" />
		<tag k="waterway" v="stream" />
	</node>
	<node id="-751165" lat="69.2003722258" lon="17.7364749957">
		<tag k="name" v="Klubben" />
		<tag k="natural" v="cape" />
		<tag k="ssr:stedsnr" v="715548" />
	</node>
	<node id="-751164" lat="69.2012083377" lon="17.7283638773">
		<tag k="name" v="Rørvika" />
		<tag k="natural" v="bay" />
		<tag k="ssr:stedsnr" v="715547" />
	</node>
	<node id="-750139" lat="69.0713111133" lon="16.8970777817">
		<tag k="name" v="Jorddalselva" />
		<tag k="ssr:stedsnr" v="52558" />
		<tag k="waterway" v="stream" />
	</node>
	<node id="-750650" lat="69.1683000028" lon="17.8295277728">
		<tag k="name" v="Trollbuvatnet" />
		<tag k="natural" v="water" />
		<tag k="ssr:stedsnr" v="416422" />
	</node>
	<node id="-750687" lat="69.1922055582" lon="17.701380558">
		<tag k="name" v="Stormyrholmen" />
		<tag k="place" v="islet" />
		<tag k="ssr:stedsnr" v="417715" />
	</node>
	<node id="-751672" lat="69.2013305515" lon="17.7797611134">
		<tag k="name" v="Tjønna" />
		<tag k="natural" v="water" />
		<tag k="ssr:stedsnr" v="958957" />
		<tag k="water" v="pond" />
	</node>
	<node id="-751245" lat="69.2506083368" lon="17.6316972252">
		<tag k="name" v="Sandholmen" />
		<tag k="place" v="islet" />
		<tag k="ssr:stedsnr" v="720668" />
	</node>
	<node id="-751154" lat="69.1788638854" lon="17.7221805559">
		<tag k="alt_name" v="Nattmålvatnet" />
		<tag k="name" v="Nattmålsvatnet" />
		<tag k="natural" v="water" />
		<tag k="ssr:stedsnr" v="686474" />
	</node>
	<node id="-750641" lat="69.1847333348" lon="17.6588916563">
		<tag k="name" v="Rundholla" />
		<tag k="natural" v="water" />
		<tag k="ssr:stedsnr" v="415987" />
	</node>
	<node id="-751149" lat="69.2317999997" lon="17.6624972311">
		<tag k="alt_name" v="Skjelelva" />
		<tag k="name" v="Skjellelva" />
		<tag k="ssr:stedsnr" v="686424" />
		<tag k="waterway" v="stream" />
	</node>
	<node id="-750316" lat="69.2450777801" lon="17.6681000102">
		<tag k="alt_name" v="Litlevatnet" />
		<tag k="name" v="Litjevatnet" />
		<tag k="natural" v="water" />
		<tag k="ssr:stedsnr" v="139444" />
	</node>
	<node id="-750258" lat="69.0187888863" lon="17.0911305525">
		<tag k="name" v="Klokhollelva" />
		<tag k="ssr:stedsnr" v="113505" />
		<tag k="waterway" v="stream" />
	</node>
	<node id="-750634" lat="69.1118138895" lon="16.8762527667">
		<tag k="name" v="Aborselva" />
		<tag k="ssr:stedsnr" v="415927" />
		<tag k="waterway" v="stream" />
	</node>
	<node id="-750343" lat="69.1053722218" lon="17.0246750076">
		<tag k="name" v="Bjørnlielva" />
		<tag k="ssr:stedsnr" v="172592" />
		<tag k="waterway" v="stream" />
	</node>
	<node id="-750632" lat="69.0745194451" lon="16.8387750075">
		<tag k="name" v="Skrolsvikelva" />
		<tag k="ssr:stedsnr" v="415912" />
		<tag k="waterway" v="stream" />
	</node>
	<node id="-750769" lat="69.2639999999" lon="17.5072722275">
		<tag k="alt_name" v="Strompelva" />
		<tag k="name" v="Stumpelva" />
		<tag k="ssr:stedsnr" v="503564" />
		<tag k="waterway" v="stream" />
	</node>
	<node id="-751651" lat="69.170436112" lon="17.37983611">
		<tag k="alt_name" v="Olemunnselva" />
		<tag k="name" v="Ole-Ommundselva" />
		<tag k="ssr:stedsnr" v="928200" />
		<tag k="waterway" v="river" />
	</node>
	<node id="-751138" lat="69.2568111149" lon="17.3933277683">
		<tag k="name" v="Kapervatnet - Gahperjávri" />
		<tag k="name:no" v="Kapervatnet" />
		<tag k="name:se" v="Gahperjávri" />
		<tag k="natural" v="water" />
		<tag k="ssr:stedsnr" v="685169" />
		<tag k="water" v="lake" />
	</node>
	<node id="-751024" lat="69.2652416693" lon="17.574125009">
		<tag k="name" v="Storelva" />
		<tag k="ssr:stedsnr" v="624591" />
		<tag k="waterway" v="stream" />
	</node>
	<node id="-750110" lat="69.2161583318" lon="17.5157805448">
		<tag k="name" v="Øvre Likskarelv" />
		<tag k="ssr:stedsnr" v="51926" />
		<tag k="waterway" v="stream" />
	</node>
	<node id="-750621" lat="69.1812083288" lon="17.8273444446">
		<tag k="name" v="Bergevatnet" />
		<tag k="natural" v="water" />
		<tag k="ssr:stedsnr" v="415751" />
	</node>
	<node id="-750108" lat="69.2118527761" lon="17.5051777631">
		<tag k="name" v="Likskarhølla" />
		<tag k="place" v="locality" />
		<tag k="ssr:stedsnr" v="51925" />
	</node>
	<node id="-751131" lat="69.0811361142" lon="16.8281083428">
		<tag k="name" v="Storvatnet" />
		<tag k="natural" v="water" />
		<tag k="ssr:stedsnr" v="685061" />
	</node>
	<node id="-751129" lat="69.0961888933" lon="17.0894416577">
		<tag k="name" v="Trollvatnet" />
		<tag k="natural" v="water" />
		<tag k="ssr:stedsnr" v="685046" />
	</node>
	<node id="-750616" lat="69.1976333338" lon="17.6004972133">
		<tag k="name" v="Huldervatnet" />
		<tag k="natural" v="water" />
		<tag k="ssr:stedsnr" v="415645" />
	</node>
	<node id="-751244" lat="69.2493861139" lon="17.5884444357">
		<tag k="name" v="Høgdekjosen" />
		<tag k="natural" v="bay" />
		<tag k="ssr:stedsnr" v="720666" />
	</node>
	<node id="-751252" lat="69.0822972259" lon="16.7971083341">
		<tag k="name" v="Sæterelva" />
		<tag k="ssr:stedsnr" v="745111" />
		<tag k="waterway" v="stream" />
	</node>
	<node id="-750169" lat="69.0674305512" lon="16.8796555559">
		<tag k="name" v="Marvatnet" />
		<tag k="natural" v="water" />
		<tag k="ssr:stedsnr" v="79004" />
	</node>
	<node id="-751124" lat="69.0656805538" lon="16.8423249998">
		<tag k="name" v="Langvatnet" />
		<tag k="natural" v="water" />
		<tag k="ssr:stedsnr" v="685007" />
	</node>
	<node id="-750937" lat="69.1124666703" lon="17.266974989">
		<tag k="name" v="Mølna" />
		<tag k="ssr:stedsnr" v="597474" />
		<tag k="waterway" v="rapids" />
	</node>
	<node id="-751653" lat="69.2627333344" lon="17.3435972252">
		<tag k="name" v="Trollvatnet" />
		<tag k="natural" v="water" />
		<tag k="ssr:stedsnr" v="928372" />
		<tag k="water" v="lake" />
	</node>
	<node id="-750609" lat="69.155322222" lon="17.6160916651">
		<tag k="name" v="Mølnelva" />
		<tag k="ssr:stedsnr" v="415570" />
		<tag k="waterway" v="stream" />
	</node>
	<node id="-750236" lat="69.2649083321" lon="17.4934722265">
		<tag k="name" v="Nedre Stumpevatn" />
		<tag k="natural" v="water" />
		<tag k="ssr:stedsnr" v="112968" />
	</node>
	<node id="-750866" lat="69.2510555543" lon="17.6228166514">
		<tag k="name" v="Lamholmen" />
		<tag k="place" v="islet" />
		<tag k="ssr:stedsnr" v="538664" />
	</node>
	<node id="-750605" lat="69.1218138921" lon="17.2659083445">
		<tag k="name" v="Vassgropa" />
		<tag k="natural" v="bay" />
		<tag k="ssr:stedsnr" v="415524" />
	</node>
	<node id="-750137" lat="69.0093833362" lon="17.095866659">
		<tag k="name" v="Vassåkjeften" />
		<tag k="natural" v="bay" />
		<tag k="ssr:stedsnr" v="52523" />
	</node>
	<node id="-750681" lat="69.2708638872" lon="17.6400333392">
		<tag k="name" v="Hestelva" />
		<tag k="ssr:stedsnr" v="417657" />
		<tag k="waterway" v="stream" />
	</node>
	<node id="-750049" lat="69.099594441" lon="16.9479499934">
		<tag k="name" v="Blyfjordvatnet" />
		<tag k="natural" v="water" />
		<tag k="ssr:stedsnr" v="18047" />
		<tag k="water" v="lake" />
	</node>
	<node id="-750089" lat="69.1438249992" lon="17.3469888804">
		<tag k="name" v="Rødbergelva" />
		<tag k="ssr:stedsnr" v="51547" />
		<tag k="waterway" v="stream" />
	</node>
	<node id="-749675" lat="69.0208305529" lon="17.0761027677">
		<tag k="name" v="Vottorelva" />
		<tag k="ssr:stedsnr" v="294564" />
		<tag k="waterway" v="stream" />
	</node>
	<node id="-751623" lat="69.2511999991" lon="17.6092416737">
		<tag k="name" v="Kuskemotjønna" />
		<tag k="natural" v="water" />
		<tag k="ssr:stedsnr" v="902666" />
	</node>
	<node id="-751622" lat="69.2567944406" lon="17.6601222238">
		<tag k="name" v="Østre Sandbukt" />
		<tag k="natural" v="bay" />
		<tag k="ssr:stedsnr" v="902667" />
	</node>
	<node id="-751621" lat="69.2511111098" lon="17.5954361169">
		<tag k="name" v="Storneset" />
		<tag k="natural" v="cape" />
		<tag k="ssr:stedsnr" v="902653" />
	</node>
	<node id="-750596" lat="69.244477778" lon="17.3079444332">
		<tag k="name" v="Kapervatnet" />
		<tag k="natural" v="water" />
		<tag k="ssr:stedsnr" v="264595" />
		<tag k="water" v="lake" />
	</node>
	<node id="-751141" lat="69.1085888864" lon="17.0119361037">
		<tag k="fixme" v="multiple name tags, choose one and add the other to alt_name" />
		<tag k="name" v="Bjørnlivatnan;Stilivatnan" />
		<tag k="natural" v="water" />
		<tag k="ssr:stedsnr" v="685197" />
		<tag k="water" v="lake" />
	</node>
	<node id="-751617" lat="69.2036027759" lon="17.6317722071">
		<tag k="name" v="Teltholmen" />
		<tag k="place" v="islet" />
		<tag k="ssr:stedsnr" v="902622" />
	</node>
</osm>
