<?xml version="1.0" encoding="UTF-8"?>
<osm generator="osmapis" version="0.6">
	<node id="-588416" lat="62.7473149425" lon="6.36449667213">
		<tag k="name" v="Uksnøya" />
		<tag k="ssr:date" v="2019-05-30" />
		<tag k="ssr:gruppe" v="veg" />
		<tag k="ssr:hovedgruppe" v="infrastruktur" />
		<tag k="ssr:stedsnr" v="993076" />
		<tag k="ssr:type" v="adressenavn" />
	</node>
	<node id="-588415" lat="62.8385944372" lon="6.68934878986">
		<tag k="name" v="Flatflesa" />
		<tag k="ssr:date" v="2019-05-30" />
		<tag k="ssr:gruppe" v="veg" />
		<tag k="ssr:hovedgruppe" v="infrastruktur" />
		<tag k="ssr:stedsnr" v="993074" />
		<tag k="ssr:type" v="adressenavn" />
	</node>
	<node id="-588414" lat="62.8115548594" lon="6.6964556478">
		<tag k="name" v="Lyngværet" />
		<tag k="ssr:date" v="2019-05-30" />
		<tag k="ssr:gruppe" v="veg" />
		<tag k="ssr:hovedgruppe" v="infrastruktur" />
		<tag k="ssr:stedsnr" v="993073" />
		<tag k="ssr:type" v="adressenavn" />
	</node>
	<node id="-588407" lat="62.762893355" lon="6.4560489841">
		<tag k="name" v="Vinmøllestien" />
		<tag k="ssr:date" v="2019-12-12" />
		<tag k="ssr:gruppe" v="veg" />
		<tag k="ssr:hovedgruppe" v="infrastruktur" />
		<tag k="ssr:stedsnr" v="1074089" />
		<tag k="ssr:type" v="adressenavn" />
	</node>
	<node id="-588406" lat="62.7835155376" lon="6.46087350921">
		<tag k="name" v="Nebitvegen" />
		<tag k="ssr:date" v="2019-12-12" />
		<tag k="ssr:gruppe" v="veg" />
		<tag k="ssr:hovedgruppe" v="infrastruktur" />
		<tag k="ssr:stedsnr" v="1074091" />
		<tag k="ssr:type" v="adressenavn" />
	</node>
	<node id="-588405" lat="62.7626563357" lon="6.45972128214">
		<tag k="name" v="Bjergestien" />
		<tag k="ssr:date" v="2019-12-12" />
		<tag k="ssr:gruppe" v="veg" />
		<tag k="ssr:hovedgruppe" v="infrastruktur" />
		<tag k="ssr:stedsnr" v="1074090" />
		<tag k="ssr:type" v="adressenavn" />
	</node>
	<node id="-588404" lat="62.7835228022" lon="6.46022168309">
		<tag k="name" v="Vestre Måsvikvegen" />
		<tag k="ssr:date" v="2019-12-12" />
		<tag k="ssr:gruppe" v="veg" />
		<tag k="ssr:hovedgruppe" v="infrastruktur" />
		<tag k="ssr:stedsnr" v="1074088" />
		<tag k="ssr:type" v="adressenavn" />
	</node>
	<node id="-588275" lat="62.8587083312" lon="6.53753610797">
		<tag k="name" v="Husøy" />
		<tag k="ssr:date" v="2016-05-10" />
		<tag k="ssr:gruppe" v="navigasjon" />
		<tag k="ssr:hovedgruppe" v="infrastruktur" />
		<tag k="ssr:stedsnr" v="315393" />
		<tag k="ssr:type" v="fyrlykt" />
	</node>
	<node id="-588435" lat="62.863405554" lon="6.54363054826">
		<tag k="alt_name" v="Ona" />
		<tag k="name" v="Ona fyr" />
		<tag k="ssr:date" v="2016-05-10" />
		<tag k="ssr:gruppe" v="navigasjon" />
		<tag k="ssr:hovedgruppe" v="infrastruktur" />
		<tag k="ssr:stedsnr" v="12396" />
		<tag k="ssr:type" v="fyrstasjon" />
	</node>
	<node id="-588898" lat="62.7443194407" lon="6.35007500462">
		<tag k="name" v="Oksenøyflesa" />
		<tag k="ssr:date" v="2016-05-10" />
		<tag k="ssr:gruppe" v="navigasjon" />
		<tag k="ssr:hovedgruppe" v="infrastruktur" />
		<tag k="ssr:stedsnr" v="637797" />
		<tag k="ssr:type" v="fyrlykt" />
	</node>
	<node id="-588766" lat="62.7992638923" lon="6.52608332649">
		<tag k="name" v="Gåsøy" />
		<tag k="ssr:date" v="2016-05-10" />
		<tag k="ssr:gruppe" v="navigasjon" />
		<tag k="ssr:hovedgruppe" v="infrastruktur" />
		<tag k="ssr:stedsnr" v="497463" />
		<tag k="ssr:type" v="fyrlykt" />
	</node>
	<node id="-588253" lat="62.8641472214" lon="6.55070556031">
		<tag k="name" v="Oterholmtaren" />
		<tag k="ssr:date" v="2016-05-10" />
		<tag k="ssr:gruppe" v="navigasjon" />
		<tag k="ssr:hovedgruppe" v="infrastruktur" />
		<tag k="ssr:stedsnr" v="293127" />
		<tag k="ssr:type" v="lanterne" />
	</node>
	<node id="-588882" lat="62.8060555555" lon="6.5945444427">
		<tag k="name" v="Ærsteinen" />
		<tag k="ssr:date" v="2016-05-10" />
		<tag k="ssr:gruppe" v="navigasjon" />
		<tag k="ssr:hovedgruppe" v="infrastruktur" />
		<tag k="ssr:stedsnr" v="618457" />
		<tag k="ssr:type" v="fyrlykt" />
	</node>
	<node id="-588624" lat="62.8471361093" lon="6.54017500197">
		<tag k="name" v="Rugskjæret" />
		<tag k="ssr:date" v="2016-05-10" />
		<tag k="ssr:gruppe" v="navigasjon" />
		<tag k="ssr:hovedgruppe" v="infrastruktur" />
		<tag k="ssr:stedsnr" v="207542" />
		<tag k="ssr:type" v="fyrlykt" />
	</node>
	<node id="-588873" lat="62.8665305542" lon="6.54891389676">
		<tag k="name" v="Tvinitla" />
		<tag k="ssr:date" v="2016-05-10" />
		<tag k="ssr:gruppe" v="navigasjon" />
		<tag k="ssr:hovedgruppe" v="infrastruktur" />
		<tag k="ssr:stedsnr" v="618382" />
		<tag k="ssr:type" v="fyrlykt" />
	</node>
	<node id="-588985" lat="62.8158833348" lon="6.38820000125">
		<tag k="name" v="Skipsholmen" />
		<tag k="ssr:date" v="2016-05-11" />
		<tag k="ssr:gruppe" v="navigasjon" />
		<tag k="ssr:hovedgruppe" v="infrastruktur" />
		<tag k="ssr:stedsnr" v="752338" />
		<tag k="ssr:type" v="fyrlykt" />
	</node>
	<node id="-589111" lat="62.817705552" lon="6.71535833038">
		<tag k="name" v="Tordivelen" />
		<tag k="ssr:date" v="2016-05-11" />
		<tag k="ssr:gruppe" v="navigasjon" />
		<tag k="ssr:hovedgruppe" v="infrastruktur" />
		<tag k="ssr:stedsnr" v="858228" />
		<tag k="ssr:type" v="lanterne" />
	</node>
	<node id="-589238" lat="60.8816104596" lon="6.30047518531">
		<tag k="name" v="Vestlandet" />
		<tag k="ssr:date" v="2019-01-06" />
		<tag k="ssr:gruppe" v="administrativeIndelinger" />
		<tag k="ssr:hovedgruppe" v="offentligAdministrasjon" />
		<tag k="ssr:stedsnr" v="974777" />
		<tag k="ssr:type" v="annenAdministrativInndeling" />
	</node>
	<node id="-588973" lat="62.7878361091" lon="6.47736667313">
		<tag k="name" v="Steinshamn" />
		<tag k="ssr:date" v="2016-05-11" />
		<tag k="ssr:gruppe" v="navigasjon" />
		<tag k="ssr:hovedgruppe" v="infrastruktur" />
		<tag k="ssr:stedsnr" v="739496" />
		<tag k="ssr:type" v="fyrlykt" />
	</node>
	<node id="-588439" lat="62.8383924891" lon="6.68915440821">
		<tag k="alt_name" v="Flatflesa" />
		<tag k="name" v="Flatflesa fyr" />
		<tag k="ssr:date" v="2019-02-12" />
		<tag k="ssr:gruppe" v="navigasjon" />
		<tag k="ssr:hovedgruppe" v="infrastruktur" />
		<tag k="ssr:stedsnr" v="12411" />
		<tag k="ssr:type" v="fyrstasjon" />
	</node>
	<node id="-588563" lat="62.8244083308" lon="6.57594443992">
		<tag k="name" v="Straumsundhaugen" />
		<tag k="ssr:date" v="2016-05-10" />
		<tag k="ssr:gruppe" v="navigasjon" />
		<tag k="ssr:hovedgruppe" v="infrastruktur" />
		<tag k="ssr:stedsnr" v="145551" />
		<tag k="ssr:type" v="fyrlykt" />
	</node>
	<node id="-588683" lat="62.8156222207" lon="6.51061387936">
		<tag k="name" v="Kvaløyklubben" />
		<tag k="ssr:date" v="2016-05-10" />
		<tag k="ssr:gruppe" v="navigasjon" />
		<tag k="ssr:hovedgruppe" v="infrastruktur" />
		<tag k="ssr:stedsnr" v="437417" />
		<tag k="ssr:type" v="fyrlykt" />
	</node>
	<node id="-588553" lat="62.764869445" lon="6.40792221336">
		<tag k="name" v="Marøy" />
		<tag k="ssr:date" v="2016-05-10" />
		<tag k="ssr:gruppe" v="navigasjon" />
		<tag k="ssr:hovedgruppe" v="infrastruktur" />
		<tag k="ssr:stedsnr" v="133399" />
		<tag k="ssr:type" v="fyrlykt" />
	</node>
	<node id="-589064" lat="62.7816666653" lon="6.46876110527">
		<tag k="name" v="Sandøy kommune" />
		<tag k="ssr:date" v="2016-05-11" />
		<tag k="ssr:gruppe" v="administrativeIndelinger" />
		<tag k="ssr:hovedgruppe" v="offentligAdministrasjon" />
		<tag k="ssr:stedsnr" v="814959" />
		<tag k="ssr:type" v="kommune" />
	</node>
	<node id="-588548" lat="62.8198833327" lon="6.56995555835">
		<tag k="name" v="Slantreskjeret" />
		<tag k="ssr:date" v="2016-05-10" />
		<tag k="ssr:gruppe" v="navigasjon" />
		<tag k="ssr:hovedgruppe" v="infrastruktur" />
		<tag k="ssr:stedsnr" v="133352" />
		<tag k="ssr:type" v="fyrlykt" />
	</node>
	<node id="-588418" lat="62.8140543393" lon="6.53294133498">
		<tag k="name" v="Seterøya" />
		<tag k="ssr:date" v="2019-05-30" />
		<tag k="ssr:gruppe" v="veg" />
		<tag k="ssr:hovedgruppe" v="infrastruktur" />
		<tag k="ssr:stedsnr" v="993080" />
		<tag k="ssr:type" v="adressenavn" />
	</node>
	<node id="-588417" lat="62.8002666381" lon="6.5342104872">
		<tag k="name" v="Gåsøya" />
		<tag k="ssr:date" v="2019-05-30" />
		<tag k="ssr:gruppe" v="veg" />
		<tag k="ssr:hovedgruppe" v="infrastruktur" />
		<tag k="ssr:stedsnr" v="993079" />
		<tag k="ssr:type" v="adressenavn" />
	</node>
</osm>
