<?xml version="1.0" encoding="UTF-8"?>
<osm version="0.6" generator="osmapis">
	<node lat="60.25455000054272" lon="11.682461118766536" id="-36873">
		<tag k="name" v="Sør-Odal kommune" />
		<tag k="ssr:date" v="2019-12-27" />
		<tag k="ssr:gruppe" v="administrativeIndelinger" />
		<tag k="ssr:hovedgruppe" v="offentligAdministrasjon" />
		<tag k="ssr:stedsnr" v="268272" />
		<tag k="ssr:type" v="kommune" />
	</node>
	<node lat="60.32945555867" lon="11.61435832707435" id="-37990">
		<tag k="name" v="Odalen" />
		<tag k="ssr:date" v="2019-12-27" />
		<tag k="ssr:gruppe" v="terrengområder" />
		<tag k="ssr:hovedgruppe" v="terreng" />
		<tag k="ssr:stedsnr" v="210794" />
		<tag k="ssr:type" v="landskapsområde" />
	</node>
	<node lat="60.22311638340294" lon="11.801262063408736" id="-38830">
		<tag k="name" v="Åslivegen" />
		<tag k="ssr:date" v="2019-12-27" />
		<tag k="ssr:gruppe" v="veg" />
		<tag k="ssr:hovedgruppe" v="infrastruktur" />
		<tag k="ssr:stedsnr" v="1002773" />
		<tag k="ssr:type" v="adressenavn" />
	</node>
	<node lat="60.20816033184503" lon="11.88968898846711" id="-38831">
		<tag k="name" v="Kongsvingervegen" />
		<tag k="ssr:date" v="2019-12-27" />
		<tag k="ssr:gruppe" v="veg" />
		<tag k="ssr:hovedgruppe" v="infrastruktur" />
		<tag k="ssr:stedsnr" v="1002776" />
		<tag k="ssr:type" v="adressenavn" />
	</node>
	<node lat="60.19177139103763" lon="11.863351447227672" id="-38832">
		<tag k="name" v="Bjørklivegen" />
		<tag k="ssr:date" v="2019-12-27" />
		<tag k="ssr:gruppe" v="veg" />
		<tag k="ssr:hovedgruppe" v="infrastruktur" />
		<tag k="ssr:stedsnr" v="1002780" />
		<tag k="ssr:type" v="adressenavn" />
	</node>
	<node lat="60.1893584697502" lon="11.86242732637437" id="-38833">
		<tag k="name" v="Barlivegen" />
		<tag k="ssr:date" v="2019-12-27" />
		<tag k="ssr:gruppe" v="veg" />
		<tag k="ssr:hovedgruppe" v="infrastruktur" />
		<tag k="ssr:stedsnr" v="1002783" />
		<tag k="ssr:type" v="adressenavn" />
	</node>
	<node lat="60.22220178645897" lon="11.798139501108219" id="-38834">
		<tag k="name" v="Leiravegen" />
		<tag k="ssr:date" v="2019-12-27" />
		<tag k="ssr:gruppe" v="veg" />
		<tag k="ssr:hovedgruppe" v="infrastruktur" />
		<tag k="ssr:stedsnr" v="1002837" />
		<tag k="ssr:type" v="adressenavn" />
	</node>
	<node lat="60.24546722331987" lon="11.679831278062254" id="-38835">
		<tag k="name" v="Leikvegen" />
		<tag k="ssr:date" v="2019-12-27" />
		<tag k="ssr:gruppe" v="veg" />
		<tag k="ssr:hovedgruppe" v="infrastruktur" />
		<tag k="ssr:stedsnr" v="1002843" />
		<tag k="ssr:type" v="adressenavn" />
	</node>
	<node lat="60.24414906905787" lon="11.680588476159189" id="-38852">
		<tag k="name" v="Tronbølvegen" />
		<tag k="ssr:date" v="2019-12-27" />
		<tag k="ssr:gruppe" v="veg" />
		<tag k="ssr:hovedgruppe" v="infrastruktur" />
		<tag k="ssr:stedsnr" v="1002787" />
		<tag k="ssr:type" v="adressenavn" />
	</node>
	<node lat="60.2622372612399" lon="11.682640287709166" id="-38853">
		<tag k="name" v="Tunvegen" />
		<tag k="ssr:date" v="2019-12-27" />
		<tag k="ssr:gruppe" v="veg" />
		<tag k="ssr:hovedgruppe" v="infrastruktur" />
		<tag k="ssr:stedsnr" v="1002790" />
		<tag k="ssr:type" v="adressenavn" />
	</node>
	<node lat="60.23985015520078" lon="11.683688015636946" id="-38854">
		<tag k="name" v="Tverrvegen" />
		<tag k="ssr:date" v="2019-12-27" />
		<tag k="ssr:gruppe" v="veg" />
		<tag k="ssr:hovedgruppe" v="infrastruktur" />
		<tag k="ssr:stedsnr" v="1002793" />
		<tag k="ssr:type" v="adressenavn" />
	</node>
	<node lat="60.23850466941379" lon="11.678729133184799" id="-38856">
		<tag k="name" v="Soleievegen" />
		<tag k="ssr:date" v="2019-12-27" />
		<tag k="ssr:gruppe" v="veg" />
		<tag k="ssr:hovedgruppe" v="infrastruktur" />
		<tag k="ssr:stedsnr" v="1002800" />
		<tag k="ssr:type" v="adressenavn" />
	</node>
	<node lat="60.2486648665177" lon="11.707085499128027" id="-38857">
		<tag k="name" v="Strandvegen" />
		<tag k="ssr:date" v="2019-12-27" />
		<tag k="ssr:gruppe" v="veg" />
		<tag k="ssr:hovedgruppe" v="infrastruktur" />
		<tag k="ssr:stedsnr" v="1002805" />
		<tag k="ssr:type" v="adressenavn" />
	</node>
	<node lat="60.25942301060733" lon="11.677228440665607" id="-38858">
		<tag k="name" v="Stumovegen" />
		<tag k="ssr:date" v="2019-12-27" />
		<tag k="ssr:gruppe" v="veg" />
		<tag k="ssr:hovedgruppe" v="infrastruktur" />
		<tag k="ssr:stedsnr" v="1002809" />
		<tag k="ssr:type" v="adressenavn" />
	</node>
	<node lat="60.25625563083807" lon="11.673612191747191" id="-38859">
		<tag k="name" v="Sykehusvegen" />
		<tag k="ssr:date" v="2019-12-27" />
		<tag k="ssr:gruppe" v="veg" />
		<tag k="ssr:hovedgruppe" v="infrastruktur" />
		<tag k="ssr:stedsnr" v="1002812" />
		<tag k="ssr:type" v="adressenavn" />
	</node>
	<node lat="60.25944307462073" lon="11.681196151155307" id="-38860">
		<tag k="name" v="Osvegen" />
		<tag k="ssr:date" v="2019-12-27" />
		<tag k="ssr:gruppe" v="veg" />
		<tag k="ssr:hovedgruppe" v="infrastruktur" />
		<tag k="ssr:stedsnr" v="1002814" />
		<tag k="ssr:type" v="adressenavn" />
	</node>
	<node lat="60.2541523850925" lon="11.685529472042463" id="-38861">
		<tag k="name" v="Sandervegen" />
		<tag k="ssr:date" v="2019-12-27" />
		<tag k="ssr:gruppe" v="veg" />
		<tag k="ssr:hovedgruppe" v="infrastruktur" />
		<tag k="ssr:stedsnr" v="1002818" />
		<tag k="ssr:type" v="adressenavn" />
	</node>
	<node lat="60.24200722830477" lon="11.678249491683653" id="-38862">
		<tag k="name" v="Skogstjernevegen" />
		<tag k="ssr:date" v="2019-12-27" />
		<tag k="ssr:gruppe" v="veg" />
		<tag k="ssr:hovedgruppe" v="infrastruktur" />
		<tag k="ssr:stedsnr" v="1002822" />
		<tag k="ssr:type" v="adressenavn" />
	</node>
	<node lat="60.20174393791051" lon="11.640975713927135" id="-38863">
		<tag k="name" v="Skøyenbakken" />
		<tag k="ssr:date" v="2019-12-27" />
		<tag k="ssr:gruppe" v="veg" />
		<tag k="ssr:hovedgruppe" v="infrastruktur" />
		<tag k="ssr:stedsnr" v="1002824" />
		<tag k="ssr:type" v="adressenavn" />
	</node>
	<node lat="60.25770567279009" lon="11.674861782172757" id="-38864">
		<tag k="name" v="Nord-Odalsvegen" />
		<tag k="ssr:date" v="2019-12-27" />
		<tag k="ssr:gruppe" v="veg" />
		<tag k="ssr:hovedgruppe" v="infrastruktur" />
		<tag k="ssr:stedsnr" v="1002826" />
		<tag k="ssr:type" v="adressenavn" />
	</node>
	<node lat="60.2526154701183" lon="11.673244791389294" id="-38865">
		<tag k="name" v="Ole Dysteruds veg" />
		<tag k="ssr:date" v="2019-12-27" />
		<tag k="ssr:gruppe" v="veg" />
		<tag k="ssr:hovedgruppe" v="infrastruktur" />
		<tag k="ssr:stedsnr" v="1002828" />
		<tag k="ssr:type" v="adressenavn" />
	</node>
	<node lat="60.19725911836615" lon="11.576153812217669" id="-38866">
		<tag k="name" v="Oslovegen" />
		<tag k="ssr:date" v="2019-12-27" />
		<tag k="ssr:gruppe" v="veg" />
		<tag k="ssr:hovedgruppe" v="infrastruktur" />
		<tag k="ssr:stedsnr" v="1002831" />
		<tag k="ssr:type" v="adressenavn" />
	</node>
	<node lat="60.245536751345256" lon="11.685524141106791" id="-38867">
		<tag k="name" v="Ospelivegen" />
		<tag k="ssr:date" v="2019-12-27" />
		<tag k="ssr:gruppe" v="veg" />
		<tag k="ssr:hovedgruppe" v="infrastruktur" />
		<tag k="ssr:stedsnr" v="1002834" />
		<tag k="ssr:type" v="adressenavn" />
	</node>
	<node lat="60.241428182428976" lon="11.685560035985574" id="-38868">
		<tag k="name" v="Furuvegen" />
		<tag k="ssr:date" v="2019-12-27" />
		<tag k="ssr:gruppe" v="veg" />
		<tag k="ssr:hovedgruppe" v="infrastruktur" />
		<tag k="ssr:stedsnr" v="1002887" />
		<tag k="ssr:type" v="adressenavn" />
	</node>
	<node lat="60.25084858520239" lon="11.682384994149503" id="-38869">
		<tag k="name" v="Grendevegen" />
		<tag k="ssr:date" v="2019-12-27" />
		<tag k="ssr:gruppe" v="veg" />
		<tag k="ssr:hovedgruppe" v="infrastruktur" />
		<tag k="ssr:stedsnr" v="1002893" />
		<tag k="ssr:type" v="adressenavn" />
	</node>
	<node lat="60.224292806632555" lon="11.805069232593194" id="-38870">
		<tag k="name" v="Hamnevegen" />
		<tag k="ssr:date" v="2019-12-27" />
		<tag k="ssr:gruppe" v="veg" />
		<tag k="ssr:hovedgruppe" v="infrastruktur" />
		<tag k="ssr:stedsnr" v="1002895" />
		<tag k="ssr:type" v="adressenavn" />
	</node>
	<node lat="60.24102851990235" lon="11.693301011240145" id="-38871">
		<tag k="name" v="Damlivegen" />
		<tag k="ssr:date" v="2019-12-27" />
		<tag k="ssr:gruppe" v="veg" />
		<tag k="ssr:hovedgruppe" v="infrastruktur" />
		<tag k="ssr:stedsnr" v="1002898" />
		<tag k="ssr:type" v="adressenavn" />
	</node>
	<node lat="60.17381185213468" lon="11.570502684282499" id="-38872">
		<tag k="name" v="Disenåvegen" />
		<tag k="ssr:date" v="2019-12-27" />
		<tag k="ssr:gruppe" v="veg" />
		<tag k="ssr:hovedgruppe" v="infrastruktur" />
		<tag k="ssr:stedsnr" v="1002899" />
		<tag k="ssr:type" v="adressenavn" />
	</node>
	<node lat="60.23761591814479" lon="11.679630672407777" id="-38874">
		<tag k="name" v="Fiolvegen" />
		<tag k="ssr:date" v="2019-12-27" />
		<tag k="ssr:gruppe" v="veg" />
		<tag k="ssr:hovedgruppe" v="infrastruktur" />
		<tag k="ssr:stedsnr" v="1002904" />
		<tag k="ssr:type" v="adressenavn" />
	</node>
	<node lat="60.239354915994426" lon="11.678518267053827" id="-38875">
		<tag k="name" v="Lyngvegen" />
		<tag k="ssr:date" v="2019-12-27" />
		<tag k="ssr:gruppe" v="veg" />
		<tag k="ssr:hovedgruppe" v="infrastruktur" />
		<tag k="ssr:stedsnr" v="1002846" />
		<tag k="ssr:type" v="adressenavn" />
	</node>
	<node lat="60.24300292696307" lon="11.678855353808219" id="-38877">
		<tag k="name" v="Konvallvegen" />
		<tag k="ssr:date" v="2019-12-27" />
		<tag k="ssr:gruppe" v="veg" />
		<tag k="ssr:hovedgruppe" v="infrastruktur" />
		<tag k="ssr:stedsnr" v="1002857" />
		<tag k="ssr:type" v="adressenavn" />
	</node>
	<node lat="60.25101504292114" lon="11.671031476019696" id="-38878">
		<tag k="name" v="Korsmovegen" />
		<tag k="ssr:date" v="2019-12-27" />
		<tag k="ssr:gruppe" v="veg" />
		<tag k="ssr:hovedgruppe" v="infrastruktur" />
		<tag k="ssr:stedsnr" v="1002861" />
		<tag k="ssr:type" v="adressenavn" />
	</node>
	<node lat="60.25389063579164" lon="11.688257628265072" id="-38880">
		<tag k="name" v="Kampenvegen" />
		<tag k="ssr:date" v="2019-12-27" />
		<tag k="ssr:gruppe" v="veg" />
		<tag k="ssr:hovedgruppe" v="infrastruktur" />
		<tag k="ssr:stedsnr" v="1002868" />
		<tag k="ssr:type" v="adressenavn" />
	</node>
	<node lat="60.246321726024554" lon="11.68111863988589" id="-38881">
		<tag k="name" v="Karl Bergens veg" />
		<tag k="ssr:date" v="2019-12-27" />
		<tag k="ssr:gruppe" v="veg" />
		<tag k="ssr:hovedgruppe" v="infrastruktur" />
		<tag k="ssr:stedsnr" v="1002871" />
		<tag k="ssr:type" v="adressenavn" />
	</node>
	<node lat="60.252267226049526" lon="11.682091260644762" id="-38882">
		<tag k="name" v="Karl Thonanders veg" />
		<tag k="ssr:date" v="2019-12-27" />
		<tag k="ssr:gruppe" v="veg" />
		<tag k="ssr:hovedgruppe" v="infrastruktur" />
		<tag k="ssr:stedsnr" v="1002874" />
		<tag k="ssr:type" v="adressenavn" />
	</node>
	<node lat="60.24107612809756" lon="11.678454100575296" id="-38883">
		<tag k="name" v="Kløvervegen" />
		<tag k="ssr:date" v="2019-12-27" />
		<tag k="ssr:gruppe" v="veg" />
		<tag k="ssr:hovedgruppe" v="infrastruktur" />
		<tag k="ssr:stedsnr" v="1002878" />
		<tag k="ssr:type" v="adressenavn" />
	</node>
	<node lat="60.240108060095004" lon="11.688509552219125" id="-38884">
		<tag k="name" v="Holtvegen" />
		<tag k="ssr:date" v="2019-12-27" />
		<tag k="ssr:gruppe" v="veg" />
		<tag k="ssr:hovedgruppe" v="infrastruktur" />
		<tag k="ssr:stedsnr" v="1002879" />
		<tag k="ssr:type" v="adressenavn" />
	</node>
	<node lat="60.240268635564284" lon="11.678366024429186" id="-38885">
		<tag k="name" v="Hvitveisvegen" />
		<tag k="ssr:date" v="2019-12-27" />
		<tag k="ssr:gruppe" v="veg" />
		<tag k="ssr:hovedgruppe" v="infrastruktur" />
		<tag k="ssr:stedsnr" v="1002882" />
		<tag k="ssr:type" v="adressenavn" />
	</node>
	<node lat="60.199392536849864" lon="11.643510791884319" id="-38886">
		<tag k="name" v="Jonas Prans veg" />
		<tag k="ssr:date" v="2019-12-27" />
		<tag k="ssr:gruppe" v="veg" />
		<tag k="ssr:hovedgruppe" v="infrastruktur" />
		<tag k="ssr:stedsnr" v="1002884" />
		<tag k="ssr:type" v="adressenavn" />
	</node>
	<node lat="60.25037580094162" lon="11.678934314503241" id="-38907">
		<tag k="name" v="Bergvegen" />
		<tag k="ssr:date" v="2019-12-27" />
		<tag k="ssr:gruppe" v="veg" />
		<tag k="ssr:hovedgruppe" v="infrastruktur" />
		<tag k="ssr:stedsnr" v="1002907" />
		<tag k="ssr:type" v="adressenavn" />
	</node>
	<node lat="60.24623122327163" lon="11.678365464481569" id="-38908">
		<tag k="name" v="Blomstervegen" />
		<tag k="ssr:date" v="2019-12-27" />
		<tag k="ssr:gruppe" v="veg" />
		<tag k="ssr:hovedgruppe" v="infrastruktur" />
		<tag k="ssr:stedsnr" v="1002911" />
		<tag k="ssr:type" v="adressenavn" />
	</node>
	<node lat="60.23796048820389" lon="11.679068016411788" id="-38909">
		<tag k="name" v="Blåveisvegen" />
		<tag k="ssr:date" v="2019-12-27" />
		<tag k="ssr:gruppe" v="veg" />
		<tag k="ssr:hovedgruppe" v="infrastruktur" />
		<tag k="ssr:stedsnr" v="1002914" />
		<tag k="ssr:type" v="adressenavn" />
	</node>
	<node lat="60.25451768612155" lon="11.680268441879322" id="-38910">
		<tag k="name" v="Bruvegen" />
		<tag k="ssr:date" v="2019-12-27" />
		<tag k="ssr:gruppe" v="veg" />
		<tag k="ssr:hovedgruppe" v="infrastruktur" />
		<tag k="ssr:stedsnr" v="1002916" />
		<tag k="ssr:type" v="adressenavn" />
	</node>
	<node lat="60.19994649364261" lon="11.642174204839064" id="-38947">
		<tag k="name" v="Bergfotvegen" />
		<tag k="ssr:date" v="2019-12-27" />
		<tag k="ssr:gruppe" v="veg" />
		<tag k="ssr:hovedgruppe" v="infrastruktur" />
		<tag k="ssr:stedsnr" v="1003629" />
		<tag k="ssr:type" v="adressenavn" />
	</node>
	<node lat="60.25306241091778" lon="11.684885748813715" id="-38948">
		<tag k="name" v="Bergstien" />
		<tag k="ssr:date" v="2019-12-27" />
		<tag k="ssr:gruppe" v="veg" />
		<tag k="ssr:hovedgruppe" v="infrastruktur" />
		<tag k="ssr:stedsnr" v="1003632" />
		<tag k="ssr:type" v="adressenavn" />
	</node>
</osm>
