<?xml version="1.0" encoding="UTF-8"?>
<osm version="0.6" generator="osmapis">
	<node lat="59.886383332789315" lon="5.317847223645145" id="-34448">
		<tag k="name" v="Hellandsneset" />
		<tag k="natural" v="cape" />
		<tag k="ssr:stedsnr" v="3808" />
	</node>
	<node lat="59.882774584182165" lon="5.407749832905738" id="-34449">
		<tag k="name" v="Klovskardvatnet" />
		<tag k="natural" v="water" />
		<tag k="ssr:stedsnr" v="3811" />
		<tag k="water" v="lake" />
	</node>
	<node lat="59.93398055766647" lon="5.135205555113081" id="-34450">
		<tag k="alt_name" v="Eggholmskjeret, nordre" />
		<tag k="fixme" v="consider seamark:type=rock or natural=shoal" />
		<tag k="name" v="Nordra Eggholmskjeret" />
		<tag k="place" v="islet" />
		<tag k="ssr:stedsnr" v="3792" />
	</node>
	<node lat="59.86306875042353" lon="5.258347962552125" id="-34451">
		<tag k="name" v="Krabbavikvatnet" />
		<tag k="natural" v="water" />
		<tag k="ssr:stedsnr" v="3921" />
	</node>
	<node lat="59.96283068475441" lon="5.315128330542855" id="-34452">
		<tag k="name" v="Tuftaland" />
		<tag k="place" v="hamlet" />
		<tag k="ssr:stedsnr" v="4164" />
	</node>
	<node lat="59.850816732744065" lon="5.343283498563817" id="-34453">
		<tag k="name" v="Søretjørna" />
		<tag k="natural" v="water" />
		<tag k="ssr:stedsnr" v="3879" />
	</node>
	<node lat="59.882656843825835" lon="5.25264487526476" id="-34454">
		<tag k="alt_name" v="Sætravika" />
		<tag k="fixme" v="consider place=hamlet" />
		<tag k="name" v="Sætravik" />
		<tag k="place" v="farm" />
		<tag k="ssr:stedsnr" v="4554" />
	</node>
	<node lat="59.92079721857051" lon="5.4535194464539805" id="-34455">
		<tag k="alt_name" v="Eidselva" />
		<tag k="name" v="Eideselva" />
		<tag k="ssr:stedsnr" v="4776" />
		<tag k="waterway" v="stream" />
	</node>
	<node lat="59.812286110044035" lon="5.340716671278213" id="-34456">
		<tag k="name" v="Brandaneset" />
		<tag k="natural" v="cape" />
		<tag k="ssr:stedsnr" v="37114" />
	</node>
	<node lat="59.90149722614986" lon="5.369841661326892" id="-34457">
		<tag k="name" v="Djupedalen" />
		<tag k="natural" v="valley" />
		<tag k="place" v="locality" />
		<tag k="ssr:stedsnr" v="37065" />
	</node>
	<node lat="59.93564525559036" lon="5.447992086362979" id="-34458">
		<tag k="fixme" v="consider place=hamlet" />
		<tag k="name" v="Nordre Raunholm" />
		<tag k="place" v="farm" />
		<tag k="ssr:stedsnr" v="37077" />
	</node>
	<node lat="59.85220833004932" lon="5.344588886188975" id="-34459">
		<tag k="name" v="Valbergshaugen" />
		<tag k="natural" v="hill" />
		<tag k="place" v="locality" />
		<tag k="ssr:stedsnr" v="37406" />
	</node>
	<node lat="59.85789722064552" lon="5.341005559647961" id="-34460">
		<tag k="name" v="Vassneshaugen" />
		<tag k="natural" v="hill" />
		<tag k="place" v="locality" />
		<tag k="ssr:stedsnr" v="37412" />
	</node>
	<node lat="59.847272223396224" lon="5.336702772454821" id="-34461">
		<tag k="name" v="Grøndalen" />
		<tag k="natural" v="valley" />
		<tag k="place" v="locality" />
		<tag k="ssr:stedsnr" v="37419" />
	</node>
	<node lat="59.90020555257125" lon="5.282347227414371" id="-34462">
		<tag k="name" v="Midtstykket" />
		<tag k="place" v="island" />
		<tag k="ssr:stedsnr" v="37158" />
	</node>
	<node lat="59.895961110616405" lon="5.29961667239969" id="-34463">
		<tag k="name" v="Ådnepøyla" />
		<tag k="natural" v="bay" />
		<tag k="ssr:stedsnr" v="37163" />
	</node>
	<node lat="59.902622220098046" lon="5.181825000807081" id="-34464">
		<tag k="name" v="Bassneset" />
		<tag k="natural" v="cape" />
		<tag k="ssr:stedsnr" v="37501" />
	</node>
	<node lat="59.851544448179176" lon="5.40715833922196" id="-34465">
		<tag k="alt_name" v="Seterbølia" />
		<tag k="name" v="Sæterbølia" />
		<tag k="natural" v="slope" />
		<tag k="place" v="locality" />
		<tag k="ssr:stedsnr" v="38003" />
	</node>
	<node lat="59.9031888859003" lon="5.152333330114355" id="-34466">
		<tag k="fixme" v="multiple name tags, choose one and add the other to alt_name" />
		<tag k="name" v="Stora Soløy;Soløy" />
		<tag k="place" v="island" />
		<tag k="ssr:stedsnr" v="240769" />
	</node>
	<node lat="59.957022688375176" lon="5.313006852100852" id="-34467">
		<tag k="alt_name" v="Litlenes" />
		<tag k="fixme" v="consider place=hamlet" />
		<tag k="name" v="Litlanes" />
		<tag k="place" v="farm" />
		<tag k="ssr:stedsnr" v="64157" />
	</node>
	<node lat="59.85351388632849" lon="5.293861111161118" id="-34468">
		<tag k="name" v="Dåsholmen" />
		<tag k="place" v="islet" />
		<tag k="ssr:stedsnr" v="64919" />
	</node>
	<node lat="59.94058888632104" lon="5.241908338904973" id="-34469">
		<tag k="name" v="Leiarholmen" />
		<tag k="place" v="islet" />
		<tag k="ssr:stedsnr" v="64820" />
	</node>
	<node lat="59.889350002228035" lon="5.417130562385168" id="-34470">
		<tag k="alt_name" v="Kløvskardet" />
		<tag k="name" v="Klovskard" />
		<tag k="natural" v="valley" />
		<tag k="place" v="locality" />
		<tag k="ssr:stedsnr" v="64825" />
	</node>
	<node lat="59.87800833324445" lon="5.267761117301551" id="-34471">
		<tag k="name" v="Hjelmosen" />
		<tag k="natural" v="strait" />
		<tag k="ssr:stedsnr" v="64845" />
	</node>
	<node lat="59.88826172733556" lon="5.325779645737133" id="-34472">
		<tag k="name" v="Storavatnet" />
		<tag k="natural" v="water" />
		<tag k="ssr:stedsnr" v="64846" />
		<tag k="water" v="lake" />
	</node>
	<node lat="59.915330555932975" lon="5.348936114911633" id="-34473">
		<tag k="name" v="Skrikelbekken" />
		<tag k="ssr:stedsnr" v="64872" />
		<tag k="waterway" v="stream" />
	</node>
	<node lat="59.9012668757599" lon="5.277591107826207" id="-34474">
		<tag k="name" v="Hundsryggesundet" />
		<tag k="natural" v="strait" />
		<tag k="ssr:stedsnr" v="64876" />
	</node>
	<node lat="59.966575095558156" lon="5.331180575931931" id="-34475">
		<tag k="alt_name" v="Sandvika" />
		<tag k="fixme" v="consider place=hamlet" />
		<tag k="name" v="Sandvik" />
		<tag k="place" v="farm" />
		<tag k="ssr:stedsnr" v="65187" />
	</node>
	<node lat="59.8077001161685" lon="5.320618494084188" id="-34476">
		<tag k="alt_name" v="Stokksundet" />
		<tag k="name" v="Stokksund" />
		<tag k="natural" v="strait" />
		<tag k="ssr:stedsnr" v="65531" />
	</node>
	<node lat="59.971775000977495" lon="5.3051194489642794" id="-34477">
		<tag k="name" v="Korsvik" />
		<tag k="natural" v="bay" />
		<tag k="ssr:stedsnr" v="86274" />
	</node>
	<node lat="59.95479166679363" lon="5.279586109756444" id="-34478">
		<tag k="alt_name" v="Matløysa" />
		<tag k="name" v="Matløyso" />
		<tag k="place" v="islet" />
		<tag k="ssr:stedsnr" v="246179" />
	</node>
	<node lat="59.93793071376947" lon="5.387737916381932" id="-34479">
		<tag k="name" v="Langavatnet" />
		<tag k="natural" v="water" />
		<tag k="ssr:stedsnr" v="246758" />
	</node>
	<node lat="59.90815453132178" lon="5.392993882165861" id="-34480">
		<tag k="name" v="Midtvatnet" />
		<tag k="natural" v="water" />
		<tag k="ssr:stedsnr" v="246832" />
	</node>
	<node lat="59.912119810019554" lon="5.328395534712406" id="-34481">
		<tag k="fixme" v="consider place=hamlet" />
		<tag k="name" v="Rimbareid" />
		<tag k="place" v="farm" />
		<tag k="ssr:stedsnr" v="246846" />
	</node>
	<node lat="59.91458888936245" lon="5.401680549037102" id="-34482">
		<tag k="name" v="Svartavatnet" />
		<tag k="natural" v="water" />
		<tag k="ssr:stedsnr" v="246851" />
		<tag k="water" v="lake" />
	</node>
	<node lat="59.91713610737915" lon="5.387655561495742" id="-34483">
		<tag k="name" v="Beinatjørna" />
		<tag k="natural" v="water" />
		<tag k="ssr:stedsnr" v="246852" />
	</node>
	<node lat="59.833291670907734" lon="5.318325006133633" id="-34484">
		<tag k="alt_name" v="Skardavika;Skardavik" />
		<tag k="name" v="Skaravågen" />
		<tag k="natural" v="bay" />
		<tag k="ssr:stedsnr" v="246987" />
	</node>
	<node lat="59.944463891972404" lon="5.426799992636974" id="-34485">
		<tag k="name" v="Dørevika" />
		<tag k="natural" v="bay" />
		<tag k="ssr:stedsnr" v="98026" />
	</node>
	<node lat="59.95136566118591" lon="5.394635926992397" id="-34486">
		<tag k="fixme" v="multiple name tags, choose one and add the other to alt_name; consider place=hamlet" />
		<tag k="name" v="Søre Engjavik;Sørgard" />
		<tag k="place" v="farm" />
		<tag k="ssr:stedsnr" v="98072" />
	</node>
	<node lat="59.87131111159054" lon="5.407311119898848" id="-34487">
		<tag k="name" v="Melshallene" />
		<tag k="place" v="locality" />
		<tag k="ssr:stedsnr" v="98075" />
	</node>
	<node lat="59.944522221425714" lon="5.410927769833811" id="-34488">
		<tag k="historic" v="shieling" />
		<tag k="name" v="Grønestølen" />
		<tag k="place" v="isolated_dwelling" />
		<tag k="ssr:stedsnr" v="98077" />
	</node>
	<node lat="59.89719166269441" lon="5.3399861163046864" id="-34489">
		<tag k="name" v="Orrhaugen" />
		<tag k="natural" v="hill" />
		<tag k="place" v="locality" />
		<tag k="ssr:stedsnr" v="98109" />
	</node>
	<node lat="59.91471944747169" lon="5.25512500346816" id="-34490">
		<tag k="name" v="Skatholmsflakket" />
		<tag k="place" v="island" />
		<tag k="ssr:stedsnr" v="98118" />
	</node>
	<node lat="59.91542500131698" lon="5.277041664338333" id="-34491">
		<tag k="name" v="Ildebleikja" />
		<tag k="place" v="island" />
		<tag k="ssr:stedsnr" v="98122" />
	</node>
	<node lat="59.856977781235614" lon="5.299855555420348" id="-34492">
		<tag k="name" v="Bokenes" />
		<tag k="natural" v="cape" />
		<tag k="ssr:stedsnr" v="98411" />
	</node>
	<node lat="59.86359167013011" lon="5.247944440029183" id="-34493">
		<tag k="name" v="Øspevikneset" />
		<tag k="natural" v="cape" />
		<tag k="ssr:stedsnr" v="98473" />
	</node>
	<node lat="59.91071110797192" lon="5.203850008031369" id="-34494">
		<tag k="name" v="Nordre Langøyvågen" />
		<tag k="natural" v="bay" />
		<tag k="ssr:stedsnr" v="98482" />
	</node>
	<node lat="59.88553333604883" lon="5.35030833089055" id="-34495">
		<tag k="name" v="Tveitabrekkene" />
		<tag k="natural" v="slope" />
		<tag k="place" v="locality" />
		<tag k="ssr:stedsnr" v="98377" />
	</node>
	<node lat="59.89033333370291" lon="5.210927775695197" id="-34496">
		<tag k="name" v="Tranøyneset" />
		<tag k="natural" v="cape" />
		<tag k="ssr:stedsnr" v="98521" />
	</node>
	<node lat="59.907194445851545" lon="5.119438892342513" id="-34497">
		<tag k="name" v="Austre Remals-sundet" />
		<tag k="natural" v="strait" />
		<tag k="ssr:stedsnr" v="98527" />
	</node>
	<node lat="59.97475555383268" lon="5.326727774747297" id="-34498">
		<tag k="name" v="Grønevik" />
		<tag k="natural" v="bay" />
		<tag k="ssr:stedsnr" v="99010" />
	</node>
	<node lat="59.81636666690204" lon="5.328166663519327" id="-34499">
		<tag k="name" v="Slåttevika" />
		<tag k="natural" v="bay" />
		<tag k="ssr:stedsnr" v="125546" />
	</node>
	<node lat="59.902102773476656" lon="5.144372222190965" id="-34500">
		<tag k="alt_name" v="Skipsholmen, s" />
		<tag k="name" v="Søre Skipsholmen" />
		<tag k="place" v="islet" />
		<tag k="ssr:stedsnr" v="125766" />
	</node>
	<node lat="59.93666389002755" lon="5.324144438235267" id="-34501">
		<tag k="name" v="Leirpollneset" />
		<tag k="natural" v="cape" />
		<tag k="ssr:stedsnr" v="125808" />
	</node>
	<node lat="59.93443333413565" lon="5.2161861093665065" id="-34502">
		<tag k="name" v="Flatøy" />
		<tag k="place" v="island" />
		<tag k="ssr:stedsnr" v="125812" />
	</node>
	<node lat="59.9342027769948" lon="5.184830556203589" id="-34503">
		<tag k="alt_name" v="Nordra Sigleskjeret" />
		<tag k="fixme" v="consider seamark:type=rock or natural=shoal" />
		<tag k="name" v="Sigleskjeret" />
		<tag k="place" v="islet" />
		<tag k="ssr:stedsnr" v="125814" />
	</node>
	<node lat="59.8868444402618" lon="5.313074996562575" id="-34504">
		<tag k="name" v="Gåsakjelda" />
		<tag k="natural" v="bay" />
		<tag k="ssr:stedsnr" v="125828" />
	</node>
	<node lat="59.863684542992864" lon="5.358528931713208" id="-34505">
		<tag k="fixme" v="consider place=hamlet" />
		<tag k="name" v="Liarbø" />
		<tag k="place" v="farm" />
		<tag k="ssr:stedsnr" v="125909" />
	</node>
	<node lat="59.959363650436" lon="5.291757900696551" id="-34506">
		<tag k="name" v="Skumsneset" />
		<tag k="natural" v="cape" />
		<tag k="ssr:stedsnr" v="146024" />
	</node>
	<node lat="59.852225004329355" lon="5.3546694473374155" id="-34507">
		<tag k="name" v="Livdalen" />
		<tag k="natural" v="valley" />
		<tag k="place" v="locality" />
		<tag k="ssr:stedsnr" v="159109" />
	</node>
	<node lat="59.971102777741855" lon="5.333450004692437" id="-34508">
		<tag k="name" v="Storholmen" />
		<tag k="place" v="islet" />
		<tag k="ssr:stedsnr" v="159017" />
	</node>
	<node lat="59.886680550949514" lon="5.363430549969557" id="-34509">
		<tag k="name" v="Tveitastorhaugen" />
		<tag k="natural" v="hill" />
		<tag k="place" v="locality" />
		<tag k="ssr:stedsnr" v="159413" />
	</node>
	<node lat="59.84112500330489" lon="5.333355553737652" id="-34510">
		<tag k="ford" v="yes" />
		<tag k="name" v="Krokavad" />
		<tag k="place" v="locality" />
		<tag k="ssr:stedsnr" v="159453" />
	</node>
	<node lat="59.90447777554928" lon="5.214786114741561" id="-34511">
		<tag k="name" v="Grunnasundsholmane" />
		<tag k="place" v="islet" />
		<tag k="ssr:stedsnr" v="159466" />
	</node>
	<node lat="59.884663890958194" lon="5.292513885024241" id="-34512">
		<tag k="name" v="Åtteringsholo" />
		<tag k="natural" v="bay" />
		<tag k="ssr:stedsnr" v="159467" />
	</node>
	<node lat="59.912405555579454" lon="5.20493333599379" id="-34513">
		<tag k="name" v="Dalsvågen" />
		<tag k="natural" v="bay" />
		<tag k="ssr:stedsnr" v="159504" />
	</node>
	<node lat="59.91230000314669" lon="5.154149999375226" id="-34514">
		<tag k="name" v="Osableikja" />
		<tag k="place" v="island" />
		<tag k="ssr:stedsnr" v="159508" />
	</node>
	<node lat="59.85855832977655" lon="5.35514443731002" id="-34515">
		<tag k="name" v="Risdalen" />
		<tag k="natural" v="valley" />
		<tag k="place" v="locality" />
		<tag k="ssr:stedsnr" v="159521" />
	</node>
	<node lat="59.91184444161363" lon="5.124561108783451" id="-34516">
		<tag k="name" v="Klamrøysundet" />
		<tag k="natural" v="strait" />
		<tag k="ssr:stedsnr" v="159550" />
	</node>
	<node lat="59.88599166521665" lon="5.197372231071265" id="-34517">
		<tag k="name" v="Austre Natterøysundet" />
		<tag k="natural" v="strait" />
		<tag k="ssr:stedsnr" v="159553" />
	</node>
	<node lat="59.89082139578137" lon="5.220114184003196" id="-34518">
		<tag k="alt_name" v="Hatlevika;Haslevika" />
		<tag k="fixme" v="consider place=hamlet" />
		<tag k="name" v="Hatlevik" />
		<tag k="place" v="farm" />
		<tag k="ssr:stedsnr" v="185832" />
	</node>
	<node lat="59.959877005439125" lon="5.35919070649622" id="-34519">
		<tag k="alt_name" v="Levåg, øvre" />
		<tag k="fixme" v="consider place=hamlet" />
		<tag k="name" v="Øvre Levåg" />
		<tag k="place" v="farm" />
		<tag k="ssr:stedsnr" v="186181" />
	</node>
	<node lat="59.92204980442729" lon="5.165956746432041" id="-34520">
		<tag k="name" v="Eggøy" />
		<tag k="place" v="island" />
		<tag k="ssr:stedsnr" v="186804" />
	</node>
	<node lat="59.942895579424125" lon="5.427169089231559" id="-34521">
		<tag k="alt_name" v="Hagberg" />
		<tag k="fixme" v="consider place=hamlet" />
		<tag k="name" v="Hageberg" />
		<tag k="place" v="farm" />
		<tag k="ssr:stedsnr" v="186808" />
	</node>
	<node lat="59.8351059545255" lon="5.368396852449519" id="-34522">
		<tag k="name" v="Stemmetjørna" />
		<tag k="natural" v="water" />
		<tag k="ssr:stedsnr" v="186980" />
	</node>
	<node lat="59.818911110444944" lon="5.320758341905132" id="-34523">
		<tag k="name" v="Selevikneset" />
		<tag k="natural" v="cape" />
		<tag k="ssr:stedsnr" v="267380" />
	</node>
	<node lat="59.97662778086717" lon="5.286177778355469" id="-34524">
		<tag k="name" v="Revet" />
		<tag k="natural" v="shoal" />
		<tag k="place" v="locality" />
		<tag k="ssr:stedsnr" v="268035" />
	</node>
	<node lat="59.90970555931161" lon="5.2842861113911255" id="-34525">
		<tag k="alt_name" v="Tjøregravsundet" />
		<tag k="name" v="Tjøregrovsundet" />
		<tag k="natural" v="strait" />
		<tag k="ssr:stedsnr" v="268066" />
	</node>
	<node lat="59.97368093873717" lon="5.327205590086905" id="-34526">
		<tag k="alt_name" v="Erevik" />
		<tag k="name" v="Ærevik" />
		<tag k="natural" v="bay" />
		<tag k="ssr:stedsnr" v="268246" />
	</node>
	<node lat="59.961091667598694" lon="5.3812138919111865" id="-34527">
		<tag k="name" v="Skotadalen" />
		<tag k="natural" v="valley" />
		<tag k="place" v="locality" />
		<tag k="ssr:stedsnr" v="268258" />
	</node>
	<node lat="59.92991944582722" lon="5.271133339599045" id="-34528">
		<tag k="fixme" v="consider seamark:type=rock or natural=shoal" />
		<tag k="name" v="Osaskjeret" />
		<tag k="place" v="islet" />
		<tag k="ssr:stedsnr" v="207021" />
	</node>
	<node lat="59.94683055450606" lon="5.4021833290138055" id="-34529">
		<tag k="name" v="Hagen" />
		<tag k="place" v="farm" />
		<tag k="ssr:stedsnr" v="207247" />
	</node>
	<node lat="59.98143333008536" lon="5.319091659746074" id="-34530">
		<tag k="name" v="Austreneset" />
		<tag k="natural" v="cape" />
		<tag k="ssr:stedsnr" v="207255" />
	</node>
	<node lat="59.884430559859" lon="5.224925000421214" id="-34532">
		<tag k="name" v="Breidavik" />
		<tag k="natural" v="bay" />
		<tag k="ssr:stedsnr" v="328066" />
	</node>
	<node lat="59.909047222739574" lon="5.373402777991545" id="-34533">
		<tag k="name" v="Blekje" />
		<tag k="place" v="locality" />
		<tag k="ssr:stedsnr" v="219078" />
	</node>
	<node lat="59.815283331084" lon="5.324183328668043" id="-34534">
		<tag k="fixme" v="consider seamark:type=rock or natural=shoal" />
		<tag k="name" v="Selevikskjeret" />
		<tag k="place" v="islet" />
		<tag k="ssr:stedsnr" v="220102" />
	</node>
	<node lat="59.81965555289328" lon="5.340522215470723" id="-34535">
		<tag k="name" v="Djupevika" />
		<tag k="natural" v="bay" />
		<tag k="ssr:stedsnr" v="220103" />
	</node>
	<node lat="59.90761944432794" lon="5.288430559691687" id="-34536">
		<tag k="name" v="Synhaugane" />
		<tag k="natural" v="hill" />
		<tag k="place" v="locality" />
		<tag k="ssr:stedsnr" v="220113" />
	</node>
	<node lat="59.915369444683535" lon="5.314013885739968" id="-34537">
		<tag k="fixme" v="consider place=hamlet" />
		<tag k="name" v="Prestbø" />
		<tag k="place" v="farm" />
		<tag k="ssr:stedsnr" v="220114" />
	</node>
	<node lat="59.90794167024965" lon="5.310175000869525" id="-34538">
		<tag k="name" v="Vestbøstad" />
		<tag k="place" v="farm" />
		<tag k="ssr:stedsnr" v="220115" />
	</node>
	<node lat="59.917105554491485" lon="5.145402775403129" id="-34539">
		<tag k="name" v="Eidøybogen" />
		<tag k="natural" v="bay" />
		<tag k="ssr:stedsnr" v="220507" />
	</node>
	<node lat="59.89917499585589" lon="5.15638333654776" id="-34540">
		<tag k="name" v="Bakkaslumpen" />
		<tag k="natural" v="bay" />
		<tag k="ssr:stedsnr" v="220521" />
	</node>
	<node lat="59.913522217881926" lon="5.269274993690542" id="-34541">
		<tag k="name" v="Eldøyeidet" />
		<tag k="place" v="island" />
		<tag k="ssr:stedsnr" v="220526" />
	</node>
	<node lat="59.87674721778441" lon="5.395777771425074" id="-34542">
		<tag k="name" v="Beinadalen" />
		<tag k="natural" v="valley" />
		<tag k="place" v="locality" />
		<tag k="ssr:stedsnr" v="220291" />
	</node>
	<node lat="59.88689444516509" lon="5.296266674647005" id="-34543">
		<tag k="name" v="Straumvika" />
		<tag k="natural" v="bay" />
		<tag k="ssr:stedsnr" v="220478" />
	</node>
	<node lat="59.88621110742334" lon="5.255327775616663" id="-34544">
		<tag k="name" v="Straumøybleikjene" />
		<tag k="place" v="island" />
		<tag k="ssr:stedsnr" v="220481" />
	</node>
	<node lat="59.84161666924603" lon="5.359619443619121" id="-34545">
		<tag k="name" v="Tømmerskarhaugen" />
		<tag k="natural" v="hill" />
		<tag k="place" v="locality" />
		<tag k="ssr:stedsnr" v="220487" />
	</node>
	<node lat="59.84888888621412" lon="5.338363883789147" id="-34546">
		<tag k="name" v="Vandalidalen" />
		<tag k="natural" v="valley" />
		<tag k="place" v="locality" />
		<tag k="ssr:stedsnr" v="220489" />
	</node>
	<node lat="59.934377781439984" lon="5.125091663819113" id="-34547">
		<tag k="name" v="Hettestallen" />
		<tag k="natural" v="shoal" />
		<tag k="place" v="locality" />
		<tag k="ssr:stedsnr" v="450069" />
	</node>
	<node lat="59.932394444035495" lon="5.200674991535133" id="-34548">
		<tag k="alt_name" v="Siglevågen, nordre;Siglevågen" />
		<tag k="name" v="Nordre Siglevågen" />
		<tag k="natural" v="bay" />
		<tag k="ssr:stedsnr" v="246769" />
	</node>
	<node lat="59.94408055747951" lon="5.261258327739444" id="-34549">
		<tag k="alt_name" v="Keila, nordra" />
		<tag k="name" v="Nordra Keila" />
		<tag k="natural" v="bay" />
		<tag k="ssr:stedsnr" v="246783" />
	</node>
	<node lat="59.94829444518906" lon="5.260250000090609" id="-34550">
		<tag k="name" v="Litlavasskeila" />
		<tag k="natural" v="bay" />
		<tag k="ssr:stedsnr" v="246784" />
	</node>
	<node lat="59.888208333326105" lon="5.357227776259393" id="-34551">
		<tag k="fixme" v="consider natural=peak for the most distinct mountains in the district" />
		<tag k="name" v="Tveitafjellet" />
		<tag k="natural" v="hill" />
		<tag k="place" v="locality" />
		<tag k="ssr:stedsnr" v="246792" />
	</node>
	<node lat="59.87468611040013" lon="5.3029083287667325" id="-34552">
		<tag k="name" v="Mehaugen" />
		<tag k="natural" v="hill" />
		<tag k="place" v="locality" />
		<tag k="ssr:stedsnr" v="246925" />
	</node>
	<node lat="59.82597660805086" lon="5.338986766941711" id="-34553">
		<tag k="name" v="Stokkavatnet" />
		<tag k="natural" v="water" />
		<tag k="ssr:stedsnr" v="246968" />
	</node>
	<node lat="59.81806944310071" lon="5.338625002553947" id="-34554">
		<tag k="name" v="Skomyra" />
		<tag k="place" v="farm" />
		<tag k="ssr:stedsnr" v="247517" />
	</node>
	<node lat="59.91625277483619" lon="5.203811107575258" id="-34555">
		<tag k="alt_name" v="Arneholmen" />
		<tag k="name" v="Ådneholmen" />
		<tag k="place" v="islet" />
		<tag k="ssr:stedsnr" v="247760" />
	</node>
	<node lat="59.92429166662843" lon="5.318769446429132" id="-34556">
		<tag k="name" v="Træ" />
		<tag k="place" v="farm" />
		<tag k="ssr:stedsnr" v="268230" />
	</node>
	<node lat="59.92281110923239" lon="5.324986106442796" id="-34557">
		<tag k="name" v="Bakken" />
		<tag k="place" v="farm" />
		<tag k="ssr:stedsnr" v="268231" />
	</node>
	<node lat="59.95991944461419" lon="5.379591673044703" id="-34558">
		<tag k="name" v="Kuleskotet" />
		<tag k="place" v="farm" />
		<tag k="ssr:stedsnr" v="280066" />
	</node>
	<node lat="59.9012611121961" lon="5.228591671500463" id="-34559">
		<tag k="name" v="Rundeholmen" />
		<tag k="place" v="islet" />
		<tag k="ssr:stedsnr" v="280418" />
	</node>
	<node lat="59.924772220451636" lon="5.3278583337186785" id="-34560">
		<tag k="leisure" v="pitch" />
		<tag k="name" v="Idrettsbane" />
		<tag k="ssr:stedsnr" v="280504" />
	</node>
	<node lat="59.956912265538364" lon="5.296190692901074" id="-34561">
		<tag k="name" v="Nestræ" />
		<tag k="place" v="locality" />
		<tag k="ssr:stedsnr" v="281013" />
	</node>
	<node lat="59.942780554262825" lon="5.4315194508844895" id="-34562">
		<tag k="name" v="Strupen" />
		<tag k="natural" v="cape" />
		<tag k="ssr:stedsnr" v="462032" />
	</node>
	<node lat="59.931138891406" lon="5.40559167404934" id="-34563">
		<tag k="name" v="Hovlandsdalen" />
		<tag k="natural" v="valley" />
		<tag k="place" v="locality" />
		<tag k="ssr:stedsnr" v="462047" />
	</node>
	<node lat="59.81558055921054" lon="5.3441583310675735" id="-34564">
		<tag k="name" v="Lønevågen" />
		<tag k="natural" v="bay" />
		<tag k="ssr:stedsnr" v="462092" />
	</node>
	<node lat="59.91513055895374" lon="5.359280564123804" id="-34565">
		<tag k="name" v="Skukkane" />
		<tag k="place" v="locality" />
		<tag k="ssr:stedsnr" v="462102" />
	</node>
	<node lat="59.831263886591884" lon="5.352738897509244" id="-34566">
		<tag k="name" v="Tinnsholmen" />
		<tag k="place" v="islet" />
		<tag k="ssr:stedsnr" v="462421" />
	</node>
	<node lat="59.83638333361905" lon="5.3512944460279925" id="-34567">
		<tag k="name" v="Dyrholmen" />
		<tag k="place" v="islet" />
		<tag k="ssr:stedsnr" v="462425" />
	</node>
	<node lat="59.92572414851026" lon="5.2226090651614765" id="-34568">
		<tag k="fixme" v="consider seamark:type=rock or natural=shoal" />
		<tag k="name" v="Silkebærbleikja" />
		<tag k="place" v="islet" />
		<tag k="ssr:stedsnr" v="462434" />
	</node>
	<node lat="59.9294694403974" lon="5.195141665379864" id="-34569">
		<tag k="name" v="Tistledalen" />
		<tag k="natural" v="valley" />
		<tag k="place" v="locality" />
		<tag k="ssr:stedsnr" v="462436" />
	</node>
	<node lat="59.93473888797772" lon="5.184613882397781" id="-34570">
		<tag k="fixme" v="consider seamark:type=rock or natural=shoal" />
		<tag k="name" v="Nordre Sigleskjeret" />
		<tag k="place" v="islet" />
		<tag k="ssr:stedsnr" v="462444" />
	</node>
	<node lat="59.93296111063897" lon="5.210738882961774" id="-34571">
		<tag k="name" v="Lauvholmen" />
		<tag k="place" v="island" />
		<tag k="ssr:stedsnr" v="462446" />
	</node>
	<node lat="59.85218255767812" lon="5.334113850684944" id="-34572">
		<tag k="name" v="Fagerskogtjørna" />
		<tag k="natural" v="water" />
		<tag k="ssr:stedsnr" v="462388" />
	</node>
	<node lat="59.85630277401382" lon="5.333402780635424" id="-34573">
		<tag k="name" v="Osphovda" />
		<tag k="place" v="locality" />
		<tag k="ssr:stedsnr" v="462389" />
	</node>
	<node lat="59.86615833424961" lon="5.290080550942923" id="-34574">
		<tag k="name" v="Gapestokken" />
		<tag k="natural" v="cape" />
		<tag k="ssr:stedsnr" v="462392" />
	</node>
	<node lat="59.87061111071282" lon="5.312133326874584" id="-34575">
		<tag k="name" v="Hellandspresten" />
		<tag k="place" v="locality" />
		<tag k="ssr:stedsnr" v="462397" />
	</node>
	<node lat="59.86665278137429" lon="5.301030563850907" id="-34576">
		<tag k="name" v="Sætre" />
		<tag k="place" v="farm" />
		<tag k="ssr:stedsnr" v="462399" />
	</node>
	<node lat="59.8434555516319" lon="5.336427775290914" id="-34577">
		<tag k="historic" v="shieling" />
		<tag k="name" v="Tislevollseter" />
		<tag k="place" v="isolated_dwelling" />
		<tag k="ssr:stedsnr" v="462403" />
	</node>
	<node lat="59.9282166644605" lon="5.311150005393422" id="-34578">
		<tag k="name" v="Russevika" />
		<tag k="natural" v="bay" />
		<tag k="ssr:stedsnr" v="462489" />
	</node>
	<node lat="59.88022500357651" lon="5.208005558287145" id="-34579">
		<tag k="name" v="Tranøyhalsen" />
		<tag k="natural" v="cape" />
		<tag k="ssr:stedsnr" v="462495" />
	</node>
	<node lat="59.976364170164224" lon="5.319307162598481" id="-34580">
		<tag k="fixme" v="consider place=hamlet" />
		<tag k="name" v="Stokken" />
		<tag k="place" v="farm" />
		<tag k="ssr:stedsnr" v="307188" />
	</node>
	<node lat="59.95566388729557" lon="5.3871333331429385" id="-34581">
		<tag k="fixme" v="consider place=hamlet" />
		<tag k="name" v="Nordre Engjavik" />
		<tag k="place" v="farm" />
		<tag k="ssr:stedsnr" v="307195" />
	</node>
	<node lat="59.93731591567908" lon="5.2894478075841835" id="-34582">
		<tag k="fixme" v="consider place=hamlet" />
		<tag k="name" v="Sørfonno" />
		<tag k="place" v="farm" />
		<tag k="ssr:stedsnr" v="307799" />
	</node>
	<node lat="59.860804086160734" lon="5.2987100518661405" id="-34583">
		<tag k="landuse" v="harbour" />
		<tag k="name" v="Koløyhamn" />
		<tag k="seamark:type" v="harbour" />
		<tag k="ssr:stedsnr" v="307911" />
	</node>
	<node lat="59.89757222581154" lon="5.385002772289186" id="-34584">
		<tag k="fixme" v="consider natural=peak for the most distinct mountains in the district" />
		<tag k="name" v="Litla Kinno" />
		<tag k="natural" v="hill" />
		<tag k="place" v="locality" />
		<tag k="ssr:stedsnr" v="340059" />
	</node>
	<node lat="59.912744446880524" lon="5.289975006055858" id="-34585">
		<tag k="name" v="Nordresjøen" />
		<tag k="natural" v="bay" />
		<tag k="ssr:stedsnr" v="341106" />
	</node>
	<node lat="59.8559305530742" lon="5.306536111730379" id="-34586">
		<tag k="name" v="Ørnehaug" />
		<tag k="natural" v="hill" />
		<tag k="place" v="locality" />
		<tag k="ssr:stedsnr" v="341443" />
	</node>
	<node lat="59.8381388883455" lon="5.343961105949388" id="-34587">
		<tag k="name" v="Straumhaugen" />
		<tag k="natural" v="hill" />
		<tag k="place" v="locality" />
		<tag k="ssr:stedsnr" v="341444" />
	</node>
	<node lat="59.84645277884163" lon="5.326033341561538" id="-34588">
		<tag k="alt_name" v="Svartasmåget" />
		<tag k="name" v="Svartasmoget" />
		<tag k="place" v="locality" />
		<tag k="ssr:stedsnr" v="341446" />
	</node>
	<node lat="59.9138499974397" lon="5.149605548589597" id="-34589">
		<tag k="name" v="Eidøysanden" />
		<tag k="natural" v="bay" />
		<tag k="ssr:stedsnr" v="341506" />
	</node>
	<node lat="59.897258337706575" lon="5.179733335975876" id="-34590">
		<tag k="name" v="Søre Trollholmsvågen" />
		<tag k="natural" v="bay" />
		<tag k="ssr:stedsnr" v="341510" />
	</node>
	<node lat="59.878191662963545" lon="5.218663893966607" id="-34591">
		<tag k="name" v="Kvakholmen" />
		<tag k="place" v="islet" />
		<tag k="ssr:stedsnr" v="341544" />
	</node>
	<node lat="59.86956111097603" lon="5.232213884911366" id="-34592">
		<tag k="alt_name" v="Nyleida" />
		<tag k="bay" v="fjord" />
		<tag k="name" v="Nyleia" />
		<tag k="natural" v="bay" />
		<tag k="ssr:stedsnr" v="341546" />
	</node>
	<node lat="59.94905833396268" lon="5.350349999706591" id="-34593">
		<tag k="fixme" v="consider natural=peak for the most distinct mountains in the district" />
		<tag k="name" v="Landasåtene" />
		<tag k="natural" v="hill" />
		<tag k="place" v="locality" />
		<tag k="ssr:stedsnr" v="367783" />
	</node>
	<node lat="59.90051111397906" lon="5.403938883222988" id="-34594">
		<tag k="fixme" v="consider natural=peak for the most distinct mountains in the district" />
		<tag k="name" v="Kinno" />
		<tag k="natural" v="hill" />
		<tag k="place" v="locality" />
		<tag k="ssr:stedsnr" v="367810" />
	</node>
	<node lat="59.844049999883694" lon="5.32170832781244" id="-34595">
		<tag k="fixme" v="consider natural=peak for the most distinct mountains in the district" />
		<tag k="name" v="Vardafjellet" />
		<tag k="natural" v="hill" />
		<tag k="place" v="locality" />
		<tag k="ssr:stedsnr" v="367869" />
	</node>
	<node lat="59.850027777103115" lon="5.307702780618856" id="-34596">
		<tag k="alt_name" v="Storevikholmen, nordre;Nordre Storavikholmen" />
		<tag k="name" v="Nordre Storevikholmen" />
		<tag k="place" v="islet" />
		<tag k="ssr:stedsnr" v="367878" />
	</node>
	<node lat="59.87320613046201" lon="5.384002085979935" id="-34597">
		<tag k="name" v="Skjeningetjørna" />
		<tag k="natural" v="water" />
		<tag k="ssr:stedsnr" v="367926" />
	</node>
	<node lat="59.88152778130976" lon="5.362036102425177" id="-34598">
		<tag k="name" v="Tveitaelva" />
		<tag k="ssr:stedsnr" v="368592" />
		<tag k="waterway" v="stream" />
	</node>
	<node lat="59.82332499943046" lon="5.33509722534883" id="-34599">
		<tag k="name" v="Revurda" />
		<tag k="natural" v="scree" />
		<tag k="ssr:stedsnr" v="401102" />
	</node>
	<node lat="59.91235555277979" lon="5.303497218191571" id="-34600">
		<tag k="name" v="Kjeringskaret" />
		<tag k="natural" v="hill" />
		<tag k="place" v="locality" />
		<tag k="ssr:stedsnr" v="401107" />
	</node>
	<node lat="59.9084249961142" lon="5.289736119719125" id="-34601">
		<tag k="name" v="Nausthaugen" />
		<tag k="natural" v="hill" />
		<tag k="place" v="locality" />
		<tag k="ssr:stedsnr" v="401110" />
	</node>
	<node lat="59.92356944688431" lon="5.297558329845417" id="-34602">
		<tag k="name" v="Fonnaklubben" />
		<tag k="natural" v="cape" />
		<tag k="ssr:stedsnr" v="401128" />
	</node>
	<node lat="59.86423611330002" lon="5.3409250049136565" id="-34603">
		<tag k="name" v="Dalen" />
		<tag k="natural" v="valley" />
		<tag k="place" v="locality" />
		<tag k="ssr:stedsnr" v="401403" />
	</node>
	<node lat="59.86793333670086" lon="5.293074999179037" id="-34604">
		<tag k="name" v="Korsvikhaugane" />
		<tag k="natural" v="hill" />
		<tag k="place" v="locality" />
		<tag k="ssr:stedsnr" v="401412" />
	</node>
	<node lat="59.86154682668552" lon="5.305920630830093" id="-34605">
		<tag k="name" v="Risdalstjørna" />
		<tag k="natural" v="water" />
		<tag k="ssr:stedsnr" v="401413" />
	</node>
	<node lat="59.90728610914784" lon="5.208869440288534" id="-34606">
		<tag k="name" v="Søre Langøyvågen" />
		<tag k="natural" v="bay" />
		<tag k="ssr:stedsnr" v="401433" />
	</node>
	<node lat="59.89166666475253" lon="5.345694449040069" id="-34607">
		<tag k="name" v="Årsteinen" />
		<tag k="natural" v="stone" />
		<tag k="ssr:stedsnr" v="401376" />
	</node>
	<node lat="59.87571389159542" lon="5.335499993549253" id="-34608">
		<tag k="name" v="Hogsteholmane" />
		<tag k="place" v="islet" />
		<tag k="ssr:stedsnr" v="401381" />
	</node>
	<node lat="59.87850832885123" lon="5.327672216932609" id="-34609">
		<tag k="name" v="Kvernevika" />
		<tag k="natural" v="bay" />
		<tag k="ssr:stedsnr" v="401383" />
	</node>
	<node lat="59.8907333349427" lon="5.334477779231382" id="-34610">
		<tag k="name" v="Tveitatræ" />
		<tag k="place" v="farm" />
		<tag k="ssr:stedsnr" v="401384" />
	</node>
	<node lat="59.84320277669311" lon="5.373197228798535" id="-34611">
		<tag k="name" v="Setredalen" />
		<tag k="natural" v="valley" />
		<tag k="place" v="locality" />
		<tag k="ssr:stedsnr" v="402001" />
	</node>
	<node lat="59.89633333251817" lon="5.426922225556994" id="-34612">
		<tag k="name" v="Litlebotn" />
		<tag k="natural" v="valley" />
		<tag k="place" v="locality" />
		<tag k="ssr:stedsnr" v="402004" />
	</node>
	<node lat="59.95559999674439" lon="5.339872217053344" id="-34613">
		<tag k="name" v="Gloppevarden" />
		<tag k="natural" v="hill" />
		<tag k="place" v="locality" />
		<tag k="ssr:stedsnr" v="402036" />
	</node>
	<node lat="59.88641110949414" lon="5.198272221568735" id="-34614">
		<tag k="name" v="Grunnevågen" />
		<tag k="natural" v="bay" />
		<tag k="ssr:stedsnr" v="402531" />
	</node>
	<node lat="59.951125001003106" lon="5.25383610685044" id="-34615">
		<tag k="alt_name" v="Svartaskjer" />
		<tag k="fixme" v="consider seamark:type=rock or natural=shoal" />
		<tag k="name" v="Svartaskjeret" />
		<tag k="place" v="islet" />
		<tag k="ssr:stedsnr" v="489197" />
	</node>
	<node lat="59.96381111401782" lon="5.325525003891031" id="-34616">
		<tag k="name" v="Veadalshaugen" />
		<tag k="natural" v="hill" />
		<tag k="place" v="locality" />
		<tag k="ssr:stedsnr" v="489178" />
	</node>
	<node lat="59.92645555102319" lon="5.473469439319848" id="-34617">
		<tag k="alt_name" v="Eideklubben" />
		<tag k="name" v="Eidesklubben" />
		<tag k="natural" v="cape" />
		<tag k="ssr:stedsnr" v="489754" />
	</node>
	<node lat="59.9126500034359" lon="5.175938892059415" id="-34618">
		<tag k="name" v="Torsdagsøy" />
		<tag k="place" v="island" />
		<tag k="ssr:stedsnr" v="489763" />
	</node>
	<node lat="59.917508335931416" lon="5.270449997960144" id="-34619">
		<tag k="name" v="Bondeholmen" />
		<tag k="place" v="islet" />
		<tag k="ssr:stedsnr" v="489769" />
	</node>
	<node lat="59.92254444524049" lon="5.2332444459396035" id="-34620">
		<tag k="name" v="Fureholmen" />
		<tag k="place" v="islet" />
		<tag k="ssr:stedsnr" v="489779" />
	</node>
	<node lat="59.9292880697241" lon="5.2155961195917735" id="-34621">
		<tag k="name" v="Bukkholmen" />
		<tag k="place" v="islet" />
		<tag k="ssr:stedsnr" v="489782" />
	</node>
	<node lat="59.905686106439454" lon="5.307958325446577" id="-34622">
		<tag k="name" v="Vestbøstadpollen" />
		<tag k="natural" v="bay" />
		<tag k="ssr:stedsnr" v="489847" />
	</node>
	<node lat="59.90888233961132" lon="5.2366567392087315" id="-34623">
		<tag k="alt_name" v="Kvednavatnet" />
		<tag k="name" v="Ivarsøyvatnet" />
		<tag k="natural" v="water" />
		<tag k="ssr:stedsnr" v="489863" />
	</node>
	<node lat="59.907419446428605" lon="5.224294444907114" id="-34624">
		<tag k="name" v="Avløypet" />
		<tag k="place" v="islet" />
		<tag k="ssr:stedsnr" v="489865" />
	</node>
	<node lat="59.85028055806703" lon="5.300366658355672" id="-34625">
		<tag k="name" v="Bøkenes" />
		<tag k="natural" v="cape" />
		<tag k="ssr:stedsnr" v="489882" />
	</node>
	<node lat="59.910949998746595" lon="5.303061115115909" id="-34626">
		<tag k="name" v="Storhaugen" />
		<tag k="natural" v="hill" />
		<tag k="place" v="locality" />
		<tag k="ssr:stedsnr" v="490549" />
	</node>
	<node lat="59.92457534046801" lon="5.221167888488319" id="-34627">
		<tag k="fixme" v="consider seamark:type=rock or natural=shoal" />
		<tag k="name" v="Galtane" />
		<tag k="place" v="islet" />
		<tag k="ssr:stedsnr" v="428766" />
	</node>
	<node lat="59.92512500298249" lon="5.1996999987138075" id="-34628">
		<tag k="name" v="Sigleplogen" />
		<tag k="natural" v="bay" />
		<tag k="ssr:stedsnr" v="428767" />
	</node>
	<node lat="59.94500116048768" lon="5.4041955340765755" id="-34630">
		<tag k="fixme" v="consider place=hamlet" />
		<tag k="name" v="Hovland" />
		<tag k="place" v="farm" />
		<tag k="ssr:stedsnr" v="428775" />
	</node>
	<node lat="59.86262499724783" lon="5.326075006731854" id="-34631">
		<tag k="name" v="Stemmetjørna" />
		<tag k="natural" v="water" />
		<tag k="ssr:stedsnr" v="428913" />
	</node>
	<node lat="59.9007277744197" lon="5.425366663027062" id="-34632">
		<tag k="name" v="Tveitabotn" />
		<tag k="natural" v="valley" />
		<tag k="place" v="locality" />
		<tag k="ssr:stedsnr" v="428855" />
	</node>
	<node lat="59.91514166882402" lon="5.43988888748954" id="-34633">
		<tag k="fixme" v="consider natural=peak for the most distinct mountains in the district" />
		<tag k="name" v="Grønafjellet" />
		<tag k="natural" v="hill" />
		<tag k="place" v="locality" />
		<tag k="ssr:stedsnr" v="428875" />
	</node>
	<node lat="59.96608610805968" lon="5.3095138926158105" id="-34634">
		<tag k="fixme" v="consider natural=peak for the most distinct mountains in the district" />
		<tag k="name" v="Tuftalandsfjellet" />
		<tag k="natural" v="hill" />
		<tag k="place" v="locality" />
		<tag k="ssr:stedsnr" v="429153" />
	</node>
	<node lat="59.969349998740164" lon="5.3526666657487985" id="-34635">
		<tag k="alt_name" v="Klårnesklubben" />
		<tag k="name" v="Klårneset" />
		<tag k="natural" v="cape" />
		<tag k="ssr:stedsnr" v="429179" />
	</node>
	<node lat="59.92084272109692" lon="5.2611468558232355" id="-34636">
		<tag k="alt_name" v="Piløya" />
		<tag k="name" v="Pilaholmen" />
		<tag k="place" v="islet" />
		<tag k="ssr:stedsnr" v="429759" />
	</node>
	<node lat="59.91860555818986" lon="5.2873138870018215" id="-34637">
		<tag k="name" v="Kalvaneset" />
		<tag k="natural" v="cape" />
		<tag k="ssr:stedsnr" v="429762" />
	</node>
	<node lat="59.91794755182148" lon="5.148632752541815" id="-34638">
		<tag k="name" v="Eidøy" />
		<tag k="place" v="island" />
		<tag k="ssr:stedsnr" v="429768" />
	</node>
	<node lat="59.91800277562093" lon="5.136686118536081" id="-34639">
		<tag k="name" v="Skvetten" />
		<tag k="place" v="islet" />
		<tag k="ssr:stedsnr" v="429771" />
	</node>
	<node lat="59.95245277736821" lon="5.315333328851788" id="-34640">
		<tag k="name" v="Bjørnskallen" />
		<tag k="natural" v="cape" />
		<tag k="ssr:stedsnr" v="671174" />
	</node>
	<node lat="59.95173704232238" lon="5.276829442873815" id="-34641">
		<tag k="fixme" v="consider place=hamlet" />
		<tag k="name" v="Nordfonno" />
		<tag k="place" v="farm" />
		<tag k="ssr:stedsnr" v="671176" />
	</node>
	<node lat="59.962328556575486" lon="5.35540625098846" id="-34642">
		<tag k="alt_name" v="Levåg, nedre;Levåg" />
		<tag k="fixme" v="consider place=hamlet" />
		<tag k="name" v="Nedre Levåg" />
		<tag k="place" v="farm" />
		<tag k="ssr:stedsnr" v="671184" />
	</node>
	<node lat="59.98065277667552" lon="5.330902769705593" id="-34643">
		<tag k="name" v="Raudholmane" />
		<tag k="place" v="islet" />
		<tag k="ssr:stedsnr" v="671148" />
	</node>
	<node lat="59.96457108447331" lon="5.295560005865256" id="-34644">
		<tag k="name" v="Bollestadvika" />
		<tag k="natural" v="bay" />
		<tag k="ssr:stedsnr" v="671162" />
	</node>
	<node lat="59.94859166609036" lon="5.297041671617121" id="-34645">
		<tag k="name" v="Stokkaseta" />
		<tag k="natural" v="shoal" />
		<tag k="place" v="locality" />
		<tag k="ssr:stedsnr" v="450228" />
	</node>
	<node lat="59.95382793964252" lon="5.316908225025185" id="-34646">
		<tag k="alt_name" v="Øyjordsvågen" />
		<tag k="name" v="Øydjordsvågen" />
		<tag k="natural" v="bay" />
		<tag k="ssr:stedsnr" v="450248" />
	</node>
	<node lat="59.91152272498712" lon="5.2368262436318975" id="-34647">
		<tag k="name" v="Ivarsøy" />
		<tag k="place" v="island" />
		<tag k="ssr:stedsnr" v="671766" />
	</node>
	<node lat="59.9364702568831" lon="5.454480144728364" id="-34648">
		<tag k="fixme" v="multiple name tags, choose one and add the other to alt_name" />
		<tag k="name" v="Storeklubben;Raunholmklubben" />
		<tag k="natural" v="cape" />
		<tag k="ssr:stedsnr" v="671768" />
	</node>
	<node lat="59.91797777562381" lon="5.155219451506268" id="-34649">
		<tag k="fixme" v="consider seamark:type=rock or natural=shoal" />
		<tag k="name" v="Ospene" />
		<tag k="place" v="islet" />
		<tag k="ssr:stedsnr" v="671769" />
	</node>
	<node lat="59.92846388740682" lon="5.128930560518354" id="-34650">
		<tag k="alt_name" v="Eggholmskjeret, s" />
		<tag k="fixme" v="consider seamark:type=rock or natural=shoal" />
		<tag k="name" v="Søra Eggholmskjeret" />
		<tag k="place" v="islet" />
		<tag k="ssr:stedsnr" v="671788" />
	</node>
	<node lat="59.89653236518884" lon="5.37787564611024" id="-34651">
		<tag k="name" v="Ådnetjørna" />
		<tag k="natural" v="water" />
		<tag k="ssr:stedsnr" v="671835" />
	</node>
	<node lat="59.90075833567594" lon="5.285211104572978" id="-34652">
		<tag k="alt_name" v="Kråko, l" />
		<tag k="name" v="Litla Kråko" />
		<tag k="natural" v="cape" />
		<tag k="ssr:stedsnr" v="671845" />
	</node>
	<node lat="59.82139444849505" lon="5.320941661477439" id="-34653">
		<tag k="name" v="Selevikberget" />
		<tag k="place" v="farm" />
		<tag k="ssr:stedsnr" v="671968" />
	</node>
	<node lat="59.82971111476439" lon="5.32907778129254" id="-34654">
		<tag k="name" v="Nordstokken" />
		<tag k="natural" v="cape" />
		<tag k="old_name" v="Nord Stokken" />
		<tag k="ssr:stedsnr" v="671974" />
	</node>
	<node lat="59.84581245349562" lon="5.386752199526768" id="-34655">
		<tag k="name" v="Fuglatjørna" />
		<tag k="natural" v="water" />
		<tag k="ssr:stedsnr" v="462004" />
	</node>
	<node lat="59.93570833682844" lon="5.454869448703841" id="-34656">
		<tag k="alt_name" v="Grudnavika" />
		<tag k="name" v="Grunnavika" />
		<tag k="natural" v="bay" />
		<tag k="ssr:stedsnr" v="462066" />
	</node>
	<node lat="59.867836109140804" lon="5.4054861166687385" id="-34657">
		<tag k="name" v="Tømmerhammeren" />
		<tag k="place" v="locality" />
		<tag k="ssr:stedsnr" v="462072" />
	</node>
	<node lat="59.946622220350775" lon="5.414502778622242" id="-34658">
		<tag k="name" v="Kalhagevika" />
		<tag k="natural" v="bay" />
		<tag k="ssr:stedsnr" v="462078" />
	</node>
	<node lat="59.82724444056599" lon="5.341200004087925" id="-34659">
		<tag k="name" v="Dåshaugen" />
		<tag k="natural" v="hill" />
		<tag k="place" v="locality" />
		<tag k="ssr:stedsnr" v="462085" />
	</node>
	<node lat="59.919344446789566" lon="5.280794440096462" id="-34660">
		<tag k="name" v="Kalvanessundet" />
		<tag k="natural" v="strait" />
		<tag k="ssr:stedsnr" v="462108" />
	</node>
	<node lat="59.8984803245104" lon="5.27675442363679" id="-34661">
		<tag k="name" v="Hundsryggen" />
		<tag k="natural" v="cape" />
		<tag k="ssr:stedsnr" v="462112" />
	</node>
	<node lat="59.869947225354615" lon="5.285583328483649" id="-34662">
		<tag k="name" v="Nordre Ondebortvika" />
		<tag k="natural" v="bay" />
		<tag k="ssr:stedsnr" v="462360" />
	</node>
	<node lat="59.86278055808972" lon="5.2946194441737" id="-34663">
		<tag k="name" v="Eide" />
		<tag k="natural" v="bay" />
		<tag k="ssr:stedsnr" v="462365" />
	</node>
	<node lat="59.832063888875744" lon="5.339277779355435" id="-34664">
		<tag k="name" v="Langehaugen" />
		<tag k="natural" v="hill" />
		<tag k="place" v="locality" />
		<tag k="ssr:stedsnr" v="462406" />
	</node>
	<node lat="59.88739444506777" lon="5.2757861196839295" id="-34665">
		<tag k="name" v="Litla Kråko" />
		<tag k="place" v="island" />
		<tag k="ssr:stedsnr" v="462416" />
	</node>
	<node lat="59.938247222001024" lon="5.245041667377733" id="-34666">
		<tag k="name" v="Teløygavlen" />
		<tag k="place" v="locality" />
		<tag k="ssr:stedsnr" v="462479" />
	</node>
	<node lat="59.940865777355846" lon="5.265584188271934" id="-34667">
		<tag k="name" v="Geitatjørna" />
		<tag k="natural" v="water" />
		<tag k="ssr:stedsnr" v="463011" />
	</node>
	<node lat="59.8290138873439" lon="5.54604167228596" id="-34668">
		<tag k="bay" v="fjord" />
		<tag k="name" v="Langenuen" />
		<tag k="natural" v="bay" />
		<tag k="ssr:stedsnr" v="489190" />
	</node>
	<node lat="59.869041662792576" lon="5.3615472198148275" id="-34669">
		<tag k="name" v="Rødlandselva" />
		<tag k="ssr:stedsnr" v="489911" />
		<tag k="waterway" v="river" />
	</node>
	<node lat="59.866619447797845" lon="5.282427783818354" id="-34670">
		<tag k="name" v="Teistholmen" />
		<tag k="place" v="islet" />
		<tag k="ssr:stedsnr" v="489913" />
	</node>
	<node lat="59.864011605215914" lon="5.269981520540052" id="-34671">
		<tag k="alt_name" v="Hamn" />
		<tag k="fixme" v="consider place=hamlet" />
		<tag k="name" v="Fattigmannshamn" />
		<tag k="place" v="farm" />
		<tag k="ssr:stedsnr" v="489915" />
	</node>
	<node lat="59.87339892300057" lon="5.347060404424" id="-34672">
		<tag k="fixme" v="consider place=hamlet" />
		<tag k="name" v="Årbø" />
		<tag k="place" v="farm" />
		<tag k="ssr:stedsnr" v="489925" />
	</node>
	<node lat="59.93745277525625" lon="5.185030549697406" id="-34673">
		<tag k="alt_name" v="Sigleodden" />
		<tag k="name" v="Siglodden" />
		<tag k="natural" v="cape" />
		<tag k="ssr:stedsnr" v="489803" />
	</node>
	<node lat="59.952057164449236" lon="5.395843437301892" id="-34674">
		<tag k="fixme" v="multiple name tags, choose one and add the other to alt_name" />
		<tag k="loc_name" v="Engevikvågen;Engevik" />
		<tag k="name" v="Engjavikvågen;Engjavik" />
		<tag k="natural" v="bay" />
		<tag k="ssr:stedsnr" v="489808" />
	</node>
	<node lat="59.94433333216812" lon="5.377849997464216" id="-34675">
		<tag k="fixme" v="consider natural=peak for the most distinct mountains in the district" />
		<tag k="name" v="Handfjellsåta" />
		<tag k="natural" v="hill" />
		<tag k="place" v="locality" />
		<tag k="ssr:stedsnr" v="489810" />
	</node>
	<node lat="59.86234302895428" lon="5.344605762404467" id="-34676">
		<tag k="fixme" v="consider place=hamlet" />
		<tag k="name" v="Rødland" />
		<tag k="place" v="farm" />
		<tag k="ssr:stedsnr" v="489890" />
	</node>
	<node lat="59.88550277922333" lon="5.280063897393814" id="-34677">
		<tag k="name" v="Kråkevågen" />
		<tag k="natural" v="bay" />
		<tag k="ssr:stedsnr" v="489836" />
	</node>
	<node lat="59.9476583324917" lon="5.259211118319432" id="-34678">
		<tag k="name" v="Litlavatnskagen" />
		<tag k="natural" v="cape" />
		<tag k="ssr:stedsnr" v="510027" />
	</node>
	<node lat="59.95971388976415" lon="5.2668666592957525" id="-34679">
		<tag k="name" v="Skallen" />
		<tag k="natural" v="shoal" />
		<tag k="place" v="locality" />
		<tag k="ssr:stedsnr" v="510028" />
	</node>
	<node lat="59.933502780418664" lon="5.248269439939931" id="-34680">
		<tag k="alt_name" v="Teløyhavn" />
		<tag k="name" v="Teløyhamn" />
		<tag k="natural" v="bay" />
		<tag k="ssr:stedsnr" v="510040" />
	</node>
	<node lat="59.92360000006843" lon="5.2679388903103535" id="-34681">
		<tag k="alt_name" v="Smedholmsundet" />
		<tag k="name" v="Smedasundet" />
		<tag k="natural" v="strait" />
		<tag k="ssr:stedsnr" v="510041" />
	</node>
	<node lat="59.93712222179982" lon="5.178122225331085" id="-34682">
		<tag k="name" v="Sigleflua" />
		<tag k="natural" v="shoal" />
		<tag k="place" v="locality" />
		<tag k="ssr:stedsnr" v="510075" />
	</node>
	<node lat="59.93358332948325" lon="5.338505549170382" id="-34683">
		<tag k="landuse" v="industrial" />
		<tag k="name" v="Kraftstasjon" />
		<tag k="power" v="plant" />
		<tag k="ssr:stedsnr" v="523013" />
	</node>
	<node lat="59.916788885279864" lon="5.348591668804987" id="-34684">
		<tag k="name" v="Lambhusbrotet" />
		<tag k="natural" v="hill" />
		<tag k="place" v="locality" />
		<tag k="ssr:stedsnr" v="523014" />
	</node>
	<node lat="59.9155722180718" lon="5.339233326762334" id="-34685">
		<tag k="historic" v="shieling" />
		<tag k="name" v="Volden" />
		<tag k="place" v="isolated_dwelling" />
		<tag k="ssr:stedsnr" v="523116" />
	</node>
	<node lat="59.8964666664872" lon="5.314433327531129" id="-34686">
		<tag k="name" v="Torlandsholmane" />
		<tag k="place" v="islet" />
		<tag k="ssr:stedsnr" v="523117" />
	</node>
	<node lat="59.92058889094321" lon="5.141483336860487" id="-34687">
		<tag k="fixme" v="consider seamark:type=rock or natural=shoal" />
		<tag k="name" v="Langaskjeret" />
		<tag k="place" v="islet" />
		<tag k="ssr:stedsnr" v="523521" />
	</node>
	<node lat="59.90174444856634" lon="5.187783329998682" id="-34688">
		<tag k="name" v="Bassnesosen" />
		<tag k="natural" v="strait" />
		<tag k="ssr:stedsnr" v="523526" />
	</node>
	<node lat="59.90032778099904" lon="5.19601944472163" id="-34689">
		<tag k="name" v="Brendeholmen" />
		<tag k="place" v="islet" />
		<tag k="ssr:stedsnr" v="523531" />
	</node>
	<node lat="59.87440555593123" lon="5.236077782793989" id="-34690">
		<tag k="name" v="Søre Kuvik" />
		<tag k="natural" v="bay" />
		<tag k="ssr:stedsnr" v="523569" />
	</node>
	<node lat="59.85975564209084" lon="5.317755146688094" id="-34691">
		<tag k="name" v="Svanarindetjørnane" />
		<tag k="natural" v="water" />
		<tag k="ssr:stedsnr" v="523462" />
		<tag k="water" v="lake" />
	</node>
	<node lat="59.86811388469143" lon="5.31892500066721" id="-34692">
		<tag k="name" v="Bustetjørna" />
		<tag k="natural" v="water" />
		<tag k="ssr:stedsnr" v="549915" />
	</node>
	<node lat="59.86173547609758" lon="5.255505700009509" id="-34693">
		<tag k="alt_name" v="Krabbavågen" />
		<tag k="name" v="Krabbavika" />
		<tag k="natural" v="bay" />
		<tag k="ssr:stedsnr" v="549918" />
	</node>
	<node lat="59.876838203152936" lon="5.23654472997989" id="-34694">
		<tag k="alt_name" v="Kuvika" />
		<tag k="fixme" v="consider place=hamlet" />
		<tag k="name" v="Kuvik" />
		<tag k="place" v="farm" />
		<tag k="ssr:stedsnr" v="549923" />
	</node>
	<node lat="59.87633888559226" lon="5.199766672280587" id="-34695">
		<tag k="alt_name" v="Nattrøytåa" />
		<tag k="name" v="Natterøytåa" />
		<tag k="natural" v="cape" />
		<tag k="ssr:stedsnr" v="549928" />
	</node>
	<node lat="59.858538649279275" lon="5.370852840402209" id="-34696">
		<tag k="fixme" v="consider place=hamlet" />
		<tag k="name" v="Sæterbø" />
		<tag k="place" v="farm" />
		<tag k="ssr:stedsnr" v="549900" />
	</node>
	<node lat="59.910727165499644" lon="5.119293502913244" id="-34697">
		<tag k="alt_name" v="Klammerøy" />
		<tag k="name" v="Klamsøya" />
		<tag k="place" v="island" />
		<tag k="ssr:stedsnr" v="550748" />
	</node>
	<node lat="59.92167452998776" lon="5.272980173555155" id="-34698">
		<tag k="fixme" v="multiple name tags, choose one and add the other to alt_name" />
		<tag k="name" v="Smedholmen;Kjeholmen" />
		<tag k="place" v="island" />
		<tag k="ssr:stedsnr" v="550756" />
	</node>
	<node lat="59.91995555128426" lon="5.321288894110494" id="-34699">
		<tag k="name" v="Fitjar" />
		<tag k="place" v="farm" />
		<tag k="ssr:stedsnr" v="550759" />
	</node>
	<node lat="59.877330558610126" lon="5.278355558966921" id="-34700">
		<tag k="fixme" v="consider seamark:type=rock or natural=shoal" />
		<tag k="name" v="Hellandskjeret" />
		<tag k="place" v="islet" />
		<tag k="ssr:stedsnr" v="571059" />
	</node>
	<node lat="59.880294443129756" lon="5.226466661690918" id="-34701">
		<tag k="fixme" v="consider seamark:type=rock or natural=shoal" />
		<tag k="name" v="Slåtto" />
		<tag k="place" v="islet" />
		<tag k="ssr:stedsnr" v="571067" />
	</node>
	<node lat="59.814058332331896" lon="5.3446694364544385" id="-34702">
		<tag k="alt_name" v="Geitaneset" />
		<tag k="name" v="Geitanes" />
		<tag k="natural" v="cape" />
		<tag k="ssr:stedsnr" v="571204" />
	</node>
	<node lat="59.85981511921149" lon="5.273703021515651" id="-34703">
		<tag k="fixme" v="consider place=hamlet" />
		<tag k="name" v="Tangen" />
		<tag k="place" v="farm" />
		<tag k="ssr:stedsnr" v="571747" />
	</node>
	<node lat="59.90866944098465" lon="5.359452784734796" id="-34704">
		<tag k="fixme" v="consider natural=peak for the most distinct mountains in the district" />
		<tag k="name" v="Heia" />
		<tag k="natural" v="hill" />
		<tag k="place" v="locality" />
		<tag k="ssr:stedsnr" v="583105" />
	</node>
	<node lat="59.9160583341707" lon="5.3299083382646915" id="-34705">
		<tag k="fixme" v="consider place=hamlet" />
		<tag k="name" v="Fitjar" />
		<tag k="place" v="farm" />
		<tag k="ssr:stedsnr" v="583109" />
	</node>
	<node lat="59.922114506062954" lon="5.286901988876671" id="-34706">
		<tag k="name" v="Hatt-Olableikjene" />
		<tag k="place" v="islet" />
		<tag k="ssr:stedsnr" v="583113" />
	</node>
	<node lat="59.909166670324566" lon="5.252791663211114" id="-34707">
		<tag k="name" v="Vestre Engesund" />
		<tag k="natural" v="strait" />
		<tag k="ssr:stedsnr" v="583117" />
	</node>
	<node lat="59.845452780965154" lon="5.3969305490035335" id="-34708">
		<tag k="name" v="Furelia" />
		<tag k="natural" v="slope" />
		<tag k="place" v="locality" />
		<tag k="ssr:stedsnr" v="583005" />
	</node>
	<node lat="59.903129632858686" lon="5.288044518211813" id="-34709">
		<tag k="name" v="Russigletjørna" />
		<tag k="natural" v="water" />
		<tag k="ssr:stedsnr" v="583097" />
	</node>
	<node lat="59.901227777068485" lon="5.339272223067634" id="-34710">
		<tag k="name" v="Søldreid" />
		<tag k="place" v="farm" />
		<tag k="ssr:stedsnr" v="583101" />
	</node>
	<node lat="59.854283337648596" lon="5.345044441828328" id="-34711">
		<tag k="name" v="Grashammaren" />
		<tag k="natural" v="hill" />
		<tag k="place" v="locality" />
		<tag k="ssr:stedsnr" v="583389" />
	</node>
	<node lat="59.86140555494259" lon="5.308288892552786" id="-34712">
		<tag k="name" v="Dåshaugen" />
		<tag k="natural" v="hill" />
		<tag k="place" v="locality" />
		<tag k="ssr:stedsnr" v="583399" />
	</node>
	<node lat="59.8734888902375" lon="5.247330561230297" id="-34713">
		<tag k="name" v="Storhaugen" />
		<tag k="natural" v="hill" />
		<tag k="place" v="locality" />
		<tag k="ssr:stedsnr" v="583507" />
	</node>
	<node lat="59.8837916671972" lon="5.276869447668294" id="-34714">
		<tag k="name" v="Kråketongane" />
		<tag k="place" v="island" />
		<tag k="ssr:stedsnr" v="583442" />
	</node>
	<node lat="59.84730000438685" lon="5.3565416733807485" id="-34715">
		<tag k="name" v="Vekslia" />
		<tag k="natural" v="slope" />
		<tag k="place" v="locality" />
		<tag k="ssr:stedsnr" v="583446" />
	</node>
	<node lat="59.83704444243819" lon="5.3608027819513815" id="-34716">
		<tag k="name" v="Rundehaugen" />
		<tag k="natural" v="hill" />
		<tag k="place" v="locality" />
		<tag k="ssr:stedsnr" v="583452" />
	</node>
	<node lat="59.917069447523424" lon="5.311705549396899" id="-34717">
		<tag k="name" v="Prestbø" />
		<tag k="place" v="farm" />
		<tag k="ssr:stedsnr" v="584009" />
	</node>
	<node lat="59.95585841696065" lon="5.296527017774089" id="-34718">
		<tag k="alt_name" v="Nesseklubben" />
		<tag k="name" v="Nesklubben" />
		<tag k="natural" v="cape" />
		<tag k="ssr:stedsnr" v="584018" />
	</node>
	<node lat="59.91142778021625" lon="5.115311112877952" id="-34719">
		<tag k="name" v="Molteholmane" />
		<tag k="place" v="islet" />
		<tag k="ssr:stedsnr" v="586617" />
	</node>
	<node lat="59.924711107285326" lon="5.153294441098344" id="-34720">
		<tag k="alt_name" v="Broki" />
		<tag k="name" v="Broka" />
		<tag k="place" v="islet" />
		<tag k="ssr:stedsnr" v="610803" />
	</node>
	<node lat="59.92408610994367" lon="5.146027782449787" id="-34721">
		<tag k="alt_name" v="Skarvaskjer" />
		<tag k="fixme" v="consider seamark:type=rock or natural=shoal" />
		<tag k="name" v="Skarvaskjeret" />
		<tag k="place" v="islet" />
		<tag k="ssr:stedsnr" v="610805" />
	</node>
	<node lat="59.93513333671913" lon="5.312550004560245" id="-34722">
		<tag k="alt_name" v="Ryssnesbleikjene" />
		<tag k="fixme" v="consider seamark:type=rock or natural=shoal" />
		<tag k="name" v="Bleikjene" />
		<tag k="place" v="islet" />
		<tag k="ssr:stedsnr" v="610813" />
	</node>
	<node lat="59.93777777741891" lon="5.230675003782204" id="-34723">
		<tag k="name" v="Porsholmen" />
		<tag k="place" v="islet" />
		<tag k="ssr:stedsnr" v="610815" />
	</node>
	<node lat="59.94824934380252" lon="5.330160663288895" id="-34724">
		<tag k="name" v="Landatjørna" />
		<tag k="natural" v="water" />
		<tag k="ssr:stedsnr" v="610822" />
	</node>
	<node lat="59.942866667818365" lon="5.252244445194542" id="-34725">
		<tag k="alt_name" v="Hetta" />
		<tag k="fixme" v="consider seamark:type=rock or natural=shoal" />
		<tag k="name" v="Hetto" />
		<tag k="place" v="islet" />
		<tag k="ssr:stedsnr" v="610827" />
	</node>
	<node lat="59.9125527807244" lon="5.463116663633617" id="-34726">
		<tag k="name" v="Hageelva" />
		<tag k="ssr:stedsnr" v="610888" />
		<tag k="waterway" v="stream" />
	</node>
	<node lat="59.909696995519624" lon="5.207937560988815" id="-34727">
		<tag k="name" v="Langøy" />
		<tag k="place" v="island" />
		<tag k="ssr:stedsnr" v="610896" />
	</node>
	<node lat="59.847783335061784" lon="5.332194445622561" id="-34728">
		<tag k="fixme" v="consider natural=peak for the most distinct mountains in the district" />
		<tag k="name" v="Sætrafjellet" />
		<tag k="natural" v="hill" />
		<tag k="place" v="locality" />
		<tag k="ssr:stedsnr" v="610909" />
	</node>
	<node lat="59.84316110954647" lon="5.303516666155807" id="-34729">
		<tag k="alt_name" v="Storevikholmen, s;Søre Storavikholmen" />
		<tag k="name" v="Søre Storevikholmen" />
		<tag k="place" v="islet" />
		<tag k="ssr:stedsnr" v="610913" />
	</node>
	<node lat="59.81231389019885" lon="5.33458332753193" id="-34730">
		<tag k="alt_name" v="Fiskeneset" />
		<tag k="name" v="Fiskaneset" />
		<tag k="natural" v="cape" />
		<tag k="ssr:stedsnr" v="631185" />
	</node>
	<node lat="59.90623333074033" lon="5.191811105013763" id="-34731">
		<tag k="name" v="Hamn" />
		<tag k="natural" v="bay" />
		<tag k="ssr:stedsnr" v="705531" />
	</node>
	<node lat="59.936958329201616" lon="5.225180549459059" id="-34732">
		<tag k="name" v="Håboholmsundet" />
		<tag k="natural" v="strait" />
		<tag k="ssr:stedsnr" v="705537" />
	</node>
	<node lat="59.95435000064458" lon="5.328069446984933" id="-34733">
		<tag k="name" v="Orrahaugen" />
		<tag k="natural" v="hill" />
		<tag k="place" v="locality" />
		<tag k="ssr:stedsnr" v="705038" />
	</node>
	<node lat="59.95586944081283" lon="5.349638896721496" id="-34734">
		<tag k="name" v="Brakadalen" />
		<tag k="natural" v="valley" />
		<tag k="place" v="locality" />
		<tag k="ssr:stedsnr" v="705058" />
	</node>
	<node lat="59.90628333218285" lon="5.413080552268665" id="-34735">
		<tag k="fixme" v="consider natural=peak for the most distinct mountains in the district" />
		<tag k="name" v="Mosavassheia" />
		<tag k="natural" v="hill" />
		<tag k="place" v="locality" />
		<tag k="ssr:stedsnr" v="705069" />
	</node>
	<node lat="59.9132999990665" lon="5.404883338387646" id="-34736">
		<tag k="historic" v="shieling" />
		<tag k="name" v="Rimbareidsætre" />
		<tag k="place" v="isolated_dwelling" />
		<tag k="ssr:stedsnr" v="705072" />
	</node>
	<node lat="59.9188861103772" lon="5.420363885506638" id="-34737">
		<tag k="fixme" v="consider natural=peak for the most distinct mountains in the district" />
		<tag k="name" v="Grønafjellet" />
		<tag k="natural" v="hill" />
		<tag k="place" v="locality" />
		<tag k="ssr:stedsnr" v="705074" />
	</node>
	<node lat="59.81519999861956" lon="5.3334888962590945" id="-34738">
		<tag k="fixme" v="consider natural=peak for the most distinct mountains in the district" />
		<tag k="name" v="Fiskanessåta" />
		<tag k="natural" v="hill" />
		<tag k="place" v="locality" />
		<tag k="ssr:stedsnr" v="705096" />
	</node>
	<node lat="59.82482222671453" lon="5.325366672840737" id="-34739">
		<tag k="name" v="Kolagrovhaugane" />
		<tag k="natural" v="hill" />
		<tag k="place" v="locality" />
		<tag k="ssr:stedsnr" v="705099" />
	</node>
	<node lat="59.909436792187925" lon="5.287772036293969" id="-34740">
		<tag k="name" v="Vågen" />
		<tag k="natural" v="bay" />
		<tag k="ssr:stedsnr" v="705134" />
	</node>
	<node lat="59.85696944479781" lon="5.3517166591458905" id="-34741">
		<tag k="name" v="Hjarthammaren" />
		<tag k="natural" v="hill" />
		<tag k="place" v="locality" />
		<tag k="ssr:stedsnr" v="705456" />
	</node>
	<node lat="59.841866393106486" lon="5.332053814776659" id="-34742">
		<tag k="name" v="Råtatjørn" />
		<tag k="natural" v="water" />
		<tag k="ssr:stedsnr" v="705483" />
	</node>
	<node lat="59.90000555433106" lon="5.235644449845484" id="-34743">
		<tag k="name" v="Klubbableikja" />
		<tag k="place" v="island" />
		<tag k="ssr:stedsnr" v="705485" />
	</node>
	<node lat="59.90017677021422" lon="5.179535652127855" id="-34744">
		<tag k="name" v="Nordre Trollholmsvågen" />
		<tag k="natural" v="bay" />
		<tag k="ssr:stedsnr" v="705544" />
	</node>
	<node lat="59.93288375857365" lon="5.456920067222012" id="-34745">
		<tag k="fixme" v="consider place=hamlet" />
		<tag k="name" v="Søre Raunholm" />
		<tag k="place" v="farm" />
		<tag k="ssr:stedsnr" v="643082" />
	</node>
	<node lat="59.8185638860977" lon="5.319833340117967" id="-34746">
		<tag k="name" v="Kjølpeneset" />
		<tag k="natural" v="cape" />
		<tag k="ssr:stedsnr" v="644074" />
	</node>
	<node lat="59.81136944410155" lon="5.346991663560972" id="-34747">
		<tag k="name" v="Litle Sjøbuholmen" />
		<tag k="place" v="island" />
		<tag k="ssr:stedsnr" v="644078" />
	</node>
	<node lat="59.90975277749983" lon="5.306452769602836" id="-34748">
		<tag k="name" v="Dalen" />
		<tag k="place" v="farm" />
		<tag k="ssr:stedsnr" v="644082" />
	</node>
	<node lat="59.899655551504544" lon="5.335661104393425" id="-34749">
		<tag k="fixme" v="consider place=hamlet" />
		<tag k="name" v="Vik" />
		<tag k="place" v="farm" />
		<tag k="ssr:stedsnr" v="644086" />
	</node>
	<node lat="59.899038889193974" lon="5.351416665143558" id="-34750">
		<tag k="fixme" v="consider natural=peak for the most distinct mountains in the district" />
		<tag k="name" v="Vikeskarsfjellet" />
		<tag k="natural" v="hill" />
		<tag k="place" v="locality" />
		<tag k="ssr:stedsnr" v="644087" />
	</node>
	<node lat="59.8969777809547" lon="5.352155554766653" id="-34751">
		<tag k="name" v="Vikeskaret" />
		<tag k="natural" v="hill" />
		<tag k="place" v="locality" />
		<tag k="ssr:stedsnr" v="644088" />
	</node>
	<node lat="59.895536437705836" lon="5.3486878405149465" id="-34752">
		<tag k="fixme" v="consider natural=peak for the most distinct mountains in the district" />
		<tag k="name" v="Juvafjellet" />
		<tag k="natural" v="hill" />
		<tag k="place" v="locality" />
		<tag k="ssr:stedsnr" v="644090" />
	</node>
	<node lat="59.89431666618981" lon="5.28060833146518" id="-34753">
		<tag k="name" v="Steingardseidosen" />
		<tag k="natural" v="bay" />
		<tag k="ssr:stedsnr" v="644410" />
	</node>
	<node lat="59.894238884891344" lon="5.284522216555387" id="-34754">
		<tag k="name" v="Steingardseid" />
		<tag k="place" v="locality" />
		<tag k="ssr:stedsnr" v="644412" />
	</node>
	<node lat="59.903211109318576" lon="5.240480563540995" id="-34755">
		<tag k="name" v="Tomashola" />
		<tag k="natural" v="bay" />
		<tag k="ssr:stedsnr" v="644443" />
	</node>
	<node lat="59.9072388889674" lon="5.228138886333553" id="-34756">
		<tag k="name" v="Straumen" />
		<tag k="natural" v="strait" />
		<tag k="ssr:stedsnr" v="644448" />
	</node>
	<node lat="59.92236175645437" lon="5.148759615775462" id="-34757">
		<tag k="name" v="Nordre Eidøytåa" />
		<tag k="natural" v="cape" />
		<tag k="ssr:stedsnr" v="644481" />
	</node>
	<node lat="59.92097849298311" lon="5.247813214093009" id="-34758">
		<tag k="name" v="Engesundsvatnet" />
		<tag k="natural" v="water" />
		<tag k="ssr:stedsnr" v="644492" />
		<tag k="water" v="lake" />
	</node>
	<node lat="59.73742778082676" lon="5.32614722226549" id="-34759">
		<tag k="name" v="Sætre" />
		<tag k="natural" v="hill" />
		<tag k="place" v="locality" />
		<tag k="ssr:stedsnr" v="709418" />
	</node>
	<node lat="59.94308610717947" lon="5.277244443975769" id="-34760">
		<tag k="alt_name" v="Ramberget" />
		<tag k="name" v="Ramnaberget" />
		<tag k="natural" v="hill" />
		<tag k="place" v="locality" />
		<tag k="ssr:stedsnr" v="671804" />
	</node>
	<node lat="59.885094135896686" lon="5.337199372958409" id="-34761">
		<tag k="fixme" v="consider place=hamlet" />
		<tag k="name" v="Tveita" />
		<tag k="place" v="farm" />
		<tag k="ssr:stedsnr" v="671813" />
	</node>
	<node lat="59.898324995929485" lon="5.311249995272323" id="-34762">
		<tag k="name" v="Nesbøholmane" />
		<tag k="place" v="islet" />
		<tag k="ssr:stedsnr" v="671826" />
	</node>
	<node lat="59.88978611450371" lon="5.336341670171703" id="-34763">
		<tag k="name" v="Tveitanuten" />
		<tag k="natural" v="hill" />
		<tag k="place" v="locality" />
		<tag k="ssr:stedsnr" v="671830" />
	</node>
	<node lat="59.87140034679472" lon="5.318523253763028" id="-34764">
		<tag k="name" v="Leirdalstjørna" />
		<tag k="natural" v="water" />
		<tag k="ssr:stedsnr" v="671930" />
	</node>
	<node lat="59.90429166429406" lon="5.178355561501847" id="-34765">
		<tag k="fixme" v="consider seamark:type=rock or natural=shoal" />
		<tag k="name" v="Gulebleikjene" />
		<tag k="place" v="islet" />
		<tag k="ssr:stedsnr" v="692076" />
	</node>
	<node lat="59.84947221921716" lon="5.367091670835468" id="-34766">
		<tag k="name" v="Njoten" />
		<tag k="place" v="locality" />
		<tag k="ssr:stedsnr" v="705008" />
	</node>
	<node lat="59.97233610747889" lon="5.3593722258893015" id="-34767">
		<tag k="name" v="Bleikjene" />
		<tag k="place" v="island" />
		<tag k="ssr:stedsnr" v="705019" />
	</node>
	<node lat="59.97086388870092" lon="5.335927776729827" id="-34768">
		<tag k="name" v="Kjempeholmen" />
		<tag k="place" v="island" />
		<tag k="ssr:stedsnr" v="705023" />
	</node>
	<node lat="59.952399999231055" lon="5.324086103010858" id="-34769">
		<tag k="name" v="Gangstø" />
		<tag k="place" v="farm" />
		<tag k="ssr:stedsnr" v="705027" />
	</node>
	<node lat="59.967276525169744" lon="5.358457625777541" id="-34770">
		<tag k="name" v="Færøysundsvatnet" />
		<tag k="natural" v="water" />
		<tag k="ssr:stedsnr" v="705031" />
		<tag k="water" v="lake" />
	</node>
	<node lat="59.843319439863" lon="5.310172216715507" id="-34771">
		<tag k="name" v="Vinsjevik" />
		<tag k="natural" v="bay" />
		<tag k="ssr:stedsnr" v="705503" />
	</node>
	<node lat="59.935326466063195" lon="5.2090718695274525" id="-34772">
		<tag k="name" v="Klungerholmen" />
		<tag k="place" v="islet" />
		<tag k="ssr:stedsnr" v="705529" />
	</node>
	<node lat="59.909161114893486" lon="5.12416944069844" id="-34773">
		<tag k="name" v="Klamrøyane" />
		<tag k="place" v="island" />
		<tag k="ssr:stedsnr" v="708632" />
	</node>
	<node lat="59.908838888951614" lon="5.325561118375295" id="-34774">
		<tag k="name" v="Tangen" />
		<tag k="place" v="farm" />
		<tag k="ssr:stedsnr" v="731854" />
	</node>
	<node lat="59.9501527756191" lon="5.394041671364701" id="-34775">
		<tag k="name" v="Sørgard" />
		<tag k="place" v="farm" />
		<tag k="ssr:stedsnr" v="732806" />
	</node>
	<node lat="59.86545280898421" lon="5.336626271345313" id="-34776">
		<tag k="fixme" v="consider place=hamlet" />
		<tag k="name" v="Tislavoll" />
		<tag k="place" v="farm" />
		<tag k="ssr:stedsnr" v="732913" />
	</node>
	<node lat="59.865827777238884" lon="5.29545554807035" id="-34777">
		<tag k="name" v="Korsvik" />
		<tag k="place" v="farm" />
		<tag k="ssr:stedsnr" v="732920" />
	</node>
	<node lat="59.85347347765014" lon="5.310033206779529" id="-34778">
		<tag k="alt_name" v="Storevika" />
		<tag k="fixme" v="consider place=hamlet" />
		<tag k="name" v="Storavik" />
		<tag k="place" v="farm" />
		<tag k="ssr:stedsnr" v="732893" />
	</node>
	<node lat="59.86051666809301" lon="5.330450001075346" id="-34779">
		<tag k="name" v="Klovadalstjørna" />
		<tag k="natural" v="water" />
		<tag k="ssr:stedsnr" v="732895" />
	</node>
	<node lat="59.83591388704148" lon="5.313391670649706" id="-34780">
		<tag k="name" v="Hermannsholmen" />
		<tag k="place" v="islet" />
		<tag k="ssr:stedsnr" v="732998" />
	</node>
	<node lat="59.93817089024937" lon="5.448458904737493" id="-34781">
		<tag k="alt_name" v="Krabbavik" />
		<tag k="name" v="Krabbavika" />
		<tag k="natural" v="bay" />
		<tag k="ssr:stedsnr" v="753209" />
	</node>
	<node lat="59.910777810584264" lon="5.292363577673781" id="-34782">
		<tag k="cemetery" v="grave" />
		<tag k="name" v="Kolerakyrkjegard" />
		<tag k="place" v="locality" />
		<tag k="ssr:stedsnr" v="765105" />
	</node>
	<node lat="59.90703020618975" lon="5.33121950736285" id="-34783">
		<tag k="name" v="Tjørnsendebekken" />
		<tag k="ssr:stedsnr" v="765108" />
		<tag k="waterway" v="stream" />
	</node>
	<node lat="59.90562254299709" lon="5.236901323749274" id="-34784">
		<tag k="name" v="Litlavatnet" />
		<tag k="natural" v="water" />
		<tag k="ssr:stedsnr" v="765408" />
		<tag k="water" v="lake" />
	</node>
	<node lat="59.90148610830557" lon="5.2342138870269705" id="-34785">
		<tag k="name" v="Ivarsøyneset" />
		<tag k="natural" v="cape" />
		<tag k="ssr:stedsnr" v="765411" />
	</node>
	<node lat="59.90645555249147" lon="5.216647230673281" id="-34786">
		<tag k="name" v="Pissemaurbleikjo" />
		<tag k="place" v="island" />
		<tag k="ssr:stedsnr" v="765416" />
	</node>
	<node lat="59.888647223561264" lon="5.304533325312929" id="-34787">
		<tag k="name" v="Hellandssjøen" />
		<tag k="natural" v="bay" />
		<tag k="ssr:stedsnr" v="765418" />
	</node>
	<node lat="59.89139444264896" lon="5.3505416656884" id="-34788">
		<tag k="fixme" v="consider natural=peak for the most distinct mountains in the district" />
		<tag k="name" v="Varafjellet" />
		<tag k="natural" v="hill" />
		<tag k="place" v="locality" />
		<tag k="ssr:stedsnr" v="765364" />
	</node>
	<node lat="59.969030557114934" lon="5.365547214483531" id="-34789">
		<tag k="name" v="Skoraneset" />
		<tag k="natural" v="cape" />
		<tag k="ssr:stedsnr" v="766001" />
	</node>
	<node lat="59.88933055366756" lon="5.170499997777806" id="-34790">
		<tag k="name" v="Landfasteholmen" />
		<tag k="place" v="island" />
		<tag k="ssr:stedsnr" v="766507" />
	</node>
	<node lat="59.92324444111021" lon="5.210180553775706" id="-34791">
		<tag k="name" v="Sigleavløypet" />
		<tag k="place" v="islet" />
		<tag k="ssr:stedsnr" v="766439" />
	</node>
	<node lat="59.91529444175857" lon="5.293205548537578" id="-34792">
		<tag k="name" v="Kalveid" />
		<tag k="place" v="farm" />
		<tag k="ssr:stedsnr" v="766464" />
	</node>
	<node lat="59.90245833222517" lon="5.236136107504728" id="-34793">
		<tag k="alt_name" v="Kvendnavågen" />
		<tag k="name" v="Kvernevågen" />
		<tag k="natural" v="bay" />
		<tag k="ssr:stedsnr" v="766467" />
	</node>
	<node lat="59.87971944520749" lon="5.2243388825957435" id="-34794">
		<tag k="fixme" v="consider seamark:type=rock or natural=shoal" />
		<tag k="name" v="Slotteskjeret" />
		<tag k="place" v="islet" />
		<tag k="ssr:stedsnr" v="766490" />
	</node>
	<node lat="59.890169444887306" lon="5.173650001011437" id="-34795">
		<tag k="name" v="Olderholen" />
		<tag k="place" v="island" />
		<tag k="ssr:stedsnr" v="766501" />
	</node>
	<node lat="59.897172219246805" lon="5.336222226633421" id="-34796">
		<tag k="bridge" v="yes" />
		<tag k="layer" v="1" />
		<tag k="name" v="Vik" />
		<tag k="ssr:stedsnr" v="774863" />
	</node>
	<node lat="59.923166666809934" lon="5.2921249966113795" id="-34797">
		<tag k="alt_name" v="Fonnableikene;Fonableikjene" />
		<tag k="name" v="Fonnableikjene" />
		<tag k="place" v="islet" />
		<tag k="ssr:stedsnr" v="788967" />
	</node>
	<node lat="59.893541668927504" lon="5.2504166633673846" id="-34798">
		<tag k="alt_name" v="Straumsøysundet;Austre Straumøysund" />
		<tag k="name" v="Austra Straumøysundet" />
		<tag k="natural" v="strait" />
		<tag k="ssr:stedsnr" v="792827" />
	</node>
	<node lat="59.870655554307184" lon="5.373900001710457" id="-34799">
		<tag k="name" v="Orrhaugane" />
		<tag k="natural" v="hill" />
		<tag k="place" v="locality" />
		<tag k="ssr:stedsnr" v="792903" />
	</node>
	<node lat="59.83316666212746" lon="5.311574994343955" id="-34800">
		<tag k="alt_name" v="Skardanes" />
		<tag k="name" v="Skaraneset" />
		<tag k="natural" v="cape" />
		<tag k="ssr:stedsnr" v="792979" />
	</node>
	<node lat="59.90250833249528" lon="5.129791670489895" id="-34801">
		<tag k="alt_name" v="Spansosen;Spannsosen" />
		<tag k="name" v="Spannosen" />
		<tag k="natural" v="strait" />
		<tag k="ssr:stedsnr" v="793772" />
	</node>
	<node lat="59.91803333171934" lon="5.316741670425321" id="-34802">
		<tag k="name" v="Fitjar" />
		<tag k="place" v="village" />
		<tag k="ssr:stedsnr" v="793786" />
	</node>
	<node lat="59.91027499935017" lon="5.157975002501462" id="-34803">
		<tag k="name" v="Trollosen" />
		<tag k="natural" v="strait" />
		<tag k="ssr:stedsnr" v="793788" />
	</node>
	<node lat="59.91986111090729" lon="5.204886115762251" id="-34804">
		<tag k="alt_name" v="Slåtteholmen" />
		<tag k="name" v="Slåttholmen" />
		<tag k="place" v="islet" />
		<tag k="ssr:stedsnr" v="793789" />
	</node>
	<node lat="59.81439653097755" lon="5.345447870480707" id="-34805">
		<tag k="fixme" v="consider place=hamlet" />
		<tag k="name" v="Stokken" />
		<tag k="place" v="farm" />
		<tag k="ssr:stedsnr" v="914560" />
	</node>
	<node lat="59.92760278205043" lon="5.240999997956566" id="-34806">
		<tag k="name" v="Kobbavika" />
		<tag k="natural" v="bay" />
		<tag k="ssr:stedsnr" v="914783" />
	</node>
	<node lat="59.939686114518366" lon="5.408024993479308" id="-34807">
		<tag k="alt_name" v="Vestvikelva" />
		<tag k="name" v="Vistvikelva" />
		<tag k="ssr:stedsnr" v="914794" />
		<tag k="waterway" v="stream" />
	</node>
	<node lat="59.92144999771227" lon="5.1270277808486275" id="-34808">
		<tag k="name" v="Hanøyodden" />
		<tag k="natural" v="cape" />
		<tag k="ssr:stedsnr" v="914796" />
	</node>
	<node lat="59.93723889097651" lon="5.198044442951771" id="-34809">
		<tag k="alt_name" v="Siglo, l" />
		<tag k="name" v="Litla Siglo" />
		<tag k="place" v="islet" />
		<tag k="ssr:stedsnr" v="914801" />
	</node>
	<node lat="59.93398055887531" lon="5.20950276860572" id="-34810">
		<tag k="alt_name" v="Bukkeholmsundet" />
		<tag k="name" v="Bukkholmsundet" />
		<tag k="natural" v="strait" />
		<tag k="ssr:stedsnr" v="914802" />
	</node>
	<node lat="59.908061109002986" lon="5.150855561041747" id="-34811">
		<tag k="name" v="Soløysundet" />
		<tag k="natural" v="strait" />
		<tag k="ssr:stedsnr" v="914756" />
	</node>
	<node lat="59.914875004041164" lon="5.213366664234748" id="-34812">
		<tag k="name" v="Arholmen" />
		<tag k="place" v="islet" />
		<tag k="ssr:stedsnr" v="914770" />
	</node>
	<node lat="59.8474305568775" lon="5.306399991399648" id="-34813">
		<tag k="alt_name" v="Storevikholmen, midtre;Midtre Storavikholmen" />
		<tag k="name" v="Midtre Storevikholmen" />
		<tag k="place" v="islet" />
		<tag k="ssr:stedsnr" v="914884" />
	</node>
	<node lat="59.82522500311687" lon="5.352027779553911" id="-34814">
		<tag k="alt_name" v="Nordre Dåfjorden" />
		<tag k="bay" v="fjord" />
		<tag k="name" v="Dåfjorden" />
		<tag k="natural" v="bay" />
		<tag k="ssr:stedsnr" v="914951" />
	</node>
	<node lat="59.8188249975189" lon="5.331525002872272" id="-34815">
		<tag k="name" v="Varden" />
		<tag k="natural" v="hill" />
		<tag k="place" v="locality" />
		<tag k="ssr:stedsnr" v="914968" />
	</node>
	<node lat="59.88911388783043" lon="5.282863896464696" id="-34816">
		<tag k="alt_name" v="Stora Kråko" />
		<tag k="name" v="Kråko" />
		<tag k="natural" v="cape" />
		<tag k="ssr:stedsnr" v="914825" />
	</node>
	<node lat="59.89697574320664" lon="5.214017342663828" id="-34817">
		<tag k="fixme" v="consider place=hamlet" />
		<tag k="name" v="Dalen" />
		<tag k="place" v="farm" />
		<tag k="ssr:stedsnr" v="914841" />
	</node>
	<node lat="59.91231111465722" lon="5.153733335253658" id="-34818">
		<tag k="fixme" v="consider seamark:type=rock or natural=shoal" />
		<tag k="name" v="Osableikja" />
		<tag k="place" v="islet" />
		<tag k="ssr:stedsnr" v="814081" />
	</node>
	<node lat="59.93093055250579" lon="5.143602774418311" id="-34819">
		<tag k="name" v="Torsteinflua" />
		<tag k="natural" v="shoal" />
		<tag k="place" v="locality" />
		<tag k="ssr:stedsnr" v="814087" />
	</node>
	<node lat="59.94945603344403" lon="5.405951678317589" id="-34820">
		<tag k="name" v="Vistvikholmen" />
		<tag k="place" v="islet" />
		<tag k="ssr:stedsnr" v="814312" />
	</node>
	<node lat="59.914819440794865" lon="5.405480564308195" id="-34821">
		<tag k="name" v="Kjelaspranget" />
		<tag k="place" v="locality" />
		<tag k="ssr:stedsnr" v="826071" />
	</node>
	<node lat="59.825633334402234" lon="5.345244438683964" id="-34822">
		<tag k="name" v="Bergabergbekken" />
		<tag k="ssr:stedsnr" v="826108" />
		<tag k="waterway" v="stream" />
	</node>
	<node lat="59.86450832933196" lon="5.2967777797728335" id="-34823">
		<tag k="name" v="Vesthaugen" />
		<tag k="natural" v="hill" />
		<tag k="place" v="locality" />
		<tag k="ssr:stedsnr" v="826417" />
	</node>
	<node lat="59.86810043361739" lon="5.290004913937331" id="-34824">
		<tag k="name" v="Fløbergneset" />
		<tag k="natural" v="cape" />
		<tag k="ssr:stedsnr" v="826421" />
	</node>
	<node lat="59.85884722625719" lon="5.301777772927975" id="-34825">
		<tag k="name" v="Kuarvågen" />
		<tag k="natural" v="bay" />
		<tag k="ssr:stedsnr" v="826385" />
	</node>
	<node lat="59.970893828216504" lon="5.358505622677753" id="-34826">
		<tag k="alt_name" v="Litla Færøya" />
		<tag k="name" v="Litla Færøy" />
		<tag k="place" v="island" />
		<tag k="ssr:stedsnr" v="827016" />
	</node>
	<node lat="59.97957500342165" lon="5.315497222444516" id="-34827">
		<tag k="name" v="Bråtavika" />
		<tag k="natural" v="bay" />
		<tag k="ssr:stedsnr" v="827021" />
	</node>
	<node lat="59.962310689768366" lon="5.288192598543524" id="-34828">
		<tag k="name" v="Grøneviktonjen" />
		<tag k="natural" v="cape" />
		<tag k="ssr:stedsnr" v="827025" />
	</node>
	<node lat="59.97023611060317" lon="5.356780560802637" id="-34829">
		<tag k="name" v="Færøysundet" />
		<tag k="natural" v="strait" />
		<tag k="ssr:stedsnr" v="827276" />
	</node>
	<node lat="59.87709454712645" lon="5.287808209742488" id="-34830">
		<tag k="name" v="Nordre Hetlevika" />
		<tag k="natural" v="bay" />
		<tag k="ssr:stedsnr" v="827462" />
	</node>
	<node lat="59.893716667209105" lon="5.264311119847787" id="-34831">
		<tag k="name" v="Hjelmålen" />
		<tag k="natural" v="strait" />
		<tag k="ssr:stedsnr" v="827472" />
	</node>
	<node lat="59.85732500280402" lon="5.331452784545914" id="-34832">
		<tag k="name" v="Klovadalen" />
		<tag k="natural" v="valley" />
		<tag k="place" v="locality" />
		<tag k="ssr:stedsnr" v="827513" />
	</node>
	<node lat="59.93134718901189" lon="5.254166014961676" id="-34833">
		<tag k="name" v="Teløy" />
		<tag k="place" v="island" />
		<tag k="ssr:stedsnr" v="853756" />
	</node>
	<node lat="59.85563740907636" lon="5.3426441564752345" id="-34834">
		<tag k="name" v="Midttjørna" />
		<tag k="natural" v="water" />
		<tag k="ssr:stedsnr" v="853915" />
	</node>
	<node lat="59.90350000070363" lon="5.326224994300968" id="-34835">
		<tag k="fixme" v="consider natural=peak for the most distinct mountains in the district" />
		<tag k="name" v="Åsen" />
		<tag k="natural" v="hill" />
		<tag k="place" v="locality" />
		<tag k="ssr:stedsnr" v="853849" />
	</node>
	<node lat="59.897205554221316" lon="5.267088895993754" id="-34836">
		<tag k="name" v="Hyseholmen" />
		<tag k="place" v="islet" />
		<tag k="ssr:stedsnr" v="853853" />
	</node>
	<node lat="59.90244999959797" lon="5.176274996032367" id="-34837">
		<tag k="alt_name" v="Flatholmen;Flateholmen" />
		<tag k="name" v="Flaten" />
		<tag k="place" v="islet" />
		<tag k="ssr:stedsnr" v="853861" />
	</node>
	<node lat="59.92244592027131" lon="5.408512557695007" id="-34838">
		<tag k="name" v="Kvernavatnet" />
		<tag k="natural" v="water" />
		<tag k="ssr:stedsnr" v="854742" />
	</node>
	<node lat="59.89639999666686" lon="5.334605557486461" id="-34839">
		<tag k="name" v="Vikeelva" />
		<tag k="ssr:stedsnr" v="887110" />
		<tag k="waterway" v="stream" />
	</node>
	<node lat="59.90245277631078" lon="5.348663883210102" id="-34840">
		<tag k="name" v="Ingusberget" />
		<tag k="natural" v="hill" />
		<tag k="place" v="locality" />
		<tag k="ssr:stedsnr" v="887113" />
	</node>
	<node lat="59.860444444508815" lon="5.36051111780934" id="-34841">
		<tag k="name" v="Grøvlehaugen" />
		<tag k="natural" v="hill" />
		<tag k="place" v="locality" />
		<tag k="ssr:stedsnr" v="887120" />
	</node>
	<node lat="59.90131666317832" lon="5.157422223803824" id="-34842">
		<tag k="name" v="Bakkasundet" />
		<tag k="natural" v="strait" />
		<tag k="ssr:stedsnr" v="935083" />
	</node>
	<node lat="59.83949166265381" lon="5.367138881970936" id="-34843">
		<tag k="fixme" v="consider natural=peak for the most distinct mountains in the district" />
		<tag k="name" v="Øykjafjellet" />
		<tag k="natural" v="hill" />
		<tag k="place" v="locality" />
		<tag k="ssr:stedsnr" v="887008" />
	</node>
	<node lat="59.95696389327127" lon="5.356400000480747" id="-34844">
		<tag k="name" v="Levågslia" />
		<tag k="natural" v="slope" />
		<tag k="place" v="locality" />
		<tag k="ssr:stedsnr" v="887048" />
	</node>
	<node lat="59.9517083320237" lon="5.359213884505703" id="-34845">
		<tag k="historic" v="shieling" />
		<tag k="name" v="Levågsætre" />
		<tag k="place" v="isolated_dwelling" />
		<tag k="ssr:stedsnr" v="887050" />
	</node>
	<node lat="59.92939166716401" lon="5.446097230067719" id="-34846">
		<tag k="name" v="Sæthaug" />
		<tag k="natural" v="hill" />
		<tag k="place" v="locality" />
		<tag k="ssr:stedsnr" v="887058" />
	</node>
	<node lat="59.815394445245595" lon="5.328030560069618" id="-34847">
		<tag k="name" v="Storeklubben" />
		<tag k="natural" v="cape" />
		<tag k="ssr:stedsnr" v="887098" />
	</node>
	<node lat="59.92044444075389" lon="5.239897226964782" id="-34848">
		<tag k="name" v="Madsaholmen" />
		<tag k="place" v="islet" />
		<tag k="ssr:stedsnr" v="887460" />
	</node>
	<node lat="59.94881944484058" lon="5.399750006869738" id="-34849">
		<tag k="name" v="Hetlevika" />
		<tag k="natural" v="bay" />
		<tag k="ssr:stedsnr" v="887500" />
	</node>
	<node lat="59.86277500019136" lon="5.302772213619158" id="-34850">
		<tag k="alt_name" v="Nymark" />
		<tag k="name" v="Koløystø" />
		<tag k="place" v="farm" />
		<tag k="ssr:stedsnr" v="935174" />
	</node>
	<node lat="59.82371110696932" lon="5.321047216063083" id="-34851">
		<tag k="name" v="Jordnåo" />
		<tag k="place" v="farm" />
		<tag k="ssr:stedsnr" v="935177" />
	</node>
	<node lat="59.927091664969545" lon="5.472024998625293" id="-34852">
		<tag k="alt_name" v="Nordvågen" />
		<tag k="name" v="Nordvåg" />
		<tag k="natural" v="bay" />
		<tag k="ssr:stedsnr" v="935226" />
	</node>
	<node lat="59.87100140436779" lon="5.347091641441602" id="-34853">
		<tag k="bridge" v="yes" />
		<tag k="layer" v="1" />
		<tag k="name" v="Røydland" />
		<tag k="ssr:stedsnr" v="896876" />
	</node>
	<node lat="59.96943611128317" lon="5.362700007121463" id="-34854">
		<tag k="name" v="Færøysund" />
		<tag k="natural" v="cape" />
		<tag k="ssr:stedsnr" v="914192" />
	</node>
	<node lat="59.8849694485311" lon="5.4435500066731395" id="-34855">
		<tag k="name" v="Dyrdalen" />
		<tag k="natural" v="valley" />
		<tag k="place" v="locality" />
		<tag k="ssr:stedsnr" v="914815" />
	</node>
	<node lat="59.86724400067664" lon="5.413838197033393" id="-34856">
		<tag k="alt_name" v="Sørlivatnet, ytste" />
		<tag k="name" v="Ytste Sørlivatnet" />
		<tag k="natural" v="water" />
		<tag k="ssr:stedsnr" v="914916" />
		<tag k="water" v="lake" />
	</node>
	<node lat="59.86454810622286" lon="5.379584786191134" id="-34857">
		<tag k="name" v="Kvernavatnet" />
		<tag k="natural" v="water" />
		<tag k="ssr:stedsnr" v="914919" />
	</node>
	<node lat="59.868838397118346" lon="5.2892240756729265" id="-34858">
		<tag k="alt_name" v="Ondebortvika" />
		<tag k="name" v="Undeborvika" />
		<tag k="natural" v="bay" />
		<tag k="ssr:stedsnr" v="914925" />
	</node>
	<node lat="59.87461525151064" lon="5.247293449902679" id="-34859">
		<tag k="name" v="Ålforo" />
		<tag k="place" v="island" />
		<tag k="ssr:stedsnr" v="914926" />
	</node>
	<node lat="59.86688055203129" lon="5.209302773162356" id="-34860">
		<tag k="alt_name" v="Brendøyosen" />
		<tag k="name" v="Brennøyosen" />
		<tag k="natural" v="strait" />
		<tag k="ssr:stedsnr" v="914934" />
	</node>
	<node lat="59.87853888877153" lon="5.284008339313415" id="-34861">
		<tag k="alt_name" v="Hellandsholmen, nordre" />
		<tag k="name" v="Nordre Hellandsholmen" />
		<tag k="place" v="islet" />
		<tag k="ssr:stedsnr" v="914946" />
	</node>
	<node lat="59.9633670728372" lon="5.373932521826141" id="-34862">
		<tag k="loc_name" v="Engevikfossen;Engjavikfossen" />
		<tag k="name" v="Engjavikefossen" />
		<tag k="natural" v="waterfall" />
		<tag k="ssr:stedsnr" v="948002" />
	</node>
	<node lat="59.81576666618914" lon="5.345400008465834" id="-34863">
		<tag k="name" v="Klubben" />
		<tag k="natural" v="cape" />
		<tag k="ssr:stedsnr" v="948107" />
	</node>
	<node lat="59.90277222106576" lon="5.341097221299249" id="-34864">
		<tag k="fixme" v="consider natural=peak for the most distinct mountains in the district" />
		<tag k="name" v="Gjeråsen" />
		<tag k="natural" v="hill" />
		<tag k="place" v="locality" />
		<tag k="ssr:stedsnr" v="948115" />
	</node>
	<node lat="59.845211113777424" lon="5.379347230353708" id="-34865">
		<tag k="fixme" v="consider natural=peak for the most distinct mountains in the district" />
		<tag k="name" v="Tinna" />
		<tag k="natural" v="hill" />
		<tag k="place" v="locality" />
		<tag k="ssr:stedsnr" v="948003" />
	</node>
	<node lat="59.83861111241256" lon="5.391625001741502" id="-34866">
		<tag k="fixme" v="consider natural=peak for the most distinct mountains in the district" />
		<tag k="name" v="Uvegtinden" />
		<tag k="natural" v="hill" />
		<tag k="place" v="locality" />
		<tag k="ssr:stedsnr" v="948006" />
	</node>
	<node lat="59.84292499961422" lon="5.3766111136237384" id="-34867">
		<tag k="fixme" v="consider natural=peak for the most distinct mountains in the district" />
		<tag k="name" v="Dåstinna" />
		<tag k="natural" v="hill" />
		<tag k="place" v="locality" />
		<tag k="ssr:stedsnr" v="948009" />
	</node>
	<node lat="59.92121111264871" lon="5.310663884201325" id="-34868">
		<tag k="name" v="Fitjarvika" />
		<tag k="natural" v="bay" />
		<tag k="ssr:stedsnr" v="948015" />
	</node>
	<node lat="59.92336389005753" lon="5.332847216934326" id="-34869">
		<tag k="name" v="Tednekleiva" />
		<tag k="natural" v="hill" />
		<tag k="place" v="locality" />
		<tag k="ssr:stedsnr" v="948020" />
	</node>
	<node lat="59.96729187248172" lon="5.346297191535595" id="-34870">
		<tag k="name" v="Foreholmen" />
		<tag k="place" v="islet" />
		<tag k="ssr:stedsnr" v="948024" />
	</node>
	<node lat="59.92769444105032" lon="5.158024997387586" id="-34871">
		<tag k="name" v="Nordre Eggøytåa" />
		<tag k="natural" v="cape" />
		<tag k="ssr:stedsnr" v="948517" />
	</node>
	<node lat="59.86408661270259" lon="5.272347679409404" id="-34872">
		<tag k="name" v="Hamnaholmen" />
		<tag k="place" v="islet" />
		<tag k="ssr:stedsnr" v="948407" />
	</node>
	<node lat="59.84816111370569" lon="5.361730558308533" id="-34873">
		<tag k="name" v="Litlenjoten" />
		<tag k="place" v="locality" />
		<tag k="ssr:stedsnr" v="948489" />
	</node>
	<node lat="59.83694722603158" lon="5.35269166568992" id="-34874">
		<tag k="name" v="Ramsvik" />
		<tag k="natural" v="bay" />
		<tag k="ssr:stedsnr" v="948491" />
	</node>
	<node lat="59.94497621853182" lon="5.40853492128826" id="-34875">
		<tag k="bridge" v="yes" />
		<tag k="layer" v="1" />
		<tag k="name" v="Vistvik" />
		<tag k="ssr:stedsnr" v="956850" />
	</node>
	<node lat="59.926209609875784" lon="5.264820425284705" id="-34876">
		<tag k="alt_name" v="Tøjesvågen" />
		<tag k="name" v="Tøkjesvågen" />
		<tag k="natural" v="bay" />
		<tag k="ssr:stedsnr" v="981706" />
	</node>
	<node lat="59.928628706229986" lon="5.262572081375015" id="-34877">
		<tag k="name" v="Garnvika" />
		<tag k="natural" v="bay" />
		<tag k="ssr:stedsnr" v="981707" />
	</node>
	<node lat="59.919526297987986" lon="5.261457853232566" id="-34878">
		<tag k="name" v="Pilanova" />
		<tag k="natural" v="cape" />
		<tag k="ssr:stedsnr" v="981708" />
	</node>
	<node lat="59.92226302487913" lon="5.25850747797731" id="-34880">
		<tag k="name" v="Pilastraumen" />
		<tag k="natural" v="strait" />
		<tag k="ssr:stedsnr" v="981710" />
	</node>
	<node lat="59.92272843125132" lon="5.272329218399102" id="-34881">
		<tag k="alt_name" v="Austravikjo" />
		<tag k="name" v="Austravika" />
		<tag k="natural" v="bay" />
		<tag k="ssr:stedsnr" v="981714" />
	</node>
	<node lat="59.925597922965295" lon="5.2055500147788525" id="-34882">
		<tag k="name" v="Siglehamn" />
		<tag k="natural" v="bay" />
		<tag k="ssr:stedsnr" v="981722" />
	</node>
	<node lat="59.90923421229587" lon="5.265981551536679" id="-34883">
		<tag k="fixme" v="consider place=hamlet" />
		<tag k="name" v="Gloppholmen" />
		<tag k="place" v="farm" />
		<tag k="ssr:stedsnr" v="989923" />
	</node>
	<node lat="59.91985781872417" lon="5.252908082082582" id="-34884">
		<tag k="alt_name" v="Vestre Engesund" />
		<tag k="fixme" v="consider place=hamlet" />
		<tag k="name" v="Engesund" />
		<tag k="place" v="farm" />
		<tag k="ssr:stedsnr" v="989926" />
	</node>
	<node lat="59.95337044503423" lon="5.396369244487604" id="-34885">
		<tag k="loc_name" v="Engevikneset" />
		<tag k="name" v="Engjavikneset" />
		<tag k="natural" v="cape" />
		<tag k="ssr:stedsnr" v="3156" />
	</node>
	<node lat="59.858952286507225" lon="5.311781341607389" id="-34886">
		<tag k="name" v="Storeviktjørna" />
		<tag k="natural" v="water" />
		<tag k="ssr:stedsnr" v="3905" />
	</node>
	<node lat="59.94892499953598" lon="5.407275001614521" id="-34887">
		<tag k="name" v="Laksneset" />
		<tag k="natural" v="cape" />
		<tag k="ssr:stedsnr" v="3795" />
	</node>
	<node lat="59.87664317122864" lon="5.246002040154281" id="-34888">
		<tag k="name" v="Storhaugvatnet" />
		<tag k="natural" v="water" />
		<tag k="ssr:stedsnr" v="3925" />
	</node>
	<node lat="59.87595833157322" lon="5.351774997184063" id="-34889">
		<tag k="name" v="Storevarden" />
		<tag k="natural" v="hill" />
		<tag k="place" v="locality" />
		<tag k="ssr:stedsnr" v="3935" />
	</node>
	<node lat="59.9061166673664" lon="5.358019439528179" id="-34890">
		<tag k="name" v="Kråbekken" />
		<tag k="ssr:stedsnr" v="3851" />
		<tag k="waterway" v="stream" />
	</node>
	<node lat="59.90332174570324" lon="5.399643270746359" id="-34891">
		<tag k="name" v="Svartatjørn" />
		<tag k="natural" v="water" />
		<tag k="ssr:stedsnr" v="3852" />
	</node>
	<node lat="59.91610000306828" lon="5.459030556073812" id="-34892">
		<tag k="name" v="Gjæsene" />
		<tag k="natural" v="hill" />
		<tag k="place" v="locality" />
		<tag k="ssr:stedsnr" v="3860" />
	</node>
	<node lat="59.909661806637644" lon="5.3773335223727035" id="-34893">
		<tag k="name" v="Olstjørna" />
		<tag k="natural" v="water" />
		<tag k="ssr:stedsnr" v="3862" />
	</node>
	<node lat="59.95081389018478" lon="5.028916658753978" id="-34894">
		<tag k="bay" v="fjord" />
		<tag k="name" v="Selbjørnsfjorden" />
		<tag k="natural" v="bay" />
		<tag k="ssr:stedsnr" v="4048" />
	</node>
	<node lat="59.973411355846636" lon="5.353546101099897" id="-34895">
		<tag k="alt_name" v="Færøya" />
		<tag k="name" v="Færøy" />
		<tag k="place" v="island" />
		<tag k="ssr:stedsnr" v="4181" />
	</node>
	<node lat="59.9635095372735" lon="5.3516774903995765" id="-34896">
		<tag k="alt_name" v="Levågpollen" />
		<tag k="name" v="Pollen" />
		<tag k="natural" v="bay" />
		<tag k="ssr:stedsnr" v="4193" />
	</node>
	<node lat="59.90086672335815" lon="5.3022074994747594" id="-34897">
		<tag k="alt_name" v="Breidavika" />
		<tag k="name" v="Breiavika" />
		<tag k="natural" v="bay" />
		<tag k="ssr:stedsnr" v="4561" />
	</node>
	<node lat="59.930352776263966" lon="5.394366665325045" id="-34898">
		<tag k="name" v="Djupedalen" />
		<tag k="natural" v="valley" />
		<tag k="place" v="locality" />
		<tag k="ssr:stedsnr" v="4792" />
	</node>
	<node lat="59.899786108910384" lon="5.2600055557724685" id="-34899">
		<tag k="alt_name" v="Vardaneset" />
		<tag k="name" v="Vardeneset" />
		<tag k="natural" v="cape" />
		<tag k="ssr:stedsnr" v="25061" />
	</node>
	<node lat="59.97388055144369" lon="5.310622222948412" id="-34900">
		<tag k="name" v="Laksvåghaugen" />
		<tag k="natural" v="hill" />
		<tag k="place" v="locality" />
		<tag k="ssr:stedsnr" v="25269" />
	</node>
	<node lat="59.94337222625607" lon="5.235649993859563" id="-34901">
		<tag k="name" v="Engesundsleia" />
		<tag k="natural" v="strait" />
		<tag k="ssr:stedsnr" v="25779" />
	</node>
	<node lat="59.96828611524734" lon="5.333538881350426" id="-34902">
		<tag k="amenity" v="ferry_terminal" />
		<tag k="fixme" v="multiple name tags, choose one and add the other to alt_name" />
		<tag k="name" v="Sandvikvåg ferjekai;Sandvikvåg" />
		<tag k="ssr:stedsnr" v="46856" />
	</node>
	<node lat="59.94738611466533" lon="5.4022666646606226" id="-34903">
		<tag k="name" v="Hovlandshagen" />
		<tag k="place" v="farm" />
		<tag k="ssr:stedsnr" v="37095" />
	</node>
	<node lat="59.949202774705384" lon="5.406633331071538" id="-34904">
		<tag k="name" v="Holmsund" />
		<tag k="natural" v="strait" />
		<tag k="ssr:stedsnr" v="37097" />
	</node>
	<node lat="59.848200001817396" lon="5.323872221436302" id="-34905">
		<tag k="name" v="Hogstesetret" />
		<tag k="place" v="locality" />
		<tag k="ssr:stedsnr" v="37432" />
	</node>
	<node lat="59.908738703548124" lon="5.3287739397311205" id="-34906">
		<tag k="name" v="Rimbereidtjørna" />
		<tag k="natural" v="water" />
		<tag k="ssr:stedsnr" v="37132" />
	</node>
	<node lat="59.89796388551033" lon="5.346650006348741" id="-34907">
		<tag k="name" v="Juvet" />
		<tag k="natural" v="gorge" />
		<tag k="ssr:stedsnr" v="37140" />
	</node>
	<node lat="59.94787941409909" lon="5.40613663637869" id="-34908">
		<tag k="alt_name" v="Visvikevågen" />
		<tag k="name" v="Vistvikevågen" />
		<tag k="natural" v="bay" />
		<tag k="ssr:stedsnr" v="37100" />
	</node>
	<node lat="59.92311944295046" lon="5.203030554130171" id="-34909">
		<tag k="name" v="Litleholmen" />
		<tag k="place" v="islet" />
		<tag k="ssr:stedsnr" v="37465" />
	</node>
	<node lat="59.919044446839564" lon="5.238661112513402" id="-34910">
		<tag k="name" v="Gullura" />
		<tag k="natural" v="bay" />
		<tag k="ssr:stedsnr" v="37469" />
	</node>
	<node lat="59.919605558422674" lon="5.234911117310838" id="-34911">
		<tag k="name" v="Litleholmen" />
		<tag k="place" v="island" />
		<tag k="ssr:stedsnr" v="37471" />
	</node>
	<node lat="59.89950277953963" lon="5.208586116133019" id="-34912">
		<tag k="name" v="Dataklubben" />
		<tag k="natural" v="cape" />
		<tag k="ssr:stedsnr" v="37488" />
	</node>
	<node lat="59.8760444400936" lon="5.418861111707696" id="-34913">
		<tag k="name" v="Steindalsheia" />
		<tag k="natural" v="hill" />
		<tag k="place" v="locality" />
		<tag k="ssr:stedsnr" v="38033" />
	</node>
	<node lat="59.953044441602394" lon="5.320527775863166" id="-34914">
		<tag k="name" v="Gloppeneset" />
		<tag k="natural" v="cape" />
		<tag k="ssr:stedsnr" v="38036" />
	</node>
	<node lat="59.900628197908546" lon="5.307742753421397" id="-34915">
		<tag k="name" v="Kjeneseid" />
		<tag k="place" v="locality" />
		<tag k="ssr:stedsnr" v="38279" />
	</node>
	<node lat="59.88072222498437" lon="5.340605551729827" id="-34916">
		<tag k="name" v="Tveitadalen" />
		<tag k="natural" v="valley" />
		<tag k="place" v="locality" />
		<tag k="ssr:stedsnr" v="38285" />
	</node>
	<node lat="59.893374633675684" lon="5.208915762808788" id="-34917">
		<tag k="name" v="Tranøyklubben" />
		<tag k="natural" v="cape" />
		<tag k="ssr:stedsnr" v="38497" />
	</node>
	<node lat="59.92342777391947" lon="5.145713891811152" id="-34918">
		<tag k="fixme" v="consider seamark:type=rock or natural=shoal" />
		<tag k="name" v="Svinsundskjeret" />
		<tag k="place" v="islet" />
		<tag k="ssr:stedsnr" v="38453" />
	</node>
	<node lat="59.91106111350656" lon="5.135077783406876" id="-34919">
		<tag k="alt_name" v="Urdøya, store" />
		<tag k="name" v="Stora Urdøyna" />
		<tag k="place" v="islet" />
		<tag k="ssr:stedsnr" v="58767" />
	</node>
	<node lat="59.8479444431373" lon="5.389663895233534" id="-34920">
		<tag k="name" v="Svalevatnet" />
		<tag k="natural" v="water" />
		<tag k="ssr:stedsnr" v="64899" />
	</node>
	<node lat="59.82721134976676" lon="5.319332420735143" id="-34921">
		<tag k="name" v="Skardet" />
		<tag k="place" v="farm" />
		<tag k="ssr:stedsnr" v="64982" />
	</node>
	<node lat="59.836402777404004" lon="5.31525000423462" id="-34922">
		<tag k="name" v="Hermannsplass" />
		<tag k="place" v="farm" />
		<tag k="ssr:stedsnr" v="65000" />
	</node>
	<node lat="59.926966664081114" lon="5.129105549274935" id="-34923">
		<tag k="name" v="Hanøyosen" />
		<tag k="natural" v="strait" />
		<tag k="ssr:stedsnr" v="64797" />
	</node>
	<node lat="59.92068055476371" lon="5.483016665420844" id="-34924">
		<tag k="name" v="Skipavika" />
		<tag k="natural" v="bay" />
		<tag k="ssr:stedsnr" v="65738" />
	</node>
	<node lat="59.87350999935415" lon="5.328795049797721" id="-34925">
		<tag k="fixme" v="consider place=hamlet" />
		<tag k="name" v="Hogste" />
		<tag k="place" v="farm" />
		<tag k="ssr:stedsnr" v="64949" />
	</node>
	<node lat="59.8935245409383" lon="5.20670318493037" id="-34926">
		<tag k="name" v="Bøvika" />
		<tag k="natural" v="bay" />
		<tag k="ssr:stedsnr" v="65552" />
	</node>
	<node lat="59.92114157850227" lon="5.2264683457046575" id="-34927">
		<tag k="name" v="Ivarsøygavlen" />
		<tag k="natural" v="cape" />
		<tag k="ssr:stedsnr" v="65781" />
	</node>
	<node lat="59.9361638921904" lon="5.442850006837883" id="-34928">
		<tag k="name" v="Rishaugen" />
		<tag k="natural" v="hill" />
		<tag k="place" v="locality" />
		<tag k="ssr:stedsnr" v="65784" />
	</node>
	<node lat="59.929025003855955" lon="5.343813883447606" id="-34929">
		<tag k="name" v="Rakabekken" />
		<tag k="ssr:stedsnr" v="65790" />
		<tag k="waterway" v="stream" />
	</node>
	<node lat="59.90848055193156" lon="5.178191667335256" id="-34930">
		<tag k="alt_name" v="Vågen, s" />
		<tag k="name" v="Søre Vågen" />
		<tag k="natural" v="bay" />
		<tag k="ssr:stedsnr" v="65886" />
	</node>
	<node lat="59.87875555991948" lon="5.28930000111276" id="-34931">
		<tag k="name" v="Brattaberg" />
		<tag k="natural" v="cape" />
		<tag k="ssr:stedsnr" v="86201" />
	</node>
	<node lat="59.90655555605535" lon="5.30963333503177" id="-34932">
		<tag k="name" v="Torland" />
		<tag k="place" v="farm" />
		<tag k="ssr:stedsnr" v="98102" />
	</node>
	<node lat="59.875419444687886" lon="5.355788880498012" id="-34933">
		<tag k="name" v="Krakadalen" />
		<tag k="natural" v="valley" />
		<tag k="place" v="locality" />
		<tag k="ssr:stedsnr" v="98382" />
	</node>
	<node lat="59.873630552723874" lon="5.292372217927602" id="-34934">
		<tag k="name" v="Revabølshaugen" />
		<tag k="natural" v="hill" />
		<tag k="place" v="locality" />
		<tag k="ssr:stedsnr" v="98388" />
	</node>
	<node lat="59.90922500217947" lon="5.1454222212271645" id="-34935">
		<tag k="name" v="Torvbleikjene" />
		<tag k="place" v="island" />
		<tag k="ssr:stedsnr" v="98490" />
	</node>
	<node lat="59.913330227600035" lon="5.244114270128481" id="-34936">
		<tag k="name" v="Lomtjørna" />
		<tag k="natural" v="water" />
		<tag k="ssr:stedsnr" v="98432" />
	</node>
	<node lat="59.91573333496995" lon="5.225836102805323" id="-34937">
		<tag k="name" v="Breivikepøylo" />
		<tag k="natural" v="bay" />
		<tag k="ssr:stedsnr" v="98444" />
	</node>
	<node lat="59.93036666490256" lon="5.34148889041601" id="-34938">
		<tag k="name" v="Olderlia" />
		<tag k="natural" v="slope" />
		<tag k="place" v="locality" />
		<tag k="ssr:stedsnr" v="99006" />
	</node>
	<node lat="59.91944999829113" lon="5.352574994141202" id="-34939">
		<tag k="name" v="Steinryggen" />
		<tag k="natural" v="ridge" />
		<tag k="place" v="locality" />
		<tag k="ssr:stedsnr" v="99008" />
	</node>
	<node lat="59.9511388869259" lon="5.33349167574108" id="-34940">
		<tag k="name" v="Botn" />
		<tag k="natural" v="valley" />
		<tag k="place" v="locality" />
		<tag k="ssr:stedsnr" v="99022" />
	</node>
	<node lat="59.938997217803355" lon="5.33541666265464" id="-34941">
		<tag k="historic" v="shieling" />
		<tag k="name" v="Årskog" />
		<tag k="place" v="isolated_dwelling" />
		<tag k="ssr:stedsnr" v="99027" />
	</node>
	<node lat="59.880094443986025" lon="5.379852778048477" id="-34942">
		<tag k="name" v="Småliane" />
		<tag k="natural" v="slope" />
		<tag k="place" v="locality" />
		<tag k="ssr:stedsnr" v="99032" />
	</node>
	<node lat="59.94895555873024" lon="5.3228722233173285" id="-34943">
		<tag k="name" v="Øspevika" />
		<tag k="natural" v="bay" />
		<tag k="ssr:stedsnr" v="99035" />
	</node>
	<node lat="59.95342777467095" lon="5.341405550957961" id="-34944">
		<tag k="name" v="Hundsryggen" />
		<tag k="natural" v="gorge" />
		<tag k="ssr:stedsnr" v="99036" />
	</node>
	<node lat="59.95408889080185" lon="5.337702769666245" id="-34945">
		<tag k="name" v="Vargarhaugane" />
		<tag k="natural" v="hill" />
		<tag k="place" v="locality" />
		<tag k="ssr:stedsnr" v="99038" />
	</node>
	<node lat="59.95126944426688" lon="5.353924995916393" id="-34946">
		<tag k="name" v="Levågsvarden" />
		<tag k="natural" v="hill" />
		<tag k="place" v="locality" />
		<tag k="ssr:stedsnr" v="99041" />
	</node>
	<node lat="59.90116666935059" lon="5.220369450497364" id="-34947">
		<tag k="alt_name" v="Sildevågosen" />
		<tag k="name" v="Sildaosen" />
		<tag k="natural" v="strait" />
		<tag k="ssr:stedsnr" v="124823" />
	</node>
	<node lat="59.969627774194116" lon="5.334836102860952" id="-34948">
		<tag k="name" v="Sandvikvågen" />
		<tag k="natural" v="bay" />
		<tag k="ssr:stedsnr" v="125207" />
	</node>
	<node lat="59.96089166773284" lon="5.301541674847152" id="-34949">
		<tag k="name" v="Geitahaugen" />
		<tag k="natural" v="hill" />
		<tag k="place" v="locality" />
		<tag k="ssr:stedsnr" v="125168" />
	</node>
	<node lat="59.92317500127298" lon="5.340677785080935" id="-34950">
		<tag k="name" v="Oksabrekkhaugen" />
		<tag k="natural" v="hill" />
		<tag k="place" v="locality" />
		<tag k="ssr:stedsnr" v="125776" />
	</node>
	<node lat="59.92104166370308" lon="5.280666660128515" id="-34951">
		<tag k="name" v="Svelto" />
		<tag k="place" v="islet" />
		<tag k="ssr:stedsnr" v="125784" />
	</node>
	<node lat="59.9171163996527" lon="5.126228087567246" id="-34952">
		<tag k="name" v="Hanøy" />
		<tag k="place" v="island" />
		<tag k="ssr:stedsnr" v="125790" />
	</node>
	<node lat="59.91082939715328" lon="5.244352147392261" id="-34953">
		<tag k="name" v="Botnavatnet" />
		<tag k="natural" v="water" />
		<tag k="ssr:stedsnr" v="125873" />
	</node>
	<node lat="59.856791670708745" lon="5.40054999996317" id="-34954">
		<tag k="alt_name" v="Sætrabøfjellet;Seterbøfjellet" />
		<tag k="fixme" v="consider natural=peak for the most distinct mountains in the district" />
		<tag k="name" v="Sæterbøfjellet" />
		<tag k="natural" v="hill" />
		<tag k="place" v="locality" />
		<tag k="ssr:stedsnr" v="125910" />
	</node>
	<node lat="59.857716667471074" lon="5.291194450905152" id="-34955">
		<tag k="name" v="Koløy" />
		<tag k="place" v="island" />
		<tag k="ssr:stedsnr" v="125912" />
	</node>
	<node lat="59.87261944080997" lon="5.243638884044138" id="-34956">
		<tag k="name" v="Sætravågen" />
		<tag k="natural" v="bay" />
		<tag k="ssr:stedsnr" v="125932" />
	</node>
	<node lat="59.87991169962932" lon="5.3175598412596985" id="-34957">
		<tag k="fixme" v="consider place=hamlet" />
		<tag k="name" v="Helland" />
		<tag k="place" v="farm" />
		<tag k="ssr:stedsnr" v="125944" />
	</node>
	<node lat="59.83092724785846" lon="5.331726389137952" id="-34958">
		<tag k="name" v="Sætratjørna" />
		<tag k="natural" v="water" />
		<tag k="ssr:stedsnr" v="125984" />
	</node>
	<node lat="59.887538887364435" lon="5.224250004734466" id="-34960">
		<tag k="alt_name" v="Trangevågen" />
		<tag k="name" v="Trongevågen" />
		<tag k="natural" v="bay" />
		<tag k="ssr:stedsnr" v="146064" />
	</node>
	<node lat="59.9260138927502" lon="5.249474996630516" id="-34961">
		<tag k="name" v="Engesundet" />
		<tag k="natural" v="strait" />
		<tag k="ssr:stedsnr" v="146043" />
	</node>
	<node lat="59.9159264191739" lon="5.25709600024525" id="-34962">
		<tag k="name" v="Gassen" />
		<tag k="natural" v="cape" />
		<tag k="ssr:stedsnr" v="146044" />
	</node>
	<node lat="59.96878055780211" lon="5.359672213593997" id="-34963">
		<tag k="fixme" v="consider place=hamlet" />
		<tag k="name" v="Færøysund" />
		<tag k="place" v="village" />
		<tag k="ssr:stedsnr" v="146248" />
	</node>
	<node lat="59.91036666334617" lon="5.3801333271055265" id="-34964">
		<tag k="name" v="Ølstjørnelia" />
		<tag k="natural" v="slope" />
		<tag k="place" v="locality" />
		<tag k="ssr:stedsnr" v="158072" />
	</node>
	<node lat="59.93072777750416" lon="5.367252786556226" id="-34965">
		<tag k="name" v="Sæterbudalen" />
		<tag k="natural" v="valley" />
		<tag k="place" v="locality" />
		<tag k="ssr:stedsnr" v="158079" />
	</node>
	<node lat="59.82657454076714" lon="5.319328366414756" id="-34966">
		<tag k="name" v="Søre Skaret" />
		<tag k="place" v="farm" />
		<tag k="ssr:stedsnr" v="159073" />
	</node>
	<node lat="59.812558332159114" lon="5.331388887271233" id="-34967">
		<tag k="name" v="Jutavika" />
		<tag k="natural" v="bay" />
		<tag k="ssr:stedsnr" v="159076" />
	</node>
	<node lat="59.81858333226308" lon="5.34464723062498" id="-34968">
		<tag k="name" v="Skulaneset" />
		<tag k="natural" v="cape" />
		<tag k="ssr:stedsnr" v="159086" />
	</node>
	<node lat="59.90644021110983" lon="5.297660863032828" id="-34969">
		<tag k="name" v="Vestbøstadtjørna" />
		<tag k="natural" v="water" />
		<tag k="ssr:stedsnr" v="159088" />
	</node>
	<node lat="59.90444166704638" lon="5.304141657901908" id="-34970">
		<tag k="name" v="Arhaugen" />
		<tag k="natural" v="hill" />
		<tag k="place" v="locality" />
		<tag k="ssr:stedsnr" v="159089" />
	</node>
	<node lat="59.85504166873796" lon="5.348955557509293" id="-34971">
		<tag k="name" v="Ølvestadhaugen" />
		<tag k="natural" v="hill" />
		<tag k="place" v="locality" />
		<tag k="ssr:stedsnr" v="159434" />
	</node>
	<node lat="59.89216111345481" lon="5.214722229971325" id="-34972">
		<tag k="name" v="Vestre Vika" />
		<tag k="natural" v="bay" />
		<tag k="ssr:stedsnr" v="159538" />
	</node>
	<node lat="59.87632222441017" lon="5.213872213870336" id="-34973">
		<tag k="name" v="Store Knottholmen" />
		<tag k="place" v="islet" />
		<tag k="ssr:stedsnr" v="159541" />
	</node>
	<node lat="59.88621944156539" lon="5.268580554716952" id="-34974">
		<tag k="name" v="Hjelmatåa" />
		<tag k="place" v="island" />
		<tag k="ssr:stedsnr" v="159474" />
	</node>
	<node lat="59.928036115208755" lon="5.243966659810333" id="-34975">
		<tag k="name" v="Holkahola" />
		<tag k="natural" v="bay" />
		<tag k="ssr:stedsnr" v="159489" />
	</node>
	<node lat="59.88453610726484" lon="5.289455558820383" id="-34976">
		<tag k="name" v="Hellandstraumen" />
		<tag k="natural" v="strait" />
		<tag k="ssr:stedsnr" v="185796" />
	</node>
	<node lat="59.89156666231905" lon="5.362030548965263" id="-34977">
		<tag k="name" v="Vikesæterhaugen" />
		<tag k="natural" v="hill" />
		<tag k="place" v="locality" />
		<tag k="ssr:stedsnr" v="185818" />
	</node>
	<node lat="59.87510000190714" lon="5.410100004464442" id="-34978">
		<tag k="fixme" v="consider natural=peak for the most distinct mountains in the district" />
		<tag k="name" v="Melsåta" />
		<tag k="natural" v="hill" />
		<tag k="place" v="locality" />
		<tag k="ssr:stedsnr" v="185920" />
	</node>
	<node lat="59.881061108296436" lon="5.431275003124882" id="-34979">
		<tag k="name" v="Kongsskogvatnet" />
		<tag k="natural" v="water" />
		<tag k="ssr:stedsnr" v="185922" />
	</node>
	<node lat="59.89899166403704" lon="5.162875001914344" id="-34980">
		<tag k="name" v="Vassøy" />
		<tag k="place" v="island" />
		<tag k="ssr:stedsnr" v="185852" />
	</node>
	<node lat="59.916169447249835" lon="5.314563888211383" id="-34981">
		<tag k="name" v="Fitjar" />
		<tag k="place" v="farm" />
		<tag k="ssr:stedsnr" v="186620" />
	</node>
	<node lat="59.93658055415214" lon="5.3740222291083946" id="-34982">
		<tag k="name" v="Kyrkjevatnet" />
		<tag k="natural" v="water" />
		<tag k="ssr:stedsnr" v="186796" />
	</node>
	<node lat="59.92803889064594" lon="5.259483339588105" id="-34983">
		<tag k="name" v="Pilapollen" />
		<tag k="natural" v="bay" />
		<tag k="ssr:stedsnr" v="186801" />
	</node>
	<node lat="59.92268607711299" lon="5.475005729804668" id="-34984">
		<tag k="fixme" v="consider place=hamlet" />
		<tag k="name" v="Eide" />
		<tag k="place" v="farm" />
		<tag k="ssr:stedsnr" v="186760" />
	</node>
	<node lat="59.90888333416417" lon="5.257580563819007" id="-34985">
		<tag k="name" v="Flatholmen" />
		<tag k="place" v="islet" />
		<tag k="ssr:stedsnr" v="186872" />
	</node>
	<node lat="59.867461108306465" lon="5.384166671339573" id="-34986">
		<tag k="name" v="Grasvatnet" />
		<tag k="natural" v="water" />
		<tag k="ssr:stedsnr" v="186919" />
	</node>
	<node lat="59.93190277947126" lon="5.132366669765433" id="-34987">
		<tag k="name" v="Hetta" />
		<tag k="natural" v="shoal" />
		<tag k="place" v="locality" />
		<tag k="ssr:stedsnr" v="207062" />
	</node>
	<node lat="59.87606729676458" lon="5.286871560541912" id="-34988">
		<tag k="alt_name" v="Søre Hetlevika" />
		<tag k="name" v="Hetlevik" />
		<tag k="natural" v="bay" />
		<tag k="ssr:stedsnr" v="207181" />
	</node>
	<node lat="59.85861944892058" lon="5.256286113874249" id="-34989">
		<tag k="alt_name" v="Vabeinsvikja" />
		<tag k="name" v="Vadbeinsvik" />
		<tag k="natural" v="bay" />
		<tag k="ssr:stedsnr" v="207760" />
	</node>
	<node lat="59.90052943643114" lon="5.309623475034398" id="-34990">
		<tag k="name" v="Kjeneset" />
		<tag k="natural" v="cape" />
		<tag k="ssr:stedsnr" v="219114" />
	</node>
	<node lat="59.93012221791774" lon="5.450786109780703" id="-34991">
		<tag k="name" v="Storhaug" />
		<tag k="natural" v="hill" />
		<tag k="place" v="locality" />
		<tag k="ssr:stedsnr" v="219043" />
	</node>
	<node lat="59.92553888800391" lon="5.449563890848821" id="-34992">
		<tag k="name" v="Storkjosen" />
		<tag k="ssr:stedsnr" v="219048" />
		<tag k="waterway" v="stream" />
	</node>
	<node lat="59.92230555441351" lon="5.352694446524578" id="-34993">
		<tag k="name" v="Gråurene" />
		<tag k="natural" v="scree" />
		<tag k="ssr:stedsnr" v="220013" />
	</node>
	<node lat="59.919130551877515" lon="5.345163891151323" id="-34994">
		<tag k="name" v="Raudeberget" />
		<tag k="natural" v="hill" />
		<tag k="place" v="locality" />
		<tag k="ssr:stedsnr" v="220015" />
	</node>
	<node lat="59.91094166635363" lon="5.285566674757318" id="-34995">
		<tag k="name" v="Notaklubben" />
		<tag k="natural" v="cape" />
		<tag k="ssr:stedsnr" v="220132" />
	</node>
	<node lat="59.92963888912364" lon="5.240261103943174" id="-34996">
		<tag k="name" v="Madsagavlen" />
		<tag k="natural" v="cape" />
		<tag k="ssr:stedsnr" v="220500" />
	</node>
	<node lat="59.97048611428087" lon="5.319388890639327" id="-34997">
		<tag k="fixme" v="consider natural=peak for the most distinct mountains in the district" />
		<tag k="name" v="Tveitefjellet" />
		<tag k="natural" v="hill" />
		<tag k="place" v="locality" />
		<tag k="ssr:stedsnr" v="220040" />
	</node>
	<node lat="59.94324444317869" lon="5.36073332846381" id="-34998">
		<tag k="name" v="Beindalane" />
		<tag k="natural" v="valley" />
		<tag k="place" v="locality" />
		<tag k="ssr:stedsnr" v="220049" />
	</node>
	<node lat="59.945902774147584" lon="5.323172225258702" id="-34999">
		<tag k="name" v="Lambavika" />
		<tag k="natural" v="bay" />
		<tag k="ssr:stedsnr" v="220051" />
	</node>
	<node lat="59.877780555054834" lon="5.337758341194957" id="-35000">
		<tag k="name" v="Fureholmen" />
		<tag k="place" v="island" />
		<tag k="ssr:stedsnr" v="220435" />
	</node>
	<node lat="59.86715000062085" lon="5.309891671403133" id="-35001">
		<tag k="name" v="Høgehaugen" />
		<tag k="natural" v="hill" />
		<tag k="place" v="locality" />
		<tag k="ssr:stedsnr" v="220452" />
	</node>
	<node lat="59.937444848279654" lon="5.205466450372072" id="-35002">
		<tag k="name" v="Kråkeholmen" />
		<tag k="place" v="islet" />
		<tag k="ssr:stedsnr" v="220462" />
	</node>
	<node lat="59.884291665775066" lon="5.206649993719982" id="-35003">
		<tag k="name" v="Langevågen" />
		<tag k="natural" v="bay" />
		<tag k="ssr:stedsnr" v="220548" />
	</node>
	<node lat="59.95630833725577" lon="5.39308888235603" id="-35004">
		<tag k="name" v="Raugaberg" />
		<tag k="natural" v="hill" />
		<tag k="place" v="locality" />
		<tag k="ssr:stedsnr" v="280069" />
	</node>
	<node lat="59.952637647986634" lon="5.396820347053363" id="-35005">
		<tag k="name" v="Apalvika" />
		<tag k="natural" v="bay" />
		<tag k="ssr:stedsnr" v="280070" />
	</node>
	<node lat="59.823780559121495" lon="5.343002783892371" id="-35006">
		<tag k="name" v="Kvednabekken" />
		<tag k="ssr:stedsnr" v="280073" />
		<tag k="waterway" v="stream" />
	</node>
	<node lat="59.89811944534753" lon="5.295458332496218" id="-35007">
		<tag k="name" v="Kjerelva" />
		<tag k="ssr:stedsnr" v="280081" />
		<tag k="waterway" v="river" />
	</node>
	<node lat="59.90389166528623" lon="5.283458327115604" id="-35008">
		<tag k="name" v="Skjelfiskevika" />
		<tag k="natural" v="bay" />
		<tag k="ssr:stedsnr" v="280097" />
	</node>
	<node lat="59.927086471863674" lon="5.367608261269754" id="-35009">
		<tag k="name" v="Firatjørnane" />
		<tag k="natural" v="water" />
		<tag k="ssr:stedsnr" v="280055" />
		<tag k="water" v="lake" />
	</node>
	<node lat="59.922661114574595" lon="5.392041666168356" id="-35010">
		<tag k="fixme" v="consider natural=peak for the most distinct mountains in the district" />
		<tag k="name" v="Midtfjellsåta" />
		<tag k="natural" v="hill" />
		<tag k="place" v="locality" />
		<tag k="ssr:stedsnr" v="280056" />
	</node>
	<node lat="59.927180558282856" lon="5.392936118017414" id="-35011">
		<tag k="fixme" v="consider natural=peak for the most distinct mountains in the district" />
		<tag k="name" v="Austre-Såta" />
		<tag k="natural" v="hill" />
		<tag k="place" v="locality" />
		<tag k="ssr:stedsnr" v="280058" />
	</node>
	<node lat="59.855702779447526" lon="5.379294452104578" id="-35012">
		<tag k="alt_name" v="Seterbøsåta" />
		<tag k="fixme" v="consider natural=peak for the most distinct mountains in the district" />
		<tag k="name" v="Sæterbøsåta" />
		<tag k="natural" v="hill" />
		<tag k="place" v="locality" />
		<tag k="ssr:stedsnr" v="280063" />
	</node>
	<node lat="59.8104416696267" lon="5.348169445716452" id="-35013">
		<tag k="name" v="Trulsastraumen" />
		<tag k="natural" v="strait" />
		<tag k="ssr:stedsnr" v="280065" />
	</node>
	<node lat="59.853383333721226" lon="5.305647221019986" id="-35014">
		<tag k="name" v="Lønevågen" />
		<tag k="natural" v="bay" />
		<tag k="ssr:stedsnr" v="280367" />
	</node>
	<node lat="59.870733626500105" lon="5.349974172504188" id="-35015">
		<tag k="name" v="Jøtulbrutjørna" />
		<tag k="natural" v="water" />
		<tag k="ssr:stedsnr" v="280381" />
	</node>
	<node lat="59.85427222627009" lon="5.3412611103045" id="-35016">
		<tag k="name" v="Vahaugen" />
		<tag k="natural" v="hill" />
		<tag k="place" v="locality" />
		<tag k="ssr:stedsnr" v="280390" />
	</node>
	<node lat="59.88361111358806" lon="5.201488889261084" id="-35017">
		<tag k="name" v="Vestre Vika" />
		<tag k="natural" v="bay" />
		<tag k="ssr:stedsnr" v="280535" />
	</node>
	<node lat="59.88910833348126" lon="5.1799472279185546" id="-35018">
		<tag k="name" v="Arholmsundet" />
		<tag k="natural" v="strait" />
		<tag k="ssr:stedsnr" v="280537" />
	</node>
	<node lat="59.901344442362955" lon="5.184308334482355" id="-35019">
		<tag k="name" v="Kvernevika" />
		<tag k="natural" v="bay" />
		<tag k="ssr:stedsnr" v="280472" />
	</node>
	<node lat="59.89759069527283" lon="5.158609183023964" id="-35020">
		<tag k="name" v="Pålstova" />
		<tag k="place" v="isolated_dwelling" />
		<tag k="ssr:stedsnr" v="280476" />
	</node>
	<node lat="59.84278332928808" lon="5.3963944476428525" id="-35021">
		<tag k="name" v="Ørnakulten" />
		<tag k="place" v="locality" />
		<tag k="ssr:stedsnr" v="281001" />
	</node>
	<node lat="59.88485555403129" lon="5.369791661542549" id="-35022">
		<tag k="name" v="Vandredalsheiane" />
		<tag k="natural" v="hill" />
		<tag k="place" v="locality" />
		<tag k="ssr:stedsnr" v="281028" />
	</node>
	<node lat="59.89449444453287" lon="5.367949992428486" id="-35023">
		<tag k="name" v="Vaulane" />
		<tag k="place" v="locality" />
		<tag k="ssr:stedsnr" v="281029" />
	</node>
	<node lat="59.93731389189625" lon="5.33678055458456" id="-35024">
		<tag k="bridge" v="yes" />
		<tag k="layer" v="1" />
		<tag k="name" v="Årskog" />
		<tag k="ssr:stedsnr" v="289866" />
	</node>
	<node lat="59.96802321661933" lon="5.3241292642268165" id="-35025">
		<tag k="fixme" v="consider place=hamlet" />
		<tag k="name" v="Tveit" />
		<tag k="place" v="farm" />
		<tag k="ssr:stedsnr" v="307170" />
	</node>
	<node lat="59.95437777822578" lon="5.323794449580278" id="-35026">
		<tag k="name" v="Gloppevågen" />
		<tag k="natural" v="bay" />
		<tag k="ssr:stedsnr" v="307808" />
	</node>
	<node lat="59.92268333141437" lon="5.3622555612418195" id="-35027">
		<tag k="name" v="Fitjarsåta" />
		<tag k="natural" v="hill" />
		<tag k="place" v="locality" />
		<tag k="ssr:stedsnr" v="307764" />
	</node>
	<node lat="59.93261111053071" lon="5.431766669458698" id="-35028">
		<tag k="name" v="Hagbergselva" />
		<tag k="ssr:stedsnr" v="307777" />
		<tag k="waterway" v="stream" />
	</node>
	<node lat="59.93070277346354" lon="5.20086943744986" id="-35029">
		<tag k="alt_name" v="Stora Siglo" />
		<tag k="name" v="Siglo" />
		<tag k="place" v="island" />
		<tag k="ssr:stedsnr" v="307784" />
	</node>
	<node lat="59.93814999992299" lon="5.356205550493191" id="-35030">
		<tag k="name" v="Årskogelva" />
		<tag k="ssr:stedsnr" v="307793" />
		<tag k="waterway" v="stream" />
	</node>
	<node lat="59.91103055176921" lon="5.352363893060918" id="-35031">
		<tag k="name" v="Fitjarelva" />
		<tag k="ssr:stedsnr" v="307865" />
		<tag k="waterway" v="stream" />
	</node>
	<node lat="59.859511115073246" lon="5.3706277747775335" id="-35032">
		<tag k="fixme" v="consider natural=peak for the most distinct mountains in the district" />
		<tag k="name" v="Hovåsen" />
		<tag k="natural" v="hill" />
		<tag k="place" v="locality" />
		<tag k="ssr:stedsnr" v="307891" />
	</node>
	<node lat="59.87063089753584" lon="5.3040117266818685" id="-35033">
		<tag k="alt_name" v="Sætrabøtjørnane;Seterbøtjørnane" />
		<tag k="name" v="Sæterbøtjørnane" />
		<tag k="natural" v="water" />
		<tag k="ssr:stedsnr" v="307928" />
		<tag k="water" v="lake" />
	</node>
	<node lat="59.86824034155177" lon="5.253403325169278" id="-35034">
		<tag k="name" v="Kvernavatnet" />
		<tag k="natural" v="water" />
		<tag k="ssr:stedsnr" v="307929" />
	</node>
	<node lat="59.87501944111454" lon="5.281630556399506" id="-35035">
		<tag k="alt_name" v="Hellandsholmen, s" />
		<tag k="name" v="Søre Hellandsholmen" />
		<tag k="place" v="islet" />
		<tag k="ssr:stedsnr" v="307932" />
	</node>
	<node lat="59.886036111339635" lon="5.190663887400157" id="-35036">
		<tag k="name" v="Natterøy" />
		<tag k="place" v="island" />
		<tag k="ssr:stedsnr" v="307821" />
	</node>
	<node lat="59.88225748098116" lon="5.258148078386883" id="-35037">
		<tag k="alt_name" v="Bakkebleikjene" />
		<tag k="fixme" v="consider seamark:type=rock or natural=shoal" />
		<tag k="name" v="Bakkableikjene" />
		<tag k="place" v="islet" />
		<tag k="ssr:stedsnr" v="307825" />
	</node>
	<node lat="59.89469046934808" lon="5.400287168745441" id="-35038">
		<tag k="name" v="Botnavatnet" />
		<tag k="natural" v="water" />
		<tag k="ssr:stedsnr" v="307835" />
		<tag k="water" v="lake" />
	</node>
	<node lat="59.89299444660154" lon="5.232500003638578" id="-35039">
		<tag k="name" v="Sildavågen" />
		<tag k="natural" v="bay" />
		<tag k="ssr:stedsnr" v="307845" />
	</node>
	<node lat="59.90272417642891" lon="5.2142758050125915" id="-35040">
		<tag k="name" v="Ålforeklubben" />
		<tag k="natural" v="hill" />
		<tag k="place" v="locality" />
		<tag k="ssr:stedsnr" v="308545" />
	</node>
	<node lat="59.832493207016356" lon="5.3591267765601955" id="-35041">
		<tag k="alt_name" v="Røytetjørn;Røytetjørna" />
		<tag k="name" v="Kvernatjørna" />
		<tag k="natural" v="water" />
		<tag k="ssr:stedsnr" v="307985" />
	</node>
	<node lat="59.92399999624051" lon="5.449580562410764" id="-35042">
		<tag k="name" v="Stord" />
		<tag k="place" v="island" />
		<tag k="ssr:stedsnr" v="307988" />
	</node>
	<node lat="59.91814722408728" lon="5.242772225471683" id="-35043">
		<tag k="name" v="Skateleid" />
		<tag k="natural" v="strait" />
		<tag k="ssr:stedsnr" v="328064" />
	</node>
	<node lat="59.92627500309772" lon="5.226791665383259" id="-35044">
		<tag k="name" v="Galtestein" />
		<tag k="natural" v="shoal" />
		<tag k="place" v="locality" />
		<tag k="ssr:stedsnr" v="328069" />
	</node>
	<node lat="59.82473420147812" lon="5.3339829998374135" id="-35045">
		<tag k="name" v="Revurdtjørna" />
		<tag k="natural" v="water" />
		<tag k="ssr:stedsnr" v="341070" />
	</node>
	<node lat="59.92590555581532" lon="5.351241664050251" id="-35046">
		<tag k="fixme" v="consider natural=peak for the most distinct mountains in the district" />
		<tag k="name" v="Såtehallene" />
		<tag k="natural" v="hill" />
		<tag k="place" v="locality" />
		<tag k="ssr:stedsnr" v="341010" />
	</node>
	<node lat="59.92149722137109" lon="5.329663892942347" id="-35047">
		<tag k="leisure" v="pitch" />
		<tag k="name" v="Idrettsplass" />
		<tag k="ssr:stedsnr" v="341015" />
	</node>
	<node lat="59.94244166596466" lon="5.325091669665548" id="-35048">
		<tag k="fixme" v="consider seamark:type=rock or natural=shoal" />
		<tag k="name" v="Kobbaskjeret" />
		<tag k="place" v="islet" />
		<tag k="ssr:stedsnr" v="341026" />
	</node>
	<node lat="59.961889130365655" lon="5.319869850900728" id="-35049">
		<tag k="alt_name" v="Tuftlandsvatnet" />
		<tag k="name" v="Tuftalandsvatnet" />
		<tag k="natural" v="water" />
		<tag k="ssr:stedsnr" v="341033" />
		<tag k="water" v="lake" />
	</node>
	<node lat="59.92502222081633" lon="5.251586106618912" id="-35050">
		<tag k="name" v="Grunno" />
		<tag k="natural" v="strait" />
		<tag k="ssr:stedsnr" v="341092" />
	</node>
	<node lat="59.88200833169374" lon="5.322988886414294" id="-35051">
		<tag k="name" v="Habbastøa" />
		<tag k="natural" v="bay" />
		<tag k="ssr:stedsnr" v="341416" />
	</node>
	<node lat="59.877849996658945" lon="5.295758342199811" id="-35052">
		<tag k="name" v="Furehaugen" />
		<tag k="natural" v="hill" />
		<tag k="place" v="locality" />
		<tag k="ssr:stedsnr" v="341421" />
	</node>
	<node lat="59.879991665526376" lon="5.290013892178631" id="-35053">
		<tag k="name" v="Brattaberget" />
		<tag k="natural" v="hill" />
		<tag k="place" v="locality" />
		<tag k="ssr:stedsnr" v="341423" />
	</node>
	<node lat="59.87213333403299" lon="5.321063897026821" id="-35054">
		<tag k="name" v="Hogstepresten" />
		<tag k="place" v="locality" />
		<tag k="ssr:stedsnr" v="341440" />
	</node>
	<node lat="59.87931315564479" lon="5.242387058489571" id="-35055">
		<tag k="name" v="Midtvatnet" />
		<tag k="natural" v="water" />
		<tag k="ssr:stedsnr" v="367801" />
	</node>
	<node lat="59.901755232481534" lon="5.249814971243498" id="-35056">
		<tag k="name" v="Sætravågsvatnet" />
		<tag k="natural" v="water" />
		<tag k="ssr:stedsnr" v="367830" />
	</node>
	<node lat="59.897574995547664" lon="5.152999998305592" id="-35057">
		<tag k="alt_name" v="Sauøy" />
		<tag k="name" v="Sauholmen" />
		<tag k="place" v="islet" />
		<tag k="ssr:stedsnr" v="367845" />
	</node>
	<node lat="59.91226111354568" lon="5.318719443463441" id="-35058">
		<tag k="name" v="Rimsvarden" />
		<tag k="natural" v="hill" />
		<tag k="place" v="locality" />
		<tag k="ssr:stedsnr" v="367849" />
	</node>
	<node lat="59.933111109744885" lon="5.312502778300671" id="-35059">
		<tag k="alt_name" v="Ryssneset" />
		<tag k="name" v="Rossnes" />
		<tag k="natural" v="cape" />
		<tag k="ssr:stedsnr" v="368598" />
	</node>
	<node lat="59.94009502594611" lon="5.342441609141426" id="-35060">
		<tag k="name" v="Eskjedalen" />
		<tag k="natural" v="valley" />
		<tag k="place" v="locality" />
		<tag k="ssr:stedsnr" v="368828" />
	</node>
	<node lat="59.931875003632484" lon="5.2354277843961246" id="-35061">
		<tag k="name" v="Dyrholmen" />
		<tag k="place" v="islet" />
		<tag k="ssr:stedsnr" v="368834" />
	</node>
	<node lat="59.937558334793685" lon="5.210761113743501" id="-35062">
		<tag k="name" v="Litleholmen" />
		<tag k="place" v="islet" />
		<tag k="ssr:stedsnr" v="368836" />
	</node>
	<node lat="59.922266664165036" lon="5.444425002288566" id="-35063">
		<tag k="name" v="Tindane" />
		<tag k="natural" v="hill" />
		<tag k="place" v="locality" />
		<tag k="ssr:stedsnr" v="368799" />
	</node>
	<node lat="59.91185833224697" lon="5.115100003098996" id="-35064">
		<tag k="alt_name" v="Klammerøyholmen" />
		<tag k="name" v="Klamsholmen" />
		<tag k="place" v="islet" />
		<tag k="ssr:stedsnr" v="368804" />
	</node>
	<node lat="59.926286110785256" lon="5.323650000179011" id="-35065">
		<tag k="name" v="Storhaugen" />
		<tag k="natural" v="hill" />
		<tag k="place" v="locality" />
		<tag k="ssr:stedsnr" v="368808" />
	</node>
	<node lat="59.83870696202833" lon="5.360148876091785" id="-35066">
		<tag k="name" v="Rundehaugtjørna" />
		<tag k="natural" v="water" />
		<tag k="ssr:stedsnr" v="369000" />
	</node>
	<node lat="59.98498888982199" lon="5.311913889504171" id="-35067">
		<tag k="name" v="Nordboen" />
		<tag k="natural" v="shoal" />
		<tag k="place" v="locality" />
		<tag k="ssr:stedsnr" v="387466" />
	</node>
	<node lat="59.92161111208165" lon="5.1956277777715005" id="-35068">
		<tag k="alt_name" v="Årebrotsholmen" />
		<tag k="name" v="Årabrotholmen" />
		<tag k="place" v="islet" />
		<tag k="ssr:stedsnr" v="389059" />
	</node>
	<node lat="59.923455553306056" lon="5.479216671434486" id="-35069">
		<tag k="fixme" v="consider seamark:type=rock or natural=shoal" />
		<tag k="name" v="Eideskjeret" />
		<tag k="place" v="islet" />
		<tag k="ssr:stedsnr" v="389257" />
	</node>
	<node lat="59.97307064451891" lon="5.339453675141123" id="-35070">
		<tag k="name" v="Færøyosen" />
		<tag k="natural" v="bay" />
		<tag k="ssr:stedsnr" v="389280" />
	</node>
	<node lat="59.869152779656034" lon="5.28375832418755" id="-35071">
		<tag k="fixme" v="consider seamark:type=rock or natural=shoal" />
		<tag k="name" v="Teistbleikja" />
		<tag k="place" v="islet" />
		<tag k="ssr:stedsnr" v="389760" />
	</node>
	<node lat="59.912511111009735" lon="5.3696694420437385" id="-35072">
		<tag k="name" v="Ølstjørnehaugen" />
		<tag k="natural" v="hill" />
		<tag k="place" v="locality" />
		<tag k="ssr:stedsnr" v="401090" />
	</node>
	<node lat="59.82100995036315" lon="5.326757594992121" id="-35073">
		<tag k="name" v="Botnatjørna" />
		<tag k="natural" v="water" />
		<tag k="ssr:stedsnr" v="401097" />
	</node>
	<node lat="59.922845908085186" lon="5.265216974137956" id="-35074">
		<tag k="alt_name" v="Margretevikjo" />
		<tag k="name" v="Margretevika" />
		<tag k="natural" v="bay" />
		<tag k="ssr:stedsnr" v="401124" />
	</node>
	<node lat="59.921800001470935" lon="5.452277776414019" id="-35075">
		<tag k="name" v="Kvelve rusto" />
		<tag k="natural" v="hill" />
		<tag k="place" v="locality" />
		<tag k="ssr:stedsnr" v="401050" />
	</node>
	<node lat="59.89939166767326" lon="5.3844111101164795" id="-35076">
		<tag k="name" v="Blåbærlia" />
		<tag k="natural" v="slope" />
		<tag k="place" v="locality" />
		<tag k="ssr:stedsnr" v="401053" />
	</node>
	<node lat="59.85337000576114" lon="5.387359591497189" id="-35077">
		<tag k="name" v="Tausatjørna" />
		<tag k="natural" v="water" />
		<tag k="ssr:stedsnr" v="401071" />
	</node>
	<node lat="59.91026111303917" lon="5.287191670686257" id="-35078">
		<tag k="name" v="Lusavik" />
		<tag k="natural" v="bay" />
		<tag k="ssr:stedsnr" v="401138" />
	</node>
	<node lat="59.91389999930529" lon="5.28649721478319" id="-35079">
		<tag k="name" v="Notableikja" />
		<tag k="natural" v="cape" />
		<tag k="ssr:stedsnr" v="401140" />
	</node>
	<node lat="59.86788611488015" lon="5.268138886108317" id="-35080">
		<tag k="name" v="Britteplasset" />
		<tag k="place" v="locality" />
		<tag k="ssr:stedsnr" v="401369" />
	</node>
	<node lat="59.885641665790885" lon="5.272522223248882" id="-35081">
		<tag k="name" v="Hjelmableikjene" />
		<tag k="place" v="island" />
		<tag k="ssr:stedsnr" v="401438" />
	</node>
	<node lat="59.83429722159119" lon="5.3573111189016185" id="-35082">
		<tag k="fixme" v="consider natural=peak for the most distinct mountains in the district" />
		<tag k="name" v="Tømmerhammaren" />
		<tag k="natural" v="hill" />
		<tag k="place" v="locality" />
		<tag k="ssr:stedsnr" v="401450" />
	</node>
	<node lat="59.88608055792364" lon="5.295338884705292" id="-35083">
		<tag k="name" v="Straumhaugen" />
		<tag k="natural" v="hill" />
		<tag k="place" v="locality" />
		<tag k="ssr:stedsnr" v="401391" />
	</node>
	<node lat="59.869877777619195" lon="5.353836104458189" id="-35084">
		<tag k="name" v="Lauvhaugen" />
		<tag k="natural" v="hill" />
		<tag k="place" v="locality" />
		<tag k="ssr:stedsnr" v="401395" />
	</node>
	<node lat="59.86607500391995" lon="5.331155556868297" id="-35085">
		<tag k="historic" v="shieling" />
		<tag k="name" v="Vastølen" />
		<tag k="place" v="isolated_dwelling" />
		<tag k="ssr:stedsnr" v="401398" />
	</node>
	<node lat="59.85501758699795" lon="5.332997548168457" id="-35086">
		<tag k="name" v="Osphovdetjørna" />
		<tag k="natural" v="water" />
		<tag k="ssr:stedsnr" v="401400" />
	</node>
	<node lat="59.88753333634674" lon="5.445522214766714" id="-35087">
		<tag k="fixme" v="consider natural=peak for the most distinct mountains in the district" />
		<tag k="name" v="Steinfjellet" />
		<tag k="natural" v="hill" />
		<tag k="place" v="locality" />
		<tag k="ssr:stedsnr" v="402050" />
	</node>
	<node lat="59.94179444311865" lon="5.433899996171848" id="-35088">
		<tag k="name" v="Hagebergsvika" />
		<tag k="natural" v="bay" />
		<tag k="ssr:stedsnr" v="402021" />
	</node>
	<node lat="59.942529844702676" lon="5.272219102382951" id="-35089">
		<tag k="name" v="Storavatnet" />
		<tag k="natural" v="water" />
		<tag k="ssr:stedsnr" v="428811" />
	</node>
	<node lat="59.87613610697501" lon="5.2145777815594165" id="-35090">
		<tag k="name" v="Knottholmane" />
		<tag k="place" v="islet" />
		<tag k="ssr:stedsnr" v="428825" />
	</node>
	<node lat="59.896855558937354" lon="5.330411118814702" id="-35091">
		<tag k="name" v="Sandvika" />
		<tag k="natural" v="bay" />
		<tag k="ssr:stedsnr" v="428833" />
	</node>
	<node lat="59.89386399145594" lon="5.367120081013619" id="-35092">
		<tag k="alt_name" v="Rompetjørna" />
		<tag k="name" v="Rumpetjørna" />
		<tag k="natural" v="water" />
		<tag k="ssr:stedsnr" v="428834" />
	</node>
	<node lat="59.9386416638748" lon="5.253363885816883" id="-35093">
		<tag k="name" v="Lamholmen" />
		<tag k="place" v="islet" />
		<tag k="ssr:stedsnr" v="428797" />
	</node>
	<node lat="59.94578140239801" lon="5.410380227229834" id="-35094">
		<tag k="fixme" v="consider place=hamlet" />
		<tag k="name" v="Vistvik" />
		<tag k="place" v="farm" />
		<tag k="ssr:stedsnr" v="428804" />
	</node>
	<node lat="59.92909444212984" lon="5.2755194430701415" id="-35096">
		<tag k="name" v="Fonnosen" />
		<tag k="natural" v="strait" />
		<tag k="ssr:stedsnr" v="429778" />
	</node>
	<node lat="59.90691944157289" lon="5.249105554616836" id="-35097">
		<tag k="alt_name" v="Sætravågen, austre" />
		<tag k="name" v="Austre Sætravågen" />
		<tag k="natural" v="bay" />
		<tag k="ssr:stedsnr" v="429869" />
	</node>
	<node lat="59.8535138850082" lon="5.269077777623029" id="-35098">
		<tag k="name" v="Sandvika" />
		<tag k="natural" v="bay" />
		<tag k="ssr:stedsnr" v="429538" />
	</node>
	<node lat="59.92523388218313" lon="5.47488800542212" id="-35099">
		<tag k="alt_name" v="Naustvik" />
		<tag k="name" v="Naustvika" />
		<tag k="natural" v="bay" />
		<tag k="ssr:stedsnr" v="429540" />
	</node>
	<node lat="59.89163333037896" lon="5.172711112875028" id="-35100">
		<tag k="name" v="Sølvbelteholmen" />
		<tag k="place" v="islet" />
		<tag k="ssr:stedsnr" v="510081" />
	</node>
	<node lat="59.86651666253008" lon="5.289163892176436" id="-35101">
		<tag k="name" v="Fløbergflua" />
		<tag k="natural" v="shoal" />
		<tag k="place" v="locality" />
		<tag k="ssr:stedsnr" v="510178" />
	</node>
	<node lat="59.817366670444784" lon="5.325013897315431" id="-35102">
		<tag k="name" v="Selevik" />
		<tag k="natural" v="bay" />
		<tag k="ssr:stedsnr" v="510182" />
	</node>
	<node lat="59.85604999942573" lon="5.296336106903915" id="-35103">
		<tag k="name" v="Koløyosen" />
		<tag k="natural" v="strait" />
		<tag k="ssr:stedsnr" v="510183" />
	</node>
	<node lat="59.982124998878604" lon="5.3130222289896505" id="-35104">
		<tag k="name" v="Austrenesboene" />
		<tag k="natural" v="shoal" />
		<tag k="place" v="locality" />
		<tag k="ssr:stedsnr" v="510246" />
	</node>
	<node lat="59.92823888530829" lon="5.450661110546196" id="-35105">
		<tag k="name" v="Tverrbrekko" />
		<tag k="natural" v="hill" />
		<tag k="place" v="locality" />
		<tag k="ssr:stedsnr" v="522064" />
	</node>
	<node lat="59.8614944433435" lon="5.386316666399431" id="-35106">
		<tag k="name" v="Jørundskogen" />
		<tag k="place" v="locality" />
		<tag k="ssr:stedsnr" v="523067" />
	</node>
	<node lat="59.82748333378875" lon="5.330638887450518" id="-35107">
		<tag k="fixme" v="consider natural=peak for the most distinct mountains in the district" />
		<tag k="name" v="Stokkåsen" />
		<tag k="natural" v="hill" />
		<tag k="place" v="locality" />
		<tag k="ssr:stedsnr" v="523092" />
	</node>
	<node lat="59.971658334706184" lon="5.304036103514935" id="-35108">
		<tag k="name" v="Korsvikbøen" />
		<tag k="natural" v="cape" />
		<tag k="ssr:stedsnr" v="523036" />
	</node>
	<node lat="59.94496110861543" lon="5.424072230623444" id="-35109">
		<tag k="name" v="Brakavika" />
		<tag k="natural" v="bay" />
		<tag k="ssr:stedsnr" v="523037" />
	</node>
	<node lat="59.89117222058338" lon="5.419786118895665" id="-35110">
		<tag k="name" v="Kløvskardheiane" />
		<tag k="natural" v="hill" />
		<tag k="place" v="locality" />
		<tag k="ssr:stedsnr" v="523040" />
	</node>
	<node lat="59.94407499802622" lon="5.338386118767068" id="-35111">
		<tag k="name" v="Skukkane" />
		<tag k="place" v="locality" />
		<tag k="ssr:stedsnr" v="523042" />
	</node>
	<node lat="59.816822222760464" lon="5.346269452039792" id="-35112">
		<tag k="fixme" v="consider seamark:type=rock or natural=shoal" />
		<tag k="name" v="Lønevågskjera" />
		<tag k="place" v="islet" />
		<tag k="ssr:stedsnr" v="523100" />
	</node>
	<node lat="59.89979137661055" lon="5.24007573880683" id="-35113">
		<tag k="name" v="Nordre Straumøytåa" />
		<tag k="natural" v="cape" />
		<tag k="ssr:stedsnr" v="523475" />
	</node>
	<node lat="59.90316111393376" lon="5.224969452585143" id="-35114">
		<tag k="name" v="Skorfesteneset" />
		<tag k="natural" v="cape" />
		<tag k="ssr:stedsnr" v="523480" />
	</node>
	<node lat="59.86579444850105" lon="5.363847218886431" id="-35115">
		<tag k="name" v="Eggjane" />
		<tag k="place" v="locality" />
		<tag k="ssr:stedsnr" v="523450" />
	</node>
	<node lat="59.902780554067675" lon="5.180052773745517" id="-35116">
		<tag k="name" v="Langeholmen" />
		<tag k="place" v="islet" />
		<tag k="ssr:stedsnr" v="523541" />
	</node>
	<node lat="59.865902779355174" lon="5.304919449476106" id="-35117">
		<tag k="name" v="Russedalen" />
		<tag k="natural" v="valley" />
		<tag k="place" v="locality" />
		<tag k="ssr:stedsnr" v="523548" />
	</node>
	<node lat="59.89230555192409" lon="5.274705560454073" id="-35118">
		<tag k="name" v="Hjelmasundet" />
		<tag k="natural" v="strait" />
		<tag k="ssr:stedsnr" v="523491" />
	</node>
	<node lat="59.84253611531949" lon="5.3505027857206855" id="-35119">
		<tag k="name" v="Straumhaugen" />
		<tag k="natural" v="hill" />
		<tag k="place" v="locality" />
		<tag k="ssr:stedsnr" v="523504" />
	</node>
	<node lat="59.8437666703272" lon="5.343950001571262" id="-35120">
		<tag k="name" v="Fjordaskottet" />
		<tag k="place" v="locality" />
		<tag k="ssr:stedsnr" v="523506" />
	</node>
	<node lat="59.96175879804057" lon="5.35690090605628" id="-35121">
		<tag k="name" v="Levåg" />
		<tag k="place" v="hamlet" />
		<tag k="ssr:stedsnr" v="545850" />
	</node>
	<node lat="59.95763333647428" lon="5.35024999080745" id="-35122">
		<tag k="name" v="Svartegjoelva" />
		<tag k="ssr:stedsnr" v="549178" />
		<tag k="waterway" v="stream" />
	</node>
	<node lat="59.943375003674504" lon="5.309247221727866" id="-35123">
		<tag k="alt_name" v="Fitjarvik" />
		<tag k="name" v="Fitjarvika" />
		<tag k="natural" v="strait" />
		<tag k="ssr:stedsnr" v="549184" />
	</node>
	<node lat="59.946586162790446" lon="5.261871984436966" id="-35124">
		<tag k="name" v="Litlavatnet" />
		<tag k="natural" v="water" />
		<tag k="ssr:stedsnr" v="549797" />
	</node>
	<node lat="59.88941388611246" lon="5.413544450043471" id="-35125">
		<tag k="fixme" v="consider natural=peak for the most distinct mountains in the district" />
		<tag k="name" v="Klovskardfjellet" />
		<tag k="natural" v="hill" />
		<tag k="place" v="locality" />
		<tag k="ssr:stedsnr" v="549805" />
	</node>
	<node lat="59.92125289528965" lon="5.183346824413935" id="-35126">
		<tag k="name" v="Nyleia" />
		<tag k="natural" v="strait" />
		<tag k="ssr:stedsnr" v="549757" />
	</node>
	<node lat="59.94556944270896" lon="5.273275008460467" id="-35127">
		<tag k="name" v="Fonno" />
		<tag k="place" v="island" />
		<tag k="ssr:stedsnr" v="549796" />
	</node>
	<node lat="59.89796388452929" lon="5.185933332422828" id="-35128">
		<tag k="name" v="Bassnesvatnet" />
		<tag k="natural" v="water" />
		<tag k="ssr:stedsnr" v="549845" />
	</node>
	<node lat="59.837854223464916" lon="5.338844548171916" id="-35129">
		<tag k="name" v="Langavatnet" />
		<tag k="natural" v="water" />
		<tag k="ssr:stedsnr" v="549999" />
		<tag k="water" v="lake" />
	</node>
	<node lat="59.85920673439899" lon="5.342772893468873" id="-35130">
		<tag k="name" v="Nordretjørna" />
		<tag k="natural" v="water" />
		<tag k="ssr:stedsnr" v="549894" />
	</node>
	<node lat="59.96445556011846" lon="5.290458338560413" id="-35131">
		<tag k="alt_name" v="Kjeldholmen" />
		<tag k="name" v="Kjelholmen" />
		<tag k="place" v="islet" />
		<tag k="ssr:stedsnr" v="550169" />
	</node>
	<node lat="59.96948662862054" lon="5.360410193952671" id="-35132">
		<tag k="alt_name" v="Skaråvika" />
		<tag k="name" v="Skåravika" />
		<tag k="natural" v="bay" />
		<tag k="ssr:stedsnr" v="550189" />
	</node>
	<node lat="59.81285277628594" lon="5.338588886952598" id="-35133">
		<tag k="name" v="Brandanesbukta" />
		<tag k="natural" v="bay" />
		<tag k="ssr:stedsnr" v="550522" />
	</node>
	<node lat="59.90321111461391" lon="5.141363888411596" id="-35134">
		<tag k="alt_name" v="Skipsholmen, nordre" />
		<tag k="name" v="Nordre Skipsholmen" />
		<tag k="place" v="islet" />
		<tag k="ssr:stedsnr" v="550740" />
	</node>
	<node lat="59.91649444634176" lon="5.173349992724587" id="-35135">
		<tag k="name" v="Kyrkjesundet" />
		<tag k="natural" v="strait" />
		<tag k="ssr:stedsnr" v="550765" />
	</node>
	<node lat="59.92924283511012" lon="5.330670145146386" id="-35136">
		<tag k="alt_name" v="Breidvika;Breidvik" />
		<tag k="fixme" v="consider place=hamlet" />
		<tag k="name" v="Breivik" />
		<tag k="place" v="farm" />
		<tag k="ssr:stedsnr" v="550773" />
	</node>
	<node lat="59.913066670627586" lon="5.238491663025198" id="-35137">
		<tag k="name" v="Storhaugen" />
		<tag k="natural" v="hill" />
		<tag k="place" v="locality" />
		<tag k="ssr:stedsnr" v="550864" />
	</node>
	<node lat="59.90572590035494" lon="5.216059087017847" id="-35138">
		<tag k="name" v="Langøybleikjene" />
		<tag k="place" v="islet" />
		<tag k="ssr:stedsnr" v="550866" />
	</node>
	<node lat="59.91425833617389" lon="5.251586117816205" id="-35139">
		<tag k="name" v="Skatholmen" />
		<tag k="place" v="islet" />
		<tag k="ssr:stedsnr" v="550871" />
	</node>
	<node lat="59.89434721920405" lon="5.195369440289567" id="-35140">
		<tag k="alt_name" v="Bassnesvågen" />
		<tag k="name" v="Basnesvåg" />
		<tag k="natural" v="bay" />
		<tag k="ssr:stedsnr" v="571079" />
	</node>
	<node lat="59.83674318842153" lon="5.312509023130917" id="-35141">
		<tag k="name" v="Hermannshamn" />
		<tag k="natural" v="bay" />
		<tag k="ssr:stedsnr" v="571190" />
	</node>
	<node lat="59.93489444283944" lon="5.4173750017588045" id="-35142">
		<tag k="name" v="Dyrselevarden" />
		<tag k="natural" v="hill" />
		<tag k="place" v="locality" />
		<tag k="ssr:stedsnr" v="583064" />
	</node>
	<node lat="59.935320342013775" lon="5.4563440477572245" id="-35143">
		<tag k="name" v="Larsaklubben" />
		<tag k="natural" v="cape" />
		<tag k="ssr:stedsnr" v="583067" />
	</node>
	<node lat="59.82125822010455" lon="5.323536227294876" id="-35144">
		<tag k="name" v="Bergatjørna" />
		<tag k="natural" v="water" />
		<tag k="ssr:stedsnr" v="583080" />
	</node>
	<node lat="59.81613611272532" lon="5.335519452543382" id="-35145">
		<tag k="fixme" v="consider natural=peak for the most distinct mountains in the district" />
		<tag k="name" v="Storesvea" />
		<tag k="natural" v="hill" />
		<tag k="place" v="locality" />
		<tag k="ssr:stedsnr" v="583085" />
	</node>
	<node lat="59.81360832921741" lon="5.343041668202948" id="-35146">
		<tag k="name" v="Vågen" />
		<tag k="natural" v="bay" />
		<tag k="ssr:stedsnr" v="583088" />
	</node>
	<node lat="59.96280277955758" lon="5.290666674286076" id="-35147">
		<tag k="name" v="Kjeldholmsundet" />
		<tag k="natural" v="strait" />
		<tag k="ssr:stedsnr" v="583029" />
	</node>
	<node lat="59.89871821026009" lon="5.2335887666373715" id="-35148">
		<tag k="name" v="Eriksholmen" />
		<tag k="place" v="islet" />
		<tag k="ssr:stedsnr" v="583430" />
	</node>
	<node lat="59.90049444809781" lon="5.227894451725573" id="-35149">
		<tag k="name" v="Bleikjene" />
		<tag k="place" v="island" />
		<tag k="ssr:stedsnr" v="583431" />
	</node>
	<node lat="59.86706111451785" lon="5.289613894507905" id="-35150">
		<tag k="name" v="Fløbergvika" />
		<tag k="natural" v="bay" />
		<tag k="ssr:stedsnr" v="583372" />
	</node>
	<node lat="59.87842499845969" lon="5.337388880260153" id="-35151">
		<tag k="name" v="Stutaholmen" />
		<tag k="place" v="islet" />
		<tag k="ssr:stedsnr" v="583384" />
	</node>
	<node lat="59.948561112388916" lon="5.3328500045206875" id="-35152">
		<tag k="name" v="Håvardshaugen" />
		<tag k="natural" v="hill" />
		<tag k="place" v="locality" />
		<tag k="ssr:stedsnr" v="584027" />
	</node>
	<node lat="59.94941666764891" lon="5.34322777386182" id="-35153">
		<tag k="name" v="Slettarhaugen" />
		<tag k="natural" v="hill" />
		<tag k="place" v="locality" />
		<tag k="ssr:stedsnr" v="584037" />
	</node>
	<node lat="59.98039167027894" lon="5.317252770791346" id="-35154">
		<tag k="loc_name" v="Stokkneset" />
		<tag k="name" v="Stokksneset" />
		<tag k="natural" v="cape" />
		<tag k="ssr:stedsnr" v="610174" />
	</node>
	<node lat="59.935141662018076" lon="5.397983326141864" id="-35155">
		<tag k="alt_name" v="Husafjell" />
		<tag k="fixme" v="consider natural=peak for the most distinct mountains in the district" />
		<tag k="name" v="Husafjellet" />
		<tag k="natural" v="hill" />
		<tag k="place" v="locality" />
		<tag k="ssr:stedsnr" v="610789" />
	</node>
	<node lat="59.93107500054201" lon="5.322850007130477" id="-35156">
		<tag k="alt_name" v="Breidvik" />
		<tag k="name" v="Breidvika" />
		<tag k="natural" v="bay" />
		<tag k="ssr:stedsnr" v="610793" />
	</node>
	<node lat="59.886255709957844" lon="5.236506408714012" id="-35157">
		<tag k="name" v="Sildavågsvatnet" />
		<tag k="natural" v="water" />
		<tag k="ssr:stedsnr" v="610843" />
		<tag k="water" v="lake" />
	</node>
	<node lat="59.92490555376213" lon="5.37404443628408" id="-35158">
		<tag k="fixme" v="consider natural=peak for the most distinct mountains in the district" />
		<tag k="name" v="Midtfjellet" />
		<tag k="natural" v="hill" />
		<tag k="place" v="locality" />
		<tag k="ssr:stedsnr" v="610772" />
	</node>
	<node lat="59.90227636276905" lon="5.270041951009019" id="-35159">
		<tag k="name" v="Litla Eldøy" />
		<tag k="place" v="island" />
		<tag k="ssr:stedsnr" v="610898" />
	</node>
	<node lat="59.90982499744297" lon="5.2877027790939435" id="-35160">
		<tag k="alt_name" v="Vestbøstadvik" />
		<tag k="name" v="Vestbøstadvika" />
		<tag k="natural" v="bay" />
		<tag k="ssr:stedsnr" v="610899" />
	</node>
	<node lat="59.90471666717386" lon="5.24443332555394" id="-35161">
		<tag k="alt_name" v="Sætravågen, vestre" />
		<tag k="name" v="Vestre Sætravågen" />
		<tag k="natural" v="bay" />
		<tag k="ssr:stedsnr" v="610900" />
	</node>
	<node lat="59.84150687567134" lon="5.329123238450229" id="-35162">
		<tag k="name" v="Larstjørna" />
		<tag k="natural" v="water" />
		<tag k="ssr:stedsnr" v="611000" />
	</node>
	<node lat="59.89803730048995" lon="5.324053066619926" id="-35163">
		<tag k="fixme" v="consider place=hamlet" />
		<tag k="name" v="Nesbø" />
		<tag k="place" v="farm" />
		<tag k="ssr:stedsnr" v="610849" />
	</node>
	<node lat="59.89150000225684" lon="5.271452772466426" id="-35164">
		<tag k="name" v="Hjelmen" />
		<tag k="place" v="island" />
		<tag k="ssr:stedsnr" v="610858" />
	</node>
	<node lat="59.90237266202207" lon="5.386961979474671" id="-35165">
		<tag k="name" v="Kinnavatnet" />
		<tag k="natural" v="water" />
		<tag k="ssr:stedsnr" v="610868" />
	</node>
	<node lat="59.87075833455495" lon="5.242991671208774" id="-35166">
		<tag k="name" v="Vågsneset" />
		<tag k="natural" v="cape" />
		<tag k="ssr:stedsnr" v="610944" />
	</node>
	<node lat="59.875584251222435" lon="5.294744001711922" id="-35167">
		<tag k="name" v="Furevatnet" />
		<tag k="natural" v="water" />
		<tag k="ssr:stedsnr" v="610950" />
	</node>
	<node lat="59.95979721802235" lon="5.386955560847032" id="-35168">
		<tag k="alt_name" v="Jonsteneset" />
		<tag k="name" v="Jonstuneset" />
		<tag k="natural" v="cape" />
		<tag k="ssr:stedsnr" v="631229" />
	</node>
	<node lat="59.93797500267373" lon="5.168797221867414" id="-35169">
		<tag k="name" v="Siglerevet" />
		<tag k="natural" v="shoal" />
		<tag k="place" v="locality" />
		<tag k="ssr:stedsnr" v="631071" />
	</node>
	<node lat="59.871716669003455" lon="5.287011110806688" id="-35170">
		<tag k="alt_name" v="Skreiklubben" />
		<tag k="name" v="Skreiberg" />
		<tag k="natural" v="cape" />
		<tag k="ssr:stedsnr" v="631171" />
	</node>
	<node lat="59.94448055826624" lon="5.4210222161681445" id="-35171">
		<tag k="fixme" v="consider natural=peak for the most distinct mountains in the district" />
		<tag k="name" v="Kleivane" />
		<tag k="natural" v="hill" />
		<tag k="place" v="locality" />
		<tag k="ssr:stedsnr" v="643099" />
	</node>
	<node lat="59.94600555380475" lon="5.400827769580744" id="-35172">
		<tag k="name" v="Sotthaugen" />
		<tag k="natural" v="hill" />
		<tag k="place" v="locality" />
		<tag k="ssr:stedsnr" v="643101" />
	</node>
	<node lat="59.93189166903653" lon="5.450558338161259" id="-35173">
		<tag k="name" v="Piningen" />
		<tag k="natural" v="hill" />
		<tag k="place" v="locality" />
		<tag k="ssr:stedsnr" v="643064" />
	</node>
	<node lat="59.926077779121556" lon="5.3432611180536" id="-35174">
		<tag k="name" v="Oksabrekka" />
		<tag k="natural" v="hill" />
		<tag k="place" v="locality" />
		<tag k="ssr:stedsnr" v="644010" />
	</node>
	<node lat="59.94140833197339" lon="5.437377780482471" id="-35175">
		<tag k="name" v="Kabelsneset" />
		<tag k="natural" v="cape" />
		<tag k="ssr:stedsnr" v="644022" />
	</node>
	<node lat="59.89507500123313" lon="5.281483329396349" id="-35176">
		<tag k="name" v="Kobbehola" />
		<tag k="natural" v="bay" />
		<tag k="ssr:stedsnr" v="644102" />
	</node>
	<node lat="59.8863527743302" lon="5.3853000042897134" id="-35177">
		<tag k="name" v="Smalahaugane" />
		<tag k="natural" v="hill" />
		<tag k="place" v="locality" />
		<tag k="ssr:stedsnr" v="644034" />
	</node>
	<node lat="59.877144446863895" lon="5.4235722248053" id="-35178">
		<tag k="fixme" v="consider natural=peak for the most distinct mountains in the district" />
		<tag k="name" v="Melaheia" />
		<tag k="natural" v="hill" />
		<tag k="place" v="locality" />
		<tag k="ssr:stedsnr" v="644052" />
	</node>
	<node lat="59.91936388554282" lon="5.481680562101065" id="-35179">
		<tag k="name" v="Skifteshaugen" />
		<tag k="natural" v="hill" />
		<tag k="place" v="locality" />
		<tag k="ssr:stedsnr" v="644067" />
	</node>
	<node lat="59.88138055648205" lon="5.286730559576873" id="-35180">
		<tag k="name" v="Øskjeneset" />
		<tag k="natural" v="cape" />
		<tag k="ssr:stedsnr" v="644452" />
	</node>
	<node lat="59.8815888914092" lon="5.3444277833115885" id="-35181">
		<tag k="name" v="Dalshaugane" />
		<tag k="natural" v="hill" />
		<tag k="place" v="locality" />
		<tag k="ssr:stedsnr" v="644394" />
	</node>
	<node lat="59.87617221824944" lon="5.231622223599966" id="-35182">
		<tag k="name" v="Nordre Kuvik" />
		<tag k="natural" v="bay" />
		<tag k="ssr:stedsnr" v="644533" />
	</node>
	<node lat="59.91123333259478" lon="5.130783327405182" id="-35183">
		<tag k="name" v="Hanøyvågen" />
		<tag k="natural" v="bay" />
		<tag k="ssr:stedsnr" v="644534" />
	</node>
	<node lat="59.920149999129414" lon="5.328613882336449" id="-35184">
		<tag k="bridge" v="yes" />
		<tag k="layer" v="1" />
		<tag k="name" v="Fitjar" />
		<tag k="ssr:stedsnr" v="713854" />
	</node>
	<node lat="59.878308331654175" lon="5.34556389789217" id="-35185">
		<tag k="bridge" v="yes" />
		<tag k="layer" v="1" />
		<tag k="name" v="Tveitelva" />
		<tag k="ssr:stedsnr" v="713857" />
	</node>
	<node lat="59.9590753959805" lon="5.303632300833318" id="-35186">
		<tag k="fixme" v="consider place=hamlet" />
		<tag k="name" v="Skumsnes" />
		<tag k="place" v="farm" />
		<tag k="ssr:stedsnr" v="732194" />
	</node>
	<node lat="59.91752682408127" lon="5.363655405995041" id="-35187">
		<tag k="name" v="Skrikefosstjørna" />
		<tag k="natural" v="water" />
		<tag k="ssr:stedsnr" v="732850" />
	</node>
	<node lat="59.858095457975985" lon="5.411455013690326" id="-35188">
		<tag k="name" v="Gavlavatna" />
		<tag k="natural" v="water" />
		<tag k="ssr:stedsnr" v="732886" />
		<tag k="water" v="lake" />
	</node>
	<node lat="59.91657077832929" lon="5.337696066321123" id="-35189">
		<tag k="alt_name" v="Voll" />
		<tag k="fixme" v="consider place=hamlet" />
		<tag k="name" v="Vollen" />
		<tag k="place" v="farm" />
		<tag k="ssr:stedsnr" v="732757" />
	</node>
	<node lat="59.91991944755381" lon="5.385633339679495" id="-35190">
		<tag k="name" v="Beinatjørnvarden" />
		<tag k="natural" v="hill" />
		<tag k="place" v="locality" />
		<tag k="ssr:stedsnr" v="732759" />
	</node>
	<node lat="59.9235543670187" lon="5.247038510423986" id="-35191">
		<tag k="name" v="Engesund" />
		<tag k="place" v="island" />
		<tag k="ssr:stedsnr" v="732764" />
	</node>
	<node lat="59.91187777494975" lon="5.1821499957418675" id="-35192">
		<tag k="name" v="Breidavika" />
		<tag k="natural" v="bay" />
		<tag k="ssr:stedsnr" v="732767" />
	</node>
	<node lat="59.94108055963382" lon="5.393952781962241" id="-35193">
		<tag k="alt_name" v="Lønarås" />
		<tag k="fixme" v="consider natural=peak for the most distinct mountains in the district" />
		<tag k="name" v="Løynaråsen" />
		<tag k="natural" v="hill" />
		<tag k="place" v="locality" />
		<tag k="ssr:stedsnr" v="732790" />
	</node>
	<node lat="59.93447499652828" lon="5.267733342346678" id="-35194">
		<tag k="name" v="Rossnes" />
		<tag k="natural" v="cape" />
		<tag k="ssr:stedsnr" v="732793" />
	</node>
	<node lat="59.936200003872194" lon="5.222936110307843" id="-35195">
		<tag k="alt_name" v="Håboholmen" />
		<tag k="name" v="Håbåholmen" />
		<tag k="place" v="islet" />
		<tag k="ssr:stedsnr" v="732794" />
	</node>
	<node lat="59.892828453111655" lon="5.294129664744399" id="-35196">
		<tag k="bay" v="fjord" />
		<tag k="name" v="Hellandsfjorden" />
		<tag k="natural" v="bay" />
		<tag k="ssr:stedsnr" v="732836" />
	</node>
	<node lat="59.90461666691757" lon="5.437563889706318" id="-35197">
		<tag k="name" v="Djupatjørna" />
		<tag k="natural" v="water" />
		<tag k="ssr:stedsnr" v="732840" />
	</node>
	<node lat="59.917465311015505" lon="5.294154684961179" id="-35198">
		<tag k="name" v="Skålavik" />
		<tag k="natural" v="bay" />
		<tag k="ssr:stedsnr" v="753028" />
	</node>
	<node lat="59.89485832970621" lon="5.280186102647773" id="-35199">
		<tag k="name" v="Kobbavik" />
		<tag k="natural" v="bay" />
		<tag k="ssr:stedsnr" v="753043" />
	</node>
	<node lat="59.940677776485565" lon="5.216572221585567" id="-35200">
		<tag k="name" v="Håboen" />
		<tag k="natural" v="shoal" />
		<tag k="place" v="locality" />
		<tag k="ssr:stedsnr" v="753051" />
	</node>
	<node lat="59.92305000380056" lon="5.448858336808395" id="-35201">
		<tag k="name" v="Kvelve" />
		<tag k="place" v="locality" />
		<tag k="ssr:stedsnr" v="765060" />
	</node>
	<node lat="59.90689979318213" lon="5.2850699237492975" id="-35202">
		<tag k="name" v="Grønavik" />
		<tag k="natural" v="bay" />
		<tag k="ssr:stedsnr" v="765127" />
	</node>
	<node lat="59.876731409211786" lon="5.30298460607061" id="-35203">
		<tag k="name" v="Mehaugtjørna" />
		<tag k="natural" v="water" />
		<tag k="ssr:stedsnr" v="765374" />
	</node>
	<node lat="59.8919944410512" lon="5.258744446048369" id="-35204">
		<tag k="name" v="Sætermarketangen" />
		<tag k="natural" v="cape" />
		<tag k="ssr:stedsnr" v="765375" />
	</node>
	<node lat="59.86426666260664" lon="5.3076166606760955" id="-35205">
		<tag k="name" v="Risdalen" />
		<tag k="natural" v="valley" />
		<tag k="place" v="locality" />
		<tag k="ssr:stedsnr" v="765387" />
	</node>
	<node lat="59.83234721829663" lon="5.335330564336857" id="-35206">
		<tag k="fixme" v="consider natural=peak for the most distinct mountains in the district" />
		<tag k="name" v="Bangåsen" />
		<tag k="natural" v="hill" />
		<tag k="place" v="locality" />
		<tag k="ssr:stedsnr" v="765402" />
	</node>
	<node lat="59.92056389259878" lon="5.33134721711853" id="-35207">
		<tag k="historic" v="shieling" />
		<tag k="name" v="Fitjarstølen" />
		<tag k="place" v="isolated_dwelling" />
		<tag k="ssr:stedsnr" v="766014" />
	</node>
	<node lat="59.9410972203415" lon="5.328950008657687" id="-35208">
		<tag k="name" v="Skjervika" />
		<tag k="natural" v="bay" />
		<tag k="ssr:stedsnr" v="766021" />
	</node>
	<node lat="59.96284444682334" lon="5.346733339284535" id="-35209">
		<tag k="name" v="Levågslia" />
		<tag k="natural" v="slope" />
		<tag k="place" v="locality" />
		<tag k="ssr:stedsnr" v="766025" />
	</node>
	<node lat="59.94432221887995" lon="5.324586106856012" id="-35210">
		<tag k="name" v="Sagvika" />
		<tag k="natural" v="bay" />
		<tag k="ssr:stedsnr" v="766032" />
	</node>
	<node lat="59.936693176684926" lon="5.206811232231605" id="-35211">
		<tag k="name" v="Rumpeholmen" />
		<tag k="place" v="islet" />
		<tag k="ssr:stedsnr" v="766440" />
	</node>
	<node lat="59.92673055793448" lon="5.199130547406218" id="-35212">
		<tag k="name" v="Rumben" />
		<tag k="place" v="locality" />
		<tag k="ssr:stedsnr" v="766429" />
	</node>
	<node lat="59.92376942854612" lon="5.219931121607799" id="-35213">
		<tag k="fixme" v="consider seamark:type=rock or natural=shoal" />
		<tag k="name" v="Trehaugbleikja" />
		<tag k="place" v="islet" />
		<tag k="ssr:stedsnr" v="766431" />
	</node>
	<node lat="59.94692499903086" lon="5.325911113612386" id="-35214">
		<tag k="name" v="Landavarden" />
		<tag k="natural" v="hill" />
		<tag k="place" v="locality" />
		<tag k="ssr:stedsnr" v="792786" />
	</node>
	<node lat="59.95084828339735" lon="5.328089504432273" id="-35215">
		<tag k="alt_name" v="Lande" />
		<tag k="fixme" v="consider place=hamlet" />
		<tag k="name" v="Landa" />
		<tag k="place" v="farm" />
		<tag k="ssr:stedsnr" v="792788" />
	</node>
	<node lat="59.89793610842933" lon="5.336230548934334" id="-35216">
		<tag k="name" v="Vik" />
		<tag k="place" v="farm" />
		<tag k="ssr:stedsnr" v="792817" />
	</node>
	<node lat="59.890202520379404" lon="5.199365461448805" id="-35217">
		<tag k="name" v="Tranøy" />
		<tag k="place" v="island" />
		<tag k="ssr:stedsnr" v="792822" />
	</node>
	<node lat="59.95903178338624" lon="5.3254419646095466" id="-35218">
		<tag k="fixme" v="consider place=hamlet" />
		<tag k="name" v="Gloppo" />
		<tag k="place" v="farm" />
		<tag k="ssr:stedsnr" v="792178" />
	</node>
	<node lat="59.96005828340137" lon="5.329619056104074" id="-35219">
		<tag k="name" v="Gloppevatnet" />
		<tag k="natural" v="water" />
		<tag k="ssr:stedsnr" v="793164" />
	</node>
	<node lat="59.960845717353656" lon="5.287028452167901" id="-35220">
		<tag k="name" v="Skråmevika" />
		<tag k="natural" v="bay" />
		<tag k="ssr:stedsnr" v="793166" />
	</node>
	<node lat="59.92406111286784" lon="5.297805558265336" id="-35221">
		<tag k="fixme" v="multiple name tags, choose one and add the other to alt_name" />
		<tag k="name" v="Sørfonnatangen;Klubben" />
		<tag k="natural" v="cape" />
		<tag k="ssr:stedsnr" v="792757" />
	</node>
	<node lat="59.92011352756308" lon="5.166604058923733" id="-35222">
		<tag k="name" v="Eggøyvatnet" />
		<tag k="natural" v="water" />
		<tag k="ssr:stedsnr" v="792762" />
	</node>
	<node lat="59.92719444240607" lon="5.141149992331178" id="-35223">
		<tag k="name" v="Eggholmen" />
		<tag k="place" v="islet" />
		<tag k="ssr:stedsnr" v="792764" />
	</node>
	<node lat="59.93838888468717" lon="5.3280388944002794" id="-35224">
		<tag k="name" v="Leirpollen" />
		<tag k="natural" v="bay" />
		<tag k="ssr:stedsnr" v="792769" />
	</node>
	<node lat="59.93747837921802" lon="5.336308193691313" id="-35225">
		<tag k="fixme" v="consider place=hamlet" />
		<tag k="name" v="Årskog" />
		<tag k="place" v="farm" />
		<tag k="ssr:stedsnr" v="792770" />
	</node>
	<node lat="59.90052226398045" lon="5.176023581284177" id="-35226">
		<tag k="name" v="Trollholmen" />
		<tag k="place" v="islet" />
		<tag k="ssr:stedsnr" v="792837" />
	</node>
	<node lat="59.851627466497874" lon="5.387008494451751" id="-35227">
		<tag k="name" v="Tausavatnet" />
		<tag k="natural" v="water" />
		<tag k="ssr:stedsnr" v="792865" />
	</node>
	<node lat="59.844869444930794" lon="5.351469443045755" id="-35228">
		<tag k="alt_name" v="Vekslitjørna" />
		<tag k="name" v="Vegslitjørna" />
		<tag k="natural" v="water" />
		<tag k="ssr:stedsnr" v="792867" />
	</node>
	<node lat="59.87056730423206" lon="5.421939122720582" id="-35229">
		<tag k="alt_name" v="Sørlivatnet, inste;Øvre Sørlivatnet" />
		<tag k="name" v="Inste Sørlivatnet" />
		<tag k="natural" v="water" />
		<tag k="ssr:stedsnr" v="792900" />
		<tag k="water" v="lake" />
	</node>
	<node lat="59.977499197850406" lon="5.324986353808929" id="-35230">
		<tag k="name" v="Stokksvågen" />
		<tag k="natural" v="bay" />
		<tag k="ssr:stedsnr" v="793179" />
	</node>
	<node lat="59.91224713919435" lon="5.263209794278128" id="-35231">
		<tag k="name" v="Gassosen" />
		<tag k="natural" v="strait" />
		<tag k="ssr:stedsnr" v="793881" />
	</node>
	<node lat="59.88019722217389" lon="5.26943334214336" id="-35232">
		<tag k="name" v="Handfjellflua" />
		<tag k="natural" v="shoal" />
		<tag k="place" v="locality" />
		<tag k="ssr:stedsnr" v="814069" />
	</node>
	<node lat="59.914125003569104" lon="5.204113879559269" id="-35233">
		<tag k="name" v="Langøysundet" />
		<tag k="natural" v="strait" />
		<tag k="ssr:stedsnr" v="814073" />
	</node>
	<node lat="59.87201944438561" lon="5.221005554282219" id="-35234">
		<tag k="fixme" v="consider seamark:type=rock or natural=shoal" />
		<tag k="name" v="Knottholmbleikjene" />
		<tag k="place" v="islet" />
		<tag k="ssr:stedsnr" v="814775" />
	</node>
	<node lat="59.95313055899513" lon="5.39816389212339" id="-35235">
		<tag k="name" v="Tongane" />
		<tag k="natural" v="cape" />
		<tag k="ssr:stedsnr" v="826091" />
	</node>
	<node lat="59.896336113363944" lon="5.322958335500427" id="-35236">
		<tag k="name" v="Nesboneset" />
		<tag k="natural" v="cape" />
		<tag k="ssr:stedsnr" v="826102" />
	</node>
	<node lat="59.903663347910175" lon="5.291400486338712" id="-35237">
		<tag k="name" v="Drageidpollen" />
		<tag k="natural" v="bay" />
		<tag k="ssr:stedsnr" v="826152" />
	</node>
	<node lat="59.89019444051868" lon="5.371038893417572" id="-35238">
		<tag k="name" v="Vandredalen" />
		<tag k="natural" v="valley" />
		<tag k="place" v="locality" />
		<tag k="ssr:stedsnr" v="827034" />
	</node>
	<node lat="59.94621944683809" lon="5.343205553311097" id="-35239">
		<tag k="name" v="Kråketjørnshaugen" />
		<tag k="natural" v="hill" />
		<tag k="place" v="locality" />
		<tag k="ssr:stedsnr" v="827044" />
	</node>
	<node lat="59.83802222599136" lon="5.385236107128804" id="-35240">
		<tag k="name" v="Uvegbotn" />
		<tag k="natural" v="valley" />
		<tag k="place" v="locality" />
		<tag k="ssr:stedsnr" v="827049" />
	</node>
	<node lat="59.92310277382973" lon="5.251111103597071" id="-35241">
		<tag k="name" v="Revet" />
		<tag k="place" v="farm" />
		<tag k="ssr:stedsnr" v="827099" />
	</node>
	<node lat="59.85248333139072" lon="5.266575007733096" id="-35242">
		<tag k="name" v="Tangen" />
		<tag k="natural" v="cape" />
		<tag k="ssr:stedsnr" v="827403" />
	</node>
	<node lat="59.92521666285786" lon="5.155161117802112" id="-35243">
		<tag k="name" v="Brakasundet" />
		<tag k="natural" v="strait" />
		<tag k="ssr:stedsnr" v="827493" />
	</node>
	<node lat="59.90175833138802" lon="5.191230557672527" id="-35244">
		<tag k="name" v="Søre tåa" />
		<tag k="natural" v="bay" />
		<tag k="ssr:stedsnr" v="827497" />
	</node>
	<node lat="59.90400833031238" lon="5.2113472246035135" id="-35245">
		<tag k="name" v="Dalatangen" />
		<tag k="natural" v="cape" />
		<tag k="ssr:stedsnr" v="827502" />
	</node>
	<node lat="59.87692130097694" lon="5.282702124088013" id="-35246">
		<tag k="name" v="Hellandsholmane" />
		<tag k="place" v="islet" />
		<tag k="ssr:stedsnr" v="847579" />
	</node>
	<node lat="59.953306904712704" lon="5.390395814601144" id="-35247">
		<tag k="name" v="Engjavik" />
		<tag k="place" v="hamlet" />
		<tag k="ssr:stedsnr" v="849920" />
	</node>
	<node lat="59.95782325130284" lon="5.298963313076529" id="-35248">
		<tag k="alt_name" v="Nesvåg" />
		<tag k="name" v="Nesvågen" />
		<tag k="natural" v="bay" />
		<tag k="ssr:stedsnr" v="853140" />
	</node>
	<node lat="59.95836666662546" lon="5.267408338659681" id="-35249">
		<tag k="fixme" v="consider seamark:type=rock or natural=shoal" />
		<tag k="name" v="Håskjer" />
		<tag k="place" v="islet" />
		<tag k="ssr:stedsnr" v="853143" />
	</node>
	<node lat="59.9573916709153" lon="5.2586999931348" id="-35250">
		<tag k="alt_name" v="Fonnatangen" />
		<tag k="name" v="Nordfonnatangane" />
		<tag k="natural" v="cape" />
		<tag k="ssr:stedsnr" v="853145" />
	</node>
	<node lat="59.96435277448266" lon="5.372669451327556" id="-35251">
		<tag k="alt_name" v="Fossvik" />
		<tag k="name" v="Fossvika" />
		<tag k="natural" v="bay" />
		<tag k="ssr:stedsnr" v="853152" />
	</node>
	<node lat="59.896799998925744" lon="5.417436113745545" id="-35252">
		<tag k="name" v="Tveitaelva" />
		<tag k="ssr:stedsnr" v="853830" />
		<tag k="waterway" v="stream" />
	</node>
	<node lat="59.89405664970557" lon="5.242780939271226" id="-35253">
		<tag k="name" v="Straumøy" />
		<tag k="place" v="island" />
		<tag k="ssr:stedsnr" v="853843" />
	</node>
	<node lat="59.90380555636701" lon="5.343011113397637" id="-35254">
		<tag k="name" v="Skjeningehaugen" />
		<tag k="natural" v="hill" />
		<tag k="place" v="locality" />
		<tag k="ssr:stedsnr" v="853847" />
	</node>
	<node lat="59.920785516442514" lon="5.155633346919656" id="-35255">
		<tag k="name" v="Eggøyosen" />
		<tag k="natural" v="strait" />
		<tag k="ssr:stedsnr" v="853764" />
	</node>
	<node lat="59.939679357060854" lon="5.361501529646404" id="-35256">
		<tag k="name" v="Løkjen" />
		<tag k="natural" v="water" />
		<tag k="ssr:stedsnr" v="853773" />
	</node>
	<node lat="59.93601388861718" lon="5.260805559937197" id="-35257">
		<tag k="name" v="Teløysundet" />
		<tag k="natural" v="strait" />
		<tag k="ssr:stedsnr" v="853780" />
	</node>
	<node lat="59.944966664928245" lon="5.378788896483338" id="-35258">
		<tag k="alt_name" v="Hanfjellet" />
		<tag k="fixme" v="consider natural=peak for the most distinct mountains in the district" />
		<tag k="name" v="Handfjellet" />
		<tag k="natural" v="hill" />
		<tag k="place" v="locality" />
		<tag k="ssr:stedsnr" v="853797" />
	</node>
	<node lat="59.95093055522232" lon="5.3055555573501145" id="-35259">
		<tag k="name" v="Nesholmen" />
		<tag k="place" v="islet" />
		<tag k="ssr:stedsnr" v="853799" />
	</node>
	<node lat="59.89776111033623" lon="5.200055547244967" id="-35260">
		<tag k="name" v="Bårdholmen" />
		<tag k="place" v="islet" />
		<tag k="ssr:stedsnr" v="853862" />
	</node>
	<node lat="59.893202774089815" lon="5.163508325790853" id="-35261">
		<tag k="name" v="Tverdarøy" />
		<tag k="place" v="island" />
		<tag k="ssr:stedsnr" v="853865" />
	</node>
	<node lat="59.90882780716887" lon="5.3018254078172" id="-35262">
		<tag k="fixme" v="consider place=hamlet" />
		<tag k="name" v="Vestbøstad" />
		<tag k="place" v="farm" />
		<tag k="ssr:stedsnr" v="853869" />
	</node>
	<node lat="59.90879307148943" lon="5.419535079174556" id="-35263">
		<tag k="name" v="Mosavatnet" />
		<tag k="natural" v="water" />
		<tag k="ssr:stedsnr" v="853871" />
		<tag k="water" v="lake" />
	</node>
	<node lat="59.91009798330137" lon="5.27676207417673" id="-35264">
		<tag k="name" v="Stora Eldøy" />
		<tag k="place" v="island" />
		<tag k="ssr:stedsnr" v="853874" />
	</node>
	<node lat="59.85322500256407" lon="5.324500004030284" id="-35265">
		<tag k="fixme" v="consider natural=peak for the most distinct mountains in the district" />
		<tag k="name" v="Surefjellet" />
		<tag k="natural" v="hill" />
		<tag k="place" v="locality" />
		<tag k="ssr:stedsnr" v="853889" />
	</node>
	<node lat="59.84813888603462" lon="5.357183335461768" id="-35266">
		<tag k="alt_name" v="Vekslinuten" />
		<tag k="fixme" v="consider natural=peak for the most distinct mountains in the district" />
		<tag k="name" v="Vegslinuten" />
		<tag k="natural" v="hill" />
		<tag k="place" v="locality" />
		<tag k="ssr:stedsnr" v="853892" />
	</node>
	<node lat="59.848466664802054" lon="5.308750005397082" id="-35267">
		<tag k="name" v="Storevik" />
		<tag k="natural" v="bay" />
		<tag k="ssr:stedsnr" v="853897" />
	</node>
	<node lat="59.96924547883008" lon="5.328137196332616" id="-35268">
		<tag k="name" v="Tveitevågen" />
		<tag k="natural" v="bay" />
		<tag k="ssr:stedsnr" v="854163" />
	</node>
	<node lat="59.97640000176091" lon="5.31405000219476" id="-35269">
		<tag k="alt_name" v="Bøvik" />
		<tag k="name" v="Bøvika" />
		<tag k="natural" v="bay" />
		<tag k="ssr:stedsnr" v="854165" />
	</node>
	<node lat="59.92445555986324" lon="5.461988882111058" id="-35270">
		<tag k="name" v="Nuken" />
		<tag k="natural" v="hill" />
		<tag k="place" v="locality" />
		<tag k="ssr:stedsnr" v="854735" />
	</node>
	<node lat="59.93408824057835" lon="5.453473982232662" id="-35271">
		<tag k="name" v="Raunholm" />
		<tag k="place" v="hamlet" />
		<tag k="ssr:stedsnr" v="854760" />
	</node>
	<node lat="59.93190555137044" lon="5.356138892598741" id="-35272">
		<tag k="name" v="Lomatjørna" />
		<tag k="natural" v="water" />
		<tag k="ssr:stedsnr" v="854763" />
	</node>
	<node lat="59.90956944669434" lon="5.265575006849655" id="-35273">
		<tag k="name" v="Gloppholmen" />
		<tag k="place" v="islet" />
		<tag k="ssr:stedsnr" v="854873" />
	</node>
	<node lat="59.9190176575961" lon="5.305148478282319" id="-35274">
		<tag k="alt_name" v="Hegreneset" />
		<tag k="name" v="Hegraneset" />
		<tag k="natural" v="cape" />
		<tag k="ssr:stedsnr" v="874054" />
	</node>
	<node lat="59.939730559647295" lon="5.3115749936983345" id="-35275">
		<tag k="fixme" v="consider seamark:type=rock or natural=shoal" />
		<tag k="name" v="Gråmulen" />
		<tag k="place" v="islet" />
		<tag k="ssr:stedsnr" v="874251" />
	</node>
	<node lat="59.88090555789323" lon="5.261700001374572" id="-35276">
		<tag k="alt_name" v="Bakkeflua" />
		<tag k="name" v="Bakkaflua" />
		<tag k="natural" v="shoal" />
		<tag k="place" v="locality" />
		<tag k="ssr:stedsnr" v="875070" />
	</node>
	<node lat="59.89269166221312" lon="5.239694439002746" id="-35277">
		<tag k="alt_name" v="Vestre Straumøysundet" />
		<tag k="name" v="Vestra Straumøysundet" />
		<tag k="natural" v="strait" />
		<tag k="ssr:stedsnr" v="875079" />
	</node>
	<node lat="59.93930000232351" lon="5.195838890232749" id="-35278">
		<tag k="name" v="Lindarboen" />
		<tag k="natural" v="shoal" />
		<tag k="place" v="locality" />
		<tag k="ssr:stedsnr" v="875088" />
	</node>
	<node lat="59.89918333057796" lon="5.193761103595297" id="-35279">
		<tag k="name" v="Bårdholmesundet" />
		<tag k="natural" v="strait" />
		<tag k="ssr:stedsnr" v="875099" />
	</node>
	<node lat="59.8892777816644" lon="5.1925499998218205" id="-35280">
		<tag k="alt_name" v="Nattarøysundet" />
		<tag k="name" v="Natterøysundet" />
		<tag k="natural" v="strait" />
		<tag k="ssr:stedsnr" v="875100" />
	</node>
	<node lat="59.91576666596032" lon="5.316994446572933" id="-35281">
		<tag k="name" v="Prestbø" />
		<tag k="place" v="farm" />
		<tag k="ssr:stedsnr" v="875248" />
	</node>
	<node lat="59.88584444394136" lon="5.328547226841186" id="-35282">
		<tag k="name" v="Tveitaholmen" />
		<tag k="place" v="island" />
		<tag k="ssr:stedsnr" v="887390" />
	</node>
	<node lat="59.87111666777682" lon="5.239816662696075" id="-35283">
		<tag k="name" v="Sætravågsneset" />
		<tag k="natural" v="cape" />
		<tag k="ssr:stedsnr" v="887469" />
	</node>
	<node lat="59.928869448181175" lon="5.188522216415035" id="-35284">
		<tag k="fixme" v="consider seamark:type=rock or natural=shoal" />
		<tag k="name" v="Søre Sigleskjeret" />
		<tag k="place" v="islet" />
		<tag k="ssr:stedsnr" v="887476" />
	</node>
	<node lat="59.90455555625335" lon="5.177058328494197" id="-35285">
		<tag k="name" v="Gulebleikjene" />
		<tag k="place" v="island" />
		<tag k="ssr:stedsnr" v="887480" />
	</node>
	<node lat="59.913252778438164" lon="5.167513889988798" id="-35286">
		<tag k="name" v="Nordre Vågen" />
		<tag k="natural" v="bay" />
		<tag k="ssr:stedsnr" v="887482" />
	</node>
	<node lat="59.92922319314385" lon="5.2253352568816" id="-35287">
		<tag k="name" v="Ivarsøyosen" />
		<tag k="natural" v="strait" />
		<tag k="ssr:stedsnr" v="887487" />
	</node>
	<node lat="59.89795277524862" lon="5.157738892412484" id="-35288">
		<tag k="name" v="Skutevika" />
		<tag k="natural" v="bay" />
		<tag k="ssr:stedsnr" v="887492" />
	</node>
	<node lat="59.89600000080893" lon="5.164777776508223" id="-35289">
		<tag k="name" v="Pålsstoveholmen" />
		<tag k="place" v="island" />
		<tag k="ssr:stedsnr" v="887493" />
	</node>
	<node lat="59.8755694411749" lon="5.314166665112687" id="-35290">
		<tag k="name" v="Vargadalen" />
		<tag k="natural" v="valley" />
		<tag k="place" v="locality" />
		<tag k="ssr:stedsnr" v="887524" />
	</node>
	<node lat="59.890349995653736" lon="5.168161110930949" id="-35291">
		<tag k="name" v="Maurlaukevika" />
		<tag k="natural" v="bay" />
		<tag k="ssr:stedsnr" v="887527" />
	</node>
	<node lat="59.94135494876371" lon="5.268371154161944" id="-35292">
		<tag k="name" v="Stemmetjørna" />
		<tag k="natural" v="water" />
		<tag k="ssr:stedsnr" v="887027" />
	</node>
	<node lat="59.95975982760535" lon="5.286751318726031" id="-35293">
		<tag k="name" v="Vartonjen" />
		<tag k="natural" v="cape" />
		<tag k="ssr:stedsnr" v="887038" />
	</node>
	<node lat="59.921369445638476" lon="5.406908338803192" id="-35294">
		<tag k="name" v="Kvernvasslia" />
		<tag k="natural" v="slope" />
		<tag k="place" v="locality" />
		<tag k="ssr:stedsnr" v="887072" />
	</node>
	<node lat="59.9525668806484" lon="5.389677631653487" id="-35295">
		<tag k="fixme" v="multiple name tags, choose one and add the other to alt_name; consider place=hamlet" />
		<tag k="name" v="Midtre Engjavik;Tunet" />
		<tag k="place" v="farm" />
		<tag k="ssr:stedsnr" v="887079" />
	</node>
	<node lat="59.81844444196301" lon="5.3245611030195" id="-35296">
		<tag k="name" v="Selevik" />
		<tag k="place" v="farm" />
		<tag k="ssr:stedsnr" v="887092" />
	</node>
	<node lat="59.94591388747147" lon="5.337916668624284" id="-35297">
		<tag k="name" v="Tjukkadalen" />
		<tag k="natural" v="valley" />
		<tag k="place" v="locality" />
		<tag k="ssr:stedsnr" v="887043" />
	</node>
	<node lat="59.85481388511022" lon="5.264788897264461" id="-35298">
		<tag k="name" v="Steindalen" />
		<tag k="natural" v="valley" />
		<tag k="place" v="locality" />
		<tag k="ssr:stedsnr" v="887413" />
	</node>
	<node lat="59.83750488451294" lon="5.343085942519416" id="-35299">
		<tag k="name" v="Straumhaugtjørn" />
		<tag k="natural" v="water" />
		<tag k="ssr:stedsnr" v="887420" />
	</node>
	<node lat="59.85750277555218" lon="5.253677773464996" id="-35300">
		<tag k="name" v="Krabbavikflua" />
		<tag k="natural" v="shoal" />
		<tag k="place" v="locality" />
		<tag k="ssr:stedsnr" v="935762" />
	</node>
	<node lat="59.85178055664654" lon="5.273744439009171" id="-35301">
		<tag k="name" v="Tangableikja" />
		<tag k="place" v="islet" />
		<tag k="ssr:stedsnr" v="935764" />
	</node>
	<node lat="59.88158055969067" lon="5.373500005315823" id="-35302">
		<tag k="name" v="Russedalen" />
		<tag k="natural" v="valley" />
		<tag k="place" v="locality" />
		<tag k="ssr:stedsnr" v="948051" />
	</node>
	<node lat="59.897413891953335" lon="5.342730562175586" id="-35303">
		<tag k="name" v="Hundsryggen" />
		<tag k="natural" v="ridge" />
		<tag k="place" v="locality" />
		<tag k="ssr:stedsnr" v="948117" />
	</node>
	<node lat="59.8548666681227" lon="5.359736105038245" id="-35304">
		<tag k="name" v="Bratteli" />
		<tag k="natural" v="slope" />
		<tag k="place" v="locality" />
		<tag k="ssr:stedsnr" v="948125" />
	</node>
	<node lat="59.83329999617794" lon="5.344099999183109" id="-35305">
		<tag k="fixme" v="consider natural=peak for the most distinct mountains in the district" />
		<tag k="name" v="Skutesmågsåsane" />
		<tag k="natural" v="hill" />
		<tag k="place" v="locality" />
		<tag k="ssr:stedsnr" v="948452" />
	</node>
	<node lat="59.904666667560214" lon="5.22309166546916" id="-35306">
		<tag k="name" v="Raunepollen" />
		<tag k="natural" v="bay" />
		<tag k="ssr:stedsnr" v="948468" />
	</node>
	<node lat="59.910805559641986" lon="5.217627775764993" id="-35307">
		<tag k="name" v="Avløypeskjeret" />
		<tag k="place" v="island" />
		<tag k="ssr:stedsnr" v="948472" />
	</node>
	<node lat="59.90610000105401" lon="5.138161110206974" id="-35308">
		<tag k="alt_name" v="Urdøya, l" />
		<tag k="name" v="Litla Urdøyna" />
		<tag k="place" v="islet" />
		<tag k="ssr:stedsnr" v="968778" />
	</node>
	<node lat="59.89670751726392" lon="5.155311085162903" id="-35309">
		<tag k="alt_name" v="Sauøysundet" />
		<tag k="name" v="Sauholmsundet" />
		<tag k="natural" v="strait" />
		<tag k="ssr:stedsnr" v="981723" />
	</node>
	<node lat="59.917575415468114" lon="5.235468436231645" id="-35310">
		<tag k="fixme" v="consider place=hamlet" />
		<tag k="name" v="Ivarsøy" />
		<tag k="place" v="farm" />
		<tag k="ssr:stedsnr" v="989927" />
	</node>
	<node lat="59.90856491146799" lon="5.20785097435237" id="-35311">
		<tag k="fixme" v="consider place=hamlet" />
		<tag k="name" v="Langøy" />
		<tag k="place" v="farm" />
		<tag k="ssr:stedsnr" v="989928" />
	</node>
	<node lat="59.92856259138132" lon="5.215149640840245" id="-35312">
		<tag k="fixme" v="consider place=hamlet" />
		<tag k="name" v="Bukkholmen" />
		<tag k="place" v="farm" />
		<tag k="ssr:stedsnr" v="989930" />
	</node>
	<node lat="59.927329031228936" lon="5.2038030078417075" id="-35313">
		<tag k="fixme" v="consider place=hamlet" />
		<tag k="name" v="Siglo" />
		<tag k="place" v="farm" />
		<tag k="ssr:stedsnr" v="989931" />
	</node>
	<node lat="59.911582200282105" lon="5.1725975502414725" id="-35314">
		<tag k="fixme" v="consider place=hamlet" />
		<tag k="name" v="Torsdagsøy" />
		<tag k="place" v="farm" />
		<tag k="ssr:stedsnr" v="989932" />
	</node>
	<node lat="59.92255607872762" lon="5.161653072491723" id="-35315">
		<tag k="fixme" v="multiple name tags, choose one and add the other to alt_name; consider place=hamlet" />
		<tag k="name" v="Eggøy;Austre Eggøy" />
		<tag k="place" v="farm" />
		<tag k="ssr:stedsnr" v="989940" />
	</node>
	<node lat="59.91254707144622" lon="5.129482567516266" id="-35316">
		<tag k="fixme" v="consider place=hamlet" />
		<tag k="name" v="Hanøy" />
		<tag k="place" v="farm" />
		<tag k="ssr:stedsnr" v="989941" />
	</node>
	<node lat="59.89679429056947" lon="5.158286011443364" id="-35317">
		<tag k="fixme" v="consider place=hamlet" />
		<tag k="name" v="Tverdarvik" />
		<tag k="place" v="farm" />
		<tag k="ssr:stedsnr" v="989942" />
	</node>
	<node lat="59.8886782130652" lon="5.185309347896806" id="-35318">
		<tag k="fixme" v="consider place=hamlet" />
		<tag k="name" v="Natterøy" />
		<tag k="place" v="farm" />
		<tag k="ssr:stedsnr" v="989943" />
	</node>
	<node lat="59.88897930218029" lon="5.207271189065779" id="-35319">
		<tag k="fixme" v="consider place=hamlet" />
		<tag k="name" v="Tranøy" />
		<tag k="place" v="farm" />
		<tag k="ssr:stedsnr" v="989946" />
	</node>
	<node lat="59.89657792414201" lon="5.241455614532541" id="-35320">
		<tag k="fixme" v="consider place=hamlet" />
		<tag k="name" v="Straumøy" />
		<tag k="place" v="farm" />
		<tag k="ssr:stedsnr" v="989948" />
	</node>
	<node lat="59.88799122529278" lon="5.2718907906926695" id="-35321">
		<tag k="fixme" v="consider place=hamlet" />
		<tag k="name" v="Hjelmen" />
		<tag k="place" v="farm" />
		<tag k="ssr:stedsnr" v="989949" />
	</node>
	<node lat="59.91658116692375" lon="5.305956847890642" id="-35322">
		<tag k="fixme" v="consider place=hamlet" />
		<tag k="name" v="Skålavik" />
		<tag k="place" v="farm" />
		<tag k="ssr:stedsnr" v="989950" />
	</node>
	<node lat="59.921615171022765" lon="5.322134422570249" id="-35323">
		<tag k="fixme" v="consider place=hamlet" />
		<tag k="name" v="Hamnen" />
		<tag k="place" v="farm" />
		<tag k="ssr:stedsnr" v="989951" />
	</node>
	<node lat="59.91710284649498" lon="5.319211990460344" id="-35324">
		<tag k="amenity" v="place_of_worship" />
		<tag k="denomination" v="lutheran" />
		<tag k="name" v="Fitjar kyrkje" />
		<tag k="religion" v="christian" />
		<tag k="ssr:stedsnr" v="990957" />
	</node>
	<node lat="59.91401103710822" lon="5.260959177776837" id="-35327">
		<tag k="name" v="Gassatåa" />
		<tag k="natural" v="cape" />
		<tag k="ssr:stedsnr" v="1076693" />
	</node>
	<node lat="59.92598481726726" lon="5.4740175768111206" id="-35328">
		<tag k="name" v="Eidesbakken" />
		<tag k="place" v="farm" />
		<tag k="ssr:stedsnr" v="1077014" />
	</node>
	<node lat="59.88671161108992" lon="5.2150547783278824" id="-35329">
		<tag k="name" v="Ringholmen" />
		<tag k="place" v="islet" />
		<tag k="ssr:stedsnr" v="1078441" />
	</node>
	<node lat="59.96751014767523" lon="5.367253888266021" id="-35330">
		<tag k="name" v="Søra Skåravika" />
		<tag k="natural" v="bay" />
		<tag k="ssr:stedsnr" v="1078443" />
	</node>
	<node lat="59.9166032652729" lon="5.151589366591711" id="-35331">
		<tag k="fixme" v="multiple name tags, choose one and add the other to alt_name; consider place=hamlet" />
		<tag k="name" v="Eidøy;Vestre Eggøy" />
		<tag k="place" v="farm" />
		<tag k="ssr:stedsnr" v="1078156" />
	</node>
	<node lat="59.874870857226874" lon="5.327167243201679" id="-35333">
		<tag k="fixme" v="multiple name tags, choose one and add the other to alt_name" />
		<tag k="name" v="Haugen;Hogste" />
		<tag k="place" v="farm" />
		<tag k="ssr:stedsnr" v="1078171" />
	</node>
	<node lat="59.936353023130934" lon="5.282418973109414" id="-35334">
		<tag k="name" v="Hiljestø" />
		<tag k="old_name" v="Magnusbu" />
		<tag k="place" v="farm" />
		<tag k="ssr:stedsnr" v="1080697" />
	</node>
</osm>
