<?xml version="1.0" encoding="UTF-8"?>
<osm version="0.6" generator="osmapis">
	<node lat="59.96283068475441" lon="5.315128330542855" id="-34452">
		<tag k="name" v="Tuftaland" />
		<tag k="place" v="hamlet" />
		<tag k="ssr:stedsnr" v="4164" />
	</node>
	<node lat="59.882656843825835" lon="5.25264487526476" id="-34454">
		<tag k="alt_name" v="Sætravika" />
		<tag k="fixme" v="consider place=hamlet" />
		<tag k="name" v="Sætravik" />
		<tag k="place" v="farm" />
		<tag k="ssr:stedsnr" v="4554" />
	</node>
	<node lat="59.93564525559036" lon="5.447992086362979" id="-34458">
		<tag k="fixme" v="consider place=hamlet" />
		<tag k="name" v="Nordre Raunholm" />
		<tag k="place" v="farm" />
		<tag k="ssr:stedsnr" v="37077" />
	</node>
	<node lat="59.957022688375176" lon="5.313006852100852" id="-34467">
		<tag k="alt_name" v="Litlenes" />
		<tag k="fixme" v="consider place=hamlet" />
		<tag k="name" v="Litlanes" />
		<tag k="place" v="farm" />
		<tag k="ssr:stedsnr" v="64157" />
	</node>
	<node lat="59.966575095558156" lon="5.331180575931931" id="-34475">
		<tag k="alt_name" v="Sandvika" />
		<tag k="fixme" v="consider place=hamlet" />
		<tag k="name" v="Sandvik" />
		<tag k="place" v="farm" />
		<tag k="ssr:stedsnr" v="65187" />
	</node>
	<node lat="59.912119810019554" lon="5.328395534712406" id="-34481">
		<tag k="fixme" v="consider place=hamlet" />
		<tag k="name" v="Rimbareid" />
		<tag k="place" v="farm" />
		<tag k="ssr:stedsnr" v="246846" />
	</node>
	<node lat="59.95136566118591" lon="5.394635926992397" id="-34486">
		<tag k="fixme" v="multiple name tags, choose one and add the other to alt_name; consider place=hamlet" />
		<tag k="name" v="Søre Engjavik;Sørgard" />
		<tag k="place" v="farm" />
		<tag k="ssr:stedsnr" v="98072" />
	</node>
	<node lat="59.944522221425714" lon="5.410927769833811" id="-34488">
		<tag k="historic" v="shieling" />
		<tag k="name" v="Grønestølen" />
		<tag k="place" v="isolated_dwelling" />
		<tag k="ssr:stedsnr" v="98077" />
	</node>
	<node lat="59.863684542992864" lon="5.358528931713208" id="-34505">
		<tag k="fixme" v="consider place=hamlet" />
		<tag k="name" v="Liarbø" />
		<tag k="place" v="farm" />
		<tag k="ssr:stedsnr" v="125909" />
	</node>
	<node lat="59.89082139578137" lon="5.220114184003196" id="-34518">
		<tag k="alt_name" v="Hatlevika;Haslevika" />
		<tag k="fixme" v="consider place=hamlet" />
		<tag k="name" v="Hatlevik" />
		<tag k="place" v="farm" />
		<tag k="ssr:stedsnr" v="185832" />
	</node>
	<node lat="59.959877005439125" lon="5.35919070649622" id="-34519">
		<tag k="alt_name" v="Levåg, øvre" />
		<tag k="fixme" v="consider place=hamlet" />
		<tag k="name" v="Øvre Levåg" />
		<tag k="place" v="farm" />
		<tag k="ssr:stedsnr" v="186181" />
	</node>
	<node lat="59.942895579424125" lon="5.427169089231559" id="-34521">
		<tag k="alt_name" v="Hagberg" />
		<tag k="fixme" v="consider place=hamlet" />
		<tag k="name" v="Hageberg" />
		<tag k="place" v="farm" />
		<tag k="ssr:stedsnr" v="186808" />
	</node>
	<node lat="59.94683055450606" lon="5.4021833290138055" id="-34529">
		<tag k="name" v="Hagen" />
		<tag k="place" v="farm" />
		<tag k="ssr:stedsnr" v="207247" />
	</node>
	<node lat="59.915369444683535" lon="5.314013885739968" id="-34537">
		<tag k="fixme" v="consider place=hamlet" />
		<tag k="name" v="Prestbø" />
		<tag k="place" v="farm" />
		<tag k="ssr:stedsnr" v="220114" />
	</node>
	<node lat="59.90794167024965" lon="5.310175000869525" id="-34538">
		<tag k="name" v="Vestbøstad" />
		<tag k="place" v="farm" />
		<tag k="ssr:stedsnr" v="220115" />
	</node>
	<node lat="59.81806944310071" lon="5.338625002553947" id="-34554">
		<tag k="name" v="Skomyra" />
		<tag k="place" v="farm" />
		<tag k="ssr:stedsnr" v="247517" />
	</node>
	<node lat="59.92429166662843" lon="5.318769446429132" id="-34556">
		<tag k="name" v="Træ" />
		<tag k="place" v="farm" />
		<tag k="ssr:stedsnr" v="268230" />
	</node>
	<node lat="59.92281110923239" lon="5.324986106442796" id="-34557">
		<tag k="name" v="Bakken" />
		<tag k="place" v="farm" />
		<tag k="ssr:stedsnr" v="268231" />
	</node>
	<node lat="59.95991944461419" lon="5.379591673044703" id="-34558">
		<tag k="name" v="Kuleskotet" />
		<tag k="place" v="farm" />
		<tag k="ssr:stedsnr" v="280066" />
	</node>
	<node lat="59.924772220451636" lon="5.3278583337186785" id="-34560">
		<tag k="leisure" v="pitch" />
		<tag k="name" v="Idrettsbane" />
		<tag k="ssr:stedsnr" v="280504" />
	</node>
	<node lat="59.956912265538364" lon="5.296190692901074" id="-34561">
		<tag k="name" v="Nestræ" />
		<tag k="place" v="locality" />
		<tag k="ssr:stedsnr" v="281013" />
	</node>
	<node lat="59.86665278137429" lon="5.301030563850907" id="-34576">
		<tag k="name" v="Sætre" />
		<tag k="place" v="farm" />
		<tag k="ssr:stedsnr" v="462399" />
	</node>
	<node lat="59.8434555516319" lon="5.336427775290914" id="-34577">
		<tag k="historic" v="shieling" />
		<tag k="name" v="Tislevollseter" />
		<tag k="place" v="isolated_dwelling" />
		<tag k="ssr:stedsnr" v="462403" />
	</node>
	<node lat="59.976364170164224" lon="5.319307162598481" id="-34580">
		<tag k="fixme" v="consider place=hamlet" />
		<tag k="name" v="Stokken" />
		<tag k="place" v="farm" />
		<tag k="ssr:stedsnr" v="307188" />
	</node>
	<node lat="59.95566388729557" lon="5.3871333331429385" id="-34581">
		<tag k="fixme" v="consider place=hamlet" />
		<tag k="name" v="Nordre Engjavik" />
		<tag k="place" v="farm" />
		<tag k="ssr:stedsnr" v="307195" />
	</node>
	<node lat="59.93731591567908" lon="5.2894478075841835" id="-34582">
		<tag k="fixme" v="consider place=hamlet" />
		<tag k="name" v="Sørfonno" />
		<tag k="place" v="farm" />
		<tag k="ssr:stedsnr" v="307799" />
	</node>
	<node lat="59.8907333349427" lon="5.334477779231382" id="-34610">
		<tag k="name" v="Tveitatræ" />
		<tag k="place" v="farm" />
		<tag k="ssr:stedsnr" v="401384" />
	</node>
	<node lat="59.94500116048768" lon="5.4041955340765755" id="-34630">
		<tag k="fixme" v="consider place=hamlet" />
		<tag k="name" v="Hovland" />
		<tag k="place" v="farm" />
		<tag k="ssr:stedsnr" v="428775" />
	</node>
	<node lat="59.95173704232238" lon="5.276829442873815" id="-34641">
		<tag k="fixme" v="consider place=hamlet" />
		<tag k="name" v="Nordfonno" />
		<tag k="place" v="farm" />
		<tag k="ssr:stedsnr" v="671176" />
	</node>
	<node lat="59.962328556575486" lon="5.35540625098846" id="-34642">
		<tag k="alt_name" v="Levåg, nedre;Levåg" />
		<tag k="fixme" v="consider place=hamlet" />
		<tag k="name" v="Nedre Levåg" />
		<tag k="place" v="farm" />
		<tag k="ssr:stedsnr" v="671184" />
	</node>
	<node lat="59.82139444849505" lon="5.320941661477439" id="-34653">
		<tag k="name" v="Selevikberget" />
		<tag k="place" v="farm" />
		<tag k="ssr:stedsnr" v="671968" />
	</node>
	<node lat="59.864011605215914" lon="5.269981520540052" id="-34671">
		<tag k="alt_name" v="Hamn" />
		<tag k="fixme" v="consider place=hamlet" />
		<tag k="name" v="Fattigmannshamn" />
		<tag k="place" v="farm" />
		<tag k="ssr:stedsnr" v="489915" />
	</node>
	<node lat="59.87339892300057" lon="5.347060404424" id="-34672">
		<tag k="fixme" v="consider place=hamlet" />
		<tag k="name" v="Årbø" />
		<tag k="place" v="farm" />
		<tag k="ssr:stedsnr" v="489925" />
	</node>
	<node lat="59.86234302895428" lon="5.344605762404467" id="-34676">
		<tag k="fixme" v="consider place=hamlet" />
		<tag k="name" v="Rødland" />
		<tag k="place" v="farm" />
		<tag k="ssr:stedsnr" v="489890" />
	</node>
	<node lat="59.9155722180718" lon="5.339233326762334" id="-34685">
		<tag k="historic" v="shieling" />
		<tag k="name" v="Volden" />
		<tag k="place" v="isolated_dwelling" />
		<tag k="ssr:stedsnr" v="523116" />
	</node>
	<node lat="59.876838203152936" lon="5.23654472997989" id="-34694">
		<tag k="alt_name" v="Kuvika" />
		<tag k="fixme" v="consider place=hamlet" />
		<tag k="name" v="Kuvik" />
		<tag k="place" v="farm" />
		<tag k="ssr:stedsnr" v="549923" />
	</node>
	<node lat="59.858538649279275" lon="5.370852840402209" id="-34696">
		<tag k="fixme" v="consider place=hamlet" />
		<tag k="name" v="Sæterbø" />
		<tag k="place" v="farm" />
		<tag k="ssr:stedsnr" v="549900" />
	</node>
	<node lat="59.91995555128426" lon="5.321288894110494" id="-34699">
		<tag k="name" v="Fitjar" />
		<tag k="place" v="farm" />
		<tag k="ssr:stedsnr" v="550759" />
	</node>
	<node lat="59.85981511921149" lon="5.273703021515651" id="-34703">
		<tag k="fixme" v="consider place=hamlet" />
		<tag k="name" v="Tangen" />
		<tag k="place" v="farm" />
		<tag k="ssr:stedsnr" v="571747" />
	</node>
	<node lat="59.9160583341707" lon="5.3299083382646915" id="-34705">
		<tag k="fixme" v="consider place=hamlet" />
		<tag k="name" v="Fitjar" />
		<tag k="place" v="farm" />
		<tag k="ssr:stedsnr" v="583109" />
	</node>
	<node lat="59.901227777068485" lon="5.339272223067634" id="-34710">
		<tag k="name" v="Søldreid" />
		<tag k="place" v="farm" />
		<tag k="ssr:stedsnr" v="583101" />
	</node>
	<node lat="59.917069447523424" lon="5.311705549396899" id="-34717">
		<tag k="name" v="Prestbø" />
		<tag k="place" v="farm" />
		<tag k="ssr:stedsnr" v="584009" />
	</node>
	<node lat="59.9132999990665" lon="5.404883338387646" id="-34736">
		<tag k="historic" v="shieling" />
		<tag k="name" v="Rimbareidsætre" />
		<tag k="place" v="isolated_dwelling" />
		<tag k="ssr:stedsnr" v="705072" />
	</node>
	<node lat="59.93288375857365" lon="5.456920067222012" id="-34745">
		<tag k="fixme" v="consider place=hamlet" />
		<tag k="name" v="Søre Raunholm" />
		<tag k="place" v="farm" />
		<tag k="ssr:stedsnr" v="643082" />
	</node>
	<node lat="59.90975277749983" lon="5.306452769602836" id="-34748">
		<tag k="name" v="Dalen" />
		<tag k="place" v="farm" />
		<tag k="ssr:stedsnr" v="644082" />
	</node>
	<node lat="59.899655551504544" lon="5.335661104393425" id="-34749">
		<tag k="fixme" v="consider place=hamlet" />
		<tag k="name" v="Vik" />
		<tag k="place" v="farm" />
		<tag k="ssr:stedsnr" v="644086" />
	</node>
	<node lat="59.885094135896686" lon="5.337199372958409" id="-34761">
		<tag k="fixme" v="consider place=hamlet" />
		<tag k="name" v="Tveita" />
		<tag k="place" v="farm" />
		<tag k="ssr:stedsnr" v="671813" />
	</node>
	<node lat="59.952399999231055" lon="5.324086103010858" id="-34769">
		<tag k="name" v="Gangstø" />
		<tag k="place" v="farm" />
		<tag k="ssr:stedsnr" v="705027" />
	</node>
	<node lat="59.908838888951614" lon="5.325561118375295" id="-34774">
		<tag k="name" v="Tangen" />
		<tag k="place" v="farm" />
		<tag k="ssr:stedsnr" v="731854" />
	</node>
	<node lat="59.9501527756191" lon="5.394041671364701" id="-34775">
		<tag k="name" v="Sørgard" />
		<tag k="place" v="farm" />
		<tag k="ssr:stedsnr" v="732806" />
	</node>
	<node lat="59.86545280898421" lon="5.336626271345313" id="-34776">
		<tag k="fixme" v="consider place=hamlet" />
		<tag k="name" v="Tislavoll" />
		<tag k="place" v="farm" />
		<tag k="ssr:stedsnr" v="732913" />
	</node>
	<node lat="59.865827777238884" lon="5.29545554807035" id="-34777">
		<tag k="name" v="Korsvik" />
		<tag k="place" v="farm" />
		<tag k="ssr:stedsnr" v="732920" />
	</node>
	<node lat="59.85347347765014" lon="5.310033206779529" id="-34778">
		<tag k="alt_name" v="Storevika" />
		<tag k="fixme" v="consider place=hamlet" />
		<tag k="name" v="Storavik" />
		<tag k="place" v="farm" />
		<tag k="ssr:stedsnr" v="732893" />
	</node>
	<node lat="59.91529444175857" lon="5.293205548537578" id="-34792">
		<tag k="name" v="Kalveid" />
		<tag k="place" v="farm" />
		<tag k="ssr:stedsnr" v="766464" />
	</node>
	<node lat="59.91803333171934" lon="5.316741670425321" id="-34802">
		<tag k="name" v="Fitjar" />
		<tag k="place" v="village" />
		<tag k="ssr:stedsnr" v="793786" />
	</node>
	<node lat="59.81439653097755" lon="5.345447870480707" id="-34805">
		<tag k="fixme" v="consider place=hamlet" />
		<tag k="name" v="Stokken" />
		<tag k="place" v="farm" />
		<tag k="ssr:stedsnr" v="914560" />
	</node>
	<node lat="59.89697574320664" lon="5.214017342663828" id="-34817">
		<tag k="fixme" v="consider place=hamlet" />
		<tag k="name" v="Dalen" />
		<tag k="place" v="farm" />
		<tag k="ssr:stedsnr" v="914841" />
	</node>
	<node lat="59.9517083320237" lon="5.359213884505703" id="-34845">
		<tag k="historic" v="shieling" />
		<tag k="name" v="Levågsætre" />
		<tag k="place" v="isolated_dwelling" />
		<tag k="ssr:stedsnr" v="887050" />
	</node>
	<node lat="59.86277500019136" lon="5.302772213619158" id="-34850">
		<tag k="alt_name" v="Nymark" />
		<tag k="name" v="Koløystø" />
		<tag k="place" v="farm" />
		<tag k="ssr:stedsnr" v="935174" />
	</node>
	<node lat="59.82371110696932" lon="5.321047216063083" id="-34851">
		<tag k="name" v="Jordnåo" />
		<tag k="place" v="farm" />
		<tag k="ssr:stedsnr" v="935177" />
	</node>
	<node lat="59.90923421229587" lon="5.265981551536679" id="-34883">
		<tag k="fixme" v="consider place=hamlet" />
		<tag k="name" v="Gloppholmen" />
		<tag k="place" v="farm" />
		<tag k="ssr:stedsnr" v="989923" />
	</node>
	<node lat="59.91985781872417" lon="5.252908082082582" id="-34884">
		<tag k="alt_name" v="Vestre Engesund" />
		<tag k="fixme" v="consider place=hamlet" />
		<tag k="name" v="Engesund" />
		<tag k="place" v="farm" />
		<tag k="ssr:stedsnr" v="989926" />
	</node>
	<node lat="59.94738611466533" lon="5.4022666646606226" id="-34903">
		<tag k="name" v="Hovlandshagen" />
		<tag k="place" v="farm" />
		<tag k="ssr:stedsnr" v="37095" />
	</node>
	<node lat="59.848200001817396" lon="5.323872221436302" id="-34905">
		<tag k="name" v="Hogstesetret" />
		<tag k="place" v="locality" />
		<tag k="ssr:stedsnr" v="37432" />
	</node>
	<node lat="59.82721134976676" lon="5.319332420735143" id="-34921">
		<tag k="name" v="Skardet" />
		<tag k="place" v="farm" />
		<tag k="ssr:stedsnr" v="64982" />
	</node>
	<node lat="59.836402777404004" lon="5.31525000423462" id="-34922">
		<tag k="name" v="Hermannsplass" />
		<tag k="place" v="farm" />
		<tag k="ssr:stedsnr" v="65000" />
	</node>
	<node lat="59.87350999935415" lon="5.328795049797721" id="-34925">
		<tag k="fixme" v="consider place=hamlet" />
		<tag k="name" v="Hogste" />
		<tag k="place" v="farm" />
		<tag k="ssr:stedsnr" v="64949" />
	</node>
	<node lat="59.90655555605535" lon="5.30963333503177" id="-34932">
		<tag k="name" v="Torland" />
		<tag k="place" v="farm" />
		<tag k="ssr:stedsnr" v="98102" />
	</node>
	<node lat="59.938997217803355" lon="5.33541666265464" id="-34941">
		<tag k="historic" v="shieling" />
		<tag k="name" v="Årskog" />
		<tag k="place" v="isolated_dwelling" />
		<tag k="ssr:stedsnr" v="99027" />
	</node>
	<node lat="59.87991169962932" lon="5.3175598412596985" id="-34957">
		<tag k="fixme" v="consider place=hamlet" />
		<tag k="name" v="Helland" />
		<tag k="place" v="farm" />
		<tag k="ssr:stedsnr" v="125944" />
	</node>
	<node lat="59.96878055780211" lon="5.359672213593997" id="-34963">
		<tag k="fixme" v="consider place=hamlet" />
		<tag k="name" v="Færøysund" />
		<tag k="place" v="village" />
		<tag k="ssr:stedsnr" v="146248" />
	</node>
	<node lat="59.82657454076714" lon="5.319328366414756" id="-34966">
		<tag k="name" v="Søre Skaret" />
		<tag k="place" v="farm" />
		<tag k="ssr:stedsnr" v="159073" />
	</node>
	<node lat="59.916169447249835" lon="5.314563888211383" id="-34981">
		<tag k="name" v="Fitjar" />
		<tag k="place" v="farm" />
		<tag k="ssr:stedsnr" v="186620" />
	</node>
	<node lat="59.92268607711299" lon="5.475005729804668" id="-34984">
		<tag k="fixme" v="consider place=hamlet" />
		<tag k="name" v="Eide" />
		<tag k="place" v="farm" />
		<tag k="ssr:stedsnr" v="186760" />
	</node>
	<node lat="59.89759069527283" lon="5.158609183023964" id="-35020">
		<tag k="name" v="Pålstova" />
		<tag k="place" v="isolated_dwelling" />
		<tag k="ssr:stedsnr" v="280476" />
	</node>
	<node lat="59.96802321661933" lon="5.3241292642268165" id="-35025">
		<tag k="fixme" v="consider place=hamlet" />
		<tag k="name" v="Tveit" />
		<tag k="place" v="farm" />
		<tag k="ssr:stedsnr" v="307170" />
	</node>
	<node lat="59.92149722137109" lon="5.329663892942347" id="-35047">
		<tag k="leisure" v="pitch" />
		<tag k="name" v="Idrettsplass" />
		<tag k="ssr:stedsnr" v="341015" />
	</node>
	<node lat="59.86607500391995" lon="5.331155556868297" id="-35085">
		<tag k="historic" v="shieling" />
		<tag k="name" v="Vastølen" />
		<tag k="place" v="isolated_dwelling" />
		<tag k="ssr:stedsnr" v="401398" />
	</node>
	<node lat="59.94578140239801" lon="5.410380227229834" id="-35094">
		<tag k="fixme" v="consider place=hamlet" />
		<tag k="name" v="Vistvik" />
		<tag k="place" v="farm" />
		<tag k="ssr:stedsnr" v="428804" />
	</node>
	<node lat="59.96175879804057" lon="5.35690090605628" id="-35121">
		<tag k="name" v="Levåg" />
		<tag k="place" v="hamlet" />
		<tag k="ssr:stedsnr" v="545850" />
	</node>
	<node lat="59.92924283511012" lon="5.330670145146386" id="-35136">
		<tag k="alt_name" v="Breidvika;Breidvik" />
		<tag k="fixme" v="consider place=hamlet" />
		<tag k="name" v="Breivik" />
		<tag k="place" v="farm" />
		<tag k="ssr:stedsnr" v="550773" />
	</node>
	<node lat="59.89803730048995" lon="5.324053066619926" id="-35163">
		<tag k="fixme" v="consider place=hamlet" />
		<tag k="name" v="Nesbø" />
		<tag k="place" v="farm" />
		<tag k="ssr:stedsnr" v="610849" />
	</node>
	<node lat="59.9590753959805" lon="5.303632300833318" id="-35186">
		<tag k="fixme" v="consider place=hamlet" />
		<tag k="name" v="Skumsnes" />
		<tag k="place" v="farm" />
		<tag k="ssr:stedsnr" v="732194" />
	</node>
	<node lat="59.91657077832929" lon="5.337696066321123" id="-35189">
		<tag k="alt_name" v="Voll" />
		<tag k="fixme" v="consider place=hamlet" />
		<tag k="name" v="Vollen" />
		<tag k="place" v="farm" />
		<tag k="ssr:stedsnr" v="732757" />
	</node>
	<node lat="59.92056389259878" lon="5.33134721711853" id="-35207">
		<tag k="historic" v="shieling" />
		<tag k="name" v="Fitjarstølen" />
		<tag k="place" v="isolated_dwelling" />
		<tag k="ssr:stedsnr" v="766014" />
	</node>
	<node lat="59.95084828339735" lon="5.328089504432273" id="-35215">
		<tag k="alt_name" v="Lande" />
		<tag k="fixme" v="consider place=hamlet" />
		<tag k="name" v="Landa" />
		<tag k="place" v="farm" />
		<tag k="ssr:stedsnr" v="792788" />
	</node>
	<node lat="59.89793610842933" lon="5.336230548934334" id="-35216">
		<tag k="name" v="Vik" />
		<tag k="place" v="farm" />
		<tag k="ssr:stedsnr" v="792817" />
	</node>
	<node lat="59.95903178338624" lon="5.3254419646095466" id="-35218">
		<tag k="fixme" v="consider place=hamlet" />
		<tag k="name" v="Gloppo" />
		<tag k="place" v="farm" />
		<tag k="ssr:stedsnr" v="792178" />
	</node>
	<node lat="59.93747837921802" lon="5.336308193691313" id="-35225">
		<tag k="fixme" v="consider place=hamlet" />
		<tag k="name" v="Årskog" />
		<tag k="place" v="farm" />
		<tag k="ssr:stedsnr" v="792770" />
	</node>
	<node lat="59.92310277382973" lon="5.251111103597071" id="-35241">
		<tag k="name" v="Revet" />
		<tag k="place" v="farm" />
		<tag k="ssr:stedsnr" v="827099" />
	</node>
	<node lat="59.953306904712704" lon="5.390395814601144" id="-35247">
		<tag k="name" v="Engjavik" />
		<tag k="place" v="hamlet" />
		<tag k="ssr:stedsnr" v="849920" />
	</node>
	<node lat="59.90882780716887" lon="5.3018254078172" id="-35262">
		<tag k="fixme" v="consider place=hamlet" />
		<tag k="name" v="Vestbøstad" />
		<tag k="place" v="farm" />
		<tag k="ssr:stedsnr" v="853869" />
	</node>
	<node lat="59.93408824057835" lon="5.453473982232662" id="-35271">
		<tag k="name" v="Raunholm" />
		<tag k="place" v="hamlet" />
		<tag k="ssr:stedsnr" v="854760" />
	</node>
	<node lat="59.91576666596032" lon="5.316994446572933" id="-35281">
		<tag k="name" v="Prestbø" />
		<tag k="place" v="farm" />
		<tag k="ssr:stedsnr" v="875248" />
	</node>
	<node lat="59.9525668806484" lon="5.389677631653487" id="-35295">
		<tag k="fixme" v="multiple name tags, choose one and add the other to alt_name; consider place=hamlet" />
		<tag k="name" v="Midtre Engjavik;Tunet" />
		<tag k="place" v="farm" />
		<tag k="ssr:stedsnr" v="887079" />
	</node>
	<node lat="59.81844444196301" lon="5.3245611030195" id="-35296">
		<tag k="name" v="Selevik" />
		<tag k="place" v="farm" />
		<tag k="ssr:stedsnr" v="887092" />
	</node>
	<node lat="59.917575415468114" lon="5.235468436231645" id="-35310">
		<tag k="fixme" v="consider place=hamlet" />
		<tag k="name" v="Ivarsøy" />
		<tag k="place" v="farm" />
		<tag k="ssr:stedsnr" v="989927" />
	</node>
	<node lat="59.90856491146799" lon="5.20785097435237" id="-35311">
		<tag k="fixme" v="consider place=hamlet" />
		<tag k="name" v="Langøy" />
		<tag k="place" v="farm" />
		<tag k="ssr:stedsnr" v="989928" />
	</node>
	<node lat="59.92856259138132" lon="5.215149640840245" id="-35312">
		<tag k="fixme" v="consider place=hamlet" />
		<tag k="name" v="Bukkholmen" />
		<tag k="place" v="farm" />
		<tag k="ssr:stedsnr" v="989930" />
	</node>
	<node lat="59.927329031228936" lon="5.2038030078417075" id="-35313">
		<tag k="fixme" v="consider place=hamlet" />
		<tag k="name" v="Siglo" />
		<tag k="place" v="farm" />
		<tag k="ssr:stedsnr" v="989931" />
	</node>
	<node lat="59.911582200282105" lon="5.1725975502414725" id="-35314">
		<tag k="fixme" v="consider place=hamlet" />
		<tag k="name" v="Torsdagsøy" />
		<tag k="place" v="farm" />
		<tag k="ssr:stedsnr" v="989932" />
	</node>
	<node lat="59.92255607872762" lon="5.161653072491723" id="-35315">
		<tag k="fixme" v="multiple name tags, choose one and add the other to alt_name; consider place=hamlet" />
		<tag k="name" v="Eggøy;Austre Eggøy" />
		<tag k="place" v="farm" />
		<tag k="ssr:stedsnr" v="989940" />
	</node>
	<node lat="59.91254707144622" lon="5.129482567516266" id="-35316">
		<tag k="fixme" v="consider place=hamlet" />
		<tag k="name" v="Hanøy" />
		<tag k="place" v="farm" />
		<tag k="ssr:stedsnr" v="989941" />
	</node>
	<node lat="59.89679429056947" lon="5.158286011443364" id="-35317">
		<tag k="fixme" v="consider place=hamlet" />
		<tag k="name" v="Tverdarvik" />
		<tag k="place" v="farm" />
		<tag k="ssr:stedsnr" v="989942" />
	</node>
	<node lat="59.8886782130652" lon="5.185309347896806" id="-35318">
		<tag k="fixme" v="consider place=hamlet" />
		<tag k="name" v="Natterøy" />
		<tag k="place" v="farm" />
		<tag k="ssr:stedsnr" v="989943" />
	</node>
	<node lat="59.88897930218029" lon="5.207271189065779" id="-35319">
		<tag k="fixme" v="consider place=hamlet" />
		<tag k="name" v="Tranøy" />
		<tag k="place" v="farm" />
		<tag k="ssr:stedsnr" v="989946" />
	</node>
	<node lat="59.89657792414201" lon="5.241455614532541" id="-35320">
		<tag k="fixme" v="consider place=hamlet" />
		<tag k="name" v="Straumøy" />
		<tag k="place" v="farm" />
		<tag k="ssr:stedsnr" v="989948" />
	</node>
	<node lat="59.88799122529278" lon="5.2718907906926695" id="-35321">
		<tag k="fixme" v="consider place=hamlet" />
		<tag k="name" v="Hjelmen" />
		<tag k="place" v="farm" />
		<tag k="ssr:stedsnr" v="989949" />
	</node>
	<node lat="59.91658116692375" lon="5.305956847890642" id="-35322">
		<tag k="fixme" v="consider place=hamlet" />
		<tag k="name" v="Skålavik" />
		<tag k="place" v="farm" />
		<tag k="ssr:stedsnr" v="989950" />
	</node>
	<node lat="59.921615171022765" lon="5.322134422570249" id="-35323">
		<tag k="fixme" v="consider place=hamlet" />
		<tag k="name" v="Hamnen" />
		<tag k="place" v="farm" />
		<tag k="ssr:stedsnr" v="989951" />
	</node>
	<node lat="59.92598481726726" lon="5.4740175768111206" id="-35328">
		<tag k="name" v="Eidesbakken" />
		<tag k="place" v="farm" />
		<tag k="ssr:stedsnr" v="1077014" />
	</node>
	<node lat="59.9166032652729" lon="5.151589366591711" id="-35331">
		<tag k="fixme" v="multiple name tags, choose one and add the other to alt_name; consider place=hamlet" />
		<tag k="name" v="Eidøy;Vestre Eggøy" />
		<tag k="place" v="farm" />
		<tag k="ssr:stedsnr" v="1078156" />
	</node>
	<node lat="59.874870857226874" lon="5.327167243201679" id="-35333">
		<tag k="fixme" v="multiple name tags, choose one and add the other to alt_name" />
		<tag k="name" v="Haugen;Hogste" />
		<tag k="place" v="farm" />
		<tag k="ssr:stedsnr" v="1078171" />
	</node>
	<node lat="59.936353023130934" lon="5.282418973109414" id="-35334">
		<tag k="name" v="Hiljestø" />
		<tag k="old_name" v="Magnusbu" />
		<tag k="place" v="farm" />
		<tag k="ssr:stedsnr" v="1080697" />
	</node>
</osm>
