<?xml version="1.0" encoding="UTF-8"?>
<osm version="0.6" generator="osmapis">
	<node lat="59.90149722614986" lon="5.369841661326892" id="-66824">
		<tag k="name" v="Djupedalen" />
		<tag k="natural" v="valley" />
		<tag k="place" v="locality" />
		<tag k="ssr:stedsnr" v="37065" />
	</node>
	<node lat="59.85220833004932" lon="5.344588886188975" id="-66826">
		<tag k="name" v="Valbergshaugen" />
		<tag k="natural" v="hill" />
		<tag k="place" v="locality" />
		<tag k="ssr:stedsnr" v="37406" />
	</node>
	<node lat="59.85789722064552" lon="5.341005559647961" id="-66827">
		<tag k="name" v="Vassneshaugen" />
		<tag k="natural" v="hill" />
		<tag k="place" v="locality" />
		<tag k="ssr:stedsnr" v="37412" />
	</node>
	<node lat="59.847272223396224" lon="5.336702772454821" id="-66828">
		<tag k="name" v="Grøndalen" />
		<tag k="natural" v="valley" />
		<tag k="place" v="locality" />
		<tag k="ssr:stedsnr" v="37419" />
	</node>
	<node lat="59.851544448179176" lon="5.40715833922196" id="-66832">
		<tag k="alt_name" v="Seterbølia" />
		<tag k="name" v="Sæterbølia" />
		<tag k="natural" v="slope" />
		<tag k="place" v="locality" />
		<tag k="ssr:stedsnr" v="38003" />
	</node>
	<node lat="59.889350002228035" lon="5.417130562385168" id="-66837">
		<tag k="alt_name" v="Kløvskardet" />
		<tag k="name" v="Klovskard" />
		<tag k="natural" v="valley" />
		<tag k="place" v="locality" />
		<tag k="ssr:stedsnr" v="64825" />
	</node>
	<node lat="59.87131111159054" lon="5.407311119898848" id="-66854">
		<tag k="name" v="Melshallene" />
		<tag k="place" v="locality" />
		<tag k="ssr:stedsnr" v="98075" />
	</node>
	<node lat="59.89719166269441" lon="5.3399861163046864" id="-66856">
		<tag k="name" v="Orrhaugen" />
		<tag k="natural" v="hill" />
		<tag k="place" v="locality" />
		<tag k="ssr:stedsnr" v="98109" />
	</node>
	<node lat="59.88553333604883" lon="5.35030833089055" id="-66862">
		<tag k="name" v="Tveitabrekkene" />
		<tag k="natural" v="slope" />
		<tag k="place" v="locality" />
		<tag k="ssr:stedsnr" v="98377" />
	</node>
	<node lat="59.852225004329355" lon="5.3546694473374155" id="-66874">
		<tag k="name" v="Livdalen" />
		<tag k="natural" v="valley" />
		<tag k="place" v="locality" />
		<tag k="ssr:stedsnr" v="159109" />
	</node>
	<node lat="59.886680550949514" lon="5.363430549969557" id="-66876">
		<tag k="name" v="Tveitastorhaugen" />
		<tag k="natural" v="hill" />
		<tag k="place" v="locality" />
		<tag k="ssr:stedsnr" v="159413" />
	</node>
	<node lat="59.85855832977655" lon="5.35514443731002" id="-66882">
		<tag k="name" v="Risdalen" />
		<tag k="natural" v="valley" />
		<tag k="place" v="locality" />
		<tag k="ssr:stedsnr" v="159521" />
	</node>
	<node lat="59.961091667598694" lon="5.3812138919111865" id="-66894">
		<tag k="name" v="Skotadalen" />
		<tag k="natural" v="valley" />
		<tag k="place" v="locality" />
		<tag k="ssr:stedsnr" v="268258" />
	</node>
	<node lat="59.909047222739574" lon="5.373402777991545" id="-66900">
		<tag k="name" v="Blekje" />
		<tag k="place" v="locality" />
		<tag k="ssr:stedsnr" v="219078" />
	</node>
	<node lat="59.90761944432794" lon="5.288430559691687" id="-66903">
		<tag k="name" v="Synhaugane" />
		<tag k="natural" v="hill" />
		<tag k="place" v="locality" />
		<tag k="ssr:stedsnr" v="220113" />
	</node>
	<node lat="59.87674721778441" lon="5.395777771425074" id="-66909">
		<tag k="name" v="Beinadalen" />
		<tag k="natural" v="valley" />
		<tag k="place" v="locality" />
		<tag k="ssr:stedsnr" v="220291" />
	</node>
	<node lat="59.84161666924603" lon="5.359619443619121" id="-66912">
		<tag k="name" v="Tømmerskarhaugen" />
		<tag k="natural" v="hill" />
		<tag k="place" v="locality" />
		<tag k="ssr:stedsnr" v="220487" />
	</node>
	<node lat="59.84888888621412" lon="5.338363883789147" id="-66913">
		<tag k="name" v="Vandalidalen" />
		<tag k="natural" v="valley" />
		<tag k="place" v="locality" />
		<tag k="ssr:stedsnr" v="220489" />
	</node>
	<node lat="59.888208333326105" lon="5.357227776259393" id="-66918">
		<tag k="fixme" v="consider natural=peak for the most distinct mountains in the district" />
		<tag k="name" v="Tveitafjellet" />
		<tag k="natural" v="hill" />
		<tag k="place" v="locality" />
		<tag k="ssr:stedsnr" v="246792" />
	</node>
	<node lat="59.87468611040013" lon="5.3029083287667325" id="-66919">
		<tag k="name" v="Mehaugen" />
		<tag k="natural" v="hill" />
		<tag k="place" v="locality" />
		<tag k="ssr:stedsnr" v="246925" />
	</node>
	<node lat="59.931138891406" lon="5.40559167404934" id="-66930">
		<tag k="name" v="Hovlandsdalen" />
		<tag k="natural" v="valley" />
		<tag k="place" v="locality" />
		<tag k="ssr:stedsnr" v="462047" />
	</node>
	<node lat="59.91513055895374" lon="5.359280564123804" id="-66932">
		<tag k="name" v="Skukkane" />
		<tag k="place" v="locality" />
		<tag k="ssr:stedsnr" v="462102" />
	</node>
	<node lat="59.9294694403974" lon="5.195141665379864" id="-66936">
		<tag k="name" v="Tistledalen" />
		<tag k="natural" v="valley" />
		<tag k="place" v="locality" />
		<tag k="ssr:stedsnr" v="462436" />
	</node>
	<node lat="59.85630277401382" lon="5.333402780635424" id="-66940">
		<tag k="name" v="Osphovda" />
		<tag k="place" v="locality" />
		<tag k="ssr:stedsnr" v="462389" />
	</node>
	<node lat="59.87061111071282" lon="5.312133326874584" id="-66942">
		<tag k="name" v="Hellandspresten" />
		<tag k="place" v="locality" />
		<tag k="ssr:stedsnr" v="462397" />
	</node>
	<node lat="59.89757222581154" lon="5.385002772289186" id="-66951">
		<tag k="fixme" v="consider natural=peak for the most distinct mountains in the district" />
		<tag k="name" v="Litla Kinno" />
		<tag k="natural" v="hill" />
		<tag k="place" v="locality" />
		<tag k="ssr:stedsnr" v="340059" />
	</node>
	<node lat="59.8559305530742" lon="5.306536111730379" id="-66953">
		<tag k="name" v="Ørnehaug" />
		<tag k="natural" v="hill" />
		<tag k="place" v="locality" />
		<tag k="ssr:stedsnr" v="341443" />
	</node>
	<node lat="59.8381388883455" lon="5.343961105949388" id="-66954">
		<tag k="name" v="Straumhaugen" />
		<tag k="natural" v="hill" />
		<tag k="place" v="locality" />
		<tag k="ssr:stedsnr" v="341444" />
	</node>
	<node lat="59.84645277884163" lon="5.326033341561538" id="-66955">
		<tag k="alt_name" v="Svartasmåget" />
		<tag k="name" v="Svartasmoget" />
		<tag k="place" v="locality" />
		<tag k="ssr:stedsnr" v="341446" />
	</node>
	<node lat="59.94905833396268" lon="5.350349999706591" id="-66960">
		<tag k="fixme" v="consider natural=peak for the most distinct mountains in the district" />
		<tag k="name" v="Landasåtene" />
		<tag k="natural" v="hill" />
		<tag k="place" v="locality" />
		<tag k="ssr:stedsnr" v="367783" />
	</node>
	<node lat="59.90051111397906" lon="5.403938883222988" id="-66961">
		<tag k="fixme" v="consider natural=peak for the most distinct mountains in the district" />
		<tag k="name" v="Kinno" />
		<tag k="natural" v="hill" />
		<tag k="place" v="locality" />
		<tag k="ssr:stedsnr" v="367810" />
	</node>
	<node lat="59.844049999883694" lon="5.32170832781244" id="-66962">
		<tag k="fixme" v="consider natural=peak for the most distinct mountains in the district" />
		<tag k="name" v="Vardafjellet" />
		<tag k="natural" v="hill" />
		<tag k="place" v="locality" />
		<tag k="ssr:stedsnr" v="367869" />
	</node>
	<node lat="59.91235555277979" lon="5.303497218191571" id="-66967">
		<tag k="name" v="Kjeringskaret" />
		<tag k="natural" v="hill" />
		<tag k="place" v="locality" />
		<tag k="ssr:stedsnr" v="401107" />
	</node>
	<node lat="59.9084249961142" lon="5.289736119719125" id="-66968">
		<tag k="name" v="Nausthaugen" />
		<tag k="natural" v="hill" />
		<tag k="place" v="locality" />
		<tag k="ssr:stedsnr" v="401110" />
	</node>
	<node lat="59.86423611330002" lon="5.3409250049136565" id="-66970">
		<tag k="name" v="Dalen" />
		<tag k="natural" v="valley" />
		<tag k="place" v="locality" />
		<tag k="ssr:stedsnr" v="401403" />
	</node>
	<node lat="59.86793333670086" lon="5.293074999179037" id="-66971">
		<tag k="name" v="Korsvikhaugane" />
		<tag k="natural" v="hill" />
		<tag k="place" v="locality" />
		<tag k="ssr:stedsnr" v="401412" />
	</node>
	<node lat="59.84320277669311" lon="5.373197228798535" id="-66978">
		<tag k="name" v="Setredalen" />
		<tag k="natural" v="valley" />
		<tag k="place" v="locality" />
		<tag k="ssr:stedsnr" v="402001" />
	</node>
	<node lat="59.89633333251817" lon="5.426922225556994" id="-66979">
		<tag k="name" v="Litlebotn" />
		<tag k="natural" v="valley" />
		<tag k="place" v="locality" />
		<tag k="ssr:stedsnr" v="402004" />
	</node>
	<node lat="59.95559999674439" lon="5.339872217053344" id="-66980">
		<tag k="name" v="Gloppevarden" />
		<tag k="natural" v="hill" />
		<tag k="place" v="locality" />
		<tag k="ssr:stedsnr" v="402036" />
	</node>
	<node lat="59.96381111401782" lon="5.325525003891031" id="-66983">
		<tag k="name" v="Veadalshaugen" />
		<tag k="natural" v="hill" />
		<tag k="place" v="locality" />
		<tag k="ssr:stedsnr" v="489178" />
	</node>
	<node lat="59.910949998746595" lon="5.303061115115909" id="-66993">
		<tag k="name" v="Storhaugen" />
		<tag k="natural" v="hill" />
		<tag k="place" v="locality" />
		<tag k="ssr:stedsnr" v="490549" />
	</node>
	<node lat="59.9007277744197" lon="5.425366663027062" id="-66999">
		<tag k="name" v="Tveitabotn" />
		<tag k="natural" v="valley" />
		<tag k="place" v="locality" />
		<tag k="ssr:stedsnr" v="428855" />
	</node>
	<node lat="59.91514166882402" lon="5.43988888748954" id="-67000">
		<tag k="fixme" v="consider natural=peak for the most distinct mountains in the district" />
		<tag k="name" v="Grønafjellet" />
		<tag k="natural" v="hill" />
		<tag k="place" v="locality" />
		<tag k="ssr:stedsnr" v="428875" />
	</node>
	<node lat="59.96608610805968" lon="5.3095138926158105" id="-67001">
		<tag k="fixme" v="consider natural=peak for the most distinct mountains in the district" />
		<tag k="name" v="Tuftalandsfjellet" />
		<tag k="natural" v="hill" />
		<tag k="place" v="locality" />
		<tag k="ssr:stedsnr" v="429153" />
	</node>
	<node lat="59.867836109140804" lon="5.4054861166687385" id="-67025">
		<tag k="name" v="Tømmerhammeren" />
		<tag k="place" v="locality" />
		<tag k="ssr:stedsnr" v="462072" />
	</node>
	<node lat="59.82724444056599" lon="5.341200004087925" id="-67027">
		<tag k="name" v="Dåshaugen" />
		<tag k="natural" v="hill" />
		<tag k="place" v="locality" />
		<tag k="ssr:stedsnr" v="462085" />
	</node>
	<node lat="59.832063888875744" lon="5.339277779355435" id="-67032">
		<tag k="name" v="Langehaugen" />
		<tag k="natural" v="hill" />
		<tag k="place" v="locality" />
		<tag k="ssr:stedsnr" v="462406" />
	</node>
	<node lat="59.938247222001024" lon="5.245041667377733" id="-67034">
		<tag k="name" v="Teløygavlen" />
		<tag k="place" v="locality" />
		<tag k="ssr:stedsnr" v="462479" />
	</node>
	<node lat="59.94433333216812" lon="5.377849997464216" id="-67043">
		<tag k="fixme" v="consider natural=peak for the most distinct mountains in the district" />
		<tag k="name" v="Handfjellsåta" />
		<tag k="natural" v="hill" />
		<tag k="place" v="locality" />
		<tag k="ssr:stedsnr" v="489810" />
	</node>
	<node lat="59.916788885279864" lon="5.348591668804987" id="-67052">
		<tag k="name" v="Lambhusbrotet" />
		<tag k="natural" v="hill" />
		<tag k="place" v="locality" />
		<tag k="ssr:stedsnr" v="523014" />
	</node>
	<node lat="59.90866944098465" lon="5.359452784734796" id="-67072">
		<tag k="fixme" v="consider natural=peak for the most distinct mountains in the district" />
		<tag k="name" v="Heia" />
		<tag k="natural" v="hill" />
		<tag k="place" v="locality" />
		<tag k="ssr:stedsnr" v="583105" />
	</node>
	<node lat="59.845452780965154" lon="5.3969305490035335" id="-67076">
		<tag k="name" v="Furelia" />
		<tag k="natural" v="slope" />
		<tag k="place" v="locality" />
		<tag k="ssr:stedsnr" v="583005" />
	</node>
	<node lat="59.854283337648596" lon="5.345044441828328" id="-67079">
		<tag k="name" v="Grashammaren" />
		<tag k="natural" v="hill" />
		<tag k="place" v="locality" />
		<tag k="ssr:stedsnr" v="583389" />
	</node>
	<node lat="59.86140555494259" lon="5.308288892552786" id="-67080">
		<tag k="name" v="Dåshaugen" />
		<tag k="natural" v="hill" />
		<tag k="place" v="locality" />
		<tag k="ssr:stedsnr" v="583399" />
	</node>
	<node lat="59.8734888902375" lon="5.247330561230297" id="-67081">
		<tag k="name" v="Storhaugen" />
		<tag k="natural" v="hill" />
		<tag k="place" v="locality" />
		<tag k="ssr:stedsnr" v="583507" />
	</node>
	<node lat="59.84730000438685" lon="5.3565416733807485" id="-67083">
		<tag k="name" v="Vekslia" />
		<tag k="natural" v="slope" />
		<tag k="place" v="locality" />
		<tag k="ssr:stedsnr" v="583446" />
	</node>
	<node lat="59.83704444243819" lon="5.3608027819513815" id="-67084">
		<tag k="name" v="Rundehaugen" />
		<tag k="natural" v="hill" />
		<tag k="place" v="locality" />
		<tag k="ssr:stedsnr" v="583452" />
	</node>
	<node lat="59.847783335061784" lon="5.332194445622561" id="-67096">
		<tag k="fixme" v="consider natural=peak for the most distinct mountains in the district" />
		<tag k="name" v="Sætrafjellet" />
		<tag k="natural" v="hill" />
		<tag k="place" v="locality" />
		<tag k="ssr:stedsnr" v="610909" />
	</node>
	<node lat="59.95435000064458" lon="5.328069446984933" id="-67101">
		<tag k="name" v="Orrahaugen" />
		<tag k="natural" v="hill" />
		<tag k="place" v="locality" />
		<tag k="ssr:stedsnr" v="705038" />
	</node>
	<node lat="59.95586944081283" lon="5.349638896721496" id="-67102">
		<tag k="name" v="Brakadalen" />
		<tag k="natural" v="valley" />
		<tag k="place" v="locality" />
		<tag k="ssr:stedsnr" v="705058" />
	</node>
	<node lat="59.90628333218285" lon="5.413080552268665" id="-67103">
		<tag k="fixme" v="consider natural=peak for the most distinct mountains in the district" />
		<tag k="name" v="Mosavassheia" />
		<tag k="natural" v="hill" />
		<tag k="place" v="locality" />
		<tag k="ssr:stedsnr" v="705069" />
	</node>
	<node lat="59.9188861103772" lon="5.420363885506638" id="-67105">
		<tag k="fixme" v="consider natural=peak for the most distinct mountains in the district" />
		<tag k="name" v="Grønafjellet" />
		<tag k="natural" v="hill" />
		<tag k="place" v="locality" />
		<tag k="ssr:stedsnr" v="705074" />
	</node>
	<node lat="59.81519999861956" lon="5.3334888962590945" id="-67106">
		<tag k="fixme" v="consider natural=peak for the most distinct mountains in the district" />
		<tag k="name" v="Fiskanessåta" />
		<tag k="natural" v="hill" />
		<tag k="place" v="locality" />
		<tag k="ssr:stedsnr" v="705096" />
	</node>
	<node lat="59.82482222671453" lon="5.325366672840737" id="-67107">
		<tag k="name" v="Kolagrovhaugane" />
		<tag k="natural" v="hill" />
		<tag k="place" v="locality" />
		<tag k="ssr:stedsnr" v="705099" />
	</node>
	<node lat="59.85696944479781" lon="5.3517166591458905" id="-67109">
		<tag k="name" v="Hjarthammaren" />
		<tag k="natural" v="hill" />
		<tag k="place" v="locality" />
		<tag k="ssr:stedsnr" v="705456" />
	</node>
	<node lat="59.899038889193974" lon="5.351416665143558" id="-67118">
		<tag k="fixme" v="consider natural=peak for the most distinct mountains in the district" />
		<tag k="name" v="Vikeskarsfjellet" />
		<tag k="natural" v="hill" />
		<tag k="place" v="locality" />
		<tag k="ssr:stedsnr" v="644087" />
	</node>
	<node lat="59.8969777809547" lon="5.352155554766653" id="-67119">
		<tag k="name" v="Vikeskaret" />
		<tag k="natural" v="hill" />
		<tag k="place" v="locality" />
		<tag k="ssr:stedsnr" v="644088" />
	</node>
	<node lat="59.895536437705836" lon="5.3486878405149465" id="-67120">
		<tag k="fixme" v="consider natural=peak for the most distinct mountains in the district" />
		<tag k="name" v="Juvafjellet" />
		<tag k="natural" v="hill" />
		<tag k="place" v="locality" />
		<tag k="ssr:stedsnr" v="644090" />
	</node>
	<node lat="59.73742778082676" lon="5.32614722226549" id="-67127">
		<tag k="name" v="Sætre" />
		<tag k="natural" v="hill" />
		<tag k="place" v="locality" />
		<tag k="ssr:stedsnr" v="709418" />
	</node>
	<node lat="59.94308610717947" lon="5.277244443975769" id="-67128">
		<tag k="alt_name" v="Ramberget" />
		<tag k="name" v="Ramnaberget" />
		<tag k="natural" v="hill" />
		<tag k="place" v="locality" />
		<tag k="ssr:stedsnr" v="671804" />
	</node>
	<node lat="59.88978611450371" lon="5.336341670171703" id="-67131">
		<tag k="name" v="Tveitanuten" />
		<tag k="natural" v="hill" />
		<tag k="place" v="locality" />
		<tag k="ssr:stedsnr" v="671830" />
	</node>
	<node lat="59.84947221921716" lon="5.367091670835468" id="-67134">
		<tag k="name" v="Njoten" />
		<tag k="place" v="locality" />
		<tag k="ssr:stedsnr" v="705008" />
	</node>
	<node lat="59.89139444264896" lon="5.3505416656884" id="-67156">
		<tag k="fixme" v="consider natural=peak for the most distinct mountains in the district" />
		<tag k="name" v="Varafjellet" />
		<tag k="natural" v="hill" />
		<tag k="place" v="locality" />
		<tag k="ssr:stedsnr" v="765364" />
	</node>
	<node lat="59.870655554307184" lon="5.373900001710457" id="-67167">
		<tag k="name" v="Orrhaugane" />
		<tag k="natural" v="hill" />
		<tag k="place" v="locality" />
		<tag k="ssr:stedsnr" v="792903" />
	</node>
	<node lat="59.8188249975189" lon="5.331525002872272" id="-67183">
		<tag k="name" v="Varden" />
		<tag k="natural" v="hill" />
		<tag k="place" v="locality" />
		<tag k="ssr:stedsnr" v="914968" />
	</node>
	<node lat="59.914819440794865" lon="5.405480564308195" id="-67189">
		<tag k="name" v="Kjelaspranget" />
		<tag k="place" v="locality" />
		<tag k="ssr:stedsnr" v="826071" />
	</node>
	<node lat="59.86450832933196" lon="5.2967777797728335" id="-67191">
		<tag k="name" v="Vesthaugen" />
		<tag k="natural" v="hill" />
		<tag k="place" v="locality" />
		<tag k="ssr:stedsnr" v="826417" />
	</node>
	<node lat="59.85732500280402" lon="5.331452784545914" id="-67200">
		<tag k="name" v="Klovadalen" />
		<tag k="natural" v="valley" />
		<tag k="place" v="locality" />
		<tag k="ssr:stedsnr" v="827513" />
	</node>
	<node lat="59.90350000070363" lon="5.326224994300968" id="-67203">
		<tag k="fixme" v="consider natural=peak for the most distinct mountains in the district" />
		<tag k="name" v="Åsen" />
		<tag k="natural" v="hill" />
		<tag k="place" v="locality" />
		<tag k="ssr:stedsnr" v="853849" />
	</node>
	<node lat="59.90245277631078" lon="5.348663883210102" id="-67208">
		<tag k="name" v="Ingusberget" />
		<tag k="natural" v="hill" />
		<tag k="place" v="locality" />
		<tag k="ssr:stedsnr" v="887113" />
	</node>
	<node lat="59.860444444508815" lon="5.36051111780934" id="-67209">
		<tag k="name" v="Grøvlehaugen" />
		<tag k="natural" v="hill" />
		<tag k="place" v="locality" />
		<tag k="ssr:stedsnr" v="887120" />
	</node>
	<node lat="59.83949166265381" lon="5.367138881970936" id="-67211">
		<tag k="fixme" v="consider natural=peak for the most distinct mountains in the district" />
		<tag k="name" v="Øykjafjellet" />
		<tag k="natural" v="hill" />
		<tag k="place" v="locality" />
		<tag k="ssr:stedsnr" v="887008" />
	</node>
	<node lat="59.95696389327127" lon="5.356400000480747" id="-67212">
		<tag k="name" v="Levågslia" />
		<tag k="natural" v="slope" />
		<tag k="place" v="locality" />
		<tag k="ssr:stedsnr" v="887048" />
	</node>
	<node lat="59.92939166716401" lon="5.446097230067719" id="-67214">
		<tag k="name" v="Sæthaug" />
		<tag k="natural" v="hill" />
		<tag k="place" v="locality" />
		<tag k="ssr:stedsnr" v="887058" />
	</node>
	<node lat="59.8849694485311" lon="5.4435500066731395" id="-67223">
		<tag k="name" v="Dyrdalen" />
		<tag k="natural" v="valley" />
		<tag k="place" v="locality" />
		<tag k="ssr:stedsnr" v="914815" />
	</node>
	<node lat="59.90277222106576" lon="5.341097221299249" id="-67232">
		<tag k="fixme" v="consider natural=peak for the most distinct mountains in the district" />
		<tag k="name" v="Gjeråsen" />
		<tag k="natural" v="hill" />
		<tag k="place" v="locality" />
		<tag k="ssr:stedsnr" v="948115" />
	</node>
	<node lat="59.845211113777424" lon="5.379347230353708" id="-67233">
		<tag k="fixme" v="consider natural=peak for the most distinct mountains in the district" />
		<tag k="name" v="Tinna" />
		<tag k="natural" v="hill" />
		<tag k="place" v="locality" />
		<tag k="ssr:stedsnr" v="948003" />
	</node>
	<node lat="59.83861111241256" lon="5.391625001741502" id="-67234">
		<tag k="fixme" v="consider natural=peak for the most distinct mountains in the district" />
		<tag k="name" v="Uvegtinden" />
		<tag k="natural" v="hill" />
		<tag k="place" v="locality" />
		<tag k="ssr:stedsnr" v="948006" />
	</node>
	<node lat="59.84292499961422" lon="5.3766111136237384" id="-67235">
		<tag k="fixme" v="consider natural=peak for the most distinct mountains in the district" />
		<tag k="name" v="Dåstinna" />
		<tag k="natural" v="hill" />
		<tag k="place" v="locality" />
		<tag k="ssr:stedsnr" v="948009" />
	</node>
	<node lat="59.92336389005753" lon="5.332847216934326" id="-67237">
		<tag k="name" v="Tednekleiva" />
		<tag k="natural" v="hill" />
		<tag k="place" v="locality" />
		<tag k="ssr:stedsnr" v="948020" />
	</node>
	<node lat="59.84816111370569" lon="5.361730558308533" id="-67241">
		<tag k="name" v="Litlenjoten" />
		<tag k="place" v="locality" />
		<tag k="ssr:stedsnr" v="948489" />
	</node>
	<node lat="59.87595833157322" lon="5.351774997184063" id="-67257">
		<tag k="name" v="Storevarden" />
		<tag k="natural" v="hill" />
		<tag k="place" v="locality" />
		<tag k="ssr:stedsnr" v="3935" />
	</node>
	<node lat="59.91610000306828" lon="5.459030556073812" id="-67260">
		<tag k="name" v="Gjæsene" />
		<tag k="natural" v="hill" />
		<tag k="place" v="locality" />
		<tag k="ssr:stedsnr" v="3860" />
	</node>
	<node lat="59.930352776263966" lon="5.394366665325045" id="-67266">
		<tag k="name" v="Djupedalen" />
		<tag k="natural" v="valley" />
		<tag k="place" v="locality" />
		<tag k="ssr:stedsnr" v="4792" />
	</node>
	<node lat="59.97388055144369" lon="5.310622222948412" id="-67268">
		<tag k="name" v="Laksvåghaugen" />
		<tag k="natural" v="hill" />
		<tag k="place" v="locality" />
		<tag k="ssr:stedsnr" v="25269" />
	</node>
	<node lat="59.89796388551033" lon="5.346650006348741" id="-67275">
		<tag k="name" v="Juvet" />
		<tag k="natural" v="gorge" />
		<tag k="ssr:stedsnr" v="37140" />
	</node>
	<node lat="59.8760444400936" lon="5.418861111707696" id="-67281">
		<tag k="name" v="Steindalsheia" />
		<tag k="natural" v="hill" />
		<tag k="place" v="locality" />
		<tag k="ssr:stedsnr" v="38033" />
	</node>
	<node lat="59.88072222498437" lon="5.340605551729827" id="-67284">
		<tag k="name" v="Tveitadalen" />
		<tag k="natural" v="valley" />
		<tag k="place" v="locality" />
		<tag k="ssr:stedsnr" v="38285" />
	</node>
	<node lat="59.9361638921904" lon="5.442850006837883" id="-67296">
		<tag k="name" v="Rishaugen" />
		<tag k="natural" v="hill" />
		<tag k="place" v="locality" />
		<tag k="ssr:stedsnr" v="65784" />
	</node>
	<node lat="59.875419444687886" lon="5.355788880498012" id="-67301">
		<tag k="name" v="Krakadalen" />
		<tag k="natural" v="valley" />
		<tag k="place" v="locality" />
		<tag k="ssr:stedsnr" v="98382" />
	</node>
	<node lat="59.873630552723874" lon="5.292372217927602" id="-67302">
		<tag k="name" v="Revabølshaugen" />
		<tag k="natural" v="hill" />
		<tag k="place" v="locality" />
		<tag k="ssr:stedsnr" v="98388" />
	</node>
	<node lat="59.93036666490256" lon="5.34148889041601" id="-67306">
		<tag k="name" v="Olderlia" />
		<tag k="natural" v="slope" />
		<tag k="place" v="locality" />
		<tag k="ssr:stedsnr" v="99006" />
	</node>
	<node lat="59.91944999829113" lon="5.352574994141202" id="-67307">
		<tag k="name" v="Steinryggen" />
		<tag k="natural" v="ridge" />
		<tag k="place" v="locality" />
		<tag k="ssr:stedsnr" v="99008" />
	</node>
	<node lat="59.9511388869259" lon="5.33349167574108" id="-67308">
		<tag k="name" v="Botn" />
		<tag k="natural" v="valley" />
		<tag k="place" v="locality" />
		<tag k="ssr:stedsnr" v="99022" />
	</node>
	<node lat="59.880094443986025" lon="5.379852778048477" id="-67310">
		<tag k="name" v="Småliane" />
		<tag k="natural" v="slope" />
		<tag k="place" v="locality" />
		<tag k="ssr:stedsnr" v="99032" />
	</node>
	<node lat="59.95342777467095" lon="5.341405550957961" id="-67312">
		<tag k="name" v="Hundsryggen" />
		<tag k="natural" v="gorge" />
		<tag k="ssr:stedsnr" v="99036" />
	</node>
	<node lat="59.95408889080185" lon="5.337702769666245" id="-67313">
		<tag k="name" v="Vargarhaugane" />
		<tag k="natural" v="hill" />
		<tag k="place" v="locality" />
		<tag k="ssr:stedsnr" v="99038" />
	</node>
	<node lat="59.95126944426688" lon="5.353924995916393" id="-67314">
		<tag k="name" v="Levågsvarden" />
		<tag k="natural" v="hill" />
		<tag k="place" v="locality" />
		<tag k="ssr:stedsnr" v="99041" />
	</node>
	<node lat="59.96089166773284" lon="5.301541674847152" id="-67317">
		<tag k="name" v="Geitahaugen" />
		<tag k="natural" v="hill" />
		<tag k="place" v="locality" />
		<tag k="ssr:stedsnr" v="125168" />
	</node>
	<node lat="59.92317500127298" lon="5.340677785080935" id="-67318">
		<tag k="name" v="Oksabrekkhaugen" />
		<tag k="natural" v="hill" />
		<tag k="place" v="locality" />
		<tag k="ssr:stedsnr" v="125776" />
	</node>
	<node lat="59.856791670708745" lon="5.40054999996317" id="-67322">
		<tag k="alt_name" v="Sætrabøfjellet;Seterbøfjellet" />
		<tag k="fixme" v="consider natural=peak for the most distinct mountains in the district" />
		<tag k="name" v="Sæterbøfjellet" />
		<tag k="natural" v="hill" />
		<tag k="place" v="locality" />
		<tag k="ssr:stedsnr" v="125910" />
	</node>
	<node lat="59.91036666334617" lon="5.3801333271055265" id="-67332">
		<tag k="name" v="Ølstjørnelia" />
		<tag k="natural" v="slope" />
		<tag k="place" v="locality" />
		<tag k="ssr:stedsnr" v="158072" />
	</node>
	<node lat="59.93072777750416" lon="5.367252786556226" id="-67333">
		<tag k="name" v="Sæterbudalen" />
		<tag k="natural" v="valley" />
		<tag k="place" v="locality" />
		<tag k="ssr:stedsnr" v="158079" />
	</node>
	<node lat="59.90444166704638" lon="5.304141657901908" id="-67338">
		<tag k="name" v="Arhaugen" />
		<tag k="natural" v="hill" />
		<tag k="place" v="locality" />
		<tag k="ssr:stedsnr" v="159089" />
	</node>
	<node lat="59.85504166873796" lon="5.348955557509293" id="-67339">
		<tag k="name" v="Ølvestadhaugen" />
		<tag k="natural" v="hill" />
		<tag k="place" v="locality" />
		<tag k="ssr:stedsnr" v="159434" />
	</node>
	<node lat="59.89156666231905" lon="5.362030548965263" id="-67345">
		<tag k="name" v="Vikesæterhaugen" />
		<tag k="natural" v="hill" />
		<tag k="place" v="locality" />
		<tag k="ssr:stedsnr" v="185818" />
	</node>
	<node lat="59.87510000190714" lon="5.410100004464442" id="-67346">
		<tag k="fixme" v="consider natural=peak for the most distinct mountains in the district" />
		<tag k="name" v="Melsåta" />
		<tag k="natural" v="hill" />
		<tag k="place" v="locality" />
		<tag k="ssr:stedsnr" v="185920" />
	</node>
	<node lat="59.93012221791774" lon="5.450786109780703" id="-67359">
		<tag k="name" v="Storhaug" />
		<tag k="natural" v="hill" />
		<tag k="place" v="locality" />
		<tag k="ssr:stedsnr" v="219043" />
	</node>
	<node lat="59.919130551877515" lon="5.345163891151323" id="-67362">
		<tag k="name" v="Raudeberget" />
		<tag k="natural" v="hill" />
		<tag k="place" v="locality" />
		<tag k="ssr:stedsnr" v="220015" />
	</node>
	<node lat="59.97048611428087" lon="5.319388890639327" id="-67365">
		<tag k="fixme" v="consider natural=peak for the most distinct mountains in the district" />
		<tag k="name" v="Tveitefjellet" />
		<tag k="natural" v="hill" />
		<tag k="place" v="locality" />
		<tag k="ssr:stedsnr" v="220040" />
	</node>
	<node lat="59.94324444317869" lon="5.36073332846381" id="-67366">
		<tag k="name" v="Beindalane" />
		<tag k="natural" v="valley" />
		<tag k="place" v="locality" />
		<tag k="ssr:stedsnr" v="220049" />
	</node>
	<node lat="59.86715000062085" lon="5.309891671403133" id="-67369">
		<tag k="name" v="Høgehaugen" />
		<tag k="natural" v="hill" />
		<tag k="place" v="locality" />
		<tag k="ssr:stedsnr" v="220452" />
	</node>
	<node lat="59.95630833725577" lon="5.39308888235603" id="-67372">
		<tag k="name" v="Raugaberg" />
		<tag k="natural" v="hill" />
		<tag k="place" v="locality" />
		<tag k="ssr:stedsnr" v="280069" />
	</node>
	<node lat="59.922661114574595" lon="5.392041666168356" id="-67378">
		<tag k="fixme" v="consider natural=peak for the most distinct mountains in the district" />
		<tag k="name" v="Midtfjellsåta" />
		<tag k="natural" v="hill" />
		<tag k="place" v="locality" />
		<tag k="ssr:stedsnr" v="280056" />
	</node>
	<node lat="59.927180558282856" lon="5.392936118017414" id="-67379">
		<tag k="fixme" v="consider natural=peak for the most distinct mountains in the district" />
		<tag k="name" v="Austre-Såta" />
		<tag k="natural" v="hill" />
		<tag k="place" v="locality" />
		<tag k="ssr:stedsnr" v="280058" />
	</node>
	<node lat="59.855702779447526" lon="5.379294452104578" id="-67380">
		<tag k="alt_name" v="Seterbøsåta" />
		<tag k="fixme" v="consider natural=peak for the most distinct mountains in the district" />
		<tag k="name" v="Sæterbøsåta" />
		<tag k="natural" v="hill" />
		<tag k="place" v="locality" />
		<tag k="ssr:stedsnr" v="280063" />
	</node>
	<node lat="59.85427222627009" lon="5.3412611103045" id="-67384">
		<tag k="name" v="Vahaugen" />
		<tag k="natural" v="hill" />
		<tag k="place" v="locality" />
		<tag k="ssr:stedsnr" v="280390" />
	</node>
	<node lat="59.84278332928808" lon="5.3963944476428525" id="-67389">
		<tag k="name" v="Ørnakulten" />
		<tag k="place" v="locality" />
		<tag k="ssr:stedsnr" v="281001" />
	</node>
	<node lat="59.88485555403129" lon="5.369791661542549" id="-67390">
		<tag k="name" v="Vandredalsheiane" />
		<tag k="natural" v="hill" />
		<tag k="place" v="locality" />
		<tag k="ssr:stedsnr" v="281028" />
	</node>
	<node lat="59.89449444453287" lon="5.367949992428486" id="-67391">
		<tag k="name" v="Vaulane" />
		<tag k="place" v="locality" />
		<tag k="ssr:stedsnr" v="281029" />
	</node>
	<node lat="59.92268333141437" lon="5.3622555612418195" id="-67395">
		<tag k="name" v="Fitjarsåta" />
		<tag k="natural" v="hill" />
		<tag k="place" v="locality" />
		<tag k="ssr:stedsnr" v="307764" />
	</node>
	<node lat="59.859511115073246" lon="5.3706277747775335" id="-67400">
		<tag k="fixme" v="consider natural=peak for the most distinct mountains in the district" />
		<tag k="name" v="Hovåsen" />
		<tag k="natural" v="hill" />
		<tag k="place" v="locality" />
		<tag k="ssr:stedsnr" v="307891" />
	</node>
	<node lat="59.90272417642891" lon="5.2142758050125915" id="-67408">
		<tag k="name" v="Ålforeklubben" />
		<tag k="natural" v="hill" />
		<tag k="place" v="locality" />
		<tag k="ssr:stedsnr" v="308545" />
	</node>
	<node lat="59.92590555581532" lon="5.351241664050251" id="-67414">
		<tag k="fixme" v="consider natural=peak for the most distinct mountains in the district" />
		<tag k="name" v="Såtehallene" />
		<tag k="natural" v="hill" />
		<tag k="place" v="locality" />
		<tag k="ssr:stedsnr" v="341010" />
	</node>
	<node lat="59.877849996658945" lon="5.295758342199811" id="-67420">
		<tag k="name" v="Furehaugen" />
		<tag k="natural" v="hill" />
		<tag k="place" v="locality" />
		<tag k="ssr:stedsnr" v="341421" />
	</node>
	<node lat="59.879991665526376" lon="5.290013892178631" id="-67421">
		<tag k="name" v="Brattaberget" />
		<tag k="natural" v="hill" />
		<tag k="place" v="locality" />
		<tag k="ssr:stedsnr" v="341423" />
	</node>
	<node lat="59.87213333403299" lon="5.321063897026821" id="-67422">
		<tag k="name" v="Hogstepresten" />
		<tag k="place" v="locality" />
		<tag k="ssr:stedsnr" v="341440" />
	</node>
	<node lat="59.91226111354568" lon="5.318719443463441" id="-67426">
		<tag k="name" v="Rimsvarden" />
		<tag k="natural" v="hill" />
		<tag k="place" v="locality" />
		<tag k="ssr:stedsnr" v="367849" />
	</node>
	<node lat="59.94009502594611" lon="5.342441609141426" id="-67428">
		<tag k="name" v="Eskjedalen" />
		<tag k="natural" v="valley" />
		<tag k="place" v="locality" />
		<tag k="ssr:stedsnr" v="368828" />
	</node>
	<node lat="59.922266664165036" lon="5.444425002288566" id="-67431">
		<tag k="name" v="Tindane" />
		<tag k="natural" v="hill" />
		<tag k="place" v="locality" />
		<tag k="ssr:stedsnr" v="368799" />
	</node>
	<node lat="59.926286110785256" lon="5.323650000179011" id="-67433">
		<tag k="name" v="Storhaugen" />
		<tag k="natural" v="hill" />
		<tag k="place" v="locality" />
		<tag k="ssr:stedsnr" v="368808" />
	</node>
	<node lat="59.912511111009735" lon="5.3696694420437385" id="-67440">
		<tag k="name" v="Ølstjørnehaugen" />
		<tag k="natural" v="hill" />
		<tag k="place" v="locality" />
		<tag k="ssr:stedsnr" v="401090" />
	</node>
	<node lat="59.921800001470935" lon="5.452277776414019" id="-67443">
		<tag k="name" v="Kvelve rusto" />
		<tag k="natural" v="hill" />
		<tag k="place" v="locality" />
		<tag k="ssr:stedsnr" v="401050" />
	</node>
	<node lat="59.89939166767326" lon="5.3844111101164795" id="-67444">
		<tag k="name" v="Blåbærlia" />
		<tag k="natural" v="slope" />
		<tag k="place" v="locality" />
		<tag k="ssr:stedsnr" v="401053" />
	</node>
	<node lat="59.86788611488015" lon="5.268138886108317" id="-67448">
		<tag k="name" v="Britteplasset" />
		<tag k="place" v="locality" />
		<tag k="ssr:stedsnr" v="401369" />
	</node>
	<node lat="59.83429722159119" lon="5.3573111189016185" id="-67450">
		<tag k="fixme" v="consider natural=peak for the most distinct mountains in the district" />
		<tag k="name" v="Tømmerhammaren" />
		<tag k="natural" v="hill" />
		<tag k="place" v="locality" />
		<tag k="ssr:stedsnr" v="401450" />
	</node>
	<node lat="59.88608055792364" lon="5.295338884705292" id="-67451">
		<tag k="name" v="Straumhaugen" />
		<tag k="natural" v="hill" />
		<tag k="place" v="locality" />
		<tag k="ssr:stedsnr" v="401391" />
	</node>
	<node lat="59.869877777619195" lon="5.353836104458189" id="-67452">
		<tag k="name" v="Lauvhaugen" />
		<tag k="natural" v="hill" />
		<tag k="place" v="locality" />
		<tag k="ssr:stedsnr" v="401395" />
	</node>
	<node lat="59.88753333634674" lon="5.445522214766714" id="-67455">
		<tag k="fixme" v="consider natural=peak for the most distinct mountains in the district" />
		<tag k="name" v="Steinfjellet" />
		<tag k="natural" v="hill" />
		<tag k="place" v="locality" />
		<tag k="ssr:stedsnr" v="402050" />
	</node>
	<node lat="59.92823888530829" lon="5.450661110546196" id="-67473">
		<tag k="name" v="Tverrbrekko" />
		<tag k="natural" v="hill" />
		<tag k="place" v="locality" />
		<tag k="ssr:stedsnr" v="522064" />
	</node>
	<node lat="59.82748333378875" lon="5.330638887450518" id="-67475">
		<tag k="fixme" v="consider natural=peak for the most distinct mountains in the district" />
		<tag k="name" v="Stokkåsen" />
		<tag k="natural" v="hill" />
		<tag k="place" v="locality" />
		<tag k="ssr:stedsnr" v="523092" />
	</node>
	<node lat="59.89117222058338" lon="5.419786118895665" id="-67478">
		<tag k="name" v="Kløvskardheiane" />
		<tag k="natural" v="hill" />
		<tag k="place" v="locality" />
		<tag k="ssr:stedsnr" v="523040" />
	</node>
	<node lat="59.94407499802622" lon="5.338386118767068" id="-67479">
		<tag k="name" v="Skukkane" />
		<tag k="place" v="locality" />
		<tag k="ssr:stedsnr" v="523042" />
	</node>
	<node lat="59.86579444850105" lon="5.363847218886431" id="-67483">
		<tag k="name" v="Eggjane" />
		<tag k="place" v="locality" />
		<tag k="ssr:stedsnr" v="523450" />
	</node>
	<node lat="59.865902779355174" lon="5.304919449476106" id="-67485">
		<tag k="name" v="Russedalen" />
		<tag k="natural" v="valley" />
		<tag k="place" v="locality" />
		<tag k="ssr:stedsnr" v="523548" />
	</node>
	<node lat="59.84253611531949" lon="5.3505027857206855" id="-67487">
		<tag k="name" v="Straumhaugen" />
		<tag k="natural" v="hill" />
		<tag k="place" v="locality" />
		<tag k="ssr:stedsnr" v="523504" />
	</node>
	<node lat="59.8437666703272" lon="5.343950001571262" id="-67488">
		<tag k="name" v="Fjordaskottet" />
		<tag k="place" v="locality" />
		<tag k="ssr:stedsnr" v="523506" />
	</node>
	<node lat="59.88941388611246" lon="5.413544450043471" id="-67493">
		<tag k="fixme" v="consider natural=peak for the most distinct mountains in the district" />
		<tag k="name" v="Klovskardfjellet" />
		<tag k="natural" v="hill" />
		<tag k="place" v="locality" />
		<tag k="ssr:stedsnr" v="549805" />
	</node>
	<node lat="59.913066670627586" lon="5.238491663025198" id="-67505">
		<tag k="name" v="Storhaugen" />
		<tag k="natural" v="hill" />
		<tag k="place" v="locality" />
		<tag k="ssr:stedsnr" v="550864" />
	</node>
	<node lat="59.93489444283944" lon="5.4173750017588045" id="-67510">
		<tag k="name" v="Dyrselevarden" />
		<tag k="natural" v="hill" />
		<tag k="place" v="locality" />
		<tag k="ssr:stedsnr" v="583064" />
	</node>
	<node lat="59.81613611272532" lon="5.335519452543382" id="-67513">
		<tag k="fixme" v="consider natural=peak for the most distinct mountains in the district" />
		<tag k="name" v="Storesvea" />
		<tag k="natural" v="hill" />
		<tag k="place" v="locality" />
		<tag k="ssr:stedsnr" v="583085" />
	</node>
	<node lat="59.948561112388916" lon="5.3328500045206875" id="-67520">
		<tag k="name" v="Håvardshaugen" />
		<tag k="natural" v="hill" />
		<tag k="place" v="locality" />
		<tag k="ssr:stedsnr" v="584027" />
	</node>
	<node lat="59.94941666764891" lon="5.34322777386182" id="-67521">
		<tag k="name" v="Slettarhaugen" />
		<tag k="natural" v="hill" />
		<tag k="place" v="locality" />
		<tag k="ssr:stedsnr" v="584037" />
	</node>
	<node lat="59.935141662018076" lon="5.397983326141864" id="-67523">
		<tag k="alt_name" v="Husafjell" />
		<tag k="fixme" v="consider natural=peak for the most distinct mountains in the district" />
		<tag k="name" v="Husafjellet" />
		<tag k="natural" v="hill" />
		<tag k="place" v="locality" />
		<tag k="ssr:stedsnr" v="610789" />
	</node>
	<node lat="59.92490555376213" lon="5.37404443628408" id="-67526">
		<tag k="fixme" v="consider natural=peak for the most distinct mountains in the district" />
		<tag k="name" v="Midtfjellet" />
		<tag k="natural" v="hill" />
		<tag k="place" v="locality" />
		<tag k="ssr:stedsnr" v="610772" />
	</node>
	<node lat="59.94448055826624" lon="5.4210222161681445" id="-67539">
		<tag k="fixme" v="consider natural=peak for the most distinct mountains in the district" />
		<tag k="name" v="Kleivane" />
		<tag k="natural" v="hill" />
		<tag k="place" v="locality" />
		<tag k="ssr:stedsnr" v="643099" />
	</node>
	<node lat="59.94600555380475" lon="5.400827769580744" id="-67540">
		<tag k="name" v="Sotthaugen" />
		<tag k="natural" v="hill" />
		<tag k="place" v="locality" />
		<tag k="ssr:stedsnr" v="643101" />
	</node>
	<node lat="59.93189166903653" lon="5.450558338161259" id="-67541">
		<tag k="name" v="Piningen" />
		<tag k="natural" v="hill" />
		<tag k="place" v="locality" />
		<tag k="ssr:stedsnr" v="643064" />
	</node>
	<node lat="59.926077779121556" lon="5.3432611180536" id="-67542">
		<tag k="name" v="Oksabrekka" />
		<tag k="natural" v="hill" />
		<tag k="place" v="locality" />
		<tag k="ssr:stedsnr" v="644010" />
	</node>
	<node lat="59.8863527743302" lon="5.3853000042897134" id="-67545">
		<tag k="name" v="Smalahaugane" />
		<tag k="natural" v="hill" />
		<tag k="place" v="locality" />
		<tag k="ssr:stedsnr" v="644034" />
	</node>
	<node lat="59.877144446863895" lon="5.4235722248053" id="-67546">
		<tag k="fixme" v="consider natural=peak for the most distinct mountains in the district" />
		<tag k="name" v="Melaheia" />
		<tag k="natural" v="hill" />
		<tag k="place" v="locality" />
		<tag k="ssr:stedsnr" v="644052" />
	</node>
	<node lat="59.91936388554282" lon="5.481680562101065" id="-67547">
		<tag k="name" v="Skifteshaugen" />
		<tag k="natural" v="hill" />
		<tag k="place" v="locality" />
		<tag k="ssr:stedsnr" v="644067" />
	</node>
	<node lat="59.8815888914092" lon="5.3444277833115885" id="-67549">
		<tag k="name" v="Dalshaugane" />
		<tag k="natural" v="hill" />
		<tag k="place" v="locality" />
		<tag k="ssr:stedsnr" v="644394" />
	</node>
	<node lat="59.91991944755381" lon="5.385633339679495" id="-67558">
		<tag k="name" v="Beinatjørnvarden" />
		<tag k="natural" v="hill" />
		<tag k="place" v="locality" />
		<tag k="ssr:stedsnr" v="732759" />
	</node>
	<node lat="59.94108055963382" lon="5.393952781962241" id="-67561">
		<tag k="alt_name" v="Lønarås" />
		<tag k="fixme" v="consider natural=peak for the most distinct mountains in the district" />
		<tag k="name" v="Løynaråsen" />
		<tag k="natural" v="hill" />
		<tag k="place" v="locality" />
		<tag k="ssr:stedsnr" v="732790" />
	</node>
	<node lat="59.92305000380056" lon="5.448858336808395" id="-67569">
		<tag k="name" v="Kvelve" />
		<tag k="place" v="locality" />
		<tag k="ssr:stedsnr" v="765060" />
	</node>
	<node lat="59.86426666260664" lon="5.3076166606760955" id="-67573">
		<tag k="name" v="Risdalen" />
		<tag k="natural" v="valley" />
		<tag k="place" v="locality" />
		<tag k="ssr:stedsnr" v="765387" />
	</node>
	<node lat="59.83234721829663" lon="5.335330564336857" id="-67574">
		<tag k="fixme" v="consider natural=peak for the most distinct mountains in the district" />
		<tag k="name" v="Bangåsen" />
		<tag k="natural" v="hill" />
		<tag k="place" v="locality" />
		<tag k="ssr:stedsnr" v="765402" />
	</node>
	<node lat="59.96284444682334" lon="5.346733339284535" id="-67577">
		<tag k="name" v="Levågslia" />
		<tag k="natural" v="slope" />
		<tag k="place" v="locality" />
		<tag k="ssr:stedsnr" v="766025" />
	</node>
	<node lat="59.92673055793448" lon="5.199130547406218" id="-67580">
		<tag k="name" v="Rumben" />
		<tag k="place" v="locality" />
		<tag k="ssr:stedsnr" v="766429" />
	</node>
	<node lat="59.94692499903086" lon="5.325911113612386" id="-67582">
		<tag k="name" v="Landavarden" />
		<tag k="natural" v="hill" />
		<tag k="place" v="locality" />
		<tag k="ssr:stedsnr" v="792786" />
	</node>
	<node lat="59.89019444051868" lon="5.371038893417572" id="-67606">
		<tag k="name" v="Vandredalen" />
		<tag k="natural" v="valley" />
		<tag k="place" v="locality" />
		<tag k="ssr:stedsnr" v="827034" />
	</node>
	<node lat="59.94621944683809" lon="5.343205553311097" id="-67607">
		<tag k="name" v="Kråketjørnshaugen" />
		<tag k="natural" v="hill" />
		<tag k="place" v="locality" />
		<tag k="ssr:stedsnr" v="827044" />
	</node>
	<node lat="59.83802222599136" lon="5.385236107128804" id="-67608">
		<tag k="name" v="Uvegbotn" />
		<tag k="natural" v="valley" />
		<tag k="place" v="locality" />
		<tag k="ssr:stedsnr" v="827049" />
	</node>
	<node lat="59.90380555636701" lon="5.343011113397637" id="-67622">
		<tag k="name" v="Skjeningehaugen" />
		<tag k="natural" v="hill" />
		<tag k="place" v="locality" />
		<tag k="ssr:stedsnr" v="853847" />
	</node>
	<node lat="59.944966664928245" lon="5.378788896483338" id="-67626">
		<tag k="alt_name" v="Hanfjellet" />
		<tag k="fixme" v="consider natural=peak for the most distinct mountains in the district" />
		<tag k="name" v="Handfjellet" />
		<tag k="natural" v="hill" />
		<tag k="place" v="locality" />
		<tag k="ssr:stedsnr" v="853797" />
	</node>
	<node lat="59.85322500256407" lon="5.324500004030284" id="-67633">
		<tag k="fixme" v="consider natural=peak for the most distinct mountains in the district" />
		<tag k="name" v="Surefjellet" />
		<tag k="natural" v="hill" />
		<tag k="place" v="locality" />
		<tag k="ssr:stedsnr" v="853889" />
	</node>
	<node lat="59.84813888603462" lon="5.357183335461768" id="-67634">
		<tag k="alt_name" v="Vekslinuten" />
		<tag k="fixme" v="consider natural=peak for the most distinct mountains in the district" />
		<tag k="name" v="Vegslinuten" />
		<tag k="natural" v="hill" />
		<tag k="place" v="locality" />
		<tag k="ssr:stedsnr" v="853892" />
	</node>
	<node lat="59.92445555986324" lon="5.461988882111058" id="-67638">
		<tag k="name" v="Nuken" />
		<tag k="natural" v="hill" />
		<tag k="place" v="locality" />
		<tag k="ssr:stedsnr" v="854735" />
	</node>
	<node lat="59.8755694411749" lon="5.314166665112687" id="-67658">
		<tag k="name" v="Vargadalen" />
		<tag k="natural" v="valley" />
		<tag k="place" v="locality" />
		<tag k="ssr:stedsnr" v="887524" />
	</node>
	<node lat="59.921369445638476" lon="5.406908338803192" id="-67662">
		<tag k="name" v="Kvernvasslia" />
		<tag k="natural" v="slope" />
		<tag k="place" v="locality" />
		<tag k="ssr:stedsnr" v="887072" />
	</node>
	<node lat="59.94591388747147" lon="5.337916668624284" id="-67665">
		<tag k="name" v="Tjukkadalen" />
		<tag k="natural" v="valley" />
		<tag k="place" v="locality" />
		<tag k="ssr:stedsnr" v="887043" />
	</node>
	<node lat="59.85481388511022" lon="5.264788897264461" id="-67666">
		<tag k="name" v="Steindalen" />
		<tag k="natural" v="valley" />
		<tag k="place" v="locality" />
		<tag k="ssr:stedsnr" v="887413" />
	</node>
	<node lat="59.88158055969067" lon="5.373500005315823" id="-67670">
		<tag k="name" v="Russedalen" />
		<tag k="natural" v="valley" />
		<tag k="place" v="locality" />
		<tag k="ssr:stedsnr" v="948051" />
	</node>
	<node lat="59.897413891953335" lon="5.342730562175586" id="-67671">
		<tag k="name" v="Hundsryggen" />
		<tag k="natural" v="ridge" />
		<tag k="place" v="locality" />
		<tag k="ssr:stedsnr" v="948117" />
	</node>
	<node lat="59.8548666681227" lon="5.359736105038245" id="-67672">
		<tag k="name" v="Bratteli" />
		<tag k="natural" v="slope" />
		<tag k="place" v="locality" />
		<tag k="ssr:stedsnr" v="948125" />
	</node>
	<node lat="59.83329999617794" lon="5.344099999183109" id="-67673">
		<tag k="fixme" v="consider natural=peak for the most distinct mountains in the district" />
		<tag k="name" v="Skutesmågsåsane" />
		<tag k="natural" v="hill" />
		<tag k="place" v="locality" />
		<tag k="ssr:stedsnr" v="948452" />
	</node>
</osm>
