<?xml version="1.0" encoding="UTF-8"?>
<<<<<<< HEAD
<osm version="0.6" generator="osmapis">
	<node lat="59.882774584182165" lon="5.407749832905738" id="-25282">
		<tag k="name" v="Klovskardvatnet" />
=======
<osm generator="osmapis" version="0.6">
	<node id="-606206" lat="59.9290250039" lon="5.34381388345">
		<tag k="name" v="Rakabekken" />
		<tag k="ssr:stedsnr" v="65790" />
		<tag k="waterway" v="stream" />
	</node>
	<node id="-606196" lat="59.8479444431" lon="5.38966389523">
		<tag k="name" v="Svalevatnet" />
		<tag k="natural" v="water" />
		<tag k="ssr:stedsnr" v="64899" />
	</node>
	<node id="-606194" lat="59.9153305559" lon="5.34893611491">
		<tag k="name" v="Skrikelbekken" />
		<tag k="ssr:stedsnr" v="64872" />
		<tag k="waterway" v="stream" />
	</node>
	<node id="-606186" lat="59.9006281979" lon="5.30774275342">
		<tag k="name" v="Kjeneseid" />
		<tag k="natural" v="strait" />
		<tag k="ssr:stedsnr" v="38279" />
	</node>
	<node id="-606173" lat="59.9087387035" lon="5.32877393973">
		<tag k="name" v="Rimbereidtjørna" />
		<tag k="natural" v="water" />
		<tag k="ssr:stedsnr" v="37132" />
	</node>
	<node id="-606168" lat="59.9207972186" lon="5.45351944645">
		<tag k="alt_name" v="Eidselva" />
		<tag k="name" v="Eideselva" />
		<tag k="ssr:stedsnr" v="4776" />
		<tag k="waterway" v="stream" />
	</node>
	<node id="-606162" lat="59.8766431712" lon="5.24600204015">
		<tag k="name" v="Storhaugvatnet" />
		<tag k="natural" v="water" />
		<tag k="ssr:stedsnr" v="3925" />
	</node>
	<node id="-606161" lat="59.8630687504" lon="5.25834796255">
		<tag k="name" v="Krabbavikvatnet" />
		<tag k="natural" v="water" />
		<tag k="ssr:stedsnr" v="3921" />
	</node>
	<node id="-606160" lat="59.8589522865" lon="5.31178134161">
		<tag k="name" v="Storeviktjørna" />
		<tag k="natural" v="water" />
		<tag k="ssr:stedsnr" v="3905" />
	</node>
	<node id="-606159" lat="59.8508167327" lon="5.34328349856">
		<tag k="name" v="Søretjørna" />
		<tag k="natural" v="water" />
		<tag k="ssr:stedsnr" v="3879" />
	</node>
	<node id="-606158" lat="59.9096618066" lon="5.37733352237">
		<tag k="name" v="Olstjørna" />
		<tag k="natural" v="water" />
		<tag k="ssr:stedsnr" v="3862" />
	</node>
	<node id="-606156" lat="59.9033217457" lon="5.39964327075">
		<tag k="name" v="Svartatjørn" />
		<tag k="natural" v="water" />
		<tag k="ssr:stedsnr" v="3852" />
	</node>
	<node id="-606155" lat="59.9061166674" lon="5.35801943953">
		<tag k="name" v="Kråbekken" />
		<tag k="ssr:stedsnr" v="3851" />
		<tag k="waterway" v="stream" />
	</node>
	<node id="-606124" lat="59.8963999967" lon="5.33460555749">
		<tag k="name" v="Vikeelva" />
		<tag k="ssr:stedsnr" v="887110" />
		<tag k="waterway" v="stream" />
	</node>
	<node id="-606110" lat="59.9633111073" lon="5.37413332623">
		<tag k="name" v="Engjavikefossen" />
		<tag k="natural" v="waterfall" />
		<tag k="ssr:stedsnr" v="948002" />
	</node>
	<node id="-606109" lat="59.9319055514" lon="5.3561388926">
		<tag k="name" v="Lomatjørna" />
		<tag k="natural" v="water" />
		<tag k="ssr:stedsnr" v="854763" />
	</node>
	<node id="-606105" lat="59.8556374091" lon="5.34264415648">
		<tag k="name" v="Midttjørna" />
		<tag k="natural" v="water" />
		<tag k="ssr:stedsnr" v="853915" />
	</node>
	<node id="-606103" lat="59.9396793571" lon="5.36150152965">
		<tag k="name" v="Løkjen" />
		<tag k="natural" v="water" />
		<tag k="ssr:stedsnr" v="853773" />
	</node>
	<node id="-606089" lat="59.9600582834" lon="5.3296190561">
		<tag k="name" v="Gloppevatnet" />
>>>>>>> e1d4bc35ff8a6074a6f2e91616a996b547c36f15
		<tag k="natural" v="water" />
		<tag k="ssr:stedsnr" v="3811" />
		<tag k="water" v="lake" />
	</node>
<<<<<<< HEAD
	<node lat="59.86306875042353" lon="5.258347962552125" id="-25284">
		<tag k="name" v="Krabbavikvatnet" />
=======
	<node id="-606599" lat="59.9224459203" lon="5.4085125577">
		<tag k="name" v="Kvernavatnet" />
>>>>>>> e1d4bc35ff8a6074a6f2e91616a996b547c36f15
		<tag k="natural" v="water" />
		<tag k="ssr:stedsnr" v="3921" />
	</node>
<<<<<<< HEAD
	<node lat="59.850816732744065" lon="5.343283498563817" id="-25286">
		<tag k="name" v="Søretjørna" />
=======
	<node id="-606084" lat="59.9201135276" lon="5.16660405892">
		<tag k="name" v="Eggøyvatnet" />
>>>>>>> e1d4bc35ff8a6074a6f2e91616a996b547c36f15
		<tag k="natural" v="water" />
		<tag k="ssr:stedsnr" v="3879" />
	</node>
<<<<<<< HEAD
	<node lat="59.92079721857051" lon="5.4535194464539805" id="-25288">
		<tag k="alt_name" v="Eidselva" />
		<tag k="name" v="Eideselva" />
		<tag k="ssr:stedsnr" v="4776" />
		<tag k="waterway" v="stream" />
	</node>
	<node lat="59.88826172733556" lon="5.325779645737133" id="-25305">
		<tag k="name" v="Storavatnet" />
=======
	<node id="-606593" lat="59.9087930715" lon="5.41953507917">
		<tag k="name" v="Mosavatnet" />
>>>>>>> e1d4bc35ff8a6074a6f2e91616a996b547c36f15
		<tag k="natural" v="water" />
		<tag k="ssr:stedsnr" v="64846" />
		<tag k="water" v="lake" />
	</node>
<<<<<<< HEAD
	<node lat="59.915330555932975" lon="5.348936114911633" id="-25306">
		<tag k="name" v="Skrikelbekken" />
		<tag k="ssr:stedsnr" v="64872" />
		<tag k="waterway" v="stream" />
	</node>
	<node lat="59.93793071376947" lon="5.387737916381932" id="-25312">
		<tag k="name" v="Langavatnet" />
=======
	<node id="-606588" lat="59.8967999989" lon="5.41743611375">
		<tag k="name" v="Tveitaelva" />
		<tag k="ssr:stedsnr" v="853830" />
		<tag k="waterway" v="stream" />
	</node>
	<node id="-606072" lat="59.8645481062" lon="5.37958478619">
		<tag k="name" v="Kvernavatnet" />
>>>>>>> e1d4bc35ff8a6074a6f2e91616a996b547c36f15
		<tag k="natural" v="water" />
		<tag k="ssr:stedsnr" v="246758" />
	</node>
<<<<<<< HEAD
	<node lat="59.90815453132178" lon="5.392993882165861" id="-25313">
		<tag k="name" v="Midtvatnet" />
		<tag k="natural" v="water" />
		<tag k="ssr:stedsnr" v="246832" />
	</node>
	<node lat="59.91458888936245" lon="5.401680549037102" id="-25315">
		<tag k="name" v="Svartavatnet" />
		<tag k="natural" v="water" />
		<tag k="ssr:stedsnr" v="246851" />
		<tag k="water" v="lake" />
	</node>
	<node lat="59.91713610737915" lon="5.387655561495742" id="-25316">
		<tag k="name" v="Beinatjørna" />
=======
	<node id="-606071" lat="59.8672440007" lon="5.41383819703">
		<tag k="alt_name" v="Sørlivatnet, ytste" />
		<tag k="name" v="Ytste Sørlivatnet" />
		<tag k="natural" v="water" />
		<tag k="ssr:stedsnr" v="914916" />
		<tag k="water" v="lake" />
	</node>
	<node id="-606063" lat="59.9396861145" lon="5.40802499348">
		<tag k="alt_name" v="Vestvikelva" />
		<tag k="name" v="Vistvikelva" />
		<tag k="ssr:stedsnr" v="914794" />
		<tag k="waterway" v="stream" />
	</node>
	<node id="-606051" lat="59.9070302062" lon="5.33121950736">
		<tag k="name" v="Tjørnsendebekken" />
		<tag k="ssr:stedsnr" v="765108" />
		<tag k="waterway" v="stream" />
	</node>
	<node id="-606559" lat="59.8256333344" lon="5.34524443868">
		<tag k="name" v="Bergabergbekken" />
		<tag k="ssr:stedsnr" v="826108" />
		<tag k="waterway" v="stream" />
	</node>
	<node id="-606046" lat="59.8375048845" lon="5.34308594252">
		<tag k="name" v="Straumhaugtjørn" />
>>>>>>> e1d4bc35ff8a6074a6f2e91616a996b547c36f15
		<tag k="natural" v="water" />
		<tag k="ssr:stedsnr" v="246852" />
	</node>
<<<<<<< HEAD
	<node lat="59.8351059545255" lon="5.368396852449519" id="-25355">
=======
	<node id="-606033" lat="59.9413549488" lon="5.26837115416">
>>>>>>> e1d4bc35ff8a6074a6f2e91616a996b547c36f15
		<tag k="name" v="Stemmetjørna" />
		<tag k="natural" v="water" />
		<tag k="ssr:stedsnr" v="186980" />
	</node>
<<<<<<< HEAD
	<node lat="59.82597660805086" lon="5.338986766941711" id="-25386">
		<tag k="name" v="Stokkavatnet" />
=======
	<node id="-606543" lat="59.8705673042" lon="5.42193912272">
		<tag k="alt_name" v="Sørlivatnet, inste;Øvre Sørlivatnet" />
		<tag k="name" v="Inste Sørlivatnet" />
>>>>>>> e1d4bc35ff8a6074a6f2e91616a996b547c36f15
		<tag k="natural" v="water" />
		<tag k="ssr:stedsnr" v="246968" />
	</node>
<<<<<<< HEAD
	<node lat="59.85218255767812" lon="5.334113850684944" id="-25405">
		<tag k="name" v="Fagerskogtjørna" />
=======
	<node id="-606542" lat="59.8448694449" lon="5.35146944305">
		<tag k="alt_name" v="Vekslitjørna" />
		<tag k="name" v="Vegslitjørna" />
>>>>>>> e1d4bc35ff8a6074a6f2e91616a996b547c36f15
		<tag k="natural" v="water" />
		<tag k="ssr:stedsnr" v="462388" />
	</node>
<<<<<<< HEAD
	<node lat="59.87320613046201" lon="5.384002085979935" id="-25430">
		<tag k="name" v="Skjeningetjørna" />
=======
	<node id="-606541" lat="59.8516274665" lon="5.38700849445">
		<tag k="name" v="Tausavatnet" />
>>>>>>> e1d4bc35ff8a6074a6f2e91616a996b547c36f15
		<tag k="natural" v="water" />
		<tag k="ssr:stedsnr" v="367926" />
	</node>
<<<<<<< HEAD
	<node lat="59.88152778130976" lon="5.362036102425177" id="-25431">
		<tag k="name" v="Tveitaelva" />
		<tag k="ssr:stedsnr" v="368592" />
		<tag k="waterway" v="stream" />
	</node>
	<node lat="59.86154682668552" lon="5.305920630830093" id="-25438">
		<tag k="name" v="Risdalstjørna" />
=======
	<node id="-606024" lat="59.8605166681" lon="5.33045000108">
		<tag k="name" v="Klovadalstjørna" />
		<tag k="natural" v="water" />
		<tag k="ssr:stedsnr" v="732895" />
	</node>
	<node id="-606022" lat="59.858095458" lon="5.41145501369">
		<tag k="name" v="Gavlavatna" />
>>>>>>> e1d4bc35ff8a6074a6f2e91616a996b547c36f15
		<tag k="natural" v="water" />
		<tag k="ssr:stedsnr" v="401413" />
	</node>
<<<<<<< HEAD
	<node lat="59.90888233961132" lon="5.2366567392087315" id="-25456">
		<tag k="alt_name" v="Kvednavatnet" />
		<tag k="name" v="Ivarsøyvatnet" />
=======
	<node id="-606021" lat="59.9175268241" lon="5.363655406">
		<tag k="name" v="Skrikefosstjørna" />
>>>>>>> e1d4bc35ff8a6074a6f2e91616a996b547c36f15
		<tag k="natural" v="water" />
		<tag k="ssr:stedsnr" v="489863" />
	</node>
<<<<<<< HEAD
	<node lat="59.86262499724783" lon="5.326075006731854" id="-25464">
		<tag k="name" v="Stemmetjørna" />
=======
	<node id="-606020" lat="59.9046166669" lon="5.43756388971">
		<tag k="name" v="Djupatjørna" />
>>>>>>> e1d4bc35ff8a6074a6f2e91616a996b547c36f15
		<tag k="natural" v="water" />
		<tag k="ssr:stedsnr" v="428913" />
	</node>
<<<<<<< HEAD
	<node lat="59.89653236518884" lon="5.37787564611024" id="-25484">
		<tag k="name" v="Ådnetjørna" />
=======
	<node id="-606522" lat="59.905622543" lon="5.23690132375">
		<tag k="name" v="Litlavatnet" />
>>>>>>> e1d4bc35ff8a6074a6f2e91616a996b547c36f15
		<tag k="natural" v="water" />
		<tag k="ssr:stedsnr" v="671835" />
	</node>
<<<<<<< HEAD
	<node lat="59.84581245349562" lon="5.386752199526768" id="-25488">
		<tag k="name" v="Fuglatjørna" />
=======
	<node id="-606518" lat="59.8767314092" lon="5.30298460607">
		<tag k="name" v="Mehaugtjørna" />
>>>>>>> e1d4bc35ff8a6074a6f2e91616a996b547c36f15
		<tag k="natural" v="water" />
		<tag k="ssr:stedsnr" v="462004" />
	</node>
<<<<<<< HEAD
	<node lat="59.940865777355846" lon="5.265584188271934" id="-25500">
		<tag k="name" v="Geitatjørna" />
=======
	<node id="-606510" lat="59.920978493" lon="5.24781321409">
		<tag k="name" v="Engesundsvatnet" />
>>>>>>> e1d4bc35ff8a6074a6f2e91616a996b547c36f15
		<tag k="natural" v="water" />
		<tag k="ssr:stedsnr" v="463011" />
	</node>
<<<<<<< HEAD
	<node lat="59.869041662792576" lon="5.3615472198148275" id="-25502">
		<tag k="name" v="Rødlandselva" />
		<tag k="ssr:stedsnr" v="489911" />
		<tag k="waterway" v="river" />
	</node>
	<node lat="59.85975564209084" lon="5.317755146688094" id="-25524">
		<tag k="name" v="Svanarindetjørnane" />
=======
	<node id="-605995" lat="59.9031296329" lon="5.28804451821">
		<tag k="name" v="Russigletjørna" />
>>>>>>> e1d4bc35ff8a6074a6f2e91616a996b547c36f15
		<tag k="natural" v="water" />
		<tag k="ssr:stedsnr" v="523462" />
		<tag k="water" v="lake" />
	</node>
<<<<<<< HEAD
	<node lat="59.86811388469143" lon="5.31892500066721" id="-25525">
		<tag k="name" v="Bustetjørna" />
=======
	<node id="-605992" lat="59.8212582201" lon="5.32353622729">
		<tag k="name" v="Bergatjørna" />
>>>>>>> e1d4bc35ff8a6074a6f2e91616a996b547c36f15
		<tag k="natural" v="water" />
		<tag k="ssr:stedsnr" v="549915" />
	</node>
<<<<<<< HEAD
	<node lat="59.903129632858686" lon="5.288044518211813" id="-25542">
		<tag k="name" v="Russigletjørna" />
=======
	<node id="-605976" lat="59.8418663931" lon="5.33205381478">
		<tag k="name" v="Råtatjørn" />
>>>>>>> e1d4bc35ff8a6074a6f2e91616a996b547c36f15
		<tag k="natural" v="water" />
		<tag k="ssr:stedsnr" v="583097" />
	</node>
<<<<<<< HEAD
	<node lat="59.94824934380252" lon="5.330160663288895" id="-25557">
		<tag k="name" v="Landatjørna" />
=======
	<node id="-606484" lat="59.8755842512" lon="5.29474400171">
		<tag k="name" v="Furevatnet" />
>>>>>>> e1d4bc35ff8a6074a6f2e91616a996b547c36f15
		<tag k="natural" v="water" />
		<tag k="ssr:stedsnr" v="610822" />
	</node>
<<<<<<< HEAD
	<node lat="59.9125527807244" lon="5.463116663633617" id="-25559">
=======
	<node id="-606479" lat="59.9125527807" lon="5.46311666363">
>>>>>>> e1d4bc35ff8a6074a6f2e91616a996b547c36f15
		<tag k="name" v="Hageelva" />
		<tag k="ssr:stedsnr" v="610888" />
		<tag k="waterway" v="stream" />
	</node>
<<<<<<< HEAD
	<node lat="59.841866393106486" lon="5.332053814776659" id="-25575">
		<tag k="name" v="Råtatjørn" />
=======
	<node id="-606478" lat="59.902372662" lon="5.38696197947">
		<tag k="name" v="Kinnavatnet" />
>>>>>>> e1d4bc35ff8a6074a6f2e91616a996b547c36f15
		<tag k="natural" v="water" />
		<tag k="ssr:stedsnr" v="705483" />
	</node>
<<<<<<< HEAD
	<node lat="59.92097849298311" lon="5.247813214093009" id="-25591">
		<tag k="name" v="Engesundsvatnet" />
=======
	<node id="-606475" lat="59.88625571" lon="5.23650640871">
		<tag k="name" v="Sildavågsvatnet" />
>>>>>>> e1d4bc35ff8a6074a6f2e91616a996b547c36f15
		<tag k="natural" v="water" />
		<tag k="ssr:stedsnr" v="644492" />
		<tag k="water" v="lake" />
	</node>
<<<<<<< HEAD
	<node lat="59.87140034679472" lon="5.318523253763028" id="-25597">
=======
	<node id="-606474" lat="59.8415068757" lon="5.32912323845">
		<tag k="name" v="Larstjørna" />
		<tag k="natural" v="water" />
		<tag k="ssr:stedsnr" v="611000" />
	</node>
	<node id="-606472" lat="59.9482493438" lon="5.33016066329">
		<tag k="name" v="Landatjørna" />
		<tag k="natural" v="water" />
		<tag k="ssr:stedsnr" v="610822" />
	</node>
	<node id="-605954" lat="59.8714003468" lon="5.31852325376">
>>>>>>> e1d4bc35ff8a6074a6f2e91616a996b547c36f15
		<tag k="name" v="Leirdalstjørna" />
		<tag k="natural" v="water" />
		<tag k="ssr:stedsnr" v="671930" />
	</node>
<<<<<<< HEAD
	<node lat="59.967276525169744" lon="5.358457625777541" id="-25603">
		<tag k="name" v="Færøysundsvatnet" />
=======
	<node id="-605952" lat="59.8965323652" lon="5.37787564611">
		<tag k="name" v="Ådnetjørna" />
>>>>>>> e1d4bc35ff8a6074a6f2e91616a996b547c36f15
		<tag k="natural" v="water" />
		<tag k="ssr:stedsnr" v="705031" />
		<tag k="water" v="lake" />
	</node>
<<<<<<< HEAD
	<node lat="59.86051666809301" lon="5.330450001075346" id="-25612">
		<tag k="name" v="Klovadalstjørna" />
=======
	<node id="-605938" lat="59.9408657774" lon="5.26558418827">
		<tag k="name" v="Geitatjørna" />
>>>>>>> e1d4bc35ff8a6074a6f2e91616a996b547c36f15
		<tag k="natural" v="water" />
		<tag k="ssr:stedsnr" v="732895" />
	</node>
<<<<<<< HEAD
	<node lat="59.90703020618975" lon="5.33121950736285" id="-25616">
		<tag k="name" v="Tjørnsendebekken" />
		<tag k="ssr:stedsnr" v="765108" />
		<tag k="waterway" v="stream" />
	</node>
	<node lat="59.90562254299709" lon="5.236901323749274" id="-25617">
		<tag k="name" v="Litlavatnet" />
=======
	<node id="-605936" lat="59.8626249972" lon="5.32607500673">
		<tag k="name" v="Stemmetjørna" />
>>>>>>> e1d4bc35ff8a6074a6f2e91616a996b547c36f15
		<tag k="natural" v="water" />
		<tag k="ssr:stedsnr" v="765408" />
		<tag k="water" v="lake" />
	</node>
<<<<<<< HEAD
	<node lat="59.939686114518366" lon="5.408024993479308" id="-25640">
		<tag k="alt_name" v="Vestvikelva" />
		<tag k="name" v="Vistvikelva" />
		<tag k="ssr:stedsnr" v="914794" />
		<tag k="waterway" v="stream" />
	</node>
	<node lat="59.825633334402234" lon="5.345244438683964" id="-25655">
		<tag k="name" v="Bergabergbekken" />
		<tag k="ssr:stedsnr" v="826108" />
		<tag k="waterway" v="stream" />
	</node>
	<node lat="59.85563740907636" lon="5.3426441564752345" id="-25667">
		<tag k="name" v="Midttjørna" />
=======
	<node id="-605935" lat="59.8938639915" lon="5.36712008101">
		<tag k="alt_name" v="Rompetjørna" />
		<tag k="name" v="Rumpetjørna" />
>>>>>>> e1d4bc35ff8a6074a6f2e91616a996b547c36f15
		<tag k="natural" v="water" />
		<tag k="ssr:stedsnr" v="853915" />
	</node>
<<<<<<< HEAD
	<node lat="59.92244592027131" lon="5.408512557695007" id="-25671">
		<tag k="name" v="Kvernavatnet" />
=======
	<node id="-605932" lat="59.9425298447" lon="5.27221910238">
		<tag k="name" v="Storavatnet" />
>>>>>>> e1d4bc35ff8a6074a6f2e91616a996b547c36f15
		<tag k="natural" v="water" />
		<tag k="ssr:stedsnr" v="854742" />
	</node>
<<<<<<< HEAD
	<node lat="59.89639999666686" lon="5.334605557486461" id="-25672">
		<tag k="name" v="Vikeelva" />
		<tag k="ssr:stedsnr" v="887110" />
		<tag k="waterway" v="stream" />
	</node>
	<node lat="59.86724400067664" lon="5.413838197033393" id="-25689">
		<tag k="alt_name" v="Sørlivatnet, ytste" />
		<tag k="name" v="Ytste Sørlivatnet" />
=======
	<node id="-606432" lat="59.8378542235" lon="5.33884454817">
		<tag k="name" v="Langavatnet" />
>>>>>>> e1d4bc35ff8a6074a6f2e91616a996b547c36f15
		<tag k="natural" v="water" />
		<tag k="ssr:stedsnr" v="914916" />
		<tag k="water" v="lake" />
	</node>
<<<<<<< HEAD
	<node lat="59.86454810622286" lon="5.379584786191134" id="-25690">
		<tag k="name" v="Kvernavatnet" />
=======
	<node id="-606428" lat="59.8681138847" lon="5.31892500067">
		<tag k="name" v="Bustetjørna" />
>>>>>>> e1d4bc35ff8a6074a6f2e91616a996b547c36f15
		<tag k="natural" v="water" />
		<tag k="ssr:stedsnr" v="914919" />
	</node>
<<<<<<< HEAD
	<node lat="59.9633670728372" lon="5.373932521826141" id="-25695">
		<tag k="loc_name" v="Engevikfossen;Engjavikfossen" />
		<tag k="name" v="Engjavikefossen" />
		<tag k="natural" v="waterfall" />
		<tag k="ssr:stedsnr" v="948002" />
	</node>
	<node lat="59.858952286507225" lon="5.311781341607389" id="-25719">
		<tag k="name" v="Storeviktjørna" />
=======
	<node id="-606426" lat="59.8592067344" lon="5.34277289347">
		<tag k="name" v="Nordretjørna" />
>>>>>>> e1d4bc35ff8a6074a6f2e91616a996b547c36f15
		<tag k="natural" v="water" />
		<tag k="ssr:stedsnr" v="3905" />
	</node>
<<<<<<< HEAD
	<node lat="59.87664317122864" lon="5.246002040154281" id="-25721">
		<tag k="name" v="Storhaugvatnet" />
=======
	<node id="-606425" lat="59.8979638845" lon="5.18593333242">
		<tag k="name" v="Bassnesvatnet" />
>>>>>>> e1d4bc35ff8a6074a6f2e91616a996b547c36f15
		<tag k="natural" v="water" />
		<tag k="ssr:stedsnr" v="3925" />
	</node>
<<<<<<< HEAD
	<node lat="59.9061166673664" lon="5.358019439528179" id="-25723">
		<tag k="name" v="Kråbekken" />
		<tag k="ssr:stedsnr" v="3851" />
		<tag k="waterway" v="stream" />
	</node>
	<node lat="59.90332174570324" lon="5.399643270746359" id="-25724">
		<tag k="name" v="Svartatjørn" />
=======
	<node id="-605912" lat="59.8690416628" lon="5.36154721981">
		<tag k="alt_name" v="Rydlandselva" />
		<tag k="name" v="Røydlauselva" />
		<tag k="ssr:stedsnr" v="489911" />
		<tag k="waterway" v="stream" />
	</node>
	<node id="-606423" lat="59.9465861628" lon="5.26187198444">
		<tag k="name" v="Litlavatnet" />
>>>>>>> e1d4bc35ff8a6074a6f2e91616a996b547c36f15
		<tag k="natural" v="water" />
		<tag k="ssr:stedsnr" v="3852" />
	</node>
<<<<<<< HEAD
	<node lat="59.909661806637644" lon="5.3773335223727035" id="-25726">
		<tag k="name" v="Olstjørna" />
=======
	<node id="-605908" lat="59.9088823396" lon="5.23665673921">
		<tag k="alt_name" v="Kvednavatnet" />
		<tag k="name" v="Ivarsøyvatnet" />
>>>>>>> e1d4bc35ff8a6074a6f2e91616a996b547c36f15
		<tag k="natural" v="water" />
		<tag k="ssr:stedsnr" v="3862" />
	</node>
<<<<<<< HEAD
	<node lat="59.908738703548124" lon="5.3287739397311205" id="-25739">
		<tag k="name" v="Rimbereidtjørna" />
		<tag k="natural" v="water" />
		<tag k="ssr:stedsnr" v="37132" />
	</node>
	<node lat="59.900628197908546" lon="5.307742753421397" id="-25748">
		<tag k="name" v="Kjeneseid" />
		<tag k="place" v="locality" />
		<tag k="ssr:stedsnr" v="38279" />
	</node>
	<node lat="59.8479444431373" lon="5.389663895233534" id="-25753">
		<tag k="name" v="Svalevatnet" />
=======
	<node id="-606419" lat="59.9576333365" lon="5.35024999081">
		<tag k="name" v="Svartegjoelva" />
		<tag k="ssr:stedsnr" v="549178" />
		<tag k="waterway" v="stream" />
	</node>
	<node id="-606409" lat="59.8597556421" lon="5.31775514669">
		<tag k="name" v="Svanarindetjørnane" />
>>>>>>> e1d4bc35ff8a6074a6f2e91616a996b547c36f15
		<tag k="natural" v="water" />
		<tag k="ssr:stedsnr" v="64899" />
	</node>
<<<<<<< HEAD
	<node lat="59.929025003855955" lon="5.343813883447606" id="-25762">
		<tag k="name" v="Rakabekken" />
		<tag k="ssr:stedsnr" v="65790" />
		<tag k="waterway" v="stream" />
	</node>
	<node lat="59.913330227600035" lon="5.244114270128481" id="-25769">
		<tag k="name" v="Lomtjørna" />
=======
	<node id="-606389" lat="59.9253750031" lon="5.44970000657">
		<tag k="name" v="Raunholmselva" />
		<tag k="ssr:stedsnr" v="429757" />
		<tag k="waterway" v="stream" />
	</node>
	<node id="-605871" lat="59.8521825577" lon="5.33411385068">
		<tag k="name" v="Fagerskogtjørna" />
>>>>>>> e1d4bc35ff8a6074a6f2e91616a996b547c36f15
		<tag k="natural" v="water" />
		<tag k="ssr:stedsnr" v="98432" />
	</node>
<<<<<<< HEAD
	<node lat="59.91082939715328" lon="5.244352147392261" id="-25786">
		<tag k="name" v="Botnavatnet" />
=======
	<node id="-605858" lat="59.8458124535" lon="5.38675219953">
		<tag k="name" v="Fuglatjørna" />
>>>>>>> e1d4bc35ff8a6074a6f2e91616a996b547c36f15
		<tag k="natural" v="water" />
		<tag k="ssr:stedsnr" v="125873" />
	</node>
<<<<<<< HEAD
	<node lat="59.83092724785846" lon="5.331726389137952" id="-25791">
		<tag k="name" v="Sætratjørna" />
=======
	<node id="-606367" lat="59.8615468267" lon="5.30592063083">
		<tag k="name" v="Risdalstjørna" />
>>>>>>> e1d4bc35ff8a6074a6f2e91616a996b547c36f15
		<tag k="natural" v="water" />
		<tag k="ssr:stedsnr" v="125984" />
	</node>
<<<<<<< HEAD
	<node lat="59.90644021110983" lon="5.297660863032828" id="-25802">
		<tag k="name" v="Vestbøstadtjørna" />
		<tag k="natural" v="water" />
		<tag k="ssr:stedsnr" v="159088" />
	</node>
	<node lat="59.881061108296436" lon="5.431275003124882" id="-25812">
		<tag k="name" v="Kongsskogvatnet" />
=======
	<node id="-606364" lat="59.855017587" lon="5.33299754817">
		<tag k="name" v="Osphovdetjørna" />
		<tag k="natural" v="water" />
		<tag k="ssr:stedsnr" v="401400" />
	</node>
	<node id="-605843" lat="59.9005294364" lon="5.30962347503">
		<tag k="name" v="Kjeneset" />
		<tag k="natural" v="cape" />
		<tag k="ssr:stedsnr" v="219114" />
	</node>
	<node id="-606348" lat="59.8210099504" lon="5.32675759499">
		<tag k="name" v="Botnatjørna" />
>>>>>>> e1d4bc35ff8a6074a6f2e91616a996b547c36f15
		<tag k="natural" v="water" />
		<tag k="ssr:stedsnr" v="185922" />
	</node>
<<<<<<< HEAD
	<node lat="59.93658055415214" lon="5.3740222291083946" id="-25815">
		<tag k="name" v="Kyrkjevatnet" />
=======
	<node id="-606346" lat="59.8533700058" lon="5.3873595915">
		<tag k="name" v="Tausatjørna" />
>>>>>>> e1d4bc35ff8a6074a6f2e91616a996b547c36f15
		<tag k="natural" v="water" />
		<tag k="ssr:stedsnr" v="186796" />
	</node>
<<<<<<< HEAD
	<node lat="59.867461108306465" lon="5.384166671339573" id="-25819">
		<tag k="name" v="Grasvatnet" />
=======
	<node id="-605832" lat="59.8707336265" lon="5.3499741725">
		<tag k="name" v="Jøtulbrutjørna" />
>>>>>>> e1d4bc35ff8a6074a6f2e91616a996b547c36f15
		<tag k="natural" v="water" />
		<tag k="ssr:stedsnr" v="186919" />
	</node>
<<<<<<< HEAD
	<node lat="59.90052943643114" lon="5.309623475034398" id="-25823">
		<tag k="name" v="Kjeneset" />
		<tag k="natural" v="cape" />
		<tag k="ssr:stedsnr" v="219114" />
	</node>
	<node lat="59.92553888800391" lon="5.449563890848821" id="-25825">
		<tag k="name" v="Storkjosen" />
		<tag k="ssr:stedsnr" v="219048" />
		<tag k="waterway" v="stream" />
	</node>
	<node lat="59.823780559121495" lon="5.343002783892371" id="-25839">
=======
	<node id="-606342" lat="59.838706962" lon="5.36014887609">
		<tag k="name" v="Rundehaugtjørna" />
		<tag k="natural" v="water" />
		<tag k="ssr:stedsnr" v="369000" />
	</node>
	<node id="-605829" lat="59.8981194453" lon="5.2954583325">
		<tag k="name" v="Kjerelva" />
		<tag k="ssr:stedsnr" v="280081" />
		<tag k="waterway" v="river" />
	</node>
	<node id="-605828" lat="59.8237805591" lon="5.34300278389">
>>>>>>> e1d4bc35ff8a6074a6f2e91616a996b547c36f15
		<tag k="name" v="Kvednabekken" />
		<tag k="ssr:stedsnr" v="280073" />
		<tag k="waterway" v="stream" />
	</node>
<<<<<<< HEAD
	<node lat="59.89811944534753" lon="5.295458332496218" id="-25840">
		<tag k="name" v="Kjerelva" />
		<tag k="ssr:stedsnr" v="280081" />
		<tag k="waterway" v="river" />
	</node>
	<node lat="59.927086471863674" lon="5.367608261269754" id="-25842">
=======
	<node id="-606334" lat="59.8815277813" lon="5.36203610243">
		<tag k="name" v="Tveitaelva" />
		<tag k="ssr:stedsnr" v="368592" />
		<tag k="waterway" v="stream" />
	</node>
	<node id="-606333" lat="59.8732061305" lon="5.38400208598">
		<tag k="name" v="Skjeningetjørna" />
		<tag k="natural" v="water" />
		<tag k="ssr:stedsnr" v="367926" />
	</node>
	<node id="-605820" lat="59.9270864719" lon="5.36760826127">
>>>>>>> e1d4bc35ff8a6074a6f2e91616a996b547c36f15
		<tag k="name" v="Firatjørnane" />
		<tag k="natural" v="water" />
		<tag k="ssr:stedsnr" v="280055" />
		<tag k="water" v="lake" />
	</node>
<<<<<<< HEAD
	<node lat="59.870733626500105" lon="5.349974172504188" id="-25848">
		<tag k="name" v="Jøtulbrutjørna" />
=======
	<node id="-606328" lat="59.9017552325" lon="5.24981497124">
		<tag k="name" v="Sætravågsvatnet" />
>>>>>>> e1d4bc35ff8a6074a6f2e91616a996b547c36f15
		<tag k="natural" v="water" />
		<tag k="ssr:stedsnr" v="280381" />
	</node>
<<<<<<< HEAD
	<node lat="59.93261111053071" lon="5.431766669458698" id="-25861">
		<tag k="name" v="Hagbergselva" />
		<tag k="ssr:stedsnr" v="307777" />
		<tag k="waterway" v="stream" />
	</node>
	<node lat="59.93814999992299" lon="5.356205550493191" id="-25863">
		<tag k="name" v="Årskogelva" />
		<tag k="ssr:stedsnr" v="307793" />
		<tag k="waterway" v="stream" />
	</node>
	<node lat="59.91103055176921" lon="5.352363893060918" id="-25864">
		<tag k="name" v="Fitjarelva" />
		<tag k="ssr:stedsnr" v="307865" />
		<tag k="waterway" v="stream" />
	</node>
	<node lat="59.87063089753584" lon="5.3040117266818685" id="-25866">
		<tag k="alt_name" v="Sætrabøtjørnane;Seterbøtjørnane" />
		<tag k="name" v="Sæterbøtjørnane" />
=======
	<node id="-606326" lat="59.8793131556" lon="5.24238705849">
		<tag k="name" v="Midtvatnet" />
>>>>>>> e1d4bc35ff8a6074a6f2e91616a996b547c36f15
		<tag k="natural" v="water" />
		<tag k="ssr:stedsnr" v="307928" />
		<tag k="water" v="lake" />
	</node>
<<<<<<< HEAD
	<node lat="59.86824034155177" lon="5.253403325169278" id="-25867">
		<tag k="name" v="Kvernavatnet" />
=======
	<node id="-606315" lat="59.8247342015" lon="5.33398299984">
		<tag k="name" v="Revurdtjørna" />
>>>>>>> e1d4bc35ff8a6074a6f2e91616a996b547c36f15
		<tag k="natural" v="water" />
		<tag k="ssr:stedsnr" v="307929" />
	</node>
<<<<<<< HEAD
	<node lat="59.89469046934808" lon="5.400287168745441" id="-25871">
		<tag k="name" v="Botnavatnet" />
=======
	<node id="-606314" lat="59.9618891304" lon="5.3198698509">
		<tag k="name" v="Tuftlandsvatnet" />
>>>>>>> e1d4bc35ff8a6074a6f2e91616a996b547c36f15
		<tag k="natural" v="water" />
		<tag k="ssr:stedsnr" v="307835" />
		<tag k="water" v="lake" />
	</node>
<<<<<<< HEAD
	<node lat="59.832493207016356" lon="5.3591267765601955" id="-25874">
=======
	<node id="-606304" lat="59.832493207" lon="5.35912677656">
>>>>>>> e1d4bc35ff8a6074a6f2e91616a996b547c36f15
		<tag k="alt_name" v="Røytetjørn;Røytetjørna" />
		<tag k="name" v="Kvernatjørna" />
		<tag k="natural" v="water" />
		<tag k="ssr:stedsnr" v="307985" />
	</node>
<<<<<<< HEAD
	<node lat="59.82473420147812" lon="5.3339829998374135" id="-25878">
		<tag k="name" v="Revurdtjørna" />
=======
	<node id="-606302" lat="59.8682403416" lon="5.25340332517">
		<tag k="name" v="Kvernavatnet" />
>>>>>>> e1d4bc35ff8a6074a6f2e91616a996b547c36f15
		<tag k="natural" v="water" />
		<tag k="ssr:stedsnr" v="341070" />
	</node>
<<<<<<< HEAD
	<node lat="59.961889130365655" lon="5.319869850900728" id="-25882">
		<tag k="alt_name" v="Tuftlandsvatnet" />
		<tag k="name" v="Tuftalandsvatnet" />
=======
	<node id="-606301" lat="59.8690115748" lon="5.30229056293">
		<tag k="name" v="Sætrabøtjørnane" />
>>>>>>> e1d4bc35ff8a6074a6f2e91616a996b547c36f15
		<tag k="natural" v="water" />
		<tag k="ssr:stedsnr" v="341033" />
		<tag k="water" v="lake" />
	</node>
<<<<<<< HEAD
	<node lat="59.87931315564479" lon="5.242387058489571" id="-25888">
		<tag k="name" v="Midtvatnet" />
		<tag k="natural" v="water" />
		<tag k="ssr:stedsnr" v="367801" />
	</node>
	<node lat="59.901755232481534" lon="5.249814971243498" id="-25889">
		<tag k="name" v="Sætravågsvatnet" />
=======
	<node id="-605788" lat="59.8259766081" lon="5.33898676694">
		<tag k="name" v="Stokkavatnet" />
		<tag k="natural" v="water" />
		<tag k="ssr:stedsnr" v="246968" />
	</node>
	<node id="-606299" lat="59.9110305518" lon="5.35236389306">
		<tag k="name" v="Fitjarelva" />
		<tag k="ssr:stedsnr" v="307865" />
		<tag k="waterway" v="stream" />
	</node>
	<node id="-605786" lat="59.9171361074" lon="5.3876555615">
		<tag k="name" v="Beinatjørna" />
>>>>>>> e1d4bc35ff8a6074a6f2e91616a996b547c36f15
		<tag k="natural" v="water" />
		<tag k="ssr:stedsnr" v="367830" />
	</node>
<<<<<<< HEAD
	<node lat="59.83870696202833" lon="5.360148876091785" id="-25899">
		<tag k="name" v="Rundehaugtjørna" />
=======
	<node id="-605785" lat="59.9145888894" lon="5.40168054904">
		<tag k="name" v="Svartavatnet" />
>>>>>>> e1d4bc35ff8a6074a6f2e91616a996b547c36f15
		<tag k="natural" v="water" />
		<tag k="ssr:stedsnr" v="369000" />
	</node>
<<<<<<< HEAD
	<node lat="59.82100995036315" lon="5.326757594992121" id="-25906">
		<tag k="name" v="Botnatjørna" />
		<tag k="natural" v="water" />
		<tag k="ssr:stedsnr" v="401097" />
	</node>
	<node lat="59.85337000576114" lon="5.387359591497189" id="-25910">
		<tag k="name" v="Tausatjørna" />
		<tag k="natural" v="water" />
		<tag k="ssr:stedsnr" v="401071" />
	</node>
	<node lat="59.85501758699795" lon="5.332997548168457" id="-25919">
		<tag k="name" v="Osphovdetjørna" />
=======
	<node id="-605783" lat="59.9081545313" lon="5.39299388217">
		<tag k="name" v="Midtvatnet" />
		<tag k="natural" v="water" />
		<tag k="ssr:stedsnr" v="246832" />
	</node>
	<node id="-606293" lat="59.9381499999" lon="5.35620555049">
		<tag k="name" v="Årskogelva" />
		<tag k="ssr:stedsnr" v="307793" />
		<tag k="waterway" v="stream" />
	</node>
	<node id="-606291" lat="59.9326111105" lon="5.43176666946">
		<tag k="name" v="Hagbergselva" />
		<tag k="ssr:stedsnr" v="307777" />
		<tag k="waterway" v="stream" />
	</node>
	<node id="-605778" lat="59.9379307138" lon="5.38773791638">
		<tag k="name" v="Langavatnet" />
>>>>>>> e1d4bc35ff8a6074a6f2e91616a996b547c36f15
		<tag k="natural" v="water" />
		<tag k="ssr:stedsnr" v="401400" />
	</node>
<<<<<<< HEAD
	<node lat="59.942529844702676" lon="5.272219102382951" id="-25922">
=======
	<node id="-605774" lat="59.8882617273" lon="5.32577964574">
>>>>>>> e1d4bc35ff8a6074a6f2e91616a996b547c36f15
		<tag k="name" v="Storavatnet" />
		<tag k="natural" v="water" />
		<tag k="ssr:stedsnr" v="428811" />
	</node>
<<<<<<< HEAD
	<node lat="59.89386399145594" lon="5.367120081013619" id="-25925">
		<tag k="alt_name" v="Rompetjørna" />
		<tag k="name" v="Rumpetjørna" />
		<tag k="natural" v="water" />
		<tag k="ssr:stedsnr" v="428834" />
	</node>
	<node lat="59.95763333647428" lon="5.35024999080745" id="-25955">
		<tag k="name" v="Svartegjoelva" />
		<tag k="ssr:stedsnr" v="549178" />
		<tag k="waterway" v="stream" />
	</node>
	<node lat="59.946586162790446" lon="5.261871984436966" id="-25957">
		<tag k="name" v="Litlavatnet" />
=======
	<node id="-606279" lat="59.8351059545" lon="5.36839685245">
		<tag k="name" v="Stemmetjørna" />
>>>>>>> e1d4bc35ff8a6074a6f2e91616a996b547c36f15
		<tag k="natural" v="water" />
		<tag k="ssr:stedsnr" v="549797" />
	</node>
<<<<<<< HEAD
	<node lat="59.89796388452929" lon="5.185933332422828" id="-25961">
		<tag k="name" v="Bassnesvatnet" />
=======
	<node id="-606278" lat="59.8674611083" lon="5.38416667134">
		<tag k="name" v="Grasvatnet" />
>>>>>>> e1d4bc35ff8a6074a6f2e91616a996b547c36f15
		<tag k="natural" v="water" />
		<tag k="ssr:stedsnr" v="549845" />
	</node>
<<<<<<< HEAD
	<node lat="59.837854223464916" lon="5.338844548171916" id="-25962">
		<tag k="name" v="Langavatnet" />
=======
	<node id="-605966" lat="59.9672765252" lon="5.35845762578">
		<tag k="name" v="Færøysundsvatnet" />
		<tag k="natural" v="water" />
		<tag k="ssr:stedsnr" v="705031" />
		<tag k="water" v="lake" />
	</node>
	<node id="-606273" lat="59.9365805542" lon="5.37402222911">
		<tag k="name" v="Kyrkjevatnet" />
>>>>>>> e1d4bc35ff8a6074a6f2e91616a996b547c36f15
		<tag k="natural" v="water" />
		<tag k="ssr:stedsnr" v="549999" />
		<tag k="water" v="lake" />
	</node>
<<<<<<< HEAD
	<node lat="59.85920673439899" lon="5.342772893468873" id="-25963">
		<tag k="name" v="Nordretjørna" />
=======
	<node id="-606270" lat="59.8810611083" lon="5.43127500312">
		<tag k="name" v="Kongsskogvatnet" />
>>>>>>> e1d4bc35ff8a6074a6f2e91616a996b547c36f15
		<tag k="natural" v="water" />
		<tag k="ssr:stedsnr" v="549894" />
	</node>
<<<<<<< HEAD
	<node lat="59.82125822010455" lon="5.323536227294876" id="-25977">
		<tag k="name" v="Bergatjørna" />
=======
	<node id="-606258" lat="59.9064402111" lon="5.29766086303">
		<tag k="name" v="Vestbøstadtjørna" />
>>>>>>> e1d4bc35ff8a6074a6f2e91616a996b547c36f15
		<tag k="natural" v="water" />
		<tag k="ssr:stedsnr" v="583080" />
	</node>
<<<<<<< HEAD
	<node lat="59.886255709957844" lon="5.236506408714012" id="-25990">
		<tag k="name" v="Sildavågsvatnet" />
=======
	<node id="-605742" lat="59.8827745842" lon="5.40774983291">
		<tag k="name" v="Klovskardvatnet" />
>>>>>>> e1d4bc35ff8a6074a6f2e91616a996b547c36f15
		<tag k="natural" v="water" />
		<tag k="ssr:stedsnr" v="610843" />
		<tag k="water" v="lake" />
	</node>
<<<<<<< HEAD
	<node lat="59.84150687567134" lon="5.329123238450229" id="-25995">
		<tag k="name" v="Larstjørna" />
=======
	<node id="-605739" lat="59.925538888" lon="5.44956389085">
		<tag k="name" v="Storkjosen" />
		<tag k="ssr:stedsnr" v="219048" />
		<tag k="waterway" v="stream" />
	</node>
	<node id="-606247" lat="59.8309272479" lon="5.33172638914">
		<tag k="name" v="Sætratjørna" />
>>>>>>> e1d4bc35ff8a6074a6f2e91616a996b547c36f15
		<tag k="natural" v="water" />
		<tag k="ssr:stedsnr" v="611000" />
	</node>
<<<<<<< HEAD
	<node lat="59.90237266202207" lon="5.386961979474671" id="-25998">
		<tag k="name" v="Kinnavatnet" />
=======
	<node id="-606241" lat="59.9108293972" lon="5.24435214739">
		<tag k="name" v="Botnavatnet" />
>>>>>>> e1d4bc35ff8a6074a6f2e91616a996b547c36f15
		<tag k="natural" v="water" />
		<tag k="ssr:stedsnr" v="610868" />
	</node>
<<<<<<< HEAD
	<node lat="59.875584251222435" lon="5.294744001711922" id="-26000">
		<tag k="name" v="Furevatnet" />
		<tag k="natural" v="water" />
		<tag k="ssr:stedsnr" v="610950" />
	</node>
	<node lat="59.91752682408127" lon="5.363655405995041" id="-26020">
		<tag k="name" v="Skrikefosstjørna" />
		<tag k="natural" v="water" />
		<tag k="ssr:stedsnr" v="732850" />
	</node>
	<node lat="59.858095457975985" lon="5.411455013690326" id="-26021">
		<tag k="name" v="Gavlavatna" />
		<tag k="natural" v="water" />
		<tag k="ssr:stedsnr" v="732886" />
		<tag k="water" v="lake" />
	</node>
	<node lat="59.90461666691757" lon="5.437563889706318" id="-26030">
		<tag k="name" v="Djupatjørna" />
		<tag k="natural" v="water" />
		<tag k="ssr:stedsnr" v="732840" />
	</node>
	<node lat="59.876731409211786" lon="5.30298460607061" id="-26036">
		<tag k="name" v="Mehaugtjørna" />
		<tag k="natural" v="water" />
		<tag k="ssr:stedsnr" v="765374" />
	</node>
	<node lat="59.96005828340137" lon="5.329619056104074" id="-26052">
		<tag k="name" v="Gloppevatnet" />
		<tag k="natural" v="water" />
		<tag k="ssr:stedsnr" v="793164" />
	</node>
	<node lat="59.92011352756308" lon="5.166604058923733" id="-26055">
		<tag k="name" v="Eggøyvatnet" />
		<tag k="natural" v="water" />
		<tag k="ssr:stedsnr" v="792762" />
	</node>
	<node lat="59.851627466497874" lon="5.387008494451751" id="-26060">
		<tag k="name" v="Tausavatnet" />
		<tag k="natural" v="water" />
		<tag k="ssr:stedsnr" v="792865" />
	</node>
	<node lat="59.844869444930794" lon="5.351469443045755" id="-26061">
		<tag k="alt_name" v="Vekslitjørna" />
		<tag k="name" v="Vegslitjørna" />
		<tag k="natural" v="water" />
		<tag k="ssr:stedsnr" v="792867" />
	</node>
	<node lat="59.87056730423206" lon="5.421939122720582" id="-26062">
		<tag k="alt_name" v="Sørlivatnet, inste;Øvre Sørlivatnet" />
		<tag k="name" v="Inste Sørlivatnet" />
		<tag k="natural" v="water" />
		<tag k="ssr:stedsnr" v="792900" />
		<tag k="water" v="lake" />
	</node>
	<node lat="59.896799998925744" lon="5.417436113745545" id="-26085">
		<tag k="name" v="Tveitaelva" />
		<tag k="ssr:stedsnr" v="853830" />
		<tag k="waterway" v="stream" />
	</node>
	<node lat="59.939679357060854" lon="5.361501529646404" id="-26089">
		<tag k="name" v="Løkjen" />
		<tag k="natural" v="water" />
		<tag k="ssr:stedsnr" v="853773" />
	</node>
	<node lat="59.90879307148943" lon="5.419535079174556" id="-26096">
		<tag k="name" v="Mosavatnet" />
		<tag k="natural" v="water" />
		<tag k="ssr:stedsnr" v="853871" />
		<tag k="water" v="lake" />
	</node>
	<node lat="59.93190555137044" lon="5.356138892598741" id="-26105">
		<tag k="name" v="Lomatjørna" />
		<tag k="natural" v="water" />
		<tag k="ssr:stedsnr" v="854763" />
	</node>
	<node lat="59.94135494876371" lon="5.268371154161944" id="-26125">
		<tag k="name" v="Stemmetjørna" />
		<tag k="natural" v="water" />
		<tag k="ssr:stedsnr" v="887027" />
	</node>
	<node lat="59.83750488451294" lon="5.343085942519416" id="-26132">
		<tag k="name" v="Straumhaugtjørn" />
		<tag k="natural" v="water" />
		<tag k="ssr:stedsnr" v="887420" />
=======
	<node id="-606297" lat="59.8946904693" lon="5.40028716875">
		<tag k="name" v="Botnavatnet" />
		<tag k="natural" v="water" />
		<tag k="ssr:stedsnr" v="307835" />
		<tag k="water" v="lake" />
	</node>
	<node id="-606210" lat="59.9133302276" lon="5.24411427013">
		<tag k="name" v="Lomtjørna" />
		<tag k="natural" v="water" />
		<tag k="ssr:stedsnr" v="98432" />
>>>>>>> e1d4bc35ff8a6074a6f2e91616a996b547c36f15
	</node>
</osm>
