<?xml version="1.0" encoding="UTF-8"?>
<osm version="0.6" generator="osmapis">
	<node lat="59.886383332789315" lon="5.317847223645145" id="-71402">
		<tag k="name" v="Hellandsneset" />
		<tag k="natural" v="cape" />
		<tag k="ssr:stedsnr" v="3808" />
	</node>
	<node lat="59.93398055766647" lon="5.135205555113081" id="-71404">
		<tag k="alt_name" v="Eggholmskjeret, nordre" />
		<tag k="fixme" v="consider seamark:type=rock or natural=shoal" />
		<tag k="name" v="Nordra Eggholmskjeret" />
		<tag k="place" v="islet" />
		<tag k="ssr:stedsnr" v="3792" />
	</node>
	<node lat="59.94892499953598" lon="5.407275001614521" id="-71405">
		<tag k="name" v="Laksneset" />
		<tag k="natural" v="cape" />
		<tag k="ssr:stedsnr" v="3795" />
	</node>
	<node lat="59.973411355846636" lon="5.353546101099897" id="-71407">
		<tag k="alt_name" v="Færøya" />
		<tag k="name" v="Færøy" />
		<tag k="place" v="island" />
		<tag k="ssr:stedsnr" v="4181" />
	</node>
	<node lat="59.9635095372735" lon="5.3516774903995765" id="-71408">
		<tag k="alt_name" v="Levågpollen" />
		<tag k="name" v="Pollen" />
		<tag k="natural" v="bay" />
		<tag k="ssr:stedsnr" v="4193" />
	</node>
	<node lat="59.945902774147584" lon="5.323172225258702" id="-71411">
		<tag k="name" v="Lambavika" />
		<tag k="natural" v="bay" />
		<tag k="ssr:stedsnr" v="220051" />
	</node>
	<node lat="59.91094166635363" lon="5.285566674757318" id="-71412">
		<tag k="name" v="Notaklubben" />
		<tag k="natural" v="cape" />
		<tag k="ssr:stedsnr" v="220132" />
	</node>
	<node lat="59.937444848279654" lon="5.205466450372072" id="-71413">
		<tag k="name" v="Kråkeholmen" />
		<tag k="place" v="islet" />
		<tag k="ssr:stedsnr" v="220462" />
	</node>
	<node lat="59.92963888912364" lon="5.240261103943174" id="-71416">
		<tag k="name" v="Madsagavlen" />
		<tag k="natural" v="cape" />
		<tag k="ssr:stedsnr" v="220500" />
	</node>
	<node lat="59.89917499585589" lon="5.15638333654776" id="-71417">
		<tag k="name" v="Bakkaslumpen" />
		<tag k="natural" v="bay" />
		<tag k="ssr:stedsnr" v="220521" />
	</node>
	<node lat="59.913522217881926" lon="5.269274993690542" id="-71418">
		<tag k="name" v="Eldøyeidet" />
		<tag k="place" v="island" />
		<tag k="ssr:stedsnr" v="220526" />
	</node>
	<node lat="59.886894445165076" lon="5.296266674647005" id="-71419">
		<tag k="name" v="Straumvika" />
		<tag k="natural" v="bay" />
		<tag k="ssr:stedsnr" v="220478" />
	</node>
	<node lat="59.88621110742334" lon="5.255327775616663" id="-71420">
		<tag k="name" v="Straumøybleikjene" />
		<tag k="place" v="island" />
		<tag k="ssr:stedsnr" v="220481" />
	</node>
	<node lat="59.94337222625607" lon="5.235649993859563" id="-71421">
		<tag k="name" v="Engesundsleia" />
		<tag k="natural" v="strait" />
		<tag k="ssr:stedsnr" v="25779" />
	</node>
	<node lat="59.90020555257125" lon="5.282347227414371" id="-71424">
		<tag k="name" v="Midtstykket" />
		<tag k="place" v="island" />
		<tag k="ssr:stedsnr" v="37158" />
	</node>
	<node lat="59.895961110616405" lon="5.29961667239969" id="-71425">
		<tag k="name" v="Ådnepøyla" />
		<tag k="natural" v="bay" />
		<tag k="ssr:stedsnr" v="37163" />
	</node>
	<node lat="59.902622220098046" lon="5.181825000807081" id="-71426">
		<tag k="name" v="Bassneset" />
		<tag k="natural" v="cape" />
		<tag k="ssr:stedsnr" v="37501" />
	</node>
	<node lat="59.953044441602394" lon="5.320527775863166" id="-71429">
		<tag k="name" v="Gloppeneset" />
		<tag k="natural" v="cape" />
		<tag k="ssr:stedsnr" v="38036" />
	</node>
	<node lat="59.94058888632104" lon="5.241908338904973" id="-71432">
		<tag k="name" v="Leiarholmen" />
		<tag k="place" v="islet" />
		<tag k="ssr:stedsnr" v="64820" />
	</node>
	<node lat="59.9012668757599" lon="5.277591107826207" id="-71435">
		<tag k="name" v="Hundsryggesundet" />
		<tag k="natural" v="strait" />
		<tag k="ssr:stedsnr" v="64876" />
	</node>
	<node lat="59.85351388632849" lon="5.293861111161118" id="-71436">
		<tag k="name" v="Dåsholmen" />
		<tag k="place" v="islet" />
		<tag k="ssr:stedsnr" v="64919" />
	</node>
	<node lat="59.8935245409383" lon="5.20670318493037" id="-71438">
		<tag k="name" v="Bøvika" />
		<tag k="natural" v="bay" />
		<tag k="ssr:stedsnr" v="65552" />
	</node>
	<node lat="59.971775000977495" lon="5.3051194489642794" id="-71439">
		<tag k="name" v="Korsvik" />
		<tag k="natural" v="bay" />
		<tag k="ssr:stedsnr" v="86274" />
	</node>
	<node lat="59.91471944747169" lon="5.25512500346816" id="-71445">
		<tag k="name" v="Skatholmsflakket" />
		<tag k="place" v="island" />
		<tag k="ssr:stedsnr" v="98118" />
	</node>
	<node lat="59.91542500131698" lon="5.277041664338333" id="-71446">
		<tag k="name" v="Ildebleikja" />
		<tag k="place" v="island" />
		<tag k="ssr:stedsnr" v="98122" />
	</node>
	<node lat="59.856977781235614" lon="5.299855555420348" id="-71447">
		<tag k="name" v="Bokenes" />
		<tag k="natural" v="cape" />
		<tag k="ssr:stedsnr" v="98411" />
	</node>
	<node lat="59.86359167013011" lon="5.247944440029183" id="-71448">
		<tag k="name" v="Øspevikneset" />
		<tag k="natural" v="cape" />
		<tag k="ssr:stedsnr" v="98473" />
	</node>
	<node lat="59.91071110797192" lon="5.203850008031369" id="-71449">
		<tag k="name" v="Nordre Langøyvågen" />
		<tag k="natural" v="bay" />
		<tag k="ssr:stedsnr" v="98482" />
	</node>
	<node lat="59.89033333370291" lon="5.210927775695197" id="-71451">
		<tag k="name" v="Tranøyneset" />
		<tag k="natural" v="cape" />
		<tag k="ssr:stedsnr" v="98521" />
	</node>
	<node lat="59.97475555383268" lon="5.326727774747297" id="-71454">
		<tag k="name" v="Grønevik" />
		<tag k="natural" v="bay" />
		<tag k="ssr:stedsnr" v="99010" />
	</node>
	<node lat="59.90116666935059" lon="5.220369450497364" id="-71456">
		<tag k="alt_name" v="Sildevågosen" />
		<tag k="name" v="Sildaosen" />
		<tag k="natural" v="strait" />
		<tag k="ssr:stedsnr" v="124823" />
	</node>
	<node lat="59.969627774194116" lon="5.334836102860952" id="-71457">
		<tag k="name" v="Sandvikvågen" />
		<tag k="natural" v="bay" />
		<tag k="ssr:stedsnr" v="125207" />
	</node>
	<node lat="59.81636666690204" lon="5.328166663519327" id="-71458">
		<tag k="name" v="Slåttevika" />
		<tag k="natural" v="bay" />
		<tag k="ssr:stedsnr" v="125546" />
	</node>
	<node lat="59.85771666747106" lon="5.291194450905152" id="-71461">
		<tag k="name" v="Koløy" />
		<tag k="place" v="island" />
		<tag k="ssr:stedsnr" v="125912" />
	</node>
	<node lat="59.93666389002755" lon="5.324144438235267" id="-71462">
		<tag k="name" v="Leirpollneset" />
		<tag k="natural" v="cape" />
		<tag k="ssr:stedsnr" v="125808" />
	</node>
	<node lat="59.93443333413565" lon="5.2161861093665065" id="-71463">
		<tag k="name" v="Flatøy" />
		<tag k="place" v="island" />
		<tag k="ssr:stedsnr" v="125812" />
	</node>
	<node lat="59.9342027769948" lon="5.184830556203589" id="-71464">
		<tag k="alt_name" v="Nordra Sigleskjeret" />
		<tag k="fixme" v="consider seamark:type=rock or natural=shoal" />
		<tag k="name" v="Sigleskjeret" />
		<tag k="place" v="islet" />
		<tag k="ssr:stedsnr" v="125814" />
	</node>
	<node lat="59.9031888859003" lon="5.152333330114355" id="-71466">
		<tag k="alt_name" v="Soløy" />
		<tag k="name" v="Stora Soløy" />
		<tag k="place" v="island" />
		<tag k="ssr:stedsnr" v="240769" />
	</node>
	<node lat="59.959363650436" lon="5.291757900696551" id="-71467">
		<tag k="name" v="Skumsneset" />
		<tag k="natural" v="cape" />
		<tag k="ssr:stedsnr" v="146024" />
	</node>
	<node lat="59.971102777741855" lon="5.333450004692437" id="-71468">
		<tag k="name" v="Storholmen" />
		<tag k="place" v="islet" />
		<tag k="ssr:stedsnr" v="159017" />
	</node>
	<node lat="59.912405555579454" lon="5.20493333599379" id="-71471">
		<tag k="name" v="Dalsvågen" />
		<tag k="natural" v="bay" />
		<tag k="ssr:stedsnr" v="159504" />
	</node>
	<node lat="59.91230000314669" lon="5.154149999375226" id="-71472">
		<tag k="name" v="Osableikja" />
		<tag k="place" v="island" />
		<tag k="ssr:stedsnr" v="159508" />
	</node>
	<node lat="59.89216111345481" lon="5.214722229971325" id="-71474">
		<tag k="name" v="Vestre Vika" />
		<tag k="natural" v="bay" />
		<tag k="ssr:stedsnr" v="159538" />
	</node>
	<node lat="59.87632222441017" lon="5.213872213870336" id="-71475">
		<tag k="name" v="Store Knottholmen" />
		<tag k="place" v="islet" />
		<tag k="ssr:stedsnr" v="159541" />
	</node>
	<node lat="59.91184444161363" lon="5.124561108783451" id="-71476">
		<tag k="name" v="Klamrøysundet" />
		<tag k="natural" v="strait" />
		<tag k="ssr:stedsnr" v="159550" />
	</node>
	<node lat="59.88599166521665" lon="5.197372231071265" id="-71477">
		<tag k="name" v="Austre Natterøysundet" />
		<tag k="natural" v="strait" />
		<tag k="ssr:stedsnr" v="159553" />
	</node>
	<node lat="59.932394444035495" lon="5.200674991535133" id="-71479">
		<tag k="alt_name" v="Siglevågen, nordre;Siglevågen" />
		<tag k="name" v="Nordre Siglevågen" />
		<tag k="natural" v="bay" />
		<tag k="ssr:stedsnr" v="246769" />
	</node>
	<node lat="59.833291670907734" lon="5.318325006133633" id="-71484">
		<tag k="alt_name" v="Skardavika;Skardavik" />
		<tag k="name" v="Skaravågen" />
		<tag k="natural" v="bay" />
		<tag k="ssr:stedsnr" v="246987" />
	</node>
	<node lat="59.91625277483619" lon="5.203811107575258" id="-71485">
		<tag k="alt_name" v="Arneholmen" />
		<tag k="name" v="Ådneholmen" />
		<tag k="place" v="islet" />
		<tag k="ssr:stedsnr" v="247760" />
	</node>
	<node lat="59.90888333416417" lon="5.257580563819007" id="-71487">
		<tag k="name" v="Flatholmen" />
		<tag k="place" v="islet" />
		<tag k="ssr:stedsnr" v="186872" />
	</node>
	<node lat="59.93190277947126" lon="5.132366669765433" id="-71490">
		<tag k="name" v="Hetta" />
		<tag k="natural" v="shoal" />
		<tag k="place" v="locality" />
		<tag k="ssr:stedsnr" v="207062" />
	</node>
	<node lat="59.98143333008536" lon="5.319091659746074" id="-71492">
		<tag k="name" v="Austreneset" />
		<tag k="natural" v="cape" />
		<tag k="ssr:stedsnr" v="207255" />
	</node>
	<node lat="59.85861944892058" lon="5.256286113874249" id="-71493">
		<tag k="alt_name" v="Vabeinsvikja" />
		<tag k="name" v="Vadbeinsvik" />
		<tag k="natural" v="bay" />
		<tag k="ssr:stedsnr" v="207760" />
	</node>
	<node lat="59.815283331084" lon="5.324183328668043" id="-71501">
		<tag k="fixme" v="consider seamark:type=rock or natural=shoal" />
		<tag k="name" v="Selevikskjeret" />
		<tag k="place" v="islet" />
		<tag k="ssr:stedsnr" v="220102" />
	</node>
	<node lat="59.81965555289328" lon="5.340522215470723" id="-71502">
		<tag k="name" v="Djupevika" />
		<tag k="natural" v="bay" />
		<tag k="ssr:stedsnr" v="220103" />
	</node>
	<node lat="59.877780555054834" lon="5.337758341194957" id="-71507">
		<tag k="name" v="Fureholmen" />
		<tag k="place" v="island" />
		<tag k="ssr:stedsnr" v="220435" />
	</node>
	<node lat="59.917105554491485" lon="5.145402775403129" id="-71509">
		<tag k="name" v="Eidøybogen" />
		<tag k="natural" v="bay" />
		<tag k="ssr:stedsnr" v="220507" />
	</node>
	<node lat="59.884291665775066" lon="5.206649993719982" id="-71510">
		<tag k="name" v="Langevågen" />
		<tag k="natural" v="bay" />
		<tag k="ssr:stedsnr" v="220548" />
	</node>
	<node lat="59.95479166679363" lon="5.279586109756444" id="-71511">
		<tag k="alt_name" v="Matløysa" />
		<tag k="name" v="Matløyso" />
		<tag k="place" v="islet" />
		<tag k="ssr:stedsnr" v="246179" />
	</node>
	<node lat="59.94408055747951" lon="5.261258327739444" id="-71513">
		<tag k="alt_name" v="Keila, nordra" />
		<tag k="name" v="Nordra Keila" />
		<tag k="natural" v="bay" />
		<tag k="ssr:stedsnr" v="246783" />
	</node>
	<node lat="59.94829444518906" lon="5.260250000090609" id="-71514">
		<tag k="name" v="Litlavasskeila" />
		<tag k="natural" v="bay" />
		<tag k="ssr:stedsnr" v="246784" />
	</node>
	<node lat="59.81891111044493" lon="5.320758341905132" id="-71518">
		<tag k="name" v="Selevikneset" />
		<tag k="natural" v="cape" />
		<tag k="ssr:stedsnr" v="267380" />
	</node>
	<node lat="59.90970555931161" lon="5.2842861113911255" id="-71519">
		<tag k="alt_name" v="Tjøregravsundet" />
		<tag k="name" v="Tjøregrovsundet" />
		<tag k="natural" v="strait" />
		<tag k="ssr:stedsnr" v="268066" />
	</node>
	<node lat="59.97368093873717" lon="5.327205590086905" id="-71520">
		<tag k="alt_name" v="Erevik" />
		<tag k="name" v="Ærevik" />
		<tag k="natural" v="bay" />
		<tag k="ssr:stedsnr" v="268246" />
	</node>
	<node lat="59.934377781439984" lon="5.125091663819113" id="-71521">
		<tag k="name" v="Hettestallen" />
		<tag k="natural" v="shoal" />
		<tag k="place" v="locality" />
		<tag k="ssr:stedsnr" v="450069" />
	</node>
	<node lat="59.95382793964252" lon="5.316908225025185" id="-71522">
		<tag k="alt_name" v="Øyjordsvågen" />
		<tag k="name" v="Øydjordsvågen" />
		<tag k="natural" v="bay" />
		<tag k="ssr:stedsnr" v="450248" />
	</node>
	<node lat="59.90389166528623" lon="5.283458327115604" id="-71523">
		<tag k="name" v="Skjelfiskevika" />
		<tag k="natural" v="bay" />
		<tag k="ssr:stedsnr" v="280097" />
	</node>
	<node lat="59.886036111339635" lon="5.190663887400157" id="-71530">
		<tag k="name" v="Natterøy" />
		<tag k="place" v="island" />
		<tag k="ssr:stedsnr" v="307821" />
	</node>
	<node lat="59.88225748098116" lon="5.258148078386883" id="-71531">
		<tag k="alt_name" v="Bakkebleikjene" />
		<tag k="fixme" v="consider seamark:type=rock or natural=shoal" />
		<tag k="name" v="Bakkableikjene" />
		<tag k="place" v="islet" />
		<tag k="ssr:stedsnr" v="307825" />
	</node>
	<node lat="59.912744446880524" lon="5.289975006055858" id="-71533">
		<tag k="name" v="Nordresjøen" />
		<tag k="natural" v="bay" />
		<tag k="ssr:stedsnr" v="341106" />
	</node>
	<node lat="59.94244166596465" lon="5.325091669665548" id="-71536">
		<tag k="fixme" v="consider seamark:type=rock or natural=shoal" />
		<tag k="name" v="Kobbaskjeret" />
		<tag k="place" v="islet" />
		<tag k="ssr:stedsnr" v="341026" />
	</node>
	<node lat="59.88200833169374" lon="5.322988886414294" id="-71538">
		<tag k="name" v="Habbastøa" />
		<tag k="natural" v="bay" />
		<tag k="ssr:stedsnr" v="341416" />
	</node>
	<node lat="59.9138499974397" lon="5.149605548589597" id="-71541">
		<tag k="name" v="Eidøysanden" />
		<tag k="natural" v="bay" />
		<tag k="ssr:stedsnr" v="341506" />
	</node>
	<node lat="59.89725833770656" lon="5.179733335975876" id="-71542">
		<tag k="name" v="Søre Trollholmsvågen" />
		<tag k="natural" v="bay" />
		<tag k="ssr:stedsnr" v="341510" />
	</node>
	<node lat="59.942780554262825" lon="5.4315194508844895" id="-71543">
		<tag k="name" v="Strupen" />
		<tag k="natural" v="cape" />
		<tag k="ssr:stedsnr" v="462032" />
	</node>
	<node lat="59.869947225354615" lon="5.285583328483649" id="-71545">
		<tag k="name" v="Nordre Ondebortvika" />
		<tag k="natural" v="bay" />
		<tag k="ssr:stedsnr" v="462360" />
	</node>
	<node lat="59.86278055808973" lon="5.2946194441737" id="-71546">
		<tag k="name" v="Eide" />
		<tag k="natural" v="bay" />
		<tag k="ssr:stedsnr" v="462365" />
	</node>
	<node lat="59.92572414851026" lon="5.2226090651614765" id="-71547">
		<tag k="fixme" v="consider seamark:type=rock or natural=shoal" />
		<tag k="name" v="Silkebærbleikja" />
		<tag k="place" v="islet" />
		<tag k="ssr:stedsnr" v="462434" />
	</node>
	<node lat="59.86615833424961" lon="5.290080550942924" id="-71551">
		<tag k="name" v="Gapestokken" />
		<tag k="natural" v="cape" />
		<tag k="ssr:stedsnr" v="462392" />
	</node>
	<node lat="59.93473888797772" lon="5.184613882397781" id="-71554">
		<tag k="fixme" v="consider seamark:type=rock or natural=shoal" />
		<tag k="name" v="Nordre Sigleskjeret" />
		<tag k="place" v="islet" />
		<tag k="ssr:stedsnr" v="462444" />
	</node>
	<node lat="59.93296111063897" lon="5.210738882961774" id="-71555">
		<tag k="name" v="Lauvholmen" />
		<tag k="place" v="island" />
		<tag k="ssr:stedsnr" v="462446" />
	</node>
	<node lat="59.88022500357651" lon="5.208005558287145" id="-71556">
		<tag k="name" v="Tranøyhalsen" />
		<tag k="natural" v="cape" />
		<tag k="ssr:stedsnr" v="462495" />
	</node>
	<node lat="59.897574995547664" lon="5.152999998305592" id="-71561">
		<tag k="alt_name" v="Sauøy" />
		<tag k="name" v="Sauholmen" />
		<tag k="place" v="islet" />
		<tag k="ssr:stedsnr" v="367845" />
	</node>
	<node lat="59.91185833224697" lon="5.115100003098996" id="-71562">
		<tag k="alt_name" v="Klammerøyholmen" />
		<tag k="name" v="Klamsholmen" />
		<tag k="place" v="islet" />
		<tag k="ssr:stedsnr" v="368804" />
	</node>
	<node lat="59.98498888982199" lon="5.311913889504171" id="-71564">
		<tag k="name" v="Nordboen" />
		<tag k="natural" v="shoal" />
		<tag k="place" v="locality" />
		<tag k="ssr:stedsnr" v="387466" />
	</node>
	<node lat="59.92161111208165" lon="5.1956277777715005" id="-71565">
		<tag k="alt_name" v="Årebrotsholmen" />
		<tag k="name" v="Årabrotholmen" />
		<tag k="place" v="islet" />
		<tag k="ssr:stedsnr" v="389059" />
	</node>
	<node lat="59.923455553306056" lon="5.479216671434486" id="-71566">
		<tag k="fixme" v="consider seamark:type=rock or natural=shoal" />
		<tag k="name" v="Eideskjeret" />
		<tag k="place" v="islet" />
		<tag k="ssr:stedsnr" v="389257" />
	</node>
	<node lat="59.869152779656034" lon="5.28375832418755" id="-71567">
		<tag k="fixme" v="consider seamark:type=rock or natural=shoal" />
		<tag k="name" v="Teistbleikja" />
		<tag k="place" v="islet" />
		<tag k="ssr:stedsnr" v="389760" />
	</node>
	<node lat="59.91026111303917" lon="5.287191670686257" id="-71571">
		<tag k="name" v="Lusavik" />
		<tag k="natural" v="bay" />
		<tag k="ssr:stedsnr" v="401138" />
	</node>
	<node lat="59.91389999930529" lon="5.28649721478319" id="-71572">
		<tag k="name" v="Notableikja" />
		<tag k="natural" v="cape" />
		<tag k="ssr:stedsnr" v="401140" />
	</node>
	<node lat="59.885641665790885" lon="5.272522223248882" id="-71584">
		<tag k="name" v="Hjelmableikjene" />
		<tag k="place" v="island" />
		<tag k="ssr:stedsnr" v="401438" />
	</node>
	<node lat="59.87613610697501" lon="5.2145777815594165" id="-71592">
		<tag k="name" v="Knottholmane" />
		<tag k="place" v="islet" />
		<tag k="ssr:stedsnr" v="428825" />
	</node>
	<node lat="59.91860555818986" lon="5.2873138870018215" id="-71595">
		<tag k="name" v="Kalvaneset" />
		<tag k="natural" v="cape" />
		<tag k="ssr:stedsnr" v="429762" />
	</node>
	<node lat="59.91794755182148" lon="5.148632752541815" id="-71596">
		<tag k="name" v="Eidøy" />
		<tag k="place" v="island" />
		<tag k="ssr:stedsnr" v="429768" />
	</node>
	<node lat="59.91800277562093" lon="5.136686118536081" id="-71597">
		<tag k="name" v="Skvetten" />
		<tag k="place" v="islet" />
		<tag k="ssr:stedsnr" v="429771" />
	</node>
	<node lat="59.92909444212984" lon="5.2755194430701415" id="-71598">
		<tag k="name" v="Fonnosen" />
		<tag k="natural" v="strait" />
		<tag k="ssr:stedsnr" v="429778" />
	</node>
	<node lat="59.90691944157289" lon="5.249105554616836" id="-71599">
		<tag k="alt_name" v="Sætravågen, austre" />
		<tag k="name" v="Austre Sætravågen" />
		<tag k="natural" v="bay" />
		<tag k="ssr:stedsnr" v="429869" />
	</node>
	<node lat="59.94859166609036" lon="5.297041671617121" id="-71600">
		<tag k="name" v="Stokkaseta" />
		<tag k="natural" v="shoal" />
		<tag k="place" v="locality" />
		<tag k="ssr:stedsnr" v="450228" />
	</node>
	<node lat="59.93570833682844" lon="5.454869448703841" id="-71602">
		<tag k="alt_name" v="Grudnavika" />
		<tag k="name" v="Grunnavika" />
		<tag k="natural" v="bay" />
		<tag k="ssr:stedsnr" v="462066" />
	</node>
	<node lat="59.946622220350775" lon="5.414502778622242" id="-71604">
		<tag k="name" v="Kalhagevika" />
		<tag k="natural" v="bay" />
		<tag k="ssr:stedsnr" v="462078" />
	</node>
	<node lat="59.81558055921054" lon="5.3441583310675735" id="-71606">
		<tag k="name" v="Lønevågen" />
		<tag k="natural" v="bay" />
		<tag k="ssr:stedsnr" v="462092" />
	</node>
	<node lat="59.919344446789566" lon="5.280794440096462" id="-71608">
		<tag k="name" v="Kalvanessundet" />
		<tag k="natural" v="strait" />
		<tag k="ssr:stedsnr" v="462108" />
	</node>
	<node lat="59.8984803245104" lon="5.27675442363679" id="-71609">
		<tag k="name" v="Hundsryggen" />
		<tag k="natural" v="cape" />
		<tag k="ssr:stedsnr" v="462112" />
	</node>
	<node lat="59.88739444506777" lon="5.2757861196839295" id="-71612">
		<tag k="name" v="Litla Kråko" />
		<tag k="place" v="island" />
		<tag k="ssr:stedsnr" v="462416" />
	</node>
	<node lat="59.831263886591884" lon="5.352738897509244" id="-71613">
		<tag k="name" v="Tinnsholmen" />
		<tag k="place" v="islet" />
		<tag k="ssr:stedsnr" v="462421" />
	</node>
	<node lat="59.83638333361905" lon="5.3512944460279925" id="-71614">
		<tag k="name" v="Dyrholmen" />
		<tag k="place" v="islet" />
		<tag k="ssr:stedsnr" v="462425" />
	</node>
	<node lat="59.9282166644605" lon="5.311150005393422" id="-71616">
		<tag k="name" v="Russevika" />
		<tag k="natural" v="bay" />
		<tag k="ssr:stedsnr" v="462489" />
	</node>
	<node lat="59.951125001003106" lon="5.25383610685044" id="-71617">
		<tag k="alt_name" v="Svartaskjer" />
		<tag k="fixme" v="consider seamark:type=rock or natural=shoal" />
		<tag k="name" v="Svartaskjeret" />
		<tag k="place" v="islet" />
		<tag k="ssr:stedsnr" v="489197" />
	</node>
	<node lat="59.93745277525625" lon="5.185030549697406" id="-71618">
		<tag k="alt_name" v="Sigleodden" />
		<tag k="name" v="Siglodden" />
		<tag k="natural" v="cape" />
		<tag k="ssr:stedsnr" v="489803" />
	</node>
	<node lat="59.952057164449236" lon="5.395843437301892" id="-71619">
		<tag k="alt_name" v="Engjavik" />
		<tag k="loc_name" v="Engevikvågen;Engevik" />
		<tag k="name" v="Engjavikvågen" />
		<tag k="natural" v="bay" />
		<tag k="ssr:stedsnr" v="489808" />
	</node>
	<node lat="59.92645555102319" lon="5.473469439319848" id="-71621">
		<tag k="alt_name" v="Eideklubben" />
		<tag k="name" v="Eidesklubben" />
		<tag k="natural" v="cape" />
		<tag k="ssr:stedsnr" v="489754" />
	</node>
	<node lat="59.9126500034359" lon="5.175938892059415" id="-71622">
		<tag k="name" v="Torsdagsøy" />
		<tag k="place" v="island" />
		<tag k="ssr:stedsnr" v="489763" />
	</node>
	<node lat="59.905686106439454" lon="5.307958325446577" id="-71623">
		<tag k="name" v="Vestbøstadpollen" />
		<tag k="natural" v="bay" />
		<tag k="ssr:stedsnr" v="489847" />
	</node>
	<node lat="59.98065277667553" lon="5.330902769705593" id="-71625">
		<tag k="name" v="Raudholmane" />
		<tag k="place" v="islet" />
		<tag k="ssr:stedsnr" v="671148" />
	</node>
	<node lat="59.96457108447331" lon="5.295560005865256" id="-71626">
		<tag k="name" v="Bollestadvika" />
		<tag k="natural" v="bay" />
		<tag k="ssr:stedsnr" v="671162" />
	</node>
	<node lat="59.91152272498712" lon="5.2368262436318975" id="-71627">
		<tag k="name" v="Ivarsøy" />
		<tag k="place" v="island" />
		<tag k="ssr:stedsnr" v="671766" />
	</node>
	<node lat="59.92846388740682" lon="5.128930560518354" id="-71630">
		<tag k="alt_name" v="Eggholmskjeret, s" />
		<tag k="fixme" v="consider seamark:type=rock or natural=shoal" />
		<tag k="name" v="Søra Eggholmskjeret" />
		<tag k="place" v="islet" />
		<tag k="ssr:stedsnr" v="671788" />
	</node>
	<node lat="59.90075833567594" lon="5.285211104572978" id="-71632">
		<tag k="alt_name" v="Kråko, l" />
		<tag k="name" v="Litla Kråko" />
		<tag k="natural" v="peninsula" />
		<tag k="place" v="locality" />
		<tag k="ssr:stedsnr" v="671845" />
	</node>
	<node lat="59.8964666664872" lon="5.314433327531129" id="-71636">
		<tag k="name" v="Torlandsholmane" />
		<tag k="place" v="islet" />
		<tag k="ssr:stedsnr" v="523117" />
	</node>
	<node lat="59.92058889094321" lon="5.141483336860487" id="-71639">
		<tag k="fixme" v="consider seamark:type=rock or natural=shoal" />
		<tag k="name" v="Langaskjeret" />
		<tag k="place" v="islet" />
		<tag k="ssr:stedsnr" v="523521" />
	</node>
	<node lat="59.90174444856634" lon="5.187783329998682" id="-71640">
		<tag k="name" v="Bassnesosen" />
		<tag k="natural" v="strait" />
		<tag k="ssr:stedsnr" v="523526" />
	</node>
	<node lat="59.90032778099904" lon="5.19601944472163" id="-71641">
		<tag k="name" v="Brendeholmen" />
		<tag k="place" v="islet" />
		<tag k="ssr:stedsnr" v="523531" />
	</node>
	<node lat="59.902780554067675" lon="5.180052773745517" id="-71642">
		<tag k="name" v="Langeholmen" />
		<tag k="place" v="islet" />
		<tag k="ssr:stedsnr" v="523541" />
	</node>
	<node lat="59.892828453111655" lon="5.294129664744399" id="-71644">
		<tag k="bay" v="fjord" />
		<tag k="name" v="Hellandsfjorden" />
		<tag k="natural" v="bay" />
		<tag k="ssr:stedsnr" v="732836" />
	</node>
	<node lat="59.943375003674504" lon="5.309247221727866" id="-71646">
		<tag k="alt_name" v="Fitjarvik" />
		<tag k="name" v="Fitjarvika" />
		<tag k="natural" v="strait" />
		<tag k="ssr:stedsnr" v="549184" />
	</node>
	<node lat="59.92125289528965" lon="5.183346824413935" id="-71648">
		<tag k="name" v="Nyleia" />
		<tag k="natural" v="strait" />
		<tag k="ssr:stedsnr" v="549757" />
	</node>
	<node lat="59.86173547609758" lon="5.255505700009509" id="-71650">
		<tag k="alt_name" v="Krabbavågen" />
		<tag k="name" v="Krabbavika" />
		<tag k="natural" v="bay" />
		<tag k="ssr:stedsnr" v="549918" />
	</node>
	<node lat="59.87633888559226" lon="5.199766672280587" id="-71652">
		<tag k="alt_name" v="Nattrøytåa" />
		<tag k="name" v="Natterøytåa" />
		<tag k="natural" v="cape" />
		<tag k="ssr:stedsnr" v="549928" />
	</node>
	<node lat="59.96445556011846" lon="5.290458338560413" id="-71653">
		<tag k="alt_name" v="Kjeldholmen" />
		<tag k="name" v="Kjelholmen" />
		<tag k="place" v="islet" />
		<tag k="ssr:stedsnr" v="550169" />
	</node>
	<node lat="59.92167452998776" lon="5.272980173555155" id="-71654">
		<tag k="alt_name" v="Kjeholmen" />
		<tag k="name" v="Smedholmen" />
		<tag k="place" v="island" />
		<tag k="ssr:stedsnr" v="550756" />
	</node>
	<node lat="59.91649444634176" lon="5.173349992724587" id="-71656">
		<tag k="name" v="Kyrkjesundet" />
		<tag k="natural" v="strait" />
		<tag k="ssr:stedsnr" v="550765" />
	</node>
	<node lat="59.90572590035494" lon="5.216059087017847" id="-71658">
		<tag k="name" v="Langøybleikjene" />
		<tag k="place" v="islet" />
		<tag k="ssr:stedsnr" v="550866" />
	</node>
	<node lat="59.91425833617389" lon="5.251586117816205" id="-71659">
		<tag k="name" v="Skatholmen" />
		<tag k="place" v="islet" />
		<tag k="ssr:stedsnr" v="550871" />
	</node>
	<node lat="59.877330558610126" lon="5.278355558966921" id="-71660">
		<tag k="fixme" v="consider seamark:type=rock or natural=shoal" />
		<tag k="name" v="Hellandskjeret" />
		<tag k="place" v="islet" />
		<tag k="ssr:stedsnr" v="571059" />
	</node>
	<node lat="59.88029444312975" lon="5.226466661690918" id="-71661">
		<tag k="fixme" v="consider seamark:type=rock or natural=shoal" />
		<tag k="name" v="Slåtto" />
		<tag k="place" v="islet" />
		<tag k="ssr:stedsnr" v="571067" />
	</node>
	<node lat="59.89434721920405" lon="5.195369440289567" id="-71662">
		<tag k="alt_name" v="Bassnesvågen" />
		<tag k="name" v="Basnesvåg" />
		<tag k="natural" v="bay" />
		<tag k="ssr:stedsnr" v="571079" />
	</node>
	<node lat="59.814058332331896" lon="5.3446694364544385" id="-71663">
		<tag k="alt_name" v="Geitaneset" />
		<tag k="name" v="Geitanes" />
		<tag k="natural" v="cape" />
		<tag k="ssr:stedsnr" v="571204" />
	</node>
	<node lat="59.922114506062954" lon="5.286901988876671" id="-71666">
		<tag k="name" v="Hatt-Olableikjene" />
		<tag k="place" v="islet" />
		<tag k="ssr:stedsnr" v="583113" />
	</node>
	<node lat="59.909166670324566" lon="5.252791663211114" id="-71667">
		<tag k="name" v="Vestre Engesund" />
		<tag k="natural" v="strait" />
		<tag k="ssr:stedsnr" v="583117" />
	</node>
	<node lat="59.935320342013775" lon="5.4563440477572245" id="-71670">
		<tag k="name" v="Larsaklubben" />
		<tag k="natural" v="cape" />
		<tag k="ssr:stedsnr" v="583067" />
	</node>
	<node lat="59.924711107285326" lon="5.153294441098344" id="-71676">
		<tag k="alt_name" v="Broki" />
		<tag k="name" v="Broka" />
		<tag k="place" v="islet" />
		<tag k="ssr:stedsnr" v="610803" />
	</node>
	<node lat="59.92408610994367" lon="5.146027782449787" id="-71677">
		<tag k="alt_name" v="Skarvaskjer" />
		<tag k="fixme" v="consider seamark:type=rock or natural=shoal" />
		<tag k="name" v="Skarvaskjeret" />
		<tag k="place" v="islet" />
		<tag k="ssr:stedsnr" v="610805" />
	</node>
	<node lat="59.909696995519624" lon="5.207937560988815" id="-71680">
		<tag k="name" v="Langøy" />
		<tag k="place" v="island" />
		<tag k="ssr:stedsnr" v="610896" />
	</node>
	<node lat="59.90227636276905" lon="5.270041951009019" id="-71681">
		<tag k="name" v="Litla Eldøy" />
		<tag k="place" v="island" />
		<tag k="ssr:stedsnr" v="610898" />
	</node>
	<node lat="59.90982499744297" lon="5.2877027790939435" id="-71682">
		<tag k="alt_name" v="Vestbøstadvik" />
		<tag k="name" v="Vestbøstadvika" />
		<tag k="natural" v="bay" />
		<tag k="ssr:stedsnr" v="610899" />
	</node>
	<node lat="59.90471666717386" lon="5.24443332555394" id="-71683">
		<tag k="alt_name" v="Sætravågen, vestre" />
		<tag k="name" v="Vestre Sætravågen" />
		<tag k="natural" v="bay" />
		<tag k="ssr:stedsnr" v="610900" />
	</node>
	<node lat="59.93107500054201" lon="5.322850007130477" id="-71685">
		<tag k="alt_name" v="Breidvik" />
		<tag k="name" v="Breidvika" />
		<tag k="natural" v="bay" />
		<tag k="ssr:stedsnr" v="610793" />
	</node>
	<node lat="59.84316110954646" lon="5.303516666155807" id="-71687">
		<tag k="alt_name" v="Storevikholmen, s;Søre Storavikholmen" />
		<tag k="name" v="Søre Storevikholmen" />
		<tag k="place" v="islet" />
		<tag k="ssr:stedsnr" v="610913" />
	</node>
	<node lat="59.90429166429406" lon="5.178355561501847" id="-71689">
		<tag k="fixme" v="consider seamark:type=rock or natural=shoal" />
		<tag k="name" v="Gulebleikjene" />
		<tag k="place" v="islet" />
		<tag k="ssr:stedsnr" v="692076" />
	</node>
	<node lat="59.94140833197339" lon="5.437377780482471" id="-71694">
		<tag k="name" v="Kabelsneset" />
		<tag k="natural" v="cape" />
		<tag k="ssr:stedsnr" v="644022" />
	</node>
	<node lat="59.87617221824944" lon="5.231622223599966" id="-71697">
		<tag k="name" v="Nordre Kuvik" />
		<tag k="natural" v="bay" />
		<tag k="ssr:stedsnr" v="644533" />
	</node>
	<node lat="59.91123333259478" lon="5.130783327405182" id="-71698">
		<tag k="name" v="Hanøyvågen" />
		<tag k="natural" v="bay" />
		<tag k="ssr:stedsnr" v="644534" />
	</node>
	<node lat="59.92236175645437" lon="5.148759615775462" id="-71699">
		<tag k="name" v="Nordre Eidøytåa" />
		<tag k="natural" v="cape" />
		<tag k="ssr:stedsnr" v="644481" />
	</node>
	<node lat="59.903211109318576" lon="5.240480563540995" id="-71700">
		<tag k="name" v="Tomashola" />
		<tag k="natural" v="bay" />
		<tag k="ssr:stedsnr" v="644443" />
	</node>
	<node lat="59.9072388889674" lon="5.228138886333553" id="-71701">
		<tag k="name" v="Straumen" />
		<tag k="natural" v="strait" />
		<tag k="ssr:stedsnr" v="644448" />
	</node>
	<node lat="59.88138055648205" lon="5.286730559576873" id="-71702">
		<tag k="name" v="Øskjeneset" />
		<tag k="natural" v="cape" />
		<tag k="ssr:stedsnr" v="644452" />
	</node>
	<node lat="59.95245277736821" lon="5.315333328851788" id="-71703">
		<tag k="name" v="Bjørnskallen" />
		<tag k="natural" v="cape" />
		<tag k="ssr:stedsnr" v="671174" />
	</node>
	<node lat="59.9364702568831" lon="5.454480144728364" id="-71706">
		<tag k="alt_name" v="Raunholmklubben" />
		<tag k="name" v="Storeklubben" />
		<tag k="natural" v="cape" />
		<tag k="ssr:stedsnr" v="671768" />
	</node>
	<node lat="59.91797777562381" lon="5.155219451506268" id="-71707">
		<tag k="fixme" v="consider seamark:type=rock or natural=shoal" />
		<tag k="name" v="Ospene" />
		<tag k="place" v="islet" />
		<tag k="ssr:stedsnr" v="671769" />
	</node>
	<node lat="59.898324995929485" lon="5.311249995272323" id="-71709">
		<tag k="name" v="Nesbøholmane" />
		<tag k="place" v="islet" />
		<tag k="ssr:stedsnr" v="671826" />
	</node>
	<node lat="59.82971111476439" lon="5.32907778129254" id="-71712">
		<tag k="name" v="Nordstokken" />
		<tag k="natural" v="peninsula" />
		<tag k="old_name" v="Nord Stokken" />
		<tag k="place" v="locality" />
		<tag k="ssr:stedsnr" v="671974" />
	</node>
	<node lat="59.97233610747889" lon="5.3593722258893015" id="-71716">
		<tag k="name" v="Bleikjene" />
		<tag k="place" v="island" />
		<tag k="ssr:stedsnr" v="705019" />
	</node>
	<node lat="59.97086388870092" lon="5.335927776729827" id="-71717">
		<tag k="name" v="Kjempeholmen" />
		<tag k="place" v="island" />
		<tag k="ssr:stedsnr" v="705023" />
	</node>
	<node lat="59.90000555433106" lon="5.235644449845484" id="-71723">
		<tag k="name" v="Klubbableikja" />
		<tag k="place" v="island" />
		<tag k="ssr:stedsnr" v="705485" />
	</node>
	<node lat="59.843319439863" lon="5.310172216715507" id="-71724">
		<tag k="name" v="Vinsjevik" />
		<tag k="natural" v="bay" />
		<tag k="ssr:stedsnr" v="705503" />
	</node>
	<node lat="59.95975982760535" lon="5.286751318726031" id="-71726">
		<tag k="name" v="Vartonjen" />
		<tag k="natural" v="cape" />
		<tag k="ssr:stedsnr" v="887038" />
	</node>
	<node lat="59.88584444394136" lon="5.328547226841186" id="-71735">
		<tag k="name" v="Tveitaholmen" />
		<tag k="place" v="island" />
		<tag k="ssr:stedsnr" v="887390" />
	</node>
	<node lat="59.92044444075389" lon="5.239897226964782" id="-71736">
		<tag k="name" v="Madsaholmen" />
		<tag k="place" v="islet" />
		<tag k="ssr:stedsnr" v="887460" />
	</node>
	<node lat="59.87111666777682" lon="5.239816662696075" id="-71737">
		<tag k="name" v="Sætravågsneset" />
		<tag k="natural" v="cape" />
		<tag k="ssr:stedsnr" v="887469" />
	</node>
	<node lat="59.928869448181175" lon="5.188522216415035" id="-71738">
		<tag k="fixme" v="consider seamark:type=rock or natural=shoal" />
		<tag k="name" v="Søre Sigleskjeret" />
		<tag k="place" v="islet" />
		<tag k="ssr:stedsnr" v="887476" />
	</node>
	<node lat="59.90455555625335" lon="5.177058328494197" id="-71739">
		<tag k="name" v="Gulebleikjene" />
		<tag k="place" v="island" />
		<tag k="ssr:stedsnr" v="887480" />
	</node>
	<node lat="59.91325277843817" lon="5.167513889988798" id="-71740">
		<tag k="name" v="Nordre Vågen" />
		<tag k="natural" v="bay" />
		<tag k="ssr:stedsnr" v="887482" />
	</node>
	<node lat="59.92922319314385" lon="5.2253352568816" id="-71741">
		<tag k="name" v="Ivarsøyosen" />
		<tag k="natural" v="strait" />
		<tag k="ssr:stedsnr" v="887487" />
	</node>
	<node lat="59.89795277524862" lon="5.157738892412484" id="-71742">
		<tag k="name" v="Skutevika" />
		<tag k="natural" v="bay" />
		<tag k="ssr:stedsnr" v="887492" />
	</node>
	<node lat="59.89600000080893" lon="5.164777776508223" id="-71743">
		<tag k="name" v="Pålsstoveholmen" />
		<tag k="place" v="island" />
		<tag k="ssr:stedsnr" v="887493" />
	</node>
	<node lat="59.9235543670187" lon="5.247038510423986" id="-71747">
		<tag k="name" v="Engesund" />
		<tag k="place" v="island" />
		<tag k="ssr:stedsnr" v="732764" />
	</node>
	<node lat="59.91187777494975" lon="5.1821499957418675" id="-71748">
		<tag k="name" v="Breidavika" />
		<tag k="natural" v="bay" />
		<tag k="ssr:stedsnr" v="732767" />
	</node>
	<node lat="59.83591388704148" lon="5.313391670649706" id="-71752">
		<tag k="name" v="Hermannsholmen" />
		<tag k="place" v="islet" />
		<tag k="ssr:stedsnr" v="732998" />
	</node>
	<node lat="59.917465311015505" lon="5.294154684961179" id="-71753">
		<tag k="name" v="Skålavik" />
		<tag k="natural" v="bay" />
		<tag k="ssr:stedsnr" v="753028" />
	</node>
	<node lat="59.93817089024937" lon="5.448458904737493" id="-71754">
		<tag k="alt_name" v="Krabbavik" />
		<tag k="name" v="Krabbavika" />
		<tag k="natural" v="bay" />
		<tag k="ssr:stedsnr" v="753209" />
	</node>
	<node lat="59.90689979318213" lon="5.2850699237492975" id="-71757">
		<tag k="name" v="Grønavik" />
		<tag k="natural" v="bay" />
		<tag k="ssr:stedsnr" v="765127" />
	</node>
	<node lat="59.90148610830557" lon="5.2342138870269705" id="-71760">
		<tag k="name" v="Ivarsøyneset" />
		<tag k="natural" v="cape" />
		<tag k="ssr:stedsnr" v="765411" />
	</node>
	<node lat="59.90645555249147" lon="5.216647230673281" id="-71761">
		<tag k="name" v="Pissemaurbleikjo" />
		<tag k="place" v="island" />
		<tag k="ssr:stedsnr" v="765416" />
	</node>
	<node lat="59.888647223561264" lon="5.304533325312929" id="-71762">
		<tag k="name" v="Hellandssjøen" />
		<tag k="natural" v="bay" />
		<tag k="ssr:stedsnr" v="765418" />
	</node>
	<node lat="59.9410972203415" lon="5.328950008657687" id="-71764">
		<tag k="name" v="Skjervika" />
		<tag k="natural" v="bay" />
		<tag k="ssr:stedsnr" v="766021" />
	</node>
	<node lat="59.969030557114934" lon="5.365547214483531" id="-71765">
		<tag k="name" v="Skoraneset" />
		<tag k="natural" v="cape" />
		<tag k="ssr:stedsnr" v="766001" />
	</node>
	<node lat="59.88933055366756" lon="5.170499997777806" id="-71766">
		<tag k="name" v="Landfasteholmen" />
		<tag k="place" v="island" />
		<tag k="ssr:stedsnr" v="766507" />
	</node>
	<node lat="59.890169444887306" lon="5.173650001011437" id="-71767">
		<tag k="name" v="Olderholen" />
		<tag k="place" v="island" />
		<tag k="ssr:stedsnr" v="766501" />
	</node>
	<node lat="59.90052226398045" lon="5.176023581284177" id="-71773">
		<tag k="name" v="Trollholmen" />
		<tag k="place" v="islet" />
		<tag k="ssr:stedsnr" v="792837" />
	</node>
	<node lat="59.83316666212746" lon="5.311574994343955" id="-71775">
		<tag k="alt_name" v="Skardanes" />
		<tag k="name" v="Skaraneset" />
		<tag k="natural" v="cape" />
		<tag k="ssr:stedsnr" v="792979" />
	</node>
	<node lat="59.977499197850406" lon="5.324986353808929" id="-71776">
		<tag k="name" v="Stokksvågen" />
		<tag k="natural" v="bay" />
		<tag k="ssr:stedsnr" v="793179" />
	</node>
	<node lat="59.91224713919435" lon="5.263209794278128" id="-71777">
		<tag k="name" v="Gassosen" />
		<tag k="natural" v="strait" />
		<tag k="ssr:stedsnr" v="793881" />
	</node>
	<node lat="59.90250833249528" lon="5.129791670489895" id="-71778">
		<tag k="alt_name" v="Spansosen;Spannsosen" />
		<tag k="name" v="Spannosen" />
		<tag k="natural" v="strait" />
		<tag k="ssr:stedsnr" v="793772" />
	</node>
	<node lat="59.91027499935017" lon="5.157975002501462" id="-71780">
		<tag k="name" v="Trollosen" />
		<tag k="natural" v="strait" />
		<tag k="ssr:stedsnr" v="793788" />
	</node>
	<node lat="59.91986111090729" lon="5.204886115762251" id="-71781">
		<tag k="alt_name" v="Slåtteholmen" />
		<tag k="name" v="Slåttholmen" />
		<tag k="place" v="islet" />
		<tag k="ssr:stedsnr" v="793789" />
	</node>
	<node lat="59.91231111465721" lon="5.153733335253658" id="-71782">
		<tag k="fixme" v="consider seamark:type=rock or natural=shoal" />
		<tag k="name" v="Osableikja" />
		<tag k="place" v="islet" />
		<tag k="ssr:stedsnr" v="814081" />
	</node>
	<node lat="59.93093055250579" lon="5.143602774418311" id="-71783">
		<tag k="name" v="Torsteinflua" />
		<tag k="natural" v="shoal" />
		<tag k="place" v="locality" />
		<tag k="ssr:stedsnr" v="814087" />
	</node>
	<node lat="59.94945603344403" lon="5.405951678317589" id="-71784">
		<tag k="name" v="Vistvikholmen" />
		<tag k="place" v="islet" />
		<tag k="ssr:stedsnr" v="814312" />
	</node>
	<node lat="59.86810043361739" lon="5.290004913937331" id="-71787">
		<tag k="name" v="Fløbergneset" />
		<tag k="natural" v="cape" />
		<tag k="ssr:stedsnr" v="826421" />
	</node>
	<node lat="59.85884722625719" lon="5.301777772927975" id="-71788">
		<tag k="name" v="Kuarvågen" />
		<tag k="natural" v="bay" />
		<tag k="ssr:stedsnr" v="826385" />
	</node>
	<node lat="59.970893828216504" lon="5.358505622677753" id="-71789">
		<tag k="alt_name" v="Litla Færøya" />
		<tag k="name" v="Litla Færøy" />
		<tag k="place" v="island" />
		<tag k="ssr:stedsnr" v="827016" />
	</node>
	<node lat="59.97957500342165" lon="5.315497222444516" id="-71790">
		<tag k="name" v="Bråtavika" />
		<tag k="natural" v="bay" />
		<tag k="ssr:stedsnr" v="827021" />
	</node>
	<node lat="59.962310689768366" lon="5.288192598543524" id="-71791">
		<tag k="name" v="Grøneviktonjen" />
		<tag k="natural" v="cape" />
		<tag k="ssr:stedsnr" v="827025" />
	</node>
	<node lat="59.97023611060317" lon="5.356780560802637" id="-71792">
		<tag k="name" v="Færøysundet" />
		<tag k="natural" v="strait" />
		<tag k="ssr:stedsnr" v="827276" />
	</node>
	<node lat="59.85248333139072" lon="5.266575007733096" id="-71793">
		<tag k="name" v="Tangen" />
		<tag k="natural" v="cape" />
		<tag k="ssr:stedsnr" v="827403" />
	</node>
	<node lat="59.893716667209105" lon="5.264311119847787" id="-71794">
		<tag k="name" v="Hjelmålen" />
		<tag k="natural" v="strait" />
		<tag k="ssr:stedsnr" v="827472" />
	</node>
	<node lat="59.87692130097694" lon="5.282702124088013" id="-71796">
		<tag k="name" v="Hellandsholmane" />
		<tag k="place" v="islet" />
		<tag k="ssr:stedsnr" v="847579" />
	</node>
	<node lat="59.897205554221316" lon="5.267088895993754" id="-71797">
		<tag k="name" v="Hyseholmen" />
		<tag k="place" v="islet" />
		<tag k="ssr:stedsnr" v="853853" />
	</node>
	<node lat="59.90244999959797" lon="5.176274996032367" id="-71798">
		<tag k="alt_name" v="Flatholmen;Flateholmen" />
		<tag k="name" v="Flaten" />
		<tag k="place" v="islet" />
		<tag k="ssr:stedsnr" v="853861" />
	</node>
	<node lat="59.89776111033623" lon="5.200055547244967" id="-71799">
		<tag k="name" v="Bårdholmen" />
		<tag k="place" v="islet" />
		<tag k="ssr:stedsnr" v="853862" />
	</node>
	<node lat="59.893202774089815" lon="5.163508325790853" id="-71800">
		<tag k="name" v="Tverdarøy" />
		<tag k="place" v="island" />
		<tag k="ssr:stedsnr" v="853865" />
	</node>
	<node lat="59.91009798330137" lon="5.27676207417673" id="-71803">
		<tag k="name" v="Stora Eldøy" />
		<tag k="place" v="island" />
		<tag k="ssr:stedsnr" v="853874" />
	</node>
	<node lat="59.93134718901189" lon="5.254166014961676" id="-71804">
		<tag k="name" v="Teløy" />
		<tag k="place" v="island" />
		<tag k="ssr:stedsnr" v="853756" />
	</node>
	<node lat="59.920785516442514" lon="5.155633346919656" id="-71805">
		<tag k="name" v="Eggøyosen" />
		<tag k="natural" v="strait" />
		<tag k="ssr:stedsnr" v="853764" />
	</node>
	<node lat="59.96924547883008" lon="5.328137196332616" id="-71808">
		<tag k="name" v="Tveitevågen" />
		<tag k="natural" v="bay" />
		<tag k="ssr:stedsnr" v="854163" />
	</node>
	<node lat="59.97640000176091" lon="5.31405000219476" id="-71809">
		<tag k="alt_name" v="Bøvik" />
		<tag k="name" v="Bøvika" />
		<tag k="natural" v="bay" />
		<tag k="ssr:stedsnr" v="854165" />
	</node>
	<node lat="59.84743055687749" lon="5.306399991399648" id="-71811">
		<tag k="alt_name" v="Storevikholmen, midtre;Midtre Storavikholmen" />
		<tag k="name" v="Midtre Storevikholmen" />
		<tag k="place" v="islet" />
		<tag k="ssr:stedsnr" v="914884" />
	</node>
	<node lat="59.92760278205043" lon="5.240999997956566" id="-71813">
		<tag k="name" v="Kobbavika" />
		<tag k="natural" v="bay" />
		<tag k="ssr:stedsnr" v="914783" />
	</node>
	<node lat="59.92144999771227" lon="5.1270277808486275" id="-71815">
		<tag k="name" v="Hanøyodden" />
		<tag k="natural" v="cape" />
		<tag k="ssr:stedsnr" v="914796" />
	</node>
	<node lat="59.93723889097651" lon="5.198044442951771" id="-71816">
		<tag k="alt_name" v="Siglo, l" />
		<tag k="name" v="Litla Siglo" />
		<tag k="place" v="islet" />
		<tag k="ssr:stedsnr" v="914801" />
	</node>
	<node lat="59.93398055887531" lon="5.20950276860572" id="-71817">
		<tag k="alt_name" v="Bukkeholmsundet" />
		<tag k="name" v="Bukkholmsundet" />
		<tag k="natural" v="strait" />
		<tag k="ssr:stedsnr" v="914802" />
	</node>
	<node lat="59.908061109002986" lon="5.150855561041747" id="-71818">
		<tag k="name" v="Soløysundet" />
		<tag k="natural" v="strait" />
		<tag k="ssr:stedsnr" v="914756" />
	</node>
	<node lat="59.914875004041164" lon="5.213366664234748" id="-71819">
		<tag k="name" v="Arholmen" />
		<tag k="place" v="islet" />
		<tag k="ssr:stedsnr" v="914770" />
	</node>
	<node lat="59.878538888771516" lon="5.284008339313415" id="-71820">
		<tag k="alt_name" v="Hellandsholmen, nordre" />
		<tag k="name" v="Nordre Hellandsholmen" />
		<tag k="place" v="islet" />
		<tag k="ssr:stedsnr" v="914946" />
	</node>
	<node lat="59.82522500311687" lon="5.352027779553911" id="-71821">
		<tag k="alt_name" v="Nordre Dåfjorden" />
		<tag k="bay" v="fjord" />
		<tag k="name" v="Dåfjorden" />
		<tag k="natural" v="bay" />
		<tag k="ssr:stedsnr" v="914951" />
	</node>
	<node lat="59.88911388783043" lon="5.282863896464696" id="-71822">
		<tag k="alt_name" v="Stora Kråko" />
		<tag k="name" v="Kråko" />
		<tag k="natural" v="peninsula" />
		<tag k="place" v="locality" />
		<tag k="ssr:stedsnr" v="914825" />
	</node>
	<node lat="59.88090555789323" lon="5.261700001374572" id="-71825">
		<tag k="alt_name" v="Bakkeflua" />
		<tag k="name" v="Bakkaflua" />
		<tag k="natural" v="shoal" />
		<tag k="place" v="locality" />
		<tag k="ssr:stedsnr" v="875070" />
	</node>
	<node lat="59.89269166221312" lon="5.239694439002746" id="-71826">
		<tag k="alt_name" v="Vestre Straumøysundet" />
		<tag k="name" v="Vestra Straumøysundet" />
		<tag k="natural" v="strait" />
		<tag k="ssr:stedsnr" v="875079" />
	</node>
	<node lat="59.815394445245595" lon="5.328030560069618" id="-71831">
		<tag k="name" v="Storeklubben" />
		<tag k="natural" v="cape" />
		<tag k="ssr:stedsnr" v="887098" />
	</node>
	<node lat="59.890349995653736" lon="5.168161110930949" id="-71834">
		<tag k="name" v="Maurlaukevika" />
		<tag k="natural" v="bay" />
		<tag k="ssr:stedsnr" v="887527" />
	</node>
	<node lat="59.94881944484058" lon="5.399750006869738" id="-71835">
		<tag k="name" v="Hetlevika" />
		<tag k="natural" v="bay" />
		<tag k="ssr:stedsnr" v="887500" />
	</node>
	<node lat="59.96943611128317" lon="5.362700007121463" id="-71837">
		<tag k="name" v="Færøysund" />
		<tag k="natural" v="cape" />
		<tag k="ssr:stedsnr" v="914192" />
	</node>
	<node lat="59.868838397118346" lon="5.2892240756729265" id="-71841">
		<tag k="alt_name" v="Ondebortvika" />
		<tag k="name" v="Undeborvika" />
		<tag k="natural" v="bay" />
		<tag k="ssr:stedsnr" v="914925" />
	</node>
	<node lat="59.87461525151064" lon="5.247293449902678" id="-71842">
		<tag k="name" v="Ålforo" />
		<tag k="place" v="island" />
		<tag k="ssr:stedsnr" v="914926" />
	</node>
	<node lat="59.86688055203129" lon="5.209302773162356" id="-71843">
		<tag k="alt_name" v="Brendøyosen" />
		<tag k="name" v="Brennøyosen" />
		<tag k="natural" v="strait" />
		<tag k="ssr:stedsnr" v="914934" />
	</node>
	<node lat="59.92121111264871" lon="5.310663884201325" id="-71847">
		<tag k="name" v="Fitjarvika" />
		<tag k="natural" v="bay" />
		<tag k="ssr:stedsnr" v="948015" />
	</node>
	<node lat="59.81576666618914" lon="5.345400008465834" id="-71849">
		<tag k="name" v="Klubben" />
		<tag k="natural" v="cape" />
		<tag k="ssr:stedsnr" v="948107" />
	</node>
	<node lat="59.86408661270259" lon="5.272347679409404" id="-71851">
		<tag k="name" v="Hamnaholmen" />
		<tag k="place" v="islet" />
		<tag k="ssr:stedsnr" v="948407" />
	</node>
	<node lat="59.926209609875784" lon="5.264820425284705" id="-71852">
		<tag k="alt_name" v="Tøjesvågen" />
		<tag k="name" v="Tøkjesvågen" />
		<tag k="natural" v="bay" />
		<tag k="ssr:stedsnr" v="981706" />
	</node>
	<node lat="59.928628706229986" lon="5.262572081375015" id="-71853">
		<tag k="name" v="Garnvika" />
		<tag k="natural" v="bay" />
		<tag k="ssr:stedsnr" v="981707" />
	</node>
	<node lat="59.919526297987986" lon="5.261457853232566" id="-71854">
		<tag k="name" v="Pilanova" />
		<tag k="natural" v="cape" />
		<tag k="ssr:stedsnr" v="981708" />
	</node>
	<node lat="59.92226302487913" lon="5.25850747797731" id="-71856">
		<tag k="name" v="Pilastraumen" />
		<tag k="natural" v="strait" />
		<tag k="ssr:stedsnr" v="981710" />
	</node>
	<node lat="59.92272843125132" lon="5.272329218399102" id="-71857">
		<tag k="alt_name" v="Austravikjo" />
		<tag k="name" v="Austravika" />
		<tag k="natural" v="bay" />
		<tag k="ssr:stedsnr" v="981714" />
	</node>
	<node lat="59.925597922965295" lon="5.2055500147788525" id="-71858">
		<tag k="name" v="Siglehamn" />
		<tag k="natural" v="bay" />
		<tag k="ssr:stedsnr" v="981722" />
	</node>
	<node lat="59.95337044503423" lon="5.396369244487604" id="-71867">
		<tag k="loc_name" v="Engevikneset" />
		<tag k="name" v="Engjavikneset" />
		<tag k="natural" v="cape" />
		<tag k="ssr:stedsnr" v="3156" />
	</node>
	<node lat="59.95081389018478" lon="5.028916658753978" id="-71869">
		<tag k="bay" v="fjord" />
		<tag k="name" v="Selbjørnsfjorden" />
		<tag k="natural" v="bay" />
		<tag k="ssr:stedsnr" v="4048" />
	</node>
	<node lat="59.90086672335815" lon="5.3022074994747594" id="-71879">
		<tag k="alt_name" v="Breidavika" />
		<tag k="name" v="Breiavika" />
		<tag k="natural" v="bay" />
		<tag k="ssr:stedsnr" v="4561" />
	</node>
	<node lat="59.899786108910384" lon="5.2600055557724685" id="-71883">
		<tag k="alt_name" v="Vardaneset" />
		<tag k="name" v="Vardeneset" />
		<tag k="natural" v="cape" />
		<tag k="ssr:stedsnr" v="25061" />
	</node>
	<node lat="59.919044446839564" lon="5.238661112513402" id="-71884">
		<tag k="name" v="Gullura" />
		<tag k="natural" v="bay" />
		<tag k="ssr:stedsnr" v="37469" />
	</node>
	<node lat="59.949202774705384" lon="5.406633331071538" id="-71886">
		<tag k="name" v="Holmsund" />
		<tag k="natural" v="strait" />
		<tag k="ssr:stedsnr" v="37097" />
	</node>
	<node lat="59.94787941409909" lon="5.40613663637869" id="-71887">
		<tag k="alt_name" v="Visvikevågen" />
		<tag k="name" v="Vistvikevågen" />
		<tag k="natural" v="bay" />
		<tag k="ssr:stedsnr" v="37100" />
	</node>
	<node lat="59.92311944295046" lon="5.203030554130171" id="-71889">
		<tag k="name" v="Litleholmen" />
		<tag k="place" v="islet" />
		<tag k="ssr:stedsnr" v="37465" />
	</node>
	<node lat="59.812286110044035" lon="5.340716671278213" id="-71890">
		<tag k="name" v="Brandaneset" />
		<tag k="natural" v="cape" />
		<tag k="ssr:stedsnr" v="37114" />
	</node>
	<node lat="59.919605558422674" lon="5.234911117310838" id="-71896">
		<tag k="name" v="Litleholmen" />
		<tag k="place" v="island" />
		<tag k="ssr:stedsnr" v="37471" />
	</node>
	<node lat="59.89950277953963" lon="5.208586116133019" id="-71897">
		<tag k="alt_name" v="Dalatåa" />
		<tag k="name" v="Dalaklubben" />
		<tag k="natural" v="cape" />
		<tag k="ssr:stedsnr" v="37488" />
	</node>
	<node lat="59.92342777391947" lon="5.145713891811152" id="-71898">
		<tag k="fixme" v="consider seamark:type=rock or natural=shoal" />
		<tag k="name" v="Svinsundskjeret" />
		<tag k="place" v="islet" />
		<tag k="ssr:stedsnr" v="38453" />
	</node>
	<node lat="59.893374633675684" lon="5.208915762808788" id="-71899">
		<tag k="name" v="Tranøyklubben" />
		<tag k="natural" v="cape" />
		<tag k="ssr:stedsnr" v="38497" />
	</node>
	<node lat="59.91106111350656" lon="5.135077783406876" id="-71902">
		<tag k="alt_name" v="Urdøya, store" />
		<tag k="name" v="Stora Urdøyna" />
		<tag k="place" v="islet" />
		<tag k="ssr:stedsnr" v="58767" />
	</node>
	<node lat="59.87800833324445" lon="5.267761117301551" id="-71903">
		<tag k="name" v="Hjelmosen" />
		<tag k="natural" v="strait" />
		<tag k="ssr:stedsnr" v="64845" />
	</node>
	<node lat="59.926966664081114" lon="5.129105549274935" id="-71905">
		<tag k="name" v="Hanøyosen" />
		<tag k="natural" v="strait" />
		<tag k="ssr:stedsnr" v="64797" />
	</node>
	<node lat="59.92068055476371" lon="5.483016665420844" id="-71910">
		<tag k="name" v="Skipavika" />
		<tag k="natural" v="bay" />
		<tag k="ssr:stedsnr" v="65738" />
	</node>
	<node lat="59.8077001161685" lon="5.320618494084188" id="-71911">
		<tag k="alt_name" v="Stokksundet" />
		<tag k="name" v="Stokksund" />
		<tag k="natural" v="strait" />
		<tag k="ssr:stedsnr" v="65531" />
	</node>
	<node lat="59.92114157850227" lon="5.2264683457046575" id="-71912">
		<tag k="name" v="Ivarsøygavlen" />
		<tag k="natural" v="cape" />
		<tag k="ssr:stedsnr" v="65781" />
	</node>
	<node lat="59.90848055193156" lon="5.178191667335256" id="-71915">
		<tag k="alt_name" v="Vågen, s" />
		<tag k="name" v="Søre Vågen" />
		<tag k="natural" v="bay" />
		<tag k="ssr:stedsnr" v="65886" />
	</node>
	<node lat="59.87875555991948" lon="5.28930000111276" id="-71916">
		<tag k="name" v="Brattaberg" />
		<tag k="natural" v="cape" />
		<tag k="ssr:stedsnr" v="86201" />
	</node>
	<node lat="59.907194445851545" lon="5.119438892342513" id="-71917">
		<tag k="name" v="Austre Remals-sundet" />
		<tag k="natural" v="strait" />
		<tag k="ssr:stedsnr" v="98527" />
	</node>
	<node lat="59.944463891972404" lon="5.426799992636974" id="-71918">
		<tag k="name" v="Dørevika" />
		<tag k="natural" v="bay" />
		<tag k="ssr:stedsnr" v="98026" />
	</node>
	<node lat="59.91573333496995" lon="5.225836102805323" id="-71920">
		<tag k="name" v="Breivikepøylo" />
		<tag k="natural" v="bay" />
		<tag k="ssr:stedsnr" v="98444" />
	</node>
	<node lat="59.90922500217947" lon="5.1454222212271645" id="-71923">
		<tag k="name" v="Torvbleikjene" />
		<tag k="place" v="island" />
		<tag k="ssr:stedsnr" v="98490" />
	</node>
	<node lat="59.94895555873024" lon="5.3228722233173285" id="-71926">
		<tag k="name" v="Øspevika" />
		<tag k="natural" v="bay" />
		<tag k="ssr:stedsnr" v="99035" />
	</node>
	<node lat="59.8868444402618" lon="5.313074996562575" id="-71932">
		<tag k="name" v="Gåsakjelda" />
		<tag k="natural" v="bay" />
		<tag k="ssr:stedsnr" v="125828" />
	</node>
	<node lat="59.87261944080997" lon="5.243638884044138" id="-71933">
		<tag k="name" v="Sætravågen" />
		<tag k="natural" v="bay" />
		<tag k="ssr:stedsnr" v="125932" />
	</node>
	<node lat="59.902102773476656" lon="5.144372222190965" id="-71934">
		<tag k="alt_name" v="Skipsholmen, s" />
		<tag k="name" v="Søre Skipsholmen" />
		<tag k="place" v="islet" />
		<tag k="ssr:stedsnr" v="125766" />
	</node>
	<node lat="59.92104166370308" lon="5.280666660128515" id="-71936">
		<tag k="name" v="Svelto" />
		<tag k="place" v="islet" />
		<tag k="ssr:stedsnr" v="125784" />
	</node>
	<node lat="59.91711639965271" lon="5.126228087567246" id="-71937">
		<tag k="name" v="Hanøy" />
		<tag k="place" v="island" />
		<tag k="ssr:stedsnr" v="125790" />
	</node>
	<node lat="59.9260138927502" lon="5.249474996630516" id="-71941">
		<tag k="name" v="Engesundet" />
		<tag k="natural" v="strait" />
		<tag k="ssr:stedsnr" v="146043" />
	</node>
	<node lat="59.9159264191739" lon="5.25709600024525" id="-71942">
		<tag k="name" v="Gassen" />
		<tag k="natural" v="cape" />
		<tag k="ssr:stedsnr" v="146044" />
	</node>
	<node lat="59.88753888736443" lon="5.224250004734466" id="-71943">
		<tag k="alt_name" v="Trangevågen" />
		<tag k="name" v="Trongevågen" />
		<tag k="natural" v="bay" />
		<tag k="ssr:stedsnr" v="146064" />
	</node>
	<node lat="59.812558332159114" lon="5.331388887271233" id="-71947">
		<tag k="name" v="Jutavika" />
		<tag k="natural" v="bay" />
		<tag k="ssr:stedsnr" v="159076" />
	</node>
	<node lat="59.81858333226308" lon="5.34464723062498" id="-71948">
		<tag k="name" v="Skulaneset" />
		<tag k="natural" v="cape" />
		<tag k="ssr:stedsnr" v="159086" />
	</node>
	<node lat="59.90447777554928" lon="5.214786114741561" id="-71953">
		<tag k="name" v="Grunnasundsholmane" />
		<tag k="place" v="islet" />
		<tag k="ssr:stedsnr" v="159466" />
	</node>
	<node lat="59.884663890958194" lon="5.292513885024241" id="-71954">
		<tag k="name" v="Åtteringsholo" />
		<tag k="natural" v="bay" />
		<tag k="ssr:stedsnr" v="159467" />
	</node>
	<node lat="59.8862194415654" lon="5.268580554716952" id="-71955">
		<tag k="name" v="Hjelmatåa" />
		<tag k="place" v="island" />
		<tag k="ssr:stedsnr" v="159474" />
	</node>
	<node lat="59.928036115208755" lon="5.243966659810333" id="-71956">
		<tag k="name" v="Holkahola" />
		<tag k="natural" v="bay" />
		<tag k="ssr:stedsnr" v="159489" />
	</node>
	<node lat="59.88453610726484" lon="5.289455558820383" id="-71957">
		<tag k="name" v="Hellandstraumen" />
		<tag k="natural" v="strait" />
		<tag k="ssr:stedsnr" v="185796" />
	</node>
	<node lat="59.89899166403703" lon="5.162875001914344" id="-71960">
		<tag k="name" v="Vassøy" />
		<tag k="place" v="island" />
		<tag k="ssr:stedsnr" v="185852" />
	</node>
	<node lat="59.92803889064594" lon="5.259483339588105" id="-71965">
		<tag k="name" v="Pilapollen" />
		<tag k="natural" v="bay" />
		<tag k="ssr:stedsnr" v="186801" />
	</node>
	<node lat="59.92204980442729" lon="5.165956746432041" id="-71966">
		<tag k="name" v="Eggøy" />
		<tag k="place" v="island" />
		<tag k="ssr:stedsnr" v="186804" />
	</node>
	<node lat="59.87606729676458" lon="5.286871560541912" id="-71969">
		<tag k="alt_name" v="Søre Hetlevika" />
		<tag k="name" v="Hetlevik" />
		<tag k="natural" v="bay" />
		<tag k="ssr:stedsnr" v="207181" />
	</node>
	<node lat="59.92991944582722" lon="5.271133339599045" id="-71970">
		<tag k="fixme" v="consider seamark:type=rock or natural=shoal" />
		<tag k="name" v="Osaskjeret" />
		<tag k="place" v="islet" />
		<tag k="ssr:stedsnr" v="207021" />
	</node>
	<node lat="59.976627780867155" lon="5.286177778355469" id="-71973">
		<tag k="name" v="Revet" />
		<tag k="natural" v="shoal" />
		<tag k="place" v="locality" />
		<tag k="ssr:stedsnr" v="268035" />
	</node>
	<node lat="59.8104416696267" lon="5.348169445716452" id="-71980">
		<tag k="name" v="Trulsastraumen" />
		<tag k="natural" v="strait" />
		<tag k="ssr:stedsnr" v="280065" />
	</node>
	<node lat="59.952637647986634" lon="5.396820347053363" id="-71983">
		<tag k="name" v="Apalvika" />
		<tag k="natural" v="bay" />
		<tag k="ssr:stedsnr" v="280070" />
	</node>
	<node lat="59.88361111358806" lon="5.201488889261084" id="-71984">
		<tag k="name" v="Vestre Vika" />
		<tag k="natural" v="bay" />
		<tag k="ssr:stedsnr" v="280535" />
	</node>
	<node lat="59.88910833348126" lon="5.1799472279185546" id="-71985">
		<tag k="name" v="Arholmsundet" />
		<tag k="natural" v="strait" />
		<tag k="ssr:stedsnr" v="280537" />
	</node>
	<node lat="59.9012611121961" lon="5.228591671500463" id="-71986">
		<tag k="name" v="Rundeholmen" />
		<tag k="place" v="islet" />
		<tag k="ssr:stedsnr" v="280418" />
	</node>
	<node lat="59.853383333721226" lon="5.305647221019986" id="-71988">
		<tag k="name" v="Lønevågen" />
		<tag k="natural" v="bay" />
		<tag k="ssr:stedsnr" v="280367" />
	</node>
	<node lat="59.90134444236297" lon="5.184308334482355" id="-71990">
		<tag k="name" v="Kvernevika" />
		<tag k="natural" v="bay" />
		<tag k="ssr:stedsnr" v="280472" />
	</node>
	<node lat="59.93070277346354" lon="5.20086943744986" id="-71999">
		<tag k="alt_name" v="Stora Siglo" />
		<tag k="name" v="Siglo" />
		<tag k="place" v="island" />
		<tag k="ssr:stedsnr" v="307784" />
	</node>
	<node lat="59.92399999624051" lon="5.449580562410764" id="-72002">
		<tag k="name" v="Stord" />
		<tag k="place" v="island" />
		<tag k="ssr:stedsnr" v="307988" />
	</node>
	<node lat="59.95437777822578" lon="5.323794449580278" id="-72005">
		<tag k="name" v="Gloppevågen" />
		<tag k="natural" v="bay" />
		<tag k="ssr:stedsnr" v="307808" />
	</node>
	<node lat="59.89299444660154" lon="5.232500003638578" id="-72007">
		<tag k="name" v="Sildavågen" />
		<tag k="natural" v="bay" />
		<tag k="ssr:stedsnr" v="307845" />
	</node>
	<node lat="59.87501944111454" lon="5.281630556399506" id="-72010">
		<tag k="alt_name" v="Hellandsholmen, s" />
		<tag k="name" v="Søre Hellandsholmen" />
		<tag k="place" v="islet" />
		<tag k="ssr:stedsnr" v="307932" />
	</node>
	<node lat="59.91814722408728" lon="5.242772225471683" id="-72012">
		<tag k="name" v="Skateleid" />
		<tag k="natural" v="strait" />
		<tag k="ssr:stedsnr" v="328064" />
	</node>
	<node lat="59.884430559859" lon="5.224925000421214" id="-72013">
		<tag k="name" v="Breidavik" />
		<tag k="natural" v="bay" />
		<tag k="ssr:stedsnr" v="328066" />
	</node>
	<node lat="59.92627500309772" lon="5.226791665383259" id="-72014">
		<tag k="name" v="Galtestein" />
		<tag k="natural" v="shoal" />
		<tag k="place" v="locality" />
		<tag k="ssr:stedsnr" v="328069" />
	</node>
	<node lat="59.92502222081633" lon="5.251586106618912" id="-72016">
		<tag k="name" v="Grunno" />
		<tag k="natural" v="strait" />
		<tag k="ssr:stedsnr" v="341092" />
	</node>
	<node lat="59.878191662963545" lon="5.218663893966607" id="-72022">
		<tag k="name" v="Kvakholmen" />
		<tag k="place" v="islet" />
		<tag k="ssr:stedsnr" v="341544" />
	</node>
	<node lat="59.86956111097603" lon="5.232213884911366" id="-72023">
		<tag k="alt_name" v="Nyleida" />
		<tag k="bay" v="fjord" />
		<tag k="name" v="Nyleia" />
		<tag k="natural" v="bay" />
		<tag k="ssr:stedsnr" v="341546" />
	</node>
	<node lat="59.850027777103115" lon="5.307702780618856" id="-72028">
		<tag k="alt_name" v="Storevikholmen, nordre;Nordre Storavikholmen" />
		<tag k="name" v="Nordre Storevikholmen" />
		<tag k="place" v="islet" />
		<tag k="ssr:stedsnr" v="367878" />
	</node>
	<node lat="59.933111109744885" lon="5.312502778300671" id="-72030">
		<tag k="alt_name" v="Ryssneset" />
		<tag k="name" v="Rossnes" />
		<tag k="natural" v="cape" />
		<tag k="ssr:stedsnr" v="368598" />
	</node>
	<node lat="59.931875003632484" lon="5.2354277843961246" id="-72033">
		<tag k="name" v="Dyrholmen" />
		<tag k="place" v="islet" />
		<tag k="ssr:stedsnr" v="368834" />
	</node>
	<node lat="59.937558334793685" lon="5.210761113743501" id="-72034">
		<tag k="name" v="Litleholmen" />
		<tag k="place" v="islet" />
		<tag k="ssr:stedsnr" v="368836" />
	</node>
	<node lat="59.97307064451891" lon="5.339453675141123" id="-72036">
		<tag k="name" v="Færøyosen" />
		<tag k="natural" v="bay" />
		<tag k="ssr:stedsnr" v="389280" />
	</node>
	<node lat="59.922845908085186" lon="5.265216974137956" id="-72038">
		<tag k="alt_name" v="Margretevikjo" />
		<tag k="name" v="Margretevika" />
		<tag k="natural" v="bay" />
		<tag k="ssr:stedsnr" v="401124" />
	</node>
	<node lat="59.92356944688431" lon="5.297558329845417" id="-72039">
		<tag k="name" v="Fonnaklubben" />
		<tag k="natural" v="cape" />
		<tag k="ssr:stedsnr" v="401128" />
	</node>
	<node lat="59.87571389159542" lon="5.335499993549253" id="-72042">
		<tag k="name" v="Hogsteholmane" />
		<tag k="place" v="islet" />
		<tag k="ssr:stedsnr" v="401381" />
	</node>
	<node lat="59.87850832885123" lon="5.327672216932609" id="-72043">
		<tag k="name" v="Kvernevika" />
		<tag k="natural" v="bay" />
		<tag k="ssr:stedsnr" v="401383" />
	</node>
	<node lat="59.90728610914784" lon="5.208869440288534" id="-72045">
		<tag k="name" v="Søre Langøyvågen" />
		<tag k="natural" v="bay" />
		<tag k="ssr:stedsnr" v="401433" />
	</node>
	<node lat="59.94179444311865" lon="5.433899996171848" id="-72046">
		<tag k="name" v="Hagebergsvika" />
		<tag k="natural" v="bay" />
		<tag k="ssr:stedsnr" v="402021" />
	</node>
	<node lat="59.88641110949414" lon="5.198272221568735" id="-72047">
		<tag k="name" v="Grunnevågen" />
		<tag k="natural" v="bay" />
		<tag k="ssr:stedsnr" v="402531" />
	</node>
	<node lat="59.92512500298249" lon="5.1996999987138075" id="-72048">
		<tag k="name" v="Sigleplogen" />
		<tag k="natural" v="bay" />
		<tag k="ssr:stedsnr" v="428767" />
	</node>
	<node lat="59.9386416638748" lon="5.253363885816883" id="-72051">
		<tag k="name" v="Lamholmen" />
		<tag k="place" v="islet" />
		<tag k="ssr:stedsnr" v="428797" />
	</node>
	<node lat="59.92457534046801" lon="5.221167888488319" id="-72052">
		<tag k="fixme" v="consider seamark:type=rock or natural=shoal" />
		<tag k="name" v="Galtane" />
		<tag k="place" v="islet" />
		<tag k="ssr:stedsnr" v="428766" />
	</node>
	<node lat="59.969349998740164" lon="5.3526666657487985" id="-72053">
		<tag k="alt_name" v="Klårnesklubben" />
		<tag k="name" v="Klårneset" />
		<tag k="natural" v="cape" />
		<tag k="ssr:stedsnr" v="429179" />
	</node>
	<node lat="59.896855558937354" lon="5.330411118814702" id="-72054">
		<tag k="name" v="Sandvika" />
		<tag k="natural" v="bay" />
		<tag k="ssr:stedsnr" v="428833" />
	</node>
	<node lat="59.8535138850082" lon="5.269077777623029" id="-72059">
		<tag k="name" v="Sandvika" />
		<tag k="natural" v="bay" />
		<tag k="ssr:stedsnr" v="429538" />
	</node>
	<node lat="59.92523388218313" lon="5.47488800542212" id="-72060">
		<tag k="alt_name" v="Naustvik" />
		<tag k="name" v="Naustvika" />
		<tag k="natural" v="bay" />
		<tag k="ssr:stedsnr" v="429540" />
	</node>
	<node lat="59.92084272109692" lon="5.2611468558232355" id="-72062">
		<tag k="alt_name" v="Piløya" />
		<tag k="name" v="Pilaholmen" />
		<tag k="place" v="islet" />
		<tag k="ssr:stedsnr" v="429759" />
	</node>
	<node lat="59.8290138873439" lon="5.54604167228596" id="-72064">
		<tag k="bay" v="fjord" />
		<tag k="name" v="Langenuen" />
		<tag k="natural" v="bay" />
		<tag k="ssr:stedsnr" v="489190" />
	</node>
	<node lat="59.907419446428605" lon="5.224294444907114" id="-72066">
		<tag k="name" v="Avløypet" />
		<tag k="place" v="islet" />
		<tag k="ssr:stedsnr" v="489865" />
	</node>
	<node lat="59.85028055806703" lon="5.300366658355672" id="-72067">
		<tag k="name" v="Bøkenes" />
		<tag k="natural" v="cape" />
		<tag k="ssr:stedsnr" v="489882" />
	</node>
	<node lat="59.88550277922333" lon="5.280063897393814" id="-72068">
		<tag k="name" v="Kråkevågen" />
		<tag k="natural" v="bay" />
		<tag k="ssr:stedsnr" v="489836" />
	</node>
	<node lat="59.917508335931416" lon="5.270449997960144" id="-72069">
		<tag k="name" v="Bondeholmen" />
		<tag k="place" v="islet" />
		<tag k="ssr:stedsnr" v="489769" />
	</node>
	<node lat="59.92254444524049" lon="5.2332444459396035" id="-72070">
		<tag k="name" v="Fureholmen" />
		<tag k="place" v="islet" />
		<tag k="ssr:stedsnr" v="489779" />
	</node>
	<node lat="59.9292880697241" lon="5.2155961195917735" id="-72071">
		<tag k="name" v="Bukkholmen" />
		<tag k="place" v="islet" />
		<tag k="ssr:stedsnr" v="489782" />
	</node>
	<node lat="59.866619447797845" lon="5.282427783818354" id="-72073">
		<tag k="name" v="Teistholmen" />
		<tag k="place" v="islet" />
		<tag k="ssr:stedsnr" v="489913" />
	</node>
	<node lat="59.93712222179982" lon="5.178122225331085" id="-72077">
		<tag k="name" v="Sigleflua" />
		<tag k="natural" v="shoal" />
		<tag k="place" v="locality" />
		<tag k="ssr:stedsnr" v="510075" />
	</node>
	<node lat="59.89163333037896" lon="5.172711112875028" id="-72078">
		<tag k="name" v="Sølvbelteholmen" />
		<tag k="place" v="islet" />
		<tag k="ssr:stedsnr" v="510081" />
	</node>
	<node lat="59.9476583324917" lon="5.259211118319432" id="-72079">
		<tag k="name" v="Litlavatnskagen" />
		<tag k="natural" v="cape" />
		<tag k="ssr:stedsnr" v="510027" />
	</node>
	<node lat="59.95971388976415" lon="5.2668666592957525" id="-72080">
		<tag k="name" v="Skallen" />
		<tag k="natural" v="shoal" />
		<tag k="place" v="locality" />
		<tag k="ssr:stedsnr" v="510028" />
	</node>
	<node lat="59.933502780418664" lon="5.248269439939931" id="-72081">
		<tag k="alt_name" v="Teløyhavn" />
		<tag k="name" v="Teløyhamn" />
		<tag k="natural" v="bay" />
		<tag k="ssr:stedsnr" v="510040" />
	</node>
	<node lat="59.92360000006843" lon="5.2679388903103535" id="-72082">
		<tag k="alt_name" v="Smedholmsundet" />
		<tag k="name" v="Smedasundet" />
		<tag k="natural" v="strait" />
		<tag k="ssr:stedsnr" v="510041" />
	</node>
	<node lat="59.86651666253008" lon="5.289163892176436" id="-72083">
		<tag k="name" v="Fløbergflua" />
		<tag k="natural" v="shoal" />
		<tag k="place" v="locality" />
		<tag k="ssr:stedsnr" v="510178" />
	</node>
	<node lat="59.817366670444784" lon="5.325013897315431" id="-72084">
		<tag k="name" v="Selevik" />
		<tag k="natural" v="bay" />
		<tag k="ssr:stedsnr" v="510182" />
	</node>
	<node lat="59.85604999942573" lon="5.296336106903915" id="-72085">
		<tag k="name" v="Koløyosen" />
		<tag k="natural" v="strait" />
		<tag k="ssr:stedsnr" v="510183" />
	</node>
	<node lat="59.982124998878604" lon="5.3130222289896505" id="-72086">
		<tag k="name" v="Austrenesboene" />
		<tag k="natural" v="shoal" />
		<tag k="place" v="locality" />
		<tag k="ssr:stedsnr" v="510246" />
	</node>
	<node lat="59.971658334706184" lon="5.304036103514935" id="-72088">
		<tag k="name" v="Korsvikbøen" />
		<tag k="natural" v="cape" />
		<tag k="ssr:stedsnr" v="523036" />
	</node>
	<node lat="59.94496110861543" lon="5.424072230623444" id="-72089">
		<tag k="name" v="Brakavika" />
		<tag k="natural" v="bay" />
		<tag k="ssr:stedsnr" v="523037" />
	</node>
	<node lat="59.816822222760464" lon="5.346269452039792" id="-72093">
		<tag k="fixme" v="consider seamark:type=rock or natural=shoal" />
		<tag k="name" v="Lønevågskjera" />
		<tag k="place" v="islet" />
		<tag k="ssr:stedsnr" v="523100" />
	</node>
	<node lat="59.89979137661055" lon="5.24007573880683" id="-72095">
		<tag k="name" v="Nordre Straumøytåa" />
		<tag k="natural" v="cape" />
		<tag k="ssr:stedsnr" v="523475" />
	</node>
	<node lat="59.90316111393376" lon="5.224969452585143" id="-72096">
		<tag k="name" v="Skorfesteneset" />
		<tag k="natural" v="cape" />
		<tag k="ssr:stedsnr" v="523480" />
	</node>
	<node lat="59.89230555192409" lon="5.274705560454073" id="-72097">
		<tag k="name" v="Hjelmasundet" />
		<tag k="natural" v="strait" />
		<tag k="ssr:stedsnr" v="523491" />
	</node>
	<node lat="59.87440555593123" lon="5.236077782793989" id="-72098">
		<tag k="name" v="Søre Kuvik" />
		<tag k="natural" v="bay" />
		<tag k="ssr:stedsnr" v="523569" />
	</node>
	<node lat="59.94556944270896" lon="5.273275008460467" id="-72103">
		<tag k="name" v="Fonno" />
		<tag k="place" v="island" />
		<tag k="ssr:stedsnr" v="549796" />
	</node>
	<node lat="59.96948662862054" lon="5.360410193952671" id="-72108">
		<tag k="alt_name" v="Skaråvika" />
		<tag k="name" v="Skåravika" />
		<tag k="natural" v="bay" />
		<tag k="ssr:stedsnr" v="550189" />
	</node>
	<node lat="59.81285277628594" lon="5.338588886952598" id="-72109">
		<tag k="name" v="Brandanesbukta" />
		<tag k="natural" v="bay" />
		<tag k="ssr:stedsnr" v="550522" />
	</node>
	<node lat="59.90321111461391" lon="5.141363888411596" id="-72111">
		<tag k="alt_name" v="Skipsholmen, nordre" />
		<tag k="name" v="Nordre Skipsholmen" />
		<tag k="place" v="islet" />
		<tag k="ssr:stedsnr" v="550740" />
	</node>
	<node lat="59.910727165499644" lon="5.119293502913244" id="-72112">
		<tag k="alt_name" v="Klammerøy" />
		<tag k="name" v="Klamsøya" />
		<tag k="place" v="island" />
		<tag k="ssr:stedsnr" v="550748" />
	</node>
	<node lat="59.83674318842153" lon="5.312509023130917" id="-72113">
		<tag k="name" v="Hermannshamn" />
		<tag k="natural" v="bay" />
		<tag k="ssr:stedsnr" v="571190" />
	</node>
	<node lat="59.96280277955758" lon="5.290666674286076" id="-72115">
		<tag k="name" v="Kjeldholmsundet" />
		<tag k="natural" v="strait" />
		<tag k="ssr:stedsnr" v="583029" />
	</node>
	<node lat="59.86706111451785" lon="5.289613894507905" id="-72116">
		<tag k="name" v="Fløbergvika" />
		<tag k="natural" v="bay" />
		<tag k="ssr:stedsnr" v="583372" />
	</node>
	<node lat="59.87842499845969" lon="5.337388880260153" id="-72117">
		<tag k="name" v="Stutaholmen" />
		<tag k="place" v="islet" />
		<tag k="ssr:stedsnr" v="583384" />
	</node>
	<node lat="59.81360832921741" lon="5.343041668202948" id="-72121">
		<tag k="name" v="Vågen" />
		<tag k="natural" v="bay" />
		<tag k="ssr:stedsnr" v="583088" />
	</node>
	<node lat="59.89871821026009" lon="5.2335887666373715" id="-72122">
		<tag k="name" v="Eriksholmen" />
		<tag k="place" v="islet" />
		<tag k="ssr:stedsnr" v="583430" />
	</node>
	<node lat="59.90049444809781" lon="5.227894451725573" id="-72123">
		<tag k="name" v="Bleikjene" />
		<tag k="place" v="island" />
		<tag k="ssr:stedsnr" v="583431" />
	</node>
	<node lat="59.8837916671972" lon="5.276869447668294" id="-72124">
		<tag k="name" v="Kråketongane" />
		<tag k="place" v="island" />
		<tag k="ssr:stedsnr" v="583442" />
	</node>
	<node lat="59.95585841696065" lon="5.296527017774089" id="-72127">
		<tag k="alt_name" v="Nesseklubben" />
		<tag k="name" v="Nesklubben" />
		<tag k="natural" v="cape" />
		<tag k="ssr:stedsnr" v="584018" />
	</node>
	<node lat="59.91142778021625" lon="5.115311112877952" id="-72130">
		<tag k="name" v="Molteholmane" />
		<tag k="place" v="islet" />
		<tag k="ssr:stedsnr" v="586617" />
	</node>
	<node lat="59.98039167027894" lon="5.317252770791346" id="-72131">
		<tag k="loc_name" v="Stokkneset" />
		<tag k="name" v="Stokksneset" />
		<tag k="natural" v="cape" />
		<tag k="ssr:stedsnr" v="610174" />
	</node>
	<node lat="59.93513333671913" lon="5.312550004560245" id="-72132">
		<tag k="alt_name" v="Ryssnesbleikjene" />
		<tag k="fixme" v="consider seamark:type=rock or natural=shoal" />
		<tag k="name" v="Bleikjene" />
		<tag k="place" v="islet" />
		<tag k="ssr:stedsnr" v="610813" />
	</node>
	<node lat="59.93777777741891" lon="5.230675003782204" id="-72133">
		<tag k="name" v="Porsholmen" />
		<tag k="place" v="islet" />
		<tag k="ssr:stedsnr" v="610815" />
	</node>
	<node lat="59.942866667818365" lon="5.252244445194542" id="-72135">
		<tag k="alt_name" v="Hetta" />
		<tag k="fixme" v="consider seamark:type=rock or natural=shoal" />
		<tag k="name" v="Hetto" />
		<tag k="place" v="islet" />
		<tag k="ssr:stedsnr" v="610827" />
	</node>
	<node lat="59.89150000225684" lon="5.271452772466426" id="-72138">
		<tag k="name" v="Hjelmen" />
		<tag k="place" v="island" />
		<tag k="ssr:stedsnr" v="610858" />
	</node>
	<node lat="59.87075833455495" lon="5.242991671208774" id="-72140">
		<tag k="name" v="Vågsneset" />
		<tag k="natural" v="cape" />
		<tag k="ssr:stedsnr" v="610944" />
	</node>
	<node lat="59.95979721802235" lon="5.386955560847032" id="-72142">
		<tag k="alt_name" v="Jonsteneset" />
		<tag k="name" v="Jonstuneset" />
		<tag k="natural" v="cape" />
		<tag k="ssr:stedsnr" v="631229" />
	</node>
	<node lat="59.93797500267373" lon="5.168797221867414" id="-72143">
		<tag k="name" v="Siglerevet" />
		<tag k="natural" v="shoal" />
		<tag k="place" v="locality" />
		<tag k="ssr:stedsnr" v="631071" />
	</node>
	<node lat="59.871716669003455" lon="5.287011110806688" id="-72144">
		<tag k="alt_name" v="Skreiklubben" />
		<tag k="name" v="Skreiberg" />
		<tag k="natural" v="cape" />
		<tag k="ssr:stedsnr" v="631171" />
	</node>
	<node lat="59.81231389019885" lon="5.33458332753193" id="-72145">
		<tag k="alt_name" v="Fiskeneset" />
		<tag k="name" v="Fiskaneset" />
		<tag k="natural" v="cape" />
		<tag k="ssr:stedsnr" v="631185" />
	</node>
	<node lat="59.8185638860977" lon="5.319833340117967" id="-72148">
		<tag k="name" v="Kjølpeneset" />
		<tag k="natural" v="cape" />
		<tag k="ssr:stedsnr" v="644074" />
	</node>
	<node lat="59.81136944410155" lon="5.346991663560972" id="-72149">
		<tag k="name" v="Litle Sjøbuholmen" />
		<tag k="place" v="island" />
		<tag k="ssr:stedsnr" v="644078" />
	</node>
	<node lat="59.89507500123313" lon="5.281483329396349" id="-72156">
		<tag k="name" v="Kobbehola" />
		<tag k="natural" v="bay" />
		<tag k="ssr:stedsnr" v="644102" />
	</node>
	<node lat="59.89431666618981" lon="5.28060833146518" id="-72158">
		<tag k="name" v="Steingardseidosen" />
		<tag k="natural" v="bay" />
		<tag k="ssr:stedsnr" v="644410" />
	</node>
	<node lat="59.894238884891344" lon="5.284522216555387" id="-72159">
		<tag k="name" v="Steingardseid" />
		<tag k="natural" v="isthmus" />
		<tag k="place" v="locality" />
		<tag k="ssr:stedsnr" v="644412" />
	</node>
	<node lat="59.935326466063195" lon="5.2090718695274525" id="-72161">
		<tag k="name" v="Klungerholmen" />
		<tag k="place" v="islet" />
		<tag k="ssr:stedsnr" v="705529" />
	</node>
	<node lat="59.90623333074033" lon="5.191811105013763" id="-72162">
		<tag k="name" v="Hamn" />
		<tag k="natural" v="bay" />
		<tag k="ssr:stedsnr" v="705531" />
	</node>
	<node lat="59.936958329201616" lon="5.225180549459059" id="-72163">
		<tag k="name" v="Håboholmsundet" />
		<tag k="natural" v="strait" />
		<tag k="ssr:stedsnr" v="705537" />
	</node>
	<node lat="59.90017677021422" lon="5.179535652127855" id="-72164">
		<tag k="name" v="Nordre Trollholmsvågen" />
		<tag k="natural" v="bay" />
		<tag k="ssr:stedsnr" v="705544" />
	</node>
	<node lat="59.909436792187925" lon="5.287772036293969" id="-72170">
		<tag k="name" v="Vågen" />
		<tag k="natural" v="bay" />
		<tag k="ssr:stedsnr" v="705134" />
	</node>
	<node lat="59.909161114893486" lon="5.12416944069844" id="-72171">
		<tag k="name" v="Klamrøyane" />
		<tag k="place" v="island" />
		<tag k="ssr:stedsnr" v="708632" />
	</node>
	<node lat="59.93447499652828" lon="5.267733342346678" id="-72177">
		<tag k="name" v="Rossnes" />
		<tag k="natural" v="cape" />
		<tag k="ssr:stedsnr" v="732793" />
	</node>
	<node lat="59.936200003872194" lon="5.222936110307843" id="-72178">
		<tag k="alt_name" v="Håboholmen" />
		<tag k="name" v="Håbåholmen" />
		<tag k="place" v="islet" />
		<tag k="ssr:stedsnr" v="732794" />
	</node>
	<node lat="59.89485832970621" lon="5.280186102647773" id="-72184">
		<tag k="name" v="Kobbavik" />
		<tag k="natural" v="bay" />
		<tag k="ssr:stedsnr" v="753043" />
	</node>
	<node lat="59.940677776485565" lon="5.216572221585567" id="-72185">
		<tag k="name" v="Håboen" />
		<tag k="natural" v="shoal" />
		<tag k="place" v="locality" />
		<tag k="ssr:stedsnr" v="753051" />
	</node>
	<node lat="59.8919944410512" lon="5.258744446048369" id="-72189">
		<tag k="name" v="Sætermarketangen" />
		<tag k="natural" v="cape" />
		<tag k="ssr:stedsnr" v="765375" />
	</node>
	<node lat="59.94432221887995" lon="5.324586106856012" id="-72192">
		<tag k="name" v="Sagvika" />
		<tag k="natural" v="bay" />
		<tag k="ssr:stedsnr" v="766032" />
	</node>
	<node lat="59.92376942854612" lon="5.219931121607799" id="-72194">
		<tag k="fixme" v="consider seamark:type=rock or natural=shoal" />
		<tag k="name" v="Trehaugbleikja" />
		<tag k="place" v="islet" />
		<tag k="ssr:stedsnr" v="766431" />
	</node>
	<node lat="59.92324444111021" lon="5.210180553775706" id="-72195">
		<tag k="name" v="Sigleavløypet" />
		<tag k="place" v="islet" />
		<tag k="ssr:stedsnr" v="766439" />
	</node>
	<node lat="59.936693176684926" lon="5.206811232231605" id="-72196">
		<tag k="name" v="Rumpeholmen" />
		<tag k="place" v="islet" />
		<tag k="ssr:stedsnr" v="766440" />
	</node>
	<node lat="59.90245833222517" lon="5.236136107504728" id="-72198">
		<tag k="alt_name" v="Kvendnavågen" />
		<tag k="name" v="Kvernevågen" />
		<tag k="natural" v="bay" />
		<tag k="ssr:stedsnr" v="766467" />
	</node>
	<node lat="59.87971944520749" lon="5.2243388825957435" id="-72199">
		<tag k="fixme" v="consider seamark:type=rock or natural=shoal" />
		<tag k="name" v="Slotteskjeret" />
		<tag k="place" v="islet" />
		<tag k="ssr:stedsnr" v="766490" />
	</node>
	<node lat="59.923166666809934" lon="5.2921249966113795" id="-72200">
		<tag k="alt_name" v="Fonnableikene;Fonableikjene" />
		<tag k="name" v="Fonnableikjene" />
		<tag k="place" v="islet" />
		<tag k="ssr:stedsnr" v="788967" />
	</node>
	<node lat="59.890202520379404" lon="5.199365461448805" id="-72202">
		<tag k="name" v="Tranøy" />
		<tag k="place" v="island" />
		<tag k="ssr:stedsnr" v="792822" />
	</node>
	<node lat="59.893541668927504" lon="5.2504166633673846" id="-72203">
		<tag k="alt_name" v="Straumsøysundet;Austre Straumøysund" />
		<tag k="name" v="Austra Straumøysundet" />
		<tag k="natural" v="strait" />
		<tag k="ssr:stedsnr" v="792827" />
	</node>
	<node lat="59.92406111286784" lon="5.297805558265336" id="-72204">
		<tag k="fixme" v="multiple name tags, choose one and add the other to alt_name" />
		<tag k="name" v="Sørfonnatangen;Klubben" />
		<tag k="natural" v="cape" />
		<tag k="ssr:stedsnr" v="792757" />
	</node>
	<node lat="59.92719444240607" lon="5.141149992331178" id="-72206">
		<tag k="name" v="Eggholmen" />
		<tag k="place" v="islet" />
		<tag k="ssr:stedsnr" v="792764" />
	</node>
	<node lat="59.93838888468717" lon="5.3280388944002794" id="-72207">
		<tag k="name" v="Leirpollen" />
		<tag k="natural" v="bay" />
		<tag k="ssr:stedsnr" v="792769" />
	</node>
	<node lat="59.960845717353656" lon="5.287028452167901" id="-72212">
		<tag k="name" v="Skråmevika" />
		<tag k="natural" v="bay" />
		<tag k="ssr:stedsnr" v="793166" />
	</node>
	<node lat="59.88019722217389" lon="5.26943334214336" id="-72213">
		<tag k="name" v="Handfjellflua" />
		<tag k="natural" v="shoal" />
		<tag k="place" v="locality" />
		<tag k="ssr:stedsnr" v="814069" />
	</node>
	<node lat="59.914125003569104" lon="5.204113879559269" id="-72214">
		<tag k="name" v="Langøysundet" />
		<tag k="natural" v="strait" />
		<tag k="ssr:stedsnr" v="814073" />
	</node>
	<node lat="59.87201944438561" lon="5.221005554282219" id="-72215">
		<tag k="fixme" v="consider seamark:type=rock or natural=shoal" />
		<tag k="name" v="Knottholmbleikjene" />
		<tag k="place" v="islet" />
		<tag k="ssr:stedsnr" v="814775" />
	</node>
	<node lat="59.95313055899514" lon="5.39816389212339" id="-72216">
		<tag k="name" v="Tongane" />
		<tag k="natural" v="cape" />
		<tag k="ssr:stedsnr" v="826091" />
	</node>
	<node lat="59.896336113363944" lon="5.322958335500427" id="-72217">
		<tag k="name" v="Nesboneset" />
		<tag k="natural" v="cape" />
		<tag k="ssr:stedsnr" v="826102" />
	</node>
	<node lat="59.903663347910175" lon="5.291400486338712" id="-72219">
		<tag k="name" v="Drageidpollen" />
		<tag k="natural" v="bay" />
		<tag k="ssr:stedsnr" v="826152" />
	</node>
	<node lat="59.87709454712645" lon="5.287808209742488" id="-72224">
		<tag k="name" v="Nordre Hetlevika" />
		<tag k="natural" v="bay" />
		<tag k="ssr:stedsnr" v="827462" />
	</node>
	<node lat="59.92521666285786" lon="5.155161117802112" id="-72225">
		<tag k="name" v="Brakasundet" />
		<tag k="natural" v="strait" />
		<tag k="ssr:stedsnr" v="827493" />
	</node>
	<node lat="59.90175833138802" lon="5.191230557672527" id="-72226">
		<tag k="name" v="Søre tåa" />
		<tag k="natural" v="bay" />
		<tag k="ssr:stedsnr" v="827497" />
	</node>
	<node lat="59.90400833031238" lon="5.2113472246035135" id="-72227">
		<tag k="name" v="Dalatangen" />
		<tag k="natural" v="cape" />
		<tag k="ssr:stedsnr" v="827502" />
	</node>
	<node lat="59.95782325130284" lon="5.298963313076529" id="-72229">
		<tag k="alt_name" v="Nesvåg" />
		<tag k="name" v="Nesvågen" />
		<tag k="natural" v="bay" />
		<tag k="ssr:stedsnr" v="853140" />
	</node>
	<node lat="59.95836666662546" lon="5.267408338659681" id="-72230">
		<tag k="fixme" v="consider seamark:type=rock or natural=shoal" />
		<tag k="name" v="Håskjer" />
		<tag k="place" v="islet" />
		<tag k="ssr:stedsnr" v="853143" />
	</node>
	<node lat="59.9573916709153" lon="5.2586999931348" id="-72231">
		<tag k="alt_name" v="Fonnatangen" />
		<tag k="name" v="Nordfonnatangane" />
		<tag k="natural" v="cape" />
		<tag k="ssr:stedsnr" v="853145" />
	</node>
	<node lat="59.96435277448266" lon="5.372669451327556" id="-72232">
		<tag k="alt_name" v="Fossvik" />
		<tag k="name" v="Fossvika" />
		<tag k="natural" v="bay" />
		<tag k="ssr:stedsnr" v="853152" />
	</node>
	<node lat="59.93601388861718" lon="5.260805559937197" id="-72233">
		<tag k="name" v="Teløysundet" />
		<tag k="natural" v="strait" />
		<tag k="ssr:stedsnr" v="853780" />
	</node>
	<node lat="59.89405664970557" lon="5.242780939271226" id="-72235">
		<tag k="name" v="Straumøy" />
		<tag k="place" v="island" />
		<tag k="ssr:stedsnr" v="853843" />
	</node>
	<node lat="59.95093055522232" lon="5.3055555573501145" id="-72239">
		<tag k="name" v="Nesholmen" />
		<tag k="place" v="islet" />
		<tag k="ssr:stedsnr" v="853799" />
	</node>
	<node lat="59.848466664802054" lon="5.308750005397082" id="-72242">
		<tag k="name" v="Storevik" />
		<tag k="natural" v="bay" />
		<tag k="ssr:stedsnr" v="853897" />
	</node>
	<node lat="59.90956944669434" lon="5.265575006849655" id="-72246">
		<tag k="name" v="Gloppholmen" />
		<tag k="place" v="islet" />
		<tag k="ssr:stedsnr" v="854873" />
	</node>
	<node lat="59.9190176575961" lon="5.305148478282319" id="-72247">
		<tag k="alt_name" v="Hegreneset" />
		<tag k="name" v="Hegraneset" />
		<tag k="natural" v="cape" />
		<tag k="ssr:stedsnr" v="874054" />
	</node>
	<node lat="59.939730559647295" lon="5.3115749936983345" id="-72248">
		<tag k="fixme" v="consider seamark:type=rock or natural=shoal" />
		<tag k="name" v="Gråmulen" />
		<tag k="place" v="islet" />
		<tag k="ssr:stedsnr" v="874251" />
	</node>
	<node lat="59.93930000232351" lon="5.195838890232749" id="-72249">
		<tag k="name" v="Lindarboen" />
		<tag k="natural" v="shoal" />
		<tag k="place" v="locality" />
		<tag k="ssr:stedsnr" v="875088" />
	</node>
	<node lat="59.89918333057796" lon="5.193761103595297" id="-72250">
		<tag k="name" v="Bårdholmesundet" />
		<tag k="natural" v="strait" />
		<tag k="ssr:stedsnr" v="875099" />
	</node>
	<node lat="59.8892777816644" lon="5.1925499998218205" id="-72251">
		<tag k="alt_name" v="Nattarøysundet" />
		<tag k="name" v="Natterøysundet" />
		<tag k="natural" v="strait" />
		<tag k="ssr:stedsnr" v="875100" />
	</node>
	<node lat="59.90131666317832" lon="5.157422223803824" id="-72253">
		<tag k="name" v="Bakkasundet" />
		<tag k="natural" v="strait" />
		<tag k="ssr:stedsnr" v="935083" />
	</node>
	<node lat="59.927091664969545" lon="5.472024998625293" id="-72254">
		<tag k="alt_name" v="Nordvågen" />
		<tag k="name" v="Nordvåg" />
		<tag k="natural" v="bay" />
		<tag k="ssr:stedsnr" v="935226" />
	</node>
	<node lat="59.85750277555218" lon="5.253677773464996" id="-72255">
		<tag k="name" v="Krabbavikflua" />
		<tag k="natural" v="shoal" />
		<tag k="place" v="locality" />
		<tag k="ssr:stedsnr" v="935762" />
	</node>
	<node lat="59.85178055664654" lon="5.273744439009171" id="-72256">
		<tag k="name" v="Tangableikja" />
		<tag k="place" v="islet" />
		<tag k="ssr:stedsnr" v="935764" />
	</node>
	<node lat="59.92769444105032" lon="5.158024997387586" id="-72257">
		<tag k="name" v="Nordre Eggøytåa" />
		<tag k="natural" v="cape" />
		<tag k="ssr:stedsnr" v="948517" />
	</node>
	<node lat="59.83694722603158" lon="5.35269166568992" id="-72259">
		<tag k="name" v="Ramsvik" />
		<tag k="natural" v="bay" />
		<tag k="ssr:stedsnr" v="948491" />
	</node>
	<node lat="59.96729187248172" lon="5.346297191535595" id="-72261">
		<tag k="name" v="Foreholmen" />
		<tag k="place" v="islet" />
		<tag k="ssr:stedsnr" v="948024" />
	</node>
	<node lat="59.904666667560214" lon="5.22309166546916" id="-72266">
		<tag k="name" v="Raunepollen" />
		<tag k="natural" v="bay" />
		<tag k="ssr:stedsnr" v="948468" />
	</node>
	<node lat="59.910805559641986" lon="5.217627775764993" id="-72267">
		<tag k="name" v="Avløypeskjeret" />
		<tag k="place" v="island" />
		<tag k="ssr:stedsnr" v="948472" />
	</node>
	<node lat="59.90610000105401" lon="5.138161110206974" id="-72269">
		<tag k="alt_name" v="Urdøya, l" />
		<tag k="name" v="Litla Urdøyna" />
		<tag k="place" v="islet" />
		<tag k="ssr:stedsnr" v="968778" />
	</node>
	<node lat="59.89670751726392" lon="5.155311085162903" id="-72270">
		<tag k="alt_name" v="Sauøysundet" />
		<tag k="name" v="Sauholmsundet" />
		<tag k="natural" v="strait" />
		<tag k="ssr:stedsnr" v="981723" />
	</node>
	<node lat="59.914011037108224" lon="5.260959177776837" id="-72385">
		<tag k="name" v="Gassatåa" />
		<tag k="natural" v="cape" />
		<tag k="ssr:stedsnr" v="1076693" />
	</node>
	<node lat="59.88671161108992" lon="5.2150547783278824" id="-72387">
		<tag k="name" v="Ringholmen" />
		<tag k="place" v="islet" />
		<tag k="ssr:stedsnr" v="1078441" />
	</node>
	<node lat="59.96751014767523" lon="5.367253888266021" id="-72388">
		<tag k="name" v="Søra Skåravika" />
		<tag k="natural" v="bay" />
		<tag k="ssr:stedsnr" v="1078443" />
	</node>
</osm>
