<?xml version="1.0" encoding="UTF-8"?>
<osm version="0.6" generator="osmapis">
	<node lat="59.84112500330489" lon="5.333355553737652" id="-70982">
		<tag k="ford" v="yes" />
		<tag k="name" v="Krokavad" />
		<tag k="place" v="locality" />
		<tag k="ssr:stedsnr" v="159453" />
	</node>
	<node lat="59.860804086160734" lon="5.2987100518661405" id="-71055">
		<tag k="landuse" v="harbour" />
		<tag k="name" v="Koløyhamn" />
		<tag k="seamark:type" v="harbour" />
		<tag k="ssr:stedsnr" v="307911" />
	</node>
	<node lat="59.93358332948325" lon="5.338505549170382" id="-71156">
		<tag k="landuse" v="industrial" />
		<tag k="name" v="Kraftstasjon" />
		<tag k="power" v="plant" />
		<tag k="ssr:stedsnr" v="523013" />
	</node>
	<node lat="59.897172219246805" lon="5.336222226633421" id="-71269">
		<tag k="bridge" v="yes" />
		<tag k="layer" v="1" />
		<tag k="name" v="Vik" />
		<tag k="ssr:stedsnr" v="774863" />
	</node>
	<node lat="59.87100140436779" lon="5.347091641441602" id="-71326">
		<tag k="bridge" v="yes" />
		<tag k="layer" v="1" />
		<tag k="name" v="Røydland" />
		<tag k="ssr:stedsnr" v="896876" />
	</node>
	<node lat="59.93731389189625" lon="5.33678055458456" id="-71497">
		<tag k="bridge" v="yes" />
		<tag k="layer" v="1" />
		<tag k="name" v="Årskog" />
		<tag k="ssr:stedsnr" v="289866" />
	</node>
	<node lat="59.920149999129414" lon="5.328613882336449" id="-71657">
		<tag k="bridge" v="yes" />
		<tag k="layer" v="1" />
		<tag k="name" v="Fitjar" />
		<tag k="ssr:stedsnr" v="713854" />
	</node>
	<node lat="59.878308331654175" lon="5.34556389789217" id="-71658">
		<tag k="bridge" v="yes" />
		<tag k="layer" v="1" />
		<tag k="name" v="Tveitelva" />
		<tag k="ssr:stedsnr" v="713857" />
	</node>
</osm>
