<?xml version="1.0" encoding="UTF-8"?>
<osm generator="osmapis" version="0.6">
	<node id="-574208" lat="62.4857242771" lon="6.68996996522">
		<tag k="name" v="Karlvikvegen" />
		<tag k="ssr:date" v="2019-05-30" />
		<tag k="ssr:gruppe" v="veg" />
		<tag k="ssr:hovedgruppe" v="infrastruktur" />
		<tag k="ssr:stedsnr" v="993998" />
		<tag k="ssr:type" v="adressenavn" />
	</node>
	<node id="-574207" lat="62.4871317581" lon="6.6922698832">
		<tag k="name" v="Håem næringsområde" />
		<tag k="ssr:date" v="2019-05-30" />
		<tag k="ssr:gruppe" v="veg" />
		<tag k="ssr:hovedgruppe" v="infrastruktur" />
		<tag k="ssr:stedsnr" v="993997" />
		<tag k="ssr:type" v="adressenavn" />
	</node>
	<node id="-574213" lat="62.4768188292" lon="6.66746923749">
		<tag k="name" v="Håemshøgda" />
		<tag k="ssr:date" v="2019-05-30" />
		<tag k="ssr:gruppe" v="veg" />
		<tag k="ssr:hovedgruppe" v="infrastruktur" />
		<tag k="ssr:stedsnr" v="993985" />
		<tag k="ssr:type" v="adressenavn" />
	</node>
	<node id="-574680" lat="62.5050916712" lon="6.4410222307">
		<tag k="alt_name" v="Dyrøy" />
		<tag k="name" v="Dyrøy NV pynt" />
		<tag k="ssr:date" v="2016-05-10" />
		<tag k="ssr:gruppe" v="navigasjon" />
		<tag k="ssr:hovedgruppe" v="infrastruktur" />
		<tag k="ssr:stedsnr" v="618130" />
		<tag k="ssr:type" v="fyrlykt" />
	</node>
	<node id="-574196" lat="62.5148836741" lon="6.46581316252">
		<tag k="name" v="Ellingsøyvegen" />
		<tag k="ssr:date" v="2019-05-31" />
		<tag k="ssr:gruppe" v="veg" />
		<tag k="ssr:hovedgruppe" v="infrastruktur" />
		<tag k="ssr:stedsnr" v="1065128" />
		<tag k="ssr:type" v="adressenavn" />
	</node>
	<node id="-574195" lat="62.4776713732" lon="6.44490458278">
		<tag k="name" v="Brusdalsvegen" />
		<tag k="ssr:date" v="2019-05-31" />
		<tag k="ssr:gruppe" v="veg" />
		<tag k="ssr:hovedgruppe" v="infrastruktur" />
		<tag k="ssr:stedsnr" v="1064969" />
		<tag k="ssr:type" v="adressenavn" />
	</node>
	<node id="-575056" lat="60.8816104596" lon="6.30047518531">
		<tag k="name" v="Vestlandet" />
		<tag k="ssr:date" v="2019-01-06" />
		<tag k="ssr:gruppe" v="administrativeIndelinger" />
		<tag k="ssr:hovedgruppe" v="offentligAdministrasjon" />
		<tag k="ssr:stedsnr" v="974777" />
		<tag k="ssr:type" v="annenAdministrativInndeling" />
	</node>
	<node id="-574029" lat="62.522616663" lon="6.62058610762">
		<tag k="name" v="Stetteremma" />
		<tag k="ssr:date" v="2016-05-10" />
		<tag k="ssr:gruppe" v="administrativeIndelinger" />
		<tag k="ssr:hovedgruppe" v="offentligAdministrasjon" />
		<tag k="ssr:stedsnr" v="301296" />
		<tag k="ssr:type" v="statistiskTettsted" />
	</node>
	<node id="-574210" lat="62.4921242784" lon="6.60600787823">
		<tag k="name" v="Digernes næringsområde" />
		<tag k="ssr:date" v="2019-05-30" />
		<tag k="ssr:gruppe" v="veg" />
		<tag k="ssr:hovedgruppe" v="infrastruktur" />
		<tag k="ssr:stedsnr" v="993954" />
		<tag k="ssr:type" v="adressenavn" />
	</node>
	<node id="-574218" lat="62.4859553639" lon="6.7191336777">
		<tag k="name" v="Ålesundsvegen" />
		<tag k="ssr:date" v="2019-05-30" />
		<tag k="ssr:gruppe" v="veg" />
		<tag k="ssr:hovedgruppe" v="infrastruktur" />
		<tag k="ssr:stedsnr" v="995146" />
		<tag k="ssr:type" v="adressenavn" />
	</node>
	<node id="-574217" lat="62.488071846" lon="6.72960291679">
		<tag k="name" v="Solnørvegen" />
		<tag k="ssr:date" v="2019-05-30" />
		<tag k="ssr:gruppe" v="veg" />
		<tag k="ssr:hovedgruppe" v="infrastruktur" />
		<tag k="ssr:stedsnr" v="995135" />
		<tag k="ssr:type" v="adressenavn" />
	</node>
	<node id="-574216" lat="62.5103378875" lon="6.5711494048">
		<tag k="name" v="Vemøya" />
		<tag k="ssr:date" v="2019-05-30" />
		<tag k="ssr:gruppe" v="veg" />
		<tag k="ssr:hovedgruppe" v="infrastruktur" />
		<tag k="ssr:stedsnr" v="994059" />
		<tag k="ssr:type" v="adressenavn" />
	</node>
	<node id="-574215" lat="62.503330626" lon="6.45819940951">
		<tag k="name" v="Dyrøya" />
		<tag k="ssr:date" v="2019-05-30" />
		<tag k="ssr:gruppe" v="veg" />
		<tag k="ssr:hovedgruppe" v="infrastruktur" />
		<tag k="ssr:stedsnr" v="994054" />
		<tag k="ssr:type" v="adressenavn" />
	</node>
	<node id="-574214" lat="62.5176846172" lon="6.76648520589">
		<tag k="name" v="Skodjestølsvegen" />
		<tag k="ssr:date" v="2019-05-30" />
		<tag k="ssr:gruppe" v="veg" />
		<tag k="ssr:hovedgruppe" v="infrastruktur" />
		<tag k="ssr:stedsnr" v="994052" />
		<tag k="ssr:type" v="adressenavn" />
	</node>
	<node id="-574981" lat="62.5030500045" lon="6.69818888841">
		<tag k="name" v="Skodje kommune" />
		<tag k="ssr:date" v="2016-05-11" />
		<tag k="ssr:gruppe" v="administrativeIndelinger" />
		<tag k="ssr:hovedgruppe" v="offentligAdministrasjon" />
		<tag k="ssr:stedsnr" v="874876" />
		<tag k="ssr:type" v="kommune" />
	</node>
	<node id="-574212" lat="62.4910785223" lon="6.60275269493">
		<tag k="name" v="Bythaugen" />
		<tag k="ssr:date" v="2019-05-30" />
		<tag k="ssr:gruppe" v="veg" />
		<tag k="ssr:hovedgruppe" v="infrastruktur" />
		<tag k="ssr:stedsnr" v="993984" />
		<tag k="ssr:type" v="adressenavn" />
	</node>
	<node id="-574211" lat="62.4853605165" lon="6.63819056406">
		<tag k="name" v="Svortahaugen" />
		<tag k="ssr:date" v="2019-05-30" />
		<tag k="ssr:gruppe" v="veg" />
		<tag k="ssr:hovedgruppe" v="infrastruktur" />
		<tag k="ssr:stedsnr" v="993983" />
		<tag k="ssr:type" v="adressenavn" />
	</node>
	<node id="-574690" lat="62.4648611102" lon="6.65961388116">
		<tag k="name" v="Valleskjær" />
		<tag k="old_name" v="Valleskjeret" />
		<tag k="ssr:date" v="2016-05-10" />
		<tag k="ssr:gruppe" v="navigasjon" />
		<tag k="ssr:hovedgruppe" v="infrastruktur" />
		<tag k="ssr:stedsnr" v="640414" />
		<tag k="ssr:type" v="fyrlykt" />
	</node>
	<node id="-574209" lat="62.503044313" lon="6.51703039884">
		<tag k="name" v="Tøssebruvegen" />
		<tag k="ssr:date" v="2019-05-30" />
		<tag k="ssr:gruppe" v="veg" />
		<tag k="ssr:hovedgruppe" v="infrastruktur" />
		<tag k="ssr:stedsnr" v="993999" />
		<tag k="ssr:type" v="adressenavn" />
	</node>
</osm>
