<?xml version="1.0" encoding="UTF-8"?>
<osm generator="osmapis" version="0.6">
	<node id="-770968" lat="69.5261333381" lon="20.5259583089">
		<tag k="name" v="Manndalen skolekrets" />
		<tag k="name:no" v="Manndalen skolekrets" />
		<tag k="ssr:date" v="2016-05-11" />
		<tag k="ssr:gruppe" v="administrativeIndelinger" />
		<tag k="ssr:hovedgruppe" v="offentligAdministrasjon" />
		<tag k="ssr:stedsnr" v="931965" />
		<tag k="ssr:type" v="annenAdministrativInndeling" />
	</node>
	<node id="-769332" lat="69.5442916698" lon="20.5876222167">
		<tag k="name" v="Manndalsklubben" />
		<tag k="name:no" v="Manndalsklubben" />
		<tag k="ssr:date" v="2016-05-10" />
		<tag k="ssr:gruppe" v="navigasjon" />
		<tag k="ssr:hovedgruppe" v="infrastruktur" />
		<tag k="ssr:stedsnr" v="382621" />
		<tag k="ssr:type" v="fyrlykt" />
	</node>
	<node id="-769233" lat="69.5261333381" lon="20.5259583089">
		<tag k="name" v="Manndalen stemmekrets" />
		<tag k="name:no" v="Manndalen stemmekrets" />
		<tag k="ssr:date" v="2016-05-10" />
		<tag k="ssr:gruppe" v="administrativeIndelinger" />
		<tag k="ssr:hovedgruppe" v="offentligAdministrasjon" />
		<tag k="ssr:stedsnr" v="324954" />
		<tag k="ssr:type" v="annenAdministrativInndeling" />
	</node>
	<node id="-770958" lat="69.6028969709" lon="20.531596532">
		<tag k="name" v="Olderdalen" />
		<tag k="name:no" v="Olderdalen" />
		<tag k="ssr:date" v="2016-12-15" />
		<tag k="ssr:gruppe" v="navigasjon" />
		<tag k="ssr:hovedgruppe" v="infrastruktur" />
		<tag k="ssr:stedsnr" v="929630" />
		<tag k="ssr:type" v="fyrlykt" />
	</node>
	<node id="-769705" lat="69.6039944474" lon="20.5345555452">
		<tag k="fixme" v="multiple name tags, choose one and add the other to alt_name" />
		<tag k="name" v="Gáivuona suohkan;Gáivuotna - Kåfjord kommune - Kaivuono;Kaivuonon komuuni" />
		<tag k="name:fkv" v="Kaivuono;Kaivuonon komuuni" />
		<tag k="name:no" v="Kåfjord kommune" />
		<tag k="name:se" v="Gáivuona suohkan;Gáivuotna" />
		<tag k="ssr:date" v="2016-05-10" />
		<tag k="ssr:gruppe" v="administrativeIndelinger" />
		<tag k="ssr:hovedgruppe" v="offentligAdministrasjon" />
		<tag k="ssr:stedsnr" v="147873" />
		<tag k="ssr:type" v="kommune" />
	</node>
	<node id="-769828" lat="69.5138750017" lon="20.7850999699">
		<tag k="loc_name:fkv" v="Perttukenttä" />
		<tag k="name" v="Pertenga" />
		<tag k="name:no" v="Pertenga" />
		<tag k="ssr:date" v="2019-01-15" />
		<tag k="ssr:gruppe" v="navigasjon" />
		<tag k="ssr:hovedgruppe" v="infrastruktur" />
		<tag k="ssr:stedsnr" v="201710" />
		<tag k="ssr:type" v="fyrlykt" />
	</node>
	<node id="-771074" lat="68.4849327361" lon="16.2297866207">
		<tag k="fixme" v="multiple name tags, choose one and add the other to alt_name" />
		<tag k="name" v="Nord-Noreg;Nord-Norge" />
		<tag k="ssr:date" v="2017-05-18" />
		<tag k="ssr:gruppe" v="administrativeIndelinger" />
		<tag k="ssr:hovedgruppe" v="offentligAdministrasjon" />
		<tag k="ssr:stedsnr" v="976106" />
		<tag k="ssr:type" v="annenAdministrativInndeling" />
	</node>
</osm>
