<?xml version="1.0" encoding="UTF-8"?>
<<<<<<< HEAD
<osm version="0.6" generator="osmapis">
	<node lat="62.9887027747708" lon="7.235944445820632" id="-3326">
		<tag k="name" v="Rådyrfaret" />
=======
<osm generator="osmapis" version="0.6">
	<node id="-104544" lat="62.9694527779" lon="7.01033611513">
		<tag k="name" v="Stoplene, Øvre" />
		<tag k="ssr:date" v="2019-12-27" />
		<tag k="ssr:gruppe" v="navigasjon" />
		<tag k="ssr:hovedgruppe" v="infrastruktur" />
		<tag k="ssr:stedsnr" v="769255" />
		<tag k="ssr:type" v="lanterne" />
	</node>
	<node id="-103925" lat="62.9979999996" lon="7.28260000147">
		<tag k="name" v="Stølen" />
>>>>>>> e1d4bc35ff8a6074a6f2e91616a996b547c36f15
		<tag k="ssr:date" v="2019-12-27" />
		<tag k="ssr:gruppe" v="veg" />
		<tag k="ssr:hovedgruppe" v="infrastruktur" />
		<tag k="ssr:stedsnr" v="24982" />
		<tag k="ssr:type" v="adressenavn" />
	</node>
<<<<<<< HEAD
	<node lat="62.888338346340284" lon="6.818038931932976" id="-3380">
		<tag k="alt_name" v="Hammarøyskjæret" />
		<tag k="name" v="Hammerøyskjæret" />
		<tag k="ssr:date" v="2020-02-06" />
=======
	<node id="-105443" lat="62.8784861103" lon="6.93858334184">
		<tag k="name" v="Harøyodden" />
		<tag k="ssr:date" v="2019-12-27" />
>>>>>>> e1d4bc35ff8a6074a6f2e91616a996b547c36f15
		<tag k="ssr:gruppe" v="navigasjon" />
		<tag k="ssr:hovedgruppe" v="infrastruktur" />
		<tag k="ssr:stedsnr" v="72183" />
		<tag k="ssr:type" v="fyrlykt" />
	</node>
<<<<<<< HEAD
	<node lat="63.01665062265761" lon="7.353529694165621" id="-3591">
		<tag k="name" v="Flatskjæret" />
		<tag k="ssr:date" v="2021-06-08" />
		<tag k="ssr:gruppe" v="navigasjon" />
=======
	<node id="-104918" lat="62.9082724334" lon="6.93417888021">
		<tag k="name" v="Flintvegen" />
		<tag k="ssr:date" v="2019-12-27" />
		<tag k="ssr:gruppe" v="veg" />
>>>>>>> e1d4bc35ff8a6074a6f2e91616a996b547c36f15
		<tag k="ssr:hovedgruppe" v="infrastruktur" />
		<tag k="ssr:stedsnr" v="195604" />
		<tag k="ssr:type" v="fyrlykt" />
	</node>
<<<<<<< HEAD
	<node lat="62.7967166669954" lon="6.981444446708556" id="-3610">
		<tag k="name" v="Jendemsvorpa" />
=======
	<node id="-104917" lat="62.9067704583" lon="6.92788632344">
		<tag k="name" v="Steinaldervegen" />
>>>>>>> e1d4bc35ff8a6074a6f2e91616a996b547c36f15
		<tag k="ssr:date" v="2019-12-27" />
		<tag k="ssr:gruppe" v="farvann" />
		<tag k="ssr:hovedgruppe" v="sjø" />
		<tag k="ssr:stedsnr" v="217411" />
		<tag k="ssr:type" v="fiskeplassISjø" />
	</node>
	<node lat="62.95673139067872" lon="7.00981108619036" id="-3662">
		<tag k="name" v="Solholmen" />
		<tag k="ssr:date" v="2020-09-08" />
		<tag k="ssr:gruppe" v="navigasjon" />
		<tag k="ssr:hovedgruppe" v="infrastruktur" />
		<tag k="ssr:stedsnr" v="255015" />
		<tag k="ssr:type" v="fyrlykt" />
	</node>
<<<<<<< HEAD
	<node lat="62.81144722340193" lon="7.239544448500906" id="-3743">
		<tag k="name" v="Hanøygardsvorpa" />
		<tag k="ssr:date" v="2019-12-27" />
		<tag k="ssr:gruppe" v="farvann" />
		<tag k="ssr:hovedgruppe" v="sjø" />
		<tag k="ssr:stedsnr" v="277803" />
		<tag k="ssr:type" v="fiskeplassISjø" />
	</node>
	<node lat="62.96777221957059" lon="6.954402786282462" id="-3808">
		<tag k="name" v="Hysskjærfalla" />
		<tag k="ssr:date" v="2021-06-08" />
		<tag k="ssr:gruppe" v="sjøbunn" />
		<tag k="ssr:hovedgruppe" v="sjø" />
		<tag k="ssr:stedsnr" v="289807" />
		<tag k="ssr:type" v="bakkeISjø" />
	</node>
	<node lat="62.96954626056654" lon="7.010805932358351" id="-3817">
		<tag k="name" v="Stoplan, nedre" />
		<tag k="ssr:date" v="2020-08-04" />
		<tag k="ssr:gruppe" v="navigasjon" />
		<tag k="ssr:hovedgruppe" v="infrastruktur" />
		<tag k="ssr:stedsnr" v="465255" />
		<tag k="ssr:type" v="lanterne" />
	</node>
	<node lat="63.04532222288925" lon="7.140019451255494" id="-3818">
		<tag k="name" v="Fuglen" />
=======
	<node id="-103380" lat="62.9346765824" lon="6.93945087269">
		<tag k="name" v="Romsdalsholmen" />
		<tag k="ssr:date" v="2019-12-27" />
		<tag k="ssr:gruppe" v="navigasjon" />
		<tag k="ssr:hovedgruppe" v="infrastruktur" />
		<tag k="ssr:stedsnr" v="73124" />
		<tag k="ssr:type" v="fyrlykt" />
	</node>
	<node id="-104915" lat="62.8164686936" lon="7.19297255733">
		<tag k="name" v="Lindset" />
>>>>>>> e1d4bc35ff8a6074a6f2e91616a996b547c36f15
		<tag k="ssr:date" v="2019-12-27" />
		<tag k="ssr:gruppe" v="navigasjon" />
		<tag k="ssr:hovedgruppe" v="infrastruktur" />
		<tag k="ssr:stedsnr" v="465273" />
		<tag k="ssr:type" v="fyrlykt" />
	</node>
<<<<<<< HEAD
	<node lat="62.97287499928122" lon="6.955861118762655" id="-3841">
		<tag k="name" v="Ertneskjærfalla" />
		<tag k="ssr:date" v="2021-06-08" />
		<tag k="ssr:gruppe" v="sjøbunn" />
		<tag k="ssr:hovedgruppe" v="sjø" />
		<tag k="ssr:stedsnr" v="471700" />
		<tag k="ssr:type" v="bakkeISjø" />
	</node>
	<node lat="62.96537222373221" lon="7.359583335433934" id="-3905">
		<tag k="name" v="Vik" />
=======
	<node id="-104912" lat="62.8555486415" lon="7.16471527337">
		<tag k="name" v="Haukås" />
>>>>>>> e1d4bc35ff8a6074a6f2e91616a996b547c36f15
		<tag k="ssr:date" v="2019-12-27" />
		<tag k="ssr:gruppe" v="veg" />
		<tag k="ssr:hovedgruppe" v="infrastruktur" />
		<tag k="ssr:stedsnr" v="363701" />
		<tag k="ssr:type" v="adressetilleggsnavn" />
	</node>
<<<<<<< HEAD
	<node lat="62.99799999957269" lon="7.282600001469451" id="-3947">
		<tag k="name" v="Stølen" />
=======
	<node id="-104911" lat="62.8934967384" lon="6.82511433902">
		<tag k="name" v="Hanstrikholmen" />
>>>>>>> e1d4bc35ff8a6074a6f2e91616a996b547c36f15
		<tag k="ssr:date" v="2019-12-27" />
		<tag k="ssr:gruppe" v="veg" />
		<tag k="ssr:hovedgruppe" v="infrastruktur" />
		<tag k="ssr:stedsnr" v="484726" />
		<tag k="ssr:type" v="adressetilleggsnavn" />
	</node>
<<<<<<< HEAD
	<node lat="62.90289444642702" lon="7.470200008509848" id="-3954">
		<tag k="name" v="Kastet" />
=======
	<node id="-104910" lat="62.9319337774" lon="6.9849928469">
		<tag k="name" v="Sunde" />
>>>>>>> e1d4bc35ff8a6074a6f2e91616a996b547c36f15
		<tag k="ssr:date" v="2019-12-27" />
		<tag k="ssr:gruppe" v="farvann" />
		<tag k="ssr:hovedgruppe" v="sjø" />
		<tag k="ssr:stedsnr" v="399510" />
		<tag k="ssr:type" v="fiskeplassISjø" />
	</node>
<<<<<<< HEAD
	<node lat="62.897311107473435" lon="6.89125832508453" id="-3988">
		<tag k="name" v="Midtfjordsskallen" />
		<tag k="ssr:date" v="2021-06-08" />
		<tag k="ssr:gruppe" v="sjøbunn" />
		<tag k="ssr:hovedgruppe" v="sjø" />
		<tag k="ssr:stedsnr" v="411718" />
		<tag k="ssr:type" v="ryggISjø" />
	</node>
	<node lat="62.90196388498815" lon="7.429630549824804" id="-3996">
		<tag k="name" v="Vågsbøen" />
=======
	<node id="-104909" lat="62.8834482852" lon="6.96404799676">
		<tag k="name" v="Jensholmen" />
>>>>>>> e1d4bc35ff8a6074a6f2e91616a996b547c36f15
		<tag k="ssr:date" v="2019-12-27" />
		<tag k="ssr:gruppe" v="veg" />
		<tag k="ssr:hovedgruppe" v="infrastruktur" />
		<tag k="ssr:stedsnr" v="424013" />
		<tag k="ssr:type" v="adressetilleggsnavn" />
	</node>
<<<<<<< HEAD
	<node lat="62.984586112972316" lon="7.311691658818141" id="-3997">
		<tag k="name" v="Gaustadvegen" />
=======
	<node id="-104908" lat="62.9602795905" lon="7.06954053221">
		<tag k="name" v="Lysaker" />
>>>>>>> e1d4bc35ff8a6074a6f2e91616a996b547c36f15
		<tag k="ssr:date" v="2019-12-27" />
		<tag k="ssr:gruppe" v="veg" />
		<tag k="ssr:hovedgruppe" v="infrastruktur" />
		<tag k="ssr:stedsnr" v="424016" />
		<tag k="ssr:type" v="adressenavn" />
	</node>
<<<<<<< HEAD
	<node lat="62.90586961804169" lon="6.877779657604107" id="-4108">
		<tag k="name" v="Oddane" />
		<tag k="ssr:date" v="2020-09-01" />
		<tag k="ssr:gruppe" v="navigasjon" />
		<tag k="ssr:hovedgruppe" v="infrastruktur" />
		<tag k="ssr:stedsnr" v="680102" />
		<tag k="ssr:type" v="lanterne" />
	</node>
	<node lat="62.964291671004304" lon="6.971986101240528" id="-4270">
		<tag k="name" v="Håflæet" />
		<tag k="ssr:date" v="2019-12-27" />
		<tag k="ssr:gruppe" v="sjøbunn" />
		<tag k="ssr:hovedgruppe" v="sjø" />
		<tag k="ssr:stedsnr" v="595562" />
		<tag k="ssr:type" v="bankeISjø" />
	</node>
	<node lat="62.92955277996055" lon="7.056794450760306" id="-4332">
		<tag k="name" v="Langlivegen" />
=======
	<node id="-104907" lat="62.9604107364" lon="7.0706181829">
		<tag k="name" v="Lysaker" />
>>>>>>> e1d4bc35ff8a6074a6f2e91616a996b547c36f15
		<tag k="ssr:date" v="2019-12-27" />
		<tag k="ssr:gruppe" v="veg" />
		<tag k="ssr:hovedgruppe" v="infrastruktur" />
		<tag k="ssr:stedsnr" v="702492" />
		<tag k="ssr:type" v="vegstrekning" />
	</node>
<<<<<<< HEAD
	<node lat="62.89990277663268" lon="6.938741659358459" id="-4434">
		<tag k="name" v="Vorpa" />
		<tag k="ssr:date" v="2019-12-27" />
		<tag k="ssr:gruppe" v="farvann" />
		<tag k="ssr:hovedgruppe" v="sjø" />
		<tag k="ssr:stedsnr" v="641892" />
		<tag k="ssr:type" v="fiskeplassISjø" />
	</node>
	<node lat="63.0378305515864" lon="7.316758342820243" id="-4455">
		<tag k="name" v="Dromskjæra" />
=======
	<node id="-103881" lat="63.0453222229" lon="7.14001945126">
		<tag k="name" v="Fuglen" />
>>>>>>> e1d4bc35ff8a6074a6f2e91616a996b547c36f15
		<tag k="ssr:date" v="2019-12-27" />
		<tag k="ssr:gruppe" v="navigasjon" />
		<tag k="ssr:hovedgruppe" v="infrastruktur" />
		<tag k="ssr:stedsnr" v="708758" />
		<tag k="ssr:type" v="fyrlykt" />
	</node>
<<<<<<< HEAD
	<node lat="62.81748194446043" lon="7.113333717504616" id="-4457">
		<tag k="name" v="Aureholmen" />
=======
	<node id="-106572" lat="63.0066583301" lon="7.30855554771">
		<tag k="name" v="Vevang" />
>>>>>>> e1d4bc35ff8a6074a6f2e91616a996b547c36f15
		<tag k="ssr:date" v="2019-12-27" />
		<tag k="ssr:gruppe" v="navigasjon" />
		<tag k="ssr:hovedgruppe" v="infrastruktur" />
<<<<<<< HEAD
		<tag k="ssr:stedsnr" v="709963" />
		<tag k="ssr:type" v="adressenavn" />
	</node>
	<node lat="63.00665277569122" lon="7.211613879402702" id="-4458">
		<tag k="name" v="Teistklubben" />
		<tag k="ssr:date" v="2019-12-27" />
		<tag k="ssr:gruppe" v="veg" />
		<tag k="ssr:hovedgruppe" v="infrastruktur" />
		<tag k="ssr:stedsnr" v="666747" />
		<tag k="ssr:type" v="adressenavn" />
	</node>
	<node lat="62.95094444669716" lon="7.008161106310687" id="-4459">
		<tag k="name" v="Notholmen" />
=======
		<tag k="ssr:stedsnr" v="801395" />
		<tag k="ssr:type" v="fyrlykt" />
	</node>
	<node id="-103878" lat="62.9041388874" lon="7.35987777278">
		<tag k="name" v="Langneset" />
		<tag k="ssr:date" v="2019-12-27" />
		<tag k="ssr:gruppe" v="veg" />
		<tag k="ssr:hovedgruppe" v="infrastruktur" />
		<tag k="ssr:stedsnr" v="284259" />
		<tag k="ssr:type" v="adressetilleggsnavn" />
	</node>
	<node id="-105872" lat="62.9527972259" lon="7.00399444357">
		<tag k="name" v="Skutholmen" />
>>>>>>> e1d4bc35ff8a6074a6f2e91616a996b547c36f15
		<tag k="ssr:date" v="2019-12-27" />
		<tag k="ssr:gruppe" v="veg" />
		<tag k="ssr:hovedgruppe" v="infrastruktur" />
		<tag k="ssr:stedsnr" v="666843" />
		<tag k="ssr:type" v="adressenavn" />
	</node>
<<<<<<< HEAD
	<node lat="62.97595555828389" lon="6.886894437931687" id="-4541">
		<tag k="name" v="Flurøra" />
=======
	<node id="-105864" lat="62.9192500043" lon="6.92058333879">
		<tag k="name" v="Dubla" />
>>>>>>> e1d4bc35ff8a6074a6f2e91616a996b547c36f15
		<tag k="ssr:date" v="2019-12-27" />
		<tag k="ssr:gruppe" v="sjøbunn" />
		<tag k="ssr:hovedgruppe" v="sjø" />
		<tag k="ssr:stedsnr" v="899554" />
		<tag k="ssr:type" v="bankeISjø" />
	</node>
<<<<<<< HEAD
	<node lat="62.83414721986065" lon="6.995391664912716" id="-4648">
		<tag k="name" v="Hamnneset" />
=======
	<node id="-105862" lat="62.9082805579" lon="6.88986111408">
		<tag k="name" v="Storesundet" />
>>>>>>> e1d4bc35ff8a6074a6f2e91616a996b547c36f15
		<tag k="ssr:date" v="2019-12-27" />
		<tag k="ssr:gruppe" v="navigasjon" />
		<tag k="ssr:hovedgruppe" v="infrastruktur" />
		<tag k="ssr:stedsnr" v="769098" />
		<tag k="ssr:type" v="lanterne" />
	</node>
<<<<<<< HEAD
	<node lat="62.90277222562679" lon="7.3648555610550295" id="-4654">
		<tag k="name" v="Langneset" />
		<tag k="ssr:date" v="2021-06-08" />
		<tag k="ssr:gruppe" v="veg" />
		<tag k="ssr:hovedgruppe" v="infrastruktur" />
		<tag k="ssr:stedsnr" v="909006" />
		<tag k="ssr:type" v="adressetilleggsnavn" />
	</node>
	<node lat="62.82586666748641" lon="7.13300832349554" id="-4661">
		<tag k="name" v="Beøya" />
=======
	<node id="-104320" lat="62.9509444467" lon="7.00816110631">
		<tag k="name" v="Notholmen" />
		<tag k="ssr:date" v="2019-12-27" />
		<tag k="ssr:gruppe" v="veg" />
		<tag k="ssr:hovedgruppe" v="infrastruktur" />
		<tag k="ssr:stedsnr" v="666843" />
		<tag k="ssr:type" v="adressenavn" />
	</node>
	<node id="-105302" lat="63.0230251065" lon="7.23517021005">
		<tag k="alt_name" v="Kvitholmen" />
		<tag k="name" v="Kvitholmen fyr" />
		<tag k="ssr:date" v="2019-12-27" />
		<tag k="ssr:gruppe" v="navigasjon" />
		<tag k="ssr:hovedgruppe" v="infrastruktur" />
		<tag k="ssr:stedsnr" v="133541" />
		<tag k="ssr:type" v="fyrstasjon" />
	</node>
	<node id="-104271" lat="62.8174819445" lon="7.1133337175">
		<tag k="name" v="Aureholmen" />
>>>>>>> e1d4bc35ff8a6074a6f2e91616a996b547c36f15
		<tag k="ssr:date" v="2019-12-27" />
		<tag k="ssr:gruppe" v="veg" />
		<tag k="ssr:hovedgruppe" v="infrastruktur" />
		<tag k="ssr:stedsnr" v="909844" />
		<tag k="ssr:type" v="adressenavn" />
	</node>
<<<<<<< HEAD
	<node lat="62.80105833755791" lon="7.122122224760109" id="-4662">
		<tag k="name" v="Fjellsetra" />
		<tag k="ssr:date" v="2019-12-27" />
=======
	<node id="-104162" lat="62.92955278" lon="7.05679445076">
		<tag k="name" v="Langlivegen" />
		<tag k="ssr:date" v="2019-12-27" />
		<tag k="ssr:gruppe" v="veg" />
		<tag k="ssr:hovedgruppe" v="infrastruktur" />
		<tag k="ssr:stedsnr" v="702492" />
		<tag k="ssr:type" v="vegstrekning" />
	</node>
	<node id="-106816" lat="69.6388889725" lon="30.5666644427">
		<tag k="fixme" v="multiple name tags, choose one and add the other to alt_name" />
		<tag k="loc_name:se" v="Norgga gonagasriika" />
		<tag k="loc_name:sma" v="Nöörjen gånkarïjhke" />
		<tag k="loc_name:smj" v="Vuona gånågisrijkka" />
		<tag k="name" v="Noreg;Norge" />
		<tag k="name:en" v="Norway" />
		<tag k="name:no" v="Noreg;Norge" />
		<tag k="ssr:date" v="2020-06-04" />
		<tag k="ssr:gruppe" v="administrativeIndelinger" />
		<tag k="ssr:hovedgruppe" v="offentligAdministrasjon" />
		<tag k="ssr:stedsnr" v="26330" />
		<tag k="ssr:type" v="nasjon" />
	</node>
	<node id="-106814" lat="62.9167192316" lon="7.42172863937">
		<tag k="name" v="Øvergardsvegen" />
		<tag k="ssr:date" v="2020-02-13" />
>>>>>>> e1d4bc35ff8a6074a6f2e91616a996b547c36f15
		<tag k="ssr:gruppe" v="veg" />
		<tag k="ssr:hovedgruppe" v="infrastruktur" />
		<tag k="ssr:stedsnr" v="909847" />
		<tag k="ssr:type" v="adressenavn" />
	</node>
<<<<<<< HEAD
	<node lat="63.00299431133874" lon="7.199340032852887" id="-4759">
		<tag k="name" v="Kusundet" />
		<tag k="ssr:date" v="2020-09-10" />
		<tag k="ssr:gruppe" v="navigasjon" />
=======
	<node id="-106813" lat="62.8281772877" lon="7.24054651853">
		<tag k="name" v="Anna Løvaas' veg" />
		<tag k="ssr:date" v="2020-02-13" />
		<tag k="ssr:gruppe" v="veg" />
>>>>>>> e1d4bc35ff8a6074a6f2e91616a996b547c36f15
		<tag k="ssr:hovedgruppe" v="infrastruktur" />
		<tag k="ssr:stedsnr" v="922660" />
		<tag k="ssr:type" v="fyrlykt" />
	</node>
<<<<<<< HEAD
	<node lat="62.89566942687517" lon="6.815854547265237" id="-4774">
		<tag k="alt_name" v="Bjørnsund" />
		<tag k="name" v="Bjørnsund fyr" />
		<tag k="ssr:date" v="2019-12-27" />
		<tag k="ssr:gruppe" v="navigasjon" />
		<tag k="ssr:hovedgruppe" v="infrastruktur" />
		<tag k="ssr:stedsnr" v="861067" />
		<tag k="ssr:type" v="fyrstasjon" />
	</node>
	<node lat="62.95344181182491" lon="6.981249149940856" id="-4791">
		<tag k="name" v="Vikan" />
		<tag k="ssr:date" v="2020-09-08" />
		<tag k="ssr:gruppe" v="navigasjon" />
=======
	<node id="-106809" lat="62.8535996667" lon="7.15350487159">
		<tag k="name" v="Hustadvika kommune" />
		<tag k="ssr:date" v="2019-12-27" />
		<tag k="ssr:gruppe" v="administrativeIndelinger" />
		<tag k="ssr:hovedgruppe" v="offentligAdministrasjon" />
		<tag k="ssr:stedsnr" v="1073402" />
		<tag k="ssr:type" v="kommune" />
	</node>
	<node id="-106808" lat="62.9105118124" lon="7.53488496362">
		<tag k="name" v="Sperrevegen" />
		<tag k="ssr:date" v="2019-12-27" />
		<tag k="ssr:gruppe" v="veg" />
>>>>>>> e1d4bc35ff8a6074a6f2e91616a996b547c36f15
		<tag k="ssr:hovedgruppe" v="infrastruktur" />
		<tag k="ssr:stedsnr" v="862023" />
		<tag k="ssr:type" v="fyrlykt" />
	</node>
<<<<<<< HEAD
	<node lat="62.911740036225005" lon="7.192615914901063" id="-4950">
		<tag k="name" v="Bjørsnøs" />
=======
	<node id="-106807" lat="62.9220692758" lon="7.44429612622">
		<tag k="name" v="Peplassvegen" />
>>>>>>> e1d4bc35ff8a6074a6f2e91616a996b547c36f15
		<tag k="ssr:date" v="2019-12-27" />
		<tag k="ssr:gruppe" v="veg" />
		<tag k="ssr:hovedgruppe" v="infrastruktur" />
		<tag k="ssr:stedsnr" v="982264" />
		<tag k="ssr:type" v="adressetilleggsnavn" />
	</node>
<<<<<<< HEAD
	<node lat="62.99359438400076" lon="7.1415697988968265" id="-4993">
		<tag k="name" v="Nordneset" />
		<tag k="ssr:date" v="2020-09-10" />
		<tag k="ssr:gruppe" v="navigasjon" />
=======
	<node id="-106806" lat="63.0080854215" lon="7.27264411762">
		<tag k="name" v="Langøya" />
		<tag k="ssr:date" v="2019-12-27" />
		<tag k="ssr:gruppe" v="veg" />
>>>>>>> e1d4bc35ff8a6074a6f2e91616a996b547c36f15
		<tag k="ssr:hovedgruppe" v="infrastruktur" />
		<tag k="ssr:stedsnr" v="12049" />
		<tag k="ssr:type" v="fyrlykt" />
	</node>
<<<<<<< HEAD
	<node lat="62.938447224039756" lon="7.126505554251157" id="-5053">
		<tag k="name" v="Nerlandssetervegen" />
=======
	<node id="-106805" lat="63.006978669" lon="7.25416205943">
		<tag k="name" v="Orøya" />
>>>>>>> e1d4bc35ff8a6074a6f2e91616a996b547c36f15
		<tag k="ssr:date" v="2019-12-27" />
		<tag k="ssr:gruppe" v="veg" />
		<tag k="ssr:hovedgruppe" v="infrastruktur" />
		<tag k="ssr:stedsnr" v="35667" />
		<tag k="ssr:type" v="vegstrekning" />
	</node>
<<<<<<< HEAD
	<node lat="62.98667499788088" lon="7.002255559880941" id="-5095">
		<tag k="name" v="Kråkfallet" />
		<tag k="ssr:date" v="2021-06-08" />
		<tag k="ssr:gruppe" v="sjøbunn" />
		<tag k="ssr:hovedgruppe" v="sjø" />
		<tag k="ssr:stedsnr" v="47735" />
		<tag k="ssr:type" v="bakkeISjø" />
	</node>
	<node lat="62.90447551549065" lon="6.905236641543238" id="-5098">
		<tag k="name" v="Bud molo" />
		<tag k="ssr:date" v="2020-09-01" />
		<tag k="ssr:gruppe" v="navigasjon" />
=======
	<node id="-106804" lat="63.0222491099" lon="7.23630239517">
		<tag k="name" v="Kvitholmen" />
		<tag k="ssr:date" v="2019-12-27" />
		<tag k="ssr:gruppe" v="veg" />
		<tag k="ssr:hovedgruppe" v="infrastruktur" />
		<tag k="ssr:stedsnr" v="1059644" />
		<tag k="ssr:type" v="adressenavn" />
	</node>
	<node id="-106803" lat="62.8417788389" lon="7.24449831347">
		<tag k="name" v="Sverre Moens veg" />
		<tag k="ssr:date" v="2019-12-27" />
		<tag k="ssr:gruppe" v="veg" />
>>>>>>> e1d4bc35ff8a6074a6f2e91616a996b547c36f15
		<tag k="ssr:hovedgruppe" v="infrastruktur" />
		<tag k="ssr:stedsnr" v="49851" />
		<tag k="ssr:type" v="lanterne" />
	</node>
<<<<<<< HEAD
	<node lat="62.95793055951748" lon="6.9636305643414405" id="-5101">
		<tag k="name" v="Rota" />
=======
	<node id="-106802" lat="62.9513724137" lon="7.00416415673">
		<tag k="name" v="Langholmen" />
>>>>>>> e1d4bc35ff8a6074a6f2e91616a996b547c36f15
		<tag k="ssr:date" v="2019-12-27" />
		<tag k="ssr:gruppe" v="veg" />
		<tag k="ssr:hovedgruppe" v="infrastruktur" />
		<tag k="ssr:stedsnr" v="59841" />
		<tag k="ssr:type" v="adressenavn" />
	</node>
<<<<<<< HEAD
	<node lat="62.935587524959146" lon="6.942216361173831" id="-5106">
		<tag k="name" v="Romsdalsholmen" />
		<tag k="ssr:date" v="2020-08-11" />
=======
	<node id="-103722" lat="62.9566027742" lon="7.00957222409">
		<tag k="name" v="Solholmen" />
		<tag k="ssr:date" v="2019-12-27" />
>>>>>>> e1d4bc35ff8a6074a6f2e91616a996b547c36f15
		<tag k="ssr:gruppe" v="navigasjon" />
		<tag k="ssr:hovedgruppe" v="infrastruktur" />
		<tag k="ssr:stedsnr" v="73124" />
		<tag k="ssr:type" v="fyrlykt" />
	</node>
<<<<<<< HEAD
	<node lat="63.0088750040055" lon="7.306536117198867" id="-5146">
		<tag k="name" v="Atlanterhavsvegen" />
=======
	<node id="-105761" lat="62.8630361156" lon="7.18662222971">
		<tag k="name" v="Hestelia" />
>>>>>>> e1d4bc35ff8a6074a6f2e91616a996b547c36f15
		<tag k="ssr:date" v="2019-12-27" />
		<tag k="ssr:gruppe" v="veg" />
		<tag k="ssr:hovedgruppe" v="infrastruktur" />
		<tag k="ssr:stedsnr" v="88662" />
		<tag k="ssr:type" v="vegstrekning" />
	</node>
<<<<<<< HEAD
	<node lat="63.02302510647839" lon="7.23517021005005" id="-5267">
		<tag k="alt_name" v="Kvitholmen" />
		<tag k="name" v="Kvitholmen fyr" />
=======
	<node id="-105760" lat="62.863583337" lon="7.18650000037">
		<tag k="name" v="Britstien" />
>>>>>>> e1d4bc35ff8a6074a6f2e91616a996b547c36f15
		<tag k="ssr:date" v="2019-12-27" />
		<tag k="ssr:gruppe" v="navigasjon" />
		<tag k="ssr:hovedgruppe" v="infrastruktur" />
		<tag k="ssr:stedsnr" v="133541" />
		<tag k="ssr:type" v="fyrstasjon" />
	</node>
<<<<<<< HEAD
	<node lat="62.73392710705581" lon="7.14918030614603" id="-5278">
		<tag k="alt_name" v="Møre og Romsdal" />
		<tag k="name" v="Møre og Romsdal fylke" />
		<tag k="ssr:date" v="2021-09-21" />
		<tag k="ssr:gruppe" v="administrativeIndelinger" />
		<tag k="ssr:hovedgruppe" v="offentligAdministrasjon" />
		<tag k="ssr:stedsnr" v="145583" />
		<tag k="ssr:type" v="fylke" />
	</node>
	<node lat="62.87847298313768" lon="6.93862385491558" id="-5361">
		<tag k="name" v="Harøyodden" />
		<tag k="ssr:date" v="2020-09-08" />
		<tag k="ssr:gruppe" v="navigasjon" />
		<tag k="ssr:hovedgruppe" v="infrastruktur" />
		<tag k="ssr:stedsnr" v="193155" />
		<tag k="ssr:type" v="fyrlykt" />
	</node>
	<node lat="62.86186111202752" lon="7.109002779618517" id="-5440">
		<tag k="name" v="Ny-Jordsvegen" />
=======
	<node id="-106783" lat="62.8455694832" lon="7.05824523366">
		<tag k="name" v="Iver Kjørsviks veg" />
		<tag k="ssr:date" v="2019-12-27" />
		<tag k="ssr:gruppe" v="veg" />
		<tag k="ssr:hovedgruppe" v="infrastruktur" />
		<tag k="ssr:stedsnr" v="983633" />
		<tag k="ssr:type" v="adressenavn" />
	</node>
	<node id="-106782" lat="62.8424722758" lon="7.04723336045">
		<tag k="name" v="Lindy Eidems veg" />
>>>>>>> e1d4bc35ff8a6074a6f2e91616a996b547c36f15
		<tag k="ssr:date" v="2019-12-27" />
		<tag k="ssr:gruppe" v="veg" />
		<tag k="ssr:hovedgruppe" v="infrastruktur" />
		<tag k="ssr:stedsnr" v="216531" />
		<tag k="ssr:type" v="vegstrekning" />
	</node>
<<<<<<< HEAD
	<node lat="62.86463055768292" lon="7.185200001721574" id="-5566">
		<tag k="name" v="Orrehaugen" />
=======
	<node id="-106781" lat="62.8425717763" lon="7.05052683332">
		<tag k="name" v="Balders veg" />
>>>>>>> e1d4bc35ff8a6074a6f2e91616a996b547c36f15
		<tag k="ssr:date" v="2019-12-27" />
		<tag k="ssr:gruppe" v="veg" />
		<tag k="ssr:hovedgruppe" v="infrastruktur" />
		<tag k="ssr:stedsnr" v="278130" />
		<tag k="ssr:type" v="adressenavn" />
	</node>
<<<<<<< HEAD
	<node lat="62.921763887598736" lon="7.555822223027703" id="-5573">
		<tag k="name" v="Taren" />
=======
	<node id="-106780" lat="62.8425013418" lon="7.0525743981">
		<tag k="name" v="Brages veg" />
>>>>>>> e1d4bc35ff8a6074a6f2e91616a996b547c36f15
		<tag k="ssr:date" v="2019-12-27" />
		<tag k="ssr:gruppe" v="farvann" />
		<tag k="ssr:hovedgruppe" v="sjø" />
		<tag k="ssr:stedsnr" v="278754" />
		<tag k="ssr:type" v="fiskeplassISjø" />
	</node>
	<node lat="62.904138887407356" lon="7.359877772779709" id="-5575">
		<tag k="name" v="Langneset" />
		<tag k="ssr:date" v="2021-06-08" />
		<tag k="ssr:gruppe" v="veg" />
		<tag k="ssr:hovedgruppe" v="infrastruktur" />
		<tag k="ssr:stedsnr" v="284259" />
		<tag k="ssr:type" v="adressetilleggsnavn" />
	</node>
<<<<<<< HEAD
	<node lat="62.88503055914463" lon="6.948069435850356" id="-5578">
		<tag k="name" v="Søre Harøysund" />
=======
	<node id="-106779" lat="62.8436647961" lon="7.04970793481">
		<tag k="name" v="Idunns veg" />
>>>>>>> e1d4bc35ff8a6074a6f2e91616a996b547c36f15
		<tag k="ssr:date" v="2019-12-27" />
		<tag k="ssr:gruppe" v="navigasjon" />
		<tag k="ssr:hovedgruppe" v="infrastruktur" />
		<tag k="ssr:stedsnr" v="292172" />
		<tag k="ssr:type" v="lanterne" />
	</node>
<<<<<<< HEAD
	<node lat="62.78574166477661" lon="7.007288882881726" id="-5581">
		<tag k="name" v="Trondshaugen" />
=======
	<node id="-106778" lat="62.8455930354" lon="7.05474681927">
		<tag k="name" v="Frøyas veg" />
>>>>>>> e1d4bc35ff8a6074a6f2e91616a996b547c36f15
		<tag k="ssr:date" v="2019-12-27" />
		<tag k="ssr:gruppe" v="administrativeIndelinger" />
		<tag k="ssr:hovedgruppe" v="offentligAdministrasjon" />
		<tag k="ssr:stedsnr" v="301297" />
		<tag k="ssr:type" v="statistiskTettsted" />
	</node>
<<<<<<< HEAD
	<node lat="62.91975935232216" lon="7.436104403539556" id="-5705">
		<tag k="name" v="Nedre Teigene" />
=======
	<node id="-106777" lat="62.8465959287" lon="7.05780420789">
		<tag k="name" v="Njords veg" />
>>>>>>> e1d4bc35ff8a6074a6f2e91616a996b547c36f15
		<tag k="ssr:date" v="2019-12-27" />
		<tag k="ssr:gruppe" v="veg" />
		<tag k="ssr:hovedgruppe" v="infrastruktur" />
		<tag k="ssr:stedsnr" v="363536" />
		<tag k="ssr:type" v="adressenavn" />
	</node>
<<<<<<< HEAD
	<node lat="62.96461944498998" lon="7.371322222152164" id="-5706">
		<tag k="name" v="Fransosvegen" />
=======
	<node id="-106776" lat="62.8446555933" lon="7.05123347295">
		<tag k="name" v="Grids veg" />
>>>>>>> e1d4bc35ff8a6074a6f2e91616a996b547c36f15
		<tag k="ssr:date" v="2019-12-27" />
		<tag k="ssr:gruppe" v="veg" />
		<tag k="ssr:hovedgruppe" v="infrastruktur" />
		<tag k="ssr:stedsnr" v="363459" />
		<tag k="ssr:type" v="adressenavn" />
	</node>
<<<<<<< HEAD
	<node lat="62.96629444305799" lon="7.037458333642437" id="-5727">
		<tag k="alt_name" v="Askvågen;Haugsneset lykt" />
		<tag k="name" v="Askevågen" />
		<tag k="ssr:date" v="2020-08-20" />
		<tag k="ssr:gruppe" v="navigasjon" />
=======
	<node id="-106775" lat="62.8444467572" lon="7.05431185447">
		<tag k="name" v="Tors veg" />
		<tag k="ssr:date" v="2019-12-27" />
		<tag k="ssr:gruppe" v="veg" />
>>>>>>> e1d4bc35ff8a6074a6f2e91616a996b547c36f15
		<tag k="ssr:hovedgruppe" v="infrastruktur" />
		<tag k="ssr:stedsnr" v="376033" />
		<tag k="ssr:type" v="fyrlykt" />
	</node>
<<<<<<< HEAD
	<node lat="62.91875000334113" lon="7.925902769418111" id="-5752">
		<tag k="name" v="Nordmøre" />
		<tag k="ssr:date" v="2019-12-27" />
		<tag k="ssr:gruppe" v="terrengområder" />
		<tag k="ssr:hovedgruppe" v="terreng" />
		<tag k="ssr:stedsnr" v="389819" />
		<tag k="ssr:type" v="landskapsområde" />
	</node>
	<node lat="62.86358333702075" lon="7.186500000374306" id="-5778">
		<tag k="name" v="Britstien" />
=======
	<node id="-106774" lat="62.8431998842" lon="7.05439431285">
		<tag k="name" v="Friggs veg" />
>>>>>>> e1d4bc35ff8a6074a6f2e91616a996b547c36f15
		<tag k="ssr:date" v="2019-12-27" />
		<tag k="ssr:gruppe" v="veg" />
		<tag k="ssr:hovedgruppe" v="infrastruktur" />
		<tag k="ssr:stedsnr" v="399120" />
		<tag k="ssr:type" v="adressenavn" />
	</node>
<<<<<<< HEAD
	<node lat="62.86303611558498" lon="7.186622229713076" id="-5790">
		<tag k="name" v="Hestelia" />
=======
	<node id="-106773" lat="62.853741799" lon="7.18219031598">
		<tag k="name" v="Tollhaugmarka" />
>>>>>>> e1d4bc35ff8a6074a6f2e91616a996b547c36f15
		<tag k="ssr:date" v="2019-12-27" />
		<tag k="ssr:gruppe" v="veg" />
		<tag k="ssr:hovedgruppe" v="infrastruktur" />
		<tag k="ssr:stedsnr" v="399141" />
		<tag k="ssr:type" v="adressenavn" />
	</node>
<<<<<<< HEAD
	<node lat="62.90812884310685" lon="6.88949280952501" id="-5848">
		<tag k="name" v="Storsundet" />
		<tag k="old_name" v="Storesundet" />
		<tag k="ssr:date" v="2020-07-15" />
		<tag k="ssr:gruppe" v="navigasjon" />
		<tag k="ssr:hovedgruppe" v="infrastruktur" />
		<tag k="ssr:stedsnr" v="413866" />
		<tag k="ssr:type" v="fyrlykt" />
	</node>
	<node lat="62.9192500043284" lon="6.92058333878667" id="-5850">
		<tag k="name" v="Dubla" />
=======
	<node id="-106772" lat="62.906108632" lon="6.93112230713">
		<tag k="name" v="Buplassvegen" />
>>>>>>> e1d4bc35ff8a6074a6f2e91616a996b547c36f15
		<tag k="ssr:date" v="2019-12-27" />
		<tag k="ssr:gruppe" v="navigasjon" />
		<tag k="ssr:hovedgruppe" v="infrastruktur" />
		<tag k="ssr:stedsnr" v="414356" />
		<tag k="ssr:type" v="lanterne" />
	</node>
<<<<<<< HEAD
	<node lat="62.952797225857935" lon="7.003994443566663" id="-5852">
		<tag k="name" v="Skutholmen" />
=======
	<node id="-106771" lat="62.9071933709" lon="6.93100644057">
		<tag k="name" v="Rullesteinsvegen" />
>>>>>>> e1d4bc35ff8a6074a6f2e91616a996b547c36f15
		<tag k="ssr:date" v="2019-12-27" />
		<tag k="ssr:gruppe" v="veg" />
		<tag k="ssr:hovedgruppe" v="infrastruktur" />
		<tag k="ssr:stedsnr" v="424843" />
		<tag k="ssr:type" v="adressenavn" />
	</node>
<<<<<<< HEAD
	<node lat="63.01429603823901" lon="7.2974145695979535" id="-5934">
		<tag k="name" v="Kråka" />
		<tag k="ssr:date" v="2020-09-10" />
		<tag k="ssr:gruppe" v="navigasjon" />
=======
	<node id="-106770" lat="62.7959602952" lon="6.98406846218">
		<tag k="name" v="Jendemsvorpa" />
		<tag k="ssr:date" v="2019-12-27" />
		<tag k="ssr:gruppe" v="veg" />
>>>>>>> e1d4bc35ff8a6074a6f2e91616a996b547c36f15
		<tag k="ssr:hovedgruppe" v="infrastruktur" />
		<tag k="ssr:stedsnr" v="498631" />
		<tag k="ssr:type" v="fyrlykt" />
	</node>
<<<<<<< HEAD
	<node lat="62.955779747622195" lon="6.901378560044302" id="-6014">
		<tag k="name" v="Lyroddan" />
		<tag k="ssr:date" v="2021-06-08" />
		<tag k="ssr:gruppe" v="navigasjon" />
=======
	<node id="-106768" lat="62.9565396683" lon="7.17596429978">
		<tag k="name" v="Brandshaug" />
		<tag k="ssr:date" v="2019-12-27" />
		<tag k="ssr:gruppe" v="veg" />
>>>>>>> e1d4bc35ff8a6074a6f2e91616a996b547c36f15
		<tag k="ssr:hovedgruppe" v="infrastruktur" />
		<tag k="ssr:stedsnr" v="525725" />
		<tag k="ssr:type" v="sjøvarde" />
	</node>
<<<<<<< HEAD
	<node lat="62.904138887407356" lon="7.359877772779709" id="-6015">
		<tag k="name" v="Langneset" />
		<tag k="ssr:date" v="2021-06-08" />
=======
	<node id="-106765" lat="62.9117400362" lon="7.1926159149">
		<tag k="name" v="Bjørsnøs" />
		<tag k="ssr:date" v="2019-12-27" />
>>>>>>> e1d4bc35ff8a6074a6f2e91616a996b547c36f15
		<tag k="ssr:gruppe" v="veg" />
		<tag k="ssr:hovedgruppe" v="infrastruktur" />
		<tag k="ssr:stedsnr" v="527247" />
		<tag k="ssr:type" v="adressetilleggsnavn" />
	</node>
<<<<<<< HEAD
	<node lat="63.028911113617994" lon="7.155019440597086" id="-6020">
		<tag k="name" v="Midtflua" />
		<tag k="ssr:date" v="2021-06-08" />
=======
	<node id="-104916" lat="62.9078893091" lon="6.92887044633">
		<tag k="name" v="Korsmyrvegen" />
		<tag k="ssr:date" v="2019-12-27" />
		<tag k="ssr:gruppe" v="veg" />
		<tag k="ssr:hovedgruppe" v="infrastruktur" />
		<tag k="ssr:stedsnr" v="983559" />
		<tag k="ssr:type" v="adressenavn" />
	</node>
	<node id="-106739" lat="63.0496500003" lon="6.97511110752">
		<tag k="name" v="Kroppen Lysbøye" />
		<tag k="ssr:date" v="2019-12-27" />
>>>>>>> e1d4bc35ff8a6074a6f2e91616a996b547c36f15
		<tag k="ssr:gruppe" v="navigasjon" />
		<tag k="ssr:hovedgruppe" v="infrastruktur" />
		<tag k="ssr:stedsnr" v="534912" />
		<tag k="ssr:type" v="lysbøye" />
	</node>
<<<<<<< HEAD
	<node lat="62.810819441363925" lon="7.171261104999671" id="-6025">
		<tag k="name" v="Holsdjupet" />
=======
	<node id="-104690" lat="62.9534499998" lon="6.98117499734">
		<tag k="name" v="Vikan" />
>>>>>>> e1d4bc35ff8a6074a6f2e91616a996b547c36f15
		<tag k="ssr:date" v="2019-12-27" />
		<tag k="ssr:gruppe" v="sjøbunn" />
		<tag k="ssr:hovedgruppe" v="sjø" />
		<tag k="ssr:stedsnr" v="536026" />
		<tag k="ssr:type" v="bakkeISjø" />
	</node>
	<node lat="62.83337265474121" lon="7.143115797021507" id="-6028">
		<tag k="name" v="Svenøya" />
		<tag k="ssr:date" v="2019-12-27" />
		<tag k="ssr:gruppe" v="veg" />
		<tag k="ssr:hovedgruppe" v="infrastruktur" />
		<tag k="ssr:stedsnr" v="545836" />
		<tag k="ssr:type" v="adressenavn" />
	</node>
	<node lat="62.98426586680128" lon="7.123830739060079" id="-6032">
		<tag k="name" v="Storholmvågen" />
		<tag k="ssr:date" v="2020-09-08" />
		<tag k="ssr:gruppe" v="navigasjon" />
		<tag k="ssr:hovedgruppe" v="infrastruktur" />
		<tag k="ssr:stedsnr" v="557036" />
		<tag k="ssr:type" v="fyrlykt" />
	</node>
<<<<<<< HEAD
	<node lat="62.818541017937264" lon="7.085020523252998" id="-6142">
		<tag k="name" v="Svansholmen" />
=======
	<node id="-105711" lat="62.9187500033" lon="7.92590276942">
		<tag k="name" v="Nordmøre" />
>>>>>>> e1d4bc35ff8a6074a6f2e91616a996b547c36f15
		<tag k="ssr:date" v="2019-12-27" />
		<tag k="ssr:gruppe" v="veg" />
		<tag k="ssr:hovedgruppe" v="infrastruktur" />
		<tag k="ssr:stedsnr" v="587967" />
		<tag k="ssr:type" v="adressenavn" />
	</node>
<<<<<<< HEAD
	<node lat="62.821011110337516" lon="7.1772972297831785" id="-6228">
		<tag k="name" v="Skofthella" />
=======
	<node id="-106730" lat="62.8342888889" lon="7.04176666252">
		<tag k="name" v="Nesaflua" />
>>>>>>> e1d4bc35ff8a6074a6f2e91616a996b547c36f15
		<tag k="ssr:date" v="2019-12-27" />
		<tag k="ssr:gruppe" v="farvann" />
		<tag k="ssr:hovedgruppe" v="sjø" />
		<tag k="ssr:stedsnr" v="641561" />
		<tag k="ssr:type" v="fiskeplassISjø" />
	</node>
	<node lat="62.96921662936285" lon="7.010203162569563" id="-6406">
		<tag k="name" v="Stoplan, øvre" />
		<tag k="ssr:date" v="2020-08-04" />
		<tag k="ssr:gruppe" v="navigasjon" />
		<tag k="ssr:hovedgruppe" v="infrastruktur" />
		<tag k="ssr:stedsnr" v="769255" />
		<tag k="ssr:type" v="lanterne" />
	</node>
<<<<<<< HEAD
	<node lat="62.88829722189401" lon="6.9602166571312605" id="-6412">
		<tag k="name" v="Sørvestre Lamholmgrunne" />
		<tag k="ssr:date" v="2019-12-27" />
		<tag k="ssr:gruppe" v="navigasjon" />
		<tag k="ssr:hovedgruppe" v="infrastruktur" />
		<tag k="ssr:stedsnr" v="778200" />
		<tag k="ssr:type" v="lanterne" />
	</node>
	<node lat="62.96538333012117" lon="7.359602772024572" id="-6417">
		<tag k="name" v="Vik" />
=======
	<node id="-103651" lat="63.0163194455" lon="7.35346111234">
		<tag k="name" v="Flatskjæret" />
>>>>>>> e1d4bc35ff8a6074a6f2e91616a996b547c36f15
		<tag k="ssr:date" v="2019-12-27" />
		<tag k="ssr:gruppe" v="veg" />
		<tag k="ssr:hovedgruppe" v="infrastruktur" />
		<tag k="ssr:stedsnr" v="787008" />
		<tag k="ssr:type" v="adressetilleggsnavn" />
	</node>
	<node lat="63.00668602470119" lon="7.308576461605996" id="-6451">
		<tag k="name" v="Vevang" />
		<tag k="ssr:date" v="2020-09-08" />
		<tag k="ssr:gruppe" v="navigasjon" />
		<tag k="ssr:hovedgruppe" v="infrastruktur" />
		<tag k="ssr:stedsnr" v="801395" />
		<tag k="ssr:type" v="fyrlykt" />
	</node>
<<<<<<< HEAD
	<node lat="62.96790832925811" lon="6.880727776637564" id="-6521">
		<tag k="name" v="Kolbeinflua" />
		<tag k="ssr:date" v="2021-06-08" />
		<tag k="ssr:gruppe" v="navigasjon" />
		<tag k="ssr:hovedgruppe" v="infrastruktur" />
		<tag k="ssr:stedsnr" v="838585" />
		<tag k="ssr:type" v="lysbøye" />
	</node>
	<node lat="62.92406111033314" lon="6.939941668474399" id="-6525">
		<tag k="name" v="Ersholmen" />
		<tag k="ssr:date" v="2019-12-27" />
		<tag k="ssr:gruppe" v="navigasjon" />
		<tag k="ssr:hovedgruppe" v="infrastruktur" />
		<tag k="ssr:stedsnr" v="839366" />
		<tag k="ssr:type" v="lanterne" />
	</node>
	<node lat="63.005097224571244" lon="7.240744441726643" id="-6527">
		<tag k="name" v="Marholmen" />
=======
	<node id="-104674" lat="62.8956694269" lon="6.81585454727">
		<tag k="alt_name" v="Bjørnsund" />
		<tag k="name" v="Bjørnsund fyr" />
>>>>>>> e1d4bc35ff8a6074a6f2e91616a996b547c36f15
		<tag k="ssr:date" v="2019-12-27" />
		<tag k="ssr:gruppe" v="navigasjon" />
		<tag k="ssr:hovedgruppe" v="infrastruktur" />
<<<<<<< HEAD
		<tag k="ssr:stedsnr" v="848846" />
		<tag k="ssr:type" v="adressenavn" />
	</node>
	<node lat="62.98336388570695" lon="7.083136112879726" id="-6634">
		<tag k="name" v="Flesadjupet" />
=======
		<tag k="ssr:stedsnr" v="861067" />
		<tag k="ssr:type" v="fyrstasjon" />
	</node>
	<node id="-105686" lat="62.9662944431" lon="7.03745833364">
		<tag k="name" v="Askvågen" />
>>>>>>> e1d4bc35ff8a6074a6f2e91616a996b547c36f15
		<tag k="ssr:date" v="2019-12-27" />
		<tag k="ssr:gruppe" v="farvann" />
		<tag k="ssr:hovedgruppe" v="sjø" />
		<tag k="ssr:stedsnr" v="884669" />
		<tag k="ssr:type" v="fiskeplassISjø" />
	</node>
<<<<<<< HEAD
	<node lat="62.83428888888198" lon="7.041766662524744" id="-6734">
		<tag k="name" v="Nesaflua" />
=======
	<node id="-105170" lat="63.008875004" lon="7.3065361172">
		<tag k="name" v="Atlanterhavsvegen" />
>>>>>>> e1d4bc35ff8a6074a6f2e91616a996b547c36f15
		<tag k="ssr:date" v="2019-12-27" />
		<tag k="ssr:gruppe" v="navigasjon" />
		<tag k="ssr:hovedgruppe" v="infrastruktur" />
		<tag k="ssr:stedsnr" v="951345" />
		<tag k="ssr:type" v="lanterne" />
	</node>
<<<<<<< HEAD
	<node lat="62.80551110977841" lon="6.983880560628454" id="-6735">
		<tag k="name" v="Skjærsnaget" />
		<tag k="ssr:date" v="2021-06-08" />
		<tag k="ssr:gruppe" v="sjøbunn" />
		<tag k="ssr:hovedgruppe" v="sjø" />
		<tag k="ssr:stedsnr" v="956821" />
		<tag k="ssr:type" v="bakkeISjø" />
	</node>
	<node lat="63.04965000027774" lon="6.975111107524109" id="-6739">
		<tag k="name" v="Kroppen Lysbøye" />
=======
	<node id="-103625" lat="62.8850305591" lon="6.94806943585">
		<tag k="name" v="Søre Harøysund" />
>>>>>>> e1d4bc35ff8a6074a6f2e91616a996b547c36f15
		<tag k="ssr:date" v="2019-12-27" />
		<tag k="ssr:gruppe" v="navigasjon" />
		<tag k="ssr:hovedgruppe" v="infrastruktur" />
		<tag k="ssr:stedsnr" v="959135" />
		<tag k="ssr:type" v="lysbøye" />
	</node>
<<<<<<< HEAD
	<node lat="62.96041073643838" lon="7.070618182899938" id="-6774">
		<tag k="name" v="Lysaker" />
=======
	<node id="-105667" lat="62.9197593523" lon="7.43610440354">
		<tag k="name" v="Nedre Teigene" />
>>>>>>> e1d4bc35ff8a6074a6f2e91616a996b547c36f15
		<tag k="ssr:date" v="2019-12-27" />
		<tag k="ssr:gruppe" v="veg" />
		<tag k="ssr:hovedgruppe" v="infrastruktur" />
		<tag k="ssr:stedsnr" v="982270" />
		<tag k="ssr:type" v="adressetilleggsnavn" />
	</node>
<<<<<<< HEAD
	<node lat="62.96027959046018" lon="7.069540532209835" id="-6775">
		<tag k="name" v="Lysaker" />
=======
	<node id="-105666" lat="62.964619445" lon="7.37132222215">
		<tag k="name" v="Fransosvegen" />
>>>>>>> e1d4bc35ff8a6074a6f2e91616a996b547c36f15
		<tag k="ssr:date" v="2019-12-27" />
		<tag k="ssr:gruppe" v="veg" />
		<tag k="ssr:hovedgruppe" v="infrastruktur" />
		<tag k="ssr:stedsnr" v="982272" />
		<tag k="ssr:type" v="adressetilleggsnavn" />
	</node>
<<<<<<< HEAD
	<node lat="62.883448285237556" lon="6.964047996762953" id="-6776">
		<tag k="name" v="Jensholmen" />
=======
	<node id="-105665" lat="62.9653722237" lon="7.35958333543">
		<tag k="name" v="Vik" />
>>>>>>> e1d4bc35ff8a6074a6f2e91616a996b547c36f15
		<tag k="ssr:date" v="2019-12-27" />
		<tag k="ssr:gruppe" v="veg" />
		<tag k="ssr:hovedgruppe" v="infrastruktur" />
		<tag k="ssr:stedsnr" v="982275" />
		<tag k="ssr:type" v="adressetilleggsnavn" />
	</node>
<<<<<<< HEAD
	<node lat="62.93193377736215" lon="6.98499284689771" id="-6777">
		<tag k="name" v="Sunde" />
=======
	<node id="-104223" lat="63.0378305516" lon="7.31675834282">
		<tag k="name" v="Dromskjæra" />
		<tag k="ssr:date" v="2019-12-27" />
		<tag k="ssr:gruppe" v="navigasjon" />
		<tag k="ssr:hovedgruppe" v="infrastruktur" />
		<tag k="ssr:stedsnr" v="708758" />
		<tag k="ssr:type" v="fyrlykt" />
	</node>
	<node id="-106168" lat="62.8185410179" lon="7.08502052325">
		<tag k="name" v="Svansholmen" />
>>>>>>> e1d4bc35ff8a6074a6f2e91616a996b547c36f15
		<tag k="ssr:date" v="2019-12-27" />
		<tag k="ssr:gruppe" v="veg" />
		<tag k="ssr:hovedgruppe" v="infrastruktur" />
		<tag k="ssr:stedsnr" v="982277" />
		<tag k="ssr:type" v="adressetilleggsnavn" />
	</node>
<<<<<<< HEAD
	<node lat="62.893496738435694" lon="6.825114339024403" id="-6778">
		<tag k="name" v="Hanstrikholmen" />
=======
	<node id="-104112" lat="62.9041388874" lon="7.35987777278">
		<tag k="name" v="Langneset" />
>>>>>>> e1d4bc35ff8a6074a6f2e91616a996b547c36f15
		<tag k="ssr:date" v="2019-12-27" />
		<tag k="ssr:gruppe" v="veg" />
		<tag k="ssr:hovedgruppe" v="infrastruktur" />
		<tag k="ssr:stedsnr" v="982279" />
		<tag k="ssr:type" v="adressetilleggsnavn" />
	</node>
<<<<<<< HEAD
	<node lat="62.85554864147802" lon="7.164715273365429" id="-6779">
		<tag k="name" v="Haukås" />
=======
	<node id="-106671" lat="63.0050972246" lon="7.24074444173">
		<tag k="name" v="Marholmen" />
>>>>>>> e1d4bc35ff8a6074a6f2e91616a996b547c36f15
		<tag k="ssr:date" v="2019-12-27" />
		<tag k="ssr:gruppe" v="veg" />
		<tag k="ssr:hovedgruppe" v="infrastruktur" />
		<tag k="ssr:stedsnr" v="982282" />
		<tag k="ssr:type" v="adressetilleggsnavn" />
	</node>
<<<<<<< HEAD
	<node lat="62.816468693614986" lon="7.19297255733167" id="-6782">
		<tag k="name" v="Lindset" />
=======
	<node id="-106667" lat="62.9240611103" lon="6.93994166847">
		<tag k="name" v="Ersholmen" />
>>>>>>> e1d4bc35ff8a6074a6f2e91616a996b547c36f15
		<tag k="ssr:date" v="2019-12-27" />
		<tag k="ssr:gruppe" v="veg" />
		<tag k="ssr:hovedgruppe" v="infrastruktur" />
		<tag k="ssr:stedsnr" v="982285" />
		<tag k="ssr:type" v="adressetilleggsnavn" />
	</node>
<<<<<<< HEAD
	<node lat="62.907889309063485" lon="6.9288704463318185" id="-6783">
		<tag k="name" v="Korsmyrvegen" />
		<tag k="ssr:date" v="2019-12-27" />
		<tag k="ssr:gruppe" v="veg" />
		<tag k="ssr:hovedgruppe" v="infrastruktur" />
		<tag k="ssr:stedsnr" v="983559" />
		<tag k="ssr:type" v="adressenavn" />
	</node>
	<node lat="62.906770458346195" lon="6.927886323440166" id="-6784">
		<tag k="name" v="Steinaldervegen" />
=======
	<node id="-103593" lat="62.8646305577" lon="7.18520000172">
		<tag k="name" v="Orrehaugen" />
>>>>>>> e1d4bc35ff8a6074a6f2e91616a996b547c36f15
		<tag k="ssr:date" v="2019-12-27" />
		<tag k="ssr:gruppe" v="veg" />
		<tag k="ssr:hovedgruppe" v="infrastruktur" />
		<tag k="ssr:stedsnr" v="983560" />
		<tag k="ssr:type" v="adressenavn" />
	</node>
<<<<<<< HEAD
	<node lat="62.90827243337569" lon="6.9341788802088615" id="-6785">
		<tag k="name" v="Flintvegen" />
		<tag k="ssr:date" v="2019-12-27" />
		<tag k="ssr:gruppe" v="veg" />
=======
	<node id="-106662" lat="62.9679083293" lon="6.88072777664">
		<tag k="name" v="Kolbeinflua" />
		<tag k="ssr:date" v="2019-12-27" />
		<tag k="ssr:gruppe" v="navigasjon" />
		<tag k="ssr:hovedgruppe" v="infrastruktur" />
		<tag k="ssr:stedsnr" v="838585" />
		<tag k="ssr:type" v="lysbøye" />
	</node>
	<node id="-105125" lat="62.8883383463" lon="6.81803893193">
		<tag k="alt_name" v="Hammarøyskjæret" />
		<tag k="name" v="Hammerøyskjæret" />
		<tag k="ssr:date" v="2020-02-06" />
		<tag k="ssr:gruppe" v="navigasjon" />
>>>>>>> e1d4bc35ff8a6074a6f2e91616a996b547c36f15
		<tag k="ssr:hovedgruppe" v="infrastruktur" />
		<tag k="ssr:stedsnr" v="983561" />
		<tag k="ssr:type" v="adressenavn" />
	</node>
<<<<<<< HEAD
	<node lat="62.90719337086728" lon="6.931006440565896" id="-6786">
		<tag k="name" v="Rullesteinsvegen" />
=======
	<node id="-105112" lat="62.9579305595" lon="6.96363056434">
		<tag k="name" v="Rota" />
>>>>>>> e1d4bc35ff8a6074a6f2e91616a996b547c36f15
		<tag k="ssr:date" v="2019-12-27" />
		<tag k="ssr:gruppe" v="veg" />
		<tag k="ssr:hovedgruppe" v="infrastruktur" />
		<tag k="ssr:stedsnr" v="983562" />
		<tag k="ssr:type" v="adressenavn" />
	</node>
<<<<<<< HEAD
	<node lat="62.906108632018245" lon="6.931122307129145" id="-6787">
		<tag k="name" v="Buplassvegen" />
=======
	<node id="-104599" lat="62.9653833301" lon="7.35960277202">
		<tag k="name" v="Vik" />
>>>>>>> e1d4bc35ff8a6074a6f2e91616a996b547c36f15
		<tag k="ssr:date" v="2019-12-27" />
		<tag k="ssr:gruppe" v="veg" />
		<tag k="ssr:hovedgruppe" v="infrastruktur" />
		<tag k="ssr:stedsnr" v="983563" />
		<tag k="ssr:type" v="adressenavn" />
	</node>
<<<<<<< HEAD
	<node lat="62.853741799033784" lon="7.182190315982177" id="-6788">
		<tag k="name" v="Tollhaugmarka" />
=======
	<node id="-105107" lat="62.9046888923" lon="6.90496110136">
		<tag k="name" v="Bud molo" />
>>>>>>> e1d4bc35ff8a6074a6f2e91616a996b547c36f15
		<tag k="ssr:date" v="2019-12-27" />
		<tag k="ssr:gruppe" v="veg" />
		<tag k="ssr:hovedgruppe" v="infrastruktur" />
		<tag k="ssr:stedsnr" v="983564" />
		<tag k="ssr:type" v="adressenavn" />
	</node>
<<<<<<< HEAD
	<node lat="62.84319988420443" lon="7.054394312849658" id="-6789">
		<tag k="name" v="Friggs veg" />
=======
	<node id="-104081" lat="62.9060333371" lon="6.877619454">
		<tag k="name" v="Oddane" />
>>>>>>> e1d4bc35ff8a6074a6f2e91616a996b547c36f15
		<tag k="ssr:date" v="2019-12-27" />
		<tag k="ssr:gruppe" v="veg" />
		<tag k="ssr:hovedgruppe" v="infrastruktur" />
		<tag k="ssr:stedsnr" v="983565" />
		<tag k="ssr:type" v="adressenavn" />
	</node>
<<<<<<< HEAD
	<node lat="62.844446757191236" lon="7.054311854466883" id="-6790">
		<tag k="name" v="Tors veg" />
=======
	<node id="-104590" lat="63.0029777751" lon="7.1993972211">
		<tag k="name" v="Kusundet" />
>>>>>>> e1d4bc35ff8a6074a6f2e91616a996b547c36f15
		<tag k="ssr:date" v="2019-12-27" />
		<tag k="ssr:gruppe" v="veg" />
		<tag k="ssr:hovedgruppe" v="infrastruktur" />
		<tag k="ssr:stedsnr" v="983566" />
		<tag k="ssr:type" v="adressenavn" />
	</node>
<<<<<<< HEAD
	<node lat="62.84465559332547" lon="7.051233472950087" id="-6791">
		<tag k="name" v="Grids veg" />
=======
	<node id="-105492" lat="62.861861112" lon="7.10900277962">
		<tag k="name" v="Ny-Jordsvegen" />
		<tag k="ssr:date" v="2019-12-27" />
		<tag k="ssr:gruppe" v="veg" />
		<tag k="ssr:hovedgruppe" v="infrastruktur" />
		<tag k="ssr:stedsnr" v="216531" />
		<tag k="ssr:type" v="vegstrekning" />
	</node>
	<node id="-104047" lat="62.9691472201" lon="7.00982222947">
		<tag k="name" v="Stoplene, Nedre" />
>>>>>>> e1d4bc35ff8a6074a6f2e91616a996b547c36f15
		<tag k="ssr:date" v="2019-12-27" />
		<tag k="ssr:gruppe" v="veg" />
		<tag k="ssr:hovedgruppe" v="infrastruktur" />
		<tag k="ssr:stedsnr" v="983567" />
		<tag k="ssr:type" v="adressenavn" />
	</node>
<<<<<<< HEAD
	<node lat="62.846595928652626" lon="7.0578042078896175" id="-6792">
		<tag k="name" v="Njords veg" />
=======
	<node id="-104046" lat="63.0066527757" lon="7.2116138794">
		<tag k="name" v="Teistklubben" />
>>>>>>> e1d4bc35ff8a6074a6f2e91616a996b547c36f15
		<tag k="ssr:date" v="2019-12-27" />
		<tag k="ssr:gruppe" v="veg" />
		<tag k="ssr:hovedgruppe" v="infrastruktur" />
		<tag k="ssr:stedsnr" v="983568" />
		<tag k="ssr:type" v="adressenavn" />
	</node>
<<<<<<< HEAD
	<node lat="62.956539668295804" lon="7.175964299779989" id="-6794">
		<tag k="name" v="Brandshaug" />
		<tag k="ssr:date" v="2019-12-27" />
		<tag k="ssr:gruppe" v="veg" />
		<tag k="ssr:hovedgruppe" v="infrastruktur" />
		<tag k="ssr:stedsnr" v="983522" />
		<tag k="ssr:type" v="adressetilleggsnavn" />
	</node>
	<node lat="62.79596029519604" lon="6.984068462183918" id="-6796">
		<tag k="name" v="Jendemsvorpa" />
=======
	<node id="-105056" lat="62.938447224" lon="7.12650555425">
		<tag k="name" v="Nerlandssetervegen" />
>>>>>>> e1d4bc35ff8a6074a6f2e91616a996b547c36f15
		<tag k="ssr:date" v="2019-12-27" />
		<tag k="ssr:gruppe" v="veg" />
		<tag k="ssr:hovedgruppe" v="infrastruktur" />
		<tag k="ssr:stedsnr" v="983525" />
		<tag k="ssr:type" v="adressetilleggsnavn" />
	</node>
<<<<<<< HEAD
	<node lat="62.84559303543484" lon="7.05474681926952" id="-6797">
		<tag k="name" v="Frøyas veg" />
		<tag k="ssr:date" v="2019-12-27" />
		<tag k="ssr:gruppe" v="veg" />
		<tag k="ssr:hovedgruppe" v="infrastruktur" />
		<tag k="ssr:stedsnr" v="983628" />
		<tag k="ssr:type" v="adressenavn" />
	</node>
	<node lat="62.84366479609296" lon="7.049707934808581" id="-6798">
		<tag k="name" v="Idunns veg" />
=======
	<node id="-104012" lat="62.984586113" lon="7.31169165882">
		<tag k="name" v="Gaustadvegen" />
		<tag k="ssr:date" v="2019-12-27" />
		<tag k="ssr:gruppe" v="veg" />
		<tag k="ssr:hovedgruppe" v="infrastruktur" />
		<tag k="ssr:stedsnr" v="424016" />
		<tag k="ssr:type" v="adressenavn" />
	</node>
	<node id="-104011" lat="62.901963885" lon="7.42963054982">
		<tag k="name" v="Vågsbøen" />
>>>>>>> e1d4bc35ff8a6074a6f2e91616a996b547c36f15
		<tag k="ssr:date" v="2019-12-27" />
		<tag k="ssr:gruppe" v="veg" />
		<tag k="ssr:hovedgruppe" v="infrastruktur" />
		<tag k="ssr:stedsnr" v="983629" />
		<tag k="ssr:type" v="adressenavn" />
	</node>
<<<<<<< HEAD
	<node lat="62.842501341804685" lon="7.052574398101642" id="-6799">
		<tag k="name" v="Brages veg" />
=======
	<node id="-106049" lat="62.9845555578" lon="7.1241055606">
		<tag k="name" v="Storholmvågen" />
>>>>>>> e1d4bc35ff8a6074a6f2e91616a996b547c36f15
		<tag k="ssr:date" v="2019-12-27" />
		<tag k="ssr:gruppe" v="veg" />
		<tag k="ssr:hovedgruppe" v="infrastruktur" />
		<tag k="ssr:stedsnr" v="983630" />
		<tag k="ssr:type" v="adressenavn" />
	</node>
<<<<<<< HEAD
	<node lat="62.84257177634833" lon="7.0505268333174795" id="-6800">
		<tag k="name" v="Balders veg" />
=======
	<node id="-103999" lat="63.0141527824" lon="7.29737500952">
		<tag k="name" v="Kråka" />
>>>>>>> e1d4bc35ff8a6074a6f2e91616a996b547c36f15
		<tag k="ssr:date" v="2019-12-27" />
		<tag k="ssr:gruppe" v="veg" />
		<tag k="ssr:hovedgruppe" v="infrastruktur" />
		<tag k="ssr:stedsnr" v="983631" />
		<tag k="ssr:type" v="adressenavn" />
	</node>
<<<<<<< HEAD
	<node lat="62.84247227578516" lon="7.047233360450655" id="-6801">
		<tag k="name" v="Lindy Eidems veg" />
=======
	<node id="-106045" lat="62.8333726547" lon="7.14311579702">
		<tag k="name" v="Svenøya" />
>>>>>>> e1d4bc35ff8a6074a6f2e91616a996b547c36f15
		<tag k="ssr:date" v="2019-12-27" />
		<tag k="ssr:gruppe" v="veg" />
		<tag k="ssr:hovedgruppe" v="infrastruktur" />
		<tag k="ssr:stedsnr" v="983632" />
		<tag k="ssr:type" v="adressenavn" />
	</node>
<<<<<<< HEAD
	<node lat="62.845569483198155" lon="7.0582452336598465" id="-6802">
		<tag k="name" v="Iver Kjørsviks veg" />
=======
	<node id="-104504" lat="62.8010583376" lon="7.12212222476">
		<tag k="name" v="Fjellsetra" />
>>>>>>> e1d4bc35ff8a6074a6f2e91616a996b547c36f15
		<tag k="ssr:date" v="2019-12-27" />
		<tag k="ssr:gruppe" v="veg" />
		<tag k="ssr:hovedgruppe" v="infrastruktur" />
		<tag k="ssr:stedsnr" v="983633" />
		<tag k="ssr:type" v="adressenavn" />
	</node>
<<<<<<< HEAD
	<node lat="62.95137241365347" lon="7.004164156733046" id="-6813">
		<tag k="name" v="Langholmen" />
=======
	<node id="-104503" lat="62.8258666675" lon="7.1330083235">
		<tag k="name" v="Beøya" />
>>>>>>> e1d4bc35ff8a6074a6f2e91616a996b547c36f15
		<tag k="ssr:date" v="2019-12-27" />
		<tag k="ssr:gruppe" v="veg" />
		<tag k="ssr:hovedgruppe" v="infrastruktur" />
		<tag k="ssr:stedsnr" v="1058363" />
		<tag k="ssr:type" v="adressenavn" />
	</node>
<<<<<<< HEAD
	<node lat="62.841778838879165" lon="7.244498313472647" id="-6814">
		<tag k="name" v="Sverre Moens veg" />
=======
	<node id="-104502" lat="62.9027722256" lon="7.36485556106">
		<tag k="name" v="Langneset" />
>>>>>>> e1d4bc35ff8a6074a6f2e91616a996b547c36f15
		<tag k="ssr:date" v="2019-12-27" />
		<tag k="ssr:gruppe" v="veg" />
		<tag k="ssr:hovedgruppe" v="infrastruktur" />
		<tag k="ssr:stedsnr" v="1058416" />
		<tag k="ssr:type" v="adressenavn" />
	</node>
<<<<<<< HEAD
	<node lat="63.02224910985484" lon="7.2363023951742065" id="-6815">
		<tag k="name" v="Kvitholmen" />
=======
	<node id="-106036" lat="63.0289111136" lon="7.1550194406">
		<tag k="name" v="Midtflua" />
>>>>>>> e1d4bc35ff8a6074a6f2e91616a996b547c36f15
		<tag k="ssr:date" v="2019-12-27" />
		<tag k="ssr:gruppe" v="veg" />
		<tag k="ssr:hovedgruppe" v="infrastruktur" />
		<tag k="ssr:stedsnr" v="1059644" />
		<tag k="ssr:type" v="adressenavn" />
	</node>
<<<<<<< HEAD
	<node lat="63.00697866903775" lon="7.254162059429706" id="-6816">
		<tag k="name" v="Orøya" />
		<tag k="ssr:date" v="2019-12-27" />
		<tag k="ssr:gruppe" v="veg" />
		<tag k="ssr:hovedgruppe" v="infrastruktur" />
		<tag k="ssr:stedsnr" v="1059646" />
		<tag k="ssr:type" v="adressenavn" />
	</node>
	<node lat="63.00808542152508" lon="7.272644117623226" id="-6817">
		<tag k="name" v="Langøya" />
=======
	<node id="-106027" lat="62.9559694472" lon="6.90135277477">
		<tag k="name" v="Lyroddan" />
>>>>>>> e1d4bc35ff8a6074a6f2e91616a996b547c36f15
		<tag k="ssr:date" v="2019-12-27" />
		<tag k="ssr:gruppe" v="veg" />
		<tag k="ssr:hovedgruppe" v="infrastruktur" />
		<tag k="ssr:stedsnr" v="1059648" />
		<tag k="ssr:type" v="adressenavn" />
	</node>
<<<<<<< HEAD
	<node lat="62.922069275808" lon="7.44429612622184" id="-6818">
		<tag k="name" v="Peplassvegen" />
=======
	<node id="-106537" lat="62.8882972219" lon="6.96021665713">
		<tag k="name" v="Sørvestre Lamholmgrunne" />
>>>>>>> e1d4bc35ff8a6074a6f2e91616a996b547c36f15
		<tag k="ssr:date" v="2019-12-27" />
		<tag k="ssr:gruppe" v="veg" />
		<tag k="ssr:hovedgruppe" v="infrastruktur" />
		<tag k="ssr:stedsnr" v="1072515" />
		<tag k="ssr:type" v="adressenavn" />
	</node>
<<<<<<< HEAD
	<node lat="62.91051181236009" lon="7.5348849636212005" id="-6819">
		<tag k="name" v="Sperrevegen" />
=======
	<node id="-106525" lat="62.8341472199" lon="6.99539166491">
		<tag k="name" v="Hamnneset" />
>>>>>>> e1d4bc35ff8a6074a6f2e91616a996b547c36f15
		<tag k="ssr:date" v="2019-12-27" />
		<tag k="ssr:gruppe" v="veg" />
		<tag k="ssr:hovedgruppe" v="infrastruktur" />
		<tag k="ssr:stedsnr" v="1072517" />
		<tag k="ssr:type" v="adressenavn" />
	</node>
<<<<<<< HEAD
	<node lat="62.85359966673767" lon="7.153504871589817" id="-6821">
		<tag k="name" v="Hustadvika kommune" />
		<tag k="ssr:date" v="2021-06-08" />
=======
	<node id="-105497" lat="62.7857416648" lon="7.00728888288">
		<tag k="name" v="Trondshaugen" />
		<tag k="ssr:date" v="2019-12-27" />
>>>>>>> e1d4bc35ff8a6074a6f2e91616a996b547c36f15
		<tag k="ssr:gruppe" v="administrativeIndelinger" />
		<tag k="ssr:hovedgruppe" v="offentligAdministrasjon" />
		<tag k="ssr:stedsnr" v="1073402" />
		<tag k="ssr:type" v="kommune" />
	</node>
<<<<<<< HEAD
	<node lat="62.82817728770485" lon="7.2405465185271405" id="-6824">
		<tag k="name" v="Anna Løvaas' veg" />
		<tag k="ssr:date" v="2020-02-13" />
		<tag k="ssr:gruppe" v="veg" />
		<tag k="ssr:hovedgruppe" v="infrastruktur" />
		<tag k="ssr:stedsnr" v="1075098" />
		<tag k="ssr:type" v="adressenavn" />
	</node>
	<node lat="62.91671923162936" lon="7.421728639366975" id="-6825">
		<tag k="name" v="Øvergardsvegen" />
		<tag k="ssr:date" v="2020-02-13" />
		<tag k="ssr:gruppe" v="veg" />
=======
	<node id="-104980" lat="62.9887027748" lon="7.23594444582">
		<tag k="name" v="Rådyrfaret" />
		<tag k="ssr:date" v="2019-12-27" />
		<tag k="ssr:gruppe" v="veg" />
		<tag k="ssr:hovedgruppe" v="infrastruktur" />
		<tag k="ssr:stedsnr" v="24982" />
		<tag k="ssr:type" v="adressenavn" />
	</node>
	<node id="-104965" lat="62.9935555522" lon="7.14137776857">
		<tag k="name" v="Nordneset" />
		<tag k="ssr:date" v="2019-12-27" />
		<tag k="ssr:gruppe" v="navigasjon" />
>>>>>>> e1d4bc35ff8a6074a6f2e91616a996b547c36f15
		<tag k="ssr:hovedgruppe" v="infrastruktur" />
		<tag k="ssr:stedsnr" v="1075099" />
		<tag k="ssr:type" v="adressenavn" />
	</node>
</osm>
