<?xml version="1.0" encoding="UTF-8"?>
<osm generator="osmapis" version="0.6">
	<node id="-514558" lat="61.1057861073" lon="6.99229999916">
		<tag k="alt_name" v="Gagersnes" />
		<tag k="name" v="Gagersnes lykt" />
		<tag k="ssr:date" v="2016-05-10" />
		<tag k="ssr:gruppe" v="navigasjon" />
		<tag k="ssr:hovedgruppe" v="infrastruktur" />
		<tag k="ssr:stedsnr" v="130431" />
		<tag k="ssr:type" v="fyrlykt" />
	</node>
	<node id="-515836" lat="61.2325527779" lon="7.08673334262">
		<tag k="name" v="Stadionvegen" />
		<tag k="ssr:date" v="2019-05-31" />
		<tag k="ssr:gruppe" v="veg" />
		<tag k="ssr:hovedgruppe" v="infrastruktur" />
		<tag k="ssr:stedsnr" v="903741" />
		<tag k="ssr:type" v="adressenavn" />
	</node>
	<node id="-514812" lat="61.1909944465" lon="7.04978888902">
		<tag k="alt_name" v="Vineslykti" />
		<tag k="name" v="Vines lanterne" />
		<tag k="ssr:date" v="2016-05-10" />
		<tag k="ssr:gruppe" v="navigasjon" />
		<tag k="ssr:hovedgruppe" v="infrastruktur" />
		<tag k="ssr:stedsnr" v="252043" />
		<tag k="ssr:type" v="lanterne" />
	</node>
	<node id="-514388" lat="61.2307055529" lon="7.09012499929">
		<tag k="name" v="Guridalen" />
		<tag k="ssr:date" v="2019-05-31" />
		<tag k="ssr:gruppe" v="veg" />
		<tag k="ssr:hovedgruppe" v="infrastruktur" />
		<tag k="ssr:stedsnr" v="54761" />
		<tag k="ssr:type" v="adressenavn" />
	</node>
	<node id="-514896" lat="61.2199027757" lon="7.10174721366">
		<tag k="alt_name" v="Stedje" />
		<tag k="name" v="Stedje lykt" />
		<tag k="ssr:date" v="2016-05-10" />
		<tag k="ssr:gruppe" v="navigasjon" />
		<tag k="ssr:hovedgruppe" v="infrastruktur" />
		<tag k="ssr:stedsnr" v="435096" />
		<tag k="ssr:type" v="fyrlykt" />
	</node>
	<node id="-515915" lat="61.2314500009" lon="7.10300832543">
		<tag k="alt_name" v="Sogndal" />
		<tag k="name" v="Sogndal kommune" />
		<tag k="ssr:date" v="2019-08-14" />
		<tag k="ssr:gruppe" v="administrativeIndelinger" />
		<tag k="ssr:hovedgruppe" v="offentligAdministrasjon" />
		<tag k="ssr:stedsnr" v="936938" />
		<tag k="ssr:type" v="kommune" />
	</node>
	<node id="-515914" lat="61.1932361152" lon="7.22316110907">
		<tag k="name" v="Myrane" />
		<tag k="ssr:date" v="2019-05-31" />
		<tag k="ssr:gruppe" v="veg" />
		<tag k="ssr:hovedgruppe" v="infrastruktur" />
		<tag k="ssr:stedsnr" v="931598" />
		<tag k="ssr:type" v="adressenavn" />
	</node>
	<node id="-514236" lat="61.2504678242" lon="7.02349249797">
		<tag k="name" v="Notsetevegen" />
		<tag k="ssr:date" v="2019-05-31" />
		<tag k="ssr:gruppe" v="veg" />
		<tag k="ssr:hovedgruppe" v="infrastruktur" />
		<tag k="ssr:stedsnr" v="982872" />
		<tag k="ssr:type" v="adressenavn" />
	</node>
	<node id="-514246" lat="61.2349268671" lon="7.07102358802">
		<tag k="name" v="Gurvinvegen" />
		<tag k="ssr:date" v="2019-05-31" />
		<tag k="ssr:gruppe" v="veg" />
		<tag k="ssr:hovedgruppe" v="infrastruktur" />
		<tag k="ssr:stedsnr" v="982917" />
		<tag k="ssr:type" v="adressenavn" />
	</node>
	<node id="-514245" lat="61.2919950856" lon="7.00405238063">
		<tag k="name" v="Høljarvollen" />
		<tag k="ssr:date" v="2019-05-31" />
		<tag k="ssr:gruppe" v="veg" />
		<tag k="ssr:hovedgruppe" v="infrastruktur" />
		<tag k="ssr:stedsnr" v="982915" />
		<tag k="ssr:type" v="adressenavn" />
	</node>
	<node id="-514244" lat="61.2109492403" lon="7.12770885982">
		<tag k="name" v="Vedlegjerdsvegen" />
		<tag k="ssr:date" v="2019-05-31" />
		<tag k="ssr:gruppe" v="veg" />
		<tag k="ssr:hovedgruppe" v="infrastruktur" />
		<tag k="ssr:stedsnr" v="982911" />
		<tag k="ssr:type" v="adressenavn" />
	</node>
	<node id="-514243" lat="61.1827986401" lon="7.21411387412">
		<tag k="name" v="Bråtane" />
		<tag k="ssr:date" v="2019-05-31" />
		<tag k="ssr:gruppe" v="veg" />
		<tag k="ssr:hovedgruppe" v="infrastruktur" />
		<tag k="ssr:stedsnr" v="982910" />
		<tag k="ssr:type" v="adressenavn" />
	</node>
	<node id="-514242" lat="61.2303491457" lon="7.12379115276">
		<tag k="name" v="Loftesnes" />
		<tag k="ssr:date" v="2019-05-31" />
		<tag k="ssr:gruppe" v="veg" />
		<tag k="ssr:hovedgruppe" v="infrastruktur" />
		<tag k="ssr:stedsnr" v="982908" />
		<tag k="ssr:type" v="adressenavn" />
	</node>
	<node id="-514241" lat="61.2285936511" lon="7.12542325124">
		<tag k="name" v="Ytre Loftesnes" />
		<tag k="ssr:date" v="2019-05-31" />
		<tag k="ssr:gruppe" v="veg" />
		<tag k="ssr:hovedgruppe" v="infrastruktur" />
		<tag k="ssr:stedsnr" v="982909" />
		<tag k="ssr:type" v="adressenavn" />
	</node>
	<node id="-514240" lat="61.2384775612" lon="7.1343010452">
		<tag k="name" v="Barsnes" />
		<tag k="ssr:date" v="2019-05-31" />
		<tag k="ssr:gruppe" v="veg" />
		<tag k="ssr:hovedgruppe" v="infrastruktur" />
		<tag k="ssr:stedsnr" v="982907" />
		<tag k="ssr:type" v="adressenavn" />
	</node>
	<node id="-514239" lat="61.2313190741" lon="7.11918552602">
		<tag k="name" v="Mannhellervegen" />
		<tag k="ssr:date" v="2019-05-31" />
		<tag k="ssr:gruppe" v="veg" />
		<tag k="ssr:hovedgruppe" v="infrastruktur" />
		<tag k="ssr:stedsnr" v="982890" />
		<tag k="ssr:type" v="adressenavn" />
	</node>
	<node id="-514238" lat="61.2392560915" lon="7.04613013005">
		<tag k="name" v="Åsavegen" />
		<tag k="ssr:date" v="2019-05-31" />
		<tag k="ssr:gruppe" v="veg" />
		<tag k="ssr:hovedgruppe" v="infrastruktur" />
		<tag k="ssr:stedsnr" v="982876" />
		<tag k="ssr:type" v="adressenavn" />
	</node>
	<node id="-514237" lat="61.2294161634" lon="7.08342164348">
		<tag k="name" v="Nedrehagen" />
		<tag k="ssr:date" v="2019-05-31" />
		<tag k="ssr:gruppe" v="veg" />
		<tag k="ssr:hovedgruppe" v="infrastruktur" />
		<tag k="ssr:stedsnr" v="982874" />
		<tag k="ssr:type" v="adressenavn" />
	</node>
	<node id="-515004" lat="61.1415805579" lon="6.92732500287">
		<tag k="name" v="Meisaneset lanterne" />
		<tag k="old_name" v="Meisuneset" />
		<tag k="ssr:date" v="2016-05-10" />
		<tag k="ssr:gruppe" v="navigasjon" />
		<tag k="ssr:hovedgruppe" v="infrastruktur" />
		<tag k="ssr:stedsnr" v="494866" />
		<tag k="ssr:type" v="lanterne" />
	</node>
	<node id="-514235" lat="61.2594587542" lon="7.01621456755">
		<tag k="name" v="Kriken" />
		<tag k="ssr:date" v="2019-05-31" />
		<tag k="ssr:gruppe" v="veg" />
		<tag k="ssr:hovedgruppe" v="infrastruktur" />
		<tag k="ssr:stedsnr" v="982869" />
		<tag k="ssr:type" v="adressenavn" />
	</node>
	<node id="-514234" lat="61.2587345792" lon="7.0090811505">
		<tag k="name" v="Skirsetevegen" />
		<tag k="ssr:date" v="2019-05-31" />
		<tag k="ssr:gruppe" v="veg" />
		<tag k="ssr:hovedgruppe" v="infrastruktur" />
		<tag k="ssr:stedsnr" v="982868" />
		<tag k="ssr:type" v="adressenavn" />
	</node>
	<node id="-514233" lat="61.3332972001" lon="6.92434932949">
		<tag k="name" v="Vatnasete" />
		<tag k="ssr:date" v="2019-05-31" />
		<tag k="ssr:gruppe" v="veg" />
		<tag k="ssr:hovedgruppe" v="infrastruktur" />
		<tag k="ssr:stedsnr" v="982857" />
		<tag k="ssr:type" v="adressenavn" />
	</node>
	<node id="-514232" lat="61.3404971576" lon="6.9218347749">
		<tag k="name" v="Anestølsvegen" />
		<tag k="ssr:date" v="2019-05-31" />
		<tag k="ssr:gruppe" v="veg" />
		<tag k="ssr:hovedgruppe" v="infrastruktur" />
		<tag k="ssr:stedsnr" v="982855" />
		<tag k="ssr:type" v="adressenavn" />
	</node>
	<node id="-514231" lat="61.3401948573" lon="6.91968607938">
		<tag k="name" v="Nysetevegen" />
		<tag k="ssr:date" v="2019-05-31" />
		<tag k="ssr:gruppe" v="veg" />
		<tag k="ssr:hovedgruppe" v="infrastruktur" />
		<tag k="ssr:stedsnr" v="982856" />
		<tag k="ssr:type" v="adressenavn" />
	</node>
	<node id="-514230" lat="61.3347784893" lon="6.71610007039">
		<tag k="name" v="Lidal" />
		<tag k="ssr:date" v="2019-05-31" />
		<tag k="ssr:gruppe" v="veg" />
		<tag k="ssr:hovedgruppe" v="infrastruktur" />
		<tag k="ssr:stedsnr" v="982854" />
		<tag k="ssr:type" v="adressenavn" />
	</node>
	<node id="-514229" lat="61.1836370657" lon="7.21297366973">
		<tag k="name" v="Kolmilevegen" />
		<tag k="ssr:date" v="2019-05-31" />
		<tag k="ssr:gruppe" v="veg" />
		<tag k="ssr:hovedgruppe" v="infrastruktur" />
		<tag k="ssr:stedsnr" v="982841" />
		<tag k="ssr:type" v="adressenavn" />
	</node>
	<node id="-514228" lat="61.184931625" lon="7.21444434334">
		<tag k="name" v="Trekolvegen" />
		<tag k="ssr:date" v="2019-05-31" />
		<tag k="ssr:gruppe" v="veg" />
		<tag k="ssr:hovedgruppe" v="infrastruktur" />
		<tag k="ssr:stedsnr" v="982840" />
		<tag k="ssr:type" v="adressenavn" />
	</node>
	<node id="-514226" lat="61.2910483496" lon="6.9692157502">
		<tag k="name" v="Rindabakkane" />
		<tag k="ssr:date" v="2019-12-05" />
		<tag k="ssr:gruppe" v="veg" />
		<tag k="ssr:hovedgruppe" v="infrastruktur" />
		<tag k="ssr:stedsnr" v="1073740" />
		<tag k="ssr:type" v="adressenavn" />
	</node>
	<node id="-515231" lat="61.2325222258" lon="7.08148056132">
		<tag k="name" v="Ingahaugen" />
		<tag k="ssr:date" v="2019-05-31" />
		<tag k="ssr:gruppe" v="veg" />
		<tag k="ssr:hovedgruppe" v="infrastruktur" />
		<tag k="ssr:stedsnr" v="599758" />
		<tag k="ssr:type" v="adressenavn" />
	</node>
	<node id="-515525" lat="61.1574999997" lon="6.99594721496">
		<tag k="alt_name" v="Nordnes" />
		<tag k="name" v="Nordnes lykt" />
		<tag k="ssr:date" v="2016-05-11" />
		<tag k="ssr:gruppe" v="navigasjon" />
		<tag k="ssr:hovedgruppe" v="infrastruktur" />
		<tag k="ssr:stedsnr" v="722440" />
		<tag k="ssr:type" v="fyrlykt" />
	</node>
	<node id="-515990" lat="60.8816104596" lon="6.30047518531">
		<tag k="name" v="Vestlandet" />
		<tag k="ssr:date" v="2019-01-06" />
		<tag k="ssr:gruppe" v="administrativeIndelinger" />
		<tag k="ssr:hovedgruppe" v="offentligAdministrasjon" />
		<tag k="ssr:stedsnr" v="974777" />
		<tag k="ssr:type" v="annenAdministrativInndeling" />
	</node>
	<node id="-515522" lat="61.2218472233" lon="7.10464721496">
		<tag k="alt_name" v="Leirnes" />
		<tag k="name" v="Leirnes lykt" />
		<tag k="ssr:date" v="2016-05-11" />
		<tag k="ssr:gruppe" v="navigasjon" />
		<tag k="ssr:hovedgruppe" v="infrastruktur" />
		<tag k="ssr:stedsnr" v="722062" />
		<tag k="ssr:type" v="fyrlykt" />
	</node>
</osm>
