<?xml version="1.0" encoding="UTF-8"?>
<osm generator="osmapis" version="0.6">
	<node id="-359936" lat="58.5996061167" lon="7.28852568994">
		<tag k="name" v="Åslandsglypan" />
		<tag k="ssr:date" v="2019-05-30" />
		<tag k="ssr:gruppe" v="veg" />
		<tag k="ssr:hovedgruppe" v="infrastruktur" />
		<tag k="ssr:stedsnr" v="1008788" />
		<tag k="ssr:type" v="adressenavn" />
	</node>
	<node id="-359935" lat="58.5516384362" lon="7.27878529643">
		<tag k="name" v="Kråkestøl" />
		<tag k="ssr:date" v="2019-05-30" />
		<tag k="ssr:gruppe" v="veg" />
		<tag k="ssr:hovedgruppe" v="infrastruktur" />
		<tag k="ssr:stedsnr" v="1008783" />
		<tag k="ssr:type" v="adressenavn" />
	</node>
	<node id="-359934" lat="58.5369630861" lon="7.34608059592">
		<tag k="name" v="Storekleivmyra" />
		<tag k="ssr:date" v="2019-05-30" />
		<tag k="ssr:gruppe" v="veg" />
		<tag k="ssr:hovedgruppe" v="infrastruktur" />
		<tag k="ssr:stedsnr" v="1008362" />
		<tag k="ssr:type" v="adressenavn" />
	</node>
	<node id="-362360" lat="58.6172972178" lon="7.4111833331">
		<tag k="name" v="Åseral kommune" />
		<tag k="ssr:date" v="2017-11-10" />
		<tag k="ssr:gruppe" v="administrativeIndelinger" />
		<tag k="ssr:hovedgruppe" v="offentligAdministrasjon" />
		<tag k="ssr:stedsnr" v="752036" />
		<tag k="ssr:type" v="kommune" />
	</node>
	<node id="-360281" lat="58.815300001" lon="7.46581389234">
		<tag k="name" v="Bergeveien" />
		<tag k="ssr:date" v="2016-05-10" />
		<tag k="ssr:gruppe" v="veg" />
		<tag k="ssr:hovedgruppe" v="infrastruktur" />
		<tag k="ssr:stedsnr" v="99360" />
		<tag k="ssr:type" v="vegstrekning" />
	</node>
	<node id="-359955" lat="58.799976881" lon="7.3042944207">
		<tag k="name" v="Ljosland heimhei" />
		<tag k="ssr:date" v="2019-05-30" />
		<tag k="ssr:gruppe" v="veg" />
		<tag k="ssr:hovedgruppe" v="infrastruktur" />
		<tag k="ssr:stedsnr" v="1008840" />
		<tag k="ssr:type" v="adressenavn" />
	</node>
	<node id="-359954" lat="58.8365309238" lon="7.39283965294">
		<tag k="name" v="Ljosland nordhei" />
		<tag k="ssr:date" v="2019-05-30" />
		<tag k="ssr:gruppe" v="veg" />
		<tag k="ssr:hovedgruppe" v="infrastruktur" />
		<tag k="ssr:stedsnr" v="1008838" />
		<tag k="ssr:type" v="adressenavn" />
	</node>
	<node id="-359953" lat="58.7841690722" lon="7.30895116331">
		<tag k="name" v="Skoræ" />
		<tag k="ssr:date" v="2019-05-30" />
		<tag k="ssr:gruppe" v="veg" />
		<tag k="ssr:hovedgruppe" v="infrastruktur" />
		<tag k="ssr:stedsnr" v="1008835" />
		<tag k="ssr:type" v="adressenavn" />
	</node>
	<node id="-359952" lat="58.7881305664" lon="7.29714465199">
		<tag k="name" v="Ljosland vesthei" />
		<tag k="ssr:date" v="2019-05-30" />
		<tag k="ssr:gruppe" v="veg" />
		<tag k="ssr:hovedgruppe" v="infrastruktur" />
		<tag k="ssr:stedsnr" v="1008833" />
		<tag k="ssr:type" v="adressenavn" />
	</node>
	<node id="-359951" lat="58.6751521473" lon="7.33754055046">
		<tag k="name" v="Vivassdalen" />
		<tag k="ssr:date" v="2019-05-30" />
		<tag k="ssr:gruppe" v="veg" />
		<tag k="ssr:hovedgruppe" v="infrastruktur" />
		<tag k="ssr:stedsnr" v="1008830" />
		<tag k="ssr:type" v="adressenavn" />
	</node>
	<node id="-359950" lat="58.7068290361" lon="7.37790473943">
		<tag k="name" v="Breland vesthei" />
		<tag k="ssr:date" v="2019-05-30" />
		<tag k="ssr:gruppe" v="veg" />
		<tag k="ssr:hovedgruppe" v="infrastruktur" />
		<tag k="ssr:stedsnr" v="1008828" />
		<tag k="ssr:type" v="adressenavn" />
	</node>
	<node id="-359949" lat="58.6992874816" lon="7.37743211899">
		<tag k="name" v="Brelandsheia" />
		<tag k="ssr:date" v="2019-05-30" />
		<tag k="ssr:gruppe" v="veg" />
		<tag k="ssr:hovedgruppe" v="infrastruktur" />
		<tag k="ssr:stedsnr" v="1008826" />
		<tag k="ssr:type" v="adressenavn" />
	</node>
	<node id="-359948" lat="58.6338218529" lon="7.31625618734">
		<tag k="name" v="Steintjønn" />
		<tag k="ssr:date" v="2019-05-30" />
		<tag k="ssr:gruppe" v="veg" />
		<tag k="ssr:hovedgruppe" v="infrastruktur" />
		<tag k="ssr:stedsnr" v="1008824" />
		<tag k="ssr:type" v="adressenavn" />
	</node>
	<node id="-359947" lat="58.7997622269" lon="7.59952058001">
		<tag k="name" v="Prestvardheia" />
		<tag k="ssr:date" v="2019-05-30" />
		<tag k="ssr:gruppe" v="veg" />
		<tag k="ssr:hovedgruppe" v="infrastruktur" />
		<tag k="ssr:stedsnr" v="1008817" />
		<tag k="ssr:type" v="adressenavn" />
	</node>
	<node id="-359946" lat="58.8209107449" lon="7.43646697889">
		<tag k="name" v="Falkefjellvegen" />
		<tag k="ssr:date" v="2019-05-30" />
		<tag k="ssr:gruppe" v="veg" />
		<tag k="ssr:hovedgruppe" v="infrastruktur" />
		<tag k="ssr:stedsnr" v="1008814" />
		<tag k="ssr:type" v="adressenavn" />
	</node>
	<node id="-359945" lat="58.8391387896" lon="7.45850650169">
		<tag k="name" v="Finndalsheia" />
		<tag k="ssr:date" v="2019-05-30" />
		<tag k="ssr:gruppe" v="veg" />
		<tag k="ssr:hovedgruppe" v="infrastruktur" />
		<tag k="ssr:stedsnr" v="1008812" />
		<tag k="ssr:type" v="adressenavn" />
	</node>
	<node id="-359944" lat="58.8043943994" lon="7.43466382834">
		<tag k="name" v="Geitheia" />
		<tag k="ssr:date" v="2019-05-30" />
		<tag k="ssr:gruppe" v="veg" />
		<tag k="ssr:hovedgruppe" v="infrastruktur" />
		<tag k="ssr:stedsnr" v="1008810" />
		<tag k="ssr:type" v="adressenavn" />
	</node>
	<node id="-359943" lat="58.8093187615" lon="7.49324561236">
		<tag k="name" v="Rolltoppen" />
		<tag k="ssr:date" v="2019-05-30" />
		<tag k="ssr:gruppe" v="veg" />
		<tag k="ssr:hovedgruppe" v="infrastruktur" />
		<tag k="ssr:stedsnr" v="1008454" />
		<tag k="ssr:type" v="adressenavn" />
	</node>
	<node id="-359942" lat="58.8140003346" lon="7.46216936226">
		<tag k="name" v="Gråtarmyra" />
		<tag k="ssr:date" v="2019-05-30" />
		<tag k="ssr:gruppe" v="veg" />
		<tag k="ssr:hovedgruppe" v="infrastruktur" />
		<tag k="ssr:stedsnr" v="1008441" />
		<tag k="ssr:type" v="adressenavn" />
	</node>
	<node id="-359941" lat="58.82421436" lon="7.49426200678">
		<tag k="name" v="Hesteholun" />
		<tag k="ssr:date" v="2019-05-30" />
		<tag k="ssr:gruppe" v="veg" />
		<tag k="ssr:hovedgruppe" v="infrastruktur" />
		<tag k="ssr:stedsnr" v="1008425" />
		<tag k="ssr:type" v="adressenavn" />
	</node>
	<node id="-359940" lat="58.6129439228" lon="7.43105903541">
		<tag k="name" v="Mjåvassvegen" />
		<tag k="ssr:date" v="2019-05-30" />
		<tag k="ssr:gruppe" v="veg" />
		<tag k="ssr:hovedgruppe" v="infrastruktur" />
		<tag k="ssr:stedsnr" v="1008415" />
		<tag k="ssr:type" v="adressenavn" />
	</node>
	<node id="-359939" lat="58.6070029056" lon="7.33402256651">
		<tag k="name" v="Åsland heimhei" />
		<tag k="ssr:date" v="2019-05-30" />
		<tag k="ssr:gruppe" v="veg" />
		<tag k="ssr:hovedgruppe" v="infrastruktur" />
		<tag k="ssr:stedsnr" v="1008793" />
		<tag k="ssr:type" v="adressenavn" />
	</node>
	<node id="-359938" lat="58.6136109989" lon="7.34161742351">
		<tag k="name" v="Forgard heimhei" />
		<tag k="ssr:date" v="2019-05-30" />
		<tag k="ssr:gruppe" v="veg" />
		<tag k="ssr:hovedgruppe" v="infrastruktur" />
		<tag k="ssr:stedsnr" v="1008791" />
		<tag k="ssr:type" v="adressenavn" />
	</node>
	<node id="-359937" lat="58.5879389546" lon="7.29569332959">
		<tag k="name" v="Dyrevatn" />
		<tag k="ssr:date" v="2019-05-30" />
		<tag k="ssr:gruppe" v="veg" />
		<tag k="ssr:hovedgruppe" v="infrastruktur" />
		<tag k="ssr:stedsnr" v="1008789" />
		<tag k="ssr:type" v="adressenavn" />
	</node>
</osm>
