<?xml version="1.0" encoding="UTF-8"?>
<osm version="0.6" generator="osmapis">
	<node lat="58.45398196396165" lon="8.788647736047992" id="-55331">
		<tag k="name" v="Knekken" />
		<tag k="ssr:date" v="2019-12-27" />
		<tag k="ssr:gruppe" v="veg" />
		<tag k="ssr:hovedgruppe" v="infrastruktur" />
		<tag k="ssr:stedsnr" v="235869" />
		<tag k="ssr:type" v="adressenavn" />
	</node>
	<node lat="58.50775192432255" lon="8.93949211430697" id="-55336">
		<tag k="name" v="Øyna" />
		<tag k="ssr:date" v="2019-12-27" />
		<tag k="ssr:gruppe" v="veg" />
		<tag k="ssr:hovedgruppe" v="infrastruktur" />
		<tag k="ssr:stedsnr" v="53889" />
		<tag k="ssr:type" v="adressenavn" />
	</node>
	<node lat="58.439192868053865" lon="8.787643395789695" id="-55430">
		<tag k="name" v="Torjusholmen" />
		<tag k="ssr:date" v="2019-12-27" />
		<tag k="ssr:gruppe" v="veg" />
		<tag k="ssr:hovedgruppe" v="infrastruktur" />
		<tag k="ssr:stedsnr" v="114912" />
		<tag k="ssr:type" v="adressenavn" />
	</node>
	<node lat="58.43477222341059" lon="8.815811119264755" id="-55431">
		<tag k="name" v="Gjessøya" />
		<tag k="ssr:date" v="2019-12-27" />
		<tag k="ssr:gruppe" v="veg" />
		<tag k="ssr:hovedgruppe" v="infrastruktur" />
		<tag k="ssr:stedsnr" v="114869" />
		<tag k="ssr:type" v="adressenavn" />
	</node>
	<node lat="58.45122711832653" lon="8.827076317182701" id="-55497">
		<tag k="name" v="Gjerstadveien" />
		<tag k="ssr:date" v="2019-12-27" />
		<tag k="ssr:gruppe" v="veg" />
		<tag k="ssr:hovedgruppe" v="infrastruktur" />
		<tag k="ssr:stedsnr" v="174404" />
		<tag k="ssr:type" v="adressenavn" />
	</node>
	<node lat="58.50512906481142" lon="8.92411727305154" id="-55498">
		<tag k="name" v="Klevsund" />
		<tag k="ssr:date" v="2019-12-27" />
		<tag k="ssr:gruppe" v="veg" />
		<tag k="ssr:hovedgruppe" v="infrastruktur" />
		<tag k="ssr:stedsnr" v="174904" />
		<tag k="ssr:type" v="adressenavn" />
	</node>
	<node lat="58.510819448266375" lon="8.944924999815168" id="-55501">
		<tag k="name" v="Gitmertangen, Nordre, Øvre" />
		<tag k="ssr:date" v="2019-12-27" />
		<tag k="ssr:gruppe" v="navigasjon" />
		<tag k="ssr:hovedgruppe" v="infrastruktur" />
		<tag k="ssr:stedsnr" v="177873" />
		<tag k="ssr:type" v="fyrlykt" />
	</node>
	<node lat="58.46043610928696" lon="8.765030560310048" id="-55533">
		<tag k="alt_name" v="Arendal" />
		<tag k="name" v="Arendal kommune" />
		<tag k="ssr:date" v="2020-02-06" />
		<tag k="ssr:gruppe" v="administrativeIndelinger" />
		<tag k="ssr:hovedgruppe" v="offentligAdministrasjon" />
		<tag k="ssr:stedsnr" v="267383" />
		<tag k="ssr:type" v="kommune" />
	</node>
	<node lat="58.486388830245005" lon="8.882112589911285" id="-55603">
		<tag k="name" v="Omdalsveien" />
		<tag k="ssr:date" v="2019-12-27" />
		<tag k="ssr:gruppe" v="veg" />
		<tag k="ssr:hovedgruppe" v="infrastruktur" />
		<tag k="ssr:stedsnr" v="235908" />
		<tag k="ssr:type" v="adressenavn" />
	</node>
	<node lat="58.46341706264497" lon="8.83466088071291" id="-55858">
		<tag k="name" v="Østre Tromøyvei" />
		<tag k="ssr:date" v="2019-12-27" />
		<tag k="ssr:gruppe" v="veg" />
		<tag k="ssr:hovedgruppe" v="infrastruktur" />
		<tag k="ssr:stedsnr" v="356902" />
		<tag k="ssr:type" v="adressenavn" />
	</node>
	<node lat="58.4837369970476" lon="8.889250107056139" id="-55859">
		<tag k="name" v="Skareveien" />
		<tag k="ssr:date" v="2019-12-27" />
		<tag k="ssr:gruppe" v="veg" />
		<tag k="ssr:hovedgruppe" v="infrastruktur" />
		<tag k="ssr:stedsnr" v="356905" />
		<tag k="ssr:type" v="adressenavn" />
	</node>
	<node lat="58.440630970745744" lon="8.807985829953699" id="-55860">
		<tag k="name" v="Bukkevika" />
		<tag k="ssr:date" v="2019-12-27" />
		<tag k="ssr:gruppe" v="veg" />
		<tag k="ssr:hovedgruppe" v="infrastruktur" />
		<tag k="ssr:stedsnr" v="356907" />
		<tag k="ssr:type" v="adressenavn" />
	</node>
	<node lat="58.43735438763926" lon="8.808812470719854" id="-55861">
		<tag k="name" v="Ytre Revesandvei" />
		<tag k="ssr:date" v="2019-12-27" />
		<tag k="ssr:gruppe" v="veg" />
		<tag k="ssr:hovedgruppe" v="infrastruktur" />
		<tag k="ssr:stedsnr" v="356913" />
		<tag k="ssr:type" v="adressenavn" />
	</node>
	<node lat="58.48474011026568" lon="8.87485632423631" id="-55872">
		<tag k="name" v="Dybdalsveien" />
		<tag k="ssr:date" v="2019-12-27" />
		<tag k="ssr:gruppe" v="veg" />
		<tag k="ssr:hovedgruppe" v="infrastruktur" />
		<tag k="ssr:stedsnr" v="478609" />
		<tag k="ssr:type" v="adressenavn" />
	</node>
	<node lat="58.474415407725324" lon="8.890044704328613" id="-55873">
		<tag k="name" v="Sandåveien" />
		<tag k="ssr:date" v="2019-12-27" />
		<tag k="ssr:gruppe" v="veg" />
		<tag k="ssr:hovedgruppe" v="infrastruktur" />
		<tag k="ssr:stedsnr" v="478626" />
		<tag k="ssr:type" v="adressenavn" />
	</node>
	<node lat="58.4679982195668" lon="8.848182951330287" id="-55874">
		<tag k="name" v="Vågsnesveien" />
		<tag k="ssr:date" v="2019-12-27" />
		<tag k="ssr:gruppe" v="veg" />
		<tag k="ssr:hovedgruppe" v="infrastruktur" />
		<tag k="ssr:stedsnr" v="478694" />
		<tag k="ssr:type" v="adressenavn" />
	</node>
	<node lat="58.46920021946942" lon="8.884926278511347" id="-55962">
		<tag k="name" v="Alveveien" />
		<tag k="ssr:date" v="2019-12-27" />
		<tag k="ssr:gruppe" v="veg" />
		<tag k="ssr:hovedgruppe" v="infrastruktur" />
		<tag k="ssr:stedsnr" v="417652" />
		<tag k="ssr:type" v="adressenavn" />
	</node>
	<node lat="58.45410589696927" lon="8.867743809273051" id="-56049">
		<tag k="name" v="Bjellandveien" />
		<tag k="ssr:date" v="2019-12-27" />
		<tag k="ssr:gruppe" v="veg" />
		<tag k="ssr:hovedgruppe" v="infrastruktur" />
		<tag k="ssr:stedsnr" v="477917" />
		<tag k="ssr:type" v="adressenavn" />
	</node>
	<node lat="58.50274722645214" lon="8.688219450236137" id="-56149">
		<tag k="name" v="Tversavvegen" />
		<tag k="ssr:date" v="2019-12-27" />
		<tag k="ssr:gruppe" v="veg" />
		<tag k="ssr:hovedgruppe" v="infrastruktur" />
		<tag k="ssr:stedsnr" v="546473" />
		<tag k="ssr:type" v="vegstrekning" />
	</node>
	<node lat="58.518058331618604" lon="8.945102781223277" id="-56165">
		<tag k="name" v="Skinnfelltangen" />
		<tag k="old_name" v="Skindfeldtangen" />
		<tag k="ssr:date" v="2019-12-27" />
		<tag k="ssr:gruppe" v="navigasjon" />
		<tag k="ssr:hovedgruppe" v="infrastruktur" />
		<tag k="ssr:stedsnr" v="570055" />
		<tag k="ssr:type" v="fyrlykt" />
	</node>
	<node lat="58.54965277785678" lon="8.961625005517767" id="-56187">
		<tag k="name" v="Kvalstien" />
		<tag k="ssr:date" v="2019-12-27" />
		<tag k="ssr:gruppe" v="sjøbunn" />
		<tag k="ssr:hovedgruppe" v="sjø" />
		<tag k="ssr:stedsnr" v="575221" />
		<tag k="ssr:type" v="søkkISjø" />
	</node>
	<node lat="58.450671135772915" lon="8.786646483725185" id="-56390">
		<tag k="name" v="Kaffijordet" />
		<tag k="ssr:date" v="2019-12-27" />
		<tag k="ssr:gruppe" v="veg" />
		<tag k="ssr:hovedgruppe" v="infrastruktur" />
		<tag k="ssr:stedsnr" v="659890" />
		<tag k="ssr:type" v="adressenavn" />
	</node>
	<node lat="58.45601522479274" lon="8.787347713871004" id="-56476">
		<tag k="name" v="Timberstrand" />
		<tag k="ssr:date" v="2019-12-27" />
		<tag k="ssr:gruppe" v="veg" />
		<tag k="ssr:hovedgruppe" v="infrastruktur" />
		<tag k="ssr:stedsnr" v="902879" />
		<tag k="ssr:type" v="adressenavn" />
	</node>
	<node lat="58.45529674189228" lon="8.822956507960837" id="-56477">
		<tag k="name" v="Skaveløkka" />
		<tag k="ssr:date" v="2019-12-27" />
		<tag k="ssr:gruppe" v="veg" />
		<tag k="ssr:hovedgruppe" v="infrastruktur" />
		<tag k="ssr:stedsnr" v="903351" />
		<tag k="ssr:type" v="adressenavn" />
	</node>
	<node lat="58.49348055968565" lon="8.872730553328179" id="-56544">
		<tag k="loc_name" v="Frisøya" />
		<tag k="name" v="Frisøy" />
		<tag k="ssr:date" v="2019-12-27" />
		<tag k="ssr:gruppe" v="navigasjon" />
		<tag k="ssr:hovedgruppe" v="infrastruktur" />
		<tag k="ssr:stedsnr" v="785319" />
		<tag k="ssr:type" v="fyrlykt" />
	</node>
	<node lat="58.56074166618051" lon="9.004244450198325" id="-56582">
		<tag k="name" v="Oksefjorden" />
		<tag k="ssr:date" v="2019-12-27" />
		<tag k="ssr:gruppe" v="navigasjon" />
		<tag k="ssr:hovedgruppe" v="infrastruktur" />
		<tag k="ssr:stedsnr" v="813545" />
		<tag k="ssr:type" v="fyrlykt" />
	</node>
	<node lat="58.437364252210365" lon="8.797379656631" id="-56617">
		<tag k="name" v="Revesandveien" />
		<tag k="ssr:date" v="2019-12-27" />
		<tag k="ssr:gruppe" v="veg" />
		<tag k="ssr:hovedgruppe" v="infrastruktur" />
		<tag k="ssr:stedsnr" v="842876" />
		<tag k="ssr:type" v="adressenavn" />
	</node>
	<node lat="58.43810751270979" lon="8.800426304524311" id="-56618">
		<tag k="name" v="Selåsveien" />
		<tag k="ssr:date" v="2019-12-27" />
		<tag k="ssr:gruppe" v="veg" />
		<tag k="ssr:hovedgruppe" v="infrastruktur" />
		<tag k="ssr:stedsnr" v="842926" />
		<tag k="ssr:type" v="adressenavn" />
	</node>
	<node lat="58.44489620308065" lon="8.853267330692818" id="-56690">
		<tag k="name" v="Spornesveien" />
		<tag k="ssr:date" v="2019-12-27" />
		<tag k="ssr:gruppe" v="veg" />
		<tag k="ssr:hovedgruppe" v="infrastruktur" />
		<tag k="ssr:stedsnr" v="902907" />
		<tag k="ssr:type" v="adressenavn" />
	</node>
	<node lat="58.522561113927324" lon="8.985613888212084" id="-56706">
		<tag k="name" v="Bonden" />
		<tag k="ssr:date" v="2019-12-27" />
		<tag k="ssr:gruppe" v="navigasjon" />
		<tag k="ssr:hovedgruppe" v="infrastruktur" />
		<tag k="ssr:stedsnr" v="911253" />
		<tag k="ssr:type" v="fyrlykt" />
	</node>
	<node lat="58.4362194410865" lon="8.782988889375911" id="-56715">
		<tag k="name" v="Sandvigodden" />
		<tag k="old_name" v="Sandvikodden" />
		<tag k="ssr:date" v="2019-12-27" />
		<tag k="ssr:gruppe" v="navigasjon" />
		<tag k="ssr:hovedgruppe" v="infrastruktur" />
		<tag k="ssr:stedsnr" v="935053" />
		<tag k="ssr:type" v="fyrlykt" />
	</node>
	<node lat="58.410891664158754" lon="8.79370277379653" id="-56780">
		<tag k="name" v="Lille Torungen" />
		<tag k="old_name" v="Torungen, lille" />
		<tag k="ssr:date" v="2019-12-27" />
		<tag k="ssr:gruppe" v="navigasjon" />
		<tag k="ssr:hovedgruppe" v="infrastruktur" />
		<tag k="ssr:stedsnr" v="537" />
		<tag k="ssr:type" v="fyrlykt" />
	</node>
	<node lat="58.484283665675925" lon="8.906741294410576" id="-56899">
		<tag k="name" v="Krossen" />
		<tag k="ssr:date" v="2019-12-27" />
		<tag k="ssr:gruppe" v="veg" />
		<tag k="ssr:hovedgruppe" v="infrastruktur" />
		<tag k="ssr:stedsnr" v="53927" />
		<tag k="ssr:type" v="adressenavn" />
	</node>
	<node lat="58.44532455147531" lon="8.787805093913027" id="-57004">
		<tag k="name" v="Jonsvoll" />
		<tag k="ssr:date" v="2019-12-27" />
		<tag k="ssr:gruppe" v="veg" />
		<tag k="ssr:hovedgruppe" v="infrastruktur" />
		<tag k="ssr:stedsnr" v="114883" />
		<tag k="ssr:type" v="adressenavn" />
	</node>
	<node lat="58.453904747561424" lon="8.788319150700637" id="-57005">
		<tag k="name" v="Høydebakken" />
		<tag k="ssr:date" v="2019-12-27" />
		<tag k="ssr:gruppe" v="veg" />
		<tag k="ssr:hovedgruppe" v="infrastruktur" />
		<tag k="ssr:stedsnr" v="114858" />
		<tag k="ssr:type" v="adressenavn" />
	</node>
	<node lat="58.55041909822504" lon="8.992274891760125" id="-57024">
		<tag k="name" v="Kilsund" />
		<tag k="ssr:date" v="2020-09-16" />
		<tag k="ssr:gruppe" v="navigasjon" />
		<tag k="ssr:hovedgruppe" v="infrastruktur" />
		<tag k="ssr:stedsnr" v="145560" />
		<tag k="ssr:type" v="fyrlykt" />
	</node>
	<node lat="58.43755365957236" lon="8.809271052951203" id="-57261">
		<tag k="name" v="Sildevikveien" />
		<tag k="ssr:date" v="2019-12-27" />
		<tag k="ssr:gruppe" v="veg" />
		<tag k="ssr:hovedgruppe" v="infrastruktur" />
		<tag k="ssr:stedsnr" v="296897" />
		<tag k="ssr:type" v="adressenavn" />
	</node>
	<node lat="58.4463002215183" lon="8.846255731190062" id="-57262">
		<tag k="name" v="Tromøy kirkevei" />
		<tag k="ssr:date" v="2019-12-27" />
		<tag k="ssr:gruppe" v="veg" />
		<tag k="ssr:hovedgruppe" v="infrastruktur" />
		<tag k="ssr:stedsnr" v="297473" />
		<tag k="ssr:type" v="adressenavn" />
	</node>
	<node lat="58.476083329276534" lon="8.921233341481974" id="-57353">
		<tag k="name" v="Bagrassrenna" />
		<tag k="ssr:date" v="2019-12-27" />
		<tag k="ssr:gruppe" v="sjøbunn" />
		<tag k="ssr:hovedgruppe" v="sjø" />
		<tag k="ssr:stedsnr" v="333384" />
		<tag k="ssr:type" v="renneKløftISjø" />
	</node>
	<node lat="58.48443949594479" lon="8.863382402359367" id="-57402">
		<tag k="name" v="Kongshavnveien" />
		<tag k="ssr:date" v="2019-12-27" />
		<tag k="ssr:gruppe" v="veg" />
		<tag k="ssr:hovedgruppe" v="infrastruktur" />
		<tag k="ssr:stedsnr" v="356624" />
		<tag k="ssr:type" v="adressenavn" />
	</node>
	<node lat="58.456948561371" lon="8.783372576664126" id="-57513">
		<tag k="name" v="Skilsøtoppen" />
		<tag k="ssr:date" v="2019-12-27" />
		<tag k="ssr:gruppe" v="veg" />
		<tag k="ssr:hovedgruppe" v="infrastruktur" />
		<tag k="ssr:stedsnr" v="417876" />
		<tag k="ssr:type" v="adressenavn" />
	</node>
	<node lat="58.48129344768265" lon="8.893760988390007" id="-57514">
		<tag k="name" v="Lindkloppveien" />
		<tag k="ssr:date" v="2019-12-27" />
		<tag k="ssr:gruppe" v="veg" />
		<tag k="ssr:hovedgruppe" v="infrastruktur" />
		<tag k="ssr:stedsnr" v="417921" />
		<tag k="ssr:type" v="adressenavn" />
	</node>
	<node lat="58.51196480785236" lon="8.948354361276373" id="-57642">
		<tag k="name" v="Gitmertangen, Nedre" />
		<tag k="ssr:date" v="2020-09-03" />
		<tag k="ssr:gruppe" v="navigasjon" />
		<tag k="ssr:hovedgruppe" v="infrastruktur" />
		<tag k="ssr:stedsnr" v="570513" />
		<tag k="ssr:type" v="fyrlykt" />
	</node>
	<node lat="58.42663055876561" lon="8.808130563218114" id="-57734">
		<tag k="name" v="Merdø" />
		<tag k="ssr:date" v="2019-12-27" />
		<tag k="ssr:gruppe" v="veg" />
		<tag k="ssr:hovedgruppe" v="infrastruktur" />
		<tag k="ssr:stedsnr" v="598857" />
		<tag k="ssr:type" v="adressenavn" />
	</node>
	<node lat="58.44091572128875" lon="8.839532761413212" id="-57735">
		<tag k="name" v="Hoveodden" />
		<tag k="ssr:date" v="2019-12-27" />
		<tag k="ssr:gruppe" v="veg" />
		<tag k="ssr:hovedgruppe" v="infrastruktur" />
		<tag k="ssr:stedsnr" v="599683" />
		<tag k="ssr:type" v="adressenavn" />
	</node>
	<node lat="58.44075381015024" lon="8.846163304593802" id="-57736">
		<tag k="name" v="Hoveveien" />
		<tag k="ssr:date" v="2019-12-27" />
		<tag k="ssr:gruppe" v="veg" />
		<tag k="ssr:hovedgruppe" v="infrastruktur" />
		<tag k="ssr:stedsnr" v="599691" />
		<tag k="ssr:type" v="adressenavn" />
	</node>
	<node lat="58.42366944644341" lon="8.791352773657602" id="-57742">
		<tag k="name" v="Merdøy" />
		<tag k="ssr:date" v="2019-12-27" />
		<tag k="ssr:gruppe" v="navigasjon" />
		<tag k="ssr:hovedgruppe" v="infrastruktur" />
		<tag k="ssr:stedsnr" v="606569" />
		<tag k="ssr:type" v="fyrlykt" />
	</node>
	<node lat="58.39884813626878" lon="8.79024505998754" id="-57992">
		<tag k="name" v="Torungen" />
		<tag k="old_name" v="Storer Torungen;Torungen fyr;Store Torungen" />
		<tag k="ssr:date" v="2020-09-01" />
		<tag k="ssr:gruppe" v="navigasjon" />
		<tag k="ssr:hovedgruppe" v="infrastruktur" />
		<tag k="ssr:stedsnr" v="789560" />
		<tag k="ssr:type" v="fyrstasjon" />
	</node>
	<node lat="58.430952776868445" lon="8.720752779907954" id="-58018">
		<tag k="name" v="Salvehølen" />
		<tag k="ssr:date" v="2019-12-27" />
		<tag k="ssr:gruppe" v="sjøbunn" />
		<tag k="ssr:hovedgruppe" v="sjø" />
		<tag k="ssr:stedsnr" v="818194" />
		<tag k="ssr:type" v="søkkISjø" />
	</node>
	<node lat="58.45360210294249" lon="8.808144750716277" id="-58121">
		<tag k="name" v="Skilsøveien" />
		<tag k="ssr:date" v="2019-12-27" />
		<tag k="ssr:gruppe" v="veg" />
		<tag k="ssr:hovedgruppe" v="infrastruktur" />
		<tag k="ssr:stedsnr" v="842858" />
		<tag k="ssr:type" v="adressenavn" />
	</node>
	<node lat="58.457085896355515" lon="8.799726571664571" id="-58122">
		<tag k="name" v="Nordheimveien" />
		<tag k="ssr:date" v="2019-12-27" />
		<tag k="ssr:gruppe" v="veg" />
		<tag k="ssr:hovedgruppe" v="infrastruktur" />
		<tag k="ssr:stedsnr" v="842909" />
		<tag k="ssr:type" v="adressenavn" />
	</node>
	<node lat="58.485084934625235" lon="8.894488331904382" id="-58123">
		<tag k="name" v="Karisheiveien" />
		<tag k="ssr:date" v="2019-12-27" />
		<tag k="ssr:gruppe" v="veg" />
		<tag k="ssr:hovedgruppe" v="infrastruktur" />
		<tag k="ssr:stedsnr" v="842914" />
		<tag k="ssr:type" v="adressenavn" />
	</node>
	<node lat="58.48142231060628" lon="8.903347721849476" id="-58124">
		<tag k="name" v="Skarestrand" />
		<tag k="ssr:date" v="2019-12-27" />
		<tag k="ssr:gruppe" v="veg" />
		<tag k="ssr:hovedgruppe" v="infrastruktur" />
		<tag k="ssr:stedsnr" v="842916" />
		<tag k="ssr:type" v="adressenavn" />
	</node>
	<node lat="58.51043332973648" lon="8.945594437149474" id="-58125">
		<tag k="name" v="Gitmertangen, Søre. Øvre" />
		<tag k="ssr:date" v="2019-12-27" />
		<tag k="ssr:gruppe" v="navigasjon" />
		<tag k="ssr:hovedgruppe" v="infrastruktur" />
		<tag k="ssr:stedsnr" v="844866" />
		<tag k="ssr:type" v="fyrlykt" />
	</node>
	<node lat="58.47011389232397" lon="8.823099999234262" id="-58150">
		<tag k="name" v="Tromøysundet" />
		<tag k="old_name" v="Tromøysund" />
		<tag k="ssr:date" v="2019-12-27" />
		<tag k="ssr:gruppe" v="navigasjon" />
		<tag k="ssr:hovedgruppe" v="infrastruktur" />
		<tag k="ssr:stedsnr" v="874086" />
		<tag k="ssr:type" v="fyrlykt" />
	</node>
	<node lat="58.450966351949155" lon="8.80274768854548" id="-58408">
		<tag k="name" v="Tjennaveien" />
		<tag k="ssr:date" v="2019-12-27" />
		<tag k="ssr:gruppe" v="veg" />
		<tag k="ssr:hovedgruppe" v="infrastruktur" />
		<tag k="ssr:stedsnr" v="963876" />
		<tag k="ssr:type" v="adressenavn" />
	</node>
	<node lat="58.49272641593834" lon="8.866052518294804" id="-58470">
		<tag k="name" v="Frisøya" />
		<tag k="ssr:date" v="2019-12-27" />
		<tag k="ssr:gruppe" v="veg" />
		<tag k="ssr:hovedgruppe" v="infrastruktur" />
		<tag k="ssr:stedsnr" v="973885" />
		<tag k="ssr:type" v="adressenavn" />
	</node>
	<node lat="58.433758074204725" lon="8.793716104811606" id="-58471">
		<tag k="name" v="Lille Brattholmen" />
		<tag k="ssr:date" v="2019-12-27" />
		<tag k="ssr:gruppe" v="veg" />
		<tag k="ssr:hovedgruppe" v="infrastruktur" />
		<tag k="ssr:stedsnr" v="973886" />
		<tag k="ssr:type" v="adressenavn" />
	</node>
	<node lat="58.459268681062106" lon="8.883732472195103" id="-58472">
		<tag k="name" v="Botneveien" />
		<tag k="ssr:date" v="2019-12-27" />
		<tag k="ssr:gruppe" v="veg" />
		<tag k="ssr:hovedgruppe" v="infrastruktur" />
		<tag k="ssr:stedsnr" v="973887" />
		<tag k="ssr:type" v="adressenavn" />
	</node>
	<node lat="58.459268681062106" lon="8.883732472195103" id="-58473">
		<tag k="name" v="Vestre Botnevei" />
		<tag k="ssr:date" v="2019-12-27" />
		<tag k="ssr:gruppe" v="veg" />
		<tag k="ssr:hovedgruppe" v="infrastruktur" />
		<tag k="ssr:stedsnr" v="973888" />
		<tag k="ssr:type" v="adressenavn" />
	</node>
	<node lat="58.472307984808836" lon="8.893719453354299" id="-58474">
		<tag k="name" v="Nedre Sandåstien" />
		<tag k="ssr:date" v="2019-12-27" />
		<tag k="ssr:gruppe" v="veg" />
		<tag k="ssr:hovedgruppe" v="infrastruktur" />
		<tag k="ssr:stedsnr" v="973889" />
		<tag k="ssr:type" v="adressenavn" />
	</node>
	<node lat="58.52259478209207" lon="8.985350884443442" id="-59267">
		<tag k="name" v="Bonden varde" />
		<tag k="ssr:date" v="2020-02-07" />
		<tag k="ssr:gruppe" v="navigasjon" />
		<tag k="ssr:hovedgruppe" v="infrastruktur" />
		<tag k="ssr:stedsnr" v="1074934" />
		<tag k="ssr:type" v="sjøvarde" />
	</node>
	<node lat="58.52304216185306" lon="8.940111805488314" id="-59268">
		<tag k="name" v="Kanonen" />
		<tag k="ssr:date" v="2020-02-17" />
		<tag k="ssr:gruppe" v="navigasjon" />
		<tag k="ssr:hovedgruppe" v="infrastruktur" />
		<tag k="ssr:stedsnr" v="1075259" />
		<tag k="ssr:type" v="stake" />
	</node>
	<node lat="58.438014025065556" lon="8.747420565139139" id="-59314">
		<tag k="name" v="Hisøyfaret" />
		<tag k="ssr:date" v="2021-03-01" />
		<tag k="ssr:gruppe" v="veg" />
		<tag k="ssr:hovedgruppe" v="infrastruktur" />
		<tag k="ssr:stedsnr" v="1080173" />
		<tag k="ssr:type" v="adressenavn" />
	</node>
	<node lat="58.443724725973176" lon="8.747974929898154" id="-59324">
		<tag k="name" v="Hisøystien" />
		<tag k="ssr:date" v="2021-12-02" />
		<tag k="ssr:gruppe" v="veg" />
		<tag k="ssr:hovedgruppe" v="infrastruktur" />
		<tag k="ssr:stedsnr" v="1083058" />
		<tag k="ssr:type" v="adressenavn" />
	</node>
</osm>
