<?xml version="1.0" encoding="UTF-8"?>
<<<<<<< HEAD
<osm version="0.6" generator="osmapis">
	<node lat="65.07706944133531" lon="11.54339444813629" id="-33975">
		<tag k="alt_name" v="Sjyvika" />
		<tag k="name" v="Sjøvika" />
		<tag k="place" v="isolated_dwelling" />
		<tag k="ssr:stedsnr" v="27276" />
	</node>
	<node lat="65.04747983072544" lon="11.585230340211618" id="-34001">
		<tag k="name" v="Haug" />
		<tag k="place" v="farm" />
		<tag k="ssr:stedsnr" v="75812" />
	</node>
	<node lat="65.10572222149762" lon="11.711563892402468" id="-34029">
		<tag k="name" v="Fagertun" />
		<tag k="place" v="farm" />
		<tag k="ssr:stedsnr" v="107923" />
	</node>
	<node lat="65.10825000171441" lon="11.713883329522112" id="-34037">
		<tag k="name" v="Sjøtun" />
		<tag k="place" v="farm" />
		<tag k="ssr:stedsnr" v="136710" />
	</node>
	<node lat="65.0931752613992" lon="11.733219716299422" id="-34053">
		<tag k="fixme" v="consider place=hamlet" />
		<tag k="name" v="Skei" />
		<tag k="place" v="farm" />
		<tag k="ssr:stedsnr" v="257051" />
	</node>
	<node lat="65.05080977220142" lon="11.785951544378456" id="-34054">
		<tag k="fixme" v="consider place=hamlet" />
		<tag k="name" v="Reppen" />
		<tag k="place" v="farm" />
		<tag k="ssr:stedsnr" v="257097" />
	</node>
	<node lat="65.05651666454222" lon="11.614744443539413" id="-34059">
		<tag k="name" v="Haugtun" />
		<tag k="place" v="farm" />
		<tag k="ssr:stedsnr" v="158959" />
	</node>
	<node lat="65.04846944244166" lon="11.670480564757023" id="-34069">
		<tag k="name" v="Åsheim" />
		<tag k="place" v="farm" />
		<tag k="ssr:stedsnr" v="257803" />
	</node>
	<node lat="65.06140555732223" lon="11.63382222467903" id="-34074">
		<tag k="name" v="Fjellset" />
		<tag k="place" v="farm" />
		<tag k="ssr:stedsnr" v="257843" />
	</node>
	<node lat="65.0916333356206" lon="11.851263883123362" id="-34091">
		<tag k="name" v="Voll" />
		<tag k="place" v="farm" />
		<tag k="ssr:stedsnr" v="197078" />
	</node>
	<node lat="65.09968611266268" lon="11.75605834398793" id="-34102">
		<tag k="name" v="Våttvika" />
		<tag k="place" v="isolated_dwelling" />
		<tag k="ssr:stedsnr" v="227910" />
	</node>
	<node lat="65.07475000428232" lon="11.80913334439946" id="-34109">
		<tag k="name" v="Storvika" />
		<tag k="place" v="farm" />
		<tag k="ssr:stedsnr" v="228897" />
	</node>
	<node lat="65.09004444667774" lon="11.839433341728371" id="-34146">
		<tag k="name" v="Strandli" />
		<tag k="place" v="farm" />
		<tag k="ssr:stedsnr" v="465667" />
	</node>
	<node lat="65.0926888933904" lon="11.715155556828273" id="-34152">
		<tag k="name" v="Nordgård" />
=======
<osm generator="osmapis" version="0.6">
	<node id="-791973" lat="65.1022777756" lon="11.7227583324">
		<tag k="name" v="Skardmoen" />
		<tag k="place" v="locality" />
		<tag k="ssr:stedsnr" v="470967" />
	</node>
	<node id="-792573" lat="65.1080694453" lon="11.6552777792">
		<tag k="name" v="Lissvollen" />
		<tag k="place" v="farm" />
		<tag k="ssr:stedsnr" v="167795" />
	</node>
	<node id="-792051" lat="65.0536527771" lon="11.6106777778">
		<tag k="alt_name" v="Dalamoen" />
		<tag k="name" v="Moen" />
		<tag k="place" v="farm" />
		<tag k="ssr:stedsnr" v="500823" />
	</node>
	<node id="-792562" lat="65.1082027777" lon="11.6498333255">
		<tag k="name" v="Skogstad" />
		<tag k="place" v="farm" />
		<tag k="ssr:stedsnr" v="166945" />
	</node>
	<node id="-792560" lat="65.0810416648" lon="11.574188882">
		<tag k="name" v="Myrstad" />
		<tag k="place" v="farm" />
		<tag k="ssr:stedsnr" v="166435" />
	</node>
	<node id="-793000" lat="65.0651555552" lon="11.6995833238">
		<tag k="name" v="Dalavika" />
		<tag k="place" v="farm" />
		<tag k="ssr:stedsnr" v="803799" />
	</node>
	<node id="-792556" lat="65.0954861114" lon="11.865316663">
		<tag k="name" v="Galthaugen" />
		<tag k="place" v="farm" />
		<tag k="ssr:stedsnr" v="159882" />
	</node>
	<node id="-792043" lat="65.1090305571" lon="11.6361111049">
		<tag k="name" v="Sørå" />
		<tag k="place" v="farm" />
		<tag k="ssr:stedsnr" v="500757" />
	</node>
	<node id="-792042" lat="65.1086874145" lon="11.6506385026">
		<tag k="fixme" v="consider place=hamlet" />
		<tag k="name" v="Kvaløya" />
		<tag k="place" v="farm" />
		<tag k="ssr:stedsnr" v="500756" />
	</node>
	<node id="-792037" lat="65.1143638852" lon="11.8660027756">
		<tag k="name" v="Buvik" />
		<tag k="place" v="farm" />
		<tag k="ssr:stedsnr" v="500953" />
	</node>
	<node id="-792031" lat="65.0884833319" lon="11.5625138877">
		<tag k="name" v="Gjerdet" />
		<tag k="place" v="farm" />
		<tag k="ssr:stedsnr" v="499645" />
	</node>
	<node id="-792030" lat="65.0933775365" lon="11.5881891805">
		<tag k="fixme" v="consider place=hamlet" />
		<tag k="name" v="Stein" />
		<tag k="place" v="farm" />
		<tag k="ssr:stedsnr" v="499644" />
	</node>
	<node id="-792029" lat="65.1029361125" lon="11.7088555474">
		<tag k="name" v="Leknesmoen" />
		<tag k="place" v="farm" />
		<tag k="ssr:stedsnr" v="499640" />
	</node>
	<node id="-792826" lat="65.0503916636" lon="11.6628388941">
		<tag k="name" v="Haugvik" />
>>>>>>> e1d4bc35ff8a6074a6f2e91616a996b547c36f15
		<tag k="place" v="farm" />
		<tag k="ssr:stedsnr" v="317645" />
	</node>
<<<<<<< HEAD
	<node lat="65.09415372325066" lon="11.740928705576831" id="-34153">
		<tag k="loc_name" v="Øver Hålonda" />
		<tag k="name" v="Hålonda" />
		<tag k="place" v="farm" />
		<tag k="ssr:stedsnr" v="318044" />
	</node>
	<node lat="65.04156944163724" lon="11.570633337416915" id="-34157">
		<tag k="name" v="Gjertrudvika" />
		<tag k="place" v="farm" />
		<tag k="ssr:stedsnr" v="318889" />
	</node>
	<node lat="65.05657130570354" lon="11.623951311374103" id="-34162">
		<tag k="name" v="Sjøstrand" />
		<tag k="place" v="farm" />
		<tag k="ssr:stedsnr" v="318799" />
	</node>
	<node lat="65.11977990295884" lon="11.887637901465663" id="-34164">
		<tag k="fixme" v="consider place=hamlet" />
		<tag k="name" v="Nord-Gutvika" />
		<tag k="place" v="farm" />
		<tag k="ssr:stedsnr" v="318952" />
	</node>
	<node lat="65.08995277405599" lon="11.573900005096656" id="-34175">
		<tag k="name" v="Middagsåkran" />
		<tag k="place" v="farm" />
		<tag k="ssr:stedsnr" v="471695" />
	</node>
	<node lat="65.04551944329677" lon="11.578452767670587" id="-34206">
		<tag k="name" v="Årdalsmoen" />
		<tag k="place" v="farm" />
		<tag k="ssr:stedsnr" v="378782" />
	</node>
	<node lat="65.05754444452936" lon="11.603072213706387" id="-34212">
		<tag k="name" v="Utheim" />
=======
	<node id="-792533" lat="65.0841361098" lon="11.8360777688">
		<tag k="fixme" v="consider place=hamlet" />
		<tag k="name" v="Sør-Gutvika" />
		<tag k="place" v="village" />
		<tag k="ssr:stedsnr" v="136075" />
	</node>
	<node id="-793044" lat="65.1086666684" lon="11.903755552">
		<tag k="name" v="Granli" />
		<tag k="place" v="farm" />
		<tag k="ssr:stedsnr" v="864001" />
	</node>
	<node id="-792529" lat="65.0897277757" lon="11.5800305585">
		<tag k="name" v="Fagertun" />
		<tag k="place" v="farm" />
		<tag k="ssr:stedsnr" v="135691" />
	</node>
	<node id="-792528" lat="65.0975441835" lon="11.700733868">
		<tag k="fixme" v="consider place=hamlet" />
		<tag k="name" v="Leknes" />
		<tag k="place" v="farm" />
		<tag k="ssr:stedsnr" v="135688" />
	</node>
	<node id="-792523" lat="65.0924250045" lon="11.7050777721">
		<tag k="amenity" v="townhall" />
		<tag k="name" v="Leknes" />
		<tag k="ssr:stedsnr" v="118588" />
	</node>
	<node id="-792521" lat="65.1057222215" lon="11.7115638924">
		<tag k="name" v="Fagertun" />
		<tag k="place" v="farm" />
		<tag k="ssr:stedsnr" v="107923" />
	</node>
	<node id="-792518" lat="65.0520861149" lon="11.613002776">
		<tag k="name" v="Dalan" />
>>>>>>> e1d4bc35ff8a6074a6f2e91616a996b547c36f15
		<tag k="place" v="farm" />
		<tag k="ssr:stedsnr" v="107794" />
	</node>
<<<<<<< HEAD
	<node lat="65.08237351060605" lon="11.582358581851636" id="-34240">
		<tag k="fixme" v="consider place=hamlet" />
		<tag k="name" v="Aunet" />
		<tag k="place" v="farm" />
		<tag k="ssr:stedsnr" v="439715" />
	</node>
	<node lat="65.09358611194803" lon="11.854355553323309" id="-34248">
		<tag k="name" v="Tingstad" />
		<tag k="place" v="farm" />
		<tag k="ssr:stedsnr" v="463867" />
	</node>
	<node lat="65.07589721802516" lon="11.560966667091265" id="-34251">
		<tag k="name" v="Storelvnesset" />
		<tag k="place" v="isolated_dwelling" />
		<tag k="ssr:stedsnr" v="469471" />
	</node>
	<node lat="65.09411667047698" lon="11.696955561979467" id="-34255">
		<tag k="name" v="Kvennhusbakken" />
		<tag k="place" v="farm" />
		<tag k="ssr:stedsnr" v="470923" />
	</node>
	<node lat="65.10227777556175" lon="11.722758332381886" id="-34257">
		<tag k="name" v="Skardmoen" />
		<tag k="place" v="locality" />
		<tag k="ssr:stedsnr" v="470967" />
	</node>
	<node lat="65.10293611254109" lon="11.708855547435489" id="-34267">
		<tag k="name" v="Leknesmoen" />
		<tag k="place" v="farm" />
		<tag k="ssr:stedsnr" v="499640" />
	</node>
	<node lat="65.09337753646683" lon="11.58818918049864" id="-34268">
		<tag k="fixme" v="consider place=hamlet" />
		<tag k="name" v="Stein" />
		<tag k="place" v="farm" />
		<tag k="ssr:stedsnr" v="499644" />
	</node>
	<node lat="65.08848333189643" lon="11.562513887692507" id="-34269">
		<tag k="name" v="Gjerdet" />
		<tag k="place" v="farm" />
		<tag k="ssr:stedsnr" v="499645" />
	</node>
	<node lat="65.05393333759031" lon="11.616316662679125" id="-34282">
		<tag k="name" v="Nordheim" />
		<tag k="place" v="farm" />
		<tag k="ssr:stedsnr" v="500816" />
	</node>
	<node lat="65.10600715829109" lon="11.709471165590935" id="-34300">
		<tag k="name" v="Erikvegen" />
		<tag k="place" v="farm" />
		<tag k="ssr:stedsnr" v="682746" />
	</node>
	<node lat="65.07243055945385" lon="11.670958338666244" id="-34305">
		<tag k="name" v="Kleiva" />
		<tag k="place" v="farm" />
		<tag k="ssr:stedsnr" v="682847" />
	</node>
	<node lat="65.08135277852787" lon="11.696913893030992" id="-34306">
		<tag k="name" v="Høgbakkan" />
		<tag k="place" v="farm" />
		<tag k="ssr:stedsnr" v="682850" />
	</node>
	<node lat="65.08539599398142" lon="11.70950643177375" id="-34334">
		<tag k="fixme" v="consider place=hamlet" />
		<tag k="name" v="Husby" />
		<tag k="place" v="farm" />
		<tag k="ssr:stedsnr" v="560698" />
	</node>
	<node lat="65.06990453246434" lon="11.667485366812906" id="-34338">
		<tag k="fixme" v="consider place=hamlet" />
		<tag k="name" v="Frøvika" />
		<tag k="place" v="farm" />
		<tag k="ssr:stedsnr" v="560812" />
	</node>
	<node lat="65.05456666519386" lon="11.693708330502226" id="-34341">
		<tag k="name" v="Gongstøa" />
		<tag k="place" v="farm" />
		<tag k="ssr:stedsnr" v="560781" />
	</node>
	<node lat="65.05182961563115" lon="11.552920992649796" id="-34342">
		<tag k="fixme" v="consider place=hamlet" />
		<tag k="name" v="Solsem" />
		<tag k="place" v="farm" />
		<tag k="ssr:stedsnr" v="560785" />
	</node>
	<node lat="65.06049721916276" lon="11.55944166435896" id="-34343">
		<tag k="name" v="Vollan" />
		<tag k="place" v="farm" />
		<tag k="ssr:stedsnr" v="560793" />
	</node>
	<node lat="65.10369444270262" lon="11.73099445378336" id="-34369">
		<tag k="name" v="Stranda" />
		<tag k="place" v="farm" />
		<tag k="ssr:stedsnr" v="621021" />
	</node>
	<node lat="65.10641389040083" lon="11.711038896066064" id="-34399">
		<tag k="name" v="Fjellstad" />
		<tag k="place" v="farm" />
		<tag k="ssr:stedsnr" v="653906" />
	</node>
	<node lat="65.06010000399252" lon="11.673463884972348" id="-34420">
		<tag k="name" v="Høgmo" />
=======
	<node id="-792514" lat="65.101483333" lon="11.7294305538">
		<tag k="name" v="Nygård" />
		<tag k="place" v="farm" />
		<tag k="ssr:stedsnr" v="106955" />
	</node>
	<node id="-793018" lat="65.058495587" lon="11.6285517162">
		<tag k="name" v="Breivika" />
		<tag k="place" v="farm" />
		<tag k="ssr:stedsnr" v="829680" />
	</node>
	<node id="-792735" lat="65.0647888908" lon="11.6974416609">
		<tag k="name" v="Madsøygrenda" />
		<tag k="place" v="hamlet" />
		<tag k="ssr:stedsnr" v="384543" />
	</node>
	<node id="-792495" lat="65.1219722228" lon="11.8946083353">
		<tag k="name" v="Bekkevoll" />
		<tag k="place" v="farm" />
		<tag k="ssr:stedsnr" v="103135" />
	</node>
	<node id="-792050" lat="65.0539333376" lon="11.6163166627">
		<tag k="name" v="Nordheim" />
		<tag k="place" v="farm" />
		<tag k="ssr:stedsnr" v="500816" />
	</node>
	<node id="-791976" lat="65.0899527741" lon="11.5739000051">
		<tag k="name" v="Middagsåkran" />
		<tag k="place" v="farm" />
		<tag k="ssr:stedsnr" v="471695" />
	</node>
	<node id="-791793" lat="65.0725638902" lon="11.5620555648">
		<tag k="name" v="Vestengan" />
		<tag k="place" v="farm" />
		<tag k="ssr:stedsnr" v="75761" />
	</node>
	<node id="-792902" lat="65.0725638902" lon="11.5620555648">
		<tag k="name" v="Sørengan" />
		<tag k="place" v="farm" />
		<tag k="ssr:stedsnr" v="651424" />
	</node>
	<node id="-791970" lat="65.0941166705" lon="11.696955562">
		<tag k="name" v="Kvennhusbakken" />
		<tag k="place" v="farm" />
		<tag k="ssr:stedsnr" v="470923" />
	</node>
	<node id="-792991" lat="65.0628388884" lon="11.7846250033">
		<tag k="name" v="Kattvika" />
		<tag k="place" v="isolated_dwelling" />
		<tag k="ssr:stedsnr" v="803099" />
	</node>
	<node id="-791960" lat="65.075897218" lon="11.5609666671">
		<tag k="name" v="Storelvnesset" />
		<tag k="place" v="isolated_dwelling" />
		<tag k="ssr:stedsnr" v="469471" />
	</node>
	<node id="-792982" lat="65.0945330709" lon="11.7442770349">
		<tag k="loc_name" v="Ner-Hålonda;Ner Hålonda" />
		<tag k="name" v="Hålonda" />
		<tag k="place" v="farm" />
		<tag k="ssr:stedsnr" v="783951" />
	</node>
	<node id="-791953" lat="65.0900444467" lon="11.8394333417">
		<tag k="name" v="Strandli" />
		<tag k="place" v="farm" />
		<tag k="ssr:stedsnr" v="465667" />
	</node>
	<node id="-791951" lat="65.0581111144" lon="11.6287555454">
		<tag k="name" v="Breivika" />
		<tag k="place" v="farm" />
		<tag k="ssr:stedsnr" v="288957" />
	</node>
	<node id="-792462" lat="65.0786027805" lon="11.7017583433">
		<tag k="name" v="Gongstøa" />
		<tag k="place" v="farm" />
		<tag k="ssr:stedsnr" v="75857" />
	</node>
	<node id="-792461" lat="65.074049998" lon="11.6833138898">
		<tag k="alt_name" v="Klongvika" />
		<tag k="name" v="Klungvika" />
		<tag k="place" v="farm" />
		<tag k="ssr:stedsnr" v="75853" />
	</node>
	<node id="-792457" lat="65.0587388845" lon="11.565591671">
		<tag k="name" v="Auståker" />
		<tag k="place" v="farm" />
		<tag k="ssr:stedsnr" v="75839" />
	</node>
	<node id="-792044" lat="65.1111250016" lon="11.6788277858">
		<tag k="name" v="Skråmoen" />
		<tag k="place" v="farm" />
		<tag k="ssr:stedsnr" v="500763" />
	</node>
	<node id="-792963" lat="65.0466694445" lon="11.6071527692">
		<tag k="name" v="Ner Harravollan" />
		<tag k="place" v="farm" />
		<tag k="ssr:stedsnr" v="773991" />
	</node>
	<node id="-791935" lat="65.0484694424" lon="11.6704805648">
		<tag k="name" v="Åsheim" />
		<tag k="place" v="farm" />
		<tag k="ssr:stedsnr" v="257803" />
	</node>
	<node id="-792958" lat="65.0979861106" lon="11.7251527691">
		<tag k="name" v="Nordset" />
		<tag k="place" v="farm" />
		<tag k="ssr:stedsnr" v="773946" />
	</node>
	<node id="-792948" lat="65.090734529" lon="11.7277142558">
		<tag k="alt_name" v="Ner Sørveigan" />
		<tag k="name" v="Nedre Sørveigan" />
		<tag k="place" v="farm" />
		<tag k="ssr:stedsnr" v="769816" />
	</node>
	<node id="-791923" lat="65.0996861127" lon="11.756058344">
		<tag k="name" v="Våttvika" />
		<tag k="place" v="isolated_dwelling" />
		<tag k="ssr:stedsnr" v="227910" />
	</node>
	<node id="-791921" lat="65.0406055586" lon="11.6529999934">
		<tag k="fixme" v="consider place=hamlet" />
		<tag k="name" v="Tangan" />
>>>>>>> e1d4bc35ff8a6074a6f2e91616a996b547c36f15
		<tag k="place" v="farm" />
		<tag k="ssr:stedsnr" v="440861" />
	</node>
<<<<<<< HEAD
	<node lat="65.04201389327781" lon="11.558861112784323" id="-34428">
		<tag k="name" v="Solsemvika" />
		<tag k="place" v="farm" />
		<tag k="ssr:stedsnr" v="895238" />
	</node>
	<node lat="65.0476694421001" lon="11.60916111572933" id="-34430">
		<tag k="name" v="Myra" />
		<tag k="place" v="farm" />
		<tag k="ssr:stedsnr" v="895996" />
	</node>
	<node lat="65.08190277643862" lon="11.835944443888039" id="-34443">
		<tag k="name" v="Kvea" />
		<tag k="place" v="isolated_dwelling" />
		<tag k="ssr:stedsnr" v="706867" />
	</node>
	<node lat="65.07414999964304" lon="11.53753888815336" id="-34457">
		<tag k="alt_name" v="Ovdin" />
		<tag k="name" v="Ovden" />
		<tag k="place" v="isolated_dwelling" />
		<tag k="ssr:stedsnr" v="742708" />
	</node>
	<node lat="65.07539166661223" lon="11.574325010170428" id="-34458">
		<tag k="name" v="Engan" />
		<tag k="place" v="farm" />
		<tag k="ssr:stedsnr" v="742711" />
	</node>
	<node lat="65.10609166337755" lon="11.848858331431657" id="-34473">
		<tag k="name" v="Klipvikmoen" />
		<tag k="place" v="farm" />
		<tag k="ssr:stedsnr" v="767102" />
	</node>
	<node lat="65.09073452895721" lon="11.727714255838935" id="-34475">
		<tag k="alt_name" v="Ner Sørveigan" />
		<tag k="name" v="Nedre Sørveigan" />
		<tag k="place" v="farm" />
		<tag k="ssr:stedsnr" v="769816" />
	</node>
	<node lat="65.05651666454222" lon="11.614744443539413" id="-34484">
		<tag k="name" v="Fjellheim" />
		<tag k="place" v="farm" />
		<tag k="ssr:stedsnr" v="773952" />
	</node>
	<node lat="65.09453307091637" lon="11.744277034924933" id="-34493">
		<tag k="loc_name" v="Ner-Hålonda;Ner Hålonda" />
		<tag k="name" v="Hålonda" />
		<tag k="place" v="farm" />
		<tag k="ssr:stedsnr" v="783951" />
	</node>
	<node lat="65.05849558704752" lon="11.628551716227337" id="-34500">
		<tag k="name" v="Breivika" />
		<tag k="place" v="farm" />
		<tag k="ssr:stedsnr" v="829680" />
	</node>
	<node lat="65.05354444092531" lon="11.557994446909158" id="-34505">
		<tag k="name" v="Flotta" />
		<tag k="place" v="farm" />
		<tag k="ssr:stedsnr" v="835910" />
	</node>
	<node lat="65.20187499955537" lon="10.993594448642867" id="-34511">
		<tag k="name" v="Heimøystøa" />
		<tag k="place" v="isolated_dwelling" />
		<tag k="ssr:stedsnr" v="924488" />
	</node>
	<node lat="65.09100277639668" lon="11.718858333008466" id="-34516">
		<tag k="name" v="Østby" />
		<tag k="place" v="farm" />
		<tag k="ssr:stedsnr" v="925071" />
	</node>
	<node lat="65.07405833227007" lon="11.67671666714198" id="-34524">
		<tag k="name" v="Frøvikmyra" />
		<tag k="place" v="farm" />
		<tag k="ssr:stedsnr" v="925849" />
	</node>
	<node lat="65.0809527808782" lon="11.69637500652852" id="-34525">
		<tag k="name" v="Solli" />
		<tag k="place" v="farm" />
		<tag k="ssr:stedsnr" v="925851" />
	</node>
	<node lat="65.05012942478615" lon="11.60522496879454" id="-34530">
		<tag k="fixme" v="consider place=hamlet" />
		<tag k="name" v="Haug" />
		<tag k="place" v="farm" />
		<tag k="ssr:stedsnr" v="925800" />
	</node>
	<node lat="65.08221666409422" lon="11.838405553708904" id="-34537">
		<tag k="name" v="Bakken" />
		<tag k="place" v="farm" />
		<tag k="ssr:stedsnr" v="888859" />
	</node>
	<node lat="65.07661388480378" lon="11.555863887881475" id="-34549">
		<tag k="name" v="Huskleiva" />
		<tag k="place" v="isolated_dwelling" />
		<tag k="ssr:stedsnr" v="895412" />
	</node>
	<node lat="65.05723055662256" lon="11.672794449994559" id="-34572">
		<tag k="name" v="Vågheim" />
		<tag k="place" v="farm" />
		<tag k="ssr:stedsnr" v="925824" />
	</node>
	<node lat="65.08689722224827" lon="11.838777769623459" id="-34575">
=======
	<node id="-792944" lat="65.1060916634" lon="11.8488583314">
		<tag k="name" v="Klipvikmoen" />
		<tag k="place" v="farm" />
		<tag k="ssr:stedsnr" v="767102" />
	</node>
	<node id="-791919" lat="65.0947765352" lon="11.8602442506">
		<tag k="fixme" v="consider place=hamlet" />
		<tag k="name" v="Med-Gutvika" />
		<tag k="place" v="farm" />
		<tag k="ssr:stedsnr" v="440068" />
	</node>
	<node id="-791914" lat="65.0798222212" lon="11.7047888783">
		<tag k="name" v="Solbakken" />
		<tag k="place" v="farm" />
		<tag k="ssr:stedsnr" v="439831" />
	</node>
	<node id="-792420" lat="65.1242416661" lon="11.8904416627">
		<tag k="name" v="Nordli" />
		<tag k="place" v="isolated_dwelling" />
		<tag k="ssr:stedsnr" v="43117" />
	</node>
	<node id="-792930" lat="65.0800999966" lon="11.6600166684">
		<tag k="name" v="Vestgård" />
		<tag k="place" v="farm" />
		<tag k="ssr:stedsnr" v="742791" />
	</node>
	<node id="-792411" lat="65.0770694413" lon="11.5433944481">
		<tag k="alt_name" v="Sjyvika" />
		<tag k="name" v="Sjøvika" />
		<tag k="place" v="isolated_dwelling" />
		<tag k="ssr:stedsnr" v="27276" />
	</node>
	<node id="-791898" lat="65.0823735106" lon="11.5823585819">
		<tag k="fixme" v="consider place=hamlet" />
		<tag k="name" v="Aunet" />
		<tag k="place" v="farm" />
		<tag k="ssr:stedsnr" v="439715" />
	</node>
	<node id="-792919" lat="65.1096333306" lon="11.6551194446">
		<tag k="name" v="Auståkeren" />
		<tag k="place" v="farm" />
		<tag k="ssr:stedsnr" v="653811" />
	</node>
	<node id="-792913" lat="65.1007277733" lon="11.7254750095">
		<tag k="name" v="Fagerheim" />
		<tag k="place" v="farm" />
		<tag k="ssr:stedsnr" v="652968" />
	</node>
	<node id="-792392" lat="65.1206111082" lon="11.8846305457">
		<tag k="fixme" v="multiple name tags, choose one and add the other to alt_name" />
		<tag k="name" v="Nord-Gutvika;Nordgård;Nygård" />
		<tag k="place" v="farm" />
		<tag k="ssr:stedsnr" v="14946" />
	</node>
	<node id="-792390" lat="65.1201000014" lon="11.8905861033">
		<tag k="name" v="Bekkevoll" />
		<tag k="place" v="farm" />
		<tag k="ssr:stedsnr" v="14938" />
	</node>
	<node id="-792890" lat="65.1181833337" lon="11.8866111058">
		<tag k="name" v="Øvergård" />
		<tag k="place" v="farm" />
		<tag k="ssr:stedsnr" v="621954" />
	</node>
	<node id="-792886" lat="65.0789750027" lon="11.6865111099">
		<tag k="name" v="Ramtindmoen" />
		<tag k="place" v="farm" />
		<tag k="ssr:stedsnr" v="621824" />
	</node>
	<node id="-792367" lat="65.0462416678" lon="11.5809055619">
		<tag k="name" v="Sørvollen" />
		<tag k="place" v="farm" />
		<tag k="ssr:stedsnr" v="957345" />
	</node>
	<node id="-792878" lat="65.0461277809" lon="11.6015083395">
		<tag k="alt_name" v="Øver Harravollan" />
		<tag k="name" v="Haravollan" />
		<tag k="place" v="farm" />
		<tag k="ssr:stedsnr" v="621783" />
	</node>
	<node id="-791844" lat="65.1067416652" lon="11.7127749977">
		<tag k="name" v="Sanddik" />
		<tag k="place" v="farm" />
		<tag k="ssr:stedsnr" v="167920" />
	</node>
	<node id="-792864" lat="65.1036944427" lon="11.7309944538">
		<tag k="name" v="Stranda" />
		<tag k="place" v="farm" />
		<tag k="ssr:stedsnr" v="621021" />
	</node>
	<node id="-791839" lat="65.0565166645" lon="11.6147444435">
		<tag k="name" v="Haugtun" />
		<tag k="place" v="farm" />
		<tag k="ssr:stedsnr" v="158959" />
	</node>
	<node id="-792349" lat="65.0868972222" lon="11.8387777696">
>>>>>>> e1d4bc35ff8a6074a6f2e91616a996b547c36f15
		<tag k="alt_name" v="Klemetsvika" />
		<tag k="name" v="Klemmetsvika" />
		<tag k="place" v="isolated_dwelling" />
		<tag k="ssr:stedsnr" v="938817" />
	</node>
<<<<<<< HEAD
	<node lat="65.04624166779766" lon="11.580905561907203" id="-34584">
		<tag k="name" v="Sørvollen" />
		<tag k="place" v="farm" />
		<tag k="ssr:stedsnr" v="957345" />
	</node>
	<node lat="65.12061110816033" lon="11.884630545707981" id="-34608">
		<tag k="loc_name" v="Haugen" />
		<tag k="name" v="Nord-Gutvika" />
		<tag k="place" v="farm" />
		<tag k="ssr:stedsnr" v="14946" />
	</node>
	<node lat="65.09443610759533" lon="11.70653889876844" id="-34627">
		<tag k="amenity" v="school" />
		<tag k="name" v="Leka barne- og ungdomsskole" />
		<tag k="ssr:stedsnr" v="42003" />
	</node>
	<node lat="65.12424166611132" lon="11.890441662736498" id="-34632">
		<tag k="name" v="Nordli" />
		<tag k="place" v="isolated_dwelling" />
		<tag k="ssr:stedsnr" v="43117" />
	</node>
	<node lat="65.07256389018806" lon="11.562055564777383" id="-34653">
		<tag k="name" v="Vestengan" />
		<tag k="place" v="farm" />
		<tag k="ssr:stedsnr" v="75761" />
	</node>
	<node lat="65.05873888449413" lon="11.565591671019646" id="-34656">
		<tag k="name" v="Auståker" />
		<tag k="place" v="farm" />
		<tag k="ssr:stedsnr" v="75839" />
	</node>
	<node lat="65.07404999803134" lon="11.683313889833062" id="-34660">
		<tag k="alt_name" v="Klongvika" />
		<tag k="name" v="Klungvika" />
		<tag k="place" v="farm" />
		<tag k="ssr:stedsnr" v="75853" />
	</node>
	<node lat="65.07860278052658" lon="11.70175834329864" id="-34661">
		<tag k="name" v="Gongstøa" />
		<tag k="place" v="farm" />
		<tag k="ssr:stedsnr" v="75857" />
	</node>
	<node lat="65.1091583323997" lon="11.63751944705489" id="-34668">
		<tag k="name" v="Kvaløymoen" />
		<tag k="place" v="farm" />
		<tag k="ssr:stedsnr" v="76693" />
	</node>
	<node lat="65.12197222281975" lon="11.894608335328662" id="-34678">
		<tag k="name" v="Bekkevoll" />
		<tag k="place" v="farm" />
		<tag k="ssr:stedsnr" v="103135" />
	</node>
	<node lat="65.10148333299179" lon="11.72943055377538" id="-34692">
		<tag k="name" v="Nygård" />
		<tag k="place" v="farm" />
		<tag k="ssr:stedsnr" v="106955" />
	</node>
	<node lat="65.05208611490184" lon="11.61300277597755" id="-34694">
		<tag k="name" v="Dalan" />
		<tag k="place" v="farm" />
		<tag k="ssr:stedsnr" v="107794" />
	</node>
	<node lat="65.09754418348302" lon="11.700733867977021" id="-34701">
		<tag k="fixme" v="consider place=hamlet" />
		<tag k="name" v="Leknes" />
		<tag k="place" v="farm" />
		<tag k="ssr:stedsnr" v="135688" />
	</node>
	<node lat="65.08972777570997" lon="11.580030558539995" id="-34702">
		<tag k="name" v="Fagertun" />
		<tag k="place" v="farm" />
		<tag k="ssr:stedsnr" v="135691" />
	</node>
	<node lat="65.08413610977917" lon="11.836077768772993" id="-34703">
		<tag k="fixme" v="consider place=hamlet" />
		<tag k="name" v="Sør-Gutvika" />
		<tag k="place" v="village" />
		<tag k="ssr:stedsnr" v="136075" />
	</node>
	<node lat="65.09548611135426" lon="11.865316663001519" id="-34720">
		<tag k="name" v="Galthaugen" />
		<tag k="place" v="farm" />
		<tag k="ssr:stedsnr" v="159882" />
	</node>
	<node lat="65.08104166477162" lon="11.574188881987915" id="-34727">
		<tag k="name" v="Myrstad" />
		<tag k="place" v="farm" />
		<tag k="ssr:stedsnr" v="166435" />
	</node>
	<node lat="65.1082027776775" lon="11.649833325516546" id="-34729">
		<tag k="name" v="Skogstad" />
		<tag k="place" v="farm" />
		<tag k="ssr:stedsnr" v="166945" />
	</node>
	<node lat="65.10806944528572" lon="11.655277779239476" id="-34735">
		<tag k="name" v="Lissvollen" />
=======
	<node id="-792344" lat="65.0535444409" lon="11.5579944469">
		<tag k="name" v="Flotta" />
		<tag k="place" v="farm" />
		<tag k="ssr:stedsnr" v="835910" />
	</node>
	<node id="-791827" lat="65.1082500017" lon="11.7138833295">
		<tag k="name" v="Sjøtun" />
		<tag k="place" v="farm" />
		<tag k="ssr:stedsnr" v="136710" />
	</node>
	<node id="-791819" lat="65.0614055573" lon="11.6338222247">
		<tag k="name" v="Fjellset" />
		<tag k="place" v="farm" />
		<tag k="ssr:stedsnr" v="257843" />
	</node>
	<node id="-792327" lat="65.0809527809" lon="11.6963750065">
		<tag k="name" v="Solli" />
		<tag k="place" v="farm" />
		<tag k="ssr:stedsnr" v="925851" />
	</node>
	<node id="-792326" lat="65.0740583323" lon="11.6767166671">
		<tag k="name" v="Frøvikmyra" />
		<tag k="place" v="farm" />
		<tag k="ssr:stedsnr" v="925849" />
	</node>
	<node id="-792325" lat="65.0572305566" lon="11.67279445">
		<tag k="name" v="Vågheim" />
		<tag k="place" v="farm" />
		<tag k="ssr:stedsnr" v="925824" />
	</node>
	<node id="-792319" lat="65.0501294248" lon="11.6052249688">
		<tag k="fixme" v="consider place=hamlet" />
		<tag k="name" v="Haug" />
		<tag k="place" v="farm" />
		<tag k="ssr:stedsnr" v="925800" />
	</node>
	<node id="-792021" lat="65.0575444445" lon="11.6030722137">
		<tag k="name" v="Utheim" />
		<tag k="place" v="farm" />
		<tag k="ssr:stedsnr" v="378811" />
	</node>
	<node id="-791803" lat="65.0508097722" lon="11.7859515444">
		<tag k="fixme" v="consider place=hamlet" />
		<tag k="name" v="Reppen" />
		<tag k="place" v="farm" />
		<tag k="ssr:stedsnr" v="257097" />
	</node>
	<node id="-791802" lat="65.0931752614" lon="11.7332197163">
		<tag k="fixme" v="consider place=hamlet" />
		<tag k="name" v="Skei" />
		<tag k="place" v="farm" />
		<tag k="ssr:stedsnr" v="257051" />
	</node>
	<node id="-792959" lat="65.0565166645" lon="11.6147444435">
		<tag k="name" v="Fjellheim" />
		<tag k="place" v="farm" />
		<tag k="ssr:stedsnr" v="773952" />
	</node>
	<node id="-791797" lat="65.0474798307" lon="11.5852303402">
		<tag k="name" v="Haug" />
		<tag k="place" v="farm" />
		<tag k="ssr:stedsnr" v="75812" />
	</node>
	<node id="-792819" lat="65.0604972192" lon="11.5594416644">
		<tag k="name" v="Vollan" />
		<tag k="place" v="farm" />
		<tag k="ssr:stedsnr" v="560793" />
	</node>
	<node id="-792818" lat="65.0518296156" lon="11.5529209926">
		<tag k="fixme" v="consider place=hamlet" />
		<tag k="name" v="Solsem" />
		<tag k="place" v="farm" />
		<tag k="ssr:stedsnr" v="560785" />
	</node>
	<node id="-792817" lat="65.0545666652" lon="11.6937083305">
		<tag k="name" v="Gongstøa" />
		<tag k="place" v="farm" />
		<tag k="ssr:stedsnr" v="560781" />
	</node>
	<node id="-792301" lat="65.0910027764" lon="11.718858333">
		<tag k="name" v="Østby" />
		<tag k="place" v="farm" />
		<tag k="ssr:stedsnr" v="925071" />
	</node>
	<node id="-792811" lat="65.085395994" lon="11.7095064318">
		<tag k="fixme" v="consider place=hamlet" />
		<tag k="name" v="Husby" />
		<tag k="place" v="farm" />
		<tag k="ssr:stedsnr" v="560698" />
	</node>
	<node id="-791783" lat="65.0944361076" lon="11.7065388988">
		<tag k="amenity" v="school" />
		<tag k="name" v="Leka barne- og ungdomsskole" />
		<tag k="ssr:stedsnr" v="42003" />
	</node>
	<node id="-792293" lat="65.2018749996" lon="10.9935944486">
		<tag k="name" v="Heimøystøa" />
		<tag k="place" v="isolated_dwelling" />
		<tag k="ssr:stedsnr" v="924488" />
	</node>
	<node id="-791776" lat="65.0747500043" lon="11.8091333444">
		<tag k="name" v="Storvika" />
		<tag k="place" v="farm" />
		<tag k="ssr:stedsnr" v="228897" />
	</node>
	<node id="-792795" lat="65.052558337" lon="11.5512500091">
		<tag k="name" v="Bakkan" />
		<tag k="place" v="farm" />
		<tag k="ssr:stedsnr" v="531931" />
	</node>
	<node id="-792791" lat="65.0874166639" lon="11.7372277816">
		<tag k="name" v="Svenskstøa" />
>>>>>>> e1d4bc35ff8a6074a6f2e91616a996b547c36f15
		<tag k="place" v="farm" />
		<tag k="ssr:stedsnr" v="531998" />
	</node>
<<<<<<< HEAD
	<node lat="65.10674166523356" lon="11.712774997688062" id="-34737">
		<tag k="name" v="Sanddik" />
		<tag k="place" v="farm" />
		<tag k="ssr:stedsnr" v="167920" />
	</node>
	<node lat="65.09262221918577" lon="11.574219450462817" id="-34759">
		<tag k="name" v="Vollan" />
		<tag k="place" v="farm" />
		<tag k="ssr:stedsnr" v="196677" />
	</node>
	<node lat="65.04756666538721" lon="11.608963886362824" id="-34775">
		<tag k="name" v="Bjørkly" />
		<tag k="place" v="farm" />
		<tag k="ssr:stedsnr" v="197782" />
	</node>
	<node lat="65.05697500331178" lon="11.61607778294877" id="-34779">
		<tag k="name" v="Haug" />
		<tag k="place" v="farm" />
		<tag k="ssr:stedsnr" v="197801" />
	</node>
	<node lat="65.12242500348452" lon="11.895808324124957" id="-34785">
		<tag k="fixme" v="multiple name tags, choose one and add the other to alt_name" />
		<tag k="name" v="Gløtten;Fjellgløtt" />
		<tag k="place" v="isolated_dwelling" />
		<tag k="ssr:stedsnr" v="225144" />
	</node>
	<node lat="65.05811111436648" lon="11.62875554535735" id="-34808">
		<tag k="name" v="Breivika" />
		<tag k="place" v="farm" />
		<tag k="ssr:stedsnr" v="288957" />
	</node>
	<node lat="65.12013888821122" lon="11.89001667629015" id="-34813">
		<tag k="name" v="Nordgård" />
		<tag k="place" v="farm" />
		<tag k="ssr:stedsnr" v="300701" />
	</node>
	<node lat="65.062967820502" lon="11.689744804185233" id="-34818">
		<tag k="fixme" v="consider place=hamlet" />
		<tag k="name" v="Madsøya" />
		<tag k="place" v="farm" />
		<tag k="ssr:stedsnr" v="318810" />
	</node>
	<node lat="65.06359444277449" lon="11.638036105900534" id="-34819">
		<tag k="alt_name" v="Kvernvika" />
		<tag k="name" v="Øver-Kvernvika" />
		<tag k="place" v="farm" />
		<tag k="ssr:stedsnr" v="318814" />
	</node>
	<node lat="65.0504833348378" lon="11.597658340744038" id="-34833">
		<tag k="name" v="Solstad" />
		<tag k="place" v="farm" />
		<tag k="ssr:stedsnr" v="318762" />
	</node>
	<node lat="65.07944722265553" lon="11.688708341625668" id="-34838">
		<tag k="name" v="Nyrommet" />
		<tag k="place" v="farm" />
		<tag k="ssr:stedsnr" v="318825" />
	</node>
	<node lat="65.10821111265469" lon="11.649813893106613" id="-34855">
		<tag k="name" v="Dalan" />
		<tag k="place" v="farm" />
		<tag k="ssr:stedsnr" v="348988" />
	</node>
	<node lat="65.08710833054104" lon="11.708586106564365" id="-34856">
		<tag k="name" v="Gjeilan" />
		<tag k="place" v="farm" />
		<tag k="ssr:stedsnr" v="348930" />
	</node>
	<node lat="65.09020278108909" lon="11.580227785504775" id="-34865">
		<tag k="name" v="Aunmyrå" />
		<tag k="place" v="farm" />
		<tag k="ssr:stedsnr" v="350678" />
	</node>
	<node lat="65.09961389070779" lon="11.729924991222251" id="-34876">
		<tag k="name" v="Botnet" />
		<tag k="place" v="farm" />
		<tag k="ssr:stedsnr" v="378016" />
	</node>
	<node lat="65.06976404992109" lon="11.796030484017725" id="-34877">
		<tag k="fixme" v="consider place=hamlet" />
		<tag k="name" v="Rossvika" />
		<tag k="place" v="farm" />
		<tag k="ssr:stedsnr" v="378076" />
	</node>
	<node lat="65.10830000393" lon="11.859980555953445" id="-34881">
		<tag k="name" v="Fotamoen" />
		<tag k="place" v="farm" />
		<tag k="ssr:stedsnr" v="378003" />
	</node>
	<node lat="65.10518333087892" lon="11.850786118415945" id="-34882">
		<tag k="name" v="Tørrisenget" />
		<tag k="place" v="farm" />
		<tag k="ssr:stedsnr" v="378004" />
	</node>
	<node lat="65.05710277687338" lon="11.69475277065875" id="-34887">
		<tag k="name" v="Nyheim" />
		<tag k="place" v="farm" />
		<tag k="ssr:stedsnr" v="378800" />
	</node>
	<node lat="65.07241389236312" lon="11.674138897743651" id="-34892">
		<tag k="name" v="Solheim" />
		<tag k="place" v="farm" />
		<tag k="ssr:stedsnr" v="378835" />
	</node>
	<node lat="65.07720833366035" lon="11.681333329281784" id="-34893">
		<tag k="name" v="Vikamoen" />
=======
	<node id="-791762" lat="65.1224250035" lon="11.8958083241">
		<tag k="fixme" v="multiple name tags, choose one and add the other to alt_name" />
		<tag k="name" v="Fjellgløtt;Gløtten" />
		<tag k="place" v="isolated_dwelling" />
		<tag k="ssr:stedsnr" v="225144" />
	</node>
	<node id="-792270" lat="65.095558333" lon="11.8651277843">
		<tag k="name" v="Elvheim" />
		<tag k="place" v="farm" />
		<tag k="ssr:stedsnr" v="743062" />
	</node>
	<node id="-792269" lat="65.0945250029" lon="11.722366668">
		<tag k="name" v="Myrvoll" />
		<tag k="place" v="farm" />
		<tag k="ssr:stedsnr" v="743057" />
	</node>
	<node id="-792266" lat="65.0753916666" lon="11.5743250102">
		<tag k="name" v="Engan" />
		<tag k="place" v="farm" />
		<tag k="ssr:stedsnr" v="742711" />
	</node>
	<node id="-792265" lat="65.0741499996" lon="11.5375388882">
		<tag k="alt_name" v="Ovdin" />
		<tag k="name" v="Ovden" />
		<tag k="place" v="isolated_dwelling" />
		<tag k="ssr:stedsnr" v="742708" />
	</node>
	<node id="-792254" lat="65.0476694421" lon="11.6091611157">
		<tag k="name" v="Myra" />
		<tag k="place" v="farm" />
		<tag k="ssr:stedsnr" v="895996" />
	</node>
	<node id="-792249" lat="65.0766138848" lon="11.5558638879">
		<tag k="name" v="Huskleiva" />
		<tag k="place" v="isolated_dwelling" />
		<tag k="ssr:stedsnr" v="895412" />
	</node>
	<node id="-792244" lat="65.0420138933" lon="11.5588611128">
		<tag k="name" v="Solsemvika" />
		<tag k="place" v="farm" />
		<tag k="ssr:stedsnr" v="895238" />
	</node>
	<node id="-792751" lat="65.0909027741" lon="11.722722217">
		<tag k="alt_name" v="Øver Sørveigan" />
		<tag k="name" v="Øvre Sørveigan" />
		<tag k="place" v="farm" />
		<tag k="ssr:stedsnr" v="410780" />
	</node>
	<node id="-792229" lat="65.0822166641" lon="11.8384055537">
		<tag k="name" v="Bakken" />
		<tag k="place" v="farm" />
		<tag k="ssr:stedsnr" v="888859" />
	</node>
	<node id="-792225" lat="65.0813527785" lon="11.696913893">
		<tag k="name" v="Høgbakkan" />
		<tag k="place" v="farm" />
		<tag k="ssr:stedsnr" v="682850" />
	</node>
	<node id="-792224" lat="65.0724305595" lon="11.6709583387">
		<tag k="name" v="Kleiva" />
		<tag k="place" v="farm" />
		<tag k="ssr:stedsnr" v="682847" />
	</node>
	<node id="-791920" lat="65.1112555541" lon="11.6810361208">
		<tag k="alt_name" v="Skråen Nedre" />
		<tag k="fixme" v="multiple name tags, choose one and add the other to alt_name" />
		<tag k="name" v="Skråen;Nedre Skråen" />
		<tag k="place" v="farm" />
		<tag k="ssr:stedsnr" v="440669" />
	</node>
	<node id="-792221" lat="65.060100004" lon="11.673463885">
		<tag k="name" v="Høgmo" />
		<tag k="place" v="farm" />
		<tag k="ssr:stedsnr" v="682820" />
	</node>
	<node id="-792728" lat="65.0772083337" lon="11.6813333293">
		<tag k="name" v="Vikamoen" />
		<tag k="place" v="farm" />
		<tag k="ssr:stedsnr" v="378836" />
	</node>
	<node id="-792727" lat="65.0724138924" lon="11.6741388977">
		<tag k="name" v="Solheim" />
		<tag k="place" v="farm" />
		<tag k="ssr:stedsnr" v="378835" />
	</node>
	<node id="-792726" lat="65.0571027769" lon="11.6947527707">
		<tag k="name" v="Nyheim" />
		<tag k="place" v="farm" />
		<tag k="ssr:stedsnr" v="378800" />
	</node>
	<node id="-792724" lat="65.0455194433" lon="11.5784527677">
		<tag k="name" v="Årdalsmoen" />
		<tag k="place" v="farm" />
		<tag k="ssr:stedsnr" v="378782" />
	</node>
	<node id="-792211" lat="65.1064138904" lon="11.7110388961">
		<tag k="name" v="Fjellstad" />
		<tag k="place" v="farm" />
		<tag k="ssr:stedsnr" v="653906" />
	</node>
	<node id="-793026" lat="65.0519555551" lon="11.6064777869">
		<tag k="name" v="Brattåkerbakken" />
>>>>>>> e1d4bc35ff8a6074a6f2e91616a996b547c36f15
		<tag k="place" v="farm" />
		<tag k="ssr:stedsnr" v="378836" />
	</node>
<<<<<<< HEAD
	<node lat="65.06478889080154" lon="11.697441660899736" id="-34899">
		<tag k="name" v="Madsøygrenda" />
		<tag k="place" v="hamlet" />
		<tag k="ssr:stedsnr" v="384543" />
	</node>
	<node lat="65.09090277408949" lon="11.722722216975862" id="-34917">
		<tag k="alt_name" v="Øver Sørveigan" />
		<tag k="name" v="Øvre Sørveigan" />
		<tag k="place" v="farm" />
		<tag k="ssr:stedsnr" v="410780" />
	</node>
	<node lat="65.0663972252368" lon="11.69436944601563" id="-34939">
		<tag k="name" v="Åsvang" />
		<tag k="place" v="farm" />
		<tag k="ssr:stedsnr" v="439809" />
	</node>
	<node lat="65.07982222123348" lon="11.70478887829371" id="-34945">
		<tag k="name" v="Solbakken" />
		<tag k="place" v="farm" />
		<tag k="ssr:stedsnr" v="439831" />
	</node>
	<node lat="65.0947765351872" lon="11.86024425060519" id="-34952">
		<tag k="fixme" v="consider place=hamlet" />
		<tag k="name" v="Med-Gutvika" />
		<tag k="place" v="farm" />
		<tag k="ssr:stedsnr" v="440068" />
	</node>
	<node lat="65.11125555409645" lon="11.681036120759423" id="-34953">
		<tag k="alt_name" v="Skråen Nedre" />
		<tag k="fixme" v="multiple name tags, choose one and add the other to alt_name" />
		<tag k="name" v="Skråen;Nedre Skråen" />
		<tag k="place" v="farm" />
		<tag k="ssr:stedsnr" v="440669" />
	</node>
	<node lat="65.04060555862158" lon="11.652999993392948" id="-34954">
		<tag k="fixme" v="consider place=hamlet" />
		<tag k="name" v="Tangan" />
		<tag k="place" v="farm" />
		<tag k="ssr:stedsnr" v="440861" />
	</node>
	<node lat="65.0763777747377" lon="11.550674999234149" id="-34957">
		<tag k="fixme" v="consider place=hamlet" />
		<tag k="name" v="Vågan" />
		<tag k="place" v="farm" />
		<tag k="ssr:stedsnr" v="499667" />
	</node>
	<node lat="65.10868741447756" lon="11.650638502645249" id="-34976">
		<tag k="fixme" v="consider place=hamlet" />
		<tag k="name" v="Kvaløya" />
		<tag k="place" v="farm" />
		<tag k="ssr:stedsnr" v="500756" />
	</node>
	<node lat="65.10903055714932" lon="11.63611110493862" id="-34977">
		<tag k="name" v="Sørå" />
		<tag k="place" v="farm" />
		<tag k="ssr:stedsnr" v="500757" />
	</node>
	<node lat="65.11112500162469" lon="11.678827785787083" id="-34978">
		<tag k="name" v="Skråmoen" />
		<tag k="place" v="farm" />
		<tag k="ssr:stedsnr" v="500763" />
	</node>
	<node lat="65.11436388517735" lon="11.866002775568129" id="-34979">
		<tag k="name" v="Buvik" />
		<tag k="place" v="farm" />
		<tag k="ssr:stedsnr" v="500953" />
	</node>
	<node lat="65.05365277712293" lon="11.61067777784267" id="-34981">
		<tag k="alt_name" v="Dalamoen" />
		<tag k="name" v="Moen" />
		<tag k="place" v="farm" />
		<tag k="ssr:stedsnr" v="500823" />
	</node>
	<node lat="65.20554444491445" lon="11.479175009189442" id="-34986">
		<tag k="name" v="Valen" />
		<tag k="place" v="farm" />
		<tag k="ssr:stedsnr" v="525661" />
	</node>
	<node lat="65.10942222459838" lon="11.678572219906812" id="-34988">
		<tag k="alt_name" v="Skråen Øvre" />
		<tag k="name" v="Øvre Skråen" />
		<tag k="place" v="farm" />
		<tag k="ssr:stedsnr" v="526828" />
	</node>
	<node lat="65.05255833695952" lon="11.551250009071383" id="-35008">
		<tag k="name" v="Bakkan" />
		<tag k="place" v="farm" />
		<tag k="ssr:stedsnr" v="531931" />
	</node>
	<node lat="65.08741666388673" lon="11.737227781636335" id="-35009">
		<tag k="name" v="Svenskstøa" />
		<tag k="place" v="farm" />
		<tag k="ssr:stedsnr" v="531998" />
	</node>
	<node lat="65.05039166356262" lon="11.66283889411011" id="-35030">
		<tag k="name" v="Haugvik" />
		<tag k="place" v="farm" />
		<tag k="ssr:stedsnr" v="560751" />
	</node>
	<node lat="65.04577499998621" lon="11.609544446896248" id="-35031">
		<tag k="name" v="Haugsstranda" />
		<tag k="place" v="farm" />
		<tag k="ssr:stedsnr" v="560761" />
	</node>
	<node lat="65.11818333367776" lon="11.886611105793866" id="-35068">
		<tag k="name" v="Øvergård" />
		<tag k="place" v="farm" />
		<tag k="ssr:stedsnr" v="621954" />
	</node>
	<node lat="65.07897500269476" lon="11.68651110988351" id="-35074">
		<tag k="name" v="Ramtindmoen" />
		<tag k="place" v="farm" />
		<tag k="ssr:stedsnr" v="621824" />
	</node>
	<node lat="65.04612778091243" lon="11.601508339473876" id="-35080">
		<tag k="alt_name" v="Øver Harravollan" />
		<tag k="name" v="Haravollan" />
		<tag k="place" v="farm" />
		<tag k="ssr:stedsnr" v="621783" />
	</node>
	<node lat="65.08219444358039" lon="11.82477777918843" id="-35084">
		<tag k="name" v="Sørneset" />
		<tag k="place" v="farm" />
		<tag k="ssr:stedsnr" v="645857" />
	</node>
	<node lat="65.07256389018806" lon="11.562055564777383" id="-35092">
		<tag k="name" v="Sørengan" />
		<tag k="place" v="farm" />
		<tag k="ssr:stedsnr" v="651424" />
	</node>
	<node lat="65.10072777332695" lon="11.72547500952211" id="-35104">
		<tag k="name" v="Fagerheim" />
		<tag k="place" v="farm" />
		<tag k="ssr:stedsnr" v="652968" />
	</node>
	<node lat="65.10963333058257" lon="11.65511944461332" id="-35105">
		<tag k="name" v="Auståkeren" />
		<tag k="place" v="farm" />
		<tag k="ssr:stedsnr" v="653811" />
	</node>
	<node lat="65.10042500370416" lon="11.735786117371989" id="-35123">
		<tag k="name" v="Solli" />
		<tag k="place" v="farm" />
		<tag k="ssr:stedsnr" v="713919" />
	</node>
	<node lat="65.09347500286871" lon="11.718269437213069" id="-35129">
		<tag k="name" v="Strinda" />
		<tag k="place" v="farm" />
		<tag k="ssr:stedsnr" v="713972" />
	</node>
	<node lat="65.08009999659345" lon="11.66001666836991" id="-35144">
		<tag k="name" v="Vestgård" />
		<tag k="place" v="farm" />
		<tag k="ssr:stedsnr" v="742791" />
	</node>
	<node lat="65.09725000333489" lon="11.727416663630477" id="-35146">
		<tag k="name" v="Nyheim" />
		<tag k="place" v="farm" />
		<tag k="ssr:stedsnr" v="743028" />
	</node>
	<node lat="65.09452500287362" lon="11.722366667957704" id="-35150">
		<tag k="name" v="Myrvoll" />
		<tag k="place" v="farm" />
		<tag k="ssr:stedsnr" v="743057" />
	</node>
	<node lat="65.09555833295555" lon="11.865127784324212" id="-35151">
		<tag k="name" v="Elvheim" />
		<tag k="place" v="farm" />
		<tag k="ssr:stedsnr" v="743062" />
	</node>
	<node lat="65.09798611056775" lon="11.725152769120834" id="-35165">
		<tag k="name" v="Nordset" />
		<tag k="place" v="farm" />
		<tag k="ssr:stedsnr" v="773946" />
	</node>
	<node lat="65.04666944450086" lon="11.6071527691628" id="-35167">
		<tag k="name" v="Ner Harravollan" />
		<tag k="place" v="farm" />
		<tag k="ssr:stedsnr" v="773991" />
	</node>
	<node lat="65.06283888844936" lon="11.784625003313867" id="-35192">
		<tag k="name" v="Kattvika" />
		<tag k="place" v="isolated_dwelling" />
		<tag k="ssr:stedsnr" v="803099" />
	</node>
	<node lat="65.0651555551812" lon="11.699583323827895" id="-35205">
		<tag k="name" v="Dalavika" />
		<tag k="place" v="farm" />
		<tag k="ssr:stedsnr" v="803799" />
	</node>
	<node lat="65.05195555506666" lon="11.606477786896004" id="-35227">
		<tag k="name" v="Brattåkerbakken" />
		<tag k="place" v="farm" />
		<tag k="ssr:stedsnr" v="834991" />
	</node>
	<node lat="65.10866666836714" lon="11.90375555200159" id="-35246">
		<tag k="name" v="Granli" />
		<tag k="place" v="farm" />
		<tag k="ssr:stedsnr" v="864001" />
	</node>
	<node lat="65.10021388915811" lon="11.696922221967359" id="-35294">
		<tag k="name" v="Nymoen" />
		<tag k="place" v="farm" />
		<tag k="ssr:stedsnr" v="955903" />
	</node>
	<node lat="65.09246623278555" lon="11.705064074474661" id="-35352">
		<tag k="amenity" v="townhall" />
		<tag k="name" v="Lekatun" />
		<tag k="ssr:stedsnr" v="1078126" />
	</node>
	<node lat="65.09409580080481" lon="11.706644037353406" id="-35353">
		<tag k="amenity" v="sports_centre" />
		<tag k="name" v="Herlaughallen" />
		<tag k="ssr:stedsnr" v="1078131" />
	</node>
	<node lat="65.09739649367776" lon="11.706412821058969" id="-35354">
		<tag k="amenity" v="kindergarten" />
		<tag k="name" v="Leka barnehage" />
		<tag k="ssr:stedsnr" v="1078132" />
	</node>
	<node lat="65.10175971464558" lon="11.76581143696495" id="-35363">
		<tag k="fixme" v="consider tourism=alpine_hut or tourism=chalet" />
		<tag k="name" v="Steinhytta" />
		<tag k="ssr:stedsnr" v="1078151" />
		<tag k="tourism" v="wilderness_hut" />
	</node>
	<node lat="65.12030027439391" lon="11.887008550643763" id="-35365">
		<tag k="loc_name" v="Storvollen" />
		<tag k="name" v="Nygård" />
		<tag k="place" v="farm" />
		<tag k="ssr:stedsnr" v="1078369" />
=======
	<node id="-792472" lat="65.1091583324" lon="11.6375194471">
		<tag k="name" v="Kvaløymoen" />
		<tag k="place" v="farm" />
		<tag k="ssr:stedsnr" v="76693" />
	</node>
	<node id="-792709" lat="65.0697640499" lon="11.796030484">
		<tag k="fixme" v="consider place=hamlet" />
		<tag k="name" v="Rossvika" />
		<tag k="place" v="farm" />
		<tag k="ssr:stedsnr" v="378076" />
	</node>
	<node id="-792708" lat="65.0996138907" lon="11.7299249912">
		<tag k="name" v="Botnet" />
		<tag k="place" v="farm" />
		<tag k="ssr:stedsnr" v="378016" />
	</node>
	<node id="-792706" lat="65.1051833309" lon="11.8507861184">
		<tag k="name" v="Tørrisenget" />
		<tag k="place" v="farm" />
		<tag k="ssr:stedsnr" v="378004" />
	</node>
	<node id="-792705" lat="65.1083000039" lon="11.859980556">
		<tag k="name" v="Fotamoen" />
		<tag k="place" v="farm" />
		<tag k="ssr:stedsnr" v="378003" />
	</node>
	<node id="-792932" lat="65.0972500033" lon="11.7274166636">
		<tag k="name" v="Nyheim" />
		<tag k="place" v="farm" />
		<tag k="ssr:stedsnr" v="743028" />
	</node>
	<node id="-792185" lat="65.0934750029" lon="11.7182694372">
		<tag k="name" v="Strinda" />
		<tag k="place" v="farm" />
		<tag k="ssr:stedsnr" v="713972" />
	</node>
	<node id="-792695" lat="65.0902027811" lon="11.5802277855">
		<tag k="name" v="Aunmyrå" />
		<tag k="place" v="farm" />
		<tag k="ssr:stedsnr" v="350678" />
	</node>
	<node id="-792181" lat="65.1004250037" lon="11.7357861174">
		<tag k="name" v="Solli" />
		<tag k="place" v="farm" />
		<tag k="ssr:stedsnr" v="713919" />
	</node>
	<node id="-792682" lat="65.1082111127" lon="11.6498138931">
		<tag k="name" v="Dalan" />
		<tag k="place" v="farm" />
		<tag k="ssr:stedsnr" v="348988" />
	</node>
	<node id="-792677" lat="65.0871083305" lon="11.7085861066">
		<tag k="name" v="Gjeilan" />
		<tag k="place" v="farm" />
		<tag k="ssr:stedsnr" v="348930" />
	</node>
	<node id="-792665" lat="65.119779903" lon="11.8876379015">
		<tag k="fixme" v="consider place=hamlet" />
		<tag k="name" v="Nord-Gutvika" />
		<tag k="place" v="farm" />
		<tag k="ssr:stedsnr" v="318952" />
	</node>
	<node id="-791908" lat="65.0663972252" lon="11.694369446">
		<tag k="name" v="Åsvang" />
		<tag k="place" v="farm" />
		<tag k="ssr:stedsnr" v="439809" />
	</node>
	<node id="-792761" lat="65.2055444449" lon="11.4791750092">
		<tag k="name" v="Valen" />
		<tag k="place" v="farm" />
		<tag k="ssr:stedsnr" v="525661" />
	</node>
	<node id="-792660" lat="65.0794472227" lon="11.6887083416">
		<tag k="name" v="Nyrommet" />
		<tag k="place" v="farm" />
		<tag k="ssr:stedsnr" v="318825" />
	</node>
	<node id="-792657" lat="65.0635944428" lon="11.6380361059">
		<tag k="alt_name" v="Kvernvika" />
		<tag k="name" v="Øver-Kvernvika" />
		<tag k="place" v="farm" />
		<tag k="ssr:stedsnr" v="318814" />
	</node>
	<node id="-792656" lat="65.0629678205" lon="11.6897448042">
		<tag k="fixme" v="consider place=hamlet" />
		<tag k="name" v="Madsøya" />
		<tag k="place" v="farm" />
		<tag k="ssr:stedsnr" v="318810" />
	</node>
	<node id="-792655" lat="65.0565713057" lon="11.6239513114">
		<tag k="name" v="Sjøstrand" />
		<tag k="place" v="farm" />
		<tag k="ssr:stedsnr" v="318799" />
	</node>
	<node id="-792142" lat="65.0819027764" lon="11.8359444439">
		<tag k="name" v="Kvea" />
		<tag k="place" v="isolated_dwelling" />
		<tag k="ssr:stedsnr" v="706867" />
	</node>
	<node id="-792649" lat="65.0504833348" lon="11.5976583407">
		<tag k="name" v="Solstad" />
		<tag k="place" v="farm" />
		<tag k="ssr:stedsnr" v="318762" />
	</node>
	<node id="-792135" lat="65.045775" lon="11.6095444469">
		<tag k="name" v="Haugsstranda" />
		<tag k="place" v="farm" />
		<tag k="ssr:stedsnr" v="560761" />
	</node>
	<node id="-792197" lat="65.0821944436" lon="11.8247777792">
		<tag k="name" v="Sørneset" />
		<tag k="place" v="farm" />
		<tag k="ssr:stedsnr" v="645857" />
	</node>
	<node id="-792129" lat="65.0699045325" lon="11.6674853668">
		<tag k="fixme" v="consider place=hamlet" />
		<tag k="name" v="Frøvika" />
		<tag k="place" v="farm" />
		<tag k="ssr:stedsnr" v="560812" />
	</node>
	<node id="-792638" lat="65.0941537233" lon="11.7409287056">
		<tag k="loc_name" v="Øver Hålonda" />
		<tag k="name" v="Hålonda" />
		<tag k="place" v="farm" />
		<tag k="ssr:stedsnr" v="318044" />
	</node>
	<node id="-792637" lat="65.0926888934" lon="11.7151555568">
		<tag k="name" v="Nordgård" />
		<tag k="place" v="farm" />
		<tag k="ssr:stedsnr" v="317645" />
	</node>
	<node id="-792116" lat="65.1094222246" lon="11.6785722199">
		<tag k="alt_name" v="Skråen Øvre" />
		<tag k="name" v="Øvre Skråen" />
		<tag k="place" v="farm" />
		<tag k="ssr:stedsnr" v="526828" />
	</node>
	<node id="-792108" lat="65.1060071583" lon="11.7094711656">
		<tag k="name" v="Erikvegen" />
		<tag k="place" v="farm" />
		<tag k="ssr:stedsnr" v="682746" />
	</node>
	<node id="-792616" lat="65.0569750033" lon="11.6160777829">
		<tag k="name" v="Haug" />
		<tag k="place" v="farm" />
		<tag k="ssr:stedsnr" v="197801" />
	</node>
	<node id="-792612" lat="65.0475666654" lon="11.6089638864">
		<tag k="name" v="Bjørkly" />
		<tag k="place" v="farm" />
		<tag k="ssr:stedsnr" v="197782" />
	</node>
	<node id="-792604" lat="65.0916333356" lon="11.8512638831">
		<tag k="name" v="Voll" />
		<tag k="place" v="farm" />
		<tag k="ssr:stedsnr" v="197078" />
	</node>
	<node id="-792084" lat="65.0763777747" lon="11.5506749992">
		<tag k="fixme" v="consider place=hamlet" />
		<tag k="name" v="Vågan" />
		<tag k="place" v="farm" />
		<tag k="ssr:stedsnr" v="499667" />
	</node>
	<node id="-792595" lat="65.0926222192" lon="11.5742194505">
		<tag k="name" v="Vollan" />
		<tag k="place" v="farm" />
		<tag k="ssr:stedsnr" v="196677" />
	</node>
	<node id="-792079" lat="65.0935861119" lon="11.8543555533">
		<tag k="name" v="Tingstad" />
		<tag k="place" v="farm" />
		<tag k="ssr:stedsnr" v="463867" />
	</node>
	<node id="-792663" lat="65.0415694416" lon="11.5706333374">
		<tag k="name" v="Gjertrudvika" />
		<tag k="place" v="farm" />
		<tag k="ssr:stedsnr" v="318889" />
	</node>
	<node id="-793090" lat="65.1002138892" lon="11.696922222">
		<tag k="name" v="Nymoen" />
		<tag k="place" v="farm" />
		<tag k="ssr:stedsnr" v="955903" />
>>>>>>> e1d4bc35ff8a6074a6f2e91616a996b547c36f15
	</node>
</osm>
