<?xml version="1.0" encoding="UTF-8"?>
<<<<<<< HEAD
<osm version="0.6" generator="osmapis">
	<node lat="65.07464166667803" lon="11.609127767519203" id="-33969">
		<tag k="fixme" v="consider natural=peak for the most distinct mountains in the district" />
		<tag k="name" v="Lekatinden" />
		<tag k="natural" v="hill" />
		<tag k="place" v="locality" />
		<tag k="ssr:stedsnr" v="14677" />
	</node>
	<node lat="65.05650555556323" lon="11.572286101314988" id="-33973">
		<tag k="fixme" v="consider natural=peak for the most distinct mountains in the district" />
		<tag k="name" v="Lissleka" />
		<tag k="natural" v="hill" />
		<tag k="place" v="locality" />
		<tag k="ssr:stedsnr" v="15804" />
	</node>
	<node lat="65.0791750004981" lon="11.876016662387055" id="-33989">
		<tag k="fixme" v="consider natural=peak for the most distinct mountains in the district" />
		<tag k="name" v="Tverrfjellet" />
		<tag k="natural" v="hill" />
		<tag k="place" v="locality" />
		<tag k="ssr:stedsnr" v="47423" />
	</node>
	<node lat="65.11631944620518" lon="11.785880565819333" id="-33995">
		<tag k="name" v="Fagnahaugan" />
		<tag k="natural" v="hill" />
		<tag k="place" v="locality" />
		<tag k="ssr:stedsnr" v="58707" />
	</node>
	<node lat="65.13029166502469" lon="11.908780558851474" id="-34018">
		<tag k="name" v="Sundsvikhoven" />
		<tag k="natural" v="hill" />
		<tag k="place" v="locality" />
		<tag k="ssr:stedsnr" v="103116" />
	</node>
	<node lat="65.11672222304078" lon="11.900452783411735" id="-34019">
		<tag k="name" v="Amundsgrova" />
		<tag k="natural" v="valley" />
		<tag k="place" v="locality" />
		<tag k="ssr:stedsnr" v="103132" />
	</node>
	<node lat="65.04631389030597" lon="11.666216660750221" id="-34025">
		<tag k="name" v="Endesåsen" />
		<tag k="natural" v="hill" />
		<tag k="place" v="locality" />
		<tag k="ssr:stedsnr" v="106923" />
	</node>
	<node lat="65.1038166652118" lon="11.664238880153308" id="-34028">
		<tag k="name" v="Jensmyrklavin" />
		<tag k="natural" v="slope" />
		<tag k="place" v="locality" />
		<tag k="ssr:stedsnr" v="107821" />
	</node>
	<node lat="65.1012777770481" lon="11.919302778055435" id="-34032">
		<tag k="alt_name" v="Korslian" />
		<tag k="name" v="Korslia" />
		<tag k="natural" v="slope" />
		<tag k="place" v="locality" />
		<tag k="ssr:stedsnr" v="136031" />
	</node>
	<node lat="65.09756111155501" lon="11.912163883579705" id="-34033">
		<tag k="alt_name" v="Trollhamarn" />
		<tag k="fixme" v="consider natural=peak for the most distinct mountains in the district" />
		<tag k="name" v="Trollhammaren" />
		<tag k="natural" v="hill" />
		<tag k="place" v="locality" />
		<tag k="ssr:stedsnr" v="136035" />
	</node>
	<node lat="65.08389167015555" lon="11.585233343149875" id="-34071">
		<tag k="fixme" v="consider natural=peak for the most distinct mountains in the district" />
		<tag k="name" v="Aunkollen" />
		<tag k="natural" v="hill" />
		<tag k="place" v="locality" />
		<tag k="ssr:stedsnr" v="257744" />
	</node>
	<node lat="65.06540832947607" lon="11.583655558513769" id="-34075">
		<tag k="alt_name" v="Brekkå" />
		<tag k="name" v="Brekka" />
		<tag k="natural" v="slope" />
		<tag k="place" v="locality" />
		<tag k="ssr:stedsnr" v="257846" />
	</node>
	<node lat="65.1213055527792" lon="11.928238898851365" id="-34078">
		<tag k="fixme" v="consider natural=peak for the most distinct mountains in the district" />
		<tag k="name" v="Holdåsfjellet" />
		<tag k="natural" v="hill" />
		<tag k="place" v="locality" />
		<tag k="ssr:stedsnr" v="257964" />
	</node>
	<node lat="65.12242499928792" lon="11.91143611117768" id="-34079">
		<tag k="name" v="Litlbindalskjerka" />
		<tag k="place" v="locality" />
		<tag k="ssr:stedsnr" v="257966" />
	</node>
	<node lat="65.10324722431373" lon="11.740194453928861" id="-34084">
		<tag k="name" v="Bossnesshaugen" />
		<tag k="natural" v="hill" />
		<tag k="place" v="locality" />
		<tag k="ssr:stedsnr" v="167907" />
	</node>
	<node lat="65.1040888924806" lon="11.578783338492745" id="-34085">
		<tag k="name" v="Inner Valhaugen" />
		<tag k="natural" v="hill" />
		<tag k="place" v="locality" />
		<tag k="ssr:stedsnr" v="179974" />
	</node>
	<node lat="65.09867500192262" lon="11.882505546485536" id="-34089">
		<tag k="name" v="Åsen" />
		<tag k="natural" v="hill" />
		<tag k="place" v="locality" />
		<tag k="ssr:stedsnr" v="197058" />
	</node>
	<node lat="65.04773610808303" lon="11.610183324669693" id="-34105">
		<tag k="name" v="Klongsjyhaugen" />
		<tag k="natural" v="hill" />
		<tag k="place" v="locality" />
		<tag k="ssr:stedsnr" v="227989" />
	</node>
	<node lat="65.10202500315418" lon="11.736088878670321" id="-34108">
		<tag k="name" v="Bremmeshaugen" />
		<tag k="natural" v="hill" />
		<tag k="place" v="locality" />
		<tag k="ssr:stedsnr" v="228704" />
	</node>
	<node lat="65.0630527801579" lon="11.798883331836157" id="-34110">
		<tag k="name" v="Rossvikaksla" />
		<tag k="place" v="locality" />
		<tag k="ssr:stedsnr" v="228899" />
	</node>
	<node lat="65.04483055905243" lon="11.777122214459732" id="-34111">
		<tag k="alt_name" v="Reppahagan" />
		<tag k="name" v="Joengholet" />
		<tag k="natural" v="valley" />
		<tag k="place" v="locality" />
		<tag k="ssr:stedsnr" v="228903" />
	</node>
	<node lat="65.05354444092531" lon="11.557994446909158" id="-34112">
		<tag k="name" v="Melhaugen" />
		<tag k="natural" v="hill" />
		<tag k="place" v="locality" />
		<tag k="ssr:stedsnr" v="228931" />
	</node>
	<node lat="65.09401111113915" lon="11.575869439657284" id="-34113">
		<tag k="name" v="Sørmyrhaugen" />
		<tag k="natural" v="ridge" />
		<tag k="place" v="locality" />
		<tag k="ssr:stedsnr" v="229690" />
	</node>
	<node lat="65.10221666355238" lon="11.859666663626045" id="-34118">
		<tag k="name" v="Heia" />
		<tag k="natural" v="slope" />
		<tag k="place" v="locality" />
		<tag k="ssr:stedsnr" v="257005" />
	</node>
	<node lat="65.14369722347824" lon="11.937797225259718" id="-34128">
		<tag k="name" v="Sørdalsfjellet" />
		<tag k="natural" v="hill" />
		<tag k="place" v="locality" />
		<tag k="ssr:stedsnr" v="285102" />
	</node>
	<node lat="65.1193166648999" lon="11.67206666760928" id="-34129">
		<tag k="name" v="Settarviktuvå" />
		<tag k="natural" v="hill" />
		<tag k="place" v="locality" />
		<tag k="ssr:stedsnr" v="288203" />
	</node>
	<node lat="65.11552778019765" lon="11.681658343842017" id="-34130">
		<tag k="name" v="Nausthaugan" />
		<tag k="natural" v="hill" />
		<tag k="place" v="locality" />
		<tag k="ssr:stedsnr" v="288206" />
	</node>
	<node lat="65.07851944265566" lon="11.674866670620604" id="-34134">
		<tag k="fixme" v="consider natural=peak for the most distinct mountains in the district" />
		<tag k="name" v="Ramtindfjellet" />
		<tag k="natural" v="hill" />
		<tag k="place" v="locality" />
		<tag k="ssr:stedsnr" v="288113" />
	</node>
	<node lat="65.10558611517344" lon="11.657627782708042" id="-34140">
		<tag k="name" v="Jensokhaugen" />
		<tag k="natural" v="hill" />
		<tag k="place" v="locality" />
		<tag k="ssr:stedsnr" v="289829" />
	</node>
	<node lat="65.07181944049604" lon="11.889791676250319" id="-34142">
		<tag k="name" v="Tverravasslia" />
		<tag k="natural" v="slope" />
		<tag k="place" v="locality" />
		<tag k="ssr:stedsnr" v="290376" />
	</node>
	<node lat="65.09920833198348" lon="11.760955545282235" id="-34143">
		<tag k="name" v="Våttviksletta" />
		<tag k="place" v="locality" />
		<tag k="ssr:stedsnr" v="298922" />
	</node>
	<node lat="65.08029444867506" lon="11.625369449365923" id="-34145">
		<tag k="fixme" v="consider natural=peak for the most distinct mountains in the district" />
		<tag k="name" v="Tverrfjellet" />
		<tag k="natural" v="hill" />
		<tag k="place" v="locality" />
		<tag k="ssr:stedsnr" v="303078" />
	</node>
	<node lat="65.10953055875102" lon="11.64983610129056" id="-34155">
		<tag k="name" v="Stonghaugen" />
		<tag k="natural" v="hill" />
		<tag k="place" v="locality" />
		<tag k="ssr:stedsnr" v="318703" />
	</node>
	<node lat="65.11696110902562" lon="11.677369441129285" id="-34168">
		<tag k="name" v="Korsholmslettå" />
		<tag k="place" v="locality" />
		<tag k="ssr:stedsnr" v="470188" />
	</node>
	<node lat="65.05511388815934" lon="11.790636104778201" id="-34171">
		<tag k="name" v="Olderklompen" />
		<tag k="natural" v="hill" />
		<tag k="place" v="locality" />
		<tag k="ssr:stedsnr" v="470874" />
	</node>
	<node lat="65.06283611078625" lon="11.635836119352474" id="-34172">
		<tag k="name" v="Mekjerringbakkan" />
=======
<osm generator="osmapis" version="0.6">
	<node id="-792575" lat="65.1053138914" lon="11.5712333415">
		<tag k="name" v="Valhaugen" />
		<tag k="natural" v="hill" />
		<tag k="place" v="locality" />
		<tag k="ssr:stedsnr" v="168695" />
	</node>
	<node id="-793085" lat="65.0934611124" lon="11.8842722258">
		<tag k="name" v="Dumålskardet" />
		<tag k="natural" v="valley" />
		<tag k="place" v="locality" />
		<tag k="ssr:stedsnr" v="953853" />
	</node>
	<node id="-792572" lat="65.052824998" lon="11.544036112">
		<tag k="name" v="Liss-Størhusberget" />
		<tag k="natural" v="hill" />
		<tag k="place" v="locality" />
		<tag k="ssr:stedsnr" v="167934" />
	</node>
	<node id="-792571" lat="65.0512777776" lon="11.5399361129">
		<tag k="name" v="Korsvikberget" />
		<tag k="natural" v="hill" />
		<tag k="place" v="locality" />
		<tag k="ssr:stedsnr" v="167932" />
	</node>
	<node id="-792057" lat="65.1312305524" lon="11.9222777851">
		<tag k="name" v="Holdalsfjellet" />
		<tag k="natural" v="hill" />
		<tag k="place" v="locality" />
		<tag k="ssr:stedsnr" v="403104" />
	</node>
	<node id="-792567" lat="65.0990722188" lon="11.5991277725">
		<tag k="fixme" v="consider natural=peak for the most distinct mountains in the district" />
		<tag k="name" v="Ytter Mannatinden" />
		<tag k="natural" v="hill" />
		<tag k="place" v="locality" />
		<tag k="ssr:stedsnr" v="167730" />
	</node>
	<node id="-793074" lat="65.1182527749" lon="11.9020944398">
		<tag k="alt_name" v="Stor-Binndalen" />
		<tag k="name" v="Storbindalen" />
		<tag k="natural" v="valley" />
		<tag k="place" v="locality" />
		<tag k="ssr:stedsnr" v="864950" />
	</node>
	<node id="-792049" lat="65.0549638885" lon="11.5920916616">
		<tag k="fixme" v="consider natural=peak for the most distinct mountains in the district" />
		<tag k="name" v="Stortinden" />
		<tag k="natural" v="hill" />
		<tag k="place" v="locality" />
		<tag k="ssr:stedsnr" v="500808" />
	</node>
	<node id="-792038" lat="65.1078138914" lon="11.9398583297">
		<tag k="fixme" v="consider natural=peak for the most distinct mountains in the district" />
		<tag k="name" v="Riskamman" />
		<tag k="natural" v="hill" />
		<tag k="place" v="locality" />
		<tag k="ssr:stedsnr" v="500956" />
	</node>
	<node id="-793060" lat="65.0783944483" lon="11.5948111203">
		<tag k="alt_name" v="Kolsettuvå" />
		<tag k="fixme" v="consider natural=peak for the most distinct mountains in the district" />
		<tag k="name" v="Kolsettuva" />
		<tag k="natural" v="hill" />
		<tag k="place" v="locality" />
		<tag k="ssr:stedsnr" v="864740" />
	</node>
	<node id="-792035" lat="65.1096527772" lon="11.7820027782">
		<tag k="name" v="Steggafjellet" />
		<tag k="natural" v="hill" />
		<tag k="place" v="locality" />
		<tag k="ssr:stedsnr" v="500002" />
	</node>
	<node id="-792033" lat="65.1215250036" lon="11.9256638893">
		<tag k="name" v="Dyrvollan" />
		<tag k="place" v="locality" />
		<tag k="ssr:stedsnr" v="499948" />
	</node>
	<node id="-792544" lat="65.0471333353" lon="11.5605972329">
		<tag k="fixme" v="consider natural=peak for the most distinct mountains in the district" />
		<tag k="name" v="Middagsaksla" />
		<tag k="natural" v="hill" />
		<tag k="place" v="locality" />
		<tag k="ssr:stedsnr" v="136786" />
	</node>
	<node id="-792543" lat="65.0541916654" lon="11.5480722261">
		<tag k="fixme" v="consider natural=peak for the most distinct mountains in the district" />
		<tag k="name" v="Størhusberget" />
		<tag k="natural" v="hill" />
		<tag k="place" v="locality" />
		<tag k="ssr:stedsnr" v="136783" />
	</node>
	<node id="-792020" lat="65.0473166695" lon="11.6699527775">
		<tag k="fixme" v="consider natural=peak for the most distinct mountains in the district" />
		<tag k="name" v="Ennesåsen" />
		<tag k="natural" v="hill" />
		<tag k="place" v="locality" />
		<tag k="ssr:stedsnr" v="378805" />
	</node>
	<node id="-792531" lat="65.0683111102" lon="11.6199944432">
		<tag k="name" v="Hårfjellet" />
		<tag k="natural" v="hill" />
		<tag k="place" v="locality" />
		<tag k="ssr:stedsnr" v="135774" />
	</node>
	<node id="-793042" lat="65.067311111" lon="11.5753722282">
		<tag k="fixme" v="consider natural=peak for the most distinct mountains in the district" />
		<tag k="name" v="Løvå" />
		<tag k="natural" v="hill" />
		<tag k="ssr:stedsnr" v="848667" />
	</node>
	<node id="-793038" lat="65.1023833375" lon="11.7675055586">
		<tag k="name" v="Storvarden" />
		<tag k="natural" v="hill" />
		<tag k="place" v="locality" />
		<tag k="ssr:stedsnr" v="844949" />
	</node>
	<node id="-792009" lat="65.0454583304" lon="11.7959611069">
		<tag k="fixme" v="consider natural=peak for the most distinct mountains in the district" />
		<tag k="name" v="Hatten" />
		<tag k="natural" v="hill" />
		<tag k="ssr:stedsnr" v="349917" />
	</node>
	<node id="-792520" lat="65.1038166652" lon="11.6642388802">
		<tag k="name" v="Jensmyrklavin" />
		<tag k="natural" v="slope" />
		<tag k="place" v="locality" />
		<tag k="ssr:stedsnr" v="107821" />
	</node>
	<node id="-793031" lat="65.0949361146" lon="11.6439472249">
		<tag k="name" v="Nessvasskleiva" />
		<tag k="natural" v="slope" />
		<tag k="place" v="locality" />
		<tag k="ssr:stedsnr" v="835743" />
	</node>
	<node id="-792006" lat="65.0849083325" lon="11.5522749909">
		<tag k="name" v="Storvasshaugen" />
		<tag k="natural" v="hill" />
		<tag k="place" v="locality" />
		<tag k="ssr:stedsnr" v="349705" />
	</node>
	<node id="-792993" lat="65.0425916691" lon="11.7632750082">
		<tag k="name" v="Sandhalsdalan" />
		<tag k="natural" v="valley" />
		<tag k="place" v="locality" />
		<tag k="ssr:stedsnr" v="803102" />
	</node>
	<node id="-793025" lat="65.082044446" lon="11.9126972303">
		<tag k="name" v="Gruppfjellet" />
		<tag k="natural" v="hill" />
		<tag k="place" v="locality" />
		<tag k="ssr:stedsnr" v="832858" />
	</node>
	<node id="-793024" lat="65.0971000037" lon="11.8996666706">
		<tag k="name" v="Sørlia" />
		<tag k="natural" v="slope" />
		<tag k="place" v="locality" />
		<tag k="ssr:stedsnr" v="832854" />
	</node>
	<node id="-793023" lat="65.1130888858" lon="11.9364833318">
		<tag k="name" v="Nordgutviklian" />
		<tag k="natural" v="slope" />
		<tag k="place" v="locality" />
		<tag k="ssr:stedsnr" v="832848" />
	</node>
	<node id="-791998" lat="65.1153666682" lon="11.926324991">
		<tag k="name" v="Stor-Hestdalen" />
		<tag k="natural" v="valley" />
		<tag k="place" v="locality" />
		<tag k="ssr:stedsnr" v="346126" />
	</node>
	<node id="-791997" lat="65.1237916639" lon="11.8933138911">
		<tag k="name" v="Hemmulhaugen" />
		<tag k="natural" v="hill" />
		<tag k="place" v="locality" />
		<tag k="ssr:stedsnr" v="346123" />
	</node>
	<node id="-791996" lat="65.1368694486" lon="11.9269722322">
		<tag k="name" v="Hestlia" />
		<tag k="natural" v="valley" />
		<tag k="place" v="locality" />
		<tag k="ssr:stedsnr" v="346109" />
	</node>
	<node id="-792505" lat="65.1032472243" lon="11.7401944539">
		<tag k="fixme" v="consider natural=peak for the most distinct mountains in the district" />
		<tag k="name" v="Geitastifjellet" />
		<tag k="natural" v="hill" />
		<tag k="place" v="locality" />
		<tag k="ssr:stedsnr" v="106368" />
	</node>
	<node id="-793016" lat="65.1021250034" lon="11.8511166629">
		<tag k="name" v="Rota" />
		<tag k="natural" v="ridge" />
		<tag k="place" v="locality" />
		<tag k="ssr:stedsnr" v="827890" />
	</node>
	<node id="-792502" lat="65.1112027746" lon="11.6719527849">
		<tag k="fixme" v="consider natural=peak for the most distinct mountains in the district" />
		<tag k="name" v="Åsen" />
		<tag k="natural" v="hill" />
		<tag k="place" v="locality" />
		<tag k="ssr:stedsnr" v="106205" />
	</node>
	<node id="-791989" lat="65.0786253198" lon="11.6117040645">
		<tag k="alt_name" v="Vattinden" />
		<tag k="fixme" v="consider natural=peak for the most distinct mountains in the district" />
		<tag k="name" v="Vattin" />
		<tag k="natural" v="hill" />
		<tag k="place" v="locality" />
		<tag k="ssr:stedsnr" v="317654" />
	</node>
	<node id="-792990" lat="65.0568555527" lon="11.8295861068">
		<tag k="name" v="Stordalen" />
		<tag k="natural" v="valley" />
		<tag k="place" v="locality" />
		<tag k="ssr:stedsnr" v="803097" />
	</node>
	<node id="-792498" lat="65.0850944488" lon="11.8817166634">
		<tag k="name" v="Tverralia" />
		<tag k="natural" v="slope" />
		<tag k="place" v="locality" />
		<tag k="ssr:stedsnr" v="103849" />
	</node>
	<node id="-793008" lat="65.0941083308" lon="11.8420277694">
		<tag k="fixme" v="consider natural=peak for the most distinct mountains in the district" />
		<tag k="name" v="Vedvikhaugan" />
		<tag k="natural" v="hill" />
		<tag k="place" v="locality" />
		<tag k="ssr:stedsnr" v="804066" />
	</node>
	<node id="-792494" lat="65.116722223" lon="11.9004527834">
		<tag k="name" v="Amundsgrova" />
		<tag k="natural" v="valley" />
		<tag k="place" v="locality" />
		<tag k="ssr:stedsnr" v="103132" />
	</node>
	<node id="-792493" lat="65.130291665" lon="11.9087805589">
		<tag k="name" v="Sundsvikhoven" />
		<tag k="natural" v="hill" />
		<tag k="place" v="locality" />
		<tag k="ssr:stedsnr" v="103116" />
	</node>
	<node id="-791979" lat="65.1183416701" lon="11.6658083236">
		<tag k="name" v="Kjinnholmtuvå" />
		<tag k="natural" v="hill" />
		<tag k="place" v="locality" />
		<tag k="ssr:stedsnr" v="471793" />
	</node>
	<node id="-792988" lat="65.0828111071" lon="11.7143611038">
		<tag k="name" v="Steinberget" />
		<tag k="natural" v="hill" />
		<tag k="place" v="locality" />
		<tag k="ssr:stedsnr" v="788115" />
	</node>
	<node id="-793073" lat="65.1052249988" lon="11.7609194354">
		<tag k="name" v="Ivarshallaren" />
		<tag k="natural" v="hill" />
		<tag k="place" v="locality" />
		<tag k="ssr:stedsnr" v="864947" />
	</node>
	<node id="-791972" lat="65.0592055557" lon="11.612997228">
		<tag k="name" v="Unnlendå" />
>>>>>>> e1d4bc35ff8a6074a6f2e91616a996b547c36f15
		<tag k="natural" v="slope" />
		<tag k="old_name" v="Mekjærringbakkan" />
		<tag k="place" v="locality" />
<<<<<<< HEAD
		<tag k="ssr:stedsnr" v="470959" />
	</node>
	<node lat="65.11834167005708" lon="11.665808323624761" id="-34176">
		<tag k="name" v="Kjinnholmtuvå" />
		<tag k="natural" v="hill" />
		<tag k="place" v="locality" />
		<tag k="ssr:stedsnr" v="471793" />
	</node>
	<node lat="65.11376944372752" lon="11.702572212175921" id="-34177">
		<tag k="name" v="Mallatuvå" />
		<tag k="natural" v="hill" />
		<tag k="place" v="locality" />
		<tag k="ssr:stedsnr" v="471830" />
	</node>
	<node lat="65.13686944857176" lon="11.926972232189232" id="-34181">
		<tag k="name" v="Hestlia" />
		<tag k="natural" v="valley" />
		<tag k="place" v="locality" />
		<tag k="ssr:stedsnr" v="346109" />
	</node>
	<node lat="65.12379166393855" lon="11.893313891115877" id="-34182">
		<tag k="name" v="Hemmulhaugen" />
		<tag k="natural" v="hill" />
		<tag k="place" v="locality" />
		<tag k="ssr:stedsnr" v="346123" />
	</node>
	<node lat="65.11536666816664" lon="11.926324990960786" id="-34183">
		<tag k="name" v="Stor-Hestdalen" />
		<tag k="natural" v="valley" />
		<tag k="place" v="locality" />
		<tag k="ssr:stedsnr" v="346126" />
	</node>
	<node lat="65.06329722596139" lon="11.569583337567893" id="-34185">
		<tag k="name" v="Møla" />
		<tag k="place" v="locality" />
		<tag k="ssr:stedsnr" v="348361" />
	</node>
	<node lat="65.10939721831377" lon="11.670472225694269" id="-34191">
		<tag k="name" v="Kleivan" />
		<tag k="natural" v="slope" />
		<tag k="place" v="locality" />
		<tag k="ssr:stedsnr" v="349810" />
	</node>
	<node lat="65.08490833245781" lon="11.55227499087636" id="-34195">
		<tag k="name" v="Storvasshaugen" />
		<tag k="natural" v="hill" />
		<tag k="place" v="locality" />
		<tag k="ssr:stedsnr" v="349705" />
	</node>
	<node lat="65.06203889206809" lon="11.826336101964488" id="-34197">
		<tag k="fixme" v="consider natural=peak for the most distinct mountains in the district" />
		<tag k="name" v="Rossviktuva" />
		<tag k="natural" v="hill" />
		<tag k="place" v="locality" />
		<tag k="ssr:stedsnr" v="349908" />
	</node>
	<node lat="65.04545833035414" lon="11.795961106948125" id="-34198">
		<tag k="fixme" v="consider natural=peak for the most distinct mountains in the district" />
		<tag k="name" v="Hatten" />
		<tag k="natural" v="hill" />
		<tag k="place" v="locality" />
		<tag k="ssr:stedsnr" v="349917" />
	</node>
	<node lat="65.0575833366207" lon="11.685847223202952" id="-34210">
		<tag k="fixme" v="consider natural=peak for the most distinct mountains in the district" />
		<tag k="name" v="Haliberget" />
		<tag k="natural" v="hill" />
		<tag k="place" v="locality" />
		<tag k="ssr:stedsnr" v="378804" />
	</node>
	<node lat="65.04731666950023" lon="11.669952777544157" id="-34211">
		<tag k="fixme" v="consider natural=peak for the most distinct mountains in the district" />
		<tag k="name" v="Ennesåsen" />
		<tag k="natural" v="hill" />
		<tag k="place" v="locality" />
		<tag k="ssr:stedsnr" v="378805" />
	</node>
	<node lat="65.13123055237256" lon="11.922277785069102" id="-34218">
		<tag k="name" v="Holdalsfjellet" />
		<tag k="natural" v="hill" />
		<tag k="place" v="locality" />
		<tag k="ssr:stedsnr" v="403104" />
	</node>
	<node lat="65.13594444377573" lon="11.920108336066" id="-34220">
		<tag k="name" v="Høgberget" />
		<tag k="natural" v="hill" />
		<tag k="place" v="locality" />
		<tag k="ssr:stedsnr" v="407131" />
	</node>
	<node lat="65.05791111211977" lon="11.600749990565236" id="-34222">
		<tag k="name" v="Svartholet" />
		<tag k="natural" v="valley" />
		<tag k="place" v="locality" />
		<tag k="ssr:stedsnr" v="409953" />
	</node>
	<node lat="65.04754166901225" lon="11.670786101538289" id="-34223">
		<tag k="name" v="Endesåsen" />
		<tag k="natural" v="hill" />
		<tag k="place" v="locality" />
		<tag k="ssr:stedsnr" v="410391" />
	</node>
	<node lat="65.04298610940008" lon="11.675127774652976" id="-34224">
		<tag k="name" v="Ovdhaugen" />
		<tag k="natural" v="hill" />
		<tag k="place" v="locality" />
		<tag k="ssr:stedsnr" v="410392" />
	</node>
	<node lat="65.05710000348556" lon="11.549738889803578" id="-34227">
		<tag k="name" v="Påiberget" />
		<tag k="natural" v="hill" />
		<tag k="place" v="locality" />
		<tag k="ssr:stedsnr" v="410898" />
	</node>
	<node lat="65.13392222235433" lon="11.715294437475375" id="-34229">
		<tag k="name" v="Konradbua" />
		<tag k="place" v="locality" />
		<tag k="ssr:stedsnr" v="411903" />
	</node>
	<node lat="65.05283055681537" lon="11.573527767829658" id="-34242">
		<tag k="fixme" v="consider natural=peak for the most distinct mountains in the district" />
		<tag k="name" v="Lekmøyhammaren" />
=======
		<tag k="ssr:stedsnr" v="470961" />
	</node>
	<node id="-791971" lat="65.0628361108" lon="11.6358361194">
		<tag k="name" v="Mekjerringbakkan" />
		<tag k="natural" v="slope" />
		<tag k="old_name" v="Mekjærringbakkan" />
		<tag k="place" v="locality" />
		<tag k="ssr:stedsnr" v="470959" />
	</node>
	<node id="-791969" lat="65.0965055522" lon="11.7061055478">
		<tag k="name" v="Tinghaugen" />
		<tag k="natural" v="slope" />
		<tag k="place" v="locality" />
		<tag k="ssr:stedsnr" v="470921" />
	</node>
	<node id="-791968" lat="65.0551138882" lon="11.7906361048">
		<tag k="name" v="Olderklompen" />
		<tag k="natural" v="hill" />
		<tag k="place" v="locality" />
		<tag k="ssr:stedsnr" v="470874" />
	</node>
	<node id="-791966" lat="65.0477666684" lon="11.5958916586">
		<tag k="name" v="Lissvarden" />
		<tag k="natural" v="hill" />
		<tag k="place" v="locality" />
		<tag k="ssr:stedsnr" v="470315" />
	</node>
	<node id="-791965" lat="65.0519944412" lon="11.5969861019">
		<tag k="name" v="Skjurarævå" />
		<tag k="natural" v="valley" />
		<tag k="place" v="locality" />
		<tag k="ssr:stedsnr" v="470265" />
	</node>
	<node id="-791964" lat="65.116961109" lon="11.6773694411">
		<tag k="name" v="Korsholmslettå" />
		<tag k="place" v="locality" />
		<tag k="ssr:stedsnr" v="470188" />
	</node>
	<node id="-791962" lat="65.0802944487" lon="11.6253694494">
		<tag k="fixme" v="consider natural=peak for the most distinct mountains in the district" />
		<tag k="name" v="Tverrfjellet" />
		<tag k="natural" v="hill" />
		<tag k="place" v="locality" />
		<tag k="ssr:stedsnr" v="303078" />
	</node>
	<node id="-791957" lat="65.1417138853" lon="11.9258638937">
		<tag k="name" v="Hestvikhaugen" />
		<tag k="natural" v="hill" />
		<tag k="place" v="locality" />
		<tag k="ssr:stedsnr" v="467104" />
	</node>
	<node id="-792980" lat="65.0980611081" lon="11.7467138791">
		<tag k="fixme" v="consider natural=peak for the most distinct mountains in the district" />
		<tag k="name" v="Sørlauvåsen" />
		<tag k="natural" v="hill" />
		<tag k="place" v="locality" />
		<tag k="ssr:stedsnr" v="783947" />
	</node>
	<node id="-792978" lat="65.093694441" lon="11.571855559">
		<tag k="name" v="Sjyslettå" />
		<tag k="place" v="locality" />
		<tag k="ssr:stedsnr" v="775695" />
	</node>
	<node id="-792899" lat="65.1166083295" lon="11.8816611134">
		<tag k="name" v="Middagshaugen" />
		<tag k="natural" v="hill" />
		<tag k="place" v="locality" />
		<tag k="ssr:stedsnr" v="649118" />
	</node>
	<node id="-792463" lat="65.0851694421" lon="11.6948194454">
		<tag k="fixme" v="consider natural=peak for the most distinct mountains in the district" />
		<tag k="name" v="Stortinden" />
		<tag k="natural" v="hill" />
		<tag k="place" v="locality" />
		<tag k="ssr:stedsnr" v="75858" />
	</node>
	<node id="-791950" lat="65.0545638887" lon="11.7778944437">
		<tag k="name" v="Lauvdalen" />
		<tag k="natural" v="valley" />
		<tag k="place" v="locality" />
		<tag k="ssr:stedsnr" v="288875" />
	</node>
	<node id="-792973" lat="65.1111250016" lon="11.6788277858">
		<tag k="fixme" v="consider natural=peak for the most distinct mountains in the district" />
		<tag k="name" v="Ørnkulå" />
		<tag k="natural" v="hill" />
		<tag k="place" v="locality" />
		<tag k="ssr:stedsnr" v="774827" />
	</node>
	<node id="-791948" lat="65.1155277802" lon="11.6816583438">
		<tag k="name" v="Nausthaugan" />
		<tag k="natural" v="hill" />
		<tag k="place" v="locality" />
		<tag k="ssr:stedsnr" v="288206" />
	</node>
	<node id="-792459" lat="65.0685638845" lon="11.5857333398">
		<tag k="name" v="Trollvollan" />
		<tag k="place" v="locality" />
		<tag k="ssr:stedsnr" v="75848" />
	</node>
	<node id="-792458" lat="65.0604916651" lon="11.6024055537">
		<tag k="name" v="Vassdalen" />
		<tag k="natural" v="valley" />
		<tag k="place" v="locality" />
		<tag k="ssr:stedsnr" v="75847" />
	</node>
	<node id="-791945" lat="65.0941499977" lon="11.899750008">
		<tag k="fixme" v="consider natural=peak for the most distinct mountains in the district" />
		<tag k="name" v="Sørlituvå" />
>>>>>>> e1d4bc35ff8a6074a6f2e91616a996b547c36f15
		<tag k="natural" v="hill" />
		<tag k="ssr:stedsnr" v="285840" />
	</node>
	<node id="-791941" lat="65.1224249993" lon="11.9114361112">
		<tag k="name" v="Litlbindalskjerka" />
		<tag k="place" v="locality" />
<<<<<<< HEAD
		<tag k="ssr:stedsnr" v="439793" />
	</node>
	<node lat="65.14171388532715" lon="11.92586389373014" id="-34250">
		<tag k="name" v="Hestvikhaugen" />
		<tag k="natural" v="hill" />
		<tag k="place" v="locality" />
		<tag k="ssr:stedsnr" v="467104" />
	</node>
	<node lat="65.05199444115762" lon="11.596986101899475" id="-34252">
		<tag k="name" v="Skjurarævå" />
		<tag k="natural" v="valley" />
		<tag k="place" v="locality" />
		<tag k="ssr:stedsnr" v="470265" />
	</node>
	<node lat="65.04776666835346" lon="11.595891658571949" id="-34253">
		<tag k="name" v="Lissvarden" />
		<tag k="natural" v="hill" />
		<tag k="place" v="locality" />
		<tag k="ssr:stedsnr" v="470315" />
	</node>
	<node lat="65.09650555215767" lon="11.706105547833802" id="-34254">
		<tag k="name" v="Tinghaugen" />
		<tag k="natural" v="slope" />
		<tag k="place" v="locality" />
		<tag k="ssr:stedsnr" v="470921" />
	</node>
	<node lat="65.05920555570137" lon="11.61299722796883" id="-34256">
		<tag k="name" v="Unnlendå" />
		<tag k="natural" v="slope" />
		<tag k="place" v="locality" />
		<tag k="ssr:stedsnr" v="470961" />
	</node>
	<node lat="65.05496388851152" lon="11.592091661588633" id="-34281">
		<tag k="fixme" v="consider natural=peak for the most distinct mountains in the district" />
		<tag k="name" v="Stortinden" />
		<tag k="natural" v="hill" />
		<tag k="place" v="locality" />
		<tag k="ssr:stedsnr" v="500808" />
	</node>
	<node lat="65.10098889079552" lon="11.687647229006961" id="-34288">
		<tag k="fixme" v="consider natural=peak for the most distinct mountains in the district" />
		<tag k="name" v="Sørlauhatten" />
		<tag k="natural" v="hill" />
		<tag k="place" v="locality" />
		<tag k="ssr:stedsnr" v="681700" />
	</node>
	<node lat="65.11195000133907" lon="11.899761102105895" id="-34315">
		<tag k="name" v="Vasshammaren" />
		<tag k="natural" v="ridge" />
		<tag k="place" v="locality" />
		<tag k="ssr:stedsnr" v="528122" />
	</node>
	<node lat="65.11146110895042" lon="11.915586109475424" id="-34317">
		<tag k="fixme" v="consider natural=peak for the most distinct mountains in the district" />
		<tag k="name" v="Sønndalsliåsen" />
		<tag k="natural" v="hill" />
		<tag k="place" v="locality" />
		<tag k="ssr:stedsnr" v="528127" />
	</node>
	<node lat="65.07161388667691" lon="11.632852784018374" id="-34318">
		<tag k="name" v="Presthusskardet" />
		<tag k="natural" v="valley" />
		<tag k="place" v="locality" />
		<tag k="ssr:stedsnr" v="530909" />
	</node>
	<node lat="65.07510000055218" lon="11.528224996918869" id="-34319">
		<tag k="name" v="Hammaren" />
		<tag k="natural" v="hill" />
		<tag k="place" v="locality" />
		<tag k="ssr:stedsnr" v="531103" />
	</node>
	<node lat="65.1113472220191" lon="11.69195555643962" id="-34323">
		<tag k="name" v="Jetteskardet" />
		<tag k="natural" v="valley" />
		<tag k="place" v="locality" />
		<tag k="ssr:stedsnr" v="531029" />
	</node>
	<node lat="65.09615277628615" lon="11.710858337460278" id="-34325">
		<tag k="name" v="Nord-Olberget" />
		<tag k="natural" v="hill" />
		<tag k="place" v="locality" />
		<tag k="ssr:stedsnr" v="531971" />
	</node>
	<node lat="65.11336666799778" lon="11.654441671451801" id="-34326">
		<tag k="fixme" v="consider natural=peak for the most distinct mountains in the district" />
		<tag k="name" v="Ytteråsen" />
		<tag k="natural" v="hill" />
		<tag k="place" v="locality" />
		<tag k="ssr:stedsnr" v="532779" />
	</node>
	<node lat="65.1062750011818" lon="11.878066668393354" id="-34330">
		<tag k="alt_name" v="Hårnfjellet" />
		<tag k="fixme" v="consider natural=peak for the most distinct mountains in the district" />
		<tag k="name" v="Hornfjellet" />
		<tag k="natural" v="hill" />
		<tag k="place" v="locality" />
		<tag k="ssr:stedsnr" v="560004" />
	</node>
	<node lat="65.08729721980234" lon="11.6596333433826" id="-34335">
		<tag k="fixme" v="consider natural=peak for the most distinct mountains in the district" />
		<tag k="name" v="Størvet" />
		<tag k="natural" v="hill" />
		<tag k="place" v="locality" />
		<tag k="ssr:stedsnr" v="560701" />
	</node>
	<node lat="65.105324999061" lon="11.701766676854824" id="-34356">
		<tag k="name" v="Heiskardet" />
		<tag k="natural" v="valley" />
		<tag k="place" v="locality" />
		<tag k="ssr:stedsnr" v="591112" />
	</node>
	<node lat="65.07443888570171" lon="11.55231388656626" id="-34357">
		<tag k="name" v="Elvhaugen" />
		<tag k="natural" v="hill" />
		<tag k="place" v="locality" />
		<tag k="ssr:stedsnr" v="591406" />
	</node>
	<node lat="65.07360833178093" lon="11.585002776628592" id="-34358">
		<tag k="name" v="Klubben" />
		<tag k="natural" v="hill" />
		<tag k="place" v="locality" />
		<tag k="ssr:stedsnr" v="591408" />
	</node>
	<node lat="65.05144444428207" lon="11.690402776407343" id="-34359">
		<tag k="name" v="Blommerbekkhaugen" />
		<tag k="natural" v="hill" />
		<tag k="place" v="locality" />
		<tag k="ssr:stedsnr" v="591354" />
	</node>
	<node lat="65.04290833067533" lon="11.601358333397574" id="-34360">
		<tag k="name" v="Stongtuvå" />
		<tag k="natural" v="hill" />
		<tag k="place" v="locality" />
		<tag k="ssr:stedsnr" v="591362" />
	</node>
	<node lat="65.085988885325" lon="11.538861101212664" id="-34361">
		<tag k="name" v="Brenthaugen" />
		<tag k="natural" v="hill" />
		<tag k="place" v="locality" />
		<tag k="ssr:stedsnr" v="591625" />
	</node>
	<node lat="65.10254444153098" lon="11.715394448336248" id="-34363">
		<tag k="name" v="Skardhaugen" />
		<tag k="natural" v="hill" />
		<tag k="place" v="locality" />
		<tag k="ssr:stedsnr" v="591972" />
	</node>
	<node lat="65.11322499960839" lon="11.641469436850475" id="-34364">
		<tag k="name" v="Nausthaugen" />
		<tag k="natural" v="hill" />
		<tag k="place" v="locality" />
		<tag k="ssr:stedsnr" v="592825" />
	</node>
	<node lat="65.09092777983895" lon="11.617558337330504" id="-34367">
		<tag k="fixme" v="consider natural=peak for the most distinct mountains in the district" />
		<tag k="name" v="Branden" />
		<tag k="natural" v="hill" />
		<tag k="place" v="locality" />
		<tag k="ssr:stedsnr" v="620684" />
	</node>
	<node lat="65.06817777440693" lon="11.563533343118952" id="-34376">
		<tag k="fixme" v="consider natural=peak for the most distinct mountains in the district" />
		<tag k="name" v="Raudberget" />
		<tag k="natural" v="hill" />
		<tag k="place" v="locality" />
		<tag k="ssr:stedsnr" v="621812" />
	</node>
	<node lat="65.13746111460514" lon="11.91176388413185" id="-34382">
		<tag k="name" v="Raudhammaren" />
		<tag k="natural" v="hill" />
		<tag k="place" v="locality" />
		<tag k="ssr:stedsnr" v="621985" />
	</node>
	<node lat="65.11660832949056" lon="11.881661113362066" id="-34388">
		<tag k="name" v="Middagshaugen" />
		<tag k="natural" v="hill" />
		<tag k="place" v="locality" />
		<tag k="ssr:stedsnr" v="649118" />
	</node>
	<node lat="65.12463611204875" lon="11.935947217110668" id="-34389">
		<tag k="fixme" v="consider natural=peak for the most distinct mountains in the district" />
		<tag k="name" v="Vester Romsgarden" />
		<tag k="natural" v="hill" />
		<tag k="place" v="locality" />
		<tag k="ssr:stedsnr" v="649125" />
	</node>
	<node lat="65.05293611291334" lon="11.592047215088472" id="-34391">
		<tag k="name" v="Ørnskogmoen" />
		<tag k="place" v="locality" />
		<tag k="ssr:stedsnr" v="652208" />
	</node>
	<node lat="65.04566110954269" lon="11.58783888885385" id="-34392">
		<tag k="name" v="Årdalshaugen" />
=======
		<tag k="ssr:stedsnr" v="257966" />
	</node>
	<node id="-791940" lat="65.1213055528" lon="11.9282388989">
		<tag k="fixme" v="consider natural=peak for the most distinct mountains in the district" />
		<tag k="name" v="Holdåsfjellet" />
		<tag k="natural" v="hill" />
		<tag k="place" v="locality" />
		<tag k="ssr:stedsnr" v="257964" />
	</node>
	<node id="-792981" lat="65.1007027778" lon="11.7538888826">
		<tag k="fixme" v="consider natural=peak for the most distinct mountains in the district" />
		<tag k="name" v="Nordlauvåsen" />
		<tag k="natural" v="hill" />
		<tag k="place" v="locality" />
		<tag k="ssr:stedsnr" v="783948" />
	</node>
	<node id="-791932" lat="65.1022166636" lon="11.8596666636">
		<tag k="name" v="Heia" />
		<tag k="natural" v="slope" />
		<tag k="place" v="locality" />
		<tag k="ssr:stedsnr" v="257005" />
	</node>
	<node id="-792443" lat="65.1163194462" lon="11.7858805658">
		<tag k="name" v="Fagnahaugan" />
		<tag k="natural" v="hill" />
		<tag k="place" v="locality" />
		<tag k="ssr:stedsnr" v="58707" />
	</node>
	<node id="-792954" lat="65.1154333291" lon="11.9080277804">
		<tag k="name" v="Dyrvollheia" />
		<tag k="natural" v="hill" />
		<tag k="place" v="locality" />
		<tag k="ssr:stedsnr" v="771133" />
	</node>
	<node id="-791929" lat="65.0448305591" lon="11.7771222145">
		<tag k="alt_name" v="Reppahagan" />
		<tag k="name" v="Joengholet" />
		<tag k="natural" v="valley" />
		<tag k="place" v="locality" />
		<tag k="ssr:stedsnr" v="228903" />
	</node>
	<node id="-791928" lat="65.1020250032" lon="11.7360888787">
		<tag k="name" v="Bremmeshaugen" />
		<tag k="natural" v="hill" />
		<tag k="place" v="locality" />
		<tag k="ssr:stedsnr" v="228704" />
	</node>
	<node id="-792437" lat="65.0908861101" lon="11.5983055499">
		<tag k="fixme" v="consider natural=peak for the most distinct mountains in the district" />
		<tag k="name" v="Sparbulifjellet" />
		<tag k="natural" v="hill" />
		<tag k="place" v="locality" />
		<tag k="ssr:stedsnr" v="47694" />
	</node>
	<node id="-792436" lat="65.1072472246" lon="11.6074444533">
		<tag k="name" v="Brattskogan" />
		<tag k="natural" v="slope" />
		<tag k="place" v="locality" />
		<tag k="ssr:stedsnr" v="46800" />
	</node>
	<node id="-791870" lat="65.0551194406" lon="11.5648611165">
		<tag k="name" v="Melan" />
		<tag k="place" v="locality" />
		<tag k="ssr:stedsnr" v="289944" />
	</node>
	<node id="-792943" lat="65.1293833337" lon="11.9018138978">
		<tag k="name" v="Stigen" />
		<tag k="natural" v="hill" />
		<tag k="place" v="locality" />
		<tag k="ssr:stedsnr" v="767100" />
	</node>
	<node id="-791916" lat="65.1200305556" lon="11.8788111012">
		<tag k="alt_name" v="Haugen" />
		<tag k="name" v="Nausthaugen" />
		<tag k="natural" v="hill" />
		<tag k="place" v="locality" />
		<tag k="ssr:stedsnr" v="439952" />
	</node>
	<node id="-791915" lat="65.1443666639" lon="11.9474055494">
		<tag k="name" v="Sørdalen" />
		<tag k="natural" v="valley" />
		<tag k="place" v="locality" />
		<tag k="ssr:stedsnr" v="439895" />
	</node>
	<node id="-792938" lat="65.1374138866" lon="11.7348111076">
		<tag k="name" v="Kalven" />
		<tag k="natural" v="hill" />
		<tag k="place" v="locality" />
		<tag k="ssr:stedsnr" v="744000" />
	</node>
	<node id="-792936" lat="65.0575999977" lon="11.5535499999">
		<tag k="name" v="Langhalsberget" />
		<tag k="natural" v="hill" />
		<tag k="place" v="locality" />
		<tag k="ssr:stedsnr" v="743789" />
	</node>
	<node id="-792421" lat="65.110263892" lon="11.9250722182">
		<tag k="name" v="Melian" />
		<tag k="natural" v="slope" />
		<tag k="place" v="locality" />
		<tag k="ssr:stedsnr" v="43118" />
	</node>
	<node id="-792419" lat="65.1198472189" lon="11.8939083322">
		<tag k="name" v="Toppskardhaugen" />
		<tag k="natural" v="hill" />
		<tag k="place" v="locality" />
		<tag k="ssr:stedsnr" v="43116" />
	</node>
	<node id="-792418" lat="65.1132472266" lon="11.9088111067">
		<tag k="name" v="Vassmarkheia" />
		<tag k="natural" v="hill" />
		<tag k="place" v="locality" />
		<tag k="ssr:stedsnr" v="43114" />
	</node>
	<node id="-792850" lat="65.1025444415" lon="11.7153944483">
		<tag k="name" v="Skardhaugen" />
		<tag k="natural" v="hill" />
		<tag k="place" v="locality" />
		<tag k="ssr:stedsnr" v="591972" />
	</node>
	<node id="-792927" lat="65.0974722257" lon="11.5984583399">
		<tag k="alt_name" v="Inner Mannatinden" />
		<tag k="fixme" v="consider natural=peak for the most distinct mountains in the district" />
		<tag k="name" v="Mannatinden" />
		<tag k="natural" v="hill" />
		<tag k="place" v="locality" />
		<tag k="ssr:stedsnr" v="742683" />
	</node>
	<node id="-792414" lat="65.0901444424" lon="11.8732388789">
		<tag k="fixme" v="consider natural=peak for the most distinct mountains in the district" />
		<tag k="name" v="Ramtinden" />
		<tag k="natural" v="hill" />
		<tag k="ssr:stedsnr" v="38892" />
	</node>
	<node id="-792513" lat="65.0463138903" lon="11.6662166608">
		<tag k="name" v="Endesåsen" />
		<tag k="natural" v="hill" />
		<tag k="place" v="locality" />
		<tag k="ssr:stedsnr" v="106923" />
	</node>
	<node id="-792916" lat="65.1029305541" lon="11.6380611028">
		<tag k="name" v="Galtin" />
		<tag k="natural" v="hill" />
		<tag k="place" v="locality" />
		<tag k="ssr:stedsnr" v="653725" />
	</node>
	<node id="-792400" lat="65.0969500006" lon="11.8551277813">
		<tag k="fixme" v="consider natural=peak for the most distinct mountains in the district" />
		<tag k="name" v="Stongfjellet" />
		<tag k="natural" v="hill" />
		<tag k="place" v="locality" />
		<tag k="ssr:stedsnr" v="15047" />
	</node>
	<node id="-792908" lat="65.0592999989" lon="11.5623500027">
		<tag k="name" v="Meberget" />
>>>>>>> e1d4bc35ff8a6074a6f2e91616a996b547c36f15
		<tag k="natural" v="hill" />
		<tag k="place" v="locality" />
		<tag k="ssr:stedsnr" v="652219" />
	</node>
<<<<<<< HEAD
	<node lat="65.10293055411871" lon="11.638061102841409" id="-34397">
		<tag k="name" v="Galtin" />
		<tag k="natural" v="hill" />
		<tag k="place" v="locality" />
		<tag k="ssr:stedsnr" v="653725" />
	</node>
	<node lat="65.13453333263313" lon="11.907261115130005" id="-34412">
		<tag k="name" v="Sundsvikåsen" />
		<tag k="natural" v="ridge" />
		<tag k="place" v="locality" />
		<tag k="ssr:stedsnr" v="710108" />
	</node>
	<node lat="65.14585833493246" lon="11.937502772710149" id="-34414">
		<tag k="name" v="Djupskardheia" />
		<tag k="natural" v="ridge" />
		<tag k="old_name" v="Djupskardfjellet" />
		<tag k="place" v="locality" />
		<tag k="ssr:stedsnr" v="892082" />
	</node>
	<node lat="65.05025555854212" lon="11.59355276828616" id="-34429">
		<tag k="name" v="Nord-Kukleppen" />
		<tag k="natural" v="hill" />
		<tag k="place" v="locality" />
		<tag k="ssr:stedsnr" v="895390" />
	</node>
	<node lat="65.07067500342424" lon="11.653633327207016" id="-34433">
		<tag k="name" v="Brikdalen" />
		<tag k="natural" v="valley" />
		<tag k="place" v="locality" />
		<tag k="ssr:stedsnr" v="895931" />
	</node>
	<node lat="65.09577222507912" lon="11.593097228397866" id="-34435">
		<tag k="name" v="Kattaberget" />
		<tag k="natural" v="hill" />
		<tag k="place" v="locality" />
		<tag k="ssr:stedsnr" v="896746" />
	</node>
	<node lat="65.10876111264477" lon="11.64460554983147" id="-34436">
		<tag k="name" v="Kvennhushaugen" />
		<tag k="natural" v="hill" />
		<tag k="place" v="locality" />
		<tag k="ssr:stedsnr" v="896818" />
	</node>
	<node lat="65.11059999853705" lon="11.633494442029916" id="-34438">
		<tag k="name" v="Kvalvikhaugen" />
		<tag k="natural" v="hill" />
		<tag k="place" v="locality" />
		<tag k="ssr:stedsnr" v="896825" />
	</node>
	<node lat="65.08333333051233" lon="11.87062778294827" id="-34442">
		<tag k="name" v="Svartflauget" />
		<tag k="natural" v="cliff" />
		<tag k="ssr:stedsnr" v="706865" />
	</node>
	<node lat="65.0816972209597" lon="11.701027773487086" id="-34447">
		<tag k="name" v="Bakkaklubben" />
		<tag k="natural" v="hill" />
		<tag k="place" v="locality" />
		<tag k="ssr:stedsnr" v="713101" />
	</node>
	<node lat="65.11640555804156" lon="11.672711114538433" id="-34448">
		<tag k="name" v="Brennmyrtuvån" />
		<tag k="natural" v="hill" />
		<tag k="place" v="locality" />
		<tag k="ssr:stedsnr" v="713202" />
	</node>
	<node lat="65.08798332933708" lon="11.558275006363496" id="-34450">
		<tag k="name" v="Gjerdåsen" />
		<tag k="natural" v="hill" />
		<tag k="place" v="locality" />
		<tag k="ssr:stedsnr" v="713687" />
	</node>
	<node lat="65.09747222569918" lon="11.598458339891582" id="-34459">
		<tag k="alt_name" v="Inner Mannatinden" />
		<tag k="fixme" v="consider natural=peak for the most distinct mountains in the district" />
		<tag k="name" v="Mannatinden" />
		<tag k="natural" v="hill" />
		<tag k="place" v="locality" />
		<tag k="ssr:stedsnr" v="742683" />
	</node>
	<node lat="65.10643610768197" lon="11.905636105283168" id="-34460">
		<tag k="fixme" v="consider natural=peak for the most distinct mountains in the district" />
		<tag k="name" v="Mølnåsen" />
		<tag k="natural" v="hill" />
		<tag k="place" v="locality" />
		<tag k="ssr:stedsnr" v="743006" />
	</node>
	<node lat="65.11462778041462" lon="11.698233334009739" id="-34462">
		<tag k="name" v="Senningan" />
		<tag k="place" v="locality" />
		<tag k="ssr:stedsnr" v="743691" />
	</node>
	<node lat="65.05759999766893" lon="11.553549999934429" id="-34464">
		<tag k="name" v="Langhalsberget" />
		<tag k="natural" v="hill" />
		<tag k="place" v="locality" />
		<tag k="ssr:stedsnr" v="743789" />
	</node>
	<node lat="65.12938333372244" lon="11.901813897788614" id="-34472">
		<tag k="name" v="Stigen" />
		<tag k="natural" v="hill" />
		<tag k="place" v="locality" />
		<tag k="ssr:stedsnr" v="767100" />
	</node>
	<node lat="65.10025277689844" lon="11.756952768855994" id="-34483">
		<tag k="name" v="Våttvikmoen" />
		<tag k="place" v="locality" />
		<tag k="ssr:stedsnr" v="773908" />
	</node>
	<node lat="65.1089388863197" lon="11.742049996389346" id="-34489">
		<tag k="name" v="Valhaugan" />
		<tag k="natural" v="hill" />
		<tag k="place" v="locality" />
		<tag k="ssr:stedsnr" v="774705" />
	</node>
	<node lat="65.09806110806976" lon="11.746713879116246" id="-34491">
		<tag k="fixme" v="consider natural=peak for the most distinct mountains in the district" />
		<tag k="name" v="Sørlauvåsen" />
		<tag k="natural" v="hill" />
		<tag k="place" v="locality" />
		<tag k="ssr:stedsnr" v="783947" />
	</node>
	<node lat="65.10070277782792" lon="11.753888882592985" id="-34492">
		<tag k="fixme" v="consider natural=peak for the most distinct mountains in the district" />
		<tag k="name" v="Nordlauvåsen" />
		<tag k="natural" v="hill" />
		<tag k="place" v="locality" />
		<tag k="ssr:stedsnr" v="783948" />
	</node>
	<node lat="65.0868972266979" lon="11.663338891675629" id="-34496">
		<tag k="fixme" v="consider natural=peak for the most distinct mountains in the district" />
		<tag k="name" v="Hundøyran" />
		<tag k="natural" v="hill" />
		<tag k="place" v="locality" />
		<tag k="ssr:stedsnr" v="803708" />
	</node>
	<node lat="65.09410833079365" lon="11.842027769405517" id="-34498">
		<tag k="fixme" v="consider natural=peak for the most distinct mountains in the district" />
		<tag k="name" v="Vedvikhaugan" />
		<tag k="natural" v="hill" />
		<tag k="place" v="locality" />
		<tag k="ssr:stedsnr" v="804066" />
	</node>
	<node lat="65.04791111129904" lon="11.79926943634342" id="-34502">
		<tag k="fixme" v="consider natural=peak for the most distinct mountains in the district" />
		<tag k="name" v="Reppafjellet" />
		<tag k="natural" v="hill" />
		<tag k="place" v="locality" />
		<tag k="ssr:stedsnr" v="835896" />
	</node>
	<node lat="65.13363055689008" lon="11.726824994085963" id="-34504">
		<tag k="name" v="Jernsøyhaugen" />
		<tag k="natural" v="hill" />
		<tag k="place" v="locality" />
		<tag k="ssr:stedsnr" v="835909" />
	</node>
	<node lat="65.07810278057096" lon="11.581875003035202" id="-34514">
		<tag k="name" v="Raudsteinfjellet" />
		<tag k="natural" v="hill" />
		<tag k="place" v="locality" />
		<tag k="ssr:stedsnr" v="924691" />
	</node>
	<node lat="65.11811666902275" lon="11.878008334290959" id="-34539">
		<tag k="name" v="Skardhaugen" />
		<tag k="natural" v="hill" />
		<tag k="place" v="locality" />
		<tag k="ssr:stedsnr" v="892124" />
	</node>
	<node lat="65.07588610847863" lon="11.54051944074259" id="-34548">
		<tag k="name" v="Stonghaugen" />
=======
	<node id="-792907" lat="65.0529361129" lon="11.5920472151">
		<tag k="name" v="Ørnskogmoen" />
		<tag k="place" v="locality" />
		<tag k="ssr:stedsnr" v="652208" />
	</node>
	<node id="-792904" lat="65.0712555553" lon="11.6712472218">
		<tag k="name" v="Kleiva" />
		<tag k="natural" v="slope" />
		<tag k="place" v="locality" />
		<tag k="ssr:stedsnr" v="652080" />
	</node>
	<node id="-792391" lat="65.1246055549" lon="11.8982222244">
		<tag k="name" v="Holdalen" />
		<tag k="natural" v="valley" />
		<tag k="place" v="locality" />
		<tag k="ssr:stedsnr" v="14940" />
	</node>
	<node id="-792901" lat="65.1157805562" lon="11.7094555536">
		<tag k="name" v="Ytter Kråkberget" />
		<tag k="natural" v="hill" />
		<tag k="place" v="locality" />
		<tag k="ssr:stedsnr" v="651147" />
	</node>
	<node id="-792900" lat="65.124636112" lon="11.9359472171">
		<tag k="fixme" v="consider natural=peak for the most distinct mountains in the district" />
		<tag k="name" v="Vester Romsgarden" />
		<tag k="natural" v="hill" />
		<tag k="ssr:stedsnr" v="649125" />
	</node>
	<node id="-792387" lat="65.0746416667" lon="11.6091277675">
		<tag k="fixme" v="consider natural=peak for the most distinct mountains in the district" />
		<tag k="name" v="Lekatinden" />
		<tag k="natural" v="hill" />
		<tag k="place" v="locality" />
		<tag k="ssr:stedsnr" v="14677" />
	</node>
	<node id="-791947" lat="65.1193166649" lon="11.6720666676">
		<tag k="name" v="Settarviktuvå" />
		<tag k="natural" v="hill" />
		<tag k="place" v="locality" />
		<tag k="ssr:stedsnr" v="288203" />
	</node>
	<node id="-792896" lat="65.1271861086" lon="11.8975444495">
		<tag k="name" v="Nord-Hemmulhaugen" />
		<tag k="natural" v="hill" />
		<tag k="place" v="locality" />
		<tag k="ssr:stedsnr" v="645099" />
	</node>
	<node id="-791871" lat="65.0718194405" lon="11.8897916763">
		<tag k="name" v="Tverravasslia" />
		<tag k="natural" v="slope" />
		<tag k="place" v="locality" />
		<tag k="ssr:stedsnr" v="290376" />
	</node>
	<node id="-792382" lat="65.1003722195" lon="11.6037472207">
		<tag k="fixme" v="consider natural=peak for the most distinct mountains in the district" />
		<tag k="name" v="Steinstinden" />
		<tag k="natural" v="hill" />
		<tag k="ssr:stedsnr" v="14654" />
	</node>
	<node id="-792893" lat="65.1374611146" lon="11.9117638841">
		<tag k="name" v="Raudhammaren" />
		<tag k="natural" v="hill" />
		<tag k="place" v="locality" />
		<tag k="ssr:stedsnr" v="621985" />
	</node>
	<node id="-792892" lat="65.1240305578" lon="11.9354305541">
		<tag k="alt_name" v="Blesså" />
		<tag k="fixme" v="consider natural=peak for the most distinct mountains in the district" />
		<tag k="name" v="Blessa" />
		<tag k="natural" v="hill" />
		<tag k="place" v="locality" />
		<tag k="ssr:stedsnr" v="621959" />
	</node>
	<node id="-792891" lat="65.1219777794" lon="11.9014499942">
		<tag k="alt_name" v="Liss-Binndalen" />
		<tag k="name" v="Litlbindalen" />
		<tag k="natural" v="valley" />
		<tag k="place" v="locality" />
		<tag k="ssr:stedsnr" v="621957" />
	</node>
	<node id="-791865" lat="65.1055861152" lon="11.6576277827">
		<tag k="name" v="Jensokhaugen" />
		<tag k="natural" v="hill" />
		<tag k="place" v="locality" />
		<tag k="ssr:stedsnr" v="289829" />
	</node>
	<node id="-791860" lat="65.1090833319" lon="11.6759388791">
		<tag k="name" v="Raudbergan" />
		<tag k="natural" v="hill" />
		<tag k="place" v="locality" />
		<tag k="ssr:stedsnr" v="288201" />
	</node>
	<node id="-792371" lat="65.0673555514" lon="11.8330555531">
		<tag k="fixme" v="consider natural=peak for the most distinct mountains in the district" />
		<tag k="name" v="Rossvikfjellet" />
		<tag k="natural" v="hill" />
		<tag k="place" v="locality" />
		<tag k="ssr:stedsnr" v="14066" />
	</node>
	<node id="-792883" lat="65.0681777744" lon="11.5635333431">
		<tag k="fixme" v="consider natural=peak for the most distinct mountains in the district" />
		<tag k="name" v="Raudberget" />
		<tag k="natural" v="hill" />
		<tag k="place" v="locality" />
		<tag k="ssr:stedsnr" v="621812" />
	</node>
	<node id="-791856" lat="65.0477361071" lon="11.5794750087">
		<tag k="name" v="Hatllia" />
		<tag k="natural" v="slope" />
		<tag k="place" v="locality" />
		<tag k="ssr:stedsnr" v="288235" />
	</node>
	<node id="-792972" lat="65.1030638853" lon="11.6432944344">
		<tag k="name" v="Måsfjellet" />
		<tag k="natural" v="hill" />
		<tag k="place" v="locality" />
		<tag k="ssr:stedsnr" v="774820" />
	</node>
	<node id="-792366" lat="65.1047412711" lon="11.872229936">
		<tag k="name" v="Ytter Hårnfjellet" />
		<tag k="natural" v="hill" />
		<tag k="place" v="locality" />
		<tag k="ssr:stedsnr" v="949104" />
	</node>
	<node id="-792989" lat="65.0778277748" lon="11.8232277793">
		<tag k="fixme" v="consider natural=peak for the most distinct mountains in the district" />
		<tag k="name" v="Klubben" />
>>>>>>> e1d4bc35ff8a6074a6f2e91616a996b547c36f15
		<tag k="natural" v="hill" />
		<tag k="place" v="locality" />
		<tag k="ssr:stedsnr" v="803057" />
	</node>
<<<<<<< HEAD
	<node lat="65.04271388646592" lon="11.664136116728804" id="-34550">
		<tag k="name" v="Ovdhaugen" />
		<tag k="natural" v="hill" />
		<tag k="place" v="locality" />
		<tag k="ssr:stedsnr" v="895913" />
	</node>
	<node lat="65.09906666398356" lon="11.751569439361177" id="-34553">
		<tag k="fixme" v="consider natural=peak for the most distinct mountains in the district" />
		<tag k="name" v="Midtlauvåsen" />
		<tag k="natural" v="hill" />
		<tag k="place" v="locality" />
		<tag k="ssr:stedsnr" v="905950" />
	</node>
	<node lat="65.10533888860348" lon="11.696750001806606" id="-34560">
		<tag k="fixme" v="consider natural=peak for the most distinct mountains in the district" />
		<tag k="name" v="Lauhatten" />
		<tag k="natural" v="hill" />
		<tag k="place" v="locality" />
		<tag k="ssr:stedsnr" v="925737" />
	</node>
	<node lat="65.10235000214382" lon="11.600044454121818" id="-34562">
		<tag k="fixme" v="consider natural=peak for the most distinct mountains in the district" />
		<tag k="name" v="Nerskardfjellet" />
		<tag k="natural" v="hill" />
		<tag k="place" v="locality" />
		<tag k="ssr:stedsnr" v="925745" />
	</node>
	<node lat="65.04905277981086" lon="11.588924992657907" id="-34568">
		<tag k="alt_name" v="Sør-Kukleppen" />
		<tag k="name" v="Kukleppen" />
		<tag k="natural" v="hill" />
		<tag k="place" v="locality" />
		<tag k="ssr:stedsnr" v="925808" />
	</node>
	<node lat="65.10474127106828" lon="11.872229935968612" id="-34576">
		<tag k="name" v="Ytter Hårnfjellet" />
		<tag k="natural" v="hill" />
		<tag k="place" v="locality" />
		<tag k="ssr:stedsnr" v="949104" />
	</node>
	<node lat="65.04858332890893" lon="11.683630565333322" id="-34581">
		<tag k="name" v="Eingrova" />
		<tag k="natural" v="valley" />
		<tag k="place" v="locality" />
		<tag k="ssr:stedsnr" v="956409" />
	</node>
	<node lat="65.08662499576049" lon="11.548500009101996" id="-34582">
		<tag k="name" v="Hansvikhaugen" />
		<tag k="natural" v="hill" />
		<tag k="place" v="locality" />
		<tag k="ssr:stedsnr" v="956694" />
	</node>
	<node lat="65.09515555994241" lon="11.570933334077168" id="-34586">
		<tag k="name" v="Sjyhaugen" />
		<tag k="natural" v="hill" />
		<tag k="place" v="locality" />
		<tag k="ssr:stedsnr" v="957698" />
	</node>
	<node lat="65.10828889244625" lon="11.663586115566494" id="-34591">
		<tag k="name" v="Åsen" />
		<tag k="natural" v="hill" />
		<tag k="place" v="locality" />
		<tag k="ssr:stedsnr" v="228823" />
	</node>
	<node lat="65.06735555139983" lon="11.833055553142886" id="-34593">
		<tag k="fixme" v="consider natural=peak for the most distinct mountains in the district" />
		<tag k="name" v="Rossvikfjellet" />
		<tag k="natural" v="hill" />
		<tag k="place" v="locality" />
		<tag k="ssr:stedsnr" v="14066" />
	</node>
	<node lat="65.10037221950881" lon="11.603747220702004" id="-34598">
		<tag k="fixme" v="consider natural=peak for the most distinct mountains in the district" />
		<tag k="name" v="Steinstinden" />
		<tag k="natural" v="hill" />
		<tag k="place" v="locality" />
		<tag k="ssr:stedsnr" v="14654" />
	</node>
	<node lat="65.10515555272026" lon="11.846452778734948" id="-34603">
		<tag k="name" v="Haugen" />
		<tag k="natural" v="hill" />
		<tag k="place" v="locality" />
		<tag k="ssr:stedsnr" v="14736" />
	</node>
	<node lat="65.12460555488674" lon="11.898222224387363" id="-34607">
		<tag k="name" v="Holdalen" />
		<tag k="natural" v="valley" />
		<tag k="place" v="locality" />
		<tag k="ssr:stedsnr" v="14940" />
	</node>
	<node lat="65.09695000057546" lon="11.855127781306445" id="-34610">
		<tag k="fixme" v="consider natural=peak for the most distinct mountains in the district" />
		<tag k="name" v="Stongfjellet" />
		<tag k="natural" v="hill" />
		<tag k="place" v="locality" />
		<tag k="ssr:stedsnr" v="15047" />
	</node>
	<node lat="65.0901444424005" lon="11.873238878922718" id="-34623">
		<tag k="fixme" v="consider natural=peak for the most distinct mountains in the district" />
		<tag k="name" v="Ramtinden" />
		<tag k="natural" v="hill" />
		<tag k="place" v="locality" />
		<tag k="ssr:stedsnr" v="38892" />
	</node>
	<node lat="65.10124999576387" lon="11.624880555040793" id="-34626">
		<tag k="name" v="Hagan" />
		<tag k="natural" v="slope" />
		<tag k="place" v="locality" />
		<tag k="ssr:stedsnr" v="41866" />
	</node>
	<node lat="65.11324722657947" lon="11.908811106702393" id="-34630">
		<tag k="name" v="Vassmarkheia" />
		<tag k="natural" v="hill" />
		<tag k="place" v="locality" />
		<tag k="ssr:stedsnr" v="43114" />
	</node>
	<node lat="65.11984721886267" lon="11.893908332183981" id="-34631">
		<tag k="name" v="Toppskardhaugen" />
		<tag k="natural" v="hill" />
		<tag k="place" v="locality" />
		<tag k="ssr:stedsnr" v="43116" />
	</node>
	<node lat="65.11026389199341" lon="11.925072218233316" id="-34633">
		<tag k="name" v="Melian" />
		<tag k="natural" v="slope" />
		<tag k="place" v="locality" />
		<tag k="ssr:stedsnr" v="43118" />
	</node>
	<node lat="65.10724722455937" lon="11.607444453338838" id="-34639">
		<tag k="name" v="Brattskogan" />
		<tag k="natural" v="slope" />
		<tag k="place" v="locality" />
		<tag k="ssr:stedsnr" v="46800" />
	</node>
	<node lat="65.09088611005411" lon="11.598305549896637" id="-34640">
		<tag k="fixme" v="consider natural=peak for the most distinct mountains in the district" />
		<tag k="name" v="Sparbulifjellet" />
		<tag k="natural" v="hill" />
		<tag k="place" v="locality" />
		<tag k="ssr:stedsnr" v="47694" />
	</node>
	<node lat="65.06049166508387" lon="11.602405553708717" id="-34657">
		<tag k="name" v="Vassdalen" />
		<tag k="natural" v="valley" />
		<tag k="place" v="locality" />
		<tag k="ssr:stedsnr" v="75847" />
	</node>
	<node lat="65.06856388446096" lon="11.585733339752865" id="-34658">
		<tag k="name" v="Trollvollan" />
		<tag k="place" v="locality" />
		<tag k="ssr:stedsnr" v="75848" />
	</node>
	<node lat="65.08516944213497" lon="11.694819445390785" id="-34662">
		<tag k="fixme" v="consider natural=peak for the most distinct mountains in the district" />
		<tag k="name" v="Stortinden" />
		<tag k="natural" v="hill" />
		<tag k="place" v="locality" />
		<tag k="ssr:stedsnr" v="75858" />
	</node>
	<node lat="65.0850944487673" lon="11.881716663381798" id="-34681">
		<tag k="name" v="Tverralia" />
		<tag k="natural" v="slope" />
		<tag k="place" v="locality" />
		<tag k="ssr:stedsnr" v="103849" />
	</node>
	<node lat="65.11120277460641" lon="11.671952784945802" id="-34685">
		<tag k="fixme" v="consider natural=peak for the most distinct mountains in the district" />
		<tag k="name" v="Åsen" />
		<tag k="natural" v="hill" />
		<tag k="place" v="locality" />
		<tag k="ssr:stedsnr" v="106205" />
	</node>
	<node lat="65.06608319175213" lon="11.57137263462866" id="-34688">
		<tag k="fixme" v="consider natural=peak for the most distinct mountains in the district" />
		<tag k="name" v="Geitastifjellet" />
		<tag k="natural" v="hill" />
		<tag k="place" v="locality" />
		<tag k="ssr:stedsnr" v="106368" />
	</node>
	<node lat="65.0683111102033" lon="11.619994443202353" id="-34705">
		<tag k="name" v="Hårfjellet" />
		<tag k="natural" v="hill" />
		<tag k="place" v="locality" />
		<tag k="ssr:stedsnr" v="135774" />
	</node>
	<node lat="65.05419166535688" lon="11.54807222605575" id="-34707">
		<tag k="fixme" v="consider natural=peak for the most distinct mountains in the district" />
		<tag k="name" v="Størhusberget" />
		<tag k="natural" v="hill" />
		<tag k="place" v="locality" />
		<tag k="ssr:stedsnr" v="136783" />
	</node>
	<node lat="65.04713333531637" lon="11.560597232887904" id="-34708">
		<tag k="fixme" v="consider natural=peak for the most distinct mountains in the district" />
		<tag k="name" v="Middagsaksla" />
		<tag k="natural" v="hill" />
		<tag k="place" v="locality" />
		<tag k="ssr:stedsnr" v="136786" />
	</node>
	<node lat="65.12435833165381" lon="11.723727773062917" id="-34724">
		<tag k="name" v="Hestkleiva" />
		<tag k="natural" v="slope" />
=======
	<node id="-791852" lat="65.0785194427" lon="11.6748666706">
		<tag k="fixme" v="consider natural=peak for the most distinct mountains in the district" />
		<tag k="name" v="Ramtindfjellet" />
		<tag k="natural" v="hill" />
		<tag k="place" v="locality" />
		<tag k="ssr:stedsnr" v="288113" />
	</node>
	<node id="-792362" lat="65.1105999985" lon="11.633494442">
		<tag k="name" v="Kvalvikhaugen" />
		<tag k="natural" v="hill" />
		<tag k="place" v="locality" />
		<tag k="ssr:stedsnr" v="896825" />
	</node>
	<node id="-792360" lat="65.1087611126" lon="11.6446055498">
		<tag k="name" v="Kvennhushaugen" />
		<tag k="natural" v="hill" />
		<tag k="place" v="locality" />
		<tag k="ssr:stedsnr" v="896818" />
	</node>
	<node id="-791772" lat="65.0560027775" lon="11.7011916729">
		<tag k="name" v="Langstrandhaugen" />
		<tag k="natural" v="hill" />
		<tag k="place" v="locality" />
		<tag k="ssr:stedsnr" v="228414" />
	</node>
	<node id="-792703" lat="65.1211916692" lon="11.7889499905">
		<tag k="name" v="Nøkkhaugan" />
		<tag k="natural" v="hill" />
		<tag k="place" v="locality" />
		<tag k="ssr:stedsnr" v="363093" />
	</node>
	<node id="-791845" lat="65.1173111107" lon="11.8722305653">
		<tag k="name" v="Buvikskardet" />
		<tag k="natural" v="valley" />
		<tag k="place" v="locality" />
		<tag k="ssr:stedsnr" v="281080" />
	</node>
	<node id="-791843" lat="65.1032472243" lon="11.7401944539">
		<tag k="name" v="Bossnesshaugen" />
		<tag k="natural" v="hill" />
		<tag k="place" v="locality" />
		<tag k="ssr:stedsnr" v="167907" />
	</node>
	<node id="-791771" lat="65.0956527801" lon="11.7103500018">
		<tag k="name" v="Olberget" />
		<tag k="natural" v="hill" />
		<tag k="place" v="locality" />
		<tag k="ssr:stedsnr" v="227951" />
	</node>
	<node id="-792352" lat="65.1277194458" lon="11.9079861133">
		<tag k="fixme" v="consider natural=peak for the most distinct mountains in the district" />
		<tag k="name" v="Øver Stigen" />
		<tag k="natural" v="hill" />
		<tag k="place" v="locality" />
		<tag k="ssr:stedsnr" v="949096" />
	</node>
	<node id="-792863" lat="65.0909277798" lon="11.6175583373">
		<tag k="fixme" v="consider natural=peak for the most distinct mountains in the district" />
		<tag k="name" v="Branden" />
		<tag k="natural" v="hill" />
		<tag k="place" v="locality" />
		<tag k="ssr:stedsnr" v="620684" />
	</node>
	<node id="-792347" lat="65.0778027752" lon="11.9032805578">
		<tag k="name" v="Gruppfjellet" />
		<tag k="natural" v="hill" />
		<tag k="place" v="locality" />
		<tag k="ssr:stedsnr" v="836362" />
	</node>
	<node id="-792346" lat="65.1100611087" lon="11.7173555465">
		<tag k="name" v="Nausthaugen" />
		<tag k="natural" v="hill" />
		<tag k="place" v="locality" />
		<tag k="ssr:stedsnr" v="835920" />
	</node>
	<node id="-792856" lat="65.080241668" lon="11.8853777856">
		<tag k="name" v="Karenholet" />
		<tag k="natural" v="valley" />
		<tag k="place" v="locality" />
		<tag k="ssr:stedsnr" v="593380" />
	</node>
	<node id="-792343" lat="65.1336305569" lon="11.7268249941">
		<tag k="name" v="Jernsøyhaugen" />
		<tag k="natural" v="hill" />
		<tag k="place" v="locality" />
		<tag k="ssr:stedsnr" v="835909" />
	</node>
	<node id="-792342" lat="65.1024555591" lon="11.6482805598">
		<tag k="name" v="Møssmørklubban" />
		<tag k="natural" v="hill" />
		<tag k="place" v="locality" />
		<tag k="ssr:stedsnr" v="835821" />
	</node>
	<node id="-791769" lat="65.0478194459" lon="11.602241666">
		<tag k="name" v="Lassåkerhaugen" />
		<tag k="natural" v="hill" />
		<tag k="place" v="locality" />
		<tag k="ssr:stedsnr" v="227976" />
	</node>
	<node id="-792338" lat="65.0447277783" lon="11.5735166566">
		<tag k="name" v="Oterskårå" />
		<tag k="natural" v="valley" />
		<tag k="place" v="locality" />
		<tag k="ssr:stedsnr" v="834269" />
	</node>
	<node id="-791825" lat="65.101277777" lon="11.9193027781">
		<tag k="alt_name" v="Korslian" />
		<tag k="name" v="Korslia" />
		<tag k="natural" v="slope" />
		<tag k="place" v="locality" />
		<tag k="ssr:stedsnr" v="136031" />
	</node>
	<node id="-792848" lat="65.0944833367" lon="11.7390000002">
		<tag k="name" v="Fårråhaugen" />
		<tag k="natural" v="hill" />
		<tag k="place" v="locality" />
		<tag k="ssr:stedsnr" v="591950" />
	</node>
	<node id="-792877" lat="65.0445499981" lon="11.5937250104">
		<tag k="name" v="Storvarden" />
		<tag k="natural" v="hill" />
		<tag k="place" v="locality" />
		<tag k="ssr:stedsnr" v="621782" />
	</node>
	<node id="-791820" lat="65.0654083295" lon="11.5836555585">
		<tag k="alt_name" v="Brekkå" />
		<tag k="name" v="Brekka" />
		<tag k="natural" v="slope" />
		<tag k="place" v="locality" />
		<tag k="ssr:stedsnr" v="257846" />
	</node>
	<node id="-792843" lat="65.0429083307" lon="11.6013583334">
		<tag k="name" v="Stongtuvå" />
		<tag k="natural" v="hill" />
		<tag k="place" v="locality" />
		<tag k="ssr:stedsnr" v="591362" />
	</node>
	<node id="-792842" lat="65.0514444443" lon="11.6904027764">
		<tag k="name" v="Blommerbekkhaugen" />
		<tag k="natural" v="hill" />
		<tag k="place" v="locality" />
		<tag k="ssr:stedsnr" v="591354" />
	</node>
	<node id="-792841" lat="65.1053249991" lon="11.7017666769">
		<tag k="name" v="Heiskardet" />
		<tag k="natural" v="valley" />
		<tag k="place" v="locality" />
		<tag k="ssr:stedsnr" v="591112" />
	</node>
	<node id="-792840" lat="65.1101138858" lon="11.6990944547">
		<tag k="name" v="Lauvhattslettå" />
		<tag k="place" v="locality" />
		<tag k="ssr:stedsnr" v="591086" />
	</node>
	<node id="-792839" lat="65.0552055544" lon="11.670230565">
		<tag k="name" v="Haugvikfjellet" />
		<tag k="natural" v="hill" />
		<tag k="place" v="locality" />
		<tag k="ssr:stedsnr" v="591351" />
	</node>
	<node id="-792321" lat="65.0490527798" lon="11.5889249927">
		<tag k="alt_name" v="Sør-Kukleppen" />
		<tag k="name" v="Kukleppen" />
		<tag k="natural" v="hill" />
		<tag k="place" v="locality" />
		<tag k="ssr:stedsnr" v="925808" />
	</node>
	<node id="-791808" lat="65.0838916702" lon="11.5852333431">
		<tag k="fixme" v="consider natural=peak for the most distinct mountains in the district" />
		<tag k="name" v="Aunkollen" />
		<tag k="natural" v="hill" />
		<tag k="place" v="locality" />
		<tag k="ssr:stedsnr" v="257744" />
	</node>
	<node id="-791850" lat="65.1436972235" lon="11.9377972253">
		<tag k="name" v="Sørdalsfjellet" />
		<tag k="natural" v="hill" />
		<tag k="place" v="locality" />
		<tag k="ssr:stedsnr" v="285102" />
	</node>
	<node id="-792313" lat="65.1023500021" lon="11.6000444541">
		<tag k="fixme" v="consider natural=peak for the most distinct mountains in the district" />
		<tag k="name" v="Nerskardfjellet" />
		<tag k="natural" v="hill" />
		<tag k="place" v="locality" />
		<tag k="ssr:stedsnr" v="925745" />
	</node>
	<node id="-792311" lat="65.1053388886" lon="11.6967500018">
		<tag k="fixme" v="consider natural=peak for the most distinct mountains in the district" />
		<tag k="name" v="Lauhatten" />
		<tag k="natural" v="hill" />
		<tag k="place" v="locality" />
		<tag k="ssr:stedsnr" v="925737" />
	</node>
	<node id="-791777" lat="65.0630527802" lon="11.7988833318">
		<tag k="name" v="Rossvikaksla" />
		<tag k="place" v="locality" />
		<tag k="ssr:stedsnr" v="228899" />
	</node>
	<node id="-792953" lat="65.1163194442" lon="11.8634472268">
		<tag k="name" v="Matmornesshaugen" />
		<tag k="natural" v="hill" />
		<tag k="place" v="locality" />
		<tag k="ssr:stedsnr" v="771128" />
	</node>
	<node id="-792970" lat="65.1065638924" lon="11.6372499925">
		<tag k="name" v="Hagahaugan" />
		<tag k="natural" v="hill" />
>>>>>>> e1d4bc35ff8a6074a6f2e91616a996b547c36f15
		<tag k="place" v="locality" />
		<tag k="ssr:stedsnr" v="774800" />
	</node>
<<<<<<< HEAD
	<node lat="65.09907221876097" lon="11.599127772541948" id="-34733">
		<tag k="fixme" v="consider natural=peak for the most distinct mountains in the district" />
		<tag k="name" v="Ytter Mannatinden" />
		<tag k="natural" v="hill" />
		<tag k="place" v="locality" />
		<tag k="ssr:stedsnr" v="167730" />
	</node>
	<node lat="65.10531389141659" lon="11.571233341471753" id="-34738">
		<tag k="name" v="Valhaugen" />
		<tag k="natural" v="hill" />
		<tag k="place" v="locality" />
		<tag k="ssr:stedsnr" v="168695" />
	</node>
	<node lat="65.05127777756668" lon="11.539936112889437" id="-34739">
		<tag k="name" v="Korsvikberget" />
		<tag k="natural" v="hill" />
		<tag k="place" v="locality" />
		<tag k="ssr:stedsnr" v="167932" />
	</node>
	<node lat="65.05282499799895" lon="11.544036111952272" id="-34740">
		<tag k="name" v="Liss-Størhusberget" />
		<tag k="natural" v="hill" />
		<tag k="place" v="locality" />
		<tag k="ssr:stedsnr" v="167934" />
	</node>
	<node lat="65.08898889192896" lon="11.543105547484359" id="-34746">
		<tag k="name" v="Bremneshaugen" />
		<tag k="natural" v="hill" />
		<tag k="old_name" v="Bremnesshaugen" />
		<tag k="place" v="locality" />
		<tag k="ssr:stedsnr" v="181096" />
	</node>
	<node lat="65.11002777597567" lon="13.085422216082504" id="-34756">
		<tag k="fixme" v="consider natural=peak for the most distinct mountains in the district" />
		<tag k="name" v="Kløftfjellet - Sloeptjenguevtele" />
		<tag k="name:no" v="Kløftfjellet" />
		<tag k="name:sma" v="Sloeptjenguevtele" />
		<tag k="natural" v="hill" />
		<tag k="place" v="locality" />
		<tag k="ssr:stedsnr" v="196523" />
	</node>
	<node lat="65.09512499707486" lon="11.617508339803942" id="-34760">
		<tag k="fixme" v="consider natural=peak for the most distinct mountains in the district" />
		<tag k="name" v="Hagafjellet" />
		<tag k="natural" v="hill" />
		<tag k="place" v="locality" />
		<tag k="ssr:stedsnr" v="196683" />
	</node>
	<node lat="65.07331944007856" lon="11.592847219842582" id="-34766">
		<tag k="name" v="Kalvdalen" />
		<tag k="natural" v="valley" />
		<tag k="place" v="locality" />
		<tag k="ssr:stedsnr" v="196800" />
	</node>
	<node lat="65.08023889261372" lon="11.714055556591758" id="-34784">
		<tag k="name" v="Hylla" />
		<tag k="place" v="locality" />
		<tag k="ssr:stedsnr" v="210947" />
	</node>
	<node lat="65.06246388886694" lon="11.56526945146397" id="-34787">
		<tag k="name" v="Krokberget" />
		<tag k="natural" v="hill" />
		<tag k="place" v="locality" />
		<tag k="ssr:stedsnr" v="227272" />
	</node>
	<node lat="65.05600277751427" lon="11.701191672923363" id="-34790">
		<tag k="name" v="Langstrandhaugen" />
		<tag k="natural" v="hill" />
		<tag k="place" v="locality" />
		<tag k="ssr:stedsnr" v="228414" />
	</node>
	<node lat="65.09565278007668" lon="11.710350001816753" id="-34792">
		<tag k="name" v="Olberget" />
		<tag k="natural" v="hill" />
		<tag k="place" v="locality" />
		<tag k="ssr:stedsnr" v="227951" />
	</node>
	<node lat="65.04781944588217" lon="11.602241665958513" id="-34793">
		<tag k="name" v="Lassåkerhaugen" />
		<tag k="natural" v="hill" />
		<tag k="place" v="locality" />
		<tag k="ssr:stedsnr" v="227976" />
	</node>
	<node lat="65.10826389264814" lon="11.703624991862673" id="-34794">
		<tag k="name" v="Slokkå" />
		<tag k="natural" v="valley" />
		<tag k="place" v="locality" />
		<tag k="ssr:stedsnr" v="228117" />
	</node>
	<node lat="65.11731111070466" lon="11.872230565327857" id="-34795">
		<tag k="name" v="Buvikskardet" />
		<tag k="natural" v="valley" />
		<tag k="place" v="locality" />
		<tag k="ssr:stedsnr" v="281080" />
	</node>
	<node lat="65.09414999770894" lon="11.89975000804405" id="-34798">
		<tag k="fixme" v="consider natural=peak for the most distinct mountains in the district" />
		<tag k="name" v="Sørlituvå" />
		<tag k="natural" v="hill" />
		<tag k="place" v="locality" />
		<tag k="ssr:stedsnr" v="285840" />
	</node>
	<node lat="65.10908333193325" lon="11.675938879052207" id="-34802">
		<tag k="name" v="Raudbergan" />
		<tag k="natural" v="hill" />
		<tag k="place" v="locality" />
		<tag k="ssr:stedsnr" v="288201" />
	</node>
	<node lat="65.04773610710993" lon="11.579475008721053" id="-34803">
		<tag k="name" v="Hatllia" />
		<tag k="natural" v="slope" />
		<tag k="place" v="locality" />
		<tag k="ssr:stedsnr" v="288235" />
	</node>
	<node lat="65.05456388872577" lon="11.777894443688444" id="-34806">
		<tag k="name" v="Lauvdalen" />
		<tag k="natural" v="valley" />
		<tag k="place" v="locality" />
		<tag k="ssr:stedsnr" v="288875" />
	</node>
	<node lat="65.0551194406304" lon="11.56486111646548" id="-34812">
		<tag k="name" v="Melan" />
		<tag k="place" v="locality" />
		<tag k="ssr:stedsnr" v="289944" />
	</node>
	<node lat="65.07862531977293" lon="11.611704064505105" id="-34827">
		<tag k="alt_name" v="Vattinden" />
		<tag k="fixme" v="consider natural=peak for the most distinct mountains in the district" />
		<tag k="name" v="Vattin" />
		<tag k="natural" v="hill" />
		<tag k="place" v="locality" />
		<tag k="ssr:stedsnr" v="317654" />
	</node>
	<node lat="65.06860833512066" lon="11.880166671549409" id="-34828">
		<tag k="fixme" v="consider natural=peak for the most distinct mountains in the district" />
		<tag k="name" v="Tyskenghatten" />
		<tag k="natural" v="hill" />
		<tag k="place" v="locality" />
		<tag k="ssr:stedsnr" v="318085" />
	</node>
	<node lat="65.08870833390436" lon="11.875941662275713" id="-34845">
		<tag k="name" v="Jobakken" />
		<tag k="natural" v="slope" />
		<tag k="place" v="locality" />
		<tag k="ssr:stedsnr" v="346848" />
	</node>
	<node lat="65.06133610975937" lon="11.572966673231079" id="-34847">
		<tag k="name" v="Solsemhola" />
		<tag k="place" v="locality" />
		<tag k="ssr:stedsnr" v="348250" />
	</node>
	<node lat="65.04481389348912" lon="11.580633327882401" id="-34848">
		<tag k="name" v="Årdalen" />
		<tag k="natural" v="valley" />
		<tag k="place" v="locality" />
		<tag k="ssr:stedsnr" v="348341" />
	</node>
	<node lat="65.11495555285315" lon="11.708497232116287" id="-34849">
		<tag k="name" v="Senningslettå" />
		<tag k="place" v="locality" />
		<tag k="ssr:stedsnr" v="348124" />
	</node>
	<node lat="65.05934167077383" lon="11.666266663015035" id="-34850">
		<tag k="name" v="Øylåthaugen" />
		<tag k="natural" v="hill" />
		<tag k="place" v="locality" />
		<tag k="ssr:stedsnr" v="348896" />
	</node>
	<node lat="65.07908889033378" lon="11.548141665060363" id="-34853">
		<tag k="fixme" v="consider natural=peak for the most distinct mountains in the district" />
		<tag k="name" v="Vågåsen" />
		<tag k="natural" v="hill" />
		<tag k="place" v="locality" />
		<tag k="ssr:stedsnr" v="348421" />
	</node>
	<node lat="65.07162222283512" lon="11.586619443734612" id="-34860">
		<tag k="name" v="Trongen" />
		<tag k="natural" v="valley" />
		<tag k="place" v="locality" />
		<tag k="ssr:stedsnr" v="349436" />
	</node>
	<node lat="65.07358888824041" lon="11.630388890324996" id="-34863">
		<tag k="name" v="Øver Brikdalen" />
		<tag k="natural" v="valley" />
		<tag k="place" v="locality" />
		<tag k="ssr:stedsnr" v="349965" />
	</node>
	<node lat="65.10368888609634" lon="11.594788895059136" id="-34866">
		<tag k="name" v="Brattskogfjellet" />
		<tag k="natural" v="hill" />
		<tag k="place" v="locality" />
		<tag k="ssr:stedsnr" v="350689" />
	</node>
	<node lat="65.1002777771031" lon="11.764711118658909" id="-34868">
		<tag k="name" v="Våttviktrappan" />
		<tag k="natural" v="hill" />
		<tag k="place" v="locality" />
		<tag k="ssr:stedsnr" v="358933" />
	</node>
	<node lat="65.12119166923021" lon="11.788949990460736" id="-34874">
		<tag k="name" v="Nøkkhaugan" />
		<tag k="natural" v="hill" />
		<tag k="place" v="locality" />
		<tag k="ssr:stedsnr" v="363093" />
	</node>
	<node lat="65.04088889095814" lon="11.780930553757772" id="-34878">
		<tag k="fixme" v="consider natural=peak for the most distinct mountains in the district" />
		<tag k="name" v="Reppafjellet" />
		<tag k="natural" v="hill" />
		<tag k="place" v="locality" />
		<tag k="ssr:stedsnr" v="378096" />
	</node>
	<node lat="65.1086555528688" lon="11.770097214004583" id="-34894">
		<tag k="name" v="Brenthaugan" />
		<tag k="natural" v="hill" />
		<tag k="place" v="locality" />
		<tag k="ssr:stedsnr" v="378946" />
	</node>
	<node lat="65.12051110982497" lon="11.943927782248858" id="-34896">
		<tag k="fixme" v="consider natural=peak for the most distinct mountains in the district" />
		<tag k="name" v="Romsgården" />
		<tag k="natural" v="hill" />
		<tag k="place" v="locality" />
		<tag k="ssr:stedsnr" v="378960" />
	</node>
	<node lat="65.1356944458128" lon="11.9059333298399" id="-34898">
		<tag k="name" v="Sundsvikhammaren" />
		<tag k="natural" v="hill" />
		<tag k="place" v="locality" />
		<tag k="ssr:stedsnr" v="379995" />
	</node>
	<node lat="65.0792388854983" lon="11.543069437072466" id="-34911">
		<tag k="fixme" v="consider natural=peak for the most distinct mountains in the district" />
		<tag k="name" v="Sjyvikåsen" />
		<tag k="natural" v="hill" />
		<tag k="place" v="locality" />
		<tag k="ssr:stedsnr" v="409427" />
	</node>
	<node lat="65.07183610999738" lon="11.589427775292366" id="-34915">
		<tag k="name" v="Ravelbakkan" />
		<tag k="natural" v="slope" />
		<tag k="place" v="locality" />
		<tag k="ssr:stedsnr" v="410386" />
	</node>
	<node lat="65.04106388735389" lon="11.780752784802633" id="-34918">
		<tag k="alt_name" v="Hagafjellet" />
		<tag k="name" v="Joengfjellet" />
		<tag k="natural" v="hill" />
		<tag k="place" v="locality" />
		<tag k="ssr:stedsnr" v="410880" />
	</node>
	<node lat="65.09110555483095" lon="11.618130558193903" id="-34922">
		<tag k="name" v="Lekafjellan" />
		<tag k="natural" v="mountain_range" />
		<tag k="ssr:stedsnr" v="424089" />
	</node>
	<node lat="65.12003055562931" lon="11.878811101174783" id="-34946">
		<tag k="alt_name" v="Haugen" />
		<tag k="name" v="Nausthaugen" />
		<tag k="natural" v="hill" />
		<tag k="place" v="locality" />
		<tag k="ssr:stedsnr" v="439952" />
	</node>
	<node lat="65.14436666386135" lon="11.947405549423959" id="-34949">
		<tag k="name" v="Sørdalen" />
		<tag k="natural" v="valley" />
		<tag k="place" v="locality" />
		<tag k="ssr:stedsnr" v="439895" />
	</node>
	<node lat="65.1096527772187" lon="11.782002778226715" id="-34970">
		<tag k="name" v="Steggafjellet" />
		<tag k="natural" v="hill" />
		<tag k="place" v="locality" />
		<tag k="ssr:stedsnr" v="500002" />
	</node>
	<node lat="65.12152500360037" lon="11.925663889340168" id="-34972">
		<tag k="name" v="Dyrvollan" />
		<tag k="place" v="locality" />
		<tag k="ssr:stedsnr" v="499948" />
	</node>
	<node lat="65.08869444509054" lon="11.908833335847804" id="-34973">
		<tag k="name" v="Tørrisdalen" />
		<tag k="natural" v="valley" />
		<tag k="place" v="locality" />
		<tag k="ssr:stedsnr" v="500062" />
	</node>
	<node lat="65.10781389136845" lon="11.9398583296939" id="-34980">
		<tag k="fixme" v="consider natural=peak for the most distinct mountains in the district" />
		<tag k="name" v="Riskamman" />
		<tag k="natural" v="hill" />
		<tag k="place" v="locality" />
		<tag k="ssr:stedsnr" v="500956" />
	</node>
	<node lat="65.12615277405985" lon="11.90355000082825" id="-34984">
		<tag k="name" v="Holdalen" />
		<tag k="natural" v="valley" />
		<tag k="place" v="locality" />
		<tag k="ssr:stedsnr" v="524083" />
	</node>
	<node lat="65.0767638849768" lon="11.844913892509702" id="-34985">
		<tag k="name" v="Vassfjellet" />
		<tag k="natural" v="hill" />
		<tag k="place" v="locality" />
		<tag k="ssr:stedsnr" v="524846" />
	</node>
	<node lat="65.10505000067785" lon="11.89381110188813" id="-34991">
		<tag k="name" v="Aunlia" />
		<tag k="natural" v="slope" />
		<tag k="place" v="locality" />
		<tag k="ssr:stedsnr" v="528838" />
	</node>
	<node lat="65.05051111083614" lon="11.611166666352934" id="-34995">
		<tag k="name" v="Dalahaugen" />
		<tag k="natural" v="hill" />
		<tag k="place" v="locality" />
		<tag k="ssr:stedsnr" v="530986" />
	</node>
	<node lat="65.04916110700601" lon="11.613311101906524" id="-34996">
		<tag k="name" v="Langsjyhaugen" />
		<tag k="natural" v="hill" />
		<tag k="place" v="locality" />
		<tag k="ssr:stedsnr" v="530987" />
	</node>
	<node lat="65.05884444545406" lon="11.701527780764657" id="-35002">
		<tag k="name" v="Juvikhaugen" />
		<tag k="natural" v="hill" />
		<tag k="place" v="locality" />
		<tag k="ssr:stedsnr" v="531380" />
	</node>
	<node lat="65.1040194407452" lon="11.578650004839444" id="-35012">
		<tag k="name" v="Inner Valhaugen" />
		<tag k="natural" v="hill" />
		<tag k="place" v="locality" />
		<tag k="ssr:stedsnr" v="532741" />
	</node>
	<node lat="65.08281111158598" lon="11.885241660678865" id="-35014">
		<tag k="name" v="Tverrådalen" />
		<tag k="natural" v="valley" />
		<tag k="place" v="locality" />
		<tag k="ssr:stedsnr" v="545098" />
	</node>
	<node lat="65.0513111094456" lon="11.584602780200903" id="-35032">
		<tag k="name" v="Trollfjellet" />
		<tag k="natural" v="hill" />
		<tag k="place" v="locality" />
		<tag k="ssr:stedsnr" v="560767" />
	</node>
	<node lat="65.09366944162662" lon="11.903622223070462" id="-35050">
		<tag k="name" v="Botnlia" />
		<tag k="natural" v="slope" />
		<tag k="place" v="locality" />
		<tag k="ssr:stedsnr" v="588875" />
	</node>
	<node lat="65.11447777367793" lon="11.711561106030045" id="-35051">
		<tag k="name" v="Inner Kråkberget" />
		<tag k="natural" v="hill" />
		<tag k="place" v="locality" />
		<tag k="ssr:stedsnr" v="590135" />
	</node>
	<node lat="65.05520555443339" lon="11.670230564964031" id="-35052">
		<tag k="name" v="Haugvikfjellet" />
		<tag k="natural" v="hill" />
		<tag k="place" v="locality" />
		<tag k="ssr:stedsnr" v="591351" />
	</node>
	<node lat="65.11011388584069" lon="11.69909445474737" id="-35054">
		<tag k="name" v="Lauvhattslettå" />
		<tag k="place" v="locality" />
		<tag k="ssr:stedsnr" v="591086" />
	</node>
	<node lat="65.09448333665841" lon="11.739000000172112" id="-35057">
		<tag k="name" v="Fårråhaugen" />
		<tag k="natural" v="hill" />
		<tag k="place" v="locality" />
		<tag k="ssr:stedsnr" v="591950" />
	</node>
	<node lat="65.11265833355979" lon="11.66374723130542" id="-35061">
		<tag k="name" v="Sjåhaugen" />
		<tag k="natural" v="hill" />
		<tag k="place" v="locality" />
		<tag k="ssr:stedsnr" v="592844" />
	</node>
	<node lat="65.08024166803365" lon="11.885377785639257" id="-35062">
		<tag k="name" v="Karenholet" />
		<tag k="natural" v="valley" />
		<tag k="place" v="locality" />
		<tag k="ssr:stedsnr" v="593380" />
	</node>
	<node lat="65.12197777936558" lon="11.901449994209026" id="-35069">
		<tag k="alt_name" v="Liss-Binndalen" />
		<tag k="name" v="Litlbindalen" />
		<tag k="natural" v="valley" />
		<tag k="place" v="locality" />
		<tag k="ssr:stedsnr" v="621957" />
	</node>
	<node lat="65.12403055775351" lon="11.935430554074031" id="-35070">
		<tag k="alt_name" v="Blesså" />
		<tag k="fixme" v="consider natural=peak for the most distinct mountains in the district" />
		<tag k="name" v="Blessa" />
		<tag k="natural" v="hill" />
		<tag k="place" v="locality" />
		<tag k="ssr:stedsnr" v="621959" />
	</node>
	<node lat="65.04454999812724" lon="11.593725010394472" id="-35079">
		<tag k="name" v="Storvarden" />
		<tag k="natural" v="hill" />
		<tag k="place" v="locality" />
		<tag k="ssr:stedsnr" v="621782" />
	</node>
	<node lat="65.12718610862612" lon="11.897544449549551" id="-35083">
		<tag k="name" v="Nord-Hemmulhaugen" />
		<tag k="natural" v="hill" />
		<tag k="place" v="locality" />
		<tag k="ssr:stedsnr" v="645099" />
	</node>
	<node lat="65.1157805562047" lon="11.709455553642993" id="-35091">
		<tag k="name" v="Ytter Kråkberget" />
		<tag k="natural" v="hill" />
		<tag k="place" v="locality" />
		<tag k="ssr:stedsnr" v="651147" />
	</node>
	<node lat="65.07125555529215" lon="11.671247221849944" id="-35093">
		<tag k="name" v="Kleiva" />
		<tag k="natural" v="slope" />
		<tag k="place" v="locality" />
		<tag k="ssr:stedsnr" v="652080" />
	</node>
	<node lat="65.05929999886956" lon="11.562350002745916" id="-35096">
		<tag k="name" v="Meberget" />
		<tag k="natural" v="hill" />
		<tag k="place" v="locality" />
		<tag k="ssr:stedsnr" v="652219" />
	</node>
	<node lat="65.05200555526827" lon="11.663236121401363" id="-35098">
		<tag k="name" v="Haugvikfjellet" />
		<tag k="natural" v="hill" />
		<tag k="place" v="locality" />
		<tag k="ssr:stedsnr" v="652924" />
	</node>
	<node lat="65.09960555333916" lon="11.751113878094904" id="-35103">
		<tag k="fixme" v="consider natural=peak for the most distinct mountains in the district" />
		<tag k="name" v="Lauvåsen" />
		<tag k="natural" v="hill" />
		<tag k="place" v="locality" />
		<tag k="ssr:stedsnr" v="652881" />
	</node>
	<node lat="65.0921999983463" lon="11.733802773698889" id="-35107">
		<tag k="name" v="Herlaugshaugen" />
		<tag k="natural" v="hill" />
		<tag k="place" v="locality" />
		<tag k="ssr:stedsnr" v="666109" />
	</node>
	<node lat="65.06558888972313" lon="11.581438887675157" id="-35110">
		<tag k="name" v="Kjerkkleiva" />
		<tag k="natural" v="slope" />
		<tag k="place" v="locality" />
		<tag k="ssr:stedsnr" v="712418" />
	</node>
	<node lat="65.07555555268954" lon="11.519736119474226" id="-35111">
		<tag k="name" v="Fagergåsslettå" />
		<tag k="place" v="locality" />
		<tag k="ssr:stedsnr" v="713113" />
	</node>
	<node lat="65.06594722119955" lon="11.58770554651885" id="-35115">
		<tag k="name" v="Nordbrekkå" />
		<tag k="natural" v="slope" />
		<tag k="place" v="locality" />
		<tag k="ssr:stedsnr" v="713354" />
	</node>
	<node lat="65.05352222664158" lon="11.681386104050935" id="-35116">
		<tag k="name" v="Liss-Haliberget" />
		<tag k="natural" v="hill" />
		<tag k="place" v="locality" />
		<tag k="ssr:stedsnr" v="713355" />
	</node>
	<node lat="65.05881389214024" lon="11.780038891383045" id="-35120">
		<tag k="name" v="Storbakken" />
		<tag k="natural" v="slope" />
		<tag k="place" v="locality" />
		<tag k="ssr:stedsnr" v="713887" />
	</node>
	<node lat="65.13439722465291" lon="11.715769451721851" id="-35125">
		<tag k="name" v="Marithaugen" />
		<tag k="natural" v="hill" />
		<tag k="place" v="locality" />
		<tag k="ssr:stedsnr" v="714900" />
	</node>
	<node lat="65.1374138866226" lon="11.734811107565188" id="-35152">
		<tag k="name" v="Kalven" />
		<tag k="natural" v="hill" />
		<tag k="place" v="locality" />
		<tag k="ssr:stedsnr" v="744000" />
	</node>
	<node lat="65.13549721832963" lon="11.933775004175082" id="-35157">
		<tag k="name" v="Hestlifjellet" />
		<tag k="natural" v="hill" />
		<tag k="place" v="locality" />
		<tag k="ssr:stedsnr" v="771116" />
	</node>
	<node lat="65.11631944421926" lon="11.863447226784125" id="-35158">
		<tag k="name" v="Matmornesshaugen" />
		<tag k="natural" v="hill" />
		<tag k="place" v="locality" />
		<tag k="ssr:stedsnr" v="771128" />
	</node>
	<node lat="65.11543332905885" lon="11.908027780385613" id="-35159">
		<tag k="name" v="Dyrvollheia" />
		<tag k="natural" v="hill" />
		<tag k="place" v="locality" />
		<tag k="ssr:stedsnr" v="771133" />
	</node>
	<node lat="65.11288610673525" lon="11.924658336891914" id="-35160">
		<tag k="name" v="Sønndalslia" />
=======
	<node id="-792019" lat="65.0575833366" lon="11.6858472232">
		<tag k="fixme" v="consider natural=peak for the most distinct mountains in the district" />
		<tag k="name" v="Haliberget" />
		<tag k="natural" v="hill" />
		<tag k="place" v="locality" />
		<tag k="ssr:stedsnr" v="378804" />
	</node>
	<node id="-792812" lat="65.0872972198" lon="11.6596333434">
		<tag k="fixme" v="consider natural=peak for the most distinct mountains in the district" />
		<tag k="name" v="Størvet" />
		<tag k="natural" v="hill" />
		<tag k="place" v="locality" />
		<tag k="ssr:stedsnr" v="560701" />
	</node>
	<node id="-791786" lat="65.0791750005" lon="11.8760166624">
		<tag k="fixme" v="consider natural=peak for the most distinct mountains in the district" />
		<tag k="name" v="Tverrfjellet" />
		<tag k="natural" v="hill" />
		<tag k="place" v="locality" />
		<tag k="ssr:stedsnr" v="47423" />
	</node>
	<node id="-792297" lat="65.0781027806" lon="11.581875003">
		<tag k="name" v="Raudsteinfjellet" />
		<tag k="natural" v="hill" />
		<tag k="place" v="locality" />
		<tag k="ssr:stedsnr" v="924691" />
	</node>
	<node id="-791781" lat="65.1012499958" lon="11.624880555">
		<tag k="name" v="Hagan" />
		<tag k="natural" v="slope" />
		<tag k="place" v="locality" />
		<tag k="ssr:stedsnr" v="41866" />
	</node>
	<node id="-792803" lat="65.0828111116" lon="11.8852416607">
		<tag k="name" v="Tverrådalen" />
		<tag k="natural" v="valley" />
		<tag k="place" v="locality" />
		<tag k="ssr:stedsnr" v="545098" />
	</node>
	<node id="-791778" lat="65.0940111111" lon="11.5758694397">
		<tag k="name" v="Sørmyrhaugen" />
		<tag k="natural" v="ridge" />
		<tag k="place" v="locality" />
		<tag k="ssr:stedsnr" v="229690" />
	</node>
	<node id="-792955" lat="65.1128861067" lon="11.9246583369">
		<tag k="name" v="Sønndalslia" />
		<tag k="natural" v="slope" />
		<tag k="place" v="locality" />
		<tag k="ssr:stedsnr" v="771146" />
	</node>
	<node id="-792800" lat="65.1040194407" lon="11.5786500048">
		<tag k="name" v="Inner Valhaugen" />
		<tag k="natural" v="hill" />
		<tag k="place" v="locality" />
		<tag k="ssr:stedsnr" v="532741" />
	</node>
	<node id="-792287" lat="65.1089388863" lon="11.7420499964">
		<tag k="name" v="Valhaugan" />
		<tag k="natural" v="hill" />
		<tag k="place" v="locality" />
		<tag k="ssr:stedsnr" v="774705" />
	</node>
	<node id="-792286" lat="65.0927777763" lon="11.6945277716">
		<tag k="name" v="Håvan" />
		<tag k="natural" v="gorge" />
		<tag k="ssr:stedsnr" v="773888" />
	</node>
	<node id="-792797" lat="65.113366668" lon="11.6544416715">
		<tag k="fixme" v="consider natural=peak for the most distinct mountains in the district" />
		<tag k="name" v="Ytteråsen" />
		<tag k="natural" v="hill" />
		<tag k="place" v="locality" />
		<tag k="ssr:stedsnr" v="532779" />
	</node>
	<node id="-792284" lat="65.1002527769" lon="11.7569527689">
		<tag k="name" v="Våttvikmoen" />
		<tag k="place" v="locality" />
		<tag k="ssr:stedsnr" v="773908" />
	</node>
	<node id="-792283" lat="65.1009416688" lon="11.6108722212">
		<tag k="name" v="Støypet" />
		<tag k="natural" v="cliff" />
		<tag k="ssr:stedsnr" v="773682" />
	</node>
	<node id="-791770" lat="65.0477361081" lon="11.6101833247">
		<tag k="name" v="Klongsjyhaugen" />
		<tag k="natural" v="hill" />
		<tag k="place" v="locality" />
		<tag k="ssr:stedsnr" v="227989" />
	</node>
	<node id="-792783" lat="65.0751000006" lon="11.5282249969">
		<tag k="name" v="Hammaren" />
		<tag k="natural" v="hill" />
		<tag k="place" v="locality" />
		<tag k="ssr:stedsnr" v="531103" />
	</node>
	<node id="-792790" lat="65.0961527763" lon="11.7108583375">
		<tag k="name" v="Nord-Olberget" />
		<tag k="natural" v="hill" />
		<tag k="place" v="locality" />
		<tag k="ssr:stedsnr" v="531971" />
	</node>
	<node id="-791765" lat="65.0624638889" lon="11.5652694515">
		<tag k="name" v="Krokberget" />
		<tag k="natural" v="hill" />
		<tag k="place" v="locality" />
		<tag k="ssr:stedsnr" v="227272" />
	</node>
	<node id="-792788" lat="65.0588444455" lon="11.7015277808">
		<tag k="name" v="Juvikhaugen" />
		<tag k="natural" v="hill" />
		<tag k="place" v="locality" />
		<tag k="ssr:stedsnr" v="531380" />
	</node>
	<node id="-791760" lat="65.0565055556" lon="11.5722861013">
		<tag k="fixme" v="consider natural=peak for the most distinct mountains in the district" />
		<tag k="name" v="Lissleka" />
		<tag k="natural" v="hill" />
		<tag k="place" v="locality" />
		<tag k="ssr:stedsnr" v="15804" />
	</node>
	<node id="-791759" lat="65.1051555527" lon="11.8464527787">
		<tag k="name" v="Haugen" />
		<tag k="natural" v="hill" />
		<tag k="place" v="locality" />
		<tag k="ssr:stedsnr" v="14736" />
	</node>
	<node id="-792777" lat="65.0716138867" lon="11.632852784">
		<tag k="name" v="Presthusskardet" />
		<tag k="natural" v="valley" />
		<tag k="place" v="locality" />
		<tag k="ssr:stedsnr" v="530909" />
	</node>
	<node id="-792776" lat="65.049161107" lon="11.6133111019">
		<tag k="name" v="Langsjyhaugen" />
		<tag k="natural" v="hill" />
		<tag k="place" v="locality" />
		<tag k="ssr:stedsnr" v="530987" />
	</node>
	<node id="-792263" lat="65.099066664" lon="11.7515694394">
		<tag k="fixme" v="consider natural=peak for the most distinct mountains in the district" />
		<tag k="name" v="Midtlauvåsen" />
		<tag k="natural" v="hill" />
		<tag k="place" v="locality" />
		<tag k="ssr:stedsnr" v="905950" />
	</node>
	<node id="-792772" lat="65.1050500007" lon="11.8938111019">
		<tag k="name" v="Aunlia" />
		<tag k="natural" v="slope" />
		<tag k="place" v="locality" />
		<tag k="ssr:stedsnr" v="528838" />
	</node>
	<node id="-791775" lat="65.0535444409" lon="11.5579944469">
		<tag k="name" v="Melhaugen" />
		<tag k="natural" v="hill" />
		<tag k="place" v="locality" />
		<tag k="ssr:stedsnr" v="228931" />
	</node>
	<node id="-792257" lat="65.0957722251" lon="11.5930972284">
		<tag k="name" v="Kattaberget" />
		<tag k="natural" v="hill" />
		<tag k="place" v="locality" />
		<tag k="ssr:stedsnr" v="896746" />
	</node>
	<node id="-791840" lat="65.1243583317" lon="11.7237277731">
		<tag k="name" v="Hestkleiva" />
		<tag k="natural" v="slope" />
		<tag k="place" v="locality" />
		<tag k="ssr:stedsnr" v="166124" />
	</node>
	<node id="-792253" lat="65.0706750034" lon="11.6536333272">
		<tag k="name" v="Brikdalen" />
		<tag k="natural" v="valley" />
		<tag k="place" v="locality" />
		<tag k="ssr:stedsnr" v="895931" />
	</node>
	<node id="-792251" lat="65.0427138865" lon="11.6641361167">
		<tag k="name" v="Ovdhaugen" />
		<tag k="natural" v="hill" />
		<tag k="place" v="locality" />
		<tag k="ssr:stedsnr" v="895913" />
	</node>
	<node id="-792235" lat="65.118116669" lon="11.8780083343">
		<tag k="name" v="Skardhaugen" />
		<tag k="natural" v="hill" />
		<tag k="place" v="locality" />
		<tag k="ssr:stedsnr" v="892124" />
	</node>
	<node id="-792248" lat="65.0758861085" lon="11.5405194407">
		<tag k="name" v="Stonghaugen" />
		<tag k="natural" v="hill" />
		<tag k="place" v="locality" />
		<tag k="ssr:stedsnr" v="895409" />
	</node>
	<node id="-792247" lat="65.0502555585" lon="11.5935527683">
		<tag k="name" v="Nord-Kukleppen" />
		<tag k="natural" v="hill" />
		<tag k="place" v="locality" />
		<tag k="ssr:stedsnr" v="895390" />
	</node>
	<node id="-792758" lat="65.0911055548" lon="11.6181305582">
		<tag k="name" v="Lekafjellan" />
		<tag k="natural" v="mountain_range" />
		<tag k="ssr:stedsnr" v="424089" />
	</node>
	<node id="-793033" lat="65.0479111113" lon="11.7992694363">
		<tag k="fixme" v="consider natural=peak for the most distinct mountains in the district" />
		<tag k="name" v="Reppafjellet" />
		<tag k="natural" v="hill" />
		<tag k="place" v="locality" />
		<tag k="ssr:stedsnr" v="835896" />
	</node>
	<node id="-792756" lat="65.1339222224" lon="11.7152944375">
		<tag k="name" v="Konradbua" />
		<tag k="place" v="locality" />
		<tag k="ssr:stedsnr" v="411903" />
	</node>
	<node id="-792754" lat="65.0571000035" lon="11.5497388898">
		<tag k="name" v="Påiberget" />
		<tag k="natural" v="hill" />
		<tag k="place" v="locality" />
		<tag k="ssr:stedsnr" v="410898" />
	</node>
	<node id="-792752" lat="65.0410638874" lon="11.7807527848">
		<tag k="alt_name" v="Hagafjellet" />
		<tag k="name" v="Joengfjellet" />
		<tag k="natural" v="hill" />
		<tag k="place" v="locality" />
		<tag k="ssr:stedsnr" v="410880" />
	</node>
	<node id="-792239" lat="65.0535222266" lon="11.6813861041">
		<tag k="name" v="Liss-Haliberget" />
		<tag k="natural" v="hill" />
		<tag k="place" v="locality" />
		<tag k="ssr:stedsnr" v="713355" />
	</node>
	<node id="-792238" lat="65.0659472212" lon="11.5877055465">
		<tag k="name" v="Nordbrekkå" />
		<tag k="natural" v="slope" />
		<tag k="place" v="locality" />
		<tag k="ssr:stedsnr" v="713354" />
	</node>
	<node id="-792748" lat="65.0429861094" lon="11.6751277747">
		<tag k="name" v="Ovdhaugen" />
		<tag k="natural" v="hill" />
		<tag k="place" v="locality" />
		<tag k="ssr:stedsnr" v="410392" />
	</node>
	<node id="-792747" lat="65.047541669" lon="11.6707861015">
		<tag k="name" v="Endesåsen" />
		<tag k="natural" v="hill" />
		<tag k="place" v="locality" />
		<tag k="ssr:stedsnr" v="410391" />
	</node>
	<node id="-792234" lat="65.1458583349" lon="11.9375027727">
		<tag k="name" v="Djupskardheia" />
		<tag k="natural" v="ridge" />
		<tag k="old_name" v="Djupskardfjellet" />
		<tag k="place" v="locality" />
		<tag k="ssr:stedsnr" v="892082" />
	</node>
	<node id="-792775" lat="65.0505111108" lon="11.6111666664">
		<tag k="name" v="Dalahaugen" />
		<tag k="natural" v="hill" />
		<tag k="place" v="locality" />
		<tag k="ssr:stedsnr" v="530986" />
	</node>
	<node id="-792744" lat="65.0792388855" lon="11.5430694371">
		<tag k="fixme" v="consider natural=peak for the most distinct mountains in the district" />
		<tag k="name" v="Sjyvikåsen" />
		<tag k="natural" v="hill" />
		<tag k="place" v="locality" />
		<tag k="ssr:stedsnr" v="409427" />
	</node>
	<node id="-791774" lat="65.1082888924" lon="11.6635861156">
		<tag k="name" v="Åsen" />
		<tag k="natural" v="hill" />
		<tag k="place" v="locality" />
		<tag k="ssr:stedsnr" v="228823" />
	</node>
	<node id="-792739" lat="65.1359444438" lon="11.9201083361">
		<tag k="name" v="Høgberget" />
		<tag k="natural" v="hill" />
		<tag k="place" v="locality" />
		<tag k="ssr:stedsnr" v="407131" />
	</node>
	<node id="-792734" lat="65.1356944458" lon="11.9059333298">
		<tag k="name" v="Sundsvikhammaren" />
		<tag k="natural" v="hill" />
		<tag k="place" v="locality" />
		<tag k="ssr:stedsnr" v="379995" />
	</node>
	<node id="-792732" lat="65.1205111098" lon="11.9439277822">
		<tag k="fixme" v="consider natural=peak for the most distinct mountains in the district" />
		<tag k="name" v="Romsgården" />
		<tag k="natural" v="hill" />
		<tag k="place" v="locality" />
		<tag k="ssr:stedsnr" v="378960" />
	</node>
	<node id="-792730" lat="65.1086555529" lon="11.770097214">
		<tag k="name" v="Brenthaugan" />
		<tag k="natural" v="hill" />
		<tag k="place" v="locality" />
		<tag k="ssr:stedsnr" v="378946" />
	</node>
	<node id="-792216" lat="65.0921999983" lon="11.7338027737">
		<tag k="name" v="Herlaugshaugen" />
		<tag k="natural" v="hill" />
		<tag k="place" v="locality" />
		<tag k="ssr:stedsnr" v="666109" />
	</node>
	<node id="-792210" lat="65.0996055533" lon="11.7511138781">
		<tag k="fixme" v="consider natural=peak for the most distinct mountains in the district" />
		<tag k="name" v="Lauvåsen" />
		<tag k="natural" v="hill" />
		<tag k="place" v="locality" />
		<tag k="ssr:stedsnr" v="652881" />
	</node>
	<node id="-792771" lat="65.111461109" lon="11.9155861095">
		<tag k="fixme" v="consider natural=peak for the most distinct mountains in the district" />
		<tag k="name" v="Sønndalsliåsen" />
		<tag k="natural" v="hill" />
		<tag k="place" v="locality" />
		<tag k="ssr:stedsnr" v="528127" />
	</node>
	<node id="-792205" lat="65.0456611095" lon="11.5878388889">
		<tag k="name" v="Årdalshaugen" />
		<tag k="natural" v="hill" />
		<tag k="place" v="locality" />
		<tag k="ssr:stedsnr" v="652308" />
	</node>
	<node id="-792063" lat="65.0579111121" lon="11.6007499906">
		<tag k="name" v="Svartholet" />
		<tag k="natural" v="valley" />
		<tag k="place" v="locality" />
		<tag k="ssr:stedsnr" v="409953" />
	</node>
	<node id="-792855" lat="65.1126583336" lon="11.6637472313">
		<tag k="name" v="Sjåhaugen" />
		<tag k="natural" v="hill" />
		<tag k="place" v="locality" />
		<tag k="ssr:stedsnr" v="592844" />
	</node>
	<node id="-792710" lat="65.040888891" lon="11.7809305538">
		<tag k="fixme" v="consider natural=peak for the most distinct mountains in the district" />
		<tag k="name" v="Reppafjellet" />
		<tag k="natural" v="hill" />
		<tag k="place" v="locality" />
		<tag k="ssr:stedsnr" v="378096" />
	</node>
	<node id="-792769" lat="65.1119500013" lon="11.8997611021">
		<tag k="name" v="Vasshammaren" />
		<tag k="natural" v="ridge" />
		<tag k="place" v="locality" />
		<tag k="ssr:stedsnr" v="528122" />
	</node>
	<node id="-792854" lat="65.1132249996" lon="11.6414694369">
		<tag k="name" v="Nausthaugen" />
		<tag k="natural" v="hill" />
		<tag k="place" v="locality" />
		<tag k="ssr:stedsnr" v="592825" />
	</node>
	<node id="-793006" lat="65.0868972267" lon="11.6633388917">
		<tag k="fixme" v="consider natural=peak for the most distinct mountains in the district" />
		<tag k="name" v="Hundøyran" />
		<tag k="natural" v="hill" />
		<tag k="place" v="locality" />
		<tag k="ssr:stedsnr" v="803708" />
	</node>
	<node id="-792000" lat="65.0790888903" lon="11.5481416651">
		<tag k="fixme" v="consider natural=peak for the most distinct mountains in the district" />
		<tag k="name" v="Vågåsen" />
		<tag k="natural" v="hill" />
		<tag k="place" v="locality" />
		<tag k="ssr:stedsnr" v="348421" />
	</node>
	<node id="-792188" lat="65.1343972247" lon="11.7157694517">
		<tag k="name" v="Marithaugen" />
		<tag k="natural" v="hill" />
		<tag k="place" v="locality" />
		<tag k="ssr:stedsnr" v="714900" />
	</node>
	<node id="-792698" lat="65.1002777771" lon="11.7647111187">
		<tag k="name" v="Våttviktrappan" />
		<tag k="natural" v="hill" />
		<tag k="place" v="locality" />
		<tag k="ssr:stedsnr" v="358933" />
	</node>
	<node id="-792696" lat="65.1036888861" lon="11.5947888951">
		<tag k="name" v="Brattskogfjellet" />
		<tag k="natural" v="hill" />
		<tag k="place" v="locality" />
		<tag k="ssr:stedsnr" v="350689" />
	</node>
	<node id="-792693" lat="65.0735888882" lon="11.6303888903">
		<tag k="name" v="Øver Brikdalen" />
		<tag k="natural" v="valley" />
		<tag k="place" v="locality" />
		<tag k="ssr:stedsnr" v="349965" />
	</node>
	<node id="-792690" lat="65.1093972183" lon="11.6704722257">
		<tag k="name" v="Kleivan" />
		<tag k="natural" v="slope" />
		<tag k="place" v="locality" />
		<tag k="ssr:stedsnr" v="349810" />
	</node>
	<node id="-792177" lat="65.0588138921" lon="11.7800388914">
		<tag k="name" v="Storbakken" />
		<tag k="natural" v="slope" />
		<tag k="place" v="locality" />
		<tag k="ssr:stedsnr" v="713887" />
	</node>
	<node id="-792680" lat="65.0593416708" lon="11.666266663">
		<tag k="name" v="Øylåthaugen" />
		<tag k="natural" v="hill" />
		<tag k="place" v="locality" />
		<tag k="ssr:stedsnr" v="348896" />
	</node>
	<node id="-792174" lat="65.0879833293" lon="11.5582750064">
		<tag k="name" v="Gjerdåsen" />
		<tag k="natural" v="hill" />
		<tag k="place" v="locality" />
		<tag k="ssr:stedsnr" v="713687" />
	</node>
	<node id="-793021" lat="65.1179500007" lon="11.8702527838">
		<tag k="name" v="Steinvikhaugan" />
		<tag k="natural" v="hill" />
		<tag k="place" v="locality" />
		<tag k="ssr:stedsnr" v="832120" />
	</node>
	<node id="-792684" lat="65.0716222228" lon="11.5866194437">
		<tag k="name" v="Trongen" />
		<tag k="natural" v="valley" />
		<tag k="place" v="locality" />
		<tag k="ssr:stedsnr" v="349436" />
	</node>
	<node id="-791826" lat="65.0975611116" lon="11.9121638836">
		<tag k="alt_name" v="Trollhamarn" />
		<tag k="fixme" v="consider natural=peak for the most distinct mountains in the district" />
		<tag k="name" v="Trollhammaren" />
		<tag k="natural" v="hill" />
		<tag k="place" v="locality" />
		<tag k="ssr:stedsnr" v="136035" />
	</node>
	<node id="-792170" lat="65.116405558" lon="11.6727111145">
		<tag k="name" v="Brennmyrtuvån" />
		<tag k="natural" v="hill" />
		<tag k="place" v="locality" />
		<tag k="ssr:stedsnr" v="713202" />
	</node>
	<node id="-792168" lat="65.0755555527" lon="11.5197361195">
		<tag k="name" v="Fagergåsslettå" />
		<tag k="place" v="locality" />
		<tag k="ssr:stedsnr" v="713113" />
	</node>
	<node id="-792167" lat="65.081697221" lon="11.7010277735">
		<tag k="name" v="Bakkaklubben" />
		<tag k="natural" v="hill" />
		<tag k="place" v="locality" />
		<tag k="ssr:stedsnr" v="713101" />
	</node>
	<node id="-792166" lat="65.0655888897" lon="11.5814388877">
		<tag k="name" v="Kjerkkleiva" />
		<tag k="natural" v="slope" />
		<tag k="place" v="locality" />
		<tag k="ssr:stedsnr" v="712418" />
	</node>
	<node id="-792165" lat="65.0736083318" lon="11.5850027766">
		<tag k="name" v="Klubben" />
		<tag k="natural" v="hill" />
		<tag k="place" v="locality" />
		<tag k="ssr:stedsnr" v="591408" />
	</node>
	<node id="-792164" lat="65.0744388857" lon="11.5523138866">
		<tag k="name" v="Elvhaugen" />
		<tag k="natural" v="hill" />
		<tag k="place" v="locality" />
		<tag k="ssr:stedsnr" v="591406" />
	</node>
	<node id="-792675" lat="65.0613361098" lon="11.5729666732">
		<tag k="name" v="Solsemhola" />
		<tag k="place" v="locality" />
		<tag k="ssr:stedsnr" v="348250" />
	</node>
	<node id="-792162" lat="65.1144777737" lon="11.711561106">
		<tag k="name" v="Inner Kråkberget" />
		<tag k="natural" v="hill" />
		<tag k="place" v="locality" />
		<tag k="ssr:stedsnr" v="590135" />
	</node>
	<node id="-792161" lat="65.0936694416" lon="11.9036222231">
		<tag k="name" v="Botnlia" />
		<tag k="natural" v="slope" />
		<tag k="place" v="locality" />
		<tag k="ssr:stedsnr" v="588875" />
	</node>
	<node id="-792671" lat="65.0887083339" lon="11.8759416623">
		<tag k="name" v="Jobakken" />
>>>>>>> e1d4bc35ff8a6074a6f2e91616a996b547c36f15
		<tag k="natural" v="slope" />
		<tag k="place" v="locality" />
		<tag k="ssr:stedsnr" v="346848" />
	</node>
<<<<<<< HEAD
	<node lat="65.10094166875508" lon="11.610872221173405" id="-35164">
		<tag k="name" v="Støypet" />
		<tag k="natural" v="cliff" />
		<tag k="ssr:stedsnr" v="773682" />
	</node>
	<node lat="65.0927777762512" lon="11.69452777156955" id="-35166">
		<tag k="name" v="Håvan" />
		<tag k="natural" v="gorge" />
		<tag k="ssr:stedsnr" v="773888" />
	</node>
	<node lat="65.10656389239719" lon="11.637249992462287" id="-35172">
		<tag k="name" v="Hagahaugan" />
		<tag k="natural" v="hill" />
=======
	<node id="-792933" lat="65.1146277804" lon="11.698233334">
		<tag k="name" v="Senningan" />
>>>>>>> e1d4bc35ff8a6074a6f2e91616a996b547c36f15
		<tag k="place" v="locality" />
		<tag k="ssr:stedsnr" v="774800" />
	</node>
<<<<<<< HEAD
	<node lat="65.10306388534626" lon="11.643294434368404" id="-35175">
		<tag k="name" v="Måsfjellet" />
		<tag k="natural" v="hill" />
		<tag k="place" v="locality" />
		<tag k="ssr:stedsnr" v="774820" />
	</node>
	<node lat="65.11112500162469" lon="11.678827785787083" id="-35176">
=======
	<node id="-791925" lat="65.1082638926" lon="11.7036249919">
		<tag k="name" v="Slokkå" />
		<tag k="natural" v="valley" />
		<tag k="place" v="locality" />
		<tag k="ssr:stedsnr" v="228117" />
	</node>
	<node id="-792154" lat="65.1345333326" lon="11.9072611151">
		<tag k="name" v="Sundsvikåsen" />
		<tag k="natural" v="ridge" />
		<tag k="place" v="locality" />
		<tag k="ssr:stedsnr" v="710108" />
	</node>
	<node id="-792676" lat="65.0448138935" lon="11.5806333279">
		<tag k="name" v="Årdalen" />
		<tag k="natural" v="valley" />
		<tag k="place" v="locality" />
		<tag k="ssr:stedsnr" v="348341" />
	</node>
	<node id="-792931" lat="65.1064361077" lon="11.9056361053">
>>>>>>> e1d4bc35ff8a6074a6f2e91616a996b547c36f15
		<tag k="fixme" v="consider natural=peak for the most distinct mountains in the district" />
		<tag k="name" v="Ørnkulå" />
		<tag k="natural" v="hill" />
		<tag k="place" v="locality" />
		<tag k="ssr:stedsnr" v="774827" />
	</node>
<<<<<<< HEAD
	<node lat="65.09369444098218" lon="11.571855559040308" id="-35182">
		<tag k="name" v="Sjyslettå" />
		<tag k="place" v="locality" />
		<tag k="ssr:stedsnr" v="775695" />
	</node>
	<node lat="65.08281110712663" lon="11.714361103844647" id="-35189">
		<tag k="name" v="Steinberget" />
		<tag k="natural" v="hill" />
		<tag k="place" v="locality" />
		<tag k="ssr:stedsnr" v="788115" />
	</node>
	<node lat="65.07782777477236" lon="11.823227779335289" id="-35190">
		<tag k="fixme" v="consider natural=peak for the most distinct mountains in the district" />
		<tag k="name" v="Klubben" />
		<tag k="natural" v="hill" />
		<tag k="place" v="locality" />
		<tag k="ssr:stedsnr" v="803057" />
	</node>
	<node lat="65.05685555272446" lon="11.829586106755526" id="-35191">
		<tag k="name" v="Stordalen" />
		<tag k="natural" v="valley" />
		<tag k="place" v="locality" />
		<tag k="ssr:stedsnr" v="803097" />
	</node>
	<node lat="65.04259166914667" lon="11.76327500818383" id="-35194">
		<tag k="name" v="Sandhalsdalan" />
		<tag k="natural" v="valley" />
		<tag k="place" v="locality" />
		<tag k="ssr:stedsnr" v="803102" />
	</node>
	<node lat="65.08421666591367" lon="11.709608334001883" id="-35213">
		<tag k="name" v="Husbybakken" />
		<tag k="natural" v="slope" />
		<tag k="place" v="locality" />
		<tag k="ssr:stedsnr" v="816402" />
	</node>
	<node lat="65.10212500342793" lon="11.851116662924193" id="-35216">
		<tag k="name" v="Rota" />
		<tag k="natural" v="ridge" />
		<tag k="place" v="locality" />
		<tag k="ssr:stedsnr" v="827890" />
	</node>
	<node lat="65.11795000074265" lon="11.870252783766993" id="-35218">
		<tag k="name" v="Steinvikhaugan" />
		<tag k="natural" v="hill" />
		<tag k="place" v="locality" />
		<tag k="ssr:stedsnr" v="832120" />
	</node>
	<node lat="65.11308888577965" lon="11.93648333179299" id="-35222">
		<tag k="name" v="Nordgutviklian" />
		<tag k="natural" v="slope" />
		<tag k="place" v="locality" />
		<tag k="ssr:stedsnr" v="832848" />
	</node>
	<node lat="65.09710000373059" lon="11.899666670561242" id="-35223">
		<tag k="name" v="Sørlia" />
		<tag k="natural" v="slope" />
		<tag k="place" v="locality" />
		<tag k="ssr:stedsnr" v="832854" />
	</node>
	<node lat="65.08204444602762" lon="11.912697230313103" id="-35224">
		<tag k="name" v="Gruppfjellet" />
=======
	<node id="-792760" lat="65.076763885" lon="11.8449138925">
		<tag k="name" v="Vassfjellet" />
		<tag k="natural" v="hill" />
		<tag k="place" v="locality" />
		<tag k="ssr:stedsnr" v="524846" />
	</node>
	<node id="-792141" lat="65.0833333305" lon="11.8706277829">
		<tag k="name" v="Svartflauget" />
		<tag k="natural" v="cliff" />
		<tag k="ssr:stedsnr" v="706865" />
	</node>
	<node id="-792845" lat="65.0859888853" lon="11.5388611012">
		<tag k="name" v="Brenthaugen" />
		<tag k="natural" v="hill" />
		<tag k="place" v="locality" />
		<tag k="ssr:stedsnr" v="591625" />
	</node>
	<node id="-792136" lat="65.0513111094" lon="11.5846027802">
		<tag k="name" v="Trollfjellet" />
		<tag k="natural" v="hill" />
		<tag k="place" v="locality" />
		<tag k="ssr:stedsnr" v="560767" />
	</node>
	<node id="-792673" lat="65.1149555529" lon="11.7084972321">
		<tag k="name" v="Senningslettå" />
		<tag k="place" v="locality" />
		<tag k="ssr:stedsnr" v="348124" />
	</node>
	<node id="-792644" lat="65.1095305588" lon="11.6498361013">
		<tag k="name" v="Stonghaugen" />
		<tag k="natural" v="hill" />
		<tag k="place" v="locality" />
		<tag k="ssr:stedsnr" v="318703" />
	</node>
	<node id="-791990" lat="65.099208332" lon="11.7609555453">
		<tag k="name" v="Våttviksletta" />
		<tag k="place" v="locality" />
		<tag k="ssr:stedsnr" v="298922" />
	</node>
	<node id="-791907" lat="65.0528305568" lon="11.5735277678">
		<tag k="fixme" v="consider natural=peak for the most distinct mountains in the district" />
		<tag k="name" v="Lekmøyhammaren" />
		<tag k="natural" v="hill" />
		<tag k="place" v="locality" />
		<tag k="ssr:stedsnr" v="439793" />
	</node>
	<node id="-792639" lat="65.0686083351" lon="11.8801666715">
		<tag k="fixme" v="consider natural=peak for the most distinct mountains in the district" />
		<tag k="name" v="Tyskenghatten" />
		<tag k="natural" v="hill" />
		<tag k="place" v="locality" />
		<tag k="ssr:stedsnr" v="318085" />
	</node>
	<node id="-793013" lat="65.0842166659" lon="11.709608334">
		<tag k="name" v="Husbybakken" />
		<tag k="natural" v="slope" />
		<tag k="place" v="locality" />
		<tag k="ssr:stedsnr" v="816402" />
	</node>
	<node id="-792124" lat="65.1062750012" lon="11.8780666684">
		<tag k="alt_name" v="Hårnfjellet" />
		<tag k="fixme" v="consider natural=peak for the most distinct mountains in the district" />
		<tag k="name" v="Hornfjellet" />
		<tag k="natural" v="hill" />
		<tag k="place" v="locality" />
		<tag k="ssr:stedsnr" v="560004" />
	</node>
	<node id="-792120" lat="65.111347222" lon="11.6919555564">
		<tag k="name" v="Jetteskardet" />
		<tag k="natural" v="valley" />
		<tag k="place" v="locality" />
		<tag k="ssr:stedsnr" v="531029" />
	</node>
	<node id="-792759" lat="65.1261527741" lon="11.9035500008">
		<tag k="name" v="Holdalen" />
		<tag k="natural" v="valley" />
		<tag k="place" v="locality" />
		<tag k="ssr:stedsnr" v="524083" />
	</node>
	<node id="-792625" lat="65.0802388926" lon="11.7140555566">
		<tag k="name" v="Hylla" />
		<tag k="place" v="locality" />
		<tag k="ssr:stedsnr" v="210947" />
	</node>
	<node id="-792912" lat="65.0520055553" lon="11.6632361214">
		<tag k="name" v="Haugvikfjellet" />
>>>>>>> e1d4bc35ff8a6074a6f2e91616a996b547c36f15
		<tag k="natural" v="hill" />
		<tag k="place" v="locality" />
		<tag k="ssr:stedsnr" v="832858" />
	</node>
<<<<<<< HEAD
	<node lat="65.04472777833054" lon="11.573516656557727" id="-35226">
		<tag k="name" v="Oterskårå" />
		<tag k="natural" v="valley" />
		<tag k="place" v="locality" />
		<tag k="ssr:stedsnr" v="834269" />
	</node>
	<node lat="65.10245555906968" lon="11.648280559808198" id="-35230">
		<tag k="name" v="Møssmørklubban" />
		<tag k="natural" v="hill" />
		<tag k="place" v="locality" />
		<tag k="ssr:stedsnr" v="835821" />
	</node>
	<node lat="65.11006110873349" lon="11.717355546484706" id="-35231">
		<tag k="name" v="Nausthaugen" />
		<tag k="natural" v="hill" />
		<tag k="place" v="locality" />
		<tag k="ssr:stedsnr" v="835920" />
	</node>
	<node lat="65.09493611455896" lon="11.643947224929224" id="-35233">
		<tag k="name" v="Nessvasskleiva" />
		<tag k="natural" v="slope" />
		<tag k="place" v="locality" />
		<tag k="ssr:stedsnr" v="835743" />
	</node>
	<node lat="65.07780277521515" lon="11.903280557782283" id="-35236">
		<tag k="name" v="Gruppfjellet" />
		<tag k="natural" v="hill" />
		<tag k="place" v="locality" />
		<tag k="ssr:stedsnr" v="836362" />
	</node>
	<node lat="65.10238333751958" lon="11.767505558648452" id="-35239">
		<tag k="name" v="Storvarden" />
		<tag k="natural" v="hill" />
		<tag k="place" v="locality" />
		<tag k="ssr:stedsnr" v="844949" />
	</node>
	<node lat="65.06731111104115" lon="11.575372228166566" id="-35243">
		<tag k="fixme" v="consider natural=peak for the most distinct mountains in the district" />
		<tag k="name" v="Løvå" />
		<tag k="natural" v="hill" />
		<tag k="place" v="locality" />
		<tag k="ssr:stedsnr" v="848667" />
	</node>
	<node lat="65.0783944483049" lon="11.594811120271324" id="-35259">
		<tag k="alt_name" v="Kolsettuvå" />
		<tag k="fixme" v="consider natural=peak for the most distinct mountains in the district" />
		<tag k="name" v="Kolsettuva" />
		<tag k="natural" v="hill" />
		<tag k="place" v="locality" />
		<tag k="ssr:stedsnr" v="864740" />
	</node>
	<node lat="65.10522499877263" lon="11.760919435438018" id="-35271">
		<tag k="name" v="Ivarshallaren" />
		<tag k="natural" v="hill" />
		<tag k="place" v="locality" />
		<tag k="ssr:stedsnr" v="864947" />
	</node>
	<node lat="65.11825277490698" lon="11.902094439792513" id="-35272">
		<tag k="alt_name" v="Stor-Binndalen" />
		<tag k="name" v="Storbindalen" />
		<tag k="natural" v="valley" />
		<tag k="place" v="locality" />
		<tag k="ssr:stedsnr" v="864950" />
	</node>
	<node lat="65.12771944578087" lon="11.907986113251225" id="-35286">
		<tag k="fixme" v="consider natural=peak for the most distinct mountains in the district" />
		<tag k="name" v="Øver Stigen" />
		<tag k="natural" v="hill" />
		<tag k="place" v="locality" />
		<tag k="ssr:stedsnr" v="949096" />
	</node>
	<node lat="65.09346111235838" lon="11.88427222578587" id="-35290">
		<tag k="name" v="Dumålskardet" />
		<tag k="natural" v="valley" />
		<tag k="place" v="locality" />
		<tag k="ssr:stedsnr" v="953853" />
	</node>
	<node lat="65.05751795518287" lon="11.584630724818606" id="-35295">
		<tag k="name" v="Longvassheian" />
		<tag k="natural" v="hill" />
		<tag k="place" v="locality" />
		<tag k="ssr:stedsnr" v="956275" />
	</node>
	<node lat="65.10055833073137" lon="11.592455547008086" id="-35301">
		<tag k="name" v="Storhaugen" />
		<tag k="natural" v="hill" />
		<tag k="place" v="locality" />
		<tag k="ssr:stedsnr" v="957700" />
	</node>
	<node lat="65.1016277762298" lon="11.593541675438829" id="-35302">
		<tag k="name" v="Nerskardkroken" />
		<tag k="natural" v="valley" />
		<tag k="place" v="locality" />
		<tag k="ssr:stedsnr" v="957702" />
	</node>
	<node lat="65.09340000017255" lon="11.584369452522669" id="-35303">
		<tag k="name" v="Gloksteinhaugen" />
		<tag k="natural" v="ridge" />
		<tag k="place" v="locality" />
		<tag k="ssr:stedsnr" v="957683" />
=======
	<node id="-792098" lat="65.1009888908" lon="11.687647229">
		<tag k="fixme" v="consider natural=peak for the most distinct mountains in the district" />
		<tag k="name" v="Sørlauhatten" />
		<tag k="natural" v="hill" />
		<tag k="place" v="locality" />
		<tag k="ssr:stedsnr" v="681700" />
	</node>
	<node id="-792001" lat="65.063297226" lon="11.5695833376">
		<tag k="name" v="Møla" />
		<tag k="place" v="locality" />
		<tag k="ssr:stedsnr" v="348361" />
	</node>
	<node id="-792581" lat="65.1040888925" lon="11.5787833385">
		<tag k="name" v="Inner Valhaugen" />
		<tag k="natural" v="hill" />
		<tag k="place" v="locality" />
		<tag k="ssr:stedsnr" v="179974" />
	</node>
	<node id="-792952" lat="65.1354972183" lon="11.9337750042">
		<tag k="name" v="Hestlifjellet" />
		<tag k="natural" v="hill" />
		<tag k="place" v="locality" />
		<tag k="ssr:stedsnr" v="771116" />
	</node>
	<node id="-792602" lat="65.0986750019" lon="11.8825055465">
		<tag k="name" v="Åsen" />
		<tag k="natural" v="hill" />
		<tag k="place" v="locality" />
		<tag k="ssr:stedsnr" v="197058" />
	</node>
	<node id="-792008" lat="65.0620388921" lon="11.826336102">
		<tag k="fixme" v="consider natural=peak for the most distinct mountains in the district" />
		<tag k="name" v="Rossviktuva" />
		<tag k="natural" v="hill" />
		<tag k="ssr:stedsnr" v="349908" />
	</node>
	<node id="-792599" lat="65.0733194401" lon="11.5928472198">
		<tag k="name" v="Kalvdalen" />
		<tag k="natural" v="valley" />
		<tag k="place" v="locality" />
		<tag k="ssr:stedsnr" v="196800" />
	</node>
	<node id="-792085" lat="65.0886944451" lon="11.9088333358">
		<tag k="name" v="Tørrisdalen" />
		<tag k="natural" v="valley" />
		<tag k="place" v="locality" />
		<tag k="ssr:stedsnr" v="500062" />
	</node>
	<node id="-792596" lat="65.0951249971" lon="11.6175083398">
		<tag k="fixme" v="consider natural=peak for the most distinct mountains in the district" />
		<tag k="name" v="Hagafjellet" />
		<tag k="natural" v="hill" />
		<tag k="place" v="locality" />
		<tag k="ssr:stedsnr" v="196683" />
	</node>
	<node id="-791982" lat="65.1137694437" lon="11.7025722122">
		<tag k="name" v="Mallatuvå" />
		<tag k="natural" v="hill" />
		<tag k="place" v="locality" />
		<tag k="ssr:stedsnr" v="471830" />
	</node>
	<node id="-793103" lat="65.1016277762" lon="11.5935416754">
		<tag k="name" v="Nerskardkroken" />
		<tag k="natural" v="valley" />
		<tag k="place" v="locality" />
		<tag k="ssr:stedsnr" v="957702" />
	</node>
	<node id="-793102" lat="65.1005583307" lon="11.592455547">
		<tag k="name" v="Storhaugen" />
		<tag k="natural" v="hill" />
		<tag k="place" v="locality" />
		<tag k="ssr:stedsnr" v="957700" />
	</node>
	<node id="-793101" lat="65.0951555599" lon="11.5709333341">
		<tag k="name" v="Sjyhaugen" />
		<tag k="natural" v="hill" />
		<tag k="place" v="locality" />
		<tag k="ssr:stedsnr" v="957698" />
	</node>
	<node id="-793100" lat="65.0934000002" lon="11.5843694525">
		<tag k="name" v="Gloksteinhaugen" />
		<tag k="natural" v="ridge" />
		<tag k="place" v="locality" />
		<tag k="ssr:stedsnr" v="957683" />
	</node>
	<node id="-792582" lat="65.0889888919" lon="11.5431055475">
		<tag k="name" v="Bremneshaugen" />
		<tag k="natural" v="hill" />
		<tag k="old_name" v="Bremnesshaugen" />
		<tag k="place" v="locality" />
		<tag k="ssr:stedsnr" v="181096" />
	</node>
	<node id="-793093" lat="65.0866249958" lon="11.5485000091">
		<tag k="name" v="Hansvikhaugen" />
		<tag k="natural" v="hill" />
		<tag k="place" v="locality" />
		<tag k="ssr:stedsnr" v="956694" />
	</node>
	<node id="-793092" lat="65.0575179552" lon="11.5846307248">
		<tag k="name" v="Longvassheian" />
		<tag k="natural" v="hill" />
		<tag k="place" v="locality" />
		<tag k="ssr:stedsnr" v="956275" />
	</node>
	<node id="-792746" lat="65.07183611" lon="11.5894277753">
		<tag k="name" v="Ravelbakkan" />
		<tag k="natural" v="slope" />
		<tag k="place" v="locality" />
		<tag k="ssr:stedsnr" v="410386" />
	</node>
	<node id="-793089" lat="65.0485833289" lon="11.6836305653">
		<tag k="name" v="Eingrova" />
		<tag k="natural" v="valley" />
		<tag k="place" v="locality" />
		<tag k="ssr:stedsnr" v="956409" />
>>>>>>> e1d4bc35ff8a6074a6f2e91616a996b547c36f15
	</node>
</osm>
