<?xml version="1.0" encoding="UTF-8"?>
<<<<<<< HEAD
<osm version="0.6" generator="osmapis">
	<node lat="65.08776110832002" lon="11.646413893253374" id="-33966">
		<tag k="alt_name" v="Nessvatnet" />
		<tag k="name" v="Nesvatnet" />
		<tag k="natural" v="water" />
		<tag k="ssr:stedsnr" v="14667" />
	</node>
	<node lat="65.09932222543277" lon="11.879252775487116" id="-33971">
		<tag k="name" v="Medgutvikelva" />
		<tag k="ssr:stedsnr" v="15010" />
		<tag k="waterway" v="stream" />
	</node>
	<node lat="65.10681667024002" lon="11.68177500970854" id="-33981">
		<tag k="name" v="Brennå" />
		<tag k="ssr:stedsnr" v="45213" />
		<tag k="waterway" v="stream" />
	</node>
	<node lat="65.08754444212884" lon="11.716941659690049" id="-33985">
		<tag k="name" v="Likvikbekken" />
		<tag k="ssr:stedsnr" v="45992" />
		<tag k="waterway" v="stream" />
	</node>
	<node lat="65.06598055197489" lon="11.855161118947072" id="-33999">
		<tag k="name" v="Stordalstjønna" />
		<tag k="natural" v="water" />
		<tag k="ssr:stedsnr" v="75071" />
	</node>
	<node lat="65.09534166849052" lon="11.643961106199116" id="-34027">
		<tag k="name" v="Nessvassbekken" />
		<tag k="ssr:stedsnr" v="107816" />
		<tag k="waterway" v="stream" />
	</node>
	<node lat="65.051099999106" lon="11.807255558350802" id="-34036">
		<tag k="name" v="Reppavatnet" />
		<tag k="natural" v="water" />
		<tag k="ssr:stedsnr" v="136115" />
	</node>
	<node lat="65.11111111003666" lon="11.89636389367762" id="-34077">
		<tag k="name" v="Nordgutvikvatnet" />
		<tag k="natural" v="water" />
		<tag k="ssr:stedsnr" v="257957" />
	</node>
	<node lat="65.11641944546932" lon="11.769486103309807" id="-34083">
		<tag k="name" v="Hesten" />
		<tag k="natural" v="water" />
		<tag k="ssr:stedsnr" v="167902" />
	</node>
	<node lat="65.08531111164815" lon="11.853424994999543" id="-34090">
		<tag k="name" v="Sørgutvikelva" />
		<tag k="ssr:stedsnr" v="197067" />
		<tag k="waterway" v="stream" />
	</node>
	<node lat="65.10848611289195" lon="11.631622212192799" id="-34141">
		<tag k="name" v="Søråelva" />
		<tag k="ssr:stedsnr" v="289830" />
		<tag k="waterway" v="stream" />
	</node>
	<node lat="65.10879722193806" lon="11.760011106691493" id="-34178">
		<tag k="name" v="Godleirå" />
		<tag k="natural" v="water" />
		<tag k="ssr:stedsnr" v="471879" />
	</node>
	<node lat="65.06588055998238" lon="11.854983330066048" id="-34180">
		<tag k="name" v="Stordalstjønnin" />
		<tag k="natural" v="water" />
		<tag k="ssr:stedsnr" v="341891" />
		<tag k="water" v="lake" />
	</node>
	<node lat="65.11055833589732" lon="11.640441672861753" id="-34189">
		<tag k="name" v="Kvaløyelva" />
		<tag k="ssr:stedsnr" v="349803" />
		<tag k="waterway" v="stream" />
	</node>
	<node lat="65.10553333519155" lon="11.65197499339573" id="-34193">
		<tag k="name" v="Kvennfossen" />
		<tag k="natural" v="waterfall" />
		<tag k="ssr:stedsnr" v="349822" />
	</node>
	<node lat="65.08499444181395" lon="11.54773056545701" id="-34194">
		<tag k="name" v="Teinå" />
		<tag k="ssr:stedsnr" v="349703" />
		<tag k="waterway" v="stream" />
	</node>
	<node lat="65.04872777727546" lon="11.549752777206164" id="-34226">
		<tag k="name" v="Ishusdammen" />
		<tag k="natural" v="water" />
		<tag k="ssr:stedsnr" v="410890" />
		<tag k="water" v="pond" />
	</node>
	<node lat="65.08659999635887" lon="11.554119443436244" id="-34237">
		<tag k="fixme" v="multiple name tags, choose one and add the other to alt_name" />
		<tag k="name" v="Gjerdevatnet;Storvatnet" />
		<tag k="natural" v="water" />
		<tag k="ssr:stedsnr" v="439710" />
	</node>
	<node lat="65.1117722256874" lon="11.668691666714727" id="-34261">
		<tag k="name" v="Fossbekken" />
		<tag k="ssr:stedsnr" v="471803" />
		<tag k="waterway" v="stream" />
	</node>
	<node lat="65.11608889056865" lon="11.646872230549569" id="-34324">
		<tag k="name" v="Kalbekken" />
		<tag k="ssr:stedsnr" v="531789" />
		<tag k="waterway" v="stream" />
	</node>
	<node lat="65.1164666677777" lon="11.663727769144637" id="-34327">
		<tag k="name" v="Brennmyrtjønna" />
		<tag k="natural" v="water" />
		<tag k="ssr:stedsnr" v="532799" />
	</node>
	<node lat="65.08351666899054" lon="11.613124991474406" id="-34339">
		<tag k="name" v="Steinsvatnet" />
		<tag k="natural" v="water" />
		<tag k="ssr:stedsnr" v="560822" />
	</node>
	<node lat="65.13871666641253" lon="11.940633325490518" id="-34347">
		<tag k="alt_name" v="Sørdalselva" />
		<tag k="name" v="Sørelva" />
		<tag k="ssr:stedsnr" v="560886" />
		<tag k="waterway" v="stream" />
	</node>
	<node lat="65.1148916653262" lon="11.674402788110548" id="-34426">
		<tag k="name" v="Korsholmbekken" />
		<tag k="ssr:stedsnr" v="895196" />
		<tag k="waterway" v="stream" />
	</node>
	<node lat="65.08921944842237" lon="11.738913894874843" id="-34431">
		<tag k="name" v="Korsholmen" />
		<tag k="place" v="islet" />
		<tag k="ssr:stedsnr" v="895997" />
	</node>
	<node lat="65.10068055338029" lon="11.647933336595681" id="-34439">
		<tag k="name" v="Kvaløyelva" />
		<tag k="ssr:stedsnr" v="896841" />
		<tag k="waterway" v="stream" />
	</node>
	<node lat="65.06233889040534" lon="11.834169448605563" id="-34440">
		<tag k="alt_name" v="Rossvikvatnet" />
		<tag k="name" v="Langtjønna" />
		<tag k="natural" v="water" />
		<tag k="ssr:stedsnr" v="896902" />
	</node>
	<node lat="65.08825277612968" lon="11.604088881160875" id="-34452">
		<tag k="name" v="Steinselva" />
		<tag k="ssr:stedsnr" v="714794" />
		<tag k="waterway" v="stream" />
	</node>
	<node lat="65.11584166829739" lon="11.772936106455422" id="-34495">
		<tag k="name" v="Nordtjønna" />
=======
<osm generator="osmapis" version="0.6">
	<node id="-792448" lat="65.065980552" lon="11.8551611189">
		<tag k="name" v="Stordalstjønna" />
>>>>>>> e1d4bc35ff8a6074a6f2e91616a996b547c36f15
		<tag k="natural" v="water" />
		<tag k="ssr:stedsnr" v="788105" />
	</node>
<<<<<<< HEAD
	<node lat="65.11326111043562" lon="11.672788898443661" id="-34517">
		<tag k="name" v="Søkktjønna" />
		<tag k="natural" v="water" />
		<tag k="ssr:stedsnr" v="925123" />
	</node>
	<node lat="65.07801388704664" lon="11.64972222755322" id="-34526">
=======
	<node id="-792447" lat="65.1165166692" lon="11.7848583315">
>>>>>>> e1d4bc35ff8a6074a6f2e91616a996b547c36f15
		<tag k="fixme" v="multiple name tags, choose one and add the other to alt_name" />
		<tag k="name" v="Lomtjønna;Tverfjellvatnet" />
		<tag k="natural" v="water" />
		<tag k="ssr:stedsnr" v="925853" />
	</node>
<<<<<<< HEAD
	<node lat="65.10746944664642" lon="11.713766656854927" id="-34527">
		<tag k="name" v="Sanddikbekken" />
		<tag k="ssr:stedsnr" v="847723" />
		<tag k="waterway" v="stream" />
	</node>
	<node lat="65.10777777798916" lon="11.754672218828025" id="-34557">
		<tag k="name" v="Stortjønna" />
		<tag k="natural" v="water" />
		<tag k="ssr:stedsnr" v="925002" />
	</node>
	<node lat="65.0561333342441" lon="11.58615834223035" id="-34617">
		<tag k="name" v="Årdalselva" />
		<tag k="ssr:stedsnr" v="15791" />
		<tag k="waterway" v="stream" />
	</node>
	<node lat="65.11651666924685" lon="11.784858331525013" id="-34645">
		<tag k="fixme" v="multiple name tags, choose one and add the other to alt_name" />
		<tag k="name" v="Fagnatjønna;Helvetestjønna" />
=======
	<node id="-792829" lat="65.1387166664" lon="11.9406333255">
		<tag k="alt_name" v="Sørdalselva" />
		<tag k="name" v="Sørelva" />
		<tag k="ssr:stedsnr" v="560886" />
		<tag k="waterway" v="stream" />
	</node>
	<node id="-792186" lat="65.0882527761" lon="11.6040888812">
		<tag k="name" v="Steinselva" />
		<tag k="ssr:stedsnr" v="714794" />
		<tag k="waterway" v="stream" />
	</node>
	<node id="-792568" lat="65.0981305534" lon="11.6322222293">
		<tag k="name" v="Søråelvvatnan" />
>>>>>>> e1d4bc35ff8a6074a6f2e91616a996b547c36f15
		<tag k="natural" v="water" />
		<tag k="ssr:stedsnr" v="60879" />
	</node>
<<<<<<< HEAD
	<node lat="65.0911138875553" lon="11.910713899224799" id="-34667">
		<tag k="alt_name" v="Tørrisdalsvatnet" />
		<tag k="name" v="Tørrisvatnet" />
		<tag k="natural" v="water" />
		<tag k="ssr:stedsnr" v="76043" />
	</node>
	<node lat="65.14289444260959" lon="11.930536115345635" id="-34669">
		<tag k="name" v="Stortjønna" />
		<tag k="natural" v="water" />
		<tag k="ssr:stedsnr" v="76977" />
	</node>
	<node lat="65.07207222406856" lon="11.872263884512945" id="-34676">
		<tag k="name" v="Olaslåttjønnin" />
=======
	<node id="-792182" lat="65.0992916669" lon="11.6996611016">
		<tag k="name" v="Kvennhusfossen" />
		<tag k="natural" v="waterfall" />
		<tag k="ssr:stedsnr" v="713923" />
	</node>
	<node id="-792692" lat="65.1055333352" lon="11.6519749934">
		<tag k="name" v="Kvennfossen" />
		<tag k="natural" v="waterfall" />
		<tag k="ssr:stedsnr" v="349822" />
	</node>
	<node id="-792178" lat="65.0428583345" lon="11.7909527728">
		<tag k="name" v="Reppavasstjønna" />
>>>>>>> e1d4bc35ff8a6074a6f2e91616a996b547c36f15
		<tag k="natural" v="water" />
		<tag k="ssr:stedsnr" v="99888" />
	</node>
<<<<<<< HEAD
	<node lat="65.10511389146129" lon="11.876311114997295" id="-34679">
		<tag k="name" v="Hårnfjellvatnet" />
		<tag k="natural" v="water" />
		<tag k="ssr:stedsnr" v="103836" />
	</node>
	<node lat="65.07472499996878" lon="11.549283323350254" id="-34689">
		<tag k="name" v="Vågaelva" />
		<tag k="ssr:stedsnr" v="106416" />
		<tag k="waterway" v="stream" />
	</node>
	<node lat="65.11376944346927" lon="11.702538880423381" id="-34690">
		<tag k="name" v="Senningbekken" />
		<tag k="ssr:stedsnr" v="107070" />
		<tag k="waterway" v="stream" />
	</node>
	<node lat="65.09728333119934" lon="11.568411121023985" id="-34696">
		<tag k="name" v="Brattistadstraumen" />
		<tag k="natural" v="strait" />
		<tag k="ssr:stedsnr" v="118917" />
	</node>
	<node lat="65.10279444869418" lon="11.72751389484549" id="-34728">
		<tag k="name" v="Bremmesbekken" />
		<tag k="ssr:stedsnr" v="166899" />
		<tag k="waterway" v="stream" />
	</node>
	<node lat="65.09813055344856" lon="11.632222229303684" id="-34734">
		<tag k="name" v="Søråelvvatnan" />
=======
	<node id="-792561" lat="65.1027944487" lon="11.7275138948">
		<tag k="name" v="Bremmesbekken" />
		<tag k="ssr:stedsnr" v="166899" />
		<tag k="waterway" v="stream" />
	</node>
	<node id="-792432" lat="65.0875444421" lon="11.7169416597">
		<tag k="name" v="Likvikbekken" />
		<tag k="ssr:stedsnr" v="45992" />
		<tag k="waterway" v="stream" />
	</node>
	<node id="-792302" lat="65.1132611104" lon="11.6727888984">
		<tag k="name" v="Søkktjønna" />
		<tag k="natural" v="water" />
		<tag k="ssr:stedsnr" v="925123" />
	</node>
	<node id="-792299" lat="65.107777778" lon="11.7546722188">
		<tag k="name" v="Stortjønna" />
>>>>>>> e1d4bc35ff8a6074a6f2e91616a996b547c36f15
		<tag k="natural" v="water" />
		<tag k="ssr:stedsnr" v="167738" />
	</node>
<<<<<<< HEAD
	<node lat="65.08472777840906" lon="11.59557500103903" id="-34761">
		<tag k="name" v="Søråelva" />
		<tag k="ssr:stedsnr" v="196688" />
		<tag k="waterway" v="stream" />
	</node>
	<node lat="65.05750833170951" lon="11.581508329952353" id="-34805">
		<tag k="name" v="Longvatnet" />
		<tag k="natural" v="water" />
		<tag k="ssr:stedsnr" v="288243" />
	</node>
	<node lat="65.14289444260959" lon="11.930536115345635" id="-34810">
		<tag k="name" v="Småvatnan" />
		<tag k="natural" v="water" />
		<tag k="ssr:stedsnr" v="289850" />
	</node>
	<node lat="65.08846666935358" lon="11.892138890562675" id="-34846">
		<tag k="name" v="Tverrbekken" />
		<tag k="ssr:stedsnr" v="346850" />
		<tag k="waterway" v="stream" />
	</node>
	<node lat="65.04980832964856" lon="11.588716667245107" id="-34852">
		<tag k="name" v="Vadbekken" />
		<tag k="ssr:stedsnr" v="348297" />
		<tag k="waterway" v="stream" />
	</node>
	<node lat="65.11594444348667" lon="11.890838886457567" id="-34895">
		<tag k="name" v="Nordgutvikelva" />
		<tag k="ssr:stedsnr" v="378950" />
		<tag k="waterway" v="stream" />
	</node>
	<node lat="65.1050555522982" lon="11.719549998092576" id="-34913">
		<tag k="name" v="Osen" />
		<tag k="natural" v="bay" />
		<tag k="ssr:stedsnr" v="409886" />
	</node>
	<node lat="65.09005277988383" lon="11.884274998074268" id="-34974">
		<tag k="name" v="Sørgutvikvatnet" />
=======
	<node id="-792425" lat="65.1068166702" lon="11.6817750097">
		<tag k="name" v="Brennå" />
		<tag k="ssr:stedsnr" v="45213" />
		<tag k="waterway" v="stream" />
	</node>
	<node id="-792688" lat="65.1105583359" lon="11.6404416729">
		<tag k="name" v="Kvaløyelva" />
		<tag k="ssr:stedsnr" v="349803" />
		<tag k="waterway" v="stream" />
	</node>
	<node id="-793058" lat="65.0865500013" lon="11.6821249922">
		<tag k="alt_name" v="Leknesselva" />
		<tag k="name" v="Lekneselva" />
		<tag k="ssr:stedsnr" v="864736" />
		<tag k="waterway" v="stream" />
	</node>
	<node id="-792672" lat="65.0884666694" lon="11.8921388906">
		<tag k="name" v="Tverrbekken" />
		<tag k="ssr:stedsnr" v="346850" />
		<tag k="waterway" v="stream" />
	</node>
	<node id="-792798" lat="65.1164666678" lon="11.6637277691">
		<tag k="name" v="Brennmyrtjønna" />
		<tag k="natural" v="water" />
		<tag k="ssr:stedsnr" v="532799" />
	</node>
	<node id="-792796" lat="65.0726250012" lon="11.8761361139">
		<tag k="name" v="Olaslåttjønna" />
>>>>>>> e1d4bc35ff8a6074a6f2e91616a996b547c36f15
		<tag k="natural" v="water" />
		<tag k="ssr:stedsnr" v="500063" />
	</node>
<<<<<<< HEAD
	<node lat="65.10916666491778" lon="11.680350004212869" id="-35001">
		<tag k="name" v="Skråelva" />
		<tag k="ssr:stedsnr" v="531212" />
		<tag k="waterway" v="stream" />
	</node>
	<node lat="65.0858999982894" lon="11.571705558477513" id="-35004">
		<tag k="name" v="Stortjønna" />
		<tag k="natural" v="water" />
		<tag k="ssr:stedsnr" v="531702" />
	</node>
	<node lat="65.13501666747221" lon="11.721913889557637" id="-35007">
=======
	<node id="-792794" lat="65.1350166675" lon="11.7219138896">
>>>>>>> e1d4bc35ff8a6074a6f2e91616a996b547c36f15
		<tag k="name" v="Valtjønna" />
		<tag k="natural" v="water" />
		<tag k="ssr:stedsnr" v="531906" />
	</node>
<<<<<<< HEAD
	<node lat="65.07262500116717" lon="11.876136113864037" id="-35010">
		<tag k="name" v="Olaslåttjønna" />
		<tag k="natural" v="water" />
		<tag k="ssr:stedsnr" v="532400" />
	</node>
	<node lat="65.07161388667691" lon="11.632852784018374" id="-35075">
		<tag k="alt_name" v="Brikdalselva" />
		<tag k="name" v="Briktdalselva" />
		<tag k="ssr:stedsnr" v="621827" />
		<tag k="waterway" v="stream" />
	</node>
	<node lat="65.1112083356743" lon="11.639627781991596" id="-35089">
		<tag k="name" v="Kvaløyelva" />
		<tag k="ssr:stedsnr" v="647918" />
		<tag k="waterway" v="river" />
	</node>
	<node lat="65.09311111008518" lon="11.694349991535578" id="-35097">
=======
	<node id="-792409" lat="65.0561333342" lon="11.5861583422">
		<tag k="name" v="Årdalselva" />
		<tag k="ssr:stedsnr" v="15791" />
		<tag k="waterway" v="stream" />
	</node>
	<node id="-793047" lat="65.0746749982" lon="11.8912305513">
		<tag k="alt_name" v="Tverråvatnet" />
		<tag k="name" v="Tyskengvatnet" />
		<tag k="natural" v="water" />
		<tag k="ssr:stedsnr" v="864057" />
	</node>
	<node id="-792789" lat="65.1160888906" lon="11.6468722305">
		<tag k="name" v="Kalbekken" />
		<tag k="ssr:stedsnr" v="531789" />
		<tag k="waterway" v="stream" />
	</node>
	<node id="-792787" lat="65.0858999983" lon="11.5717055585">
		<tag k="name" v="Stortjønna" />
		<tag k="natural" v="water" />
		<tag k="ssr:stedsnr" v="531702" />
	</node>
	<node id="-792911" lat="65.0931111101" lon="11.6943499915">
>>>>>>> e1d4bc35ff8a6074a6f2e91616a996b547c36f15
		<tag k="name" v="Kvennfossen" />
		<tag k="natural" v="waterfall" />
		<tag k="ssr:stedsnr" v="652915" />
	</node>
<<<<<<< HEAD
	<node lat="65.05154722000715" lon="11.772352772959069" id="-35101">
		<tag k="name" v="Reppabekken" />
		<tag k="ssr:stedsnr" v="652861" />
		<tag k="waterway" v="stream" />
	</node>
	<node lat="65.04285833453375" lon="11.790952772762719" id="-35121">
		<tag k="name" v="Reppavasstjønna" />
		<tag k="natural" v="water" />
		<tag k="ssr:stedsnr" v="713889" />
	</node>
	<node lat="65.09929166694985" lon="11.699661101572724" id="-35124">
		<tag k="name" v="Kvennhusfossen" />
		<tag k="natural" v="waterfall" />
		<tag k="ssr:stedsnr" v="713923" />
	</node>
	<node lat="65.07675000351408" lon="11.854102788584468" id="-35136">
		<tag k="name" v="Vassfjellvatnet" />
		<tag k="natural" v="water" />
		<tag k="ssr:stedsnr" v="742054" />
	</node>
	<node lat="65.11166944233717" lon="11.691966671336289" id="-35168">
		<tag k="name" v="Silsandbekken" />
		<tag k="ssr:stedsnr" v="774099" />
		<tag k="waterway" v="stream" />
	</node>
	<node lat="65.1131611126638" lon="11.767419454020748" id="-35173">
		<tag k="name" v="Mellomtjønna" />
=======
	<node id="-792398" lat="65.0993222254" lon="11.8792527755">
		<tag k="name" v="Medgutvikelva" />
		<tag k="ssr:stedsnr" v="15010" />
		<tag k="waterway" v="stream" />
	</node>
	<node id="-793009" lat="65.0886944422" lon="11.8460138795">
		<tag k="alt_name" v="Klemetsviktjønna" />
		<tag k="name" v="Klemetsvikvatnet" />
		<tag k="natural" v="water" />
		<tag k="ssr:stedsnr" v="804085" />
	</node>
	<node id="-792674" lat="65.0498083296" lon="11.5887166672">
		<tag k="name" v="Vadbekken" />
		<tag k="ssr:stedsnr" v="348297" />
		<tag k="waterway" v="stream" />
	</node>
	<node id="-792778" lat="65.1091666649" lon="11.6803500042">
		<tag k="name" v="Skråelva" />
		<tag k="ssr:stedsnr" v="531212" />
		<tag k="waterway" v="stream" />
	</node>
	<node id="-792519" lat="65.0953416685" lon="11.6439611062">
		<tag k="name" v="Nessvassbekken" />
		<tag k="ssr:stedsnr" v="107816" />
		<tag k="waterway" v="stream" />
	</node>
	<node id="-792960" lat="65.1116694423" lon="11.6919666713">
		<tag k="name" v="Silsandbekken" />
		<tag k="ssr:stedsnr" v="774099" />
		<tag k="waterway" v="stream" />
	</node>
	<node id="-792005" lat="65.0849944418" lon="11.5477305655">
		<tag k="name" v="Teinå" />
		<tag k="ssr:stedsnr" v="349703" />
		<tag k="waterway" v="stream" />
	</node>
	<node id="-792516" lat="65.1137694435" lon="11.7025388804">
		<tag k="name" v="Senningbekken" />
		<tag k="ssr:stedsnr" v="107070" />
		<tag k="waterway" v="stream" />
	</node>
	<node id="-792259" lat="65.0623388904" lon="11.8341694486">
		<tag k="alt_name" v="Rossvikvatnet" />
		<tag k="name" v="Langtjønna" />
>>>>>>> e1d4bc35ff8a6074a6f2e91616a996b547c36f15
		<tag k="natural" v="water" />
		<tag k="ssr:stedsnr" v="774899" />
	</node>
<<<<<<< HEAD
	<node lat="65.10045000120748" lon="11.667458338627588" id="-35177">
		<tag k="name" v="Skråelva" />
		<tag k="ssr:stedsnr" v="774829" />
		<tag k="waterway" v="stream" />
	</node>
	<node lat="65.08869444218621" lon="11.846013879525987" id="-35209">
		<tag k="alt_name" v="Klemetsviktjønna" />
		<tag k="name" v="Klemetsvikvatnet" />
		<tag k="natural" v="water" />
		<tag k="ssr:stedsnr" v="804085" />
	</node>
	<node lat="65.074674998202" lon="11.891230551335232" id="-35245">
		<tag k="alt_name" v="Tverråvatnet" />
		<tag k="name" v="Tyskengvatnet" />
=======
	<node id="-792258" lat="65.1006805534" lon="11.6479333366">
		<tag k="name" v="Kvaløyelva" />
		<tag k="ssr:stedsnr" v="896841" />
		<tag k="waterway" v="stream" />
	</node>
	<node id="-792384" lat="65.0877611083" lon="11.6464138933">
		<tag k="alt_name" v="Nessvatnet" />
		<tag k="name" v="Nesvatnet" />
		<tag k="natural" v="water" />
		<tag k="ssr:stedsnr" v="14667" />
	</node>
	<node id="-792255" lat="65.0892194484" lon="11.7389138949">
		<tag k="name" v="Korsholmen" />
		<tag k="place" v="islet" />
		<tag k="ssr:stedsnr" v="895997" />
	</node>
	<node id="-791868" lat="65.1428944426" lon="11.9305361153">
		<tag k="name" v="Småvatnan" />
>>>>>>> e1d4bc35ff8a6074a6f2e91616a996b547c36f15
		<tag k="natural" v="water" />
		<tag k="ssr:stedsnr" v="864057" />
	</node>
<<<<<<< HEAD
	<node lat="65.08655000130744" lon="11.682124992195032" id="-35257">
		<tag k="alt_name" v="Leknesselva" />
		<tag k="name" v="Lekneselva" />
		<tag k="ssr:stedsnr" v="864736" />
		<tag k="waterway" v="stream" />
	</node>
	<node lat="65.10957777719574" lon="11.653605552026113" id="-35296">
		<tag k="name" v="Kårå" />
		<tag k="ssr:stedsnr" v="956804" />
		<tag k="waterway" v="stream" />
	</node>
	<node lat="65.12067499603629" lon="11.787338878548523" id="-35307">
		<tag k="name" v="Nøkktjønna" />
		<tag k="natural" v="water" />
		<tag k="ssr:stedsnr" v="970162" />
=======
	<node id="-792507" lat="65.074725" lon="11.5492833234">
		<tag k="name" v="Vågaelva" />
		<tag k="ssr:stedsnr" v="106416" />
		<tag k="waterway" v="stream" />
	</node>
	<node id="-791866" lat="65.1084861129" lon="11.6316222122">
		<tag k="name" v="Søråelva" />
		<tag k="ssr:stedsnr" v="289830" />
		<tag k="waterway" v="stream" />
	</node>
	<node id="-792887" lat="65.0716138867" lon="11.632852784">
		<tag k="alt_name" v="Brikdalselva" />
		<tag k="name" v="Briktdalselva" />
		<tag k="ssr:stedsnr" v="621827" />
		<tag k="waterway" v="stream" />
>>>>>>> e1d4bc35ff8a6074a6f2e91616a996b547c36f15
	</node>
	<node id="-792370" lat="65.120674996" lon="11.7873388785">
		<tag k="name" v="Nøkktjønna" />
		<tag k="natural" v="water" />
		<tag k="ssr:stedsnr" v="970162" />
	</node>
	<node id="-792753" lat="65.0487277773" lon="11.5497527772">
		<tag k="name" v="Ishusdammen" />
		<tag k="natural" v="water" />
		<tag k="ssr:stedsnr" v="410890" />
		<tag k="water" v="pond" />
	</node>
	<node id="-792496" lat="65.1051138915" lon="11.876311115">
		<tag k="name" v="Hårnfjellvatnet" />
		<tag k="natural" v="water" />
		<tag k="ssr:stedsnr" v="103836" />
	</node>
	<node id="-792968" lat="65.1131611127" lon="11.767419454">
		<tag k="name" v="Mellomtjønna" />
		<tag k="natural" v="water" />
		<tag k="ssr:stedsnr" v="774899" />
	</node>
	<node id="-791980" lat="65.1117722257" lon="11.6686916667">
		<tag k="name" v="Fossbekken" />
		<tag k="ssr:stedsnr" v="471803" />
		<tag k="waterway" v="stream" />
	</node>
	<node id="-792242" lat="65.1148916653" lon="11.6744027881">
		<tag k="name" v="Korsholmbekken" />
		<tag k="ssr:stedsnr" v="895196" />
		<tag k="waterway" v="stream" />
	</node>
	<node id="-792668" lat="65.06588056" lon="11.8549833301">
		<tag k="name" v="Stordalstjønnin" />
		<tag k="natural" v="water" />
		<tag k="ssr:stedsnr" v="341891" />
		<tag k="water" v="lake" />
	</node>
	<node id="-792742" lat="65.1050555523" lon="11.7195499981">
		<tag k="name" v="Osen" />
		<tag k="natural" v="bay" />
		<tag k="ssr:stedsnr" v="409886" />
	</node>
	<node id="-791985" lat="65.1087972219" lon="11.7600111067">
		<tag k="name" v="Godleirå" />
		<tag k="natural" v="water" />
		<tag k="ssr:stedsnr" v="471879" />
	</node>
	<node id="-792484" lat="65.0720722241" lon="11.8722638845">
		<tag k="name" v="Olaslåttjønnin" />
		<tag k="natural" v="water" />
		<tag k="ssr:stedsnr" v="99888" />
	</node>
	<node id="-792262" lat="65.0767500035" lon="11.8541027886">
		<tag k="name" v="Vassfjellvatnet" />
		<tag k="natural" v="water" />
		<tag k="ssr:stedsnr" v="742054" />
	</node>
	<node id="-791842" lat="65.1164194455" lon="11.7694861033">
		<tag k="name" v="Hesten" />
		<tag k="natural" v="water" />
		<tag k="ssr:stedsnr" v="167902" />
	</node>
	<node id="-792603" lat="65.0853111116" lon="11.853424995">
		<tag k="name" v="Sørgutvikelva" />
		<tag k="ssr:stedsnr" v="197067" />
		<tag k="waterway" v="stream" />
	</node>
	<node id="-792351" lat="65.1074694466" lon="11.7137666569">
		<tag k="name" v="Sanddikbekken" />
		<tag k="ssr:stedsnr" v="847723" />
		<tag k="waterway" v="stream" />
	</node>
	<node id="-792477" lat="65.1428944426" lon="11.9305361153">
		<tag k="name" v="Stortjønna" />
		<tag k="natural" v="water" />
		<tag k="ssr:stedsnr" v="76977" />
	</node>
	<node id="-792535" lat="65.0510999991" lon="11.8072555584">
		<tag k="name" v="Reppavatnet" />
		<tag k="natural" v="water" />
		<tag k="ssr:stedsnr" v="136115" />
	</node>
	<node id="-792731" lat="65.1159444435" lon="11.8908388865">
		<tag k="name" v="Nordgutvikelva" />
		<tag k="ssr:stedsnr" v="378950" />
		<tag k="waterway" v="stream" />
	</node>
	<node id="-792086" lat="65.0900527799" lon="11.8842749981">
		<tag k="name" v="Sørgutvikvatnet" />
		<tag k="natural" v="water" />
		<tag k="ssr:stedsnr" v="500063" />
	</node>
	<node id="-792597" lat="65.0847277784" lon="11.595575001">
		<tag k="name" v="Søråelva" />
		<tag k="ssr:stedsnr" v="196688" />
		<tag k="waterway" v="stream" />
	</node>
	<node id="-792468" lat="65.0911138876" lon="11.9107138992">
		<tag k="alt_name" v="Tørrisdalsvatnet" />
		<tag k="name" v="Tørrisvatnet" />
		<tag k="natural" v="water" />
		<tag k="ssr:stedsnr" v="76043" />
	</node>
	<node id="-792987" lat="65.1158416683" lon="11.7729361065">
		<tag k="name" v="Nordtjønna" />
		<tag k="natural" v="water" />
		<tag k="ssr:stedsnr" v="788105" />
	</node>
	<node id="-792208" lat="65.05154722" lon="11.772352773">
		<tag k="name" v="Reppabekken" />
		<tag k="ssr:stedsnr" v="652861" />
		<tag k="waterway" v="stream" />
	</node>
	<node id="-791823" lat="65.0972833312" lon="11.568411121">
		<tag k="name" v="Brattistadstraumen" />
		<tag k="natural" v="strait" />
		<tag k="ssr:stedsnr" v="118917" />
	</node>
	<node id="-792974" lat="65.1004500012" lon="11.6674583386">
		<tag k="name" v="Skråelva" />
		<tag k="ssr:stedsnr" v="774829" />
		<tag k="waterway" v="stream" />
	</node>
	<node id="-792130" lat="65.083516669" lon="11.6131249915">
		<tag k="name" v="Steinsvatnet" />
		<tag k="natural" v="water" />
		<tag k="ssr:stedsnr" v="560822" />
	</node>
	<node id="-791895" lat="65.0865999964" lon="11.5541194434">
		<tag k="fixme" v="multiple name tags, choose one and add the other to alt_name" />
		<tag k="name" v="Gjerdevatnet;Storvatnet" />
		<tag k="natural" v="water" />
		<tag k="ssr:stedsnr" v="439710" />
	</node>
	<node id="-792328" lat="65.078013887" lon="11.6497222276">
		<tag k="fixme" v="multiple name tags, choose one and add the other to alt_name" />
		<tag k="name" v="Lomtjønna;Tverfjellvatnet" />
		<tag k="natural" v="water" />
		<tag k="ssr:stedsnr" v="925853" />
	</node>
	<node id="-793095" lat="65.1095777772" lon="11.653605552">
		<tag k="name" v="Kårå" />
		<tag k="ssr:stedsnr" v="956804" />
		<tag k="waterway" v="stream" />
	</node>
	<node id="-792198" lat="65.1112083357" lon="11.639627782">
		<tag k="name" v="Kvaløyelva" />
		<tag k="ssr:stedsnr" v="647918" />
		<tag k="waterway" v="river" />
	</node>
	<node id="-791858" lat="65.0575083317" lon="11.58150833">
		<tag k="name" v="Longvatnet" />
		<tag k="natural" v="water" />
		<tag k="ssr:stedsnr" v="288243" />
	</node>
	<node id="-791939" lat="65.11111111" lon="11.8963638937">
		<tag k="name" v="Nordgutvikvatnet" />
		<tag k="natural" v="water" />
		<tag k="ssr:stedsnr" v="257957" />
	</node>
</osm>
