<?xml version="1.0" encoding="UTF-8"?>
<osm generator="osmapis" version="0.6">
	<node id="-693504" lat="65.13969167" lon="11.9245750095">
		<tag k="name" v="Hestlimyrån" />
		<tag k="natural" v="wetland" />
		<tag k="ssr:stedsnr" v="103113" />
	</node>
	<node id="-693929" lat="65.0994166651" lon="11.6413749917">
		<tag k="name" v="Knaphagan" />
		<tag k="place" v="locality" />
		<tag k="ssr:stedsnr" v="653728" />
	</node>
	<node id="-693371" lat="65.1107388866" lon="11.6667277836">
		<tag k="name" v="Flyan" />
		<tag k="natural" v="wetland" />
		<tag k="ssr:stedsnr" v="896805" />
	</node>
	<node id="-692858" lat="65.0728861075" lon="11.8186222136">
		<tag k="name" v="Svartomnen" />
		<tag k="natural" v="scree" />
		<tag k="ssr:stedsnr" v="281898" />
	</node>
	<node id="-693183" lat="65.0529361129" lon="11.5920472151">
		<tag k="name" v="Stor-Hesthagan" />
		<tag k="place" v="locality" />
		<tag k="ssr:stedsnr" v="713299" />
	</node>
	<node id="-693353" lat="65.10454722" lon="11.6569694338">
		<tag k="name" v="Kvennhusmyrå" />
		<tag k="natural" v="wetland" />
		<tag k="ssr:stedsnr" v="835815" />
	</node>
	<node id="-693074" lat="65.041644441" lon="11.6551249898">
		<tag k="landuse" v="meadow" />
		<tag k="name" v="Langhavet" />
		<tag k="ssr:stedsnr" v="409949" />
	</node>
	<node id="-693865" lat="65.0488888896" lon="11.5948749941">
		<tag k="name" v="Flyekrå" />
		<tag k="place" v="locality" />
		<tag k="ssr:stedsnr" v="592390" />
	</node>
	<node id="-693864" lat="65.0469861081" lon="11.5865472211">
		<tag k="name" v="Årdalsmyrå" />
		<tag k="place" v="locality" />
		<tag k="ssr:stedsnr" v="592382" />
	</node>
	<node id="-692796" lat="65.14384444" lon="11.9262055592">
		<tag k="name" v="Isterkjerran" />
		<tag k="natural" v="wetland" />
		<tag k="ssr:stedsnr" v="42118" />
	</node>
	<node id="-693989" lat="65.1030166676" lon="11.5806805527">
		<tag k="name" v="Buøymyrå" />
		<tag k="natural" v="wetland" />
		<tag k="ssr:stedsnr" v="775686" />
	</node>
	<node id="-692961" lat="65.1149944452" lon="11.6758083283">
		<tag k="name" v="Åsmyrå" />
		<tag k="natural" v="wetland" />
		<tag k="ssr:stedsnr" v="288211" />
	</node>
	<node id="-693856" lat="65.1059861147" lon="11.5933111068">
		<tag k="name" v="Nerskardmyrå" />
		<tag k="natural" v="wetland" />
		<tag k="ssr:stedsnr" v="591450" />
	</node>
	<node id="-693072" lat="65.0989888872" lon="11.8928111211">
		<tag k="name" v="Austronsmyrå" />
		<tag k="natural" v="wetland" />
		<tag k="ssr:stedsnr" v="407863" />
	</node>
	<node id="-693596" lat="65.0735777803" lon="11.8645944392">
		<tag k="name" v="Olaslåtten" />
		<tag k="place" v="locality" />
		<tag k="ssr:stedsnr" v="196083" />
	</node>
	<node id="-693979" lat="65.0518861155" lon="11.6888888791">
		<tag k="name" v="Blommerbekkmyrå" />
		<tag k="natural" v="wetland" />
		<tag k="ssr:stedsnr" v="774420" />
	</node>
	<node id="-692875" lat="65.0433055554" lon="11.6637472308">
		<tag k="name" v="Nordmyrå" />
		<tag k="place" v="locality" />
		<tag k="ssr:stedsnr" v="288919" />
	</node>
	<node id="-694103" lat="65.0580027784" lon="11.6067777866">
		<tag k="name" v="Sandbakkan" />
		<tag k="place" v="locality" />
		<tag k="ssr:stedsnr" v="955950" />
	</node>
	<node id="-693974" lat="65.0761694487" lon="11.6784611155">
		<tag k="name" v="Frøvikmyrå" />
		<tag k="place" v="locality" />
		<tag k="ssr:stedsnr" v="774109" />
	</node>
	<node id="-693077" lat="65.1014527746" lon="11.7585055639">
		<tag k="name" v="Våttvikmyra" />
		<tag k="natural" v="wetland" />
		<tag k="ssr:stedsnr" v="419925" />
	</node>
	<node id="-693202" lat="65.1047888881" lon="11.9154388802">
		<tag k="alt_name" v="Korslimyrå" />
		<tag k="name" v="Korslimyran" />
		<tag k="natural" v="wetland" />
		<tag k="ssr:stedsnr" v="621003" />
	</node>
	<node id="-693969" lat="65.1179722245" lon="11.6537694437">
		<tag k="name" v="Holman" />
		<tag k="place" v="locality" />
		<tag k="ssr:stedsnr" v="773774" />
	</node>
	<node id="-694096" lat="65.1354972183" lon="11.9337750042">
		<tag k="name" v="Stortjønnmoen" />
		<tag k="place" v="locality" />
		<tag k="ssr:stedsnr" v="953114" />
	</node>
	<node id="-693071" lat="65.10829167" lon="11.910358341">
		<tag k="name" v="Mølnåsmyrå" />
		<tag k="natural" v="wetland" />
		<tag k="ssr:stedsnr" v="407861" />
	</node>
	<node id="-694029" lat="65.1069833332" lon="11.8558361174">
		<tag k="name" v="Tørrisengmyrå" />
		<tag k="natural" v="wetland" />
		<tag k="ssr:stedsnr" v="828097" />
	</node>
	<node id="-693196" lat="65.1044972235" lon="11.7147194363">
		<tag k="landuse" v="meadow" />
		<tag k="name" v="Plassen" />
		<tag k="ssr:stedsnr" v="713941" />
	</node>
	<node id="-692939" lat="65.0601861096" lon="11.6968499925">
		<tag k="landuse" v="meadow" />
		<tag k="name" v="Gjerdmoen" />
		<tag k="ssr:stedsnr" v="228408" />
	</node>
	<node id="-693706" lat="65.0964027823" lon="11.7364861082">
		<tag k="name" v="Flyan" />
		<tag k="natural" v="wetland" />
		<tag k="ssr:stedsnr" v="349996" />
	</node>
	<node id="-693577" lat="65.0539194462" lon="11.6708444459">
		<tag k="name" v="Haugvikmyrå" />
		<tag k="place" v="locality" />
		<tag k="ssr:stedsnr" v="167379" />
	</node>
	<node id="-693324" lat="65.1157916623" lon="11.6627027866">
		<tag k="alt_name" v="Brennmyrå" />
		<tag k="name" v="Brennmyra" />
		<tag k="natural" v="wetland" />
		<tag k="ssr:stedsnr" v="925740" />
	</node>
	<node id="-693187" lat="65.1070861111" lon="11.6239638969">
		<tag k="name" v="Oksetmyrå" />
		<tag k="natural" v="wetland" />
		<tag k="ssr:stedsnr" v="713790" />
	</node>
	<node id="-693442" lat="65.0954611074" lon="11.732155562">
		<tag k="name" v="Hesthagan" />
		<tag k="place" v="locality" />
		<tag k="ssr:stedsnr" v="45920" />
	</node>
	<node id="-693441" lat="65.0896166702" lon="11.6052944439">
		<tag k="name" v="Steinshagan" />
		<tag k="place" v="locality" />
		<tag k="ssr:stedsnr" v="45696" />
	</node>
	<node id="-693184" lat="65.0461083315" lon="11.5940305575">
		<tag k="name" v="Storvardsmoen" />
		<tag k="place" v="locality" />
		<tag k="ssr:stedsnr" v="713339" />
	</node>
	<node id="-693439" lat="65.0658722201" lon="11.5764888992">
		<tag k="name" v="Struten" />
		<tag k="place" v="locality" />
		<tag k="ssr:stedsnr" v="45377" />
	</node>
	<node id="-693438" lat="65.0592916708" lon="11.6801055664">
		<tag k="name" v="Jovollmyrå" />
		<tag k="natural" v="wetland" />
		<tag k="ssr:stedsnr" v="45375" />
	</node>
	<node id="-693693" lat="65.0516777754" lon="11.6646277763">
		<tag k="name" v="Haugvikmyrå" />
		<tag k="place" v="locality" />
		<tag k="ssr:stedsnr" v="348897" />
	</node>
	<node id="-693436" lat="65.1098249994" lon="11.6736277726">
		<tag k="name" v="Olamyrå" />
		<tag k="natural" v="wetland" />
		<tag k="ssr:stedsnr" v="45209" />
	</node>
	<node id="-693450" lat="65.1001000027" lon="11.5863194522">
		<tag k="name" v="Langmyrå" />
		<tag k="natural" v="wetland" />
		<tag k="ssr:stedsnr" v="47699" />
	</node>
	<node id="-692938" lat="65.106286109" lon="11.6782555473">
		<tag k="name" v="Brennsteinmyrå" />
		<tag k="natural" v="wetland" />
		<tag k="ssr:stedsnr" v="228207" />
	</node>
	<node id="-693429" lat="65.1114749986" lon="11.9066361203">
		<tag k="name" v="Vassmarka" />
		<tag k="place" v="locality" />
		<tag k="ssr:stedsnr" v="43110" />
	</node>
	<node id="-693169" lat="65.1322027793" lon="11.9065361201">
		<tag k="name" v="Sundsvikskogen" />
		<tag k="place" v="locality" />
		<tag k="ssr:stedsnr" v="588114" />
	</node>
	<node id="-693292" lat="65.1013138926" lon="11.9012583236">
		<tag k="name" v="Småengan" />
		<tag k="place" v="locality" />
		<tag k="ssr:stedsnr" v="771859" />
	</node>
	<node id="-692779" lat="65.1179805551" lon="11.6538805573">
		<tag k="name" v="Kråkhamran" />
		<tag k="place" v="locality" />
		<tag k="ssr:stedsnr" v="227783" />
	</node>
	<node id="-693703" lat="65.1125083338" lon="11.6671194544">
		<tag k="name" v="Nylandet" />
		<tag k="place" v="locality" />
		<tag k="ssr:stedsnr" v="349821" />
	</node>
	<node id="-693798" lat="65.0964027823" lon="11.7364861082">
		<tag k="name" v="Langåsmyrå" />
		<tag k="natural" v="wetland" />
		<tag k="ssr:stedsnr" v="531597" />
	</node>
	<node id="-693666" lat="65.0608083318" lon="11.5903527692">
		<tag k="alt_name" v="Stormyrå" />
		<tag k="name" v="Stormyra" />
		<tag k="place" v="locality" />
		<tag k="ssr:stedsnr" v="318794" />
	</node>
	<node id="-693024" lat="65.118322226" lon="11.7873472202">
		<tag k="name" v="Jakobsteinen" />
		<tag k="natural" v="stone" />
		<tag k="ssr:stedsnr" v="363023" />
	</node>
	<node id="-693791" lat="65.0560277737" lon="11.6939611087">
		<tag k="name" v="Gongstømoen" />
		<tag k="place" v="locality" />
		<tag k="ssr:stedsnr" v="531091" />
	</node>
	<node id="-692869" lat="65.0513027771" lon="11.581055558">
		<tag k="name" v="Liss-Hesthagan" />
		<tag k="place" v="locality" />
		<tag k="ssr:stedsnr" v="288236" />
	</node>
	<node id="-692971" lat="65.1088222239" lon="11.7184416764">
		<tag k="landuse" v="meadow" />
		<tag k="name" v="Ytter Sjymyrå" />
		<tag k="ssr:stedsnr" v="469133" />
	</node>
	<node id="-693019" lat="65.0881083363" lon="11.5944166673">
		<tag k="name" v="Aunhagan" />
		<tag k="old_name" v="Hagan" />
		<tag k="place" v="locality" />
		<tag k="ssr:stedsnr" v="349741" />
	</node>
	<node id="-693253" lat="65.080724998" lon="11.5763722143">
		<tag k="name" v="Aunmyrå" />
		<tag k="natural" v="wetland" />
		<tag k="ssr:stedsnr" v="713397" />
	</node>
	<node id="-694039" lat="65.1090833333" lon="11.6613861193">
		<tag k="name" v="Gråsteinmyrå" />
		<tag k="natural" v="wetland" />
		<tag k="ssr:stedsnr" v="835341" />
	</node>
	<node id="-693443" lat="65.0947055532" lon="11.7273083251">
		<tag k="name" v="Skeismyrå" />
		<tag k="natural" v="wetland" />
		<tag k="ssr:stedsnr" v="45952" />
	</node>
	<node id="-692879" lat="65.1127388903" lon="11.6450861068">
		<tag k="name" v="Lisstjønnlandet" />
		<tag k="place" v="locality" />
		<tag k="ssr:stedsnr" v="289843" />
	</node>
	<node id="-693518" lat="65.0550444423" lon="11.6981611176">
		<tag k="name" v="Langstrandmyrå" />
		<tag k="place" v="locality" />
		<tag k="ssr:stedsnr" v="106371" />
	</node>
	<node id="-692881" lat="65.1095500002" lon="11.7139777756">
		<tag k="landuse" v="meadow" />
		<tag k="name" v="Inner Sjymyrå" />
		<tag k="ssr:stedsnr" v="289937" />
	</node>
	<node id="-693515" lat="65.1077611076" lon="11.6741444446">
		<tag k="name" v="Småmyrån" />
		<tag k="natural" v="wetland" />
		<tag k="ssr:stedsnr" v="106214" />
	</node>
	<node id="-693131" lat="65.1089277767" lon="11.687152785">
		<tag k="historic" v="shieling" />
		<tag k="name" v="Tobiastomta" />
		<tag k="place" v="locality" />
		<tag k="ssr:stedsnr" v="531027" />
	</node>
	<node id="-693697" lat="65.0744611132" lon="11.5625083241">
		<tag k="name" v="Helvetesmyrå" />
		<tag k="natural" v="wetland" />
		<tag k="ssr:stedsnr" v="349461" />
	</node>
	<node id="-693511" lat="65.1129833296" lon="11.6803166596">
		<tag k="name" v="Yttermyrå" />
		<tag k="natural" v="wetland" />
		<tag k="ssr:stedsnr" v="106040" />
	</node>
	<node id="-692998" lat="65.1117166678" lon="11.662180556">
		<tag k="name" v="Pålmyrå" />
		<tag k="natural" v="wetland" />
		<tag k="ssr:stedsnr" v="471899" />
	</node>
	<node id="-693509" lat="65.0972277763" lon="11.919675002">
		<tag k="name" v="Engan" />
		<tag k="place" v="locality" />
		<tag k="ssr:stedsnr" v="103841" />
	</node>
	<node id="-693252" lat="65.0455944459" lon="11.678130561">
		<tag k="name" v="Ovdmyrå" />
		<tag k="natural" v="wetland" />
		<tag k="ssr:stedsnr" v="713369" />
	</node>
	<node id="-693762" lat="65.0976722195" lon="11.6431000087">
		<tag k="name" v="Jensokhagan" />
		<tag k="place" v="locality" />
		<tag k="ssr:stedsnr" v="410726" />
	</node>
	<node id="-692993" lat="65.1168083365" lon="11.6505416643">
		<tag k="name" v="Stortjønnlandet" />
		<tag k="place" v="locality" />
		<tag k="ssr:stedsnr" v="471804" />
	</node>
</osm>
