<?xml version="1.0" encoding="UTF-8"?>
<osm version="0.6" generator="osmapis">
	<node lat="65.08676388976137" lon="11.533483337915206" id="-89040">
		<tag k="name" v="Smånesskeilå" />
		<tag k="natural" v="bay" />
		<tag k="ssr:stedsnr" v="229758" />
	</node>
	<node lat="65.10942499863883" lon="11.786963880177966" id="-89041">
		<tag k="name" v="Tistelen" />
		<tag k="place" v="locality" />
		<tag k="seamark:type" v="rock" />
		<tag k="ssr:stedsnr" v="14001" />
	</node>
	<node lat="65.14730278083931" lon="11.104708343949937" id="-89042">
		<tag k="name" v="Storgrunnan" />
		<tag k="natural" v="shoal" />
		<tag k="place" v="locality" />
		<tag k="ssr:stedsnr" v="14556" />
	</node>
	<node lat="65.21251944573075" lon="11.338599993314075" id="-89043">
		<tag k="name" v="Langfallet" />
		<tag k="natural" v="shoal" />
		<tag k="place" v="locality" />
		<tag k="ssr:stedsnr" v="14576" />
	</node>
	<node lat="65.05950833121678" lon="11.663777787827787" id="-89044">
		<tag k="alt_name" v="Pøytå" />
		<tag k="name" v="Pøyta" />
		<tag k="natural" v="strait" />
		<tag k="ssr:stedsnr" v="14766" />
	</node>
	<node lat="65.19315308332547" lon="11.425390117015636" id="-89046">
		<tag k="name" v="Kleppan" />
		<tag k="place" v="islet" />
		<tag k="ssr:stedsnr" v="14606" />
	</node>
	<node lat="65.09609444694152" lon="11.536969447727142" id="-89047">
		<tag k="name" v="Steinsøytaren" />
		<tag k="natural" v="shoal" />
		<tag k="place" v="locality" />
		<tag k="ssr:stedsnr" v="14662" />
	</node>
	<node lat="65.07318888892503" lon="11.468338893086836" id="-89050">
		<tag k="name" v="Havsholmtaren" />
		<tag k="natural" v="shoal" />
		<tag k="place" v="locality" />
		<tag k="ssr:stedsnr" v="14675" />
	</node>
	<node lat="65.10312500127114" lon="11.844766674486943" id="-89052">
		<tag k="name" v="Tørrisengvika" />
		<tag k="natural" v="bay" />
		<tag k="ssr:stedsnr" v="15004" />
	</node>
	<node lat="65.07119166468559" lon="11.52725834280045" id="-89061">
		<tag k="fixme" v="consider seamark:type=rock or natural=shoal" />
		<tag k="name" v="Kråkå" />
		<tag k="place" v="islet" />
		<tag k="ssr:stedsnr" v="45124" />
	</node>
	<node lat="65.09011111305739" lon="11.73698888670271" id="-89068">
		<tag k="name" v="Krestianodden" />
		<tag k="natural" v="cape" />
		<tag k="ssr:stedsnr" v="45994" />
	</node>
	<node lat="65.12882222648054" lon="11.710763899810487" id="-89069">
		<tag k="name" v="Kjerringholmen" />
		<tag k="place" v="islet" />
		<tag k="ssr:stedsnr" v="46409" />
	</node>
	<node lat="65.0923444422885" lon="11.568361115152081" id="-89070">
		<tag k="name" v="Stranda" />
		<tag k="natural" v="cape" />
		<tag k="ssr:stedsnr" v="46706" />
	</node>
	<node lat="65.05157500076679" lon="11.513791660152075" id="-89084">
		<tag k="name" v="Kråkvalholmen" />
		<tag k="place" v="islet" />
		<tag k="ssr:stedsnr" v="75822" />
	</node>
	<node lat="65.25031388918794" lon="11.36072223268848" id="-89085">
		<tag k="alt_name" v="Skarvbalen" />
		<tag k="fixme" v="consider seamark:type=rock or natural=shoal" />
		<tag k="name" v="Skarvbarden" />
		<tag k="place" v="islet" />
		<tag k="ssr:stedsnr" v="75927" />
	</node>
	<node lat="65.11383888647067" lon="11.860216658381452" id="-89086">
		<tag k="name" v="Matmorvika" />
		<tag k="natural" v="bay" />
		<tag k="ssr:stedsnr" v="75957" />
	</node>
	<node lat="65.09343610702066" lon="11.828361106915192" id="-89087">
		<tag k="name" v="Matholet" />
		<tag k="natural" v="bay" />
		<tag k="ssr:stedsnr" v="76063" />
	</node>
	<node lat="65.10927778216455" lon="11.586677776606003" id="-89088">
		<tag k="name" v="Buøyoddan" />
		<tag k="natural" v="cape" />
		<tag k="ssr:stedsnr" v="76697" />
	</node>
	<node lat="65.04325277386675" lon="11.532347216180007" id="-89089">
		<tag k="fixme" v="consider seamark:type=rock or natural=shoal" />
		<tag k="name" v="Oterholmen" />
		<tag k="place" v="islet" />
		<tag k="ssr:stedsnr" v="76852" />
	</node>
	<node lat="65.13200555892288" lon="11.768219436026207" id="-89091">
		<tag k="name" v="Melgrunnen" />
		<tag k="natural" v="shoal" />
		<tag k="place" v="locality" />
		<tag k="ssr:stedsnr" v="76997" />
	</node>
	<node lat="65.07540833493364" lon="11.523255558493434" id="-89102">
		<tag k="name" v="Øylonet" />
		<tag k="natural" v="bay" />
		<tag k="ssr:stedsnr" v="106126" />
	</node>
	<node lat="65.08820555650355" lon="11.740077785683766" id="-89105">
		<tag k="fixme" v="consider seamark:type=rock or natural=shoal" />
		<tag k="name" v="Mikkelborgskjæret" />
		<tag k="place" v="islet" />
		<tag k="ssr:stedsnr" v="106902" />
	</node>
	<node lat="65.08503611116265" lon="11.745988884395835" id="-89106">
		<tag k="name" v="Kabelvika" />
		<tag k="natural" v="bay" />
		<tag k="ssr:stedsnr" v="106907" />
	</node>
	<node lat="65.20508610812124" lon="11.391633335113912" id="-89113">
		<tag k="alt_name" v="Klovholmen" />
		<tag k="name" v="Kløvholmen" />
		<tag k="place" v="islet" />
		<tag k="ssr:stedsnr" v="135618" />
	</node>
	<node lat="65.0755111081258" lon="11.451616658342287" id="-89114">
		<tag k="alt_name" v="Ersbåan" />
		<tag k="name" v="Litlelsbåen" />
		<tag k="natural" v="shoal" />
		<tag k="place" v="locality" />
		<tag k="ssr:stedsnr" v="135701" />
	</node>
	<node lat="65.0848861098986" lon="11.721661115421263" id="-89117">
		<tag k="name" v="Husbysjøen" />
		<tag k="natural" v="bay" />
		<tag k="ssr:stedsnr" v="136073" />
	</node>
	<node lat="65.12476944763343" lon="11.76671945334215" id="-89118">
		<tag k="fixme" v="consider seamark:type=rock or natural=shoal" />
		<tag k="name" v="Altskjæret" />
		<tag k="place" v="islet" />
		<tag k="ssr:stedsnr" v="135971" />
	</node>
	<node lat="65.12278055905942" lon="11.698813897078402" id="-89123">
		<tag k="name" v="Hestøya" />
		<tag k="place" v="island" />
		<tag k="ssr:stedsnr" v="136759" />
	</node>
	<node lat="65.1205638903945" lon="11.476658338818025" id="-89124">
		<tag k="name" v="Fartaren" />
		<tag k="natural" v="shoal" />
		<tag k="place" v="locality" />
		<tag k="ssr:stedsnr" v="136760" />
	</node>
	<node lat="65.18930555539924" lon="11.353411103567339" id="-89125">
		<tag k="name" v="Hanstaran" />
		<tag k="natural" v="shoal" />
		<tag k="place" v="locality" />
		<tag k="ssr:stedsnr" v="136666" />
	</node>
	<node lat="65.18886111035323" lon="11.386194453054342" id="-89126">
		<tag k="name" v="Skarvflesa" />
		<tag k="place" v="islet" />
		<tag k="ssr:stedsnr" v="136669" />
	</node>
	<node lat="65.13811500548178" lon="11.738822827234955" id="-89128">
		<tag k="fixme" v="consider seamark:type=rock or natural=shoal" />
		<tag k="name" v="Kalvskjæret" />
		<tag k="place" v="islet" />
		<tag k="ssr:stedsnr" v="136996" />
	</node>
	<node lat="65.30517499582925" lon="11.088461105588628" id="-89129">
		<tag k="name" v="Blindheimsgrunnen" />
		<tag k="natural" v="shoal" />
		<tag k="place" v="locality" />
		<tag k="ssr:stedsnr" v="137000" />
	</node>
	<node lat="65.20386944394814" lon="10.928780545195492" id="-89130">
		<tag k="name" v="Ytre Oddbåan" />
		<tag k="place" v="locality" />
		<tag k="seamark:type" v="rock" />
		<tag k="ssr:stedsnr" v="146910" />
	</node>
	<node lat="65.19416944229309" lon="10.960555563179877" id="-89131">
		<tag k="name" v="Namskjergrunnen" />
		<tag k="natural" v="shoal" />
		<tag k="place" v="locality" />
		<tag k="ssr:stedsnr" v="146865" />
	</node>
	<node lat="65.21280000033384" lon="11.41179445470922" id="-89132">
		<tag k="name" v="Skryten" />
		<tag k="place" v="islet" />
		<tag k="ssr:stedsnr" v="148403" />
	</node>
	<node lat="65.08155833718344" lon="11.812813896912466" id="-89134">
		<tag k="alt_name" v="Sæla;Selå" />
		<tag k="fixme" v="consider seamark:type=rock or natural=shoal" />
		<tag k="name" v="Sela" />
		<tag k="place" v="islet" />
		<tag k="ssr:stedsnr" v="257070" />
	</node>
	<node lat="65.09681388657664" lon="11.83785000140549" id="-89135">
		<tag k="name" v="Vedvika" />
		<tag k="natural" v="bay" />
		<tag k="ssr:stedsnr" v="257040" />
	</node>
	<node lat="65.20346944790442" lon="10.96483054615701" id="-89139">
		<tag k="name" v="Skarvholmen" />
		<tag k="place" v="islet" />
		<tag k="ssr:stedsnr" v="257570" />
	</node>
	<node lat="65.20658333049563" lon="10.971752774401487" id="-89141">
		<tag k="name" v="Storværet" />
		<tag k="place" v="islet" />
		<tag k="ssr:stedsnr" v="257578" />
	</node>
	<node lat="65.20423791405925" lon="11.56147923732559" id="-89144">
		<tag k="name" v="Kvingra" />
		<tag k="place" v="islet" />
		<tag k="ssr:stedsnr" v="257691" />
	</node>
	<node lat="65.17878333765167" lon="11.344958337883876" id="-89145">
		<tag k="name" v="Grunnsluin" />
		<tag k="natural" v="shoal" />
		<tag k="place" v="locality" />
		<tag k="ssr:stedsnr" v="257766" />
	</node>
	<node lat="65.1777333374575" lon="11.312527768440683" id="-89146">
		<tag k="name" v="Sørskolten" />
		<tag k="natural" v="shoal" />
		<tag k="place" v="locality" />
		<tag k="ssr:stedsnr" v="257768" />
	</node>
	<node lat="65.13751388727013" lon="11.61875555893431" id="-89147">
		<tag k="name" v="Langfallet" />
		<tag k="natural" v="shoal" />
		<tag k="place" v="locality" />
		<tag k="ssr:stedsnr" v="257778" />
	</node>
	<node lat="65.11636944645292" lon="11.569466657395648" id="-89148">
		<tag k="name" v="Storslua" />
		<tag k="natural" v="shoal" />
		<tag k="place" v="locality" />
		<tag k="ssr:stedsnr" v="257792" />
	</node>
	<node lat="65.11719444003154" lon="11.636008335692614" id="-89149">
		<tag k="alt_name" v="Storsjøholmen" />
		<tag k="name" v="Kvaløya" />
		<tag k="place" v="island" />
		<tag k="ssr:stedsnr" v="257794" />
	</node>
	<node lat="65.09292499742082" lon="11.554425003285022" id="-89153">
		<tag k="name" v="Steinssjøen" />
		<tag k="natural" v="bay" />
		<tag k="ssr:stedsnr" v="257740" />
	</node>
	<node lat="65.04629166850262" lon="11.544005551480405" id="-89155">
		<tag k="name" v="Solsemvågen" />
		<tag k="natural" v="bay" />
		<tag k="ssr:stedsnr" v="257815" />
	</node>
	<node lat="65.05168055666323" lon="11.446344449540371" id="-89156">
		<tag k="name" v="Krokflesa" />
		<tag k="place" v="islet" />
		<tag k="ssr:stedsnr" v="257817" />
	</node>
	<node lat="65.06776944398338" lon="11.508127783839683" id="-89159">
		<tag k="name" v="Kalvøya" />
		<tag k="place" v="islet" />
		<tag k="ssr:stedsnr" v="257852" />
	</node>
	<node lat="65.13293333708464" lon="11.898274995179472" id="-89163">
		<tag k="name" v="Dragan" />
		<tag k="natural" v="cape" />
		<tag k="ssr:stedsnr" v="257998" />
	</node>
	<node lat="65.11688889191403" lon="11.695980562085758" id="-89164">
		<tag k="name" v="Tennholman" />
		<tag k="place" v="islet" />
		<tag k="ssr:stedsnr" v="167112" />
	</node>
	<node lat="65.09749999954435" lon="11.770788885576815" id="-89171">
		<tag k="fixme" v="consider seamark:type=rock or natural=shoal" />
		<tag k="name" v="Store Våttvikskjæret" />
		<tag k="place" v="islet" />
		<tag k="ssr:stedsnr" v="197057" />
	</node>
	<node lat="65.11516666324968" lon="11.685202785410358" id="-89177">
		<tag k="name" v="Skrosen" />
		<tag k="natural" v="bay" />
		<tag k="ssr:stedsnr" v="197771" />
	</node>
	<node lat="65.03548333738729" lon="11.547886110224054" id="-89179">
		<tag k="name" v="Solsemholmen" />
		<tag k="place" v="islet" />
		<tag k="ssr:stedsnr" v="197879" />
	</node>
	<node lat="65.1642805524229" lon="11.333175004288185" id="-89180">
		<tag k="name" v="Seiskolten" />
		<tag k="natural" v="shoal" />
		<tag k="place" v="locality" />
		<tag k="ssr:stedsnr" v="209430" />
	</node>
	<node lat="65.11529444401741" lon="11.860244440674936" id="-89181">
		<tag k="name" v="Stangholmsundet" />
		<tag k="natural" v="strait" />
		<tag k="ssr:stedsnr" v="270147" />
	</node>
	<node lat="65.0815749972608" lon="11.47003332956091" id="-89182">
		<tag k="name" v="Storelsbåen" />
		<tag k="natural" v="shoal" />
		<tag k="place" v="locality" />
		<tag k="ssr:stedsnr" v="270566" />
	</node>
	<node lat="65.09222777463214" lon="11.820327771377139" id="-89183">
		<tag k="name" v="Galtviktaren" />
		<tag k="natural" v="shoal" />
		<tag k="place" v="locality" />
		<tag k="ssr:stedsnr" v="270806" />
	</node>
	<node lat="65.08693055135957" lon="11.728447230682614" id="-89186">
		<tag k="name" v="Gullgruvå" />
		<tag k="natural" v="bay" />
		<tag k="ssr:stedsnr" v="227920" />
	</node>
	<node lat="65.10580000135681" lon="11.725547214293496" id="-89187">
		<tag k="name" v="Nils Klaussennesset" />
		<tag k="natural" v="cape" />
		<tag k="ssr:stedsnr" v="227890" />
	</node>
	<node lat="65.11681666233879" lon="11.709924998432445" id="-89189">
		<tag k="name" v="Jektvika" />
		<tag k="natural" v="bay" />
		<tag k="ssr:stedsnr" v="228112" />
	</node>
	<node lat="65.19521944458951" lon="10.999952780040308" id="-89197">
		<tag k="name" v="Øytaren" />
		<tag k="natural" v="shoal" />
		<tag k="place" v="locality" />
		<tag k="ssr:stedsnr" v="449834" />
	</node>
	<node lat="65.07228333764157" lon="11.694369446773683" id="-89198">
		<tag k="fixme" v="consider seamark:type=rock or natural=shoal" />
		<tag k="name" v="Knerten" />
		<tag k="place" v="islet" />
		<tag k="ssr:stedsnr" v="237781" />
	</node>
	<node lat="65.23728888767961" lon="11.350658334640416" id="-89204">
		<tag k="fixme" v="consider seamark:type=rock or natural=shoal" />
		<tag k="name" v="Langflesa" />
		<tag k="place" v="islet" />
		<tag k="ssr:stedsnr" v="257718" />
	</node>
	<node lat="65.12486292042736" lon="11.874105842428207" id="-89205">
		<tag k="fixme" v="consider seamark:type=rock or natural=shoal" />
		<tag k="name" v="Langskjæret" />
		<tag k="place" v="islet" />
		<tag k="ssr:stedsnr" v="257981" />
	</node>
	<node lat="65.0403638902729" lon="11.649980555601722" id="-89206">
		<tag k="name" v="Madsøytangen" />
		<tag k="natural" v="cape" />
		<tag k="ssr:stedsnr" v="270279" />
	</node>
	<node lat="65.2002166625623" lon="11.330333333420942" id="-89207">
		<tag k="name" v="Langsluin" />
		<tag k="natural" v="shoal" />
		<tag k="place" v="locality" />
		<tag k="ssr:stedsnr" v="270379" />
	</node>
	<node lat="65.05344465648095" lon="11.486579751762626" id="-89208">
		<tag k="fixme" v="consider seamark:type=rock or natural=shoal" />
		<tag k="name" v="Kobbskjæret" />
		<tag k="place" v="islet" />
		<tag k="ssr:stedsnr" v="270947" />
	</node>
	<node lat="65.06524722348321" lon="11.70940278528693" id="-89215">
		<tag k="name" v="Dalavika" />
		<tag k="natural" v="bay" />
		<tag k="ssr:stedsnr" v="288103" />
	</node>
	<node lat="65.06586111508243" lon="11.713516675363767" id="-89216">
		<tag k="name" v="Madsøyodden" />
		<tag k="natural" v="cape" />
		<tag k="ssr:stedsnr" v="288106" />
	</node>
	<node lat="65.11611666915105" lon="11.686327787628334" id="-89218">
		<tag k="fixme" v="consider seamark:type=rock or natural=shoal" />
		<tag k="name" v="Skråskjæret" />
		<tag k="place" v="islet" />
		<tag k="ssr:stedsnr" v="288131" />
	</node>
	<node lat="65.13233611365862" lon="11.719013895431322" id="-89219">
		<tag k="name" v="Valan" />
		<tag k="natural" v="bay" />
		<tag k="ssr:stedsnr" v="288397" />
	</node>
	<node lat="65.04336944381171" lon="11.65363610043689" id="-89220">
		<tag k="name" v="Nordvindstranda" />
		<tag k="natural" v="beach" />
		<tag k="ssr:stedsnr" v="288918" />
	</node>
	<node lat="65.09818055230896" lon="11.566899991054097" id="-89222">
		<tag k="name" v="Brattistadsundet" />
		<tag k="natural" v="strait" />
		<tag k="ssr:stedsnr" v="289808" />
	</node>
	<node lat="65.12145833049254" lon="11.885299993981187" id="-89232">
		<tag k="name" v="Øyra" />
		<tag k="natural" v="beach" />
		<tag k="ssr:stedsnr" v="467126" />
	</node>
	<node lat="65.22398056001641" lon="11.004516665759429" id="-89233">
		<tag k="name" v="Karstenslua" />
		<tag k="natural" v="shoal" />
		<tag k="place" v="locality" />
		<tag k="ssr:stedsnr" v="317443" />
	</node>
	<node lat="65.17479999634102" lon="10.981519448695172" id="-89237">
		<tag k="name" v="Flotran" />
		<tag k="natural" v="shoal" />
		<tag k="place" v="locality" />
		<tag k="ssr:stedsnr" v="318616" />
	</node>
	<node lat="65.05561111347541" lon="11.33525000741152" id="-89242">
		<tag k="fixme" v="consider seamark:type=rock or natural=shoal" />
		<tag k="name" v="Skarvflesbarnet" />
		<tag k="place" v="islet" />
		<tag k="ssr:stedsnr" v="318787" />
	</node>
	<node lat="65.11440277353012" lon="11.861408335690436" id="-89246">
		<tag k="name" v="Buvika" />
		<tag k="natural" v="bay" />
		<tag k="ssr:stedsnr" v="318949" />
	</node>
	<node lat="65.0942416672224" lon="11.831377770747228" id="-89249">
		<tag k="name" v="Hammarsvika" />
		<tag k="natural" v="bay" />
		<tag k="ssr:stedsnr" v="469800" />
	</node>
	<node lat="65.11334999926878" lon="11.715777780008823" id="-89250">
		<tag k="fixme" v="consider seamark:type=rock or natural=shoal" />
		<tag k="name" v="Leiskjæret" />
		<tag k="place" v="islet" />
		<tag k="ssr:stedsnr" v="470053" />
	</node>
	<node lat="65.130761110524" lon="11.68988333499572" id="-89252">
		<tag k="fixme" v="consider seamark:type=rock or natural=shoal" />
		<tag k="name" v="Øyskjæret" />
		<tag k="place" v="islet" />
		<tag k="ssr:stedsnr" v="470395" />
	</node>
	<node lat="65.1874416646251" lon="11.483144449326815" id="-89253">
		<tag k="fixme" v="consider seamark:type=rock or natural=shoal" />
		<tag k="name" v="Sørtannarflua" />
		<tag k="place" v="islet" />
		<tag k="ssr:stedsnr" v="330418" />
	</node>
	<node lat="65.08891388678951" lon="11.732286117123593" id="-89256">
		<tag k="name" v="Prytsodden" />
		<tag k="natural" v="cape" />
		<tag k="ssr:stedsnr" v="470986" />
	</node>
	<node lat="65.08921944842237" lon="11.738913894874843" id="-89257">
		<tag k="name" v="Leiven" />
		<tag k="natural" v="cape" />
		<tag k="ssr:stedsnr" v="470996" />
	</node>
	<node lat="65.11389722435443" lon="11.691511117258921" id="-89269">
		<tag k="name" v="Silsanden" />
		<tag k="natural" v="beach" />
		<tag k="ssr:stedsnr" v="349112" />
	</node>
	<node lat="65.06953610946353" lon="11.671688893020674" id="-89270">
		<tag k="name" v="Frøvika" />
		<tag k="natural" v="bay" />
		<tag k="ssr:stedsnr" v="349115" />
	</node>
	<node lat="65.11210833484215" lon="11.618100008791059" id="-89273">
		<tag k="fixme" v="consider seamark:type=rock or natural=shoal" />
		<tag k="name" v="Krintholmskjæret" />
		<tag k="place" v="islet" />
		<tag k="ssr:stedsnr" v="349807" />
	</node>
	<node lat="65.11398888979406" lon="11.621633343009046" id="-89279">
		<tag k="fixme" v="consider seamark:type=rock or natural=shoal" />
		<tag k="name" v="Svartskjæret" />
		<tag k="place" v="islet" />
		<tag k="ssr:stedsnr" v="349787" />
	</node>
	<node lat="65.0891499989605" lon="11.493919446710958" id="-89283">
		<tag k="name" v="Hoverngrunnen" />
		<tag k="natural" v="shoal" />
		<tag k="place" v="locality" />
		<tag k="ssr:stedsnr" v="378731" />
	</node>
	<node lat="65.18646735054564" lon="11.471145139105579" id="-89284">
		<tag k="fixme" v="consider seamark:type=rock or natural=shoal" />
		<tag k="name" v="Skarvflesa" />
		<tag k="place" v="islet" />
		<tag k="ssr:stedsnr" v="378741" />
	</node>
	<node lat="65.17808055788257" lon="11.36503888697221" id="-89285">
		<tag k="name" v="Oddtaran" />
		<tag k="natural" v="shoal" />
		<tag k="place" v="locality" />
		<tag k="ssr:stedsnr" v="378745" />
	</node>
	<node lat="65.12938611496014" lon="11.63674166742077" id="-89286">
		<tag k="name" v="Pålsluin" />
		<tag k="natural" v="shoal" />
		<tag k="place" v="locality" />
		<tag k="ssr:stedsnr" v="378763" />
	</node>
	<node lat="65.03651111458342" lon="11.448202776236297" id="-89287">
		<tag k="name" v="Kalven" />
		<tag k="place" v="islet" />
		<tag k="ssr:stedsnr" v="378769" />
	</node>
	<node lat="65.18833889169927" lon="11.330163880630211" id="-89290">
		<tag k="name" v="Skinnbroktaren" />
		<tag k="natural" v="shoal" />
		<tag k="place" v="locality" />
		<tag k="ssr:stedsnr" v="378672" />
	</node>
	<node lat="65.1883805544253" lon="11.314802769337497" id="-89291">
		<tag k="name" v="Leiskolten" />
		<tag k="natural" v="shoal" />
		<tag k="place" v="locality" />
		<tag k="ssr:stedsnr" v="378675" />
	</node>
	<node lat="65.05550833384451" lon="11.663444436696071" id="-89292">
		<tag k="name" v="Selvågen" />
		<tag k="natural" v="bay" />
		<tag k="ssr:stedsnr" v="378803" />
	</node>
	<node lat="65.04629444365402" lon="11.283827774460747" id="-89300">
		<tag k="name" v="Nordre Skjækeren" />
		<tag k="natural" v="shoal" />
		<tag k="place" v="locality" />
		<tag k="ssr:stedsnr" v="388708" />
	</node>
	<node lat="65.19030219197913" lon="11.413296011129356" id="-89315">
		<tag k="alt_name" v="Båsen" />
		<tag k="name" v="Storbåsen" />
		<tag k="place" v="islet" />
		<tag k="ssr:stedsnr" v="439646" />
	</node>
	<node lat="65.1904638876673" lon="11.278872222596801" id="-89316">
		<tag k="name" v="Kolbeinskolten" />
		<tag k="natural" v="shoal" />
		<tag k="place" v="locality" />
		<tag k="ssr:stedsnr" v="439647" />
	</node>
	<node lat="65.19498055421026" lon="11.480044454084167" id="-89317">
		<tag k="alt_name" v="Tannaren" />
		<tag k="fixme" v="consider seamark:type=rock or natural=shoal" />
		<tag k="name" v="Nord Tannaren" />
		<tag k="place" v="islet" />
		<tag k="ssr:stedsnr" v="439650" />
	</node>
	<node lat="65.08879444302663" lon="11.537019454462662" id="-89321">
		<tag k="name" v="Bremneset" />
		<tag k="natural" v="cape" />
		<tag k="ssr:stedsnr" v="439711" />
	</node>
	<node lat="65.07879722183593" lon="11.497738886619548" id="-89324">
		<tag k="alt_name" v="Sørflesin" />
		<tag k="fixme" v="consider seamark:type=rock or natural=shoal" />
		<tag k="name" v="Vågflesin" />
		<tag k="place" v="islet" />
		<tag k="ssr:stedsnr" v="439716" />
	</node>
	<node lat="65.13094722382003" lon="11.503341668519667" id="-89326">
		<tag k="name" v="Sørflesa" />
		<tag k="place" v="islet" />
		<tag k="ssr:stedsnr" v="439743" />
	</node>
	<node lat="65.2514249996976" lon="11.38980278673785" id="-89327">
		<tag k="alt_name" v="Lytjetaren" />
		<tag k="name" v="Lykkjetaren" />
		<tag k="natural" v="shoal" />
		<tag k="place" v="locality" />
		<tag k="ssr:stedsnr" v="439914" />
	</node>
	<node lat="65.26494166396462" lon="11.402511116577992" id="-89328">
		<tag k="alt_name" v="Sørstorgrunn" />
		<tag k="name" v="Sørstorgrunnen" />
		<tag k="natural" v="shoal" />
		<tag k="place" v="locality" />
		<tag k="ssr:stedsnr" v="439920" />
	</node>
	<node lat="65.29450555101957" lon="11.090386117688993" id="-89329">
		<tag k="alt_name" v="Vegtaren, nordre;Nordre Vegtaren" />
		<tag k="name" v="Nordvegtaren" />
		<tag k="natural" v="shoal" />
		<tag k="place" v="locality" />
		<tag k="ssr:stedsnr" v="439997" />
	</node>
	<node lat="65.12105000332762" lon="11.665294444475213" id="-89341">
		<tag k="fixme" v="consider seamark:type=rock or natural=shoal" />
		<tag k="name" v="Sjåskjæret" />
		<tag k="place" v="islet" />
		<tag k="ssr:stedsnr" v="471768" />
	</node>
	<node lat="65.11212222315447" lon="11.611522224178469" id="-89342">
		<tag k="fixme" v="consider seamark:type=rock or natural=shoal" />
		<tag k="name" v="Ørnskjæret" />
		<tag k="place" v="islet" />
		<tag k="ssr:stedsnr" v="471781" />
	</node>
	<node lat="65.04710277984296" lon="11.54853332712956" id="-89343">
		<tag k="name" v="Rullavikstranda" />
		<tag k="natural" v="beach" />
		<tag k="ssr:stedsnr" v="471905" />
	</node>
	<node lat="65.11382500413627" lon="11.760491667568365" id="-89346">
		<tag k="name" v="Liss-Grønnholmen" />
		<tag k="natural" v="cape" />
		<tag k="ssr:stedsnr" v="471870" />
	</node>
	<node lat="65.12201944581196" lon="11.789363887407257" id="-89347">
		<tag k="name" v="Europaodden" />
		<tag k="natural" v="cape" />
		<tag k="ssr:stedsnr" v="471873" />
	</node>
	<node lat="65.11977777339646" lon="11.862944448805269" id="-89353">
		<tag k="alt_name" v="Stongsholmen, store;Stangholmen;Stor-Stongholmen" />
		<tag k="name" v="Store Stongsholmen" />
		<tag k="place" v="islet" />
		<tag k="ssr:stedsnr" v="499986" />
	</node>
	<node lat="65.20685555212366" lon="11.492188893869109" id="-89354">
		<tag k="name" v="Valholmen" />
		<tag k="place" v="islet" />
		<tag k="ssr:stedsnr" v="500703" />
	</node>
	<node lat="65.17646944023133" lon="11.442063881580673" id="-89355">
		<tag k="name" v="Rostaren" />
		<tag k="natural" v="shoal" />
		<tag k="place" v="locality" />
		<tag k="ssr:stedsnr" v="500783" />
	</node>
	<node lat="65.03927222099357" lon="11.58671388970029" id="-89357">
		<tag k="alt_name" v="Halin" />
		<tag k="name" v="Halen" />
		<tag k="natural" v="cape" />
		<tag k="ssr:stedsnr" v="500902" />
	</node>
	<node lat="65.28890000189429" lon="11.358961104315762" id="-89358">
		<tag k="name" v="Storfallet" />
		<tag k="natural" v="shoal" />
		<tag k="place" v="locality" />
		<tag k="ssr:stedsnr" v="500930" />
	</node>
	<node lat="65.20122221863024" lon="11.391883330104237" id="-89359">
		<tag k="name" v="Måøya" />
		<tag k="place" v="islet" />
		<tag k="ssr:stedsnr" v="500696" />
	</node>
	<node lat="65.22413611024211" lon="11.437519443118415" id="-89369">
		<tag k="name" v="Småtaren" />
		<tag k="natural" v="shoal" />
		<tag k="place" v="locality" />
		<tag k="ssr:stedsnr" v="681633" />
	</node>
	<node lat="65.1272444468901" lon="11.725327775197899" id="-89372">
		<tag k="name" v="Steinsøya" />
		<tag k="place" v="islet" />
		<tag k="ssr:stedsnr" v="681970" />
	</node>
	<node lat="65.12380555671099" lon="11.71852500655396" id="-89373">
		<tag k="name" v="Burøydraget" />
		<tag k="place" v="island" />
		<tag k="ssr:stedsnr" v="681971" />
	</node>
	<node lat="65.11868055914492" lon="11.864424996956009" id="-89374">
		<tag k="alt_name" v="Stongsholmen, l;Liss-Stongholmen" />
		<tag k="name" v="Litle Stongsholmen" />
		<tag k="place" v="islet" />
		<tag k="ssr:stedsnr" v="681977" />
	</node>
	<node lat="65.08580832969" lon="11.814899996169775" id="-89375">
		<tag k="name" v="Daudmannsvika" />
		<tag k="natural" v="bay" />
		<tag k="ssr:stedsnr" v="682073" />
	</node>
	<node lat="65.20146944363597" lon="11.384272213748584" id="-89377">
		<tag k="name" v="Sandøya" />
		<tag k="place" v="islet" />
		<tag k="ssr:stedsnr" v="682688" />
	</node>
	<node lat="65.20735555286323" lon="11.46349721942624" id="-89378">
		<tag k="name" v="Burøya" />
		<tag k="place" v="island" />
		<tag k="ssr:stedsnr" v="682694" />
	</node>
	<node lat="65.18159721960043" lon="11.458474999424022" id="-89380">
		<tag k="name" v="Skreitaren" />
		<tag k="natural" v="shoal" />
		<tag k="place" v="locality" />
		<tag k="ssr:stedsnr" v="682770" />
	</node>
	<node lat="65.17175000291314" lon="11.229666665800615" id="-89381">
		<tag k="name" v="Kåtereggtaren" />
		<tag k="natural" v="shoal" />
		<tag k="place" v="locality" />
		<tag k="ssr:stedsnr" v="682772" />
	</node>
	<node lat="65.11246944511835" lon="11.621936112632909" id="-89382">
		<tag k="alt_name" v="Krintholmen" />
		<tag k="name" v="Klintholmen" />
		<tag k="place" v="islet" />
		<tag k="ssr:stedsnr" v="682743" />
	</node>
	<node lat="65.06106944292029" lon="11.418219440211914" id="-89384">
		<tag k="name" v="Småtaren" />
		<tag k="natural" v="shoal" />
		<tag k="place" v="locality" />
		<tag k="ssr:stedsnr" v="682830" />
	</node>
	<node lat="65.11048055271496" lon="11.860366673532162" id="-89390">
		<tag k="alt_name" v="Klongvika" />
		<tag k="name" v="Klungvika" />
		<tag k="natural" v="bay" />
		<tag k="ssr:stedsnr" v="682957" />
	</node>
	<node lat="65.27868333583726" lon="10.96045833731661" id="-89391">
		<tag k="name" v="Kvaløyskoltan" />
		<tag k="natural" v="shoal" />
		<tag k="place" v="locality" />
		<tag k="ssr:stedsnr" v="682999" />
	</node>
	<node lat="65.18928265741482" lon="11.408708674586872" id="-89392">
		<tag k="alt_name" v="Veslebåsen;Lissbåsen" />
		<tag k="name" v="Nordbåsen" />
		<tag k="place" v="islet" />
		<tag k="ssr:stedsnr" v="512379" />
	</node>
	<node lat="65.12247777852602" lon="11.869652787716198" id="-89399">
		<tag k="fixme" v="consider seamark:type=rock or natural=shoal" />
		<tag k="name" v="Holdskjæret" />
		<tag k="place" v="islet" />
		<tag k="ssr:stedsnr" v="528124" />
	</node>
	<node lat="65.11731111312376" lon="11.701275005392986" id="-89403">
		<tag k="name" v="Senningsholman" />
		<tag k="place" v="islet" />
		<tag k="ssr:stedsnr" v="531106" />
	</node>
	<node lat="65.12833888833987" lon="11.689819436224118" id="-89411">
		<tag k="name" v="Havøya" />
		<tag k="place" v="island" />
		<tag k="ssr:stedsnr" v="532889" />
	</node>
	<node lat="64.99328610973903" lon="11.540233339384834" id="-89414">
		<tag k="bay" v="fjord" />
		<tag k="name" v="Risværfjorden" />
		<tag k="natural" v="bay" />
		<tag k="ssr:stedsnr" v="560141" />
	</node>
	<node lat="65.11335833297483" lon="11.715863899109966" id="-89416">
		<tag k="alt_name" v="Stor-Sjyholmen" />
		<tag k="name" v="Storsjøholmen" />
		<tag k="place" v="islet" />
		<tag k="ssr:stedsnr" v="560687" />
	</node>
	<node lat="65.06521110683339" lon="11.683402778542552" id="-89419">
		<tag k="name" v="Madsøyvågen" />
		<tag k="natural" v="bay" />
		<tag k="ssr:stedsnr" v="560804" />
	</node>
	<node lat="65.06349444179638" lon="11.664766676467163" id="-89420">
		<tag k="name" v="Frøvikøya" />
		<tag k="place" v="island" />
		<tag k="ssr:stedsnr" v="560805" />
	</node>
	<node lat="65.05445278177366" lon="11.334616658360165" id="-89423">
		<tag k="fixme" v="consider seamark:type=rock or natural=shoal" />
		<tag k="name" v="Skarvflesa" />
		<tag k="place" v="islet" />
		<tag k="ssr:stedsnr" v="560775" />
	</node>
	<node lat="65.06031667059472" lon="11.526930561540912" id="-89427">
		<tag k="name" v="Storsellivågen" />
		<tag k="natural" v="bay" />
		<tag k="ssr:stedsnr" v="560794" />
	</node>
	<node lat="65.05132221946545" lon="11.462638878058366" id="-89429">
		<tag k="name" v="Måøya" />
		<tag k="place" v="islet" />
		<tag k="ssr:stedsnr" v="560799" />
	</node>
	<node lat="65.25864721983562" lon="11.136844443100573" id="-89431">
		<tag k="name" v="Revfallet" />
		<tag k="natural" v="shoal" />
		<tag k="place" v="locality" />
		<tag k="ssr:stedsnr" v="692719" />
	</node>
	<node lat="65.18469166585113" lon="11.087599999025853" id="-89432">
		<tag k="name" v="Naustrevet" />
		<tag k="natural" v="shoal" />
		<tag k="place" v="locality" />
		<tag k="ssr:stedsnr" v="570852" />
	</node>
	<node lat="65.2048527742812" lon="10.987641662340451" id="-89433">
		<tag k="name" v="Tussholmen" />
		<tag k="place" v="islet" />
		<tag k="ssr:stedsnr" v="570853" />
	</node>
	<node lat="65.04256944619534" lon="11.648380556143117" id="-89445">
		<tag k="fixme" v="consider seamark:type=rock or natural=shoal" />
		<tag k="name" v="Tangskjæran" />
		<tag k="place" v="islet" />
		<tag k="ssr:stedsnr" v="591963" />
	</node>
	<node lat="65.21122499967169" lon="10.976697232261635" id="-89449">
		<tag k="name" v="Lyngholmen" />
		<tag k="place" v="islet" />
		<tag k="ssr:stedsnr" v="620514" />
	</node>
	<node lat="65.05146944522888" lon="11.770211111174012" id="-89453">
		<tag k="name" v="Breidvika" />
		<tag k="natural" v="bay" />
		<tag k="ssr:stedsnr" v="621084" />
	</node>
	<node lat="65.21798888700289" lon="11.456122229460263" id="-89454">
		<tag k="name" v="Tverrsundflua" />
		<tag k="natural" v="shoal" />
		<tag k="place" v="locality" />
		<tag k="ssr:stedsnr" v="621669" />
	</node>
	<node lat="65.22030277824403" lon="11.436908333310658" id="-89455">
		<tag k="name" v="Kvåholmtaren" />
		<tag k="natural" v="shoal" />
		<tag k="place" v="locality" />
		<tag k="ssr:stedsnr" v="621671" />
	</node>
	<node lat="65.06009444778519" lon="11.517038889920384" id="-89457">
		<tag k="alt_name" v="Lamholmen" />
		<tag k="name" v="Lamholman" />
		<tag k="place" v="islet" />
		<tag k="ssr:stedsnr" v="621804" />
	</node>
	<node lat="65.05807778038354" lon="11.349647230162079" id="-89458">
		<tag k="name" v="Skarvflestaran" />
		<tag k="natural" v="shoal" />
		<tag k="place" v="locality" />
		<tag k="ssr:stedsnr" v="621808" />
	</node>
	<node lat="65.06856110953923" lon="11.356591667274472" id="-89460">
		<tag k="name" v="Jonasskolten" />
		<tag k="natural" v="shoal" />
		<tag k="place" v="locality" />
		<tag k="ssr:stedsnr" v="621820" />
	</node>
	<node lat="65.03763889243302" lon="11.423191674302787" id="-89462">
		<tag k="name" v="Steinan" />
		<tag k="place" v="islet" />
		<tag k="ssr:stedsnr" v="621880" />
	</node>
	<node lat="65.12630555996572" lon="11.59620276910291" id="-89463">
		<tag k="name" v="Tverrtaran" />
		<tag k="natural" v="shoal" />
		<tag k="place" v="locality" />
		<tag k="ssr:stedsnr" v="621766" />
	</node>
	<node lat="65.25818611213289" lon="11.355511103943101" id="-89464">
		<tag k="alt_name" v="Nordkobbalen" />
		<tag k="fixme" v="consider seamark:type=rock or natural=shoal" />
		<tag k="name" v="Nordkobbarden" />
		<tag k="place" v="islet" />
		<tag k="ssr:stedsnr" v="621912" />
	</node>
	<node lat="65.15166944327349" lon="11.618488890988228" id="-89466">
		<tag k="name" v="Langtaren" />
		<tag k="natural" v="shoal" />
		<tag k="place" v="locality" />
		<tag k="ssr:stedsnr" v="633286" />
	</node>
	<node lat="65.08692499912664" lon="11.82864443644522" id="-89467">
		<tag k="name" v="Lindegårdsstranda" />
		<tag k="natural" v="beach" />
		<tag k="ssr:stedsnr" v="644881" />
	</node>
	<node lat="65.10931388816596" lon="11.853147216375461" id="-89468">
		<tag k="name" v="Moagrunnan" />
		<tag k="natural" v="shoal" />
		<tag k="place" v="locality" />
		<tag k="ssr:stedsnr" v="645104" />
	</node>
	<node lat="65.08023889261372" lon="11.714055556591758" id="-89473">
		<tag k="name" v="Storbesanden" />
		<tag k="natural" v="beach" />
		<tag k="ssr:stedsnr" v="651997" />
	</node>
	<node lat="65.08712777982896" lon="11.533733339790665" id="-89476">
		<tag k="name" v="Nordvikodden" />
		<tag k="natural" v="cape" />
		<tag k="ssr:stedsnr" v="652647" />
	</node>
	<node lat="65.11945278003462" lon="11.65252499126122" id="-89477">
		<tag k="fixme" v="consider seamark:type=rock or natural=shoal" />
		<tag k="name" v="Krestian Olsåskjæret" />
		<tag k="place" v="islet" />
		<tag k="ssr:stedsnr" v="652739" />
	</node>
	<node lat="65.10634444075339" lon="11.745313879507693" id="-89478">
		<tag k="name" v="Valstraumen" />
		<tag k="natural" v="strait" />
		<tag k="ssr:stedsnr" v="652840" />
	</node>
	<node lat="65.0868277796438" lon="11.742236104951095" id="-89479">
		<tag k="fixme" v="consider seamark:type=rock or natural=shoal" />
		<tag k="name" v="Åbordskjæret" />
		<tag k="place" v="islet" />
		<tag k="ssr:stedsnr" v="652904" />
	</node>
	<node lat="65.18957221773802" lon="11.452825007145405" id="-89500">
		<tag k="name" v="Leiskiten" />
		<tag k="natural" v="shoal" />
		<tag k="place" v="locality" />
		<tag k="ssr:stedsnr" v="682708" />
	</node>
	<node lat="65.37109721916651" lon="10.973202784534383" id="-89501">
		<tag k="alt_name" v="Ufstaran, s" />
		<tag k="name" v="Sørufstaren" />
		<tag k="natural" v="shoal" />
		<tag k="place" v="locality" />
		<tag k="ssr:stedsnr" v="682720" />
	</node>
	<node lat="65.03744999608836" lon="11.62319167281997" id="-89504">
		<tag k="name" v="Haugsflesa" />
		<tag k="place" v="islet" />
		<tag k="ssr:stedsnr" v="682904" />
	</node>
	<node lat="65.14809166548932" lon="11.836674997708533" id="-89505">
		<tag k="name" v="Stortaren" />
		<tag k="natural" v="shoal" />
		<tag k="place" v="locality" />
		<tag k="ssr:stedsnr" v="682906" />
	</node>
	<node lat="65.11538889237167" lon="11.711211111730563" id="-89506">
		<tag k="name" v="Senningsbukta" />
		<tag k="natural" v="bay" />
		<tag k="ssr:stedsnr" v="894140" />
	</node>
	<node lat="65.21780555582346" lon="11.409105562351938" id="-89508">
		<tag k="fixme" v="consider seamark:type=rock or natural=shoal" />
		<tag k="name" v="Flatskjæret" />
		<tag k="place" v="islet" />
		<tag k="ssr:stedsnr" v="695075" />
	</node>
	<node lat="65.11903333517088" lon="11.68896665707941" id="-89510">
		<tag k="name" v="Skrosa" />
		<tag k="natural" v="bay" />
		<tag k="ssr:stedsnr" v="895202" />
	</node>
	<node lat="65.09970833431602" lon="11.560425000780176" id="-89515">
		<tag k="name" v="Lisstaren" />
		<tag k="natural" v="shoal" />
		<tag k="place" v="locality" />
		<tag k="ssr:stedsnr" v="895632" />
	</node>
	<node lat="65.09548610716456" lon="11.552755545043219" id="-89517">
		<tag k="name" v="Flottasundet" />
		<tag k="natural" v="strait" />
		<tag k="ssr:stedsnr" v="896776" />
	</node>
	<node lat="65.11265277368572" lon="11.617480552631577" id="-89520">
		<tag k="fixme" v="consider seamark:type=rock or natural=shoal" />
		<tag k="name" v="Ivarskjæret" />
		<tag k="place" v="islet" />
		<tag k="ssr:stedsnr" v="896822" />
	</node>
	<node lat="65.0839083376561" lon="11.828727787112877" id="-89524">
		<tag k="name" v="Neset" />
		<tag k="natural" v="cape" />
		<tag k="ssr:stedsnr" v="706864" />
	</node>
	<node lat="65.11073055769266" lon="11.588655552104568" id="-89532">
		<tag k="fixme" v="consider seamark:type=rock or natural=shoal" />
		<tag k="name" v="Buøyoddskjæran" />
		<tag k="place" v="islet" />
		<tag k="ssr:stedsnr" v="713489" />
	</node>
	<node lat="65.13835555500924" lon="11.720100003068207" id="-89534">
		<tag k="name" v="Grønnholmen" />
		<tag k="place" v="islet" />
		<tag k="ssr:stedsnr" v="713913" />
	</node>
	<node lat="65.21203333204271" lon="10.981225003862866" id="-89539">
		<tag k="name" v="Maritholmen" />
		<tag k="place" v="islet" />
		<tag k="ssr:stedsnr" v="742494" />
	</node>
	<node lat="65.20143055851436" lon="11.487894436450791" id="-89546">
		<tag k="alt_name" v="Langdraget" />
		<tag k="name" v="Søre Langdraget" />
		<tag k="place" v="islet" />
		<tag k="ssr:stedsnr" v="743779" />
	</node>
	<node lat="65.28033055806968" lon="11.355236107037944" id="-89549">
		<tag k="alt_name" v="Ertnbalen;Ertenbalen" />
		<tag k="fixme" v="consider seamark:type=rock or natural=shoal" />
		<tag k="name" v="Ertnbarden" />
		<tag k="place" v="islet" />
		<tag k="ssr:stedsnr" v="743904" />
	</node>
	<node lat="65.27665277469973" lon="11.399933343223374" id="-89550">
		<tag k="alt_name" v="Nordstorgrunn" />
		<tag k="name" v="Nordstorgrunnen" />
		<tag k="natural" v="shoal" />
		<tag k="place" v="locality" />
		<tag k="ssr:stedsnr" v="743909" />
	</node>
	<node lat="65.22385555639866" lon="11.359008342517102" id="-89552">
		<tag k="fixme" v="consider seamark:type=rock or natural=shoal" />
		<tag k="name" v="Litlskjeribåen" />
		<tag k="place" v="islet" />
		<tag k="ssr:stedsnr" v="755403" />
	</node>
	<node lat="65.06169166723173" lon="11.280936115674503" id="-89553">
		<tag k="name" v="Innersylstetaran" />
		<tag k="natural" v="shoal" />
		<tag k="place" v="locality" />
		<tag k="ssr:stedsnr" v="756946" />
	</node>
	<node lat="65.05494166303502" lon="11.623616660503131" id="-89554">
		<tag k="name" v="Bukkhammaren" />
		<tag k="natural" v="cape" />
		<tag k="ssr:stedsnr" v="764954" />
	</node>
	<node lat="65.07613611461342" lon="11.692108335861509" id="-89569">
		<tag k="name" v="Otteholman" />
		<tag k="place" v="islet" />
		<tag k="ssr:stedsnr" v="774104" />
	</node>
	<node lat="65.05503888562887" lon="11.703963887356753" id="-89571">
		<tag k="name" v="Langstranda" />
		<tag k="natural" v="beach" />
		<tag k="ssr:stedsnr" v="774418" />
	</node>
	<node lat="65.09003055533731" lon="11.769447230022376" id="-89573">
		<tag k="bay" v="fjord" />
		<tag k="name" v="Lekafjorden" />
		<tag k="natural" v="bay" />
		<tag k="ssr:stedsnr" v="774925" />
	</node>
	<node lat="65.18407499654421" lon="11.313488886426024" id="-89580">
		<tag k="name" v="Brorskolten" />
		<tag k="natural" v="shoal" />
		<tag k="place" v="locality" />
		<tag k="ssr:stedsnr" v="803655" />
	</node>
	<node lat="65.11347500229881" lon="11.745452767506746" id="-89584">
		<tag k="fixme" v="consider seamark:type=rock or natural=shoal" />
		<tag k="name" v="Måsskjæret" />
		<tag k="place" v="islet" />
		<tag k="ssr:stedsnr" v="835887" />
	</node>
	<node lat="65.10857777737014" lon="11.60891944036487" id="-89586">
		<tag k="name" v="Brenntuvå" />
		<tag k="natural" v="cape" />
		<tag k="ssr:stedsnr" v="835797" />
	</node>
	<node lat="65.10224166597072" lon="11.77119722532088" id="-89589">
		<tag k="name" v="Bukkatalgen" />
		<tag k="natural" v="beach" />
		<tag k="ssr:stedsnr" v="835913" />
	</node>
	<node lat="65.08797778111969" lon="11.538583324799427" id="-89590">
		<tag k="name" v="Bremneskeila" />
		<tag k="natural" v="bay" />
		<tag k="old_name" v="Bremnesskeilå" />
		<tag k="ssr:stedsnr" v="836733" />
	</node>
	<node lat="65.13586111026267" lon="11.710866661970416" id="-89591">
		<tag k="name" v="Storvika" />
		<tag k="natural" v="bay" />
		<tag k="ssr:stedsnr" v="836904" />
	</node>
	<node lat="65.22952778143375" lon="10.981208343553476" id="-89601">
		<tag k="name" v="Langfalla" />
		<tag k="natural" v="shoal" />
		<tag k="place" v="locality" />
		<tag k="ssr:stedsnr" v="925551" />
	</node>
	<node lat="65.21322777325618" lon="11.442525007200459" id="-89603">
		<tag k="name" v="Kvåholmen" />
		<tag k="place" v="islet" />
		<tag k="ssr:stedsnr" v="925675" />
	</node>
	<node lat="65.21445278114878" lon="11.402125003595545" id="-89604">
		<tag k="alt_name" v="Ræuholmen" />
		<tag k="name" v="Raudholmen" />
		<tag k="place" v="islet" />
		<tag k="ssr:stedsnr" v="925676" />
	</node>
	<node lat="65.20637222591124" lon="11.476255552690661" id="-89605">
		<tag k="name" v="Vågøya" />
		<tag k="place" v="island" />
		<tag k="ssr:stedsnr" v="925689" />
	</node>
	<node lat="65.14295000402049" lon="11.21342500856644" id="-89606">
		<tag k="name" v="Båetaren" />
		<tag k="natural" v="shoal" />
		<tag k="place" v="locality" />
		<tag k="ssr:stedsnr" v="925647" />
	</node>
	<node lat="65.11064444569266" lon="11.552952780065153" id="-89611">
		<tag k="name" v="Tjeldtaren" />
		<tag k="natural" v="shoal" />
		<tag k="place" v="locality" />
		<tag k="ssr:stedsnr" v="925793" />
	</node>
	<node lat="65.10748889305636" lon="11.544300007190088" id="-89612">
		<tag k="name" v="Storsluin" />
		<tag k="natural" v="shoal" />
		<tag k="place" v="locality" />
		<tag k="ssr:stedsnr" v="925794" />
	</node>
	<node lat="65.14215833353958" lon="11.920744454072885" id="-89615">
		<tag k="name" v="Hestvika" />
		<tag k="natural" v="bay" />
		<tag k="ssr:stedsnr" v="925987" />
	</node>
	<node lat="65.09384999631655" lon="11.909055564917425" id="-89617">
		<tag k="name" v="Lendinga" />
		<tag k="natural" v="beach" />
		<tag k="ssr:stedsnr" v="864035" />
	</node>
	<node lat="65.35070277959827" lon="10.98166943925264" id="-89618">
		<tag k="name" v="Indreufstaren" />
		<tag k="natural" v="shoal" />
		<tag k="place" v="locality" />
		<tag k="ssr:stedsnr" v="934813" />
	</node>
	<node lat="65.08313888528721" lon="11.529597212445282" id="-89624">
		<tag k="name" v="Oddan" />
		<tag k="natural" v="cape" />
		<tag k="ssr:stedsnr" v="895108" />
	</node>
	<node lat="65.06998055510243" lon="11.514422216387246" id="-89625">
		<tag k="name" v="Sørøya" />
		<tag k="natural" v="cape" />
		<tag k="ssr:stedsnr" v="895112" />
	</node>
	<node lat="65.07701389116845" lon="11.520130556388455" id="-89626">
		<tag k="name" v="Oterholmen" />
		<tag k="place" v="islet" />
		<tag k="ssr:stedsnr" v="895114" />
	</node>
	<node lat="65.07743611450609" lon="11.527469437395009" id="-89627">
		<tag k="name" v="Nordøya" />
		<tag k="natural" v="cape" />
		<tag k="ssr:stedsnr" v="895119" />
	</node>
	<node lat="65.06648611415237" lon="11.52676944752845" id="-89628">
		<tag k="name" v="Langskjæret" />
		<tag k="natural" v="cape" />
		<tag k="ssr:stedsnr" v="895123" />
	</node>
	<node lat="65.0463805532439" lon="11.68569721361968" id="-89629">
		<tag k="name" v="Kobbskjæret" />
		<tag k="natural" v="cape" />
		<tag k="ssr:stedsnr" v="895363" />
	</node>
	<node lat="65.12731388723789" lon="11.709224995297307" id="-89630">
		<tag k="name" v="Liss-Burøydraget" />
		<tag k="place" v="islet" />
		<tag k="ssr:stedsnr" v="895375" />
	</node>
	<node lat="65.10118055446847" lon="11.767991676994026" id="-89634">
		<tag k="name" v="Vardvika" />
		<tag k="natural" v="bay" />
		<tag k="ssr:stedsnr" v="895921" />
	</node>
	<node lat="65.22995555611712" lon="11.40669999319175" id="-89639">
		<tag k="name" v="Kviksholmtaren" />
		<tag k="natural" v="shoal" />
		<tag k="place" v="locality" />
		<tag k="ssr:stedsnr" v="924665" />
	</node>
	<node lat="65.37793611520686" lon="10.995774994657102" id="-89642">
		<tag k="alt_name" v="Ufstaran, n" />
		<tag k="name" v="Nordufstaren" />
		<tag k="natural" v="shoal" />
		<tag k="place" v="locality" />
		<tag k="ssr:stedsnr" v="925714" />
	</node>
	<node lat="65.12751666483128" lon="11.616983334876961" id="-89647">
		<tag k="alt_name" v="Skjåholmtaran" />
		<tag k="name" v="Sjåholmtaran" />
		<tag k="natural" v="shoal" />
		<tag k="place" v="locality" />
		<tag k="ssr:stedsnr" v="925772" />
	</node>
	<node lat="65.20211666930301" lon="11.503844447419109" id="-89649">
		<tag k="name" v="Storfornøyta" />
		<tag k="place" v="islet" />
		<tag k="ssr:stedsnr" v="925694" />
	</node>
	<node lat="65.3858555576207" lon="10.976202774835814" id="-89650">
		<tag k="name" v="Langtaren" />
		<tag k="natural" v="shoal" />
		<tag k="place" v="locality" />
		<tag k="ssr:stedsnr" v="925803" />
	</node>
	<node lat="65.05120000257433" lon="11.675588882384572" id="-89654">
		<tag k="name" v="Madsøya" />
		<tag k="place" v="island" />
		<tag k="ssr:stedsnr" v="925818" />
	</node>
	<node lat="65.04014722268813" lon="11.547300010509474" id="-89656">
		<tag k="name" v="Solsemvika" />
		<tag k="natural" v="bay" />
		<tag k="ssr:stedsnr" v="925903" />
	</node>
	<node lat="65.06695833617567" lon="11.271158339331217" id="-89657">
		<tag k="name" v="Sylstetaran" />
		<tag k="natural" v="shoal" />
		<tag k="place" v="locality" />
		<tag k="ssr:stedsnr" v="935736" />
	</node>
	<node lat="65.11066388520054" lon="11.724702770677874" id="-89666">
		<tag k="fixme" v="consider seamark:type=rock or natural=shoal" />
		<tag k="name" v="Naustskjæret" />
		<tag k="place" v="islet" />
		<tag k="ssr:stedsnr" v="956918" />
	</node>
	<node lat="65.10004444307147" lon="11.568647230924634" id="-89668">
		<tag k="name" v="Buøybukta" />
		<tag k="natural" v="bay" />
		<tag k="ssr:stedsnr" v="957747" />
	</node>
	<node lat="65.04917083251014" lon="11.537386522141743" id="-89672">
		<tag k="name" v="Korsvika" />
		<tag k="natural" v="bay" />
		<tag k="ssr:stedsnr" v="975930" />
	</node>
	<node lat="65.20582499758034" lon="10.99331110822119" id="-89675">
		<tag k="name" v="Hansholmen" />
		<tag k="place" v="islet" />
		<tag k="ssr:stedsnr" v="14457" />
	</node>
	<node lat="65.19800221141215" lon="10.938681151486888" id="-89679">
		<tag k="name" v="Oddbåleia" />
		<tag k="natural" v="bay" />
		<tag k="ssr:stedsnr" v="14449" />
	</node>
	<node lat="65.22310832949069" lon="11.471361112982345" id="-89682">
		<tag k="name" v="Klungholmslua" />
		<tag k="natural" v="shoal" />
		<tag k="place" v="locality" />
		<tag k="ssr:stedsnr" v="14581" />
	</node>
	<node lat="65.12069999916378" lon="11.728713887795905" id="-89687">
		<tag k="name" v="Onholmen" />
		<tag k="place" v="islet" />
		<tag k="ssr:stedsnr" v="14920" />
	</node>
	<node lat="65.32950000336541" lon="11.267841666305157" id="-89688">
		<tag k="name" v="Kolsetta" />
		<tag k="natural" v="shoal" />
		<tag k="place" v="locality" />
		<tag k="ssr:stedsnr" v="14925" />
	</node>
	<node lat="65.04479166525843" lon="11.478430558640921" id="-89697">
		<tag k="alt_name" v="Slokkholmen" />
		<tag k="name" v="Slåkholmen" />
		<tag k="place" v="islet" />
		<tag k="ssr:stedsnr" v="15783" />
	</node>
	<node lat="65.04521666620056" lon="11.507580552125873" id="-89699">
		<tag k="fixme" v="consider seamark:type=rock or natural=shoal" />
		<tag k="name" v="Bøttan" />
		<tag k="place" v="islet" />
		<tag k="ssr:stedsnr" v="15790" />
	</node>
	<node lat="65.05411389076275" lon="11.279311111857304" id="-89701">
		<tag k="fixme" v="consider seamark:type=rock or natural=shoal" />
		<tag k="name" v="Brunflesin" />
		<tag k="place" v="islet" />
		<tag k="ssr:stedsnr" v="15800" />
	</node>
	<node lat="65.32463611071088" lon="10.984063883208911" id="-89702">
		<tag k="name" v="Brunan" />
		<tag k="natural" v="shoal" />
		<tag k="place" v="locality" />
		<tag k="ssr:stedsnr" v="15999" />
	</node>
	<node lat="65.201986111015" lon="11.419961117502123" id="-89703">
		<tag k="fixme" v="consider seamark:type=rock or natural=shoal" />
		<tag k="name" v="Trollskjeret" />
		<tag k="place" v="islet" />
		<tag k="ssr:stedsnr" v="27434" />
	</node>
	<node lat="65.06346389044822" lon="11.726513880433181" id="-89704">
		<tag k="name" v="Sørmadsøyflua" />
		<tag k="natural" v="shoal" />
		<tag k="place" v="locality" />
		<tag k="ssr:stedsnr" v="28850" />
	</node>
	<node lat="65.10403888958928" lon="11.843483330168517" id="-89705">
		<tag k="name" v="Tørrisengodden" />
		<tag k="natural" v="cape" />
		<tag k="ssr:stedsnr" v="38099" />
	</node>
	<node lat="65.09536666947149" lon="11.914844454614466" id="-89711">
		<tag k="bay" v="fjord" />
		<tag k="name" v="Horsfjordbotnet" />
		<tag k="natural" v="bay" />
		<tag k="ssr:stedsnr" v="42817" />
	</node>
	<node lat="65.12713333147221" lon="11.739297231252369" id="-89717">
		<tag k="fixme" v="consider seamark:type=rock or natural=shoal" />
		<tag k="name" v="Svoltningskjæran" />
		<tag k="place" v="islet" />
		<tag k="ssr:stedsnr" v="44128" />
	</node>
	<node lat="65.12312778136534" lon="11.691225000298658" id="-89721">
		<tag k="name" v="Oterholmsundet" />
		<tag k="natural" v="strait" />
		<tag k="ssr:stedsnr" v="46189" />
	</node>
	<node lat="65.20446388723782" lon="11.006786110110536" id="-89724">
		<tag k="name" v="Gråtenhøy" />
		<tag k="natural" v="shoal" />
		<tag k="place" v="locality" />
		<tag k="ssr:stedsnr" v="55549" />
	</node>
	<node lat="65.09845000212457" lon="11.764561102925885" id="-89725">
		<tag k="fixme" v="consider seamark:type=rock or natural=shoal" />
		<tag k="name" v="Lisse Våttvikskjæret" />
		<tag k="place" v="islet" />
		<tag k="ssr:stedsnr" v="55933" />
	</node>
	<node lat="65.24479166629503" lon="10.984386105392007" id="-89730">
		<tag k="name" v="Braktåa" />
		<tag k="natural" v="shoal" />
		<tag k="place" v="locality" />
		<tag k="ssr:stedsnr" v="75527" />
	</node>
	<node lat="65.22693610880964" lon="10.953355558968413" id="-89731">
		<tag k="name" v="Kjekstaren" />
		<tag k="natural" v="shoal" />
		<tag k="place" v="locality" />
		<tag k="ssr:stedsnr" v="75528" />
	</node>
	<node lat="65.19954999953951" lon="10.989525010463629" id="-89732">
		<tag k="name" v="Heimøya" />
		<tag k="place" v="island" />
		<tag k="ssr:stedsnr" v="75537" />
	</node>
	<node lat="65.14441388810994" lon="11.053930552409" id="-89733">
		<tag k="fixme" v="multiple name tags, choose one and add the other to alt_name" />
		<tag k="name" v="Torsteinryggen;Torsteineggryggen" />
		<tag k="natural" v="shoal" />
		<tag k="place" v="locality" />
		<tag k="ssr:stedsnr" v="75647" />
	</node>
	<node lat="65.21168611031882" lon="11.497586115700889" id="-89735">
		<tag k="alt_name" v="Langdraget" />
		<tag k="name" v="Nord-Langdraget" />
		<tag k="place" v="islet" />
		<tag k="ssr:stedsnr" v="75678" />
	</node>
	<node lat="65.14354166546026" lon="11.647236117491975" id="-89737">
		<tag k="alt_name" v="Ytterflesin" />
		<tag k="fixme" v="consider seamark:type=rock or natural=shoal" />
		<tag k="name" v="Ytterjørenflesin" />
		<tag k="place" v="islet" />
		<tag k="ssr:stedsnr" v="75773" />
	</node>
	<node lat="65.12644722327889" lon="11.67589443908994" id="-89738">
		<tag k="fixme" v="consider seamark:type=rock or natural=shoal" />
		<tag k="name" v="Havøyodden" />
		<tag k="place" v="islet" />
		<tag k="ssr:stedsnr" v="75781" />
	</node>
	<node lat="65.07226666240581" lon="11.514388890698848" id="-89742">
		<tag k="name" v="Steinsøya" />
		<tag k="place" v="island" />
		<tag k="ssr:stedsnr" v="75849" />
	</node>
	<node lat="65.12399444540812" lon="11.878938898532542" id="-89746">
		<tag k="name" v="Storholmen" />
		<tag k="place" v="islet" />
		<tag k="ssr:stedsnr" v="75994" />
	</node>
	<node lat="65.08373889193768" lon="11.87692777415049" id="-89748">
		<tag k="name" v="Austra" />
		<tag k="place" v="island" />
		<tag k="ssr:stedsnr" v="76070" />
	</node>
	<node lat="65.08465000011415" lon="11.832613878843617" id="-89749">
		<tag k="name" v="Gutvikvågen" />
		<tag k="natural" v="bay" />
		<tag k="ssr:stedsnr" v="76084" />
	</node>
	<node lat="65.18995278225768" lon="10.925630558227654" id="-89754">
		<tag k="name" v="Strålsgrunnen" />
		<tag k="natural" v="shoal" />
		<tag k="place" v="locality" />
		<tag k="ssr:stedsnr" v="85841" />
	</node>
	<node lat="65.2091750028619" lon="10.955891656833355" id="-89755">
		<tag k="name" v="Kvalen" />
		<tag k="natural" v="shoal" />
		<tag k="place" v="locality" />
		<tag k="ssr:stedsnr" v="85842" />
	</node>
	<node lat="65.18949166630946" lon="11.426469436535593" id="-89756">
		<tag k="name" v="Sørkleppen" />
		<tag k="place" v="islet" />
		<tag k="ssr:stedsnr" v="88337" />
	</node>
	<node lat="65.21686666940634" lon="11.421961120518734" id="-89758">
		<tag k="fixme" v="consider seamark:type=rock or natural=shoal" />
		<tag k="name" v="Lågøyskjæret" />
		<tag k="place" v="islet" />
		<tag k="ssr:stedsnr" v="88052" />
	</node>
	<node lat="65.07646110767595" lon="11.533227787604892" id="-89765">
		<tag k="fixme" v="consider seamark:type=rock or natural=shoal" />
		<tag k="name" v="Fornøytå" />
		<tag k="place" v="islet" />
		<tag k="ssr:stedsnr" v="106116" />
	</node>
	<node lat="65.07645832928395" lon="11.537474999564475" id="-89766">
		<tag k="name" v="Vågsjøen" />
		<tag k="natural" v="bay" />
		<tag k="ssr:stedsnr" v="106423" />
	</node>
	<node lat="65.08937221850591" lon="11.725497230931426" id="-89770">
		<tag k="name" v="Klokkarvika" />
		<tag k="natural" v="bay" />
		<tag k="ssr:stedsnr" v="106986" />
	</node>
	<node lat="65.13479585907075" lon="11.72984113017883" id="-89774">
		<tag k="name" v="Jernsøya" />
		<tag k="place" v="island" />
		<tag k="ssr:stedsnr" v="106888" />
	</node>
	<node lat="65.11239444701172" lon="11.629052782347316" id="-89776">
		<tag k="fixme" v="consider seamark:type=rock or natural=shoal" />
		<tag k="name" v="Småskjæran" />
		<tag k="place" v="islet" />
		<tag k="ssr:stedsnr" v="107780" />
	</node>
	<node lat="65.21211389254094" lon="10.923925003919981" id="-89780">
		<tag k="name" v="Dølleia" />
		<tag k="natural" v="bay" />
		<tag k="ssr:stedsnr" v="135501" />
	</node>
	<node lat="65.2403111098443" lon="10.960722215670213" id="-89781">
		<tag k="name" v="Kjeksgrunnen" />
		<tag k="natural" v="shoal" />
		<tag k="place" v="locality" />
		<tag k="ssr:stedsnr" v="135488" />
	</node>
	<node lat="65.08886944023835" lon="11.821100007518513" id="-89787">
		<tag k="name" v="Galtvika" />
		<tag k="natural" v="bay" />
		<tag k="ssr:stedsnr" v="136077" />
	</node>
	<node lat="65.117113888343" lon="11.295236112149798" id="-89789">
		<tag k="name" v="Nordsvetaren" />
		<tag k="natural" v="shoal" />
		<tag k="place" v="locality" />
		<tag k="ssr:stedsnr" v="136769" />
	</node>
	<node lat="65.25398889184102" lon="11.347430561943222" id="-89792">
		<tag k="alt_name" v="Sørkobbarden" />
		<tag k="fixme" v="consider seamark:type=rock or natural=shoal" />
		<tag k="name" v="Sørkobbalen" />
		<tag k="place" v="islet" />
		<tag k="ssr:stedsnr" v="136906" />
	</node>
	<node lat="65.25203888987484" lon="11.444863888427756" id="-89793">
		<tag k="name" v="Storbåen" />
		<tag k="natural" v="shoal" />
		<tag k="place" v="locality" />
		<tag k="ssr:stedsnr" v="136909" />
	</node>
	<node lat="65.28902499829539" lon="11.373752768441674" id="-89794">
		<tag k="alt_name" v="Baltaren" />
		<tag k="name" v="Bardtaren" />
		<tag k="natural" v="shoal" />
		<tag k="place" v="locality" />
		<tag k="ssr:stedsnr" v="136920" />
	</node>
	<node lat="65.28953889098523" lon="11.347930549666232" id="-89795">
		<tag k="name" v="Langtaren" />
		<tag k="natural" v="shoal" />
		<tag k="place" v="locality" />
		<tag k="ssr:stedsnr" v="136922" />
	</node>
	<node lat="65.1306888868724" lon="11.896155544725227" id="-89796">
		<tag k="name" v="Sundsvika" />
		<tag k="natural" v="bay" />
		<tag k="ssr:stedsnr" v="136994" />
	</node>
	<node lat="65.03893888976945" lon="11.666477770775366" id="-89797">
		<tag k="name" v="Sørslua" />
		<tag k="natural" v="shoal" />
		<tag k="place" v="locality" />
		<tag k="ssr:stedsnr" v="148282" />
	</node>
	<node lat="65.08321944864808" lon="11.739605561400083" id="-89798">
		<tag k="name" v="Tennskjerflu" />
		<tag k="natural" v="shoal" />
		<tag k="old_name" v="Tenskjerflu" />
		<tag k="place" v="locality" />
		<tag k="ssr:stedsnr" v="149826" />
	</node>
	<node lat="65.06698055702445" lon="11.726766656999814" id="-89799">
		<tag k="name" v="Nordmadsøyflua" />
		<tag k="natural" v="shoal" />
		<tag k="place" v="locality" />
		<tag k="ssr:stedsnr" v="149830" />
	</node>
	<node lat="65.10451389218719" lon="11.786669444972373" id="-89800">
		<tag k="fixme" v="consider seamark:type=rock or natural=shoal" />
		<tag k="name" v="Nordkvalbaken" />
		<tag k="place" v="islet" />
		<tag k="ssr:stedsnr" v="149842" />
	</node>
	<node lat="65.09798056004396" lon="11.839063879643444" id="-89802">
		<tag k="name" v="Ytter Vedvika" />
		<tag k="natural" v="bay" />
		<tag k="ssr:stedsnr" v="159876" />
	</node>
	<node lat="65.10761944080396" lon="11.84833888733258" id="-89804">
		<tag k="name" v="Tørrisenggrunnen" />
		<tag k="natural" v="shoal" />
		<tag k="place" v="locality" />
		<tag k="ssr:stedsnr" v="160083" />
	</node>
	<node lat="65.12616944833634" lon="11.736983332715335" id="-89806">
		<tag k="fixme" v="consider seamark:type=rock or natural=shoal" />
		<tag k="name" v="Svoltningskjæret" />
		<tag k="place" v="islet" />
		<tag k="ssr:stedsnr" v="166090" />
	</node>
	<node lat="65.07553333215246" lon="11.80491387906312" id="-89808">
		<tag k="name" v="Båtsnessodden" />
		<tag k="natural" v="cape" />
		<tag k="ssr:stedsnr" v="167889" />
	</node>
	<node lat="65.0632277819176" lon="11.782711111091011" id="-89809">
		<tag k="name" v="Madsøygrova" />
		<tag k="natural" v="bay" />
		<tag k="ssr:stedsnr" v="167890" />
	</node>
	<node lat="65.05864444476457" lon="11.632700010173659" id="-89813">
		<tag k="name" v="Bekkvika" />
		<tag k="natural" v="bay" />
		<tag k="ssr:stedsnr" v="166953" />
	</node>
	<node lat="65.11194722025047" lon="11.71770554526223" id="-89814">
		<tag k="name" v="Liss-Sjyholmen" />
		<tag k="place" v="islet" />
		<tag k="ssr:stedsnr" v="167051" />
	</node>
	<node lat="65.12789444350572" lon="11.68618056308674" id="-89815">
		<tag k="name" v="Havøysundet" />
		<tag k="natural" v="strait" />
		<tag k="ssr:stedsnr" v="167446" />
	</node>
	<node lat="65.10971666632" lon="11.607355548787796" id="-89819">
		<tag k="fixme" v="consider seamark:type=rock or natural=shoal" />
		<tag k="name" v="Lottholmskjæran" />
		<tag k="place" v="islet" />
		<tag k="ssr:stedsnr" v="167797" />
	</node>
	<node lat="65.0395805536242" lon="11.647488895393622" id="-89824">
		<tag k="name" v="Tangodden" />
		<tag k="natural" v="cape" />
		<tag k="ssr:stedsnr" v="169987" />
	</node>
	<node lat="65.11124166985535" lon="11.75586943692829" id="-89831">
		<tag k="name" v="Valan" />
		<tag k="natural" v="cape" />
		<tag k="ssr:stedsnr" v="196015" />
	</node>
	<node lat="65.2158666663244" lon="10.963463889424121" id="-89833">
		<tag k="name" v="Måøya" />
		<tag k="place" v="islet" />
		<tag k="ssr:stedsnr" v="196467" />
	</node>
	<node lat="65.21824722358568" lon="10.958702775291972" id="-89834">
		<tag k="name" v="Strålaus" />
		<tag k="place" v="islet" />
		<tag k="ssr:stedsnr" v="196469" />
	</node>
	<node lat="65.20062499586757" lon="10.936661110080152" id="-89836">
		<tag k="alt_name" v="Indre Oddbåan" />
		<tag k="name" v="Oddbåan" />
		<tag k="natural" v="shoal" />
		<tag k="place" v="locality" />
		<tag k="ssr:stedsnr" v="196482" />
	</node>
	<node lat="65.20682499919248" lon="10.920505560451291" id="-89837">
		<tag k="name" v="Rusan" />
		<tag k="natural" v="shoal" />
		<tag k="place" v="locality" />
		<tag k="ssr:stedsnr" v="196483" />
	</node>
	<node lat="65.21070278175428" lon="10.924036118624025" id="-89838">
		<tag k="name" v="Dølen" />
		<tag k="natural" v="shoal" />
		<tag k="place" v="locality" />
		<tag k="ssr:stedsnr" v="196485" />
	</node>
	<node lat="65.20443055720774" lon="11.466688882105084" id="-89840">
		<tag k="name" v="Nilsholmen" />
		<tag k="place" v="islet" />
		<tag k="ssr:stedsnr" v="196610" />
	</node>
	<node lat="65.07961944414639" lon="11.53582499519067" id="-89845">
		<tag k="name" v="Buøya" />
		<tag k="place" v="islet" />
		<tag k="ssr:stedsnr" v="196694" />
	</node>
	<node lat="65.22609444325987" lon="11.32293888506181" id="-89846">
		<tag k="name" v="Stortaren" />
		<tag k="natural" v="shoal" />
		<tag k="place" v="locality" />
		<tag k="ssr:stedsnr" v="196636" />
	</node>
	<node lat="65.04207500443405" lon="11.581033334551394" id="-89852">
		<tag k="name" v="Årdalssanden" />
		<tag k="natural" v="beach" />
		<tag k="ssr:stedsnr" v="197883" />
	</node>
	<node lat="65.10202500397479" lon="11.783849991831218" id="-89853">
		<tag k="alt_name" v="Kvalbaken" />
		<tag k="fixme" v="consider seamark:type=rock or natural=shoal" />
		<tag k="name" v="Sørkvalbaken" />
		<tag k="place" v="islet" />
		<tag k="ssr:stedsnr" v="197051" />
	</node>
	<node lat="65.04253333517967" lon="11.750966662876976" id="-89854">
		<tag k="alt_name" v="Sør-Sandhalsen;Sandhalsen, søre" />
		<tag k="name" v="Sørsandhalsen" />
		<tag k="natural" v="cape" />
		<tag k="ssr:stedsnr" v="197132" />
	</node>
	<node lat="65.15110555948776" lon="11.669866662271305" id="-89855">
		<tag k="name" v="Nordtaren" />
		<tag k="natural" v="shoal" />
		<tag k="place" v="locality" />
		<tag k="ssr:stedsnr" v="197743" />
	</node>
	<node lat="65.14974999602813" lon="11.663155552756699" id="-89856">
		<tag k="name" v="Ytterslua" />
		<tag k="natural" v="shoal" />
		<tag k="place" v="locality" />
		<tag k="ssr:stedsnr" v="197753" />
	</node>
	<node lat="65.05111111550784" lon="11.642755561886949" id="-89857">
		<tag k="alt_name" v="Øyskjæret" />
		<tag k="name" v="Øyflesa" />
		<tag k="place" v="islet" />
		<tag k="ssr:stedsnr" v="197780" />
	</node>
	<node lat="65.36313055244055" lon="11.095191656293476" id="-89859">
		<tag k="name" v="Leirbåen" />
		<tag k="natural" v="shoal" />
		<tag k="place" v="locality" />
		<tag k="ssr:stedsnr" v="197786" />
	</node>
	<node lat="65.05049467344975" lon="11.483680051834163" id="-89860">
		<tag k="alt_name" v="Fornøytå" />
		<tag k="name" v="Fornøyta" />
		<tag k="place" v="islet" />
		<tag k="ssr:stedsnr" v="197788" />
	</node>
	<node lat="65.04613610725076" lon="11.516361119840072" id="-89861">
		<tag k="name" v="Visholmen" />
		<tag k="place" v="islet" />
		<tag k="ssr:stedsnr" v="197791" />
	</node>
	<node lat="65.14069736660662" lon="11.737975444295996" id="-89863">
		<tag k="alt_name" v="Kjeldvær;Tjeldværet" />
		<tag k="fixme" v="consider seamark:type=rock or natural=shoal" />
		<tag k="name" v="Kjelværet" />
		<tag k="place" v="islet" />
		<tag k="ssr:stedsnr" v="197992" />
	</node>
	<node lat="65.23529721997487" lon="11.034102773453718" id="-89864">
		<tag k="name" v="Gnaget" />
		<tag k="natural" v="shoal" />
		<tag k="place" v="locality" />
		<tag k="ssr:stedsnr" v="207918" />
	</node>
	<node lat="65.21322777734792" lon="10.930530563630732" id="-89865">
		<tag k="name" v="Krabben" />
		<tag k="natural" v="shoal" />
		<tag k="place" v="locality" />
		<tag k="ssr:stedsnr" v="207919" />
	</node>
	<node lat="65.04485833305694" lon="11.45547221688262" id="-89866">
		<tag k="fixme" v="consider seamark:type=rock or natural=shoal" />
		<tag k="name" v="Flatskjæret" />
		<tag k="place" v="islet" />
		<tag k="ssr:stedsnr" v="209281" />
	</node>
	<node lat="65.12435833165381" lon="11.723727773062917" id="-89869">
		<tag k="name" v="Steinøysundet" />
		<tag k="natural" v="strait" />
		<tag k="ssr:stedsnr" v="226085" />
	</node>
	<node lat="65.11200000360851" lon="11.598702775331544" id="-89871">
		<tag k="fixme" v="consider seamark:type=rock or natural=shoal" />
		<tag k="name" v="Ørnskjæret" />
		<tag k="place" v="islet" />
		<tag k="ssr:stedsnr" v="227474" />
	</node>
	<node lat="65.13020555696778" lon="11.719669437929277" id="-89874">
		<tag k="fixme" v="consider seamark:type=rock or natural=shoal" />
		<tag k="name" v="Gåsaskjæran" />
		<tag k="place" v="islet" />
		<tag k="ssr:stedsnr" v="228423" />
	</node>
	<node lat="65.07061389306223" lon="11.540016672925661" id="-89882">
		<tag k="name" v="Dagrosvika" />
		<tag k="natural" v="bay" />
		<tag k="ssr:stedsnr" v="288350" />
	</node>
	<node lat="65.08221666749728" lon="11.527858329474965" id="-89883">
		<tag k="name" v="Joholmholet" />
		<tag k="natural" v="strait" />
		<tag k="ssr:stedsnr" v="288115" />
	</node>
	<node lat="65.07468889079391" lon="11.53331665843655" id="-89884">
		<tag k="fixme" v="consider seamark:type=rock or natural=shoal" />
		<tag k="name" v="Kattå" />
		<tag k="place" v="islet" />
		<tag k="ssr:stedsnr" v="288121" />
	</node>
	<node lat="65.0520555595527" lon="11.619291669518306" id="-89890">
		<tag k="name" v="Breiøksa" />
		<tag k="natural" v="beach" />
		<tag k="ssr:stedsnr" v="288951" />
	</node>
	<node lat="65.08321944864808" lon="11.739605561400083" id="-89898">
		<tag k="fixme" v="consider seamark:type=rock or natural=shoal" />
		<tag k="name" v="Tennskjæret" />
		<tag k="old_name" v="Tenskjeret" />
		<tag k="place" v="islet" />
		<tag k="ssr:stedsnr" v="317066" />
	</node>
	<node lat="65.22682499905315" lon="10.995816672758744" id="-89899">
		<tag k="fixme" v="consider seamark:type=rock or natural=shoal" />
		<tag k="name" v="Stabben" />
		<tag k="place" v="islet" />
		<tag k="ssr:stedsnr" v="317449" />
	</node>
	<node lat="65.24797777624677" lon="11.158233326719664" id="-89900">
		<tag k="name" v="Revtaren" />
		<tag k="natural" v="shoal" />
		<tag k="place" v="locality" />
		<tag k="ssr:stedsnr" v="318529" />
	</node>
	<node lat="65.06979999747966" lon="11.542613899191506" id="-89903">
		<tag k="name" v="Stranda" />
		<tag k="natural" v="beach" />
		<tag k="ssr:stedsnr" v="318818" />
	</node>
	<node lat="65.06743611463018" lon="11.518286107648438" id="-89904">
		<tag k="name" v="Vågsundet" />
		<tag k="natural" v="strait" />
		<tag k="ssr:stedsnr" v="318819" />
	</node>
	<node lat="65.19182777542336" lon="10.979202767503685" id="-89905">
		<tag k="name" v="Amund" />
		<tag k="natural" v="shoal" />
		<tag k="place" v="locality" />
		<tag k="ssr:stedsnr" v="317463" />
	</node>
	<node lat="65.1975250022906" lon="10.94164999275621" id="-89906">
		<tag k="name" v="Hanstaren" />
		<tag k="natural" v="shoal" />
		<tag k="place" v="locality" />
		<tag k="ssr:stedsnr" v="317472" />
	</node>
	<node lat="65.20646111522319" lon="11.003752782556855" id="-89907">
		<tag k="alt_name" v="Store Enakkskåket" />
		<tag k="name" v="Enakkskåket" />
		<tag k="natural" v="shoal" />
		<tag k="place" v="locality" />
		<tag k="ssr:stedsnr" v="317476" />
	</node>
	<node lat="65.2186805523432" lon="11.320447230515098" id="-89908">
		<tag k="name" v="Langtaren" />
		<tag k="natural" v="shoal" />
		<tag k="place" v="locality" />
		<tag k="ssr:stedsnr" v="317626" />
	</node>
	<node lat="65.12155000033167" lon="11.667194439814313" id="-89915">
		<tag k="fixme" v="consider seamark:type=rock or natural=shoal" />
		<tag k="name" v="Kvaløysteinen" />
		<tag k="place" v="islet" />
		<tag k="ssr:stedsnr" v="318754" />
	</node>
	<node lat="65.04923611399697" lon="11.353013893219117" id="-89918">
		<tag k="fixme" v="consider seamark:type=rock or natural=shoal" />
		<tag k="name" v="Leirbåan" />
		<tag k="place" v="islet" />
		<tag k="ssr:stedsnr" v="318785" />
	</node>
	<node lat="65.02115833677057" lon="11.331449994608683" id="-89919">
		<tag k="name" v="Tverrtaren" />
		<tag k="natural" v="shoal" />
		<tag k="place" v="locality" />
		<tag k="ssr:stedsnr" v="318875" />
	</node>
	<node lat="65.07250000170288" lon="11.539797216082839" id="-89922">
		<tag k="name" v="Solsemvika" />
		<tag k="natural" v="bay" />
		<tag k="ssr:stedsnr" v="330282" />
	</node>
	<node lat="65.13088888893955" lon="11.672633326265762" id="-89923">
		<tag k="name" v="Flestaren" />
		<tag k="natural" v="shoal" />
		<tag k="place" v="locality" />
		<tag k="ssr:stedsnr" v="330423" />
	</node>
	<node lat="65.04008611113787" lon="11.564663890839718" id="-89924">
		<tag k="name" v="Juvika" />
		<tag k="natural" v="bay" />
		<tag k="ssr:stedsnr" v="339871" />
	</node>
	<node lat="65.10713333231848" lon="11.573113889798172" id="-89937">
		<tag k="name" v="Kvalvika" />
		<tag k="natural" v="bay" />
		<tag k="ssr:stedsnr" v="348452" />
	</node>
	<node lat="65.05073611485817" lon="11.619758331772985" id="-89940">
		<tag k="name" v="Talgvikhammaren" />
		<tag k="natural" v="cape" />
		<tag k="ssr:stedsnr" v="348938" />
	</node>
	<node lat="65.12200277782406" lon="11.708094454866693" id="-89941">
		<tag k="fixme" v="consider seamark:type=rock or natural=shoal" />
		<tag k="name" v="Røyrskjæret" />
		<tag k="place" v="islet" />
		<tag k="ssr:stedsnr" v="349215" />
	</node>
	<node lat="65.12136110774593" lon="11.699338886283757" id="-89942">
		<tag k="name" v="Bukkholmsundet" />
		<tag k="natural" v="strait" />
		<tag k="ssr:stedsnr" v="349217" />
	</node>
	<node lat="65.09343611129114" lon="11.744172211780203" id="-89945">
		<tag k="name" v="Hålondlandet" />
		<tag k="natural" v="beach" />
		<tag k="ssr:stedsnr" v="349927" />
	</node>
	<node lat="65.20149721835725" lon="11.459894439874047" id="-89950">
		<tag k="name" v="Skarvskjæret" />
		<tag k="place" v="islet" />
		<tag k="ssr:stedsnr" v="357838" />
	</node>
	<node lat="65.03511111292201" lon="11.394430566158995" id="-89962">
		<tag k="name" v="Nyran" />
		<tag k="place" v="islet" />
		<tag k="ssr:stedsnr" v="378877" />
	</node>
	<node lat="65.1073500016852" lon="11.846327776675265" id="-89963">
		<tag k="name" v="Klipparvika" />
		<tag k="natural" v="bay" />
		<tag k="ssr:stedsnr" v="378002" />
	</node>
	<node lat="65.10659999882559" lon="11.72381667664692" id="-89966">
		<tag k="name" v="Leknessjøen" />
		<tag k="natural" v="bay" />
		<tag k="ssr:stedsnr" v="378011" />
	</node>
	<node lat="65.2266416627889" lon="11.398994446287336" id="-89968">
		<tag k="name" v="Kviksholmen" />
		<tag k="place" v="islet" />
		<tag k="ssr:stedsnr" v="378701" />
	</node>
	<node lat="65.04626388999193" lon="11.539116670998805" id="-89969">
		<tag k="name" v="Jåholmen" />
		<tag k="place" v="islet" />
		<tag k="ssr:stedsnr" v="378789" />
	</node>
	<node lat="65.20795240211542" lon="11.415252205948233" id="-89971">
		<tag k="alt_name" v="Stokksholmen;Stoksøya" />
		<tag k="name" v="Søre Stokkholmen" />
		<tag k="place" v="islet" />
		<tag k="ssr:stedsnr" v="378656" />
	</node>
	<node lat="65.15506389281859" lon="11.636966665199907" id="-89972">
		<tag k="name" v="Leknestaren" />
		<tag k="natural" v="shoal" />
		<tag k="place" v="locality" />
		<tag k="ssr:stedsnr" v="378753" />
	</node>
	<node lat="65.1509194411507" lon="11.327497219468306" id="-89973">
		<tag k="name" v="Einarfallan" />
		<tag k="natural" v="shoal" />
		<tag k="place" v="locality" />
		<tag k="ssr:stedsnr" v="378755" />
	</node>
	<node lat="65.05448055936836" lon="11.474730546297558" id="-89974">
		<tag k="name" v="Sandøya" />
		<tag k="place" v="islet" />
		<tag k="ssr:stedsnr" v="378819" />
	</node>
	<node lat="65.09715833620241" lon="11.563499995117922" id="-89980">
		<tag k="name" v="Steinsøya" />
		<tag k="place" v="islet" />
		<tag k="ssr:stedsnr" v="379679" />
	</node>
	<node lat="65.26631111385612" lon="11.37548888680667" id="-89984">
		<tag k="name" v="Marflobåan" />
		<tag k="natural" v="shoal" />
		<tag k="place" v="locality" />
		<tag k="ssr:stedsnr" v="392074" />
	</node>
	<node lat="65.08561388960959" lon="11.826780562805917" id="-89986">
		<tag k="name" v="Storholmen" />
		<tag k="natural" v="cape" />
		<tag k="ssr:stedsnr" v="402890" />
	</node>
	<node lat="65.09721944215552" lon="11.753302768513139" id="-89991">
		<tag k="name" v="Langstranda" />
		<tag k="natural" v="beach" />
		<tag k="ssr:stedsnr" v="409905" />
	</node>
	<node lat="65.07553055731904" lon="11.534747214203884" id="-89993">
		<tag k="fixme" v="consider seamark:type=rock or natural=shoal" />
		<tag k="name" v="Hestskjæret" />
		<tag k="place" v="islet" />
		<tag k="ssr:stedsnr" v="409416" />
	</node>
	<node lat="65.08621666270851" lon="11.746538878343433" id="-89995">
		<tag k="name" v="Hamnaodden" />
		<tag k="natural" v="cape" />
		<tag k="ssr:stedsnr" v="409883" />
	</node>
	<node lat="65.11904166458604" lon="11.708452779682835" id="-89997">
		<tag k="fixme" v="consider seamark:type=rock or natural=shoal" />
		<tag k="name" v="Kavringan" />
		<tag k="place" v="islet" />
		<tag k="ssr:stedsnr" v="410190" />
	</node>
	<node lat="65.13087222501437" lon="11.701738887071853" id="-89999">
		<tag k="fixme" v="consider seamark:type=rock or natural=shoal" />
		<tag k="name" v="Gjerthaugen" />
		<tag k="place" v="islet" />
		<tag k="ssr:stedsnr" v="410440" />
	</node>
	<node lat="65.19539722545964" lon="11.40349721207422" id="-90007">
		<tag k="alt_name" v="Grønningen" />
		<tag k="name" v="Store Grønningen" />
		<tag k="place" v="islet" />
		<tag k="ssr:stedsnr" v="439637" />
	</node>
	<node lat="65.14470555483369" lon="11.340883343248176" id="-90011">
		<tag k="name" v="Storsluin" />
		<tag k="natural" v="shoal" />
		<tag k="place" v="locality" />
		<tag k="ssr:stedsnr" v="439736" />
	</node>
	<node lat="65.1176833375289" lon="11.718280554687283" id="-90013">
		<tag k="name" v="Klakken" />
		<tag k="place" v="islet" />
		<tag k="ssr:stedsnr" v="439754" />
	</node>
	<node lat="65.05351389045667" lon="11.770380563509644" id="-90014">
		<tag k="name" v="Krekvika" />
		<tag k="natural" v="bay" />
		<tag k="ssr:stedsnr" v="439060" />
	</node>
	<node lat="65.21077777818148" lon="10.944738880367776" id="-90015">
		<tag k="name" v="Dølflesa" />
		<tag k="place" v="islet" />
		<tag k="ssr:stedsnr" v="439480" />
	</node>
	<node lat="65.21747499836569" lon="11.013544436155936" id="-90016">
		<tag k="name" v="Storskolten" />
		<tag k="natural" v="shoal" />
		<tag k="place" v="locality" />
		<tag k="ssr:stedsnr" v="439481" />
	</node>
	<node lat="65.22439715878926" lon="10.964641225662405" id="-90018">
		<tag k="name" v="Halsleia" />
		<tag k="natural" v="bay" />
		<tag k="ssr:stedsnr" v="439485" />
	</node>
	<node lat="65.06607777784241" lon="11.678213889169308" id="-90023">
		<tag k="name" v="Øya" />
		<tag k="natural" v="cape" />
		<tag k="ssr:stedsnr" v="439810" />
	</node>
	<node lat="65.07010555398267" lon="11.537772220326497" id="-90024">
		<tag k="fixme" v="consider seamark:type=rock or natural=shoal" />
		<tag k="name" v="Kråka" />
		<tag k="place" v="islet" />
		<tag k="ssr:stedsnr" v="439819" />
	</node>
	<node lat="65.07220833738423" lon="11.383211114126098" id="-90025">
		<tag k="name" v="Svansgrunnen" />
		<tag k="natural" v="shoal" />
		<tag k="place" v="locality" />
		<tag k="ssr:stedsnr" v="439824" />
	</node>
	<node lat="65.06744722522701" lon="11.488058340373422" id="-90026">
		<tag k="name" v="Sendingtaran" />
		<tag k="natural" v="shoal" />
		<tag k="place" v="locality" />
		<tag k="ssr:stedsnr" v="439825" />
	</node>
	<node lat="65.07173611385873" lon="11.26965000253949" id="-90027">
		<tag k="name" v="Ufstaren" />
		<tag k="natural" v="shoal" />
		<tag k="old_name" v="Ustaren" />
		<tag k="place" v="locality" />
		<tag k="ssr:stedsnr" v="439826" />
	</node>
	<node lat="65.04630000246" lon="11.37913056297783" id="-90031">
		<tag k="name" v="Sandflesin" />
		<tag k="place" v="islet" />
		<tag k="ssr:stedsnr" v="439767" />
	</node>
	<node lat="65.28289167029523" lon="11.385316662581344" id="-90033">
		<tag k="name" v="Mårtaren" />
		<tag k="natural" v="shoal" />
		<tag k="place" v="locality" />
		<tag k="ssr:stedsnr" v="439926" />
	</node>
	<node lat="65.14064721910597" lon="11.726199996499918" id="-90034">
		<tag k="fixme" v="consider seamark:type=rock or natural=shoal" />
		<tag k="name" v="Såtskjæret" />
		<tag k="place" v="islet" />
		<tag k="ssr:stedsnr" v="439983" />
	</node>
	<node lat="65.08082499917315" lon="11.527747228104056" id="-90038">
		<tag k="name" v="Joholmen" />
		<tag k="place" v="islet" />
		<tag k="ssr:stedsnr" v="499656" />
	</node>
	<node lat="65.20982500308271" lon="10.968980555499208" id="-90041">
		<tag k="name" v="Joholmen" />
		<tag k="place" v="islet" />
		<tag k="ssr:stedsnr" v="499420" />
	</node>
	<node lat="65.23220555360481" lon="11.093897225216473" id="-90042">
		<tag k="name" v="Revskoltan" />
		<tag k="natural" v="shoal" />
		<tag k="place" v="locality" />
		<tag k="ssr:stedsnr" v="499426" />
	</node>
	<node lat="65.23499166448698" lon="11.35691945057755" id="-90044">
		<tag k="name" v="Vegflesa" />
		<tag k="place" v="islet" />
		<tag k="ssr:stedsnr" v="499610" />
	</node>
	<node lat="65.22384722504358" lon="11.50472500501088" id="-90045">
		<tag k="fixme" v="consider seamark:type=rock or natural=shoal" />
		<tag k="name" v="Småbåan" />
		<tag k="place" v="islet" />
		<tag k="ssr:stedsnr" v="499623" />
	</node>
	<node lat="65.19729722006434" lon="10.989452768476015" id="-90048">
		<tag k="name" v="Lamholmen" />
		<tag k="place" v="islet" />
		<tag k="ssr:stedsnr" v="499449" />
	</node>
	<node lat="65.19163333578285" lon="11.029530551895956" id="-90049">
		<tag k="name" v="Klåren" />
		<tag k="natural" v="shoal" />
		<tag k="place" v="locality" />
		<tag k="ssr:stedsnr" v="499549" />
	</node>
	<node lat="65.19729721961504" lon="11.38400277741526" id="-90050">
		<tag k="name" v="Rørsholmen" />
		<tag k="place" v="islet" />
		<tag k="ssr:stedsnr" v="500708" />
	</node>
	<node lat="65.03749721994072" lon="11.41584999128009" id="-90052">
		<tag k="name" v="Stråkvalholmen" />
		<tag k="place" v="islet" />
		<tag k="ssr:stedsnr" v="499831" />
	</node>
	<node lat="65.10468055162897" lon="11.83886111192221" id="-90054">
		<tag k="fixme" v="multiple name tags, choose one and add the other to alt_name; consider seamark:type=rock or natural=shoal" />
		<tag k="name" v="Sør-Tørrisengholmen;Sørskjæret" />
		<tag k="place" v="islet" />
		<tag k="ssr:stedsnr" v="500003" />
	</node>
	<node lat="65.0858975162425" lon="11.73810863176406" id="-90058">
		<tag k="alt_name" v="Havnaholmen;Havneholmen" />
		<tag k="name" v="Hamnaholmen" />
		<tag k="place" v="islet" />
		<tag k="ssr:stedsnr" v="500072" />
	</node>
	<node lat="65.25543610771933" lon="11.338458329900737" id="-90066">
		<tag k="name" v="Vintertaren" />
		<tag k="natural" v="shoal" />
		<tag k="place" v="locality" />
		<tag k="ssr:stedsnr" v="513070" />
	</node>
	<node lat="65.12411666453735" lon="11.712922215678384" id="-90077">
		<tag k="fixme" v="consider seamark:type=rock or natural=shoal" />
		<tag k="name" v="Knubben" />
		<tag k="place" v="islet" />
		<tag k="ssr:stedsnr" v="530251" />
	</node>
	<node lat="65.08031666768484" lon="11.714725005590195" id="-90082">
		<tag k="name" v="Bakkalandet" />
		<tag k="natural" v="beach" />
		<tag k="ssr:stedsnr" v="531095" />
	</node>
	<node lat="65.07966389299509" lon="11.52795833916183" id="-90083">
		<tag k="name" v="Holet" />
		<tag k="natural" v="strait" />
		<tag k="ssr:stedsnr" v="531097" />
	</node>
	<node lat="65.12437778210979" lon="11.78367778622274" id="-90088">
		<tag k="fixme" v="consider seamark:type=rock or natural=shoal" />
		<tag k="name" v="Røyrskjæret" />
		<tag k="place" v="islet" />
		<tag k="ssr:stedsnr" v="531889" />
	</node>
	<node lat="65.06941110719427" lon="11.791655556794547" id="-90089">
		<tag k="name" v="Lendarvika" />
		<tag k="natural" v="bay" />
		<tag k="ssr:stedsnr" v="531892" />
	</node>
	<node lat="65.2117500004424" lon="10.9576833283513" id="-90100">
		<tag k="name" v="Slokholmen" />
		<tag k="place" v="islet" />
		<tag k="ssr:stedsnr" v="560512" />
	</node>
	<node lat="65.24424166517315" lon="11.333719442230894" id="-90102">
		<tag k="name" v="Silsluin" />
		<tag k="natural" v="shoal" />
		<tag k="place" v="locality" />
		<tag k="ssr:stedsnr" v="560662" />
	</node>
	<node lat="65.17422777884414" lon="11.46883333493472" id="-90104">
		<tag k="name" v="Didriksfallet" />
		<tag k="natural" v="shoal" />
		<tag k="place" v="locality" />
		<tag k="ssr:stedsnr" v="560711" />
	</node>
	<node lat="65.09583332909044" lon="11.32861110049146" id="-90105">
		<tag k="alt_name" v="Hortensfjorden" />
		<tag k="bay" v="fjord" />
		<tag k="name" v="Hortafjorden" />
		<tag k="natural" v="bay" />
		<tag k="ssr:stedsnr" v="560714" />
	</node>
	<node lat="65.13327222571884" lon="11.71032222837168" id="-90106">
		<tag k="name" v="Leknesøyan" />
		<tag k="place" v="island" />
		<tag k="ssr:stedsnr" v="560720" />
	</node>
	<node lat="65.13360555268544" lon="11.710058326753265" id="-90110">
		<tag k="name" v="Storøya" />
		<tag k="place" v="island" />
		<tag k="ssr:stedsnr" v="560729" />
	</node>
	<node lat="65.04563055802257" lon="11.679552780632028" id="-90113">
		<tag k="alt_name" v="Ovdin" />
		<tag k="name" v="Ovden" />
		<tag k="natural" v="bay" />
		<tag k="ssr:stedsnr" v="560750" />
	</node>
	<node lat="65.26280000046259" lon="11.423466656443374" id="-90119">
		<tag k="alt_name" v="Skattefallan" />
		<tag k="name" v="Skattfallan" />
		<tag k="natural" v="shoal" />
		<tag k="place" v="locality" />
		<tag k="ssr:stedsnr" v="560925" />
	</node>
	<node lat="65.12372222057834" lon="11.784674992090713" id="-90120">
		<tag k="fixme" v="multiple name tags, choose one and add the other to alt_name" />
		<tag k="name" v="Lekaskagen;Nesodden" />
		<tag k="natural" v="cape" />
		<tag k="ssr:stedsnr" v="560984" />
	</node>
	<node lat="65.19693888870866" lon="10.975291664727738" id="-90121">
		<tag k="fixme" v="consider seamark:type=rock or natural=shoal" />
		<tag k="name" v="Nonsindreskjeran" />
		<tag k="place" v="islet" />
		<tag k="ssr:stedsnr" v="570906" />
	</node>
	<node lat="65.22711666828775" lon="11.34626944842974" id="-90122">
		<tag k="loc_name" v="Utværet" />
		<tag k="name" v="Ytterhorta" />
		<tag k="place" v="island" />
		<tag k="ssr:stedsnr" v="573061" />
	</node>
	<node lat="65.11914722513711" lon="11.788863891210717" id="-90123">
		<tag k="name" v="Jakobsteinvika" />
		<tag k="natural" v="bay" />
		<tag k="ssr:stedsnr" v="573129" />
	</node>
	<node lat="65.19480962121419" lon="11.42383279180629" id="-90124">
		<tag k="alt_name" v="Litlkleppen" />
		<tag k="name" v="Lisskleppen" />
		<tag k="place" v="islet" />
		<tag k="ssr:stedsnr" v="573369" />
	</node>
	<node lat="65.18390000025092" lon="11.397927772099493" id="-90125">
		<tag k="name" v="Stabben" />
		<tag k="natural" v="shoal" />
		<tag k="place" v="locality" />
		<tag k="ssr:stedsnr" v="573389" />
	</node>
	<node lat="65.08933888587924" lon="11.74924444125588" id="-90126">
		<tag k="fixme" v="consider seamark:type=rock or natural=shoal" />
		<tag k="name" v="Storskjæret" />
		<tag k="place" v="islet" />
		<tag k="ssr:stedsnr" v="573944" />
	</node>
	<node lat="65.08698055537911" lon="11.832461117889437" id="-90127">
		<tag k="name" v="Bryggholmen" />
		<tag k="natural" v="cape" />
		<tag k="ssr:stedsnr" v="584886" />
	</node>
	<node lat="65.09951666561268" lon="11.762180550732213" id="-90139">
		<tag k="name" v="Våttvikstranda" />
		<tag k="natural" v="beach" />
		<tag k="old_name" v="Indre Våttvikstranda" />
		<tag k="ssr:stedsnr" v="591927" />
	</node>
	<node lat="65.06422778194062" lon="11.647602773886963" id="-90140">
		<tag k="name" v="Kvennvikholmen" />
		<tag k="natural" v="cape" />
		<tag k="ssr:stedsnr" v="591935" />
	</node>
	<node lat="65.12383055941113" lon="11.707138894322863" id="-90142">
		<tag k="fixme" v="consider seamark:type=rock or natural=shoal" />
		<tag k="name" v="Veraskjæran" />
		<tag k="place" v="islet" />
		<tag k="ssr:stedsnr" v="592196" />
	</node>
	<node lat="65.09758888885808" lon="11.834058341112147" id="-90151">
		<tag k="name" v="Vedvikodden" />
		<tag k="natural" v="cape" />
		<tag k="ssr:stedsnr" v="621040" />
	</node>
	<node lat="65.20270555929805" lon="11.440786103348195" id="-90155">
		<tag k="name" v="Bovarøya" />
		<tag k="place" v="islet" />
		<tag k="ssr:stedsnr" v="621683" />
	</node>
	<node lat="65.1869444406397" lon="11.230555553153378" id="-90157">
		<tag k="name" v="Kåterfallet" />
		<tag k="natural" v="shoal" />
		<tag k="place" v="locality" />
		<tag k="ssr:stedsnr" v="621694" />
	</node>
	<node lat="65.04038611466784" lon="11.415855551833785" id="-90162">
		<tag k="name" v="Lauvklakken" />
		<tag k="place" v="islet" />
		<tag k="ssr:stedsnr" v="621778" />
	</node>
	<node lat="65.39838056007733" lon="10.915941658017845" id="-90165">
		<tag k="name" v="Nygrunnan" />
		<tag k="natural" v="shoal" />
		<tag k="place" v="locality" />
		<tag k="ssr:stedsnr" v="621784" />
	</node>
	<node lat="65.05915000214634" lon="11.706980560066556" id="-90166">
		<tag k="name" v="Juvika" />
		<tag k="natural" v="bay" />
		<tag k="ssr:stedsnr" v="621791" />
	</node>
	<node lat="65.06668611459" lon="11.696847219106193" id="-90178">
		<tag k="name" v="Storvika" />
		<tag k="natural" v="bay" />
		<tag k="ssr:stedsnr" v="652081" />
	</node>
	<node lat="65.12026944479067" lon="11.673616663321566" id="-90179">
		<tag k="name" v="Settarvika" />
		<tag k="natural" v="bay" />
		<tag k="ssr:stedsnr" v="652179" />
	</node>
	<node lat="65.08838055331373" lon="11.722097228191892" id="-90183">
		<tag k="name" v="Likvika" />
		<tag k="natural" v="bay" />
		<tag k="ssr:stedsnr" v="652985" />
	</node>
	<node lat="65.11908333515073" lon="11.77333889537363" id="-90184">
		<tag k="name" v="Stor-Grønnholmen" />
		<tag k="place" v="islet" />
		<tag k="ssr:stedsnr" v="652860" />
	</node>
	<node lat="65.05202499854792" lon="11.498855565060426" id="-90186">
		<tag k="fixme" v="consider seamark:type=rock or natural=shoal" />
		<tag k="name" v="Raudøyskjæret" />
		<tag k="place" v="islet" />
		<tag k="ssr:stedsnr" v="652870" />
	</node>
	<node lat="65.10025833593134" lon="11.565547220895327" id="-90190">
		<tag k="name" v="Bunesset" />
		<tag k="natural" v="cape" />
		<tag k="ssr:stedsnr" v="653770" />
	</node>
	<node lat="65.07343333113404" lon="11.525919435031824" id="-90196">
		<tag k="name" v="Kråslua" />
		<tag k="natural" v="cape" />
		<tag k="ssr:stedsnr" v="713116" />
	</node>
	<node lat="65.09443888639854" lon="11.747941670737227" id="-90206">
		<tag k="name" v="Småstøodden" />
		<tag k="natural" v="cape" />
		<tag k="ssr:stedsnr" v="713900" />
	</node>
	<node lat="65.04434999958771" lon="11.525027776508152" id="-90210">
		<tag k="fixme" v="consider seamark:type=rock or natural=shoal" />
		<tag k="name" v="Oterholmen" />
		<tag k="place" v="islet" />
		<tag k="ssr:stedsnr" v="713831" />
	</node>
	<node lat="65.05594166653452" lon="11.661569437489119" id="-90211">
		<tag k="name" v="Selvågholmen" />
		<tag k="place" v="islet" />
		<tag k="ssr:stedsnr" v="713932" />
	</node>
	<node lat="65.09697777668136" lon="11.556308342408432" id="-90214">
		<tag k="name" v="Liss-sundet" />
		<tag k="natural" v="strait" />
		<tag k="ssr:stedsnr" v="714721" />
	</node>
	<node lat="65.03958611399764" lon="11.64196945081066" id="-90215">
		<tag k="fixme" v="consider seamark:type=rock or natural=shoal" />
		<tag k="name" v="Tangklubben" />
		<tag k="place" v="islet" />
		<tag k="ssr:stedsnr" v="715982" />
	</node>
	<node lat="65.0973611067701" lon="11.762297226119975" id="-90216">
		<tag k="name" v="Lisse Våttviktaren" />
		<tag k="natural" v="shoal" />
		<tag k="place" v="locality" />
		<tag k="ssr:stedsnr" v="723917" />
	</node>
	<node lat="65.10640000001386" lon="11.843561108256136" id="-90223">
		<tag k="fixme" v="multiple name tags, choose one and add the other to alt_name; consider seamark:type=rock or natural=shoal" />
		<tag k="name" v="Nord-Tørrisengholmen;Nordskjæret" />
		<tag k="place" v="islet" />
		<tag k="ssr:stedsnr" v="742002" />
	</node>
	<node lat="65.20343333441839" lon="11.426955565322023" id="-90225">
		<tag k="name" v="Andersøya" />
		<tag k="place" v="islet" />
		<tag k="ssr:stedsnr" v="742614" />
	</node>
	<node lat="65.19840833056466" lon="11.350072221999605" id="-90227">
		<tag k="name" v="Larvan" />
		<tag k="natural" v="shoal" />
		<tag k="place" v="locality" />
		<tag k="ssr:stedsnr" v="742620" />
	</node>
	<node lat="65.0893888867083" lon="11.518319443097619" id="-90228">
		<tag k="name" v="Skipsflesin" />
		<tag k="place" v="islet" />
		<tag k="ssr:stedsnr" v="742690" />
	</node>
	<node lat="65.11319722544644" lon="11.730461121989629" id="-90230">
		<tag k="fixme" v="consider seamark:type=rock or natural=shoal" />
		<tag k="name" v="Hysskjæret" />
		<tag k="place" v="islet" />
		<tag k="ssr:stedsnr" v="742945" />
	</node>
	<node lat="65.03783736551335" lon="11.440504603753347" id="-90233">
		<tag k="name" v="Jernsøya" />
		<tag k="place" v="islet" />
		<tag k="ssr:stedsnr" v="743770" />
	</node>
	<node lat="65.09904999817127" lon="11.835616659454415" id="-90234">
		<tag k="fixme" v="consider seamark:type=rock or natural=shoal" />
		<tag k="name" v="Navarvikfloa" />
		<tag k="place" v="islet" />
		<tag k="ssr:stedsnr" v="743054" />
	</node>
	<node lat="65.04027777898355" lon="11.543222217423411" id="-90238">
		<tag k="alt_name" v="Solsemnesset" />
		<tag k="name" v="Solsemneset" />
		<tag k="natural" v="cape" />
		<tag k="ssr:stedsnr" v="743867" />
	</node>
	<node lat="65.09702778090947" lon="11.84096666304092" id="-90239">
		<tag k="name" v="Inner Vedvika" />
		<tag k="natural" v="bay" />
		<tag k="ssr:stedsnr" v="766864" />
	</node>
	<node lat="65.1214111147828" lon="11.719430555918784" id="-90246">
		<tag k="fixme" v="consider seamark:type=rock or natural=shoal" />
		<tag k="name" v="Anne Jonsdotterskjæran" />
		<tag k="place" v="islet" />
		<tag k="ssr:stedsnr" v="772087" />
	</node>
	<node lat="65.11829722139441" lon="11.681977782419878" id="-90247">
		<tag k="name" v="Korsholmen" />
		<tag k="place" v="islet" />
		<tag k="ssr:stedsnr" v="773236" />
	</node>
	<node lat="65.10814999876467" lon="11.590105552190431" id="-90248">
		<tag k="name" v="Storvika" />
		<tag k="natural" v="bay" />
		<tag k="ssr:stedsnr" v="773463" />
	</node>
	<node lat="65.11860555370733" lon="11.702452769864003" id="-90254">
		<tag k="fixme" v="consider seamark:type=rock or natural=shoal" />
		<tag k="name" v="Ytter Leiskjæret" />
		<tag k="place" v="islet" />
		<tag k="ssr:stedsnr" v="774198" />
	</node>
	<node lat="65.12520833154032" lon="11.696838887934549" id="-90255">
		<tag k="fixme" v="consider seamark:type=rock or natural=shoal" />
		<tag k="name" v="Erik Persåskjæret" />
		<tag k="place" v="islet" />
		<tag k="ssr:stedsnr" v="774200" />
	</node>
	<node lat="65.04457221958343" lon="11.517241667560254" id="-90263">
		<tag k="name" v="Visholmholet" />
		<tag k="natural" v="strait" />
		<tag k="ssr:stedsnr" v="774834" />
	</node>
	<node lat="65.0657805589255" lon="11.65889723128262" id="-90264">
		<tag k="name" v="Kavringen" />
		<tag k="place" v="islet" />
		<tag k="ssr:stedsnr" v="774949" />
	</node>
	<node lat="65.08948333566313" lon="11.72877777910261" id="-90265">
		<tag k="name" v="Tiendburnesset" />
		<tag k="natural" v="cape" />
		<tag k="ssr:stedsnr" v="774993" />
	</node>
	<node lat="65.10314166977125" lon="11.568361106003692" id="-90268">
		<tag k="name" v="Valbukta" />
		<tag k="natural" v="bay" />
		<tag k="ssr:stedsnr" v="775729" />
	</node>
	<node lat="65.09398888515628" lon="11.548844451855386" id="-90269">
		<tag k="name" v="Gjerdvalan" />
		<tag k="natural" v="strait" />
		<tag k="ssr:stedsnr" v="775744" />
	</node>
	<node lat="65.0648777803396" lon="11.784330563870231" id="-90279">
		<tag k="alt_name" v="Nord-Sandhalsen;Sandhalsen, nordre" />
		<tag k="name" v="Nordsandhalsen" />
		<tag k="natural" v="cape" />
		<tag k="ssr:stedsnr" v="803101" />
	</node>
	<node lat="65.11251389289967" lon="11.720302773745031" id="-90281">
		<tag k="alt_name" v="Bryggenesset" />
		<tag k="name" v="Bryggenes" />
		<tag k="natural" v="cape" />
		<tag k="ssr:stedsnr" v="803010" />
	</node>
	<node lat="65.19541388789891" lon="10.949338883292615" id="-90283">
		<tag k="name" v="Leitaren" />
		<tag k="natural" v="shoal" />
		<tag k="place" v="locality" />
		<tag k="ssr:stedsnr" v="803529" />
	</node>
	<node lat="65.23306389176491" lon="11.374383333451966" id="-90286">
		<tag k="name" v="Fuholmen" />
		<tag k="place" v="islet" />
		<tag k="ssr:stedsnr" v="803677" />
	</node>
	<node lat="65.22963333017513" lon="11.36534443378871" id="-90287">
		<tag k="name" v="Sølbuflesa" />
		<tag k="place" v="islet" />
		<tag k="ssr:stedsnr" v="803678" />
	</node>
	<node lat="65.19727526916184" lon="11.391984256747229" id="-90288">
		<tag k="name" v="Fornøyta" />
		<tag k="place" v="islet" />
		<tag k="ssr:stedsnr" v="803644" />
	</node>
	<node lat="65.05354166694555" lon="11.450958332305973" id="-90289">
		<tag k="name" v="Langdraget" />
		<tag k="place" v="islet" />
		<tag k="ssr:stedsnr" v="803774" />
	</node>
	<node lat="65.04976944001882" lon="11.402525008913493" id="-90290">
		<tag k="fixme" v="consider seamark:type=rock or natural=shoal" />
		<tag k="name" v="Matmorflesin" />
		<tag k="place" v="islet" />
		<tag k="ssr:stedsnr" v="803780" />
	</node>
	<node lat="65.06695833617567" lon="11.271158339331217" id="-90292">
		<tag k="name" v="Yttersylstetaran" />
		<tag k="natural" v="shoal" />
		<tag k="place" v="locality" />
		<tag k="ssr:stedsnr" v="803800" />
	</node>
	<node lat="65.1152499962866" lon="11.86028333311752" id="-90294">
		<tag k="name" v="Matmorneset" />
		<tag k="natural" v="cape" />
		<tag k="ssr:stedsnr" v="803932" />
	</node>
	<node lat="65.29405000101144" lon="10.961238884370264" id="-90298">
		<tag k="name" v="Hestskoltan" />
		<tag k="natural" v="shoal" />
		<tag k="place" v="locality" />
		<tag k="ssr:stedsnr" v="804998" />
	</node>
	<node lat="65.11633333704272" lon="11.750180553046206" id="-90300">
		<tag k="name" v="Måskjera" />
		<tag k="natural" v="cape" />
		<tag k="ssr:stedsnr" v="817150" />
	</node>
	<node lat="65.10432222284221" lon="11.83511944680864" id="-90301">
		<tag k="name" v="Litltaren" />
		<tag k="natural" v="shoal" />
		<tag k="place" v="locality" />
		<tag k="ssr:stedsnr" v="817850" />
	</node>
	<node lat="65.12426666527492" lon="11.887330557443716" id="-90305">
		<tag k="name" v="Slettviknesset" />
		<tag k="natural" v="cape" />
		<tag k="ssr:stedsnr" v="832127" />
	</node>
	<node lat="65.1141555578984" lon="11.683041670248057" id="-90311">
		<tag k="name" v="Skråfjæra" />
		<tag k="natural" v="beach" />
		<tag k="ssr:stedsnr" v="834228" />
	</node>
	<node lat="65.11394722346405" lon="11.630022218762344" id="-90320">
		<tag k="fixme" v="consider seamark:type=rock or natural=shoal" />
		<tag k="name" v="Fløskjæret" />
		<tag k="place" v="islet" />
		<tag k="ssr:stedsnr" v="835775" />
	</node>
	<node lat="65.09599722064526" lon="11.567988881373417" id="-90321">
		<tag k="fixme" v="consider seamark:type=rock or natural=shoal" />
		<tag k="name" v="Tykjiskjæret" />
		<tag k="place" v="islet" />
		<tag k="ssr:stedsnr" v="835700" />
	</node>
	<node lat="65.09889999752863" lon="11.76009444704695" id="-90324">
		<tag k="name" v="Søre Våttvikstranda" />
		<tag k="natural" v="beach" />
		<tag k="ssr:stedsnr" v="844938" />
	</node>
	<node lat="65.08506388818742" lon="11.81536110087399" id="-90330">
		<tag k="alt_name" v="Bjørknessodden" />
		<tag k="name" v="Bjørknesodden" />
		<tag k="natural" v="cape" />
		<tag k="ssr:stedsnr" v="864049" />
	</node>
	<node lat="65.20960277679818" lon="10.99398055399586" id="-90334">
		<tag k="fixme" v="consider seamark:type=rock or natural=shoal" />
		<tag k="name" v="Eskjera" />
		<tag k="place" v="islet" />
		<tag k="ssr:stedsnr" v="864567" />
	</node>
	<node lat="65.2172666640187" lon="10.99825834297447" id="-90335">
		<tag k="name" v="Dorgslua" />
		<tag k="natural" v="shoal" />
		<tag k="place" v="locality" />
		<tag k="ssr:stedsnr" v="864568" />
	</node>
	<node lat="65.20759444752605" lon="11.428961110718534" id="-90337">
		<tag k="name" v="Ørnholmen" />
		<tag k="place" v="islet" />
		<tag k="ssr:stedsnr" v="864674" />
	</node>
	<node lat="65.19891388552256" lon="11.463011108369331" id="-90339">
		<tag k="name" v="Kiklakken" />
		<tag k="place" v="islet" />
		<tag k="ssr:stedsnr" v="864690" />
	</node>
	<node lat="65.2277750024638" lon="11.42739165884642" id="-90342">
		<tag k="name" v="Råstaren" />
		<tag k="natural" v="shoal" />
		<tag k="place" v="locality" />
		<tag k="ssr:stedsnr" v="864720" />
	</node>
	<node lat="65.14301389292527" lon="11.29642777413635" id="-90347">
		<tag k="name" v="Onsråstaren" />
		<tag k="natural" v="shoal" />
		<tag k="place" v="locality" />
		<tag k="ssr:stedsnr" v="864755" />
	</node>
	<node lat="65.13342777714641" lon="11.668727782256205" id="-90348">
		<tag k="name" v="Svartflesa" />
		<tag k="place" v="islet" />
		<tag k="ssr:stedsnr" v="864766" />
	</node>
	<node lat="65.11759444660996" lon="11.57857777581208" id="-90349">
		<tag k="name" v="Raudskjergrunnan" />
		<tag k="natural" v="shoal" />
		<tag k="place" v="locality" />
		<tag k="ssr:stedsnr" v="864770" />
	</node>
	<node lat="65.10768889086458" lon="11.57454999813398" id="-90350">
		<tag k="alt_name" v="Kvalnesset" />
		<tag k="name" v="Kvalneset" />
		<tag k="natural" v="cape" />
		<tag k="ssr:stedsnr" v="864777" />
	</node>
	<node lat="65.37399999794361" lon="10.98387777010145" id="-90351">
		<tag k="name" v="Ufstaran" />
		<tag k="natural" v="shoal" />
		<tag k="place" v="locality" />
		<tag k="ssr:stedsnr" v="864792" />
	</node>
	<node lat="65.35332777803679" lon="11.011380548707459" id="-90352">
		<tag k="alt_name" v="Sliflesan" />
		<tag k="name" v="Sliflesin" />
		<tag k="place" v="islet" />
		<tag k="ssr:stedsnr" v="864793" />
	</node>
	<node lat="65.06090833114719" lon="11.466416662239839" id="-90353">
		<tag k="name" v="Havsholman" />
		<tag k="place" v="islet" />
		<tag k="ssr:stedsnr" v="864814" />
	</node>
	<node lat="65.0160805523166" lon="11.30926665623856" id="-90355">
		<tag k="name" v="Vevlan" />
		<tag k="natural" v="shoal" />
		<tag k="place" v="locality" />
		<tag k="ssr:stedsnr" v="864875" />
	</node>
	<node lat="65.11571389054573" lon="11.740116662318277" id="-90356">
		<tag k="bay" v="fjord" />
		<tag k="name" v="Leknesvika" />
		<tag k="natural" v="bay" />
		<tag k="ssr:stedsnr" v="864944" />
	</node>
	<node lat="65.12278055650157" lon="11.884116675843853" id="-90359">
		<tag k="name" v="Osen" />
		<tag k="natural" v="bay" />
		<tag k="ssr:stedsnr" v="864981" />
	</node>
	<node lat="65.1306638900495" lon="11.889302767917236" id="-90360">
		<tag k="fixme" v="consider seamark:type=rock or natural=shoal" />
		<tag k="name" v="Dragskjeran" />
		<tag k="place" v="islet" />
		<tag k="ssr:stedsnr" v="865000" />
	</node>
	<node lat="65.269955551644" lon="11.352661111103528" id="-90361">
		<tag k="name" v="Storslua" />
		<tag k="natural" v="shoal" />
		<tag k="place" v="locality" />
		<tag k="ssr:stedsnr" v="864919" />
	</node>
	<node lat="65.06698055702445" lon="11.726766656999814" id="-90362">
		<tag k="name" v="Madsøyfluan" />
		<tag k="natural" v="shoal" />
		<tag k="place" v="locality" />
		<tag k="ssr:stedsnr" v="877953" />
	</node>
	<node lat="65.1012888876083" lon="11.218841661343337" id="-90363">
		<tag k="name" v="Vestsvetaren" />
		<tag k="natural" v="shoal" />
		<tag k="place" v="locality" />
		<tag k="ssr:stedsnr" v="874740" />
	</node>
	<node lat="65.04454722091002" lon="11.286697215356295" id="-90364">
		<tag k="name" v="Søre Skjækeren" />
		<tag k="natural" v="shoal" />
		<tag k="place" v="locality" />
		<tag k="ssr:stedsnr" v="874744" />
	</node>
	<node lat="65.2649833309367" lon="11.064308339233593" id="-90365">
		<tag k="name" v="Sørvegtaren" />
		<tag k="natural" v="shoal" />
		<tag k="place" v="locality" />
		<tag k="ssr:stedsnr" v="874905" />
	</node>
	<node lat="65.06457222106873" lon="11.671105548630527" id="-90366">
		<tag k="name" v="Kvalsundet" />
		<tag k="natural" v="strait" />
		<tag k="ssr:stedsnr" v="877293" />
	</node>
	<node lat="65.19653888494946" lon="11.422541656418682" id="-90367">
		<tag k="name" v="Nordkleppen" />
		<tag k="place" v="islet" />
		<tag k="ssr:stedsnr" v="877397" />
	</node>
	<node lat="65.20321944644512" lon="11.009322223056003" id="-90368">
		<tag k="name" v="Sylen" />
		<tag k="natural" v="shoal" />
		<tag k="place" v="locality" />
		<tag k="ssr:stedsnr" v="935879" />
	</node>
	<node lat="65.16815833299954" lon="11.73900277629658" id="-90369">
		<tag k="name" v="Storgrunnen" />
		<tag k="natural" v="shoal" />
		<tag k="place" v="locality" />
		<tag k="ssr:stedsnr" v="938122" />
	</node>
	<node lat="65.12539721985907" lon="11.866813884692728" id="-90370">
		<tag k="name" v="Nordgutviktaren" />
		<tag k="natural" v="cape" />
		<tag k="ssr:stedsnr" v="938124" />
	</node>
	<node lat="65.11959166300066" lon="11.703977768275738" id="-90378">
		<tag k="fixme" v="consider seamark:type=rock or natural=shoal" />
		<tag k="name" v="Røyrskjæran" />
		<tag k="place" v="islet" />
		<tag k="ssr:stedsnr" v="955191" />
	</node>
	<node lat="65.08173333751353" lon="11.54203611325727" id="-90379">
		<tag k="name" v="Buøyvalen" />
		<tag k="natural" v="bay" />
		<tag k="ssr:stedsnr" v="955436" />
	</node>
	<node lat="65.13955000036357" lon="11.730119445326734" id="-90383">
		<tag k="fixme" v="consider seamark:type=rock or natural=shoal" />
		<tag k="name" v="Såtskjæret" />
		<tag k="place" v="islet" />
		<tag k="ssr:stedsnr" v="956925" />
	</node>
	<node lat="65.10607778128747" lon="11.720738892597467" id="-90384">
		<tag k="name" v="Nessan" />
		<tag k="natural" v="cape" />
		<tag k="ssr:stedsnr" v="956934" />
	</node>
	<node lat="65.12105000332762" lon="11.665294444475213" id="-90385">
		<tag k="fixme" v="consider seamark:type=rock or natural=shoal" />
		<tag k="name" v="Røyrskjæret" />
		<tag k="place" v="islet" />
		<tag k="ssr:stedsnr" v="956771" />
	</node>
	<node lat="65.04869444668851" lon="11.659630564647303" id="-90386">
		<tag k="name" v="Haugvikstranda" />
		<tag k="natural" v="beach" />
		<tag k="ssr:stedsnr" v="956951" />
	</node>
	<node lat="65.19210674879581" lon="11.423507900322061" id="-90396">
		<tag k="name" v="Lyngkleppen" />
		<tag k="place" v="islet" />
		<tag k="ssr:stedsnr" v="975656" />
	</node>
	<node lat="65.19121935464513" lon="11.48174515776838" id="-90453">
		<tag k="fixme" v="consider seamark:type=rock or natural=shoal" />
		<tag k="name" v="Søre Tannaren" />
		<tag k="place" v="islet" />
		<tag k="ssr:stedsnr" v="1076032" />
	</node>
	<node lat="65.19632751455589" lon="11.434568557839905" id="-90454">
		<tag k="name" v="Langdreppelen" />
		<tag k="place" v="islet" />
		<tag k="ssr:stedsnr" v="1076034" />
	</node>
	<node lat="65.19569417866775" lon="11.439913026858383" id="-90455">
		<tag k="name" v="Kolbeindreppelen" />
		<tag k="place" v="islet" />
		<tag k="ssr:stedsnr" v="1076035" />
	</node>
	<node lat="65.19318711228475" lon="11.44129888364709" id="-90456">
		<tag k="name" v="Sørdreppelen" />
		<tag k="place" v="islet" />
		<tag k="ssr:stedsnr" v="1076037" />
	</node>
	<node lat="65.18670868085383" lon="11.426608791737301" id="-90458">
		<tag k="fixme" v="consider seamark:type=rock or natural=shoal" />
		<tag k="name" v="Kleppskjæran" />
		<tag k="place" v="islet" />
		<tag k="ssr:stedsnr" v="1076040" />
	</node>
	<node lat="65.18628937920407" lon="11.411511506150635" id="-90459">
		<tag k="name" v="Sørbåsen" />
		<tag k="place" v="islet" />
		<tag k="ssr:stedsnr" v="1076041" />
	</node>
	<node lat="65.20552118696129" lon="11.437424016383899" id="-90463">
		<tag k="name" v="Lissmåsøya" />
		<tag k="place" v="islet" />
		<tag k="ssr:stedsnr" v="1076079" />
	</node>
	<node lat="65.20727251678434" lon="11.436705555290537" id="-90464">
		<tag k="name" v="Tjønnholmen" />
		<tag k="place" v="islet" />
		<tag k="ssr:stedsnr" v="1076081" />
	</node>
	<node lat="65.20995288404987" lon="11.435632578476993" id="-90466">
		<tag k="name" v="Kalvtjønnholmen" />
		<tag k="place" v="islet" />
		<tag k="ssr:stedsnr" v="1076083" />
	</node>
	<node lat="65.19772778989703" lon="11.405472027299753" id="-90468">
		<tag k="name" v="Nord Grønningen" />
		<tag k="place" v="islet" />
		<tag k="ssr:stedsnr" v="1076065" />
	</node>
	<node lat="65.2075121189384" lon="11.468465869175246" id="-90471">
		<tag k="name" v="Langdraget" />
		<tag k="place" v="islet" />
		<tag k="ssr:stedsnr" v="1076072" />
	</node>
	<node lat="65.20518373151106" lon="11.430560550973523" id="-90473">
		<tag k="name" v="Tjukkøyan" />
		<tag k="place" v="islet" />
		<tag k="ssr:stedsnr" v="1076086" />
	</node>
	<node lat="65.19543404906032" lon="11.39060556336238" id="-90474">
		<tag k="name" v="Vester Fornøyta" />
		<tag k="place" v="islet" />
		<tag k="ssr:stedsnr" v="1076088" />
	</node>
</osm>
