<?xml version="1.0" encoding="UTF-8"?>
<osm generator="osmapis" version="0.6">
	<node id="-880378" lat="63.3228527804" lon="10.0682638853">
		<tag k="name" v="Drengvegen" />
		<tag k="ssr:date" v="2019-05-30" />
		<tag k="ssr:gruppe" v="veg" />
		<tag k="ssr:hovedgruppe" v="infrastruktur" />
		<tag k="ssr:stedsnr" v="707202" />
		<tag k="ssr:type" v="adressenavn" />
	</node>
	<node id="-879636" lat="63.3461388915" lon="9.98166945093">
		<tag k="name" v="Klampvegen" />
		<tag k="ssr:date" v="2019-05-30" />
		<tag k="ssr:gruppe" v="veg" />
		<tag k="ssr:hovedgruppe" v="infrastruktur" />
		<tag k="ssr:stedsnr" v="725154" />
		<tag k="ssr:type" v="adressenavn" />
	</node>
	<node id="-880635" lat="63.2862052419" lon="10.1726091424">
		<tag k="name" v="Svangen" />
		<tag k="ssr:date" v="2018-01-09" />
		<tag k="ssr:gruppe" v="veg" />
		<tag k="ssr:hovedgruppe" v="infrastruktur" />
		<tag k="ssr:stedsnr" v="975780" />
		<tag k="ssr:type" v="adressetilleggsnavn" />
	</node>
	<node id="-880762" lat="63.3225139854" lon="10.2082842927">
		<tag k="name" v="Øysandvegen" />
		<tag k="ssr:date" v="2019-05-30" />
		<tag k="ssr:gruppe" v="veg" />
		<tag k="ssr:hovedgruppe" v="infrastruktur" />
		<tag k="ssr:stedsnr" v="990911" />
		<tag k="ssr:type" v="adressenavn" />
	</node>
	<node id="-880761" lat="63.3427571168" lon="9.95537318557">
		<tag k="name" v="Viggjakleiva" />
		<tag k="ssr:date" v="2019-05-30" />
		<tag k="ssr:gruppe" v="veg" />
		<tag k="ssr:hovedgruppe" v="infrastruktur" />
		<tag k="ssr:stedsnr" v="990909" />
		<tag k="ssr:type" v="adressenavn" />
	</node>
	<node id="-880760" lat="63.2530432481" lon="10.050425452">
		<tag k="name" v="Vennatunet" />
		<tag k="ssr:date" v="2019-05-30" />
		<tag k="ssr:gruppe" v="veg" />
		<tag k="ssr:hovedgruppe" v="infrastruktur" />
		<tag k="ssr:stedsnr" v="990897" />
		<tag k="ssr:type" v="adressenavn" />
	</node>
	<node id="-880759" lat="63.3170832801" lon="10.0805458731">
		<tag k="name" v="Meistadvegen" />
		<tag k="ssr:date" v="2019-05-30" />
		<tag k="ssr:gruppe" v="veg" />
		<tag k="ssr:hovedgruppe" v="infrastruktur" />
		<tag k="ssr:stedsnr" v="990866" />
		<tag k="ssr:type" v="adressenavn" />
	</node>
	<node id="-880758" lat="63.3042508" lon="10.1450318214">
		<tag k="name" v="Bøksethaugvegen" />
		<tag k="ssr:date" v="2019-05-30" />
		<tag k="ssr:gruppe" v="veg" />
		<tag k="ssr:hovedgruppe" v="infrastruktur" />
		<tag k="ssr:stedsnr" v="990852" />
		<tag k="ssr:type" v="adressenavn" />
	</node>
	<node id="-880629" lat="63.3160558657" lon="9.91438959389">
		<tag k="name" v="Østhus" />
		<tag k="ssr:date" v="2018-01-09" />
		<tag k="ssr:gruppe" v="veg" />
		<tag k="ssr:hovedgruppe" v="infrastruktur" />
		<tag k="ssr:stedsnr" v="975779" />
		<tag k="ssr:type" v="adressetilleggsnavn" />
	</node>
	<node id="-880756" lat="63.3066248857" lon="10.1562942859">
		<tag k="name" v="Snøfugl" />
		<tag k="ssr:date" v="2018-03-20" />
		<tag k="ssr:gruppe" v="veg" />
		<tag k="ssr:hovedgruppe" v="infrastruktur" />
		<tag k="ssr:stedsnr" v="983060" />
		<tag k="ssr:type" v="adressetilleggsnavn" />
	</node>
	<node id="-880228" lat="63.3247500038" lon="10.0665166735">
		<tag k="name" v="Prestgardsvegen" />
		<tag k="ssr:date" v="2019-05-30" />
		<tag k="ssr:gruppe" v="veg" />
		<tag k="ssr:hovedgruppe" v="infrastruktur" />
		<tag k="ssr:stedsnr" v="950197" />
		<tag k="ssr:type" v="adressenavn" />
	</node>
	<node id="-880754" lat="63.3087900628" lon="10.1614606877">
		<tag k="name" v="Hammer Frammigård" />
		<tag k="ssr:date" v="2018-03-06" />
		<tag k="ssr:gruppe" v="veg" />
		<tag k="ssr:hovedgruppe" v="infrastruktur" />
		<tag k="ssr:stedsnr" v="982641" />
		<tag k="ssr:type" v="adressetilleggsnavn" />
	</node>
	<node id="-880753" lat="63.5169210211" lon="10.4860505232">
		<tag k="name" v="Trøndelag fylke - Trööndelagen fylhke" />
		<tag k="name:no" v="Trøndelag fylke" />
		<tag k="name:sma" v="Trööndelagen fylhke" />
		<tag k="ssr:date" v="2018-06-27" />
		<tag k="ssr:gruppe" v="administrativeIndelinger" />
		<tag k="ssr:hovedgruppe" v="offentligAdministrasjon" />
		<tag k="ssr:stedsnr" v="980645" />
		<tag k="ssr:type" v="fylke" />
	</node>
	<node id="-880337" lat="63.2386439801" lon="9.9829676461">
		<tag k="name" v="Oppistu Melby" />
		<tag k="ssr:date" v="2019-04-08" />
		<tag k="ssr:gruppe" v="veg" />
		<tag k="ssr:hovedgruppe" v="infrastruktur" />
		<tag k="ssr:stedsnr" v="978202" />
		<tag k="ssr:type" v="adressetilleggsnavn" />
	</node>
	<node id="-880557" lat="63.3267416692" lon="10.0722999995">
		<tag k="name" v="Skaun kommune" />
		<tag k="ssr:date" v="2018-01-09" />
		<tag k="ssr:gruppe" v="administrativeIndelinger" />
		<tag k="ssr:hovedgruppe" v="offentligAdministrasjon" />
		<tag k="ssr:stedsnr" v="572085" />
		<tag k="ssr:type" v="kommune" />
	</node>
	<node id="-880436" lat="63.3457888853" lon="9.97736111408">
		<tag k="name" v="Hesthåggåvegen" />
		<tag k="ssr:date" v="2019-05-30" />
		<tag k="ssr:gruppe" v="veg" />
		<tag k="ssr:hovedgruppe" v="infrastruktur" />
		<tag k="ssr:stedsnr" v="179162" />
		<tag k="ssr:type" v="adressenavn" />
	</node>
	<node id="-879316" lat="63.346824996" lon="9.97691666699">
		<tag k="name" v="Sildværvegen" />
		<tag k="ssr:date" v="2019-05-30" />
		<tag k="ssr:gruppe" v="veg" />
		<tag k="ssr:hovedgruppe" v="infrastruktur" />
		<tag k="ssr:stedsnr" v="601113" />
		<tag k="ssr:type" v="adressenavn" />
	</node>
	<node id="-880390" lat="63.2341304434" lon="10.1389505743">
		<tag k="name" v="Høvekleva" />
		<tag k="ssr:date" v="2018-01-09" />
		<tag k="ssr:gruppe" v="veg" />
		<tag k="ssr:hovedgruppe" v="infrastruktur" />
		<tag k="ssr:stedsnr" v="387467" />
		<tag k="ssr:type" v="vegstrekning" />
	</node>
	<node id="-880625" lat="63.2939389923" lon="10.1997486426">
		<tag k="name" v="Engan" />
		<tag k="ssr:date" v="2018-01-09" />
		<tag k="ssr:gruppe" v="veg" />
		<tag k="ssr:hovedgruppe" v="infrastruktur" />
		<tag k="ssr:stedsnr" v="975777" />
		<tag k="ssr:type" v="adressetilleggsnavn" />
	</node>
	<node id="-880612" lat="63.3236999985" lon="10.0688555456">
		<tag k="name" v="Prestgardsstien" />
		<tag k="ssr:date" v="2019-05-30" />
		<tag k="ssr:gruppe" v="veg" />
		<tag k="ssr:hovedgruppe" v="infrastruktur" />
		<tag k="ssr:stedsnr" v="283151" />
		<tag k="ssr:type" v="adressenavn" />
	</node>
	<node id="-880001" lat="63.2991181826" lon="10.1977550496">
		<tag k="name" v="Valset Frammigård" />
		<tag k="ssr:date" v="2018-01-09" />
		<tag k="ssr:gruppe" v="veg" />
		<tag k="ssr:hovedgruppe" v="infrastruktur" />
		<tag k="ssr:stedsnr" v="978134" />
		<tag k="ssr:type" v="adressetilleggsnavn" />
	</node>
</osm>
