<?xml version="1.0" encoding="UTF-8"?>
<osm generator="osmapis" version="0.6">
	<node id="-169045" lat="60.3851555543" lon="9.81633055152">
		<tag k="name" v="Frisvatnvegen" />
		<tag k="ssr:date" v="2019-05-30" />
		<tag k="ssr:gruppe" v="veg" />
		<tag k="ssr:hovedgruppe" v="infrastruktur" />
		<tag k="ssr:stedsnr" v="728142" />
		<tag k="ssr:type" v="adressenavn" />
	</node>
	<node id="-168685" lat="60.4544555592" lon="9.82075554719">
		<tag k="name" v="Harlemsvegen" />
		<tag k="ssr:date" v="2016-05-10" />
		<tag k="ssr:gruppe" v="veg" />
		<tag k="ssr:hovedgruppe" v="infrastruktur" />
		<tag k="ssr:stedsnr" v="524802" />
		<tag k="ssr:type" v="vegstrekning" />
	</node>
	<node id="-168521" lat="60.4675111082" lon="9.55886389365">
		<tag k="name" v="Damtjernveien" />
		<tag k="ssr:date" v="2016-05-10" />
		<tag k="ssr:gruppe" v="veg" />
		<tag k="ssr:hovedgruppe" v="infrastruktur" />
		<tag k="ssr:stedsnr" v="421254" />
		<tag k="ssr:type" v="vegstrekning" />
	</node>
	<node id="-169016" lat="60.4151972205" lon="9.72820556408">
		<tag k="name" v="Erikbuvegen" />
		<tag k="ssr:date" v="2016-05-11" />
		<tag k="ssr:gruppe" v="veg" />
		<tag k="ssr:hovedgruppe" v="infrastruktur" />
		<tag k="ssr:stedsnr" v="724230" />
		<tag k="ssr:type" v="vegstrekning" />
	</node>
	<node id="-168917" lat="60.3951138869" lon="9.70792222613">
		<tag k="name" v="Fellebekkvegen" />
		<tag k="ssr:date" v="2016-05-10" />
		<tag k="ssr:gruppe" v="veg" />
		<tag k="ssr:hovedgruppe" v="infrastruktur" />
		<tag k="ssr:stedsnr" v="663464" />
		<tag k="ssr:type" v="vegstrekning" />
	</node>
	<node id="-168465" lat="60.4249111089" lon="9.7748277743">
		<tag k="name" v="Stillingdalsvegen" />
		<tag k="ssr:date" v="2016-05-10" />
		<tag k="ssr:gruppe" v="veg" />
		<tag k="ssr:hovedgruppe" v="infrastruktur" />
		<tag k="ssr:stedsnr" v="239248" />
		<tag k="ssr:type" v="vegstrekning" />
	</node>
	<node id="-168528" lat="60.4235777776" lon="9.60770833926">
		<tag k="name" v="Stillingdalvegen" />
		<tag k="ssr:date" v="2016-05-10" />
		<tag k="ssr:gruppe" v="veg" />
		<tag k="ssr:hovedgruppe" v="infrastruktur" />
		<tag k="ssr:stedsnr" v="421486" />
		<tag k="ssr:type" v="vegstrekning" />
	</node>
	<node id="-168600" lat="60.4291027743" lon="9.46611111679">
		<tag k="name" v="Flå kommune" />
		<tag k="ssr:date" v="2016-05-10" />
		<tag k="ssr:gruppe" v="administrativeIndelinger" />
		<tag k="ssr:hovedgruppe" v="offentligAdministrasjon" />
		<tag k="ssr:stedsnr" v="449019" />
		<tag k="ssr:type" v="kommune" />
	</node>
	<node id="-169389" lat="60.5908609473" lon="9.63819281559">
		<tag k="fixme" v="multiple name tags, choose one and add the other to alt_name" />
		<tag k="name" v="Austlandet;Østlandet" />
		<tag k="ssr:date" v="2018-01-09" />
		<tag k="ssr:gruppe" v="administrativeIndelinger" />
		<tag k="ssr:hovedgruppe" v="offentligAdministrasjon" />
		<tag k="ssr:stedsnr" v="974775" />
		<tag k="ssr:type" v="annenAdministrativInndeling" />
	</node>
	<node id="-169225" lat="60.4147166626" lon="9.76592499715">
		<tag k="name" v="Veslevadvegen" />
		<tag k="ssr:date" v="2016-05-11" />
		<tag k="ssr:gruppe" v="veg" />
		<tag k="ssr:hovedgruppe" v="infrastruktur" />
		<tag k="ssr:stedsnr" v="846493" />
		<tag k="ssr:type" v="vegstrekning" />
	</node>
	<node id="-168904" lat="60.4651805535" lon="9.37597777154">
		<tag k="name" v="Grønlivegen" />
		<tag k="ssr:date" v="2016-05-10" />
		<tag k="ssr:gruppe" v="veg" />
		<tag k="ssr:hovedgruppe" v="infrastruktur" />
		<tag k="ssr:stedsnr" v="648543" />
		<tag k="ssr:type" v="vegstrekning" />
	</node>
	<node id="-168834" lat="60.4065972226" lon="9.37423055538">
		<tag k="name" v="Slåttemyrvegen" />
		<tag k="ssr:date" v="2016-05-10" />
		<tag k="ssr:gruppe" v="veg" />
		<tag k="ssr:hovedgruppe" v="infrastruktur" />
		<tag k="ssr:stedsnr" v="605184" />
		<tag k="ssr:type" v="vegstrekning" />
	</node>
	<node id="-169217" lat="60.447233335" lon="9.82112499193">
		<tag k="name" v="Skytefeltvegen" />
		<tag k="ssr:date" v="2016-05-11" />
		<tag k="ssr:gruppe" v="veg" />
		<tag k="ssr:hovedgruppe" v="infrastruktur" />
		<tag k="ssr:stedsnr" v="846244" />
		<tag k="ssr:type" v="vegstrekning" />
	</node>
</osm>
