<?xml version="1.0" encoding="UTF-8"?>
<osm version="0.6" generator="osmapis">
	<node lat="70.06399167764025" lon="26.592919021196366" id="-34350">
		<tag k="name" v="Gaskkamuš Borsejohka" />
		<tag k="name:se" v="Gaskkamuš Borsejohka" />
		<tag k="ssr:stedsnr" v="19404" />
		<tag k="waterway" v="river" />
	</node>
	<node lat="70.0484305683007" lon="26.701791224153222" id="-34351">
		<tag k="name" v="Borseluobbalat" />
		<tag k="name:se" v="Borseluobbalat" />
		<tag k="natural" v="water" />
		<tag k="ssr:stedsnr" v="19407" />
		<tag k="water" v="lake" />
	</node>
	<node lat="70.02506946330554" lon="26.942913399281622" id="-34352">
		<tag k="fixme" v="consider natural=peak for the most distinct mountains in the district" />
		<tag k="name" v="Báišvárri" />
		<tag k="name:se" v="Báišvárri" />
		<tag k="natural" v="hill" />
		<tag k="old_name:se" v="Baišvarri" />
		<tag k="place" v="locality" />
		<tag k="ssr:stedsnr" v="19410" />
	</node>
	<node lat="70.2227139027969" lon="27.06542173536215" id="-34353">
		<tag k="name" v="Čeavrresjohka" />
		<tag k="name:se" v="Čeavrresjohka" />
		<tag k="old_name:se" v="Čævresjåkka" />
		<tag k="ssr:stedsnr" v="19421" />
		<tag k="waterway" v="stream" />
	</node>
	<node lat="70.10860002375667" lon="27.52396050642902" id="-34354">
		<tag k="fixme" v="consider natural=peak for the most distinct mountains in the district" />
		<tag k="loc_name:se" v="Kássavárri" />
		<tag k="name" v="Gássavárri" />
		<tag k="name:se" v="Gássavárri" />
		<tag k="natural" v="hill" />
		<tag k="old_name:se" v="Gassavarri" />
		<tag k="place" v="locality" />
		<tag k="ssr:stedsnr" v="19447" />
	</node>
	<node lat="69.86268612644557" lon="25.813885804843018" id="-34355">
		<tag k="fixme" v="consider natural=peak for the most distinct mountains in the district" />
		<tag k="name" v="Stuorra Suoidnoaivi" />
		<tag k="name:se" v="Stuorra Suoidnoaivi" />
		<tag k="natural" v="hill" />
		<tag k="old_name:se" v="Suoidnoaivi, stuorra" />
		<tag k="place" v="locality" />
		<tag k="ssr:stedsnr" v="19909" />
	</node>
	<node lat="70.06857779942534" lon="27.987452054862356" id="-34356">
		<tag k="name" v="Fielbmajohka" />
		<tag k="name:se" v="Fielbmajohka" />
		<tag k="old_name:se" v="Fielbmajåkka" />
		<tag k="ssr:stedsnr" v="19913" />
		<tag k="waterway" v="stream" />
	</node>
	<node lat="69.98165279486173" lon="26.81759677000421" id="-34357">
		<tag k="alt_name:se" v="Viđđás" />
		<tag k="name" v="Bajit Viđis" />
		<tag k="name:se" v="Bajit Viđis" />
		<tag k="old_name:se" v="Viđis, bajit" />
		<tag k="ssr:stedsnr" v="19938" />
		<tag k="waterway" v="river" />
	</node>
	<node lat="70.23368612770535" lon="27.774966015937782" id="-34358">
		<tag k="name" v="Geassáskáidi" />
		<tag k="name:se" v="Geassáskáidi" />
		<tag k="natural" v="cape" />
		<tag k="old_name:se" v="Gæssaskaidi" />
		<tag k="ssr:stedsnr" v="19941" />
	</node>
	<node lat="70.47068612849847" lon="27.768938276907075" id="-34359">
		<tag k="fixme" v="consider natural=peak for the most distinct mountains in the district" />
		<tag k="name" v="Daŋasoaivi" />
		<tag k="name:se" v="Daŋasoaivi" />
		<tag k="natural" v="hill" />
		<tag k="old_name:se" v="Danasoaivi" />
		<tag k="place" v="locality" />
		<tag k="ssr:stedsnr" v="20007" />
	</node>
	<node lat="70.42803057236307" lon="28.183768720724043" id="-34360">
		<tag k="name" v="Heargejávri" />
		<tag k="name:se" v="Heargejávri" />
		<tag k="natural" v="water" />
		<tag k="old_name:se" v="Hærgejavri" />
		<tag k="ssr:stedsnr" v="20091" />
	</node>
	<node lat="70.40744446095508" lon="28.034613213825043" id="-34361">
		<tag k="name" v="Ráttovuonjohka" />
		<tag k="name:se" v="Ráttovuonjohka" />
		<tag k="old_name:se" v="Radduvuonjåkka" />
		<tag k="ssr:stedsnr" v="20098" />
		<tag k="waterway" v="river" />
	</node>
	<node lat="70.41400279427505" lon="28.16080762229602" id="-34362">
		<tag k="name" v="Hávgajohka" />
		<tag k="name:se" v="Hávgajohka" />
		<tag k="old_name:se" v="Havgajåkka" />
		<tag k="ssr:stedsnr" v="20100" />
		<tag k="waterway" v="stream" />
	</node>
	<node lat="70.12510280150639" lon="27.895677071348704" id="-34363">
		<tag k="name" v="Ballánjávrrit" />
		<tag k="name:se" v="Ballánjávrrit" />
		<tag k="natural" v="water" />
		<tag k="old_name:se" v="Ballanjavrit" />
		<tag k="ssr:stedsnr" v="19993" />
		<tag k="water" v="lake" />
	</node>
	<node lat="70.12366947013179" lon="28.01492704267612" id="-34364">
		<tag k="name" v="Roggegiettája" />
		<tag k="name:se" v="Roggegiettája" />
		<tag k="old_name:se" v="Råggegieddaja" />
		<tag k="ssr:stedsnr" v="19997" />
		<tag k="waterway" v="stream" />
	</node>
	<node lat="70.5643889137357" lon="28.605899191385166" id="-34365">
		<tag k="name" v="Áhkkárgeaželáttu" />
		<tag k="name:se" v="Áhkkárgeaželáttu" />
		<tag k="natural" v="water" />
		<tag k="old_name:se" v="Akkargæželaddo" />
		<tag k="ssr:stedsnr" v="20316" />
	</node>
	<node lat="70.60300002345099" lon="28.46927700682401" id="-34366">
		<tag k="name" v="Klubbu - Molvikklubben" />
		<tag k="name:no" v="Molvikklubben" />
		<tag k="name:se" v="Klubbu" />
		<tag k="natural" v="cape" />
		<tag k="old_name:se" v="Klubbo" />
		<tag k="ssr:stedsnr" v="20323" />
	</node>
	<node lat="70.45556112926387" lon="28.3407242325689" id="-34367">
		<tag k="alt_name:no" v="Bjerkestrand" />
		<tag k="name" v="Birkestrand" />
		<tag k="name:no" v="Birkestrand" />
		<tag k="natural" v="beach" />
		<tag k="ssr:stedsnr" v="20790" />
	</node>
	<node lat="70.4527111321254" lon="28.524657502934225" id="-34368">
		<tag k="name" v="Geaidnojohka - Vegbekken" />
		<tag k="name:no" v="Vegbekken" />
		<tag k="name:se" v="Geaidnojohka" />
		<tag k="old_name:se" v="Gæidnujåkka" />
		<tag k="ssr:stedsnr" v="20791" />
		<tag k="waterway" v="stream" />
	</node>
	<node lat="70.27831391181" lon="28.14314926125832" id="-34369">
		<tag k="name" v="Máskejohnjárga" />
		<tag k="name:se" v="Máskejohnjárga" />
		<tag k="old_name:se" v="Maskejåknjarga" />
		<tag k="place" v="farm" />
		<tag k="ssr:stedsnr" v="20838" />
	</node>
	<node lat="70.49814168404237" lon="28.231729837458676" id="-34370">
		<tag k="name" v="Steinsvik" />
		<tag k="name:no" v="Steinsvik" />
		<tag k="natural" v="cape" />
		<tag k="ssr:stedsnr" v="28919" />
	</node>
	<node lat="70.19847224746489" lon="28.243418664860336" id="-34371">
		<tag k="name" v="Badjesaijeaggi" />
		<tag k="name:se" v="Badjesaijeaggi" />
		<tag k="natural" v="wetland" />
		<tag k="ssr:stedsnr" v="33902" />
	</node>
	<node lat="70.14568336280402" lon="28.166210330036655" id="-34372">
		<tag k="name" v="Muorječorru" />
		<tag k="name:se" v="Muorječorru" />
		<tag k="natural" v="hill" />
		<tag k="place" v="locality" />
		<tag k="ssr:stedsnr" v="34013" />
	</node>
	<node lat="70.30105001757084" lon="28.07912428627573" id="-34373">
		<tag k="name" v="Čorrovárjeaggi" />
		<tag k="name:se" v="Čorrovárjeaggi" />
		<tag k="natural" v="wetland" />
		<tag k="ssr:stedsnr" v="34377" />
	</node>
	<node lat="70.04763613802065" lon="28.0337409053826" id="-34374">
		<tag k="name" v="Johkamohkki" />
		<tag k="name:se" v="Johkamohkki" />
		<tag k="natural" v="bay" />
		<tag k="ssr:stedsnr" v="34501" />
	</node>
	<node lat="70.07360557929711" lon="27.991907611118446" id="-34375">
		<tag k="name" v="Girkobákti" />
		<tag k="name:se" v="Girkobákti" />
		<tag k="natural" v="hill" />
		<tag k="place" v="locality" />
		<tag k="ssr:stedsnr" v="34429" />
	</node>
	<node lat="70.0831139118604" lon="28.075935361421127" id="-34376">
		<tag k="name" v="Vuoksajohka" />
		<tag k="name:se" v="Vuoksajohka" />
		<tag k="ssr:stedsnr" v="34709" />
		<tag k="waterway" v="stream" />
	</node>
	<node lat="70.09405002321895" lon="28.08396869604002" id="-34377">
		<tag k="name" v="Káreáhkojeaggi" />
		<tag k="name:se" v="Káreáhkojeaggi" />
		<tag k="natural" v="wetland" />
		<tag k="ssr:stedsnr" v="34711" />
	</node>
	<node lat="70.37081946663663" lon="28.22226313831265" id="-34378">
		<tag k="name" v="Sandlineset" />
		<tag k="name:no" v="Sandlineset" />
		<tag k="natural" v="cape" />
		<tag k="ssr:stedsnr" v="34799" />
	</node>
	<node lat="70.13163057625142" lon="28.174613117922718" id="-34379">
		<tag k="name" v="Allabolnnit" />
		<tag k="name:se" v="Allabolnnit" />
		<tag k="natural" v="hill" />
		<tag k="place" v="locality" />
		<tag k="ssr:stedsnr" v="34813" />
	</node>
	<node lat="70.13580835918178" lon="28.200588094052613" id="-34380">
		<tag k="name" v="Bahánjárga" />
		<tag k="name:se" v="Bahánjárga" />
		<tag k="natural" v="cape" />
		<tag k="ssr:stedsnr" v="34815" />
	</node>
	<node lat="70.1693944710166" lon="28.161096469190095" id="-34381">
		<tag k="name" v="Gumpejeaggi" />
		<tag k="name:se" v="Gumpejeaggi" />
		<tag k="natural" v="wetland" />
		<tag k="ssr:stedsnr" v="34864" />
	</node>
	<node lat="70.21843613458736" lon="28.210371452212982" id="-34382">
		<tag k="name" v="Villejeaggi" />
		<tag k="name:se" v="Villejeaggi" />
		<tag k="natural" v="wetland" />
		<tag k="ssr:stedsnr" v="34865" />
	</node>
	<node lat="70.13330557921279" lon="28.161496450107155" id="-34383">
		<tag k="name" v="Miennárohtu" />
		<tag k="name:se" v="Miennárohtu" />
		<tag k="place" v="locality" />
		<tag k="ssr:stedsnr" v="34824" />
	</node>
	<node lat="70.03527502238053" lon="28.046310341505855" id="-34384">
		<tag k="name" v="Riŋginjárga" />
		<tag k="name:se" v="Riŋginjárga" />
		<tag k="natural" v="cape" />
		<tag k="ssr:stedsnr" v="34870" />
	</node>
	<node lat="70.06558891139643" lon="27.568502172610298" id="-34386">
		<tag k="name" v="Geavgŋoaisuolu - Forsholmen" />
		<tag k="name:no" v="Forsholmen" />
		<tag k="name:se" v="Geavgŋoaisuolu" />
		<tag k="place" v="farm" />
		<tag k="ssr:stedsnr" v="240774" />
	</node>
	<node lat="70.0279416911417" lon="28.137674199911793" id="-34390">
		<tag k="fixme" v="consider natural=peak for the most distinct mountains in the district" />
		<tag k="name" v="Nurki" />
		<tag k="name:se" v="Nurki" />
		<tag k="natural" v="hill" />
		<tag k="place" v="locality" />
		<tag k="ssr:stedsnr" v="79803" />
	</node>
	<node lat="70.23648057735599" lon="28.3228491996513" id="-34391">
		<tag k="alt_name:se" v="Geaidnonjunni" />
		<tag k="fixme" v="consider natural=peak for the most distinct mountains in the district" />
		<tag k="name" v="Johtonjunni" />
		<tag k="name:se" v="Johtonjunni" />
		<tag k="natural" v="hill" />
		<tag k="old_name:se" v="Jåttunjunni" />
		<tag k="place" v="locality" />
		<tag k="ssr:stedsnr" v="79791" />
	</node>
	<node lat="70.21470834503526" lon="27.106910620186746" id="-34392">
		<tag k="name" v="Goahteláttu" />
		<tag k="name:se" v="Goahteláttu" />
		<tag k="natural" v="water" />
		<tag k="old_name:se" v="Goatteladdo" />
		<tag k="ssr:stedsnr" v="80439" />
	</node>
	<node lat="70.04599723739994" lon="27.240143904055103" id="-34393">
		<tag k="name" v="Lávrabanjávri" />
		<tag k="name:se" v="Lávrabanjávri" />
		<tag k="natural" v="water" />
		<tag k="old_name:se" v="Lavrabanjavri" />
		<tag k="ssr:stedsnr" v="80490" />
	</node>
	<node lat="70.02420001950429" lon="27.526424379085924" id="-34394">
		<tag k="name" v="Jeagilveainuorri" />
		<tag k="name:se" v="Jeagilveainuorri" />
		<tag k="natural" v="strait" />
		<tag k="old_name:se" v="Jægilvæjnuorri" />
		<tag k="ssr:stedsnr" v="80491" />
	</node>
	<node lat="70.02780835079116" lon="27.333207754499778" id="-34395">
		<tag k="name" v="Suttesádjatjávrrit" />
		<tag k="name:se" v="Suttesádjatjávrrit" />
		<tag k="natural" v="water" />
		<tag k="old_name:se" v="Suddesaddjatjavrit" />
		<tag k="ssr:stedsnr" v="80494" />
		<tag k="water" v="lake" />
	</node>
	<node lat="70.02601668431338" lon="27.522671607577085" id="-34396">
		<tag k="name" v="Jeagilveaisuolu" />
		<tag k="name:se" v="Jeagilveaisuolu" />
		<tag k="old_name:se" v="Jægilvæjsuolo;Jeagelveajsuolu" />
		<tag k="place" v="islet" />
		<tag k="ssr:stedsnr" v="80495" />
	</node>
	<node lat="69.96465835900538" lon="28.08728532053762" id="-34397">
		<tag k="name" v="Vuovdejohka" />
		<tag k="name:se" v="Vuovdejohka" />
		<tag k="old_name:se" v="Vuovdejåkka" />
		<tag k="ssr:stedsnr" v="80793" />
		<tag k="waterway" v="river" />
	</node>
	<node lat="69.97463612776062" lon="27.130566138068154" id="-34398">
		<tag k="fixme" v="consider natural=peak for the most distinct mountains in the district" />
		<tag k="name" v="Luosnjárvárri" />
		<tag k="name:se" v="Luosnjárvárri" />
		<tag k="natural" v="hill" />
		<tag k="place" v="locality" />
		<tag k="ssr:stedsnr" v="80804" />
	</node>
	<node lat="70.3487722405427" lon="28.1052437339576" id="-34399">
		<tag k="name" v="Guohcaláttu - Råttvann" />
		<tag k="name:no" v="Råttvann" />
		<tag k="name:se" v="Guohcaláttu" />
		<tag k="natural" v="water" />
		<tag k="old_name:se" v="Guoccaladdo" />
		<tag k="ssr:stedsnr" v="80843" />
	</node>
	<node lat="70.47278890318175" lon="28.02371878102988" id="-34400">
		<tag k="name" v="Goahkkebávttjávri" />
		<tag k="name:se" v="Goahkkebávttjávri" />
		<tag k="natural" v="water" />
		<tag k="old_name:se" v="Goakkebavtjavri" />
		<tag k="ssr:stedsnr" v="81010" />
	</node>
	<node lat="70.48120001535484" lon="27.977293800540153" id="-34401">
		<tag k="alt_name:no" v="Torhop, indre" />
		<tag k="name" v="Durevuohppi - Indre Torhop" />
		<tag k="name:no" v="Indre Torhop" />
		<tag k="name:se" v="Durevuohppi" />
		<tag k="old_name:se" v="Durevuoppi" />
		<tag k="place" v="hamlet" />
		<tag k="ssr:stedsnr" v="81032" />
	</node>
	<node lat="70.41953057256694" lon="27.929082667164984" id="-34402">
		<tag k="name" v="Báktejávri" />
		<tag k="name:se" v="Báktejávri" />
		<tag k="natural" v="water" />
		<tag k="old_name:se" v="Baktejavri" />
		<tag k="ssr:stedsnr" v="81105" />
		<tag k="water" v="lake" />
	</node>
	<node lat="70.42211668529535" lon="27.84521882777531" id="-34403">
		<tag k="fixme" v="consider natural=peak for the most distinct mountains in the district" />
		<tag k="name" v="Gálbbesgurčohkat" />
		<tag k="name:se" v="Gálbbesgurčohkat" />
		<tag k="natural" v="hill" />
		<tag k="old_name:se" v="Galbesgurčåkkat" />
		<tag k="place" v="locality" />
		<tag k="ssr:stedsnr" v="81107" />
	</node>
	<node lat="70.42544168396424" lon="27.835227160780352" id="-34404">
		<tag k="name" v="Nissojohka - Neselva" />
		<tag k="name:no" v="Neselva" />
		<tag k="name:se" v="Nissojohka" />
		<tag k="old_name:se" v="Nissujåkka" />
		<tag k="ssr:stedsnr" v="81109" />
		<tag k="waterway" v="river" />
	</node>
	<node lat="70.42876946691892" lon="28.214065933010456" id="-34405">
		<tag k="fixme" v="consider natural=peak for the most distinct mountains in the district" />
		<tag k="name" v="Heargevárri - Sankt-Hanshaugen" />
		<tag k="name:no" v="Sankt-Hanshaugen" />
		<tag k="name:se" v="Heargevárri" />
		<tag k="natural" v="hill" />
		<tag k="old_name:se" v="Hærgevarri" />
		<tag k="place" v="locality" />
		<tag k="ssr:stedsnr" v="81111" />
	</node>
	<node lat="70.44607779934266" lon="27.824288269845642" id="-34406">
		<tag k="name" v="Gáldogohppi" />
		<tag k="name:se" v="Gáldogohppi" />
		<tag k="natural" v="bay" />
		<tag k="old_name:se" v="Galdugåppi" />
		<tag k="ssr:stedsnr" v="81121" />
	</node>
	<node lat="70.44565556880468" lon="27.893793813769115" id="-34407">
		<tag k="name" v="Duoivejeaggi" />
		<tag k="name:se" v="Duoivejeaggi" />
		<tag k="natural" v="wetland" />
		<tag k="old_name:se" v="Duoivejæggi" />
		<tag k="ssr:stedsnr" v="81123" />
	</node>
	<node lat="70.3062861358257" lon="28.15543537541258" id="-34408">
		<tag k="name" v="Suolovárguolbba - Holmfjellsletta" />
		<tag k="name:no" v="Holmfjellsletta" />
		<tag k="name:se" v="Suolovárguolbba" />
		<tag k="old_name:se" v="Suoluvarguolba" />
		<tag k="place" v="locality" />
		<tag k="ssr:stedsnr" v="81835" />
	</node>
	<node lat="70.27856113522513" lon="28.16827980345361" id="-34409">
		<tag k="name" v="Lievlanriddu" />
		<tag k="name:se" v="Lievlanriddu" />
		<tag k="natural" v="beach" />
		<tag k="old_name:se" v="Lievlanriddo" />
		<tag k="ssr:stedsnr" v="81841" />
	</node>
	<node lat="70.06368891170457" lon="28.020604801532656" id="-34410">
		<tag k="name" v="Skáideleahki" />
		<tag k="name:se" v="Skáideleahki" />
		<tag k="natural" v="valley" />
		<tag k="place" v="locality" />
		<tag k="ssr:stedsnr" v="94603" />
	</node>
	<node lat="70.30948891242902" lon="28.195829808514297" id="-34411">
		<tag k="name" v="Bjerke" />
		<tag k="name:no" v="Bjerke" />
		<tag k="place" v="farm" />
		<tag k="ssr:stedsnr" v="95242" />
	</node>
	<node lat="70.28369168914382" lon="28.09943815726567" id="-34412">
		<tag k="loc_name:fkv" v="Pekkaniemi" />
		<tag k="loc_name:no" v="Petterneset" />
		<tag k="name" v="Beakkánnjárga" />
		<tag k="name:se" v="Beakkánnjárga" />
		<tag k="natural" v="cape" />
		<tag k="ssr:stedsnr" v="95245" />
	</node>
	<node lat="70.42443613104167" lon="28.207802039498908" id="-34413">
		<tag k="name" v="Guolban" />
		<tag k="name:se" v="Guolban" />
		<tag k="place" v="locality" />
		<tag k="ssr:stedsnr" v="95170" />
	</node>
	<node lat="70.24940835395739" lon="28.041999273128457" id="-34414">
		<tag k="name" v="Hossesuolu" />
		<tag k="name:se" v="Hossesuolu" />
		<tag k="place" v="islet" />
		<tag k="ssr:stedsnr" v="95317" />
	</node>
	<node lat="70.40197224288012" lon="28.049624316485296" id="-34415">
		<tag k="name" v="Guovžaleahki" />
		<tag k="name:se" v="Guovžaleahki" />
		<tag k="natural" v="valley" />
		<tag k="place" v="locality" />
		<tag k="ssr:stedsnr" v="95279" />
	</node>
	<node lat="70.0895555825286" lon="28.10706312656777" id="-34416">
		<tag k="name" v="Issátgárggu" />
		<tag k="name:se" v="Issátgárggu" />
		<tag k="natural" v="beach" />
		<tag k="ssr:stedsnr" v="95706" />
	</node>
	<node lat="70.09398335654134" lon="28.11846313027077" id="-34417">
		<tag k="name" v="Geassegárggu" />
		<tag k="name:se" v="Geassegárggu" />
		<tag k="natural" v="beach" />
		<tag k="ssr:stedsnr" v="95709" />
	</node>
	<node lat="70.12126946790342" lon="28.163804763462064" id="-34418">
		<tag k="name" v="Árbanakjohka" />
		<tag k="name:se" v="Árbanakjohka" />
		<tag k="ssr:stedsnr" v="95720" />
		<tag k="waterway" v="stream" />
	</node>
	<node lat="70.44064446102308" lon="27.85220215089336" id="-34419">
		<tag k="name" v="Skjæret" />
		<tag k="name:no" v="Skjæret" />
		<tag k="natural" v="slope" />
		<tag k="place" v="locality" />
		<tag k="ssr:stedsnr" v="95666" />
	</node>
	<node lat="70.13955558264601" lon="28.037196485991956" id="-34420">
		<tag k="name" v="Guorroláddot" />
		<tag k="name:se" v="Guorroláddot" />
		<tag k="natural" v="water" />
		<tag k="ssr:stedsnr" v="95809" />
	</node>
	<node lat="70.16239447180143" lon="28.283063089612988" id="-34421">
		<tag k="fixme" v="consider natural=peak for the most distinct mountains in the district" />
		<tag k="name" v="Guorboaivvit" />
		<tag k="name:se" v="Guorboaivvit" />
		<tag k="natural" v="hill" />
		<tag k="place" v="locality" />
		<tag k="ssr:stedsnr" v="95903" />
	</node>
	<node lat="70.41863335019542" lon="28.174821508475862" id="-34422">
		<tag k="fixme" v="consider natural=peak for the most distinct mountains in the district" />
		<tag k="name" v="Urravárri" />
		<tag k="name:se" v="Urravárri" />
		<tag k="natural" v="hill" />
		<tag k="place" v="locality" />
		<tag k="ssr:stedsnr" v="95905" />
	</node>
	<node lat="70.24000002385452" lon="28.217354781704223" id="-34423">
		<tag k="name" v="Luovvenjárga" />
		<tag k="name:se" v="Luovvenjárga" />
		<tag k="natural" v="cape" />
		<tag k="ssr:stedsnr" v="95978" />
	</node>
	<node lat="69.94896113178397" lon="27.22226055970757" id="-34424">
		<tag k="name" v="Nordre Laksnes" />
		<tag k="name:no" v="Nordre Laksnes" />
		<tag k="place" v="farm" />
		<tag k="ssr:stedsnr" v="101825" />
	</node>
	<node lat="69.9466000220013" lon="27.21817445519155" id="-34425">
		<tag k="name" v="Laksnes" />
		<tag k="name:no" v="Laksnes" />
		<tag k="place" v="farm" />
		<tag k="ssr:stedsnr" v="101827" />
	</node>
	<node lat="70.06162501993308" lon="27.547996597138944" id="-34426">
		<tag k="name" v="Geavgŋoaivi - Fossholm" />
		<tag k="name:no" v="Fossholm" />
		<tag k="name:se" v="Geavgŋoaivi" />
		<tag k="place" v="hamlet" />
		<tag k="ssr:stedsnr" v="101776" />
	</node>
	<node lat="70.0761861322942" lon="27.527457718117475" id="-34427">
		<tag k="name" v="Silbašávži" />
		<tag k="name:se" v="Silbašávži" />
		<tag k="natural" v="valley" />
		<tag k="place" v="locality" />
		<tag k="ssr:stedsnr" v="105307" />
	</node>
	<node lat="70.07770001790753" lon="27.674782678587395" id="-34428">
		<tag k="name" v="Geađgebuođđu" />
		<tag k="name:se" v="Geađgebuođđu" />
		<tag k="natural" v="shoal" />
		<tag k="place" v="locality" />
		<tag k="ssr:stedsnr" v="105337" />
	</node>
	<node lat="69.91831390820663" lon="27.060488383133748" id="-34429">
		<tag k="name" v="Beadjamielli" />
		<tag k="name:se" v="Beadjamielli" />
		<tag k="place" v="locality" />
		<tag k="ssr:stedsnr" v="105988" />
	</node>
	<node lat="70.13703057091344" lon="26.77236068152111" id="-34433">
		<tag k="fixme" v="consider natural=peak for the most distinct mountains in the district" />
		<tag k="name" v="Ullogáishoaŋka" />
		<tag k="name:se" v="Ullogáishoaŋka" />
		<tag k="natural" v="hill" />
		<tag k="old_name:se" v="Ullugaishoaŋka" />
		<tag k="place" v="locality" />
		<tag k="ssr:stedsnr" v="140406" />
	</node>
	<node lat="70.06124723621045" lon="27.071738375417794" id="-34434">
		<tag k="name" v="Gappatjohka" />
		<tag k="name:se" v="Gappatjohka" />
		<tag k="old_name:se" v="Gabbatjåkka" />
		<tag k="ssr:stedsnr" v="140464" />
		<tag k="waterway" v="stream" />
	</node>
	<node lat="70.0239472420503" lon="27.173627243177712" id="-34435">
		<tag k="name" v="Geahčoaiguolbanat" />
		<tag k="name:se" v="Geahčoaiguolbanat" />
		<tag k="old_name:se" v="Gæččoaiguolbanat" />
		<tag k="place" v="locality" />
		<tag k="ssr:stedsnr" v="140472" />
	</node>
	<node lat="69.9382972375982" lon="26.448994057867132" id="-34436">
		<tag k="name" v="Bihkkasavu" />
		<tag k="name:se" v="Bihkkasavu" />
		<tag k="old_name:se" v="Bikkasavo" />
		<tag k="ssr:stedsnr" v="140785" />
		<tag k="waterway" v="stream" />
	</node>
	<node lat="69.99194076682868" lon="27.350994635316244" id="-34437">
		<tag k="name" v="Vuolit Bievrrá - Bievramo" />
		<tag k="name:no" v="Bievramo" />
		<tag k="name:se" v="Vuolit Bievrrá" />
		<tag k="old_name:se" v="Bievra, vuolit" />
		<tag k="place" v="farm" />
		<tag k="ssr:stedsnr" v="140787" />
	</node>
	<node lat="70.47047501739328" lon="27.967660469054202" id="-34438">
		<tag k="name" v="Urravárri - Vardefjell" />
		<tag k="name:no" v="Vardefjell" />
		<tag k="name:se" v="Urravárri" />
		<tag k="natural" v="hill" />
		<tag k="old_name:se" v="Urravarri" />
		<tag k="place" v="locality" />
		<tag k="ssr:stedsnr" v="141002" />
	</node>
	<node lat="70.47713613292635" lon="28.04221876133383" id="-34439">
		<tag k="fixme" v="consider natural=peak for the most distinct mountains in the district" />
		<tag k="name" v="Gohppevárri" />
		<tag k="name:se" v="Gohppevárri" />
		<tag k="natural" v="hill" />
		<tag k="old_name:se" v="Gåppevarri" />
		<tag k="place" v="locality" />
		<tag k="ssr:stedsnr" v="141005" />
	</node>
	<node lat="70.48881946571146" lon="28.186715969102586" id="-34440">
		<tag k="name" v="Čoalbmi - Sund" />
		<tag k="name:no" v="Sund" />
		<tag k="name:se" v="Čoalbmi" />
		<tag k="place" v="isolated_dwelling" />
		<tag k="ssr:stedsnr" v="141035" />
	</node>
	<node lat="70.40305557354083" lon="27.91057435214217" id="-34441">
		<tag k="fixme" v="consider natural=peak for the most distinct mountains in the district" />
		<tag k="name" v="Ruovddášvárri" />
		<tag k="name:se" v="Ruovddášvárri" />
		<tag k="natural" v="hill" />
		<tag k="old_name:se" v="Ruovdašvarri" />
		<tag k="place" v="locality" />
		<tag k="ssr:stedsnr" v="141094" />
	</node>
	<node lat="70.03848890928234" lon="28.011543701230252" id="-34442">
		<tag k="name" v="Várevuoljeaggi" />
		<tag k="name:se" v="Várevuoljeaggi" />
		<tag k="natural" v="wetland" />
		<tag k="old_name:se" v="Varevuoljæggi" />
		<tag k="ssr:stedsnr" v="140936" />
	</node>
	<node lat="70.03005279919017" lon="28.047271460553002" id="-34443">
		<tag k="name" v="Searbajohka" />
		<tag k="name:se" v="Searbajohka" />
		<tag k="old_name:se" v="Særbajåkka" />
		<tag k="ssr:stedsnr" v="140940" />
		<tag k="waterway" v="stream" />
	</node>
	<node lat="70.41171668247017" lon="27.526410566202646" id="-34444">
		<tag k="name" v="Gurroskáidi" />
		<tag k="name:se" v="Gurroskáidi" />
		<tag k="natural" v="cape" />
		<tag k="old_name:se" v="Gurruskaidi" />
		<tag k="ssr:stedsnr" v="141188" />
	</node>
	<node lat="70.40340835389414" lon="28.453485293822038" id="-34445">
		<tag k="alt_name:se" v="Guivvagorsa" />
		<tag k="name" v="Guivvešgorsa" />
		<tag k="name:se" v="Guivvešgorsa" />
		<tag k="natural" v="valley" />
		<tag k="old_name:se" v="Guivešgårsa" />
		<tag k="place" v="locality" />
		<tag k="ssr:stedsnr" v="141782" />
	</node>
	<node lat="70.40467501700714" lon="28.3000186922909" id="-34446">
		<tag k="name" v="Hárreluoppal - Lombola" />
		<tag k="name:fkv" v="Lombola" />
		<tag k="name:se" v="Hárreluoppal" />
		<tag k="natural" v="water" />
		<tag k="old_name:se" v="Harreluobbal" />
		<tag k="ssr:stedsnr" v="141784" />
	</node>
	<node lat="70.38364724661933" lon="28.26886591761326" id="-34447">
		<tag k="alt_name:se" v="Roavvi" />
		<tag k="fixme" v="consider natural=peak for the most distinct mountains in the district" />
		<tag k="name" v="Heargebákti" />
		<tag k="name:se" v="Heargebákti" />
		<tag k="natural" v="hill" />
		<tag k="old_name:se" v="Hærgebakti" />
		<tag k="place" v="locality" />
		<tag k="ssr:stedsnr" v="141787" />
	</node>
	<node lat="70.38136946955515" lon="28.22818259587212" id="-34448">
		<tag k="fixme" v="consider natural=peak for the most distinct mountains in the district" />
		<tag k="name" v="Gearralvárri - Petterlundfjellet" />
		<tag k="name:no" v="Petterlundfjellet" />
		<tag k="name:se" v="Gearralvárri" />
		<tag k="natural" v="hill" />
		<tag k="old_name:se" v="Gærralvarri" />
		<tag k="place" v="locality" />
		<tag k="ssr:stedsnr" v="141788" />
	</node>
	<node lat="70.3955694694379" lon="28.222402038977698" id="-34449">
		<tag k="name" v="Čáhcegárnjárga" />
		<tag k="name:se" v="Čáhcegárnjárga" />
		<tag k="natural" v="cape" />
		<tag k="old_name:se" v="Čaccegarnjarga" />
		<tag k="ssr:stedsnr" v="141792" />
	</node>
	<node lat="70.47121391381158" lon="28.940910151680118" id="-34450">
		<tag k="name" v="Fáhccabealjohka" />
		<tag k="name:se" v="Fáhccabealjohka" />
		<tag k="old_name:se" v="Faccabæljåkka" />
		<tag k="ssr:stedsnr" v="141938" />
		<tag k="waterway" v="river" />
	</node>
	<node lat="70.50988335192017" lon="28.367593675944505" id="-34451">
		<tag k="name" v="Vieltegiehgohppi" />
		<tag k="name:se" v="Vieltegiehgohppi" />
		<tag k="natural" v="bay" />
		<tag k="ssr:stedsnr" v="146463" />
	</node>
	<node lat="69.93506390428762" lon="27.139821678438604" id="-34454">
		<tag k="name" v="Čávastatguolbba" />
		<tag k="name:se" v="Čávastatguolbba" />
		<tag k="old_name:se" v="Čavastatguolba" />
		<tag k="place" v="locality" />
		<tag k="ssr:stedsnr" v="149915" />
	</node>
	<node lat="70.49799446675706" lon="28.336149262697127" id="-34455">
		<tag k="name" v="Benjaminsmyra" />
		<tag k="name:no" v="Benjaminsmyra" />
		<tag k="natural" v="wetland" />
		<tag k="ssr:stedsnr" v="155015" />
	</node>
	<node lat="70.17878613244862" lon="28.21627143852405" id="-34456">
		<tag k="name" v="Gándajohka" />
		<tag k="name:se" v="Gándajohka" />
		<tag k="ssr:stedsnr" v="155296" />
		<tag k="waterway" v="stream" />
	</node>
	<node lat="70.38904724992153" lon="28.485163059584103" id="-34457">
		<tag k="fixme" v="consider natural=peak for the most distinct mountains in the district" />
		<tag k="name" v="Njirravárri" />
		<tag k="name:se" v="Njirravárri" />
		<tag k="natural" v="hill" />
		<tag k="place" v="locality" />
		<tag k="ssr:stedsnr" v="155406" />
	</node>
	<node lat="70.4556972412" lon="28.431835322235674" id="-34458">
		<tag k="name" v="Klokkervasstoppen" />
		<tag k="name:no" v="Klokkervasstoppen" />
		<tag k="natural" v="hill" />
		<tag k="place" v="locality" />
		<tag k="ssr:stedsnr" v="155305" />
	</node>
	<node lat="70.08985557611392" lon="27.87144097235217" id="-34459">
		<tag k="fixme" v="consider natural=peak for the most distinct mountains in the district" />
		<tag k="name" v="Uhca Njuorggánváráš" />
		<tag k="name:se" v="Uhca Njuorggánváráš" />
		<tag k="natural" v="hill" />
		<tag k="place" v="locality" />
		<tag k="ssr:stedsnr" v="155568" />
	</node>
	<node lat="70.16803891138308" lon="28.24171032464455" id="-34460">
		<tag k="name" v="Čáhceája" />
		<tag k="name:se" v="Čáhceája" />
		<tag k="natural" v="spring" />
		<tag k="ssr:stedsnr" v="155707" />
	</node>
	<node lat="70.08472502131642" lon="28.119065898455435" id="-34461">
		<tag k="name" v="Stohpojohka" />
		<tag k="name:se" v="Stohpojohka" />
		<tag k="ssr:stedsnr" v="155711" />
		<tag k="waterway" v="stream" />
	</node>
	<node lat="70.08591113327272" lon="28.074277015172445" id="-34462">
		<tag k="name" v="Joppir" />
		<tag k="name:se" v="Joppir" />
		<tag k="natural" v="hill" />
		<tag k="place" v="locality" />
		<tag k="ssr:stedsnr" v="155719" />
	</node>
	<node lat="70.07003613593095" lon="28.01285203507724" id="-34463">
		<tag k="name" v="Soffágieddi" />
		<tag k="name:se" v="Soffágieddi" />
		<tag k="place" v="farm" />
		<tag k="ssr:stedsnr" v="155498" />
	</node>
	<node lat="70.09097224468074" lon="28.07017146104225" id="-34464">
		<tag k="name" v="Oarrigurra" />
		<tag k="name:se" v="Oarrigurra" />
		<tag k="natural" v="valley" />
		<tag k="place" v="locality" />
		<tag k="ssr:stedsnr" v="155656" />
	</node>
	<node lat="70.17185280182238" lon="28.213093671850594" id="-34465">
		<tag k="name" v="Doaresfierran" />
		<tag k="name:se" v="Doaresfierran" />
		<tag k="natural" v="beach" />
		<tag k="ssr:stedsnr" v="155698" />
		<tag k="surface" v="sand" />
	</node>
	<node lat="70.0598500262367" lon="28.062874254719134" id="-34466">
		<tag k="name" v="Vuolitnjavvi" />
		<tag k="name:se" v="Vuolitnjavvi" />
		<tag k="natural" v="water" />
		<tag k="ssr:stedsnr" v="155797" />
		<tag k="water" v="lake" />
	</node>
	<node lat="70.06103336094377" lon="28.06286870117244" id="-34467">
		<tag k="name" v="Báktemohkinjárga" />
		<tag k="name:se" v="Báktemohkinjárga" />
		<tag k="natural" v="cape" />
		<tag k="ssr:stedsnr" v="155799" />
	</node>
	<node lat="70.11866391206745" lon="28.148376989657415" id="-34468">
		<tag k="name" v="Jogašsieđga" />
		<tag k="name:se" v="Jogašsieđga" />
		<tag k="place" v="locality" />
		<tag k="ssr:stedsnr" v="155960" />
	</node>
	<node lat="69.94926946009966" lon="27.228055014146257" id="-34469">
		<tag k="name" v="Østre Laksnes" />
		<tag k="name:no" v="Østre Laksnes" />
		<tag k="place" v="farm" />
		<tag k="ssr:stedsnr" v="161799" />
	</node>
	<node lat="70.01457501588368" lon="26.75107734364223" id="-34470">
		<tag k="name" v="Báišjohka" />
		<tag k="name:se" v="Báišjohka" />
		<tag k="old_name:se" v="Baišjåkka" />
		<tag k="ssr:stedsnr" v="261425" />
		<tag k="waterway" v="river" />
	</node>
	<node lat="70.23079445779548" lon="27.170743950832485" id="-34471">
		<tag k="name" v="Bajimus Lavnnjosjávri" />
		<tag k="name:se" v="Bajimus Lavnnjosjávri" />
		<tag k="natural" v="water" />
		<tag k="old_name:se" v="Lavnjusjavri, bajimus" />
		<tag k="ssr:stedsnr" v="261433" />
	</node>
	<node lat="69.9904389110271" lon="27.304410555009788" id="-34472">
		<tag k="fixme" v="multiple name tags, choose one and add the other to alt_name" />
		<tag k="name" v="Bajit Bievrrá - Øvre Bievra;Kulpstrand" />
		<tag k="name:no" v="Øvre Bievra;Kulpstrand" />
		<tag k="name:se" v="Bajit Bievrrá" />
		<tag k="old_name:se" v="Bievra, bajit;Bajit Bievrá" />
		<tag k="place" v="farm" />
		<tag k="ssr:stedsnr" v="261765" />
	</node>
	<node lat="70.0060305843541" lon="28.087329771143363" id="-34473">
		<tag k="name" v="Lohkkaskáidi" />
		<tag k="name:se" v="Lohkkaskáidi" />
		<tag k="natural" v="cape" />
		<tag k="old_name:se" v="Låkkaskaidi" />
		<tag k="ssr:stedsnr" v="261793" />
	</node>
	<node lat="69.9544139052186" lon="27.278893885283022" id="-34474">
		<tag k="name" v="Gáhccátsuolu" />
		<tag k="name:se" v="Gáhccátsuolu" />
		<tag k="place" v="islet" />
		<tag k="ssr:stedsnr" v="261735" />
	</node>
	<node lat="70.18310558169402" lon="28.36022418119552" id="-34475">
		<tag k="name" v="Sáttovárri - Seidafjellet" />
		<tag k="name:no" v="Seidafjellet" />
		<tag k="name:se" v="Sáttovárri" />
		<tag k="natural" v="mountain_range" />
		<tag k="old_name:se" v="Sadduvarri" />
		<tag k="ssr:stedsnr" v="261812" />
	</node>
	<node lat="70.17524723786757" lon="27.813588231570126" id="-34478">
		<tag k="name" v="Lohkkávži" />
		<tag k="name:se" v="Lohkkávži" />
		<tag k="natural" v="valley" />
		<tag k="old_name:se" v="Låkkavži" />
		<tag k="place" v="locality" />
		<tag k="ssr:stedsnr" v="261958" />
	</node>
	<node lat="70.49359862519044" lon="27.838741803137864" id="-34479">
		<tag k="name" v="Gussanjárga - Kunes" />
		<tag k="name:no" v="Kunes" />
		<tag k="name:se" v="Gussanjárga" />
		<tag k="old_name:se" v="Gussanjarga" />
		<tag k="place" v="isolated_dwelling" />
		<tag k="ssr:stedsnr" v="262039" />
	</node>
	<node lat="70.37943613579394" lon="28.114702060350453" id="-34480">
		<tag k="fixme" v="consider natural=peak for the most distinct mountains in the district" />
		<tag k="name" v="Bokcávárri" />
		<tag k="name:se" v="Bokcávárri" />
		<tag k="natural" v="hill" />
		<tag k="old_name:se" v="Båkcavarri" />
		<tag k="place" v="locality" />
		<tag k="ssr:stedsnr" v="262062" />
	</node>
	<node lat="70.39909724366645" lon="28.185363170759583" id="-34481">
		<tag k="amenity" v="place_of_worship" />
		<tag k="denomination" v="lutheran" />
		<tag k="name" v="Tana kirke" />
		<tag k="name:no" v="Tana kirke" />
		<tag k="religion" v="christian" />
		<tag k="ssr:stedsnr" v="262073" />
	</node>
	<node lat="70.17014724399496" lon="28.172049223884674" id="-34482">
		<tag k="name" v="Guhkesjeaggi" />
		<tag k="name:se" v="Guhkesjeaggi" />
		<tag k="natural" v="wetland" />
		<tag k="old_name:se" v="Gukkesjæggi" />
		<tag k="ssr:stedsnr" v="261981" />
	</node>
	<node lat="70.14811391309533" lon="27.755843792963947" id="-34483">
		<tag k="name" v="Stuorrageađggevađat" />
		<tag k="name:se" v="Stuorrageađggevađat" />
		<tag k="old_name:se" v="Stuorragæđgevađat" />
		<tag k="place" v="locality" />
		<tag k="ssr:stedsnr" v="261990" />
	</node>
	<node lat="70.59650002115693" lon="28.51200754945732" id="-34484">
		<tag k="fixme" v="consider natural=peak for the most distinct mountains in the district" />
		<tag k="name" v="Stuorraskáinjuovčča" />
		<tag k="name:se" v="Stuorraskáinjuovčča" />
		<tag k="natural" v="hill" />
		<tag k="old_name:se" v="Stuorraskainjuovča" />
		<tag k="place" v="locality" />
		<tag k="ssr:stedsnr" v="262308" />
	</node>
	<node lat="70.59818890719254" lon="28.472276999859268" id="-34485">
		<tag k="name" v="Goškesvággi - Lille-Molvik" />
		<tag k="name:no" v="Lille-Molvik" />
		<tag k="name:se" v="Goškesvággi" />
		<tag k="old_name:se" v="Gåškesvaggi" />
		<tag k="place" v="hamlet" />
		<tag k="ssr:stedsnr" v="262311" />
	</node>
	<node lat="70.63283335538942" lon="28.526521448456506" id="-34486">
		<tag k="name" v="Gusaidleahki" />
		<tag k="name:se" v="Gusaidleahki" />
		<tag k="natural" v="valley" />
		<tag k="old_name:se" v="Gusaidlækki" />
		<tag k="place" v="locality" />
		<tag k="ssr:stedsnr" v="262318" />
	</node>
	<node lat="70.63713057212209" lon="28.489424233309425" id="-34487">
		<tag k="name" v="Stabbenjarga" />
		<tag k="name:no" v="Stabbenjarga" />
		<tag k="natural" v="cape" />
		<tag k="ssr:stedsnr" v="262319" />
	</node>
	<node lat="70.66012502042732" lon="28.530260346066864" id="-34488">
		<tag k="name" v="Fátnovággi" />
		<tag k="name:se" v="Fátnovággi" />
		<tag k="natural" v="valley" />
		<tag k="old_name:se" v="Fadnuvaggi" />
		<tag k="place" v="locality" />
		<tag k="ssr:stedsnr" v="262325" />
	</node>
	<node lat="70.67171112928533" lon="28.299379862086514" id="-34489">
		<tag k="name" v="Siskkit Rohtováknjárga" />
		<tag k="name:se" v="Siskkit Rohtováknjárga" />
		<tag k="natural" v="cape" />
		<tag k="old_name:se" v="Råttuvagnjarga, siskit" />
		<tag k="ssr:stedsnr" v="262329" />
	</node>
	<node lat="70.09749445910474" lon="26.690669025507376" id="-34490">
		<tag k="fixme" v="consider natural=peak for the most distinct mountains in the district" />
		<tag k="name" v="Doaresráhppát" />
		<tag k="name:se" v="Doaresráhppát" />
		<tag k="natural" v="hill" />
		<tag k="old_name:se" v="Doaresrappat" />
		<tag k="place" v="locality" />
		<tag k="ssr:stedsnr" v="262420" />
	</node>
	<node lat="70.03794723374371" lon="26.28204129662281" id="-34491">
		<tag k="name" v="Máttimuš Borsegeahči" />
		<tag k="name:se" v="Máttimuš Borsegeahči" />
		<tag k="natural" v="valley" />
		<tag k="place" v="locality" />
		<tag k="ssr:stedsnr" v="262360" />
	</node>
	<node lat="70.5528055701568" lon="28.02661322566889" id="-34492">
		<tag k="name" v="Loksonjohka" />
		<tag k="name:se" v="Loksonjohka" />
		<tag k="old_name:se" v="Låksunjåkka" />
		<tag k="ssr:stedsnr" v="262379" />
		<tag k="waterway" v="stream" />
	</node>
	<node lat="70.54280001818233" lon="28.02070490316803" id="-34493">
		<tag k="fixme" v="consider place=hamlet" />
		<tag k="name" v="Stáhpogieddi" />
		<tag k="name:se" v="Stáhpogieddi" />
		<tag k="place" v="village" />
		<tag k="ssr:stedsnr" v="262380" />
	</node>
	<node lat="70.0111000166478" lon="26.370155175075936" id="-34494">
		<tag k="fixme" v="consider natural=peak for the most distinct mountains in the district" />
		<tag k="name" v="Gottetvárri" />
		<tag k="name:se" v="Gottetvárri" />
		<tag k="natural" v="hill" />
		<tag k="old_name:se" v="Gåddetvarri" />
		<tag k="place" v="locality" />
		<tag k="ssr:stedsnr" v="262383" />
	</node>
	<node lat="70.14712224185566" lon="27.34962445966599" id="-34495">
		<tag k="name" v="Soavveljávri" />
		<tag k="name:se" v="Soavveljávri" />
		<tag k="natural" v="water" />
		<tag k="old_name:se" v="Soavveljavri" />
		<tag k="ssr:stedsnr" v="262474" />
	</node>
	<node lat="70.04911945609577" lon="27.06625228309626" id="-34496">
		<tag k="name" v="Gappatávži" />
		<tag k="name:se" v="Gappatávži" />
		<tag k="natural" v="valley" />
		<tag k="old_name:se" v="Gabbatavži" />
		<tag k="place" v="locality" />
		<tag k="ssr:stedsnr" v="262511" />
	</node>
	<node lat="70.01235835859231" lon="28.232460291490504" id="-34497">
		<tag k="name" v="Roahkkeluoppal" />
		<tag k="name:se" v="Roahkkeluoppal" />
		<tag k="natural" v="water" />
		<tag k="old_name:se" v="Roakkeluobbal" />
		<tag k="ssr:stedsnr" v="262710" />
		<tag k="water" v="lake" />
	</node>
	<node lat="70.44329724916895" lon="28.542268615126833" id="-34498">
		<tag k="fixme" v="consider natural=peak for the most distinct mountains in the district" />
		<tag k="name" v="Láppesguravárri" />
		<tag k="name:se" v="Láppesguravárri" />
		<tag k="natural" v="hill" />
		<tag k="old_name:se" v="Labbesguravarri" />
		<tag k="place" v="locality" />
		<tag k="ssr:stedsnr" v="262815" />
	</node>
	<node lat="70.44035835547194" lon="28.231113158961794" id="-34499">
		<tag k="alt_name:no" v="Ulveskardet" />
		<tag k="loc_name:se" v="Gumpeleahki" />
		<tag k="name" v="Ulveskaret" />
		<tag k="name:no" v="Ulveskaret" />
		<tag k="natural" v="valley" />
		<tag k="place" v="locality" />
		<tag k="ssr:stedsnr" v="262817" />
	</node>
	<node lat="70.08859168880595" lon="28.304229733594365" id="-34500">
		<tag k="fixme" v="consider natural=peak for the most distinct mountains in the district" />
		<tag k="name" v="Čorrovárri" />
		<tag k="name:se" v="Čorrovárri" />
		<tag k="natural" v="hill" />
		<tag k="old_name:se" v="Čårruvarri" />
		<tag k="place" v="locality" />
		<tag k="ssr:stedsnr" v="262822" />
	</node>
	<node lat="69.91843056879274" lon="27.016099492994808" id="-34501">
		<tag k="name" v="Čearretsuolu" />
		<tag k="name:se" v="Čearretsuolu" />
		<tag k="old_name:se" v="Čærretsuolo" />
		<tag k="place" v="islet" />
		<tag k="ssr:stedsnr" v="262826" />
	</node>
	<node lat="70.40418335346057" lon="28.23617702523721" id="-34502">
		<tag k="name" v="Hárrefielbmá" />
		<tag k="name:se" v="Hárrefielbmá" />
		<tag k="old_name:se" v="Harrefielbma" />
		<tag k="ssr:stedsnr" v="262838" />
		<tag k="waterway" v="stream" />
	</node>
	<node lat="70.10327224807489" lon="28.045910358614233" id="-34503">
		<tag k="name" v="Čearretláddot" />
		<tag k="name:se" v="Čearretláddot" />
		<tag k="natural" v="water" />
		<tag k="old_name:se" v="Čærretladdut" />
		<tag k="ssr:stedsnr" v="262915" />
	</node>
	<node lat="70.10300557535875" lon="28.082288138192066" id="-34504">
		<tag k="name" v="Trostenláttu" />
		<tag k="name:se" v="Trostenláttu" />
		<tag k="natural" v="water" />
		<tag k="old_name:se" v="Trostenladdo" />
		<tag k="ssr:stedsnr" v="262916" />
	</node>
	<node lat="70.09890002907055" lon="28.089243682392684" id="-34505">
		<tag k="name" v="Gáldoláttu" />
		<tag k="name:se" v="Gáldoláttu" />
		<tag k="natural" v="water" />
		<tag k="old_name:se" v="Galduladdo" />
		<tag k="ssr:stedsnr" v="262919" />
	</node>
	<node lat="70.34467224269842" lon="28.002510416352553" id="-34506">
		<tag k="loc_name:fkv" v="Kulpukkajärvi" />
		<tag k="loc_name:no" v="Gulbojokvann" />
		<tag k="name" v="Golggotjávri" />
		<tag k="name:se" v="Golggotjávri" />
		<tag k="natural" v="water" />
		<tag k="old_name:se" v="Gålgutjavri" />
		<tag k="ssr:stedsnr" v="262864" />
		<tag k="water" v="lake" />
	</node>
	<node lat="70.34077223669834" lon="27.739957720175756" id="-34507">
		<tag k="name" v="Vátneljárguotku" />
		<tag k="name:se" v="Vátneljárguotku" />
		<tag k="old_name:se" v="Vadneljarguuotko" />
		<tag k="place" v="locality" />
		<tag k="ssr:stedsnr" v="262866" />
	</node>
	<node lat="70.48307502456666" lon="29.05517676584789" id="-34508">
		<tag k="name" v="Nástejávri - Stjernevannet" />
		<tag k="name:no" v="Stjernevannet" />
		<tag k="name:se" v="Nástejávri" />
		<tag k="natural" v="water" />
		<tag k="old_name:se" v="Nastejavri" />
		<tag k="ssr:stedsnr" v="262961" />
		<tag k="water" v="lake" />
	</node>
	<node lat="70.08815835767136" lon="27.792285441935473" id="-34509">
		<tag k="alt_name:se" v="Erkkeoaivi" />
		<tag k="name" v="Erkkoaivi" />
		<tag k="name:se" v="Erkkoaivi" />
		<tag k="natural" v="hill" />
		<tag k="old_name:se" v="Erkoaivi" />
		<tag k="place" v="locality" />
		<tag k="ssr:stedsnr" v="262920" />
	</node>
	<node lat="70.08174169161978" lon="28.16004088736873" id="-34510">
		<tag k="name" v="Goikebatláddot" />
		<tag k="name:se" v="Goikebatláddot" />
		<tag k="natural" v="water" />
		<tag k="old_name:se" v="Gåikebatladdut" />
		<tag k="ssr:stedsnr" v="262929" />
	</node>
	<node lat="70.46887224038224" lon="27.747252172712614" id="-34511">
		<tag k="name" v="Dápmotláttu" />
		<tag k="name:se" v="Dápmotláttu" />
		<tag k="natural" v="water" />
		<tag k="old_name:se" v="Dabmutladdo" />
		<tag k="ssr:stedsnr" v="263010" />
		<tag k="water" v="lake" />
	</node>
	<node lat="70.21986946582238" lon="27.744041037991078" id="-34512">
		<tag k="name" v="Nihkejohka" />
		<tag k="name:se" v="Nihkejohka" />
		<tag k="old_name:se" v="Nikkejåkka" />
		<tag k="ssr:stedsnr" v="262969" />
		<tag k="waterway" v="stream" />
	</node>
	<node lat="69.88874723620604" lon="26.1521274282693" id="-34513">
		<tag k="name" v="Duolbaskáidi" />
		<tag k="name:se" v="Duolbaskáidi" />
		<tag k="natural" v="cape" />
		<tag k="old_name:se" v="Duolbaskaidi" />
		<tag k="ssr:stedsnr" v="262983" />
	</node>
	<node lat="69.9012555659188" lon="26.370502382302362" id="-34514">
		<tag k="name" v="Sáraskáidi" />
		<tag k="name:se" v="Sáraskáidi" />
		<tag k="natural" v="cape" />
		<tag k="old_name:se" v="Saraskaidi;Sáráskáidi" />
		<tag k="ssr:stedsnr" v="262985" />
	</node>
	<node lat="69.93741667922683" lon="26.269569071347842" id="-34515">
		<tag k="fixme" v="consider natural=peak for the most distinct mountains in the district" />
		<tag k="name" v="Muorroaivi" />
		<tag k="name:se" v="Muorroaivi" />
		<tag k="natural" v="hill" />
		<tag k="place" v="locality" />
		<tag k="ssr:stedsnr" v="262987" />
	</node>
	<node lat="69.94587778988206" lon="26.4070246035699" id="-34516">
		<tag k="fixme" v="consider natural=peak for the most distinct mountains in the district" />
		<tag k="name" v="Dárjohčohkka" />
		<tag k="name:se" v="Dárjohčohkka" />
		<tag k="natural" v="hill" />
		<tag k="old_name:se" v="Darjåkčåkka" />
		<tag k="place" v="locality" />
		<tag k="ssr:stedsnr" v="262990" />
	</node>
	<node lat="70.48615557506022" lon="28.064654870365604" id="-34517">
		<tag k="fixme" v="consider natural=peak for the most distinct mountains in the district" />
		<tag k="name" v="Stuorraoaivi" />
		<tag k="name:se" v="Stuorraoaivi" />
		<tag k="natural" v="hill" />
		<tag k="place" v="locality" />
		<tag k="ssr:stedsnr" v="263036" />
	</node>
	<node lat="70.48281112840642" lon="28.15835485556238" id="-34518">
		<tag k="name" v="Stuorragohppi" />
		<tag k="name:se" v="Stuorragohppi" />
		<tag k="natural" v="bay" />
		<tag k="old_name:se" v="Stuorragåppi" />
		<tag k="ssr:stedsnr" v="263038" />
	</node>
	<node lat="70.44217501629515" lon="27.87381325138284" id="-34519">
		<tag k="name" v="Guivvešgieddi" />
		<tag k="name:se" v="Guivvešgieddi" />
		<tag k="old_name:se" v="Guivešsgieddi" />
		<tag k="place" v="farm" />
		<tag k="ssr:stedsnr" v="263146" />
	</node>
	<node lat="70.41648057486441" lon="28.2028937035521" id="-34520">
		<tag k="fixme" v="multiple name tags, choose one and add the other to alt_name" />
		<tag k="name" v="Bonjákasjohka;Stohpojohka - Bonakasbekken" />
		<tag k="name:no" v="Bonakasbekken" />
		<tag k="name:se" v="Bonjákasjohka;Stohpojohka" />
		<tag k="old_name:se" v="Ståppujåkka" />
		<tag k="ssr:stedsnr" v="263112" />
		<tag k="waterway" v="river" />
	</node>
	<node lat="70.43476390252081" lon="27.67499942118769" id="-34521">
		<tag k="name" v="Geaidnonjoaski" />
		<tag k="name:se" v="Geaidnonjoaski" />
		<tag k="natural" v="valley" />
		<tag k="old_name:se" v="Gæidnunjoaski" />
		<tag k="place" v="locality" />
		<tag k="ssr:stedsnr" v="263138" />
	</node>
	<node lat="70.42306946244369" lon="27.5814938713754" id="-34522">
		<tag k="name" v="Ámmonjávrrit" />
		<tag k="name:se" v="Ámmonjávrrit" />
		<tag k="natural" v="water" />
		<tag k="old_name:se" v="Ammunjavrit" />
		<tag k="ssr:stedsnr" v="263225" />
	</node>
	<node lat="70.58916946292004" lon="28.072121556630613" id="-34523">
		<tag k="fixme" v="consider natural=peak for the most distinct mountains in the district" />
		<tag k="name" v="Lodnjesgáisá" />
		<tag k="name:se" v="Lodnjesgáisá" />
		<tag k="natural" v="hill" />
		<tag k="old_name:se" v="Lådnjesgaisa" />
		<tag k="place" v="locality" />
		<tag k="ssr:stedsnr" v="263288" />
	</node>
	<node lat="70.58773335312684" lon="28.189477091027214" id="-34524">
		<tag k="fixme" v="consider seamark:type=rock or natural=shoal" />
		<tag k="name" v="Lásis - Skjæret" />
		<tag k="name:no" v="Skjæret" />
		<tag k="name:se" v="Lásis" />
		<tag k="old_name:se" v="Lasis" />
		<tag k="place" v="islet" />
		<tag k="ssr:stedsnr" v="263289" />
	</node>
	<node lat="70.46476390908083" lon="27.79404105633985" id="-34525">
		<tag k="name" v="Loavddajohka" />
		<tag k="name:se" v="Loavddajohka" />
		<tag k="old_name:se" v="Loavdajåkka" />
		<tag k="ssr:stedsnr" v="263558" />
		<tag k="waterway" v="river" />
	</node>
	<node lat="70.28888613456009" lon="28.019871527114177" id="-34526">
		<tag k="fixme" v="consider natural=peak for the most distinct mountains in the district" />
		<tag k="name" v="Geinnodatvárri" />
		<tag k="name:se" v="Geinnodatvárri" />
		<tag k="natural" v="hill" />
		<tag k="old_name:se" v="Geinudatvarri" />
		<tag k="place" v="locality" />
		<tag k="ssr:stedsnr" v="263560" />
	</node>
	<node lat="70.28484447058592" lon="28.15495481390617" id="-34527">
		<tag k="name" v="Máskejohsavu" />
		<tag k="name:se" v="Máskejohsavu" />
		<tag k="natural" v="water" />
		<tag k="old_name:se" v="Maskejåksavo" />
		<tag k="ssr:stedsnr" v="263820" />
		<tag k="water" v="lake" />
	</node>
	<node lat="70.2678639131547" lon="28.15058815003673" id="-34528">
		<tag k="loc_name:fkv" v="Maskijoenkolbanen" />
		<tag k="loc_name:no" v="Masjokmoen;Masjoksletta" />
		<tag k="name" v="Máskejohguolbba" />
		<tag k="name:se" v="Máskejohguolbba" />
		<tag k="old_name:se" v="Maskejåkguolba;Máskejohkguolbba" />
		<tag k="place" v="locality" />
		<tag k="ssr:stedsnr" v="263830" />
	</node>
	<node lat="70.28082780463974" lon="28.08110205030248" id="-34529">
		<tag k="loc_name:fkv" v="Haukijärvi" />
		<tag k="loc_name:no" v="Gjeddevannet" />
		<tag k="name" v="Hávgajávri" />
		<tag k="name:se" v="Hávgajávri" />
		<tag k="old_name:se" v="Havgajavri" />
		<tag k="place" v="locality" />
		<tag k="ssr:stedsnr" v="263832" />
	</node>
	<node lat="70.44568613462542" lon="28.417268649097853" id="-34530">
		<tag k="alt_name:no" v="Klokkarvannet, l;Lille Klokkervann" />
		<tag k="name" v="Uhca Dápmotjávri - Lille Klokkarvannet" />
		<tag k="name:no" v="Lille Klokkarvannet" />
		<tag k="name:se" v="Uhca Dápmotjávri" />
		<tag k="natural" v="water" />
		<tag k="old_name:se" v="Dabmutjavri ucca" />
		<tag k="ssr:stedsnr" v="263768" />
		<tag k="water" v="lake" />
	</node>
	<node lat="70.44204724716514" lon="28.458876966546857" id="-34531">
		<tag k="name" v="Gaskasuorgi" />
		<tag k="name:se" v="Gaskasuorgi" />
		<tag k="natural" v="valley" />
		<tag k="place" v="locality" />
		<tag k="ssr:stedsnr" v="263775" />
	</node>
	<node lat="70.45888613456978" lon="28.269513150662664" id="-34532">
		<tag k="alt_name:no" v="Fossebakken" />
		<tag k="name" v="Fossbakken" />
		<tag k="name:no" v="Fossbakken" />
		<tag k="natural" v="slope" />
		<tag k="place" v="locality" />
		<tag k="ssr:stedsnr" v="263854" />
	</node>
	<node lat="70.46601668594401" lon="28.52365196567615" id="-34533">
		<tag k="fixme" v="consider natural=peak for the most distinct mountains in the district" />
		<tag k="name" v="Giemašvárri" />
		<tag k="name:se" v="Giemašvárri" />
		<tag k="natural" v="hill" />
		<tag k="old_name:se" v="Giemašvarri" />
		<tag k="place" v="locality" />
		<tag k="ssr:stedsnr" v="263860" />
	</node>
	<node lat="70.01100001147823" lon="26.666852359188322" id="-34534">
		<tag k="name" v="Lindovárjávri" />
		<tag k="name:se" v="Lindovárjávri" />
		<tag k="natural" v="water" />
		<tag k="old_name:se" v="Linduvarjavri" />
		<tag k="ssr:stedsnr" v="201398" />
	</node>
	<node lat="69.96970557111321" lon="27.248152214162577" id="-34535">
		<tag k="name" v="Eliasávži" />
		<tag k="name:se" v="Eliasávži" />
		<tag k="natural" v="valley" />
		<tag k="place" v="locality" />
		<tag k="ssr:stedsnr" v="201776" />
	</node>
	<node lat="69.96828056915345" lon="26.518616260744494" id="-34536">
		<tag k="name" v="Boahkkojohsuovka" />
		<tag k="name:se" v="Boahkkojohsuovka" />
		<tag k="old_name:se" v="Boakkujåksuovka" />
		<tag k="place" v="locality" />
		<tag k="ssr:stedsnr" v="201783" />
	</node>
	<node lat="69.95901112831609" lon="26.783210658995426" id="-34537">
		<tag k="name" v="Biretjunsavu" />
		<tag k="name:se" v="Biretjunsavu" />
		<tag k="old_name:se" v="Biretjunsavo" />
		<tag k="place" v="locality" />
		<tag k="ssr:stedsnr" v="201793" />
	</node>
	<node lat="69.95188820700481" lon="26.569524399813766" id="-34538">
		<tag k="name" v="Badjegeavŋŋis" />
		<tag k="name:se" v="Badjegeavŋŋis" />
		<tag k="ssr:stedsnr" v="201795" />
		<tag k="waterway" v="rapids" />
	</node>
	<node lat="70.07851668541052" lon="27.731429899498163" id="-34539">
		<tag k="name" v="Jalvvijávri" />
		<tag k="name:se" v="Jalvvijávri" />
		<tag k="natural" v="water" />
		<tag k="old_name:se" v="Jalvijavri" />
		<tag k="ssr:stedsnr" v="201906" />
	</node>
	<node lat="70.08469169246396" lon="28.140015892684698" id="-34540">
		<tag k="fixme" v="consider natural=peak for the most distinct mountains in the district" />
		<tag k="name" v="Álletvárri" />
		<tag k="name:se" v="Álletvárri" />
		<tag k="natural" v="hill" />
		<tag k="old_name:se" v="Alletvarri" />
		<tag k="place" v="locality" />
		<tag k="ssr:stedsnr" v="201909" />
	</node>
	<node lat="70.23118188618955" lon="28.178302045973673" id="-34541">
		<tag k="fixme" v="consider place=hamlet" />
		<tag k="name" v="Sieiddá - Seida - Seita" />
		<tag k="name:fkv" v="Seita" />
		<tag k="name:no" v="Seida" />
		<tag k="name:se" v="Sieiddá" />
		<tag k="old_name:se" v="Sieida, nuortit;Nuorttit Sieiddá" />
		<tag k="place" v="village" />
		<tag k="ssr:stedsnr" v="201949" />
	</node>
	<node lat="70.21277502370643" lon="27.868196543533024" id="-34542">
		<tag k="name" v="Guovttejohnjálbmi" />
		<tag k="name:se" v="Guovttejohnjálbmi" />
		<tag k="natural" v="bay" />
		<tag k="old_name:se" v="Guovtejåknjalbmi" />
		<tag k="ssr:stedsnr" v="201956" />
	</node>
	<node lat="70.21038057526125" lon="27.75779657416921" id="-34543">
		<tag k="name" v="Uvjalátnjá" />
		<tag k="name:se" v="Uvjalátnjá" />
		<tag k="old_name:se" v="Uvjaladnja" />
		<tag k="ssr:stedsnr" v="201958" />
		<tag k="waterway" v="river" />
	</node>
	<node lat="69.93344169742888" lon="28.298854688795736" id="-34544">
		<tag k="name" v="Njallajávri" />
		<tag k="name:se" v="Njallajávri" />
		<tag k="natural" v="water" />
		<tag k="old_name:se" v="Njallajavri" />
		<tag k="ssr:stedsnr" v="201845" />
		<tag k="water" v="lake" />
	</node>
	<node lat="70.16630280405515" lon="28.224640882583312" id="-34545">
		<tag k="fixme" v="consider place=hamlet" />
		<tag k="name" v="Skiippagurra" />
		<tag k="name:se" v="Skiippagurra" />
		<tag k="place" v="village" />
		<tag k="ssr:stedsnr" v="201852" />
	</node>
	<node lat="70.4773583530551" lon="27.904177145679476" id="-34546">
		<tag k="alt_name:se" v="Njierenjárjávri" />
		<tag k="name" v="Njierejávri" />
		<tag k="name:se" v="Njierejávri" />
		<tag k="natural" v="water" />
		<tag k="old_name:se" v="Njierejavri" />
		<tag k="ssr:stedsnr" v="202004" />
	</node>
	<node lat="70.47411946510842" lon="28.056615989463886" id="-34547">
		<tag k="fixme" v="multiple name tags, choose one and add the other to alt_name" />
		<tag k="loc_name:no" v="Klubbvann" />
		<tag k="name" v="Bogejávri - Trangvannet;Trangvann" />
		<tag k="name:no" v="Trangvannet;Trangvann" />
		<tag k="name:se" v="Bogejávri" />
		<tag k="natural" v="water" />
		<tag k="old_name:se" v="Bågejavri" />
		<tag k="ssr:stedsnr" v="202006" />
		<tag k="water" v="lake" />
	</node>
	<node lat="70.46543613012862" lon="28.047532659665247" id="-34548">
		<tag k="name" v="Doaresjohka" />
		<tag k="name:se" v="Doaresjohka" />
		<tag k="old_name:se" v="Doaresjåkka" />
		<tag k="ssr:stedsnr" v="202007" />
		<tag k="waterway" v="stream" />
	</node>
	<node lat="70.45958890925625" lon="27.768638290370355" id="-34549">
		<tag k="name" v="Loavddajávrrit" />
		<tag k="name:se" v="Loavddajávrrit" />
		<tag k="natural" v="water" />
		<tag k="old_name:se" v="Loavdajavrit" />
		<tag k="ssr:stedsnr" v="202009" />
		<tag k="water" v="lake" />
	</node>
	<node lat="70.43915557070149" lon="27.560193895132667" id="-34550">
		<tag k="name" v="Iešjohka" />
		<tag k="name:se" v="Iešjohka" />
		<tag k="old_name:se" v="Iešjåkka" />
		<tag k="ssr:stedsnr" v="202193" />
		<tag k="waterway" v="river" />
	</node>
	<node lat="70.57751668900532" lon="28.533657528139923" id="-34551">
		<tag k="name" v="Ruovda" />
		<tag k="name:se" v="Ruovda" />
		<tag k="ssr:stedsnr" v="202313" />
		<tag k="waterway" v="river" />
	</node>
	<node lat="70.58990002108465" lon="28.576040862759488" id="-34552">
		<tag k="fixme" v="consider natural=peak for the most distinct mountains in the district" />
		<tag k="name" v="Áhkkárčohkka" />
		<tag k="name:se" v="Áhkkárčohkka" />
		<tag k="natural" v="hill" />
		<tag k="old_name:se" v="Akkarčåkka" />
		<tag k="place" v="locality" />
		<tag k="ssr:stedsnr" v="202316" />
	</node>
	<node lat="70.42291668490836" lon="27.92013825082506" id="-34553">
		<tag k="fixme" v="consider natural=peak for the most distinct mountains in the district" />
		<tag k="name" v="Báktejárčohkka" />
		<tag k="name:se" v="Báktejárčohkka" />
		<tag k="natural" v="hill" />
		<tag k="old_name:se" v="Baktejarcåkka" />
		<tag k="place" v="locality" />
		<tag k="ssr:stedsnr" v="202098" />
	</node>
	<node lat="70.33788335431201" lon="28.183263160955384" id="-34554">
		<tag k="name" v="Fávlemohkki - Holmfjell - Väylänmukka" />
		<tag k="name:fkv" v="Väylänmukka" />
		<tag k="name:no" v="Holmfjell" />
		<tag k="name:se" v="Fávlemohkki" />
		<tag k="old_name:se" v="Favlemåkki" />
		<tag k="place" v="hamlet" />
		<tag k="ssr:stedsnr" v="202842" />
	</node>
	<node lat="70.32758057694086" lon="28.00801319077387" id="-34555">
		<tag k="name" v="Golggotjohka - Gulbojok - Kulpukanjoki" />
		<tag k="name:fkv" v="Kulpukanjoki" />
		<tag k="name:no" v="Gulbojok" />
		<tag k="name:se" v="Golggotjohka" />
		<tag k="old_name:se" v="Gålgutjåkka" />
		<tag k="ssr:stedsnr" v="202843" />
		<tag k="waterway" v="river" />
	</node>
	<node lat="70.44326946992788" lon="28.486932525456304" id="-34556">
		<tag k="amenity" v="place_of_worship" />
		<tag k="denomination" v="lutheran" />
		<tag k="name" v="Austertana kirke" />
		<tag k="name:no" v="Austertana kirke" />
		<tag k="religion" v="christian" />
		<tag k="ssr:stedsnr" v="202796" />
	</node>
	<node lat="70.28842780204339" lon="28.149885382144067" id="-34557">
		<tag k="fixme" v="consider place=hamlet" />
		<tag k="name" v="Máskejohka - Masjok - Maskijoki" />
		<tag k="name:fkv" v="Maskijoki" />
		<tag k="name:no" v="Masjok" />
		<tag k="name:se" v="Máskejohka" />
		<tag k="place" v="village" />
		<tag k="ssr:stedsnr" v="203819" />
	</node>
	<node lat="70.51017780335992" lon="28.467413097532923" id="-34558">
		<tag k="fixme" v="multiple name tags, choose one and add the other to alt_name" />
		<tag k="name" v="Lávvonjárga - Lavonjarg;Teltnes;Teltneset - Laavuniemi" />
		<tag k="name:fkv" v="Laavuniemi" />
		<tag k="name:no" v="Lavonjarg;Teltnes;Teltneset" />
		<tag k="name:se" v="Lávvonjárga" />
		<tag k="old_name:se" v="Lavvonjárga" />
		<tag k="place" v="hamlet" />
		<tag k="ssr:stedsnr" v="268499" />
	</node>
	<node lat="70.43769724131272" lon="28.246177042592215" id="-34559">
		<tag k="alt_name:no" v="Birkelunden" />
		<tag k="name" v="Birkelund" />
		<tag k="name:no" v="Birkelund" />
		<tag k="place" v="farm" />
		<tag k="ssr:stedsnr" v="209925" />
	</node>
	<node lat="70.48586390959056" lon="28.38712978857409" id="-34560">
		<tag k="name" v="Birkestranda" />
		<tag k="name:no" v="Birkestranda" />
		<tag k="natural" v="beach" />
		<tag k="ssr:stedsnr" v="269642" />
	</node>
	<node lat="70.46326669192935" lon="28.508276976215274" id="-34561">
		<tag k="name" v="Pulkebukt" />
		<tag k="name:no" v="Pulkebukt" />
		<tag k="natural" v="bay" />
		<tag k="ssr:stedsnr" v="269575" />
	</node>
	<node lat="70.50591390681166" lon="28.31087981117027" id="-34562">
		<tag k="loc_name:se" v="Eŋgelasluokta" />
		<tag k="name" v="Engelsbukt" />
		<tag k="name:no" v="Engelsbukt" />
		<tag k="natural" v="bay" />
		<tag k="ssr:stedsnr" v="216045" />
	</node>
	<node lat="70.20635279990307" lon="28.184282555717825" id="-34563">
		<tag k="name" v="Oaivedeatnu" />
		<tag k="name:se" v="Oaivedeatnu" />
		<tag k="natural" v="strait" />
		<tag k="ssr:stedsnr" v="216073" />
	</node>
	<node lat="70.46057502413262" lon="28.51082139998861" id="-34564">
		<tag k="name" v="Geresgohppi" />
		<tag k="name:se" v="Geresgohppi" />
		<tag k="place" v="hamlet" />
		<tag k="ssr:stedsnr" v="216287" />
	</node>
	<node lat="70.41837502103317" lon="28.277060367882566" id="-34565">
		<tag k="name" v="Rødbergsonen" />
		<tag k="name:no" v="Rødbergsonen" />
		<tag k="natural" v="beach" />
		<tag k="ssr:stedsnr" v="216176" />
	</node>
	<node lat="70.09465002308323" lon="27.91405486059925" id="-34566">
		<tag k="name" v="Vuopmanat" />
		<tag k="name:se" v="Vuopmanat" />
		<tag k="place" v="locality" />
		<tag k="ssr:stedsnr" v="216477" />
	</node>
	<node lat="70.1813055784059" lon="28.263829750696424" id="-34567">
		<tag k="name" v="Rihtánjunni" />
		<tag k="name:se" v="Rihtánjunni" />
		<tag k="natural" v="hill" />
		<tag k="place" v="locality" />
		<tag k="ssr:stedsnr" v="216674" />
	</node>
	<node lat="70.08146113154699" lon="28.120396451234985" id="-34568">
		<tag k="name" v="Sávzaroggi" />
		<tag k="name:se" v="Sávzaroggi" />
		<tag k="natural" v="valley" />
		<tag k="place" v="locality" />
		<tag k="ssr:stedsnr" v="216694" />
	</node>
	<node lat="70.09405002365239" lon="28.105596458576155" id="-34569">
		<tag k="name" v="Nikkegoatnil" />
		<tag k="name:se" v="Nikkegoatnil" />
		<tag k="natural" v="water" />
		<tag k="ssr:stedsnr" v="216711" />
		<tag k="water" v="lake" />
	</node>
	<node lat="70.09231113935444" lon="28.097177021705118" id="-34570">
		<tag k="name" v="Rávitgurra" />
		<tag k="name:se" v="Rávitgurra" />
		<tag k="natural" v="valley" />
		<tag k="place" v="locality" />
		<tag k="ssr:stedsnr" v="216713" />
	</node>
	<node lat="70.16967502629916" lon="28.149282559371688" id="-34571">
		<tag k="name" v="Doaresjohluohkká" />
		<tag k="name:se" v="Doaresjohluohkká" />
		<tag k="natural" v="slope" />
		<tag k="place" v="locality" />
		<tag k="ssr:stedsnr" v="216978" />
	</node>
	<node lat="70.25967502816326" lon="28.30024921417283" id="-34572">
		<tag k="name" v="Heimen" />
		<tag k="name:no" v="Heimen" />
		<tag k="place" v="farm" />
		<tag k="ssr:stedsnr" v="216995" />
	</node>
	<node lat="70.41610002349728" lon="28.1831076152688" id="-34573">
		<tag k="name" v="Skarmo" />
		<tag k="name:no" v="Skarmo" />
		<tag k="place" v="farm" />
		<tag k="ssr:stedsnr" v="216873" />
	</node>
	<node lat="70.0832861347137" lon="27.763821562176744" id="-34574">
		<tag k="fixme" v="consider natural=peak for the most distinct mountains in the district" />
		<tag k="name" v="Muotkečopma" />
		<tag k="name:se" v="Muotkečopma" />
		<tag k="natural" v="hill" />
		<tag k="place" v="locality" />
		<tag k="ssr:stedsnr" v="270761" />
	</node>
	<node lat="69.93193613070002" lon="27.12541057061162" id="-34576">
		<tag k="name" v="Russeskaret" />
		<tag k="name:no" v="Russeskaret" />
		<tag k="place" v="farm" />
		<tag k="ssr:stedsnr" v="223845" />
	</node>
	<node lat="70.09640835228515" lon="27.80639099868788" id="-34577">
		<tag k="fixme" v="consider natural=peak for the most distinct mountains in the district" />
		<tag k="name" v="Báktávžžemaras" />
		<tag k="name:se" v="Báktávžžemaras" />
		<tag k="natural" v="hill" />
		<tag k="place" v="locality" />
		<tag k="ssr:stedsnr" v="226386" />
	</node>
	<node lat="70.48825002222816" lon="28.17588541141064" id="-34578">
		<tag k="loc_name:se" v="Čoalbmenjárga" />
		<tag k="name" v="Sundneset" />
		<tag k="name:no" v="Sundneset" />
		<tag k="natural" v="cape" />
		<tag k="ssr:stedsnr" v="271997" />
	</node>
	<node lat="69.95751390871924" lon="27.29264665515028" id="-34581">
		<tag k="name" v="Gáhccát" />
		<tag k="name:se" v="Gáhccát" />
		<tag k="natural" v="strait" />
		<tag k="ssr:stedsnr" v="453892" />
	</node>
	<node lat="69.96275557274379" lon="27.265774437540507" id="-34582">
		<tag k="fixme" v="consider natural=peak for the most distinct mountains in the district" />
		<tag k="name" v="Eliasvárri" />
		<tag k="name:se" v="Eliasvárri" />
		<tag k="natural" v="hill" />
		<tag k="place" v="locality" />
		<tag k="ssr:stedsnr" v="453894" />
	</node>
	<node lat="69.93831113228987" lon="27.181893900624882" id="-34583">
		<tag k="name" v="Luosnjárguoika" />
		<tag k="name:se" v="Luosnjárguoika" />
		<tag k="ssr:stedsnr" v="453898" />
		<tag k="waterway" v="rapids" />
	</node>
	<node lat="70.48930835051034" lon="28.024618785085202" id="-34584">
		<tag k="name" v="Auskarklubben" />
		<tag k="name:no" v="Auskarklubben" />
		<tag k="natural" v="cape" />
		<tag k="ssr:stedsnr" v="455597" />
	</node>
	<node lat="70.34292501247117" lon="27.431660572872566" id="-34585">
		<tag k="fixme" v="consider natural=peak for the most distinct mountains in the district" />
		<tag k="name" v="Divgoaiseaibbuš" />
		<tag k="name:se" v="Divgoaiseaibbuš" />
		<tag k="natural" v="hill" />
		<tag k="old_name:se" v="Divgoaisæiboš" />
		<tag k="place" v="locality" />
		<tag k="ssr:stedsnr" v="262055" />
	</node>
	<node lat="70.18543335398701" lon="27.782904887425993" id="-34586">
		<tag k="name" v="Hánaskáidi" />
		<tag k="name:se" v="Hánaskáidi" />
		<tag k="natural" v="cape" />
		<tag k="old_name:se" v="Hanaskaidi" />
		<tag k="ssr:stedsnr" v="261945" />
	</node>
	<node lat="70.05246668759179" lon="27.124418922616808" id="-34587">
		<tag k="name" v="Čuonjájávrrit" />
		<tag k="name:se" v="Čuonjájávrrit" />
		<tag k="natural" v="water" />
		<tag k="old_name:se" v="Čuonjajavrit" />
		<tag k="ssr:stedsnr" v="262508" />
		<tag k="water" v="lake" />
	</node>
	<node lat="70.06787502160316" lon="27.214180022559777" id="-34588">
		<tag k="name" v="Njuorggánjávri" />
		<tag k="name:se" v="Njuorggánjávri" />
		<tag k="natural" v="water" />
		<tag k="old_name:se" v="Njuorganjavri" />
		<tag k="ssr:stedsnr" v="262509" />
	</node>
	<node lat="69.96323891144586" lon="28.098918650980814" id="-34589">
		<tag k="name" v="Roavvejohka" />
		<tag k="name:se" v="Roavvejohka" />
		<tag k="old_name:se" v="Roavvejåkka" />
		<tag k="ssr:stedsnr" v="262807" />
		<tag k="waterway" v="river" />
	</node>
	<node lat="70.45057502514882" lon="28.52027973307047" id="-34590">
		<tag k="name" v="Leirpollia" />
		<tag k="name:no" v="Leirpollia" />
		<tag k="natural" v="slope" />
		<tag k="place" v="locality" />
		<tag k="ssr:stedsnr" v="262808" />
	</node>
	<node lat="70.37895002226485" lon="28.278918676187985" id="-34591">
		<tag k="fixme" v="consider natural=peak for the most distinct mountains in the district" />
		<tag k="name" v="Roavvečohkka" />
		<tag k="name:se" v="Roavvečohkka" />
		<tag k="natural" v="hill" />
		<tag k="old_name:se" v="Roavvečåkka" />
		<tag k="place" v="locality" />
		<tag k="ssr:stedsnr" v="262843" />
	</node>
	<node lat="70.1412916940916" lon="28.317488063159388" id="-34592">
		<tag k="fixme" v="consider natural=peak for the most distinct mountains in the district" />
		<tag k="name" v="Máttastivrran" />
		<tag k="name:se" v="Máttastivrran" />
		<tag k="natural" v="hill" />
		<tag k="old_name:se" v="Maddastivran" />
		<tag k="place" v="locality" />
		<tag k="ssr:stedsnr" v="262796" />
	</node>
	<node lat="69.92409168533298" lon="27.111071706524566" id="-34593">
		<tag k="name" v="Viđgaveaisavu" />
		<tag k="name:se" v="Viđgaveaisavu" />
		<tag k="old_name:se" v="Viđgavæjsavo" />
		<tag k="place" v="isolated_dwelling" />
		<tag k="ssr:stedsnr" v="262801" />
	</node>
	<node lat="70.10821668494165" lon="27.7378271141835" id="-34594">
		<tag k="name" v="Gárcojárluobbalat" />
		<tag k="name:se" v="Gárcojárluobbalat" />
		<tag k="natural" v="water" />
		<tag k="old_name:se" v="Garcujarluobbalat" />
		<tag k="ssr:stedsnr" v="262902" />
	</node>
	<node lat="70.10762223790226" lon="27.63978271312022" id="-34595">
		<tag k="name" v="Rávdojávri" />
		<tag k="name:se" v="Rávdojávri" />
		<tag k="natural" v="water" />
		<tag k="old_name:se" v="Ravdujavri" />
		<tag k="ssr:stedsnr" v="262906" />
	</node>
	<node lat="70.11314446092294" lon="27.775929894261097" id="-34596">
		<tag k="fixme" v="consider natural=peak for the most distinct mountains in the district" />
		<tag k="loc_name:se" v="Ruitocuvketančopma" />
		<tag k="name" v="Ruitocuvkenčopma" />
		<tag k="name:se" v="Ruitocuvkenčopma" />
		<tag k="natural" v="hill" />
		<tag k="old_name:se" v="Ruitucuvkenčåbma" />
		<tag k="place" v="locality" />
		<tag k="ssr:stedsnr" v="262908" />
	</node>
	<node lat="70.11889447138796" lon="27.908968739845964" id="-34597">
		<tag k="fixme" v="consider natural=peak for the most distinct mountains in the district" />
		<tag k="name" v="Uhca Máskeváráš" />
		<tag k="name:se" v="Uhca Máskeváráš" />
		<tag k="natural" v="hill" />
		<tag k="old_name:se" v="Maskevaraš, ucca" />
		<tag k="place" v="locality" />
		<tag k="ssr:stedsnr" v="262898" />
	</node>
	<node lat="70.13130002033023" lon="27.759088227177756" id="-34598">
		<tag k="fixme" v="consider natural=peak for the most distinct mountains in the district" />
		<tag k="loc_name:se" v="Toardna" />
		<tag k="name" v="Doardna" />
		<tag k="name:se" v="Doardna" />
		<tag k="natural" v="hill" />
		<tag k="place" v="locality" />
		<tag k="ssr:stedsnr" v="262993" />
	</node>
	<node lat="70.40823890780698" lon="28.20203815136529" id="-34599">
		<tag k="fixme" v="consider place=hamlet" />
		<tag k="name" v="Bajit Bonjákas - Øvre Bonakas" />
		<tag k="name:no" v="Øvre Bonakas" />
		<tag k="name:se" v="Bajit Bonjákas" />
		<tag k="old_name:se" v="Bånjakas, bajit" />
		<tag k="place" v="village" />
		<tag k="ssr:stedsnr" v="263104" />
	</node>
	<node lat="70.43283612598893" lon="27.95082990819976" id="-34600">
		<tag k="name" v="Čohkalas - Toppfjellet" />
		<tag k="name:no" v="Toppfjellet" />
		<tag k="name:se" v="Čohkalas" />
		<tag k="natural" v="plateau" />
		<tag k="old_name:se" v="Čåkkalas;Čohkkalas" />
		<tag k="ssr:stedsnr" v="263105" />
	</node>
	<node lat="70.62730835243269" lon="28.115277120003185" id="-34601">
		<tag k="name" v="Johkannjárga" />
		<tag k="name:se" v="Johkannjárga" />
		<tag k="natural" v="cape" />
		<tag k="old_name:se" v="Jåkkannjarga" />
		<tag k="ssr:stedsnr" v="263299" />
	</node>
	<node lat="70.3125222438587" lon="28.403229729263685" id="-34602">
		<tag k="loc_name:fkv" v="Iso Hanajärvi" />
		<tag k="name" v="Stuorát Hánájávri" />
		<tag k="name:se" v="Stuorát Hánájávri" />
		<tag k="natural" v="water" />
		<tag k="old_name:se" v="Hanajavri, stuorat" />
		<tag k="ssr:stedsnr" v="263797" />
		<tag k="water" v="lake" />
	</node>
	<node lat="70.4632882063821" lon="28.443841454098507" id="-34603">
		<tag k="name" v="Leirpollen" />
		<tag k="name:no" v="Leirpollen" />
		<tag k="place" v="isolated_dwelling" />
		<tag k="ssr:stedsnr" v="269571" />
	</node>
	<node lat="70.49242502088366" lon="28.311132588662467" id="-34604">
		<tag k="name" v="Rundhaugen" />
		<tag k="name:no" v="Rundhaugen" />
		<tag k="natural" v="hill" />
		<tag k="place" v="locality" />
		<tag k="ssr:stedsnr" v="459053" />
	</node>
	<node lat="70.4642555785374" lon="28.301260375470676" id="-34605">
		<tag k="name" v="Guhkesnjárga - Langnes - Pitkäniemi" />
		<tag k="name:fkv" v="Pitkäniemi" />
		<tag k="name:no" v="Langnes" />
		<tag k="name:se" v="Guhkesnjárga" />
		<tag k="place" v="hamlet" />
		<tag k="ssr:stedsnr" v="459098" />
	</node>
	<node lat="70.18821113837984" lon="28.19051589098461" id="-34606">
		<tag k="name" v="Sieiddáguoikkoaivi" />
		<tag k="name:se" v="Sieiddáguoikkoaivi" />
		<tag k="ssr:stedsnr" v="459100" />
		<tag k="waterway" v="rapids" />
	</node>
	<node lat="70.19227502236227" lon="28.13859090972209" id="-34607">
		<tag k="highway" v="path" />
		<tag k="name" v="Máskevárbálggis" />
		<tag k="name:se" v="Máskevárbálggis" />
		<tag k="ssr:stedsnr" v="459103" />
	</node>
	<node lat="70.48186391396652" lon="28.322029796950392" id="-34608">
		<tag k="name" v="Høyvold" />
		<tag k="name:no" v="Høyvold" />
		<tag k="place" v="locality" />
		<tag k="ssr:stedsnr" v="459136" />
	</node>
	<node lat="70.47974723988578" lon="28.301999254244514" id="-34609">
		<tag k="name" v="Lilletoppen" />
		<tag k="name:no" v="Lilletoppen" />
		<tag k="natural" v="hill" />
		<tag k="place" v="locality" />
		<tag k="ssr:stedsnr" v="459141" />
	</node>
	<node lat="70.14893057639148" lon="28.077307596661434" id="-34610">
		<tag k="name" v="Hávganjárga" />
		<tag k="name:se" v="Hávganjárga" />
		<tag k="natural" v="cape" />
		<tag k="ssr:stedsnr" v="459199" />
	</node>
	<node lat="70.27911113251874" lon="28.089963171151204" id="-34611">
		<tag k="name" v="Hávganjavvi" />
		<tag k="name:se" v="Hávganjavvi" />
		<tag k="natural" v="water" />
		<tag k="ssr:stedsnr" v="459288" />
		<tag k="water" v="lake" />
	</node>
	<node lat="70.4484083509327" lon="27.82706327727542" id="-34612">
		<tag k="name" v="Rahpariddu" />
		<tag k="name:se" v="Rahpariddu" />
		<tag k="natural" v="beach" />
		<tag k="ssr:stedsnr" v="459346" />
	</node>
	<node lat="70.24823613676965" lon="28.183065923559397" id="-34613">
		<tag k="name" v="Luovttejohnjálbmi" />
		<tag k="name:se" v="Luovttejohnjálbmi" />
		<tag k="natural" v="bay" />
		<tag k="ssr:stedsnr" v="459401" />
	</node>
	<node lat="70.07281946661472" lon="28.01031869033537" id="-34614">
		<tag k="name" v="Buolbmátsavu" />
		<tag k="name:se" v="Buolbmátsavu" />
		<tag k="natural" v="water" />
		<tag k="ssr:stedsnr" v="459434" />
		<tag k="water" v="lake" />
	</node>
	<node lat="70.08827502357381" lon="27.90967151029402" id="-34615">
		<tag k="name" v="Fierrangurra" />
		<tag k="name:se" v="Fierrangurra" />
		<tag k="natural" v="valley" />
		<tag k="place" v="locality" />
		<tag k="ssr:stedsnr" v="459444" />
	</node>
	<node lat="70.07820557761124" lon="28.132082556301214" id="-34616">
		<tag k="name" v="Mirkojohka" />
		<tag k="name:se" v="Mirkojohka" />
		<tag k="ssr:stedsnr" v="459632" />
		<tag k="waterway" v="stream" />
	</node>
	<node lat="70.06278891020939" lon="28.010535373326896" id="-34617">
		<tag k="name" v="Guorroláttu" />
		<tag k="name:se" v="Guorroláttu" />
		<tag k="natural" v="water" />
		<tag k="ssr:stedsnr" v="459485" />
		<tag k="water" v="pond" />
	</node>
	<node lat="70.1198416886109" lon="28.138685343462683" id="-34618">
		<tag k="name" v="Fielbmaguolbba" />
		<tag k="name:se" v="Fielbmaguolbba" />
		<tag k="place" v="locality" />
		<tag k="ssr:stedsnr" v="459740" />
	</node>
	<node lat="70.4598889063808" lon="28.04628265545326" id="-34619">
		<tag k="name" v="Guovdirjohka" />
		<tag k="name:se" v="Guovdirjohka" />
		<tag k="ssr:stedsnr" v="276821" />
		<tag k="waterway" v="stream" />
	</node>
	<node lat="70.21124447103324" lon="28.223707571591124" id="-34620">
		<tag k="fixme" v="consider natural=peak for the most distinct mountains in the district" />
		<tag k="name" v="Vuovdeoaivi" />
		<tag k="name:se" v="Vuovdeoaivi" />
		<tag k="natural" v="hill" />
		<tag k="place" v="locality" />
		<tag k="ssr:stedsnr" v="459884" />
	</node>
	<node lat="70.4724000174598" lon="28.304738151002116" id="-34621">
		<tag k="name" v="Berglandselva" />
		<tag k="name:no" v="Berglandselva" />
		<tag k="ssr:stedsnr" v="277123" />
		<tag k="waterway" v="stream" />
	</node>
	<node lat="70.36966390831063" lon="28.177357613095463" id="-34622">
		<tag k="name" v="Urabakken" />
		<tag k="name:no" v="Urabakken" />
		<tag k="natural" v="slope" />
		<tag k="place" v="locality" />
		<tag k="ssr:stedsnr" v="277313" />
	</node>
	<node lat="70.37077780356418" lon="28.177577050629374" id="-34623">
		<tag k="name" v="Gállejohka" />
		<tag k="name:se" v="Gállejohka" />
		<tag k="ssr:stedsnr" v="277316" />
		<tag k="waterway" v="stream" />
	</node>
	<node lat="70.36105835679079" lon="28.2345214759341" id="-34624">
		<tag k="name" v="Sandlia" />
		<tag k="name:no" v="Sandlia" />
		<tag k="place" v="hamlet" />
		<tag k="ssr:stedsnr" v="459826" />
	</node>
</osm>
