<?xml version="1.0" encoding="UTF-8"?>
<osm version="0.6" generator="osmapis">
	<node lat="70.06399167764025" lon="26.592919021196366" id="-40559">
		<tag k="name" v="Gaskkamuš Borsejohka" />
		<tag k="name:se" v="Gaskkamuš Borsejohka" />
		<tag k="ssr:stedsnr" v="19404" />
		<tag k="waterway" v="river" />
	</node>
	<node lat="70.0484305683007" lon="26.701791224153222" id="-40560">
		<tag k="name" v="Borseluobbalat" />
		<tag k="name:se" v="Borseluobbalat" />
		<tag k="natural" v="water" />
		<tag k="ssr:stedsnr" v="19407" />
		<tag k="water" v="lake" />
	</node>
	<node lat="70.2227139027969" lon="27.06542173536215" id="-40562">
		<tag k="name" v="Čeavrresjohka" />
		<tag k="name:se" v="Čeavrresjohka" />
		<tag k="old_name:se" v="Čævresjåkka" />
		<tag k="ssr:stedsnr" v="19421" />
		<tag k="waterway" v="stream" />
	</node>
	<node lat="70.06857779942534" lon="27.987452054862356" id="-40565">
		<tag k="name" v="Fielbmajohka" />
		<tag k="name:se" v="Fielbmajohka" />
		<tag k="old_name:se" v="Fielbmajåkka" />
		<tag k="ssr:stedsnr" v="19913" />
		<tag k="waterway" v="stream" />
	</node>
	<node lat="69.98165279486173" lon="26.81759677000421" id="-40566">
		<tag k="alt_name:se" v="Viđđás" />
		<tag k="name" v="Bajit Viđis" />
		<tag k="name:se" v="Bajit Viđis" />
		<tag k="old_name:se" v="Viđis, bajit" />
		<tag k="ssr:stedsnr" v="19938" />
		<tag k="waterway" v="river" />
	</node>
	<node lat="70.23368612770535" lon="27.774966015937782" id="-40567">
		<tag k="name" v="Geassáskáidi" />
		<tag k="name:se" v="Geassáskáidi" />
		<tag k="natural" v="cape" />
		<tag k="old_name:se" v="Gæssaskaidi" />
		<tag k="ssr:stedsnr" v="19941" />
	</node>
	<node lat="70.42803057236307" lon="28.183768720724043" id="-40569">
		<tag k="name" v="Heargejávri" />
		<tag k="name:se" v="Heargejávri" />
		<tag k="natural" v="water" />
		<tag k="old_name:se" v="Hærgejavri" />
		<tag k="ssr:stedsnr" v="20091" />
	</node>
	<node lat="70.40744446095508" lon="28.034613213825043" id="-40570">
		<tag k="name" v="Ráttovuonjohka" />
		<tag k="name:se" v="Ráttovuonjohka" />
		<tag k="old_name:se" v="Radduvuonjåkka" />
		<tag k="ssr:stedsnr" v="20098" />
		<tag k="waterway" v="river" />
	</node>
	<node lat="70.41400279427505" lon="28.16080762229602" id="-40571">
		<tag k="name" v="Hávgajohka" />
		<tag k="name:se" v="Hávgajohka" />
		<tag k="old_name:se" v="Havgajåkka" />
		<tag k="ssr:stedsnr" v="20100" />
		<tag k="waterway" v="stream" />
	</node>
	<node lat="70.12510280150639" lon="27.895677071348704" id="-40572">
		<tag k="name" v="Ballánjávrrit" />
		<tag k="name:se" v="Ballánjávrrit" />
		<tag k="natural" v="water" />
		<tag k="old_name:se" v="Ballanjavrit" />
		<tag k="ssr:stedsnr" v="19993" />
		<tag k="water" v="lake" />
	</node>
	<node lat="70.12366947013179" lon="28.01492704267612" id="-40573">
		<tag k="name" v="Roggegiettája" />
		<tag k="name:se" v="Roggegiettája" />
		<tag k="old_name:se" v="Råggegieddaja" />
		<tag k="ssr:stedsnr" v="19997" />
		<tag k="waterway" v="stream" />
	</node>
	<node lat="70.5643889137357" lon="28.605899191385166" id="-40574">
		<tag k="name" v="Áhkkárgeaželáttu" />
		<tag k="name:se" v="Áhkkárgeaželáttu" />
		<tag k="natural" v="water" />
		<tag k="old_name:se" v="Akkargæželaddo" />
		<tag k="ssr:stedsnr" v="20316" />
	</node>
	<node lat="70.45556112926387" lon="28.3407242325689" id="-40576">
		<tag k="alt_name:no" v="Bjerkestrand" />
		<tag k="name" v="Birkestrand" />
		<tag k="name:no" v="Birkestrand" />
		<tag k="natural" v="beach" />
		<tag k="ssr:stedsnr" v="20790" />
	</node>
	<node lat="70.4527111321254" lon="28.524657502934225" id="-40577">
		<tag k="name" v="Geaidnojohka - Vegbekken" />
		<tag k="name:no" v="Vegbekken" />
		<tag k="name:se" v="Geaidnojohka" />
		<tag k="old_name:se" v="Gæidnujåkka" />
		<tag k="ssr:stedsnr" v="20791" />
		<tag k="waterway" v="stream" />
	</node>
	<node lat="70.04763613802065" lon="28.0337409053826" id="-40583">
		<tag k="name" v="Johkamohkki" />
		<tag k="name:se" v="Johkamohkki" />
		<tag k="natural" v="bay" />
		<tag k="ssr:stedsnr" v="34501" />
	</node>
	<node lat="70.0831139118604" lon="28.075935361421127" id="-40585">
		<tag k="name" v="Vuoksajohka" />
		<tag k="name:se" v="Vuoksajohka" />
		<tag k="ssr:stedsnr" v="34709" />
		<tag k="waterway" v="stream" />
	</node>
	<node lat="70.37081946663663" lon="28.22226313831265" id="-40587">
		<tag k="name" v="Sandlineset" />
		<tag k="name:no" v="Sandlineset" />
		<tag k="natural" v="cape" />
		<tag k="ssr:stedsnr" v="34799" />
	</node>
	<node lat="70.13580835918178" lon="28.200588094052613" id="-40589">
		<tag k="name" v="Bahánjárga" />
		<tag k="name:se" v="Bahánjárga" />
		<tag k="natural" v="cape" />
		<tag k="ssr:stedsnr" v="34815" />
	</node>
	<node lat="70.03527502238053" lon="28.046310341505855" id="-40593">
		<tag k="name" v="Riŋginjárga" />
		<tag k="name:se" v="Riŋginjárga" />
		<tag k="natural" v="cape" />
		<tag k="ssr:stedsnr" v="34870" />
	</node>
	<node lat="70.21470834503526" lon="27.106910620186746" id="-40601">
		<tag k="name" v="Goahteláttu" />
		<tag k="name:se" v="Goahteláttu" />
		<tag k="natural" v="water" />
		<tag k="old_name:se" v="Goatteladdo" />
		<tag k="ssr:stedsnr" v="80439" />
	</node>
	<node lat="70.04599723739994" lon="27.240143904055103" id="-40602">
		<tag k="name" v="Lávrabanjávri" />
		<tag k="name:se" v="Lávrabanjávri" />
		<tag k="natural" v="water" />
		<tag k="old_name:se" v="Lavrabanjavri" />
		<tag k="ssr:stedsnr" v="80490" />
	</node>
	<node lat="70.02420001950429" lon="27.526424379085924" id="-40603">
		<tag k="name" v="Jeagilveainuorri" />
		<tag k="name:se" v="Jeagilveainuorri" />
		<tag k="natural" v="strait" />
		<tag k="old_name:se" v="Jægilvæjnuorri" />
		<tag k="ssr:stedsnr" v="80491" />
	</node>
	<node lat="70.02780835079116" lon="27.333207754499778" id="-40604">
		<tag k="name" v="Suttesádjatjávrrit" />
		<tag k="name:se" v="Suttesádjatjávrrit" />
		<tag k="natural" v="water" />
		<tag k="old_name:se" v="Suddesaddjatjavrit" />
		<tag k="ssr:stedsnr" v="80494" />
		<tag k="water" v="lake" />
	</node>
	<node lat="70.02601668431338" lon="27.522671607577085" id="-40605">
		<tag k="name" v="Jeagilveaisuolu" />
		<tag k="name:se" v="Jeagilveaisuolu" />
		<tag k="old_name:se" v="Jægilvæjsuolo;Jeagelveajsuolu" />
		<tag k="place" v="islet" />
		<tag k="ssr:stedsnr" v="80495" />
	</node>
	<node lat="69.96465835900538" lon="28.08728532053762" id="-40606">
		<tag k="name" v="Vuovdejohka" />
		<tag k="name:se" v="Vuovdejohka" />
		<tag k="old_name:se" v="Vuovdejåkka" />
		<tag k="ssr:stedsnr" v="80793" />
		<tag k="waterway" v="river" />
	</node>
	<node lat="70.3487722405427" lon="28.1052437339576" id="-40608">
		<tag k="name" v="Guohcaláttu - Råttvann" />
		<tag k="name:no" v="Råttvann" />
		<tag k="name:se" v="Guohcaláttu" />
		<tag k="natural" v="water" />
		<tag k="old_name:se" v="Guoccaladdo" />
		<tag k="ssr:stedsnr" v="80843" />
	</node>
	<node lat="70.47278890318175" lon="28.02371878102988" id="-40609">
		<tag k="name" v="Goahkkebávttjávri" />
		<tag k="name:se" v="Goahkkebávttjávri" />
		<tag k="natural" v="water" />
		<tag k="old_name:se" v="Goakkebavtjavri" />
		<tag k="ssr:stedsnr" v="81010" />
	</node>
	<node lat="70.41953057256694" lon="27.929082667164984" id="-40611">
		<tag k="name" v="Báktejávri" />
		<tag k="name:se" v="Báktejávri" />
		<tag k="natural" v="water" />
		<tag k="old_name:se" v="Baktejavri" />
		<tag k="ssr:stedsnr" v="81105" />
		<tag k="water" v="lake" />
	</node>
	<node lat="70.42544168396424" lon="27.835227160780352" id="-40613">
		<tag k="name" v="Nissojohka - Neselva" />
		<tag k="name:no" v="Neselva" />
		<tag k="name:se" v="Nissojohka" />
		<tag k="old_name:se" v="Nissujåkka" />
		<tag k="ssr:stedsnr" v="81109" />
		<tag k="waterway" v="river" />
	</node>
	<node lat="70.27856113522513" lon="28.16827980345361" id="-40618">
		<tag k="name" v="Lievlanriddu" />
		<tag k="name:se" v="Lievlanriddu" />
		<tag k="natural" v="beach" />
		<tag k="old_name:se" v="Lievlanriddo" />
		<tag k="ssr:stedsnr" v="81841" />
	</node>
	<node lat="70.28369168914382" lon="28.09943815726567" id="-40621">
		<tag k="loc_name:fkv" v="Pekkaniemi" />
		<tag k="loc_name:no" v="Petterneset" />
		<tag k="name" v="Beakkánnjárga" />
		<tag k="name:se" v="Beakkánnjárga" />
		<tag k="natural" v="cape" />
		<tag k="ssr:stedsnr" v="95245" />
	</node>
	<node lat="70.24940835395739" lon="28.041999273128457" id="-40623">
		<tag k="name" v="Hossesuolu" />
		<tag k="name:se" v="Hossesuolu" />
		<tag k="place" v="islet" />
		<tag k="ssr:stedsnr" v="95317" />
	</node>
	<node lat="70.0895555825286" lon="28.10706312656777" id="-40625">
		<tag k="name" v="Issátgárggu" />
		<tag k="name:se" v="Issátgárggu" />
		<tag k="natural" v="beach" />
		<tag k="ssr:stedsnr" v="95706" />
	</node>
	<node lat="70.09398335654134" lon="28.11846313027077" id="-40626">
		<tag k="name" v="Geassegárggu" />
		<tag k="name:se" v="Geassegárggu" />
		<tag k="natural" v="beach" />
		<tag k="ssr:stedsnr" v="95709" />
	</node>
	<node lat="70.12126946790342" lon="28.163804763462064" id="-40627">
		<tag k="name" v="Árbanakjohka" />
		<tag k="name:se" v="Árbanakjohka" />
		<tag k="ssr:stedsnr" v="95720" />
		<tag k="waterway" v="stream" />
	</node>
	<node lat="70.13955558264601" lon="28.037196485991956" id="-40629">
		<tag k="name" v="Guorroláddot" />
		<tag k="name:se" v="Guorroláddot" />
		<tag k="natural" v="water" />
		<tag k="ssr:stedsnr" v="95809" />
	</node>
	<node lat="70.24000002385452" lon="28.217354781704223" id="-40632">
		<tag k="name" v="Luovvenjárga" />
		<tag k="name:se" v="Luovvenjárga" />
		<tag k="natural" v="cape" />
		<tag k="ssr:stedsnr" v="95978" />
	</node>
	<node lat="70.07770001790753" lon="27.674782678587395" id="-40637">
		<tag k="name" v="Geađgebuođđu" />
		<tag k="name:se" v="Geađgebuođđu" />
		<tag k="natural" v="shoal" />
		<tag k="place" v="locality" />
		<tag k="ssr:stedsnr" v="105337" />
	</node>
	<node lat="70.06124723621045" lon="27.071738375417794" id="-40643">
		<tag k="name" v="Gappatjohka" />
		<tag k="name:se" v="Gappatjohka" />
		<tag k="old_name:se" v="Gabbatjåkka" />
		<tag k="ssr:stedsnr" v="140464" />
		<tag k="waterway" v="stream" />
	</node>
	<node lat="69.9382972375982" lon="26.448994057867132" id="-40645">
		<tag k="name" v="Bihkkasavu" />
		<tag k="name:se" v="Bihkkasavu" />
		<tag k="old_name:se" v="Bikkasavo" />
		<tag k="ssr:stedsnr" v="140785" />
		<tag k="waterway" v="stream" />
	</node>
	<node lat="70.03005279919017" lon="28.047271460553002" id="-40652">
		<tag k="name" v="Searbajohka" />
		<tag k="name:se" v="Searbajohka" />
		<tag k="old_name:se" v="Særbajåkka" />
		<tag k="ssr:stedsnr" v="140940" />
		<tag k="waterway" v="stream" />
	</node>
	<node lat="70.41171668247017" lon="27.526410566202646" id="-40653">
		<tag k="name" v="Gurroskáidi" />
		<tag k="name:se" v="Gurroskáidi" />
		<tag k="natural" v="cape" />
		<tag k="old_name:se" v="Gurruskaidi" />
		<tag k="ssr:stedsnr" v="141188" />
	</node>
	<node lat="70.40467501700714" lon="28.3000186922909" id="-40655">
		<tag k="name" v="Hárreluoppal - Lombola" />
		<tag k="name:fkv" v="Lombola" />
		<tag k="name:se" v="Hárreluoppal" />
		<tag k="natural" v="water" />
		<tag k="old_name:se" v="Harreluobbal" />
		<tag k="ssr:stedsnr" v="141784" />
	</node>
	<node lat="70.3955694694379" lon="28.222402038977698" id="-40658">
		<tag k="name" v="Čáhcegárnjárga" />
		<tag k="name:se" v="Čáhcegárnjárga" />
		<tag k="natural" v="cape" />
		<tag k="old_name:se" v="Čaccegarnjarga" />
		<tag k="ssr:stedsnr" v="141792" />
	</node>
	<node lat="70.47121391381158" lon="28.940910151680118" id="-40659">
		<tag k="name" v="Fáhccabealjohka" />
		<tag k="name:se" v="Fáhccabealjohka" />
		<tag k="old_name:se" v="Faccabæljåkka" />
		<tag k="ssr:stedsnr" v="141938" />
		<tag k="waterway" v="river" />
	</node>
	<node lat="70.17878613244862" lon="28.21627143852405" id="-40665">
		<tag k="name" v="Gándajohka" />
		<tag k="name:se" v="Gándajohka" />
		<tag k="ssr:stedsnr" v="155296" />
		<tag k="waterway" v="stream" />
	</node>
	<node lat="70.16803891138308" lon="28.24171032464455" id="-40669">
		<tag k="name" v="Čáhceája" />
		<tag k="name:se" v="Čáhceája" />
		<tag k="natural" v="spring" />
		<tag k="ssr:stedsnr" v="155707" />
	</node>
	<node lat="70.08472502131642" lon="28.119065898455435" id="-40670">
		<tag k="name" v="Stohpojohka" />
		<tag k="name:se" v="Stohpojohka" />
		<tag k="ssr:stedsnr" v="155711" />
		<tag k="waterway" v="stream" />
	</node>
	<node lat="70.0598500262367" lon="28.062874254719134" id="-40675">
		<tag k="name" v="Vuolitnjavvi" />
		<tag k="name:se" v="Vuolitnjavvi" />
		<tag k="natural" v="water" />
		<tag k="ssr:stedsnr" v="155797" />
		<tag k="water" v="lake" />
	</node>
	<node lat="70.06103336094377" lon="28.06286870117244" id="-40676">
		<tag k="name" v="Báktemohkinjárga" />
		<tag k="name:se" v="Báktemohkinjárga" />
		<tag k="natural" v="cape" />
		<tag k="ssr:stedsnr" v="155799" />
	</node>
	<node lat="70.01457501588368" lon="26.75107734364223" id="-40679">
		<tag k="name" v="Báišjohka" />
		<tag k="name:se" v="Báišjohka" />
		<tag k="old_name:se" v="Baišjåkka" />
		<tag k="ssr:stedsnr" v="261425" />
		<tag k="waterway" v="river" />
	</node>
	<node lat="70.23079445779548" lon="27.170743950832485" id="-40680">
		<tag k="name" v="Bajimus Lavnnjosjávri" />
		<tag k="name:se" v="Bajimus Lavnnjosjávri" />
		<tag k="natural" v="water" />
		<tag k="old_name:se" v="Lavnjusjavri, bajimus" />
		<tag k="ssr:stedsnr" v="261433" />
	</node>
	<node lat="70.0060305843541" lon="28.087329771143363" id="-40682">
		<tag k="name" v="Lohkkaskáidi" />
		<tag k="name:se" v="Lohkkaskáidi" />
		<tag k="natural" v="cape" />
		<tag k="old_name:se" v="Låkkaskaidi" />
		<tag k="ssr:stedsnr" v="261793" />
	</node>
	<node lat="69.9544139052186" lon="27.278893885283022" id="-40683">
		<tag k="name" v="Gáhccátsuolu" />
		<tag k="name:se" v="Gáhccátsuolu" />
		<tag k="place" v="islet" />
		<tag k="ssr:stedsnr" v="261735" />
	</node>
	<node lat="70.5528055701568" lon="28.02661322566889" id="-40701">
		<tag k="name" v="Loksonjohka" />
		<tag k="name:se" v="Loksonjohka" />
		<tag k="old_name:se" v="Låksunjåkka" />
		<tag k="ssr:stedsnr" v="262379" />
		<tag k="waterway" v="stream" />
	</node>
	<node lat="70.14712224185566" lon="27.34962445966599" id="-40704">
		<tag k="name" v="Soavveljávri" />
		<tag k="name:se" v="Soavveljávri" />
		<tag k="natural" v="water" />
		<tag k="old_name:se" v="Soavveljavri" />
		<tag k="ssr:stedsnr" v="262474" />
	</node>
	<node lat="70.01235835859231" lon="28.232460291490504" id="-40706">
		<tag k="name" v="Roahkkeluoppal" />
		<tag k="name:se" v="Roahkkeluoppal" />
		<tag k="natural" v="water" />
		<tag k="old_name:se" v="Roakkeluobbal" />
		<tag k="ssr:stedsnr" v="262710" />
		<tag k="water" v="lake" />
	</node>
	<node lat="69.91843056879274" lon="27.016099492994808" id="-40710">
		<tag k="name" v="Čearretsuolu" />
		<tag k="name:se" v="Čearretsuolu" />
		<tag k="old_name:se" v="Čærretsuolo" />
		<tag k="place" v="islet" />
		<tag k="ssr:stedsnr" v="262826" />
	</node>
	<node lat="70.40418335346057" lon="28.23617702523721" id="-40711">
		<tag k="name" v="Hárrefielbmá" />
		<tag k="name:se" v="Hárrefielbmá" />
		<tag k="old_name:se" v="Harrefielbma" />
		<tag k="ssr:stedsnr" v="262838" />
		<tag k="waterway" v="stream" />
	</node>
	<node lat="70.10327224807489" lon="28.045910358614233" id="-40712">
		<tag k="name" v="Čearretláddot" />
		<tag k="name:se" v="Čearretláddot" />
		<tag k="natural" v="water" />
		<tag k="old_name:se" v="Čærretladdut" />
		<tag k="ssr:stedsnr" v="262915" />
	</node>
	<node lat="70.10300557535875" lon="28.082288138192066" id="-40713">
		<tag k="name" v="Trostenláttu" />
		<tag k="name:se" v="Trostenláttu" />
		<tag k="natural" v="water" />
		<tag k="old_name:se" v="Trostenladdo" />
		<tag k="ssr:stedsnr" v="262916" />
	</node>
	<node lat="70.09890002907055" lon="28.089243682392684" id="-40714">
		<tag k="name" v="Gáldoláttu" />
		<tag k="name:se" v="Gáldoláttu" />
		<tag k="natural" v="water" />
		<tag k="old_name:se" v="Galduladdo" />
		<tag k="ssr:stedsnr" v="262919" />
	</node>
	<node lat="70.34467224269842" lon="28.002510416352553" id="-40715">
		<tag k="loc_name:fkv" v="Kulpukkajärvi" />
		<tag k="loc_name:no" v="Gulbojokvann" />
		<tag k="name" v="Golggotjávri" />
		<tag k="name:se" v="Golggotjávri" />
		<tag k="natural" v="water" />
		<tag k="old_name:se" v="Gålgutjavri" />
		<tag k="ssr:stedsnr" v="262864" />
		<tag k="water" v="lake" />
	</node>
	<node lat="70.34077223669834" lon="27.739957720175756" id="-40716">
		<tag k="name" v="Vátneljárguotku" />
		<tag k="name:se" v="Vátneljárguotku" />
		<tag k="old_name:se" v="Vadneljarguuotko" />
		<tag k="place" v="locality" />
		<tag k="ssr:stedsnr" v="262866" />
	</node>
	<node lat="70.48307502456666" lon="29.05517676584789" id="-40717">
		<tag k="name" v="Nástejávri - Stjernevannet" />
		<tag k="name:no" v="Stjernevannet" />
		<tag k="name:se" v="Nástejávri" />
		<tag k="natural" v="water" />
		<tag k="old_name:se" v="Nastejavri" />
		<tag k="ssr:stedsnr" v="262961" />
		<tag k="water" v="lake" />
	</node>
	<node lat="70.08174169161978" lon="28.16004088736873" id="-40719">
		<tag k="name" v="Goikebatláddot" />
		<tag k="name:se" v="Goikebatláddot" />
		<tag k="natural" v="water" />
		<tag k="old_name:se" v="Gåikebatladdut" />
		<tag k="ssr:stedsnr" v="262929" />
	</node>
	<node lat="70.46887224038224" lon="27.747252172712614" id="-40720">
		<tag k="name" v="Dápmotláttu" />
		<tag k="name:se" v="Dápmotláttu" />
		<tag k="natural" v="water" />
		<tag k="old_name:se" v="Dabmutladdo" />
		<tag k="ssr:stedsnr" v="263010" />
		<tag k="water" v="lake" />
	</node>
	<node lat="70.21986946582238" lon="27.744041037991078" id="-40721">
		<tag k="name" v="Nihkejohka" />
		<tag k="name:se" v="Nihkejohka" />
		<tag k="old_name:se" v="Nikkejåkka" />
		<tag k="ssr:stedsnr" v="262969" />
		<tag k="waterway" v="stream" />
	</node>
	<node lat="69.88874723620604" lon="26.1521274282693" id="-40722">
		<tag k="name" v="Duolbaskáidi" />
		<tag k="name:se" v="Duolbaskáidi" />
		<tag k="natural" v="cape" />
		<tag k="old_name:se" v="Duolbaskaidi" />
		<tag k="ssr:stedsnr" v="262983" />
	</node>
	<node lat="69.9012555659188" lon="26.370502382302362" id="-40723">
		<tag k="name" v="Sáraskáidi" />
		<tag k="name:se" v="Sáraskáidi" />
		<tag k="natural" v="cape" />
		<tag k="old_name:se" v="Saraskaidi;Sáráskáidi" />
		<tag k="ssr:stedsnr" v="262985" />
	</node>
	<node lat="70.41648057486441" lon="28.2028937035521" id="-40729">
		<tag k="fixme" v="multiple name tags, choose one and add the other to alt_name" />
		<tag k="name" v="Bonjákasjohka;Stohpojohka - Bonakasbekken" />
		<tag k="name:no" v="Bonakasbekken" />
		<tag k="name:se" v="Bonjákasjohka;Stohpojohka" />
		<tag k="old_name:se" v="Ståppujåkka" />
		<tag k="ssr:stedsnr" v="263112" />
		<tag k="waterway" v="river" />
	</node>
	<node lat="70.42306946244369" lon="27.5814938713754" id="-40731">
		<tag k="name" v="Ámmonjávrrit" />
		<tag k="name:se" v="Ámmonjávrrit" />
		<tag k="natural" v="water" />
		<tag k="old_name:se" v="Ammunjavrit" />
		<tag k="ssr:stedsnr" v="263225" />
	</node>
	<node lat="70.46476390908083" lon="27.79404105633985" id="-40734">
		<tag k="name" v="Loavddajohka" />
		<tag k="name:se" v="Loavddajohka" />
		<tag k="old_name:se" v="Loavdajåkka" />
		<tag k="ssr:stedsnr" v="263558" />
		<tag k="waterway" v="river" />
	</node>
	<node lat="70.28484447058592" lon="28.15495481390617" id="-40736">
		<tag k="name" v="Máskejohsavu" />
		<tag k="name:se" v="Máskejohsavu" />
		<tag k="natural" v="water" />
		<tag k="old_name:se" v="Maskejåksavo" />
		<tag k="ssr:stedsnr" v="263820" />
		<tag k="water" v="lake" />
	</node>
	<node lat="70.28082780463974" lon="28.08110205030248" id="-40738">
		<tag k="loc_name:fkv" v="Haukijärvi" />
		<tag k="loc_name:no" v="Gjeddevannet" />
		<tag k="name" v="Hávgajávri" />
		<tag k="name:se" v="Hávgajávri" />
		<tag k="old_name:se" v="Havgajavri" />
		<tag k="place" v="locality" />
		<tag k="ssr:stedsnr" v="263832" />
	</node>
	<node lat="70.44568613462542" lon="28.417268649097853" id="-40739">
		<tag k="alt_name:no" v="Klokkarvannet, l;Lille Klokkervann" />
		<tag k="name" v="Uhca Dápmotjávri - Lille Klokkarvannet" />
		<tag k="name:no" v="Lille Klokkarvannet" />
		<tag k="name:se" v="Uhca Dápmotjávri" />
		<tag k="natural" v="water" />
		<tag k="old_name:se" v="Dabmutjavri ucca" />
		<tag k="ssr:stedsnr" v="263768" />
		<tag k="water" v="lake" />
	</node>
	<node lat="70.01100001147823" lon="26.666852359188322" id="-40743">
		<tag k="name" v="Lindovárjávri" />
		<tag k="name:se" v="Lindovárjávri" />
		<tag k="natural" v="water" />
		<tag k="old_name:se" v="Linduvarjavri" />
		<tag k="ssr:stedsnr" v="201398" />
	</node>
	<node lat="69.95901112831609" lon="26.783210658995426" id="-40746">
		<tag k="name" v="Biretjunsavu" />
		<tag k="name:se" v="Biretjunsavu" />
		<tag k="old_name:se" v="Biretjunsavo" />
		<tag k="place" v="locality" />
		<tag k="ssr:stedsnr" v="201793" />
	</node>
	<node lat="69.95188820700481" lon="26.569524399813766" id="-40747">
		<tag k="name" v="Badjegeavŋŋis" />
		<tag k="name:se" v="Badjegeavŋŋis" />
		<tag k="ssr:stedsnr" v="201795" />
		<tag k="waterway" v="rapids" />
	</node>
	<node lat="70.07851668541052" lon="27.731429899498163" id="-40748">
		<tag k="name" v="Jalvvijávri" />
		<tag k="name:se" v="Jalvvijávri" />
		<tag k="natural" v="water" />
		<tag k="old_name:se" v="Jalvijavri" />
		<tag k="ssr:stedsnr" v="201906" />
	</node>
	<node lat="70.21277502370643" lon="27.868196543533024" id="-40751">
		<tag k="name" v="Guovttejohnjálbmi" />
		<tag k="name:se" v="Guovttejohnjálbmi" />
		<tag k="natural" v="bay" />
		<tag k="old_name:se" v="Guovtejåknjalbmi" />
		<tag k="ssr:stedsnr" v="201956" />
	</node>
	<node lat="70.21038057526125" lon="27.75779657416921" id="-40752">
		<tag k="name" v="Uvjalátnjá" />
		<tag k="name:se" v="Uvjalátnjá" />
		<tag k="old_name:se" v="Uvjaladnja" />
		<tag k="ssr:stedsnr" v="201958" />
		<tag k="waterway" v="river" />
	</node>
	<node lat="69.93344169742888" lon="28.298854688795736" id="-40753">
		<tag k="name" v="Njallajávri" />
		<tag k="name:se" v="Njallajávri" />
		<tag k="natural" v="water" />
		<tag k="old_name:se" v="Njallajavri" />
		<tag k="ssr:stedsnr" v="201845" />
		<tag k="water" v="lake" />
	</node>
	<node lat="70.4773583530551" lon="27.904177145679476" id="-40755">
		<tag k="alt_name:se" v="Njierenjárjávri" />
		<tag k="name" v="Njierejávri" />
		<tag k="name:se" v="Njierejávri" />
		<tag k="natural" v="water" />
		<tag k="old_name:se" v="Njierejavri" />
		<tag k="ssr:stedsnr" v="202004" />
	</node>
	<node lat="70.47411946510842" lon="28.056615989463886" id="-40756">
		<tag k="fixme" v="multiple name tags, choose one and add the other to alt_name" />
		<tag k="loc_name:no" v="Klubbvann" />
		<tag k="name" v="Bogejávri - Trangvannet;Trangvann" />
		<tag k="name:no" v="Trangvannet;Trangvann" />
		<tag k="name:se" v="Bogejávri" />
		<tag k="natural" v="water" />
		<tag k="old_name:se" v="Bågejavri" />
		<tag k="ssr:stedsnr" v="202006" />
		<tag k="water" v="lake" />
	</node>
	<node lat="70.46543613012862" lon="28.047532659665247" id="-40757">
		<tag k="name" v="Doaresjohka" />
		<tag k="name:se" v="Doaresjohka" />
		<tag k="old_name:se" v="Doaresjåkka" />
		<tag k="ssr:stedsnr" v="202007" />
		<tag k="waterway" v="stream" />
	</node>
	<node lat="70.45958890925625" lon="27.768638290370355" id="-40758">
		<tag k="name" v="Loavddajávrrit" />
		<tag k="name:se" v="Loavddajávrrit" />
		<tag k="natural" v="water" />
		<tag k="old_name:se" v="Loavdajavrit" />
		<tag k="ssr:stedsnr" v="202009" />
		<tag k="water" v="lake" />
	</node>
	<node lat="70.43915557070149" lon="27.560193895132667" id="-40759">
		<tag k="name" v="Iešjohka" />
		<tag k="name:se" v="Iešjohka" />
		<tag k="old_name:se" v="Iešjåkka" />
		<tag k="ssr:stedsnr" v="202193" />
		<tag k="waterway" v="river" />
	</node>
	<node lat="70.57751668900532" lon="28.533657528139923" id="-40760">
		<tag k="name" v="Ruovda" />
		<tag k="name:se" v="Ruovda" />
		<tag k="ssr:stedsnr" v="202313" />
		<tag k="waterway" v="river" />
	</node>
	<node lat="70.32758057694086" lon="28.00801319077387" id="-40764">
		<tag k="name" v="Golggotjohka - Gulbojok - Kulpukanjoki" />
		<tag k="name:fkv" v="Kulpukanjoki" />
		<tag k="name:no" v="Gulbojok" />
		<tag k="name:se" v="Golggotjohka" />
		<tag k="old_name:se" v="Gålgutjåkka" />
		<tag k="ssr:stedsnr" v="202843" />
		<tag k="waterway" v="river" />
	</node>
	<node lat="70.20635279990307" lon="28.184282555717825" id="-40772">
		<tag k="name" v="Oaivedeatnu" />
		<tag k="name:se" v="Oaivedeatnu" />
		<tag k="natural" v="strait" />
		<tag k="ssr:stedsnr" v="216073" />
	</node>
	<node lat="70.41837502103317" lon="28.277060367882566" id="-40774">
		<tag k="name" v="Rødbergsonen" />
		<tag k="name:no" v="Rødbergsonen" />
		<tag k="natural" v="beach" />
		<tag k="ssr:stedsnr" v="216176" />
	</node>
	<node lat="70.09405002365239" lon="28.105596458576155" id="-40778">
		<tag k="name" v="Nikkegoatnil" />
		<tag k="name:se" v="Nikkegoatnil" />
		<tag k="natural" v="water" />
		<tag k="ssr:stedsnr" v="216711" />
		<tag k="water" v="lake" />
	</node>
	<node lat="69.95751390871924" lon="27.29264665515028" id="-40790">
		<tag k="name" v="Gáhccát" />
		<tag k="name:se" v="Gáhccát" />
		<tag k="natural" v="strait" />
		<tag k="ssr:stedsnr" v="453892" />
	</node>
	<node lat="69.93831113228987" lon="27.181893900624882" id="-40792">
		<tag k="name" v="Luosnjárguoika" />
		<tag k="name:se" v="Luosnjárguoika" />
		<tag k="ssr:stedsnr" v="453898" />
		<tag k="waterway" v="rapids" />
	</node>
	<node lat="70.18543335398701" lon="27.782904887425993" id="-40795">
		<tag k="name" v="Hánaskáidi" />
		<tag k="name:se" v="Hánaskáidi" />
		<tag k="natural" v="cape" />
		<tag k="old_name:se" v="Hanaskaidi" />
		<tag k="ssr:stedsnr" v="261945" />
	</node>
	<node lat="70.05246668759179" lon="27.124418922616808" id="-40796">
		<tag k="name" v="Čuonjájávrrit" />
		<tag k="name:se" v="Čuonjájávrrit" />
		<tag k="natural" v="water" />
		<tag k="old_name:se" v="Čuonjajavrit" />
		<tag k="ssr:stedsnr" v="262508" />
		<tag k="water" v="lake" />
	</node>
	<node lat="70.06787502160316" lon="27.214180022559777" id="-40797">
		<tag k="name" v="Njuorggánjávri" />
		<tag k="name:se" v="Njuorggánjávri" />
		<tag k="natural" v="water" />
		<tag k="old_name:se" v="Njuorganjavri" />
		<tag k="ssr:stedsnr" v="262509" />
	</node>
	<node lat="69.96323891144586" lon="28.098918650980814" id="-40798">
		<tag k="name" v="Roavvejohka" />
		<tag k="name:se" v="Roavvejohka" />
		<tag k="old_name:se" v="Roavvejåkka" />
		<tag k="ssr:stedsnr" v="262807" />
		<tag k="waterway" v="river" />
	</node>
	<node lat="70.10821668494165" lon="27.7378271141835" id="-40803">
		<tag k="name" v="Gárcojárluobbalat" />
		<tag k="name:se" v="Gárcojárluobbalat" />
		<tag k="natural" v="water" />
		<tag k="old_name:se" v="Garcujarluobbalat" />
		<tag k="ssr:stedsnr" v="262902" />
	</node>
	<node lat="70.10762223790226" lon="27.63978271312022" id="-40804">
		<tag k="name" v="Rávdojávri" />
		<tag k="name:se" v="Rávdojávri" />
		<tag k="natural" v="water" />
		<tag k="old_name:se" v="Ravdujavri" />
		<tag k="ssr:stedsnr" v="262906" />
	</node>
	<node lat="70.3125222438587" lon="28.403229729263685" id="-40811">
		<tag k="loc_name:fkv" v="Iso Hanajärvi" />
		<tag k="name" v="Stuorát Hánájávri" />
		<tag k="name:se" v="Stuorát Hánájávri" />
		<tag k="natural" v="water" />
		<tag k="old_name:se" v="Hanajavri, stuorat" />
		<tag k="ssr:stedsnr" v="263797" />
		<tag k="water" v="lake" />
	</node>
	<node lat="70.18821113837984" lon="28.19051589098461" id="-40815">
		<tag k="name" v="Sieiddáguoikkoaivi" />
		<tag k="name:se" v="Sieiddáguoikkoaivi" />
		<tag k="ssr:stedsnr" v="459100" />
		<tag k="waterway" v="rapids" />
	</node>
	<node lat="70.14893057639148" lon="28.077307596661434" id="-40819">
		<tag k="name" v="Hávganjárga" />
		<tag k="name:se" v="Hávganjárga" />
		<tag k="natural" v="cape" />
		<tag k="ssr:stedsnr" v="459199" />
	</node>
	<node lat="70.27911113251874" lon="28.089963171151204" id="-40820">
		<tag k="name" v="Hávganjavvi" />
		<tag k="name:se" v="Hávganjavvi" />
		<tag k="natural" v="water" />
		<tag k="ssr:stedsnr" v="459288" />
		<tag k="water" v="lake" />
	</node>
	<node lat="70.24823613676965" lon="28.183065923559397" id="-40822">
		<tag k="name" v="Luovttejohnjálbmi" />
		<tag k="name:se" v="Luovttejohnjálbmi" />
		<tag k="natural" v="bay" />
		<tag k="ssr:stedsnr" v="459401" />
	</node>
	<node lat="70.07281946661472" lon="28.01031869033537" id="-40823">
		<tag k="name" v="Buolbmátsavu" />
		<tag k="name:se" v="Buolbmátsavu" />
		<tag k="natural" v="water" />
		<tag k="ssr:stedsnr" v="459434" />
		<tag k="water" v="lake" />
	</node>
	<node lat="70.07820557761124" lon="28.132082556301214" id="-40825">
		<tag k="name" v="Mirkojohka" />
		<tag k="name:se" v="Mirkojohka" />
		<tag k="ssr:stedsnr" v="459632" />
		<tag k="waterway" v="stream" />
	</node>
	<node lat="70.06278891020939" lon="28.010535373326896" id="-40826">
		<tag k="name" v="Guorroláttu" />
		<tag k="name:se" v="Guorroláttu" />
		<tag k="natural" v="water" />
		<tag k="ssr:stedsnr" v="459485" />
		<tag k="water" v="pond" />
	</node>
	<node lat="70.4598889063808" lon="28.04628265545326" id="-40828">
		<tag k="name" v="Guovdirjohka" />
		<tag k="name:se" v="Guovdirjohka" />
		<tag k="ssr:stedsnr" v="276821" />
		<tag k="waterway" v="stream" />
	</node>
	<node lat="70.4724000174598" lon="28.304738151002116" id="-40830">
		<tag k="name" v="Berglandselva" />
		<tag k="name:no" v="Berglandselva" />
		<tag k="ssr:stedsnr" v="277123" />
		<tag k="waterway" v="stream" />
	</node>
	<node lat="70.37077780356418" lon="28.177577050629374" id="-40832">
		<tag k="name" v="Gállejohka" />
		<tag k="name:se" v="Gállejohka" />
		<tag k="ssr:stedsnr" v="277316" />
		<tag k="waterway" v="stream" />
	</node>
	<node lat="70.05613058248854" lon="28.04086036441422" id="-40836">
		<tag k="name" v="Vuolle-Riŋgi" />
		<tag k="name:se" v="Vuolle-Riŋgi" />
		<tag k="natural" v="cape" />
		<tag k="ssr:stedsnr" v="277814" />
	</node>
	<node lat="70.16535002779456" lon="28.148152020052972" id="-40839">
		<tag k="name" v="Doaresjohka" />
		<tag k="name:se" v="Doaresjohka" />
		<tag k="ssr:stedsnr" v="277988" />
		<tag k="waterway" v="stream" />
	</node>
	<node lat="70.08027224120148" lon="27.826307655598935" id="-40844">
		<tag k="name" v="Fanasgieddjohka" />
		<tag k="name:se" v="Fanasgieddjohka" />
		<tag k="ssr:stedsnr" v="287412" />
		<tag k="waterway" v="stream" />
	</node>
	<node lat="70.58122779383818" lon="28.11303821730122" id="-40850">
		<tag k="name" v="Manndraparelva" />
		<tag k="name:no" v="Manndraparelva" />
		<tag k="ssr:stedsnr" v="465789" />
		<tag k="waterway" v="river" />
	</node>
	<node lat="70.23407501770602" lon="27.598624408890863" id="-40851">
		<tag k="name" v="Áhkajávri" />
		<tag k="name:se" v="Áhkajávri" />
		<tag k="natural" v="water" />
		<tag k="old_name:se" v="Akkajavri" />
		<tag k="ssr:stedsnr" v="322429" />
		<tag k="water" v="lake" />
	</node>
	<node lat="70.2250361298048" lon="27.05959119414803" id="-40852">
		<tag k="name" v="Čeavrresluoppal" />
		<tag k="name:se" v="Čeavrresluoppal" />
		<tag k="natural" v="water" />
		<tag k="old_name:se" v="Čævresluobbal" />
		<tag k="ssr:stedsnr" v="322430" />
	</node>
	<node lat="70.0201305799646" lon="28.03485202474617" id="-40854">
		<tag k="name" v="Oaivvuš" />
		<tag k="name:se" v="Oaivvuš" />
		<tag k="natural" v="bay" />
		<tag k="old_name:se" v="Oaivoš" />
		<tag k="ssr:stedsnr" v="322810" />
	</node>
	<node lat="70.03692778943018" lon="26.56977735760767" id="-40861">
		<tag k="name" v="Borseskáidi" />
		<tag k="name:se" v="Borseskáidi" />
		<tag k="natural" v="cape" />
		<tag k="ssr:stedsnr" v="323411" />
	</node>
	<node lat="70.39452780509794" lon="28.592251920437494" id="-40866">
		<tag k="name" v="Rásseskáidi" />
		<tag k="name:se" v="Rásseskáidi" />
		<tag k="natural" v="cape" />
		<tag k="old_name:se" v="Rasseskaidi" />
		<tag k="ssr:stedsnr" v="323805" />
	</node>
	<node lat="70.39286669060803" lon="28.261054816876495" id="-40867">
		<tag k="name" v="Hárrejohgorži - Harelvfossen" />
		<tag k="name:no" v="Harelvfossen" />
		<tag k="name:se" v="Hárrejohgorži" />
		<tag k="natural" v="waterfall" />
		<tag k="old_name:se" v="Harrejåkgårži" />
		<tag k="ssr:stedsnr" v="323808" />
	</node>
	<node lat="70.09369169051539" lon="27.798371544563988" id="-40872">
		<tag k="name" v="Fanasgietteláddot" />
		<tag k="name:se" v="Fanasgietteláddot" />
		<tag k="natural" v="water" />
		<tag k="old_name:se" v="Fanasgieddeladdut" />
		<tag k="ssr:stedsnr" v="323906" />
	</node>
	<node lat="70.09422224322536" lon="27.87416597212061" id="-40874">
		<tag k="name" v="Gieddejohka" />
		<tag k="name:se" v="Gieddejohka" />
		<tag k="old_name:se" v="Gieddejåkka" />
		<tag k="ssr:stedsnr" v="323910" />
		<tag k="waterway" v="stream" />
	</node>
	<node lat="70.06304446959082" lon="28.10679368229252" id="-40875">
		<tag k="alt_name:se" v="Suolojávrrit" />
		<tag k="name" v="Suolojávri" />
		<tag k="name:se" v="Suolojávri" />
		<tag k="natural" v="water" />
		<tag k="old_name:se" v="Suolujavri" />
		<tag k="ssr:stedsnr" v="323927" />
		<tag k="water" v="lake" />
	</node>
	<node lat="70.28135002643278" lon="28.093096490415302" id="-40887">
		<tag k="loc_name:fkv" v="Tiiperinniemi" />
		<tag k="loc_name:no" v="Tibergneset" />
		<tag k="name" v="Tibernjárga" />
		<tag k="name:se" v="Tibernjárga" />
		<tag k="natural" v="cape" />
		<tag k="ssr:stedsnr" v="337304" />
	</node>
	<node lat="70.08660835441228" lon="27.974540945824142" id="-40893">
		<tag k="name" v="Sáttogávaš" />
		<tag k="name:se" v="Sáttogávaš" />
		<tag k="natural" v="cape" />
		<tag k="ssr:stedsnr" v="337519" />
	</node>
	<node lat="70.06515279672476" lon="28.02707426224596" id="-40896">
		<tag k="name" v="Máddjáláttu" />
		<tag k="name:se" v="Máddjáláttu" />
		<tag k="natural" v="water" />
		<tag k="ssr:stedsnr" v="337542" />
		<tag k="water" v="pond" />
	</node>
	<node lat="70.17031113192158" lon="28.301876968392147" id="-40897">
		<tag k="name" v="Skiippagurláddot" />
		<tag k="name:se" v="Skiippagurláddot" />
		<tag k="natural" v="water" />
		<tag k="ssr:stedsnr" v="337546" />
	</node>
	<node lat="70.07598613319374" lon="28.078952010677707" id="-40899">
		<tag k="name" v="Buolbmátnjálbmi" />
		<tag k="name:se" v="Buolbmátnjálbmi" />
		<tag k="natural" v="bay" />
		<tag k="ssr:stedsnr" v="337646" />
	</node>
	<node lat="70.05695836051567" lon="28.055735358916582" id="-40901">
		<tag k="name" v="Bajit Njavvinjárga" />
		<tag k="name:se" v="Bajit Njavvinjárga" />
		<tag k="natural" v="cape" />
		<tag k="ssr:stedsnr" v="337816" />
	</node>
	<node lat="70.02010002838608" lon="28.116849210923643" id="-40909">
		<tag k="name" v="Guolehisláttu" />
		<tag k="name:se" v="Guolehisláttu" />
		<tag k="natural" v="water" />
		<tag k="old_name:se" v="Guolehisladdo" />
		<tag k="ssr:stedsnr" v="382807" />
		<tag k="water" v="lake" />
	</node>
	<node lat="70.2174750170874" lon="27.250693922639687" id="-40913">
		<tag k="name" v="Látnajávri" />
		<tag k="name:se" v="Látnajávri" />
		<tag k="natural" v="water" />
		<tag k="old_name:se" v="Ladnajavri;Ladnujávri" />
		<tag k="ssr:stedsnr" v="383456" />
	</node>
	<node lat="70.08552224592331" lon="28.02906313500166" id="-40915">
		<tag k="name" v="Stuorraláttu" />
		<tag k="name:se" v="Stuorraláttu" />
		<tag k="natural" v="water" />
		<tag k="old_name:se" v="Stuorraladdo" />
		<tag k="ssr:stedsnr" v="383912" />
	</node>
	<node lat="70.06666113195644" lon="27.742235457020108" id="-40916">
		<tag k="name" v="Goavddesgurnjárga" />
		<tag k="name:se" v="Goavddesgurnjárga" />
		<tag k="natural" v="cape" />
		<tag k="old_name:se" v="Goavdesgurnjarga" />
		<tag k="ssr:stedsnr" v="383928" />
	</node>
	<node lat="69.99038612458921" lon="26.850105095662112" id="-40917">
		<tag k="name" v="Sámmotjávri" />
		<tag k="name:se" v="Sámmotjávri" />
		<tag k="natural" v="water" />
		<tag k="old_name:se" v="Sammutjavri" />
		<tag k="ssr:stedsnr" v="383951" />
	</node>
	<node lat="70.0064861317705" lon="27.237766115579458" id="-40918">
		<tag k="name" v="Buljusjohka" />
		<tag k="name:se" v="Buljusjohka" />
		<tag k="old_name:se" v="Bulljosjåkka" />
		<tag k="ssr:stedsnr" v="383954" />
		<tag k="waterway" v="stream" />
	</node>
	<node lat="70.23526113348143" lon="27.90716322099446" id="-40920">
		<tag k="name" v="Čoarveskáidi" />
		<tag k="name:se" v="Čoarveskáidi" />
		<tag k="natural" v="cape" />
		<tag k="old_name:se" v="Čoarveskaidi" />
		<tag k="ssr:stedsnr" v="383960" />
	</node>
	<node lat="70.121494464287" lon="28.13919089893958" id="-40922">
		<tag k="name" v="Fielbmajohka" />
		<tag k="name:se" v="Fielbmajohka" />
		<tag k="old_name:se" v="Fielbmajåkka" />
		<tag k="ssr:stedsnr" v="383890" />
		<tag k="waterway" v="stream" />
	</node>
	<node lat="70.10861391139163" lon="28.028763143964404" id="-40923">
		<tag k="name" v="Čearretjávrrit" />
		<tag k="name:se" v="Čearretjávrrit" />
		<tag k="natural" v="water" />
		<tag k="old_name:se" v="Čærretjavrit" />
		<tag k="ssr:stedsnr" v="383895" />
		<tag k="water" v="lake" />
	</node>
	<node lat="70.10224446831188" lon="27.676977129787932" id="-40924">
		<tag k="name" v="Fállenjoasjávri" />
		<tag k="name:se" v="Fállenjoasjávri" />
		<tag k="natural" v="water" />
		<tag k="old_name:se" v="Fallenjoasjavri" />
		<tag k="ssr:stedsnr" v="383900" />
		<tag k="water" v="lake" />
	</node>
	<node lat="70.46302501937106" lon="28.208777058807105" id="-40926">
		<tag k="name" v="Alggašjávri" />
		<tag k="name:se" v="Alggašjávri" />
		<tag k="natural" v="water" />
		<tag k="old_name:se" v="Algašjavri" />
		<tag k="ssr:stedsnr" v="384009" />
		<tag k="water" v="lake" />
	</node>
	<node lat="70.12992224771445" lon="27.794993775627855" id="-40927">
		<tag k="name" v="Hávgajávri" />
		<tag k="name:se" v="Hávgajávri" />
		<tag k="natural" v="water" />
		<tag k="old_name:se" v="Havgajavri" />
		<tag k="ssr:stedsnr" v="384000" />
	</node>
	<node lat="70.4110527986041" lon="28.023957659129866" id="-40928">
		<tag k="name" v="Suolojávri - Holmvann" />
		<tag k="name:no" v="Holmvann" />
		<tag k="name:se" v="Suolojávri" />
		<tag k="natural" v="water" />
		<tag k="old_name:se" v="Suolujavri" />
		<tag k="ssr:stedsnr" v="384103" />
		<tag k="water" v="lake" />
	</node>
	<node lat="70.2899277995976" lon="27.698524391141948" id="-40931">
		<tag k="name" v="Čiekkaluobbalat" />
		<tag k="name:se" v="Čiekkaluobbalat" />
		<tag k="natural" v="water" />
		<tag k="old_name:se" v="Čieggaluobbalat" />
		<tag k="ssr:stedsnr" v="384798" />
		<tag k="water" v="lake" />
	</node>
	<node lat="70.46043057524442" lon="28.58927416644113" id="-40932">
		<tag k="name" v="Miessejávri" />
		<tag k="name:se" v="Miessejávri" />
		<tag k="natural" v="water" />
		<tag k="old_name:se" v="Miessejavri" />
		<tag k="ssr:stedsnr" v="384846" />
	</node>
	<node lat="70.07631113466589" lon="27.987168703332483" id="-40945">
		<tag k="name" v="Girkoláttu" />
		<tag k="name:se" v="Girkoláttu" />
		<tag k="natural" v="water" />
		<tag k="ssr:stedsnr" v="398425" />
	</node>
	<node lat="70.15602502461853" lon="28.208754767619112" id="-40948">
		<tag k="name" v="Ruossagárggu" />
		<tag k="name:se" v="Ruossagárggu" />
		<tag k="natural" v="beach" />
		<tag k="ssr:stedsnr" v="398579" />
	</node>
	<node lat="70.07759724982802" lon="28.06864925524467" id="-40950">
		<tag k="name" v="Fanasgárggu" />
		<tag k="name:se" v="Fanasgárggu" />
		<tag k="natural" v="beach" />
		<tag k="ssr:stedsnr" v="398702" />
	</node>
	<node lat="70.05866946909667" lon="28.061982564075297" id="-40951">
		<tag k="name" v="Vuolit Njavvinjárga" />
		<tag k="name:se" v="Vuolit Njavvinjárga" />
		<tag k="natural" v="cape" />
		<tag k="ssr:stedsnr" v="398802" />
	</node>
	<node lat="70.06370557944118" lon="28.057907576857335" id="-40952">
		<tag k="name" v="Vuosttasnjárga" />
		<tag k="name:se" v="Vuosttasnjárga" />
		<tag k="natural" v="cape" />
		<tag k="ssr:stedsnr" v="398804" />
	</node>
	<node lat="70.1857500243683" lon="28.12825756810617" id="-40955">
		<tag k="fixme" v="multiple name tags, choose one and add the other to alt_name" />
		<tag k="name" v="Suotnju;Sieiddájohka" />
		<tag k="name:se" v="Suotnju;Sieiddájohka" />
		<tag k="ssr:stedsnr" v="398976" />
		<tag k="waterway" v="stream" />
	</node>
	<node lat="70.04637502251416" lon="28.049840907127102" id="-40958">
		<tag k="name" v="Beahcenjárga" />
		<tag k="name:se" v="Beahcenjárga" />
		<tag k="natural" v="cape" />
		<tag k="ssr:stedsnr" v="398885" />
	</node>
	<node lat="69.91720279443237" lon="27.0311300390114" id="-40966">
		<tag k="name" v="Guorroláttu" />
		<tag k="name:se" v="Guorroláttu" />
		<tag k="natural" v="water" />
		<tag k="ssr:stedsnr" v="408918" />
	</node>
	<node lat="69.93364446268319" lon="27.135560591044797" id="-40967">
		<tag k="name" v="Gollegoivvut" />
		<tag k="name:se" v="Gollegoivvut" />
		<tag k="natural" v="beach" />
		<tag k="ssr:stedsnr" v="409000" />
	</node>
	<node lat="69.93513334957994" lon="26.986546729769255" id="-40970">
		<tag k="name" v="Áiteguoika" />
		<tag k="name:se" v="Áiteguoika" />
		<tag k="old_name:se" v="Aiteguoika" />
		<tag k="ssr:stedsnr" v="444777" />
		<tag k="waterway" v="rapids" />
	</node>
	<node lat="69.93940557342485" lon="26.953980066949963" id="-40971">
		<tag k="alt_name:se" v="Goržán" />
		<tag k="name" v="Goržánnjavvi" />
		<tag k="name:se" v="Goržánnjavvi" />
		<tag k="old_name:se" v="Gåržannjavvi" />
		<tag k="ssr:stedsnr" v="444779" />
		<tag k="waterway" v="rapids" />
	</node>
	<node lat="69.96519446279082" lon="26.674005113267704" id="-40973">
		<tag k="name" v="Guorššnjárfávli" />
		<tag k="name:se" v="Guorššnjárfávli" />
		<tag k="old_name:se" v="Guoršnjarfavli" />
		<tag k="place" v="locality" />
		<tag k="ssr:stedsnr" v="444788" />
	</node>
	<node lat="70.10088613736863" lon="28.16591867504522" id="-40974">
		<tag k="name" v="Doaresjohka" />
		<tag k="name:se" v="Doaresjohka" />
		<tag k="old_name:se" v="Doaresjåkka" />
		<tag k="ssr:stedsnr" v="444903" />
		<tag k="waterway" v="stream" />
	</node>
	<node lat="70.09551668635018" lon="27.784032667508455" id="-40975">
		<tag k="loc_name:se" v="Erkkeláddot" />
		<tag k="name" v="Erkkejávrrit" />
		<tag k="name:se" v="Erkkejávrrit" />
		<tag k="natural" v="water" />
		<tag k="old_name:se" v="Erkejavrit" />
		<tag k="ssr:stedsnr" v="444906" />
	</node>
	<node lat="70.4016055716202" lon="27.923774347863475" id="-40982">
		<tag k="name" v="Snoallajávri" />
		<tag k="name:se" v="Snoallajávri" />
		<tag k="natural" v="water" />
		<tag k="old_name:se" v="Snoallajavri" />
		<tag k="ssr:stedsnr" v="445088" />
		<tag k="water" v="lake" />
	</node>
	<node lat="70.32706946572458" lon="28.412399181505272" id="-40986">
		<tag k="loc_name:fkv" v="Pieni Hanajärvi" />
		<tag k="name" v="Uhcit Hánájávri" />
		<tag k="name:se" v="Uhcit Hánájávri" />
		<tag k="natural" v="water" />
		<tag k="old_name:se" v="Hanajavri, uccit" />
		<tag k="ssr:stedsnr" v="445805" />
	</node>
	<node lat="70.49510545276318" lon="28.311912057642886" id="-40989">
		<tag k="alt_name:no" v="Langvann" />
		<tag k="name" v="Guhkesjávri - Langvannet" />
		<tag k="name:no" v="Langvannet" />
		<tag k="name:se" v="Guhkesjávri" />
		<tag k="natural" v="water" />
		<tag k="old_name:se" v="Gukkesjavri" />
		<tag k="ssr:stedsnr" v="445883" />
	</node>
	<node lat="70.14611669176516" lon="28.13319646009251" id="-40996">
		<tag k="name" v="Rássegáldot" />
		<tag k="name:se" v="Rássegáldot" />
		<tag k="natural" v="water" />
		<tag k="ssr:stedsnr" v="459007" />
		<tag k="water" v="lake" />
	</node>
	<node lat="70.19862225108952" lon="28.22527421922356" id="-40997">
		<tag k="name" v="Badjesaijohka" />
		<tag k="name:se" v="Badjesaijohka" />
		<tag k="ssr:stedsnr" v="458915" />
		<tag k="waterway" v="stream" />
	</node>
	<node lat="70.29373057368917" lon="28.200127032677145" id="-40999">
		<tag k="name" v="Biehtárjohka" />
		<tag k="name:se" v="Biehtárjohka" />
		<tag k="ssr:stedsnr" v="459274" />
		<tag k="waterway" v="river" />
	</node>
	<node lat="70.47930279868852" lon="28.375893678603397" id="-41000">
		<tag k="name" v="Kjosen" />
		<tag k="name:no" v="Kjosen" />
		<tag k="ssr:stedsnr" v="459320" />
		<tag k="waterway" v="stream" />
	</node>
	<node lat="70.01981390905875" lon="27.991585366332348" id="-41003">
		<tag k="name" v="Hánnogávvanjárga" />
		<tag k="name:se" v="Hánnogávvanjárga" />
		<tag k="natural" v="cape" />
		<tag k="ssr:stedsnr" v="459568" />
	</node>
	<node lat="70.07910835392536" lon="28.073046461498908" id="-41004">
		<tag k="name" v="Giddegárgot" />
		<tag k="name:se" v="Giddegárgot" />
		<tag k="natural" v="beach" />
		<tag k="ssr:stedsnr" v="459724" />
	</node>
	<node lat="70.01992779679472" lon="27.237288359145573" id="-41008">
		<tag k="name" v="Geahčoaijohka" />
		<tag k="name:se" v="Geahčoaijohka" />
		<tag k="ssr:stedsnr" v="468226" />
		<tag k="waterway" v="stream" />
	</node>
	<node lat="70.23943334569849" lon="27.231866147784647" id="-41016">
		<tag k="name" v="Čortnahanjávri - Haglvannet" />
		<tag k="name:no" v="Haglvannet" />
		<tag k="name:se" v="Čortnahanjávri" />
		<tag k="natural" v="water" />
		<tag k="old_name:se" v="Čårdnahanjavri" />
		<tag k="ssr:stedsnr" v="504421" />
		<tag k="water" v="lake" />
	</node>
	<node lat="70.06445557838485" lon="27.565791038688854" id="-41018">
		<tag k="name" v="Geavgŋoaisuolu - Fossholmen" />
		<tag k="name:no" v="Fossholmen" />
		<tag k="name:se" v="Geavgŋoaisuolu" />
		<tag k="place" v="islet" />
		<tag k="ssr:stedsnr" v="504475" />
	</node>
	<node lat="69.91252780481126" lon="28.350257450633364" id="-41019">
		<tag k="name" v="Bánnajávri" />
		<tag k="name:se" v="Bánnajávri" />
		<tag k="natural" v="water" />
		<tag k="old_name:se" v="Bannajavri" />
		<tag k="ssr:stedsnr" v="504871" />
		<tag k="water" v="lake" />
	</node>
	<node lat="69.97100835664824" lon="28.20181029505142" id="-41025">
		<tag k="name" v="Leaibejávri" />
		<tag k="name:se" v="Leaibejávri" />
		<tag k="natural" v="water" />
		<tag k="old_name:se" v="Læibejavri" />
		<tag k="ssr:stedsnr" v="504779" />
		<tag k="water" v="lake" />
	</node>
	<node lat="69.89558612244474" lon="26.407882948462255" id="-41026">
		<tag k="name" v="Galbmagálsavu" />
		<tag k="name:se" v="Galbmagálsavu" />
		<tag k="old_name:se" v="Galbmagalsavo" />
		<tag k="place" v="locality" />
		<tag k="ssr:stedsnr" v="504968" />
	</node>
	<node lat="69.87981112317249" lon="26.41197459449993" id="-41027">
		<tag k="name" v="Báđošsavu" />
		<tag k="name:se" v="Báđošsavu" />
		<tag k="old_name:se" v="Bađušsavo" />
		<tag k="place" v="locality" />
		<tag k="ssr:stedsnr" v="504971" />
	</node>
	<node lat="70.44388335573554" lon="28.169046504230717" id="-41030">
		<tag k="name" v="Hávgajávrrit" />
		<tag k="name:se" v="Hávgajávrrit" />
		<tag k="natural" v="water" />
		<tag k="old_name:se" v="Havgajavrit" />
		<tag k="ssr:stedsnr" v="505118" />
		<tag k="water" v="lake" />
	</node>
	<node lat="70.35696946774956" lon="28.199457596155803" id="-41032">
		<tag k="name" v="Dárrosuolu - Norskholmen" />
		<tag k="name:no" v="Norskholmen" />
		<tag k="name:se" v="Dárrosuolu" />
		<tag k="old_name:se" v="Darrusuolo" />
		<tag k="place" v="island" />
		<tag k="ssr:stedsnr" v="505074" />
	</node>
	<node lat="70.10715835629587" lon="28.145563099570236" id="-41035">
		<tag k="name" v="Leaibenjárga - Oldernes - Leppäniemi" />
		<tag k="name:fkv" v="Leppäniemi" />
		<tag k="name:no" v="Oldernes" />
		<tag k="name:se" v="Leaibenjárga" />
		<tag k="natural" v="cape" />
		<tag k="old_name:se" v="Læibenjarga" />
		<tag k="ssr:stedsnr" v="505869" />
	</node>
	<node lat="70.12011113253921" lon="27.856590977365872" id="-41036">
		<tag k="loc_name:se" v="Kohppavuolášláttu" />
		<tag k="name" v="Gohppavuolášláttu" />
		<tag k="name:se" v="Gohppavuolášláttu" />
		<tag k="natural" v="water" />
		<tag k="old_name:se" v="Gåppavuolašladdo" />
		<tag k="ssr:stedsnr" v="505871" />
	</node>
	<node lat="70.43531391597834" lon="28.463726966778058" id="-41037">
		<tag k="name" v="Geinnodatjohka" />
		<tag k="name:se" v="Geinnodatjohka" />
		<tag k="old_name:se" v="Geinudatjåkka" />
		<tag k="ssr:stedsnr" v="505763" />
		<tag k="waterway" v="stream" />
	</node>
	<node lat="70.41950279568889" lon="28.114324284539016" id="-41039">
		<tag k="name" v="Gáhkkorláddot" />
		<tag k="name:se" v="Gáhkkorláddot" />
		<tag k="natural" v="water" />
		<tag k="old_name:se" v="Gakkurladdut" />
		<tag k="ssr:stedsnr" v="506112" />
	</node>
	<node lat="70.44843890783461" lon="28.44873253411409" id="-41041">
		<tag k="name" v="Sáltejávri" />
		<tag k="name:se" v="Sáltejávri" />
		<tag k="natural" v="water" />
		<tag k="old_name:se" v="Saltejavri" />
		<tag k="ssr:stedsnr" v="506769" />
	</node>
	<node lat="70.0874805730496" lon="27.734752113413787" id="-41043">
		<tag k="name" v="Simsatája" />
		<tag k="name:se" v="Simsatája" />
		<tag k="natural" v="water" />
		<tag k="ssr:stedsnr" v="513780" />
	</node>
	<node lat="70.14110836022515" lon="28.199076986383606" id="-41044">
		<tag k="name" v="Áddjágárggu" />
		<tag k="name:se" v="Áddjágárggu" />
		<tag k="natural" v="beach" />
		<tag k="ssr:stedsnr" v="514906" />
	</node>
	<node lat="70.15073335843998" lon="28.192952002893975" id="-41045">
		<tag k="name" v="Guoikkaoaivi" />
		<tag k="name:se" v="Guoikkaoaivi" />
		<tag k="ssr:stedsnr" v="519008" />
		<tag k="waterway" v="rapids" />
	</node>
	<node lat="70.14760002616678" lon="28.186093660100482" id="-41046">
		<tag k="name" v="Nuorinjálbmi" />
		<tag k="name:se" v="Nuorinjálbmi" />
		<tag k="natural" v="bay" />
		<tag k="ssr:stedsnr" v="519106" />
	</node>
	<node lat="70.32169169140685" lon="28.172627038282975" id="-41047">
		<tag k="name" v="Suolovárláttu" />
		<tag k="name:se" v="Suolovárláttu" />
		<tag k="natural" v="water" />
		<tag k="ssr:stedsnr" v="519269" />
	</node>
	<node lat="70.27200280051467" lon="28.058771516310333" id="-41048">
		<tag k="name" v="Uhcanjárga" />
		<tag k="name:se" v="Uhcanjárga" />
		<tag k="natural" v="cape" />
		<tag k="ssr:stedsnr" v="519305" />
	</node>
	<node lat="70.27372780017767" lon="28.066118730080824" id="-41049">
		<tag k="name" v="Niitovuohppi" />
		<tag k="name:se" v="Niitovuohppi" />
		<tag k="natural" v="bay" />
		<tag k="ssr:stedsnr" v="519308" />
	</node>
	<node lat="70.28280002502703" lon="28.106090950551796" id="-41050">
		<tag k="name" v="Ávggostnjárga" />
		<tag k="name:se" v="Ávggostnjárga" />
		<tag k="natural" v="cape" />
		<tag k="ssr:stedsnr" v="519310" />
	</node>
	<node lat="70.08636668966435" lon="27.887685397175662" id="-41053">
		<tag k="name" v="Giedderiddu" />
		<tag k="name:se" v="Giedderiddu" />
		<tag k="natural" v="beach" />
		<tag k="ssr:stedsnr" v="519519" />
	</node>
	<node lat="70.09050836212212" lon="27.97291871372425" id="-41054">
		<tag k="name" v="Njallavárriddu" />
		<tag k="name:se" v="Njallavárriddu" />
		<tag k="natural" v="beach" />
		<tag k="ssr:stedsnr" v="519523" />
	</node>
	<node lat="70.48310835216392" lon="28.02078266128217" id="-41059">
		<tag k="name" v="Šearesgieddláttu" />
		<tag k="name:se" v="Šearesgieddláttu" />
		<tag k="natural" v="water" />
		<tag k="ssr:stedsnr" v="519774" />
	</node>
	<node lat="70.1123639114827" lon="28.131482550180436" id="-41064">
		<tag k="name" v="Ballonuorri" />
		<tag k="name:se" v="Ballonuorri" />
		<tag k="natural" v="water" />
		<tag k="ssr:stedsnr" v="519968" />
		<tag k="water" v="pond" />
	</node>
	<node lat="70.11763613860946" lon="28.159774225739802" id="-41065">
		<tag k="name" v="Hávgaláttu" />
		<tag k="name:se" v="Hávgaláttu" />
		<tag k="natural" v="water" />
		<tag k="ssr:stedsnr" v="519970" />
	</node>
	<node lat="70.11193891561868" lon="28.15536033344634" id="-41066">
		<tag k="name" v="Ruostojohka" />
		<tag k="name:se" v="Ruostojohka" />
		<tag k="ssr:stedsnr" v="519971" />
		<tag k="waterway" v="stream" />
	</node>
	<node lat="70.11734169232987" lon="28.13887423262304" id="-41067">
		<tag k="name" v="Goržetjohka" />
		<tag k="name:se" v="Goržetjohka" />
		<tag k="ssr:stedsnr" v="519972" />
		<tag k="waterway" v="stream" />
	</node>
	<node lat="69.92496946500442" lon="27.005141165746146" id="-41069">
		<tag k="name" v="Lumbongeađgi" />
		<tag k="name:se" v="Lumbongeađgi" />
		<tag k="natural" v="shoal" />
		<tag k="place" v="locality" />
		<tag k="ssr:stedsnr" v="529907" />
	</node>
	<node lat="69.96191390595841" lon="26.65107735798715" id="-41071">
		<tag k="name" v="Šumpu" />
		<tag k="name:se" v="Šumpu" />
		<tag k="place" v="locality" />
		<tag k="ssr:stedsnr" v="529893" />
	</node>
	<node lat="70.13152779173203" lon="27.33392445021689" id="-41072">
		<tag k="name" v="Deavkkehanjohka" />
		<tag k="name:se" v="Deavkkehanjohka" />
		<tag k="old_name:se" v="Dævkehanjåkka" />
		<tag k="ssr:stedsnr" v="686463" />
		<tag k="waterway" v="river" />
	</node>
	<node lat="70.0206194737205" lon="28.15991310396757" id="-41076">
		<tag k="name" v="Čoarvegáldu" />
		<tag k="name:se" v="Čoarvegáldu" />
		<tag k="natural" v="water" />
		<tag k="old_name:se" v="Čoarvegaldo" />
		<tag k="ssr:stedsnr" v="686808" />
	</node>
	<node lat="70.02947225085352" lon="28.32719638549695" id="-41077">
		<tag k="name" v="Savetjávrrit" />
		<tag k="name:se" v="Savetjávrrit" />
		<tag k="natural" v="water" />
		<tag k="old_name:se" v="Savetjavrit" />
		<tag k="ssr:stedsnr" v="686713" />
		<tag k="water" v="lake" />
	</node>
	<node lat="69.96486391983339" lon="28.271915826009387" id="-41079">
		<tag k="name" v="Lavttajávri" />
		<tag k="name:se" v="Lavttajávri" />
		<tag k="natural" v="water" />
		<tag k="old_name:se" v="Lavtajavri" />
		<tag k="ssr:stedsnr" v="686750" />
		<tag k="water" v="lake" />
	</node>
	<node lat="69.95732501999458" lon="27.202407794658377" id="-41081">
		<tag k="name" v="Luosnjárjohka" />
		<tag k="name:se" v="Luosnjárjohka" />
		<tag k="ssr:stedsnr" v="686756" />
		<tag k="waterway" v="river" />
	</node>
	<node lat="69.90252501456628" lon="26.272991296717837" id="-41083">
		<tag k="name" v="Uhcaskáidi" />
		<tag k="name:se" v="Uhcaskáidi" />
		<tag k="natural" v="cape" />
		<tag k="old_name:se" v="Uccaskaidi" />
		<tag k="ssr:stedsnr" v="686968" />
	</node>
	<node lat="70.16056390937258" lon="27.88026598599465" id="-41085">
		<tag k="name" v="Cevnniidjohka" />
		<tag k="name:se" v="Cevnniidjohka" />
		<tag k="old_name:se" v="Cevniidjåkka" />
		<tag k="ssr:stedsnr" v="686972" />
		<tag k="waterway" v="stream" />
	</node>
	<node lat="70.14668891090888" lon="28.02888538996888" id="-41088">
		<tag k="name" v="Ádjagašjohka" />
		<tag k="name:se" v="Ádjagašjohka" />
		<tag k="old_name:se" v="Addjagašjåkka" />
		<tag k="ssr:stedsnr" v="686982" />
		<tag k="waterway" v="stream" />
	</node>
	<node lat="69.92430001506384" lon="26.270944088690147" id="-41089">
		<tag k="name" v="Geaidnoskáidi" />
		<tag k="name:se" v="Geaidnoskáidi" />
		<tag k="natural" v="cape" />
		<tag k="old_name:se" v="Gæidnuskaidi" />
		<tag k="ssr:stedsnr" v="686983" />
	</node>
	<node lat="70.29737501445712" lon="27.44258000443579" id="-41091">
		<tag k="name" v="Lođejohka" />
		<tag k="name:se" v="Lođejohka" />
		<tag k="old_name:se" v="Låđejåkka" />
		<tag k="ssr:stedsnr" v="687024" />
		<tag k="waterway" v="river" />
	</node>
	<node lat="70.32609168463418" lon="27.459082788844906" id="-41093">
		<tag k="name" v="Báhčasanláddot" />
		<tag k="name:se" v="Báhčasanláddot" />
		<tag k="natural" v="water" />
		<tag k="old_name:se" v="Baččasanladdut" />
		<tag k="ssr:stedsnr" v="687065" />
		<tag k="water" v="lake" />
	</node>
	<node lat="70.37005557255314" lon="27.795688266558514" id="-41095">
		<tag k="name" v="Uhca Nissojávrráš" />
		<tag k="name:se" v="Uhca Nissojávrráš" />
		<tag k="natural" v="water" />
		<tag k="old_name:se" v="Nissujavraš, ucca" />
		<tag k="ssr:stedsnr" v="687071" />
		<tag k="water" v="lake" />
	</node>
	<node lat="70.12822223768082" lon="26.97431342305667" id="-41103">
		<tag k="name" v="Roancejávrrit" />
		<tag k="name:se" v="Roancejávrrit" />
		<tag k="natural" v="water" />
		<tag k="old_name:se" v="Roancejavrit" />
		<tag k="ssr:stedsnr" v="687401" />
		<tag k="water" v="lake" />
	</node>
	<node lat="70.51080834740053" lon="27.682429991352762" id="-41105">
		<tag k="name" v="Beatnatjávri" />
		<tag k="name:se" v="Beatnatjávri" />
		<tag k="natural" v="water" />
		<tag k="old_name:se" v="Bædnatjavri" />
		<tag k="ssr:stedsnr" v="687373" />
		<tag k="water" v="lake" />
	</node>
	<node lat="70.00672223236828" lon="26.59243569349882" id="-41107">
		<tag k="name" v="Stuorroaijávrrit" />
		<tag k="name:se" v="Stuorroaijávrrit" />
		<tag k="natural" v="water" />
		<tag k="ssr:stedsnr" v="687413" />
		<tag k="water" v="lake" />
	</node>
	<node lat="70.075630577422" lon="27.59286326125601" id="-41108">
		<tag k="name" v="Áitejohka" />
		<tag k="name:se" v="Áitejohka" />
		<tag k="old_name:se" v="Aitejåkka" />
		<tag k="ssr:stedsnr" v="687469" />
		<tag k="waterway" v="stream" />
	</node>
	<node lat="70.04115001603242" lon="27.351488308926974" id="-41110">
		<tag k="name" v="Beajalgŋájávri" />
		<tag k="name:se" v="Beajalgŋájávri" />
		<tag k="natural" v="water" />
		<tag k="old_name:se" v="Bæjalgŋajavri" />
		<tag k="ssr:stedsnr" v="687484" />
	</node>
	<node lat="70.41402779547387" lon="27.473102247504688" id="-41111">
		<tag k="name" v="Gurrojohka" />
		<tag k="name:se" v="Gurrojohka" />
		<tag k="old_name:se" v="Gurrujåkka" />
		<tag k="ssr:stedsnr" v="687548" />
		<tag k="waterway" v="river" />
	</node>
	<node lat="70.3008694687726" lon="28.41565196544005" id="-41112">
		<tag k="name" v="Njálgája" />
		<tag k="name:se" v="Njálgája" />
		<tag k="old_name:se" v="Njalgaja" />
		<tag k="ssr:stedsnr" v="687800" />
		<tag k="waterway" v="stream" />
	</node>
	<node lat="70.42551946310469" lon="28.28609925461098" id="-41115">
		<tag k="alt_name:no" v="Raudbergnes" />
		<tag k="loc_name:se" v="Ruoksadasnjárga" />
		<tag k="name" v="Rødbergnes" />
		<tag k="name:no" v="Rødbergnes" />
		<tag k="natural" v="cape" />
		<tag k="ssr:stedsnr" v="687766" />
	</node>
	<node lat="70.42139169070383" lon="28.33400756597841" id="-41116">
		<tag k="alt_name:no" v="Harrevann" />
		<tag k="name" v="Hárrejávri - Harrvannet" />
		<tag k="name:no" v="Harrvannet" />
		<tag k="name:se" v="Hárrejávri" />
		<tag k="natural" v="water" />
		<tag k="old_name:se" v="Harrejavri" />
		<tag k="ssr:stedsnr" v="687769" />
		<tag k="water" v="lake" />
	</node>
	<node lat="69.97434446104853" lon="26.680727345816145" id="-41117">
		<tag k="alt_name:se" v="Njuollageinnošája" />
		<tag k="name" v="Njallageinnošája" />
		<tag k="name:se" v="Njallageinnošája" />
		<tag k="old_name:se" v="Njallageinušaja" />
		<tag k="ssr:stedsnr" v="687806" />
		<tag k="waterway" v="stream" />
	</node>
	<node lat="69.96151668323898" lon="26.481344039844146" id="-41118">
		<tag k="name" v="Boahkkojávri" />
		<tag k="name:se" v="Boahkkojávri" />
		<tag k="natural" v="water" />
		<tag k="old_name:se" v="Boakkujavri" />
		<tag k="ssr:stedsnr" v="687807" />
	</node>
	<node lat="69.95009168034667" lon="26.446238501683222" id="-41119">
		<tag k="name" v="Suhpeája" />
		<tag k="name:se" v="Suhpeája" />
		<tag k="old_name:se" v="Suppeaja" />
		<tag k="ssr:stedsnr" v="687808" />
		<tag k="waterway" v="stream" />
	</node>
	<node lat="69.95551668189428" lon="26.693268996769365" id="-41121">
		<tag k="name" v="Báđđaguoika" />
		<tag k="name:se" v="Báđđaguoika" />
		<tag k="natural" v="waterfall" />
		<tag k="old_name:se" v="Bađđaguoika" />
		<tag k="ssr:stedsnr" v="687810" />
	</node>
	<node lat="69.95536112224217" lon="26.473941260959137" id="-41122">
		<tag k="name" v="Divreláddot" />
		<tag k="name:se" v="Divreláddot" />
		<tag k="natural" v="water" />
		<tag k="old_name:se" v="Divreladdut" />
		<tag k="ssr:stedsnr" v="687811" />
	</node>
	<node lat="70.29363890983349" lon="28.10829926482393" id="-41124">
		<tag k="name" v="Gáhkkorláttu" />
		<tag k="name:se" v="Gáhkkorláttu" />
		<tag k="natural" v="water" />
		<tag k="old_name:se" v="Gakkurladdo" />
		<tag k="ssr:stedsnr" v="687823" />
	</node>
	<node lat="70.09846113730751" lon="27.979293714022784" id="-41125">
		<tag k="name" v="Mártenjohka" />
		<tag k="name:se" v="Mártenjohka" />
		<tag k="old_name:se" v="Martenjåkka" />
		<tag k="ssr:stedsnr" v="687898" />
		<tag k="waterway" v="stream" />
	</node>
	<node lat="70.0872028012946" lon="28.1045408961694" id="-41129">
		<tag k="name" v="Álletnjárga" />
		<tag k="name:se" v="Álletnjárga" />
		<tag k="natural" v="cape" />
		<tag k="old_name:se" v="Alletnjarga" />
		<tag k="ssr:stedsnr" v="687910" />
	</node>
	<node lat="70.47489447304734" lon="29.224129490548556" id="-41134">
		<tag k="name" v="Oarddojávri - Ortojärvi" />
		<tag k="name:fkv" v="Ortojärvi" />
		<tag k="name:se" v="Oarddojávri" />
		<tag k="natural" v="water" />
		<tag k="old_name:se" v="Oardujavri" />
		<tag k="ssr:stedsnr" v="687952" />
		<tag k="water" v="lake" />
	</node>
	<node lat="70.49409169645921" lon="29.06268788015669" id="-41135">
		<tag k="name" v="Nástejohka" />
		<tag k="name:se" v="Nástejohka" />
		<tag k="old_name:se" v="Nastejåkka" />
		<tag k="ssr:stedsnr" v="687956" />
		<tag k="waterway" v="river" />
	</node>
	<node lat="70.25480182752335" lon="28.288252580596623" id="-41136">
		<tag k="loc_name:fkv" v="Kurkkio" />
		<tag k="loc_name:no" v="Kursio" />
		<tag k="loc_name:se" v="Gorži" />
		<tag k="name" v="Luovttejohgorži" />
		<tag k="name:se" v="Luovttejohgorži" />
		<tag k="natural" v="waterfall" />
		<tag k="old_name:se" v="Luovtejåkgårži" />
		<tag k="ssr:stedsnr" v="687964" />
	</node>
	<node lat="70.27631669105139" lon="28.336504745448355" id="-41137">
		<tag k="name" v="Govdagáljohka - Vegneselva" />
		<tag k="name:no" v="Vegneselva" />
		<tag k="name:se" v="Govdagáljohka" />
		<tag k="old_name:se" v="Gåvdagaljåkka" />
		<tag k="ssr:stedsnr" v="687973" />
		<tag k="waterway" v="river" />
	</node>
	<node lat="70.40133890764334" lon="28.043118766258168" id="-41138">
		<tag k="loc_name:no" v="Blomstervann" />
		<tag k="name" v="Guovžaleageláttu" />
		<tag k="name:se" v="Guovžaleageláttu" />
		<tag k="natural" v="water" />
		<tag k="old_name:se" v="Guovžalægeladdo" />
		<tag k="ssr:stedsnr" v="688076" />
	</node>
	<node lat="70.01136391378871" lon="28.166313084908754" id="-41143">
		<tag k="name" v="Juovvagáldu" />
		<tag k="name:se" v="Juovvagáldu" />
		<tag k="natural" v="water" />
		<tag k="old_name:se" v="Juovvagaldo" />
		<tag k="ssr:stedsnr" v="564821" />
		<tag k="water" v="lake" />
	</node>
	<node lat="70.17466946460767" lon="28.12893813750026" id="-41145">
		<tag k="name" v="Sieiddájohka" />
		<tag k="name:se" v="Sieiddájohka" />
		<tag k="old_name:se" v="Sieidajåkka" />
		<tag k="ssr:stedsnr" v="564973" />
		<tag k="waterway" v="river" />
	</node>
	<node lat="70.16362502544206" lon="28.12647424396266" id="-41146">
		<tag k="alt_name:se" v="Sieiddáláttu;Sieiddájohláttu" />
		<tag k="name" v="Uhcit Sieiddáláddot" />
		<tag k="name:se" v="Uhcit Sieiddáláddot" />
		<tag k="natural" v="water" />
		<tag k="old_name:se" v="Sieidaladdut, uccit" />
		<tag k="ssr:stedsnr" v="564974" />
	</node>
	<node lat="70.36061390591424" lon="27.929502106000353" id="-41147">
		<tag k="name" v="Čearretjávri" />
		<tag k="name:se" v="Čearretjávri" />
		<tag k="natural" v="water" />
		<tag k="old_name:se" v="Čærretjavri" />
		<tag k="ssr:stedsnr" v="565068" />
		<tag k="water" v="lake" />
	</node>
	<node lat="69.95999446135882" lon="26.855296758851633" id="-41150">
		<tag k="name" v="Geađggášguoika" />
		<tag k="name:se" v="Geađggášguoika" />
		<tag k="natural" v="waterfall" />
		<tag k="old_name:se" v="Gæđgašguoika" />
		<tag k="ssr:stedsnr" v="565811" />
	</node>
	<node lat="70.4067972438946" lon="28.607257480576994" id="-41151">
		<tag k="name" v="Basávžžejohka" />
		<tag k="name:se" v="Basávžžejohka" />
		<tag k="old_name:se" v="Basavžejåkka" />
		<tag k="ssr:stedsnr" v="565812" />
		<tag k="waterway" v="river" />
	</node>
	<node lat="70.09531668568205" lon="27.625393812324443" id="-41154">
		<tag k="name" v="Dávlunjávri" />
		<tag k="name:se" v="Dávlunjávri" />
		<tag k="natural" v="water" />
		<tag k="old_name:se" v="Davlonjavri" />
		<tag k="ssr:stedsnr" v="565894" />
		<tag k="water" v="lake" />
	</node>
	<node lat="70.12936946474525" lon="27.6631993568586" id="-41156">
		<tag k="name" v="Ciikojohgoržžit" />
		<tag k="name:se" v="Ciikojohgoržžit" />
		<tag k="natural" v="waterfall" />
		<tag k="old_name:se" v="Ciikujåkgåržit" />
		<tag k="ssr:stedsnr" v="566000" />
	</node>
	<node lat="70.45360834807927" lon="27.725879963976684" id="-41157">
		<tag k="name" v="Dážajohka" />
		<tag k="name:se" v="Dážajohka" />
		<tag k="old_name:se" v="Dažajåkka" />
		<tag k="ssr:stedsnr" v="566121" />
		<tag k="waterway" v="river" />
	</node>
	<node lat="70.48912780010032" lon="28.316263128548496" id="-41158">
		<tag k="loc_name:se" v="Guollejávri" />
		<tag k="name" v="Jiekŋaláttu - Isvannet" />
		<tag k="name:no" v="Isvannet" />
		<tag k="name:se" v="Jiekŋaláttu" />
		<tag k="natural" v="water" />
		<tag k="old_name:se" v="Jiegŋaladdo" />
		<tag k="ssr:stedsnr" v="566877" />
	</node>
	<node lat="70.02214446722735" lon="27.997338148703786" id="-41162">
		<tag k="name" v="Bieramohkki" />
		<tag k="name:se" v="Bieramohkki" />
		<tag k="natural" v="bay" />
		<tag k="ssr:stedsnr" v="574957" />
	</node>
	<node lat="70.03970835548488" lon="28.056643671139582" id="-41178">
		<tag k="name" v="Vuolit Suddebáiki" />
		<tag k="name:se" v="Vuolit Suddebáiki" />
		<tag k="natural" v="water" />
		<tag k="ssr:stedsnr" v="696937" />
		<tag k="water" v="lake" />
	</node>
	<node lat="70.03603335505217" lon="28.053460356580363" id="-41179">
		<tag k="name" v="Bajit Suddebáiki" />
		<tag k="name:se" v="Bajit Suddebáiki" />
		<tag k="natural" v="water" />
		<tag k="ssr:stedsnr" v="696940" />
		<tag k="water" v="lake" />
	</node>
	<node lat="70.06890835162866" lon="27.494627165752938" id="-41182">
		<tag k="name" v="Ládjoája" />
		<tag k="name:se" v="Ládjoája" />
		<tag k="ssr:stedsnr" v="590268" />
		<tag k="waterway" v="stream" />
	</node>
	<node lat="70.07532780221322" lon="27.619146590093617" id="-41183">
		<tag k="name" v="Geavgŋoaivi" />
		<tag k="name:se" v="Geavgŋoaivi" />
		<tag k="ssr:stedsnr" v="590319" />
		<tag k="waterway" v="rapids" />
	</node>
	<node lat="70.1866000227112" lon="28.22882420622521" id="-41192">
		<tag k="name" v="Stihkrennajohka" />
		<tag k="name:se" v="Stihkrennajohka" />
		<tag k="ssr:stedsnr" v="701398" />
		<tag k="waterway" v="stream" />
	</node>
	<node lat="70.17266946817172" lon="28.298040847133908" id="-41200">
		<tag k="name" v="Guollejávri" />
		<tag k="name:se" v="Guollejávri" />
		<tag k="natural" v="water" />
		<tag k="ssr:stedsnr" v="701586" />
	</node>
	<node lat="70.04091668842068" lon="28.03404370185554" id="-41202">
		<tag k="name" v="Boaresfávlenjárga" />
		<tag k="name:se" v="Boaresfávlenjárga" />
		<tag k="natural" v="cape" />
		<tag k="ssr:stedsnr" v="701595" />
	</node>
	<node lat="70.11817502850425" lon="28.16169921558261" id="-41207">
		<tag k="name" v="Jávrrijohka" />
		<tag k="name:se" v="Jávrrijohka" />
		<tag k="ssr:stedsnr" v="701947" />
		<tag k="waterway" v="stream" />
	</node>
	<node lat="70.11591391505584" lon="28.143652015992725" id="-41209">
		<tag k="name" v="Pier-Ándarasjohka" />
		<tag k="name:se" v="Pier-Ándarasjohka" />
		<tag k="ssr:stedsnr" v="701953" />
		<tag k="waterway" v="stream" />
	</node>
	<node lat="70.11274168704746" lon="27.08389672211235" id="-41211">
		<tag k="name" v="Guollejávri" />
		<tag k="name:se" v="Guollejávri" />
		<tag k="natural" v="water" />
		<tag k="old_name:se" v="Guollejavri" />
		<tag k="ssr:stedsnr" v="625455" />
	</node>
	<node lat="70.25602501310271" lon="27.2411494977867" id="-41213">
		<tag k="name" v="Guorgajohka" />
		<tag k="name:se" v="Guorgajohka" />
		<tag k="ssr:stedsnr" v="626062" />
		<tag k="waterway" v="river" />
	</node>
	<node lat="70.44015001617568" lon="28.079621528568417" id="-41214">
		<tag k="name" v="Rihtáláttu" />
		<tag k="name:se" v="Rihtáláttu" />
		<tag k="natural" v="water" />
		<tag k="old_name:se" v="Rittaladdo" />
		<tag k="ssr:stedsnr" v="626150" />
		<tag k="water" v="lake" />
	</node>
	<node lat="70.33203890898173" lon="27.726563261381195" id="-41218">
		<tag k="name" v="Vátneljávri" />
		<tag k="name:se" v="Vátneljávri" />
		<tag k="natural" v="water" />
		<tag k="old_name:se" v="Vadneljavri;Vatneljávri" />
		<tag k="ssr:stedsnr" v="626850" />
		<tag k="water" v="lake" />
	</node>
	<node lat="69.92773335302469" lon="27.000005059578523" id="-41219">
		<tag k="name" v="Áitesavu" />
		<tag k="name:se" v="Áitesavu" />
		<tag k="natural" v="water" />
		<tag k="old_name:se" v="Aitesavo" />
		<tag k="ssr:stedsnr" v="626797" />
		<tag k="water" v="lake" />
	</node>
	<node lat="69.94267224068437" lon="26.921202282292953" id="-41220">
		<tag k="name" v="Goržánjohka" />
		<tag k="name:se" v="Goržánjohka" />
		<tag k="old_name:se" v="Gåržanjåkka" />
		<tag k="ssr:stedsnr" v="626802" />
		<tag k="waterway" v="stream" />
	</node>
	<node lat="70.08589446547349" lon="27.66963547923962" id="-41221">
		<tag k="name" v="Fállenjoasjohka" />
		<tag k="name:se" v="Fállenjoasjohka" />
		<tag k="old_name:se" v="Fallenjoasjåkka" />
		<tag k="ssr:stedsnr" v="626913" />
		<tag k="waterway" v="stream" />
	</node>
	<node lat="70.03156114025465" lon="28.02078258335086" id="-41222">
		<tag k="name" v="Badjeriŋgi" />
		<tag k="name:se" v="Badjeriŋgi" />
		<tag k="natural" v="cape" />
		<tag k="old_name:se" v="Baddjeriŋgi" />
		<tag k="ssr:stedsnr" v="626948" />
	</node>
	<node lat="70.4612111418617" lon="29.01314900085927" id="-41225">
		<tag k="name" v="Guorroláttu" />
		<tag k="name:se" v="Guorroláttu" />
		<tag k="natural" v="water" />
		<tag k="old_name:se" v="Guorruladdo" />
		<tag k="ssr:stedsnr" v="626958" />
	</node>
	<node lat="70.19547780411796" lon="28.140960346358746" id="-41234">
		<tag k="name" v="Barskijohka" />
		<tag k="name:se" v="Barskijohka" />
		<tag k="ssr:stedsnr" v="640106" />
		<tag k="waterway" v="stream" />
	</node>
	<node lat="70.27949724706247" lon="28.076910406183114" id="-41236">
		<tag k="loc_name:no" v="Smalnes" />
		<tag k="name" v="Hoikkasenniemi" />
		<tag k="name:fkv" v="Hoikkasenniemi" />
		<tag k="natural" v="cape" />
		<tag k="ssr:stedsnr" v="640324" />
	</node>
	<node lat="70.17668335681883" lon="28.20925198926105" id="-41237">
		<tag k="name" v="Buoggijohka" />
		<tag k="name:se" v="Buoggijohka" />
		<tag k="ssr:stedsnr" v="640331" />
		<tag k="waterway" v="stream" />
	</node>
	<node lat="70.0683194684117" lon="28.054663142848323" id="-41241">
		<tag k="name" v="Suolonuorri" />
		<tag k="name:se" v="Suolonuorri" />
		<tag k="natural" v="strait" />
		<tag k="ssr:stedsnr" v="640675" />
	</node>
	<node lat="70.02353335756419" lon="28.04189646730686" id="-41244">
		<tag k="name" v="Oivošsavu" />
		<tag k="name:se" v="Oivošsavu" />
		<tag k="natural" v="water" />
		<tag k="ssr:stedsnr" v="640889" />
		<tag k="water" v="lake" />
	</node>
	<node lat="70.08542224746937" lon="27.863710424949996" id="-41248">
		<tag k="name" v="Galbmaája" />
		<tag k="name:se" v="Galbmaája" />
		<tag k="ssr:stedsnr" v="650313" />
		<tag k="waterway" v="stream" />
	</node>
	<node lat="70.0303000190381" lon="27.343138332791753" id="-41256">
		<tag k="name" v="Jávrrijohka" />
		<tag k="name:se" v="Jávrrijohka" />
		<tag k="ssr:stedsnr" v="893238" />
		<tag k="waterway" v="stream" />
	</node>
	<node lat="70.21276946167744" lon="27.55539107576341" id="-41257">
		<tag k="name" v="Ásajávrrit" />
		<tag k="name:se" v="Ásajávrrit" />
		<tag k="natural" v="water" />
		<tag k="old_name:se" v="Asajavrit" />
		<tag k="ssr:stedsnr" v="686449" />
		<tag k="water" v="lake" />
	</node>
	<node lat="69.9829528048764" lon="28.29640747578464" id="-41258">
		<tag k="name" v="Skálvejávri - Kjelsjøen" />
		<tag k="name:no" v="Kjelsjøen" />
		<tag k="name:se" v="Skálvejávri" />
		<tag k="natural" v="water" />
		<tag k="old_name:se" v="Skalvejavri" />
		<tag k="ssr:stedsnr" v="686745" />
		<tag k="water" v="lake" />
	</node>
	<node lat="70.47605002002425" lon="27.76019106319711" id="-41260">
		<tag k="name" v="Njoammeljohka" />
		<tag k="name:se" v="Njoammeljohka" />
		<tag k="old_name:se" v="Njoammeljåkka" />
		<tag k="ssr:stedsnr" v="687001" />
		<tag k="waterway" v="river" />
	</node>
	<node lat="69.94234445829058" lon="26.4787051576174" id="-41264">
		<tag k="name" v="Bihkkasavvonnjárga" />
		<tag k="name:se" v="Bihkkasavvonnjárga" />
		<tag k="natural" v="cape" />
		<tag k="old_name:se" v="Bikkasavvunnjarga" />
		<tag k="ssr:stedsnr" v="687797" />
	</node>
	<node lat="70.24373891291339" lon="27.656527162096783" id="-41268">
		<tag k="name" v="Uhca Liŋkonjávrráš" />
		<tag k="name:se" v="Uhca Liŋkonjávrráš" />
		<tag k="natural" v="water" />
		<tag k="old_name:se" v="Liŋkunjavraš, ucca" />
		<tag k="ssr:stedsnr" v="687936" />
	</node>
	<node lat="70.41756669046002" lon="27.846413251121582" id="-41270">
		<tag k="name" v="Moalkenjávri" />
		<tag k="name:se" v="Moalkenjávri" />
		<tag k="natural" v="water" />
		<tag k="old_name:se" v="Moalkenjavri" />
		<tag k="ssr:stedsnr" v="688112" />
	</node>
	<node lat="70.41218612870372" lon="28.083429857951998" id="-41271">
		<tag k="name" v="Suohpajávri - Smalfjordvannet" />
		<tag k="name:no" v="Smalfjordvannet" />
		<tag k="name:se" v="Suohpajávri" />
		<tag k="natural" v="water" />
		<tag k="old_name:no" v="Simlevannet" />
		<tag k="old_name:se" v="Suoppajavri" />
		<tag k="ssr:stedsnr" v="688115" />
		<tag k="water" v="lake" />
	</node>
	<node lat="70.45548614097852" lon="28.77041853882161" id="-41273">
		<tag k="name" v="Riidoveaijohka" />
		<tag k="name:se" v="Riidoveaijohka" />
		<tag k="old_name:se" v="Riiduvæjjåkka" />
		<tag k="ssr:stedsnr" v="688852" />
		<tag k="waterway" v="river" />
	</node>
	<node lat="70.02476946086172" lon="27.488096620087052" id="-41276">
		<tag k="name" v="Oallanjárga" />
		<tag k="name:se" v="Oallanjárga" />
		<tag k="natural" v="cape" />
		<tag k="ssr:stedsnr" v="894283" />
	</node>
	<node lat="70.27863335877589" lon="28.069704828318073" id="-41289">
		<tag k="name" v="Boatkanannjárga" />
		<tag k="name:se" v="Boatkanannjárga" />
		<tag k="natural" v="cape" />
		<tag k="ssr:stedsnr" v="701369" />
	</node>
	<node lat="70.13905002536556" lon="28.197949222990072" id="-41296">
		<tag k="name" v="Fálisgeađgi" />
		<tag k="name:se" v="Fálisgeađgi" />
		<tag k="place" v="locality" />
		<tag k="seamark:type" v="rock" />
		<tag k="ssr:stedsnr" v="701866" />
	</node>
	<node lat="70.4497861348115" lon="28.314002024033908" id="-41297">
		<tag k="name" v="Storsand" />
		<tag k="name:no" v="Storsand" />
		<tag k="natural" v="shoal" />
		<tag k="ssr:stedsnr" v="702079" />
	</node>
	<node lat="70.46305279640221" lon="28.313813137512675" id="-41298">
		<tag k="name" v="Guhkesnjárnuorri" />
		<tag k="name:se" v="Guhkesnjárnuorri" />
		<tag k="natural" v="strait" />
		<tag k="ssr:stedsnr" v="702083" />
	</node>
	<node lat="70.01577501644088" lon="26.567319041430057" id="-41307">
		<tag k="name" v="Sáttojávri" />
		<tag k="name:se" v="Sáttojávri" />
		<tag k="natural" v="water" />
		<tag k="old_name:se" v="Saddujavri" />
		<tag k="ssr:stedsnr" v="747406" />
		<tag k="water" v="lake" />
	</node>
	<node lat="70.22665557060705" lon="27.13041894415689" id="-41309">
		<tag k="name" v="Gaskkamus Lavnnjosjávri" />
		<tag k="name:se" v="Gaskkamus Lavnnjosjávri" />
		<tag k="natural" v="water" />
		<tag k="old_name:se" v="Lavnjusjavri, gaskamus" />
		<tag k="ssr:stedsnr" v="747417" />
	</node>
	<node lat="70.07393335048515" lon="27.594041039337103" id="-41310">
		<tag k="name" v="Bildánguoika" />
		<tag k="name:se" v="Bildánguoika" />
		<tag k="ssr:stedsnr" v="747467" />
		<tag k="waterway" v="rapids" />
	</node>
	<node lat="69.95770001024803" lon="26.54068569692896" id="-41311">
		<tag k="name" v="Boahkkojohka" />
		<tag k="name:se" v="Boahkkojohka" />
		<tag k="old_name:se" v="Boakkujåkka" />
		<tag k="ssr:stedsnr" v="747810" />
		<tag k="waterway" v="stream" />
	</node>
	<node lat="69.92840001926432" lon="27.120688364859074" id="-41313">
		<tag k="name" v="Oallefávllenuorri" />
		<tag k="name:se" v="Oallefávllenuorri" />
		<tag k="natural" v="strait" />
		<tag k="old_name:se" v="Oallefavlenuorri" />
		<tag k="ssr:stedsnr" v="747775" />
	</node>
	<node lat="70.05927502224569" lon="28.088974237678407" id="-41315">
		<tag k="name" v="Vuohppejohka" />
		<tag k="name:se" v="Vuohppejohka" />
		<tag k="old_name:se" v="Vuoppejåkka" />
		<tag k="ssr:stedsnr" v="747918" />
		<tag k="waterway" v="river" />
	</node>
	<node lat="70.36391391173713" lon="28.0762604066959" id="-41316">
		<tag k="name" v="Buksajávri" />
		<tag k="name:se" v="Buksajávri" />
		<tag k="natural" v="water" />
		<tag k="old_name:se" v="Buksajavri" />
		<tag k="ssr:stedsnr" v="748074" />
		<tag k="water" v="lake" />
	</node>
	<node lat="70.36703613459737" lon="28.210632581664473" id="-41317">
		<tag k="name" v="Biehtárnuorri" />
		<tag k="name:se" v="Biehtárnuorri" />
		<tag k="natural" v="strait" />
		<tag k="old_name:se" v="Biettarnuorri" />
		<tag k="ssr:stedsnr" v="748081" />
	</node>
	<node lat="69.85846390115917" lon="26.38637183062291" id="-41321">
		<tag k="name" v="Guoikkavuolesavu" />
		<tag k="name:se" v="Guoikkavuolesavu" />
		<tag k="old_name:se" v="Guoikavuolesavo" />
		<tag k="place" v="locality" />
		<tag k="ssr:stedsnr" v="747968" />
	</node>
	<node lat="70.10179723393003" lon="26.821341212042718" id="-41325">
		<tag k="name" v="Roancejávrrit" />
		<tag k="name:se" v="Roancejávrrit" />
		<tag k="natural" v="water" />
		<tag k="old_name:se" v="Roancejavrit" />
		<tag k="ssr:stedsnr" v="748463" />
		<tag k="water" v="lake" />
	</node>
	<node lat="70.41551113322427" lon="28.2634798221524" id="-41327">
		<tag k="alt_name:se" v="Njoammilsuolu" />
		<tag k="name" v="Njoammelsuolu - Lilleholmen" />
		<tag k="name:no" v="Lilleholmen" />
		<tag k="name:se" v="Njoammelsuolu" />
		<tag k="old_name:se" v="Njoammelsuolo" />
		<tag k="place" v="islet" />
		<tag k="ssr:stedsnr" v="748810" />
	</node>
	<node lat="70.25584168683827" lon="27.643471608348165" id="-41330">
		<tag k="name" v="Liŋkonjávri" />
		<tag k="name:se" v="Liŋkonjávri" />
		<tag k="natural" v="water" />
		<tag k="old_name:se" v="Linkunjavri" />
		<tag k="ssr:stedsnr" v="748871" />
		<tag k="water" v="lake" />
	</node>
	<node lat="70.42802502695059" lon="28.456351968909573" id="-41331">
		<tag k="name" v="Gáhkkorláttu" />
		<tag k="name:se" v="Gáhkkorláttu" />
		<tag k="natural" v="water" />
		<tag k="old_name:se" v="Gakkurladdo" />
		<tag k="ssr:stedsnr" v="748767" />
	</node>
	<node lat="70.44850557280702" lon="28.338763129147832" id="-41333">
		<tag k="name" v="Fjelmastrand" />
		<tag k="name:no" v="Fjelmastrand" />
		<tag k="natural" v="beach" />
		<tag k="ssr:stedsnr" v="754620" />
	</node>
	<node lat="70.43160835578979" lon="28.192393725232805" id="-41339">
		<tag k="loc_name:se" v="Guorosláddu" />
		<tag k="name" v="Tørrtjern" />
		<tag k="name:no" v="Tørrtjern" />
		<tag k="natural" v="water" />
		<tag k="ssr:stedsnr" v="762194" />
		<tag k="water" v="pond" />
	</node>
	<node lat="70.25707502518226" lon="28.04713540031748" id="-41340">
		<tag k="loc_name:fkv" v="Anniniemi" />
		<tag k="loc_name:no" v="Anneneset" />
		<tag k="name" v="Ánninjárga" />
		<tag k="name:se" v="Ánninjárga" />
		<tag k="natural" v="cape" />
		<tag k="ssr:stedsnr" v="762352" />
	</node>
	<node lat="70.3285833582472" lon="27.963338208689102" id="-41341">
		<tag k="name" v="Doaresjohka" />
		<tag k="name:se" v="Doaresjohka" />
		<tag k="old_name:se" v="Doaresjåkka" />
		<tag k="ssr:stedsnr" v="762249" />
		<tag k="waterway" v="stream" />
	</node>
	<node lat="70.2478694628107" lon="28.190663133767092" id="-41344">
		<tag k="loc_name:fkv" v="Gaperinniemi" />
		<tag k="name" v="Gabernjárga" />
		<tag k="name:se" v="Gabernjárga" />
		<tag k="natural" v="cape" />
		<tag k="ssr:stedsnr" v="762412" />
	</node>
	<node lat="70.09838891549971" lon="28.148974215886717" id="-41345">
		<tag k="name" v="Ándejohka" />
		<tag k="name:se" v="Ándejohka" />
		<tag k="ssr:stedsnr" v="762604" />
		<tag k="waterway" v="stream" />
	</node>
	<node lat="70.0956028082756" lon="28.131913108169318" id="-41347">
		<tag k="name" v="Borruidláttu" />
		<tag k="name:se" v="Borruidláttu" />
		<tag k="natural" v="water" />
		<tag k="ssr:stedsnr" v="762601" />
	</node>
	<node lat="70.16552224943248" lon="28.216888110337305" id="-41348">
		<tag k="name" v="Ruovdejohnjálbmi" />
		<tag k="name:se" v="Ruovdejohnjálbmi" />
		<tag k="natural" v="bay" />
		<tag k="ssr:stedsnr" v="762710" />
	</node>
	<node lat="70.04055557586582" lon="27.984857594467197" id="-41359">
		<tag k="name" v="Rávderkkejohka" />
		<tag k="name:se" v="Rávderkkejohka" />
		<tag k="old_name:se" v="Ravderkejåkka" />
		<tag k="ssr:stedsnr" v="808439" />
		<tag k="waterway" v="stream" />
	</node>
	<node lat="70.12329168033058" lon="27.094816168184643" id="-41360">
		<tag k="name" v="Vintarjávri" />
		<tag k="name:se" v="Vintarjávri" />
		<tag k="natural" v="water" />
		<tag k="old_name:se" v="Vintarjavri" />
		<tag k="ssr:stedsnr" v="808445" />
	</node>
	<node lat="70.08530834834318" lon="27.046441162083738" id="-41362">
		<tag k="name" v="Miennaluoppal" />
		<tag k="name:se" v="Miennaluoppal" />
		<tag k="natural" v="water" />
		<tag k="old_name:se" v="Miennaluobbal" />
		<tag k="ssr:stedsnr" v="808458" />
	</node>
	<node lat="69.96392501750762" lon="26.944432852890973" id="-41363">
		<tag k="alt_name:se" v="Silbaboahkánjávri" />
		<tag k="name" v="Silbboahkánjávri" />
		<tag k="name:se" v="Silbboahkánjávri" />
		<tag k="natural" v="water" />
		<tag k="old_name:se" v="Silbboakkanjavri" />
		<tag k="ssr:stedsnr" v="808805" />
	</node>
	<node lat="69.99807779540016" lon="27.16808836671837" id="-41364">
		<tag k="name" v="Suohpášjávri" />
		<tag k="name:se" v="Suohpášjávri" />
		<tag k="natural" v="water" />
		<tag k="old_name:se" v="Suoppašjavri" />
		<tag k="ssr:stedsnr" v="808792" />
		<tag k="water" v="lake" />
	</node>
	<node lat="69.96982501664552" lon="26.700941227455623" id="-41365">
		<tag k="name" v="Borsejohgorži" />
		<tag k="name:se" v="Borsejohgorži" />
		<tag k="natural" v="waterfall" />
		<tag k="ssr:stedsnr" v="808796" />
	</node>
	<node lat="70.13482780247625" lon="27.988043723346387" id="-41367">
		<tag k="name" v="Roggegietteláddot" />
		<tag k="name:se" v="Roggegietteláddot" />
		<tag k="natural" v="water" />
		<tag k="old_name:se" v="Råggegieddeladdut" />
		<tag k="ssr:stedsnr" v="808985" />
		<tag k="water" v="lake" />
	</node>
	<node lat="70.13160557915039" lon="28.08557703816611" id="-41368">
		<tag k="name" v="Alášláttu" />
		<tag k="name:se" v="Alášláttu" />
		<tag k="natural" v="water" />
		<tag k="old_name:se" v="Alašladdo" />
		<tag k="ssr:stedsnr" v="808987" />
	</node>
	<node lat="70.13375835609963" lon="27.830743772586565" id="-41369">
		<tag k="loc_name:se" v="Hárrejohka" />
		<tag k="name" v="Hávgajohka" />
		<tag k="name:se" v="Hávgajohka" />
		<tag k="old_name:se" v="Havgajåkka" />
		<tag k="ssr:stedsnr" v="808989" />
		<tag k="waterway" v="stream" />
	</node>
	<node lat="70.12125001900586" lon="27.797182655909037" id="-41370">
		<tag k="name" v="Skáiddeláddot" />
		<tag k="name:se" v="Skáiddeláddot" />
		<tag k="natural" v="water" />
		<tag k="old_name:se" v="Skaideladdut" />
		<tag k="ssr:stedsnr" v="808990" />
		<tag k="water" v="lake" />
	</node>
	<node lat="70.36281113418377" lon="28.286529797052356" id="-41372">
		<tag k="name" v="Čáhcegárjohka" />
		<tag k="name:se" v="Čáhcegárjohka" />
		<tag k="old_name:se" v="Čaccegarjåkka" />
		<tag k="ssr:stedsnr" v="809788" />
		<tag k="waterway" v="river" />
	</node>
	<node lat="70.4113611397996" lon="28.485718618619398" id="-41374">
		<tag k="name" v="Hánájohka - Hanaelva - Haanajoki" />
		<tag k="name:fkv" v="Haanajoki" />
		<tag k="name:no" v="Hanaelva" />
		<tag k="name:se" v="Hánájohka" />
		<tag k="old_name:se" v="Hanajåkka" />
		<tag k="ssr:stedsnr" v="809807" />
		<tag k="waterway" v="river" />
	</node>
	<node lat="70.26590835222771" lon="27.744379917211205" id="-41376">
		<tag k="loc_name:fkv" v="Lumpulu" />
		<tag k="name" v="Geassáluoppal" />
		<tag k="name:se" v="Geassáluoppal" />
		<tag k="natural" v="water" />
		<tag k="old_name:se" v="Gæssaluobbal" />
		<tag k="ssr:stedsnr" v="809881" />
		<tag k="water" v="lake" />
	</node>
	<node lat="70.40897224932645" lon="28.585335253880945" id="-41377">
		<tag k="name" v="Rássejohka - Graselva" />
		<tag k="name:no" v="Graselva" />
		<tag k="name:se" v="Rássejohka" />
		<tag k="old_name:se" v="Rassejåkka" />
		<tag k="ssr:stedsnr" v="816116" />
		<tag k="waterway" v="stream" />
	</node>
	<node lat="69.9161277913715" lon="27.020977267509167" id="-41378">
		<tag k="name" v="Sieđgagoatnil" />
		<tag k="name:se" v="Sieđgagoatnil" />
		<tag k="natural" v="water" />
		<tag k="old_name:se" v="Sieđgagoadnil" />
		<tag k="ssr:stedsnr" v="817979" />
		<tag k="water" v="lake" />
	</node>
	<node lat="70.14492224979271" lon="28.177688116011012" id="-41379">
		<tag k="name" v="Giilanuorri" />
		<tag k="name:se" v="Giilanuorri" />
		<tag k="natural" v="water" />
		<tag k="ssr:stedsnr" v="823013" />
		<tag k="water" v="lake" />
	</node>
	<node lat="70.27089168620007" lon="28.055665955784097" id="-41381">
		<tag k="loc_name:fkv" v="Henrikinjärvi" />
		<tag k="loc_name:no" v="Henrikvannet" />
		<tag k="name" v="Heandaratnjárggajávri" />
		<tag k="name:se" v="Heandaratnjárggajávri" />
		<tag k="natural" v="water" />
		<tag k="ssr:stedsnr" v="823248" />
		<tag k="water" v="lake" />
	</node>
	<node lat="70.07115557816596" lon="28.01271591291527" id="-41387">
		<tag k="name" v="Buolbmátsátku" />
		<tag k="name:se" v="Buolbmátsátku" />
		<tag k="natural" v="beach" />
		<tag k="ssr:stedsnr" v="823506" />
	</node>
	<node lat="70.06391390935646" lon="28.00837703932146" id="-41388">
		<tag k="name" v="Máddjájohka" />
		<tag k="name:se" v="Máddjájohka" />
		<tag k="ssr:stedsnr" v="823508" />
		<tag k="waterway" v="stream" />
	</node>
	<node lat="70.02096391538656" lon="28.033054788521508" id="-41389">
		<tag k="name" v="Uvllá-Jovnnjárga" />
		<tag k="name:se" v="Uvllá-Jovnnjárga" />
		<tag k="natural" v="cape" />
		<tag k="ssr:stedsnr" v="823565" />
	</node>
	<node lat="70.15692780705982" lon="28.284040866139062" id="-41390">
		<tag k="name" v="Juovvaája" />
		<tag k="name:se" v="Juovvaája" />
		<tag k="ssr:stedsnr" v="823569" />
		<tag k="waterway" v="stream" />
	</node>
	<node lat="69.94985557596691" lon="27.124716132994102" id="-41402">
		<tag k="name" v="Čávastat" />
		<tag k="name:se" v="Čávastat" />
		<tag k="old_name:se" v="Čavastat" />
		<tag k="ssr:stedsnr" v="929766" />
		<tag k="waterway" v="stream" />
	</node>
	<node lat="70.15036391462961" lon="28.23069088349641" id="-41403">
		<tag k="name" v="Ruossajohka - Korselva" />
		<tag k="name:no" v="Korselva" />
		<tag k="name:se" v="Ruossajohka" />
		<tag k="old_name:se" v="Ruossajåkka" />
		<tag k="ssr:stedsnr" v="929864" />
		<tag k="waterway" v="stream" />
	</node>
	<node lat="70.1843916890433" lon="27.4980105356363" id="-41405">
		<tag k="name" v="Ciikojohka" />
		<tag k="name:se" v="Ciikojohka" />
		<tag k="old_name:se" v="Ciikujåkka" />
		<tag k="ssr:stedsnr" v="929432" />
		<tag k="waterway" v="river" />
	</node>
	<node lat="69.90074447280116" lon="28.263721356770393" id="-41408">
		<tag k="name" v="Mivttejávri" />
		<tag k="name:se" v="Mivttejávri" />
		<tag k="natural" v="water" />
		<tag k="old_name:se" v="Mivtejavri;Mivlejávri" />
		<tag k="ssr:stedsnr" v="929877" />
		<tag k="water" v="lake" />
	</node>
	<node lat="70.12131947279322" lon="28.10237145823691" id="-41409">
		<tag k="name" v="Loddejohka" />
		<tag k="name:se" v="Loddejohka" />
		<tag k="old_name:se" v="Låddejåkka" />
		<tag k="ssr:stedsnr" v="929882" />
		<tag k="waterway" v="stream" />
	</node>
	<node lat="70.19212224157971" lon="27.933679858352452" id="-41410">
		<tag k="name" v="Luoppaljohka" />
		<tag k="name:se" v="Luoppaljohka" />
		<tag k="old_name:se" v="Luobbaljåkka" />
		<tag k="ssr:stedsnr" v="929964" />
		<tag k="waterway" v="stream" />
	</node>
	<node lat="70.15983890948817" lon="27.74064379799648" id="-41415">
		<tag k="name" v="Ruohčanjohka" />
		<tag k="name:se" v="Ruohčanjohka" />
		<tag k="old_name:se" v="Ruoččanjåkka" />
		<tag k="ssr:stedsnr" v="929977" />
		<tag k="waterway" v="stream" />
	</node>
	<node lat="70.29487779421905" lon="27.566182762012645" id="-41419">
		<tag k="name" v="Njukčajávri - Svanevannet" />
		<tag k="name:no" v="Svanevannet" />
		<tag k="name:se" v="Njukčajávri" />
		<tag k="natural" v="water" />
		<tag k="old_name:se" v="Njukčajavri" />
		<tag k="ssr:stedsnr" v="930032" />
		<tag k="water" v="lake" />
	</node>
	<node lat="70.13495002518766" lon="27.801757660112465" id="-41424">
		<tag k="name" v="Mohkkeláttu" />
		<tag k="name:se" v="Mohkkeláttu" />
		<tag k="natural" v="water" />
		<tag k="old_name:se" v="Måkkeladdo" />
		<tag k="ssr:stedsnr" v="929993" />
	</node>
	<node lat="70.357108351219" lon="27.88342991408068" id="-41426">
		<tag k="name" v="Dápmotjávri" />
		<tag k="name:se" v="Dápmotjávri" />
		<tag k="natural" v="water" />
		<tag k="old_name:se" v="Dabmutjavri" />
		<tag k="ssr:stedsnr" v="930073" />
	</node>
	<node lat="70.38249445947103" lon="27.627252185526693" id="-41428">
		<tag k="name" v="Mielkejohka" />
		<tag k="name:se" v="Mielkejohka" />
		<tag k="old_name:se" v="Mielkejåkka" />
		<tag k="ssr:stedsnr" v="930090" />
		<tag k="waterway" v="river" />
	</node>
	<node lat="70.09667501896716" lon="27.43999387430736" id="-41432">
		<tag k="name" v="Lákšjohgorži" />
		<tag k="name:se" v="Lákšjohgorži" />
		<tag k="natural" v="waterfall" />
		<tag k="old_name:se" v="Lakšjåkgårži" />
		<tag k="ssr:stedsnr" v="869510" />
	</node>
	<node lat="69.96459723670583" lon="26.90514119570809" id="-41433">
		<tag k="name" v="Vuolit Viđis" />
		<tag k="name:se" v="Vuolit Viđis" />
		<tag k="old_name:se" v="Viđis, vuolit" />
		<tag k="ssr:stedsnr" v="869836" />
		<tag k="waterway" v="river" />
	</node>
	<node lat="70.29953057704375" lon="27.80136601763074" id="-41434">
		<tag k="loc_name:fkv" v="Pikku Kesäjärvi" />
		<tag k="loc_name:no" v="Lille Sommervannet" />
		<tag k="name" v="Bovčča-Geassájávri - Østre Sommervannet" />
		<tag k="name:no" v="Østre Sommervannet" />
		<tag k="name:se" v="Bovčča-Geassájávri" />
		<tag k="natural" v="water" />
		<tag k="old_name:se" v="Båvča-Gæssajavri" />
		<tag k="ssr:stedsnr" v="869838" />
		<tag k="water" v="lake" />
	</node>
	<node lat="69.86631668226566" lon="26.32110517145006" id="-41435">
		<tag k="name" v="Dordneskáidi" />
		<tag k="name:se" v="Dordneskáidi" />
		<tag k="natural" v="cape" />
		<tag k="old_name:se" v="Dårdneskaidi" />
		<tag k="ssr:stedsnr" v="869966" />
	</node>
	<node lat="70.12962502406003" lon="28.123229798750874" id="-41438">
		<tag k="name" v="Máttit Loddeláttu" />
		<tag k="name:se" v="Máttit Loddeláttu" />
		<tag k="natural" v="water" />
		<tag k="old_name:se" v="Låddeladdo, maddit" />
		<tag k="ssr:stedsnr" v="869985" />
	</node>
	<node lat="70.43537779791359" lon="27.90427991049755" id="-41439">
		<tag k="name" v="Čuollovuonjávri" />
		<tag k="name:se" v="Čuollovuonjávri" />
		<tag k="natural" v="water" />
		<tag k="old_name:se" v="Čuolluvuonjavri" />
		<tag k="ssr:stedsnr" v="870111" />
	</node>
	<node lat="70.48264446384681" lon="28.629410264563486" id="-41446">
		<tag k="name" v="Uhca Luomejohka" />
		<tag k="name:se" v="Uhca Luomejohka" />
		<tag k="old_name:se" v="Loamejåkka, ucca" />
		<tag k="ssr:stedsnr" v="870865" />
		<tag k="waterway" v="stream" />
	</node>
	<node lat="70.48919169168971" lon="28.60497694470924" id="-41447">
		<tag k="name" v="Mielkeveaijávri" />
		<tag k="name:se" v="Mielkeveaijávri" />
		<tag k="natural" v="water" />
		<tag k="old_name:se" v="Mielkevæjjavri" />
		<tag k="ssr:stedsnr" v="870868" />
	</node>
	<node lat="70.59371390978205" lon="28.500874223024926" id="-41449">
		<tag k="name" v="Goškesvákjohka" />
		<tag k="name:se" v="Goškesvákjohka" />
		<tag k="old_name:se" v="Gåškesvagjåkka" />
		<tag k="ssr:stedsnr" v="930341" />
		<tag k="waterway" v="river" />
	</node>
	<node lat="70.13581112563944" lon="27.002868963844016" id="-41450">
		<tag k="name" v="Gievdneskáljávrrit" />
		<tag k="name:se" v="Gievdneskáljávrrit" />
		<tag k="natural" v="water" />
		<tag k="old_name:se" v="Gievdneskaljavrit;Gievdneskaljavri;Gievdneskaljávrrit" />
		<tag k="ssr:stedsnr" v="930408" />
		<tag k="water" v="lake" />
	</node>
	<node lat="70.11794724008385" lon="26.774069009901158" id="-41452">
		<tag k="name" v="Hoaŋkajávri" />
		<tag k="name:se" v="Hoaŋkajávri" />
		<tag k="natural" v="water" />
		<tag k="old_name:se" v="Hoaŋkajavri" />
		<tag k="ssr:stedsnr" v="930418" />
		<tag k="water" v="lake" />
	</node>
	<node lat="70.40612779140295" lon="27.862710477923997" id="-41454">
		<tag k="name" v="Heargejohka" />
		<tag k="name:se" v="Heargejohka" />
		<tag k="old_name:se" v="Hærgejåkka" />
		<tag k="ssr:stedsnr" v="930574" />
		<tag k="waterway" v="river" />
	</node>
	<node lat="70.30682502614371" lon="28.26005477992554" id="-41456">
		<tag k="loc_name:se" v="Sorbmávžžejohka" />
		<tag k="name" v="Suorbmávžžejohka" />
		<tag k="name:se" v="Suorbmávžžejohka" />
		<tag k="old_name:se" v="Suorbmavžejåkka" />
		<tag k="ssr:stedsnr" v="930810" />
		<tag k="waterway" v="stream" />
	</node>
	<node lat="70.25560835936392" lon="28.185352020380105" id="-41464">
		<tag k="name" v="Nuorri" />
		<tag k="name:se" v="Nuorri" />
		<tag k="natural" v="strait" />
		<tag k="ssr:stedsnr" v="930875" />
	</node>
	<node lat="70.27322502059468" lon="27.681818829357542" id="-41471">
		<tag k="name" v="Jukkiidája" />
		<tag k="name:se" v="Jukkiidája" />
		<tag k="old_name:se" v="Juggudaja" />
		<tag k="ssr:stedsnr" v="930831" />
		<tag k="waterway" v="stream" />
	</node>
	<node lat="70.25576113246866" lon="28.311018645134396" id="-41473">
		<tag k="name" v="Geaidnojohka" />
		<tag k="name:se" v="Geaidnojohka" />
		<tag k="old_name:se" v="Gæidnujåkka" />
		<tag k="ssr:stedsnr" v="930960" />
		<tag k="waterway" v="stream" />
	</node>
	<node lat="70.05494725130275" lon="28.13736867098553" id="-41474">
		<tag k="alt_name:se" v="Álletjávri" />
		<tag k="name" v="Stuorát Álletjávri" />
		<tag k="name:se" v="Stuorát Álletjávri" />
		<tag k="natural" v="water" />
		<tag k="old_name:se" v="Alletjavri, stuorat" />
		<tag k="ssr:stedsnr" v="930925" />
		<tag k="water" v="lake" />
	</node>
	<node lat="70.04315002384378" lon="28.03442703105454" id="-41475">
		<tag k="name" v="Vuolit Riŋgi" />
		<tag k="name:se" v="Vuolit Riŋgi" />
		<tag k="natural" v="water" />
		<tag k="old_name:se" v="Riŋgi, vuolit" />
		<tag k="ssr:stedsnr" v="930935" />
	</node>
	<node lat="70.08600235837083" lon="27.89218952396403" id="-41480">
		<tag k="name" v="Njuorggánsavu" />
		<tag k="name:se" v="Njuorggánsavu" />
		<tag k="natural" v="water" />
		<tag k="ssr:stedsnr" v="883607" />
		<tag k="water" v="lake" />
	</node>
	<node lat="70.07554447252366" lon="27.998460371424567" id="-41481">
		<tag k="name" v="Girkonuorri" />
		<tag k="name:se" v="Girkonuorri" />
		<tag k="natural" v="beach" />
		<tag k="ssr:stedsnr" v="883597" />
	</node>
	<node lat="70.1624972512584" lon="28.279010304194763" id="-41485">
		<tag k="name" v="Guorboailáddot" />
		<tag k="name:se" v="Guorboailáddot" />
		<tag k="natural" v="water" />
		<tag k="ssr:stedsnr" v="884557" />
	</node>
	<node lat="70.1667805833467" lon="28.248729769952178" id="-41486">
		<tag k="name" v="Skiippagurjohka" />
		<tag k="name:se" v="Skiippagurjohka" />
		<tag k="ssr:stedsnr" v="884453" />
		<tag k="waterway" v="stream" />
	</node>
	<node lat="69.93782501444495" lon="27.03769114631073" id="-41493">
		<tag k="name" v="Alggavárjávri" />
		<tag k="name:se" v="Alggavárjávri" />
		<tag k="natural" v="water" />
		<tag k="ssr:stedsnr" v="893923" />
	</node>
	<node lat="69.93700279100648" lon="27.008305060632825" id="-41494">
		<tag k="name" v="Alggavárjogaš" />
		<tag k="name:se" v="Alggavárjogaš" />
		<tag k="ssr:stedsnr" v="893924" />
		<tag k="waterway" v="stream" />
	</node>
	<node lat="69.96051112502835" lon="27.296966106805083" id="-41496">
		<tag k="name" v="Gáhccátnjárga" />
		<tag k="name:se" v="Gáhccátnjárga" />
		<tag k="natural" v="cape" />
		<tag k="ssr:stedsnr" v="894958" />
	</node>
	<node lat="70.2453722364554" lon="27.155471713797144" id="-41501">
		<tag k="name" v="Buksajávri" />
		<tag k="name:se" v="Buksajávri" />
		<tag k="natural" v="water" />
		<tag k="old_name:se" v="Buksajavri" />
		<tag k="ssr:stedsnr" v="929410" />
	</node>
	<node lat="70.23873890174805" lon="27.307560589653548" id="-41502">
		<tag k="name" v="Látnafielbmá" />
		<tag k="name:se" v="Látnafielbmá" />
		<tag k="old_name:se" v="Ladnafielbma" />
		<tag k="ssr:stedsnr" v="929411" />
		<tag k="waterway" v="river" />
	</node>
	<node lat="70.03840835055995" lon="27.230991126280838" id="-41503">
		<tag k="name" v="Galbajohka" />
		<tag k="name:se" v="Galbajohka" />
		<tag k="old_name:se" v="Galbajåkka" />
		<tag k="ssr:stedsnr" v="929450" />
		<tag k="waterway" v="river" />
	</node>
	<node lat="69.94312780277114" lon="28.136674187136236" id="-41504">
		<tag k="name" v="Leaibejohka" />
		<tag k="name:se" v="Leaibejohka" />
		<tag k="old_name:se" v="Læibejåkka" />
		<tag k="ssr:stedsnr" v="929452" />
		<tag k="waterway" v="river" />
	</node>
	<node lat="70.05926112857661" lon="27.22054390606938" id="-41505">
		<tag k="name" v="Njuorggánjohka" />
		<tag k="name:se" v="Njuorggánjohka" />
		<tag k="old_name:se" v="Njuorganjåkka" />
		<tag k="ssr:stedsnr" v="929456" />
		<tag k="waterway" v="stream" />
	</node>
	<node lat="70.48178890835976" lon="27.663496649348712" id="-41506">
		<tag k="name" v="Njoammeljávri" />
		<tag k="name:se" v="Njoammeljávri" />
		<tag k="natural" v="water" />
		<tag k="old_name:se" v="Njoammeljavri" />
		<tag k="ssr:stedsnr" v="930004" />
		<tag k="water" v="lake" />
	</node>
	<node lat="70.13749724959422" lon="28.187979772295435" id="-41507">
		<tag k="name" v="Riidonsáttu" />
		<tag k="name:se" v="Riidonsáttu" />
		<tag k="natural" v="shoal" />
		<tag k="old_name:se" v="Riidunsaddo" />
		<tag k="ssr:stedsnr" v="930000" />
	</node>
	<node lat="70.104677801791" lon="28.20233253404967" id="-41517">
		<tag k="name" v="Gollevárláddot" />
		<tag k="name:se" v="Gollevárláddot" />
		<tag k="natural" v="water" />
		<tag k="ssr:stedsnr" v="930890" />
	</node>
	<node lat="70.10365001780251" lon="27.907910414294754" id="-41518">
		<tag k="name" v="Vuopmanjohka" />
		<tag k="name:se" v="Vuopmanjohka" />
		<tag k="old_name:se" v="Vuobmanjåkka" />
		<tag k="ssr:stedsnr" v="930895" />
		<tag k="waterway" v="stream" />
	</node>
	<node lat="70.11297780133738" lon="28.170876990915076" id="-41519">
		<tag k="name" v="Gollevárvuolle" />
		<tag k="name:se" v="Gollevárvuolle" />
		<tag k="place" v="locality" />
		<tag k="ssr:stedsnr" v="931057" />
	</node>
	<node lat="70.42328613025062" lon="28.1857048281847" id="-41520">
		<tag k="name" v="Boinneláttu" />
		<tag k="name:se" v="Boinneláttu" />
		<tag k="natural" v="water" />
		<tag k="old_name:se" v="Båineladdo" />
		<tag k="ssr:stedsnr" v="931113" />
	</node>
	<node lat="70.45528335754416" lon="28.66169636282834" id="-41521">
		<tag k="alt_name:se" v="Čálkojohka" />
		<tag k="name" v="Čálkkajohka" />
		<tag k="name:se" v="Čálkkajohka" />
		<tag k="old_name:se" v="Čalkajåkka" />
		<tag k="ssr:stedsnr" v="931802" />
		<tag k="waterway" v="stream" />
	</node>
	<node lat="70.24371114067824" lon="28.37187973750604" id="-41526">
		<tag k="name" v="Geaidnojohka" />
		<tag k="name:se" v="Geaidnojohka" />
		<tag k="ssr:stedsnr" v="944495" />
		<tag k="waterway" v="stream" />
	</node>
	<node lat="70.46716946107158" lon="28.057815977187452" id="-41531">
		<tag k="name" v="Gáhkkorláttu - Lomtjern" />
		<tag k="name:no" v="Lomtjern" />
		<tag k="name:se" v="Gáhkkorláttu" />
		<tag k="natural" v="water" />
		<tag k="ssr:stedsnr" v="944807" />
	</node>
	<node lat="70.18266946171265" lon="27.136593950247505" id="-41549">
		<tag k="name" v="Galbmatjohka" />
		<tag k="name:se" v="Galbmatjohka" />
		<tag k="old_name:se" v="Galbmatjåkka" />
		<tag k="ssr:stedsnr" v="19424" />
		<tag k="waterway" v="stream" />
	</node>
	<node lat="70.16713612489254" lon="27.257624473018854" id="-41550">
		<tag k="name" v="Oađašanjávri" />
		<tag k="name:se" v="Oađašanjávri" />
		<tag k="natural" v="water" />
		<tag k="old_name:se" v="Oalašanjavri" />
		<tag k="ssr:stedsnr" v="19430" />
	</node>
	<node lat="70.01100001006854" lon="26.33134406103904" id="-41552">
		<tag k="name" v="Dárjohgeahči" />
		<tag k="name:se" v="Dárjohgeahči" />
		<tag k="old_name:se" v="Darjåkgæčči" />
		<tag k="ssr:stedsnr" v="19367" />
		<tag k="waterway" v="river" />
	</node>
	<node lat="70.01953335368894" lon="27.429260518271317" id="-41554">
		<tag k="name" v="Rohtuguoika" />
		<tag k="name:se" v="Rohtuguoika" />
		<tag k="old_name:se" v="Råttuguoika" />
		<tag k="ssr:stedsnr" v="19480" />
		<tag k="waterway" v="rapids" />
	</node>
	<node lat="70.10118057977493" lon="28.304149163270353" id="-41557">
		<tag k="name" v="Roggejávri" />
		<tag k="name:se" v="Roggejávri" />
		<tag k="natural" v="water" />
		<tag k="old_name:se" v="Råggejavri" />
		<tag k="ssr:stedsnr" v="19788" />
	</node>
	<node lat="69.97428612136514" lon="26.70517178445334" id="-41558">
		<tag k="fixme" v="multiple name tags, choose one and add the other to alt_name" />
		<tag k="name" v="Borsi;Borsejohka" />
		<tag k="name:se" v="Borsi;Borsejohka" />
		<tag k="ssr:stedsnr" v="19794" />
		<tag k="waterway" v="river" />
	</node>
	<node lat="69.92617501544242" lon="26.45720237765393" id="-41563">
		<tag k="name" v="Báktevársavu" />
		<tag k="name:se" v="Báktevársavu" />
		<tag k="old_name:se" v="Baktevarsavo" />
		<tag k="place" v="locality" />
		<tag k="ssr:stedsnr" v="19780" />
	</node>
	<node lat="70.11020001974242" lon="27.9403742822882" id="-41564">
		<tag k="name" v="Guovžajohka" />
		<tag k="name:se" v="Guovžajohka" />
		<tag k="old_name:se" v="Guovžajåkka" />
		<tag k="ssr:stedsnr" v="19871" />
		<tag k="waterway" v="stream" />
	</node>
	<node lat="70.08922779977428" lon="27.961463159824284" id="-41566">
		<tag k="name" v="Rájánjárga" />
		<tag k="name:se" v="Rájánjárga" />
		<tag k="natural" v="cape" />
		<tag k="ssr:stedsnr" v="19900" />
	</node>
	<node lat="70.04950002434933" lon="28.002485365909816" id="-41567">
		<tag k="name" v="Vástalanjohka" />
		<tag k="name:se" v="Vástalanjohka" />
		<tag k="old_name:se" v="Vastalanjåkka" />
		<tag k="ssr:stedsnr" v="19922" />
		<tag k="waterway" v="stream" />
	</node>
	<node lat="70.03948058274513" lon="28.062479796817104" id="-41568">
		<tag k="name" v="Suddebáikjohka" />
		<tag k="name:se" v="Suddebáikjohka" />
		<tag k="old_name:se" v="Suddebaikjåkka" />
		<tag k="ssr:stedsnr" v="19925" />
		<tag k="waterway" v="stream" />
	</node>
	<node lat="70.02988613838771" lon="28.111510326136536" id="-41569">
		<tag k="name" v="Bajit Vuohppejávri" />
		<tag k="name:se" v="Bajit Vuohppejávri" />
		<tag k="natural" v="water" />
		<tag k="old_name:se" v="Vuoppejavri, bajit" />
		<tag k="ssr:stedsnr" v="19926" />
		<tag k="water" v="lake" />
	</node>
	<node lat="70.03040835905412" lon="28.02557147544392" id="-41570">
		<tag k="name" v="Bajit Riŋgi" />
		<tag k="name:se" v="Bajit Riŋgi" />
		<tag k="natural" v="water" />
		<tag k="old_name:se" v="Riŋgi, bajit" />
		<tag k="ssr:stedsnr" v="19931" />
	</node>
	<node lat="70.01208057329454" lon="27.33361331477056" id="-41571">
		<tag k="name" v="Bievrroaijávri" />
		<tag k="name:se" v="Bievrroaijávri" />
		<tag k="natural" v="water" />
		<tag k="old_name:se" v="Bievroaijavri" />
		<tag k="ssr:stedsnr" v="19935" />
		<tag k="water" v="lake" />
	</node>
	<node lat="70.17961391566561" lon="27.905915973665998" id="-41573">
		<tag k="name" v="Vuoksajohka" />
		<tag k="name:se" v="Vuoksajohka" />
		<tag k="old_name:se" v="Vuoksajåkka" />
		<tag k="ssr:stedsnr" v="19956" />
		<tag k="waterway" v="stream" />
	</node>
	<node lat="70.48096946321212" lon="28.03579932776234" id="-41580">
		<tag k="name" v="Šearesgieddjávri" />
		<tag k="name:se" v="Šearesgieddjávri" />
		<tag k="natural" v="water" />
		<tag k="old_name:se" v="Šæresgieddjavri" />
		<tag k="ssr:stedsnr" v="20026" />
	</node>
	<node lat="70.28599168253378" lon="27.59190773248979" id="-41581">
		<tag k="name" v="Njukčajohka" />
		<tag k="name:se" v="Njukčajohka" />
		<tag k="old_name:se" v="Njukčajåkka" />
		<tag k="ssr:stedsnr" v="20032" />
		<tag k="waterway" v="stream" />
	</node>
	<node lat="70.11563057624845" lon="27.652054931548236" id="-41583">
		<tag k="name" v="Ákšojávri" />
		<tag k="name:se" v="Ákšojávri" />
		<tag k="natural" v="water" />
		<tag k="old_name:se" v="Akšujavri" />
		<tag k="ssr:stedsnr" v="19986" />
	</node>
	<node lat="70.50159724462189" lon="28.153385425496435" id="-41588">
		<tag k="name" v="Gahpirašjávri" />
		<tag k="name:se" v="Gahpirašjávri" />
		<tag k="natural" v="water" />
		<tag k="old_name:se" v="Gappirašjavri" />
		<tag k="ssr:stedsnr" v="20356" />
		<tag k="water" v="lake" />
	</node>
	<node lat="70.28166668356262" lon="27.7306049280519" id="-41589">
		<tag k="name" v="Luomenjárga" />
		<tag k="name:se" v="Luomenjárga" />
		<tag k="natural" v="cape" />
		<tag k="old_name:se" v="Luomenjarga" />
		<tag k="ssr:stedsnr" v="20828" />
	</node>
	<node lat="70.45465557339821" lon="28.28041315127621" id="-41591">
		<tag k="name" v="Fielbmanjárga - Fjelmanes" />
		<tag k="name:no" v="Fjelmanes" />
		<tag k="name:se" v="Fielbmanjárga" />
		<tag k="natural" v="cape" />
		<tag k="old_name:se" v="Fielbmanjarga" />
		<tag k="ssr:stedsnr" v="20861" />
	</node>
	<node lat="70.46810835198032" lon="28.51153252369809" id="-41592">
		<tag k="name" v="Geresjohka" />
		<tag k="name:se" v="Geresjohka" />
		<tag k="old_name:se" v="Geresjåkka" />
		<tag k="ssr:stedsnr" v="20864" />
		<tag k="waterway" v="stream" />
	</node>
	<node lat="70.47987502847285" lon="28.98347124399539" id="-41594">
		<tag k="name" v="Baikajohka" />
		<tag k="name:se" v="Baikajohka" />
		<tag k="old_name:se" v="Baikajåkka" />
		<tag k="ssr:stedsnr" v="20964" />
		<tag k="waterway" v="river" />
	</node>
	<node lat="70.27084446635192" lon="28.324224201219195" id="-41597">
		<tag k="name" v="Gahpirjohka" />
		<tag k="name:se" v="Gahpirjohka" />
		<tag k="old_name:se" v="Gappirjåkka" />
		<tag k="ssr:stedsnr" v="20970" />
		<tag k="waterway" v="stream" />
	</node>
	<node lat="70.43352224525074" lon="28.22788537462245" id="-41602">
		<tag k="name" v="Rássejohka - Graselva" />
		<tag k="name:no" v="Graselva" />
		<tag k="name:se" v="Rássejohka" />
		<tag k="ssr:stedsnr" v="26897" />
		<tag k="waterway" v="stream" />
	</node>
	<node lat="70.45116390892949" lon="28.2667048162863" id="-41605">
		<tag k="name" v="Fielbma - Kjosen" />
		<tag k="name:no" v="Kjosen" />
		<tag k="name:se" v="Fielbma" />
		<tag k="ssr:stedsnr" v="33131" />
		<tag k="waterway" v="stream" />
	</node>
	<node lat="70.45174168931631" lon="28.286010372712397" id="-41610">
		<tag k="name" v="Langnesstengslet" />
		<tag k="name:no" v="Langnesstengslet" />
		<tag k="natural" v="strait" />
		<tag k="ssr:stedsnr" v="34088" />
	</node>
	<node lat="70.45121390825183" lon="27.829624382054792" id="-41615">
		<tag k="name" v="Guovžžajohka" />
		<tag k="name:se" v="Guovžžajohka" />
		<tag k="ssr:stedsnr" v="34317" />
		<tag k="waterway" v="stream" />
	</node>
	<node lat="70.26955279755552" lon="28.09330481405506" id="-41616">
		<tag k="name" v="Biipojohka" />
		<tag k="name:se" v="Biipojohka" />
		<tag k="ssr:stedsnr" v="34332" />
		<tag k="waterway" v="stream" />
	</node>
	<node lat="70.16238335433212" lon="28.20948532196323" id="-41617">
		<tag k="name" v="Goržán" />
		<tag k="name:se" v="Goržán" />
		<tag k="natural" v="shoal" />
		<tag k="place" v="locality" />
		<tag k="ssr:stedsnr" v="34567" />
	</node>
	<node lat="70.06894169427053" lon="28.0599436919761" id="-41620">
		<tag k="name" v="Sarreláttu" />
		<tag k="name:se" v="Sarreláttu" />
		<tag k="natural" v="water" />
		<tag k="ssr:stedsnr" v="34626" />
	</node>
	<node lat="70.12587502316595" lon="28.172593667892997" id="-41622">
		<tag k="name" v="Sohkargárggu" />
		<tag k="name:se" v="Sohkargárggu" />
		<tag k="natural" v="shoal" />
		<tag k="place" v="locality" />
		<tag k="ssr:stedsnr" v="34739" />
	</node>
	<node lat="70.15129169508535" lon="28.23733808458317" id="-41623">
		<tag k="name" v="Gulloája" />
		<tag k="name:se" v="Gulloája" />
		<tag k="ssr:stedsnr" v="34882" />
		<tag k="waterway" v="stream" />
	</node>
	<node lat="70.19394169019651" lon="28.213671449558298" id="-41625">
		<tag k="name" v="Fádnoája" />
		<tag k="name:se" v="Fádnoája" />
		<tag k="natural" v="spring" />
		<tag k="ssr:stedsnr" v="34960" />
	</node>
	<node lat="70.07961113630493" lon="27.831696537266037" id="-41629">
		<tag k="name" v="Rápmi" />
		<tag k="name:se" v="Rápmi" />
		<tag k="natural" v="water" />
		<tag k="ssr:stedsnr" v="44365" />
		<tag k="water" v="lake" />
	</node>
	<node lat="70.04798612719391" lon="26.859438424687205" id="-41638">
		<tag k="name" v="Bánnetjávri" />
		<tag k="name:se" v="Bánnetjávri" />
		<tag k="natural" v="water" />
		<tag k="old_name:se" v="Bannetjavri" />
		<tag k="ssr:stedsnr" v="80414" />
		<tag k="water" v="lake" />
	</node>
	<node lat="70.23432501389712" lon="27.360127244050297" id="-41640">
		<tag k="name" v="Stuorra Ilisjávri" />
		<tag k="name:se" v="Stuorra Ilisjávri" />
		<tag k="natural" v="water" />
		<tag k="old_name:se" v="Ilisjavri, stuorra" />
		<tag k="ssr:stedsnr" v="79412" />
	</node>
	<node lat="70.21791391091492" lon="28.084621492354692" id="-41642">
		<tag k="name" v="Mohkkeveaijohka" />
		<tag k="name:se" v="Mohkkeveaijohka" />
		<tag k="old_name:se" v="Måkkevæjjåkka" />
		<tag k="ssr:stedsnr" v="79949" />
		<tag k="waterway" v="stream" />
	</node>
	<node lat="70.28598890256056" lon="27.39800779191804" id="-41645">
		<tag k="name" v="Rávggošjávri" />
		<tag k="name:se" v="Rávggošjávri" />
		<tag k="natural" v="water" />
		<tag k="old_name:se" v="Ravgušjavri" />
		<tag k="ssr:stedsnr" v="80031" />
		<tag k="water" v="lake" />
	</node>
	<node lat="70.36063890969498" lon="27.754574389423613" id="-41646">
		<tag k="name" v="Bákteláddot" />
		<tag k="name:se" v="Bákteláddot" />
		<tag k="natural" v="water" />
		<tag k="old_name:se" v="Bakteladdut" />
		<tag k="ssr:stedsnr" v="80077" />
		<tag k="water" v="lake" />
	</node>
	<node lat="70.1399055744402" lon="27.24194391657727" id="-41651">
		<tag k="name" v="Bihtošjohka" />
		<tag k="name:se" v="Bihtošjohka" />
		<tag k="old_name:se" v="Bittušjåkka" />
		<tag k="ssr:stedsnr" v="80448" />
		<tag k="waterway" v="river" />
	</node>
	<node lat="70.20800835208888" lon="27.19007450123421" id="-41655">
		<tag k="name" v="Njirranjávri" />
		<tag k="name:se" v="Njirranjávri" />
		<tag k="natural" v="water" />
		<tag k="old_name:se" v="Njirranjavri" />
		<tag k="ssr:stedsnr" v="80434" />
	</node>
	<node lat="70.12795279422444" lon="27.154977259517324" id="-41656">
		<tag k="name" v="Bihtošjávri" />
		<tag k="name:se" v="Bihtošjávri" />
		<tag k="natural" v="water" />
		<tag k="old_name:se" v="Bittušjavri" />
		<tag k="ssr:stedsnr" v="80468" />
	</node>
	<node lat="70.04044168435047" lon="27.538916044536577" id="-41660">
		<tag k="name" v="Vullejunsavu" />
		<tag k="name:se" v="Vullejunsavu" />
		<tag k="natural" v="water" />
		<tag k="old_name:se" v="Vullejunsavo" />
		<tag k="ssr:stedsnr" v="80486" />
		<tag k="water" v="lake" />
	</node>
	<node lat="69.93583891507464" lon="28.199613072597977" id="-41666">
		<tag k="name" v="Áŋkkarjávri" />
		<tag k="name:se" v="Áŋkkarjávri" />
		<tag k="natural" v="water" />
		<tag k="old_name:se" v="Aŋkarjavri;Aŋkarjávri" />
		<tag k="ssr:stedsnr" v="80784" />
		<tag k="water" v="lake" />
	</node>
	<node lat="70.12635835936231" lon="28.273435306178055" id="-41667">
		<tag k="name" v="Juovlajohka - Juleelva" />
		<tag k="name:no" v="Juleelva" />
		<tag k="name:se" v="Juovlajohka" />
		<tag k="old_name:se" v="Juovlajåkka" />
		<tag k="ssr:stedsnr" v="80785" />
		<tag k="waterway" v="stream" />
	</node>
	<node lat="69.94590001628737" lon="26.521477375389193" id="-41669">
		<tag k="name" v="Bajimus Bihttá" />
		<tag k="name:se" v="Bajimus Bihttá" />
		<tag k="old_name:se" v="Bitta, bajimus" />
		<tag k="ssr:stedsnr" v="80817" />
		<tag k="waterway" v="rapids" />
	</node>
	<node lat="69.96013890004537" lon="26.631727350256522" id="-41670">
		<tag k="name" v="Vuolimus Bihttá" />
		<tag k="name:se" v="Vuolimus Bihttá" />
		<tag k="natural" v="waterfall" />
		<tag k="old_name:se" v="Bitta, vuolimus" />
		<tag k="ssr:stedsnr" v="80818" />
	</node>
	<node lat="70.07931391515238" lon="28.29939915859018" id="-41672">
		<tag k="name" v="Duolbaláddot" />
		<tag k="name:se" v="Duolbaláddot" />
		<tag k="natural" v="water" />
		<tag k="old_name:se" v="Duolbaladdut" />
		<tag k="ssr:stedsnr" v="80822" />
	</node>
	<node lat="70.10686113706839" lon="28.05227425906638" id="-41675">
		<tag k="name" v="Duolbaláttu" />
		<tag k="name:se" v="Duolbaláttu" />
		<tag k="natural" v="water" />
		<tag k="old_name:se" v="Duolbaladdo" />
		<tag k="ssr:stedsnr" v="80896" />
	</node>
	<node lat="70.1012000220334" lon="28.08981868957135" id="-41676">
		<tag k="alt_name:se" v="Biret-Erkkejohka" />
		<tag k="name" v="Bireterkkejohka" />
		<tag k="name:se" v="Bireterkkejohka" />
		<tag k="old_name:se" v="Bireterkejåkka" />
		<tag k="ssr:stedsnr" v="80907" />
		<tag k="waterway" v="stream" />
	</node>
	<node lat="70.136022248471" lon="28.128004781102824" id="-41679">
		<tag k="name" v="Ruovdejohka" />
		<tag k="name:se" v="Ruovdejohka" />
		<tag k="old_name:se" v="Ruovdejåkka" />
		<tag k="ssr:stedsnr" v="80994" />
		<tag k="waterway" v="stream" />
	</node>
	<node lat="70.13461113447254" lon="27.801093773444823" id="-41680">
		<tag k="name" v="Mohkkeluoppal" />
		<tag k="name:se" v="Mohkkeluoppal" />
		<tag k="natural" v="water" />
		<tag k="old_name:se" v="Måkkeluobbal" />
		<tag k="ssr:stedsnr" v="80995" />
	</node>
	<node lat="70.23988057678993" lon="28.116649260748783" id="-41687">
		<tag k="name" v="Vierasaijohka" />
		<tag k="name:se" v="Vierasaijohka" />
		<tag k="old_name:se" v="Vierasajjåkka" />
		<tag k="ssr:stedsnr" v="80956" />
		<tag k="waterway" v="stream" />
	</node>
	<node lat="69.85130834541438" lon="26.370994049167884" id="-41688">
		<tag k="name" v="Spárasuolu" />
		<tag k="name:se" v="Spárasuolu" />
		<tag k="old_name:se" v="Sparasuolo;Sparasuolu" />
		<tag k="place" v="islet" />
		<tag k="ssr:stedsnr" v="80959" />
	</node>
	<node lat="69.82029445472092" lon="26.253982949431723" id="-41690">
		<tag k="name" v="Mánttal" />
		<tag k="name:se" v="Mánttal" />
		<tag k="old_name:se" v="Mantal" />
		<tag k="place" v="islet" />
		<tag k="ssr:stedsnr" v="80964" />
	</node>
	<node lat="70.38300001461327" lon="27.427766124164233" id="-41693">
		<tag k="name" v="Gurrojávri" />
		<tag k="name:se" v="Gurrojávri" />
		<tag k="natural" v="water" />
		<tag k="old_name:se" v="Gurrujavri" />
		<tag k="ssr:stedsnr" v="81054" />
		<tag k="water" v="lake" />
	</node>
</osm>
