<?xml version="1.0" encoding="UTF-8"?>
<osm version="0.6" generator="osmapis">
	<node lat="70.27831391181" lon="28.14314926125832" id="-34369">
		<tag k="name" v="Máskejohnjárga" />
		<tag k="name:se" v="Máskejohnjárga" />
		<tag k="old_name:se" v="Maskejåknjarga" />
		<tag k="place" v="farm" />
		<tag k="ssr:stedsnr" v="20838" />
	</node>
	<node lat="70.13330557921279" lon="28.161496450107155" id="-34383">
		<tag k="name" v="Miennárohtu" />
		<tag k="name:se" v="Miennárohtu" />
		<tag k="place" v="locality" />
		<tag k="ssr:stedsnr" v="34824" />
	</node>
	<node lat="70.06558891139643" lon="27.568502172610298" id="-34386">
		<tag k="name" v="Geavgŋoaisuolu - Forsholmen" />
		<tag k="name:no" v="Forsholmen" />
		<tag k="name:se" v="Geavgŋoaisuolu" />
		<tag k="place" v="farm" />
		<tag k="ssr:stedsnr" v="240774" />
	</node>
	<node lat="70.48120001535484" lon="27.977293800540153" id="-34401">
		<tag k="alt_name:no" v="Torhop, indre" />
		<tag k="name" v="Durevuohppi - Indre Torhop" />
		<tag k="name:no" v="Indre Torhop" />
		<tag k="name:se" v="Durevuohppi" />
		<tag k="old_name:se" v="Durevuoppi" />
		<tag k="place" v="hamlet" />
		<tag k="ssr:stedsnr" v="81032" />
	</node>
	<node lat="70.30948891242902" lon="28.195829808514297" id="-34411">
		<tag k="name" v="Bjerke" />
		<tag k="name:no" v="Bjerke" />
		<tag k="place" v="farm" />
		<tag k="ssr:stedsnr" v="95242" />
	</node>
	<node lat="69.94896113178397" lon="27.22226055970757" id="-34424">
		<tag k="name" v="Nordre Laksnes" />
		<tag k="name:no" v="Nordre Laksnes" />
		<tag k="place" v="farm" />
		<tag k="ssr:stedsnr" v="101825" />
	</node>
	<node lat="69.9466000220013" lon="27.21817445519155" id="-34425">
		<tag k="name" v="Laksnes" />
		<tag k="name:no" v="Laksnes" />
		<tag k="place" v="farm" />
		<tag k="ssr:stedsnr" v="101827" />
	</node>
	<node lat="70.06162501993308" lon="27.547996597138944" id="-34426">
		<tag k="name" v="Geavgŋoaivi - Fossholm" />
		<tag k="name:no" v="Fossholm" />
		<tag k="name:se" v="Geavgŋoaivi" />
		<tag k="place" v="hamlet" />
		<tag k="ssr:stedsnr" v="101776" />
	</node>
	<node lat="69.99194076682868" lon="27.350994635316244" id="-34437">
		<tag k="name" v="Vuolit Bievrrá - Bievramo" />
		<tag k="name:no" v="Bievramo" />
		<tag k="name:se" v="Vuolit Bievrrá" />
		<tag k="old_name:se" v="Bievra, vuolit" />
		<tag k="place" v="farm" />
		<tag k="ssr:stedsnr" v="140787" />
	</node>
	<node lat="70.48881946571146" lon="28.186715969102586" id="-34440">
		<tag k="name" v="Čoalbmi - Sund" />
		<tag k="name:no" v="Sund" />
		<tag k="name:se" v="Čoalbmi" />
		<tag k="place" v="isolated_dwelling" />
		<tag k="ssr:stedsnr" v="141035" />
	</node>
	<node lat="70.07003613593095" lon="28.01285203507724" id="-34463">
		<tag k="name" v="Soffágieddi" />
		<tag k="name:se" v="Soffágieddi" />
		<tag k="place" v="farm" />
		<tag k="ssr:stedsnr" v="155498" />
	</node>
	<node lat="69.94926946009966" lon="27.228055014146257" id="-34469">
		<tag k="name" v="Østre Laksnes" />
		<tag k="name:no" v="Østre Laksnes" />
		<tag k="place" v="farm" />
		<tag k="ssr:stedsnr" v="161799" />
	</node>
	<node lat="69.9904389110271" lon="27.304410555009788" id="-34472">
		<tag k="fixme" v="multiple name tags, choose one and add the other to alt_name" />
		<tag k="name" v="Bajit Bievrrá - Øvre Bievra;Kulpstrand" />
		<tag k="name:no" v="Øvre Bievra;Kulpstrand" />
		<tag k="name:se" v="Bajit Bievrrá" />
		<tag k="old_name:se" v="Bievra, bajit;Bajit Bievrá" />
		<tag k="place" v="farm" />
		<tag k="ssr:stedsnr" v="261765" />
	</node>
	<node lat="70.49359862519044" lon="27.838741803137864" id="-34479">
		<tag k="name" v="Gussanjárga - Kunes" />
		<tag k="name:no" v="Kunes" />
		<tag k="name:se" v="Gussanjárga" />
		<tag k="old_name:se" v="Gussanjarga" />
		<tag k="place" v="isolated_dwelling" />
		<tag k="ssr:stedsnr" v="262039" />
	</node>
	<node lat="70.59818890719254" lon="28.472276999859268" id="-34485">
		<tag k="name" v="Goškesvággi - Lille-Molvik" />
		<tag k="name:no" v="Lille-Molvik" />
		<tag k="name:se" v="Goškesvággi" />
		<tag k="old_name:se" v="Gåškesvaggi" />
		<tag k="place" v="hamlet" />
		<tag k="ssr:stedsnr" v="262311" />
	</node>
	<node lat="70.54280001818233" lon="28.02070490316803" id="-34493">
		<tag k="fixme" v="consider place=hamlet" />
		<tag k="name" v="Stáhpogieddi" />
		<tag k="name:se" v="Stáhpogieddi" />
		<tag k="place" v="village" />
		<tag k="ssr:stedsnr" v="262380" />
	</node>
	<node lat="70.44217501629515" lon="27.87381325138284" id="-34519">
		<tag k="name" v="Guivvešgieddi" />
		<tag k="name:se" v="Guivvešgieddi" />
		<tag k="old_name:se" v="Guivešsgieddi" />
		<tag k="place" v="farm" />
		<tag k="ssr:stedsnr" v="263146" />
	</node>
	<node lat="70.23118188618955" lon="28.178302045973673" id="-34541">
		<tag k="fixme" v="consider place=hamlet" />
		<tag k="name" v="Sieiddá - Seida - Seita" />
		<tag k="name:fkv" v="Seita" />
		<tag k="name:no" v="Seida" />
		<tag k="name:se" v="Sieiddá" />
		<tag k="old_name:se" v="Sieida, nuortit;Nuorttit Sieiddá" />
		<tag k="place" v="village" />
		<tag k="ssr:stedsnr" v="201949" />
	</node>
	<node lat="70.16630280405515" lon="28.224640882583312" id="-34545">
		<tag k="fixme" v="consider place=hamlet" />
		<tag k="name" v="Skiippagurra" />
		<tag k="name:se" v="Skiippagurra" />
		<tag k="place" v="village" />
		<tag k="ssr:stedsnr" v="201852" />
	</node>
	<node lat="70.33788335431201" lon="28.183263160955384" id="-34554">
		<tag k="name" v="Fávlemohkki - Holmfjell - Väylänmukka" />
		<tag k="name:fkv" v="Väylänmukka" />
		<tag k="name:no" v="Holmfjell" />
		<tag k="name:se" v="Fávlemohkki" />
		<tag k="old_name:se" v="Favlemåkki" />
		<tag k="place" v="hamlet" />
		<tag k="ssr:stedsnr" v="202842" />
	</node>
	<node lat="70.28842780204339" lon="28.149885382144067" id="-34557">
		<tag k="fixme" v="consider place=hamlet" />
		<tag k="name" v="Máskejohka - Masjok - Maskijoki" />
		<tag k="name:fkv" v="Maskijoki" />
		<tag k="name:no" v="Masjok" />
		<tag k="name:se" v="Máskejohka" />
		<tag k="place" v="village" />
		<tag k="ssr:stedsnr" v="203819" />
	</node>
	<node lat="70.51017780335992" lon="28.467413097532923" id="-34558">
		<tag k="fixme" v="multiple name tags, choose one and add the other to alt_name" />
		<tag k="name" v="Lávvonjárga - Lavonjarg;Teltnes;Teltneset - Laavuniemi" />
		<tag k="name:fkv" v="Laavuniemi" />
		<tag k="name:no" v="Lavonjarg;Teltnes;Teltneset" />
		<tag k="name:se" v="Lávvonjárga" />
		<tag k="old_name:se" v="Lavvonjárga" />
		<tag k="place" v="hamlet" />
		<tag k="ssr:stedsnr" v="268499" />
	</node>
	<node lat="70.43769724131272" lon="28.246177042592215" id="-34559">
		<tag k="alt_name:no" v="Birkelunden" />
		<tag k="name" v="Birkelund" />
		<tag k="name:no" v="Birkelund" />
		<tag k="place" v="farm" />
		<tag k="ssr:stedsnr" v="209925" />
	</node>
	<node lat="70.46057502413262" lon="28.51082139998861" id="-34564">
		<tag k="name" v="Geresgohppi" />
		<tag k="name:se" v="Geresgohppi" />
		<tag k="place" v="hamlet" />
		<tag k="ssr:stedsnr" v="216287" />
	</node>
	<node lat="70.25967502816326" lon="28.30024921417283" id="-34572">
		<tag k="name" v="Heimen" />
		<tag k="name:no" v="Heimen" />
		<tag k="place" v="farm" />
		<tag k="ssr:stedsnr" v="216995" />
	</node>
	<node lat="70.41610002349728" lon="28.1831076152688" id="-34573">
		<tag k="name" v="Skarmo" />
		<tag k="name:no" v="Skarmo" />
		<tag k="place" v="farm" />
		<tag k="ssr:stedsnr" v="216873" />
	</node>
	<node lat="69.93193613070002" lon="27.12541057061162" id="-34576">
		<tag k="name" v="Russeskaret" />
		<tag k="name:no" v="Russeskaret" />
		<tag k="place" v="farm" />
		<tag k="ssr:stedsnr" v="223845" />
	</node>
	<node lat="69.92409168533298" lon="27.111071706524566" id="-34593">
		<tag k="name" v="Viđgaveaisavu" />
		<tag k="name:se" v="Viđgaveaisavu" />
		<tag k="old_name:se" v="Viđgavæjsavo" />
		<tag k="place" v="isolated_dwelling" />
		<tag k="ssr:stedsnr" v="262801" />
	</node>
	<node lat="70.40823890780698" lon="28.20203815136529" id="-34599">
		<tag k="fixme" v="consider place=hamlet" />
		<tag k="name" v="Bajit Bonjákas - Øvre Bonakas" />
		<tag k="name:no" v="Øvre Bonakas" />
		<tag k="name:se" v="Bajit Bonjákas" />
		<tag k="old_name:se" v="Bånjakas, bajit" />
		<tag k="place" v="village" />
		<tag k="ssr:stedsnr" v="263104" />
	</node>
	<node lat="70.4632882063821" lon="28.443841454098507" id="-34603">
		<tag k="name" v="Leirpollen" />
		<tag k="name:no" v="Leirpollen" />
		<tag k="place" v="isolated_dwelling" />
		<tag k="ssr:stedsnr" v="269571" />
	</node>
	<node lat="70.4642555785374" lon="28.301260375470676" id="-34605">
		<tag k="name" v="Guhkesnjárga - Langnes - Pitkäniemi" />
		<tag k="name:fkv" v="Pitkäniemi" />
		<tag k="name:no" v="Langnes" />
		<tag k="name:se" v="Guhkesnjárga" />
		<tag k="place" v="hamlet" />
		<tag k="ssr:stedsnr" v="459098" />
	</node>
	<node lat="70.36105835679079" lon="28.2345214759341" id="-34624">
		<tag k="name" v="Sandlia" />
		<tag k="name:no" v="Sandlia" />
		<tag k="place" v="hamlet" />
		<tag k="ssr:stedsnr" v="459826" />
	</node>
</osm>
