<?xml version="1.0" encoding="UTF-8"?>
<osm version="0.6" generator="osmapis">
	<node lat="70.19227502236227" lon="28.13859090972209" id="-51630">
		<tag k="highway" v="path" />
		<tag k="name" v="Máskevárbálggis" />
		<tag k="name:se" v="Máskevárbálggis" />
		<tag k="ssr:stedsnr" v="459103" />
	</node>
	<node lat="70.0965000262683" lon="27.94016318588834" id="-51705">
		<tag k="highway" v="path" />
		<tag k="name" v="Ándeluhppu" />
		<tag k="name:se" v="Ándeluhppu" />
		<tag k="ssr:stedsnr" v="337510" />
	</node>
	<node lat="70.08058335588859" lon="27.83079098190169" id="-51776">
		<tag k="fixme" v="consider highway=path" />
		<tag k="highway" v="track" />
		<tag k="name" v="Geaidnogeahči" />
		<tag k="name:se" v="Geaidnogeahči" />
		<tag k="ssr:stedsnr" v="408404" />
	</node>
	<node lat="70.15957779895928" lon="28.258790863186384" id="-51875">
		<tag k="highway" v="path" />
		<tag k="name" v="Cuokkojárbálggis" />
		<tag k="name:se" v="Cuokkojárbálggis" />
		<tag k="ssr:stedsnr" v="519909" />
	</node>
	<node lat="70.13902780423214" lon="28.145771453011854" id="-51877">
		<tag k="highway" v="path" />
		<tag k="name" v="Dološ muorramáđii" />
		<tag k="name:se" v="Dološ muorramáđii" />
		<tag k="ssr:stedsnr" v="519865" />
	</node>
	<node lat="70.18784169490785" lon="28.22993532333514" id="-51986">
		<tag k="highway" v="path" />
		<tag k="name" v="Vuođđojárbálggis" />
		<tag k="name:se" v="Vuođđojárbálggis" />
		<tag k="ssr:stedsnr" v="580949" />
	</node>
	<node lat="70.16822224175097" lon="28.16349923768608" id="-51987">
		<tag k="highway" v="path" />
		<tag k="name" v="Gámasuoinbálggis" />
		<tag k="name:se" v="Gámasuoinbálggis" />
		<tag k="ssr:stedsnr" v="580990" />
	</node>
	<node lat="70.15030835553661" lon="28.2433853164707" id="-52165">
		<tag k="highway" v="path" />
		<tag k="name" v="Ruossavármáđii" />
		<tag k="name:se" v="Ruossavármáđii" />
		<tag k="ssr:stedsnr" v="762894" />
	</node>
	<node lat="70.13859168932477" lon="28.166513113558544" id="-52306">
		<tag k="highway" v="path" />
		<tag k="name" v="Juholeansmangoivvohat" />
		<tag k="name:se" v="Juholeansmangoivvohat" />
		<tag k="ssr:stedsnr" v="884850" />
	</node>
</osm>
