<?xml version="1.0" encoding="UTF-8"?>
<osm version="0.6" generator="osmapis">
	<node lat="70.39909724366645" lon="28.185363170759583" id="-97129">
		<tag k="amenity" v="place_of_worship" />
		<tag k="denomination" v="lutheran" />
		<tag k="name" v="Tana kirke" />
		<tag k="name:no" v="Tana kirke" />
		<tag k="religion" v="christian" />
		<tag k="ssr:stedsnr" v="262073" />
	</node>
	<node lat="70.44326946992788" lon="28.486932525456304" id="-97204">
		<tag k="amenity" v="place_of_worship" />
		<tag k="denomination" v="lutheran" />
		<tag k="name" v="Austertana kirke" />
		<tag k="name:no" v="Austertana kirke" />
		<tag k="religion" v="christian" />
		<tag k="ssr:stedsnr" v="202796" />
	</node>
	<node lat="70.07061946949948" lon="27.767115995278097" id="-98180">
		<tag k="name" v="Geavgŋavuolle" />
		<tag k="name:se" v="Geavgŋavuolle" />
		<tag k="place" v="locality" />
		<tag k="ssr:stedsnr" v="107054" />
	</node>
	<node lat="70.0751037930061" lon="27.995255797816707" id="-98330">
		<tag k="amenity" v="place_of_worship" />
		<tag k="denomination" v="lutheran" />
		<tag k="loc_name:fkv" v="Pulmanki" />
		<tag k="loc_name:se" v="Buolbmát;Buolbmák" />
		<tag k="name" v="Polmak kirke" />
		<tag k="name:no" v="Polmak kirke" />
		<tag k="religion" v="christian" />
		<tag k="ssr:stedsnr" v="201918" />
	</node>
	<node lat="69.93335033065193" lon="26.453045694746237" id="-98419">
		<tag k="alt_name:no" v="Levajok" />
		<tag k="amenity" v="place_of_worship" />
		<tag k="denomination" v="lutheran" />
		<tag k="name" v="Levajok fjellkirke" />
		<tag k="name:no" v="Levajok fjellkirke" />
		<tag k="religion" v="christian" />
		<tag k="ssr:stedsnr" v="276862" />
	</node>
	<node lat="70.01775557881031" lon="27.408560527535638" id="-99251">
		<tag k="alt_name:no" v="Sirma" />
		<tag k="amenity" v="place_of_worship" />
		<tag k="denomination" v="lutheran" />
		<tag k="name" v="Sirma kirke" />
		<tag k="name:no" v="Sirma kirke" />
		<tag k="religion" v="christian" />
		<tag k="ssr:stedsnr" v="882760" />
	</node>
	<node lat="70.42427779122194" lon="27.8681549277765" id="-99252">
		<tag k="alt_name:no" v="Vestertana" />
		<tag k="amenity" v="place_of_worship" />
		<tag k="denomination" v="lutheran" />
		<tag k="name" v="Vestertana kirke" />
		<tag k="name:no" v="Vestertana kirke" />
		<tag k="religion" v="christian" />
		<tag k="ssr:stedsnr" v="882761" />
	</node>
</osm>
