<?xml version="1.0" encoding="UTF-8"?>
<osm version="0.6" generator="osmapis">
	<node lat="70.60300002345099" lon="28.46927700682401" id="-57198">
		<tag k="name" v="Klubbu - Molvikklubben" />
		<tag k="name:no" v="Molvikklubben" />
		<tag k="name:se" v="Klubbu" />
		<tag k="natural" v="cape" />
		<tag k="old_name:se" v="Klubbo" />
		<tag k="ssr:stedsnr" v="20323" />
	</node>
	<node lat="70.49814168404237" lon="28.231729837458676" id="-57202">
		<tag k="name" v="Steinsvik" />
		<tag k="name:no" v="Steinsvik" />
		<tag k="natural" v="cape" />
		<tag k="ssr:stedsnr" v="28919" />
	</node>
	<node lat="70.44607779934266" lon="27.824288269845642" id="-57238">
		<tag k="name" v="Gáldogohppi" />
		<tag k="name:se" v="Gáldogohppi" />
		<tag k="natural" v="bay" />
		<tag k="old_name:se" v="Galdugåppi" />
		<tag k="ssr:stedsnr" v="81121" />
	</node>
	<node lat="70.50988335192017" lon="28.367593675944505" id="-57283">
		<tag k="name" v="Vieltegiehgohppi" />
		<tag k="name:se" v="Vieltegiehgohppi" />
		<tag k="natural" v="bay" />
		<tag k="ssr:stedsnr" v="146463" />
	</node>
	<node lat="70.63713057212209" lon="28.489424233309425" id="-57319">
		<tag k="name" v="Stabbenjarga" />
		<tag k="name:no" v="Stabbenjarga" />
		<tag k="natural" v="cape" />
		<tag k="ssr:stedsnr" v="262319" />
	</node>
	<node lat="70.67171112928533" lon="28.299379862086514" id="-57321">
		<tag k="name" v="Siskkit Rohtováknjárga" />
		<tag k="name:se" v="Siskkit Rohtováknjárga" />
		<tag k="natural" v="cape" />
		<tag k="old_name:se" v="Råttuvagnjarga, siskit" />
		<tag k="ssr:stedsnr" v="262329" />
	</node>
	<node lat="70.48281112840642" lon="28.15835485556238" id="-57350">
		<tag k="name" v="Stuorragohppi" />
		<tag k="name:se" v="Stuorragohppi" />
		<tag k="natural" v="bay" />
		<tag k="old_name:se" v="Stuorragåppi" />
		<tag k="ssr:stedsnr" v="263038" />
	</node>
	<node lat="70.58773335312684" lon="28.189477091027214" id="-57356">
		<tag k="fixme" v="consider seamark:type=rock or natural=shoal" />
		<tag k="name" v="Lásis - Skjæret" />
		<tag k="name:no" v="Skjæret" />
		<tag k="name:se" v="Lásis" />
		<tag k="old_name:se" v="Lasis" />
		<tag k="place" v="islet" />
		<tag k="ssr:stedsnr" v="263289" />
	</node>
	<node lat="70.48586390959056" lon="28.38712978857409" id="-57392">
		<tag k="name" v="Birkestranda" />
		<tag k="name:no" v="Birkestranda" />
		<tag k="natural" v="beach" />
		<tag k="ssr:stedsnr" v="269642" />
	</node>
	<node lat="70.46326669192935" lon="28.508276976215274" id="-57393">
		<tag k="name" v="Pulkebukt" />
		<tag k="name:no" v="Pulkebukt" />
		<tag k="natural" v="bay" />
		<tag k="ssr:stedsnr" v="269575" />
	</node>
	<node lat="70.50591390681166" lon="28.31087981117027" id="-57394">
		<tag k="loc_name:se" v="Eŋgelasluokta" />
		<tag k="name" v="Engelsbukt" />
		<tag k="name:no" v="Engelsbukt" />
		<tag k="natural" v="bay" />
		<tag k="ssr:stedsnr" v="216045" />
	</node>
	<node lat="70.48825002222816" lon="28.17588541141064" id="-57410">
		<tag k="loc_name:se" v="Čoalbmenjárga" />
		<tag k="name" v="Sundneset" />
		<tag k="name:no" v="Sundneset" />
		<tag k="natural" v="cape" />
		<tag k="ssr:stedsnr" v="271997" />
	</node>
	<node lat="70.48930835051034" lon="28.024618785085202" id="-57416">
		<tag k="name" v="Auskarklubben" />
		<tag k="name:no" v="Auskarklubben" />
		<tag k="natural" v="cape" />
		<tag k="ssr:stedsnr" v="455597" />
	</node>
	<node lat="70.62730835243269" lon="28.115277120003185" id="-57433">
		<tag k="name" v="Johkannjárga" />
		<tag k="name:se" v="Johkannjárga" />
		<tag k="natural" v="cape" />
		<tag k="old_name:se" v="Jåkkannjarga" />
		<tag k="ssr:stedsnr" v="263299" />
	</node>
	<node lat="70.4484083509327" lon="27.82706327727542" id="-57444">
		<tag k="name" v="Rahpariddu" />
		<tag k="name:se" v="Rahpariddu" />
		<tag k="natural" v="beach" />
		<tag k="ssr:stedsnr" v="459346" />
	</node>
	<node lat="70.45160001896345" lon="28.03824932167847" id="-57480">
		<tag k="name" v="Čoallesuddangohppi" />
		<tag k="name:se" v="Čoallesuddangohppi" />
		<tag k="natural" v="bay" />
		<tag k="old_name:se" v="Čoallesuddangåppi" />
		<tag k="ssr:stedsnr" v="323130" />
	</node>
	<node lat="70.45365279529119" lon="27.83289105741383" id="-57481">
		<tag k="name" v="Gálbenjárga" />
		<tag k="name:se" v="Gálbenjárga" />
		<tag k="natural" v="cape" />
		<tag k="old_name:se" v="Galbenjarga" />
		<tag k="ssr:stedsnr" v="323133" />
	</node>
	<node lat="70.49274724427808" lon="28.42726588377598" id="-57493">
		<tag k="alt_name:se" v="Bálkáđga" />
		<tag k="name" v="Bálkaáđga - Balkestrand" />
		<tag k="name:no" v="Balkestrand" />
		<tag k="name:se" v="Bálkaáđga" />
		<tag k="natural" v="beach" />
		<tag k="old_name:se" v="Balka-ađga" />
		<tag k="ssr:stedsnr" v="323880" />
	</node>
	<node lat="70.49680280129058" lon="28.056802104904932" id="-57557">
		<tag k="name" v="Áhpaluovttat" />
		<tag k="name:se" v="Áhpaluovttat" />
		<tag k="natural" v="bay" />
		<tag k="ssr:stedsnr" v="394608" />
	</node>
	<node lat="70.49506113271357" lon="28.04930487417827" id="-57558">
		<tag k="name" v="Muorraluokta" />
		<tag k="name:se" v="Muorraluokta" />
		<tag k="natural" v="bay" />
		<tag k="ssr:stedsnr" v="394610" />
	</node>
	<node lat="70.45978335110867" lon="27.911841034192115" id="-57602">
		<tag k="name" v="Jámešbávttgohppi" />
		<tag k="name:se" v="Jámešbávttgohppi" />
		<tag k="natural" v="bay" />
		<tag k="old_name:se" v="Jamešbavtgåppi" />
		<tag k="ssr:stedsnr" v="445007" />
	</node>
	<node lat="70.60552780154418" lon="28.374021478717" id="-57608">
		<tag k="name" v="Válččit - Skardholmen" />
		<tag k="name:no" v="Skardholmen" />
		<tag k="name:se" v="Válččit" />
		<tag k="old_name:se" v="Valčit" />
		<tag k="place" v="islet" />
		<tag k="ssr:stedsnr" v="445339" />
	</node>
	<node lat="70.50274042729818" lon="28.51508136671916" id="-57613">
		<tag k="name" v="Reakčavuotna - Lille Leirpollen" />
		<tag k="name:no" v="Lille Leirpollen" />
		<tag k="name:se" v="Reakčavuotna" />
		<tag k="natural" v="bay" />
		<tag k="old_name:no" v="Leirpollen, litle;Leirpollen, l;Litle Leirpollen" />
		<tag k="ssr:stedsnr" v="445885" />
	</node>
	<node lat="70.51583891368291" lon="28.45493532471407" id="-57614">
		<tag k="name" v="Bohki" />
		<tag k="name:se" v="Bohki" />
		<tag k="natural" v="strait" />
		<tag k="ssr:stedsnr" v="449120" />
	</node>
	<node lat="70.50776946749862" lon="28.424599236354915" id="-57615">
		<tag k="name" v="Stuorra Suoidnesuolu" />
		<tag k="name:se" v="Stuorra Suoidnesuolu" />
		<tag k="place" v="islet" />
		<tag k="ssr:stedsnr" v="450515" />
	</node>
	<node lat="70.46490280060947" lon="27.930266018543538" id="-57643">
		<tag k="name" v="Guorsagohppi" />
		<tag k="name:se" v="Guorsagohppi" />
		<tag k="natural" v="bay" />
		<tag k="old_name:se" v="Guorsagåppi" />
		<tag k="ssr:stedsnr" v="505009" />
	</node>
	<node lat="70.49849446399276" lon="27.970991010872538" id="-57645">
		<tag k="name" v="Geassenjárga" />
		<tag k="name:se" v="Geassenjárga" />
		<tag k="natural" v="cape" />
		<tag k="old_name:se" v="Gæssenjarga" />
		<tag k="ssr:stedsnr" v="505018" />
	</node>
	<node lat="70.502047238693" lon="27.991782669839033" id="-57654">
		<tag k="name" v="Geassenjárgeahči - Sommarneset" />
		<tag k="name:no" v="Sommarneset" />
		<tag k="name:se" v="Geassenjárgeahči" />
		<tag k="natural" v="cape" />
		<tag k="old_name:se" v="Gæssenjargæčči" />
		<tag k="ssr:stedsnr" v="505370" />
	</node>
	<node lat="70.51161066096336" lon="27.899282182787797" id="-57729">
		<tag k="fixme" v="multiple name tags, choose one and add the other to alt_name" />
		<tag k="name" v="Sullovuolluokta;Suolovárluokta;Soarveluokta - Moskevika" />
		<tag k="name:no" v="Moskevika" />
		<tag k="name:se" v="Sullovuolluokta;Suolovárluokta;Soarveluokta" />
		<tag k="natural" v="bay" />
		<tag k="ssr:stedsnr" v="687378" />
	</node>
	<node lat="70.4935361388194" lon="28.51780751669552" id="-57751">
		<tag k="name" v="Giemašlávvonjárga" />
		<tag k="name:se" v="Giemašlávvonjárga" />
		<tag k="natural" v="cape" />
		<tag k="old_name:se" v="Giemašlavvunjarga" />
		<tag k="ssr:stedsnr" v="687881" />
	</node>
	<node lat="70.48265835120867" lon="27.991285448677296" id="-57787">
		<tag k="name" v="Gohppi - Torhopen" />
		<tag k="name:no" v="Torhopen" />
		<tag k="name:se" v="Gohppi" />
		<tag k="natural" v="bay" />
		<tag k="ssr:stedsnr" v="694694" />
	</node>
	<node lat="70.51450002528205" lon="28.35809369350256" id="-57810">
		<tag k="name" v="Duvttanjárga" />
		<tag k="name:se" v="Duvttanjárga" />
		<tag k="natural" v="cape" />
		<tag k="ssr:stedsnr" v="701041" />
	</node>
	<node lat="70.49891668459932" lon="27.9508132331362" id="-57835">
		<tag k="name" v="Fiškonnjárga - Fiskeneset" />
		<tag k="name:no" v="Fiskeneset" />
		<tag k="name:se" v="Fiškonnjárga" />
		<tag k="natural" v="cape" />
		<tag k="old_name:se" v="Fiškunnjarga" />
		<tag k="ssr:stedsnr" v="626055" />
	</node>
	<node lat="70.47573891384422" lon="28.492307541719708" id="-57850">
		<tag k="fixme" v="consider seamark:type=rock or natural=shoal" />
		<tag k="name" v="Skjæret" />
		<tag k="name:no" v="Skjæret" />
		<tag k="place" v="islet" />
		<tag k="ssr:stedsnr" v="633592" />
	</node>
	<node lat="70.49465835448038" lon="28.180713173761205" id="-57852">
		<tag k="name" v="Huepynten" />
		<tag k="name:no" v="Huepynten" />
		<tag k="natural" v="cape" />
		<tag k="ssr:stedsnr" v="634983" />
	</node>
	<node lat="70.43314446190442" lon="27.875996572701123" id="-57863">
		<tag k="name" v="Uhcanjárga" />
		<tag k="name:se" v="Uhcanjárga" />
		<tag k="natural" v="cape" />
		<tag k="ssr:stedsnr" v="640714" />
	</node>
	<node lat="70.62762780174485" lon="28.480657563438132" id="-57884">
		<tag k="alt_name:no" v="Kvitnakken" />
		<tag k="name" v="Hanslåvsaklubben" />
		<tag k="name:no" v="Hanslåvsaklubben" />
		<tag k="natural" v="cape" />
		<tag k="ssr:stedsnr" v="687338" />
	</node>
	<node lat="70.62334446026681" lon="28.248429847029772" id="-57885">
		<tag k="alt_name:no" v="Breidvika" />
		<tag k="name" v="Govdaluokta - Breivika" />
		<tag k="name:no" v="Breivika" />
		<tag k="name:se" v="Govdaluokta" />
		<tag k="natural" v="bay" />
		<tag k="old_name:se" v="Gåvdaluokta" />
		<tag k="ssr:stedsnr" v="687339" />
	</node>
	<node lat="70.45386946666864" lon="28.481338071279673" id="-57898">
		<tag k="name" v="Juovlavuonbahta - Leirpollbotn" />
		<tag k="name:no" v="Leirpollbotn" />
		<tag k="name:se" v="Juovlavuonbahta" />
		<tag k="natural" v="bay" />
		<tag k="ssr:stedsnr" v="688787" />
	</node>
	<node lat="70.51427224257857" lon="28.369996451643026" id="-57900">
		<tag k="name" v="Vieltegiehnjárga" />
		<tag k="name:se" v="Vieltegiehnjárga" />
		<tag k="natural" v="cape" />
		<tag k="ssr:stedsnr" v="692015" />
	</node>
	<node lat="70.44258057374157" lon="28.061777104124456" id="-57902">
		<tag k="name" v="Reppenes" />
		<tag k="name:no" v="Reppenes" />
		<tag k="natural" v="cape" />
		<tag k="ssr:stedsnr" v="693889" />
	</node>
	<node lat="70.48662223816324" lon="27.916557702363555" id="-57907">
		<tag k="name" v="Skadjanjárga" />
		<tag k="name:se" v="Skadjanjárga" />
		<tag k="natural" v="cape" />
		<tag k="ssr:stedsnr" v="697590" />
	</node>
	<node lat="70.48052223741571" lon="27.955874348282602" id="-57960">
		<tag k="name" v="Tarmfjordvika" />
		<tag k="name:no" v="Tarmfjordvika" />
		<tag k="natural" v="bay" />
		<tag k="ssr:stedsnr" v="761944" />
	</node>
	<node lat="70.45855279781557" lon="27.86988547141699" id="-58039">
		<tag k="name" v="Gárgogeahči - Øyra" />
		<tag k="name:no" v="Øyra" />
		<tag k="name:se" v="Gárgogeahči" />
		<tag k="natural" v="cape" />
		<tag k="old_name:se" v="Gargugæčči" />
		<tag k="ssr:stedsnr" v="930012" />
	</node>
	<node lat="70.48978612734636" lon="28.13087153086225" id="-58041">
		<tag k="name" v="Hámmangohppi" />
		<tag k="name:se" v="Hámmangohppi" />
		<tag k="natural" v="bay" />
		<tag k="old_name:se" v="Hammangåppi" />
		<tag k="ssr:stedsnr" v="930017" />
	</node>
	<node lat="70.4430861267014" lon="27.8496132693221" id="-58052">
		<tag k="fixme" v="consider seamark:type=rock or natural=shoal" />
		<tag k="name" v="Lásis" />
		<tag k="name:se" v="Lásis" />
		<tag k="old_name:se" v="Lasis" />
		<tag k="place" v="islet" />
		<tag k="ssr:stedsnr" v="930127" />
	</node>
	<node lat="70.4690000136029" lon="27.927699364518944" id="-58053">
		<tag k="bay" v="fjord" />
		<tag k="name" v="Čuollovuotna - Tarmfjorden" />
		<tag k="name:no" v="Tarmfjorden" />
		<tag k="name:se" v="Čuollovuotna" />
		<tag k="natural" v="bay" />
		<tag k="old_name:se" v="Čuolluvuodna" />
		<tag k="ssr:stedsnr" v="869005" />
	</node>
	<node lat="70.54256946687951" lon="28.398679786475654" id="-58076">
		<tag k="name" v="Stáŋganasnjárga - Stangnes" />
		<tag k="name:no" v="Stangnes" />
		<tag k="name:se" v="Stáŋganasnjárga" />
		<tag k="natural" v="cape" />
		<tag k="old_name:se" v="Staŋganasnjarga" />
		<tag k="ssr:stedsnr" v="930442" />
	</node>
	<node lat="70.46496668624194" lon="28.0866243087369" id="-58078">
		<tag k="bay" v="fjord" />
		<tag k="name" v="Ráttovuotna - Smalfjorden - Rautuvuono" />
		<tag k="name:fkv" v="Rautuvuono" />
		<tag k="name:no" v="Smalfjorden" />
		<tag k="name:se" v="Ráttovuotna" />
		<tag k="natural" v="bay" />
		<tag k="old_name:se" v="Radduvuodna;Ráddovuotna" />
		<tag k="ssr:stedsnr" v="930576" />
	</node>
	<node lat="70.45585558083903" lon="28.46593530588277" id="-58146">
		<tag k="name" v="Bergneset" />
		<tag k="name:no" v="Bergneset" />
		<tag k="natural" v="cape" />
		<tag k="ssr:stedsnr" v="937609" />
	</node>
	<node lat="70.48317779425041" lon="27.901435470995576" id="-58153">
		<tag k="name" v="Njierenjárgohppi" />
		<tag k="name:se" v="Njierenjárgohppi" />
		<tag k="natural" v="bay" />
		<tag k="ssr:stedsnr" v="944916" />
	</node>
</osm>
