<?xml version="1.0" encoding="UTF-8"?>
<osm version="0.6" generator="osmapis">
	<node lat="70.02506946330554" lon="26.942913399281622" id="-40529">
		<tag k="fixme" v="consider natural=peak for the most distinct mountains in the district" />
		<tag k="name" v="Báišvárri" />
		<tag k="name:se" v="Báišvárri" />
		<tag k="natural" v="hill" />
		<tag k="old_name:se" v="Baišvarri" />
		<tag k="place" v="locality" />
		<tag k="ssr:stedsnr" v="19410" />
	</node>
	<node lat="70.10860002375667" lon="27.52396050642902" id="-40531">
		<tag k="fixme" v="consider natural=peak for the most distinct mountains in the district" />
		<tag k="loc_name:se" v="Kássavárri" />
		<tag k="name" v="Gássavárri" />
		<tag k="name:se" v="Gássavárri" />
		<tag k="natural" v="hill" />
		<tag k="old_name:se" v="Gassavarri" />
		<tag k="place" v="locality" />
		<tag k="ssr:stedsnr" v="19447" />
	</node>
	<node lat="69.86268612644557" lon="25.813885804843018" id="-40532">
		<tag k="fixme" v="consider natural=peak for the most distinct mountains in the district" />
		<tag k="name" v="Stuorra Suoidnoaivi" />
		<tag k="name:se" v="Stuorra Suoidnoaivi" />
		<tag k="natural" v="hill" />
		<tag k="old_name:se" v="Suoidnoaivi, stuorra" />
		<tag k="place" v="locality" />
		<tag k="ssr:stedsnr" v="19909" />
	</node>
	<node lat="70.47068612849847" lon="27.768938276907075" id="-40536">
		<tag k="fixme" v="consider natural=peak for the most distinct mountains in the district" />
		<tag k="name" v="Daŋasoaivi" />
		<tag k="name:se" v="Daŋasoaivi" />
		<tag k="natural" v="hill" />
		<tag k="old_name:se" v="Danasoaivi" />
		<tag k="place" v="locality" />
		<tag k="ssr:stedsnr" v="20007" />
	</node>
	<node lat="70.14568336280402" lon="28.166210330036655" id="-40549">
		<tag k="name" v="Muorječorru" />
		<tag k="name:se" v="Muorječorru" />
		<tag k="natural" v="hill" />
		<tag k="place" v="locality" />
		<tag k="ssr:stedsnr" v="34013" />
	</node>
	<node lat="70.07360557929711" lon="27.991907611118446" id="-40552">
		<tag k="name" v="Girkobákti" />
		<tag k="name:se" v="Girkobákti" />
		<tag k="natural" v="hill" />
		<tag k="place" v="locality" />
		<tag k="ssr:stedsnr" v="34429" />
	</node>
	<node lat="70.13163057625142" lon="28.174613117922718" id="-40556">
		<tag k="name" v="Allabolnnit" />
		<tag k="name:se" v="Allabolnnit" />
		<tag k="natural" v="hill" />
		<tag k="place" v="locality" />
		<tag k="ssr:stedsnr" v="34813" />
	</node>
	<node lat="70.0279416911417" lon="28.137674199911793" id="-40567">
		<tag k="fixme" v="consider natural=peak for the most distinct mountains in the district" />
		<tag k="name" v="Nurki" />
		<tag k="name:se" v="Nurki" />
		<tag k="natural" v="hill" />
		<tag k="place" v="locality" />
		<tag k="ssr:stedsnr" v="79803" />
	</node>
	<node lat="70.23648057735599" lon="28.3228491996513" id="-40568">
		<tag k="alt_name:se" v="Geaidnonjunni" />
		<tag k="fixme" v="consider natural=peak for the most distinct mountains in the district" />
		<tag k="name" v="Johtonjunni" />
		<tag k="name:se" v="Johtonjunni" />
		<tag k="natural" v="hill" />
		<tag k="old_name:se" v="Jåttunjunni" />
		<tag k="place" v="locality" />
		<tag k="ssr:stedsnr" v="79791" />
	</node>
	<node lat="69.97463612776062" lon="27.130566138068154" id="-40575">
		<tag k="fixme" v="consider natural=peak for the most distinct mountains in the district" />
		<tag k="name" v="Luosnjárvárri" />
		<tag k="name:se" v="Luosnjárvárri" />
		<tag k="natural" v="hill" />
		<tag k="place" v="locality" />
		<tag k="ssr:stedsnr" v="80804" />
	</node>
	<node lat="70.42211668529535" lon="27.84521882777531" id="-40580">
		<tag k="fixme" v="consider natural=peak for the most distinct mountains in the district" />
		<tag k="name" v="Gálbbesgurčohkat" />
		<tag k="name:se" v="Gálbbesgurčohkat" />
		<tag k="natural" v="hill" />
		<tag k="old_name:se" v="Galbesgurčåkkat" />
		<tag k="place" v="locality" />
		<tag k="ssr:stedsnr" v="81107" />
	</node>
	<node lat="70.42876946691892" lon="28.214065933010456" id="-40582">
		<tag k="fixme" v="consider natural=peak for the most distinct mountains in the district" />
		<tag k="name" v="Heargevárri - Sankt-Hanshaugen" />
		<tag k="name:no" v="Sankt-Hanshaugen" />
		<tag k="name:se" v="Heargevárri" />
		<tag k="natural" v="hill" />
		<tag k="old_name:se" v="Hærgevarri" />
		<tag k="place" v="locality" />
		<tag k="ssr:stedsnr" v="81111" />
	</node>
	<node lat="70.3062861358257" lon="28.15543537541258" id="-40585">
		<tag k="name" v="Suolovárguolbba - Holmfjellsletta" />
		<tag k="name:no" v="Holmfjellsletta" />
		<tag k="name:se" v="Suolovárguolbba" />
		<tag k="old_name:se" v="Suoluvarguolba" />
		<tag k="place" v="locality" />
		<tag k="ssr:stedsnr" v="81835" />
	</node>
	<node lat="70.06368891170457" lon="28.020604801532656" id="-40587">
		<tag k="name" v="Skáideleahki" />
		<tag k="name:se" v="Skáideleahki" />
		<tag k="natural" v="valley" />
		<tag k="place" v="locality" />
		<tag k="ssr:stedsnr" v="94603" />
	</node>
	<node lat="70.42443613104167" lon="28.207802039498908" id="-40590">
		<tag k="name" v="Guolban" />
		<tag k="name:se" v="Guolban" />
		<tag k="place" v="locality" />
		<tag k="ssr:stedsnr" v="95170" />
	</node>
	<node lat="70.40197224288012" lon="28.049624316485296" id="-40592">
		<tag k="name" v="Guovžaleahki" />
		<tag k="name:se" v="Guovžaleahki" />
		<tag k="natural" v="valley" />
		<tag k="place" v="locality" />
		<tag k="ssr:stedsnr" v="95279" />
	</node>
	<node lat="70.44064446102308" lon="27.85220215089336" id="-40596">
		<tag k="name" v="Skjæret" />
		<tag k="name:no" v="Skjæret" />
		<tag k="natural" v="slope" />
		<tag k="place" v="locality" />
		<tag k="ssr:stedsnr" v="95666" />
	</node>
	<node lat="70.16239447180143" lon="28.283063089612988" id="-40598">
		<tag k="fixme" v="consider natural=peak for the most distinct mountains in the district" />
		<tag k="name" v="Guorboaivvit" />
		<tag k="name:se" v="Guorboaivvit" />
		<tag k="natural" v="hill" />
		<tag k="place" v="locality" />
		<tag k="ssr:stedsnr" v="95903" />
	</node>
	<node lat="70.41863335019542" lon="28.174821508475862" id="-40599">
		<tag k="fixme" v="consider natural=peak for the most distinct mountains in the district" />
		<tag k="name" v="Urravárri" />
		<tag k="name:se" v="Urravárri" />
		<tag k="natural" v="hill" />
		<tag k="place" v="locality" />
		<tag k="ssr:stedsnr" v="95905" />
	</node>
	<node lat="70.0761861322942" lon="27.527457718117475" id="-40604">
		<tag k="name" v="Silbašávži" />
		<tag k="name:se" v="Silbašávži" />
		<tag k="natural" v="valley" />
		<tag k="place" v="locality" />
		<tag k="ssr:stedsnr" v="105307" />
	</node>
	<node lat="70.13703057091344" lon="26.77236068152111" id="-40610">
		<tag k="fixme" v="consider natural=peak for the most distinct mountains in the district" />
		<tag k="name" v="Ullogáishoaŋka" />
		<tag k="name:se" v="Ullogáishoaŋka" />
		<tag k="natural" v="hill" />
		<tag k="old_name:se" v="Ullugaishoaŋka" />
		<tag k="place" v="locality" />
		<tag k="ssr:stedsnr" v="140406" />
	</node>
	<node lat="70.0239472420503" lon="27.173627243177712" id="-40612">
		<tag k="name" v="Geahčoaiguolbanat" />
		<tag k="name:se" v="Geahčoaiguolbanat" />
		<tag k="old_name:se" v="Gæččoaiguolbanat" />
		<tag k="place" v="locality" />
		<tag k="ssr:stedsnr" v="140472" />
	</node>
	<node lat="70.47047501739328" lon="27.967660469054202" id="-40615">
		<tag k="name" v="Urravárri - Vardefjell" />
		<tag k="name:no" v="Vardefjell" />
		<tag k="name:se" v="Urravárri" />
		<tag k="natural" v="hill" />
		<tag k="old_name:se" v="Urravarri" />
		<tag k="place" v="locality" />
		<tag k="ssr:stedsnr" v="141002" />
	</node>
	<node lat="70.47713613292635" lon="28.04221876133383" id="-40616">
		<tag k="fixme" v="consider natural=peak for the most distinct mountains in the district" />
		<tag k="name" v="Gohppevárri" />
		<tag k="name:se" v="Gohppevárri" />
		<tag k="natural" v="hill" />
		<tag k="old_name:se" v="Gåppevarri" />
		<tag k="place" v="locality" />
		<tag k="ssr:stedsnr" v="141005" />
	</node>
	<node lat="70.40305557354083" lon="27.91057435214217" id="-40618">
		<tag k="fixme" v="consider natural=peak for the most distinct mountains in the district" />
		<tag k="name" v="Ruovddášvárri" />
		<tag k="name:se" v="Ruovddášvárri" />
		<tag k="natural" v="hill" />
		<tag k="old_name:se" v="Ruovdašvarri" />
		<tag k="place" v="locality" />
		<tag k="ssr:stedsnr" v="141094" />
	</node>
	<node lat="70.40340835389414" lon="28.453485293822038" id="-40622">
		<tag k="alt_name:se" v="Guivvagorsa" />
		<tag k="name" v="Guivvešgorsa" />
		<tag k="name:se" v="Guivvešgorsa" />
		<tag k="natural" v="valley" />
		<tag k="old_name:se" v="Guivešgårsa" />
		<tag k="place" v="locality" />
		<tag k="ssr:stedsnr" v="141782" />
	</node>
	<node lat="70.38364724661933" lon="28.26886591761326" id="-40624">
		<tag k="alt_name:se" v="Roavvi" />
		<tag k="fixme" v="consider natural=peak for the most distinct mountains in the district" />
		<tag k="name" v="Heargebákti" />
		<tag k="name:se" v="Heargebákti" />
		<tag k="natural" v="hill" />
		<tag k="old_name:se" v="Hærgebakti" />
		<tag k="place" v="locality" />
		<tag k="ssr:stedsnr" v="141787" />
	</node>
	<node lat="70.38136946955515" lon="28.22818259587212" id="-40625">
		<tag k="fixme" v="consider natural=peak for the most distinct mountains in the district" />
		<tag k="name" v="Gearralvárri - Petterlundfjellet" />
		<tag k="name:no" v="Petterlundfjellet" />
		<tag k="name:se" v="Gearralvárri" />
		<tag k="natural" v="hill" />
		<tag k="old_name:se" v="Gærralvarri" />
		<tag k="place" v="locality" />
		<tag k="ssr:stedsnr" v="141788" />
	</node>
	<node lat="69.93506390428762" lon="27.139821678438604" id="-40631">
		<tag k="name" v="Čávastatguolbba" />
		<tag k="name:se" v="Čávastatguolbba" />
		<tag k="old_name:se" v="Čavastatguolba" />
		<tag k="place" v="locality" />
		<tag k="ssr:stedsnr" v="149915" />
	</node>
	<node lat="70.38904724992153" lon="28.485163059584103" id="-40634">
		<tag k="fixme" v="consider natural=peak for the most distinct mountains in the district" />
		<tag k="name" v="Njirravárri" />
		<tag k="name:se" v="Njirravárri" />
		<tag k="natural" v="hill" />
		<tag k="place" v="locality" />
		<tag k="ssr:stedsnr" v="155406" />
	</node>
	<node lat="70.4556972412" lon="28.431835322235674" id="-40635">
		<tag k="name" v="Klokkervasstoppen" />
		<tag k="name:no" v="Klokkervasstoppen" />
		<tag k="natural" v="hill" />
		<tag k="place" v="locality" />
		<tag k="ssr:stedsnr" v="155305" />
	</node>
	<node lat="70.08985557611392" lon="27.87144097235217" id="-40636">
		<tag k="fixme" v="consider natural=peak for the most distinct mountains in the district" />
		<tag k="name" v="Uhca Njuorggánváráš" />
		<tag k="name:se" v="Uhca Njuorggánváráš" />
		<tag k="natural" v="hill" />
		<tag k="place" v="locality" />
		<tag k="ssr:stedsnr" v="155568" />
	</node>
	<node lat="70.08591113327272" lon="28.074277015172445" id="-40639">
		<tag k="name" v="Joppir" />
		<tag k="name:se" v="Joppir" />
		<tag k="natural" v="hill" />
		<tag k="place" v="locality" />
		<tag k="ssr:stedsnr" v="155719" />
	</node>
	<node lat="70.09097224468074" lon="28.07017146104225" id="-40641">
		<tag k="name" v="Oarrigurra" />
		<tag k="name:se" v="Oarrigurra" />
		<tag k="natural" v="valley" />
		<tag k="place" v="locality" />
		<tag k="ssr:stedsnr" v="155656" />
	</node>
	<node lat="70.18310558169402" lon="28.36022418119552" id="-40652">
		<tag k="name" v="Sáttovárri - Seidafjellet" />
		<tag k="name:no" v="Seidafjellet" />
		<tag k="name:se" v="Sáttovárri" />
		<tag k="natural" v="mountain_range" />
		<tag k="old_name:se" v="Sadduvarri" />
		<tag k="ssr:stedsnr" v="261812" />
	</node>
	<node lat="70.17524723786757" lon="27.813588231570126" id="-40655">
		<tag k="name" v="Lohkkávži" />
		<tag k="name:se" v="Lohkkávži" />
		<tag k="natural" v="valley" />
		<tag k="old_name:se" v="Låkkavži" />
		<tag k="place" v="locality" />
		<tag k="ssr:stedsnr" v="261958" />
	</node>
	<node lat="70.37943613579394" lon="28.114702060350453" id="-40657">
		<tag k="fixme" v="consider natural=peak for the most distinct mountains in the district" />
		<tag k="name" v="Bokcávárri" />
		<tag k="name:se" v="Bokcávárri" />
		<tag k="natural" v="hill" />
		<tag k="old_name:se" v="Båkcavarri" />
		<tag k="place" v="locality" />
		<tag k="ssr:stedsnr" v="262062" />
	</node>
	<node lat="70.14811391309533" lon="27.755843792963947" id="-40660">
		<tag k="name" v="Stuorrageađggevađat" />
		<tag k="name:se" v="Stuorrageađggevađat" />
		<tag k="old_name:se" v="Stuorragæđgevađat" />
		<tag k="place" v="locality" />
		<tag k="ssr:stedsnr" v="261990" />
	</node>
	<node lat="70.59650002115693" lon="28.51200754945732" id="-40661">
		<tag k="fixme" v="consider natural=peak for the most distinct mountains in the district" />
		<tag k="name" v="Stuorraskáinjuovčča" />
		<tag k="name:se" v="Stuorraskáinjuovčča" />
		<tag k="natural" v="hill" />
		<tag k="old_name:se" v="Stuorraskainjuovča" />
		<tag k="place" v="locality" />
		<tag k="ssr:stedsnr" v="262308" />
	</node>
	<node lat="70.63283335538942" lon="28.526521448456506" id="-40663">
		<tag k="name" v="Gusaidleahki" />
		<tag k="name:se" v="Gusaidleahki" />
		<tag k="natural" v="valley" />
		<tag k="old_name:se" v="Gusaidlækki" />
		<tag k="place" v="locality" />
		<tag k="ssr:stedsnr" v="262318" />
	</node>
	<node lat="70.66012502042732" lon="28.530260346066864" id="-40665">
		<tag k="name" v="Fátnovággi" />
		<tag k="name:se" v="Fátnovággi" />
		<tag k="natural" v="valley" />
		<tag k="old_name:se" v="Fadnuvaggi" />
		<tag k="place" v="locality" />
		<tag k="ssr:stedsnr" v="262325" />
	</node>
	<node lat="70.09749445910474" lon="26.690669025507376" id="-40667">
		<tag k="fixme" v="consider natural=peak for the most distinct mountains in the district" />
		<tag k="name" v="Doaresráhppát" />
		<tag k="name:se" v="Doaresráhppát" />
		<tag k="natural" v="hill" />
		<tag k="old_name:se" v="Doaresrappat" />
		<tag k="place" v="locality" />
		<tag k="ssr:stedsnr" v="262420" />
	</node>
	<node lat="70.03794723374371" lon="26.28204129662281" id="-40668">
		<tag k="name" v="Máttimuš Borsegeahči" />
		<tag k="name:se" v="Máttimuš Borsegeahči" />
		<tag k="natural" v="valley" />
		<tag k="place" v="locality" />
		<tag k="ssr:stedsnr" v="262360" />
	</node>
	<node lat="70.0111000166478" lon="26.370155175075936" id="-40671">
		<tag k="fixme" v="consider natural=peak for the most distinct mountains in the district" />
		<tag k="name" v="Gottetvárri" />
		<tag k="name:se" v="Gottetvárri" />
		<tag k="natural" v="hill" />
		<tag k="old_name:se" v="Gåddetvarri" />
		<tag k="place" v="locality" />
		<tag k="ssr:stedsnr" v="262383" />
	</node>
	<node lat="70.04911945609577" lon="27.06625228309626" id="-40673">
		<tag k="name" v="Gappatávži" />
		<tag k="name:se" v="Gappatávži" />
		<tag k="natural" v="valley" />
		<tag k="old_name:se" v="Gabbatavži" />
		<tag k="place" v="locality" />
		<tag k="ssr:stedsnr" v="262511" />
	</node>
	<node lat="70.44329724916895" lon="28.542268615126833" id="-40675">
		<tag k="fixme" v="consider natural=peak for the most distinct mountains in the district" />
		<tag k="name" v="Láppesguravárri" />
		<tag k="name:se" v="Láppesguravárri" />
		<tag k="natural" v="hill" />
		<tag k="old_name:se" v="Labbesguravarri" />
		<tag k="place" v="locality" />
		<tag k="ssr:stedsnr" v="262815" />
	</node>
	<node lat="70.44035835547194" lon="28.231113158961794" id="-40676">
		<tag k="alt_name:no" v="Ulveskardet" />
		<tag k="loc_name:se" v="Gumpeleahki" />
		<tag k="name" v="Ulveskaret" />
		<tag k="name:no" v="Ulveskaret" />
		<tag k="natural" v="valley" />
		<tag k="place" v="locality" />
		<tag k="ssr:stedsnr" v="262817" />
	</node>
	<node lat="70.08859168880595" lon="28.304229733594365" id="-40677">
		<tag k="fixme" v="consider natural=peak for the most distinct mountains in the district" />
		<tag k="name" v="Čorrovárri" />
		<tag k="name:se" v="Čorrovárri" />
		<tag k="natural" v="hill" />
		<tag k="old_name:se" v="Čårruvarri" />
		<tag k="place" v="locality" />
		<tag k="ssr:stedsnr" v="262822" />
	</node>
	<node lat="70.08815835767136" lon="27.792285441935473" id="-40686">
		<tag k="alt_name:se" v="Erkkeoaivi" />
		<tag k="name" v="Erkkoaivi" />
		<tag k="name:se" v="Erkkoaivi" />
		<tag k="natural" v="hill" />
		<tag k="old_name:se" v="Erkoaivi" />
		<tag k="place" v="locality" />
		<tag k="ssr:stedsnr" v="262920" />
	</node>
	<node lat="69.93741667922683" lon="26.269569071347842" id="-40692">
		<tag k="fixme" v="consider natural=peak for the most distinct mountains in the district" />
		<tag k="name" v="Muorroaivi" />
		<tag k="name:se" v="Muorroaivi" />
		<tag k="natural" v="hill" />
		<tag k="place" v="locality" />
		<tag k="ssr:stedsnr" v="262987" />
	</node>
	<node lat="69.94587778988206" lon="26.4070246035699" id="-40693">
		<tag k="fixme" v="consider natural=peak for the most distinct mountains in the district" />
		<tag k="name" v="Dárjohčohkka" />
		<tag k="name:se" v="Dárjohčohkka" />
		<tag k="natural" v="hill" />
		<tag k="old_name:se" v="Darjåkčåkka" />
		<tag k="place" v="locality" />
		<tag k="ssr:stedsnr" v="262990" />
	</node>
	<node lat="70.48615557506022" lon="28.064654870365604" id="-40694">
		<tag k="fixme" v="consider natural=peak for the most distinct mountains in the district" />
		<tag k="name" v="Stuorraoaivi" />
		<tag k="name:se" v="Stuorraoaivi" />
		<tag k="natural" v="hill" />
		<tag k="place" v="locality" />
		<tag k="ssr:stedsnr" v="263036" />
	</node>
	<node lat="70.43476390252081" lon="27.67499942118769" id="-40698">
		<tag k="name" v="Geaidnonjoaski" />
		<tag k="name:se" v="Geaidnonjoaski" />
		<tag k="natural" v="valley" />
		<tag k="old_name:se" v="Gæidnunjoaski" />
		<tag k="place" v="locality" />
		<tag k="ssr:stedsnr" v="263138" />
	</node>
	<node lat="70.58916946292004" lon="28.072121556630613" id="-40700">
		<tag k="fixme" v="consider natural=peak for the most distinct mountains in the district" />
		<tag k="name" v="Lodnjesgáisá" />
		<tag k="name:se" v="Lodnjesgáisá" />
		<tag k="natural" v="hill" />
		<tag k="old_name:se" v="Lådnjesgaisa" />
		<tag k="place" v="locality" />
		<tag k="ssr:stedsnr" v="263288" />
	</node>
	<node lat="70.28888613456009" lon="28.019871527114177" id="-40703">
		<tag k="fixme" v="consider natural=peak for the most distinct mountains in the district" />
		<tag k="name" v="Geinnodatvárri" />
		<tag k="name:se" v="Geinnodatvárri" />
		<tag k="natural" v="hill" />
		<tag k="old_name:se" v="Geinudatvarri" />
		<tag k="place" v="locality" />
		<tag k="ssr:stedsnr" v="263560" />
	</node>
	<node lat="70.2678639131547" lon="28.15058815003673" id="-40705">
		<tag k="loc_name:fkv" v="Maskijoenkolbanen" />
		<tag k="loc_name:no" v="Masjokmoen;Masjoksletta" />
		<tag k="name" v="Máskejohguolbba" />
		<tag k="name:se" v="Máskejohguolbba" />
		<tag k="old_name:se" v="Maskejåkguolba;Máskejohkguolbba" />
		<tag k="place" v="locality" />
		<tag k="ssr:stedsnr" v="263830" />
	</node>
	<node lat="70.44204724716514" lon="28.458876966546857" id="-40708">
		<tag k="name" v="Gaskasuorgi" />
		<tag k="name:se" v="Gaskasuorgi" />
		<tag k="natural" v="valley" />
		<tag k="place" v="locality" />
		<tag k="ssr:stedsnr" v="263775" />
	</node>
	<node lat="70.45888613456978" lon="28.269513150662664" id="-40709">
		<tag k="alt_name:no" v="Fossebakken" />
		<tag k="name" v="Fossbakken" />
		<tag k="name:no" v="Fossbakken" />
		<tag k="natural" v="slope" />
		<tag k="place" v="locality" />
		<tag k="ssr:stedsnr" v="263854" />
	</node>
	<node lat="70.46601668594401" lon="28.52365196567615" id="-40710">
		<tag k="fixme" v="consider natural=peak for the most distinct mountains in the district" />
		<tag k="name" v="Giemašvárri" />
		<tag k="name:se" v="Giemašvárri" />
		<tag k="natural" v="hill" />
		<tag k="old_name:se" v="Giemašvarri" />
		<tag k="place" v="locality" />
		<tag k="ssr:stedsnr" v="263860" />
	</node>
	<node lat="69.96970557111321" lon="27.248152214162577" id="-40712">
		<tag k="name" v="Eliasávži" />
		<tag k="name:se" v="Eliasávži" />
		<tag k="natural" v="valley" />
		<tag k="place" v="locality" />
		<tag k="ssr:stedsnr" v="201776" />
	</node>
	<node lat="70.08469169246396" lon="28.140015892684698" id="-40717">
		<tag k="fixme" v="consider natural=peak for the most distinct mountains in the district" />
		<tag k="name" v="Álletvárri" />
		<tag k="name:se" v="Álletvárri" />
		<tag k="natural" v="hill" />
		<tag k="old_name:se" v="Alletvarri" />
		<tag k="place" v="locality" />
		<tag k="ssr:stedsnr" v="201909" />
	</node>
	<node lat="70.58990002108465" lon="28.576040862759488" id="-40729">
		<tag k="fixme" v="consider natural=peak for the most distinct mountains in the district" />
		<tag k="name" v="Áhkkárčohkka" />
		<tag k="name:se" v="Áhkkárčohkka" />
		<tag k="natural" v="hill" />
		<tag k="old_name:se" v="Akkarčåkka" />
		<tag k="place" v="locality" />
		<tag k="ssr:stedsnr" v="202316" />
	</node>
	<node lat="70.42291668490836" lon="27.92013825082506" id="-40730">
		<tag k="fixme" v="consider natural=peak for the most distinct mountains in the district" />
		<tag k="name" v="Báktejárčohkka" />
		<tag k="name:se" v="Báktejárčohkka" />
		<tag k="natural" v="hill" />
		<tag k="old_name:se" v="Baktejarcåkka" />
		<tag k="place" v="locality" />
		<tag k="ssr:stedsnr" v="202098" />
	</node>
	<node lat="70.09465002308323" lon="27.91405486059925" id="-40743">
		<tag k="name" v="Vuopmanat" />
		<tag k="name:se" v="Vuopmanat" />
		<tag k="place" v="locality" />
		<tag k="ssr:stedsnr" v="216477" />
	</node>
	<node lat="70.1813055784059" lon="28.263829750696424" id="-40744">
		<tag k="name" v="Rihtánjunni" />
		<tag k="name:se" v="Rihtánjunni" />
		<tag k="natural" v="hill" />
		<tag k="place" v="locality" />
		<tag k="ssr:stedsnr" v="216674" />
	</node>
	<node lat="70.08146113154699" lon="28.120396451234985" id="-40745">
		<tag k="name" v="Sávzaroggi" />
		<tag k="name:se" v="Sávzaroggi" />
		<tag k="natural" v="valley" />
		<tag k="place" v="locality" />
		<tag k="ssr:stedsnr" v="216694" />
	</node>
	<node lat="70.09231113935444" lon="28.097177021705118" id="-40747">
		<tag k="name" v="Rávitgurra" />
		<tag k="name:se" v="Rávitgurra" />
		<tag k="natural" v="valley" />
		<tag k="place" v="locality" />
		<tag k="ssr:stedsnr" v="216713" />
	</node>
	<node lat="70.16967502629916" lon="28.149282559371688" id="-40748">
		<tag k="name" v="Doaresjohluohkká" />
		<tag k="name:se" v="Doaresjohluohkká" />
		<tag k="natural" v="slope" />
		<tag k="place" v="locality" />
		<tag k="ssr:stedsnr" v="216978" />
	</node>
	<node lat="70.0832861347137" lon="27.763821562176744" id="-40751">
		<tag k="fixme" v="consider natural=peak for the most distinct mountains in the district" />
		<tag k="name" v="Muotkečopma" />
		<tag k="name:se" v="Muotkečopma" />
		<tag k="natural" v="hill" />
		<tag k="place" v="locality" />
		<tag k="ssr:stedsnr" v="270761" />
	</node>
	<node lat="70.09640835228515" lon="27.80639099868788" id="-40754">
		<tag k="fixme" v="consider natural=peak for the most distinct mountains in the district" />
		<tag k="name" v="Báktávžžemaras" />
		<tag k="name:se" v="Báktávžžemaras" />
		<tag k="natural" v="hill" />
		<tag k="place" v="locality" />
		<tag k="ssr:stedsnr" v="226386" />
	</node>
	<node lat="69.96275557274379" lon="27.265774437540507" id="-40759">
		<tag k="fixme" v="consider natural=peak for the most distinct mountains in the district" />
		<tag k="name" v="Eliasvárri" />
		<tag k="name:se" v="Eliasvárri" />
		<tag k="natural" v="hill" />
		<tag k="place" v="locality" />
		<tag k="ssr:stedsnr" v="453894" />
	</node>
	<node lat="70.34292501247117" lon="27.431660572872566" id="-40762">
		<tag k="fixme" v="consider natural=peak for the most distinct mountains in the district" />
		<tag k="name" v="Divgoaiseaibbuš" />
		<tag k="name:se" v="Divgoaiseaibbuš" />
		<tag k="natural" v="hill" />
		<tag k="old_name:se" v="Divgoaisæiboš" />
		<tag k="place" v="locality" />
		<tag k="ssr:stedsnr" v="262055" />
	</node>
	<node lat="70.45057502514882" lon="28.52027973307047" id="-40767">
		<tag k="name" v="Leirpollia" />
		<tag k="name:no" v="Leirpollia" />
		<tag k="natural" v="slope" />
		<tag k="place" v="locality" />
		<tag k="ssr:stedsnr" v="262808" />
	</node>
	<node lat="70.37895002226485" lon="28.278918676187985" id="-40768">
		<tag k="fixme" v="consider natural=peak for the most distinct mountains in the district" />
		<tag k="name" v="Roavvečohkka" />
		<tag k="name:se" v="Roavvečohkka" />
		<tag k="natural" v="hill" />
		<tag k="old_name:se" v="Roavvečåkka" />
		<tag k="place" v="locality" />
		<tag k="ssr:stedsnr" v="262843" />
	</node>
	<node lat="70.1412916940916" lon="28.317488063159388" id="-40769">
		<tag k="fixme" v="consider natural=peak for the most distinct mountains in the district" />
		<tag k="name" v="Máttastivrran" />
		<tag k="name:se" v="Máttastivrran" />
		<tag k="natural" v="hill" />
		<tag k="old_name:se" v="Maddastivran" />
		<tag k="place" v="locality" />
		<tag k="ssr:stedsnr" v="262796" />
	</node>
	<node lat="70.11314446092294" lon="27.775929894261097" id="-40773">
		<tag k="fixme" v="consider natural=peak for the most distinct mountains in the district" />
		<tag k="loc_name:se" v="Ruitocuvketančopma" />
		<tag k="name" v="Ruitocuvkenčopma" />
		<tag k="name:se" v="Ruitocuvkenčopma" />
		<tag k="natural" v="hill" />
		<tag k="old_name:se" v="Ruitucuvkenčåbma" />
		<tag k="place" v="locality" />
		<tag k="ssr:stedsnr" v="262908" />
	</node>
	<node lat="70.11889447138796" lon="27.908968739845964" id="-40774">
		<tag k="fixme" v="consider natural=peak for the most distinct mountains in the district" />
		<tag k="name" v="Uhca Máskeváráš" />
		<tag k="name:se" v="Uhca Máskeváráš" />
		<tag k="natural" v="hill" />
		<tag k="old_name:se" v="Maskevaraš, ucca" />
		<tag k="place" v="locality" />
		<tag k="ssr:stedsnr" v="262898" />
	</node>
	<node lat="70.13130002033023" lon="27.759088227177756" id="-40775">
		<tag k="fixme" v="consider natural=peak for the most distinct mountains in the district" />
		<tag k="loc_name:se" v="Toardna" />
		<tag k="name" v="Doardna" />
		<tag k="name:se" v="Doardna" />
		<tag k="natural" v="hill" />
		<tag k="place" v="locality" />
		<tag k="ssr:stedsnr" v="262993" />
	</node>
	<node lat="70.43283612598893" lon="27.95082990819976" id="-40777">
		<tag k="name" v="Čohkalas - Toppfjellet" />
		<tag k="name:no" v="Toppfjellet" />
		<tag k="name:se" v="Čohkalas" />
		<tag k="natural" v="plateau" />
		<tag k="old_name:se" v="Čåkkalas;Čohkkalas" />
		<tag k="ssr:stedsnr" v="263105" />
	</node>
	<node lat="70.49242502088366" lon="28.311132588662467" id="-40781">
		<tag k="name" v="Rundhaugen" />
		<tag k="name:no" v="Rundhaugen" />
		<tag k="natural" v="hill" />
		<tag k="place" v="locality" />
		<tag k="ssr:stedsnr" v="459053" />
	</node>
	<node lat="70.47974723988578" lon="28.301999254244514" id="-40786">
		<tag k="name" v="Lilletoppen" />
		<tag k="name:no" v="Lilletoppen" />
		<tag k="natural" v="hill" />
		<tag k="place" v="locality" />
		<tag k="ssr:stedsnr" v="459141" />
	</node>
	<node lat="70.08827502357381" lon="27.90967151029402" id="-40792">
		<tag k="name" v="Fierrangurra" />
		<tag k="name:se" v="Fierrangurra" />
		<tag k="natural" v="valley" />
		<tag k="place" v="locality" />
		<tag k="ssr:stedsnr" v="459444" />
	</node>
	<node lat="70.1198416886109" lon="28.138685343462683" id="-40795">
		<tag k="name" v="Fielbmaguolbba" />
		<tag k="name:se" v="Fielbmaguolbba" />
		<tag k="place" v="locality" />
		<tag k="ssr:stedsnr" v="459740" />
	</node>
	<node lat="70.21124447103324" lon="28.223707571591124" id="-40797">
		<tag k="fixme" v="consider natural=peak for the most distinct mountains in the district" />
		<tag k="name" v="Vuovdeoaivi" />
		<tag k="name:se" v="Vuovdeoaivi" />
		<tag k="natural" v="hill" />
		<tag k="place" v="locality" />
		<tag k="ssr:stedsnr" v="459884" />
	</node>
	<node lat="70.36966390831063" lon="28.177357613095463" id="-40799">
		<tag k="name" v="Urabakken" />
		<tag k="name:no" v="Urabakken" />
		<tag k="natural" v="slope" />
		<tag k="place" v="locality" />
		<tag k="ssr:stedsnr" v="277313" />
	</node>
</osm>
