<?xml version="1.0" encoding="UTF-8"?>
<osm generator="osmapis" version="0.6">
	<node id="-459328" lat="60.5262916677" lon="6.72178333616">
		<tag k="alt_name" v="Granvin" />
		<tag k="name" v="Granvin herad" />
		<tag k="ssr:date" v="2019-02-26" />
		<tag k="ssr:gruppe" v="administrativeIndelinger" />
		<tag k="ssr:hovedgruppe" v="offentligAdministrasjon" />
		<tag k="ssr:stedsnr" v="206310" />
		<tag k="ssr:type" v="kommune" />
	</node>
	<node id="-459173" lat="60.5916036731" lon="6.67135980902">
		<tag k="name" v="Fogerlii" />
		<tag k="ssr:date" v="2019-11-27" />
		<tag k="ssr:gruppe" v="veg" />
		<tag k="ssr:hovedgruppe" v="infrastruktur" />
		<tag k="ssr:stedsnr" v="1073570" />
		<tag k="ssr:type" v="adressenavn" />
	</node>
	<node id="-459644" lat="60.5246972183" lon="6.72987777242">
		<tag k="name" v="Skielvvegen" />
		<tag k="ssr:date" v="2019-05-30" />
		<tag k="ssr:gruppe" v="veg" />
		<tag k="ssr:hovedgruppe" v="infrastruktur" />
		<tag k="ssr:stedsnr" v="788977" />
		<tag k="ssr:type" v="adressenavn" />
	</node>
	<node id="-459033" lat="60.4806603257" lon="6.58213765019">
		<tag k="name" v="Kvanndalsstølen" />
		<tag k="ssr:date" v="2019-05-30" />
		<tag k="ssr:gruppe" v="veg" />
		<tag k="ssr:hovedgruppe" v="infrastruktur" />
		<tag k="ssr:stedsnr" v="1037468" />
		<tag k="ssr:type" v="adressenavn" />
	</node>
	<node id="-459032" lat="60.4726531705" lon="6.59495279727">
		<tag k="name" v="Håstabbastølen" />
		<tag k="ssr:date" v="2019-05-30" />
		<tag k="ssr:gruppe" v="veg" />
		<tag k="ssr:hovedgruppe" v="infrastruktur" />
		<tag k="ssr:stedsnr" v="1037466" />
		<tag k="ssr:type" v="adressenavn" />
	</node>
	<node id="-459031" lat="60.5973762167" lon="6.67717280226">
		<tag k="name" v="Skårsstølen" />
		<tag k="ssr:date" v="2019-05-30" />
		<tag k="ssr:gruppe" v="veg" />
		<tag k="ssr:hovedgruppe" v="infrastruktur" />
		<tag k="ssr:stedsnr" v="1037463" />
		<tag k="ssr:type" v="adressenavn" />
	</node>
	<node id="-459501" lat="60.5916557743" lon="6.64024202141">
		<tag k="name" v="Skårsvegen" />
		<tag k="ssr:date" v="2019-05-30" />
		<tag k="ssr:gruppe" v="veg" />
		<tag k="ssr:hovedgruppe" v="infrastruktur" />
		<tag k="ssr:stedsnr" v="604198" />
		<tag k="ssr:type" v="adressenavn" />
	</node>
	<node id="-459500" lat="60.526111111" lon="6.72123055185">
		<tag k="name" v="Røynstrandvegen" />
		<tag k="ssr:date" v="2019-05-30" />
		<tag k="ssr:gruppe" v="veg" />
		<tag k="ssr:hovedgruppe" v="infrastruktur" />
		<tag k="ssr:stedsnr" v="604167" />
		<tag k="ssr:type" v="adressenavn" />
	</node>
	<node id="-459404" lat="60.5255166664" lon="6.72841666985">
		<tag k="name" v="Huldravegen" />
		<tag k="ssr:date" v="2019-05-30" />
		<tag k="ssr:gruppe" v="veg" />
		<tag k="ssr:hovedgruppe" v="infrastruktur" />
		<tag k="ssr:stedsnr" v="484972" />
		<tag k="ssr:type" v="adressenavn" />
	</node>
	<node id="-459749" lat="60.8816104596" lon="6.30047518531">
		<tag k="name" v="Vestlandet" />
		<tag k="ssr:date" v="2019-01-06" />
		<tag k="ssr:gruppe" v="administrativeIndelinger" />
		<tag k="ssr:hovedgruppe" v="offentligAdministrasjon" />
		<tag k="ssr:stedsnr" v="974777" />
		<tag k="ssr:type" v="annenAdministrativInndeling" />
	</node>
	<node id="-459747" lat="60.5228143155" lon="6.71514889027">
		<tag k="name" v="Stasjonsvegen" />
		<tag k="ssr:date" v="2019-05-30" />
		<tag k="ssr:gruppe" v="veg" />
		<tag k="ssr:hovedgruppe" v="infrastruktur" />
		<tag k="ssr:stedsnr" v="971946" />
		<tag k="ssr:type" v="adressenavn" />
	</node>
	<node id="-459746" lat="60.4588583316" lon="6.60279167244">
		<tag k="alt_name" v="Håstabbenes" />
		<tag k="name" v="Håstabbenes lykt" />
		<tag k="ssr:date" v="2016-05-11" />
		<tag k="ssr:gruppe" v="navigasjon" />
		<tag k="ssr:hovedgruppe" v="infrastruktur" />
		<tag k="ssr:stedsnr" v="964791" />
		<tag k="ssr:type" v="fyrlykt" />
	</node>
</osm>
