<?xml version="1.0" encoding="UTF-8"?>
<osm generator="osmapis" version="0.6">
	<node id="-157436" lat="59.7718218819" lon="10.165307578">
		<tag k="name" v="Landfallbrenna" />
		<tag k="ssr:date" v="2019-05-30" />
		<tag k="ssr:gruppe" v="veg" />
		<tag k="ssr:hovedgruppe" v="infrastruktur" />
		<tag k="ssr:stedsnr" v="1033189" />
		<tag k="ssr:type" v="adressenavn" />
	</node>
	<node id="-157435" lat="59.7809903382" lon="10.1500768761">
		<tag k="name" v="Myrsetra" />
		<tag k="ssr:date" v="2019-05-30" />
		<tag k="ssr:gruppe" v="veg" />
		<tag k="ssr:hovedgruppe" v="infrastruktur" />
		<tag k="ssr:stedsnr" v="1033188" />
		<tag k="ssr:type" v="adressenavn" />
	</node>
	<node id="-157434" lat="59.7634979765" lon="10.1570595309">
		<tag k="name" v="Landfallåsen" />
		<tag k="ssr:date" v="2019-05-30" />
		<tag k="ssr:gruppe" v="veg" />
		<tag k="ssr:hovedgruppe" v="infrastruktur" />
		<tag k="ssr:stedsnr" v="1033187" />
		<tag k="ssr:type" v="adressenavn" />
	</node>
	<node id="-157433" lat="59.7886184678" lon="10.1578401928">
		<tag k="name" v="Skimtheia" />
		<tag k="ssr:date" v="2019-05-30" />
		<tag k="ssr:gruppe" v="veg" />
		<tag k="ssr:hovedgruppe" v="infrastruktur" />
		<tag k="ssr:stedsnr" v="1033185" />
		<tag k="ssr:type" v="adressenavn" />
	</node>
	<node id="-157432" lat="59.8012436832" lon="10.1311508221">
		<tag k="name" v="Vakkertjernheia" />
		<tag k="ssr:date" v="2019-05-30" />
		<tag k="ssr:gruppe" v="veg" />
		<tag k="ssr:hovedgruppe" v="infrastruktur" />
		<tag k="ssr:stedsnr" v="1033184" />
		<tag k="ssr:type" v="adressenavn" />
	</node>
	<node id="-157431" lat="59.7790712686" lon="10.1670920801">
		<tag k="name" v="Sauesetra" />
		<tag k="ssr:date" v="2019-05-30" />
		<tag k="ssr:gruppe" v="veg" />
		<tag k="ssr:hovedgruppe" v="infrastruktur" />
		<tag k="ssr:stedsnr" v="1033183" />
		<tag k="ssr:type" v="adressenavn" />
	</node>
	<node id="-157430" lat="59.7849406009" lon="10.1491795679">
		<tag k="name" v="Tverråsen" />
		<tag k="ssr:date" v="2019-05-30" />
		<tag k="ssr:gruppe" v="veg" />
		<tag k="ssr:hovedgruppe" v="infrastruktur" />
		<tag k="ssr:stedsnr" v="1033182" />
		<tag k="ssr:type" v="adressenavn" />
	</node>
	<node id="-157429" lat="59.7810201229" lon="10.1100355052">
		<tag k="name" v="Kjøsterudåsen" />
		<tag k="ssr:date" v="2019-05-30" />
		<tag k="ssr:gruppe" v="veg" />
		<tag k="ssr:hovedgruppe" v="infrastruktur" />
		<tag k="ssr:stedsnr" v="1033181" />
		<tag k="ssr:type" v="adressenavn" />
	</node>
	<node id="-157428" lat="59.7727922174" lon="10.1271429806">
		<tag k="name" v="Klemmehøgda" />
		<tag k="ssr:date" v="2019-05-30" />
		<tag k="ssr:gruppe" v="veg" />
		<tag k="ssr:hovedgruppe" v="infrastruktur" />
		<tag k="ssr:stedsnr" v="1033180" />
		<tag k="ssr:type" v="adressenavn" />
	</node>
	<node id="-157427" lat="59.8089132373" lon="10.1078964409">
		<tag k="name" v="Måneskinnsheia" />
		<tag k="ssr:date" v="2019-05-30" />
		<tag k="ssr:gruppe" v="veg" />
		<tag k="ssr:hovedgruppe" v="infrastruktur" />
		<tag k="ssr:stedsnr" v="1033179" />
		<tag k="ssr:type" v="adressenavn" />
	</node>
	<node id="-157426" lat="59.8151053956" lon="10.102954274">
		<tag k="name" v="Løken" />
		<tag k="ssr:date" v="2019-05-30" />
		<tag k="ssr:gruppe" v="veg" />
		<tag k="ssr:hovedgruppe" v="infrastruktur" />
		<tag k="ssr:stedsnr" v="1033178" />
		<tag k="ssr:type" v="adressenavn" />
	</node>
	<node id="-157425" lat="59.7121678105" lon="10.1879593276">
		<tag k="name" v="Dunkedalen" />
		<tag k="ssr:date" v="2019-05-30" />
		<tag k="ssr:gruppe" v="veg" />
		<tag k="ssr:hovedgruppe" v="infrastruktur" />
		<tag k="ssr:stedsnr" v="1033177" />
		<tag k="ssr:type" v="adressenavn" />
	</node>
	<node id="-157424" lat="59.713009739" lon="10.1147736784">
		<tag k="name" v="Kolleruddalen" />
		<tag k="ssr:date" v="2019-05-30" />
		<tag k="ssr:gruppe" v="veg" />
		<tag k="ssr:hovedgruppe" v="infrastruktur" />
		<tag k="ssr:stedsnr" v="1033175" />
		<tag k="ssr:type" v="adressenavn" />
	</node>
	<node id="-157423" lat="59.7169023907" lon="10.0882659782">
		<tag k="name" v="Steglevannet" />
		<tag k="ssr:date" v="2019-05-30" />
		<tag k="ssr:gruppe" v="veg" />
		<tag k="ssr:hovedgruppe" v="infrastruktur" />
		<tag k="ssr:stedsnr" v="1033170" />
		<tag k="ssr:type" v="adressenavn" />
	</node>
	<node id="-157422" lat="59.6843321601" lon="10.2902387161">
		<tag k="name" v="Vardåsen" />
		<tag k="ssr:date" v="2019-05-30" />
		<tag k="ssr:gruppe" v="veg" />
		<tag k="ssr:hovedgruppe" v="infrastruktur" />
		<tag k="ssr:stedsnr" v="1033167" />
		<tag k="ssr:type" v="adressenavn" />
	</node>
	<node id="-157421" lat="59.7077667589" lon="10.1938624185">
		<tag k="name" v="Risdalsåsen" />
		<tag k="ssr:date" v="2019-05-30" />
		<tag k="ssr:gruppe" v="veg" />
		<tag k="ssr:hovedgruppe" v="infrastruktur" />
		<tag k="ssr:stedsnr" v="1033164" />
		<tag k="ssr:type" v="adressenavn" />
	</node>
	<node id="-157420" lat="59.7539570816" lon="10.2201179772">
		<tag k="name" v="Strøtvetåsen" />
		<tag k="ssr:date" v="2019-05-30" />
		<tag k="ssr:gruppe" v="veg" />
		<tag k="ssr:hovedgruppe" v="infrastruktur" />
		<tag k="ssr:stedsnr" v="1033163" />
		<tag k="ssr:type" v="adressenavn" />
	</node>
	<node id="-157419" lat="59.6826349976" lon="10.2993202349">
		<tag k="name" v="Trestikle" />
		<tag k="ssr:date" v="2019-05-30" />
		<tag k="ssr:gruppe" v="veg" />
		<tag k="ssr:hovedgruppe" v="infrastruktur" />
		<tag k="ssr:stedsnr" v="1033162" />
		<tag k="ssr:type" v="adressenavn" />
	</node>
	<node id="-157418" lat="59.7328114806" lon="10.1144811559">
		<tag k="name" v="Konnerudkollen" />
		<tag k="ssr:date" v="2019-05-30" />
		<tag k="ssr:gruppe" v="veg" />
		<tag k="ssr:hovedgruppe" v="infrastruktur" />
		<tag k="ssr:stedsnr" v="1033160" />
		<tag k="ssr:type" v="adressenavn" />
	</node>
	<node id="-157417" lat="59.703588818" lon="10.0776011968">
		<tag k="name" v="Sagdammen" />
		<tag k="ssr:date" v="2019-05-30" />
		<tag k="ssr:gruppe" v="veg" />
		<tag k="ssr:hovedgruppe" v="infrastruktur" />
		<tag k="ssr:stedsnr" v="1033159" />
		<tag k="ssr:type" v="adressenavn" />
	</node>
	<node id="-157416" lat="59.7542378471" lon="10.1912751814">
		<tag k="name" v="Hamborgstrømskogen" />
		<tag k="ssr:date" v="2019-05-30" />
		<tag k="ssr:gruppe" v="veg" />
		<tag k="ssr:hovedgruppe" v="infrastruktur" />
		<tag k="ssr:stedsnr" v="1033158" />
		<tag k="ssr:type" v="adressenavn" />
	</node>
	<node id="-157543" lat="59.7539027736" lon="10.1292277693">
		<tag k="name" v="Hakavikledningen" />
		<tag k="ssr:date" v="2016-05-10" />
		<tag k="ssr:gruppe" v="energi" />
		<tag k="ssr:hovedgruppe" v="infrastruktur" />
		<tag k="ssr:stedsnr" v="83597" />
		<tag k="ssr:type" v="kraftledning" />
	</node>
	<node id="-157414" lat="59.72210489" lon="10.1593104278">
		<tag k="name" v="Revetråkket" />
		<tag k="ssr:date" v="2019-05-30" />
		<tag k="ssr:gruppe" v="veg" />
		<tag k="ssr:hovedgruppe" v="infrastruktur" />
		<tag k="ssr:stedsnr" v="1033067" />
		<tag k="ssr:type" v="adressenavn" />
	</node>
	<node id="-157413" lat="59.7424238301" lon="10.2095685101">
		<tag k="name" v="Grev Wedels plass" />
		<tag k="ssr:date" v="2019-05-30" />
		<tag k="ssr:gruppe" v="veg" />
		<tag k="ssr:hovedgruppe" v="infrastruktur" />
		<tag k="ssr:stedsnr" v="1032465" />
		<tag k="ssr:type" v="adressenavn" />
	</node>
	<node id="-157412" lat="59.733042725" lon="10.2179240398">
		<tag k="name" v="Mads Wiels plass" />
		<tag k="ssr:date" v="2019-05-30" />
		<tag k="ssr:gruppe" v="veg" />
		<tag k="ssr:hovedgruppe" v="infrastruktur" />
		<tag k="ssr:stedsnr" v="1032296" />
		<tag k="ssr:type" v="adressenavn" />
	</node>
	<node id="-157282" lat="59.7275333295" lon="10.2165666676">
		<tag k="name" v="Vestfoldbanen" />
		<tag k="ssr:date" v="2016-05-10" />
		<tag k="ssr:gruppe" v="bane" />
		<tag k="ssr:hovedgruppe" v="infrastruktur" />
		<tag k="ssr:stedsnr" v="358257" />
		<tag k="ssr:type" v="banestrekning" />
	</node>
	<node id="-158327" lat="59.7483638902" lon="10.1890666583">
		<tag k="loc_name" v="Buskerud" />
		<tag k="name" v="Buskerud fylke" />
		<tag k="ssr:date" v="2016-05-11" />
		<tag k="ssr:gruppe" v="administrativeIndelinger" />
		<tag k="ssr:hovedgruppe" v="offentligAdministrasjon" />
		<tag k="ssr:stedsnr" v="876320" />
		<tag k="ssr:type" v="fylke" />
	</node>
	<node id="-157415" lat="59.7162599842" lon="10.2524600588">
		<tag k="name" v="Nordbykollen" />
		<tag k="ssr:date" v="2019-05-30" />
		<tag k="ssr:gruppe" v="veg" />
		<tag k="ssr:hovedgruppe" v="infrastruktur" />
		<tag k="ssr:stedsnr" v="1033157" />
		<tag k="ssr:type" v="adressenavn" />
	</node>
	<node id="-157755" lat="59.7432805554" lon="10.1252777793">
		<tag k="name" v="Pukerudlinna" />
		<tag k="ssr:date" v="2016-05-10" />
		<tag k="ssr:gruppe" v="veg" />
		<tag k="ssr:hovedgruppe" v="infrastruktur" />
		<tag k="ssr:stedsnr" v="241795" />
		<tag k="ssr:type" v="vegstrekning" />
	</node>
	<node id="-158394" lat="60.5908609473" lon="9.63819281559">
		<tag k="fixme" v="multiple name tags, choose one and add the other to alt_name" />
		<tag k="name" v="Austlandet;Østlandet" />
		<tag k="ssr:date" v="2018-01-09" />
		<tag k="ssr:gruppe" v="administrativeIndelinger" />
		<tag k="ssr:hovedgruppe" v="offentligAdministrasjon" />
		<tag k="ssr:stedsnr" v="974775" />
		<tag k="ssr:type" v="annenAdministrativInndeling" />
	</node>
	<node id="-157585" lat="59.7325861091" lon="10.2379722281">
		<tag k="name" v="Risgarden molo" />
		<tag k="ssr:date" v="2016-05-10" />
		<tag k="ssr:gruppe" v="navigasjon" />
		<tag k="ssr:hovedgruppe" v="infrastruktur" />
		<tag k="ssr:stedsnr" v="118132" />
		<tag k="ssr:type" v="fyrlykt" />
	</node>
	<node id="-157835" lat="59.7274861118" lon="10.1640305539">
		<tag k="name" v="Haukåsveien" />
		<tag k="ssr:date" v="2016-05-10" />
		<tag k="ssr:gruppe" v="veg" />
		<tag k="ssr:hovedgruppe" v="infrastruktur" />
		<tag k="ssr:stedsnr" v="466002" />
		<tag k="ssr:type" v="vegstrekning" />
	</node>
	<node id="-157319" lat="59.7453500037" lon="10.2059750087">
		<tag k="alt_name" v="Drammen" />
		<tag k="name" v="Drammen kommune" />
		<tag k="ssr:date" v="2016-05-10" />
		<tag k="ssr:gruppe" v="administrativeIndelinger" />
		<tag k="ssr:hovedgruppe" v="offentligAdministrasjon" />
		<tag k="ssr:stedsnr" v="388756" />
		<tag k="ssr:type" v="kommune" />
	</node>
	<node id="-158212" lat="59.7707833343" lon="10.1811194483">
		<tag k="name" v="Hakavikledningen" />
		<tag k="ssr:date" v="2016-05-11" />
		<tag k="ssr:gruppe" v="energi" />
		<tag k="ssr:hovedgruppe" v="infrastruktur" />
		<tag k="ssr:stedsnr" v="769179" />
		<tag k="ssr:type" v="kraftledning" />
	</node>
</osm>
