<?xml version="1.0" encoding="UTF-8"?>
<osm generator="osmapis" version="0.6">
	<node id="-374336" lat="58.1382861141" lon="7.06837221377">
		<tag k="loc_name" v="Lyngdal" />
		<tag k="name" v="Lyngdal kommune" />
		<tag k="ssr:date" v="2017-03-29" />
		<tag k="ssr:gruppe" v="administrativeIndelinger" />
		<tag k="ssr:hovedgruppe" v="offentligAdministrasjon" />
		<tag k="ssr:stedsnr" v="874787" />
		<tag k="ssr:type" v="kommune" />
	</node>
	<node id="-373983" lat="58.0053666636" lon="7.01027777994">
		<tag k="name" v="Lypskjer" />
		<tag k="ssr:date" v="2016-05-11" />
		<tag k="ssr:gruppe" v="navigasjon" />
		<tag k="ssr:hovedgruppe" v="infrastruktur" />
		<tag k="ssr:stedsnr" v="788649" />
		<tag k="ssr:type" v="fyrlykt" />
	</node>
	<node id="-372030" lat="58.1210832195" lon="6.99094166244">
		<tag k="name" v="Nerjordsdugan" />
		<tag k="ssr:date" v="2019-05-30" />
		<tag k="ssr:gruppe" v="veg" />
		<tag k="ssr:hovedgruppe" v="infrastruktur" />
		<tag k="ssr:stedsnr" v="1010340" />
		<tag k="ssr:type" v="adressenavn" />
	</node>
	<node id="-372029" lat="58.059326929" lon="7.05826296786">
		<tag k="name" v="Terneholmsveien" />
		<tag k="ssr:date" v="2019-05-30" />
		<tag k="ssr:gruppe" v="veg" />
		<tag k="ssr:hovedgruppe" v="infrastruktur" />
		<tag k="ssr:stedsnr" v="1010335" />
		<tag k="ssr:type" v="adressenavn" />
	</node>
	<node id="-372028" lat="58.0608702496" lon="7.05795713775">
		<tag k="name" v="Skrubbåsveien" />
		<tag k="ssr:date" v="2019-05-30" />
		<tag k="ssr:gruppe" v="veg" />
		<tag k="ssr:hovedgruppe" v="infrastruktur" />
		<tag k="ssr:stedsnr" v="1010330" />
		<tag k="ssr:type" v="adressenavn" />
	</node>
	<node id="-372027" lat="58.279775212" lon="7.23660248215">
		<tag k="name" v="Titlandsveien" />
		<tag k="ssr:date" v="2019-05-30" />
		<tag k="ssr:gruppe" v="veg" />
		<tag k="ssr:hovedgruppe" v="infrastruktur" />
		<tag k="ssr:stedsnr" v="1010322" />
		<tag k="ssr:type" v="adressenavn" />
	</node>
	<node id="-372026" lat="58.1419080633" lon="7.00732388992">
		<tag k="name" v="Moldbrodet" />
		<tag k="ssr:date" v="2019-05-30" />
		<tag k="ssr:gruppe" v="veg" />
		<tag k="ssr:hovedgruppe" v="infrastruktur" />
		<tag k="ssr:stedsnr" v="1010321" />
		<tag k="ssr:type" v="adressenavn" />
	</node>
	<node id="-372031" lat="58.1173824665" lon="7.00529264975">
		<tag k="name" v="Bruselandsveien" />
		<tag k="ssr:date" v="2019-05-30" />
		<tag k="ssr:gruppe" v="veg" />
		<tag k="ssr:hovedgruppe" v="infrastruktur" />
		<tag k="ssr:stedsnr" v="1010388" />
		<tag k="ssr:type" v="adressenavn" />
	</node>
	<node id="-373400" lat="58.0983611143" lon="7.02249167029">
		<tag k="name" v="Syrhovud" />
		<tag k="ssr:date" v="2016-05-10" />
		<tag k="ssr:gruppe" v="navigasjon" />
		<tag k="ssr:hovedgruppe" v="infrastruktur" />
		<tag k="ssr:stedsnr" v="570370" />
		<tag k="ssr:type" v="fyrlykt" />
	</node>
	<node id="-372023" lat="58.075404138" lon="6.98128594102">
		<tag k="name" v="Vassdalen" />
		<tag k="ssr:date" v="2019-05-30" />
		<tag k="ssr:gruppe" v="veg" />
		<tag k="ssr:hovedgruppe" v="infrastruktur" />
		<tag k="ssr:stedsnr" v="1010199" />
		<tag k="ssr:type" v="adressenavn" />
	</node>
	<node id="-373590" lat="58.0284305546" lon="7.00333611038">
		<tag k="name" v="Revøysundet" />
		<tag k="ssr:date" v="2016-05-10" />
		<tag k="ssr:gruppe" v="navigasjon" />
		<tag k="ssr:hovedgruppe" v="infrastruktur" />
		<tag k="ssr:stedsnr" v="630401" />
		<tag k="ssr:type" v="fyrlykt" />
	</node>
	<node id="-372025" lat="58.2776425991" lon="7.23778117235">
		<tag k="name" v="Tjåmelandsveien" />
		<tag k="ssr:date" v="2019-05-30" />
		<tag k="ssr:gruppe" v="veg" />
		<tag k="ssr:hovedgruppe" v="infrastruktur" />
		<tag k="ssr:stedsnr" v="1010320" />
		<tag k="ssr:type" v="adressenavn" />
	</node>
	<node id="-372020" lat="58.2877513307" lon="7.19842964982">
		<tag k="name" v="Birkelandsveien" />
		<tag k="ssr:date" v="2019-05-30" />
		<tag k="ssr:gruppe" v="veg" />
		<tag k="ssr:hovedgruppe" v="infrastruktur" />
		<tag k="ssr:stedsnr" v="987904" />
		<tag k="ssr:type" v="adressenavn" />
	</node>
	<node id="-372024" lat="58.0754579782" lon="6.98377744429">
		<tag k="name" v="Stuelandsveien" />
		<tag k="ssr:date" v="2019-05-30" />
		<tag k="ssr:gruppe" v="veg" />
		<tag k="ssr:hovedgruppe" v="infrastruktur" />
		<tag k="ssr:stedsnr" v="1010212" />
		<tag k="ssr:type" v="adressenavn" />
	</node>
	<node id="-372021" lat="58.1581370338" lon="7.10378808212">
		<tag k="name" v="Lyngtunet" />
		<tag k="ssr:date" v="2019-05-30" />
		<tag k="ssr:gruppe" v="veg" />
		<tag k="ssr:hovedgruppe" v="infrastruktur" />
		<tag k="ssr:stedsnr" v="988118" />
		<tag k="ssr:type" v="adressenavn" />
	</node>
	<node id="-371657" lat="58.0464111133" lon="6.97542777099">
		<tag k="name" v="Hausvikodden" />
		<tag k="ssr:date" v="2016-05-10" />
		<tag k="ssr:gruppe" v="navigasjon" />
		<tag k="ssr:hovedgruppe" v="infrastruktur" />
		<tag k="ssr:stedsnr" v="303581" />
		<tag k="ssr:type" v="fyrlykt" />
	</node>
	<node id="-374147" lat="58.0149083356" lon="7.00317777244">
		<tag k="name" v="Ulvåsodden" />
		<tag k="ssr:date" v="2016-05-11" />
		<tag k="ssr:gruppe" v="navigasjon" />
		<tag k="ssr:hovedgruppe" v="infrastruktur" />
		<tag k="ssr:stedsnr" v="849711" />
		<tag k="ssr:type" v="fyrlykt" />
	</node>
	<node id="-372022" lat="58.160978751" lon="7.10518370561">
		<tag k="name" v="Romsåslia" />
		<tag k="ssr:date" v="2019-05-30" />
		<tag k="ssr:gruppe" v="veg" />
		<tag k="ssr:hovedgruppe" v="infrastruktur" />
		<tag k="ssr:stedsnr" v="988197" />
		<tag k="ssr:type" v="adressenavn" />
	</node>
</osm>
