<?xml version="1.0" encoding="UTF-8"?>
<osm generator="osmapis" version="0.6">
	<node id="-577529" lat="62.5345527797" lon="6.44076665786">
		<tag k="name" v="Heimlund" />
		<tag k="place" v="farm" />
		<tag k="ssr:stedsnr" v="436202" />
	</node>
	<node id="-577509" lat="62.5582250019" lon="6.66273056305">
		<tag k="name" v="Ljosheim" />
		<tag k="place" v="isolated_dwelling" />
		<tag k="ssr:stedsnr" v="414993" />
	</node>
	<node id="-577505" lat="62.6538916624" lon="6.32168889279">
		<tag k="name" v="Reitebø" />
		<tag k="place" v="farm" />
		<tag k="ssr:stedsnr" v="254925" />
	</node>
	<node id="-577503" lat="62.6925388891" lon="6.37867778399">
		<tag k="name" v="Kleiva" />
		<tag k="place" v="farm" />
		<tag k="ssr:stedsnr" v="254908" />
	</node>
	<node id="-577498" lat="62.7111611125" lon="6.4103583316">
		<tag k="name" v="Nytun" />
		<tag k="place" v="farm" />
		<tag k="ssr:stedsnr" v="254794" />
	</node>
	<node id="-577497" lat="62.6021118886" lon="6.21068519239">
		<tag k="fixme" v="consider place=hamlet" />
		<tag k="name" v="Lausund" />
		<tag k="place" v="farm" />
		<tag k="ssr:stedsnr" v="254787" />
	</node>
	<node id="-577491" lat="62.600088888" lon="6.38845278752">
		<tag k="name" v="Stortua" />
		<tag k="place" v="isolated_dwelling" />
		<tag k="ssr:stedsnr" v="254370" />
	</node>
	<node id="-577490" lat="62.59822222" lon="6.67413888057">
		<tag k="name" v="Myra" />
		<tag k="place" v="farm" />
		<tag k="ssr:stedsnr" v="254352" />
	</node>
	<node id="-577488" lat="62.5831687437" lon="6.25973728017">
		<tag k="fixme" v="consider place=hamlet" />
		<tag k="name" v="Gamlemshaugen" />
		<tag k="place" v="farm" />
		<tag k="ssr:stedsnr" v="254338" />
	</node>
	<node id="-577484" lat="62.5729916674" lon="6.27396667298">
		<tag k="name" v="Høgstøl" />
		<tag k="place" v="farm" />
		<tag k="ssr:stedsnr" v="254315" />
	</node>
	<node id="-577483" lat="62.5825999956" lon="6.3452888823">
		<tag k="name" v="Ryssgardsætra" />
		<tag k="place" v="isolated_dwelling" />
		<tag k="ssr:stedsnr" v="254312" />
	</node>
	<node id="-577476" lat="62.5643722233" lon="6.47397777747">
		<tag k="name" v="Bjørlykkestølen" />
		<tag k="place" v="farm" />
		<tag k="ssr:stedsnr" v="254250" />
	</node>
	<node id="-577474" lat="62.565341663" lon="6.6517750097">
		<tag k="historic" v="shieling" />
		<tag k="name" v="Ulvestadsætra" />
		<tag k="place" v="locality" />
		<tag k="ssr:stedsnr" v="254244" />
	</node>
	<node id="-577468" lat="62.5431416658" lon="6.57796944437">
		<tag k="fixme" v="consider place=hamlet" />
		<tag k="name" v="Eidsvik" />
		<tag k="place" v="village" />
		<tag k="ssr:stedsnr" v="254170" />
	</node>
	<node id="-577467" lat="62.6421722249" lon="6.23663888457">
		<tag k="name" v="Bakken" />
		<tag k="place" v="farm" />
		<tag k="ssr:stedsnr" v="254460" />
	</node>
	<node id="-577466" lat="62.6169294322" lon="6.21436336498">
		<tag k="fixme" v="consider place=hamlet" />
		<tag k="name" v="Kjerstad" />
		<tag k="place" v="farm" />
		<tag k="ssr:stedsnr" v="254445" />
	</node>
	<node id="-577448" lat="62.6923333297" lon="6.38100277014">
		<tag k="name" v="Remman" />
		<tag k="place" v="farm" />
		<tag k="ssr:stedsnr" v="232913" />
	</node>
	<node id="-577439" lat="62.5454055518" lon="6.57447221825">
		<tag k="name" v="Eidsvik" />
		<tag k="place" v="hamlet" />
		<tag k="ssr:stedsnr" v="216932" />
	</node>
	<node id="-577400" lat="62.6174083326" lon="6.65581111282">
		<tag k="barrier" v="fence" />
		<tag k="name" v="Nesgarden" />
		<tag k="ssr:stedsnr" v="216031" />
	</node>
	<node id="-578536" lat="62.5565583309" lon="6.64247777431">
		<tag k="name" v="Alasgarden" />
		<tag k="place" v="farm" />
		<tag k="ssr:stedsnr" v="823483" />
	</node>
	<node id="-577390" lat="62.567044448" lon="6.27615834258">
		<tag k="name" v="Jogarden" />
		<tag k="place" v="farm" />
		<tag k="ssr:stedsnr" v="215354" />
	</node>
	<node id="-577387" lat="62.6037444446" lon="6.39206944195">
		<tag k="name" v="Pettergarden" />
		<tag k="place" v="farm" />
		<tag k="ssr:stedsnr" v="215299" />
	</node>
	<node id="-577385" lat="62.6459277744" lon="6.23259444225">
		<tag k="name" v="Massgarden" />
		<tag k="place" v="farm" />
		<tag k="ssr:stedsnr" v="214813" />
	</node>
	<node id="-577384" lat="62.6434916652" lon="6.23560278139">
		<tag k="name" v="Toregarden" />
		<tag k="place" v="farm" />
		<tag k="ssr:stedsnr" v="214795" />
	</node>
	<node id="-577379" lat="62.6104111096" lon="6.33872221602">
		<tag k="name" v="Ivergarden" />
		<tag k="place" v="farm" />
		<tag k="ssr:stedsnr" v="214593" />
	</node>
	<node id="-577378" lat="62.6103583311" lon="6.33940278598">
		<tag k="name" v="Ytre Hildre" />
		<tag k="place" v="hamlet" />
		<tag k="ssr:stedsnr" v="214584" />
	</node>
	<node id="-577377" lat="62.6572333363" lon="6.29878888604">
		<tag k="name" v="Stranda" />
		<tag k="place" v="farm" />
		<tag k="ssr:stedsnr" v="214471" />
	</node>
	<node id="-577376" lat="62.6721388925" lon="6.26932499449">
		<tag k="name" v="Øytun" />
		<tag k="place" v="farm" />
		<tag k="ssr:stedsnr" v="214349" />
	</node>
	<node id="-577375" lat="62.6820333331" lon="6.1918388809">
		<tag k="name" v="Ullanausta" />
		<tag k="place" v="locality" />
		<tag k="ssr:stedsnr" v="214317" />
	</node>
	<node id="-577372" lat="62.539977782" lon="6.58589165763">
		<tag k="name" v="Trolldalane" />
		<tag k="place" v="quarter" />
		<tag k="ssr:stedsnr" v="202944" />
	</node>
	<node id="-577363" lat="62.6592638909" lon="6.29320000921">
		<tag k="name" v="Stølen" />
		<tag k="place" v="farm" />
		<tag k="ssr:stedsnr" v="194955" />
	</node>
	<node id="-577359" lat="62.6895833368" lon="6.40131944558">
		<tag k="name" v="Fuglevika" />
		<tag k="place" v="farm" />
		<tag k="ssr:stedsnr" v="194869" />
	</node>
	<node id="-577352" lat="62.6557277614" lon="6.20801641016">
		<tag k="fixme" v="consider place=hamlet" />
		<tag k="name" v="Haram" />
		<tag k="place" v="farm" />
		<tag k="ssr:stedsnr" v="194666" />
	</node>
	<node id="-577343" lat="62.5762250032" lon="6.27024444499">
		<tag k="name" v="Landstadgarden" />
		<tag k="place" v="farm" />
		<tag k="ssr:stedsnr" v="194313" />
	</node>
	<node id="-577336" lat="62.5475527815" lon="6.26969999119">
		<tag k="name" v="Nordvika" />
		<tag k="place" v="farm" />
		<tag k="ssr:stedsnr" v="194236" />
	</node>
	<node id="-577326" lat="62.6132527793" lon="6.56942500275">
		<tag k="name" v="Skoravika" />
		<tag k="place" v="farm" />
		<tag k="ssr:stedsnr" v="193458" />
	</node>
	<node id="-577324" lat="62.6038111086" lon="6.33378610933">
		<tag k="fixme" v="consider place=hamlet" />
		<tag k="name" v="Hildre" />
		<tag k="place" v="village" />
		<tag k="ssr:stedsnr" v="193452" />
	</node>
	<node id="-577320" lat="62.5923027765" lon="6.29663055759">
		<tag k="name" v="Hurlamyrane" />
		<tag k="place" v="farm" />
		<tag k="ssr:stedsnr" v="193424" />
	</node>
	<node id="-577315" lat="62.5746277802" lon="6.63681111037">
		<tag k="name" v="Hovsetsætra" />
		<tag k="place" v="locality" />
		<tag k="ssr:stedsnr" v="193299" />
	</node>
	<node id="-577305" lat="62.544699999" lon="6.53820000187">
		<tag k="name" v="Ytsthagen" />
		<tag k="place" v="farm" />
		<tag k="ssr:stedsnr" v="193193" />
	</node>
	<node id="-577302" lat="62.5372027815" lon="6.63028889766">
		<tag k="name" v="Klokset" />
		<tag k="place" v="farm" />
		<tag k="ssr:stedsnr" v="181115" />
	</node>
	<node id="-577283" lat="62.6991916633" lon="6.36846943913">
		<tag k="name" v="Markabø" />
		<tag k="place" v="farm" />
		<tag k="ssr:stedsnr" v="171927" />
	</node>
	<node id="-577280" lat="62.5453027798" lon="6.56127500119">
		<tag k="name" v="Svenngarden" />
		<tag k="place" v="farm" />
		<tag k="ssr:stedsnr" v="155947" />
	</node>
	<node id="-577276" lat="62.5352777797" lon="6.41064722001">
		<tag k="name" v="Myrvang" />
		<tag k="place" v="farm" />
		<tag k="ssr:stedsnr" v="155754" />
	</node>
	<node id="-577272" lat="62.6057305522" lon="6.67327777265">
		<tag k="name" v="Gjerdet" />
		<tag k="place" v="farm" />
		<tag k="ssr:stedsnr" v="155825" />
	</node>
	<node id="-576468" lat="62.6982694448" lon="6.3681555519">
		<tag k="name" v="Haggarden" />
		<tag k="place" v="farm" />
		<tag k="ssr:stedsnr" v="315919" />
	</node>
	<node id="-577256" lat="62.5354527767" lon="6.6149416712">
		<tag k="name" v="Vilamgarden" />
		<tag k="place" v="farm" />
		<tag k="ssr:stedsnr" v="155623" />
	</node>
	<node id="-577251" lat="62.5563388862" lon="6.63932222815">
		<tag k="name" v="Giskebakken" />
		<tag k="place" v="farm" />
		<tag k="ssr:stedsnr" v="155481" />
	</node>
	<node id="-577250" lat="62.555872225" lon="6.64363054983">
		<tag k="name" v="Framgarden" />
		<tag k="place" v="farm" />
		<tag k="ssr:stedsnr" v="155477" />
	</node>
	<node id="-577239" lat="62.5681944459" lon="6.73236388492">
		<tag k="name" v="Øysteingarden" />
		<tag k="place" v="farm" />
		<tag k="ssr:stedsnr" v="155413" />
	</node>
	<node id="-577231" lat="62.5435083327" lon="6.53299167159">
		<tag k="name" v="Fredrikgjerdet" />
		<tag k="place" v="farm" />
		<tag k="ssr:stedsnr" v="155013" />
	</node>
	<node id="-577230" lat="62.5444546793" lon="6.53990469213">
		<tag k="fixme" v="consider place=hamlet" />
		<tag k="name" v="Slyngstadli" />
		<tag k="place" v="farm" />
		<tag k="ssr:stedsnr" v="155010" />
	</node>
	<node id="-577228" lat="62.6054583362" lon="6.21313610488">
		<tag k="name" v="Andersgarden" />
		<tag k="place" v="farm" />
		<tag k="ssr:stedsnr" v="154691" />
	</node>
	<node id="-577227" lat="62.6082611129" lon="6.20140555444">
		<tag k="name" v="Gryt-Olagarden" />
		<tag k="place" v="farm" />
		<tag k="ssr:stedsnr" v="154685" />
	</node>
	<node id="-577214" lat="62.6473305594" lon="6.2280777856">
		<tag k="name" v="Martingjerdet" />
		<tag k="place" v="farm" />
		<tag k="ssr:stedsnr" v="153818" />
	</node>
	<node id="-577213" lat="62.6189833326" lon="6.21659721358">
		<tag k="name" v="Henrikgarden" />
		<tag k="place" v="farm" />
		<tag k="ssr:stedsnr" v="153731" />
	</node>
	<node id="-577212" lat="62.6300694401" lon="6.26208333726">
		<tag k="name" v="Sjur-Olagarden" />
		<tag k="place" v="farm" />
		<tag k="ssr:stedsnr" v="153714" />
	</node>
	<node id="-577209" lat="62.6549472201" lon="6.1988444477">
		<tag k="name" v="Knutgarden" />
		<tag k="place" v="farm" />
		<tag k="ssr:stedsnr" v="153492" />
	</node>
	<node id="-577206" lat="62.6667638894" lon="6.27531667373">
		<tag k="name" v="Longvabakken" />
		<tag k="place" v="farm" />
		<tag k="ssr:stedsnr" v="153365" />
	</node>
	<node id="-577205" lat="62.6694750034" lon="6.2682916667">
		<tag k="name" v="Larsolagarden" />
		<tag k="place" v="farm" />
		<tag k="ssr:stedsnr" v="153355" />
	</node>
	<node id="-577201" lat="62.6610083344" lon="6.28270555853">
		<tag k="name" v="Moldbaren" />
		<tag k="place" v="farm" />
		<tag k="ssr:stedsnr" v="153320" />
	</node>
	<node id="-577200" lat="62.6650861128" lon="6.27992777239">
		<tag k="name" v="Gunnargarden" />
		<tag k="place" v="farm" />
		<tag k="ssr:stedsnr" v="153310" />
	</node>
	<node id="-577197" lat="62.6359166643" lon="6.24463888618">
		<tag k="name" v="Markagarden" />
		<tag k="place" v="farm" />
		<tag k="ssr:stedsnr" v="153604" />
	</node>
	<node id="-577194" lat="62.5439805583" lon="6.5781916751">
		<tag k="fixme" v="consider place=hamlet" />
		<tag k="name" v="Eidsvika" />
		<tag k="place" v="farm" />
		<tag k="ssr:stedsnr" v="142866" />
	</node>
	<node id="-577187" lat="62.6546083359" lon="6.21786666471">
		<tag k="name" v="Stølen" />
		<tag k="place" v="farm" />
		<tag k="ssr:stedsnr" v="133964" />
	</node>
	<node id="-577184" lat="62.6839055542" lon="6.23407222474">
		<tag k="name" v="Haugen" />
		<tag k="place" v="farm" />
		<tag k="ssr:stedsnr" v="133904" />
	</node>
	<node id="-577183" lat="62.6911944483" lon="6.41023054793">
		<tag k="name" v="Davika" />
		<tag k="place" v="farm" />
		<tag k="ssr:stedsnr" v="133879" />
	</node>
	<node id="-576452" lat="62.5934590907" lon="6.46860861427">
		<tag k="fixme" v="consider place=hamlet" />
		<tag k="name" v="Ringstad" />
		<tag k="place" v="farm" />
		<tag k="ssr:stedsnr" v="315331" />
	</node>
	<node id="-577172" lat="62.6630111119" lon="6.1713749902">
		<tag k="name" v="Legarden" />
		<tag k="place" v="locality" />
		<tag k="ssr:stedsnr" v="133672" />
	</node>
	<node id="-577169" lat="62.6337375052" lon="6.25095468671">
		<tag k="fixme" v="consider place=hamlet" />
		<tag k="name" v="Myskja" />
		<tag k="place" v="farm" />
		<tag k="ssr:stedsnr" v="133436" />
	</node>
	<node id="-577166" lat="62.6074990946" lon="6.34339011473">
		<tag k="fixme" v="consider place=hamlet" />
		<tag k="name" v="Hildre" />
		<tag k="place" v="farm" />
		<tag k="ssr:stedsnr" v="133409" />
	</node>
	<node id="-577165" lat="62.627169446" lon="6.60196944065">
		<tag k="name" v="Sørigarden" />
		<tag k="place" v="farm" />
		<tag k="ssr:stedsnr" v="133401" />
	</node>
	<node id="-577160" lat="62.5781000017" lon="6.26876666285">
		<tag k="name" v="Jakobgarden" />
		<tag k="place" v="farm" />
		<tag k="ssr:stedsnr" v="133318" />
	</node>
	<node id="-577153" lat="62.5483333291" lon="6.27980278504">
		<tag k="name" v="Ebbevika" />
		<tag k="place" v="farm" />
		<tag k="ssr:stedsnr" v="133239" />
	</node>
	<node id="-577150" lat="62.5490428039" lon="6.45914954568">
		<tag k="fixme" v="consider place=hamlet" />
		<tag k="name" v="Skulstad" />
		<tag k="place" v="farm" />
		<tag k="ssr:stedsnr" v="133232" />
	</node>
	<node id="-577147" lat="62.557825788" lon="6.64422929186">
		<tag k="fixme" v="consider place=hamlet" />
		<tag k="name" v="Hatleholen" />
		<tag k="place" v="farm" />
		<tag k="ssr:stedsnr" v="133205" />
	</node>
	<node id="-577146" lat="62.5580659095" lon="6.63629725926">
		<tag k="fixme" v="consider place=hamlet" />
		<tag k="name" v="Øygarden" />
		<tag k="place" v="farm" />
		<tag k="ssr:stedsnr" v="133197" />
	</node>
	<node id="-576447" lat="62.56724722" lon="6.61682222188">
		<tag k="name" v="Gardvika" />
		<tag k="place" v="farm" />
		<tag k="ssr:stedsnr" v="315254" />
	</node>
	<node id="-577141" lat="62.6061191614" lon="6.19443438545">
		<tag k="fixme" v="consider place=hamlet" />
		<tag k="name" v="Farstad" />
		<tag k="place" v="farm" />
		<tag k="ssr:stedsnr" v="132803" />
	</node>
	<node id="-577140" lat="62.6157888928" lon="6.56742500357">
		<tag k="fixme" v="consider place=hamlet" />
		<tag k="name" v="Skoravika" />
		<tag k="place" v="farm" />
		<tag k="ssr:stedsnr" v="132416" />
	</node>
	<node id="-577138" lat="62.6063194425" lon="6.35235000762">
		<tag k="name" v="Skansene" />
		<tag k="place" v="farm" />
		<tag k="ssr:stedsnr" v="132406" />
	</node>
	<node id="-577137" lat="62.6033666711" lon="6.32098055537">
		<tag k="name" v="Stranda" />
		<tag k="place" v="farm" />
		<tag k="ssr:stedsnr" v="132402" />
	</node>
	<node id="-577134" lat="62.6065318034" lon="6.63088786722">
		<tag k="fixme" v="consider place=hamlet" />
		<tag k="name" v="Orvika" />
		<tag k="place" v="farm" />
		<tag k="ssr:stedsnr" v="132394" />
	</node>
	<node id="-577133" lat="62.6044583296" lon="6.47382777874">
		<tag k="name" v="Vika" />
		<tag k="place" v="farm" />
		<tag k="ssr:stedsnr" v="132389" />
	</node>
	<node id="-577129" lat="62.6003027821" lon="6.67875000325">
		<tag k="name" v="Ura" />
		<tag k="place" v="farm" />
		<tag k="ssr:stedsnr" v="132366" />
	</node>
	<node id="-577128" lat="62.6017888908" lon="6.67746388385">
		<tag k="name" v="Reiten" />
		<tag k="place" v="farm" />
		<tag k="ssr:stedsnr" v="132365" />
	</node>
	<node id="-577126" lat="62.5960277775" lon="6.47046944615">
		<tag k="name" v="Midtbøen" />
		<tag k="place" v="farm" />
		<tag k="ssr:stedsnr" v="132357" />
	</node>
	<node id="-577124" lat="62.5702250019" lon="6.27484443913">
		<tag k="name" v="Nyland" />
		<tag k="place" v="farm" />
		<tag k="ssr:stedsnr" v="132292" />
	</node>
	<node id="-577120" lat="62.5338388871" lon="6.34858333804">
		<tag k="name" v="Solvang" />
		<tag k="place" v="farm" />
		<tag k="ssr:stedsnr" v="132193" />
	</node>
	<node id="-576442" lat="62.5363194408" lon="6.37533332995">
		<tag k="name" v="Øvre Gryta" />
		<tag k="place" v="farm" />
		<tag k="ssr:stedsnr" v="315224" />
	</node>
	<node id="-577105" lat="62.7001111072" lon="6.42476111421">
		<tag k="name" v="Malsnes" />
		<tag k="place" v="isolated_dwelling" />
		<tag k="ssr:stedsnr" v="111899" />
	</node>
	<node id="-577097" lat="62.6077500007" lon="6.34611667063">
		<tag k="name" v="Steffågarden" />
		<tag k="place" v="farm" />
		<tag k="ssr:stedsnr" v="95590" />
	</node>
	<node id="-577094" lat="62.5493083355" lon="6.52117222122">
		<tag k="name" v="Holane" />
		<tag k="place" v="isolated_dwelling" />
		<tag k="ssr:stedsnr" v="95560" />
	</node>
	<node id="-577088" lat="62.5654194423" lon="6.53550000696">
		<tag k="historic" v="shieling" />
		<tag k="name" v="Slyngstadsætra" />
		<tag k="place" v="locality" />
		<tag k="ssr:stedsnr" v="95505" />
	</node>
	<node id="-576437" lat="62.5355528663" lon="6.36921843503">
		<tag k="fixme" v="consider place=hamlet" />
		<tag k="name" v="Gryta" />
		<tag k="place" v="farm" />
		<tag k="ssr:stedsnr" v="315188" />
	</node>
	<node id="-577082" lat="62.6044639444" lon="6.36218715197">
		<tag k="fixme" v="consider place=hamlet" />
		<tag k="name" v="Myra" />
		<tag k="place" v="farm" />
		<tag k="ssr:stedsnr" v="95224" />
	</node>
	<node id="-577068" lat="62.574002782" lon="6.59749722152">
		<tag k="historic" v="shieling" />
		<tag k="name" v="Reitestølen" />
		<tag k="place" v="locality" />
		<tag k="ssr:stedsnr" v="94863" />
	</node>
	<node id="-577065" lat="62.5683416707" lon="6.73007221853">
		<tag k="name" v="Nilsgarden" />
		<tag k="place" v="farm" />
		<tag k="ssr:stedsnr" v="94518" />
	</node>
	<node id="-577055" lat="62.6236499973" lon="6.65246943543">
		<tag k="name" v="Haugen" />
		<tag k="place" v="farm" />
		<tag k="ssr:stedsnr" v="94048" />
	</node>
	<node id="-577051" lat="62.6920999993" lon="6.38959444019">
		<tag k="name" v="Øvregard" />
		<tag k="place" v="farm" />
		<tag k="ssr:stedsnr" v="93889" />
	</node>
	<node id="-577047" lat="62.6452972249" lon="6.22716944233">
		<tag k="name" v="Framgarden" />
		<tag k="place" v="farm" />
		<tag k="ssr:stedsnr" v="93729" />
	</node>
	<node id="-577046" lat="62.6517166628" lon="6.21449167416">
		<tag k="name" v="Sørentunet" />
		<tag k="place" v="farm" />
		<tag k="ssr:stedsnr" v="93716" />
	</node>
	<node id="-577045" lat="62.6172416683" lon="6.21060555217">
		<tag k="name" v="Klokkargarden" />
		<tag k="place" v="farm" />
		<tag k="ssr:stedsnr" v="93643" />
	</node>
	<node id="-577044" lat="62.6559833293" lon="6.33346111968">
		<tag k="name" v="Knutgarden" />
		<tag k="place" v="farm" />
		<tag k="ssr:stedsnr" v="93550" />
	</node>
	<node id="-577043" lat="62.684580554" lon="6.24138055272">
		<tag k="name" v="Knuttunet" />
		<tag k="place" v="farm" />
		<tag k="ssr:stedsnr" v="93548" />
	</node>
	<node id="-577042" lat="62.6797666689" lon="6.25288888601">
		<tag k="name" v="Instegjerdet" />
		<tag k="place" v="farm" />
		<tag k="ssr:stedsnr" v="93544" />
	</node>
	<node id="-577041" lat="62.6358861126" lon="6.27177499596">
		<tag k="name" v="Jonasgarden" />
		<tag k="place" v="farm" />
		<tag k="ssr:stedsnr" v="93523" />
	</node>
	<node id="-577040" lat="62.6286694439" lon="6.19517222977">
		<tag k="name" v="Gjerdet" />
		<tag k="place" v="farm" />
		<tag k="ssr:stedsnr" v="93588" />
	</node>
	<node id="-577035" lat="62.6555194422" lon="6.19100833178">
		<tag k="name" v="Arnfinngarden" />
		<tag k="place" v="farm" />
		<tag k="ssr:stedsnr" v="93418" />
	</node>
	<node id="-576426" lat="62.6128111115" lon="6.66901943737">
		<tag k="name" v="Haggarden" />
		<tag k="place" v="farm" />
		<tag k="ssr:stedsnr" v="314457" />
	</node>
	<node id="-577011" lat="62.6555527813" lon="6.3051555547">
		<tag k="name" v="Stranda" />
		<tag k="place" v="farm" />
		<tag k="ssr:stedsnr" v="72956" />
	</node>
	<node id="-577010" lat="62.7042861088" lon="6.35761110465">
		<tag k="name" v="Nygard" />
		<tag k="place" v="farm" />
		<tag k="ssr:stedsnr" v="72923" />
	</node>
	<node id="-577008" lat="62.6917777815" lon="6.39666110501">
		<tag k="name" v="Gjerdet" />
		<tag k="place" v="farm" />
		<tag k="ssr:stedsnr" v="72879" />
	</node>
	<node id="-577007" lat="62.5615305533" lon="6.71993612011">
		<tag k="name" v="Ivasætra" />
		<tag k="place" v="locality" />
		<tag k="ssr:stedsnr" v="72862" />
	</node>
	<node id="-577002" lat="62.7076805523" lon="6.36855276982">
		<tag k="name" v="Bakken" />
		<tag k="place" v="farm" />
		<tag k="ssr:stedsnr" v="72788" />
	</node>
	<node id="-577001" lat="62.6125654266" lon="6.16828165532">
		<tag k="fixme" v="consider place=hamlet" />
		<tag k="name" v="Rønstad" />
		<tag k="place" v="farm" />
		<tag k="ssr:stedsnr" v="72780" />
	</node>
	<node id="-576993" lat="62.607511109" lon="6.47294166014">
		<tag k="name" v="Sandvika" />
		<tag k="place" v="farm" />
		<tag k="ssr:stedsnr" v="72407" />
	</node>
	<node id="-576992" lat="62.6030499964" lon="6.36523333151">
		<tag k="name" v="Myrerimma" />
		<tag k="place" v="farm" />
		<tag k="ssr:stedsnr" v="72403" />
	</node>
	<node id="-576979" lat="62.5763963271" lon="6.60284885121">
		<tag k="fixme" v="consider place=hamlet" />
		<tag k="name" v="Grøt" />
		<tag k="place" v="farm" />
		<tag k="ssr:stedsnr" v="72296" />
	</node>
	<node id="-576978" lat="62.5685416668" lon="6.46815554696">
		<tag k="name" v="Bjørlykkhaugen" />
		<tag k="place" v="farm" />
		<tag k="ssr:stedsnr" v="72292" />
	</node>
	<node id="-576977" lat="62.5557489394" lon="6.26209928477">
		<tag k="fixme" v="consider place=hamlet" />
		<tag k="name" v="Terøya" />
		<tag k="place" v="farm" />
		<tag k="ssr:stedsnr" v="72287" />
	</node>
	<node id="-576976" lat="62.5633916629" lon="6.5250944385">
		<tag k="name" v="Stortua" />
		<tag k="place" v="locality" />
		<tag k="ssr:stedsnr" v="72276" />
	</node>
	<node id="-576975" lat="62.5607972207" lon="6.42959723085">
		<tag k="name" v="Høgstølen" />
		<tag k="place" v="isolated_dwelling" />
		<tag k="ssr:stedsnr" v="72268" />
	</node>
	<node id="-576966" lat="62.5334275204" lon="6.45063656449">
		<tag k="fixme" v="consider place=hamlet" />
		<tag k="name" v="Årset" />
		<tag k="place" v="farm" />
		<tag k="ssr:stedsnr" v="72216" />
	</node>
	<node id="-576965" lat="62.532374998" lon="6.31941111374">
		<tag k="name" v="Nybø" />
		<tag k="place" v="farm" />
		<tag k="ssr:stedsnr" v="72212" />
	</node>
	<node id="-576964" lat="62.5348454289" lon="6.40397042624">
		<tag k="fixme" v="consider place=hamlet" />
		<tag k="name" v="Holmeset" />
		<tag k="place" v="farm" />
		<tag k="ssr:stedsnr" v="72203" />
	</node>
	<node id="-576414" lat="62.5508777738" lon="6.27893054643">
		<tag k="name" v="Søvikhagen" />
		<tag k="place" v="isolated_dwelling" />
		<tag k="ssr:stedsnr" v="294836" />
	</node>
	<node id="-576936" lat="62.6079888924" lon="6.33061666936">
		<tag k="name" v="Eljasgarden" />
		<tag k="place" v="farm" />
		<tag k="ssr:stedsnr" v="34616" />
	</node>
	<node id="-576927" lat="62.5353500012" lon="6.45966389413">
		<tag k="name" v="Bjørkly" />
		<tag k="place" v="farm" />
		<tag k="ssr:stedsnr" v="34399" />
	</node>
	<node id="-576916" lat="62.6055027772" lon="6.63417222753">
		<tag k="name" v="Skogvoll" />
		<tag k="place" v="farm" />
		<tag k="ssr:stedsnr" v="33863" />
	</node>
	<node id="-576912" lat="62.6184444475" lon="6.53575277213">
		<tag k="name" v="Einargarden" />
		<tag k="place" v="isolated_dwelling" />
		<tag k="ssr:stedsnr" v="33791" />
	</node>
	<node id="-576911" lat="62.5349861134" lon="6.60578332361">
		<tag k="name" v="Vadset" />
		<tag k="place" v="farm" />
		<tag k="ssr:stedsnr" v="33706" />
	</node>
	<node id="-576908" lat="62.5434750021" lon="6.57511944258">
		<tag k="name" v="Larsgarden" />
		<tag k="place" v="farm" />
		<tag k="ssr:stedsnr" v="33674" />
	</node>
	<node id="-576907" lat="62.5623452633" lon="6.61949673475">
		<tag k="alt_name" v="Heimigarden" />
		<tag k="name" v="Heimigard" />
		<tag k="place" v="farm" />
		<tag k="ssr:stedsnr" v="33648" />
	</node>
	<node id="-576900" lat="62.6032638915" lon="6.39111110901">
		<tag k="name" v="Mattinesgarden" />
		<tag k="place" v="farm" />
		<tag k="ssr:stedsnr" v="33288" />
	</node>
	<node id="-576898" lat="62.592455556" lon="6.29682221999">
		<tag k="name" v="Myrane" />
		<tag k="place" v="farm" />
		<tag k="ssr:stedsnr" v="32944" />
	</node>
	<node id="-576893" lat="62.6491833359" lon="6.22495000031">
		<tag k="name" v="Sjurgarden" />
		<tag k="place" v="farm" />
		<tag k="ssr:stedsnr" v="32772" />
	</node>
	<node id="-576892" lat="62.6508166675" lon="6.22558333934">
		<tag k="name" v="Ellinggarden" />
		<tag k="place" v="farm" />
		<tag k="ssr:stedsnr" v="32764" />
	</node>
	<node id="-576891" lat="62.6328500032" lon="6.18593332624">
		<tag k="name" v="Sætgjerdet" />
		<tag k="place" v="farm" />
		<tag k="ssr:stedsnr" v="32729" />
	</node>
	<node id="-576404" lat="62.604658334" lon="6.3351055482">
		<tag k="name" v="Knut-Andersgarden" />
		<tag k="place" v="farm" />
		<tag k="ssr:stedsnr" v="277634" />
	</node>
	<node id="-576885" lat="62.6567333315" lon="6.18697499425">
		<tag k="name" v="Sjurgarden" />
		<tag k="place" v="farm" />
		<tag k="ssr:stedsnr" v="32460" />
	</node>
	<node id="-576884" lat="62.6545297457" lon="6.21052990719">
		<tag k="name" v="Toregarden" />
		<tag k="place" v="farm" />
		<tag k="ssr:stedsnr" v="32449" />
	</node>
	<node id="-576877" lat="62.5610305562" lon="6.27858333143">
		<tag k="name" v="Låna" />
		<tag k="place" v="farm" />
		<tag k="ssr:stedsnr" v="32260" />
	</node>
	<node id="-576875" lat="62.6070083364" lon="6.19016389061">
		<tag k="name" v="Henninggarden" />
		<tag k="place" v="farm" />
		<tag k="ssr:stedsnr" v="30625" />
	</node>
	<node id="-576874" lat="62.5331343875" lon="6.26989209112">
		<tag k="fixme" v="consider place=hamlet" />
		<tag k="name" v="Hamnsund" />
		<tag k="place" v="farm" />
		<tag k="ssr:stedsnr" v="25893" />
	</node>
	<node id="-576869" lat="62.5702138874" lon="6.75646944275">
		<tag k="historic" v="shieling" />
		<tag k="name" v="Øygardssetra" />
		<tag k="place" v="locality" />
		<tag k="ssr:stedsnr" v="12879" />
	</node>
	<node id="-576865" lat="62.6716444452" lon="6.17635278428">
		<tag k="name" v="Hestevollane" />
		<tag k="place" v="locality" />
		<tag k="ssr:stedsnr" v="12698" />
	</node>
	<node id="-576852" lat="62.7022333289" lon="6.42111388119">
		<tag k="name" v="Otnes" />
		<tag k="place" v="farm" />
		<tag k="ssr:stedsnr" v="11938" />
	</node>
	<node id="-576841" lat="62.6203167726" lon="6.65067507171">
		<tag k="fixme" v="consider place=hamlet" />
		<tag k="name" v="Langset" />
		<tag k="place" v="farm" />
		<tag k="ssr:stedsnr" v="11450" />
	</node>
	<node id="-576837" lat="62.5997805574" lon="6.31144167179">
		<tag k="name" v="Røvreiten" />
		<tag k="place" v="farm" />
		<tag k="ssr:stedsnr" v="11421" />
	</node>
	<node id="-576832" lat="62.5994666655" lon="6.67817222383">
		<tag k="name" v="Arnegarden" />
		<tag k="place" v="farm" />
		<tag k="ssr:stedsnr" v="11391" />
	</node>
	<node id="-576823" lat="62.5462194421" lon="6.59088611357">
		<tag k="name" v="Eidet" />
		<tag k="place" v="farm" />
		<tag k="ssr:stedsnr" v="11181" />
	</node>
	<node id="-576819" lat="62.5444234022" lon="6.29229179697">
		<tag k="fixme" v="consider place=hamlet" />
		<tag k="name" v="Søvik" />
		<tag k="place" v="farm" />
		<tag k="ssr:stedsnr" v="982061" />
	</node>
	<node id="-576818" lat="62.537591598" lon="6.48242412715">
		<tag k="fixme" v="consider place=hamlet" />
		<tag k="name" v="Kroksethagen" />
		<tag k="place" v="farm" />
		<tag k="ssr:stedsnr" v="982038" />
	</node>
	<node id="-576817" lat="62.6011758009" lon="6.67245683332">
		<tag k="fixme" v="consider place=hamlet" />
		<tag k="name" v="Vestre" />
		<tag k="place" v="farm" />
		<tag k="ssr:stedsnr" v="982034" />
	</node>
	<node id="-576816" lat="62.6277166247" lon="6.60405822156">
		<tag k="fixme" v="consider place=hamlet" />
		<tag k="loc_name" v="Ternøya" />
		<tag k="name" v="Tennøya" />
		<tag k="place" v="farm" />
		<tag k="ssr:stedsnr" v="982033" />
	</node>
	<node id="-576815" lat="62.6147918543" lon="6.59766086584">
		<tag k="alt_name" v="Hannibalsøya" />
		<tag k="name" v="Løvøya" />
		<tag k="place" v="locality" />
		<tag k="ssr:stedsnr" v="982032" />
	</node>
	<node id="-576814" lat="62.5553968098" lon="6.6153371623">
		<tag k="fixme" v="consider place=hamlet" />
		<tag k="name" v="Vatnehol" />
		<tag k="place" v="farm" />
		<tag k="ssr:stedsnr" v="982027" />
	</node>
	<node id="-576813" lat="62.5347048024" lon="6.58370784238">
		<tag k="fixme" v="consider place=hamlet" />
		<tag k="name" v="Tennfjord" />
		<tag k="place" v="farm" />
		<tag k="ssr:stedsnr" v="981989" />
	</node>
	<node id="-576812" lat="62.6042611937" lon="6.44500412338">
		<tag k="fixme" v="consider place=hamlet" />
		<tag k="name" v="Årsund" />
		<tag k="place" v="farm" />
		<tag k="ssr:stedsnr" v="981985" />
	</node>
	<node id="-576810" lat="62.6651340034" lon="6.27448858018">
		<tag k="fixme" v="consider place=hamlet" />
		<tag k="name" v="Longva" />
		<tag k="place" v="farm" />
		<tag k="ssr:stedsnr" v="981960" />
	</node>
	<node id="-576809" lat="62.6708940289" lon="6.33815413795">
		<tag k="fixme" v="consider place=hamlet" />
		<tag k="name" v="Nogva" />
		<tag k="place" v="farm" />
		<tag k="ssr:stedsnr" v="981959" />
	</node>
	<node id="-576807" lat="62.653390221" lon="6.2147290079">
		<tag k="name" v="Kjellstad" />
		<tag k="place" v="farm" />
		<tag k="ssr:stedsnr" v="981576" />
	</node>
	<node id="-576806" lat="62.6550231692" lon="6.20508273072">
		<tag k="name" v="Negard" />
		<tag k="place" v="farm" />
		<tag k="ssr:stedsnr" v="981575" />
	</node>
	<node id="-576803" lat="62.613991493" lon="6.21769414658">
		<tag k="name" v="Skomakargarden" />
		<tag k="place" v="farm" />
		<tag k="ssr:stedsnr" v="1072430" />
	</node>
	<node id="-576799" lat="62.5346314183" lon="6.41510708996">
		<tag k="alt_name" v="Urkedal" />
		<tag k="fixme" v="consider place=hamlet" />
		<tag k="name" v="Urkedalen" />
		<tag k="place" v="village" />
		<tag k="ssr:stedsnr" v="884732" />
	</node>
	<node id="-576706" lat="62.5354" lon="6.41498055803">
		<tag k="name" v="Midttun" />
		<tag k="place" v="farm" />
		<tag k="ssr:stedsnr" v="398757" />
	</node>
	<node id="-576793" lat="62.5976138869" lon="6.47907777917">
		<tag k="name" v="Reitan" />
		<tag k="place" v="locality" />
		<tag k="ssr:stedsnr" v="884477" />
	</node>
	<node id="-576786" lat="62.5432333304" lon="6.51254443511">
		<tag k="name" v="Teigen" />
		<tag k="place" v="farm" />
		<tag k="ssr:stedsnr" v="884160" />
	</node>
	<node id="-576387" lat="62.6032055523" lon="6.36531110498">
		<tag k="name" v="Remma" />
		<tag k="place" v="farm" />
		<tag k="ssr:stedsnr" v="277240" />
	</node>
	<node id="-576783" lat="62.5817250037" lon="6.62538332462">
		<tag k="name" v="Haugen" />
		<tag k="place" v="farm" />
		<tag k="ssr:stedsnr" v="884000" />
	</node>
	<node id="-576779" lat="62.5804249984" lon="6.62066944704">
		<tag k="name" v="Hovsetnausta" />
		<tag k="place" v="locality" />
		<tag k="ssr:stedsnr" v="883987" />
	</node>
	<node id="-576776" lat="62.545544444" lon="6.58766944529">
		<tag k="name" v="Eidsvikeidet" />
		<tag k="place" v="hamlet" />
		<tag k="ssr:stedsnr" v="883968" />
	</node>
	<node id="-576768" lat="62.5903805545" lon="6.58284721722">
		<tag k="name" v="Pettergarden" />
		<tag k="place" v="farm" />
		<tag k="ssr:stedsnr" v="883801" />
	</node>
	<node id="-576767" lat="62.5354138909" lon="6.58308055031">
		<tag k="name" v="Steinane" />
		<tag k="place" v="farm" />
		<tag k="ssr:stedsnr" v="883735" />
	</node>
	<node id="-576763" lat="62.5586472219" lon="6.64922500011">
		<tag k="name" v="Solheim" />
		<tag k="place" v="farm" />
		<tag k="ssr:stedsnr" v="883613" />
	</node>
	<node id="-576762" lat="62.6169250004" lon="6.70177500141">
		<tag k="historic" v="shieling" />
		<tag k="name" v="Gamlestølen" />
		<tag k="place" v="locality" />
		<tag k="ssr:stedsnr" v="883559" />
	</node>
	<node id="-576759" lat="62.5619611087" lon="6.71320555641">
		<tag k="historic" v="shieling" />
		<tag k="name" v="Bruteigselet" />
		<tag k="place" v="locality" />
		<tag k="ssr:stedsnr" v="883455" />
	</node>
	<node id="-576750" lat="62.693825003" lon="6.42449443573">
		<tag k="name" v="Nesbø" />
		<tag k="place" v="farm" />
		<tag k="ssr:stedsnr" v="882924" />
	</node>
	<node id="-576743" lat="62.5689354223" lon="6.27247875425">
		<tag k="fixme" v="consider place=hamlet" />
		<tag k="name" v="Gamlem" />
		<tag k="place" v="farm" />
		<tag k="ssr:stedsnr" v="882862" />
	</node>
	<node id="-578750" lat="62.6078472261" lon="6.6293305539">
		<tag k="name" v="Oppigarden" />
		<tag k="place" v="farm" />
		<tag k="ssr:stedsnr" v="944839" />
	</node>
	<node id="-576739" lat="62.6321666636" lon="6.18918610378">
		<tag k="name" v="Fjelle" />
		<tag k="place" v="farm" />
		<tag k="ssr:stedsnr" v="882662" />
	</node>
	<node id="-576738" lat="62.6312833348" lon="6.25936388127">
		<tag k="name" v="Gunnargarden" />
		<tag k="place" v="farm" />
		<tag k="ssr:stedsnr" v="882618" />
	</node>
	<node id="-576736" lat="62.6032694456" lon="6.2123444362">
		<tag k="name" v="Knutgarden" />
		<tag k="place" v="farm" />
		<tag k="ssr:stedsnr" v="882545" />
	</node>
	<node id="-576735" lat="62.6033500023" lon="6.21380554894">
		<tag k="name" v="Sevringarden" />
		<tag k="place" v="farm" />
		<tag k="ssr:stedsnr" v="882544" />
	</node>
	<node id="-578782" lat="62.5797757152" lon="6.57330396073">
		<tag k="fixme" v="consider place=hamlet" />
		<tag k="name" v="Bjørnebotten" />
		<tag k="place" v="farm" />
		<tag k="ssr:stedsnr" v="944887" />
	</node>
	<node id="-576731" lat="62.6333999991" lon="6.27286665902">
		<tag k="name" v="Larsgarden" />
		<tag k="place" v="farm" />
		<tag k="ssr:stedsnr" v="882501" />
	</node>
	<node id="-577743" lat="62.6254611075" lon="6.6690888807">
		<tag k="name" v="Øvrebø" />
		<tag k="place" v="farm" />
		<tag k="ssr:stedsnr" v="519027" />
	</node>
	<node id="-578769" lat="62.5441194443" lon="6.57550000628">
		<tag k="name" v="Haugen" />
		<tag k="place" v="farm" />
		<tag k="ssr:stedsnr" v="944648" />
	</node>
	<node id="-576720" lat="62.564863886" lon="6.27641388222">
		<tag k="name" v="Bonde-Gamlem" />
		<tag k="place" v="farm" />
		<tag k="ssr:stedsnr" v="882262" />
	</node>
	<node id="-578767" lat="62.5564972243" lon="6.63347499957">
		<tag k="name" v="Ytsthaugen" />
		<tag k="place" v="farm" />
		<tag k="ssr:stedsnr" v="944630" />
	</node>
	<node id="-578764" lat="62.5570222216" lon="6.56802777514">
		<tag k="historic" v="shieling" />
		<tag k="name" v="Larsgardssætra" />
		<tag k="place" v="locality" />
		<tag k="ssr:stedsnr" v="944574" />
	</node>
	<node id="-578754" lat="62.5666805549" lon="6.46321665987">
		<tag k="name" v="Bjørlykkskard" />
		<tag k="place" v="farm" />
		<tag k="ssr:stedsnr" v="944448" />
	</node>
	<node id="-578751" lat="62.5960472226" lon="6.30105555063">
		<tag k="name" v="Nilsgarden" />
		<tag k="place" v="farm" />
		<tag k="ssr:stedsnr" v="944279" />
	</node>
	<node id="-576702" lat="62.6065722242" lon="6.35630832504">
		<tag k="name" v="Korsnesgarden" />
		<tag k="place" v="farm" />
		<tag k="ssr:stedsnr" v="398616" />
	</node>
	<node id="-576701" lat="62.609019443" lon="6.33076389353">
		<tag k="name" v="Larsgarden" />
		<tag k="place" v="farm" />
		<tag k="ssr:stedsnr" v="398614" />
	</node>
	<node id="-576700" lat="62.6041194403" lon="6.3611333348">
		<tag k="name" v="Midtgarden" />
		<tag k="place" v="farm" />
		<tag k="ssr:stedsnr" v="398612" />
	</node>
	<node id="-576698" lat="62.589299996" lon="6.34815555141">
		<tag k="historic" v="shieling" />
		<tag k="name" v="Iversætra" />
		<tag k="place" v="locality" />
		<tag k="ssr:stedsnr" v="398597" />
	</node>
	<node id="-578743" lat="62.5423067105" lon="6.51383913417">
		<tag k="name" v="Slyngstad" />
		<tag k="place" v="hamlet" />
		<tag k="ssr:stedsnr" v="944184" />
	</node>
	<node id="-578742" lat="62.5418888895" lon="6.5096305548">
		<tag k="name" v="Ivargarden" />
		<tag k="place" v="farm" />
		<tag k="ssr:stedsnr" v="944182" />
	</node>
	<node id="-578739" lat="62.6203333311" lon="6.65178055125">
		<tag k="name" v="Oppigard" />
		<tag k="place" v="farm" />
		<tag k="ssr:stedsnr" v="944037" />
	</node>
	<node id="-576688" lat="62.580327774" lon="6.62498611735">
		<tag k="name" v="Riset" />
		<tag k="place" v="farm" />
		<tag k="ssr:stedsnr" v="398000" />
	</node>
	<node id="-578734" lat="62.5435249968" lon="6.53524722593">
		<tag k="name" v="Nilsplassen" />
		<tag k="place" v="farm" />
		<tag k="ssr:stedsnr" v="944016" />
	</node>
	<node id="-576683" lat="62.5448805591" lon="6.58283889014">
		<tag k="name" v="Nygard" />
		<tag k="place" v="farm" />
		<tag k="ssr:stedsnr" v="397959" />
	</node>
	<node id="-578728" lat="62.6728222193" lon="6.26751388038">
		<tag k="name" v="Kristengarden" />
		<tag k="place" v="farm" />
		<tag k="ssr:stedsnr" v="943389" />
	</node>
	<node id="-578727" lat="62.6702166626" lon="6.27069721802">
		<tag k="name" v="Gjerdet" />
		<tag k="place" v="farm" />
		<tag k="ssr:stedsnr" v="943378" />
	</node>
	<node id="-576676" lat="62.586852775" lon="6.58593611805">
		<tag k="name" v="Nyland" />
		<tag k="place" v="farm" />
		<tag k="ssr:stedsnr" v="397911" />
	</node>
	<node id="-578719" lat="62.63434722" lon="6.16666389621">
		<tag k="name" v="Hellevik" />
		<tag k="place" v="hamlet" />
		<tag k="ssr:stedsnr" v="942901" />
	</node>
	<node id="-578718" lat="62.5881277778" lon="6.29310833395">
		<tag k="historic" v="shieling" />
		<tag k="name" v="Våskogstølen" />
		<tag k="place" v="locality" />
		<tag k="ssr:stedsnr" v="942897" />
	</node>
	<node id="-576668" lat="62.5358388894" lon="6.61648333588">
		<tag k="name" v="Nerland" />
		<tag k="place" v="farm" />
		<tag k="ssr:stedsnr" v="397671" />
	</node>
	<node id="-578714" lat="62.6330888855" lon="6.25275000016">
		<tag k="name" v="Hansgarden" />
		<tag k="place" v="farm" />
		<tag k="ssr:stedsnr" v="942590" />
	</node>
	<node id="-577391" lat="62.5976499955" lon="6.30754999541">
		<tag k="name" v="Steinane" />
		<tag k="place" v="farm" />
		<tag k="ssr:stedsnr" v="215417" />
	</node>
	<node id="-578712" lat="62.6574333337" lon="6.18204444437">
		<tag k="name" v="Petter-Framgarden" />
		<tag k="place" v="farm" />
		<tag k="ssr:stedsnr" v="942432" />
	</node>
	<node id="-576657" lat="62.6037916655" lon="6.38028889442">
		<tag k="name" v="Berngarden" />
		<tag k="place" v="farm" />
		<tag k="ssr:stedsnr" v="397276" />
	</node>
	<node id="-578702" lat="62.6525555513" lon="6.24623333207">
		<tag k="name" v="Fredtun" />
		<tag k="place" v="farm" />
		<tag k="ssr:stedsnr" v="922958" />
	</node>
	<node id="-578700" lat="62.655505552" lon="6.32384722326">
		<tag k="name" v="Klungrane" />
		<tag k="place" v="farm" />
		<tag k="ssr:stedsnr" v="922933" />
	</node>
	<node id="-578699" lat="62.6590611105" lon="6.34174444058">
		<tag k="name" v="Rognegjerdet" />
		<tag k="place" v="farm" />
		<tag k="ssr:stedsnr" v="922930" />
	</node>
	<node id="-578694" lat="62.5674601594" lon="6.7252160735">
		<tag k="alt_name" v="Krogsætra;Krogsæter;Kroksæter" />
		<tag k="fixme" v="consider place=hamlet" />
		<tag k="name" v="Kroksætra" />
		<tag k="place" v="farm" />
		<tag k="ssr:stedsnr" v="922868" />
	</node>
	<node id="-578692" lat="62.6868549484" lon="6.28274069559">
		<tag k="fixme" v="consider place=hamlet" />
		<tag k="name" v="Ura" />
		<tag k="place" v="farm" />
		<tag k="ssr:stedsnr" v="922866" />
	</node>
	<node id="-578691" lat="62.6816027818" lon="6.25125276917">
		<tag k="name" v="Flem" />
		<tag k="place" v="farm" />
		<tag k="ssr:stedsnr" v="922862" />
	</node>
	<node id="-576639" lat="62.6446138865" lon="6.22632778588">
		<tag k="name" v="Åkrenausta" />
		<tag k="place" v="locality" />
		<tag k="ssr:stedsnr" v="396761" />
	</node>
	<node id="-576638" lat="62.6179583349" lon="6.21113610834">
		<tag k="name" v="Berntgarden" />
		<tag k="place" v="farm" />
		<tag k="ssr:stedsnr" v="396682" />
	</node>
	<node id="-576637" lat="62.6193888871" lon="6.21449444683">
		<tag k="name" v="Guttormgarden" />
		<tag k="place" v="farm" />
		<tag k="ssr:stedsnr" v="396677" />
	</node>
	<node id="-576636" lat="62.6227777802" lon="6.20931111628">
		<tag k="name" v="Fillipgarden" />
		<tag k="place" v="farm" />
		<tag k="ssr:stedsnr" v="396632" />
	</node>
	<node id="-578681" lat="62.6227972207" lon="6.56813889619">
		<tag k="name" v="Baraldsneset" />
		<tag k="place" v="farm" />
		<tag k="ssr:stedsnr" v="922435" />
	</node>
	<node id="-578680" lat="62.6127833311" lon="6.46378056481">
		<tag k="name" v="Mannaberghaugan" />
		<tag k="place" v="farm" />
		<tag k="ssr:stedsnr" v="922424" />
	</node>
	<node id="-578677" lat="62.5977499997" lon="6.46831667007">
		<tag k="name" v="Lunden" />
		<tag k="place" v="farm" />
		<tag k="ssr:stedsnr" v="922378" />
	</node>
	<node id="-578676" lat="62.5993438781" lon="6.67351556954">
		<tag k="fixme" v="consider place=hamlet" />
		<tag k="name" v="Vestre" />
		<tag k="place" v="village" />
		<tag k="ssr:stedsnr" v="922364" />
	</node>
	<node id="-576627" lat="62.6578055544" lon="6.24093610261">
		<tag k="fixme" v="consider place=hamlet" />
		<tag k="name" v="Haram" />
		<tag k="place" v="village" />
		<tag k="ssr:stedsnr" v="396308" />
	</node>
	<node id="-578674" lat="62.597433331" lon="6.64787777545">
		<tag k="name" v="Nybøsætra" />
		<tag k="place" v="locality" />
		<tag k="ssr:stedsnr" v="922359" />
	</node>
	<node id="-578673" lat="62.594452779" lon="6.56913056143">
		<tag k="name" v="Borga" />
		<tag k="place" v="farm" />
		<tag k="ssr:stedsnr" v="922355" />
	</node>
	<node id="-578672" lat="62.6008416696" lon="6.46854166874">
		<tag k="name" v="Risvika" />
		<tag k="place" v="farm" />
		<tag k="ssr:stedsnr" v="922346" />
	</node>
	<node id="-578671" lat="62.58922778" lon="6.34865278458">
		<tag k="name" v="Ivarsætra" />
		<tag k="place" v="locality" />
		<tag k="ssr:stedsnr" v="922339" />
	</node>
	<node id="-576622" lat="62.6591249959" lon="6.29377221995">
		<tag k="name" v="Nedstestølen" />
		<tag k="place" v="farm" />
		<tag k="ssr:stedsnr" v="396274" />
	</node>
	<node id="-576621" lat="62.6606500023" lon="6.29337500007">
		<tag k="name" v="Øvstestølen" />
		<tag k="place" v="farm" />
		<tag k="ssr:stedsnr" v="396273" />
	</node>
	<node id="-576620" lat="62.6067222207" lon="6.18813888641">
		<tag k="name" v="Arnegarden" />
		<tag k="place" v="farm" />
		<tag k="ssr:stedsnr" v="394618" />
	</node>
	<node id="-576617" lat="62.6264605558" lon="6.66764142646">
		<tag k="fixme" v="consider place=hamlet" />
		<tag k="name" v="Eik" />
		<tag k="place" v="farm" />
		<tag k="ssr:stedsnr" v="376471" />
	</node>
	<node id="-576616" lat="62.6179507963" lon="6.53548602446">
		<tag k="fixme" v="consider place=hamlet" />
		<tag k="name" v="Skor" />
		<tag k="place" v="farm" />
		<tag k="ssr:stedsnr" v="376458" />
	</node>
	<node id="-578663" lat="62.5629672289" lon="6.62293410538">
		<tag k="fixme" v="consider place=hamlet" />
		<tag k="name" v="Bakken" />
		<tag k="place" v="farm" />
		<tag k="ssr:stedsnr" v="922246" />
	</node>
	<node id="-576614" lat="62.6635555588" lon="6.2833555615">
		<tag k="name" v="Solbakken" />
		<tag k="place" v="farm" />
		<tag k="ssr:stedsnr" v="375972" />
	</node>
	<node id="-576613" lat="62.6534750002" lon="6.21813055296">
		<tag k="name" v="Holda" />
		<tag k="place" v="farm" />
		<tag k="ssr:stedsnr" v="375948" />
	</node>
	<node id="-578660" lat="62.5510833348" lon="6.47068889749">
		<tag k="name" v="Remevollen" />
		<tag k="place" v="farm" />
		<tag k="ssr:stedsnr" v="922236" />
	</node>
	<node id="-576611" lat="62.6585888918" lon="6.33723610269">
		<tag k="name" v="Austerheim" />
		<tag k="place" v="farm" />
		<tag k="ssr:stedsnr" v="375927" />
	</node>
	<node id="-578658" lat="62.557253563" lon="6.60697631368">
		<tag k="fixme" v="consider place=hamlet" />
		<tag k="name" v="Os" />
		<tag k="place" v="farm" />
		<tag k="ssr:stedsnr" v="922202" />
	</node>
	<node id="-578654" lat="62.5357447186" lon="6.46420225524">
		<tag k="fixme" v="consider place=hamlet" />
		<tag k="name" v="Kråkset" />
		<tag k="place" v="farm" />
		<tag k="ssr:stedsnr" v="922191" />
	</node>
	<node id="-578652" lat="62.5363388924" lon="6.57616665836">
		<tag k="name" v="Sætergarden" />
		<tag k="place" v="farm" />
		<tag k="ssr:stedsnr" v="922188" />
	</node>
	<node id="-576602" lat="62.6057888845" lon="6.32175555253">
		<tag k="name" v="Gunnagarden" />
		<tag k="place" v="farm" />
		<tag k="ssr:stedsnr" v="375382" />
	</node>
	<node id="-576601" lat="62.606119447" lon="6.64469444641">
		<tag k="name" v="Orviksætra" />
		<tag k="place" v="locality" />
		<tag k="ssr:stedsnr" v="375374" />
	</node>
	<node id="-576599" lat="62.5932611121" lon="6.29095000882">
		<tag k="name" v="Østengarden" />
		<tag k="place" v="farm" />
		<tag k="ssr:stedsnr" v="375357" />
	</node>
	<node id="-578645" lat="62.5999083355" lon="6.44426388627">
		<tag k="name" v="Brattvåg" />
		<tag k="place" v="village" />
		<tag k="ssr:stedsnr" v="921444" />
	</node>
	<node id="-578644" lat="62.5965555558" lon="6.44322500653">
		<tag k="name" v="Åsen" />
		<tag k="place" v="isolated_dwelling" />
		<tag k="ssr:stedsnr" v="921443" />
	</node>
	<node id="-578642" lat="62.5979972196" lon="6.31162222011">
		<tag k="name" v="Sandvika" />
		<tag k="place" v="farm" />
		<tag k="ssr:stedsnr" v="921426" />
	</node>
	<node id="-576590" lat="62.5595555554" lon="6.2378277795">
		<tag k="name" v="Fagerheim" />
		<tag k="place" v="farm" />
		<tag k="ssr:stedsnr" v="375257" />
	</node>
	<node id="-578472" lat="62.6911961235" lon="6.39372043727">
		<tag k="fixme" v="consider place=hamlet" />
		<tag k="name" v="Oterlei" />
		<tag k="place" v="farm" />
		<tag k="ssr:stedsnr" v="801884" />
	</node>
	<node id="-576583" lat="62.5582555521" lon="6.61707778531">
		<tag k="name" v="Vatne" />
		<tag k="place" v="village" />
		<tag k="ssr:stedsnr" v="375216" />
	</node>
	<node id="-576579" lat="62.5474449156" lon="6.27901945358">
		<tag k="name" v="Søvik" />
		<tag k="old_name" v="Søvika" />
		<tag k="place" v="village" />
		<tag k="ssr:stedsnr" v="375191" />
	</node>
	<node id="-576577" lat="62.534857506" lon="6.41531516507">
		<tag k="fixme" v="consider place=hamlet" />
		<tag k="name" v="Urkedalen" />
		<tag k="place" v="farm" />
		<tag k="ssr:stedsnr" v="375166" />
	</node>
	<node id="-578623" lat="62.6049472237" lon="6.19601667568">
		<tag k="name" v="Geilane" />
		<tag k="place" v="farm" />
		<tag k="ssr:stedsnr" v="880668" />
	</node>
	<node id="-578622" lat="62.6046083373" lon="6.20292777754">
		<tag k="name" v="Hauggarden" />
		<tag k="place" v="farm" />
		<tag k="ssr:stedsnr" v="880643" />
	</node>
	<node id="-578618" lat="62.5933847356" lon="6.56946781963">
		<tag k="alt_name" v="Strand" />
		<tag k="fixme" v="consider place=hamlet" />
		<tag k="name" v="Indre Strand" />
		<tag k="place" v="farm" />
		<tag k="ssr:stedsnr" v="874895" />
	</node>
	<node id="-578615" lat="62.6686499999" lon="6.34346110892">
		<tag k="name" v="Arhaugvika" />
		<tag k="place" v="farm" />
		<tag k="ssr:stedsnr" v="861985" />
	</node>
	<node id="-578610" lat="62.5287643904" lon="6.20194558462">
		<tag k="fixme" v="consider place=hamlet" />
		<tag k="name" v="Kalvøya" />
		<tag k="place" v="farm" />
		<tag k="ssr:stedsnr" v="861749" />
	</node>
	<node id="-576561" lat="62.582025003" lon="6.62268332729">
		<tag k="name" v="Haugstabburet" />
		<tag k="place" v="locality" />
		<tag k="ssr:stedsnr" v="337966" />
	</node>
	<node id="-578608" lat="62.6784384654" lon="6.19072441375">
		<tag k="fixme" v="consider place=hamlet" />
		<tag k="name" v="Ulla" />
		<tag k="place" v="farm" />
		<tag k="ssr:stedsnr" v="861725" />
	</node>
	<node id="-578605" lat="62.6169611144" lon="6.2170277821">
		<tag k="fixme" v="consider place=hamlet" />
		<tag k="name" v="Kjerstad" />
		<tag k="place" v="village" />
		<tag k="ssr:stedsnr" v="861693" />
	</node>
	<node id="-578601" lat="62.6452056384" lon="6.22934201869">
		<tag k="fixme" v="consider place=hamlet" />
		<tag k="name" v="Åkre" />
		<tag k="place" v="farm" />
		<tag k="ssr:stedsnr" v="861468" />
	</node>
	<node id="-576348" lat="62.6234722212" lon="6.66659166612">
		<tag k="name" v="Insteik" />
		<tag k="place" v="farm" />
		<tag k="ssr:stedsnr" v="276047" />
	</node>
	<node id="-578597" lat="62.601672225" lon="6.38225278601">
		<tag k="name" v="Gjerdet" />
		<tag k="place" v="farm" />
		<tag k="ssr:stedsnr" v="861396" />
	</node>
	<node id="-576546" lat="62.6067055527" lon="6.32513333908">
		<tag k="name" v="Syvergarden" />
		<tag k="place" v="farm" />
		<tag k="ssr:stedsnr" v="337633" />
	</node>
	<node id="-578593" lat="62.5986011947" lon="6.63677749393">
		<tag k="fixme" v="consider place=hamlet" />
		<tag k="name" v="Nybøen" />
		<tag k="place" v="farm" />
		<tag k="ssr:stedsnr" v="861350" />
	</node>
	<node id="-576543" lat="62.5443277784" lon="6.54993055683">
		<tag k="name" v="Gullbekken" />
		<tag k="place" v="farm" />
		<tag k="ssr:stedsnr" v="337610" />
	</node>
	<node id="-578590" lat="62.581013889" lon="6.2635333372">
		<tag k="name" v="Åsegarden" />
		<tag k="place" v="farm" />
		<tag k="ssr:stedsnr" v="861341" />
	</node>
	<node id="-576541" lat="62.5558527804" lon="6.63534723095">
		<tag k="name" v="Nedstejohaugen" />
		<tag k="place" v="farm" />
		<tag k="ssr:stedsnr" v="337594" />
	</node>
	<node id="-578584" lat="62.5710487175" lon="6.46813672438">
		<tag k="fixme" v="consider place=hamlet" />
		<tag k="name" v="Bjørlykke" />
		<tag k="place" v="farm" />
		<tag k="ssr:stedsnr" v="861282" />
	</node>
	<node id="-578575" lat="62.5567805552" lon="6.47732778184">
		<tag k="name" v="Remereiten" />
		<tag k="place" v="farm" />
		<tag k="ssr:stedsnr" v="861223" />
	</node>
	<node id="-576526" lat="62.6180527821" lon="6.70466389172">
		<tag k="historic" v="shieling" />
		<tag k="name" v="Eikesætra" />
		<tag k="place" v="locality" />
		<tag k="ssr:stedsnr" v="337466" />
	</node>
	<node id="-578573" lat="62.5420416708" lon="6.29763056312">
		<tag k="name" v="Søvikreitane" />
		<tag k="place" v="farm" />
		<tag k="ssr:stedsnr" v="861211" />
	</node>
	<node id="-578568" lat="62.6087999959" lon="6.3477444444">
		<tag k="name" v="Steffegarden" />
		<tag k="place" v="quarter" />
		<tag k="ssr:stedsnr" v="849716" />
	</node>
	<node id="-576519" lat="62.6228500009" lon="6.6753083261">
		<tag k="historic" v="shieling" />
		<tag k="name" v="Litlesæterstølen" />
		<tag k="place" v="locality" />
		<tag k="ssr:stedsnr" v="337389" />
	</node>
	<node id="-576511" lat="62.6224611087" lon="6.66608610263">
		<tag k="name" v="Hola" />
		<tag k="place" v="farm" />
		<tag k="ssr:stedsnr" v="337024" />
	</node>
	<node id="-576506" lat="62.6044944423" lon="6.20750278244">
		<tag k="name" v="Sjurgarden" />
		<tag k="place" v="farm" />
		<tag k="ssr:stedsnr" v="336591" />
	</node>
	<node id="-576504" lat="62.6570861079" lon="6.18502500083">
		<tag k="name" v="Arnegarden" />
		<tag k="place" v="farm" />
		<tag k="ssr:stedsnr" v="336483" />
	</node>
	<node id="-576500" lat="62.5604777762" lon="6.27661388273">
		<tag k="name" v="Svendsen-Gamlem" />
		<tag k="place" v="farm" />
		<tag k="ssr:stedsnr" v="336305" />
	</node>
	<node id="-576680" lat="62.5858472201" lon="6.58089721841">
		<tag k="name" v="Olagarden" />
		<tag k="place" v="farm" />
		<tag k="ssr:stedsnr" v="397920" />
	</node>
	<node id="-578541" lat="62.531477775" lon="6.30586388432">
		<tag k="fixme" v="consider place=hamlet" />
		<tag k="name" v="Uggedal" />
		<tag k="place" v="village" />
		<tag k="ssr:stedsnr" v="823558" />
	</node>
	<node id="-576491" lat="62.6157249989" lon="6.21827221304">
		<tag k="name" v="Jordmorgarden" />
		<tag k="place" v="farm" />
		<tag k="ssr:stedsnr" v="335718" />
	</node>
	<node id="-576679" lat="62.5875694411" lon="6.57653055095">
		<tag k="name" v="Båsen" />
		<tag k="place" v="farm" />
		<tag k="ssr:stedsnr" v="397917" />
	</node>
	<node id="-576488" lat="62.6562833326" lon="6.33213610195">
		<tag k="name" v="Gunnargarden" />
		<tag k="place" v="farm" />
		<tag k="ssr:stedsnr" v="335629" />
	</node>
	<node id="-576337" lat="62.6212388927" lon="6.21313889438">
		<tag k="name" v="Stølen" />
		<tag k="place" v="farm" />
		<tag k="ssr:stedsnr" v="275637" />
	</node>
	<node id="-578532" lat="62.6276694469" lon="6.60180555351">
		<tag k="name" v="Heimigard" />
		<tag k="place" v="farm" />
		<tag k="ssr:stedsnr" v="823373" />
	</node>
	<node id="-576482" lat="62.6912583375" lon="6.23248889208">
		<tag k="name" v="Eidet" />
		<tag k="place" v="farm" />
		<tag k="ssr:stedsnr" v="335306" />
	</node>
	<node id="-578528" lat="62.5440694462" lon="6.52070000305">
		<tag k="name" v="Bøen" />
		<tag k="place" v="farm" />
		<tag k="ssr:stedsnr" v="823165" />
	</node>
	<node id="-578524" lat="62.541677781" lon="6.5245888857">
		<tag k="name" v="Bortegarden" />
		<tag k="place" v="farm" />
		<tag k="ssr:stedsnr" v="823011" />
	</node>
	<node id="-576474" lat="62.6707177866" lon="6.33809065872">
		<tag k="name" v="Nogva" />
		<tag k="place" v="hamlet" />
		<tag k="ssr:stedsnr" v="315988" />
	</node>
	<node id="-576469" lat="62.6980055179" lon="6.35620545785">
		<tag k="name" v="Stonga" />
		<tag k="place" v="farm" />
		<tag k="ssr:stedsnr" v="315925" />
	</node>
	<node id="-578516" lat="62.6106722203" lon="6.4368833349">
		<tag k="name" v="Synnaland" />
		<tag k="place" v="farm" />
		<tag k="ssr:stedsnr" v="822851" />
	</node>
	<node id="-578514" lat="62.5360666671" lon="6.57901111574">
		<tag k="name" v="Kjempa" />
		<tag k="place" v="farm" />
		<tag k="ssr:stedsnr" v="822701" />
	</node>
	<node id="-578511" lat="62.5444722205" lon="6.57970277373">
		<tag k="name" v="Gamlener" />
		<tag k="place" v="farm" />
		<tag k="ssr:stedsnr" v="822661" />
	</node>
	<node id="-578510" lat="62.5635083308" lon="6.6195305512">
		<tag k="name" v="Utigard" />
		<tag k="place" v="farm" />
		<tag k="ssr:stedsnr" v="822637" />
	</node>
	<node id="-576461" lat="62.6372916668" lon="6.2735055592">
		<tag k="fixme" v="consider place=hamlet" />
		<tag k="name" v="Austnes" />
		<tag k="place" v="village" />
		<tag k="ssr:stedsnr" v="315461" />
	</node>
	<node id="-578508" lat="62.618372224" lon="6.65253888029">
		<tag k="name" v="Neset" />
		<tag k="place" v="farm" />
		<tag k="ssr:stedsnr" v="822036" />
	</node>
	<node id="-578507" lat="62.621474999" lon="6.65297221937">
		<tag k="name" v="Madsgarden" />
		<tag k="place" v="farm" />
		<tag k="ssr:stedsnr" v="822033" />
	</node>
	<node id="-578505" lat="62.6970194412" lon="6.42416388104">
		<tag k="name" v="Fredheim" />
		<tag k="place" v="farm" />
		<tag k="ssr:stedsnr" v="821987" />
	</node>
	<node id="-578504" lat="62.7050611117" lon="6.41984722975">
		<tag k="name" v="Nymark" />
		<tag k="place" v="isolated_dwelling" />
		<tag k="ssr:stedsnr" v="821984" />
	</node>
	<node id="-578500" lat="62.6443000019" lon="6.23494444921">
		<tag k="name" v="Erikgarden" />
		<tag k="place" v="farm" />
		<tag k="ssr:stedsnr" v="821790" />
	</node>
	<node id="-578497" lat="62.6201277771" lon="6.2119250029">
		<tag k="name" v="Ellinggarden" />
		<tag k="place" v="farm" />
		<tag k="ssr:stedsnr" v="821666" />
	</node>
	<node id="-576448" lat="62.5610555517" lon="6.59194167657">
		<tag k="name" v="Ossætra" />
		<tag k="place" v="locality" />
		<tag k="ssr:stedsnr" v="315253" />
	</node>
	<node id="-578495" lat="62.6057999982" lon="6.21294165736">
		<tag k="name" v="Pettergarden" />
		<tag k="place" v="farm" />
		<tag k="ssr:stedsnr" v="821626" />
	</node>
	<node id="-578494" lat="62.6072611105" lon="6.21279445135">
		<tag k="name" v="Vollegarden" />
		<tag k="place" v="farm" />
		<tag k="ssr:stedsnr" v="821625" />
	</node>
	<node id="-578493" lat="62.6543722234" lon="6.31323888851">
		<tag k="name" v="Sørstranda" />
		<tag k="place" v="farm" />
		<tag k="ssr:stedsnr" v="821623" />
	</node>
	<node id="-578492" lat="62.6560972207" lon="6.33353610487">
		<tag k="name" v="Rogne" />
		<tag k="place" v="hamlet" />
		<tag k="ssr:stedsnr" v="821621" />
	</node>
	<node id="-578490" lat="62.6818833377" lon="6.24813888991">
		<tag k="alt_name" v="Flemsstølen" />
		<tag k="name" v="Stølen" />
		<tag k="place" v="farm" />
		<tag k="ssr:stedsnr" v="821614" />
	</node>
	<node id="-576441" lat="62.5548105822" lon="6.63594755676">
		<tag k="fixme" v="consider place=hamlet" />
		<tag k="name" v="Vatne" />
		<tag k="place" v="farm" />
		<tag k="ssr:stedsnr" v="315214" />
	</node>
	<node id="-576439" lat="62.5568138884" lon="6.62954723035">
		<tag k="name" v="Reiten" />
		<tag k="place" v="farm" />
		<tag k="ssr:stedsnr" v="315202" />
	</node>
	<node id="-578485" lat="62.6551861154" lon="6.20128612045">
		<tag k="name" v="Nystovgarden" />
		<tag k="place" v="farm" />
		<tag k="ssr:stedsnr" v="821471" />
	</node>
	<node id="-576436" lat="62.5354941234" lon="6.61661539678">
		<tag k="fixme" v="consider place=hamlet" />
		<tag k="name" v="Vadset" />
		<tag k="place" v="farm" />
		<tag k="ssr:stedsnr" v="315146" />
	</node>
	<node id="-578479" lat="62.6911888894" lon="6.23716666637">
		<tag k="name" v="Gudlauggarden" />
		<tag k="place" v="farm" />
		<tag k="ssr:stedsnr" v="821308" />
	</node>
	<node id="-576428" lat="62.6034166665" lon="6.31834444882">
		<tag k="name" v="Gjerdet" />
		<tag k="place" v="farm" />
		<tag k="ssr:stedsnr" v="314474" />
	</node>
	<node id="-576427" lat="62.6103222216" lon="6.66833888505">
		<tag k="name" v="Fonna" />
		<tag k="place" v="farm" />
		<tag k="ssr:stedsnr" v="314470" />
	</node>
	<node id="-578474" lat="62.6667305576" lon="6.3454305501">
		<tag k="name" v="Nymark" />
		<tag k="place" v="farm" />
		<tag k="ssr:stedsnr" v="801984" />
	</node>
	<node id="-578473" lat="62.6547166705" lon="6.24415834114">
		<tag k="name" v="Ljosheim" />
		<tag k="place" v="farm" />
		<tag k="ssr:stedsnr" v="801967" />
	</node>
	<node id="-576424" lat="62.57940556" lon="6.70261666608">
		<tag k="historic" v="shieling" />
		<tag k="name" v="Vestresætra" />
		<tag k="place" v="locality" />
		<tag k="ssr:stedsnr" v="314359" />
	</node>
	<node id="-578468" lat="62.633008084" lon="6.16555720602">
		<tag k="fixme" v="consider place=hamlet" />
		<tag k="name" v="Hellevika" />
		<tag k="place" v="farm" />
		<tag k="ssr:stedsnr" v="801704" />
	</node>
	<node id="-578462" lat="62.6101166709" lon="6.43675556322">
		<tag k="name" v="Ersgarden" />
		<tag k="place" v="farm" />
		<tag k="ssr:stedsnr" v="801449" />
	</node>
	<node id="-578456" lat="62.5555305598" lon="6.53508610902">
		<tag k="name" v="Litlestølen" />
		<tag k="place" v="isolated_dwelling" />
		<tag k="ssr:stedsnr" v="801235" />
	</node>
	<node id="-576406" lat="62.5693361137" lon="6.74318333058">
		<tag k="name" v="Bjørkelund" />
		<tag k="place" v="isolated_dwelling" />
		<tag k="ssr:stedsnr" v="277710" />
	</node>
	<node id="-576405" lat="62.6090722253" lon="6.34456110258">
		<tag k="name" v="Synnaførgarden" />
		<tag k="place" v="farm" />
		<tag k="ssr:stedsnr" v="277637" />
	</node>
	<node id="-578452" lat="62.5543963893" lon="6.60498991643">
		<tag k="fixme" v="consider place=hamlet" />
		<tag k="name" v="Osgota" />
		<tag k="place" v="farm" />
		<tag k="ssr:stedsnr" v="801210" />
	</node>
	<node id="-576403" lat="62.6025666635" lon="6.34916111451">
		<tag k="name" v="Fjellstad" />
		<tag k="place" v="farm" />
		<tag k="ssr:stedsnr" v="277635" />
	</node>
	<node id="-578450" lat="62.7059416631" lon="6.37925000011">
		<tag k="name" v="Nørdre Fjørtofta" />
		<tag k="place" v="farm" />
		<tag k="ssr:stedsnr" v="800934" />
	</node>
	<node id="-578449" lat="62.7041805517" lon="6.42241110775">
		<tag k="name" v="Nyheim" />
		<tag k="place" v="farm" />
		<tag k="ssr:stedsnr" v="800901" />
	</node>
	<node id="-578442" lat="62.6092690815" lon="6.43493909034">
		<tag k="fixme" v="consider place=hamlet" />
		<tag k="name" v="Synnaland" />
		<tag k="place" v="farm" />
		<tag k="ssr:stedsnr" v="800428" />
	</node>
	<node id="-578441" lat="62.6053777814" lon="6.67169443973">
		<tag k="name" v="Bukta" />
		<tag k="place" v="farm" />
		<tag k="ssr:stedsnr" v="800418" />
	</node>
	<node id="-578440" lat="62.6055138888" lon="6.67358888649">
		<tag k="name" v="Sjøgarden" />
		<tag k="place" v="farm" />
		<tag k="ssr:stedsnr" v="800416" />
	</node>
	<node id="-578435" lat="62.5955261003" lon="6.29746370198">
		<tag k="fixme" v="consider place=hamlet" />
		<tag k="name" v="Hurla" />
		<tag k="place" v="farm" />
		<tag k="ssr:stedsnr" v="800384" />
	</node>
	<node id="-578434" lat="62.6012999987" lon="6.67828333403">
		<tag k="name" v="Bakken" />
		<tag k="place" v="farm" />
		<tag k="ssr:stedsnr" v="800375" />
	</node>
	<node id="-576385" lat="62.6061333321" lon="6.39848333909">
		<tag k="name" v="Engevika" />
		<tag k="place" v="farm" />
		<tag k="ssr:stedsnr" v="277232" />
	</node>
	<node id="-576384" lat="62.54173611" lon="6.52565832772">
		<tag k="name" v="Elvabakken" />
		<tag k="place" v="farm" />
		<tag k="ssr:stedsnr" v="277041" />
	</node>
	<node id="-576383" lat="62.5429861075" lon="6.52762222023">
		<tag k="name" v="Oppegarden" />
		<tag k="place" v="farm" />
		<tag k="ssr:stedsnr" v="277009" />
	</node>
	<node id="-576380" lat="62.5521583328" lon="6.60613888503">
		<tag k="name" v="Solbu" />
		<tag k="place" v="farm" />
		<tag k="ssr:stedsnr" v="276968" />
	</node>
	<node id="-578426" lat="62.5595833343" lon="6.28416666865">
		<tag k="name" v="Steinbakken" />
		<tag k="place" v="farm" />
		<tag k="ssr:stedsnr" v="800285" />
	</node>
	<node id="-578423" lat="62.5701666705" lon="6.70636388005">
		<tag k="name" v="Haugstølen" />
		<tag k="place" v="locality" />
		<tag k="ssr:stedsnr" v="800270" />
	</node>
	<node id="-578420" lat="62.5332222209" lon="6.34500277542">
		<tag k="name" v="Brattli" />
		<tag k="place" v="farm" />
		<tag k="ssr:stedsnr" v="800215" />
	</node>
	<node id="-578419" lat="62.5349138921" lon="6.35739443769">
		<tag k="name" v="Sundheim" />
		<tag k="place" v="farm" />
		<tag k="ssr:stedsnr" v="800213" />
	</node>
	<node id="-576369" lat="62.5880000044" lon="6.57850278335">
		<tag k="name" v="Pegarden" />
		<tag k="place" v="isolated_dwelling" />
		<tag k="ssr:stedsnr" v="276791" />
	</node>
	<node id="-578415" lat="62.5375388884" lon="6.63098333406">
		<tag k="fixme" v="consider place=hamlet" />
		<tag k="name" v="Klokset" />
		<tag k="place" v="farm" />
		<tag k="ssr:stedsnr" v="800149" />
	</node>
	<node id="-576365" lat="62.5559555579" lon="6.63851944375">
		<tag k="name" v="Haug-Pehaugen" />
		<tag k="place" v="farm" />
		<tag k="ssr:stedsnr" v="276668" />
	</node>
	<node id="-576364" lat="62.5641111109" lon="6.61664444062">
		<tag k="name" v="Kleivane" />
		<tag k="place" v="farm" />
		<tag k="ssr:stedsnr" v="276662" />
	</node>
	<node id="-576361" lat="62.5643999997" lon="6.55469722698">
		<tag k="historic" v="shieling" />
		<tag k="name" v="Vågssætra" />
		<tag k="place" v="locality" />
		<tag k="ssr:stedsnr" v="276619" />
	</node>
	<node id="-578404" lat="62.5879750033" lon="6.57846389474">
		<tag k="name" v="Pegarden" />
		<tag k="place" v="farm" />
		<tag k="ssr:stedsnr" v="762877" />
	</node>
	<node id="-576354" lat="62.5677583344" lon="6.7244944488">
		<tag k="name" v="Jogarden" />
		<tag k="place" v="farm" />
		<tag k="ssr:stedsnr" v="276504" />
	</node>
	<node id="-576623" lat="62.6631027773" lon="6.28016666374">
		<tag k="name" v="Pegarden" />
		<tag k="place" v="farm" />
		<tag k="ssr:stedsnr" v="396284" />
	</node>
	<node id="-578396" lat="62.601188888" lon="6.4366500028">
		<tag k="name" v="Vesterheim" />
		<tag k="place" v="neighbourhood" />
		<tag k="ssr:stedsnr" v="762502" />
	</node>
	<node id="-578394" lat="62.6005833311" lon="6.6765388876">
		<tag k="name" v="Bergstad" />
		<tag k="place" v="farm" />
		<tag k="ssr:stedsnr" v="762474" />
	</node>
	<node id="-576341" lat="62.6701222252" lon="6.33868610878">
		<tag k="name" v="Jogarden" />
		<tag k="place" v="farm" />
		<tag k="ssr:stedsnr" v="275888" />
	</node>
	<node id="-576340" lat="62.5702500036" lon="6.27441111293">
		<tag k="name" v="Gjerdet" />
		<tag k="place" v="farm" />
		<tag k="ssr:stedsnr" v="275878" />
	</node>
	<node id="-576339" lat="62.6176194425" lon="6.21684166915">
		<tag k="name" v="Kristoffergarden" />
		<tag k="place" v="farm" />
		<tag k="ssr:stedsnr" v="275688" />
	</node>
	<node id="-576338" lat="62.6333339481" lon="6.2491041103">
		<tag k="name" v="Myskja" />
		<tag k="place" v="farm" />
		<tag k="ssr:stedsnr" v="275662" />
	</node>
	<node id="-578385" lat="62.6091944458" lon="6.42303889186">
		<tag k="name" v="Synnaland" />
		<tag k="place" v="farm" />
		<tag k="ssr:stedsnr" v="762259" />
	</node>
	<node id="-578383" lat="62.5404888855" lon="6.50416667164">
		<tag k="name" v="Utegarden" />
		<tag k="place" v="farm" />
		<tag k="ssr:stedsnr" v="762166" />
	</node>
	<node id="-578382" lat="62.5447686187" lon="6.54557808614">
		<tag k="fixme" v="consider place=hamlet" />
		<tag k="name" v="Hagen" />
		<tag k="place" v="farm" />
		<tag k="ssr:stedsnr" v="762010" />
	</node>
	<node id="-576333" lat="62.65605" lon="6.18055556263">
		<tag k="name" v="Maristad" />
		<tag k="place" v="farm" />
		<tag k="ssr:stedsnr" v="275453" />
	</node>
	<node id="-576332" lat="62.6550388875" lon="6.1963111195">
		<tag k="name" v="Åmundgarden" />
		<tag k="place" v="farm" />
		<tag k="ssr:stedsnr" v="275448" />
	</node>
	<node id="-576331" lat="62.5919333314" lon="6.28726111381">
		<tag k="name" v="Lån-Hansgarden" />
		<tag k="place" v="farm" />
		<tag k="ssr:stedsnr" v="275432" />
	</node>
	<node id="-578375" lat="62.6071444466" lon="6.63003610725">
		<tag k="name" v="Niggarden" />
		<tag k="place" v="farm" />
		<tag k="ssr:stedsnr" v="761869" />
	</node>
	<node id="-576326" lat="62.5910583338" lon="6.28289165732">
		<tag k="alt_name" v="Hurlagjerdet" />
		<tag k="name" v="Gjerdet" />
		<tag k="place" v="hamlet" />
		<tag k="ssr:stedsnr" v="275384" />
	</node>
	<node id="-578373" lat="62.6189583361" lon="6.54024165729">
		<tag k="name" v="Nilsgarden" />
		<tag k="place" v="farm" />
		<tag k="ssr:stedsnr" v="761802" />
	</node>
	<node id="-578363" lat="62.5601416693" lon="6.62249999108">
		<tag k="name" v="Ulvestadhol" />
		<tag k="place" v="farm" />
		<tag k="ssr:stedsnr" v="761645" />
	</node>
	<node id="-578361" lat="62.55884722" lon="6.62517777829">
		<tag k="name" v="Fredheim" />
		<tag k="place" v="farm" />
		<tag k="ssr:stedsnr" v="761631" />
	</node>
	<node id="-578360" lat="62.5560861106" lon="6.62254165796">
		<tag k="name" v="Solberg" />
		<tag k="place" v="farm" />
		<tag k="ssr:stedsnr" v="761629" />
	</node>
	<node id="-578356" lat="62.6211166692" lon="6.66746111848">
		<tag k="name" v="Ner" />
		<tag k="place" v="farm" />
		<tag k="ssr:stedsnr" v="761528" />
	</node>
	<node id="-578353" lat="62.5688194457" lon="6.73469166615">
		<tag k="name" v="Severingarden" />
		<tag k="place" v="farm" />
		<tag k="ssr:stedsnr" v="761499" />
	</node>
	<node id="-578348" lat="62.6116000015" lon="6.6222527798">
		<tag k="name" v="Ner" />
		<tag k="place" v="farm" />
		<tag k="ssr:stedsnr" v="761062" />
	</node>
	<node id="-578334" lat="62.631410808" lon="6.26098510088">
		<tag k="fixme" v="consider place=hamlet" />
		<tag k="name" v="Austnes" />
		<tag k="place" v="farm" />
		<tag k="ssr:stedsnr" v="760695" />
	</node>
	<node id="-578332" lat="62.5332694415" lon="6.27322777401">
		<tag k="fixme" v="consider place=hamlet" />
		<tag k="name" v="Hamnsund" />
		<tag k="place" v="village" />
		<tag k="ssr:stedsnr" v="760657" />
	</node>
	<node id="-578331" lat="62.6574944401" lon="6.33636111484">
		<tag k="name" v="Eliasgarden" />
		<tag k="place" v="farm" />
		<tag k="ssr:stedsnr" v="760629" />
	</node>
	<node id="-576644" lat="62.5782972181" lon="6.26966389389">
		<tag k="name" v="Grøtnesvika" />
		<tag k="place" v="farm" />
		<tag k="ssr:stedsnr" v="396902" />
	</node>
	<node id="-578322" lat="62.6606111091" lon="6.29099444468">
		<tag k="name" v="Dalen" />
		<tag k="place" v="farm" />
		<tag k="ssr:stedsnr" v="760314" />
	</node>
	<node id="-576643" lat="62.63345556" lon="6.171475001">
		<tag k="name" v="Erikgarden" />
		<tag k="place" v="farm" />
		<tag k="ssr:stedsnr" v="396900" />
	</node>
	<node id="-578315" lat="62.672644444" lon="6.26673610168">
		<tag k="name" v="Helletun" />
		<tag k="place" v="farm" />
		<tag k="ssr:stedsnr" v="740995" />
	</node>
	<node id="-578314" lat="62.6914500009" lon="6.23268334128">
		<tag k="name" v="Storeidet" />
		<tag k="place" v="farm" />
		<tag k="ssr:stedsnr" v="740915" />
	</node>
	<node id="-578308" lat="62.6057027767" lon="6.34692777453">
		<tag k="name" v="Hildre" />
		<tag k="place" v="farm" />
		<tag k="ssr:stedsnr" v="740437" />
	</node>
	<node id="-578301" lat="62.5603388892" lon="6.60226388831">
		<tag k="name" v="Osvikane" />
		<tag k="place" v="farm" />
		<tag k="ssr:stedsnr" v="740260" />
	</node>
	<node id="-578287" lat="62.6319304103" lon="6.1940324296">
		<tag k="fixme" v="consider place=hamlet" />
		<tag k="name" v="Set" />
		<tag k="place" v="farm" />
		<tag k="ssr:stedsnr" v="739713" />
	</node>
	<node id="-578286" lat="62.6039833318" lon="6.39401667459">
		<tag k="name" v="Filopgarden" />
		<tag k="place" v="farm" />
		<tag k="ssr:stedsnr" v="739423" />
	</node>
	<node id="-578281" lat="62.6007055544" lon="6.67053333692">
		<tag k="name" v="Dysa" />
		<tag k="place" v="farm" />
		<tag k="ssr:stedsnr" v="739372" />
	</node>
	<node id="-578279" lat="62.5641277764" lon="6.27812776939">
		<tag k="name" v="Stølen" />
		<tag k="place" v="farm" />
		<tag k="ssr:stedsnr" v="739293" />
	</node>
	<node id="-578276" lat="62.5669551124" lon="6.44948023085">
		<tag k="name" v="Håvik" />
		<tag k="place" v="farm" />
		<tag k="ssr:stedsnr" v="739288" />
	</node>
	<node id="-578258" lat="62.5358361124" lon="6.38442222519">
		<tag k="name" v="Skardså" />
		<tag k="place" v="isolated_dwelling" />
		<tag k="ssr:stedsnr" v="718683" />
	</node>
	<node id="-578257" lat="62.6918472205" lon="6.41924444417">
		<tag k="name" v="Nes" />
		<tag k="place" v="farm" />
		<tag k="ssr:stedsnr" v="718596" />
	</node>
	<node id="-578256" lat="62.5346500037" lon="6.60636667426">
		<tag k="name" v="Skogen" />
		<tag k="place" v="isolated_dwelling" />
		<tag k="ssr:stedsnr" v="718429" />
	</node>
	<node id="-576632" lat="62.6548883251" lon="6.20646638646">
		<tag k="alt_name" v="Framgarden" />
		<tag k="name" v="Knut-Framgarden" />
		<tag k="place" v="farm" />
		<tag k="ssr:stedsnr" v="396468" />
	</node>
	<node id="-578254" lat="62.551063886" lon="6.53241389537">
		<tag k="name" v="Bjønnadalsheia" />
		<tag k="place" v="isolated_dwelling" />
		<tag k="ssr:stedsnr" v="702557" />
	</node>
	<node id="-578247" lat="62.5857027743" lon="6.6296027872">
		<tag k="name" v="Fjøsmurane" />
		<tag k="place" v="locality" />
		<tag k="ssr:stedsnr" v="701978" />
	</node>
	<node id="-576628" lat="62.6688999963" lon="6.27441389433">
		<tag k="name" v="Knutgarden" />
		<tag k="place" v="farm" />
		<tag k="ssr:stedsnr" v="396335" />
	</node>
	<node id="-578228" lat="62.5350944467" lon="6.58684443859">
		<tag k="name" v="Andersgarden" />
		<tag k="place" v="farm" />
		<tag k="ssr:stedsnr" v="701699" />
	</node>
	<node id="-578227" lat="62.5344972228" lon="6.58846389747">
		<tag k="name" v="Pegarden" />
		<tag k="place" v="farm" />
		<tag k="ssr:stedsnr" v="701698" />
	</node>
	<node id="-578225" lat="62.6063000023" lon="6.35794166517">
		<tag k="name" v="Gustavgarden" />
		<tag k="place" v="farm" />
		<tag k="ssr:stedsnr" v="701667" />
	</node>
	<node id="-578224" lat="62.5367277745" lon="6.62079443548">
		<tag k="name" v="Pergjerdet" />
		<tag k="place" v="farm" />
		<tag k="ssr:stedsnr" v="701664" />
	</node>
	<node id="-578220" lat="62.5543805537" lon="6.63563054821">
		<tag k="name" v="Arnegarden" />
		<tag k="place" v="farm" />
		<tag k="ssr:stedsnr" v="701621" />
	</node>
	<node id="-578213" lat="62.5372944451" lon="6.47247221824">
		<tag k="name" v="Vang" />
		<tag k="place" v="farm" />
		<tag k="ssr:stedsnr" v="701513" />
	</node>
	<node id="-578212" lat="62.6159583324" lon="6.56679999587">
		<tag k="alt_name" v="Skårbreidvik" />
		<tag k="name" v="Skoravika" />
		<tag k="place" v="isolated_dwelling" />
		<tag k="ssr:stedsnr" v="701455" />
	</node>
	<node id="-578210" lat="62.5619305521" lon="6.71569166693">
		<tag k="historic" v="shieling" />
		<tag k="name" v="Hoveselet" />
		<tag k="place" v="locality" />
		<tag k="ssr:stedsnr" v="701423" />
	</node>
	<node id="-576624" lat="62.6872666676" lon="6.23726110991">
		<tag k="name" v="Torinagarden" />
		<tag k="place" v="farm" />
		<tag k="ssr:stedsnr" v="396286" />
	</node>
	<node id="-578204" lat="62.5439638846" lon="6.51475278151">
		<tag k="name" v="Vonheim" />
		<tag k="place" v="farm" />
		<tag k="ssr:stedsnr" v="701211" />
	</node>
	<node id="-576480" lat="62.6054166633" lon="6.20182222029">
		<tag k="name" v="Gjerdet" />
		<tag k="place" v="farm" />
		<tag k="ssr:stedsnr" v="333606" />
	</node>
	<node id="-578200" lat="62.7063472243" lon="6.36288888879">
		<tag k="name" v="Bakken" />
		<tag k="place" v="farm" />
		<tag k="ssr:stedsnr" v="700958" />
	</node>
	<node id="-578188" lat="62.5950361134" lon="6.29962500587">
		<tag k="name" v="Toregarden" />
		<tag k="place" v="farm" />
		<tag k="ssr:stedsnr" v="699948" />
	</node>
	<node id="-578187" lat="62.5926138859" lon="6.28891943868">
		<tag k="name" v="Åse-Karlgarden" />
		<tag k="place" v="farm" />
		<tag k="ssr:stedsnr" v="699946" />
	</node>
	<node id="-578182" lat="62.6874166701" lon="6.23576111543">
		<tag k="name" v="Hildregarden" />
		<tag k="place" v="farm" />
		<tag k="ssr:stedsnr" v="699300" />
	</node>
	<node id="-578181" lat="62.6066972201" lon="6.1861916693">
		<tag k="name" v="Mikkelgarden" />
		<tag k="place" v="farm" />
		<tag k="ssr:stedsnr" v="697617" />
	</node>
	<node id="-578158" lat="62.6148944406" lon="6.21798055149">
		<tag k="name" v="Gurogarden" />
		<tag k="place" v="farm" />
		<tag k="ssr:stedsnr" v="679422" />
	</node>
	<node id="-578156" lat="62.6272722195" lon="6.60689722608">
		<tag k="name" v="Nordigarden" />
		<tag k="place" v="farm" />
		<tag k="ssr:stedsnr" v="679418" />
	</node>
	<node id="-576615" lat="62.6603583289" lon="6.23964999827">
		<tag k="name" v="Oletun" />
		<tag k="place" v="farm" />
		<tag k="ssr:stedsnr" v="375979" />
	</node>
	<node id="-578150" lat="62.5779999977" lon="6.36941943906">
		<tag k="name" v="Ole-Eliassætra" />
		<tag k="place" v="isolated_dwelling" />
		<tag k="ssr:stedsnr" v="679290" />
	</node>
	<node id="-578145" lat="62.5473861148" lon="6.28561111966">
		<tag k="name" v="Vollane" />
		<tag k="place" v="farm" />
		<tag k="ssr:stedsnr" v="679229" />
	</node>
	<node id="-578140" lat="62.5505999972" lon="6.64404723121">
		<tag k="name" v="Nigarden" />
		<tag k="place" v="farm" />
		<tag k="ssr:stedsnr" v="679207" />
	</node>
	<node id="-578139" lat="62.5335379947" lon="6.43734673739">
		<tag k="fixme" v="consider place=hamlet" />
		<tag k="name" v="Gjerset" />
		<tag k="place" v="farm" />
		<tag k="ssr:stedsnr" v="679188" />
	</node>
	<node id="-578138" lat="62.5329556879" lon="6.32831507464">
		<tag k="fixme" v="consider place=hamlet" />
		<tag k="name" v="Engeset" />
		<tag k="place" v="farm" />
		<tag k="ssr:stedsnr" v="679181" />
	</node>
	<node id="-578137" lat="62.5311027751" lon="6.26998332677">
		<tag k="name" v="Skutevika" />
		<tag k="place" v="farm" />
		<tag k="ssr:stedsnr" v="679177" />
	</node>
	<node id="-578133" lat="62.6176138864" lon="6.56708055577">
		<tag k="name" v="Haugen" />
		<tag k="place" v="farm" />
		<tag k="ssr:stedsnr" v="678470" />
	</node>
	<node id="-578132" lat="62.6087722229" lon="6.42375277479">
		<tag k="name" v="Vika" />
		<tag k="place" v="farm" />
		<tag k="ssr:stedsnr" v="678462" />
	</node>
	<node id="-578131" lat="62.6072833316" lon="6.40824721723">
		<tag k="name" v="Kvithaugen" />
		<tag k="place" v="farm" />
		<tag k="ssr:stedsnr" v="678458" />
	</node>
	<node id="-578130" lat="62.6022472219" lon="6.31728055261">
		<tag k="name" v="Ryssgarden" />
		<tag k="place" v="farm" />
		<tag k="ssr:stedsnr" v="678451" />
	</node>
	<node id="-578129" lat="62.6112833292" lon="6.66884721729">
		<tag k="name" v="Rimma" />
		<tag k="place" v="farm" />
		<tag k="ssr:stedsnr" v="678449" />
	</node>
	<node id="-578128" lat="62.6053777814" lon="6.67169443973">
		<tag k="name" v="Høgtun" />
		<tag k="place" v="farm" />
		<tag k="ssr:stedsnr" v="678448" />
	</node>
	<node id="-576610" lat="62.6802416644" lon="6.25516945087">
		<tag k="name" v="Indreflem" />
		<tag k="place" v="farm" />
		<tag k="ssr:stedsnr" v="375873" />
	</node>
	<node id="-578108" lat="62.5331750041" lon="6.35448332748">
		<tag k="fixme" v="consider place=hamlet" />
		<tag k="name" v="Gryta" />
		<tag k="place" v="village" />
		<tag k="ssr:stedsnr" v="640898" />
	</node>
	<node id="-578105" lat="62.603286109" lon="6.63439999327">
		<tag k="name" v="Ortun" />
		<tag k="place" v="farm" />
		<tag k="ssr:stedsnr" v="640852" />
	</node>
	<node id="-578099" lat="62.5909611115" lon="6.58322777563">
		<tag k="name" v="Eirikgarden" />
		<tag k="place" v="farm" />
		<tag k="ssr:stedsnr" v="640750" />
	</node>
	<node id="-578095" lat="62.6055944433" lon="6.35943610505">
		<tag k="name" v="Andriasgarden" />
		<tag k="place" v="farm" />
		<tag k="ssr:stedsnr" v="640650" />
	</node>
	<node id="-578081" lat="62.6277194422" lon="6.60753610533">
		<tag k="name" v="Haugen" />
		<tag k="place" v="farm" />
		<tag k="ssr:stedsnr" v="640415" />
	</node>
	<node id="-578076" lat="62.5616055519" lon="6.72017777316">
		<tag k="historic" v="shieling" />
		<tag k="name" v="Nigardssætra" />
		<tag k="place" v="locality" />
		<tag k="ssr:stedsnr" v="640364" />
	</node>
	<node id="-578072" lat="62.5386499984" lon="6.49603888924">
		<tag k="name" v="Nestun" />
		<tag k="place" v="farm" />
		<tag k="ssr:stedsnr" v="640195" />
	</node>
	<node id="-578065" lat="62.5337702564" lon="6.29368045493">
		<tag k="fixme" v="consider place=hamlet" />
		<tag k="name" v="Uggedal" />
		<tag k="place" v="farm" />
		<tag k="ssr:stedsnr" v="639667" />
	</node>
	<node id="-578064" lat="62.6094666697" lon="6.21451943561">
		<tag k="name" v="Vadsetgarden" />
		<tag k="place" v="farm" />
		<tag k="ssr:stedsnr" v="639628" />
	</node>
	<node id="-578062" lat="62.5626777778" lon="6.28038333803">
		<tag k="name" v="Ottabakken" />
		<tag k="place" v="farm" />
		<tag k="ssr:stedsnr" v="639314" />
	</node>
	<node id="-578057" lat="62.6929805525" lon="6.4182722165">
		<tag k="alt_name" v="Nedreli" />
		<tag k="name" v="Nedrelid" />
		<tag k="place" v="farm" />
		<tag k="ssr:stedsnr" v="638930" />
	</node>
	<node id="-578050" lat="62.632972226" lon="6.19076945243">
		<tag k="name" v="Fredheim" />
		<tag k="place" v="farm" />
		<tag k="ssr:stedsnr" v="638752" />
	</node>
	<node id="-578049" lat="62.6315972263" lon="6.19313889642">
		<tag k="name" v="Jensgarden" />
		<tag k="place" v="farm" />
		<tag k="ssr:stedsnr" v="638665" />
	</node>
	<node id="-578048" lat="62.6309138912" lon="6.19422778502">
		<tag k="name" v="Hansgarden" />
		<tag k="place" v="farm" />
		<tag k="ssr:stedsnr" v="638663" />
	</node>
	<node id="-578047" lat="62.6269250045" lon="6.19791111367">
		<tag k="name" v="Prestegarden" />
		<tag k="place" v="farm" />
		<tag k="ssr:stedsnr" v="638661" />
	</node>
	<node id="-578039" lat="62.6752666694" lon="6.26616110405">
		<tag k="name" v="Lunheim" />
		<tag k="place" v="farm" />
		<tag k="ssr:stedsnr" v="618984" />
	</node>
	<node id="-578034" lat="62.692933333" lon="6.42378055653">
		<tag k="name" v="Marsteinneset" />
		<tag k="place" v="farm" />
		<tag k="ssr:stedsnr" v="618885" />
	</node>
	<node id="-578032" lat="62.6799749984" lon="6.2525166755">
		<tag k="name" v="Gjerdet" />
		<tag k="place" v="farm" />
		<tag k="ssr:stedsnr" v="618863" />
	</node>
	<node id="-578031" lat="62.6855126026" lon="6.24102299196">
		<tag k="fixme" v="consider place=hamlet" />
		<tag k="name" v="Flem" />
		<tag k="place" v="farm" />
		<tag k="ssr:stedsnr" v="618859" />
	</node>
	<node id="-578017" lat="62.6309472243" lon="6.26686944828">
		<tag k="name" v="Leitet" />
		<tag k="place" v="farm" />
		<tag k="ssr:stedsnr" v="618472" />
	</node>
	<node id="-578016" lat="62.6108166687" lon="6.33440278411">
		<tag k="name" v="Haugvika" />
		<tag k="place" v="farm" />
		<tag k="ssr:stedsnr" v="618449" />
	</node>
	<node id="-578010" lat="62.6026925447" lon="6.38679988551">
		<tag k="fixme" v="consider place=hamlet" />
		<tag k="name" v="Alvestad" />
		<tag k="place" v="farm" />
		<tag k="ssr:stedsnr" v="618415" />
	</node>
	<node id="-578008" lat="62.6063111139" lon="6.36194166863">
		<tag k="name" v="Myra" />
		<tag k="place" v="farm" />
		<tag k="ssr:stedsnr" v="618409" />
	</node>
	<node id="-578007" lat="62.6040916686" lon="6.3226694471">
		<tag k="name" v="Kvithaug" />
		<tag k="place" v="farm" />
		<tag k="ssr:stedsnr" v="618403" />
	</node>
	<node id="-578006" lat="62.6105671921" lon="6.62462045451">
		<tag k="fixme" v="consider place=hamlet" />
		<tag k="name" v="Helle" />
		<tag k="place" v="farm" />
		<tag k="ssr:stedsnr" v="618394" />
	</node>
	<node id="-578004" lat="62.5941416683" lon="6.29609167376">
		<tag k="name" v="Per-Eliasgarden" />
		<tag k="place" v="farm" />
		<tag k="ssr:stedsnr" v="618372" />
	</node>
	<node id="-578003" lat="62.5988750045" lon="6.6787833398">
		<tag k="name" v="Sjurgarden" />
		<tag k="place" v="farm" />
		<tag k="ssr:stedsnr" v="618365" />
	</node>
	<node id="-578002" lat="62.5973972265" lon="6.56945554817">
		<tag k="fixme" v="consider place=hamlet" />
		<tag k="name" v="Ytrestrand" />
		<tag k="place" v="farm" />
		<tag k="ssr:stedsnr" v="618360" />
	</node>
	<node id="-578001" lat="62.5856249974" lon="6.27662778114">
		<tag k="name" v="Vika" />
		<tag k="place" v="farm" />
		<tag k="ssr:stedsnr" v="618354" />
	</node>
	<node id="-578000" lat="62.5871215382" lon="6.27953381933">
		<tag k="fixme" v="consider place=hamlet" />
		<tag k="name" v="Skjeltene" />
		<tag k="place" v="farm" />
		<tag k="ssr:stedsnr" v="618351" />
	</node>
	<node id="-577998" lat="62.5900539169" lon="6.58024934861">
		<tag k="fixme" v="consider place=hamlet" />
		<tag k="name" v="Ertresvågen" />
		<tag k="place" v="farm" />
		<tag k="ssr:stedsnr" v="618336" />
	</node>
	<node id="-577995" lat="62.5796527763" lon="6.26548889356">
		<tag k="name" v="Nyland" />
		<tag k="place" v="farm" />
		<tag k="ssr:stedsnr" v="618321" />
	</node>
	<node id="-577994" lat="62.5746916683" lon="6.27369444348">
		<tag k="name" v="Djupvika" />
		<tag k="place" v="farm" />
		<tag k="ssr:stedsnr" v="618319" />
	</node>
	<node id="-577989" lat="62.5805436601" lon="6.55937055417">
		<tag k="fixme" v="consider place=hamlet" />
		<tag k="name" v="Fannene" />
		<tag k="place" v="farm" />
		<tag k="ssr:stedsnr" v="618297" />
	</node>
	<node id="-577980" lat="62.5624281625" lon="6.61843580247">
		<tag k="fixme" v="consider place=hamlet" />
		<tag k="name" v="Ulvestad" />
		<tag k="place" v="farm" />
		<tag k="ssr:stedsnr" v="618230" />
	</node>
	<node id="-577976" lat="62.5433802905" lon="6.52017441856">
		<tag k="fixme" v="consider place=hamlet" />
		<tag k="name" v="Slyngstad" />
		<tag k="place" v="village" />
		<tag k="ssr:stedsnr" v="618205" />
	</node>
	<node id="-577972" lat="62.5525250032" lon="6.5526499927">
		<tag k="name" v="Ytsthagsætra" />
		<tag k="place" v="locality" />
		<tag k="ssr:stedsnr" v="618183" />
	</node>
	<node id="-577971" lat="62.5544472238" lon="6.61245833375">
		<tag k="name" v="Bruteigen" />
		<tag k="place" v="farm" />
		<tag k="ssr:stedsnr" v="618181" />
	</node>
	<node id="-577968" lat="62.5333888921" lon="6.26644722038">
		<tag k="name" v="Bøen" />
		<tag k="place" v="farm" />
		<tag k="ssr:stedsnr" v="618167" />
	</node>
	<node id="-577967" lat="62.6024666634" lon="6.33102221348">
		<tag k="name" v="Hildremyrane" />
		<tag k="place" v="quarter" />
		<tag k="ssr:stedsnr" v="605688" />
	</node>
	<node id="-577947" lat="62.5341361104" lon="6.44196945202">
		<tag k="name" v="Fjelly" />
		<tag k="place" v="farm" />
		<tag k="ssr:stedsnr" v="580411" />
	</node>
	<node id="-577938" lat="62.5412694401" lon="6.50699722233">
		<tag k="name" v="Martingarden" />
		<tag k="place" v="farm" />
		<tag k="ssr:stedsnr" v="580144" />
	</node>
	<node id="-577928" lat="62.6116111081" lon="6.45900833885">
		<tag k="name" v="Helland" />
		<tag k="place" v="hamlet" />
		<tag k="ssr:stedsnr" v="579839" />
	</node>
	<node id="-577926" lat="62.6185666648" lon="6.53450556181">
		<tag k="name" v="Andersgarden" />
		<tag k="place" v="isolated_dwelling" />
		<tag k="ssr:stedsnr" v="579791" />
	</node>
	<node id="-577925" lat="62.5372611136" lon="6.62663333934">
		<tag k="name" v="Klokset" />
		<tag k="place" v="farm" />
		<tag k="ssr:stedsnr" v="579766" />
	</node>
	<node id="-577924" lat="62.5371805569" lon="6.61369166176">
		<tag k="name" v="Bø" />
		<tag k="place" v="farm" />
		<tag k="ssr:stedsnr" v="579761" />
	</node>
	<node id="-577922" lat="62.5319527735" lon="6.58488332542">
		<tag k="name" v="Øyrane" />
		<tag k="place" v="locality" />
		<tag k="ssr:stedsnr" v="579702" />
	</node>
	<node id="-577921" lat="62.5560833314" lon="6.64040556437">
		<tag k="name" v="Bakken" />
		<tag k="place" v="farm" />
		<tag k="ssr:stedsnr" v="579650" />
	</node>
	<node id="-577919" lat="62.5502305548" lon="6.64758056436">
		<tag k="alt_name" v="Fredlund" />
		<tag k="name" v="Dalane" />
		<tag k="place" v="farm" />
		<tag k="ssr:stedsnr" v="579573" />
	</node>
	<node id="-577910" lat="62.6108388854" lon="6.62163611098">
		<tag k="name" v="Oppegarden" />
		<tag k="place" v="farm" />
		<tag k="ssr:stedsnr" v="579062" />
	</node>
	<node id="-577909" lat="62.6262916659" lon="6.66421389186">
		<tag k="name" v="Laksegarden" />
		<tag k="place" v="farm" />
		<tag k="ssr:stedsnr" v="579015" />
	</node>
	<node id="-577901" lat="62.630819442" lon="6.27010000367">
		<tag k="name" v="Johannesgarden" />
		<tag k="place" v="farm" />
		<tag k="ssr:stedsnr" v="578669" />
	</node>
	<node id="-577900" lat="62.630661108" lon="6.26752500811">
		<tag k="name" v="Kristoffergarden" />
		<tag k="place" v="farm" />
		<tag k="ssr:stedsnr" v="578670" />
	</node>
	<node id="-577899" lat="62.6229250004" lon="6.20681666647">
		<tag k="name" v="Monsgarden" />
		<tag k="place" v="farm" />
		<tag k="ssr:stedsnr" v="578648" />
	</node>
	<node id="-577896" lat="62.6558666667" lon="6.32953889612">
		<tag k="name" v="Larsgarden" />
		<tag k="place" v="farm" />
		<tag k="ssr:stedsnr" v="578609" />
	</node>
	<node id="-577894" lat="62.6020805595" lon="6.20782223031">
		<tag k="name" v="Nedste Sjurgarden" />
		<tag k="place" v="farm" />
		<tag k="ssr:stedsnr" v="578607" />
	</node>
	<node id="-577893" lat="62.6836444477" lon="6.2426999937">
		<tag k="name" v="Monstunet" />
		<tag k="place" v="farm" />
		<tag k="ssr:stedsnr" v="578599" />
	</node>
	<node id="-577891" lat="62.6538083305" lon="6.21376110327">
		<tag k="name" v="Johannesgarden" />
		<tag k="place" v="farm" />
		<tag k="ssr:stedsnr" v="578439" />
	</node>
	<node id="-577886" lat="62.689594448" lon="6.23559722341">
		<tag k="name" v="Rema" />
		<tag k="place" v="isolated_dwelling" />
		<tag k="ssr:stedsnr" v="578291" />
	</node>
	<node id="-577880" lat="62.6072333328" lon="6.19690277952">
		<tag k="name" v="Gjerdet" />
		<tag k="place" v="farm" />
		<tag k="ssr:stedsnr" v="576638" />
	</node>
	<node id="-577873" lat="62.6647441573" lon="6.27422948479">
		<tag k="fixme" v="consider place=hamlet" />
		<tag k="name" v="Longva" />
		<tag k="place" v="village" />
		<tag k="ssr:stedsnr" v="557982" />
	</node>
	<node id="-577872" lat="62.6709916676" lon="6.34039999504">
		<tag k="name" v="Vik" />
		<tag k="place" v="farm" />
		<tag k="ssr:stedsnr" v="557978" />
	</node>
	<node id="-577868" lat="62.6543222204" lon="6.31694444075">
		<tag k="name" v="Rognegjerdet" />
		<tag k="place" v="farm" />
		<tag k="ssr:stedsnr" v="557953" />
	</node>
	<node id="-577847" lat="62.6080261396" lon="6.46811107067">
		<tag k="fixme" v="consider place=hamlet" />
		<tag k="name" v="Helland" />
		<tag k="place" v="farm" />
		<tag k="ssr:stedsnr" v="557396" />
	</node>
	<node id="-577846" lat="62.5935805515" lon="6.31553055871">
		<tag k="name" v="Hammarsætra" />
		<tag k="place" v="locality" />
		<tag k="ssr:stedsnr" v="557384" />
	</node>
	<node id="-577843" lat="62.5949249955" lon="6.63545276911">
		<tag k="name" v="Bærlia" />
		<tag k="place" v="farm" />
		<tag k="ssr:stedsnr" v="557334" />
	</node>
	<node id="-577837" lat="62.5613207777" lon="6.23862066308">
		<tag k="fixme" v="consider place=hamlet" />
		<tag k="name" v="Bjørnøya" />
		<tag k="place" v="farm" />
		<tag k="ssr:stedsnr" v="557299" />
	</node>
	<node id="-577834" lat="62.5602926161" lon="6.27699643436">
		<tag k="fixme" v="consider place=hamlet" />
		<tag k="name" v="Gamlem" />
		<tag k="place" v="village" />
		<tag k="ssr:stedsnr" v="557292" />
	</node>
	<node id="-577824" lat="62.5574722206" lon="6.65965554961">
		<tag k="name" v="Ivagjerdet" />
		<tag k="place" v="farm" />
		<tag k="ssr:stedsnr" v="557224" />
	</node>
	<node id="-577822" lat="62.5567749998" lon="6.56467777039">
		<tag k="name" v="Hagesætra" />
		<tag k="place" v="locality" />
		<tag k="ssr:stedsnr" v="557217" />
	</node>
	<node id="-577820" lat="62.5370527755" lon="6.48607500811">
		<tag k="name" v="Fredheim" />
		<tag k="place" v="farm" />
		<tag k="ssr:stedsnr" v="557208" />
	</node>
	<node id="-577819" lat="62.5443333333" lon="6.55822778688">
		<tag k="name" v="Skogane" />
		<tag k="place" v="farm" />
		<tag k="ssr:stedsnr" v="557206" />
	</node>
	<node id="-577817" lat="62.5449997076" lon="6.55394096337">
		<tag k="fixme" v="consider place=hamlet" />
		<tag k="name" v="Insthagen" />
		<tag k="place" v="farm" />
		<tag k="ssr:stedsnr" v="557192" />
	</node>
	<node id="-577816" lat="62.5450194422" lon="6.56100834151">
		<tag k="name" v="Nygjerdet" />
		<tag k="place" v="farm" />
		<tag k="ssr:stedsnr" v="557190" />
	</node>
	<node id="-576557" lat="62.5663737287" lon="6.44914539249">
		<tag k="fixme" v="consider place=hamlet" />
		<tag k="name" v="Håvika" />
		<tag k="place" v="farm" />
		<tag k="ssr:stedsnr" v="337881" />
	</node>
	<node id="-577799" lat="62.582902774" lon="6.6251722229">
		<tag k="name" v="Heimigard" />
		<tag k="place" v="farm" />
		<tag k="ssr:stedsnr" v="519982" />
	</node>
	<node id="-577797" lat="62.5459222189" lon="6.57780556538">
		<tag k="name" v="Steffengarden" />
		<tag k="place" v="farm" />
		<tag k="ssr:stedsnr" v="519950" />
	</node>
	<node id="-577791" lat="62.6062305536" lon="6.56931944848">
		<tag k="name" v="Skorbreivik" />
		<tag k="place" v="hamlet" />
		<tag k="ssr:stedsnr" v="519877" />
	</node>
	<node id="-577782" lat="62.5997666707" lon="6.6724722176">
		<tag k="name" v="Bortaforgarden" />
		<tag k="old_name" v="Bortafjordgarden" />
		<tag k="place" v="farm" />
		<tag k="ssr:stedsnr" v="519837" />
	</node>
	<node id="-577780" lat="62.6101833301" lon="6.43569166323">
		<tag k="name" v="Sjurgarden" />
		<tag k="place" v="farm" />
		<tag k="ssr:stedsnr" v="519830" />
	</node>
	<node id="-577776" lat="62.6185666656" lon="6.53980555734">
		<tag k="name" v="Oppegarden" />
		<tag k="place" v="farm" />
		<tag k="ssr:stedsnr" v="519771" />
	</node>
	<node id="-577773" lat="62.5369972266" lon="6.58209722929">
		<tag k="name" v="Geitaberget" />
		<tag k="place" v="farm" />
		<tag k="ssr:stedsnr" v="519684" />
	</node>
	<node id="-577772" lat="62.5337944459" lon="6.59144445156">
		<tag k="name" v="Eliasgarden" />
		<tag k="place" v="farm" />
		<tag k="ssr:stedsnr" v="519664" />
	</node>
	<node id="-577771" lat="62.6071638872" lon="6.34906111407">
		<tag k="name" v="Indre Hildre" />
		<tag k="place" v="hamlet" />
		<tag k="ssr:stedsnr" v="519640" />
	</node>
	<node id="-577770" lat="62.5631361121" lon="6.62251945363">
		<tag k="name" v="Ulvestadbakken" />
		<tag k="place" v="farm" />
		<tag k="ssr:stedsnr" v="519626" />
	</node>
	<node id="-577747" lat="62.6033138903" lon="6.38441388646">
		<tag k="name" v="Hansgarden" />
		<tag k="place" v="farm" />
		<tag k="ssr:stedsnr" v="519267" />
	</node>
	<node id="-577746" lat="62.6034305519" lon="6.37643055286">
		<tag k="name" v="Pegarden" />
		<tag k="place" v="farm" />
		<tag k="ssr:stedsnr" v="519264" />
	</node>
	<node id="-578647" lat="62.603767576" lon="6.37006184524">
		<tag k="fixme" v="consider place=hamlet" />
		<tag k="name" v="Alvestadreiten" />
		<tag k="place" v="farm" />
		<tag k="ssr:stedsnr" v="921465" />
	</node>
	<node id="-577738" lat="62.6915638928" lon="6.38454999063">
		<tag k="name" v="Olagarden" />
		<tag k="place" v="farm" />
		<tag k="ssr:stedsnr" v="518916" />
	</node>
	<node id="-577737" lat="62.6096277789" lon="6.21607778648">
		<tag k="name" v="Gabrielgarden" />
		<tag k="place" v="farm" />
		<tag k="ssr:stedsnr" v="518565" />
	</node>
	<node id="-577733" lat="62.6630250028" lon="6.2852194435">
		<tag k="name" v="Jogarden" />
		<tag k="place" v="farm" />
		<tag k="ssr:stedsnr" v="518333" />
	</node>
	<node id="-577730" lat="62.6110833321" lon="6.20572500129">
		<tag k="name" v="Gunnargarden" />
		<tag k="place" v="farm" />
		<tag k="ssr:stedsnr" v="517732" />
	</node>
	<node id="-577723" lat="62.6324944459" lon="6.27217778626">
		<tag k="name" v="Eliasgarden" />
		<tag k="place" v="farm" />
		<tag k="ssr:stedsnr" v="517561" />
	</node>
	<node id="-577714" lat="62.6069611095" lon="6.18301666148">
		<tag k="name" v="Hansgarden" />
		<tag k="place" v="farm" />
		<tag k="ssr:stedsnr" v="515650" />
	</node>
	<node id="-577713" lat="62.607038892" lon="6.19318332342">
		<tag k="name" v="Nilsgarden" />
		<tag k="place" v="isolated_dwelling" />
		<tag k="ssr:stedsnr" v="515641" />
	</node>
	<node id="-577705" lat="62.6551727555" lon="6.33310775313">
		<tag k="fixme" v="consider place=hamlet" />
		<tag k="name" v="Rogne" />
		<tag k="place" v="farm" />
		<tag k="ssr:stedsnr" v="497940" />
	</node>
	<node id="-577702" lat="62.7067805595" lon="6.41780276923">
		<tag k="name" v="Kongsneset" />
		<tag k="place" v="farm" />
		<tag k="ssr:stedsnr" v="497913" />
	</node>
	<node id="-577693" lat="62.6406444407" lon="6.23518055923">
		<tag k="name" v="Rimma" />
		<tag k="place" v="farm" />
		<tag k="ssr:stedsnr" v="497476" />
	</node>
	<node id="-577685" lat="62.5881833345" lon="6.66927500314">
		<tag k="historic" v="shieling" />
		<tag k="name" v="Dysasætra" />
		<tag k="place" v="locality" />
		<tag k="ssr:stedsnr" v="497353" />
	</node>
	<node id="-577683" lat="62.5768666635" lon="6.26963889368">
		<tag k="name" v="Løvik" />
		<tag k="place" v="farm" />
		<tag k="ssr:stedsnr" v="497348" />
	</node>
	<node id="-577681" lat="62.5812407299" lon="6.62638633746">
		<tag k="fixme" v="consider place=hamlet" />
		<tag k="name" v="Hovset" />
		<tag k="place" v="farm" />
		<tag k="ssr:stedsnr" v="497319" />
	</node>
	<node id="-577679" lat="62.6602500031" lon="6.34193055427">
		<tag k="name" v="Rogne" />
		<tag k="place" v="farm" />
		<tag k="ssr:stedsnr" v="497244" />
	</node>
	<node id="-577678" lat="62.5542824451" lon="6.47351857999">
		<tag k="fixme" v="consider place=hamlet" />
		<tag k="name" v="Reme" />
		<tag k="place" v="farm" />
		<tag k="ssr:stedsnr" v="497242" />
	</node>
	<node id="-577672" lat="62.6210338998" lon="6.66887290496">
		<tag k="fixme" v="consider place=hamlet" />
		<tag k="name" v="Byrkjevollen" />
		<tag k="place" v="farm" />
		<tag k="ssr:stedsnr" v="496482" />
	</node>
	<node id="-577671" lat="62.6189361129" lon="6.66797500664">
		<tag k="name" v="Gjerdet" />
		<tag k="place" v="farm" />
		<tag k="ssr:stedsnr" v="496481" />
	</node>
	<node id="-577668" lat="62.6184916667" lon="6.56634445171">
		<tag k="name" v="Flytningshaugen" />
		<tag k="place" v="farm" />
		<tag k="ssr:stedsnr" v="496469" />
	</node>
	<node id="-577664" lat="62.5935249984" lon="6.29301111018">
		<tag k="name" v="Jørggarden" />
		<tag k="place" v="farm" />
		<tag k="ssr:stedsnr" v="496430" />
	</node>
	<node id="-577660" lat="62.5572861138" lon="6.2750750081">
		<tag k="name" v="Gamlemshagen" />
		<tag k="place" v="farm" />
		<tag k="ssr:stedsnr" v="496296" />
	</node>
	<node id="-577656" lat="62.533538591" lon="6.58964142865">
		<tag k="fixme" v="consider place=hamlet" />
		<tag k="name" v="Tennfjord" />
		<tag k="place" v="village" />
		<tag k="ssr:stedsnr" v="496234" />
	</node>
	<node id="-577654" lat="62.5331027742" lon="6.33443332886">
		<tag k="name" v="Skogtun" />
		<tag k="place" v="farm" />
		<tag k="ssr:stedsnr" v="496223" />
	</node>
	<node id="-577648" lat="62.5704305582" lon="6.74678611292">
		<tag k="name" v="Fjelltun" />
		<tag k="place" v="isolated_dwelling" />
		<tag k="ssr:stedsnr" v="459642" />
	</node>
	<node id="-577644" lat="62.5335027755" lon="6.34702778089">
		<tag k="name" v="Hagarden" />
		<tag k="place" v="farm" />
		<tag k="ssr:stedsnr" v="459574" />
	</node>
	<node id="-577638" lat="62.6025527751" lon="6.67568333262">
		<tag k="name" v="Steinteigen" />
		<tag k="place" v="farm" />
		<tag k="ssr:stedsnr" v="459464" />
	</node>
	<node id="-576734" lat="62.6828999988" lon="6.24454721729">
		<tag k="name" v="Dalen" />
		<tag k="place" v="farm" />
		<tag k="ssr:stedsnr" v="882539" />
	</node>
	<node id="-577636" lat="62.538183331" lon="6.47883889292">
		<tag k="name" v="Kroksethagen" />
		<tag k="place" v="farm" />
		<tag k="ssr:stedsnr" v="459404" />
	</node>
	<node id="-577634" lat="62.547236113" lon="6.42826111537">
		<tag k="historic" v="shieling" />
		<tag k="name" v="Sætra" />
		<tag k="place" v="locality" />
		<tag k="ssr:stedsnr" v="459368" />
	</node>
	<node id="-577631" lat="62.6031916628" lon="6.37876388258">
		<tag k="name" v="Arnegarden" />
		<tag k="place" v="farm" />
		<tag k="ssr:stedsnr" v="459235" />
	</node>
	<node id="-577630" lat="62.5438250036" lon="6.51824722365">
		<tag k="name" v="Myrane" />
		<tag k="place" v="farm" />
		<tag k="ssr:stedsnr" v="459175" />
	</node>
	<node id="-577620" lat="62.5682416666" lon="6.59814999511">
		<tag k="historic" v="shieling" />
		<tag k="name" v="Ranskålnesstølen" />
		<tag k="place" v="locality" />
		<tag k="ssr:stedsnr" v="458845" />
	</node>
	<node id="-577616" lat="62.5359111078" lon="6.61248334233">
		<tag k="name" v="Berntgarden" />
		<tag k="place" v="farm" />
		<tag k="ssr:stedsnr" v="458694" />
	</node>
	<node id="-577614" lat="62.554850004" lon="6.63925556485">
		<tag k="name" v="Torsteingarden" />
		<tag k="place" v="farm" />
		<tag k="ssr:stedsnr" v="458657" />
	</node>
	<node id="-576665" lat="62.5383805576" lon="6.57687778472">
		<tag k="name" v="Nordnes" />
		<tag k="place" v="farm" />
		<tag k="ssr:stedsnr" v="397644" />
	</node>
	<node id="-577601" lat="62.5612499998" lon="6.71351943557">
		<tag k="historic" v="shieling" />
		<tag k="name" v="Klokkeborga" />
		<tag k="place" v="locality" />
		<tag k="ssr:stedsnr" v="458407" />
	</node>
	<node id="-577598" lat="62.6022805593" lon="6.38921110402">
		<tag k="name" v="Raffelgarden" />
		<tag k="place" v="farm" />
		<tag k="ssr:stedsnr" v="458298" />
	</node>
	<node id="-577595" lat="62.6097916683" lon="6.62533611347">
		<tag k="name" v="Riset" />
		<tag k="place" v="farm" />
		<tag k="ssr:stedsnr" v="458068" />
	</node>
	<node id="-577591" lat="62.6723944477" lon="6.33703055926">
		<tag k="name" v="Olagarden" />
		<tag k="place" v="farm" />
		<tag k="ssr:stedsnr" v="457896" />
	</node>
	<node id="-577588" lat="62.6307027802" lon="6.26471944236">
		<tag k="name" v="Olagarden" />
		<tag k="place" v="farm" />
		<tag k="ssr:stedsnr" v="457677" />
	</node>
	<node id="-577587" lat="62.6230638914" lon="6.21161110583">
		<tag k="name" v="Rasmusgarden" />
		<tag k="place" v="farm" />
		<tag k="ssr:stedsnr" v="457643" />
	</node>
	<node id="-577585" lat="62.6105444411" lon="6.20455278772">
		<tag k="name" v="Olegarden" />
		<tag k="place" v="farm" />
		<tag k="ssr:stedsnr" v="457600" />
	</node>
	<node id="-577576" lat="62.6624527778" lon="6.28934999036">
		<tag k="name" v="Sjurgarden" />
		<tag k="place" v="farm" />
		<tag k="ssr:stedsnr" v="457287" />
	</node>
	<node id="-577573" lat="62.5597722189" lon="6.28452222451">
		<tag k="name" v="Bjørnøyvatnet" />
		<tag k="place" v="farm" />
		<tag k="ssr:stedsnr" v="457259" />
	</node>
	<node id="-577572" lat="62.6335555515" lon="6.18026389255">
		<tag k="name" v="Høgtun" />
		<tag k="place" v="isolated_dwelling" />
		<tag k="ssr:stedsnr" v="457732" />
	</node>
	<node id="-577571" lat="62.6070777803" lon="6.20017499225">
		<tag k="name" v="Johangarden" />
		<tag k="place" v="farm" />
		<tag k="ssr:stedsnr" v="455592" />
	</node>
	<node id="-577569" lat="62.536075003" lon="6.59131945024">
		<tag k="name" v="Langhaugane" />
		<tag k="place" v="quarter" />
		<tag k="ssr:stedsnr" v="445935" />
	</node>
	<node id="-577566" lat="62.6304833303" lon="6.25005555792">
		<tag k="name" v="Lygaren" />
		<tag k="place" v="farm" />
		<tag k="ssr:stedsnr" v="437501" />
	</node>
	<node id="-577564" lat="62.5618055529" lon="6.71483332912">
		<tag k="name" v="Vatnesætra" />
		<tag k="place" v="isolated_dwelling" />
		<tag k="ssr:stedsnr" v="437252" />
	</node>
	<node id="-577560" lat="62.7040583288" lon="6.36216666461">
		<tag k="name" v="Søre Fjørtofta" />
		<tag k="place" v="farm" />
		<tag k="ssr:stedsnr" v="436925" />
	</node>
	<node id="-577556" lat="62.6901638929" lon="6.39147499197">
		<tag k="name" v="Bømark" />
		<tag k="place" v="farm" />
		<tag k="ssr:stedsnr" v="436877" />
	</node>
	<node id="-577545" lat="62.5971722241" lon="6.30893056104">
		<tag k="name" v="Risneset" />
		<tag k="place" v="farm" />
		<tag k="ssr:stedsnr" v="436373" />
	</node>
	<node id="-577544" lat="62.5971861102" lon="6.301763886">
		<tag k="name" v="Haugen" />
		<tag k="place" v="farm" />
		<tag k="ssr:stedsnr" v="436372" />
	</node>
	<node id="-577543" lat="62.5913388853" lon="6.56862777658">
		<tag k="name" v="Hjellen" />
		<tag k="place" v="farm" />
		<tag k="ssr:stedsnr" v="436364" />
	</node>
	<node id="-577541" lat="62.5934027801" lon="6.47081110697">
		<tag k="name" v="Lundheim" />
		<tag k="place" v="farm" />
		<tag k="ssr:stedsnr" v="436360" />
	</node>
</osm>
