<?xml version="1.0" encoding="UTF-8"?>
<osm generator="osmapis" version="0.6">
	<node id="-577532" lat="62.5497861083" lon="6.25260833467">
		<tag k="name" v="Selnesvågen" />
		<tag k="natural" v="bay" />
		<tag k="ssr:stedsnr" v="436232" />
	</node>
	<node id="-577527" lat="62.6275555519" lon="6.5846944537">
		<tag k="name" v="Vikaneset" />
		<tag k="natural" v="cape" />
		<tag k="ssr:stedsnr" v="437480" />
	</node>
	<node id="-577525" lat="62.6770194401" lon="6.20835833587">
		<tag k="name" v="Vålen" />
		<tag k="natural" v="shoal" />
		<tag k="place" v="locality" />
		<tag k="ssr:stedsnr" v="417685" />
	</node>
	<node id="-577524" lat="62.7131805579" lon="6.17027777509">
		<tag k="name" v="Grunnflua" />
		<tag k="natural" v="shoal" />
		<tag k="place" v="locality" />
		<tag k="ssr:stedsnr" v="417671" />
	</node>
	<node id="-577523" lat="62.5910916635" lon="6.22517778256">
		<tag k="name" v="Kålgarden" />
		<tag k="natural" v="shoal" />
		<tag k="place" v="locality" />
		<tag k="ssr:stedsnr" v="416765" />
	</node>
	<node id="-577522" lat="62.6290000015" lon="6.28770833741">
		<tag k="name" v="Kyrkjeflua" />
		<tag k="natural" v="shoal" />
		<tag k="place" v="locality" />
		<tag k="ssr:stedsnr" v="416706" />
	</node>
	<node id="-577521" lat="62.7130416669" lon="6.21671666004">
		<tag k="name" v="Søre Breidflua" />
		<tag k="natural" v="shoal" />
		<tag k="place" v="locality" />
		<tag k="ssr:stedsnr" v="416682" />
	</node>
	<node id="-577520" lat="62.6940249991" lon="6.36589722929">
		<tag k="fixme" v="consider seamark:type=rock or natural=shoal" />
		<tag k="name" v="Oterlei" />
		<tag k="place" v="islet" />
		<tag k="ssr:stedsnr" v="416672" />
	</node>
	<node id="-577519" lat="62.7008999958" lon="5.99432221703">
		<tag k="name" v="Stølssøyla" />
		<tag k="place" v="locality" />
		<tag k="ssr:stedsnr" v="416313" />
	</node>
	<node id="-577518" lat="62.7766472239" lon="6.08109445284">
		<tag k="name" v="Grøsdjupet" />
		<tag k="place" v="locality" />
		<tag k="ssr:stedsnr" v="416307" />
	</node>
	<node id="-577517" lat="62.7270749989" lon="6.02425277909">
		<tag k="name" v="Seigrunnskallen" />
		<tag k="natural" v="shoal" />
		<tag k="place" v="locality" />
		<tag k="ssr:stedsnr" v="416295" />
	</node>
	<node id="-577516" lat="62.6630805584" lon="6.07706944324">
		<tag k="name" v="Jakob Pettermarka" />
		<tag k="natural" v="shoal" />
		<tag k="place" v="locality" />
		<tag k="ssr:stedsnr" v="415940" />
	</node>
	<node id="-577515" lat="62.654394442" lon="6.05224999362">
		<tag k="name" v="Tindegrunnen" />
		<tag k="natural" v="shoal" />
		<tag k="place" v="locality" />
		<tag k="ssr:stedsnr" v="415930" />
	</node>
	<node id="-577514" lat="62.6127444414" lon="6.56993610613">
		<tag k="name" v="Verpet" />
		<tag k="natural" v="cape" />
		<tag k="ssr:stedsnr" v="415915" />
	</node>
	<node id="-577513" lat="62.5454472258" lon="6.17949166106">
		<tag k="fixme" v="consider seamark:type=rock or natural=shoal" />
		<tag k="name" v="Søre Haneskjera" />
		<tag k="place" v="islet" />
		<tag k="ssr:stedsnr" v="415792" />
	</node>
	<node id="-577511" lat="62.6410416638" lon="6.14261667562">
		<tag k="name" v="Isakfallet" />
		<tag k="natural" v="shoal" />
		<tag k="place" v="locality" />
		<tag k="ssr:stedsnr" v="415543" />
	</node>
	<node id="-577510" lat="62.7506166656" lon="6.21599721706">
		<tag k="name" v="Flatskallen" />
		<tag k="natural" v="shoal" />
		<tag k="place" v="locality" />
		<tag k="ssr:stedsnr" v="415354" />
	</node>
	<node id="-577508" lat="62.6187916657" lon="6.51088610322">
		<tag k="name" v="Krossvikflua" />
		<tag k="natural" v="shoal" />
		<tag k="place" v="locality" />
		<tag k="ssr:stedsnr" v="414917" />
	</node>
	<node id="-577507" lat="62.6396222267" lon="6.36616389504">
		<tag k="name" v="Grunnrevet" />
		<tag k="natural" v="shoal" />
		<tag k="place" v="locality" />
		<tag k="ssr:stedsnr" v="414913" />
	</node>
	<node id="-577504" lat="62.6985388915" lon="6.23405554559">
		<tag k="name" v="Skallen" />
		<tag k="natural" v="shoal" />
		<tag k="place" v="locality" />
		<tag k="ssr:stedsnr" v="254912" />
	</node>
	<node id="-577501" lat="62.7081055527" lon="6.2792250071">
		<tag k="fixme" v="consider seamark:type=rock or natural=shoal" />
		<tag k="name" v="Midtfjordskjeret" />
		<tag k="place" v="islet" />
		<tag k="ssr:stedsnr" v="254803" />
	</node>
	<node id="-577500" lat="62.7093416652" lon="6.33806666866">
		<tag k="fixme" v="consider seamark:type=rock or natural=shoal" />
		<tag k="name" v="Skinnbrekka" />
		<tag k="place" v="islet" />
		<tag k="ssr:stedsnr" v="254800" />
	</node>
	<node id="-577499" lat="62.7110583348" lon="6.38879166458">
		<tag k="name" v="Hellvika" />
		<tag k="natural" v="bay" />
		<tag k="ssr:stedsnr" v="254795" />
	</node>
	<node id="-577494" lat="62.655697221" lon="6.16820833885">
		<tag k="fixme" v="consider seamark:type=rock or natural=shoal" />
		<tag k="name" v="Nesskjeret" />
		<tag k="place" v="islet" />
		<tag k="ssr:stedsnr" v="254670" />
	</node>
	<node id="-576505" lat="62.6126000035" lon="6.33545277981">
		<tag k="name" v="Haugneset" />
		<tag k="natural" v="cape" />
		<tag k="ssr:stedsnr" v="336569" />
	</node>
	<node id="-577485" lat="62.5730416698" lon="6.25314722622">
		<tag k="name" v="Tangane" />
		<tag k="natural" v="cape" />
		<tag k="ssr:stedsnr" v="254319" />
	</node>
	<node id="-577481" lat="62.5633722199" lon="6.25787500211">
		<tag k="name" v="Terøyknappen" />
		<tag k="natural" v="cape" />
		<tag k="ssr:stedsnr" v="254295" />
	</node>
	<node id="-577480" lat="62.5609777792" lon="6.2316249945">
		<tag k="name" v="Storhaugen" />
		<tag k="natural" v="cape" />
		<tag k="ssr:stedsnr" v="254293" />
	</node>
	<node id="-577471" lat="62.5360222182" lon="6.209847215">
		<tag k="name" v="Kalven" />
		<tag k="natural" v="cape" />
		<tag k="ssr:stedsnr" v="254225" />
	</node>
	<node id="-577470" lat="62.5350416707" lon="6.23411110987">
		<tag k="name" v="Vikholmen" />
		<tag k="place" v="islet" />
		<tag k="ssr:stedsnr" v="254202" />
	</node>
	<node id="-577469" lat="62.5235694466" lon="6.23212499429">
		<tag k="name" v="Torholmsundet" />
		<tag k="natural" v="strait" />
		<tag k="ssr:stedsnr" v="254175" />
	</node>
	<node id="-577465" lat="62.7510638907" lon="6.26345555346">
		<tag k="name" v="Aglapskallen" />
		<tag k="natural" v="shoal" />
		<tag k="place" v="locality" />
		<tag k="ssr:stedsnr" v="254425" />
	</node>
	<node id="-577463" lat="62.6996083315" lon="6.17106667055">
		<tag k="name" v="Gåseflua" />
		<tag k="natural" v="shoal" />
		<tag k="place" v="locality" />
		<tag k="ssr:stedsnr" v="235678" />
	</node>
	<node id="-577462" lat="62.7133666651" lon="6.30701110836">
		<tag k="name" v="Kobbfluene" />
		<tag k="natural" v="shoal" />
		<tag k="place" v="locality" />
		<tag k="ssr:stedsnr" v="234733" />
	</node>
	<node id="-577461" lat="62.6808416684" lon="6.22265555789">
		<tag k="name" v="Flemsbarden" />
		<tag k="natural" v="shoal" />
		<tag k="place" v="locality" />
		<tag k="ssr:stedsnr" v="234705" />
	</node>
	<node id="-577460" lat="62.6919611092" lon="6.26415277613">
		<tag k="name" v="Sandvikflua" />
		<tag k="natural" v="shoal" />
		<tag k="place" v="locality" />
		<tag k="ssr:stedsnr" v="234699" />
	</node>
	<node id="-577459" lat="62.6802972206" lon="5.98996111913">
		<tag k="name" v="Storegrunnen" />
		<tag k="natural" v="shoal" />
		<tag k="place" v="locality" />
		<tag k="ssr:stedsnr" v="234333" />
	</node>
	<node id="-577458" lat="62.7672305525" lon="5.95188889135">
		<tag k="name" v="Søre Meda" />
		<tag k="place" v="locality" />
		<tag k="ssr:stedsnr" v="234327" />
	</node>
	<node id="-577457" lat="62.5341083298" lon="6.54360834024">
		<tag k="bay" v="fjord" />
		<tag k="name" v="Tennfjorden" />
		<tag k="natural" v="bay" />
		<tag k="ssr:stedsnr" v="234161" />
	</node>
	<node id="-577456" lat="62.6615944436" lon="6.00916667154">
		<tag k="name" v="Ytre Kallane" />
		<tag k="natural" v="shoal" />
		<tag k="place" v="locality" />
		<tag k="ssr:stedsnr" v="233931" />
	</node>
	<node id="-577455" lat="62.6014194412" lon="6.21924444054">
		<tag k="name" v="Lepsøyhamna" />
		<tag k="natural" v="bay" />
		<tag k="ssr:stedsnr" v="233823" />
	</node>
	<node id="-577454" lat="62.6015638872" lon="6.19765555607">
		<tag k="name" v="Sandbukta" />
		<tag k="natural" v="bay" />
		<tag k="ssr:stedsnr" v="233817" />
	</node>
	<node id="-577453" lat="62.5333055564" lon="6.3942083376">
		<tag k="name" v="Skardsetflua" />
		<tag k="natural" v="shoal" />
		<tag k="place" v="locality" />
		<tag k="ssr:stedsnr" v="233737" />
	</node>
	<node id="-577452" lat="62.7241805583" lon="6.29250278423">
		<tag k="name" v="Langflesfluene" />
		<tag k="natural" v="shoal" />
		<tag k="place" v="locality" />
		<tag k="ssr:stedsnr" v="233369" />
	</node>
	<node id="-577450" lat="62.6105472239" lon="6.44888333956">
		<tag k="name" v="Boltholmen" />
		<tag k="place" v="islet" />
		<tag k="ssr:stedsnr" v="232922" />
	</node>
	<node id="-577449" lat="62.6508527785" lon="6.43163610822">
		<tag k="name" v="Sveet" />
		<tag k="natural" v="shoal" />
		<tag k="place" v="locality" />
		<tag k="ssr:stedsnr" v="232917" />
	</node>
	<node id="-577445" lat="62.5732777765" lon="6.62440556143">
		<tag k="name" v="Englane" />
		<tag k="natural" v="shoal" />
		<tag k="place" v="locality" />
		<tag k="ssr:stedsnr" v="216983" />
	</node>
	<node id="-577437" lat="62.5771527817" lon="6.46522776843">
		<tag k="name" v="Buneset" />
		<tag k="natural" v="cape" />
		<tag k="ssr:stedsnr" v="216896" />
	</node>
	<node id="-577434" lat="62.5818555591" lon="6.4616361091">
		<tag k="alt_name" v="Bergholmane" />
		<tag k="name" v="Flatholmane" />
		<tag k="place" v="islet" />
		<tag k="ssr:stedsnr" v="216871" />
	</node>
	<node id="-577429" lat="62.6071027735" lon="6.6206888924">
		<tag k="alt_name" v="Notaneset" />
		<tag k="name" v="Notaberget" />
		<tag k="natural" v="cape" />
		<tag k="ssr:stedsnr" v="216829" />
	</node>
	<node id="-577428" lat="62.6149083308" lon="6.45657223047">
		<tag k="fixme" v="consider seamark:type=rock or natural=shoal" />
		<tag k="name" v="Hamneskjeret" />
		<tag k="place" v="islet" />
		<tag k="ssr:stedsnr" v="216796" />
	</node>
	<node id="-577420" lat="62.5326722208" lon="6.35787777056">
		<tag k="name" v="Holmesundet" />
		<tag k="natural" v="strait" />
		<tag k="ssr:stedsnr" v="216564" />
	</node>
	<node id="-577419" lat="62.5610833315" lon="6.61320554909">
		<tag k="name" v="Vatnesjøen" />
		<tag k="natural" v="bay" />
		<tag k="ssr:stedsnr" v="216552" />
	</node>
	<node id="-577415" lat="62.5940611119" lon="6.4515638805">
		<tag k="name" v="Kobbevikane" />
		<tag k="natural" v="bay" />
		<tag k="ssr:stedsnr" v="216496" />
	</node>
	<node id="-577410" lat="62.6266722258" lon="6.61104444889">
		<tag k="name" v="Stranda" />
		<tag k="natural" v="beach" />
		<tag k="place" v="locality" />
		<tag k="ssr:stedsnr" v="216412" />
	</node>
	<node id="-577408" lat="62.6302472211" lon="6.59438888151">
		<tag k="name" v="Svartdepelsvika" />
		<tag k="natural" v="bay" />
		<tag k="ssr:stedsnr" v="216358" />
	</node>
	<node id="-577407" lat="62.6101361101" lon="6.58611666564">
		<tag k="name" v="Nordfarneset" />
		<tag k="natural" v="cape" />
		<tag k="ssr:stedsnr" v="216353" />
	</node>
	<node id="-577403" lat="62.5269944466" lon="6.52608611032">
		<tag k="name" v="Fjordungskiftvika" />
		<tag k="natural" v="bay" />
		<tag k="ssr:stedsnr" v="216155" />
	</node>
	<node id="-577402" lat="62.5397055529" lon="6.51653332616">
		<tag k="name" v="Haugnesa" />
		<tag k="natural" v="cape" />
		<tag k="ssr:stedsnr" v="216053" />
	</node>
	<node id="-577397" lat="62.5426861152" lon="6.28136111606">
		<tag k="name" v="Søvika" />
		<tag k="natural" v="bay" />
		<tag k="ssr:stedsnr" v="215687" />
	</node>
	<node id="-577396" lat="62.5937944448" lon="6.22802221532">
		<tag k="name" v="Kobberæene" />
		<tag k="natural" v="shoal" />
		<tag k="place" v="locality" />
		<tag k="ssr:stedsnr" v="215628" />
	</node>
	<node id="-577389" lat="62.5639499976" lon="6.25795277719">
		<tag k="name" v="Knappen" />
		<tag k="natural" v="cape" />
		<tag k="ssr:stedsnr" v="215342" />
	</node>
	<node id="-577386" lat="62.7088611072" lon="6.36582500937">
		<tag k="fixme" v="consider seamark:type=rock or natural=shoal" />
		<tag k="name" v="Tausafluda" />
		<tag k="place" v="islet" />
		<tag k="ssr:stedsnr" v="214955" />
	</node>
	<node id="-577383" lat="62.6239222184" lon="6.22810000312">
		<tag k="bay" v="fjord" />
		<tag k="name" v="Haramsfjorden" />
		<tag k="natural" v="bay" />
		<tag k="ssr:stedsnr" v="214745" />
	</node>
	<node id="-577382" lat="62.6824861068" lon="6.24034444849">
		<tag k="name" v="Indre Flemsvika" />
		<tag k="natural" v="bay" />
		<tag k="ssr:stedsnr" v="214629" />
	</node>
	<node id="-577381" lat="62.6412222217" lon="6.35664167479">
		<tag k="name" v="Sandvika" />
		<tag k="natural" v="bay" />
		<tag k="ssr:stedsnr" v="214614" />
	</node>
	<node id="-577374" lat="62.6896805521" lon="6.23169722131">
		<tag k="name" v="Uraberget" />
		<tag k="natural" v="cape" />
		<tag k="ssr:stedsnr" v="214289" />
	</node>
	<node id="-577373" lat="62.6556750001" lon="6.04304167633">
		<tag k="name" v="Hemboen" />
		<tag k="place" v="locality" />
		<tag k="seamark:type" v="rock" />
		<tag k="ssr:stedsnr" v="207600" />
	</node>
	<node id="-577371" lat="62.5324884282" lon="6.42028130007">
		<tag k="name" v="Grytastranda" />
		<tag k="natural" v="beach" />
		<tag k="place" v="locality" />
		<tag k="ssr:stedsnr" v="203105" />
	</node>
	<node id="-577370" lat="62.6713250032" lon="6.08872778488">
		<tag k="name" v="Ånegrynna" />
		<tag k="natural" v="shoal" />
		<tag k="place" v="locality" />
		<tag k="ssr:stedsnr" v="202227" />
	</node>
	<node id="-577368" lat="62.6781166675" lon="6.32932500425">
		<tag k="name" v="Skarveneset" />
		<tag k="natural" v="cape" />
		<tag k="ssr:stedsnr" v="194993" />
	</node>
	<node id="-577365" lat="62.6634583313" lon="6.22971388869">
		<tag k="name" v="Håvika" />
		<tag k="natural" v="bay" />
		<tag k="ssr:stedsnr" v="194969" />
	</node>
	<node id="-576483" lat="62.6895777762" lon="6.20707777491">
		<tag k="name" v="Rongja" />
		<tag k="natural" v="shoal" />
		<tag k="place" v="locality" />
		<tag k="ssr:stedsnr" v="335323" />
	</node>
	<node id="-577357" lat="62.7355694451" lon="6.26304999368">
		<tag k="name" v="Ivarskallen" />
		<tag k="natural" v="shoal" />
		<tag k="place" v="locality" />
		<tag k="ssr:stedsnr" v="194847" />
	</node>
	<node id="-577356" lat="62.684288889" lon="6.19410834154">
		<tag k="name" v="Ullasundet" />
		<tag k="natural" v="strait" />
		<tag k="ssr:stedsnr" v="194725" />
	</node>
	<node id="-577353" lat="62.6548611155" lon="6.10781389185">
		<tag k="fixme" v="consider seamark:type=rock or natural=shoal" />
		<tag k="name" v="Naggen" />
		<tag k="place" v="islet" />
		<tag k="ssr:stedsnr" v="194676" />
	</node>
	<node id="-577350" lat="62.6411916633" lon="6.35519167414">
		<tag k="name" v="Steinskifta" />
		<tag k="natural" v="cape" />
		<tag k="ssr:stedsnr" v="194415" />
	</node>
	<node id="-577344" lat="62.5766861115" lon="6.26449444895">
		<tag k="name" v="Vikane" />
		<tag k="natural" v="bay" />
		<tag k="ssr:stedsnr" v="194316" />
	</node>
	<node id="-577340" lat="62.5795222229" lon="6.62205277666">
		<tag k="name" v="Jensvollneset" />
		<tag k="natural" v="cape" />
		<tag k="ssr:stedsnr" v="194297" />
	</node>
	<node id="-577332" lat="62.5351583317" lon="6.27058333688">
		<tag k="name" v="Svinvika" />
		<tag k="natural" v="bay" />
		<tag k="ssr:stedsnr" v="194209" />
	</node>
	<node id="-577330" lat="62.7119694437" lon="6.315763883">
		<tag k="fixme" v="consider seamark:type=rock or natural=shoal" />
		<tag k="name" v="Kobbeskjera" />
		<tag k="place" v="islet" />
		<tag k="ssr:stedsnr" v="193825" />
	</node>
	<node id="-577329" lat="62.6906638846" lon="6.20529167372">
		<tag k="name" v="Rotneøyra" />
		<tag k="natural" v="cape" />
		<tag k="ssr:stedsnr" v="193722" />
	</node>
	<node id="-577328" lat="62.7201333297" lon="6.16278054648">
		<tag k="name" v="Skallen" />
		<tag k="natural" v="shoal" />
		<tag k="place" v="locality" />
		<tag k="ssr:stedsnr" v="193710" />
	</node>
	<node id="-577327" lat="62.7097916696" lon="6.11331943449">
		<tag k="name" v="Klakken" />
		<tag k="natural" v="shoal" />
		<tag k="place" v="locality" />
		<tag k="ssr:stedsnr" v="193709" />
	</node>
	<node id="-577325" lat="62.6053583338" lon="6.47143055927">
		<tag k="name" v="Hellandsvika" />
		<tag k="natural" v="bay" />
		<tag k="ssr:stedsnr" v="193454" />
	</node>
	<node id="-577318" lat="62.5949694457" lon="6.45321944149">
		<tag k="name" v="Brattholmneset" />
		<tag k="natural" v="cape" />
		<tag k="ssr:stedsnr" v="193401" />
	</node>
	<node id="-577307" lat="62.529766663" lon="6.32256111817">
		<tag k="name" v="Haslavika" />
		<tag k="natural" v="bay" />
		<tag k="ssr:stedsnr" v="193206" />
	</node>
	<node id="-577306" lat="62.5299666679" lon="6.22950833534">
		<tag k="name" v="Steinholmane" />
		<tag k="place" v="islet" />
		<tag k="ssr:stedsnr" v="193197" />
	</node>
	<node id="-577304" lat="62.526638889" lon="6.52855277391">
		<tag k="name" v="Lygaren" />
		<tag k="natural" v="cape" />
		<tag k="ssr:stedsnr" v="193154" />
	</node>
	<node id="-577301" lat="62.6715861136" lon="6.11436943503">
		<tag k="name" v="Gravskallen" />
		<tag k="natural" v="shoal" />
		<tag k="place" v="locality" />
		<tag k="ssr:stedsnr" v="174881" />
	</node>
	<node id="-577300" lat="62.6797027764" lon="6.32007776858">
		<tag k="name" v="Purkeberget" />
		<tag k="natural" v="cape" />
		<tag k="ssr:stedsnr" v="174728" />
	</node>
	<node id="-577299" lat="62.6448166646" lon="6.34263055327">
		<tag k="name" v="Reina" />
		<tag k="natural" v="shoal" />
		<tag k="place" v="locality" />
		<tag k="ssr:stedsnr" v="174729" />
	</node>
	<node id="-577298" lat="62.6660249995" lon="6.11211666947">
		<tag k="name" v="Lisjeskallen" />
		<tag k="natural" v="shoal" />
		<tag k="place" v="locality" />
		<tag k="ssr:stedsnr" v="174677" />
	</node>
	<node id="-577297" lat="62.6738138916" lon="6.16587221795">
		<tag k="name" v="Liaboen" />
		<tag k="natural" v="shoal" />
		<tag k="place" v="locality" />
		<tag k="ssr:stedsnr" v="174669" />
	</node>
	<node id="-577296" lat="62.7035055531" lon="6.13163610855">
		<tag k="name" v="Ullasøyla" />
		<tag k="place" v="locality" />
		<tag k="ssr:stedsnr" v="174668" />
	</node>
	<node id="-577295" lat="62.6737888873" lon="6.15925000811">
		<tag k="name" v="Kobbeflua" />
		<tag k="natural" v="shoal" />
		<tag k="place" v="locality" />
		<tag k="ssr:stedsnr" v="174664" />
	</node>
	<node id="-577294" lat="62.6718500004" lon="6.04803055159">
		<tag k="name" v="Svanshauggrunnane" />
		<tag k="natural" v="shoal" />
		<tag k="place" v="locality" />
		<tag k="ssr:stedsnr" v="173910" />
	</node>
	<node id="-577293" lat="62.557213893" lon="6.26762777822">
		<tag k="name" v="Terøygalten" />
		<tag k="natural" v="shoal" />
		<tag k="place" v="locality" />
		<tag k="ssr:stedsnr" v="173821" />
	</node>
	<node id="-577292" lat="62.5512499974" lon="6.23747222657">
		<tag k="name" v="Storvika" />
		<tag k="natural" v="bay" />
		<tag k="ssr:stedsnr" v="173816" />
	</node>
	<node id="-577291" lat="62.6615250006" lon="6.15995555782">
		<tag k="name" v="Kvalvikboen" />
		<tag k="natural" v="shoal" />
		<tag k="place" v="locality" />
		<tag k="ssr:stedsnr" v="173698" />
	</node>
	<node id="-577290" lat="62.5967000003" lon="6.2462472241">
		<tag k="name" v="Grunnflua" />
		<tag k="natural" v="shoal" />
		<tag k="place" v="locality" />
		<tag k="ssr:stedsnr" v="173658" />
	</node>
	<node id="-577289" lat="62.6277833293" lon="6.20306111674">
		<tag k="name" v="Kjerstadvika" />
		<tag k="natural" v="bay" />
		<tag k="ssr:stedsnr" v="173485" />
	</node>
	<node id="-577288" lat="62.6126444419" lon="6.58133054851">
		<tag k="name" v="Løvøyflua" />
		<tag k="natural" v="shoal" />
		<tag k="place" v="locality" />
		<tag k="ssr:stedsnr" v="172904" />
	</node>
	<node id="-577287" lat="62.5253222196" lon="6.37546945059">
		<tag k="fixme" v="consider seamark:type=rock or natural=shoal" />
		<tag k="name" v="Kjepina" />
		<tag k="place" v="islet" />
		<tag k="ssr:stedsnr" v="172740" />
	</node>
	<node id="-577286" lat="62.5252916654" lon="6.35346666033">
		<tag k="name" v="Midtfjordflua" />
		<tag k="natural" v="shoal" />
		<tag k="place" v="locality" />
		<tag k="ssr:stedsnr" v="172741" />
	</node>
	<node id="-577285" lat="62.6139638929" lon="6.61309722179">
		<tag k="name" v="Helleflua" />
		<tag k="natural" v="shoal" />
		<tag k="place" v="locality" />
		<tag k="ssr:stedsnr" v="171945" />
	</node>
	<node id="-577284" lat="62.6200888843" lon="6.42171943761">
		<tag k="name" v="Juvikgrunnen" />
		<tag k="natural" v="shoal" />
		<tag k="place" v="locality" />
		<tag k="ssr:stedsnr" v="171931" />
	</node>
	<node id="-577278" lat="62.5727666645" lon="6.45281666248">
		<tag k="name" v="Kobbeneset" />
		<tag k="natural" v="cape" />
		<tag k="ssr:stedsnr" v="155874" />
	</node>
	<node id="-577277" lat="62.5843666696" lon="6.45291388519">
		<tag k="alt_name" v="Setervika" />
		<tag k="name" v="Ramsvika" />
		<tag k="natural" v="bay" />
		<tag k="ssr:stedsnr" v="155865" />
	</node>
	<node id="-577273" lat="62.5943111116" lon="6.58749167585">
		<tag k="name" v="Smedneset" />
		<tag k="natural" v="cape" />
		<tag k="ssr:stedsnr" v="155733" />
	</node>
	<node id="-577271" lat="62.613077775" lon="6.42655277826">
		<tag k="name" v="Kjøkenvika" />
		<tag k="natural" v="bay" />
		<tag k="ssr:stedsnr" v="155812" />
	</node>
	<node id="-577270" lat="62.5342666673" lon="6.58059167001">
		<tag k="name" v="Danielbukta" />
		<tag k="natural" v="bay" />
		<tag k="ssr:stedsnr" v="155646" />
	</node>
	<node id="-578563" lat="62.6177499958" lon="6.25197778733">
		<tag k="name" v="Hestøyskallen" />
		<tag k="natural" v="shoal" />
		<tag k="place" v="locality" />
		<tag k="ssr:stedsnr" v="841715" />
	</node>
	<node id="-577268" lat="62.5668750035" lon="6.54491665881">
		<tag k="name" v="Tunga" />
		<tag k="natural" v="cape" />
		<tag k="ssr:stedsnr" v="155579" />
	</node>
	<node id="-577258" lat="62.6087222244" lon="6.44864166125">
		<tag k="name" v="Kikholmane" />
		<tag k="place" v="islet" />
		<tag k="ssr:stedsnr" v="155512" />
	</node>
	<node id="-576465" lat="62.6803583326" lon="6.16838888179">
		<tag k="fixme" v="consider seamark:type=rock or natural=shoal" />
		<tag k="name" v="Kjøvesundskjeret" />
		<tag k="place" v="islet" />
		<tag k="ssr:stedsnr" v="315748" />
	</node>
	<node id="-577235" lat="62.5394416672" lon="6.51437222428">
		<tag k="name" v="Fluda" />
		<tag k="natural" v="shoal" />
		<tag k="place" v="locality" />
		<tag k="ssr:stedsnr" v="155055" />
	</node>
	<node id="-577234" lat="62.6234722243" lon="6.65595278352">
		<tag k="name" v="Skogaløneset" />
		<tag k="natural" v="cape" />
		<tag k="ssr:stedsnr" v="155032" />
	</node>
	<node id="-577232" lat="62.6288277801" lon="6.65212499546">
		<tag k="name" v="Sveneset" />
		<tag k="natural" v="cape" />
		<tag k="ssr:stedsnr" v="155020" />
	</node>
	<node id="-577226" lat="62.595597224" lon="6.22229167575">
		<tag k="name" v="Hamnaskjersundet" />
		<tag k="natural" v="strait" />
		<tag k="ssr:stedsnr" v="154660" />
	</node>
	<node id="-577225" lat="62.5282500035" lon="6.25075833823">
		<tag k="name" v="Kyrkjesundet" />
		<tag k="natural" v="strait" />
		<tag k="ssr:stedsnr" v="154397" />
	</node>
	<node id="-577224" lat="62.5615694438" lon="6.27726389451">
		<tag k="name" v="Lånasanden" />
		<tag k="natural" v="beach" />
		<tag k="place" v="locality" />
		<tag k="ssr:stedsnr" v="154385" />
	</node>
	<node id="-577223" lat="62.6072000041" lon="6.38636667389">
		<tag k="name" v="Alvestadbukta" />
		<tag k="natural" v="bay" />
		<tag k="ssr:stedsnr" v="154336" />
	</node>
	<node id="-577222" lat="62.7082333361" lon="6.37771945201">
		<tag k="name" v="Norgardsvika" />
		<tag k="natural" v="bay" />
		<tag k="ssr:stedsnr" v="153959" />
	</node>
	<node id="-577203" lat="62.6831250033" lon="6.19068055755">
		<tag k="name" v="Naustneset" />
		<tag k="natural" v="cape" />
		<tag k="ssr:stedsnr" v="153333" />
	</node>
	<node id="-577202" lat="62.6860749959" lon="6.22693333808">
		<tag k="name" v="Øyra" />
		<tag k="natural" v="cape" />
		<tag k="ssr:stedsnr" v="153326" />
	</node>
	<node id="-577195" lat="62.7287111139" lon="6.05628889607">
		<tag k="name" v="Ålmannskallen" />
		<tag k="natural" v="shoal" />
		<tag k="place" v="locality" />
		<tag k="ssr:stedsnr" v="146649" />
	</node>
	<node id="-577191" lat="62.6742777759" lon="6.33615834071">
		<tag k="name" v="Nogvabukta" />
		<tag k="natural" v="bay" />
		<tag k="ssr:stedsnr" v="133996" />
	</node>
	<node id="-577190" lat="62.6745055564" lon="6.22065000769">
		<tag k="name" v="Kroksholmane" />
		<tag k="place" v="islet" />
		<tag k="ssr:stedsnr" v="133984" />
	</node>
	<node id="-577185" lat="62.6918111088" lon="6.22825277176">
		<tag k="name" v="Geita" />
		<tag k="natural" v="cape" />
		<tag k="ssr:stedsnr" v="133919" />
	</node>
	<node id="-577180" lat="62.7396722262" lon="6.30099165712">
		<tag k="fixme" v="consider seamark:type=rock or natural=shoal" />
		<tag k="name" v="Langfluene" />
		<tag k="place" v="islet" />
		<tag k="ssr:stedsnr" v="133859" />
	</node>
	<node id="-577179" lat="62.7351027766" lon="6.30896666666">
		<tag k="fixme" v="consider seamark:type=rock or natural=shoal" />
		<tag k="name" v="Kobbeskjera" />
		<tag k="place" v="islet" />
		<tag k="ssr:stedsnr" v="133857" />
	</node>
	<node id="-577177" lat="62.6813083362" lon="6.16388332525">
		<tag k="name" v="Kvernholmsundet" />
		<tag k="natural" v="strait" />
		<tag k="ssr:stedsnr" v="133731" />
	</node>
	<node id="-577171" lat="62.6619388846" lon="6.17163333225">
		<tag k="name" v="Vestanvika" />
		<tag k="natural" v="bay" />
		<tag k="ssr:stedsnr" v="133670" />
	</node>
	<node id="-577170" lat="62.6637611099" lon="6.16409721416">
		<tag k="fixme" v="consider seamark:type=rock or natural=shoal" />
		<tag k="name" v="Skarvesteinen" />
		<tag k="place" v="islet" />
		<tag k="ssr:stedsnr" v="133669" />
	</node>
	<node id="-577167" lat="62.6340805545" lon="6.66658888367">
		<tag k="name" v="Eikeneset" />
		<tag k="natural" v="cape" />
		<tag k="ssr:stedsnr" v="133425" />
	</node>
	<node id="-577152" lat="62.6873445516" lon="6.26777140486">
		<tag k="name" v="Kvalvika" />
		<tag k="natural" v="bay" />
		<tag k="ssr:stedsnr" v="133238" />
	</node>
	<node id="-577144" lat="62.7162527817" lon="6.28395555973">
		<tag k="name" v="Storefluna" />
		<tag k="natural" v="shoal" />
		<tag k="place" v="locality" />
		<tag k="ssr:stedsnr" v="132828" />
	</node>
	<node id="-577143" lat="62.7191138855" lon="6.38154722663">
		<tag k="name" v="Sugga" />
		<tag k="natural" v="shoal" />
		<tag k="place" v="locality" />
		<tag k="ssr:stedsnr" v="132824" />
	</node>
	<node id="-577142" lat="62.5956666671" lon="6.21537778226">
		<tag k="name" v="Lausundholmen" />
		<tag k="place" v="islet" />
		<tag k="ssr:stedsnr" v="132811" />
	</node>
	<node id="-577136" lat="62.6124897417" lon="6.59279759988">
		<tag k="name" v="Løvøya" />
		<tag k="place" v="island" />
		<tag k="ssr:stedsnr" v="132397" />
	</node>
	<node id="-577135" lat="62.6085388902" lon="6.61733333418">
		<tag k="name" v="Helleholmen" />
		<tag k="place" v="islet" />
		<tag k="ssr:stedsnr" v="132396" />
	</node>
	<node id="-577125" lat="62.5671944485" lon="6.24907222833">
		<tag k="name" v="Flesborvikane" />
		<tag k="natural" v="bay" />
		<tag k="ssr:stedsnr" v="132293" />
	</node>
	<node id="-577123" lat="62.5650972207" lon="6.24521666121">
		<tag k="name" v="Fiskeneset" />
		<tag k="natural" v="cape" />
		<tag k="ssr:stedsnr" v="132290" />
	</node>
	<node id="-577119" lat="62.5292416656" lon="6.25294444854">
		<tag k="name" v="Høgholmen" />
		<tag k="place" v="islet" />
		<tag k="ssr:stedsnr" v="132189" />
	</node>
	<node id="-577118" lat="62.5261805595" lon="6.55099166294">
		<tag k="name" v="Rundvika" />
		<tag k="natural" v="bay" />
		<tag k="ssr:stedsnr" v="132158" />
	</node>
	<node id="-577115" lat="62.6482666683" lon="6.33318611886">
		<tag k="name" v="Brørne" />
		<tag k="natural" v="shoal" />
		<tag k="place" v="locality" />
		<tag k="ssr:stedsnr" v="113680" />
	</node>
	<node id="-577114" lat="62.652625" lon="6.1729333404">
		<tag k="name" v="Nesflua" />
		<tag k="natural" v="shoal" />
		<tag k="place" v="locality" />
		<tag k="ssr:stedsnr" v="113719" />
	</node>
	<node id="-577113" lat="62.7607861084" lon="6.05281667245">
		<tag k="name" v="Eggaendane" />
		<tag k="place" v="locality" />
		<tag k="ssr:stedsnr" v="113311" />
	</node>
	<node id="-577112" lat="62.6543500022" lon="6.10831389436">
		<tag k="name" v="Austre Naggen" />
		<tag k="natural" v="shoal" />
		<tag k="place" v="locality" />
		<tag k="ssr:stedsnr" v="113617" />
	</node>
	<node id="-577111" lat="62.6138027744" lon="6.13396666693">
		<tag k="name" v="Ravnen" />
		<tag k="natural" v="shoal" />
		<tag k="place" v="locality" />
		<tag k="ssr:stedsnr" v="112642" />
	</node>
	<node id="-577110" lat="62.6235361135" lon="6.13776665907">
		<tag k="name" v="Store Rået" />
		<tag k="place" v="locality" />
		<tag k="seamark:type" v="rock" />
		<tag k="ssr:stedsnr" v="112513" />
	</node>
	<node id="-577109" lat="62.6370805518" lon="6.13860556052">
		<tag k="name" v="Kjedalsfallet" />
		<tag k="natural" v="shoal" />
		<tag k="place" v="locality" />
		<tag k="ssr:stedsnr" v="112511" />
	</node>
	<node id="-577108" lat="62.5900972197" lon="6.60545000526">
		<tag k="name" v="Fiskeberga" />
		<tag k="natural" v="bay" />
		<tag k="ssr:stedsnr" v="111977" />
	</node>
	<node id="-577107" lat="62.6199194423" lon="6.60959721352">
		<tag k="name" v="Kobbholmane" />
		<tag k="place" v="islet" />
		<tag k="ssr:stedsnr" v="111940" />
	</node>
	<node id="-577106" lat="62.5985694489" lon="6.63146110644">
		<tag k="name" v="Longeneset" />
		<tag k="natural" v="cape" />
		<tag k="ssr:stedsnr" v="111936" />
	</node>
	<node id="-577102" lat="62.5672916673" lon="6.4593166638">
		<tag k="name" v="Skareneset" />
		<tag k="natural" v="cape" />
		<tag k="ssr:stedsnr" v="95897" />
	</node>
	<node id="-577099" lat="62.5855666648" lon="6.43084167526">
		<tag k="name" v="Skareneset" />
		<tag k="natural" v="cape" />
		<tag k="ssr:stedsnr" v="95878" />
	</node>
	<node id="-577090" lat="62.5312166649" lon="6.32414443885">
		<tag k="name" v="Naustvika" />
		<tag k="natural" v="bay" />
		<tag k="ssr:stedsnr" v="95543" />
	</node>
	<node id="-577084" lat="62.5264888918" lon="6.54761666854">
		<tag k="name" v="Åneset" />
		<tag k="natural" v="cape" />
		<tag k="ssr:stedsnr" v="95005" />
	</node>
	<node id="-577083" lat="62.5735388863" lon="6.62435000455">
		<tag k="name" v="Merraflua" />
		<tag k="natural" v="shoal" />
		<tag k="place" v="locality" />
		<tag k="ssr:stedsnr" v="94993" />
	</node>
	<node id="-577079" lat="62.5914111134" lon="6.60392500435">
		<tag k="name" v="Lauvneset" />
		<tag k="natural" v="cape" />
		<tag k="ssr:stedsnr" v="94795" />
	</node>
	<node id="-577078" lat="62.5908972245" lon="6.60008055915">
		<tag k="name" v="Båsebukta" />
		<tag k="natural" v="bay" />
		<tag k="ssr:stedsnr" v="94794" />
	</node>
	<node id="-577076" lat="62.5300277813" lon="6.57682777496">
		<tag k="name" v="Kobbeneset" />
		<tag k="natural" v="cape" />
		<tag k="ssr:stedsnr" v="94697" />
	</node>
	<node id="-577073" lat="62.5407555527" lon="6.5750722231">
		<tag k="name" v="Eidsviksanden" />
		<tag k="natural" v="beach" />
		<tag k="place" v="locality" />
		<tag k="ssr:stedsnr" v="94661" />
	</node>
	<node id="-577069" lat="62.605538892" lon="6.62757222967">
		<tag k="name" v="Niggardsneset" />
		<tag k="natural" v="cape" />
		<tag k="ssr:stedsnr" v="94886" />
	</node>
	<node id="-577067" lat="62.6163333298" lon="6.48080555013">
		<tag k="name" v="Nøsa" />
		<tag k="natural" v="cape" />
		<tag k="ssr:stedsnr" v="94859" />
	</node>
	<node id="-577059" lat="62.6204777777" lon="6.66378334221">
		<tag k="name" v="Rognebukta" />
		<tag k="natural" v="bay" />
		<tag k="ssr:stedsnr" v="94567" />
	</node>
	<node id="-577057" lat="62.6305944425" lon="6.61573610392">
		<tag k="name" v="Ospaneset" />
		<tag k="natural" v="cape" />
		<tag k="ssr:stedsnr" v="94246" />
	</node>
	<node id="-576432" lat="62.6078210881" lon="6.45411996824">
		<tag k="name" v="Naustvågen" />
		<tag k="natural" v="strait" />
		<tag k="ssr:stedsnr" v="314485" />
	</node>
	<node id="-577052" lat="62.6097388871" lon="6.41661944955">
		<tag k="name" v="Skjeljavika" />
		<tag k="natural" v="bay" />
		<tag k="ssr:stedsnr" v="93906" />
	</node>
	<node id="-577039" lat="62.6770694427" lon="6.25503611053">
		<tag k="name" v="Stutteneset" />
		<tag k="natural" v="cape" />
		<tag k="ssr:stedsnr" v="93574" />
	</node>
	<node id="-577037" lat="62.6457222182" lon="6.2642027813">
		<tag k="name" v="Stonga" />
		<tag k="place" v="locality" />
		<tag k="seamark:type" v="rock" />
		<tag k="ssr:stedsnr" v="93475" />
	</node>
	<node id="-577028" lat="62.5329999971" lon="6.24995555037">
		<tag k="fixme" v="consider seamark:type=rock or natural=shoal" />
		<tag k="name" v="Haneskjeret" />
		<tag k="place" v="islet" />
		<tag k="ssr:stedsnr" v="93266" />
	</node>
	<node id="-577026" lat="62.5623333292" lon="6.25362500966">
		<tag k="name" v="Terøyholmen" />
		<tag k="place" v="islet" />
		<tag k="ssr:stedsnr" v="93242" />
	</node>
	<node id="-577025" lat="62.5187111074" lon="6.17109165941">
		<tag k="name" v="Litlebrattholmen" />
		<tag k="place" v="islet" />
		<tag k="ssr:stedsnr" v="93036" />
	</node>
	<node id="-577022" lat="62.6091472248" lon="6.66459166218">
		<tag k="loc_name" v="Årnes" />
		<tag k="name" v="Årneset" />
		<tag k="natural" v="cape" />
		<tag k="ssr:stedsnr" v="86915" />
	</node>
	<node id="-577018" lat="62.6136416665" lon="6.43105277481">
		<tag k="name" v="Juvikholmen" />
		<tag k="place" v="islet" />
		<tag k="ssr:stedsnr" v="81074" />
	</node>
	<node id="-577017" lat="62.6653499976" lon="6.14157499284">
		<tag k="name" v="Stavnesfluda" />
		<tag k="natural" v="shoal" />
		<tag k="place" v="locality" />
		<tag k="ssr:stedsnr" v="80250" />
	</node>
	<node id="-577016" lat="62.6258777804" lon="6.57018611634">
		<tag k="name" v="Nesholmen" />
		<tag k="place" v="islet" />
		<tag k="ssr:stedsnr" v="73497" />
	</node>
	<node id="-577015" lat="62.6091583331" lon="6.21810834295">
		<tag k="name" v="Rosvika" />
		<tag k="natural" v="bay" />
		<tag k="ssr:stedsnr" v="73482" />
	</node>
	<node id="-577014" lat="62.6152861115" lon="6.46760277766">
		<tag k="name" v="Rundevika" />
		<tag k="natural" v="bay" />
		<tag k="ssr:stedsnr" v="73458" />
	</node>
	<node id="-577013" lat="62.6180388921" lon="6.53181110913">
		<tag k="name" v="Skorabukta" />
		<tag k="natural" v="bay" />
		<tag k="ssr:stedsnr" v="73457" />
	</node>
	<node id="-577006" lat="62.7282583355" lon="6.25889166654">
		<tag k="name" v="Bombeskallen" />
		<tag k="natural" v="shoal" />
		<tag k="place" v="locality" />
		<tag k="ssr:stedsnr" v="72832" />
	</node>
	<node id="-577005" lat="62.7237388908" lon="6.24224721485">
		<tag k="name" v="Seipinnane" />
		<tag k="natural" v="shoal" />
		<tag k="place" v="locality" />
		<tag k="ssr:stedsnr" v="72831" />
	</node>
	<node id="-577004" lat="62.7133944409" lon="6.38741389106">
		<tag k="name" v="Hellvikfluna" />
		<tag k="natural" v="shoal" />
		<tag k="place" v="locality" />
		<tag k="ssr:stedsnr" v="72792" />
	</node>
	<node id="-577003" lat="62.709694445" lon="6.37484999416">
		<tag k="name" v="Fjørtoftsvikane" />
		<tag k="natural" v="bay" />
		<tag k="ssr:stedsnr" v="72790" />
	</node>
	<node id="-577000" lat="62.5463027773" lon="6.20057776952">
		<tag k="name" v="Bølet" />
		<tag k="place" v="islet" />
		<tag k="ssr:stedsnr" v="72754" />
	</node>
	<node id="-576999" lat="62.7491083309" lon="6.22479444895">
		<tag k="name" v="Systrene" />
		<tag k="natural" v="shoal" />
		<tag k="place" v="locality" />
		<tag k="ssr:stedsnr" v="72735" />
	</node>
	<node id="-576998" lat="62.6212777807" lon="6.16989165789">
		<tag k="name" v="Lepsøya" />
		<tag k="place" v="island" />
		<tag k="ssr:stedsnr" v="72686" />
	</node>
	<node id="-576997" lat="62.640402776" lon="6.09415554817">
		<tag k="name" v="Innholmsfluda" />
		<tag k="natural" v="shoal" />
		<tag k="place" v="locality" />
		<tag k="ssr:stedsnr" v="72685" />
	</node>
	<node id="-576996" lat="62.654336109" lon="6.1852861208">
		<tag k="name" v="Florvågen" />
		<tag k="natural" v="bay" />
		<tag k="ssr:stedsnr" v="72672" />
	</node>
	<node id="-576963" lat="62.5323638895" lon="6.35892221908">
		<tag k="name" v="Grytaholmen" />
		<tag k="place" v="islet" />
		<tag k="ssr:stedsnr" v="72204" />
	</node>
	<node id="-576961" lat="62.71369167" lon="6.38832777024">
		<tag k="name" v="Hellevikflua" />
		<tag k="natural" v="shoal" />
		<tag k="place" v="locality" />
		<tag k="ssr:stedsnr" v="52663" />
	</node>
	<node id="-576960" lat="62.6684805544" lon="5.99936944213">
		<tag k="name" v="Svartegrunnen" />
		<tag k="natural" v="shoal" />
		<tag k="place" v="locality" />
		<tag k="ssr:stedsnr" v="52304" />
	</node>
	<node id="-576959" lat="62.7035944468" lon="5.9775972313">
		<tag k="name" v="Nordre Ivarskallen" />
		<tag k="natural" v="shoal" />
		<tag k="place" v="locality" />
		<tag k="ssr:stedsnr" v="52299" />
	</node>
	<node id="-576958" lat="62.6991416675" lon="5.92694722391">
		<tag k="name" v="Vidgrunnen" />
		<tag k="place" v="locality" />
		<tag k="ssr:stedsnr" v="52298" />
	</node>
	<node id="-576957" lat="62.7750166687" lon="5.96969167259">
		<tag k="name" v="Skåragrunnen" />
		<tag k="place" v="locality" />
		<tag k="ssr:stedsnr" v="52281" />
	</node>
	<node id="-576956" lat="62.740636114" lon="6.32496944594">
		<tag k="name" v="Brunkleggen" />
		<tag k="place" v="islet" />
		<tag k="ssr:stedsnr" v="52276" />
	</node>
	<node id="-576955" lat="62.6314027818" lon="6.5754138908">
		<tag k="name" v="Baraldsnesdjupet" />
		<tag k="place" v="locality" />
		<tag k="ssr:stedsnr" v="51905" />
	</node>
	<node id="-576954" lat="62.5742444423" lon="6.24030278482">
		<tag k="name" v="Skarvenesflua" />
		<tag k="natural" v="shoal" />
		<tag k="place" v="locality" />
		<tag k="ssr:stedsnr" v="51858" />
	</node>
	<node id="-576953" lat="62.5522249955" lon="6.18906666226">
		<tag k="fixme" v="consider seamark:type=rock or natural=shoal" />
		<tag k="name" v="Hanen" />
		<tag k="place" v="islet" />
		<tag k="ssr:stedsnr" v="51768" />
	</node>
	<node id="-576952" lat="62.5388388932" lon="6.20098888007">
		<tag k="fixme" v="consider seamark:type=rock or natural=shoal" />
		<tag k="name" v="Leiaskjera" />
		<tag k="old_name" v="Leiaskjæra" />
		<tag k="place" v="islet" />
		<tag k="ssr:stedsnr" v="51598" />
	</node>
	<node id="-576951" lat="62.7276416635" lon="6.28905554928">
		<tag k="name" v="Skulken" />
		<tag k="natural" v="shoal" />
		<tag k="place" v="locality" />
		<tag k="ssr:stedsnr" v="51377" />
	</node>
	<node id="-576950" lat="62.7262805534" lon="6.38486666673">
		<tag k="name" v="Nordre Stabberengene" />
		<tag k="natural" v="shoal" />
		<tag k="place" v="locality" />
		<tag k="ssr:stedsnr" v="51214" />
	</node>
	<node id="-576949" lat="62.5830111097" lon="6.61012777022">
		<tag k="name" v="Rota" />
		<tag k="natural" v="cape" />
		<tag k="ssr:stedsnr" v="50973" />
	</node>
	<node id="-576948" lat="62.6288888935" lon="6.620966675">
		<tag k="name" v="Klubbesundet" />
		<tag k="natural" v="strait" />
		<tag k="ssr:stedsnr" v="50946" />
	</node>
	<node id="-576947" lat="62.6091611099" lon="6.62014999769">
		<tag k="name" v="Hellesundet" />
		<tag k="natural" v="strait" />
		<tag k="ssr:stedsnr" v="50943" />
	</node>
	<node id="-576946" lat="62.6026333364" lon="6.61225277682">
		<tag k="name" v="Orvikholmflua" />
		<tag k="natural" v="shoal" />
		<tag k="place" v="locality" />
		<tag k="ssr:stedsnr" v="50940" />
	</node>
	<node id="-576945" lat="62.6899222198" lon="6.38279999139">
		<tag k="name" v="Olaholmen" />
		<tag k="place" v="islet" />
		<tag k="ssr:stedsnr" v="50910" />
	</node>
	<node id="-576413" lat="62.6067166644" lon="6.31754165814">
		<tag k="name" v="Kvalsteingrynna" />
		<tag k="natural" v="shoal" />
		<tag k="place" v="locality" />
		<tag k="ssr:stedsnr" v="294726" />
	</node>
	<node id="-576939" lat="62.5803722191" lon="6.4659333401">
		<tag k="name" v="Skareneset" />
		<tag k="place" v="islet" />
		<tag k="ssr:stedsnr" v="34877" />
	</node>
	<node id="-576938" lat="62.5341833301" lon="6.37675556227">
		<tag k="name" v="Kjeberget" />
		<tag k="natural" v="cape" />
		<tag k="ssr:stedsnr" v="34728" />
	</node>
	<node id="-578801" lat="62.6822777772" lon="6.15136111844">
		<tag k="name" v="Hornhammarflua" />
		<tag k="natural" v="shoal" />
		<tag k="place" v="locality" />
		<tag k="ssr:stedsnr" v="963682" />
	</node>
	<node id="-576932" lat="62.5977444487" lon="6.45260554982">
		<tag k="name" v="Maggavågen" />
		<tag k="natural" v="bay" />
		<tag k="ssr:stedsnr" v="34489" />
	</node>
	<node id="-576930" lat="62.5319722224" lon="6.44561110694">
		<tag k="name" v="Årsetvika" />
		<tag k="natural" v="bay" />
		<tag k="ssr:stedsnr" v="34419" />
	</node>
	<node id="-576752" lat="62.6283694447" lon="6.66301111854">
		<tag k="name" v="Grøtneset" />
		<tag k="natural" v="cape" />
		<tag k="ssr:stedsnr" v="883015" />
	</node>
	<node id="-576923" lat="62.6138611116" lon="6.60648056117">
		<tag k="name" v="Instholmane" />
		<tag k="place" v="islet" />
		<tag k="ssr:stedsnr" v="34340" />
	</node>
	<node id="-576922" lat="62.5419361113" lon="6.53086944083">
		<tag k="name" v="Vika" />
		<tag k="natural" v="bay" />
		<tag k="ssr:stedsnr" v="34065" />
	</node>
	<node id="-576921" lat="62.5267777768" lon="6.53437500702">
		<tag k="name" v="Vogga" />
		<tag k="natural" v="bay" />
		<tag k="ssr:stedsnr" v="34005" />
	</node>
	<node id="-576914" lat="62.6165694436" lon="6.52824166996">
		<tag k="name" v="Gjerdebukta" />
		<tag k="natural" v="bay" />
		<tag k="ssr:stedsnr" v="33853" />
	</node>
	<node id="-576913" lat="62.6070583326" lon="6.66504722986">
		<tag k="bay" v="fjord" />
		<tag k="name" v="Vestrefjorden" />
		<tag k="natural" v="bay" />
		<tag k="ssr:stedsnr" v="33842" />
	</node>
	<node id="-576749" lat="62.6375722186" lon="6.14883889032">
		<tag k="name" v="Keila" />
		<tag k="natural" v="bay" />
		<tag k="ssr:stedsnr" v="882925" />
	</node>
	<node id="-576905" lat="62.6113027812" lon="6.65901944027">
		<tag k="name" v="Hagardsneset" />
		<tag k="natural" v="cape" />
		<tag k="ssr:stedsnr" v="33556" />
	</node>
	<node id="-576899" lat="62.5957611099" lon="6.28898334309">
		<tag k="name" v="Hurlaræene" />
		<tag k="natural" v="shoal" />
		<tag k="place" v="locality" />
		<tag k="ssr:stedsnr" v="32946" />
	</node>
	<node id="-576895" lat="62.588224999" lon="6.26613610221">
		<tag k="name" v="Gunnaneset" />
		<tag k="natural" v="cape" />
		<tag k="ssr:stedsnr" v="32895" />
	</node>
	<node id="-576894" lat="62.5873277767" lon="6.2666166644">
		<tag k="name" v="Gunnavika" />
		<tag k="natural" v="bay" />
		<tag k="ssr:stedsnr" v="32894" />
	</node>
	<node id="-576889" lat="62.6261722218" lon="6.20626666457">
		<tag k="name" v="Storneset" />
		<tag k="natural" v="cape" />
		<tag k="ssr:stedsnr" v="32636" />
	</node>
	<node id="-576888" lat="62.6908166691" lon="6.24977223139">
		<tag k="name" v="Litlevika" />
		<tag k="natural" v="bay" />
		<tag k="ssr:stedsnr" v="32592" />
	</node>
	<node id="-576879" lat="62.6892861079" lon="6.22588888576">
		<tag k="fixme" v="consider seamark:type=rock or natural=shoal" />
		<tag k="name" v="Kråkungen" />
		<tag k="place" v="islet" />
		<tag k="ssr:stedsnr" v="32291" />
	</node>
	<node id="-576878" lat="62.528694444" lon="6.25420000713">
		<tag k="name" v="Langholmen" />
		<tag k="place" v="islet" />
		<tag k="ssr:stedsnr" v="32276" />
	</node>
	<node id="-576876" lat="62.5943166624" lon="6.18528054725">
		<tag k="bay" v="fjord" />
		<tag k="name" v="Vigrafjorden" />
		<tag k="natural" v="bay" />
		<tag k="ssr:stedsnr" v="30629" />
	</node>
	<node id="-576873" lat="62.7217583327" lon="6.02468889533">
		<tag k="name" v="Seigrunnen" />
		<tag k="natural" v="shoal" />
		<tag k="place" v="locality" />
		<tag k="ssr:stedsnr" v="25672" />
	</node>
	<node id="-576871" lat="62.6842750038" lon="6.04310000118">
		<tag k="name" v="Skalmeskallane" />
		<tag k="natural" v="shoal" />
		<tag k="place" v="locality" />
		<tag k="ssr:stedsnr" v="20137" />
	</node>
	<node id="-576867" lat="62.7375444404" lon="6.23819723037">
		<tag k="name" v="Gryvla" />
		<tag k="natural" v="shoal" />
		<tag k="place" v="locality" />
		<tag k="ssr:stedsnr" v="12857" />
	</node>
	<node id="-576866" lat="62.7352944454" lon="6.25539999162">
		<tag k="name" v="Gregorskallen" />
		<tag k="natural" v="shoal" />
		<tag k="place" v="locality" />
		<tag k="ssr:stedsnr" v="12854" />
	</node>
	<node id="-576864" lat="62.6763722262" lon="6.16890833205">
		<tag k="name" v="Stabben" />
		<tag k="natural" v="cape" />
		<tag k="ssr:stedsnr" v="12696" />
	</node>
	<node id="-576863" lat="62.6520666656" lon="6.33524445123">
		<tag k="name" v="Rogneneset" />
		<tag k="natural" v="cape" />
		<tag k="ssr:stedsnr" v="12475" />
	</node>
	<node id="-576399" lat="62.5294361119" lon="6.30732776932">
		<tag k="name" v="Friarvika" />
		<tag k="natural" v="bay" />
		<tag k="ssr:stedsnr" v="277567" />
	</node>
	<node id="-576856" lat="62.6125861072" lon="6.58936388275">
		<tag k="name" v="Storvika" />
		<tag k="natural" v="bay" />
		<tag k="ssr:stedsnr" v="12249" />
	</node>
	<node id="-576853" lat="62.7291277788" lon="6.23136943841">
		<tag k="name" v="Flørimmane" />
		<tag k="natural" v="shoal" />
		<tag k="place" v="locality" />
		<tag k="ssr:stedsnr" v="12836" />
	</node>
	<node id="-576851" lat="62.7000250031" lon="6.34268056444">
		<tag k="name" v="Krokane" />
		<tag k="natural" v="cape" />
		<tag k="ssr:stedsnr" v="11930" />
	</node>
	<node id="-576850" lat="62.7083944436" lon="6.42343332536">
		<tag k="name" v="Kongsneset" />
		<tag k="natural" v="cape" />
		<tag k="ssr:stedsnr" v="11901" />
	</node>
	<node id="-576849" lat="62.729802775" lon="6.28243611716">
		<tag k="name" v="Langflesa" />
		<tag k="place" v="islet" />
		<tag k="ssr:stedsnr" v="11859" />
	</node>
	<node id="-576848" lat="62.7097694411" lon="6.29605277189">
		<tag k="name" v="Brunkarfluna" />
		<tag k="natural" v="shoal" />
		<tag k="place" v="locality" />
		<tag k="ssr:stedsnr" v="11839" />
	</node>
	<node id="-576846" lat="62.7424388873" lon="6.32300277627">
		<tag k="fixme" v="consider seamark:type=rock or natural=shoal" />
		<tag k="name" v="Rognbollen" />
		<tag k="place" v="islet" />
		<tag k="ssr:stedsnr" v="11755" />
	</node>
	<node id="-576844" lat="62.6967916706" lon="6.12018054606">
		<tag k="name" v="Langboen" />
		<tag k="natural" v="shoal" />
		<tag k="place" v="locality" />
		<tag k="ssr:stedsnr" v="11735" />
	</node>
	<node id="-576842" lat="62.6204416696" lon="6.62349443452">
		<tag k="name" v="Digerneset" />
		<tag k="natural" v="cape" />
		<tag k="ssr:stedsnr" v="11451" />
	</node>
	<node id="-576839" lat="62.6208222192" lon="6.59780277483">
		<tag k="name" v="Meøya" />
		<tag k="place" v="island" />
		<tag k="ssr:stedsnr" v="11438" />
	</node>
	<node id="-576838" lat="62.614428838" lon="6.59977011868">
		<tag k="name" v="Løvøybukta" />
		<tag k="natural" v="bay" />
		<tag k="ssr:stedsnr" v="11434" />
	</node>
	<node id="-576830" lat="62.5713888904" lon="6.237566662">
		<tag k="name" v="Skarveneset" />
		<tag k="natural" v="cape" />
		<tag k="ssr:stedsnr" v="11334" />
	</node>
	<node id="-576824" lat="62.5254916658" lon="6.22263332414">
		<tag k="name" v="Buholmen" />
		<tag k="place" v="islet" />
		<tag k="ssr:stedsnr" v="11188" />
	</node>
	<node id="-576820" lat="62.6876687721" lon="6.26247398498">
		<tag k="name" v="Sandvika" />
		<tag k="natural" v="bay" />
		<tag k="ssr:stedsnr" v="983061" />
	</node>
	<node id="-576805" lat="62.8833333342" lon="5.88333333397">
		<tag k="name" v="Fjørtoftgrynna" />
		<tag k="natural" v="shoal" />
		<tag k="place" v="locality" />
		<tag k="ssr:stedsnr" v="406624" />
	</node>
	<node id="-576804" lat="62.83333333" lon="6.01666666439">
		<tag k="name" v="Valderøyskolten" />
		<tag k="place" v="locality" />
		<tag k="ssr:stedsnr" v="345607" />
	</node>
	<node id="-576801" lat="62.5790999969" lon="6.45657777969">
		<tag k="name" v="Langeneset" />
		<tag k="natural" v="cape" />
		<tag k="ssr:stedsnr" v="884888" />
	</node>
	<node id="-576800" lat="62.5754027751" lon="6.45985555297">
		<tag k="name" v="Klubbane" />
		<tag k="place" v="islet" />
		<tag k="ssr:stedsnr" v="884883" />
	</node>
	<node id="-576794" lat="62.5658722229" lon="6.53739443654">
		<tag k="name" v="Sætrevika" />
		<tag k="natural" v="bay" />
		<tag k="ssr:stedsnr" v="884508" />
	</node>
	<node id="-576791" lat="62.630738888" lon="6.60868332413">
		<tag k="name" v="Grønbakkvika" />
		<tag k="natural" v="bay" />
		<tag k="ssr:stedsnr" v="884368" />
	</node>
	<node id="-576789" lat="62.5538527798" lon="6.46257778333">
		<tag k="bay" v="fjord" />
		<tag k="name" v="Skulestadhavet" />
		<tag k="natural" v="bay" />
		<tag k="ssr:stedsnr" v="884345" />
	</node>
	<node id="-576727" lat="62.608122223" lon="6.25558333989">
		<tag k="name" v="Grøtneset" />
		<tag k="natural" v="cape" />
		<tag k="ssr:stedsnr" v="882365" />
	</node>
	<node id="-576773" lat="62.6106333298" lon="6.45154999756">
		<tag k="name" v="Brudafluda" />
		<tag k="natural" v="shoal" />
		<tag k="place" v="locality" />
		<tag k="ssr:stedsnr" v="883881" />
	</node>
	<node id="-576772" lat="62.6148972197" lon="6.45980555875">
		<tag k="name" v="Knarravika" />
		<tag k="natural" v="bay" />
		<tag k="ssr:stedsnr" v="883874" />
	</node>
	<node id="-578803" lat="62.6615000004" lon="6.11478334066">
		<tag k="name" v="Daudingane" />
		<tag k="natural" v="shoal" />
		<tag k="place" v="locality" />
		<tag k="ssr:stedsnr" v="963687" />
	</node>
	<node id="-578802" lat="62.6709277779" lon="6.16523054792">
		<tag k="name" v="Liabukta" />
		<tag k="natural" v="bay" />
		<tag k="ssr:stedsnr" v="963683" />
	</node>
	<node id="-578771" lat="62.528280551" lon="6.57091388495">
		<tag k="name" v="Lønesbukta" />
		<tag k="natural" v="bay" />
		<tag k="ssr:stedsnr" v="944676" />
	</node>
	<node id="-578800" lat="62.7168305583" lon="6.31385833038">
		<tag k="name" v="Lisje Helleboen" />
		<tag k="natural" v="shoal" />
		<tag k="place" v="locality" />
		<tag k="ssr:stedsnr" v="962706" />
	</node>
	<node id="-578799" lat="62.6772638928" lon="6.25208610238">
		<tag k="name" v="Flemsvika" />
		<tag k="natural" v="bay" />
		<tag k="ssr:stedsnr" v="962682" />
	</node>
	<node id="-578798" lat="62.6824472193" lon="5.95145278663">
		<tag k="name" v="Småskallane" />
		<tag k="natural" v="shoal" />
		<tag k="place" v="locality" />
		<tag k="ssr:stedsnr" v="962309" />
	</node>
	<node id="-578797" lat="62.7820833356" lon="6.05751388441">
		<tag k="name" v="Stabbursmarka" />
		<tag k="place" v="locality" />
		<tag k="ssr:stedsnr" v="962294" />
	</node>
	<node id="-578796" lat="62.6572972194" lon="6.02430555466">
		<tag k="name" v="Indre Kallane" />
		<tag k="natural" v="shoal" />
		<tag k="place" v="locality" />
		<tag k="ssr:stedsnr" v="961932" />
	</node>
	<node id="-578794" lat="62.6216777792" lon="6.65947222197">
		<tag k="name" v="Revet" />
		<tag k="natural" v="shoal" />
		<tag k="place" v="locality" />
		<tag k="ssr:stedsnr" v="960932" />
	</node>
	<node id="-576379" lat="62.5799416651" lon="6.60717778075">
		<tag k="name" v="Grøtholmbukta" />
		<tag k="natural" v="bay" />
		<tag k="ssr:stedsnr" v="276950" />
	</node>
	<node id="-578780" lat="62.5909333316" lon="6.63190278232">
		<tag k="name" v="Ormeneset" />
		<tag k="natural" v="cape" />
		<tag k="ssr:stedsnr" v="944867" />
	</node>
	<node id="-576730" lat="62.6863472197" lon="6.17156389609">
		<tag k="fixme" v="consider seamark:type=rock or natural=shoal" />
		<tag k="name" v="Svarteskjeret" />
		<tag k="place" v="islet" />
		<tag k="ssr:stedsnr" v="882475" />
	</node>
	<node id="-576728" lat="62.5896194487" lon="6.24466110951">
		<tag k="alt_name" v="Kvenna" />
		<tag k="fixme" v="consider seamark:type=rock or natural=shoal" />
		<tag k="name" v="Kverna" />
		<tag k="place" v="islet" />
		<tag k="ssr:stedsnr" v="882368" />
	</node>
	<node id="-578775" lat="62.5347055517" lon="6.36850554993">
		<tag k="name" v="Grytavika" />
		<tag k="natural" v="bay" />
		<tag k="ssr:stedsnr" v="944758" />
	</node>
	<node id="-578774" lat="62.5340750002" lon="6.3730250061">
		<tag k="name" v="Øyraneset" />
		<tag k="natural" v="cape" />
		<tag k="ssr:stedsnr" v="944757" />
	</node>
	<node id="-576725" lat="62.6819027774" lon="6.18209999175">
		<tag k="fixme" v="consider seamark:type=rock or natural=shoal" />
		<tag k="name" v="Svarteskjeret" />
		<tag k="place" v="islet" />
		<tag k="ssr:stedsnr" v="882307" />
	</node>
	<node id="-576724" lat="62.686377774" lon="6.19297222263">
		<tag k="name" v="Mjelteneset" />
		<tag k="natural" v="cape" />
		<tag k="ssr:stedsnr" v="882303" />
	</node>
	<node id="-576723" lat="62.6830500046" lon="6.19540000181">
		<tag k="fixme" v="consider seamark:type=rock or natural=shoal" />
		<tag k="name" v="Naustskjeret" />
		<tag k="place" v="islet" />
		<tag k="ssr:stedsnr" v="882299" />
	</node>
	<node id="-576722" lat="62.6852805578" lon="6.21223055264">
		<tag k="fixme" v="consider seamark:type=rock or natural=shoal" />
		<tag k="name" v="Bjørnebben" />
		<tag k="place" v="islet" />
		<tag k="ssr:stedsnr" v="882289" />
	</node>
	<node id="-576721" lat="62.6929472228" lon="6.22838054598">
		<tag k="name" v="Litlegeita" />
		<tag k="natural" v="cape" />
		<tag k="ssr:stedsnr" v="882281" />
	</node>
	<node id="-578768" lat="62.5310638897" lon="6.33346666824">
		<tag k="name" v="Kvernhusvika" />
		<tag k="natural" v="bay" />
		<tag k="ssr:stedsnr" v="944639" />
	</node>
	<node id="-576719" lat="62.5528861141" lon="6.26452777957">
		<tag k="name" v="Kyrkjeneset" />
		<tag k="natural" v="cape" />
		<tag k="ssr:stedsnr" v="882241" />
	</node>
	<node id="-576718" lat="62.6432666668" lon="6.07369443781">
		<tag k="name" v="Snøskiten" />
		<tag k="natural" v="shoal" />
		<tag k="place" v="locality" />
		<tag k="ssr:stedsnr" v="477929" />
	</node>
	<node id="-576717" lat="62.6308083362" lon="6.27814165992">
		<tag k="name" v="Storeflua" />
		<tag k="natural" v="shoal" />
		<tag k="place" v="locality" />
		<tag k="ssr:stedsnr" v="477761" />
	</node>
	<node id="-576716" lat="62.7095694409" lon="6.35911665808">
		<tag k="name" v="Geilflua" />
		<tag k="natural" v="shoal" />
		<tag k="place" v="locality" />
		<tag k="ssr:stedsnr" v="477744" />
	</node>
	<node id="-576715" lat="62.6546972245" lon="6.1015444484">
		<tag k="name" v="Vestre Naggen" />
		<tag k="natural" v="shoal" />
		<tag k="place" v="locality" />
		<tag k="ssr:stedsnr" v="477678" />
	</node>
	<node id="-576714" lat="62.6933027759" lon="6.24920833442">
		<tag k="name" v="Kjeholmen" />
		<tag k="place" v="islet" />
		<tag k="ssr:stedsnr" v="477669" />
	</node>
	<node id="-576713" lat="62.6597000006" lon="6.11248054784">
		<tag k="name" v="Karlshusgrunnen" />
		<tag k="natural" v="shoal" />
		<tag k="place" v="locality" />
		<tag k="ssr:stedsnr" v="476920" />
	</node>
	<node id="-576712" lat="62.6088722192" lon="6.26746111325">
		<tag k="name" v="Hestsøyla" />
		<tag k="place" v="locality" />
		<tag k="ssr:stedsnr" v="476728" />
	</node>
	<node id="-576711" lat="62.613824999" lon="6.35688889122">
		<tag k="name" v="Skanseflua" />
		<tag k="natural" v="shoal" />
		<tag k="place" v="locality" />
		<tag k="ssr:stedsnr" v="476673" />
	</node>
	<node id="-576710" lat="62.704719443" lon="6.01089166689">
		<tag k="name" v="Helleviksøyla" />
		<tag k="place" v="locality" />
		<tag k="ssr:stedsnr" v="476338" />
	</node>
	<node id="-576709" lat="62.7381861081" lon="6.23876387996">
		<tag k="name" v="Gryvleskallen" />
		<tag k="natural" v="shoal" />
		<tag k="place" v="locality" />
		<tag k="ssr:stedsnr" v="476323" />
	</node>
	<node id="-576708" lat="62.7241861082" lon="5.99659166623">
		<tag k="name" v="Røhammarskallen" />
		<tag k="natural" v="shoal" />
		<tag k="place" v="locality" />
		<tag k="ssr:stedsnr" v="476315" />
	</node>
	<node id="-578752" lat="62.6161777803" lon="6.60562778026">
		<tag k="name" v="Ytstholmen" />
		<tag k="place" v="islet" />
		<tag k="ssr:stedsnr" v="944443" />
	</node>
	<node id="-576703" lat="62.6047083289" lon="6.31483333168">
		<tag k="name" v="Gjerderæene" />
		<tag k="natural" v="shoal" />
		<tag k="place" v="locality" />
		<tag k="ssr:stedsnr" v="398617" />
	</node>
	<node id="-578747" lat="62.6035499995" lon="6.66717778473">
		<tag k="name" v="Langeneset" />
		<tag k="natural" v="cape" />
		<tag k="ssr:stedsnr" v="944833" />
	</node>
	<node id="-578746" lat="62.6114583366" lon="6.454325001">
		<tag k="name" v="Grøtholmen" />
		<tag k="place" v="islet" />
		<tag k="ssr:stedsnr" v="944822" />
	</node>
	<node id="-576696" lat="62.5926694419" lon="6.44827500884">
		<tag k="name" v="Vågen" />
		<tag k="natural" v="bay" />
		<tag k="ssr:stedsnr" v="398476" />
	</node>
	<node id="-576695" lat="62.5942333374" lon="6.45458332645">
		<tag k="name" v="Leirvika" />
		<tag k="natural" v="bay" />
		<tag k="ssr:stedsnr" v="398474" />
	</node>
	<node id="-576353" lat="62.6106694435" lon="6.59654721985">
		<tag k="name" v="Leirvika" />
		<tag k="natural" v="bay" />
		<tag k="ssr:stedsnr" v="276463" />
	</node>
	<node id="-576691" lat="62.6255666662" lon="6.60260555586">
		<tag k="name" v="Naustneset" />
		<tag k="natural" v="cape" />
		<tag k="ssr:stedsnr" v="398326" />
	</node>
	<node id="-578738" lat="62.7061944488" lon="6.32337778193">
		<tag k="name" v="Gjerdsvika" />
		<tag k="natural" v="bay" />
		<tag k="ssr:stedsnr" v="943950" />
	</node>
	<node id="-578736" lat="62.7087166654" lon="6.37057221997">
		<tag k="name" v="Naustvika" />
		<tag k="natural" v="bay" />
		<tag k="ssr:stedsnr" v="943935" />
	</node>
	<node id="-578735" lat="62.6896555566" lon="6.41191111287">
		<tag k="name" v="Davika" />
		<tag k="natural" v="bay" />
		<tag k="ssr:stedsnr" v="943928" />
	</node>
	<node id="-578732" lat="62.5270777814" lon="6.53338889803">
		<tag k="fixme" v="consider seamark:type=rock or natural=shoal" />
		<tag k="name" v="Lyrsteinen" />
		<tag k="place" v="islet" />
		<tag k="ssr:stedsnr" v="944006" />
	</node>
	<node id="-576682" lat="62.5870416684" lon="6.61102500532">
		<tag k="alt_name" v="Lauvneset" />
		<tag k="name" v="Inste Lauvneset" />
		<tag k="natural" v="cape" />
		<tag k="ssr:stedsnr" v="397943" />
	</node>
	<node id="-576681" lat="62.5763944432" lon="6.55291388453">
		<tag k="name" v="Kineset" />
		<tag k="natural" v="cape" />
		<tag k="ssr:stedsnr" v="397941" />
	</node>
	<node id="-578726" lat="62.5309861132" lon="6.23569443604">
		<tag k="fixme" v="consider seamark:type=rock or natural=shoal" />
		<tag k="name" v="Kobbeskjeret" />
		<tag k="place" v="islet" />
		<tag k="ssr:stedsnr" v="943361" />
	</node>
	<node id="-578725" lat="62.5502083291" lon="6.24361389402">
		<tag k="name" v="Terøyneset" />
		<tag k="natural" v="cape" />
		<tag k="ssr:stedsnr" v="943304" />
	</node>
	<node id="-578723" lat="62.5794111136" lon="6.25683333062">
		<tag k="name" v="Ungemora" />
		<tag k="natural" v="shoal" />
		<tag k="place" v="locality" />
		<tag k="ssr:stedsnr" v="942915" />
	</node>
	<node id="-578722" lat="62.580747225" lon="6.25614166099">
		<tag k="name" v="Åseneset" />
		<tag k="natural" v="cape" />
		<tag k="ssr:stedsnr" v="942911" />
	</node>
	<node id="-576673" lat="62.6127055582" lon="6.42888611704">
		<tag k="name" v="Djuvika" />
		<tag k="natural" v="bay" />
		<tag k="ssr:stedsnr" v="397848" />
	</node>
	<node id="-578720" lat="62.5835555591" lon="6.25715277041">
		<tag k="name" v="Karrineset" />
		<tag k="natural" v="cape" />
		<tag k="ssr:stedsnr" v="942909" />
	</node>
	<node id="-576429" lat="62.605861114" lon="6.37198055376">
		<tag k="name" v="Reiteneset" />
		<tag k="natural" v="cape" />
		<tag k="ssr:stedsnr" v="314477" />
	</node>
	<node id="-578711" lat="62.687962897" lon="6.28698040612">
		<tag k="name" v="Støvågen" />
		<tag k="natural" v="bay" />
		<tag k="ssr:stedsnr" v="942412" />
	</node>
	<node id="-576662" lat="62.6105194466" lon="6.65919721821">
		<tag k="name" v="Breivika" />
		<tag k="natural" v="bay" />
		<tag k="ssr:stedsnr" v="397526" />
	</node>
	<node id="-578708" lat="62.7301944478" lon="6.10606389565">
		<tag k="name" v="Havboen" />
		<tag k="place" v="locality" />
		<tag k="seamark:type" v="rock" />
		<tag k="ssr:stedsnr" v="935678" />
	</node>
	<node id="-578707" lat="62.6626583375" lon="6.03400000392">
		<tag k="name" v="Utboane" />
		<tag k="natural" v="shoal" />
		<tag k="place" v="locality" />
		<tag k="ssr:stedsnr" v="930231" />
	</node>
	<node id="-578706" lat="62.6894361141" lon="6.16470555549">
		<tag k="name" v="Skåka" />
		<tag k="place" v="islet" />
		<tag k="ssr:stedsnr" v="930147" />
	</node>
	<node id="-578704" lat="62.6767444481" lon="6.37446943896">
		<tag k="bay" v="fjord" />
		<tag k="name" v="Nogvafjorden" />
		<tag k="natural" v="bay" />
		<tag k="ssr:stedsnr" v="922997" />
	</node>
	<node id="-576654" lat="62.6135388898" lon="6.62390833806">
		<tag k="name" v="Løvika" />
		<tag k="natural" v="bay" />
		<tag k="ssr:stedsnr" v="397224" />
	</node>
	<node id="-576650" lat="62.5999249961" lon="6.30040555759">
		<tag k="name" v="Skarvesteinsvika" />
		<tag k="natural" v="bay" />
		<tag k="ssr:stedsnr" v="396939" />
	</node>
	<node id="-578697" lat="62.6896166706" lon="6.22450834035">
		<tag k="fixme" v="consider seamark:type=rock or natural=shoal" />
		<tag k="name" v="Kråka" />
		<tag k="place" v="islet" />
		<tag k="ssr:stedsnr" v="922914" />
	</node>
	<node id="-578696" lat="62.6944638903" lon="6.2334000037">
		<tag k="name" v="Steinboen" />
		<tag k="natural" v="shoal" />
		<tag k="place" v="locality" />
		<tag k="ssr:stedsnr" v="922912" />
	</node>
	<node id="-578695" lat="62.6835222256" lon="6.30714444046">
		<tag k="name" v="Urakøyla" />
		<tag k="natural" v="bay" />
		<tag k="ssr:stedsnr" v="922874" />
	</node>
	<node id="-576646" lat="62.690624997" lon="6.41709165933">
		<tag k="name" v="Lusvika" />
		<tag k="natural" v="bay" />
		<tag k="ssr:stedsnr" v="396916" />
	</node>
	<node id="-578690" lat="62.7385805532" lon="6.32133612072">
		<tag k="fixme" v="consider seamark:type=rock or natural=shoal" />
		<tag k="name" v="Skurven" />
		<tag k="place" v="islet" />
		<tag k="ssr:stedsnr" v="922851" />
	</node>
	<node id="-578689" lat="62.7303388927" lon="6.24405833322">
		<tag k="name" v="Skipperskallen" />
		<tag k="natural" v="shoal" />
		<tag k="place" v="locality" />
		<tag k="ssr:stedsnr" v="922833" />
	</node>
	<node id="-578687" lat="62.6897111143" lon="6.19623332849">
		<tag k="name" v="Ullaholmen" />
		<tag k="place" v="islet" />
		<tag k="ssr:stedsnr" v="922726" />
	</node>
	<node id="-578686" lat="62.7083611089" lon="6.13554444228">
		<tag k="name" v="Hesteskallen" />
		<tag k="natural" v="shoal" />
		<tag k="place" v="locality" />
		<tag k="ssr:stedsnr" v="922723" />
	</node>
	<node id="-578685" lat="62.6505055594" lon="6.20800277424">
		<tag k="name" v="Gardsvika" />
		<tag k="natural" v="bay" />
		<tag k="ssr:stedsnr" v="922697" />
	</node>
	<node id="-578684" lat="62.646383329" lon="6.13942500373">
		<tag k="bay" v="fjord" />
		<tag k="name" v="Haramsfjorden" />
		<tag k="natural" v="bay" />
		<tag k="ssr:stedsnr" v="922695" />
	</node>
	<node id="-578679" lat="62.6314527759" lon="6.64324999986">
		<tag k="name" v="Båtsteinen" />
		<tag k="natural" v="cape" />
		<tag k="ssr:stedsnr" v="922421" />
	</node>
	<node id="-578678" lat="62.6289896619" lon="6.59860559198">
		<tag k="name" v="Tennøya" />
		<tag k="place" v="island" />
		<tag k="ssr:stedsnr" v="922417" />
	</node>
	<node id="-576626" lat="62.6883388856" lon="6.18512221364">
		<tag k="name" v="Fausken" />
		<tag k="place" v="locality" />
		<tag k="ssr:stedsnr" v="396301" />
	</node>
	<node id="-576618" lat="62.6399750035" lon="6.14534999348">
		<tag k="fixme" v="consider seamark:type=rock or natural=shoal" />
		<tag k="name" v="Omnaskjeret" />
		<tag k="place" v="islet" />
		<tag k="ssr:stedsnr" v="383245" />
	</node>
	<node id="-578662" lat="62.5475527771" lon="6.26785278046">
		<tag k="name" v="Søvikneset" />
		<tag k="natural" v="cape" />
		<tag k="ssr:stedsnr" v="922242" />
	</node>
	<node id="-578659" lat="62.6626833373" lon="6.34801945111">
		<tag k="name" v="Nordstrand" />
		<tag k="natural" v="beach" />
		<tag k="place" v="locality" />
		<tag k="ssr:stedsnr" v="922238" />
	</node>
	<node id="-578656" lat="62.5305444423" lon="6.43669722324">
		<tag k="fixme" v="consider seamark:type=rock or natural=shoal" />
		<tag k="name" v="Storeskjeret" />
		<tag k="place" v="islet" />
		<tag k="ssr:stedsnr" v="922196" />
	</node>
	<node id="-578655" lat="62.5319972215" lon="6.44728888013">
		<tag k="name" v="Årsetneset" />
		<tag k="natural" v="cape" />
		<tag k="ssr:stedsnr" v="922193" />
	</node>
	<node id="-576606" lat="62.6333611105" lon="6.12860276977">
		<tag k="name" v="Bryggja" />
		<tag k="natural" v="cape" />
		<tag k="ssr:stedsnr" v="375684" />
	</node>
	<node id="-578653" lat="62.5361694455" lon="6.49180833326">
		<tag k="name" v="Karmannsneset" />
		<tag k="natural" v="cape" />
		<tag k="ssr:stedsnr" v="922189" />
	</node>
	<node id="-576604" lat="62.6560944472" lon="6.00626389699">
		<tag k="name" v="Kallane" />
		<tag k="natural" v="shoal" />
		<tag k="place" v="locality" />
		<tag k="ssr:stedsnr" v="375665" />
	</node>
	<node id="-578651" lat="62.5840055579" lon="6.2139749968">
		<tag k="fixme" v="consider seamark:type=rock or natural=shoal" />
		<tag k="name" v="Lepsøyrevet" />
		<tag k="place" v="islet" />
		<tag k="ssr:stedsnr" v="921803" />
	</node>
	<node id="-578649" lat="62.602160565" lon="6.24010212454">
		<tag k="name" v="Lauka" />
		<tag k="place" v="islet" />
		<tag k="ssr:stedsnr" v="921477" />
	</node>
	<node id="-578648" lat="62.6161444449" lon="6.60728611025">
		<tag k="name" v="Løvøyholmane" />
		<tag k="place" v="islet" />
		<tag k="ssr:stedsnr" v="921474" />
	</node>
	<node id="-578641" lat="62.5960750022" lon="6.22473056125">
		<tag k="fixme" v="consider seamark:type=rock or natural=shoal" />
		<tag k="name" v="Hamnaskjeret" />
		<tag k="place" v="islet" />
		<tag k="ssr:stedsnr" v="921422" />
	</node>
	<node id="-576591" lat="62.5803611078" lon="6.60858611678">
		<tag k="name" v="Grøtsholmen" />
		<tag k="place" v="islet" />
		<tag k="ssr:stedsnr" v="375289" />
	</node>
	<node id="-576588" lat="62.5599000013" lon="6.23219167603">
		<tag k="name" v="Bøvika" />
		<tag k="natural" v="bay" />
		<tag k="ssr:stedsnr" v="375249" />
	</node>
	<node id="-578634" lat="62.5303361133" lon="6.24327777785">
		<tag k="name" v="Sjukholmen" />
		<tag k="place" v="islet" />
		<tag k="ssr:stedsnr" v="921215" />
	</node>
	<node id="-578633" lat="62.5322750041" lon="6.23053611804">
		<tag k="name" v="Terøyholmen" />
		<tag k="place" v="islet" />
		<tag k="ssr:stedsnr" v="921212" />
	</node>
	<node id="-578632" lat="62.7116472243" lon="6.24795277167">
		<tag k="name" v="Svadet" />
		<tag k="natural" v="shoal" />
		<tag k="place" v="locality" />
		<tag k="ssr:stedsnr" v="902739" />
	</node>
	<node id="-578631" lat="62.6635222246" lon="6.02844721272">
		<tag k="name" v="Ytre Utboane" />
		<tag k="natural" v="shoal" />
		<tag k="place" v="locality" />
		<tag k="ssr:stedsnr" v="901924" />
	</node>
	<node id="-578630" lat="62.6434916629" lon="6.04854999075">
		<tag k="name" v="Skjerdingsgrunnen" />
		<tag k="natural" v="shoal" />
		<tag k="place" v="locality" />
		<tag k="ssr:stedsnr" v="901919" />
	</node>
	<node id="-578629" lat="62.5489944454" lon="6.18839999198">
		<tag k="fixme" v="consider seamark:type=rock or natural=shoal" />
		<tag k="name" v="Nordre Haneskjera" />
		<tag k="place" v="islet" />
		<tag k="ssr:stedsnr" v="901870" />
	</node>
	<node id="-578628" lat="62.6157222264" lon="6.31973055735">
		<tag k="name" v="Haugflua" />
		<tag k="natural" v="shoal" />
		<tag k="place" v="locality" />
		<tag k="ssr:stedsnr" v="901732" />
	</node>
	<node id="-578627" lat="62.6354416704" lon="6.13099722443">
		<tag k="name" v="Hestdalsfallet" />
		<tag k="natural" v="shoal" />
		<tag k="place" v="locality" />
		<tag k="ssr:stedsnr" v="901518" />
	</node>
	<node id="-578626" lat="62.631086109" lon="6.6208305551">
		<tag k="name" v="Tennøyfluda" />
		<tag k="natural" v="shoal" />
		<tag k="place" v="locality" />
		<tag k="ssr:stedsnr" v="900943" />
	</node>
	<node id="-578625" lat="62.631213889" lon="6.46288889092">
		<tag k="name" v="Mariusskolten" />
		<tag k="natural" v="shoal" />
		<tag k="place" v="locality" />
		<tag k="ssr:stedsnr" v="900917" />
	</node>
	<node id="-578624" lat="62.7122333313" lon="6.40944445006">
		<tag k="name" v="Skutevikneset" />
		<tag k="natural" v="cape" />
		<tag k="ssr:stedsnr" v="900912" />
	</node>
	<node id="-576575" lat="62.550241667" lon="6.2364555516">
		<tag k="name" v="Røysane" />
		<tag k="natural" v="bay" />
		<tag k="ssr:stedsnr" v="355812" />
	</node>
	<node id="-576574" lat="62.6623194467" lon="6.03655834258">
		<tag k="name" v="Indre Utboane" />
		<tag k="natural" v="shoal" />
		<tag k="place" v="locality" />
		<tag k="ssr:stedsnr" v="354920" />
	</node>
	<node id="-576573" lat="62.6602333335" lon="6.03864166534">
		<tag k="name" v="Ganopen" />
		<tag k="natural" v="shoal" />
		<tag k="place" v="locality" />
		<tag k="ssr:stedsnr" v="354918" />
	</node>
	<node id="-576572" lat="62.6037638929" lon="6.58446943615">
		<tag k="name" v="Vågsdjupet" />
		<tag k="place" v="locality" />
		<tag k="ssr:stedsnr" v="354897" />
	</node>
	<node id="-576571" lat="62.6047194455" lon="6.29729443479">
		<tag k="name" v="Risnesremma" />
		<tag k="place" v="locality" />
		<tag k="ssr:stedsnr" v="354728" />
	</node>
	<node id="-576570" lat="62.6139361083" lon="6.36762222121">
		<tag k="name" v="Lisjeskallen" />
		<tag k="natural" v="shoal" />
		<tag k="place" v="locality" />
		<tag k="ssr:stedsnr" v="354700" />
	</node>
	<node id="-576569" lat="62.6374499988" lon="6.4042888938">
		<tag k="name" v="Raudholmane" />
		<tag k="place" v="islet" />
		<tag k="ssr:stedsnr" v="353924" />
	</node>
	<node id="-578616" lat="62.6750138932" lon="6.29060833556">
		<tag k="fixme" v="multiple name tags, choose one and add the other to alt_name" />
		<tag k="name" v="Flemsøya;Skuløya" />
		<tag k="place" v="island" />
		<tag k="ssr:stedsnr" v="861999" />
	</node>
	<node id="-578614" lat="62.657011112" lon="6.34114723064">
		<tag k="name" v="Volleneset" />
		<tag k="natural" v="cape" />
		<tag k="ssr:stedsnr" v="861944" />
	</node>
	<node id="-578613" lat="62.732233332" lon="6.29808887946">
		<tag k="fixme" v="consider seamark:type=rock or natural=shoal" />
		<tag k="name" v="Talboskjera" />
		<tag k="place" v="islet" />
		<tag k="ssr:stedsnr" v="861852" />
	</node>
	<node id="-578612" lat="62.7221722186" lon="6.32978888536">
		<tag k="name" v="Skadfluna" />
		<tag k="natural" v="shoal" />
		<tag k="place" v="locality" />
		<tag k="ssr:stedsnr" v="861834" />
	</node>
	<node id="-578609" lat="62.5280472225" lon="6.1958388922">
		<tag k="name" v="Kalvøya" />
		<tag k="place" v="island" />
		<tag k="ssr:stedsnr" v="861747" />
	</node>
	<node id="-578607" lat="62.6974416659" lon="6.00873055933">
		<tag k="name" v="Jarsteinskallen" />
		<tag k="natural" v="shoal" />
		<tag k="place" v="locality" />
		<tag k="ssr:stedsnr" v="861718" />
	</node>
	<node id="-578606" lat="62.6869194414" lon="6.12188333308">
		<tag k="name" v="Bergskallen" />
		<tag k="natural" v="shoal" />
		<tag k="place" v="locality" />
		<tag k="ssr:stedsnr" v="861716" />
	</node>
	<node id="-576556" lat="62.6093277815" lon="6.59979444154">
		<tag k="name" v="Tareholmen" />
		<tag k="place" v="islet" />
		<tag k="ssr:stedsnr" v="337874" />
	</node>
	<node id="-578602" lat="62.6858916685" lon="6.20196944131">
		<tag k="name" v="Sjursøyra" />
		<tag k="natural" v="cape" />
		<tag k="ssr:stedsnr" v="861664" />
	</node>
	<node id="-576553" lat="62.6052666657" lon="6.63027221604">
		<tag k="name" v="Orvikbukta" />
		<tag k="natural" v="bay" />
		<tag k="ssr:stedsnr" v="337843" />
	</node>
	<node id="-578600" lat="62.6513361103" lon="6.33458888857">
		<tag k="name" v="Rogneleira" />
		<tag k="natural" v="bay" />
		<tag k="ssr:stedsnr" v="861462" />
	</node>
	<node id="-578599" lat="62.6075416642" lon="6.36099445403">
		<tag k="name" v="Myrekaia" />
		<tag k="natural" v="cape" />
		<tag k="ssr:stedsnr" v="861431" />
	</node>
	<node id="-578598" lat="62.5992277792" lon="6.23858610261">
		<tag k="name" v="Lisjelauka" />
		<tag k="place" v="islet" />
		<tag k="ssr:stedsnr" v="861414" />
	</node>
	<node id="-578595" lat="62.611002775" lon="6.61501111188">
		<tag k="name" v="Helleneset" />
		<tag k="natural" v="cape" />
		<tag k="ssr:stedsnr" v="861385" />
	</node>
	<node id="-578592" lat="62.6028500037" lon="6.62131666436">
		<tag k="name" v="Orvikholmen" />
		<tag k="place" v="islet" />
		<tag k="ssr:stedsnr" v="861349" />
	</node>
	<node id="-578589" lat="62.5870916689" lon="6.46001388883">
		<tag k="bay" v="fjord" />
		<tag k="name" v="Samfjorden" />
		<tag k="natural" v="bay" />
		<tag k="ssr:stedsnr" v="861325" />
	</node>
	<node id="-576687" lat="62.5687333301" lon="6.61204445293">
		<tag k="name" v="Ongelsneset" />
		<tag k="natural" v="cape" />
		<tag k="ssr:stedsnr" v="397989" />
	</node>
	<node id="-576534" lat="62.6075472238" lon="6.4411666572">
		<tag k="name" v="Synnalandsosen" />
		<tag k="natural" v="bay" />
		<tag k="ssr:stedsnr" v="337552" />
	</node>
	<node id="-576532" lat="62.5941416697" lon="6.46371110981">
		<tag k="name" v="Ringstadneset" />
		<tag k="natural" v="cape" />
		<tag k="ssr:stedsnr" v="337543" />
	</node>
	<node id="-578579" lat="62.5455972194" lon="6.25694167231">
		<tag k="name" v="Terøysundet" />
		<tag k="natural" v="strait" />
		<tag k="ssr:stedsnr" v="861236" />
	</node>
	<node id="-578578" lat="62.5505250032" lon="6.2291138948">
		<tag k="name" v="Havregalden" />
		<tag k="natural" v="cape" />
		<tag k="ssr:stedsnr" v="861232" />
	</node>
	<node id="-578577" lat="62.6326388927" lon="6.26884167236">
		<tag k="name" v="Austnes" />
		<tag k="natural" v="cape" />
		<tag k="ssr:stedsnr" v="861230" />
	</node>
	<node id="-576524" lat="62.6247878631" lon="6.60164502645">
		<tag k="fixme" v="consider seamark:type=rock or natural=shoal" />
		<tag k="name" v="Tenna" />
		<tag k="place" v="islet" />
		<tag k="ssr:stedsnr" v="337401" />
	</node>
	<node id="-578571" lat="62.5314833365" lon="6.35075555735">
		<tag k="name" v="Saltkjelen" />
		<tag k="natural" v="bay" />
		<tag k="ssr:stedsnr" v="861185" />
	</node>
	<node id="-578570" lat="62.5279305574" lon="6.25156945">
		<tag k="name" v="Kyrkjesundholmen" />
		<tag k="place" v="islet" />
		<tag k="ssr:stedsnr" v="861180" />
	</node>
	<node id="-578569" lat="62.6899555554" lon="6.27522499484">
		<tag k="name" v="Halseberga" />
		<tag k="natural" v="cape" />
		<tag k="ssr:stedsnr" v="861922" />
	</node>
	<node id="-578567" lat="62.6809694431" lon="6.19651388083">
		<tag k="name" v="Vika" />
		<tag k="natural" v="bay" />
		<tag k="ssr:stedsnr" v="842661" />
	</node>
	<node id="-578566" lat="62.6634555532" lon="6.12217222538">
		<tag k="name" v="Seiskallen (nordvestre)" />
		<tag k="natural" v="shoal" />
		<tag k="place" v="locality" />
		<tag k="ssr:stedsnr" v="842646" />
	</node>
	<node id="-578565" lat="62.5456333353" lon="6.25098889317">
		<tag k="fixme" v="consider seamark:type=rock or natural=shoal" />
		<tag k="name" v="Håstein" />
		<tag k="place" v="islet" />
		<tag k="ssr:stedsnr" v="841830" />
	</node>
	<node id="-576515" lat="62.6344333289" lon="6.66730554627">
		<tag k="name" v="Skorsteinberga" />
		<tag k="natural" v="cape" />
		<tag k="ssr:stedsnr" v="337357" />
	</node>
	<node id="-578562" lat="62.7209611148" lon="6.249374993">
		<tag k="name" v="Svadegrunnane" />
		<tag k="natural" v="shoal" />
		<tag k="place" v="locality" />
		<tag k="ssr:stedsnr" v="841690" />
	</node>
	<node id="-578561" lat="62.7220361154" lon="6.21966667241">
		<tag k="name" v="Remma" />
		<tag k="natural" v="shoal" />
		<tag k="place" v="locality" />
		<tag k="ssr:stedsnr" v="841687" />
	</node>
	<node id="-578560" lat="62.712433333" lon="5.93049721812">
		<tag k="name" v="Landmeen" />
		<tag k="place" v="locality" />
		<tag k="ssr:stedsnr" v="841344" />
	</node>
	<node id="-578559" lat="62.7931305569" lon="5.95741111239">
		<tag k="name" v="Eiagrunnen" />
		<tag k="place" v="locality" />
		<tag k="ssr:stedsnr" v="841343" />
	</node>
	<node id="-578558" lat="62.5384277752" lon="6.51466389627">
		<tag k="name" v="Høynesgrunna" />
		<tag k="natural" v="shoal" />
		<tag k="place" v="locality" />
		<tag k="ssr:stedsnr" v="841141" />
	</node>
	<node id="-578557" lat="62.6641944454" lon="6.07711666304">
		<tag k="name" v="Bedehusgrunnen" />
		<tag k="natural" v="shoal" />
		<tag k="place" v="locality" />
		<tag k="ssr:stedsnr" v="840915" />
	</node>
	<node id="-578556" lat="62.6562194434" lon="6.05618888262">
		<tag k="name" v="Hembofluene" />
		<tag k="natural" v="shoal" />
		<tag k="place" v="locality" />
		<tag k="ssr:stedsnr" v="840908" />
	</node>
	<node id="-578555" lat="62.7402361144" lon="6.26312777828">
		<tag k="name" v="Ytre Talboskallen" />
		<tag k="natural" v="shoal" />
		<tag k="place" v="locality" />
		<tag k="ssr:stedsnr" v="840325" />
	</node>
	<node id="-578554" lat="62.6293694481" lon="6.62814445149">
		<tag k="name" v="Nordre Ørsnesbukta" />
		<tag k="natural" v="bay" />
		<tag k="ssr:stedsnr" v="839932" />
	</node>
	<node id="-578553" lat="62.7124500008" lon="6.42515555879">
		<tag k="name" v="Vågholmen" />
		<tag k="place" v="islet" />
		<tag k="ssr:stedsnr" v="829001" />
	</node>
	<node id="-576501" lat="62.6664611102" lon="6.26692222892">
		<tag k="name" v="Longvaneset" />
		<tag k="natural" v="bay" />
		<tag k="ssr:stedsnr" v="336328" />
	</node>
	<node id="-576498" lat="62.5549583294" lon="6.23891944837">
		<tag k="name" v="Stølsvika" />
		<tag k="natural" v="bay" />
		<tag k="ssr:stedsnr" v="336291" />
	</node>
	<node id="-576494" lat="62.5772861133" lon="6.26117499749">
		<tag k="name" v="Torvneset" />
		<tag k="natural" v="cape" />
		<tag k="ssr:stedsnr" v="335924" />
	</node>
	<node id="-576493" lat="62.6710638873" lon="6.34357500908">
		<tag k="name" v="Harthaugvika" />
		<tag k="natural" v="bay" />
		<tag k="ssr:stedsnr" v="335909" />
	</node>
	<node id="-576492" lat="62.6194555571" lon="6.11975555288">
		<tag k="bay" v="fjord" />
		<tag k="name" v="Vigrafjorden" />
		<tag k="natural" v="bay" />
		<tag k="ssr:stedsnr" v="335902" />
	</node>
	<node id="-576490" lat="62.630513891" lon="6.25091944716">
		<tag k="name" v="Myskjalygaren" />
		<tag k="natural" v="shoal" />
		<tag k="place" v="locality" />
		<tag k="ssr:stedsnr" v="335716" />
	</node>
	<node id="-578533" lat="62.5315499966" lon="6.43894443546">
		<tag k="fixme" v="consider seamark:type=rock or natural=shoal" />
		<tag k="name" v="Litleskjeret" />
		<tag k="place" v="islet" />
		<tag k="ssr:stedsnr" v="823449" />
	</node>
	<node id="-576484" lat="62.6843750005" lon="6.29962221396">
		<tag k="name" v="Stutteneset" />
		<tag k="natural" v="bay" />
		<tag k="ssr:stedsnr" v="335413" />
	</node>
	<node id="-578531" lat="62.5570527795" lon="6.46298887929">
		<tag k="name" v="Langneset" />
		<tag k="natural" v="cape" />
		<tag k="ssr:stedsnr" v="823367" />
	</node>
	<node id="-578525" lat="62.6253333345" lon="6.65519167488">
		<tag k="name" v="Visetsanden" />
		<tag k="natural" v="cape" />
		<tag k="ssr:stedsnr" v="823029" />
	</node>
	<node id="-578517" lat="62.6084194443" lon="6.66161111944">
		<tag k="name" v="Straumsneset" />
		<tag k="natural" v="cape" />
		<tag k="ssr:stedsnr" v="822871" />
	</node>
	<node id="-576467" lat="62.5412138863" lon="6.18734166644">
		<tag k="name" v="Gjøsundholmen" />
		<tag k="place" v="islet" />
		<tag k="ssr:stedsnr" v="315771" />
	</node>
	<node id="-578513" lat="62.5423555513" lon="6.56707500854">
		<tag k="alt_name" v="Eidsvika" />
		<tag k="name" v="Eidsviksjøen" />
		<tag k="natural" v="bay" />
		<tag k="ssr:stedsnr" v="822664" />
	</node>
	<node id="-576464" lat="62.6938333303" lon="6.16055000739">
		<tag k="alt_name" v="Skåkflua" />
		<tag k="name" v="Skåkfluda" />
		<tag k="natural" v="shoal" />
		<tag k="place" v="locality" />
		<tag k="ssr:stedsnr" v="315738" />
	</node>
	<node id="-576463" lat="62.6554666675" lon="6.17445833627">
		<tag k="name" v="Haramsneset" />
		<tag k="natural" v="cape" />
		<tag k="ssr:stedsnr" v="315702" />
	</node>
	<node id="-576460" lat="62.635083334" lon="6.27308333349">
		<tag k="name" v="Austneskaia" />
		<tag k="natural" v="cape" />
		<tag k="ssr:stedsnr" v="315457" />
	</node>
	<node id="-576459" lat="62.608472224" lon="6.32576388873">
		<tag k="name" v="Syvervika" />
		<tag k="natural" v="bay" />
		<tag k="ssr:stedsnr" v="315450" />
	</node>
	<node id="-576458" lat="62.6275138914" lon="6.62799999298">
		<tag k="name" v="Ørsneset" />
		<tag k="natural" v="cape" />
		<tag k="ssr:stedsnr" v="315440" />
	</node>
	<node id="-576457" lat="62.5985194403" lon="6.45484443874">
		<tag k="name" v="Brattholmen" />
		<tag k="place" v="islet" />
		<tag k="ssr:stedsnr" v="315380" />
	</node>
	<node id="-578503" lat="62.7029361151" lon="6.42636667376">
		<tag k="name" v="Litlemalen" />
		<tag k="natural" v="beach" />
		<tag k="place" v="locality" />
		<tag k="ssr:stedsnr" v="821931" />
	</node>
	<node id="-578502" lat="62.6365722242" lon="6.16618332389">
		<tag k="name" v="Hellevikneset" />
		<tag k="natural" v="cape" />
		<tag k="ssr:stedsnr" v="821927" />
	</node>
	<node id="-578498" lat="62.6230166649" lon="6.21396666276">
		<tag k="name" v="Smineset" />
		<tag k="natural" v="cape" />
		<tag k="ssr:stedsnr" v="821669" />
	</node>
	<node id="-576558" lat="62.5724027792" lon="6.42840000054">
		<tag k="name" v="Fureneset" />
		<tag k="natural" v="cape" />
		<tag k="ssr:stedsnr" v="337884" />
	</node>
	<node id="-576446" lat="62.7262000029" lon="6.37962778338">
		<tag k="name" v="Stabben" />
		<tag k="natural" v="shoal" />
		<tag k="place" v="locality" />
		<tag k="ssr:stedsnr" v="315247" />
	</node>
	<node id="-578488" lat="62.6044361123" lon="6.22728611494">
		<tag k="name" v="Leira" />
		<tag k="natural" v="shoal" />
		<tag k="place" v="locality" />
		<tag k="ssr:stedsnr" v="821582" />
	</node>
	<node id="-578487" lat="62.6805361138" lon="6.16902221759">
		<tag k="name" v="Kjøvesundet" />
		<tag k="natural" v="strait" />
		<tag k="ssr:stedsnr" v="821523" />
	</node>
	<node id="-576438" lat="62.5320672149" lon="6.40098079215">
		<tag k="name" v="Holmesetholmen" />
		<tag k="place" v="islet" />
		<tag k="ssr:stedsnr" v="315200" />
	</node>
	<node id="-578484" lat="62.6897833313" lon="6.25987777254">
		<tag k="name" v="Sandvikklubben" />
		<tag k="place" v="islet" />
		<tag k="ssr:stedsnr" v="821418" />
	</node>
	<node id="-576435" lat="62.719583334" lon="6.30998611407">
		<tag k="name" v="Helleboen" />
		<tag k="natural" v="shoal" />
		<tag k="place" v="locality" />
		<tag k="ssr:stedsnr" v="314826" />
	</node>
	<node id="-578482" lat="62.6920888918" lon="6.24865833674">
		<tag k="fixme" v="consider seamark:type=rock or natural=shoal" />
		<tag k="name" v="Litleklubben" />
		<tag k="place" v="islet" />
		<tag k="ssr:stedsnr" v="821383" />
	</node>
	<node id="-578480" lat="62.6857527757" lon="6.23106944723">
		<tag k="name" v="Skolvågen" />
		<tag k="natural" v="bay" />
		<tag k="ssr:stedsnr" v="821327" />
	</node>
	<node id="-576431" lat="62.6054749975" lon="6.44662777876">
		<tag k="name" v="Årsund" />
		<tag k="natural" v="cape" />
		<tag k="ssr:stedsnr" v="314483" />
	</node>
	<node id="-578478" lat="62.5327916671" lon="6.25655834153">
		<tag k="name" v="Rundholmen" />
		<tag k="place" v="islet" />
		<tag k="ssr:stedsnr" v="821302" />
	</node>
	<node id="-578477" lat="62.5492333334" lon="6.27208054602">
		<tag k="name" v="Ebbevika" />
		<tag k="natural" v="bay" />
		<tag k="ssr:stedsnr" v="821265" />
	</node>
	<node id="-576425" lat="62.5938527815" lon="6.23177777693">
		<tag k="fixme" v="consider seamark:type=rock or natural=shoal" />
		<tag k="name" v="Rædene" />
		<tag k="place" v="islet" />
		<tag k="ssr:stedsnr" v="314422" />
	</node>
	<node id="-578469" lat="62.7385611101" lon="6.32509721644">
		<tag k="fixme" v="consider seamark:type=rock or natural=shoal" />
		<tag k="name" v="Hummarskjeret" />
		<tag k="place" v="islet" />
		<tag k="ssr:stedsnr" v="801843" />
	</node>
	<node id="-576420" lat="62.5685305568" lon="6.6147166682">
		<tag k="name" v="Angelsneset" />
		<tag k="natural" v="cape" />
		<tag k="ssr:stedsnr" v="314329" />
	</node>
	<node id="-576419" lat="62.6685694412" lon="6.11349166054">
		<tag k="name" v="Klovningsgrunnen" />
		<tag k="natural" v="shoal" />
		<tag k="place" v="locality" />
		<tag k="ssr:stedsnr" v="295874" />
	</node>
	<node id="-576418" lat="62.7068194406" lon="6.34563055986">
		<tag k="name" v="Bakkevika" />
		<tag k="natural" v="bay" />
		<tag k="ssr:stedsnr" v="295722" />
	</node>
	<node id="-576417" lat="62.6861388856" lon="6.29367777223">
		<tag k="name" v="Lisjevika" />
		<tag k="natural" v="bay" />
		<tag k="ssr:stedsnr" v="295704" />
	</node>
	<node id="-578464" lat="62.6434972252" lon="6.35545556312">
		<tag k="name" v="Rogneholmen" />
		<tag k="place" v="islet" />
		<tag k="ssr:stedsnr" v="801460" />
	</node>
	<node id="-576415" lat="62.6605999985" lon="6.01813610316">
		<tag k="name" v="Midtre Kallane" />
		<tag k="natural" v="shoal" />
		<tag k="place" v="locality" />
		<tag k="ssr:stedsnr" v="294921" />
	</node>
	<node id="-578461" lat="62.6235583317" lon="6.65916945418">
		<tag k="bay" v="fjord" />
		<tag k="name" v="Vestrefjorden" />
		<tag k="natural" v="bay" />
		<tag k="ssr:stedsnr" v="801441" />
	</node>
	<node id="-576412" lat="62.5299722192" lon="6.18755000781">
		<tag k="name" v="Litle Lyngholmen" />
		<tag k="place" v="islet" />
		<tag k="ssr:stedsnr" v="294600" />
	</node>
	<node id="-576411" lat="62.6107222248" lon="6.16315832759">
		<tag k="name" v="Rønstadvika" />
		<tag k="natural" v="bay" />
		<tag k="ssr:stedsnr" v="294667" />
	</node>
	<node id="-576410" lat="62.7240277768" lon="6.39162221865">
		<tag k="name" v="Søre Stabberengene" />
		<tag k="natural" v="shoal" />
		<tag k="place" v="locality" />
		<tag k="ssr:stedsnr" v="294190" />
	</node>
	<node id="-576409" lat="62.6172944436" lon="6.42352222875">
		<tag k="name" v="Juvikskallen" />
		<tag k="natural" v="shoal" />
		<tag k="place" v="locality" />
		<tag k="ssr:stedsnr" v="293925" />
	</node>
	<node id="-576408" lat="62.5781222233" lon="6.46590278666">
		<tag k="fixme" v="consider seamark:type=rock or natural=shoal" />
		<tag k="name" v="Støleholå" />
		<tag k="place" v="islet" />
		<tag k="ssr:stedsnr" v="277913" />
	</node>
	<node id="-576402" lat="62.6006999985" lon="6.30823888005">
		<tag k="fixme" v="consider seamark:type=rock or natural=shoal" />
		<tag k="name" v="Skjeret" />
		<tag k="place" v="islet" />
		<tag k="ssr:stedsnr" v="277602" />
	</node>
	<node id="-578448" lat="62.7206361107" lon="6.22836666729">
		<tag k="fixme" v="consider seamark:type=rock or natural=shoal" />
		<tag k="name" v="Ryggeskjeret" />
		<tag k="place" v="islet" />
		<tag k="ssr:stedsnr" v="800809" />
	</node>
	<node id="-578447" lat="62.7193555546" lon="6.33908332544">
		<tag k="name" v="Joronga" />
		<tag k="natural" v="shoal" />
		<tag k="place" v="locality" />
		<tag k="ssr:stedsnr" v="800804" />
	</node>
	<node id="-578446" lat="62.7175444417" lon="6.36730556061">
		<tag k="name" v="Gylta" />
		<tag k="natural" v="shoal" />
		<tag k="place" v="locality" />
		<tag k="ssr:stedsnr" v="800802" />
	</node>
	<node id="-578445" lat="62.7218416674" lon="6.37668610493">
		<tag k="name" v="Stortaren" />
		<tag k="natural" v="shoal" />
		<tag k="place" v="locality" />
		<tag k="ssr:stedsnr" v="800801" />
	</node>
	<node id="-576395" lat="62.6099486644" lon="6.45797938919">
		<tag k="name" v="Notaneset" />
		<tag k="natural" v="cape" />
		<tag k="ssr:stedsnr" v="277511" />
	</node>
	<node id="-576393" lat="62.5954277822" lon="6.4472777863">
		<tag k="name" v="Jaktevika" />
		<tag k="natural" v="bay" />
		<tag k="ssr:stedsnr" v="277481" />
	</node>
	<node id="-576391" lat="62.5507333291" lon="6.46690832786">
		<tag k="name" v="Øyraneset" />
		<tag k="natural" v="cape" />
		<tag k="ssr:stedsnr" v="277349" />
	</node>
	<node id="-576386" lat="62.6074416682" lon="6.36412777158">
		<tag k="name" v="Myrevika" />
		<tag k="natural" v="bay" />
		<tag k="ssr:stedsnr" v="277237" />
	</node>
	<node id="-578432" lat="62.5873249972" lon="6.27210833994">
		<tag k="name" v="Snekkevika" />
		<tag k="natural" v="bay" />
		<tag k="ssr:stedsnr" v="800363" />
	</node>
	<node id="-576382" lat="62.5398027818" lon="6.51152222969">
		<tag k="name" v="Øydegardsvika" />
		<tag k="natural" v="bay" />
		<tag k="ssr:stedsnr" v="277004" />
	</node>
	<node id="-578428" lat="62.5602555578" lon="6.24642778452">
		<tag k="name" v="Bjørnøysundet" />
		<tag k="natural" v="strait" />
		<tag k="ssr:stedsnr" v="800295" />
	</node>
	<node id="-578427" lat="62.5577244795" lon="6.26889406009">
		<tag k="name" v="Gamlemssundet" />
		<tag k="natural" v="strait" />
		<tag k="ssr:stedsnr" v="800292" />
	</node>
	<node id="-576378" lat="62.5879749987" lon="6.62857777675">
		<tag k="name" v="Hjellbakksanden" />
		<tag k="natural" v="beach" />
		<tag k="place" v="locality" />
		<tag k="ssr:stedsnr" v="276887" />
	</node>
	<node id="-576375" lat="62.6132527775" lon="6.45505277859">
		<tag k="fixme" v="consider seamark:type=rock or natural=shoal" />
		<tag k="name" v="Grasskjeret" />
		<tag k="place" v="islet" />
		<tag k="ssr:stedsnr" v="276858" />
	</node>
	<node id="-576370" lat="62.591927781" lon="6.59344165996">
		<tag k="fixme" v="consider seamark:type=rock or natural=shoal" />
		<tag k="name" v="Ertra" />
		<tag k="place" v="islet" />
		<tag k="ssr:stedsnr" v="276793" />
	</node>
	<node id="-578417" lat="62.5300333311" lon="6.25668334256">
		<tag k="name" v="Straumsneset" />
		<tag k="natural" v="cape" />
		<tag k="ssr:stedsnr" v="800202" />
	</node>
	<node id="-576368" lat="62.5286444447" lon="6.57225833756">
		<tag k="name" v="Løneset" />
		<tag k="natural" v="cape" />
		<tag k="ssr:stedsnr" v="276720" />
	</node>
	<node id="-578414" lat="62.6967027772" lon="6.20583610825">
		<tag k="name" v="Skjerdingsfluna" />
		<tag k="natural" v="bay" />
		<tag k="ssr:stedsnr" v="781649" />
	</node>
	<node id="-578413" lat="62.6944194459" lon="6.17883611752">
		<tag k="name" v="Storsteinflua" />
		<tag k="natural" v="shoal" />
		<tag k="place" v="locality" />
		<tag k="ssr:stedsnr" v="781646" />
	</node>
	<node id="-578412" lat="62.7092083357" lon="6.17724999474">
		<tag k="name" v="Røsseflua" />
		<tag k="natural" v="shoal" />
		<tag k="place" v="locality" />
		<tag k="ssr:stedsnr" v="781643" />
	</node>
	<node id="-578411" lat="62.6940249991" lon="6.36589722929">
		<tag k="fixme" v="consider seamark:type=rock or natural=shoal" />
		<tag k="name" v="Otersteinen" />
		<tag k="place" v="islet" />
		<tag k="ssr:stedsnr" v="780649" />
	</node>
	<node id="-578410" lat="62.6371638879" lon="6.16219167268">
		<tag k="name" v="Hellevika" />
		<tag k="natural" v="bay" />
		<tag k="ssr:stedsnr" v="780574" />
	</node>
	<node id="-578409" lat="62.590069444" lon="6.27094165862">
		<tag k="name" v="Skjelteræa" />
		<tag k="natural" v="shoal" />
		<tag k="place" v="locality" />
		<tag k="ssr:stedsnr" v="779728" />
	</node>
	<node id="-578408" lat="62.5999638931" lon="6.28277777379">
		<tag k="name" v="Reina" />
		<tag k="place" v="locality" />
		<tag k="ssr:stedsnr" v="779725" />
	</node>
	<node id="-578407" lat="62.6249083329" lon="6.13546943621">
		<tag k="fixme" v="consider seamark:type=rock or natural=shoal" />
		<tag k="name" v="Raket" />
		<tag k="place" v="islet" />
		<tag k="ssr:stedsnr" v="779521" />
	</node>
	<node id="-578406" lat="62.6102305533" lon="6.39615832698">
		<tag k="name" v="Sotaflua" />
		<tag k="natural" v="shoal" />
		<tag k="place" v="locality" />
		<tag k="ssr:stedsnr" v="778919" />
	</node>
	<node id="-578401" lat="62.6100749986" lon="6.3278722179">
		<tag k="name" v="Eljasvika" />
		<tag k="natural" v="bay" />
		<tag k="ssr:stedsnr" v="762609" />
	</node>
	<node id="-576347" lat="62.5682805575" lon="6.23396389033">
		<tag k="name" v="Litleskarveneset" />
		<tag k="natural" v="cape" />
		<tag k="ssr:stedsnr" v="275950" />
	</node>
	<node id="-576346" lat="62.5948000033" lon="6.28946388248">
		<tag k="name" v="Tarevika" />
		<tag k="natural" v="bay" />
		<tag k="ssr:stedsnr" v="275944" />
	</node>
	<node id="-576343" lat="62.5707055558" lon="6.26416388435">
		<tag k="name" v="Gamlemssundet" />
		<tag k="natural" v="strait" />
		<tag k="ssr:stedsnr" v="275916" />
	</node>
	<node id="-576342" lat="62.5711638848" lon="6.26994445194">
		<tag k="name" v="Grøtneset" />
		<tag k="natural" v="cape" />
		<tag k="ssr:stedsnr" v="275911" />
	</node>
	<node id="-578389" lat="62.5643249992" lon="6.45892777565">
		<tag k="alt_name" v="Straumen" />
		<tag k="bay" v="fjord" />
		<tag k="name" v="Samfjordstraumen" />
		<tag k="natural" v="bay" />
		<tag k="ssr:stedsnr" v="762361" />
	</node>
	<node id="-578388" lat="62.6173944403" lon="6.59729165775">
		<tag k="fixme" v="consider seamark:type=rock or natural=shoal" />
		<tag k="name" v="Lygaren" />
		<tag k="place" v="islet" />
		<tag k="ssr:stedsnr" v="762360" />
	</node>
	<node id="-578387" lat="62.6148111108" lon="6.60692500314">
		<tag k="name" v="Fiskholmen" />
		<tag k="place" v="islet" />
		<tag k="ssr:stedsnr" v="762359" />
	</node>
	<node id="-578377" lat="62.587844444" lon="6.58447499587">
		<tag k="name" v="Ertresvåg" />
		<tag k="natural" v="bay" />
		<tag k="ssr:stedsnr" v="761890" />
	</node>
	<node id="-576554" lat="62.6088027776" lon="6.66214445067">
		<tag k="name" v="Straumen" />
		<tag k="natural" v="strait" />
		<tag k="ssr:stedsnr" v="337844" />
	</node>
	<node id="-576324" lat="62.6921388905" lon="6.18734166617">
		<tag k="fixme" v="consider seamark:type=rock or natural=shoal" />
		<tag k="name" v="Baren" />
		<tag k="place" v="islet" />
		<tag k="ssr:stedsnr" v="275311" />
	</node>
	<node id="-576322" lat="62.5301944413" lon="6.26619445337">
		<tag k="name" v="Kleivevika" />
		<tag k="natural" v="bay" />
		<tag k="ssr:stedsnr" v="275288" />
	</node>
	<node id="-578368" lat="62.5268361149" lon="6.55876944862">
		<tag k="name" v="Danielbukta" />
		<tag k="natural" v="bay" />
		<tag k="ssr:stedsnr" v="761717" />
	</node>
	<node id="-578367" lat="62.5306388857" lon="6.58138332831">
		<tag k="name" v="Ufsskarneset" />
		<tag k="natural" v="cape" />
		<tag k="ssr:stedsnr" v="761703" />
	</node>
	<node id="-578366" lat="62.5319916692" lon="6.57711388494">
		<tag k="name" v="Vågen" />
		<tag k="natural" v="bay" />
		<tag k="ssr:stedsnr" v="761704" />
	</node>
	<node id="-578349" lat="62.618966665" lon="6.65642778365">
		<tag k="name" v="Lærungsneset" />
		<tag k="natural" v="cape" />
		<tag k="ssr:stedsnr" v="761217" />
	</node>
	<node id="-578346" lat="62.6301916648" lon="6.65008611349">
		<tag k="name" v="Mortekråneset" />
		<tag k="natural" v="cape" />
		<tag k="ssr:stedsnr" v="761025" />
	</node>
	<node id="-578343" lat="62.7095166668" lon="6.37378610293">
		<tag k="fixme" v="consider seamark:type=rock or natural=shoal" />
		<tag k="name" v="Bandskjeret" />
		<tag k="place" v="islet" />
		<tag k="ssr:stedsnr" v="760942" />
	</node>
	<node id="-578337" lat="62.6279027796" lon="6.11682221884">
		<tag k="name" v="Innholmen" />
		<tag k="place" v="islet" />
		<tag k="ssr:stedsnr" v="760838" />
	</node>
	<node id="-578329" lat="62.6817638925" lon="6.16955278319">
		<tag k="name" v="Kvalvika" />
		<tag k="natural" v="bay" />
		<tag k="ssr:stedsnr" v="760522" />
	</node>
	<node id="-578327" lat="62.680725003" lon="6.23061666945">
		<tag k="name" v="Bankane" />
		<tag k="place" v="locality" />
		<tag k="ssr:stedsnr" v="760478" />
	</node>
	<node id="-578325" lat="62.6933416691" lon="6.24470834001">
		<tag k="name" v="Seiholmen" />
		<tag k="place" v="islet" />
		<tag k="ssr:stedsnr" v="760382" />
	</node>
	<node id="-578324" lat="62.5671972186" lon="6.24776943981">
		<tag k="name" v="Flaksporvika" />
		<tag k="natural" v="bay" />
		<tag k="ssr:stedsnr" v="760378" />
	</node>
	<node id="-578323" lat="62.6938999959" lon="6.20494721735">
		<tag k="alt_name" v="Storeskjeret" />
		<tag k="fixme" v="consider seamark:type=rock or natural=shoal" />
		<tag k="name" v="Svarteskjeret" />
		<tag k="place" v="islet" />
		<tag k="ssr:stedsnr" v="760333" />
	</node>
	<node id="-578321" lat="62.6003027807" lon="6.20064722056">
		<tag k="name" v="Smineset" />
		<tag k="natural" v="cape" />
		<tag k="ssr:stedsnr" v="758666" />
	</node>
	<node id="-578319" lat="62.7183972257" lon="6.21093055017">
		<tag k="name" v="Breidflua" />
		<tag k="place" v="locality" />
		<tag k="seamark:type" v="rock" />
		<tag k="ssr:stedsnr" v="753628" />
	</node>
	<node id="-578318" lat="62.6560138935" lon="6.00683334015">
		<tag k="name" v="Nørdre Djupfallet" />
		<tag k="natural" v="shoal" />
		<tag k="place" v="locality" />
		<tag k="ssr:stedsnr" v="753590" />
	</node>
	<node id="-578317" lat="62.6175305557" lon="6.14596945086">
		<tag k="name" v="Stølsvika" />
		<tag k="natural" v="bay" />
		<tag k="ssr:stedsnr" v="748233" />
	</node>
	<node id="-578313" lat="62.6905916645" lon="6.37971111491">
		<tag k="name" v="Olaberget" />
		<tag k="place" v="islet" />
		<tag k="ssr:stedsnr" v="740917" />
	</node>
	<node id="-578312" lat="62.6842444447" lon="6.30262499335">
		<tag k="name" v="Uraneset" />
		<tag k="natural" v="cape" />
		<tag k="ssr:stedsnr" v="740870" />
	</node>
	<node id="-578311" lat="62.6802527745" lon="6.32065278158">
		<tag k="name" v="Dalsneset" />
		<tag k="natural" v="cape" />
		<tag k="ssr:stedsnr" v="740869" />
	</node>
	<node id="-578310" lat="62.7418527752" lon="6.31446111458">
		<tag k="fixme" v="consider seamark:type=rock or natural=shoal" />
		<tag k="name" v="Råmeskjeret" />
		<tag k="place" v="islet" />
		<tag k="ssr:stedsnr" v="740847" />
	</node>
	<node id="-578309" lat="62.6793944412" lon="6.20049165818">
		<tag k="name" v="Ullahammaren" />
		<tag k="natural" v="cape" />
		<tag k="ssr:stedsnr" v="740742" />
	</node>
	<node id="-578307" lat="62.6245027753" lon="6.57944723088">
		<tag k="name" v="Langedraget" />
		<tag k="natural" v="strait" />
		<tag k="ssr:stedsnr" v="740429" />
	</node>
	<node id="-578299" lat="62.5486166627" lon="6.25429166529">
		<tag k="name" v="Selneset" />
		<tag k="natural" v="cape" />
		<tag k="ssr:stedsnr" v="740250" />
	</node>
	<node id="-578294" lat="62.7018388912" lon="6.32794723174">
		<tag k="name" v="Kvalvikneset" />
		<tag k="natural" v="cape" />
		<tag k="ssr:stedsnr" v="739919" />
	</node>
	<node id="-578293" lat="62.7231777797" lon="6.26733054635">
		<tag k="fixme" v="consider seamark:type=rock or natural=shoal" />
		<tag k="name" v="Småskjera" />
		<tag k="place" v="islet" />
		<tag k="ssr:stedsnr" v="739838" />
	</node>
	<node id="-578292" lat="62.7260888861" lon="6.38666389059">
		<tag k="name" v="Stabberengene" />
		<tag k="natural" v="shoal" />
		<tag k="place" v="locality" />
		<tag k="ssr:stedsnr" v="739836" />
	</node>
	<node id="-578291" lat="62.5194222194" lon="6.17306945354">
		<tag k="name" v="Brattholmen" />
		<tag k="place" v="islet" />
		<tag k="ssr:stedsnr" v="739766" />
	</node>
	<node id="-578290" lat="62.5258444415" lon="6.21013889322">
		<tag k="name" v="Lyngholmen" />
		<tag k="place" v="islet" />
		<tag k="ssr:stedsnr" v="739763" />
	</node>
	<node id="-578289" lat="62.7481361115" lon="6.2997666657">
		<tag k="name" v="Digerfallet" />
		<tag k="natural" v="shoal" />
		<tag k="place" v="locality" />
		<tag k="ssr:stedsnr" v="739759" />
	</node>
	<node id="-578288" lat="62.5208638912" lon="6.18797777902">
		<tag k="name" v="Pampusholmane" />
		<tag k="place" v="islet" />
		<tag k="ssr:stedsnr" v="739760" />
	</node>
	<node id="-578269" lat="62.6896972186" lon="6.08366944197">
		<tag k="name" v="Bjørlokgrynnane" />
		<tag k="natural" v="shoal" />
		<tag k="place" v="locality" />
		<tag k="ssr:stedsnr" v="720892" />
	</node>
	<node id="-578268" lat="62.7001000036" lon="6.32998332866">
		<tag k="name" v="Kvalvika" />
		<tag k="natural" v="bay" />
		<tag k="ssr:stedsnr" v="720738" />
	</node>
	<node id="-578267" lat="62.7184500027" lon="6.37475833542">
		<tag k="name" v="Gylteflua" />
		<tag k="natural" v="shoal" />
		<tag k="place" v="locality" />
		<tag k="ssr:stedsnr" v="720716" />
	</node>
	<node id="-578266" lat="62.6969694428" lon="6.23289444369">
		<tag k="name" v="Flua" />
		<tag k="natural" v="shoal" />
		<tag k="place" v="locality" />
		<tag k="ssr:stedsnr" v="720653" />
	</node>
	<node id="-578265" lat="62.6770250023" lon="6.1343166754">
		<tag k="name" v="Lisjeflua" />
		<tag k="natural" v="shoal" />
		<tag k="place" v="locality" />
		<tag k="ssr:stedsnr" v="720649" />
	</node>
	<node id="-578264" lat="62.6946583348" lon="6.12115278215">
		<tag k="name" v="Langbogrunnen" />
		<tag k="natural" v="shoal" />
		<tag k="place" v="locality" />
		<tag k="ssr:stedsnr" v="720643" />
	</node>
	<node id="-578263" lat="62.6126777744" lon="6.32497778658">
		<tag k="name" v="Litleflua" />
		<tag k="natural" v="shoal" />
		<tag k="place" v="locality" />
		<tag k="ssr:stedsnr" v="719696" />
	</node>
	<node id="-578262" lat="62.6905250001" lon="5.99230556447">
		<tag k="name" v="Skreiasøyla" />
		<tag k="place" v="locality" />
		<tag k="ssr:stedsnr" v="719328" />
	</node>
	<node id="-578261" lat="62.7509666657" lon="5.975019451">
		<tag k="name" v="Rognedjupbakken" />
		<tag k="place" v="locality" />
		<tag k="ssr:stedsnr" v="719323" />
	</node>
	<node id="-578260" lat="62.7657305562" lon="6.02778332393">
		<tag k="name" v="Håsetgrunnen" />
		<tag k="place" v="locality" />
		<tag k="ssr:stedsnr" v="719318" />
	</node>
	<node id="-578259" lat="62.535469443" lon="6.24212500489">
		<tag k="name" v="Merraflua" />
		<tag k="natural" v="shoal" />
		<tag k="place" v="locality" />
		<tag k="ssr:stedsnr" v="718712" />
	</node>
	<node id="-578255" lat="62.6264166623" lon="6.62623610378">
		<tag k="name" v="Søre Ørsnesbukta" />
		<tag k="natural" v="bay" />
		<tag k="ssr:stedsnr" v="718942" />
	</node>
	<node id="-576631" lat="62.689494448" lon="6.27906111914">
		<tag k="fixme" v="consider seamark:type=rock or natural=shoal" />
		<tag k="name" v="Storekvalen" />
		<tag k="place" v="islet" />
		<tag k="ssr:stedsnr" v="396411" />
	</node>
	<node id="-578243" lat="62.578675002" lon="6.46081388779">
		<tag k="name" v="Notaholmane" />
		<tag k="place" v="islet" />
		<tag k="ssr:stedsnr" v="701898" />
	</node>
	<node id="-578239" lat="62.5836750006" lon="6.46253611778">
		<tag k="name" v="Haugholmen" />
		<tag k="place" v="islet" />
		<tag k="ssr:stedsnr" v="701877" />
	</node>
	<node id="-578236" lat="62.60462778" lon="6.66480277621">
		<tag k="name" v="Høgemyrneset" />
		<tag k="natural" v="cape" />
		<tag k="ssr:stedsnr" v="701847" />
	</node>
	<node id="-578233" lat="62.5330872956" lon="6.41522770042">
		<tag k="name" v="Urkedalsvika" />
		<tag k="natural" v="bay" />
		<tag k="ssr:stedsnr" v="701790" />
	</node>
	<node id="-578232" lat="62.5945500016" lon="6.5761277863">
		<tag k="name" v="Fannevika" />
		<tag k="natural" v="bay" />
		<tag k="ssr:stedsnr" v="701771" />
	</node>
	<node id="-578226" lat="62.5291888907" lon="6.57510556386">
		<tag k="name" v="Kobbenesbukta" />
		<tag k="natural" v="bay" />
		<tag k="ssr:stedsnr" v="701689" />
	</node>
	<node id="-578214" lat="62.6123722259" lon="6.65867222046">
		<tag k="name" v="Stølsvikneset" />
		<tag k="natural" v="cape" />
		<tag k="ssr:stedsnr" v="701539" />
	</node>
	<node id="-578211" lat="62.6260861124" lon="6.60054999534">
		<tag k="name" v="Vikane" />
		<tag k="natural" v="bay" />
		<tag k="ssr:stedsnr" v="701443" />
	</node>
	<node id="-578209" lat="62.6334861143" lon="6.66217778376">
		<tag k="name" v="Sersjantvika" />
		<tag k="natural" v="bay" />
		<tag k="ssr:stedsnr" v="701421" />
	</node>
	<node id="-578208" lat="62.6348194401" lon="6.6710361063">
		<tag k="name" v="Skorsteinbukta" />
		<tag k="natural" v="bay" />
		<tag k="ssr:stedsnr" v="701408" />
	</node>
	<node id="-578203" lat="62.6202111095" lon="6.65696111873">
		<tag k="name" v="Gamleneset" />
		<tag k="natural" v="cape" />
		<tag k="ssr:stedsnr" v="701050" />
	</node>
	<node id="-578199" lat="62.7080444424" lon="6.3654055551">
		<tag k="name" v="Fløtvika" />
		<tag k="natural" v="bay" />
		<tag k="ssr:stedsnr" v="700952" />
	</node>
	<node id="-578196" lat="62.5301111109" lon="6.28542222564">
		<tag k="name" v="Friarvika" />
		<tag k="natural" v="bay" />
		<tag k="ssr:stedsnr" v="700666" />
	</node>
	<node id="-578194" lat="62.6795750034" lon="6.24620556191">
		<tag k="name" v="Kobbeflæå" />
		<tag k="natural" v="shoal" />
		<tag k="place" v="locality" />
		<tag k="ssr:stedsnr" v="700626" />
	</node>
	<node id="-578191" lat="62.674552781" lon="6.26258889635">
		<tag k="name" v="Brennerivika" />
		<tag k="natural" v="bay" />
		<tag k="ssr:stedsnr" v="700389" />
	</node>
	<node id="-578190" lat="62.6923611114" lon="6.20255277877">
		<tag k="name" v="Storøyra" />
		<tag k="natural" v="cape" />
		<tag k="ssr:stedsnr" v="700349" />
	</node>
	<node id="-578189" lat="62.5299055551" lon="6.25506388101">
		<tag k="name" v="Straumen" />
		<tag k="natural" v="strait" />
		<tag k="ssr:stedsnr" v="700326" />
	</node>
	<node id="-578730" lat="62.6590833374" lon="6.24412499618">
		<tag k="name" v="Stolen" />
		<tag k="natural" v="cape" />
		<tag k="ssr:stedsnr" v="943487" />
	</node>
	<node id="-578183" lat="62.6873999974" lon="6.23040555368">
		<tag k="name" v="Likneset" />
		<tag k="natural" v="cape" />
		<tag k="ssr:stedsnr" v="699302" />
	</node>
	<node id="-578177" lat="62.6829249982" lon="5.97749999797">
		<tag k="name" v="Hella" />
		<tag k="natural" v="shoal" />
		<tag k="place" v="locality" />
		<tag k="ssr:stedsnr" v="687138" />
	</node>
	<node id="-578176" lat="62.6884833378" lon="6.18925277801">
		<tag k="name" v="Skutvika" />
		<tag k="natural" v="bay" />
		<tag k="ssr:stedsnr" v="687135" />
	</node>
	<node id="-578175" lat="62.6672111126" lon="6.24692221649">
		<tag k="bay" v="fjord" />
		<tag k="name" v="Longvafjorden" />
		<tag k="natural" v="bay" />
		<tag k="ssr:stedsnr" v="679985" />
	</node>
	<node id="-578173" lat="62.6896916637" lon="6.28885555834">
		<tag k="name" v="Kårbuen" />
		<tag k="place" v="islet" />
		<tag k="ssr:stedsnr" v="679909" />
	</node>
	<node id="-578171" lat="62.7316833314" lon="6.26959722178">
		<tag k="name" v="Seiskallane" />
		<tag k="natural" v="shoal" />
		<tag k="place" v="locality" />
		<tag k="ssr:stedsnr" v="679835" />
	</node>
	<node id="-578170" lat="62.7066805593" lon="6.31806389687">
		<tag k="name" v="Hamnholmen" />
		<tag k="place" v="islet" />
		<tag k="ssr:stedsnr" v="679794" />
	</node>
	<node id="-578169" lat="62.5343638888" lon="6.20051111549">
		<tag k="name" v="Kalvøyholmen" />
		<tag k="place" v="islet" />
		<tag k="ssr:stedsnr" v="679744" />
	</node>
	<node id="-578168" lat="62.5188999964" lon="6.18594722712">
		<tag k="fixme" v="consider seamark:type=rock or natural=shoal" />
		<tag k="name" v="Skarvskjeret" />
		<tag k="place" v="islet" />
		<tag k="ssr:stedsnr" v="679733" />
	</node>
	<node id="-578167" lat="62.6861027748" lon="6.16694167624">
		<tag k="name" v="Kvernholmen" />
		<tag k="place" v="islet" />
		<tag k="ssr:stedsnr" v="679729" />
	</node>
	<node id="-578166" lat="62.6901666633" lon="6.19298333896">
		<tag k="name" v="Mækjevika" />
		<tag k="natural" v="bay" />
		<tag k="ssr:stedsnr" v="679727" />
	</node>
	<node id="-578165" lat="62.6834416694" lon="6.17483888191">
		<tag k="name" v="Langeneset" />
		<tag k="natural" v="cape" />
		<tag k="ssr:stedsnr" v="679725" />
	</node>
	<node id="-578164" lat="62.6815166624" lon="6.17863610485">
		<tag k="name" v="Råvika" />
		<tag k="natural" v="bay" />
		<tag k="ssr:stedsnr" v="679726" />
	</node>
	<node id="-578163" lat="62.7019722238" lon="6.06205833392">
		<tag k="name" v="Vasstindskallen" />
		<tag k="natural" v="shoal" />
		<tag k="place" v="locality" />
		<tag k="ssr:stedsnr" v="679720" />
	</node>
	<node id="-578162" lat="62.7013583376" lon="6.09501665903">
		<tag k="name" v="Håskallen" />
		<tag k="natural" v="shoal" />
		<tag k="place" v="locality" />
		<tag k="ssr:stedsnr" v="679719" />
	</node>
	<node id="-578161" lat="62.6880083319" lon="6.0115805482">
		<tag k="name" v="Veteskallen" />
		<tag k="natural" v="shoal" />
		<tag k="place" v="locality" />
		<tag k="ssr:stedsnr" v="679717" />
	</node>
	<node id="-578160" lat="62.6262305589" lon="6.55703889422">
		<tag k="bay" v="fjord" />
		<tag k="name" v="Midfjorden" />
		<tag k="natural" v="bay" />
		<tag k="ssr:stedsnr" v="679440" />
	</node>
	<node id="-578159" lat="62.635347226" lon="6.27510833981">
		<tag k="name" v="Borganeset" />
		<tag k="natural" v="cape" />
		<tag k="ssr:stedsnr" v="679432" />
	</node>
	<node id="-578157" lat="62.6105527789" lon="6.41850833774">
		<tag k="name" v="Skulmeisterneset" />
		<tag k="natural" v="cape" />
		<tag k="ssr:stedsnr" v="679420" />
	</node>
	<node id="-578151" lat="62.5736305568" lon="6.26894444338">
		<tag k="name" v="Juvika" />
		<tag k="natural" v="bay" />
		<tag k="ssr:stedsnr" v="679304" />
	</node>
	<node id="-578143" lat="62.6671166648" lon="6.2180805527">
		<tag k="name" v="Langeneset" />
		<tag k="natural" v="cape" />
		<tag k="ssr:stedsnr" v="679223" />
	</node>
	<node id="-578135" lat="62.6022361156" lon="6.24594722425">
		<tag k="fixme" v="consider seamark:type=rock or natural=shoal" />
		<tag k="name" v="Laukeskjera" />
		<tag k="place" v="islet" />
		<tag k="ssr:stedsnr" v="678475" />
	</node>
	<node id="-578134" lat="62.6040194428" lon="6.2185111036">
		<tag k="name" v="Lausund" />
		<tag k="natural" v="cape" />
		<tag k="ssr:stedsnr" v="678473" />
	</node>
	<node id="-578124" lat="62.5270277823" lon="6.23135556105">
		<tag k="name" v="Torholmen" />
		<tag k="place" v="islet" />
		<tag k="ssr:stedsnr" v="678219" />
	</node>
	<node id="-578123" lat="62.5876305555" lon="6.22955277305">
		<tag k="name" v="Lausundflua" />
		<tag k="natural" v="shoal" />
		<tag k="place" v="locality" />
		<tag k="ssr:stedsnr" v="658774" />
	</node>
	<node id="-578121" lat="62.6183861141" lon="6.32091389597">
		<tag k="name" v="Grynna" />
		<tag k="natural" v="shoal" />
		<tag k="place" v="locality" />
		<tag k="ssr:stedsnr" v="658719" />
	</node>
	<node id="-578120" lat="62.6302361104" lon="6.19955277139">
		<tag k="name" v="Gjerdeflua" />
		<tag k="natural" v="shoal" />
		<tag k="place" v="locality" />
		<tag k="ssr:stedsnr" v="658535" />
	</node>
	<node id="-578119" lat="62.630988893" lon="6.12540000872">
		<tag k="name" v="Råsfallet" />
		<tag k="natural" v="shoal" />
		<tag k="place" v="locality" />
		<tag k="ssr:stedsnr" v="658499" />
	</node>
	<node id="-578118" lat="62.6434888865" lon="6.16482778349">
		<tag k="name" v="Skallen" />
		<tag k="natural" v="shoal" />
		<tag k="place" v="locality" />
		<tag k="ssr:stedsnr" v="658485" />
	</node>
	<node id="-578116" lat="62.7320027759" lon="6.28884999455">
		<tag k="name" v="Norangfalla" />
		<tag k="natural" v="shoal" />
		<tag k="place" v="locality" />
		<tag k="ssr:stedsnr" v="658341" />
	</node>
	<node id="-578113" lat="62.5689583321" lon="6.53935000604">
		<tag k="name" v="Slåttavika" />
		<tag k="natural" v="bay" />
		<tag k="ssr:stedsnr" v="641000" />
	</node>
	<node id="-576477" lat="62.747425003" lon="6.2094750018">
		<tag k="name" v="Flaten" />
		<tag k="natural" v="shoal" />
		<tag k="place" v="locality" />
		<tag k="ssr:stedsnr" v="323163" />
	</node>
	<node id="-578109" lat="62.5873750005" lon="6.61062222967">
		<tag k="fixme" v="consider seamark:type=rock or natural=shoal" />
		<tag k="name" v="Hallvardshella" />
		<tag k="place" v="islet" />
		<tag k="ssr:stedsnr" v="640911" />
	</node>
	<node id="-576607" lat="62.727922221" lon="6.3181333246">
		<tag k="name" v="Aglapfluna" />
		<tag k="natural" v="shoal" />
		<tag k="place" v="locality" />
		<tag k="ssr:stedsnr" v="375830" />
	</node>
	<node id="-578104" lat="62.6073583376" lon="6.66209444863">
		<tag k="name" v="Torvikneset" />
		<tag k="natural" v="cape" />
		<tag k="ssr:stedsnr" v="640846" />
	</node>
	<node id="-578101" lat="62.6219194452" lon="6.53508610539">
		<tag k="bay" v="fjord" />
		<tag k="name" v="Midfjorden" />
		<tag k="natural" v="bay" />
		<tag k="ssr:stedsnr" v="640780" />
	</node>
	<node id="-578093" lat="62.5520916703" lon="6.53357778159">
		<tag k="name" v="Sandvika" />
		<tag k="natural" v="bay" />
		<tag k="ssr:stedsnr" v="640616" />
	</node>
	<node id="-578089" lat="62.6097111094" lon="6.44468056034">
		<tag k="fixme" v="consider seamark:type=rock or natural=shoal" />
		<tag k="name" v="Klovningane" />
		<tag k="place" v="islet" />
		<tag k="ssr:stedsnr" v="640573" />
	</node>
	<node id="-578087" lat="62.6005555558" lon="6.4586194522">
		<tag k="bay" v="fjord" />
		<tag k="name" v="Samfjorden" />
		<tag k="natural" v="bay" />
		<tag k="ssr:stedsnr" v="640557" />
	</node>
	<node id="-578249" lat="62.5711361082" lon="6.6237222202">
		<tag k="name" v="Ulvestadvikane" />
		<tag k="natural" v="bay" />
		<tag k="ssr:stedsnr" v="701986" />
	</node>
	<node id="-576544" lat="62.5367027775" lon="6.57201110823">
		<tag k="name" v="Tennfjordneset" />
		<tag k="natural" v="cape" />
		<tag k="ssr:stedsnr" v="337613" />
	</node>
	<node id="-578074" lat="62.6279972202" lon="6.61668054814">
		<tag k="name" v="Klubben" />
		<tag k="natural" v="cape" />
		<tag k="ssr:stedsnr" v="640228" />
	</node>
	<node id="-578066" lat="62.6089166653" lon="6.40468889296">
		<tag k="name" v="Skjeljavikholmen" />
		<tag k="place" v="islet" />
		<tag k="ssr:stedsnr" v="639951" />
	</node>
	<node id="-578063" lat="62.5254583332" lon="6.23405000354">
		<tag k="name" v="Torholmsundet" />
		<tag k="natural" v="strait" />
		<tag k="ssr:stedsnr" v="639397" />
	</node>
	<node id="-578060" lat="62.5607444449" lon="6.25441389237">
		<tag k="name" v="Grønvika" />
		<tag k="natural" v="bay" />
		<tag k="ssr:stedsnr" v="639300" />
	</node>
	<node id="-578056" lat="62.6878444456" lon="6.40618332997">
		<tag k="name" v="Fuglevika" />
		<tag k="natural" v="bay" />
		<tag k="ssr:stedsnr" v="638929" />
	</node>
	<node id="-578055" lat="62.5747861125" lon="6.26656667614">
		<tag k="name" v="Landstadneset" />
		<tag k="natural" v="cape" />
		<tag k="ssr:stedsnr" v="638913" />
	</node>
	<node id="-578054" lat="62.580280559" lon="6.25701389428">
		<tag k="name" v="Storsteinneset" />
		<tag k="natural" v="cape" />
		<tag k="ssr:stedsnr" v="638910" />
	</node>
	<node id="-578053" lat="62.6204499971" lon="6.1421416635">
		<tag k="name" v="Columbinebukta" />
		<tag k="natural" v="bay" />
		<tag k="ssr:stedsnr" v="638911" />
	</node>
	<node id="-578040" lat="62.6862500001" lon="5.98129999812">
		<tag k="name" v="Skreia" />
		<tag k="natural" v="shoal" />
		<tag k="place" v="locality" />
		<tag k="ssr:stedsnr" v="626177" />
	</node>
	<node id="-578035" lat="62.6996749958" lon="6.43040833095">
		<tag k="name" v="Nordfarneset" />
		<tag k="natural" v="cape" />
		<tag k="ssr:stedsnr" v="618888" />
	</node>
	<node id="-578030" lat="62.7181694459" lon="6.23311944558">
		<tag k="name" v="Svetlingane" />
		<tag k="place" v="islet" />
		<tag k="ssr:stedsnr" v="618804" />
	</node>
	<node id="-578029" lat="62.71824722" lon="6.24072223051">
		<tag k="name" v="Store Svetlingen" />
		<tag k="place" v="islet" />
		<tag k="ssr:stedsnr" v="618801" />
	</node>
	<node id="-578028" lat="62.7184416706" lon="6.43605832872">
		<tag k="bay" v="fjord" />
		<tag k="name" v="Fjørtoftfjorden" />
		<tag k="natural" v="bay" />
		<tag k="ssr:stedsnr" v="618795" />
	</node>
	<node id="-578027" lat="62.7125972217" lon="6.34205833628">
		<tag k="fixme" v="consider seamark:type=rock or natural=shoal" />
		<tag k="name" v="Kråka" />
		<tag k="place" v="islet" />
		<tag k="ssr:stedsnr" v="618789" />
	</node>
	<node id="-578026" lat="62.6949527801" lon="5.99435554843">
		<tag k="name" v="Skreiasteinen" />
		<tag k="natural" v="shoal" />
		<tag k="place" v="locality" />
		<tag k="ssr:stedsnr" v="618712" />
	</node>
	<node id="-578025" lat="62.6347333305" lon="6.19411110185">
		<tag k="name" v="Setsholmen" />
		<tag k="place" v="islet" />
		<tag k="ssr:stedsnr" v="618679" />
	</node>
	<node id="-578023" lat="62.6664805514" lon="6.18936667259">
		<tag k="name" v="Haramsøya" />
		<tag k="place" v="island" />
		<tag k="ssr:stedsnr" v="618670" />
	</node>
	<node id="-578022" lat="62.6683416678" lon="6.15963332759">
		<tag k="fixme" v="consider seamark:type=rock or natural=shoal" />
		<tag k="name" v="Barden" />
		<tag k="place" v="islet" />
		<tag k="ssr:stedsnr" v="618666" />
	</node>
	<node id="-578021" lat="62.6681055525" lon="6.06871944644">
		<tag k="name" v="Vetlegrunnen" />
		<tag k="natural" v="shoal" />
		<tag k="place" v="locality" />
		<tag k="ssr:stedsnr" v="618665" />
	</node>
	<node id="-578020" lat="62.6647666693" lon="6.11423334233">
		<tag k="fixme" v="consider seamark:type=rock or natural=shoal" />
		<tag k="name" v="Haramsklovningen" />
		<tag k="place" v="islet" />
		<tag k="ssr:stedsnr" v="618660" />
	</node>
	<node id="-578015" lat="62.6290944457" lon="6.61533055736">
		<tag k="name" v="Storvika" />
		<tag k="natural" v="bay" />
		<tag k="ssr:stedsnr" v="618438" />
	</node>
	<node id="-578013" lat="62.6039055566" lon="6.24144445245">
		<tag k="name" v="Lauksundet" />
		<tag k="natural" v="strait" />
		<tag k="ssr:stedsnr" v="618426" />
	</node>
	<node id="-578011" lat="62.6193749991" lon="6.53265556246">
		<tag k="name" v="Verpholmen" />
		<tag k="natural" v="cape" />
		<tag k="ssr:stedsnr" v="618421" />
	</node>
	<node id="-577996" lat="62.5751583316" lon="6.25303054624">
		<tag k="name" v="Skinnprikka" />
		<tag k="natural" v="cape" />
		<tag k="ssr:stedsnr" v="618322" />
	</node>
	<node id="-577986" lat="62.5710722205" lon="6.62362221864">
		<tag k="name" v="Vikane" />
		<tag k="natural" v="bay" />
		<tag k="ssr:stedsnr" v="618268" />
	</node>
	<node id="-577984" lat="62.5620583312" lon="6.27609722353">
		<tag k="name" v="Lånavika" />
		<tag k="natural" v="bay" />
		<tag k="ssr:stedsnr" v="618255" />
	</node>
	<node id="-577982" lat="62.5537416627" lon="6.25362499509">
		<tag k="name" v="Terøya" />
		<tag k="place" v="island" />
		<tag k="ssr:stedsnr" v="618251" />
	</node>
	<node id="-577978" lat="62.52988056" lon="6.30454722436">
		<tag k="name" v="Langeneset" />
		<tag k="natural" v="cape" />
		<tag k="ssr:stedsnr" v="618214" />
	</node>
	<node id="-577969" lat="62.5301972259" lon="6.2889444452">
		<tag k="name" v="Fiskeberga" />
		<tag k="natural" v="cape" />
		<tag k="ssr:stedsnr" v="618176" />
	</node>
	<node id="-577966" lat="62.655411115" lon="6.09536110263">
		<tag k="name" v="Lisje Naggen" />
		<tag k="natural" v="shoal" />
		<tag k="place" v="locality" />
		<tag k="ssr:stedsnr" v="598639" />
	</node>
	<node id="-577965" lat="62.6549972234" lon="6.10528333272">
		<tag k="name" v="Naggrunnen" />
		<tag k="natural" v="shoal" />
		<tag k="place" v="locality" />
		<tag k="ssr:stedsnr" v="598640" />
	</node>
	<node id="-577964" lat="62.696472221" lon="5.87242778538">
		<tag k="name" v="Utgrunnen" />
		<tag k="place" v="locality" />
		<tag k="ssr:stedsnr" v="598316" />
	</node>
	<node id="-577963" lat="62.6479916666" lon="6.03365554791">
		<tag k="name" v="Seiskallen" />
		<tag k="natural" v="shoal" />
		<tag k="place" v="locality" />
		<tag k="ssr:stedsnr" v="597911" />
	</node>
	<node id="-577962" lat="62.5783055575" lon="6.23445277687">
		<tag k="name" v="Mortegrunnen" />
		<tag k="natural" v="shoal" />
		<tag k="place" v="locality" />
		<tag k="ssr:stedsnr" v="597836" />
	</node>
	<node id="-577961" lat="62.7385472201" lon="6.28171110457">
		<tag k="name" v="Indre Talboskallen" />
		<tag k="natural" v="shoal" />
		<tag k="place" v="locality" />
		<tag k="ssr:stedsnr" v="597341" />
	</node>
	<node id="-577960" lat="62.7420472241" lon="6.27739445133">
		<tag k="name" v="Aglapskjekene" />
		<tag k="natural" v="shoal" />
		<tag k="place" v="locality" />
		<tag k="ssr:stedsnr" v="597328" />
	</node>
	<node id="-577959" lat="62.6312166696" lon="6.6445194513">
		<tag k="name" v="Båtsteinneset" />
		<tag k="natural" v="cape" />
		<tag k="ssr:stedsnr" v="596948" />
	</node>
	<node id="-577958" lat="62.7013500026" lon="6.43405832815">
		<tag k="name" v="Nordfarflua" />
		<tag k="natural" v="shoal" />
		<tag k="place" v="locality" />
		<tag k="ssr:stedsnr" v="596917" />
	</node>
	<node id="-576416" lat="62.6661333287" lon="5.9900333243">
		<tag k="name" v="Sandbrautgrunnen" />
		<tag k="natural" v="shoal" />
		<tag k="place" v="locality" />
		<tag k="ssr:stedsnr" v="295336" />
	</node>
	<node id="-577955" lat="62.5814888852" lon="6.45497499861">
		<tag k="name" v="Sætrevika" />
		<tag k="natural" v="bay" />
		<tag k="ssr:stedsnr" v="580873" />
	</node>
	<node id="-577944" lat="62.6265361074" lon="6.60954167418">
		<tag k="name" v="Fløten" />
		<tag k="natural" v="beach" />
		<tag k="place" v="locality" />
		<tag k="ssr:stedsnr" v="580331" />
	</node>
	<node id="-576580" lat="62.5326361154" lon="6.22379443657">
		<tag k="name" v="Kalvøysundet" />
		<tag k="natural" v="strait" />
		<tag k="ssr:stedsnr" v="375192" />
	</node>
	<node id="-577942" lat="62.6273722246" lon="6.5901277689">
		<tag k="name" v="Makkevika" />
		<tag k="natural" v="bay" />
		<tag k="ssr:stedsnr" v="580312" />
	</node>
	<node id="-577939" lat="62.6162083371" lon="6.60734165701">
		<tag k="name" v="Langerumpa" />
		<tag k="place" v="islet" />
		<tag k="ssr:stedsnr" v="580306" />
	</node>
	<node id="-577933" lat="62.5812805539" lon="6.62047221903">
		<tag k="name" v="Haugneset" />
		<tag k="natural" v="cape" />
		<tag k="ssr:stedsnr" v="579982" />
	</node>
	<node id="-577911" lat="62.6347000036" lon="6.67799166696">
		<tag k="name" v="Smånesa" />
		<tag k="natural" v="cape" />
		<tag k="ssr:stedsnr" v="579265" />
	</node>
	<node id="-577906" lat="62.5702583307" lon="6.23739999294">
		<tag k="name" v="Skarvenesvika" />
		<tag k="natural" v="bay" />
		<tag k="ssr:stedsnr" v="578938" />
	</node>
	<node id="-577898" lat="62.5291861125" lon="6.27414999126">
		<tag k="name" v="Kyrkjeberget" />
		<tag k="natural" v="cape" />
		<tag k="ssr:stedsnr" v="578647" />
	</node>
	<node id="-577897" lat="62.5405361074" lon="6.28456944706">
		<tag k="name" v="Notaneset" />
		<tag k="natural" v="cape" />
		<tag k="ssr:stedsnr" v="578644" />
	</node>
	<node id="-577887" lat="62.6833388885" lon="6.23039444217">
		<tag k="name" v="Nesåkrane" />
		<tag k="natural" v="cape" />
		<tag k="ssr:stedsnr" v="578311" />
	</node>
	<node id="-577885" lat="62.5322055571" lon="6.25789444561">
		<tag k="name" v="Rundholmsvika" />
		<tag k="natural" v="bay" />
		<tag k="ssr:stedsnr" v="578288" />
	</node>
	<node id="-577882" lat="62.5513416633" lon="6.25967500994">
		<tag k="name" v="Terøyhamna" />
		<tag k="natural" v="bay" />
		<tag k="ssr:stedsnr" v="578259" />
	</node>
	<node id="-577881" lat="62.5593249966" lon="6.24229165743">
		<tag k="name" v="Storsteinneset" />
		<tag k="natural" v="cape" />
		<tag k="ssr:stedsnr" v="578256" />
	</node>
	<node id="-577877" lat="62.6452027749" lon="6.1006944481">
		<tag k="name" v="Vinterskallen" />
		<tag k="natural" v="shoal" />
		<tag k="place" v="locality" />
		<tag k="ssr:stedsnr" v="570572" />
	</node>
	<node id="-577876" lat="62.639872222" lon="6.13248056423">
		<tag k="name" v="Faksen" />
		<tag k="natural" v="shoal" />
		<tag k="place" v="locality" />
		<tag k="ssr:stedsnr" v="565216" />
	</node>
	<node id="-577874" lat="62.6755833338" lon="6.2599388959">
		<tag k="name" v="Langeneset" />
		<tag k="natural" v="cape" />
		<tag k="ssr:stedsnr" v="557985" />
	</node>
	<node id="-577865" lat="62.6873967432" lon="6.28440996897">
		<tag k="name" v="Støene" />
		<tag k="natural" v="bay" />
		<tag k="ssr:stedsnr" v="557875" />
	</node>
	<node id="-577864" lat="62.7135083366" lon="6.33469999125">
		<tag k="name" v="Søgardsholmane" />
		<tag k="place" v="islet" />
		<tag k="ssr:stedsnr" v="557806" />
	</node>
	<node id="-577863" lat="62.7129305526" lon="6.40015000536">
		<tag k="name" v="Knurrvika" />
		<tag k="natural" v="bay" />
		<tag k="ssr:stedsnr" v="557799" />
	</node>
	<node id="-577862" lat="62.598511112" lon="6.20575556032">
		<tag k="name" v="Lausundet" />
		<tag k="natural" v="strait" />
		<tag k="ssr:stedsnr" v="557794" />
	</node>
	<node id="-577861" lat="62.5240055526" lon="6.17768888879">
		<tag k="name" v="Rognholmen" />
		<tag k="place" v="islet" />
		<tag k="ssr:stedsnr" v="557735" />
	</node>
	<node id="-577860" lat="62.7438527785" lon="6.2899361116">
		<tag k="fixme" v="consider seamark:type=rock or natural=shoal" />
		<tag k="name" v="Aglapen" />
		<tag k="place" v="islet" />
		<tag k="ssr:stedsnr" v="557730" />
	</node>
	<node id="-577859" lat="62.6812722184" lon="6.03704443902">
		<tag k="name" v="Skalmen" />
		<tag k="natural" v="shoal" />
		<tag k="place" v="locality" />
		<tag k="ssr:stedsnr" v="557723" />
	</node>
	<node id="-577858" lat="62.7103500024" lon="6.16890277079">
		<tag k="name" v="Flemsboen" />
		<tag k="natural" v="shoal" />
		<tag k="place" v="locality" />
		<tag k="ssr:stedsnr" v="557713" />
	</node>
	<node id="-577857" lat="62.6909388892" lon="6.15197222515">
		<tag k="name" v="Lisjeskallen" />
		<tag k="natural" v="shoal" />
		<tag k="place" v="locality" />
		<tag k="ssr:stedsnr" v="557710" />
	</node>
	<node id="-577855" lat="62.6291555544" lon="6.26527778517">
		<tag k="name" v="Johannesneset" />
		<tag k="natural" v="cape" />
		<tag k="ssr:stedsnr" v="557458" />
	</node>
	<node id="-577852" lat="62.6082527741" lon="6.25096389135">
		<tag k="name" v="Hestøya" />
		<tag k="place" v="island" />
		<tag k="ssr:stedsnr" v="557440" />
	</node>
	<node id="-577851" lat="62.5994388916" lon="6.22040277624">
		<tag k="name" v="Lausundholman" />
		<tag k="place" v="islet" />
		<tag k="ssr:stedsnr" v="557423" />
	</node>
	<node id="-577848" lat="62.6090777755" lon="6.5891027811">
		<tag k="fixme" v="consider seamark:type=rock or natural=shoal" />
		<tag k="name" v="Brennaren" />
		<tag k="place" v="islet" />
		<tag k="ssr:stedsnr" v="557398" />
	</node>
	<node id="-577842" lat="62.5880298895" lon="6.62769174232">
		<tag k="name" v="Hovsetgrynna" />
		<tag k="natural" v="bay" />
		<tag k="ssr:stedsnr" v="557333" />
	</node>
	<node id="-577836" lat="62.5636555539" lon="6.23577499897">
		<tag k="name" v="Bjørnøya" />
		<tag k="place" v="island" />
		<tag k="ssr:stedsnr" v="557296" />
	</node>
	<node id="-577828" lat="62.7253250018" lon="6.2447805563">
		<tag k="name" v="Fanten" />
		<tag k="natural" v="shoal" />
		<tag k="place" v="locality" />
		<tag k="ssr:stedsnr" v="557246" />
	</node>
	<node id="-577823" lat="62.5412055536" lon="6.26434999587">
		<tag k="name" v="Brattholmen" />
		<tag k="place" v="islet" />
		<tag k="ssr:stedsnr" v="557221" />
	</node>
	<node id="-577818" lat="62.5308694451" lon="6.33037500131">
		<tag k="name" v="Svartevika" />
		<tag k="natural" v="bay" />
		<tag k="ssr:stedsnr" v="557202" />
	</node>
	<node id="-577814" lat="62.6922166644" lon="6.00924166603">
		<tag k="name" v="Vetefallsgrunnane" />
		<tag k="natural" v="shoal" />
		<tag k="place" v="locality" />
		<tag k="ssr:stedsnr" v="538864" />
	</node>
	<node id="-577813" lat="62.701186114" lon="6.04123056499">
		<tag k="name" v="Bløkallgrunnen" />
		<tag k="natural" v="shoal" />
		<tag k="place" v="locality" />
		<tag k="ssr:stedsnr" v="538860" />
	</node>
	<node id="-577811" lat="62.6939944421" lon="6.18356945423">
		<tag k="name" v="Skolten" />
		<tag k="natural" v="shoal" />
		<tag k="place" v="locality" />
		<tag k="ssr:stedsnr" v="538651" />
	</node>
	<node id="-577810" lat="62.69529444" lon="6.20587222295">
		<tag k="fixme" v="consider seamark:type=rock or natural=shoal" />
		<tag k="name" v="Lisjeskjeret" />
		<tag k="place" v="islet" />
		<tag k="ssr:stedsnr" v="538649" />
	</node>
	<node id="-577809" lat="62.662791667" lon="6.09860277214">
		<tag k="name" v="Traubakkfallet" />
		<tag k="natural" v="shoal" />
		<tag k="place" v="locality" />
		<tag k="ssr:stedsnr" v="537907" />
	</node>
	<node id="-577808" lat="62.5739361101" lon="6.23421666712">
		<tag k="name" v="Vikeflua" />
		<tag k="natural" v="shoal" />
		<tag k="place" v="locality" />
		<tag k="ssr:stedsnr" v="537802" />
	</node>
	<node id="-577807" lat="62.6938777795" lon="5.9573916734">
		<tag k="name" v="Søre Ivarskallen" />
		<tag k="natural" v="shoal" />
		<tag k="place" v="locality" />
		<tag k="ssr:stedsnr" v="537320" />
	</node>
	<node id="-577806" lat="62.7309194481" lon="6.21417222312">
		<tag k="name" v="Hakeboane" />
		<tag k="natural" v="shoal" />
		<tag k="place" v="locality" />
		<tag k="ssr:stedsnr" v="537302" />
	</node>
	<node id="-577805" lat="62.7322916684" lon="6.21140000288">
		<tag k="name" v="Hakebogrunnen" />
		<tag k="natural" v="shoal" />
		<tag k="place" v="locality" />
		<tag k="ssr:stedsnr" v="537301" />
	</node>
	<node id="-577804" lat="62.6243611156" lon="6.59929166838">
		<tag k="name" v="Tennøysundet" />
		<tag k="natural" v="strait" />
		<tag k="ssr:stedsnr" v="536905" />
	</node>
	<node id="-577803" lat="62.5257111068" lon="6.24049999189">
		<tag k="name" v="Berntflua" />
		<tag k="natural" v="shoal" />
		<tag k="place" v="locality" />
		<tag k="ssr:stedsnr" v="536729" />
	</node>
	<node id="-577802" lat="62.5262722242" lon="6.24474444559">
		<tag k="name" v="Sørflua" />
		<tag k="natural" v="shoal" />
		<tag k="place" v="locality" />
		<tag k="ssr:stedsnr" v="536728" />
	</node>
	<node id="-577796" lat="62.5867638875" lon="6.60666111432">
		<tag k="name" v="Lauvika" />
		<tag k="natural" v="bay" />
		<tag k="ssr:stedsnr" v="519927" />
	</node>
	<node id="-577795" lat="62.5773694467" lon="6.55181944733">
		<tag k="name" v="Fonnaneset" />
		<tag k="natural" v="cape" />
		<tag k="ssr:stedsnr" v="519926" />
	</node>
	<node id="-577793" lat="62.5881944412" lon="6.45389722701">
		<tag k="name" v="Aurvika" />
		<tag k="natural" v="bay" />
		<tag k="ssr:stedsnr" v="519885" />
	</node>
	<node id="-577788" lat="62.6151166678" lon="6.50887499191">
		<tag k="name" v="Krossvika" />
		<tag k="natural" v="bay" />
		<tag k="ssr:stedsnr" v="519857" />
	</node>
	<node id="-577787" lat="62.6056722244" lon="6.66383333423">
		<tag k="name" v="Storsteinvikneset" />
		<tag k="natural" v="cape" />
		<tag k="ssr:stedsnr" v="519855" />
	</node>
	<node id="-577786" lat="62.6163611092" lon="6.52297778416">
		<tag k="name" v="Klauneset" />
		<tag k="natural" v="cape" />
		<tag k="ssr:stedsnr" v="519854" />
	</node>
	<node id="-577783" lat="62.6080527808" lon="6.66763889805">
		<tag k="name" v="Årnesbukta" />
		<tag k="natural" v="bay" />
		<tag k="ssr:stedsnr" v="519845" />
	</node>
	<node id="-577781" lat="62.6137305582" lon="6.43108055149">
		<tag k="name" v="Djuvikholmen" />
		<tag k="place" v="islet" />
		<tag k="ssr:stedsnr" v="519832" />
	</node>
	<node id="-577778" lat="62.6152611109" lon="6.47064167381">
		<tag k="name" v="Fjølevika" />
		<tag k="natural" v="bay" />
		<tag k="ssr:stedsnr" v="519819" />
	</node>
	<node id="-577775" lat="62.5301666691" lon="6.45563056176">
		<tag k="bay" v="fjord" />
		<tag k="name" v="Grytafjorden" />
		<tag k="natural" v="bay" />
		<tag k="ssr:stedsnr" v="519760" />
	</node>
	<node id="-576933" lat="62.6086499997" lon="6.44490277775">
		<tag k="name" v="Måseflæå" />
		<tag k="natural" v="shoal" />
		<tag k="place" v="locality" />
		<tag k="ssr:stedsnr" v="34492" />
	</node>
	<node id="-576550" lat="62.5912277821" lon="6.59592223072">
		<tag k="name" v="Skjervika" />
		<tag k="natural" v="bay" />
		<tag k="ssr:stedsnr" v="337744" />
	</node>
	<node id="-577762" lat="62.5631472234" lon="6.55383889805">
		<tag k="name" v="Sandvika" />
		<tag k="natural" v="bay" />
		<tag k="ssr:stedsnr" v="519557" />
	</node>
	<node id="-577758" lat="62.5934611076" lon="6.4508555464">
		<tag k="name" v="Grønneset" />
		<tag k="natural" v="cape" />
		<tag k="ssr:stedsnr" v="519539" />
	</node>
	<node id="-577756" lat="62.5910111117" lon="6.44770833437">
		<tag k="name" v="Makrelneset" />
		<tag k="natural" v="cape" />
		<tag k="ssr:stedsnr" v="519535" />
	</node>
	<node id="-577754" lat="62.6186166709" lon="6.66468055611">
		<tag k="name" v="Makkholmen" />
		<tag k="place" v="islet" />
		<tag k="ssr:stedsnr" v="519495" />
	</node>
	<node id="-577744" lat="62.5369999961" lon="6.49556666622">
		<tag k="name" v="Karmarnesbukta" />
		<tag k="natural" v="bay" />
		<tag k="ssr:stedsnr" v="519182" />
	</node>
	<node id="-577740" lat="62.6095000021" lon="6.41566111645">
		<tag k="name" v="Sleneset" />
		<tag k="natural" v="cape" />
		<tag k="ssr:stedsnr" v="518933" />
	</node>
	<node id="-577736" lat="62.6109472233" lon="6.33154167624">
		<tag k="name" v="Haugvika" />
		<tag k="natural" v="bay" />
		<tag k="ssr:stedsnr" v="518562" />
	</node>
	<node id="-577731" lat="62.5685611106" lon="6.25133333839">
		<tag k="name" v="Flesborvikane" />
		<tag k="natural" v="bay" />
		<tag k="ssr:stedsnr" v="517924" />
	</node>
	<node id="-577729" lat="62.6897638893" lon="6.25694721252">
		<tag k="fixme" v="consider seamark:type=rock or natural=shoal" />
		<tag k="name" v="Lyrbrekka" />
		<tag k="place" v="islet" />
		<tag k="ssr:stedsnr" v="517619" />
	</node>
	<node id="-577727" lat="62.6901694432" lon="6.25200278346">
		<tag k="name" v="Sakshamarkråa" />
		<tag k="natural" v="bay" />
		<tag k="ssr:stedsnr" v="517615" />
	</node>
	<node id="-577719" lat="62.6814888889" lon="6.18798333735">
		<tag k="name" v="Tongvika" />
		<tag k="natural" v="bay" />
		<tag k="ssr:stedsnr" v="517319" />
	</node>
	<node id="-577717" lat="62.6948333348" lon="6.19050834072">
		<tag k="fixme" v="consider seamark:type=rock or natural=shoal" />
		<tag k="name" v="Småskjera" />
		<tag k="place" v="islet" />
		<tag k="ssr:stedsnr" v="517309" />
	</node>
	<node id="-577716" lat="62.6872749973" lon="6.20647222662">
		<tag k="name" v="Litleøyra" />
		<tag k="natural" v="cape" />
		<tag k="ssr:stedsnr" v="517303" />
	</node>
	<node id="-577711" lat="62.656358333" lon="6.04473889648">
		<tag k="name" v="Hemboen" />
		<tag k="natural" v="shoal" />
		<tag k="place" v="locality" />
		<tag k="ssr:stedsnr" v="506489" />
	</node>
	<node id="-577709" lat="62.6641972207" lon="6.2385500011">
		<tag k="name" v="Håneset" />
		<tag k="natural" v="cape" />
		<tag k="ssr:stedsnr" v="497982" />
	</node>
	<node id="-577707" lat="62.6678611128" lon="6.2659666715">
		<tag k="name" v="Neset" />
		<tag k="natural" v="cape" />
		<tag k="ssr:stedsnr" v="497980" />
	</node>
	<node id="-577704" lat="62.6984194475" lon="6.355533338">
		<tag k="name" v="Stongneset" />
		<tag k="natural" v="cape" />
		<tag k="ssr:stedsnr" v="497925" />
	</node>
	<node id="-577699" lat="62.6963968945" lon="6.39890833473">
		<tag k="name" v="Fjørtofta" />
		<tag k="place" v="island" />
		<tag k="ssr:stedsnr" v="497889" />
	</node>
	<node id="-577697" lat="62.7429000014" lon="6.30161666027">
		<tag k="name" v="Fanten" />
		<tag k="natural" v="shoal" />
		<tag k="place" v="locality" />
		<tag k="ssr:stedsnr" v="497752" />
	</node>
	<node id="-577696" lat="62.6805416659" lon="6.12743054922">
		<tag k="name" v="Skulestø" />
		<tag k="natural" v="shoal" />
		<tag k="place" v="locality" />
		<tag k="ssr:stedsnr" v="497743" />
	</node>
	<node id="-577695" lat="62.6442500017" lon="6.06330833995">
		<tag k="fixme" v="consider seamark:type=rock or natural=shoal" />
		<tag k="name" v="Åmundsboane" />
		<tag k="place" v="islet" />
		<tag k="ssr:stedsnr" v="497692" />
	</node>
	<node id="-577694" lat="62.658297225" lon="6.17772222536">
		<tag k="name" v="Kvalvika" />
		<tag k="natural" v="bay" />
		<tag k="ssr:stedsnr" v="497673" />
	</node>
	<node id="-577691" lat="62.6234111136" lon="6.55545000222">
		<tag k="name" v="Rimmelsvågen" />
		<tag k="natural" v="bay" />
		<tag k="ssr:stedsnr" v="497454" />
	</node>
	<node id="-577688" lat="62.613647223" lon="6.43533888715">
		<tag k="name" v="Arhaugneset" />
		<tag k="natural" v="cape" />
		<tag k="ssr:stedsnr" v="497436" />
	</node>
	<node id="-577684" lat="62.5782194475" lon="6.24966943768">
		<tag k="name" v="Grynnsundet" />
		<tag k="natural" v="strait" />
		<tag k="ssr:stedsnr" v="497349" />
	</node>
	<node id="-577676" lat="62.7298972231" lon="6.33744999204">
		<tag k="name" v="Rengene" />
		<tag k="natural" v="shoal" />
		<tag k="place" v="locality" />
		<tag k="ssr:stedsnr" v="496836" />
	</node>
	<node id="-577675" lat="62.7198472244" lon="6.32283889642">
		<tag k="fixme" v="consider seamark:type=rock or natural=shoal" />
		<tag k="name" v="Vadfleda" />
		<tag k="place" v="islet" />
		<tag k="ssr:stedsnr" v="496824" />
	</node>
	<node id="-577674" lat="62.7095861122" lon="6.34199722727">
		<tag k="fixme" v="consider seamark:type=rock or natural=shoal" />
		<tag k="name" v="Øyra" />
		<tag k="place" v="islet" />
		<tag k="ssr:stedsnr" v="496817" />
	</node>
	<node id="-577673" lat="62.708355556" lon="6.32360278488">
		<tag k="fixme" v="consider seamark:type=rock or natural=shoal" />
		<tag k="name" v="Finnbrekka" />
		<tag k="place" v="islet" />
		<tag k="ssr:stedsnr" v="496818" />
	</node>
	<node id="-577669" lat="62.6201666642" lon="6.59101111539">
		<tag k="fixme" v="consider seamark:type=rock or natural=shoal" />
		<tag k="name" v="Blinskjeret" />
		<tag k="place" v="islet" />
		<tag k="ssr:stedsnr" v="496470" />
	</node>
	<node id="-577667" lat="62.6090722214" lon="6.44881665701">
		<tag k="name" v="Kjeholmen" />
		<tag k="place" v="islet" />
		<tag k="ssr:stedsnr" v="496468" />
	</node>
	<node id="-576605" lat="62.6718416677" lon="5.96616111654">
		<tag k="name" v="Sandbrautene" />
		<tag k="natural" v="shoal" />
		<tag k="place" v="locality" />
		<tag k="ssr:stedsnr" v="375671" />
	</node>
	<node id="-577655" lat="62.5292805542" lon="6.26995555097">
		<tag k="name" v="Kleivaneset" />
		<tag k="natural" v="cape" />
		<tag k="ssr:stedsnr" v="496228" />
	</node>
	<node id="-577653" lat="62.5282722221" lon="6.24741667336">
		<tag k="name" v="Didrikholmen" />
		<tag k="place" v="islet" />
		<tag k="ssr:stedsnr" v="496211" />
	</node>
	<node id="-577651" lat="62.6632222182" lon="6.12391388225">
		<tag k="name" v="Seiskallen" />
		<tag k="natural" v="shoal" />
		<tag k="place" v="locality" />
		<tag k="ssr:stedsnr" v="465851" />
	</node>
	<node id="-577649" lat="62.5839722244" lon="6.45569167089">
		<tag k="name" v="Ramsvikneset" />
		<tag k="natural" v="cape" />
		<tag k="ssr:stedsnr" v="459877" />
	</node>
	<node id="-577646" lat="62.6001416626" lon="6.3088361113">
		<tag k="name" v="Sandvika" />
		<tag k="natural" v="bay" />
		<tag k="ssr:stedsnr" v="459591" />
	</node>
	<node id="-577643" lat="62.5611555588" lon="6.53628889794">
		<tag k="name" v="Pettervika" />
		<tag k="natural" v="bay" />
		<tag k="ssr:stedsnr" v="459560" />
	</node>
	<node id="-577640" lat="62.6014083293" lon="6.46408333035">
		<tag k="name" v="Risvikneset" />
		<tag k="natural" v="cape" />
		<tag k="ssr:stedsnr" v="459480" />
	</node>
	<node id="-577632" lat="62.6257972203" lon="6.60097221928">
		<tag k="name" v="Hundbergsnagen" />
		<tag k="natural" v="cape" />
		<tag k="ssr:stedsnr" v="459335" />
	</node>
	<node id="-577627" lat="62.5770916695" lon="6.62455555076">
		<tag k="name" v="Grøtneset" />
		<tag k="natural" v="cape" />
		<tag k="ssr:stedsnr" v="458995" />
	</node>
	<node id="-577626" lat="62.5876777747" lon="6.60883888169">
		<tag k="name" v="Lauvvikholmen" />
		<tag k="place" v="islet" />
		<tag k="ssr:stedsnr" v="458938" />
	</node>
	<node id="-577622" lat="62.6069194442" lon="6.66831666872">
		<tag k="name" v="Sandneset" />
		<tag k="natural" v="cape" />
		<tag k="ssr:stedsnr" v="458866" />
	</node>
	<node id="-577621" lat="62.6054944408" lon="6.66984444549">
		<tag k="name" v="Sjøgardsneset" />
		<tag k="natural" v="cape" />
		<tag k="ssr:stedsnr" v="458865" />
	</node>
	<node id="-577618" lat="62.5947749982" lon="6.57396945254">
		<tag k="name" v="Timbrevika" />
		<tag k="natural" v="bay" />
		<tag k="ssr:stedsnr" v="458769" />
	</node>
	<node id="-578370" lat="62.5263583326" lon="6.54899167622">
		<tag k="name" v="Håneset" />
		<tag k="natural" v="cape" />
		<tag k="ssr:stedsnr" v="761726" />
	</node>
	<node id="-577611" lat="62.6095249995" lon="6.66112499674">
		<tag k="name" v="Breivikneset" />
		<tag k="natural" v="cape" />
		<tag k="ssr:stedsnr" v="458534" />
	</node>
	<node id="-577609" lat="62.6154944446" lon="6.59478332638">
		<tag k="name" v="Sørebukta" />
		<tag k="natural" v="bay" />
		<tag k="ssr:stedsnr" v="458462" />
	</node>
	<node id="-577608" lat="62.626011109" lon="6.57040277204">
		<tag k="alt_name" v="Baraldsholmen" />
		<tag k="name" v="Baraldnesholmen" />
		<tag k="place" v="islet" />
		<tag k="ssr:stedsnr" v="458459" />
	</node>
	<node id="-577597" lat="62.6145111145" lon="6.65791666368">
		<tag k="name" v="Digerneset" />
		<tag k="natural" v="cape" />
		<tag k="ssr:stedsnr" v="458250" />
	</node>
	<node id="-577593" lat="62.5710027745" lon="6.27056666137">
		<tag k="name" v="Grøtnesvika" />
		<tag k="natural" v="bay" />
		<tag k="ssr:stedsnr" v="457913" />
	</node>
	<node id="-577592" lat="62.574763886" lon="6.24372777302">
		<tag k="name" v="Grynnvågfluda" />
		<tag k="natural" v="shoal" />
		<tag k="place" v="locality" />
		<tag k="ssr:stedsnr" v="457901" />
	</node>
	<node id="-577586" lat="62.5385777773" lon="6.28066944185">
		<tag k="name" v="Gulsteinen" />
		<tag k="natural" v="cape" />
		<tag k="ssr:stedsnr" v="457639" />
	</node>
	<node id="-577584" lat="62.6432111093" lon="6.32628333285">
		<tag k="bay" v="fjord" />
		<tag k="name" v="Longvafjorden" />
		<tag k="natural" v="bay" />
		<tag k="ssr:stedsnr" v="457516" />
	</node>
	<node id="-577583" lat="62.6855388866" lon="6.16324166879">
		<tag k="fixme" v="consider seamark:type=rock or natural=shoal" />
		<tag k="name" v="Kverna" />
		<tag k="place" v="islet" />
		<tag k="ssr:stedsnr" v="457503" />
	</node>
	<node id="-577581" lat="62.6094277808" lon="6.24714166004">
		<tag k="name" v="Vikane" />
		<tag k="natural" v="bay" />
		<tag k="ssr:stedsnr" v="457402" />
	</node>
	<node id="-577580" lat="62.6088055565" lon="6.25412778209">
		<tag k="name" v="Hamna" />
		<tag k="natural" v="bay" />
		<tag k="ssr:stedsnr" v="457392" />
	</node>
	<node id="-577577" lat="62.6885583294" lon="6.23315278622">
		<tag k="name" v="Ytre Flemsvika" />
		<tag k="natural" v="bay" />
		<tag k="ssr:stedsnr" v="457291" />
	</node>
	<node id="-577575" lat="62.5376472237" lon="6.24967500569">
		<tag k="name" v="Småholmane" />
		<tag k="place" v="islet" />
		<tag k="ssr:stedsnr" v="457283" />
	</node>
	<node id="-577568" lat="62.6590111091" lon="6.16006110201">
		<tag k="name" v="Grautafluda" />
		<tag k="natural" v="shoal" />
		<tag k="place" v="locality" />
		<tag k="ssr:stedsnr" v="444213" />
	</node>
	<node id="-577567" lat="62.6776000019" lon="6.0762750093">
		<tag k="name" v="Langfallet" />
		<tag k="natural" v="shoal" />
		<tag k="place" v="locality" />
		<tag k="ssr:stedsnr" v="444209" />
	</node>
	<node id="-577563" lat="62.5377138896" lon="6.24703056116">
		<tag k="name" v="Klungreholmane" />
		<tag k="place" v="islet" />
		<tag k="ssr:stedsnr" v="437245" />
	</node>
	<node id="-577562" lat="62.674872226" lon="6.26158611068">
		<tag k="name" v="Vikane" />
		<tag k="natural" v="bay" />
		<tag k="old_name" v="Brennerivikane" />
		<tag k="ssr:stedsnr" v="436990" />
	</node>
	<node id="-577561" lat="62.6539722185" lon="6.3357388917">
		<tag k="name" v="Rognevika" />
		<tag k="natural" v="bay" />
		<tag k="ssr:stedsnr" v="436933" />
	</node>
	<node id="-577559" lat="62.7052999997" lon="6.31728888675">
		<tag k="name" v="Fjørtoftneset" />
		<tag k="natural" v="cape" />
		<tag k="ssr:stedsnr" v="436921" />
	</node>
	<node id="-577558" lat="62.7046499982" lon="6.30493055198">
		<tag k="fixme" v="consider seamark:type=rock or natural=shoal" />
		<tag k="name" v="Skjoldane" />
		<tag k="place" v="islet" />
		<tag k="ssr:stedsnr" v="436918" />
	</node>
	<node id="-577557" lat="62.690922221" lon="6.25157777613">
		<tag k="name" v="Sakshammarklubben" />
		<tag k="natural" v="cape" />
		<tag k="ssr:stedsnr" v="436910" />
	</node>
	<node id="-577555" lat="62.6874861127" lon="6.29328055064">
		<tag k="name" v="Lisjeholmen" />
		<tag k="place" v="islet" />
		<tag k="ssr:stedsnr" v="436871" />
	</node>
	<node id="-577554" lat="62.7256416696" lon="6.3252499967">
		<tag k="name" v="Håboen" />
		<tag k="natural" v="shoal" />
		<tag k="place" v="locality" />
		<tag k="ssr:stedsnr" v="436835" />
	</node>
	<node id="-577553" lat="62.7117305539" lon="6.33620832936">
		<tag k="fixme" v="consider seamark:type=rock or natural=shoal" />
		<tag k="name" v="Sandskjeret" />
		<tag k="place" v="islet" />
		<tag k="ssr:stedsnr" v="436814" />
	</node>
	<node id="-577549" lat="62.6668777803" lon="6.16276389084">
		<tag k="name" v="Stavneset" />
		<tag k="natural" v="cape" />
		<tag k="ssr:stedsnr" v="436672" />
	</node>
	<node id="-577542" lat="62.5753027767" lon="6.60730556299">
		<tag k="bay" v="fjord" />
		<tag k="name" v="Vatnefjorden" />
		<tag k="natural" v="bay" />
		<tag k="ssr:stedsnr" v="436363" />
	</node>
	<node id="-576513" lat="62.6221333303" lon="6.65674444622">
		<tag k="name" v="Naustneset" />
		<tag k="natural" v="cape" />
		<tag k="ssr:stedsnr" v="337042" />
	</node>
	<node id="-577539" lat="62.572213885" lon="6.2457083352">
		<tag k="name" v="Grynnevågen" />
		<tag k="natural" v="bay" />
		<tag k="ssr:stedsnr" v="436331" />
	</node>
</osm>
