<?xml version="1.0" encoding="UTF-8"?>
<osm generator="osmapis" version="0.6">
	<node id="-575487" lat="62.5717555566" lon="6.72723054896">
		<tag k="name" v="Fonnalaupen" />
		<tag k="natural" v="slope" />
		<tag k="place" v="locality" />
		<tag k="ssr:stedsnr" v="276562" />
	</node>
	<node id="-575486" lat="62.5806777785" lon="6.70334443598">
		<tag k="name" v="Hellaren" />
		<tag k="place" v="locality" />
		<tag k="ssr:stedsnr" v="276551" />
	</node>
	<node id="-577533" lat="62.6099500023" lon="6.50585556417">
		<tag k="fixme" v="consider natural=peak for the most distinct mountains in the district" />
		<tag k="name" v="Nonsfjellet" />
		<tag k="natural" v="hill" />
		<tag k="place" v="locality" />
		<tag k="ssr:stedsnr" v="762979" />
	</node>
	<node id="-577531" lat="62.5753944482" lon="6.60219166861">
		<tag k="name" v="Kvernhusbakken" />
		<tag k="natural" v="hill" />
		<tag k="place" v="locality" />
		<tag k="ssr:stedsnr" v="762802" />
	</node>
	<node id="-577530" lat="62.5759527771" lon="6.76216666169">
		<tag k="name" v="Lia" />
		<tag k="natural" v="slope" />
		<tag k="place" v="locality" />
		<tag k="ssr:stedsnr" v="762626" />
	</node>
	<node id="-575481" lat="62.6148666666" lon="6.73486667004">
		<tag k="name" v="Steinrabben" />
		<tag k="place" v="locality" />
		<tag k="ssr:stedsnr" v="276452" />
	</node>
	<node id="-577528" lat="62.5567388856" lon="6.53407777123">
		<tag k="name" v="Stomteigane" />
		<tag k="natural" v="slope" />
		<tag k="place" v="locality" />
		<tag k="ssr:stedsnr" v="762552" />
	</node>
	<node id="-575828" lat="62.5542555588" lon="6.53032500239">
		<tag k="name" v="Tverlina" />
		<tag k="natural" v="slope" />
		<tag k="place" v="locality" />
		<tag k="ssr:stedsnr" v="398559" />
	</node>
	<node id="-577523" lat="62.5914388895" lon="6.48626944775">
		<tag k="name" v="Nyfonna" />
		<tag k="natural" v="slope" />
		<tag k="place" v="locality" />
		<tag k="ssr:stedsnr" v="762498" />
	</node>
	<node id="-577519" lat="62.5409083296" lon="6.48501666392">
		<tag k="name" v="Hagenakken" />
		<tag k="natural" v="ridge" />
		<tag k="place" v="locality" />
		<tag k="ssr:stedsnr" v="762417" />
	</node>
	<node id="-575466" lat="62.6120694443" lon="6.33577778578">
		<tag k="name" v="Storhaugen" />
		<tag k="natural" v="hill" />
		<tag k="place" v="locality" />
		<tag k="ssr:stedsnr" v="275556" />
	</node>
	<node id="-575465" lat="62.642066665" lon="6.24169722422">
		<tag k="name" v="Måshamrane" />
		<tag k="natural" v="cliff" />
		<tag k="ssr:stedsnr" v="275552" />
	</node>
	<node id="-577512" lat="62.541980558" lon="6.50609443572">
		<tag k="name" v="Hjellen" />
		<tag k="place" v="locality" />
		<tag k="ssr:stedsnr" v="762169" />
	</node>
	<node id="-575825" lat="62.5932944414" lon="6.69145276999">
		<tag k="name" v="Jakopsslætte" />
		<tag k="natural" v="slope" />
		<tag k="place" v="locality" />
		<tag k="ssr:stedsnr" v="398432" />
	</node>
	<node id="-575460" lat="62.6872638866" lon="6.27705833361">
		<tag k="name" v="Støhalsen" />
		<tag k="natural" v="ridge" />
		<tag k="place" v="locality" />
		<tag k="ssr:stedsnr" v="275402" />
	</node>
	<node id="-577507" lat="62.605425002" lon="6.4098861091">
		<tag k="name" v="Ramnegjelet" />
		<tag k="natural" v="cliff" />
		<tag k="ssr:stedsnr" v="761946" />
	</node>
	<node id="-577506" lat="62.5843222244" lon="6.55438888878">
		<tag k="name" v="Kråna" />
		<tag k="natural" v="slope" />
		<tag k="place" v="locality" />
		<tag k="ssr:stedsnr" v="761914" />
	</node>
	<node id="-575483" lat="62.6244111124" lon="6.68962499733">
		<tag k="name" v="Gamlestølen" />
		<tag k="natural" v="slope" />
		<tag k="place" v="locality" />
		<tag k="ssr:stedsnr" v="276455" />
	</node>
	<node id="-577502" lat="62.6057027792" lon="6.64021110921">
		<tag k="name" v="Orvikbuhaugen" />
		<tag k="natural" v="hill" />
		<tag k="place" v="locality" />
		<tag k="ssr:stedsnr" v="761867" />
	</node>
	<node id="-577500" lat="62.5918777738" lon="6.58530555097">
		<tag k="name" v="Joberget" />
		<tag k="natural" v="hill" />
		<tag k="place" v="locality" />
		<tag k="ssr:stedsnr" v="761778" />
	</node>
	<node id="-577499" lat="62.5389833314" lon="6.63348334313">
		<tag k="name" v="Tinghaugen" />
		<tag k="natural" v="hill" />
		<tag k="place" v="locality" />
		<tag k="ssr:stedsnr" v="761754" />
	</node>
	<node id="-577487" lat="62.5623916687" lon="6.55734721984">
		<tag k="name" v="Høgenøsa" />
		<tag k="natural" v="slope" />
		<tag k="place" v="locality" />
		<tag k="ssr:stedsnr" v="761595" />
	</node>
	<node id="-577486" lat="62.5496444472" lon="6.56883332989">
		<tag k="name" v="Andrinadalen" />
		<tag k="natural" v="valley" />
		<tag k="place" v="locality" />
		<tag k="ssr:stedsnr" v="761592" />
	</node>
	<node id="-577480" lat="62.6133705415" lon="6.56747685994">
		<tag k="name" v="Legene" />
		<tag k="natural" v="slope" />
		<tag k="place" v="locality" />
		<tag k="ssr:stedsnr" v="761449" />
	</node>
	<node id="-577473" lat="62.6992361077" lon="6.38500554889">
		<tag k="name" v="Vardebotnen" />
		<tag k="natural" v="valley" />
		<tag k="place" v="locality" />
		<tag k="ssr:stedsnr" v="760953" />
	</node>
	<node id="-577472" lat="62.7011638903" lon="6.36931945169">
		<tag k="name" v="Svebakkane" />
		<tag k="natural" v="slope" />
		<tag k="place" v="locality" />
		<tag k="ssr:stedsnr" v="760947" />
	</node>
	<node id="-577464" lat="62.6143083304" lon="6.14783332829">
		<tag k="alt_name" v="Gylta" />
		<tag k="name" v="Gylta Smalhans" />
		<tag k="natural" v="hill" />
		<tag k="place" v="locality" />
		<tag k="ssr:stedsnr" v="760776" />
	</node>
	<node id="-577463" lat="62.6524499986" lon="6.23261388447">
		<tag k="name" v="Varden" />
		<tag k="natural" v="hill" />
		<tag k="place" v="locality" />
		<tag k="ssr:stedsnr" v="760765" />
	</node>
	<node id="-575817" lat="62.5832583313" lon="6.6366972259">
		<tag k="name" v="Raset" />
		<tag k="place" v="locality" />
		<tag k="ssr:stedsnr" v="397986" />
	</node>
	<node id="-577458" lat="62.6482833344" lon="6.24157777985">
		<tag k="name" v="Åkrefjellet" />
		<tag k="natural" v="hill" />
		<tag k="place" v="locality" />
		<tag k="ssr:stedsnr" v="760586" />
	</node>
	<node id="-575475" lat="62.6036750046" lon="6.41642778047">
		<tag k="name" v="Sætrehaugen" />
		<tag k="natural" v="hill" />
		<tag k="place" v="locality" />
		<tag k="ssr:stedsnr" v="275930" />
	</node>
	<node id="-577456" lat="62.6679750033" lon="6.16791945299">
		<tag k="name" v="Stavnesryggen" />
		<tag k="natural" v="ridge" />
		<tag k="place" v="locality" />
		<tag k="ssr:stedsnr" v="760510" />
	</node>
	<node id="-577444" lat="62.6726722179" lon="6.30012222328">
		<tag k="name" v="Skulesida" />
		<tag k="natural" v="slope" />
		<tag k="place" v="locality" />
		<tag k="ssr:stedsnr" v="740999" />
	</node>
	<node id="-577434" lat="62.5859361157" lon="6.38897500685">
		<tag k="fixme" v="consider natural=peak for the most distinct mountains in the district" />
		<tag k="name" v="Kjelsryggen" />
		<tag k="natural" v="hill" />
		<tag k="place" v="locality" />
		<tag k="ssr:stedsnr" v="740352" />
	</node>
	<node id="-577433" lat="62.583733337" lon="6.43688610853">
		<tag k="name" v="Dalane" />
		<tag k="natural" v="valley" />
		<tag k="place" v="locality" />
		<tag k="ssr:stedsnr" v="740350" />
	</node>
	<node id="-577432" lat="62.5732416663" lon="6.40025278601">
		<tag k="fixme" v="consider natural=peak for the most distinct mountains in the district" />
		<tag k="name" v="Synnalandsskåla" />
		<tag k="natural" v="hill" />
		<tag k="place" v="locality" />
		<tag k="ssr:stedsnr" v="740331" />
	</node>
	<node id="-577431" lat="62.5844000029" lon="6.53555833232">
		<tag k="name" v="Øygardsdekta" />
		<tag k="natural" v="valley" />
		<tag k="place" v="locality" />
		<tag k="ssr:stedsnr" v="740323" />
	</node>
	<node id="-577430" lat="62.5661972244" lon="6.62327222323">
		<tag k="fixme" v="consider natural=peak for the most distinct mountains in the district" />
		<tag k="name" v="Kollen" />
		<tag k="natural" v="hill" />
		<tag k="place" v="locality" />
		<tag k="ssr:stedsnr" v="740262" />
	</node>
	<node id="-577425" lat="62.5447333373" lon="6.38428055373">
		<tag k="name" v="Torvsæterhaugane" />
		<tag k="natural" v="hill" />
		<tag k="place" v="locality" />
		<tag k="ssr:stedsnr" v="740228" />
	</node>
	<node id="-577413" lat="62.6137861108" lon="6.64356110436">
		<tag k="name" v="Langsetskaret" />
		<tag k="natural" v="valley" />
		<tag k="place" v="locality" />
		<tag k="ssr:stedsnr" v="739409" />
	</node>
	<node id="-577412" lat="62.583708335" lon="6.42181388859">
		<tag k="name" v="Synnalandsdalen" />
		<tag k="natural" v="valley" />
		<tag k="place" v="locality" />
		<tag k="ssr:stedsnr" v="739393" />
	</node>
	<node id="-577411" lat="62.5943722207" lon="6.42737778242">
		<tag k="name" v="Kvernhusskaret" />
		<tag k="natural" v="valley" />
		<tag k="place" v="locality" />
		<tag k="ssr:stedsnr" v="739392" />
	</node>
	<node id="-577405" lat="62.5688166687" lon="6.43548611022">
		<tag k="name" v="Håvikskaret" />
		<tag k="natural" v="valley" />
		<tag k="place" v="locality" />
		<tag k="ssr:stedsnr" v="739289" />
	</node>
	<node id="-577403" lat="62.5657222265" lon="6.37418333569">
		<tag k="fixme" v="consider natural=peak for the most distinct mountains in the district" />
		<tag k="name" v="Kniven" />
		<tag k="natural" v="hill" />
		<tag k="place" v="locality" />
		<tag k="ssr:stedsnr" v="739286" />
	</node>
	<node id="-577402" lat="62.5706833302" lon="6.63829167399">
		<tag k="fixme" v="consider natural=peak for the most distinct mountains in the district" />
		<tag k="name" v="Ulvestadheia" />
		<tag k="natural" v="hill" />
		<tag k="place" v="locality" />
		<tag k="ssr:stedsnr" v="739273" />
	</node>
	<node id="-577401" lat="62.5752444461" lon="6.69918055386">
		<tag k="name" v="Kjerringholen" />
		<tag k="natural" v="hill" />
		<tag k="place" v="locality" />
		<tag k="ssr:stedsnr" v="739272" />
	</node>
	<node id="-577398" lat="62.5486944441" lon="6.56893611216">
		<tag k="fixme" v="consider natural=peak for the most distinct mountains in the district" />
		<tag k="name" v="Brattnakken" />
		<tag k="natural" v="hill" />
		<tag k="place" v="locality" />
		<tag k="ssr:stedsnr" v="739190" />
	</node>
	<node id="-577381" lat="62.5584805529" lon="6.52321944636">
		<tag k="name" v="Fonnaberga" />
		<tag k="natural" v="slope" />
		<tag k="place" v="locality" />
		<tag k="ssr:stedsnr" v="702536" />
	</node>
	<node id="-577379" lat="62.5684416705" lon="6.51464166863">
		<tag k="name" v="Klivet" />
		<tag k="natural" v="cliff" />
		<tag k="ssr:stedsnr" v="701993" />
	</node>
	<node id="-577378" lat="62.5674277784" lon="6.62691943526">
		<tag k="name" v="Bakkedalen" />
		<tag k="natural" v="valley" />
		<tag k="place" v="locality" />
		<tag k="ssr:stedsnr" v="701987" />
	</node>
	<node id="-577376" lat="62.5699083334" lon="6.53226666404">
		<tag k="name" v="Bolthaugen" />
		<tag k="natural" v="hill" />
		<tag k="place" v="locality" />
		<tag k="ssr:stedsnr" v="701985" />
	</node>
	<node id="-577373" lat="62.5805805518" lon="6.32016944946">
		<tag k="name" v="Veteberga" />
		<tag k="natural" v="hill" />
		<tag k="place" v="locality" />
		<tag k="ssr:stedsnr" v="701959" />
	</node>
	<node id="-577372" lat="62.5715722227" lon="6.55436945188">
		<tag k="name" v="Timbreskaret" />
		<tag k="natural" v="valley" />
		<tag k="place" v="locality" />
		<tag k="ssr:stedsnr" v="701922" />
	</node>
	<node id="-577370" lat="62.5796416677" lon="6.5582972314">
		<tag k="name" v="Hjellen" />
		<tag k="place" v="locality" />
		<tag k="ssr:stedsnr" v="701891" />
	</node>
	<node id="-577368" lat="62.5837361112" lon="6.43449721873">
		<tag k="name" v="Furelia" />
		<tag k="natural" v="slope" />
		<tag k="place" v="locality" />
		<tag k="ssr:stedsnr" v="701880" />
	</node>
	<node id="-577366" lat="62.6080055521" lon="6.62130833053">
		<tag k="name" v="Kattahamaren" />
		<tag k="natural" v="hill" />
		<tag k="place" v="locality" />
		<tag k="ssr:stedsnr" v="701856" />
	</node>
	<node id="-577365" lat="62.608363891" lon="6.63888056341">
		<tag k="name" v="Skotsnakken" />
		<tag k="place" v="locality" />
		<tag k="ssr:stedsnr" v="701853" />
	</node>
	<node id="-577363" lat="62.5697888908" lon="6.59218888027">
		<tag k="name" v="Røvarhellaren" />
		<tag k="place" v="locality" />
		<tag k="ssr:stedsnr" v="701829" />
	</node>
	<node id="-577362" lat="62.6207472215" lon="6.54734166211">
		<tag k="name" v="Reithaugen" />
		<tag k="natural" v="hill" />
		<tag k="place" v="locality" />
		<tag k="ssr:stedsnr" v="701797" />
	</node>
	<node id="-575459" lat="62.6774166628" lon="6.18053333608">
		<tag k="name" v="Storhamaren" />
		<tag k="natural" v="cliff" />
		<tag k="ssr:stedsnr" v="275389" />
	</node>
	<node id="-575458" lat="62.682224996" lon="6.29608610561">
		<tag k="name" v="Dalsgjølet" />
		<tag k="natural" v="gorge" />
		<tag k="ssr:stedsnr" v="275387" />
	</node>
	<node id="-577351" lat="62.5893527796" lon="6.35658332812">
		<tag k="name" v="Ørveden" />
		<tag k="natural" v="slope" />
		<tag k="place" v="locality" />
		<tag k="ssr:stedsnr" v="701656" />
	</node>
	<node id="-577349" lat="62.558519445" lon="6.63273610994">
		<tag k="name" v="Rustene" />
		<tag k="natural" v="slope" />
		<tag k="place" v="locality" />
		<tag k="ssr:stedsnr" v="701625" />
	</node>
	<node id="-577346" lat="62.5482583372" lon="6.32225555323">
		<tag k="name" v="Søvikdalen" />
		<tag k="natural" v="valley" />
		<tag k="place" v="locality" />
		<tag k="ssr:stedsnr" v="701603" />
	</node>
	<node id="-577344" lat="62.5652555563" lon="6.56665000758">
		<tag k="name" v="Storsolabakken" />
		<tag k="natural" v="slope" />
		<tag k="place" v="locality" />
		<tag k="ssr:stedsnr" v="701574" />
	</node>
	<node id="-575797" lat="62.5382194433" lon="6.58363611757">
		<tag k="name" v="Tennfjordristet" />
		<tag k="natural" v="slope" />
		<tag k="place" v="locality" />
		<tag k="ssr:stedsnr" v="397646" />
	</node>
	<node id="-577334" lat="62.5828333318" lon="6.38724167622">
		<tag k="name" v="Grytakoppen" />
		<tag k="natural" v="ridge" />
		<tag k="place" v="locality" />
		<tag k="ssr:stedsnr" v="701240" />
	</node>
	<node id="-577333" lat="62.6156222189" lon="6.62394722299">
		<tag k="name" v="Morteberget" />
		<tag k="natural" v="hill" />
		<tag k="place" v="locality" />
		<tag k="ssr:stedsnr" v="701218" />
	</node>
	<node id="-575454" lat="62.692683329" lon="6.23591388306">
		<tag k="name" v="Skaberga" />
		<tag k="natural" v="hill" />
		<tag k="place" v="locality" />
		<tag k="ssr:stedsnr" v="275294" />
	</node>
	<node id="-577329" lat="62.6149611154" lon="6.66750833467">
		<tag k="name" v="Storsteinrima" />
		<tag k="natural" v="ridge" />
		<tag k="place" v="locality" />
		<tag k="ssr:stedsnr" v="701006" />
	</node>
	<node id="-577326" lat="62.6064916689" lon="6.41363889135">
		<tag k="name" v="Kvithaugnakken" />
		<tag k="place" v="locality" />
		<tag k="ssr:stedsnr" v="700938" />
	</node>
	<node id="-577325" lat="62.6065333309" lon="6.41825277539">
		<tag k="name" v="Vikadalen" />
		<tag k="natural" v="valley" />
		<tag k="place" v="locality" />
		<tag k="ssr:stedsnr" v="700939" />
	</node>
	<node id="-577323" lat="62.6858305528" lon="6.25883610803">
		<tag k="name" v="Trollholå" />
		<tag k="natural" v="valley" />
		<tag k="place" v="locality" />
		<tag k="ssr:stedsnr" v="700632" />
	</node>
	<node id="-577314" lat="62.6334111089" lon="6.13110833651">
		<tag k="name" v="Hestedalsnakken" />
		<tag k="place" v="locality" />
		<tag k="ssr:stedsnr" v="699928" />
	</node>
	<node id="-577312" lat="62.5682416674" lon="6.29584721874">
		<tag k="name" v="Olausdalen" />
		<tag k="natural" v="valley" />
		<tag k="place" v="locality" />
		<tag k="ssr:stedsnr" v="699887" />
	</node>
	<node id="-577302" lat="62.7016861098" lon="6.39619166802">
		<tag k="fixme" v="consider natural=peak for the most distinct mountains in the district" />
		<tag k="name" v="Æafjellet" />
		<tag k="natural" v="hill" />
		<tag k="place" v="locality" />
		<tag k="ssr:stedsnr" v="679924" />
	</node>
	<node id="-577300" lat="62.5731249993" lon="6.78083612078">
		<tag k="name" v="Reset" />
		<tag k="natural" v="valley" />
		<tag k="place" v="locality" />
		<tag k="ssr:stedsnr" v="679892" />
	</node>
	<node id="-577283" lat="62.6277499982" lon="6.68446388271">
		<tag k="fixme" v="consider natural=peak for the most distinct mountains in the district" />
		<tag k="name" v="Eikenakken" />
		<tag k="natural" v="hill" />
		<tag k="place" v="locality" />
		<tag k="ssr:stedsnr" v="679417" />
	</node>
	<node id="-577282" lat="62.6291694408" lon="6.64202778153">
		<tag k="name" v="Aksla" />
		<tag k="natural" v="hill" />
		<tag k="place" v="locality" />
		<tag k="ssr:stedsnr" v="679413" />
	</node>
	<node id="-577281" lat="62.5866861112" lon="6.35863610401">
		<tag k="name" v="Hildrelia" />
		<tag k="natural" v="slope" />
		<tag k="place" v="locality" />
		<tag k="ssr:stedsnr" v="679336" />
	</node>
	<node id="-577277" lat="62.5849194429" lon="6.64647222271">
		<tag k="fixme" v="consider natural=peak for the most distinct mountains in the district" />
		<tag k="name" v="Hovsetheia" />
		<tag k="natural" v="hill" />
		<tag k="place" v="locality" />
		<tag k="ssr:stedsnr" v="679273" />
	</node>
	<node id="-577275" lat="62.564149997" lon="6.68145278382">
		<tag k="fixme" v="consider natural=peak for the most distinct mountains in the district" />
		<tag k="name" v="Storbakken" />
		<tag k="natural" v="hill" />
		<tag k="place" v="locality" />
		<tag k="ssr:stedsnr" v="679239" />
	</node>
	<node id="-577274" lat="62.5619333335" lon="6.57159166724">
		<tag k="fixme" v="consider natural=peak for the most distinct mountains in the district" />
		<tag k="name" v="Eidsvikheia" />
		<tag k="natural" v="hill" />
		<tag k="place" v="locality" />
		<tag k="ssr:stedsnr" v="679235" />
	</node>
	<node id="-577272" lat="62.559647225" lon="6.3642166691">
		<tag k="alt_name" v="Tverrberget" />
		<tag k="fixme" v="consider natural=peak for the most distinct mountains in the district" />
		<tag k="name" v="Tverrfjellet" />
		<tag k="natural" v="hill" />
		<tag k="place" v="locality" />
		<tag k="ssr:stedsnr" v="679227" />
	</node>
	<node id="-577270" lat="62.5557277754" lon="6.44560278739">
		<tag k="fixme" v="consider natural=peak for the most distinct mountains in the district" />
		<tag k="name" v="Skulstadhornet" />
		<tag k="natural" v="hill" />
		<tag k="place" v="locality" />
		<tag k="ssr:stedsnr" v="679221" />
	</node>
	<node id="-577264" lat="62.6220805541" lon="6.19598889214">
		<tag k="name" v="Svarthammaren" />
		<tag k="natural" v="hill" />
		<tag k="place" v="locality" />
		<tag k="ssr:stedsnr" v="678708" />
	</node>
	<node id="-575783" lat="62.7082388919" lon="6.42330555926">
		<tag k="name" v="Kongshaugen" />
		<tag k="natural" v="hill" />
		<tag k="place" v="locality" />
		<tag k="ssr:stedsnr" v="396987" />
	</node>
	<node id="-577255" lat="62.5684555512" lon="6.4062388883">
		<tag k="name" v="Gjersetskåla" />
		<tag k="natural" v="valley" />
		<tag k="place" v="locality" />
		<tag k="ssr:stedsnr" v="678334" />
	</node>
	<node id="-577239" lat="62.5725972184" lon="6.53270000059">
		<tag k="name" v="Grønskredane" />
		<tag k="natural" v="valley" />
		<tag k="place" v="locality" />
		<tag k="ssr:stedsnr" v="640973" />
	</node>
	<node id="-577238" lat="62.5692555594" lon="6.57158056124">
		<tag k="name" v="Storsolabakken" />
		<tag k="natural" v="slope" />
		<tag k="place" v="locality" />
		<tag k="ssr:stedsnr" v="640913" />
	</node>
	<node id="-577231" lat="62.5740833363" lon="6.59290833651">
		<tag k="name" v="Bolthaugen" />
		<tag k="natural" v="hill" />
		<tag k="place" v="locality" />
		<tag k="ssr:stedsnr" v="640822" />
	</node>
	<node id="-577230" lat="62.5772416699" lon="6.59331389597">
		<tag k="name" v="Omnane" />
		<tag k="natural" v="cliff" />
		<tag k="ssr:stedsnr" v="640820" />
	</node>
	<node id="-575778" lat="62.6347833289" lon="6.14705555273">
		<tag k="name" v="Hellevikhornet" />
		<tag k="natural" v="hill" />
		<tag k="place" v="locality" />
		<tag k="ssr:stedsnr" v="396921" />
	</node>
	<node id="-577226" lat="62.5928388925" lon="6.58724999983">
		<tag k="name" v="Rimargardhaugen" />
		<tag k="natural" v="hill" />
		<tag k="place" v="locality" />
		<tag k="ssr:stedsnr" v="640749" />
	</node>
	<node id="-577225" lat="62.5339388929" lon="6.59350556455">
		<tag k="name" v="Storbakken" />
		<tag k="natural" v="slope" />
		<tag k="place" v="locality" />
		<tag k="ssr:stedsnr" v="640666" />
	</node>
	<node id="-577220" lat="62.5533416694" lon="6.4885972304">
		<tag k="name" v="Tverbotnet" />
		<tag k="natural" v="valley" />
		<tag k="place" v="locality" />
		<tag k="ssr:stedsnr" v="640603" />
	</node>
	<node id="-577219" lat="62.5516555597" lon="6.50861111077">
		<tag k="name" v="Timbreskaret" />
		<tag k="natural" v="valley" />
		<tag k="place" v="locality" />
		<tag k="ssr:stedsnr" v="640599" />
	</node>
	<node id="-577218" lat="62.565769445" lon="6.51707221602">
		<tag k="name" v="Litletrolldalen" />
		<tag k="natural" v="valley" />
		<tag k="place" v="locality" />
		<tag k="ssr:stedsnr" v="640591" />
	</node>
	<node id="-577214" lat="62.5620972255" lon="6.57851666448">
		<tag k="name" v="Grøneranda" />
		<tag k="place" v="locality" />
		<tag k="ssr:stedsnr" v="640551" />
	</node>
	<node id="-577213" lat="62.5953055577" lon="6.69326667295">
		<tag k="name" v="Vestredalen" />
		<tag k="natural" v="valley" />
		<tag k="place" v="locality" />
		<tag k="ssr:stedsnr" v="640528" />
	</node>
	<node id="-577212" lat="62.5710472206" lon="6.72493888167">
		<tag k="name" v="Kakehaugen" />
		<tag k="natural" v="hill" />
		<tag k="place" v="locality" />
		<tag k="ssr:stedsnr" v="640495" />
	</node>
	<node id="-577211" lat="62.5863166692" lon="6.71613610181">
		<tag k="fixme" v="consider natural=peak for the most distinct mountains in the district" />
		<tag k="name" v="Tindfjellet" />
		<tag k="natural" v="hill" />
		<tag k="place" v="locality" />
		<tag k="ssr:stedsnr" v="640490" />
	</node>
	<node id="-577210" lat="62.5663888847" lon="6.72137222779">
		<tag k="name" v="Grøtsæterhaugen" />
		<tag k="natural" v="hill" />
		<tag k="place" v="locality" />
		<tag k="ssr:stedsnr" v="640449" />
	</node>
	<node id="-577208" lat="62.6272000029" lon="6.60951388841">
		<tag k="name" v="Pernillerusta" />
		<tag k="natural" v="slope" />
		<tag k="place" v="locality" />
		<tag k="ssr:stedsnr" v="640407" />
	</node>
	<node id="-577207" lat="62.613450004" lon="6.59868055666">
		<tag k="name" v="Geitakløva" />
		<tag k="natural" v="valley" />
		<tag k="place" v="locality" />
		<tag k="ssr:stedsnr" v="640388" />
	</node>
	<node id="-577206" lat="62.5508694459" lon="6.48140832761">
		<tag k="name" v="Løypenakken" />
		<tag k="place" v="locality" />
		<tag k="ssr:stedsnr" v="640385" />
	</node>
	<node id="-577201" lat="62.6159472207" lon="6.6275555582">
		<tag k="name" v="Gjerdshaugen" />
		<tag k="natural" v="hill" />
		<tag k="place" v="locality" />
		<tag k="ssr:stedsnr" v="640211" />
	</node>
	<node id="-577199" lat="62.5654972254" lon="6.82708610302">
		<tag k="name" v="Trollbotn" />
		<tag k="natural" v="valley" />
		<tag k="place" v="locality" />
		<tag k="ssr:stedsnr" v="640130" />
	</node>
	<node id="-577196" lat="62.6275416672" lon="6.6528027864">
		<tag k="name" v="Hella" />
		<tag k="natural" v="hill" />
		<tag k="place" v="locality" />
		<tag k="ssr:stedsnr" v="640019" />
	</node>
	<node id="-577195" lat="62.7122916659" lon="6.41028055605">
		<tag k="name" v="Brandhaugen" />
		<tag k="natural" v="hill" />
		<tag k="place" v="locality" />
		<tag k="ssr:stedsnr" v="639992" />
	</node>
	<node id="-577189" lat="62.5574111142" lon="6.29714166607">
		<tag k="name" v="Tua" />
		<tag k="natural" v="hill" />
		<tag k="place" v="locality" />
		<tag k="ssr:stedsnr" v="639310" />
	</node>
	<node id="-577186" lat="62.5894472184" lon="6.29870555612">
		<tag k="name" v="Røvstølgjelet" />
		<tag k="natural" v="gorge" />
		<tag k="ssr:stedsnr" v="638942" />
	</node>
	<node id="-577179" lat="62.5820305528" lon="6.28619166301">
		<tag k="name" v="Skjeltehamrane" />
		<tag k="natural" v="cliff" />
		<tag k="ssr:stedsnr" v="638896" />
	</node>
	<node id="-577172" lat="62.6755333292" lon="6.29511387971">
		<tag k="name" v="Longvadalen" />
		<tag k="natural" v="valley" />
		<tag k="place" v="locality" />
		<tag k="ssr:stedsnr" v="638379" />
	</node>
	<node id="-577171" lat="62.6799888897" lon="6.19514166377">
		<tag k="name" v="Laugarberget" />
		<tag k="natural" v="hill" />
		<tag k="place" v="locality" />
		<tag k="ssr:stedsnr" v="638311" />
	</node>
	<node id="-577170" lat="62.6863472247" lon="6.22624443953">
		<tag k="alt_name" v="Kleppen" />
		<tag k="name" v="Klepphaugen" />
		<tag k="natural" v="hill" />
		<tag k="place" v="locality" />
		<tag k="ssr:stedsnr" v="638307" />
	</node>
	<node id="-577166" lat="62.7042833291" lon="6.40888889705">
		<tag k="name" v="Ramsberget" />
		<tag k="natural" v="hill" />
		<tag k="place" v="locality" />
		<tag k="ssr:stedsnr" v="618923" />
	</node>
	<node id="-577161" lat="62.6963222267" lon="6.38403056444">
		<tag k="name" v="Vardebotnen" />
		<tag k="natural" v="valley" />
		<tag k="place" v="locality" />
		<tag k="ssr:stedsnr" v="618882" />
	</node>
	<node id="-577152" lat="62.6348284327" lon="6.17587067731">
		<tag k="name" v="Fillingen" />
		<tag k="natural" v="hill" />
		<tag k="place" v="locality" />
		<tag k="ssr:stedsnr" v="618674" />
	</node>
	<node id="-577147" lat="62.6503388893" lon="6.24485832918">
		<tag k="fixme" v="consider natural=peak for the most distinct mountains in the district" />
		<tag k="name" v="Tverrfjellet" />
		<tag k="natural" v="hill" />
		<tag k="place" v="locality" />
		<tag k="ssr:stedsnr" v="618478" />
	</node>
	<node id="-577142" lat="62.6321444413" lon="6.68250277498">
		<tag k="fixme" v="consider natural=peak for the most distinct mountains in the district" />
		<tag k="name" v="Vollabakken" />
		<tag k="natural" v="hill" />
		<tag k="place" v="locality" />
		<tag k="ssr:stedsnr" v="618432" />
	</node>
	<node id="-577133" lat="62.6027555571" lon="6.53653055434">
		<tag k="fixme" v="consider natural=peak for the most distinct mountains in the district" />
		<tag k="name" v="Øvrenakken" />
		<tag k="natural" v="hill" />
		<tag k="place" v="locality" />
		<tag k="ssr:stedsnr" v="618390" />
	</node>
	<node id="-575627" lat="62.6145500031" lon="6.17305833477">
		<tag k="name" v="Graslia" />
		<tag k="natural" v="slope" />
		<tag k="place" v="locality" />
		<tag k="ssr:stedsnr" v="335929" />
	</node>
	<node id="-577127" lat="62.5907277812" lon="6.47433055697">
		<tag k="name" v="Ringstadnakken" />
		<tag k="natural" v="hill" />
		<tag k="place" v="locality" />
		<tag k="ssr:stedsnr" v="618340" />
	</node>
	<node id="-577125" lat="62.5923638845" lon="6.58060277">
		<tag k="name" v="Storhaugen" />
		<tag k="natural" v="hill" />
		<tag k="place" v="locality" />
		<tag k="ssr:stedsnr" v="618332" />
	</node>
	<node id="-577121" lat="62.5743361109" lon="6.28486389027">
		<tag k="name" v="Kjerringgjølet" />
		<tag k="natural" v="valley" />
		<tag k="place" v="locality" />
		<tag k="ssr:stedsnr" v="618320" />
	</node>
	<node id="-577120" lat="62.57611667" lon="6.287858339">
		<tag k="name" v="Storsvora" />
		<tag k="natural" v="valley" />
		<tag k="place" v="locality" />
		<tag k="ssr:stedsnr" v="618313" />
	</node>
	<node id="-577119" lat="62.5752083309" lon="6.44069722757">
		<tag k="name" v="Petterdalen" />
		<tag k="natural" v="valley" />
		<tag k="place" v="locality" />
		<tag k="ssr:stedsnr" v="618307" />
	</node>
	<node id="-577116" lat="62.5630888918" lon="6.34601944625">
		<tag k="name" v="Søvikkopen" />
		<tag k="natural" v="valley" />
		<tag k="place" v="locality" />
		<tag k="ssr:stedsnr" v="618279" />
	</node>
	<node id="-577113" lat="62.5561777801" lon="6.25647500009">
		<tag k="fixme" v="consider natural=peak for the most distinct mountains in the district" />
		<tag k="name" v="Terøyfjellet" />
		<tag k="natural" v="hill" />
		<tag k="place" v="locality" />
		<tag k="ssr:stedsnr" v="618258" />
	</node>
	<node id="-577111" lat="62.5611555597" lon="6.30000278295">
		<tag k="name" v="Breiskaret" />
		<tag k="natural" v="valley" />
		<tag k="place" v="locality" />
		<tag k="ssr:stedsnr" v="618253" />
	</node>
	<node id="-577109" lat="62.5561083362" lon="6.37495277711">
		<tag k="name" v="Ytste Vassida" />
		<tag k="natural" v="slope" />
		<tag k="place" v="locality" />
		<tag k="ssr:stedsnr" v="618247" />
	</node>
	<node id="-577103" lat="62.5454138904" lon="6.46163888063">
		<tag k="name" v="Botnen" />
		<tag k="natural" v="valley" />
		<tag k="place" v="locality" />
		<tag k="ssr:stedsnr" v="618204" />
	</node>
	<node id="-577102" lat="62.5446944402" lon="6.34788888039">
		<tag k="fixme" v="consider natural=peak for the most distinct mountains in the district" />
		<tag k="name" v="Skålbotsheia" />
		<tag k="natural" v="hill" />
		<tag k="place" v="locality" />
		<tag k="ssr:stedsnr" v="618201" />
	</node>
	<node id="-577101" lat="62.5353722264" lon="6.28386389733">
		<tag k="fixme" v="consider natural=peak for the most distinct mountains in the district" />
		<tag k="name" v="Uføra" />
		<tag k="natural" v="hill" />
		<tag k="place" v="locality" />
		<tag k="ssr:stedsnr" v="618190" />
	</node>
	<node id="-575761" lat="62.6843249981" lon="6.27185556134">
		<tag k="name" v="Ørnetua" />
		<tag k="natural" v="hill" />
		<tag k="place" v="locality" />
		<tag k="ssr:stedsnr" v="396409" />
	</node>
	<node id="-577084" lat="62.5686972186" lon="6.46388610787">
		<tag k="name" v="Storhaugen" />
		<tag k="natural" v="hill" />
		<tag k="place" v="locality" />
		<tag k="ssr:stedsnr" v="580896" />
	</node>
	<node id="-577082" lat="62.5793083354" lon="6.75676110431">
		<tag k="name" v="Grasdalsrima" />
		<tag k="natural" v="slope" />
		<tag k="place" v="locality" />
		<tag k="ssr:stedsnr" v="580701" />
	</node>
	<node id="-577081" lat="62.5584750038" lon="6.5348833296">
		<tag k="name" v="Hjellleteigane" />
		<tag k="natural" v="slope" />
		<tag k="place" v="locality" />
		<tag k="ssr:stedsnr" v="580537" />
	</node>
	<node id="-577079" lat="62.5487083321" lon="6.51251389114">
		<tag k="name" v="Almedalen" />
		<tag k="natural" v="valley" />
		<tag k="place" v="locality" />
		<tag k="ssr:stedsnr" v="580503" />
	</node>
	<node id="-577078" lat="62.6059861138" lon="6.44445833747">
		<tag k="name" v="Hansgardhaugen" />
		<tag k="natural" v="hill" />
		<tag k="place" v="locality" />
		<tag k="ssr:stedsnr" v="580490" />
	</node>
	<node id="-577077" lat="62.5876833345" lon="6.68615555647">
		<tag k="name" v="Kamben" />
		<tag k="natural" v="ridge" />
		<tag k="place" v="locality" />
		<tag k="ssr:stedsnr" v="580448" />
	</node>
	<node id="-577073" lat="62.5521416667" lon="6.42614722063">
		<tag k="name" v="Tindgrovhjellen" />
		<tag k="place" v="locality" />
		<tag k="ssr:stedsnr" v="580348" />
	</node>
	<node id="-577071" lat="62.5553166687" lon="6.44550832357">
		<tag k="name" v="Femspannskardet" />
		<tag k="natural" v="valley" />
		<tag k="place" v="locality" />
		<tag k="ssr:stedsnr" v="580325" />
	</node>
	<node id="-577068" lat="62.6229722268" lon="6.60078333746">
		<tag k="name" v="Skarvehamaren" />
		<tag k="natural" v="hill" />
		<tag k="place" v="locality" />
		<tag k="ssr:stedsnr" v="580310" />
	</node>
	<node id="-577065" lat="62.5423416675" lon="6.52178055518">
		<tag k="name" v="Bakken" />
		<tag k="natural" v="slope" />
		<tag k="place" v="locality" />
		<tag k="ssr:stedsnr" v="580052" />
	</node>
	<node id="-577063" lat="62.5793833325" lon="6.62553333061">
		<tag k="name" v="Risbakken" />
		<tag k="natural" v="slope" />
		<tag k="place" v="locality" />
		<tag k="ssr:stedsnr" v="579996" />
	</node>
	<node id="-577062" lat="62.5852222202" lon="6.62601388067">
		<tag k="name" v="Berga" />
		<tag k="natural" v="hill" />
		<tag k="place" v="locality" />
		<tag k="ssr:stedsnr" v="579986" />
	</node>
	<node id="-577058" lat="62.5673499999" lon="6.6367972197">
		<tag k="name" v="Lihaugen" />
		<tag k="natural" v="hill" />
		<tag k="place" v="locality" />
		<tag k="ssr:stedsnr" v="579897" />
	</node>
	<node id="-577057" lat="62.615655559" lon="6.53292221863">
		<tag k="name" v="Rima" />
		<tag k="natural" v="ridge" />
		<tag k="place" v="locality" />
		<tag k="ssr:stedsnr" v="579860" />
	</node>
	<node id="-577055" lat="62.6157638856" lon="6.47372500919">
		<tag k="name" v="Flateberget" />
		<tag k="natural" v="hill" />
		<tag k="place" v="locality" />
		<tag k="ssr:stedsnr" v="579829" />
	</node>
	<node id="-577051" lat="62.5251416702" lon="6.55353610127">
		<tag k="name" v="Trongeskaret" />
		<tag k="natural" v="valley" />
		<tag k="place" v="locality" />
		<tag k="ssr:stedsnr" v="579716" />
	</node>
	<node id="-577048" lat="62.5526944419" lon="6.55899166844">
		<tag k="name" v="Skinstøhammaren" />
		<tag k="natural" v="hill" />
		<tag k="place" v="locality" />
		<tag k="ssr:stedsnr" v="579626" />
	</node>
	<node id="-577046" lat="62.5700777819" lon="6.7117694504">
		<tag k="name" v="Timbreskaret" />
		<tag k="natural" v="valley" />
		<tag k="place" v="locality" />
		<tag k="ssr:stedsnr" v="579569" />
	</node>
	<node id="-577045" lat="62.6099249982" lon="6.56515834201">
		<tag k="name" v="Fagerlia" />
		<tag k="natural" v="slope" />
		<tag k="place" v="locality" />
		<tag k="ssr:stedsnr" v="579467" />
	</node>
	<node id="-577041" lat="62.5972222179" lon="6.32027777187">
		<tag k="name" v="Storremma" />
		<tag k="natural" v="ridge" />
		<tag k="place" v="locality" />
		<tag k="ssr:stedsnr" v="579285" />
	</node>
	<node id="-577036" lat="62.701413886" lon="6.38227500656">
		<tag k="name" v="Varden" />
		<tag k="natural" v="hill" />
		<tag k="place" v="locality" />
		<tag k="ssr:stedsnr" v="578942" />
	</node>
	<node id="-577035" lat="62.7011131824" lon="6.4095302647">
		<tag k="name" v="Galne-Karibakken" />
		<tag k="natural" v="slope" />
		<tag k="place" v="locality" />
		<tag k="ssr:stedsnr" v="578941" />
	</node>
	<node id="-577033" lat="62.6292694475" lon="6.13871943709">
		<tag k="name" v="Hestehjellane" />
		<tag k="place" v="locality" />
		<tag k="ssr:stedsnr" v="578911" />
	</node>
	<node id="-577031" lat="62.5715833315" lon="6.2389833334">
		<tag k="name" v="Skarveneshaugen" />
		<tag k="natural" v="hill" />
		<tag k="place" v="locality" />
		<tag k="ssr:stedsnr" v="578893" />
	</node>
	<node id="-577023" lat="62.6864083302" lon="6.25305555575">
		<tag k="name" v="Sakshamarhaugen" />
		<tag k="natural" v="hill" />
		<tag k="place" v="locality" />
		<tag k="ssr:stedsnr" v="578605" />
	</node>
	<node id="-577017" lat="62.6101777741" lon="6.24973610728">
		<tag k="name" v="Skahamrane" />
		<tag k="natural" v="hill" />
		<tag k="place" v="locality" />
		<tag k="ssr:stedsnr" v="578383" />
	</node>
	<node id="-577016" lat="62.6912888898" lon="6.23899721319">
		<tag k="name" v="Hornhamaren" />
		<tag k="natural" v="hill" />
		<tag k="place" v="locality" />
		<tag k="ssr:stedsnr" v="578359" />
	</node>
	<node id="-577012" lat="62.5587555526" lon="6.27543611608">
		<tag k="name" v="Helgehammaren" />
		<tag k="natural" v="hill" />
		<tag k="place" v="locality" />
		<tag k="ssr:stedsnr" v="578266" />
	</node>
	<node id="-577011" lat="62.5525277786" lon="6.28180556511">
		<tag k="name" v="Hagehamrane" />
		<tag k="natural" v="cliff" />
		<tag k="ssr:stedsnr" v="578267" />
	</node>
	<node id="-576999" lat="62.6697611104" lon="6.327697223">
		<tag k="name" v="Branddalsryggen" />
		<tag k="natural" v="valley" />
		<tag k="place" v="locality" />
		<tag k="ssr:stedsnr" v="557979" />
	</node>
	<node id="-576998" lat="62.5863388874" lon="6.72471388994">
		<tag k="name" v="Jolegrødet" />
		<tag k="natural" v="slope" />
		<tag k="place" v="locality" />
		<tag k="ssr:stedsnr" v="557969" />
	</node>
	<node id="-576997" lat="62.6098194434" lon="6.76531111073">
		<tag k="fixme" v="consider natural=peak for the most distinct mountains in the district" />
		<tag k="name" v="Storknausen" />
		<tag k="natural" v="hill" />
		<tag k="place" v="locality" />
		<tag k="ssr:stedsnr" v="557954" />
	</node>
	<node id="-576994" lat="62.6825027775" lon="6.29289444063">
		<tag k="name" v="Stødalen" />
		<tag k="natural" v="valley" />
		<tag k="place" v="locality" />
		<tag k="ssr:stedsnr" v="557882" />
	</node>
	<node id="-576984" lat="62.6601638894" lon="6.19418332898">
		<tag k="name" v="Kvamen" />
		<tag k="natural" v="hill" />
		<tag k="place" v="locality" />
		<tag k="ssr:stedsnr" v="557665" />
	</node>
	<node id="-576981" lat="62.6390000039" lon="6.25617499806">
		<tag k="name" v="Stormyrhaugen" />
		<tag k="natural" v="hill" />
		<tag k="place" v="locality" />
		<tag k="ssr:stedsnr" v="557449" />
	</node>
	<node id="-576978" lat="62.6022833348" lon="6.42585554734">
		<tag k="fixme" v="consider natural=peak for the most distinct mountains in the district" />
		<tag k="name" v="Synnalandshornet" />
		<tag k="natural" v="hill" />
		<tag k="place" v="locality" />
		<tag k="ssr:stedsnr" v="557414" />
	</node>
	<node id="-576977" lat="62.6131611133" lon="6.69552499022">
		<tag k="name" v="Hornbotnen" />
		<tag k="natural" v="valley" />
		<tag k="place" v="locality" />
		<tag k="ssr:stedsnr" v="557401" />
	</node>
	<node id="-576973" lat="62.5866527815" lon="6.48994722661">
		<tag k="name" v="Ringstaddalen" />
		<tag k="natural" v="valley" />
		<tag k="place" v="locality" />
		<tag k="ssr:stedsnr" v="557339" />
	</node>
	<node id="-576972" lat="62.5873222253" lon="6.53303889586">
		<tag k="fixme" v="consider natural=peak for the most distinct mountains in the district" />
		<tag k="name" v="Storfjellet" />
		<tag k="natural" v="hill" />
		<tag k="place" v="locality" />
		<tag k="ssr:stedsnr" v="557337" />
	</node>
	<node id="-576969" lat="62.5618472211" lon="6.39945555456">
		<tag k="fixme" v="consider natural=peak for the most distinct mountains in the district" />
		<tag k="name" v="Hildrehesten" />
		<tag k="natural" v="hill" />
		<tag k="place" v="locality" />
		<tag k="ssr:stedsnr" v="557320" />
	</node>
	<node id="-576967" lat="62.5762305539" lon="6.41371944818">
		<tag k="name" v="Dyrstigen" />
		<tag k="natural" v="slope" />
		<tag k="place" v="locality" />
		<tag k="ssr:stedsnr" v="557311" />
	</node>
	<node id="-576966" lat="62.5773750042" lon="6.53070834118">
		<tag k="fixme" v="consider natural=peak for the most distinct mountains in the district" />
		<tag k="name" v="Fannegga" />
		<tag k="natural" v="hill" />
		<tag k="place" v="locality" />
		<tag k="ssr:stedsnr" v="557307" />
	</node>
	<node id="-576963" lat="62.568775004" lon="6.27976666515">
		<tag k="name" v="Gamlemslia" />
		<tag k="natural" v="slope" />
		<tag k="place" v="locality" />
		<tag k="ssr:stedsnr" v="557291" />
	</node>
	<node id="-576961" lat="62.5716722253" lon="6.35535555798">
		<tag k="name" v="Omnen" />
		<tag k="natural" v="hill" />
		<tag k="place" v="locality" />
		<tag k="ssr:stedsnr" v="557286" />
	</node>
	<node id="-576960" lat="62.568491671" lon="6.51505278673">
		<tag k="fixme" v="consider natural=peak for the most distinct mountains in the district" />
		<tag k="name" v="Trolldalsryggen" />
		<tag k="natural" v="hill" />
		<tag k="place" v="locality" />
		<tag k="ssr:stedsnr" v="557280" />
	</node>
	<node id="-576959" lat="62.5690305582" lon="6.51746111207">
		<tag k="name" v="Trolldalen" />
		<tag k="natural" v="valley" />
		<tag k="place" v="locality" />
		<tag k="ssr:stedsnr" v="557279" />
	</node>
	<node id="-576958" lat="62.5591333374" lon="6.3964833389">
		<tag k="name" v="Tjørnskaret" />
		<tag k="natural" v="valley" />
		<tag k="place" v="locality" />
		<tag k="ssr:stedsnr" v="557271" />
	</node>
	<node id="-576957" lat="62.5566194441" lon="6.41828332893">
		<tag k="name" v="Baklia" />
		<tag k="natural" v="slope" />
		<tag k="place" v="locality" />
		<tag k="ssr:stedsnr" v="557262" />
	</node>
	<node id="-576954" lat="62.5433083359" lon="6.47986944076">
		<tag k="name" v="Stupen" />
		<tag k="natural" v="cliff" />
		<tag k="ssr:stedsnr" v="557234" />
	</node>
	<node id="-576949" lat="62.5349611069" lon="6.43374999433">
		<tag k="name" v="Gjersetlia" />
		<tag k="natural" v="slope" />
		<tag k="place" v="locality" />
		<tag k="ssr:stedsnr" v="557213" />
	</node>
	<node id="-576943" lat="62.5418750017" lon="6.61245556339">
		<tag k="fixme" v="consider natural=peak for the most distinct mountains in the district" />
		<tag k="name" v="Ramnfloget" />
		<tag k="natural" v="hill" />
		<tag k="place" v="locality" />
		<tag k="ssr:stedsnr" v="557189" />
	</node>
	<node id="-576940" lat="62.6524833291" lon="6.23478056563">
		<tag k="name" v="Haramsskaret" />
		<tag k="natural" v="valley" />
		<tag k="place" v="locality" />
		<tag k="ssr:stedsnr" v="538750" />
	</node>
	<node id="-576926" lat="62.5743972194" lon="6.53408889683">
		<tag k="name" v="Nakken" />
		<tag k="place" v="locality" />
		<tag k="ssr:stedsnr" v="519981" />
	</node>
	<node id="-576922" lat="62.5689638911" lon="6.43242222072">
		<tag k="name" v="Hopelia" />
		<tag k="natural" v="slope" />
		<tag k="place" v="locality" />
		<tag k="ssr:stedsnr" v="519887" />
	</node>
	<node id="-575618" lat="62.6864499965" lon="6.25613888402">
		<tag k="name" v="Sandvikfjellet" />
		<tag k="place" v="locality" />
		<tag k="ssr:stedsnr" v="335628" />
	</node>
	<node id="-576920" lat="62.5807083314" lon="6.43953610284">
		<tag k="name" v="Sætra" />
		<tag k="natural" v="hill" />
		<tag k="place" v="locality" />
		<tag k="ssr:stedsnr" v="519883" />
	</node>
	<node id="-575726" lat="62.5829083364" lon="6.39319444004">
		<tag k="name" v="Smørhola" />
		<tag k="natural" v="valley" />
		<tag k="place" v="locality" />
		<tag k="ssr:stedsnr" v="375329" />
	</node>
	<node id="-576913" lat="62.6152111087" lon="6.52381666857">
		<tag k="name" v="Legene" />
		<tag k="place" v="locality" />
		<tag k="ssr:stedsnr" v="519853" />
	</node>
	<node id="-576905" lat="62.5710722257" lon="6.58968333045">
		<tag k="name" v="Bjørnestien" />
		<tag k="natural" v="valley" />
		<tag k="place" v="locality" />
		<tag k="ssr:stedsnr" v="519817" />
	</node>
	<node id="-576902" lat="62.5260249995" lon="6.56215278208">
		<tag k="alt_name" v="Kleivane" />
		<tag k="name" v="Kleiva" />
		<tag k="natural" v="slope" />
		<tag k="place" v="locality" />
		<tag k="ssr:stedsnr" v="519689" />
	</node>
	<node id="-576897" lat="62.5599083371" lon="6.53059166618">
		<tag k="name" v="Skåtehjellen" />
		<tag k="place" v="locality" />
		<tag k="ssr:stedsnr" v="519618" />
	</node>
	<node id="-576895" lat="62.5537027811" lon="6.50784722273">
		<tag k="name" v="Rimedalen" />
		<tag k="natural" v="valley" />
		<tag k="place" v="locality" />
		<tag k="ssr:stedsnr" v="519606" />
	</node>
	<node id="-576894" lat="62.5559361066" lon="6.49396110232">
		<tag k="name" v="Rimeklubbane" />
		<tag k="natural" v="hill" />
		<tag k="place" v="locality" />
		<tag k="ssr:stedsnr" v="519601" />
	</node>
	<node id="-576893" lat="62.5660722267" lon="6.5230472276">
		<tag k="name" v="Nedste Litletrolldalskjæften" />
		<tag k="natural" v="valley" />
		<tag k="place" v="locality" />
		<tag k="ssr:stedsnr" v="519594" />
	</node>
	<node id="-576892" lat="62.5542305566" lon="6.55357499133">
		<tag k="name" v="Kristofferhammaren" />
		<tag k="natural" v="cliff" />
		<tag k="ssr:stedsnr" v="519567" />
	</node>
	<node id="-576891" lat="62.5597249965" lon="6.5521694422">
		<tag k="name" v="Såsteinryggen" />
		<tag k="natural" v="ridge" />
		<tag k="place" v="locality" />
		<tag k="ssr:stedsnr" v="519562" />
	</node>
	<node id="-576887" lat="62.5542555596" lon="6.57878611018">
		<tag k="name" v="Bolthaugen" />
		<tag k="natural" v="hill" />
		<tag k="place" v="locality" />
		<tag k="ssr:stedsnr" v="519549" />
	</node>
	<node id="-576883" lat="62.5823611116" lon="6.72540832508">
		<tag k="name" v="Trollhola" />
		<tag k="natural" v="valley" />
		<tag k="place" v="locality" />
		<tag k="ssr:stedsnr" v="519496" />
	</node>
	<node id="-576881" lat="62.5651166683" lon="6.43548611565">
		<tag k="name" v="Storlyfthammaren" />
		<tag k="natural" v="cliff" />
		<tag k="ssr:stedsnr" v="519419" />
	</node>
	<node id="-576880" lat="62.6277305587" lon="6.60938611133">
		<tag k="name" v="Bakken" />
		<tag k="natural" v="slope" />
		<tag k="place" v="locality" />
		<tag k="ssr:stedsnr" v="519415" />
	</node>
	<node id="-576879" lat="62.62666111" lon="6.6027805614">
		<tag k="name" v="Storåkerbakken" />
		<tag k="natural" v="slope" />
		<tag k="place" v="locality" />
		<tag k="ssr:stedsnr" v="519416" />
	</node>
	<node id="-576878" lat="62.6157499986" lon="6.72128889504">
		<tag k="name" v="Heiarøra" />
		<tag k="natural" v="ridge" />
		<tag k="place" v="locality" />
		<tag k="ssr:stedsnr" v="519399" />
	</node>
	<node id="-576877" lat="62.6275000009" lon="6.59909444016">
		<tag k="name" v="Stølshaugen" />
		<tag k="natural" v="hill" />
		<tag k="place" v="locality" />
		<tag k="ssr:stedsnr" v="519388" />
	</node>
	<node id="-576876" lat="62.6286444414" lon="6.60024445362">
		<tag k="name" v="Langhaugen" />
		<tag k="natural" v="hill" />
		<tag k="place" v="locality" />
		<tag k="ssr:stedsnr" v="519387" />
	</node>
	<node id="-576873" lat="62.6227027782" lon="6.63846111003">
		<tag k="name" v="Hjellane" />
		<tag k="place" v="locality" />
		<tag k="ssr:stedsnr" v="519211" />
	</node>
	<node id="-575795" lat="62.5546055566" lon="6.55653610559">
		<tag k="name" v="Trippet" />
		<tag k="natural" v="slope" />
		<tag k="place" v="locality" />
		<tag k="ssr:stedsnr" v="397544" />
	</node>
	<node id="-576869" lat="62.7032055553" lon="6.38663055606">
		<tag k="name" v="Durmålshaugane" />
		<tag k="natural" v="hill" />
		<tag k="place" v="locality" />
		<tag k="ssr:stedsnr" v="518946" />
	</node>
	<node id="-576867" lat="62.6063361088" lon="6.40345278278">
		<tag k="name" v="Blomdalen" />
		<tag k="natural" v="valley" />
		<tag k="place" v="locality" />
		<tag k="ssr:stedsnr" v="518923" />
	</node>
	<node id="-576863" lat="62.6576083299" lon="6.19210832862">
		<tag k="name" v="Sæberget" />
		<tag k="natural" v="hill" />
		<tag k="place" v="locality" />
		<tag k="ssr:stedsnr" v="518477" />
	</node>
	<node id="-576860" lat="62.5582805568" lon="6.25682777738">
		<tag k="name" v="Terøyskaret" />
		<tag k="natural" v="valley" />
		<tag k="place" v="locality" />
		<tag k="ssr:stedsnr" v="518287" />
	</node>
	<node id="-576856" lat="62.6884277806" lon="6.25751944122">
		<tag k="name" v="Sandvikhaugane" />
		<tag k="natural" v="hill" />
		<tag k="place" v="locality" />
		<tag k="ssr:stedsnr" v="517618" />
	</node>
	<node id="-576853" lat="62.6437888883" lon="6.24726388619">
		<tag k="name" v="Kanteraua" />
		<tag k="place" v="locality" />
		<tag k="ssr:stedsnr" v="517581" />
	</node>
	<node id="-576852" lat="62.614952777" lon="6.20241388423">
		<tag k="name" v="Hagardsgjølet" />
		<tag k="natural" v="valley" />
		<tag k="place" v="locality" />
		<tag k="ssr:stedsnr" v="517564" />
	</node>
	<node id="-576850" lat="62.6821749994" lon="6.17256111963">
		<tag k="name" v="Hornhamaren" />
		<tag k="natural" v="hill" />
		<tag k="place" v="locality" />
		<tag k="ssr:stedsnr" v="517532" />
	</node>
	<node id="-576849" lat="62.6763861097" lon="6.27283888159">
		<tag k="name" v="Slettene" />
		<tag k="natural" v="slope" />
		<tag k="place" v="locality" />
		<tag k="ssr:stedsnr" v="517415" />
	</node>
	<node id="-576848" lat="62.6571888926" lon="6.19802223008">
		<tag k="name" v="Kyrkjeryggen" />
		<tag k="natural" v="ridge" />
		<tag k="place" v="locality" />
		<tag k="ssr:stedsnr" v="517396" />
	</node>
	<node id="-576846" lat="62.6787166663" lon="6.19750833372">
		<tag k="name" v="Brisingberget" />
		<tag k="natural" v="hill" />
		<tag k="place" v="locality" />
		<tag k="ssr:stedsnr" v="517316" />
	</node>
	<node id="-576843" lat="62.693458336" lon="6.23251665717">
		<tag k="name" v="Arhaugen" />
		<tag k="natural" v="hill" />
		<tag k="place" v="locality" />
		<tag k="ssr:stedsnr" v="517297" />
	</node>
	<node id="-576836" lat="62.6670249961" lon="6.28526388901">
		<tag k="name" v="Stølshaugane" />
		<tag k="natural" v="hill" />
		<tag k="place" v="locality" />
		<tag k="ssr:stedsnr" v="497983" />
	</node>
	<node id="-576834" lat="62.6129305596" lon="6.75143054704">
		<tag k="name" v="Langedalen" />
		<tag k="natural" v="valley" />
		<tag k="place" v="locality" />
		<tag k="ssr:stedsnr" v="497956" />
	</node>
	<node id="-576831" lat="62.688608329" lon="6.24071110771">
		<tag k="fixme" v="consider natural=peak for the most distinct mountains in the district" />
		<tag k="name" v="Husfjellet" />
		<tag k="natural" v="hill" />
		<tag k="place" v="locality" />
		<tag k="ssr:stedsnr" v="497922" />
	</node>
	<node id="-576826" lat="62.6867111101" lon="6.25290833056">
		<tag k="name" v="Sakshamaren" />
		<tag k="natural" v="hill" />
		<tag k="place" v="locality" />
		<tag k="ssr:stedsnr" v="497868" />
	</node>
	<node id="-576815" lat="62.6257694483" lon="6.70975832697">
		<tag k="name" v="Breiskaret" />
		<tag k="natural" v="valley" />
		<tag k="place" v="locality" />
		<tag k="ssr:stedsnr" v="497430" />
	</node>
	<node id="-576814" lat="62.5915305568" lon="6.66108332863">
		<tag k="name" v="Trollkufta" />
		<tag k="natural" v="valley" />
		<tag k="place" v="locality" />
		<tag k="ssr:stedsnr" v="497354" />
	</node>
	<node id="-576810" lat="62.5788583314" lon="6.39236111362">
		<tag k="fixme" v="consider natural=peak for the most distinct mountains in the district" />
		<tag k="name" v="Hestehaudet" />
		<tag k="natural" v="hill" />
		<tag k="place" v="locality" />
		<tag k="ssr:stedsnr" v="497337" />
	</node>
	<node id="-576808" lat="62.5628694457" lon="6.51400556457">
		<tag k="name" v="Klubben" />
		<tag k="natural" v="hill" />
		<tag k="place" v="locality" />
		<tag k="ssr:stedsnr" v="497263" />
	</node>
	<node id="-576805" lat="62.5404249986" lon="6.36157222292">
		<tag k="name" v="Grønebakkane" />
		<tag k="natural" v="slope" />
		<tag k="place" v="locality" />
		<tag k="ssr:stedsnr" v="497220" />
	</node>
	<node id="-576798" lat="62.6117777804" lon="6.69931666502">
		<tag k="fixme" v="consider natural=peak for the most distinct mountains in the district" />
		<tag k="name" v="Byrkjevollhornet" />
		<tag k="natural" v="hill" />
		<tag k="place" v="locality" />
		<tag k="ssr:stedsnr" v="496480" />
	</node>
	<node id="-576791" lat="62.5974472244" lon="6.51514721662">
		<tag k="name" v="Ævelsdalen" />
		<tag k="natural" v="valley" />
		<tag k="place" v="locality" />
		<tag k="ssr:stedsnr" v="496414" />
	</node>
	<node id="-576790" lat="62.5636111132" lon="6.23626389684">
		<tag k="name" v="Bjørnøyvarden" />
		<tag k="natural" v="hill" />
		<tag k="place" v="locality" />
		<tag k="ssr:stedsnr" v="496331" />
	</node>
	<node id="-576786" lat="62.5400583329" lon="6.41005278619">
		<tag k="name" v="Trøskaret" />
		<tag k="natural" v="valley" />
		<tag k="place" v="locality" />
		<tag k="ssr:stedsnr" v="496259" />
	</node>
	<node id="-576785" lat="62.5454805536" lon="6.49579167625">
		<tag k="fixme" v="consider natural=peak for the most distinct mountains in the district" />
		<tag k="name" v="Øygardsheia" />
		<tag k="natural" v="hill" />
		<tag k="place" v="locality" />
		<tag k="ssr:stedsnr" v="496258" />
	</node>
	<node id="-576775" lat="62.5915555555" lon="6.3500444498">
		<tag k="name" v="Skakkholå" />
		<tag k="natural" v="valley" />
		<tag k="place" v="locality" />
		<tag k="ssr:stedsnr" v="459607" />
	</node>
	<node id="-576770" lat="62.5656111126" lon="6.51022500245">
		<tag k="name" v="Øvste Litletrolldalskjæften" />
		<tag k="natural" v="valley" />
		<tag k="place" v="locality" />
		<tag k="ssr:stedsnr" v="459523" />
	</node>
	<node id="-576769" lat="62.5474888909" lon="6.49828888102">
		<tag k="name" v="Bjønnadalen" />
		<tag k="natural" v="valley" />
		<tag k="place" v="locality" />
		<tag k="ssr:stedsnr" v="459508" />
	</node>
	<node id="-576767" lat="62.6031666648" lon="6.46730000594">
		<tag k="name" v="Grøthaugen" />
		<tag k="natural" v="hill" />
		<tag k="place" v="locality" />
		<tag k="ssr:stedsnr" v="459478" />
	</node>
	<node id="-576765" lat="62.590975001" lon="6.42847778371">
		<tag k="name" v="Reset" />
		<tag k="natural" v="slope" />
		<tag k="place" v="locality" />
		<tag k="ssr:stedsnr" v="459448" />
	</node>
	<node id="-576761" lat="62.5592777804" lon="6.42773056219">
		<tag k="name" v="Løyndehjellen" />
		<tag k="place" v="locality" />
		<tag k="ssr:stedsnr" v="459366" />
	</node>
	<node id="-576753" lat="62.6124805594" lon="6.47650278506">
		<tag k="name" v="Ølabakken" />
		<tag k="natural" v="slope" />
		<tag k="place" v="locality" />
		<tag k="ssr:stedsnr" v="458897" />
	</node>
	<node id="-576752" lat="62.6083305582" lon="6.62304722691">
		<tag k="name" v="Leitetuva" />
		<tag k="natural" v="hill" />
		<tag k="place" v="locality" />
		<tag k="ssr:stedsnr" v="458875" />
	</node>
	<node id="-576747" lat="62.5800999981" lon="6.59887221887">
		<tag k="name" v="Høghaugen" />
		<tag k="natural" v="hill" />
		<tag k="place" v="locality" />
		<tag k="ssr:stedsnr" v="458836" />
	</node>
	<node id="-576743" lat="62.537355552" lon="6.63898889865">
		<tag k="name" v="Klokksetnakken" />
		<tag k="natural" v="hill" />
		<tag k="place" v="locality" />
		<tag k="ssr:stedsnr" v="458678" />
	</node>
	<node id="-575697" lat="62.5752222188" lon="6.63152221486">
		<tag k="name" v="Løhamaren" />
		<tag k="natural" v="cliff" />
		<tag k="ssr:stedsnr" v="337991" />
	</node>
	<node id="-576732" lat="62.5602666642" lon="6.67735277981">
		<tag k="name" v="Svørabakken" />
		<tag k="natural" v="slope" />
		<tag k="place" v="locality" />
		<tag k="ssr:stedsnr" v="458415" />
	</node>
	<node id="-576730" lat="62.5618527742" lon="6.6917555613">
		<tag k="name" v="Orøybakken" />
		<tag k="natural" v="slope" />
		<tag k="place" v="locality" />
		<tag k="ssr:stedsnr" v="458409" />
	</node>
	<node id="-576727" lat="62.5964777769" lon="6.31999999664">
		<tag k="name" v="Brendehaugen" />
		<tag k="natural" v="hill" />
		<tag k="place" v="locality" />
		<tag k="ssr:stedsnr" v="458309" />
	</node>
	<node id="-576724" lat="62.6199916667" lon="6.63903055359">
		<tag k="name" v="Røffelnakken" />
		<tag k="natural" v="ridge" />
		<tag k="place" v="locality" />
		<tag k="ssr:stedsnr" v="458244" />
	</node>
	<node id="-576722" lat="62.6142527789" lon="6.63401111843">
		<tag k="name" v="Karisæterhaugen" />
		<tag k="natural" v="hill" />
		<tag k="place" v="locality" />
		<tag k="ssr:stedsnr" v="458044" />
	</node>
	<node id="-576717" lat="62.5789111146" lon="6.28383332832">
		<tag k="name" v="Bukkebakken" />
		<tag k="natural" v="slope" />
		<tag k="place" v="locality" />
		<tag k="ssr:stedsnr" v="457883" />
	</node>
	<node id="-576707" lat="62.6810472241" lon="6.18288611007">
		<tag k="name" v="Katagylet" />
		<tag k="natural" v="valley" />
		<tag k="place" v="locality" />
		<tag k="ssr:stedsnr" v="457322" />
	</node>
	<node id="-576680" lat="62.6256249992" lon="6.17306666662">
		<tag k="name" v="Tordalen" />
		<tag k="natural" v="valley" />
		<tag k="place" v="locality" />
		<tag k="ssr:stedsnr" v="436709" />
	</node>
	<node id="-576679" lat="62.6640888923" lon="6.20724999282">
		<tag k="name" v="Vasshaugane" />
		<tag k="natural" v="hill" />
		<tag k="place" v="locality" />
		<tag k="ssr:stedsnr" v="436691" />
	</node>
	<node id="-576678" lat="62.6751916703" lon="6.17539166278">
		<tag k="name" v="Liabruna" />
		<tag k="natural" v="hill" />
		<tag k="place" v="locality" />
		<tag k="ssr:stedsnr" v="436682" />
	</node>
	<node id="-576676" lat="62.614077779" lon="6.67823889041">
		<tag k="name" v="Omnan" />
		<tag k="natural" v="valley" />
		<tag k="place" v="locality" />
		<tag k="ssr:stedsnr" v="436390" />
	</node>
	<node id="-576675" lat="62.5929222246" lon="6.36117499305">
		<tag k="fixme" v="consider natural=peak for the most distinct mountains in the district" />
		<tag k="name" v="Eggene" />
		<tag k="natural" v="hill" />
		<tag k="place" v="locality" />
		<tag k="ssr:stedsnr" v="436377" />
	</node>
	<node id="-576668" lat="62.5833583302" lon="6.28743055836">
		<tag k="name" v="Hurlalia" />
		<tag k="natural" v="slope" />
		<tag k="place" v="locality" />
		<tag k="ssr:stedsnr" v="436352" />
	</node>
	<node id="-576666" lat="62.5941611076" lon="6.71369166823">
		<tag k="fixme" v="consider natural=peak for the most distinct mountains in the district" />
		<tag k="name" v="Tindfjellaksla" />
		<tag k="natural" v="hill" />
		<tag k="place" v="locality" />
		<tag k="ssr:stedsnr" v="436329" />
	</node>
	<node id="-576664" lat="62.5718222244" lon="6.43682222042">
		<tag k="fixme" v="consider natural=peak for the most distinct mountains in the district" />
		<tag k="name" v="Høgenakken" />
		<tag k="natural" v="hill" />
		<tag k="place" v="locality" />
		<tag k="ssr:stedsnr" v="436282" />
	</node>
	<node id="-576662" lat="62.554313885" lon="6.28521112036">
		<tag k="fixme" v="consider natural=peak for the most distinct mountains in the district" />
		<tag k="name" v="Hagefjellet" />
		<tag k="natural" v="hill" />
		<tag k="place" v="locality" />
		<tag k="ssr:stedsnr" v="436260" />
	</node>
	<node id="-576661" lat="62.5505055595" lon="6.30478333135">
		<tag k="name" v="Vardelia" />
		<tag k="natural" v="slope" />
		<tag k="place" v="locality" />
		<tag k="ssr:stedsnr" v="436238" />
	</node>
	<node id="-576658" lat="62.5400444413" lon="6.48502500793">
		<tag k="fixme" v="consider natural=peak for the most distinct mountains in the district" />
		<tag k="name" v="Hagenakken" />
		<tag k="natural" v="hill" />
		<tag k="place" v="locality" />
		<tag k="ssr:stedsnr" v="436225" />
	</node>
	<node id="-576640" lat="62.6116944489" lon="6.19482778021">
		<tag k="fixme" v="consider natural=peak for the most distinct mountains in the district" />
		<tag k="name" v="Farstadmulen" />
		<tag k="natural" v="hill" />
		<tag k="place" v="locality" />
		<tag k="ssr:stedsnr" v="415564" />
	</node>
	<node id="-576634" lat="62.5855333326" lon="6.76888611738">
		<tag k="name" v="Skjerdingreset" />
		<tag k="natural" v="valley" />
		<tag k="place" v="locality" />
		<tag k="ssr:stedsnr" v="254961" />
	</node>
	<node id="-576623" lat="62.6192472189" lon="6.19044444856">
		<tag k="fixme" v="consider natural=peak for the most distinct mountains in the district" />
		<tag k="name" v="Goaldet" />
		<tag k="natural" v="hill" />
		<tag k="place" v="locality" />
		<tag k="ssr:stedsnr" v="254690" />
	</node>
	<node id="-576621" lat="62.6105222191" lon="6.52013610985">
		<tag k="name" v="Skoradalen" />
		<tag k="natural" v="valley" />
		<tag k="place" v="locality" />
		<tag k="ssr:stedsnr" v="254377" />
	</node>
	<node id="-576620" lat="62.5991722189" lon="6.41830833749">
		<tag k="name" v="Vasskarhamrane" />
		<tag k="natural" v="hill" />
		<tag k="place" v="locality" />
		<tag k="ssr:stedsnr" v="254373" />
	</node>
	<node id="-576617" lat="62.5889611137" lon="6.49197499875">
		<tag k="name" v="Klungerdalen" />
		<tag k="natural" v="valley" />
		<tag k="place" v="locality" />
		<tag k="ssr:stedsnr" v="254346" />
	</node>
	<node id="-576615" lat="62.5942833367" lon="6.52458888561">
		<tag k="fixme" v="consider natural=peak for the most distinct mountains in the district" />
		<tag k="name" v="Keipen" />
		<tag k="natural" v="hill" />
		<tag k="place" v="locality" />
		<tag k="ssr:stedsnr" v="254328" />
	</node>
	<node id="-576614" lat="62.5957694402" lon="6.7116583332">
		<tag k="name" v="Skjerdinghola" />
		<tag k="natural" v="valley" />
		<tag k="place" v="locality" />
		<tag k="ssr:stedsnr" v="254323" />
	</node>
	<node id="-576607" lat="62.5687638869" lon="6.50206667414">
		<tag k="fixme" v="consider natural=peak for the most distinct mountains in the district" />
		<tag k="name" v="Urfjellet" />
		<tag k="natural" v="hill" />
		<tag k="place" v="locality" />
		<tag k="ssr:stedsnr" v="254278" />
	</node>
	<node id="-576605" lat="62.5578749985" lon="6.42163889582">
		<tag k="fixme" v="consider natural=peak for the most distinct mountains in the district" />
		<tag k="name" v="Tinden" />
		<tag k="natural" v="hill" />
		<tag k="place" v="locality" />
		<tag k="ssr:stedsnr" v="254265" />
	</node>
	<node id="-576603" lat="62.5543083343" lon="6.42498333453">
		<tag k="name" v="Samhjartet" />
		<tag k="natural" v="slope" />
		<tag k="place" v="locality" />
		<tag k="ssr:stedsnr" v="254249" />
	</node>
	<node id="-576592" lat="62.6163083326" lon="6.54938610402">
		<tag k="fixme" v="consider natural=peak for the most distinct mountains in the district" />
		<tag k="name" v="Skorahornet" />
		<tag k="natural" v="hill" />
		<tag k="place" v="locality" />
		<tag k="ssr:stedsnr" v="254409" />
	</node>
	<node id="-575671" lat="62.559338886" lon="6.62787221599">
		<tag k="name" v="Bakkegjerdet" />
		<tag k="natural" v="slope" />
		<tag k="place" v="locality" />
		<tag k="ssr:stedsnr" v="337590" />
	</node>
	<node id="-576579" lat="62.5587333333" lon="6.60832221651">
		<tag k="name" v="Haugen" />
		<tag k="natural" v="hill" />
		<tag k="place" v="locality" />
		<tag k="ssr:stedsnr" v="232991" />
	</node>
	<node id="-576575" lat="62.5781611074" lon="6.64122777174">
		<tag k="name" v="Brunhaugen" />
		<tag k="natural" v="hill" />
		<tag k="place" v="locality" />
		<tag k="ssr:stedsnr" v="216988" />
	</node>
	<node id="-576572" lat="62.5841722203" lon="6.63243332388">
		<tag k="name" v="Kleiva" />
		<tag k="natural" v="cliff" />
		<tag k="ssr:stedsnr" v="216973" />
	</node>
	<node id="-576571" lat="62.5864888906" lon="6.63246111325">
		<tag k="name" v="Fonnasletta" />
		<tag k="natural" v="slope" />
		<tag k="place" v="locality" />
		<tag k="ssr:stedsnr" v="216969" />
	</node>
	<node id="-576566" lat="62.5811916641" lon="6.56828611999">
		<tag k="name" v="Fanneskaret" />
		<tag k="natural" v="valley" />
		<tag k="place" v="locality" />
		<tag k="ssr:stedsnr" v="216899" />
	</node>
	<node id="-576563" lat="62.5768305525" lon="6.4334361184">
		<tag k="name" v="Austadalen" />
		<tag k="natural" v="valley" />
		<tag k="place" v="locality" />
		<tag k="ssr:stedsnr" v="216878" />
	</node>
	<node id="-576560" lat="62.5998472204" lon="6.64144167078">
		<tag k="name" v="Gåshamaren" />
		<tag k="natural" v="cliff" />
		<tag k="ssr:stedsnr" v="216843" />
	</node>
	<node id="-576559" lat="62.6011611142" lon="6.64019999909">
		<tag k="name" v="Løhamaren" />
		<tag k="natural" v="cliff" />
		<tag k="ssr:stedsnr" v="216839" />
	</node>
	<node id="-576558" lat="62.5958444481" lon="6.63770277605">
		<tag k="name" v="Stølen" />
		<tag k="natural" v="slope" />
		<tag k="place" v="locality" />
		<tag k="ssr:stedsnr" v="216837" />
	</node>
	<node id="-576555" lat="62.5791638926" lon="6.60414722765">
		<tag k="name" v="Geitahamaren" />
		<tag k="natural" v="cliff" />
		<tag k="ssr:stedsnr" v="216778" />
	</node>
	<node id="-576554" lat="62.5701638851" lon="6.59285554828">
		<tag k="name" v="Kjøvhola" />
		<tag k="natural" v="valley" />
		<tag k="place" v="locality" />
		<tag k="ssr:stedsnr" v="216777" />
	</node>
	<node id="-576553" lat="62.5891361075" lon="6.58231944351">
		<tag k="name" v="Gamlehaugen" />
		<tag k="natural" v="hill" />
		<tag k="place" v="locality" />
		<tag k="ssr:stedsnr" v="216721" />
	</node>
	<node id="-576552" lat="62.593983334" lon="6.58604445175">
		<tag k="name" v="Katthamaren" />
		<tag k="natural" v="hill" />
		<tag k="place" v="locality" />
		<tag k="ssr:stedsnr" v="216719" />
	</node>
	<node id="-576551" lat="62.5423833362" lon="6.64239166504">
		<tag k="name" v="Ospanakken" />
		<tag k="natural" v="hill" />
		<tag k="place" v="locality" />
		<tag k="ssr:stedsnr" v="216676" />
	</node>
	<node id="-576550" lat="62.5396805577" lon="6.59358888539">
		<tag k="name" v="Langhaugane" />
		<tag k="natural" v="hill" />
		<tag k="place" v="locality" />
		<tag k="ssr:stedsnr" v="216592" />
	</node>
	<node id="-576546" lat="62.561327781" lon="6.51741111843">
		<tag k="name" v="Litleklubben" />
		<tag k="natural" v="cliff" />
		<tag k="ssr:stedsnr" v="216540" />
	</node>
	<node id="-576545" lat="62.5533361127" lon="6.5549194472">
		<tag k="name" v="Sætredalen" />
		<tag k="natural" v="valley" />
		<tag k="place" v="locality" />
		<tag k="ssr:stedsnr" v="216518" />
	</node>
	<node id="-576542" lat="62.6157694412" lon="6.65694722534">
		<tag k="name" v="Reithaugen" />
		<tag k="natural" v="hill" />
		<tag k="place" v="locality" />
		<tag k="ssr:stedsnr" v="216448" />
	</node>
	<node id="-576539" lat="62.6178111135" lon="6.68288055438">
		<tag k="name" v="Hornskaret" />
		<tag k="natural" v="valley" />
		<tag k="place" v="locality" />
		<tag k="ssr:stedsnr" v="216414" />
	</node>
	<node id="-576537" lat="62.5684444448" lon="6.72344165769">
		<tag k="name" v="Røbakken" />
		<tag k="natural" v="slope" />
		<tag k="place" v="locality" />
		<tag k="ssr:stedsnr" v="216385" />
	</node>
	<node id="-576533" lat="62.6317722263" lon="6.66023332468">
		<tag k="name" v="Eikenesberget" />
		<tag k="natural" v="hill" />
		<tag k="place" v="locality" />
		<tag k="ssr:stedsnr" v="216319" />
	</node>
	<node id="-575662" lat="62.6004555594" lon="6.48310834092">
		<tag k="name" v="Hellandslia" />
		<tag k="natural" v="slope" />
		<tag k="place" v="locality" />
		<tag k="ssr:stedsnr" v="337539" />
	</node>
	<node id="-576529" lat="62.6109944451" lon="6.64477500861">
		<tag k="name" v="Skarhaugen" />
		<tag k="natural" v="hill" />
		<tag k="place" v="locality" />
		<tag k="ssr:stedsnr" v="216034" />
	</node>
	<node id="-576527" lat="62.6287222255" lon="6.6643805557">
		<tag k="name" v="Grøtnesrabben" />
		<tag k="natural" v="hill" />
		<tag k="place" v="locality" />
		<tag k="ssr:stedsnr" v="216013" />
	</node>
	<node id="-576526" lat="62.5326611115" lon="6.27868333891">
		<tag k="name" v="Nakken" />
		<tag k="natural" v="ridge" />
		<tag k="place" v="locality" />
		<tag k="ssr:stedsnr" v="215697" />
	</node>
	<node id="-576523" lat="62.5330555599" lon="6.58744722291">
		<tag k="name" v="Kvernbakken" />
		<tag k="natural" v="slope" />
		<tag k="place" v="locality" />
		<tag k="ssr:stedsnr" v="216616" />
	</node>
	<node id="-576521" lat="62.6079722208" lon="6.24693610269">
		<tag k="name" v="Ølkonå" />
		<tag k="natural" v="hill" />
		<tag k="place" v="locality" />
		<tag k="ssr:stedsnr" v="215473" />
	</node>
	<node id="-575660" lat="62.5773472228" lon="6.72111111639">
		<tag k="name" v="Demmehaugen" />
		<tag k="natural" v="hill" />
		<tag k="place" v="locality" />
		<tag k="ssr:stedsnr" v="337494" />
	</node>
	<node id="-576495" lat="62.665427781" lon="6.29517500793">
		<tag k="name" v="Skallen" />
		<tag k="natural" v="hill" />
		<tag k="place" v="locality" />
		<tag k="ssr:stedsnr" v="194979" />
	</node>
	<node id="-576494" lat="62.6631166647" lon="6.30808055083">
		<tag k="name" v="Legerimma" />
		<tag k="natural" v="ridge" />
		<tag k="place" v="locality" />
		<tag k="ssr:stedsnr" v="194976" />
	</node>
	<node id="-576492" lat="62.6571083349" lon="6.22798333746">
		<tag k="fixme" v="consider natural=peak for the most distinct mountains in the district" />
		<tag k="name" v="Fjellsenden" />
		<tag k="natural" v="hill" />
		<tag k="place" v="locality" />
		<tag k="ssr:stedsnr" v="194959" />
	</node>
	<node id="-576486" lat="62.679611115" lon="6.26890556135">
		<tag k="name" v="Storfjellrøra" />
		<tag k="natural" v="valley" />
		<tag k="place" v="locality" />
		<tag k="ssr:stedsnr" v="194863" />
	</node>
	<node id="-576483" lat="62.6252472242" lon="6.14073889438">
		<tag k="name" v="Rådet" />
		<tag k="natural" v="slope" />
		<tag k="place" v="locality" />
		<tag k="ssr:stedsnr" v="194690" />
	</node>
	<node id="-576482" lat="62.6293361146" lon="6.14696111268">
		<tag k="name" v="Storhaugen" />
		<tag k="natural" v="hill" />
		<tag k="place" v="locality" />
		<tag k="ssr:stedsnr" v="194689" />
	</node>
	<node id="-576479" lat="62.6357777817" lon="6.2640444398">
		<tag k="name" v="Varden" />
		<tag k="natural" v="hill" />
		<tag k="place" v="locality" />
		<tag k="ssr:stedsnr" v="194417" />
	</node>
	<node id="-576477" lat="62.6323555597" lon="6.67142499578">
		<tag k="name" v="Nosa" />
		<tag k="natural" v="hill" />
		<tag k="place" v="locality" />
		<tag k="ssr:stedsnr" v="194402" />
	</node>
	<node id="-576475" lat="62.5938694463" lon="6.54180555544">
		<tag k="name" v="Sætredalen" />
		<tag k="natural" v="valley" />
		<tag k="place" v="locality" />
		<tag k="ssr:stedsnr" v="194325" />
	</node>
	<node id="-576474" lat="62.5915694433" lon="6.63932222415">
		<tag k="name" v="Svartegjølet" />
		<tag k="natural" v="valley" />
		<tag k="place" v="locality" />
		<tag k="ssr:stedsnr" v="194323" />
	</node>
	<node id="-576473" lat="62.5925916636" lon="6.6659111141">
		<tag k="name" v="Dysadalen" />
		<tag k="natural" v="valley" />
		<tag k="place" v="locality" />
		<tag k="ssr:stedsnr" v="194321" />
	</node>
	<node id="-576470" lat="62.5822055579" lon="6.3767388968">
		<tag k="name" v="Grønebakken" />
		<tag k="natural" v="hill" />
		<tag k="place" v="locality" />
		<tag k="ssr:stedsnr" v="194307" />
	</node>
	<node id="-576469" lat="62.5769861073" lon="6.52293054736">
		<tag k="name" v="Breidskaret" />
		<tag k="natural" v="valley" />
		<tag k="place" v="locality" />
		<tag k="ssr:stedsnr" v="194299" />
	</node>
	<node id="-576466" lat="62.5871166653" lon="6.65971666559">
		<tag k="name" v="Kaldklauva" />
		<tag k="natural" v="valley" />
		<tag k="place" v="locality" />
		<tag k="ssr:stedsnr" v="194293" />
	</node>
	<node id="-576462" lat="62.5388416694" lon="6.29654166352">
		<tag k="fixme" v="consider natural=peak for the most distinct mountains in the district" />
		<tag k="name" v="Klimpane" />
		<tag k="natural" v="hill" />
		<tag k="place" v="locality" />
		<tag k="ssr:stedsnr" v="194220" />
	</node>
	<node id="-576459" lat="62.6108194445" lon="6.73130000673">
		<tag k="name" v="Skjerdinghalsen" />
		<tag k="natural" v="valley" />
		<tag k="place" v="locality" />
		<tag k="ssr:stedsnr" v="193942" />
	</node>
	<node id="-576451" lat="62.6110694419" lon="6.47041945375">
		<tag k="fixme" v="consider natural=peak for the most distinct mountains in the district" />
		<tag k="name" v="Husfjellet" />
		<tag k="natural" v="hill" />
		<tag k="place" v="locality" />
		<tag k="ssr:stedsnr" v="193437" />
	</node>
	<node id="-576450" lat="62.5976611107" lon="6.40614445418">
		<tag k="name" v="Søre Botnen" />
		<tag k="natural" v="valley" />
		<tag k="place" v="locality" />
		<tag k="ssr:stedsnr" v="193429" />
	</node>
	<node id="-576447" lat="62.6013277795" lon="6.65413611126">
		<tag k="name" v="Harfloget" />
		<tag k="natural" v="hill" />
		<tag k="place" v="locality" />
		<tag k="ssr:stedsnr" v="193410" />
	</node>
	<node id="-576445" lat="62.5994916651" lon="6.47270833497">
		<tag k="fixme" v="consider natural=peak for the most distinct mountains in the district" />
		<tag k="name" v="Lundafjellet" />
		<tag k="natural" v="hill" />
		<tag k="place" v="locality" />
		<tag k="ssr:stedsnr" v="193399" />
	</node>
	<node id="-576444" lat="62.5689000008" lon="6.43808611447">
		<tag k="fixme" v="consider natural=peak for the most distinct mountains in the district" />
		<tag k="name" v="Furnakken" />
		<tag k="natural" v="hill" />
		<tag k="place" v="locality" />
		<tag k="ssr:stedsnr" v="193311" />
	</node>
	<node id="-576441" lat="62.5574888885" lon="6.34495833155">
		<tag k="name" v="Strenghola" />
		<tag k="natural" v="valley" />
		<tag k="place" v="locality" />
		<tag k="ssr:stedsnr" v="193277" />
	</node>
	<node id="-576440" lat="62.5580222184" lon="6.31124444981">
		<tag k="name" v="Elderslia" />
		<tag k="natural" v="slope" />
		<tag k="place" v="locality" />
		<tag k="ssr:stedsnr" v="193269" />
	</node>
	<node id="-576437" lat="62.5430499994" lon="6.40920833621">
		<tag k="name" v="Kjerringane" />
		<tag k="natural" v="hill" />
		<tag k="place" v="locality" />
		<tag k="ssr:stedsnr" v="193238" />
	</node>
	<node id="-576436" lat="62.5329000028" lon="6.28333054619">
		<tag k="name" v="Uggedalen" />
		<tag k="natural" v="valley" />
		<tag k="place" v="locality" />
		<tag k="ssr:stedsnr" v="193208" />
	</node>
	<node id="-576409" lat="62.5838055537" lon="6.62567500089">
		<tag k="name" v="Haugane" />
		<tag k="natural" v="hill" />
		<tag k="place" v="locality" />
		<tag k="ssr:stedsnr" v="155978" />
	</node>
	<node id="-576403" lat="62.590800003" lon="6.5978611014">
		<tag k="name" v="Hagardshaugen" />
		<tag k="natural" v="hill" />
		<tag k="place" v="locality" />
		<tag k="ssr:stedsnr" v="155740" />
	</node>
	<node id="-576402" lat="62.5397944417" lon="6.36708333649">
		<tag k="name" v="Grønbakkane" />
		<tag k="place" v="locality" />
		<tag k="ssr:stedsnr" v="155736" />
	</node>
	<node id="-576397" lat="62.599852775" lon="6.33887500366">
		<tag k="name" v="Ørbakken" />
		<tag k="natural" v="slope" />
		<tag k="place" v="locality" />
		<tag k="ssr:stedsnr" v="155591" />
	</node>
	<node id="-576395" lat="62.5595361068" lon="6.53169166562">
		<tag k="name" v="Skitnehjellen" />
		<tag k="place" v="locality" />
		<tag k="ssr:stedsnr" v="155573" />
	</node>
	<node id="-576393" lat="62.5545527812" lon="6.52516110653">
		<tag k="name" v="Brautateigane" />
		<tag k="natural" v="slope" />
		<tag k="place" v="locality" />
		<tag k="ssr:stedsnr" v="155563" />
	</node>
	<node id="-576392" lat="62.5516861143" lon="6.52902222746">
		<tag k="name" v="Stormyrteigane" />
		<tag k="natural" v="slope" />
		<tag k="place" v="locality" />
		<tag k="ssr:stedsnr" v="155559" />
	</node>
	<node id="-576391" lat="62.5491638844" lon="6.52670833243">
		<tag k="name" v="Tjørehjellen" />
		<tag k="place" v="locality" />
		<tag k="ssr:stedsnr" v="155556" />
	</node>
	<node id="-576390" lat="62.5529944444" lon="6.51582499727">
		<tag k="name" v="Berga" />
		<tag k="natural" v="hill" />
		<tag k="place" v="locality" />
		<tag k="ssr:stedsnr" v="155552" />
	</node>
	<node id="-576389" lat="62.5595722261" lon="6.50501944962">
		<tag k="name" v="Nebbe" />
		<tag k="place" v="locality" />
		<tag k="ssr:stedsnr" v="155551" />
	</node>
	<node id="-576388" lat="62.5626722223" lon="6.51776388511">
		<tag k="name" v="Småheiane" />
		<tag k="natural" v="hill" />
		<tag k="place" v="locality" />
		<tag k="ssr:stedsnr" v="155542" />
	</node>
	<node id="-576387" lat="62.5531916653" lon="6.56057499688">
		<tag k="name" v="Skinstø" />
		<tag k="natural" v="slope" />
		<tag k="place" v="locality" />
		<tag k="ssr:stedsnr" v="155513" />
	</node>
	<node id="-576383" lat="62.5503777818" lon="6.57870000203">
		<tag k="name" v="Breiskaret" />
		<tag k="natural" v="valley" />
		<tag k="place" v="locality" />
		<tag k="ssr:stedsnr" v="155494" />
	</node>
	<node id="-576381" lat="62.596172222" lon="6.42801666932">
		<tag k="name" v="Litledalen" />
		<tag k="natural" v="valley" />
		<tag k="place" v="locality" />
		<tag k="ssr:stedsnr" v="155483" />
	</node>
	<node id="-576380" lat="62.5942944441" lon="6.43237221583">
		<tag k="name" v="Synnalandsdalen" />
		<tag k="natural" v="valley" />
		<tag k="place" v="locality" />
		<tag k="ssr:stedsnr" v="155482" />
	</node>
	<node id="-576377" lat="62.5890555564" lon="6.69626667259">
		<tag k="name" v="Koldalslia" />
		<tag k="natural" v="slope" />
		<tag k="place" v="locality" />
		<tag k="ssr:stedsnr" v="155456" />
	</node>
	<node id="-576375" lat="62.5700333335" lon="6.71735000969">
		<tag k="name" v="Grøtsnakken" />
		<tag k="natural" v="ridge" />
		<tag k="place" v="locality" />
		<tag k="ssr:stedsnr" v="155451" />
	</node>
	<node id="-576374" lat="62.6215361127" lon="6.66598889551">
		<tag k="name" v="Haugen" />
		<tag k="natural" v="hill" />
		<tag k="place" v="locality" />
		<tag k="ssr:stedsnr" v="155450" />
	</node>
	<node id="-576373" lat="62.5431527747" lon="6.4764805563">
		<tag k="name" v="Strupen" />
		<tag k="natural" v="ridge" />
		<tag k="place" v="locality" />
		<tag k="ssr:stedsnr" v="155441" />
	</node>
	<node id="-576372" lat="62.6068277776" lon="6.43192778299">
		<tag k="name" v="Orretuå" />
		<tag k="natural" v="hill" />
		<tag k="place" v="locality" />
		<tag k="ssr:stedsnr" v="155506" />
	</node>
	<node id="-576371" lat="62.558177782" lon="6.5706333241">
		<tag k="name" v="Tjønnemyrlia" />
		<tag k="natural" v="slope" />
		<tag k="place" v="locality" />
		<tag k="ssr:stedsnr" v="155507" />
	</node>
	<node id="-576370" lat="62.5861638893" lon="6.48543611353">
		<tag k="name" v="Ringstaddalen" />
		<tag k="natural" v="valley" />
		<tag k="place" v="locality" />
		<tag k="ssr:stedsnr" v="155503" />
	</node>
	<node id="-576369" lat="62.6271749994" lon="6.61085833857">
		<tag k="name" v="Brauta" />
		<tag k="natural" v="slope" />
		<tag k="place" v="locality" />
		<tag k="ssr:stedsnr" v="155385" />
	</node>
	<node id="-576366" lat="62.6018333356" lon="6.39954444865">
		<tag k="name" v="Sætremarka" />
		<tag k="natural" v="slope" />
		<tag k="place" v="locality" />
		<tag k="ssr:stedsnr" v="155273" />
	</node>
	<node id="-576364" lat="62.5409222223" lon="6.51684444287">
		<tag k="name" v="Haugen" />
		<tag k="natural" v="hill" />
		<tag k="place" v="locality" />
		<tag k="ssr:stedsnr" v="155059" />
	</node>
	<node id="-576361" lat="62.6133166623" lon="6.63046666396">
		<tag k="name" v="Ramnereiret" />
		<tag k="natural" v="cliff" />
		<tag k="ssr:stedsnr" v="155030" />
	</node>
	<node id="-576357" lat="62.526316665" lon="6.53291111918">
		<tag k="name" v="Svarthamaren" />
		<tag k="natural" v="cliff" />
		<tag k="ssr:stedsnr" v="155004" />
	</node>
	<node id="-576349" lat="62.6357277778" lon="6.15783888206">
		<tag k="name" v="Myreberga" />
		<tag k="natural" v="hill" />
		<tag k="place" v="locality" />
		<tag k="ssr:stedsnr" v="153949" />
	</node>
	<node id="-576348" lat="62.6285388851" lon="6.16952499297">
		<tag k="name" v="Botnen" />
		<tag k="natural" v="valley" />
		<tag k="place" v="locality" />
		<tag k="ssr:stedsnr" v="153940" />
	</node>
	<node id="-576345" lat="62.5865583322" lon="6.29401111685">
		<tag k="name" v="Fonnhammaren" />
		<tag k="natural" v="cliff" />
		<tag k="ssr:stedsnr" v="153926" />
	</node>
	<node id="-576344" lat="62.6254250043" lon="6.14632499969">
		<tag k="name" v="Feirvoldsgjølet" />
		<tag k="natural" v="valley" />
		<tag k="place" v="locality" />
		<tag k="ssr:stedsnr" v="153913" />
	</node>
	<node id="-576343" lat="62.6692166627" lon="6.31982778014">
		<tag k="name" v="Kvia" />
		<tag k="natural" v="slope" />
		<tag k="place" v="locality" />
		<tag k="ssr:stedsnr" v="153914" />
	</node>
	<node id="-576339" lat="62.6319305592" lon="6.19166111244">
		<tag k="name" v="Sætbrauta" />
		<tag k="natural" v="slope" />
		<tag k="place" v="locality" />
		<tag k="ssr:stedsnr" v="153586" />
	</node>
	<node id="-576336" lat="62.6772000036" lon="6.26815277222">
		<tag k="name" v="Raudehamaren" />
		<tag k="natural" v="cliff" />
		<tag k="ssr:stedsnr" v="153438" />
	</node>
	<node id="-576335" lat="62.6827638883" lon="6.26556944786">
		<tag k="name" v="Flemshalsen" />
		<tag k="natural" v="ridge" />
		<tag k="place" v="locality" />
		<tag k="ssr:stedsnr" v="153436" />
	</node>
	<node id="-576326" lat="62.634027775" lon="6.26651666436">
		<tag k="name" v="Leitet" />
		<tag k="natural" v="slope" />
		<tag k="place" v="locality" />
		<tag k="ssr:stedsnr" v="153606" />
	</node>
	<node id="-576321" lat="62.6340250001" lon="6.13335833977">
		<tag k="name" v="Hestdalen" />
		<tag k="natural" v="valley" />
		<tag k="place" v="locality" />
		<tag k="ssr:stedsnr" v="141230" />
	</node>
	<node id="-576320" lat="62.6135166626" lon="6.16811667089">
		<tag k="name" v="Hellenakken" />
		<tag k="natural" v="slope" />
		<tag k="place" v="locality" />
		<tag k="ssr:stedsnr" v="141223" />
	</node>
	<node id="-576316" lat="62.6660527812" lon="6.30709167434">
		<tag k="name" v="Djupedalen" />
		<tag k="natural" v="valley" />
		<tag k="place" v="locality" />
		<tag k="ssr:stedsnr" v="133974" />
	</node>
	<node id="-576314" lat="62.6602972258" lon="6.23471388341">
		<tag k="name" v="Håmannen" />
		<tag k="natural" v="hill" />
		<tag k="place" v="locality" />
		<tag k="ssr:stedsnr" v="133962" />
	</node>
	<node id="-576310" lat="62.6834861149" lon="6.26536389777">
		<tag k="name" v="Halsane" />
		<tag k="natural" v="ridge" />
		<tag k="place" v="locality" />
		<tag k="ssr:stedsnr" v="133878" />
	</node>
	<node id="-576309" lat="62.683936114" lon="6.25941944527">
		<tag k="name" v="Århammaren" />
		<tag k="natural" v="hill" />
		<tag k="place" v="locality" />
		<tag k="ssr:stedsnr" v="133873" />
	</node>
	<node id="-576304" lat="62.6355749987" lon="6.15516111521">
		<tag k="name" v="Kjedalsnakken" />
		<tag k="natural" v="hill" />
		<tag k="place" v="locality" />
		<tag k="ssr:stedsnr" v="133685" />
	</node>
	<node id="-576303" lat="62.6327444457" lon="6.1388666591">
		<tag k="name" v="Karihola" />
		<tag k="natural" v="valley" />
		<tag k="place" v="locality" />
		<tag k="ssr:stedsnr" v="133686" />
	</node>
	<node id="-576301" lat="62.6591555583" lon="6.2110944392">
		<tag k="fixme" v="consider natural=peak for the most distinct mountains in the district" />
		<tag k="name" v="Mannen" />
		<tag k="natural" v="hill" />
		<tag k="place" v="locality" />
		<tag k="ssr:stedsnr" v="133680" />
	</node>
	<node id="-576296" lat="62.6392361109" lon="6.24577223169">
		<tag k="fixme" v="consider natural=peak for the most distinct mountains in the district" />
		<tag k="name" v="Myskjafjellet" />
		<tag k="natural" v="hill" />
		<tag k="place" v="locality" />
		<tag k="ssr:stedsnr" v="133432" />
	</node>
	<node id="-576290" lat="62.5918722179" lon="6.42038611494">
		<tag k="name" v="Timbredalen" />
		<tag k="natural" v="valley" />
		<tag k="place" v="locality" />
		<tag k="ssr:stedsnr" v="133334" />
	</node>
	<node id="-576289" lat="62.5864500005" lon="6.52292221439">
		<tag k="name" v="Sætredalen" />
		<tag k="natural" v="valley" />
		<tag k="place" v="locality" />
		<tag k="ssr:stedsnr" v="133329" />
	</node>
	<node id="-576286" lat="62.5810333318" lon="6.36700834075">
		<tag k="name" v="Svarthamaren" />
		<tag k="natural" v="hill" />
		<tag k="place" v="locality" />
		<tag k="ssr:stedsnr" v="133310" />
	</node>
	<node id="-576285" lat="62.5754972237" lon="6.49990554875">
		<tag k="name" v="Ringstadbotnen" />
		<tag k="natural" v="valley" />
		<tag k="place" v="locality" />
		<tag k="ssr:stedsnr" v="133304" />
	</node>
	<node id="-576284" lat="62.5815611141" lon="6.51663055511">
		<tag k="fixme" v="consider natural=peak for the most distinct mountains in the district" />
		<tag k="name" v="Sætretiggen" />
		<tag k="natural" v="hill" />
		<tag k="place" v="locality" />
		<tag k="ssr:stedsnr" v="133298" />
	</node>
	<node id="-576283" lat="62.5796138924" lon="6.50818611987">
		<tag k="name" v="Austerdalen" />
		<tag k="natural" v="valley" />
		<tag k="place" v="locality" />
		<tag k="ssr:stedsnr" v="133297" />
	</node>
	<node id="-575620" lat="62.6301833342" lon="6.18956667441">
		<tag k="name" v="Sætnakken" />
		<tag k="place" v="locality" />
		<tag k="ssr:stedsnr" v="335705" />
	</node>
	<node id="-576277" lat="62.5401833352" lon="6.38216943655">
		<tag k="fixme" v="consider natural=peak for the most distinct mountains in the district" />
		<tag k="name" v="Skoranakken" />
		<tag k="natural" v="hill" />
		<tag k="place" v="locality" />
		<tag k="ssr:stedsnr" v="133229" />
	</node>
	<node id="-576276" lat="62.541622218" lon="6.31268611466">
		<tag k="name" v="Storsvora" />
		<tag k="natural" v="valley" />
		<tag k="place" v="locality" />
		<tag k="ssr:stedsnr" v="133219" />
	</node>
	<node id="-576273" lat="62.558938887" lon="6.59051666073">
		<tag k="fixme" v="consider natural=peak for the most distinct mountains in the district" />
		<tag k="name" v="Grødsnakken" />
		<tag k="natural" v="hill" />
		<tag k="place" v="locality" />
		<tag k="ssr:stedsnr" v="133194" />
	</node>
	<node id="-576267" lat="62.6056222183" lon="6.42581944132">
		<tag k="name" v="Nesdalen" />
		<tag k="natural" v="valley" />
		<tag k="place" v="locality" />
		<tag k="ssr:stedsnr" v="132413" />
	</node>
	<node id="-576260" lat="62.6106694449" lon="6.4970805601">
		<tag k="fixme" v="consider natural=peak for the most distinct mountains in the district" />
		<tag k="name" v="Ramnfloget" />
		<tag k="natural" v="hill" />
		<tag k="place" v="locality" />
		<tag k="ssr:stedsnr" v="132386" />
	</node>
	<node id="-576259" lat="62.5957444418" lon="6.37310834037">
		<tag k="name" v="Trongskaret" />
		<tag k="natural" v="valley" />
		<tag k="place" v="locality" />
		<tag k="ssr:stedsnr" v="132379" />
	</node>
	<node id="-576255" lat="62.6019194468" lon="6.52973888952">
		<tag k="name" v="Kjelen" />
		<tag k="natural" v="valley" />
		<tag k="place" v="locality" />
		<tag k="ssr:stedsnr" v="132359" />
	</node>
	<node id="-576250" lat="62.5565500013" lon="6.29411665987">
		<tag k="name" v="Dyrskaret" />
		<tag k="natural" v="valley" />
		<tag k="place" v="locality" />
		<tag k="ssr:stedsnr" v="132266" />
	</node>
	<node id="-576249" lat="62.5394027785" lon="6.42121388092">
		<tag k="fixme" v="consider natural=peak for the most distinct mountains in the district" />
		<tag k="name" v="Urkedalsnakken" />
		<tag k="natural" v="hill" />
		<tag k="place" v="locality" />
		<tag k="ssr:stedsnr" v="132238" />
	</node>
	<node id="-575801" lat="62.6149166624" lon="6.46900000786">
		<tag k="name" v="Kyrkjeberget" />
		<tag k="natural" v="hill" />
		<tag k="place" v="locality" />
		<tag k="ssr:stedsnr" v="397828" />
	</node>
	<node id="-576231" lat="62.581830554" lon="6.47677221812">
		<tag k="name" v="Nyløypa" />
		<tag k="natural" v="slope" />
		<tag k="place" v="locality" />
		<tag k="ssr:stedsnr" v="95902" />
	</node>
	<node id="-576229" lat="62.5714722242" lon="6.46258333745">
		<tag k="name" v="Flathaugane" />
		<tag k="natural" v="hill" />
		<tag k="place" v="locality" />
		<tag k="ssr:stedsnr" v="95894" />
	</node>
	<node id="-576223" lat="62.6003805511" lon="6.34746666315">
		<tag k="name" v="Mjeltehaugen" />
		<tag k="natural" v="hill" />
		<tag k="place" v="locality" />
		<tag k="ssr:stedsnr" v="95564" />
	</node>
	<node id="-576220" lat="62.6042111136" lon="6.43413333893">
		<tag k="name" v="Lynghammaren" />
		<tag k="place" v="locality" />
		<tag k="ssr:stedsnr" v="95471" />
	</node>
	<node id="-576219" lat="62.5658805593" lon="6.75405278243">
		<tag k="name" v="Hundålia" />
		<tag k="natural" v="slope" />
		<tag k="place" v="locality" />
		<tag k="ssr:stedsnr" v="95607" />
	</node>
	<node id="-576215" lat="62.5639972244" lon="6.53151111716">
		<tag k="name" v="Sætremarka" />
		<tag k="natural" v="slope" />
		<tag k="place" v="locality" />
		<tag k="ssr:stedsnr" v="95503" />
	</node>
	<node id="-576214" lat="62.6302861108" lon="6.6050888889">
		<tag k="name" v="Skabakken" />
		<tag k="natural" v="slope" />
		<tag k="place" v="locality" />
		<tag k="ssr:stedsnr" v="95347" />
	</node>
	<node id="-576213" lat="62.6259361075" lon="6.60218334099">
		<tag k="name" v="Nausthaugen" />
		<tag k="natural" v="hill" />
		<tag k="place" v="locality" />
		<tag k="ssr:stedsnr" v="95300" />
	</node>
	<node id="-576209" lat="62.5736805583" lon="6.55175832338">
		<tag k="name" v="Karihella" />
		<tag k="natural" v="hill" />
		<tag k="place" v="locality" />
		<tag k="ssr:stedsnr" v="94947" />
	</node>
	<node id="-576205" lat="62.5390833328" lon="6.62868888312">
		<tag k="name" v="Kyrkjeledet" />
		<tag k="natural" v="slope" />
		<tag k="place" v="locality" />
		<tag k="ssr:stedsnr" v="94753" />
	</node>
	<node id="-576203" lat="62.5273888875" lon="6.5620416761">
		<tag k="name" v="Bergsenden" />
		<tag k="natural" v="hill" />
		<tag k="place" v="locality" />
		<tag k="ssr:stedsnr" v="94691" />
	</node>
	<node id="-576200" lat="62.5835249961" lon="6.63102221709">
		<tag k="name" v="Lihaugen" />
		<tag k="place" v="locality" />
		<tag k="ssr:stedsnr" v="94965" />
	</node>
	<node id="-576199" lat="62.5835277767" lon="6.62829722649">
		<tag k="name" v="Bakkemurane" />
		<tag k="natural" v="slope" />
		<tag k="place" v="locality" />
		<tag k="ssr:stedsnr" v="94964" />
	</node>
	<node id="-576198" lat="62.6167888926" lon="6.53196388338">
		<tag k="name" v="Koppelvbakken" />
		<tag k="natural" v="slope" />
		<tag k="place" v="locality" />
		<tag k="ssr:stedsnr" v="94888" />
	</node>
	<node id="-576194" lat="62.6117138847" lon="6.46881944682">
		<tag k="name" v="Orrehaugen" />
		<tag k="natural" v="hill" />
		<tag k="place" v="locality" />
		<tag k="ssr:stedsnr" v="94857" />
	</node>
	<node id="-576192" lat="62.6264388914" lon="6.67943611248">
		<tag k="name" v="Storhamaren" />
		<tag k="natural" v="cliff" />
		<tag k="ssr:stedsnr" v="94472" />
	</node>
	<node id="-576190" lat="62.560183331" lon="6.67989722592">
		<tag k="name" v="Kvilargadden" />
		<tag k="natural" v="hill" />
		<tag k="place" v="locality" />
		<tag k="ssr:stedsnr" v="94447" />
	</node>
	<node id="-576189" lat="62.5658083338" lon="6.70778610485">
		<tag k="name" v="Håveleitet" />
		<tag k="natural" v="slope" />
		<tag k="place" v="locality" />
		<tag k="ssr:stedsnr" v="94445" />
	</node>
	<node id="-576188" lat="62.5932805564" lon="6.33676943663">
		<tag k="name" v="Kvilet" />
		<tag k="natural" v="hill" />
		<tag k="place" v="locality" />
		<tag k="ssr:stedsnr" v="94444" />
	</node>
	<node id="-576186" lat="62.5864444417" lon="6.68620832879">
		<tag k="fixme" v="consider natural=peak for the most distinct mountains in the district" />
		<tag k="name" v="Grøttrefjellet" />
		<tag k="natural" v="hill" />
		<tag k="place" v="locality" />
		<tag k="ssr:stedsnr" v="94557" />
	</node>
	<node id="-576184" lat="62.6184194444" lon="6.63927499464">
		<tag k="name" v="Hellenakkløva" />
		<tag k="natural" v="valley" />
		<tag k="place" v="locality" />
		<tag k="ssr:stedsnr" v="94235" />
	</node>
	<node id="-576182" lat="62.7049583338" lon="6.40030834204">
		<tag k="name" v="Kråkefjellet" />
		<tag k="natural" v="hill" />
		<tag k="place" v="locality" />
		<tag k="ssr:stedsnr" v="93924" />
	</node>
	<node id="-576177" lat="62.5839361126" lon="6.28994166304">
		<tag k="name" v="Synstestølgjelet" />
		<tag k="natural" v="valley" />
		<tag k="place" v="locality" />
		<tag k="ssr:stedsnr" v="93855" />
	</node>
	<node id="-576176" lat="62.5769027807" lon="6.27749443609">
		<tag k="name" v="Storremma" />
		<tag k="natural" v="ridge" />
		<tag k="place" v="locality" />
		<tag k="ssr:stedsnr" v="93854" />
	</node>
	<node id="-575602" lat="62.6838499994" lon="6.25086667143">
		<tag k="name" v="Øvst-Haugen" />
		<tag k="natural" v="hill" />
		<tag k="place" v="locality" />
		<tag k="ssr:stedsnr" v="315877" />
	</node>
	<node id="-576164" lat="62.6777222206" lon="6.17400833475">
		<tag k="name" v="Lihaugen" />
		<tag k="natural" v="hill" />
		<tag k="place" v="locality" />
		<tag k="ssr:stedsnr" v="93464" />
	</node>
	<node id="-576162" lat="62.6833833351" lon="6.27331111189">
		<tag k="name" v="Fjellrøra" />
		<tag k="natural" v="valley" />
		<tag k="place" v="locality" />
		<tag k="ssr:stedsnr" v="93363" />
	</node>
	<node id="-576161" lat="62.6895638921" lon="6.27573054578">
		<tag k="name" v="Loshaugen" />
		<tag k="natural" v="hill" />
		<tag k="place" v="locality" />
		<tag k="ssr:stedsnr" v="93352" />
	</node>
	<node id="-576157" lat="62.6889611133" lon="6.23761111771">
		<tag k="name" v="Husfjellet" />
		<tag k="natural" v="hill" />
		<tag k="place" v="locality" />
		<tag k="ssr:stedsnr" v="93272" />
	</node>
	<node id="-576155" lat="62.5648111145" lon="6.29854166436">
		<tag k="name" v="Reinnausa" />
		<tag k="place" v="locality" />
		<tag k="ssr:stedsnr" v="93261" />
	</node>
	<node id="-576148" lat="62.624786115" lon="6.15605832587">
		<tag k="fixme" v="consider natural=peak for the most distinct mountains in the district" />
		<tag k="name" v="Rønstadheia" />
		<tag k="natural" v="hill" />
		<tag k="place" v="locality" />
		<tag k="ssr:stedsnr" v="81251" />
	</node>
	<node id="-575531" lat="62.5508444478" lon="6.53343888796">
		<tag k="name" v="Botnasletta" />
		<tag k="place" v="locality" />
		<tag k="ssr:stedsnr" v="277572" />
	</node>
	<node id="-576140" lat="62.6608888868" lon="6.22425000572">
		<tag k="name" v="Håvikgjølet" />
		<tag k="natural" v="valley" />
		<tag k="place" v="locality" />
		<tag k="ssr:stedsnr" v="72978" />
	</node>
	<node id="-576137" lat="62.7031388844" lon="6.33307221479">
		<tag k="name" v="Bardane" />
		<tag k="natural" v="ridge" />
		<tag k="place" v="locality" />
		<tag k="ssr:stedsnr" v="72921" />
	</node>
	<node id="-576122" lat="62.6194083353" lon="6.63498332507">
		<tag k="name" v="Geitstigskaret" />
		<tag k="natural" v="valley" />
		<tag k="place" v="locality" />
		<tag k="ssr:stedsnr" v="72430" />
	</node>
	<node id="-576119" lat="62.609758334" lon="6.70212221752">
		<tag k="name" v="Vassbotnen" />
		<tag k="natural" v="valley" />
		<tag k="place" v="locality" />
		<tag k="ssr:stedsnr" v="72396" />
	</node>
	<node id="-576118" lat="62.5975833366" lon="6.41546666949">
		<tag k="name" v="Vasskaret" />
		<tag k="natural" v="valley" />
		<tag k="place" v="locality" />
		<tag k="ssr:stedsnr" v="72382" />
	</node>
	<node id="-576116" lat="62.5862555544" lon="6.35107776973">
		<tag k="name" v="Hildredalen" />
		<tag k="natural" v="valley" />
		<tag k="place" v="locality" />
		<tag k="ssr:stedsnr" v="72344" />
	</node>
	<node id="-576115" lat="62.5855083345" lon="6.44698054952">
		<tag k="name" v="Vågshaugen" />
		<tag k="natural" v="hill" />
		<tag k="place" v="locality" />
		<tag k="ssr:stedsnr" v="72340" />
	</node>
	<node id="-576113" lat="62.5915222216" lon="6.67618332506">
		<tag k="name" v="Halsen" />
		<tag k="natural" v="ridge" />
		<tag k="place" v="locality" />
		<tag k="ssr:stedsnr" v="72333" />
	</node>
	<node id="-576111" lat="62.5784027748" lon="6.48764443816">
		<tag k="fixme" v="consider natural=peak for the most distinct mountains in the district" />
		<tag k="name" v="Borgetinden" />
		<tag k="natural" v="hill" />
		<tag k="place" v="locality" />
		<tag k="ssr:stedsnr" v="72314" />
	</node>
	<node id="-576110" lat="62.5771972213" lon="6.57811665886">
		<tag k="name" v="Botnen" />
		<tag k="natural" v="valley" />
		<tag k="place" v="locality" />
		<tag k="ssr:stedsnr" v="72311" />
	</node>
	<node id="-576102" lat="62.5674027773" lon="6.68164722172">
		<tag k="name" v="Storhaugen" />
		<tag k="natural" v="hill" />
		<tag k="place" v="locality" />
		<tag k="ssr:stedsnr" v="72265" />
	</node>
	<node id="-576099" lat="62.5410416697" lon="6.46718611799">
		<tag k="name" v="Djupeskaret" />
		<tag k="natural" v="valley" />
		<tag k="place" v="locality" />
		<tag k="ssr:stedsnr" v="72242" />
	</node>
	<node id="-576098" lat="62.5424138898" lon="6.45479444245">
		<tag k="name" v="Hallsæterhaugen" />
		<tag k="natural" v="hill" />
		<tag k="place" v="locality" />
		<tag k="ssr:stedsnr" v="72243" />
	</node>
	<node id="-576097" lat="62.5413750037" lon="6.4351638863">
		<tag k="name" v="Fjellenden" />
		<tag k="natural" v="hill" />
		<tag k="place" v="locality" />
		<tag k="ssr:stedsnr" v="72241" />
	</node>
	<node id="-576096" lat="62.5356138909" lon="6.30568055529">
		<tag k="name" v="Grovagjølet" />
		<tag k="natural" v="valley" />
		<tag k="place" v="locality" />
		<tag k="ssr:stedsnr" v="72236" />
	</node>
	<node id="-576095" lat="62.5534500024" lon="6.57434722215">
		<tag k="fixme" v="consider natural=peak for the most distinct mountains in the district" />
		<tag k="name" v="Kvilarnakken" />
		<tag k="natural" v="hill" />
		<tag k="place" v="locality" />
		<tag k="ssr:stedsnr" v="72223" />
	</node>
	<node id="-576090" lat="62.5467194478" lon="6.53503888259">
		<tag k="name" v="Reset" />
		<tag k="natural" v="ridge" />
		<tag k="place" v="locality" />
		<tag k="ssr:stedsnr" v="72196" />
	</node>
	<node id="-576072" lat="62.5677361074" lon="6.53013333056">
		<tag k="name" v="Tvergarden" />
		<tag k="natural" v="slope" />
		<tag k="place" v="locality" />
		<tag k="ssr:stedsnr" v="34986" />
	</node>
	<node id="-576071" lat="62.5704666662" lon="6.53139999152">
		<tag k="name" v="Lihaugen" />
		<tag k="natural" v="hill" />
		<tag k="place" v="locality" />
		<tag k="ssr:stedsnr" v="34985" />
	</node>
	<node id="-576070" lat="62.6054861087" lon="6.54724443805">
		<tag k="fixme" v="consider natural=peak for the most distinct mountains in the district" />
		<tag k="name" v="Åsane" />
		<tag k="natural" v="hill" />
		<tag k="place" v="locality" />
		<tag k="ssr:stedsnr" v="34976" />
	</node>
	<node id="-576069" lat="62.5750277762" lon="6.53569444565">
		<tag k="name" v="Øvste Benken" />
		<tag k="place" v="locality" />
		<tag k="ssr:stedsnr" v="34975" />
	</node>
	<node id="-576068" lat="62.5842722223" lon="6.47884999433">
		<tag k="name" v="Lægjet" />
		<tag k="natural" v="ridge" />
		<tag k="place" v="locality" />
		<tag k="ssr:stedsnr" v="34885" />
	</node>
	<node id="-576065" lat="62.5750138899" lon="6.74537500239">
		<tag k="name" v="Fagerlia" />
		<tag k="natural" v="slope" />
		<tag k="place" v="locality" />
		<tag k="ssr:stedsnr" v="34631" />
	</node>
	<node id="-576063" lat="62.5630694427" lon="6.52988333855">
		<tag k="name" v="Årsetberga" />
		<tag k="natural" v="hill" />
		<tag k="place" v="locality" />
		<tag k="ssr:stedsnr" v="34552" />
	</node>
	<node id="-576062" lat="62.5462138921" lon="6.53394999401">
		<tag k="name" v="Nakken" />
		<tag k="place" v="locality" />
		<tag k="ssr:stedsnr" v="34546" />
	</node>
	<node id="-576059" lat="62.5897472252" lon="6.43778332827">
		<tag k="name" v="Langedalen" />
		<tag k="natural" v="valley" />
		<tag k="place" v="locality" />
		<tag k="ssr:stedsnr" v="34456" />
	</node>
	<node id="-576056" lat="62.5406388857" lon="6.4253416586">
		<tag k="name" v="Gjersetdalen" />
		<tag k="natural" v="valley" />
		<tag k="place" v="locality" />
		<tag k="ssr:stedsnr" v="34403" />
	</node>
	<node id="-576054" lat="62.6301194488" lon="6.61110833639">
		<tag k="name" v="Torvhaugen" />
		<tag k="natural" v="hill" />
		<tag k="place" v="locality" />
		<tag k="ssr:stedsnr" v="34370" />
	</node>
	<node id="-576053" lat="62.5507611134" lon="6.43816110175">
		<tag k="name" v="Trollkyrkjeteigane" />
		<tag k="natural" v="slope" />
		<tag k="place" v="locality" />
		<tag k="ssr:stedsnr" v="34348" />
	</node>
	<node id="-576048" lat="62.5669833355" lon="6.62313611439">
		<tag k="name" v="Ulvestadkollen" />
		<tag k="natural" v="hill" />
		<tag k="place" v="locality" />
		<tag k="ssr:stedsnr" v="33984" />
	</node>
	<node id="-576047" lat="62.581236112" lon="6.62226110534">
		<tag k="name" v="Haugen" />
		<tag k="natural" v="hill" />
		<tag k="place" v="locality" />
		<tag k="ssr:stedsnr" v="33967" />
	</node>
	<node id="-576046" lat="62.5831277757" lon="6.5617611108">
		<tag k="name" v="Fanneriset" />
		<tag k="natural" v="slope" />
		<tag k="place" v="locality" />
		<tag k="ssr:stedsnr" v="33889" />
	</node>
	<node id="-575581" lat="62.5748500038" lon="6.30686111922">
		<tag k="fixme" v="consider natural=peak for the most distinct mountains in the district" />
		<tag k="name" v="Hurlaveten" />
		<tag k="natural" v="hill" />
		<tag k="place" v="locality" />
		<tag k="ssr:stedsnr" v="315309" />
	</node>
	<node id="-576043" lat="62.6134194412" lon="6.52320554997">
		<tag k="name" v="Sætrehaugane" />
		<tag k="natural" v="hill" />
		<tag k="place" v="locality" />
		<tag k="ssr:stedsnr" v="33854" />
	</node>
	<node id="-576038" lat="62.5423194453" lon="6.62972221597">
		<tag k="name" v="Klokksetkleiva" />
		<tag k="natural" v="valley" />
		<tag k="place" v="locality" />
		<tag k="ssr:stedsnr" v="33697" />
	</node>
	<node id="-576034" lat="62.6207694476" lon="6.66499721935">
		<tag k="name" v="Brendarryggen" />
		<tag k="natural" v="ridge" />
		<tag k="place" v="locality" />
		<tag k="ssr:stedsnr" v="33563" />
	</node>
	<node id="-576030" lat="62.589288887" lon="6.33992222746">
		<tag k="name" v="Leitehaugen" />
		<tag k="natural" v="hill" />
		<tag k="place" v="locality" />
		<tag k="ssr:stedsnr" v="33408" />
	</node>
	<node id="-576025" lat="62.586763892" lon="6.29843055902">
		<tag k="name" v="Våskogen" />
		<tag k="natural" v="slope" />
		<tag k="place" v="locality" />
		<tag k="ssr:stedsnr" v="32901" />
	</node>
	<node id="-576015" lat="62.6392666626" lon="6.24249721552">
		<tag k="name" v="Røhammaren" />
		<tag k="natural" v="cliff" />
		<tag k="ssr:stedsnr" v="32546" />
	</node>
	<node id="-576014" lat="62.671891666" lon="6.17369166869">
		<tag k="name" v="Liabruna" />
		<tag k="natural" v="slope" />
		<tag k="place" v="locality" />
		<tag k="ssr:stedsnr" v="32487" />
	</node>
	<node id="-576011" lat="62.6881055531" lon="6.28436944945">
		<tag k="name" v="Støhaugen" />
		<tag k="natural" v="hill" />
		<tag k="place" v="locality" />
		<tag k="ssr:stedsnr" v="32397" />
	</node>
	<node id="-576010" lat="62.6864861152" lon="6.27683610354">
		<tag k="name" v="Mannen" />
		<tag k="natural" v="hill" />
		<tag k="place" v="locality" />
		<tag k="ssr:stedsnr" v="32393" />
	</node>
	<node id="-576009" lat="62.6816361101" lon="6.18579999865">
		<tag k="name" v="Fiskeberga" />
		<tag k="natural" v="hill" />
		<tag k="place" v="locality" />
		<tag k="ssr:stedsnr" v="32307" />
	</node>
	<node id="-576000" lat="62.6197305546" lon="6.15162776865">
		<tag k="name" v="Rønstadhelleren" />
		<tag k="place" v="locality" />
		<tag k="ssr:stedsnr" v="20225" />
	</node>
	<node id="-575998" lat="62.6987083354" lon="6.39983611017">
		<tag k="name" v="Liahaugen" />
		<tag k="natural" v="hill" />
		<tag k="place" v="locality" />
		<tag k="ssr:stedsnr" v="12890" />
	</node>
	<node id="-575996" lat="62.6841500027" lon="6.24689165711">
		<tag k="name" v="Midt-Haugen" />
		<tag k="natural" v="hill" />
		<tag k="place" v="locality" />
		<tag k="ssr:stedsnr" v="12875" />
	</node>
	<node id="-575989" lat="62.6128833356" lon="6.48184444033">
		<tag k="fixme" v="consider natural=peak for the most distinct mountains in the district" />
		<tag k="name" v="Høgenosa" />
		<tag k="natural" v="hill" />
		<tag k="place" v="locality" />
		<tag k="ssr:stedsnr" v="12424" />
	</node>
	<node id="-575988" lat="62.5724888872" lon="6.32750000529">
		<tag k="name" v="Trollhola" />
		<tag k="natural" v="valley" />
		<tag k="place" v="locality" />
		<tag k="ssr:stedsnr" v="12339" />
	</node>
	<node id="-575987" lat="62.5814833317" lon="6.67133889342">
		<tag k="name" v="Brekka" />
		<tag k="natural" v="slope" />
		<tag k="place" v="locality" />
		<tag k="ssr:stedsnr" v="12323" />
	</node>
	<node id="-575986" lat="62.5656722232" lon="6.6361416577">
		<tag k="name" v="Lihaugen" />
		<tag k="natural" v="hill" />
		<tag k="place" v="locality" />
		<tag k="ssr:stedsnr" v="12269" />
	</node>
	<node id="-575571" lat="62.5499527737" lon="6.58136111627">
		<tag k="fixme" v="consider natural=peak for the most distinct mountains in the district" />
		<tag k="name" v="Nakkan" />
		<tag k="natural" v="hill" />
		<tag k="place" v="locality" />
		<tag k="ssr:stedsnr" v="315206" />
	</node>
	<node id="-575656" lat="62.6273083336" lon="6.59745277133">
		<tag k="name" v="Skjåhaugen" />
		<tag k="natural" v="hill" />
		<tag k="place" v="locality" />
		<tag k="ssr:stedsnr" v="337406" />
	</node>
	<node id="-575975" lat="62.6115194459" lon="6.17727499954">
		<tag k="name" v="Glettehaugen" />
		<tag k="natural" v="hill" />
		<tag k="place" v="locality" />
		<tag k="ssr:stedsnr" v="11817" />
	</node>
	<node id="-575973" lat="62.6772055561" lon="6.17508055153">
		<tag k="name" v="Nova" />
		<tag k="natural" v="hill" />
		<tag k="place" v="locality" />
		<tag k="ssr:stedsnr" v="11742" />
	</node>
	<node id="-575968" lat="62.6145527735" lon="6.64003055707">
		<tag k="fixme" v="consider natural=peak for the most distinct mountains in the district" />
		<tag k="name" v="Hellenakken" />
		<tag k="natural" v="hill" />
		<tag k="place" v="locality" />
		<tag k="ssr:stedsnr" v="11448" />
	</node>
	<node id="-575519" lat="62.626916667" lon="6.6017527686">
		<tag k="name" v="Bekkevollen" />
		<tag k="natural" v="hill" />
		<tag k="place" v="locality" />
		<tag k="ssr:stedsnr" v="277319" />
	</node>
	<node id="-575963" lat="62.6073027817" lon="6.48654722877">
		<tag k="fixme" v="consider natural=peak for the most distinct mountains in the district" />
		<tag k="name" v="Heia" />
		<tag k="natural" v="hill" />
		<tag k="place" v="locality" />
		<tag k="ssr:stedsnr" v="11407" />
	</node>
	<node id="-575962" lat="62.5994861077" lon="6.36439999309">
		<tag k="fixme" v="consider natural=peak for the most distinct mountains in the district" />
		<tag k="name" v="Rambjøra" />
		<tag k="natural" v="hill" />
		<tag k="place" v="locality" />
		<tag k="ssr:stedsnr" v="11398" />
	</node>
	<node id="-575959" lat="62.5924861136" lon="6.69054167501">
		<tag k="fixme" v="consider natural=peak for the most distinct mountains in the district" />
		<tag k="name" v="Kammen" />
		<tag k="natural" v="hill" />
		<tag k="place" v="locality" />
		<tag k="ssr:stedsnr" v="11335" />
	</node>
	<node id="-575957" lat="62.5687638864" lon="6.30569721887">
		<tag k="name" v="Olausdalen" />
		<tag k="natural" v="valley" />
		<tag k="place" v="locality" />
		<tag k="ssr:stedsnr" v="11301" />
	</node>
	<node id="-575955" lat="62.5622194475" lon="6.50716944375">
		<tag k="name" v="Remeheia" />
		<tag k="natural" v="hill" />
		<tag k="place" v="locality" />
		<tag k="ssr:stedsnr" v="11270" />
	</node>
	<node id="-575953" lat="62.5469222249" lon="6.47401945171">
		<tag k="name" v="Sætrehola" />
		<tag k="natural" v="valley" />
		<tag k="place" v="locality" />
		<tag k="ssr:stedsnr" v="11239" />
	</node>
	<node id="-575723" lat="62.5773722266" lon="6.29369166099">
		<tag k="name" v="Kvarven" />
		<tag k="natural" v="hill" />
		<tag k="place" v="locality" />
		<tag k="ssr:stedsnr" v="375306" />
	</node>
	<node id="-575933" lat="62.5692722184" lon="6.53741111324">
		<tag k="name" v="Smørøskja" />
		<tag k="natural" v="hill" />
		<tag k="place" v="locality" />
		<tag k="ssr:stedsnr" v="884994" />
	</node>
	<node id="-575929" lat="62.5737750038" lon="6.7773472201">
		<tag k="name" v="Godmorhola" />
		<tag k="place" v="locality" />
		<tag k="ssr:stedsnr" v="884695" />
	</node>
	<node id="-575928" lat="62.5527999992" lon="6.52346110716">
		<tag k="name" v="Steinvegteigane" />
		<tag k="natural" v="slope" />
		<tag k="place" v="locality" />
		<tag k="ssr:stedsnr" v="884532" />
	</node>
	<node id="-575927" lat="62.553358335" lon="6.50127223061">
		<tag k="name" v="Rimeriset" />
		<tag k="natural" v="valley" />
		<tag k="place" v="locality" />
		<tag k="ssr:stedsnr" v="884518" />
	</node>
	<node id="-575926" lat="62.5617583294" lon="6.51399722151">
		<tag k="name" v="Storklubben" />
		<tag k="natural" v="cliff" />
		<tag k="ssr:stedsnr" v="884511" />
	</node>
	<node id="-575561" lat="62.60203611" lon="6.40708888958">
		<tag k="name" v="Nørdre Botnen" />
		<tag k="natural" v="valley" />
		<tag k="place" v="locality" />
		<tag k="ssr:stedsnr" v="314481" />
	</node>
	<node id="-575654" lat="62.6137722261" lon="6.60125833168">
		<tag k="name" v="Geitahamaren" />
		<tag k="natural" v="hill" />
		<tag k="place" v="locality" />
		<tag k="ssr:stedsnr" v="337397" />
	</node>
	<node id="-575921" lat="62.6268138919" lon="6.6073444489">
		<tag k="name" v="Rusta" />
		<tag k="natural" v="slope" />
		<tag k="place" v="locality" />
		<tag k="ssr:stedsnr" v="884348" />
	</node>
	<node id="-575919" lat="62.6222500012" lon="6.59720554926">
		<tag k="name" v="Kuberget" />
		<tag k="natural" v="hill" />
		<tag k="place" v="locality" />
		<tag k="ssr:stedsnr" v="884339" />
	</node>
	<node id="-575915" lat="62.5397666664" lon="6.50598333553">
		<tag k="name" v="Utehaugen" />
		<tag k="natural" v="hill" />
		<tag k="place" v="locality" />
		<tag k="ssr:stedsnr" v="884007" />
	</node>
	<node id="-575909" lat="62.5853666681" lon="6.31801388318">
		<tag k="name" v="Hornvasslia" />
		<tag k="natural" v="slope" />
		<tag k="place" v="locality" />
		<tag k="ssr:stedsnr" v="883983" />
	</node>
	<node id="-575902" lat="62.578697224" lon="6.60654999783">
		<tag k="name" v="Nausthamaren" />
		<tag k="natural" v="cliff" />
		<tag k="ssr:stedsnr" v="883871" />
	</node>
	<node id="-575901" lat="62.5731027814" lon="6.59370555744">
		<tag k="name" v="Tåna" />
		<tag k="natural" v="slope" />
		<tag k="place" v="locality" />
		<tag k="ssr:stedsnr" v="883867" />
	</node>
	<node id="-575900" lat="62.6107222185" lon="6.54037777047">
		<tag k="name" v="Skaret" />
		<tag k="natural" v="valley" />
		<tag k="place" v="locality" />
		<tag k="ssr:stedsnr" v="883823" />
	</node>
	<node id="-575897" lat="62.5556555525" lon="6.56168610417">
		<tag k="name" v="Tåferhaugen" />
		<tag k="natural" v="hill" />
		<tag k="place" v="locality" />
		<tag k="ssr:stedsnr" v="883629" />
	</node>
	<node id="-575896" lat="62.5557083346" lon="6.55670833864">
		<tag k="name" v="Ramsegrø" />
		<tag k="natural" v="slope" />
		<tag k="place" v="locality" />
		<tag k="ssr:stedsnr" v="883630" />
	</node>
	<node id="-575895" lat="62.5513222237" lon="6.56365277945">
		<tag k="name" v="Løkhaugen" />
		<tag k="natural" v="hill" />
		<tag k="place" v="locality" />
		<tag k="ssr:stedsnr" v="883616" />
	</node>
	<node id="-575889" lat="62.5966555513" lon="6.32663888729">
		<tag k="name" v="Ormehaugane" />
		<tag k="natural" v="hill" />
		<tag k="place" v="locality" />
		<tag k="ssr:stedsnr" v="883334" />
	</node>
	<node id="-575888" lat="62.5926055562" lon="6.30412221663">
		<tag k="name" v="Bruna" />
		<tag k="natural" v="slope" />
		<tag k="place" v="locality" />
		<tag k="ssr:stedsnr" v="883322" />
	</node>
	<node id="-575887" lat="62.6343833354" lon="6.680558329">
		<tag k="name" v="Haggardsberget" />
		<tag k="natural" v="hill" />
		<tag k="place" v="locality" />
		<tag k="ssr:stedsnr" v="883312" />
	</node>
	<node id="-575886" lat="62.5684416709" lon="6.36745833147">
		<tag k="name" v="Grytakoppen" />
		<tag k="natural" v="valley" />
		<tag k="place" v="locality" />
		<tag k="ssr:stedsnr" v="883250" />
	</node>
	<node id="-575885" lat="62.6212194444" lon="6.63909444354">
		<tag k="name" v="Langsetnakken" />
		<tag k="natural" v="ridge" />
		<tag k="place" v="locality" />
		<tag k="ssr:stedsnr" v="883241" />
	</node>
	<node id="-575884" lat="62.6139055521" lon="6.64391944139">
		<tag k="name" v="Ripa" />
		<tag k="natural" v="valley" />
		<tag k="place" v="locality" />
		<tag k="ssr:stedsnr" v="883033" />
	</node>
	<node id="-575882" lat="62.6351277767" lon="6.15448332845">
		<tag k="name" v="Sæthellaren" />
		<tag k="place" v="locality" />
		<tag k="ssr:stedsnr" v="882926" />
	</node>
	<node id="-575879" lat="62.6067444441" lon="6.42326110523">
		<tag k="name" v="Djupedalen" />
		<tag k="natural" v="valley" />
		<tag k="place" v="locality" />
		<tag k="ssr:stedsnr" v="882921" />
	</node>
	<node id="-575878" lat="62.6056083317" lon="6.40455278372">
		<tag k="name" v="Sotånakken" />
		<tag k="place" v="locality" />
		<tag k="ssr:stedsnr" v="882917" />
	</node>
	<node id="-575877" lat="62.6195194484" lon="6.15073055786">
		<tag k="name" v="Hellargjølet" />
		<tag k="natural" v="valley" />
		<tag k="place" v="locality" />
		<tag k="ssr:stedsnr" v="882890" />
	</node>
	<node id="-575876" lat="62.5850166658" lon="6.29244166277">
		<tag k="name" v="Midtistølgjelet" />
		<tag k="natural" v="valley" />
		<tag k="place" v="locality" />
		<tag k="ssr:stedsnr" v="882874" />
	</node>
	<node id="-575875" lat="62.6721388887" lon="6.33029444242">
		<tag k="name" v="Kannarhaugane" />
		<tag k="natural" v="hill" />
		<tag k="place" v="locality" />
		<tag k="ssr:stedsnr" v="882872" />
	</node>
	<node id="-575873" lat="62.5779638869" lon="6.28746388547">
		<tag k="name" v="Storsvorkjeften" />
		<tag k="natural" v="cliff" />
		<tag k="ssr:stedsnr" v="882859" />
	</node>
	<node id="-575872" lat="62.6702777807" lon="6.30443888794">
		<tag k="name" v="Skulesida" />
		<tag k="natural" v="slope" />
		<tag k="place" v="locality" />
		<tag k="ssr:stedsnr" v="882856" />
	</node>
	<node id="-575871" lat="62.5712333357" lon="6.28344444804">
		<tag k="name" v="Nakken" />
		<tag k="place" v="locality" />
		<tag k="ssr:stedsnr" v="882854" />
	</node>
	<node id="-577918" lat="62.5685722218" lon="6.52897777209">
		<tag k="name" v="Trolldalskjæften" />
		<tag k="natural" v="valley" />
		<tag k="place" v="locality" />
		<tag k="ssr:stedsnr" v="944983" />
	</node>
	<node id="-577917" lat="62.5948277749" lon="6.51508888752">
		<tag k="name" v="Evelsbreden" />
		<tag k="natural" v="ridge" />
		<tag k="place" v="locality" />
		<tag k="ssr:stedsnr" v="944980" />
	</node>
	<node id="-577916" lat="62.6108611066" lon="6.48943332483">
		<tag k="name" v="Ramnfloget" />
		<tag k="natural" v="cliff" />
		<tag k="ssr:stedsnr" v="944976" />
	</node>
	<node id="-577913" lat="62.5828888847" lon="6.6396472133">
		<tag k="name" v="Åmundteigen" />
		<tag k="natural" v="slope" />
		<tag k="place" v="locality" />
		<tag k="ssr:stedsnr" v="944951" />
	</node>
	<node id="-577911" lat="62.5810222196" lon="6.56805000251">
		<tag k="name" v="Botnaskaret" />
		<tag k="natural" v="valley" />
		<tag k="place" v="locality" />
		<tag k="ssr:stedsnr" v="944897" />
	</node>
	<node id="-577766" lat="62.5662916635" lon="6.57751943612">
		<tag k="fixme" v="consider natural=peak for the most distinct mountains in the district" />
		<tag k="name" v="Grøtshornet" />
		<tag k="natural" v="hill" />
		<tag k="place" v="locality" />
		<tag k="ssr:stedsnr" v="921310" />
	</node>
	<node id="-575860" lat="62.6837944406" lon="6.28296666982">
		<tag k="name" v="Størøra" />
		<tag k="natural" v="valley" />
		<tag k="place" v="locality" />
		<tag k="ssr:stedsnr" v="882388" />
	</node>
	<node id="-577907" lat="62.5904944424" lon="6.63820000115">
		<tag k="name" v="Djupedalen" />
		<tag k="natural" v="valley" />
		<tag k="place" v="locality" />
		<tag k="ssr:stedsnr" v="944866" />
	</node>
	<node id="-577906" lat="62.6034250021" lon="6.63954444659">
		<tag k="name" v="Løypehamaren" />
		<tag k="natural" v="cliff" />
		<tag k="ssr:stedsnr" v="944854" />
	</node>
	<node id="-577905" lat="62.601697218" lon="6.64726111076">
		<tag k="name" v="Rabbane" />
		<tag k="natural" v="ridge" />
		<tag k="place" v="locality" />
		<tag k="ssr:stedsnr" v="944853" />
	</node>
	<node id="-577901" lat="62.5686777741" lon="6.78251388231">
		<tag k="name" v="Skåla" />
		<tag k="natural" v="valley" />
		<tag k="place" v="locality" />
		<tag k="ssr:stedsnr" v="944730" />
	</node>
	<node id="-575720" lat="62.5741916709" lon="6.65152500397">
		<tag k="fixme" v="consider natural=peak for the most distinct mountains in the district" />
		<tag k="name" v="Grødet" />
		<tag k="natural" v="hill" />
		<tag k="place" v="locality" />
		<tag k="ssr:stedsnr" v="375251" />
	</node>
	<node id="-577894" lat="62.5530138867" lon="6.52050833185">
		<tag k="name" v="Jogjerdet" />
		<tag k="natural" v="slope" />
		<tag k="place" v="locality" />
		<tag k="ssr:stedsnr" v="944623" />
	</node>
	<node id="-577893" lat="62.5566388895" lon="6.51057500361">
		<tag k="name" v="Heia" />
		<tag k="natural" v="hill" />
		<tag k="place" v="locality" />
		<tag k="ssr:stedsnr" v="944613" />
	</node>
	<node id="-577888" lat="62.5908277757" lon="6.69323055136">
		<tag k="name" v="Koldalen" />
		<tag k="natural" v="valley" />
		<tag k="place" v="locality" />
		<tag k="ssr:stedsnr" v="944524" />
	</node>
	<node id="-577887" lat="62.5685027748" lon="6.71081944586">
		<tag k="name" v="Kohjellen" />
		<tag k="place" v="locality" />
		<tag k="ssr:stedsnr" v="944518" />
	</node>
	<node id="-575838" lat="62.5794944483" lon="6.43325555742">
		<tag k="name" v="Lemmane" />
		<tag k="natural" v="slope" />
		<tag k="place" v="locality" />
		<tag k="ssr:stedsnr" v="398872" />
	</node>
	<node id="-575836" lat="62.53708333" lon="6.38333333734">
		<tag k="name" v="Grytahatlen" />
		<tag k="place" v="locality" />
		<tag k="ssr:stedsnr" v="398747" />
	</node>
	<node id="-577881" lat="62.5606805569" lon="6.46828888738">
		<tag k="name" v="Timberdalen" />
		<tag k="natural" v="valley" />
		<tag k="place" v="locality" />
		<tag k="ssr:stedsnr" v="944445" />
	</node>
	<node id="-575830" lat="62.5934055596" lon="6.3500249948">
		<tag k="name" v="Akselhe" />
		<tag k="natural" v="slope" />
		<tag k="place" v="locality" />
		<tag k="ssr:stedsnr" v="398602" />
	</node>
	<node id="-577877" lat="62.6045944422" lon="6.64141666568">
		<tag k="name" v="Ospene" />
		<tag k="natural" v="slope" />
		<tag k="place" v="locality" />
		<tag k="ssr:stedsnr" v="944837" />
	</node>
	<node id="-577876" lat="62.6076833333" lon="6.64270556337">
		<tag k="name" v="Ukselia" />
		<tag k="natural" v="slope" />
		<tag k="place" v="locality" />
		<tag k="ssr:stedsnr" v="944835" />
	</node>
	<node id="-577873" lat="62.6156444472" lon="6.46569999034">
		<tag k="name" v="Langeberget" />
		<tag k="natural" v="hill" />
		<tag k="place" v="locality" />
		<tag k="ssr:stedsnr" v="944814" />
	</node>
	<node id="-575823" lat="62.5583805544" lon="6.43751943959">
		<tag k="name" v="Storliteigane" />
		<tag k="natural" v="slope" />
		<tag k="place" v="locality" />
		<tag k="ssr:stedsnr" v="398344" />
	</node>
	<node id="-577869" lat="62.6306249965" lon="6.71587221394">
		<tag k="name" v="Egga" />
		<tag k="place" v="locality" />
		<tag k="ssr:stedsnr" v="944092" />
	</node>
	<node id="-577865" lat="62.7043555588" lon="6.39338333549">
		<tag k="name" v="Såta" />
		<tag k="natural" v="hill" />
		<tag k="place" v="locality" />
		<tag k="ssr:stedsnr" v="943943" />
	</node>
	<node id="-575816" lat="62.5857388887" lon="6.62452500153">
		<tag k="name" v="Steinbrotet" />
		<tag k="natural" v="hill" />
		<tag k="place" v="locality" />
		<tag k="ssr:stedsnr" v="397982" />
	</node>
	<node id="-577861" lat="62.5451027806" lon="6.49514444868">
		<tag k="fixme" v="consider natural=peak for the most distinct mountains in the district" />
		<tag k="name" v="Øydegardsheia" />
		<tag k="natural" v="hill" />
		<tag k="place" v="locality" />
		<tag k="ssr:stedsnr" v="944011" />
	</node>
	<node id="-577859" lat="62.5358277752" lon="6.2842611209">
		<tag k="fixme" v="consider natural=peak for the most distinct mountains in the district" />
		<tag k="name" v="Høgefjellet" />
		<tag k="natural" v="hill" />
		<tag k="place" v="locality" />
		<tag k="ssr:stedsnr" v="943651" />
	</node>
	<node id="-575806" lat="62.5938944435" lon="6.6612555484">
		<tag k="name" v="Styggelia" />
		<tag k="natural" v="slope" />
		<tag k="place" v="locality" />
		<tag k="ssr:stedsnr" v="397884" />
	</node>
	<node id="-575805" lat="62.599533334" lon="6.66688054679">
		<tag k="name" v="Døsahaugane" />
		<tag k="natural" v="hill" />
		<tag k="place" v="locality" />
		<tag k="ssr:stedsnr" v="397854" />
	</node>
	<node id="-577852" lat="62.6246583304" lon="6.15548332837">
		<tag k="name" v="Kannerhaugen" />
		<tag k="natural" v="hill" />
		<tag k="place" v="locality" />
		<tag k="ssr:stedsnr" v="942921" />
	</node>
	<node id="-575802" lat="62.5690111116" lon="6.59347778649">
		<tag k="name" v="Kyrkjeveggen" />
		<tag k="natural" v="cliff" />
		<tag k="ssr:stedsnr" v="397838" />
	</node>
	<node id="-577849" lat="62.612666665" lon="6.17203610261">
		<tag k="name" v="Måsehamrane" />
		<tag k="natural" v="cliff" />
		<tag k="ssr:stedsnr" v="942912" />
	</node>
	<node id="-575798" lat="62.5422388876" lon="6.62272500007">
		<tag k="name" v="Breiskaret" />
		<tag k="natural" v="valley" />
		<tag k="place" v="locality" />
		<tag k="ssr:stedsnr" v="397663" />
	</node>
	<node id="-577845" lat="62.5758388918" lon="6.28046389449">
		<tag k="name" v="Røvaslettå" />
		<tag k="place" v="locality" />
		<tag k="ssr:stedsnr" v="942888" />
	</node>
	<node id="-577844" lat="62.6285194454" lon="6.13259722613">
		<tag k="name" v="Veggen" />
		<tag k="natural" v="cliff" />
		<tag k="ssr:stedsnr" v="942887" />
	</node>
	<node id="-577843" lat="62.6267055563" lon="6.1851861017">
		<tag k="name" v="Svanselihaugen" />
		<tag k="natural" v="hill" />
		<tag k="place" v="locality" />
		<tag k="ssr:stedsnr" v="942691" />
	</node>
	<node id="-575794" lat="62.5707083318" lon="6.71353332592">
		<tag k="name" v="Tornakken" />
		<tag k="natural" v="ridge" />
		<tag k="place" v="locality" />
		<tag k="ssr:stedsnr" v="397538" />
	</node>
	<node id="-575792" lat="62.6233361135" lon="6.67529999078">
		<tag k="name" v="Kvilet" />
		<tag k="natural" v="hill" />
		<tag k="place" v="locality" />
		<tag k="ssr:stedsnr" v="397412" />
	</node>
	<node id="-575789" lat="62.5985666692" lon="6.38500278281">
		<tag k="name" v="Alvestadbotnen" />
		<tag k="natural" v="valley" />
		<tag k="place" v="locality" />
		<tag k="ssr:stedsnr" v="397280" />
	</node>
	<node id="-575787" lat="62.5814722188" lon="6.37460000174">
		<tag k="name" v="Grønbakken" />
		<tag k="natural" v="slope" />
		<tag k="place" v="locality" />
		<tag k="ssr:stedsnr" v="397232" />
	</node>
	<node id="-577833" lat="62.6699944425" lon="6.27538055856">
		<tag k="name" v="Longvadalen" />
		<tag k="natural" v="valley" />
		<tag k="place" v="locality" />
		<tag k="ssr:stedsnr" v="922999" />
	</node>
	<node id="-575784" lat="62.6235027816" lon="6.67409443695">
		<tag k="name" v="Litlesæterdalen" />
		<tag k="natural" v="valley" />
		<tag k="place" v="locality" />
		<tag k="ssr:stedsnr" v="397027" />
	</node>
	<node id="-577831" lat="62.6699861121" lon="6.3159944369">
		<tag k="name" v="Storgjølet" />
		<tag k="natural" v="valley" />
		<tag k="place" v="locality" />
		<tag k="ssr:stedsnr" v="922979" />
	</node>
	<node id="-575782" lat="62.7051749961" lon="6.38487500449">
		<tag k="name" v="Burberget" />
		<tag k="natural" v="hill" />
		<tag k="place" v="locality" />
		<tag k="ssr:stedsnr" v="396943" />
	</node>
	<node id="-577829" lat="62.6543444456" lon="6.23532778267">
		<tag k="name" v="Kannarhaugen" />
		<tag k="natural" v="hill" />
		<tag k="place" v="locality" />
		<tag k="ssr:stedsnr" v="922955" />
	</node>
	<node id="-575780" lat="62.7114472238" lon="6.39274165678">
		<tag k="name" v="Helvikhaugen" />
		<tag k="natural" v="hill" />
		<tag k="place" v="locality" />
		<tag k="ssr:stedsnr" v="396936" />
	</node>
	<node id="-577826" lat="62.7045333318" lon="6.39586110546">
		<tag k="fixme" v="consider natural=peak for the most distinct mountains in the district" />
		<tag k="name" v="Øvre Mangsfjellet" />
		<tag k="natural" v="hill" />
		<tag k="place" v="locality" />
		<tag k="ssr:stedsnr" v="922925" />
	</node>
	<node id="-575776" lat="62.6283111088" lon="6.17451388123">
		<tag k="name" v="Dyringane" />
		<tag k="natural" v="slope" />
		<tag k="place" v="locality" />
		<tag k="ssr:stedsnr" v="396906" />
	</node>
	<node id="-577821" lat="62.6829472222" lon="6.27823334069">
		<tag k="name" v="Bergedalen" />
		<tag k="natural" v="valley" />
		<tag k="place" v="locality" />
		<tag k="ssr:stedsnr" v="922867" />
	</node>
	<node id="-575771" lat="62.6662277759" lon="6.31098054872">
		<tag k="name" v="Hallingen" />
		<tag k="natural" v="slope" />
		<tag k="place" v="locality" />
		<tag k="ssr:stedsnr" v="396875" />
	</node>
	<node id="-575765" lat="62.6876972217" lon="6.24507778486">
		<tag k="name" v="Blåbærhaugen" />
		<tag k="natural" v="hill" />
		<tag k="place" v="locality" />
		<tag k="ssr:stedsnr" v="396593" />
	</node>
	<node id="-575764" lat="62.5962666634" lon="6.21610555912">
		<tag k="name" v="Jonsokberget" />
		<tag k="natural" v="hill" />
		<tag k="place" v="locality" />
		<tag k="ssr:stedsnr" v="396564" />
	</node>
	<node id="-577811" lat="62.6745722214" lon="6.19283888461">
		<tag k="fixme" v="consider natural=peak for the most distinct mountains in the district" />
		<tag k="name" v="Ullahornet" />
		<tag k="natural" v="hill" />
		<tag k="place" v="locality" />
		<tag k="ssr:stedsnr" v="922675" />
	</node>
	<node id="-577810" lat="62.6460333376" lon="6.24199722093">
		<tag k="name" v="Åkreskaret" />
		<tag k="natural" v="valley" />
		<tag k="place" v="locality" />
		<tag k="ssr:stedsnr" v="922444" />
	</node>
	<node id="-577923" lat="62.5866194463" lon="6.53346666936">
		<tag k="fixme" v="consider natural=peak for the most distinct mountains in the district" />
		<tag k="name" v="Fonnehesten" />
		<tag k="natural" v="hill" />
		<tag k="ssr:stedsnr" v="960978" />
	</node>
	<node id="-575760" lat="62.6071722259" lon="6.2486055465">
		<tag k="alt_name" v="Tuva" />
		<tag k="name" v="Klimpen" />
		<tag k="natural" v="hill" />
		<tag k="place" v="locality" />
		<tag k="ssr:stedsnr" v="396392" />
	</node>
	<node id="-577803" lat="62.5969972228" lon="6.67815000806">
		<tag k="name" v="Gåsdalen" />
		<tag k="natural" v="valley" />
		<tag k="place" v="locality" />
		<tag k="ssr:stedsnr" v="922361" />
	</node>
	<node id="-577798" lat="62.5747333305" lon="6.31662777226">
		<tag k="fixme" v="consider natural=peak for the most distinct mountains in the district" />
		<tag k="name" v="Gamlemsveten" />
		<tag k="natural" v="hill" />
		<tag k="place" v="locality" />
		<tag k="ssr:stedsnr" v="922317" />
	</node>
	<node id="-577797" lat="62.5806972189" lon="6.44768333938">
		<tag k="fixme" v="consider natural=peak for the most distinct mountains in the district" />
		<tag k="name" v="Aksla" />
		<tag k="natural" v="hill" />
		<tag k="place" v="locality" />
		<tag k="ssr:stedsnr" v="922306" />
	</node>
	<node id="-577796" lat="62.5812750033" lon="6.5461777744">
		<tag k="name" v="Stigen" />
		<tag k="natural" v="slope" />
		<tag k="place" v="locality" />
		<tag k="ssr:stedsnr" v="922302" />
	</node>
	<node id="-577795" lat="62.5810277781" lon="6.68286387946">
		<tag k="fixme" v="consider natural=peak for the most distinct mountains in the district" />
		<tag k="name" v="Otrefjellet" />
		<tag k="natural" v="hill" />
		<tag k="place" v="locality" />
		<tag k="ssr:stedsnr" v="922298" />
	</node>
	<node id="-577794" lat="62.5790444418" lon="6.68621111416">
		<tag k="name" v="Vasslia" />
		<tag k="natural" v="slope" />
		<tag k="place" v="locality" />
		<tag k="ssr:stedsnr" v="922265" />
	</node>
	<node id="-577793" lat="62.5568555594" lon="6.31407500515">
		<tag k="name" v="Søvikvarden" />
		<tag k="natural" v="hill" />
		<tag k="place" v="locality" />
		<tag k="ssr:stedsnr" v="922258" />
	</node>
	<node id="-577792" lat="62.5638638904" lon="6.50372221629">
		<tag k="name" v="Stølehola" />
		<tag k="natural" v="valley" />
		<tag k="place" v="locality" />
		<tag k="ssr:stedsnr" v="922256" />
	</node>
	<node id="-575743" lat="62.660524997" lon="6.31441110322">
		<tag k="name" v="Midtrimma" />
		<tag k="natural" v="ridge" />
		<tag k="place" v="locality" />
		<tag k="ssr:stedsnr" v="375944" />
	</node>
	<node id="-577789" lat="62.5531138884" lon="6.50067500093">
		<tag k="fixme" v="consider natural=peak for the most distinct mountains in the district" />
		<tag k="name" v="Remefjellet" />
		<tag k="natural" v="hill" />
		<tag k="place" v="locality" />
		<tag k="ssr:stedsnr" v="922239" />
	</node>
	<node id="-575740" lat="62.5606361112" lon="6.69437776819">
		<tag k="name" v="Vatnedalen" />
		<tag k="natural" v="valley" />
		<tag k="place" v="locality" />
		<tag k="ssr:stedsnr" v="375868" />
	</node>
	<node id="-575739" lat="62.6845055583" lon="6.24443610307">
		<tag k="name" v="Nest-Haugen" />
		<tag k="natural" v="hill" />
		<tag k="place" v="locality" />
		<tag k="ssr:stedsnr" v="375865" />
	</node>
	<node id="-577785" lat="62.5379499971" lon="6.43553610535">
		<tag k="name" v="Brautene" />
		<tag k="natural" v="slope" />
		<tag k="place" v="locality" />
		<tag k="ssr:stedsnr" v="922198" />
	</node>
	<node id="-575734" lat="62.6134444414" lon="6.54780833096">
		<tag k="fixme" v="consider natural=peak for the most distinct mountains in the district" />
		<tag k="name" v="Skoraegga" />
		<tag k="natural" v="hill" />
		<tag k="place" v="locality" />
		<tag k="ssr:stedsnr" v="375398" />
	</node>
	<node id="-577778" lat="62.6145277809" lon="6.14756388401">
		<tag k="name" v="Nosa" />
		<tag k="natural" v="hill" />
		<tag k="place" v="locality" />
		<tag k="ssr:stedsnr" v="921724" />
	</node>
	<node id="-575729" lat="62.5990305531" lon="6.52886945331">
		<tag k="fixme" v="consider natural=peak for the most distinct mountains in the district" />
		<tag k="name" v="Blåfjellet" />
		<tag k="natural" v="hill" />
		<tag k="place" v="locality" />
		<tag k="ssr:stedsnr" v="375346" />
	</node>
	<node id="-575728" lat="62.5971277802" lon="6.54936944375">
		<tag k="fixme" v="consider natural=peak for the most distinct mountains in the district" />
		<tag k="name" v="Klungertua" />
		<tag k="natural" v="hill" />
		<tag k="place" v="locality" />
		<tag k="ssr:stedsnr" v="375344" />
	</node>
	<node id="-575727" lat="62.5884083353" lon="6.39204999966">
		<tag k="name" v="Hestehaugen" />
		<tag k="natural" v="hill" />
		<tag k="place" v="locality" />
		<tag k="ssr:stedsnr" v="375331" />
	</node>
	<node id="-577774" lat="62.6108972186" lon="6.53517222378">
		<tag k="fixme" v="consider natural=peak for the most distinct mountains in the district" />
		<tag k="name" v="Skoranakken" />
		<tag k="natural" v="hill" />
		<tag k="place" v="locality" />
		<tag k="ssr:stedsnr" v="921449" />
	</node>
	<node id="-575725" lat="62.5798166701" lon="6.40865555957">
		<tag k="fixme" v="consider natural=peak for the most distinct mountains in the district" />
		<tag k="name" v="Fremste Synnalandsheia" />
		<tag k="natural" v="hill" />
		<tag k="place" v="locality" />
		<tag k="ssr:stedsnr" v="375326" />
	</node>
	<node id="-577771" lat="62.5950111113" lon="6.39302776816">
		<tag k="name" v="Kvitberga" />
		<tag k="natural" v="hill" />
		<tag k="place" v="locality" />
		<tag k="ssr:stedsnr" v="921434" />
	</node>
	<node id="-575527" lat="62.5459194423" lon="6.49583611188">
		<tag k="name" v="Bjønnadalsheia" />
		<tag k="natural" v="hill" />
		<tag k="place" v="locality" />
		<tag k="ssr:stedsnr" v="277523" />
	</node>
	<node id="-577768" lat="62.5653444474" lon="6.30676667607">
		<tag k="fixme" v="consider natural=peak for the most distinct mountains in the district" />
		<tag k="name" v="Reinhausen" />
		<tag k="natural" v="hill" />
		<tag k="place" v="locality" />
		<tag k="ssr:stedsnr" v="921326" />
	</node>
	<node id="-575718" lat="62.5546250004" lon="6.23196111176">
		<tag k="fixme" v="consider natural=peak for the most distinct mountains in the district" />
		<tag k="name" v="Bjørnøyfjellet" />
		<tag k="natural" v="hill" />
		<tag k="place" v="locality" />
		<tag k="ssr:stedsnr" v="375246" />
	</node>
	<node id="-577765" lat="62.574144445" lon="6.50817500417">
		<tag k="fixme" v="consider natural=peak for the most distinct mountains in the district" />
		<tag k="name" v="Tverrheiane" />
		<tag k="natural" v="hill" />
		<tag k="place" v="locality" />
		<tag k="ssr:stedsnr" v="921307" />
	</node>
	<node id="-575715" lat="62.5579555519" lon="6.44515834161">
		<tag k="fixme" v="consider natural=peak for the most distinct mountains in the district" />
		<tag k="name" v="Håvikhornet" />
		<tag k="natural" v="hill" />
		<tag k="place" v="locality" />
		<tag k="ssr:stedsnr" v="375224" />
	</node>
	<node id="-575713" lat="62.5418972239" lon="6.34434723115">
		<tag k="fixme" v="consider natural=peak for the most distinct mountains in the district" />
		<tag k="name" v="Storhornet" />
		<tag k="natural" v="hill" />
		<tag k="place" v="locality" />
		<tag k="ssr:stedsnr" v="375200" />
	</node>
	<node id="-575712" lat="62.5385861117" lon="6.32289721637">
		<tag k="fixme" v="consider natural=peak for the most distinct mountains in the district" />
		<tag k="name" v="Uggedalshornet" />
		<tag k="natural" v="hill" />
		<tag k="place" v="locality" />
		<tag k="ssr:stedsnr" v="375197" />
	</node>
	<node id="-575709" lat="62.5520194464" lon="6.57776943912">
		<tag k="name" v="Kyrkjeskaret" />
		<tag k="natural" v="valley" />
		<tag k="place" v="locality" />
		<tag k="ssr:stedsnr" v="375188" />
	</node>
	<node id="-575707" lat="62.5450833315" lon="6.64537778441">
		<tag k="name" v="Skarskleiva" />
		<tag k="natural" v="valley" />
		<tag k="place" v="locality" />
		<tag k="ssr:stedsnr" v="375157" />
	</node>
	<node id="-575699" lat="62.6670249963" lon="6.28526111531">
		<tag k="name" v="Bergnakken" />
		<tag k="natural" v="hill" />
		<tag k="place" v="locality" />
		<tag k="ssr:stedsnr" v="345677" />
	</node>
	<node id="-577745" lat="62.5961805512" lon="6.38673611015">
		<tag k="name" v="Nonsskaret" />
		<tag k="natural" v="valley" />
		<tag k="place" v="locality" />
		<tag k="ssr:stedsnr" v="870090" />
	</node>
	<node id="-575695" lat="62.5837972266" lon="6.63427499773">
		<tag k="name" v="Stighamaren" />
		<tag k="natural" v="cliff" />
		<tag k="ssr:stedsnr" v="337982" />
	</node>
	<node id="-575694" lat="62.606799996" lon="6.5246388889">
		<tag k="name" v="Skåradalen" />
		<tag k="natural" v="valley" />
		<tag k="place" v="locality" />
		<tag k="ssr:stedsnr" v="337974" />
	</node>
	<node id="-575691" lat="62.5521083322" lon="6.59309443743">
		<tag k="name" v="Stampene" />
		<tag k="natural" v="hill" />
		<tag k="place" v="locality" />
		<tag k="ssr:stedsnr" v="337945" />
	</node>
	<node id="-575690" lat="62.5749805545" lon="6.46311667311">
		<tag k="name" v="Saltarberget" />
		<tag k="natural" v="hill" />
		<tag k="place" v="locality" />
		<tag k="ssr:stedsnr" v="337893" />
	</node>
	<node id="-575863" lat="62.6172555558" lon="6.20491666178">
		<tag k="name" v="Trollsteingjølet" />
		<tag k="natural" v="valley" />
		<tag k="place" v="locality" />
		<tag k="ssr:stedsnr" v="882506" />
	</node>
	<node id="-575686" lat="62.5904388866" lon="6.65139721889">
		<tag k="name" v="Heiabakken" />
		<tag k="natural" v="ridge" />
		<tag k="place" v="locality" />
		<tag k="ssr:stedsnr" v="337866" />
	</node>
	<node id="-577732" lat="62.6145527783" lon="6.18031944288">
		<tag k="name" v="Graslia" />
		<tag k="natural" v="slope" />
		<tag k="place" v="locality" />
		<tag k="ssr:stedsnr" v="861690" />
	</node>
	<node id="-577731" lat="62.665061108" lon="6.1772944514">
		<tag k="name" v="Storryggen" />
		<tag k="natural" v="hill" />
		<tag k="place" v="locality" />
		<tag k="ssr:stedsnr" v="861675" />
	</node>
	<node id="-575680" lat="62.596733335" lon="6.71410833914">
		<tag k="name" v="Brynja" />
		<tag k="natural" v="slope" />
		<tag k="place" v="locality" />
		<tag k="ssr:stedsnr" v="337724" />
	</node>
	<node id="-575679" lat="62.5846583329" lon="6.76548610652">
		<tag k="name" v="Lynghaugane" />
		<tag k="natural" v="hill" />
		<tag k="place" v="locality" />
		<tag k="ssr:stedsnr" v="337706" />
	</node>
	<node id="-575673" lat="62.5406111131" lon="6.59885278361">
		<tag k="name" v="Mulen" />
		<tag k="natural" v="ridge" />
		<tag k="place" v="locality" />
		<tag k="ssr:stedsnr" v="337608" />
	</node>
	<node id="-577719" lat="62.5981527736" lon="6.5058333337">
		<tag k="fixme" v="consider natural=peak for the most distinct mountains in the district" />
		<tag k="name" v="Hellandshornet" />
		<tag k="natural" v="hill" />
		<tag k="place" v="locality" />
		<tag k="ssr:stedsnr" v="861344" />
	</node>
	<node id="-575669" lat="62.5514944405" lon="6.5029166751">
		<tag k="name" v="Høgevasshaugane" />
		<tag k="natural" v="hill" />
		<tag k="place" v="locality" />
		<tag k="ssr:stedsnr" v="337580" />
	</node>
	<node id="-575668" lat="62.5581333298" lon="6.51948055242">
		<tag k="name" v="Hesthola" />
		<tag k="natural" v="valley" />
		<tag k="place" v="locality" />
		<tag k="ssr:stedsnr" v="337573" />
	</node>
	<node id="-575667" lat="62.5553916694" lon="6.52099445068">
		<tag k="name" v="Krogsethjellen" />
		<tag k="place" v="locality" />
		<tag k="ssr:stedsnr" v="337570" />
	</node>
	<node id="-575666" lat="62.548797225" lon="6.5071888904">
		<tag k="name" v="Torvhaugane" />
		<tag k="natural" v="hill" />
		<tag k="place" v="locality" />
		<tag k="ssr:stedsnr" v="337564" />
	</node>
	<node id="-577713" lat="62.5665305582" lon="6.34997222455">
		<tag k="name" v="Tryftelia" />
		<tag k="natural" v="slope" />
		<tag k="place" v="locality" />
		<tag k="ssr:stedsnr" v="861288" />
	</node>
	<node id="-575664" lat="62.6080138862" lon="6.43474722546">
		<tag k="name" v="Nakken" />
		<tag k="place" v="locality" />
		<tag k="ssr:stedsnr" v="337545" />
	</node>
	<node id="-577711" lat="62.5541833314" lon="6.38391667036">
		<tag k="name" v="Inste Vassida" />
		<tag k="natural" v="slope" />
		<tag k="place" v="locality" />
		<tag k="ssr:stedsnr" v="861271" />
	</node>
	<node id="-577710" lat="62.5549333296" lon="6.35131666905">
		<tag k="fixme" v="consider natural=peak for the most distinct mountains in the district" />
		<tag k="name" v="Tverrbotshornet" />
		<tag k="natural" v="hill" />
		<tag k="place" v="locality" />
		<tag k="ssr:stedsnr" v="861269" />
	</node>
	<node id="-577708" lat="62.5498250028" lon="6.34237500189">
		<tag k="fixme" v="consider natural=peak for the most distinct mountains in the district" />
		<tag k="name" v="Øvre Breiskarryggen" />
		<tag k="natural" v="hill" />
		<tag k="place" v="locality" />
		<tag k="ssr:stedsnr" v="861240" />
	</node>
	<node id="-575658" lat="62.582094446" lon="6.7057888958">
		<tag k="name" v="Kroklia" />
		<tag k="natural" v="slope" />
		<tag k="place" v="locality" />
		<tag k="ssr:stedsnr" v="337481" />
	</node>
	<node id="-577704" lat="62.54839167" lon="6.47984721417">
		<tag k="name" v="Bjørnadalen" />
		<tag k="natural" v="valley" />
		<tag k="place" v="locality" />
		<tag k="ssr:stedsnr" v="861227" />
	</node>
	<node id="-577702" lat="62.5393222205" lon="6.38983055764">
		<tag k="fixme" v="consider natural=peak for the most distinct mountains in the district" />
		<tag k="name" v="Brendenakken" />
		<tag k="natural" v="hill" />
		<tag k="place" v="locality" />
		<tag k="ssr:stedsnr" v="861216" />
	</node>
	<node id="-575652" lat="62.5466249991" lon="6.47860833997">
		<tag k="name" v="Seterhola" />
		<tag k="natural" v="valley" />
		<tag k="place" v="locality" />
		<tag k="ssr:stedsnr" v="337392" />
	</node>
	<node id="-575649" lat="62.628411111" lon="6.69561388433">
		<tag k="name" v="Eikeegga" />
		<tag k="natural" v="ridge" />
		<tag k="place" v="locality" />
		<tag k="ssr:stedsnr" v="337385" />
	</node>
	<node id="-575647" lat="62.6267472248" lon="6.60611389195">
		<tag k="name" v="Grimstøbakken" />
		<tag k="natural" v="slope" />
		<tag k="place" v="locality" />
		<tag k="ssr:stedsnr" v="337378" />
	</node>
	<node id="-577692" lat="62.6623861113" lon="6.1947166729">
		<tag k="fixme" v="consider natural=peak for the most distinct mountains in the district" />
		<tag k="name" v="Haramsfjellet" />
		<tag k="natural" v="hill" />
		<tag k="place" v="locality" />
		<tag k="ssr:stedsnr" v="841721" />
	</node>
	<node id="-575643" lat="62.6145972183" lon="6.64145834213">
		<tag k="name" v="Storfloget" />
		<tag k="natural" v="cliff" />
		<tag k="ssr:stedsnr" v="337036" />
	</node>
	<node id="-575639" lat="62.5442999975" lon="6.29808611535">
		<tag k="name" v="Kriken" />
		<tag k="natural" v="slope" />
		<tag k="place" v="locality" />
		<tag k="ssr:stedsnr" v="336643" />
	</node>
	<node id="-575638" lat="62.6591833313" lon="6.33103333463">
		<tag k="name" v="Jonsokhaugen" />
		<tag k="natural" v="hill" />
		<tag k="place" v="locality" />
		<tag k="ssr:stedsnr" v="336595" />
	</node>
	<node id="-575634" lat="62.6616166673" lon="6.19382499334">
		<tag k="name" v="Trollklepper" />
		<tag k="natural" v="cliff" />
		<tag k="ssr:stedsnr" v="336472" />
	</node>
	<node id="-575633" lat="62.6580749977" lon="6.19335832484">
		<tag k="name" v="Halsen" />
		<tag k="natural" v="valley" />
		<tag k="place" v="locality" />
		<tag k="ssr:stedsnr" v="336469" />
	</node>
	<node id="-577680" lat="62.5738027758" lon="6.48796110605">
		<tag k="fixme" v="consider natural=peak for the most distinct mountains in the district" />
		<tag k="name" v="Bergetindane" />
		<tag k="natural" v="hill" />
		<tag k="ssr:stedsnr" v="823974" />
	</node>
	<node id="-575630" lat="62.556738892" lon="6.28028055773">
		<tag k="name" v="Hageaksla" />
		<tag k="place" v="locality" />
		<tag k="ssr:stedsnr" v="336299" />
	</node>
	<node id="-577677" lat="62.5782611114" lon="6.55012500031">
		<tag k="name" v="Fonnaledet" />
		<tag k="natural" v="slope" />
		<tag k="place" v="locality" />
		<tag k="ssr:stedsnr" v="823864" />
	</node>
	<node id="-577675" lat="62.5695138847" lon="6.60054722146">
		<tag k="name" v="Bolturdhjellen" />
		<tag k="place" v="locality" />
		<tag k="ssr:stedsnr" v="823782" />
	</node>
	<node id="-575626" lat="62.6184444469" lon="6.14965555431">
		<tag k="name" v="Hellaren" />
		<tag k="place" v="locality" />
		<tag k="ssr:stedsnr" v="335925" />
	</node>
	<node id="-577672" lat="62.5661611082" lon="6.42396666037">
		<tag k="name" v="Iglet" />
		<tag k="natural" v="slope" />
		<tag k="place" v="locality" />
		<tag k="ssr:stedsnr" v="823711" />
	</node>
	<node id="-577668" lat="62.5635138877" lon="6.50146389018">
		<tag k="name" v="Stølehola" />
		<tag k="natural" v="valley" />
		<tag k="place" v="locality" />
		<tag k="ssr:stedsnr" v="823546" />
	</node>
	<node id="-577667" lat="62.5594722193" lon="6.51575000879">
		<tag k="name" v="Nyfonnbakken" />
		<tag k="place" v="locality" />
		<tag k="ssr:stedsnr" v="823543" />
	</node>
	<node id="-577666" lat="62.5462944462" lon="6.51496389469">
		<tag k="name" v="Varghola" />
		<tag k="natural" v="valley" />
		<tag k="place" v="locality" />
		<tag k="ssr:stedsnr" v="823517" />
	</node>
	<node id="-577665" lat="62.5488083311" lon="6.55919723029">
		<tag k="name" v="Skyrdalen" />
		<tag k="natural" v="valley" />
		<tag k="place" v="locality" />
		<tag k="ssr:stedsnr" v="823494" />
	</node>
	<node id="-575616" lat="62.6754805557" lon="6.1951583291">
		<tag k="name" v="Horngjølet" />
		<tag k="natural" v="cliff" />
		<tag k="ssr:stedsnr" v="335416" />
	</node>
	<node id="-575612" lat="62.6089555516" lon="6.17891667393">
		<tag k="name" v="Glettehaugen" />
		<tag k="natural" v="hill" />
		<tag k="place" v="locality" />
		<tag k="ssr:stedsnr" v="333632" />
	</node>
	<node id="-575607" lat="62.6738416675" lon="6.30844999764">
		<tag k="fixme" v="consider natural=peak for the most distinct mountains in the district" />
		<tag k="name" v="Skulen" />
		<tag k="natural" v="hill" />
		<tag k="place" v="locality" />
		<tag k="ssr:stedsnr" v="316000" />
	</node>
	<node id="-575606" lat="62.6797694406" lon="6.30760277385">
		<tag k="name" v="Nogvadalen" />
		<tag k="natural" v="valley" />
		<tag k="place" v="locality" />
		<tag k="ssr:stedsnr" v="315998" />
	</node>
	<node id="-575604" lat="62.5859250033" lon="6.74513610794">
		<tag k="name" v="Mannegrava" />
		<tag k="natural" v="valley" />
		<tag k="place" v="locality" />
		<tag k="ssr:stedsnr" v="315968" />
	</node>
	<node id="-577650" lat="62.5895444414" lon="6.56675555109">
		<tag k="name" v="Brauta" />
		<tag k="natural" v="slope" />
		<tag k="place" v="locality" />
		<tag k="ssr:stedsnr" v="822896" />
	</node>
	<node id="-575601" lat="62.7066722239" lon="6.39534166213">
		<tag k="fixme" v="consider natural=peak for the most distinct mountains in the district" />
		<tag k="name" v="Nedre Mangsfjellet" />
		<tag k="natural" v="hill" />
		<tag k="place" v="locality" />
		<tag k="ssr:stedsnr" v="315926" />
	</node>
	<node id="-577647" lat="62.5966277749" lon="6.64124165844">
		<tag k="name" v="Buhaugen" />
		<tag k="natural" v="hill" />
		<tag k="place" v="locality" />
		<tag k="ssr:stedsnr" v="822876" />
	</node>
	<node id="-577646" lat="62.5883249979" lon="6.62891389804">
		<tag k="name" v="Bindarryggen" />
		<tag k="natural" v="ridge" />
		<tag k="place" v="locality" />
		<tag k="ssr:stedsnr" v="822875" />
	</node>
	<node id="-575597" lat="62.6919583353" lon="6.19179723036">
		<tag k="name" v="Måshaugane" />
		<tag k="natural" v="hill" />
		<tag k="place" v="locality" />
		<tag k="ssr:stedsnr" v="315750" />
	</node>
	<node id="-577643" lat="62.6141694462" lon="6.47302222188">
		<tag k="name" v="Haugan" />
		<tag k="natural" v="hill" />
		<tag k="place" v="locality" />
		<tag k="ssr:stedsnr" v="822832" />
	</node>
	<node id="-577640" lat="62.5415250032" lon="6.58264444939">
		<tag k="name" v="Rustene" />
		<tag k="natural" v="slope" />
		<tag k="place" v="locality" />
		<tag k="ssr:stedsnr" v="822663" />
	</node>
	<node id="-577637" lat="62.611327777" lon="6.55180278226">
		<tag k="fixme" v="consider natural=peak for the most distinct mountains in the district" />
		<tag k="name" v="Grønhornet" />
		<tag k="natural" v="hill" />
		<tag k="place" v="locality" />
		<tag k="ssr:stedsnr" v="822438" />
	</node>
	<node id="-575587" lat="62.6045277792" lon="6.69911666723">
		<tag k="name" v="Husnakken" />
		<tag k="natural" v="hill" />
		<tag k="place" v="locality" />
		<tag k="ssr:stedsnr" v="315366" />
	</node>
	<node id="-575585" lat="62.5867333345" lon="6.31718055953">
		<tag k="name" v="Hornvasslia" />
		<tag k="natural" v="slope" />
		<tag k="place" v="locality" />
		<tag k="ssr:stedsnr" v="315343" />
	</node>
	<node id="-575584" lat="62.5816083314" lon="6.40101943742">
		<tag k="name" v="Ryssdalen" />
		<tag k="natural" v="valley" />
		<tag k="place" v="locality" />
		<tag k="ssr:stedsnr" v="315334" />
	</node>
	<node id="-575504" lat="62.6142166676" lon="6.46240832955">
		<tag k="name" v="Hesthammaren" />
		<tag k="natural" v="hill" />
		<tag k="place" v="locality" />
		<tag k="ssr:stedsnr" v="276855" />
	</node>
	<node id="-575582" lat="62.5898277786" lon="6.71388889734">
		<tag k="fixme" v="consider natural=peak for the most distinct mountains in the district" />
		<tag k="name" v="Torskinhamrane" />
		<tag k="natural" v="hill" />
		<tag k="place" v="locality" />
		<tag k="ssr:stedsnr" v="315318" />
	</node>
	<node id="-577629" lat="62.6187722212" lon="6.15343611697">
		<tag k="name" v="Senhaugen" />
		<tag k="natural" v="hill" />
		<tag k="place" v="locality" />
		<tag k="ssr:stedsnr" v="821912" />
	</node>
	<node id="-577627" lat="62.6494833314" lon="6.23008056122">
		<tag k="name" v="Tverfjellet" />
		<tag k="place" v="locality" />
		<tag k="ssr:stedsnr" v="821781" />
	</node>
	<node id="-575576" lat="62.552619447" lon="6.39010556496">
		<tag k="fixme" v="consider natural=peak for the most distinct mountains in the district" />
		<tag k="name" v="Vidfjellet" />
		<tag k="natural" v="hill" />
		<tag k="place" v="locality" />
		<tag k="ssr:stedsnr" v="315237" />
	</node>
	<node id="-575574" lat="62.5424916705" lon="6.32705834087">
		<tag k="name" v="Engesetskaret" />
		<tag k="natural" v="valley" />
		<tag k="place" v="locality" />
		<tag k="ssr:stedsnr" v="315228" />
	</node>
	<node id="-577619" lat="62.6855777809" lon="6.25919166485">
		<tag k="name" v="Stabben" />
		<tag k="natural" v="cliff" />
		<tag k="ssr:stedsnr" v="821617" />
	</node>
	<node id="-577614" lat="62.6677888866" lon="6.16346944733">
		<tag k="name" v="Årehaugen" />
		<tag k="natural" v="hill" />
		<tag k="place" v="locality" />
		<tag k="ssr:stedsnr" v="821507" />
	</node>
	<node id="-575564" lat="62.6160777806" lon="6.69543332363">
		<tag k="name" v="Eikedalen" />
		<tag k="natural" v="valley" />
		<tag k="place" v="locality" />
		<tag k="ssr:stedsnr" v="314498" />
	</node>
	<node id="-577611" lat="62.6785277808" lon="6.29482221715">
		<tag k="name" v="Tverreidet" />
		<tag k="place" v="locality" />
		<tag k="ssr:stedsnr" v="821415" />
	</node>
	<node id="-577609" lat="62.6810888852" lon="6.190424998">
		<tag k="name" v="Dysjahaugen" />
		<tag k="natural" v="hill" />
		<tag k="place" v="locality" />
		<tag k="ssr:stedsnr" v="821338" />
	</node>
	<node id="-575554" lat="62.5696555519" lon="6.33485833334">
		<tag k="name" v="Vasslia" />
		<tag k="natural" v="slope" />
		<tag k="place" v="locality" />
		<tag k="ssr:stedsnr" v="314344" />
	</node>
	<node id="-575552" lat="62.5665500012" lon="6.3666722296">
		<tag k="name" v="Grytakopen" />
		<tag k="natural" v="valley" />
		<tag k="place" v="locality" />
		<tag k="ssr:stedsnr" v="314336" />
	</node>
	<node id="-577599" lat="62.6961388908" lon="6.38774444911">
		<tag k="name" v="Kjemannen" />
		<tag k="natural" v="hill" />
		<tag k="place" v="locality" />
		<tag k="ssr:stedsnr" v="801882" />
	</node>
	<node id="-577588" lat="62.5757083322" lon="6.37760556063">
		<tag k="fixme" v="consider natural=peak for the most distinct mountains in the district" />
		<tag k="name" v="Kvasshammaren" />
		<tag k="natural" v="hill" />
		<tag k="place" v="locality" />
		<tag k="ssr:stedsnr" v="801326" />
	</node>
	<node id="-577587" lat="62.5845361146" lon="6.50216388903">
		<tag k="name" v="Sætrehaugan" />
		<tag k="natural" v="hill" />
		<tag k="place" v="locality" />
		<tag k="ssr:stedsnr" v="801319" />
	</node>
	<node id="-577586" lat="62.5786000009" lon="6.66430278192">
		<tag k="name" v="Tordalen" />
		<tag k="natural" v="valley" />
		<tag k="place" v="locality" />
		<tag k="ssr:stedsnr" v="801309" />
	</node>
	<node id="-577583" lat="62.5385499962" lon="6.32293889105">
		<tag k="name" v="Litlehornet" />
		<tag k="natural" v="hill" />
		<tag k="place" v="locality" />
		<tag k="ssr:stedsnr" v="801222" />
	</node>
	<node id="-577582" lat="62.5420388925" lon="6.35944443929">
		<tag k="name" v="Skålbotnen" />
		<tag k="natural" v="valley" />
		<tag k="place" v="locality" />
		<tag k="ssr:stedsnr" v="801219" />
	</node>
	<node id="-575532" lat="62.5592611102" lon="6.53386666948">
		<tag k="name" v="Hjellane" />
		<tag k="place" v="locality" />
		<tag k="ssr:stedsnr" v="277575" />
	</node>
	<node id="-577579" lat="62.5863916693" lon="6.71705278127">
		<tag k="fixme" v="consider natural=peak for the most distinct mountains in the district" />
		<tag k="name" v="Tindfjellet" />
		<tag k="natural" v="hill" />
		<tag k="place" v="locality" />
		<tag k="ssr:stedsnr" v="800993" />
	</node>
	<node id="-575529" lat="62.5605333351" lon="6.50979722411">
		<tag k="name" v="Heiarøra" />
		<tag k="natural" v="ridge" />
		<tag k="place" v="locality" />
		<tag k="ssr:stedsnr" v="277548" />
	</node>
	<node id="-575528" lat="62.5671444427" lon="6.53525555339">
		<tag k="name" v="Ramsegjerdet" />
		<tag k="natural" v="slope" />
		<tag k="place" v="locality" />
		<tag k="ssr:stedsnr" v="277534" />
	</node>
	<node id="-577884" lat="62.5701027776" lon="6.72548332699">
		<tag k="name" v="Jonakken" />
		<tag k="natural" v="ridge" />
		<tag k="place" v="locality" />
		<tag k="ssr:stedsnr" v="944474" />
	</node>
	<node id="-577571" lat="62.6262694464" lon="6.17909166839">
		<tag k="name" v="Låfjellet" />
		<tag k="natural" v="hill" />
		<tag k="place" v="locality" />
		<tag k="ssr:stedsnr" v="800694" />
	</node>
	<node id="-577567" lat="62.6060249957" lon="6.55179444922">
		<tag k="name" v="Grønhornet" />
		<tag k="natural" v="hill" />
		<tag k="place" v="locality" />
		<tag k="ssr:stedsnr" v="800405" />
	</node>
	<node id="-577565" lat="62.6049305591" lon="6.51161666541">
		<tag k="fixme" v="consider natural=peak for the most distinct mountains in the district" />
		<tag k="name" v="Skjerveheian" />
		<tag k="natural" v="hill" />
		<tag k="place" v="locality" />
		<tag k="ssr:stedsnr" v="800396" />
	</node>
	<node id="-577564" lat="62.5960009359" lon="6.41856830854">
		<tag k="fixme" v="multiple name tags, choose one and add the other to alt_name; consider natural=peak for the most distinct mountains in the district" />
		<tag k="name" v="Heimste Synnalandsheia;Heimste Heia;Storhaugen" />
		<tag k="natural" v="hill" />
		<tag k="place" v="locality" />
		<tag k="ssr:stedsnr" v="800389" />
	</node>
	<node id="-577559" lat="62.581072224" lon="6.30203333884">
		<tag k="name" v="Vetesida" />
		<tag k="natural" v="slope" />
		<tag k="place" v="locality" />
		<tag k="ssr:stedsnr" v="800361" />
	</node>
	<node id="-577557" lat="62.5959361139" lon="6.66085555336">
		<tag k="name" v="Kaldgjølet" />
		<tag k="natural" v="valley" />
		<tag k="place" v="locality" />
		<tag k="ssr:stedsnr" v="800342" />
	</node>
	<node id="-577553" lat="62.5577666629" lon="6.3264666736">
		<tag k="fixme" v="consider natural=peak for the most distinct mountains in the district" />
		<tag k="name" v="Heiane" />
		<tag k="natural" v="hill" />
		<tag k="place" v="locality" />
		<tag k="ssr:stedsnr" v="800282" />
	</node>
	<node id="-577552" lat="62.5582888851" lon="6.46980556166">
		<tag k="fixme" v="consider natural=peak for the most distinct mountains in the district" />
		<tag k="name" v="Remenakken" />
		<tag k="natural" v="hill" />
		<tag k="place" v="locality" />
		<tag k="ssr:stedsnr" v="800273" />
	</node>
	<node id="-575503" lat="62.5705388848" lon="6.58617222082">
		<tag k="name" v="Skreden" />
		<tag k="natural" v="valley" />
		<tag k="place" v="locality" />
		<tag k="ssr:stedsnr" v="276850" />
	</node>
	<node id="-575502" lat="62.5714555596" lon="6.5856055544">
		<tag k="name" v="Kilen" />
		<tag k="natural" v="valley" />
		<tag k="place" v="locality" />
		<tag k="ssr:stedsnr" v="276848" />
	</node>
	<node id="-577549" lat="62.5443805551" lon="6.47405833264">
		<tag k="name" v="Skora" />
		<tag k="natural" v="valley" />
		<tag k="place" v="locality" />
		<tag k="ssr:stedsnr" v="800242" />
	</node>
	<node id="-575497" lat="62.5374749986" lon="6.57202222735">
		<tag k="name" v="Skarveberget" />
		<tag k="natural" v="hill" />
		<tag k="place" v="locality" />
		<tag k="ssr:stedsnr" v="276686" />
	</node>
	<node id="-575494" lat="62.5597388864" lon="6.55605833873">
		<tag k="name" v="Gutahjellen" />
		<tag k="place" v="locality" />
		<tag k="ssr:stedsnr" v="276622" />
	</node>
	<node id="-575493" lat="62.5623611084" lon="6.55524721811">
		<tag k="name" v="Skåtesvora" />
		<tag k="natural" v="valley" />
		<tag k="place" v="locality" />
		<tag k="ssr:stedsnr" v="276621" />
	</node>
	<node id="-575491" lat="62.5628222198" lon="6.56190277025">
		<tag k="name" v="Lia" />
		<tag k="natural" v="slope" />
		<tag k="place" v="locality" />
		<tag k="ssr:stedsnr" v="276617" />
	</node>
	<node id="-575490" lat="62.561427775" lon="6.57982777417">
		<tag k="name" v="Skabakken" />
		<tag k="natural" v="slope" />
		<tag k="place" v="locality" />
		<tag k="ssr:stedsnr" v="276612" />
	</node>
	<node id="-575489" lat="62.5496416684" lon="6.57207777471">
		<tag k="name" v="Sætreskaret" />
		<tag k="natural" v="valley" />
		<tag k="place" v="locality" />
		<tag k="ssr:stedsnr" v="276611" />
	</node>
</osm>
