<?xml version="1.0" encoding="UTF-8"?>
<osm generator="osmapis" version="0.6">
	<node id="-577024" lat="62.5370436361" lon="6.59278765558">
		<tag k="bridge" v="yes" />
		<tag k="layer" v="1" />
		<tag k="name" v="Mulebrua" />
		<tag k="ssr:stedsnr" v="90053" />
	</node>
	<node id="-577023" lat="62.5339222222" lon="6.400199997">
		<tag k="bridge" v="yes" />
		<tag k="layer" v="1" />
		<tag k="name" v="Holmesetbrua" />
		<tag k="ssr:stedsnr" v="90030" />
	</node>
	<node id="-577941" lat="62.623372221" lon="6.60422222962">
		<tag k="fixme" v="verify maritime location" />
		<tag k="mooring" v="yes" />
		<tag k="name" v="Mjølkestøda" />
		<tag k="place" v="locality" />
		<tag k="ssr:stedsnr" v="580309" />
	</node>
	<node id="-578041" lat="62.5466361102" lon="6.47259167269">
		<tag k="layer" v="-1" />
		<tag k="name" v="Remetunnelen" />
		<tag k="ssr:stedsnr" v="632102" />
		<tag k="tunnel" v="yes" />
	</node>
	<node id="-577652" lat="62.5435138917" lon="6.52349444203">
		<tag k="bridge" v="yes" />
		<tag k="layer" v="1" />
		<tag k="name" v="Slyngstadbrua" />
		<tag k="ssr:stedsnr" v="484826" />
	</node>
	<node id="-577779" lat="62.6127833344" lon="6.45868610983">
		<tag k="landuse" v="harbour" />
		<tag k="name" v="Hellandshamna" />
		<tag k="seamark:type" v="harbour" />
		<tag k="ssr:stedsnr" v="519824" />
	</node>
	<node id="-576317" lat="62.6240333336" lon="6.66753888967">
		<tag k="bridge" v="yes" />
		<tag k="layer" v="1" />
		<tag k="name" v="Eikebrua" />
		<tag k="ssr:stedsnr" v="272019" />
	</node>
	<node id="-578475" lat="62.5581916658" lon="6.60467499678">
		<tag k="bridge" v="yes" />
		<tag k="layer" v="1" />
		<tag k="name" v="Osvikbrua" />
		<tag k="ssr:stedsnr" v="818002" />
	</node>
	<node id="-578530" lat="62.6265750041" lon="6.59909721296">
		<tag k="fixme" v="verify maritime location" />
		<tag k="mooring" v="yes" />
		<tag k="name" v="Kustøa" />
		<tag k="place" v="locality" />
		<tag k="ssr:stedsnr" v="823331" />
	</node>
	<node id="-576479" lat="62.5427805532" lon="6.29039722994">
		<tag k="bridge" v="yes" />
		<tag k="layer" v="1" />
		<tag k="name" v="Søvikbrua" />
		<tag k="ssr:stedsnr" v="333294" />
	</node>
	<node id="-576478" lat="62.5993805518" lon="6.67483888054">
		<tag k="bridge" v="yes" />
		<tag k="layer" v="1" />
		<tag k="name" v="Vestrebrua" />
		<tag k="ssr:stedsnr" v="333014" />
	</node>
	<node id="-577629" lat="62.544391668" lon="6.51504999371">
		<tag k="highway" v="path" />
		<tag k="name" v="Kvernhusledet" />
		<tag k="ssr:stedsnr" v="459174" />
	</node>
	<node id="-577116" lat="62.5491638845" lon="6.47348054856">
		<tag k="layer" v="-1" />
		<tag k="name" v="Remetunnelen" />
		<tag k="ssr:stedsnr" v="120836" />
		<tag k="tunnel" v="yes" />
	</node>
	<node id="-576528" lat="62.619436112" lon="6.66436666172">
		<tag k="fixme" v="verify maritime location" />
		<tag k="mooring" v="yes" />
		<tag k="name" v="Ottringsstøa" />
		<tag k="place" v="locality" />
		<tag k="ssr:stedsnr" v="337492" />
	</node>
	<node id="-577879" lat="62.5342000005" lon="6.37335834187">
		<tag k="bridge" v="yes" />
		<tag k="layer" v="1" />
		<tag k="name" v="Grytabrua" />
		<tag k="ssr:stedsnr" v="575246" />
	</node>
	<node id="-577878" lat="62.6083083329" lon="6.3457722253">
		<tag k="bridge" v="yes" />
		<tag k="layer" v="1" />
		<tag k="name" v="Hildrebrua" />
		<tag k="ssr:stedsnr" v="575207" />
	</node>
	<node id="-578386" lat="62.5923916692" lon="6.28105555635">
		<tag k="amenity" v="ferry_terminal" />
		<tag k="name" v="Skjeltene ferjekai" />
		<tag k="ssr:stedsnr" v="762328" />
	</node>
	<node id="-578381" lat="62.5871777756" lon="6.62655833558">
		<tag k="fixme" v="verify maritime location" />
		<tag k="mooring" v="yes" />
		<tag k="name" v="Åmundstøda" />
		<tag k="place" v="locality" />
		<tag k="ssr:stedsnr" v="761986" />
	</node>
	<node id="-578621" lat="62.6831361118" lon="6.22726667603">
		<tag k="bridge" v="yes" />
		<tag k="layer" v="1" />
		<tag k="name" v="Flemsbrua" />
		<tag k="ssr:stedsnr" v="879247" />
	</node>
	<node id="-577890" lat="62.6766361086" lon="6.18689999306">
		<tag k="highway" v="path" />
		<tag k="name" v="Kyrkjevegen" />
		<tag k="ssr:stedsnr" v="578384" />
	</node>
	<node id="-578122" lat="62.6161722227" lon="6.28211388447">
		<tag k="name" v="Leia" />
		<tag k="place" v="locality" />
		<tag k="ssr:stedsnr" v="658722" />
	</node>
	<node id="-577734" lat="62.6700249964" lon="6.26087777407">
		<tag k="man_made" v="quay" />
		<tag k="name" v="Gjerdekaia" />
		<tag k="place" v="locality" />
		<tag k="ssr:stedsnr" v="518369" />
	</node>
	<node id="-578117" lat="62.6737194489" lon="5.99070833817">
		<tag k="name" v="Nørdre leia" />
		<tag k="place" v="locality" />
		<tag k="ssr:stedsnr" v="658343" />
	</node>
	<node id="-578114" lat="62.6373138876" lon="6.27658055123">
		<tag k="amenity" v="ferry_terminal" />
		<tag k="name" v="Haramsøya ferjekai" />
		<tag k="ssr:stedsnr" v="641112" />
	</node>
	<node id="-576320" lat="62.5426555555" lon="6.47632778214">
		<tag k="layer" v="-1" />
		<tag k="name" v="Remefjelltunnelen" />
		<tag k="ssr:stedsnr" v="272225" />
		<tag k="tunnel" v="yes" />
	</node>
	<node id="-576319" lat="62.6043027735" lon="6.43988889169">
		<tag k="bridge" v="yes" />
		<tag k="layer" v="1" />
		<tag k="name" v="Synnalandsbrua" />
		<tag k="ssr:stedsnr" v="272212" />
	</node>
	<node id="-577726" lat="62.6521194433" lon="6.25141389414">
		<tag k="fixme" v="verify maritime location" />
		<tag k="mooring" v="yes" />
		<tag k="name" v="Jaktestøa" />
		<tag k="place" v="locality" />
		<tag k="ssr:stedsnr" v="517580" />
	</node>
	<node id="-578365" lat="62.5339805566" lon="6.61240833108">
		<tag k="fixme" v="consider highway=path" />
		<tag k="highway" v="track" />
		<tag k="name" v="Kvernvegen" />
		<tag k="ssr:stedsnr" v="761678" />
	</node>
	<node id="-578620" lat="62.5434666637" lon="6.52201665872">
		<tag k="bridge" v="yes" />
		<tag k="layer" v="1" />
		<tag k="name" v="Geitgrovbrua" />
		<tag k="ssr:stedsnr" v="879228" />
	</node>
	<node id="-578762" lat="62.555408331" lon="6.59649721716">
		<tag k="highway" v="path" />
		<tag k="name" v="Sandstigen" />
		<tag k="ssr:stedsnr" v="944567" />
	</node>
	<node id="-577080" lat="62.5650222184" lon="6.7622388882">
		<tag k="highway" v="path" />
		<tag k="name" v="Sætreveg" />
		<tag k="ssr:stedsnr" v="94833" />
	</node>
	<node id="-576567" lat="62.6168027753" lon="6.22086666927">
		<tag k="amenity" v="ferry_terminal" />
		<tag k="name" v="Lepsøya ferjekai" />
		<tag k="ssr:stedsnr" v="338108" />
	</node>
	<node id="-577590" lat="62.5843694445" lon="6.28266665803">
		<tag k="highway" v="path" />
		<tag k="name" v="Remmevegen" />
		<tag k="ssr:stedsnr" v="457891" />
	</node>
	<node id="-576821" lat="62.5325453159" lon="6.4046638088">
		<tag k="man_made" v="quay" />
		<tag k="name" v="Geirkaia" />
		<tag k="place" v="locality" />
		<tag k="ssr:stedsnr" v="990333" />
	</node>
	<node id="-576690" lat="62.6079666699" lon="6.44910000105">
		<tag k="amenity" v="ferry_terminal" />
		<tag k="name" v="Brattvåg ferjekai" />
		<tag k="ssr:stedsnr" v="398304" />
	</node>
	<node id="-576689" lat="62.6029722229" lon="6.39597500734">
		<tag k="highway" v="path" />
		<tag k="name" v="Sætrevegen" />
		<tag k="ssr:stedsnr" v="398256" />
	</node>
	<node id="-577712" lat="62.6170111121" lon="6.53263055559">
		<tag k="bridge" v="yes" />
		<tag k="layer" v="1" />
		<tag k="name" v="Skorabrua" />
		<tag k="ssr:stedsnr" v="515011" />
	</node>
	<node id="-576733" lat="62.6017472191" lon="6.21852777255">
		<tag k="leisure" v="marina" />
		<tag k="name" v="Lausund" />
		<tag k="ssr:stedsnr" v="882524" />
	</node>
	<node id="-578476" lat="62.5909583334" lon="6.26196945385">
		<tag k="bridge" v="yes" />
		<tag k="layer" v="1" />
		<tag k="name" v="Lepsøyrevbrua" />
		<tag k="ssr:stedsnr" v="818221" />
	</node>
	<node id="-578354" lat="62.5897277792" lon="6.2872833243">
		<tag k="highway" v="path" />
		<tag k="name" v="Remmevegen" />
		<tag k="ssr:stedsnr" v="761519" />
	</node>
	<node id="-578217" lat="62.5952944443" lon="6.48406944536">
		<tag k="highway" v="path" />
		<tag k="name" v="Slettstien" />
		<tag k="ssr:stedsnr" v="701578" />
	</node>
	<node id="-578215" lat="62.5925333344" lon="6.69318888279">
		<tag k="highway" v="path" />
		<tag k="name" v="Sætervegen" />
		<tag k="ssr:stedsnr" v="701549" />
	</node>
	<node id="-577570" lat="62.5448222225" lon="6.59119722936">
		<tag k="bridge" v="yes" />
		<tag k="layer" v="1" />
		<tag k="loc_name" v="Eidsvikeidbrua" />
		<tag k="name" v="Vatneeidbrua" />
		<tag k="ssr:stedsnr" v="454043" />
	</node>
	<node id="-578077" lat="62.5945277799" lon="6.33214721627">
		<tag k="highway" v="path" />
		<tag k="name" v="Buråsa" />
		<tag k="ssr:stedsnr" v="640366" />
	</node>
	<node id="-578075" lat="62.5915472228" lon="6.30308055761">
		<tag k="highway" v="path" />
		<tag k="name" v="Mjølkevegen" />
		<tag k="ssr:stedsnr" v="640270" />
	</node>
	<node id="-578202" lat="62.5436222215" lon="6.53600556523">
		<tag k="highway" v="path" />
		<tag k="name" v="Trippe" />
		<tag k="ssr:stedsnr" v="701018" />
	</node>
	<node id="-578713" lat="62.6597083373" lon="6.17942500308">
		<tag k="name" v="Goteledet" />
		<tag k="place" v="locality" />
		<tag k="ssr:stedsnr" v="942435" />
	</node>
	<node id="-576318" lat="62.562572219" lon="6.45952777982">
		<tag k="bridge" v="yes" />
		<tag k="layer" v="1" />
		<tag k="name" v="Samfjordbrua" />
		<tag k="ssr:stedsnr" v="272206" />
	</node>
	<node id="-578710" lat="62.5683305573" lon="6.73225000417">
		<tag k="bridge" v="yes" />
		<tag k="layer" v="1" />
		<tag k="name" v="Bergebrua" />
		<tag k="ssr:stedsnr" v="940247" />
	</node>
	<node id="-578709" lat="62.5560416648" lon="6.61124443718">
		<tag k="bridge" v="yes" />
		<tag k="layer" v="1" />
		<tag k="name" v="Vatnebrua" />
		<tag k="ssr:stedsnr" v="940012" />
	</node>
	<node id="-577801" lat="62.7102499999" lon="6.42278332477">
		<tag k="amenity" v="ferry_terminal" />
		<tag k="name" v="Fjørtofta ferjekai" />
		<tag k="ssr:stedsnr" v="520113" />
	</node>
	<node id="-578320" lat="62.6833083295" lon="6.19644445013">
		<tag k="bridge" v="yes" />
		<tag k="layer" v="1" />
		<tag k="name" v="Ullasundbrua" />
		<tag k="ssr:stedsnr" v="757243" />
	</node>
	<node id="-576780" lat="62.5829638921" lon="6.62133888219">
		<tag k="fixme" v="verify maritime location" />
		<tag k="mooring" v="yes" />
		<tag k="name" v="Friarstøa" />
		<tag k="place" v="locality" />
		<tag k="ssr:stedsnr" v="883989" />
	</node>
	<node id="-578185" lat="62.574272219" lon="6.26181665811">
		<tag k="bridge" v="yes" />
		<tag k="layer" v="1" />
		<tag k="name" v="Bjørnøybrua" />
		<tag k="ssr:stedsnr" v="699917" />
	</node>
	<node id="-577196" lat="62.5560305565" lon="6.61112778653">
		<tag k="bridge" v="yes" />
		<tag k="layer" v="1" />
		<tag k="name" v="Vatnegangbrua" />
		<tag k="ssr:stedsnr" v="150014" />
	</node>
	<node id="-577030" lat="62.6635583297" lon="6.27135000956">
		<tag k="man_made" v="quay" />
		<tag k="name" v="Longva kai" />
		<tag k="place" v="locality" />
		<tag k="ssr:stedsnr" v="93280" />
	</node>
	<node id="-578180" lat="62.5628611116" lon="6.69714444283">
		<tag k="bridge" v="yes" />
		<tag k="layer" v="1" />
		<tag k="name" v="Sagåbrua" />
		<tag k="ssr:stedsnr" v="697275" />
	</node>
	<node id="-578179" lat="62.588322226" lon="6.44730277449">
		<tag k="bridge" v="yes" />
		<tag k="layer" v="1" />
		<tag k="name" v="Instevågbrua" />
		<tag k="ssr:stedsnr" v="697233" />
	</node>
	<node id="-578178" lat="62.5947666643" lon="6.47171943892">
		<tag k="bridge" v="yes" />
		<tag k="layer" v="1" />
		<tag k="name" v="Ringstadbrua" />
		<tag k="ssr:stedsnr" v="697031" />
	</node>
	<node id="-576641" lat="62.5701166651" lon="6.2798944353">
		<tag k="highway" v="path" />
		<tag k="name" v="Geitastigen" />
		<tag k="ssr:stedsnr" v="396876" />
	</node>
</osm>
