<?xml version="1.0" encoding="UTF-8"?>
<osm generator="osmapis" version="0.6">
	<node id="-577098" lat="62.5545944421" lon="6.60727222106">
		<tag k="amenity" v="place_of_worship" />
		<tag k="denomination" v="lutheran" />
		<tag k="name" v="Vatne" />
		<tag k="old_name" v="Vatne kyrkje" />
		<tag k="religion" v="christian" />
		<tag k="ssr:stedsnr" v="618179" />
	</node>
	<node id="-577593" lat="62.6299999962" lon="6.27165556212">
		<tag k="amenity" v="place_of_worship" />
		<tag k="denomination" v="lutheran" />
		<tag k="name" v="Haram" />
		<tag k="old_name" v="Haram kyrkje" />
		<tag k="religion" v="christian" />
		<tag k="ssr:stedsnr" v="801470" />
	</node>
	<node id="-577624" lat="62.6608833378" lon="6.32328333772">
		<tag k="amenity" v="community_centre" />
		<tag k="name" v="Framtun" />
		<tag k="ssr:stedsnr" v="821629" />
	</node>
	<node id="-577173" lat="62.6540166686" lon="6.22651945264">
		<tag k="amenity" v="community_centre" />
		<tag k="name" v="Fjelltun" />
		<tag k="ssr:stedsnr" v="638432" />
	</node>
	<node id="-576817" lat="62.6107833306" lon="6.33635554634">
		<tag k="amenity" v="place_of_worship" />
		<tag k="denomination" v="lutheran" />
		<tag k="name" v="Hildrestranda" />
		<tag k="religion" v="christian" />
		<tag k="ssr:stedsnr" v="497443" />
	</node>
	<node id="-577904" lat="62.5343027752" lon="6.42248612036">
		<tag k="amenity" v="community_centre" />
		<tag k="name" v="Furulund" />
		<tag k="ssr:stedsnr" v="944777" />
	</node>
	<node id="-577165" lat="62.7061182485" lon="6.37488200145">
		<tag k="amenity" v="place_of_worship" />
		<tag k="denomination" v="lutheran" />
		<tag k="name" v="Fjørtoft" />
		<tag k="religion" v="christian" />
		<tag k="ssr:stedsnr" v="618916" />
	</node>
	<node id="-577546" lat="62.5319583352" lon="6.26896388437">
		<tag k="amenity" v="place_of_worship" />
		<tag k="denomination" v="lutheran" />
		<tag k="name" v="Hamnsund" />
		<tag k="religion" v="christian" />
		<tag k="ssr:stedsnr" v="800203" />
	</node>
	<node id="-575661" lat="62.5915916673" lon="6.44249999791">
		<tag k="amenity" v="community_centre" />
		<tag k="name" v="Våghall" />
		<tag k="ssr:stedsnr" v="337526" />
	</node>
</osm>
