<?xml version="1.0" encoding="UTF-8"?>
<osm generator="osmapis" version="0.6">
	<node id="-576510" lat="62.7023222209" lon="6.42149443956">
		<tag k="name" v="Litlemalsgrova" />
		<tag k="ssr:stedsnr" v="336983" />
		<tag k="waterway" v="stream" />
	</node>
	<node id="-577531" lat="62.5491166676" lon="6.50221665998">
		<tag k="name" v="Øygardsvatnet" />
		<tag k="natural" v="water" />
		<tag k="ssr:stedsnr" v="436231" />
	</node>
	<node id="-578546" lat="62.5717222247" lon="6.59794167102">
		<tag k="name" v="Slettesnesfonna" />
		<tag k="ssr:stedsnr" v="823767" />
		<tag k="waterway" v="stream" />
	</node>
	<node id="-578545" lat="62.5375944486" lon="6.38769167476">
		<tag k="name" v="Skarsåa" />
		<tag k="ssr:stedsnr" v="823717" />
		<tag k="waterway" v="stream" />
	</node>
	<node id="-578543" lat="62.5730499976" lon="6.74849999612">
		<tag k="name" v="Heimste Hundåna" />
		<tag k="ssr:stedsnr" v="823621" />
		<tag k="waterway" v="stream" />
	</node>
	<node id="-578535" lat="62.5327138851" lon="6.44286387976">
		<tag k="name" v="Ekreelva" />
		<tag k="ssr:stedsnr" v="823454" />
		<tag k="waterway" v="stream" />
	</node>
	<node id="-578534" lat="62.5732361142" lon="6.70238610706">
		<tag k="name" v="Løkane" />
		<tag k="ssr:stedsnr" v="823452" />
		<tag k="waterway" v="stream" />
	</node>
	<node id="-576422" lat="62.5677499968" lon="6.42926943546">
		<tag k="name" v="Gjersetelva" />
		<tag k="ssr:stedsnr" v="314340" />
		<tag k="waterway" v="stream" />
	</node>
	<node id="-577019" lat="62.5307250016" lon="6.32588610838">
		<tag k="name" v="Grytastranda" />
		<tag k="natural" v="beach" />
		<tag k="ssr:stedsnr" v="81079" />
	</node>
	<node id="-577502" lat="62.5654055558" lon="6.82792499812">
		<tag k="name" v="Trollbotntjørna" />
		<tag k="natural" v="water" />
		<tag k="ssr:stedsnr" v="254868" />
	</node>
	<node id="-577701" lat="62.5747277803" lon="6.75128055364">
		<tag k="name" v="Hundåna" />
		<tag k="ssr:stedsnr" v="497895" />
		<tag k="waterway" v="stream" />
	</node>
	<node id="-578012" lat="62.6197944476" lon="6.70900832979">
		<tag k="name" v="Urfjellelva" />
		<tag k="ssr:stedsnr" v="618425" />
		<tag k="waterway" v="stream" />
	</node>
	<node id="-578523" lat="62.6053305579" lon="6.56560556031">
		<tag k="name" v="Storsvorelva" />
		<tag k="ssr:stedsnr" v="822901" />
		<tag k="waterway" v="stream" />
	</node>
	<node id="-576986" lat="62.5890333295" lon="6.49101388562">
		<tag k="name" v="Nyfonnelva" />
		<tag k="ssr:stedsnr" v="72336" />
		<tag k="waterway" v="stream" />
	</node>
	<node id="-578009" lat="62.604275004" lon="6.40241110856">
		<tag k="name" v="Sotåna" />
		<tag k="ssr:stedsnr" v="618412" />
		<tag k="waterway" v="stream" />
	</node>
	<node id="-576984" lat="62.5770972256" lon="6.36597222325">
		<tag k="name" v="Tredjevasselva" />
		<tag k="ssr:stedsnr" v="72324" />
		<tag k="waterway" v="stream" />
	</node>
	<node id="-576522" lat="62.5512361147" lon="6.43227778382">
		<tag k="name" v="Kjerringa" />
		<tag k="natural" v="shoal" />
		<tag k="place" v="locality" />
		<tag k="ssr:stedsnr" v="337396" />
	</node>
	<node id="-576981" lat="62.5813805556" lon="6.57962499893">
		<tag k="name" v="Vågselva" />
		<tag k="ssr:stedsnr" v="72312" />
		<tag k="waterway" v="stream" />
	</node>
	<node id="-576980" lat="62.5670861142" lon="6.5503833357">
		<tag k="name" v="Tunga" />
		<tag k="natural" v="cape" />
		<tag k="ssr:stedsnr" v="72297" />
	</node>
	<node id="-578296" lat="62.5448111067" lon="6.36602777977">
		<tag k="name" v="Tverrelvane" />
		<tag k="ssr:stedsnr" v="740227" />
		<tag k="waterway" v="stream" />
	</node>
	<node id="-576973" lat="62.5667111107" lon="6.69680556347">
		<tag k="name" v="Sagåna" />
		<tag k="ssr:stedsnr" v="72262" />
		<tag k="waterway" v="stream" />
	</node>
	<node id="-576972" lat="62.5593222196" lon="6.55168332386">
		<tag k="name" v="Pålpina" />
		<tag k="natural" v="cape" />
		<tag k="ssr:stedsnr" v="72256" />
	</node>
	<node id="-578506" lat="62.625647219" lon="6.66558611605">
		<tag k="name" v="Storelva" />
		<tag k="ssr:stedsnr" v="822025" />
		<tag k="waterway" v="stream" />
	</node>
	<node id="-577990" lat="62.5816138913" lon="6.42904722335">
		<tag k="name" v="Synnalandsvatnet" />
		<tag k="natural" v="water" />
		<tag k="ssr:stedsnr" v="618301" />
		<tag k="water" v="lake" />
	</node>
	<node id="-577987" lat="62.5659388872" lon="6.3847916614">
		<tag k="name" v="Litle Grytavatnet" />
		<tag k="natural" v="water" />
		<tag k="ssr:stedsnr" v="618272" />
	</node>
	<node id="-577473" lat="62.5488111119" lon="6.32544166669">
		<tag k="name" v="Midtlielva" />
		<tag k="ssr:stedsnr" v="254232" />
		<tag k="waterway" v="stream" />
	</node>
	<node id="-577979" lat="62.5522583379" lon="6.51919167241">
		<tag k="name" v="Bergeelvan" />
		<tag k="ssr:stedsnr" v="618218" />
		<tag k="waterway" v="stream" />
	</node>
	<node id="-577977" lat="62.5537277772" lon="6.41390276821">
		<tag k="name" v="Urkedalsvatnet" />
		<tag k="natural" v="water" />
		<tag k="ssr:stedsnr" v="618212" />
		<tag k="water" v="lake" />
	</node>
	<node id="-576677" lat="62.5869305529" lon="6.57895276954">
		<tag k="name" v="Navarselva" />
		<tag k="ssr:stedsnr" v="397914" />
		<tag k="waterway" v="stream" />
	</node>
	<node id="-576434" lat="62.61844722" lon="6.17925000735">
		<tag k="name" v="Korstjørna" />
		<tag k="natural" v="water" />
		<tag k="ssr:stedsnr" v="314708" />
	</node>
	<node id="-577478" lat="62.5720916646" lon="6.54290554599">
		<tag k="name" v="Fjøsneset" />
		<tag k="natural" v="cape" />
		<tag k="ssr:stedsnr" v="254276" />
	</node>
	<node id="-577446" lat="62.5735972203" lon="6.6358861118">
		<tag k="name" v="Sætreelva" />
		<tag k="ssr:stedsnr" v="216985" />
		<tag k="waterway" v="stream" />
	</node>
	<node id="-577957" lat="62.5730027782" lon="6.47606389298">
		<tag k="name" v="Bergesvora" />
		<tag k="ssr:stedsnr" v="580898" />
		<tag k="waterway" v="stream" />
	</node>
	<node id="-576929" lat="62.5350916706" lon="6.42966388228">
		<tag k="name" v="Daleelva" />
		<tag k="ssr:stedsnr" v="34407" />
		<tag k="waterway" v="stream" />
	</node>
	<node id="-577440" lat="62.558502774" lon="6.60543889642">
		<tag k="name" v="Vikaelva" />
		<tag k="ssr:stedsnr" v="216938" />
		<tag k="waterway" v="stream" />
	</node>
	<node id="-577436" lat="62.5735055598" lon="6.44537778101">
		<tag k="name" v="Kobbeneselva" />
		<tag k="ssr:stedsnr" v="216879" />
		<tag k="waterway" v="stream" />
	</node>
	<node id="-576642" lat="62.5842111067" lon="6.26949444494">
		<tag k="name" v="Gunnasøylå" />
		<tag k="natural" v="water" />
		<tag k="ssr:stedsnr" v="396879" />
	</node>
	<node id="-577946" lat="62.535313889" lon="6.4504722181">
		<tag k="name" v="Årsetelva" />
		<tag k="ssr:stedsnr" v="580410" />
		<tag k="waterway" v="stream" />
	</node>
	<node id="-578457" lat="62.5675305568" lon="6.73934722822">
		<tag k="name" v="Storelva" />
		<tag k="ssr:stedsnr" v="801260" />
		<tag k="waterway" v="stream" />
	</node>
	<node id="-576836" lat="62.6023444458" lon="6.47850833579">
		<tag k="name" v="Bakkeelva" />
		<tag k="ssr:stedsnr" v="11410" />
		<tag k="waterway" v="stream" />
	</node>
	<node id="-578453" lat="62.5430333335" lon="6.37411943711">
		<tag k="name" v="Grytaelva" />
		<tag k="ssr:stedsnr" v="801217" />
		<tag k="waterway" v="stream" />
	</node>
	<node id="-577784" lat="62.6151083305" lon="6.51927777305">
		<tag k="name" v="Kvernhuselva" />
		<tag k="ssr:stedsnr" v="519850" />
		<tag k="waterway" v="stream" />
	</node>
	<node id="-576909" lat="62.5360277819" lon="6.62120833676">
		<tag k="name" v="Pervika" />
		<tag k="natural" v="bay" />
		<tag k="ssr:stedsnr" v="33683" />
	</node>
	<node id="-577931" lat="62.5543416682" lon="6.60973611567">
		<tag k="name" v="Oselva" />
		<tag k="ssr:stedsnr" v="579962" />
		<tag k="waterway" v="river" />
	</node>
	<node id="-576394" lat="62.6071138928" lon="6.47364444455">
		<tag k="name" v="Sandvikelva" />
		<tag k="ssr:stedsnr" v="277499" />
		<tag k="waterway" v="stream" />
	</node>
	<node id="-576903" lat="62.5647277762" lon="6.69716388497">
		<tag k="name" v="Sagåna" />
		<tag k="ssr:stedsnr" v="33410" />
		<tag k="waterway" v="river" />
	</node>
	<node id="-578438" lat="62.6081500031" lon="6.56348888974">
		<tag k="name" v="Ukselva" />
		<tag k="ssr:stedsnr" v="800403" />
		<tag k="waterway" v="stream" />
	</node>
	<node id="-577413" lat="62.6197222208" lon="6.66643889681">
		<tag k="name" v="Litleelva" />
		<tag k="ssr:stedsnr" v="216445" />
		<tag k="waterway" v="stream" />
	</node>
	<node id="-577412" lat="62.567769445" lon="6.7180388897">
		<tag k="name" v="Kalvtjørna" />
		<tag k="natural" v="water" />
		<tag k="ssr:stedsnr" v="216446" />
	</node>
	<node id="-577613" lat="62.5709305529" lon="6.68646388646">
		<tag k="name" v="Smørelva" />
		<tag k="ssr:stedsnr" v="458557" />
		<tag k="waterway" v="stream" />
	</node>
	<node id="-578433" lat="62.5993083291" lon="6.48502223184">
		<tag k="name" v="Reitefonnelva" />
		<tag k="ssr:stedsnr" v="800366" />
		<tag k="waterway" v="stream" />
	</node>
	<node id="-578430" lat="62.5813444456" lon="6.35211945133">
		<tag k="name" v="Hildrevatnet" />
		<tag k="natural" v="water" />
		<tag k="ssr:stedsnr" v="800358" />
	</node>
	<node id="-577916" lat="62.609833336" lon="6.56108611626">
		<tag k="name" v="Uksnelva" />
		<tag k="ssr:stedsnr" v="579440" />
		<tag k="waterway" v="stream" />
	</node>
	<node id="-576376" lat="62.613525" lon="6.52118056039">
		<tag k="name" v="Kvernhuselva" />
		<tag k="ssr:stedsnr" v="276881" />
		<tag k="waterway" v="stream" />
	</node>
	<node id="-576660" lat="62.6186499977" lon="6.71284167164">
		<tag k="name" v="Urlielva" />
		<tag k="ssr:stedsnr" v="397411" />
		<tag k="waterway" v="stream" />
	</node>
	<node id="-578422" lat="62.5464138928" lon="6.33022777274">
		<tag k="name" v="Breiskarelva" />
		<tag k="ssr:stedsnr" v="800264" />
		<tag k="waterway" v="stream" />
	</node>
	<node id="-577392" lat="62.5660833358" lon="6.24448610571">
		<tag k="name" v="Bjørnøyvatnet" />
		<tag k="natural" v="water" />
		<tag k="ssr:stedsnr" v="215427" />
		<tag k="water" v="lake" />
	</node>
	<node id="-578280" lat="62.5829444463" lon="6.3299500012">
		<tag k="name" v="Hornvatnet" />
		<tag k="natural" v="water" />
		<tag k="ssr:stedsnr" v="739354" />
	</node>
	<node id="-576828" lat="62.5706333366" lon="6.37699999711">
		<tag k="name" v="Tredjevatnet" />
		<tag k="natural" v="water" />
		<tag k="ssr:stedsnr" v="11292" />
	</node>
	<node id="-577892" lat="62.6104638864" lon="6.66638333155">
		<tag k="name" v="Fonnaelva" />
		<tag k="ssr:stedsnr" v="578444" />
		<tag k="waterway" v="stream" />
	</node>
	<node id="-578619" lat="62.6104472238" lon="6.74678888355">
		<tag k="name" v="Øvste Langdalsvatnet" />
		<tag k="natural" v="water" />
		<tag k="ssr:stedsnr" v="876271" />
		<tag k="water" v="lake" />
	</node>
	<node id="-576351" lat="62.6129583329" lon="6.71185832605">
		<tag k="name" v="Holevatnet" />
		<tag k="natural" v="water" />
		<tag k="ssr:stedsnr" v="276451" />
		<tag k="water" v="lake" />
	</node>
	<node id="-576862" lat="62.61464167" lon="6.53577777302">
		<tag k="name" v="Kloppelva" />
		<tag k="ssr:stedsnr" v="12427" />
		<tag k="waterway" v="stream" />
	</node>
	<node id="-576349" lat="62.6089611154" lon="6.75001945133">
		<tag k="name" v="Storknausvatnet" />
		<tag k="natural" v="water" />
		<tag k="ssr:stedsnr" v="276321" />
		<tag k="water" v="lake" />
	</node>
	<node id="-578393" lat="62.601311115" lon="6.67626111921">
		<tag k="name" v="Løkelva" />
		<tag k="ssr:stedsnr" v="762463" />
		<tag k="waterway" v="stream" />
	</node>
	<node id="-578392" lat="62.596733335" lon="6.71410833914">
		<tag k="name" v="Dalelva" />
		<tag k="ssr:stedsnr" v="762444" />
		<tag k="waterway" v="stream" />
	</node>
	<node id="-578390" lat="62.5661916711" lon="6.72899167474">
		<tag k="name" v="Røythylen" />
		<tag k="place" v="locality" />
		<tag k="ssr:stedsnr" v="762402" />
	</node>
	<node id="-577875" lat="62.6715833297" lon="6.27492221883">
		<tag k="name" v="Kvernhuselva" />
		<tag k="ssr:stedsnr" v="557997" />
		<tag k="waterway" v="stream" />
	</node>
	<node id="-577362" lat="62.6631333334" lon="6.31925276918">
		<tag k="name" v="Larselva" />
		<tag k="ssr:stedsnr" v="194932" />
		<tag k="waterway" v="stream" />
	</node>
	<node id="-578380" lat="62.5754888886" lon="6.36953610271">
		<tag k="name" v="Tredjevasselva" />
		<tag k="ssr:stedsnr" v="761973" />
		<tag k="waterway" v="river" />
	</node>
	<node id="-576843" lat="62.6210500014" lon="6.69142221747">
		<tag k="name" v="Eikeelva" />
		<tag k="ssr:stedsnr" v="11453" />
		<tag k="waterway" v="stream" />
	</node>
	<node id="-576330" lat="62.6860694433" lon="6.26835276923">
		<tag k="name" v="Kvalvikelva" />
		<tag k="ssr:stedsnr" v="275404" />
		<tag k="waterway" v="stream" />
	</node>
	<node id="-576325" lat="62.6635805577" lon="6.29505554841">
		<tag k="name" v="Gunnardemma" />
		<tag k="natural" v="water" />
		<tag k="ssr:stedsnr" v="275328" />
	</node>
	<node id="-577348" lat="62.5848138883" lon="6.37645000555">
		<tag k="name" v="Litle Hestevatnet" />
		<tag k="natural" v="water" />
		<tag k="ssr:stedsnr" v="194331" />
	</node>
	<node id="-576321" lat="62.659752777" lon="6.29867222184">
		<tag k="name" v="Sandgotelva" />
		<tag k="ssr:stedsnr" v="275249" />
		<tag k="waterway" v="stream" />
	</node>
	<node id="-578364" lat="62.5312138883" lon="6.61563888703">
		<tag k="name" v="Tennfjordelva" />
		<tag k="ssr:stedsnr" v="761676" />
		<tag k="waterway" v="river" />
	</node>
	<node id="-577339" lat="62.5832833322" lon="6.69332223114">
		<tag k="name" v="Vestrevatna" />
		<tag k="natural" v="water" />
		<tag k="ssr:stedsnr" v="194295" />
	</node>
	<node id="-578362" lat="62.5529527755" lon="6.61151666909">
		<tag k="name" v="Storholmen" />
		<tag k="place" v="islet" />
		<tag k="ssr:stedsnr" v="761637" />
	</node>
	<node id="-577337" lat="62.5621805586" lon="6.58895278708">
		<tag k="name" v="Svartegrova" />
		<tag k="ssr:stedsnr" v="194246" />
		<tag k="waterway" v="stream" />
	</node>
	<node id="-577335" lat="62.5494472253" lon="6.51316110504">
		<tag k="name" v="Geitgrova" />
		<tag k="ssr:stedsnr" v="194232" />
		<tag k="waterway" v="stream" />
	</node>
	<node id="-578526" lat="62.5412916622" lon="6.5223083307">
		<tag k="name" v="Geitgrova" />
		<tag k="ssr:stedsnr" v="823059" />
		<tag k="waterway" v="stream" />
	</node>
	<node id="-577840" lat="62.5766388911" lon="6.47348333617">
		<tag k="name" v="Nyfonna" />
		<tag k="ssr:stedsnr" v="557313" />
		<tag k="waterway" v="stream" />
	</node>
	<node id="-577757" lat="62.5476527762" lon="6.56092778584">
		<tag k="name" v="Skogaelva" />
		<tag k="ssr:stedsnr" v="519536" />
		<tag k="waterway" v="stream" />
	</node>
	<node id="-576562" lat="62.5780027794" lon="6.5498277853">
		<tag k="name" v="Fonna" />
		<tag k="ssr:stedsnr" v="337970" />
		<tag k="waterway" v="stream" />
	</node>
	<node id="-577321" lat="62.5969000009" lon="6.38935555339">
		<tag k="name" v="Alvestadelva" />
		<tag k="ssr:stedsnr" v="193427" />
		<tag k="waterway" v="stream" />
	</node>
	<node id="-578342" lat="62.7092972247" lon="6.39072500294">
		<tag k="name" v="Kvennhuselva" />
		<tag k="ssr:stedsnr" v="760940" />
		<tag k="waterway" v="stream" />
	</node>
	<node id="-577827" lat="62.557166665" lon="6.52714722339">
		<tag k="name" v="Gjølelva" />
		<tag k="ssr:stedsnr" v="557244" />
		<tag k="waterway" v="stream" />
	</node>
	<node id="-578338" lat="62.567783329" lon="6.30206667286">
		<tag k="name" v="Gamlemselva" />
		<tag k="ssr:stedsnr" v="760881" />
		<tag k="waterway" v="stream" />
	</node>
	<node id="-577311" lat="62.5616805598" lon="6.54578889289">
		<tag k="name" v="Litleholmen" />
		<tag k="place" v="islet" />
		<tag k="ssr:stedsnr" v="193264" />
	</node>
	<node id="-577310" lat="62.5587138894" lon="6.47595832579">
		<tag k="name" v="Reitevatnet" />
		<tag k="natural" v="water" />
		<tag k="ssr:stedsnr" v="193261" />
	</node>
	<node id="-576389" lat="62.5509777755" lon="6.47587221819">
		<tag k="name" v="Remmeelva" />
		<tag k="ssr:stedsnr" v="277338" />
		<tag k="waterway" v="stream" />
	</node>
	<node id="-577098" lat="62.5366305585" lon="6.40009443536">
		<tag k="name" v="Holmesetelva" />
		<tag k="ssr:stedsnr" v="95738" />
		<tag k="waterway" v="stream" />
	</node>
	<node id="-576792" lat="62.5944638863" lon="6.68081111674">
		<tag k="name" v="Gåsdalselva" />
		<tag k="ssr:stedsnr" v="884443" />
		<tag k="waterway" v="stream" />
	</node>
	<node id="-578326" lat="62.6605249972" lon="6.19253332481">
		<tag k="name" v="Kvameelva" />
		<tag k="ssr:stedsnr" v="760474" />
		<tag k="waterway" v="stream" />
	</node>
	<node id="-576472" lat="62.5692916681" lon="6.82028333116">
		<tag k="name" v="Mellivatnet" />
		<tag k="natural" v="water" />
		<tag k="ssr:stedsnr" v="315878" />
	</node>
	<node id="-576781" lat="62.5828888924" lon="6.62616389587">
		<tag k="name" v="Demma" />
		<tag k="ssr:stedsnr" v="883990" />
		<tag k="waterway" v="stream" />
	</node>
	<node id="-577666" lat="62.6061083291" lon="6.54321111966">
		<tag k="name" v="Åsevatnet" />
		<tag k="natural" v="water" />
		<tag k="ssr:stedsnr" v="496446" />
	</node>
	<node id="-576775" lat="62.57818333" lon="6.64693054839">
		<tag k="name" v="Veslevatnet" />
		<tag k="natural" v="water" />
		<tag k="ssr:stedsnr" v="883926" />
		<tag k="water" v="lake" />
	</node>
	<node id="-576774" lat="62.6019277776" lon="6.55143054694">
		<tag k="name" v="Klungervatnet" />
		<tag k="natural" v="water" />
		<tag k="ssr:stedsnr" v="883914" />
		<tag k="water" v="lake" />
	</node>
	<node id="-577279" lat="62.5735277778" lon="6.46531389243">
		<tag k="name" v="Bergelva" />
		<tag k="ssr:stedsnr" v="155884" />
		<tag k="waterway" v="stream" />
	</node>
	<node id="-577790" lat="62.5926444437" lon="6.557680556">
		<tag k="name" v="Borgaelva" />
		<tag k="ssr:stedsnr" v="519875" />
		<tag k="waterway" v="stream" />
	</node>
	<node id="-578300" lat="62.551444442" lon="6.32329723016">
		<tag k="name" v="Storelva" />
		<tag k="ssr:stedsnr" v="740254" />
		<tag k="waterway" v="stream" />
	</node>
	<node id="-578298" lat="62.5661944409" lon="6.71915278691">
		<tag k="name" v="Storelva" />
		<tag k="ssr:stedsnr" v="740241" />
		<tag k="waterway" v="river" />
	</node>
	<node id="-576760" lat="62.5652638898" lon="6.71658333108">
		<tag k="name" v="Ivabruhylet" />
		<tag k="place" v="locality" />
		<tag k="ssr:stedsnr" v="883462" />
	</node>
	<node id="-578295" lat="62.5530944438" lon="6.55594999968">
		<tag k="name" v="Sætreelva" />
		<tag k="ssr:stedsnr" v="740213" />
		<tag k="waterway" v="stream" />
	</node>
	<node id="-577266" lat="62.5502527758" lon="6.53659722442">
		<tag k="name" v="Luka" />
		<tag k="natural" v="bay" />
		<tag k="ssr:stedsnr" v="155569" />
	</node>
	<node id="-578282" lat="62.5983861153" lon="6.70415276858">
		<tag k="name" v="Skjerdingelva" />
		<tag k="ssr:stedsnr" v="739376" />
		<tag k="waterway" v="stream" />
	</node>
	<node id="-577257" lat="62.6077083376" lon="6.32681666559">
		<tag k="name" v="Marfallet" />
		<tag k="ssr:stedsnr" v="155625" />
		<tag k="waterway" v="stream" />
	</node>
	<node id="-578792" lat="62.5682916705" lon="6.53286389728">
		<tag k="name" v="Trolldalselva" />
		<tag k="ssr:stedsnr" v="944998" />
		<tag k="waterway" v="stream" />
	</node>
	<node id="-578278" lat="62.5658777783" lon="6.41919166457">
		<tag k="name" v="Igletjørna" />
		<tag k="natural" v="water" />
		<tag k="ssr:stedsnr" v="739292" />
	</node>
	<node id="-578787" lat="62.5728333376" lon="6.53468611457">
		<tag k="name" v="Nakkesvora" />
		<tag k="ssr:stedsnr" v="944969" />
		<tag k="waterway" v="stream" />
	</node>
	<node id="-578786" lat="62.5845666631" lon="6.54614166685">
		<tag k="name" v="Synste Stigsvora" />
		<tag k="ssr:stedsnr" v="944966" />
		<tag k="waterway" v="stream" />
	</node>
	<node id="-576737" lat="62.5425832039" lon="6.29167009996">
		<tag k="name" v="Reiteelva" />
		<tag k="ssr:stedsnr" v="882583" />
		<tag k="waterway" v="river" />
	</node>
	<node id="-578784" lat="62.5845694479" lon="6.55026665941">
		<tag k="name" v="Stigsvorene" />
		<tag k="ssr:stedsnr" v="944900" />
		<tag k="waterway" v="stream" />
	</node>
	<node id="-578271" lat="62.5596944414" lon="6.38368610594">
		<tag k="name" v="Store Grytavatnet" />
		<tag k="natural" v="water" />
		<tag k="ssr:stedsnr" v="739271" />
	</node>
	<node id="-578781" lat="62.6015999987" lon="6.56226944596">
		<tag k="name" v="Klungerelva" />
		<tag k="ssr:stedsnr" v="944869" />
		<tag k="waterway" v="stream" />
	</node>
	<node id="-576726" lat="62.6673861091" lon="6.27871389548">
		<tag k="name" v="Djupefora" />
		<tag k="ssr:stedsnr" v="882328" />
		<tag k="waterway" v="stream" />
	</node>
	<node id="-578772" lat="62.5385722215" lon="6.64163610563">
		<tag k="name" v="Tjønna" />
		<tag k="natural" v="water" />
		<tag k="ssr:stedsnr" v="944726" />
	</node>
	<node id="-576857" lat="62.5487643036" lon="6.29249465066">
		<tag k="name" v="Niklaelva" />
		<tag k="ssr:stedsnr" v="12255" />
		<tag k="waterway" v="stream" />
	</node>
	<node id="-578770" lat="62.5344833373" lon="6.6167499975">
		<tag k="name" v="Sundet" />
		<tag k="natural" v="beach" />
		<tag k="ssr:stedsnr" v="944664" />
	</node>
	<node id="-578252" lat="62.5473722223" lon="6.52588333736">
		<tag k="name" v="Slyngstadelva" />
		<tag k="ssr:stedsnr" v="702054" />
		<tag k="waterway" v="river" />
	</node>
	<node id="-578763" lat="62.5876166668" lon="6.48316111055">
		<tag k="name" v="Ringstadelva" />
		<tag k="ssr:stedsnr" v="944571" />
		<tag k="waterway" v="river" />
	</node>
	<node id="-578761" lat="62.5988749959" lon="6.67556945411">
		<tag k="name" v="Vestreelva" />
		<tag k="ssr:stedsnr" v="944541" />
		<tag k="waterway" v="river" />
	</node>
	<node id="-576635" lat="62.658211109" lon="6.3271222204">
		<tag k="name" v="Larsdemma" />
		<tag k="natural" v="water" />
		<tag k="ssr:stedsnr" v="396602" />
	</node>
	<node id="-578246" lat="62.5799972229" lon="6.54431667526">
		<tag k="name" v="Fonnasvora" />
		<tag k="ssr:stedsnr" v="701973" />
		<tag k="waterway" v="stream" />
	</node>
	<node id="-578757" lat="62.5659333329" lon="6.72295832976">
		<tag k="name" v="Smihylen" />
		<tag k="place" v="locality" />
		<tag k="ssr:stedsnr" v="944480" />
	</node>
	<node id="-578755" lat="62.5504222222" lon="6.4314305597">
		<tag k="name" v="Tindgrovneset" />
		<tag k="natural" v="cape" />
		<tag k="ssr:stedsnr" v="944464" />
	</node>
	<node id="-578416" lat="62.5472500029" lon="6.61013610365">
		<tag k="name" v="Lomstjørna" />
		<tag k="natural" v="water" />
		<tag k="ssr:stedsnr" v="800200" />
	</node>
	<node id="-577482" lat="62.5838777802" lon="6.54864999047">
		<tag k="name" v="Stigelva" />
		<tag k="ssr:stedsnr" v="254308" />
		<tag k="waterway" v="stream" />
	</node>
	<node id="-578744" lat="62.5733222258" lon="6.59748332434">
		<tag k="name" v="Isbergfonna" />
		<tag k="ssr:stedsnr" v="944812" />
		<tag k="waterway" v="stream" />
	</node>
	<node id="-578231" lat="62.594561113" lon="6.57108610347">
		<tag k="name" v="Borgaelva" />
		<tag k="ssr:stedsnr" v="701769" />
		<tag k="waterway" v="stream" />
	</node>
	<node id="-578230" lat="62.5393972257" lon="6.63125833572">
		<tag k="name" v="Demma" />
		<tag k="natural" v="water" />
		<tag k="ssr:stedsnr" v="701742" />
	</node>
	<node id="-578229" lat="62.5700944435" lon="6.78454999526">
		<tag k="name" v="Brenthaugelva" />
		<tag k="ssr:stedsnr" v="701738" />
		<tag k="waterway" v="stream" />
	</node>
	<node id="-578740" lat="62.5426194418" lon="6.52446666049">
		<tag k="name" v="Kvitla" />
		<tag k="ssr:stedsnr" v="944049" />
		<tag k="waterway" v="stream" />
	</node>
	<node id="-577199" lat="62.6603777802" lon="6.34417223044">
		<tag k="name" v="Sessåna" />
		<tag k="ssr:stedsnr" v="153645" />
		<tag k="waterway" v="stream" />
	</node>
	<node id="-578222" lat="62.5423388864" lon="6.5787527801">
		<tag k="name" v="Krokelva" />
		<tag k="ssr:stedsnr" v="701650" />
		<tag k="waterway" v="stream" />
	</node>
	<node id="-577053" lat="62.5917777754" lon="6.29486945178">
		<tag k="name" v="Kvennhuselva" />
		<tag k="ssr:stedsnr" v="93921" />
		<tag k="waterway" v="stream" />
	</node>
	<node id="-578219" lat="62.5502555592" lon="6.62176945227">
		<tag k="name" v="Tunga" />
		<tag k="natural" v="cape" />
		<tag k="ssr:stedsnr" v="701617" />
	</node>
	<node id="-578729" lat="62.5909333327" lon="6.28538332751">
		<tag k="name" v="Skjelteelva" />
		<tag k="ssr:stedsnr" v="943476" />
		<tag k="waterway" v="stream" />
	</node>
	<node id="-576678" lat="62.5836194484" lon="6.58153888281">
		<tag k="name" v="Olagardselva" />
		<tag k="ssr:stedsnr" v="397918" />
		<tag k="waterway" v="stream" />
	</node>
	<node id="-577189" lat="62.6689694429" lon="6.2841277857">
		<tag k="name" v="Bakkedemma" />
		<tag k="natural" v="water" />
		<tag k="ssr:stedsnr" v="133980" />
	</node>
	<node id="-577700" lat="62.5752666633" lon="6.7280138881">
		<tag k="name" v="Bergelva" />
		<tag k="ssr:stedsnr" v="497892" />
		<tag k="waterway" v="stream" />
	</node>
	<node id="-578758" lat="62.5776166692" lon="6.70588610649">
		<tag k="name" v="Dyrelva" />
		<tag k="ssr:stedsnr" v="944513" />
		<tag k="waterway" v="stream" />
	</node>
	<node id="-577369" lat="62.6785333313" lon="6.27813055665">
		<tag k="name" v="Flemsdemma" />
		<tag k="natural" v="water" />
		<tag k="ssr:stedsnr" v="194998" />
	</node>
	<node id="-578207" lat="62.5944916628" lon="6.40051110981">
		<tag k="name" v="Hestetjønnene" />
		<tag k="natural" v="water" />
		<tag k="ssr:stedsnr" v="701339" />
	</node>
	<node id="-577174" lat="62.6611277772" lon="6.20829165707">
		<tag k="name" v="Fjellvatnet" />
		<tag k="natural" v="water" />
		<tag k="ssr:stedsnr" v="133683" />
	</node>
	<node id="-577761" lat="62.6032833299" lon="6.47343611666">
		<tag k="name" v="Vikeelva" />
		<tag k="ssr:stedsnr" v="519555" />
		<tag k="waterway" v="stream" />
	</node>
	<node id="-578193" lat="62.6810250022" lon="6.28191111773">
		<tag k="name" v="Bergedalselva" />
		<tag k="ssr:stedsnr" v="700451" />
		<tag k="waterway" v="stream" />
	</node>
	<node id="-577163" lat="62.5906305583" lon="6.40533055173">
		<tag k="name" v="Store Hestevatnet" />
		<tag k="natural" v="water" />
		<tag k="ssr:stedsnr" v="133336" />
		<tag k="water" v="lake" />
	</node>
	<node id="-577159" lat="62.5784888922" lon="6.31202222127">
		<tag k="name" v="Vetevatnet" />
		<tag k="natural" v="water" />
		<tag k="ssr:stedsnr" v="133313" />
	</node>
	<node id="-576449" lat="62.5806305551" lon="6.54120555834">
		<tag k="name" v="Fannelva" />
		<tag k="ssr:stedsnr" v="315293" />
		<tag k="waterway" v="stream" />
	</node>
	<node id="-577154" lat="62.578338891" lon="6.64391667382">
		<tag k="name" v="Hovsetvatna" />
		<tag k="natural" v="water" />
		<tag k="ssr:stedsnr" v="133285" />
	</node>
	<node id="-577665" lat="62.5998361112" lon="6.40907222851">
		<tag k="name" v="Sætrevatnet" />
		<tag k="natural" v="water" />
		<tag k="ssr:stedsnr" v="496438" />
	</node>
	<node id="-577661" lat="62.5694027819" lon="6.3422805647">
		<tag k="name" v="Søvikvatnet" />
		<tag k="natural" v="water" />
		<tag k="ssr:stedsnr" v="496316" />
		<tag k="water" v="lake" />
	</node>
	<node id="-577659" lat="62.5656527776" lon="6.48130554916">
		<tag k="name" v="Stornakkelva" />
		<tag k="ssr:stedsnr" v="496290" />
		<tag k="waterway" v="stream" />
	</node>
	<node id="-577650" lat="62.5858833373" lon="6.54663056085">
		<tag k="name" v="Nørste Stigsvora" />
		<tag k="ssr:stedsnr" v="459973" />
		<tag k="waterway" v="stream" />
	</node>
	<node id="-576625" lat="62.6805111136" lon="6.18930833511">
		<tag k="name" v="Ullaelva" />
		<tag k="ssr:stedsnr" v="396300" />
		<tag k="waterway" v="stream" />
	</node>
	<node id="-577314" lat="62.5725555574" lon="6.66909722039">
		<tag k="name" v="Ulvestadvatnet" />
		<tag k="natural" v="water" />
		<tag k="ssr:stedsnr" v="193286" />
		<tag k="water" v="lake" />
	</node>
	<node id="-577130" lat="62.604305558" lon="6.68194444367">
		<tag k="name" v="Djupedalselva" />
		<tag k="ssr:stedsnr" v="132367" />
		<tag k="waterway" v="stream" />
	</node>
	<node id="-577433" lat="62.5908805596" lon="6.63336110462">
		<tag k="name" v="Litleelva" />
		<tag k="ssr:stedsnr" v="216858" />
		<tag k="waterway" v="stream" />
	</node>
	<node id="-578148" lat="62.5616972221" lon="6.47408889024">
		<tag k="name" v="Stølevatnet" />
		<tag k="natural" v="water" />
		<tag k="ssr:stedsnr" v="679244" />
	</node>
	<node id="-578141" lat="62.5530555552" lon="6.43349721766">
		<tag k="name" v="Gjersetvatnet" />
		<tag k="natural" v="water" />
		<tag k="ssr:stedsnr" v="679220" />
		<tag k="water" v="lake" />
	</node>
	<node id="-576600" lat="62.6122388928" lon="6.56369999745">
		<tag k="name" v="Ryggelva" />
		<tag k="ssr:stedsnr" v="375373" />
		<tag k="waterway" v="stream" />
	</node>
	<node id="-577617" lat="62.5331499974" lon="6.59582223127">
		<tag k="name" v="Tennfjordelva" />
		<tag k="ssr:stedsnr" v="458701" />
		<tag k="waterway" v="river" />
	</node>
	<node id="-578639" lat="62.5692166678" lon="6.55922221384">
		<tag k="name" v="Vågsvatnet" />
		<tag k="natural" v="water" />
		<tag k="ssr:stedsnr" v="921315" />
	</node>
	<node id="-578126" lat="62.5725250015" lon="6.47392777418">
		<tag k="name" v="Bjørlykksvora" />
		<tag k="ssr:stedsnr" v="678331" />
		<tag k="waterway" v="stream" />
	</node>
	<node id="-578125" lat="62.5695583334" lon="6.5463833305">
		<tag k="name" v="Fannevatnet" />
		<tag k="natural" v="water" />
		<tag k="ssr:stedsnr" v="678319" />
		<tag k="water" v="lake" />
	</node>
	<node id="-577100" lat="62.5854361131" lon="6.45207222058">
		<tag k="name" v="Ramsvikelva" />
		<tag k="ssr:stedsnr" v="95880" />
		<tag k="waterway" v="stream" />
	</node>
	<node id="-578635" lat="62.5483972193" lon="6.53252500009">
		<tag k="name" v="Litlevatnet" />
		<tag k="natural" v="water" />
		<tag k="ssr:stedsnr" v="921251" />
	</node>
	<node id="-576586" lat="62.5624861138" lon="6.41841667051">
		<tag k="name" v="Botnaelva" />
		<tag k="ssr:stedsnr" v="375237" />
		<tag k="waterway" v="stream" />
	</node>
	<node id="-576585" lat="62.5594916659" lon="6.54287499746">
		<tag k="name" v="Storholmen" />
		<tag k="place" v="islet" />
		<tag k="ssr:stedsnr" v="375232" />
	</node>
	<node id="-577096" lat="62.6032138884" lon="6.34453332664">
		<tag k="name" v="Årøyane" />
		<tag k="place" v="island" />
		<tag k="ssr:stedsnr" v="95568" />
	</node>
	<node id="-577093" lat="62.6031194464" lon="6.43949445177">
		<tag k="name" v="Synnalandselva" />
		<tag k="ssr:stedsnr" v="95472" />
		<tag k="waterway" v="river" />
	</node>
	<node id="-577089" lat="62.5479472236" lon="6.52769999055">
		<tag k="name" v="Litlevassosen" />
		<tag k="natural" v="bay" />
		<tag k="ssr:stedsnr" v="95524" />
	</node>
	<node id="-578112" lat="62.5779222215" lon="6.62517500781">
		<tag k="name" v="Røstegroelva" />
		<tag k="ssr:stedsnr" v="640996" />
		<tag k="waterway" v="stream" />
	</node>
	<node id="-576693" lat="62.5636166709" lon="6.43235554728">
		<tag k="name" v="Gjersetelva" />
		<tag k="ssr:stedsnr" v="398345" />
		<tag k="waterway" v="river" />
	</node>
	<node id="-578107" lat="62.5808111093" lon="6.55713054663">
		<tag k="name" v="Fanneosen" />
		<tag k="natural" v="bay" />
		<tag k="ssr:stedsnr" v="640886" />
	</node>
	<node id="-578106" lat="62.5921111116" lon="6.66898611414">
		<tag k="name" v="Myrelva" />
		<tag k="ssr:stedsnr" v="640857" />
		<tag k="waterway" v="stream" />
	</node>
	<node id="-576565" lat="62.5692416662" lon="6.62426944412">
		<tag k="name" v="Vikaelva" />
		<tag k="ssr:stedsnr" v="337985" />
		<tag k="waterway" v="stream" />
	</node>
	<node id="-578611" lat="62.7112527769" lon="6.40129444473">
		<tag k="name" v="Storedemma" />
		<tag k="natural" v="water" />
		<tag k="ssr:stedsnr" v="861813" />
	</node>
	<node id="-577074" lat="62.5335861083" lon="6.59862778375">
		<tag k="name" v="Laksehølen" />
		<tag k="place" v="locality" />
		<tag k="ssr:stedsnr" v="94687" />
	</node>
	<node id="-578096" lat="62.6018611132" lon="6.31527777984">
		<tag k="name" v="Kvennhuselva" />
		<tag k="ssr:stedsnr" v="640658" />
		<tag k="waterway" v="stream" />
	</node>
	<node id="-576520" lat="62.6108333296" lon="6.56198055907">
		<tag k="name" v="Båselva" />
		<tag k="ssr:stedsnr" v="337391" />
		<tag k="waterway" v="stream" />
	</node>
	<node id="-578094" lat="62.5422916632" lon="6.30220833266">
		<tag k="name" v="Reiteelva" />
		<tag k="ssr:stedsnr" v="640634" />
		<tag k="waterway" v="river" />
	</node>
	<node id="-576374" lat="62.5694027806" lon="6.59688888936">
		<tag k="name" v="Storfonna" />
		<tag k="ssr:stedsnr" v="276856" />
		<tag k="waterway" v="stream" />
	</node>
	<node id="-577063" lat="62.6231305548" lon="6.71059999904">
		<tag k="name" v="Breiskarelva" />
		<tag k="ssr:stedsnr" v="94458" />
		<tag k="waterway" v="stream" />
	</node>
	<node id="-577574" lat="62.5602194413" lon="6.28646944916">
		<tag k="name" v="Lånaelva" />
		<tag k="ssr:stedsnr" v="457264" />
		<tag k="waterway" v="stream" />
	</node>
	<node id="-578594" lat="62.6085611128" lon="6.54027777413">
		<tag k="name" v="Skoravatnet" />
		<tag k="natural" v="water" />
		<tag k="ssr:stedsnr" v="861381" />
	</node>
	<node id="-576545" lat="62.5319944448" lon="6.61363332702">
		<tag k="name" v="Vadsetvadet" />
		<tag k="natural" v="shoal" />
		<tag k="place" v="locality" />
		<tag k="ssr:stedsnr" v="337628" />
	</node>
	<node id="-577565" lat="62.5594194411" lon="6.53820833009">
		<tag k="name" v="Langeneset" />
		<tag k="natural" v="cape" />
		<tag k="ssr:stedsnr" v="437269" />
	</node>
	<node id="-578588" lat="62.5784694435" lon="6.40470278602">
		<tag k="name" v="Ryssdalstjørna" />
		<tag k="natural" v="water" />
		<tag k="ssr:stedsnr" v="861308" />
	</node>
	<node id="-576539" lat="62.5499638886" lon="6.62706945174">
		<tag k="name" v="Litleholmen" />
		<tag k="place" v="islet" />
		<tag k="ssr:stedsnr" v="337582" />
	</node>
	<node id="-578586" lat="62.5659611093" lon="6.33365278344">
		<tag k="name" v="Litlevatnet" />
		<tag k="natural" v="water" />
		<tag k="ssr:stedsnr" v="861295" />
	</node>
	<node id="-577610" lat="62.5672416683" lon="6.72154723028">
		<tag k="name" v="Jakopgarden" />
		<tag k="ssr:stedsnr" v="458518" />
		<tag k="waterway" v="river" />
	</node>
	<node id="-578581" lat="62.5651194466" lon="6.53709445025">
		<tag k="name" v="Sætra" />
		<tag k="natural" v="cape" />
		<tag k="ssr:stedsnr" v="861253" />
	</node>
	<node id="-578572" lat="62.5623666682" lon="6.55141667149">
		<tag k="name" v="Slyngstadvatnet" />
		<tag k="natural" v="water" />
		<tag k="ssr:stedsnr" v="861204" />
		<tag k="water" v="lake" />
	</node>
	<node id="-577546" lat="62.5873083301" lon="6.34397222062">
		<tag k="name" v="Hildreelva" />
		<tag k="ssr:stedsnr" v="436376" />
		<tag k="waterway" v="river" />
	</node>
	<node id="-577032" lat="62.6845611087" lon="6.24808611504">
		<tag k="name" v="Mjølkegrova" />
		<tag k="ssr:stedsnr" v="93322" />
		<tag k="waterway" v="stream" />
	</node>
	<node id="-577031" lat="62.69250556" lon="6.23968333657">
		<tag k="name" v="Storetjønna" />
		<tag k="natural" v="water" />
		<tag k="ssr:stedsnr" v="93319" />
	</node>
	<node id="-576854" lat="62.5521666667" lon="6.62625555958">
		<tag k="name" v="Vatnevatnet" />
		<tag k="natural" v="water" />
		<tag k="ssr:stedsnr" v="12225" />
		<tag k="water" v="lake" />
	</node>
	<node id="-576514" lat="62.5969000018" lon="6.32897777195">
		<tag k="name" v="Grova" />
		<tag k="ssr:stedsnr" v="337270" />
		<tag k="waterway" v="stream" />
	</node>
	<node id="-577537" lat="62.5662111154" lon="6.28471110359">
		<tag k="name" v="Gamlemselva" />
		<tag k="ssr:stedsnr" v="436288" />
		<tag k="waterway" v="stream" />
	</node>
</osm>
