<?xml version="1.0" encoding="UTF-8"?>
<osm generator="osmapis" version="0.6">
	<node id="-577535" lat="62.5760416686" lon="6.63066388704">
		<tag k="name" v="Hovsetura" />
		<tag k="natural" v="scree" />
		<tag k="ssr:stedsnr" v="436273" />
	</node>
	<node id="-576509" lat="62.7084111104" lon="6.38618054906">
		<tag k="name" v="Moldmyrane" />
		<tag k="natural" v="wetland" />
		<tag k="ssr:stedsnr" v="336950" />
	</node>
	<node id="-578551" lat="62.5823638912" lon="6.63183611294">
		<tag k="name" v="Skitdepelsteinen" />
		<tag k="natural" v="stone" />
		<tag k="ssr:stedsnr" v="823934" />
	</node>
	<node id="-578550" lat="62.5779861138" lon="6.46913056138">
		<tag k="historic" v="shieling" />
		<tag k="name" v="Fagrevollen" />
		<tag k="place" v="locality" />
		<tag k="ssr:stedsnr" v="823873" />
	</node>
	<node id="-578548" lat="62.5824083379" lon="6.56443611593">
		<tag k="name" v="Fonnalaup" />
		<tag k="place" v="locality" />
		<tag k="ssr:stedsnr" v="823862" />
	</node>
	<node id="-576497" lat="62.6266777808" lon="6.16343888288">
		<tag k="name" v="Kvitmyra" />
		<tag k="natural" v="wetland" />
		<tag k="ssr:stedsnr" v="335931" />
	</node>
	<node id="-578542" lat="62.5605611138" lon="6.5313972124">
		<tag k="name" v="Borgstova" />
		<tag k="natural" v="stone" />
		<tag k="ssr:stedsnr" v="823559" />
	</node>
	<node id="-576486" lat="62.6377861129" lon="6.2413388974">
		<tag k="name" v="Myskjagjerda" />
		<tag k="place" v="locality" />
		<tag k="ssr:stedsnr" v="335597" />
	</node>
	<node id="-576995" lat="62.6373361101" lon="6.24832778515">
		<tag k="name" v="Myskjaurane" />
		<tag k="natural" v="scree" />
		<tag k="ssr:stedsnr" v="72449" />
	</node>
	<node id="-578018" lat="62.6449555552" lon="6.35099166877">
		<tag k="name" v="Jaktøyra" />
		<tag k="place" v="locality" />
		<tag k="ssr:stedsnr" v="618475" />
	</node>
	<node id="-578529" lat="62.5580527764" lon="6.7330083261">
		<tag k="name" v="Langemyra" />
		<tag k="natural" v="wetland" />
		<tag k="ssr:stedsnr" v="823314" />
	</node>
	<node id="-578527" lat="62.5391499998" lon="6.49606667297">
		<tag k="name" v="Hagemyrane" />
		<tag k="natural" v="wetland" />
		<tag k="ssr:stedsnr" v="823155" />
	</node>
	<node id="-576989" lat="62.58175278" lon="6.26963889552">
		<tag k="name" v="Gamlemsmyrane" />
		<tag k="natural" v="wetland" />
		<tag k="ssr:stedsnr" v="72350" />
	</node>
	<node id="-578521" lat="62.591372226" lon="6.63611666912">
		<tag k="name" v="Trappesteinane" />
		<tag k="natural" v="stone" />
		<tag k="ssr:stedsnr" v="822889" />
	</node>
	<node id="-578520" lat="62.5937138899" lon="6.65128610478">
		<tag k="name" v="Heiasteinen" />
		<tag k="natural" v="stone" />
		<tag k="ssr:stedsnr" v="822886" />
	</node>
	<node id="-576462" lat="62.6471583368" lon="6.35056111611">
		<tag k="name" v="Langøyra" />
		<tag k="place" v="locality" />
		<tag k="ssr:stedsnr" v="315469" />
	</node>
	<node id="-576455" lat="62.5855194412" lon="6.33636111639">
		<tag k="name" v="Uraskogen" />
		<tag k="place" v="locality" />
		<tag k="ssr:stedsnr" v="315344" />
	</node>
	<node id="-577472" lat="62.5518805556" lon="6.37176388983">
		<tag k="name" v="Tverrbotsskogen" />
		<tag k="place" v="locality" />
		<tag k="ssr:stedsnr" v="254233" />
	</node>
	<node id="-576444" lat="62.5469361126" lon="6.37587777689">
		<tag k="name" v="Myra" />
		<tag k="natural" v="wetland" />
		<tag k="ssr:stedsnr" v="315234" />
	</node>
	<node id="-578489" lat="62.6374611095" lon="6.25661943944">
		<tag k="name" v="Litlemyra" />
		<tag k="natural" v="wetland" />
		<tag k="ssr:stedsnr" v="821585" />
	</node>
	<node id="-578036" lat="62.6953250035" lon="6.41710278328">
		<tag k="name" v="Dysvikmyra" />
		<tag k="natural" v="wetland" />
		<tag k="ssr:stedsnr" v="618889" />
	</node>
	<node id="-578470" lat="62.6833000003" lon="6.23436388346">
		<tag k="name" v="Øyrane" />
		<tag k="place" v="locality" />
		<tag k="ssr:stedsnr" v="801860" />
	</node>
	<node id="-577442" lat="62.5847111072" lon="6.62633610216">
		<tag k="name" v="Bergåkerattelega" />
		<tag k="place" v="locality" />
		<tag k="ssr:stedsnr" v="216965" />
	</node>
	<node id="-577441" lat="62.5860833309" lon="6.62634165844">
		<tag k="historic" v="shieling" />
		<tag k="name" v="Stølane" />
		<tag k="place" v="locality" />
		<tag k="ssr:stedsnr" v="216963" />
	</node>
	<node id="-577952" lat="62.5635500018" lon="6.51235278193">
		<tag k="name" v="Steingarden" />
		<tag k="natural" v="stone" />
		<tag k="ssr:stedsnr" v="580516" />
	</node>
	<node id="-577948" lat="62.5901388857" lon="6.68871943627">
		<tag k="name" v="Myrbærholtet" />
		<tag k="natural" v="wetland" />
		<tag k="ssr:stedsnr" v="580441" />
	</node>
	<node id="-576407" lat="62.5753388916" lon="6.44417499453">
		<tag k="name" v="Håvikdemma" />
		<tag k="natural" v="wetland" />
		<tag k="ssr:stedsnr" v="277900" />
	</node>
	<node id="-576917" lat="62.6013805554" lon="6.6350250082">
		<tag k="name" v="Orvikmyrane" />
		<tag k="natural" v="wetland" />
		<tag k="ssr:stedsnr" v="33864" />
	</node>
	<node id="-577936" lat="62.5441666669" lon="6.52598889069">
		<tag k="name" v="Vilamgjerde" />
		<tag k="place" v="locality" />
		<tag k="ssr:stedsnr" v="580009" />
	</node>
	<node id="-577421" lat="62.5354583311" lon="6.57356111277">
		<tag k="name" v="Skarvesteinane" />
		<tag k="natural" v="stone" />
		<tag k="ssr:stedsnr" v="216578" />
	</node>
	<node id="-577932" lat="62.582686111" lon="6.62954443563">
		<tag k="name" v="Tverbytet" />
		<tag k="place" v="locality" />
		<tag k="ssr:stedsnr" v="579968" />
	</node>
	<node id="-576392" lat="62.5896416635" lon="6.69927777627">
		<tag k="name" v="Storkvernhuset" />
		<tag k="natural" v="stone" />
		<tag k="ssr:stedsnr" v="277448" />
	</node>
	<node id="-576390" lat="62.6198277778" lon="6.60175832608">
		<tag k="name" v="Teistura" />
		<tag k="natural" v="scree" />
		<tag k="ssr:stedsnr" v="277344" />
	</node>
	<node id="-576901" lat="62.594622221" lon="6.30997777963">
		<tag k="name" v="Risnesskogen" />
		<tag k="place" v="locality" />
		<tag k="ssr:stedsnr" v="33293" />
	</node>
	<node id="-576896" lat="62.5857111106" lon="6.27894167464">
		<tag k="name" v="Skjeltemyrane" />
		<tag k="natural" v="wetland" />
		<tag k="ssr:stedsnr" v="32900" />
	</node>
	<node id="-577406" lat="62.5604416654" lon="6.68445277634">
		<tag k="name" v="Gamlesætermyra" />
		<tag k="natural" v="wetland" />
		<tag k="ssr:stedsnr" v="216326" />
	</node>
	<node id="-576381" lat="62.5261694433" lon="6.53904722845">
		<tag k="name" v="Kallskarsteinen" />
		<tag k="natural" v="stone" />
		<tag k="ssr:stedsnr" v="277003" />
	</node>
	<node id="-577404" lat="62.6317194484" lon="6.66399443837">
		<tag k="name" v="Eikenesmyrane" />
		<tag k="natural" v="wetland" />
		<tag k="ssr:stedsnr" v="216318" />
	</node>
	<node id="-577915" lat="62.6290166682" lon="6.68112778063">
		<tag k="name" v="Dyrsteinen" />
		<tag k="natural" v="stone" />
		<tag k="ssr:stedsnr" v="579430" />
	</node>
	<node id="-577914" lat="62.6342888886" lon="6.67389166453">
		<tag k="name" v="Altaret" />
		<tag k="natural" v="stone" />
		<tag k="ssr:stedsnr" v="579384" />
	</node>
	<node id="-576377" lat="62.6152361111" lon="6.51586943895">
		<tag k="name" v="Kryparsteinane" />
		<tag k="natural" v="stone" />
		<tag k="ssr:stedsnr" v="276886" />
	</node>
	<node id="-577912" lat="62.6044611146" lon="6.38933332685">
		<tag k="name" v="Lysholen" />
		<tag k="natural" v="wetland" />
		<tag k="ssr:stedsnr" v="579274" />
	</node>
	<node id="-577394" lat="62.6056166708" lon="6.31737499262">
		<tag k="name" v="Skarvesteinen" />
		<tag k="natural" v="stone" />
		<tag k="ssr:stedsnr" v="216611" />
	</node>
	<node id="-577904" lat="62.631019448" lon="6.1672555473">
		<tag k="historic" v="shieling" />
		<tag k="name" v="Stølen" />
		<tag k="place" v="locality" />
		<tag k="ssr:stedsnr" v="578909" />
	</node>
	<node id="-576367" lat="62.5319527786" lon="6.58486388318">
		<tag k="name" v="Øyrane" />
		<tag k="place" v="locality" />
		<tag k="ssr:stedsnr" v="276717" />
	</node>
	<node id="-577902" lat="62.5750749975" lon="6.27551666282">
		<tag k="name" v="Djuviksøylå" />
		<tag k="natural" v="wetland" />
		<tag k="ssr:stedsnr" v="578877" />
	</node>
	<node id="-577388" lat="62.5939666643" lon="6.31583055617">
		<tag k="name" v="Dalssteinen" />
		<tag k="natural" v="stone" />
		<tag k="ssr:stedsnr" v="215309" />
	</node>
	<node id="-576357" lat="62.6164138883" lon="6.6680444444">
		<tag k="name" v="Myra" />
		<tag k="natural" v="wetland" />
		<tag k="ssr:stedsnr" v="276565" />
	</node>
	<node id="-577380" lat="62.6409638923" lon="6.2408111015">
		<tag k="name" v="Grøneskreda" />
		<tag k="natural" v="scree" />
		<tag k="ssr:stedsnr" v="214594" />
	</node>
	<node id="-578399" lat="62.5674027742" lon="6.53792499639">
		<tag k="name" v="Vortesteinen" />
		<tag k="natural" v="stone" />
		<tag k="ssr:stedsnr" v="762531" />
	</node>
	<node id="-578397" lat="62.6029944432" lon="6.43624166058">
		<tag k="historic" v="shieling" />
		<tag k="name" v="Jonsokvollen" />
		<tag k="place" v="locality" />
		<tag k="ssr:stedsnr" v="762504" />
	</node>
	<node id="-576345" lat="62.7018652924" lon="6.36922179965">
		<tag k="historic" v="shieling" />
		<tag k="name" v="Stølane" />
		<tag k="place" v="locality" />
		<tag k="ssr:stedsnr" v="275938" />
	</node>
	<node id="-576855" lat="62.5502444434" lon="6.55167222915">
		<tag k="name" v="Stormyra" />
		<tag k="natural" v="wetland" />
		<tag k="ssr:stedsnr" v="12227" />
	</node>
	<node id="-577361" lat="62.7014194484" lon="6.39021110372">
		<tag k="name" v="Bløtane" />
		<tag k="natural" v="wetland" />
		<tag k="ssr:stedsnr" v="194921" />
	</node>
	<node id="-576336" lat="62.6375166679" lon="6.25439721451">
		<tag k="name" v="Stormyra" />
		<tag k="natural" v="wetland" />
		<tag k="ssr:stedsnr" v="275558" />
	</node>
	<node id="-577867" lat="62.7039500037" lon="6.33798610354">
		<tag k="name" v="Søgardsmyrane" />
		<tag k="natural" v="wetland" />
		<tag k="ssr:stedsnr" v="557913" />
	</node>
	<node id="-578376" lat="62.5931250043" lon="6.64798610776">
		<tag k="name" v="Høgeskogane" />
		<tag k="place" v="locality" />
		<tag k="ssr:stedsnr" v="761884" />
	</node>
	<node id="-578369" lat="62.5265111139" lon="6.55383055025">
		<tag k="name" v="Sildegarnsteinen" />
		<tag k="natural" v="stone" />
		<tag k="ssr:stedsnr" v="761727" />
	</node>
	<node id="-577760" lat="62.5662972206" lon="6.59756945191">
		<tag k="name" v="Grøtura" />
		<tag k="natural" v="scree" />
		<tag k="ssr:stedsnr" v="519551" />
	</node>
	<node id="-577854" lat="62.6467583338" lon="6.34792222418">
		<tag k="name" v="Kråkøyra" />
		<tag k="place" v="locality" />
		<tag k="ssr:stedsnr" v="557459" />
	</node>
	<node id="-578357" lat="62.5528500018" lon="6.66040278282">
		<tag k="name" v="Myrane" />
		<tag k="natural" v="wetland" />
		<tag k="ssr:stedsnr" v="761554" />
	</node>
	<node id="-576826" lat="62.5399444444" lon="6.4546750038">
		<tag k="name" v="Langemyra" />
		<tag k="natural" v="wetland" />
		<tag k="ssr:stedsnr" v="11242" />
	</node>
	<node id="-577333" lat="62.5380500035" lon="6.28679166055">
		<tag k="name" v="Langemyra" />
		<tag k="natural" v="wetland" />
		<tag k="ssr:stedsnr" v="194211" />
	</node>
	<node id="-578355" lat="62.6219166645" lon="6.70537222531">
		<tag k="name" v="Myrane" />
		<tag k="natural" v="wetland" />
		<tag k="ssr:stedsnr" v="761524" />
	</node>
	<node id="-578351" lat="62.6344666707" lon="6.67023055026">
		<tag k="name" v="Stova" />
		<tag k="natural" v="stone" />
		<tag k="ssr:stedsnr" v="761408" />
	</node>
	<node id="-578350" lat="62.5926083325" lon="6.31753333369">
		<tag k="name" v="Dalsskogen" />
		<tag k="place" v="locality" />
		<tag k="ssr:stedsnr" v="761308" />
	</node>
	<node id="-577612" lat="62.6214388855" lon="6.66775833623">
		<tag k="name" v="Gjerdet" />
		<tag k="place" v="locality" />
		<tag k="ssr:stedsnr" v="458544" />
	</node>
	<node id="-578347" lat="62.6218333368" lon="6.6616499906">
		<tag k="name" v="Notavollen" />
		<tag k="place" v="locality" />
		<tag k="ssr:stedsnr" v="761033" />
	</node>
	<node id="-578341" lat="62.6300416664" lon="6.15243888089">
		<tag k="name" v="Storhaugmyrane" />
		<tag k="natural" v="wetland" />
		<tag k="ssr:stedsnr" v="760912" />
	</node>
	<node id="-578340" lat="62.6676111128" lon="6.32433888567">
		<tag k="name" v="Storura" />
		<tag k="natural" v="scree" />
		<tag k="ssr:stedsnr" v="760897" />
	</node>
	<node id="-578339" lat="62.5837527794" lon="6.28026945304">
		<tag k="name" v="Merramyra" />
		<tag k="natural" v="wetland" />
		<tag k="ssr:stedsnr" v="760892" />
	</node>
	<node id="-577825" lat="62.5467416639" lon="6.41363332728">
		<tag k="name" v="Gamletorvet" />
		<tag k="natural" v="wetland" />
		<tag k="ssr:stedsnr" v="557230" />
	</node>
	<node id="-578333" lat="62.6285583345" lon="6.19008611267">
		<tag k="name" v="Gauken" />
		<tag k="place" v="locality" />
		<tag k="ssr:stedsnr" v="760682" />
	</node>
	<node id="-576787" lat="62.6275388879" lon="6.59595834119">
		<tag k="landuse" v="peat_cutting" />
		<tag k="name" v="Torvhola" />
		<tag k="ssr:stedsnr" v="884340" />
	</node>
	<node id="-576785" lat="62.5410583299" lon="6.52780278547">
		<tag k="name" v="Øyra" />
		<tag k="place" v="locality" />
		<tag k="ssr:stedsnr" v="884067" />
	</node>
	<node id="-576782" lat="62.5744055565" lon="6.6272666722">
		<tag k="name" v="Seljefonna" />
		<tag k="place" v="locality" />
		<tag k="ssr:stedsnr" v="883998" />
	</node>
	<node id="-576777" lat="62.5839055538" lon="6.62972499504">
		<tag k="name" v="Ingaren" />
		<tag k="natural" v="wetland" />
		<tag k="ssr:stedsnr" v="883976" />
	</node>
	<node id="-577800" lat="62.5719861149" lon="6.52558889229">
		<tag k="name" v="Breiskarura" />
		<tag k="natural" v="scree" />
		<tag k="ssr:stedsnr" v="519993" />
	</node>
	<node id="-577789" lat="62.5944611154" lon="6.63777222251">
		<tag k="name" v="Vedateigen" />
		<tag k="place" v="locality" />
		<tag k="ssr:stedsnr" v="519858" />
	</node>
	<node id="-576761" lat="62.6217027783" lon="6.68925556101">
		<tag k="name" v="Sollikroken" />
		<tag k="place" v="locality" />
		<tag k="ssr:stedsnr" v="883491" />
	</node>
	<node id="-576552" lat="62.5744000002" lon="6.59495555784">
		<tag k="name" v="Løsteinen" />
		<tag k="natural" v="stone" />
		<tag k="ssr:stedsnr" v="337817" />
	</node>
	<node id="-577768" lat="62.5522527779" lon="6.5283888839">
		<tag k="name" v="Stormyra" />
		<tag k="natural" v="wetland" />
		<tag k="ssr:stedsnr" v="519610" />
	</node>
	<node id="-578791" lat="62.577983335" lon="6.62990278591">
		<tag k="name" v="Røstegroura" />
		<tag k="natural" v="scree" />
		<tag k="ssr:stedsnr" v="944990" />
	</node>
	<node id="-577254" lat="62.5499833293" lon="6.56417500123">
		<tag k="name" v="Skogademma" />
		<tag k="natural" v="wetland" />
		<tag k="ssr:stedsnr" v="155490" />
	</node>
	<node id="-578272" lat="62.5550222201" lon="6.27644999372">
		<tag k="name" v="Hagane" />
		<tag k="place" v="locality" />
		<tag k="ssr:stedsnr" v="739270" />
	</node>
	<node id="-576890" lat="62.6145083294" lon="6.21460556219">
		<tag k="name" v="Myrane" />
		<tag k="natural" v="wetland" />
		<tag k="ssr:stedsnr" v="32693" />
	</node>
	<node id="-577240" lat="62.5603138913" lon="6.68715277736">
		<tag k="name" v="Orøyane" />
		<tag k="place" v="locality" />
		<tag k="ssr:stedsnr" v="155344" />
	</node>
	<node id="-577237" lat="62.5974083357" lon="6.36542499435">
		<tag k="name" v="Rambjørsrøysa" />
		<tag k="natural" v="scree" />
		<tag k="ssr:stedsnr" v="155270" />
	</node>
	<node id="-577742" lat="62.5431222258" lon="6.54563610467">
		<tag k="name" v="Skinnbroka" />
		<tag k="place" v="locality" />
		<tag k="ssr:stedsnr" v="519014" />
	</node>
	<node id="-577219" lat="62.6800555556" lon="6.31476943793">
		<tag k="name" v="Gamleura" />
		<tag k="natural" v="scree" />
		<tag k="ssr:stedsnr" v="153938" />
	</node>
	<node id="-577218" lat="62.6159000032" lon="6.15531666673">
		<tag k="historic" v="shieling" />
		<tag k="name" v="Stølen" />
		<tag k="place" v="locality" />
		<tag k="ssr:stedsnr" v="153935" />
	</node>
	<node id="-578241" lat="62.5857194475" lon="6.46906387968">
		<tag k="name" v="Ringstadmyrane" />
		<tag k="natural" v="wetland" />
		<tag k="ssr:stedsnr" v="701879" />
	</node>
	<node id="-576704" lat="62.5900333325" lon="6.70183611662">
		<tag k="name" v="Kolurda" />
		<tag k="natural" v="scree" />
		<tag k="ssr:stedsnr" v="398707" />
	</node>
	<node id="-577210" lat="62.6827722188" lon="6.17588333573">
		<tag k="name" v="Grjøtet" />
		<tag k="place" v="locality" />
		<tag k="ssr:stedsnr" v="153540" />
	</node>
	<node id="-577204" lat="62.6795333349" lon="6.19524444976">
		<tag k="name" v="Frøysteinen" />
		<tag k="natural" v="stone" />
		<tag k="ssr:stedsnr" v="153335" />
	</node>
	<node id="-577248" lat="62.5698388869" lon="6.69140000857">
		<tag k="name" v="Bjønnasteinen" />
		<tag k="natural" v="stone" />
		<tag k="ssr:stedsnr" v="155453" />
	</node>
	<node id="-577710" lat="62.6736472221" lon="6.32474722484">
		<tag k="name" v="Skulemyra" />
		<tag k="natural" v="wetland" />
		<tag k="ssr:stedsnr" v="497997" />
	</node>
	<node id="-576684" lat="62.5849833364" lon="6.62304999924">
		<tag k="name" v="Hysesteinen" />
		<tag k="natural" v="stone" />
		<tag k="ssr:stedsnr" v="397981" />
	</node>
	<node id="-576672" lat="62.5690472226" lon="6.6004416705">
		<tag k="name" v="Bolturda" />
		<tag k="natural" v="scree" />
		<tag k="ssr:stedsnr" v="397839" />
	</node>
	<node id="-576880" lat="62.6888777818" lon="6.19860000511">
		<tag k="historic" v="shieling" />
		<tag k="name" v="Stølen" />
		<tag k="place" v="locality" />
		<tag k="ssr:stedsnr" v="32304" />
	</node>
	<node id="-576669" lat="62.5905916626" lon="6.58407778074">
		<tag k="name" v="Tufta" />
		<tag k="place" v="locality" />
		<tag k="ssr:stedsnr" v="397760" />
	</node>
	<node id="-577692" lat="62.6515555581" lon="6.3248083251">
		<tag k="name" v="Storøyra" />
		<tag k="place" v="locality" />
		<tag k="ssr:stedsnr" v="497466" />
	</node>
	<node id="-576659" lat="62.5902833291" lon="6.30316666104">
		<tag k="historic" v="shieling" />
		<tag k="name" v="Storstølen" />
		<tag k="place" v="locality" />
		<tag k="ssr:stedsnr" v="397292" />
	</node>
	<node id="-578192" lat="62.6054138886" lon="6.24810832669">
		<tag k="historic" v="shieling" />
		<tag k="name" v="Gjerdet" />
		<tag k="place" v="locality" />
		<tag k="ssr:stedsnr" v="700437" />
	</node>
	<node id="-576655" lat="62.6239222199" lon="6.6363611033">
		<tag k="name" v="Helleurda" />
		<tag k="natural" v="scree" />
		<tag k="ssr:stedsnr" v="397231" />
	</node>
	<node id="-577164" lat="62.6248444471" lon="6.64163054841">
		<tag k="name" v="Fonna" />
		<tag k="place" v="locality" />
		<tag k="ssr:stedsnr" v="133398" />
	</node>
	<node id="-576648" lat="62.6985611073" lon="6.37761389144">
		<tag k="name" v="Vardemyrane" />
		<tag k="natural" v="wetland" />
		<tag k="ssr:stedsnr" v="396933" />
	</node>
	<node id="-577645" lat="62.5477944403" lon="6.52530556156">
		<tag k="name" v="Brekka" />
		<tag k="place" v="locality" />
		<tag k="ssr:stedsnr" v="459576" />
	</node>
	<node id="-578152" lat="62.590236107" lon="6.36724443648">
		<tag k="name" v="Hestemyrane" />
		<tag k="natural" v="wetland" />
		<tag k="ssr:stedsnr" v="679335" />
	</node>
	<node id="-577416" lat="62.5476500021" lon="6.54934443649">
		<tag k="name" v="Hagedemma" />
		<tag k="natural" v="wetland" />
		<tag k="ssr:stedsnr" v="216498" />
	</node>
	<node id="-577635" lat="62.6297138887" lon="6.61148889342">
		<tag k="landuse" v="peat_cutting" />
		<tag k="name" v="Torvhola" />
		<tag k="ssr:stedsnr" v="459372" />
	</node>
	<node id="-577628" lat="62.5785333351" lon="6.62697500894">
		<tag k="name" v="Rabben" />
		<tag k="natural" v="scree" />
		<tag k="ssr:stedsnr" v="458998" />
	</node>
	<node id="-576904" lat="62.6262777777" lon="6.60446943769">
		<tag k="name" v="Tuftene" />
		<tag k="place" v="locality" />
		<tag k="ssr:stedsnr" v="33426" />
	</node>
	<node id="-576593" lat="62.5921111114" lon="6.67062221921">
		<tag k="name" v="Vatnemyra" />
		<tag k="natural" v="wetland" />
		<tag k="ssr:stedsnr" v="375317" />
	</node>
	<node id="-578636" lat="62.5396416681" lon="6.44408333917">
		<tag k="name" v="Holemyra" />
		<tag k="natural" v="wetland" />
		<tag k="ssr:stedsnr" v="921253" />
	</node>
	<node id="-577607" lat="62.6292361081" lon="6.6757916573">
		<tag k="name" v="Akslaura" />
		<tag k="natural" v="scree" />
		<tag k="ssr:stedsnr" v="458450" />
	</node>
	<node id="-577606" lat="62.6179416701" lon="6.71469444594">
		<tag k="name" v="Urlirabben" />
		<tag k="natural" v="scree" />
		<tag k="ssr:stedsnr" v="458445" />
	</node>
	<node id="-577605" lat="62.6279416697" lon="6.6034472207">
		<tag k="name" v="Nylenda" />
		<tag k="place" v="locality" />
		<tag k="ssr:stedsnr" v="458437" />
	</node>
	<node id="-577603" lat="62.5925083377" lon="6.33170277886">
		<tag k="name" v="Klombersteinane" />
		<tag k="natural" v="stone" />
		<tag k="ssr:stedsnr" v="458414" />
	</node>
	<node id="-577600" lat="62.6337333351" lon="6.66725277746">
		<tag k="name" v="Stabburet" />
		<tag k="natural" v="stone" />
		<tag k="ssr:stedsnr" v="458403" />
	</node>
	<node id="-578100" lat="62.5347722259" lon="6.39370277131">
		<tag k="name" v="Holmesetgjerdet" />
		<tag k="place" v="locality" />
		<tag k="ssr:stedsnr" v="640775" />
	</node>
	<node id="-577582" lat="62.6767305559" lon="6.26987777993">
		<tag k="name" v="Svøra" />
		<tag k="natural" v="scree" />
		<tag k="ssr:stedsnr" v="457412" />
	</node>
	<node id="-577578" lat="62.6651527739" lon="6.27235832597">
		<tag k="name" v="Gråmyra" />
		<tag k="natural" v="wetland" />
		<tag k="ssr:stedsnr" v="457300" />
	</node>
	<node id="-578088" lat="62.6071722191" lon="6.46641943635">
		<tag k="name" v="Verpesteinen" />
		<tag k="natural" v="stone" />
		<tag k="ssr:stedsnr" v="640560" />
	</node>
	<node id="-576551" lat="62.6190611089" lon="6.54704167006">
		<tag k="name" v="Skifta" />
		<tag k="natural" v="wetland" />
		<tag k="ssr:stedsnr" v="337758" />
	</node>
	<node id="-578596" lat="62.6018305554" lon="6.33733333405">
		<tag k="name" v="Hildremyrane" />
		<tag k="natural" v="wetland" />
		<tag k="ssr:stedsnr" v="861394" />
	</node>
	<node id="-576547" lat="62.5397" lon="6.64255278266">
		<tag k="name" v="Skarsura" />
		<tag k="natural" v="scree" />
		<tag k="ssr:stedsnr" v="337703" />
	</node>
	<node id="-578587" lat="62.5830222252" lon="6.44808888387">
		<tag k="name" v="Håvikmyrane" />
		<tag k="natural" v="wetland" />
		<tag k="ssr:stedsnr" v="861306" />
	</node>
	<node id="-577050" lat="62.6766499985" lon="6.31230000299">
		<tag k="name" v="Skulekløvet" />
		<tag k="natural" v="scree" />
		<tag k="ssr:stedsnr" v="93869" />
	</node>
	<node id="-578070" lat="62.5423277786" lon="6.53682222342">
		<tag k="name" v="Sildegarnsteinane" />
		<tag k="natural" v="stone" />
		<tag k="ssr:stedsnr" v="640051" />
	</node>
	<node id="-578069" lat="62.62859444" lon="6.64820276859">
		<tag k="name" v="Torvsteinen" />
		<tag k="natural" v="stone" />
		<tag k="ssr:stedsnr" v="640022" />
	</node>
	<node id="-577038" lat="62.6307194487" lon="6.17970832705">
		<tag k="name" v="Demmemyra" />
		<tag k="natural" v="wetland" />
		<tag k="ssr:stedsnr" v="93559" />
	</node>
	<node id="-577623" lat="62.6037777733" lon="6.67238055499">
		<tag k="name" v="Nausttufta" />
		<tag k="place" v="locality" />
		<tag k="ssr:stedsnr" v="458869" />
	</node>
	<node id="-576517" lat="62.6268944488" lon="6.60272778469">
		<tag k="name" v="Storåkeren" />
		<tag k="place" v="locality" />
		<tag k="ssr:stedsnr" v="337379" />
	</node>
	<node id="-578052" lat="62.5795666645" lon="6.27794167484">
		<tag k="name" v="Svartedepilen" />
		<tag k="natural" v="wetland" />
		<tag k="ssr:stedsnr" v="638897" />
	</node>
</osm>
