<?xml version="1.0" encoding="UTF-8"?>
<osm generator="osmapis" version="0.6">
	<node id="-437712" lat="59.5002527767" lon="8.65099166012">
		<tag k="name" v="Grunningdalsvegen" />
		<tag k="ssr:date" v="2019-12-27" />
		<tag k="ssr:gruppe" v="veg" />
		<tag k="ssr:hovedgruppe" v="infrastruktur" />
		<tag k="ssr:stedsnr" v="887689" />
		<tag k="ssr:type" v="vegstrekning" />
	</node>
	<node id="-436945" lat="59.7299861156" lon="8.28299721653">
		<tag k="name" v="Lifjellvegen" />
		<tag k="ssr:date" v="2019-12-27" />
		<tag k="ssr:gruppe" v="veg" />
		<tag k="ssr:hovedgruppe" v="infrastruktur" />
		<tag k="ssr:stedsnr" v="281122" />
		<tag k="ssr:type" v="vegstrekning" />
	</node>
	<node id="-437872" lat="59.7383055527" lon="8.26979444979">
		<tag k="name" v="Lifjellvegen" />
		<tag k="ssr:date" v="2019-12-27" />
		<tag k="ssr:gruppe" v="veg" />
		<tag k="ssr:hovedgruppe" v="infrastruktur" />
		<tag k="ssr:stedsnr" v="771106" />
		<tag k="ssr:type" v="vegstrekning" />
	</node>
	<node id="-438280" lat="59.4827388929" lon="8.62671667529">
		<tag k="name" v="Seljord kommune" />
		<tag k="ssr:date" v="2019-12-27" />
		<tag k="ssr:gruppe" v="administrativeIndelinger" />
		<tag k="ssr:hovedgruppe" v="offentligAdministrasjon" />
		<tag k="ssr:stedsnr" v="85650" />
		<tag k="ssr:type" v="kommune" />
	</node>
	<node id="-439848" lat="59.4917158495" lon="8.64040815216">
		<tag k="name" v="Vallarvegen" />
		<tag k="ssr:date" v="2020-02-17" />
		<tag k="ssr:gruppe" v="veg" />
		<tag k="ssr:hovedgruppe" v="infrastruktur" />
		<tag k="ssr:stedsnr" v="1075186" />
		<tag k="ssr:type" v="adressenavn" />
	</node>
	<node id="-439845" lat="59.2161476784" lon="9.61110301692">
		<tag k="name" v="Vestfold og Telemark fylke" />
		<tag k="ssr:date" v="2020-01-13" />
		<tag k="ssr:gruppe" v="administrativeIndelinger" />
		<tag k="ssr:hovedgruppe" v="offentligAdministrasjon" />
		<tag k="ssr:stedsnr" v="1073927" />
		<tag k="ssr:type" v="fylke" />
	</node>
	<node id="-439844" lat="59.5721644619" lon="8.26075733232">
		<tag k="name" v="Trovasslivegen" />
		<tag k="ssr:date" v="2019-12-27" />
		<tag k="ssr:gruppe" v="veg" />
		<tag k="ssr:hovedgruppe" v="infrastruktur" />
		<tag k="ssr:stedsnr" v="1048937" />
		<tag k="ssr:type" v="adressenavn" />
	</node>
</osm>
