<?xml version="1.0" encoding="UTF-8"?>
<osm generator="osmapis" version="0.6">
	<node id="-161792" lat="66.9937527817" lon="14.6527916573">
		<tag k="name" v="Andersend" />
		<tag k="place" v="farm" />
		<tag k="ssr:stedsnr" v="723841" />
	</node>
	<node id="-161274" lat="67.0178499994" lon="14.5436777765">
		<tag k="name" v="Arstad" />
		<tag k="place" v="farm" />
		<tag k="ssr:stedsnr" v="285953" />
	</node>
	<node id="-161620" lat="66.875852782" lon="14.6574277804">
		<tag k="alt_name" v="Lauvstad" />
		<tag k="name" v="Løvstad" />
		<tag k="place" v="farm" />
		<tag k="ssr:stedsnr" v="561456" />
	</node>
	<node id="-162985" lat="66.997752109" lon="14.7638895996">
		<tag k="alt_name" v="Molid" />
		<tag k="fixme" v="consider place=hamlet" />
		<tag k="name" v="Molia" />
		<tag k="place" v="farm" />
		<tag k="ssr:stedsnr" v="744346" />
	</node>
	<node id="-162289" lat="67.0037416661" lon="14.6131749991">
		<tag k="name" v="Storvollen" />
		<tag k="place" v="farm" />
		<tag k="ssr:stedsnr" v="92686" />
	</node>
	<node id="-161263" lat="67.018777777" lon="14.5571027761">
		<tag k="name" v="Arstadberget" />
		<tag k="place" v="isolated_dwelling" />
		<tag k="ssr:stedsnr" v="274294" />
	</node>
	<node id="-163041" lat="66.9369027742" lon="14.7914916678">
		<tag k="name" v="Hølmen" />
		<tag k="place" v="farm" />
		<tag k="ssr:stedsnr" v="760168" />
	</node>
	<node id="-161746" lat="66.8900416645" lon="14.7704527871">
		<tag k="alt_name" v="Storhaug" />
		<tag k="name" v="Storhåg" />
		<tag k="place" v="farm" />
		<tag k="ssr:stedsnr" v="683475" />
	</node>
	<node id="-162769" lat="66.8888750007" lon="14.8734500038">
		<tag k="name" v="Petterneset" />
		<tag k="place" v="farm" />
		<tag k="ssr:stedsnr" v="562494" />
	</node>
	<node id="-161744" lat="66.919961107" lon="14.7040000063">
		<tag k="name" v="Knutkjelen" />
		<tag k="place" v="isolated_dwelling" />
		<tag k="ssr:stedsnr" v="683457" />
	</node>
	<node id="-162253" lat="66.8574333313" lon="14.6904194395">
		<tag k="fixme" v="consider tourism=alpine_hut or tourism=chalet" />
		<tag k="name" v="Beiarstua" />
		<tag k="ssr:stedsnr" v="85045" />
		<tag k="tourism" v="wilderness_hut" />
	</node>
	<node id="-162760" lat="66.9998656295" lon="14.72418215">
		<tag k="alt_name" v="Savjord" />
		<tag k="fixme" v="consider place=hamlet" />
		<tag k="name" v="Savjorda" />
		<tag k="place" v="farm" />
		<tag k="ssr:stedsnr" v="562370" />
	</node>
	<node id="-163271" lat="66.8777494287" lon="14.7247271038">
		<tag k="name" v="Blåmolia" />
		<tag k="place" v="locality" />
		<tag k="ssr:stedsnr" v="1074538" />
	</node>
	<node id="-163270" lat="66.9788753567" lon="14.7995354667">
		<tag k="fixme" v="consider place=hamlet" />
		<tag k="name" v="Frostos" />
		<tag k="place" v="farm" />
		<tag k="ssr:stedsnr" v="1074537" />
	</node>
	<node id="-163269" lat="66.988708456" lon="14.7650531994">
		<tag k="fixme" v="consider place=hamlet" />
		<tag k="name" v="Storjorda" />
		<tag k="place" v="farm" />
		<tag k="ssr:stedsnr" v="1074536" />
	</node>
	<node id="-163268" lat="66.9978402663" lon="14.6652939478">
		<tag k="fixme" v="consider place=hamlet" />
		<tag k="name" v="Navjorda" />
		<tag k="place" v="farm" />
		<tag k="ssr:stedsnr" v="1074535" />
	</node>
	<node id="-163267" lat="67.0056269417" lon="14.5748065006">
		<tag k="fixme" v="consider place=hamlet" />
		<tag k="name" v="Moldjorda" />
		<tag k="place" v="farm" />
		<tag k="ssr:stedsnr" v="1074531" />
	</node>
	<node id="-163266" lat="67.0739403741" lon="14.5460288591">
		<tag k="fixme" v="consider place=hamlet" />
		<tag k="name" v="Øynes" />
		<tag k="place" v="farm" />
		<tag k="ssr:stedsnr" v="1074530" />
	</node>
	<node id="-163264" lat="66.9088782181" lon="14.7761686539">
		<tag k="alt_name" v="Tyvåsletten" />
		<tag k="name" v="Tjyvåsletta" />
		<tag k="place" v="locality" />
		<tag k="ssr:stedsnr" v="1072032" />
	</node>
	<node id="-163263" lat="67.0816808042" lon="14.3995799715">
		<tag k="alt_name" v="Evjen søndre" />
		<tag k="name" v="Søndre Evja" />
		<tag k="place" v="farm" />
		<tag k="ssr:stedsnr" v="1072016" />
	</node>
	<node id="-161214" lat="66.8068444584" lon="14.625497114">
		<tag k="alt_name" v="Stormyrhals" />
		<tag k="fixme" v="consider place=hamlet" />
		<tag k="name" v="Stormyrhalsen" />
		<tag k="place" v="farm" />
		<tag k="ssr:stedsnr" v="259409" />
	</node>
	<node id="-161210" lat="66.8767333906" lon="14.7003961177">
		<tag k="alt_name" v="Øvre Gråtånes" />
		<tag k="fixme" v="consider place=hamlet" />
		<tag k="name" v="Øvernes" />
		<tag k="place" v="farm" />
		<tag k="ssr:stedsnr" v="258458" />
	</node>
	<node id="-162233" lat="66.8896361109" lon="14.7936305481">
		<tag k="alt_name" v="Sætermo" />
		<tag k="name" v="Sætermoen" />
		<tag k="place" v="farm" />
		<tag k="ssr:stedsnr" v="77515" />
	</node>
	<node id="-161826" lat="66.8823999999" lon="14.9322583276">
		<tag k="name" v="Skoglund" />
		<tag k="place" v="farm" />
		<tag k="ssr:stedsnr" v="744476" />
	</node>
	<node id="-163255" lat="67.0113604263" lon="14.4825747712">
		<tag k="name" v="Arstad" />
		<tag k="place" v="locality" />
		<tag k="ssr:stedsnr" v="973756" />
	</node>
	<node id="-162741" lat="66.8539409033" lon="14.6308240963">
		<tag k="fixme" v="consider place=hamlet" />
		<tag k="name" v="Kysknes" />
		<tag k="place" v="farm" />
		<tag k="ssr:stedsnr" v="561442" />
	</node>
	<node id="-161178" lat="66.9783343065" lon="14.7878439621">
		<tag k="alt_name" v="Haugbakk" />
		<tag k="name" v="Haubakken" />
		<tag k="place" v="farm" />
		<tag k="ssr:stedsnr" v="441582" />
	</node>
	<node id="-161712" lat="66.9186416677" lon="14.703788893">
		<tag k="name" v="Krestinagammen" />
		<tag k="place" v="locality" />
		<tag k="ssr:stedsnr" v="881159" />
	</node>
	<node id="-162735" lat="67.0026638874" lon="14.6229138792">
		<tag k="name" v="Kvælgården" />
		<tag k="place" v="farm" />
		<tag k="ssr:stedsnr" v="541864" />
	</node>
	<node id="-162221" lat="67.1219683099" lon="14.3819427912">
		<tag k="fixme" v="consider place=hamlet" />
		<tag k="name" v="Sandmoen" />
		<tag k="place" v="farm" />
		<tag k="ssr:stedsnr" v="77448" />
	</node>
	<node id="-162732" lat="66.8732138881" lon="14.6905499915">
		<tag k="name" v="Massingmo" />
		<tag k="place" v="farm" />
		<tag k="ssr:stedsnr" v="541801" />
	</node>
	<node id="-162219" lat="67.0727277756" lon="14.5739999885">
		<tag k="fixme" v="consider place=hamlet" />
		<tag k="name" v="Nordland" />
		<tag k="place" v="farm" />
		<tag k="ssr:stedsnr" v="76282" />
	</node>
	<node id="-162730" lat="66.8809805539" lon="14.7140055647">
		<tag k="name" v="Aspelund" />
		<tag k="place" v="farm" />
		<tag k="ssr:stedsnr" v="541795" />
	</node>
	<node id="-161704" lat="66.9861972216" lon="14.77798333">
		<tag k="name" v="Enga" />
		<tag k="place" v="isolated_dwelling" />
		<tag k="ssr:stedsnr" v="881010" />
	</node>
	<node id="-162214" lat="66.7718472232" lon="14.5831000104">
		<tag k="name" v="Nyrud" />
		<tag k="place" v="farm" />
		<tag k="ssr:stedsnr" v="77414" />
	</node>
	<node id="-161777" lat="67.0229750009" lon="14.5508611072">
		<tag k="name" v="Memoen" />
		<tag k="place" v="farm" />
		<tag k="ssr:stedsnr" v="699311" />
	</node>
	<node id="-161186" lat="66.8959666687" lon="14.8582277701">
		<tag k="name" v="Forsli" />
		<tag k="place" v="farm" />
		<tag k="ssr:stedsnr" v="446420" />
	</node>
	<node id="-163232" lat="66.9245361068" lon="14.7586055653">
		<tag k="name" v="Ytterlia" />
		<tag k="place" v="isolated_dwelling" />
		<tag k="ssr:stedsnr" v="871378" />
	</node>
	<node id="-161183" lat="66.9071309318" lon="14.741875163">
		<tag k="alt_name" v="Høyforsslett;Haugførsslett" />
		<tag k="fixme" v="consider place=hamlet" />
		<tag k="name" v="Høgforsslett" />
		<tag k="place" v="farm" />
		<tag k="ssr:stedsnr" v="441615" />
	</node>
	<node id="-163229" lat="67.0101805571" lon="14.531088884">
		<tag k="name" v="Myra" />
		<tag k="place" v="farm" />
		<tag k="ssr:stedsnr" v="866629" />
	</node>
	<node id="-161179" lat="66.9586472255" lon="14.8165611197">
		<tag k="alt_name" v="Høgmoen" />
		<tag k="name" v="Haugmo" />
		<tag k="place" v="farm" />
		<tag k="ssr:stedsnr" v="441594" />
	</node>
	<node id="-162714" lat="67.0404472201" lon="14.5659277829">
		<tag k="name" v="Sandaker" />
		<tag k="place" v="farm" />
		<tag k="ssr:stedsnr" v="420868" />
	</node>
	<node id="-161176" lat="66.9713061479" lon="14.8258396553">
		<tag k="fixme" v="consider place=hamlet" />
		<tag k="name" v="Osbakk" />
		<tag k="place" v="farm" />
		<tag k="ssr:stedsnr" v="441575" />
	</node>
	<node id="-161686" lat="67.0066638851" lon="14.5987555437">
		<tag k="name" v="Hølmen" />
		<tag k="place" v="isolated_dwelling" />
		<tag k="ssr:stedsnr" v="637345" />
	</node>
	<node id="-161173" lat="66.804302776" lon="14.8907666661">
		<tag k="fixme" v="consider tourism=alpine_hut or tourism=chalet" />
		<tag k="name" v="Bukkhaugbua" />
		<tag k="ssr:stedsnr" v="441532" />
		<tag k="tourism" v="wilderness_hut" />
	</node>
	<node id="-163217" lat="66.7842980985" lon="14.6067806529">
		<tag k="alt_name" v="Kjeldåslett;Kjellåslett;Litle Lauksletta" />
		<tag k="fixme" v="consider place=hamlet" />
		<tag k="name" v="Kjeldåsletta" />
		<tag k="place" v="farm" />
		<tag k="ssr:stedsnr" v="866381" />
	</node>
	<node id="-163216" lat="66.7753666658" lon="14.5879249975">
		<tag k="name" v="Heggmo" />
		<tag k="place" v="farm" />
		<tag k="ssr:stedsnr" v="866372" />
	</node>
	<node id="-162187" lat="67.0224444409" lon="14.5567222258">
		<tag k="loc_name" v="Hågen" />
		<tag k="name" v="Arstad" />
		<tag k="place" v="farm" />
		<tag k="ssr:stedsnr" v="42953" />
	</node>
	<node id="-161162" lat="66.8790888882" lon="14.705172228">
		<tag k="alt_name" v="Furumo" />
		<tag k="name" v="Furumoen" />
		<tag k="place" v="farm" />
		<tag k="ssr:stedsnr" v="441448" />
	</node>
	<node id="-161160" lat="66.7732027811" lon="14.5900305498">
		<tag k="alt_name" v="Austgard" />
		<tag k="name" v="Østgård" />
		<tag k="place" v="farm" />
		<tag k="ssr:stedsnr" v="441392" />
	</node>
	<node id="-163206" lat="66.9773416697" lon="14.4351833318">
		<tag k="name" v="Per-Larsaheimen" />
		<tag k="place" v="isolated_dwelling" />
		<tag k="ssr:stedsnr" v="866240" />
	</node>
	<node id="-162693" lat="66.835124521" lon="14.6710751901">
		<tag k="fixme" v="consider place=hamlet" />
		<tag k="name" v="Lillehammarnes" />
		<tag k="place" v="farm" />
		<tag k="ssr:stedsnr" v="395841" />
	</node>
	<node id="-163204" lat="67.0550498514" lon="14.4866870874">
		<tag k="fixme" v="consider place=hamlet" />
		<tag k="name" v="Breivika" />
		<tag k="place" v="farm" />
		<tag k="ssr:stedsnr" v="866236" />
	</node>
	<node id="-161003" lat="66.929586116" lon="14.8745222136">
		<tag k="name" v="Hågen" />
		<tag k="place" v="isolated_dwelling" />
		<tag k="ssr:stedsnr" v="116727" />
	</node>
	<node id="-163195" lat="66.8595527736" lon="14.6869138815">
		<tag k="name" v="Tverrånes" />
		<tag k="place" v="farm" />
		<tag k="ssr:stedsnr" v="865476" />
	</node>
	<node id="-163194" lat="66.7179777814" lon="14.5159389009">
		<tag k="name" v="Stornes" />
		<tag k="place" v="isolated_dwelling" />
		<tag k="ssr:stedsnr" v="865471" />
	</node>
	<node id="-162681" lat="67.0207027824" lon="14.552319441">
		<tag k="name" v="Lillemoen" />
		<tag k="place" v="isolated_dwelling" />
		<tag k="ssr:stedsnr" v="395330" />
	</node>
	<node id="-163188" lat="66.8806249964" lon="14.7063860996">
		<tag k="name" v="Stien" />
		<tag k="place" v="farm" />
		<tag k="ssr:stedsnr" v="845833" />
	</node>
	<node id="-161139" lat="67.0003305534" lon="14.6150138853">
		<tag k="name" v="Vollgarden" />
		<tag k="place" v="farm" />
		<tag k="ssr:stedsnr" v="298801" />
	</node>
	<node id="-161134" lat="66.8837972239" lon="14.6817416701">
		<tag k="name" v="Bjørnsti" />
		<tag k="place" v="locality" />
		<tag k="ssr:stedsnr" v="298743" />
	</node>
	<node id="-162109" lat="66.9210388914" lon="14.7541583318">
		<tag k="name" v="Troåbakk" />
		<tag k="place" v="farm" />
		<tag k="ssr:stedsnr" v="16588" />
	</node>
	<node id="-162156" lat="66.99828333" lon="14.6788527702">
		<tag k="name" v="Einvollen" />
		<tag k="place" v="farm" />
		<tag k="ssr:stedsnr" v="31868" />
	</node>
	<node id="-162151" lat="67.0037916679" lon="14.6188666687">
		<tag k="name" v="Smivollen" />
		<tag k="place" v="farm" />
		<tag k="ssr:stedsnr" v="31701" />
	</node>
	<node id="-160913" lat="66.8594361088" lon="14.691225007">
		<tag k="historic" v="shieling" />
		<tag k="name" v="Skogstue" />
		<tag k="place" v="locality" />
		<tag k="ssr:stedsnr" v="237852" />
	</node>
	<node id="-162107" lat="66.9397068035" lon="14.7975324859">
		<tag k="alt_name" v="Israelbakk" />
		<tag k="fixme" v="consider place=hamlet" />
		<tag k="name" v="Israelsbakk" />
		<tag k="place" v="farm" />
		<tag k="ssr:stedsnr" v="16571" />
	</node>
	<node id="-161631" lat="66.8283305535" lon="14.6641027804">
		<tag k="name" v="Moen" />
		<tag k="place" v="farm" />
		<tag k="ssr:stedsnr" v="562429" />
	</node>
	<node id="-162654" lat="66.9094722248" lon="14.8214388987">
		<tag k="alt_name" v="Asplem" />
		<tag k="name" v="Asplemmen" />
		<tag k="place" v="isolated_dwelling" />
		<tag k="ssr:stedsnr" v="380658" />
	</node>
	<node id="-162653" lat="66.9019972243" lon="14.7737222217">
		<tag k="alt_name" v="Nova" />
		<tag k="name" v="Nøva" />
		<tag k="place" v="farm" />
		<tag k="ssr:stedsnr" v="380653" />
	</node>
	<node id="-161308" lat="66.8790166675" lon="14.6560166599">
		<tag k="name" v="Urheim" />
		<tag k="place" v="farm" />
		<tag k="ssr:stedsnr" v="480972" />
	</node>
	<node id="-161499" lat="66.8797277732" lon="14.937558337">
		<tag k="name" v="Skulneset" />
		<tag k="place" v="farm" />
		<tag k="ssr:stedsnr" v="501509" />
	</node>
	<node id="-162650" lat="66.9283694487" lon="14.7822472189">
		<tag k="alt_name" v="Forenes" />
		<tag k="name" v="Furunes" />
		<tag k="place" v="farm" />
		<tag k="ssr:stedsnr" v="380642" />
	</node>
	<node id="-162649" lat="66.925905558" lon="14.7751916657">
		<tag k="alt_name" v="Troånes" />
		<tag k="name" v="Trones" />
		<tag k="place" v="hamlet" />
		<tag k="ssr:stedsnr" v="380640" />
	</node>
	<node id="-162648" lat="66.9527722186" lon="14.7894333275">
		<tag k="name" v="Nesli" />
		<tag k="place" v="farm" />
		<tag k="ssr:stedsnr" v="380635" />
	</node>
	<node id="-161108" lat="66.8847882784" lon="14.6792199687">
		<tag k="name" v="Tiurdal" />
		<tag k="place" v="locality" />
		<tag k="ssr:stedsnr" v="198443" />
	</node>
	<node id="-161105" lat="67.0430164658" lon="14.5696993045">
		<tag k="alt_name" v="Tverrvik" />
		<tag k="fixme" v="consider place=hamlet" />
		<tag k="name" v="Tverrvika" />
		<tag k="place" v="farm" />
		<tag k="ssr:stedsnr" v="198340" />
	</node>
	<node id="-161101" lat="67.0192027458" lon="14.5674269077">
		<tag k="alt_name" v="Soløy" />
		<tag k="fixme" v="consider place=hamlet" />
		<tag k="name" v="Soløya" />
		<tag k="place" v="farm" />
		<tag k="ssr:stedsnr" v="198308" />
	</node>
	<node id="-162635" lat="66.844850003" lon="14.6753166594">
		<tag k="name" v="Rydeng" />
		<tag k="place" v="farm" />
		<tag k="ssr:stedsnr" v="380471" />
	</node>
	<node id="-161098" lat="66.889907645" lon="14.8709945796">
		<tag k="alt_name" v="Øvre Tollådal" />
		<tag k="fixme" v="consider place=hamlet" />
		<tag k="name" v="Øvre Tollådalen" />
		<tag k="place" v="farm" />
		<tag k="ssr:stedsnr" v="286638" />
	</node>
	<node id="-161605" lat="66.9162333334" lon="14.7591750052">
		<tag k="name" v="Nystad" />
		<tag k="place" v="farm" />
		<tag k="ssr:stedsnr" v="699149" />
	</node>
	<node id="-162208" lat="67.0921020065" lon="14.3743495363">
		<tag k="fixme" v="consider place=hamlet" />
		<tag k="name" v="Åg" />
		<tag k="place" v="farm" />
		<tag k="ssr:stedsnr" v="77284" />
	</node>
	<node id="-162110" lat="66.9135916698" lon="14.7536388932">
		<tag k="name" v="Bakken" />
		<tag k="place" v="farm" />
		<tag k="ssr:stedsnr" v="16590" />
	</node>
	<node id="-162621" lat="66.997080558" lon="14.4493111055">
		<tag k="name" v="Bjørnstad" />
		<tag k="place" v="isolated_dwelling" />
		<tag k="ssr:stedsnr" v="380274" />
	</node>
	<node id="-161083" lat="66.8393750021" lon="14.7020499998">
		<tag k="fixme" v="consider tourism=alpine_hut or tourism=chalet" />
		<tag k="name" v="Reinhagen" />
		<tag k="ssr:stedsnr" v="163956" />
		<tag k="tourism" v="wilderness_hut" />
	</node>
	<node id="-161593" lat="66.8761388886" lon="14.6484333371">
		<tag k="name" v="Åsli" />
		<tag k="place" v="farm" />
		<tag k="ssr:stedsnr" v="541955" />
	</node>
	<node id="-161585" lat="66.7806555527" lon="14.6004555554">
		<tag k="historic" v="shieling" />
		<tag k="name" v="Kjeldåssætra" />
		<tag k="place" v="locality" />
		<tag k="ssr:stedsnr" v="692311" />
	</node>
	<node id="-163120" lat="66.9196901371" lon="14.7773283337">
		<tag k="fixme" v="consider place=hamlet" />
		<tag k="name" v="Tollånes" />
		<tag k="place" v="farm" />
		<tag k="ssr:stedsnr" v="810408" />
	</node>
	<node id="-162696" lat="66.9237333354" lon="14.7726777892">
		<tag k="name" v="Gjerdmoen" />
		<tag k="place" v="farm" />
		<tag k="ssr:stedsnr" v="396171" />
	</node>
	<node id="-161736" lat="66.9760500042" lon="14.7847805557">
		<tag k="name" v="Innermoen" />
		<tag k="place" v="farm" />
		<tag k="ssr:stedsnr" v="882041" />
	</node>
	<node id="-161064" lat="66.9208345348" lon="14.7695385922">
		<tag k="name" v="Troa" />
		<tag k="place" v="farm" />
		<tag k="ssr:stedsnr" v="274197" />
	</node>
	<node id="-161062" lat="67.0220888916" lon="14.5568500114">
		<tag k="name" v="Larsgrøva" />
		<tag k="place" v="isolated_dwelling" />
		<tag k="ssr:stedsnr" v="274296" />
	</node>
	<node id="-162085" lat="66.9835027812" lon="14.7737194427">
		<tag k="alt_name" v="Brennmo" />
		<tag k="name" v="Brennmoen" />
		<tag k="place" v="farm" />
		<tag k="ssr:stedsnr" v="16542" />
	</node>
	<node id="-163106" lat="66.8823972267" lon="14.6635694413">
		<tag k="name" v="Uglefjell" />
		<tag k="place" v="farm" />
		<tag k="ssr:stedsnr" v="805471" />
	</node>
	<node id="-162081" lat="66.99559353" lon="14.6452635193">
		<tag k="alt_name" v="Eiterjord" />
		<tag k="fixme" v="consider place=hamlet" />
		<tag k="name" v="Eiterjorda" />
		<tag k="place" v="farm" />
		<tag k="ssr:stedsnr" v="16259" />
	</node>
	<node id="-163104" lat="66.7483222206" lon="14.5527833326">
		<tag k="historic" v="shieling" />
		<tag k="name" v="Leiråmosætra" />
		<tag k="place" v="locality" />
		<tag k="ssr:stedsnr" v="805466" />
	</node>
	<node id="-162096" lat="66.8779677581" lon="14.6531757292">
		<tag k="alt_name" v="Rønnåbakk" />
		<tag k="fixme" v="consider place=hamlet" />
		<tag k="name" v="Rønnåbakken" />
		<tag k="place" v="farm" />
		<tag k="ssr:stedsnr" v="16454" />
	</node>
	<node id="-163102" lat="66.856932758" lon="14.6755542985">
		<tag k="alt_name" v="Rengård" />
		<tag k="fixme" v="consider place=hamlet" />
		<tag k="name" v="Reingarden" />
		<tag k="place" v="farm" />
		<tag k="ssr:stedsnr" v="805460" />
	</node>
	<node id="-163101" lat="66.8526829285" lon="14.6810975157">
		<tag k="fixme" v="consider place=hamlet" />
		<tag k="name" v="Tverrånes" />
		<tag k="place" v="farm" />
		<tag k="ssr:stedsnr" v="805456" />
	</node>
	<node id="-162588" lat="66.9780972238" lon="14.7789305622">
		<tag k="name" v="Einmoen" />
		<tag k="place" v="farm" />
		<tag k="ssr:stedsnr" v="335054" />
	</node>
	<node id="-163096" lat="67.0002305587" lon="14.6805749948">
		<tag k="name" v="Husmoen" />
		<tag k="place" v="isolated_dwelling" />
		<tag k="ssr:stedsnr" v="805643" />
	</node>
	<node id="-162068" lat="66.7961416632" lon="14.6186000022">
		<tag k="name" v="Krokstrand" />
		<tag k="place" v="farm" />
		<tag k="ssr:stedsnr" v="16358" />
	</node>
	<node id="-163089" lat="67.0909184756" lon="14.428462618">
		<tag k="alt_name" v="Eggesvik" />
		<tag k="fixme" v="consider place=hamlet" />
		<tag k="name" v="Eggesvika" />
		<tag k="place" v="farm" />
		<tag k="ssr:stedsnr" v="805257" />
	</node>
	<node id="-162063" lat="67.000548391" lon="14.6174280061">
		<tag k="fixme" v="consider place=hamlet" />
		<tag k="name" v="Voll" />
		<tag k="place" v="farm" />
		<tag k="ssr:stedsnr" v="966683" />
	</node>
	<node id="-161037" lat="66.7870888883" lon="14.4740944498">
		<tag k="fixme" v="consider tourism=alpine_hut or tourism=chalet" />
		<tag k="name" v="Gråtådalstua" />
		<tag k="ssr:stedsnr" v="268083" />
		<tag k="tourism" v="wilderness_hut" />
	</node>
	<node id="-161539" lat="66.7467916687" lon="14.5504722251">
		<tag k="name" v="Fjellstad" />
		<tag k="place" v="farm" />
		<tag k="ssr:stedsnr" v="684371" />
	</node>
	<node id="-161537" lat="67.0133171815" lon="14.5638166126">
		<tag k="fixme" v="consider place=hamlet" />
		<tag k="name" v="Dokkmo" />
		<tag k="place" v="farm" />
		<tag k="ssr:stedsnr" v="684338" />
	</node>
	<node id="-162556" lat="66.8737249999" lon="14.720705545">
		<tag k="alt_name" v="Blåmoli" />
		<tag k="name" v="Blåmolia" />
		<tag k="place" v="farm" />
		<tag k="ssr:stedsnr" v="320505" />
	</node>
	<node id="-162554" lat="66.8799769502" lon="14.7121599361">
		<tag k="fixme" v="consider place=hamlet" />
		<tag k="name" v="Gråtånes" />
		<tag k="place" v="farm" />
		<tag k="ssr:stedsnr" v="320445" />
	</node>
	<node id="-161529" lat="66.9994361113" lon="14.6994499991">
		<tag k="name" v="Selfors" />
		<tag k="place" v="farm" />
		<tag k="ssr:stedsnr" v="683633" />
	</node>
	<node id="-161527" lat="66.9081972176" lon="14.7755611196">
		<tag k="name" v="Solbakk" />
		<tag k="place" v="farm" />
		<tag k="ssr:stedsnr" v="683586" />
	</node>
	<node id="-161525" lat="66.9764777813" lon="14.7916805648">
		<tag k="name" v="Einan" />
		<tag k="place" v="farm" />
		<tag k="ssr:stedsnr" v="683544" />
	</node>
	<node id="-162547" lat="66.9980111115" lon="14.7295305447">
		<tag k="name" v="Savjorda" />
		<tag k="place" v="farm" />
		<tag k="ssr:stedsnr" v="319908" />
	</node>
	<node id="-162033" lat="67.0868194425" lon="14.3918777774">
		<tag k="name" v="Pareliusnaustet" />
		<tag k="place" v="locality" />
		<tag k="ssr:stedsnr" v="934322" />
	</node>
	<node id="-162543" lat="66.934019619" lon="14.7875497168">
		<tag k="alt_name:no" v="Hemminghytt" />
		<tag k="fixme" v="consider place=hamlet" />
		<tag k="name" v="Heminghytta - Hemmekhuhtto" />
		<tag k="name:no" v="Heminghytta" />
		<tag k="name:smj" v="Hemmekhuhtto" />
		<tag k="place" v="farm" />
		<tag k="ssr:stedsnr" v="319591" />
	</node>
	<node id="-161517" lat="66.8229000011" lon="14.649697221">
		<tag k="name" v="Lian" />
		<tag k="place" v="farm" />
		<tag k="ssr:stedsnr" v="683394" />
	</node>
	<node id="-162539" lat="66.8872027816" lon="14.7238750042">
		<tag k="name" v="Hestnes" />
		<tag k="place" v="farm" />
		<tag k="ssr:stedsnr" v="319501" />
	</node>
	<node id="-160997" lat="66.8334277738" lon="14.7570638905">
		<tag k="name" v="Tverrådal" />
		<tag k="place" v="locality" />
		<tag k="ssr:stedsnr" v="259527" />
	</node>
	<node id="-163043" lat="66.9108361145" lon="14.7552250018">
		<tag k="name" v="Haugførsmoen" />
		<tag k="place" v="farm" />
		<tag k="ssr:stedsnr" v="760184" />
	</node>
	<node id="-162530" lat="66.8406750022" lon="14.6764222114">
		<tag k="alt_name" v="Forsmo" />
		<tag k="name" v="Forsmoen" />
		<tag k="place" v="farm" />
		<tag k="ssr:stedsnr" v="319404" />
	</node>
	<node id="-162017" lat="66.7701333353" lon="14.5780138845">
		<tag k="name" v="Stikkverket" />
		<tag k="place" v="locality" />
		<tag k="ssr:stedsnr" v="874317" />
	</node>
	<node id="-162528" lat="66.797101353" lon="14.6216523715">
		<tag k="name" v="Skigamslett" />
		<tag k="place" v="farm" />
		<tag k="ssr:stedsnr" v="319394" />
	</node>
	<node id="-161503" lat="67.0799861124" lon="14.3887083337">
		<tag k="name" v="Elvenes" />
		<tag k="place" v="farm" />
		<tag k="ssr:stedsnr" v="502276" />
	</node>
	<node id="-162526" lat="66.7876388903" lon="14.6045888783">
		<tag k="alt_name" v="Hammer" />
		<tag k="name" v="Hammaren" />
		<tag k="place" v="farm" />
		<tag k="ssr:stedsnr" v="319378" />
	</node>
	<node id="-162682" lat="67.0237111082" lon="14.5569833263">
		<tag k="name" v="Gjerde" />
		<tag k="place" v="farm" />
		<tag k="ssr:stedsnr" v="395334" />
	</node>
	<node id="-161497" lat="66.8911419314" lon="14.7950373729">
		<tag k="alt_name" v="Tjuvålia" />
		<tag k="name" v="Tjyvåli" />
		<tag k="place" v="farm" />
		<tag k="ssr:stedsnr" v="501478" />
	</node>
	<node id="-163032" lat="66.7521805512" lon="14.5618611192">
		<tag k="historic" v="shieling" />
		<tag k="name" v="Staupåmosætra" />
		<tag k="place" v="locality" />
		<tag k="ssr:stedsnr" v="753780" />
	</node>
	<node id="-162169" lat="66.9233861076" lon="14.7743472118">
		<tag k="name" v="Binnstaden" />
		<tag k="place" v="farm" />
		<tag k="ssr:stedsnr" v="32168" />
	</node>
	<node id="-160980" lat="66.9947277739" lon="14.7450916668">
		<tag k="name" v="Strandmoen" />
		<tag k="place" v="farm" />
		<tag k="ssr:stedsnr" v="259380" />
	</node>
	<node id="-162002" lat="66.9987222202" lon="14.7552583295">
		<tag k="name" v="Yttermoen" />
		<tag k="place" v="farm" />
		<tag k="ssr:stedsnr" v="942842" />
	</node>
	<node id="-161999" lat="66.9958111074" lon="14.7717194449">
		<tag k="name" v="Innerjord" />
		<tag k="place" v="farm" />
		<tag k="ssr:stedsnr" v="942830" />
	</node>
	<node id="-161484" lat="66.8833333331" lon="14.6822027859">
		<tag k="name" v="Stien" />
		<tag k="place" v="locality" />
		<tag k="ssr:stedsnr" v="480795" />
	</node>
	<node id="-162338" lat="66.9450620512" lon="14.8649663577">
		<tag k="alt_name" v="Ramskjell" />
		<tag k="fixme" v="consider place=hamlet" />
		<tag k="name" v="Ramsgjel" />
		<tag k="place" v="farm" />
		<tag k="ssr:stedsnr" v="137555" />
	</node>
	<node id="-162502" lat="67.0106749967" lon="14.5714083231">
		<tag k="name" v="Prestgården" />
		<tag k="place" v="farm" />
		<tag k="ssr:stedsnr" v="214247" />
	</node>
	<node id="-161477" lat="66.9244472178" lon="14.7741388976">
		<tag k="name" v="Kjerkmoen" />
		<tag k="place" v="farm" />
		<tag k="ssr:stedsnr" v="456221" />
	</node>
	<node id="-161476" lat="67.0107222207" lon="14.5412888782">
		<tag k="name" v="Vårum" />
		<tag k="place" v="farm" />
		<tag k="ssr:stedsnr" v="662830" />
	</node>
	<node id="-161983" lat="66.9350888903" lon="14.7900027734">
		<tag k="name" v="Heimervollen" />
		<tag k="place" v="farm" />
		<tag k="ssr:stedsnr" v="942149" />
	</node>
	<node id="-161463" lat="66.7836449892" lon="14.5993606003">
		<tag k="fixme" v="multiple name tags, choose one and add the other to alt_name; consider place=hamlet" />
		<tag k="name" v="Lauksletta;Store Laukset;Laukset, store;Store Lauksletta" />
		<tag k="place" v="farm" />
		<tag k="ssr:stedsnr" v="449721" />
	</node>
	<node id="-162078" lat="67.0010444472" lon="14.6955527879">
		<tag k="fixme" v="consider place=hamlet" />
		<tag k="name" v="Selfors" />
		<tag k="place" v="farm" />
		<tag k="ssr:stedsnr" v="16250" />
	</node>
	<node id="-162481" lat="67.1218027736" lon="14.381955558">
		<tag k="name" v="Per Larsa-plassen" />
		<tag k="place" v="locality" />
		<tag k="ssr:stedsnr" v="207088" />
	</node>
	<node id="-163272" lat="67.0649687205" lon="14.5294980182">
		<tag k="alt_name" v="Svartnes" />
		<tag k="fixme" v="consider place=hamlet" />
		<tag k="name" v="Svartneset" />
		<tag k="place" v="farm" />
		<tag k="ssr:stedsnr" v="1074617" />
	</node>
	<node id="-162759" lat="66.7697575722" lon="14.5844624301">
		<tag k="name" v="Steinåmoen" />
		<tag k="place" v="farm" />
		<tag k="ssr:stedsnr" v="562364" />
	</node>
	<node id="-160936" lat="67.0209347978" lon="14.5529349335">
		<tag k="fixme" v="consider place=hamlet" />
		<tag k="name" v="Arstad - Arstade" />
		<tag k="name:no" v="Arstad" />
		<tag k="name:smj" v="Arstade" />
		<tag k="place" v="farm" />
		<tag k="ssr:stedsnr" v="77344" />
	</node>
	<node id="-161876" lat="66.8653931" lon="14.6371523235">
		<tag k="alt_name" v="Kyskmo" />
		<tag k="fixme" v="consider place=hamlet" />
		<tag k="name" v="Kyskmoen" />
		<tag k="place" v="farm" />
		<tag k="ssr:stedsnr" v="926445" />
	</node>
	<node id="-162981" lat="66.8305116456" lon="14.6584992362">
		<tag k="fixme" v="consider place=hamlet" />
		<tag k="name" v="Laksosnes" />
		<tag k="place" v="farm" />
		<tag k="ssr:stedsnr" v="744401" />
	</node>
	<node id="-162461" lat="66.9685027807" lon="14.431147232">
		<tag k="name" v="Klemetgammen" />
		<tag k="place" v="locality" />
		<tag k="ssr:stedsnr" v="206290" />
	</node>
	<node id="-161436" lat="66.9984916661" lon="14.657013897">
		<tag k="name" v="Eiterjordgården" />
		<tag k="place" v="farm" />
		<tag k="ssr:stedsnr" v="517663" />
	</node>
	<node id="-162970" lat="66.7705999994" lon="14.586074996">
		<tag k="name" v="Mårberg" />
		<tag k="place" v="farm" />
		<tag k="ssr:stedsnr" v="649219" />
	</node>
	<node id="-162244" lat="66.9809261749" lon="14.7648020907">
		<tag k="fixme" v="consider place=hamlet" />
		<tag k="name" v="Os" />
		<tag k="place" v="farm" />
		<tag k="ssr:stedsnr" v="77605" />
	</node>
	<node id="-162451" lat="66.9234388863" lon="14.7576861195">
		<tag k="name" v="Trohaugen" />
		<tag k="place" v="isolated_dwelling" />
		<tag k="ssr:stedsnr" v="198594" />
	</node>
	<node id="-162243" lat="66.9776861075" lon="14.8046166673">
		<tag k="name" v="Larsos" />
		<tag k="place" v="farm" />
		<tag k="ssr:stedsnr" v="77601" />
	</node>
	<node id="-162072" lat="66.8359638896" lon="14.6720416646">
		<tag k="alt_name" v="Myrvold" />
		<tag k="name" v="Myrvoll" />
		<tag k="place" v="farm" />
		<tag k="ssr:stedsnr" v="16389" />
	</node>
	<node id="-160905" lat="66.8934222186" lon="14.8087611129">
		<tag k="name" v="Gergetjolt" />
		<tag k="place" v="locality" />
		<tag k="ssr:stedsnr" v="32210" />
	</node>
	<node id="-162951" lat="66.9182750032" lon="14.7713249896">
		<tag k="name" v="Kjellsletta" />
		<tag k="place" v="farm" />
		<tag k="ssr:stedsnr" v="638165" />
	</node>
	<node id="-162949" lat="66.9357027787" lon="14.7859694363">
		<tag k="name" v="Aspli" />
		<tag k="place" v="farm" />
		<tag k="ssr:stedsnr" v="638154" />
	</node>
	<node id="-161918" lat="66.7994977159" lon="14.6179521862">
		<tag k="alt_name" v="Lillejord" />
		<tag k="fixme" v="consider place=hamlet" />
		<tag k="name" v="Litljorda" />
		<tag k="place" v="farm" />
		<tag k="ssr:stedsnr" v="805427" />
	</node>
	<node id="-160895" lat="66.7597517875" lon="14.5666717419">
		<tag k="fixme" v="consider place=hamlet" />
		<tag k="name" v="Leiråmoen" />
		<tag k="old_name" v="Leirmoen;Leiråmo" />
		<tag k="place" v="farm" />
		<tag k="ssr:stedsnr" v="16339" />
	</node>
	<node id="-162942" lat="66.9686305593" lon="14.8201916589">
		<tag k="name" v="Innernes" />
		<tag k="place" v="farm" />
		<tag k="ssr:stedsnr" v="638089" />
	</node>
	<node id="-162937" lat="66.9824333321" lon="14.7584249886">
		<tag k="name" v="Ytterlia" />
		<tag k="place" v="farm" />
		<tag k="ssr:stedsnr" v="638005" />
	</node>
	<node id="-161398" lat="66.8873722183" lon="14.8656972178">
		<tag k="name" v="Gammelheimen" />
		<tag k="place" v="locality" />
		<tag k="ssr:stedsnr" v="405811" />
	</node>
	<node id="-160883" lat="66.9359478555" lon="14.7909729209">
		<tag k="alt_name" v="Hemminghyt;Heminghytten" />
		<tag k="name" v="Heminghytta" />
		<tag k="place" v="farm" />
		<tag k="ssr:stedsnr" v="222962" />
	</node>
	<node id="-160882" lat="67.0201288403" lon="14.554529458">
		<tag k="name" v="Arstad" />
		<tag k="place" v="farm" />
		<tag k="ssr:stedsnr" v="222961" />
	</node>
	<node id="-161904" lat="67.073421963" lon="14.484608998">
		<tag k="fixme" v="consider place=hamlet" />
		<tag k="name" v="Agnesli" />
		<tag k="place" v="farm" />
		<tag k="ssr:stedsnr" v="805213" />
	</node>
	<node id="-162415" lat="66.9151333324" lon="14.7761749932">
		<tag k="name" v="Løssiheimen" />
		<tag k="place" v="locality" />
		<tag k="ssr:stedsnr" v="153201" />
	</node>
	<node id="-161041" lat="67.087263887" lon="14.3927111087">
		<tag k="name" v="Svinnes" />
		<tag k="place" v="farm" />
		<tag k="ssr:stedsnr" v="137255" />
	</node>
	<node id="-161892" lat="66.9201527748" lon="14.805966661">
		<tag k="alt_name" v="Tollålia" />
		<tag k="name" v="Tollåli" />
		<tag k="place" v="farm" />
		<tag k="ssr:stedsnr" v="926600" />
	</node>
	<node id="-162400" lat="66.9819833372" lon="14.8023916758">
		<tag k="name" v="Rishågen" />
		<tag k="place" v="isolated_dwelling" />
		<tag k="ssr:stedsnr" v="153042" />
	</node>
	<node id="-161373" lat="66.8990728116" lon="14.8204607108">
		<tag k="alt_name" v="Nedre Tollådal;Nedre Tollådalen;Trollådalen, nedre" />
		<tag k="fixme" v="consider place=hamlet" />
		<tag k="name" v="Tollådalen" />
		<tag k="place" v="farm" />
		<tag k="ssr:stedsnr" v="385804" />
	</node>
	<node id="-161370" lat="66.8571055521" lon="14.6411833218">
		<tag k="name" v="Nylund" />
		<tag k="place" v="farm" />
		<tag k="ssr:stedsnr" v="298980" />
	</node>
	<node id="-161551" lat="67.123538892" lon="14.3874305565">
		<tag k="name" v="Hertvikplassen" />
		<tag k="place" v="locality" />
		<tag k="ssr:stedsnr" v="510102" />
	</node>
	<node id="-162901" lat="66.8797250032" lon="14.9281333341">
		<tag k="name" v="Larshaugnes" />
		<tag k="place" v="farm" />
		<tag k="ssr:stedsnr" v="628398" />
	</node>
	<node id="-162900" lat="66.8032583302" lon="14.6275222102">
		<tag k="alt_name" v="Litljorda" />
		<tag k="name" v="Lillejorda" />
		<tag k="place" v="isolated_dwelling" />
		<tag k="ssr:stedsnr" v="623777" />
	</node>
	<node id="-161363" lat="67.0066833328" lon="14.5764416582">
		<tag k="alt_name" v="Moldjorda" />
		<tag k="fixme" v="consider place=suburb, village or hamlet" />
		<tag k="name" v="Moldjord" />
		<tag k="place" v="quarter" />
		<tag k="ssr:stedsnr" v="501617" />
	</node>
	<node id="-161362" lat="66.9218934641" lon="14.7862929447">
		<tag k="fixme" v="consider place=hamlet" />
		<tag k="name" v="Tollåga" />
		<tag k="place" v="farm" />
		<tag k="ssr:stedsnr" v="501594" />
	</node>
	<node id="-161873" lat="67.1124066882" lon="14.3982034847">
		<tag k="fixme" v="consider place=hamlet" />
		<tag k="name" v="Bjerkelia" />
		<tag k="place" v="farm" />
		<tag k="ssr:stedsnr" v="926435" />
	</node>
	<node id="-162891" lat="66.9894944432" lon="14.7599944332">
		<tag k="alt_name" v="Storjorda" />
		<tag k="name" v="Storjord" />
		<tag k="place" v="hamlet" />
		<tag k="ssr:stedsnr" v="623390" />
	</node>
	<node id="-161865" lat="66.8238333308" lon="14.6580638845">
		<tag k="alt_name" v="Hammarsnes" />
		<tag k="fixme" v="consider place=hamlet" />
		<tag k="name" v="Hammarnes" />
		<tag k="place" v="farm" />
		<tag k="ssr:stedsnr" v="926391" />
	</node>
	<node id="-162886" lat="67.0825908534" lon="14.3976948072">
		<tag k="fixme" v="consider place=hamlet" />
		<tag k="name" v="Evja" />
		<tag k="place" v="farm" />
		<tag k="ssr:stedsnr" v="623295" />
	</node>
	<node id="-161858" lat="66.9970861157" lon="14.6898694416">
		<tag k="alt_name" v="Forsmoen" />
		<tag k="name" v="Førsmoen" />
		<tag k="place" v="farm" />
		<tag k="ssr:stedsnr" v="926284" />
	</node>
	<node id="-161857" lat="67.0705614866" lon="14.5895403631">
		<tag k="fixme" v="consider place=hamlet" />
		<tag k="name" v="Sandvika" />
		<tag k="place" v="farm" />
		<tag k="ssr:stedsnr" v="926272" />
	</node>
	<node id="-161344" lat="66.7071027779" lon="14.5015638951">
		<tag k="alt_name" v="Nevernes" />
		<tag k="fixme" v="consider tourism=alpine_hut or tourism=chalet" />
		<tag k="name" v="Neverneshytta" />
		<tag k="ssr:stedsnr" v="501482" />
		<tag k="tourism" v="wilderness_hut" />
	</node>
	<node id="-162751" lat="66.9888277789" lon="14.4365222174">
		<tag k="name" v="Nystad" />
		<tag k="place" v="locality" />
		<tag k="ssr:stedsnr" v="562260" />
	</node>
	<node id="-161337" lat="66.8384166661" lon="14.6731249925">
		<tag k="name" v="Nymoen" />
		<tag k="place" v="isolated_dwelling" />
		<tag k="ssr:stedsnr" v="501401" />
	</node>
	<node id="-161847" lat="66.9761555579" lon="14.8245805615">
		<tag k="name" v="Djupålia" />
		<tag k="place" v="farm" />
		<tag k="ssr:stedsnr" v="760081" />
	</node>
	<node id="-162357" lat="66.9722761286" lon="14.8137246032">
		<tag k="fixme" v="consider place=hamlet" />
		<tag k="name" v="Nes" />
		<tag k="place" v="farm" />
		<tag k="ssr:stedsnr" v="142397" />
	</node>
	<node id="-162356" lat="66.9200611079" lon="14.7542833254">
		<tag k="name" v="Solås" />
		<tag k="place" v="farm" />
		<tag k="ssr:stedsnr" v="137598" />
	</node>
	<node id="-161330" lat="66.8446388864" lon="14.6756861158">
		<tag k="name" v="Rønnvadnes" />
		<tag k="place" v="farm" />
		<tag k="ssr:stedsnr" v="359865" />
	</node>
	<node id="-161840" lat="67.0006777796" lon="14.6003888937">
		<tag k="name" v="Storvollen" />
		<tag k="place" v="farm" />
		<tag k="ssr:stedsnr" v="759283" />
	</node>
	<node id="-162861" lat="66.8193583347" lon="14.6456722168">
		<tag k="name" v="Nygård" />
		<tag k="place" v="farm" />
		<tag k="ssr:stedsnr" v="622418" />
	</node>
	<node id="-162860" lat="66.7972861102" lon="14.6176055604">
		<tag k="name" v="Bakklund" />
		<tag k="place" v="farm" />
		<tag k="ssr:stedsnr" v="622403" />
	</node>
	<node id="-162344" lat="66.7943583323" lon="14.6123972219">
		<tag k="name" v="Kroknes" />
		<tag k="place" v="farm" />
		<tag k="ssr:stedsnr" v="137376" />
	</node>
	<node id="-162343" lat="66.7881166706" lon="14.6091972271">
		<tag k="alt_name" v="Lyngmo" />
		<tag k="name" v="Lyngmoen" />
		<tag k="place" v="farm" />
		<tag k="ssr:stedsnr" v="137375" />
	</node>
	<node id="-162339" lat="66.9458305543" lon="14.7966555614">
		<tag k="fixme" v="multiple name tags, choose one and add the other to alt_name" />
		<tag k="name" v="Stormoen;Tonemoen" />
		<tag k="place" v="farm" />
		<tag k="ssr:stedsnr" v="137556" />
	</node>
	<node id="-162850" lat="66.8557225678" lon="14.6747063472">
		<tag k="fixme" v="consider place=hamlet" />
		<tag k="name" v="Brannhei" />
		<tag k="place" v="farm" />
		<tag k="ssr:stedsnr" v="601843" />
	</node>
	<node id="-161822" lat="66.7467277775" lon="14.5531305508">
		<tag k="name" v="Sletten" />
		<tag k="place" v="farm" />
		<tag k="ssr:stedsnr" v="744414" />
	</node>
	<node id="-162332" lat="66.7524251047" lon="14.5666235944">
		<tag k="fixme" v="consider place=hamlet" />
		<tag k="name" v="Staupåmoen" />
		<tag k="place" v="farm" />
		<tag k="ssr:stedsnr" v="137370" />
	</node>
	<node id="-161819" lat="66.9629805554" lon="14.825549993">
		<tag k="alt_name" v="Skytmark" />
		<tag k="name" v="Skyttmarka" />
		<tag k="place" v="farm" />
		<tag k="ssr:stedsnr" v="744527" />
	</node>
	<node id="-161816" lat="66.8169527762" lon="14.6416777679">
		<tag k="alt_name" v="Kjæreng" />
		<tag k="name" v="Kjerreng" />
		<tag k="place" v="farm" />
		<tag k="ssr:stedsnr" v="744364" />
	</node>
	<node id="-161437" lat="67.0013722187" lon="14.6326250055">
		<tag k="name" v="Øverjorden" />
		<tag k="place" v="farm" />
		<tag k="ssr:stedsnr" v="517672" />
	</node>
	<node id="-162324" lat="67.0038840908" lon="14.6235440993">
		<tag k="alt_name" v="Kvel" />
		<tag k="fixme" v="consider place=hamlet" />
		<tag k="name" v="Kvæl" />
		<tag k="place" v="farm" />
		<tag k="ssr:stedsnr" v="116659" />
	</node>
	<node id="-161810" lat="66.9992907302" lon="14.6645407114">
		<tag k="name" v="Navjordgarden" />
		<tag k="place" v="farm" />
		<tag k="ssr:stedsnr" v="744226" />
	</node>
	<node id="-161289" lat="66.8804944405" lon="14.6588027723">
		<tag k="name" v="Øsphågen" />
		<tag k="place" v="isolated_dwelling" />
		<tag k="ssr:stedsnr" v="298953" />
	</node>
	<node id="-162881" lat="66.9170794373" lon="14.7577825786">
		<tag k="alt_name" v="Troli" />
		<tag k="name" v="Troålia" />
		<tag k="place" v="hamlet" />
		<tag k="ssr:stedsnr" v="622612" />
	</node>
	<node id="-161284" lat="66.9961898402" lon="14.7253299569">
		<tag k="fixme" v="consider place=hamlet" />
		<tag k="name" v="Strand" />
		<tag k="place" v="farm" />
		<tag k="ssr:stedsnr" v="320384" />
	</node>
</osm>
