<?xml version="1.0" encoding="UTF-8"?>
<osm generator="osmapis" version="0.6">
	<node id="-161790" lat="66.8646583317" lon="14.6882388837">
		<tag k="name" v="Blåmones" />
		<tag k="natural" v="cape" />
		<tag k="ssr:stedsnr" v="723828" />
	</node>
	<node id="-161775" lat="67.0106111122" lon="14.5393138919">
		<tag k="name" v="Mølnåga" />
		<tag k="ssr:stedsnr" v="699222" />
		<tag k="waterway" v="stream" />
	</node>
	<node id="-161755" lat="67.0100472223" lon="14.893424996">
		<tag k="name" v="Reinhornvatnet" />
		<tag k="natural" v="water" />
		<tag k="ssr:stedsnr" v="683912" />
	</node>
	<node id="-161754" lat="66.9351138884" lon="14.9198972325">
		<tag k="name" v="Gammåga" />
		<tag k="ssr:stedsnr" v="683571" />
		<tag k="waterway" v="stream" />
	</node>
	<node id="-161753" lat="66.9590444449" lon="14.8268361203">
		<tag k="alt_name" v="Gjeddåga, store" />
		<tag k="fixme" v="multiple name tags, choose one and add the other to alt_name" />
		<tag k="name" v="Gjeddåga;Store Gjeddåga" />
		<tag k="ssr:stedsnr" v="683556" />
		<tag k="waterway" v="river" />
	</node>
	<node id="-161752" lat="66.9526777763" lon="14.9491416555">
		<tag k="alt_name" v="Holmvatna, nedre" />
		<tag k="name" v="Nedre Holmvatna" />
		<tag k="natural" v="water" />
		<tag k="ssr:stedsnr" v="683553" />
		<tag k="water" v="lake" />
	</node>
	<node id="-161750" lat="66.7237916685" lon="14.9802027674">
		<tag k="name" v="Stallogropvatnet - Stálloråggejávrre" />
		<tag k="name:no" v="Stallogropvatnet" />
		<tag k="name:smj" v="Stálloråggejávrre" />
		<tag k="natural" v="water" />
		<tag k="old_name:smj" v="Stalloråggijavri" />
		<tag k="ssr:stedsnr" v="683508" />
	</node>
	<node id="-161747" lat="66.8858388901" lon="14.7608138839">
		<tag k="alt_name" v="Klipbekken" />
		<tag k="name" v="Klipåga" />
		<tag k="ssr:stedsnr" v="683476" />
		<tag k="waterway" v="stream" />
	</node>
	<node id="-161745" lat="66.9245499966" lon="14.6863722226">
		<tag k="name" v="Gamåga" />
		<tag k="ssr:stedsnr" v="683458" />
		<tag k="waterway" v="stream" />
	</node>
	<node id="-161740" lat="66.7148416642" lon="14.5296083278">
		<tag k="name" v="Skredbekken" />
		<tag k="ssr:stedsnr" v="683406" />
		<tag k="waterway" v="stream" />
	</node>
	<node id="-161735" lat="66.9968361134" lon="14.8007416588">
		<tag k="name" v="Pilmyrførsen" />
		<tag k="natural" v="waterfall" />
		<tag k="ssr:stedsnr" v="881991" />
	</node>
	<node id="-161729" lat="66.8115250034" lon="14.6472638855">
		<tag k="name" v="Magdajokkforsen" />
		<tag k="natural" v="waterfall" />
		<tag k="ssr:stedsnr" v="881788" />
	</node>
	<node id="-161725" lat="67.0140805567" lon="14.7202944361">
		<tag k="name" v="Gleina" />
		<tag k="natural" v="cape" />
		<tag k="ssr:stedsnr" v="881758" />
	</node>
	<node id="-161722" lat="67.0172722246" lon="14.6195277825">
		<tag k="name" v="Stjørdalåga" />
		<tag k="ssr:stedsnr" v="881696" />
		<tag k="waterway" v="river" />
	</node>
	<node id="-161715" lat="66.9209194422" lon="14.7594916762">
		<tag k="name" v="Troåga" />
		<tag k="ssr:stedsnr" v="881188" />
		<tag k="waterway" v="river" />
	</node>
	<node id="-161711" lat="66.9404222249" lon="14.7803027886">
		<tag k="name" v="Tortenvadet" />
		<tag k="place" v="locality" />
		<tag k="ssr:stedsnr" v="881142" />
	</node>
	<node id="-161707" lat="66.9618444423" lon="14.8242805495">
		<tag k="name" v="Mølnnes" />
		<tag k="natural" v="cape" />
		<tag k="ssr:stedsnr" v="881096" />
	</node>
	<node id="-161703" lat="66.9925250007" lon="14.6287111082">
		<tag k="name" v="Knivnesan" />
		<tag k="natural" v="cape" />
		<tag k="ssr:stedsnr" v="662915" />
	</node>
	<node id="-161698" lat="66.8267500026" lon="14.8927638988">
		<tag k="name" v="Storpåskforsen" />
		<tag k="natural" v="waterfall" />
		<tag k="ssr:stedsnr" v="877985" />
	</node>
	<node id="-161697" lat="66.911325" lon="14.7666805534">
		<tag k="alt_name" v="Haugførsen" />
		<tag k="name" v="Høgforsen" />
		<tag k="natural" v="waterfall" />
		<tag k="ssr:stedsnr" v="877327" />
	</node>
	<node id="-161694" lat="67.012841671" lon="14.7202861066">
		<tag k="name" v="Gleinåga" />
		<tag k="ssr:stedsnr" v="638759" />
		<tag k="waterway" v="stream" />
	</node>
	<node id="-161687" lat="66.8315444435" lon="14.6601777781">
		<tag k="name" v="Ytternes" />
		<tag k="natural" v="cape" />
		<tag k="ssr:stedsnr" v="637823" />
	</node>
	<node id="-161674" lat="66.981263891" lon="14.4123305499">
		<tag k="name" v="Lisl-Skilåvatnet" />
		<tag k="natural" v="water" />
		<tag k="ssr:stedsnr" v="630253" />
		<tag k="water" v="lake" />
	</node>
	<node id="-161671" lat="66.7746916693" lon="14.4499888978">
		<tag k="name" v="Rundhompforsen" />
		<tag k="natural" v="waterfall" />
		<tag k="ssr:stedsnr" v="623407" />
	</node>
	<node id="-161668" lat="66.8990250034" lon="14.6790777892">
		<tag k="name" v="Mølnvatnet" />
		<tag k="natural" v="water" />
		<tag k="ssr:stedsnr" v="723911" />
	</node>
	<node id="-161664" lat="66.8800777787" lon="14.6657916735">
		<tag k="alt_name" v="Lillegrottåtunga" />
		<tag k="name" v="Litlegråtåtunga" />
		<tag k="natural" v="cape" />
		<tag k="ssr:stedsnr" v="601955" />
	</node>
	<node id="-161661" lat="66.9021138884" lon="14.6854777852">
		<tag k="name" v="Rundvatnet" />
		<tag k="natural" v="water" />
		<tag k="ssr:stedsnr" v="601815" />
	</node>
	<node id="-161657" lat="67.0111500014" lon="14.5383083362">
		<tag k="name" v="Hammarosen" />
		<tag k="natural" v="bay" />
		<tag k="ssr:stedsnr" v="578221" />
	</node>
	<node id="-161646" lat="66.810861111" lon="14.8930361193">
		<tag k="name" v="Bevertjønna" />
		<tag k="natural" v="water" />
		<tag k="ssr:stedsnr" v="573287" />
	</node>
	<node id="-161645" lat="66.8019861097" lon="14.719633332">
		<tag k="name" v="Langvatnet" />
		<tag k="natural" v="water" />
		<tag k="ssr:stedsnr" v="571073" />
	</node>
	<node id="-161640" lat="66.7671611096" lon="14.5742166744">
		<tag k="name" v="Sveinnesbekken" />
		<tag k="ssr:stedsnr" v="570261" />
		<tag k="waterway" v="stream" />
	</node>
	<node id="-161636" lat="66.9258111079" lon="14.9746833265">
		<tag k="name" v="Atomvasselva" />
		<tag k="ssr:stedsnr" v="570088" />
		<tag k="waterway" v="stream" />
	</node>
	<node id="-161635" lat="66.9741611085" lon="14.9656333432">
		<tag k="name" v="Magervatnet" />
		<tag k="natural" v="water" />
		<tag k="ssr:stedsnr" v="567405" />
	</node>
	<node id="-161633" lat="66.8767666706" lon="14.7712166683">
		<tag k="name" v="Tellingsbekken" />
		<tag k="ssr:stedsnr" v="562518" />
		<tag k="waterway" v="stream" />
	</node>
	<node id="-161627" lat="66.95060833" lon="14.6830027714">
		<tag k="name" v="Kvalvatnet - Ihtarjávrre" />
		<tag k="name:no" v="Kvalvatnet" />
		<tag k="name:smj" v="Ihtarjávrre" />
		<tag k="natural" v="water" />
		<tag k="ssr:stedsnr" v="562224" />
		<tag k="water" v="lake" />
	</node>
	<node id="-161625" lat="66.967738891" lon="14.8566194471">
		<tag k="alt_name" v="Gjeddåga, l" />
		<tag k="fixme" v="multiple name tags, choose one and add the other to alt_name" />
		<tag k="name" v="Gamåga;Litle Gjeddåga" />
		<tag k="ssr:stedsnr" v="561565" />
		<tag k="waterway" v="river" />
	</node>
	<node id="-161624" lat="67.1354000004" lon="14.3880638883">
		<tag k="name" v="Djupvatnet" />
		<tag k="natural" v="water" />
		<tag k="ssr:stedsnr" v="561502" />
		<tag k="water" v="lake" />
	</node>
	<node id="-161622" lat="67.0432416667" lon="14.4282749914">
		<tag k="name" v="Lurtjønna" />
		<tag k="natural" v="water" />
		<tag k="ssr:stedsnr" v="561352" />
	</node>
	<node id="-161621" lat="66.8696638859" lon="14.6112750002">
		<tag k="alt_name" v="Austfjellførsen" />
		<tag k="name" v="Austfjellforsen" />
		<tag k="natural" v="waterfall" />
		<tag k="ssr:stedsnr" v="561458" />
	</node>
	<node id="-161616" lat="66.8169333334" lon="14.6592305585">
		<tag k="name" v="Møsåga" />
		<tag k="ssr:stedsnr" v="699785" />
		<tag k="waterway" v="stream" />
	</node>
	<node id="-161611" lat="67.0200833349" lon="14.5628194499">
		<tag k="name" v="Naustosen" />
		<tag k="natural" v="bay" />
		<tag k="ssr:stedsnr" v="699693" />
	</node>
	<node id="-161608" lat="67.0155027747" lon="14.5604333293">
		<tag k="name" v="Dokkmoosen" />
		<tag k="natural" v="bay" />
		<tag k="ssr:stedsnr" v="699246" />
	</node>
	<node id="-161606" lat="67.0014583305" lon="14.5960777708">
		<tag k="name" v="Storøyra" />
		<tag k="natural" v="shoal" />
		<tag k="place" v="locality" />
		<tag k="ssr:stedsnr" v="699293" />
	</node>
	<node id="-161604" lat="66.9304083316" lon="14.7811194502">
		<tag k="name" v="Rauberghølmen" />
		<tag k="place" v="islet" />
		<tag k="ssr:stedsnr" v="699147" />
	</node>
	<node id="-161603" lat="66.9238611069" lon="14.7211138913">
		<tag k="name" v="Blankkjelda" />
		<tag k="ssr:stedsnr" v="699136" />
		<tag k="waterway" v="stream" />
	</node>
	<node id="-161594" lat="66.869386115" lon="14.6411166692">
		<tag k="name" v="Nedre Svartvassgrotta" />
		<tag k="natural" v="cape" />
		<tag k="ssr:stedsnr" v="541956" />
	</node>
	<node id="-161569" lat="66.9005888859" lon="14.8502055549">
		<tag k="name" v="Storforsen" />
		<tag k="natural" v="waterfall" />
		<tag k="ssr:stedsnr" v="689392" />
	</node>
	<node id="-161566" lat="66.8435916652" lon="14.6717527691">
		<tag k="name" v="Moldfornes" />
		<tag k="natural" v="cape" />
		<tag k="ssr:stedsnr" v="517835" />
	</node>
	<node id="-161565" lat="66.8073527811" lon="14.6534361009">
		<tag k="name" v="Magdatindselva" />
		<tag k="ssr:stedsnr" v="517821" />
		<tag k="waterway" v="river" />
	</node>
	<node id="-161559" lat="67.0286583358" lon="14.5955694551">
		<tag k="name" v="Meosen" />
		<tag k="natural" v="bay" />
		<tag k="ssr:stedsnr" v="517721" />
	</node>
	<node id="-161556" lat="66.8541666662" lon="14.6999305612">
		<tag k="name" v="Tverråga" />
		<tag k="ssr:stedsnr" v="684774" />
		<tag k="waterway" v="river" />
	</node>
	<node id="-161553" lat="66.9343944412" lon="14.9900972312">
		<tag k="name" v="Tjønna" />
		<tag k="natural" v="water" />
		<tag k="ssr:stedsnr" v="510132" />
	</node>
	<node id="-161550" lat="66.9842222255" lon="14.8319750108">
		<tag k="alt_name" v="Hellebekken" />
		<tag k="name" v="Hellåga" />
		<tag k="ssr:stedsnr" v="684561" />
		<tag k="waterway" v="stream" />
	</node>
	<node id="-161549" lat="67.1267888873" lon="14.3733666615">
		<tag k="name" v="Norddalsvatnet" />
		<tag k="natural" v="water" />
		<tag k="ssr:stedsnr" v="510067" />
	</node>
	<node id="-161544" lat="66.9012388902" lon="14.644305545">
		<tag k="alt_name" v="Gråtåga, litle;Lillegrottåga" />
		<tag k="name" v="Litle Gråtåga" />
		<tag k="ssr:stedsnr" v="684463" />
		<tag k="waterway" v="stream" />
	</node>
	<node id="-161532" lat="67.0190527773" lon="14.8369944538">
		<tag k="name" v="Langvatnet" />
		<tag k="natural" v="water" />
		<tag k="ssr:stedsnr" v="683888" />
	</node>
	<node id="-161531" lat="67.0142111068" lon="14.787622221">
		<tag k="name" v="Merkåvatnet" />
		<tag k="natural" v="water" />
		<tag k="ssr:stedsnr" v="683886" />
	</node>
	<node id="-161526" lat="67.0622166638" lon="14.7417472262">
		<tag k="alt_name" v="Lurfjellvatnet, ytre" />
		<tag k="name" v="Ytre Lurfjellvatnet" />
		<tag k="natural" v="water" />
		<tag k="ssr:stedsnr" v="683585" />
		<tag k="water" v="lake" />
	</node>
	<node id="-161523" lat="66.9076222251" lon="14.9212833317">
		<tag k="name" v="Tindvatnet" />
		<tag k="natural" v="water" />
		<tag k="ssr:stedsnr" v="683582" />
	</node>
	<node id="-161520" lat="66.7352722206" lon="14.5348694333">
		<tag k="name" v="Uråga" />
		<tag k="ssr:stedsnr" v="683426" />
		<tag k="waterway" v="stream" />
	</node>
	<node id="-161516" lat="66.835102776" lon="14.5949222192">
		<tag k="name" v="Svartoksbekken" />
		<tag k="ssr:stedsnr" v="683392" />
		<tag k="waterway" v="stream" />
	</node>
	<node id="-161515" lat="66.8836194421" lon="14.7772694433">
		<tag k="alt_name" v="Storhaugbekken" />
		<tag k="name" v="Storhågbekken" />
		<tag k="ssr:stedsnr" v="683481" />
		<tag k="waterway" v="stream" />
	</node>
	<node id="-161512" lat="67.0223416663" lon="14.4135472148">
		<tag k="name" v="Grønåsvatnet" />
		<tag k="natural" v="water" />
		<tag k="ssr:stedsnr" v="683297" />
	</node>
	<node id="-161511" lat="67.094874999" lon="14.6115583285">
		<tag k="alt_name" v="Sandvatnet, l" />
		<tag k="name" v="Litle Sandvatnet" />
		<tag k="natural" v="water" />
		<tag k="ssr:stedsnr" v="683282" />
	</node>
	<node id="-161510" lat="66.9854305539" lon="14.4258722195">
		<tag k="name" v="Skjilåga" />
		<tag k="ssr:stedsnr" v="683269" />
		<tag k="waterway" v="stream" />
	</node>
	<node id="-161509" lat="67.0606250006" lon="14.4301416654">
		<tag k="name" v="Morten-Jonsaelva" />
		<tag k="ssr:stedsnr" v="683251" />
		<tag k="waterway" v="stream" />
	</node>
	<node id="-161508" lat="67.0560166626" lon="14.4725944475">
		<tag k="name" v="Tverråga" />
		<tag k="ssr:stedsnr" v="683248" />
		<tag k="waterway" v="stream" />
	</node>
	<node id="-161505" lat="66.7969083302" lon="14.3780416743">
		<tag k="name" v="Vegdalsvatnan - Gæjnnovákjávrre" />
		<tag k="name:no" v="Vegdalsvatnan" />
		<tag k="name:smj" v="Gæjnnovákjávrre" />
		<tag k="natural" v="water" />
		<tag k="ssr:stedsnr" v="683386" />
		<tag k="water" v="lake" />
	</node>
	<node id="-161502" lat="67.0233833346" lon="14.8731277892">
		<tag k="name" v="Steintjønna" />
		<tag k="natural" v="water" />
		<tag k="ssr:stedsnr" v="501878" />
	</node>
	<node id="-161487" lat="66.8424833309" lon="14.7063194538">
		<tag k="name" v="Reinhagbekken" />
		<tag k="ssr:stedsnr" v="480868" />
		<tag k="waterway" v="stream" />
	</node>
	<node id="-161486" lat="67.0280666682" lon="14.6069277739">
		<tag k="name" v="Vassosbekken" />
		<tag k="ssr:stedsnr" v="480852" />
		<tag k="waterway" v="stream" />
	</node>
	<node id="-161479" lat="66.851416665" lon="14.6740916727">
		<tag k="name" v="Monsvassbekken" />
		<tag k="ssr:stedsnr" v="662934" />
		<tag k="waterway" v="stream" />
	</node>
	<node id="-161468" lat="66.8871138863" lon="14.728224988">
		<tag k="name" v="Lillenes" />
		<tag k="natural" v="cape" />
		<tag k="ssr:stedsnr" v="662794" />
	</node>
	<node id="-161459" lat="66.8718694439" lon="14.9466611197">
		<tag k="name" v="Skulnesbekken" />
		<tag k="ssr:stedsnr" v="449411" />
		<tag k="waterway" v="stream" />
	</node>
	<node id="-161457" lat="66.87963889" lon="14.9208305531">
		<tag k="name" v="Mikkelnes" />
		<tag k="natural" v="cape" />
		<tag k="ssr:stedsnr" v="449409" />
	</node>
	<node id="-161456" lat="66.9267777764" lon="14.9213861182">
		<tag k="name" v="Øverforsen" />
		<tag k="natural" v="waterfall" />
		<tag k="ssr:stedsnr" v="449404" />
	</node>
	<node id="-161452" lat="66.7613666659" lon="14.57212499">
		<tag k="name" v="Tørrbekken" />
		<tag k="ssr:stedsnr" v="449302" />
		<tag k="waterway" v="stream" />
	</node>
	<node id="-161451" lat="67.043697218" lon="14.4530361115">
		<tag k="name" v="Grønåselva" />
		<tag k="ssr:stedsnr" v="449129" />
		<tag k="waterway" v="river" />
	</node>
	<node id="-161447" lat="66.9852972181" lon="14.6438333401">
		<tag k="name" v="Eiteråga - Ihtarjåhkå" />
		<tag k="name:no" v="Eiteråga" />
		<tag k="name:se" v="Ihtarjåhkå" />
		<tag k="ssr:stedsnr" v="441788" />
		<tag k="waterway" v="river" />
	</node>
	<node id="-163249" lat="66.9416694448" lon="14.8367527673">
		<tag k="name" v="Vollpedaltjønna" />
		<tag k="natural" v="water" />
		<tag k="ssr:stedsnr" v="951783" />
	</node>
	<node id="-161443" lat="67.0148361125" lon="14.7065750102">
		<tag k="name" v="Krokåga" />
		<tag k="ssr:stedsnr" v="517783" />
		<tag k="waterway" v="stream" />
	</node>
	<node id="-161440" lat="67.0099179242" lon="14.5069235776">
		<tag k="name" v="Sørførsen" />
		<tag k="natural" v="waterfall" />
		<tag k="ssr:stedsnr" v="517763" />
	</node>
	<node id="-161433" lat="67.000433331" lon="14.6544222131">
		<tag k="name" v="Skyttøyra" />
		<tag k="natural" v="cape" />
		<tag k="ssr:stedsnr" v="517645" />
	</node>
	<node id="-161423" lat="66.9983444462" lon="14.5733388868">
		<tag k="name" v="Middagsåga" />
		<tag k="ssr:stedsnr" v="516325" />
		<tag k="waterway" v="stream" />
	</node>
	<node id="-161417" lat="66.9303777756" lon="14.9574027732">
		<tag k="name" v="Kvannhølelva" />
		<tag k="ssr:stedsnr" v="510462" />
		<tag k="waterway" v="river" />
	</node>
	<node id="-161045" lat="67.1062611144" lon="14.4072777768">
		<tag k="name" v="Ågvatnet" />
		<tag k="natural" v="water" />
		<tag k="ssr:stedsnr" v="137456" />
	</node>
	<node id="-161399" lat="67.086424997" lon="14.3919277847">
		<tag k="name" v="Naustosen" />
		<tag k="natural" v="bay" />
		<tag k="ssr:stedsnr" v="509331" />
	</node>
	<node id="-161395" lat="66.9764250017" lon="14.8173583232">
		<tag k="name" v="Nesnes" />
		<tag k="natural" v="cape" />
		<tag k="ssr:stedsnr" v="396039" />
	</node>
	<node id="-161386" lat="66.7885777764" lon="14.5900110999">
		<tag k="name" v="Hammerbekken" />
		<tag k="ssr:stedsnr" v="388719" />
		<tag k="waterway" v="stream" />
	</node>
	<node id="-161372" lat="66.9897472176" lon="14.8955305614">
		<tag k="name" v="Mølnåvatnan" />
		<tag k="natural" v="water" />
		<tag k="ssr:stedsnr" v="385461" />
		<tag k="water" v="lake" />
	</node>
	<node id="-161360" lat="66.9443416661" lon="14.9623805619">
		<tag k="name" v="Haraldvatnet" />
		<tag k="natural" v="water" />
		<tag k="ssr:stedsnr" v="501580" />
	</node>
	<node id="-161359" lat="66.9353277747" lon="14.8769166731">
		<tag k="name" v="Ramsgjelvatnet" />
		<tag k="natural" v="water" />
		<tag k="ssr:stedsnr" v="501579" />
		<tag k="water" v="lake" />
	</node>
	<node id="-161358" lat="66.9297194439" lon="14.7389416748">
		<tag k="alt_name" v="Troåtjørna" />
		<tag k="name" v="Troåtjønna" />
		<tag k="natural" v="water" />
		<tag k="ssr:stedsnr" v="501578" />
	</node>
	<node id="-161357" lat="66.9259138913" lon="14.9301249931">
		<tag k="name" v="Tindåga" />
		<tag k="ssr:stedsnr" v="501571" />
		<tag k="waterway" v="river" />
	</node>
	<node id="-161356" lat="66.9575444424" lon="14.7807611094">
		<tag k="name" v="Grønvatnet" />
		<tag k="natural" v="water" />
		<tag k="ssr:stedsnr" v="501565" />
	</node>
	<node id="-161355" lat="66.9654083361" lon="14.9661638991">
		<tag k="name" v="Storgamvatnet" />
		<tag k="natural" v="water" />
		<tag k="ssr:stedsnr" v="501545" />
		<tag k="water" v="lake" />
	</node>
	<node id="-161354" lat="66.9623055563" lon="14.9115722295">
		<tag k="name" v="Elivatnet" />
		<tag k="natural" v="water" />
		<tag k="ssr:stedsnr" v="501542" />
	</node>
	<node id="-161353" lat="66.9633916632" lon="14.9649333396">
		<tag k="name" v="Stabbursdalsvatna" />
		<tag k="natural" v="water" />
		<tag k="ssr:stedsnr" v="501540" />
		<tag k="water" v="lake" />
	</node>
	<node id="-161352" lat="66.8665361077" lon="14.3858138978">
		<tag k="name" v="Tverråga" />
		<tag k="ssr:stedsnr" v="501756" />
		<tag k="waterway" v="river" />
	</node>
	<node id="-161036" lat="67.1200888915" lon="14.3611111141">
		<tag k="name" v="Øvervatnet" />
		<tag k="natural" v="water" />
		<tag k="ssr:stedsnr" v="268076" />
		<tag k="water" v="lake" />
	</node>
	<node id="-161349" lat="66.8443277788" lon="14.3777166663">
		<tag k="name" v="Brudesløret" />
		<tag k="natural" v="waterfall" />
		<tag k="ssr:stedsnr" v="501429" />
	</node>
	<node id="-161347" lat="66.7292083344" lon="14.5333638967">
		<tag k="name" v="Kvannlabekken" />
		<tag k="ssr:stedsnr" v="501423" />
		<tag k="waterway" v="stream" />
	</node>
	<node id="-161346" lat="66.8616833369" lon="14.9757694482">
		<tag k="name" v="Djupvatnet - Tjiegŋalisjávrre" />
		<tag k="name:no" v="Djupvatnet" />
		<tag k="name:smj" v="Tjiegŋalisjávrre" />
		<tag k="natural" v="water" />
		<tag k="ssr:stedsnr" v="501496" />
	</node>
	<node id="-161345" lat="66.90059722" lon="14.8766833377">
		<tag k="name" v="Bullotelva" />
		<tag k="ssr:stedsnr" v="501488" />
		<tag k="waterway" v="stream" />
	</node>
	<node id="-161341" lat="66.96895278" lon="14.3840527735">
		<tag k="alt_name" v="Nævervatnet, nedre" />
		<tag k="name" v="Nedre Nævervatnet" />
		<tag k="natural" v="water" />
		<tag k="ssr:stedsnr" v="501246" />
	</node>
	<node id="-161338" lat="66.9567861154" lon="14.4342861102">
		<tag k="name" v="Staupåga" />
		<tag k="ssr:stedsnr" v="501235" />
		<tag k="waterway" v="stream" />
	</node>
	<node id="-161335" lat="66.794099997" lon="14.7115333372">
		<tag k="name" v="Langvatnet" />
		<tag k="natural" v="water" />
		<tag k="ssr:stedsnr" v="501371" />
	</node>
	<node id="-161328" lat="66.8757416685" lon="14.8721277701">
		<tag k="name" v="Stolpskarvatnet" />
		<tag k="natural" v="water" />
		<tag k="ssr:stedsnr" v="344810" />
	</node>
	<node id="-161327" lat="66.867180555" lon="14.8390972271">
		<tag k="name" v="Tellingvatnet" />
		<tag k="natural" v="water" />
		<tag k="ssr:stedsnr" v="344807" />
	</node>
	<node id="-161320" lat="66.9026666635" lon="14.7613583382">
		<tag k="name" v="Førrholmen" />
		<tag k="place" v="islet" />
		<tag k="ssr:stedsnr" v="335224" />
	</node>
	<node id="-161319" lat="66.8937944407" lon="14.7536110989">
		<tag k="name" v="Høllandbekken" />
		<tag k="ssr:stedsnr" v="335222" />
		<tag k="waterway" v="stream" />
	</node>
	<node id="-161318" lat="66.9191055533" lon="14.7826444541">
		<tag k="name" v="Tollåholmen" />
		<tag k="place" v="islet" />
		<tag k="ssr:stedsnr" v="335218" />
	</node>
	<node id="-161030" lat="67.0726500022" lon="14.4265888856">
		<tag k="name" v="Urskartjønna" />
		<tag k="natural" v="water" />
		<tag k="ssr:stedsnr" v="267350" />
	</node>
	<node id="-161313" lat="66.8948500006" lon="14.6560444386">
		<tag k="name" v="Mokjelda" />
		<tag k="ssr:stedsnr" v="480940" />
		<tag k="waterway" v="stream" />
	</node>
	<node id="-161301" lat="66.9362888926" lon="14.9068166751">
		<tag k="name" v="Innerslottbekken" />
		<tag k="ssr:stedsnr" v="328423" />
		<tag k="waterway" v="stream" />
	</node>
	<node id="-161298" lat="66.7964277782" lon="14.6144805566">
		<tag k="name" v="Kroken" />
		<tag k="natural" v="bay" />
		<tag k="ssr:stedsnr" v="328016" />
	</node>
	<node id="-161291" lat="67.0924611133" lon="14.4442583267">
		<tag k="name" v="Fjellklovelva" />
		<tag k="ssr:stedsnr" v="327404" />
		<tag k="waterway" v="stream" />
	</node>
	<node id="-161281" lat="66.9419027764" lon="14.8537750104">
		<tag k="name" v="Vasshøv" />
		<tag k="natural" v="bay" />
		<tag k="ssr:stedsnr" v="466778" />
	</node>
	<node id="-161270" lat="66.9913972184" lon="14.7069110997">
		<tag k="name" v="Brekkåga" />
		<tag k="ssr:stedsnr" v="274953" />
		<tag k="waterway" v="stream" />
	</node>
	<node id="-161257" lat="66.9440999967" lon="14.8091805646">
		<tag k="name" v="Sildstokkåga" />
		<tag k="ssr:stedsnr" v="274120" />
		<tag k="waterway" v="stream" />
	</node>
	<node id="-161239" lat="66.9149416649" lon="14.781944438">
		<tag k="name" v="Brunes" />
		<tag k="natural" v="cape" />
		<tag k="ssr:stedsnr" v="457198" />
	</node>
	<node id="-161217" lat="67.0354666692" lon="14.5594222335">
		<tag k="name" v="Karenåga" />
		<tag k="ssr:stedsnr" v="456329" />
		<tag k="waterway" v="stream" />
	</node>
	<node id="-161213" lat="67.0114222254" lon="14.7070083237">
		<tag k="name" v="Savåga" />
		<tag k="ssr:stedsnr" v="259321" />
		<tag k="waterway" v="stream" />
	</node>
	<node id="-161211" lat="67.0266138885" lon="14.6346805569">
		<tag k="name" v="Seglfjellvatnet" />
		<tag k="natural" v="water" />
		<tag k="ssr:stedsnr" v="259304" />
	</node>
	<node id="-163256" lat="66.9188419328" lon="14.7673558904">
		<tag k="name" v="Troa" />
		<tag k="place" v="locality" />
		<tag k="ssr:stedsnr" v="976566" />
	</node>
	<node id="-161206" lat="66.7729277814" lon="14.8929972257">
		<tag k="name" v="Bukkhågforsen" />
		<tag k="natural" v="waterfall" />
		<tag k="ssr:stedsnr" v="452985" />
	</node>
	<node id="-163252" lat="66.916286109" lon="14.831505551">
		<tag k="name" v="Asplemvatnet" />
		<tag k="natural" v="water" />
		<tag k="ssr:stedsnr" v="966751" />
	</node>
	<node id="-163251" lat="66.8824638862" lon="14.7659138871">
		<tag k="name" v="Andreasdalbekken" />
		<tag k="ssr:stedsnr" v="965794" />
		<tag k="waterway" v="stream" />
	</node>
	<node id="-161201" lat="66.780005559" lon="14.5812166668">
		<tag k="name" v="Innerslettbekken" />
		<tag k="ssr:stedsnr" v="449296" />
		<tag k="waterway" v="stream" />
	</node>
	<node id="-161199" lat="66.9678833329" lon="14.4303611033">
		<tag k="name" v="Klemethøla" />
		<tag k="ssr:stedsnr" v="449292" />
		<tag k="waterway" v="river" />
	</node>
	<node id="-163241" lat="66.924044445" lon="14.9599000028">
		<tag k="name" v="Storneset" />
		<tag k="natural" v="cape" />
		<tag k="ssr:stedsnr" v="874447" />
	</node>
	<node id="-163239" lat="67.0853972232" lon="14.3641527771">
		<tag k="name" v="Hundholmosen" />
		<tag k="natural" v="bay" />
		<tag k="ssr:stedsnr" v="874348" />
	</node>
	<node id="-163234" lat="66.8793027756" lon="14.7352472148">
		<tag k="name" v="Libekken" />
		<tag k="ssr:stedsnr" v="871384" />
		<tag k="waterway" v="stream" />
	</node>
	<node id="-161185" lat="67.0013166649" lon="14.8491694424">
		<tag k="name" v="Hellåvatnet" />
		<tag k="natural" v="water" />
		<tag k="ssr:stedsnr" v="441924" />
	</node>
	<node id="-161184" lat="67.0148583368" lon="14.8734166768">
		<tag k="name" v="Femvatnan" />
		<tag k="natural" v="water" />
		<tag k="ssr:stedsnr" v="441919" />
		<tag k="water" v="lake" />
	</node>
	<node id="-163231" lat="67.002958337" lon="14.7516111185">
		<tag k="name" v="Merkåga" />
		<tag k="ssr:stedsnr" v="866902" />
		<tag k="waterway" v="stream" />
	</node>
	<node id="-161181" lat="66.9311666671" lon="14.7540111099">
		<tag k="name" v="Tulleråga" />
		<tag k="ssr:stedsnr" v="441606" />
		<tag k="waterway" v="stream" />
	</node>
	<node id="-163228" lat="66.9084833364" lon="14.7238722143">
		<tag k="alt_name" v="Skardåga" />
		<tag k="name" v="Skaråga" />
		<tag k="ssr:stedsnr" v="866595" />
		<tag k="waterway" v="stream" />
	</node>
	<node id="-163227" lat="66.9004361153" lon="14.7612194416">
		<tag k="name" v="Bruforsen" />
		<tag k="natural" v="waterfall" />
		<tag k="ssr:stedsnr" v="866592" />
	</node>
	<node id="-163225" lat="66.757022223" lon="14.8425444476">
		<tag k="name" v="Ávajåhkå" />
		<tag k="name:smj" v="Ávajåhkå" />
		<tag k="old_name:smj" v="Avajåkka" />
		<tag k="ssr:stedsnr" v="866535" />
		<tag k="waterway" v="river" />
	</node>
	<node id="-163224" lat="66.6606138926" lon="14.8073250058">
		<tag k="name" v="Tørrvatnan" />
		<tag k="natural" v="water" />
		<tag k="ssr:stedsnr" v="866517" />
		<tag k="water" v="lake" />
	</node>
	<node id="-163223" lat="66.7354527751" lon="14.9607000027">
		<tag k="name" v="Stallogropelva - Stálloråggejåhkå" />
		<tag k="name:no" v="Stallogropelva" />
		<tag k="name:smj" v="Stálloråggejåhkå" />
		<tag k="old_name:smj" v="Stalloråggijåkka" />
		<tag k="ssr:stedsnr" v="866502" />
		<tag k="waterway" v="river" />
	</node>
	<node id="-163222" lat="66.8946083358" lon="14.7459750055">
		<tag k="name" v="Klipa" />
		<tag k="place" v="locality" />
		<tag k="ssr:stedsnr" v="866488" />
	</node>
	<node id="-163221" lat="66.9044055581" lon="14.952488886">
		<tag k="name" v="Litlestolpevatnet" />
		<tag k="natural" v="water" />
		<tag k="ssr:stedsnr" v="866482" />
	</node>
	<node id="-163219" lat="66.8975638915" lon="14.6713083436">
		<tag k="name" v="Laksdamelva" />
		<tag k="ssr:stedsnr" v="866453" />
		<tag k="waterway" v="stream" />
	</node>
	<node id="-163218" lat="66.8155666698" lon="14.5256305589">
		<tag k="alt_name:no" v="Grottåga" />
		<tag k="name" v="Gråtåga - Suorggejåhkå" />
		<tag k="name:no" v="Gråtåga" />
		<tag k="name:smj" v="Suorggejåhkå" />
		<tag k="ssr:stedsnr" v="866412" />
		<tag k="waterway" v="river" />
	</node>
	<node id="-161169" lat="66.9110500005" lon="14.5144111081">
		<tag k="name" v="Gåvdesåga - Gåbdesjåhkå" />
		<tag k="name:no" v="Gåvdesåga" />
		<tag k="name:smj" v="Gåbdesjåhkå" />
		<tag k="old_name:no" v="Govddesåga" />
		<tag k="ssr:stedsnr" v="441489" />
		<tag k="waterway" v="river" />
	</node>
	<node id="-161166" lat="66.8770694447" lon="14.6006999915">
		<tag k="name" v="Austfjellåga" />
		<tag k="ssr:stedsnr" v="441477" />
		<tag k="waterway" v="stream" />
	</node>
	<node id="-161163" lat="67.1168694472" lon="14.4920249912">
		<tag k="name" v="Sagvatnet" />
		<tag k="natural" v="water" />
		<tag k="ssr:stedsnr" v="441451" />
	</node>
	<node id="-163210" lat="67.0116972199" lon="14.4248638955">
		<tag k="name" v="Rundvatnet" />
		<tag k="natural" v="water" />
		<tag k="ssr:stedsnr" v="866305" />
	</node>
	<node id="-161157" lat="67.0338277758" lon="14.4475138948">
		<tag k="name" v="Klumpvatnet" />
		<tag k="natural" v="water" />
		<tag k="ssr:stedsnr" v="441364" />
	</node>
	<node id="-161154" lat="67.0217027776" lon="14.5087138926">
		<tag k="name" v="Lapphaugvatnet" />
		<tag k="natural" v="water" />
		<tag k="ssr:stedsnr" v="441347" />
	</node>
	<node id="-161152" lat="67.0932277753" lon="14.612077776">
		<tag k="alt_name" v="Sandvasselva, l" />
		<tag k="name" v="Litle Sandvasselva" />
		<tag k="ssr:stedsnr" v="441291" />
		<tag k="waterway" v="stream" />
	</node>
	<node id="-163199" lat="66.946702774" lon="14.8299222272">
		<tag k="alt_name" v="Haugmobekken" />
		<tag k="name" v="Høgmobekken" />
		<tag k="ssr:stedsnr" v="865599" />
		<tag k="waterway" v="stream" />
	</node>
	<node id="-163197" lat="66.8671388917" lon="14.4748638859">
		<tag k="name" v="Søre Hábresvatnan" />
		<tag k="natural" v="water" />
		<tag k="old_name" v="Hábresvatnan, s" />
		<tag k="ssr:stedsnr" v="865483" />
		<tag k="water" v="lake" />
	</node>
	<node id="-161147" lat="66.955536109" lon="14.3801972182">
		<tag k="name" v="Sildravatnan" />
		<tag k="natural" v="water" />
		<tag k="ssr:stedsnr" v="441237" />
		<tag k="water" v="lake" />
	</node>
	<node id="-161146" lat="67.0108888897" lon="14.6082583376">
		<tag k="name" v="Rønnåga" />
		<tag k="ssr:stedsnr" v="441149" />
		<tag k="waterway" v="stream" />
	</node>
	<node id="-161143" lat="67.0667730693" lon="14.4104445428">
		<tag k="name" v="Evjevatnan" />
		<tag k="natural" v="water" />
		<tag k="ssr:stedsnr" v="440273" />
		<tag k="water" v="lake" />
	</node>
	<node id="-163190" lat="66.8584166706" lon="14.6939972183">
		<tag k="name" v="Tverråførsen" />
		<tag k="natural" v="waterfall" />
		<tag k="ssr:stedsnr" v="845893" />
	</node>
	<node id="-161141" lat="66.8483833366" lon="14.6780527731">
		<tag k="name" v="Monsnes" />
		<tag k="natural" v="cape" />
		<tag k="ssr:stedsnr" v="298830" />
	</node>
	<node id="-163187" lat="66.9003250023" lon="14.8561916777">
		<tag k="name" v="Saubekken" />
		<tag k="ssr:stedsnr" v="845810" />
		<tag k="waterway" v="stream" />
	</node>
	<node id="-163186" lat="66.9360249985" lon="14.8432638944">
		<tag k="name" v="Bendikttjønna" />
		<tag k="natural" v="water" />
		<tag k="ssr:stedsnr" v="845780" />
	</node>
	<node id="-163184" lat="66.9100694414" lon="14.8939305621">
		<tag k="name" v="Balmivatnet" />
		<tag k="natural" v="water" />
		<tag k="ssr:stedsnr" v="845767" />
	</node>
	<node id="-163181" lat="66.9410388864" lon="14.8725416697">
		<tag k="name" v="Pe-Jonsoodden" />
		<tag k="natural" v="cape" />
		<tag k="ssr:stedsnr" v="830772" />
	</node>
	<node id="-161129" lat="66.9909416681" lon="14.8975888969">
		<tag k="name" v="Mølnåvatnet" />
		<tag k="natural" v="water" />
		<tag k="ssr:stedsnr" v="298700" />
	</node>
	<node id="-161124" lat="66.9076527761" lon="14.769783328">
		<tag k="name" v="Jojensaneset" />
		<tag k="natural" v="cape" />
		<tag k="ssr:stedsnr" v="214207" />
	</node>
	<node id="-163170" lat="67.0125361118" lon="14.5649583413">
		<tag k="name" v="Lilleåga" />
		<tag k="ssr:stedsnr" v="821245" />
		<tag k="waterway" v="stream" />
	</node>
	<node id="-163167" lat="66.9003944429" lon="14.7626999924">
		<tag k="name" v="Kråga" />
		<tag k="natural" v="bay" />
		<tag k="ssr:stedsnr" v="821216" />
	</node>
	<node id="-161116" lat="67.0058666688" lon="14.9110694502">
		<tag k="name" v="Steinheivatnet" />
		<tag k="natural" v="water" />
		<tag k="ssr:stedsnr" v="198923" />
		<tag k="water" v="lake" />
	</node>
	<node id="-163162" lat="66.9620027815" lon="14.8226861094">
		<tag k="name" v="Saghølmen" />
		<tag k="place" v="islet" />
		<tag k="ssr:stedsnr" v="821084" />
	</node>
	<node id="-163161" lat="67.0118944474" lon="14.4885444477">
		<tag k="name" v="Stubbforsen" />
		<tag k="natural" v="waterfall" />
		<tag k="ssr:stedsnr" v="820743" />
	</node>
	<node id="-161112" lat="66.8824861096" lon="14.8494972132">
		<tag k="fixme" v="multiple name tags, choose one and add the other to alt_name" />
		<tag k="name" v="Loftvatnet;Storloftvatnet" />
		<tag k="natural" v="water" />
		<tag k="ssr:stedsnr" v="198511" />
	</node>
	<node id="-163159" lat="66.7956861127" lon="14.8994416567">
		<tag k="name" v="Bukkhågosen" />
		<tag k="natural" v="bay" />
		<tag k="ssr:stedsnr" v="816978" />
	</node>
	<node id="-163158" lat="66.8620277791" lon="14.9590638885">
		<tag k="name" v="Djupvasselva - Tjiegŋalisjåhkå" />
		<tag k="name:no" v="Djupvasselva" />
		<tag k="name:smj" v="Tjiegŋalisjåhkå" />
		<tag k="ssr:stedsnr" v="816977" />
		<tag k="waterway" v="stream" />
	</node>
	<node id="-163156" lat="67.0504388894" lon="14.465877767">
		<tag k="name" v="Storhøla" />
		<tag k="natural" v="bay" />
		<tag k="ssr:stedsnr" v="814163" />
	</node>
	<node id="-163150" lat="67.0801222204" lon="14.5104222144">
		<tag k="name" v="Brønnvikelva" />
		<tag k="ssr:stedsnr" v="813413" />
		<tag k="waterway" v="river" />
	</node>
	<node id="-161100" lat="67.0154666671" lon="14.6085555459">
		<tag k="name" v="Svalgrøvelva" />
		<tag k="ssr:stedsnr" v="198304" />
		<tag k="waterway" v="stream" />
	</node>
	<node id="-161099" lat="66.9506166699" lon="14.6664249947">
		<tag k="name" v="Kvalvassbekken" />
		<tag k="ssr:stedsnr" v="198216" />
		<tag k="waterway" v="stream" />
	</node>
	<node id="-161095" lat="66.928644446" lon="14.8776138926">
		<tag k="name" v="Ågdalneset" />
		<tag k="natural" v="cape" />
		<tag k="ssr:stedsnr" v="177761" />
	</node>
	<node id="-161093" lat="66.9927611143" lon="14.7803972266">
		<tag k="name" v="Mølnåga" />
		<tag k="ssr:stedsnr" v="177754" />
		<tag k="waterway" v="river" />
	</node>
	<node id="-161090" lat="66.8723805569" lon="14.7102944359">
		<tag k="name" v="Blåmobekken" />
		<tag k="ssr:stedsnr" v="177815" />
		<tag k="waterway" v="stream" />
	</node>
	<node id="-161089" lat="66.8884416626" lon="14.7281638779">
		<tag k="name" v="Hølmen" />
		<tag k="natural" v="cape" />
		<tag k="ssr:stedsnr" v="177807" />
	</node>
	<node id="-161088" lat="66.9450361087" lon="14.8566833284">
		<tag k="name" v="Sandvika" />
		<tag k="natural" v="bay" />
		<tag k="ssr:stedsnr" v="284797" />
	</node>
	<node id="-163135" lat="66.9716222234" lon="14.3906277805">
		<tag k="name" v="Lisl-Nevervatnet" />
		<tag k="natural" v="water" />
		<tag k="ssr:stedsnr" v="813244" />
		<tag k="water" v="lake" />
	</node>
	<node id="-163122" lat="66.962491669" lon="14.9381722325">
		<tag k="name" v="Nervatnet" />
		<tag k="natural" v="water" />
		<tag k="ssr:stedsnr" v="810421" />
	</node>
	<node id="-163119" lat="67.0195638874" lon="14.8235972311">
		<tag k="alt_name" v="Leiråvatnet, store" />
		<tag k="name" v="Store Leiråvatnet" />
		<tag k="natural" v="water" />
		<tag k="ssr:stedsnr" v="805893" />
	</node>
	<node id="-163114" lat="66.8919055599" lon="14.7225249905">
		<tag k="name" v="Fiskosbekken" />
		<tag k="ssr:stedsnr" v="805521" />
		<tag k="waterway" v="stream" />
	</node>
	<node id="-163110" lat="66.9080666635" lon="14.6104527763">
		<tag k="alt_name" v="Gråtåvatnet, l" />
		<tag k="name" v="Litle Gråtåvatnet" />
		<tag k="natural" v="water" />
		<tag k="ssr:stedsnr" v="805502" />
		<tag k="water" v="lake" />
	</node>
	<node id="-163103" lat="66.7397305588" lon="14.6153249963">
		<tag k="name" v="Tverrelvvatnet" />
		<tag k="natural" v="water" />
		<tag k="ssr:stedsnr" v="805462" />
	</node>
	<node id="-161052" lat="66.8305833307" lon="14.8770055586">
		<tag k="name" v="Kalvosan" />
		<tag k="natural" v="water" />
		<tag k="ssr:stedsnr" v="270297" />
		<tag k="water" v="lake" />
	</node>
	<node id="-161049" lat="67.0075277801" lon="14.7141694561">
		<tag k="alt_name" v="Savåga, in" />
		<tag k="fixme" v="multiple name tags, choose one and add the other to alt_name" />
		<tag k="name" v="Savåga;Indre Savåga" />
		<tag k="ssr:stedsnr" v="137310" />
		<tag k="waterway" v="stream" />
	</node>
	<node id="-161048" lat="67.0024444448" lon="14.3989111136">
		<tag k="name" v="Langvassåga" />
		<tag k="ssr:stedsnr" v="137302" />
		<tag k="waterway" v="stream" />
	</node>
	<node id="-163095" lat="67.0155527817" lon="14.5465888912">
		<tag k="alt_name" v="Arstadforsen" />
		<tag k="name" v="Arstadførsen" />
		<tag k="natural" v="waterfall" />
		<tag k="ssr:stedsnr" v="805336" />
	</node>
	<node id="-163093" lat="67.0280138926" lon="14.7176500071">
		<tag k="name" v="Grønåsvatnet" />
		<tag k="natural" v="water" />
		<tag k="ssr:stedsnr" v="805302" />
	</node>
	<node id="-161044" lat="66.8593499991" lon="14.4217111183">
		<tag k="name" v="Tverrådalsvatnan" />
		<tag k="natural" v="water" />
		<tag k="ssr:stedsnr" v="137453" />
		<tag k="water" v="lake" />
	</node>
	<node id="-161042" lat="67.0936249984" lon="14.6430777745">
		<tag k="alt_name" v="Sandvasselva, store" />
		<tag k="name" v="Store Sandvasselva" />
		<tag k="ssr:stedsnr" v="137265" />
		<tag k="waterway" v="river" />
	</node>
	<node id="-163088" lat="66.9954694437" lon="14.3959194496">
		<tag k="name" v="Langvatnet" />
		<tag k="natural" v="water" />
		<tag k="ssr:stedsnr" v="805256" />
	</node>
	<node id="-163087" lat="66.8582138902" lon="14.6400722128">
		<tag k="name" v="Harholmen" />
		<tag k="place" v="islet" />
		<tag k="ssr:stedsnr" v="784995" />
	</node>
	<node id="-163084" lat="66.856244448" lon="14.6333055553">
		<tag k="name" v="Storholmen" />
		<tag k="place" v="islet" />
		<tag k="ssr:stedsnr" v="784989" />
	</node>
	<node id="-161033" lat="66.9452111091" lon="14.9305500003">
		<tag k="name" v="Rolfvatnet" />
		<tag k="natural" v="water" />
		<tag k="ssr:stedsnr" v="267401" />
		<tag k="water" v="lake" />
	</node>
	<node id="-163079" lat="66.870102774" lon="14.6446666684">
		<tag k="name" v="Per Hansaneset" />
		<tag k="natural" v="cape" />
		<tag k="ssr:stedsnr" v="784961" />
	</node>
	<node id="-163078" lat="66.8677722256" lon="14.6376749918">
		<tag k="name" v="Vocamjokkneset" />
		<tag k="natural" v="cape" />
		<tag k="ssr:stedsnr" v="784960" />
	</node>
	<node id="-161029" lat="67.0678777813" lon="14.4079111117">
		<tag k="name" v="Yttervatnet" />
		<tag k="natural" v="water" />
		<tag k="ssr:stedsnr" v="267344" />
		<tag k="water" v="lake" />
	</node>
	<node id="-163072" lat="66.8550972194" lon="14.6836416747">
		<tag k="name" v="Tverrånes" />
		<tag k="natural" v="cape" />
		<tag k="ssr:stedsnr" v="784878" />
	</node>
	<node id="-161023" lat="66.9419305562" lon="14.3941944342">
		<tag k="name" v="Riverånes" />
		<tag k="natural" v="cape" />
		<tag k="ssr:stedsnr" v="267259" />
	</node>
	<node id="-161021" lat="66.788902778" lon="14.601522215">
		<tag k="name" v="Hammarbekken" />
		<tag k="ssr:stedsnr" v="267078" />
		<tag k="waterway" v="stream" />
	</node>
	<node id="-163067" lat="66.8912499995" lon="14.8594194359">
		<tag k="name" v="Åkerholmen" />
		<tag k="place" v="islet" />
		<tag k="ssr:stedsnr" v="784787" />
	</node>
	<node id="-163066" lat="66.9378666667" lon="14.8283138865">
		<tag k="name" v="Lomtjønna" />
		<tag k="natural" v="water" />
		<tag k="ssr:stedsnr" v="784759" />
	</node>
	<node id="-163065" lat="66.8713527805" lon="14.7127472233">
		<tag k="name" v="Mårdalbekken" />
		<tag k="ssr:stedsnr" v="783800" />
		<tag k="waterway" v="stream" />
	</node>
	<node id="-163064" lat="66.9432861099" lon="14.867152766">
		<tag k="name" v="Gammelheimodden" />
		<tag k="natural" v="cape" />
		<tag k="ssr:stedsnr" v="769750" />
	</node>
	<node id="-163063" lat="66.9449638872" lon="14.8584916554">
		<tag k="name" v="Odden" />
		<tag k="natural" v="cape" />
		<tag k="ssr:stedsnr" v="769748" />
	</node>
	<node id="-161011" lat="66.9952527741" lon="14.8059416583">
		<tag k="name" v="Krokåga" />
		<tag k="ssr:stedsnr" v="264458" />
		<tag k="waterway" v="stream" />
	</node>
	<node id="-161010" lat="66.995950003" lon="14.8769777748">
		<tag k="name" v="Djupåvatnet" />
		<tag k="natural" v="water" />
		<tag k="ssr:stedsnr" v="264453" />
	</node>
	<node id="-161009" lat="66.9464888891" lon="14.9803416629">
		<tag k="name" v="Arnevatnet" />
		<tag k="natural" v="water" />
		<tag k="ssr:stedsnr" v="264413" />
	</node>
	<node id="-163055" lat="67.0155277796" lon="14.7323166753">
		<tag k="name" v="Lomtjønna" />
		<tag k="natural" v="water" />
		<tag k="ssr:stedsnr" v="760759" />
	</node>
	<node id="-161004" lat="66.9355944424" lon="14.8529194542">
		<tag k="name" v="Bjørkhølvatnet" />
		<tag k="natural" v="water" />
		<tag k="ssr:stedsnr" v="116728" />
	</node>
	<node id="-163051" lat="66.910155553" lon="14.795302777">
		<tag k="name" v="Pelandshølo" />
		<tag k="place" v="locality" />
		<tag k="ssr:stedsnr" v="760231" />
	</node>
	<node id="-160998" lat="67.0399027791" lon="14.8320833294">
		<tag k="name" v="Sauholmvatnet" />
		<tag k="natural" v="water" />
		<tag k="ssr:stedsnr" v="259577" />
		<tag k="water" v="lake" />
	</node>
	<node id="-160996" lat="66.8380888873" lon="14.7663805559">
		<tag k="name" v="Flatfjellbekken" />
		<tag k="ssr:stedsnr" v="259526" />
		<tag k="waterway" v="stream" />
	</node>
	<node id="-160995" lat="66.7983555602" lon="14.9728527689">
		<tag k="alt_name" v="Lomvatnet, nordre" />
		<tag k="name" v="Nordre Lomvatnet" />
		<tag k="natural" v="water" />
		<tag k="ssr:stedsnr" v="259517" />
	</node>
	<node id="-160993" lat="66.8607027745" lon="14.8582944505">
		<tag k="alt_name" v="Stolpevatnet, øvre" />
		<tag k="fixme" v="multiple name tags, choose one and add the other to alt_name" />
		<tag k="name" v="Langvatnet;Øvre Stolpevatnet" />
		<tag k="natural" v="water" />
		<tag k="ssr:stedsnr" v="259502" />
	</node>
	<node id="-160992" lat="66.8643305565" lon="14.894788884">
		<tag k="alt_name" v="Stolposan" />
		<tag k="name" v="Stolposen" />
		<tag k="natural" v="water" />
		<tag k="ssr:stedsnr" v="259500" />
	</node>
	<node id="-160991" lat="66.9125611072" lon="14.6445500031">
		<tag k="name" v="Stabbursåga" />
		<tag k="ssr:stedsnr" v="259482" />
		<tag k="waterway" v="stream" />
	</node>
	<node id="-163035" lat="66.8122111135" lon="14.6466666567">
		<tag k="name" v="Steinnes" />
		<tag k="natural" v="cape" />
		<tag k="ssr:stedsnr" v="759787" />
	</node>
	<node id="-160984" lat="66.8898277784" lon="14.6436499945">
		<tag k="name" v="Steinåga" />
		<tag k="ssr:stedsnr" v="259463" />
		<tag k="waterway" v="stream" />
	</node>
	<node id="-163028" lat="66.7830250039" lon="14.5817027849">
		<tag k="name" v="Forslibekken" />
		<tag k="ssr:stedsnr" v="752711" />
		<tag k="waterway" v="stream" />
	</node>
	<node id="-163027" lat="66.9492194418" lon="14.9455611093">
		<tag k="name" v="Havellvatnet" />
		<tag k="natural" v="water" />
		<tag k="ssr:stedsnr" v="752419" />
		<tag k="water" v="lake" />
	</node>
	<node id="-160978" lat="67.033333331" lon="14.4342722303">
		<tag k="name" v="Grønåsbekken" />
		<tag k="ssr:stedsnr" v="259362" />
		<tag k="waterway" v="stream" />
	</node>
	<node id="-160976" lat="67.0199416695" lon="14.5407472287">
		<tag k="name" v="Arstadvatnet" />
		<tag k="natural" v="water" />
		<tag k="ssr:stedsnr" v="259333" />
	</node>
	<node id="-163023" lat="67.101188886" lon="14.4614611072">
		<tag k="name" v="Steinneselva" />
		<tag k="ssr:stedsnr" v="752402" />
		<tag k="waterway" v="stream" />
	</node>
	<node id="-160974" lat="67.0997833326" lon="14.3497638801">
		<tag k="name" v="Skålsvikvatnet" />
		<tag k="natural" v="water" />
		<tag k="ssr:stedsnr" v="259264" />
	</node>
	<node id="-160972" lat="66.9835527748" lon="14.4543166716">
		<tag k="name" v="Rønåga" />
		<tag k="ssr:stedsnr" v="259247" />
		<tag k="waterway" v="stream" />
	</node>
	<node id="-160971" lat="66.9787444435" lon="14.3974333368">
		<tag k="name" v="Skilåvatnet" />
		<tag k="natural" v="water" />
		<tag k="ssr:stedsnr" v="259245" />
	</node>
	<node id="-163015" lat="67.070641671" lon="14.4111499999">
		<tag k="name" v="Vasshauvet" />
		<tag k="natural" v="bay" />
		<tag k="ssr:stedsnr" v="752345" />
	</node>
	<node id="-160966" lat="66.9521361127" lon="14.9051249968">
		<tag k="name" v="Storbrennvatnet" />
		<tag k="natural" v="water" />
		<tag k="ssr:stedsnr" v="258585" />
	</node>
	<node id="-160964" lat="66.7530833329" lon="14.5580972173">
		<tag k="name" v="Lisl-Leiråga" />
		<tag k="ssr:stedsnr" v="85765" />
		<tag k="waterway" v="stream" />
	</node>
	<node id="-163008" lat="67.0821305575" lon="14.5256444343">
		<tag k="name" v="Raudflogelva" />
		<tag k="ssr:stedsnr" v="752028" />
		<tag k="waterway" v="stream" />
	</node>
	<node id="-160958" lat="66.9267888913" lon="14.9186888918">
		<tag k="name" v="Nerforsen" />
		<tag k="natural" v="waterfall" />
		<tag k="ssr:stedsnr" v="85358" />
	</node>
	<node id="-160955" lat="66.7763777806" lon="14.5639750008">
		<tag k="name" v="Stikkverkbekken" />
		<tag k="ssr:stedsnr" v="85252" />
		<tag k="waterway" v="stream" />
	</node>
	<node id="-162999" lat="66.9878055552" lon="14.4402416674">
		<tag k="name" v="Roan" />
		<tag k="ssr:stedsnr" v="751283" />
		<tag k="waterway" v="river" />
	</node>
	<node id="-160950" lat="66.9229222217" lon="14.9730694492">
		<tag k="name" v="Øverneset" />
		<tag k="natural" v="cape" />
		<tag k="ssr:stedsnr" v="85074" />
	</node>
	<node id="-162997" lat="67.0244138888" lon="14.8194388843">
		<tag k="alt_name" v="Leiråvatnet, l" />
		<tag k="name" v="Litle Leiråvatnet" />
		<tag k="natural" v="water" />
		<tag k="ssr:stedsnr" v="744889" />
	</node>
	<node id="-162996" lat="67.0283916657" lon="14.7259194537">
		<tag k="name" v="Lappkomvatnet" />
		<tag k="natural" v="water" />
		<tag k="ssr:stedsnr" v="744884" />
	</node>
	<node id="-162993" lat="66.94099167" lon="14.993455545">
		<tag k="name" v="Innerskogvatnet" />
		<tag k="natural" v="water" />
		<tag k="ssr:stedsnr" v="744568" />
	</node>
	<node id="-162991" lat="66.9465000024" lon="14.9246583309">
		<tag k="name" v="Pe Johan-vatnet" />
		<tag k="natural" v="water" />
		<tag k="ssr:stedsnr" v="744541" />
	</node>
	<node id="-160942" lat="66.98053611" lon="14.7237222268">
		<tag k="alt_name" v="Meddagsvatnan" />
		<tag k="name" v="Middagsvatnan" />
		<tag k="natural" v="water" />
		<tag k="ssr:stedsnr" v="82453" />
		<tag k="water" v="lake" />
	</node>
	<node id="-162987" lat="66.7027388873" lon="14.8805250096">
		<tag k="name" v="Jámekjåhkå" />
		<tag k="name:smj" v="Jámekjåhkå" />
		<tag k="old_name:smj" v="Jæmekjåkka" />
		<tag k="ssr:stedsnr" v="744488" />
		<tag k="waterway" v="stream" />
	</node>
	<node id="-160938" lat="66.9725333334" lon="14.4402444369">
		<tag k="name" v="Steinåga" />
		<tag k="ssr:stedsnr" v="77261" />
		<tag k="waterway" v="stream" />
	</node>
	<node id="-160937" lat="67.028391663" lon="14.3929416671">
		<tag k="name" v="Tindvatnan" />
		<tag k="natural" v="water" />
		<tag k="ssr:stedsnr" v="77349" />
		<tag k="water" v="lake" />
	</node>
	<node id="-162984" lat="66.9885027733" lon="14.8428805628">
		<tag k="alt_name" v="Djupåga" />
		<tag k="name" v="Djupelva" />
		<tag k="ssr:stedsnr" v="744341" />
		<tag k="waterway" v="stream" />
	</node>
	<node id="-162983" lat="67.0564666641" lon="14.676666677">
		<tag k="name" v="Hestskarvatnet" />
		<tag k="natural" v="water" />
		<tag k="ssr:stedsnr" v="744300" />
	</node>
	<node id="-162982" lat="67.0420305591" lon="14.4615000057">
		<tag k="name" v="Storforsen" />
		<tag k="natural" v="waterfall" />
		<tag k="ssr:stedsnr" v="744292" />
	</node>
	<node id="-162980" lat="67.0919055535" lon="14.5513888805">
		<tag k="name" v="Brønnvikvatnet" />
		<tag k="natural" v="water" />
		<tag k="ssr:stedsnr" v="744250" />
	</node>
	<node id="-162979" lat="67.079772218" lon="14.492075005">
		<tag k="name" v="Skjilåga" />
		<tag k="ssr:stedsnr" v="744246" />
		<tag k="waterway" v="stream" />
	</node>
	<node id="-162977" lat="67.0934000015" lon="14.5741611015">
		<tag k="name" v="Innhaugvatnet" />
		<tag k="natural" v="water" />
		<tag k="ssr:stedsnr" v="744238" />
	</node>
	<node id="-162975" lat="66.9654222221" lon="14.6602472264">
		<tag k="name" v="Kvalvassåga" />
		<tag k="ssr:stedsnr" v="744200" />
		<tag k="waterway" v="stream" />
	</node>
	<node id="-162974" lat="66.9619749994" lon="14.6228638929">
		<tag k="name" v="Fjøsåga" />
		<tag k="ssr:stedsnr" v="744199" />
		<tag k="waterway" v="river" />
	</node>
	<node id="-162973" lat="66.9543861096" lon="14.4511916686">
		<tag k="name" v="Staupåvatnan" />
		<tag k="natural" v="water" />
		<tag k="ssr:stedsnr" v="744196" />
		<tag k="water" v="lake" />
	</node>
	<node id="-162971" lat="67.0027055578" lon="14.4340666646">
		<tag k="name" v="Bjønnåga" />
		<tag k="ssr:stedsnr" v="744273" />
		<tag k="waterway" v="stream" />
	</node>
	<node id="-162966" lat="66.9927999964" lon="14.7006222206">
		<tag k="name" v="Flabergåga" />
		<tag k="ssr:stedsnr" v="638954" />
		<tag k="waterway" v="stream" />
	</node>
	<node id="-160916" lat="66.9830333365" lon="14.6569527781">
		<tag k="name" v="Lilleneset" />
		<tag k="natural" v="cape" />
		<tag k="ssr:stedsnr" v="237871" />
	</node>
	<node id="-160912" lat="66.8372166653" lon="14.6781777683">
		<tag k="name" v="Møllbekken" />
		<tag k="ssr:stedsnr" v="237848" />
		<tag k="waterway" v="stream" />
	</node>
	<node id="-160909" lat="66.9032583343" lon="14.691927771">
		<tag k="name" v="Hammarvatnet" />
		<tag k="natural" v="water" />
		<tag k="ssr:stedsnr" v="237815" />
	</node>
	<node id="-160908" lat="66.8995638884" lon="14.6842305655">
		<tag k="name" v="Langvatnet" />
		<tag k="natural" v="water" />
		<tag k="ssr:stedsnr" v="237811" />
	</node>
	<node id="-162953" lat="66.9260777817" lon="14.8043055659">
		<tag k="name" v="Karkåga" />
		<tag k="ssr:stedsnr" v="638173" />
		<tag k="waterway" v="stream" />
	</node>
	<node id="-160903" lat="66.9297222184" lon="14.9755583305">
		<tag k="name" v="Godplassen" />
		<tag k="natural" v="water" />
		<tag k="ssr:stedsnr" v="25133" />
	</node>
	<node id="-160902" lat="66.9354472245" lon="15.0027527874">
		<tag k="name" v="Austervatnet" />
		<tag k="natural" v="water" />
		<tag k="ssr:stedsnr" v="25132" />
	</node>
	<node id="-162943" lat="66.9652277815" lon="14.8151583403">
		<tag k="name" v="Klipåga" />
		<tag k="ssr:stedsnr" v="638102" />
		<tag k="waterway" v="stream" />
	</node>
	<node id="-162939" lat="66.9872722211" lon="14.7541472266">
		<tag k="name" v="Høla" />
		<tag k="natural" v="cape" />
		<tag k="ssr:stedsnr" v="638030" />
	</node>
	<node id="-160890" lat="66.9496055544" lon="14.3922805599">
		<tag k="name" v="Sildra" />
		<tag k="ssr:stedsnr" v="16216" />
		<tag k="waterway" v="stream" />
	</node>
	<node id="-162936" lat="66.8202166655" lon="14.6501583247">
		<tag k="name" v="Storholmen" />
		<tag k="place" v="islet" />
		<tag k="ssr:stedsnr" v="637798" />
	</node>
	<node id="-160887" lat="66.8853472254" lon="14.8820305499">
		<tag k="name" v="Stolpneset" />
		<tag k="natural" v="cape" />
		<tag k="ssr:stedsnr" v="223818" />
	</node>
	<node id="-160884" lat="66.9443666638" lon="14.862477784">
		<tag k="name" v="Hågen" />
		<tag k="natural" v="cape" />
		<tag k="ssr:stedsnr" v="223784" />
	</node>
	<node id="-162928" lat="67.1171777782" lon="14.3642000045">
		<tag k="name" v="Tomasholmen" />
		<tag k="place" v="islet" />
		<tag k="ssr:stedsnr" v="632090" />
	</node>
	<node id="-162918" lat="67.0697583377" lon="14.438033334">
		<tag k="name" v="Indre Urskarelva" />
		<tag k="ssr:stedsnr" v="631382" />
		<tag k="waterway" v="stream" />
	</node>
	<node id="-162911" lat="66.9220472182" lon="14.9809499959">
		<tag k="name" v="Stilla" />
		<tag k="natural" v="water" />
		<tag k="ssr:stedsnr" v="631084" />
		<tag k="water" v="lake" />
	</node>
	<node id="-162910" lat="66.7897111108" lon="14.5957333375">
		<tag k="name" v="Bekkenesbekken" />
		<tag k="ssr:stedsnr" v="630686" />
		<tag k="waterway" v="stream" />
	</node>
	<node id="-162908" lat="67.0683000029" lon="14.4526750102">
		<tag k="name" v="Morten Jonso-elva" />
		<tag k="ssr:stedsnr" v="630346" />
		<tag k="waterway" v="river" />
	</node>
	<node id="-160979" lat="66.7639916698" lon="14.5908416771">
		<tag k="name" v="Steinåga" />
		<tag k="ssr:stedsnr" v="259371" />
		<tag k="waterway" v="stream" />
	</node>
	<node id="-162904" lat="66.886377782" lon="14.9082555588">
		<tag k="name" v="Beverholmåga" />
		<tag k="ssr:stedsnr" v="630372" />
		<tag k="waterway" v="river" />
	</node>
	<node id="-162903" lat="66.7787944479" lon="14.5846027673">
		<tag k="name" v="Isterkjerrbakken" />
		<tag k="ssr:stedsnr" v="630295" />
		<tag k="waterway" v="stream" />
	</node>
	<node id="-161047" lat="66.8825000021" lon="14.3985861054">
		<tag k="name" v="Hábresåga" />
		<tag k="ssr:stedsnr" v="137471" />
		<tag k="waterway" v="river" />
	</node>
	<node id="-162899" lat="66.9807138916" lon="14.7412611217">
		<tag k="name" v="Finngamåga" />
		<tag k="ssr:stedsnr" v="623589" />
		<tag k="waterway" v="stream" />
	</node>
	<node id="-162897" lat="66.8699138896" lon="14.8289972329">
		<tag k="name" v="Tellingsvatnan" />
		<tag k="natural" v="water" />
		<tag k="ssr:stedsnr" v="623541" />
		<tag k="water" v="lake" />
	</node>
	<node id="-162896" lat="66.8530527775" lon="14.8621111">
		<tag k="name" v="Gåsvatnan" />
		<tag k="natural" v="water" />
		<tag k="ssr:stedsnr" v="623539" />
		<tag k="water" v="lake" />
	</node>
	<node id="-162895" lat="66.8549083312" lon="14.9230583311">
		<tag k="name" v="Røyrhølan" />
		<tag k="place" v="locality" />
		<tag k="ssr:stedsnr" v="623537" />
	</node>
	<node id="-162894" lat="66.8662611105" lon="14.9260166715">
		<tag k="name" v="Skulnesforsen" />
		<tag k="natural" v="waterfall" />
		<tag k="ssr:stedsnr" v="623533" />
	</node>
	<node id="-162885" lat="67.0808111066" lon="14.5880333423">
		<tag k="name" v="Nordlandselva" />
		<tag k="ssr:stedsnr" v="623260" />
		<tag k="waterway" v="river" />
	</node>
	<node id="-162884" lat="67.081458336" lon="14.6312527802">
		<tag k="name" v="Stilla" />
		<tag k="ssr:stedsnr" v="623258" />
		<tag k="waterway" v="river" />
	</node>
	<node id="-162883" lat="67.0340111149" lon="14.7470222246">
		<tag k="name" v="Langvatn" />
		<tag k="natural" v="water" />
		<tag k="ssr:stedsnr" v="622864" />
	</node>
	<node id="-162878" lat="66.950244447" lon="14.9592833408">
		<tag k="name" v="Storholmvatnet" />
		<tag k="natural" v="water" />
		<tag k="ssr:stedsnr" v="622573" />
		<tag k="water" v="lake" />
	</node>
	<node id="-162876" lat="66.8778527759" lon="14.7479277806">
		<tag k="alt_name" v="Hellbekken" />
		<tag k="name" v="Hellebekken" />
		<tag k="ssr:stedsnr" v="622500" />
		<tag k="waterway" v="stream" />
	</node>
	<node id="-162873" lat="66.8115222187" lon="14.4433000009">
		<tag k="name" v="Gråbekkan" />
		<tag k="ssr:stedsnr" v="622392" />
		<tag k="waterway" v="stream" />
	</node>
	<node id="-160948" lat="67.0772277761" lon="14.5243222167">
		<tag k="name" v="Fløvalelva" />
		<tag k="ssr:stedsnr" v="85023" />
		<tag k="waterway" v="river" />
	</node>
	<node id="-162870" lat="66.9672833318" lon="14.5588527677">
		<tag k="name" v="Nonsvatnet" />
		<tag k="natural" v="water" />
		<tag k="ssr:stedsnr" v="622267" />
		<tag k="water" v="lake" />
	</node>
	<node id="-162868" lat="66.8634999963" lon="14.3680333406">
		<tag k="name" v="Slukbekken" />
		<tag k="ssr:stedsnr" v="622460" />
		<tag k="waterway" v="stream" />
	</node>
	<node id="-162867" lat="67.1157527761" lon="14.3806888931">
		<tag k="name" v="Holmvatnet" />
		<tag k="natural" v="water" />
		<tag k="ssr:stedsnr" v="622457" />
		<tag k="water" v="lake" />
	</node>
	<node id="-162864" lat="66.7311111124" lon="14.581377776">
		<tag k="name" v="Langsnyta" />
		<tag k="ssr:stedsnr" v="622440" />
		<tag k="waterway" v="stream" />
	</node>
	<node id="-162849" lat="66.8782166699" lon="14.7631916581">
		<tag k="name" v="Leirbekken" />
		<tag k="ssr:stedsnr" v="601786" />
		<tag k="waterway" v="stream" />
	</node>
	<node id="-162846" lat="66.8854472246" lon="14.7242944416">
		<tag k="name" v="Hestnes" />
		<tag k="natural" v="cape" />
		<tag k="ssr:stedsnr" v="601770" />
	</node>
	<node id="-162839" lat="66.9870555538" lon="14.761697225">
		<tag k="name" v="Storjordfaret" />
		<tag k="ssr:stedsnr" v="578006" />
		<tag k="waterway" v="rapids" />
	</node>
	<node id="-163022" lat="67.0901972191" lon="14.4413388934">
		<tag k="name" v="Eitervikelva" />
		<tag k="ssr:stedsnr" v="752398" />
		<tag k="waterway" v="stream" />
	</node>
	<node id="-162820" lat="66.9196055555" lon="14.7283250015">
		<tag k="name" v="Svartvatnet" />
		<tag k="natural" v="water" />
		<tag k="ssr:stedsnr" v="577167" />
	</node>
	<node id="-162818" lat="66.9261888862" lon="14.7348361114">
		<tag k="name" v="Lomtjønna" />
		<tag k="natural" v="water" />
		<tag k="ssr:stedsnr" v="577164" />
	</node>
	<node id="-160939" lat="66.9814249977" lon="14.6176388803">
		<tag k="name" v="Nonsåga" />
		<tag k="ssr:stedsnr" v="77267" />
		<tag k="waterway" v="stream" />
	</node>
	<node id="-162813" lat="66.7396166649" lon="14.5522611085">
		<tag k="name" v="Krokbekken" />
		<tag k="ssr:stedsnr" v="570777" />
		<tag k="waterway" v="stream" />
	</node>
	<node id="-162811" lat="66.7812333301" lon="14.5980777778">
		<tag k="name" v="Trongen" />
		<tag k="ssr:stedsnr" v="570730" />
		<tag k="waterway" v="river" />
	</node>
	<node id="-162808" lat="66.7877083317" lon="14.586802767">
		<tag k="name" v="Mølnbekken" />
		<tag k="ssr:stedsnr" v="570710" />
		<tag k="waterway" v="stream" />
	</node>
	<node id="-162802" lat="66.8818361099" lon="14.9148666689">
		<tag k="name" v="Ytternes" />
		<tag k="natural" v="cape" />
		<tag k="ssr:stedsnr" v="570382" />
	</node>
	<node id="-162801" lat="66.8847888927" lon="14.9224194511">
		<tag k="name" v="Stokkbruelva" />
		<tag k="ssr:stedsnr" v="570381" />
		<tag k="waterway" v="stream" />
	</node>
	<node id="-162800" lat="67.10023611" lon="14.4607694339">
		<tag k="name" v="Svartvatnet" />
		<tag k="natural" v="water" />
		<tag k="ssr:stedsnr" v="570377" />
	</node>
	<node id="-160935" lat="67.0902333317" lon="14.5691138796">
		<tag k="name" v="Skjervatnet" />
		<tag k="natural" v="water" />
		<tag k="ssr:stedsnr" v="77314" />
	</node>
	<node id="-162791" lat="67.0770916673" lon="14.4241638825">
		<tag k="name" v="Buvikelva" />
		<tag k="ssr:stedsnr" v="570340" />
		<tag k="waterway" v="river" />
	</node>
	<node id="-160934" lat="67.0757027787" lon="14.5345388803">
		<tag k="name" v="Storåga" />
		<tag k="ssr:stedsnr" v="77308" />
		<tag k="waterway" v="stream" />
	</node>
	<node id="-162785" lat="67.1135138913" lon="14.3824805574">
		<tag k="name" v="Storholmen" />
		<tag k="natural" v="cape" />
		<tag k="ssr:stedsnr" v="570095" />
	</node>
	<node id="-162779" lat="66.8817111082" lon="14.7977138847">
		<tag k="name" v="Tellingelva" />
		<tag k="ssr:stedsnr" v="567394" />
		<tag k="waterway" v="stream" />
	</node>
	<node id="-162777" lat="66.9373027782" lon="14.7780611068">
		<tag k="alt_name" v="Litleåga" />
		<tag k="name" v="Lilleåga" />
		<tag k="ssr:stedsnr" v="562605" />
		<tag k="waterway" v="stream" />
	</node>
	<node id="-162775" lat="67.0445111151" lon="14.8485527747">
		<tag k="name" v="Rypdalvatn" />
		<tag k="natural" v="water" />
		<tag k="ssr:stedsnr" v="562598" />
	</node>
	<node id="-162773" lat="66.7591722211" lon="14.871113879">
		<tag k="name" v="Sjælmmá" />
		<tag k="name:smj" v="Sjælmmá" />
		<tag k="old_name:smj" v="Šælbma" />
		<tag k="ssr:stedsnr" v="562566" />
		<tag k="waterway" v="river" />
	</node>
	<node id="-162770" lat="66.8756694401" lon="14.9254305655">
		<tag k="name" v="Storkroken" />
		<tag k="place" v="locality" />
		<tag k="ssr:stedsnr" v="562531" />
	</node>
	<node id="-162766" lat="66.8862361074" lon="14.6350944515">
		<tag k="name" v="Rønnåga" />
		<tag k="ssr:stedsnr" v="562475" />
		<tag k="waterway" v="stream" />
	</node>
	<node id="-162764" lat="66.8483249971" lon="14.6719444498">
		<tag k="name" v="Monsvatnet" />
		<tag k="natural" v="water" />
		<tag k="ssr:stedsnr" v="562440" />
	</node>
	<node id="-162763" lat="66.8296944454" lon="14.6280333229">
		<tag k="name" v="Roligholvatnet" />
		<tag k="natural" v="water" />
		<tag k="ssr:stedsnr" v="562430" />
	</node>
	<node id="-162762" lat="66.785841663" lon="14.5792916594">
		<tag k="name" v="Storelva" />
		<tag k="ssr:stedsnr" v="562377" />
		<tag k="waterway" v="stream" />
	</node>
	<node id="-162758" lat="66.7515277773" lon="14.5658472288">
		<tag k="name" v="Staupåga" />
		<tag k="ssr:stedsnr" v="562358" />
		<tag k="waterway" v="stream" />
	</node>
	<node id="-162756" lat="67.0337000033" lon="14.6737861077">
		<tag k="name" v="Kobbåvatnet" />
		<tag k="natural" v="water" />
		<tag k="ssr:stedsnr" v="562345" />
		<tag k="water" v="lake" />
	</node>
	<node id="-162753" lat="67.0841333289" lon="14.5145333424">
		<tag k="name" v="Brønnvikelva" />
		<tag k="ssr:stedsnr" v="562281" />
		<tag k="waterway" v="stream" />
	</node>
	<node id="-162747" lat="67.0254777792" lon="14.7745583268">
		<tag k="name" v="Moråvasstjørna" />
		<tag k="natural" v="water" />
		<tag k="ssr:stedsnr" v="562887" />
	</node>
	<node id="-162746" lat="67.0338166709" lon="14.8318638957">
		<tag k="name" v="Moråvatnet" />
		<tag k="natural" v="water" />
		<tag k="ssr:stedsnr" v="562871" />
	</node>
	<node id="-162745" lat="67.0324027742" lon="14.8889611161">
		<tag k="name" v="Smalvatnet" />
		<tag k="natural" v="water" />
		<tag k="ssr:stedsnr" v="562870" />
	</node>
	<node id="-162744" lat="67.0328805527" lon="14.7915333226">
		<tag k="name" v="Langskavlvatnet" />
		<tag k="natural" v="water" />
		<tag k="ssr:stedsnr" v="562868" />
	</node>
	<node id="-162742" lat="66.9587694446" lon="14.9461055584">
		<tag k="name" v="Langvatnet" />
		<tag k="natural" v="water" />
		<tag k="ssr:stedsnr" v="561588" />
	</node>
	<node id="-162740" lat="66.8524861133" lon="14.6045027783">
		<tag k="alt_name" v="Snybrubekken" />
		<tag k="name" v="Snøbrubekken" />
		<tag k="ssr:stedsnr" v="561440" />
		<tag k="waterway" v="stream" />
	</node>
	<node id="-162739" lat="67.1329749955" lon="14.3907361171">
		<tag k="name" v="Gjertrudvatnet" />
		<tag k="natural" v="water" />
		<tag k="ssr:stedsnr" v="561501" />
	</node>
	<node id="-162718" lat="66.9385694472" lon="14.8489666569">
		<tag k="name" v="Hammarvatnet" />
		<tag k="natural" v="water" />
		<tag k="ssr:stedsnr" v="420757" />
	</node>
	<node id="-162717" lat="66.834388885" lon="14.6820638801">
		<tag k="name" v="Jenshansamøllbekken" />
		<tag k="ssr:stedsnr" v="420877" />
		<tag k="waterway" v="stream" />
	</node>
	<node id="-162716" lat="66.8407749972" lon="14.686399999">
		<tag k="name" v="Gammelgårdbekken" />
		<tag k="ssr:stedsnr" v="420876" />
		<tag k="waterway" v="stream" />
	</node>
	<node id="-162715" lat="67.0396916683" lon="14.6102555534">
		<tag k="name" v="Kvitreinåga" />
		<tag k="ssr:stedsnr" v="420872" />
		<tag k="waterway" v="stream" />
	</node>
	<node id="-162706" lat="66.9856388849" lon="14.6873777755">
		<tag k="name" v="Lille-Inneråga" />
		<tag k="ssr:stedsnr" v="396947" />
		<tag k="waterway" v="stream" />
	</node>
	<node id="-162698" lat="67.0167944413" lon="14.5506833356">
		<tag k="name" v="Arstadosen" />
		<tag k="natural" v="bay" />
		<tag k="ssr:stedsnr" v="396227" />
	</node>
	<node id="-162691" lat="66.8130222269" lon="14.6462583238">
		<tag k="name" v="Øverholmen" />
		<tag k="place" v="islet" />
		<tag k="ssr:stedsnr" v="395815" />
	</node>
	<node id="-162689" lat="66.8065888921" lon="14.6355111206">
		<tag k="name" v="Hestpøla" />
		<tag k="natural" v="water" />
		<tag k="ssr:stedsnr" v="395812" />
		<tag k="water" v="pond" />
	</node>
	<node id="-162683" lat="67.009197219" lon="14.6542749964">
		<tag k="name" v="Jomonsokjelda" />
		<tag k="ssr:stedsnr" v="395669" />
		<tag k="waterway" v="stream" />
	</node>
	<node id="-162679" lat="66.9093916712" lon="14.7308499929">
		<tag k="name" v="Krågåga" />
		<tag k="ssr:stedsnr" v="395217" />
		<tag k="waterway" v="stream" />
	</node>
	<node id="-162671" lat="66.7857444417" lon="14.5982166762">
		<tag k="name" v="Bekkenesan" />
		<tag k="natural" v="cape" />
		<tag k="ssr:stedsnr" v="388728" />
	</node>
	<node id="-162664" lat="67.0913888863" lon="14.4281527744">
		<tag k="name" v="Eggesvikelva" />
		<tag k="ssr:stedsnr" v="388387" />
		<tag k="waterway" v="river" />
	</node>
	<node id="-162655" lat="67.0280361092" lon="14.8775055455">
		<tag k="name" v="Jarbruvatnet" />
		<tag k="natural" v="water" />
		<tag k="ssr:stedsnr" v="380887" />
	</node>
	<node id="-162651" lat="67.0442805592" lon="14.7366638898">
		<tag k="name" v="Savåvatnet" />
		<tag k="natural" v="water" />
		<tag k="ssr:stedsnr" v="380646" />
	</node>
	<node id="-162647" lat="66.9846916664" lon="14.9388944449">
		<tag k="name" v="Smågåsvatnan" />
		<tag k="natural" v="water" />
		<tag k="ssr:stedsnr" v="380612" />
		<tag k="water" v="lake" />
	</node>
	<node id="-162644" lat="66.7027361097" lon="14.5043000068">
		<tag k="name" v="Neverneselva" />
		<tag k="ssr:stedsnr" v="380528" />
		<tag k="waterway" v="stream" />
	</node>
	<node id="-162640" lat="66.8856777742" lon="14.5945583435">
		<tag k="name" v="Austfjellvatnet" />
		<tag k="natural" v="water" />
		<tag k="ssr:stedsnr" v="380500" />
	</node>
	<node id="-162638" lat="67.1080250008" lon="14.3516361088">
		<tag k="name" v="Saurvatnet" />
		<tag k="natural" v="water" />
		<tag k="ssr:stedsnr" v="380487" />
		<tag k="water" v="lake" />
	</node>
	<node id="-162636" lat="66.8740333353" lon="14.6378777728">
		<tag k="name" v="Svartvatnet" />
		<tag k="natural" v="water" />
		<tag k="ssr:stedsnr" v="380476" />
	</node>
	<node id="-162632" lat="66.7190111108" lon="14.5172638918">
		<tag k="name" v="Stornesfossen" />
		<tag k="natural" v="waterfall" />
		<tag k="ssr:stedsnr" v="380463" />
	</node>
	<node id="-162628" lat="66.7601250044" lon="14.6522749923">
		<tag k="name" v="Steinåvatnet" />
		<tag k="natural" v="water" />
		<tag k="ssr:stedsnr" v="380392" />
		<tag k="water" v="lake" />
	</node>
	<node id="-162624" lat="67.0097527743" lon="14.4354194356">
		<tag k="name" v="Skarvatnet" />
		<tag k="natural" v="water" />
		<tag k="ssr:stedsnr" v="380333" />
	</node>
	<node id="-162623" lat="67.0265638935" lon="14.603258327">
		<tag k="name" v="Soløyvatnet" />
		<tag k="natural" v="water" />
		<tag k="ssr:stedsnr" v="380320" />
	</node>
	<node id="-160960" lat="66.7427638909" lon="14.5459416635">
		<tag k="name" v="Austerladbekken" />
		<tag k="ssr:stedsnr" v="85753" />
		<tag k="waterway" v="stream" />
	</node>
	<node id="-162620" lat="66.9888388912" lon="14.6804722121">
		<tag k="alt_name" v="Lilleåga" />
		<tag k="name" v="Litlåga" />
		<tag k="ssr:stedsnr" v="380268" />
		<tag k="waterway" v="stream" />
	</node>
	<node id="-162614" lat="66.9848444433" lon="14.6438861087">
		<tag k="name" v="Storførsen" />
		<tag k="natural" v="waterfall" />
		<tag k="ssr:stedsnr" v="359893" />
	</node>
	<node id="-162608" lat="66.8333638874" lon="14.676769449">
		<tag k="name" v="Rønnbekken" />
		<tag k="ssr:stedsnr" v="359816" />
		<tag k="waterway" v="stream" />
	</node>
	<node id="-162607" lat="66.96505833" lon="14.823244436">
		<tag k="name" v="Kast" />
		<tag k="natural" v="water" />
		<tag k="ssr:stedsnr" v="359765" />
		<tag k="water" v="lake" />
	</node>
	<node id="-162606" lat="66.8894555511" lon="14.8682888908">
		<tag k="name" v="Petternes" />
		<tag k="natural" v="cape" />
		<tag k="ssr:stedsnr" v="359764" />
	</node>
	<node id="-162598" lat="66.99626944" lon="14.6760750006">
		<tag k="name" v="Storøya" />
		<tag k="place" v="island" />
		<tag k="ssr:stedsnr" v="335882" />
	</node>
	<node id="-162585" lat="66.9143805537" lon="14.7624861181">
		<tag k="name" v="Kjelen" />
		<tag k="place" v="locality" />
		<tag k="ssr:stedsnr" v="335167" />
	</node>
	<node id="-162584" lat="67.1181361148" lon="14.3646833326">
		<tag k="name" v="Tomasodden" />
		<tag k="natural" v="cape" />
		<tag k="ssr:stedsnr" v="329081" />
	</node>
	<node id="-162574" lat="66.7687250015" lon="14.5697583352">
		<tag k="name" v="Steinskredslettbekken" />
		<tag k="ssr:stedsnr" v="328265" />
		<tag k="waterway" v="stream" />
	</node>
	<node id="-162570" lat="67.0504222182" lon="14.4648194353">
		<tag k="name" v="Blåhammarneset" />
		<tag k="natural" v="cape" />
		<tag k="ssr:stedsnr" v="328134" />
	</node>
	<node id="-162567" lat="66.7535361119" lon="14.5350805538">
		<tag k="name" v="Skredbekken" />
		<tag k="ssr:stedsnr" v="327732" />
		<tag k="waterway" v="stream" />
	</node>
	<node id="-162566" lat="66.749799996" lon="14.5453666559">
		<tag k="name" v="Einmobekken" />
		<tag k="ssr:stedsnr" v="327731" />
		<tag k="waterway" v="stream" />
	</node>
	<node id="-162558" lat="66.9267194487" lon="14.9097027752">
		<tag k="name" v="Tindneset" />
		<tag k="natural" v="cape" />
		<tag k="ssr:stedsnr" v="325409" />
	</node>
	<node id="-162557" lat="66.8975611124" lon="14.8742055551">
		<tag k="name" v="Bullotåga - Buoljojåhkå" />
		<tag k="name:no" v="Bullotåga" />
		<tag k="name:smj" v="Buoljojåhkå" />
		<tag k="ssr:stedsnr" v="325406" />
		<tag k="waterway" v="river" />
	</node>
	<node id="-162550" lat="67.0096499991" lon="14.6532750034">
		<tag k="name" v="Kobbåga" />
		<tag k="ssr:stedsnr" v="320335" />
		<tag k="waterway" v="stream" />
	</node>
	<node id="-162545" lat="67.022277775" lon="14.796924989">
		<tag k="name" v="Hammarvatnet" />
		<tag k="natural" v="water" />
		<tag k="ssr:stedsnr" v="319897" />
	</node>
	<node id="-162537" lat="67.1307083367" lon="14.3841694354">
		<tag k="name" v="Pervatnet" />
		<tag k="natural" v="water" />
		<tag k="ssr:stedsnr" v="319482" />
	</node>
	<node id="-162533" lat="66.8460999996" lon="14.3606722232">
		<tag k="name" v="Arstadvatnet - Guollejávrre" />
		<tag k="name:no" v="Arstadvatnet" />
		<tag k="name:smj" v="Guollejávrre" />
		<tag k="natural" v="water" />
		<tag k="ssr:stedsnr" v="319429" />
		<tag k="water" v="lake" />
	</node>
	<node id="-162529" lat="66.9839527775" lon="14.7647055571">
		<tag k="name" v="Beiarelva - Bájddárjåhkå" />
		<tag k="name:no" v="Beiarelva" />
		<tag k="name:smj" v="Bájddárjåhkå" />
		<tag k="ssr:stedsnr" v="319396" />
		<tag k="waterway" v="river" />
	</node>
	<node id="-162527" lat="66.8110527802" lon="14.6136750117">
		<tag k="name" v="Mølnbekken" />
		<tag k="ssr:stedsnr" v="319382" />
		<tag k="waterway" v="stream" />
	</node>
	<node id="-162525" lat="66.7833333309" lon="14.4670916604">
		<tag k="name" v="Vadet" />
		<tag k="ssr:stedsnr" v="319368" />
		<tag k="waterway" v="river" />
	</node>
	<node id="-162520" lat="67.0299666698" lon="14.4756861157">
		<tag k="name" v="Siritindvatnan" />
		<tag k="natural" v="water" />
		<tag k="ssr:stedsnr" v="319306" />
		<tag k="water" v="lake" />
	</node>
	<node id="-162519" lat="66.9959888917" lon="14.5364888883">
		<tag k="name" v="Olarønna" />
		<tag k="ssr:stedsnr" v="319285" />
		<tag k="waterway" v="stream" />
	</node>
	<node id="-162517" lat="66.9480138871" lon="14.3803111118">
		<tag k="name" v="Riveråga" />
		<tag k="ssr:stedsnr" v="319242" />
		<tag k="waterway" v="stream" />
	</node>
	<node id="-162512" lat="66.9672638921" lon="14.862766668">
		<tag k="name" v="Brattførsen" />
		<tag k="natural" v="waterfall" />
		<tag k="ssr:stedsnr" v="214835" />
	</node>
	<node id="-160888" lat="67.0441472216" lon="14.5506972333">
		<tag k="name" v="Leiråga" />
		<tag k="ssr:stedsnr" v="16306" />
		<tag k="waterway" v="stream" />
	</node>
	<node id="-162504" lat="67.0120527743" lon="14.5867194489">
		<tag k="name" v="Dalåga" />
		<tag k="ssr:stedsnr" v="214259" />
		<tag k="waterway" v="stream" />
	</node>
	<node id="-162494" lat="66.8195222212" lon="14.6366416593">
		<tag k="name" v="Husmannsdalbekken" />
		<tag k="ssr:stedsnr" v="213854" />
		<tag k="waterway" v="stream" />
	</node>
	<node id="-162491" lat="66.9984055537" lon="14.6413944514">
		<tag k="name" v="Nesan" />
		<tag k="natural" v="cape" />
		<tag k="ssr:stedsnr" v="213687" />
	</node>
	<node id="-162490" lat="67.01192222" lon="14.6232333293">
		<tag k="name" v="Mølnåga" />
		<tag k="ssr:stedsnr" v="213726" />
		<tag k="waterway" v="stream" />
	</node>
	<node id="-162486" lat="66.9444972263" lon="14.9866861118">
		<tag k="name" v="Langvatnet" />
		<tag k="natural" v="water" />
		<tag k="ssr:stedsnr" v="207133" />
	</node>
	<node id="-162485" lat="66.9292499999" lon="15.0178277869">
		<tag k="name" v="Krokskavlvatnet" />
		<tag k="natural" v="water" />
		<tag k="ssr:stedsnr" v="207130" />
		<tag k="water" v="lake" />
	</node>
	<node id="-162480" lat="67.1118750042" lon="14.3821472205">
		<tag k="name" v="Innervatnet" />
		<tag k="natural" v="water" />
		<tag k="ssr:stedsnr" v="207086" />
		<tag k="water" v="lake" />
	</node>
	<node id="-162478" lat="66.9387861146" lon="14.9758888984">
		<tag k="name" v="Tirisvatnet" />
		<tag k="natural" v="water" />
		<tag k="ssr:stedsnr" v="207081" />
	</node>
	<node id="-162476" lat="66.9249222204" lon="14.9876500031">
		<tag k="name" v="Kus" />
		<tag k="place" v="locality" />
		<tag k="ssr:stedsnr" v="207075" />
	</node>
	<node id="-162469" lat="66.9232222211" lon="14.9655805501">
		<tag k="name" v="Gammneset" />
		<tag k="natural" v="cape" />
		<tag k="ssr:stedsnr" v="206408" />
	</node>
	<node id="-162455" lat="66.9747638852" lon="14.6335583316">
		<tag k="name" v="Sørranåga" />
		<tag k="ssr:stedsnr" v="205306" />
		<tag k="waterway" v="stream" />
	</node>
	<node id="-162453" lat="66.9760888889" lon="14.6556249981">
		<tag k="name" v="Storneset" />
		<tag k="natural" v="cape" />
		<tag k="ssr:stedsnr" v="205295" />
	</node>
	<node id="-162450" lat="66.9650055527" lon="14.7742138899">
		<tag k="name" v="Nothølåga" />
		<tag k="ssr:stedsnr" v="198562" />
		<tag k="waterway" v="stream" />
	</node>
	<node id="-162449" lat="66.8402194454" lon="14.9063722226">
		<tag k="name" v="Vargforsen" />
		<tag k="natural" v="waterfall" />
		<tag k="ssr:stedsnr" v="198533" />
	</node>
	<node id="-162443" lat="66.9021499987" lon="14.6871305571">
		<tag k="name" v="Stigvatnan" />
		<tag k="natural" v="water" />
		<tag k="ssr:stedsnr" v="198459" />
		<tag k="water" v="lake" />
	</node>
	<node id="-162441" lat="67.117424999" lon="14.3623888967">
		<tag k="name" v="Øyjordvatnet" />
		<tag k="natural" v="water" />
		<tag k="ssr:stedsnr" v="198447" />
	</node>
	<node id="-162439" lat="67.0205972203" lon="14.6978666759">
		<tag k="alt_name" v="Grønåsvatnet, l" />
		<tag k="name" v="Litle Grønåsvatnet" />
		<tag k="natural" v="water" />
		<tag k="ssr:stedsnr" v="198297" />
	</node>
	<node id="-162435" lat="67.1006888936" lon="14.5910805472">
		<tag k="name" v="Småvatnan" />
		<tag k="natural" v="water" />
		<tag k="ssr:stedsnr" v="198253" />
		<tag k="water" v="lake" />
	</node>
	<node id="-162434" lat="66.9885749953" lon="14.5966611175">
		<tag k="name" v="Ågleinåga" />
		<tag k="ssr:stedsnr" v="198241" />
		<tag k="waterway" v="stream" />
	</node>
	<node id="-162424" lat="66.8657805575" lon="14.6012388988">
		<tag k="name" v="Vátjamjåhkå" />
		<tag k="name:smj" v="Vátjamjåhkå" />
		<tag k="old_name:smj" v="Váhčanjohka" />
		<tag k="ssr:stedsnr" v="155429" />
		<tag k="waterway" v="river" />
	</node>
	<node id="-162421" lat="66.9687111086" lon="14.8342583431">
		<tag k="name" v="Gamånes" />
		<tag k="natural" v="cape" />
		<tag k="ssr:stedsnr" v="153815" />
	</node>
	<node id="-162419" lat="66.9677611079" lon="14.8723083405">
		<tag k="name" v="Klipa" />
		<tag k="place" v="locality" />
		<tag k="ssr:stedsnr" v="153779" />
	</node>
	<node id="-162418" lat="66.9870166697" lon="14.8925639004">
		<tag k="name" v="Nermølnåvatnet" />
		<tag k="natural" v="water" />
		<tag k="ssr:stedsnr" v="153778" />
	</node>
	<node id="-162414" lat="66.9132638885" lon="14.7675555628">
		<tag k="name" v="Tjyvågkjeften" />
		<tag k="natural" v="water" />
		<tag k="ssr:stedsnr" v="153179" />
		<tag k="water" v="lake" />
	</node>
	<node id="-162406" lat="66.9650250005" lon="14.8182833233">
		<tag k="name" v="Hølmen" />
		<tag k="natural" v="cape" />
		<tag k="ssr:stedsnr" v="153112" />
	</node>
	<node id="-162402" lat="66.9738833348" lon="14.8231249935">
		<tag k="name" v="Nupånes" />
		<tag k="natural" v="cape" />
		<tag k="ssr:stedsnr" v="153076" />
	</node>
	<node id="-162401" lat="66.9526027738" lon="14.8047666735">
		<tag k="name" v="Utfallåga" />
		<tag k="ssr:stedsnr" v="153068" />
		<tag k="waterway" v="river" />
	</node>
	<node id="-162393" lat="66.9371749974" lon="14.9869111132">
		<tag k="name" v="Atomvatnet" />
		<tag k="natural" v="water" />
		<tag k="ssr:stedsnr" v="146126" />
	</node>
	<node id="-162379" lat="66.7624055591" lon="14.5889638987">
		<tag k="name" v="Mølnbekken" />
		<tag k="ssr:stedsnr" v="145316" />
		<tag k="waterway" v="stream" />
	</node>
	<node id="-162371" lat="67.0549083371" lon="14.4644749897">
		<tag k="name" v="Tverrelva" />
		<tag k="ssr:stedsnr" v="145150" />
		<tag k="waterway" v="stream" />
	</node>
	<node id="-162367" lat="66.9133222196" lon="14.995222223">
		<tag k="name" v="Klurheibekken" />
		<tag k="ssr:stedsnr" v="145106" />
		<tag k="waterway" v="stream" />
	</node>
	<node id="-162366" lat="66.9265361071" lon="14.987125003">
		<tag k="name" v="Innerskogelva" />
		<tag k="ssr:stedsnr" v="145101" />
		<tag k="waterway" v="stream" />
	</node>
	<node id="-162363" lat="67.0682666682" lon="14.6117250069">
		<tag k="name" v="Durmålvatnet" />
		<tag k="natural" v="water" />
		<tag k="ssr:stedsnr" v="145028" />
		<tag k="water" v="lake" />
	</node>
	<node id="-162355" lat="67.004783333" lon="14.7416944473">
		<tag k="name" v="Moråga" />
		<tag k="ssr:stedsnr" v="137892" />
		<tag k="waterway" v="stream" />
	</node>
	<node id="-161203" lat="67.0724083347" lon="14.5755083429">
		<tag k="name" v="Litlelva" />
		<tag k="ssr:stedsnr" v="450044" />
		<tag k="waterway" v="river" />
	</node>
	<node id="-162352" lat="67.1122361084" lon="14.6620416705">
		<tag k="alt_name" v="Sandvatnet, store" />
		<tag k="name" v="Store Sandvatnet" />
		<tag k="natural" v="water" />
		<tag k="old_name" v="Sandvatnet" />
		<tag k="ssr:stedsnr" v="137444" />
		<tag k="water" v="lake" />
	</node>
	<node id="-162351" lat="66.8426750024" lon="14.6218666652">
		<tag k="name" v="Kyskåga" />
		<tag k="ssr:stedsnr" v="137437" />
		<tag k="waterway" v="stream" />
	</node>
	<node id="-162350" lat="66.8438222247" lon="14.3786638832">
		<tag k="name" v="Reinkalvelva" />
		<tag k="ssr:stedsnr" v="137435" />
		<tag k="waterway" v="stream" />
	</node>
	<node id="-162345" lat="66.7822555533" lon="14.6124111173">
		<tag k="fixme" v="multiple name tags, choose one and add the other to alt_name" />
		<tag k="name" v="Kjeldåga;Kjellåga" />
		<tag k="ssr:stedsnr" v="137383" />
		<tag k="waterway" v="stream" />
	</node>
	<node id="-162341" lat="67.042144442" lon="14.7202500091">
		<tag k="name" v="Stordalvatnet" />
		<tag k="natural" v="water" />
		<tag k="ssr:stedsnr" v="137571" />
	</node>
	<node id="-162340" lat="66.9546166676" lon="14.9634250022">
		<tag k="alt_name" v="Holmvatna, øvre" />
		<tag k="name" v="Øvre Holmvatna" />
		<tag k="natural" v="water" />
		<tag k="old_name" v="Holmvatna, store" />
		<tag k="ssr:stedsnr" v="137562" />
		<tag k="water" v="lake" />
	</node>
	<node id="-162336" lat="66.8831611086" lon="14.9103888831">
		<tag k="name" v="Beverholmen" />
		<tag k="place" v="islet" />
		<tag k="ssr:stedsnr" v="137491" />
	</node>
	<node id="-162331" lat="67.00377222" lon="14.8353055638">
		<tag k="name" v="Mølnåga" />
		<tag k="ssr:stedsnr" v="137366" />
		<tag k="waterway" v="stream" />
	</node>
	<node id="-162330" lat="66.7576749966" lon="14.5803416593">
		<tag k="name" v="Litl-Staupåga" />
		<tag k="ssr:stedsnr" v="137355" />
		<tag k="waterway" v="stream" />
	</node>
	<node id="-162329" lat="67.0314666636" lon="14.4066666615">
		<tag k="name" v="Rundvatnet" />
		<tag k="natural" v="water" />
		<tag k="ssr:stedsnr" v="137350" />
	</node>
	<node id="-162327" lat="67.046411107" lon="14.4991222204">
		<tag k="name" v="Saufetåga" />
		<tag k="ssr:stedsnr" v="137337" />
		<tag k="waterway" v="stream" />
	</node>
	<node id="-162326" lat="66.9950972261" lon="14.6728361038">
		<tag k="name" v="Lilleøyra" />
		<tag k="place" v="islet" />
		<tag k="ssr:stedsnr" v="116880" />
	</node>
	<node id="-162323" lat="66.8462638868" lon="14.6680083237">
		<tag k="name" v="Monskrågbekken" />
		<tag k="ssr:stedsnr" v="116936" />
		<tag k="waterway" v="stream" />
	</node>
	<node id="-162322" lat="66.881272225" lon="14.7219888975">
		<tag k="name" v="Båtnes" />
		<tag k="natural" v="cape" />
		<tag k="ssr:stedsnr" v="116783" />
	</node>
	<node id="-162321" lat="66.8944250017" lon="14.857597233">
		<tag k="name" v="Steinholmen" />
		<tag k="place" v="islet" />
		<tag k="ssr:stedsnr" v="116769" />
	</node>
	<node id="-162320" lat="66.8890833369" lon="14.8442277871">
		<tag k="name" v="Loftsbekken" />
		<tag k="ssr:stedsnr" v="116763" />
		<tag k="waterway" v="stream" />
	</node>
	<node id="-162319" lat="66.9630027787" lon="14.8209472304">
		<tag k="name" v="Kast" />
		<tag k="natural" v="water" />
		<tag k="ssr:stedsnr" v="116755" />
		<tag k="water" v="lake" />
	</node>
	<node id="-162315" lat="66.770044444" lon="14.6895527827">
		<tag k="name" v="Muojddejåkvatnet" />
		<tag k="natural" v="water" />
		<tag k="old_name" v="Muoidejohkvatnet" />
		<tag k="ssr:stedsnr" v="95299" />
		<tag k="water" v="lake" />
	</node>
	<node id="-162306" lat="66.8249944417" lon="14.6475916664">
		<tag k="name" v="Pengkjelåga" />
		<tag k="ssr:stedsnr" v="92810" />
		<tag k="waterway" v="stream" />
	</node>
	<node id="-162305" lat="66.8340499968" lon="14.661952773">
		<tag k="name" v="Laksosen" />
		<tag k="natural" v="bay" />
		<tag k="ssr:stedsnr" v="92804" />
	</node>
	<node id="-162303" lat="66.8217027822" lon="14.6692527743">
		<tag k="name" v="Storbekken" />
		<tag k="ssr:stedsnr" v="92788" />
		<tag k="waterway" v="stream" />
	</node>
	<node id="-162299" lat="66.8101472217" lon="14.6308472197">
		<tag k="name" v="Storslettbekken" />
		<tag k="ssr:stedsnr" v="92777" />
		<tag k="waterway" v="stream" />
	</node>
	<node id="-162298" lat="66.8046527804" lon="14.6080333428">
		<tag k="name" v="Transkedalbekken" />
		<tag k="ssr:stedsnr" v="92770" />
		<tag k="waterway" v="stream" />
	</node>
	<node id="-162294" lat="66.9837333304" lon="14.8986638952">
		<tag k="name" v="Hyttvatnet" />
		<tag k="natural" v="water" />
		<tag k="ssr:stedsnr" v="92750" />
	</node>
	<node id="-162293" lat="67.0273138924" lon="14.5775666612">
		<tag k="name" v="Djuposbekken" />
		<tag k="ssr:stedsnr" v="92716" />
		<tag k="waterway" v="stream" />
	</node>
	<node id="-162288" lat="66.9140305511" lon="14.7870055616">
		<tag k="name" v="Snusbakkåga" />
		<tag k="ssr:stedsnr" v="92229" />
		<tag k="waterway" v="river" />
	</node>
	<node id="-162274" lat="67.0821055535" lon="14.5877861062">
		<tag k="name" v="Tverrelva" />
		<tag k="ssr:stedsnr" v="86046" />
		<tag k="waterway" v="river" />
	</node>
	<node id="-162261" lat="66.7651694475" lon="14.598019437">
		<tag k="name" v="Steinåforsen" />
		<tag k="natural" v="waterfall" />
		<tag k="ssr:stedsnr" v="85280" />
	</node>
	<node id="-162252" lat="67.05288056" lon="14.5041749982">
		<tag k="name" v="Austdalelva" />
		<tag k="ssr:stedsnr" v="85091" />
		<tag k="waterway" v="river" />
	</node>
	<node id="-162249" lat="67.0211361092" lon="14.743577777">
		<tag k="name" v="Storhaugvatnet" />
		<tag k="natural" v="water" />
		<tag k="ssr:stedsnr" v="77890" />
	</node>
	<node id="-162248" lat="67.0094000012" lon="14.4838194524">
		<tag k="name" v="Stormoholmen" />
		<tag k="place" v="islet" />
		<tag k="ssr:stedsnr" v="77661" />
	</node>
	<node id="-162242" lat="66.9590888906" lon="14.7296055606">
		<tag k="name" v="Nonsvatnan" />
		<tag k="natural" v="water" />
		<tag k="ssr:stedsnr" v="77599" />
		<tag k="water" v="lake" />
	</node>
	<node id="-162240" lat="66.8402833358" lon="14.9687999967">
		<tag k="name" v="Holmvatnet" />
		<tag k="natural" v="water" />
		<tag k="ssr:stedsnr" v="77569" />
	</node>
	<node id="-162239" lat="66.783861115" lon="14.9763694471">
		<tag k="alt_name" v="Lomvatnet, s" />
		<tag k="name" v="Søre Lomvatnet" />
		<tag k="natural" v="water" />
		<tag k="ssr:stedsnr" v="77559" />
	</node>
	<node id="-162237" lat="66.7105361087" lon="14.9117111187">
		<tag k="name" v="Losbekken" />
		<tag k="ssr:stedsnr" v="77556" />
		<tag k="waterway" v="stream" />
	</node>
	<node id="-162235" lat="66.8720333292" lon="14.8790555537">
		<tag k="fixme" v="multiple name tags, choose one and add the other to alt_name" />
		<tag k="name" v="Stolpevatnet, store;Stolpvatnet;Store Stolpevatnet - Stoalppujávrre" />
		<tag k="name:no" v="Stolpevatnet, store;Stolpvatnet;Store Stolpevatnet" />
		<tag k="name:smj" v="Stoalppujávrre" />
		<tag k="natural" v="water" />
		<tag k="ssr:stedsnr" v="77544" />
		<tag k="water" v="lake" />
	</node>
	<node id="-162234" lat="66.8575749962" lon="14.9314388861">
		<tag k="name" v="Åsvatnet - Gielasjávrre" />
		<tag k="name:no" v="Åsvatnet" />
		<tag k="name:smj" v="Gielasjávrre" />
		<tag k="natural" v="water" />
		<tag k="old_name:smj" v="Gielasjavri" />
		<tag k="ssr:stedsnr" v="77529" />
	</node>
	<node id="-162231" lat="66.940263887" lon="14.7019138918">
		<tag k="alt_name" v="Kvalvatnet, l" />
		<tag k="name" v="Litle Kvalvatnet" />
		<tag k="natural" v="water" />
		<tag k="ssr:stedsnr" v="77498" />
	</node>
	<node id="-162230" lat="66.9328388895" lon="14.3682416744">
		<tag k="name" v="Sokumåga - Råptekjåhkå" />
		<tag k="name:no" v="Sokumåga" />
		<tag k="name:smj" v="Råptekjåhkå" />
		<tag k="ssr:stedsnr" v="77497" />
		<tag k="waterway" v="river" />
	</node>
	<node id="-162229" lat="66.891341668" lon="14.6430111201">
		<tag k="name" v="Ytterfjellvatnan" />
		<tag k="natural" v="water" />
		<tag k="ssr:stedsnr" v="77490" />
		<tag k="water" v="lake" />
	</node>
	<node id="-162226" lat="66.8751416677" lon="14.4906583285">
		<tag k="name" v="Nordre Hábresvatnan" />
		<tag k="natural" v="water" />
		<tag k="old_name" v="Hábresvatnan, nordre" />
		<tag k="ssr:stedsnr" v="77470" />
		<tag k="water" v="lake" />
	</node>
	<node id="-162224" lat="66.8436472181" lon="14.5601861181">
		<tag k="name" v="Jervåga" />
		<tag k="ssr:stedsnr" v="77456" />
		<tag k="waterway" v="stream" />
	</node>
	<node id="-162223" lat="66.7324888914" lon="14.4987083447">
		<tag k="name" v="Hanspålsåga" />
		<tag k="old_name" v="Hanspolsåga" />
		<tag k="ssr:stedsnr" v="77455" />
		<tag k="waterway" v="stream" />
	</node>
	<node id="-162220" lat="66.8308916681" lon="14.5320805444">
		<tag k="name" v="Skjellåga" />
		<tag k="ssr:stedsnr" v="77445" />
		<tag k="waterway" v="stream" />
	</node>
	<node id="-162217" lat="66.8045833322" lon="14.4548750106">
		<tag k="name" v="Vegdalselva - Gæjnnovákjåhkå" />
		<tag k="name:no" v="Vegdalselva" />
		<tag k="name:smj" v="Gæjnnovákjåhkå" />
		<tag k="ssr:stedsnr" v="77429" />
		<tag k="waterway" v="river" />
	</node>
	<node id="-162215" lat="66.7755527762" lon="14.5609249933">
		<tag k="name" v="Nylabekken" />
		<tag k="ssr:stedsnr" v="77415" />
		<tag k="waterway" v="stream" />
	</node>
	<node id="-162212" lat="66.7578805571" lon="14.5413694411">
		<tag k="name" v="Leiråga" />
		<tag k="ssr:stedsnr" v="77390" />
		<tag k="waterway" v="stream" />
	</node>
	<node id="-162211" lat="67.0387194479" lon="14.5481388873">
		<tag k="alt_name" v="Storlielva" />
		<tag k="name" v="Storliåga" />
		<tag k="ssr:stedsnr" v="77378" />
		<tag k="waterway" v="stream" />
	</node>
	<node id="-162205" lat="67.0115194419" lon="14.690283343">
		<tag k="name" v="Kalvåga" />
		<tag k="ssr:stedsnr" v="76648" />
		<tag k="waterway" v="stream" />
	</node>
	<node id="-162202" lat="66.8855166665" lon="14.6705111114">
		<tag k="name" v="Tørråga" />
		<tag k="ssr:stedsnr" v="56969" />
		<tag k="waterway" v="stream" />
	</node>
	<node id="-162197" lat="66.9805250008" lon="14.6589611036">
		<tag k="name" v="Storneset" />
		<tag k="natural" v="cape" />
		<tag k="ssr:stedsnr" v="56903" />
	</node>
	<node id="-162195" lat="66.9864166624" lon="14.6377194478">
		<tag k="name" v="Heimerhølen" />
		<tag k="natural" v="water" />
		<tag k="ssr:stedsnr" v="56886" />
		<tag k="water" v="lake" />
	</node>
	<node id="-162189" lat="66.891177777" lon="14.7339777734">
		<tag k="name" v="Fiskosstrand" />
		<tag k="natural" v="beach" />
		<tag k="ssr:stedsnr" v="55758" />
	</node>
	<node id="-161175" lat="66.8164916663" lon="14.7293583346">
		<tag k="alt_name" v="Tverrelva, l" />
		<tag k="fixme" v="multiple name tags, choose one and add the other to alt_name" />
		<tag k="name" v="Tverrelva;Litle Tverrelva" />
		<tag k="ssr:stedsnr" v="441550" />
		<tag k="waterway" v="stream" />
	</node>
	<node id="-162182" lat="66.9941861153" lon="14.7513027732">
		<tag k="name" v="Hølmen" />
		<tag k="natural" v="cape" />
		<tag k="ssr:stedsnr" v="32965" />
	</node>
	<node id="-162171" lat="67.0026055544" lon="14.5553222166">
		<tag k="name" v="Lemåga" />
		<tag k="ssr:stedsnr" v="32255" />
		<tag k="waterway" v="stream" />
	</node>
	<node id="-162168" lat="66.9279305572" lon="14.7771972222">
		<tag k="name" v="Tullerhøla" />
		<tag k="place" v="locality" />
		<tag k="ssr:stedsnr" v="32166" />
	</node>
	<node id="-162164" lat="66.9548944434" lon="14.8230444415">
		<tag k="name" v="Risbuskneset" />
		<tag k="natural" v="cape" />
		<tag k="ssr:stedsnr" v="32111" />
	</node>
	<node id="-162160" lat="66.9648472178" lon="14.8216138921">
		<tag k="name" v="Koven" />
		<tag k="natural" v="cape" />
		<tag k="ssr:stedsnr" v="32068" />
	</node>
	<node id="-162159" lat="66.9745555569" lon="14.8770166734">
		<tag k="name" v="Mølnåga" />
		<tag k="ssr:stedsnr" v="32007" />
		<tag k="waterway" v="river" />
	</node>
	<node id="-162155" lat="66.8087749998" lon="14.6438277879">
		<tag k="name" v="Libekken" />
		<tag k="ssr:stedsnr" v="31798" />
		<tag k="waterway" v="stream" />
	</node>
	<node id="-162154" lat="66.8094611129" lon="14.616199993">
		<tag k="name" v="Jonasbekken" />
		<tag k="ssr:stedsnr" v="31775" />
		<tag k="waterway" v="stream" />
	</node>
	<node id="-162153" lat="67.0119722262" lon="14.5044694439">
		<tag k="name" v="Sørførsneset" />
		<tag k="natural" v="cape" />
		<tag k="ssr:stedsnr" v="31753" />
	</node>
	<node id="-162147" lat="66.9997277743" lon="14.6601138846">
		<tag k="name" v="Lilleåga" />
		<tag k="ssr:stedsnr" v="31643" />
		<tag k="waterway" v="stream" />
	</node>
	<node id="-162145" lat="66.8198833322" lon="14.9264333295">
		<tag k="name" v="Storpåskelva" />
		<tag k="ssr:stedsnr" v="27970" />
		<tag k="waterway" v="stream" />
	</node>
	<node id="-162140" lat="66.9182527757" lon="14.9776611213">
		<tag k="name" v="Bjøllhumpbekken" />
		<tag k="ssr:stedsnr" v="25073" />
		<tag k="waterway" v="stream" />
	</node>
	<node id="-162138" lat="66.7570222198" lon="14.5578111095">
		<tag k="name" v="Gleinen" />
		<tag k="place" v="locality" />
		<tag k="ssr:stedsnr" v="24792" />
	</node>
	<node id="-162130" lat="66.7767361105" lon="14.5829222118">
		<tag k="name" v="Tomashågbekken" />
		<tag k="ssr:stedsnr" v="24281" />
		<tag k="waterway" v="stream" />
	</node>
	<node id="-162129" lat="66.8226972238" lon="14.655188884">
		<tag k="name" v="Hammarnes" />
		<tag k="natural" v="cape" />
		<tag k="ssr:stedsnr" v="24277" />
	</node>
	<node id="-162126" lat="67.0678305565" lon="14.4140249908">
		<tag k="name" v="Innervatnet" />
		<tag k="natural" v="water" />
		<tag k="ssr:stedsnr" v="24370" />
		<tag k="water" v="lake" />
	</node>
	<node id="-162121" lat="67.0789444417" lon="14.5152361106">
		<tag k="name" v="Kokengåga" />
		<tag k="ssr:stedsnr" v="24027" />
		<tag k="waterway" v="stream" />
	</node>
	<node id="-162119" lat="67.0795111118" lon="14.531505559">
		<tag k="name" v="Brattliåga" />
		<tag k="ssr:stedsnr" v="24023" />
		<tag k="waterway" v="river" />
	</node>
	<node id="-162117" lat="66.9803638914" lon="14.924330555">
		<tag k="name" v="Demmåvatnan" />
		<tag k="natural" v="water" />
		<tag k="ssr:stedsnr" v="21447" />
		<tag k="water" v="lake" />
	</node>
	<node id="-162113" lat="66.7647361151" lon="14.742347212">
		<tag k="name" v="Tverråga" />
		<tag k="ssr:stedsnr" v="16746" />
		<tag k="waterway" v="stream" />
	</node>
	<node id="-162108" lat="66.9158805529" lon="14.7326111147">
		<tag k="name" v="Heståga" />
		<tag k="ssr:stedsnr" v="16586" />
		<tag k="waterway" v="stream" />
	</node>
	<node id="-162106" lat="66.9360249971" lon="14.9626222169">
		<tag k="name" v="Kvannhølvatnet" />
		<tag k="natural" v="water" />
		<tag k="ssr:stedsnr" v="16570" />
	</node>
	<node id="-162104" lat="66.7734138861" lon="14.5627194471">
		<tag k="name" v="Skredbekken" />
		<tag k="ssr:stedsnr" v="16744" />
		<tag k="waterway" v="stream" />
	</node>
	<node id="-162101" lat="66.8661777817" lon="14.8699416721">
		<tag k="name" v="Stolpelva - Stoalppujåhkå" />
		<tag k="name:no" v="Stolpelva" />
		<tag k="name:smj" v="Stoalppujåhkå" />
		<tag k="ssr:stedsnr" v="16490" />
		<tag k="waterway" v="stream" />
	</node>
	<node id="-162100" lat="66.9024833315" lon="14.8344805542">
		<tag k="name" v="Vassålivatnet" />
		<tag k="natural" v="water" />
		<tag k="ssr:stedsnr" v="16481" />
	</node>
	<node id="-162090" lat="67.1189749988" lon="14.4451305503">
		<tag k="name" v="Snaubakktjønna" />
		<tag k="natural" v="water" />
		<tag k="ssr:stedsnr" v="16431" />
	</node>
	<node id="-162086" lat="66.993430556" lon="14.9260583263">
		<tag k="name" v="Tverrbrennvatnet" />
		<tag k="natural" v="water" />
		<tag k="ssr:stedsnr" v="16545" />
		<tag k="water" v="lake" />
	</node>
	<node id="-162083" lat="67.0261111121" lon="14.5479555537">
		<tag k="alt_name" v="Mølnelva" />
		<tag k="name" v="Mølnåga" />
		<tag k="ssr:stedsnr" v="16285" />
		<tag k="waterway" v="stream" />
	</node>
	<node id="-162082" lat="67.0185833328" lon="14.3858833334">
		<tag k="alt_name" v="Fonndalsvatnet, nedre" />
		<tag k="name" v="Nedre Fonndalsvatnet" />
		<tag k="natural" v="water" />
		<tag k="ssr:stedsnr" v="16278" />
	</node>
	<node id="-162079" lat="66.9962361132" lon="14.516438883">
		<tag k="fixme" v="multiple name tags, choose one and add the other to alt_name" />
		<tag k="name" v="Endåga;Engårønna" />
		<tag k="ssr:stedsnr" v="16252" />
		<tag k="waterway" v="stream" />
	</node>
	<node id="-162071" lat="66.8078472237" lon="14.7116666672">
		<tag k="name" v="Tverrelvvatnet" />
		<tag k="natural" v="water" />
		<tag k="ssr:stedsnr" v="16384" />
	</node>
	<node id="-162067" lat="66.7872194457" lon="14.693372216">
		<tag k="name" v="Småvatnan" />
		<tag k="natural" v="water" />
		<tag k="ssr:stedsnr" v="16356" />
		<tag k="water" v="lake" />
	</node>
	<node id="-162062" lat="66.9317250029" lon="14.8689055556">
		<tag k="name" v="Sandvika" />
		<tag k="natural" v="bay" />
		<tag k="ssr:stedsnr" v="966756" />
	</node>
	<node id="-162058" lat="66.8899388881" lon="14.7323694455">
		<tag k="name" v="Høstnes" />
		<tag k="natural" v="cape" />
		<tag k="ssr:stedsnr" v="965779" />
	</node>
	<node id="-162057" lat="66.893325003" lon="14.7348694491">
		<tag k="name" v="Fiskoshølmen" />
		<tag k="natural" v="cape" />
		<tag k="ssr:stedsnr" v="965776" />
	</node>
	<node id="-162056" lat="66.8946555539" lon="14.7372055608">
		<tag k="name" v="Fiskosen" />
		<tag k="natural" v="bay" />
		<tag k="ssr:stedsnr" v="965775" />
	</node>
	<node id="-162053" lat="66.9389138849" lon="14.9566249929">
		<tag k="name" v="Vardheivatnet" />
		<tag k="natural" v="water" />
		<tag k="ssr:stedsnr" v="946852" />
	</node>
	<node id="-162048" lat="67.0951388846" lon="14.4365916654">
		<tag k="name" v="Rønvadet" />
		<tag k="natural" v="beach" />
		<tag k="ssr:stedsnr" v="935426" />
	</node>
	<node id="-162046" lat="67.0982083287" lon="14.407669452">
		<tag k="name" v="Krokelva" />
		<tag k="ssr:stedsnr" v="935418" />
		<tag k="waterway" v="stream" />
	</node>
	<node id="-162045" lat="67.0924111143" lon="14.4107222238">
		<tag k="name" v="Lappbekken" />
		<tag k="ssr:stedsnr" v="935414" />
		<tag k="waterway" v="stream" />
	</node>
	<node id="-162043" lat="67.0701250044" lon="14.434580557">
		<tag k="name" v="Urskarelva" />
		<tag k="ssr:stedsnr" v="935405" />
		<tag k="waterway" v="river" />
	</node>
	<node id="-161151" lat="67.1001444416" lon="14.5603527751">
		<tag k="name" v="Svartvatnet" />
		<tag k="natural" v="water" />
		<tag k="ssr:stedsnr" v="441278" />
	</node>
	<node id="-162037" lat="66.7886388886" lon="14.5806694524">
		<tag k="name" v="Haraldforsen" />
		<tag k="natural" v="waterfall" />
		<tag k="ssr:stedsnr" v="934711" />
	</node>
	<node id="-162032" lat="67.0062749982" lon="14.8125777706">
		<tag k="name" v="Mosåga" />
		<tag k="ssr:stedsnr" v="926904" />
		<tag k="waterway" v="stream" />
	</node>
	<node id="-162031" lat="66.8624194422" lon="14.6855305642">
		<tag k="name" v="Branntjønnholmen" />
		<tag k="natural" v="cape" />
		<tag k="ssr:stedsnr" v="905858" />
	</node>
	<node id="-161149" lat="66.9792999991" lon="14.5751500014">
		<tag k="name" v="Ågleinvatnet" />
		<tag k="natural" v="water" />
		<tag k="ssr:stedsnr" v="441246" />
	</node>
	<node id="-162025" lat="66.9000250009" lon="14.8830083436">
		<tag k="name" v="Stilleelva" />
		<tag k="ssr:stedsnr" v="905768" />
		<tag k="waterway" v="stream" />
	</node>
	<node id="-162023" lat="66.9935388934" lon="14.7058499946">
		<tag k="name" v="Leirvollåga" />
		<tag k="ssr:stedsnr" v="881957" />
		<tag k="waterway" v="stream" />
	</node>
	<node id="-162022" lat="66.9909638852" lon="14.7243055659">
		<tag k="name" v="Lilleåga" />
		<tag k="ssr:stedsnr" v="881942" />
		<tag k="waterway" v="stream" />
	</node>
	<node id="-162012" lat="66.8804444416" lon="14.9336777851">
		<tag k="name" v="Gammåga" />
		<tag k="ssr:stedsnr" v="874462" />
		<tag k="waterway" v="stream" />
	</node>
	<node id="-162010" lat="67.0950722259" lon="14.3976166592">
		<tag k="name" v="Ågkroken" />
		<tag k="natural" v="bay" />
		<tag k="ssr:stedsnr" v="874422" />
	</node>
	<node id="-162004" lat="66.795527779" lon="14.6695472255">
		<tag k="name" v="Muojddejåhkå" />
		<tag k="name:smj" v="Muojddejåhkå" />
		<tag k="old_name:smj" v="Muoidejohka" />
		<tag k="ssr:stedsnr" v="944437" />
		<tag k="waterway" v="stream" />
	</node>
	<node id="-161997" lat="66.9699249959" lon="14.8472555613">
		<tag k="name" v="Gamførsen" />
		<tag k="natural" v="waterfall" />
		<tag k="ssr:stedsnr" v="942795" />
	</node>
	<node id="-161982" lat="66.9493500035" lon="14.8391277723">
		<tag k="name" v="Tjønno" />
		<tag k="natural" v="water" />
		<tag k="ssr:stedsnr" v="942130" />
		<tag k="water" v="lake" />
	</node>
	<node id="-161981" lat="66.9672500011" lon="14.8271999909">
		<tag k="name" v="Forsnes" />
		<tag k="natural" v="cape" />
		<tag k="ssr:stedsnr" v="942099" />
	</node>
	<node id="-161979" lat="66.9618916691" lon="14.8186722322">
		<tag k="name" v="Gjeddåghølmen" />
		<tag k="natural" v="cape" />
		<tag k="ssr:stedsnr" v="942082" />
	</node>
	<node id="-161968" lat="66.865938889" lon="14.9219999958">
		<tag k="name" v="Skulnesforsen" />
		<tag k="natural" v="waterfall" />
		<tag k="ssr:stedsnr" v="935456" />
	</node>
	<node id="-161962" lat="66.7759305595" lon="14.5575666781">
		<tag k="name" v="Kvannkjeldene" />
		<tag k="ssr:stedsnr" v="935279" />
		<tag k="waterway" v="stream" />
	</node>
	<node id="-161961" lat="66.8015916694" lon="14.6242722182">
		<tag k="name" v="Tommasnes" />
		<tag k="natural" v="cape" />
		<tag k="ssr:stedsnr" v="935082" />
	</node>
	<node id="-161136" lat="66.8815833326" lon="14.7203416701">
		<tag k="name" v="Storholmen" />
		<tag k="place" v="islet" />
		<tag k="ssr:stedsnr" v="298747" />
	</node>
	<node id="-161950" lat="66.753394449" lon="14.55418611">
		<tag k="name" v="Mølnbekken" />
		<tag k="ssr:stedsnr" v="934758" />
		<tag k="waterway" v="stream" />
	</node>
	<node id="-161948" lat="66.884338889" lon="14.8127583229">
		<tag k="name" v="Tjyvåga - Tjivvajåhkå" />
		<tag k="name:no" v="Tjyvåga" />
		<tag k="name:smj" v="Tjivvajåhkå" />
		<tag k="ssr:stedsnr" v="932396" />
		<tag k="waterway" v="river" />
	</node>
	<node id="-161945" lat="66.9693333379" lon="14.8506305464">
		<tag k="name" v="Hestvadhøla" />
		<tag k="place" v="locality" />
		<tag k="ssr:stedsnr" v="821812" />
	</node>
	<node id="-161938" lat="66.9572666692" lon="14.8155555483">
		<tag k="name" v="Stubakkhølmen" />
		<tag k="natural" v="cape" />
		<tag k="ssr:stedsnr" v="821124" />
	</node>
	<node id="-161934" lat="67.0285194414" lon="14.5770138888">
		<tag k="name" v="Djuposen" />
		<tag k="natural" v="bay" />
		<tag k="ssr:stedsnr" v="820703" />
	</node>
	<node id="-161931" lat="67.0348888904" lon="14.5727305661">
		<tag k="name" v="Dalosen" />
		<tag k="natural" v="bay" />
		<tag k="ssr:stedsnr" v="820307" />
	</node>
	<node id="-161925" lat="67.0664944486" lon="14.4103722255">
		<tag k="name" v="Rundvatnet" />
		<tag k="natural" v="water" />
		<tag k="ssr:stedsnr" v="813336" />
		<tag k="water" v="lake" />
	</node>
	<node id="-161923" lat="67.0923388886" lon="14.3837888953">
		<tag k="name" v="Silaelva" />
		<tag k="ssr:stedsnr" v="813313" />
		<tag k="waterway" v="river" />
	</node>
	<node id="-161920" lat="66.9463083343" lon="14.8471333285">
		<tag k="fixme" v="multiple name tags, choose one and add the other to alt_name" />
		<tag k="name" v="Lille Ramskjellvatn;Litlevatnet - Lismájávrre" />
		<tag k="name:no" v="Lille Ramskjellvatn;Litlevatnet" />
		<tag k="name:smj" v="Lismájávrre" />
		<tag k="natural" v="water" />
		<tag k="ssr:stedsnr" v="805593" />
	</node>
	<node id="-161919" lat="66.916611111" lon="14.8817194429">
		<tag k="name" v="Stordalsvatnet" />
		<tag k="natural" v="water" />
		<tag k="ssr:stedsnr" v="805613" />
	</node>
	<node id="-161914" lat="66.8479722227" lon="14.8778888778">
		<tag k="name" v="Jiggahaugvatnet" />
		<tag k="natural" v="water" />
		<tag k="ssr:stedsnr" v="927542" />
	</node>
	<node id="-161909" lat="66.9797583362" lon="14.3657333344">
		<tag k="alt_name:no" v="Nævervatnet, øvre;Øvre Nævervatnet" />
		<tag k="name" v="Øvre Nevervatnet - Båssjukjávrre" />
		<tag k="name:no" v="Øvre Nevervatnet" />
		<tag k="name:smj" v="Båssjukjávrre" />
		<tag k="natural" v="water" />
		<tag k="ssr:stedsnr" v="805238" />
		<tag k="water" v="lake" />
	</node>
	<node id="-161908" lat="66.977599997" lon="14.4609555488">
		<tag k="name" v="Steinåvatnet" />
		<tag k="natural" v="water" />
		<tag k="ssr:stedsnr" v="805232" />
	</node>
	<node id="-161905" lat="67.081430558" lon="14.6564138919">
		<tag k="name" v="Lurfjellelva" />
		<tag k="ssr:stedsnr" v="805217" />
		<tag k="waterway" v="stream" />
	</node>
	<node id="-161902" lat="66.9002999986" lon="14.3775055602">
		<tag k="name" v="Arstaddalsdammen" />
		<tag k="natural" v="water" />
		<tag k="ssr:stedsnr" v="927475" />
		<tag k="water" v="lake" />
	</node>
	<node id="-161900" lat="66.9957277749" lon="14.777963895">
		<tag k="name" v="Leiråga" />
		<tag k="ssr:stedsnr" v="927407" />
		<tag k="waterway" v="stream" />
	</node>
	<node id="-161898" lat="66.76135" lon="14.7113944502">
		<tag k="name" v="Tverråvatna" />
		<tag k="natural" v="water" />
		<tag k="ssr:stedsnr" v="927396" />
		<tag k="water" v="lake" />
	</node>
	<node id="-161896" lat="67.0098583345" lon="14.3701583364">
		<tag k="alt_name" v="Fonndalsvatnet, øvre" />
		<tag k="name" v="Øvre Fonndalsvatnet" />
		<tag k="natural" v="water" />
		<tag k="ssr:stedsnr" v="927344" />
	</node>
	<node id="-161891" lat="67.0508277765" lon="14.8042000072">
		<tag k="alt_name" v="Lurfjellvatnet, indre" />
		<tag k="name" v="Indre Lurfjellvatnet" />
		<tag k="natural" v="water" />
		<tag k="ssr:stedsnr" v="926585" />
		<tag k="water" v="lake" />
	</node>
	<node id="-161890" lat="67.0430805542" lon="14.8645388904">
		<tag k="name" v="Trollvatnan" />
		<tag k="natural" v="water" />
		<tag k="ssr:stedsnr" v="926578" />
		<tag k="water" v="lake" />
	</node>
	<node id="-161886" lat="66.9735722262" lon="14.7446250066">
		<tag k="alt_name" v="Nonselva" />
		<tag k="name" v="Nonsåga" />
		<tag k="ssr:stedsnr" v="926560" />
		<tag k="waterway" v="stream" />
	</node>
	<node id="-161885" lat="66.9660111129" lon="14.9085194439">
		<tag k="name" v="Stabbursdalselva" />
		<tag k="ssr:stedsnr" v="926554" />
		<tag k="waterway" v="stream" />
	</node>
	<node id="-161884" lat="66.7625027774" lon="14.7635000035">
		<tag k="name" v="Tverråsandan" />
		<tag k="place" v="locality" />
		<tag k="ssr:stedsnr" v="926541" />
	</node>
	<node id="-161883" lat="66.6738972202" lon="14.8057083247">
		<tag k="name" v="Simlevatnet" />
		<tag k="natural" v="water" />
		<tag k="ssr:stedsnr" v="926525" />
		<tag k="water" v="lake" />
	</node>
	<node id="-161882" lat="66.7036833289" lon="14.8356555606">
		<tag k="name" v="Tollåga - Riebijåhkå" />
		<tag k="name:no" v="Tollåga" />
		<tag k="name:smj" v="Riebijåhkå" />
		<tag k="old_name:smj" v="Rebejåkka;Riebejåhkå" />
		<tag k="ssr:stedsnr" v="926518" />
		<tag k="waterway" v="river" />
	</node>
	<node id="-161881" lat="66.6994749976" lon="14.4967944462">
		<tag k="name" v="Neverneshågen" />
		<tag k="ssr:stedsnr" v="926495" />
		<tag k="waterway" v="stream" />
	</node>
	<node id="-161880" lat="66.6961249969" lon="14.4456499907">
		<tag k="name" v="Lappflyttarelva" />
		<tag k="ssr:stedsnr" v="926491" />
		<tag k="waterway" v="stream" />
	</node>
	<node id="-161875" lat="66.863983334" lon="14.6321639003">
		<tag k="name" v="Matvassbekken" />
		<tag k="ssr:stedsnr" v="926444" />
		<tag k="waterway" v="stream" />
	</node>
	<node id="-161867" lat="66.8256499958" lon="14.3988250005">
		<tag k="name" v="Isvatnet" />
		<tag k="natural" v="water" />
		<tag k="ssr:stedsnr" v="926405" />
		<tag k="water" v="lake" />
	</node>
	<node id="-161863" lat="67.0491972209" lon="14.4636888814">
		<tag k="name" v="Breivikelva" />
		<tag k="ssr:stedsnr" v="926347" />
		<tag k="waterway" v="river" />
	</node>
	<node id="-161860" lat="67.0234805521" lon="14.506336111">
		<tag k="name" v="Mølnvatnet" />
		<tag k="natural" v="water" />
		<tag k="ssr:stedsnr" v="926309" />
	</node>
	<node id="-161856" lat="67.0609249965" lon="14.613116671">
		<tag k="name" v="Galtåga" />
		<tag k="ssr:stedsnr" v="926271" />
		<tag k="waterway" v="stream" />
	</node>
	<node id="-161854" lat="66.961655553" lon="14.5414611003">
		<tag k="name" v="Fjøsdalsvatnet" />
		<tag k="natural" v="water" />
		<tag k="ssr:stedsnr" v="926255" />
	</node>
	<node id="-161838" lat="66.9465472201" lon="14.9926694326">
		<tag k="name" v="Rundtjønna" />
		<tag k="natural" v="water" />
		<tag k="ssr:stedsnr" v="753111" />
	</node>
	<node id="-161835" lat="67.0948888851" lon="14.3907722128">
		<tag k="name" v="Otersteinelva" />
		<tag k="ssr:stedsnr" v="752329" />
		<tag k="waterway" v="river" />
	</node>
	<node id="-161830" lat="67.0348833373" lon="14.8912472342">
		<tag k="name" v="Beiarskarvatnet" />
		<tag k="natural" v="water" />
		<tag k="ssr:stedsnr" v="744876" />
		<tag k="water" v="lake" />
	</node>
	<node id="-161828" lat="67.0008277813" lon="14.5500194406">
		<tag k="name" v="Lemvatnet" />
		<tag k="natural" v="water" />
		<tag k="ssr:stedsnr" v="744620" />
	</node>
	<node id="-161821" lat="66.7416166662" lon="14.5977888985">
		<tag k="name" v="Tverråga" />
		<tag k="ssr:stedsnr" v="744411" />
		<tag k="waterway" v="stream" />
	</node>
	<node id="-161820" lat="67.1265194459" lon="14.4085583308">
		<tag k="name" v="Tjørnan" />
		<tag k="natural" v="water" />
		<tag k="ssr:stedsnr" v="744405" />
	</node>
	<node id="-161817" lat="66.8129555542" lon="14.5919583417">
		<tag k="name" v="Mølnbekkvatnet" />
		<tag k="natural" v="water" />
		<tag k="ssr:stedsnr" v="744379" />
	</node>
	<node id="-161815" lat="66.7717249979" lon="14.4136166655">
		<tag k="name" v="Skavldalsbekken" />
		<tag k="ssr:stedsnr" v="744359" />
		<tag k="waterway" v="stream" />
	</node>
	<node id="-161113" lat="66.7449916701" lon="14.9420555478">
		<tag k="name" v="Belnovatnet - Biellnojávrre" />
		<tag k="name:no" v="Belnovatnet" />
		<tag k="name:smj" v="Biellnojávrre" />
		<tag k="natural" v="water" />
		<tag k="old_name:smj" v="Belnojavri" />
		<tag k="ssr:stedsnr" v="198513" />
	</node>
	<node id="-161807" lat="66.9709833316" lon="14.4088027736">
		<tag k="name" v="Neveråga - Båssjukjåhkå" />
		<tag k="name:no" v="Neveråga" />
		<tag k="name:smj" v="Båssjukjåhkå" />
		<tag k="ssr:stedsnr" v="744203" />
		<tag k="waterway" v="stream" />
	</node>
	<node id="-161111" lat="66.8629222256" lon="14.9398333299">
		<tag k="name" v="Kelassen" />
		<tag k="ssr:stedsnr" v="198503" />
		<tag k="waterway" v="stream" />
	</node>
	<node id="-161797" lat="66.9352555595" lon="14.8368889003">
		<tag k="name" v="Svarttjønna" />
		<tag k="natural" v="water" />
		<tag k="ssr:stedsnr" v="905745" />
	</node>
</osm>
