<?xml version="1.0" encoding="UTF-8"?>
<osm version="0.6" generator="osmapis">
	<node lat="67.05239166440097" lon="14.570336102416837" id="-18411">
		<tag k="alt_name" v="Tarnesodden" />
		<tag k="name" v="Tarneset" />
		<tag k="natural" v="cape" />
		<tag k="ssr:stedsnr" v="16310" />
	</node>
	<node lat="67.04441944391411" lon="14.607124999506564" id="-18476">
		<tag k="name" v="Mulbukta" />
		<tag k="natural" v="bay" />
		<tag k="ssr:stedsnr" v="237842" />
	</node>
	<node lat="67.0753166635517" lon="14.501761103749324" id="-18651">
		<tag k="name" v="Brønnvika" />
		<tag k="natural" v="bay" />
		<tag k="ssr:stedsnr" v="198265" />
	</node>
	<node lat="67.06285405312607" lon="14.530327938610087" id="-18766">
		<tag k="alt_name" v="Svartnes" />
		<tag k="name" v="Svartneset" />
		<tag k="natural" v="cape" />
		<tag k="ssr:stedsnr" v="258265" />
	</node>
	<node lat="67.02318611543868" lon="14.561883326720515" id="-18771">
		<tag k="name" v="Bakøyra" />
		<tag k="place" v="islet" />
		<tag k="ssr:stedsnr" v="259307" />
	</node>
	<node lat="67.03220277500662" lon="14.605380543482452" id="-18773">
		<tag k="name" v="Leirvika" />
		<tag k="natural" v="bay" />
		<tag k="ssr:stedsnr" v="259353" />
	</node>
	<node lat="67.08263888996598" lon="14.356841667423245" id="-18782">
		<tag k="name" v="Hundholmen" />
		<tag k="place" v="islet" />
		<tag k="ssr:stedsnr" v="259275" />
	</node>
	<node lat="67.03226944534259" lon="14.57869167690167" id="-19088">
		<tag k="name" v="Reinøyra" />
		<tag k="place" v="island" />
		<tag k="ssr:stedsnr" v="683337" />
	</node>
	<node lat="67.06907500312553" lon="14.485627778816951" id="-19233">
		<tag k="alt_name" v="Agnes" />
		<tag k="name" v="Agneset" />
		<tag k="natural" v="cape" />
		<tag k="ssr:stedsnr" v="622264" />
	</node>
	<node lat="67.07186111184336" lon="14.533322229877099" id="-19288">
		<tag k="name" v="Skrubbhaugodden" />
		<tag k="natural" v="cape" />
		<tag k="ssr:stedsnr" v="683233" />
	</node>
	<node lat="67.04480555946651" lon="14.568586113128024" id="-19362">
		<tag k="name" v="Tverrvika" />
		<tag k="natural" v="bay" />
		<tag k="ssr:stedsnr" v="744326" />
	</node>
	<node lat="67.04243055732971" lon="14.579127775807871" id="-19422">
		<tag k="name" v="Vedflogodden" />
		<tag k="natural" v="cape" />
		<tag k="ssr:stedsnr" v="771710" />
	</node>
	<node lat="67.0491861085744" lon="14.5731250107657" id="-19473">
		<tag k="name" v="Nesodden" />
		<tag k="natural" v="cape" />
		<tag k="ssr:stedsnr" v="926160" />
	</node>
	<node lat="67.0549138878923" lon="14.557969436744804" id="-19601">
		<tag k="alt_name" v="Kakvika" />
		<tag k="name" v="Kakevika" />
		<tag k="natural" v="bay" />
		<tag k="ssr:stedsnr" v="16314" />
	</node>
	<node lat="67.04036667076086" lon="14.582883341879013" id="-19794">
		<tag k="name" v="Iliskallen" />
		<tag k="natural" v="cape" />
		<tag k="ssr:stedsnr" v="116851" />
	</node>
	<node lat="67.05626111174422" lon="14.606772221841267" id="-20326">
		<tag k="name" v="Kalvika" />
		<tag k="natural" v="bay" />
		<tag k="ssr:stedsnr" v="589689" />
	</node>
	<node lat="67.0718166640041" lon="14.549747229001367" id="-20449">
		<tag k="name" v="Øynes" />
		<tag k="natural" v="cape" />
		<tag k="ssr:stedsnr" v="744214" />
	</node>
	<node lat="67.03594444598443" lon="14.582363881587844" id="-20501">
		<tag k="name" v="Halsen" />
		<tag k="natural" v="bay" />
		<tag k="ssr:stedsnr" v="759293" />
	</node>
	<node lat="67.06928333164392" lon="14.532844441424896" id="-20670">
		<tag k="alt_name" v="Beiaren" />
		<tag k="bay" v="fjord" />
		<tag k="name" v="Beiarfjorden" />
		<tag k="natural" v="bay" />
		<tag k="ssr:stedsnr" v="866259" />
	</node>
	<node lat="67.09415277509811" lon="14.397049987799749" id="-20671">
		<tag k="name" v="Kroken" />
		<tag k="natural" v="bay" />
		<tag k="ssr:stedsnr" v="866262" />
	</node>
</osm>
