<?xml version="1.0" encoding="UTF-8"?>
<<<<<<< HEAD
<osm version="0.6" generator="osmapis">
	<node lat="67.00631389074158" lon="14.572044441374272" id="-7792">
=======
<osm generator="osmapis" version="0.6">
	<node id="-169391" lat="67.0032055576" lon="14.452983332">
		<tag k="name" v="Jens Hanso-steinen" />
		<tag k="ssr:stedsnr" v="631314" />
		<tag k="tourism" v="attraction" />
	</node>
	<node id="-169819" lat="67.0063138907" lon="14.5720444414">
>>>>>>> e1d4bc35ff8a6074a6f2e91616a996b547c36f15
		<tag k="amenity" v="place_of_worship" />
		<tag k="denomination" v="lutheran" />
		<tag k="name" v="Beiarn kirke" />
		<tag k="religion" v="christian" />
		<tag k="ssr:stedsnr" v="16605" />
	</node>
<<<<<<< HEAD
	<node lat="66.9096472248141" lon="14.749313899121914" id="-8033">
=======
	<node id="-168818" lat="66.9096472248" lon="14.7493138991">
>>>>>>> e1d4bc35ff8a6074a6f2e91616a996b547c36f15
		<tag k="amenity" v="place_of_worship" />
		<tag k="denomination" v="lutheran" />
		<tag k="name" v="HÃ¸yforsmoen kapell" />
		<tag k="religion" v="christian" />
		<tag k="ssr:stedsnr" v="198608" />
	</node>
<<<<<<< HEAD
	<node lat="67.00320555758071" lon="14.45298333203571" id="-9746">
		<tag k="name" v="Jens Hanso-steinen" />
		<tag k="ssr:stedsnr" v="631314" />
		<tag k="tourism" v="attraction" />
	</node>
=======
>>>>>>> e1d4bc35ff8a6074a6f2e91616a996b547c36f15
</osm>
