<?xml version="1.0" encoding="UTF-8"?>
<<<<<<< HEAD
<osm version="0.6" generator="osmapis">
	<node lat="66.97013333762149" lon="14.810577779050154" id="-7908">
		<tag k="highway" v="path" />
		<tag k="name" v="Neshågvegen" />
		<tag k="ssr:stedsnr" v="92115" />
	</node>
	<node lat="66.78276944484001" lon="14.590413893638292" id="-8317">
=======
<osm generator="osmapis" version="0.6">
	<node id="-170527" lat="66.9290666623" lon="14.7364000055">
		<tag k="highway" v="path" />
		<tag k="name" v="Grottådalvegen" />
		<tag k="ssr:stedsnr" v="577166" />
	</node>
	<node id="-169093" lat="66.7827694448" lon="14.5904138936">
>>>>>>> e1d4bc35ff8a6074a6f2e91616a996b547c36f15
		<tag k="highway" v="path" />
		<tag k="name" v="Strengrasta" />
		<tag k="ssr:stedsnr" v="388712" />
	</node>
<<<<<<< HEAD
	<node lat="67.03003610769508" lon="14.570363894646682" id="-8457">
		<tag k="alt_name" v="Stigen" />
		<tag k="highway" v="path" />
		<tag k="name" v="Stien" />
		<tag k="ssr:stedsnr" v="683336" />
	</node>
	<node lat="67.00305833376821" lon="14.754130565297272" id="-8598">
=======
	<node id="-169883" lat="67.0029611107" lon="14.7190833292">
>>>>>>> e1d4bc35ff8a6074a6f2e91616a996b547c36f15
		<tag k="highway" v="path" />
		<tag k="name" v="Fjellvegen" />
		<tag k="ssr:stedsnr" v="699851" />
	</node>
<<<<<<< HEAD
	<node lat="66.79058611393356" lon="14.606794438378945" id="-8682">
		<tag k="highway" v="path" />
		<tag k="name" v="Stien" />
		<tag k="ssr:stedsnr" v="692128" />
	</node>
	<node lat="66.80812777856609" lon="14.650772232650397" id="-8776">
=======
	<node id="-170744" lat="66.8081277786" lon="14.6507722327">
>>>>>>> e1d4bc35ff8a6074a6f2e91616a996b547c36f15
		<tag k="ford" v="yes" />
		<tag k="name" v="Bjørnvadet" />
		<tag k="place" v="locality" />
		<tag k="ssr:stedsnr" v="759795" />
	</node>
<<<<<<< HEAD
	<node lat="67.0029611107351" lon="14.719083329179385" id="-9040">
		<tag k="highway" v="path" />
		<tag k="name" v="Lappstien" />
		<tag k="ssr:stedsnr" v="32756" />
	</node>
	<node lat="66.9290666622806" lon="14.73640000548495" id="-9665">
		<tag k="highway" v="path" />
		<tag k="name" v="Grottådalvegen" />
		<tag k="ssr:stedsnr" v="577166" />
	</node>
	<node lat="67.07154444255062" lon="14.482666659462366" id="-9757">
		<tag k="highway" v="path" />
		<tag k="name" v="Kroken" />
		<tag k="ssr:stedsnr" v="631451" />
=======
	<node id="-169327" lat="67.0030583338" lon="14.7541305653">
		<tag k="highway" v="path" />
		<tag k="name" v="Fjellvegen" />
		<tag k="ssr:stedsnr" v="699851" />
	</node>
	<node id="-170635" lat="67.0715444426" lon="14.4826666595">
		<tag k="highway" v="path" />
		<tag k="name" v="Kroken" />
		<tag k="ssr:stedsnr" v="631451" />
	</node>
	<node id="-169290" lat="66.7905861139" lon="14.6067944384">
		<tag k="highway" v="path" />
		<tag k="name" v="Stien" />
		<tag k="ssr:stedsnr" v="692128" />
	</node>
	<node id="-169990" lat="66.9701333376" lon="14.8105777791">
		<tag k="highway" v="path" />
		<tag k="name" v="Neshågvegen" />
		<tag k="ssr:stedsnr" v="92115" />
	</node>
	<node id="-169221" lat="67.0300361077" lon="14.5703638946">
		<tag k="alt_name" v="Stigen" />
		<tag k="highway" v="path" />
		<tag k="name" v="Stien" />
		<tag k="ssr:stedsnr" v="683336" />
>>>>>>> e1d4bc35ff8a6074a6f2e91616a996b547c36f15
	</node>
</osm>
