<?xml version="1.0" encoding="UTF-8"?>
<<<<<<< HEAD
<osm version="0.6" generator="osmapis">
	<node lat="66.87818333297433" lon="14.578761117964074" id="-7787">
		<tag k="name" v="Austfjellfonna" />
		<tag k="natural" v="glacier" />
		<tag k="ssr:stedsnr" v="16450" />
	</node>
	<node lat="66.76005832976912" lon="14.599913878817938" id="-7813">
		<tag k="name" v="Rødhesten" />
		<tag k="natural" v="stone" />
		<tag k="ssr:stedsnr" v="24333" />
	</node>
	<node lat="66.93200000280467" lon="14.902472233804682" id="-7817">
		<tag k="name" v="Gammlimyra" />
		<tag k="natural" v="wetland" />
		<tag k="ssr:stedsnr" v="24431" />
	</node>
	<node lat="66.93772500345062" lon="14.909111123175766" id="-7818">
		<tag k="name" v="Slåttan" />
		<tag k="place" v="locality" />
		<tag k="ssr:stedsnr" v="24432" />
	</node>
	<node lat="66.98440833341799" lon="14.650263885131722" id="-7857">
		<tag k="name" v="Vindnesura" />
		<tag k="natural" v="scree" />
		<tag k="ssr:stedsnr" v="237872" />
	</node>
	<node lat="66.92096666942957" lon="14.888555556611214" id="-7859">
		<tag k="name" v="Storura" />
		<tag k="natural" v="scree" />
		<tag k="ssr:stedsnr" v="238742" />
	</node>
	<node lat="66.8084361098056" lon="14.54338333805872" id="-7880">
		<tag k="name" v="Indre Ura" />
		<tag k="natural" v="scree" />
		<tag k="ssr:stedsnr" v="77424" />
	</node>
	<node lat="67.08201944354276" lon="14.423511112466308" id="-7899">
		<tag k="name" v="Resen" />
		<tag k="natural" v="stone" />
		<tag k="ssr:stedsnr" v="85304" />
	</node>
	<node lat="66.93234999646883" lon="14.784258323189711" id="-7911">
		<tag k="loc_name" v="Førnesøyra" />
		<tag k="name" v="Israeløyra" />
		<tag k="place" v="locality" />
		<tag k="ssr:stedsnr" v="92173" />
	</node>
	<node lat="67.01377222012479" lon="14.695472211305317" id="-7918">
		<tag k="name" v="Falkflogmyra" />
		<tag k="natural" v="wetland" />
		<tag k="ssr:stedsnr" v="92764" />
	</node>
	<node lat="66.92549166625504" lon="14.851813897525034" id="-7923">
		<tag k="name" v="Stormyra" />
		<tag k="natural" v="wetland" />
		<tag k="ssr:stedsnr" v="116723" />
	</node>
	<node lat="66.86666666438607" lon="14.535466655286676" id="-7941">
		<tag k="name" v="Simlefonna" />
=======
<osm generator="osmapis" version="0.6">
	<node id="-169472" lat="66.9404194435" lon="14.9046527672">
		<tag k="name" v="Stongsætstøet" />
		<tag k="place" v="locality" />
		<tag k="ssr:stedsnr" v="692423" />
	</node>
	<node id="-168957" lat="67.0673916631" lon="14.4307638824">
		<tag k="name" v="Urskarmyran" />
		<tag k="natural" v="wetland" />
		<tag k="ssr:stedsnr" v="267357" />
	</node>
	<node id="-170491" lat="67.0738166709" lon="14.5400305567">
		<tag k="name" v="Orrvollen" />
		<tag k="place" v="locality" />
		<tag k="ssr:stedsnr" v="570017" />
	</node>
	<node id="-170488" lat="66.9782361112" lon="14.6465194498">
		<tag k="name" v="Moan" />
		<tag k="natural" v="wetland" />
		<tag k="ssr:stedsnr" v="569275" />
	</node>
	<node id="-169975" lat="66.9473805597" lon="14.9254999972">
		<tag k="name" v="ho Margrete" />
		<tag k="natural" v="stone" />
		<tag k="ssr:stedsnr" v="85365" />
	</node>
	<node id="-169385" lat="67.0749527801" lon="14.4066222149">
		<tag k="name" v="Smalura" />
		<tag k="natural" v="scree" />
		<tag k="ssr:stedsnr" v="630359" />
	</node>
	<node id="-168948" lat="67.0122472205" lon="14.5784944453">
		<tag k="name" v="Slagøyra" />
		<tag k="place" v="locality" />
		<tag k="ssr:stedsnr" v="457265" />
	</node>
	<node id="-168702" lat="66.8691666696" lon="14.8171000102">
		<tag k="name" v="Tellingsura" />
		<tag k="natural" v="scree" />
		<tag k="ssr:stedsnr" v="259511" />
	</node>
	<node id="-168945" lat="66.9369666709" lon="14.7557916648">
		<tag k="name" v="Kjerkmyra" />
		<tag k="natural" v="wetland" />
		<tag k="ssr:stedsnr" v="457115" />
	</node>
	<node id="-169449" lat="66.8522750015" lon="14.4434972159">
		<tag k="name" v="Tverrådalsfonna" />
>>>>>>> e1d4bc35ff8a6074a6f2e91616a996b547c36f15
		<tag k="natural" v="glacier" />
		<tag k="ssr:stedsnr" v="683409" />
	</node>
<<<<<<< HEAD
	<node lat="67.12593333147122" lon="14.389850010435305" id="-7954">
		<tag k="name" v="Jens Gunners-bakken" />
		<tag k="place" v="locality" />
		<tag k="ssr:stedsnr" v="145109" />
	</node>
	<node lat="66.7636750019823" lon="14.556899994415705" id="-7958">
		<tag k="name" v="Hesjebenken" />
		<tag k="place" v="locality" />
		<tag k="ssr:stedsnr" v="145276" />
	</node>
	<node lat="66.76852499810272" lon="14.552894446571006" id="-7960">
		<tag k="name" v="Haraura" />
		<tag k="natural" v="scree" />
		<tag k="ssr:stedsnr" v="145281" />
	</node>
	<node lat="66.92651666755178" lon="14.925622226386134" id="-7963">
		<tag k="name" v="Gjætarneset" />
		<tag k="place" v="locality" />
		<tag k="ssr:stedsnr" v="145428" />
	</node>
	<node lat="67.07741666645512" lon="14.577122215861229" id="-7973">
		<tag k="name" v="Klømbersteinen" />
		<tag k="natural" v="stone" />
		<tag k="ssr:stedsnr" v="146041" />
	</node>
	<node lat="66.97026111523842" lon="14.821213893026714" id="-7985">
		<tag k="name" v="Jarfall" />
		<tag k="place" v="locality" />
		<tag k="ssr:stedsnr" v="153104" />
	</node>
	<node lat="66.90601389201223" lon="14.395727784438604" id="-8006">
		<tag k="name" v="Guollevágura" />
		<tag k="natural" v="scree" />
		<tag k="ssr:stedsnr" v="259477" />
	</node>
	<node lat="67.06739166310743" lon="14.430763882385946" id="-8019">
		<tag k="name" v="Urskarmyran" />
		<tag k="natural" v="wetland" />
		<tag k="ssr:stedsnr" v="267357" />
	</node>
	<node lat="67.05590832936048" lon="14.517799997944408" id="-8050">
		<tag k="name" v="Spelmyra" />
		<tag k="natural" v="wetland" />
		<tag k="ssr:stedsnr" v="267075" />
	</node>
	<node lat="67.09448055540103" lon="14.391372213515998" id="-8069">
		<tag k="name" v="Otersteinen" />
		<tag k="natural" v="stone" />
		<tag k="ssr:stedsnr" v="206336" />
	</node>
	<node lat="67.08176111202866" lon="14.404172225018542" id="-8070">
		<tag k="name" v="Tjeldsvikmyra" />
		<tag k="natural" v="wetland" />
		<tag k="ssr:stedsnr" v="206354" />
	</node>
	<node lat="66.80715555393573" lon="14.618366666169328" id="-8078">
		<tag k="name" v="Seljesletta" />
		<tag k="place" v="locality" />
		<tag k="ssr:stedsnr" v="213804" />
	</node>
	<node lat="66.99775555749383" lon="14.615677786459804" id="-8079">
		<tag k="name" v="Mosthagan" />
		<tag k="place" v="locality" />
		<tag k="ssr:stedsnr" v="213705" />
	</node>
	<node lat="66.91028332911941" lon="14.744497215821678" id="-8090">
		<tag k="name" v="Gleina" />
=======
	<node id="-168936" lat="66.9682555524" lon="14.8665888804">
		<tag k="name" v="Nerstormyra" />
		<tag k="natural" v="wetland" />
		<tag k="ssr:stedsnr" v="456792" />
	</node>
	<node id="-168935" lat="66.8035333318" lon="14.6232111011">
		<tag k="name" v="Sandbakken" />
		<tag k="natural" v="beach" />
		<tag k="ssr:stedsnr" v="456786" />
		<tag k="surface" v="sand" />
	</node>
	<node id="-169446" lat="67.0015472256" lon="14.8130888895">
		<tag k="name" v="Stormyra" />
		<tag k="natural" v="wetland" />
		<tag k="ssr:stedsnr" v="882932" />
	</node>
	<node id="-168933" lat="66.8200527781" lon="14.6212416583">
		<tag k="name" v="Sjølskøtura" />
		<tag k="natural" v="scree" />
		<tag k="ssr:stedsnr" v="456781" />
	</node>
	<node id="-168614" lat="66.9473222207" lon="14.8573583286">
		<tag k="name" v="Hestmyra" />
		<tag k="natural" v="wetland" />
		<tag k="ssr:stedsnr" v="41761" />
	</node>
	<node id="-168928" lat="67.0166111136" lon="14.6724027759">
		<tag k="name" v="Myran" />
		<tag k="natural" v="wetland" />
		<tag k="ssr:stedsnr" v="456640" />
	</node>
	<node id="-169438" lat="66.9869305581" lon="14.8322111149">
		<tag k="name" v="Notmyran" />
		<tag k="natural" v="wetland" />
		<tag k="ssr:stedsnr" v="881794" />
	</node>
	<node id="-169436" lat="66.9707777774" lon="14.8349444437">
		<tag k="name" v="Nyland" />
		<tag k="place" v="locality" />
		<tag k="ssr:stedsnr" v="881780" />
	</node>
	<node id="-169944" lat="66.8106222202" lon="14.7737722229">
		<tag k="name" v="Ostesteinan" />
		<tag k="natural" v="stone" />
		<tag k="ssr:stedsnr" v="77546" />
	</node>
	<node id="-168782" lat="67.0077388922" lon="14.7307999972">
		<tag k="name" v="Øverura" />
		<tag k="natural" v="scree" />
		<tag k="ssr:stedsnr" v="274740" />
	</node>
	<node id="-169424" lat="66.9090555591" lon="14.7359694408">
		<tag k="name" v="Smågleina" />
		<tag k="place" v="locality" />
		<tag k="ssr:stedsnr" v="881193" />
	</node>
	<node id="-169421" lat="66.9341194406" lon="14.7900083371">
		<tag k="name" v="Innerhølmen" />
		<tag k="place" v="locality" />
		<tag k="ssr:stedsnr" v="881161" />
	</node>
	<node id="-168906" lat="67.0897555523" lon="14.4322249988">
		<tag k="name" v="Søkkmyran" />
		<tag k="natural" v="wetland" />
		<tag k="ssr:stedsnr" v="449396" />
	</node>
	<node id="-170953" lat="67.0728055515" lon="14.5794194334">
		<tag k="name" v="Tullkjerran" />
>>>>>>> e1d4bc35ff8a6074a6f2e91616a996b547c36f15
		<tag k="place" v="locality" />
		<tag k="ssr:stedsnr" v="875046" />
	</node>
<<<<<<< HEAD
	<node lat="66.97219722385067" lon="14.830113894575577" id="-8097">
		<tag k="name" v="Kjellgrøva" />
		<tag k="place" v="locality" />
		<tag k="ssr:stedsnr" v="214833" />
	</node>
	<node lat="66.89243055307246" lon="14.864916670610107" id="-8100">
		<tag k="name" v="Pellemyra - Piellajiegge" />
		<tag k="name:no" v="Pellemyra" />
		<tag k="name:smj" v="Piellajiegge" />
		<tag k="natural" v="wetland" />
		<tag k="ssr:stedsnr" v="223815" />
	</node>
	<node lat="67.08975555227808" lon="14.432224998839459" id="-8108">
		<tag k="name" v="Søkkmyran" />
		<tag k="natural" v="wetland" />
		<tag k="ssr:stedsnr" v="449396" />
	</node>
	<node lat="66.91242500348876" lon="14.690366664509533" id="-8123">
		<tag k="name" v="Langlægdura" />
		<tag k="natural" v="scree" />
		<tag k="ssr:stedsnr" v="456187" />
	</node>
	<node lat="67.00058889212298" lon="14.658169435494864" id="-8125">
		<tag k="name" v="Ytterjorda" />
		<tag k="place" v="locality" />
		<tag k="ssr:stedsnr" v="456629" />
	</node>
	<node lat="67.0166111136235" lon="14.672402775923992" id="-8127">
		<tag k="name" v="Myran" />
		<tag k="natural" v="wetland" />
		<tag k="ssr:stedsnr" v="456640" />
	</node>
	<node lat="66.82005277807443" lon="14.621241658323914" id="-8131">
		<tag k="name" v="Sjølskøtura" />
		<tag k="natural" v="scree" />
		<tag k="ssr:stedsnr" v="456781" />
	</node>
	<node lat="66.80353333177689" lon="14.62321110114153" id="-8133">
		<tag k="name" v="Sandbakken" />
		<tag k="natural" v="beach" />
		<tag k="ssr:stedsnr" v="456786" />
		<tag k="surface" v="sand" />
	</node>
	<node lat="66.96825555238708" lon="14.86658888044528" id="-8134">
		<tag k="name" v="Nerstormyra" />
		<tag k="natural" v="wetland" />
		<tag k="ssr:stedsnr" v="456792" />
	</node>
	<node lat="66.96892499616958" lon="14.879688894992961" id="-8135">
		<tag k="name" v="Stormyra" />
		<tag k="natural" v="wetland" />
		<tag k="ssr:stedsnr" v="456793" />
	</node>
	<node lat="66.97852777940601" lon="14.549447230013332" id="-8149">
		<tag k="name" v="Høgtindbreen" />
		<tag k="natural" v="glacier" />
		<tag k="ssr:stedsnr" v="259244" />
	</node>
	<node lat="66.87979999910722" lon="14.545516666846675" id="-8160">
		<tag k="name" v="Habresfonna" />
		<tag k="natural" v="glacier" />
		<tag k="ssr:stedsnr" v="259467" />
	</node>
	<node lat="66.86916666959233" lon="14.817100010190767" id="-8162">
		<tag k="name" v="Tellingsura" />
		<tag k="natural" v="scree" />
		<tag k="ssr:stedsnr" v="259511" />
	</node>
	<node lat="66.77958055768944" lon="14.599305560857637" id="-8175">
		<tag k="name" v="Lislenget" />
		<tag k="place" v="locality" />
		<tag k="ssr:stedsnr" v="267314" />
	</node>
	<node lat="66.75711110721141" lon="14.589397210838728" id="-8182">
		<tag k="name" v="Lappmyra" />
		<tag k="natural" v="wetland" />
		<tag k="ssr:stedsnr" v="267783" />
	</node>
	<node lat="66.75887500203193" lon="14.579277768182283" id="-8183">
		<tag k="name" v="Reinhagen" />
		<tag k="natural" v="wetland" />
		<tag k="ssr:stedsnr" v="267785" />
	</node>
	<node lat="66.98643333119892" lon="14.759341664568815" id="-8185">
		<tag k="name" v="Teinnøyra" />
		<tag k="place" v="locality" />
		<tag k="ssr:stedsnr" v="274004" />
	</node>
	<node lat="66.94811389005004" lon="14.770541674220523" id="-8188">
		<tag k="name" v="Lilleåmyra" />
		<tag k="natural" v="wetland" />
		<tag k="ssr:stedsnr" v="274123" />
	</node>
	<node lat="66.94190833320147" lon="14.796000003383945" id="-8189">
		<tag k="name" v="Altersteinen" />
		<tag k="natural" v="stone" />
		<tag k="ssr:stedsnr" v="274128" />
	</node>
	<node lat="67.0128027778671" lon="14.652330552616501" id="-8192">
		<tag k="name" v="Øvergullmyra" />
		<tag k="natural" v="wetland" />
		<tag k="ssr:stedsnr" v="274615" />
	</node>
	<node lat="67.00809166907345" lon="14.759516676913565" id="-8195">
		<tag k="name" v="Torvmyra" />
		<tag k="natural" v="wetland" />
		<tag k="ssr:stedsnr" v="274814" />
	</node>
	<node lat="66.90899166507407" lon="14.838455560405139" id="-8200">
		<tag k="name" v="Tollåura" />
		<tag k="natural" v="scree" />
		<tag k="ssr:stedsnr" v="298703" />
	</node>
	<node lat="66.93845555520706" lon="14.898016673811854" id="-8201">
		<tag k="name" v="Slåttan" />
		<tag k="place" v="locality" />
		<tag k="ssr:stedsnr" v="298707" />
	</node>
	<node lat="66.87545833185311" lon="14.633291660166403" id="-8208">
		<tag k="name" v="Svartvassura" />
		<tag k="natural" v="scree" />
		<tag k="ssr:stedsnr" v="298949" />
	</node>
	<node lat="66.71612778083933" lon="14.433200011627294" id="-8217">
		<tag k="name" v="Trollbergdalsbreen" />
		<tag k="natural" v="glacier" />
		<tag k="ssr:stedsnr" v="319419" />
	</node>
	<node lat="66.77376666760905" lon="14.5641500071933" id="-8248">
		<tag k="name" v="Myra" />
		<tag k="natural" v="wetland" />
		<tag k="ssr:stedsnr" v="328267" />
	</node>
	<node lat="66.91716944693577" lon="14.740963880632005" id="-8254">
		<tag k="name" v="Innerøverlæger" />
		<tag k="place" v="locality" />
		<tag k="ssr:stedsnr" v="335146" />
	</node>
	<node lat="67.04036111322863" lon="14.597886102686159" id="-8269">
		<tag k="name" v="Øyran" />
		<tag k="place" v="locality" />
		<tag k="ssr:stedsnr" v="359863" />
	</node>
	<node lat="66.84328888718709" lon="14.40398611152897" id="-8301">
		<tag k="name" v="Reinkalvfonna" />
		<tag k="natural" v="glacier" />
		<tag k="ssr:stedsnr" v="380466" />
	</node>
	<node lat="67.09599721746521" lon="14.390180565695966" id="-8308">
		<tag k="name" v="Kiura" />
		<tag k="natural" v="scree" />
		<tag k="ssr:stedsnr" v="388313" />
	</node>
	<node lat="66.77037777791072" lon="14.58906665536308" id="-8309">
		<tag k="name" v="Steinan" />
		<tag k="natural" v="stone" />
		<tag k="ssr:stedsnr" v="388296" />
	</node>
	<node lat="66.81431667107869" lon="14.639961111727184" id="-8328">
		<tag k="name" v="Stormyra" />
		<tag k="natural" v="wetland" />
		<tag k="ssr:stedsnr" v="395810" />
	</node>
	<node lat="67.01778333409615" lon="14.563288880185508" id="-8341">
		<tag k="name" v="Øyra" />
		<tag k="place" v="locality" />
		<tag k="ssr:stedsnr" v="396236" />
	</node>
	<node lat="66.7748472231646" lon="14.59088332899105" id="-8373">
=======
	<node id="-168970" lat="67.0052388876" lon="14.5895694551">
		<tag k="name" v="Vollskogan" />
		<tag k="place" v="locality" />
		<tag k="ssr:stedsnr" v="274283" />
	</node>
	<node id="-169413" lat="66.9625000009" lon="14.7971444498">
		<tag k="name" v="Pemyra" />
		<tag k="natural" v="wetland" />
		<tag k="ssr:stedsnr" v="881062" />
	</node>
	<node id="-170948" lat="67.0941138901" lon="14.4427999928">
		<tag k="name" v="Dalmyran" />
		<tag k="natural" v="wetland" />
		<tag k="ssr:stedsnr" v="874440" />
	</node>
	<node id="-170946" lat="66.7599138936" lon="14.5886666605">
		<tag k="name" v="Skredene" />
		<tag k="natural" v="wetland" />
		<tag k="ssr:stedsnr" v="874346" />
	</node>
	<node id="-168779" lat="67.0080361152" lon="14.5168083232">
		<tag k="landuse" v="meadow" />
		<tag k="name" v="Engan" />
		<tag k="ssr:stedsnr" v="274735" />
	</node>
	<node id="-169399" lat="67.0379305536" lon="14.5437555618">
		<tag k="name" v="Storlimyra" />
		<tag k="natural" v="wetland" />
		<tag k="ssr:stedsnr" v="638314" />
	</node>
	<node id="-170934" lat="66.8988694469" lon="14.8029388983">
		<tag k="name" v="Løkkmyra" />
		<tag k="natural" v="wetland" />
		<tag k="ssr:stedsnr" v="866590" />
	</node>
	<node id="-170421" lat="66.9077805593" lon="14.7222583285">
		<tag k="name" v="Gammelskyttmarka" />
		<tag k="place" v="locality" />
		<tag k="ssr:stedsnr" v="420853" />
	</node>
	<node id="-169908" lat="66.8471916672" lon="14.6216361117">
		<tag k="name" v="Tjukkskogen" />
		<tag k="place" v="locality" />
		<tag k="ssr:stedsnr" v="56957" />
	</node>
	<node id="-169924" lat="66.8084361098" lon="14.5433833381">
		<tag k="name" v="Indre Ura" />
		<tag k="natural" v="scree" />
		<tag k="ssr:stedsnr" v="77424" />
	</node>
	<node id="-169388" lat="67.0745305541" lon="14.5360666595">
		<tag k="name" v="Øverhallen" />
		<tag k="natural" v="stone" />
		<tag k="ssr:stedsnr" v="631022" />
	</node>
	<node id="-170923" lat="66.7899416671" lon="14.4120749905">
		<tag k="name" v="Vegdalsisen" />
		<tag k="natural" v="glacier" />
		<tag k="ssr:stedsnr" v="866370" />
	</node>
	<node id="-170410" lat="66.9789666677" lon="14.8303555648">
		<tag k="name" v="Hantremyra" />
		<tag k="natural" v="wetland" />
		<tag k="ssr:stedsnr" v="396726" />
	</node>
	<node id="-170409" lat="66.9819722255" lon="14.8392611122">
		<tag k="name" v="Øverura" />
		<tag k="natural" v="scree" />
		<tag k="ssr:stedsnr" v="396725" />
	</node>
	<node id="-170407" lat="67.0177833341" lon="14.5632888802">
		<tag k="name" v="Øyra" />
		<tag k="place" v="locality" />
		<tag k="ssr:stedsnr" v="396236" />
	</node>
	<node id="-169542" lat="67.0866361091" lon="14.3934110994">
		<tag k="name" v="Karsteinåkeren" />
		<tag k="place" v="locality" />
		<tag k="ssr:stedsnr" v="752322" />
	</node>
	<node id="-170402" lat="66.9968499986" lon="14.6649194394">
		<tag k="name" v="Navjordvollen" />
		<tag k="place" v="locality" />
		<tag k="ssr:stedsnr" v="395885" />
	</node>
	<node id="-170396" lat="66.8143166711" lon="14.6399611117">
		<tag k="name" v="Stormyra" />
		<tag k="natural" v="wetland" />
		<tag k="ssr:stedsnr" v="395810" />
	</node>
	<node id="-169370" lat="66.8998194459" lon="14.7043972207">
		<tag k="name" v="Andersmyra" />
		<tag k="natural" v="wetland" />
		<tag k="ssr:stedsnr" v="601816" />
	</node>
	<node id="-170904" lat="66.7398500037" lon="14.4759138799">
		<tag k="name" v="Hanspålsabreen" />
		<tag k="natural" v="glacier" />
		<tag k="old_name" v="Hanspolsabreen" />
		<tag k="ssr:stedsnr" v="865477" />
	</node>
	<node id="-170388" lat="67.0021361105" lon="14.6019860999">
		<tag k="name" v="Kvæløyra" />
		<tag k="place" v="locality" />
		<tag k="ssr:stedsnr" v="395323" />
	</node>
	<node id="-169362" lat="67.0001499969" lon="14.6390666653">
		<tag k="name" v="Bjønnskoøyra" />
		<tag k="place" v="locality" />
		<tag k="ssr:stedsnr" v="577672" />
	</node>
	<node id="-169361" lat="66.9970500047" lon="14.6496833244">
		<tag k="name" v="Myran" />
		<tag k="natural" v="wetland" />
		<tag k="ssr:stedsnr" v="577660" />
	</node>
	<node id="-170383" lat="66.9671277774" lon="14.8206416628">
		<tag k="name" v="Storøyra" />
		<tag k="place" v="locality" />
		<tag k="ssr:stedsnr" v="395125" />
	</node>
	<node id="-170673" lat="66.9984222262" lon="14.8195333299">
		<tag k="name" v="Myran" />
		<tag k="natural" v="wetland" />
		<tag k="ssr:stedsnr" v="638936" />
	</node>
	<node id="-168839" lat="66.9384555552" lon="14.8980166738">
		<tag k="name" v="Slåttan" />
		<tag k="place" v="locality" />
		<tag k="ssr:stedsnr" v="298707" />
	</node>
	<node id="-170886" lat="67.0022694426" lon="14.8016694371">
		<tag k="name" v="Vakkermyra" />
		<tag k="natural" v="wetland" />
		<tag k="ssr:stedsnr" v="821993" />
	</node>
	<node id="-169281" lat="66.9789833342" lon="14.6560944411">
		<tag k="name" v="Stornesmyra" />
		<tag k="natural" v="wetland" />
		<tag k="ssr:stedsnr" v="691291" />
	</node>
	<node id="-170370" lat="66.7703777779" lon="14.5890666554">
		<tag k="name" v="Steinan" />
		<tag k="natural" v="stone" />
		<tag k="ssr:stedsnr" v="388296" />
	</node>
	<node id="-170368" lat="66.7780833359" lon="14.5703611041">
		<tag k="name" v="Sjølskotmyra" />
		<tag k="natural" v="wetland" />
		<tag k="ssr:stedsnr" v="388281" />
	</node>
	<node id="-169803" lat="66.878183333" lon="14.578761118">
		<tag k="name" v="Austfjellfonna" />
		<tag k="natural" v="glacier" />
		<tag k="ssr:stedsnr" v="16450" />
	</node>
	<node id="-170366" lat="66.9259611149" lon="15.0071805538">
		<tag k="name" v="Lappsteinen" />
		<tag k="natural" v="stone" />
		<tag k="ssr:stedsnr" v="388083" />
	</node>
	<node id="-168828" lat="66.8071555539" lon="14.6183666662">
		<tag k="name" v="Seljesletta" />
		<tag k="place" v="locality" />
		<tag k="ssr:stedsnr" v="213804" />
	</node>
	<node id="-168827" lat="66.9977555575" lon="14.6156777865">
		<tag k="name" v="Mosthagan" />
		<tag k="place" v="locality" />
		<tag k="ssr:stedsnr" v="213705" />
	</node>
	<node id="-170872" lat="66.9344499988" lon="14.7939638901">
		<tag k="name" v="Hestgjerdet" />
		<tag k="place" v="locality" />
		<tag k="ssr:stedsnr" v="821159" />
	</node>
	<node id="-168937" lat="66.9689249962" lon="14.879688895">
>>>>>>> e1d4bc35ff8a6074a6f2e91616a996b547c36f15
		<tag k="name" v="Stormyra" />
		<tag k="place" v="locality" />
		<tag k="ssr:stedsnr" v="449310" />
	</node>
	<node lat="66.93696667090698" lon="14.755791664791655" id="-8387">
		<tag k="name" v="Kjerkmyra" />
		<tag k="natural" v="wetland" />
<<<<<<< HEAD
		<tag k="ssr:stedsnr" v="457115" />
	</node>
	<node lat="67.01224722054017" lon="14.57849444525632" id="-8393">
		<tag k="name" v="Slagøyra" />
		<tag k="place" v="locality" />
		<tag k="ssr:stedsnr" v="457265" />
	</node>
	<node lat="66.87901111549516" lon="14.63753055100298" id="-8407">
		<tag k="name" v="Rønnø" />
		<tag k="natural" v="scree" />
		<tag k="ssr:stedsnr" v="480976" />
	</node>
	<node lat="66.72635833276024" lon="14.447305557189019" id="-8420">
		<tag k="name" v="Skjelåtindbreen" />
		<tag k="natural" v="glacier" />
		<tag k="ssr:stedsnr" v="501432" />
	</node>
	<node lat="66.78028055321246" lon="14.593072222477131" id="-8433">
		<tag k="name" v="Gammellauksletta" />
		<tag k="place" v="locality" />
		<tag k="ssr:stedsnr" v="509303" />
	</node>
	<node lat="67.11191388856903" lon="14.359344433934941" id="-8445">
		<tag k="name" v="Saurvassmyran" />
		<tag k="natural" v="wetland" />
		<tag k="ssr:stedsnr" v="510063" />
	</node>
	<node lat="66.8522750015049" lon="14.443497215900631" id="-8460">
		<tag k="name" v="Tverrådalsfonna" />
		<tag k="natural" v="glacier" />
		<tag k="ssr:stedsnr" v="683409" />
	</node>
	<node lat="66.82251667079488" lon="14.425849994531683" id="-8461">
		<tag k="name" v="Leirbreen" />
		<tag k="natural" v="glacier" />
		<tag k="ssr:stedsnr" v="683395" />
	</node>
	<node lat="66.82487222295111" lon="14.466324988729871" id="-8462">
		<tag k="name" v="Hengfonna" />
		<tag k="natural" v="glacier" />
		<tag k="ssr:stedsnr" v="683400" />
	</node>
	<node lat="67.01337500470399" lon="14.340738879446947" id="-8485">
		<tag k="name" v="Småtindisen" />
		<tag k="natural" v="glacier" />
		<tag k="ssr:stedsnr" v="684316" />
	</node>
	<node lat="66.94209166496874" lon="14.78562500205827" id="-8489">
		<tag k="name" v="Langmyra" />
=======
		<tag k="ssr:stedsnr" v="456793" />
	</node>
	<node id="-169844" lat="66.7429138874" lon="14.5279805492">
		<tag k="name" v="Skilåkjerran" />
		<tag k="place" v="locality" />
		<tag k="ssr:stedsnr" v="24781" />
	</node>
	<node id="-170865" lat="66.8447083341" lon="14.4544138778">
		<tag k="name" v="Simlebreen - Vátjamjåkjiehkke" />
		<tag k="name:no" v="Simlebreen" />
		<tag k="name:smj" v="Vátjamjåkjiehkke" />
		<tag k="natural" v="glacier" />
		<tag k="old_name:smj" v="Váhtjamjåkjiehkke;Váhčanjohkjiehkki" />
		<tag k="ssr:stedsnr" v="815416" />
	</node>
	<node id="-169840" lat="66.9320000028" lon="14.9024722338">
		<tag k="name" v="Gammlimyra" />
		<tag k="natural" v="wetland" />
		<tag k="ssr:stedsnr" v="24431" />
	</node>
	<node id="-170347" lat="66.9010499997" lon="14.5691888859">
		<tag k="name" v="Gåvdesfonna" />
		<tag k="natural" v="glacier" />
		<tag k="old_name" v="Govddesfonna" />
		<tag k="ssr:stedsnr" v="380490" />
	</node>
	<node id="-169831" lat="66.7600583298" lon="14.5999138788">
		<tag k="name" v="Rødhesten" />
		<tag k="natural" v="stone" />
		<tag k="ssr:stedsnr" v="24333" />
	</node>
	<node id="-170342" lat="66.8432888872" lon="14.4039861115">
		<tag k="name" v="Reinkalvfonna" />
		<tag k="natural" v="glacier" />
		<tag k="ssr:stedsnr" v="380466" />
	</node>
	<node id="-169317" lat="67.000161114" lon="14.6705055576">
		<tag k="name" v="Tuteigen" />
		<tag k="place" v="locality" />
		<tag k="ssr:stedsnr" v="699600" />
	</node>
	<node id="-170852" lat="67.0758249977" lon="14.4709527679">
		<tag k="name" v="Storenga" />
		<tag k="place" v="locality" />
		<tag k="ssr:stedsnr" v="813400" />
	</node>
	<node id="-170339" lat="66.8309916665" lon="14.588066676">
		<tag k="name" v="Ytre Ura" />
		<tag k="natural" v="scree" />
		<tag k="ssr:stedsnr" v="380456" />
	</node>
	<node id="-169826" lat="66.861022226" lon="14.7471666664">
		<tag k="name" v="Veskmyra" />
		<tag k="natural" v="wetland" />
		<tag k="ssr:stedsnr" v="21474" />
	</node>
	<node id="-170846" lat="66.7772138935" lon="14.5941722191">
		<tag k="name" v="Snaumyra" />
		<tag k="place" v="locality" />
		<tag k="ssr:stedsnr" v="813279" />
	</node>
	<node id="-169309" lat="66.9914722191" lon="14.8203138867">
		<tag k="name" v="Svartmyra" />
		<tag k="natural" v="wetland" />
		<tag k="ssr:stedsnr" v="699036" />
	</node>
	<node id="-170844" lat="66.7619055513" lon="14.5729722199">
		<tag k="name" v="Lislmoen" />
		<tag k="place" v="locality" />
		<tag k="ssr:stedsnr" v="813262" />
	</node>
	<node id="-170842" lat="67.0448777743" lon="14.4602416744">
		<tag k="name" v="Storsteinen" />
		<tag k="natural" v="stone" />
		<tag k="ssr:stedsnr" v="813112" />
	</node>
	<node id="-168793" lat="66.9412333338" lon="14.8820333338">
		<tag k="name" v="Høystakklimyra" />
>>>>>>> e1d4bc35ff8a6074a6f2e91616a996b547c36f15
		<tag k="natural" v="wetland" />
		<tag k="ssr:stedsnr" v="284787" />
	</node>
<<<<<<< HEAD
	<node lat="66.98167777377849" lon="14.831013898634438" id="-8510">
		<tag k="name" v="Nerura" />
		<tag k="natural" v="scree" />
		<tag k="ssr:stedsnr" v="517773" />
	</node>
	<node lat="66.89055555750919" lon="14.83622778753291" id="-8516">
		<tag k="name" v="Tukthuskjeran" />
		<tag k="place" v="locality" />
		<tag k="ssr:stedsnr" v="541784" />
	</node>
	<node lat="66.89316666847054" lon="14.725805548683654" id="-8517">
		<tag k="name" v="Fiskosura" />
		<tag k="natural" v="scree" />
		<tag k="ssr:stedsnr" v="541788" />
	</node>
	<node lat="66.76520833785472" lon="14.586438879358951" id="-8522">
		<tag k="name" v="Gammelsteinåfaret" />
		<tag k="natural" v="stone" />
		<tag k="ssr:stedsnr" v="692296" />
	</node>
	<node lat="67.08293055818932" lon="14.407244444367553" id="-8523">
		<tag k="name" v="Jørnsteinen" />
		<tag k="natural" v="stone" />
		<tag k="ssr:stedsnr" v="692348" />
	</node>
	<node lat="66.97823611123042" lon="14.646519449778191" id="-8529">
		<tag k="name" v="Moan" />
		<tag k="natural" v="wetland" />
		<tag k="ssr:stedsnr" v="569275" />
	</node>
	<node lat="67.07381667088245" lon="14.540030556685295" id="-8532">
		<tag k="name" v="Orrvollen" />
		<tag k="place" v="locality" />
		<tag k="ssr:stedsnr" v="570017" />
	</node>
	<node lat="67.09161666766639" lon="14.424355557562984" id="-8544">
		<tag k="name" v="Lasken" />
		<tag k="place" v="locality" />
		<tag k="ssr:stedsnr" v="570363" />
	</node>
	<node lat="66.78236388848232" lon="14.56796110549718" id="-8550">
		<tag k="name" v="Isterkjerrabben" />
		<tag k="place" v="locality" />
		<tag k="ssr:stedsnr" v="570721" />
	</node>
	<node lat="66.99705000469419" lon="14.649683324399833" id="-8558">
		<tag k="name" v="Myran" />
		<tag k="natural" v="wetland" />
		<tag k="ssr:stedsnr" v="577660" />
	</node>
	<node lat="66.81676666574408" lon="14.62669722797845" id="-8563">
		<tag k="name" v="Sjølskottmyra" />
		<tag k="natural" v="wetland" />
		<tag k="ssr:stedsnr" v="577801" />
	</node>
	<node lat="66.9887888849757" lon="14.787247221134473" id="-8565">
		<tag k="name" v="Engermyra" />
		<tag k="natural" v="wetland" />
		<tag k="ssr:stedsnr" v="578008" />
	</node>
	<node lat="67.0070444405228" lon="14.589213891661302" id="-8567">
		<tag k="name" v="Rønno" />
		<tag k="place" v="locality" />
		<tag k="ssr:stedsnr" v="698289" />
	</node>
	<node lat="66.99147221905193" lon="14.820313886725616" id="-8568">
		<tag k="name" v="Svartmyra" />
		<tag k="natural" v="wetland" />
		<tag k="ssr:stedsnr" v="699036" />
	</node>
	<node lat="66.89981944588791" lon="14.704397220683369" id="-8570">
		<tag k="name" v="Andersmyra" />
		<tag k="natural" v="wetland" />
		<tag k="ssr:stedsnr" v="601816" />
	</node>
	<node lat="66.90603611016341" lon="14.85129167435412" id="-8571">
		<tag k="name" v="Tollåura" />
		<tag k="natural" v="scree" />
		<tag k="ssr:stedsnr" v="601759" />
	</node>
	<node lat="66.98868611122684" lon="14.61091111057056" id="-8573">
		<tag k="name" v="Slått" />
		<tag k="place" v="locality" />
		<tag k="ssr:stedsnr" v="601910" />
	</node>
	<node lat="67.0001611140477" lon="14.670505557569145" id="-8591">
		<tag k="name" v="Tuteigen" />
		<tag k="place" v="locality" />
		<tag k="ssr:stedsnr" v="699600" />
	</node>
	<node lat="66.96266667103002" lon="14.83337778078936" id="-8597">
		<tag k="name" v="Skyttura" />
		<tag k="natural" v="scree" />
		<tag k="ssr:stedsnr" v="699755" />
	</node>
	<node lat="67.01062222152092" lon="14.787825000449596" id="-8599">
		<tag k="name" v="Geitura" />
		<tag k="natural" v="scree" />
		<tag k="ssr:stedsnr" v="699866" />
	</node>
	<node lat="66.98634444689789" lon="14.68570277155419" id="-8602">
		<tag k="name" v="Ane-Larsmyra" />
		<tag k="natural" v="wetland" />
		<tag k="ssr:stedsnr" v="699959" />
	</node>
	<node lat="66.99108610808831" lon="14.445530555374265" id="-8606">
		<tag k="name" v="Stormyra" />
		<tag k="natural" v="wetland" />
		<tag k="ssr:stedsnr" v="622288" />
	</node>
	<node lat="67.06246111224407" lon="14.472380558110167" id="-8621">
		<tag k="name" v="Spelmyra" />
		<tag k="natural" v="wetland" />
		<tag k="ssr:stedsnr" v="631010" />
	</node>
	<node lat="67.09520555253938" lon="14.430286109392194" id="-8626">
		<tag k="name" v="Frøskhola" />
		<tag k="place" v="locality" />
		<tag k="ssr:stedsnr" v="631393" />
	</node>
	<node lat="67.03887499734111" lon="14.560505566153571" id="-8642">
		<tag k="name" v="Myren" />
		<tag k="natural" v="wetland" />
		<tag k="ssr:stedsnr" v="638304" />
	</node>
	<node lat="67.03793055364511" lon="14.543755561838088" id="-8643">
		<tag k="name" v="Storlimyra" />
		<tag k="natural" v="wetland" />
		<tag k="ssr:stedsnr" v="638314" />
	</node>
	<node lat="66.90550277713587" lon="14.722925010304785" id="-8653">
		<tag k="name" v="Innerenga" />
		<tag k="place" v="locality" />
		<tag k="ssr:stedsnr" v="662827" />
	</node>
	<node lat="66.97898333419529" lon="14.65609444111287" id="-8675">
		<tag k="name" v="Stornesmyra" />
		<tag k="natural" v="wetland" />
		<tag k="ssr:stedsnr" v="691291" />
	</node>
	<node lat="67.0901055577203" lon="14.376524997204635" id="-8683">
		<tag k="name" v="Steinåkeren" />
		<tag k="place" v="locality" />
		<tag k="ssr:stedsnr" v="692303" />
	</node>
	<node lat="66.94041944350157" lon="14.904652767226459" id="-8688">
		<tag k="name" v="Stongsætstøet" />
		<tag k="place" v="locality" />
		<tag k="ssr:stedsnr" v="692423" />
	</node>
	<node lat="66.954038886334" lon="14.795544454827484" id="-8699">
		<tag k="name" v="Utfallsmyra" />
		<tag k="natural" v="wetland" />
		<tag k="ssr:stedsnr" v="699068" />
	</node>
	<node lat="67.07166388901118" lon="14.538027787846463" id="-8740">
		<tag k="name" v="Reipkjerran" />
		<tag k="place" v="locality" />
		<tag k="ssr:stedsnr" v="752019" />
	</node>
	<node lat="67.08663610905161" lon="14.39341109938861" id="-8748">
		<tag k="name" v="Karsteinåkeren" />
		<tag k="place" v="locality" />
		<tag k="ssr:stedsnr" v="752322" />
	</node>
	<node lat="66.93234166523276" lon="14.907549995012854" id="-8755">
		<tag k="name" v="Tuvmyra" />
		<tag k="natural" v="wetland" />
		<tag k="ssr:stedsnr" v="752414" />
	</node>
	<node lat="66.9002805577173" lon="14.742513878253533" id="-8768">
		<tag k="name" v="Langmyra" />
		<tag k="natural" v="wetland" />
		<tag k="ssr:stedsnr" v="905830" />
	</node>
	<node lat="67.01308333248618" lon="14.76269998907381" id="-8790">
		<tag k="name" v="Jektura" />
		<tag k="natural" v="scree" />
		<tag k="ssr:stedsnr" v="760844" />
	</node>
	<node lat="67.04487777432922" lon="14.460241674445204" id="-8801">
		<tag k="name" v="Storsteinen" />
		<tag k="natural" v="stone" />
		<tag k="ssr:stedsnr" v="813112" />
	</node>
	<node lat="67.0754500035805" lon="14.40858056672553" id="-8806">
		<tag k="name" v="Litlvollura" />
		<tag k="natural" v="scree" />
		<tag k="ssr:stedsnr" v="813338" />
	</node>
	<node lat="66.77721389351709" lon="14.594172219077507" id="-8810">
		<tag k="name" v="Snaumyra" />
		<tag k="place" v="locality" />
		<tag k="ssr:stedsnr" v="813279" />
	</node>
	<node lat="66.84470833412246" lon="14.454413877847378" id="-8814">
		<tag k="name" v="Simlebreen - Vátjamjåkjiehkke" />
		<tag k="name:no" v="Simlebreen" />
		<tag k="name:smj" v="Vátjamjåkjiehkke" />
		<tag k="natural" v="glacier" />
		<tag k="old_name:smj" v="Váhtjamjåkjiehkke;Váhčanjohkjiehkki" />
		<tag k="ssr:stedsnr" v="815416" />
	</node>
	<node lat="66.93411944058643" lon="14.790008337058627" id="-8887">
		<tag k="name" v="Innerhølmen" />
		<tag k="place" v="locality" />
		<tag k="ssr:stedsnr" v="881161" />
	</node>
	<node lat="66.96250000089772" lon="14.797144449822124" id="-8889">
		<tag k="name" v="Pemyra" />
		<tag k="natural" v="wetland" />
		<tag k="ssr:stedsnr" v="881062" />
	</node>
	<node lat="66.76979999859854" lon="14.552963887657956" id="-8914">
		<tag k="name" v="Kjerksteinen" />
		<tag k="natural" v="stone" />
		<tag k="ssr:stedsnr" v="935281" />
	</node>
	<node lat="67.07773333015939" lon="14.594988883896269" id="-8947">
		<tag k="name" v="Kumyra" />
		<tag k="natural" v="wetland" />
		<tag k="ssr:stedsnr" v="935039" />
	</node>
	<node lat="67.08742221751778" lon="14.434825007285662" id="-8957">
		<tag k="name" v="Vargeskogen" />
		<tag k="place" v="locality" />
		<tag k="ssr:stedsnr" v="935438" />
	</node>
	<node lat="66.93274444476613" lon="14.91366111559274" id="-8959">
		<tag k="name" v="Bjønsmåriset" />
		<tag k="place" v="locality" />
		<tag k="ssr:stedsnr" v="935471" />
	</node>
	<node lat="66.8971611086047" lon="14.59694166229106" id="-8976">
		<tag k="name" v="Rønnåfonna" />
		<tag k="natural" v="glacier" />
		<tag k="ssr:stedsnr" v="16443" />
	</node>
	<node lat="66.83887499831417" lon="14.499713889499537" id="-8993">
		<tag k="name" v="Skjellåfonna" />
		<tag k="natural" v="glacier" />
		<tag k="ssr:stedsnr" v="16395" />
	</node>
	<node lat="66.8610222260271" lon="14.747166666437371" id="-9006">
		<tag k="name" v="Veskmyra" />
		<tag k="natural" v="wetland" />
		<tag k="ssr:stedsnr" v="21474" />
	</node>
	<node lat="66.74291388742566" lon="14.527980549209145" id="-9007">
		<tag k="name" v="Skilåkjerran" />
		<tag k="place" v="locality" />
		<tag k="ssr:stedsnr" v="24781" />
	</node>
	<node lat="67.06760555134233" lon="14.439144454077091" id="-9015">
		<tag k="name" v="Morten Jonso-myran" />
		<tag k="natural" v="wetland" />
		<tag k="ssr:stedsnr" v="24375" />
	</node>
	<node lat="67.00010555570162" lon="14.666786107279309" id="-9023">
		<tag k="name" v="Åkermoen" />
		<tag k="place" v="locality" />
		<tag k="ssr:stedsnr" v="31644" />
	</node>
	<node lat="66.94732222069439" lon="14.857358328614358" id="-9042">
		<tag k="name" v="Hestmyra" />
		<tag k="natural" v="wetland" />
		<tag k="ssr:stedsnr" v="41761" />
	</node>
	<node lat="66.84719166724315" lon="14.621636111698075" id="-9057">
		<tag k="name" v="Tjukkskogen" />
		<tag k="place" v="locality" />
		<tag k="ssr:stedsnr" v="56957" />
	</node>
	<node lat="66.81062222019732" lon="14.773772222873948" id="-9082">
		<tag k="name" v="Ostesteinan" />
		<tag k="natural" v="stone" />
		<tag k="ssr:stedsnr" v="77546" />
	</node>
	<node lat="67.07177222268177" lon="14.547555554948403" id="-9090">
		<tag k="name" v="Steinen" />
		<tag k="natural" v="stone" />
		<tag k="ssr:stedsnr" v="85005" />
	</node>
	<node lat="66.94738055971814" lon="14.925499997224524" id="-9114">
		<tag k="name" v="ho Margrete" />
		<tag k="natural" v="stone" />
		<tag k="ssr:stedsnr" v="85365" />
	</node>
	<node lat="66.95408889255746" lon="14.417613885151932" id="-9193">
		<tag k="name" v="Svartoksmyra" />
		<tag k="natural" v="wetland" />
		<tag k="ssr:stedsnr" v="145274" />
	</node>
	<node lat="67.09170555914706" lon="14.444658335001117" id="-9200">
		<tag k="name" v="Tjukkskogen" />
		<tag k="place" v="locality" />
		<tag k="ssr:stedsnr" v="145419" />
	</node>
	<node lat="66.94839722022205" lon="14.810055562238546" id="-9211">
		<tag k="name" v="Sildstokkhølmen" />
		<tag k="place" v="locality" />
		<tag k="ssr:stedsnr" v="153137" />
	</node>
	<node lat="66.98768055562546" lon="14.653405558000102" id="-9221">
		<tag k="name" v="Slipura" />
		<tag k="natural" v="scree" />
		<tag k="ssr:stedsnr" v="177887" />
	</node>
	<node lat="66.98908611056221" lon="14.659527776883104" id="-9222">
		<tag k="name" v="Storura" />
		<tag k="natural" v="scree" />
		<tag k="ssr:stedsnr" v="177890" />
	</node>
	<node lat="67.07267778037296" lon="14.548547217436077" id="-9245">
		<tag k="name" v="Ingvaldåkeren" />
		<tag k="place" v="locality" />
		<tag k="ssr:stedsnr" v="206007" />
	</node>
	<node lat="67.08981944186894" lon="14.366408330230458" id="-9249">
		<tag k="name" v="Storskogen" />
		<tag k="place" v="locality" />
		<tag k="ssr:stedsnr" v="206316" />
	</node>
	<node lat="67.08926389030113" lon="14.443869448775787" id="-9251">
		<tag k="name" v="Storskogen" />
		<tag k="place" v="locality" />
		<tag k="ssr:stedsnr" v="206394" />
	</node>
	<node lat="67.08508610676748" lon="14.402977784162104" id="-9252">
		<tag k="name" v="Stormyra" />
		<tag k="natural" v="wetland" />
		<tag k="ssr:stedsnr" v="206400" />
	</node>
	<node lat="66.87208333256297" lon="14.933513892833846" id="-9254">
		<tag k="name" v="Stormyra" />
		<tag k="natural" v="wetland" />
		<tag k="ssr:stedsnr" v="206411" />
	</node>
	<node lat="67.00219166391601" lon="14.65429722624753" id="-9267">
		<tag k="name" v="Kobbåenden" />
		<tag k="place" v="locality" />
		<tag k="ssr:stedsnr" v="213666" />
	</node>
	<node lat="66.81345833472024" lon="14.620569453276717" id="-9269">
		<tag k="name" v="Sandhågmyra" />
		<tag k="natural" v="wetland" />
		<tag k="ssr:stedsnr" v="213801" />
	</node>
	<node lat="66.91378055306238" lon="14.75684999423765" id="-9276">
		<tag k="name" v="Henrikmyra" />
		<tag k="natural" v="wetland" />
		<tag k="ssr:stedsnr" v="214159" />
	</node>
	<node lat="67.01481388909049" lon="14.566752773478722" id="-9277">
		<tag k="name" v="Dokkmoøyra" />
		<tag k="place" v="locality" />
		<tag k="ssr:stedsnr" v="214243" />
	</node>
	<node lat="67.00523888764374" lon="14.589569455135297" id="-9288">
		<tag k="name" v="Vollskogan" />
		<tag k="place" v="locality" />
		<tag k="ssr:stedsnr" v="274283" />
	</node>
	<node lat="66.95896944384106" lon="14.793322218264228" id="-9289">
		<tag k="name" v="Sjurgaren" />
		<tag k="place" v="locality" />
		<tag k="ssr:stedsnr" v="274058" />
	</node>
	<node lat="67.03280832959166" lon="14.588388890574231" id="-9295">
		<tag k="name" v="Øyrfoten" />
		<tag k="place" v="locality" />
		<tag k="ssr:stedsnr" v="274683" />
	</node>
	<node lat="66.99475555879539" lon="14.656055553105775" id="-9296">
		<tag k="name" v="Jarfall" />
		<tag k="place" v="locality" />
		<tag k="ssr:stedsnr" v="274634" />
	</node>
	<node lat="67.0080361151635" lon="14.516808323175928" id="-9300">
		<tag k="landuse" v="meadow" />
		<tag k="name" v="Engan" />
		<tag k="ssr:stedsnr" v="274735" />
	</node>
	<node lat="66.97297777413588" lon="14.838091664485109" id="-9302">
		<tag k="name" v="Svartmyra" />
		<tag k="natural" v="wetland" />
		<tag k="ssr:stedsnr" v="274738" />
	</node>
	<node lat="67.0077388922066" lon="14.730799997218686" id="-9303">
		<tag k="name" v="Øverura" />
		<tag k="natural" v="scree" />
		<tag k="ssr:stedsnr" v="274740" />
	</node>
	<node lat="66.8050249998184" lon="14.630938898062794" id="-9305">
		<tag k="name" v="Skjellmyra" />
		<tag k="natural" v="wetland" />
		<tag k="ssr:stedsnr" v="274758" />
	</node>
	<node lat="66.94123333375477" lon="14.88203333380598" id="-9314">
		<tag k="name" v="Høystakklimyra" />
		<tag k="natural" v="wetland" />
		<tag k="ssr:stedsnr" v="284787" />
	</node>
	<node lat="66.99057222084153" lon="14.646486110506855" id="-9332">
		<tag k="name" v="Lillemyra" />
		<tag k="natural" v="wetland" />
		<tag k="ssr:stedsnr" v="298837" />
	</node>
	<node lat="67.02719722061066" lon="14.563924998027412" id="-9387">
		<tag k="name" v="Buøyra" />
		<tag k="place" v="locality" />
		<tag k="ssr:stedsnr" v="335328" />
	</node>
	<node lat="66.94496389212267" lon="14.891786104763051" id="-9396">
		<tag k="name" v="Stormyra" />
		<tag k="natural" v="wetland" />
		<tag k="ssr:stedsnr" v="344776" />
	</node>
	<node lat="66.83099166654078" lon="14.588066676020608" id="-9413">
		<tag k="name" v="Ytre Ura" />
		<tag k="natural" v="scree" />
		<tag k="ssr:stedsnr" v="380456" />
	</node>
	<node lat="66.90104999972802" lon="14.56918888585784" id="-9426">
		<tag k="name" v="Gåvdesfonna" />
		<tag k="natural" v="glacier" />
		<tag k="old_name" v="Govddesfonna" />
		<tag k="ssr:stedsnr" v="380490" />
	</node>
	<node lat="66.7780833358576" lon="14.570361104079778" id="-9435">
		<tag k="name" v="Sjølskotmyra" />
		<tag k="natural" v="wetland" />
		<tag k="ssr:stedsnr" v="388281" />
	</node>
	<node lat="66.92596111491318" lon="15.007180553811551" id="-9437">
		<tag k="name" v="Lappsteinen" />
		<tag k="natural" v="stone" />
		<tag k="ssr:stedsnr" v="388083" />
	</node>
	<node lat="66.96712777735291" lon="14.820641662838012" id="-9446">
		<tag k="name" v="Storøyra" />
		<tag k="place" v="locality" />
		<tag k="ssr:stedsnr" v="395125" />
	</node>
	<node lat="67.00213611045473" lon="14.601986099944668" id="-9450">
		<tag k="name" v="Kvæløyra" />
		<tag k="place" v="locality" />
		<tag k="ssr:stedsnr" v="395323" />
	</node>
	<node lat="66.99684999861398" lon="14.66491943935232" id="-9457">
		<tag k="name" v="Navjordvollen" />
		<tag k="place" v="locality" />
		<tag k="ssr:stedsnr" v="395885" />
	</node>
	<node lat="66.98197222546325" lon="14.839261112205005" id="-9461">
		<tag k="name" v="Øverura" />
=======
	<node id="-169300" lat="66.8931666685" lon="14.7258055487">
		<tag k="name" v="Fiskosura" />
		<tag k="natural" v="scree" />
		<tag k="ssr:stedsnr" v="541788" />
	</node>
	<node id="-169299" lat="66.8905555575" lon="14.8362277875">
		<tag k="name" v="Tukthuskjeran" />
		<tag k="place" v="locality" />
		<tag k="ssr:stedsnr" v="541784" />
	</node>
	<node id="-168783" lat="66.9947555588" lon="14.6560555531">
		<tag k="name" v="Jarfall" />
		<tag k="place" v="locality" />
		<tag k="ssr:stedsnr" v="274634" />
	</node>
	<node id="-169294" lat="67.0829305582" lon="14.4072444444">
		<tag k="name" v="Jørnsteinen" />
		<tag k="natural" v="stone" />
		<tag k="ssr:stedsnr" v="692348" />
	</node>
	<node id="-168781" lat="66.9729777741" lon="14.8380916645">
		<tag k="name" v="Svartmyra" />
		<tag k="natural" v="wetland" />
		<tag k="ssr:stedsnr" v="274738" />
	</node>
	<node id="-169292" lat="67.0901055577" lon="14.3765249972">
		<tag k="name" v="Steinåkeren" />
		<tag k="place" v="locality" />
		<tag k="ssr:stedsnr" v="692303" />
	</node>
	<node id="-169291" lat="66.7652083379" lon="14.5864388794">
		<tag k="name" v="Gammelsteinåfaret" />
		<tag k="natural" v="stone" />
		<tag k="ssr:stedsnr" v="692296" />
	</node>
	<node id="-169801" lat="66.8971611086" lon="14.5969416623">
		<tag k="name" v="Rønnåfonna" />
		<tag k="natural" v="glacier" />
		<tag k="ssr:stedsnr" v="16443" />
	</node>
	<node id="-168776" lat="67.0328083296" lon="14.5883888906">
		<tag k="name" v="Øyrfoten" />
		<tag k="place" v="locality" />
		<tag k="ssr:stedsnr" v="274683" />
	</node>
	<node id="-170310" lat="66.9449638921" lon="14.8917861048">
		<tag k="name" v="Stormyra" />
		<tag k="natural" v="wetland" />
		<tag k="ssr:stedsnr" v="344776" />
	</node>
	<node id="-170817" lat="66.9273027779" lon="14.5849638972">
		<tag k="name" v="Gråtåtindfonna" />
		<tag k="natural" v="glacier" />
		<tag k="ssr:stedsnr" v="805496" />
	</node>
	<node id="-169835" lat="67.0676055513" lon="14.4391444541">
		<tag k="name" v="Morten Jonso-myran" />
		<tag k="natural" v="wetland" />
		<tag k="ssr:stedsnr" v="24375" />
	</node>
	<node id="-168764" lat="66.9265166676" lon="14.9256222264">
		<tag k="name" v="Gjætarneset" />
		<tag k="place" v="locality" />
		<tag k="ssr:stedsnr" v="145428" />
	</node>
	<node id="-168762" lat="67.0917055591" lon="14.444658335">
		<tag k="name" v="Tjukkskogen" />
		<tag k="place" v="locality" />
		<tag k="ssr:stedsnr" v="145419" />
	</node>
	<node id="-169183" lat="66.9055027771" lon="14.7229250103">
		<tag k="name" v="Innerenga" />
		<tag k="place" v="locality" />
		<tag k="ssr:stedsnr" v="662827" />
	</node>
	<node id="-170808" lat="66.8510000032" lon="14.5275500037">
		<tag k="name" v="Jervåfonna" />
		<tag k="natural" v="glacier" />
		<tag k="ssr:stedsnr" v="805455" />
	</node>
	<node id="-170295" lat="67.0271972206" lon="14.563924998">
		<tag k="name" v="Buøyra" />
		<tag k="place" v="locality" />
		<tag k="ssr:stedsnr" v="335328" />
	</node>
	<node id="-169694" lat="66.9092249962" lon="14.8059805512">
		<tag k="name" v="Tollåura" />
		<tag k="natural" v="scree" />
		<tag k="ssr:stedsnr" v="942206" />
	</node>
	<node id="-170802" lat="67.0291888878" lon="14.587863888">
		<tag k="name" v="Soløymarka" />
		<tag k="place" v="locality" />
		<tag k="ssr:stedsnr" v="805304" />
	</node>
	<node id="-168966" lat="66.9481138901" lon="14.7705416742">
		<tag k="name" v="Lilleåmyra" />
		<tag k="natural" v="wetland" />
		<tag k="ssr:stedsnr" v="274123" />
	</node>
	<node id="-168751" lat="66.8666666644" lon="14.5354666553">
		<tag k="name" v="Simlefonna" />
		<tag k="natural" v="glacier" />
		<tag k="ssr:stedsnr" v="137452" />
	</node>
	<node id="-169774" lat="66.8388749983" lon="14.4997138895">
		<tag k="name" v="Skjellåfonna" />
		<tag k="natural" v="glacier" />
		<tag k="ssr:stedsnr" v="16395" />
	</node>
	<node id="-170283" lat="66.7737666676" lon="14.5641500072">
		<tag k="name" v="Myra" />
		<tag k="natural" v="wetland" />
		<tag k="ssr:stedsnr" v="328267" />
	</node>
	<node id="-170793" lat="66.8555944439" lon="14.6163527666">
		<tag k="name" v="Tørnrisura" />
		<tag k="natural" v="scree" />
		<tag k="ssr:stedsnr" v="784991" />
	</node>
	<node id="-169256" lat="67.1119138886" lon="14.3593444339">
		<tag k="name" v="Saurvassmyran" />
		<tag k="natural" v="wetland" />
		<tag k="ssr:stedsnr" v="510063" />
	</node>
	<node id="-168924" lat="66.9124250035" lon="14.6903666645">
		<tag k="name" v="Langlægdura" />
		<tag k="natural" v="scree" />
		<tag k="ssr:stedsnr" v="456187" />
	</node>
	<node id="-168742" lat="66.7571111072" lon="14.5893972108">
		<tag k="name" v="Lappmyra" />
		<tag k="natural" v="wetland" />
		<tag k="ssr:stedsnr" v="267783" />
	</node>
	<node id="-169350" lat="66.7647472199" lon="14.5815333436">
		<tag k="name" v="Steinåranten" />
		<tag k="place" v="locality" />
		<tag k="ssr:stedsnr" v="570277" />
	</node>
	<node id="-169760" lat="66.9924249958" lon="14.7537611164">
		<tag k="name" v="Skjåskogan" />
		<tag k="place" v="locality" />
		<tag k="ssr:stedsnr" v="942959" />
	</node>
	<node id="-169246" lat="66.7802805532" lon="14.5930722225">
		<tag k="name" v="Gammellauksletta" />
		<tag k="place" v="locality" />
		<tag k="ssr:stedsnr" v="509303" />
	</node>
	<node id="-168733" lat="66.7795805577" lon="14.5993055609">
		<tag k="name" v="Lislenget" />
		<tag k="place" v="locality" />
		<tag k="ssr:stedsnr" v="267314" />
	</node>
	<node id="-169242" lat="67.0133750047" lon="14.3407388794">
		<tag k="name" v="Småtindisen" />
		<tag k="natural" v="glacier" />
		<tag k="ssr:stedsnr" v="684316" />
	</node>
	<node id="-168728" lat="67.0559083294" lon="14.5177999979">
		<tag k="name" v="Spelmyra" />
		<tag k="natural" v="wetland" />
		<tag k="ssr:stedsnr" v="267075" />
	</node>
	<node id="-169262" lat="67.0521527813" lon="14.4659666727">
		<tag k="name" v="Tomtjønnmyra" />
		<tag k="natural" v="wetland" />
		<tag k="ssr:stedsnr" v="510136" />
	</node>
	<node id="-170768" lat="67.0130833325" lon="14.7626999891">
		<tag k="name" v="Jektura" />
		<tag k="natural" v="scree" />
		<tag k="ssr:stedsnr" v="760844" />
	</node>
	<node id="-169227" lat="66.824872223" lon="14.4663249887">
		<tag k="name" v="Hengfonna" />
		<tag k="natural" v="glacier" />
		<tag k="ssr:stedsnr" v="683400" />
	</node>
	<node id="-169738" lat="66.9002805577" lon="14.7425138783">
		<tag k="name" v="Langmyra" />
		<tag k="natural" v="wetland" />
		<tag k="ssr:stedsnr" v="905830" />
	</node>
	<node id="-168709" lat="66.9254916663" lon="14.8518138975">
		<tag k="name" v="Stormyra" />
		<tag k="natural" v="wetland" />
		<tag k="ssr:stedsnr" v="116723" />
	</node>
	<node id="-170240" lat="66.7161277808" lon="14.4332000116">
		<tag k="name" v="Trollbergdalsbreen" />
		<tag k="natural" v="glacier" />
		<tag k="ssr:stedsnr" v="319419" />
	</node>
	<node id="-169856" lat="67.0001055557" lon="14.6667861073">
		<tag k="name" v="Åkermoen" />
		<tag k="place" v="locality" />
		<tag k="ssr:stedsnr" v="31644" />
	</node>
	<node id="-170750" lat="66.9334000039" lon="14.786530561">
		<tag k="name" v="Gammelheimbakkan" />
		<tag k="place" v="locality" />
		<tag k="ssr:stedsnr" v="760176" />
	</node>
	<node id="-169723" lat="67.075944445" lon="14.4945111189">
		<tag k="name" v="Mikkjelmyra" />
		<tag k="natural" v="wetland" />
		<tag k="ssr:stedsnr" v="874479" />
	</node>
	<node id="-169722" lat="67.0758666665" lon="14.4804083374">
		<tag k="name" v="Stormyra" />
		<tag k="natural" v="wetland" />
		<tag k="ssr:stedsnr" v="874470" />
	</node>
	<node id="-168697" lat="66.906013892" lon="14.3957277844">
		<tag k="name" v="Guollevágura" />
		<tag k="natural" v="scree" />
		<tag k="ssr:stedsnr" v="259477" />
	</node>
	<node id="-168660" lat="67.0820194435" lon="14.4235111125">
		<tag k="name" v="Resen" />
		<tag k="natural" v="stone" />
		<tag k="ssr:stedsnr" v="85304" />
	</node>
	<node id="-168693" lat="66.8797999991" lon="14.5455166668">
		<tag k="name" v="Habresfonna" />
		<tag k="natural" v="glacier" />
		<tag k="ssr:stedsnr" v="259467" />
	</node>
	<node id="-169342" lat="66.7416499969" lon="14.8707055487">
		<tag k="name" v="Snålsteinen" />
		<tag k="natural" v="stone" />
		<tag k="ssr:stedsnr" v="562522" />
	</node>
	<node id="-170737" lat="66.790855559" lon="14.603652789">
		<tag k="name" v="Stiura" />
		<tag k="natural" v="scree" />
		<tag k="ssr:stedsnr" v="753100" />
	</node>
	<node id="-170733" lat="66.9323416652" lon="14.907549995">
		<tag k="name" v="Tuvmyra" />
		<tag k="natural" v="wetland" />
		<tag k="ssr:stedsnr" v="752414" />
	</node>
	<node id="-170219" lat="66.9721972239" lon="14.8301138946">
		<tag k="name" v="Kjellgrøva" />
		<tag k="place" v="locality" />
		<tag k="ssr:stedsnr" v="214833" />
	</node>
	<node id="-170218" lat="66.9137805531" lon="14.7568499942">
		<tag k="name" v="Henrikmyra" />
		<tag k="natural" v="wetland" />
		<tag k="ssr:stedsnr" v="214159" />
	</node>
	<node id="-168743" lat="66.758875002" lon="14.5792777682">
		<tag k="name" v="Reinhagen" />
		<tag k="natural" v="wetland" />
		<tag k="ssr:stedsnr" v="267785" />
	</node>
	<node id="-168678" lat="66.9785277794" lon="14.54944723">
		<tag k="name" v="Høgtindbreen" />
		<tag k="natural" v="glacier" />
		<tag k="ssr:stedsnr" v="259244" />
	</node>
	<node id="-170209" lat="67.0148138891" lon="14.5667527735">
		<tag k="name" v="Dokkmoøyra" />
		<tag k="place" v="locality" />
		<tag k="ssr:stedsnr" v="214243" />
	</node>
	<node id="-169695" lat="66.9057750019" lon="14.7838500038">
		<tag k="name" v="Brattlimyra" />
		<tag k="natural" v="wetland" />
		<tag k="ssr:stedsnr" v="942211" />
	</node>
	<node id="-170206" lat="66.9102833291" lon="14.7444972158">
		<tag k="name" v="Gleina" />
		<tag k="place" v="locality" />
		<tag k="ssr:stedsnr" v="214133" />
	</node>
	<node id="-170203" lat="66.8134583347" lon="14.6205694533">
		<tag k="name" v="Sandhågmyra" />
		<tag k="natural" v="wetland" />
		<tag k="ssr:stedsnr" v="213801" />
	</node>
	<node id="-170712" lat="67.071663889" lon="14.5380277878">
		<tag k="name" v="Reipkjerran" />
		<tag k="place" v="locality" />
		<tag k="ssr:stedsnr" v="752019" />
	</node>
	<node id="-169175" lat="66.8871055516" lon="14.7393861141">
		<tag k="name" v="Stormyra" />
		<tag k="natural" v="wetland" />
		<tag k="ssr:stedsnr" v="662792" />
	</node>
	<node id="-170197" lat="67.0021916639" lon="14.6542972262">
		<tag k="name" v="Kobbåenden" />
		<tag k="place" v="locality" />
		<tag k="ssr:stedsnr" v="213666" />
	</node>
	<node id="-169684" lat="66.9775472213" lon="14.8109944379">
		<tag k="name" v="Knagkjerrøyra" />
		<tag k="place" v="locality" />
		<tag k="ssr:stedsnr" v="942042" />
	</node>
	<node id="-169677" lat="66.9327444448" lon="14.9136611156">
		<tag k="name" v="Bjønsmåriset" />
		<tag k="place" v="locality" />
		<tag k="ssr:stedsnr" v="935471" />
	</node>
	<node id="-168652" lat="67.0717722227" lon="14.5475555549">
		<tag k="name" v="Steinen" />
		<tag k="natural" v="stone" />
		<tag k="ssr:stedsnr" v="85005" />
	</node>
	<node id="-169675" lat="67.0874222175" lon="14.4348250073">
		<tag k="name" v="Vargeskogen" />
		<tag k="place" v="locality" />
		<tag k="ssr:stedsnr" v="935438" />
	</node>
	<node id="-169161" lat="66.7748472232" lon="14.590883329">
		<tag k="name" v="Stormyra" />
		<tag k="place" v="locality" />
		<tag k="ssr:stedsnr" v="449310" />
	</node>
	<node id="-169671" lat="66.7697999986" lon="14.5529638877">
		<tag k="name" v="Kjerksteinen" />
		<tag k="natural" v="stone" />
		<tag k="ssr:stedsnr" v="935281" />
	</node>
	<node id="-170708" lat="66.9836583361" lon="14.6166111165">
		<tag k="name" v="Tørr-Andersmyra" />
		<tag k="natural" v="wetland" />
		<tag k="ssr:stedsnr" v="751294" />
	</node>
	<node id="-170178" lat="66.8720833326" lon="14.9335138928">
		<tag k="name" v="Stormyra" />
		<tag k="natural" v="wetland" />
		<tag k="ssr:stedsnr" v="206411" />
	</node>
	<node id="-170176" lat="67.0850861068" lon="14.4029777842">
		<tag k="name" v="Stormyra" />
		<tag k="natural" v="wetland" />
		<tag k="ssr:stedsnr" v="206400" />
	</node>
	<node id="-170175" lat="67.0892638903" lon="14.4438694488">
		<tag k="name" v="Storskogen" />
		<tag k="place" v="locality" />
		<tag k="ssr:stedsnr" v="206394" />
	</node>
	<node id="-169150" lat="66.9816777738" lon="14.8310138986">
		<tag k="name" v="Nerura" />
		<tag k="natural" v="scree" />
		<tag k="ssr:stedsnr" v="517773" />
	</node>
	<node id="-170172" lat="67.081761112" lon="14.404172225">
		<tag k="name" v="Tjeldsvikmyra" />
		<tag k="natural" v="wetland" />
		<tag k="ssr:stedsnr" v="206354" />
	</node>
	<node id="-170171" lat="67.0944805554" lon="14.3913722135">
		<tag k="name" v="Otersteinen" />
		<tag k="natural" v="stone" />
		<tag k="ssr:stedsnr" v="206336" />
	</node>
	<node id="-170170" lat="67.0898194419" lon="14.3664083302">
		<tag k="name" v="Storskogen" />
		<tag k="place" v="locality" />
		<tag k="ssr:stedsnr" v="206316" />
	</node>
	<node id="-169655" lat="66.9877888852" lon="14.6847583238">
		<tag k="name" v="Fjellgåsmyra" />
		<tag k="natural" v="wetland" />
		<tag k="ssr:stedsnr" v="821954" />
	</node>
	<node id="-168630" lat="66.9209666694" lon="14.8885555566">
		<tag k="name" v="Storura" />
>>>>>>> e1d4bc35ff8a6074a6f2e91616a996b547c36f15
		<tag k="natural" v="scree" />
		<tag k="ssr:stedsnr" v="396725" />
	</node>
<<<<<<< HEAD
	<node lat="66.97896666768534" lon="14.830355564758841" id="-9462">
		<tag k="name" v="Hantremyra" />
		<tag k="natural" v="wetland" />
		<tag k="ssr:stedsnr" v="396726" />
	</node>
	<node lat="66.90778055933629" lon="14.722258328529563" id="-9472">
		<tag k="name" v="Gammelskyttmarka" />
		<tag k="place" v="locality" />
		<tag k="ssr:stedsnr" v="420853" />
	</node>
	<node lat="67.07712777947059" lon="14.50685834418116" id="-9548">
		<tag k="name" v="Slåttet" />
		<tag k="place" v="locality" />
		<tag k="ssr:stedsnr" v="510476" />
	</node>
	<node lat="66.75593611022805" lon="14.56220277013292" id="-9549">
		<tag k="name" v="Leiråmosletta" />
		<tag k="place" v="locality" />
		<tag k="ssr:stedsnr" v="509748" />
	</node>
	<node lat="67.0521527813395" lon="14.46596667269245" id="-9554">
		<tag k="name" v="Tomtjønnmyra" />
		<tag k="natural" v="wetland" />
		<tag k="ssr:stedsnr" v="510136" />
	</node>
	<node lat="67.01156388542618" lon="14.572238882753446" id="-9560">
		<tag k="name" v="Lunden" />
		<tag k="place" v="locality" />
		<tag k="ssr:stedsnr" v="517240" />
	</node>
	<node lat="66.9997944454928" lon="14.642691674677137" id="-9566">
		<tag k="name" v="Eitervollen" />
		<tag k="place" v="locality" />
		<tag k="ssr:stedsnr" v="517654" />
	</node>
	<node lat="66.85636388703941" lon="14.623638895255848" id="-9582">
		<tag k="name" v="Lillejorda" />
		<tag k="place" v="locality" />
		<tag k="ssr:stedsnr" v="541989" />
	</node>
	<node lat="66.74164999685807" lon="14.87070554874195" id="-9625">
		<tag k="name" v="Snålsteinen" />
		<tag k="natural" v="stone" />
		<tag k="ssr:stedsnr" v="562522" />
	</node>
	<node lat="66.76474721994406" lon="14.58153334355077" id="-9642">
		<tag k="name" v="Steinåranten" />
		<tag k="place" v="locality" />
		<tag k="ssr:stedsnr" v="570277" />
	</node>
	<node lat="66.91576666989863" lon="14.749683329799868" id="-9666">
		<tag k="name" v="Innerlia" />
		<tag k="place" v="locality" />
		<tag k="ssr:stedsnr" v="577170" />
	</node>
	<node lat="66.93516388709261" lon="14.783191656841613" id="-9668">
		<tag k="name" v="Førskjerran" />
		<tag k="place" v="locality" />
		<tag k="ssr:stedsnr" v="577177" />
	</node>
	<node lat="66.92208610697747" lon="14.763247220239853" id="-9672">
		<tag k="name" v="Granli" />
		<tag k="place" v="locality" />
		<tag k="ssr:stedsnr" v="577212" />
	</node>
	<node lat="67.00014999685969" lon="14.639066665345414" id="-9679">
		<tag k="name" v="Bjønnskoøyra" />
		<tag k="place" v="locality" />
		<tag k="ssr:stedsnr" v="577672" />
	</node>
	<node lat="66.99838888613218" lon="14.708344442138523" id="-9683">
		<tag k="name" v="Hagskoan" />
		<tag k="place" v="locality" />
		<tag k="ssr:stedsnr" v="577780" />
	</node>
	<node lat="67.07495278013482" lon="14.406622214928847" id="-9737">
		<tag k="name" v="Smalura" />
		<tag k="natural" v="scree" />
		<tag k="ssr:stedsnr" v="630359" />
	</node>
	<node lat="67.07453055412022" lon="14.536066659512375" id="-9742">
		<tag k="name" v="Øverhallen" />
		<tag k="natural" v="stone" />
		<tag k="ssr:stedsnr" v="631022" />
	</node>
	<node lat="66.93249444745967" lon="14.93358611776741" id="-9747">
		<tag k="name" v="Helikoptermyra" />
		<tag k="natural" v="wetland" />
		<tag k="ssr:stedsnr" v="631440" />
	</node>
	<node lat="67.0764138870449" lon="14.472661106348745" id="-9748">
		<tag k="name" v="Dalmyra" />
		<tag k="natural" v="wetland" />
		<tag k="ssr:stedsnr" v="631445" />
	</node>
	<node lat="67.00034722255414" lon="14.607477783613428" id="-9784">
		<tag k="name" v="Hølmen" />
		<tag k="place" v="locality" />
		<tag k="ssr:stedsnr" v="638284" />
	</node>
	<node lat="66.99842222621899" lon="14.81953332985782" id="-9788">
		<tag k="name" v="Myran" />
		<tag k="natural" v="wetland" />
		<tag k="ssr:stedsnr" v="638936" />
	</node>
	<node lat="66.88710555157536" lon="14.739386114119982" id="-9794">
		<tag k="name" v="Stormyra" />
		<tag k="natural" v="wetland" />
		<tag k="ssr:stedsnr" v="662792" />
	</node>
	<node lat="66.98365833610951" lon="14.616611116519152" id="-9843">
		<tag k="name" v="Tørr-Andersmyra" />
		<tag k="natural" v="wetland" />
		<tag k="ssr:stedsnr" v="751294" />
	</node>
	<node lat="66.79085555895331" lon="14.603652789025475" id="-9856">
		<tag k="name" v="Stiura" />
		<tag k="natural" v="scree" />
		<tag k="ssr:stedsnr" v="753100" />
	</node>
	<node lat="67.00131666487216" lon="14.587605546970332" id="-9863">
		<tag k="name" v="Gammelgarden" />
		<tag k="place" v="locality" />
		<tag k="ssr:stedsnr" v="759289" />
	</node>
	<node lat="66.93340000387064" lon="14.786530560975564" id="-9876">
		<tag k="name" v="Gammelheimbakkan" />
		<tag k="place" v="locality" />
		<tag k="ssr:stedsnr" v="760176" />
	</node>
	<node lat="66.85559444385207" lon="14.616352766619537" id="-9907">
		<tag k="name" v="Tørnrisura" />
		<tag k="natural" v="scree" />
		<tag k="ssr:stedsnr" v="784991" />
	</node>
	<node lat="66.85100000324863" lon="14.527550003700162" id="-9911">
		<tag k="name" v="Jervåfonna" />
		<tag k="natural" v="glacier" />
		<tag k="ssr:stedsnr" v="805455" />
	</node>
	<node lat="66.92730277790817" lon="14.584963897157735" id="-9920">
		<tag k="name" v="Gråtåtindfonna" />
		<tag k="natural" v="glacier" />
		<tag k="ssr:stedsnr" v="805496" />
	</node>
	<node lat="67.0291888878217" lon="14.587863887952913" id="-9933">
		<tag k="name" v="Soløymarka" />
		<tag k="place" v="locality" />
		<tag k="ssr:stedsnr" v="805304" />
	</node>
	<node lat="67.07381666477171" lon="14.53573055098225" id="-9960">
		<tag k="name" v="Kallhellaren" />
		<tag k="natural" v="stone" />
		<tag k="ssr:stedsnr" v="813022" />
	</node>
	<node lat="66.76190555133948" lon="14.572972219907625" id="-9967">
		<tag k="name" v="Lislmoen" />
		<tag k="place" v="locality" />
		<tag k="ssr:stedsnr" v="813262" />
	</node>
	<node lat="67.07582499765776" lon="14.470952767935" id="-9972">
		<tag k="name" v="Storenga" />
		<tag k="place" v="locality" />
		<tag k="ssr:stedsnr" v="813400" />
	</node>
	<node lat="66.96599722330613" lon="14.79634165887821" id="-9991">
		<tag k="name" v="Vimyra" />
		<tag k="natural" v="wetland" />
		<tag k="ssr:stedsnr" v="821058" />
	</node>
	<node lat="66.93444999877883" lon="14.79396389012361" id="-9995">
		<tag k="name" v="Hestgjerdet" />
=======
	<node id="-169651" lat="66.9659972233" lon="14.7963416589">
		<tag k="name" v="Vimyra" />
		<tag k="natural" v="wetland" />
		<tag k="ssr:stedsnr" v="821058" />
	</node>
	<node id="-168625" lat="66.9844083334" lon="14.6502638851">
		<tag k="name" v="Vindnesura" />
		<tag k="natural" v="scree" />
		<tag k="ssr:stedsnr" v="237872" />
	</node>
	<node id="-169134" lat="66.942091665" lon="14.7856250021">
		<tag k="name" v="Langmyra" />
		<tag k="natural" v="wetland" />
		<tag k="ssr:stedsnr" v="517124" />
	</node>
	<node id="-170667" lat="67.0003472226" lon="14.6074777836">
		<tag k="name" v="Hølmen" />
		<tag k="place" v="locality" />
		<tag k="ssr:stedsnr" v="638284" />
	</node>
	<node id="-169126" lat="67.0771277795" lon="14.5068583442">
		<tag k="name" v="Slåttet" />
		<tag k="place" v="locality" />
		<tag k="ssr:stedsnr" v="510476" />
	</node>
	<node id="-169841" lat="66.9377250035" lon="14.9091111232">
		<tag k="name" v="Slåttan" />
		<tag k="place" v="locality" />
		<tag k="ssr:stedsnr" v="24432" />
	</node>
	<node id="-169634" lat="67.0754500036" lon="14.4085805667">
		<tag k="name" v="Litlvollura" />
		<tag k="natural" v="scree" />
		<tag k="ssr:stedsnr" v="813338" />
	</node>
	<node id="-168926" lat="67.0005888921" lon="14.6581694355">
		<tag k="name" v="Ytterjorda" />
		<tag k="place" v="locality" />
		<tag k="ssr:stedsnr" v="456629" />
	</node>
	<node id="-169116" lat="66.7559361102" lon="14.5622027701">
		<tag k="name" v="Leiråmosletta" />
		<tag k="place" v="locality" />
		<tag k="ssr:stedsnr" v="509748" />
	</node>
	<node id="-170137" lat="66.9890861106" lon="14.6595277769">
		<tag k="name" v="Storura" />
		<tag k="natural" v="scree" />
		<tag k="ssr:stedsnr" v="177890" />
	</node>
	<node id="-170136" lat="66.9876805556" lon="14.653405558">
		<tag k="name" v="Slipura" />
		<tag k="natural" v="scree" />
		<tag k="ssr:stedsnr" v="177887" />
	</node>
	<node id="-170436" lat="66.856363887" lon="14.6236388953">
		<tag k="name" v="Lillejorda" />
		<tag k="place" v="locality" />
		<tag k="ssr:stedsnr" v="541989" />
	</node>
	<node id="-169386" lat="67.0624611122" lon="14.4723805581">
		<tag k="name" v="Spelmyra" />
		<tag k="natural" v="wetland" />
		<tag k="ssr:stedsnr" v="631010" />
	</node>
	<node id="-168594" lat="66.8924305531" lon="14.8649166706">
		<tag k="name" v="Pellemyra - Piellajiegge" />
		<tag k="name:no" v="Pellemyra" />
		<tag k="name:smj" v="Piellajiegge" />
		<tag k="natural" v="wetland" />
		<tag k="ssr:stedsnr" v="223815" />
	</node>
	<node id="-170835" lat="67.0738166648" lon="14.535730551">
		<tag k="name" v="Kallhellaren" />
		<tag k="natural" v="stone" />
		<tag k="ssr:stedsnr" v="813022" />
	</node>
	<node id="-168983" lat="66.9905722208" lon="14.6464861105">
		<tag k="name" v="Lillemyra" />
		<tag k="natural" v="wetland" />
		<tag k="ssr:stedsnr" v="298837" />
	</node>
	<node id="-170632" lat="67.076413887" lon="14.4726611063">
		<tag k="name" v="Dalmyra" />
		<tag k="natural" v="wetland" />
		<tag k="ssr:stedsnr" v="631445" />
	</node>
	<node id="-170631" lat="66.9324944475" lon="14.9335861178">
		<tag k="name" v="Helikoptermyra" />
		<tag k="natural" v="wetland" />
		<tag k="ssr:stedsnr" v="631440" />
	</node>
	<node id="-170117" lat="66.9483972202" lon="14.8100555622">
		<tag k="name" v="Sildstokkhølmen" />
		<tag k="place" v="locality" />
		<tag k="ssr:stedsnr" v="153137" />
	</node>
	<node id="-170627" lat="67.0952055525" lon="14.4302861094">
		<tag k="name" v="Frøskhola" />
		<tag k="place" v="locality" />
		<tag k="ssr:stedsnr" v="631393" />
	</node>
	<node id="-170113" lat="66.9702611152" lon="14.821213893">
		<tag k="name" v="Jarfall" />
		<tag k="place" v="locality" />
		<tag k="ssr:stedsnr" v="153104" />
	</node>
	<node id="-169664" lat="67.0777333302" lon="14.5949888839">
		<tag k="name" v="Kumyra" />
		<tag k="natural" v="wetland" />
		<tag k="ssr:stedsnr" v="935039" />
	</node>
	<node id="-169084" lat="67.0959972175" lon="14.3901805657">
		<tag k="name" v="Kiura" />
		<tag k="natural" v="scree" />
		<tag k="ssr:stedsnr" v="388313" />
	</node>
	<node id="-170004" lat="67.0137722201" lon="14.6954722113">
		<tag k="name" v="Falkflogmyra" />
		<tag k="natural" v="wetland" />
		<tag k="ssr:stedsnr" v="92764" />
	</node>
	<node id="-170098" lat="67.0774166665" lon="14.5771222159">
		<tag k="name" v="Klømbersteinen" />
		<tag k="natural" v="stone" />
		<tag k="ssr:stedsnr" v="146041" />
	</node>
	<node id="-170083" lat="66.7685249981" lon="14.5528944466">
		<tag k="name" v="Haraura" />
		<tag k="natural" v="scree" />
		<tag k="ssr:stedsnr" v="145281" />
	</node>
	<node id="-169058" lat="66.7263583328" lon="14.4473055572">
		<tag k="name" v="Skjelåtindbreen" />
		<tag k="natural" v="glacier" />
		<tag k="ssr:stedsnr" v="501432" />
	</node>
	<node id="-170081" lat="66.763675002" lon="14.5568999944">
		<tag k="name" v="Hesjebenken" />
		<tag k="place" v="locality" />
		<tag k="ssr:stedsnr" v="145276" />
	</node>
	<node id="-170080" lat="66.9540888926" lon="14.4176138852">
		<tag k="name" v="Svartoksmyra" />
		<tag k="natural" v="wetland" />
		<tag k="ssr:stedsnr" v="145274" />
	</node>
	<node id="-170076" lat="67.1259333315" lon="14.3898500104">
		<tag k="name" v="Jens Gunners-bakken" />
		<tag k="place" v="locality" />
		<tag k="ssr:stedsnr" v="145109" />
	</node>
	<node id="-168975" lat="67.0080916691" lon="14.7595166769">
		<tag k="name" v="Torvmyra" />
		<tag k="natural" v="wetland" />
		<tag k="ssr:stedsnr" v="274814" />
	</node>
	<node id="-170580" lat="66.9910861081" lon="14.4455305554">
		<tag k="name" v="Stormyra" />
		<tag k="natural" v="wetland" />
		<tag k="ssr:stedsnr" v="622288" />
	</node>
	<node id="-169550" lat="67.0013166649" lon="14.587605547">
		<tag k="name" v="Gammelgarden" />
		<tag k="place" v="locality" />
		<tag k="ssr:stedsnr" v="759289" />
	</node>
	<node id="-169037" lat="67.0403611132" lon="14.5978861027">
		<tag k="name" v="Øyran" />
		<tag k="place" v="locality" />
		<tag k="ssr:stedsnr" v="359863" />
	</node>
	<node id="-168838" lat="66.9089916651" lon="14.8384555604">
		<tag k="name" v="Tollåura" />
		<tag k="natural" v="scree" />
		<tag k="ssr:stedsnr" v="298703" />
	</node>
	<node id="-169143" lat="66.9997944455" lon="14.6426916747">
		<tag k="name" v="Eitervollen" />
		<tag k="place" v="locality" />
		<tag k="ssr:stedsnr" v="517654" />
	</node>
	<node id="-170566" lat="66.9886861112" lon="14.6109111106">
		<tag k="name" v="Slått" />
>>>>>>> e1d4bc35ff8a6074a6f2e91616a996b547c36f15
		<tag k="place" v="locality" />
		<tag k="ssr:stedsnr" v="601910" />
	</node>
<<<<<<< HEAD
	<node lat="67.0022694425553" lon="14.801669437145119" id="-9999">
		<tag k="name" v="Vakkermyra" />
		<tag k="natural" v="wetland" />
		<tag k="ssr:stedsnr" v="821993" />
	</node>
	<node lat="66.98778888519952" lon="14.684758323777375" id="-10001">
		<tag k="name" v="Fjellgåsmyra" />
		<tag k="natural" v="wetland" />
		<tag k="ssr:stedsnr" v="821954" />
	</node>
	<node lat="66.73985000365138" lon="14.475913879915948" id="-10011">
		<tag k="name" v="Hanspålsabreen" />
		<tag k="natural" v="glacier" />
		<tag k="old_name" v="Hanspolsabreen" />
		<tag k="ssr:stedsnr" v="865477" />
	</node>
	<node lat="66.78994166707275" lon="14.412074990492421" id="-10024">
		<tag k="name" v="Vegdalsisen" />
		<tag k="natural" v="glacier" />
		<tag k="ssr:stedsnr" v="866370" />
	</node>
	<node lat="66.89886944689546" lon="14.80293889828398" id="-10041">
		<tag k="name" v="Løkkmyra" />
		<tag k="natural" v="wetland" />
		<tag k="ssr:stedsnr" v="866590" />
	</node>
	<node lat="66.75991389364428" lon="14.588666660542756" id="-10053">
		<tag k="name" v="Skredene" />
		<tag k="natural" v="wetland" />
		<tag k="ssr:stedsnr" v="874346" />
	</node>
	<node lat="67.09411389005034" lon="14.442799992771977" id="-10067">
		<tag k="name" v="Dalmyran" />
		<tag k="natural" v="wetland" />
		<tag k="ssr:stedsnr" v="874440" />
	</node>
	<node lat="67.0758666664848" lon="14.480408337395735" id="-10073">
		<tag k="name" v="Stormyra" />
		<tag k="natural" v="wetland" />
		<tag k="ssr:stedsnr" v="874470" />
	</node>
	<node lat="67.07594444496013" lon="14.494511118936984" id="-10074">
		<tag k="name" v="Mikkjelmyra" />
		<tag k="natural" v="wetland" />
		<tag k="ssr:stedsnr" v="874479" />
	</node>
	<node lat="67.07280555153518" lon="14.579419433376193" id="-10076">
		<tag k="name" v="Tullkjerran" />
		<tag k="place" v="locality" />
		<tag k="ssr:stedsnr" v="875046" />
	</node>
	<node lat="66.90905555905655" lon="14.735969440773216" id="-10085">
		<tag k="name" v="Smågleina" />
		<tag k="place" v="locality" />
		<tag k="ssr:stedsnr" v="881193" />
	</node>
	<node lat="66.97077777737772" lon="14.834944443734425" id="-10091">
		<tag k="name" v="Nyland" />
		<tag k="place" v="locality" />
		<tag k="ssr:stedsnr" v="881780" />
	</node>
	<node lat="66.9869305581269" lon="14.832211114949748" id="-10093">
		<tag k="name" v="Notmyran" />
		<tag k="natural" v="wetland" />
		<tag k="ssr:stedsnr" v="881794" />
	</node>
	<node lat="67.0015472255729" lon="14.813088889455441" id="-10100">
		<tag k="name" v="Stormyra" />
		<tag k="natural" v="wetland" />
		<tag k="ssr:stedsnr" v="882932" />
	</node>
	<node lat="66.97754722126403" lon="14.810994437914484" id="-10104">
		<tag k="name" v="Knagkjerrøyra" />
		<tag k="place" v="locality" />
		<tag k="ssr:stedsnr" v="942042" />
	</node>
	<node lat="66.90922499622222" lon="14.805980551173326" id="-10117">
		<tag k="name" v="Tollåura" />
		<tag k="natural" v="scree" />
		<tag k="ssr:stedsnr" v="942206" />
	</node>
	<node lat="66.90577500189553" lon="14.783850003797927" id="-10118">
		<tag k="name" v="Brattlimyra" />
		<tag k="natural" v="wetland" />
		<tag k="ssr:stedsnr" v="942211" />
	</node>
	<node lat="66.99242499580362" lon="14.753761116386793" id="-10128">
		<tag k="name" v="Skjåskogan" />
		<tag k="place" v="locality" />
		<tag k="ssr:stedsnr" v="942959" />
=======
	<node id="-169398" lat="67.0388749973" lon="14.5605055662">
		<tag k="name" v="Myren" />
		<tag k="natural" v="wetland" />
		<tag k="ssr:stedsnr" v="638304" />
	</node>
	<node id="-169024" lat="66.9171694469" lon="14.7409638806">
		<tag k="name" v="Innerøverlæger" />
		<tag k="place" v="locality" />
		<tag k="ssr:stedsnr" v="335146" />
	</node>
	<node id="-169226" lat="66.8225166708" lon="14.4258499945">
		<tag k="name" v="Leirbreen" />
		<tag k="natural" v="glacier" />
		<tag k="ssr:stedsnr" v="683395" />
	</node>
	<node id="-169018" lat="66.8790111155" lon="14.637530551">
		<tag k="name" v="Rønnø" />
		<tag k="natural" v="scree" />
		<tag k="ssr:stedsnr" v="480976" />
	</node>
	<node id="-170553" lat="66.9060361102" lon="14.8512916744">
		<tag k="name" v="Tollåura" />
		<tag k="natural" v="scree" />
		<tag k="ssr:stedsnr" v="601759" />
	</node>
	<node id="-170548" lat="66.988788885" lon="14.7872472211">
		<tag k="name" v="Engermyra" />
		<tag k="natural" v="wetland" />
		<tag k="ssr:stedsnr" v="578008" />
	</node>
	<node id="-169139" lat="67.0115638854" lon="14.5722388828">
		<tag k="name" v="Lunden" />
		<tag k="place" v="locality" />
		<tag k="ssr:stedsnr" v="517240" />
	</node>
	<node id="-170543" lat="66.8167666657" lon="14.626697228">
		<tag k="name" v="Sjølskottmyra" />
		<tag k="natural" v="wetland" />
		<tag k="ssr:stedsnr" v="577801" />
	</node>
	<node id="-170537" lat="66.9983888861" lon="14.7083444421">
		<tag k="name" v="Hagskoan" />
		<tag k="place" v="locality" />
		<tag k="ssr:stedsnr" v="577780" />
	</node>
	<node id="-170533" lat="66.922086107" lon="14.7632472202">
		<tag k="name" v="Granli" />
		<tag k="place" v="locality" />
		<tag k="ssr:stedsnr" v="577212" />
	</node>
	<node id="-168996" lat="66.8754583319" lon="14.6332916602">
		<tag k="name" v="Svartvassura" />
		<tag k="natural" v="scree" />
		<tag k="ssr:stedsnr" v="298949" />
	</node>
	<node id="-170531" lat="66.9351638871" lon="14.7831916568">
		<tag k="name" v="Førskjerran" />
		<tag k="place" v="locality" />
		<tag k="ssr:stedsnr" v="577177" />
	</node>
	<node id="-170529" lat="66.9157666699" lon="14.7496833298">
		<tag k="name" v="Innerlia" />
		<tag k="place" v="locality" />
		<tag k="ssr:stedsnr" v="577170" />
	</node>
	<node id="-169306" lat="67.0070444405" lon="14.5892138917">
		<tag k="name" v="Rønno" />
		<tag k="place" v="locality" />
		<tag k="ssr:stedsnr" v="698289" />
	</node>
	<node id="-169495" lat="66.9863444469" lon="14.6857027716">
		<tag k="name" v="Ane-Larsmyra" />
		<tag k="natural" v="wetland" />
		<tag k="ssr:stedsnr" v="699959" />
	</node>
	<node id="-170518" lat="66.7823638885" lon="14.5679611055">
		<tag k="name" v="Isterkjerrabben" />
		<tag k="place" v="locality" />
		<tag k="ssr:stedsnr" v="570721" />
	</node>
	<node id="-169493" lat="67.0106222215" lon="14.7878250004">
		<tag k="name" v="Geitura" />
		<tag k="natural" v="scree" />
		<tag k="ssr:stedsnr" v="699866" />
	</node>
	<node id="-170166" lat="67.0726777804" lon="14.5485472174">
		<tag k="name" v="Ingvaldåkeren" />
		<tag k="place" v="locality" />
		<tag k="ssr:stedsnr" v="206007" />
	</node>
	<node id="-168977" lat="66.8050249998" lon="14.6309388981">
		<tag k="name" v="Skjellmyra" />
		<tag k="natural" v="wetland" />
		<tag k="ssr:stedsnr" v="274758" />
	</node>
	<node id="-169487" lat="66.962666671" lon="14.8333777808">
		<tag k="name" v="Skyttura" />
		<tag k="natural" v="scree" />
		<tag k="ssr:stedsnr" v="699755" />
	</node>
	<node id="-168973" lat="67.0128027779" lon="14.6523305526">
		<tag k="name" v="Øvergullmyra" />
		<tag k="natural" v="wetland" />
		<tag k="ssr:stedsnr" v="274615" />
	</node>
	<node id="-169994" lat="66.9323499965" lon="14.7842583232">
		<tag k="loc_name" v="Førnesøyra" />
		<tag k="name" v="Israeløyra" />
		<tag k="place" v="locality" />
		<tag k="ssr:stedsnr" v="92173" />
	</node>
	<node id="-169480" lat="66.9540388863" lon="14.7955444548">
		<tag k="name" v="Utfallsmyra" />
		<tag k="natural" v="wetland" />
		<tag k="ssr:stedsnr" v="699068" />
	</node>
	<node id="-168967" lat="66.9419083332" lon="14.7960000034">
		<tag k="name" v="Altersteinen" />
		<tag k="natural" v="stone" />
		<tag k="ssr:stedsnr" v="274128" />
	</node>
	<node id="-170502" lat="67.0916166677" lon="14.4243555576">
		<tag k="name" v="Lasken" />
		<tag k="place" v="locality" />
		<tag k="ssr:stedsnr" v="570363" />
	</node>
	<node id="-168963" lat="66.9589694438" lon="14.7933222183">
		<tag k="name" v="Sjurgaren" />
		<tag k="place" v="locality" />
		<tag k="ssr:stedsnr" v="274058" />
	</node>
	<node id="-168962" lat="66.9864333312" lon="14.7593416646">
		<tag k="name" v="Teinnøyra" />
		<tag k="place" v="locality" />
		<tag k="ssr:stedsnr" v="274004" />
>>>>>>> e1d4bc35ff8a6074a6f2e91616a996b547c36f15
	</node>
</osm>
