<?xml version="1.0" encoding="UTF-8"?>
<osm generator="osmapis" version="0.6">
	<node id="-189184" lat="59.7036916626" lon="10.4477027716">
		<tag k="name" v="Eglevann" />
		<tag k="natural" v="water" />
		<tag k="ssr:stedsnr" v="147883" />
		<tag k="water" v="lake" />
	</node>
	<node id="-189305" lat="59.6944583312" lon="10.4129388848">
		<tag k="name" v="Jerdalsbekken" />
		<tag k="ssr:stedsnr" v="511758" />
		<tag k="waterway" v="stream" />
	</node>
	<node id="-189172" lat="59.7055166633" lon="10.4542972298">
		<tag k="name" v="Svartvann" />
		<tag k="natural" v="water" />
		<tag k="ssr:stedsnr" v="124769" />
	</node>
	<node id="-189297" lat="59.684958331" lon="10.48574167">
		<tag k="alt_name" v="Skånevannet" />
		<tag k="name" v="Skånevann" />
		<tag k="natural" v="water" />
		<tag k="ssr:stedsnr" v="488770" />
	</node>
	<node id="-189167" lat="59.696986112" lon="10.4484694511">
		<tag k="name" v="Rundvann" />
		<tag k="natural" v="water" />
		<tag k="ssr:stedsnr" v="124712" />
	</node>
	<node id="-189166" lat="59.770872226" lon="10.5033583316">
		<tag k="name" v="Hiken" />
		<tag k="natural" v="bay" />
		<tag k="ssr:stedsnr" v="88828" />
	</node>
	<node id="-189165" lat="59.7708999987" lon="10.4778000037">
		<tag k="name" v="Bøbekken" />
		<tag k="ssr:stedsnr" v="88815" />
		<tag k="waterway" v="stream" />
	</node>
	<node id="-189161" lat="59.7616333341" lon="10.506427778">
		<tag k="name" v="Saltbutangen" />
		<tag k="natural" v="cape" />
		<tag k="ssr:stedsnr" v="88276" />
	</node>
	<node id="-189543" lat="59.7258833364" lon="10.4588611107">
		<tag k="name" v="Åroselva" />
		<tag k="ssr:stedsnr" v="913779" />
		<tag k="waterway" v="river" />
	</node>
	<node id="-189542" lat="59.6821222242" lon="10.4947611098">
		<tag k="alt_name" v="Kalvetjern" />
		<tag k="name" v="Kalvetjernet" />
		<tag k="natural" v="water" />
		<tag k="ssr:stedsnr" v="913760" />
	</node>
	<node id="-189541" lat="59.69099057" lon="10.4598137181">
		<tag k="alt_name" v="Setervann" />
		<tag k="name" v="Setervannet" />
		<tag k="natural" v="water" />
		<tag k="ssr:stedsnr" v="913740" />
		<tag k="water" v="lake" />
	</node>
	<node id="-189539" lat="59.7435277748" lon="10.4853805607">
		<tag k="alt_name" v="Bårsrudtjern" />
		<tag k="name" v="Bårsrudtjernet" />
		<tag k="natural" v="water" />
		<tag k="old_name" v="Baarsrudvatnet" />
		<tag k="ssr:stedsnr" v="913951" />
	</node>
	<node id="-189281" lat="59.7719083343" lon="10.4354500033">
		<tag k="name" v="Grodalselva" />
		<tag k="ssr:stedsnr" v="452788" />
		<tag k="waterway" v="river" />
	</node>
	<node id="-189278" lat="59.7560500008" lon="10.3977277834">
		<tag k="name" v="Kleivardammen" />
		<tag k="natural" v="water" />
		<tag k="ssr:stedsnr" v="452377" />
	</node>
	<node id="-189019" lat="59.7643645306" lon="10.3750500051">
		<tag k="name" v="Stordammen" />
		<tag k="natural" v="water" />
		<tag k="ssr:stedsnr" v="308597" />
		<tag k="water" v="lake" />
	</node>
	<node id="-189010" lat="59.7359277802" lon="10.3204722234">
		<tag k="name" v="Dauerudbekken" />
		<tag k="ssr:stedsnr" v="306351" />
		<tag k="waterway" v="stream" />
	</node>
	<node id="-189392" lat="59.7255944481" lon="10.4215750088">
		<tag k="name" v="Igletjern" />
		<tag k="natural" v="water" />
		<tag k="ssr:stedsnr" v="670780" />
	</node>
	<node id="-189261" lat="59.7527805578" lon="10.4008194518">
		<tag k="name" v="Hegga" />
		<tag k="ssr:stedsnr" v="430648" />
		<tag k="waterway" v="river" />
	</node>
	<node id="-189132" lat="59.7582722246" lon="10.4553694477">
		<tag k="name" v="Bøbekken" />
		<tag k="ssr:stedsnr" v="28380" />
		<tag k="waterway" v="stream" />
	</node>
	<node id="-189515" lat="59.7943583338" lon="10.3351277691">
		<tag k="name" v="Svarteputt" />
		<tag k="natural" v="water" />
		<tag k="ssr:stedsnr" v="854128" />
	</node>
	<node id="-189002" lat="59.6916262538" lon="10.5063822865">
		<tag k="name" v="Bestondammen" />
		<tag k="natural" v="water" />
		<tag k="ssr:stedsnr" v="269974" />
	</node>
	<node id="-189126" lat="59.7655638856" lon="10.5013833363">
		<tag k="name" v="Morbergholmen" />
		<tag k="place" v="islet" />
		<tag k="ssr:stedsnr" v="27343" />
	</node>
	<node id="-189123" lat="59.720961112" lon="10.4123194522">
		<tag k="name" v="Tretjern" />
		<tag k="natural" v="water" />
		<tag k="ssr:stedsnr" v="26952" />
	</node>
	<node id="-189375" lat="59.7592555522" lon="10.440558329">
		<tag k="name" v="Fabrikkdammen" />
		<tag k="natural" v="water" />
		<tag k="ssr:stedsnr" v="633387" />
	</node>
	<node id="-189245" lat="59.7558527777" lon="10.340836115">
		<tag k="name" v="Kjoselva" />
		<tag k="ssr:stedsnr" v="247579" />
		<tag k="waterway" v="river" />
	</node>
	<node id="-189497" lat="59.7679472199" lon="10.4135583377">
		<tag k="name" v="Hengefoss" />
		<tag k="natural" v="waterfall" />
		<tag k="ssr:stedsnr" v="816639" />
	</node>
	<node id="-189240" lat="59.6761333336" lon="10.4719027808">
		<tag k="name" v="Mårbergvannet" />
		<tag k="natural" v="water" />
		<tag k="ssr:stedsnr" v="246830" />
	</node>
	<node id="-189150" lat="59.7862916654" lon="10.4017055471">
		<tag k="name" v="Rødbekk" />
		<tag k="ssr:stedsnr" v="83737" />
		<tag k="waterway" v="stream" />
	</node>
	<node id="-189234" lat="59.7534250029" lon="10.3926972262">
		<tag k="name" v="Vaskebekk" />
		<tag k="ssr:stedsnr" v="239032" />
		<tag k="waterway" v="stream" />
	</node>
	<node id="-189360" lat="59.6757805557" lon="10.4783527699">
		<tag k="name" v="Langvann" />
		<tag k="natural" v="water" />
		<tag k="ssr:stedsnr" v="610865" />
	</node>
	<node id="-189227" lat="59.7328305577" lon="10.3839444435">
		<tag k="name" v="Sandvadbekken" />
		<tag k="ssr:stedsnr" v="209548" />
		<tag k="waterway" v="stream" />
	</node>
	<node id="-189223" lat="59.7089916676" lon="10.3849138871">
		<tag k="name" v="Buktebekken" />
		<tag k="ssr:stedsnr" v="208960" />
		<tag k="waterway" v="stream" />
	</node>
	<node id="-189169" lat="59.6850694451" lon="10.4922027764">
		<tag k="alt_name" v="Gampetjern" />
		<tag k="name" v="Gampetjernet" />
		<tag k="natural" v="water" />
		<tag k="ssr:stedsnr" v="124720" />
	</node>
	<node id="-189188" lat="59.7630661304" lon="10.3834455622">
		<tag k="name" v="Tretjern" />
		<tag k="natural" v="water" />
		<tag k="ssr:stedsnr" v="148376" />
	</node>
	<node id="-189206" lat="59.7701083343" lon="10.3912361025">
		<tag k="name" v="Svartvannet" />
		<tag k="natural" v="water" />
		<tag k="ssr:stedsnr" v="187580" />
	</node>
	<node id="-189037" lat="59.6922999977" lon="10.4804527787">
		<tag k="name" v="Sandbekken" />
		<tag k="ssr:stedsnr" v="329972" />
		<tag k="waterway" v="stream" />
	</node>
	<node id="-189451" lat="59.7025555517" lon="10.5132722236">
		<tag k="name" v="Stordammen" />
		<tag k="natural" v="water" />
		<tag k="ssr:stedsnr" v="754972" />
	</node>
	<node id="-189572" lat="59.7616908349" lon="10.3992086378">
		<tag k="name" v="Vesledammen" />
		<tag k="natural" v="water" />
		<tag k="ssr:stedsnr" v="976134" />
	</node>
	<node id="-189442" lat="59.7660500014" lon="10.353122224">
		<tag k="name" v="Haukelidammen" />
		<tag k="natural" v="water" />
		<tag k="ssr:stedsnr" v="754363" />
	</node>
</osm>
