<?xml version="1.0" encoding="UTF-8"?>
<osm generator="osmapis" version="0.6">
	<node id="-189312" lat="59.7703277815" lon="10.4822583346">
		<tag k="bridge" v="yes" />
		<tag k="layer" v="1" />
		<tag k="name" v="Ødegårdskogen" />
		<tag k="ssr:stedsnr" v="896938" />
	</node>
	<node id="-189311" lat="59.6977194446" lon="10.488663888">
		<tag k="bridge" v="yes" />
		<tag k="layer" v="1" />
		<tag k="name" v="Sagbakken" />
		<tag k="ssr:stedsnr" v="896933" />
	</node>
	<node id="-189308" lat="59.724430552" lon="10.3188500039">
		<tag k="bridge" v="yes" />
		<tag k="layer" v="1" />
		<tag k="name" v="Lahell" />
		<tag k="ssr:stedsnr" v="410926" />
	</node>
	<node id="-189691" lat="59.7148333375" lon="10.4919638806">
		<tag k="junction" v="yes" />
		<tag k="name" v="Sundbykrysset" />
		<tag k="place" v="locality" />
		<tag k="ssr:stedsnr" v="754952" />
	</node>
	<node id="-189502" lat="59.7491861097" lon="10.5129444417">
		<tag k="man_made" v="quay" />
		<tag k="name" v="Svaberg" />
		<tag k="place" v="locality" />
		<tag k="ssr:stedsnr" v="428939" />
	</node>
	<node id="-189298" lat="59.7630555587" lon="10.5093000059">
		<tag k="man_made" v="quay" />
		<tag k="name" v="Nærsnes brygge" />
		<tag k="place" v="locality" />
		<tag k="ssr:stedsnr" v="391349" />
	</node>
	<node id="-189660" lat="59.7403916696" lon="10.3788166665">
		<tag k="bridge" v="yes" />
		<tag k="layer" v="1" />
		<tag k="name" v="Auvi" />
		<tag k="ssr:stedsnr" v="714925" />
	</node>
	<node id="-189531" lat="59.7291555529" lon="10.4313999994">
		<tag k="bridge" v="yes" />
		<tag k="layer" v="1" />
		<tag k="name" v="Villingstad" />
		<tag k="ssr:stedsnr" v="471921" />
	</node>
	<node id="-189658" lat="59.73641667" lon="10.4167611173">
		<tag k="bridge" v="yes" />
		<tag k="layer" v="1" />
		<tag k="name" v="Midtbygda" />
		<tag k="ssr:stedsnr" v="714908" />
	</node>
	<node id="-189526" lat="59.7829499972" lon="10.5009638864">
		<tag k="man_made" v="quay" />
		<tag k="name" v="Slemmestad brygge" />
		<tag k="place" v="locality" />
		<tag k="ssr:stedsnr" v="452845" />
	</node>
	<node id="-189659" lat="59.7322666655" lon="10.4248638811">
		<tag k="bridge" v="yes" />
		<tag k="layer" v="1" />
		<tag k="name" v="Bjørnstaddalen" />
		<tag k="ssr:stedsnr" v="714923" />
	</node>
	<node id="-189377" lat="59.7404805592" lon="10.4198194367">
		<tag k="bridge" v="yes" />
		<tag k="layer" v="1" />
		<tag k="name" v="Bjørnstad" />
		<tag k="ssr:stedsnr" v="46935" />
	</node>
	<node id="-189376" lat="59.7269416661" lon="10.4569555533">
		<tag k="bridge" v="yes" />
		<tag k="layer" v="1" />
		<tag k="name" v="Vear" />
		<tag k="ssr:stedsnr" v="46930" />
	</node>
	<node id="-189630" lat="59.7050972211" lon="10.4707250075">
		<tag k="alt_name" v="Elgskauås" />
		<tag k="layer" v="-1" />
		<tag k="name" v="Elgskauåstunnelen" />
		<tag k="ssr:stedsnr" v="650373" />
		<tag k="tunnel" v="yes" />
	</node>
	<node id="-189243" lat="59.7762611142" lon="10.4845055639">
		<tag k="bridge" v="yes" />
		<tag k="layer" v="1" />
		<tag k="name" v="Bøbekken" />
		<tag k="ssr:stedsnr" v="289953" />
	</node>
	<node id="-189496" lat="59.7455047862" lon="10.340496363">
		<tag k="name" v="Spikkestad stasjon" />
		<tag k="railway" v="station" />
		<tag k="ssr:stedsnr" v="427380" />
		<tag k="train" v="yes" />
	</node>
	<node id="-189365" lat="59.7234777801" lon="10.5190972179">
		<tag k="man_made" v="quay" />
		<tag k="name" v="Høvik brygge" />
		<tag k="place" v="locality" />
		<tag k="ssr:stedsnr" v="26938" />
	</node>
	<node id="-189746" lat="59.7155027816" lon="10.3472527818">
		<tag k="bridge" v="yes" />
		<tag k="layer" v="1" />
		<tag k="name" v="Hyggen" />
		<tag k="ssr:stedsnr" v="835935" />
	</node>
	<node id="-189737" lat="59.7466944407" lon="10.3898138894">
		<tag k="name" v="Røyken stasjon" />
		<tag k="railway" v="station" />
		<tag k="ssr:stedsnr" v="816384" />
		<tag k="train" v="yes" />
	</node>
	<node id="-189473" lat="59.6958722191" lon="10.4945361033">
		<tag k="bridge" v="yes" />
		<tag k="layer" v="1" />
		<tag k="name" v="Frøtvedtmosen" />
		<tag k="ssr:stedsnr" v="228941" />
	</node>
	<node id="-189471" lat="59.7411750007" lon="10.4220444519">
		<tag k="junction" v="yes" />
		<tag k="name" v="Rognliveien" />
		<tag k="place" v="locality" />
		<tag k="ssr:stedsnr" v="209565" />
	</node>
	<node id="-189530" lat="59.7577527752" lon="10.5028361062">
		<tag k="bridge" v="yes" />
		<tag k="layer" v="1" />
		<tag k="name" v="Nærnes" />
		<tag k="ssr:stedsnr" v="471913" />
	</node>
	<node id="-189721" lat="59.7821527816" lon="10.3319694474">
		<tag k="ford" v="yes" />
		<tag k="name" v="Sørumvadet" />
		<tag k="place" v="locality" />
		<tag k="ssr:stedsnr" v="815249" />
	</node>
	<node id="-189464" lat="59.7062499964" lon="10.5222750044">
		<tag k="man_made" v="quay" />
		<tag k="name" v="Åros brygge" />
		<tag k="place" v="locality" />
		<tag k="ssr:stedsnr" v="208952" />
	</node>
	<node id="-189330" lat="59.7110055905" lon="10.3526296449">
		<tag k="man_made" v="quay" />
		<tag k="name" v="Folakroken kai" />
		<tag k="place" v="locality" />
		<tag k="ssr:stedsnr" v="986975" />
	</node>
	<node id="-189701" lat="59.742363889" lon="10.3789000002">
		<tag k="bridge" v="yes" />
		<tag k="layer" v="1" />
		<tag k="name" v="Grini" />
		<tag k="ssr:stedsnr" v="774930" />
	</node>
	<node id="-189313" lat="59.7530444459" lon="10.4412138953">
		<tag k="bridge" v="yes" />
		<tag k="layer" v="1" />
		<tag k="name" v="Brynsholmen" />
		<tag k="ssr:stedsnr" v="896946" />
	</node>
</osm>
