<?xml version="1.0" encoding="UTF-8"?>
<osm generator="osmapis" version="0.6">
	<node id="-189437" lat="59.6851083333" lon="10.4187249995">
		<tag k="name" v="Grimsrudodden" />
		<tag k="natural" v="cape" />
		<tag k="ssr:stedsnr" v="752832" />
	</node>
	<node id="-189434" lat="59.784544442" lon="10.510775002">
		<tag k="name" v="Lyberggrunnen" />
		<tag k="natural" v="shoal" />
		<tag k="place" v="locality" />
		<tag k="ssr:stedsnr" v="752512" />
	</node>
	<node id="-189432" lat="59.7741861089" lon="10.5061555582">
		<tag k="fixme" v="consider seamark:type=rock or natural=shoal" />
		<tag k="name" v="Dyna" />
		<tag k="place" v="islet" />
		<tag k="ssr:stedsnr" v="733664" />
	</node>
	<node id="-189431" lat="59.7781138847" lon="10.5394416679">
		<tag k="alt_name" v="Håmerrgrunnen" />
		<tag k="name" v="Håmargrunnen" />
		<tag k="natural" v="shoal" />
		<tag k="place" v="locality" />
		<tag k="ssr:stedsnr" v="733662" />
	</node>
	<node id="-189424" lat="59.7178972202" lon="10.3120722231">
		<tag k="name" v="Lahellholmen" />
		<tag k="place" v="islet" />
		<tag k="ssr:stedsnr" v="731237" />
	</node>
	<node id="-189420" lat="59.7099583331" lon="10.5299333395">
		<tag k="name" v="Gråøyodden" />
		<tag k="natural" v="cape" />
		<tag k="ssr:stedsnr" v="725787" />
	</node>
	<node id="-189419" lat="59.7827027789" lon="10.5020166745">
		<tag k="name" v="Slemmestadodden" />
		<tag k="natural" v="cape" />
		<tag k="ssr:stedsnr" v="725152" />
	</node>
	<node id="-189418" lat="59.7432361147" lon="10.5149249918">
		<tag k="name" v="Ramtonsundet" />
		<tag k="natural" v="strait" />
		<tag k="ssr:stedsnr" v="725114" />
	</node>
	<node id="-189413" lat="59.6985222229" lon="10.5317055519">
		<tag k="name" v="Johnsbergtangen" />
		<tag k="natural" v="cape" />
		<tag k="ssr:stedsnr" v="706743" />
	</node>
	<node id="-189407" lat="59.7127413103" lon="10.3653892807">
		<tag k="name" v="Indre Fiskebukt" />
		<tag k="natural" v="bay" />
		<tag k="ssr:stedsnr" v="694801" />
	</node>
	<node id="-189406" lat="59.7105416653" lon="10.3734027816">
		<tag k="name" v="Høgdodden" />
		<tag k="natural" v="cape" />
		<tag k="ssr:stedsnr" v="694796" />
	</node>
	<node id="-189398" lat="59.676455559" lon="10.412850002">
		<tag k="name" v="Pampus" />
		<tag k="natural" v="shoal" />
		<tag k="place" v="locality" />
		<tag k="ssr:stedsnr" v="671847" />
	</node>
	<node id="-189394" lat="59.7430722199" lon="10.51931388">
		<tag k="name" v="Ramtonholmen" />
		<tag k="place" v="islet" />
		<tag k="ssr:stedsnr" v="670971" />
	</node>
	<node id="-189389" lat="59.7863249966" lon="10.4988111079">
		<tag k="name" v="Dørstubukta" />
		<tag k="natural" v="bay" />
		<tag k="ssr:stedsnr" v="664191" />
	</node>
	<node id="-189388" lat="59.7440222254" lon="10.5114361094">
		<tag k="name" v="Ramtonflåa" />
		<tag k="natural" v="shoal" />
		<tag k="place" v="locality" />
		<tag k="ssr:stedsnr" v="664105" />
	</node>
	<node id="-189385" lat="59.7000194428" lon="10.5186583311">
		<tag k="name" v="Kastestranda" />
		<tag k="natural" v="beach" />
		<tag k="place" v="locality" />
		<tag k="ssr:stedsnr" v="645736" />
	</node>
	<node id="-189354" lat="59.7195805557" lon="10.5203805581">
		<tag k="name" v="Løkebergstranda" />
		<tag k="natural" v="beach" />
		<tag k="place" v="locality" />
		<tag k="ssr:stedsnr" v="604833" />
	</node>
	<node id="-189353" lat="59.7236861103" lon="10.5341722134">
		<tag k="name" v="Søndre Sundbyholmen" />
		<tag k="place" v="islet" />
		<tag k="ssr:stedsnr" v="604106" />
	</node>
	<node id="-189352" lat="59.7844750006" lon="10.5112361025">
		<tag k="name" v="Indre Lyberggrunnen" />
		<tag k="natural" v="shoal" />
		<tag k="place" v="locality" />
		<tag k="ssr:stedsnr" v="603145" />
	</node>
	<node id="-189351" lat="59.7610138875" lon="10.514519447">
		<tag k="name" v="Klippen" />
		<tag k="natural" v="cape" />
		<tag k="ssr:stedsnr" v="603108" />
	</node>
	<node id="-189349" lat="59.7659055546" lon="10.5149361092">
		<tag k="name" v="Nærsnesrabbane" />
		<tag k="natural" v="shoal" />
		<tag k="place" v="locality" />
		<tag k="ssr:stedsnr" v="579125" />
	</node>
	<node id="-189338" lat="59.6873694446" lon="10.4109972143">
		<tag k="name" v="Apalberget" />
		<tag k="natural" v="cape" />
		<tag k="ssr:stedsnr" v="572803" />
	</node>
	<node id="-189333" lat="59.7363305551" lon="10.5165500056">
		<tag k="name" v="Vollegrunnen" />
		<tag k="natural" v="shoal" />
		<tag k="place" v="locality" />
		<tag k="ssr:stedsnr" v="571133" />
	</node>
	<node id="-189332" lat="59.6999263981" lon="10.5388135755">
		<tag k="name" v="Engnesbukta" />
		<tag k="natural" v="bay" />
		<tag k="ssr:stedsnr" v="571131" />
	</node>
	<node id="-189331" lat="59.7015750028" lon="10.5248416725">
		<tag k="name" v="Gråøysundet" />
		<tag k="natural" v="strait" />
		<tag k="ssr:stedsnr" v="570809" />
	</node>
	<node id="-189330" lat="59.6946055545" lon="10.5185555468">
		<tag k="name" v="Lagerbukta" />
		<tag k="natural" v="bay" />
		<tag k="ssr:stedsnr" v="570810" />
	</node>
	<node id="-189328" lat="59.7517250018" lon="10.5133138935">
		<tag k="name" v="Torskeberget" />
		<tag k="natural" v="cape" />
		<tag k="ssr:stedsnr" v="570507" />
	</node>
	<node id="-189327" lat="59.7727111107" lon="10.5071222293">
		<tag k="name" v="Grunnvikgrunnen" />
		<tag k="natural" v="shoal" />
		<tag k="place" v="locality" />
		<tag k="ssr:stedsnr" v="570501" />
	</node>
	<node id="-189319" lat="59.7231011104" lon="10.5186086025">
		<tag k="name" v="Båtstøbukta" />
		<tag k="natural" v="bay" />
		<tag k="ssr:stedsnr" v="544802" />
	</node>
	<node id="-189316" lat="59.7324849566" lon="10.5189141367">
		<tag k="name" v="Steinbergbukta" />
		<tag k="natural" v="bay" />
		<tag k="ssr:stedsnr" v="543113" />
	</node>
	<node id="-189263" lat="59.7731222193" lon="10.5408027694">
		<tag k="name" v="Abborberget" />
		<tag k="natural" v="shoal" />
		<tag k="place" v="locality" />
		<tag k="ssr:stedsnr" v="449519" />
	</node>
	<node id="-189258" lat="59.7434333334" lon="10.5340583326">
		<tag k="name" v="Østre Ramtongrunnen" />
		<tag k="natural" v="shoal" />
		<tag k="place" v="locality" />
		<tag k="ssr:stedsnr" v="428938" />
	</node>
	<node id="-189255" lat="59.723875003" lon="10.5340499957">
		<tag k="alt_name" v="Sundbyholmane" />
		<tag k="name" v="Sundbyholmene" />
		<tag k="place" v="islet" />
		<tag k="ssr:stedsnr" v="428787" />
	</node>
	<node id="-189250" lat="59.7848111149" lon="10.5015416729">
		<tag k="name" v="Slemmestadleira" />
		<tag k="natural" v="bay" />
		<tag k="ssr:stedsnr" v="422169" />
	</node>
	<node id="-189243" lat="59.7322194457" lon="10.5295666592">
		<tag k="fixme" v="consider seamark:type=rock or natural=shoal" />
		<tag k="name" v="Høvikskjæra" />
		<tag k="place" v="islet" />
		<tag k="ssr:stedsnr" v="246954" />
	</node>
	<node id="-189237" lat="59.7057166706" lon="10.5319416638">
		<tag k="name" v="Gråøya" />
		<tag k="place" v="island" />
		<tag k="ssr:stedsnr" v="246719" />
	</node>
	<node id="-189235" lat="59.7263643287" lon="10.5198802964">
		<tag k="name" v="Høviklaget" />
		<tag k="natural" v="bay" />
		<tag k="ssr:stedsnr" v="240810" />
	</node>
	<node id="-189231" lat="59.7222333326" lon="10.5353666657">
		<tag k="name" v="Djupegrunnen" />
		<tag k="natural" v="shoal" />
		<tag k="place" v="locality" />
		<tag k="ssr:stedsnr" v="236071" />
	</node>
	<node id="-189229" lat="59.6909972238" lon="10.5346111101">
		<tag k="fixme" v="consider seamark:type=rock or natural=shoal" />
		<tag k="name" v="Hjelpskjæret" />
		<tag k="place" v="islet" />
		<tag k="ssr:stedsnr" v="221709" />
	</node>
	<node id="-189219" lat="59.7817805525" lon="10.5048000027">
		<tag k="name" v="Skonroken" />
		<tag k="place" v="islet" />
		<tag k="ssr:stedsnr" v="208344" />
	</node>
	<node id="-189218" lat="59.7805083373" lon="10.5048611109">
		<tag k="name" v="Kavringen" />
		<tag k="place" v="islet" />
		<tag k="ssr:stedsnr" v="208341" />
	</node>
	<node id="-189212" lat="59.7121498138" lon="10.3477038249">
		<tag k="name" v="Jonsbubukta" />
		<tag k="natural" v="bay" />
		<tag k="ssr:stedsnr" v="206574" />
	</node>
	<node id="-189525" lat="59.7764416659" lon="10.5046222296">
		<tag k="name" v="Skurven" />
		<tag k="place" v="islet" />
		<tag k="ssr:stedsnr" v="876341" />
	</node>
	<node id="-189198" lat="59.6893416624" lon="10.5300277779">
		<tag k="name" v="Torvøya" />
		<tag k="place" v="island" />
		<tag k="ssr:stedsnr" v="185741" />
	</node>
	<node id="-189197" lat="59.6864749999" lon="10.5484000084">
		<tag k="alt_name" v="Raudholmane" />
		<tag k="name" v="Rauholmene" />
		<tag k="place" v="islet" />
		<tag k="ssr:stedsnr" v="185740" />
	</node>
	<node id="-189194" lat="59.7296277817" lon="10.5214416582">
		<tag k="fixme" v="consider seamark:type=rock or natural=shoal" />
		<tag k="name" v="Demmekilskjæra" />
		<tag k="place" v="islet" />
		<tag k="ssr:stedsnr" v="180803" />
	</node>
	<node id="-189569" lat="59.7388777757" lon="10.5174305467">
		<tag k="name" v="Høvikgrunnen" />
		<tag k="natural" v="shoal" />
		<tag k="place" v="locality" />
		<tag k="ssr:stedsnr" v="968108" />
	</node>
	<node id="-189158" lat="59.6905253063" lon="10.4018847862">
		<tag k="name" v="Jerdalsbukta" />
		<tag k="natural" v="bay" />
		<tag k="ssr:stedsnr" v="87782" />
	</node>
	<node id="-189156" lat="59.774441664" lon="10.505880558">
		<tag k="name" v="Puta" />
		<tag k="place" v="islet" />
		<tag k="ssr:stedsnr" v="87334" />
	</node>
	<node id="-189154" lat="59.755213892" lon="10.5330722173">
		<tag k="name" v="Furugrunnane" />
		<tag k="natural" v="shoal" />
		<tag k="place" v="locality" />
		<tag k="ssr:stedsnr" v="86150" />
	</node>
	<node id="-189153" lat="59.7085305574" lon="10.5391333404">
		<tag k="name" v="Gråøyrenna" />
		<tag k="natural" v="strait" />
		<tag k="ssr:stedsnr" v="86127" />
	</node>
	<node id="-189142" lat="59.7230583331" lon="10.5267416623">
		<tag k="alt_name" v="Midgrunnen" />
		<tag k="name" v="Midtgrunnen" />
		<tag k="natural" v="shoal" />
		<tag k="place" v="locality" />
		<tag k="ssr:stedsnr" v="64800" />
	</node>
	<node id="-189136" lat="59.7110609697" lon="10.5232968929">
		<tag k="name" v="Orebukta" />
		<tag k="natural" v="bay" />
		<tag k="ssr:stedsnr" v="58746" />
	</node>
	<node id="-189135" lat="59.7259472214" lon="10.5351638859">
		<tag k="name" v="Nordre Sundbyholmen" />
		<tag k="place" v="islet" />
		<tag k="ssr:stedsnr" v="58110" />
	</node>
	<node id="-189125" lat="59.7648472251" lon="10.5128472298">
		<tag k="fixme" v="consider seamark:type=rock or natural=shoal" />
		<tag k="name" v="Skjæra" />
		<tag k="place" v="islet" />
		<tag k="ssr:stedsnr" v="27341" />
	</node>
	<node id="-189112" lat="59.678830552" lon="10.4211055584">
		<tag k="name" v="Haken" />
		<tag k="natural" v="shoal" />
		<tag k="place" v="locality" />
		<tag k="ssr:stedsnr" v="24846" />
	</node>
	<node id="-189111" lat="59.758963886" lon="10.5029611192">
		<tag k="name" v="Stranda" />
		<tag k="natural" v="beach" />
		<tag k="place" v="locality" />
		<tag k="ssr:stedsnr" v="24649" />
	</node>
	<node id="-189101" lat="59.6928722206" lon="10.531852786">
		<tag k="name" v="Hjelp" />
		<tag k="place" v="islet" />
		<tag k="ssr:stedsnr" v="3747" />
	</node>
	<node id="-189086" lat="59.666666669" lon="10.3916666621">
		<tag k="bay" v="fjord" />
		<tag k="name" v="Drammensfjorden" />
		<tag k="natural" v="bay" />
		<tag k="ssr:stedsnr" v="792266" />
	</node>
	<node id="-189039" lat="59.7101360805" lon="10.3756468794">
		<tag k="name" v="Bukta" />
		<tag k="natural" v="bay" />
		<tag k="ssr:stedsnr" v="330856" />
	</node>
	<node id="-189075" lat="59.6949111128" lon="10.5310249922">
		<tag k="name" v="Hjelpgrunnen" />
		<tag k="natural" v="shoal" />
		<tag k="place" v="locality" />
		<tag k="ssr:stedsnr" v="889735" />
	</node>
	<node id="-189072" lat="59.6927694404" lon="10.5375000045">
		<tag k="name" v="Klausgrunnen" />
		<tag k="natural" v="shoal" />
		<tag k="place" v="locality" />
		<tag k="ssr:stedsnr" v="403737" />
	</node>
	<node id="-189570" lat="59.7203527765" lon="10.5310666662">
		<tag k="name" v="Løkeberggrunnen" />
		<tag k="natural" v="shoal" />
		<tag k="place" v="locality" />
		<tag k="ssr:stedsnr" v="968821" />
	</node>
	<node id="-189057" lat="59.711053547" lon="10.3643315914">
		<tag k="name" v="Ytre Fiskebukt" />
		<tag k="natural" v="bay" />
		<tag k="ssr:stedsnr" v="390795" />
	</node>
	<node id="-189564" lat="59.729326717" lon="10.5198603828">
		<tag k="name" v="Demmekilen" />
		<tag k="natural" v="bay" />
		<tag k="ssr:stedsnr" v="937941" />
	</node>
	<node id="-189051" lat="59.7801333368" lon="10.5068000028">
		<tag k="name" v="Kista" />
		<tag k="natural" v="shoal" />
		<tag k="place" v="locality" />
		<tag k="ssr:stedsnr" v="388537" />
	</node>
	<node id="-189556" lat="59.7104387153" lon="10.3571270688">
		<tag k="name" v="Fagervika" />
		<tag k="natural" v="bay" />
		<tag k="ssr:stedsnr" v="936776" />
	</node>
	<node id="-189042" lat="59.6933111148" lon="10.5219250003">
		<tag k="name" v="Killingholmsundet" />
		<tag k="natural" v="strait" />
		<tag k="ssr:stedsnr" v="342713" />
	</node>
	<node id="-189552" lat="59.7569861124" lon="10.5143000009">
		<tag k="name" v="Baku" />
		<tag k="natural" v="cape" />
		<tag k="ssr:stedsnr" v="934617" />
	</node>
	<node id="-189551" lat="59.7152055542" lon="10.3282111111">
		<tag k="name" v="Kusteinbukta" />
		<tag k="natural" v="bay" />
		<tag k="ssr:stedsnr" v="935612" />
	</node>
	<node id="-189031" lat="59.6898027753" lon="10.3961138823">
		<tag k="name" v="Hernestangen" />
		<tag k="natural" v="cape" />
		<tag k="ssr:stedsnr" v="329745" />
	</node>
	<node id="-189538" lat="59.7179611125" lon="10.5206805489">
		<tag k="name" v="Rundeskjæret" />
		<tag k="natural" v="cape" />
		<tag k="ssr:stedsnr" v="908843" />
	</node>
	<node id="-189536" lat="59.7078798114" lon="10.5285317945">
		<tag k="name" v="Lindbukta" />
		<tag k="natural" v="bay" />
		<tag k="ssr:stedsnr" v="907784" />
	</node>
	<node id="-189535" lat="59.7648944444" lon="10.5091583283">
		<tag k="name" v="Persgrunnen" />
		<tag k="natural" v="shoal" />
		<tag k="place" v="locality" />
		<tag k="ssr:stedsnr" v="907123" />
	</node>
	<node id="-189021" lat="59.7636916679" lon="10.5142277823">
		<tag k="name" v="Nærsnestangen" />
		<tag k="natural" v="cape" />
		<tag k="ssr:stedsnr" v="308607" />
	</node>
	<node id="-189020" lat="59.7665777674" lon="10.5069295092">
		<tag k="name" v="Nærsnesbukta" />
		<tag k="natural" v="bay" />
		<tag k="ssr:stedsnr" v="308605" />
	</node>
	<node id="-189013" lat="59.713702796" lon="10.3680592128">
		<tag k="name" v="Hyggenvika" />
		<tag k="natural" v="bay" />
		<tag k="ssr:stedsnr" v="306785" />
	</node>
	<node id="-189011" lat="59.6948500004" lon="10.5226277855">
		<tag k="name" v="Killingholmen" />
		<tag k="place" v="island" />
		<tag k="ssr:stedsnr" v="306743" />
	</node>
	<node id="-189009" lat="59.7115888869" lon="10.3364527853">
		<tag k="name" v="Kinnartangen" />
		<tag k="natural" v="cape" />
		<tag k="ssr:stedsnr" v="306263" />
	</node>
	<node id="-189519" lat="59.7769472182" lon="10.5076972185">
		<tag k="fixme" v="consider seamark:type=rock or natural=shoal" />
		<tag k="name" v="Flåskjæret" />
		<tag k="place" v="islet" />
		<tag k="ssr:stedsnr" v="854663" />
	</node>
	<node id="-189518" lat="59.781405558" lon="10.50485555">
		<tag k="alt_name" v="Geitungsholmen" />
		<tag k="name" v="Geitungholmen" />
		<tag k="place" v="islet" />
		<tag k="ssr:stedsnr" v="854637" />
	</node>
	<node id="-189026" lat="59.721941671" lon="10.5218388906">
		<tag k="name" v="Båtstøbåen" />
		<tag k="natural" v="shoal" />
		<tag k="place" v="locality" />
		<tag k="ssr:stedsnr" v="328129" />
	</node>
	<node id="-189510" lat="59.6827532195" lon="10.4257884458">
		<tag k="name" v="Grimsrudbukta" />
		<tag k="natural" v="bay" />
		<tag k="ssr:stedsnr" v="853856" />
	</node>
	<node id="-189505" lat="59.7876372059" lon="10.4977632318">
		<tag k="name" v="Tajetbukta" />
		<tag k="natural" v="bay" />
		<tag k="ssr:stedsnr" v="847241" />
	</node>
	<node id="-189504" lat="59.7268388911" lon="10.5294944521">
		<tag k="name" v="Berentsgrunnen" />
		<tag k="natural" v="shoal" />
		<tag k="place" v="locality" />
		<tag k="ssr:stedsnr" v="847814" />
	</node>
	<node id="-189491" lat="59.702313892" lon="10.5204694371">
		<tag k="name" v="Verven" />
		<tag k="natural" v="cape" />
		<tag k="ssr:stedsnr" v="815975" />
	</node>
	<node id="-189475" lat="59.6992277779" lon="10.3866444368">
		<tag k="name" v="Gåsungen" />
		<tag k="natural" v="shoal" />
		<tag k="place" v="locality" />
		<tag k="ssr:stedsnr" v="813830" />
	</node>
	<node id="-189465" lat="59.7467000012" lon="10.5213583288">
		<tag k="name" v="Nordre Ramtongrunnen" />
		<tag k="natural" v="shoal" />
		<tag k="place" v="locality" />
		<tag k="ssr:stedsnr" v="792954" />
	</node>
	<node id="-189464" lat="59.7149888884" lon="10.5317277694">
		<tag k="bay" v="fjord" />
		<tag k="name" v="Vestfjorden" />
		<tag k="natural" v="bay" />
		<tag k="ssr:stedsnr" v="792789" />
	</node>
	<node id="-189460" lat="59.7848277809" lon="10.5156166702">
		<tag k="name" v="Ytre Lyberggrunnen" />
		<tag k="natural" v="shoal" />
		<tag k="place" v="locality" />
		<tag k="ssr:stedsnr" v="786152" />
	</node>
	<node id="-189459" lat="59.7643138867" lon="10.5049472174">
		<tag k="name" v="Holmegrunnen" />
		<tag k="natural" v="shoal" />
		<tag k="place" v="locality" />
		<tag k="ssr:stedsnr" v="786122" />
	</node>
	<node id="-189457" lat="59.6954027786" lon="10.5365555496">
		<tag k="name" v="Kleinsgrunnen" />
		<tag k="natural" v="shoal" />
		<tag k="place" v="locality" />
		<tag k="ssr:stedsnr" v="767730" />
	</node>
	<node id="-189450" lat="59.6942083327" lon="10.5390194427">
		<tag k="name" v="Klauholmen" />
		<tag k="place" v="islet" />
		<tag k="ssr:stedsnr" v="754966" />
	</node>
</osm>
