<?xml version="1.0" encoding="UTF-8"?>
<osm generator="osmapis" version="0.6">
	<node id="-189439" lat="59.7251305544" lon="10.3745472183">
		<tag k="name" v="Guttersrud" />
		<tag k="place" v="isolated_dwelling" />
		<tag k="ssr:stedsnr" v="185765" />
	</node>
	<node id="-189433" lat="59.7299416626" lon="10.4773527736">
		<tag k="name" v="Nordre Ski" />
		<tag k="place" v="farm" />
		<tag k="ssr:stedsnr" v="148515" />
	</node>
	<node id="-189432" lat="59.7255638912" lon="10.4554333301">
		<tag k="building" v="industrial" />
		<tag k="name" v="Vearsaga" />
		<tag k="ssr:stedsnr" v="148506" />
	</node>
	<node id="-189426" lat="59.6984888884" lon="10.3914305624">
		<tag k="name" v="Sand" />
		<tag k="place" v="isolated_dwelling" />
		<tag k="ssr:stedsnr" v="147773" />
	</node>
	<node id="-189425" lat="59.6976194437" lon="10.3922916625">
		<tag k="name" v="Høybakk" />
		<tag k="place" v="isolated_dwelling" />
		<tag k="ssr:stedsnr" v="147772" />
	</node>
	<node id="-189424" lat="59.6936388847" lon="10.4161083381">
		<tag k="name" v="Jerdal" />
		<tag k="place" v="farm" />
		<tag k="ssr:stedsnr" v="147765" />
	</node>
	<node id="-189419" lat="59.7508527807" lon="10.4408416651">
		<tag k="alt_name" v="Holmen" />
		<tag k="name" v="Brynsholmen" />
		<tag k="place" v="farm" />
		<tag k="ssr:stedsnr" v="125607" />
	</node>
	<node id="-189418" lat="59.7363805524" lon="10.479438884">
		<tag k="name" v="Gislerudbråten" />
		<tag k="place" v="locality" />
		<tag k="ssr:stedsnr" v="124961" />
	</node>
	<node id="-189417" lat="59.7317861131" lon="10.4612166621">
		<tag k="name" v="Søndre Mortensrud" />
		<tag k="place" v="farm" />
		<tag k="ssr:stedsnr" v="124958" />
	</node>
	<node id="-189414" lat="59.7237332076" lon="10.4404332233">
		<tag k="fixme" v="consider place=hamlet" />
		<tag k="name" v="Haug" />
		<tag k="place" v="farm" />
		<tag k="ssr:stedsnr" v="124759" />
	</node>
	<node id="-189265" lat="59.7377792254" lon="10.3378887172">
		<tag k="fixme" v="consider place=hamlet" />
		<tag k="name" v="Bølstad" />
		<tag k="place" v="farm" />
		<tag k="ssr:stedsnr" v="329401" />
	</node>
	<node id="-189411" lat="59.6919443767" lon="10.4261927617">
		<tag k="fixme" v="consider place=hamlet" />
		<tag k="name" v="Grimsrud" />
		<tag k="place" v="farm" />
		<tag k="ssr:stedsnr" v="124713" />
	</node>
	<node id="-189407" lat="59.7758361149" lon="10.4066694389">
		<tag k="name" v="Øvre Hallenskog" />
		<tag k="place" v="hamlet" />
		<tag k="ssr:stedsnr" v="88539" />
	</node>
	<node id="-189406" lat="59.733558334" lon="10.4019277859">
		<tag k="name" v="Liverudleina" />
		<tag k="place" v="farm" />
		<tag k="ssr:stedsnr" v="88473" />
	</node>
	<node id="-189405" lat="59.7436388909" lon="10.4584555502">
		<tag k="name" v="Gunnerudbråten" />
		<tag k="place" v="isolated_dwelling" />
		<tag k="ssr:stedsnr" v="88434" />
	</node>
	<node id="-189402" lat="59.7144986579" lon="10.4439143848">
		<tag k="name" v="Nordre Flater" />
		<tag k="place" v="farm" />
		<tag k="ssr:stedsnr" v="87920" />
	</node>
	<node id="-189263" lat="59.7427611069" lon="10.3612583417">
		<tag k="name" v="Holmen" />
		<tag k="place" v="isolated_dwelling" />
		<tag k="ssr:stedsnr" v="329403" />
	</node>
	<node id="-189394" lat="59.7155944439" lon="10.3741999965">
		<tag k="name" v="Finnebråten" />
		<tag k="place" v="isolated_dwelling" />
		<tag k="ssr:stedsnr" v="85526" />
	</node>
	<node id="-189391" lat="59.7529638999" lon="10.3875373249">
		<tag k="fixme" v="consider place=hamlet" />
		<tag k="name" v="Kjekstad" />
		<tag k="place" v="farm" />
		<tag k="ssr:stedsnr" v="66630" />
	</node>
	<node id="-189390" lat="59.7754444433" lon="10.4993777694">
		<tag k="name" v="Kirkerud" />
		<tag k="place" v="farm" />
		<tag k="ssr:stedsnr" v="65684" />
	</node>
	<node id="-189389" lat="59.7684298931" lon="10.4935874584">
		<tag k="fixme" v="consider place=hamlet" />
		<tag k="name" v="Morberg" />
		<tag k="place" v="farm" />
		<tag k="ssr:stedsnr" v="65618" />
	</node>
	<node id="-189388" lat="59.7357242684" lon="10.392976763">
		<tag k="fixme" v="consider place=hamlet" />
		<tag k="name" v="Jaksland" />
		<tag k="place" v="farm" />
		<tag k="ssr:stedsnr" v="64961" />
	</node>
	<node id="-189387" lat="59.7107409448" lon="10.4952961274">
		<tag k="fixme" v="consider place=hamlet" />
		<tag k="name" v="Frøtvet" />
		<tag k="place" v="farm" />
		<tag k="ssr:stedsnr" v="64810" />
	</node>
	<node id="-189386" lat="59.7192286336" lon="10.4576354403">
		<tag k="fixme" v="consider place=hamlet" />
		<tag k="name" v="Lund" />
		<tag k="place" v="farm" />
		<tag k="ssr:stedsnr" v="64802" />
	</node>
	<node id="-189384" lat="59.7201361147" lon="10.3798777749">
		<tag k="alt_name" v="Haugene" />
		<tag k="name" v="Haugane" />
		<tag k="place" v="farm" />
		<tag k="ssr:stedsnr" v="64790" />
	</node>
	<node id="-189383" lat="59.7277954003" lon="10.3349964979">
		<tag k="fixme" v="consider place=hamlet" />
		<tag k="name" v="Brøholt" />
		<tag k="place" v="farm" />
		<tag k="ssr:stedsnr" v="64250" />
	</node>
	<node id="-189382" lat="59.7455305518" lon="10.3440666749">
		<tag k="name" v="Oddevall" />
		<tag k="place" v="farm" />
		<tag k="ssr:stedsnr" v="63987" />
	</node>
	<node id="-189381" lat="59.7485433408" lon="10.4597931908">
		<tag k="fixme" v="consider place=hamlet" />
		<tag k="name" v="Grav" />
		<tag k="place" v="farm" />
		<tag k="ssr:stedsnr" v="63941" />
	</node>
	<node id="-189374" lat="59.7678444436" lon="10.4578000052">
		<tag k="name" v="Mellom-Bø" />
		<tag k="place" v="farm" />
		<tag k="ssr:stedsnr" v="27790" />
	</node>
	<node id="-189373" lat="59.7675555591" lon="10.4392944368">
		<tag k="name" v="Stokker" />
		<tag k="place" v="farm" />
		<tag k="ssr:stedsnr" v="27789" />
	</node>
	<node id="-189371" lat="59.7459361095" lon="10.4247333417">
		<tag k="name" v="Grettebråtan" />
		<tag k="place" v="locality" />
		<tag k="ssr:stedsnr" v="27396" />
	</node>
	<node id="-189370" lat="59.7659416684" lon="10.4577444447">
		<tag k="name" v="Søndre Bø" />
		<tag k="place" v="farm" />
		<tag k="ssr:stedsnr" v="27371" />
	</node>
	<node id="-189257" lat="59.7591222196" lon="10.4873694522">
		<tag k="alt_name" v="Labråten" />
		<tag k="name" v="Labråtan" />
		<tag k="place" v="farm" />
		<tag k="ssr:stedsnr" v="308622" />
	</node>
	<node id="-189362" lat="59.7128194453" lon="10.4700527721">
		<tag k="name" v="Petterstua" />
		<tag k="place" v="isolated_dwelling" />
		<tag k="ssr:stedsnr" v="26876" />
	</node>
	<node id="-189360" lat="59.7156027807" lon="10.3633111188">
		<tag k="building" v="industrial" />
		<tag k="industrial" v="factory" />
		<tag k="name" v="Slettevold sag" />
		<tag k="ssr:stedsnr" v="26757" />
	</node>
	<node id="-189359" lat="59.7452666639" lon="10.3717416674">
		<tag k="name" v="Østre Grini" />
		<tag k="place" v="farm" />
		<tag k="ssr:stedsnr" v="26445" />
	</node>
	<node id="-189358" lat="59.7442166691" lon="10.355161103">
		<tag k="name" v="Søndre Askestad" />
		<tag k="place" v="farm" />
		<tag k="ssr:stedsnr" v="26442" />
	</node>
	<node id="-189351" lat="59.7599990302" lon="10.4979003067">
		<tag k="name" v="Nærsnes" />
		<tag k="place" v="hamlet" />
		<tag k="ssr:stedsnr" v="5620" />
	</node>
	<node id="-189350" lat="59.7807368847" lon="10.4970094723">
		<tag k="name" v="Slemmestad" />
		<tag k="place" v="village" />
		<tag k="ssr:stedsnr" v="4674" />
	</node>
	<node id="-189348" lat="59.7378945058" lon="10.4265661558">
		<tag k="fixme" v="consider place=hamlet" />
		<tag k="name" v="Bjørnstad" />
		<tag k="place" v="farm" />
		<tag k="ssr:stedsnr" v="3964" />
	</node>
	<node id="-189347" lat="59.7265916679" lon="10.4863194369">
		<tag k="name" v="Skiskogen" />
		<tag k="place" v="farm" />
		<tag k="ssr:stedsnr" v="3960" />
	</node>
	<node id="-189346" lat="59.7173527753" lon="10.3831583349">
		<tag k="name" v="Dammen" />
		<tag k="place" v="farm" />
		<tag k="ssr:stedsnr" v="3794" />
	</node>
	<node id="-189345" lat="59.7192027995" lon="10.493652358">
		<tag k="fixme" v="consider place=hamlet" />
		<tag k="name" v="Hov" />
		<tag k="place" v="farm" />
		<tag k="ssr:stedsnr" v="3786" />
	</node>
	<node id="-189343" lat="59.6912055581" lon="10.3970249995">
		<tag k="name" v="Hernes" />
		<tag k="place" v="farm" />
		<tag k="ssr:stedsnr" v="3737" />
	</node>
	<node id="-189341" lat="59.7322662872" lon="10.3446591076">
		<tag k="fixme" v="consider place=hamlet" />
		<tag k="name" v="Hekleberg" />
		<tag k="place" v="farm" />
		<tag k="ssr:stedsnr" v="3226" />
	</node>
	<node id="-189340" lat="59.7343427671" lon="10.3336869508">
		<tag k="fixme" v="consider place=hamlet" />
		<tag k="name" v="Torsrud" />
		<tag k="place" v="farm" />
		<tag k="ssr:stedsnr" v="3227" />
	</node>
	<node id="-189331" lat="59.7778706884" lon="10.4862569876">
		<tag k="building" v="commercial" />
		<tag k="name" v="Rortunet kjøpesenter" />
		<tag k="ssr:stedsnr" v="987314" />
	</node>
	<node id="-189251" lat="59.7405659985" lon="10.4917337131">
		<tag k="fixme" v="consider place=hamlet" />
		<tag k="name" v="Bårsrud" />
		<tag k="place" v="farm" />
		<tag k="ssr:stedsnr" v="306967" />
	</node>
	<node id="-189327" lat="59.6963188428" lon="10.4767089486">
		<tag k="name" v="Follestad næringspark" />
		<tag k="place" v="quarter" />
		<tag k="ssr:stedsnr" v="981749" />
	</node>
	<node id="-189495" lat="59.7481972199" lon="10.3231888886">
		<tag k="name" v="Myre" />
		<tag k="place" v="farm" />
		<tag k="ssr:stedsnr" v="427379" />
	</node>
	<node id="-189325" lat="59.7103699341" lon="10.5178140726">
		<tag k="name" v="Årosfjellet" />
		<tag k="place" v="quarter" />
		<tag k="ssr:stedsnr" v="981747" />
	</node>
	<node id="-189323" lat="59.6955861114" lon="10.5239666717">
		<tag k="name" v="Alfheim" />
		<tag k="place" v="isolated_dwelling" />
		<tag k="ssr:stedsnr" v="413699" />
	</node>
	<node id="-189320" lat="59.6887557078" lon="10.5314576992">
		<tag k="fixme" v="consider place=hamlet" />
		<tag k="name" v="Torvøya" />
		<tag k="place" v="farm" />
		<tag k="ssr:stedsnr" v="1072732" />
	</node>
	<node id="-189319" lat="59.7332761646" lon="10.4754405554">
		<tag k="fixme" v="consider place=hamlet" />
		<tag k="name" v="Gislerud" />
		<tag k="place" v="farm" />
		<tag k="ssr:stedsnr" v="1072731" />
	</node>
	<node id="-189318" lat="59.727989682" lon="10.4791308374">
		<tag k="fixme" v="consider place=hamlet" />
		<tag k="name" v="Ski" />
		<tag k="place" v="farm" />
		<tag k="ssr:stedsnr" v="1072730" />
	</node>
	<node id="-189317" lat="59.7320915435" lon="10.4621978997">
		<tag k="fixme" v="consider place=hamlet" />
		<tag k="name" v="Mortensrud" />
		<tag k="place" v="farm" />
		<tag k="ssr:stedsnr" v="1072729" />
	</node>
	<node id="-189316" lat="59.7463505264" lon="10.3714890759">
		<tag k="name" v="Grini" />
		<tag k="place" v="hamlet" />
		<tag k="ssr:stedsnr" v="1072728" />
	</node>
	<node id="-189309" lat="59.7241972179" lon="10.4454194471">
		<tag k="name" v="Gullhaug" />
		<tag k="place" v="farm" />
		<tag k="ssr:stedsnr" v="269926" />
	</node>
	<node id="-189306" lat="59.7621250028" lon="10.4844472191">
		<tag k="name" v="Torvbråten" />
		<tag k="place" v="farm" />
		<tag k="ssr:stedsnr" v="392402" />
	</node>
	<node id="-189247" lat="59.7223944439" lon="10.5130222168">
		<tag k="fixme" v="consider place=suburb, village or hamlet" />
		<tag k="name" v="Båtstø" />
		<tag k="place" v="quarter" />
		<tag k="ssr:stedsnr" v="306772" />
	</node>
	<node id="-189816" lat="59.7371121485" lon="10.3579435356">
		<tag k="fixme" v="consider place=hamlet" />
		<tag k="name" v="Åsåker" />
		<tag k="place" v="farm" />
		<tag k="ssr:stedsnr" v="977439" />
	</node>
	<node id="-189303" lat="59.7344611123" lon="10.4613000034">
		<tag k="name" v="Nordre Mortensrud" />
		<tag k="place" v="farm" />
		<tag k="ssr:stedsnr" v="391520" />
	</node>
	<node id="-189302" lat="59.7473805536" lon="10.4858861173">
		<tag k="name" v="Damstua" />
		<tag k="place" v="isolated_dwelling" />
		<tag k="ssr:stedsnr" v="391490" />
	</node>
	<node id="-189300" lat="59.7621750037" lon="10.4104250071">
		<tag k="name" v="Moserud" />
		<tag k="place" v="isolated_dwelling" />
		<tag k="ssr:stedsnr" v="391405" />
	</node>
	<node id="-189811" lat="59.7362472246" lon="10.3284027696">
		<tag k="alt_name" v="Dagslet" />
		<tag k="name" v="Dagslett" />
		<tag k="place" v="farm" />
		<tag k="ssr:stedsnr" v="950139" />
	</node>
	<node id="-189810" lat="59.7704472202" lon="10.5009416603">
		<tag k="alt_name" v="Grunnvik" />
		<tag k="name" v="Grundvik" />
		<tag k="place" v="isolated_dwelling" />
		<tag k="ssr:stedsnr" v="938845" />
	</node>
	<node id="-189809" lat="59.7676833352" lon="10.4484583345">
		<tag k="name" v="Langsø" />
		<tag k="place" v="farm" />
		<tag k="ssr:stedsnr" v="938786" />
	</node>
	<node id="-189808" lat="59.7275527811" lon="10.5189472263">
		<tag k="name" v="Fagertun" />
		<tag k="place" v="isolated_dwelling" />
		<tag k="ssr:stedsnr" v="937943" />
	</node>
	<node id="-189294" lat="59.7053388893" lon="10.4642805628">
		<tag k="name" v="Nylende" />
		<tag k="place" v="isolated_dwelling" />
		<tag k="ssr:stedsnr" v="390892" />
	</node>
	<node id="-189803" lat="59.7351999998" lon="10.4533111167">
		<tag k="name" v="Ølstadbråten" />
		<tag k="place" v="farm" />
		<tag k="ssr:stedsnr" v="937532" />
	</node>
	<node id="-189290" lat="59.6905555593" lon="10.4146611175">
		<tag k="name" v="Jerdal" />
		<tag k="place" v="farm" />
		<tag k="ssr:stedsnr" v="390771" />
	</node>
	<node id="-189798" lat="59.7358083334" lon="10.3534388901">
		<tag k="alt_name" v="Åsåker" />
		<tag k="name" v="Øvre Åsåker" />
		<tag k="place" v="farm" />
		<tag k="ssr:stedsnr" v="936417" />
	</node>
	<node id="-189284" lat="59.7570111115" lon="10.4639916603">
		<tag k="name" v="Aukeløkka" />
		<tag k="place" v="isolated_dwelling" />
		<tag k="ssr:stedsnr" v="369600" />
	</node>
	<node id="-189793" lat="59.759125004" lon="10.4685000024">
		<tag k="name" v="Østskogen" />
		<tag k="place" v="quarter" />
		<tag k="ssr:stedsnr" v="933243" />
	</node>
	<node id="-189792" lat="59.7765666623" lon="10.460063883">
		<tag k="alt_name" v="Lauvås" />
		<tag k="name" v="Løvås" />
		<tag k="place" v="farm" />
		<tag k="ssr:stedsnr" v="915665" />
	</node>
	<node id="-189791" lat="59.7555999989" lon="10.5127777812">
		<tag k="name" v="Bråtaløkka" />
		<tag k="old_name" v="Bråteløkka" />
		<tag k="place" v="isolated_dwelling" />
		<tag k="ssr:stedsnr" v="915632" />
	</node>
	<node id="-189790" lat="59.7589166629" lon="10.3516722259">
		<tag k="name" v="Åserud" />
		<tag k="place" v="farm" />
		<tag k="ssr:stedsnr" v="915621" />
	</node>
	<node id="-189789" lat="59.7614944424" lon="10.5094305618">
		<tag k="name" v="Nærsnes" />
		<tag k="old_name" v="Nersnes" />
		<tag k="place" v="village" />
		<tag k="ssr:stedsnr" v="915613" />
	</node>
	<node id="-189788" lat="59.7638675987" lon="10.3483153944">
		<tag k="fixme" v="consider place=hamlet" />
		<tag k="name" v="Haukelia" />
		<tag k="place" v="farm" />
		<tag k="ssr:stedsnr" v="915605" />
	</node>
	<node id="-189787" lat="59.7438072816" lon="10.3970285407">
		<tag k="fixme" v="consider place=hamlet" />
		<tag k="name" v="Heggum" />
		<tag k="place" v="farm" />
		<tag k="ssr:stedsnr" v="914016" />
	</node>
	<node id="-189783" lat="59.7159972264" lon="10.3252444437">
		<tag k="name" v="Kustein" />
		<tag k="place" v="isolated_dwelling" />
		<tag k="ssr:stedsnr" v="913277" />
	</node>
	<node id="-189267" lat="59.7162861134" lon="10.3794916664">
		<tag k="name" v="Østre Åsbryn" />
		<tag k="place" v="farm" />
		<tag k="ssr:stedsnr" v="329749" />
	</node>
	<node id="-189777" lat="59.7757583356" lon="10.3980638913">
		<tag k="fixme" v="consider tourism=alpine_hut or tourism=chalet" />
		<tag k="name" v="Blåfjellhytta" />
		<tag k="ssr:stedsnr" v="877624" />
		<tag k="tourism" v="wilderness_hut" />
	</node>
	<node id="-189776" lat="59.7347333293" lon="10.3872666729">
		<tag k="name" v="Jaksland" />
		<tag k="place" v="farm" />
		<tag k="ssr:stedsnr" v="877569" />
	</node>
	<node id="-189775" lat="59.7668055583" lon="10.4870138864">
		<tag k="name" v="Engebråten" />
		<tag k="place" v="isolated_dwelling" />
		<tag k="ssr:stedsnr" v="877380" />
	</node>
	<node id="-189774" lat="59.7073277745" lon="10.4913388909">
		<tag k="name" v="Follestad" />
		<tag k="place" v="farm" />
		<tag k="ssr:stedsnr" v="876961" />
	</node>
	<node id="-189773" lat="59.7221861077" lon="10.5026305546">
		<tag k="name" v="Nordli" />
		<tag k="place" v="isolated_dwelling" />
		<tag k="ssr:stedsnr" v="876955" />
	</node>
	<node id="-189772" lat="59.7157000043" lon="10.5208666694">
		<tag k="name" v="Blåhella" />
		<tag k="place" v="isolated_dwelling" />
		<tag k="ssr:stedsnr" v="876949" />
	</node>
	<node id="-189259" lat="59.7733416654" lon="10.4976277692">
		<tag k="name" v="Berger" />
		<tag k="place" v="isolated_dwelling" />
		<tag k="ssr:stedsnr" v="308659" />
	</node>
	<node id="-189770" lat="59.7377361113" lon="10.4610972194">
		<tag k="name" v="Klemmetsrud" />
		<tag k="place" v="farm" />
		<tag k="ssr:stedsnr" v="876508" />
	</node>
	<node id="-189769" lat="59.7263416698" lon="10.4500611064">
		<tag k="name" v="Sageng" />
		<tag k="place" v="isolated_dwelling" />
		<tag k="ssr:stedsnr" v="876488" />
	</node>
	<node id="-189766" lat="59.7468305583" lon="10.36263612">
		<tag k="name" v="Transet" />
		<tag k="place" v="farm" />
		<tag k="ssr:stedsnr" v="876317" />
	</node>
	<node id="-189253" lat="59.7499166698" lon="10.3617583323">
		<tag k="name" v="Transet" />
		<tag k="place" v="farm" />
		<tag k="ssr:stedsnr" v="307613" />
	</node>
	<node id="-189764" lat="59.7629250037" lon="10.4566527784">
		<tag k="name" v="Sydskogen" />
		<tag k="place" v="quarter" />
		<tag k="ssr:stedsnr" v="872253" />
	</node>
	<node id="-189763" lat="59.7600750008" lon="10.4219749991">
		<tag k="name" v="Nordlihaugen" />
		<tag k="place" v="isolated_dwelling" />
		<tag k="ssr:stedsnr" v="855669" />
	</node>
	<node id="-189250" lat="59.7294100016" lon="10.4675598147">
		<tag k="fixme" v="consider place=hamlet" />
		<tag k="name" v="Hotvet" />
		<tag k="place" v="farm" />
		<tag k="ssr:stedsnr" v="306961" />
	</node>
	<node id="-189760" lat="59.7626333335" lon="10.4838027749">
		<tag k="name" v="Hogstad" />
		<tag k="place" v="farm" />
		<tag k="ssr:stedsnr" v="854613" />
	</node>
	<node id="-189759" lat="59.7620202946" lon="10.4152780174">
		<tag k="fixme" v="consider place=hamlet" />
		<tag k="name" v="Gjellum" />
		<tag k="place" v="farm" />
		<tag k="ssr:stedsnr" v="854610" />
	</node>
	<node id="-189757" lat="59.7387415311" lon="10.4387337626">
		<tag k="name" v="Ølstad" />
		<tag k="place" v="hamlet" />
		<tag k="ssr:stedsnr" v="853968" />
	</node>
	<node id="-189756" lat="59.7280778268" lon="10.5106842253">
		<tag k="fixme" v="consider place=hamlet" />
		<tag k="name" v="Høvik" />
		<tag k="place" v="farm" />
		<tag k="ssr:stedsnr" v="853964" />
	</node>
	<node id="-189755" lat="59.727547221" lon="10.478952778">
		<tag k="name" v="Søndre Ski" />
		<tag k="place" v="farm" />
		<tag k="ssr:stedsnr" v="853961" />
	</node>
	<node id="-189241" lat="59.7796000005" lon="10.4999194456">
		<tag k="name" v="Odden" />
		<tag k="place" v="farm" />
		<tag k="ssr:stedsnr" v="270819" />
	</node>
	<node id="-189752" lat="59.7060999995" lon="10.5109166745">
		<tag k="name" v="Åros" />
		<tag k="place" v="village" />
		<tag k="ssr:stedsnr" v="853796" />
	</node>
	<node id="-189751" lat="59.7170416659" lon="10.428972231">
		<tag k="name" v="Plassen" />
		<tag k="place" v="isolated_dwelling" />
		<tag k="ssr:stedsnr" v="853784" />
	</node>
	<node id="-189238" lat="59.7644194482" lon="10.4377916634">
		<tag k="building" v="industrial" />
		<tag k="name" v="Grodalen mølle" />
		<tag k="ssr:stedsnr" v="270369" />
	</node>
	<node id="-189235" lat="59.7083805537" lon="10.5133611029">
		<tag k="name" v="Store Åros" />
		<tag k="place" v="farm" />
		<tag k="ssr:stedsnr" v="269960" />
	</node>
	<node id="-189264" lat="59.7581277809" lon="10.3482277772">
		<tag k="name" v="Kjos" />
		<tag k="place" v="farm" />
		<tag k="ssr:stedsnr" v="329312" />
	</node>
	<node id="-189745" lat="59.7609861137" lon="10.4953111156">
		<tag k="name" v="Nordre Nærsnes" />
		<tag k="place" v="farm" />
		<tag k="ssr:stedsnr" v="830172" />
	</node>
	<node id="-189743" lat="59.7582361093" lon="10.450494449">
		<tag k="name" v="Åshaug" />
		<tag k="place" v="farm" />
		<tag k="ssr:stedsnr" v="817378" />
	</node>
	<node id="-189742" lat="59.7511027813" lon="10.4566888968">
		<tag k="name" v="Grav" />
		<tag k="place" v="farm" />
		<tag k="ssr:stedsnr" v="817377" />
	</node>
	<node id="-189741" lat="59.7826416636" lon="10.4940055471">
		<tag k="building" v="industrial" />
		<tag k="industrial" v="factory" />
		<tag k="name" v="Slemmestad fabrikker" />
		<tag k="ssr:stedsnr" v="816860" />
	</node>
	<node id="-189738" lat="59.740511112" lon="10.4756749932">
		<tag k="name" v="Smedløkka" />
		<tag k="place" v="isolated_dwelling" />
		<tag k="ssr:stedsnr" v="816531" />
	</node>
	<node id="-189736" lat="59.7610499995" lon="10.4091555525">
		<tag k="name" v="Linnerud" />
		<tag k="place" v="isolated_dwelling" />
		<tag k="ssr:stedsnr" v="816379" />
	</node>
	<node id="-189304" lat="59.7457993817" lon="10.3801630155">
		<tag k="alt_name" v="Prestegård" />
		<tag k="fixme" v="consider place=hamlet" />
		<tag k="name" v="Røyken prestegård" />
		<tag k="place" v="farm" />
		<tag k="ssr:stedsnr" v="391542" />
	</node>
	<node id="-189732" lat="59.6980916648" lon="10.5180972295">
		<tag k="fixme" v="multiple name tags, choose one and add the other to alt_name" />
		<tag k="name" v="Kastet;Underkastet" />
		<tag k="place" v="farm" />
		<tag k="ssr:stedsnr" v="815973" />
	</node>
	<node id="-189730" lat="59.7046583297" lon="10.5145916622">
		<tag k="name" v="Lille Åros" />
		<tag k="place" v="farm" />
		<tag k="ssr:stedsnr" v="815970" />
	</node>
	<node id="-189729" lat="59.7082972233" lon="10.4092388876">
		<tag k="name" v="Herstadheihytta" />
		<tag k="place" v="isolated_dwelling" />
		<tag k="ssr:stedsnr" v="815966" />
	</node>
	<node id="-189728" lat="59.7085833294" lon="10.5227944443">
		<tag k="name" v="Nygård" />
		<tag k="place" v="isolated_dwelling" />
		<tag k="ssr:stedsnr" v="815963" />
	</node>
	<node id="-189727" lat="59.7179138915" lon="10.4637222255">
		<tag k="name" v="Berget" />
		<tag k="place" v="isolated_dwelling" />
		<tag k="ssr:stedsnr" v="815914" />
	</node>
	<node id="-189726" lat="59.716961115" lon="10.363705555">
		<tag k="name" v="Hyggen" />
		<tag k="place" v="isolated_dwelling" />
		<tag k="ssr:stedsnr" v="815804" />
	</node>
	<node id="-189725" lat="59.7173972259" lon="10.3768583304">
		<tag k="name" v="Bakken" />
		<tag k="place" v="isolated_dwelling" />
		<tag k="ssr:stedsnr" v="815791" />
	</node>
	<node id="-189723" lat="59.7529194438" lon="10.3229388893">
		<tag k="name" v="Stutterud" />
		<tag k="place" v="isolated_dwelling" />
		<tag k="ssr:stedsnr" v="815311" />
	</node>
	<node id="-189717" lat="59.7588833292" lon="10.4461861106">
		<tag k="name" v="Fossumbråtan" />
		<tag k="old_name" v="Fossumbråten" />
		<tag k="place" v="farm" />
		<tag k="ssr:stedsnr" v="794661" />
	</node>
	<node id="-189716" lat="59.7581347933" lon="10.3447977393">
		<tag k="fixme" v="consider place=hamlet" />
		<tag k="name" v="Kjos" />
		<tag k="place" v="farm" />
		<tag k="ssr:stedsnr" v="794653" />
	</node>
	<node id="-189714" lat="59.7760722231" lon="10.4228277726">
		<tag k="name" v="Tangen" />
		<tag k="place" v="farm" />
		<tag k="ssr:stedsnr" v="793704" />
	</node>
	<node id="-189712" lat="59.7863944406" lon="10.3583638932">
		<tag k="alt_name" v="Torsbråten" />
		<tag k="name" v="Torsbråtan" />
		<tag k="place" v="isolated_dwelling" />
		<tag k="ssr:stedsnr" v="793692" />
	</node>
	<node id="-189711" lat="59.7687985496" lon="10.4549904036">
		<tag k="alt_name" v="Nordre Bø" />
		<tag k="fixme" v="consider place=hamlet" />
		<tag k="name" v="Bø" />
		<tag k="place" v="farm" />
		<tag k="ssr:stedsnr" v="793661" />
	</node>
	<node id="-189710" lat="59.7518916572" lon="10.3434011771">
		<tag k="fixme" v="consider place=hamlet" />
		<tag k="name" v="Rud" />
		<tag k="place" v="farm" />
		<tag k="ssr:stedsnr" v="793633" />
	</node>
	<node id="-189709" lat="59.7505335779" lon="10.406080872">
		<tag k="fixme" v="consider place=hamlet" />
		<tag k="name" v="Vang" />
		<tag k="place" v="farm" />
		<tag k="ssr:stedsnr" v="793631" />
	</node>
	<node id="-189706" lat="59.7349021968" lon="10.326819861">
		<tag k="alt_name" v="Dagslet" />
		<tag k="fixme" v="consider place=hamlet" />
		<tag k="name" v="Dagslett" />
		<tag k="place" v="farm" />
		<tag k="ssr:stedsnr" v="792247" />
	</node>
	<node id="-189705" lat="59.7453549285" lon="10.3557888276">
		<tag k="fixme" v="consider place=hamlet" />
		<tag k="name" v="Askestad" />
		<tag k="place" v="farm" />
		<tag k="ssr:stedsnr" v="791993" />
	</node>
	<node id="-189697" lat="59.7423805532" lon="10.3942333392">
		<tag k="name" v="Heggum" />
		<tag k="place" v="farm" />
		<tag k="ssr:stedsnr" v="755529" />
	</node>
	<node id="-189696" lat="59.7554861106" lon="10.3979638887">
		<tag k="name" v="Kleiver" />
		<tag k="place" v="isolated_dwelling" />
		<tag k="ssr:stedsnr" v="755376" />
	</node>
	<node id="-189695" lat="59.7549444469" lon="10.5050833408">
		<tag k="amenity" v="school" />
		<tag k="name" v="Nærsnes skole" />
		<tag k="ssr:stedsnr" v="755325" />
	</node>
	<node id="-189690" lat="59.7130111151" lon="10.4542194366">
		<tag k="name" v="Vearhagen" />
		<tag k="place" v="isolated_dwelling" />
		<tag k="ssr:stedsnr" v="754905" />
	</node>
	<node id="-189688" lat="59.71742222" lon="10.3557194501">
		<tag k="name" v="Hyggen" />
		<tag k="place" v="farm" />
		<tag k="ssr:stedsnr" v="754802" />
	</node>
	<node id="-189687" lat="59.7249500013" lon="10.3477111023">
		<tag k="name" v="Nordengen" />
		<tag k="place" v="farm" />
		<tag k="ssr:stedsnr" v="754459" />
	</node>
	<node id="-189681" lat="59.7166555559" lon="10.3730805492">
		<tag k="amenity" v="school" />
		<tag k="name" v="Hyggen skole" />
		<tag k="ssr:stedsnr" v="753414" />
	</node>
	<node id="-189679" lat="59.7439611142" lon="10.3369805564">
		<tag k="name" v="Spikkestad" />
		<tag k="place" v="village" />
		<tag k="ssr:stedsnr" v="752635" />
	</node>
	<node id="-189678" lat="59.7152055542" lon="10.3282111111">
		<tag k="name" v="Stranda" />
		<tag k="place" v="isolated_dwelling" />
		<tag k="ssr:stedsnr" v="752578" />
	</node>
	<node id="-189240" lat="59.7452138891" lon="10.3931361177">
		<tag k="name" v="Løken" />
		<tag k="place" v="isolated_dwelling" />
		<tag k="ssr:stedsnr" v="270524" />
	</node>
	<node id="-189673" lat="59.7542888909" lon="10.3365666717">
		<tag k="name" v="Helgeroa" />
		<tag k="place" v="isolated_dwelling" />
		<tag k="ssr:stedsnr" v="732072" />
	</node>
	<node id="-189672" lat="59.7472416635" lon="10.3883222299">
		<tag k="name" v="Røyken" />
		<tag k="place" v="village" />
		<tag k="ssr:stedsnr" v="731993" />
	</node>
	<node id="-189671" lat="59.7286624585" lon="10.4415562471">
		<tag k="fixme" v="consider place=hamlet" />
		<tag k="name" v="Huseby" />
		<tag k="place" v="farm" />
		<tag k="ssr:stedsnr" v="731961" />
	</node>
	<node id="-189669" lat="59.7178055562" lon="10.4543416696">
		<tag k="name" v="Vangsbråten" />
		<tag k="place" v="farm" />
		<tag k="ssr:stedsnr" v="731790" />
	</node>
	<node id="-189668" lat="59.6923053571" lon="10.4137819862">
		<tag k="fixme" v="consider place=hamlet" />
		<tag k="name" v="Jerdal" />
		<tag k="place" v="farm" />
		<tag k="ssr:stedsnr" v="731744" />
	</node>
	<node id="-189664" lat="59.7035472228" lon="10.5291083262">
		<tag k="name" v="Gråøyhusa" />
		<tag k="place" v="isolated_dwelling" />
		<tag k="ssr:stedsnr" v="725789" />
	</node>
	<node id="-189657" lat="59.7352027785" lon="10.3272916631">
		<tag k="alt_name" v="Dagslet" />
		<tag k="name" v="Dagslett" />
		<tag k="place" v="farm" />
		<tag k="ssr:stedsnr" v="708137" />
	</node>
	<node id="-189655" lat="59.7668722211" lon="10.470194436">
		<tag k="name" v="Dambo" />
		<tag k="place" v="isolated_dwelling" />
		<tag k="ssr:stedsnr" v="695390" />
	</node>
	<node id="-189654" lat="59.7611861122" lon="10.4681194392">
		<tag k="name" v="Eikeleina" />
		<tag k="place" v="isolated_dwelling" />
		<tag k="ssr:stedsnr" v="695385" />
	</node>
	<node id="-189651" lat="59.7258027749" lon="10.5136972182">
		<tag k="name" v="Høvik" />
		<tag k="place" v="farm" />
		<tag k="ssr:stedsnr" v="694939" />
	</node>
	<node id="-189647" lat="59.7612333355" lon="10.4260916743">
		<tag k="name" v="Hajum" />
		<tag k="place" v="farm" />
		<tag k="ssr:stedsnr" v="694354" />
	</node>
	<node id="-189646" lat="59.7754611125" lon="10.3413416721">
		<tag k="fixme" v="consider tourism=alpine_hut or tourism=chalet" />
		<tag k="name" v="R.O.S. hytta" />
		<tag k="ssr:stedsnr" v="694347" />
		<tag k="tourism" v="wilderness_hut" />
	</node>
	<node id="-189644" lat="59.7850036197" lon="10.3237160991">
		<tag k="name" v="Lille Reistadvollen" />
		<tag k="place" v="locality" />
		<tag k="ssr:stedsnr" v="689577" />
	</node>
	<node id="-189643" lat="59.7714388892" lon="10.4185083415">
		<tag k="alt_name" v="Myren" />
		<tag k="name" v="Myra" />
		<tag k="place" v="isolated_dwelling" />
		<tag k="ssr:stedsnr" v="672662" />
	</node>
	<node id="-189642" lat="59.7665786513" lon="10.4297853659">
		<tag k="fixme" v="consider place=hamlet" />
		<tag k="name" v="Rød" />
		<tag k="place" v="farm" />
		<tag k="ssr:stedsnr" v="672602" />
	</node>
	<node id="-189640" lat="59.705202777" lon="10.477072216">
		<tag k="name" v="Sagbakken" />
		<tag k="place" v="farm" />
		<tag k="ssr:stedsnr" v="671797" />
	</node>
	<node id="-189639" lat="59.6982416644" lon="10.4194583262">
		<tag k="name" v="Bølskog" />
		<tag k="place" v="farm" />
		<tag k="ssr:stedsnr" v="671759" />
	</node>
	<node id="-189638" lat="59.7516407374" lon="10.4472803072">
		<tag k="alt_name" v="Åsgård" />
		<tag k="fixme" v="consider place=hamlet" />
		<tag k="name" v="Åsgard" />
		<tag k="place" v="farm" />
		<tag k="ssr:stedsnr" v="671593" />
	</node>
	<node id="-189636" lat="59.7485638916" lon="10.490319444">
		<tag k="name" v="Damstua" />
		<tag k="place" v="isolated_dwelling" />
		<tag k="ssr:stedsnr" v="670953" />
	</node>
	<node id="-189634" lat="59.7196623797" lon="10.3637549543">
		<tag k="name" v="Hyggen" />
		<tag k="place" v="hamlet" />
		<tag k="ssr:stedsnr" v="670761" />
	</node>
	<node id="-189622" lat="59.7398222202" lon="10.436238892">
		<tag k="name" v="Ølstad" />
		<tag k="place" v="farm" />
		<tag k="ssr:stedsnr" v="633516" />
	</node>
	<node id="-189621" lat="59.7293499963" lon="10.4552805544">
		<tag k="name" v="Elvenga" />
		<tag k="place" v="isolated_dwelling" />
		<tag k="ssr:stedsnr" v="633500" />
	</node>
	<node id="-189620" lat="59.7506972192" lon="10.3782666606">
		<tag k="name" v="Hanestad" />
		<tag k="place" v="isolated_dwelling" />
		<tag k="ssr:stedsnr" v="633416" />
	</node>
	<node id="-189619" lat="59.7551361117" lon="10.4060805625">
		<tag k="name" v="Jemtland" />
		<tag k="place" v="farm" />
		<tag k="ssr:stedsnr" v="633412" />
	</node>
	<node id="-189299" lat="59.7632055517" lon="10.4970222147">
		<tag k="name" v="Nordstrand" />
		<tag k="old_name" v="Norstrand" />
		<tag k="place" v="isolated_dwelling" />
		<tag k="ssr:stedsnr" v="391352" />
	</node>
	<node id="-189608" lat="59.7211694456" lon="10.5103694458">
		<tag k="name" v="Løkeberg" />
		<tag k="place" v="farm" />
		<tag k="ssr:stedsnr" v="631677" />
	</node>
	<node id="-189607" lat="59.7012833334" lon="10.3893583344">
		<tag k="name" v="Bakkebråten" />
		<tag k="place" v="isolated_dwelling" />
		<tag k="ssr:stedsnr" v="630811" />
	</node>
	<node id="-189605" lat="59.7586249975" lon="10.5083222297">
		<tag k="name" v="Lund" />
		<tag k="place" v="isolated_dwelling" />
		<tag k="ssr:stedsnr" v="630598" />
	</node>
	<node id="-189604" lat="59.7595861122" lon="10.5075833312">
		<tag k="name" v="Tangehagen" />
		<tag k="place" v="isolated_dwelling" />
		<tag k="ssr:stedsnr" v="611674" />
	</node>
	<node id="-189600" lat="59.7360410573" lon="10.3973907046">
		<tag k="fixme" v="consider place=hamlet" />
		<tag k="name" v="Liverud" />
		<tag k="place" v="farm" />
		<tag k="ssr:stedsnr" v="609966" />
	</node>
	<node id="-189599" lat="59.7473149167" lon="10.4539582859">
		<tag k="fixme" v="consider place=hamlet" />
		<tag k="name" v="Gunnerud" />
		<tag k="place" v="farm" />
		<tag k="ssr:stedsnr" v="609949" />
	</node>
	<node id="-189598" lat="59.7490694442" lon="10.4373166681">
		<tag k="alt_name" v="Bryn" />
		<tag k="name" v="Søndre Bryn" />
		<tag k="place" v="farm" />
		<tag k="ssr:stedsnr" v="609942" />
	</node>
	<node id="-189591" lat="59.7436805565" lon="10.43199166">
		<tag k="name" v="Ølstad" />
		<tag k="place" v="farm" />
		<tag k="ssr:stedsnr" v="573498" />
	</node>
	<node id="-189583" lat="59.7148944447" lon="10.3499916688">
		<tag k="name" v="Vestre Hyggen" />
		<tag k="place" v="farm" />
		<tag k="ssr:stedsnr" v="572817" />
	</node>
	<node id="-189579" lat="59.732219443" lon="10.3231305489">
		<tag k="alt_name" v="Dagslet" />
		<tag k="name" v="Dagslett" />
		<tag k="place" v="farm" />
		<tag k="ssr:stedsnr" v="572437" />
	</node>
	<node id="-189572" lat="59.7624194463" lon="10.4881444436">
		<tag k="name" v="Rydningen" />
		<tag k="place" v="farm" />
		<tag k="ssr:stedsnr" v="570612" />
	</node>
	<node id="-189569" lat="59.7516742306" lon="10.4342077064">
		<tag k="fixme" v="consider place=hamlet" />
		<tag k="name" v="Bryn" />
		<tag k="place" v="farm" />
		<tag k="ssr:stedsnr" v="551506" />
	</node>
	<node id="-189568" lat="59.7780416645" lon="10.4805611194">
		<tag k="name" v="Lillelien" />
		<tag k="place" v="isolated_dwelling" />
		<tag k="ssr:stedsnr" v="550665" />
	</node>
	<node id="-189567" lat="59.7386338333" lon="10.3756343647">
		<tag k="name" v="Auvi" />
		<tag k="place" v="hamlet" />
		<tag k="ssr:stedsnr" v="549942" />
	</node>
	<node id="-189566" lat="59.7133032534" lon="10.4442246357">
		<tag k="alt_name" v="Søndre Flater" />
		<tag k="fixme" v="consider place=hamlet" />
		<tag k="name" v="Flater" />
		<tag k="place" v="farm" />
		<tag k="ssr:stedsnr" v="549785" />
	</node>
	<node id="-189565" lat="59.7285166695" lon="10.3213277825">
		<tag k="name" v="Skogen" />
		<tag k="place" v="isolated_dwelling" />
		<tag k="ssr:stedsnr" v="549260" />
	</node>
	<node id="-189563" lat="59.7473722182" lon="10.3411638814">
		<tag k="name" v="Søndre Rud" />
		<tag k="place" v="farm" />
		<tag k="ssr:stedsnr" v="548371" />
	</node>
	<node id="-189561" lat="59.7454416677" lon="10.5106638864">
		<tag k="name" v="Gabrielsbyen" />
		<tag k="place" v="isolated_dwelling" />
		<tag k="ssr:stedsnr" v="543151" />
	</node>
	<node id="-189558" lat="59.7484749968" lon="10.4906472277">
		<tag k="name" v="Torget" />
		<tag k="place" v="isolated_dwelling" />
		<tag k="ssr:stedsnr" v="513864" />
	</node>
	<node id="-189557" lat="59.7456166629" lon="10.4002833372">
		<tag k="name" v="Heggum" />
		<tag k="place" v="isolated_dwelling" />
		<tag k="ssr:stedsnr" v="512526" />
	</node>
	<node id="-189556" lat="59.7371222246" lon="10.4543277745">
		<tag k="name" v="Grønli" />
		<tag k="place" v="isolated_dwelling" />
		<tag k="ssr:stedsnr" v="512501" />
	</node>
	<node id="-189555" lat="59.7249694426" lon="10.4632416638">
		<tag k="name" v="Hotvet meieri" />
		<tag k="place" v="isolated_dwelling" />
		<tag k="ssr:stedsnr" v="512480" />
	</node>
	<node id="-189554" lat="59.7670111129" lon="10.4330166677">
		<tag k="name" v="Hagen" />
		<tag k="place" v="isolated_dwelling" />
		<tag k="ssr:stedsnr" v="512358" />
	</node>
	<node id="-189545" lat="59.764634555" lon="10.4303851719">
		<tag k="fixme" v="consider place=hamlet" />
		<tag k="name" v="Hajum" />
		<tag k="place" v="farm" />
		<tag k="ssr:stedsnr" v="490629" />
	</node>
	<node id="-189544" lat="59.7506258391" lon="10.3247685194">
		<tag k="fixme" v="consider place=hamlet" />
		<tag k="name" v="Karlsrud" />
		<tag k="place" v="farm" />
		<tag k="ssr:stedsnr" v="489107" />
	</node>
	<node id="-189543" lat="59.7160956717" lon="10.4862878273">
		<tag k="fixme" v="consider place=hamlet" />
		<tag k="name" v="Lingsom" />
		<tag k="place" v="farm" />
		<tag k="ssr:stedsnr" v="488795" />
	</node>
	<node id="-189542" lat="59.7168945108" lon="10.4959931836">
		<tag k="fixme" v="consider place=hamlet" />
		<tag k="name" v="Sundby" />
		<tag k="place" v="farm" />
		<tag k="ssr:stedsnr" v="488793" />
	</node>
	<node id="-189541" lat="59.7167853451" lon="10.4724171532">
		<tag k="fixme" v="consider place=hamlet" />
		<tag k="name" v="Dalebråten" />
		<tag k="place" v="farm" />
		<tag k="ssr:stedsnr" v="488790" />
	</node>
	<node id="-189539" lat="59.7474119659" lon="10.4014419467">
		<tag k="fixme" v="consider place=hamlet" />
		<tag k="name" v="Heggum" />
		<tag k="place" v="farm" />
		<tag k="ssr:stedsnr" v="488993" />
	</node>
	<node id="-189538" lat="59.7458638918" lon="10.3701888891">
		<tag k="name" v="Vestre Grini" />
		<tag k="place" v="farm" />
		<tag k="ssr:stedsnr" v="488992" />
	</node>
	<node id="-189537" lat="59.7408550052" lon="10.5112689081">
		<tag k="fixme" v="consider place=hamlet" />
		<tag k="name" v="Ramton" />
		<tag k="place" v="farm" />
		<tag k="ssr:stedsnr" v="488966" />
	</node>
	<node id="-189536" lat="59.7415962641" lon="10.4255896692">
		<tag k="fixme" v="consider place=hamlet" />
		<tag k="name" v="Grette" />
		<tag k="place" v="farm" />
		<tag k="ssr:stedsnr" v="488963" />
	</node>
	<node id="-189532" lat="59.6997194468" lon="10.4828555626">
		<tag k="name" v="Kølabånn" />
		<tag k="place" v="isolated_dwelling" />
		<tag k="ssr:stedsnr" v="483761" />
	</node>
	<node id="-189229" lat="59.7272999977" lon="10.3260694403">
		<tag k="amenity" v="nursing_home" />
		<tag k="name" v="Brøholt sykehjem" />
		<tag k="ssr:stedsnr" v="269438" />
	</node>
	<node id="-189239" lat="59.7507361155" lon="10.4362722168">
		<tag k="name" v="Nordre Bryn" />
		<tag k="place" v="farm" />
		<tag k="ssr:stedsnr" v="270376" />
	</node>
	<node id="-189280" lat="59.7055277759" lon="10.381377784">
		<tag k="name" v="Steinbråten" />
		<tag k="place" v="isolated_dwelling" />
		<tag k="ssr:stedsnr" v="367787" />
	</node>
	<node id="-189297" lat="59.7573472252" lon="10.4992305641">
		<tag k="name" v="Søndre Nærsnes" />
		<tag k="place" v="farm" />
		<tag k="ssr:stedsnr" v="391338" />
	</node>
	<node id="-189523" lat="59.7411833335" lon="10.4351444364">
		<tag k="name" v="Ølstad" />
		<tag k="place" v="farm" />
		<tag k="ssr:stedsnr" v="452512" />
	</node>
	<node id="-189522" lat="59.766349996" lon="10.4222749954">
		<tag k="name" v="Tronstad" />
		<tag k="place" v="farm" />
		<tag k="ssr:stedsnr" v="452387" />
	</node>
	<node id="-189515" lat="59.7280053714" lon="10.3750010118">
		<tag k="name" v="Guttersrud" />
		<tag k="place" v="hamlet" />
		<tag k="ssr:stedsnr" v="451436" />
	</node>
	<node id="-189513" lat="59.7469919846" lon="10.3325875315">
		<tag k="fixme" v="consider place=hamlet" />
		<tag k="name" v="Spikkestad" />
		<tag k="place" v="farm" />
		<tag k="ssr:stedsnr" v="451337" />
	</node>
	<node id="-189281" lat="59.7388333318" lon="10.3632750018">
		<tag k="alt_name" v="Åsåker" />
		<tag k="name" v="Nedre Åsåker" />
		<tag k="place" v="farm" />
		<tag k="ssr:stedsnr" v="367934" />
	</node>
	<node id="-189507" lat="59.7497472219" lon="10.5126388901">
		<tag k="name" v="Nybråten" />
		<tag k="place" v="farm" />
		<tag k="ssr:stedsnr" v="449640" />
	</node>
	<node id="-189505" lat="59.7411583355" lon="10.4220972275">
		<tag k="fixme" v="consider place=hamlet" />
		<tag k="name" v="Midtbygda" />
		<tag k="place" v="village" />
		<tag k="ssr:stedsnr" v="445989" />
	</node>
	<node id="-189503" lat="59.7727333321" lon="10.3365305535">
		<tag k="name" v="Kjosmyra" />
		<tag k="place" v="farm" />
		<tag k="ssr:stedsnr" v="429162" />
	</node>
	<node id="-189499" lat="59.7114000021" lon="10.3792555547">
		<tag k="name" v="Bukta" />
		<tag k="place" v="farm" />
		<tag k="ssr:stedsnr" v="428801" />
	</node>
	<node id="-189497" lat="59.7439230595" lon="10.3257900676">
		<tag k="fixme" v="consider place=hamlet" />
		<tag k="name" v="Myre" />
		<tag k="place" v="farm" />
		<tag k="ssr:stedsnr" v="428327" />
	</node>
	<node id="-189279" lat="59.7204446283" lon="10.4512245906">
		<tag k="fixme" v="consider place=hamlet" />
		<tag k="name" v="Vear" />
		<tag k="place" v="farm" />
		<tag k="ssr:stedsnr" v="367778" />
	</node>
	<node id="-189296" lat="59.7206777797" lon="10.4970222291">
		<tag k="name" v="Hov" />
		<tag k="place" v="farm" />
		<tag k="ssr:stedsnr" v="390962" />
	</node>
	<node id="-189492" lat="59.7744416644" lon="10.4147249921">
		<tag k="name" v="Hallen" />
		<tag k="place" v="isolated_dwelling" />
		<tag k="ssr:stedsnr" v="247660" />
	</node>
	<node id="-189491" lat="59.7571381995" lon="10.4291422266">
		<tag k="fixme" v="consider place=hamlet" />
		<tag k="name" v="Skryset" />
		<tag k="place" v="farm" />
		<tag k="ssr:stedsnr" v="247626" />
	</node>
	<node id="-189489" lat="59.7636896946" lon="10.4443462951">
		<tag k="fixme" v="consider place=hamlet" />
		<tag k="name" v="Fossum" />
		<tag k="place" v="farm" />
		<tag k="ssr:stedsnr" v="247608" />
	</node>
	<node id="-189487" lat="59.7503969625" lon="10.4653909484">
		<tag k="fixme" v="consider place=hamlet" />
		<tag k="name" v="Auke" />
		<tag k="place" v="farm" />
		<tag k="ssr:stedsnr" v="247574" />
	</node>
	<node id="-189485" lat="59.7422416624" lon="10.4078916588">
		<tag k="name" v="England" />
		<tag k="place" v="farm" />
		<tag k="ssr:stedsnr" v="246932" />
	</node>
	<node id="-189484" lat="59.7370583342" lon="10.4019472236">
		<tag k="alt_name" v="Enga" />
		<tag k="name" v="Engen" />
		<tag k="place" v="farm" />
		<tag k="ssr:stedsnr" v="246933" />
	</node>
	<node id="-189482" lat="59.7104837526" lon="10.4873633058">
		<tag k="fixme" v="consider place=hamlet" />
		<tag k="name" v="Follestad" />
		<tag k="place" v="farm" />
		<tag k="ssr:stedsnr" v="246766" />
	</node>
	<node id="-189481" lat="59.6892480618" lon="10.5189574917">
		<tag k="fixme" v="consider place=hamlet" />
		<tag k="name" v="Beston" />
		<tag k="place" v="farm" />
		<tag k="ssr:stedsnr" v="246728" />
	</node>
	<node id="-189479" lat="59.7453694425" lon="10.4133916591">
		<tag k="amenity" v="school" />
		<tag k="name" v="Midtbygda skole" />
		<tag k="ssr:stedsnr" v="245936" />
	</node>
	<node id="-189476" lat="59.7488222214" lon="10.3336000001">
		<tag k="alt_name" v="Baahus" />
		<tag k="name" v="Båhus" />
		<tag k="place" v="farm" />
		<tag k="ssr:stedsnr" v="239023" />
	</node>
	<node id="-189275" lat="59.7164694481" lon="10.4464249943">
		<tag k="name" v="Flaterveien" />
		<tag k="place" v="farm" />
		<tag k="ssr:stedsnr" v="330937" />
	</node>
	<node id="-189469" lat="59.734705557" lon="10.4486055509">
		<tag k="name" v="Ølstad" />
		<tag k="place" v="farm" />
		<tag k="ssr:stedsnr" v="209429" />
	</node>
	<node id="-189750" lat="59.7219888968" lon="10.346015363">
		<tag k="fixme" v="consider place=hamlet" />
		<tag k="name" v="Ovnerud" />
		<tag k="place" v="farm" />
		<tag k="ssr:stedsnr" v="853766" />
	</node>
	<node id="-189454" lat="59.7603472267" lon="10.4639472165">
		<tag k="fixme" v="consider place=suburb, village or hamlet" />
		<tag k="name" v="Bødalen" />
		<tag k="place" v="quarter" />
		<tag k="ssr:stedsnr" v="205258" />
	</node>
	<node id="-189453" lat="59.7604277765" lon="10.4649999942">
		<tag k="name" v="Foss" />
		<tag k="place" v="farm" />
		<tag k="ssr:stedsnr" v="187610" />
	</node>
	<node id="-189452" lat="59.7556681181" lon="10.4173806414">
		<tag k="alt_name" v="Syltingle" />
		<tag k="fixme" v="consider place=hamlet" />
		<tag k="name" v="Syllingli" />
		<tag k="place" v="farm" />
		<tag k="ssr:stedsnr" v="187605" />
	</node>
	<node id="-189451" lat="59.7626138886" lon="10.514286114">
		<tag k="name" v="Strandheim" />
		<tag k="ssr:stedsnr" v="187593" />
		<tag k="tourism" v="hotel" />
	</node>
	<node id="-189450" lat="59.7703116879" lon="10.4422876826">
		<tag k="alt_name" v="Nordre Stokker" />
		<tag k="fixme" v="consider place=hamlet" />
		<tag k="name" v="Stokker" />
		<tag k="place" v="farm" />
		<tag k="ssr:stedsnr" v="187582" />
	</node>
	<node id="-189276" lat="59.7335472259" lon="10.511747231">
		<tag k="name" v="Høvikvollen" />
		<tag k="place" v="farm" />
		<tag k="ssr:stedsnr" v="330949" />
	</node>
	<node id="-189448" lat="59.7394462626" lon="10.4625464073">
		<tag k="name" v="Klemmetsrud" />
		<tag k="place" v="hamlet" />
		<tag k="ssr:stedsnr" v="185953" />
	</node>
	<node id="-189447" lat="59.7324239826" lon="10.4368534749">
		<tag k="fixme" v="consider place=hamlet" />
		<tag k="name" v="Villingstad" />
		<tag k="place" v="farm" />
		<tag k="ssr:stedsnr" v="185950" />
	</node>
	<node id="-189445" lat="59.7300271726" lon="10.3639875034">
		<tag k="fixme" v="consider place=hamlet" />
		<tag k="name" v="Muserud" />
		<tag k="place" v="farm" />
		<tag k="ssr:stedsnr" v="185946" />
	</node>
	<node id="-189443" lat="59.7403520533" lon="10.3835539479">
		<tag k="fixme" v="consider place=hamlet" />
		<tag k="name" v="Bråset" />
		<tag k="place" v="farm" />
		<tag k="ssr:stedsnr" v="185939" />
	</node>
</osm>
