<?xml version="1.0" encoding="UTF-8"?>
<osm generator="osmapis" version="0.6">
	<node id="-189372" lat="59.7495055519" lon="10.4042999993">
		<tag k="amenity" v="community_centre" />
		<tag k="name" v="Høyenhall" />
		<tag k="ssr:stedsnr" v="27398" />
	</node>
	<node id="-189593" lat="59.7051277788" lon="10.5124000047">
		<tag k="alt_name" v="Åros" />
		<tag k="amenity" v="place_of_worship" />
		<tag k="denomination" v="lutheran" />
		<tag k="name" v="Åros kirke" />
		<tag k="religion" v="christian" />
		<tag k="ssr:stedsnr" v="579862" />
	</node>
	<node id="-189528" lat="59.7607416673" lon="10.4975055625">
		<tag k="alt_name" v="Nærsnes" />
		<tag k="amenity" v="place_of_worship" />
		<tag k="denomination" v="lutheran" />
		<tag k="name" v="Nærsnes kirke" />
		<tag k="religion" v="christian" />
		<tag k="ssr:stedsnr" v="458017" />
	</node>
	<node id="-189301" lat="59.7465166627" lon="10.3866500025">
		<tag k="alt_name" v="Røyken" />
		<tag k="amenity" v="place_of_worship" />
		<tag k="denomination" v="lutheran" />
		<tag k="name" v="Røyken kirke" />
		<tag k="religion" v="christian" />
		<tag k="ssr:stedsnr" v="391409" />
	</node>
	<node id="-189585" lat="59.7108083367" lon="10.4744194482">
		<tag k="name" v="Svingen" />
		<tag k="place" v="locality" />
		<tag k="ssr:stedsnr" v="572907" />
	</node>
	<node id="-189676" lat="59.7783857859" lon="10.4882785918">
		<tag k="alt_name" v="Slemmestad" />
		<tag k="amenity" v="place_of_worship" />
		<tag k="denomination" v="lutheran" />
		<tag k="name" v="Slemmestad kirke" />
		<tag k="religion" v="christian" />
		<tag k="ssr:stedsnr" v="733666" />
	</node>
	<node id="-189508" lat="59.7201472226" lon="10.3659111126">
		<tag k="amenity" v="community_centre" />
		<tag k="name" v="Hyggenhuset" />
		<tag k="ssr:stedsnr" v="450479" />
	</node>
</osm>
