<?xml version="1.0" encoding="UTF-8"?>
<osm generator="osmapis" version="0.6">
	<node id="-189689" lat="59.7063861077" lon="10.4410388852">
		<tag k="name" v="Flatermyra" />
		<tag k="natural" v="wetland" />
		<tag k="ssr:stedsnr" v="754902" />
	</node>
	<node id="-189684" lat="59.7724055565" lon="10.3533722163">
		<tag k="name" v="Langemyr" />
		<tag k="natural" v="wetland" />
		<tag k="ssr:stedsnr" v="754314" />
	</node>
	<node id="-189683" lat="59.7837111074" lon="10.336580557">
		<tag k="name" v="Vikervollmyra" />
		<tag k="natural" v="wetland" />
		<tag k="ssr:stedsnr" v="754306" />
	</node>
	<node id="-189682" lat="59.7830333335" lon="10.3502277805">
		<tag k="name" v="Eftasvælmyr" />
		<tag k="natural" v="wetland" />
		<tag k="ssr:stedsnr" v="754307" />
	</node>
	<node id="-189553" lat="59.7194444429" lon="10.4317944469">
		<tag k="name" v="Rundløkka" />
		<tag k="place" v="locality" />
		<tag k="ssr:stedsnr" v="511955" />
	</node>
	<node id="-189423" lat="59.7855916646" lon="10.340797218">
		<tag k="name" v="Barlindmyr" />
		<tag k="natural" v="wetland" />
		<tag k="old_name" v="Langemyrene" />
		<tag k="ssr:stedsnr" v="147278" />
	</node>
	<node id="-189422" lat="59.7759888918" lon="10.3544194372">
		<tag k="name" v="Bertelsmyra" />
		<tag k="natural" v="wetland" />
		<tag k="ssr:stedsnr" v="126663" />
	</node>
	<node id="-189421" lat="59.7811833333" lon="10.3543916592">
		<tag k="name" v="Kjekstadmarka" />
		<tag k="place" v="locality" />
		<tag k="ssr:stedsnr" v="126653" />
	</node>
	<node id="-189546" lat="59.7803527803" lon="10.3718194487">
		<tag k="name" v="Langemyrene" />
		<tag k="natural" v="wetland" />
		<tag k="ssr:stedsnr" v="511265" />
	</node>
	<node id="-189289" lat="59.7766916695" lon="10.33087778">
		<tag k="name" v="Nordmarka" />
		<tag k="place" v="locality" />
		<tag k="ssr:stedsnr" v="390351" />
	</node>
	<node id="-189287" lat="59.7815194423" lon="10.3450277814">
		<tag k="name" v="Brenningsmyr" />
		<tag k="natural" v="wetland" />
		<tag k="ssr:stedsnr" v="390262" />
	</node>
	<node id="-189613" lat="59.7783166692" lon="10.34015">
		<tag k="historic" v="shieling" />
		<tag k="name" v="Gulluvollen" />
		<tag k="place" v="locality" />
		<tag k="ssr:stedsnr" v="632391" />
	</node>
	<node id="-189285" lat="59.7767444432" lon="10.3253277834">
		<tag k="name" v="Sørummyra" />
		<tag k="natural" v="wetland" />
		<tag k="ssr:stedsnr" v="385624" />
	</node>
	<node id="-189328" lat="59.7848911485" lon="10.3873103311">
		<tag k="name" v="Verkensmåsan" />
		<tag k="natural" v="wetland" />
		<tag k="old_name" v="Verkensmosen" />
		<tag k="ssr:stedsnr" v="186694" />
	</node>
	<node id="-189403" lat="59.6839055574" lon="10.4792000049">
		<tag k="name" v="Moltemyra" />
		<tag k="natural" v="wetland" />
		<tag k="ssr:stedsnr" v="87947" />
	</node>
	<node id="-189525" lat="59.7779222245" lon="10.4429805525">
		<tag k="name" v="Stokkerskogen" />
		<tag k="place" v="locality" />
		<tag k="ssr:stedsnr" v="452789" />
	</node>
	<node id="-189652" lat="59.7063805568" lon="10.388597221">
		<tag k="name" v="Buktemyra" />
		<tag k="natural" v="wetland" />
		<tag k="ssr:stedsnr" v="694952" />
	</node>
	<node id="-189262" lat="59.7951055537" lon="10.3313388863">
		<tag k="name" v="Ormemyr" />
		<tag k="natural" v="wetland" />
		<tag k="ssr:stedsnr" v="329277" />
	</node>
	<node id="-189645" lat="59.7568416644" lon="10.3264138822">
		<tag k="name" v="Karlsrudmyra" />
		<tag k="natural" v="wetland" />
		<tag k="ssr:stedsnr" v="694314" />
	</node>
	<node id="-189514" lat="59.7693805521" lon="10.3257305575">
		<tag k="name" v="Bjørndalsmyr" />
		<tag k="natural" v="wetland" />
		<tag k="ssr:stedsnr" v="451385" />
	</node>
	<node id="-189512" lat="59.7782861083" lon="10.3477361155">
		<tag k="name" v="Karimyr" />
		<tag k="natural" v="wetland" />
		<tag k="ssr:stedsnr" v="451292" />
	</node>
	<node id="-189511" lat="59.7798833288" lon="10.3535916721">
		<tag k="name" v="Fredriksmyr" />
		<tag k="natural" v="wetland" />
		<tag k="ssr:stedsnr" v="451290" />
	</node>
	<node id="-189510" lat="59.7838833311" lon="10.3659583328">
		<tag k="name" v="Oksemyr" />
		<tag k="natural" v="wetland" />
		<tag k="ssr:stedsnr" v="451285" />
	</node>
	<node id="-189509" lat="59.7758444413" lon="10.3741805605">
		<tag k="name" v="Furumyr" />
		<tag k="natural" v="wetland" />
		<tag k="ssr:stedsnr" v="451284" />
	</node>
	<node id="-189305" lat="59.7704833291" lon="10.3866222165">
		<tag k="name" v="Storvomma" />
		<tag k="natural" v="wetland" />
		<tag k="ssr:stedsnr" v="391614" />
	</node>
	<node id="-189627" lat="59.6959694475" lon="10.498805561">
		<tag k="name" v="Frøtvetmosen" />
		<tag k="natural" v="wetland" />
		<tag k="ssr:stedsnr" v="633985" />
	</node>
	<node id="-189623" lat="59.7753944471" lon="10.4629388964">
		<tag k="name" v="Nordmarka" />
		<tag k="place" v="locality" />
		<tag k="ssr:stedsnr" v="633767" />
	</node>
	<node id="-189236" lat="59.7011416708" lon="10.4655027813">
		<tag k="name" v="Vassmyra" />
		<tag k="natural" v="wetland" />
		<tag k="ssr:stedsnr" v="269961" />
	</node>
	<node id="-189490" lat="59.7586027787" lon="10.3776861081">
		<tag k="alt_name" v="Breimosen" />
		<tag k="name" v="Breidmåsan" />
		<tag k="natural" v="wetland" />
		<tag k="ssr:stedsnr" v="247624" />
	</node>
	<node id="-189615" lat="59.717561112" lon="10.4018666709">
		<tag k="name" v="Langmyrene" />
		<tag k="natural" v="wetland" />
		<tag k="ssr:stedsnr" v="632755" />
	</node>
	<node id="-189230" lat="59.6912722232" lon="10.4214722257">
		<tag k="name" v="Setermyra" />
		<tag k="natural" v="wetland" />
		<tag k="ssr:stedsnr" v="269802" />
	</node>
	<node id="-189357" lat="59.7842861147" lon="10.3681972157">
		<tag k="name" v="Tiurmyr" />
		<tag k="natural" v="wetland" />
		<tag k="ssr:stedsnr" v="26282" />
	</node>
	<node id="-189356" lat="59.7865277761" lon="10.3545000034">
		<tag k="name" v="Spengmyrene" />
		<tag k="natural" v="wetland" />
		<tag k="ssr:stedsnr" v="26279" />
	</node>
	<node id="-189739" lat="59.7763361107" lon="10.3831833417">
		<tag k="name" v="Krubba" />
		<tag k="natural" v="wetland" />
		<tag k="ssr:stedsnr" v="816629" />
	</node>
	<node id="-189610" lat="59.7929027793" lon="10.3428861121">
		<tag k="name" v="Åstjernmyr" />
		<tag k="natural" v="wetland" />
		<tag k="ssr:stedsnr" v="632295" />
	</node>
	<node id="-189609" lat="59.7756611091" lon="10.346127774">
		<tag k="name" v="Haukelimyr" />
		<tag k="natural" v="wetland" />
		<tag k="ssr:stedsnr" v="632279" />
	</node>
	<node id="-189733" lat="59.6941888891" lon="10.4457583347">
		<tag k="name" v="Håkallsmyr" />
		<tag k="natural" v="wetland" />
		<tag k="ssr:stedsnr" v="815974" />
	</node>
	<node id="-189468" lat="59.7665305535" lon="10.3787444415">
		<tag k="name" v="Haramyra" />
		<tag k="natural" v="wetland" />
		<tag k="ssr:stedsnr" v="209383" />
	</node>
	<node id="-189722" lat="59.7723861068" lon="10.3625916596">
		<tag k="name" v="Sekkemyra" />
		<tag k="natural" v="wetland" />
		<tag k="ssr:stedsnr" v="815254" />
	</node>
	<node id="-189465" lat="59.7103361152" lon="10.4020777709">
		<tag k="name" v="Breimosan" />
		<tag k="natural" v="wetland" />
		<tag k="ssr:stedsnr" v="208961" />
	</node>
	<node id="-189460" lat="59.765638892" lon="10.3262722277">
		<tag k="name" v="Høymyr" />
		<tag k="natural" v="wetland" />
		<tag k="ssr:stedsnr" v="208339" />
	</node>
	<node id="-189587" lat="59.7118555596" lon="10.3960055496">
		<tag k="name" v="Fuglemyr" />
		<tag k="natural" v="wetland" />
		<tag k="ssr:stedsnr" v="572958" />
	</node>
	<node id="-189458" lat="59.770894448" lon="10.3593694482">
		<tag k="name" v="Oppegårdsmyr" />
		<tag k="natural" v="wetland" />
		<tag k="ssr:stedsnr" v="208266" />
	</node>
	<node id="-189457" lat="59.7777833317" lon="10.3637444478">
		<tag k="name" v="Flatmyr" />
		<tag k="natural" v="wetland" />
		<tag k="ssr:stedsnr" v="208265" />
	</node>
	<node id="-189456" lat="59.784575001" lon="10.3345611072">
		<tag k="historic" v="shieling" />
		<tag k="name" v="Vikervollan" />
		<tag k="place" v="locality" />
		<tag k="ssr:stedsnr" v="208263" />
	</node>
	<node id="-189549" lat="59.7204777795" lon="10.3909638952">
		<tag k="name" v="Skogen" />
		<tag k="natural" v="wetland" />
		<tag k="ssr:stedsnr" v="511767" />
	</node>
	<node id="-189577" lat="59.7681916624" lon="10.3624055559">
		<tag k="name" v="Skjeljamyr" />
		<tag k="natural" v="wetland" />
		<tag k="ssr:stedsnr" v="572297" />
	</node>
	<node id="-189228" lat="59.7677694443" lon="10.3650972254">
		<tag k="name" v="Taraldmyr" />
		<tag k="natural" v="wetland" />
		<tag k="ssr:stedsnr" v="269284" />
	</node>
	<node id="-189614" lat="59.7005138902" lon="10.400555561">
		<tag k="name" v="Geitmyra" />
		<tag k="natural" v="wetland" />
		<tag k="ssr:stedsnr" v="632753" />
	</node>
	<node id="-189611" lat="59.7608222223" lon="10.3688555586">
		<tag k="name" v="Botnemyra" />
		<tag k="natural" v="wetland" />
		<tag k="ssr:stedsnr" v="632348" />
	</node>
</osm>
