<?xml version="1.0" encoding="UTF-8"?>
<osm generator="osmapis" version="0.6">
	<node id="-189427" lat="59.7097638915" lon="10.4066499916">
		<tag k="fixme" v="consider natural=peak for the most distinct mountains in the district" />
		<tag k="name" v="Herstadheia" />
		<tag k="natural" v="hill" />
		<tag k="place" v="locality" />
		<tag k="ssr:stedsnr" v="731791" />
	</node>
	<node id="-189423" lat="59.7174055572" lon="10.3419083301">
		<tag k="fixme" v="consider natural=peak for the most distinct mountains in the district" />
		<tag k="name" v="Kolåsen" />
		<tag k="natural" v="hill" />
		<tag k="place" v="locality" />
		<tag k="ssr:stedsnr" v="731229" />
	</node>
	<node id="-189422" lat="59.7660305579" lon="10.316622228">
		<tag k="fixme" v="consider natural=peak for the most distinct mountains in the district" />
		<tag k="name" v="Bølstadåsen" />
		<tag k="natural" v="hill" />
		<tag k="place" v="locality" />
		<tag k="ssr:stedsnr" v="731148" />
	</node>
	<node id="-189410" lat="59.7103305521" lon="10.417961103">
		<tag k="fixme" v="consider natural=peak for the most distinct mountains in the district" />
		<tag k="name" v="Brentås" />
		<tag k="natural" v="hill" />
		<tag k="place" v="locality" />
		<tag k="ssr:stedsnr" v="694957" />
	</node>
	<node id="-189405" lat="59.7535750039" lon="10.4100250069">
		<tag k="fixme" v="consider natural=peak for the most distinct mountains in the district" />
		<tag k="name" v="Vangsåsen" />
		<tag k="natural" v="hill" />
		<tag k="place" v="locality" />
		<tag k="ssr:stedsnr" v="694363" />
	</node>
	<node id="-189386" lat="59.6982722195" lon="10.5067805532">
		<tag k="fixme" v="consider natural=peak for the most distinct mountains in the district" />
		<tag k="name" v="Kaståsen" />
		<tag k="natural" v="hill" />
		<tag k="place" v="locality" />
		<tag k="ssr:stedsnr" v="645738" />
	</node>
	<node id="-189383" lat="59.6933194464" lon="10.5201861084">
		<tag k="name" v="Skogsborg" />
		<tag k="natural" v="hill" />
		<tag k="place" v="locality" />
		<tag k="ssr:stedsnr" v="633975" />
	</node>
	<node id="-189382" lat="59.72825278" lon="10.4914805549">
		<tag k="fixme" v="consider natural=peak for the most distinct mountains in the district" />
		<tag k="name" v="Skiåsen" />
		<tag k="natural" v="hill" />
		<tag k="place" v="locality" />
		<tag k="ssr:stedsnr" v="633947" />
	</node>
	<node id="-189381" lat="59.7067638934" lon="10.466811103">
		<tag k="fixme" v="consider natural=peak for the most distinct mountains in the district" />
		<tag k="name" v="Bentsås" />
		<tag k="natural" v="hill" />
		<tag k="place" v="locality" />
		<tag k="ssr:stedsnr" v="633926" />
	</node>
	<node id="-189374" lat="59.7004722191" lon="10.4925583325">
		<tag k="fixme" v="consider natural=peak for the most distinct mountains in the district" />
		<tag k="name" v="Margrethes ås" />
		<tag k="natural" v="hill" />
		<tag k="place" v="locality" />
		<tag k="ssr:stedsnr" v="632930" />
	</node>
	<node id="-189373" lat="59.6828555522" lon="10.4738805534">
		<tag k="name" v="Bjørvannsdalen" />
		<tag k="natural" v="valley" />
		<tag k="place" v="locality" />
		<tag k="ssr:stedsnr" v="632769" />
	</node>
	<node id="-189369" lat="59.7790638913" lon="10.3401611132">
		<tag k="name" v="Brenningsdalen" />
		<tag k="natural" v="valley" />
		<tag k="place" v="locality" />
		<tag k="ssr:stedsnr" v="632390" />
	</node>
	<node id="-189363" lat="59.7033500032" lon="10.3943305605">
		<tag k="fixme" v="consider natural=peak for the most distinct mountains in the district" />
		<tag k="name" v="Brudeberget" />
		<tag k="natural" v="hill" />
		<tag k="place" v="locality" />
		<tag k="ssr:stedsnr" v="630809" />
	</node>
	<node id="-189359" lat="59.76176111" lon="10.3380277822">
		<tag k="fixme" v="consider natural=peak for the most distinct mountains in the district" />
		<tag k="name" v="Brenninga" />
		<tag k="natural" v="hill" />
		<tag k="place" v="locality" />
		<tag k="ssr:stedsnr" v="610068" />
	</node>
	<node id="-189358" lat="59.7432944443" lon="10.452588884">
		<tag k="fixme" v="consider natural=peak for the most distinct mountains in the district" />
		<tag k="name" v="Gunnerudåsen" />
		<tag k="natural" v="hill" />
		<tag k="place" v="locality" />
		<tag k="ssr:stedsnr" v="609969" />
	</node>
	<node id="-188999" lat="59.7163972213" lon="10.5024888858">
		<tag k="fixme" v="consider natural=peak for the most distinct mountains in the district" />
		<tag k="name" v="Sundbyåsen" />
		<tag k="natural" v="hill" />
		<tag k="place" v="locality" />
		<tag k="ssr:stedsnr" v="269950" />
	</node>
	<node id="-189347" lat="59.7398388925" lon="10.4803749954">
		<tag k="name" v="Vassdalen" />
		<tag k="natural" v="valley" />
		<tag k="place" v="locality" />
		<tag k="ssr:stedsnr" v="573479" />
	</node>
	<node id="-189346" lat="59.7654416692" lon="10.3948944445">
		<tag k="fixme" v="consider natural=peak for the most distinct mountains in the district" />
		<tag k="name" v="Huldreåsen" />
		<tag k="natural" v="hill" />
		<tag k="place" v="locality" />
		<tag k="ssr:stedsnr" v="573355" />
	</node>
	<node id="-189345" lat="59.7049166695" lon="10.4981777815">
		<tag k="fixme" v="consider natural=peak for the most distinct mountains in the district" />
		<tag k="name" v="Frøtvetåsen" />
		<tag k="natural" v="hill" />
		<tag k="place" v="locality" />
		<tag k="ssr:stedsnr" v="572967" />
	</node>
	<node id="-189343" lat="59.6906527781" lon="10.4502444508">
		<tag k="fixme" v="consider natural=peak for the most distinct mountains in the district" />
		<tag k="name" v="Sjursås" />
		<tag k="natural" v="hill" />
		<tag k="place" v="locality" />
		<tag k="ssr:stedsnr" v="572956" />
	</node>
	<node id="-188997" lat="59.7000388898" lon="10.5007138838">
		<tag k="fixme" v="consider natural=peak for the most distinct mountains in the district" />
		<tag k="name" v="Kjelleråsen" />
		<tag k="natural" v="hill" />
		<tag k="place" v="locality" />
		<tag k="ssr:stedsnr" v="269936" />
	</node>
	<node id="-189339" lat="59.7190500037" lon="10.3698666639">
		<tag k="fixme" v="consider natural=peak for the most distinct mountains in the district" />
		<tag k="name" v="Langkilåsen" />
		<tag k="natural" v="hill" />
		<tag k="place" v="locality" />
		<tag k="ssr:stedsnr" v="572813" />
	</node>
	<node id="-189337" lat="59.6912722232" lon="10.4214722257">
		<tag k="fixme" v="consider natural=peak for the most distinct mountains in the district" />
		<tag k="name" v="Herningsåsen" />
		<tag k="natural" v="hill" />
		<tag k="place" v="locality" />
		<tag k="ssr:stedsnr" v="572800" />
	</node>
	<node id="-189335" lat="59.7708083342" lon="10.3699777728">
		<tag k="name" v="Trangeberga" />
		<tag k="natural" v="hill" />
		<tag k="place" v="locality" />
		<tag k="ssr:stedsnr" v="572389" />
	</node>
	<node id="-189321" lat="59.7587805589" lon="10.3177250008">
		<tag k="fixme" v="consider natural=peak for the most distinct mountains in the district" />
		<tag k="name" v="Gyriåsen" />
		<tag k="natural" v="hill" />
		<tag k="place" v="locality" />
		<tag k="ssr:stedsnr" v="549081" />
	</node>
	<node id="-189317" lat="59.7454416651" lon="10.5050222264">
		<tag k="name" v="Gabrielsrabbane" />
		<tag k="natural" v="hill" />
		<tag k="place" v="locality" />
		<tag k="ssr:stedsnr" v="543116" />
	</node>
	<node id="-189309" lat="59.6917472204" lon="10.4726444475">
		<tag k="name" v="Smedmyrdalen" />
		<tag k="natural" v="valley" />
		<tag k="place" v="locality" />
		<tag k="ssr:stedsnr" v="511956" />
	</node>
	<node id="-189308" lat="59.7095138847" lon="10.399138885">
		<tag k="name" v="Fuglemyrdalen" />
		<tag k="natural" v="valley" />
		<tag k="place" v="locality" />
		<tag k="ssr:stedsnr" v="511950" />
	</node>
	<node id="-189307" lat="59.7025111127" lon="10.4024027708">
		<tag k="fixme" v="consider natural=peak for the most distinct mountains in the district" />
		<tag k="name" v="Geitmyråsen" />
		<tag k="natural" v="hill" />
		<tag k="place" v="locality" />
		<tag k="ssr:stedsnr" v="511771" />
	</node>
	<node id="-189304" lat="59.7334305541" lon="10.3727555482">
		<tag k="fixme" v="consider natural=peak for the most distinct mountains in the district" />
		<tag k="name" v="Kalvåsen" />
		<tag k="natural" v="hill" />
		<tag k="place" v="locality" />
		<tag k="ssr:stedsnr" v="511408" />
	</node>
	<node id="-189292" lat="59.7307555576" lon="10.3979916703">
		<tag k="fixme" v="consider natural=peak for the most distinct mountains in the district" />
		<tag k="name" v="Storåsen" />
		<tag k="natural" v="hill" />
		<tag k="place" v="locality" />
		<tag k="ssr:stedsnr" v="488955" />
	</node>
	<node id="-189291" lat="59.7188305567" lon="10.3273250013">
		<tag k="fixme" v="consider natural=peak for the most distinct mountains in the district" />
		<tag k="name" v="Kaståsen" />
		<tag k="natural" v="hill" />
		<tag k="place" v="locality" />
		<tag k="ssr:stedsnr" v="488237" />
	</node>
	<node id="-189290" lat="59.7209222208" lon="10.3327194493">
		<tag k="alt_name" v="Bjørndalen" />
		<tag k="name" v="Bjønndalen" />
		<tag k="natural" v="valley" />
		<tag k="place" v="locality" />
		<tag k="ssr:stedsnr" v="488236" />
	</node>
	<node id="-189286" lat="59.6931444439" lon="10.5097999953">
		<tag k="name" v="Bestonkollen" />
		<tag k="natural" v="hill" />
		<tag k="place" v="locality" />
		<tag k="ssr:stedsnr" v="464777" />
	</node>
	<node id="-189284" lat="59.7463083326" lon="10.504516663">
		<tag k="alt_name" v="Flåta" />
		<tag k="fixme" v="consider natural=peak for the most distinct mountains in the district" />
		<tag k="name" v="Flådda" />
		<tag k="natural" v="hill" />
		<tag k="place" v="locality" />
		<tag k="ssr:stedsnr" v="452856" />
	</node>
	<node id="-189277" lat="59.6815305578" lon="10.4524999932">
		<tag k="name" v="Grauteruddalen" />
		<tag k="natural" v="valley" />
		<tag k="place" v="locality" />
		<tag k="ssr:stedsnr" v="451960" />
	</node>
	<node id="-189276" lat="59.6910111142" lon="10.487297219">
		<tag k="fixme" v="consider natural=peak for the most distinct mountains in the district" />
		<tag k="name" v="Rømmegrøtkleivåsen" />
		<tag k="natural" v="hill" />
		<tag k="place" v="locality" />
		<tag k="ssr:stedsnr" v="451953" />
	</node>
	<node id="-189275" lat="59.7226055596" lon="10.4855277821">
		<tag k="name" v="Røykedalen" />
		<tag k="natural" v="valley" />
		<tag k="place" v="locality" />
		<tag k="ssr:stedsnr" v="451925" />
	</node>
	<node id="-189274" lat="59.7180750038" lon="10.3480000049">
		<tag k="name" v="Ovnerudfloget" />
		<tag k="natural" v="cliff" />
		<tag k="ssr:stedsnr" v="451809" />
	</node>
	<node id="-189273" lat="59.7177999988" lon="10.3931416595">
		<tag k="name" v="Slåttemyrdalen" />
		<tag k="natural" v="valley" />
		<tag k="place" v="locality" />
		<tag k="ssr:stedsnr" v="451808" />
	</node>
	<node id="-189257" lat="59.7063500016" lon="10.4317833293">
		<tag k="alt_name" v="Bjønnmyråsen" />
		<tag k="fixme" v="consider natural=peak for the most distinct mountains in the district" />
		<tag k="name" v="Bjørnmyråsen" />
		<tag k="natural" v="hill" />
		<tag k="place" v="locality" />
		<tag k="ssr:stedsnr" v="428809" />
	</node>
	<node id="-189251" lat="59.7109416667" lon="10.5163972188">
		<tag k="fixme" v="consider natural=peak for the most distinct mountains in the district" />
		<tag k="name" v="Årosfjellet" />
		<tag k="natural" v="hill" />
		<tag k="place" v="locality" />
		<tag k="ssr:stedsnr" v="423756" />
	</node>
	<node id="-189224" lat="59.6970527754" lon="10.4870250012">
		<tag k="name" v="Torget" />
		<tag k="place" v="locality" />
		<tag k="ssr:stedsnr" v="208969" />
	</node>
	<node id="-189220" lat="59.7171805584" lon="10.3219055613">
		<tag k="name" v="Høylandshulen" />
		<tag k="place" v="locality" />
		<tag k="ssr:stedsnr" v="208802" />
	</node>
	<node id="-189216" lat="59.7931249974" lon="10.3300444478">
		<tag k="fixme" v="consider natural=peak for the most distinct mountains in the district" />
		<tag k="name" v="Heggsjøåsen" />
		<tag k="natural" v="hill" />
		<tag k="place" v="locality" />
		<tag k="ssr:stedsnr" v="208280" />
	</node>
	<node id="-189203" lat="59.7266833331" lon="10.351672219">
		<tag k="fixme" v="consider natural=peak for the most distinct mountains in the district" />
		<tag k="name" v="Høgåsen" />
		<tag k="natural" v="hill" />
		<tag k="place" v="locality" />
		<tag k="ssr:stedsnr" v="185947" />
	</node>
	<node id="-189201" lat="59.7480083333" lon="10.4164444377">
		<tag k="fixme" v="consider natural=peak for the most distinct mountains in the district" />
		<tag k="name" v="Gleinåsen" />
		<tag k="natural" v="hill" />
		<tag k="place" v="locality" />
		<tag k="ssr:stedsnr" v="185941" />
	</node>
	<node id="-189199" lat="59.710141668" lon="10.4597249917">
		<tag k="alt_name" v="Elgskogåsen" />
		<tag k="fixme" v="consider natural=peak for the most distinct mountains in the district" />
		<tag k="name" v="Elgskauåsen" />
		<tag k="natural" v="hill" />
		<tag k="place" v="locality" />
		<tag k="ssr:stedsnr" v="185780" />
	</node>
	<node id="-189193" lat="59.7693194425" lon="10.468611115">
		<tag k="fixme" v="consider natural=peak for the most distinct mountains in the district" />
		<tag k="name" v="Bøsnipa" />
		<tag k="natural" v="hill" />
		<tag k="place" v="locality" />
		<tag k="ssr:stedsnr" v="148759" />
	</node>
	<node id="-189192" lat="59.7340638863" lon="10.4264388917">
		<tag k="name" v="Bjørnstaddalen" />
		<tag k="natural" v="valley" />
		<tag k="place" v="locality" />
		<tag k="ssr:stedsnr" v="148545" />
	</node>
	<node id="-189191" lat="59.7357694466" lon="10.4893833322">
		<tag k="alt_name" v="Teigen" />
		<tag k="name" v="Telgen" />
		<tag k="natural" v="valley" />
		<tag k="place" v="locality" />
		<tag k="ssr:stedsnr" v="148518" />
	</node>
	<node id="-189187" lat="59.6821555548" lon="10.460786103">
		<tag k="name" v="Uredalen" />
		<tag k="natural" v="valley" />
		<tag k="place" v="locality" />
		<tag k="ssr:stedsnr" v="147956" />
	</node>
	<node id="-189186" lat="59.7109472224" lon="10.3951277785">
		<tag k="name" v="Buktevarden" />
		<tag k="natural" v="hill" />
		<tag k="place" v="locality" />
		<tag k="ssr:stedsnr" v="147942" />
	</node>
	<node id="-189185" lat="59.7259583338" lon="10.4937361057">
		<tag k="fixme" v="consider natural=peak for the most distinct mountains in the district" />
		<tag k="name" v="Hovåsen" />
		<tag k="natural" v="hill" />
		<tag k="place" v="locality" />
		<tag k="ssr:stedsnr" v="147920" />
	</node>
	<node id="-189177" lat="59.6778444425" lon="10.4681138934">
		<tag k="fixme" v="consider natural=peak for the most distinct mountains in the district" />
		<tag k="name" v="Kuven" />
		<tag k="natural" v="hill" />
		<tag k="place" v="locality" />
		<tag k="ssr:stedsnr" v="125863" />
	</node>
	<node id="-189173" lat="59.7290499979" lon="10.3836611109">
		<tag k="fixme" v="consider natural=peak for the most distinct mountains in the district" />
		<tag k="name" v="Hollenderen" />
		<tag k="natural" v="hill" />
		<tag k="place" v="locality" />
		<tag k="ssr:stedsnr" v="124956" />
	</node>
	<node id="-189170" lat="59.6870138857" lon="10.4750583244">
		<tag k="fixme" v="consider natural=peak for the most distinct mountains in the district" />
		<tag k="name" v="Smedmyråsen" />
		<tag k="natural" v="hill" />
		<tag k="place" v="locality" />
		<tag k="ssr:stedsnr" v="124722" />
	</node>
	<node id="-189157" lat="59.7335361134" lon="10.368538892">
		<tag k="fixme" v="consider natural=peak for the most distinct mountains in the district" />
		<tag k="name" v="Muserudåsen" />
		<tag k="natural" v="hill" />
		<tag k="place" v="locality" />
		<tag k="ssr:stedsnr" v="87414" />
	</node>
	<node id="-189155" lat="59.7469166704" lon="10.329875001">
		<tag k="name" v="Ulverud" />
		<tag k="natural" v="valley" />
		<tag k="place" v="locality" />
		<tag k="ssr:stedsnr" v="87331" />
	</node>
	<node id="-189149" lat="59.7600972234" lon="10.3597527701">
		<tag k="fixme" v="consider natural=peak for the most distinct mountains in the district" />
		<tag k="name" v="Ringåsen" />
		<tag k="natural" v="hill" />
		<tag k="place" v="locality" />
		<tag k="ssr:stedsnr" v="66632" />
	</node>
	<node id="-189559" lat="59.7326717072" lon="10.4868343746">
		<tag k="fixme" v="consider natural=peak for the most distinct mountains in the district" />
		<tag k="name" v="Skiåsen" />
		<tag k="natural" v="hill" />
		<tag k="place" v="locality" />
		<tag k="ssr:stedsnr" v="937529" />
	</node>
	<node id="-189124" lat="59.6844027742" lon="10.4813083265">
		<tag k="fixme" v="consider natural=peak for the most distinct mountains in the district" />
		<tag k="name" v="Skånevannsåsen" />
		<tag k="natural" v="hill" />
		<tag k="place" v="locality" />
		<tag k="ssr:stedsnr" v="26957" />
	</node>
	<node id="-189121" lat="59.7360750035" lon="10.5092944421">
		<tag k="fixme" v="consider natural=peak for the most distinct mountains in the district" />
		<tag k="name" v="Ulaåsen" />
		<tag k="natural" v="hill" />
		<tag k="place" v="locality" />
		<tag k="ssr:stedsnr" v="26916" />
	</node>
	<node id="-189120" lat="59.703011111" lon="10.4662722247">
		<tag k="fixme" v="consider natural=peak for the most distinct mountains in the district" />
		<tag k="name" v="Vassmyråsen" />
		<tag k="natural" v="hill" />
		<tag k="place" v="locality" />
		<tag k="ssr:stedsnr" v="26877" />
	</node>
	<node id="-189118" lat="59.7121972182" lon="10.3587277741">
		<tag k="fixme" v="consider natural=peak for the most distinct mountains in the district" />
		<tag k="name" v="Helgåsen" />
		<tag k="natural" v="hill" />
		<tag k="place" v="locality" />
		<tag k="ssr:stedsnr" v="26760" />
	</node>
	<node id="-189110" lat="59.7807694418" lon="10.4757861184">
		<tag k="name" v="Almedalen" />
		<tag k="natural" v="valley" />
		<tag k="place" v="locality" />
		<tag k="ssr:stedsnr" v="22630" />
	</node>
	<node id="-189109" lat="59.7689166662" lon="10.4247666705">
		<tag k="fixme" v="consider natural=peak for the most distinct mountains in the district" />
		<tag k="name" v="Rødåsen" />
		<tag k="natural" v="hill" />
		<tag k="place" v="locality" />
		<tag k="ssr:stedsnr" v="5656" />
	</node>
	<node id="-189106" lat="59.7290944415" lon="10.4044583283">
		<tag k="fixme" v="consider natural=peak for the most distinct mountains in the district" />
		<tag k="name" v="Høgåsen" />
		<tag k="natural" v="hill" />
		<tag k="place" v="locality" />
		<tag k="ssr:stedsnr" v="4007" />
	</node>
	<node id="-189099" lat="59.7231055518" lon="10.3410749985">
		<tag k="name" v="Ovnerudåsen" />
		<tag k="natural" v="hill" />
		<tag k="place" v="locality" />
		<tag k="ssr:stedsnr" v="3243" />
	</node>
	<node id="-189060" lat="59.691147218" lon="10.4678361165">
		<tag k="fixme" v="consider natural=peak for the most distinct mountains in the district" />
		<tag k="name" v="Setervannsåsen" />
		<tag k="natural" v="hill" />
		<tag k="place" v="locality" />
		<tag k="ssr:stedsnr" v="390949" />
	</node>
	<node id="-189058" lat="59.7031166682" lon="10.4608888974">
		<tag k="fixme" v="consider natural=peak for the most distinct mountains in the district" />
		<tag k="name" v="Røysåsen" />
		<tag k="natural" v="hill" />
		<tag k="place" v="locality" />
		<tag k="ssr:stedsnr" v="390890" />
	</node>
	<node id="-189056" lat="59.7163138887" lon="10.3204944507">
		<tag k="name" v="Lauton" />
		<tag k="natural" v="slope" />
		<tag k="place" v="locality" />
		<tag k="ssr:stedsnr" v="390782" />
	</node>
	<node id="-189053" lat="59.7711722184" lon="10.3621777863">
		<tag k="fixme" v="consider natural=peak for the most distinct mountains in the district" />
		<tag k="name" v="Skjæråsen" />
		<tag k="natural" v="hill" />
		<tag k="place" v="locality" />
		<tag k="ssr:stedsnr" v="390352" />
	</node>
	<node id="-189563" lat="59.7307305518" lon="10.496902769">
		<tag k="name" v="Mastedalen" />
		<tag k="natural" v="valley" />
		<tag k="place" v="locality" />
		<tag k="ssr:stedsnr" v="937938" />
	</node>
	<node id="-189562" lat="59.7180833344" lon="10.4452944362">
		<tag k="fixme" v="consider natural=peak for the most distinct mountains in the district" />
		<tag k="name" v="Gullåsen" />
		<tag k="natural" v="hill" />
		<tag k="place" v="locality" />
		<tag k="ssr:stedsnr" v="937931" />
	</node>
	<node id="-189561" lat="59.7261194425" lon="10.3855055544">
		<tag k="name" v="Mastedalen" />
		<tag k="natural" v="valley" />
		<tag k="place" v="locality" />
		<tag k="ssr:stedsnr" v="937570" />
	</node>
	<node id="-189048" lat="59.771644446" lon="10.354786117">
		<tag k="fixme" v="consider natural=peak for the most distinct mountains in the district" />
		<tag k="name" v="Haukeliåsen" />
		<tag k="natural" v="hill" />
		<tag k="place" v="locality" />
		<tag k="ssr:stedsnr" v="368714" />
	</node>
	<node id="-189047" lat="59.7478749967" lon="10.4773333357">
		<tag k="fixme" v="consider natural=peak for the most distinct mountains in the district" />
		<tag k="name" v="Aukeåsen" />
		<tag k="natural" v="hill" />
		<tag k="place" v="locality" />
		<tag k="ssr:stedsnr" v="367943" />
	</node>
	<node id="-189558" lat="59.7021305528" lon="10.461252777">
		<tag k="fixme" v="consider natural=peak for the most distinct mountains in the district" />
		<tag k="name" v="Røysåsen" />
		<tag k="natural" v="hill" />
		<tag k="place" v="locality" />
		<tag k="ssr:stedsnr" v="936959" />
	</node>
	<node id="-189557" lat="59.6831222234" lon="10.4977916719">
		<tag k="fixme" v="consider natural=peak for the most distinct mountains in the district" />
		<tag k="name" v="Trappesteinåsen" />
		<tag k="natural" v="hill" />
		<tag k="place" v="locality" />
		<tag k="ssr:stedsnr" v="936919" />
	</node>
	<node id="-189043" lat="59.6836186937" lon="10.5029223489">
		<tag k="alt_name" v="Kongens dal" />
		<tag k="name" v="Kongensdal" />
		<tag k="natural" v="valley" />
		<tag k="place" v="locality" />
		<tag k="ssr:stedsnr" v="367758" />
	</node>
	<node id="-189554" lat="59.7620666624" lon="10.3320638825">
		<tag k="fixme" v="consider natural=peak for the most distinct mountains in the district" />
		<tag k="name" v="Furumo" />
		<tag k="natural" v="hill" />
		<tag k="place" v="locality" />
		<tag k="ssr:stedsnr" v="936317" />
	</node>
	<node id="-189553" lat="59.7879305588" lon="10.3372111105">
		<tag k="fixme" v="consider natural=peak for the most distinct mountains in the district" />
		<tag k="name" v="Vikervollåsen" />
		<tag k="natural" v="hill" />
		<tag k="place" v="locality" />
		<tag k="ssr:stedsnr" v="936251" />
	</node>
	<node id="-189038" lat="59.7251027737" lon="10.4286694429">
		<tag k="fixme" v="consider natural=peak for the most distinct mountains in the district" />
		<tag k="name" v="Tjuvekollen" />
		<tag k="natural" v="hill" />
		<tag k="place" v="locality" />
		<tag k="ssr:stedsnr" v="330540" />
	</node>
	<node id="-189036" lat="59.7181277786" lon="10.4322500001">
		<tag k="fixme" v="consider natural=peak for the most distinct mountains in the district" />
		<tag k="name" v="Kapteinåsen" />
		<tag k="natural" v="hill" />
		<tag k="place" v="locality" />
		<tag k="ssr:stedsnr" v="329967" />
	</node>
	<node id="-189035" lat="59.6969388897" lon="10.4555722265">
		<tag k="fixme" v="consider natural=peak for the most distinct mountains in the district" />
		<tag k="name" v="Svartvannsåsen" />
		<tag k="natural" v="hill" />
		<tag k="place" v="locality" />
		<tag k="ssr:stedsnr" v="329959" />
	</node>
	<node id="-189034" lat="59.6952194429" lon="10.5073166655">
		<tag k="name" v="Kirkeberget" />
		<tag k="natural" v="hill" />
		<tag k="place" v="locality" />
		<tag k="ssr:stedsnr" v="329958" />
	</node>
	<node id="-189033" lat="59.7126611078" lon="10.3735944457">
		<tag k="name" v="Høgda" />
		<tag k="natural" v="hill" />
		<tag k="place" v="locality" />
		<tag k="ssr:stedsnr" v="329770" />
	</node>
	<node id="-189025" lat="59.7813820367" lon="10.3254474759">
		<tag k="name" v="Åsmyrbakkane" />
		<tag k="natural" v="slope" />
		<tag k="place" v="locality" />
		<tag k="ssr:stedsnr" v="324604" />
	</node>
	<node id="-189023" lat="59.7744750015" lon="10.4430805641">
		<tag k="fixme" v="consider natural=peak for the most distinct mountains in the district" />
		<tag k="name" v="Stokkeråsen" />
		<tag k="natural" v="hill" />
		<tag k="place" v="locality" />
		<tag k="ssr:stedsnr" v="308650" />
	</node>
	<node id="-189017" lat="59.6894805571" lon="10.4436472265">
		<tag k="fixme" v="consider natural=peak for the most distinct mountains in the district" />
		<tag k="name" v="Vardåsen" />
		<tag k="natural" v="hill" />
		<tag k="place" v="locality" />
		<tag k="ssr:stedsnr" v="307014" />
	</node>
	<node id="-189528" lat="59.7166361156" lon="10.3440000003">
		<tag k="name" v="Ugledalen" />
		<tag k="natural" v="valley" />
		<tag k="place" v="locality" />
		<tag k="ssr:stedsnr" v="876803" />
	</node>
	<node id="-189014" lat="59.7058749974" lon="10.4489305514">
		<tag k="alt_name" v="Igletjernsåsen" />
		<tag k="fixme" v="consider natural=peak for the most distinct mountains in the district" />
		<tag k="name" v="Eglevannsåsen" />
		<tag k="natural" v="hill" />
		<tag k="place" v="locality" />
		<tag k="ssr:stedsnr" v="306788" />
	</node>
	<node id="-189524" lat="59.7640027777" lon="10.3701222235">
		<tag k="name" v="Svartedike" />
		<tag k="natural" v="valley" />
		<tag k="place" v="locality" />
		<tag k="ssr:stedsnr" v="876319" />
	</node>
	<node id="-189511" lat="59.6791611086" lon="10.4539222307">
		<tag k="name" v="Grauteruddalen" />
		<tag k="natural" v="valley" />
		<tag k="place" v="locality" />
		<tag k="ssr:stedsnr" v="853858" />
	</node>
	<node id="-188998" lat="59.6822166639" lon="10.4556722153">
		<tag k="fixme" v="consider natural=peak for the most distinct mountains in the district" />
		<tag k="name" v="Berntsås" />
		<tag k="natural" v="hill" />
		<tag k="place" v="locality" />
		<tag k="ssr:stedsnr" v="269949" />
	</node>
	<node id="-189537" lat="59.7075722249" lon="10.5180416584">
		<tag k="fixme" v="consider natural=peak for the most distinct mountains in the district" />
		<tag k="name" v="Tivoliåsen" />
		<tag k="natural" v="hill" />
		<tag k="place" v="locality" />
		<tag k="ssr:stedsnr" v="908768" />
	</node>
	<node id="-188996" lat="59.7019194432" lon="10.4185888804">
		<tag k="fixme" v="consider natural=peak for the most distinct mountains in the district" />
		<tag k="name" v="Bølskogåsen" />
		<tag k="natural" v="hill" />
		<tag k="place" v="locality" />
		<tag k="ssr:stedsnr" v="269803" />
	</node>
	<node id="-189506" lat="59.7177861151" lon="10.4086722184">
		<tag k="fixme" v="consider natural=peak for the most distinct mountains in the district" />
		<tag k="name" v="Villingstadåsen" />
		<tag k="natural" v="hill" />
		<tag k="place" v="locality" />
		<tag k="ssr:stedsnr" v="853760" />
	</node>
	<node id="-189488" lat="59.6998333322" lon="10.4816055553">
		<tag k="name" v="Kølabonn" />
		<tag k="natural" v="valley" />
		<tag k="place" v="locality" />
		<tag k="ssr:stedsnr" v="815972" />
	</node>
	<node id="-189481" lat="59.6981166704" lon="10.4004027718">
		<tag k="name" v="Ormeleina" />
		<tag k="natural" v="ridge" />
		<tag k="place" v="locality" />
		<tag k="ssr:stedsnr" v="815786" />
	</node>
	<node id="-189476" lat="59.6911472185" lon="10.5208861023">
		<tag k="fixme" v="consider natural=peak for the most distinct mountains in the district" />
		<tag k="name" v="Bestonbukta" />
		<tag k="natural" v="hill" />
		<tag k="place" v="locality" />
		<tag k="ssr:stedsnr" v="814787" />
	</node>
	<node id="-189472" lat="59.7786722224" lon="10.3883555573">
		<tag k="alt_name" v="Blåfjellet" />
		<tag k="fixme" v="consider natural=peak for the most distinct mountains in the district" />
		<tag k="name" v="Blåfjell" />
		<tag k="natural" v="hill" />
		<tag k="place" v="locality" />
		<tag k="ssr:stedsnr" v="793705" />
	</node>
	<node id="-189470" lat="59.7785833307" lon="10.3578083286">
		<tag k="fixme" v="consider natural=peak for the most distinct mountains in the district" />
		<tag k="name" v="Bertelsmyråsen" />
		<tag k="natural" v="hill" />
		<tag k="place" v="locality" />
		<tag k="ssr:stedsnr" v="793697" />
	</node>
	<node id="-189461" lat="59.6846333348" lon="10.4437250055">
		<tag k="fixme" v="consider natural=peak for the most distinct mountains in the district" />
		<tag k="name" v="Kringlefjell" />
		<tag k="natural" v="hill" />
		<tag k="place" v="locality" />
		<tag k="ssr:stedsnr" v="791766" />
	</node>
	<node id="-189456" lat="59.7727361117" lon="10.3903388868">
		<tag k="fixme" v="consider natural=peak for the most distinct mountains in the district" />
		<tag k="name" v="Svartvannsåsen" />
		<tag k="natural" v="hill" />
		<tag k="place" v="locality" />
		<tag k="ssr:stedsnr" v="755589" />
	</node>
	<node id="-189455" lat="59.7285583326" lon="10.4134222148">
		<tag k="name" v="Svartediket" />
		<tag k="natural" v="valley" />
		<tag k="place" v="locality" />
		<tag k="ssr:stedsnr" v="755556" />
	</node>
	<node id="-189449" lat="59.6880583319" lon="10.4776777756">
		<tag k="fixme" v="consider natural=peak for the most distinct mountains in the district" />
		<tag k="name" v="Tyrihjellåsen" />
		<tag k="natural" v="hill" />
		<tag k="place" v="locality" />
		<tag k="ssr:stedsnr" v="754959" />
	</node>
	<node id="-189443" lat="59.7788111128" lon="10.3523416664">
		<tag k="name" v="Karikollen" />
		<tag k="natural" v="hill" />
		<tag k="place" v="locality" />
		<tag k="ssr:stedsnr" v="754415" />
	</node>
</osm>
