<?xml version="1.0" encoding="UTF-8"?>
<osm generator="osmapis" version="0.6">
	<node id="-189816" lat="59.7371121485" lon="10.3579435356">
		<tag k="fixme" v="consider place=hamlet" />
		<tag k="name" v="Åsåker" />
		<tag k="place" v="farm" />
		<tag k="ssr:stedsnr" v="977439" />
	</node>
	<node id="-189815" lat="59.7616908349" lon="10.3992086378">
		<tag k="name" v="Vesledammen" />
		<tag k="natural" v="water" />
		<tag k="ssr:stedsnr" v="976134" />
	</node>
	<node id="-189813" lat="59.7203527765" lon="10.5310666662">
		<tag k="name" v="Løkeberggrunnen" />
		<tag k="natural" v="shoal" />
		<tag k="place" v="locality" />
		<tag k="ssr:stedsnr" v="968821" />
	</node>
	<node id="-189812" lat="59.7388777757" lon="10.5174305467">
		<tag k="name" v="Høvikgrunnen" />
		<tag k="natural" v="shoal" />
		<tag k="place" v="locality" />
		<tag k="ssr:stedsnr" v="968108" />
	</node>
	<node id="-189811" lat="59.7362472246" lon="10.3284027696">
		<tag k="alt_name" v="Dagslet" />
		<tag k="name" v="Dagslett" />
		<tag k="place" v="farm" />
		<tag k="ssr:stedsnr" v="950139" />
	</node>
	<node id="-189810" lat="59.7704472202" lon="10.5009416603">
		<tag k="alt_name" v="Grunnvik" />
		<tag k="name" v="Grundvik" />
		<tag k="place" v="isolated_dwelling" />
		<tag k="ssr:stedsnr" v="938845" />
	</node>
	<node id="-189809" lat="59.7676833352" lon="10.4484583345">
		<tag k="name" v="Langsø" />
		<tag k="place" v="farm" />
		<tag k="ssr:stedsnr" v="938786" />
	</node>
	<node id="-189808" lat="59.7275527811" lon="10.5189472263">
		<tag k="name" v="Fagertun" />
		<tag k="place" v="isolated_dwelling" />
		<tag k="ssr:stedsnr" v="937943" />
	</node>
	<node id="-189807" lat="59.729326717" lon="10.5198603828">
		<tag k="name" v="Demmekilen" />
		<tag k="natural" v="bay" />
		<tag k="ssr:stedsnr" v="937941" />
	</node>
	<node id="-189806" lat="59.7307305518" lon="10.496902769">
		<tag k="name" v="Mastedalen" />
		<tag k="natural" v="valley" />
		<tag k="place" v="locality" />
		<tag k="ssr:stedsnr" v="937938" />
	</node>
	<node id="-189805" lat="59.7180833344" lon="10.4452944362">
		<tag k="fixme" v="consider natural=peak for the most distinct mountains in the district" />
		<tag k="name" v="Gullåsen" />
		<tag k="natural" v="hill" />
		<tag k="place" v="locality" />
		<tag k="ssr:stedsnr" v="937931" />
	</node>
	<node id="-189804" lat="59.7261194425" lon="10.3855055544">
		<tag k="name" v="Mastedalen" />
		<tag k="natural" v="valley" />
		<tag k="place" v="locality" />
		<tag k="ssr:stedsnr" v="937570" />
	</node>
	<node id="-189803" lat="59.7351999998" lon="10.4533111167">
		<tag k="name" v="Ølstadbråten" />
		<tag k="place" v="farm" />
		<tag k="ssr:stedsnr" v="937532" />
	</node>
	<node id="-189802" lat="59.7326717072" lon="10.4868343746">
		<tag k="fixme" v="consider natural=peak for the most distinct mountains in the district" />
		<tag k="name" v="Skiåsen" />
		<tag k="natural" v="hill" />
		<tag k="place" v="locality" />
		<tag k="ssr:stedsnr" v="937529" />
	</node>
	<node id="-189801" lat="59.7021305528" lon="10.461252777">
		<tag k="fixme" v="consider natural=peak for the most distinct mountains in the district" />
		<tag k="name" v="Røysåsen" />
		<tag k="natural" v="hill" />
		<tag k="place" v="locality" />
		<tag k="ssr:stedsnr" v="936959" />
	</node>
	<node id="-189800" lat="59.6831222234" lon="10.4977916719">
		<tag k="fixme" v="consider natural=peak for the most distinct mountains in the district" />
		<tag k="name" v="Trappesteinåsen" />
		<tag k="natural" v="hill" />
		<tag k="place" v="locality" />
		<tag k="ssr:stedsnr" v="936919" />
	</node>
	<node id="-189799" lat="59.7104387153" lon="10.3571270688">
		<tag k="name" v="Fagervika" />
		<tag k="natural" v="bay" />
		<tag k="ssr:stedsnr" v="936776" />
	</node>
	<node id="-189798" lat="59.7358083334" lon="10.3534388901">
		<tag k="alt_name" v="Åsåker" />
		<tag k="name" v="Øvre Åsåker" />
		<tag k="place" v="farm" />
		<tag k="ssr:stedsnr" v="936417" />
	</node>
	<node id="-189797" lat="59.7620666624" lon="10.3320638825">
		<tag k="fixme" v="consider natural=peak for the most distinct mountains in the district" />
		<tag k="name" v="Furumo" />
		<tag k="natural" v="hill" />
		<tag k="place" v="locality" />
		<tag k="ssr:stedsnr" v="936317" />
	</node>
	<node id="-189796" lat="59.7879305588" lon="10.3372111105">
		<tag k="fixme" v="consider natural=peak for the most distinct mountains in the district" />
		<tag k="name" v="Vikervollåsen" />
		<tag k="natural" v="hill" />
		<tag k="place" v="locality" />
		<tag k="ssr:stedsnr" v="936251" />
	</node>
	<node id="-189795" lat="59.7569861124" lon="10.5143000009">
		<tag k="name" v="Baku" />
		<tag k="natural" v="cape" />
		<tag k="ssr:stedsnr" v="934617" />
	</node>
	<node id="-189794" lat="59.7152055542" lon="10.3282111111">
		<tag k="name" v="Kusteinbukta" />
		<tag k="natural" v="bay" />
		<tag k="ssr:stedsnr" v="935612" />
	</node>
	<node id="-189793" lat="59.759125004" lon="10.4685000024">
		<tag k="name" v="Østskogen" />
		<tag k="place" v="quarter" />
		<tag k="ssr:stedsnr" v="933243" />
	</node>
	<node id="-189792" lat="59.7765666623" lon="10.460063883">
		<tag k="alt_name" v="Lauvås" />
		<tag k="name" v="Løvås" />
		<tag k="place" v="farm" />
		<tag k="ssr:stedsnr" v="915665" />
	</node>
	<node id="-189791" lat="59.7555999989" lon="10.5127777812">
		<tag k="name" v="Bråtaløkka" />
		<tag k="old_name" v="Bråteløkka" />
		<tag k="place" v="isolated_dwelling" />
		<tag k="ssr:stedsnr" v="915632" />
	</node>
	<node id="-189790" lat="59.7589166629" lon="10.3516722259">
		<tag k="name" v="Åserud" />
		<tag k="place" v="farm" />
		<tag k="ssr:stedsnr" v="915621" />
	</node>
	<node id="-189789" lat="59.7614944424" lon="10.5094305618">
		<tag k="name" v="Nærsnes" />
		<tag k="old_name" v="Nersnes" />
		<tag k="place" v="village" />
		<tag k="ssr:stedsnr" v="915613" />
	</node>
	<node id="-189788" lat="59.7638675987" lon="10.3483153944">
		<tag k="fixme" v="consider place=hamlet" />
		<tag k="name" v="Haukelia" />
		<tag k="place" v="farm" />
		<tag k="ssr:stedsnr" v="915605" />
	</node>
	<node id="-189787" lat="59.7438072816" lon="10.3970285407">
		<tag k="fixme" v="consider place=hamlet" />
		<tag k="name" v="Heggum" />
		<tag k="place" v="farm" />
		<tag k="ssr:stedsnr" v="914016" />
	</node>
	<node id="-189786" lat="59.7258833364" lon="10.4588611107">
		<tag k="name" v="Åroselva" />
		<tag k="ssr:stedsnr" v="913779" />
		<tag k="waterway" v="river" />
	</node>
	<node id="-189785" lat="59.6821222242" lon="10.4947611098">
		<tag k="alt_name" v="Kalvetjern" />
		<tag k="name" v="Kalvetjernet" />
		<tag k="natural" v="water" />
		<tag k="ssr:stedsnr" v="913760" />
	</node>
	<node id="-189784" lat="59.69099057" lon="10.4598137181">
		<tag k="alt_name" v="Setervann" />
		<tag k="name" v="Setervannet" />
		<tag k="natural" v="water" />
		<tag k="ssr:stedsnr" v="913740" />
		<tag k="water" v="lake" />
	</node>
	<node id="-189783" lat="59.7159972264" lon="10.3252444437">
		<tag k="name" v="Kustein" />
		<tag k="place" v="isolated_dwelling" />
		<tag k="ssr:stedsnr" v="913277" />
	</node>
	<node id="-189782" lat="59.7435277748" lon="10.4853805607">
		<tag k="alt_name" v="Bårsrudtjern" />
		<tag k="name" v="Bårsrudtjernet" />
		<tag k="natural" v="water" />
		<tag k="old_name" v="Baarsrudvatnet" />
		<tag k="ssr:stedsnr" v="913951" />
	</node>
	<node id="-189781" lat="59.7179611125" lon="10.5206805489">
		<tag k="name" v="Rundeskjæret" />
		<tag k="natural" v="cape" />
		<tag k="ssr:stedsnr" v="908843" />
	</node>
	<node id="-189780" lat="59.7075722249" lon="10.5180416584">
		<tag k="fixme" v="consider natural=peak for the most distinct mountains in the district" />
		<tag k="name" v="Tivoliåsen" />
		<tag k="natural" v="hill" />
		<tag k="place" v="locality" />
		<tag k="ssr:stedsnr" v="908768" />
	</node>
	<node id="-189779" lat="59.7078798114" lon="10.5285317945">
		<tag k="name" v="Lindbukta" />
		<tag k="natural" v="bay" />
		<tag k="ssr:stedsnr" v="907784" />
	</node>
	<node id="-189778" lat="59.7648944444" lon="10.5091583283">
		<tag k="name" v="Persgrunnen" />
		<tag k="natural" v="shoal" />
		<tag k="place" v="locality" />
		<tag k="ssr:stedsnr" v="907123" />
	</node>
	<node id="-189777" lat="59.7757583356" lon="10.3980638913">
		<tag k="fixme" v="consider tourism=alpine_hut or tourism=chalet" />
		<tag k="name" v="Blåfjellhytta" />
		<tag k="ssr:stedsnr" v="877624" />
		<tag k="tourism" v="wilderness_hut" />
	</node>
	<node id="-189776" lat="59.7347333293" lon="10.3872666729">
		<tag k="name" v="Jaksland" />
		<tag k="place" v="farm" />
		<tag k="ssr:stedsnr" v="877569" />
	</node>
	<node id="-189775" lat="59.7668055583" lon="10.4870138864">
		<tag k="name" v="Engebråten" />
		<tag k="place" v="isolated_dwelling" />
		<tag k="ssr:stedsnr" v="877380" />
	</node>
	<node id="-189774" lat="59.7073277745" lon="10.4913388909">
		<tag k="name" v="Follestad" />
		<tag k="place" v="farm" />
		<tag k="ssr:stedsnr" v="876961" />
	</node>
	<node id="-189773" lat="59.7221861077" lon="10.5026305546">
		<tag k="name" v="Nordli" />
		<tag k="place" v="isolated_dwelling" />
		<tag k="ssr:stedsnr" v="876955" />
	</node>
	<node id="-189772" lat="59.7157000043" lon="10.5208666694">
		<tag k="name" v="Blåhella" />
		<tag k="place" v="isolated_dwelling" />
		<tag k="ssr:stedsnr" v="876949" />
	</node>
	<node id="-189771" lat="59.7166361156" lon="10.3440000003">
		<tag k="name" v="Ugledalen" />
		<tag k="natural" v="valley" />
		<tag k="place" v="locality" />
		<tag k="ssr:stedsnr" v="876803" />
	</node>
	<node id="-189770" lat="59.7377361113" lon="10.4610972194">
		<tag k="name" v="Klemmetsrud" />
		<tag k="place" v="farm" />
		<tag k="ssr:stedsnr" v="876508" />
	</node>
	<node id="-189769" lat="59.7263416698" lon="10.4500611064">
		<tag k="name" v="Sageng" />
		<tag k="place" v="isolated_dwelling" />
		<tag k="ssr:stedsnr" v="876488" />
	</node>
	<node id="-189768" lat="59.7764416659" lon="10.5046222296">
		<tag k="name" v="Skurven" />
		<tag k="place" v="islet" />
		<tag k="ssr:stedsnr" v="876341" />
	</node>
	<node id="-189767" lat="59.7640027777" lon="10.3701222235">
		<tag k="name" v="Svartedike" />
		<tag k="natural" v="valley" />
		<tag k="place" v="locality" />
		<tag k="ssr:stedsnr" v="876319" />
	</node>
	<node id="-189766" lat="59.7468305583" lon="10.36263612">
		<tag k="name" v="Transet" />
		<tag k="place" v="farm" />
		<tag k="ssr:stedsnr" v="876317" />
	</node>
	<node id="-189764" lat="59.7629250037" lon="10.4566527784">
		<tag k="name" v="Sydskogen" />
		<tag k="place" v="quarter" />
		<tag k="ssr:stedsnr" v="872253" />
	</node>
	<node id="-189763" lat="59.7600750008" lon="10.4219749991">
		<tag k="name" v="Nordlihaugen" />
		<tag k="place" v="isolated_dwelling" />
		<tag k="ssr:stedsnr" v="855669" />
	</node>
	<node id="-189762" lat="59.7769472182" lon="10.5076972185">
		<tag k="fixme" v="consider seamark:type=rock or natural=shoal" />
		<tag k="name" v="Flåskjæret" />
		<tag k="place" v="islet" />
		<tag k="ssr:stedsnr" v="854663" />
	</node>
	<node id="-189761" lat="59.781405558" lon="10.50485555">
		<tag k="alt_name" v="Geitungsholmen" />
		<tag k="name" v="Geitungholmen" />
		<tag k="place" v="islet" />
		<tag k="ssr:stedsnr" v="854637" />
	</node>
	<node id="-189760" lat="59.7626333335" lon="10.4838027749">
		<tag k="name" v="Hogstad" />
		<tag k="place" v="farm" />
		<tag k="ssr:stedsnr" v="854613" />
	</node>
	<node id="-189759" lat="59.7620202946" lon="10.4152780174">
		<tag k="fixme" v="consider place=hamlet" />
		<tag k="name" v="Gjellum" />
		<tag k="place" v="farm" />
		<tag k="ssr:stedsnr" v="854610" />
	</node>
	<node id="-189758" lat="59.7943583338" lon="10.3351277691">
		<tag k="name" v="Svarteputt" />
		<tag k="natural" v="water" />
		<tag k="ssr:stedsnr" v="854128" />
	</node>
	<node id="-189757" lat="59.7387415311" lon="10.4387337626">
		<tag k="name" v="Ølstad" />
		<tag k="place" v="hamlet" />
		<tag k="ssr:stedsnr" v="853968" />
	</node>
	<node id="-189756" lat="59.7280778268" lon="10.5106842253">
		<tag k="fixme" v="consider place=hamlet" />
		<tag k="name" v="Høvik" />
		<tag k="place" v="farm" />
		<tag k="ssr:stedsnr" v="853964" />
	</node>
	<node id="-189755" lat="59.727547221" lon="10.478952778">
		<tag k="name" v="Søndre Ski" />
		<tag k="place" v="farm" />
		<tag k="ssr:stedsnr" v="853961" />
	</node>
	<node id="-189754" lat="59.6791611086" lon="10.4539222307">
		<tag k="name" v="Grauteruddalen" />
		<tag k="natural" v="valley" />
		<tag k="place" v="locality" />
		<tag k="ssr:stedsnr" v="853858" />
	</node>
	<node id="-189753" lat="59.6827532195" lon="10.4257884458">
		<tag k="name" v="Grimsrudbukta" />
		<tag k="natural" v="bay" />
		<tag k="ssr:stedsnr" v="853856" />
	</node>
	<node id="-189752" lat="59.7060999995" lon="10.5109166745">
		<tag k="name" v="Åros" />
		<tag k="place" v="village" />
		<tag k="ssr:stedsnr" v="853796" />
	</node>
	<node id="-189751" lat="59.7170416659" lon="10.428972231">
		<tag k="name" v="Plassen" />
		<tag k="place" v="isolated_dwelling" />
		<tag k="ssr:stedsnr" v="853784" />
	</node>
	<node id="-189750" lat="59.7219888968" lon="10.346015363">
		<tag k="fixme" v="consider place=hamlet" />
		<tag k="name" v="Ovnerud" />
		<tag k="place" v="farm" />
		<tag k="ssr:stedsnr" v="853766" />
	</node>
	<node id="-189749" lat="59.7177861151" lon="10.4086722184">
		<tag k="fixme" v="consider natural=peak for the most distinct mountains in the district" />
		<tag k="name" v="Villingstadåsen" />
		<tag k="natural" v="hill" />
		<tag k="place" v="locality" />
		<tag k="ssr:stedsnr" v="853760" />
	</node>
	<node id="-189748" lat="59.7876372059" lon="10.4977632318">
		<tag k="name" v="Tajetbukta" />
		<tag k="natural" v="bay" />
		<tag k="ssr:stedsnr" v="847241" />
	</node>
	<node id="-189747" lat="59.7268388911" lon="10.5294944521">
		<tag k="name" v="Berentsgrunnen" />
		<tag k="natural" v="shoal" />
		<tag k="place" v="locality" />
		<tag k="ssr:stedsnr" v="847814" />
	</node>
	<node id="-189746" lat="59.7155027816" lon="10.3472527818">
		<tag k="bridge" v="yes" />
		<tag k="layer" v="1" />
		<tag k="name" v="Hyggen" />
		<tag k="ssr:stedsnr" v="835935" />
	</node>
	<node id="-189745" lat="59.7609861137" lon="10.4953111156">
		<tag k="name" v="Nordre Nærsnes" />
		<tag k="place" v="farm" />
		<tag k="ssr:stedsnr" v="830172" />
	</node>
	<node id="-189743" lat="59.7582361093" lon="10.450494449">
		<tag k="name" v="Åshaug" />
		<tag k="place" v="farm" />
		<tag k="ssr:stedsnr" v="817378" />
	</node>
	<node id="-189742" lat="59.7511027813" lon="10.4566888968">
		<tag k="name" v="Grav" />
		<tag k="place" v="farm" />
		<tag k="ssr:stedsnr" v="817377" />
	</node>
	<node id="-189741" lat="59.7826416636" lon="10.4940055471">
		<tag k="building" v="industrial" />
		<tag k="industrial" v="factory" />
		<tag k="name" v="Slemmestad fabrikker" />
		<tag k="ssr:stedsnr" v="816860" />
	</node>
	<node id="-189740" lat="59.7679472199" lon="10.4135583377">
		<tag k="name" v="Hengefoss" />
		<tag k="natural" v="waterfall" />
		<tag k="ssr:stedsnr" v="816639" />
	</node>
	<node id="-189739" lat="59.7763361107" lon="10.3831833417">
		<tag k="name" v="Krubba" />
		<tag k="natural" v="wetland" />
		<tag k="ssr:stedsnr" v="816629" />
	</node>
	<node id="-189738" lat="59.740511112" lon="10.4756749932">
		<tag k="name" v="Smedløkka" />
		<tag k="place" v="isolated_dwelling" />
		<tag k="ssr:stedsnr" v="816531" />
	</node>
	<node id="-189737" lat="59.7466944407" lon="10.3898138894">
		<tag k="name" v="Røyken stasjon" />
		<tag k="railway" v="station" />
		<tag k="ssr:stedsnr" v="816384" />
		<tag k="train" v="yes" />
	</node>
	<node id="-189736" lat="59.7610499995" lon="10.4091555525">
		<tag k="name" v="Linnerud" />
		<tag k="place" v="isolated_dwelling" />
		<tag k="ssr:stedsnr" v="816379" />
	</node>
	<node id="-189734" lat="59.702313892" lon="10.5204694371">
		<tag k="name" v="Verven" />
		<tag k="natural" v="cape" />
		<tag k="ssr:stedsnr" v="815975" />
	</node>
	<node id="-189733" lat="59.6941888891" lon="10.4457583347">
		<tag k="name" v="Håkallsmyr" />
		<tag k="natural" v="wetland" />
		<tag k="ssr:stedsnr" v="815974" />
	</node>
	<node id="-189732" lat="59.6980916648" lon="10.5180972295">
		<tag k="fixme" v="multiple name tags, choose one and add the other to alt_name" />
		<tag k="name" v="Kastet;Underkastet" />
		<tag k="place" v="farm" />
		<tag k="ssr:stedsnr" v="815973" />
	</node>
	<node id="-189731" lat="59.6998333322" lon="10.4816055553">
		<tag k="name" v="Kølabonn" />
		<tag k="natural" v="valley" />
		<tag k="place" v="locality" />
		<tag k="ssr:stedsnr" v="815972" />
	</node>
	<node id="-189730" lat="59.7046583297" lon="10.5145916622">
		<tag k="name" v="Lille Åros" />
		<tag k="place" v="farm" />
		<tag k="ssr:stedsnr" v="815970" />
	</node>
	<node id="-189729" lat="59.7082972233" lon="10.4092388876">
		<tag k="name" v="Herstadheihytta" />
		<tag k="place" v="isolated_dwelling" />
		<tag k="ssr:stedsnr" v="815966" />
	</node>
	<node id="-189728" lat="59.7085833294" lon="10.5227944443">
		<tag k="name" v="Nygård" />
		<tag k="place" v="isolated_dwelling" />
		<tag k="ssr:stedsnr" v="815963" />
	</node>
	<node id="-189727" lat="59.7179138915" lon="10.4637222255">
		<tag k="name" v="Berget" />
		<tag k="place" v="isolated_dwelling" />
		<tag k="ssr:stedsnr" v="815914" />
	</node>
	<node id="-189726" lat="59.716961115" lon="10.363705555">
		<tag k="name" v="Hyggen" />
		<tag k="place" v="isolated_dwelling" />
		<tag k="ssr:stedsnr" v="815804" />
	</node>
	<node id="-189725" lat="59.7173972259" lon="10.3768583304">
		<tag k="name" v="Bakken" />
		<tag k="place" v="isolated_dwelling" />
		<tag k="ssr:stedsnr" v="815791" />
	</node>
	<node id="-189724" lat="59.6981166704" lon="10.4004027718">
		<tag k="name" v="Ormeleina" />
		<tag k="natural" v="ridge" />
		<tag k="place" v="locality" />
		<tag k="ssr:stedsnr" v="815786" />
	</node>
	<node id="-189723" lat="59.7529194438" lon="10.3229388893">
		<tag k="name" v="Stutterud" />
		<tag k="place" v="isolated_dwelling" />
		<tag k="ssr:stedsnr" v="815311" />
	</node>
	<node id="-189722" lat="59.7723861068" lon="10.3625916596">
		<tag k="name" v="Sekkemyra" />
		<tag k="natural" v="wetland" />
		<tag k="ssr:stedsnr" v="815254" />
	</node>
	<node id="-189721" lat="59.7821527816" lon="10.3319694474">
		<tag k="ford" v="yes" />
		<tag k="name" v="Sørumvadet" />
		<tag k="place" v="locality" />
		<tag k="ssr:stedsnr" v="815249" />
	</node>
	<node id="-189719" lat="59.6911472185" lon="10.5208861023">
		<tag k="fixme" v="consider natural=peak for the most distinct mountains in the district" />
		<tag k="name" v="Bestonbukta" />
		<tag k="natural" v="hill" />
		<tag k="place" v="locality" />
		<tag k="ssr:stedsnr" v="814787" />
	</node>
	<node id="-189718" lat="59.6992277779" lon="10.3866444368">
		<tag k="name" v="Gåsungen" />
		<tag k="natural" v="shoal" />
		<tag k="place" v="locality" />
		<tag k="ssr:stedsnr" v="813830" />
	</node>
	<node id="-189717" lat="59.7588833292" lon="10.4461861106">
		<tag k="name" v="Fossumbråtan" />
		<tag k="old_name" v="Fossumbråten" />
		<tag k="place" v="farm" />
		<tag k="ssr:stedsnr" v="794661" />
	</node>
	<node id="-189716" lat="59.7581347933" lon="10.3447977393">
		<tag k="fixme" v="consider place=hamlet" />
		<tag k="name" v="Kjos" />
		<tag k="place" v="farm" />
		<tag k="ssr:stedsnr" v="794653" />
	</node>
	<node id="-189715" lat="59.7786722224" lon="10.3883555573">
		<tag k="alt_name" v="Blåfjellet" />
		<tag k="fixme" v="consider natural=peak for the most distinct mountains in the district" />
		<tag k="name" v="Blåfjell" />
		<tag k="natural" v="hill" />
		<tag k="place" v="locality" />
		<tag k="ssr:stedsnr" v="793705" />
	</node>
	<node id="-189714" lat="59.7760722231" lon="10.4228277726">
		<tag k="name" v="Tangen" />
		<tag k="place" v="farm" />
		<tag k="ssr:stedsnr" v="793704" />
	</node>
	<node id="-189713" lat="59.7785833307" lon="10.3578083286">
		<tag k="fixme" v="consider natural=peak for the most distinct mountains in the district" />
		<tag k="name" v="Bertelsmyråsen" />
		<tag k="natural" v="hill" />
		<tag k="place" v="locality" />
		<tag k="ssr:stedsnr" v="793697" />
	</node>
	<node id="-189712" lat="59.7863944406" lon="10.3583638932">
		<tag k="alt_name" v="Torsbråten" />
		<tag k="name" v="Torsbråtan" />
		<tag k="place" v="isolated_dwelling" />
		<tag k="ssr:stedsnr" v="793692" />
	</node>
	<node id="-189711" lat="59.7687985496" lon="10.4549904036">
		<tag k="alt_name" v="Nordre Bø" />
		<tag k="fixme" v="consider place=hamlet" />
		<tag k="name" v="Bø" />
		<tag k="place" v="farm" />
		<tag k="ssr:stedsnr" v="793661" />
	</node>
	<node id="-189710" lat="59.7518916572" lon="10.3434011771">
		<tag k="fixme" v="consider place=hamlet" />
		<tag k="name" v="Rud" />
		<tag k="place" v="farm" />
		<tag k="ssr:stedsnr" v="793633" />
	</node>
	<node id="-189709" lat="59.7505335779" lon="10.406080872">
		<tag k="fixme" v="consider place=hamlet" />
		<tag k="name" v="Vang" />
		<tag k="place" v="farm" />
		<tag k="ssr:stedsnr" v="793631" />
	</node>
	<node id="-189708" lat="59.7467000012" lon="10.5213583288">
		<tag k="name" v="Nordre Ramtongrunnen" />
		<tag k="natural" v="shoal" />
		<tag k="place" v="locality" />
		<tag k="ssr:stedsnr" v="792954" />
	</node>
	<node id="-189707" lat="59.7149888884" lon="10.5317277694">
		<tag k="bay" v="fjord" />
		<tag k="name" v="Vestfjorden" />
		<tag k="natural" v="bay" />
		<tag k="ssr:stedsnr" v="792789" />
	</node>
	<node id="-189706" lat="59.7349021968" lon="10.326819861">
		<tag k="alt_name" v="Dagslet" />
		<tag k="fixme" v="consider place=hamlet" />
		<tag k="name" v="Dagslett" />
		<tag k="place" v="farm" />
		<tag k="ssr:stedsnr" v="792247" />
	</node>
	<node id="-189705" lat="59.7453549285" lon="10.3557888276">
		<tag k="fixme" v="consider place=hamlet" />
		<tag k="name" v="Askestad" />
		<tag k="place" v="farm" />
		<tag k="ssr:stedsnr" v="791993" />
	</node>
	<node id="-189704" lat="59.6846333348" lon="10.4437250055">
		<tag k="fixme" v="consider natural=peak for the most distinct mountains in the district" />
		<tag k="name" v="Kringlefjell" />
		<tag k="natural" v="hill" />
		<tag k="place" v="locality" />
		<tag k="ssr:stedsnr" v="791766" />
	</node>
	<node id="-189703" lat="59.7848277809" lon="10.5156166702">
		<tag k="name" v="Ytre Lyberggrunnen" />
		<tag k="natural" v="shoal" />
		<tag k="place" v="locality" />
		<tag k="ssr:stedsnr" v="786152" />
	</node>
	<node id="-189702" lat="59.7643138867" lon="10.5049472174">
		<tag k="name" v="Holmegrunnen" />
		<tag k="natural" v="shoal" />
		<tag k="place" v="locality" />
		<tag k="ssr:stedsnr" v="786122" />
	</node>
	<node id="-189701" lat="59.742363889" lon="10.3789000002">
		<tag k="bridge" v="yes" />
		<tag k="layer" v="1" />
		<tag k="name" v="Grini" />
		<tag k="ssr:stedsnr" v="774930" />
	</node>
	<node id="-189700" lat="59.6954027786" lon="10.5365555496">
		<tag k="name" v="Kleinsgrunnen" />
		<tag k="natural" v="shoal" />
		<tag k="place" v="locality" />
		<tag k="ssr:stedsnr" v="767730" />
	</node>
	<node id="-189699" lat="59.7727361117" lon="10.3903388868">
		<tag k="fixme" v="consider natural=peak for the most distinct mountains in the district" />
		<tag k="name" v="Svartvannsåsen" />
		<tag k="natural" v="hill" />
		<tag k="place" v="locality" />
		<tag k="ssr:stedsnr" v="755589" />
	</node>
	<node id="-189698" lat="59.7285583326" lon="10.4134222148">
		<tag k="name" v="Svartediket" />
		<tag k="natural" v="valley" />
		<tag k="place" v="locality" />
		<tag k="ssr:stedsnr" v="755556" />
	</node>
	<node id="-189697" lat="59.7423805532" lon="10.3942333392">
		<tag k="name" v="Heggum" />
		<tag k="place" v="farm" />
		<tag k="ssr:stedsnr" v="755529" />
	</node>
	<node id="-189696" lat="59.7554861106" lon="10.3979638887">
		<tag k="name" v="Kleiver" />
		<tag k="place" v="isolated_dwelling" />
		<tag k="ssr:stedsnr" v="755376" />
	</node>
	<node id="-189695" lat="59.7549444469" lon="10.5050833408">
		<tag k="amenity" v="school" />
		<tag k="name" v="Nærsnes skole" />
		<tag k="ssr:stedsnr" v="755325" />
	</node>
	<node id="-189694" lat="59.7025555517" lon="10.5132722236">
		<tag k="name" v="Stordammen" />
		<tag k="natural" v="water" />
		<tag k="ssr:stedsnr" v="754972" />
	</node>
	<node id="-189693" lat="59.6942083327" lon="10.5390194427">
		<tag k="name" v="Klauholmen" />
		<tag k="place" v="islet" />
		<tag k="ssr:stedsnr" v="754966" />
	</node>
	<node id="-189692" lat="59.6880583319" lon="10.4776777756">
		<tag k="fixme" v="consider natural=peak for the most distinct mountains in the district" />
		<tag k="name" v="Tyrihjellåsen" />
		<tag k="natural" v="hill" />
		<tag k="place" v="locality" />
		<tag k="ssr:stedsnr" v="754959" />
	</node>
	<node id="-189691" lat="59.7148333375" lon="10.4919638806">
		<tag k="junction" v="yes" />
		<tag k="name" v="Sundbykrysset" />
		<tag k="place" v="locality" />
		<tag k="ssr:stedsnr" v="754952" />
	</node>
	<node id="-189690" lat="59.7130111151" lon="10.4542194366">
		<tag k="name" v="Vearhagen" />
		<tag k="place" v="isolated_dwelling" />
		<tag k="ssr:stedsnr" v="754905" />
	</node>
	<node id="-189689" lat="59.7063861077" lon="10.4410388852">
		<tag k="name" v="Flatermyra" />
		<tag k="natural" v="wetland" />
		<tag k="ssr:stedsnr" v="754902" />
	</node>
	<node id="-189688" lat="59.71742222" lon="10.3557194501">
		<tag k="name" v="Hyggen" />
		<tag k="place" v="farm" />
		<tag k="ssr:stedsnr" v="754802" />
	</node>
	<node id="-189687" lat="59.7249500013" lon="10.3477111023">
		<tag k="name" v="Nordengen" />
		<tag k="place" v="farm" />
		<tag k="ssr:stedsnr" v="754459" />
	</node>
	<node id="-189686" lat="59.7788111128" lon="10.3523416664">
		<tag k="name" v="Karikollen" />
		<tag k="natural" v="hill" />
		<tag k="place" v="locality" />
		<tag k="ssr:stedsnr" v="754415" />
	</node>
	<node id="-189685" lat="59.7660500014" lon="10.353122224">
		<tag k="name" v="Haukelidammen" />
		<tag k="natural" v="water" />
		<tag k="ssr:stedsnr" v="754363" />
	</node>
	<node id="-189684" lat="59.7724055565" lon="10.3533722163">
		<tag k="name" v="Langemyr" />
		<tag k="natural" v="wetland" />
		<tag k="ssr:stedsnr" v="754314" />
	</node>
	<node id="-189683" lat="59.7837111074" lon="10.336580557">
		<tag k="name" v="Vikervollmyra" />
		<tag k="natural" v="wetland" />
		<tag k="ssr:stedsnr" v="754306" />
	</node>
	<node id="-189682" lat="59.7830333335" lon="10.3502277805">
		<tag k="name" v="Eftasvælmyr" />
		<tag k="natural" v="wetland" />
		<tag k="ssr:stedsnr" v="754307" />
	</node>
	<node id="-189681" lat="59.7166555559" lon="10.3730805492">
		<tag k="amenity" v="school" />
		<tag k="name" v="Hyggen skole" />
		<tag k="ssr:stedsnr" v="753414" />
	</node>
	<node id="-189680" lat="59.6851083333" lon="10.4187249995">
		<tag k="name" v="Grimsrudodden" />
		<tag k="natural" v="cape" />
		<tag k="ssr:stedsnr" v="752832" />
	</node>
	<node id="-189679" lat="59.7439611142" lon="10.3369805564">
		<tag k="name" v="Spikkestad" />
		<tag k="place" v="village" />
		<tag k="ssr:stedsnr" v="752635" />
	</node>
	<node id="-189678" lat="59.7152055542" lon="10.3282111111">
		<tag k="name" v="Stranda" />
		<tag k="place" v="isolated_dwelling" />
		<tag k="ssr:stedsnr" v="752578" />
	</node>
	<node id="-189677" lat="59.784544442" lon="10.510775002">
		<tag k="name" v="Lyberggrunnen" />
		<tag k="natural" v="shoal" />
		<tag k="place" v="locality" />
		<tag k="ssr:stedsnr" v="752512" />
	</node>
	<node id="-189676" lat="59.7783857859" lon="10.4882785918">
		<tag k="alt_name" v="Slemmestad" />
		<tag k="amenity" v="place_of_worship" />
		<tag k="denomination" v="lutheran" />
		<tag k="name" v="Slemmestad kirke" />
		<tag k="religion" v="christian" />
		<tag k="ssr:stedsnr" v="733666" />
	</node>
	<node id="-189675" lat="59.7741861089" lon="10.5061555582">
		<tag k="fixme" v="consider seamark:type=rock or natural=shoal" />
		<tag k="name" v="Dyna" />
		<tag k="place" v="islet" />
		<tag k="ssr:stedsnr" v="733664" />
	</node>
	<node id="-189674" lat="59.7781138847" lon="10.5394416679">
		<tag k="alt_name" v="Håmerrgrunnen" />
		<tag k="name" v="Håmargrunnen" />
		<tag k="natural" v="shoal" />
		<tag k="place" v="locality" />
		<tag k="ssr:stedsnr" v="733662" />
	</node>
	<node id="-189673" lat="59.7542888909" lon="10.3365666717">
		<tag k="name" v="Helgeroa" />
		<tag k="place" v="isolated_dwelling" />
		<tag k="ssr:stedsnr" v="732072" />
	</node>
	<node id="-189672" lat="59.7472416635" lon="10.3883222299">
		<tag k="name" v="Røyken" />
		<tag k="place" v="village" />
		<tag k="ssr:stedsnr" v="731993" />
	</node>
	<node id="-189671" lat="59.7286624585" lon="10.4415562471">
		<tag k="fixme" v="consider place=hamlet" />
		<tag k="name" v="Huseby" />
		<tag k="place" v="farm" />
		<tag k="ssr:stedsnr" v="731961" />
	</node>
	<node id="-189670" lat="59.7097638915" lon="10.4066499916">
		<tag k="fixme" v="consider natural=peak for the most distinct mountains in the district" />
		<tag k="name" v="Herstadheia" />
		<tag k="natural" v="hill" />
		<tag k="place" v="locality" />
		<tag k="ssr:stedsnr" v="731791" />
	</node>
	<node id="-189669" lat="59.7178055562" lon="10.4543416696">
		<tag k="name" v="Vangsbråten" />
		<tag k="place" v="farm" />
		<tag k="ssr:stedsnr" v="731790" />
	</node>
	<node id="-189668" lat="59.6923053571" lon="10.4137819862">
		<tag k="fixme" v="consider place=hamlet" />
		<tag k="name" v="Jerdal" />
		<tag k="place" v="farm" />
		<tag k="ssr:stedsnr" v="731744" />
	</node>
	<node id="-189667" lat="59.7178972202" lon="10.3120722231">
		<tag k="name" v="Lahellholmen" />
		<tag k="place" v="islet" />
		<tag k="ssr:stedsnr" v="731237" />
	</node>
	<node id="-189666" lat="59.7174055572" lon="10.3419083301">
		<tag k="fixme" v="consider natural=peak for the most distinct mountains in the district" />
		<tag k="name" v="Kolåsen" />
		<tag k="natural" v="hill" />
		<tag k="place" v="locality" />
		<tag k="ssr:stedsnr" v="731229" />
	</node>
	<node id="-189665" lat="59.7660305579" lon="10.316622228">
		<tag k="fixme" v="consider natural=peak for the most distinct mountains in the district" />
		<tag k="name" v="Bølstadåsen" />
		<tag k="natural" v="hill" />
		<tag k="place" v="locality" />
		<tag k="ssr:stedsnr" v="731148" />
	</node>
	<node id="-189664" lat="59.7035472228" lon="10.5291083262">
		<tag k="name" v="Gråøyhusa" />
		<tag k="place" v="isolated_dwelling" />
		<tag k="ssr:stedsnr" v="725789" />
	</node>
	<node id="-189663" lat="59.7099583331" lon="10.5299333395">
		<tag k="name" v="Gråøyodden" />
		<tag k="natural" v="cape" />
		<tag k="ssr:stedsnr" v="725787" />
	</node>
	<node id="-189662" lat="59.7827027789" lon="10.5020166745">
		<tag k="name" v="Slemmestadodden" />
		<tag k="natural" v="cape" />
		<tag k="ssr:stedsnr" v="725152" />
	</node>
	<node id="-189661" lat="59.7432361147" lon="10.5149249918">
		<tag k="name" v="Ramtonsundet" />
		<tag k="natural" v="strait" />
		<tag k="ssr:stedsnr" v="725114" />
	</node>
	<node id="-189660" lat="59.7403916696" lon="10.3788166665">
		<tag k="bridge" v="yes" />
		<tag k="layer" v="1" />
		<tag k="name" v="Auvi" />
		<tag k="ssr:stedsnr" v="714925" />
	</node>
	<node id="-189659" lat="59.7322666655" lon="10.4248638811">
		<tag k="bridge" v="yes" />
		<tag k="layer" v="1" />
		<tag k="name" v="Bjørnstaddalen" />
		<tag k="ssr:stedsnr" v="714923" />
	</node>
	<node id="-189658" lat="59.73641667" lon="10.4167611173">
		<tag k="bridge" v="yes" />
		<tag k="layer" v="1" />
		<tag k="name" v="Midtbygda" />
		<tag k="ssr:stedsnr" v="714908" />
	</node>
	<node id="-189657" lat="59.7352027785" lon="10.3272916631">
		<tag k="alt_name" v="Dagslet" />
		<tag k="name" v="Dagslett" />
		<tag k="place" v="farm" />
		<tag k="ssr:stedsnr" v="708137" />
	</node>
	<node id="-189656" lat="59.6985222229" lon="10.5317055519">
		<tag k="name" v="Johnsbergtangen" />
		<tag k="natural" v="cape" />
		<tag k="ssr:stedsnr" v="706743" />
	</node>
	<node id="-189655" lat="59.7668722211" lon="10.470194436">
		<tag k="name" v="Dambo" />
		<tag k="place" v="isolated_dwelling" />
		<tag k="ssr:stedsnr" v="695390" />
	</node>
	<node id="-189654" lat="59.7611861122" lon="10.4681194392">
		<tag k="name" v="Eikeleina" />
		<tag k="place" v="isolated_dwelling" />
		<tag k="ssr:stedsnr" v="695385" />
	</node>
	<node id="-189653" lat="59.7103305521" lon="10.417961103">
		<tag k="fixme" v="consider natural=peak for the most distinct mountains in the district" />
		<tag k="name" v="Brentås" />
		<tag k="natural" v="hill" />
		<tag k="place" v="locality" />
		<tag k="ssr:stedsnr" v="694957" />
	</node>
	<node id="-189652" lat="59.7063805568" lon="10.388597221">
		<tag k="name" v="Buktemyra" />
		<tag k="natural" v="wetland" />
		<tag k="ssr:stedsnr" v="694952" />
	</node>
	<node id="-189651" lat="59.7258027749" lon="10.5136972182">
		<tag k="name" v="Høvik" />
		<tag k="place" v="farm" />
		<tag k="ssr:stedsnr" v="694939" />
	</node>
	<node id="-189650" lat="59.7127413103" lon="10.3653892807">
		<tag k="name" v="Indre Fiskebukt" />
		<tag k="natural" v="bay" />
		<tag k="ssr:stedsnr" v="694801" />
	</node>
	<node id="-189649" lat="59.7105416653" lon="10.3734027816">
		<tag k="name" v="Høgdodden" />
		<tag k="natural" v="cape" />
		<tag k="ssr:stedsnr" v="694796" />
	</node>
	<node id="-189648" lat="59.7535750039" lon="10.4100250069">
		<tag k="fixme" v="consider natural=peak for the most distinct mountains in the district" />
		<tag k="name" v="Vangsåsen" />
		<tag k="natural" v="hill" />
		<tag k="place" v="locality" />
		<tag k="ssr:stedsnr" v="694363" />
	</node>
	<node id="-189647" lat="59.7612333355" lon="10.4260916743">
		<tag k="name" v="Hajum" />
		<tag k="place" v="farm" />
		<tag k="ssr:stedsnr" v="694354" />
	</node>
	<node id="-189646" lat="59.7754611125" lon="10.3413416721">
		<tag k="fixme" v="consider tourism=alpine_hut or tourism=chalet" />
		<tag k="name" v="R.O.S. hytta" />
		<tag k="ssr:stedsnr" v="694347" />
		<tag k="tourism" v="wilderness_hut" />
	</node>
	<node id="-189645" lat="59.7568416644" lon="10.3264138822">
		<tag k="name" v="Karlsrudmyra" />
		<tag k="natural" v="wetland" />
		<tag k="ssr:stedsnr" v="694314" />
	</node>
	<node id="-189644" lat="59.7850036197" lon="10.3237160991">
		<tag k="name" v="Lille Reistadvollen" />
		<tag k="place" v="locality" />
		<tag k="ssr:stedsnr" v="689577" />
	</node>
	<node id="-189643" lat="59.7714388892" lon="10.4185083415">
		<tag k="alt_name" v="Myren" />
		<tag k="name" v="Myra" />
		<tag k="place" v="isolated_dwelling" />
		<tag k="ssr:stedsnr" v="672662" />
	</node>
	<node id="-189642" lat="59.7665786513" lon="10.4297853659">
		<tag k="fixme" v="consider place=hamlet" />
		<tag k="name" v="Rød" />
		<tag k="place" v="farm" />
		<tag k="ssr:stedsnr" v="672602" />
	</node>
	<node id="-189641" lat="59.676455559" lon="10.412850002">
		<tag k="name" v="Pampus" />
		<tag k="natural" v="shoal" />
		<tag k="place" v="locality" />
		<tag k="ssr:stedsnr" v="671847" />
	</node>
	<node id="-189640" lat="59.705202777" lon="10.477072216">
		<tag k="name" v="Sagbakken" />
		<tag k="place" v="farm" />
		<tag k="ssr:stedsnr" v="671797" />
	</node>
	<node id="-189639" lat="59.6982416644" lon="10.4194583262">
		<tag k="name" v="Bølskog" />
		<tag k="place" v="farm" />
		<tag k="ssr:stedsnr" v="671759" />
	</node>
	<node id="-189638" lat="59.7516407374" lon="10.4472803072">
		<tag k="alt_name" v="Åsgård" />
		<tag k="fixme" v="consider place=hamlet" />
		<tag k="name" v="Åsgard" />
		<tag k="place" v="farm" />
		<tag k="ssr:stedsnr" v="671593" />
	</node>
	<node id="-189637" lat="59.7430722199" lon="10.51931388">
		<tag k="name" v="Ramtonholmen" />
		<tag k="place" v="islet" />
		<tag k="ssr:stedsnr" v="670971" />
	</node>
	<node id="-189636" lat="59.7485638916" lon="10.490319444">
		<tag k="name" v="Damstua" />
		<tag k="place" v="isolated_dwelling" />
		<tag k="ssr:stedsnr" v="670953" />
	</node>
	<node id="-189635" lat="59.7255944481" lon="10.4215750088">
		<tag k="name" v="Igletjern" />
		<tag k="natural" v="water" />
		<tag k="ssr:stedsnr" v="670780" />
	</node>
	<node id="-189634" lat="59.7196623797" lon="10.3637549543">
		<tag k="name" v="Hyggen" />
		<tag k="place" v="hamlet" />
		<tag k="ssr:stedsnr" v="670761" />
	</node>
	<node id="-189632" lat="59.7863249966" lon="10.4988111079">
		<tag k="name" v="Dørstubukta" />
		<tag k="natural" v="bay" />
		<tag k="ssr:stedsnr" v="664191" />
	</node>
	<node id="-189631" lat="59.7440222254" lon="10.5114361094">
		<tag k="name" v="Ramtonflåa" />
		<tag k="natural" v="shoal" />
		<tag k="place" v="locality" />
		<tag k="ssr:stedsnr" v="664105" />
	</node>
	<node id="-189630" lat="59.7050972211" lon="10.4707250075">
		<tag k="alt_name" v="Elgskauås" />
		<tag k="layer" v="-1" />
		<tag k="name" v="Elgskauåstunnelen" />
		<tag k="ssr:stedsnr" v="650373" />
		<tag k="tunnel" v="yes" />
	</node>
	<node id="-189629" lat="59.6982722195" lon="10.5067805532">
		<tag k="fixme" v="consider natural=peak for the most distinct mountains in the district" />
		<tag k="name" v="Kaståsen" />
		<tag k="natural" v="hill" />
		<tag k="place" v="locality" />
		<tag k="ssr:stedsnr" v="645738" />
	</node>
	<node id="-189628" lat="59.7000194428" lon="10.5186583311">
		<tag k="name" v="Kastestranda" />
		<tag k="natural" v="beach" />
		<tag k="place" v="locality" />
		<tag k="ssr:stedsnr" v="645736" />
	</node>
	<node id="-189627" lat="59.6959694475" lon="10.498805561">
		<tag k="name" v="Frøtvetmosen" />
		<tag k="natural" v="wetland" />
		<tag k="ssr:stedsnr" v="633985" />
	</node>
	<node id="-189626" lat="59.6933194464" lon="10.5201861084">
		<tag k="name" v="Skogsborg" />
		<tag k="natural" v="hill" />
		<tag k="place" v="locality" />
		<tag k="ssr:stedsnr" v="633975" />
	</node>
	<node id="-189625" lat="59.72825278" lon="10.4914805549">
		<tag k="fixme" v="consider natural=peak for the most distinct mountains in the district" />
		<tag k="name" v="Skiåsen" />
		<tag k="natural" v="hill" />
		<tag k="place" v="locality" />
		<tag k="ssr:stedsnr" v="633947" />
	</node>
	<node id="-189624" lat="59.7067638934" lon="10.466811103">
		<tag k="fixme" v="consider natural=peak for the most distinct mountains in the district" />
		<tag k="name" v="Bentsås" />
		<tag k="natural" v="hill" />
		<tag k="place" v="locality" />
		<tag k="ssr:stedsnr" v="633926" />
	</node>
	<node id="-189623" lat="59.7753944471" lon="10.4629388964">
		<tag k="name" v="Nordmarka" />
		<tag k="place" v="locality" />
		<tag k="ssr:stedsnr" v="633767" />
	</node>
	<node id="-189622" lat="59.7398222202" lon="10.436238892">
		<tag k="name" v="Ølstad" />
		<tag k="place" v="farm" />
		<tag k="ssr:stedsnr" v="633516" />
	</node>
	<node id="-189621" lat="59.7293499963" lon="10.4552805544">
		<tag k="name" v="Elvenga" />
		<tag k="place" v="isolated_dwelling" />
		<tag k="ssr:stedsnr" v="633500" />
	</node>
	<node id="-189620" lat="59.7506972192" lon="10.3782666606">
		<tag k="name" v="Hanestad" />
		<tag k="place" v="isolated_dwelling" />
		<tag k="ssr:stedsnr" v="633416" />
	</node>
	<node id="-189619" lat="59.7551361117" lon="10.4060805625">
		<tag k="name" v="Jemtland" />
		<tag k="place" v="farm" />
		<tag k="ssr:stedsnr" v="633412" />
	</node>
	<node id="-189618" lat="59.7592555522" lon="10.440558329">
		<tag k="name" v="Fabrikkdammen" />
		<tag k="natural" v="water" />
		<tag k="ssr:stedsnr" v="633387" />
	</node>
	<node id="-189617" lat="59.7004722191" lon="10.4925583325">
		<tag k="fixme" v="consider natural=peak for the most distinct mountains in the district" />
		<tag k="name" v="Margrethes ås" />
		<tag k="natural" v="hill" />
		<tag k="place" v="locality" />
		<tag k="ssr:stedsnr" v="632930" />
	</node>
	<node id="-189616" lat="59.6828555522" lon="10.4738805534">
		<tag k="name" v="Bjørvannsdalen" />
		<tag k="natural" v="valley" />
		<tag k="place" v="locality" />
		<tag k="ssr:stedsnr" v="632769" />
	</node>
	<node id="-189615" lat="59.717561112" lon="10.4018666709">
		<tag k="name" v="Langmyrene" />
		<tag k="natural" v="wetland" />
		<tag k="ssr:stedsnr" v="632755" />
	</node>
	<node id="-189614" lat="59.7005138902" lon="10.400555561">
		<tag k="name" v="Geitmyra" />
		<tag k="natural" v="wetland" />
		<tag k="ssr:stedsnr" v="632753" />
	</node>
	<node id="-189613" lat="59.7783166692" lon="10.34015">
		<tag k="historic" v="shieling" />
		<tag k="name" v="Gulluvollen" />
		<tag k="place" v="locality" />
		<tag k="ssr:stedsnr" v="632391" />
	</node>
	<node id="-189612" lat="59.7790638913" lon="10.3401611132">
		<tag k="name" v="Brenningsdalen" />
		<tag k="natural" v="valley" />
		<tag k="place" v="locality" />
		<tag k="ssr:stedsnr" v="632390" />
	</node>
	<node id="-189611" lat="59.7608222223" lon="10.3688555586">
		<tag k="name" v="Botnemyra" />
		<tag k="natural" v="wetland" />
		<tag k="ssr:stedsnr" v="632348" />
	</node>
	<node id="-189610" lat="59.7929027793" lon="10.3428861121">
		<tag k="name" v="Åstjernmyr" />
		<tag k="natural" v="wetland" />
		<tag k="ssr:stedsnr" v="632295" />
	</node>
	<node id="-189609" lat="59.7756611091" lon="10.346127774">
		<tag k="name" v="Haukelimyr" />
		<tag k="natural" v="wetland" />
		<tag k="ssr:stedsnr" v="632279" />
	</node>
	<node id="-189608" lat="59.7211694456" lon="10.5103694458">
		<tag k="name" v="Løkeberg" />
		<tag k="place" v="farm" />
		<tag k="ssr:stedsnr" v="631677" />
	</node>
	<node id="-189607" lat="59.7012833334" lon="10.3893583344">
		<tag k="name" v="Bakkebråten" />
		<tag k="place" v="isolated_dwelling" />
		<tag k="ssr:stedsnr" v="630811" />
	</node>
	<node id="-189606" lat="59.7033500032" lon="10.3943305605">
		<tag k="fixme" v="consider natural=peak for the most distinct mountains in the district" />
		<tag k="name" v="Brudeberget" />
		<tag k="natural" v="hill" />
		<tag k="place" v="locality" />
		<tag k="ssr:stedsnr" v="630809" />
	</node>
	<node id="-189605" lat="59.7586249975" lon="10.5083222297">
		<tag k="name" v="Lund" />
		<tag k="place" v="isolated_dwelling" />
		<tag k="ssr:stedsnr" v="630598" />
	</node>
	<node id="-189604" lat="59.7595861122" lon="10.5075833312">
		<tag k="name" v="Tangehagen" />
		<tag k="place" v="isolated_dwelling" />
		<tag k="ssr:stedsnr" v="611674" />
	</node>
	<node id="-189603" lat="59.6757805557" lon="10.4783527699">
		<tag k="name" v="Langvann" />
		<tag k="natural" v="water" />
		<tag k="ssr:stedsnr" v="610865" />
	</node>
	<node id="-189602" lat="59.76176111" lon="10.3380277822">
		<tag k="fixme" v="consider natural=peak for the most distinct mountains in the district" />
		<tag k="name" v="Brenninga" />
		<tag k="natural" v="hill" />
		<tag k="place" v="locality" />
		<tag k="ssr:stedsnr" v="610068" />
	</node>
	<node id="-189601" lat="59.7432944443" lon="10.452588884">
		<tag k="fixme" v="consider natural=peak for the most distinct mountains in the district" />
		<tag k="name" v="Gunnerudåsen" />
		<tag k="natural" v="hill" />
		<tag k="place" v="locality" />
		<tag k="ssr:stedsnr" v="609969" />
	</node>
	<node id="-189600" lat="59.7360410573" lon="10.3973907046">
		<tag k="fixme" v="consider place=hamlet" />
		<tag k="name" v="Liverud" />
		<tag k="place" v="farm" />
		<tag k="ssr:stedsnr" v="609966" />
	</node>
	<node id="-189599" lat="59.7473149167" lon="10.4539582859">
		<tag k="fixme" v="consider place=hamlet" />
		<tag k="name" v="Gunnerud" />
		<tag k="place" v="farm" />
		<tag k="ssr:stedsnr" v="609949" />
	</node>
	<node id="-189598" lat="59.7490694442" lon="10.4373166681">
		<tag k="alt_name" v="Bryn" />
		<tag k="name" v="Søndre Bryn" />
		<tag k="place" v="farm" />
		<tag k="ssr:stedsnr" v="609942" />
	</node>
	<node id="-189597" lat="59.7195805557" lon="10.5203805581">
		<tag k="name" v="Løkebergstranda" />
		<tag k="natural" v="beach" />
		<tag k="place" v="locality" />
		<tag k="ssr:stedsnr" v="604833" />
	</node>
	<node id="-189596" lat="59.7236861103" lon="10.5341722134">
		<tag k="name" v="Søndre Sundbyholmen" />
		<tag k="place" v="islet" />
		<tag k="ssr:stedsnr" v="604106" />
	</node>
	<node id="-189595" lat="59.7844750006" lon="10.5112361025">
		<tag k="name" v="Indre Lyberggrunnen" />
		<tag k="natural" v="shoal" />
		<tag k="place" v="locality" />
		<tag k="ssr:stedsnr" v="603145" />
	</node>
	<node id="-189594" lat="59.7610138875" lon="10.514519447">
		<tag k="name" v="Klippen" />
		<tag k="natural" v="cape" />
		<tag k="ssr:stedsnr" v="603108" />
	</node>
	<node id="-189593" lat="59.7051277788" lon="10.5124000047">
		<tag k="alt_name" v="Åros" />
		<tag k="amenity" v="place_of_worship" />
		<tag k="denomination" v="lutheran" />
		<tag k="name" v="Åros kirke" />
		<tag k="religion" v="christian" />
		<tag k="ssr:stedsnr" v="579862" />
	</node>
	<node id="-189592" lat="59.7659055546" lon="10.5149361092">
		<tag k="name" v="Nærsnesrabbane" />
		<tag k="natural" v="shoal" />
		<tag k="place" v="locality" />
		<tag k="ssr:stedsnr" v="579125" />
	</node>
	<node id="-189591" lat="59.7436805565" lon="10.43199166">
		<tag k="name" v="Ølstad" />
		<tag k="place" v="farm" />
		<tag k="ssr:stedsnr" v="573498" />
	</node>
	<node id="-189590" lat="59.7398388925" lon="10.4803749954">
		<tag k="name" v="Vassdalen" />
		<tag k="natural" v="valley" />
		<tag k="place" v="locality" />
		<tag k="ssr:stedsnr" v="573479" />
	</node>
	<node id="-189589" lat="59.7654416692" lon="10.3948944445">
		<tag k="fixme" v="consider natural=peak for the most distinct mountains in the district" />
		<tag k="name" v="Huldreåsen" />
		<tag k="natural" v="hill" />
		<tag k="place" v="locality" />
		<tag k="ssr:stedsnr" v="573355" />
	</node>
	<node id="-189588" lat="59.7049166695" lon="10.4981777815">
		<tag k="fixme" v="consider natural=peak for the most distinct mountains in the district" />
		<tag k="name" v="Frøtvetåsen" />
		<tag k="natural" v="hill" />
		<tag k="place" v="locality" />
		<tag k="ssr:stedsnr" v="572967" />
	</node>
	<node id="-189587" lat="59.7118555596" lon="10.3960055496">
		<tag k="name" v="Fuglemyr" />
		<tag k="natural" v="wetland" />
		<tag k="ssr:stedsnr" v="572958" />
	</node>
	<node id="-189586" lat="59.6906527781" lon="10.4502444508">
		<tag k="fixme" v="consider natural=peak for the most distinct mountains in the district" />
		<tag k="name" v="Sjursås" />
		<tag k="natural" v="hill" />
		<tag k="place" v="locality" />
		<tag k="ssr:stedsnr" v="572956" />
	</node>
	<node id="-189585" lat="59.7108083367" lon="10.4744194482">
		<tag k="name" v="Svingen" />
		<tag k="place" v="locality" />
		<tag k="ssr:stedsnr" v="572907" />
	</node>
	<node id="-189584" lat="59.7192277767" lon="10.313566672">
		<tag k="fixme" v="consider boundary=protected_area and relevant protect_class if not nature reserve" />
		<tag k="leisure" v="nature_reserve" />
		<tag k="name" v="Lahellholmen" />
		<tag k="ssr:stedsnr" v="572825" />
	</node>
	<node id="-189583" lat="59.7148944447" lon="10.3499916688">
		<tag k="name" v="Vestre Hyggen" />
		<tag k="place" v="farm" />
		<tag k="ssr:stedsnr" v="572817" />
	</node>
	<node id="-189582" lat="59.7190500037" lon="10.3698666639">
		<tag k="fixme" v="consider natural=peak for the most distinct mountains in the district" />
		<tag k="name" v="Langkilåsen" />
		<tag k="natural" v="hill" />
		<tag k="place" v="locality" />
		<tag k="ssr:stedsnr" v="572813" />
	</node>
	<node id="-189581" lat="59.6873694446" lon="10.4109972143">
		<tag k="name" v="Apalberget" />
		<tag k="natural" v="cape" />
		<tag k="ssr:stedsnr" v="572803" />
	</node>
	<node id="-189580" lat="59.6912722232" lon="10.4214722257">
		<tag k="fixme" v="consider natural=peak for the most distinct mountains in the district" />
		<tag k="name" v="Herningsåsen" />
		<tag k="natural" v="hill" />
		<tag k="place" v="locality" />
		<tag k="ssr:stedsnr" v="572800" />
	</node>
	<node id="-189579" lat="59.732219443" lon="10.3231305489">
		<tag k="alt_name" v="Dagslet" />
		<tag k="name" v="Dagslett" />
		<tag k="place" v="farm" />
		<tag k="ssr:stedsnr" v="572437" />
	</node>
	<node id="-189578" lat="59.7708083342" lon="10.3699777728">
		<tag k="name" v="Trangeberga" />
		<tag k="natural" v="hill" />
		<tag k="place" v="locality" />
		<tag k="ssr:stedsnr" v="572389" />
	</node>
	<node id="-189577" lat="59.7681916624" lon="10.3624055559">
		<tag k="name" v="Skjeljamyr" />
		<tag k="natural" v="wetland" />
		<tag k="ssr:stedsnr" v="572297" />
	</node>
	<node id="-189576" lat="59.7363305551" lon="10.5165500056">
		<tag k="name" v="Vollegrunnen" />
		<tag k="natural" v="shoal" />
		<tag k="place" v="locality" />
		<tag k="ssr:stedsnr" v="571133" />
	</node>
	<node id="-189575" lat="59.6999263981" lon="10.5388135755">
		<tag k="name" v="Engnesbukta" />
		<tag k="natural" v="bay" />
		<tag k="ssr:stedsnr" v="571131" />
	</node>
	<node id="-189574" lat="59.7015750028" lon="10.5248416725">
		<tag k="name" v="Gråøysundet" />
		<tag k="natural" v="strait" />
		<tag k="ssr:stedsnr" v="570809" />
	</node>
	<node id="-189573" lat="59.6946055545" lon="10.5185555468">
		<tag k="name" v="Lagerbukta" />
		<tag k="natural" v="bay" />
		<tag k="ssr:stedsnr" v="570810" />
	</node>
	<node id="-189572" lat="59.7624194463" lon="10.4881444436">
		<tag k="name" v="Rydningen" />
		<tag k="place" v="farm" />
		<tag k="ssr:stedsnr" v="570612" />
	</node>
	<node id="-189571" lat="59.7517250018" lon="10.5133138935">
		<tag k="name" v="Torskeberget" />
		<tag k="natural" v="cape" />
		<tag k="ssr:stedsnr" v="570507" />
	</node>
	<node id="-189570" lat="59.7727111107" lon="10.5071222293">
		<tag k="name" v="Grunnvikgrunnen" />
		<tag k="natural" v="shoal" />
		<tag k="place" v="locality" />
		<tag k="ssr:stedsnr" v="570501" />
	</node>
	<node id="-189569" lat="59.7516742306" lon="10.4342077064">
		<tag k="fixme" v="consider place=hamlet" />
		<tag k="name" v="Bryn" />
		<tag k="place" v="farm" />
		<tag k="ssr:stedsnr" v="551506" />
	</node>
	<node id="-189568" lat="59.7780416645" lon="10.4805611194">
		<tag k="name" v="Lillelien" />
		<tag k="place" v="isolated_dwelling" />
		<tag k="ssr:stedsnr" v="550665" />
	</node>
	<node id="-189567" lat="59.7386338333" lon="10.3756343647">
		<tag k="name" v="Auvi" />
		<tag k="place" v="hamlet" />
		<tag k="ssr:stedsnr" v="549942" />
	</node>
	<node id="-189566" lat="59.7133032534" lon="10.4442246357">
		<tag k="alt_name" v="Søndre Flater" />
		<tag k="fixme" v="consider place=hamlet" />
		<tag k="name" v="Flater" />
		<tag k="place" v="farm" />
		<tag k="ssr:stedsnr" v="549785" />
	</node>
	<node id="-189565" lat="59.7285166695" lon="10.3213277825">
		<tag k="name" v="Skogen" />
		<tag k="place" v="isolated_dwelling" />
		<tag k="ssr:stedsnr" v="549260" />
	</node>
	<node id="-189564" lat="59.7587805589" lon="10.3177250008">
		<tag k="fixme" v="consider natural=peak for the most distinct mountains in the district" />
		<tag k="name" v="Gyriåsen" />
		<tag k="natural" v="hill" />
		<tag k="place" v="locality" />
		<tag k="ssr:stedsnr" v="549081" />
	</node>
	<node id="-189563" lat="59.7473722182" lon="10.3411638814">
		<tag k="name" v="Søndre Rud" />
		<tag k="place" v="farm" />
		<tag k="ssr:stedsnr" v="548371" />
	</node>
	<node id="-189562" lat="59.7231011104" lon="10.5186086025">
		<tag k="name" v="Båtstøbukta" />
		<tag k="natural" v="bay" />
		<tag k="ssr:stedsnr" v="544802" />
	</node>
	<node id="-189561" lat="59.7454416677" lon="10.5106638864">
		<tag k="name" v="Gabrielsbyen" />
		<tag k="place" v="isolated_dwelling" />
		<tag k="ssr:stedsnr" v="543151" />
	</node>
	<node id="-189560" lat="59.7454416651" lon="10.5050222264">
		<tag k="name" v="Gabrielsrabbane" />
		<tag k="natural" v="hill" />
		<tag k="place" v="locality" />
		<tag k="ssr:stedsnr" v="543116" />
	</node>
	<node id="-189559" lat="59.7324849566" lon="10.5189141367">
		<tag k="name" v="Steinbergbukta" />
		<tag k="natural" v="bay" />
		<tag k="ssr:stedsnr" v="543113" />
	</node>
	<node id="-189558" lat="59.7484749968" lon="10.4906472277">
		<tag k="name" v="Torget" />
		<tag k="place" v="isolated_dwelling" />
		<tag k="ssr:stedsnr" v="513864" />
	</node>
	<node id="-189557" lat="59.7456166629" lon="10.4002833372">
		<tag k="name" v="Heggum" />
		<tag k="place" v="isolated_dwelling" />
		<tag k="ssr:stedsnr" v="512526" />
	</node>
	<node id="-189556" lat="59.7371222246" lon="10.4543277745">
		<tag k="name" v="Grønli" />
		<tag k="place" v="isolated_dwelling" />
		<tag k="ssr:stedsnr" v="512501" />
	</node>
	<node id="-189555" lat="59.7249694426" lon="10.4632416638">
		<tag k="name" v="Hotvet meieri" />
		<tag k="place" v="isolated_dwelling" />
		<tag k="ssr:stedsnr" v="512480" />
	</node>
	<node id="-189554" lat="59.7670111129" lon="10.4330166677">
		<tag k="name" v="Hagen" />
		<tag k="place" v="isolated_dwelling" />
		<tag k="ssr:stedsnr" v="512358" />
	</node>
	<node id="-189553" lat="59.7194444429" lon="10.4317944469">
		<tag k="name" v="Rundløkka" />
		<tag k="place" v="locality" />
		<tag k="ssr:stedsnr" v="511955" />
	</node>
	<node id="-189552" lat="59.6917472204" lon="10.4726444475">
		<tag k="name" v="Smedmyrdalen" />
		<tag k="natural" v="valley" />
		<tag k="place" v="locality" />
		<tag k="ssr:stedsnr" v="511956" />
	</node>
	<node id="-189551" lat="59.7095138847" lon="10.399138885">
		<tag k="name" v="Fuglemyrdalen" />
		<tag k="natural" v="valley" />
		<tag k="place" v="locality" />
		<tag k="ssr:stedsnr" v="511950" />
	</node>
	<node id="-189550" lat="59.7025111127" lon="10.4024027708">
		<tag k="fixme" v="consider natural=peak for the most distinct mountains in the district" />
		<tag k="name" v="Geitmyråsen" />
		<tag k="natural" v="hill" />
		<tag k="place" v="locality" />
		<tag k="ssr:stedsnr" v="511771" />
	</node>
	<node id="-189549" lat="59.7204777795" lon="10.3909638952">
		<tag k="name" v="Skogen" />
		<tag k="natural" v="wetland" />
		<tag k="ssr:stedsnr" v="511767" />
	</node>
	<node id="-189548" lat="59.6944583312" lon="10.4129388848">
		<tag k="name" v="Jerdalsbekken" />
		<tag k="ssr:stedsnr" v="511758" />
		<tag k="waterway" v="stream" />
	</node>
	<node id="-189547" lat="59.7334305541" lon="10.3727555482">
		<tag k="fixme" v="consider natural=peak for the most distinct mountains in the district" />
		<tag k="name" v="Kalvåsen" />
		<tag k="natural" v="hill" />
		<tag k="place" v="locality" />
		<tag k="ssr:stedsnr" v="511408" />
	</node>
	<node id="-189546" lat="59.7803527803" lon="10.3718194487">
		<tag k="name" v="Langemyrene" />
		<tag k="natural" v="wetland" />
		<tag k="ssr:stedsnr" v="511265" />
	</node>
	<node id="-189545" lat="59.764634555" lon="10.4303851719">
		<tag k="fixme" v="consider place=hamlet" />
		<tag k="name" v="Hajum" />
		<tag k="place" v="farm" />
		<tag k="ssr:stedsnr" v="490629" />
	</node>
	<node id="-189544" lat="59.7506258391" lon="10.3247685194">
		<tag k="fixme" v="consider place=hamlet" />
		<tag k="name" v="Karlsrud" />
		<tag k="place" v="farm" />
		<tag k="ssr:stedsnr" v="489107" />
	</node>
	<node id="-189543" lat="59.7160956717" lon="10.4862878273">
		<tag k="fixme" v="consider place=hamlet" />
		<tag k="name" v="Lingsom" />
		<tag k="place" v="farm" />
		<tag k="ssr:stedsnr" v="488795" />
	</node>
	<node id="-189542" lat="59.7168945108" lon="10.4959931836">
		<tag k="fixme" v="consider place=hamlet" />
		<tag k="name" v="Sundby" />
		<tag k="place" v="farm" />
		<tag k="ssr:stedsnr" v="488793" />
	</node>
	<node id="-189541" lat="59.7167853451" lon="10.4724171532">
		<tag k="fixme" v="consider place=hamlet" />
		<tag k="name" v="Dalebråten" />
		<tag k="place" v="farm" />
		<tag k="ssr:stedsnr" v="488790" />
	</node>
	<node id="-189540" lat="59.684958331" lon="10.48574167">
		<tag k="alt_name" v="Skånevannet" />
		<tag k="name" v="Skånevann" />
		<tag k="natural" v="water" />
		<tag k="ssr:stedsnr" v="488770" />
	</node>
	<node id="-189539" lat="59.7474119659" lon="10.4014419467">
		<tag k="fixme" v="consider place=hamlet" />
		<tag k="name" v="Heggum" />
		<tag k="place" v="farm" />
		<tag k="ssr:stedsnr" v="488993" />
	</node>
	<node id="-189538" lat="59.7458638918" lon="10.3701888891">
		<tag k="name" v="Vestre Grini" />
		<tag k="place" v="farm" />
		<tag k="ssr:stedsnr" v="488992" />
	</node>
	<node id="-189537" lat="59.7408550052" lon="10.5112689081">
		<tag k="fixme" v="consider place=hamlet" />
		<tag k="name" v="Ramton" />
		<tag k="place" v="farm" />
		<tag k="ssr:stedsnr" v="488966" />
	</node>
	<node id="-189536" lat="59.7415962641" lon="10.4255896692">
		<tag k="fixme" v="consider place=hamlet" />
		<tag k="name" v="Grette" />
		<tag k="place" v="farm" />
		<tag k="ssr:stedsnr" v="488963" />
	</node>
	<node id="-189535" lat="59.7307555576" lon="10.3979916703">
		<tag k="fixme" v="consider natural=peak for the most distinct mountains in the district" />
		<tag k="name" v="Storåsen" />
		<tag k="natural" v="hill" />
		<tag k="place" v="locality" />
		<tag k="ssr:stedsnr" v="488955" />
	</node>
	<node id="-189534" lat="59.7188305567" lon="10.3273250013">
		<tag k="fixme" v="consider natural=peak for the most distinct mountains in the district" />
		<tag k="name" v="Kaståsen" />
		<tag k="natural" v="hill" />
		<tag k="place" v="locality" />
		<tag k="ssr:stedsnr" v="488237" />
	</node>
	<node id="-189533" lat="59.7209222208" lon="10.3327194493">
		<tag k="alt_name" v="Bjørndalen" />
		<tag k="name" v="Bjønndalen" />
		<tag k="natural" v="valley" />
		<tag k="place" v="locality" />
		<tag k="ssr:stedsnr" v="488236" />
	</node>
	<node id="-189532" lat="59.6997194468" lon="10.4828555626">
		<tag k="name" v="Kølabånn" />
		<tag k="place" v="isolated_dwelling" />
		<tag k="ssr:stedsnr" v="483761" />
	</node>
	<node id="-189531" lat="59.7291555529" lon="10.4313999994">
		<tag k="bridge" v="yes" />
		<tag k="layer" v="1" />
		<tag k="name" v="Villingstad" />
		<tag k="ssr:stedsnr" v="471921" />
	</node>
	<node id="-189530" lat="59.7577527752" lon="10.5028361062">
		<tag k="bridge" v="yes" />
		<tag k="layer" v="1" />
		<tag k="name" v="Nærnes" />
		<tag k="ssr:stedsnr" v="471913" />
	</node>
	<node id="-189529" lat="59.6931444439" lon="10.5097999953">
		<tag k="name" v="Bestonkollen" />
		<tag k="natural" v="hill" />
		<tag k="place" v="locality" />
		<tag k="ssr:stedsnr" v="464777" />
	</node>
	<node id="-189528" lat="59.7607416673" lon="10.4975055625">
		<tag k="alt_name" v="Nærsnes" />
		<tag k="amenity" v="place_of_worship" />
		<tag k="denomination" v="lutheran" />
		<tag k="name" v="Nærsnes kirke" />
		<tag k="religion" v="christian" />
		<tag k="ssr:stedsnr" v="458017" />
	</node>
	<node id="-189527" lat="59.7463083326" lon="10.504516663">
		<tag k="alt_name" v="Flåta" />
		<tag k="fixme" v="consider natural=peak for the most distinct mountains in the district" />
		<tag k="name" v="Flådda" />
		<tag k="natural" v="hill" />
		<tag k="place" v="locality" />
		<tag k="ssr:stedsnr" v="452856" />
	</node>
	<node id="-189526" lat="59.7829499972" lon="10.5009638864">
		<tag k="man_made" v="quay" />
		<tag k="name" v="Slemmestad brygge" />
		<tag k="place" v="locality" />
		<tag k="ssr:stedsnr" v="452845" />
	</node>
	<node id="-189525" lat="59.7779222245" lon="10.4429805525">
		<tag k="name" v="Stokkerskogen" />
		<tag k="place" v="locality" />
		<tag k="ssr:stedsnr" v="452789" />
	</node>
	<node id="-189524" lat="59.7719083343" lon="10.4354500033">
		<tag k="name" v="Grodalselva" />
		<tag k="ssr:stedsnr" v="452788" />
		<tag k="waterway" v="river" />
	</node>
	<node id="-189523" lat="59.7411833335" lon="10.4351444364">
		<tag k="name" v="Ølstad" />
		<tag k="place" v="farm" />
		<tag k="ssr:stedsnr" v="452512" />
	</node>
	<node id="-189522" lat="59.766349996" lon="10.4222749954">
		<tag k="name" v="Tronstad" />
		<tag k="place" v="farm" />
		<tag k="ssr:stedsnr" v="452387" />
	</node>
	<node id="-189521" lat="59.7560500008" lon="10.3977277834">
		<tag k="name" v="Kleivardammen" />
		<tag k="natural" v="water" />
		<tag k="ssr:stedsnr" v="452377" />
	</node>
	<node id="-189520" lat="59.6815305578" lon="10.4524999932">
		<tag k="name" v="Grauteruddalen" />
		<tag k="natural" v="valley" />
		<tag k="place" v="locality" />
		<tag k="ssr:stedsnr" v="451960" />
	</node>
	<node id="-189519" lat="59.6910111142" lon="10.487297219">
		<tag k="fixme" v="consider natural=peak for the most distinct mountains in the district" />
		<tag k="name" v="Rømmegrøtkleivåsen" />
		<tag k="natural" v="hill" />
		<tag k="place" v="locality" />
		<tag k="ssr:stedsnr" v="451953" />
	</node>
	<node id="-189518" lat="59.7226055596" lon="10.4855277821">
		<tag k="name" v="Røykedalen" />
		<tag k="natural" v="valley" />
		<tag k="place" v="locality" />
		<tag k="ssr:stedsnr" v="451925" />
	</node>
	<node id="-189517" lat="59.7180750038" lon="10.3480000049">
		<tag k="name" v="Ovnerudfloget" />
		<tag k="natural" v="cliff" />
		<tag k="ssr:stedsnr" v="451809" />
	</node>
	<node id="-189516" lat="59.7177999988" lon="10.3931416595">
		<tag k="name" v="Slåttemyrdalen" />
		<tag k="natural" v="valley" />
		<tag k="place" v="locality" />
		<tag k="ssr:stedsnr" v="451808" />
	</node>
	<node id="-189515" lat="59.7280053714" lon="10.3750010118">
		<tag k="name" v="Guttersrud" />
		<tag k="place" v="hamlet" />
		<tag k="ssr:stedsnr" v="451436" />
	</node>
	<node id="-189514" lat="59.7693805521" lon="10.3257305575">
		<tag k="name" v="Bjørndalsmyr" />
		<tag k="natural" v="wetland" />
		<tag k="ssr:stedsnr" v="451385" />
	</node>
	<node id="-189513" lat="59.7469919846" lon="10.3325875315">
		<tag k="fixme" v="consider place=hamlet" />
		<tag k="name" v="Spikkestad" />
		<tag k="place" v="farm" />
		<tag k="ssr:stedsnr" v="451337" />
	</node>
	<node id="-189512" lat="59.7782861083" lon="10.3477361155">
		<tag k="name" v="Karimyr" />
		<tag k="natural" v="wetland" />
		<tag k="ssr:stedsnr" v="451292" />
	</node>
	<node id="-189511" lat="59.7798833288" lon="10.3535916721">
		<tag k="name" v="Fredriksmyr" />
		<tag k="natural" v="wetland" />
		<tag k="ssr:stedsnr" v="451290" />
	</node>
	<node id="-189510" lat="59.7838833311" lon="10.3659583328">
		<tag k="name" v="Oksemyr" />
		<tag k="natural" v="wetland" />
		<tag k="ssr:stedsnr" v="451285" />
	</node>
	<node id="-189509" lat="59.7758444413" lon="10.3741805605">
		<tag k="name" v="Furumyr" />
		<tag k="natural" v="wetland" />
		<tag k="ssr:stedsnr" v="451284" />
	</node>
	<node id="-189508" lat="59.7201472226" lon="10.3659111126">
		<tag k="amenity" v="community_centre" />
		<tag k="name" v="Hyggenhuset" />
		<tag k="ssr:stedsnr" v="450479" />
	</node>
	<node id="-189507" lat="59.7497472219" lon="10.5126388901">
		<tag k="name" v="Nybråten" />
		<tag k="place" v="farm" />
		<tag k="ssr:stedsnr" v="449640" />
	</node>
	<node id="-189506" lat="59.7731222193" lon="10.5408027694">
		<tag k="name" v="Abborberget" />
		<tag k="natural" v="shoal" />
		<tag k="place" v="locality" />
		<tag k="ssr:stedsnr" v="449519" />
	</node>
	<node id="-189505" lat="59.7411583355" lon="10.4220972275">
		<tag k="fixme" v="consider place=hamlet" />
		<tag k="name" v="Midtbygda" />
		<tag k="place" v="village" />
		<tag k="ssr:stedsnr" v="445989" />
	</node>
	<node id="-189504" lat="59.7527805578" lon="10.4008194518">
		<tag k="name" v="Hegga" />
		<tag k="ssr:stedsnr" v="430648" />
		<tag k="waterway" v="river" />
	</node>
	<node id="-189503" lat="59.7727333321" lon="10.3365305535">
		<tag k="name" v="Kjosmyra" />
		<tag k="place" v="farm" />
		<tag k="ssr:stedsnr" v="429162" />
	</node>
	<node id="-189502" lat="59.7491861097" lon="10.5129444417">
		<tag k="man_made" v="quay" />
		<tag k="name" v="Svaberg" />
		<tag k="place" v="locality" />
		<tag k="ssr:stedsnr" v="428939" />
	</node>
	<node id="-189501" lat="59.7434333334" lon="10.5340583326">
		<tag k="name" v="Østre Ramtongrunnen" />
		<tag k="natural" v="shoal" />
		<tag k="place" v="locality" />
		<tag k="ssr:stedsnr" v="428938" />
	</node>
	<node id="-189500" lat="59.7063500016" lon="10.4317833293">
		<tag k="alt_name" v="Bjønnmyråsen" />
		<tag k="fixme" v="consider natural=peak for the most distinct mountains in the district" />
		<tag k="name" v="Bjørnmyråsen" />
		<tag k="natural" v="hill" />
		<tag k="place" v="locality" />
		<tag k="ssr:stedsnr" v="428809" />
	</node>
	<node id="-189499" lat="59.7114000021" lon="10.3792555547">
		<tag k="name" v="Bukta" />
		<tag k="place" v="farm" />
		<tag k="ssr:stedsnr" v="428801" />
	</node>
	<node id="-189498" lat="59.723875003" lon="10.5340499957">
		<tag k="alt_name" v="Sundbyholmane" />
		<tag k="name" v="Sundbyholmene" />
		<tag k="place" v="islet" />
		<tag k="ssr:stedsnr" v="428787" />
	</node>
	<node id="-189497" lat="59.7439230595" lon="10.3257900676">
		<tag k="fixme" v="consider place=hamlet" />
		<tag k="name" v="Myre" />
		<tag k="place" v="farm" />
		<tag k="ssr:stedsnr" v="428327" />
	</node>
	<node id="-189496" lat="59.7455047862" lon="10.340496363">
		<tag k="name" v="Spikkestad stasjon" />
		<tag k="railway" v="station" />
		<tag k="ssr:stedsnr" v="427380" />
		<tag k="train" v="yes" />
	</node>
	<node id="-189495" lat="59.7481972199" lon="10.3231888886">
		<tag k="name" v="Myre" />
		<tag k="place" v="farm" />
		<tag k="ssr:stedsnr" v="427379" />
	</node>
	<node id="-189494" lat="59.7109416667" lon="10.5163972188">
		<tag k="fixme" v="consider natural=peak for the most distinct mountains in the district" />
		<tag k="name" v="Årosfjellet" />
		<tag k="natural" v="hill" />
		<tag k="place" v="locality" />
		<tag k="ssr:stedsnr" v="423756" />
	</node>
	<node id="-189493" lat="59.7848111149" lon="10.5015416729">
		<tag k="name" v="Slemmestadleira" />
		<tag k="natural" v="bay" />
		<tag k="ssr:stedsnr" v="422169" />
	</node>
	<node id="-189492" lat="59.7744416644" lon="10.4147249921">
		<tag k="name" v="Hallen" />
		<tag k="place" v="isolated_dwelling" />
		<tag k="ssr:stedsnr" v="247660" />
	</node>
	<node id="-189491" lat="59.7571381995" lon="10.4291422266">
		<tag k="fixme" v="consider place=hamlet" />
		<tag k="name" v="Skryset" />
		<tag k="place" v="farm" />
		<tag k="ssr:stedsnr" v="247626" />
	</node>
	<node id="-189490" lat="59.7586027787" lon="10.3776861081">
		<tag k="alt_name" v="Breimosen" />
		<tag k="name" v="Breidmåsan" />
		<tag k="natural" v="wetland" />
		<tag k="ssr:stedsnr" v="247624" />
	</node>
	<node id="-189489" lat="59.7636896946" lon="10.4443462951">
		<tag k="fixme" v="consider place=hamlet" />
		<tag k="name" v="Fossum" />
		<tag k="place" v="farm" />
		<tag k="ssr:stedsnr" v="247608" />
	</node>
	<node id="-189488" lat="59.7558527777" lon="10.340836115">
		<tag k="name" v="Kjoselva" />
		<tag k="ssr:stedsnr" v="247579" />
		<tag k="waterway" v="river" />
	</node>
	<node id="-189487" lat="59.7503969625" lon="10.4653909484">
		<tag k="fixme" v="consider place=hamlet" />
		<tag k="name" v="Auke" />
		<tag k="place" v="farm" />
		<tag k="ssr:stedsnr" v="247574" />
	</node>
	<node id="-189486" lat="59.7322194457" lon="10.5295666592">
		<tag k="fixme" v="consider seamark:type=rock or natural=shoal" />
		<tag k="name" v="Høvikskjæra" />
		<tag k="place" v="islet" />
		<tag k="ssr:stedsnr" v="246954" />
	</node>
	<node id="-189485" lat="59.7422416624" lon="10.4078916588">
		<tag k="name" v="England" />
		<tag k="place" v="farm" />
		<tag k="ssr:stedsnr" v="246932" />
	</node>
	<node id="-189484" lat="59.7370583342" lon="10.4019472236">
		<tag k="alt_name" v="Enga" />
		<tag k="name" v="Engen" />
		<tag k="place" v="farm" />
		<tag k="ssr:stedsnr" v="246933" />
	</node>
	<node id="-189483" lat="59.6761333336" lon="10.4719027808">
		<tag k="name" v="Mårbergvannet" />
		<tag k="natural" v="water" />
		<tag k="ssr:stedsnr" v="246830" />
	</node>
	<node id="-189482" lat="59.7104837526" lon="10.4873633058">
		<tag k="fixme" v="consider place=hamlet" />
		<tag k="name" v="Follestad" />
		<tag k="place" v="farm" />
		<tag k="ssr:stedsnr" v="246766" />
	</node>
	<node id="-189481" lat="59.6892480618" lon="10.5189574917">
		<tag k="fixme" v="consider place=hamlet" />
		<tag k="name" v="Beston" />
		<tag k="place" v="farm" />
		<tag k="ssr:stedsnr" v="246728" />
	</node>
	<node id="-189480" lat="59.7057166706" lon="10.5319416638">
		<tag k="name" v="Gråøya" />
		<tag k="place" v="island" />
		<tag k="ssr:stedsnr" v="246719" />
	</node>
	<node id="-189479" lat="59.7453694425" lon="10.4133916591">
		<tag k="amenity" v="school" />
		<tag k="name" v="Midtbygda skole" />
		<tag k="ssr:stedsnr" v="245936" />
	</node>
	<node id="-189478" lat="59.7263643287" lon="10.5198802964">
		<tag k="name" v="Høviklaget" />
		<tag k="natural" v="bay" />
		<tag k="ssr:stedsnr" v="240810" />
	</node>
	<node id="-189477" lat="59.7534250029" lon="10.3926972262">
		<tag k="name" v="Vaskebekk" />
		<tag k="ssr:stedsnr" v="239032" />
		<tag k="waterway" v="stream" />
	</node>
	<node id="-189476" lat="59.7488222214" lon="10.3336000001">
		<tag k="alt_name" v="Baahus" />
		<tag k="name" v="Båhus" />
		<tag k="place" v="farm" />
		<tag k="ssr:stedsnr" v="239023" />
	</node>
	<node id="-189474" lat="59.7222333326" lon="10.5353666657">
		<tag k="name" v="Djupegrunnen" />
		<tag k="natural" v="shoal" />
		<tag k="place" v="locality" />
		<tag k="ssr:stedsnr" v="236071" />
	</node>
	<node id="-189473" lat="59.6958722191" lon="10.4945361033">
		<tag k="bridge" v="yes" />
		<tag k="layer" v="1" />
		<tag k="name" v="Frøtvedtmosen" />
		<tag k="ssr:stedsnr" v="228941" />
	</node>
	<node id="-189472" lat="59.6909972238" lon="10.5346111101">
		<tag k="fixme" v="consider seamark:type=rock or natural=shoal" />
		<tag k="name" v="Hjelpskjæret" />
		<tag k="place" v="islet" />
		<tag k="ssr:stedsnr" v="221709" />
	</node>
	<node id="-189471" lat="59.7411750007" lon="10.4220444519">
		<tag k="junction" v="yes" />
		<tag k="name" v="Rognliveien" />
		<tag k="place" v="locality" />
		<tag k="ssr:stedsnr" v="209565" />
	</node>
	<node id="-189470" lat="59.7328305577" lon="10.3839444435">
		<tag k="name" v="Sandvadbekken" />
		<tag k="ssr:stedsnr" v="209548" />
		<tag k="waterway" v="stream" />
	</node>
	<node id="-189469" lat="59.734705557" lon="10.4486055509">
		<tag k="name" v="Ølstad" />
		<tag k="place" v="farm" />
		<tag k="ssr:stedsnr" v="209429" />
	</node>
	<node id="-189468" lat="59.7665305535" lon="10.3787444415">
		<tag k="name" v="Haramyra" />
		<tag k="natural" v="wetland" />
		<tag k="ssr:stedsnr" v="209383" />
	</node>
	<node id="-189467" lat="59.6970527754" lon="10.4870250012">
		<tag k="name" v="Torget" />
		<tag k="place" v="locality" />
		<tag k="ssr:stedsnr" v="208969" />
	</node>
	<node id="-189466" lat="59.7089916676" lon="10.3849138871">
		<tag k="name" v="Buktebekken" />
		<tag k="ssr:stedsnr" v="208960" />
		<tag k="waterway" v="stream" />
	</node>
	<node id="-189465" lat="59.7103361152" lon="10.4020777709">
		<tag k="name" v="Breimosan" />
		<tag k="natural" v="wetland" />
		<tag k="ssr:stedsnr" v="208961" />
	</node>
	<node id="-189464" lat="59.7062499964" lon="10.5222750044">
		<tag k="man_made" v="quay" />
		<tag k="name" v="Åros brygge" />
		<tag k="place" v="locality" />
		<tag k="ssr:stedsnr" v="208952" />
	</node>
	<node id="-189463" lat="59.7171805584" lon="10.3219055613">
		<tag k="name" v="Høylandshulen" />
		<tag k="place" v="locality" />
		<tag k="ssr:stedsnr" v="208802" />
	</node>
	<node id="-189462" lat="59.7817805525" lon="10.5048000027">
		<tag k="name" v="Skonroken" />
		<tag k="place" v="islet" />
		<tag k="ssr:stedsnr" v="208344" />
	</node>
	<node id="-189461" lat="59.7805083373" lon="10.5048611109">
		<tag k="name" v="Kavringen" />
		<tag k="place" v="islet" />
		<tag k="ssr:stedsnr" v="208341" />
	</node>
	<node id="-189460" lat="59.765638892" lon="10.3262722277">
		<tag k="name" v="Høymyr" />
		<tag k="natural" v="wetland" />
		<tag k="ssr:stedsnr" v="208339" />
	</node>
	<node id="-189459" lat="59.7931249974" lon="10.3300444478">
		<tag k="fixme" v="consider natural=peak for the most distinct mountains in the district" />
		<tag k="name" v="Heggsjøåsen" />
		<tag k="natural" v="hill" />
		<tag k="place" v="locality" />
		<tag k="ssr:stedsnr" v="208280" />
	</node>
	<node id="-189458" lat="59.770894448" lon="10.3593694482">
		<tag k="name" v="Oppegårdsmyr" />
		<tag k="natural" v="wetland" />
		<tag k="ssr:stedsnr" v="208266" />
	</node>
	<node id="-189457" lat="59.7777833317" lon="10.3637444478">
		<tag k="name" v="Flatmyr" />
		<tag k="natural" v="wetland" />
		<tag k="ssr:stedsnr" v="208265" />
	</node>
	<node id="-189456" lat="59.784575001" lon="10.3345611072">
		<tag k="historic" v="shieling" />
		<tag k="name" v="Vikervollan" />
		<tag k="place" v="locality" />
		<tag k="ssr:stedsnr" v="208263" />
	</node>
	<node id="-189455" lat="59.7121498138" lon="10.3477038249">
		<tag k="name" v="Jonsbubukta" />
		<tag k="natural" v="bay" />
		<tag k="ssr:stedsnr" v="206574" />
	</node>
	<node id="-189454" lat="59.7603472267" lon="10.4639472165">
		<tag k="fixme" v="consider place=suburb, village or hamlet" />
		<tag k="name" v="Bødalen" />
		<tag k="place" v="quarter" />
		<tag k="ssr:stedsnr" v="205258" />
	</node>
	<node id="-189453" lat="59.7604277765" lon="10.4649999942">
		<tag k="name" v="Foss" />
		<tag k="place" v="farm" />
		<tag k="ssr:stedsnr" v="187610" />
	</node>
	<node id="-189452" lat="59.7556681181" lon="10.4173806414">
		<tag k="alt_name" v="Syltingle" />
		<tag k="fixme" v="consider place=hamlet" />
		<tag k="name" v="Syllingli" />
		<tag k="place" v="farm" />
		<tag k="ssr:stedsnr" v="187605" />
	</node>
	<node id="-189451" lat="59.7626138886" lon="10.514286114">
		<tag k="name" v="Strandheim" />
		<tag k="ssr:stedsnr" v="187593" />
		<tag k="tourism" v="hotel" />
	</node>
	<node id="-189450" lat="59.7703116879" lon="10.4422876826">
		<tag k="alt_name" v="Nordre Stokker" />
		<tag k="fixme" v="consider place=hamlet" />
		<tag k="name" v="Stokker" />
		<tag k="place" v="farm" />
		<tag k="ssr:stedsnr" v="187582" />
	</node>
	<node id="-189449" lat="59.7701083343" lon="10.3912361025">
		<tag k="name" v="Svartvannet" />
		<tag k="natural" v="water" />
		<tag k="ssr:stedsnr" v="187580" />
	</node>
	<node id="-189448" lat="59.7394462626" lon="10.4625464073">
		<tag k="name" v="Klemmetsrud" />
		<tag k="place" v="hamlet" />
		<tag k="ssr:stedsnr" v="185953" />
	</node>
	<node id="-189447" lat="59.7324239826" lon="10.4368534749">
		<tag k="fixme" v="consider place=hamlet" />
		<tag k="name" v="Villingstad" />
		<tag k="place" v="farm" />
		<tag k="ssr:stedsnr" v="185950" />
	</node>
	<node id="-189446" lat="59.7266833331" lon="10.351672219">
		<tag k="fixme" v="consider natural=peak for the most distinct mountains in the district" />
		<tag k="name" v="Høgåsen" />
		<tag k="natural" v="hill" />
		<tag k="place" v="locality" />
		<tag k="ssr:stedsnr" v="185947" />
	</node>
	<node id="-189445" lat="59.7300271726" lon="10.3639875034">
		<tag k="fixme" v="consider place=hamlet" />
		<tag k="name" v="Muserud" />
		<tag k="place" v="farm" />
		<tag k="ssr:stedsnr" v="185946" />
	</node>
	<node id="-189444" lat="59.7480083333" lon="10.4164444377">
		<tag k="fixme" v="consider natural=peak for the most distinct mountains in the district" />
		<tag k="name" v="Gleinåsen" />
		<tag k="natural" v="hill" />
		<tag k="place" v="locality" />
		<tag k="ssr:stedsnr" v="185941" />
	</node>
	<node id="-189443" lat="59.7403520533" lon="10.3835539479">
		<tag k="fixme" v="consider place=hamlet" />
		<tag k="name" v="Bråset" />
		<tag k="place" v="farm" />
		<tag k="ssr:stedsnr" v="185939" />
	</node>
	<node id="-189442" lat="59.710141668" lon="10.4597249917">
		<tag k="alt_name" v="Elgskogåsen" />
		<tag k="fixme" v="consider natural=peak for the most distinct mountains in the district" />
		<tag k="name" v="Elgskauåsen" />
		<tag k="natural" v="hill" />
		<tag k="place" v="locality" />
		<tag k="ssr:stedsnr" v="185780" />
	</node>
	<node id="-189441" lat="59.6893416624" lon="10.5300277779">
		<tag k="name" v="Torvøya" />
		<tag k="place" v="island" />
		<tag k="ssr:stedsnr" v="185741" />
	</node>
	<node id="-189440" lat="59.6864749999" lon="10.5484000084">
		<tag k="alt_name" v="Raudholmane" />
		<tag k="name" v="Rauholmene" />
		<tag k="place" v="islet" />
		<tag k="ssr:stedsnr" v="185740" />
	</node>
	<node id="-189439" lat="59.7251305544" lon="10.3745472183">
		<tag k="name" v="Guttersrud" />
		<tag k="place" v="isolated_dwelling" />
		<tag k="ssr:stedsnr" v="185765" />
	</node>
	<node id="-189437" lat="59.7296277817" lon="10.5214416582">
		<tag k="fixme" v="consider seamark:type=rock or natural=shoal" />
		<tag k="name" v="Demmekilskjæra" />
		<tag k="place" v="islet" />
		<tag k="ssr:stedsnr" v="180803" />
	</node>
	<node id="-189436" lat="59.7693194425" lon="10.468611115">
		<tag k="fixme" v="consider natural=peak for the most distinct mountains in the district" />
		<tag k="name" v="Bøsnipa" />
		<tag k="natural" v="hill" />
		<tag k="place" v="locality" />
		<tag k="ssr:stedsnr" v="148759" />
	</node>
	<node id="-189435" lat="59.7340638863" lon="10.4264388917">
		<tag k="name" v="Bjørnstaddalen" />
		<tag k="natural" v="valley" />
		<tag k="place" v="locality" />
		<tag k="ssr:stedsnr" v="148545" />
	</node>
	<node id="-189434" lat="59.7357694466" lon="10.4893833322">
		<tag k="alt_name" v="Teigen" />
		<tag k="name" v="Telgen" />
		<tag k="natural" v="valley" />
		<tag k="place" v="locality" />
		<tag k="ssr:stedsnr" v="148518" />
	</node>
	<node id="-189433" lat="59.7299416626" lon="10.4773527736">
		<tag k="name" v="Nordre Ski" />
		<tag k="place" v="farm" />
		<tag k="ssr:stedsnr" v="148515" />
	</node>
	<node id="-189432" lat="59.7255638912" lon="10.4554333301">
		<tag k="building" v="industrial" />
		<tag k="name" v="Vearsaga" />
		<tag k="ssr:stedsnr" v="148506" />
	</node>
	<node id="-189431" lat="59.7630661304" lon="10.3834455622">
		<tag k="name" v="Tretjern" />
		<tag k="natural" v="water" />
		<tag k="ssr:stedsnr" v="148376" />
	</node>
	<node id="-189430" lat="59.6821555548" lon="10.460786103">
		<tag k="name" v="Uredalen" />
		<tag k="natural" v="valley" />
		<tag k="place" v="locality" />
		<tag k="ssr:stedsnr" v="147956" />
	</node>
	<node id="-189429" lat="59.7109472224" lon="10.3951277785">
		<tag k="name" v="Buktevarden" />
		<tag k="natural" v="hill" />
		<tag k="place" v="locality" />
		<tag k="ssr:stedsnr" v="147942" />
	</node>
	<node id="-189428" lat="59.7259583338" lon="10.4937361057">
		<tag k="fixme" v="consider natural=peak for the most distinct mountains in the district" />
		<tag k="name" v="Hovåsen" />
		<tag k="natural" v="hill" />
		<tag k="place" v="locality" />
		<tag k="ssr:stedsnr" v="147920" />
	</node>
	<node id="-189427" lat="59.7036916626" lon="10.4477027716">
		<tag k="name" v="Eglevann" />
		<tag k="natural" v="water" />
		<tag k="ssr:stedsnr" v="147883" />
		<tag k="water" v="lake" />
	</node>
	<node id="-189426" lat="59.6984888884" lon="10.3914305624">
		<tag k="name" v="Sand" />
		<tag k="place" v="isolated_dwelling" />
		<tag k="ssr:stedsnr" v="147773" />
	</node>
	<node id="-189425" lat="59.6976194437" lon="10.3922916625">
		<tag k="name" v="Høybakk" />
		<tag k="place" v="isolated_dwelling" />
		<tag k="ssr:stedsnr" v="147772" />
	</node>
	<node id="-189424" lat="59.6936388847" lon="10.4161083381">
		<tag k="name" v="Jerdal" />
		<tag k="place" v="farm" />
		<tag k="ssr:stedsnr" v="147765" />
	</node>
	<node id="-189423" lat="59.7855916646" lon="10.340797218">
		<tag k="name" v="Barlindmyr" />
		<tag k="natural" v="wetland" />
		<tag k="old_name" v="Langemyrene" />
		<tag k="ssr:stedsnr" v="147278" />
	</node>
	<node id="-189422" lat="59.7759888918" lon="10.3544194372">
		<tag k="name" v="Bertelsmyra" />
		<tag k="natural" v="wetland" />
		<tag k="ssr:stedsnr" v="126663" />
	</node>
	<node id="-189421" lat="59.7811833333" lon="10.3543916592">
		<tag k="name" v="Kjekstadmarka" />
		<tag k="place" v="locality" />
		<tag k="ssr:stedsnr" v="126653" />
	</node>
	<node id="-189420" lat="59.6778444425" lon="10.4681138934">
		<tag k="fixme" v="consider natural=peak for the most distinct mountains in the district" />
		<tag k="name" v="Kuven" />
		<tag k="natural" v="hill" />
		<tag k="place" v="locality" />
		<tag k="ssr:stedsnr" v="125863" />
	</node>
	<node id="-189419" lat="59.7508527807" lon="10.4408416651">
		<tag k="alt_name" v="Holmen" />
		<tag k="name" v="Brynsholmen" />
		<tag k="place" v="farm" />
		<tag k="ssr:stedsnr" v="125607" />
	</node>
	<node id="-189418" lat="59.7363805524" lon="10.479438884">
		<tag k="name" v="Gislerudbråten" />
		<tag k="place" v="locality" />
		<tag k="ssr:stedsnr" v="124961" />
	</node>
	<node id="-189417" lat="59.7317861131" lon="10.4612166621">
		<tag k="name" v="Søndre Mortensrud" />
		<tag k="place" v="farm" />
		<tag k="ssr:stedsnr" v="124958" />
	</node>
	<node id="-189416" lat="59.7290499979" lon="10.3836611109">
		<tag k="fixme" v="consider natural=peak for the most distinct mountains in the district" />
		<tag k="name" v="Hollenderen" />
		<tag k="natural" v="hill" />
		<tag k="place" v="locality" />
		<tag k="ssr:stedsnr" v="124956" />
	</node>
	<node id="-189415" lat="59.7025991965" lon="10.4553577709">
		<tag k="name" v="Svartvann" />
		<tag k="natural" v="water" />
		<tag k="ssr:stedsnr" v="124769" />
	</node>
	<node id="-189414" lat="59.7237332076" lon="10.4404332233">
		<tag k="fixme" v="consider place=hamlet" />
		<tag k="name" v="Haug" />
		<tag k="place" v="farm" />
		<tag k="ssr:stedsnr" v="124759" />
	</node>
	<node id="-189413" lat="59.6870138857" lon="10.4750583244">
		<tag k="fixme" v="consider natural=peak for the most distinct mountains in the district" />
		<tag k="name" v="Smedmyråsen" />
		<tag k="natural" v="hill" />
		<tag k="place" v="locality" />
		<tag k="ssr:stedsnr" v="124722" />
	</node>
	<node id="-189412" lat="59.6850694451" lon="10.4922027764">
		<tag k="alt_name" v="Gampetjern" />
		<tag k="name" v="Gampetjernet" />
		<tag k="natural" v="water" />
		<tag k="ssr:stedsnr" v="124720" />
	</node>
	<node id="-189411" lat="59.6919443767" lon="10.4261927617">
		<tag k="fixme" v="consider place=hamlet" />
		<tag k="name" v="Grimsrud" />
		<tag k="place" v="farm" />
		<tag k="ssr:stedsnr" v="124713" />
	</node>
	<node id="-189410" lat="59.696986112" lon="10.4484694511">
		<tag k="name" v="Rundvann" />
		<tag k="natural" v="water" />
		<tag k="ssr:stedsnr" v="124712" />
	</node>
	<node id="-189409" lat="59.770872226" lon="10.5033583316">
		<tag k="name" v="Hiken" />
		<tag k="natural" v="bay" />
		<tag k="ssr:stedsnr" v="88828" />
	</node>
	<node id="-189408" lat="59.7708999987" lon="10.4778000037">
		<tag k="name" v="Bøbekken" />
		<tag k="ssr:stedsnr" v="88815" />
		<tag k="waterway" v="stream" />
	</node>
	<node id="-189407" lat="59.7758361149" lon="10.4066694389">
		<tag k="name" v="Øvre Hallenskog" />
		<tag k="place" v="hamlet" />
		<tag k="ssr:stedsnr" v="88539" />
	</node>
	<node id="-189406" lat="59.733558334" lon="10.4019277859">
		<tag k="name" v="Liverudleina" />
		<tag k="place" v="farm" />
		<tag k="ssr:stedsnr" v="88473" />
	</node>
	<node id="-189405" lat="59.7436388909" lon="10.4584555502">
		<tag k="name" v="Gunnerudbråten" />
		<tag k="place" v="isolated_dwelling" />
		<tag k="ssr:stedsnr" v="88434" />
	</node>
	<node id="-189404" lat="59.7616333341" lon="10.506427778">
		<tag k="name" v="Saltbutangen" />
		<tag k="natural" v="cape" />
		<tag k="ssr:stedsnr" v="88276" />
	</node>
	<node id="-189403" lat="59.6839055574" lon="10.4792000049">
		<tag k="name" v="Moltemyra" />
		<tag k="natural" v="wetland" />
		<tag k="ssr:stedsnr" v="87947" />
	</node>
	<node id="-189402" lat="59.7144986579" lon="10.4439143848">
		<tag k="name" v="Nordre Flater" />
		<tag k="place" v="farm" />
		<tag k="ssr:stedsnr" v="87920" />
	</node>
	<node id="-189401" lat="59.6905253063" lon="10.4018847862">
		<tag k="name" v="Jerdalsbukta" />
		<tag k="natural" v="bay" />
		<tag k="ssr:stedsnr" v="87782" />
	</node>
	<node id="-189400" lat="59.7335361134" lon="10.368538892">
		<tag k="fixme" v="consider natural=peak for the most distinct mountains in the district" />
		<tag k="name" v="Muserudåsen" />
		<tag k="natural" v="hill" />
		<tag k="place" v="locality" />
		<tag k="ssr:stedsnr" v="87414" />
	</node>
	<node id="-189399" lat="59.774441664" lon="10.505880558">
		<tag k="name" v="Puta" />
		<tag k="place" v="islet" />
		<tag k="ssr:stedsnr" v="87334" />
	</node>
	<node id="-189398" lat="59.7469166704" lon="10.329875001">
		<tag k="name" v="Ulverud" />
		<tag k="natural" v="valley" />
		<tag k="place" v="locality" />
		<tag k="ssr:stedsnr" v="87331" />
	</node>
	<node id="-189397" lat="59.755213892" lon="10.5330722173">
		<tag k="name" v="Furugrunnane" />
		<tag k="natural" v="shoal" />
		<tag k="place" v="locality" />
		<tag k="ssr:stedsnr" v="86150" />
	</node>
	<node id="-189396" lat="59.7085305574" lon="10.5391333404">
		<tag k="name" v="Gråøyrenna" />
		<tag k="natural" v="strait" />
		<tag k="ssr:stedsnr" v="86127" />
	</node>
	<node id="-189394" lat="59.7155944439" lon="10.3741999965">
		<tag k="name" v="Finnebråten" />
		<tag k="place" v="isolated_dwelling" />
		<tag k="ssr:stedsnr" v="85526" />
	</node>
	<node id="-189393" lat="59.7862916654" lon="10.4017055471">
		<tag k="name" v="Rødbekk" />
		<tag k="ssr:stedsnr" v="83737" />
		<tag k="waterway" v="stream" />
	</node>
	<node id="-189392" lat="59.7600972234" lon="10.3597527701">
		<tag k="fixme" v="consider natural=peak for the most distinct mountains in the district" />
		<tag k="name" v="Ringåsen" />
		<tag k="natural" v="hill" />
		<tag k="place" v="locality" />
		<tag k="ssr:stedsnr" v="66632" />
	</node>
	<node id="-189391" lat="59.7529638999" lon="10.3875373249">
		<tag k="fixme" v="consider place=hamlet" />
		<tag k="name" v="Kjekstad" />
		<tag k="place" v="farm" />
		<tag k="ssr:stedsnr" v="66630" />
	</node>
	<node id="-189390" lat="59.7754444433" lon="10.4993777694">
		<tag k="name" v="Kirkerud" />
		<tag k="place" v="farm" />
		<tag k="ssr:stedsnr" v="65684" />
	</node>
	<node id="-189389" lat="59.7684298931" lon="10.4935874584">
		<tag k="fixme" v="consider place=hamlet" />
		<tag k="name" v="Morberg" />
		<tag k="place" v="farm" />
		<tag k="ssr:stedsnr" v="65618" />
	</node>
	<node id="-189388" lat="59.7357242684" lon="10.392976763">
		<tag k="fixme" v="consider place=hamlet" />
		<tag k="name" v="Jaksland" />
		<tag k="place" v="farm" />
		<tag k="ssr:stedsnr" v="64961" />
	</node>
	<node id="-189387" lat="59.7107409448" lon="10.4952961274">
		<tag k="fixme" v="consider place=hamlet" />
		<tag k="name" v="Frøtvet" />
		<tag k="place" v="farm" />
		<tag k="ssr:stedsnr" v="64810" />
	</node>
	<node id="-189386" lat="59.7192286336" lon="10.4576354403">
		<tag k="fixme" v="consider place=hamlet" />
		<tag k="name" v="Lund" />
		<tag k="place" v="farm" />
		<tag k="ssr:stedsnr" v="64802" />
	</node>
	<node id="-189385" lat="59.7230583331" lon="10.5267416623">
		<tag k="alt_name" v="Midgrunnen" />
		<tag k="name" v="Midtgrunnen" />
		<tag k="natural" v="shoal" />
		<tag k="place" v="locality" />
		<tag k="ssr:stedsnr" v="64800" />
	</node>
	<node id="-189384" lat="59.7201361147" lon="10.3798777749">
		<tag k="alt_name" v="Haugene" />
		<tag k="name" v="Haugane" />
		<tag k="place" v="farm" />
		<tag k="ssr:stedsnr" v="64790" />
	</node>
	<node id="-189383" lat="59.7277954003" lon="10.3349964979">
		<tag k="fixme" v="consider place=hamlet" />
		<tag k="name" v="Brøholt" />
		<tag k="place" v="farm" />
		<tag k="ssr:stedsnr" v="64250" />
	</node>
	<node id="-189382" lat="59.7455305518" lon="10.3440666749">
		<tag k="name" v="Oddevall" />
		<tag k="place" v="farm" />
		<tag k="ssr:stedsnr" v="63987" />
	</node>
	<node id="-189381" lat="59.7485433408" lon="10.4597931908">
		<tag k="fixme" v="consider place=hamlet" />
		<tag k="name" v="Grav" />
		<tag k="place" v="farm" />
		<tag k="ssr:stedsnr" v="63941" />
	</node>
	<node id="-189380" lat="59.7840250037" lon="10.3832305496">
		<tag k="fixme" v="consider boundary=protected_area and relevant protect_class if not nature reserve" />
		<tag k="leisure" v="nature_reserve" />
		<tag k="name" v="Blåfjell naturreservat" />
		<tag k="ssr:stedsnr" v="61000" />
	</node>
	<node id="-189379" lat="59.7110609697" lon="10.5232968929">
		<tag k="name" v="Orebukta" />
		<tag k="natural" v="bay" />
		<tag k="ssr:stedsnr" v="58746" />
	</node>
	<node id="-189378" lat="59.7259472214" lon="10.5351638859">
		<tag k="name" v="Nordre Sundbyholmen" />
		<tag k="place" v="islet" />
		<tag k="ssr:stedsnr" v="58110" />
	</node>
	<node id="-189377" lat="59.7404805592" lon="10.4198194367">
		<tag k="bridge" v="yes" />
		<tag k="layer" v="1" />
		<tag k="name" v="Bjørnstad" />
		<tag k="ssr:stedsnr" v="46935" />
	</node>
	<node id="-189376" lat="59.7269416661" lon="10.4569555533">
		<tag k="bridge" v="yes" />
		<tag k="layer" v="1" />
		<tag k="name" v="Vear" />
		<tag k="ssr:stedsnr" v="46930" />
	</node>
	<node id="-189375" lat="59.7582722246" lon="10.4553694477">
		<tag k="name" v="Bøbekken" />
		<tag k="ssr:stedsnr" v="28380" />
		<tag k="waterway" v="stream" />
	</node>
	<node id="-189374" lat="59.7678444436" lon="10.4578000052">
		<tag k="name" v="Mellom-Bø" />
		<tag k="place" v="farm" />
		<tag k="ssr:stedsnr" v="27790" />
	</node>
	<node id="-189373" lat="59.7675555591" lon="10.4392944368">
		<tag k="name" v="Stokker" />
		<tag k="place" v="farm" />
		<tag k="ssr:stedsnr" v="27789" />
	</node>
	<node id="-189372" lat="59.7495055519" lon="10.4042999993">
		<tag k="amenity" v="community_centre" />
		<tag k="name" v="Høyenhall" />
		<tag k="ssr:stedsnr" v="27398" />
	</node>
	<node id="-189371" lat="59.7459361095" lon="10.4247333417">
		<tag k="name" v="Grettebråtan" />
		<tag k="place" v="locality" />
		<tag k="ssr:stedsnr" v="27396" />
	</node>
	<node id="-189370" lat="59.7659416684" lon="10.4577444447">
		<tag k="name" v="Søndre Bø" />
		<tag k="place" v="farm" />
		<tag k="ssr:stedsnr" v="27371" />
	</node>
	<node id="-189369" lat="59.7655638856" lon="10.5013833363">
		<tag k="name" v="Morbergholmen" />
		<tag k="place" v="islet" />
		<tag k="ssr:stedsnr" v="27343" />
	</node>
	<node id="-189368" lat="59.7648472251" lon="10.5128472298">
		<tag k="fixme" v="consider seamark:type=rock or natural=shoal" />
		<tag k="name" v="Skjæra" />
		<tag k="place" v="islet" />
		<tag k="ssr:stedsnr" v="27341" />
	</node>
	<node id="-189367" lat="59.6844027742" lon="10.4813083265">
		<tag k="fixme" v="consider natural=peak for the most distinct mountains in the district" />
		<tag k="name" v="Skånevannsåsen" />
		<tag k="natural" v="hill" />
		<tag k="place" v="locality" />
		<tag k="ssr:stedsnr" v="26957" />
	</node>
	<node id="-189366" lat="59.7208732382" lon="10.4126496474">
		<tag k="name" v="Tretjern" />
		<tag k="natural" v="water" />
		<tag k="ssr:stedsnr" v="26952" />
	</node>
	<node id="-189365" lat="59.7234777801" lon="10.5190972179">
		<tag k="man_made" v="quay" />
		<tag k="name" v="Høvik brygge" />
		<tag k="place" v="locality" />
		<tag k="ssr:stedsnr" v="26938" />
	</node>
	<node id="-189364" lat="59.7360750035" lon="10.5092944421">
		<tag k="fixme" v="consider natural=peak for the most distinct mountains in the district" />
		<tag k="name" v="Ulaåsen" />
		<tag k="natural" v="hill" />
		<tag k="place" v="locality" />
		<tag k="ssr:stedsnr" v="26916" />
	</node>
	<node id="-189363" lat="59.703011111" lon="10.4662722247">
		<tag k="fixme" v="consider natural=peak for the most distinct mountains in the district" />
		<tag k="name" v="Vassmyråsen" />
		<tag k="natural" v="hill" />
		<tag k="place" v="locality" />
		<tag k="ssr:stedsnr" v="26877" />
	</node>
	<node id="-189362" lat="59.7128194453" lon="10.4700527721">
		<tag k="name" v="Petterstua" />
		<tag k="place" v="isolated_dwelling" />
		<tag k="ssr:stedsnr" v="26876" />
	</node>
	<node id="-189361" lat="59.7121972182" lon="10.3587277741">
		<tag k="fixme" v="consider natural=peak for the most distinct mountains in the district" />
		<tag k="name" v="Helgåsen" />
		<tag k="natural" v="hill" />
		<tag k="place" v="locality" />
		<tag k="ssr:stedsnr" v="26760" />
	</node>
	<node id="-189360" lat="59.7156027807" lon="10.3633111188">
		<tag k="building" v="industrial" />
		<tag k="industrial" v="factory" />
		<tag k="name" v="Slettevold sag" />
		<tag k="ssr:stedsnr" v="26757" />
	</node>
	<node id="-189359" lat="59.7452666639" lon="10.3717416674">
		<tag k="name" v="Østre Grini" />
		<tag k="place" v="farm" />
		<tag k="ssr:stedsnr" v="26445" />
	</node>
	<node id="-189358" lat="59.7442166691" lon="10.355161103">
		<tag k="name" v="Søndre Askestad" />
		<tag k="place" v="farm" />
		<tag k="ssr:stedsnr" v="26442" />
	</node>
	<node id="-189357" lat="59.7842861147" lon="10.3681972157">
		<tag k="name" v="Tiurmyr" />
		<tag k="natural" v="wetland" />
		<tag k="ssr:stedsnr" v="26282" />
	</node>
	<node id="-189356" lat="59.7865277761" lon="10.3545000034">
		<tag k="name" v="Spengmyrene" />
		<tag k="natural" v="wetland" />
		<tag k="ssr:stedsnr" v="26279" />
	</node>
	<node id="-189355" lat="59.678830552" lon="10.4211055584">
		<tag k="name" v="Haken" />
		<tag k="natural" v="shoal" />
		<tag k="place" v="locality" />
		<tag k="ssr:stedsnr" v="24846" />
	</node>
	<node id="-189354" lat="59.758963886" lon="10.5029611192">
		<tag k="name" v="Stranda" />
		<tag k="natural" v="beach" />
		<tag k="place" v="locality" />
		<tag k="ssr:stedsnr" v="24649" />
	</node>
	<node id="-189353" lat="59.7807694418" lon="10.4757861184">
		<tag k="name" v="Almedalen" />
		<tag k="natural" v="valley" />
		<tag k="place" v="locality" />
		<tag k="ssr:stedsnr" v="22630" />
	</node>
	<node id="-189352" lat="59.7689166662" lon="10.4247666705">
		<tag k="fixme" v="consider natural=peak for the most distinct mountains in the district" />
		<tag k="name" v="Rødåsen" />
		<tag k="natural" v="hill" />
		<tag k="place" v="locality" />
		<tag k="ssr:stedsnr" v="5656" />
	</node>
	<node id="-189351" lat="59.7599990302" lon="10.4979003067">
		<tag k="name" v="Nærsnes" />
		<tag k="place" v="hamlet" />
		<tag k="ssr:stedsnr" v="5620" />
	</node>
	<node id="-189350" lat="59.7807368847" lon="10.4970094723">
		<tag k="name" v="Slemmestad" />
		<tag k="place" v="village" />
		<tag k="ssr:stedsnr" v="4674" />
	</node>
	<node id="-189349" lat="59.7290944415" lon="10.4044583283">
		<tag k="fixme" v="consider natural=peak for the most distinct mountains in the district" />
		<tag k="name" v="Høgåsen" />
		<tag k="natural" v="hill" />
		<tag k="place" v="locality" />
		<tag k="ssr:stedsnr" v="4007" />
	</node>
	<node id="-189348" lat="59.7378945058" lon="10.4265661558">
		<tag k="fixme" v="consider place=hamlet" />
		<tag k="name" v="Bjørnstad" />
		<tag k="place" v="farm" />
		<tag k="ssr:stedsnr" v="3964" />
	</node>
	<node id="-189347" lat="59.7265916679" lon="10.4863194369">
		<tag k="name" v="Skiskogen" />
		<tag k="place" v="farm" />
		<tag k="ssr:stedsnr" v="3960" />
	</node>
	<node id="-189346" lat="59.7173527753" lon="10.3831583349">
		<tag k="name" v="Dammen" />
		<tag k="place" v="farm" />
		<tag k="ssr:stedsnr" v="3794" />
	</node>
	<node id="-189345" lat="59.7192027995" lon="10.493652358">
		<tag k="fixme" v="consider place=hamlet" />
		<tag k="name" v="Hov" />
		<tag k="place" v="farm" />
		<tag k="ssr:stedsnr" v="3786" />
	</node>
	<node id="-189344" lat="59.6928722206" lon="10.531852786">
		<tag k="name" v="Hjelp" />
		<tag k="place" v="islet" />
		<tag k="ssr:stedsnr" v="3747" />
	</node>
	<node id="-189343" lat="59.6912055581" lon="10.3970249995">
		<tag k="name" v="Hernes" />
		<tag k="place" v="farm" />
		<tag k="ssr:stedsnr" v="3737" />
	</node>
	<node id="-189342" lat="59.7231055518" lon="10.3410749985">
		<tag k="name" v="Ovnerudåsen" />
		<tag k="natural" v="hill" />
		<tag k="place" v="locality" />
		<tag k="ssr:stedsnr" v="3243" />
	</node>
	<node id="-189341" lat="59.7322662872" lon="10.3446591076">
		<tag k="fixme" v="consider place=hamlet" />
		<tag k="name" v="Hekleberg" />
		<tag k="place" v="farm" />
		<tag k="ssr:stedsnr" v="3226" />
	</node>
	<node id="-189340" lat="59.7343427671" lon="10.3336869508">
		<tag k="fixme" v="consider place=hamlet" />
		<tag k="name" v="Torsrud" />
		<tag k="place" v="farm" />
		<tag k="ssr:stedsnr" v="3227" />
	</node>
	<node id="-189334" lat="59.6712635233" lon="10.4492071327">
		<tag k="fixme" v="consider boundary=protected_area and relevant protect_class if not nature reserve" />
		<tag k="leisure" v="nature_reserve" />
		<tag k="name" v="Sandungåsen naturreservat" />
		<tag k="ssr:stedsnr" v="989148" />
	</node>
	<node id="-189333" lat="59.7031909215" lon="10.4024312061">
		<tag k="fixme" v="consider boundary=protected_area and relevant protect_class if not nature reserve" />
		<tag k="leisure" v="nature_reserve" />
		<tag k="name" v="Geitmyråsen naturreservat" />
		<tag k="ssr:stedsnr" v="989136" />
	</node>
	<node id="-189331" lat="59.7778706884" lon="10.4862569876">
		<tag k="building" v="commercial" />
		<tag k="name" v="Rortunet kjøpesenter" />
		<tag k="ssr:stedsnr" v="987314" />
	</node>
	<node id="-189330" lat="59.7110055905" lon="10.3526296449">
		<tag k="man_made" v="quay" />
		<tag k="name" v="Folakroken kai" />
		<tag k="place" v="locality" />
		<tag k="ssr:stedsnr" v="986975" />
	</node>
	<node id="-189329" lat="59.666666669" lon="10.3916666621">
		<tag k="bay" v="fjord" />
		<tag k="name" v="Drammensfjorden" />
		<tag k="natural" v="bay" />
		<tag k="ssr:stedsnr" v="792266" />
	</node>
	<node id="-189328" lat="59.7848911485" lon="10.3873103311">
		<tag k="name" v="Verkensmåsan" />
		<tag k="natural" v="wetland" />
		<tag k="old_name" v="Verkensmosen" />
		<tag k="ssr:stedsnr" v="186694" />
	</node>
	<node id="-189327" lat="59.6963188428" lon="10.4767089486">
		<tag k="name" v="Follestad næringspark" />
		<tag k="place" v="quarter" />
		<tag k="ssr:stedsnr" v="981749" />
	</node>
	<node id="-189325" lat="59.7103699341" lon="10.5178140726">
		<tag k="name" v="Årosfjellet" />
		<tag k="place" v="quarter" />
		<tag k="ssr:stedsnr" v="981747" />
	</node>
	<node id="-189323" lat="59.6955861114" lon="10.5239666717">
		<tag k="name" v="Alfheim" />
		<tag k="place" v="isolated_dwelling" />
		<tag k="ssr:stedsnr" v="413699" />
	</node>
	<node id="-189320" lat="59.6887557078" lon="10.5314576992">
		<tag k="fixme" v="consider place=hamlet" />
		<tag k="name" v="Torvøya" />
		<tag k="place" v="farm" />
		<tag k="ssr:stedsnr" v="1072732" />
	</node>
	<node id="-189319" lat="59.7332761646" lon="10.4754405554">
		<tag k="fixme" v="consider place=hamlet" />
		<tag k="name" v="Gislerud" />
		<tag k="place" v="farm" />
		<tag k="ssr:stedsnr" v="1072731" />
	</node>
	<node id="-189318" lat="59.727989682" lon="10.4791308374">
		<tag k="fixme" v="consider place=hamlet" />
		<tag k="name" v="Ski" />
		<tag k="place" v="farm" />
		<tag k="ssr:stedsnr" v="1072730" />
	</node>
	<node id="-189317" lat="59.7320915435" lon="10.4621978997">
		<tag k="fixme" v="consider place=hamlet" />
		<tag k="name" v="Mortensrud" />
		<tag k="place" v="farm" />
		<tag k="ssr:stedsnr" v="1072729" />
	</node>
	<node id="-189316" lat="59.7463505264" lon="10.3714890759">
		<tag k="name" v="Grini" />
		<tag k="place" v="hamlet" />
		<tag k="ssr:stedsnr" v="1072728" />
	</node>
	<node id="-189315" lat="59.7640690986" lon="10.3099677092">
		<tag k="name" v="Skapertjern" />
		<tag k="natural" v="water" />
		<tag k="ssr:stedsnr" v="246187" />
	</node>
	<node id="-189313" lat="59.7530444459" lon="10.4412138953">
		<tag k="bridge" v="yes" />
		<tag k="layer" v="1" />
		<tag k="name" v="Brynsholmen" />
		<tag k="ssr:stedsnr" v="896946" />
	</node>
	<node id="-189312" lat="59.7703277815" lon="10.4822583346">
		<tag k="bridge" v="yes" />
		<tag k="layer" v="1" />
		<tag k="name" v="Ødegårdskogen" />
		<tag k="ssr:stedsnr" v="896938" />
	</node>
	<node id="-189311" lat="59.6977194446" lon="10.488663888">
		<tag k="bridge" v="yes" />
		<tag k="layer" v="1" />
		<tag k="name" v="Sagbakken" />
		<tag k="ssr:stedsnr" v="896933" />
	</node>
	<node id="-189310" lat="59.6949111128" lon="10.5310249922">
		<tag k="name" v="Hjelpgrunnen" />
		<tag k="natural" v="shoal" />
		<tag k="place" v="locality" />
		<tag k="ssr:stedsnr" v="889735" />
	</node>
	<node id="-189309" lat="59.7241972179" lon="10.4454194471">
		<tag k="name" v="Gullhaug" />
		<tag k="place" v="farm" />
		<tag k="ssr:stedsnr" v="269926" />
	</node>
	<node id="-189308" lat="59.724430552" lon="10.3188500039">
		<tag k="bridge" v="yes" />
		<tag k="layer" v="1" />
		<tag k="name" v="Lahell" />
		<tag k="ssr:stedsnr" v="410926" />
	</node>
	<node id="-189307" lat="59.6927694404" lon="10.5375000045">
		<tag k="name" v="Klausgrunnen" />
		<tag k="natural" v="shoal" />
		<tag k="place" v="locality" />
		<tag k="ssr:stedsnr" v="403737" />
	</node>
	<node id="-189306" lat="59.7621250028" lon="10.4844472191">
		<tag k="name" v="Torvbråten" />
		<tag k="place" v="farm" />
		<tag k="ssr:stedsnr" v="392402" />
	</node>
	<node id="-189305" lat="59.7704833291" lon="10.3866222165">
		<tag k="name" v="Storvomma" />
		<tag k="natural" v="wetland" />
		<tag k="ssr:stedsnr" v="391614" />
	</node>
	<node id="-189304" lat="59.7457993817" lon="10.3801630155">
		<tag k="alt_name" v="Prestegård" />
		<tag k="fixme" v="consider place=hamlet" />
		<tag k="name" v="Røyken prestegård" />
		<tag k="place" v="farm" />
		<tag k="ssr:stedsnr" v="391542" />
	</node>
	<node id="-189303" lat="59.7344611123" lon="10.4613000034">
		<tag k="name" v="Nordre Mortensrud" />
		<tag k="place" v="farm" />
		<tag k="ssr:stedsnr" v="391520" />
	</node>
	<node id="-189302" lat="59.7473805536" lon="10.4858861173">
		<tag k="name" v="Damstua" />
		<tag k="place" v="isolated_dwelling" />
		<tag k="ssr:stedsnr" v="391490" />
	</node>
	<node id="-189301" lat="59.7465166627" lon="10.3866500025">
		<tag k="alt_name" v="Røyken" />
		<tag k="amenity" v="place_of_worship" />
		<tag k="denomination" v="lutheran" />
		<tag k="name" v="Røyken kirke" />
		<tag k="religion" v="christian" />
		<tag k="ssr:stedsnr" v="391409" />
	</node>
	<node id="-189300" lat="59.7621750037" lon="10.4104250071">
		<tag k="name" v="Moserud" />
		<tag k="place" v="isolated_dwelling" />
		<tag k="ssr:stedsnr" v="391405" />
	</node>
	<node id="-189299" lat="59.7632055517" lon="10.4970222147">
		<tag k="name" v="Nordstrand" />
		<tag k="old_name" v="Norstrand" />
		<tag k="place" v="isolated_dwelling" />
		<tag k="ssr:stedsnr" v="391352" />
	</node>
	<node id="-189298" lat="59.7630555587" lon="10.5093000059">
		<tag k="man_made" v="quay" />
		<tag k="name" v="Nærsnes brygge" />
		<tag k="place" v="locality" />
		<tag k="ssr:stedsnr" v="391349" />
	</node>
	<node id="-189297" lat="59.7573472252" lon="10.4992305641">
		<tag k="name" v="Søndre Nærsnes" />
		<tag k="place" v="farm" />
		<tag k="ssr:stedsnr" v="391338" />
	</node>
	<node id="-189296" lat="59.7206777797" lon="10.4970222291">
		<tag k="name" v="Hov" />
		<tag k="place" v="farm" />
		<tag k="ssr:stedsnr" v="390962" />
	</node>
	<node id="-189295" lat="59.691147218" lon="10.4678361165">
		<tag k="fixme" v="consider natural=peak for the most distinct mountains in the district" />
		<tag k="name" v="Setervannsåsen" />
		<tag k="natural" v="hill" />
		<tag k="place" v="locality" />
		<tag k="ssr:stedsnr" v="390949" />
	</node>
	<node id="-189294" lat="59.7053388893" lon="10.4642805628">
		<tag k="name" v="Nylende" />
		<tag k="place" v="isolated_dwelling" />
		<tag k="ssr:stedsnr" v="390892" />
	</node>
	<node id="-189293" lat="59.7031166682" lon="10.4608888974">
		<tag k="fixme" v="consider natural=peak for the most distinct mountains in the district" />
		<tag k="name" v="Røysåsen" />
		<tag k="natural" v="hill" />
		<tag k="place" v="locality" />
		<tag k="ssr:stedsnr" v="390890" />
	</node>
	<node id="-189292" lat="59.711053547" lon="10.3643315914">
		<tag k="name" v="Ytre Fiskebukt" />
		<tag k="natural" v="bay" />
		<tag k="ssr:stedsnr" v="390795" />
	</node>
	<node id="-189291" lat="59.7163138887" lon="10.3204944507">
		<tag k="name" v="Lauton" />
		<tag k="natural" v="slope" />
		<tag k="place" v="locality" />
		<tag k="ssr:stedsnr" v="390782" />
	</node>
	<node id="-189290" lat="59.6905555593" lon="10.4146611175">
		<tag k="name" v="Jerdal" />
		<tag k="place" v="farm" />
		<tag k="ssr:stedsnr" v="390771" />
	</node>
	<node id="-189289" lat="59.7766916695" lon="10.33087778">
		<tag k="name" v="Nordmarka" />
		<tag k="place" v="locality" />
		<tag k="ssr:stedsnr" v="390351" />
	</node>
	<node id="-189288" lat="59.7711722184" lon="10.3621777863">
		<tag k="fixme" v="consider natural=peak for the most distinct mountains in the district" />
		<tag k="name" v="Skjæråsen" />
		<tag k="natural" v="hill" />
		<tag k="place" v="locality" />
		<tag k="ssr:stedsnr" v="390352" />
	</node>
	<node id="-189287" lat="59.7815194423" lon="10.3450277814">
		<tag k="name" v="Brenningsmyr" />
		<tag k="natural" v="wetland" />
		<tag k="ssr:stedsnr" v="390262" />
	</node>
	<node id="-189286" lat="59.7801333368" lon="10.5068000028">
		<tag k="name" v="Kista" />
		<tag k="natural" v="shoal" />
		<tag k="place" v="locality" />
		<tag k="ssr:stedsnr" v="388537" />
	</node>
	<node id="-189285" lat="59.7767444432" lon="10.3253277834">
		<tag k="name" v="Sørummyra" />
		<tag k="natural" v="wetland" />
		<tag k="ssr:stedsnr" v="385624" />
	</node>
	<node id="-189284" lat="59.7570111115" lon="10.4639916603">
		<tag k="name" v="Aukeløkka" />
		<tag k="place" v="isolated_dwelling" />
		<tag k="ssr:stedsnr" v="369600" />
	</node>
	<node id="-189283" lat="59.771644446" lon="10.354786117">
		<tag k="fixme" v="consider natural=peak for the most distinct mountains in the district" />
		<tag k="name" v="Haukeliåsen" />
		<tag k="natural" v="hill" />
		<tag k="place" v="locality" />
		<tag k="ssr:stedsnr" v="368714" />
	</node>
	<node id="-189282" lat="59.7478749967" lon="10.4773333357">
		<tag k="fixme" v="consider natural=peak for the most distinct mountains in the district" />
		<tag k="name" v="Aukeåsen" />
		<tag k="natural" v="hill" />
		<tag k="place" v="locality" />
		<tag k="ssr:stedsnr" v="367943" />
	</node>
	<node id="-189281" lat="59.7388333318" lon="10.3632750018">
		<tag k="alt_name" v="Åsåker" />
		<tag k="name" v="Nedre Åsåker" />
		<tag k="place" v="farm" />
		<tag k="ssr:stedsnr" v="367934" />
	</node>
	<node id="-189280" lat="59.7055277759" lon="10.381377784">
		<tag k="name" v="Steinbråten" />
		<tag k="place" v="isolated_dwelling" />
		<tag k="ssr:stedsnr" v="367787" />
	</node>
	<node id="-189279" lat="59.7204446283" lon="10.4512245906">
		<tag k="fixme" v="consider place=hamlet" />
		<tag k="name" v="Vear" />
		<tag k="place" v="farm" />
		<tag k="ssr:stedsnr" v="367778" />
	</node>
	<node id="-189278" lat="59.6836186937" lon="10.5029223489">
		<tag k="alt_name" v="Kongens dal" />
		<tag k="name" v="Kongensdal" />
		<tag k="natural" v="valley" />
		<tag k="place" v="locality" />
		<tag k="ssr:stedsnr" v="367758" />
	</node>
	<node id="-189277" lat="59.6933111148" lon="10.5219250003">
		<tag k="name" v="Killingholmsundet" />
		<tag k="natural" v="strait" />
		<tag k="ssr:stedsnr" v="342713" />
	</node>
	<node id="-189276" lat="59.7335472259" lon="10.511747231">
		<tag k="name" v="Høvikvollen" />
		<tag k="place" v="farm" />
		<tag k="ssr:stedsnr" v="330949" />
	</node>
	<node id="-189275" lat="59.7164694481" lon="10.4464249943">
		<tag k="name" v="Flaterveien" />
		<tag k="place" v="farm" />
		<tag k="ssr:stedsnr" v="330937" />
	</node>
	<node id="-189274" lat="59.7101360805" lon="10.3756468794">
		<tag k="name" v="Bukta" />
		<tag k="natural" v="bay" />
		<tag k="ssr:stedsnr" v="330856" />
	</node>
	<node id="-189273" lat="59.7251027737" lon="10.4286694429">
		<tag k="fixme" v="consider natural=peak for the most distinct mountains in the district" />
		<tag k="name" v="Tjuvekollen" />
		<tag k="natural" v="hill" />
		<tag k="place" v="locality" />
		<tag k="ssr:stedsnr" v="330540" />
	</node>
	<node id="-189272" lat="59.6922999977" lon="10.4804527787">
		<tag k="name" v="Sandbekken" />
		<tag k="ssr:stedsnr" v="329972" />
		<tag k="waterway" v="stream" />
	</node>
	<node id="-189271" lat="59.7181277786" lon="10.4322500001">
		<tag k="fixme" v="consider natural=peak for the most distinct mountains in the district" />
		<tag k="name" v="Kapteinåsen" />
		<tag k="natural" v="hill" />
		<tag k="place" v="locality" />
		<tag k="ssr:stedsnr" v="329967" />
	</node>
	<node id="-189270" lat="59.6969388897" lon="10.4555722265">
		<tag k="fixme" v="consider natural=peak for the most distinct mountains in the district" />
		<tag k="name" v="Svartvannsåsen" />
		<tag k="natural" v="hill" />
		<tag k="place" v="locality" />
		<tag k="ssr:stedsnr" v="329959" />
	</node>
	<node id="-189269" lat="59.6952194429" lon="10.5073166655">
		<tag k="name" v="Kirkeberget" />
		<tag k="natural" v="hill" />
		<tag k="place" v="locality" />
		<tag k="ssr:stedsnr" v="329958" />
	</node>
	<node id="-189268" lat="59.7126611078" lon="10.3735944457">
		<tag k="name" v="Høgda" />
		<tag k="natural" v="hill" />
		<tag k="place" v="locality" />
		<tag k="ssr:stedsnr" v="329770" />
	</node>
	<node id="-189267" lat="59.7162861134" lon="10.3794916664">
		<tag k="name" v="Østre Åsbryn" />
		<tag k="place" v="farm" />
		<tag k="ssr:stedsnr" v="329749" />
	</node>
	<node id="-189266" lat="59.6898027753" lon="10.3961138823">
		<tag k="name" v="Hernestangen" />
		<tag k="natural" v="cape" />
		<tag k="ssr:stedsnr" v="329745" />
	</node>
	<node id="-189265" lat="59.7377792254" lon="10.3378887172">
		<tag k="fixme" v="consider place=hamlet" />
		<tag k="name" v="Bølstad" />
		<tag k="place" v="farm" />
		<tag k="ssr:stedsnr" v="329401" />
	</node>
	<node id="-189264" lat="59.7581277809" lon="10.3482277772">
		<tag k="name" v="Kjos" />
		<tag k="place" v="farm" />
		<tag k="ssr:stedsnr" v="329312" />
	</node>
	<node id="-189263" lat="59.7427611069" lon="10.3612583417">
		<tag k="name" v="Holmen" />
		<tag k="place" v="isolated_dwelling" />
		<tag k="ssr:stedsnr" v="329403" />
	</node>
	<node id="-189262" lat="59.7951055537" lon="10.3313388863">
		<tag k="name" v="Ormemyr" />
		<tag k="natural" v="wetland" />
		<tag k="ssr:stedsnr" v="329277" />
	</node>
	<node id="-189261" lat="59.721941671" lon="10.5218388906">
		<tag k="name" v="Båtstøbåen" />
		<tag k="natural" v="shoal" />
		<tag k="place" v="locality" />
		<tag k="ssr:stedsnr" v="328129" />
	</node>
	<node id="-189260" lat="59.7813820367" lon="10.3254474759">
		<tag k="name" v="Åsmyrbakkane" />
		<tag k="natural" v="slope" />
		<tag k="place" v="locality" />
		<tag k="ssr:stedsnr" v="324604" />
	</node>
	<node id="-189259" lat="59.7733416654" lon="10.4976277692">
		<tag k="name" v="Berger" />
		<tag k="place" v="isolated_dwelling" />
		<tag k="ssr:stedsnr" v="308659" />
	</node>
	<node id="-189258" lat="59.7744750015" lon="10.4430805641">
		<tag k="fixme" v="consider natural=peak for the most distinct mountains in the district" />
		<tag k="name" v="Stokkeråsen" />
		<tag k="natural" v="hill" />
		<tag k="place" v="locality" />
		<tag k="ssr:stedsnr" v="308650" />
	</node>
	<node id="-189257" lat="59.7591222196" lon="10.4873694522">
		<tag k="alt_name" v="Labråten" />
		<tag k="name" v="Labråtan" />
		<tag k="place" v="farm" />
		<tag k="ssr:stedsnr" v="308622" />
	</node>
	<node id="-189256" lat="59.7636916679" lon="10.5142277823">
		<tag k="name" v="Nærsnestangen" />
		<tag k="natural" v="cape" />
		<tag k="ssr:stedsnr" v="308607" />
	</node>
	<node id="-189255" lat="59.7665777674" lon="10.5069295092">
		<tag k="name" v="Nærsnesbukta" />
		<tag k="natural" v="bay" />
		<tag k="ssr:stedsnr" v="308605" />
	</node>
	<node id="-189254" lat="59.7643645306" lon="10.3750500051">
		<tag k="name" v="Stordammen" />
		<tag k="natural" v="water" />
		<tag k="ssr:stedsnr" v="308597" />
		<tag k="water" v="lake" />
	</node>
	<node id="-189253" lat="59.7499166698" lon="10.3617583323">
		<tag k="name" v="Transet" />
		<tag k="place" v="farm" />
		<tag k="ssr:stedsnr" v="307613" />
	</node>
	<node id="-189252" lat="59.6894805571" lon="10.4436472265">
		<tag k="fixme" v="consider natural=peak for the most distinct mountains in the district" />
		<tag k="name" v="Vardåsen" />
		<tag k="natural" v="hill" />
		<tag k="place" v="locality" />
		<tag k="ssr:stedsnr" v="307014" />
	</node>
	<node id="-189251" lat="59.7405659985" lon="10.4917337131">
		<tag k="fixme" v="consider place=hamlet" />
		<tag k="name" v="Bårsrud" />
		<tag k="place" v="farm" />
		<tag k="ssr:stedsnr" v="306967" />
	</node>
	<node id="-189250" lat="59.7294100016" lon="10.4675598147">
		<tag k="fixme" v="consider place=hamlet" />
		<tag k="name" v="Hotvet" />
		<tag k="place" v="farm" />
		<tag k="ssr:stedsnr" v="306961" />
	</node>
	<node id="-189249" lat="59.7058749974" lon="10.4489305514">
		<tag k="alt_name" v="Igletjernsåsen" />
		<tag k="fixme" v="consider natural=peak for the most distinct mountains in the district" />
		<tag k="name" v="Eglevannsåsen" />
		<tag k="natural" v="hill" />
		<tag k="place" v="locality" />
		<tag k="ssr:stedsnr" v="306788" />
	</node>
	<node id="-189248" lat="59.713702796" lon="10.3680592128">
		<tag k="name" v="Hyggenvika" />
		<tag k="natural" v="bay" />
		<tag k="ssr:stedsnr" v="306785" />
	</node>
	<node id="-189247" lat="59.7223944439" lon="10.5130222168">
		<tag k="fixme" v="consider place=suburb, village or hamlet" />
		<tag k="name" v="Båtstø" />
		<tag k="place" v="quarter" />
		<tag k="ssr:stedsnr" v="306772" />
	</node>
	<node id="-189246" lat="59.6948500004" lon="10.5226277855">
		<tag k="name" v="Killingholmen" />
		<tag k="place" v="island" />
		<tag k="ssr:stedsnr" v="306743" />
	</node>
	<node id="-189245" lat="59.7359277802" lon="10.3204722234">
		<tag k="name" v="Dauerudbekken" />
		<tag k="ssr:stedsnr" v="306351" />
		<tag k="waterway" v="stream" />
	</node>
	<node id="-189244" lat="59.7115901184" lon="10.3364279654">
		<tag k="name" v="Kinnartangen" />
		<tag k="natural" v="cape" />
		<tag k="ssr:stedsnr" v="306263" />
	</node>
	<node id="-189243" lat="59.7762611142" lon="10.4845055639">
		<tag k="bridge" v="yes" />
		<tag k="layer" v="1" />
		<tag k="name" v="Bøbekken" />
		<tag k="ssr:stedsnr" v="289953" />
	</node>
	<node id="-189241" lat="59.7796000005" lon="10.4999194456">
		<tag k="name" v="Odden" />
		<tag k="place" v="farm" />
		<tag k="ssr:stedsnr" v="270819" />
	</node>
	<node id="-189240" lat="59.7452138891" lon="10.3931361177">
		<tag k="name" v="Løken" />
		<tag k="place" v="isolated_dwelling" />
		<tag k="ssr:stedsnr" v="270524" />
	</node>
	<node id="-189239" lat="59.7507361155" lon="10.4362722168">
		<tag k="name" v="Nordre Bryn" />
		<tag k="place" v="farm" />
		<tag k="ssr:stedsnr" v="270376" />
	</node>
	<node id="-189238" lat="59.7644194482" lon="10.4377916634">
		<tag k="building" v="industrial" />
		<tag k="name" v="Grodalen mølle" />
		<tag k="ssr:stedsnr" v="270369" />
	</node>
	<node id="-189237" lat="59.6913964907" lon="10.5065729386">
		<tag k="name" v="Bestondammen" />
		<tag k="natural" v="water" />
		<tag k="ssr:stedsnr" v="269974" />
	</node>
	<node id="-189236" lat="59.7011416708" lon="10.4655027813">
		<tag k="name" v="Vassmyra" />
		<tag k="natural" v="wetland" />
		<tag k="ssr:stedsnr" v="269961" />
	</node>
	<node id="-189235" lat="59.7083805537" lon="10.5133611029">
		<tag k="name" v="Store Åros" />
		<tag k="place" v="farm" />
		<tag k="ssr:stedsnr" v="269960" />
	</node>
	<node id="-189234" lat="59.7163972213" lon="10.5024888858">
		<tag k="fixme" v="consider natural=peak for the most distinct mountains in the district" />
		<tag k="name" v="Sundbyåsen" />
		<tag k="natural" v="hill" />
		<tag k="place" v="locality" />
		<tag k="ssr:stedsnr" v="269950" />
	</node>
	<node id="-189233" lat="59.6822166639" lon="10.4556722153">
		<tag k="fixme" v="consider natural=peak for the most distinct mountains in the district" />
		<tag k="name" v="Berntsås" />
		<tag k="natural" v="hill" />
		<tag k="place" v="locality" />
		<tag k="ssr:stedsnr" v="269949" />
	</node>
	<node id="-189232" lat="59.7000388898" lon="10.5007138838">
		<tag k="fixme" v="consider natural=peak for the most distinct mountains in the district" />
		<tag k="name" v="Kjelleråsen" />
		<tag k="natural" v="hill" />
		<tag k="place" v="locality" />
		<tag k="ssr:stedsnr" v="269936" />
	</node>
	<node id="-189231" lat="59.7019194432" lon="10.4185888804">
		<tag k="fixme" v="consider natural=peak for the most distinct mountains in the district" />
		<tag k="name" v="Bølskogåsen" />
		<tag k="natural" v="hill" />
		<tag k="place" v="locality" />
		<tag k="ssr:stedsnr" v="269803" />
	</node>
	<node id="-189230" lat="59.6912722232" lon="10.4214722257">
		<tag k="name" v="Setermyra" />
		<tag k="natural" v="wetland" />
		<tag k="ssr:stedsnr" v="269802" />
	</node>
	<node id="-189229" lat="59.7272999977" lon="10.3260694403">
		<tag k="amenity" v="nursing_home" />
		<tag k="name" v="Brøholt sykehjem" />
		<tag k="ssr:stedsnr" v="269438" />
	</node>
	<node id="-189228" lat="59.7677694443" lon="10.3650972254">
		<tag k="name" v="Taraldmyr" />
		<tag k="natural" v="wetland" />
		<tag k="ssr:stedsnr" v="269284" />
	</node>
</osm>
