<?xml version="1.0" encoding="UTF-8"?>
<osm generator="osmapis" version="0.6">
	<node id="-761856" lat="69.4124777793" lon="18.9912194511">
		<tag k="alt_name" v="Linberg" />
		<tag k="name" v="Linnberg" />
		<tag k="place" v="farm" />
		<tag k="ssr:stedsnr" v="807930" />
	</node>
	<node id="-759808" lat="69.1965888859" lon="19.7552249928">
		<tag k="name" v="Mo" />
		<tag k="place" v="farm" />
		<tag k="ssr:stedsnr" v="138053" />
	</node>
	<node id="-759806" lat="69.2661777736" lon="19.1340277777">
		<tag k="name" v="Vassli" />
		<tag k="place" v="farm" />
		<tag k="ssr:stedsnr" v="121915" />
	</node>
	<node id="-761852" lat="69.4631388862" lon="18.9692833333">
		<tag k="name" v="Stornes" />
		<tag k="place" v="farm" />
		<tag k="ssr:stedsnr" v="807878" />
	</node>
	<node id="-761847" lat="69.1693361066" lon="19.0761027762">
		<tag k="name" v="Elverum" />
		<tag k="place" v="farm" />
		<tag k="ssr:stedsnr" v="807747" />
	</node>
	<node id="-761846" lat="69.1566444447" lon="19.1769805585">
		<tag k="alt_name" v="Langmoen" />
		<tag k="name" v="Langmo" />
		<tag k="place" v="farm" />
		<tag k="ssr:stedsnr" v="807730" />
	</node>
	<node id="-758782" lat="69.3448888932" lon="19.1820749977">
		<tag k="name" v="Hamran" />
		<tag k="place" v="farm" />
		<tag k="ssr:stedsnr" v="322964" />
	</node>
	<node id="-761841" lat="69.4442499961" lon="18.490400003">
		<tag k="name" v="Løvoll" />
		<tag k="place" v="farm" />
		<tag k="ssr:stedsnr" v="807653" />
	</node>
	<node id="-761840" lat="69.4462638857" lon="18.4842694341">
		<tag k="name" v="Elvestad" />
		<tag k="place" v="farm" />
		<tag k="ssr:stedsnr" v="807649" />
	</node>
	<node id="-761839" lat="69.4358499978" lon="18.5255499882">
		<tag k="name" v="Gammelgården" />
		<tag k="place" v="farm" />
		<tag k="ssr:stedsnr" v="807646" />
	</node>
	<node id="-761838" lat="69.0850527756" lon="19.2969611058">
		<tag k="name" v="Rydningen" />
		<tag k="place" v="isolated_dwelling" />
		<tag k="ssr:stedsnr" v="807471" />
	</node>
	<node id="-761837" lat="69.0767111139" lon="19.2619694389">
		<tag k="alt_name" v="Lauvlund" />
		<tag k="name" v="Løvlund" />
		<tag k="place" v="farm" />
		<tag k="ssr:stedsnr" v="807462" />
	</node>
	<node id="-761836" lat="69.0820583313" lon="19.2961388696">
		<tag k="alt_name" v="Bjørkemo" />
		<tag k="name" v="Bjørkmo" />
		<tag k="place" v="farm" />
		<tag k="ssr:stedsnr" v="807458" />
	</node>
	<node id="-761835" lat="69.0877611129" lon="19.5907222187">
		<tag k="name" v="Fagerhaug" />
		<tag k="place" v="farm" />
		<tag k="ssr:stedsnr" v="807454" />
	</node>
	<node id="-761834" lat="69.0636472206" lon="19.3075555399">
		<tag k="name" v="Åsheim" />
		<tag k="place" v="farm" />
		<tag k="ssr:stedsnr" v="807446" />
	</node>
	<node id="-761863" lat="69.196283333" lon="19.07993889">
		<tag k="name" v="Myrhaug" />
		<tag k="place" v="farm" />
		<tag k="ssr:stedsnr" v="807981" />
	</node>
	<node id="-761831" lat="69.286302775" lon="19.2980499881">
		<tag k="name" v="Ryvoll" />
		<tag k="place" v="farm" />
		<tag k="ssr:stedsnr" v="807368" />
	</node>
	<node id="-761830" lat="69.2901583373" lon="19.313088877">
		<tag k="name" v="Bakkelund" />
		<tag k="place" v="farm" />
		<tag k="ssr:stedsnr" v="807363" />
	</node>
	<node id="-761829" lat="69.3028555528" lon="19.5097110889">
		<tag k="name" v="Fjellås" />
		<tag k="old_name" v="Fjellas" />
		<tag k="place" v="farm" />
		<tag k="ssr:stedsnr" v="807343" />
	</node>
	<node id="-761828" lat="69.3078000049" lon="19.5330166552">
		<tag k="name" v="Heimdal" />
		<tag k="place" v="farm" />
		<tag k="ssr:stedsnr" v="807344" />
	</node>
	<node id="-761826" lat="69.2975166648" lon="19.4122499864">
		<tag k="name" v="Skogeng" />
		<tag k="place" v="farm" />
		<tag k="ssr:stedsnr" v="807331" />
	</node>
	<node id="-761825" lat="69.2683895887" lon="19.4133480407">
		<tag k="fixme" v="consider place=hamlet" />
		<tag k="name" v="Seljelvnes" />
		<tag k="place" v="village" />
		<tag k="ssr:stedsnr" v="807326" />
	</node>
	<node id="-761822" lat="69.2756250003" lon="19.2446916478">
		<tag k="name" v="Bjørnstad" />
		<tag k="place" v="farm" />
		<tag k="ssr:stedsnr" v="807308" />
	</node>
	<node id="-761821" lat="69.2784999964" lon="19.2795416573">
		<tag k="name" v="Litlebakk" />
		<tag k="place" v="farm" />
		<tag k="ssr:stedsnr" v="807307" />
	</node>
	<node id="-761816" lat="69.2505305598" lon="19.4280916631">
		<tag k="name" v="Lauvlund" />
		<tag k="place" v="farm" />
		<tag k="ssr:stedsnr" v="807278" />
	</node>
	<node id="-761815" lat="69.2501500035" lon="19.2314249905">
		<tag k="name" v="Steinåker" />
		<tag k="place" v="isolated_dwelling" />
		<tag k="ssr:stedsnr" v="807275" />
	</node>
	<node id="-761813" lat="69.3443250005" lon="19.2446305365">
		<tag k="name" v="Haugan" />
		<tag k="place" v="farm" />
		<tag k="ssr:stedsnr" v="807178" />
	</node>
	<node id="-761812" lat="69.2295277776" lon="19.2326361127">
		<tag k="name" v="Hamarbakk" />
		<tag k="place" v="farm" />
		<tag k="ssr:stedsnr" v="807176" />
	</node>
	<node id="-761811" lat="69.3612472239" lon="19.3596249997">
		<tag k="name" v="Laksvatn" />
		<tag k="place" v="farm" />
		<tag k="ssr:stedsnr" v="807175" />
	</node>
	<node id="-761810" lat="69.2451777819" lon="19.4407055398">
		<tag k="name" v="Solstad" />
		<tag k="place" v="farm" />
		<tag k="ssr:stedsnr" v="807164" />
	</node>
	<node id="-761809" lat="69.2280972266" lon="19.489591653">
		<tag k="alt_name" v="Hamnes;Indre Hamnes;Havnnes" />
		<tag k="name" v="Hamnnes" />
		<tag k="place" v="farm" />
		<tag k="ssr:stedsnr" v="807159" />
	</node>
	<node id="-761807" lat="69.3287500015" lon="19.407024998">
		<tag k="name" v="Heimtun" />
		<tag k="place" v="farm" />
		<tag k="ssr:stedsnr" v="807156" />
	</node>
	<node id="-761806" lat="69.2130305543" lon="19.2723583352">
		<tag k="name" v="Myrvoll" />
		<tag k="place" v="farm" />
		<tag k="ssr:stedsnr" v="807154" />
	</node>
	<node id="-761805" lat="69.321413892" lon="19.3047388785">
		<tag k="name" v="Solås" />
		<tag k="place" v="farm" />
		<tag k="ssr:stedsnr" v="807149" />
	</node>
	<node id="-761804" lat="69.2131666635" lon="19.2447610948">
		<tag k="name" v="Lysmo" />
		<tag k="place" v="farm" />
		<tag k="ssr:stedsnr" v="807148" />
	</node>
	<node id="-761803" lat="69.314380557" lon="19.5448638746">
		<tag k="name" v="Nordheim" />
		<tag k="place" v="farm" />
		<tag k="ssr:stedsnr" v="807143" />
	</node>
	<node id="-761802" lat="69.2280305516" lon="19.4230527704">
		<tag k="alt_name" v="Storfjellet" />
		<tag k="name" v="Storfjell" />
		<tag k="place" v="farm" />
		<tag k="ssr:stedsnr" v="807142" />
	</node>
	<node id="-761800" lat="69.2205777761" lon="19.3133138686">
		<tag k="name" v="Sørmoen" />
		<tag k="place" v="farm" />
		<tag k="ssr:stedsnr" v="807140" />
	</node>
	<node id="-761799" lat="69.2198500031" lon="19.6060944264">
		<tag k="name" v="Bakkeringen" />
		<tag k="place" v="farm" />
		<tag k="ssr:stedsnr" v="807130" />
	</node>
	<node id="-761797" lat="69.3195055594" lon="18.9677416655">
		<tag k="alt_name" v="Lauvli" />
		<tag k="name" v="Løvli" />
		<tag k="place" v="farm" />
		<tag k="ssr:stedsnr" v="807129" />
	</node>
	<node id="-761796" lat="69.3222361113" lon="18.9561499883">
		<tag k="name" v="Bukta" />
		<tag k="place" v="farm" />
		<tag k="ssr:stedsnr" v="807128" />
	</node>
	<node id="-761794" lat="69.2190111115" lon="19.8057749789">
		<tag k="name" v="Myrstad" />
		<tag k="place" v="farm" />
		<tag k="ssr:stedsnr" v="807124" />
	</node>
	<node id="-761793" lat="69.2183972229" lon="19.5605833152">
		<tag k="name" v="Mogard" />
		<tag k="place" v="farm" />
		<tag k="ssr:stedsnr" v="807120" />
	</node>
	<node id="-761791" lat="69.1921999987" lon="19.2911805553">
		<tag k="name" v="Høgmo" />
		<tag k="place" v="farm" />
		<tag k="ssr:stedsnr" v="807107" />
	</node>
	<node id="-761790" lat="69.1892611118" lon="19.2398249943">
		<tag k="name" v="Seljevoll" />
		<tag k="place" v="farm" />
		<tag k="ssr:stedsnr" v="807105" />
	</node>
	<node id="-761789" lat="69.3067111131" lon="18.850513894">
		<tag k="name" v="Lanes" />
		<tag k="place" v="farm" />
		<tag k="ssr:stedsnr" v="807100" />
	</node>
	<node id="-761786" lat="69.201013891" lon="19.2652249935">
		<tag k="name" v="Sørkjossætra" />
		<tag k="place" v="locality" />
		<tag k="ssr:stedsnr" v="807080" />
	</node>
	<node id="-761783" lat="69.2762388928" lon="19.1140138876">
		<tag k="alt_name" v="Grønåsen, øvre;Grønås øvre" />
		<tag k="name" v="Øvre Grønås" />
		<tag k="place" v="farm" />
		<tag k="ssr:stedsnr" v="807077" />
	</node>
	<node id="-761782" lat="69.2172944445" lon="19.2704972176">
		<tag k="name" v="Myrland" />
		<tag k="place" v="farm" />
		<tag k="ssr:stedsnr" v="807076" />
	</node>
	<node id="-761779" lat="69.2658916684" lon="18.753449988">
		<tag k="name" v="Myrvoll" />
		<tag k="place" v="farm" />
		<tag k="ssr:stedsnr" v="807066" />
	</node>
	<node id="-761778" lat="69.2687055557" lon="19.1500444269">
		<tag k="name" v="Vesterbotn" />
		<tag k="place" v="farm" />
		<tag k="ssr:stedsnr" v="807057" />
	</node>
	<node id="-761775" lat="69.1251666664" lon="19.7581360989">
		<tag k="alt_name" v="Wingstad" />
		<tag k="name" v="Vingstad" />
		<tag k="place" v="farm" />
		<tag k="ssr:stedsnr" v="807024" />
	</node>
	<node id="-761771" lat="69.1876750041" lon="19.6810583273">
		<tag k="name" v="Fosslund" />
		<tag k="place" v="farm" />
		<tag k="ssr:stedsnr" v="806055" />
	</node>
	<node id="-761770" lat="69.1857944405" lon="19.693949994">
		<tag k="name" v="Bergtun" />
		<tag k="place" v="farm" />
		<tag k="ssr:stedsnr" v="806052" />
	</node>
	<node id="-761768" lat="69.1931777778" lon="19.7290277752">
		<tag k="name" v="Nordmo" />
		<tag k="place" v="farm" />
		<tag k="ssr:stedsnr" v="806049" />
	</node>
	<node id="-759793" lat="69.3798555526" lon="19.0098111044">
		<tag k="name" v="Rabben" />
		<tag k="place" v="isolated_dwelling" />
		<tag k="ssr:stedsnr" v="111685" />
	</node>
	<node id="-759110" lat="69.2373500018" lon="19.2121611077">
		<tag k="amenity" v="school" />
		<tag k="name" v="Storsteinnes skole" />
		<tag k="ssr:stedsnr" v="474006" />
	</node>
	<node id="-762108" lat="69.3826305527" lon="19.0038249968">
		<tag k="name" v="Heimnes" />
		<tag k="place" v="isolated_dwelling" />
		<tag k="ssr:stedsnr" v="868921" />
	</node>
	<node id="-758767" lat="69.463499997" lon="18.9688861055">
		<tag k="alt_name" v="Storneset" />
		<tag k="name" v="Stornes" />
		<tag k="place" v="hamlet" />
		<tag k="ssr:stedsnr" v="322883" />
	</node>
	<node id="-761747" lat="69.3140111124" lon="19.0114499954">
		<tag k="historic" v="shieling" />
		<tag k="name" v="Jakobsætra" />
		<tag k="place" v="locality" />
		<tag k="ssr:stedsnr" v="778563" />
	</node>
	<node id="-760446" lat="69.2326861119" lon="19.2277472051">
		<tag k="name" v="Brattland" />
		<tag k="place" v="farm" />
		<tag k="ssr:stedsnr" v="443183" />
	</node>
	<node id="-759697" lat="69.3908944484" lon="18.6161916578">
		<tag k="amenity" v="school" />
		<tag k="name" v="Sand skole" />
		<tag k="ssr:stedsnr" v="110180" />
	</node>
	<node id="-758780" lat="69.35291111" lon="18.710358335">
		<tag k="alt_name" v="Skutvika, in" />
		<tag k="name" v="Skutvik Indre" />
		<tag k="place" v="farm" />
		<tag k="ssr:stedsnr" v="322946" />
	</node>
	<node id="-758764" lat="69.0879472184" lon="19.2281805545">
		<tag k="name" v="Myreng" />
		<tag k="place" v="isolated_dwelling" />
		<tag k="ssr:stedsnr" v="322473" />
	</node>
	<node id="-759682" lat="69.3812250043" lon="19.268911101">
		<tag k="name" v="Lavangen" />
		<tag k="place" v="hamlet" />
		<tag k="ssr:stedsnr" v="108215" />
	</node>
	<node id="-761726" lat="69.2586749982" lon="19.4459083261">
		<tag k="name" v="Finngamman" />
		<tag k="place" v="locality" />
		<tag k="ssr:stedsnr" v="778297" />
	</node>
	<node id="-761722" lat="69.4211305596" lon="18.5654138732">
		<tag k="name" v="Nybrott" />
		<tag k="place" v="isolated_dwelling" />
		<tag k="ssr:stedsnr" v="778267" />
	</node>
	<node id="-761720" lat="69.3882805592" lon="18.9819388808">
		<tag k="name" v="Solvoll" />
		<tag k="place" v="farm" />
		<tag k="ssr:stedsnr" v="778258" />
	</node>
	<node id="-760840" lat="69.4368999998" lon="19.0464694268">
		<tag k="name" v="Kolnes" />
		<tag k="place" v="farm" />
		<tag k="ssr:stedsnr" v="564883" />
	</node>
	<node id="-759660" lat="69.4428444427" lon="18.9221555492">
		<tag k="name" v="Kvitnes" />
		<tag k="place" v="farm" />
		<tag k="ssr:stedsnr" v="87820" />
	</node>
	<node id="-759655" lat="69.4999194448" lon="18.4483833366">
		<tag k="name" v="Ansnes" />
		<tag k="place" v="hamlet" />
		<tag k="ssr:stedsnr" v="86584" />
	</node>
	<node id="-759654" lat="69.3035611077" lon="19.3391583352">
		<tag k="fixme" v="consider place=hamlet" />
		<tag k="name" v="Tennes" />
		<tag k="place" v="village" />
		<tag k="ssr:stedsnr" v="81532" />
	</node>
	<node id="-761701" lat="69.2134083334" lon="19.0860194456">
		<tag k="name" v="Høyland" />
		<tag k="place" v="farm" />
		<tag k="ssr:stedsnr" v="777899" />
	</node>
	<node id="-758758" lat="69.2534833331" lon="19.2279944458">
		<tag k="name" v="Haugtun" />
		<tag k="place" v="isolated_dwelling" />
		<tag k="ssr:stedsnr" v="322263" />
	</node>
	<node id="-759649" lat="69.3237305549" lon="18.9470583356">
		<tag k="alt_name" v="Hellaberget" />
		<tag k="name" v="Hillabergan" />
		<tag k="place" v="farm" />
		<tag k="ssr:stedsnr" v="79990" />
	</node>
	<node id="-761695" lat="69.2145944492" lon="19.3318138744">
		<tag k="historic" v="shieling" />
		<tag k="name" v="Hardersætra" />
		<tag k="place" v="locality" />
		<tag k="ssr:stedsnr" v="777841" />
	</node>
	<node id="-762053" lat="69.2004499989" lon="19.2200833174">
		<tag k="historic" v="shieling" />
		<tag k="name" v="Lauvdalsæter" />
		<tag k="place" v="locality" />
		<tag k="ssr:stedsnr" v="868062" />
	</node>
	<node id="-759353" lat="69.229769447" lon="19.320236091">
		<tag k="name" v="Markenes" />
		<tag k="place" v="farm" />
		<tag k="ssr:stedsnr" v="18068" />
	</node>
	<node id="-759641" lat="69.2432916626" lon="18.9866861037">
		<tag k="name" v="Øverli" />
		<tag k="place" v="farm" />
		<tag k="ssr:stedsnr" v="79957" />
	</node>
	<node id="-759640" lat="69.2232527813" lon="19.1453972249">
		<tag k="name" v="Oppgård" />
		<tag k="place" v="farm" />
		<tag k="ssr:stedsnr" v="79944" />
	</node>
	<node id="-759635" lat="69.4112555567" lon="18.6697722273">
		<tag k="name" v="Kjernberg" />
		<tag k="place" v="farm" />
		<tag k="ssr:stedsnr" v="79909" />
	</node>
	<node id="-759631" lat="69.4306979333" lon="19.0599256562">
		<tag k="alt_name" v="Storbugten" />
		<tag k="name" v="Storbukta" />
		<tag k="place" v="hamlet" />
		<tag k="ssr:stedsnr" v="79876" />
	</node>
	<node id="-759630" lat="69.4335277813" lon="18.9422472266">
		<tag k="name" v="Bakken" />
		<tag k="place" v="isolated_dwelling" />
		<tag k="ssr:stedsnr" v="79872" />
	</node>
	<node id="-759628" lat="69.1231888885" lon="19.082197215">
		<tag k="name" v="Kongsberg" />
		<tag k="place" v="farm" />
		<tag k="ssr:stedsnr" v="79817" />
	</node>
	<node id="-758754" lat="69.3897416663" lon="19.2810749854">
		<tag k="name" v="Solheim" />
		<tag k="place" v="farm" />
		<tag k="ssr:stedsnr" v="322190" />
	</node>
	<node id="-762353" lat="69.3005055513" lon="19.336888885">
		<tag k="name" v="Gammelgård" />
		<tag k="place" v="farm" />
		<tag k="ssr:stedsnr" v="959715" />
	</node>
	<node id="-759620" lat="69.4288944437" lon="18.5444083385">
		<tag k="name" v="Bakkeby" />
		<tag k="place" v="hamlet" />
		<tag k="ssr:stedsnr" v="79666" />
	</node>
	<node id="-759619" lat="69.4191500003" lon="18.5711833392">
		<tag k="name" v="Nyvoll" />
		<tag k="place" v="farm" />
		<tag k="ssr:stedsnr" v="79663" />
	</node>
	<node id="-761663" lat="69.2554472275" lon="19.2166944265">
		<tag k="name" v="Lunde" />
		<tag k="place" v="farm" />
		<tag k="ssr:stedsnr" v="777421" />
	</node>
	<node id="-759612" lat="69.1075694474" lon="19.7240499998">
		<tag k="name" v="Nyborg" />
		<tag k="place" v="farm" />
		<tag k="ssr:stedsnr" v="79464" />
	</node>
	<node id="-759609" lat="69.0975472196" lon="19.706874981">
		<tag k="name" v="Harkinn" />
		<tag k="place" v="farm" />
		<tag k="ssr:stedsnr" v="79454" />
	</node>
	<node id="-759608" lat="69.092588886" lon="19.6487027566">
		<tag k="name" v="Fossmo" />
		<tag k="place" v="farm" />
		<tag k="ssr:stedsnr" v="79450" />
	</node>
	<node id="-761655" lat="69.4388083347" lon="18.4711499851">
		<tag k="name" v="Spildernes" />
		<tag k="place" v="isolated_dwelling" />
		<tag k="ssr:stedsnr" v="777365" />
	</node>
	<node id="-761652" lat="69.4793083334" lon="18.4866555563">
		<tag k="name" v="Forøy Nordre og Søndre" />
		<tag k="place" v="farm" />
		<tag k="ssr:stedsnr" v="777351" />
	</node>
	<node id="-759603" lat="69.2745888896" lon="19.2769027784">
		<tag k="name" v="Bergholt" />
		<tag k="place" v="farm" />
		<tag k="ssr:stedsnr" v="79310" />
	</node>
	<node id="-759602" lat="69.2823027794" lon="19.4106361078">
		<tag k="alt_name" v="Seljelv, yt;Seljelv" />
		<tag k="name" v="Seljelvnes" />
		<tag k="place" v="hamlet" />
		<tag k="ssr:stedsnr" v="79307" />
	</node>
	<node id="-759600" lat="69.2509111149" lon="19.4270222022">
		<tag k="alt_name" v="Hjemgård" />
		<tag k="name" v="Temgard" />
		<tag k="place" v="farm" />
		<tag k="ssr:stedsnr" v="79278" />
	</node>
	<node id="-759598" lat="69.3405444438" lon="19.3040805432">
		<tag k="name" v="Kvalvik" />
		<tag k="place" v="farm" />
		<tag k="ssr:stedsnr" v="79187" />
	</node>
	<node id="-759597" lat="69.3431777783" lon="19.2576833216">
		<tag k="name" v="Ytregard" />
		<tag k="place" v="farm" />
		<tag k="ssr:stedsnr" v="79181" />
	</node>
	<node id="-761644" lat="69.3644388918" lon="19.0442999846">
		<tag k="fixme" v="consider place=hamlet" />
		<tag k="name" v="Middagsbukt indre" />
		<tag k="place" v="farm" />
		<tag k="ssr:stedsnr" v="777195" />
	</node>
	<node id="-759595" lat="69.2316750025" lon="19.3951777715">
		<tag k="name" v="Viken" />
		<tag k="place" v="farm" />
		<tag k="ssr:stedsnr" v="79175" />
	</node>
	<node id="-759590" lat="69.2147055595" lon="19.2662555423">
		<tag k="name" v="Elstad" />
		<tag k="place" v="farm" />
		<tag k="ssr:stedsnr" v="79151" />
	</node>
	<node id="-762161" lat="69.2725972265" lon="19.412369432">
		<tag k="name" v="Seljelvnes indre" />
		<tag k="place" v="farm" />
		<tag k="ssr:stedsnr" v="899635" />
	</node>
	<node id="-759585" lat="69.3226250031" lon="18.9615361115">
		<tag k="name" v="Sæter" />
		<tag k="place" v="farm" />
		<tag k="ssr:stedsnr" v="79125" />
	</node>
	<node id="-759583" lat="69.2968000028" lon="18.9396999893">
		<tag k="name" v="Lauvhaugen" />
		<tag k="place" v="farm" />
		<tag k="ssr:stedsnr" v="79112" />
	</node>
	<node id="-759582" lat="69.2174500026" lon="19.4730277733">
		<tag k="name" v="Bjørnebu" />
		<tag k="place" v="farm" />
		<tag k="ssr:stedsnr" v="79111" />
	</node>
	<node id="-759578" lat="69.1917805545" lon="19.2302944262">
		<tag k="name" v="Nordhaug" />
		<tag k="place" v="farm" />
		<tag k="ssr:stedsnr" v="79092" />
	</node>
	<node id="-759577" lat="69.1934472243" lon="19.2446333251">
		<tag k="name" v="Stormo" />
		<tag k="place" v="farm" />
		<tag k="ssr:stedsnr" v="79077" />
	</node>
	<node id="-759574" lat="69.206891665" lon="19.6510305397">
		<tag k="name" v="Fagerli" />
		<tag k="place" v="farm" />
		<tag k="ssr:stedsnr" v="79069" />
	</node>
	<node id="-759573" lat="69.2676527808" lon="18.7785916574">
		<tag k="name" v="Bergom" />
		<tag k="place" v="farm" />
		<tag k="ssr:stedsnr" v="79065" />
	</node>
	<node id="-759572" lat="69.2645861158" lon="18.7493749861">
		<tag k="name" v="Mo" />
		<tag k="place" v="farm" />
		<tag k="ssr:stedsnr" v="79064" />
	</node>
	<node id="-759570" lat="69.2733777738" lon="19.1632999987">
		<tag k="name" v="Furumoen" />
		<tag k="place" v="farm" />
		<tag k="ssr:stedsnr" v="79055" />
	</node>
	<node id="-761617" lat="69.1921805589" lon="19.7216194329">
		<tag k="name" v="Elvekroknes" />
		<tag k="place" v="farm" />
		<tag k="ssr:stedsnr" v="765179" />
	</node>
	<node id="-759567" lat="69.1545138889" lon="19.1706999888">
		<tag k="name" v="Strupen" />
		<tag k="place" v="farm" />
		<tag k="ssr:stedsnr" v="78810" />
	</node>
	<node id="-759566" lat="69.1769777779" lon="19.0234694379">
		<tag k="name" v="Øverli" />
		<tag k="place" v="farm" />
		<tag k="ssr:stedsnr" v="78780" />
	</node>
	<node id="-761611" lat="69.3219750027" lon="18.7780638954">
		<tag k="fixme" v="consider place=hamlet" />
		<tag k="name" v="Hamnvåg" />
		<tag k="place" v="village" />
		<tag k="ssr:stedsnr" v="754979" />
	</node>
	<node id="-761610" lat="69.3223583324" lon="18.746538888">
		<tag k="name" v="Kirkevik" />
		<tag k="place" v="farm" />
		<tag k="ssr:stedsnr" v="754978" />
	</node>
	<node id="-761608" lat="69.4325861082" lon="18.5333444258">
		<tag k="name" v="Berg" />
		<tag k="place" v="isolated_dwelling" />
		<tag k="ssr:stedsnr" v="753453" />
	</node>
	<node id="-759557" lat="69.3224777818" lon="18.8805083399">
		<tag k="name" v="Lanes" />
		<tag k="place" v="isolated_dwelling" />
		<tag k="ssr:stedsnr" v="50944" />
	</node>
	<node id="-761604" lat="69.2603305586" lon="19.4158749942">
		<tag k="name" v="Solberg" />
		<tag k="place" v="farm" />
		<tag k="ssr:stedsnr" v="748515" />
	</node>
	<node id="-758742" lat="69.2162166702" lon="19.6278194457">
		<tag k="name" v="Vang" />
		<tag k="place" v="farm" />
		<tag k="ssr:stedsnr" v="322098" />
	</node>
	<node id="-761600" lat="69.0940777765" lon="19.1856083179">
		<tag k="alt_name" v="Strømslia;Straumsli" />
		<tag k="name" v="Strømsli" />
		<tag k="place" v="farm" />
		<tag k="ssr:stedsnr" v="747865" />
	</node>
	<node id="-761597" lat="69.2437055565" lon="19.4432861054">
		<tag k="fixme" v="consider place=hamlet" />
		<tag k="name" v="Musnes" />
		<tag k="place" v="farm" />
		<tag k="ssr:stedsnr" v="747148" />
	</node>
	<node id="-761596" lat="69.3137111153" lon="19.5348722123">
		<tag k="name" v="Mobakken" />
		<tag k="place" v="farm" />
		<tag k="ssr:stedsnr" v="747114" />
	</node>
	<node id="-761595" lat="69.315991665" lon="19.4219666491">
		<tag k="name" v="Melelva" />
		<tag k="place" v="farm" />
		<tag k="ssr:stedsnr" v="747107" />
	</node>
	<node id="-759761" lat="69.3893190324" lon="18.70890425">
		<tag k="name" v="Solhaug" />
		<tag k="place" v="farm" />
		<tag k="ssr:stedsnr" v="111023" />
	</node>
	<node id="-761587" lat="69.385280557" lon="18.9939555505">
		<tag k="name" v="Solhaug" />
		<tag k="place" v="isolated_dwelling" />
		<tag k="ssr:stedsnr" v="746934" />
	</node>
	<node id="-761586" lat="69.2324444455" lon="19.1965583315">
		<tag k="alt_name" v="Øvremoen" />
		<tag k="name" v="Moen" />
		<tag k="place" v="farm" />
		<tag k="ssr:stedsnr" v="746932" />
	</node>
	<node id="-758739" lat="69.210127779" lon="19.6044416653">
		<tag k="name" v="Heimly" />
		<tag k="place" v="isolated_dwelling" />
		<tag k="ssr:stedsnr" v="322069" />
	</node>
	<node id="-761578" lat="69.1207027819" lon="19.130252774">
		<tag k="alt_name" v="Sollia" />
		<tag k="name" v="Sollien" />
		<tag k="place" v="farm" />
		<tag k="ssr:stedsnr" v="746784" />
	</node>
	<node id="-761577" lat="69.1186027781" lon="19.1432333202">
		<tag k="alt_name" v="Strømsmoen" />
		<tag k="name" v="Strømsmo" />
		<tag k="place" v="farm" />
		<tag k="ssr:stedsnr" v="746769" />
	</node>
	<node id="-761576" lat="69.1502333359" lon="19.1893277616">
		<tag k="name" v="Fjellheim" />
		<tag k="place" v="isolated_dwelling" />
		<tag k="ssr:stedsnr" v="746748" />
	</node>
	<node id="-761575" lat="69.1622027783" lon="19.1565083261">
		<tag k="name" v="Vonheim" />
		<tag k="place" v="farm" />
		<tag k="ssr:stedsnr" v="746701" />
	</node>
	<node id="-761573" lat="69.0900416625" lon="19.2525361032">
		<tag k="name" v="Langvassli" />
		<tag k="place" v="farm" />
		<tag k="ssr:stedsnr" v="746488" />
	</node>
	<node id="-761571" lat="69.0764222184" lon="19.3093527729">
		<tag k="name" v="Myrvang" />
		<tag k="place" v="farm" />
		<tag k="ssr:stedsnr" v="746468" />
	</node>
	<node id="-761570" lat="69.0669305595" lon="19.2655527733">
		<tag k="alt_name" v="Litlebu" />
		<tag k="name" v="Lillebo" />
		<tag k="place" v="farm" />
		<tag k="ssr:stedsnr" v="746467" />
	</node>
	<node id="-761565" lat="69.2851138854" lon="19.2938388723">
		<tag k="name" v="Ryddheim" />
		<tag k="place" v="farm" />
		<tag k="ssr:stedsnr" v="746357" />
	</node>
	<node id="-761564" lat="69.2844055514" lon="19.4112138847">
		<tag k="name" v="Skoglund" />
		<tag k="place" v="farm" />
		<tag k="ssr:stedsnr" v="746352" />
	</node>
	<node id="-761562" lat="69.2621861085" lon="19.2590027663">
		<tag k="name" v="Bergstad" />
		<tag k="place" v="isolated_dwelling" />
		<tag k="ssr:stedsnr" v="746319" />
	</node>
	<node id="-761561" lat="69.2543194439" lon="19.2231666473">
		<tag k="name" v="Haugli" />
		<tag k="place" v="farm" />
		<tag k="ssr:stedsnr" v="746312" />
	</node>
	<node id="-761557" lat="69.3775805592" lon="19.2861388766">
		<tag k="name" v="Kantornes" />
		<tag k="place" v="hamlet" />
		<tag k="ssr:stedsnr" v="746208" />
	</node>
	<node id="-761555" lat="69.3316888903" lon="19.4023611119">
		<tag k="name" v="Brattli" />
		<tag k="place" v="isolated_dwelling" />
		<tag k="ssr:stedsnr" v="746172" />
	</node>
	<node id="-759506" lat="69.0969916643" lon="19.6726722189">
		<tag k="name" v="Skogli" />
		<tag k="place" v="farm" />
		<tag k="ssr:stedsnr" v="49924" />
	</node>
	<node id="-761553" lat="69.338641667" lon="19.3953027702">
		<tag k="name" v="Elvebakken" />
		<tag k="place" v="farm" />
		<tag k="ssr:stedsnr" v="746161" />
	</node>
	<node id="-761552" lat="69.321388886" lon="19.418333324">
		<tag k="alt_name" v="Slettmoen" />
		<tag k="name" v="Slettmo" />
		<tag k="place" v="farm" />
		<tag k="ssr:stedsnr" v="746143" />
	</node>
	<node id="-761551" lat="69.217508333" lon="19.2608444473">
		<tag k="name" v="Kjoshaug" />
		<tag k="place" v="farm" />
		<tag k="ssr:stedsnr" v="746142" />
	</node>
	<node id="-761548" lat="69.3148749958" lon="18.9563944434">
		<tag k="name" v="Bergmoen" />
		<tag k="place" v="farm" />
		<tag k="ssr:stedsnr" v="746114" />
	</node>
	<node id="-761545" lat="69.2196361142" lon="19.5584277605">
		<tag k="name" v="Bruvoll" />
		<tag k="place" v="farm" />
		<tag k="ssr:stedsnr" v="746111" />
	</node>
	<node id="-761544" lat="69.2207833312" lon="19.573649999">
		<tag k="name" v="Lilleng" />
		<tag k="place" v="farm" />
		<tag k="ssr:stedsnr" v="746109" />
	</node>
	<node id="-761543" lat="69.3019777736" lon="18.6608749949">
		<tag k="name" v="Åsheim" />
		<tag k="place" v="farm" />
		<tag k="ssr:stedsnr" v="746105" />
	</node>
	<node id="-761541" lat="69.2831250018" lon="18.95962777">
		<tag k="name" v="Øvermoen" />
		<tag k="place" v="farm" />
		<tag k="ssr:stedsnr" v="746083" />
	</node>
	<node id="-761537" lat="69.2872305566" lon="19.0056444429">
		<tag k="fixme" v="consider place=hamlet" />
		<tag k="name" v="Nordfjordbotn" />
		<tag k="place" v="village" />
		<tag k="ssr:stedsnr" v="746073" />
	</node>
	<node id="-761535" lat="69.2677305587" lon="18.7732166648">
		<tag k="name" v="Elverum" />
		<tag k="place" v="farm" />
		<tag k="ssr:stedsnr" v="746063" />
	</node>
	<node id="-761532" lat="69.2520555587" lon="19.0633305505">
		<tag k="name" v="Dalen" />
		<tag k="place" v="farm" />
		<tag k="ssr:stedsnr" v="746045" />
	</node>
	<node id="-761529" lat="69.1281361102" lon="19.7707444403">
		<tag k="name" v="Fagermo" />
		<tag k="place" v="isolated_dwelling" />
		<tag k="ssr:stedsnr" v="746028" />
	</node>
	<node id="-761525" lat="69.1811805568" lon="19.099719429">
		<tag k="alt_name" v="Løvmoen" />
		<tag k="name" v="Løvmo" />
		<tag k="place" v="farm" />
		<tag k="ssr:stedsnr" v="745977" />
	</node>
	<node id="-761520" lat="69.1928055524" lon="19.718311093">
		<tag k="name" v="Trangen" />
		<tag k="place" v="farm" />
		<tag k="ssr:stedsnr" v="745051" />
	</node>
	<node id="-761519" lat="69.1925416673" lon="19.7121249871">
		<tag k="name" v="Borge" />
		<tag k="place" v="farm" />
		<tag k="ssr:stedsnr" v="745052" />
	</node>
	<node id="-758727" lat="69.3840305527" lon="18.9713611121">
		<tag k="name" v="Fredheim" />
		<tag k="place" v="farm" />
		<tag k="ssr:stedsnr" v="321927" />
	</node>
	<node id="-761508" lat="69.2722750036" lon="18.7178527686">
		<tag k="name" v="Nordmo" />
		<tag k="place" v="farm" />
		<tag k="ssr:stedsnr" v="718597" />
	</node>
	<node id="-759457" lat="69.0525694457" lon="19.4440916577">
		<tag k="historic" v="shieling" />
		<tag k="name" v="Einargammen" />
		<tag k="place" v="locality" />
		<tag k="ssr:stedsnr" v="49130" />
	</node>
	<node id="-759452" lat="69.2416583323" lon="19.2411194416">
		<tag k="building" v="industrial" />
		<tag k="name" v="Balsfjord ysteri" />
		<tag k="ssr:stedsnr" v="49008" />
	</node>
	<node id="-759407" lat="69.2325722245" lon="19.2342694297">
		<tag k="alt_name" v="Sagelva" />
		<tag k="name" v="Sagelv" />
		<tag k="place" v="farm" />
		<tag k="ssr:stedsnr" v="19177" />
	</node>
	<node id="-759434" lat="69.3072638928" lon="19.4033777794">
		<tag k="name" v="Seljelv" />
		<tag k="place" v="farm" />
		<tag k="ssr:stedsnr" v="25394" />
	</node>
	<node id="-759428" lat="69.2161305585" lon="19.1190499822">
		<tag k="name" v="Løvvoll" />
		<tag k="place" v="farm" />
		<tag k="ssr:stedsnr" v="19985" />
	</node>
	<node id="-759426" lat="69.3876861077" lon="18.718019443">
		<tag k="name" v="Stabben" />
		<tag k="place" v="farm" />
		<tag k="ssr:stedsnr" v="19921" />
	</node>
	<node id="-761473" lat="69.4069111097" lon="18.6245138776">
		<tag k="name" v="Bakkeli" />
		<tag k="place" v="farm" />
		<tag k="ssr:stedsnr" v="718255" />
	</node>
	<node id="-759420" lat="69.4130638919" lon="18.5813277867">
		<tag k="alt_name" v="Sommarset" />
		<tag k="name" v="Sommerseth" />
		<tag k="place" v="farm" />
		<tag k="ssr:stedsnr" v="19700" />
	</node>
	<node id="-759419" lat="69.4463749971" lon="18.4902305486">
		<tag k="name" v="Dalset" />
		<tag k="place" v="farm" />
		<tag k="ssr:stedsnr" v="19660" />
	</node>
	<node id="-759418" lat="69.4406722198" lon="18.5016472051">
		<tag k="alt_name" v="Spilderbugten" />
		<tag k="name" v="Spilderbukta" />
		<tag k="place" v="farm" />
		<tag k="ssr:stedsnr" v="19650" />
	</node>
	<node id="-759416" lat="69.0657500037" lon="19.3126611094">
		<tag k="name" v="Fagerli" />
		<tag k="place" v="farm" />
		<tag k="ssr:stedsnr" v="19443" />
	</node>
	<node id="-761459" lat="69.4365722189" lon="18.5226138826">
		<tag k="name" v="Øvringen" />
		<tag k="place" v="farm" />
		<tag k="ssr:stedsnr" v="717293" />
	</node>
	<node id="-761455" lat="69.086805553" lon="19.1910555383">
		<tag k="name" v="Fynhytta" />
		<tag k="place" v="isolated_dwelling" />
		<tag k="ssr:stedsnr" v="717309" />
	</node>
	<node id="-759406" lat="69.2337611125" lon="19.3811694397">
		<tag k="name" v="Brygghaug" />
		<tag k="place" v="isolated_dwelling" />
		<tag k="ssr:stedsnr" v="19167" />
	</node>
	<node id="-759405" lat="69.3362500004" lon="19.3984222239">
		<tag k="name" v="Brattstad" />
		<tag k="place" v="isolated_dwelling" />
		<tag k="ssr:stedsnr" v="19164" />
	</node>
	<node id="-759403" lat="69.2393055591" lon="19.4576916644">
		<tag k="name" v="Bjørkan" />
		<tag k="place" v="farm" />
		<tag k="ssr:stedsnr" v="19149" />
	</node>
	<node id="-759402" lat="69.3225388915" lon="19.5611722095">
		<tag k="name" v="Kveldro" />
		<tag k="place" v="farm" />
		<tag k="ssr:stedsnr" v="19141" />
	</node>
	<node id="-759401" lat="69.3223805557" lon="19.5583166689">
		<tag k="name" v="Alfheim" />
		<tag k="place" v="farm" />
		<tag k="ssr:stedsnr" v="19140" />
	</node>
	<node id="-759400" lat="69.3023277772" lon="19.3368333339">
		<tag k="name" v="Gammelgard" />
		<tag k="place" v="farm" />
		<tag k="ssr:stedsnr" v="19123" />
	</node>
	<node id="-759399" lat="69.311736112" lon="19.5371638686">
		<tag k="name" v="Lakselvsletta" />
		<tag k="place" v="farm" />
		<tag k="ssr:stedsnr" v="19119" />
	</node>
	<node id="-759398" lat="69.3132000035" lon="18.8713166556">
		<tag k="name" v="Lundberg" />
		<tag k="place" v="isolated_dwelling" />
		<tag k="ssr:stedsnr" v="19110" />
	</node>
	<node id="-761445" lat="69.4269999969" lon="18.9592249963">
		<tag k="name" v="Middagsbugten ytre" />
		<tag k="place" v="isolated_dwelling" />
		<tag k="ssr:stedsnr" v="716778" />
	</node>
	<node id="-759396" lat="69.1925277798" lon="19.2243194316">
		<tag k="alt_name" v="Sørkjossætra" />
		<tag k="historic" v="shieling" />
		<tag k="name" v="Sørkjossætrene" />
		<tag k="place" v="locality" />
		<tag k="ssr:stedsnr" v="19062" />
	</node>
	<node id="-759395" lat="69.2071166635" lon="19.6511888851">
		<tag k="name" v="Heggeli" />
		<tag k="place" v="farm" />
		<tag k="ssr:stedsnr" v="19052" />
	</node>
	<node id="-759394" lat="69.3458027743" lon="19.206874995">
		<tag k="name" v="Hammarvoll" />
		<tag k="place" v="farm" />
		<tag k="ssr:stedsnr" v="18976" />
	</node>
	<node id="-759392" lat="69.3386027806" lon="18.8227333168">
		<tag k="name" v="Elvebakken" />
		<tag k="place" v="farm" />
		<tag k="ssr:stedsnr" v="18974" />
	</node>
	<node id="-759390" lat="69.3759083374" lon="18.9649999923">
		<tag k="name" v="Heimlund" />
		<tag k="place" v="isolated_dwelling" />
		<tag k="ssr:stedsnr" v="18969" />
	</node>
	<node id="-761936" lat="69.3862222224" lon="19.2864638681">
		<tag k="name" v="Heggesletta" />
		<tag k="place" v="isolated_dwelling" />
		<tag k="ssr:stedsnr" v="838576" />
	</node>
	<node id="-758714" lat="69.2924999993" lon="19.3246277764">
		<tag k="name" v="Aspelund" />
		<tag k="place" v="farm" />
		<tag k="ssr:stedsnr" v="321323" />
	</node>
	<node id="-759386" lat="69.3754277771" lon="19.1319055462">
		<tag k="name" v="Bjørkli" />
		<tag k="place" v="farm" />
		<tag k="ssr:stedsnr" v="18961" />
	</node>
	<node id="-762126" lat="69.3086388892" lon="19.3251861021">
		<tag k="amenity" v="school" />
		<tag k="name" v="Tennes skole" />
		<tag k="ssr:stedsnr" v="870575" />
	</node>
	<node id="-759378" lat="69.1245749983" lon="19.1003638929">
		<tag k="name" v="Kongsli" />
		<tag k="place" v="farm" />
		<tag k="ssr:stedsnr" v="18794" />
	</node>
	<node id="-759377" lat="69.1563944422" lon="19.1756888917">
		<tag k="fixme" v="consider place=hamlet" />
		<tag k="name" v="Strupen" />
		<tag k="place" v="village" />
		<tag k="ssr:stedsnr" v="18689" />
	</node>
	<node id="-761423" lat="69.3834666651" lon="19.4057888753">
		<tag k="name" v="Bjerkaker" />
		<tag k="place" v="isolated_dwelling" />
		<tag k="ssr:stedsnr" v="716447" />
	</node>
	<node id="-759372" lat="69.121438893" lon="19.7445999827">
		<tag k="name" v="Bergli" />
		<tag k="place" v="farm" />
		<tag k="ssr:stedsnr" v="18460" />
	</node>
	<node id="-759371" lat="69.2910138855" lon="19.3162444427">
		<tag k="name" v="Bakken" />
		<tag k="place" v="farm" />
		<tag k="ssr:stedsnr" v="18327" />
	</node>
	<node id="-759367" lat="69.296899998" lon="19.4141000005">
		<tag k="name" v="Åsly" />
		<tag k="place" v="farm" />
		<tag k="ssr:stedsnr" v="18301" />
	</node>
	<node id="-759365" lat="69.3316249971" lon="19.2749110939">
		<tag k="name" v="Skogheim" />
		<tag k="place" v="locality" />
		<tag k="ssr:stedsnr" v="18157" />
	</node>
	<node id="-759362" lat="69.2202805536" lon="19.2553416621">
		<tag k="name" v="Bjørkelo" />
		<tag k="place" v="farm" />
		<tag k="ssr:stedsnr" v="18124" />
	</node>
	<node id="-759360" lat="69.2213055561" lon="19.8105499931">
		<tag k="name" v="Myran" />
		<tag k="place" v="farm" />
		<tag k="ssr:stedsnr" v="18109" />
	</node>
	<node id="-759358" lat="69.2213666705" lon="19.5869222174">
		<tag k="name" v="Bomstad" />
		<tag k="place" v="farm" />
		<tag k="ssr:stedsnr" v="18102" />
	</node>
	<node id="-759357" lat="69.2199750043" lon="19.4629777597">
		<tag k="name" v="Strand" />
		<tag k="place" v="farm" />
		<tag k="ssr:stedsnr" v="18098" />
	</node>
	<node id="-759355" lat="69.288363886" lon="18.9465861098">
		<tag k="name" v="Lakseidet" />
		<tag k="place" v="hamlet" />
		<tag k="ssr:stedsnr" v="18090" />
	</node>
	<node id="-759354" lat="69.2747999963" lon="19.1652916588">
		<tag k="name" v="Luneng" />
		<tag k="place" v="farm" />
		<tag k="ssr:stedsnr" v="18069" />
	</node>
	<node id="-761401" lat="69.0415138906" lon="19.3230166701">
		<tag k="name" v="Tøløvrommet" />
		<tag k="place" v="locality" />
		<tag k="ssr:stedsnr" v="705947" />
	</node>
	<node id="-759352" lat="69.2579555603" lon="19.134972209">
		<tag k="name" v="Vasseng" />
		<tag k="place" v="farm" />
		<tag k="ssr:stedsnr" v="18040" />
	</node>
	<node id="-761397" lat="69.4351555528" lon="18.9447972038">
		<tag k="name" v="Hestnes søndre" />
		<tag k="place" v="farm" />
		<tag k="ssr:stedsnr" v="704783" />
	</node>
	<node id="-759348" lat="69.1972472262" lon="19.0883222109">
		<tag k="name" v="Skoglund" />
		<tag k="place" v="farm" />
		<tag k="ssr:stedsnr" v="17979" />
	</node>
	<node id="-759342" lat="69.1931361135" lon="19.6736694434">
		<tag k="name" v="Bjørkåker" />
		<tag k="place" v="farm" />
		<tag k="ssr:stedsnr" v="17046" />
	</node>
	<node id="-761388" lat="69.2199666639" lon="19.6032055504">
		<tag k="name" v="Bomstad" />
		<tag k="place" v="hamlet" />
		<tag k="ssr:stedsnr" v="704200" />
	</node>
	<node id="-759339" lat="69.0930861093" lon="19.6165999832">
		<tag k="name" v="Sletta" />
		<tag k="place" v="farm" />
		<tag k="ssr:stedsnr" v="18435" />
	</node>
	<node id="-761386" lat="69.2936500011" lon="18.9428361005">
		<tag k="name" v="Storbakk" />
		<tag k="old_name" v="Storbakken" />
		<tag k="place" v="isolated_dwelling" />
		<tag k="ssr:stedsnr" v="694879" />
	</node>
	<node id="-761381" lat="69.2150111108" lon="19.1225555596">
		<tag k="name" v="Myrhaug" />
		<tag k="place" v="farm" />
		<tag k="ssr:stedsnr" v="686992" />
	</node>
	<node id="-761378" lat="69.3755999997" lon="19.1693416698">
		<tag k="name" v="Storsletta" />
		<tag k="place" v="farm" />
		<tag k="ssr:stedsnr" v="686962" />
	</node>
	<node id="-761377" lat="69.3639888922" lon="18.7653361106">
		<tag k="alt_name" v="Kjerrvikåsen" />
		<tag k="name" v="Kjærvikås" />
		<tag k="place" v="farm" />
		<tag k="ssr:stedsnr" v="686954" />
	</node>
	<node id="-761374" lat="69.3862333381" lon="19.0909222123">
		<tag k="name" v="Skogstad" />
		<tag k="place" v="farm" />
		<tag k="ssr:stedsnr" v="686942" />
	</node>
	<node id="-761373" lat="69.3711805578" lon="18.6360194527">
		<tag k="name" v="Hamran" />
		<tag k="place" v="hamlet" />
		<tag k="ssr:stedsnr" v="686936" />
	</node>
	<node id="-759323" lat="69.3661187367" lon="18.74840442">
		<tag k="name" v="Skogli" />
		<tag k="place" v="farm" />
		<tag k="ssr:stedsnr" v="984356" />
	</node>
	<node id="-761370" lat="69.4231833286" lon="19.0637805581">
		<tag k="name" v="Nylund" />
		<tag k="place" v="isolated_dwelling" />
		<tag k="ssr:stedsnr" v="686897" />
	</node>
	<node id="-761369" lat="69.4833527799" lon="18.9933222271">
		<tag k="alt_name" v="Tilleberg" />
		<tag k="name" v="Telleberg" />
		<tag k="place" v="farm" />
		<tag k="ssr:stedsnr" v="686843" />
	</node>
	<node id="-761366" lat="69.1303249984" lon="19.052280555">
		<tag k="name" v="Nygård" />
		<tag k="place" v="farm" />
		<tag k="ssr:stedsnr" v="686767" />
	</node>
	<node id="-761359" lat="69.1049861114" lon="19.3306694468">
		<tag k="name" v="Andorli" />
		<tag k="place" v="isolated_dwelling" />
		<tag k="ssr:stedsnr" v="686507" />
	</node>
	<node id="-761358" lat="69.0985611092" lon="19.2827472011">
		<tag k="name" v="Åsen" />
		<tag k="place" v="locality" />
		<tag k="ssr:stedsnr" v="686499" />
	</node>
	<node id="-761356" lat="69.0926472248" lon="19.6234583127">
		<tag k="name" v="Olsrud" />
		<tag k="place" v="isolated_dwelling" />
		<tag k="ssr:stedsnr" v="686486" />
	</node>
	<node id="-762114" lat="69.3388027776" lon="18.8178249974">
		<tag k="fixme" v="consider place=hamlet" />
		<tag k="name" v="Nordby" />
		<tag k="place" v="village" />
		<tag k="ssr:stedsnr" v="868967" />
	</node>
	<node id="-761354" lat="69.0598833337" lon="19.5099805575">
		<tag k="alt_name" v="Tryggstad" />
		<tag k="name" v="Trygstad" />
		<tag k="place" v="farm" />
		<tag k="ssr:stedsnr" v="686451" />
	</node>
	<node id="-761353" lat="69.2906277807" lon="19.4095166502">
		<tag k="name" v="Aspenes" />
		<tag k="place" v="farm" />
		<tag k="ssr:stedsnr" v="686354" />
	</node>
	<node id="-759303" lat="69.2138868289" lon="19.1297717294">
		<tag k="name" v="Måsbergvik" />
		<tag k="place" v="farm" />
		<tag k="ssr:stedsnr" v="1073776" />
	</node>
	<node id="-761349" lat="69.272183337" lon="19.4129777793">
		<tag k="name" v="Einan" />
		<tag k="place" v="farm" />
		<tag k="ssr:stedsnr" v="686321" />
	</node>
	<node id="-761348" lat="69.2694888922" lon="19.424666658">
		<tag k="alt_name" v="Luneng" />
		<tag k="name" v="Lundeng" />
		<tag k="place" v="farm" />
		<tag k="ssr:stedsnr" v="686317" />
	</node>
	<node id="-761342" lat="69.2727749996" lon="19.2722277611">
		<tag k="name" v="Nyvik" />
		<tag k="place" v="farm" />
		<tag k="ssr:stedsnr" v="686294" />
	</node>
	<node id="-761341" lat="69.3825916643" lon="19.2656527584">
		<tag k="alt_name" v="Svartnes, in;Indre Svartnes" />
		<tag k="name" v="Svartnes Indre" />
		<tag k="place" v="isolated_dwelling" />
		<tag k="ssr:stedsnr" v="686223" />
	</node>
	<node id="-761339" lat="69.3668555547" lon="19.3549555496">
		<tag k="name" v="Nyeng" />
		<tag k="place" v="isolated_dwelling" />
		<tag k="ssr:stedsnr" v="686187" />
	</node>
	<node id="-761337" lat="69.3564777802" lon="19.3687638803">
		<tag k="alt_name" v="Bråland" />
		<tag k="name" v="Gavestad" />
		<tag k="place" v="farm" />
		<tag k="ssr:stedsnr" v="686168" />
	</node>
	<node id="-761336" lat="69.2301333341" lon="19.4078888909">
		<tag k="alt_name" v="Lodbugten;Loddbukta;Indre Lodbukt" />
		<tag k="name" v="Loddbukt" />
		<tag k="place" v="farm" />
		<tag k="ssr:stedsnr" v="686167" />
	</node>
	<node id="-761334" lat="69.2409361146" lon="19.4482694255">
		<tag k="name" v="Nyvoll" />
		<tag k="place" v="farm" />
		<tag k="ssr:stedsnr" v="686140" />
	</node>
	<node id="-761333" lat="69.3161027765" lon="19.3395472039">
		<tag k="name" v="Haugland" />
		<tag k="place" v="farm" />
		<tag k="ssr:stedsnr" v="686135" />
	</node>
	<node id="-761332" lat="69.3111055593" lon="19.3479722212">
		<tag k="alt_name" v="Ternes, yt" />
		<tag k="name" v="Tennes ytre" />
		<tag k="old_name" v="Ytre Ternes" />
		<tag k="place" v="farm" />
		<tag k="ssr:stedsnr" v="686122" />
	</node>
	<node id="-761331" lat="69.3031083315" lon="19.3376472003">
		<tag k="name" v="Heim" />
		<tag k="place" v="farm" />
		<tag k="ssr:stedsnr" v="686121" />
	</node>
	<node id="-761330" lat="69.3122999995" lon="19.4194833126">
		<tag k="name" v="Åsheim" />
		<tag k="place" v="farm" />
		<tag k="ssr:stedsnr" v="686111" />
	</node>
	<node id="-761329" lat="69.3117611146" lon="19.4178361148">
		<tag k="name" v="Melen" />
		<tag k="place" v="farm" />
		<tag k="ssr:stedsnr" v="686110" />
	</node>
	<node id="-761864" lat="69.3468611101" lon="18.7469944494">
		<tag k="alt_name" v="Lauksletta" />
		<tag k="name" v="Løksletta" />
		<tag k="place" v="farm" />
		<tag k="ssr:stedsnr" v="807984" />
	</node>
	<node id="-761322" lat="69.3119750021" lon="18.9606388721">
		<tag k="name" v="Myreng" />
		<tag k="place" v="farm" />
		<tag k="ssr:stedsnr" v="686092" />
	</node>
	<node id="-761321" lat="69.2936944425" lon="18.6753805558">
		<tag k="name" v="Eidismoen" />
		<tag k="place" v="farm" />
		<tag k="ssr:stedsnr" v="686089" />
	</node>
	<node id="-761320" lat="69.2165083306" lon="19.4971138801">
		<tag k="name" v="Bakken" />
		<tag k="place" v="farm" />
		<tag k="ssr:stedsnr" v="686086" />
	</node>
	<node id="-761319" lat="69.2844055594" lon="18.6982555621">
		<tag k="alt_name" v="Melkill" />
		<tag k="name" v="Melkild" />
		<tag k="place" v="farm" />
		<tag k="ssr:stedsnr" v="686085" />
	</node>
	<node id="-761318" lat="69.1857027815" lon="19.2278777613">
		<tag k="name" v="Sætervang" />
		<tag k="place" v="farm" />
		<tag k="ssr:stedsnr" v="686083" />
	</node>
	<node id="-759268" lat="69.0708361086" lon="19.4335388711">
		<tag k="historic" v="shieling" />
		<tag k="name" v="Johangammen" />
		<tag k="place" v="locality" />
		<tag k="ssr:stedsnr" v="899098" />
	</node>
	<node id="-761314" lat="69.200858334" lon="19.6343166547">
		<tag k="name" v="Nysætre" />
		<tag k="place" v="farm" />
		<tag k="ssr:stedsnr" v="686078" />
	</node>
	<node id="-761312" lat="69.2811555536" lon="19.0074750011">
		<tag k="name" v="Åsli" />
		<tag k="place" v="farm" />
		<tag k="ssr:stedsnr" v="686073" />
	</node>
	<node id="-761311" lat="69.1994555548" lon="19.2729249923">
		<tag k="name" v="Lunde" />
		<tag k="place" v="isolated_dwelling" />
		<tag k="ssr:stedsnr" v="686069" />
	</node>
	<node id="-761309" lat="69.2132916645" lon="19.6406416543">
		<tag k="name" v="Solli" />
		<tag k="place" v="farm" />
		<tag k="ssr:stedsnr" v="686065" />
	</node>
	<node id="-761307" lat="69.1909666648" lon="19.290388884">
		<tag k="name" v="Hølen" />
		<tag k="place" v="farm" />
		<tag k="ssr:stedsnr" v="686063" />
	</node>
	<node id="-761303" lat="69.2538833306" lon="19.2024972047">
		<tag k="name" v="Skjåvik" />
		<tag k="place" v="farm" />
		<tag k="ssr:stedsnr" v="686037" />
	</node>
	<node id="-761301" lat="69.1937222269" lon="19.6486833192">
		<tag k="name" v="Skáidi" />
		<tag k="name:se" v="Skáidi" />
		<tag k="place" v="farm" />
		<tag k="ssr:stedsnr" v="686030" />
	</node>
	<node id="-761300" lat="69.191325002" lon="19.6788027615">
		<tag k="name" v="Solberg" />
		<tag k="place" v="farm" />
		<tag k="ssr:stedsnr" v="686029" />
	</node>
	<node id="-761296" lat="69.1527083304" lon="19.1832749895">
		<tag k="name" v="Bergli" />
		<tag k="place" v="farm" />
		<tag k="ssr:stedsnr" v="685785" />
	</node>
	<node id="-761294" lat="69.1889500011" lon="19.1879805547">
		<tag k="name" v="Kjosvatn" />
		<tag k="place" v="farm" />
		<tag k="ssr:stedsnr" v="685757" />
	</node>
	<node id="-759245" lat="69.3420000017" lon="19.3878972222">
		<tag k="name" v="Tomasjord" />
		<tag k="place" v="hamlet" />
		<tag k="ssr:stedsnr" v="887631" />
	</node>
	<node id="-761292" lat="69.2948250041" lon="19.3319360997">
		<tag k="name" v="Myra" />
		<tag k="old_name" v="Myrli" />
		<tag k="place" v="farm" />
		<tag k="ssr:stedsnr" v="685337" />
	</node>
	<node id="-761291" lat="69.2292166628" lon="19.4877388796">
		<tag k="name" v="Berglund" />
		<tag k="place" v="farm" />
		<tag k="ssr:stedsnr" v="685154" />
	</node>
	<node id="-761289" lat="69.2157888908" lon="19.2470166612">
		<tag k="name" v="Kuldstad" />
		<tag k="place" v="farm" />
		<tag k="ssr:stedsnr" v="685138" />
	</node>
	<node id="-761286" lat="69.1914805571" lon="19.6865444269">
		<tag k="name" v="Smørpund - Vuodjabuddi" />
		<tag k="name:no" v="Smørpund" />
		<tag k="name:se" v="Vuodjabuddi" />
		<tag k="place" v="farm" />
		<tag k="ssr:stedsnr" v="685047" />
	</node>
	<node id="-761281" lat="69.3219500041" lon="18.8345305459">
		<tag k="alt_name" v="Hamnvåg indre" />
		<tag k="loc_name" v="Inner-Hamnvåg" />
		<tag k="name" v="Indre Hamnvåg" />
		<tag k="place" v="farm" />
		<tag k="ssr:stedsnr" v="661107" />
	</node>
	<node id="-761075" lat="69.2577916644" lon="19.4186833226">
		<tag k="name" v="Bergstad" />
		<tag k="place" v="farm" />
		<tag k="ssr:stedsnr" v="625335" />
	</node>
	<node id="-759216" lat="69.30083889" lon="18.973424996">
		<tag k="name" v="Sjåvikør" />
		<tag k="place" v="farm" />
		<tag k="ssr:stedsnr" v="475581" />
	</node>
	<node id="-759026" lat="69.2918833363" lon="19.400919439">
		<tag k="name" v="Slettmo" />
		<tag k="place" v="isolated_dwelling" />
		<tag k="ssr:stedsnr" v="388356" />
	</node>
	<node id="-762097" lat="69.113283337" lon="19.1550500031">
		<tag k="name" v="Utgård" />
		<tag k="place" v="farm" />
		<tag k="ssr:stedsnr" v="868770" />
	</node>
	<node id="-759024" lat="69.3213500005" lon="18.8347805537">
		<tag k="alt_name" v="Hamnvåg, in;Hamnvåg indre" />
		<tag k="loc_name" v="Inner-Hamnvåg" />
		<tag k="name" v="Indre Hamnvåg" />
		<tag k="place" v="farm" />
		<tag k="ssr:stedsnr" v="382993" />
	</node>
	<node id="-762436" lat="69.2224970515" lon="19.5186049582">
		<tag k="name" v="Jernberget" />
		<tag k="place" v="farm" />
		<tag k="ssr:stedsnr" v="975303" />
	</node>
	<node id="-759184" lat="69.3702194488" lon="18.9506499854">
		<tag k="name" v="Myrstad" />
		<tag k="place" v="farm" />
		<tag k="ssr:stedsnr" v="474740" />
	</node>
	<node id="-759021" lat="69.3484888919" lon="19.0954083256">
		<tag k="name" v="Brattli" />
		<tag k="place" v="farm" />
		<tag k="ssr:stedsnr" v="382975" />
	</node>
	<node id="-762270" lat="69.2564499983" lon="19.4198221997">
		<tag k="name" v="Haugslett" />
		<tag k="place" v="farm" />
		<tag k="ssr:stedsnr" v="929305" />
	</node>
	<node id="-759020" lat="69.3448805557" lon="19.1149361091">
		<tag k="alt_name" v="Skredan" />
		<tag k="name" v="Skrean" />
		<tag k="place" v="farm" />
		<tag k="ssr:stedsnr" v="382974" />
	</node>
	<node id="-761221" lat="69.26987222" lon="18.8291416715">
		<tag k="historic" v="shieling" />
		<tag k="name" v="Bjørkhaugsætra" />
		<tag k="place" v="locality" />
		<tag k="ssr:stedsnr" v="656613" />
	</node>
	<node id="-759019" lat="69.2342277816" lon="19.0645499827">
		<tag k="name" v="Skavli" />
		<tag k="place" v="isolated_dwelling" />
		<tag k="ssr:stedsnr" v="382967" />
	</node>
	<node id="-759165" lat="69.2223805574" lon="19.4567888767">
		<tag k="name" v="Rakeljorda" />
		<tag k="place" v="hamlet" />
		<tag k="ssr:stedsnr" v="474460" />
	</node>
	<node id="-762090" lat="69.4780500015" lon="18.48393333">
		<tag k="name" v="Soleng" />
		<tag k="place" v="farm" />
		<tag k="ssr:stedsnr" v="868604" />
	</node>
	<node id="-761451" lat="69.3838750037" lon="18.9720138935">
		<tag k="name" v="Fagertun" />
		<tag k="place" v="isolated_dwelling" />
		<tag k="ssr:stedsnr" v="717274" />
	</node>
	<node id="-759016" lat="69.3934750016" lon="18.9852499939">
		<tag k="name" v="Rognset" />
		<tag k="place" v="farm" />
		<tag k="ssr:stedsnr" v="382955" />
	</node>
	<node id="-761063" lat="69.2471305593" lon="19.4347916666">
		<tag k="alt_name" v="Hamnes;Ytre Hamnes" />
		<tag k="name" v="Havnnes" />
		<tag k="place" v="farm" />
		<tag k="ssr:stedsnr" v="625160" />
	</node>
	<node id="-759141" lat="69.089522225" lon="19.153938894">
		<tag k="name" v="Hagenhytta" />
		<tag k="place" v="isolated_dwelling" />
		<tag k="ssr:stedsnr" v="474289" />
	</node>
	<node id="-759134" lat="69.3967722202" lon="18.983102777">
		<tag k="name" v="Fagerelv" />
		<tag k="place" v="farm" />
		<tag k="ssr:stedsnr" v="474270" />
	</node>
	<node id="-759133" lat="69.3873222256" lon="18.9906333183">
		<tag k="name" v="Bakketun" />
		<tag k="place" v="farm" />
		<tag k="ssr:stedsnr" v="474262" />
	</node>
	<node id="-759132" lat="69.3284472245" lon="18.9362999931">
		<tag k="name" v="Røe" />
		<tag k="place" v="farm" />
		<tag k="ssr:stedsnr" v="474254" />
	</node>
	<node id="-761175" lat="69.3895055559" lon="18.9831722128">
		<tag k="name" v="Lilleng" />
		<tag k="place" v="farm" />
		<tag k="ssr:stedsnr" v="656249" />
	</node>
	<node id="-761173" lat="69.2201444406" lon="19.559369436">
		<tag k="name" v="Kutorget" />
		<tag k="place" v="quarter" />
		<tag k="ssr:stedsnr" v="656242" />
	</node>
	<node id="-759113" lat="69.365688891" lon="18.7555805435">
		<tag k="name" v="Nerås" />
		<tag k="place" v="farm" />
		<tag k="ssr:stedsnr" v="474012" />
	</node>
	<node id="-761158" lat="69.4273083298" lon="18.9534555525">
		<tag k="name" v="Åsheim" />
		<tag k="place" v="isolated_dwelling" />
		<tag k="ssr:stedsnr" v="655761" />
	</node>
	<node id="-759109" lat="69.4271416673" lon="18.9623472284">
		<tag k="name" v="Skogvang" />
		<tag k="place" v="isolated_dwelling" />
		<tag k="ssr:stedsnr" v="473784" />
	</node>
	<node id="-759349" lat="69.152983333" lon="19.2298360996">
		<tag k="name" v="Steinhaug" />
		<tag k="place" v="farm" />
		<tag k="ssr:stedsnr" v="18007" />
	</node>
	<node id="-759087" lat="69.3856972256" lon="19.2858249988">
		<tag k="name" v="Skáidi" />
		<tag k="name:se" v="Skáidi" />
		<tag k="place" v="hamlet" />
		<tag k="ssr:stedsnr" v="413561" />
	</node>
	<node id="-761130" lat="69.4435777826" lon="18.9233860994">
		<tag k="name" v="Elvevoll" />
		<tag k="place" v="farm" />
		<tag k="ssr:stedsnr" v="643795" />
	</node>
	<node id="-759004" lat="69.4800611147" lon="18.9852861057">
		<tag k="name" v="Mellomberg" />
		<tag k="place" v="farm" />
		<tag k="ssr:stedsnr" v="382858" />
	</node>
	<node id="-761118" lat="69.3434222252" lon="19.2664305552">
		<tag k="name" v="Sandøyra" />
		<tag k="place" v="hamlet" />
		<tag k="ssr:stedsnr" v="635073" />
	</node>
	<node id="-761116" lat="69.4001000032" lon="18.5959833426">
		<tag k="alt_name" v="Mortenshals" />
		<tag k="fixme" v="consider place=hamlet" />
		<tag k="name" v="Mortenhals" />
		<tag k="place" v="village" />
		<tag k="ssr:stedsnr" v="633998" />
	</node>
	<node id="-761115" lat="69.3172777762" lon="18.9554111049">
		<tag k="name" v="Eliasnes" />
		<tag k="place" v="farm" />
		<tag k="ssr:stedsnr" v="633994" />
	</node>
	<node id="-761114" lat="69.3973222248" lon="19.0709916542">
		<tag k="name" v="Hestnes nordre" />
		<tag k="old_name" v="Hestnes" />
		<tag k="place" v="farm" />
		<tag k="ssr:stedsnr" v="633123" />
	</node>
	<node id="-761113" lat="69.3440008857" lon="19.245762372">
		<tag k="name" v="Sandneset" />
		<tag k="place" v="farm" />
		<tag k="ssr:stedsnr" v="632960" />
	</node>
	<node id="-761112" lat="69.3030833306" lon="18.8845111048">
		<tag k="name" v="Stålvikbotn" />
		<tag k="place" v="farm" />
		<tag k="ssr:stedsnr" v="632741" />
	</node>
	<node id="-761111" lat="69.2044777767" lon="19.7769638766">
		<tag k="alt_name:no" v="Kila" />
		<tag k="name" v="Kilen - Giillá" />
		<tag k="name:no" v="Kilen" />
		<tag k="name:se" v="Giillá" />
		<tag k="place" v="farm" />
		<tag k="ssr:stedsnr" v="631074" />
	</node>
	<node id="-761109" lat="69.3579472258" lon="19.3654916638">
		<tag k="name" v="Nygård" />
		<tag k="place" v="farm" />
		<tag k="ssr:stedsnr" v="627547" />
	</node>
	<node id="-761108" lat="69.3430861067" lon="19.127433335">
		<tag k="name" v="Mellomjorda" />
		<tag k="place" v="farm" />
		<tag k="ssr:stedsnr" v="625999" />
	</node>
	<node id="-761103" lat="69.3930027796" lon="19.0769805465">
		<tag k="name" v="Nordvang" />
		<tag k="place" v="farm" />
		<tag k="ssr:stedsnr" v="625956" />
	</node>
	<node id="-761101" lat="69.2354277806" lon="19.2062833326">
		<tag k="name" v="Storsteinnes" />
		<tag k="place" v="farm" />
		<tag k="ssr:stedsnr" v="625947" />
	</node>
	<node id="-761098" lat="69.3950277746" lon="18.6887000016">
		<tag k="name" v="Fredheim" />
		<tag k="place" v="farm" />
		<tag k="ssr:stedsnr" v="625927" />
	</node>
	<node id="-761095" lat="69.4075500015" lon="18.6883027855">
		<tag k="name" v="Rognmoen" />
		<tag k="place" v="farm" />
		<tag k="ssr:stedsnr" v="625912" />
	</node>
	<node id="-761093" lat="69.4617833376" lon="18.9763388869">
		<tag k="name" v="Øvergård" />
		<tag k="place" v="farm" />
		<tag k="ssr:stedsnr" v="625888" />
	</node>
	<node id="-761092" lat="69.4585472262" lon="18.9081166628">
		<tag k="alt_name" v="Sletta" />
		<tag k="name" v="Sletten" />
		<tag k="place" v="farm" />
		<tag k="ssr:stedsnr" v="625887" />
	</node>
	<node id="-761046" lat="69.2702999999" lon="18.7181305607">
		<tag k="name" v="Aursfjord" />
		<tag k="place" v="hamlet" />
		<tag k="ssr:stedsnr" v="625076" />
	</node>
	<node id="-761089" lat="69.4292000045" lon="18.5449999936">
		<tag k="name" v="Dalheim" />
		<tag k="place" v="farm" />
		<tag k="ssr:stedsnr" v="625733" />
	</node>
	<node id="-759040" lat="69.0994527802" lon="19.2826499803">
		<tag k="historic" v="shieling" />
		<tag k="name" v="Anesætra" />
		<tag k="place" v="locality" />
		<tag k="ssr:stedsnr" v="401906" />
	</node>
	<node id="-761086" lat="69.4742750016" lon="18.4827999979">
		<tag k="name" v="Nybrotet" />
		<tag k="place" v="farm" />
		<tag k="ssr:stedsnr" v="625628" />
	</node>
	<node id="-759037" lat="69.0631222181" lon="19.2972861039">
		<tag k="name" v="Nyborg" />
		<tag k="place" v="farm" />
		<tag k="ssr:stedsnr" v="400941" />
	</node>
	<node id="-761083" lat="69.0959666707" lon="19.6619583157">
		<tag k="name" v="Skoglund" />
		<tag k="place" v="farm" />
		<tag k="ssr:stedsnr" v="625463" />
	</node>
	<node id="-761082" lat="69.0978750013" lon="19.6957027782">
		<tag k="alt_name" v="Høgseth" />
		<tag k="name" v="Høyset" />
		<tag k="place" v="isolated_dwelling" />
		<tag k="ssr:stedsnr" v="625462" />
	</node>
	<node id="-759032" lat="69.4267916689" lon="19.0610805425">
		<tag k="name" v="Storbukt" />
		<tag k="place" v="farm" />
		<tag k="ssr:stedsnr" v="389423" />
	</node>
	<node id="-761078" lat="69.2707666638" lon="19.2718388816">
		<tag k="name" v="Holmenes" />
		<tag k="place" v="farm" />
		<tag k="ssr:stedsnr" v="625346" />
	</node>
	<node id="-759678" lat="69.4392250003" lon="18.9360861003">
		<tag k="name" v="Nyberg" />
		<tag k="place" v="farm" />
		<tag k="ssr:stedsnr" v="98794" />
	</node>
	<node id="-761074" lat="69.2788527734" lon="19.2870944451">
		<tag k="alt_name" v="Skjeret" />
		<tag k="name" v="Skjæret" />
		<tag k="place" v="farm" />
		<tag k="ssr:stedsnr" v="625321" />
	</node>
	<node id="-759025" lat="69.3470583309" lon="19.3806249812">
		<tag k="name" v="Nyheim" />
		<tag k="place" v="farm" />
		<tag k="ssr:stedsnr" v="384577" />
	</node>
	<node id="-761072" lat="69.4344777817" lon="19.2595027624">
		<tag k="building" v="civic" />
		<tag k="name" v="Smalak brøytestasjon." />
		<tag k="ssr:stedsnr" v="625238" />
	</node>
	<node id="-761071" lat="69.3791166647" lon="19.2262249996">
		<tag k="name" v="Ringstad" />
		<tag k="place" v="farm" />
		<tag k="ssr:stedsnr" v="625223" />
	</node>
	<node id="-761069" lat="69.376136111" lon="19.2942222093">
		<tag k="name" v="Glitterheim" />
		<tag k="place" v="isolated_dwelling" />
		<tag k="ssr:stedsnr" v="625209" />
	</node>
	<node id="-761068" lat="69.3708694491" lon="19.3654277625">
		<tag k="name" v="Nordgard" />
		<tag k="place" v="isolated_dwelling" />
		<tag k="ssr:stedsnr" v="625197" />
	</node>
	<node id="-761067" lat="69.2270472204" lon="19.2415416593">
		<tag k="fixme" v="consider place=hamlet" />
		<tag k="name" v="Sagelv" />
		<tag k="place" v="village" />
		<tag k="ssr:stedsnr" v="625183" />
	</node>
	<node id="-759017" lat="69.2387861122" lon="19.2122222273">
		<tag k="alt_name" v="Vegskifte" />
		<tag k="name" v="Veiskifte" />
		<tag k="place" v="farm" />
		<tag k="ssr:stedsnr" v="382960" />
	</node>
	<node id="-761064" lat="69.3430944409" lon="19.2705222044">
		<tag k="alt_name" v="Sandøyra" />
		<tag k="name" v="Sandøren" />
		<tag k="place" v="farm" />
		<tag k="ssr:stedsnr" v="625178" />
	</node>
	<node id="-759015" lat="69.3984972257" lon="18.9840138815">
		<tag k="name" v="Fagerheim" />
		<tag k="place" v="farm" />
		<tag k="ssr:stedsnr" v="382933" />
	</node>
	<node id="-759014" lat="69.24196667" lon="18.9822055419">
		<tag k="name" v="Østerli" />
		<tag k="place" v="isolated_dwelling" />
		<tag k="ssr:stedsnr" v="382922" />
	</node>
	<node id="-759013" lat="69.4268749968" lon="19.0611916478">
		<tag k="name" v="Steinnes" />
		<tag k="place" v="farm" />
		<tag k="ssr:stedsnr" v="382923" />
	</node>
	<node id="-759012" lat="69.4053138861" lon="18.698508324">
		<tag k="name" v="Myrvoll" />
		<tag k="place" v="farm" />
		<tag k="ssr:stedsnr" v="382914" />
	</node>
	<node id="-759011" lat="69.2502194459" lon="18.8634472066">
		<tag k="name" v="Vestertun" />
		<tag k="place" v="farm" />
		<tag k="ssr:stedsnr" v="382913" />
	</node>
	<node id="-761058" lat="69.3236972206" lon="19.4128083199">
		<tag k="name" v="Seljemo" />
		<tag k="place" v="farm" />
		<tag k="ssr:stedsnr" v="625141" />
	</node>
	<node id="-759009" lat="69.4410833314" lon="19.0240249845">
		<tag k="name" v="Elverum" />
		<tag k="place" v="farm" />
		<tag k="ssr:stedsnr" v="382902" />
	</node>
	<node id="-759008" lat="69.4597861111" lon="18.9796138761">
		<tag k="name" v="Nordheim" />
		<tag k="place" v="farm" />
		<tag k="ssr:stedsnr" v="382885" />
	</node>
	<node id="-761055" lat="69.3148499981" lon="19.5358916584">
		<tag k="name" v="Skogmoen" />
		<tag k="place" v="farm" />
		<tag k="ssr:stedsnr" v="625123" />
	</node>
	<node id="-759006" lat="69.4517388891" lon="18.9871499899">
		<tag k="alt_name" v="Labukt" />
		<tag k="name" v="Labukta" />
		<tag k="place" v="hamlet" />
		<tag k="ssr:stedsnr" v="382878" />
	</node>
	<node id="-761052" lat="69.2189916636" lon="19.6134222">
		<tag k="name" v="Bakkeringen" />
		<tag k="place" v="isolated_dwelling" />
		<tag k="ssr:stedsnr" v="625109" />
	</node>
	<node id="-761051" lat="69.2181249968" lon="19.5493972069">
		<tag k="alt_name" v="Sjøvoll" />
		<tag k="name" v="Sjøvollan" />
		<tag k="place" v="farm" />
		<tag k="ssr:stedsnr" v="625104" />
	</node>
	<node id="-761049" lat="69.2988027813" lon="19.3361305476">
		<tag k="alt_name" v="Gammelgard" />
		<tag k="name" v="Gammelgård" />
		<tag k="place" v="farm" />
		<tag k="ssr:stedsnr" v="625084" />
	</node>
	<node id="-758998" lat="69.0893277807" lon="19.2927360963">
		<tag k="name" v="Ryeng" />
		<tag k="place" v="isolated_dwelling" />
		<tag k="ssr:stedsnr" v="382474" />
	</node>
	<node id="-761044" lat="69.2172833358" lon="19.2628083225">
		<tag k="name" v="Sørkjos" />
		<tag k="place" v="farm" />
		<tag k="ssr:stedsnr" v="625064" />
	</node>
	<node id="-758995" lat="69.2906027741" lon="19.3161999882">
		<tag k="name" v="Storegard" />
		<tag k="place" v="farm" />
		<tag k="ssr:stedsnr" v="382359" />
	</node>
	<node id="-761042" lat="69.2772416661" lon="19.1850305491">
		<tag k="alt_name" v="Bjellmoen" />
		<tag k="name" v="Bjellmo" />
		<tag k="place" v="farm" />
		<tag k="ssr:stedsnr" v="625053" />
	</node>
	<node id="-758993" lat="69.2919916663" lon="19.410974979">
		<tag k="name" v="Aspeli" />
		<tag k="place" v="isolated_dwelling" />
		<tag k="ssr:stedsnr" v="382352" />
	</node>
	<node id="-758992" lat="69.286800002" lon="19.4121972206">
		<tag k="name" v="Slåttnes" />
		<tag k="place" v="farm" />
		<tag k="ssr:stedsnr" v="382351" />
	</node>
	<node id="-758991" lat="69.2950388917" lon="19.3321138938">
		<tag k="name" v="Engset" />
		<tag k="place" v="farm" />
		<tag k="ssr:stedsnr" v="382335" />
	</node>
	<node id="-761038" lat="69.357716666" lon="18.6934305473">
		<tag k="name" v="Skutvika" />
		<tag k="place" v="farm" />
		<tag k="ssr:stedsnr" v="624958" />
	</node>
	<node id="-761036" lat="69.150641671" lon="19.1735277718">
		<tag k="name" v="Sakslund" />
		<tag k="place" v="farm" />
		<tag k="ssr:stedsnr" v="624796" />
	</node>
	<node id="-758987" lat="69.2545187084" lon="19.4216747765">
		<tag k="name" v="Kvitberg" />
		<tag k="place" v="farm" />
		<tag k="ssr:stedsnr" v="382286" />
	</node>
	<node id="-761034" lat="69.1623194448" lon="19.1846944464">
		<tag k="name" v="Steinstad" />
		<tag k="place" v="farm" />
		<tag k="ssr:stedsnr" v="624752" />
	</node>
	<node id="-758985" lat="69.38006667" lon="19.2441138933">
		<tag k="name" v="Reinsletta" />
		<tag k="place" v="farm" />
		<tag k="ssr:stedsnr" v="382219" />
	</node>
	<node id="-761032" lat="69.2221444457" lon="19.5213583181">
		<tag k="name" v="Lundali" />
		<tag k="place" v="farm" />
		<tag k="ssr:stedsnr" v="624175" />
	</node>
	<node id="-761031" lat="69.2249611132" lon="19.4420749898">
		<tag k="name" v="Myreng" />
		<tag k="place" v="farm" />
		<tag k="ssr:stedsnr" v="624171" />
	</node>
	<node id="-761030" lat="69.2199583296" lon="19.2389277761">
		<tag k="name" v="Falkestad" />
		<tag k="place" v="farm" />
		<tag k="ssr:stedsnr" v="624147" />
	</node>
	<node id="-758990" lat="69.2823861085" lon="19.2843500006">
		<tag k="name" v="Myrbakken" />
		<tag k="place" v="isolated_dwelling" />
		<tag k="ssr:stedsnr" v="382321" />
	</node>
	<node id="-761028" lat="69.3025527801" lon="18.6592055554">
		<tag k="name" v="Eng" />
		<tag k="place" v="farm" />
		<tag k="ssr:stedsnr" v="624124" />
	</node>
	<node id="-758977" lat="69.3095750025" lon="19.3436416711">
		<tag k="name" v="Kjerkely" />
		<tag k="place" v="farm" />
		<tag k="ssr:stedsnr" v="382158" />
	</node>
	<node id="-758976" lat="69.3275692242" lon="19.4062110141">
		<tag k="name" v="Sandnes" />
		<tag k="place" v="farm" />
		<tag k="ssr:stedsnr" v="382153" />
	</node>
	<node id="-761023" lat="69.1554888897" lon="19.2320166573">
		<tag k="name" v="Heimstad" />
		<tag k="place" v="farm" />
		<tag k="ssr:stedsnr" v="624002" />
	</node>
	<node id="-758974" lat="69.2251138855" lon="19.242711104">
		<tag k="name" v="Sagelva" />
		<tag k="place" v="farm" />
		<tag k="ssr:stedsnr" v="382147" />
	</node>
	<node id="-758973" lat="69.3085055516" lon="19.41635833">
		<tag k="alt_name" v="Tomasjord, in;Tomasjorden indre" />
		<tag k="name" v="Indre Tomasjord" />
		<tag k="place" v="isolated_dwelling" />
		<tag k="ssr:stedsnr" v="382146" />
	</node>
	<node id="-758972" lat="69.2212998102" lon="19.2365853227">
		<tag k="name" v="Bjørkeng" />
		<tag k="place" v="farm" />
		<tag k="ssr:stedsnr" v="382145" />
	</node>
	<node id="-758986" lat="69.2523694439" lon="19.2202444452">
		<tag k="name" v="Sjåvik" />
		<tag k="place" v="farm" />
		<tag k="ssr:stedsnr" v="382282" />
	</node>
	<node id="-758970" lat="69.2123722201" lon="19.5289610912">
		<tag k="name" v="Fossberg" />
		<tag k="place" v="farm" />
		<tag k="ssr:stedsnr" v="382132" />
	</node>
	<node id="-758969" lat="69.3190305606" lon="18.891630544">
		<tag k="name" v="Fredheim" />
		<tag k="place" v="farm" />
		<tag k="ssr:stedsnr" v="382129" />
	</node>
	<node id="-758968" lat="69.3071749984" lon="18.6492388799">
		<tag k="name" v="Haug" />
		<tag k="place" v="farm" />
		<tag k="ssr:stedsnr" v="382126" />
	</node>
	<node id="-761015" lat="69.1853972258" lon="19.0516722202">
		<tag k="name" v="Moen" />
		<tag k="place" v="farm" />
		<tag k="ssr:stedsnr" v="596845" />
	</node>
	<node id="-758966" lat="69.3102027803" lon="18.9810472227">
		<tag k="name" v="Skogeng" />
		<tag k="place" v="farm" />
		<tag k="ssr:stedsnr" v="382118" />
	</node>
	<node id="-758964" lat="69.2185805595" lon="19.3637750045">
		<tag k="name" v="Blombakken" />
		<tag k="place" v="locality" />
		<tag k="ssr:stedsnr" v="382114" />
	</node>
	<node id="-758963" lat="69.1894583335" lon="19.2773111064">
		<tag k="name" v="Furulund" />
		<tag k="place" v="farm" />
		<tag k="ssr:stedsnr" v="382103" />
	</node>
	<node id="-758984" lat="69.3652166627" lon="19.3538249974">
		<tag k="name" v="Naustnes" />
		<tag k="place" v="isolated_dwelling" />
		<tag k="ssr:stedsnr" v="382196" />
	</node>
	<node id="-758958" lat="69.2001944489" lon="19.6471027748">
		<tag k="name" v="Elvemo" />
		<tag k="place" v="farm" />
		<tag k="ssr:stedsnr" v="382085" />
	</node>
	<node id="-761005" lat="69.421247218" lon="18.9599722215">
		<tag k="name" v="Skoglund" />
		<tag k="place" v="isolated_dwelling" />
		<tag k="ssr:stedsnr" v="596620" />
	</node>
	<node id="-758956" lat="69.1946500012" lon="19.2254583181">
		<tag k="name" v="Teigen" />
		<tag k="place" v="farm" />
		<tag k="ssr:stedsnr" v="382078" />
	</node>
	<node id="-758954" lat="69.2085888934" lon="19.6424583193">
		<tag k="name" v="Engen" />
		<tag k="place" v="farm" />
		<tag k="ssr:stedsnr" v="382072" />
	</node>
	<node id="-758983" lat="69.3549611132" lon="19.3710361059">
		<tag k="name" v="Steinnes" />
		<tag k="place" v="farm" />
		<tag k="ssr:stedsnr" v="382184" />
	</node>
	<node id="-758952" lat="69.2090055551" lon="19.6456833289">
		<tag k="name" v="Orheim" />
		<tag k="place" v="farm" />
		<tag k="ssr:stedsnr" v="382071" />
	</node>
	<node id="-758951" lat="69.2122305576" lon="19.5830694316">
		<tag k="alt_name" v="Lauveng" />
		<tag k="name" v="Løveng" />
		<tag k="place" v="farm" />
		<tag k="ssr:stedsnr" v="382070" />
	</node>
	<node id="-758948" lat="69.196066669" lon="19.6709499811">
		<tag k="name" v="Bjørnbåsen" />
		<tag k="place" v="farm" />
		<tag k="ssr:stedsnr" v="382042" />
	</node>
	<node id="-758982" lat="69.2333527797" lon="19.3270611069">
		<tag k="name" v="Nordnes" />
		<tag k="place" v="farm" />
		<tag k="ssr:stedsnr" v="382175" />
	</node>
	<node id="-758981" lat="69.3629888873" lon="19.3582527612">
		<tag k="name" v="Midtgarden" />
		<tag k="place" v="farm" />
		<tag k="ssr:stedsnr" v="382173" />
	</node>
	<node id="-758939" lat="69.1947583305" lon="19.2151527651">
		<tag k="alt_name" v="Sætermo" />
		<tag k="name" v="Sætermoen" />
		<tag k="place" v="farm" />
		<tag k="ssr:stedsnr" v="381972" />
	</node>
	<node id="-758784" lat="69.2096583332" lon="19.1015777605">
		<tag k="name" v="Hallen" />
		<tag k="place" v="isolated_dwelling" />
		<tag k="ssr:stedsnr" v="322983" />
	</node>
	<node id="-760983" lat="69.0283916651" lon="19.2934138883">
		<tag k="name" v="Gimle" />
		<tag k="place" v="farm" />
		<tag k="ssr:stedsnr" v="596284" />
	</node>
	<node id="-760981" lat="69.3930666664" lon="18.9852833264">
		<tag k="amenity" v="school" />
		<tag k="name" v="Malangseidet skole" />
		<tag k="ssr:stedsnr" v="596278" />
	</node>
	<node id="-760980" lat="69.3882777784" lon="18.9963499943">
		<tag k="name" v="Nervoll" />
		<tag k="place" v="farm" />
		<tag k="ssr:stedsnr" v="596268" />
	</node>
	<node id="-760978" lat="69.4102805513" lon="18.6609527755">
		<tag k="name" v="Dale" />
		<tag k="place" v="farm" />
		<tag k="ssr:stedsnr" v="596252" />
	</node>
	<node id="-758920" lat="69.1687722194" lon="18.9900361002">
		<tag k="name" v="Roli" />
		<tag k="place" v="locality" />
		<tag k="ssr:stedsnr" v="353813" />
	</node>
	<node id="-760959" lat="69.1114749992" lon="19.3060666674">
		<tag k="name" v="Bjørkli" />
		<tag k="place" v="farm" />
		<tag k="ssr:stedsnr" v="595777" />
	</node>
	<node id="-758908" lat="69.4221944479" lon="18.9936027792">
		<tag k="building" v="commercial" />
		<tag k="name" v="Nestun Samvirkelag" />
		<tag k="ssr:stedsnr" v="353653" />
	</node>
	<node id="-758975" lat="69.3015249972" lon="19.4154777593">
		<tag k="name" v="Skredet" />
		<tag k="place" v="isolated_dwelling" />
		<tag k="ssr:stedsnr" v="382148" />
	</node>
	<node id="-758878" lat="69.3648944465" lon="18.819258339">
		<tag k="name" v="Bjørkheim" />
		<tag k="place" v="farm" />
		<tag k="ssr:stedsnr" v="414011" />
	</node>
	<node id="-759653" lat="69.302600002" lon="19.4157777758">
		<tag k="name" v="Skogen" />
		<tag k="place" v="farm" />
		<tag k="ssr:stedsnr" v="81608" />
	</node>
	<node id="-758863" lat="69.3191166699" lon="18.8199388815">
		<tag k="amenity" v="school" />
		<tag k="name" v="Hamnvåg skole" />
		<tag k="ssr:stedsnr" v="352878" />
	</node>
	<node id="-758847" lat="69.3000444481" lon="19.3339833361">
		<tag k="amenity" v="nursing_home" />
		<tag k="name" v="Aldersheimen" />
		<tag k="ssr:stedsnr" v="352718" />
	</node>
	<node id="-759647" lat="69.3491250021" lon="18.7609999983">
		<tag k="name" v="Kjerrvika" />
		<tag k="place" v="farm" />
		<tag k="ssr:stedsnr" v="79986" />
	</node>
	<node id="-758837" lat="69.0753666698" lon="19.2693277827">
		<tag k="name" v="Skogstua" />
		<tag k="place" v="isolated_dwelling" />
		<tag k="ssr:stedsnr" v="352461" />
	</node>
	<node id="-758834" lat="69.0846055521" lon="19.2497666551">
		<tag k="name" v="Trangen" />
		<tag k="place" v="farm" />
		<tag k="ssr:stedsnr" v="352439" />
	</node>
	<node id="-758828" lat="69.0842916641" lon="19.1951555444">
		<tag k="name" v="Mackhytta" />
		<tag k="place" v="isolated_dwelling" />
		<tag k="ssr:stedsnr" v="352288" />
	</node>
	<node id="-758827" lat="69.0910222232" lon="19.1835249835">
		<tag k="name" v="Finnhaugen" />
		<tag k="place" v="isolated_dwelling" />
		<tag k="ssr:stedsnr" v="352273" />
	</node>
	<node id="-760868" lat="69.3879749965" lon="19.0856805513">
		<tag k="name" v="Bjerkli" />
		<tag k="place" v="farm" />
		<tag k="ssr:stedsnr" v="566203" />
	</node>
	<node id="-760866" lat="69.2014055534" lon="19.0833805448">
		<tag k="name" v="Holmebukta" />
		<tag k="place" v="farm" />
		<tag k="ssr:stedsnr" v="564996" />
	</node>
	<node id="-760865" lat="69.3229833314" lon="18.7500138704">
		<tag k="fixme" v="consider place=hamlet" />
		<tag k="name" v="Kjerkevika" />
		<tag k="place" v="village" />
		<tag k="ssr:stedsnr" v="564995" />
	</node>
	<node id="-760859" lat="69.3758500001" lon="19.165497218">
		<tag k="name" v="Elvås" />
		<tag k="place" v="farm" />
		<tag k="ssr:stedsnr" v="564965" />
	</node>
	<node id="-760858" lat="69.3631583339" lon="18.7187999856">
		<tag k="name" v="Lund" />
		<tag k="place" v="farm" />
		<tag k="ssr:stedsnr" v="564956" />
	</node>
	<node id="-758959" lat="69.1976027823" lon="19.7637722011">
		<tag k="alt_name" v="Fjellet" />
		<tag k="name" v="Fjelle" />
		<tag k="place" v="farm" />
		<tag k="ssr:stedsnr" v="382091" />
	</node>
	<node id="-760855" lat="69.3874805543" lon="18.9819361146">
		<tag k="name" v="Lysbakken" />
		<tag k="place" v="farm" />
		<tag k="ssr:stedsnr" v="564947" />
	</node>
	<node id="-760852" lat="69.3853749961" lon="18.9974750042">
		<tag k="name" v="Rydningen" />
		<tag k="place" v="farm" />
		<tag k="ssr:stedsnr" v="564932" />
	</node>
	<node id="-760851" lat="69.3946611107" lon="18.6543972204">
		<tag k="name" v="Bjørklund" />
		<tag k="place" v="farm" />
		<tag k="ssr:stedsnr" v="564923" />
	</node>
	<node id="-758800" lat="69.4516444421" lon="18.9909277824">
		<tag k="alt_name" v="Labugten;Labukt" />
		<tag k="name" v="Labukta" />
		<tag k="place" v="farm" />
		<tag k="ssr:stedsnr" v="330202" />
	</node>
	<node id="-758957" lat="69.1999166634" lon="19.2273111064">
		<tag k="name" v="Sollund" />
		<tag k="place" v="farm" />
		<tag k="ssr:stedsnr" v="382082" />
	</node>
	<node id="-760844" lat="69.2473666646" lon="18.9944027827">
		<tag k="name" v="Fagerli" />
		<tag k="place" v="isolated_dwelling" />
		<tag k="ssr:stedsnr" v="564902" />
	</node>
	<node id="-758793" lat="69.3347138887" lon="19.3999027633">
		<tag k="name" v="Nybakk" />
		<tag k="place" v="farm" />
		<tag k="ssr:stedsnr" v="324578" />
	</node>
	<node id="-758792" lat="69.310155558" lon="19.0265972044">
		<tag k="historic" v="shieling" />
		<tag k="name" v="Skogengsætra" />
		<tag k="place" v="locality" />
		<tag k="ssr:stedsnr" v="324203" />
	</node>
	<node id="-758790" lat="69.4310226821" lon="19.058054064">
		<tag k="name" v="Storbukt" />
		<tag k="place" v="farm" />
		<tag k="ssr:stedsnr" v="324198" />
	</node>
	<node id="-760837" lat="69.3797722192" lon="18.6150166487">
		<tag k="alt_name" v="Sandsvika" />
		<tag k="name" v="Sandsvik" />
		<tag k="place" v="farm" />
		<tag k="ssr:stedsnr" v="564718" />
	</node>
	<node id="-758787" lat="69.3255777815" lon="18.7794888907">
		<tag k="alt_name" v="Hamnvåg, yt" />
		<tag k="name" v="Hamnvåg Ytre" />
		<tag k="place" v="farm" />
		<tag k="ssr:stedsnr" v="322994" />
	</node>
	<node id="-760834" lat="69.4685305556" lon="18.4728111138">
		<tag k="alt_name" v="Forøen" />
		<tag k="name" v="Forøy" />
		<tag k="place" v="farm" />
		<tag k="ssr:stedsnr" v="564619" />
	</node>
	<node id="-758785" lat="69.2116551081" lon="19.1290179335">
		<tag k="alt_name" v="Måsbergvik" />
		<tag k="fixme" v="consider place=hamlet" />
		<tag k="name" v="Måsbergvika" />
		<tag k="place" v="farm" />
		<tag k="ssr:stedsnr" v="322984" />
	</node>
	<node id="-760832" lat="69.092674998" lon="19.2344527723">
		<tag k="name" v="Langvassli" />
		<tag k="place" v="farm" />
		<tag k="ssr:stedsnr" v="564502" />
	</node>
	<node id="-760830" lat="69.0981833361" lon="19.6900583126">
		<tag k="alt_name" v="Steinsvoll;Stenvoll" />
		<tag k="name" v="Steinvolden" />
		<tag k="place" v="farm" />
		<tag k="ssr:stedsnr" v="564499" />
	</node>
	<node id="-760829" lat="69.0792250021" lon="19.5469444373">
		<tag k="alt_name" v="Rognmoen" />
		<tag k="name" v="Rognmo" />
		<tag k="place" v="farm" />
		<tag k="ssr:stedsnr" v="564481" />
	</node>
	<node id="-760828" lat="69.0660416646" lon="19.3056888909">
		<tag k="alt_name" v="Myrseth" />
		<tag k="name" v="Myrset" />
		<tag k="place" v="farm" />
		<tag k="ssr:stedsnr" v="564474" />
	</node>
	<node id="-760827" lat="69.0682972243" lon="19.3428472122">
		<tag k="alt_name" v="Lundsætra" />
		<tag k="name" v="Lundsæter" />
		<tag k="place" v="isolated_dwelling" />
		<tag k="ssr:stedsnr" v="564473" />
	</node>
	<node id="-760826" lat="69.063516671" lon="19.2964444311">
		<tag k="name" v="Elvebakken" />
		<tag k="place" v="farm" />
		<tag k="ssr:stedsnr" v="564470" />
	</node>
	<node id="-762367" lat="69.2521861106" lon="19.0256166557">
		<tag k="name" v="Vassvoll" />
		<tag k="place" v="farm" />
		<tag k="ssr:stedsnr" v="959921" />
	</node>
	<node id="-760824" lat="69.0628333309" lon="19.4835194368">
		<tag k="name" v="Krokmo" />
		<tag k="place" v="farm" />
		<tag k="ssr:stedsnr" v="564467" />
	</node>
	<node id="-760822" lat="69.0581166668" lon="19.4999694337">
		<tag k="alt_name" v="Elverom" />
		<tag k="name" v="Elverum" />
		<tag k="place" v="farm" />
		<tag k="ssr:stedsnr" v="564459" />
	</node>
	<node id="-760820" lat="69.288005557" lon="19.3071555571">
		<tag k="alt_name" v="Ternes, in;Tennes indre" />
		<tag k="name" v="Indre Tennes" />
		<tag k="old_name" v="Indre Ternes" />
		<tag k="place" v="farm" />
		<tag k="ssr:stedsnr" v="564377" />
	</node>
	<node id="-760819" lat="69.287791669" lon="19.3078222227">
		<tag k="name" v="Heimro" />
		<tag k="place" v="isolated_dwelling" />
		<tag k="ssr:stedsnr" v="564375" />
	</node>
	<node id="-758770" lat="69.4383111072" lon="18.9356110993">
		<tag k="name" v="Hestnes" />
		<tag k="place" v="farm" />
		<tag k="ssr:stedsnr" v="322892" />
	</node>
	<node id="-758769" lat="69.4313444482" lon="18.9433277761">
		<tag k="name" v="Bakken" />
		<tag k="place" v="farm" />
		<tag k="ssr:stedsnr" v="322890" />
	</node>
	<node id="-758768" lat="69.4667555566" lon="18.9758305515">
		<tag k="name" v="Myreng" />
		<tag k="place" v="farm" />
		<tag k="ssr:stedsnr" v="322884" />
	</node>
	<node id="-760815" lat="69.2697277803" lon="19.2694722134">
		<tag k="name" v="Bakkehaug" />
		<tag k="place" v="isolated_dwelling" />
		<tag k="ssr:stedsnr" v="564335" />
	</node>
	<node id="-760814" lat="69.2737527807" lon="19.4131749901">
		<tag k="name" v="Minde" />
		<tag k="place" v="farm" />
		<tag k="ssr:stedsnr" v="564334" />
	</node>
	<node id="-760812" lat="69.2650027777" lon="19.4142611084">
		<tag k="name" v="Slettvoll" />
		<tag k="place" v="farm" />
		<tag k="ssr:stedsnr" v="564323" />
	</node>
	<node id="-758762" lat="69.0631555543" lon="19.4541277646">
		<tag k="name" v="Solli" />
		<tag k="place" v="farm" />
		<tag k="ssr:stedsnr" v="322449" />
	</node>
	<node id="-762364" lat="69.2205305541" lon="19.2650361144">
		<tag k="name" v="Kjoshaugen" />
		<tag k="place" v="farm" />
		<tag k="ssr:stedsnr" v="959868" />
	</node>
	<node id="-760806" lat="69.2377277777" lon="19.4579499815">
		<tag k="name" v="Furnes" />
		<tag k="place" v="farm" />
		<tag k="ssr:stedsnr" v="564163" />
	</node>
	<node id="-760805" lat="69.2309750025" lon="19.4038249893">
		<tag k="name" v="Nygard" />
		<tag k="place" v="farm" />
		<tag k="ssr:stedsnr" v="564162" />
	</node>
	<node id="-760804" lat="69.3416305597" lon="19.388405549">
		<tag k="alt_name" v="Tomasjorden ytre;Tomasjord, yt" />
		<tag k="name" v="Ytre Tomasjord" />
		<tag k="place" v="farm" />
		<tag k="ssr:stedsnr" v="564151" />
	</node>
	<node id="-758755" lat="69.3792666692" lon="19.2478444423">
		<tag k="name" v="Bjørkmo" />
		<tag k="place" v="isolated_dwelling" />
		<tag k="ssr:stedsnr" v="322203" />
	</node>
	<node id="-760802" lat="69.221986108" lon="19.4570694287">
		<tag k="alt_name" v="Sletnes" />
		<tag k="name" v="Slettnes" />
		<tag k="place" v="farm" />
		<tag k="ssr:stedsnr" v="564139" />
	</node>
	<node id="-760801" lat="69.3219166646" lon="19.5417916534">
		<tag k="name" v="Nordmoen" />
		<tag k="place" v="farm" />
		<tag k="ssr:stedsnr" v="564137" />
	</node>
	<node id="-760800" lat="69.3258222181" lon="19.4097583345">
		<tag k="name" v="Sandmo" />
		<tag k="place" v="farm" />
		<tag k="ssr:stedsnr" v="564136" />
	</node>
	<node id="-758751" lat="69.2327500015" lon="19.375713877">
		<tag k="alt_name" v="Ytre Lodbukt" />
		<tag k="name" v="Loddbukta" />
		<tag k="place" v="farm" />
		<tag k="ssr:stedsnr" v="322163" />
	</node>
	<node id="-760798" lat="69.3253999959" lon="19.3327361086">
		<tag k="name" v="Fjelli" />
		<tag k="place" v="isolated_dwelling" />
		<tag k="ssr:stedsnr" v="564132" />
	</node>
	<node id="-760797" lat="69.3011916697" lon="19.3370055603">
		<tag k="name" v="Solvang" />
		<tag k="place" v="farm" />
		<tag k="ssr:stedsnr" v="564129" />
	</node>
	<node id="-760796" lat="69.2185499989" lon="19.2370249958">
		<tag k="alt_name" v="Falkelvmo;Falkemo" />
		<tag k="name" v="Falkelvmoen" />
		<tag k="place" v="farm" />
		<tag k="ssr:stedsnr" v="564128" />
	</node>
	<node id="-758747" lat="69.2370083349" lon="19.2311972051">
		<tag k="alt_name" v="Grønvoll" />
		<tag k="name" v="Grønnvolltunet" />
		<tag k="place" v="farm" />
		<tag k="ssr:stedsnr" v="322138" />
	</node>
	<node id="-758746" lat="69.3200527745" lon="19.4250333228">
		<tag k="name" v="Toften" />
		<tag k="place" v="isolated_dwelling" />
		<tag k="ssr:stedsnr" v="322128" />
	</node>
	<node id="-760791" lat="69.2150749992" lon="19.6292444389">
		<tag k="name" v="Elvejord" />
		<tag k="place" v="farm" />
		<tag k="ssr:stedsnr" v="564101" />
	</node>
	<node id="-760790" lat="69.3057499968" lon="18.6502888904">
		<tag k="name" v="Myrhaug" />
		<tag k="place" v="farm" />
		<tag k="ssr:stedsnr" v="564098" />
	</node>
	<node id="-758741" lat="69.2499572545" lon="18.8643926537">
		<tag k="name" v="Vesterli" />
		<tag k="place" v="farm" />
		<tag k="ssr:stedsnr" v="322087" />
	</node>
	<node id="-758740" lat="69.2125916658" lon="19.791961103">
		<tag k="name" v="Kileng" />
		<tag k="place" v="farm" />
		<tag k="ssr:stedsnr" v="322079" />
	</node>
	<node id="-760787" lat="69.2208888855" lon="19.4593305369">
		<tag k="name" v="Fagernes" />
		<tag k="place" v="farm" />
		<tag k="ssr:stedsnr" v="564084" />
	</node>
	<node id="-760786" lat="69.2182750013" lon="19.4862916481">
		<tag k="name" v="Holm" />
		<tag k="place" v="farm" />
		<tag k="ssr:stedsnr" v="564081" />
	</node>
	<node id="-760784" lat="69.29585278" lon="18.9431055472">
		<tag k="name" v="Aspenes" />
		<tag k="place" v="farm" />
		<tag k="ssr:stedsnr" v="564072" />
	</node>
	<node id="-758734" lat="69.188027775" lon="19.6731972022">
		<tag k="name" v="Solheim" />
		<tag k="place" v="farm" />
		<tag k="ssr:stedsnr" v="322033" />
	</node>
	<node id="-760780" lat="69.2635166683" lon="19.4144750043">
		<tag k="alt_name" v="Seljelvnes, in" />
		<tag k="name" v="Indre Seljelvnes" />
		<tag k="place" v="farm" />
		<tag k="ssr:stedsnr" v="564068" />
	</node>
	<node id="-758731" lat="69.1956305581" lon="19.120038884">
		<tag k="alt_name" v="Gotsiland" />
		<tag k="name" v="Godtsideland" />
		<tag k="place" v="farm" />
		<tag k="ssr:stedsnr" v="321965" />
	</node>
	<node id="-758730" lat="69.378649999" lon="19.2162638787">
		<tag k="alt_name" v="Kjosen" />
		<tag k="name" v="Kjosnes" />
		<tag k="place" v="farm" />
		<tag k="ssr:stedsnr" v="321951" />
	</node>
	<node id="-758728" lat="69.3794638878" lon="18.6965305551">
		<tag k="name" v="Myrli" />
		<tag k="place" v="farm" />
		<tag k="ssr:stedsnr" v="321931" />
	</node>
	<node id="-760775" lat="69.2765694431" lon="19.0944111099">
		<tag k="name" v="Vestgård" />
		<tag k="place" v="farm" />
		<tag k="ssr:stedsnr" v="564052" />
	</node>
	<node id="-758726" lat="69.4772916702" lon="18.9800277675">
		<tag k="name" v="Nesberg" />
		<tag k="place" v="isolated_dwelling" />
		<tag k="ssr:stedsnr" v="321840" />
	</node>
	<node id="-760772" lat="69.2778611074" lon="19.0844888749">
		<tag k="alt_name" v="Grønåsen, nedre" />
		<tag k="name" v="Nedre Grønåsen" />
		<tag k="place" v="farm" />
		<tag k="ssr:stedsnr" v="564047" />
	</node>
	<node id="-758723" lat="69.3914083338" lon="18.6084944342">
		<tag k="name" v="Sand" />
		<tag k="place" v="hamlet" />
		<tag k="ssr:stedsnr" v="321659" />
	</node>
	<node id="-758720" lat="69.1082055568" lon="19.3066972205">
		<tag k="name" v="Framnes" />
		<tag k="place" v="isolated_dwelling" />
		<tag k="ssr:stedsnr" v="321459" />
	</node>
	<node id="-758717" lat="69.287224997" lon="19.3014916495">
		<tag k="name" v="Ryvik" />
		<tag k="place" v="farm" />
		<tag k="ssr:stedsnr" v="321353" />
	</node>
	<node id="-758716" lat="69.3202111082" lon="19.5547527732">
		<tag k="name" v="Lakselvsletta" />
		<tag k="place" v="farm" />
		<tag k="ssr:stedsnr" v="321328" />
	</node>
	<node id="-758715" lat="69.2924000024" lon="19.3225833302">
		<tag k="name" v="Nyrud" />
		<tag k="place" v="farm" />
		<tag k="ssr:stedsnr" v="321326" />
	</node>
	<node id="-760762" lat="69.1701472253" lon="19.0774638899">
		<tag k="name" v="Myre" />
		<tag k="place" v="farm" />
		<tag k="ssr:stedsnr" v="563797" />
	</node>
	<node id="-758713" lat="69.2967611114" lon="19.3365916601">
		<tag k="alt_name" v="Langnesøra;Langnesøyra" />
		<tag k="name" v="Langnesøren" />
		<tag k="place" v="farm" />
		<tag k="ssr:stedsnr" v="321319" />
	</node>
	<node id="-758711" lat="69.2179527751" lon="19.2798694412">
		<tag k="name" v="Djupkjos" />
		<tag k="place" v="farm" />
		<tag k="ssr:stedsnr" v="321135" />
	</node>
	<node id="-758710" lat="69.2136250017" lon="19.248438875">
		<tag k="name" v="Nyrum" />
		<tag k="place" v="farm" />
		<tag k="ssr:stedsnr" v="321130" />
	</node>
	<node id="-758709" lat="69.2228999971" lon="19.234216654">
		<tag k="name" v="Lundegard" />
		<tag k="place" v="farm" />
		<tag k="ssr:stedsnr" v="321128" />
	</node>
	<node id="-758708" lat="69.2283527779" lon="19.2377583232">
		<tag k="name" v="Vårtun" />
		<tag k="place" v="farm" />
		<tag k="ssr:stedsnr" v="321127" />
	</node>
	<node id="-760755" lat="69.2701638903" lon="18.71999721">
		<tag k="name" v="Aursfjord" />
		<tag k="place" v="isolated_dwelling" />
		<tag k="ssr:stedsnr" v="539516" />
	</node>
	<node id="-758706" lat="69.2990027766" lon="18.6654499931">
		<tag k="name" v="Skoglund" />
		<tag k="place" v="farm" />
		<tag k="ssr:stedsnr" v="321087" />
	</node>
	<node id="-758704" lat="69.3044388928" lon="18.9834305445">
		<tag k="name" v="Storbukta" />
		<tag k="place" v="farm" />
		<tag k="ssr:stedsnr" v="321081" />
	</node>
	<node id="-758703" lat="69.3009499983" lon="18.9833166698">
		<tag k="name" v="Fredheim" />
		<tag k="place" v="farm" />
		<tag k="ssr:stedsnr" v="321079" />
	</node>
	<node id="-758776" lat="69.3921888868" lon="18.702566651">
		<tag k="name" v="Nyrud" />
		<tag k="place" v="farm" />
		<tag k="ssr:stedsnr" v="322928" />
	</node>
	<node id="-758697" lat="69.2647527736" lon="18.7426222161">
		<tag k="alt_name" v="Sløikholmo;Sløikholmen" />
		<tag k="name" v="Sløykolmoen" />
		<tag k="place" v="farm" />
		<tag k="ssr:stedsnr" v="321045" />
	</node>
	<node id="-758696" lat="69.1871805527" lon="19.6735361039">
		<tag k="alt_name" v="Kjempedal" />
		<tag k="name" v="Kjempedalen" />
		<tag k="place" v="farm" />
		<tag k="ssr:stedsnr" v="321037" />
	</node>
	<node id="-760742" lat="69.4461555544" lon="18.9154777771">
		<tag k="name" v="Langstranden" />
		<tag k="place" v="farm" />
		<tag k="ssr:stedsnr" v="536564" />
	</node>
	<node id="-759281" lat="69.4959111085" lon="18.462047213">
		<tag k="name" v="Ansnes" />
		<tag k="place" v="farm" />
		<tag k="ssr:stedsnr" v="899352" />
	</node>
	<node id="-758980" lat="69.2338361147" lon="19.3700222264">
		<tag k="name" v="Bergvoll" />
		<tag k="place" v="farm" />
		<tag k="ssr:stedsnr" v="382171" />
	</node>
	<node id="-760722" lat="69.1226972239" lon="19.1033444279">
		<tag k="name" v="Kongsmo" />
		<tag k="place" v="farm" />
		<tag k="ssr:stedsnr" v="535849" />
	</node>
	<node id="-760719" lat="69.1833916655" lon="19.0880250016">
		<tag k="name" v="Klubbenes" />
		<tag k="place" v="farm" />
		<tag k="ssr:stedsnr" v="535798" />
	</node>
	<node id="-760709" lat="69.4031944492" lon="18.9882861032">
		<tag k="name" v="Soleng" />
		<tag k="place" v="isolated_dwelling" />
		<tag k="ssr:stedsnr" v="535628" />
	</node>
	<node id="-760708" lat="69.3086861074" lon="18.8519166588">
		<tag k="name" v="Seljemo" />
		<tag k="place" v="farm" />
		<tag k="ssr:stedsnr" v="535601" />
	</node>
	<node id="-758652" lat="69.0903500004" lon="19.6012527767">
		<tag k="name" v="Sagmo" />
		<tag k="place" v="farm" />
		<tag k="ssr:stedsnr" v="292918" />
	</node>
	<node id="-760683" lat="69.3898222191" lon="18.9857138816">
		<tag k="name" v="Jernberg" />
		<tag k="place" v="farm" />
		<tag k="ssr:stedsnr" v="535261" />
	</node>
	<node id="-758732" lat="69.1903166638" lon="19.0638750008">
		<tag k="alt_name" v="Finnset" />
		<tag k="name" v="Finnseth" />
		<tag k="place" v="farm" />
		<tag k="ssr:stedsnr" v="321968" />
	</node>
	<node id="-758630" lat="69.3054583333" lon="19.3379527586">
		<tag k="name" v="Prestegården" />
		<tag k="place" v="isolated_dwelling" />
		<tag k="ssr:stedsnr" v="292732" />
	</node>
	<node id="-758629" lat="69.3779527737" lon="19.0122249898">
		<tag k="name" v="Teigen" />
		<tag k="place" v="isolated_dwelling" />
		<tag k="ssr:stedsnr" v="292727" />
	</node>
	<node id="-758602" lat="69.2168472255" lon="19.2475472259">
		<tag k="name" v="Frostad" />
		<tag k="place" v="farm" />
		<tag k="ssr:stedsnr" v="292319" />
	</node>
	<node id="-759263" lat="69.414183335" lon="18.6962333278">
		<tag k="name" v="Nordheim" />
		<tag k="place" v="farm" />
		<tag k="ssr:stedsnr" v="899020" />
	</node>
	<node id="-759604" lat="69.2917250007" lon="19.458674987">
		<tag k="name" v="Dollarhaugen" />
		<tag k="place" v="isolated_dwelling" />
		<tag k="ssr:stedsnr" v="79351" />
	</node>
	<node id="-758579" lat="69.0429888904" lon="19.3964805402">
		<tag k="name" v="Solvang" />
		<tag k="place" v="isolated_dwelling" />
		<tag k="ssr:stedsnr" v="292083" />
	</node>
	<node id="-758772" lat="69.429705559" lon="19.0602333292">
		<tag k="alt_name" v="Øyra" />
		<tag k="name" v="Øra" />
		<tag k="place" v="farm" />
		<tag k="ssr:stedsnr" v="322918" />
	</node>
	<node id="-758576" lat="69.3034611129" lon="18.6538944445">
		<tag k="name" v="Aursfjord" />
		<tag k="place" v="isolated_dwelling" />
		<tag k="ssr:stedsnr" v="292003" />
	</node>
	<node id="-760612" lat="69.4053222194" lon="18.6790083147">
		<tag k="name" v="Krogstad" />
		<tag k="place" v="farm" />
		<tag k="ssr:stedsnr" v="534001" />
	</node>
	<node id="-760600" lat="69.4394755721" lon="19.0344568265">
		<tag k="name" v="Lunneborg" />
		<tag k="place" v="farm" />
		<tag k="ssr:stedsnr" v="511400" />
	</node>
	<node id="-760598" lat="69.3759361089" lon="19.3738888899">
		<tag k="fixme" v="consider place=hamlet" />
		<tag k="name" v="Laksvatn" />
		<tag k="place" v="village" />
		<tag k="ssr:stedsnr" v="506524" />
	</node>
	<node id="-760597" lat="69.4394750027" lon="19.0377055523">
		<tag k="name" v="Solstad" />
		<tag k="place" v="farm" />
		<tag k="ssr:stedsnr" v="506232" />
	</node>
	<node id="-760596" lat="69.3321694437" lon="18.890516671">
		<tag k="name" v="Storsteinnes" />
		<tag k="place" v="hamlet" />
		<tag k="ssr:stedsnr" v="505000" />
	</node>
	<node id="-760595" lat="69.3431833311" lon="19.1454749943">
		<tag k="name" v="Heggås" />
		<tag k="place" v="isolated_dwelling" />
		<tag k="ssr:stedsnr" v="504997" />
	</node>
	<node id="-760593" lat="69.3299249982" lon="18.952769436">
		<tag k="historic" v="shieling" />
		<tag k="name" v="Nilssætra" />
		<tag k="place" v="locality" />
		<tag k="ssr:stedsnr" v="504990" />
	</node>
	<node id="-760591" lat="69.2292805532" lon="18.9324749897">
		<tag k="name" v="Fjellborg" />
		<tag k="place" v="locality" />
		<tag k="ssr:stedsnr" v="504975" />
	</node>
	<node id="-760585" lat="69.3906805585" lon="18.682297218">
		<tag k="name" v="Fagertun" />
		<tag k="place" v="farm" />
		<tag k="ssr:stedsnr" v="504928" />
	</node>
	<node id="-760584" lat="69.3896293146" lon="18.7093081341">
		<tag k="fixme" v="consider place=hamlet" />
		<tag k="name" v="Myrbakk" />
		<tag k="place" v="farm" />
		<tag k="ssr:stedsnr" v="504929" />
	</node>
	<node id="-759596" lat="69.2329777785" lon="19.3725000025">
		<tag k="name" v="Fjellberg" />
		<tag k="place" v="farm" />
		<tag k="ssr:stedsnr" v="79178" />
	</node>
	<node id="-760581" lat="69.4374000007" lon="18.5173000005">
		<tag k="alt_name" v="Sletta" />
		<tag k="name" v="Sletten" />
		<tag k="place" v="farm" />
		<tag k="ssr:stedsnr" v="504670" />
	</node>
	<node id="-760577" lat="69.0708555574" lon="19.3061138738">
		<tag k="name" v="Åsmo" />
		<tag k="place" v="farm" />
		<tag k="ssr:stedsnr" v="504459" />
	</node>
	<node id="-760575" lat="69.0610666642" lon="19.5165388763">
		<tag k="name" v="Fredheim" />
		<tag k="place" v="farm" />
		<tag k="ssr:stedsnr" v="504447" />
	</node>
	<node id="-760574" lat="69.0505277825" lon="19.4546888756">
		<tag k="alt_name" v="Nystad" />
		<tag k="name" v="Nysted" />
		<tag k="place" v="farm" />
		<tag k="ssr:stedsnr" v="504439" />
	</node>
	<node id="-760569" lat="69.2756055535" lon="19.4129444393">
		<tag k="alt_name" v="Vang" />
		<tag k="name" v="Vangen" />
		<tag k="place" v="farm" />
		<tag k="ssr:stedsnr" v="504287" />
	</node>
	<node id="-760568" lat="69.252177778" lon="19.2382777628">
		<tag k="alt_name" v="Lundberg" />
		<tag k="name" v="Lundborg" />
		<tag k="place" v="farm" />
		<tag k="ssr:stedsnr" v="504260" />
	</node>
	<node id="-760567" lat="69.3866750008" lon="19.2846416634">
		<tag k="name" v="Vestre" />
		<tag k="place" v="farm" />
		<tag k="ssr:stedsnr" v="504188" />
	</node>
	<node id="-760566" lat="69.3381249982" lon="19.3041138839">
		<tag k="name" v="Flaten" />
		<tag k="place" v="isolated_dwelling" />
		<tag k="ssr:stedsnr" v="504157" />
	</node>
	<node id="-760565" lat="69.2321333329" lon="19.3913083228">
		<tag k="name" v="Solvang" />
		<tag k="place" v="farm" />
		<tag k="ssr:stedsnr" v="504150" />
	</node>
	<node id="-760564" lat="69.2302000045" lon="19.3229638791">
		<tag k="name" v="Rud" />
		<tag k="place" v="farm" />
		<tag k="ssr:stedsnr" v="504148" />
	</node>
	<node id="-760562" lat="69.344024999" lon="19.3878499909">
		<tag k="name" v="Solberg" />
		<tag k="place" v="farm" />
		<tag k="ssr:stedsnr" v="504134" />
	</node>
	<node id="-760560" lat="69.3244027744" lon="19.3031499829">
		<tag k="name" v="Skogan" />
		<tag k="place" v="farm" />
		<tag k="ssr:stedsnr" v="504109" />
	</node>
	<node id="-760559" lat="69.2319527797" lon="19.4804249889">
		<tag k="alt_name" v="Forskognes" />
		<tag k="name" v="Furskognes" />
		<tag k="place" v="farm" />
		<tag k="ssr:stedsnr" v="504098" />
	</node>
	<node id="-760557" lat="69.3137250038" lon="19.4212027827">
		<tag k="name" v="Slettvoll" />
		<tag k="place" v="farm" />
		<tag k="ssr:stedsnr" v="504089" />
	</node>
	<node id="-762054" lat="69.203163886" lon="19.6577749771">
		<tag k="name" v="Tu" />
		<tag k="place" v="farm" />
		<tag k="ssr:stedsnr" v="868066" />
	</node>
	<node id="-760555" lat="69.3164166679" lon="18.8904000047">
		<tag k="name" v="Vangen" />
		<tag k="place" v="farm" />
		<tag k="ssr:stedsnr" v="504083" />
	</node>
	<node id="-760554" lat="69.2151027787" lon="19.6350388753">
		<tag k="name" v="Dale" />
		<tag k="place" v="farm" />
		<tag k="ssr:stedsnr" v="504077" />
	</node>
	<node id="-760553" lat="69.2230944419" lon="19.8139388645">
		<tag k="alt_name" v="Nykila" />
		<tag k="name" v="Kila" />
		<tag k="place" v="farm" />
		<tag k="ssr:stedsnr" v="504075" />
	</node>
	<node id="-760552" lat="69.2187555551" lon="19.543413872">
		<tag k="name" v="Bjørkvang" />
		<tag k="place" v="farm" />
		<tag k="ssr:stedsnr" v="504073" />
	</node>
	<node id="-760551" lat="69.2208194419" lon="19.5640999946">
		<tag k="name" v="Bergland" />
		<tag k="place" v="farm" />
		<tag k="ssr:stedsnr" v="504070" />
	</node>
	<node id="-760550" lat="69.2191250005" lon="19.6055305348">
		<tag k="name" v="Fossbakk" />
		<tag k="place" v="farm" />
		<tag k="ssr:stedsnr" v="504068" />
	</node>
	<node id="-760549" lat="69.1888416642" lon="19.2376305477">
		<tag k="name" v="Bråten" />
		<tag k="place" v="farm" />
		<tag k="ssr:stedsnr" v="504063" />
	</node>
	<node id="-760547" lat="69.1972500001" lon="19.6411749917">
		<tag k="name" v="Sætre" />
		<tag k="place" v="farm" />
		<tag k="ssr:stedsnr" v="504059" />
	</node>
	<node id="-760545" lat="69.2665777776" lon="19.2685972186">
		<tag k="name" v="Holmenes" />
		<tag k="place" v="farm" />
		<tag k="ssr:stedsnr" v="504057" />
	</node>
	<node id="-760544" lat="69.1969611114" lon="19.7506777786">
		<tag k="name" v="Øvergård - Johkamohkki" />
		<tag k="name:no" v="Øvergård" />
		<tag k="name:se" v="Johkamohkki" />
		<tag k="place" v="hamlet" />
		<tag k="ssr:stedsnr" v="504055" />
	</node>
	<node id="-760543" lat="69.1976416642" lon="19.6462749799">
		<tag k="name" v="Bakkejord" />
		<tag k="place" v="farm" />
		<tag k="ssr:stedsnr" v="504054" />
	</node>
	<node id="-760541" lat="69.187386109" lon="19.6669888696">
		<tag k="name" v="Soltun" />
		<tag k="place" v="farm" />
		<tag k="ssr:stedsnr" v="504022" />
	</node>
	<node id="-760540" lat="69.1857138915" lon="19.0522249936">
		<tag k="name" v="Vesterelv" />
		<tag k="place" v="farm" />
		<tag k="ssr:stedsnr" v="503973" />
	</node>
	<node id="-760539" lat="69.1931277771" lon="19.0759916491">
		<tag k="name" v="Øverhus" />
		<tag k="place" v="farm" />
		<tag k="ssr:stedsnr" v="503967" />
	</node>
	<node id="-760538" lat="69.3771999987" lon="18.7073555616">
		<tag k="name" v="Nyborg" />
		<tag k="place" v="farm" />
		<tag k="ssr:stedsnr" v="503921" />
	</node>
	<node id="-760534" lat="69.1601499967" lon="19.1837999791">
		<tag k="name" v="Nedrom" />
		<tag k="place" v="farm" />
		<tag k="ssr:stedsnr" v="503708" />
	</node>
	<node id="-760528" lat="69.11071389" lon="19.3534610971">
		<tag k="name" v="Tverrelvnes" />
		<tag k="place" v="farm" />
		<tag k="ssr:stedsnr" v="503464" />
	</node>
	<node id="-760522" lat="69.222613893" lon="19.4519055447">
		<tag k="name" v="Nyheim" />
		<tag k="place" v="farm" />
		<tag k="ssr:stedsnr" v="503139" />
	</node>
	<node id="-760520" lat="69.2220083318" lon="19.2547055472">
		<tag k="name" v="Svalheim" />
		<tag k="place" v="farm" />
		<tag k="ssr:stedsnr" v="503116" />
	</node>
	<node id="-760517" lat="69.2180305534" lon="19.3225555344">
		<tag k="name" v="Gåre" />
		<tag k="place" v="farm" />
		<tag k="ssr:stedsnr" v="503099" />
	</node>
	<node id="-760511" lat="69.2771555535" lon="19.0072666657">
		<tag k="name" v="Friberg" />
		<tag k="place" v="farm" />
		<tag k="ssr:stedsnr" v="503062" />
	</node>
	<node id="-760508" lat="69.249008336" lon="19.2160249875">
		<tag k="name" v="Frydenlund" />
		<tag k="place" v="farm" />
		<tag k="ssr:stedsnr" v="485929" />
	</node>
	<node id="-760505" lat="69.4423138926" lon="18.9249638817">
		<tag k="name" v="Kvitnes" />
		<tag k="place" v="farm" />
		<tag k="ssr:stedsnr" v="462820" />
	</node>
	<node id="-760504" lat="69.4389805514" lon="18.9283499994">
		<tag k="name" v="Steilbu" />
		<tag k="place" v="farm" />
		<tag k="ssr:stedsnr" v="462787" />
	</node>
	<node id="-759241" lat="69.0461916637" lon="19.3023583123">
		<tag k="name" v="Lisestua" />
		<tag k="place" v="isolated_dwelling" />
		<tag k="ssr:stedsnr" v="886958" />
	</node>
	<node id="-760498" lat="69.2835166671" lon="19.4107833297">
		<tag k="name" v="Seljelvnes ytre" />
		<tag k="place" v="isolated_dwelling" />
		<tag k="ssr:stedsnr" v="462599" />
	</node>
	<node id="-760496" lat="69.3759111134" lon="19.1161277819">
		<tag k="fixme" v="consider place=hamlet" />
		<tag k="name" v="Svartnes" />
		<tag k="place" v="village" />
		<tag k="ssr:stedsnr" v="451116" />
	</node>
	<node id="-760494" lat="69.4592722207" lon="18.9814166593">
		<tag k="name" v="Elvebakken" />
		<tag k="place" v="farm" />
		<tag k="ssr:stedsnr" v="450396" />
	</node>
	<node id="-760492" lat="69.0806527756" lon="19.2660749881">
		<tag k="name" v="Soltun" />
		<tag k="place" v="farm" />
		<tag k="ssr:stedsnr" v="446995" />
	</node>
	<node id="-760491" lat="69.2055638929" lon="19.1176388886">
		<tag k="alt_name" v="Skjærstad" />
		<tag k="name" v="Skjerstad" />
		<tag k="place" v="farm" />
		<tag k="ssr:stedsnr" v="443998" />
	</node>
	<node id="-760490" lat="69.3318138904" lon="18.8599999971">
		<tag k="name" v="Brennvika" />
		<tag k="place" v="farm" />
		<tag k="ssr:stedsnr" v="443996" />
	</node>
	<node id="-760487" lat="69.3668500036" lon="18.7754444414">
		<tag k="name" v="Sætermoen" />
		<tag k="place" v="farm" />
		<tag k="ssr:stedsnr" v="443972" />
	</node>
	<node id="-760486" lat="69.37796667" lon="19.1997472287">
		<tag k="name" v="Nygård" />
		<tag k="place" v="farm" />
		<tag k="ssr:stedsnr" v="443968" />
	</node>
	<node id="-760485" lat="69.3887055598" lon="18.9837999878">
		<tag k="fixme" v="consider place=hamlet" />
		<tag k="name" v="Malangseidet" />
		<tag k="place" v="village" />
		<tag k="ssr:stedsnr" v="443953" />
	</node>
	<node id="-760484" lat="69.3816138863" lon="18.7148166625">
		<tag k="name" v="Skutvikvatnet" />
		<tag k="place" v="farm" />
		<tag k="ssr:stedsnr" v="443950" />
	</node>
	<node id="-760483" lat="69.3827416696" lon="19.0950527618">
		<tag k="name" v="Arnelund" />
		<tag k="place" v="farm" />
		<tag k="ssr:stedsnr" v="443940" />
	</node>
	<node id="-760481" lat="69.4193944416" lon="18.9950860953">
		<tag k="alt_name" v="Enigheta" />
		<tag k="name" v="Enigheten" />
		<tag k="place" v="farm" />
		<tag k="ssr:stedsnr" v="443911" />
	</node>
	<node id="-760479" lat="69.4413694403" lon="19.0101916665">
		<tag k="name" v="Nesbakken" />
		<tag k="place" v="farm" />
		<tag k="ssr:stedsnr" v="443891" />
	</node>
	<node id="-760478" lat="69.4492444451" lon="18.9074916541">
		<tag k="name" v="Skogstad" />
		<tag k="place" v="farm" />
		<tag k="ssr:stedsnr" v="443852" />
	</node>
	<node id="-760475" lat="69.1714555522" lon="19.061313873">
		<tag k="alt_name" v="Hansset" />
		<tag k="name" v="Hansgård" />
		<tag k="place" v="farm" />
		<tag k="ssr:stedsnr" v="443744" />
	</node>
	<node id="-760462" lat="69.068905552" lon="19.2682333329">
		<tag k="name" v="Heimly" />
		<tag k="place" v="isolated_dwelling" />
		<tag k="ssr:stedsnr" v="443469" />
	</node>
	<node id="-760458" lat="69.2932416707" lon="19.325963893">
		<tag k="name" v="Nysted" />
		<tag k="place" v="farm" />
		<tag k="ssr:stedsnr" v="443360" />
	</node>
	<node id="-760455" lat="69.2822777808" lon="19.2880444432">
		<tag k="name" v="Audun" />
		<tag k="place" v="isolated_dwelling" />
		<tag k="ssr:stedsnr" v="443332" />
	</node>
	<node id="-760454" lat="69.2779000014" lon="19.4131333355">
		<tag k="name" v="Slåttli" />
		<tag k="place" v="farm" />
		<tag k="ssr:stedsnr" v="443327" />
	</node>
	<node id="-760451" lat="69.2529138901" lon="19.2237527663">
		<tag k="name" v="Nordeng" />
		<tag k="place" v="farm" />
		<tag k="ssr:stedsnr" v="443288" />
	</node>
	<node id="-760449" lat="69.3787111138" lon="19.2200805489">
		<tag k="name" v="Slettvoll" />
		<tag k="place" v="farm" />
		<tag k="ssr:stedsnr" v="443221" />
	</node>
	<node id="-758766" lat="69.1066694421" lon="19.1641277791">
		<tag k="alt_name" v="Takvannsbukt;Takvassbukt" />
		<tag k="name" v="Takvassbukta" />
		<tag k="place" v="farm" />
		<tag k="ssr:stedsnr" v="322866" />
	</node>
	<node id="-760444" lat="69.2352111117" lon="19.3462249806">
		<tag k="alt_name" v="Sandbukt" />
		<tag k="name" v="Sandbukta" />
		<tag k="place" v="farm" />
		<tag k="ssr:stedsnr" v="443173" />
	</node>
	<node id="-760441" lat="69.2203083346" lon="19.4811638817">
		<tag k="name" v="Russenes" />
		<tag k="place" v="farm" />
		<tag k="ssr:stedsnr" v="443153" />
	</node>
	<node id="-760439" lat="69.2158833289" lon="19.2625000019">
		<tag k="name" v="Mellomgard" />
		<tag k="place" v="farm" />
		<tag k="ssr:stedsnr" v="443145" />
	</node>
	<node id="-760438" lat="69.2193916676" lon="19.2659360982">
		<tag k="name" v="Myrland" />
		<tag k="place" v="farm" />
		<tag k="ssr:stedsnr" v="443144" />
	</node>
	<node id="-760437" lat="69.304730553" lon="19.3297250003">
		<tag k="name" v="Rismoen" />
		<tag k="place" v="farm" />
		<tag k="ssr:stedsnr" v="443140" />
	</node>
	<node id="-760435" lat="69.236288887" lon="19.4642361001">
		<tag k="name" v="Ytregard" />
		<tag k="place" v="farm" />
		<tag k="ssr:stedsnr" v="443136" />
	</node>
	<node id="-760434" lat="69.2262250003" lon="19.4354999941">
		<tag k="name" v="Slettun" />
		<tag k="place" v="farm" />
		<tag k="ssr:stedsnr" v="443134" />
	</node>
	<node id="-760433" lat="69.2285916628" lon="19.417405546">
		<tag k="name" v="Steinberg" />
		<tag k="place" v="farm" />
		<tag k="ssr:stedsnr" v="443133" />
	</node>
	<node id="-760431" lat="69.2199749996" lon="19.2667722027">
		<tag k="alt_name" v="Sørkjos" />
		<tag k="name" v="Sørkjosen" />
		<tag k="place" v="farm" />
		<tag k="ssr:stedsnr" v="443130" />
	</node>
	<node id="-760429" lat="69.3086388889" lon="18.6504611049">
		<tag k="name" v="Steinhaug" />
		<tag k="place" v="farm" />
		<tag k="ssr:stedsnr" v="443116" />
	</node>
	<node id="-760428" lat="69.2208166635" lon="19.5336777615">
		<tag k="name" v="Vollan" />
		<tag k="place" v="farm" />
		<tag k="ssr:stedsnr" v="443113" />
	</node>
	<node id="-760427" lat="69.2145444421" lon="19.5862527643">
		<tag k="alt_name" v="Lauvhaug" />
		<tag k="name" v="Løvhaug" />
		<tag k="place" v="isolated_dwelling" />
		<tag k="ssr:stedsnr" v="443106" />
	</node>
	<node id="-760423" lat="69.30376389" lon="19.0114527829">
		<tag k="name" v="Holesætra" />
		<tag k="place" v="locality" />
		<tag k="ssr:stedsnr" v="443094" />
	</node>
	<node id="-760422" lat="69.1921694448" lon="19.2754249893">
		<tag k="name" v="Hølen" />
		<tag k="place" v="farm" />
		<tag k="ssr:stedsnr" v="443091" />
	</node>
	<node id="-759569" lat="69.2639111076" lon="19.1229861101">
		<tag k="name" v="Olsborg" />
		<tag k="place" v="farm" />
		<tag k="ssr:stedsnr" v="79044" />
	</node>
	<node id="-760419" lat="69.1936055555" lon="19.2910083156">
		<tag k="fixme" v="consider place=hamlet" />
		<tag k="name" v="Hølen" />
		<tag k="place" v="farm" />
		<tag k="ssr:stedsnr" v="443079" />
	</node>
	<node id="-760417" lat="69.2942194459" lon="19.3313361124">
		<tag k="name" v="Langnesøra" />
		<tag k="place" v="farm" />
		<tag k="ssr:stedsnr" v="443078" />
	</node>
	<node id="-760415" lat="69.2117666627" lon="19.7800027688">
		<tag k="name" v="Hansjorda - Hánssagieddi" />
		<tag k="name:no" v="Hansjorda" />
		<tag k="name:se" v="Hánssagieddi" />
		<tag k="place" v="farm" />
		<tag k="ssr:stedsnr" v="443067" />
	</node>
	<node id="-760413" lat="69.2701333366" lon="19.148738887">
		<tag k="name" v="Mellomgård" />
		<tag k="place" v="farm" />
		<tag k="ssr:stedsnr" v="443050" />
	</node>
	<node id="-760412" lat="69.2569722245" lon="18.9272777752">
		<tag k="name" v="Furudal" />
		<tag k="place" v="farm" />
		<tag k="ssr:stedsnr" v="443044" />
	</node>
	<node id="-760411" lat="69.2567611153" lon="19.1281638738">
		<tag k="name" v="Jonsgård" />
		<tag k="place" v="farm" />
		<tag k="ssr:stedsnr" v="443034" />
	</node>
	<node id="-760400" lat="69.1969250047" lon="19.7589666463">
		<tag k="name" v="Steingard" />
		<tag k="place" v="farm" />
		<tag k="ssr:stedsnr" v="442051" />
	</node>
	<node id="-762440" lat="69.2393750018" lon="19.2203464891">
		<tag k="name" v="Midtgård" />
		<tag k="place" v="farm" />
		<tag k="ssr:stedsnr" v="975339" />
	</node>
	<node id="-762439" lat="69.2510774247" lon="19.2231427513">
		<tag k="name" v="Søreng" />
		<tag k="place" v="farm" />
		<tag k="ssr:stedsnr" v="975336" />
	</node>
	<node id="-762438" lat="69.3205296475" lon="18.736726134">
		<tag k="name" v="Sletteng" />
		<tag k="place" v="farm" />
		<tag k="ssr:stedsnr" v="975327" />
	</node>
	<node id="-762437" lat="69.3889940691" lon="18.6195345522">
		<tag k="fixme" v="consider place=hamlet" />
		<tag k="name" v="Sand" />
		<tag k="place" v="farm" />
		<tag k="ssr:stedsnr" v="975308" />
	</node>
	<node id="-760388" lat="69.277149998" lon="18.721211099">
		<tag k="historic" v="shieling" />
		<tag k="loc_name" v="Nersetra" />
		<tag k="name" v="Nersætra" />
		<tag k="place" v="locality" />
		<tag k="ssr:stedsnr" v="414725" />
	</node>
	<node id="-762435" lat="69.2232723681" lon="19.5155464157">
		<tag k="fixme" v="consider place=hamlet" />
		<tag k="name" v="Jernberget" />
		<tag k="place" v="farm" />
		<tag k="ssr:stedsnr" v="975301" />
	</node>
	<node id="-759562" lat="69.1936722232" lon="19.2908888756">
		<tag k="name" v="Hølen" />
		<tag k="place" v="farm" />
		<tag k="ssr:stedsnr" v="60927" />
	</node>
	<node id="-762413" lat="69.2660999989" lon="18.8281277728">
		<tag k="name" v="Ødegård" />
		<tag k="place" v="farm" />
		<tag k="ssr:stedsnr" v="960594" />
	</node>
	<node id="-760583" lat="69.4069111153" lon="18.6960999983">
		<tag k="name" v="Nordeng" />
		<tag k="place" v="farm" />
		<tag k="ssr:stedsnr" v="504912" />
	</node>
	<node id="-760358" lat="69.4101972273" lon="19.0671388749">
		<tag k="name" v="Tømmernes" />
		<tag k="place" v="farm" />
		<tag k="ssr:stedsnr" v="263214" />
	</node>
	<node id="-760356" lat="69.3410333299" lon="18.7867638762">
		<tag k="name" v="Smedvika" />
		<tag k="place" v="farm" />
		<tag k="ssr:stedsnr" v="261987" />
	</node>
	<node id="-760354" lat="69.3431888929" lon="18.8929305613">
		<tag k="name" v="Solheim" />
		<tag k="place" v="farm" />
		<tag k="ssr:stedsnr" v="261982" />
	</node>
	<node id="-759289" lat="69.2007361099" lon="19.2215555555">
		<tag k="historic" v="shieling" />
		<tag k="name" v="Nils-Larsa sætra" />
		<tag k="place" v="locality" />
		<tag k="ssr:stedsnr" v="899377" />
	</node>
	<node id="-762394" lat="69.1913611078" lon="19.2636249976">
		<tag k="historic" v="shieling" />
		<tag k="name" v="Antonsætra" />
		<tag k="place" v="locality" />
		<tag k="ssr:stedsnr" v="960349" />
	</node>
	<node id="-760345" lat="69.3795555574" lon="19.0102972286">
		<tag k="alt_name" v="Bakkemoen" />
		<tag k="name" v="Bakkemo" />
		<tag k="place" v="farm" />
		<tag k="ssr:stedsnr" v="261917" />
	</node>
	<node id="-760342" lat="69.4268888862" lon="18.9666583324">
		<tag k="alt_name" v="Rosmålsberg" />
		<tag k="name" v="Rosmålsberget" />
		<tag k="place" v="farm" />
		<tag k="ssr:stedsnr" v="261890" />
	</node>
	<node id="-760340" lat="69.4460416649" lon="18.9981916643">
		<tag k="fixme" v="consider place=hamlet" />
		<tag k="name" v="Selnes" />
		<tag k="place" v="village" />
		<tag k="ssr:stedsnr" v="261871" />
	</node>
	<node id="-760339" lat="69.4269861104" lon="18.952486095">
		<tag k="name" v="Potrasbukta" />
		<tag k="place" v="farm" />
		<tag k="ssr:stedsnr" v="261866" />
	</node>
	<node id="-760336" lat="69.49407222" lon="18.9972583217">
		<tag k="name" v="Storsteinen" />
		<tag k="place" v="farm" />
		<tag k="ssr:stedsnr" v="261835" />
	</node>
	<node id="-760334" lat="69.4001833303" lon="18.5942416643">
		<tag k="name" v="Mortenhals" />
		<tag k="place" v="farm" />
		<tag k="ssr:stedsnr" v="261675" />
	</node>
	<node id="-762379" lat="69.3847916669" lon="18.9765861121">
		<tag k="name" v="Heimly" />
		<tag k="place" v="farm" />
		<tag k="ssr:stedsnr" v="960250" />
	</node>
	<node id="-762378" lat="69.3811750023" lon="18.9982833183">
		<tag k="name" v="Bjørkås" />
		<tag k="place" v="farm" />
		<tag k="ssr:stedsnr" v="960247" />
	</node>
	<node id="-760329" lat="69.0979833314" lon="19.3108305462">
		<tag k="name" v="Neset" />
		<tag k="place" v="farm" />
		<tag k="ssr:stedsnr" v="261498" />
	</node>
	<node id="-760328" lat="69.1012027774" lon="19.3026777815">
		<tag k="name" v="Granholt" />
		<tag k="place" v="farm" />
		<tag k="ssr:stedsnr" v="261497" />
	</node>
	<node id="-760327" lat="69.0945777782" lon="19.6519944344">
		<tag k="name" v="Bjørklund" />
		<tag k="place" v="isolated_dwelling" />
		<tag k="ssr:stedsnr" v="261484" />
	</node>
	<node id="-760326" lat="69.0823861083" lon="19.5654861027">
		<tag k="name" v="Brattli" />
		<tag k="place" v="farm" />
		<tag k="ssr:stedsnr" v="261479" />
	</node>
	<node id="-760325" lat="69.0764833336" lon="19.5306055448">
		<tag k="name" v="Nyrud" />
		<tag k="place" v="farm" />
		<tag k="ssr:stedsnr" v="261472" />
	</node>
	<node id="-760324" lat="69.0493555544" lon="19.2904055587">
		<tag k="name" v="Engen" />
		<tag k="place" v="isolated_dwelling" />
		<tag k="ssr:stedsnr" v="261461" />
	</node>
	<node id="-762371" lat="69.4095527818" lon="18.692088894">
		<tag k="name" v="Rognså" />
		<tag k="place" v="farm" />
		<tag k="ssr:stedsnr" v="960009" />
	</node>
	<node id="-760319" lat="69.2941611133" lon="19.4804999809">
		<tag k="name" v="Vakkerhaugen" />
		<tag k="place" v="isolated_dwelling" />
		<tag k="ssr:stedsnr" v="261359" />
	</node>
	<node id="-760318" lat="69.2695388848" lon="19.4484527719">
		<tag k="name" v="Skoglyst" />
		<tag k="place" v="farm" />
		<tag k="ssr:stedsnr" v="261352" />
	</node>
	<node id="-760317" lat="69.2609027813" lon="19.2500888903">
		<tag k="name" v="Holmenes" />
		<tag k="place" v="farm" />
		<tag k="ssr:stedsnr" v="261349" />
	</node>
	<node id="-760316" lat="69.2781277796" lon="19.2715222055">
		<tag k="name" v="Bakkland" />
		<tag k="place" v="farm" />
		<tag k="ssr:stedsnr" v="261338" />
	</node>
	<node id="-760315" lat="69.275425002" lon="19.2727638698">
		<tag k="name" v="Melbu" />
		<tag k="place" v="farm" />
		<tag k="ssr:stedsnr" v="261336" />
	</node>
	<node id="-760314" lat="69.2763666637" lon="19.2775500018">
		<tag k="alt_name" v="Skjeret" />
		<tag k="name" v="Skjæret" />
		<tag k="place" v="hamlet" />
		<tag k="ssr:stedsnr" v="261330" />
	</node>
	<node id="-760313" lat="69.2768861079" lon="19.4129777689">
		<tag k="name" v="Nyheim" />
		<tag k="place" v="isolated_dwelling" />
		<tag k="ssr:stedsnr" v="261327" />
	</node>
	<node id="-760312" lat="69.3756999959" lon="19.1174361055">
		<tag k="alt_name" v="Svartnes, yt" />
		<tag k="name" v="Svartnes ytre" />
		<tag k="place" v="farm" />
		<tag k="ssr:stedsnr" v="261217" />
	</node>
	<node id="-760311" lat="69.3954749998" lon="19.2786527583">
		<tag k="name" v="Bakkevoll" />
		<tag k="place" v="farm" />
		<tag k="ssr:stedsnr" v="261209" />
	</node>
	<node id="-760310" lat="69.3401333287" lon="19.2591777797">
		<tag k="name" v="Skogly" />
		<tag k="place" v="farm" />
		<tag k="ssr:stedsnr" v="261176" />
	</node>
	<node id="-760309" lat="69.2277250017" lon="19.2283805387">
		<tag k="name" v="Lauvli" />
		<tag k="place" v="farm" />
		<tag k="ssr:stedsnr" v="261168" />
	</node>
	<node id="-760307" lat="69.2471250024" lon="19.2282166544">
		<tag k="name" v="Bukta" />
		<tag k="place" v="farm" />
		<tag k="ssr:stedsnr" v="261153" />
	</node>
	<node id="-760306" lat="69.2407361117" lon="19.23444444">
		<tag k="name" v="Storsteinnes" />
		<tag k="place" v="village" />
		<tag k="ssr:stedsnr" v="261150" />
	</node>
	<node id="-760305" lat="69.3145638867" lon="19.3361138825">
		<tag k="alt_name" v="Slåttbakken" />
		<tag k="name" v="Slåttbakk" />
		<tag k="place" v="farm" />
		<tag k="ssr:stedsnr" v="261148" />
	</node>
	<node id="-760303" lat="69.2228448808" lon="19.5149615813">
		<tag k="alt_name" v="Jernberget" />
		<tag k="name" v="Jernberg" />
		<tag k="place" v="farm" />
		<tag k="ssr:stedsnr" v="261145" />
	</node>
	<node id="-760301" lat="69.3203333368" lon="19.4201860993">
		<tag k="name" v="Engstad" />
		<tag k="place" v="isolated_dwelling" />
		<tag k="ssr:stedsnr" v="261142" />
	</node>
	<node id="-760300" lat="69.2178027775" lon="19.2421999836">
		<tag k="name" v="Brorstad" />
		<tag k="place" v="farm" />
		<tag k="ssr:stedsnr" v="261139" />
	</node>
	<node id="-760299" lat="69.3099111097" lon="19.4193249818">
		<tag k="name" v="Solvang" />
		<tag k="place" v="farm" />
		<tag k="ssr:stedsnr" v="261136" />
	</node>
	<node id="-760298" lat="69.2267777798" lon="19.2384638784">
		<tag k="name" v="Dalberg" />
		<tag k="place" v="farm" />
		<tag k="ssr:stedsnr" v="261135" />
	</node>
	<node id="-760297" lat="69.2282555588" lon="19.4201083196">
		<tag k="name" v="Sørli" />
		<tag k="place" v="farm" />
		<tag k="ssr:stedsnr" v="261129" />
	</node>
	<node id="-760296" lat="69.2267861152" lon="19.3177610995">
		<tag k="name" v="Sørum" />
		<tag k="place" v="farm" />
		<tag k="ssr:stedsnr" v="261127" />
	</node>
	<node id="-760295" lat="69.3132222199" lon="18.6530388937">
		<tag k="name" v="Holmen" />
		<tag k="place" v="farm" />
		<tag k="ssr:stedsnr" v="261126" />
	</node>
	<node id="-759425" lat="69.4067583307" lon="18.6247999889">
		<tag k="name" v="Bakkeli" />
		<tag k="place" v="locality" />
		<tag k="ssr:stedsnr" v="19910" />
	</node>
	<node id="-760292" lat="69.3036222178" lon="18.6546916685">
		<tag k="fixme" v="consider place=hamlet" />
		<tag k="name" v="Aursfjordgården" />
		<tag k="place" v="village" />
		<tag k="ssr:stedsnr" v="261113" />
	</node>
	<node id="-760291" lat="69.2135194447" lon="19.5142027558">
		<tag k="name" v="Skårheim" />
		<tag k="place" v="farm" />
		<tag k="ssr:stedsnr" v="261112" />
	</node>
	<node id="-760290" lat="69.2134111122" lon="19.5821805517">
		<tag k="name" v="Fredheim" />
		<tag k="place" v="farm" />
		<tag k="ssr:stedsnr" v="261105" />
	</node>
	<node id="-762336" lat="69.2175083315" lon="19.4902749976">
		<tag k="name" v="Melen" />
		<tag k="place" v="hamlet" />
		<tag k="ssr:stedsnr" v="959401" />
	</node>
	<node id="-760287" lat="69.2972083333" lon="18.9334944333">
		<tag k="alt_name" v="Aspemoen" />
		<tag k="name" v="Aspemo" />
		<tag k="place" v="farm" />
		<tag k="ssr:stedsnr" v="261100" />
	</node>
	<node id="-760285" lat="69.2871749961" lon="18.6910972204">
		<tag k="name" v="Skoglund" />
		<tag k="place" v="farm" />
		<tag k="ssr:stedsnr" v="261091" />
	</node>
	<node id="-760282" lat="69.4087249992" lon="18.9910333315">
		<tag k="name" v="Middagsnes" />
		<tag k="place" v="farm" />
		<tag k="ssr:stedsnr" v="261085" />
	</node>
	<node id="-760278" lat="69.1957444439" lon="19.2858638731">
		<tag k="name" v="Elvevoll" />
		<tag k="place" v="farm" />
		<tag k="ssr:stedsnr" v="261068" />
	</node>
	<node id="-760277" lat="69.2132500011" lon="19.6357860937">
		<tag k="name" v="Lund" />
		<tag k="place" v="farm" />
		<tag k="ssr:stedsnr" v="261063" />
	</node>
	<node id="-760275" lat="69.2761722226" lon="19.0818222048">
		<tag k="name" v="Vrangen" />
		<tag k="place" v="farm" />
		<tag k="ssr:stedsnr" v="261058" />
	</node>
	<node id="-760273" lat="69.2672260359" lon="19.1394283854">
		<tag k="name" v="Mellomjorda" />
		<tag k="place" v="farm" />
		<tag k="ssr:stedsnr" v="261053" />
	</node>
	<node id="-760272" lat="69.2519583372" lon="19.0153361014">
		<tag k="name" v="Vassvoll" />
		<tag k="place" v="farm" />
		<tag k="ssr:stedsnr" v="261048" />
	</node>
	<node id="-760271" lat="69.1150916685" lon="19.3495360992">
		<tag k="alt_name" v="Svendli" />
		<tag k="name" v="Svensli" />
		<tag k="place" v="farm" />
		<tag k="ssr:stedsnr" v="261037" />
	</node>
	<node id="-760270" lat="69.1150388859" lon="19.3477555539">
		<tag k="alt_name" v="Svensborg" />
		<tag k="name" v="Svendborg" />
		<tag k="place" v="farm" />
		<tag k="ssr:stedsnr" v="261034" />
	</node>
	<node id="-762317" lat="69.205647224" lon="19.6419916653">
		<tag k="barrier" v="fence" />
		<tag k="name" v="Reingjerdan" />
		<tag k="ssr:stedsnr" v="959204" />
	</node>
	<node id="-760263" lat="69.1847944449" lon="19.6874749773">
		<tag k="name" v="Ryan" />
		<tag k="place" v="farm" />
		<tag k="ssr:stedsnr" v="260081" />
	</node>
	<node id="-760262" lat="69.1928222212" lon="19.7442610885">
		<tag k="name" v="Nedrum" />
		<tag k="place" v="farm" />
		<tag k="ssr:stedsnr" v="260066" />
	</node>
	<node id="-760261" lat="69.1900583363" lon="19.6900333317">
		<tag k="name" v="Midtbø" />
		<tag k="place" v="farm" />
		<tag k="ssr:stedsnr" v="260061" />
	</node>
	<node id="-760259" lat="69.1221861158" lon="19.0800222106">
		<tag k="name" v="Rollhaugen" />
		<tag k="place" v="isolated_dwelling" />
		<tag k="ssr:stedsnr" v="232846" />
	</node>
	<node id="-760256" lat="69.275074999" lon="18.7349305421">
		<tag k="historic" v="shieling" />
		<tag k="name" v="Øversætra" />
		<tag k="place" v="locality" />
		<tag k="ssr:stedsnr" v="232702" />
	</node>
	<node id="-762302" lat="69.2885861128" lon="18.9486388812">
		<tag k="name" v="Lakseidet" />
		<tag k="place" v="farm" />
		<tag k="ssr:stedsnr" v="937906" />
	</node>
	<node id="-762301" lat="69.3497583375" lon="19.3765888855">
		<tag k="name" v="Solhaug" />
		<tag k="place" v="farm" />
		<tag k="ssr:stedsnr" v="931600" />
	</node>
	<node id="-762296" lat="69.3439833319" lon="19.1193944454">
		<tag k="fixme" v="consider place=hamlet" />
		<tag k="name" v="Middagsbukta" />
		<tag k="place" v="village" />
		<tag k="ssr:stedsnr" v="929973" />
	</node>
	<node id="-762295" lat="69.3630444429" lon="18.8514694274">
		<tag k="name" v="Sæterli" />
		<tag k="place" v="isolated_dwelling" />
		<tag k="ssr:stedsnr" v="929957" />
	</node>
	<node id="-762292" lat="69.2212972181" lon="19.1413444444">
		<tag k="alt_name" v="Ophus" />
		<tag k="name" v="Opphus" />
		<tag k="place" v="farm" />
		<tag k="ssr:stedsnr" v="929945" />
	</node>
	<node id="-762291" lat="69.2488527788" lon="19.0442111008">
		<tag k="name" v="Grensevoll" />
		<tag k="place" v="isolated_dwelling" />
		<tag k="ssr:stedsnr" v="929921" />
	</node>
	<node id="-762280" lat="69.0917111113" lon="19.2454583134">
		<tag k="name" v="Nyheim" />
		<tag k="place" v="farm" />
		<tag k="ssr:stedsnr" v="929462" />
	</node>
	<node id="-762277" lat="69.0857388863" lon="19.6032111065">
		<tag k="name" v="Sæter" />
		<tag k="place" v="farm" />
		<tag k="ssr:stedsnr" v="929443" />
	</node>
	<node id="-762272" lat="69.0444305606" lon="19.3282472059">
		<tag k="alt_name" v="Furuly" />
		<tag k="name" v="Furuli" />
		<tag k="place" v="farm" />
		<tag k="ssr:stedsnr" v="929418" />
	</node>
	<node id="-760223" lat="69.0279444472" lon="19.2971555594">
		<tag k="amenity" v="school" />
		<tag k="name" v="Bjørkeng skole" />
		<tag k="ssr:stedsnr" v="232256" />
	</node>
	<node id="-760222" lat="69.3834638909" lon="19.0013555548">
		<tag k="name" v="Lunheim" />
		<tag k="place" v="farm" />
		<tag k="ssr:stedsnr" v="232254" />
	</node>
	<node id="-762268" lat="69.2739249989" lon="19.2735055433">
		<tag k="name" v="Elvebu" />
		<tag k="place" v="farm" />
		<tag k="ssr:stedsnr" v="929288" />
	</node>
	<node id="-762266" lat="69.252141668" lon="19.4260305424">
		<tag k="name" v="Hamnnes" />
		<tag k="old_name" v="Havnes;Hamnes" />
		<tag k="place" v="farm" />
		<tag k="ssr:stedsnr" v="929261" />
	</node>
	<node id="-760218" lat="69.3755388863" lon="18.6240388749">
		<tag k="name" v="Løvberg" />
		<tag k="place" v="farm" />
		<tag k="ssr:stedsnr" v="232215" />
	</node>
	<node id="-762265" lat="69.379561111" lon="19.2828138697">
		<tag k="name" v="Dalheim" />
		<tag k="place" v="farm" />
		<tag k="ssr:stedsnr" v="929195" />
	</node>
	<node id="-762264" lat="69.3807500021" lon="19.2792861027">
		<tag k="name" v="Solvang" />
		<tag k="place" v="farm" />
		<tag k="ssr:stedsnr" v="929191" />
	</node>
	<node id="-762263" lat="69.3758444417" lon="19.3624610977">
		<tag k="alt_name" v="Laksvatn, yt" />
		<tag k="name" v="Ytre Laksvatn" />
		<tag k="place" v="farm" />
		<tag k="ssr:stedsnr" v="929174" />
	</node>
	<node id="-762262" lat="69.2335277811" lon="19.2254611109">
		<tag k="name" v="Dalbu" />
		<tag k="place" v="farm" />
		<tag k="ssr:stedsnr" v="929172" />
	</node>
	<node id="-762261" lat="69.3301777797" lon="19.4031361008">
		<tag k="name" v="Heggenes" />
		<tag k="place" v="isolated_dwelling" />
		<tag k="ssr:stedsnr" v="929158" />
	</node>
	<node id="-762260" lat="69.3310833365" lon="19.2996972179">
		<tag k="name" v="Slåtten" />
		<tag k="place" v="farm" />
		<tag k="ssr:stedsnr" v="929156" />
	</node>
	<node id="-762259" lat="69.2459166685" lon="19.438836098">
		<tag k="name" v="Soleng" />
		<tag k="place" v="farm" />
		<tag k="ssr:stedsnr" v="929154" />
	</node>
	<node id="-762258" lat="69.2411888906" lon="19.2294388746">
		<tag k="name" v="Veiskiftet" />
		<tag k="place" v="farm" />
		<tag k="ssr:stedsnr" v="929148" />
	</node>
	<node id="-762257" lat="69.3152777801" lon="19.422405541">
		<tag k="name" v="Myrbakken" />
		<tag k="place" v="farm" />
		<tag k="ssr:stedsnr" v="929118" />
	</node>
	<node id="-762256" lat="69.3155222204" lon="19.4216722062">
		<tag k="name" v="Elvemoen" />
		<tag k="place" v="farm" />
		<tag k="ssr:stedsnr" v="929117" />
	</node>
	<node id="-762252" lat="69.3194527763" lon="18.8331499855">
		<tag k="name" v="Lamyr" />
		<tag k="place" v="farm" />
		<tag k="ssr:stedsnr" v="929112" />
	</node>
	<node id="-762250" lat="69.3201999967" lon="18.8387749945">
		<tag k="name" v="Myrvang" />
		<tag k="place" v="farm" />
		<tag k="ssr:stedsnr" v="929106" />
	</node>
	<node id="-762249" lat="69.2191761348" lon="19.5546870454">
		<tag k="name" v="Nordkjosbotn - Gárgán" />
		<tag k="name:no" v="Nordkjosbotn" />
		<tag k="name:se" v="Gárgán" />
		<tag k="place" v="village" />
		<tag k="ssr:stedsnr" v="929103" />
	</node>
	<node id="-762248" lat="69.3212166705" lon="18.9602416654">
		<tag k="name" v="Bakken" />
		<tag k="place" v="farm" />
		<tag k="ssr:stedsnr" v="929099" />
	</node>
	<node id="-762247" lat="69.2145138904" lon="19.5556333228">
		<tag k="name" v="Molund" />
		<tag k="place" v="farm" />
		<tag k="ssr:stedsnr" v="929090" />
	</node>
	<node id="-762246" lat="69.2202583364" lon="19.5744916512">
		<tag k="name" v="Åsgard" />
		<tag k="place" v="farm" />
		<tag k="ssr:stedsnr" v="929089" />
	</node>
	<node id="-762245" lat="69.1907416629" lon="19.2788888911">
		<tag k="name" v="Nylund" />
		<tag k="place" v="isolated_dwelling" />
		<tag k="ssr:stedsnr" v="929079" />
	</node>
	<node id="-762244" lat="69.1876305539" lon="19.234630541">
		<tag k="name" v="Dalheim" />
		<tag k="place" v="farm" />
		<tag k="ssr:stedsnr" v="929078" />
	</node>
	<node id="-762372" lat="69.3980749973" lon="18.6811888908">
		<tag k="name" v="Skjellstad" />
		<tag k="place" v="farm" />
		<tag k="ssr:stedsnr" v="960036" />
	</node>
	<node id="-762241" lat="69.210424999" lon="19.7874110894">
		<tag k="name" v="Forelvmo" />
		<tag k="place" v="isolated_dwelling" />
		<tag k="ssr:stedsnr" v="929067" />
	</node>
	<node id="-762240" lat="69.2658750038" lon="18.8169333371">
		<tag k="name" v="Bjørkhaug" />
		<tag k="place" v="farm" />
		<tag k="ssr:stedsnr" v="929047" />
	</node>
	<node id="-762238" lat="69.2586722187" lon="19.1124777811">
		<tag k="name" v="Petersborg" />
		<tag k="place" v="farm" />
		<tag k="ssr:stedsnr" v="929025" />
	</node>
	<node id="-762237" lat="69.1920083305" lon="19.6768666644">
		<tag k="name" v="Bjørkmo" />
		<tag k="place" v="farm" />
		<tag k="ssr:stedsnr" v="929019" />
	</node>
	<node id="-762233" lat="69.3785583342" lon="18.6662083357">
		<tag k="name" v="Solli" />
		<tag k="place" v="farm" />
		<tag k="ssr:stedsnr" v="928953" />
	</node>
	<node id="-762232" lat="69.381713888" lon="18.9605305465">
		<tag k="alt_name" v="Høyer" />
		<tag k="name" v="Høier" />
		<tag k="place" v="farm" />
		<tag k="ssr:stedsnr" v="928949" />
	</node>
	<node id="-762226" lat="69.2839527802" lon="19.2911805474">
		<tag k="name" v="Fagerheim" />
		<tag k="place" v="farm" />
		<tag k="ssr:stedsnr" v="928344" />
	</node>
	<node id="-762225" lat="69.284980552" lon="19.2972360942">
		<tag k="name" v="Rynes" />
		<tag k="place" v="farm" />
		<tag k="ssr:stedsnr" v="928341" />
	</node>
	<node id="-762223" lat="69.2220999968" lon="19.2357555468">
		<tag k="name" v="Hagevoll" />
		<tag k="place" v="farm" />
		<tag k="ssr:stedsnr" v="928122" />
	</node>
	<node id="-762222" lat="69.2296916658" lon="19.4115666479">
		<tag k="name" v="Libakken" />
		<tag k="place" v="farm" />
		<tag k="ssr:stedsnr" v="928114" />
	</node>
	<node id="-762221" lat="69.2200944475" lon="19.3074555385">
		<tag k="name" v="Kjerrnes" />
		<tag k="place" v="farm" />
		<tag k="ssr:stedsnr" v="928111" />
	</node>
	<node id="-762212" lat="69.188769447" lon="19.7234861133">
		<tag k="alt_name" v="Sætermoen" />
		<tag k="name" v="Sætermo" />
		<tag k="place" v="farm" />
		<tag k="ssr:stedsnr" v="928041" />
	</node>
	<node id="-762211" lat="69.1904500025" lon="19.7037499815">
		<tag k="name" v="Friborg" />
		<tag k="place" v="farm" />
		<tag k="ssr:stedsnr" v="928042" />
	</node>
	<node id="-762210" lat="69.191783338" lon="19.7064027579">
		<tag k="name" v="Myrlund" />
		<tag k="place" v="farm" />
		<tag k="ssr:stedsnr" v="928039" />
	</node>
	<node id="-761915" lat="69.0931611082" lon="19.1635027606">
		<tag k="name" v="Strømstad" />
		<tag k="place" v="farm" />
		<tag k="ssr:stedsnr" v="838320" />
	</node>
	<node id="-762207" lat="69.3470138927" lon="18.7559388941">
		<tag k="name" v="Kjærvik" />
		<tag k="place" v="farm" />
		<tag k="ssr:stedsnr" v="900988" />
	</node>
	<node id="-759340" lat="69.0867611097" lon="19.3702527765">
		<tag k="name" v="Østerli" />
		<tag k="place" v="farm" />
		<tag k="ssr:stedsnr" v="18436" />
	</node>
	<node id="-762186" lat="69.3889055518" lon="18.9832027763">
		<tag k="name" v="Lysslett" />
		<tag k="place" v="farm" />
		<tag k="ssr:stedsnr" v="900296" />
	</node>
	<node id="-762185" lat="69.386783336" lon="18.9912694396">
		<tag k="name" v="Myrvang" />
		<tag k="place" v="farm" />
		<tag k="ssr:stedsnr" v="900293" />
	</node>
	<node id="-762178" lat="69.3216250041" lon="18.8109361034">
		<tag k="name" v="Kleivstad" />
		<tag k="place" v="isolated_dwelling" />
		<tag k="ssr:stedsnr" v="899900" />
	</node>
	<node id="-760127" lat="69.2965305588" lon="19.3356944288">
		<tag k="name" v="Nygård" />
		<tag k="place" v="farm" />
		<tag k="ssr:stedsnr" v="203582" />
	</node>
	<node id="-760126" lat="69.3104666624" lon="18.99353333">
		<tag k="name" v="Heim" />
		<tag k="place" v="farm" />
		<tag k="ssr:stedsnr" v="203231" />
	</node>
	<node id="-760123" lat="69.2194194467" lon="19.1412000012">
		<tag k="alt_name" v="Østgaard" />
		<tag k="name" v="Østgård" />
		<tag k="place" v="farm" />
		<tag k="ssr:stedsnr" v="201989" />
	</node>
	<node id="-760119" lat="69.4088055518" lon="18.5904666712">
		<tag k="name" v="Bakketun" />
		<tag k="place" v="farm" />
		<tag k="ssr:stedsnr" v="201678" />
	</node>
	<node id="-760118" lat="69.2321361113" lon="19.3198777584">
		<tag k="name" v="Markenes" />
		<tag k="place" v="farm" />
		<tag k="ssr:stedsnr" v="201169" />
	</node>
	<node id="-760117" lat="69.2303555608" lon="19.3192777615">
		<tag k="name" v="Lande" />
		<tag k="place" v="farm" />
		<tag k="ssr:stedsnr" v="201168" />
	</node>
	<node id="-760115" lat="69.234874997" lon="19.339686102">
		<tag k="name" v="Nordmo" />
		<tag k="place" v="farm" />
		<tag k="ssr:stedsnr" v="201160" />
	</node>
	<node id="-760114" lat="69.2335527791" lon="19.3714194437">
		<tag k="name" v="Løkeng" />
		<tag k="place" v="farm" />
		<tag k="ssr:stedsnr" v="201156" />
	</node>
	<node id="-760113" lat="69.3155166626" lon="19.5480999987">
		<tag k="name" v="Fossan" />
		<tag k="place" v="farm" />
		<tag k="ssr:stedsnr" v="201117" />
	</node>
	<node id="-760111" lat="69.3310555561" lon="18.8832722247">
		<tag k="name" v="Oldervik" />
		<tag k="place" v="farm" />
		<tag k="ssr:stedsnr" v="200989" />
	</node>
	<node id="-760110" lat="69.3610500007" lon="18.6836638769">
		<tag k="alt_name" v="Skutvika, yt" />
		<tag k="name" v="Ytre Skutvika" />
		<tag k="place" v="farm" />
		<tag k="ssr:stedsnr" v="200964" />
	</node>
	<node id="-760106" lat="69.2011277803" lon="19.2714860999">
		<tag k="name" v="Tverrelvmoen" />
		<tag k="place" v="farm" />
		<tag k="ssr:stedsnr" v="201058" />
	</node>
	<node id="-760103" lat="69.4416861109" lon="18.9311277843">
		<tag k="name" v="Ryeng" />
		<tag k="place" v="farm" />
		<tag k="ssr:stedsnr" v="200891" />
	</node>
	<node id="-760100" lat="69.452469441" lon="18.906308323">
		<tag k="name" v="Holmen" />
		<tag k="place" v="farm" />
		<tag k="ssr:stedsnr" v="200865" />
	</node>
	<node id="-760099" lat="69.4566083363" lon="18.9046416559">
		<tag k="name" v="Bjørkeng" />
		<tag k="place" v="farm" />
		<tag k="ssr:stedsnr" v="200864" />
	</node>
	<node id="-760096" lat="69.3610333348" lon="18.8745777788">
		<tag k="name" v="Nordbyvatnet" />
		<tag k="place" v="farm" />
		<tag k="ssr:stedsnr" v="200951" />
	</node>
	<node id="-760095" lat="69.2266638913" lon="19.1821027624">
		<tag k="alt_name" v="Moen" />
		<tag k="name" v="Moli" />
		<tag k="place" v="farm" />
		<tag k="ssr:stedsnr" v="200946" />
	</node>
	<node id="-760094" lat="69.4127611132" lon="18.6746222098">
		<tag k="name" v="Pålfinnmoen" />
		<tag k="place" v="farm" />
		<tag k="ssr:stedsnr" v="200916" />
	</node>
	<node id="-760091" lat="69.4864750006" lon="18.9956222217">
		<tag k="name" v="Myrli" />
		<tag k="place" v="farm" />
		<tag k="ssr:stedsnr" v="200852" />
	</node>
	<node id="-760090" lat="69.1213472256" lon="19.0957388831">
		<tag k="name" v="Rostanes" />
		<tag k="place" v="farm" />
		<tag k="ssr:stedsnr" v="200818" />
	</node>
	<node id="-760088" lat="69.4388388871" lon="18.4729860996">
		<tag k="alt_name" v="Spildra" />
		<tag k="name" v="Spildran" />
		<tag k="place" v="farm" />
		<tag k="ssr:stedsnr" v="200661" />
	</node>
	<node id="-760087" lat="69.1675777778" lon="19.0639666487">
		<tag k="name" v="Fossum" />
		<tag k="place" v="farm" />
		<tag k="ssr:stedsnr" v="200749" />
	</node>
	<node id="-760084" lat="69.0631916662" lon="19.4894916636">
		<tag k="name" v="Solbakken" />
		<tag k="place" v="farm" />
		<tag k="ssr:stedsnr" v="200458" />
	</node>
	<node id="-760083" lat="69.0676972186" lon="19.5300222121">
		<tag k="name" v="Engvoll" />
		<tag k="place" v="farm" />
		<tag k="ssr:stedsnr" v="200457" />
	</node>
	<node id="-760081" lat="69.1045333317" lon="19.3440499817">
		<tag k="name" v="Rotli" />
		<tag k="place" v="isolated_dwelling" />
		<tag k="ssr:stedsnr" v="200516" />
	</node>
	<node id="-760079" lat="69.3007638882" lon="19.4148499869">
		<tag k="name" v="Skogly" />
		<tag k="place" v="farm" />
		<tag k="ssr:stedsnr" v="200355" />
	</node>
	<node id="-760078" lat="69.2756083357" lon="19.2241777618">
		<tag k="name" v="Solvoll" />
		<tag k="place" v="farm" />
		<tag k="ssr:stedsnr" v="200335" />
	</node>
	<node id="-762125" lat="69.3249083313" lon="19.4105194455">
		<tag k="name" v="Mo" />
		<tag k="place" v="farm" />
		<tag k="ssr:stedsnr" v="870519" />
	</node>
	<node id="-760074" lat="69.2859805563" lon="18.9560333272">
		<tag k="alt_name" v="Sagelvmoen" />
		<tag k="name" v="Sagelvmo" />
		<tag k="place" v="farm" />
		<tag k="ssr:stedsnr" v="200085" />
	</node>
	<node id="-760072" lat="69.208000003" lon="19.7702777637">
		<tag k="name" v="Gammelkila" />
		<tag k="place" v="farm" />
		<tag k="ssr:stedsnr" v="200078" />
	</node>
	<node id="-760071" lat="69.2684499962" lon="18.7636555447">
		<tag k="name" v="Nymo" />
		<tag k="place" v="farm" />
		<tag k="ssr:stedsnr" v="200076" />
	</node>
	<node id="-760066" lat="69.2648416692" lon="19.1273111055">
		<tag k="name" v="Haug" />
		<tag k="place" v="farm" />
		<tag k="ssr:stedsnr" v="200051" />
	</node>
	<node id="-762113" lat="69.3704361068" lon="18.7450805575">
		<tag k="name" v="Fosshøgda" />
		<tag k="place" v="isolated_dwelling" />
		<tag k="ssr:stedsnr" v="868951" />
	</node>
	<node id="-760064" lat="69.1277749969" lon="19.7651805488">
		<tag k="name" v="Steinli" />
		<tag k="place" v="isolated_dwelling" />
		<tag k="ssr:stedsnr" v="200026" />
	</node>
	<node id="-760062" lat="69.1445111091" lon="19.8001305367">
		<tag k="name" v="Skau" />
		<tag k="place" v="farm" />
		<tag k="ssr:stedsnr" v="200012" />
	</node>
	<node id="-762109" lat="69.3768138855" lon="18.7447083358">
		<tag k="alt_name" v="Skutvikåsen, øvre" />
		<tag k="name" v="Øvre Skutvikåsen" />
		<tag k="place" v="farm" />
		<tag k="ssr:stedsnr" v="868927" />
	</node>
	<node id="-760060" lat="69.1906249994" lon="19.0703249895">
		<tag k="name" v="Brubakk" />
		<tag k="place" v="farm" />
		<tag k="ssr:stedsnr" v="199981" />
	</node>
	<node id="-760059" lat="69.185686111" lon="19.1252611115">
		<tag k="name" v="Storbukt" />
		<tag k="place" v="farm" />
		<tag k="ssr:stedsnr" v="199980" />
	</node>
	<node id="-762106" lat="69.4057888906" lon="18.9901388822">
		<tag k="name" v="Slettnes" />
		<tag k="place" v="farm" />
		<tag k="ssr:stedsnr" v="868911" />
	</node>
	<node id="-760057" lat="69.1792888875" lon="19.1147138765">
		<tag k="name" v="Bergli" />
		<tag k="place" v="farm" />
		<tag k="ssr:stedsnr" v="199797" />
	</node>
	<node id="-760056" lat="69.172358335" lon="19.0633277731">
		<tag k="name" v="Holten" />
		<tag k="place" v="farm" />
		<tag k="ssr:stedsnr" v="199794" />
	</node>
	<node id="-762101" lat="69.4296249984" lon="18.9460333141">
		<tag k="name" v="Kjosvoll" />
		<tag k="place" v="farm" />
		<tag k="ssr:stedsnr" v="868873" />
	</node>
	<node id="-760052" lat="69.3500361153" lon="19.3787833151">
		<tag k="name" v="Litleeng" />
		<tag k="place" v="isolated_dwelling" />
		<tag k="ssr:stedsnr" v="200166" />
	</node>
	<node id="-762099" lat="69.4701805591" lon="18.9779555386">
		<tag k="name" v="Myrvang" />
		<tag k="place" v="farm" />
		<tag k="ssr:stedsnr" v="868829" />
	</node>
	<node id="-762098" lat="69.0789361079" lon="19.2139222079">
		<tag k="alt_name" v="Vassmoen" />
		<tag k="name" v="Vassmo" />
		<tag k="place" v="farm" />
		<tag k="ssr:stedsnr" v="868813" />
	</node>
	<node id="-760049" lat="69.3314027745" lon="19.2766027751">
		<tag k="name" v="Lyngstad" />
		<tag k="place" v="locality" />
		<tag k="ssr:stedsnr" v="200151" />
	</node>
	<node id="-762096" lat="69.166938889" lon="19.1775333304">
		<tag k="alt_name" v="Steinmoen" />
		<tag k="name" v="Steinmo" />
		<tag k="place" v="isolated_dwelling" />
		<tag k="ssr:stedsnr" v="868720" />
	</node>
	<node id="-760046" lat="69.2191888904" lon="19.2751472231">
		<tag k="alt_name" v="Kjerreng" />
		<tag k="name" v="Kjæreng" />
		<tag k="place" v="farm" />
		<tag k="ssr:stedsnr" v="200132" />
	</node>
	<node id="-760045" lat="69.3235388888" lon="19.3039388907">
		<tag k="name" v="Bergstrøm" />
		<tag k="place" v="farm" />
		<tag k="ssr:stedsnr" v="200131" />
	</node>
	<node id="-762092" lat="69.4820805511" lon="18.482177776">
		<tag k="alt_name" v="Lamo" />
		<tag k="name" v="Lamoen" />
		<tag k="place" v="farm" />
		<tag k="ssr:stedsnr" v="868618" />
	</node>
	<node id="-760042" lat="69.3137722223" lon="18.8146611041">
		<tag k="historic" v="shieling" />
		<tag k="name" v="Plogsætra" />
		<tag k="place" v="locality" />
		<tag k="ssr:stedsnr" v="200116" />
	</node>
	<node id="-760041" lat="69.3212722262" lon="18.8278194324">
		<tag k="name" v="Hansgård" />
		<tag k="place" v="farm" />
		<tag k="ssr:stedsnr" v="200112" />
	</node>
	<node id="-762087" lat="69.0859055564" lon="19.575477776">
		<tag k="name" v="Rogne" />
		<tag k="place" v="farm" />
		<tag k="ssr:stedsnr" v="868465" />
	</node>
	<node id="-762086" lat="69.0652055581" lon="19.5043277563">
		<tag k="name" v="Skredlund" />
		<tag k="place" v="farm" />
		<tag k="ssr:stedsnr" v="868450" />
	</node>
	<node id="-762085" lat="69.0452166645" lon="19.2936360961">
		<tag k="alt_name" v="Melkelvlia" />
		<tag k="name" v="Melkelvli" />
		<tag k="place" v="isolated_dwelling" />
		<tag k="ssr:stedsnr" v="868438" />
	</node>
	<node id="-762084" lat="69.227783333" lon="19.822574987">
		<tag k="name" v="Klemetheimen" />
		<tag k="place" v="farm" />
		<tag k="ssr:stedsnr" v="868355" />
	</node>
	<node id="-760048" lat="69.2210888924" lon="19.5314083189">
		<tag k="name" v="Sjøtun" />
		<tag k="place" v="farm" />
		<tag k="ssr:stedsnr" v="200142" />
	</node>
	<node id="-760033" lat="69.4162916715" lon="18.5739916593">
		<tag k="name" v="Myre" />
		<tag k="place" v="farm" />
		<tag k="ssr:stedsnr" v="172285" />
	</node>
	<node id="-762080" lat="69.2993333298" lon="19.3376222082">
		<tag k="name" v="Myrenga" />
		<tag k="place" v="farm" />
		<tag k="ssr:stedsnr" v="868338" />
	</node>
	<node id="-762077" lat="69.2514749981" lon="19.2244249951">
		<tag k="alt_name" v="Skjånes" />
		<tag k="name" v="Sjånes" />
		<tag k="place" v="farm" />
		<tag k="ssr:stedsnr" v="868272" />
	</node>
	<node id="-762074" lat="69.3790611087" lon="19.2876722086">
		<tag k="name" v="Skogvoll" />
		<tag k="place" v="farm" />
		<tag k="ssr:stedsnr" v="868189" />
	</node>
	<node id="-758752" lat="69.3381999969" lon="19.3119388756">
		<tag k="alt_name" v="Skjævelnes" />
		<tag k="name" v="Skjevelnes" />
		<tag k="place" v="farm" />
		<tag k="ssr:stedsnr" v="322169" />
	</node>
	<node id="-762072" lat="69.3587027781" lon="19.364877763">
		<tag k="name" v="Myreng" />
		<tag k="place" v="farm" />
		<tag k="ssr:stedsnr" v="868162" />
	</node>
	<node id="-762071" lat="69.3366138935" lon="19.3158472051">
		<tag k="name" v="Haugstad" />
		<tag k="place" v="farm" />
		<tag k="ssr:stedsnr" v="868153" />
	</node>
	<node id="-760021" lat="69.3007722269" lon="18.9786055454">
		<tag k="name" v="Sjåvikøren" />
		<tag k="place" v="farm" />
		<tag k="ssr:stedsnr" v="171707" />
	</node>
	<node id="-762067" lat="69.3246694414" lon="19.4113416557">
		<tag k="name" v="Stokse" />
		<tag k="place" v="farm" />
		<tag k="ssr:stedsnr" v="868134" />
	</node>
	<node id="-762066" lat="69.3076749959" lon="19.3448722239">
		<tag k="name" v="Berg" />
		<tag k="place" v="isolated_dwelling" />
		<tag k="ssr:stedsnr" v="868129" />
	</node>
	<node id="-762064" lat="69.2253861072" lon="19.320091668">
		<tag k="name" v="Åsheim" />
		<tag k="place" v="farm" />
		<tag k="ssr:stedsnr" v="868116" />
	</node>
	<node id="-762062" lat="69.2184861123" lon="19.617369435">
		<tag k="name" v="Myrvang" />
		<tag k="place" v="farm" />
		<tag k="ssr:stedsnr" v="868101" />
	</node>
	<node id="-762060" lat="69.3099916682" lon="18.9759666725">
		<tag k="name" v="Solvang" />
		<tag k="place" v="farm" />
		<tag k="ssr:stedsnr" v="868092" />
	</node>
	<node id="-762059" lat="69.2182805529" lon="19.4692638867">
		<tag k="name" v="Lindbu" />
		<tag k="place" v="farm" />
		<tag k="ssr:stedsnr" v="868087" />
	</node>
	<node id="-762093" lat="69.4328500021" lon="18.5333999872">
		<tag k="name" v="Tingvollen" />
		<tag k="place" v="farm" />
		<tag k="ssr:stedsnr" v="868626" />
	</node>
	<node id="-762055" lat="69.1974805535" lon="19.6655249766">
		<tag k="name" v="Berg" />
		<tag k="place" v="farm" />
		<tag k="ssr:stedsnr" v="868068" />
	</node>
	<node id="-760006" lat="69.1191499969" lon="19.135994446">
		<tag k="name" v="Wårum" />
		<tag k="place" v="farm" />
		<tag k="ssr:stedsnr" v="171523" />
	</node>
	<node id="-760005" lat="69.1219388913" lon="19.1134722147">
		<tag k="name" v="Rognmo" />
		<tag k="place" v="farm" />
		<tag k="ssr:stedsnr" v="171520" />
	</node>
	<node id="-762052" lat="69.2838361124" lon="18.9620888767">
		<tag k="name" v="Nyheim" />
		<tag k="place" v="farm" />
		<tag k="ssr:stedsnr" v="868059" />
	</node>
	<node id="-762051" lat="69.2681388909" lon="18.7203111163">
		<tag k="name" v="Storli" />
		<tag k="place" v="farm" />
		<tag k="ssr:stedsnr" v="868056" />
	</node>
	<node id="-762050" lat="69.2739055568" lon="18.7159999957">
		<tag k="name" v="Nordmoen" />
		<tag k="place" v="farm" />
		<tag k="ssr:stedsnr" v="868057" />
	</node>
	<node id="-762045" lat="69.2554027785" lon="19.1570388725">
		<tag k="name" v="Sørli" />
		<tag k="place" v="farm" />
		<tag k="ssr:stedsnr" v="868027" />
	</node>
	<node id="-762041" lat="69.184111112" lon="19.0502472028">
		<tag k="name" v="Nerli" />
		<tag k="place" v="farm" />
		<tag k="ssr:stedsnr" v="867977" />
	</node>
	<node id="-759984" lat="69.2198861159" lon="19.5669833157">
		<tag k="name" v="Vollabakken" />
		<tag k="place" v="isolated_dwelling" />
		<tag k="ssr:stedsnr" v="171237" />
	</node>
	<node id="-759974" lat="69.2106999992" lon="19.125352778">
		<tag k="name" v="Nyland" />
		<tag k="place" v="farm" />
		<tag k="ssr:stedsnr" v="171267" />
	</node>
	<node id="-758811" lat="69.3863222238" lon="19.0872805551">
		<tag k="name" v="Bårlundheimen" />
		<tag k="place" v="locality" />
		<tag k="ssr:stedsnr" v="340806" />
	</node>
	<node id="-758750" lat="69.330119441" lon="19.5559166619">
		<tag k="alt_name" v="Heimli" />
		<tag k="name" v="Heimly" />
		<tag k="place" v="farm" />
		<tag k="ssr:stedsnr" v="322155" />
	</node>
	<node id="-759944" lat="69.3814027783" lon="19.4019972197">
		<tag k="name" v="Vassli" />
		<tag k="place" v="farm" />
		<tag k="ssr:stedsnr" v="170451" />
	</node>
	<node id="-759941" lat="69.0879805544" lon="19.2418888905">
		<tag k="name" v="Sagstua" />
		<tag k="place" v="isolated_dwelling" />
		<tag k="ssr:stedsnr" v="170466" />
	</node>
	<node id="-758749" lat="69.3308916697" lon="19.5729083323">
		<tag k="name" v="Trollelvmo" />
		<tag k="place" v="farm" />
		<tag k="ssr:stedsnr" v="322153" />
	</node>
	<node id="-760050" lat="69.3423388891" lon="19.5869944427">
		<tag k="name" v="Håkstad" />
		<tag k="place" v="farm" />
		<tag k="ssr:stedsnr" v="200150" />
	</node>
	<node id="-761974" lat="69.3740472196" lon="18.6279083297">
		<tag k="name" v="Utsikten" />
		<tag k="place" v="farm" />
		<tag k="ssr:stedsnr" v="839215" />
	</node>
	<node id="-761875" lat="69.2837277795" lon="19.2869305494">
		<tag k="name" v="Einnes" />
		<tag k="place" v="farm" />
		<tag k="ssr:stedsnr" v="810576" />
	</node>
	<node id="-759907" lat="69.3209749986" lon="18.8929638889">
		<tag k="name" v="Lanes" />
		<tag k="place" v="farm" />
		<tag k="ssr:stedsnr" v="147980" />
	</node>
	<node id="-759906" lat="69.4998944462" lon="18.4467111188">
		<tag k="name" v="Ansnes" />
		<tag k="place" v="farm" />
		<tag k="ssr:stedsnr" v="147965" />
	</node>
	<node id="-759905" lat="69.2544305561" lon="19.4210611031">
		<tag k="fixme" v="consider place=hamlet" />
		<tag k="name" v="Kvitebergbakken" />
		<tag k="place" v="village" />
		<tag k="ssr:stedsnr" v="146941" />
	</node>
	<node id="-759903" lat="69.3437194412" lon="19.276719431">
		<tag k="name" v="Åsheim" />
		<tag k="place" v="farm" />
		<tag k="ssr:stedsnr" v="146375" />
	</node>
	<node id="-759900" lat="69.3336527786" lon="19.4003222025">
		<tag k="name" v="Jordnes" />
		<tag k="place" v="farm" />
		<tag k="ssr:stedsnr" v="141517" />
	</node>
	<node id="-759899" lat="69.4444777752" lon="19.0026777734">
		<tag k="name" v="Selset" />
		<tag k="place" v="farm" />
		<tag k="ssr:stedsnr" v="141217" />
	</node>
	<node id="-759897" lat="69.2118750052" lon="19.1155277614">
		<tag k="name" v="Nymoen" />
		<tag k="place" v="isolated_dwelling" />
		<tag k="ssr:stedsnr" v="140989" />
	</node>
	<node id="-759895" lat="69.0820194483" lon="19.1863555501">
		<tag k="name" v="Maukeng" />
		<tag k="place" v="farm" />
		<tag k="ssr:stedsnr" v="140852" />
	</node>
	<node id="-759892" lat="69.2355111149" lon="19.3389055503">
		<tag k="fixme" v="consider place=hamlet" />
		<tag k="name" v="Markenes" />
		<tag k="place" v="village" />
		<tag k="ssr:stedsnr" v="140156" />
	</node>
	<node id="-759891" lat="69.3351222187" lon="18.8573166478">
		<tag k="name" v="Berg" />
		<tag k="place" v="farm" />
		<tag k="ssr:stedsnr" v="140000" />
	</node>
	<node id="-759890" lat="69.328016668" lon="18.9246361046">
		<tag k="fixme" v="consider place=hamlet" />
		<tag k="name" v="Mestervik" />
		<tag k="place" v="village" />
		<tag k="ssr:stedsnr" v="139992" />
	</node>
	<node id="-759888" lat="69.3459805562" lon="18.881405537">
		<tag k="alt_name" v="Marud" />
		<tag k="name" v="Morud" />
		<tag k="place" v="farm" />
		<tag k="ssr:stedsnr" v="139979" />
	</node>
	<node id="-759884" lat="69.23103889" lon="19.4841249837">
		<tag k="name" v="Haugen" />
		<tag k="place" v="farm" />
		<tag k="ssr:stedsnr" v="140112" />
	</node>
	<node id="-759883" lat="69.3169841307" lon="19.4187474294">
		<tag k="alt_name" v="Slettmo, in" />
		<tag k="fixme" v="multiple name tags, choose one and add the other to alt_name" />
		<tag k="name" v="Slettmo;Indre Slettmo" />
		<tag k="place" v="hamlet" />
		<tag k="ssr:stedsnr" v="140105" />
	</node>
	<node id="-759881" lat="69.2191638927" lon="19.1382416482">
		<tag k="alt_name" v="Hansvold" />
		<tag k="name" v="Hansvoll" />
		<tag k="place" v="farm" />
		<tag k="ssr:stedsnr" v="139936" />
	</node>
	<node id="-759880" lat="69.2304722205" lon="19.1975416633">
		<tag k="name" v="Molund" />
		<tag k="place" v="isolated_dwelling" />
		<tag k="ssr:stedsnr" v="139929" />
	</node>
	<node id="-759878" lat="69.4229833308" lon="18.9880444266">
		<tag k="name" v="Myre" />
		<tag k="place" v="isolated_dwelling" />
		<tag k="ssr:stedsnr" v="139900" />
	</node>
	<node id="-759877" lat="69.4158000014" lon="18.994158326">
		<tag k="alt_name" v="Rosanes" />
		<tag k="name" v="Resanes" />
		<tag k="place" v="farm" />
		<tag k="ssr:stedsnr" v="139892" />
	</node>
	<node id="-759876" lat="69.4155361103" lon="19.0656861">
		<tag k="name" v="Skogli" />
		<tag k="place" v="farm" />
		<tag k="ssr:stedsnr" v="139890" />
	</node>
	<node id="-759875" lat="69.4484750029" lon="18.9978055472">
		<tag k="name" v="Bakken" />
		<tag k="place" v="farm" />
		<tag k="ssr:stedsnr" v="139885" />
	</node>
	<node id="-759870" lat="69.3711555591" lon="18.9417083263">
		<tag k="name" v="Aspemoen" />
		<tag k="place" v="farm" />
		<tag k="ssr:stedsnr" v="139968" />
	</node>
	<node id="-761917" lat="69.3011416684" lon="19.5091222165">
		<tag k="name" v="Mattisheimen" />
		<tag k="place" v="locality" />
		<tag k="ssr:stedsnr" v="838380" />
	</node>
	<node id="-759868" lat="69.3662098378" lon="18.7513533826">
		<tag k="alt_name" v="Skutvikåsen, nedre" />
		<tag k="name" v="Nedre Skutvikåsen" />
		<tag k="place" v="hamlet" />
		<tag k="ssr:stedsnr" v="139964" />
	</node>
	<node id="-759867" lat="69.3754638844" lon="19.1395999979">
		<tag k="name" v="Stranda" />
		<tag k="place" v="farm" />
		<tag k="ssr:stedsnr" v="139961" />
	</node>
	<node id="-759866" lat="69.1217027804" lon="19.1174416631">
		<tag k="name" v="Solhaug" />
		<tag k="place" v="farm" />
		<tag k="ssr:stedsnr" v="139811" />
	</node>
	<node id="-759865" lat="69.4069277801" lon="18.5919583284">
		<tag k="alt_name" v="Labukta" />
		<tag k="name" v="Labugten" />
		<tag k="place" v="farm" />
		<tag k="ssr:stedsnr" v="139670" />
	</node>
	<node id="-759857" lat="69.0781111084" lon="19.5375666591">
		<tag k="name" v="Nyvoll" />
		<tag k="place" v="farm" />
		<tag k="ssr:stedsnr" v="139492" />
	</node>
	<node id="-759856" lat="69.0625611133" lon="19.4671888896">
		<tag k="name" v="Furu" />
		<tag k="place" v="farm" />
		<tag k="ssr:stedsnr" v="139476" />
	</node>
	<node id="-759855" lat="69.053088886" lon="19.4801333217">
		<tag k="alt_name" v="Gravrokk" />
		<tag k="name" v="Gravrok" />
		<tag k="place" v="farm" />
		<tag k="ssr:stedsnr" v="139464" />
	</node>
	<node id="-759850" lat="69.2942388866" lon="19.3300749868">
		<tag k="name" v="Steinsvoll" />
		<tag k="place" v="isolated_dwelling" />
		<tag k="ssr:stedsnr" v="139355" />
	</node>
	<node id="-759849" lat="69.2607694415" lon="19.2565555486">
		<tag k="name" v="Fredriksberg" />
		<tag k="place" v="farm" />
		<tag k="ssr:stedsnr" v="139345" />
	</node>
	<node id="-759846" lat="69.2772999985" lon="19.2696333276">
		<tag k="name" v="Storbakk" />
		<tag k="place" v="farm" />
		<tag k="ssr:stedsnr" v="139333" />
	</node>
	<node id="-759845" lat="69.2775055543" lon="19.2798638927">
		<tag k="alt_name" v="Litleng" />
		<tag k="name" v="Lilleng" />
		<tag k="place" v="isolated_dwelling" />
		<tag k="ssr:stedsnr" v="139331" />
	</node>
	<node id="-759844" lat="69.2810166654" lon="19.4125222246">
		<tag k="alt_name" v="Myrli" />
		<tag k="name" v="Myra" />
		<tag k="place" v="farm" />
		<tag k="ssr:stedsnr" v="139326" />
	</node>
	<node id="-761862" lat="69.1952138891" lon="19.0777805562">
		<tag k="name" v="Nysted" />
		<tag k="place" v="farm" />
		<tag k="ssr:stedsnr" v="807980" />
	</node>
	<node id="-759840" lat="69.2038055575" lon="19.2730166673">
		<tag k="name" v="Dale" />
		<tag k="place" v="farm" />
		<tag k="ssr:stedsnr" v="139141" />
	</node>
	<node id="-758789" lat="69.3278138857" lon="18.9224194477">
		<tag k="name" v="Haugen" />
		<tag k="place" v="farm" />
		<tag k="ssr:stedsnr" v="324197" />
	</node>
	<node id="-761884" lat="69.4420166694" lon="18.9273416542">
		<tag k="name" v="Årseth" />
		<tag k="place" v="farm" />
		<tag k="ssr:stedsnr" v="826799" />
	</node>
	<node id="-759835" lat="69.3027499986" lon="18.6549861014">
		<tag k="name" v="Nordlund" />
		<tag k="place" v="farm" />
		<tag k="ssr:stedsnr" v="139117" />
	</node>
	<node id="-759834" lat="69.2185805524" lon="19.5735666599">
		<tag k="name" v="Movollen" />
		<tag k="place" v="farm" />
		<tag k="ssr:stedsnr" v="139112" />
	</node>
	<node id="-759832" lat="69.2189500034" lon="19.4657527793">
		<tag k="name" v="Reinnes" />
		<tag k="place" v="farm" />
		<tag k="ssr:stedsnr" v="139106" />
	</node>
	<node id="-759830" lat="69.2775749982" lon="19.2140749991">
		<tag k="name" v="Bjørkmoen" />
		<tag k="place" v="farm" />
		<tag k="ssr:stedsnr" v="139050" />
	</node>
	<node id="-761876" lat="69.3819250034" lon="19.0049861137">
		<tag k="name" v="Elvebakken" />
		<tag k="place" v="isolated_dwelling" />
		<tag k="ssr:stedsnr" v="813351" />
	</node>
	<node id="-759827" lat="69.1527111096" lon="19.8121194224">
		<tag k="name" v="Várregaska" />
		<tag k="name:se" v="Várregaska" />
		<tag k="place" v="isolated_dwelling" />
		<tag k="ssr:stedsnr" v="139008" />
	</node>
	<node id="-761874" lat="69.2560083344" lon="19.4220805439">
		<tag k="name" v="Moen" />
		<tag k="place" v="farm" />
		<tag k="ssr:stedsnr" v="810574" />
	</node>
	<node id="-761871" lat="69.4011000001" lon="18.9864944309">
		<tag k="alt_name" v="Supelva" />
		<tag k="name" v="Supelv" />
		<tag k="place" v="farm" />
		<tag k="ssr:stedsnr" v="808926" />
	</node>
	<node id="-761869" lat="69.343658331" lon="19.1708361065">
		<tag k="fixme" v="consider place=hamlet" />
		<tag k="name" v="Sletta" />
		<tag k="place" v="village" />
		<tag k="ssr:stedsnr" v="807997" />
	</node>
	<node id="-758786" lat="69.3301222248" lon="18.906908326">
		<tag k="name" v="Leirbogen" />
		<tag k="place" v="farm" />
		<tag k="ssr:stedsnr" v="322986" />
	</node>
	<node id="-759817" lat="69.28733333" lon="19.0158638746">
		<tag k="name" v="Solbakken" />
		<tag k="place" v="isolated_dwelling" />
		<tag k="ssr:stedsnr" v="139074" />
	</node>
	<node id="-759816" lat="69.2756666668" lon="19.1775416694">
		<tag k="name" v="Nyvoll" />
		<tag k="place" v="farm" />
		<tag k="ssr:stedsnr" v="139065" />
	</node>
	<node id="-759815" lat="69.2645194475" lon="18.8588749877">
		<tag k="name" v="Bjørkli" />
		<tag k="place" v="farm" />
		<tag k="ssr:stedsnr" v="139054" />
	</node>
	<node id="-759814" lat="69.1979083365" lon="19.2109083196">
		<tag k="name" v="Bratteng" />
		<tag k="place" v="isolated_dwelling" />
		<tag k="ssr:stedsnr" v="138965" />
	</node>
	<node id="-761857" lat="69.4098111075" lon="19.0649472041">
		<tag k="name" v="Tømmernes" />
		<tag k="place" v="hamlet" />
		<tag k="ssr:stedsnr" v="807932" />
	</node>
	<node id="-761859" lat="69.2236388853" lon="19.1780444401">
		<tag k="name" v="Lundmo" />
		<tag k="place" v="farm" />
		<tag k="ssr:stedsnr" v="807953" />
	</node>
	<node id="-761858" lat="69.3838722254" lon="18.7809027772">
		<tag k="alt_name" v="Fjellskarddalen" />
		<tag k="name" v="Fjellskardal" />
		<tag k="place" v="farm" />
		<tag k="ssr:stedsnr" v="807943" />
	</node>
	<node id="-759809" lat="69.1914249974" lon="19.7273166489">
		<tag k="name" v="Skjold" />
		<tag k="place" v="farm" />
		<tag k="ssr:stedsnr" v="138055" />
	</node>
</osm>
