<?xml version="1.0" encoding="UTF-8"?>
<osm version="0.6" generator="osmapis">
	<node id="431592520" lat="70.0725413" lon="19.981975" version="5" timestamp="2022-07-08T05:54:22Z" changeset="123344083" uid="3497659" user="NKA">
		<tag k="name" v="Vannvåg" />
		<tag k="place" v="village" />
		<tag k="ssr:stedsnr" v="504046" />
	</node>
	<node id="432828073" lat="69.9670442" lon="19.6270874" version="5" timestamp="2022-07-08T05:54:22Z" changeset="123344083" uid="3497659" user="NKA">
		<tag k="name" v="Hansnes" />
		<tag k="place" v="village" />
		<tag k="population" v="456" />
		<tag k="population:date" v="2021-01-01" />
		<tag k="ref:ssb_tettsted" v="8141" />
		<tag k="source:population" v="SSB - befolkning i tettstedet" />
		<tag k="ssr:stedsnr" v="383605" />
	</node>
	<node id="432828492" lat="70.0628471" lon="19.0433841" version="2" timestamp="2022-07-08T05:54:22Z" changeset="123344083" uid="3497659" user="NKA">
		<tag k="name" v="Mikkelvik" />
		<tag k="place" v="farm" />
		<tag k="ssr:stedsnr" v="475217" />
	</node>
	<node id="432828493" lat="70.0754349" lon="18.9813141" version="4" timestamp="2022-07-08T05:54:22Z" changeset="123344083" uid="3497659" user="NKA">
		<tag k="name" v="Bromnes" />
		<tag k="place" v="hamlet" />
		<tag k="ssr:stedsnr" v="633631" />
	</node>
	<node id="836404439" lat="69.8358223" lon="19.4347388" version="3" timestamp="2022-07-08T05:54:22Z" changeset="123344083" uid="3497659" user="NKA">
		<tag k="alt_name" v="Finnkrokan" />
		<tag k="name" v="Finnkroken" />
		<tag k="place" v="hamlet" />
		<tag k="ssr:stedsnr" v="747696" />
	</node>
	<node id="1824762866" lat="70.199238" lon="19.6083884" version="2" timestamp="2022-07-08T05:54:22Z" changeset="123344083" uid="3497659" user="NKA">
		<tag k="alt_name" v="Vannareidet" />
		<tag k="name" v="Vannareid" />
		<tag k="place" v="village" />
		<tag k="ssr:stedsnr" v="808868" />
	</node>
	<node id="6203030853" lat="70.0521541" lon="18.9316132" version="2" timestamp="2022-07-08T05:54:22Z" changeset="123344083" uid="3497659" user="NKA">
		<tag k="loc_name:se" v="Ruobbánášši" />
		<tag k="name" v="Rebbenes" />
		<tag k="name:no" v="Rebbenes" />
		<tag k="place" v="hamlet" />
		<tag k="ssr:stedsnr" v="815557" />
	</node>
	<node id="6203030869" lat="69.9542979" lon="19.6709416" version="2" timestamp="2022-07-08T05:54:22Z" changeset="123344083" uid="3497659" user="NKA">
		<tag k="name" v="Stakkvik" />
		<tag k="place" v="village" />
		<tag k="ssr:stedsnr" v="262596" />
	</node>
	<node id="6203030871" lat="70.0026014" lon="19.8901466" version="2" timestamp="2022-07-08T05:54:22Z" changeset="123344083" uid="3497659" user="NKA">
		<tag k="loc_name:no" v="Karlsøya" />
		<tag k="loc_name:se" v="Gálsá" />
		<tag k="name" v="Karlsøy" />
		<tag k="name:no" v="Karlsøy" />
		<tag k="place" v="hamlet" />
		<tag k="ssr:stedsnr" v="747105" />
	</node>
	<node id="6284744983" lat="69.9696763" lon="19.4177228" version="3" timestamp="2022-01-26T06:08:00Z" changeset="116609992" uid="3497659" user="NKA">
		<tag k="junction" v="yes" />
		<tag k="name" v="Dåfjordkrysset" />
		<tag k="ssr:stedsnr" v="111161" />
	</node>
	<node id="6453006347" lat="69.9677502" lon="19.7126768" version="2" timestamp="2022-07-08T05:54:22Z" changeset="123344083" uid="3497659" user="NKA">
		<tag k="name" v="Lyngmo" />
		<tag k="place" v="farm" />
		<tag k="ssr:stedsnr" v="140570" />
	</node>
	<node id="6455698621" lat="69.9141045" lon="19.7743158" version="2" timestamp="2022-07-08T05:54:22Z" changeset="123344083" uid="3497659" user="NKA">
		<tag k="name" v="Skogheim" />
		<tag k="place" v="farm" />
		<tag k="ssr:stedsnr" v="19506" />
	</node>
	<node id="9873679079" lat="70.0523389" lon="18.9339" version="1" timestamp="2022-07-08T05:54:22Z" changeset="123344083" uid="3497659" user="NKA">
		<tag k="name" v="Bakken" />
		<tag k="place" v="farm" />
		<tag k="ssr:stedsnr" v="869752" />
	</node>
	<node id="9873679080" lat="70.2233878" lon="19.5107252" version="1" timestamp="2022-07-08T05:54:22Z" changeset="123344083" uid="3497659" user="NKA">
		<tag k="name" v="Kveldro" />
		<tag k="place" v="farm" />
		<tag k="ssr:stedsnr" v="717818" />
	</node>
	<node id="9873679081" lat="69.9854551" lon="19.5525747" version="1" timestamp="2022-07-08T05:54:22Z" changeset="123344083" uid="3497659" user="NKA">
		<tag k="name" v="Ophaug" />
		<tag k="place" v="farm" />
		<tag k="ssr:stedsnr" v="1082078" />
	</node>
	<node id="9873679082" lat="69.9996667" lon="19.5586418" version="1" timestamp="2022-07-08T05:54:22Z" changeset="123344083" uid="3497659" user="NKA">
		<tag k="name" v="Sandbakka" />
		<tag k="place" v="farm" />
		<tag k="ssr:stedsnr" v="18567" />
	</node>
	<node id="9873679083" lat="69.9919194" lon="19.5605347" version="1" timestamp="2022-07-08T05:54:22Z" changeset="123344083" uid="3497659" user="NKA">
		<tag k="name" v="Labukta" />
		<tag k="place" v="locality" />
		<tag k="ssr:stedsnr" v="201583" />
	</node>
	<node id="9873679084" lat="69.9856306" lon="19.5480084" version="1" timestamp="2022-07-08T05:54:22Z" changeset="123344083" uid="3497659" user="NKA">
		<tag k="name" v="Skog" />
		<tag k="place" v="farm" />
		<tag k="ssr:stedsnr" v="869655" />
	</node>
	<node id="9873679085" lat="70.0896384" lon="18.9294921" version="1" timestamp="2022-07-08T05:54:22Z" changeset="123344083" uid="3497659" user="NKA">
		<tag k="loc_name:se" v="Duoktovuotna" />
		<tag k="name" v="Toftefjorden" />
		<tag k="name:no" v="Toftefjorden" />
		<tag k="place" v="farm" />
		<tag k="ssr:stedsnr" v="625509" />
	</node>
	<node id="9873679086" lat="70.0910278" lon="18.9289527" version="1" timestamp="2022-07-08T05:54:22Z" changeset="123344083" uid="3497659" user="NKA">
		<tag k="name" v="Sædingsvika" />
		<tag k="place" v="isolated_dwelling" />
		<tag k="ssr:stedsnr" v="504528" />
	</node>
	<node id="9873679087" lat="69.9925398" lon="19.5607383" version="1" timestamp="2022-07-08T05:54:22Z" changeset="123344083" uid="3497659" user="NKA">
		<tag k="alt_name" v="Grunnfjord" />
		<tag k="name" v="Grunnfjorden" />
		<tag k="place" v="hamlet" />
		<tag k="ssr:stedsnr" v="747609" />
	</node>
	<node id="9873679088" lat="70.2186778" lon="19.7263251" version="1" timestamp="2022-07-08T05:54:22Z" changeset="123344083" uid="3497659" user="NKA">
		<tag k="name" v="Brattfjell" />
		<tag k="place" v="farm" />
		<tag k="ssr:stedsnr" v="565860" />
	</node>
	<node id="9873679089" lat="70.0184366" lon="18.9610883" version="1" timestamp="2022-07-08T05:54:22Z" changeset="123344083" uid="3497659" user="NKA">
		<tag k="alt_name" v="Grunnfjord" />
		<tag k="name" v="Sør-Grunnfjord" />
		<tag k="old_name" v="Sørgrunnfjord" />
		<tag k="place" v="farm" />
		<tag k="ssr:stedsnr" v="625655" />
	</node>
	<node id="9873679090" lat="70.00875" lon="19.5631499" version="1" timestamp="2022-07-08T05:54:22Z" changeset="123344083" uid="3497659" user="NKA">
		<tag k="name" v="Langnesbukta" />
		<tag k="place" v="farm" />
		<tag k="ssr:stedsnr" v="625944" />
	</node>
	<node id="9873679091" lat="69.9610575" lon="19.5979336" version="1" timestamp="2022-07-08T05:54:22Z" changeset="123344083" uid="3497659" user="NKA">
		<tag k="name" v="Grågården" />
		<tag k="place" v="farm" />
		<tag k="ssr:stedsnr" v="112275" />
	</node>
	<node id="9873679092" lat="69.9973583" lon="19.5409251" version="1" timestamp="2022-07-08T05:54:22Z" changeset="123344083" uid="3497659" user="NKA">
		<tag k="name" v="Solligård" />
		<tag k="place" v="farm" />
		<tag k="ssr:stedsnr" v="261602" />
	</node>
	<node id="9873679093" lat="70.2282722" lon="19.7388195" version="1" timestamp="2022-07-08T05:54:22Z" changeset="123344083" uid="3497659" user="NKA">
		<tag k="name" v="Solvang" />
		<tag k="place" v="locality" />
		<tag k="ssr:stedsnr" v="293448" />
	</node>
	<node id="9873679094" lat="70.0045028" lon="19.5623139" version="1" timestamp="2022-07-08T05:54:22Z" changeset="123344083" uid="3497659" user="NKA">
		<tag k="name" v="Langnes" />
		<tag k="place" v="farm" />
		<tag k="ssr:stedsnr" v="140946" />
	</node>
	<node id="9873679095" lat="70.0555556" lon="18.9404251" version="1" timestamp="2022-07-08T05:54:22Z" changeset="123344083" uid="3497659" user="NKA">
		<tag k="name" v="Luneborg" />
		<tag k="place" v="farm" />
		<tag k="ssr:stedsnr" v="201707" />
	</node>
	<node id="9873679096" lat="69.9539167" lon="19.5279751" version="1" timestamp="2022-07-08T05:54:22Z" changeset="123344083" uid="3497659" user="NKA">
		<tag k="alt_name" v="Lauvslett" />
		<tag k="name" v="Lauvsletta" />
		<tag k="place" v="farm" />
		<tag k="ssr:stedsnr" v="19555" />
	</node>
	<node id="9873679097" lat="69.8350166" lon="19.4277279" version="1" timestamp="2022-07-08T05:54:22Z" changeset="123344083" uid="3497659" user="NKA">
		<tag k="name" v="Utnes" />
		<tag k="place" v="farm" />
		<tag k="ssr:stedsnr" v="777120" />
	</node>
	<node id="9873679098" lat="69.8590528" lon="19.4371027" version="1" timestamp="2022-07-08T05:54:22Z" changeset="123344083" uid="3497659" user="NKA">
		<tag k="name" v="Engset" />
		<tag k="place" v="farm" />
		<tag k="ssr:stedsnr" v="899120" />
	</node>
	<node id="9873679099" lat="69.8576167" lon="19.4334027" version="1" timestamp="2022-07-08T05:54:22Z" changeset="123344083" uid="3497659" user="NKA">
		<tag k="name" v="Engstad" />
		<tag k="place" v="farm" />
		<tag k="ssr:stedsnr" v="747750" />
	</node>
	<node id="9873679100" lat="70.2183166" lon="19.2347103" version="1" timestamp="2022-07-08T05:54:22Z" changeset="123344083" uid="3497659" user="NKA">
		<tag k="alt_name" v="Nordskard;Nordskardet" />
		<tag k="name" v="Nordskaret" />
		<tag k="place" v="farm" />
		<tag k="ssr:stedsnr" v="930864" />
	</node>
	<node id="9873679101" lat="69.8376028" lon="19.4390805" version="1" timestamp="2022-07-08T05:54:22Z" changeset="123344083" uid="3497659" user="NKA">
		<tag k="name" v="Nordheim" />
		<tag k="place" v="isolated_dwelling" />
		<tag k="ssr:stedsnr" v="473010" />
	</node>
	<node id="9873679102" lat="70.1986417" lon="19.6058722" version="1" timestamp="2022-07-08T05:54:22Z" changeset="123344083" uid="3497659" user="NKA">
		<tag k="name" v="Kvilelva" />
		<tag k="place" v="farm" />
		<tag k="ssr:stedsnr" v="19867" />
	</node>
	<node id="9873679103" lat="69.8581006" lon="19.6578055" version="1" timestamp="2022-07-08T05:54:22Z" changeset="123344083" uid="3497659" user="NKA">
		<tag k="name" v="Elvelund" />
		<tag k="place" v="farm" />
		<tag k="ssr:stedsnr" v="49996" />
	</node>
	<node id="9873679104" lat="69.8430565" lon="19.4951821" version="1" timestamp="2022-07-08T05:54:22Z" changeset="123344083" uid="3497659" user="NKA">
		<tag k="name" v="Solheim" />
		<tag k="place" v="farm" />
		<tag k="ssr:stedsnr" v="201672" />
	</node>
	<node id="9873679105" lat="70.2135937" lon="19.5581511" version="1" timestamp="2022-07-08T05:54:22Z" changeset="123344083" uid="3497659" user="NKA">
		<tag k="name" v="Dalan" />
		<tag k="place" v="farm" />
		<tag k="ssr:stedsnr" v="19844" />
	</node>
	<node id="9873679106" lat="69.8544583" lon="19.7124721" version="1" timestamp="2022-07-08T05:54:22Z" changeset="123344083" uid="3497659" user="NKA">
		<tag k="historic" v="shieling" />
		<tag k="name" v="Junkerstua" />
		<tag k="place" v="isolated_dwelling" />
		<tag k="ssr:stedsnr" v="656974" />
	</node>
	<node id="9873679107" lat="69.835136" lon="19.4292064" version="1" timestamp="2022-07-08T05:54:22Z" changeset="123344083" uid="3497659" user="NKA">
		<tag k="name" v="Gjertrudsletta" />
		<tag k="place" v="farm" />
		<tag k="ssr:stedsnr" v="631348" />
	</node>
	<node id="9873679108" lat="69.8801005" lon="19.4590028" version="1" timestamp="2022-07-08T05:54:22Z" changeset="123344083" uid="3497659" user="NKA">
		<tag k="name" v="Skogli" />
		<tag k="place" v="isolated_dwelling" />
		<tag k="ssr:stedsnr" v="930758" />
	</node>
	<node id="9873679109" lat="69.8390139" lon="19.4649278" version="1" timestamp="2022-07-08T05:54:22Z" changeset="123344083" uid="3497659" user="NKA">
		<tag k="name" v="Lunde" />
		<tag k="place" v="isolated_dwelling" />
		<tag k="ssr:stedsnr" v="413001" />
	</node>
	<node id="9873679110" lat="69.9608639" lon="19.8555696" version="1" timestamp="2022-07-08T05:54:22Z" changeset="123344083" uid="3497659" user="NKA">
		<tag k="name" v="Hytta" />
		<tag k="place" v="farm" />
		<tag k="ssr:stedsnr" v="383655" />
	</node>
	<node id="9873679111" lat="70.1543961" lon="19.9120835" version="1" timestamp="2022-07-08T05:54:22Z" changeset="123344083" uid="3497659" user="NKA">
		<tag k="alt_name" v="Svartberg" />
		<tag k="name" v="Svartbergan" />
		<tag k="place" v="farm" />
		<tag k="ssr:stedsnr" v="686927" />
	</node>
	<node id="9873679112" lat="70.0586685" lon="18.946512" version="1" timestamp="2022-07-08T05:54:22Z" changeset="123344083" uid="3497659" user="NKA">
		<tag k="name" v="Steinli" />
		<tag k="place" v="farm" />
		<tag k="ssr:stedsnr" v="505741" />
	</node>
	<node id="9873679113" lat="70.0477013" lon="19.897415" version="1" timestamp="2022-07-08T05:54:22Z" changeset="123344083" uid="3497659" user="NKA">
		<tag k="name" v="Stakkevoll" />
		<tag k="place" v="isolated_dwelling" />
		<tag k="ssr:stedsnr" v="172455" />
	</node>
	<node id="9873679114" lat="70.1870772" lon="18.882552" version="1" timestamp="2022-07-08T05:54:22Z" changeset="123344083" uid="3497659" user="NKA">
		<tag k="name" v="Nordgrøtøya" />
		<tag k="place" v="farm" />
		<tag k="ssr:stedsnr" v="505358" />
	</node>
	<node id="9873679115" lat="70.1135503" lon="19.360441" version="1" timestamp="2022-07-08T05:54:22Z" changeset="123344083" uid="3497659" user="NKA">
		<tag k="loc_name:se" v="Áilu" />
		<tag k="name" v="Helgøy" />
		<tag k="name:no" v="Helgøy" />
		<tag k="place" v="farm" />
		<tag k="ssr:stedsnr" v="207539" />
	</node>
	<node id="9873679116" lat="70.0925936" lon="20.0844166" version="1" timestamp="2022-07-08T05:54:22Z" changeset="123344083" uid="3497659" user="NKA">
		<tag k="name" v="Kvitnes" />
		<tag k="place" v="farm" />
		<tag k="ssr:stedsnr" v="140077" />
	</node>
	<node id="9873701817" lat="70.1204528" lon="19.0896806" version="1" timestamp="2022-07-08T05:54:22Z" changeset="123344083" uid="3497659" user="NKA">
		<tag k="name" v="Ytrevika" />
		<tag k="place" v="farm" />
		<tag k="ssr:stedsnr" v="80565" />
	</node>
	<node id="9873701818" lat="69.9544812" lon="19.8449983" version="1" timestamp="2022-07-08T05:54:22Z" changeset="123344083" uid="3497659" user="NKA">
		<tag k="name" v="Bergland" />
		<tag k="place" v="farm" />
		<tag k="ssr:stedsnr" v="80652" />
	</node>
	<node id="9873701819" lat="70.1240758" lon="19.7074065" version="1" timestamp="2022-07-08T05:54:22Z" changeset="123344083" uid="3497659" user="NKA">
		<tag k="name" v="Nylund" />
		<tag k="place" v="farm" />
		<tag k="ssr:stedsnr" v="171257" />
	</node>
	<node id="9873701820" lat="69.8354753" lon="19.4363743" version="1" timestamp="2022-07-08T05:54:22Z" changeset="123344083" uid="3497659" user="NKA">
		<tag k="name" v="Øvergården" />
		<tag k="place" v="farm" />
		<tag k="ssr:stedsnr" v="170135" />
	</node>
	<node id="9873701821" lat="69.9979805" lon="19.3881334" version="1" timestamp="2022-07-08T05:54:22Z" changeset="123344083" uid="3497659" user="NKA">
		<tag k="name" v="Nystrand" />
		<tag k="place" v="isolated_dwelling" />
		<tag k="ssr:stedsnr" v="929584" />
	</node>
	<node id="9873701822" lat="70.0138417" lon="19.063039" version="1" timestamp="2022-07-08T05:54:22Z" changeset="123344083" uid="3497659" user="NKA">
		<tag k="name" v="Bekkevoll" />
		<tag k="place" v="farm" />
		<tag k="ssr:stedsnr" v="929620" />
	</node>
	<node id="9873701823" lat="69.9680222" lon="19.8733082" version="1" timestamp="2022-07-08T05:54:22Z" changeset="123344083" uid="3497659" user="NKA">
		<tag k="name" v="Juliustuften" />
		<tag k="place" v="locality" />
		<tag k="ssr:stedsnr" v="51078" />
	</node>
	<node id="9873701824" lat="69.9458654" lon="19.4687411" version="1" timestamp="2022-07-08T05:54:22Z" changeset="123344083" uid="3497659" user="NKA">
		<tag k="alt_name" v="Hessfjorden" />
		<tag k="name" v="Hessfjord" />
		<tag k="place" v="hamlet" />
		<tag k="ssr:stedsnr" v="815880" />
	</node>
	<node id="9873701825" lat="69.9354528" lon="19.8012166" version="1" timestamp="2022-07-08T05:54:22Z" changeset="123344083" uid="3497659" user="NKA">
		<tag k="name" v="Futgård" />
		<tag k="place" v="farm" />
		<tag k="ssr:stedsnr" v="718066" />
	</node>
	<node id="9873701826" lat="69.9275556" lon="19.7911446" version="1" timestamp="2022-07-08T05:54:22Z" changeset="123344083" uid="3497659" user="NKA">
		<tag k="name" v="Toften" />
		<tag k="place" v="farm" />
		<tag k="ssr:stedsnr" v="808536" />
	</node>
	<node id="9873701827" lat="70.116276" lon="20.0572594" version="1" timestamp="2022-07-08T05:54:22Z" changeset="123344083" uid="3497659" user="NKA">
		<tag k="name" v="Vikan" />
		<tag k="place" v="farm" />
		<tag k="ssr:stedsnr" v="808887" />
	</node>
	<node id="9873701828" lat="69.9233106" lon="19.7798624" version="1" timestamp="2022-07-08T05:54:22Z" changeset="123344083" uid="3497659" user="NKA">
		<tag k="name" v="Nordeidet" />
		<tag k="place" v="hamlet" />
		<tag k="ssr:stedsnr" v="808535" />
	</node>
	<node id="9873701829" lat="70.2349167" lon="19.6895694" version="1" timestamp="2022-07-08T05:54:22Z" changeset="123344083" uid="3497659" user="NKA">
		<tag k="name" v="Sandvik" />
		<tag k="place" v="isolated_dwelling" />
		<tag k="ssr:stedsnr" v="505645" />
	</node>
	<node id="9873701830" lat="70.0663833" lon="19.3564529" version="1" timestamp="2022-07-08T05:54:22Z" changeset="123344083" uid="3497659" user="NKA">
		<tag k="name" v="Vestresidvåg" />
		<tag k="place" v="farm" />
		<tag k="ssr:stedsnr" v="808776" />
	</node>
	<node id="9873701831" lat="69.9882833" lon="19.365539" version="1" timestamp="2022-07-08T05:54:22Z" changeset="123344083" uid="3497659" user="NKA">
		<tag k="name" v="Elva" />
		<tag k="place" v="farm" />
		<tag k="ssr:stedsnr" v="808593" />
	</node>
	<node id="9873701832" lat="70.2053863" lon="19.596329" version="1" timestamp="2022-07-08T05:54:22Z" changeset="123344083" uid="3497659" user="NKA">
		<tag k="name" v="Løvstad" />
		<tag k="place" v="farm" />
		<tag k="ssr:stedsnr" v="322856" />
	</node>
	<node id="9873701833" lat="69.9874555" lon="19.3713917" version="1" timestamp="2022-07-08T05:54:22Z" changeset="123344083" uid="3497659" user="NKA">
		<tag k="name" v="Fossheim" />
		<tag k="place" v="farm" />
		<tag k="ssr:stedsnr" v="778758" />
	</node>
	<node id="9873701834" lat="70.2548132" lon="19.2966511" version="1" timestamp="2022-07-08T05:54:22Z" changeset="123344083" uid="3497659" user="NKA">
		<tag k="name" v="Lyngøy" />
		<tag k="place" v="locality" />
		<tag k="ssr:stedsnr" v="1077951" />
	</node>
	<node id="9873701835" lat="69.9718611" lon="19.1275304" version="1" timestamp="2022-07-08T05:54:22Z" changeset="123344083" uid="3497659" user="NKA">
		<tag k="name" v="Heimly" />
		<tag k="place" v="farm" />
		<tag k="ssr:stedsnr" v="747862" />
	</node>
	<node id="9873701836" lat="69.9111305" lon="19.7724889" version="1" timestamp="2022-07-08T05:54:22Z" changeset="123344083" uid="3497659" user="NKA">
		<tag k="name" v="Bjerkåker" />
		<tag k="place" v="farm" />
		<tag k="ssr:stedsnr" v="687521" />
	</node>
	<node id="9873701837" lat="70.0825639" lon="19.1586445" version="1" timestamp="2022-07-08T05:54:22Z" changeset="123344083" uid="3497659" user="NKA">
		<tag k="name" v="Slettvollen" />
		<tag k="place" v="locality" />
		<tag k="ssr:stedsnr" v="747494" />
	</node>
	<node id="9873701838" lat="69.8558629" lon="19.6387114" version="1" timestamp="2022-07-08T05:54:22Z" changeset="123344083" uid="3497659" user="NKA">
		<tag k="name" v="Nymo" />
		<tag k="place" v="farm" />
		<tag k="ssr:stedsnr" v="534996" />
	</node>
	<node id="9873701839" lat="70.1890084" lon="19.6234277" version="1" timestamp="2022-07-08T05:54:22Z" changeset="123344083" uid="3497659" user="NKA">
		<tag k="name" v="Steinhaug" />
		<tag k="place" v="farm" />
		<tag k="ssr:stedsnr" v="322862" />
	</node>
	<node id="9873701840" lat="70.1453056" lon="18.8596668" version="1" timestamp="2022-07-08T05:54:22Z" changeset="123344083" uid="3497659" user="NKA">
		<tag k="name" v="Peragården" />
		<tag k="place" v="locality" />
		<tag k="ssr:stedsnr" v="869630" />
	</node>
	<node id="9873701841" lat="69.8545917" lon="19.6307028" version="1" timestamp="2022-07-08T05:54:22Z" changeset="123344083" uid="3497659" user="NKA">
		<tag k="name" v="Steinli" />
		<tag k="place" v="farm" />
		<tag k="ssr:stedsnr" v="231996" />
	</node>
	<node id="9873701842" lat="70.1504876" lon="18.8246408" version="1" timestamp="2022-07-08T05:54:22Z" changeset="123344083" uid="3497659" user="NKA">
		<tag k="alt_name" v="Søndre Grøtøy" />
		<tag k="name" v="Sørgrøtøya" />
		<tag k="place" v="farm" />
		<tag k="ssr:stedsnr" v="747574" />
	</node>
	<node id="9873701843" lat="70.0254833" lon="19.0897694" version="1" timestamp="2022-07-08T05:54:22Z" changeset="123344083" uid="3497659" user="NKA">
		<tag k="name" v="Fredheim" />
		<tag k="place" v="farm" />
		<tag k="ssr:stedsnr" v="564670" />
	</node>
	<node id="9873701844" lat="70.0209583" lon="19.0909806" version="1" timestamp="2022-07-08T05:54:22Z" changeset="123344083" uid="3497659" user="NKA">
		<tag k="name" v="Moen" />
		<tag k="place" v="farm" />
		<tag k="ssr:stedsnr" v="808666" />
	</node>
	<node id="9873701845" lat="69.8577173" lon="19.7235382" version="1" timestamp="2022-07-08T05:54:22Z" changeset="123344083" uid="3497659" user="NKA">
		<tag k="name" v="Nordberg" />
		<tag k="place" v="farm" />
		<tag k="ssr:stedsnr" v="19689" />
	</node>
	<node id="9873701846" lat="70.2204522" lon="19.1975548" version="1" timestamp="2022-07-08T05:54:22Z" changeset="123344083" uid="3497659" user="NKA">
		<tag k="name" v="Nordskaret" />
		<tag k="place" v="farm" />
		<tag k="ssr:stedsnr" v="849071" />
	</node>
	<node id="9873701847" lat="70.1488533" lon="18.7924387" version="1" timestamp="2022-07-08T05:54:22Z" changeset="123344083" uid="3497659" user="NKA">
		<tag k="alt_name:no" v="Grøtøy søndre" />
		<tag k="loc_name:se" v="Voreš Rifta" />
		<tag k="name" v="Sørgrøtøya" />
		<tag k="name:no" v="Sørgrøtøya" />
		<tag k="place" v="locality" />
		<tag k="ssr:stedsnr" v="633644" />
	</node>
	<node id="9873701848" lat="69.9891569" lon="19.5586368" version="1" timestamp="2022-07-08T05:54:22Z" changeset="123344083" uid="3497659" user="NKA">
		<tag k="name" v="Engheim" />
		<tag k="place" v="farm" />
		<tag k="ssr:stedsnr" v="293025" />
	</node>
	<node id="9873701849" lat="69.9833091" lon="19.103164" version="1" timestamp="2022-07-08T05:54:22Z" changeset="123344083" uid="3497659" user="NKA">
		<tag k="name" v="Lassejorda" />
		<tag k="place" v="locality" />
		<tag k="ssr:stedsnr" v="504872" />
	</node>
	<node id="9873701850" lat="70.0050222" lon="19.3243306" version="1" timestamp="2022-07-08T05:54:22Z" changeset="123344083" uid="3497659" user="NKA">
		<tag k="name" v="Sætervik" />
		<tag k="place" v="farm" />
		<tag k="ssr:stedsnr" v="504954" />
	</node>
	<node id="9873701851" lat="70.1634791" lon="19.2268284" version="1" timestamp="2022-07-08T05:54:22Z" changeset="123344083" uid="3497659" user="NKA">
		<tag k="loc_name:se" v="Finsivlu" />
		<tag k="name" v="Finnsula" />
		<tag k="name:no" v="Finnsula" />
		<tag k="place" v="farm" />
		<tag k="ssr:stedsnr" v="656224" />
	</node>
	<node id="9873701852" lat="70.1116533" lon="18.908283" version="1" timestamp="2022-07-08T05:54:22Z" changeset="123344083" uid="3497659" user="NKA">
		<tag k="loc_name:se" v="Muorranjárga" />
		<tag k="name" v="Toftefjordneset" />
		<tag k="name:no" v="Toftefjordneset" />
		<tag k="place" v="farm" />
		<tag k="ssr:stedsnr" v="937650" />
	</node>
	<node id="9873701853" lat="69.9023361" lon="19.4714195" version="1" timestamp="2022-07-08T05:54:22Z" changeset="123344083" uid="3497659" user="NKA">
		<tag k="name" v="Heimly" />
		<tag k="place" v="farm" />
		<tag k="ssr:stedsnr" v="504529" />
	</node>
	<node id="9873701854" lat="70.0561889" lon="19.7828112" version="1" timestamp="2022-07-08T05:54:22Z" changeset="123344083" uid="3497659" user="NKA">
		<tag k="name" v="Ørnnesbukt" />
		<tag k="place" v="farm" />
		<tag k="ssr:stedsnr" v="505968" />
	</node>
	<node id="9873701855" lat="70.0445713" lon="19.2762146" version="1" timestamp="2022-07-08T05:54:22Z" changeset="123344083" uid="3497659" user="NKA">
		<tag k="name" v="Steinnes" />
		<tag k="place" v="farm" />
		<tag k="ssr:stedsnr" v="444977" />
	</node>
	<node id="9873701856" lat="70.0351305" lon="19.4110112" version="1" timestamp="2022-07-08T05:54:22Z" changeset="123344083" uid="3497659" user="NKA">
		<tag k="name" v="Sakariasbukta" />
		<tag k="place" v="farm" />
		<tag k="ssr:stedsnr" v="383999" />
	</node>
	<node id="9873701857" lat="69.9417778" lon="19.4686861" version="1" timestamp="2022-07-08T05:54:22Z" changeset="123344083" uid="3497659" user="NKA">
		<tag k="name" v="Myrvang" />
		<tag k="place" v="farm" />
		<tag k="ssr:stedsnr" v="504551" />
	</node>
	<node id="9873701858" lat="69.9139713" lon="19.4837056" version="1" timestamp="2022-07-08T05:54:22Z" changeset="123344083" uid="3497659" user="NKA">
		<tag k="alt_name" v="Elvemo" />
		<tag k="name" v="Elvemoen" />
		<tag k="place" v="farm" />
		<tag k="ssr:stedsnr" v="262530" />
	</node>
	<node id="9873701859" lat="70.0793291" lon="19.1576859" version="1" timestamp="2022-07-08T05:54:22Z" changeset="123344083" uid="3497659" user="NKA">
		<tag k="name" v="Fagerfjord" />
		<tag k="place" v="farm" />
		<tag k="ssr:stedsnr" v="444743" />
	</node>
	<node id="9873701860" lat="70.1102117" lon="19.1150963" version="1" timestamp="2022-07-08T05:54:22Z" changeset="123344083" uid="3497659" user="NKA">
		<tag k="name" v="Holmesletta" />
		<tag k="place" v="farm" />
		<tag k="ssr:stedsnr" v="383565" />
	</node>
	<node id="9873701861" lat="70.0573861" lon="19.3741695" version="1" timestamp="2022-07-08T05:54:22Z" changeset="123344083" uid="3497659" user="NKA">
		<tag k="name" v="Gammelheimen" />
		<tag k="place" v="locality" />
		<tag k="ssr:stedsnr" v="171184" />
	</node>
	<node id="9873701862" lat="70.1003533" lon="19.7071256" version="1" timestamp="2022-07-08T05:54:22Z" changeset="123344083" uid="3497659" user="NKA">
		<tag k="name" v="Slettmo" />
		<tag k="place" v="isolated_dwelling" />
		<tag k="ssr:stedsnr" v="140757" />
	</node>
	<node id="9873701863" lat="70.1693777" lon="19.0107964" version="1" timestamp="2022-07-08T05:54:22Z" changeset="123344083" uid="3497659" user="NKA">
		<tag k="alt_name:no" v="Måsværet" />
		<tag k="name" v="Måsvær - Muosát" />
		<tag k="name:no" v="Måsvær" />
		<tag k="name:se" v="Muosát" />
		<tag k="place" v="farm" />
		<tag k="ssr:stedsnr" v="330620" />
	</node>
	<node id="9873701864" lat="70.0135695" lon="19.3898777" version="1" timestamp="2022-07-08T05:54:22Z" changeset="123344083" uid="3497659" user="NKA">
		<tag k="name" v="Rydningen" />
		<tag k="place" v="farm" />
		<tag k="ssr:stedsnr" v="322943" />
	</node>
	<node id="9873701865" lat="70.059475" lon="19.3777499" version="1" timestamp="2022-07-08T05:54:22Z" changeset="123344083" uid="3497659" user="NKA">
		<tag k="name" v="Sjøstrand" />
		<tag k="place" v="farm" />
		<tag k="ssr:stedsnr" v="322977" />
	</node>
	<node id="9873701866" lat="69.8598833" lon="19.4350583" version="1" timestamp="2022-07-08T05:54:22Z" changeset="123344083" uid="3497659" user="NKA">
		<tag k="name" v="Bjørkli" />
		<tag k="place" v="locality" />
		<tag k="ssr:stedsnr" v="170125" />
	</node>
	<node id="9873701867" lat="69.9446528" lon="19.6416416" version="1" timestamp="2022-07-08T05:54:22Z" changeset="123344083" uid="3497659" user="NKA">
		<tag k="alt_name" v="Torvhatten" />
		<tag k="name" v="Torghatten" />
		<tag k="place" v="farm" />
		<tag k="ssr:stedsnr" v="145519" />
	</node>
	<node id="9873701868" lat="69.9677639" lon="19.1584916" version="1" timestamp="2022-07-08T05:54:22Z" changeset="123344083" uid="3497659" user="NKA">
		<tag k="name" v="Bjørkli" />
		<tag k="place" v="farm" />
		<tag k="ssr:stedsnr" v="929856" />
	</node>
	<node id="9873701869" lat="69.9288195" lon="19.7918832" version="1" timestamp="2022-07-08T05:54:22Z" changeset="123344083" uid="3497659" user="NKA">
		<tag k="name" v="Berg" />
		<tag k="place" v="farm" />
		<tag k="ssr:stedsnr" v="140528" />
	</node>
	<node id="9873701870" lat="69.9320806" lon="19.7934251" version="1" timestamp="2022-07-08T05:54:22Z" changeset="123344083" uid="3497659" user="NKA">
		<tag k="name" v="Bomstad" />
		<tag k="place" v="farm" />
		<tag k="ssr:stedsnr" v="869581" />
	</node>
	<node id="9873701871" lat="70.191298" lon="18.8725466" version="1" timestamp="2022-07-08T05:54:22Z" changeset="123344083" uid="3497659" user="NKA">
		<tag k="alt_name:no" v="Grøtøy nordre" />
		<tag k="loc_name:se" v="Nuorta Rifta" />
		<tag k="name" v="Nordgrøtøya" />
		<tag k="name:no" v="Nordgrøtøya" />
		<tag k="place" v="locality" />
		<tag k="ssr:stedsnr" v="87615" />
	</node>
	<node id="9873701872" lat="69.9918298" lon="19.4014533" version="1" timestamp="2022-07-08T05:54:22Z" changeset="123344083" uid="3497659" user="NKA">
		<tag k="alt_name" v="Breidvollen" />
		<tag k="name" v="Breivold" />
		<tag k="place" v="farm" />
		<tag k="ssr:stedsnr" v="929577" />
	</node>
	<node id="9873701873" lat="69.9235047" lon="19.7768158" version="1" timestamp="2022-07-08T05:54:22Z" changeset="123344083" uid="3497659" user="NKA">
		<tag k="name" v="Blåstein" />
		<tag k="place" v="farm" />
		<tag k="ssr:stedsnr" v="840420" />
	</node>
	<node id="9873701874" lat="69.9854354" lon="19.544396" version="1" timestamp="2022-07-08T05:54:22Z" changeset="123344083" uid="3497659" user="NKA">
		<tag k="alt_name" v="Grunnfjordbotn" />
		<tag k="name" v="Botn" />
		<tag k="place" v="farm" />
		<tag k="ssr:stedsnr" v="929597" />
	</node>
	<node id="9873701875" lat="70.0578" lon="19.2784166" version="1" timestamp="2022-07-08T05:54:22Z" changeset="123344083" uid="3497659" user="NKA">
		<tag k="name" v="Myrbukta" />
		<tag k="place" v="farm" />
		<tag k="ssr:stedsnr" v="201765" />
	</node>
	<node id="9873701876" lat="69.9689267" lon="19.1438994" version="1" timestamp="2022-07-08T05:54:22Z" changeset="123344083" uid="3497659" user="NKA">
		<tag k="name" v="Rydningen" />
		<tag k="place" v="farm" />
		<tag k="ssr:stedsnr" v="1080600" />
	</node>
	<node id="9873701877" lat="70.1710371" lon="19.6587031" version="1" timestamp="2022-07-08T05:54:22Z" changeset="123344083" uid="3497659" user="NKA">
		<tag k="name" v="Solstrand" />
		<tag k="place" v="locality" />
		<tag k="ssr:stedsnr" v="930836" />
	</node>
	<node id="9873701878" lat="70.1330139" lon="19.6984815" version="1" timestamp="2022-07-08T05:54:22Z" changeset="123344083" uid="3497659" user="NKA">
		<tag k="alt_name" v="Ytre Hamre;Hamre, ytre" />
		<tag k="name" v="Hamre" />
		<tag k="place" v="hamlet" />
		<tag k="ssr:stedsnr" v="929782" />
	</node>
	<node id="9873701879" lat="70.0549107" lon="19.8128512" version="1" timestamp="2022-07-08T05:54:22Z" changeset="123344083" uid="3497659" user="NKA">
		<tag k="alt_name" v="Kvalshavsvik" />
		<tag k="name" v="Kvalshausvik" />
		<tag k="place" v="farm" />
		<tag k="ssr:stedsnr" v="808970" />
	</node>
	<node id="9873701880" lat="69.9960333" lon="19.3866223" version="1" timestamp="2022-07-08T05:54:22Z" changeset="123344083" uid="3497659" user="NKA">
		<tag k="name" v="Hamnneset" />
		<tag k="place" v="farm" />
		<tag k="ssr:stedsnr" v="382592" />
	</node>
	<node id="9873701881" lat="69.9766576" lon="19.1140871" version="1" timestamp="2022-07-08T05:54:22Z" changeset="123344083" uid="3497659" user="NKA">
		<tag k="name" v="Skoglund" />
		<tag k="place" v="farm" />
		<tag k="ssr:stedsnr" v="201844" />
	</node>
	<node id="9873701882" lat="70.246675" lon="19.4978696" version="1" timestamp="2022-07-08T05:54:22Z" changeset="123344083" uid="3497659" user="NKA">
		<tag k="name" v="Heimen" />
		<tag k="place" v="locality" />
		<tag k="ssr:stedsnr" v="900816" />
	</node>
	<node id="9873701883" lat="69.9190305" lon="19.7801693" version="1" timestamp="2022-07-08T05:54:22Z" changeset="123344083" uid="3497659" user="NKA">
		<tag k="name" v="Nordstrand" />
		<tag k="place" v="farm" />
		<tag k="ssr:stedsnr" v="322502" />
	</node>
	<node id="9873701884" lat="69.9808111" lon="19.107889" version="1" timestamp="2022-07-08T05:54:22Z" changeset="123344083" uid="3497659" user="NKA">
		<tag k="name" v="Bakkevoll" />
		<tag k="place" v="farm" />
		<tag k="ssr:stedsnr" v="747872" />
	</node>
	<node id="9873701885" lat="70.1123416" lon="19.3851696" version="1" timestamp="2022-07-08T05:54:22Z" changeset="123344083" uid="3497659" user="NKA">
		<tag k="name" v="Mølnnes" />
		<tag k="place" v="farm" />
		<tag k="ssr:stedsnr" v="747813" />
	</node>
	<node id="9873701886" lat="69.8647137" lon="19.4421304" version="1" timestamp="2022-07-08T05:54:22Z" changeset="123344083" uid="3497659" user="NKA">
		<tag k="name" v="Ytregard" />
		<tag k="place" v="farm" />
		<tag k="ssr:stedsnr" v="930776" />
	</node>
	<node id="9873701887" lat="70.161984" lon="19.6706429" version="1" timestamp="2022-07-08T05:54:22Z" changeset="123344083" uid="3497659" user="NKA">
		<tag k="alt_name" v="Olkelva" />
		<tag k="name" v="Olkelv" />
		<tag k="place" v="farm" />
		<tag k="ssr:stedsnr" v="687847" />
	</node>
	<node id="9873701888" lat="69.8919422" lon="19.4355436" version="1" timestamp="2022-07-08T05:54:22Z" changeset="123344083" uid="3497659" user="NKA">
		<tag k="name" v="Kopparelv" />
		<tag k="place" v="farm" />
		<tag k="ssr:stedsnr" v="929711" />
	</node>
	<node id="9873701889" lat="69.9633639" lon="19.1644" version="1" timestamp="2022-07-08T05:54:22Z" changeset="123344083" uid="3497659" user="NKA">
		<tag k="name" v="Langbakkmoen" />
		<tag k="place" v="farm" />
		<tag k="ssr:stedsnr" v="808852" />
	</node>
	<node id="9873701890" lat="69.8469515" lon="19.5389116" version="1" timestamp="2022-07-08T05:54:22Z" changeset="123344083" uid="3497659" user="NKA">
		<tag k="name" v="Sætermoen" />
		<tag k="place" v="farm" />
		<tag k="ssr:stedsnr" v="899061" />
	</node>
	<node id="9873701891" lat="70.2374315" lon="19.716885" version="1" timestamp="2022-07-08T05:54:22Z" changeset="123344083" uid="3497659" user="NKA">
		<tag k="name" v="Burøysletta" />
		<tag k="place" v="isolated_dwelling" />
		<tag k="ssr:stedsnr" v="505649" />
	</node>
	<node id="9873701892" lat="69.9332306" lon="19.7952416" version="1" timestamp="2022-07-08T05:54:22Z" changeset="123344083" uid="3497659" user="NKA">
		<tag k="name" v="Lundborg" />
		<tag k="place" v="farm" />
		<tag k="ssr:stedsnr" v="808552" />
	</node>
	<node id="9873701893" lat="69.9925258" lon="19.4047925" version="1" timestamp="2022-07-08T05:54:22Z" changeset="123344083" uid="3497659" user="NKA">
		<tag k="alt_name:no" v="Dåfjorden" />
		<tag k="loc_name:se" v="Vuollevuotna" />
		<tag k="name" v="Dåfjord" />
		<tag k="name:no" v="Dåfjord" />
		<tag k="place" v="village" />
		<tag k="ssr:stedsnr" v="504605" />
	</node>
	<node id="9873701894" lat="69.9323694" lon="19.4858582" version="1" timestamp="2022-07-08T05:54:22Z" changeset="123344083" uid="3497659" user="NKA">
		<tag k="name" v="Kjosvoll" />
		<tag k="place" v="farm" />
		<tag k="ssr:stedsnr" v="808520" />
	</node>
	<node id="9873701895" lat="70.21865" lon="19.7249501" version="1" timestamp="2022-07-08T05:54:22Z" changeset="123344083" uid="3497659" user="NKA">
		<tag k="name" v="Fredheim" />
		<tag k="place" v="farm" />
		<tag k="ssr:stedsnr" v="476434" />
	</node>
	<node id="9873701896" lat="70.0162778" lon="19.2948389" version="1" timestamp="2022-07-08T05:54:22Z" changeset="123344083" uid="3497659" user="NKA">
		<tag k="loc_name:se" v="Gáhceráigi" />
		<tag k="name" v="Vatnan" />
		<tag k="name:no" v="Vatnan" />
		<tag k="place" v="hamlet" />
		<tag k="ssr:stedsnr" v="564948" />
	</node>
	<node id="9873701897" lat="69.9416167" lon="19.6360749" version="1" timestamp="2022-07-08T05:54:22Z" changeset="123344083" uid="3497659" user="NKA">
		<tag k="name" v="Bjørklund" />
		<tag k="place" v="farm" />
		<tag k="ssr:stedsnr" v="504550" />
	</node>
	<node id="9873701898" lat="70.2437358" lon="19.4971523" version="1" timestamp="2022-07-08T05:54:22Z" changeset="123344083" uid="3497659" user="NKA">
		<tag k="name" v="Torsvåg" />
		<tag k="place" v="hamlet" />
		<tag k="ssr:stedsnr" v="322639" />
	</node>
	<node id="9873701899" lat="70.0014231" lon="19.9176507" version="1" timestamp="2022-07-08T05:54:22Z" changeset="123344083" uid="3497659" user="NKA">
		<tag k="name" v="Fredheim" />
		<tag k="place" v="isolated_dwelling" />
		<tag k="ssr:stedsnr" v="747098" />
	</node>
	<node id="9873701900" lat="70.2215555" lon="19.5171535" version="1" timestamp="2022-07-08T05:54:22Z" changeset="123344083" uid="3497659" user="NKA">
		<tag k="name" v="Dalmo" />
		<tag k="place" v="farm" />
		<tag k="ssr:stedsnr" v="960793" />
	</node>
	<node id="9873701901" lat="70.0913972" lon="19.7044222" version="1" timestamp="2022-07-08T05:54:22Z" changeset="123344083" uid="3497659" user="NKA">
		<tag k="name" v="Solvang" />
		<tag k="place" v="isolated_dwelling" />
		<tag k="ssr:stedsnr" v="233348" />
	</node>
	<node id="9873701902" lat="70.0176507" lon="19.6221987" version="1" timestamp="2022-07-08T05:54:22Z" changeset="123344083" uid="3497659" user="NKA">
		<tag k="name" v="Stakkenes" />
		<tag k="place" v="farm" />
		<tag k="ssr:stedsnr" v="261931" />
	</node>
	<node id="9873701903" lat="70.2218521" lon="19.5122778" version="1" timestamp="2022-07-08T05:54:22Z" changeset="123344083" uid="3497659" user="NKA">
		<tag k="alt_name" v="Klemmetsvik;Klemnesvik" />
		<tag k="name" v="Klemetsvik" />
		<tag k="place" v="farm" />
		<tag k="ssr:stedsnr" v="930856" />
	</node>
	<node id="9873701904" lat="69.987375" lon="19.3728307" version="1" timestamp="2022-07-08T05:54:22Z" changeset="123344083" uid="3497659" user="NKA">
		<tag k="name" v="Strandeng" />
		<tag k="place" v="farm" />
		<tag k="ssr:stedsnr" v="383613" />
	</node>
	<node id="9873701905" lat="69.9800806" lon="19.8692415" version="1" timestamp="2022-07-08T05:54:22Z" changeset="123344083" uid="3497659" user="NKA">
		<tag k="name" v="Lilleeng" />
		<tag k="place" v="farm" />
		<tag k="ssr:stedsnr" v="25457" />
	</node>
	<node id="9873701906" lat="70.0053333" lon="19.7913056" version="1" timestamp="2022-07-08T05:54:22Z" changeset="123344083" uid="3497659" user="NKA">
		<tag k="name" v="Fauskevollen" />
		<tag k="place" v="farm" />
		<tag k="ssr:stedsnr" v="25124" />
	</node>
	<node id="9873701907" lat="70.0788234" lon="19.7107012" version="1" timestamp="2022-07-08T05:54:22Z" changeset="123344083" uid="3497659" user="NKA">
		<tag k="name" v="Fjellheim" />
		<tag k="place" v="isolated_dwelling" />
		<tag k="ssr:stedsnr" v="80783" />
	</node>
	<node id="9873701908" lat="70.0993796" lon="19.5162597" version="1" timestamp="2022-07-08T05:54:22Z" changeset="123344083" uid="3497659" user="NKA">
		<tag k="alt_name" v="Indreby" />
		<tag k="name" v="Innerby" />
		<tag k="place" v="farm" />
		<tag k="ssr:stedsnr" v="201748" />
	</node>
	<node id="9873701909" lat="69.9796111" lon="19.8775777" version="1" timestamp="2022-07-08T05:54:22Z" changeset="123344083" uid="3497659" user="NKA">
		<tag k="alt_name" v="Gammelgarden" />
		<tag k="name" v="Gammelgård" />
		<tag k="place" v="farm" />
		<tag k="ssr:stedsnr" v="19619" />
	</node>
	<node id="9873701910" lat="70.1079861" lon="19.7185584" version="1" timestamp="2022-07-08T05:54:22Z" changeset="123344083" uid="3497659" user="NKA">
		<tag k="name" v="Solbakken" />
		<tag k="place" v="farm" />
		<tag k="ssr:stedsnr" v="201743" />
	</node>
	<node id="9873701911" lat="70.2077726" lon="19.5836014" version="1" timestamp="2022-07-08T05:54:22Z" changeset="123344083" uid="3497659" user="NKA">
		<tag k="name" v="Solheim" />
		<tag k="place" v="farm" />
		<tag k="ssr:stedsnr" v="869878" />
	</node>
	<node id="9873701912" lat="70.1745368" lon="19.6538279" version="1" timestamp="2022-07-08T05:54:22Z" changeset="123344083" uid="3497659" user="NKA">
		<tag k="name" v="Gammvik" />
		<tag k="place" v="farm" />
		<tag k="ssr:stedsnr" v="808811" />
	</node>
	<node id="9873701913" lat="70.2299833" lon="19.2296028" version="1" timestamp="2022-07-08T05:54:22Z" changeset="123344083" uid="3497659" user="NKA">
		<tag k="name" v="Nordskaret" />
		<tag k="place" v="farm" />
		<tag k="ssr:stedsnr" v="970084" />
	</node>
	<node id="9873701914" lat="70.0021139" lon="19.909439" version="1" timestamp="2022-07-08T05:54:22Z" changeset="123344083" uid="3497659" user="NKA">
		<tag k="name" v="Sletta" />
		<tag k="place" v="farm" />
		<tag k="ssr:stedsnr" v="869135" />
	</node>
	<node id="9873701915" lat="70.2283987" lon="19.7304381" version="1" timestamp="2022-07-08T05:54:22Z" changeset="123344083" uid="3497659" user="NKA">
		<tag k="alt_name" v="Bergland" />
		<tag k="name" v="Berglund" />
		<tag k="place" v="locality" />
		<tag k="ssr:stedsnr" v="808851" />
	</node>
	<node id="9873701916" lat="69.8824183" lon="19.4734985" version="1" timestamp="2022-07-08T05:54:22Z" changeset="123344083" uid="3497659" user="NKA">
		<tag k="name" v="Brattrein" />
		<tag k="place" v="farm" />
		<tag k="ssr:stedsnr" v="808715" />
	</node>
	<node id="9873701917" lat="70.2400139" lon="19.7131944" version="1" timestamp="2022-07-08T05:54:22Z" changeset="123344083" uid="3497659" user="NKA">
		<tag k="name" v="Solheim" />
		<tag k="place" v="farm" />
		<tag k="ssr:stedsnr" v="808637" />
	</node>
	<node id="9873701918" lat="69.9562874" lon="19.8485499" version="1" timestamp="2022-07-08T05:54:22Z" changeset="123344083" uid="3497659" user="NKA">
		<tag k="alt_name" v="Klokkarvoll" />
		<tag k="name" v="Klokkarvollen" />
		<tag k="place" v="farm" />
		<tag k="ssr:stedsnr" v="202677" />
	</node>
	<node id="9873701919" lat="70.1115945" lon="19.1289918" version="1" timestamp="2022-07-08T05:54:22Z" changeset="123344083" uid="3497659" user="NKA">
		<tag k="name" v="Luneborg" />
		<tag k="place" v="farm" />
		<tag k="ssr:stedsnr" v="930573" />
	</node>
	<node id="9873701920" lat="70.0540239" lon="19.7996311" version="1" timestamp="2022-07-08T05:54:22Z" changeset="123344083" uid="3497659" user="NKA">
		<tag k="name" v="Kvalshausen" />
		<tag k="place" v="farm" />
		<tag k="ssr:stedsnr" v="1077962" />
	</node>
	<node id="9873701921" lat="70.2191313" lon="19.5167812" version="1" timestamp="2022-07-08T05:54:22Z" changeset="123344083" uid="3497659" user="NKA">
		<tag k="name" v="Solvik" />
		<tag k="place" v="farm" />
		<tag k="ssr:stedsnr" v="778808" />
	</node>
	<node id="9873701922" lat="69.9831515" lon="19.8578997" version="1" timestamp="2022-07-08T05:54:22Z" changeset="123344083" uid="3497659" user="NKA">
		<tag k="alt_name" v="Reinsvoll" />
		<tag k="name" v="Reinsvollen" />
		<tag k="place" v="hamlet" />
		<tag k="ssr:stedsnr" v="869672" />
	</node>
	<node id="9873701923" lat="69.977658" lon="19.6663384" version="1" timestamp="2022-07-08T05:54:22Z" changeset="123344083" uid="3497659" user="NKA">
		<tag k="name" v="Skattøra" />
		<tag k="place" v="farm" />
		<tag k="ssr:stedsnr" v="1077960" />
	</node>
	<node id="9873701924" lat="70.006733" lon="19.8828728" version="1" timestamp="2022-07-08T05:54:22Z" changeset="123344083" uid="3497659" user="NKA">
		<tag k="alt_name" v="Vetestad" />
		<tag k="name" v="Vettestad" />
		<tag k="place" v="farm" />
		<tag k="ssr:stedsnr" v="869124" />
	</node>
	<node id="9873701925" lat="70.1281581" lon="19.0728857" version="1" timestamp="2022-07-08T05:54:22Z" changeset="123344083" uid="3497659" user="NKA">
		<tag k="name" v="Bårdset" />
		<tag k="place" v="farm" />
		<tag k="ssr:stedsnr" v="808566" />
	</node>
	<node id="9873701926" lat="70.0527813" lon="19.9363764" version="1" timestamp="2022-07-08T05:54:22Z" changeset="123344083" uid="3497659" user="NKA">
		<tag k="name" v="Vannstua" />
		<tag k="place" v="farm" />
		<tag k="ssr:stedsnr" v="869086" />
	</node>
	<node id="9873701927" lat="70.0492556" lon="19.8784111" version="1" timestamp="2022-07-08T05:54:22Z" changeset="123344083" uid="3497659" user="NKA">
		<tag k="loc_name:se" v="Láttunjárga" />
		<tag k="name" v="Lanes" />
		<tag k="name:no" v="Lanes" />
		<tag k="place" v="hamlet" />
		<tag k="ssr:stedsnr" v="747092" />
	</node>
	<node id="9873701928" lat="70.2091601" lon="19.5759389" version="1" timestamp="2022-07-08T05:54:22Z" changeset="123344083" uid="3497659" user="NKA">
		<tag k="name" v="Sletten" />
		<tag k="place" v="farm" />
		<tag k="ssr:stedsnr" v="840797" />
	</node>
	<node id="9873701929" lat="69.9912417" lon="19.0657499" version="1" timestamp="2022-07-08T05:54:22Z" changeset="123344083" uid="3497659" user="NKA">
		<tag k="alt_name" v="Per-Nilsajordet" />
		<tag k="name" v="Pernilsajorda" />
		<tag k="old_name" v="Per Nilsajorda" />
		<tag k="place" v="isolated_dwelling" />
		<tag k="ssr:stedsnr" v="687170" />
	</node>
	<node id="9873701930" lat="70.113036" lon="19.3635479" version="1" timestamp="2022-07-08T05:54:22Z" changeset="123344083" uid="3497659" user="NKA">
		<tag k="name" v="Kjerkevik" />
		<tag k="place" v="hamlet" />
		<tag k="ssr:stedsnr" v="565816" />
	</node>
	<node id="9873701931" lat="70.1180339" lon="19.1898202" version="1" timestamp="2022-07-08T05:54:22Z" changeset="123344083" uid="3497659" user="NKA">
		<tag k="loc_name:se" v="Ráđigoahti" />
		<tag k="name" v="Rødgammen" />
		<tag k="name:no" v="Rødgammen" />
		<tag k="place" v="hamlet" />
		<tag k="ssr:stedsnr" v="505564" />
	</node>
	<node id="9873701932" lat="69.9278143" lon="19.7637434" version="1" timestamp="2022-07-08T05:54:22Z" changeset="123344083" uid="3497659" user="NKA">
		<tag k="name" v="Dalheim" />
		<tag k="place" v="farm" />
		<tag k="ssr:stedsnr" v="686565" />
	</node>
	<node id="9873701933" lat="70.0117334" lon="19.8624277" version="1" timestamp="2022-07-08T05:54:22Z" changeset="123344083" uid="3497659" user="NKA">
		<tag k="name" v="Andersvik" />
		<tag k="place" v="farm" />
		<tag k="ssr:stedsnr" v="565101" />
	</node>
	<node id="9873701934" lat="70.1145218" lon="19.5756666" version="1" timestamp="2022-07-08T05:54:22Z" changeset="123344083" uid="3497659" user="NKA">
		<tag k="loc_name:se" v="Menášši" />
		<tag k="name" v="Mjønes" />
		<tag k="name:no" v="Mjønes" />
		<tag k="place" v="isolated_dwelling" />
		<tag k="ssr:stedsnr" v="444806" />
	</node>
	<node id="9873701935" lat="70.1303972" lon="19.2112667" version="1" timestamp="2022-07-08T05:54:22Z" changeset="123344083" uid="3497659" user="NKA">
		<tag k="alt_name" v="Breidvik;Breidvika" />
		<tag k="name" v="Breivik" />
		<tag k="place" v="farm" />
		<tag k="ssr:stedsnr" v="383575" />
	</node>
	<node id="9873701936" lat="70.0351111" lon="19.082364" version="1" timestamp="2022-07-08T05:54:22Z" changeset="123344083" uid="3497659" user="NKA">
		<tag k="name" v="Solheim" />
		<tag k="place" v="farm" />
		<tag k="ssr:stedsnr" v="383689" />
	</node>
	<node id="9873701937" lat="69.9872889" lon="19.1398555" version="1" timestamp="2022-07-08T05:54:22Z" changeset="123344083" uid="3497659" user="NKA">
		<tag k="name" v="Tennvasslia" />
		<tag k="place" v="farm" />
		<tag k="ssr:stedsnr" v="322863" />
	</node>
	<node id="9873701938" lat="69.9938084" lon="19.845486" version="1" timestamp="2022-07-08T05:54:22Z" changeset="123344083" uid="3497659" user="NKA">
		<tag k="name" v="Hamna" />
		<tag k="place" v="farm" />
		<tag k="ssr:stedsnr" v="632157" />
	</node>
	<node id="9873701939" lat="69.8915305" lon="19.4785332" version="1" timestamp="2022-07-08T05:54:22Z" changeset="123344083" uid="3497659" user="NKA">
		<tag k="name" v="Hytta" />
		<tag k="place" v="farm" />
		<tag k="ssr:stedsnr" v="505738" />
	</node>
	<node id="9873701940" lat="70.1464916" lon="19.6809444" version="1" timestamp="2022-07-08T05:54:22Z" changeset="123344083" uid="3497659" user="NKA">
		<tag k="name" v="Dalheim" />
		<tag k="place" v="farm" />
		<tag k="ssr:stedsnr" v="354771" />
	</node>
	<node id="9873701941" lat="70.0251667" lon="19.0391527" version="1" timestamp="2022-07-08T05:54:22Z" changeset="123344083" uid="3497659" user="NKA">
		<tag k="alt_name" v="Vedhoggarnes" />
		<tag k="name" v="Stakkenes" />
		<tag k="place" v="farm" />
		<tag k="ssr:stedsnr" v="261664" />
	</node>
	<node id="9873701942" lat="70.163075" lon="19.8016444" version="1" timestamp="2022-07-08T05:54:22Z" changeset="123344083" uid="3497659" user="NKA">
		<tag k="alt_name" v="Gammelgården" />
		<tag k="name" v="Gamlegård" />
		<tag k="place" v="farm" />
		<tag k="ssr:stedsnr" v="505836" />
	</node>
	<node id="9873701943" lat="70.2484776" lon="19.5152408" version="1" timestamp="2022-07-08T05:54:22Z" changeset="123344083" uid="3497659" user="NKA">
		<tag k="name" v="Bergmo" />
		<tag k="place" v="farm" />
		<tag k="ssr:stedsnr" v="353802" />
	</node>
	<node id="9873701944" lat="70.2342527" lon="19.7342557" version="1" timestamp="2022-07-08T05:54:22Z" changeset="123344083" uid="3497659" user="NKA">
		<tag k="name" v="Storbukt" />
		<tag k="place" v="farm" />
		<tag k="ssr:stedsnr" v="505647" />
	</node>
	<node id="9873701945" lat="70.1971403" lon="19.6110859" version="1" timestamp="2022-07-08T05:54:22Z" changeset="123344083" uid="3497659" user="NKA">
		<tag k="name" v="Nyvoll" />
		<tag k="place" v="farm" />
		<tag k="ssr:stedsnr" v="504873" />
	</node>
	<node id="9873701946" lat="69.9719667" lon="19.7253584" version="1" timestamp="2022-07-08T05:54:22Z" changeset="123344083" uid="3497659" user="NKA">
		<tag k="name" v="Fjellheim" />
		<tag k="place" v="farm" />
		<tag k="ssr:stedsnr" v="505569" />
	</node>
	<node id="9873701947" lat="70.0902386" lon="19.7041744" version="1" timestamp="2022-07-08T05:54:22Z" changeset="123344083" uid="3497659" user="NKA">
		<tag k="alt_name" v="Mellomjord" />
		<tag k="name" v="Mellomjorda" />
		<tag k="place" v="farm" />
		<tag k="ssr:stedsnr" v="625782" />
	</node>
	<node id="9873701948" lat="70.1665361" lon="19.0388639" version="1" timestamp="2022-07-08T05:54:22Z" changeset="123344083" uid="3497659" user="NKA">
		<tag k="name" v="Kopparnes" />
		<tag k="place" v="locality" />
		<tag k="ssr:stedsnr" v="80614" />
	</node>
	<node id="9873701949" lat="69.9217611" lon="19.7767833" version="1" timestamp="2022-07-08T05:54:22Z" changeset="123344083" uid="3497659" user="NKA">
		<tag k="name" v="Tjeldsand" />
		<tag k="place" v="farm" />
		<tag k="ssr:stedsnr" v="450144" />
	</node>
	<node id="9873701950" lat="69.9692056" lon="19.6308055" version="1" timestamp="2022-07-08T05:54:22Z" changeset="123344083" uid="3497659" user="NKA">
		<tag k="name" v="Nyborgfeltet" />
		<tag k="place" v="neighbourhood" />
		<tag k="ssr:stedsnr" v="419879" />
	</node>
	<node id="9873701951" lat="70.1942771" lon="19.6167636" version="1" timestamp="2022-07-08T05:54:22Z" changeset="123344083" uid="3497659" user="NKA">
		<tag k="name" v="Korsnes" />
		<tag k="place" v="farm" />
		<tag k="ssr:stedsnr" v="444883" />
	</node>
	<node id="9873701952" lat="69.9563218" lon="19.1854113" version="1" timestamp="2022-07-08T05:54:22Z" changeset="123344083" uid="3497659" user="NKA">
		<tag k="alt_name" v="Elvevollen" />
		<tag k="name" v="Elvevoll" />
		<tag k="place" v="farm" />
		<tag k="ssr:stedsnr" v="201817" />
	</node>
	<node id="9873701953" lat="70.0610475" lon="19.0385308" version="1" timestamp="2022-07-08T05:54:22Z" changeset="123344083" uid="3497659" user="NKA">
		<tag k="alt_name" v="Mikkelvik" />
		<tag k="name" v="Mikkelvika" />
		<tag k="place" v="hamlet" />
		<tag k="ssr:stedsnr" v="201727" />
	</node>
	<node id="9873701954" lat="69.9578194" lon="19.1843722" version="1" timestamp="2022-07-08T05:54:22Z" changeset="123344083" uid="3497659" user="NKA">
		<tag k="name" v="Elvebakken" />
		<tag k="place" v="farm" />
		<tag k="ssr:stedsnr" v="201818" />
	</node>
	<node id="9873701955" lat="70.1582644" lon="19.6735989" version="1" timestamp="2022-07-08T05:54:22Z" changeset="123344083" uid="3497659" user="NKA">
		<tag k="name" v="Myrvoll" />
		<tag k="place" v="farm" />
		<tag k="ssr:stedsnr" v="140832" />
	</node>
	<node id="9873701956" lat="70.1830578" lon="19.6411283" version="1" timestamp="2022-07-08T05:54:22Z" changeset="123344083" uid="3497659" user="NKA">
		<tag k="name" v="Vollan" />
		<tag k="place" v="farm" />
		<tag k="ssr:stedsnr" v="140813" />
	</node>
	<node id="9873701957" lat="70.1849021" lon="19.6316962" version="1" timestamp="2022-07-08T05:54:22Z" changeset="123344083" uid="3497659" user="NKA">
		<tag k="name" v="Kokkevoll" />
		<tag k="place" v="hamlet" />
		<tag k="ssr:stedsnr" v="91848" />
	</node>
	<node id="9873701958" lat="70.2267555" lon="19.5089388" version="1" timestamp="2022-07-08T05:54:22Z" changeset="123344083" uid="3497659" user="NKA">
		<tag k="name" v="Torbeinsund" />
		<tag k="place" v="locality" />
		<tag k="ssr:stedsnr" v="140615" />
	</node>
	<node id="9873701959" lat="70.2060451" lon="19.1553076" version="1" timestamp="2022-07-08T05:54:22Z" changeset="123344083" uid="3497659" user="NKA">
		<tag k="name" v="Sørskaret" />
		<tag k="place" v="farm" />
		<tag k="ssr:stedsnr" v="1077947" />
	</node>
	<node id="9873701960" lat="69.9846527" lon="19.858339" version="1" timestamp="2022-07-08T05:54:22Z" changeset="123344083" uid="3497659" user="NKA">
		<tag k="name" v="Bakketun" />
		<tag k="place" v="farm" />
		<tag k="ssr:stedsnr" v="383659" />
	</node>
	<node id="9873701961" lat="70.2817841" lon="19.188182" version="1" timestamp="2022-07-08T05:54:22Z" changeset="123344083" uid="3497659" user="NKA">
		<tag k="name" v="Flatvær" />
		<tag k="place" v="locality" />
		<tag k="ssr:stedsnr" v="1077950" />
	</node>
	<node id="9873701962" lat="70.254057" lon="19.5514049" version="1" timestamp="2022-07-08T05:54:22Z" changeset="123344083" uid="3497659" user="NKA">
		<tag k="alt_name" v="Salstad" />
		<tag k="name" v="Solstad" />
		<tag k="place" v="isolated_dwelling" />
		<tag k="ssr:stedsnr" v="80404" />
	</node>
	<node id="9873701963" lat="70.2183611" lon="19.5165611" version="1" timestamp="2022-07-08T05:54:22Z" changeset="123344083" uid="3497659" user="NKA">
		<tag k="name" v="Berstad" />
		<tag k="place" v="farm" />
		<tag k="ssr:stedsnr" v="171824" />
	</node>
	<node id="9873701964" lat="70.1646" lon="19.8035" version="1" timestamp="2022-07-08T05:54:22Z" changeset="123344083" uid="3497659" user="NKA">
		<tag k="name" v="Nygård" />
		<tag k="place" v="isolated_dwelling" />
		<tag k="ssr:stedsnr" v="383855" />
	</node>
	<node id="9873701965" lat="69.9739056" lon="19.1205194" version="1" timestamp="2022-07-08T05:54:22Z" changeset="123344083" uid="3497659" user="NKA">
		<tag k="name" v="Myrvang" />
		<tag k="place" v="farm" />
		<tag k="ssr:stedsnr" v="779904" />
	</node>
	<node id="9873701966" lat="70.2438437" lon="19.5137053" version="1" timestamp="2022-07-08T05:54:22Z" changeset="123344083" uid="3497659" user="NKA">
		<tag k="name" v="Brattli" />
		<tag k="place" v="isolated_dwelling" />
		<tag k="ssr:stedsnr" v="171846" />
	</node>
	<node id="9873701967" lat="70.0176861" lon="19.083436" version="1" timestamp="2022-07-08T05:54:22Z" changeset="123344083" uid="3497659" user="NKA">
		<tag k="name" v="Skogseng" />
		<tag k="place" v="farm" />
		<tag k="ssr:stedsnr" v="869691" />
	</node>
	<node id="9873701968" lat="70.0563129" lon="19.78257" version="1" timestamp="2022-07-08T05:54:22Z" changeset="123344083" uid="3497659" user="NKA">
		<tag k="name" v="Kveldro" />
		<tag k="place" v="farm" />
		<tag k="ssr:stedsnr" v="536261" />
	</node>
	<node id="9873701969" lat="70.1239001" lon="19.0798728" version="1" timestamp="2022-07-08T05:54:22Z" changeset="123344083" uid="3497659" user="NKA">
		<tag k="name" v="Tjuvvika" />
		<tag k="place" v="farm" />
		<tag k="ssr:stedsnr" v="869614" />
	</node>
	<node id="9873701970" lat="70.1312445" lon="19.7017522" version="1" timestamp="2022-07-08T05:54:22Z" changeset="123344083" uid="3497659" user="NKA">
		<tag k="alt_name" v="Gamlegården" />
		<tag k="name" v="Gammelgård" />
		<tag k="place" v="farm" />
		<tag k="ssr:stedsnr" v="261762" />
	</node>
	<node id="9873701971" lat="69.9804528" lon="19.8664945" version="1" timestamp="2022-07-08T05:54:22Z" changeset="123344083" uid="3497659" user="NKA">
		<tag k="name" v="Elvevoll" />
		<tag k="place" v="farm" />
		<tag k="ssr:stedsnr" v="329472" />
	</node>
	<node id="9873701972" lat="69.9457056" lon="19.6459888" version="1" timestamp="2022-07-08T05:54:22Z" changeset="123344083" uid="3497659" user="NKA">
		<tag k="name" v="Skoglund" />
		<tag k="place" v="isolated_dwelling" />
		<tag k="ssr:stedsnr" v="929524" />
	</node>
	<node id="9873701973" lat="70.0796934" lon="19.7087223" version="1" timestamp="2022-07-08T05:54:22Z" changeset="123344083" uid="3497659" user="NKA">
		<tag k="name" v="Flåten" />
		<tag k="place" v="locality" />
		<tag k="ssr:stedsnr" v="354325" />
	</node>
	<node id="9873701974" lat="70.0839639" lon="19.9999223" version="1" timestamp="2022-07-08T05:54:22Z" changeset="123344083" uid="3497659" user="NKA">
		<tag k="name" v="Nordre Vannvåg" />
		<tag k="place" v="neighbourhood" />
		<tag k="ssr:stedsnr" v="358882" />
	</node>
	<node id="9873701975" lat="70.0357605" lon="19.0783508" version="1" timestamp="2022-07-08T05:54:22Z" changeset="123344083" uid="3497659" user="NKA">
		<tag k="name" v="Sjåberg" />
		<tag k="place" v="isolated_dwelling" />
		<tag k="ssr:stedsnr" v="653221" />
	</node>
	<node id="9873701976" lat="69.97585" lon="19.662186" version="1" timestamp="2022-07-08T05:54:22Z" changeset="123344083" uid="3497659" user="NKA">
		<tag k="name" v="Godthåp" />
		<tag k="place" v="farm" />
		<tag k="ssr:stedsnr" v="747602" />
	</node>
	<node id="9873701977" lat="69.9811719" lon="19.6661092" version="1" timestamp="2022-07-08T05:54:22Z" changeset="123344083" uid="3497659" user="NKA">
		<tag k="name" v="Sirivoll" />
		<tag k="place" v="farm" />
		<tag k="ssr:stedsnr" v="505585" />
	</node>
	<node id="9873701978" lat="69.9721055" lon="19.1268584" version="1" timestamp="2022-07-08T05:54:22Z" changeset="123344083" uid="3497659" user="NKA">
		<tag k="name" v="Løvmo" />
		<tag k="place" v="farm" />
		<tag k="ssr:stedsnr" v="840987" />
	</node>
	<node id="9873701979" lat="69.9531778" lon="19.6672639" version="1" timestamp="2022-07-08T05:54:22Z" changeset="123344083" uid="3497659" user="NKA">
		<tag k="name" v="Solbakken" />
		<tag k="place" v="farm" />
		<tag k="ssr:stedsnr" v="262597" />
	</node>
	<node id="9873701980" lat="70.0562769" lon="19.0369089" version="1" timestamp="2022-07-08T05:54:22Z" changeset="123344083" uid="3497659" user="NKA">
		<tag k="alt_name" v="Mariagård" />
		<tag k="name" v="Mariagården" />
		<tag k="place" v="farm" />
		<tag k="ssr:stedsnr" v="565730" />
	</node>
	<node id="9873701981" lat="69.9123333" lon="19.4812501" version="1" timestamp="2022-07-08T05:54:22Z" changeset="123344083" uid="3497659" user="NKA">
		<tag k="name" v="Sandmo" />
		<tag k="place" v="farm" />
		<tag k="ssr:stedsnr" v="262528" />
	</node>
	<node id="9873701982" lat="69.9340684" lon="19.6096859" version="1" timestamp="2022-07-08T05:54:22Z" changeset="123344083" uid="3497659" user="NKA">
		<tag k="name" v="Vollan" />
		<tag k="place" v="farm" />
		<tag k="ssr:stedsnr" v="322537" />
	</node>
	<node id="9873701983" lat="70.1615716" lon="19.2261103" version="1" timestamp="2022-07-08T05:54:22Z" changeset="123344083" uid="3497659" user="NKA">
		<tag k="alt_name" v="Skjervik" />
		<tag k="loc_name" v="Skjærvika" />
		<tag k="name" v="Skjærvik" />
		<tag k="place" v="farm" />
		<tag k="ssr:stedsnr" v="504807" />
	</node>
	<node id="9873701984" lat="69.9753278" lon="19.1257861" version="1" timestamp="2022-07-08T05:54:22Z" changeset="123344083" uid="3497659" user="NKA">
		<tag k="name" v="Luneng" />
		<tag k="place" v="farm" />
		<tag k="ssr:stedsnr" v="625865" />
	</node>
	<node id="9873701985" lat="69.9997207" lon="19.8317705" version="1" timestamp="2022-07-08T05:54:22Z" changeset="123344083" uid="3497659" user="NKA">
		<tag k="name" v="Storvollen" />
		<tag k="place" v="farm" />
		<tag k="ssr:stedsnr" v="201602" />
	</node>
	<node id="9873701986" lat="69.9501" lon="19.6571834" version="1" timestamp="2022-07-08T05:54:22Z" changeset="123344083" uid="3497659" user="NKA">
		<tag k="name" v="Finnby" />
		<tag k="place" v="farm" />
		<tag k="ssr:stedsnr" v="202617" />
	</node>
	<node id="9873701987" lat="69.9583528" lon="19.591164" version="1" timestamp="2022-07-08T05:54:22Z" changeset="123344083" uid="3497659" user="NKA">
		<tag k="name" v="Futnes" />
		<tag k="place" v="farm" />
		<tag k="ssr:stedsnr" v="626610" />
	</node>
	<node id="9873701988" lat="70.0502952" lon="19.9126269" version="1" timestamp="2022-07-08T05:54:22Z" changeset="123344083" uid="3497659" user="NKA">
		<tag k="name" v="Kjeglen" />
		<tag k="place" v="farm" />
		<tag k="ssr:stedsnr" v="201060" />
	</node>
	<node id="9873701989" lat="69.9401467" lon="19.6316959" version="1" timestamp="2022-07-08T05:54:22Z" changeset="123344083" uid="3497659" user="NKA">
		<tag k="alt_name" v="Reinskard" />
		<tag k="name" v="Reinskaret" />
		<tag k="place" v="hamlet" />
		<tag k="ssr:stedsnr" v="564550" />
	</node>
	<node id="9873701990" lat="70.0909024" lon="19.7095092" version="1" timestamp="2022-07-08T05:54:22Z" changeset="123344083" uid="3497659" user="NKA">
		<tag k="alt_name" v="Hamre, indre" />
		<tag k="name" v="Indre Hamre" />
		<tag k="place" v="farm" />
		<tag k="ssr:stedsnr" v="152205" />
	</node>
	<node id="9873701991" lat="69.9596639" lon="19.1769139" version="1" timestamp="2022-07-08T05:54:22Z" changeset="123344083" uid="3497659" user="NKA">
		<tag k="name" v="Solvang" />
		<tag k="place" v="farm" />
		<tag k="ssr:stedsnr" v="536935" />
	</node>
	<node id="9873701992" lat="69.9719639" lon="19.1320277" version="1" timestamp="2022-07-08T05:54:22Z" changeset="123344083" uid="3497659" user="NKA">
		<tag k="name" v="Solli" />
		<tag k="place" v="farm" />
		<tag k="ssr:stedsnr" v="536988" />
	</node>
	<node id="9873701993" lat="69.9641445" lon="19.6218556" version="1" timestamp="2022-07-08T05:54:22Z" changeset="123344083" uid="3497659" user="NKA">
		<tag k="name" v="Slettmo" />
		<tag k="place" v="farm" />
		<tag k="ssr:stedsnr" v="383606" />
	</node>
	<node id="9873701994" lat="69.9601869" lon="19.5984789" version="1" timestamp="2022-07-08T05:54:22Z" changeset="123344083" uid="3497659" user="NKA">
		<tag k="alt_name" v="Grågard" />
		<tag k="name" v="Grågård" />
		<tag k="place" v="farm" />
		<tag k="ssr:stedsnr" v="323603" />
	</node>
	<node id="9873701995" lat="70.0030271" lon="19.9117943" version="1" timestamp="2022-07-08T05:54:22Z" changeset="123344083" uid="3497659" user="NKA">
		<tag k="name" v="Bjørkely" />
		<tag k="place" v="isolated_dwelling" />
		<tag k="ssr:stedsnr" v="111387" />
	</node>
	<node id="9873701996" lat="70.1327929" lon="19.6919745" version="1" timestamp="2022-07-08T05:54:22Z" changeset="123344083" uid="3497659" user="NKA">
		<tag k="name" v="Strande" />
		<tag k="place" v="locality" />
		<tag k="ssr:stedsnr" v="261758" />
	</node>
	<node id="9873701997" lat="70.0016955" lon="19.9163148" version="1" timestamp="2022-07-08T05:54:22Z" changeset="123344083" uid="3497659" user="NKA">
		<tag k="name" v="Åsheim" />
		<tag k="place" v="isolated_dwelling" />
		<tag k="ssr:stedsnr" v="172440" />
	</node>
	<node id="9873701998" lat="70.1053615" lon="19.7184445" version="1" timestamp="2022-07-08T05:54:22Z" changeset="123344083" uid="3497659" user="NKA">
		<tag k="name" v="Kvalvåg" />
		<tag k="place" v="farm" />
		<tag k="ssr:stedsnr" v="140750" />
	</node>
	<node id="9873701999" lat="70.0860028" lon="20.0352527" version="1" timestamp="2022-07-08T05:54:22Z" changeset="123344083" uid="3497659" user="NKA">
		<tag k="name" v="Nymoen" />
		<tag k="place" v="farm" />
		<tag k="ssr:stedsnr" v="261077" />
	</node>
	<node id="9873702000" lat="69.8578189" lon="19.649956" version="1" timestamp="2022-07-08T05:54:22Z" changeset="123344083" uid="3497659" user="NKA">
		<tag k="name" v="Vollstad" />
		<tag k="place" v="farm" />
		<tag k="ssr:stedsnr" v="231989" />
	</node>
	<node id="9873702001" lat="70.0789639" lon="19.9960139" version="1" timestamp="2022-07-08T05:54:22Z" changeset="123344083" uid="3497659" user="NKA">
		<tag k="name" v="Munkevika" />
		<tag k="place" v="farm" />
		<tag k="ssr:stedsnr" v="140084" />
	</node>
	<node id="9873702002" lat="69.9620016" lon="19.610406" version="1" timestamp="2022-07-08T05:54:22Z" changeset="123344083" uid="3497659" user="NKA">
		<tag k="name" v="Kardemommeby" />
		<tag k="place" v="neighbourhood" />
		<tag k="ssr:stedsnr" v="172254" />
	</node>
	<node id="9873702003" lat="69.9146618" lon="19.5158821" version="1" timestamp="2022-07-08T05:54:22Z" changeset="123344083" uid="3497659" user="NKA">
		<tag k="name" v="Dyrstad" />
		<tag k="place" v="farm" />
		<tag k="ssr:stedsnr" v="322511" />
	</node>
	<node id="9873702004" lat="70.0862584" lon="19.9988278" version="1" timestamp="2022-07-08T05:54:22Z" changeset="123344083" uid="3497659" user="NKA">
		<tag k="name" v="Fredheim" />
		<tag k="place" v="farm" />
		<tag k="ssr:stedsnr" v="79094" />
	</node>
	<node id="9873702005" lat="69.8943305" lon="19.4420861" version="1" timestamp="2022-07-08T05:54:22Z" changeset="123344083" uid="3497659" user="NKA">
		<tag k="name" v="Nymoen" />
		<tag k="place" v="farm" />
		<tag k="ssr:stedsnr" v="262540" />
	</node>
	<node id="9873702006" lat="69.946875" lon="19.650086" version="1" timestamp="2022-07-08T05:54:22Z" changeset="123344083" uid="3497659" user="NKA">
		<tag k="name" v="Bakketun" />
		<tag k="place" v="farm" />
		<tag k="ssr:stedsnr" v="140517" />
	</node>
	<node id="9873702007" lat="69.8739799" lon="19.7502418" version="1" timestamp="2022-07-08T05:54:22Z" changeset="123344083" uid="3497659" user="NKA">
		<tag k="name" v="Flathaug" />
		<tag k="place" v="isolated_dwelling" />
		<tag k="ssr:stedsnr" v="323741" />
	</node>
	<node id="9873702008" lat="69.9231944" lon="19.537275" version="1" timestamp="2022-07-08T05:54:22Z" changeset="123344083" uid="3497659" user="NKA">
		<tag k="name" v="Karielv" />
		<tag k="place" v="farm" />
		<tag k="ssr:stedsnr" v="929529" />
	</node>
	<node id="9873702009" lat="69.9849417" lon="19.6691888" version="1" timestamp="2022-07-08T05:54:22Z" changeset="123344083" uid="3497659" user="NKA">
		<tag k="name" v="Brakke" />
		<tag k="place" v="isolated_dwelling" />
		<tag k="ssr:stedsnr" v="19588" />
	</node>
	<node id="9873702010" lat="69.857348" lon="19.7143091" version="1" timestamp="2022-07-08T05:54:22Z" changeset="123344083" uid="3497659" user="NKA">
		<tag k="name" v="Grøtnes" />
		<tag k="place" v="farm" />
		<tag k="ssr:stedsnr" v="1077971" />
	</node>
	<node id="9873702011" lat="69.9711111" lon="19.639775" version="1" timestamp="2022-07-08T05:54:22Z" changeset="123344083" uid="3497659" user="NKA">
		<tag k="alt_name" v="Nordgård" />
		<tag k="name" v="Nordgard" />
		<tag k="place" v="farm" />
		<tag k="ssr:stedsnr" v="19541" />
	</node>
	<node id="9873702012" lat="70.003289" lon="19.8947764" version="1" timestamp="2022-07-08T05:54:22Z" changeset="123344083" uid="3497659" user="NKA">
		<tag k="alt_name:no" v="Kalsø Præstegård" />
		<tag k="loc_name:no" v="Karlsøya prestegård" />
		<tag k="name" v="Karlsøy prestegård - Gálsá" />
		<tag k="name:no" v="Karlsøy prestegård" />
		<tag k="name:se" v="Gálsá" />
		<tag k="place" v="farm" />
		<tag k="ssr:stedsnr" v="984357" />
	</node>
	<node id="9873702013" lat="70.0037333" lon="19.8816999" version="1" timestamp="2022-07-08T05:54:22Z" changeset="123344083" uid="3497659" user="NKA">
		<tag k="name" v="Hellenes" />
		<tag k="place" v="farm" />
		<tag k="ssr:stedsnr" v="929114" />
	</node>
	<node id="9873702014" lat="70.0094661" lon="19.8948377" version="1" timestamp="2022-07-08T05:54:22Z" changeset="123344083" uid="3497659" user="NKA">
		<tag k="name" v="Myrvang" />
		<tag k="place" v="farm" />
		<tag k="ssr:stedsnr" v="19109" />
	</node>
	<node id="9873702015" lat="69.9786139" lon="19.66115" version="1" timestamp="2022-07-08T05:54:22Z" changeset="123344083" uid="3497659" user="NKA">
		<tag k="name" v="Skyttarbu" />
		<tag k="place" v="isolated_dwelling" />
		<tag k="ssr:stedsnr" v="504618" />
	</node>
	<node id="9873702016" lat="70.1905806" lon="19.6221723" version="1" timestamp="2022-07-08T05:54:22Z" changeset="123344083" uid="3497659" user="NKA">
		<tag k="name" v="Korsnesberget" />
		<tag k="place" v="farm" />
		<tag k="ssr:stedsnr" v="444876" />
	</node>
	<node id="9873702017" lat="69.8531169" lon="19.6244713" version="1" timestamp="2022-07-08T05:54:22Z" changeset="123344083" uid="3497659" user="NKA">
		<tag k="name" v="Bjørkeng" />
		<tag k="place" v="farm" />
		<tag k="ssr:stedsnr" v="899997" />
	</node>
	<node id="9873702018" lat="70.1575972" lon="19.9893058" version="1" timestamp="2022-07-08T05:54:22Z" changeset="123344083" uid="3497659" user="NKA">
		<tag k="alt_name" v="Reinvika" />
		<tag k="name" v="Reinvik" />
		<tag k="place" v="farm" />
		<tag k="ssr:stedsnr" v="819996" />
	</node>
	<node id="9873702019" lat="70.0098277" lon="19.5727694" version="1" timestamp="2022-07-08T05:54:22Z" changeset="123344083" uid="3497659" user="NKA">
		<tag k="name" v="Grøtvoll" />
		<tag k="place" v="farm" />
		<tag k="ssr:stedsnr" v="329142" />
	</node>
	<node id="9873702020" lat="70.1876851" lon="19.6265831" version="1" timestamp="2022-07-08T05:54:22Z" changeset="123344083" uid="3497659" user="NKA">
		<tag k="name" v="Fjellmo" />
		<tag k="place" v="farm" />
		<tag k="ssr:stedsnr" v="322861" />
	</node>
	<node id="9873702021" lat="70.1012201" lon="18.847293" version="1" timestamp="2022-07-08T05:54:22Z" changeset="123344083" uid="3497659" user="NKA">
		<tag k="name" v="Holmsletta" />
		<tag k="place" v="locality" />
		<tag k="ssr:stedsnr" v="592300" />
	</node>
	<node id="9873702022" lat="70.0121778" lon="19.5736778" version="1" timestamp="2022-07-08T05:54:22Z" changeset="123344083" uid="3497659" user="NKA">
		<tag k="name" v="Myre" />
		<tag k="place" v="farm" />
		<tag k="ssr:stedsnr" v="261933" />
	</node>
	<node id="9873702023" lat="70.0388966" lon="19.2723609" version="1" timestamp="2022-07-08T05:54:22Z" changeset="123344083" uid="3497659" user="NKA">
		<tag k="name" v="Vassbotn" />
		<tag k="place" v="farm" />
		<tag k="ssr:stedsnr" v="505961" />
	</node>
	<node id="9873702024" lat="70.08275" lon="18.7238639" version="1" timestamp="2022-07-08T05:54:22Z" changeset="123344083" uid="3497659" user="NKA">
		<tag k="name" v="Breivika" />
		<tag k="place" v="locality" />
		<tag k="ssr:stedsnr" v="686534" />
	</node>
	<node id="9873702025" lat="70.0409305" lon="18.81975" version="1" timestamp="2022-07-08T05:54:22Z" changeset="123344083" uid="3497659" user="NKA">
		<tag k="name" v="Nyheim" />
		<tag k="place" v="farm" />
		<tag k="ssr:stedsnr" v="687721" />
	</node>
	<node id="9873702026" lat="70.083875" lon="19.1612861" version="1" timestamp="2022-07-08T05:54:22Z" changeset="123344083" uid="3497659" user="NKA">
		<tag k="name" v="Nordheim" />
		<tag k="place" v="locality" />
		<tag k="ssr:stedsnr" v="504517" />
	</node>
	<node id="9873702027" lat="69.993569" lon="19.5605907" version="1" timestamp="2022-07-08T05:54:22Z" changeset="123344083" uid="3497659" user="NKA">
		<tag k="name" v="Solvang" />
		<tag k="place" v="farm" />
		<tag k="ssr:stedsnr" v="50016" />
	</node>
	<node id="9873702028" lat="69.8592954" lon="19.6578821" version="1" timestamp="2022-07-08T05:54:22Z" changeset="123344083" uid="3497659" user="NKA">
		<tag k="name" v="Molund" />
		<tag k="place" v="isolated_dwelling" />
		<tag k="ssr:stedsnr" v="49994" />
	</node>
	<node id="9873702029" lat="69.9581694" lon="19.8502028" version="1" timestamp="2022-07-08T05:54:22Z" changeset="123344083" uid="3497659" user="NKA">
		<tag k="name" v="Mellomvollen" />
		<tag k="place" v="farm" />
		<tag k="ssr:stedsnr" v="687660" />
	</node>
	<node id="9873702030" lat="70.1580576" lon="19.7755071" version="1" timestamp="2022-07-08T05:54:22Z" changeset="123344083" uid="3497659" user="NKA">
		<tag k="alt_name" v="Røyrnes" />
		<tag k="name" v="Rørnes" />
		<tag k="place" v="locality" />
		<tag k="ssr:stedsnr" v="505834" />
	</node>
	<node id="9873702031" lat="70.0193194" lon="19.5901749" version="1" timestamp="2022-07-08T05:54:22Z" changeset="123344083" uid="3497659" user="NKA">
		<tag k="loc_name:se" v="Ábivuotna" />
		<tag k="name" v="Grunnfjord" />
		<tag k="name:no" v="Grunnfjord" />
		<tag k="place" v="farm" />
		<tag k="ssr:stedsnr" v="929951" />
	</node>
	<node id="9873702032" lat="69.9679334" lon="19.6272445" version="1" timestamp="2022-07-08T05:54:22Z" changeset="123344083" uid="3497659" user="NKA">
		<tag k="name" v="Toften" />
		<tag k="place" v="neighbourhood" />
		<tag k="ssr:stedsnr" v="201538" />
	</node>
	<node id="9873702033" lat="70.0503472" lon="18.9285307" version="1" timestamp="2022-07-08T05:54:22Z" changeset="123344083" uid="3497659" user="NKA">
		<tag k="name" v="Toften" />
		<tag k="place" v="farm" />
		<tag k="ssr:stedsnr" v="505743" />
	</node>
	<node id="9873702034" lat="69.9725278" lon="19.6447249" version="1" timestamp="2022-07-08T05:54:22Z" changeset="123344083" uid="3497659" user="NKA">
		<tag k="name" v="Nordby" />
		<tag k="place" v="farm" />
		<tag k="ssr:stedsnr" v="201540" />
	</node>
	<node id="9873702035" lat="70.0383334" lon="19.5392139" version="1" timestamp="2022-07-08T05:54:22Z" changeset="123344083" uid="3497659" user="NKA">
		<tag k="name" v="Bergly" />
		<tag k="place" v="farm" />
		<tag k="ssr:stedsnr" v="323994" />
	</node>
	<node id="9873702036" lat="69.9924818" lon="19.5638679" version="1" timestamp="2022-07-08T05:54:22Z" changeset="123344083" uid="3497659" user="NKA">
		<tag k="alt_name" v="Nordre Grunnfjord" />
		<tag k="name" v="Nordre Grunnfjorden" />
		<tag k="place" v="farm" />
		<tag k="ssr:stedsnr" v="1077938" />
	</node>
	<node id="9873702037" lat="70.1447117" lon="19.9906192" version="1" timestamp="2022-07-08T05:54:22Z" changeset="123344083" uid="3497659" user="NKA">
		<tag k="name" v="Nordsanden" />
		<tag k="place" v="isolated_dwelling" />
		<tag k="ssr:stedsnr" v="444932" />
	</node>
	<node id="9873702038" lat="70.1868611" lon="19.6280165" version="1" timestamp="2022-07-08T05:54:22Z" changeset="123344083" uid="3497659" user="NKA">
		<tag k="name" v="Nordheim" />
		<tag k="place" v="farm" />
		<tag k="ssr:stedsnr" v="869839" />
	</node>
	<node id="9873702039" lat="70.1214332" lon="19.0037232" version="1" timestamp="2022-07-08T05:54:22Z" changeset="123344083" uid="3497659" user="NKA">
		<tag k="name" v="Skogheim" />
		<tag k="place" v="farm" />
		<tag k="ssr:stedsnr" v="505561" />
	</node>
	<node id="9873702040" lat="69.8802556" lon="19.7539307" version="1" timestamp="2022-07-08T05:54:22Z" changeset="123344083" uid="3497659" user="NKA">
		<tag k="name" v="Skavberg" />
		<tag k="place" v="locality" />
		<tag k="ssr:stedsnr" v="323728" />
	</node>
	<node id="9873702041" lat="70.100799" lon="20.1076916" version="1" timestamp="2022-07-08T05:54:22Z" changeset="123344083" uid="3497659" user="NKA">
		<tag k="name" v="Fakkekeila" />
		<tag k="place" v="hamlet" />
		<tag k="ssr:stedsnr" v="208513" />
	</node>
	<node id="9873702042" lat="69.9740256" lon="19.7273275" version="1" timestamp="2022-07-08T05:54:22Z" changeset="123344083" uid="3497659" user="NKA">
		<tag k="name" v="Skog" />
		<tag k="place" v="farm" />
		<tag k="ssr:stedsnr" v="323574" />
	</node>
	<node id="9873702043" lat="69.9827711" lon="19.5375145" version="1" timestamp="2022-07-08T05:54:22Z" changeset="123344083" uid="3497659" user="NKA">
		<tag k="name" v="Uteng" />
		<tag k="place" v="farm" />
		<tag k="ssr:stedsnr" v="718206" />
	</node>
	<node id="9873702044" lat="70.0903628" lon="20.0643128" version="1" timestamp="2022-07-08T05:54:22Z" changeset="123344083" uid="3497659" user="NKA">
		<tag k="name" v="Gjerdet" />
		<tag k="place" v="hamlet" />
		<tag k="ssr:stedsnr" v="625086" />
	</node>
	<node id="9873702045" lat="69.9585611" lon="19.5713584" version="1" timestamp="2022-07-08T05:54:22Z" changeset="123344083" uid="3497659" user="NKA">
		<tag k="alt_name" v="Steinvollen" />
		<tag k="name" v="Steinvoll" />
		<tag k="place" v="farm" />
		<tag k="ssr:stedsnr" v="80585" />
	</node>
	<node id="9873702046" lat="70.0666838" lon="18.8192366" version="1" timestamp="2022-07-08T05:54:22Z" changeset="123344083" uid="3497659" user="NKA">
		<tag k="name" v="Toftejord" />
		<tag k="place" v="locality" />
		<tag k="ssr:stedsnr" v="1077942" />
	</node>
	<node id="9873702047" lat="70.101006" lon="18.5061888" version="1" timestamp="2022-07-08T05:54:22Z" changeset="123344083" uid="3497659" user="NKA">
		<tag k="name" v="Hattøy" />
		<tag k="place" v="locality" />
		<tag k="ssr:stedsnr" v="1077944" />
	</node>
	<node id="9873702048" lat="69.8488778" lon="19.5365083" version="1" timestamp="2022-07-08T05:54:22Z" changeset="123344083" uid="3497659" user="NKA">
		<tag k="name" v="Sæterelv" />
		<tag k="place" v="farm" />
		<tag k="ssr:stedsnr" v="564682" />
	</node>
	<node id="9873702049" lat="70.0453528" lon="18.8928221" version="1" timestamp="2022-07-08T05:54:22Z" changeset="123344083" uid="3497659" user="NKA">
		<tag k="alt_name:no" v="Varvik" />
		<tag k="loc_name:se" v="Várluokta" />
		<tag k="name" v="Nordvardvika" />
		<tag k="name:no" v="Nordvardvika" />
		<tag k="place" v="farm" />
		<tag k="ssr:stedsnr" v="808704" />
	</node>
	<node id="9873702050" lat="70.0810056" lon="19.1576335" version="1" timestamp="2022-07-08T05:54:22Z" changeset="123344083" uid="3497659" user="NKA">
		<tag k="name" v="Kveldssol" />
		<tag k="place" v="farm" />
		<tag k="ssr:stedsnr" v="747493" />
	</node>
	<node id="9873702051" lat="70.0241309" lon="19.0894161" version="1" timestamp="2022-07-08T05:54:22Z" changeset="123344083" uid="3497659" user="NKA">
		<tag k="name" v="Nyvoll" />
		<tag k="place" v="farm" />
		<tag k="ssr:stedsnr" v="808665" />
	</node>
	<node id="9873702052" lat="70.0893028" lon="18.8629639" version="1" timestamp="2022-07-08T05:54:22Z" changeset="123344083" uid="3497659" user="NKA">
		<tag k="name" v="Godstrand" />
		<tag k="place" v="farm" />
		<tag k="ssr:stedsnr" v="868517" />
	</node>
	<node id="9873702053" lat="69.934575" lon="19.5914888" version="1" timestamp="2022-07-08T05:54:22Z" changeset="123344083" uid="3497659" user="NKA">
		<tag k="name" v="Sandnes" />
		<tag k="place" v="farm" />
		<tag k="ssr:stedsnr" v="564545" />
	</node>
	<node id="9873702054" lat="69.9689511" lon="19.1411285" version="1" timestamp="2022-07-08T05:54:22Z" changeset="123344083" uid="3497659" user="NKA">
		<tag k="name" v="Steinsund" />
		<tag k="place" v="hamlet" />
		<tag k="ssr:stedsnr" v="80867" />
	</node>
	<node id="9873702055" lat="70.0149722" lon="19.5784807" version="1" timestamp="2022-07-08T05:54:22Z" changeset="123344083" uid="3497659" user="NKA">
		<tag k="name" v="Stakken" />
		<tag k="place" v="farm" />
		<tag k="ssr:stedsnr" v="632159" />
	</node>
	<node id="9873702056" lat="69.8583001" lon="19.6536622" version="1" timestamp="2022-07-08T05:54:22Z" changeset="123344083" uid="3497659" user="NKA">
		<tag k="name" v="Grøtnesdalen" />
		<tag k="place" v="hamlet" />
		<tag k="ssr:stedsnr" v="625702" />
	</node>
	<node id="9873702057" lat="70.0162167" lon="19.5826167" version="1" timestamp="2022-07-08T05:54:22Z" changeset="123344083" uid="3497659" user="NKA">
		<tag k="name" v="Haug" />
		<tag k="place" v="farm" />
		<tag k="ssr:stedsnr" v="625949" />
	</node>
	<node id="9873702058" lat="70.0075998" lon="19.8866212" version="1" timestamp="2022-07-08T05:54:22Z" changeset="123344083" uid="3497659" user="NKA">
		<tag k="name" v="Liland" />
		<tag k="place" v="farm" />
		<tag k="ssr:stedsnr" v="929110" />
	</node>
	<node id="9873702059" lat="70.2275971" lon="19.7288346" version="1" timestamp="2022-07-08T05:54:22Z" changeset="123344083" uid="3497659" user="NKA">
		<tag k="loc_name:se" v="Burinuorri" />
		<tag k="name" v="Burøysund" />
		<tag k="name:no" v="Burøysund" />
		<tag k="place" v="hamlet" />
		<tag k="ssr:stedsnr" v="930869" />
	</node>
	<node id="9873702060" lat="69.8578034" lon="19.6532393" version="1" timestamp="2022-07-08T05:54:22Z" changeset="123344083" uid="3497659" user="NKA">
		<tag k="name" v="Elveør" />
		<tag k="place" v="farm" />
		<tag k="ssr:stedsnr" v="413996" />
	</node>
	<node id="9873702061" lat="70.0115167" lon="18.8390083" version="1" timestamp="2022-07-08T05:54:22Z" changeset="123344083" uid="3497659" user="NKA">
		<tag k="name" v="Solstrand" />
		<tag k="place" v="farm" />
		<tag k="ssr:stedsnr" v="625652" />
	</node>
	<node id="9873702062" lat="70.0159361" lon="19.0628945" version="1" timestamp="2022-07-08T05:54:22Z" changeset="123344083" uid="3497659" user="NKA">
		<tag k="name" v="Ånes" />
		<tag k="place" v="farm" />
		<tag k="ssr:stedsnr" v="444656" />
	</node>
	<node id="9873702063" lat="70.0094806" lon="18.8163001" version="1" timestamp="2022-07-08T05:54:22Z" changeset="123344083" uid="3497659" user="NKA">
		<tag k="name" v="Rydningen" />
		<tag k="place" v="farm" />
		<tag k="ssr:stedsnr" v="625651" />
	</node>
	<node id="9873702064" lat="70.1546083" lon="20.1679756" version="1" timestamp="2022-07-08T05:54:22Z" changeset="123344083" uid="3497659" user="NKA">
		<tag k="name" v="Spenna" />
		<tag k="place" v="farm" />
		<tag k="ssr:stedsnr" v="1077964" />
	</node>
	<node id="9873702065" lat="70.0541915" lon="19.8631842" version="1" timestamp="2022-07-08T05:54:22Z" changeset="123344083" uid="3497659" user="NKA">
		<tag k="name" v="Skåningen" />
		<tag k="place" v="farm" />
		<tag k="ssr:stedsnr" v="929065" />
	</node>
	<node id="9873702066" lat="70.044425" lon="18.874286" version="1" timestamp="2022-07-08T05:54:22Z" changeset="123344083" uid="3497659" user="NKA">
		<tag k="alt_name:no" v="Varvik" />
		<tag k="loc_name:se" v="Várluokta" />
		<tag k="name" v="Sørvardvika" />
		<tag k="name:no" v="Sørvardvika" />
		<tag k="place" v="farm" />
		<tag k="ssr:stedsnr" v="140702" />
	</node>
	<node id="9873702067" lat="70.0121755" lon="18.8389777" version="1" timestamp="2022-07-08T05:54:22Z" changeset="123344083" uid="3497659" user="NKA">
		<tag k="name" v="Bokkalar" />
		<tag k="place" v="isolated_dwelling" />
		<tag k="ssr:stedsnr" v="228609" />
	</node>
	<node id="9873702068" lat="69.9491" lon="19.4962972" version="1" timestamp="2022-07-08T05:54:22Z" changeset="123344083" uid="3497659" user="NKA">
		<tag k="name" v="Skognes" />
		<tag k="place" v="farm" />
		<tag k="ssr:stedsnr" v="930614" />
	</node>
	<node id="9873702069" lat="69.9543055" lon="19.6738804" version="1" timestamp="2022-07-08T05:54:22Z" changeset="123344083" uid="3497659" user="NKA">
		<tag k="name" v="Bjørnes" />
		<tag k="place" v="farm" />
		<tag k="ssr:stedsnr" v="444570" />
	</node>
	<node id="9873702070" lat="70.0443056" lon="18.8491056" version="1" timestamp="2022-07-08T05:54:22Z" changeset="123344083" uid="3497659" user="NKA">
		<tag k="name" v="Grønslett" />
		<tag k="place" v="farm" />
		<tag k="ssr:stedsnr" v="19707" />
	</node>
	<node id="9873702071" lat="70.1188128" lon="20.0188898" version="1" timestamp="2022-07-08T05:54:22Z" changeset="123344083" uid="3497659" user="NKA">
		<tag k="name" v="Sandvik" />
		<tag k="place" v="farm" />
		<tag k="ssr:stedsnr" v="383889" />
	</node>
	<node id="9873702072" lat="69.8352167" lon="19.4247751" version="1" timestamp="2022-07-08T05:54:22Z" changeset="123344083" uid="3497659" user="NKA">
		<tag k="name" v="Fjellheim" />
		<tag k="place" v="farm" />
		<tag k="ssr:stedsnr" v="898114" />
	</node>
	<node id="9873702073" lat="70.1948389" lon="19.8273333" version="1" timestamp="2022-07-08T05:54:22Z" changeset="123344083" uid="3497659" user="NKA">
		<tag k="name" v="Rotengen" />
		<tag k="place" v="locality" />
		<tag k="ssr:stedsnr" v="262970" />
	</node>
	<node id="9873702074" lat="70.0156473" lon="19.5789916" version="1" timestamp="2022-07-08T05:54:22Z" changeset="123344083" uid="3497659" user="NKA">
		<tag k="name" v="Vang" />
		<tag k="place" v="farm" />
		<tag k="ssr:stedsnr" v="261926" />
	</node>
	<node id="9873702075" lat="70.0538861" lon="19.035" version="1" timestamp="2022-07-08T05:54:22Z" changeset="123344083" uid="3497659" user="NKA">
		<tag k="name" v="Nyvoll" />
		<tag k="place" v="isolated_dwelling" />
		<tag k="ssr:stedsnr" v="262749" />
	</node>
	<node id="9873702076" lat="69.9594612" lon="19.1819638" version="1" timestamp="2022-07-08T05:54:22Z" changeset="123344083" uid="3497659" user="NKA">
		<tag k="name" v="Fosse" />
		<tag k="place" v="farm" />
		<tag k="ssr:stedsnr" v="747840" />
	</node>
	<node id="9873702077" lat="69.9194444" lon="19.7725527" version="1" timestamp="2022-07-08T05:54:22Z" changeset="123344083" uid="3497659" user="NKA">
		<tag k="name" v="Bjørkli" />
		<tag k="place" v="farm" />
		<tag k="ssr:stedsnr" v="808482" />
	</node>
	<node id="9873702078" lat="70.1437803" lon="19.0245835" version="1" timestamp="2022-07-08T05:54:22Z" changeset="123344083" uid="3497659" user="NKA">
		<tag k="loc_name:se" v="Guohcaluokta" />
		<tag k="name" v="Rotvika" />
		<tag k="name:no" v="Rotvika" />
		<tag k="place" v="farm" />
		<tag k="ssr:stedsnr" v="444574" />
	</node>
	<node id="9873702079" lat="69.9631901" lon="19.620743" version="1" timestamp="2022-07-08T05:54:22Z" changeset="123344083" uid="3497659" user="NKA">
		<tag k="name" v="Slettmobakken" />
		<tag k="place" v="neighbourhood" />
		<tag k="ssr:stedsnr" v="723862" />
	</node>
	<node id="9873702080" lat="70.1184805" lon="19.0947084" version="1" timestamp="2022-07-08T05:54:22Z" changeset="123344083" uid="3497659" user="NKA">
		<tag k="name" v="Storvika" />
		<tag k="place" v="farm" />
		<tag k="ssr:stedsnr" v="383590" />
	</node>
	<node id="9873702081" lat="69.9670072" lon="19.1485908" version="1" timestamp="2022-07-08T05:54:22Z" changeset="123344083" uid="3497659" user="NKA">
		<tag k="alt_name" v="Lavold" />
		<tag k="name" v="Lavollen" />
		<tag k="place" v="farm" />
		<tag k="ssr:stedsnr" v="444856" />
	</node>
	<node id="9873702082" lat="69.8732151" lon="19.4512131" version="1" timestamp="2022-07-08T05:54:22Z" changeset="123344083" uid="3497659" user="NKA">
		<tag k="name" v="Myrhaug" />
		<tag k="place" v="isolated_dwelling" />
		<tag k="ssr:stedsnr" v="505749" />
	</node>
	<node id="9873702083" lat="69.8751042" lon="19.4558335" version="1" timestamp="2022-07-08T05:54:22Z" changeset="123344083" uid="3497659" user="NKA">
		<tag k="name" v="Jamteby" />
		<tag k="place" v="farm" />
		<tag k="ssr:stedsnr" v="565742" />
	</node>
	<node id="9873702084" lat="70.1562389" lon="19.0010443" version="1" timestamp="2022-07-08T05:54:22Z" changeset="123344083" uid="3497659" user="NKA">
		<tag k="loc_name:se" v="Lávkeluokta" />
		<tag k="name" v="Laukvika" />
		<tag k="name:no" v="Laukvika" />
		<tag k="place" v="farm" />
		<tag k="ssr:stedsnr" v="322572" />
	</node>
	<node id="9873702085" lat="69.9268944" lon="19.4874779" version="1" timestamp="2022-07-08T05:54:22Z" changeset="123344083" uid="3497659" user="NKA">
		<tag k="name" v="Engvik" />
		<tag k="place" v="farm" />
		<tag k="ssr:stedsnr" v="383587" />
	</node>
	<node id="9873702086" lat="69.9909927" lon="19.740539" version="1" timestamp="2022-07-08T05:54:22Z" changeset="123344083" uid="3497659" user="NKA">
		<tag k="name" v="Fjellstad" />
		<tag k="place" v="farm" />
		<tag k="ssr:stedsnr" v="322629" />
	</node>
	<node id="9873702087" lat="70.1539284" lon="20.0243772" version="1" timestamp="2022-07-08T05:54:22Z" changeset="123344083" uid="3497659" user="NKA">
		<tag k="name" v="Skorøy" />
		<tag k="place" v="farm" />
		<tag k="ssr:stedsnr" v="475084" />
	</node>
	<node id="9873702088" lat="69.9058626" lon="19.5039445" version="1" timestamp="2022-07-08T05:54:22Z" changeset="123344083" uid="3497659" user="NKA">
		<tag k="alt_name" v="Sommerseth" />
		<tag k="name" v="Sommarset" />
		<tag k="place" v="farm" />
		<tag k="ssr:stedsnr" v="262546" />
	</node>
	<node id="9873702089" lat="70.16975" lon="19.8105446" version="1" timestamp="2022-07-08T05:54:22Z" changeset="123344083" uid="3497659" user="NKA">
		<tag k="name" v="Solstad" />
		<tag k="place" v="isolated_dwelling" />
		<tag k="ssr:stedsnr" v="778482" />
	</node>
	<node id="9873702090" lat="69.8408528" lon="19.4707377" version="1" timestamp="2022-07-08T05:54:22Z" changeset="123344083" uid="3497659" user="NKA">
		<tag k="name" v="Solvang" />
		<tag k="place" v="isolated_dwelling" />
		<tag k="ssr:stedsnr" v="170050" />
	</node>
	<node id="9873702091" lat="70.1266036" lon="19.7080752" version="1" timestamp="2022-07-08T05:54:22Z" changeset="123344083" uid="3497659" user="NKA">
		<tag k="name" v="Elvevoll" />
		<tag k="place" v="farm" />
		<tag k="ssr:stedsnr" v="383821" />
	</node>
	<node id="9873702092" lat="70.1271778" lon="19.0754277" version="1" timestamp="2022-07-08T05:54:22Z" changeset="123344083" uid="3497659" user="NKA">
		<tag k="name" v="Solstad" />
		<tag k="place" v="farm" />
		<tag k="ssr:stedsnr" v="80582" />
	</node>
	<node id="9873702093" lat="70.176743" lon="19.9031715" version="1" timestamp="2022-07-08T05:54:22Z" changeset="123344083" uid="3497659" user="NKA">
		<tag k="name" v="Slettnes" />
		<tag k="place" v="hamlet" />
		<tag k="ssr:stedsnr" v="322947" />
	</node>
	<node id="9873702094" lat="70.1491755" lon="19.0121019" version="1" timestamp="2022-07-08T05:54:22Z" changeset="123344083" uid="3497659" user="NKA">
		<tag k="name" v="Laukvik" />
		<tag k="place" v="farm" />
		<tag k="ssr:stedsnr" v="1077948" />
	</node>
	<node id="9873702095" lat="69.9895978" lon="19.7381809" version="1" timestamp="2022-07-08T05:54:22Z" changeset="123344083" uid="3497659" user="NKA">
		<tag k="name" v="Prestøra" />
		<tag k="place" v="farm" />
		<tag k="ssr:stedsnr" v="687627" />
	</node>
	<node id="9873702096" lat="69.9057306" lon="19.4754306" version="1" timestamp="2022-07-08T05:54:22Z" changeset="123344083" uid="3497659" user="NKA">
		<tag k="name" v="Blomlund" />
		<tag k="place" v="farm" />
		<tag k="ssr:stedsnr" v="19488" />
	</node>
	<node id="9873702097" lat="70.0195556" lon="19.8615028" version="1" timestamp="2022-07-08T05:54:22Z" changeset="123344083" uid="3497659" user="NKA">
		<tag k="name" v="Arvik" />
		<tag k="place" v="farm" />
		<tag k="ssr:stedsnr" v="686101" />
	</node>
	<node id="9873702098" lat="69.9732834" lon="19.6236611" version="1" timestamp="2022-07-08T05:54:22Z" changeset="123344083" uid="3497659" user="NKA">
		<tag k="name" v="Bjørklund" />
		<tag k="place" v="farm" />
		<tag k="ssr:stedsnr" v="565584" />
	</node>
	<node id="9873702099" lat="70.1613999" lon="19.8144339" version="1" timestamp="2022-07-08T05:54:22Z" changeset="123344083" uid="3497659" user="NKA">
		<tag k="alt_name:no" v="Skipfjorden;Skipfjord" />
		<tag k="loc_name:se" v="Skihččavuotna" />
		<tag k="name" v="Skipsfjord" />
		<tag k="name:no" v="Skipsfjord" />
		<tag k="place" v="hamlet" />
		<tag k="ssr:stedsnr" v="140959" />
	</node>
	<node id="9873702100" lat="69.908675" lon="19.5073437" version="1" timestamp="2022-07-08T05:54:22Z" changeset="123344083" uid="3497659" user="NKA">
		<tag k="name" v="Blomli" />
		<tag k="place" v="farm" />
		<tag k="ssr:stedsnr" v="19510" />
	</node>
	<node id="9873702101" lat="69.8899416" lon="19.4308251" version="1" timestamp="2022-07-08T05:54:22Z" changeset="123344083" uid="3497659" user="NKA">
		<tag k="name" v="Strandmo" />
		<tag k="place" v="farm" />
		<tag k="ssr:stedsnr" v="201487" />
	</node>
	<node id="9873702102" lat="70.018254" lon="19.0640584" version="1" timestamp="2022-07-08T05:54:22Z" changeset="123344083" uid="3497659" user="NKA">
		<tag k="name" v="Skogsfjord" />
		<tag k="place" v="hamlet" />
		<tag k="ssr:stedsnr" v="869689" />
	</node>
	<node id="9873702103" lat="69.9134139" lon="19.514939" version="1" timestamp="2022-07-08T05:54:22Z" changeset="123344083" uid="3497659" user="NKA">
		<tag k="name" v="Bergan" />
		<tag k="place" v="farm" />
		<tag k="ssr:stedsnr" v="201477" />
	</node>
	<node id="9873702104" lat="69.8574747" lon="19.6459559" version="1" timestamp="2022-07-08T05:54:22Z" changeset="123344083" uid="3497659" user="NKA">
		<tag k="name" v="Sandbakken" />
		<tag k="place" v="farm" />
		<tag k="ssr:stedsnr" v="474996" />
	</node>
	<node id="9873702105" lat="70.0915288" lon="19.6994008" version="1" timestamp="2022-07-08T05:54:22Z" changeset="123344083" uid="3497659" user="NKA">
		<tag k="name" v="Bergstad" />
		<tag k="place" v="locality" />
		<tag k="ssr:stedsnr" v="50825" />
	</node>
	<node id="9873702106" lat="69.9983139" lon="19.9053279" version="1" timestamp="2022-07-08T05:54:22Z" changeset="123344083" uid="3497659" user="NKA">
		<tag k="name" v="Galgevollen" />
		<tag k="place" v="farm" />
		<tag k="ssr:stedsnr" v="323652" />
	</node>
	<node id="9873702107" lat="69.9498063" lon="19.4809173" version="1" timestamp="2022-07-08T05:54:22Z" changeset="123344083" uid="3497659" user="NKA">
		<tag k="name" v="Djupvik" />
		<tag k="place" v="farm" />
		<tag k="ssr:stedsnr" v="747572" />
	</node>
	<node id="9873702108" lat="70.080366" lon="19.7107207" version="1" timestamp="2022-07-08T05:54:22Z" changeset="123344083" uid="3497659" user="NKA">
		<tag k="name" v="Kammen" />
		<tag k="place" v="farm" />
		<tag k="ssr:stedsnr" v="80779" />
	</node>
	<node id="9873702109" lat="69.9091885" lon="19.4803102" version="1" timestamp="2022-07-08T05:54:22Z" changeset="123344083" uid="3497659" user="NKA">
		<tag k="alt_name" v="Gammnes" />
		<tag k="name" v="Gamnes" />
		<tag k="place" v="hamlet" />
		<tag k="ssr:stedsnr" v="747520" />
	</node>
	<node id="9873702110" lat="70.1462472" lon="19.9246723" version="1" timestamp="2022-07-08T05:54:22Z" changeset="123344083" uid="3497659" user="NKA">
		<tag k="alt_name" v="Litlevika" />
		<tag k="name" v="Lillevik" />
		<tag k="old_name" v="Lillevika" />
		<tag k="place" v="farm" />
		<tag k="ssr:stedsnr" v="201927" />
	</node>
	<node id="9873702111" lat="70.0773167" lon="19.1531501" version="1" timestamp="2022-07-08T05:54:22Z" changeset="123344083" uid="3497659" user="NKA">
		<tag k="name" v="Engenes" />
		<tag k="place" v="farm" />
		<tag k="ssr:stedsnr" v="625760" />
	</node>
	<node id="9873702112" lat="70.2017" lon="19.6054" version="1" timestamp="2022-07-08T05:54:22Z" changeset="123344083" uid="3497659" user="NKA">
		<tag k="name" v="Vollstad" />
		<tag k="place" v="farm" />
		<tag k="ssr:stedsnr" v="201847" />
	</node>
	<node id="9873702113" lat="70.2657555" lon="20.2659695" version="1" timestamp="2022-07-08T05:54:22Z" changeset="123344083" uid="3497659" user="NKA">
		<tag k="name" v="Gamvik" />
		<tag k="place" v="locality" />
		<tag k="ssr:stedsnr" v="201343" />
	</node>
	<node id="9873702114" lat="70.1530085" lon="19.6671771" version="1" timestamp="2022-07-08T05:54:22Z" changeset="123344083" uid="3497659" user="NKA">
		<tag k="name" v="Sengskroken" />
		<tag k="place" v="hamlet" />
		<tag k="ssr:stedsnr" v="1072363" />
	</node>
	<node id="9873702115" lat="70.101079" lon="19.5699349" version="1" timestamp="2022-07-08T05:54:22Z" changeset="123344083" uid="3497659" user="NKA">
		<tag k="alt_name" v="Finnstøen" />
		<tag k="name" v="Finnstø" />
		<tag k="old_name" v="Finnstøa" />
		<tag k="place" v="farm" />
		<tag k="ssr:stedsnr" v="754555" />
	</node>
	<node id="9873702116" lat="69.9044719" lon="19.4727756" version="1" timestamp="2022-07-08T05:54:22Z" changeset="123344083" uid="3497659" user="NKA">
		<tag k="alt_name" v="Gamnes" />
		<tag k="name" v="Gammnes" />
		<tag k="place" v="farm" />
		<tag k="ssr:stedsnr" v="565530" />
	</node>
	<node id="9873702117" lat="70.2652675" lon="20.2525724" version="1" timestamp="2022-07-08T05:54:22Z" changeset="123344083" uid="3497659" user="NKA">
		<tag k="name" v="Fugløya" />
		<tag k="place" v="locality" />
		<tag k="ssr:stedsnr" v="1077965" />
	</node>
	<node id="9873702118" lat="70.1433083" lon="19.933925" version="1" timestamp="2022-07-08T05:54:22Z" changeset="123344083" uid="3497659" user="NKA">
		<tag k="name" v="Jørenvik" />
		<tag k="place" v="farm" />
		<tag k="ssr:stedsnr" v="869924" />
	</node>
	<node id="9873702119" lat="69.8350278" lon="19.3548278" version="1" timestamp="2022-07-08T05:54:22Z" changeset="123344083" uid="3497659" user="NKA">
		<tag k="name" v="Glimbukta" />
		<tag k="place" v="farm" />
		<tag k="ssr:stedsnr" v="504708" />
	</node>
	<node id="9873702120" lat="69.9018917" lon="19.4983305" version="1" timestamp="2022-07-08T05:54:22Z" changeset="123344083" uid="3497659" user="NKA">
		<tag k="name" v="Lundheim" />
		<tag k="place" v="isolated_dwelling" />
		<tag k="ssr:stedsnr" v="565511" />
	</node>
	<node id="9873702121" lat="70.0459167" lon="19.044639" version="1" timestamp="2022-07-08T05:54:22Z" changeset="123344083" uid="3497659" user="NKA">
		<tag k="name" v="Nyheim" />
		<tag k="place" v="farm" />
		<tag k="ssr:stedsnr" v="565714" />
	</node>
	<node id="9873702122" lat="69.936725" lon="19.4760777" version="1" timestamp="2022-07-08T05:54:22Z" changeset="123344083" uid="3497659" user="NKA">
		<tag k="name" v="Myrlund" />
		<tag k="place" v="farm" />
		<tag k="ssr:stedsnr" v="564548" />
	</node>
	<node id="9873702123" lat="70.16085" lon="19.892325" version="1" timestamp="2022-07-08T05:54:22Z" changeset="123344083" uid="3497659" user="NKA">
		<tag k="alt_name" v="Laukvika" />
		<tag k="name" v="Laukvik" />
		<tag k="place" v="locality" />
		<tag k="ssr:stedsnr" v="625907" />
	</node>
	<node id="9873702124" lat="70.1631631" lon="19.8017633" version="1" timestamp="2022-07-08T05:54:22Z" changeset="123344083" uid="3497659" user="NKA">
		<tag k="name" v="Fuglevik" />
		<tag k="place" v="locality" />
		<tag k="ssr:stedsnr" v="596458" />
	</node>
	<node id="9873702125" lat="69.8814565" lon="19.4616687" version="1" timestamp="2022-07-08T05:54:22Z" changeset="123344083" uid="3497659" user="NKA">
		<tag k="name" v="Kveldro" />
		<tag k="place" v="farm" />
		<tag k="ssr:stedsnr" v="626746" />
	</node>
	<node id="9873702126" lat="69.9240667" lon="19.487661" version="1" timestamp="2022-07-08T05:54:22Z" changeset="123344083" uid="3497659" user="NKA">
		<tag k="alt_name" v="Lanes" />
		<tag k="name" v="Mellom-Lanes" />
		<tag k="place" v="farm" />
		<tag k="ssr:stedsnr" v="625541" />
	</node>
	<node id="9873702127" lat="69.9911361" lon="19.0664527" version="1" timestamp="2022-07-08T05:54:22Z" changeset="123344083" uid="3497659" user="NKA">
		<tag k="name" v="Fossheim" />
		<tag k="place" v="isolated_dwelling" />
		<tag k="ssr:stedsnr" v="626196" />
	</node>
	<node id="9873702128" lat="69.9106358" lon="19.5097309" version="1" timestamp="2022-07-08T05:54:22Z" changeset="123344083" uid="3497659" user="NKA">
		<tag k="name" v="Molund" />
		<tag k="place" v="farm" />
		<tag k="ssr:stedsnr" v="625490" />
	</node>
	<node id="9873702129" lat="69.8404651" lon="19.4678515" version="1" timestamp="2022-07-08T05:54:22Z" changeset="123344083" uid="3497659" user="NKA">
		<tag k="alt_name" v="Gammelgard;Gammelgård" />
		<tag k="name" v="Gammelgården" />
		<tag k="place" v="farm" />
		<tag k="ssr:stedsnr" v="322693" />
	</node>
	<node id="9873702130" lat="69.8444831" lon="19.5200372" version="1" timestamp="2022-07-08T05:54:22Z" changeset="123344083" uid="3497659" user="NKA">
		<tag k="alt_name" v="Rottenby" />
		<tag k="name" v="Rottenbyen" />
		<tag k="place" v="hamlet" />
		<tag k="ssr:stedsnr" v="534027" />
	</node>
	<node id="9873702131" lat="70.1844509" lon="19.9112764" version="1" timestamp="2022-07-08T05:54:22Z" changeset="123344083" uid="3497659" user="NKA">
		<tag k="name" v="Bogen" />
		<tag k="old_name" v="Bugen" />
		<tag k="place" v="farm" />
		<tag k="ssr:stedsnr" v="565956" />
	</node>
	<node id="9873702132" lat="70.2725833" lon="20.2486084" version="1" timestamp="2022-07-08T05:54:22Z" changeset="123344083" uid="3497659" user="NKA">
		<tag k="name" v="Ytre Gamvik" />
		<tag k="place" v="locality" />
		<tag k="ssr:stedsnr" v="29166" />
	</node>
	<node id="9873702133" lat="69.8929951" lon="19.438701" version="1" timestamp="2022-07-08T05:54:22Z" changeset="123344083" uid="3497659" user="NKA">
		<tag k="name" v="Langsund" />
		<tag k="place" v="hamlet" />
		<tag k="ssr:stedsnr" v="293846" />
	</node>
	<node id="9873702134" lat="69.8349112" lon="19.4369139" version="1" timestamp="2022-07-08T05:54:22Z" changeset="123344083" uid="3497659" user="NKA">
		<tag k="name" v="Nergården" />
		<tag k="place" v="farm" />
		<tag k="ssr:stedsnr" v="230133" />
	</node>
	<node id="9873702135" lat="69.8449159" lon="19.5186966" version="1" timestamp="2022-07-08T05:54:22Z" changeset="123344083" uid="3497659" user="NKA">
		<tag k="name" v="Rensby" />
		<tag k="place" v="isolated_dwelling" />
		<tag k="ssr:stedsnr" v="292049" />
	</node>
	<node id="9873702136" lat="70.1595268" lon="19.8024011" version="1" timestamp="2022-07-08T05:54:22Z" changeset="123344083" uid="3497659" user="NKA">
		<tag k="name" v="Sandmo" />
		<tag k="place" v="isolated_dwelling" />
		<tag k="ssr:stedsnr" v="354502" />
	</node>
	<node id="9873702137" lat="69.9700278" lon="19.1374612" version="1" timestamp="2022-07-08T05:54:22Z" changeset="123344083" uid="3497659" user="NKA">
		<tag k="name" v="Solbakken" />
		<tag k="place" v="farm" />
		<tag k="ssr:stedsnr" v="172995" />
	</node>
	<node id="9873702138" lat="70.1806389" lon="18.9913417" version="1" timestamp="2022-07-08T05:54:22Z" changeset="123344083" uid="3497659" user="NKA">
		<tag k="name" v="Sætra" />
		<tag k="place" v="locality" />
		<tag k="ssr:stedsnr" v="531472" />
	</node>
	<node id="9873702139" lat="70.1754695" lon="19.1067807" version="1" timestamp="2022-07-08T05:54:22Z" changeset="123344083" uid="3497659" user="NKA">
		<tag k="alt_name" v="Rundsevoll" />
		<tag k="name" v="Runsevollen" />
		<tag k="place" v="locality" />
		<tag k="ssr:stedsnr" v="504604" />
	</node>
	<node id="9873702140" lat="70.1619778" lon="19.9475277" version="1" timestamp="2022-07-08T05:54:22Z" changeset="123344083" uid="3497659" user="NKA">
		<tag k="alt_name" v="Skorøyneset" />
		<tag k="name" v="Skorøynes" />
		<tag k="place" v="isolated_dwelling" />
		<tag k="ssr:stedsnr" v="445515" />
	</node>
	<node id="9873702141" lat="70.206966" lon="19.106754" version="1" timestamp="2022-07-08T05:54:22Z" changeset="123344083" uid="3497659" user="NKA">
		<tag k="loc_name:se" v="Vorešskárdi" />
		<tag k="name" v="Sørskaret" />
		<tag k="name:no" v="Sørskaret" />
		<tag k="place" v="locality" />
		<tag k="ssr:stedsnr" v="424361" />
	</node>
	<node id="9873702142" lat="70.1464372" lon="19.6779101" version="1" timestamp="2022-07-08T05:54:22Z" changeset="123344083" uid="3497659" user="NKA">
		<tag k="alt_name" v="Sædingsvollen;Sengsvoll;Sæingsvoll" />
		<tag k="name" v="Sengsvollen" />
		<tag k="place" v="farm" />
		<tag k="ssr:stedsnr" v="140780" />
	</node>
	<node id="9873702143" lat="69.9209268" lon="19.5289445" version="1" timestamp="2022-07-08T05:54:22Z" changeset="123344083" uid="3497659" user="NKA">
		<tag k="name" v="Lilleng" />
		<tag k="place" v="farm" />
		<tag k="ssr:stedsnr" v="171823" />
	</node>
	<node id="9873702144" lat="70.2455639" lon="19.4971555" version="1" timestamp="2022-07-08T05:54:22Z" changeset="123344083" uid="3497659" user="NKA">
		<tag k="name" v="Myrberg" />
		<tag k="place" v="isolated_dwelling" />
		<tag k="ssr:stedsnr" v="474839" />
	</node>
	<node id="9873702145" lat="69.9643167" lon="19.1601804" version="1" timestamp="2022-07-08T05:54:22Z" changeset="123344083" uid="3497659" user="NKA">
		<tag k="alt_name" v="Småsletten" />
		<tag k="name" v="Småsletta" />
		<tag k="place" v="farm" />
		<tag k="ssr:stedsnr" v="808847" />
	</node>
	<node id="9873702146" lat="70.1765194" lon="19.8228138" version="1" timestamp="2022-07-08T05:54:22Z" changeset="123344083" uid="3497659" user="NKA">
		<tag k="name" v="Rotenga" />
		<tag k="place" v="farm" />
		<tag k="ssr:stedsnr" v="171473" />
	</node>
	<node id="9873702147" lat="69.8598838" lon="19.3919778" version="1" timestamp="2022-07-08T05:54:22Z" changeset="123344083" uid="3497659" user="NKA">
		<tag k="alt_name" v="Bjørnskard, yt;Ytre Bjørnskard" />
		<tag k="name" v="Ytre Bjørnskar" />
		<tag k="place" v="farm" />
		<tag k="ssr:stedsnr" v="19741" />
	</node>
	<node id="9873702148" lat="70.2086293" lon="19.5819512" version="1" timestamp="2022-07-08T05:54:22Z" changeset="123344083" uid="3497659" user="NKA">
		<tag k="name" v="Myra" />
		<tag k="place" v="farm" />
		<tag k="ssr:stedsnr" v="444871" />
	</node>
	<node id="9873702149" lat="69.8488694" lon="19.3713279" version="1" timestamp="2022-07-08T05:54:22Z" changeset="123344083" uid="3497659" user="NKA">
		<tag k="alt_name" v="Indre Bjørnskar;Bjørnskard, in;Indre Bjørnskard" />
		<tag k="name" v="Bjørnskar" />
		<tag k="old_name" v="Bjørnskard" />
		<tag k="place" v="farm" />
		<tag k="ssr:stedsnr" v="19675" />
	</node>
	<node id="9873702150" lat="69.9092411" lon="19.4818494" version="1" timestamp="2022-07-08T05:54:22Z" changeset="123344083" uid="3497659" user="NKA">
		<tag k="name" v="Gamnesøyra" />
		<tag k="place" v="farm" />
		<tag k="ssr:stedsnr" v="606558" />
	</node>
	<node id="9873702151" lat="70.1690139" lon="19.1086305" version="1" timestamp="2022-07-08T05:54:22Z" changeset="123344083" uid="3497659" user="NKA">
		<tag k="loc_name:se" v="Hearpmavuotna" />
		<tag k="name" v="Hermannsfjorden" />
		<tag k="name:no" v="Hermannsfjorden" />
		<tag k="place" v="farm" />
		<tag k="ssr:stedsnr" v="140579" />
	</node>
	<node id="9873702152" lat="70.1441109" lon="19.6686197" version="1" timestamp="2022-07-08T05:54:22Z" changeset="123344083" uid="3497659" user="NKA">
		<tag k="name" v="Bekkestrand" />
		<tag k="place" v="farm" />
		<tag k="ssr:stedsnr" v="19781" />
	</node>
	<node id="9873702153" lat="70.158475" lon="19.7634028" version="1" timestamp="2022-07-08T05:54:22Z" changeset="123344083" uid="3497659" user="NKA">
		<tag k="name" v="Sandkroken" />
		<tag k="place" v="farm" />
		<tag k="ssr:stedsnr" v="19825" />
	</node>
	<node id="9873702154" lat="70.0408305" lon="19.4276862" version="1" timestamp="2022-07-08T05:54:22Z" changeset="123344083" uid="3497659" user="NKA">
		<tag k="name" v="Håkaby" />
		<tag k="place" v="farm" />
		<tag k="ssr:stedsnr" v="930968" />
	</node>
	<node id="9873702155" lat="70.1394444" lon="19.9947" version="1" timestamp="2022-07-08T05:54:22Z" changeset="123344083" uid="3497659" user="NKA">
		<tag k="name" v="Sørsanden" />
		<tag k="place" v="farm" />
		<tag k="ssr:stedsnr" v="565887" />
	</node>
	<node id="9873702156" lat="70.0123639" lon="19.6334834" version="1" timestamp="2022-07-08T05:54:22Z" changeset="123344083" uid="3497659" user="NKA">
		<tag k="name" v="Lundberg" />
		<tag k="place" v="farm" />
		<tag k="ssr:stedsnr" v="747950" />
	</node>
	<node id="9873702157" lat="69.8760639" lon="19.4545889" version="1" timestamp="2022-07-08T05:54:22Z" changeset="123344083" uid="3497659" user="NKA">
		<tag k="name" v="Lilleby" />
		<tag k="place" v="farm" />
		<tag k="ssr:stedsnr" v="808729" />
	</node>
	<node id="9873702158" lat="69.92105" lon="19.4851028" version="1" timestamp="2022-07-08T05:54:22Z" changeset="123344083" uid="3497659" user="NKA">
		<tag k="name" v="Solheim" />
		<tag k="place" v="farm" />
		<tag k="ssr:stedsnr" v="747548" />
	</node>
	<node id="9873702159" lat="70.0847611" lon="20.0160916" version="1" timestamp="2022-07-08T05:54:22Z" changeset="123344083" uid="3497659" user="NKA">
		<tag k="name" v="Myrset" />
		<tag k="place" v="hamlet" />
		<tag k="ssr:stedsnr" v="140081" />
	</node>
	<node id="9873702160" lat="69.9586417" lon="19.1804557" version="1" timestamp="2022-07-08T05:54:22Z" changeset="123344083" uid="3497659" user="NKA">
		<tag k="name" v="Reinsvoll" />
		<tag k="place" v="farm" />
		<tag k="ssr:stedsnr" v="779927" />
	</node>
	<node id="9873702161" lat="69.9772913" lon="19.6631164" version="1" timestamp="2022-07-08T05:54:22Z" changeset="123344083" uid="3497659" user="NKA">
		<tag k="name" v="Solvang" />
		<tag k="place" v="farm" />
		<tag k="ssr:stedsnr" v="747564" />
	</node>
	<node id="9873702162" lat="70.0880333" lon="19.9949251" version="1" timestamp="2022-07-08T05:54:22Z" changeset="123344083" uid="3497659" user="NKA">
		<tag k="name" v="Fjellstad" />
		<tag k="place" v="farm" />
		<tag k="ssr:stedsnr" v="201065" />
	</node>
	<node id="9873702163" lat="69.9065572" lon="19.767194" version="1" timestamp="2022-07-08T05:54:22Z" changeset="123344083" uid="3497659" user="NKA">
		<tag k="name" v="Søreidet" />
		<tag k="place" v="hamlet" />
		<tag k="ssr:stedsnr" v="687522" />
	</node>
	<node id="9873702164" lat="70.1517768" lon="19.9817652" version="1" timestamp="2022-07-08T05:54:22Z" changeset="123344083" uid="3497659" user="NKA">
		<tag k="name" v="Stranda" />
		<tag k="place" v="isolated_dwelling" />
		<tag k="ssr:stedsnr" v="201933" />
	</node>
	<node id="9873702165" lat="69.9226556" lon="19.7717612" version="1" timestamp="2022-07-08T05:54:22Z" changeset="123344083" uid="3497659" user="NKA">
		<tag k="name" v="Øvergard" />
		<tag k="place" v="farm" />
		<tag k="ssr:stedsnr" v="747488" />
	</node>
	<node id="9873702166" lat="70.1085194" lon="20.0743638" version="1" timestamp="2022-07-08T05:54:22Z" changeset="123344083" uid="3497659" user="NKA">
		<tag k="alt_name" v="Djupvika" />
		<tag k="name" v="Jøvik" />
		<tag k="place" v="farm" />
		<tag k="ssr:stedsnr" v="201901" />
	</node>
	<node id="9873702167" lat="70.1761114" lon="19.989351" version="1" timestamp="2022-07-08T05:54:22Z" changeset="123344083" uid="3497659" user="NKA">
		<tag k="name" v="Ravika" />
		<tag k="place" v="locality" />
		<tag k="ssr:stedsnr" v="201920" />
	</node>
	<node id="9873702168" lat="70.1328895" lon="19.9998834" version="1" timestamp="2022-07-08T05:54:22Z" changeset="123344083" uid="3497659" user="NKA">
		<tag k="name" v="Kristoffervalen" />
		<tag k="place" v="hamlet" />
		<tag k="ssr:stedsnr" v="808895" />
	</node>
	<node id="9873702169" lat="70.125657" lon="19.960216" version="1" timestamp="2022-07-08T05:54:22Z" changeset="123344083" uid="3497659" user="NKA">
		<tag k="alt_name" v="Valabotnen" />
		<tag k="name" v="Valabotn" />
		<tag k="place" v="farm" />
		<tag k="ssr:stedsnr" v="201882" />
	</node>
	<node id="9873702170" lat="70.0476709" lon="19.8952061" version="1" timestamp="2022-07-08T05:54:22Z" changeset="123344083" uid="3497659" user="NKA">
		<tag k="name" v="Stranda" />
		<tag k="place" v="farm" />
		<tag k="ssr:stedsnr" v="504076" />
	</node>
	<node id="9873702171" lat="69.9959386" lon="19.9255349" version="1" timestamp="2022-07-08T05:54:22Z" changeset="123344083" uid="3497659" user="NKA">
		<tag k="alt_name" v="Huldreheimen" />
		<tag k="name" v="Hulderheim" />
		<tag k="place" v="isolated_dwelling" />
		<tag k="ssr:stedsnr" v="505653" />
	</node>
	<node id="9873702172" lat="70.0839445" lon="20.0005751" version="1" timestamp="2022-07-08T05:54:22Z" changeset="123344083" uid="3497659" user="NKA">
		<tag k="name" v="Skogstrand" />
		<tag k="place" v="farm" />
		<tag k="ssr:stedsnr" v="868081" />
	</node>
	<node id="9873702173" lat="70.0656195" lon="19.0790166" version="1" timestamp="2022-07-08T05:54:22Z" changeset="123344083" uid="3497659" user="NKA">
		<tag k="name" v="Finnenga" />
		<tag k="place" v="locality" />
		<tag k="ssr:stedsnr" v="19729" />
	</node>
	<node id="9873702174" lat="70.0330758" lon="19.0886666" version="1" timestamp="2022-07-08T05:54:22Z" changeset="123344083" uid="3497659" user="NKA">
		<tag k="name" v="Skogsfjord" />
		<tag k="place" v="hamlet" />
		<tag k="ssr:stedsnr" v="19672" />
	</node>
	<node id="9873702175" lat="70.096875" lon="20.1002527" version="1" timestamp="2022-07-08T05:54:22Z" changeset="123344083" uid="3497659" user="NKA">
		<tag k="name" v="Myra" />
		<tag k="place" v="farm" />
		<tag k="ssr:stedsnr" v="565901" />
	</node>
	<node id="9873702176" lat="69.9606701" lon="19.1770198" version="1" timestamp="2022-07-08T05:54:22Z" changeset="123344083" uid="3497659" user="NKA">
		<tag k="name" v="Rydningen" />
		<tag k="place" v="hamlet" />
		<tag k="ssr:stedsnr" v="504825" />
	</node>
	<node id="9873702177" lat="70.0908445" lon="19.9904779" version="1" timestamp="2022-07-08T05:54:22Z" changeset="123344083" uid="3497659" user="NKA">
		<tag k="name" v="Skogeng" />
		<tag k="place" v="farm" />
		<tag k="ssr:stedsnr" v="564065" />
	</node>
	<node id="9873702178" lat="70.1225992" lon="19.9739932" version="1" timestamp="2022-07-08T05:54:22Z" changeset="123344083" uid="3497659" user="NKA">
		<tag k="name" v="Vannavalen" />
		<tag k="place" v="hamlet" />
		<tag k="ssr:stedsnr" v="266904" />
	</node>
	<node id="9873702179" lat="69.9879166" lon="19.407314" version="1" timestamp="2022-07-08T05:54:22Z" changeset="123344083" uid="3497659" user="NKA">
		<tag k="name" v="Nellevoll" />
		<tag k="place" v="farm" />
		<tag k="ssr:stedsnr" v="444598" />
	</node>
	<node id="9873702180" lat="70.1872806" lon="19.2445805" version="1" timestamp="2022-07-08T05:54:22Z" changeset="123344083" uid="3497659" user="NKA">
		<tag k="alt_name" v="Lillevika" />
		<tag k="name" v="Litlevik" />
		<tag k="place" v="farm" />
		<tag k="ssr:stedsnr" v="808863" />
	</node>
	<node id="9873702181" lat="70.1235639" lon="19.9741943" version="1" timestamp="2022-07-08T05:54:22Z" changeset="123344083" uid="3497659" user="NKA">
		<tag k="name" v="Storelva" />
		<tag k="place" v="farm" />
		<tag k="ssr:stedsnr" v="626900" />
	</node>
	<node id="9873702182" lat="70.028325" lon="19.3986167" version="1" timestamp="2022-07-08T05:54:22Z" changeset="123344083" uid="3497659" user="NKA">
		<tag k="name" v="Langstrand" />
		<tag k="place" v="farm" />
		<tag k="ssr:stedsnr" v="444991" />
	</node>
	<node id="9873702183" lat="70.1511917" lon="20.0227659" version="1" timestamp="2022-07-08T05:54:22Z" changeset="123344083" uid="3497659" user="NKA">
		<tag k="name" v="Nygård" />
		<tag k="place" v="isolated_dwelling" />
		<tag k="ssr:stedsnr" v="450875" />
	</node>
	<node id="9873702184" lat="69.9884139" lon="19.3858668" version="1" timestamp="2022-07-08T05:54:22Z" changeset="123344083" uid="3497659" user="NKA">
		<tag k="name" v="Mellomgard" />
		<tag k="place" v="farm" />
		<tag k="ssr:stedsnr" v="444582" />
	</node>
	<node id="9873702185" lat="69.9689472" lon="19.154225" version="1" timestamp="2022-07-08T05:54:22Z" changeset="123344083" uid="3497659" user="NKA">
		<tag k="name" v="Elveland" />
		<tag k="place" v="farm" />
		<tag k="ssr:stedsnr" v="322846" />
	</node>
	<node id="9873702186" lat="69.9255297" lon="19.4884128" version="1" timestamp="2022-07-08T05:54:22Z" changeset="123344083" uid="3497659" user="NKA">
		<tag k="name" v="Lanes" />
		<tag k="place" v="hamlet" />
		<tag k="ssr:stedsnr" v="322545" />
	</node>
	<node id="9873702187" lat="70.0417945" lon="18.8235056" version="1" timestamp="2022-07-08T05:54:22Z" changeset="123344083" uid="3497659" user="NKA">
		<tag k="alt_name" v="Ribbenesbotn" />
		<tag k="name" v="Rebbenesbotn" />
		<tag k="place" v="farm" />
		<tag k="ssr:stedsnr" v="930738" />
	</node>
	<node id="9873702188" lat="70.0274147" lon="18.8684474" version="1" timestamp="2022-07-08T05:54:22Z" changeset="123344083" uid="3497659" user="NKA">
		<tag k="alt_name" v="Futjorda" />
		<tag k="name" v="Futjord" />
		<tag k="place" v="isolated_dwelling" />
		<tag k="ssr:stedsnr" v="929661" />
	</node>
	<node id="9873702189" lat="69.9948444" lon="19.5599944" version="1" timestamp="2022-07-08T05:54:22Z" changeset="123344083" uid="3497659" user="NKA">
		<tag k="name" v="Solheim" />
		<tag k="place" v="farm" />
		<tag k="ssr:stedsnr" v="322609" />
	</node>
	<node id="9873702190" lat="69.9173659" lon="19.483936" version="1" timestamp="2022-07-08T05:54:22Z" changeset="123344083" uid="3497659" user="NKA">
		<tag k="name" v="Rismo" />
		<tag k="place" v="farm" />
		<tag k="ssr:stedsnr" v="322513" />
	</node>
	<node id="9873702191" lat="69.9199541" lon="19.5419514" version="1" timestamp="2022-07-08T05:54:22Z" changeset="123344083" uid="3497659" user="NKA">
		<tag k="name" v="Rakkenes" />
		<tag k="place" v="farm" />
		<tag k="ssr:stedsnr" v="322509" />
	</node>
	<node id="9873702192" lat="70.1173667" lon="20.0388138" version="1" timestamp="2022-07-08T05:54:22Z" changeset="123344083" uid="3497659" user="NKA">
		<tag k="alt_name" v="Stuvik" />
		<tag k="name" v="Stuvika" />
		<tag k="place" v="farm" />
		<tag k="ssr:stedsnr" v="19872" />
	</node>
	<node id="9873702193" lat="70.0250778" lon="18.969975" version="1" timestamp="2022-07-08T05:54:22Z" changeset="123344083" uid="3497659" user="NKA">
		<tag k="name" v="Slettvoll" />
		<tag k="place" v="farm" />
		<tag k="ssr:stedsnr" v="140670" />
	</node>
	<node id="9873702194" lat="70.1530368" lon="20.0201655" version="1" timestamp="2022-07-08T05:54:22Z" changeset="123344083" uid="3497659" user="NKA">
		<tag k="name" v="Været" />
		<tag k="place" v="locality" />
		<tag k="ssr:stedsnr" v="19929" />
	</node>
	<node id="9873702195" lat="70.0157175" lon="19.040811" version="1" timestamp="2022-07-08T05:54:22Z" changeset="123344083" uid="3497659" user="NKA">
		<tag k="name" v="Vangberg" />
		<tag k="place" v="farm" />
		<tag k="ssr:stedsnr" v="80664" />
	</node>
	<node id="9873702196" lat="70.2483722" lon="19.5024918" version="1" timestamp="2022-07-08T05:54:22Z" changeset="123344083" uid="3497659" user="NKA">
		<tag k="name" v="Sandborg" />
		<tag k="place" v="isolated_dwelling" />
		<tag k="ssr:stedsnr" v="747642" />
	</node>
	<node id="9873702197" lat="70.0424889" lon="18.8462195" version="1" timestamp="2022-07-08T05:54:22Z" changeset="123344083" uid="3497659" user="NKA">
		<tag k="name" v="Solvik" />
		<tag k="place" v="farm" />
		<tag k="ssr:stedsnr" v="444701" />
	</node>
	<node id="9873702198" lat="69.982361" lon="19.5375257" version="1" timestamp="2022-07-08T05:54:22Z" changeset="123344083" uid="3497659" user="NKA">
		<tag k="name" v="Utheim" />
		<tag k="place" v="farm" />
		<tag k="ssr:stedsnr" v="869652" />
	</node>
	<node id="9873702199" lat="69.9881583" lon="19.5564749" version="1" timestamp="2022-07-08T05:54:22Z" changeset="123344083" uid="3497659" user="NKA">
		<tag k="name" v="Rydningen" />
		<tag k="place" v="farm" />
		<tag k="ssr:stedsnr" v="201584" />
	</node>
	<node id="9873702200" lat="69.995425" lon="19.5392306" version="1" timestamp="2022-07-08T05:54:22Z" changeset="123344083" uid="3497659" user="NKA">
		<tag k="name" v="Hamna" />
		<tag k="place" v="farm" />
		<tag k="ssr:stedsnr" v="868565" />
	</node>
	<node id="9873702201" lat="70.0712081" lon="19.2947312" version="1" timestamp="2022-07-08T05:54:22Z" changeset="123344083" uid="3497659" user="NKA">
		<tag k="name" v="Karanes" />
		<tag k="place" v="farm" />
		<tag k="ssr:stedsnr" v="262805" />
	</node>
	<node id="9873702202" lat="70.061172" lon="19.3762578" version="1" timestamp="2022-07-08T05:54:22Z" changeset="123344083" uid="3497659" user="NKA">
		<tag k="alt_name" v="Dåvøy" />
		<tag k="name" v="Dåvøya" />
		<tag k="place" v="farm" />
		<tag k="ssr:stedsnr" v="1077940" />
	</node>
	<node id="9873702203" lat="69.9869639" lon="19.3773417" version="1" timestamp="2022-07-08T05:54:22Z" changeset="123344083" uid="3497659" user="NKA">
		<tag k="name" v="Nytrøa" />
		<tag k="place" v="farm" />
		<tag k="ssr:stedsnr" v="869644" />
	</node>
	<node id="9873702204" lat="70.0610861" lon="19.3797278" version="1" timestamp="2022-07-08T05:54:22Z" changeset="123344083" uid="3497659" user="NKA">
		<tag k="name" v="Myrstad" />
		<tag k="place" v="farm" />
		<tag k="ssr:stedsnr" v="201985" />
	</node>
	<node id="9873702205" lat="70.1703547" lon="19.658281" version="1" timestamp="2022-07-08T05:54:22Z" changeset="123344083" uid="3497659" user="NKA">
		<tag k="name" v="Einarstrand" />
		<tag k="place" v="farm" />
		<tag k="ssr:stedsnr" v="383849" />
	</node>
	<node id="9873702206" lat="70.0966519" lon="18.8208287" version="1" timestamp="2022-07-08T05:54:22Z" changeset="123344083" uid="3497659" user="NKA">
		<tag k="name" v="Andammen" />
		<tag k="place" v="locality" />
		<tag k="ssr:stedsnr" v="1077943" />
	</node>
	<node id="9873702207" lat="70.0472444" lon="19.4721917" version="1" timestamp="2022-07-08T05:54:22Z" changeset="123344083" uid="3497659" user="NKA">
		<tag k="alt_name" v="Gammvikbukta;Gammvik" />
		<tag k="name" v="Gamvik" />
		<tag k="place" v="farm" />
		<tag k="ssr:stedsnr" v="201971" />
	</node>
	<node id="9873702208" lat="69.9893668" lon="19.5594425" version="1" timestamp="2022-07-08T05:54:22Z" changeset="123344083" uid="3497659" user="NKA">
		<tag k="name" v="Engbakken" />
		<tag k="place" v="isolated_dwelling" />
		<tag k="ssr:stedsnr" v="839016" />
	</node>
	<node id="9873702209" lat="70.0447528" lon="18.8791166" version="1" timestamp="2022-07-08T05:54:22Z" changeset="123344083" uid="3497659" user="NKA">
		<tag k="name" v="Elvevoll" />
		<tag k="place" v="farm" />
		<tag k="ssr:stedsnr" v="687717" />
	</node>
	<node id="9873702210" lat="70.0651139" lon="19.03895" version="1" timestamp="2022-07-08T05:54:22Z" changeset="123344083" uid="3497659" user="NKA">
		<tag k="name" v="Solberg" />
		<tag k="place" v="farm" />
		<tag k="ssr:stedsnr" v="900780" />
	</node>
	<node id="9873702211" lat="70.023825" lon="18.9682528" version="1" timestamp="2022-07-08T05:54:22Z" changeset="123344083" uid="3497659" user="NKA">
		<tag k="name" v="Bakkejord" />
		<tag k="place" v="farm" />
		<tag k="ssr:stedsnr" v="686657" />
	</node>
	<node id="9873702212" lat="70.0665833" lon="18.9485638" version="1" timestamp="2022-07-08T05:54:22Z" changeset="123344083" uid="3497659" user="NKA">
		<tag k="name" v="Myrset" />
		<tag k="place" v="hamlet" />
		<tag k="ssr:stedsnr" v="747741" />
	</node>
	<node id="9873702213" lat="70.0192584" lon="18.9606888" version="1" timestamp="2022-07-08T05:54:22Z" changeset="123344083" uid="3497659" user="NKA">
		<tag k="name" v="Solvoll" />
		<tag k="place" v="farm" />
		<tag k="ssr:stedsnr" v="504675" />
	</node>
	<node id="9873702214" lat="69.9988616" lon="19.5598328" version="1" timestamp="2022-07-08T05:54:22Z" changeset="123344083" uid="3497659" user="NKA">
		<tag k="name" v="Elvemo" />
		<tag k="place" v="farm" />
		<tag k="ssr:stedsnr" v="536016" />
	</node>
	<node id="9873702215" lat="70.0888972" lon="18.9857973" version="1" timestamp="2022-07-08T05:54:22Z" changeset="123344083" uid="3497659" user="NKA">
		<tag k="name" v="Haugland" />
		<tag k="place" v="isolated_dwelling" />
		<tag k="ssr:stedsnr" v="444513" />
	</node>
	<node id="9873702216" lat="70.1963225" lon="19.8686093" version="1" timestamp="2022-07-08T05:54:22Z" changeset="123344083" uid="3497659" user="NKA">
		<tag k="alt_name" v="Ystelad" />
		<tag k="name" v="Ystelade" />
		<tag k="place" v="farm" />
		<tag k="ssr:stedsnr" v="19948" />
	</node>
	<node id="9873702217" lat="70.2297509" lon="19.7407653" version="1" timestamp="2022-07-08T05:54:22Z" changeset="123344083" uid="3497659" user="NKA">
		<tag k="alt_name" v="Burøy" />
		<tag k="name" v="Burøya" />
		<tag k="place" v="farm" />
		<tag k="ssr:stedsnr" v="19842" />
	</node>
	<node id="9873702218" lat="70.099974" lon="19.0350015" version="1" timestamp="2022-07-08T05:54:22Z" changeset="123344083" uid="3497659" user="NKA">
		<tag k="alt_name" v="Hersøy" />
		<tag k="name" v="Hersøya" />
		<tag k="place" v="hamlet" />
		<tag k="ssr:stedsnr" v="382515" />
	</node>
	<node id="9873702219" lat="69.9916694" lon="19.407636" version="1" timestamp="2022-07-08T05:54:22Z" changeset="123344083" uid="3497659" user="NKA">
		<tag k="name" v="Utt" />
		<tag k="place" v="farm" />
		<tag k="ssr:stedsnr" v="262608" />
	</node>
	<node id="9873702220" lat="70.0438282" lon="19.0472762" version="1" timestamp="2022-07-08T05:54:22Z" changeset="123344083" uid="3497659" user="NKA">
		<tag k="name" v="Nygård" />
		<tag k="place" v="farm" />
		<tag k="ssr:stedsnr" v="323708" />
	</node>
	<node id="9873702221" lat="70.0208361" lon="19.0390111" version="1" timestamp="2022-07-08T05:54:22Z" changeset="123344083" uid="3497659" user="NKA">
		<tag k="alt_name" v="Nyvoll" />
		<tag k="name" v="Pålfinngård" />
		<tag k="place" v="farm" />
		<tag k="ssr:stedsnr" v="262680" />
	</node>
	<node id="9873702222" lat="70.0174945" lon="18.8476139" version="1" timestamp="2022-07-08T05:54:22Z" changeset="123344083" uid="3497659" user="NKA">
		<tag k="name" v="Jøvika" />
		<tag k="place" v="farm" />
		<tag k="ssr:stedsnr" v="322666" />
	</node>
	<node id="9873702223" lat="70.0447506" lon="19.5297172" version="1" timestamp="2022-07-08T05:54:22Z" changeset="123344083" uid="3497659" user="NKA">
		<tag k="name" v="Brennes" />
		<tag k="place" v="farm" />
		<tag k="ssr:stedsnr" v="87521" />
	</node>
	<node id="9873702224" lat="70.2514008" lon="19.191203" version="1" timestamp="2022-07-08T05:54:22Z" changeset="123344083" uid="3497659" user="NKA">
		<tag k="alt_name" v="Steikarvik" />
		<tag k="name" v="Steikarvika" />
		<tag k="place" v="locality" />
		<tag k="ssr:stedsnr" v="1077949" />
	</node>
	<node id="9873702225" lat="70.2204955" lon="19.7249815" version="1" timestamp="2022-07-08T05:54:22Z" changeset="123344083" uid="3497659" user="NKA">
		<tag k="name" v="Dalheim" />
		<tag k="place" v="farm" />
		<tag k="ssr:stedsnr" v="658442" />
	</node>
	<node id="9873702226" lat="70.254725" lon="19.5512501" version="1" timestamp="2022-07-08T05:54:22Z" changeset="123344083" uid="3497659" user="NKA">
		<tag k="name" v="Sandfjorden" />
		<tag k="place" v="isolated_dwelling" />
		<tag k="ssr:stedsnr" v="869438" />
	</node>
	<node id="9873702227" lat="70.002075" lon="19.3828834" version="1" timestamp="2022-07-08T05:54:22Z" changeset="123344083" uid="3497659" user="NKA">
		<tag k="alt_name" v="Steinvoll" />
		<tag k="name" v="Steinvollen" />
		<tag k="place" v="farm" />
		<tag k="ssr:stedsnr" v="19954" />
	</node>
	<node id="9873702228" lat="70.0249" lon="18.9388389" version="1" timestamp="2022-07-08T05:54:22Z" changeset="123344083" uid="3497659" user="NKA">
		<tag k="name" v="Vestergard" />
		<tag k="place" v="farm" />
		<tag k="ssr:stedsnr" v="868638" />
	</node>
	<node id="9873702229" lat="70.0540416" lon="18.9365278" version="1" timestamp="2022-07-08T05:54:22Z" changeset="123344083" uid="3497659" user="NKA">
		<tag k="name" v="Lyshaug" />
		<tag k="place" v="farm" />
		<tag k="ssr:stedsnr" v="747720" />
	</node>
	<node id="9873702230" lat="70.1185639" lon="18.9625973" version="1" timestamp="2022-07-08T05:54:22Z" changeset="123344083" uid="3497659" user="NKA">
		<tag k="name" v="Hersøygård" />
		<tag k="place" v="hamlet" />
		<tag k="ssr:stedsnr" v="808545" />
	</node>
</osm>
