<?xml version="1.0" encoding="UTF-8"?>
<osm version="0.6" generator="osmapis">
	<node id="289269486" lat="65.6402228" lon="11.9410049" version="4" timestamp="2022-07-17T17:54:34Z" changeset="123730053" uid="3497659" user="NKA">
		<tag k="name" v="Floa" />
		<tag k="place" v="hamlet" />
		<tag k="ssr:stedsnr" v="197323" />
	</node>
	<node id="1314637876" lat="65.6769293" lon="11.961864" version="6" timestamp="2022-07-17T17:54:34Z" changeset="123730053" uid="3497659" user="NKA">
		<tag k="alt_name" v="Vega" />
		<tag k="name" v="Gladstad" />
		<tag k="place" v="village" />
		<tag k="population" v="284" />
		<tag k="population:date" v="2021-01-01" />
		<tag k="ref:ssb_tettsted" v="7551" />
		<tag k="source:population" v="SSB - befolkning i tettstedet" />
		<tag k="ssr:stedsnr" v="258467" />
	</node>
	<node id="4252700486" lat="65.6104835" lon="11.8483094" version="2" timestamp="2022-07-17T17:54:34Z" changeset="123730053" uid="3497659" user="NKA">
		<tag k="name" v="Eidem" />
		<tag k="place" v="hamlet" />
		<tag k="ssr:stedsnr" v="76355" />
	</node>
	<node id="4252700487" lat="65.6776491" lon="11.8110126" version="2" timestamp="2022-07-17T17:54:34Z" changeset="123730053" uid="3497659" user="NKA">
		<tag k="name" v="Sundsvoll" />
		<tag k="place" v="hamlet" />
		<tag k="ssr:stedsnr" v="379444" />
	</node>
	<node id="6205774480" lat="65.6361891" lon="12.171976" version="2" timestamp="2022-07-17T17:54:34Z" changeset="123730053" uid="3497659" user="NKA">
		<tag k="name" v="Ylvingen" />
		<tag k="place" v="hamlet" />
		<tag k="ssr:stedsnr" v="319305" />
	</node>
	<node id="9893690696" lat="65.5793384" lon="11.694895" version="1" timestamp="2022-07-17T17:54:34Z" changeset="123730053" uid="3497659" user="NKA">
		<tag k="name" v="Haugen" />
		<tag k="place" v="farm" />
		<tag k="ssr:stedsnr" v="406053" />
	</node>
	<node id="9893690697" lat="65.6931139" lon="11.8540861" version="1" timestamp="2022-07-17T17:54:34Z" changeset="123730053" uid="3497659" user="NKA">
		<tag k="name" v="Viken" />
		<tag k="place" v="farm" />
		<tag k="ssr:stedsnr" v="418866" />
	</node>
	<node id="9893690698" lat="65.6981015" lon="11.9852914" version="1" timestamp="2022-07-17T17:54:34Z" changeset="123730053" uid="3497659" user="NKA">
		<tag k="name" v="Haugen" />
		<tag k="place" v="isolated_dwelling" />
		<tag k="ssr:stedsnr" v="600698" />
	</node>
	<node id="9893690699" lat="65.5999515" lon="12.1313563" version="1" timestamp="2022-07-17T17:54:34Z" changeset="123730053" uid="3497659" user="NKA">
		<tag k="name" v="Brenta" />
		<tag k="place" v="farm" />
		<tag k="ssr:stedsnr" v="926132" />
	</node>
	<node id="9893690700" lat="65.6752568" lon="12.1143913" version="1" timestamp="2022-07-17T17:54:34Z" changeset="123730053" uid="3497659" user="NKA">
		<tag k="name" v="Innerhauan" />
		<tag k="place" v="farm" />
		<tag k="ssr:stedsnr" v="783296" />
	</node>
	<node id="9893690701" lat="65.6905819" lon="11.8391026" version="1" timestamp="2022-07-17T17:54:34Z" changeset="123730053" uid="3497659" user="NKA">
		<tag k="name" v="Kjelkdalen" />
		<tag k="place" v="farm" />
		<tag k="ssr:stedsnr" v="989758" />
	</node>
	<node id="9893690702" lat="65.6421778" lon="12.1699333" version="1" timestamp="2022-07-17T17:54:34Z" changeset="123730053" uid="3497659" user="NKA">
		<tag k="name" v="Skutnes" />
		<tag k="place" v="locality" />
		<tag k="ssr:stedsnr" v="481279" />
	</node>
	<node id="9893690703" lat="65.7103096" lon="11.9615322" version="1" timestamp="2022-07-17T17:54:34Z" changeset="123730053" uid="3497659" user="NKA">
		<tag k="name" v="Lamøya" />
		<tag k="place" v="locality" />
		<tag k="ssr:stedsnr" v="989768" />
	</node>
	<node id="9893690704" lat="65.6840329" lon="12.1295678" version="1" timestamp="2022-07-17T17:54:34Z" changeset="123730053" uid="3497659" user="NKA">
		<tag k="name" v="Skjåvika" />
		<tag k="place" v="farm" />
		<tag k="ssr:stedsnr" v="721337" />
	</node>
	<node id="9893690705" lat="65.6867111" lon="11.8514805" version="1" timestamp="2022-07-17T17:54:34Z" changeset="123730053" uid="3497659" user="NKA">
		<tag k="name" v="Vegmoen" />
		<tag k="place" v="farm" />
		<tag k="ssr:stedsnr" v="964760" />
	</node>
	<node id="9893690706" lat="65.6723306" lon="12.0846945" version="1" timestamp="2022-07-17T17:54:34Z" changeset="123730053" uid="3497659" user="NKA">
		<tag k="name" v="Langvika" />
		<tag k="place" v="locality" />
		<tag k="ssr:stedsnr" v="674645" />
	</node>
	<node id="9893690707" lat="65.6847608" lon="11.9604761" version="1" timestamp="2022-07-17T17:54:34Z" changeset="123730053" uid="3497659" user="NKA">
		<tag k="name" v="Dammyra" />
		<tag k="place" v="farm" />
		<tag k="ssr:stedsnr" v="919738" />
	</node>
	<node id="9893690708" lat="65.6542597" lon="11.9168349" version="1" timestamp="2022-07-17T17:54:34Z" changeset="123730053" uid="3497659" user="NKA">
		<tag k="name" v="Nymo" />
		<tag k="place" v="farm" />
		<tag k="ssr:stedsnr" v="904016" />
	</node>
	<node id="9893690709" lat="65.6844674" lon="12.1165035" version="1" timestamp="2022-07-17T17:54:34Z" changeset="123730053" uid="3497659" user="NKA">
		<tag k="name" v="Bukken" />
		<tag k="place" v="farm" />
		<tag k="ssr:stedsnr" v="539287" />
	</node>
	<node id="9893690710" lat="65.697429" lon="11.9860843" version="1" timestamp="2022-07-17T17:54:34Z" changeset="123730053" uid="3497659" user="NKA">
		<tag k="name" v="Sveahaugen" />
		<tag k="place" v="farm" />
		<tag k="ssr:stedsnr" v="810723" />
	</node>
	<node id="9893690711" lat="65.6957555" lon="11.8659138" version="1" timestamp="2022-07-17T17:54:34Z" changeset="123730053" uid="3497659" user="NKA">
		<tag k="name" v="Kråkåsmyra" />
		<tag k="place" v="farm" />
		<tag k="ssr:stedsnr" v="804479" />
	</node>
	<node id="9893690712" lat="65.6603583" lon="11.9760277" version="1" timestamp="2022-07-17T17:54:34Z" changeset="123730053" uid="3497659" user="NKA">
		<tag k="alt_name" v="Foråsskaret" />
		<tag k="name" v="Foråsskardet" />
		<tag k="place" v="farm" />
		<tag k="ssr:stedsnr" v="804292" />
	</node>
	<node id="9893690713" lat="65.6632834" lon="11.9804529" version="1" timestamp="2022-07-17T17:54:34Z" changeset="123730053" uid="3497659" user="NKA">
		<tag k="name" v="Andvågen" />
		<tag k="place" v="farm" />
		<tag k="ssr:stedsnr" v="804290" />
	</node>
	<node id="9893690714" lat="65.7063862" lon="11.8844361" version="1" timestamp="2022-07-17T17:54:34Z" changeset="123730053" uid="3497659" user="NKA">
		<tag k="name" v="Sør-Nautøy" />
		<tag k="place" v="locality" />
		<tag k="ssr:stedsnr" v="782714" />
	</node>
	<node id="9893690715" lat="65.6479466" lon="11.9932401" version="1" timestamp="2022-07-17T17:54:34Z" changeset="123730053" uid="3497659" user="NKA">
		<tag k="name" v="Myrstad" />
		<tag k="place" v="isolated_dwelling" />
		<tag k="ssr:stedsnr" v="237531" />
	</node>
	<node id="9893690716" lat="65.6748157" lon="12.0467367" version="1" timestamp="2022-07-17T17:54:34Z" changeset="123730053" uid="3497659" user="NKA">
		<tag k="name" v="Grimsøya" />
		<tag k="place" v="hamlet" />
		<tag k="ssr:stedsnr" v="804499" />
	</node>
	<node id="9893693017" lat="65.6600777" lon="11.9086955" version="1" timestamp="2022-07-17T17:54:34Z" changeset="123730053" uid="3497659" user="NKA">
		<tag k="name" v="Åsen" />
		<tag k="place" v="hamlet" />
		<tag k="ssr:stedsnr" v="743290" />
	</node>
	<node id="9893693018" lat="65.6368" lon="12.1663307" version="1" timestamp="2022-07-17T17:54:34Z" changeset="123730053" uid="3497659" user="NKA">
		<tag k="name" v="Bakken" />
		<tag k="place" v="farm" />
		<tag k="ssr:stedsnr" v="379316" />
	</node>
	<node id="9893693019" lat="65.660025" lon="11.8952889" version="1" timestamp="2022-07-17T17:54:34Z" changeset="123730053" uid="3497659" user="NKA">
		<tag k="name" v="Steinåsen" />
		<tag k="place" v="farm" />
		<tag k="ssr:stedsnr" v="743291" />
	</node>
	<node id="9893693020" lat="65.6786824" lon="12.1247269" version="1" timestamp="2022-07-17T17:54:34Z" changeset="123730053" uid="3497659" user="NKA">
		<tag k="name" v="Naustvik" />
		<tag k="place" v="isolated_dwelling" />
		<tag k="ssr:stedsnr" v="54356" />
	</node>
	<node id="9893693021" lat="65.7045202" lon="11.917871" version="1" timestamp="2022-07-17T17:54:34Z" changeset="123730053" uid="3497659" user="NKA">
		<tag k="name" v="Gryttingen" />
		<tag k="place" v="farm" />
		<tag k="ssr:stedsnr" v="722845" />
	</node>
	<node id="9893693022" lat="65.600547" lon="12.1445909" version="1" timestamp="2022-07-17T17:54:34Z" changeset="123730053" uid="3497659" user="NKA">
		<tag k="name" v="Salvika" />
		<tag k="place" v="farm" />
		<tag k="ssr:stedsnr" v="76158" />
	</node>
	<node id="9893693023" lat="65.6709196" lon="11.9817689" version="1" timestamp="2022-07-17T17:54:34Z" changeset="123730053" uid="3497659" user="NKA">
		<tag k="name" v="Stormyra" />
		<tag k="place" v="farm" />
		<tag k="ssr:stedsnr" v="16240" />
	</node>
	<node id="9893693024" lat="65.6809378" lon="12.1182915" version="1" timestamp="2022-07-17T17:54:34Z" changeset="123730053" uid="3497659" user="NKA">
		<tag k="name" v="Garden" />
		<tag k="place" v="farm" />
		<tag k="ssr:stedsnr" v="964337" />
	</node>
	<node id="9893693025" lat="65.6862309" lon="11.8534859" version="1" timestamp="2022-07-17T17:54:34Z" changeset="123730053" uid="3497659" user="NKA">
		<tag k="name" v="Holten" />
		<tag k="place" v="isolated_dwelling" />
		<tag k="ssr:stedsnr" v="600771" />
	</node>
	<node id="9893693026" lat="65.6493033" lon="11.9014112" version="1" timestamp="2022-07-17T17:54:34Z" changeset="123730053" uid="3497659" user="NKA">
		<tag k="name" v="Eines" />
		<tag k="place" v="locality" />
		<tag k="ssr:stedsnr" v="683277" />
	</node>
	<node id="9893693027" lat="65.6909944" lon="11.9388168" version="1" timestamp="2022-07-17T17:54:34Z" changeset="123730053" uid="3497659" user="NKA">
		<tag k="name" v="Heimgarden" />
		<tag k="place" v="farm" />
		<tag k="ssr:stedsnr" v="600797" />
	</node>
	<node id="9893693028" lat="65.6650889" lon="11.9248828" version="1" timestamp="2022-07-17T17:54:34Z" changeset="123730053" uid="3497659" user="NKA">
		<tag k="name" v="Kalvås" />
		<tag k="place" v="farm" />
		<tag k="ssr:stedsnr" v="615755" />
	</node>
	<node id="9893693029" lat="65.6534765" lon="11.9954675" version="1" timestamp="2022-07-17T17:54:34Z" changeset="123730053" uid="3497659" user="NKA">
		<tag k="alt_name" v="Finnes" />
		<tag k="name" v="Finneset" />
		<tag k="place" v="farm" />
		<tag k="ssr:stedsnr" v="450615" />
	</node>
	<node id="9893693030" lat="65.6332" lon="12.159825" version="1" timestamp="2022-07-17T17:54:34Z" changeset="123730053" uid="3497659" user="NKA">
		<tag k="name" v="Harmmyra" />
		<tag k="place" v="farm" />
		<tag k="ssr:stedsnr" v="379317" />
	</node>
	<node id="9893693031" lat="65.6843917" lon="11.9641583" version="1" timestamp="2022-07-17T17:54:34Z" changeset="123730053" uid="3497659" user="NKA">
		<tag k="name" v="Forsbakken" />
		<tag k="place" v="farm" />
		<tag k="ssr:stedsnr" v="379459" />
	</node>
	<node id="9893693032" lat="65.6987178" lon="11.8774769" version="1" timestamp="2022-07-17T17:54:34Z" changeset="123730053" uid="3497659" user="NKA">
		<tag k="name" v="Viksåsen" />
		<tag k="place" v="hamlet" />
		<tag k="ssr:stedsnr" v="318470" />
	</node>
	<node id="9893693033" lat="65.57857" lon="11.6942049" version="1" timestamp="2022-07-17T17:54:34Z" changeset="123730053" uid="3497659" user="NKA">
		<tag k="name" v="Skaftet" />
		<tag k="place" v="farm" />
		<tag k="ssr:stedsnr" v="163049" />
	</node>
	<node id="9893693034" lat="65.6759722" lon="11.9479445" version="1" timestamp="2022-07-17T17:54:34Z" changeset="123730053" uid="3497659" user="NKA">
		<tag k="name" v="Høgåsen" />
		<tag k="place" v="neighbourhood" />
		<tag k="ssr:stedsnr" v="252760" />
	</node>
	<node id="9893693035" lat="65.6829417" lon="12.1257028" version="1" timestamp="2022-07-17T17:54:34Z" changeset="123730053" uid="3497659" user="NKA">
		<tag k="name" v="Igerøy" />
		<tag k="place" v="hamlet" />
		<tag k="ssr:stedsnr" v="198471" />
	</node>
	<node id="9893693036" lat="65.6946361" lon="11.9399194" version="1" timestamp="2022-07-17T17:54:34Z" changeset="123730053" uid="3497659" user="NKA">
		<tag k="alt_name" v="Kolskog" />
		<tag k="name" v="Kolskogen" />
		<tag k="place" v="farm" />
		<tag k="ssr:stedsnr" v="379441" />
	</node>
	<node id="9893693037" lat="65.6828966" lon="11.8611928" version="1" timestamp="2022-07-17T17:54:34Z" changeset="123730053" uid="3497659" user="NKA">
		<tag k="name" v="Gullsvåg" />
		<tag k="place" v="hamlet" />
		<tag k="ssr:stedsnr" v="319461" />
	</node>
	<node id="9893693038" lat="65.6884445" lon="12.1283694" version="1" timestamp="2022-07-17T17:54:34Z" changeset="123730053" uid="3497659" user="NKA">
		<tag k="name" v="Leirvikmarka" />
		<tag k="place" v="farm" />
		<tag k="ssr:stedsnr" v="865513" />
	</node>
	<node id="9893693039" lat="65.5996737" lon="11.9084357" version="1" timestamp="2022-07-17T17:54:34Z" changeset="123730053" uid="3497659" user="NKA">
		<tag k="name" v="Hestvika" />
		<tag k="place" v="hamlet" />
		<tag k="ssr:stedsnr" v="136164" />
	</node>
	<node id="9893693040" lat="65.6190417" lon="12.1287416" version="1" timestamp="2022-07-17T17:54:34Z" changeset="123730053" uid="3497659" user="NKA">
		<tag k="name" v="Rotviken" />
		<tag k="place" v="locality" />
		<tag k="ssr:stedsnr" v="178675" />
	</node>
	<node id="9893693041" lat="65.6291018" lon="11.9777201" version="1" timestamp="2022-07-17T17:54:34Z" changeset="123730053" uid="3497659" user="NKA">
		<tag k="name" v="Kjul" />
		<tag k="place" v="farm" />
		<tag k="ssr:stedsnr" v="989734" />
	</node>
	<node id="9893693042" lat="65.6810889" lon="11.8625777" version="1" timestamp="2022-07-17T17:54:34Z" changeset="123730053" uid="3497659" user="NKA">
		<tag k="alt_name" v="Gulsvåghaugen" />
		<tag k="name" v="Gullsvåghaugen" />
		<tag k="place" v="farm" />
		<tag k="ssr:stedsnr" v="319459" />
	</node>
	<node id="9893693043" lat="65.6793389" lon="12.1261389" version="1" timestamp="2022-07-17T17:54:34Z" changeset="123730053" uid="3497659" user="NKA">
		<tag k="name" v="Nausthaugen" />
		<tag k="place" v="farm" />
		<tag k="ssr:stedsnr" v="865504" />
	</node>
	<node id="9893693044" lat="65.61755" lon="11.8961056" version="1" timestamp="2022-07-17T17:54:34Z" changeset="123730053" uid="3497659" user="NKA">
		<tag k="name" v="Vollan" />
		<tag k="place" v="farm" />
		<tag k="ssr:stedsnr" v="904177" />
	</node>
	<node id="9893693045" lat="65.6175639" lon="11.9032194" version="1" timestamp="2022-07-17T17:54:34Z" changeset="123730053" uid="3497659" user="NKA">
		<tag k="name" v="Vikasjøen" />
		<tag k="place" v="farm" />
		<tag k="ssr:stedsnr" v="25587" />
	</node>
	<node id="9893693046" lat="65.6351667" lon="11.9877473" version="1" timestamp="2022-07-17T17:54:34Z" changeset="123730053" uid="3497659" user="NKA">
		<tag k="name" v="Trangkleiva" />
		<tag k="place" v="locality" />
		<tag k="ssr:stedsnr" v="904504" />
	</node>
	<node id="9893693047" lat="65.7015688" lon="11.916512" version="1" timestamp="2022-07-17T17:54:34Z" changeset="123730053" uid="3497659" user="NKA">
		<tag k="name" v="Kjerrhaugen" />
		<tag k="place" v="farm" />
		<tag k="ssr:stedsnr" v="258459" />
	</node>
	<node id="9893693048" lat="65.6217417" lon="12.1632334" version="1" timestamp="2022-07-17T17:54:34Z" changeset="123730053" uid="3497659" user="NKA">
		<tag k="alt_name" v="Engen" />
		<tag k="name" v="Enget" />
		<tag k="place" v="farm" />
		<tag k="ssr:stedsnr" v="198336" />
	</node>
	<node id="9893693049" lat="65.6695551" lon="12.0932072" version="1" timestamp="2022-07-17T17:54:34Z" changeset="123730053" uid="3497659" user="NKA">
		<tag k="name" v="Jektvika" />
		<tag k="place" v="farm" />
		<tag k="ssr:stedsnr" v="16230" />
	</node>
	<node id="9893693050" lat="65.6054599" lon="12.1395142" version="1" timestamp="2022-07-17T17:54:34Z" changeset="123730053" uid="3497659" user="NKA">
		<tag k="name" v="Strandvika" />
		<tag k="place" v="farm" />
		<tag k="ssr:stedsnr" v="804161" />
	</node>
	<node id="9893693051" lat="65.6311583" lon="11.9821584" version="1" timestamp="2022-07-17T17:54:34Z" changeset="123730053" uid="3497659" user="NKA">
		<tag k="name" v="Nordkjul" />
		<tag k="place" v="hamlet" />
		<tag k="ssr:stedsnr" v="804338" />
	</node>
	<node id="9893693052" lat="65.6922444" lon="11.8414417" version="1" timestamp="2022-07-17T17:54:34Z" changeset="123730053" uid="3497659" user="NKA">
		<tag k="name" v="Brandsvika" />
		<tag k="place" v="hamlet" />
		<tag k="ssr:stedsnr" v="258436" />
	</node>
	<node id="9893693053" lat="65.7010209" lon="11.9367357" version="1" timestamp="2022-07-17T17:54:34Z" changeset="123730053" uid="3497659" user="NKA">
		<tag k="name" v="Åkerbakken" />
		<tag k="place" v="farm" />
		<tag k="ssr:stedsnr" v="258455" />
	</node>
	<node id="9893693054" lat="65.6875886" lon="11.9159495" version="1" timestamp="2022-07-17T17:54:34Z" changeset="123730053" uid="3497659" user="NKA">
		<tag k="alt_name" v="Bakkejord" />
		<tag k="name" v="Bakkejordet" />
		<tag k="place" v="farm" />
		<tag k="ssr:stedsnr" v="258443" />
	</node>
	<node id="9893693055" lat="65.608475" lon="12.1339249" version="1" timestamp="2022-07-17T17:54:34Z" changeset="123730053" uid="3497659" user="NKA">
		<tag k="name" v="Håvardsvika" />
		<tag k="place" v="farm" />
		<tag k="ssr:stedsnr" v="561137" />
	</node>
	<node id="9893693056" lat="65.63065" lon="11.9837695" version="1" timestamp="2022-07-17T17:54:34Z" changeset="123730053" uid="3497659" user="NKA">
		<tag k="name" v="Tosen" />
		<tag k="place" v="locality" />
		<tag k="ssr:stedsnr" v="600494" />
	</node>
	<node id="9893693057" lat="65.6250972" lon="11.9698138" version="1" timestamp="2022-07-17T17:54:34Z" changeset="123730053" uid="3497659" user="NKA">
		<tag k="name" v="Sørkjul" />
		<tag k="place" v="hamlet" />
		<tag k="ssr:stedsnr" v="683290" />
	</node>
	<node id="9893693058" lat="65.6865835" lon="11.8685333" version="1" timestamp="2022-07-17T17:54:34Z" changeset="123730053" uid="3497659" user="NKA">
		<tag k="name" v="Nesjan" />
		<tag k="place" v="farm" />
		<tag k="ssr:stedsnr" v="136490" />
	</node>
	<node id="9893693059" lat="65.6641417" lon="11.9162528" version="1" timestamp="2022-07-17T17:54:34Z" changeset="123730053" uid="3497659" user="NKA">
		<tag k="name" v="Bergåsen" />
		<tag k="place" v="farm" />
		<tag k="ssr:stedsnr" v="136295" />
	</node>
	<node id="9893693060" lat="65.6447761" lon="12.1633397" version="1" timestamp="2022-07-17T17:54:34Z" changeset="123730053" uid="3497659" user="NKA">
		<tag k="alt_name" v="Mjøgråven" />
		<tag k="name" v="Mjøgrova" />
		<tag k="place" v="farm" />
		<tag k="ssr:stedsnr" v="743318" />
	</node>
	<node id="9893693061" lat="65.7019056" lon="12.0023702" version="1" timestamp="2022-07-17T17:54:34Z" changeset="123730053" uid="3497659" user="NKA">
		<tag k="name" v="Hongset" />
		<tag k="place" v="hamlet" />
		<tag k="ssr:stedsnr" v="621453" />
	</node>
	<node id="9893693062" lat="65.6952806" lon="11.9854056" version="1" timestamp="2022-07-17T17:54:34Z" changeset="123730053" uid="3497659" user="NKA">
		<tag k="name" v="Ner-Svea" />
		<tag k="place" v="farm" />
		<tag k="ssr:stedsnr" v="904699" />
	</node>
	<node id="9893693063" lat="65.6364978" lon="12.1640954" version="1" timestamp="2022-07-17T17:54:34Z" changeset="123730053" uid="3497659" user="NKA">
		<tag k="name" v="Gården" />
		<tag k="place" v="isolated_dwelling" />
		<tag k="ssr:stedsnr" v="906273" />
	</node>
	<node id="9893693064" lat="65.6128163" lon="11.8503131" version="1" timestamp="2022-07-17T17:54:34Z" changeset="123730053" uid="3497659" user="NKA">
		<tag k="name" v="Solrud" />
		<tag k="place" v="farm" />
		<tag k="ssr:stedsnr" v="258381" />
	</node>
	<node id="9893693065" lat="65.7015242" lon="11.9428573" version="1" timestamp="2022-07-17T17:54:34Z" changeset="123730053" uid="3497659" user="NKA">
		<tag k="alt_name" v="Grindhågjen" />
		<tag k="name" v="Grindhaugen" />
		<tag k="place" v="farm" />
		<tag k="ssr:stedsnr" v="76478" />
	</node>
	<node id="9893693066" lat="65.6223166" lon="11.9076946" version="1" timestamp="2022-07-17T17:54:34Z" changeset="123730053" uid="3497659" user="NKA">
		<tag k="name" v="Trøvollen" />
		<tag k="place" v="farm" />
		<tag k="ssr:stedsnr" v="137286" />
	</node>
	<node id="9893693067" lat="65.6402444" lon="11.9971611" version="1" timestamp="2022-07-17T17:54:34Z" changeset="123730053" uid="3497659" user="NKA">
		<tag k="name" v="Kjulsvika" />
		<tag k="place" v="farm" />
		<tag k="ssr:stedsnr" v="15316" />
	</node>
	<node id="9893693068" lat="65.6193382" lon="11.7586133" version="1" timestamp="2022-07-17T17:54:34Z" changeset="123730053" uid="3497659" user="NKA">
		<tag k="name" v="Nepsundet" />
		<tag k="place" v="locality" />
		<tag k="ssr:stedsnr" v="989742" />
	</node>
	<node id="9893693069" lat="65.667725" lon="11.9201388" version="1" timestamp="2022-07-17T17:54:34Z" changeset="123730053" uid="3497659" user="NKA">
		<tag k="name" v="Kalvåsen" />
		<tag k="place" v="hamlet" />
		<tag k="ssr:stedsnr" v="198239" />
	</node>
	<node id="9893693070" lat="65.7121278" lon="11.9109388" version="1" timestamp="2022-07-17T17:54:34Z" changeset="123730053" uid="3497659" user="NKA">
		<tag k="name" v="Gardsøya Industriområde" />
		<tag k="place" v="neighbourhood" />
		<tag k="ssr:stedsnr" v="783907" />
	</node>
	<node id="9893693071" lat="65.7010656" lon="12.0064443" version="1" timestamp="2022-07-17T17:54:34Z" changeset="123730053" uid="3497659" user="NKA">
		<tag k="name" v="Geithaugen" />
		<tag k="place" v="farm" />
		<tag k="ssr:stedsnr" v="926441" />
	</node>
	<node id="9893693072" lat="65.687504" lon="11.9627496" version="1" timestamp="2022-07-17T17:54:34Z" changeset="123730053" uid="3497659" user="NKA">
		<tag k="name" v="Aspåsen" />
		<tag k="place" v="farm" />
		<tag k="ssr:stedsnr" v="926427" />
	</node>
	<node id="9893693073" lat="65.613476" lon="11.8850582" version="1" timestamp="2022-07-17T17:54:34Z" changeset="123730053" uid="3497659" user="NKA">
		<tag k="name" v="Brekka" />
		<tag k="place" v="farm" />
		<tag k="ssr:stedsnr" v="805357" />
	</node>
	<node id="9893693074" lat="65.6214479" lon="11.9619319" version="1" timestamp="2022-07-17T17:54:34Z" changeset="123730053" uid="3497659" user="NKA">
		<tag k="name" v="Skjelvika" />
		<tag k="place" v="farm" />
		<tag k="ssr:stedsnr" v="16281" />
	</node>
	<node id="9893693075" lat="65.6856889" lon="11.9671917" version="1" timestamp="2022-07-17T17:54:34Z" changeset="123730053" uid="3497659" user="NKA">
		<tag k="name" v="Linbakken" />
		<tag k="place" v="farm" />
		<tag k="ssr:stedsnr" v="136498" />
	</node>
	<node id="9893693076" lat="65.6922833" lon="11.875914" version="1" timestamp="2022-07-17T17:54:34Z" changeset="123730053" uid="3497659" user="NKA">
		<tag k="name" v="Staulan" />
		<tag k="place" v="isolated_dwelling" />
		<tag k="ssr:stedsnr" v="661776" />
	</node>
	<node id="9893693077" lat="65.6810083" lon="11.8172334" version="1" timestamp="2022-07-17T17:54:34Z" changeset="123730053" uid="3497659" user="NKA">
		<tag k="name" v="Åsgarden" />
		<tag k="place" v="locality" />
		<tag k="ssr:stedsnr" v="661195" />
	</node>
	<node id="9893693078" lat="65.7051741" lon="11.9141886" version="1" timestamp="2022-07-17T17:54:34Z" changeset="123730053" uid="3497659" user="NKA">
		<tag k="name" v="Gården" />
		<tag k="place" v="farm" />
		<tag k="ssr:stedsnr" v="540809" />
	</node>
	<node id="9893693079" lat="65.6149453" lon="11.8998694" version="1" timestamp="2022-07-17T17:54:34Z" changeset="123730053" uid="3497659" user="NKA">
		<tag k="name" v="Grønnvollen" />
		<tag k="place" v="locality" />
		<tag k="ssr:stedsnr" v="115196" />
	</node>
	<node id="9893693080" lat="65.6194545" lon="11.9020441" version="1" timestamp="2022-07-17T17:54:34Z" changeset="123730053" uid="3497659" user="NKA">
		<tag k="name" v="Vika" />
		<tag k="place" v="hamlet" />
		<tag k="ssr:stedsnr" v="989737" />
	</node>
	<node id="9893693081" lat="65.6283032" lon="11.9733552" version="1" timestamp="2022-07-17T17:54:34Z" changeset="123730053" uid="3497659" user="NKA">
		<tag k="name" v="Burshaugen" />
		<tag k="place" v="farm" />
		<tag k="ssr:stedsnr" v="54418" />
	</node>
	<node id="9893693082" lat="65.6568723" lon="11.995015" version="1" timestamp="2022-07-17T17:54:34Z" changeset="123730053" uid="3497659" user="NKA">
		<tag k="name" v="Stortrøet" />
		<tag k="place" v="farm" />
		<tag k="ssr:stedsnr" v="500293" />
	</node>
	<node id="9893693083" lat="65.6863968" lon="11.9608561" version="1" timestamp="2022-07-17T17:54:34Z" changeset="123730053" uid="3497659" user="NKA">
		<tag k="name" v="Olderåsen" />
		<tag k="place" v="farm" />
		<tag k="ssr:stedsnr" v="116810" />
	</node>
	<node id="9893693084" lat="65.6910863" lon="11.8671794" version="1" timestamp="2022-07-17T17:54:34Z" changeset="123730053" uid="3497659" user="NKA">
		<tag k="name" v="Vallhaugen" />
		<tag k="place" v="farm" />
		<tag k="ssr:stedsnr" v="964778" />
	</node>
	<node id="9893693085" lat="65.6435262" lon="11.7863189" version="1" timestamp="2022-07-17T17:54:34Z" changeset="123730053" uid="3497659" user="NKA">
		<tag k="name" v="Vollan" />
		<tag k="place" v="isolated_dwelling" />
		<tag k="ssr:stedsnr" v="967158" />
	</node>
	<node id="9893693086" lat="65.7022847" lon="11.909587" version="1" timestamp="2022-07-17T17:54:34Z" changeset="123730053" uid="3497659" user="NKA">
		<tag k="name" v="Lillestaulen" />
		<tag k="place" v="farm" />
		<tag k="ssr:stedsnr" v="55808" />
	</node>
	<node id="9893693087" lat="65.67084" lon="11.9242705" version="1" timestamp="2022-07-17T17:54:34Z" changeset="123730053" uid="3497659" user="NKA">
		<tag k="name" v="Limåsen" />
		<tag k="place" v="farm" />
		<tag k="ssr:stedsnr" v="919749" />
	</node>
	<node id="9893693088" lat="65.6061111" lon="11.9428307" version="1" timestamp="2022-07-17T17:54:34Z" changeset="123730053" uid="3497659" user="NKA">
		<tag k="name" v="Aune" />
		<tag k="place" v="locality" />
		<tag k="ssr:stedsnr" v="782160" />
	</node>
	<node id="9893693089" lat="65.6131607" lon="11.8455201" version="1" timestamp="2022-07-17T17:54:34Z" changeset="123730053" uid="3497659" user="NKA">
		<tag k="name" v="Moen" />
		<tag k="place" v="farm" />
		<tag k="ssr:stedsnr" v="759040" />
	</node>
	<node id="9893693090" lat="65.6400216" lon="11.9952557" version="1" timestamp="2022-07-17T17:54:34Z" changeset="123730053" uid="3497659" user="NKA">
		<tag k="name" v="Breivika" />
		<tag k="place" v="isolated_dwelling" />
		<tag k="ssr:stedsnr" v="55486" />
	</node>
	<node id="9893693091" lat="65.6906979" lon="11.9470918" version="1" timestamp="2022-07-17T17:54:34Z" changeset="123730053" uid="3497659" user="NKA">
		<tag k="name" v="Olderåsen" />
		<tag k="place" v="hamlet" />
		<tag k="ssr:stedsnr" v="318462" />
	</node>
	<node id="9893693092" lat="65.6705083" lon="11.9092195" version="1" timestamp="2022-07-17T17:54:34Z" changeset="123730053" uid="3497659" user="NKA">
		<tag k="name" v="Neråsen" />
		<tag k="place" v="farm" />
		<tag k="ssr:stedsnr" v="137244" />
	</node>
	<node id="9893693093" lat="65.61295" lon="11.8436249" version="1" timestamp="2022-07-17T17:54:34Z" changeset="123730053" uid="3497659" user="NKA">
		<tag k="name" v="Momyra" />
		<tag k="place" v="farm" />
		<tag k="ssr:stedsnr" v="258368" />
	</node>
	<node id="9893693094" lat="65.6573582" lon="12.0111423" version="1" timestamp="2022-07-17T17:54:34Z" changeset="123730053" uid="3497659" user="NKA">
		<tag k="name" v="Rørøy" />
		<tag k="place" v="hamlet" />
		<tag k="ssr:stedsnr" v="682282" />
	</node>
	<node id="9893693095" lat="65.7072401" lon="11.9154027" version="1" timestamp="2022-07-17T17:54:34Z" changeset="123730053" uid="3497659" user="NKA">
		<tag k="name" v="Holand" />
		<tag k="place" v="village" />
		<tag k="ssr:stedsnr" v="76428" />
	</node>
	<node id="9893693096" lat="65.6814308" lon="11.8599132" version="1" timestamp="2022-07-17T17:54:34Z" changeset="123730053" uid="3497659" user="NKA">
		<tag k="name" v="Tussberget" />
		<tag k="place" v="isolated_dwelling" />
		<tag k="ssr:stedsnr" v="722810" />
	</node>
	<node id="9893693097" lat="65.6436263" lon="11.7836584" version="1" timestamp="2022-07-17T17:54:34Z" changeset="123730053" uid="3497659" user="NKA">
		<tag k="name" v="Vegdalsgjerdet" />
		<tag k="place" v="isolated_dwelling" />
		<tag k="ssr:stedsnr" v="724170" />
	</node>
	<node id="9893693098" lat="65.6505082" lon="11.9078565" version="1" timestamp="2022-07-17T17:54:34Z" changeset="123730053" uid="3497659" user="NKA">
		<tag k="name" v="Marka" />
		<tag k="place" v="hamlet" />
		<tag k="ssr:stedsnr" v="865349" />
	</node>
	<node id="9893693099" lat="65.7553861" lon="11.7154805" version="1" timestamp="2022-07-17T17:54:34Z" changeset="123730053" uid="3497659" user="NKA">
		<tag k="name" v="Sørgarden" />
		<tag k="place" v="farm" />
		<tag k="ssr:stedsnr" v="683940" />
	</node>
	<node id="9893693100" lat="65.6585139" lon="11.871275" version="1" timestamp="2022-07-17T17:54:34Z" changeset="123730053" uid="3497659" user="NKA">
		<tag k="name" v="Breidablikk" />
		<tag k="place" v="farm" />
		<tag k="ssr:stedsnr" v="622306" />
	</node>
	<node id="9893693101" lat="65.6838377" lon="12.011103" version="1" timestamp="2022-07-17T17:54:34Z" changeset="123730053" uid="3497659" user="NKA">
		<tag k="name" v="Vegsteinen" />
		<tag k="place" v="hamlet" />
		<tag k="ssr:stedsnr" v="258470" />
	</node>
	<node id="9893693102" lat="65.6090611" lon="11.8551417" version="1" timestamp="2022-07-17T17:54:34Z" changeset="123730053" uid="3497659" user="NKA">
		<tag k="alt_name" v="Lisshaugen" />
		<tag k="name" v="Litlhaugen" />
		<tag k="place" v="farm" />
		<tag k="ssr:stedsnr" v="621361" />
	</node>
	<node id="9893693103" lat="65.6636668" lon="11.9281879" version="1" timestamp="2022-07-17T17:54:34Z" changeset="123730053" uid="3497659" user="NKA">
		<tag k="name" v="Tortenåsen" />
		<tag k="place" v="farm" />
		<tag k="ssr:stedsnr" v="191732" />
	</node>
	<node id="9893693104" lat="65.6823617" lon="11.8573477" version="1" timestamp="2022-07-17T17:54:34Z" changeset="123730053" uid="3497659" user="NKA">
		<tag k="name" v="Hundtua" />
		<tag k="place" v="farm" />
		<tag k="ssr:stedsnr" v="357770" />
	</node>
	<node id="9893693105" lat="65.6535" lon="11.9931357" version="1" timestamp="2022-07-17T17:54:34Z" changeset="123730053" uid="3497659" user="NKA">
		<tag k="name" v="Smihaugen" />
		<tag k="place" v="farm" />
		<tag k="ssr:stedsnr" v="358520" />
	</node>
	<node id="9893693106" lat="65.7063167" lon="11.9355002" version="1" timestamp="2022-07-17T17:54:34Z" changeset="123730053" uid="3497659" user="NKA">
		<tag k="name" v="Haugsjø" />
		<tag k="place" v="farm" />
		<tag k="ssr:stedsnr" v="661910" />
	</node>
	<node id="9893693107" lat="65.6199784" lon="11.3893515" version="1" timestamp="2022-07-17T17:54:34Z" changeset="123730053" uid="3497659" user="NKA">
		<tag k="name" v="Bremsteinen" />
		<tag k="place" v="locality" />
		<tag k="ssr:stedsnr" v="989740" />
	</node>
	<node id="9893693108" lat="65.6358528" lon="12.1596278" version="1" timestamp="2022-07-17T17:54:34Z" changeset="123730053" uid="3497659" user="NKA">
		<tag k="name" v="Tofta" />
		<tag k="place" v="farm" />
		<tag k="ssr:stedsnr" v="683301" />
	</node>
	<node id="9893693109" lat="65.7058056" lon="11.9327" version="1" timestamp="2022-07-17T17:54:34Z" changeset="123730053" uid="3497659" user="NKA">
		<tag k="name" v="Nes" />
		<tag k="place" v="hamlet" />
		<tag k="ssr:stedsnr" v="621450" />
	</node>
	<node id="9893693110" lat="65.5797432" lon="11.6967605" version="1" timestamp="2022-07-17T17:54:34Z" changeset="123730053" uid="3497659" user="NKA">
		<tag k="name" v="Muddvær Sørgården" />
		<tag k="place" v="farm" />
		<tag k="ssr:stedsnr" v="101050" />
	</node>
	<node id="9893693111" lat="65.6753534" lon="11.7247827" version="1" timestamp="2022-07-17T17:54:34Z" changeset="123730053" uid="3497659" user="NKA">
		<tag k="name" v="Søla" />
		<tag k="place" v="farm" />
		<tag k="ssr:stedsnr" v="137247" />
	</node>
	<node id="9893693112" lat="65.6965434" lon="11.986547" version="1" timestamp="2022-07-17T17:54:34Z" changeset="123730053" uid="3497659" user="NKA">
		<tag k="name" v="Svea" />
		<tag k="place" v="hamlet" />
		<tag k="ssr:stedsnr" v="561471" />
	</node>
	<node id="9893693113" lat="65.5806722" lon="11.7015277" version="1" timestamp="2022-07-17T17:54:34Z" changeset="123730053" uid="3497659" user="NKA">
		<tag k="name" v="Lamøya" />
		<tag k="place" v="farm" />
		<tag k="ssr:stedsnr" v="584048" />
	</node>
	<node id="9893693114" lat="65.6701392" lon="11.9693757" version="1" timestamp="2022-07-17T17:54:34Z" changeset="123730053" uid="3497659" user="NKA">
		<tag k="name" v="Slettmyra" />
		<tag k="place" v="farm" />
		<tag k="ssr:stedsnr" v="561289" />
	</node>
	<node id="9893693115" lat="65.6815832" lon="11.9781779" version="1" timestamp="2022-07-17T17:54:34Z" changeset="123730053" uid="3497659" user="NKA">
		<tag k="alt_name" v="Grindbakkan" />
		<tag k="name" v="Grindbakken" />
		<tag k="place" v="farm" />
		<tag k="ssr:stedsnr" v="561475" />
	</node>
	<node id="9893693116" lat="65.5807247" lon="11.6973855" version="1" timestamp="2022-07-17T17:54:34Z" changeset="123730053" uid="3497659" user="NKA">
		<tag k="name" v="Muddvær" />
		<tag k="place" v="farm" />
		<tag k="ssr:stedsnr" v="647066" />
	</node>
	<node id="9893693117" lat="65.6560805" lon="11.9240055" version="1" timestamp="2022-07-17T17:54:34Z" changeset="123730053" uid="3497659" user="NKA">
		<tag k="name" v="Bjørkåsen" />
		<tag k="place" v="farm" />
		<tag k="ssr:stedsnr" v="561317" />
	</node>
	<node id="9893693118" lat="65.700932" lon="12.0286594" version="1" timestamp="2022-07-17T17:54:34Z" changeset="123730053" uid="3497659" user="NKA">
		<tag k="name" v="Nordhaugen" />
		<tag k="place" v="isolated_dwelling" />
		<tag k="ssr:stedsnr" v="419738" />
	</node>
	<node id="9893693119" lat="65.6872194" lon="12.1176333" version="1" timestamp="2022-07-17T17:54:34Z" changeset="123730053" uid="3497659" user="NKA">
		<tag k="name" v="Grindhaugen" />
		<tag k="place" v="farm" />
		<tag k="ssr:stedsnr" v="197543" />
	</node>
	<node id="9893693120" lat="65.6851139" lon="11.8536333" version="1" timestamp="2022-07-17T17:54:34Z" changeset="123730053" uid="3497659" user="NKA">
		<tag k="name" v="Grøte" />
		<tag k="place" v="locality" />
		<tag k="ssr:stedsnr" v="661762" />
	</node>
	<node id="9893693121" lat="65.686485" lon="11.863911" version="1" timestamp="2022-07-17T17:54:34Z" changeset="123730053" uid="3497659" user="NKA">
		<tag k="name" v="Staulan" />
		<tag k="place" v="farm" />
		<tag k="ssr:stedsnr" v="418779" />
	</node>
	<node id="9893693122" lat="65.6856528" lon="12.11576" version="1" timestamp="2022-07-17T17:54:34Z" changeset="123730053" uid="3497659" user="NKA">
		<tag k="name" v="Grindhågbakkan" />
		<tag k="place" v="farm" />
		<tag k="ssr:stedsnr" v="479385" />
	</node>
	<node id="9893693123" lat="65.6929918" lon="11.9209952" version="1" timestamp="2022-07-17T17:54:34Z" changeset="123730053" uid="3497659" user="NKA">
		<tag k="name" v="Stråmyra" />
		<tag k="place" v="farm" />
		<tag k="ssr:stedsnr" v="926440" />
	</node>
	<node id="9893693124" lat="65.6632334" lon="11.9840167" version="1" timestamp="2022-07-17T17:54:34Z" changeset="123730053" uid="3497659" user="NKA">
		<tag k="name" v="Lyngen" />
		<tag k="place" v="farm" />
		<tag k="ssr:stedsnr" v="379254" />
	</node>
	<node id="9893693125" lat="65.6175785" lon="11.8991274" version="1" timestamp="2022-07-17T17:54:34Z" changeset="123730053" uid="3497659" user="NKA">
		<tag k="alt_name" v="Vika, s" />
		<tag k="name" v="Søre Vika" />
		<tag k="place" v="farm" />
		<tag k="ssr:stedsnr" v="926354" />
	</node>
	<node id="9893693126" lat="65.6636" lon="11.9453999" version="1" timestamp="2022-07-17T17:54:34Z" changeset="123730053" uid="3497659" user="NKA">
		<tag k="name" v="Prestenget" />
		<tag k="place" v="farm" />
		<tag k="ssr:stedsnr" v="318256" />
	</node>
	<node id="9893693127" lat="65.6890556" lon="11.8691389" version="1" timestamp="2022-07-17T17:54:34Z" changeset="123730053" uid="3497659" user="NKA">
		<tag k="name" v="Dalsbakken" />
		<tag k="place" v="farm" />
		<tag k="ssr:stedsnr" v="743461" />
	</node>
	<node id="9893693128" lat="65.7040784" lon="11.9356135" version="1" timestamp="2022-07-17T17:54:34Z" changeset="123730053" uid="3497659" user="NKA">
		<tag k="name" v="Nergarden" />
		<tag k="place" v="farm" />
		<tag k="ssr:stedsnr" v="358815" />
	</node>
	<node id="9893693129" lat="65.6160053" lon="11.6218301" version="1" timestamp="2022-07-17T17:54:34Z" changeset="123730053" uid="3497659" user="NKA">
		<tag k="name" v="Halmøya" />
		<tag k="place" v="isolated_dwelling" />
		<tag k="ssr:stedsnr" v="989738" />
	</node>
	<node id="9893693130" lat="65.6039666" lon="11.9061694" version="1" timestamp="2022-07-17T17:54:34Z" changeset="123730053" uid="3497659" user="NKA">
		<tag k="name" v="Stråkvika" />
		<tag k="place" v="locality" />
		<tag k="ssr:stedsnr" v="357169" />
	</node>
	<node id="9893693131" lat="65.6866723" lon="11.9700833" version="1" timestamp="2022-07-17T17:54:34Z" changeset="123730053" uid="3497659" user="NKA">
		<tag k="name" v="Nordgården" />
		<tag k="place" v="locality" />
		<tag k="ssr:stedsnr" v="176742" />
	</node>
	<node id="9893693132" lat="65.6914806" lon="12.0147945" version="1" timestamp="2022-07-17T17:54:34Z" changeset="123730053" uid="3497659" user="NKA">
		<tag k="name" v="Sellebuhaugen" />
		<tag k="place" v="farm" />
		<tag k="ssr:stedsnr" v="136499" />
	</node>
	<node id="9893693133" lat="65.5748639" lon="11.6908972" version="1" timestamp="2022-07-17T17:54:34Z" changeset="123730053" uid="3497659" user="NKA">
		<tag k="name" v="Muddvær" />
		<tag k="place" v="farm" />
		<tag k="ssr:stedsnr" v="465044" />
	</node>
	<node id="9893693134" lat="65.68235" lon="11.9690332" version="1" timestamp="2022-07-17T17:54:34Z" changeset="123730053" uid="3497659" user="NKA">
		<tag k="name" v="Kolstad" />
		<tag k="place" v="hamlet" />
		<tag k="ssr:stedsnr" v="136495" />
	</node>
	<node id="9893693135" lat="65.6810666" lon="12.0004666" version="1" timestamp="2022-07-17T17:54:34Z" changeset="123730053" uid="3497659" user="NKA">
		<tag k="name" v="Heimdal" />
		<tag k="place" v="farm" />
		<tag k="ssr:stedsnr" v="440472" />
	</node>
	<node id="9893693136" lat="65.7086586" lon="11.9118507" version="1" timestamp="2022-07-17T17:54:34Z" changeset="123730053" uid="3497659" user="NKA">
		<tag k="name" v="Grønbakk" />
		<tag k="place" v="isolated_dwelling" />
		<tag k="ssr:stedsnr" v="299902" />
	</node>
	<node id="9893693137" lat="65.6758101" lon="12.0901557" version="1" timestamp="2022-07-17T17:54:34Z" changeset="123730053" uid="3497659" user="NKA">
		<tag k="name" v="Bødalen" />
		<tag k="place" v="farm" />
		<tag k="ssr:stedsnr" v="501456" />
	</node>
	<node id="9893693138" lat="65.6442402" lon="11.7852445" version="1" timestamp="2022-07-17T17:54:34Z" changeset="123730053" uid="3497659" user="NKA">
		<tag k="name" v="Vegdalen" />
		<tag k="place" v="farm" />
		<tag k="ssr:stedsnr" v="379289" />
	</node>
	<node id="9893693139" lat="65.6663101" lon="11.9726048" version="1" timestamp="2022-07-17T17:54:34Z" changeset="123730053" uid="3497659" user="NKA">
		<tag k="name" v="Strupen" />
		<tag k="place" v="farm" />
		<tag k="ssr:stedsnr" v="319266" />
	</node>
	<node id="9893693140" lat="65.6565763" lon="11.9635523" version="1" timestamp="2022-07-17T17:54:34Z" changeset="123730053" uid="3497659" user="NKA">
		<tag k="name" v="Ferset" />
		<tag k="place" v="hamlet" />
		<tag k="ssr:stedsnr" v="561269" />
	</node>
	<node id="9893693141" lat="65.6718723" lon="12.088325" version="1" timestamp="2022-07-17T17:54:34Z" changeset="123730053" uid="3497659" user="NKA">
		<tag k="name" v="Vikran" />
		<tag k="place" v="farm" />
		<tag k="ssr:stedsnr" v="926268" />
	</node>
	<node id="9893693142" lat="65.6576" lon="11.8928862" version="1" timestamp="2022-07-17T17:54:34Z" changeset="123730053" uid="3497659" user="NKA">
		<tag k="name" v="Asphaugen" />
		<tag k="place" v="farm" />
		<tag k="ssr:stedsnr" v="197343" />
	</node>
	<node id="9893693143" lat="65.6931994" lon="11.9259151" version="1" timestamp="2022-07-17T17:54:34Z" changeset="123730053" uid="3497659" user="NKA">
		<tag k="name" v="Risbakken" />
		<tag k="place" v="farm" />
		<tag k="ssr:stedsnr" v="258457" />
	</node>
	<node id="9893693144" lat="65.5971167" lon="12.1293193" version="1" timestamp="2022-07-17T17:54:34Z" changeset="123730053" uid="3497659" user="NKA">
		<tag k="name" v="Odden" />
		<tag k="place" v="farm" />
		<tag k="ssr:stedsnr" v="440176" />
	</node>
	<node id="9893693145" lat="65.6366333" lon="12.1782944" version="1" timestamp="2022-07-17T17:54:34Z" changeset="123730053" uid="3497659" user="NKA">
		<tag k="name" v="Trappa" />
		<tag k="place" v="farm" />
		<tag k="ssr:stedsnr" v="76328" />
	</node>
	<node id="9893693146" lat="65.6073761" lon="11.8690449" version="1" timestamp="2022-07-17T17:54:34Z" changeset="123730053" uid="3497659" user="NKA">
		<tag k="name" v="Tosan" />
		<tag k="place" v="farm" />
		<tag k="ssr:stedsnr" v="258352" />
	</node>
	<node id="9893693147" lat="65.6750944" lon="12.1101418" version="1" timestamp="2022-07-17T17:54:34Z" changeset="123730053" uid="3497659" user="NKA">
		<tag k="name" v="Bøhaugen" />
		<tag k="place" v="farm" />
		<tag k="ssr:stedsnr" v="561281" />
	</node>
	<node id="9893693148" lat="65.6426805" lon="12.1746223" version="1" timestamp="2022-07-17T17:54:34Z" changeset="123730053" uid="3497659" user="NKA">
		<tag k="alt_name" v="Skutnes" />
		<tag k="name" v="Skudenes" />
		<tag k="place" v="farm" />
		<tag k="ssr:stedsnr" v="561343" />
	</node>
	<node id="9893693149" lat="65.5802309" lon="11.6966585" version="1" timestamp="2022-07-17T17:54:34Z" changeset="123730053" uid="3497659" user="NKA">
		<tag k="name" v="Muddværet" />
		<tag k="place" v="hamlet" />
		<tag k="ssr:stedsnr" v="101045" />
	</node>
	<node id="9893693150" lat="65.688135" lon="12.1198128" version="1" timestamp="2022-07-17T17:54:34Z" changeset="123730053" uid="3497659" user="NKA">
		<tag k="name" v="Grindhaug" />
		<tag k="place" v="farm" />
		<tag k="ssr:stedsnr" v="661367" />
	</node>
	<node id="9893693151" lat="65.6848341" lon="11.9511732" version="1" timestamp="2022-07-17T17:54:34Z" changeset="123730053" uid="3497659" user="NKA">
		<tag k="name" v="Tronåsen" />
		<tag k="place" v="farm" />
		<tag k="ssr:stedsnr" v="55790" />
	</node>
	<node id="9893693152" lat="65.6262973" lon="11.9713639" version="1" timestamp="2022-07-17T17:54:34Z" changeset="123730053" uid="3497659" user="NKA">
		<tag k="name" v="Pengehaugen" />
		<tag k="place" v="locality" />
		<tag k="ssr:stedsnr" v="965534" />
	</node>
	<node id="9893693153" lat="65.6713495" lon="12.095355" version="1" timestamp="2022-07-17T17:54:34Z" changeset="123730053" uid="3497659" user="NKA">
		<tag k="name" v="Staulberget" />
		<tag k="place" v="farm" />
		<tag k="ssr:stedsnr" v="67662" />
	</node>
	<node id="9893693154" lat="65.708021" lon="11.9195482" version="1" timestamp="2022-07-17T17:54:34Z" changeset="123730053" uid="3497659" user="NKA">
		<tag k="name" v="Kjerkøya" />
		<tag k="place" v="neighbourhood" />
		<tag k="ssr:stedsnr" v="76431" />
	</node>
	<node id="9893693155" lat="65.6186893" lon="11.8964399" version="1" timestamp="2022-07-17T17:54:34Z" changeset="123730053" uid="3497659" user="NKA">
		<tag k="alt_name" v="Myren" />
		<tag k="name" v="Myra" />
		<tag k="place" v="farm" />
		<tag k="ssr:stedsnr" v="744313" />
	</node>
	<node id="9893693156" lat="65.6858786" lon="12.1212276" version="1" timestamp="2022-07-17T17:54:34Z" changeset="123730053" uid="3497659" user="NKA">
		<tag k="name" v="Igerøya" />
		<tag k="place" v="farm" />
		<tag k="ssr:stedsnr" v="27654" />
	</node>
	<node id="9893693157" lat="65.6727097" lon="12.0985665" version="1" timestamp="2022-07-17T17:54:34Z" changeset="123730053" uid="3497659" user="NKA">
		<tag k="name" v="Bø" />
		<tag k="place" v="hamlet" />
		<tag k="ssr:stedsnr" v="683247" />
	</node>
	<node id="9893693158" lat="65.6226973" lon="11.9036001" version="1" timestamp="2022-07-17T17:54:34Z" changeset="123730053" uid="3497659" user="NKA">
		<tag k="alt_name" v="Vika, nordre" />
		<tag k="name" v="Nordre Vika" />
		<tag k="place" v="hamlet" />
		<tag k="ssr:stedsnr" v="744312" />
	</node>
	<node id="9893693159" lat="65.642962" lon="11.8462169" version="1" timestamp="2022-07-17T17:54:34Z" changeset="123730053" uid="3497659" user="NKA">
		<tag k="alt_name" v="Skjeggemoen" />
		<tag k="name" v="Moen" />
		<tag k="place" v="locality" />
		<tag k="ssr:stedsnr" v="197329" />
	</node>
	<node id="9893693160" lat="65.6453805" lon="12.1670749" version="1" timestamp="2022-07-17T17:54:34Z" changeset="123730053" uid="3497659" user="NKA">
		<tag k="name" v="Nordgård" />
		<tag k="place" v="farm" />
		<tag k="ssr:stedsnr" v="136387" />
	</node>
	<node id="9893693161" lat="65.6811377" lon="11.8522906" version="1" timestamp="2022-07-17T17:54:34Z" changeset="123730053" uid="3497659" user="NKA">
		<tag k="name" v="Trøan" />
		<tag k="place" v="farm" />
		<tag k="ssr:stedsnr" v="926450" />
	</node>
	<node id="9893693162" lat="65.6514298" lon="11.9977246" version="1" timestamp="2022-07-17T17:54:34Z" changeset="123730053" uid="3497659" user="NKA">
		<tag k="name" v="Båtnes" />
		<tag k="place" v="farm" />
		<tag k="ssr:stedsnr" v="540510" />
	</node>
	<node id="9893693163" lat="65.6110953" lon="11.8793251" version="1" timestamp="2022-07-17T17:54:34Z" changeset="123730053" uid="3497659" user="NKA">
		<tag k="name" v="Innerbrekka" />
		<tag k="place" v="farm" />
		<tag k="ssr:stedsnr" v="318348" />
	</node>
	<node id="9893693164" lat="65.7010695" lon="12.03335" version="1" timestamp="2022-07-17T17:54:34Z" changeset="123730053" uid="3497659" user="NKA">
		<tag k="name" v="Gåshaugen" />
		<tag k="place" v="farm" />
		<tag k="ssr:stedsnr" v="379401" />
	</node>
	<node id="9893693165" lat="65.6308167" lon="11.9790722" version="1" timestamp="2022-07-17T17:54:34Z" changeset="123730053" uid="3497659" user="NKA">
		<tag k="name" v="Pebakken" />
		<tag k="place" v="locality" />
		<tag k="ssr:stedsnr" v="965524" />
	</node>
	<node id="9893693166" lat="65.690319" lon="11.8726996" version="1" timestamp="2022-07-17T17:54:34Z" changeset="123730053" uid="3497659" user="NKA">
		<tag k="name" v="Valla" />
		<tag k="place" v="hamlet" />
		<tag k="ssr:stedsnr" v="258445" />
	</node>
	<node id="9893693167" lat="65.6343467" lon="12.1702398" version="1" timestamp="2022-07-17T17:54:34Z" changeset="123730053" uid="3497659" user="NKA">
		<tag k="name" v="Kleiva" />
		<tag k="place" v="farm" />
		<tag k="ssr:stedsnr" v="258334" />
	</node>
	<node id="9893693168" lat="65.6946285" lon="11.9859106" version="1" timestamp="2022-07-17T17:54:34Z" changeset="123730053" uid="3497659" user="NKA">
		<tag k="name" v="Risnes" />
		<tag k="place" v="farm" />
		<tag k="ssr:stedsnr" v="358730" />
	</node>
	<node id="9893693169" lat="65.6466528" lon="11.9909611" version="1" timestamp="2022-07-17T17:54:34Z" changeset="123730053" uid="3497659" user="NKA">
		<tag k="name" v="Finnsken" />
		<tag k="place" v="farm" />
		<tag k="ssr:stedsnr" v="926289" />
	</node>
	<node id="9893693170" lat="65.6901761" lon="12.1207614" version="1" timestamp="2022-07-17T17:54:34Z" changeset="123730053" uid="3497659" user="NKA">
		<tag k="name" v="Solvang" />
		<tag k="place" v="farm" />
		<tag k="ssr:stedsnr" v="926480" />
	</node>
	<node id="9893693171" lat="65.5796519" lon="11.6948136" version="1" timestamp="2022-07-17T17:54:34Z" changeset="123730053" uid="3497659" user="NKA">
		<tag k="name" v="Sjåberget" />
		<tag k="place" v="farm" />
		<tag k="ssr:stedsnr" v="99050" />
	</node>
	<node id="9893693172" lat="65.6509242" lon="11.9505651" version="1" timestamp="2022-07-17T17:54:34Z" changeset="123730053" uid="3497659" user="NKA">
		<tag k="alt_name" v="Sjåmyra" />
		<tag k="name" v="Skjåmyra" />
		<tag k="place" v="farm" />
		<tag k="ssr:stedsnr" v="865343" />
	</node>
	<node id="9893693173" lat="65.7021417" lon="11.8517416" version="1" timestamp="2022-07-17T17:54:34Z" changeset="123730053" uid="3497659" user="NKA">
		<tag k="name" v="Vallasjøen" />
		<tag k="place" v="hamlet" />
		<tag k="ssr:stedsnr" v="561405" />
	</node>
	<node id="9893693174" lat="65.6832028" lon="12.1080251" version="1" timestamp="2022-07-17T17:54:34Z" changeset="123730053" uid="3497659" user="NKA">
		<tag k="name" v="Igerøydalen" />
		<tag k="place" v="farm" />
		<tag k="ssr:stedsnr" v="744441" />
	</node>
	<node id="9893693175" lat="65.6532593" lon="12.0026731" version="1" timestamp="2022-07-17T17:54:34Z" changeset="123730053" uid="3497659" user="NKA">
		<tag k="name" v="Sjøstrand" />
		<tag k="place" v="farm" />
		<tag k="ssr:stedsnr" v="722519" />
	</node>
	<node id="9893693176" lat="65.6385111" lon="12.1782194" version="1" timestamp="2022-07-17T17:54:34Z" changeset="123730053" uid="3497659" user="NKA">
		<tag k="name" v="Strand" />
		<tag k="place" v="farm" />
		<tag k="ssr:stedsnr" v="743357" />
	</node>
</osm>
