<?xml version="1.0" encoding="UTF-8"?>
<osm generator="osmapis" version="0.6">
	<node id="-200656" lat="59.5928194471" lon="10.3673138951">
		<tag k="name" v="Sagdalen" />
		<tag k="natural" v="valley" />
		<tag k="place" v="locality" />
		<tag k="ssr:stedsnr" v="938238" />
	</node>
	<node id="-200653" lat="59.6666916628" lon="10.3442999979">
		<tag k="fixme" v="consider natural=peak for the most distinct mountains in the district" />
		<tag k="name" v="Vassåsen" />
		<tag k="natural" v="hill" />
		<tag k="place" v="locality" />
		<tag k="ssr:stedsnr" v="938133" />
	</node>
	<node id="-200652" lat="59.6628111068" lon="10.3427638871">
		<tag k="name" v="Bjørnebakken" />
		<tag k="natural" v="slope" />
		<tag k="place" v="locality" />
		<tag k="ssr:stedsnr" v="938118" />
	</node>
	<node id="-200651" lat="59.6537388918" lon="10.3349222307">
		<tag k="name" v="Merrapanna" />
		<tag k="natural" v="slope" />
		<tag k="place" v="locality" />
		<tag k="ssr:stedsnr" v="938114" />
	</node>
	<node id="-200639" lat="59.5561083364" lon="10.3917444517">
		<tag k="name" v="Sandbakken" />
		<tag k="natural" v="slope" />
		<tag k="place" v="locality" />
		<tag k="ssr:stedsnr" v="878402" />
	</node>
	<node id="-200634" lat="59.6768500021" lon="10.3133305563">
		<tag k="fixme" v="consider natural=peak for the most distinct mountains in the district" />
		<tag k="name" v="Hansåsen" />
		<tag k="natural" v="hill" />
		<tag k="place" v="locality" />
		<tag k="ssr:stedsnr" v="878180" />
	</node>
	<node id="-200632" lat="59.6223194409" lon="10.3720527752">
		<tag k="name" v="Kalmokleivene" />
		<tag k="natural" v="slope" />
		<tag k="place" v="locality" />
		<tag k="ssr:stedsnr" v="877196" />
	</node>
	<node id="-200630" lat="59.5455805565" lon="10.3722333274">
		<tag k="fixme" v="consider natural=peak for the most distinct mountains in the district" />
		<tag k="name" v="Torbjørnhaugen" />
		<tag k="natural" v="hill" />
		<tag k="place" v="locality" />
		<tag k="ssr:stedsnr" v="877027" />
	</node>
	<node id="-200626" lat="59.61345278" lon="10.3494305545">
		<tag k="name" v="Knemsmoen" />
		<tag k="place" v="locality" />
		<tag k="ssr:stedsnr" v="870972" />
	</node>
	<node id="-200619" lat="59.6501833299" lon="10.3471749965">
		<tag k="name" v="Knektedammslia" />
		<tag k="natural" v="slope" />
		<tag k="place" v="locality" />
		<tag k="ssr:stedsnr" v="817375" />
	</node>
	<node id="-200617" lat="59.6117749988" lon="10.4030027762">
		<tag k="name" v="Skredderdalen" />
		<tag k="natural" v="valley" />
		<tag k="place" v="locality" />
		<tag k="ssr:stedsnr" v="817364" />
	</node>
	<node id="-200615" lat="59.6175638924" lon="10.3838888803">
		<tag k="name" v="Klippa" />
		<tag k="natural" v="hill" />
		<tag k="place" v="locality" />
		<tag k="ssr:stedsnr" v="817348" />
	</node>
	<node id="-200614" lat="59.5540722235" lon="10.3711194503">
		<tag k="name" v="Merrapanna" />
		<tag k="natural" v="slope" />
		<tag k="old_name" v="Merrrapanna" />
		<tag k="place" v="locality" />
		<tag k="ssr:stedsnr" v="817226" />
	</node>
	<node id="-200613" lat="59.6222055565" lon="10.3736027755">
		<tag k="name" v="Kalmo" />
		<tag k="place" v="locality" />
		<tag k="ssr:stedsnr" v="817198" />
	</node>
	<node id="-200597" lat="59.6171833331" lon="10.4037138931">
		<tag k="name" v="Brenna" />
		<tag k="natural" v="slope" />
		<tag k="place" v="locality" />
		<tag k="ssr:stedsnr" v="756345" />
	</node>
	<node id="-200593" lat="59.6189361075" lon="10.405397216">
		<tag k="name" v="Brennepundet" />
		<tag k="natural" v="hill" />
		<tag k="place" v="locality" />
		<tag k="ssr:stedsnr" v="754247" />
	</node>
	<node id="-200589" lat="59.6536555519" lon="10.3439055551">
		<tag k="alt_name" v="Kjæregravåsen" />
		<tag k="fixme" v="consider natural=peak for the most distinct mountains in the district" />
		<tag k="name" v="Tjæregravåsen" />
		<tag k="natural" v="hill" />
		<tag k="place" v="locality" />
		<tag k="ssr:stedsnr" v="732822" />
	</node>
	<node id="-200588" lat="59.6643500044" lon="10.354349992">
		<tag k="fixme" v="consider natural=peak for the most distinct mountains in the district" />
		<tag k="name" v="Seteråsen" />
		<tag k="natural" v="hill" />
		<tag k="place" v="locality" />
		<tag k="ssr:stedsnr" v="732814" />
	</node>
	<node id="-200583" lat="59.6241611119" lon="10.3459166601">
		<tag k="fixme" v="consider natural=peak for the most distinct mountains in the district" />
		<tag k="name" v="Stegaåsen" />
		<tag k="natural" v="hill" />
		<tag k="place" v="locality" />
		<tag k="ssr:stedsnr" v="731635" />
	</node>
	<node id="-200582" lat="59.6050916666" lon="10.3489861181">
		<tag k="fixme" v="consider natural=peak for the most distinct mountains in the district" />
		<tag k="name" v="Gulsåsen" />
		<tag k="natural" v="hill" />
		<tag k="place" v="locality" />
		<tag k="ssr:stedsnr" v="700251" />
	</node>
	<node id="-200574" lat="59.6416750008" lon="10.392433325">
		<tag k="fixme" v="consider natural=peak for the most distinct mountains in the district" />
		<tag k="name" v="Grineråsen" />
		<tag k="natural" v="hill" />
		<tag k="place" v="locality" />
		<tag k="ssr:stedsnr" v="695315" />
	</node>
	<node id="-200573" lat="59.5819999986" lon="10.3749638931">
		<tag k="fixme" v="consider natural=peak for the most distinct mountains in the district" />
		<tag k="name" v="Svarvarstolen" />
		<tag k="natural" v="hill" />
		<tag k="place" v="locality" />
		<tag k="ssr:stedsnr" v="695255" />
	</node>
	<node id="-200572" lat="59.6346916639" lon="10.3774694503">
		<tag k="name" v="Bjønnehølet" />
		<tag k="natural" v="valley" />
		<tag k="place" v="locality" />
		<tag k="ssr:stedsnr" v="695199" />
	</node>
	<node id="-200570" lat="59.6775166705" lon="10.3659611074">
		<tag k="name" v="Almeløkka" />
		<tag k="place" v="locality" />
		<tag k="ssr:stedsnr" v="695158" />
	</node>
	<node id="-200569" lat="59.6559666689" lon="10.3585166744">
		<tag k="name" v="Mastedalen" />
		<tag k="natural" v="valley" />
		<tag k="place" v="locality" />
		<tag k="ssr:stedsnr" v="695144" />
	</node>
	<node id="-200565" lat="59.6390361115" lon="10.3760666687">
		<tag k="fixme" v="consider natural=peak for the most distinct mountains in the district" />
		<tag k="name" v="Sønstebyåsen" />
		<tag k="natural" v="hill" />
		<tag k="place" v="locality" />
		<tag k="ssr:stedsnr" v="671838" />
	</node>
	<node id="-200563" lat="59.5974944486" lon="10.369272225">
		<tag k="fixme" v="consider natural=peak for the most distinct mountains in the district" />
		<tag k="name" v="Styggås" />
		<tag k="natural" v="hill" />
		<tag k="place" v="locality" />
		<tag k="ssr:stedsnr" v="671636" />
	</node>
	<node id="-200561" lat="59.5507416651" lon="10.3915166612">
		<tag k="fixme" v="consider natural=peak for the most distinct mountains in the district" />
		<tag k="name" v="Bergeråsen" />
		<tag k="natural" v="hill" />
		<tag k="place" v="locality" />
		<tag k="ssr:stedsnr" v="670516" />
	</node>
	<node id="-200559" lat="59.6673388914" lon="10.3275750086">
		<tag k="fixme" v="consider natural=peak for the most distinct mountains in the district" />
		<tag k="name" v="Siriseteråsen" />
		<tag k="natural" v="hill" />
		<tag k="place" v="locality" />
		<tag k="ssr:stedsnr" v="670140" />
	</node>
	<node id="-200552" lat="59.6113638851" lon="10.380288892">
		<tag k="name" v="Trolldalen" />
		<tag k="natural" v="valley" />
		<tag k="place" v="locality" />
		<tag k="ssr:stedsnr" v="634381" />
	</node>
	<node id="-200550" lat="59.5917166676" lon="10.3869722286">
		<tag k="name" v="Apalbakken" />
		<tag k="natural" v="slope" />
		<tag k="place" v="locality" />
		<tag k="ssr:stedsnr" v="634369" />
	</node>
	<node id="-200539" lat="59.5963833324" lon="10.3850805537">
		<tag k="fixme" v="consider natural=peak for the most distinct mountains in the district" />
		<tag k="name" v="Glenås" />
		<tag k="natural" v="hill" />
		<tag k="place" v="locality" />
		<tag k="ssr:stedsnr" v="610648" />
	</node>
	<node id="-200537" lat="59.6217194421" lon="10.3875416688">
		<tag k="fixme" v="consider natural=peak for the most distinct mountains in the district" />
		<tag k="name" v="Brentås" />
		<tag k="natural" v="hill" />
		<tag k="place" v="locality" />
		<tag k="ssr:stedsnr" v="609624" />
	</node>
	<node id="-200536" lat="59.6179750004" lon="10.3668916714">
		<tag k="fixme" v="consider natural=peak for the most distinct mountains in the district" />
		<tag k="name" v="Stølsåsen" />
		<tag k="natural" v="hill" />
		<tag k="place" v="locality" />
		<tag k="ssr:stedsnr" v="609611" />
	</node>
	<node id="-200533" lat="59.6461583334" lon="10.3281611154">
		<tag k="name" v="Fleskelita" />
		<tag k="natural" v="valley" />
		<tag k="place" v="locality" />
		<tag k="ssr:stedsnr" v="574402" />
	</node>
	<node id="-200532" lat="59.6505305532" lon="10.3323944356">
		<tag k="fixme" v="consider natural=peak for the most distinct mountains in the district" />
		<tag k="name" v="Kringleåsen" />
		<tag k="natural" v="hill" />
		<tag k="place" v="locality" />
		<tag k="ssr:stedsnr" v="574403" />
	</node>
	<node id="-200529" lat="59.5755916711" lon="10.3458388866">
		<tag k="fixme" v="consider natural=peak for the most distinct mountains in the district" />
		<tag k="name" v="Blindevannsåsen" />
		<tag k="natural" v="hill" />
		<tag k="place" v="locality" />
		<tag k="ssr:stedsnr" v="574279" />
	</node>
	<node id="-200528" lat="59.5895944472" lon="10.3468472259">
		<tag k="fixme" v="consider natural=peak for the most distinct mountains in the district" />
		<tag k="name" v="Blakkemyrkollen" />
		<tag k="natural" v="hill" />
		<tag k="place" v="locality" />
		<tag k="ssr:stedsnr" v="574277" />
	</node>
	<node id="-200522" lat="59.6542444453" lon="10.3380222206">
		<tag k="name" v="Mellomåsen" />
		<tag k="natural" v="hill" />
		<tag k="place" v="locality" />
		<tag k="ssr:stedsnr" v="574149" />
	</node>
	<node id="-200521" lat="59.6569861096" lon="10.3546861178">
		<tag k="name" v="Furrubråtan" />
		<tag k="place" v="locality" />
		<tag k="ssr:stedsnr" v="574148" />
	</node>
	<node id="-200519" lat="59.6763305525" lon="10.3605888834">
		<tag k="name" v="Jordfallet" />
		<tag k="natural" v="slope" />
		<tag k="place" v="locality" />
		<tag k="ssr:stedsnr" v="570769" />
	</node>
	<node id="-200515" lat="59.5830583326" lon="10.3612944516">
		<tag k="fixme" v="consider natural=peak for the most distinct mountains in the district" />
		<tag k="name" v="Merratoppen" />
		<tag k="natural" v="hill" />
		<tag k="place" v="locality" />
		<tag k="ssr:stedsnr" v="549718" />
	</node>
	<node id="-200506" lat="59.6243583353" lon="10.4032305573">
		<tag k="fixme" v="consider natural=peak for the most distinct mountains in the district" />
		<tag k="name" v="Juveåsen" />
		<tag k="natural" v="hill" />
		<tag k="place" v="locality" />
		<tag k="ssr:stedsnr" v="513374" />
	</node>
	<node id="-200504" lat="59.5858388874" lon="10.3618916596">
		<tag k="name" v="Myrestulen" />
		<tag k="natural" v="slope" />
		<tag k="place" v="locality" />
		<tag k="ssr:stedsnr" v="513265" />
	</node>
	<node id="-200503" lat="59.6272444458" lon="10.3704555627">
		<tag k="fixme" v="consider natural=peak for the most distinct mountains in the district" />
		<tag k="name" v="Vandsåsen" />
		<tag k="natural" v="hill" />
		<tag k="place" v="locality" />
		<tag k="ssr:stedsnr" v="513195" />
	</node>
	<node id="-200494" lat="59.5660444442" lon="10.4045777795">
		<tag k="fixme" v="consider natural=peak for the most distinct mountains in the district" />
		<tag k="name" v="Krokåsen" />
		<tag k="natural" v="hill" />
		<tag k="place" v="locality" />
		<tag k="ssr:stedsnr" v="488709" />
	</node>
	<node id="-200493" lat="59.5736777817" lon="10.3547388953">
		<tag k="fixme" v="consider natural=peak for the most distinct mountains in the district" />
		<tag k="name" v="Høgåsen" />
		<tag k="natural" v="hill" />
		<tag k="place" v="locality" />
		<tag k="ssr:stedsnr" v="488703" />
	</node>
	<node id="-200492" lat="59.5700000044" lon="10.3736194497">
		<tag k="fixme" v="consider natural=peak for the most distinct mountains in the district" />
		<tag k="name" v="Ådneåsen" />
		<tag k="natural" v="hill" />
		<tag k="place" v="locality" />
		<tag k="ssr:stedsnr" v="488702" />
	</node>
	<node id="-200487" lat="59.6093666703" lon="10.4013222244">
		<tag k="fixme" v="consider natural=peak for the most distinct mountains in the district" />
		<tag k="name" v="Tømmeråsen" />
		<tag k="natural" v="hill" />
		<tag k="place" v="locality" />
		<tag k="ssr:stedsnr" v="453363" />
	</node>
	<node id="-200485" lat="59.6711222245" lon="10.3531555595">
		<tag k="name" v="Sæterdalen" />
		<tag k="natural" v="valley" />
		<tag k="place" v="locality" />
		<tag k="ssr:stedsnr" v="453175" />
	</node>
	<node id="-200478" lat="59.5589750039" lon="10.3733999946">
		<tag k="alt_name" v="Høyenåsen;Høienåsen" />
		<tag k="fixme" v="consider natural=peak for the most distinct mountains in the district" />
		<tag k="name" v="Kjelleråsen" />
		<tag k="natural" v="hill" />
		<tag k="place" v="locality" />
		<tag k="ssr:stedsnr" v="428677" />
	</node>
	<node id="-200470" lat="59.6429666694" lon="10.3437138855">
		<tag k="fixme" v="consider natural=peak for the most distinct mountains in the district" />
		<tag k="name" v="Bollstein" />
		<tag k="natural" v="hill" />
		<tag k="place" v="locality" />
		<tag k="ssr:stedsnr" v="246814" />
	</node>
	<node id="-200466" lat="59.6267250039" lon="10.3507749993">
		<tag k="fixme" v="consider natural=peak for the most distinct mountains in the district" />
		<tag k="name" v="Seteråsen" />
		<tag k="natural" v="hill" />
		<tag k="place" v="locality" />
		<tag k="ssr:stedsnr" v="246028" />
	</node>
	<node id="-200457" lat="59.6248805537" lon="10.3856694496">
		<tag k="fixme" v="consider natural=peak for the most distinct mountains in the district" />
		<tag k="name" v="Mariås" />
		<tag k="natural" v="hill" />
		<tag k="place" v="locality" />
		<tag k="ssr:stedsnr" v="210367" />
	</node>
	<node id="-200456" lat="59.5554611091" lon="10.3926277842">
		<tag k="name" v="Kjeller" />
		<tag k="natural" v="slope" />
		<tag k="place" v="locality" />
		<tag k="ssr:stedsnr" v="210365" />
	</node>
	<node id="-200454" lat="59.5541944481" lon="10.3571999961">
		<tag k="fixme" v="consider natural=peak for the most distinct mountains in the district" />
		<tag k="name" v="Ravneråsen" />
		<tag k="natural" v="hill" />
		<tag k="place" v="locality" />
		<tag k="ssr:stedsnr" v="210247" />
	</node>
	<node id="-200452" lat="59.6272333294" lon="10.3509361171">
		<tag k="fixme" v="consider natural=peak for the most distinct mountains in the district" />
		<tag k="name" v="Sæteråsen" />
		<tag k="natural" v="hill" />
		<tag k="place" v="locality" />
		<tag k="ssr:stedsnr" v="210207" />
	</node>
	<node id="-200450" lat="59.6661888913" lon="10.362047228">
		<tag k="name" v="Flitte" />
		<tag k="natural" v="hill" />
		<tag k="place" v="locality" />
		<tag k="ssr:stedsnr" v="210173" />
	</node>
	<node id="-200449" lat="59.6673666638" lon="10.3517694389">
		<tag k="name" v="Oterdalen" />
		<tag k="natural" v="valley" />
		<tag k="place" v="locality" />
		<tag k="ssr:stedsnr" v="210170" />
	</node>
	<node id="-200438" lat="59.640333332" lon="10.3339222255">
		<tag k="fixme" v="consider natural=peak for the most distinct mountains in the district" />
		<tag k="name" v="Svanevannsåsen" />
		<tag k="natural" v="hill" />
		<tag k="place" v="locality" />
		<tag k="ssr:stedsnr" v="149360" />
	</node>
	<node id="-200435" lat="59.6235416668" lon="10.4000749963">
		<tag k="name" v="Ormedalen" />
		<tag k="natural" v="valley" />
		<tag k="place" v="locality" />
		<tag k="ssr:stedsnr" v="149340" />
	</node>
	<node id="-200433" lat="59.6048638861" lon="10.3532083351">
		<tag k="name" v="Sankthanshølet" />
		<tag k="natural" v="valley" />
		<tag k="place" v="locality" />
		<tag k="ssr:stedsnr" v="149158" />
	</node>
	<node id="-200432" lat="59.6635944406" lon="10.3572555492">
		<tag k="name" v="Kudalen" />
		<tag k="natural" v="valley" />
		<tag k="place" v="locality" />
		<tag k="ssr:stedsnr" v="149128" />
	</node>
	<node id="-200431" lat="59.5502333362" lon="10.36025556">
		<tag k="name" v="Bergersetet" />
		<tag k="natural" v="slope" />
		<tag k="place" v="locality" />
		<tag k="ssr:stedsnr" v="149022" />
	</node>
	<node id="-200428" lat="59.5576916655" lon="10.3942500008">
		<tag k="fixme" v="consider natural=peak for the most distinct mountains in the district" />
		<tag k="name" v="Kjelleråsen" />
		<tag k="natural" v="hill" />
		<tag k="place" v="locality" />
		<tag k="ssr:stedsnr" v="124637" />
	</node>
	<node id="-200413" lat="59.6276638855" lon="10.3814194361">
		<tag k="fixme" v="consider natural=peak for the most distinct mountains in the district" />
		<tag k="name" v="Ebbestadkollen" />
		<tag k="natural" v="hill" />
		<tag k="place" v="locality" />
		<tag k="ssr:stedsnr" v="64683" />
	</node>
	<node id="-200409" lat="59.6650999959" lon="10.3779555529">
		<tag k="name" v="Haugen" />
		<tag k="natural" v="hill" />
		<tag k="place" v="locality" />
		<tag k="ssr:stedsnr" v="28363" />
	</node>
	<node id="-200398" lat="59.6625749999" lon="10.3326361193">
		<tag k="name" v="Nordbykollen" />
		<tag k="natural" v="hill" />
		<tag k="place" v="locality" />
		<tag k="ssr:stedsnr" v="3119" />
	</node>
	<node id="-200394" lat="59.6031548939" lon="10.3651273176">
		<tag k="fixme" v="consider natural=peak for the most distinct mountains in the district" />
		<tag k="name" v="Langmyråsene" />
		<tag k="natural" v="hill" />
		<tag k="place" v="locality" />
		<tag k="ssr:stedsnr" v="476297" />
	</node>
	<node id="-200393" lat="59.6182611127" lon="10.4037027748">
		<tag k="name" v="Høyerløkka" />
		<tag k="natural" v="slope" />
		<tag k="place" v="locality" />
		<tag k="ssr:stedsnr" v="392374" />
	</node>
	<node id="-200391" lat="59.5618888906" lon="10.3841194451">
		<tag k="name" v="Merkedalen" />
		<tag k="natural" v="valley" />
		<tag k="place" v="locality" />
		<tag k="ssr:stedsnr" v="392364" />
	</node>
	<node id="-200388" lat="59.6598166694" lon="10.3833861148">
		<tag k="name" v="Rogneberget" />
		<tag k="natural" v="hill" />
		<tag k="place" v="locality" />
		<tag k="ssr:stedsnr" v="392323" />
	</node>
	<node id="-200387" lat="59.6246277818" lon="10.3661333388">
		<tag k="fixme" v="consider natural=peak for the most distinct mountains in the district" />
		<tag k="name" v="Fjellbekkhaugen" />
		<tag k="natural" v="hill" />
		<tag k="place" v="locality" />
		<tag k="ssr:stedsnr" v="392213" />
	</node>
	<node id="-200386" lat="59.6317583343" lon="10.3646138966">
		<tag k="name" v="Steindalen" />
		<tag k="natural" v="valley" />
		<tag k="place" v="locality" />
		<tag k="ssr:stedsnr" v="392214" />
	</node>
	<node id="-200384" lat="59.6062166687" lon="10.37026945">
		<tag k="fixme" v="consider natural=peak for the most distinct mountains in the district" />
		<tag k="name" v="Hellumåsen" />
		<tag k="natural" v="hill" />
		<tag k="place" v="locality" />
		<tag k="ssr:stedsnr" v="392193" />
	</node>
	<node id="-200382" lat="59.6684083345" lon="10.3099611195">
		<tag k="fixme" v="consider natural=peak for the most distinct mountains in the district" />
		<tag k="name" v="Risåsen" />
		<tag k="natural" v="hill" />
		<tag k="place" v="locality" />
		<tag k="ssr:stedsnr" v="392185" />
	</node>
	<node id="-200381" lat="59.6000444416" lon="10.3751138955">
		<tag k="name" v="Plassen" />
		<tag k="place" v="locality" />
		<tag k="ssr:stedsnr" v="392182" />
	</node>
	<node id="-200380" lat="59.665272221" lon="10.3596222183">
		<tag k="name" v="Grønnsletta" />
		<tag k="place" v="locality" />
		<tag k="ssr:stedsnr" v="392173" />
	</node>
	<node id="-200376" lat="59.5898944483" lon="10.3732611045">
		<tag k="fixme" v="consider natural=peak for the most distinct mountains in the district" />
		<tag k="name" v="Sukkerertkollen" />
		<tag k="natural" v="hill" />
		<tag k="place" v="locality" />
		<tag k="ssr:stedsnr" v="367723" />
	</node>
	<node id="-200364" lat="59.6331472191" lon="10.3397166684">
		<tag k="fixme" v="consider natural=peak for the most distinct mountains in the district" />
		<tag k="name" v="Svanevannsåsen" />
		<tag k="natural" v="hill" />
		<tag k="place" v="locality" />
		<tag k="ssr:stedsnr" v="331195" />
	</node>
	<node id="-200331" lat="59.67393611" lon="10.3467250054">
		<tag k="fixme" v="consider natural=peak for the most distinct mountains in the district" />
		<tag k="name" v="Trondsåsen" />
		<tag k="natural" v="hill" />
		<tag k="place" v="locality" />
		<tag k="ssr:stedsnr" v="306833" />
	</node>
	<node id="-200327" lat="59.6289499961" lon="10.3712750004">
		<tag k="name" v="Vadsåsen" />
		<tag k="natural" v="slope" />
		<tag k="place" v="locality" />
		<tag k="ssr:stedsnr" v="28210" />
	</node>
	<node id="-200325" lat="59.5586027782" lon="10.3851361127">
		<tag k="name" v="Sand" />
		<tag k="natural" v="slope" />
		<tag k="place" v="locality" />
		<tag k="ssr:stedsnr" v="271398" />
	</node>
	<node id="-200324" lat="59.5426611095" lon="10.3885694508">
		<tag k="fixme" v="consider natural=peak for the most distinct mountains in the district" />
		<tag k="name" v="Bryggeåsen" />
		<tag k="natural" v="hill" />
		<tag k="place" v="locality" />
		<tag k="ssr:stedsnr" v="271389" />
	</node>
	<node id="-200323" lat="59.5695972211" lon="10.3556388846">
		<tag k="name" v="Peisestua" />
		<tag k="place" v="locality" />
		<tag k="ssr:stedsnr" v="271254" />
	</node>
	<node id="-200322" lat="59.5616555597" lon="10.3510944375">
		<tag k="name" v="Stemmen" />
		<tag k="natural" v="slope" />
		<tag k="place" v="locality" />
		<tag k="ssr:stedsnr" v="271255" />
	</node>
</osm>
