<?xml version="1.0" encoding="UTF-8"?>
<osm generator="osmapis" version="0.6">
	<node id="-200575" lat="59.5434972216" lon="10.3920027754">
		<tag k="man_made" v="quay" />
		<tag k="name" v="Berger brygge" />
		<tag k="place" v="locality" />
		<tag k="ssr:stedsnr" v="695334" />
	</node>
	<node id="-200411" lat="59.6638361075" lon="10.379652775">
		<tag k="bridge" v="yes" />
		<tag k="layer" v="1" />
		<tag k="name" v="Nordby" />
		<tag k="ssr:stedsnr" v="46616" />
	</node>
	<node id="-200461" lat="59.5834555596" lon="10.3913944469">
		<tag k="bridge" v="yes" />
		<tag k="layer" v="1" />
		<tag k="name" v="Auke" />
		<tag k="ssr:stedsnr" v="228631" />
	</node>
	<node id="-200664" lat="59.6158527745" lon="10.4103444511">
		<tag k="bridge" v="yes" />
		<tag k="layer" v="1" />
		<tag k="name" v="Svelvik ferjekai" />
		<tag k="ssr:stedsnr" v="956627" />
	</node>
	<node id="-200397" lat="59.6132646118" lon="10.409530658">
		<tag k="man_made" v="quay" />
		<tag k="name" v="Svelvikkaien" />
		<tag k="place" v="locality" />
		<tag k="ssr:stedsnr" v="985895" />
	</node>
	<node id="-200372" lat="59.5441527808" lon="10.3764027785">
		<tag k="bridge" v="yes" />
		<tag k="layer" v="1" />
		<tag k="name" v="Fabrikkfossen" />
		<tag k="ssr:stedsnr" v="349619" />
	</node>
	<node id="-200462" lat="59.6878055591" lon="10.3488777837">
		<tag k="bridge" v="yes" />
		<tag k="layer" v="1" />
		<tag k="name" v="Rørvik mur" />
		<tag k="ssr:stedsnr" v="228633" />
	</node>
	<node id="-200463" lat="59.6155472235" lon="10.4051666744">
		<tag k="bridge" v="yes" />
		<tag k="layer" v="1" />
		<tag k="name" v="Svelvik syd mur" />
		<tag k="ssr:stedsnr" v="228636" />
	</node>
	<node id="-200558" lat="59.5588444473" lon="10.3884388931">
		<tag k="bridge" v="yes" />
		<tag k="layer" v="1" />
		<tag k="name" v="Høyen mur" />
		<tag k="ssr:stedsnr" v="652561" />
	</node>
	<node id="-200557" lat="59.6044999964" lon="10.4043888941">
		<tag k="bridge" v="yes" />
		<tag k="layer" v="1" />
		<tag k="name" v="Knem" />
		<tag k="ssr:stedsnr" v="652562" />
	</node>
	<node id="-200556" lat="59.5440055595" lon="10.3719944471">
		<tag k="bridge" v="yes" />
		<tag k="layer" v="1" />
		<tag k="name" v="Berger" />
		<tag k="ssr:stedsnr" v="652560" />
	</node>
	<node id="-200616" lat="59.6677611151" lon="10.3800944487">
		<tag k="man_made" v="quay" />
		<tag k="name" v="Nordbybrygga" />
		<tag k="place" v="locality" />
		<tag k="ssr:stedsnr" v="817363" />
	</node>
	<node id="-200580" lat="59.681844449" lon="10.353719439">
		<tag k="junction" v="yes" />
		<tag k="name" v="Elvestad" />
		<tag k="place" v="locality" />
		<tag k="ssr:stedsnr" v="695399" />
	</node>
	<node id="-200578" lat="59.5588194432" lon="10.3974277818">
		<tag k="man_made" v="quay" />
		<tag k="name" v="Baskomti" />
		<tag k="place" v="locality" />
		<tag k="ssr:stedsnr" v="695361" />
	</node>
</osm>
