<?xml version="1.0" encoding="UTF-8"?>
<osm generator="osmapis" version="0.6">
	<node id="-200576" lat="59.592202779" lon="10.4144805565">
		<tag k="alt_name" v="Flyndregrunnen" />
		<tag k="name" v="Store Flyndra" />
		<tag k="place" v="locality" />
		<tag k="seamark:type" v="rock" />
		<tag k="ssr:stedsnr" v="695352" />
	</node>
	<node id="-200568" lat="59.6252583361" lon="10.4095861117">
		<tag k="name" v="Sleavika" />
		<tag k="natural" v="bay" />
		<tag k="ssr:stedsnr" v="691748" />
	</node>
	<node id="-200549" lat="59.6547000012" lon="10.3865055599">
		<tag k="name" v="Hella" />
		<tag k="natural" v="beach" />
		<tag k="place" v="locality" />
		<tag k="ssr:stedsnr" v="634326" />
	</node>
	<node id="-200417" lat="59.5842111077" lon="10.4097805493">
		<tag k="name" v="Hælingleia" />
		<tag k="natural" v="shoal" />
		<tag k="place" v="locality" />
		<tag k="ssr:stedsnr" v="85932" />
	</node>
	<node id="-200416" lat="59.598969445" lon="10.4195944371">
		<tag k="name" v="Vesthaken" />
		<tag k="natural" v="shoal" />
		<tag k="place" v="locality" />
		<tag k="ssr:stedsnr" v="85707" />
	</node>
	<node id="-200405" lat="59.6775833324" lon="10.3682527781">
		<tag k="name" v="Jordfallbukta" />
		<tag k="natural" v="bay" />
		<tag k="ssr:stedsnr" v="3843" />
	</node>
	<node id="-200660" lat="59.6339500027" lon="10.4033555593">
		<tag k="name" v="Juvestøa" />
		<tag k="natural" v="beach" />
		<tag k="place" v="locality" />
		<tag k="ssr:stedsnr" v="938351" />
	</node>
	<node id="-200395" lat="59.666666669" lon="10.3916666621">
		<tag k="bay" v="fjord" />
		<tag k="name" v="Drammensfjorden" />
		<tag k="natural" v="bay" />
		<tag k="ssr:stedsnr" v="792266" />
	</node>
	<node id="-200650" lat="59.540308336" lon="10.3854138862">
		<tag k="name" v="Bergerbukta" />
		<tag k="natural" v="bay" />
		<tag k="ssr:stedsnr" v="938077" />
	</node>
	<node id="-200520" lat="59.6069472209" lon="10.4111583323">
		<tag k="name" v="Batteriøya" />
		<tag k="place" v="island" />
		<tag k="ssr:stedsnr" v="572251" />
	</node>
	<node id="-200518" lat="59.6244694426" lon="10.4111138927">
		<tag k="fixme" v="consider seamark:type=rock or natural=shoal" />
		<tag k="name" v="Blindeskjæra" />
		<tag k="place" v="islet" />
		<tag k="ssr:stedsnr" v="570752" />
	</node>
	<node id="-200645" lat="59.5910111098" lon="10.4092277787">
		<tag k="name" v="Bokerøya" />
		<tag k="place" v="islet" />
		<tag k="ssr:stedsnr" v="913590" />
	</node>
	<node id="-200638" lat="59.5616222257" lon="10.4005583397">
		<tag k="name" v="Krokbukta" />
		<tag k="natural" v="bay" />
		<tag k="ssr:stedsnr" v="878400" />
	</node>
	<node id="-200379" lat="59.5607583301" lon="10.3996611155">
		<tag k="name" v="Kroksbukta" />
		<tag k="natural" v="bay" />
		<tag k="ssr:stedsnr" v="392090" />
	</node>
	<node id="-200369" lat="59.6892111124" lon="10.347313884">
		<tag k="name" v="Odden" />
		<tag k="natural" v="cape" />
		<tag k="ssr:stedsnr" v="331368" />
	</node>
	<node id="-200623" lat="59.6896861099" lon="10.345972225">
		<tag k="alt_name" v="Skjæret" />
		<tag k="name" v="Skjeret" />
		<tag k="natural" v="cape" />
		<tag k="ssr:stedsnr" v="852737" />
	</node>
	<node id="-200366" lat="59.5615999992" lon="10.3973305616">
		<tag k="name" v="Baskomti-havna" />
		<tag k="natural" v="beach" />
		<tag k="place" v="locality" />
		<tag k="ssr:stedsnr" v="331350" />
	</node>
	<node id="-200491" lat="59.5330305557" lon="10.3932805501">
		<tag k="name" v="Blindsand" />
		<tag k="natural" v="shoal" />
		<tag k="place" v="locality" />
		<tag k="ssr:stedsnr" v="488519" />
	</node>
	<node id="-200362" lat="59.610136108" lon="10.411097222">
		<tag k="name" v="Svelvikstrømmen" />
		<tag k="natural" v="strait" />
		<tag k="ssr:stedsnr" v="328756" />
	</node>
	<node id="-200484" lat="59.6149277765" lon="10.4105527699">
		<tag k="fixme" v="consider seamark:type=rock or natural=shoal" />
		<tag k="name" v="Steinrevet" />
		<tag k="place" v="islet" />
		<tag k="ssr:stedsnr" v="451235" />
	</node>
	<node id="-200483" lat="59.5782166662" lon="10.4010305561">
		<tag k="name" v="Solbergbukta" />
		<tag k="natural" v="bay" />
		<tag k="ssr:stedsnr" v="449927" />
	</node>
	<node id="-200603" lat="59.6843749965" lon="10.3585222295">
		<tag k="name" v="Tangen" />
		<tag k="natural" v="cape" />
		<tag k="ssr:stedsnr" v="756365" />
	</node>
	<node id="-200474" lat="59.59507778" lon="10.4039638963">
		<tag k="name" v="Homannsbergbukta" />
		<tag k="natural" v="bay" />
		<tag k="ssr:stedsnr" v="267767" />
	</node>
	<node id="-200592" lat="59.6755194447" lon="10.3719916693">
		<tag k="name" v="Sandtangen" />
		<tag k="natural" v="cape" />
		<tag k="ssr:stedsnr" v="752781" />
	</node>
	<node id="-200333" lat="59.6634749991" lon="10.381861115">
		<tag k="name" v="Sagbukta" />
		<tag k="natural" v="bay" />
		<tag k="ssr:stedsnr" v="307812" />
	</node>
	<node id="-200585" lat="59.5370333347" lon="10.3870111076">
		<tag k="alt_name" v="Blindsand" />
		<tag k="name" v="Blindsandodden" />
		<tag k="natural" v="cape" />
		<tag k="ssr:stedsnr" v="731513" />
	</node>
	<node id="-200581" lat="59.5307222265" lon="10.3851777736">
		<tag k="name" v="Hansken" />
		<tag k="natural" v="shoal" />
		<tag k="place" v="locality" />
		<tag k="ssr:stedsnr" v="695823" />
	</node>
	<node id="-200577" lat="59.591313885" lon="10.4135138942">
		<tag k="name" v="Vesle Flyndra" />
		<tag k="place" v="sea" />
		<tag k="ssr:stedsnr" v="695354" />
	</node>
</osm>
