<?xml version="1.0" encoding="UTF-8"?>
<osm generator="osmapis" version="0.6">
	<node id="-200664" lat="59.6158527745" lon="10.4103444511">
		<tag k="bridge" v="yes" />
		<tag k="layer" v="1" />
		<tag k="name" v="Svelvik ferjekai" />
		<tag k="ssr:stedsnr" v="956627" />
	</node>
	<node id="-200663" lat="59.6389027803" lon="10.3529111025">
		<tag k="name" v="Bolesteinkleivene" />
		<tag k="place" v="locality" />
		<tag k="ssr:stedsnr" v="938362" />
	</node>
	<node id="-200662" lat="59.6406222222" lon="10.3466111182">
		<tag k="name" v="Bollsteinkulpen" />
		<tag k="natural" v="wetland" />
		<tag k="ssr:stedsnr" v="938358" />
	</node>
	<node id="-200661" lat="59.6136416707" lon="10.3855888963">
		<tag k="name" v="Eik-dammen" />
		<tag k="natural" v="water" />
		<tag k="ssr:stedsnr" v="938357" />
	</node>
	<node id="-200660" lat="59.6339500027" lon="10.4033555593">
		<tag k="name" v="Juvestøa" />
		<tag k="natural" v="beach" />
		<tag k="place" v="locality" />
		<tag k="ssr:stedsnr" v="938351" />
	</node>
	<node id="-200659" lat="59.6174805588" lon="10.38004723">
		<tag k="name" v="Eiklund" />
		<tag k="place" v="isolated_dwelling" />
		<tag k="ssr:stedsnr" v="938346" />
	</node>
	<node id="-200658" lat="59.5836083337" lon="10.3839111124">
		<tag k="name" v="Aukebekken" />
		<tag k="ssr:stedsnr" v="938341" />
		<tag k="waterway" v="stream" />
	</node>
	<node id="-200657" lat="59.6576666638" lon="10.3800333295">
		<tag k="name" v="Nes nedre" />
		<tag k="place" v="farm" />
		<tag k="ssr:stedsnr" v="938294" />
	</node>
	<node id="-200656" lat="59.5928194471" lon="10.3673138951">
		<tag k="name" v="Sagdalen" />
		<tag k="natural" v="valley" />
		<tag k="place" v="locality" />
		<tag k="ssr:stedsnr" v="938238" />
	</node>
	<node id="-200655" lat="59.5688388851" lon="10.3695833377">
		<tag k="name" v="Høiensætermyrene" />
		<tag k="natural" v="wetland" />
		<tag k="ssr:stedsnr" v="938211" />
	</node>
	<node id="-200654" lat="59.6133666712" lon="10.3624555559">
		<tag k="name" v="Breimyr" />
		<tag k="natural" v="wetland" />
		<tag k="ssr:stedsnr" v="938153" />
	</node>
	<node id="-200653" lat="59.6666916628" lon="10.3442999979">
		<tag k="fixme" v="consider natural=peak for the most distinct mountains in the district" />
		<tag k="name" v="Vassåsen" />
		<tag k="natural" v="hill" />
		<tag k="place" v="locality" />
		<tag k="ssr:stedsnr" v="938133" />
	</node>
	<node id="-200652" lat="59.6628111068" lon="10.3427638871">
		<tag k="name" v="Bjørnebakken" />
		<tag k="natural" v="slope" />
		<tag k="place" v="locality" />
		<tag k="ssr:stedsnr" v="938118" />
	</node>
	<node id="-200651" lat="59.6537388918" lon="10.3349222307">
		<tag k="name" v="Merrapanna" />
		<tag k="natural" v="slope" />
		<tag k="place" v="locality" />
		<tag k="ssr:stedsnr" v="938114" />
	</node>
	<node id="-200650" lat="59.540308336" lon="10.3854138862">
		<tag k="name" v="Bergerbukta" />
		<tag k="natural" v="bay" />
		<tag k="ssr:stedsnr" v="938077" />
	</node>
	<node id="-200649" lat="59.6468416656" lon="10.3440249963">
		<tag k="name" v="Gampevann" />
		<tag k="natural" v="water" />
		<tag k="ssr:stedsnr" v="914822" />
	</node>
	<node id="-200648" lat="59.5447305537" lon="10.3876250076">
		<tag k="alt_name" v="Berge Kirke" />
		<tag k="amenity" v="place_of_worship" />
		<tag k="denomination" v="lutheran" />
		<tag k="name" v="Berger" />
		<tag k="religion" v="christian" />
		<tag k="ssr:stedsnr" v="914570" />
	</node>
	<node id="-200647" lat="59.5689444474" lon="10.3921833338">
		<tag k="name" v="Høyen nordre" />
		<tag k="place" v="farm" />
		<tag k="ssr:stedsnr" v="913700" />
	</node>
	<node id="-200645" lat="59.5910111098" lon="10.4092277787">
		<tag k="name" v="Bokerøya" />
		<tag k="place" v="islet" />
		<tag k="ssr:stedsnr" v="913590" />
	</node>
	<node id="-200644" lat="59.5533583363" lon="10.3911499973">
		<tag k="name" v="Sand" />
		<tag k="place" v="farm" />
		<tag k="ssr:stedsnr" v="913522" />
	</node>
	<node id="-200643" lat="59.6631638874" lon="10.3785166602">
		<tag k="name" v="Sagbukta" />
		<tag k="place" v="quarter" />
		<tag k="ssr:stedsnr" v="908899" />
	</node>
	<node id="-200642" lat="59.5978555598" lon="10.4024833372">
		<tag k="name" v="Skjønheim" />
		<tag k="place" v="locality" />
		<tag k="ssr:stedsnr" v="878411" />
	</node>
	<node id="-200641" lat="59.6265416662" lon="10.3959972287">
		<tag k="name" v="Sverstadstykket" />
		<tag k="place" v="locality" />
		<tag k="ssr:stedsnr" v="878408" />
	</node>
	<node id="-200640" lat="59.554305551" lon="10.3919333405">
		<tag k="name" v="Sand" />
		<tag k="place" v="farm" />
		<tag k="ssr:stedsnr" v="878404" />
	</node>
	<node id="-200639" lat="59.5561083364" lon="10.3917444517">
		<tag k="name" v="Sandbakken" />
		<tag k="natural" v="slope" />
		<tag k="place" v="locality" />
		<tag k="ssr:stedsnr" v="878402" />
	</node>
	<node id="-200638" lat="59.5616222257" lon="10.4005583397">
		<tag k="name" v="Krokbukta" />
		<tag k="natural" v="bay" />
		<tag k="ssr:stedsnr" v="878400" />
	</node>
	<node id="-200637" lat="59.5633722217" lon="10.4016638851">
		<tag k="name" v="Krok" />
		<tag k="place" v="farm" />
		<tag k="ssr:stedsnr" v="878388" />
	</node>
	<node id="-200636" lat="59.5483805557" lon="10.3822416753">
		<tag k="amenity" v="school" />
		<tag k="name" v="Berger skole" />
		<tag k="ssr:stedsnr" v="878379" />
	</node>
	<node id="-200635" lat="59.6564833319" lon="10.387219436">
		<tag k="name" v="Saltbuvollen" />
		<tag k="place" v="isolated_dwelling" />
		<tag k="ssr:stedsnr" v="878328" />
	</node>
	<node id="-200634" lat="59.6768500021" lon="10.3133305563">
		<tag k="fixme" v="consider natural=peak for the most distinct mountains in the district" />
		<tag k="name" v="Hansåsen" />
		<tag k="natural" v="hill" />
		<tag k="place" v="locality" />
		<tag k="ssr:stedsnr" v="878180" />
	</node>
	<node id="-200633" lat="59.6676916665" lon="10.3158416744">
		<tag k="name" v="Søndre Øksnevann" />
		<tag k="natural" v="water" />
		<tag k="ssr:stedsnr" v="878168" />
	</node>
	<node id="-200632" lat="59.6223194409" lon="10.3720527752">
		<tag k="name" v="Kalmokleivene" />
		<tag k="natural" v="slope" />
		<tag k="place" v="locality" />
		<tag k="ssr:stedsnr" v="877196" />
	</node>
	<node id="-200631" lat="59.5449444411" lon="10.3698944429">
		<tag k="name" v="Solbergdammen" />
		<tag k="natural" v="water" />
		<tag k="ssr:stedsnr" v="877028" />
	</node>
	<node id="-200630" lat="59.5455805565" lon="10.3722333274">
		<tag k="fixme" v="consider natural=peak for the most distinct mountains in the district" />
		<tag k="name" v="Torbjørnhaugen" />
		<tag k="natural" v="hill" />
		<tag k="place" v="locality" />
		<tag k="ssr:stedsnr" v="877027" />
	</node>
	<node id="-200628" lat="59.6574888882" lon="10.3759388842">
		<tag k="fixme" v="consider place=hamlet" />
		<tag k="name" v="Nesbygda" />
		<tag k="place" v="village" />
		<tag k="ssr:stedsnr" v="874828" />
	</node>
	<node id="-200627" lat="59.650522224" lon="10.3876138844">
		<tag k="landuse" v="quarry" />
		<tag k="name" v="Juve" />
		<tag k="ssr:stedsnr" v="873742" />
	</node>
	<node id="-200626" lat="59.61345278" lon="10.3494305545">
		<tag k="name" v="Knemsmoen" />
		<tag k="place" v="locality" />
		<tag k="ssr:stedsnr" v="870972" />
	</node>
	<node id="-200625" lat="59.6659888876" lon="10.3707638834">
		<tag k="name" v="Nordby" />
		<tag k="place" v="farm" />
		<tag k="ssr:stedsnr" v="853867" />
	</node>
	<node id="-200624" lat="59.6566027805" lon="10.3207249941">
		<tag k="name" v="Nordbykupa" />
		<tag k="natural" v="water" />
		<tag k="ssr:stedsnr" v="853108" />
	</node>
	<node id="-200623" lat="59.6896861099" lon="10.345972225">
		<tag k="alt_name" v="Skjæret" />
		<tag k="name" v="Skjeret" />
		<tag k="natural" v="cape" />
		<tag k="ssr:stedsnr" v="852737" />
	</node>
	<node id="-200622" lat="59.6900888932" lon="10.3410527788">
		<tag k="amenity" v="place_of_worship" />
		<tag k="denomination" v="lutheran" />
		<tag k="name" v="Nesbygda" />
		<tag k="religion" v="christian" />
		<tag k="ssr:stedsnr" v="840303" />
	</node>
	<node id="-200621" lat="59.5649055515" lon="10.3935916721">
		<tag k="name" v="Høyen" />
		<tag k="place" v="hamlet" />
		<tag k="ssr:stedsnr" v="831045" />
	</node>
	<node id="-200620" lat="59.687983333" lon="10.3215166618">
		<tag k="name" v="Sankedammen" />
		<tag k="natural" v="water" />
		<tag k="ssr:stedsnr" v="817386" />
	</node>
	<node id="-200619" lat="59.6501833299" lon="10.3471749965">
		<tag k="name" v="Knektedammslia" />
		<tag k="natural" v="slope" />
		<tag k="place" v="locality" />
		<tag k="ssr:stedsnr" v="817375" />
	</node>
	<node id="-200618" lat="59.6042305582" lon="10.4017388842">
		<tag k="name" v="Knem" />
		<tag k="place" v="farm" />
		<tag k="ssr:stedsnr" v="817367" />
	</node>
	<node id="-200617" lat="59.6117749988" lon="10.4030027762">
		<tag k="name" v="Skredderdalen" />
		<tag k="natural" v="valley" />
		<tag k="place" v="locality" />
		<tag k="ssr:stedsnr" v="817364" />
	</node>
	<node id="-200616" lat="59.6677611151" lon="10.3800944487">
		<tag k="man_made" v="quay" />
		<tag k="name" v="Nordbybrygga" />
		<tag k="place" v="locality" />
		<tag k="ssr:stedsnr" v="817363" />
	</node>
	<node id="-200615" lat="59.6175638924" lon="10.3838888803">
		<tag k="name" v="Klippa" />
		<tag k="natural" v="hill" />
		<tag k="place" v="locality" />
		<tag k="ssr:stedsnr" v="817348" />
	</node>
	<node id="-200614" lat="59.5540722235" lon="10.3711194503">
		<tag k="name" v="Merrapanna" />
		<tag k="natural" v="slope" />
		<tag k="old_name" v="Merrrapanna" />
		<tag k="place" v="locality" />
		<tag k="ssr:stedsnr" v="817226" />
	</node>
	<node id="-200613" lat="59.6222055565" lon="10.3736027755">
		<tag k="name" v="Kalmo" />
		<tag k="place" v="locality" />
		<tag k="ssr:stedsnr" v="817198" />
	</node>
	<node id="-200612" lat="59.6803499998" lon="10.3416638937">
		<tag k="name" v="Helgerud" />
		<tag k="place" v="farm" />
		<tag k="ssr:stedsnr" v="817167" />
	</node>
	<node id="-200611" lat="59.6805027746" lon="10.3538138951">
		<tag k="name" v="Solstad" />
		<tag k="place" v="farm" />
		<tag k="ssr:stedsnr" v="817166" />
	</node>
	<node id="-200610" lat="59.661816665" lon="10.3504944465">
		<tag k="historic" v="shieling" />
		<tag k="name" v="Nordbysætra" />
		<tag k="place" v="locality" />
		<tag k="ssr:stedsnr" v="817153" />
	</node>
	<node id="-200609" lat="59.543341667" lon="10.3723805478">
		<tag k="name" v="Dyrdal" />
		<tag k="place" v="farm" />
		<tag k="ssr:stedsnr" v="817041" />
	</node>
	<node id="-200608" lat="59.5472472257" lon="10.3776499979">
		<tag k="fixme" v="consider place=hamlet" />
		<tag k="name" v="Berger" />
		<tag k="place" v="village" />
		<tag k="ssr:stedsnr" v="813727" />
	</node>
	<node id="-200606" lat="59.5655472243" lon="10.3770888879">
		<tag k="name" v="Høyensetra" />
		<tag k="place" v="farm" />
		<tag k="ssr:stedsnr" v="792698" />
	</node>
	<node id="-200605" lat="59.6219944479" lon="10.3773361047">
		<tag k="alt_name" v="Eikemo" />
		<tag k="name" v="Eikmo" />
		<tag k="place" v="farm" />
		<tag k="ssr:stedsnr" v="792641" />
	</node>
	<node id="-200604" lat="59.5577527784" lon="10.3938472174">
		<tag k="name" v="Kjelleråsen" />
		<tag k="place" v="neighbourhood" />
		<tag k="ssr:stedsnr" v="786874" />
	</node>
	<node id="-200603" lat="59.6843749965" lon="10.3585222295">
		<tag k="name" v="Tangen" />
		<tag k="natural" v="cape" />
		<tag k="ssr:stedsnr" v="756365" />
	</node>
	<node id="-200602" lat="59.6575527795" lon="10.3767083285">
		<tag k="name" v="Ø. Nes" />
		<tag k="place" v="farm" />
		<tag k="ssr:stedsnr" v="756362" />
	</node>
	<node id="-200601" lat="59.5994444434" lon="10.3911666599">
		<tag k="name" v="Glena" />
		<tag k="place" v="isolated_dwelling" />
		<tag k="ssr:stedsnr" v="756353" />
	</node>
	<node id="-200600" lat="59.6037138857" lon="10.4062388958">
		<tag k="name" v="Elvestad" />
		<tag k="place" v="locality" />
		<tag k="ssr:stedsnr" v="756351" />
	</node>
	<node id="-200599" lat="59.6046027779" lon="10.4095194358">
		<tag k="name" v="Grunden" />
		<tag k="place" v="quarter" />
		<tag k="ssr:stedsnr" v="756350" />
	</node>
	<node id="-200598" lat="59.6049333362" lon="10.4039111127">
		<tag k="name" v="Elvernøy" />
		<tag k="place" v="farm" />
		<tag k="ssr:stedsnr" v="756348" />
	</node>
	<node id="-200597" lat="59.6171833331" lon="10.4037138931">
		<tag k="name" v="Brenna" />
		<tag k="natural" v="slope" />
		<tag k="place" v="locality" />
		<tag k="ssr:stedsnr" v="756345" />
	</node>
	<node id="-200596" lat="59.6106722188" lon="10.3336611081">
		<tag k="name" v="Purketjern" />
		<tag k="natural" v="water" />
		<tag k="ssr:stedsnr" v="756152" />
	</node>
	<node id="-200595" lat="59.6670000009" lon="10.3070416661">
		<tag k="name" v="Tangøya" />
		<tag k="natural" v="cape" />
		<tag k="ssr:stedsnr" v="756137" />
	</node>
	<node id="-200593" lat="59.6189361075" lon="10.405397216">
		<tag k="name" v="Brennepundet" />
		<tag k="natural" v="hill" />
		<tag k="place" v="locality" />
		<tag k="ssr:stedsnr" v="754247" />
	</node>
	<node id="-200592" lat="59.6755194447" lon="10.3719916693">
		<tag k="name" v="Sandtangen" />
		<tag k="natural" v="cape" />
		<tag k="ssr:stedsnr" v="752781" />
	</node>
	<node id="-200590" lat="59.6530027778" lon="10.3854583282">
		<tag k="name" v="Sønsteby" />
		<tag k="place" v="farm" />
		<tag k="ssr:stedsnr" v="732824" />
	</node>
	<node id="-200589" lat="59.6536555519" lon="10.3439055551">
		<tag k="alt_name" v="Kjæregravåsen" />
		<tag k="fixme" v="consider natural=peak for the most distinct mountains in the district" />
		<tag k="name" v="Tjæregravåsen" />
		<tag k="natural" v="hill" />
		<tag k="place" v="locality" />
		<tag k="ssr:stedsnr" v="732822" />
	</node>
	<node id="-200588" lat="59.6643500044" lon="10.354349992">
		<tag k="fixme" v="consider natural=peak for the most distinct mountains in the district" />
		<tag k="name" v="Seteråsen" />
		<tag k="natural" v="hill" />
		<tag k="place" v="locality" />
		<tag k="ssr:stedsnr" v="732814" />
	</node>
	<node id="-200587" lat="59.6375446605" lon="10.3598909303">
		<tag k="name" v="Løpakupane" />
		<tag k="natural" v="water" />
		<tag k="ssr:stedsnr" v="731824" />
	</node>
	<node id="-200586" lat="59.5759500015" lon="10.3864694472">
		<tag k="name" v="Solberg" />
		<tag k="place" v="farm" />
		<tag k="ssr:stedsnr" v="731719" />
	</node>
	<node id="-200585" lat="59.5370333347" lon="10.3870111076">
		<tag k="alt_name" v="Blindsand" />
		<tag k="name" v="Blindsandodden" />
		<tag k="natural" v="cape" />
		<tag k="ssr:stedsnr" v="731513" />
	</node>
	<node id="-200584" lat="59.6315916645" lon="10.350602769">
		<tag k="name" v="Nordre Hellumsetervann" />
		<tag k="natural" v="water" />
		<tag k="ssr:stedsnr" v="731645" />
	</node>
	<node id="-200583" lat="59.6241611119" lon="10.3459166601">
		<tag k="fixme" v="consider natural=peak for the most distinct mountains in the district" />
		<tag k="name" v="Stegaåsen" />
		<tag k="natural" v="hill" />
		<tag k="place" v="locality" />
		<tag k="ssr:stedsnr" v="731635" />
	</node>
	<node id="-200582" lat="59.6050916666" lon="10.3489861181">
		<tag k="fixme" v="consider natural=peak for the most distinct mountains in the district" />
		<tag k="name" v="Gulsåsen" />
		<tag k="natural" v="hill" />
		<tag k="place" v="locality" />
		<tag k="ssr:stedsnr" v="700251" />
	</node>
	<node id="-200581" lat="59.5307222265" lon="10.3851777736">
		<tag k="name" v="Hansken" />
		<tag k="natural" v="shoal" />
		<tag k="place" v="locality" />
		<tag k="ssr:stedsnr" v="695823" />
	</node>
	<node id="-200580" lat="59.681844449" lon="10.353719439">
		<tag k="junction" v="yes" />
		<tag k="name" v="Elvestad" />
		<tag k="place" v="locality" />
		<tag k="ssr:stedsnr" v="695399" />
	</node>
	<node id="-200579" lat="59.6876861126" lon="10.3286055615">
		<tag k="name" v="Skogly" />
		<tag k="place" v="farm" />
		<tag k="ssr:stedsnr" v="695389" />
	</node>
	<node id="-200578" lat="59.5588194432" lon="10.3974277818">
		<tag k="man_made" v="quay" />
		<tag k="name" v="Baskomti" />
		<tag k="place" v="locality" />
		<tag k="ssr:stedsnr" v="695361" />
	</node>
	<node id="-200577" lat="59.591313885" lon="10.4135138942">
		<tag k="name" v="Vesle Flyndra" />
		<tag k="place" v="sea" />
		<tag k="ssr:stedsnr" v="695354" />
	</node>
	<node id="-200576" lat="59.592202779" lon="10.4144805565">
		<tag k="alt_name" v="Flyndregrunnen" />
		<tag k="name" v="Store Flyndra" />
		<tag k="place" v="locality" />
		<tag k="seamark:type" v="rock" />
		<tag k="ssr:stedsnr" v="695352" />
	</node>
	<node id="-200575" lat="59.5434972216" lon="10.3920027754">
		<tag k="man_made" v="quay" />
		<tag k="name" v="Berger brygge" />
		<tag k="place" v="locality" />
		<tag k="ssr:stedsnr" v="695334" />
	</node>
	<node id="-200574" lat="59.6416750008" lon="10.392433325">
		<tag k="fixme" v="consider natural=peak for the most distinct mountains in the district" />
		<tag k="name" v="Grineråsen" />
		<tag k="natural" v="hill" />
		<tag k="place" v="locality" />
		<tag k="ssr:stedsnr" v="695315" />
	</node>
	<node id="-200573" lat="59.5819999986" lon="10.3749638931">
		<tag k="fixme" v="consider natural=peak for the most distinct mountains in the district" />
		<tag k="name" v="Svarvarstolen" />
		<tag k="natural" v="hill" />
		<tag k="place" v="locality" />
		<tag k="ssr:stedsnr" v="695255" />
	</node>
	<node id="-200572" lat="59.6346916639" lon="10.3774694503">
		<tag k="name" v="Bjønnehølet" />
		<tag k="natural" v="valley" />
		<tag k="place" v="locality" />
		<tag k="ssr:stedsnr" v="695199" />
	</node>
	<node id="-200571" lat="59.6274777803" lon="10.3457916641">
		<tag k="name" v="Søndre Båsvann" />
		<tag k="natural" v="water" />
		<tag k="ssr:stedsnr" v="695195" />
	</node>
	<node id="-200570" lat="59.6775166705" lon="10.3659611074">
		<tag k="name" v="Almeløkka" />
		<tag k="place" v="locality" />
		<tag k="ssr:stedsnr" v="695158" />
	</node>
	<node id="-200569" lat="59.6559666689" lon="10.3585166744">
		<tag k="name" v="Mastedalen" />
		<tag k="natural" v="valley" />
		<tag k="place" v="locality" />
		<tag k="ssr:stedsnr" v="695144" />
	</node>
	<node id="-200568" lat="59.6252583361" lon="10.4095861117">
		<tag k="name" v="Sleavika" />
		<tag k="natural" v="bay" />
		<tag k="ssr:stedsnr" v="691748" />
	</node>
	<node id="-200567" lat="59.6708749957" lon="10.370452776">
		<tag k="name" v="Havnevik" />
		<tag k="place" v="farm" />
		<tag k="ssr:stedsnr" v="671865" />
	</node>
	<node id="-200566" lat="59.6449750005" lon="10.3893499989">
		<tag k="name" v="Leirvik" />
		<tag k="place" v="farm" />
		<tag k="ssr:stedsnr" v="671839" />
	</node>
	<node id="-200565" lat="59.6390361115" lon="10.3760666687">
		<tag k="fixme" v="consider natural=peak for the most distinct mountains in the district" />
		<tag k="name" v="Sønstebyåsen" />
		<tag k="natural" v="hill" />
		<tag k="place" v="locality" />
		<tag k="ssr:stedsnr" v="671838" />
	</node>
	<node id="-200564" lat="59.6067638929" lon="10.3924166733">
		<tag k="name" v="Hellum" />
		<tag k="place" v="farm" />
		<tag k="ssr:stedsnr" v="671643" />
	</node>
	<node id="-200563" lat="59.5974944486" lon="10.369272225">
		<tag k="fixme" v="consider natural=peak for the most distinct mountains in the district" />
		<tag k="name" v="Styggås" />
		<tag k="natural" v="hill" />
		<tag k="place" v="locality" />
		<tag k="ssr:stedsnr" v="671636" />
	</node>
	<node id="-200562" lat="59.6127249996" lon="10.3876277812">
		<tag k="name" v="Eik" />
		<tag k="place" v="farm" />
		<tag k="ssr:stedsnr" v="670635" />
	</node>
	<node id="-200561" lat="59.5507416651" lon="10.3915166612">
		<tag k="fixme" v="consider natural=peak for the most distinct mountains in the district" />
		<tag k="name" v="Bergeråsen" />
		<tag k="natural" v="hill" />
		<tag k="place" v="locality" />
		<tag k="ssr:stedsnr" v="670516" />
	</node>
	<node id="-200560" lat="59.5511861073" lon="10.3731888897">
		<tag k="name" v="Brekke" />
		<tag k="place" v="farm" />
		<tag k="ssr:stedsnr" v="670514" />
	</node>
	<node id="-200559" lat="59.6673388914" lon="10.3275750086">
		<tag k="fixme" v="consider natural=peak for the most distinct mountains in the district" />
		<tag k="name" v="Siriseteråsen" />
		<tag k="natural" v="hill" />
		<tag k="place" v="locality" />
		<tag k="ssr:stedsnr" v="670140" />
	</node>
	<node id="-200558" lat="59.5588444473" lon="10.3884388931">
		<tag k="bridge" v="yes" />
		<tag k="layer" v="1" />
		<tag k="name" v="Høyen mur" />
		<tag k="ssr:stedsnr" v="652561" />
	</node>
	<node id="-200557" lat="59.6044999964" lon="10.4043888941">
		<tag k="bridge" v="yes" />
		<tag k="layer" v="1" />
		<tag k="name" v="Knem" />
		<tag k="ssr:stedsnr" v="652562" />
	</node>
	<node id="-200556" lat="59.5440055595" lon="10.3719944471">
		<tag k="bridge" v="yes" />
		<tag k="layer" v="1" />
		<tag k="name" v="Berger" />
		<tag k="ssr:stedsnr" v="652560" />
	</node>
	<node id="-200555" lat="59.6150388923" lon="10.3968222303">
		<tag k="name" v="Sverstad" />
		<tag k="place" v="quarter" />
		<tag k="ssr:stedsnr" v="648942" />
	</node>
	<node id="-200554" lat="59.6862388859" lon="10.3409750013">
		<tag k="name" v="Labråten" />
		<tag k="place" v="farm" />
		<tag k="ssr:stedsnr" v="634395" />
	</node>
	<node id="-200553" lat="59.6881055539" lon="10.3456277707">
		<tag k="name" v="Nordli" />
		<tag k="place" v="isolated_dwelling" />
		<tag k="ssr:stedsnr" v="634390" />
	</node>
	<node id="-200552" lat="59.6113638851" lon="10.380288892">
		<tag k="name" v="Trolldalen" />
		<tag k="natural" v="valley" />
		<tag k="place" v="locality" />
		<tag k="ssr:stedsnr" v="634381" />
	</node>
	<node id="-200551" lat="59.5955000018" lon="10.3973888889">
		<tag k="name" v="Knem" />
		<tag k="place" v="farm" />
		<tag k="ssr:stedsnr" v="634379" />
	</node>
	<node id="-200550" lat="59.5917166676" lon="10.3869722286">
		<tag k="name" v="Apalbakken" />
		<tag k="natural" v="slope" />
		<tag k="place" v="locality" />
		<tag k="ssr:stedsnr" v="634369" />
	</node>
	<node id="-200549" lat="59.6547000012" lon="10.3865055599">
		<tag k="name" v="Hella" />
		<tag k="natural" v="beach" />
		<tag k="place" v="locality" />
		<tag k="ssr:stedsnr" v="634326" />
	</node>
	<node id="-200548" lat="59.5868388872" lon="10.3481583394">
		<tag k="name" v="Fokslemyra" />
		<tag k="natural" v="wetland" />
		<tag k="ssr:stedsnr" v="634261" />
	</node>
	<node id="-200547" lat="59.5696194477" lon="10.3526749973">
		<tag k="name" v="Høgåsemyrene" />
		<tag k="natural" v="wetland" />
		<tag k="ssr:stedsnr" v="634224" />
	</node>
	<node id="-200546" lat="59.6236666664" lon="10.3401555568">
		<tag k="name" v="Kulpen" />
		<tag k="natural" v="water" />
		<tag k="ssr:stedsnr" v="634175" />
	</node>
	<node id="-200545" lat="59.6630444456" lon="10.3203583361">
		<tag k="name" v="Blekktjern" />
		<tag k="natural" v="water" />
		<tag k="ssr:stedsnr" v="634143" />
	</node>
	<node id="-200544" lat="59.5464222209" lon="10.3675277827">
		<tag k="name" v="Bergerdammen" />
		<tag k="natural" v="water" />
		<tag k="ssr:stedsnr" v="634024" />
	</node>
	<node id="-200542" lat="59.6866555562" lon="10.3494611058">
		<tag k="name" v="Grønlia" />
		<tag k="place" v="quarter" />
		<tag k="ssr:stedsnr" v="626987" />
	</node>
	<node id="-200541" lat="59.67210556" lon="10.3761305624">
		<tag k="alt_name" v="Kuflekken" />
		<tag k="name" v="Koflekken" />
		<tag k="place" v="isolated_dwelling" />
		<tag k="ssr:stedsnr" v="610882" />
	</node>
	<node id="-200540" lat="59.6343361155" lon="10.3704305489">
		<tag k="name" v="Ebbestadvannet" />
		<tag k="natural" v="water" />
		<tag k="ssr:stedsnr" v="610705" />
		<tag k="water" v="lake" />
	</node>
	<node id="-200539" lat="59.5963833324" lon="10.3850805537">
		<tag k="fixme" v="consider natural=peak for the most distinct mountains in the district" />
		<tag k="name" v="Glenås" />
		<tag k="natural" v="hill" />
		<tag k="place" v="locality" />
		<tag k="ssr:stedsnr" v="610648" />
	</node>
	<node id="-200538" lat="59.6036583306" lon="10.3325166592">
		<tag k="name" v="Sandohytta" />
		<tag k="place" v="isolated_dwelling" />
		<tag k="ssr:stedsnr" v="610119" />
	</node>
	<node id="-200537" lat="59.6217194421" lon="10.3875416688">
		<tag k="fixme" v="consider natural=peak for the most distinct mountains in the district" />
		<tag k="name" v="Brentås" />
		<tag k="natural" v="hill" />
		<tag k="place" v="locality" />
		<tag k="ssr:stedsnr" v="609624" />
	</node>
	<node id="-200536" lat="59.6179750004" lon="10.3668916714">
		<tag k="fixme" v="consider natural=peak for the most distinct mountains in the district" />
		<tag k="name" v="Stølsåsen" />
		<tag k="natural" v="hill" />
		<tag k="place" v="locality" />
		<tag k="ssr:stedsnr" v="609611" />
	</node>
	<node id="-200535" lat="59.5988138884" lon="10.4050000058">
		<tag k="name" v="Homansberget" />
		<tag k="place" v="neighbourhood" />
		<tag k="ssr:stedsnr" v="609587" />
	</node>
	<node id="-200533" lat="59.6461583334" lon="10.3281611154">
		<tag k="name" v="Fleskelita" />
		<tag k="natural" v="valley" />
		<tag k="place" v="locality" />
		<tag k="ssr:stedsnr" v="574402" />
	</node>
	<node id="-200532" lat="59.6505305532" lon="10.3323944356">
		<tag k="fixme" v="consider natural=peak for the most distinct mountains in the district" />
		<tag k="name" v="Kringleåsen" />
		<tag k="natural" v="hill" />
		<tag k="place" v="locality" />
		<tag k="ssr:stedsnr" v="574403" />
	</node>
	<node id="-200531" lat="59.590813887" lon="10.3927638826">
		<tag k="name" v="Knem" />
		<tag k="place" v="farm" />
		<tag k="ssr:stedsnr" v="574373" />
	</node>
	<node id="-200530" lat="59.5649055515" lon="10.3935916721">
		<tag k="name" v="Høyen mellom" />
		<tag k="place" v="farm" />
		<tag k="ssr:stedsnr" v="574370" />
	</node>
	<node id="-200529" lat="59.5755916711" lon="10.3458388866">
		<tag k="fixme" v="consider natural=peak for the most distinct mountains in the district" />
		<tag k="name" v="Blindevannsåsen" />
		<tag k="natural" v="hill" />
		<tag k="place" v="locality" />
		<tag k="ssr:stedsnr" v="574279" />
	</node>
	<node id="-200528" lat="59.5895944472" lon="10.3468472259">
		<tag k="fixme" v="consider natural=peak for the most distinct mountains in the district" />
		<tag k="name" v="Blakkemyrkollen" />
		<tag k="natural" v="hill" />
		<tag k="place" v="locality" />
		<tag k="ssr:stedsnr" v="574277" />
	</node>
	<node id="-200527" lat="59.5736388887" lon="10.3502444432">
		<tag k="name" v="Svartekulp" />
		<tag k="natural" v="water" />
		<tag k="ssr:stedsnr" v="574268" />
	</node>
	<node id="-200526" lat="59.6248055581" lon="10.3617972267">
		<tag k="name" v="Nedre Kloppmyr" />
		<tag k="natural" v="wetland" />
		<tag k="ssr:stedsnr" v="574209" />
	</node>
	<node id="-200525" lat="59.6219888915" lon="10.3511472201">
		<tag k="name" v="Båsen" />
		<tag k="place" v="locality" />
		<tag k="ssr:stedsnr" v="574207" />
	</node>
	<node id="-200524" lat="59.6690249992" lon="10.3664666684">
		<tag k="name" v="Havnevik" />
		<tag k="place" v="farm" />
		<tag k="ssr:stedsnr" v="574169" />
	</node>
	<node id="-200523" lat="59.6545166644" lon="10.3251055543">
		<tag k="name" v="Kringlemyr" />
		<tag k="place" v="locality" />
		<tag k="ssr:stedsnr" v="574152" />
	</node>
	<node id="-200522" lat="59.6542444453" lon="10.3380222206">
		<tag k="name" v="Mellomåsen" />
		<tag k="natural" v="hill" />
		<tag k="place" v="locality" />
		<tag k="ssr:stedsnr" v="574149" />
	</node>
	<node id="-200521" lat="59.6569861096" lon="10.3546861178">
		<tag k="name" v="Furrubråtan" />
		<tag k="place" v="locality" />
		<tag k="ssr:stedsnr" v="574148" />
	</node>
	<node id="-200520" lat="59.6069472209" lon="10.4111583323">
		<tag k="name" v="Batteriøya" />
		<tag k="place" v="island" />
		<tag k="ssr:stedsnr" v="572251" />
	</node>
	<node id="-200519" lat="59.6763305525" lon="10.3605888834">
		<tag k="name" v="Jordfallet" />
		<tag k="natural" v="slope" />
		<tag k="place" v="locality" />
		<tag k="ssr:stedsnr" v="570769" />
	</node>
	<node id="-200518" lat="59.6244694426" lon="10.4111138927">
		<tag k="fixme" v="consider seamark:type=rock or natural=shoal" />
		<tag k="name" v="Blindeskjæra" />
		<tag k="place" v="islet" />
		<tag k="ssr:stedsnr" v="570752" />
	</node>
	<node id="-200517" lat="59.615680552" lon="10.3862277811">
		<tag k="name" v="Ebbestad nordre" />
		<tag k="place" v="farm" />
		<tag k="ssr:stedsnr" v="570505" />
	</node>
	<node id="-200516" lat="59.6715527759" lon="10.3514611125">
		<tag k="name" v="Vestby" />
		<tag k="place" v="farm" />
		<tag k="ssr:stedsnr" v="549851" />
	</node>
	<node id="-200515" lat="59.5830583326" lon="10.3612944516">
		<tag k="fixme" v="consider natural=peak for the most distinct mountains in the district" />
		<tag k="name" v="Merratoppen" />
		<tag k="natural" v="hill" />
		<tag k="place" v="locality" />
		<tag k="ssr:stedsnr" v="549718" />
	</node>
	<node id="-200514" lat="59.6284138913" lon="10.3445833287">
		<tag k="name" v="Båsvanna" />
		<tag k="natural" v="water" />
		<tag k="ssr:stedsnr" v="549662" />
	</node>
	<node id="-200513" lat="59.6134083307" lon="10.407738892">
		<tag k="alt_name" v="Svelvik kirke" />
		<tag k="amenity" v="place_of_worship" />
		<tag k="denomination" v="lutheran" />
		<tag k="name" v="Svelvik" />
		<tag k="religion" v="christian" />
		<tag k="ssr:stedsnr" v="549635" />
	</node>
	<node id="-200511" lat="59.5974805534" lon="10.4020083364">
		<tag k="name" v="Skjønheim" />
		<tag k="place" v="quarter" />
		<tag k="ssr:stedsnr" v="527923" />
	</node>
	<node id="-200510" lat="59.6874666706" lon="10.3353333275">
		<tag k="name" v="Nøsterudbråten" />
		<tag k="place" v="farm" />
		<tag k="ssr:stedsnr" v="513405" />
	</node>
	<node id="-200509" lat="59.6866555569" lon="10.3494444441">
		<tag k="name" v="Grønli" />
		<tag k="place" v="quarter" />
		<tag k="ssr:stedsnr" v="513401" />
	</node>
	<node id="-200508" lat="59.6478527774" lon="10.3610833402">
		<tag k="name" v="Vassmyr" />
		<tag k="natural" v="wetland" />
		<tag k="ssr:stedsnr" v="513396" />
	</node>
	<node id="-200507" lat="59.607127778" lon="10.3983805471">
		<tag k="name" v="Tømmerås" />
		<tag k="place" v="farm" />
		<tag k="ssr:stedsnr" v="513389" />
	</node>
	<node id="-200506" lat="59.6243583353" lon="10.4032305573">
		<tag k="fixme" v="consider natural=peak for the most distinct mountains in the district" />
		<tag k="name" v="Juveåsen" />
		<tag k="natural" v="hill" />
		<tag k="place" v="locality" />
		<tag k="ssr:stedsnr" v="513374" />
	</node>
	<node id="-200505" lat="59.5812527817" lon="10.3588361072">
		<tag k="name" v="Solbergmyrene" />
		<tag k="natural" v="wetland" />
		<tag k="ssr:stedsnr" v="513267" />
	</node>
	<node id="-200504" lat="59.5858388874" lon="10.3618916596">
		<tag k="name" v="Myrestulen" />
		<tag k="natural" v="slope" />
		<tag k="place" v="locality" />
		<tag k="ssr:stedsnr" v="513265" />
	</node>
	<node id="-200503" lat="59.6272444458" lon="10.3704555627">
		<tag k="fixme" v="consider natural=peak for the most distinct mountains in the district" />
		<tag k="name" v="Vandsåsen" />
		<tag k="natural" v="hill" />
		<tag k="place" v="locality" />
		<tag k="ssr:stedsnr" v="513195" />
	</node>
	<node id="-200502" lat="59.6757916664" lon="10.3670111107">
		<tag k="name" v="Havnevik store" />
		<tag k="place" v="farm" />
		<tag k="ssr:stedsnr" v="513158" />
	</node>
	<node id="-200501" lat="59.6795694488" lon="10.3611388883">
		<tag k="name" v="Skjønvik" />
		<tag k="place" v="farm" />
		<tag k="ssr:stedsnr" v="513151" />
	</node>
	<node id="-200500" lat="59.6643305537" lon="10.35706389">
		<tag k="name" v="Bjørkebråtan" />
		<tag k="place" v="locality" />
		<tag k="ssr:stedsnr" v="513139" />
	</node>
	<node id="-200499" lat="59.6601138875" lon="10.3761583319">
		<tag k="name" v="Øst Næss" />
		<tag k="place" v="farm" />
		<tag k="ssr:stedsnr" v="513133" />
	</node>
	<node id="-200498" lat="59.5385638883" lon="10.3825833379">
		<tag k="fixme" v="consider place=suburb, village or hamlet" />
		<tag k="name" v="Blindsand" />
		<tag k="place" v="quarter" />
		<tag k="ssr:stedsnr" v="505965" />
	</node>
	<node id="-200497" lat="59.6545444489" lon="10.3859694512">
		<tag k="fixme" v="consider place=suburb, village or hamlet" />
		<tag k="name" v="Hella" />
		<tag k="place" v="quarter" />
		<tag k="ssr:stedsnr" v="505960" />
	</node>
	<node id="-200496" lat="59.6187861149" lon="10.3418750081">
		<tag k="name" v="Søndre Svanevannet" />
		<tag k="natural" v="water" />
		<tag k="ssr:stedsnr" v="489131" />
	</node>
	<node id="-200495" lat="59.577083331" lon="10.3632138969">
		<tag k="name" v="Ådnekulpen" />
		<tag k="place" v="locality" />
		<tag k="ssr:stedsnr" v="488727" />
	</node>
	<node id="-200494" lat="59.5660444442" lon="10.4045777795">
		<tag k="fixme" v="consider natural=peak for the most distinct mountains in the district" />
		<tag k="name" v="Krokåsen" />
		<tag k="natural" v="hill" />
		<tag k="place" v="locality" />
		<tag k="ssr:stedsnr" v="488709" />
	</node>
	<node id="-200493" lat="59.5736777817" lon="10.3547388953">
		<tag k="fixme" v="consider natural=peak for the most distinct mountains in the district" />
		<tag k="name" v="Høgåsen" />
		<tag k="natural" v="hill" />
		<tag k="place" v="locality" />
		<tag k="ssr:stedsnr" v="488703" />
	</node>
	<node id="-200492" lat="59.5700000044" lon="10.3736194497">
		<tag k="fixme" v="consider natural=peak for the most distinct mountains in the district" />
		<tag k="name" v="Ådneåsen" />
		<tag k="natural" v="hill" />
		<tag k="place" v="locality" />
		<tag k="ssr:stedsnr" v="488702" />
	</node>
	<node id="-200491" lat="59.5330305557" lon="10.3932805501">
		<tag k="name" v="Blindsand" />
		<tag k="natural" v="shoal" />
		<tag k="place" v="locality" />
		<tag k="ssr:stedsnr" v="488519" />
	</node>
	<node id="-200490" lat="59.6908027802" lon="10.328586116">
		<tag k="name" v="Tørkopp" />
		<tag k="place" v="isolated_dwelling" />
		<tag k="ssr:stedsnr" v="488185" />
	</node>
	<node id="-200489" lat="59.6905249997" lon="10.3379750062">
		<tag k="name" v="Støa" />
		<tag k="place" v="farm" />
		<tag k="ssr:stedsnr" v="488184" />
	</node>
	<node id="-200488" lat="59.543627781" lon="10.3885388861">
		<tag k="name" v="Bryggeåsen" />
		<tag k="place" v="quarter" />
		<tag k="ssr:stedsnr" v="483894" />
	</node>
	<node id="-200487" lat="59.6093666703" lon="10.4013222244">
		<tag k="fixme" v="consider natural=peak for the most distinct mountains in the district" />
		<tag k="name" v="Tømmeråsen" />
		<tag k="natural" v="hill" />
		<tag k="place" v="locality" />
		<tag k="ssr:stedsnr" v="453363" />
	</node>
	<node id="-200486" lat="59.5572444457" lon="10.3860666753">
		<tag k="name" v="Lærum" />
		<tag k="place" v="farm" />
		<tag k="ssr:stedsnr" v="453349" />
	</node>
	<node id="-200485" lat="59.6711222245" lon="10.3531555595">
		<tag k="name" v="Sæterdalen" />
		<tag k="natural" v="valley" />
		<tag k="place" v="locality" />
		<tag k="ssr:stedsnr" v="453175" />
	</node>
	<node id="-200484" lat="59.6149277765" lon="10.4105527699">
		<tag k="fixme" v="consider seamark:type=rock or natural=shoal" />
		<tag k="name" v="Steinrevet" />
		<tag k="place" v="islet" />
		<tag k="ssr:stedsnr" v="451235" />
	</node>
	<node id="-200483" lat="59.5782166662" lon="10.4010305561">
		<tag k="name" v="Solbergbukta" />
		<tag k="natural" v="bay" />
		<tag k="ssr:stedsnr" v="449927" />
	</node>
	<node id="-200482" lat="59.6560416672" lon="10.3837611026">
		<tag k="name" v="Håkenstad" />
		<tag k="place" v="farm" />
		<tag k="ssr:stedsnr" v="449773" />
	</node>
	<node id="-200481" lat="59.6514166677" lon="10.3479694486">
		<tag k="name" v="Knektedammen" />
		<tag k="natural" v="water" />
		<tag k="ssr:stedsnr" v="429830" />
	</node>
	<node id="-200480" lat="59.6864055526" lon="10.3525027736">
		<tag k="alt_name" v="Syvertsvollen" />
		<tag k="name" v="Syversvollen" />
		<tag k="place" v="isolated_dwelling" />
		<tag k="ssr:stedsnr" v="428755" />
	</node>
	<node id="-200479" lat="59.5843499959" lon="10.3847249996">
		<tag k="name" v="Auke" />
		<tag k="place" v="farm" />
		<tag k="ssr:stedsnr" v="428721" />
	</node>
	<node id="-200478" lat="59.5589750039" lon="10.3733999946">
		<tag k="alt_name" v="Høyenåsen;Høienåsen" />
		<tag k="fixme" v="consider natural=peak for the most distinct mountains in the district" />
		<tag k="name" v="Kjelleråsen" />
		<tag k="natural" v="hill" />
		<tag k="place" v="locality" />
		<tag k="ssr:stedsnr" v="428677" />
	</node>
	<node id="-200477" lat="59.55141111" lon="10.3584999922">
		<tag k="name" v="Seterdammen" />
		<tag k="natural" v="water" />
		<tag k="ssr:stedsnr" v="428670" />
	</node>
	<node id="-200476" lat="59.6318305584" lon="10.39540834">
		<tag k="name" v="Juve" />
		<tag k="place" v="farm" />
		<tag k="ssr:stedsnr" v="428658" />
	</node>
	<node id="-200475" lat="59.6120999987" lon="10.3702166624">
		<tag k="name" v="Hellumvannet" />
		<tag k="natural" v="water" />
		<tag k="ssr:stedsnr" v="428604" />
	</node>
	<node id="-200474" lat="59.59507778" lon="10.4039638963">
		<tag k="name" v="Homannsbergbukta" />
		<tag k="natural" v="bay" />
		<tag k="ssr:stedsnr" v="267767" />
	</node>
	<node id="-200473" lat="59.6587861103" lon="10.3718361145">
		<tag k="alt_name" v="Furru" />
		<tag k="name" v="Furu" />
		<tag k="place" v="farm" />
		<tag k="ssr:stedsnr" v="247859" />
	</node>
	<node id="-200472" lat="59.6594750033" lon="10.3610361053">
		<tag k="name" v="Nordbyelva" />
		<tag k="ssr:stedsnr" v="247803" />
		<tag k="waterway" v="stream" />
	</node>
	<node id="-200471" lat="59.6680999981" lon="10.3455861148">
		<tag k="name" v="Vassåsvannet" />
		<tag k="natural" v="water" />
		<tag k="ssr:stedsnr" v="246845" />
	</node>
	<node id="-200470" lat="59.6429666694" lon="10.3437138855">
		<tag k="fixme" v="consider natural=peak for the most distinct mountains in the district" />
		<tag k="name" v="Bollstein" />
		<tag k="natural" v="hill" />
		<tag k="place" v="locality" />
		<tag k="ssr:stedsnr" v="246814" />
	</node>
	<node id="-200469" lat="59.5618555572" lon="10.3931472176">
		<tag k="name" v="Høyen søndre" />
		<tag k="place" v="farm" />
		<tag k="ssr:stedsnr" v="246665" />
	</node>
	<node id="-200468" lat="59.6049694461" lon="10.3746027824">
		<tag k="name" v="Jordbærtjernet" />
		<tag k="natural" v="water" />
		<tag k="ssr:stedsnr" v="246606" />
	</node>
	<node id="-200467" lat="59.6847916658" lon="10.338597227">
		<tag k="name" v="Nøsterud" />
		<tag k="place" v="farm" />
		<tag k="ssr:stedsnr" v="246234" />
	</node>
	<node id="-200466" lat="59.6267250039" lon="10.3507749993">
		<tag k="fixme" v="consider natural=peak for the most distinct mountains in the district" />
		<tag k="name" v="Seteråsen" />
		<tag k="natural" v="hill" />
		<tag k="place" v="locality" />
		<tag k="ssr:stedsnr" v="246028" />
	</node>
	<node id="-200465" lat="59.6857388924" lon="10.3417333365">
		<tag k="name" v="Labråten" />
		<tag k="place" v="quarter" />
		<tag k="ssr:stedsnr" v="240880" />
	</node>
	<node id="-200464" lat="59.5448638912" lon="10.3718055547">
		<tag k="name" v="Torbjørnhaugen" />
		<tag k="place" v="quarter" />
		<tag k="ssr:stedsnr" v="240873" />
	</node>
	<node id="-200463" lat="59.6155472235" lon="10.4051666744">
		<tag k="bridge" v="yes" />
		<tag k="layer" v="1" />
		<tag k="name" v="Svelvik syd mur" />
		<tag k="ssr:stedsnr" v="228636" />
	</node>
	<node id="-200462" lat="59.6878055591" lon="10.3488777837">
		<tag k="bridge" v="yes" />
		<tag k="layer" v="1" />
		<tag k="name" v="Rørvik mur" />
		<tag k="ssr:stedsnr" v="228633" />
	</node>
	<node id="-200461" lat="59.5834555596" lon="10.3913944469">
		<tag k="bridge" v="yes" />
		<tag k="layer" v="1" />
		<tag k="name" v="Auke" />
		<tag k="ssr:stedsnr" v="228631" />
	</node>
	<node id="-200460" lat="59.6839194442" lon="10.3579472244">
		<tag k="name" v="Tangenhavna" />
		<tag k="place" v="quarter" />
		<tag k="ssr:stedsnr" v="210398" />
	</node>
	<node id="-200459" lat="59.682419443" lon="10.3346750082">
		<tag k="name" v="Nøsterud" />
		<tag k="place" v="farm" />
		<tag k="ssr:stedsnr" v="210386" />
	</node>
	<node id="-200458" lat="59.656344441" lon="10.3638472145">
		<tag k="name" v="Bråtaløkka" />
		<tag k="place" v="locality" />
		<tag k="ssr:stedsnr" v="210380" />
	</node>
	<node id="-200457" lat="59.6248805537" lon="10.3856694496">
		<tag k="fixme" v="consider natural=peak for the most distinct mountains in the district" />
		<tag k="name" v="Mariås" />
		<tag k="natural" v="hill" />
		<tag k="place" v="locality" />
		<tag k="ssr:stedsnr" v="210367" />
	</node>
	<node id="-200456" lat="59.5554611091" lon="10.3926277842">
		<tag k="name" v="Kjeller" />
		<tag k="natural" v="slope" />
		<tag k="place" v="locality" />
		<tag k="ssr:stedsnr" v="210365" />
	</node>
	<node id="-200455" lat="59.5836805583" lon="10.3957944439">
		<tag k="fixme" v="consider boundary=protected_area and relevant protect_class if not nature reserve" />
		<tag k="leisure" v="nature_reserve" />
		<tag k="name" v="Grunnane naturreservat" />
		<tag k="ssr:stedsnr" v="210360" />
	</node>
	<node id="-200454" lat="59.5541944481" lon="10.3571999961">
		<tag k="fixme" v="consider natural=peak for the most distinct mountains in the district" />
		<tag k="name" v="Ravneråsen" />
		<tag k="natural" v="hill" />
		<tag k="place" v="locality" />
		<tag k="ssr:stedsnr" v="210247" />
	</node>
	<node id="-200453" lat="59.6294444479" lon="10.3669388846">
		<tag k="name" v="Fjellbekkrenna" />
		<tag k="ssr:stedsnr" v="210215" />
		<tag k="waterway" v="stream" />
	</node>
	<node id="-200452" lat="59.6272333294" lon="10.3509361171">
		<tag k="fixme" v="consider natural=peak for the most distinct mountains in the district" />
		<tag k="name" v="Sæteråsen" />
		<tag k="natural" v="hill" />
		<tag k="place" v="locality" />
		<tag k="ssr:stedsnr" v="210207" />
	</node>
	<node id="-200451" lat="59.6228416712" lon="10.3630888882">
		<tag k="name" v="Fjellbekk" />
		<tag k="ssr:stedsnr" v="210208" />
		<tag k="waterway" v="stream" />
	</node>
	<node id="-200450" lat="59.6661888913" lon="10.362047228">
		<tag k="name" v="Flitte" />
		<tag k="natural" v="hill" />
		<tag k="place" v="locality" />
		<tag k="ssr:stedsnr" v="210173" />
	</node>
	<node id="-200449" lat="59.6673666638" lon="10.3517694389">
		<tag k="name" v="Oterdalen" />
		<tag k="natural" v="valley" />
		<tag k="place" v="locality" />
		<tag k="ssr:stedsnr" v="210170" />
	</node>
	<node id="-200448" lat="59.6627861074" lon="10.3508055637">
		<tag k="landuse" v="meadow" />
		<tag k="name" v="Sæterenga" />
		<tag k="ssr:stedsnr" v="210154" />
	</node>
	<node id="-200447" lat="59.6626166691" lon="10.3372027721">
		<tag k="name" v="Langmyra" />
		<tag k="natural" v="wetland" />
		<tag k="ssr:stedsnr" v="210153" />
	</node>
	<node id="-200446" lat="59.6454999977" lon="10.3362166697">
		<tag k="name" v="Salavassbekken" />
		<tag k="ssr:stedsnr" v="186151" />
		<tag k="waterway" v="stream" />
	</node>
	<node id="-200445" lat="59.6828694474" lon="10.3496250047">
		<tag k="name" v="Stomperud" />
		<tag k="place" v="farm" />
		<tag k="ssr:stedsnr" v="185749" />
	</node>
	<node id="-200444" lat="59.6293749966" lon="10.4061722276">
		<tag k="name" v="Rørvik" />
		<tag k="place" v="isolated_dwelling" />
		<tag k="ssr:stedsnr" v="185639" />
	</node>
	<node id="-200443" lat="59.6498750024" lon="10.338963895">
		<tag k="name" v="Nessetervanna" />
		<tag k="natural" v="water" />
		<tag k="ssr:stedsnr" v="185151" />
	</node>
	<node id="-200442" lat="59.550519445" lon="10.3892472166">
		<tag k="name" v="Bergeråsen" />
		<tag k="place" v="quarter" />
		<tag k="ssr:stedsnr" v="180861" />
	</node>
	<node id="-200441" lat="59.623586112" lon="10.4029194485">
		<tag k="name" v="Juveåsen" />
		<tag k="place" v="quarter" />
		<tag k="ssr:stedsnr" v="163926" />
	</node>
	<node id="-200440" lat="59.6867805587" lon="10.3456388942">
		<tag k="name" v="Grønlihavna" />
		<tag k="place" v="locality" />
		<tag k="ssr:stedsnr" v="149365" />
	</node>
	<node id="-200439" lat="59.6540305545" lon="10.3757583361">
		<tag k="alt_name" v="Girud" />
		<tag k="name" v="Gjerrud" />
		<tag k="place" v="farm" />
		<tag k="ssr:stedsnr" v="149362" />
	</node>
	<node id="-200438" lat="59.640333332" lon="10.3339222255">
		<tag k="fixme" v="consider natural=peak for the most distinct mountains in the district" />
		<tag k="name" v="Svanevannsåsen" />
		<tag k="natural" v="hill" />
		<tag k="place" v="locality" />
		<tag k="ssr:stedsnr" v="149360" />
	</node>
	<node id="-200437" lat="59.6428888865" lon="10.3430027767">
		<tag k="name" v="Bollsteinvannet" />
		<tag k="natural" v="water" />
		<tag k="ssr:stedsnr" v="149355" />
	</node>
	<node id="-200436" lat="59.602152776" lon="10.4040749983">
		<tag k="name" v="Knem" />
		<tag k="place" v="farm" />
		<tag k="ssr:stedsnr" v="149354" />
	</node>
	<node id="-200435" lat="59.6235416668" lon="10.4000749963">
		<tag k="name" v="Ormedalen" />
		<tag k="natural" v="valley" />
		<tag k="place" v="locality" />
		<tag k="ssr:stedsnr" v="149340" />
	</node>
	<node id="-200434" lat="59.5853222237" lon="10.3902305556">
		<tag k="name" v="Myre" />
		<tag k="place" v="farm" />
		<tag k="ssr:stedsnr" v="149334" />
	</node>
	<node id="-200433" lat="59.6048638861" lon="10.3532083351">
		<tag k="name" v="Sankthanshølet" />
		<tag k="natural" v="valley" />
		<tag k="place" v="locality" />
		<tag k="ssr:stedsnr" v="149158" />
	</node>
	<node id="-200432" lat="59.6635944406" lon="10.3572555492">
		<tag k="name" v="Kudalen" />
		<tag k="natural" v="valley" />
		<tag k="place" v="locality" />
		<tag k="ssr:stedsnr" v="149128" />
	</node>
	<node id="-200431" lat="59.5502333362" lon="10.36025556">
		<tag k="name" v="Bergersetet" />
		<tag k="natural" v="slope" />
		<tag k="place" v="locality" />
		<tag k="ssr:stedsnr" v="149022" />
	</node>
	<node id="-200430" lat="59.6815166687" lon="10.3593055586">
		<tag k="name" v="Tangen" />
		<tag k="place" v="hamlet" />
		<tag k="ssr:stedsnr" v="141964" />
	</node>
	<node id="-200429" lat="59.6573805533" lon="10.3769305517">
		<tag k="name" v="Nes" />
		<tag k="place" v="farm" />
		<tag k="ssr:stedsnr" v="141965" />
	</node>
	<node id="-200428" lat="59.5576916655" lon="10.3942500008">
		<tag k="fixme" v="consider natural=peak for the most distinct mountains in the district" />
		<tag k="name" v="Kjelleråsen" />
		<tag k="natural" v="hill" />
		<tag k="place" v="locality" />
		<tag k="ssr:stedsnr" v="124637" />
	</node>
	<node id="-200426" lat="59.6152305556" lon="10.3593888901">
		<tag k="name" v="Damvann" />
		<tag k="natural" v="water" />
		<tag k="ssr:stedsnr" v="124595" />
	</node>
	<node id="-200425" lat="59.6136805537" lon="10.4087472258">
		<tag k="name" v="Svelvik" />
		<tag k="place" v="town" />
		<tag k="ssr:stedsnr" v="124591" />
	</node>
	<node id="-200424" lat="59.6158027763" lon="10.3962805496">
		<tag k="name" v="Sverstad" />
		<tag k="place" v="farm" />
		<tag k="ssr:stedsnr" v="124589" />
	</node>
	<node id="-200423" lat="59.5468888859" lon="10.3795055535">
		<tag k="alt_name" v="Berger gård" />
		<tag k="name" v="Berger" />
		<tag k="place" v="farm" />
		<tag k="ssr:stedsnr" v="124495" />
	</node>
	<node id="-200422" lat="59.6690253911" lon="10.3149206575">
		<tag k="name" v="Øksnevanna" />
		<tag k="natural" v="water" />
		<tag k="ssr:stedsnr" v="124132" />
	</node>
	<node id="-200421" lat="59.6819361151" lon="10.3527694479">
		<tag k="name" v="Isdammen" />
		<tag k="natural" v="water" />
		<tag k="ssr:stedsnr" v="89410" />
	</node>
	<node id="-200420" lat="59.6024527756" lon="10.3910638966">
		<tag k="name" v="Knem" />
		<tag k="place" v="farm" />
		<tag k="ssr:stedsnr" v="89382" />
	</node>
	<node id="-200419" lat="59.6188750017" lon="10.4010583364">
		<tag k="leisure" v="pitch" />
		<tag k="name" v="Solbakken idr. pl." />
		<tag k="ssr:stedsnr" v="89365" />
	</node>
	<node id="-200418" lat="59.5495138925" lon="10.3663694435">
		<tag k="name" v="Naslebekken" />
		<tag k="ssr:stedsnr" v="89032" />
		<tag k="waterway" v="stream" />
	</node>
	<node id="-200417" lat="59.5842111077" lon="10.4097805493">
		<tag k="name" v="Hælingleia" />
		<tag k="natural" v="shoal" />
		<tag k="place" v="locality" />
		<tag k="ssr:stedsnr" v="85932" />
	</node>
	<node id="-200416" lat="59.598969445" lon="10.4195944371">
		<tag k="name" v="Vesthaken" />
		<tag k="natural" v="shoal" />
		<tag k="place" v="locality" />
		<tag k="ssr:stedsnr" v="85707" />
	</node>
	<node id="-200415" lat="59.6787888858" lon="10.3545444409">
		<tag k="name" v="Sletta" />
		<tag k="place" v="farm" />
		<tag k="ssr:stedsnr" v="85655" />
	</node>
	<node id="-200414" lat="59.5713944473" lon="10.3867750084">
		<tag k="name" v="Ådne" />
		<tag k="place" v="farm" />
		<tag k="ssr:stedsnr" v="64728" />
	</node>
	<node id="-200413" lat="59.6276638855" lon="10.3814194361">
		<tag k="fixme" v="consider natural=peak for the most distinct mountains in the district" />
		<tag k="name" v="Ebbestadkollen" />
		<tag k="natural" v="hill" />
		<tag k="place" v="locality" />
		<tag k="ssr:stedsnr" v="64683" />
	</node>
	<node id="-200412" lat="59.6256111115" lon="10.3364722188">
		<tag k="name" v="Midtre Svanevannet" />
		<tag k="natural" v="water" />
		<tag k="ssr:stedsnr" v="64056" />
		<tag k="water" v="lake" />
	</node>
	<node id="-200411" lat="59.6638361075" lon="10.379652775">
		<tag k="bridge" v="yes" />
		<tag k="layer" v="1" />
		<tag k="name" v="Nordby" />
		<tag k="ssr:stedsnr" v="46616" />
	</node>
	<node id="-200410" lat="59.6812222187" lon="10.3369583364">
		<tag k="name" v="Helgerud" />
		<tag k="place" v="farm" />
		<tag k="ssr:stedsnr" v="28383" />
	</node>
	<node id="-200409" lat="59.6650999959" lon="10.3779555529">
		<tag k="name" v="Haugen" />
		<tag k="natural" v="hill" />
		<tag k="place" v="locality" />
		<tag k="ssr:stedsnr" v="28363" />
	</node>
	<node id="-200408" lat="59.5939944473" lon="10.3427111041">
		<tag k="name" v="Blakkemyra" />
		<tag k="natural" v="wetland" />
		<tag k="ssr:stedsnr" v="28261" />
	</node>
	<node id="-200407" lat="59.6682944452" lon="10.3218250024">
		<tag k="name" v="Røssetjernet" />
		<tag k="natural" v="water" />
		<tag k="ssr:stedsnr" v="28164" />
	</node>
	<node id="-200406" lat="59.6802638927" lon="10.3574416732">
		<tag k="name" v="Sletten" />
		<tag k="place" v="farm" />
		<tag k="ssr:stedsnr" v="28159" />
	</node>
	<node id="-200405" lat="59.6775833324" lon="10.3682527781">
		<tag k="name" v="Jordfallbukta" />
		<tag k="natural" v="bay" />
		<tag k="ssr:stedsnr" v="3843" />
	</node>
	<node id="-200402" lat="59.5823055593" lon="10.3877750077">
		<tag k="name" v="Kinn" />
		<tag k="place" v="farm" />
		<tag k="ssr:stedsnr" v="3697" />
	</node>
	<node id="-200401" lat="59.6367638907" lon="10.3475777858">
		<tag k="alt_name" v="Røde-Kors hytta" />
		<tag k="name" v="Røde kors-hytta" />
		<tag k="place" v="isolated_dwelling" />
		<tag k="ssr:stedsnr" v="3640" />
	</node>
	<node id="-200400" lat="59.6848499971" lon="10.3214250082">
		<tag k="alt_name" v="Bråthen;Dambråten" />
		<tag k="name" v="Dambråtan" />
		<tag k="place" v="farm" />
		<tag k="ssr:stedsnr" v="3210" />
	</node>
	<node id="-200399" lat="59.6879527821" lon="10.3263083388">
		<tag k="name" v="Sagkleiva" />
		<tag k="place" v="farm" />
		<tag k="ssr:stedsnr" v="3208" />
	</node>
	<node id="-200398" lat="59.6625749999" lon="10.3326361193">
		<tag k="name" v="Nordbykollen" />
		<tag k="natural" v="hill" />
		<tag k="place" v="locality" />
		<tag k="ssr:stedsnr" v="3119" />
	</node>
	<node id="-200397" lat="59.6132646118" lon="10.409530658">
		<tag k="man_made" v="quay" />
		<tag k="name" v="Svelvikkaien" />
		<tag k="place" v="locality" />
		<tag k="ssr:stedsnr" v="985895" />
	</node>
	<node id="-200395" lat="59.666666669" lon="10.3916666621">
		<tag k="bay" v="fjord" />
		<tag k="name" v="Drammensfjorden" />
		<tag k="natural" v="bay" />
		<tag k="ssr:stedsnr" v="792266" />
	</node>
	<node id="-200394" lat="59.6031548939" lon="10.3651273176">
		<tag k="fixme" v="consider natural=peak for the most distinct mountains in the district" />
		<tag k="name" v="Langmyråsene" />
		<tag k="natural" v="hill" />
		<tag k="place" v="locality" />
		<tag k="ssr:stedsnr" v="476297" />
	</node>
	<node id="-200393" lat="59.6182611127" lon="10.4037027748">
		<tag k="name" v="Høyerløkka" />
		<tag k="natural" v="slope" />
		<tag k="place" v="locality" />
		<tag k="ssr:stedsnr" v="392374" />
	</node>
	<node id="-200392" lat="59.6172388924" lon="10.3985444489">
		<tag k="name" v="Ødegårdsgrenda" />
		<tag k="place" v="quarter" />
		<tag k="ssr:stedsnr" v="392372" />
	</node>
	<node id="-200391" lat="59.5618888906" lon="10.3841194451">
		<tag k="name" v="Merkedalen" />
		<tag k="natural" v="valley" />
		<tag k="place" v="locality" />
		<tag k="ssr:stedsnr" v="392364" />
	</node>
	<node id="-200390" lat="59.5729444467" lon="10.3869666733">
		<tag k="name" v="Ådne" />
		<tag k="place" v="farm" />
		<tag k="ssr:stedsnr" v="392363" />
	</node>
	<node id="-200389" lat="59.6542416631" lon="10.3843527707">
		<tag k="name" v="Engeland" />
		<tag k="place" v="farm" />
		<tag k="ssr:stedsnr" v="392322" />
	</node>
	<node id="-200388" lat="59.6598166694" lon="10.3833861148">
		<tag k="name" v="Rogneberget" />
		<tag k="natural" v="hill" />
		<tag k="place" v="locality" />
		<tag k="ssr:stedsnr" v="392323" />
	</node>
	<node id="-200387" lat="59.6246277818" lon="10.3661333388">
		<tag k="fixme" v="consider natural=peak for the most distinct mountains in the district" />
		<tag k="name" v="Fjellbekkhaugen" />
		<tag k="natural" v="hill" />
		<tag k="place" v="locality" />
		<tag k="ssr:stedsnr" v="392213" />
	</node>
	<node id="-200386" lat="59.6317583343" lon="10.3646138966">
		<tag k="name" v="Steindalen" />
		<tag k="natural" v="valley" />
		<tag k="place" v="locality" />
		<tag k="ssr:stedsnr" v="392214" />
	</node>
	<node id="-200385" lat="59.6318999959" lon="10.3410027756">
		<tag k="name" v="Nordre Båsvann" />
		<tag k="natural" v="water" />
		<tag k="ssr:stedsnr" v="392205" />
	</node>
	<node id="-200384" lat="59.6062166687" lon="10.37026945">
		<tag k="fixme" v="consider natural=peak for the most distinct mountains in the district" />
		<tag k="name" v="Hellumåsen" />
		<tag k="natural" v="hill" />
		<tag k="place" v="locality" />
		<tag k="ssr:stedsnr" v="392193" />
	</node>
	<node id="-200383" lat="59.6131249987" lon="10.3419277821">
		<tag k="name" v="Petersætra" />
		<tag k="place" v="locality" />
		<tag k="ssr:stedsnr" v="392191" />
	</node>
	<node id="-200382" lat="59.6684083345" lon="10.3099611195">
		<tag k="fixme" v="consider natural=peak for the most distinct mountains in the district" />
		<tag k="name" v="Risåsen" />
		<tag k="natural" v="hill" />
		<tag k="place" v="locality" />
		<tag k="ssr:stedsnr" v="392185" />
	</node>
	<node id="-200381" lat="59.6000444416" lon="10.3751138955">
		<tag k="name" v="Plassen" />
		<tag k="place" v="locality" />
		<tag k="ssr:stedsnr" v="392182" />
	</node>
	<node id="-200380" lat="59.665272221" lon="10.3596222183">
		<tag k="name" v="Grønnsletta" />
		<tag k="place" v="locality" />
		<tag k="ssr:stedsnr" v="392173" />
	</node>
	<node id="-200379" lat="59.5607583301" lon="10.3996611155">
		<tag k="name" v="Kroksbukta" />
		<tag k="natural" v="bay" />
		<tag k="ssr:stedsnr" v="392090" />
	</node>
	<node id="-200378" lat="59.5437833295" lon="10.3699805638">
		<tag k="name" v="Berger" />
		<tag k="place" v="farm" />
		<tag k="ssr:stedsnr" v="392029" />
	</node>
	<node id="-200377" lat="59.6215472237" lon="10.392091664">
		<tag k="name" v="Mariås" />
		<tag k="place" v="quarter" />
		<tag k="ssr:stedsnr" v="384952" />
	</node>
	<node id="-200376" lat="59.5898944483" lon="10.3732611045">
		<tag k="fixme" v="consider natural=peak for the most distinct mountains in the district" />
		<tag k="name" v="Sukkerertkollen" />
		<tag k="natural" v="hill" />
		<tag k="place" v="locality" />
		<tag k="ssr:stedsnr" v="367723" />
	</node>
	<node id="-200375" lat="59.6156777792" lon="10.3862250081">
		<tag k="name" v="Ebbestad" />
		<tag k="place" v="farm" />
		<tag k="ssr:stedsnr" v="367631" />
	</node>
	<node id="-200373" lat="59.5997305511" lon="10.3968361197">
		<tag k="name" v="Knem" />
		<tag k="place" v="farm" />
		<tag k="ssr:stedsnr" v="367594" />
	</node>
	<node id="-200372" lat="59.5441527808" lon="10.3764027785">
		<tag k="bridge" v="yes" />
		<tag k="layer" v="1" />
		<tag k="name" v="Fabrikkfossen" />
		<tag k="ssr:stedsnr" v="349619" />
	</node>
	<node id="-200371" lat="59.6865111122" lon="10.318472219">
		<tag k="name" v="Tørkoppbekken" />
		<tag k="ssr:stedsnr" v="331372" />
		<tag k="waterway" v="stream" />
	</node>
	<node id="-200370" lat="59.6901361072" lon="10.334044443">
		<tag k="name" v="Bråten" />
		<tag k="place" v="farm" />
		<tag k="ssr:stedsnr" v="331369" />
	</node>
	<node id="-200369" lat="59.6892111124" lon="10.347313884">
		<tag k="name" v="Odden" />
		<tag k="natural" v="cape" />
		<tag k="ssr:stedsnr" v="331368" />
	</node>
	<node id="-200368" lat="59.6851000016" lon="10.353758335">
		<tag k="name" v="Bakken" />
		<tag k="place" v="isolated_dwelling" />
		<tag k="ssr:stedsnr" v="331365" />
	</node>
	<node id="-200367" lat="59.6413333352" lon="10.3377666704">
		<tag k="name" v="Salevannet" />
		<tag k="natural" v="water" />
		<tag k="ssr:stedsnr" v="331361" />
	</node>
	<node id="-200366" lat="59.5615999992" lon="10.3973305616">
		<tag k="name" v="Baskomti-havna" />
		<tag k="natural" v="beach" />
		<tag k="place" v="locality" />
		<tag k="ssr:stedsnr" v="331350" />
	</node>
	<node id="-200365" lat="59.5638194463" lon="10.4006888855">
		<tag k="name" v="Krokshaga" />
		<tag k="place" v="farm" />
		<tag k="ssr:stedsnr" v="331347" />
	</node>
	<node id="-200364" lat="59.6331472191" lon="10.3397166684">
		<tag k="fixme" v="consider natural=peak for the most distinct mountains in the district" />
		<tag k="name" v="Svanevannsåsen" />
		<tag k="natural" v="hill" />
		<tag k="place" v="locality" />
		<tag k="ssr:stedsnr" v="331195" />
	</node>
	<node id="-200363" lat="59.5963138889" lon="10.3763277751">
		<tag k="name" v="Kirkestuvollen" />
		<tag k="place" v="locality" />
		<tag k="ssr:stedsnr" v="331162" />
	</node>
	<node id="-200362" lat="59.610136108" lon="10.411097222">
		<tag k="name" v="Svelvikstrømmen" />
		<tag k="natural" v="strait" />
		<tag k="ssr:stedsnr" v="328756" />
	</node>
	<node id="-200361" lat="59.650522224" lon="10.3876138844">
		<tag k="name" v="Landet" />
		<tag k="place" v="isolated_dwelling" />
		<tag k="ssr:stedsnr" v="327747" />
	</node>
	<node id="-200360" lat="59.6809000013" lon="10.3572916688">
		<tag k="name" v="Steinbråten" />
		<tag k="place" v="farm" />
		<tag k="ssr:stedsnr" v="327658" />
	</node>
	<node id="-200333" lat="59.6634749991" lon="10.381861115">
		<tag k="name" v="Sagbukta" />
		<tag k="natural" v="bay" />
		<tag k="ssr:stedsnr" v="307812" />
	</node>
	<node id="-200332" lat="59.5927833328" lon="10.3938250048">
		<tag k="name" v="Knem" />
		<tag k="place" v="farm" />
		<tag k="ssr:stedsnr" v="307639" />
	</node>
	<node id="-200331" lat="59.67393611" lon="10.3467250054">
		<tag k="fixme" v="consider natural=peak for the most distinct mountains in the district" />
		<tag k="name" v="Trondsåsen" />
		<tag k="natural" v="hill" />
		<tag k="place" v="locality" />
		<tag k="ssr:stedsnr" v="306833" />
	</node>
	<node id="-200330" lat="59.5901694414" lon="10.3887749955">
		<tag k="name" v="Myre" />
		<tag k="place" v="farm" />
		<tag k="ssr:stedsnr" v="306711" />
	</node>
	<node id="-200329" lat="59.683399998" lon="10.3408500017">
		<tag k="name" v="Helgerud" />
		<tag k="place" v="farm" />
		<tag k="ssr:stedsnr" v="306219" />
	</node>
	<node id="-200328" lat="59.5949222179" lon="10.3380750038">
		<tag k="name" v="Lysverkhytta" />
		<tag k="place" v="isolated_dwelling" />
		<tag k="ssr:stedsnr" v="306034" />
	</node>
	<node id="-200327" lat="59.6289499961" lon="10.3712750004">
		<tag k="name" v="Vadsåsen" />
		<tag k="natural" v="slope" />
		<tag k="place" v="locality" />
		<tag k="ssr:stedsnr" v="28210" />
	</node>
	<node id="-200326" lat="59.6858916694" lon="10.3345444365">
		<tag k="name" v="Bjerkely" />
		<tag k="place" v="farm" />
		<tag k="ssr:stedsnr" v="271422" />
	</node>
	<node id="-200325" lat="59.5586027782" lon="10.3851361127">
		<tag k="name" v="Sand" />
		<tag k="natural" v="slope" />
		<tag k="place" v="locality" />
		<tag k="ssr:stedsnr" v="271398" />
	</node>
	<node id="-200324" lat="59.5426611095" lon="10.3885694508">
		<tag k="fixme" v="consider natural=peak for the most distinct mountains in the district" />
		<tag k="name" v="Bryggeåsen" />
		<tag k="natural" v="hill" />
		<tag k="place" v="locality" />
		<tag k="ssr:stedsnr" v="271389" />
	</node>
	<node id="-200323" lat="59.5695972211" lon="10.3556388846">
		<tag k="name" v="Peisestua" />
		<tag k="place" v="locality" />
		<tag k="ssr:stedsnr" v="271254" />
	</node>
	<node id="-200322" lat="59.5616555597" lon="10.3510944375">
		<tag k="name" v="Stemmen" />
		<tag k="natural" v="slope" />
		<tag k="place" v="locality" />
		<tag k="ssr:stedsnr" v="271255" />
	</node>
	<node id="-200321" lat="59.6263111071" lon="10.3571416716">
		<tag k="name" v="Øvre Kloppmyr" />
		<tag k="natural" v="wetland" />
		<tag k="ssr:stedsnr" v="271218" />
	</node>
</osm>
