<?xml version="1.0" encoding="UTF-8"?>
<osm generator="osmapis" version="0.6">
	<node id="-200446" lat="59.6454999977" lon="10.3362166697">
		<tag k="name" v="Salavassbekken" />
		<tag k="ssr:stedsnr" v="186151" />
		<tag k="waterway" v="stream" />
	</node>
	<node id="-200571" lat="59.6274777803" lon="10.3457916641">
		<tag k="name" v="Søndre Båsvann" />
		<tag k="natural" v="water" />
		<tag k="ssr:stedsnr" v="695195" />
	</node>
	<node id="-200468" lat="59.6049694461" lon="10.3746027824">
		<tag k="name" v="Jordbærtjernet" />
		<tag k="natural" v="water" />
		<tag k="ssr:stedsnr" v="246606" />
	</node>
	<node id="-200437" lat="59.6428888865" lon="10.3430027767">
		<tag k="name" v="Bollsteinvannet" />
		<tag k="natural" v="water" />
		<tag k="ssr:stedsnr" v="149355" />
	</node>
	<node id="-200426" lat="59.6152305556" lon="10.3593888901">
		<tag k="name" v="Damvann" />
		<tag k="natural" v="water" />
		<tag k="ssr:stedsnr" v="124595" />
	</node>
	<node id="-200422" lat="59.6690253911" lon="10.3149206575">
		<tag k="name" v="Øksnevanna" />
		<tag k="natural" v="water" />
		<tag k="ssr:stedsnr" v="124132" />
	</node>
	<node id="-200421" lat="59.6819361151" lon="10.3527694479">
		<tag k="name" v="Isdammen" />
		<tag k="natural" v="water" />
		<tag k="ssr:stedsnr" v="89410" />
	</node>
	<node id="-200546" lat="59.6236666664" lon="10.3401555568">
		<tag k="name" v="Kulpen" />
		<tag k="natural" v="water" />
		<tag k="ssr:stedsnr" v="634175" />
	</node>
	<node id="-200545" lat="59.6630444456" lon="10.3203583361">
		<tag k="name" v="Blekktjern" />
		<tag k="natural" v="water" />
		<tag k="ssr:stedsnr" v="634143" />
	</node>
	<node id="-200544" lat="59.5464222209" lon="10.3675277827">
		<tag k="name" v="Bergerdammen" />
		<tag k="natural" v="water" />
		<tag k="ssr:stedsnr" v="634024" />
	</node>
	<node id="-200540" lat="59.6343361155" lon="10.3704305489">
		<tag k="name" v="Ebbestadvannet" />
		<tag k="natural" v="water" />
		<tag k="ssr:stedsnr" v="610705" />
		<tag k="water" v="lake" />
	</node>
	<node id="-200407" lat="59.6682944452" lon="10.3218250024">
		<tag k="name" v="Røssetjernet" />
		<tag k="natural" v="water" />
		<tag k="ssr:stedsnr" v="28164" />
	</node>
	<node id="-200661" lat="59.6136416707" lon="10.3855888963">
		<tag k="name" v="Eik-dammen" />
		<tag k="natural" v="water" />
		<tag k="ssr:stedsnr" v="938357" />
	</node>
	<node id="-200658" lat="59.5836083337" lon="10.3839111124">
		<tag k="name" v="Aukebekken" />
		<tag k="ssr:stedsnr" v="938341" />
		<tag k="waterway" v="stream" />
	</node>
	<node id="-200527" lat="59.5736388887" lon="10.3502444432">
		<tag k="name" v="Svartekulp" />
		<tag k="natural" v="water" />
		<tag k="ssr:stedsnr" v="574268" />
	</node>
	<node id="-200418" lat="59.5495138925" lon="10.3663694435">
		<tag k="name" v="Naslebekken" />
		<tag k="ssr:stedsnr" v="89032" />
		<tag k="waterway" v="stream" />
	</node>
	<node id="-200649" lat="59.6468416656" lon="10.3440249963">
		<tag k="name" v="Gampevann" />
		<tag k="natural" v="water" />
		<tag k="ssr:stedsnr" v="914822" />
	</node>
	<node id="-200514" lat="59.6284138913" lon="10.3445833287">
		<tag k="name" v="Båsvanna" />
		<tag k="natural" v="water" />
		<tag k="ssr:stedsnr" v="549662" />
	</node>
	<node id="-200385" lat="59.6318999959" lon="10.3410027756">
		<tag k="name" v="Nordre Båsvann" />
		<tag k="natural" v="water" />
		<tag k="ssr:stedsnr" v="392205" />
	</node>
	<node id="-200633" lat="59.6676916665" lon="10.3158416744">
		<tag k="name" v="Søndre Øksnevann" />
		<tag k="natural" v="water" />
		<tag k="ssr:stedsnr" v="878168" />
	</node>
	<node id="-200631" lat="59.5449444411" lon="10.3698944429">
		<tag k="name" v="Solbergdammen" />
		<tag k="natural" v="water" />
		<tag k="ssr:stedsnr" v="877028" />
	</node>
	<node id="-200371" lat="59.6865111122" lon="10.318472219">
		<tag k="name" v="Tørkoppbekken" />
		<tag k="ssr:stedsnr" v="331372" />
		<tag k="waterway" v="stream" />
	</node>
	<node id="-200496" lat="59.6187861149" lon="10.3418750081">
		<tag k="name" v="Søndre Svanevannet" />
		<tag k="natural" v="water" />
		<tag k="ssr:stedsnr" v="489131" />
	</node>
	<node id="-200495" lat="59.577083331" lon="10.3632138969">
		<tag k="name" v="Ådnekulpen" />
		<tag k="place" v="locality" />
		<tag k="ssr:stedsnr" v="488727" />
	</node>
	<node id="-200620" lat="59.687983333" lon="10.3215166618">
		<tag k="name" v="Sankedammen" />
		<tag k="natural" v="water" />
		<tag k="ssr:stedsnr" v="817386" />
	</node>
	<node id="-200412" lat="59.6256111115" lon="10.3364722188">
		<tag k="name" v="Midtre Svanevannet" />
		<tag k="natural" v="water" />
		<tag k="ssr:stedsnr" v="64056" />
		<tag k="water" v="lake" />
	</node>
	<node id="-200481" lat="59.6514166677" lon="10.3479694486">
		<tag k="name" v="Knektedammen" />
		<tag k="natural" v="water" />
		<tag k="ssr:stedsnr" v="429830" />
	</node>
	<node id="-200624" lat="59.6566027805" lon="10.3207249941">
		<tag k="name" v="Nordbykupa" />
		<tag k="natural" v="water" />
		<tag k="ssr:stedsnr" v="853108" />
	</node>
	<node id="-200477" lat="59.55141111" lon="10.3584999922">
		<tag k="name" v="Seterdammen" />
		<tag k="natural" v="water" />
		<tag k="ssr:stedsnr" v="428670" />
	</node>
	<node id="-200475" lat="59.6120999987" lon="10.3702166624">
		<tag k="name" v="Hellumvannet" />
		<tag k="natural" v="water" />
		<tag k="ssr:stedsnr" v="428604" />
	</node>
	<node id="-200367" lat="59.6413333352" lon="10.3377666704">
		<tag k="name" v="Salevannet" />
		<tag k="natural" v="water" />
		<tag k="ssr:stedsnr" v="331361" />
	</node>
	<node id="-200472" lat="59.6594750033" lon="10.3610361053">
		<tag k="name" v="Nordbyelva" />
		<tag k="ssr:stedsnr" v="247803" />
		<tag k="waterway" v="stream" />
	</node>
	<node id="-200471" lat="59.6680999981" lon="10.3455861148">
		<tag k="name" v="Vassåsvannet" />
		<tag k="natural" v="water" />
		<tag k="ssr:stedsnr" v="246845" />
	</node>
	<node id="-200596" lat="59.6106722188" lon="10.3336611081">
		<tag k="name" v="Purketjern" />
		<tag k="natural" v="water" />
		<tag k="ssr:stedsnr" v="756152" />
	</node>
	<node id="-200595" lat="59.6670000009" lon="10.3070416661">
		<tag k="name" v="Tangøya" />
		<tag k="natural" v="cape" />
		<tag k="ssr:stedsnr" v="756137" />
	</node>
	<node id="-200443" lat="59.6498750024" lon="10.338963895">
		<tag k="name" v="Nessetervanna" />
		<tag k="natural" v="water" />
		<tag k="ssr:stedsnr" v="185151" />
	</node>
	<node id="-200587" lat="59.6375446605" lon="10.3598909303">
		<tag k="name" v="Løpakupane" />
		<tag k="natural" v="water" />
		<tag k="ssr:stedsnr" v="731824" />
	</node>
	<node id="-200584" lat="59.6315916645" lon="10.350602769">
		<tag k="name" v="Nordre Hellumsetervann" />
		<tag k="natural" v="water" />
		<tag k="ssr:stedsnr" v="731645" />
	</node>
	<node id="-200453" lat="59.6294444479" lon="10.3669388846">
		<tag k="name" v="Fjellbekkrenna" />
		<tag k="ssr:stedsnr" v="210215" />
		<tag k="waterway" v="stream" />
	</node>
	<node id="-200451" lat="59.6228416712" lon="10.3630888882">
		<tag k="name" v="Fjellbekk" />
		<tag k="ssr:stedsnr" v="210208" />
		<tag k="waterway" v="stream" />
	</node>
</osm>
