<?xml version="1.0" encoding="UTF-8"?>
<osm generator="osmapis" version="0.6">
	<node id="-200659" lat="59.6174805588" lon="10.38004723">
		<tag k="name" v="Eiklund" />
		<tag k="place" v="isolated_dwelling" />
		<tag k="ssr:stedsnr" v="938346" />
	</node>
	<node id="-200657" lat="59.6576666638" lon="10.3800333295">
		<tag k="name" v="Nes nedre" />
		<tag k="place" v="farm" />
		<tag k="ssr:stedsnr" v="938294" />
	</node>
	<node id="-200647" lat="59.5689444474" lon="10.3921833338">
		<tag k="name" v="Høyen nordre" />
		<tag k="place" v="farm" />
		<tag k="ssr:stedsnr" v="913700" />
	</node>
	<node id="-200644" lat="59.5533583363" lon="10.3911499973">
		<tag k="name" v="Sand" />
		<tag k="place" v="farm" />
		<tag k="ssr:stedsnr" v="913522" />
	</node>
	<node id="-200643" lat="59.6631638874" lon="10.3785166602">
		<tag k="name" v="Sagbukta" />
		<tag k="place" v="quarter" />
		<tag k="ssr:stedsnr" v="908899" />
	</node>
	<node id="-200642" lat="59.5978555598" lon="10.4024833372">
		<tag k="name" v="Skjønheim" />
		<tag k="place" v="locality" />
		<tag k="ssr:stedsnr" v="878411" />
	</node>
	<node id="-200640" lat="59.554305551" lon="10.3919333405">
		<tag k="name" v="Sand" />
		<tag k="place" v="farm" />
		<tag k="ssr:stedsnr" v="878404" />
	</node>
	<node id="-200637" lat="59.5633722217" lon="10.4016638851">
		<tag k="name" v="Krok" />
		<tag k="place" v="farm" />
		<tag k="ssr:stedsnr" v="878388" />
	</node>
	<node id="-200636" lat="59.5483805557" lon="10.3822416753">
		<tag k="amenity" v="school" />
		<tag k="name" v="Berger skole" />
		<tag k="ssr:stedsnr" v="878379" />
	</node>
	<node id="-200635" lat="59.6564833319" lon="10.387219436">
		<tag k="name" v="Saltbuvollen" />
		<tag k="place" v="isolated_dwelling" />
		<tag k="ssr:stedsnr" v="878328" />
	</node>
	<node id="-200628" lat="59.6574888882" lon="10.3759388842">
		<tag k="fixme" v="consider place=hamlet" />
		<tag k="name" v="Nesbygda" />
		<tag k="place" v="village" />
		<tag k="ssr:stedsnr" v="874828" />
	</node>
	<node id="-200625" lat="59.6659888876" lon="10.3707638834">
		<tag k="name" v="Nordby" />
		<tag k="place" v="farm" />
		<tag k="ssr:stedsnr" v="853867" />
	</node>
	<node id="-200621" lat="59.5649055515" lon="10.3935916721">
		<tag k="name" v="Høyen" />
		<tag k="place" v="hamlet" />
		<tag k="ssr:stedsnr" v="831045" />
	</node>
	<node id="-200618" lat="59.6042305582" lon="10.4017388842">
		<tag k="name" v="Knem" />
		<tag k="place" v="farm" />
		<tag k="ssr:stedsnr" v="817367" />
	</node>
	<node id="-200612" lat="59.6803499998" lon="10.3416638937">
		<tag k="name" v="Helgerud" />
		<tag k="place" v="farm" />
		<tag k="ssr:stedsnr" v="817167" />
	</node>
	<node id="-200611" lat="59.6805027746" lon="10.3538138951">
		<tag k="name" v="Solstad" />
		<tag k="place" v="farm" />
		<tag k="ssr:stedsnr" v="817166" />
	</node>
	<node id="-200609" lat="59.543341667" lon="10.3723805478">
		<tag k="name" v="Dyrdal" />
		<tag k="place" v="farm" />
		<tag k="ssr:stedsnr" v="817041" />
	</node>
	<node id="-200608" lat="59.5472472257" lon="10.3776499979">
		<tag k="fixme" v="consider place=hamlet" />
		<tag k="name" v="Berger" />
		<tag k="place" v="village" />
		<tag k="ssr:stedsnr" v="813727" />
	</node>
	<node id="-200606" lat="59.5655472243" lon="10.3770888879">
		<tag k="name" v="Høyensetra" />
		<tag k="place" v="farm" />
		<tag k="ssr:stedsnr" v="792698" />
	</node>
	<node id="-200605" lat="59.6219944479" lon="10.3773361047">
		<tag k="alt_name" v="Eikemo" />
		<tag k="name" v="Eikmo" />
		<tag k="place" v="farm" />
		<tag k="ssr:stedsnr" v="792641" />
	</node>
	<node id="-200604" lat="59.5577527784" lon="10.3938472174">
		<tag k="name" v="Kjelleråsen" />
		<tag k="place" v="neighbourhood" />
		<tag k="ssr:stedsnr" v="786874" />
	</node>
	<node id="-200602" lat="59.6575527795" lon="10.3767083285">
		<tag k="name" v="Ø. Nes" />
		<tag k="place" v="farm" />
		<tag k="ssr:stedsnr" v="756362" />
	</node>
	<node id="-200601" lat="59.5994444434" lon="10.3911666599">
		<tag k="name" v="Glena" />
		<tag k="place" v="isolated_dwelling" />
		<tag k="ssr:stedsnr" v="756353" />
	</node>
	<node id="-200599" lat="59.6046027779" lon="10.4095194358">
		<tag k="name" v="Grunden" />
		<tag k="place" v="quarter" />
		<tag k="ssr:stedsnr" v="756350" />
	</node>
	<node id="-200598" lat="59.6049333362" lon="10.4039111127">
		<tag k="name" v="Elvernøy" />
		<tag k="place" v="farm" />
		<tag k="ssr:stedsnr" v="756348" />
	</node>
	<node id="-200590" lat="59.6530027778" lon="10.3854583282">
		<tag k="name" v="Sønsteby" />
		<tag k="place" v="farm" />
		<tag k="ssr:stedsnr" v="732824" />
	</node>
	<node id="-200586" lat="59.5759500015" lon="10.3864694472">
		<tag k="name" v="Solberg" />
		<tag k="place" v="farm" />
		<tag k="ssr:stedsnr" v="731719" />
	</node>
	<node id="-200579" lat="59.6876861126" lon="10.3286055615">
		<tag k="name" v="Skogly" />
		<tag k="place" v="farm" />
		<tag k="ssr:stedsnr" v="695389" />
	</node>
	<node id="-200567" lat="59.6708749957" lon="10.370452776">
		<tag k="name" v="Havnevik" />
		<tag k="place" v="farm" />
		<tag k="ssr:stedsnr" v="671865" />
	</node>
	<node id="-200566" lat="59.6449750005" lon="10.3893499989">
		<tag k="name" v="Leirvik" />
		<tag k="place" v="farm" />
		<tag k="ssr:stedsnr" v="671839" />
	</node>
	<node id="-200564" lat="59.6067638929" lon="10.3924166733">
		<tag k="name" v="Hellum" />
		<tag k="place" v="farm" />
		<tag k="ssr:stedsnr" v="671643" />
	</node>
	<node id="-200562" lat="59.6127249996" lon="10.3876277812">
		<tag k="name" v="Eik" />
		<tag k="place" v="farm" />
		<tag k="ssr:stedsnr" v="670635" />
	</node>
	<node id="-200560" lat="59.5511861073" lon="10.3731888897">
		<tag k="name" v="Brekke" />
		<tag k="place" v="farm" />
		<tag k="ssr:stedsnr" v="670514" />
	</node>
	<node id="-200555" lat="59.6150388923" lon="10.3968222303">
		<tag k="name" v="Sverstad" />
		<tag k="place" v="quarter" />
		<tag k="ssr:stedsnr" v="648942" />
	</node>
	<node id="-200554" lat="59.6862388859" lon="10.3409750013">
		<tag k="name" v="Labråten" />
		<tag k="place" v="farm" />
		<tag k="ssr:stedsnr" v="634395" />
	</node>
	<node id="-200553" lat="59.6881055539" lon="10.3456277707">
		<tag k="name" v="Nordli" />
		<tag k="place" v="isolated_dwelling" />
		<tag k="ssr:stedsnr" v="634390" />
	</node>
	<node id="-200551" lat="59.5955000018" lon="10.3973888889">
		<tag k="name" v="Knem" />
		<tag k="place" v="farm" />
		<tag k="ssr:stedsnr" v="634379" />
	</node>
	<node id="-200542" lat="59.6866555562" lon="10.3494611058">
		<tag k="name" v="Grønlia" />
		<tag k="place" v="quarter" />
		<tag k="ssr:stedsnr" v="626987" />
	</node>
	<node id="-200541" lat="59.67210556" lon="10.3761305624">
		<tag k="alt_name" v="Kuflekken" />
		<tag k="name" v="Koflekken" />
		<tag k="place" v="isolated_dwelling" />
		<tag k="ssr:stedsnr" v="610882" />
	</node>
	<node id="-200538" lat="59.6036583306" lon="10.3325166592">
		<tag k="name" v="Sandohytta" />
		<tag k="place" v="isolated_dwelling" />
		<tag k="ssr:stedsnr" v="610119" />
	</node>
	<node id="-200535" lat="59.5988138884" lon="10.4050000058">
		<tag k="name" v="Homansberget" />
		<tag k="place" v="neighbourhood" />
		<tag k="ssr:stedsnr" v="609587" />
	</node>
	<node id="-200531" lat="59.590813887" lon="10.3927638826">
		<tag k="name" v="Knem" />
		<tag k="place" v="farm" />
		<tag k="ssr:stedsnr" v="574373" />
	</node>
	<node id="-200530" lat="59.5649055515" lon="10.3935916721">
		<tag k="name" v="Høyen mellom" />
		<tag k="place" v="farm" />
		<tag k="ssr:stedsnr" v="574370" />
	</node>
	<node id="-200524" lat="59.6690249992" lon="10.3664666684">
		<tag k="name" v="Havnevik" />
		<tag k="place" v="farm" />
		<tag k="ssr:stedsnr" v="574169" />
	</node>
	<node id="-200517" lat="59.615680552" lon="10.3862277811">
		<tag k="name" v="Ebbestad nordre" />
		<tag k="place" v="farm" />
		<tag k="ssr:stedsnr" v="570505" />
	</node>
	<node id="-200516" lat="59.6715527759" lon="10.3514611125">
		<tag k="name" v="Vestby" />
		<tag k="place" v="farm" />
		<tag k="ssr:stedsnr" v="549851" />
	</node>
	<node id="-200511" lat="59.5974805534" lon="10.4020083364">
		<tag k="name" v="Skjønheim" />
		<tag k="place" v="quarter" />
		<tag k="ssr:stedsnr" v="527923" />
	</node>
	<node id="-200510" lat="59.6874666706" lon="10.3353333275">
		<tag k="name" v="Nøsterudbråten" />
		<tag k="place" v="farm" />
		<tag k="ssr:stedsnr" v="513405" />
	</node>
	<node id="-200509" lat="59.6866555569" lon="10.3494444441">
		<tag k="name" v="Grønli" />
		<tag k="place" v="quarter" />
		<tag k="ssr:stedsnr" v="513401" />
	</node>
	<node id="-200507" lat="59.607127778" lon="10.3983805471">
		<tag k="name" v="Tømmerås" />
		<tag k="place" v="farm" />
		<tag k="ssr:stedsnr" v="513389" />
	</node>
	<node id="-200502" lat="59.6757916664" lon="10.3670111107">
		<tag k="name" v="Havnevik store" />
		<tag k="place" v="farm" />
		<tag k="ssr:stedsnr" v="513158" />
	</node>
	<node id="-200501" lat="59.6795694488" lon="10.3611388883">
		<tag k="name" v="Skjønvik" />
		<tag k="place" v="farm" />
		<tag k="ssr:stedsnr" v="513151" />
	</node>
	<node id="-200499" lat="59.6601138875" lon="10.3761583319">
		<tag k="name" v="Øst Næss" />
		<tag k="place" v="farm" />
		<tag k="ssr:stedsnr" v="513133" />
	</node>
	<node id="-200498" lat="59.5385638883" lon="10.3825833379">
		<tag k="fixme" v="consider place=suburb, village or hamlet" />
		<tag k="name" v="Blindsand" />
		<tag k="place" v="quarter" />
		<tag k="ssr:stedsnr" v="505965" />
	</node>
	<node id="-200497" lat="59.6545444489" lon="10.3859694512">
		<tag k="fixme" v="consider place=suburb, village or hamlet" />
		<tag k="name" v="Hella" />
		<tag k="place" v="quarter" />
		<tag k="ssr:stedsnr" v="505960" />
	</node>
	<node id="-200490" lat="59.6908027802" lon="10.328586116">
		<tag k="name" v="Tørkopp" />
		<tag k="place" v="isolated_dwelling" />
		<tag k="ssr:stedsnr" v="488185" />
	</node>
	<node id="-200489" lat="59.6905249997" lon="10.3379750062">
		<tag k="name" v="Støa" />
		<tag k="place" v="farm" />
		<tag k="ssr:stedsnr" v="488184" />
	</node>
	<node id="-200488" lat="59.543627781" lon="10.3885388861">
		<tag k="name" v="Bryggeåsen" />
		<tag k="place" v="quarter" />
		<tag k="ssr:stedsnr" v="483894" />
	</node>
	<node id="-200486" lat="59.5572444457" lon="10.3860666753">
		<tag k="name" v="Lærum" />
		<tag k="place" v="farm" />
		<tag k="ssr:stedsnr" v="453349" />
	</node>
	<node id="-200482" lat="59.6560416672" lon="10.3837611026">
		<tag k="name" v="Håkenstad" />
		<tag k="place" v="farm" />
		<tag k="ssr:stedsnr" v="449773" />
	</node>
	<node id="-200480" lat="59.6864055526" lon="10.3525027736">
		<tag k="alt_name" v="Syvertsvollen" />
		<tag k="name" v="Syversvollen" />
		<tag k="place" v="isolated_dwelling" />
		<tag k="ssr:stedsnr" v="428755" />
	</node>
	<node id="-200479" lat="59.5843499959" lon="10.3847249996">
		<tag k="name" v="Auke" />
		<tag k="place" v="farm" />
		<tag k="ssr:stedsnr" v="428721" />
	</node>
	<node id="-200476" lat="59.6318305584" lon="10.39540834">
		<tag k="name" v="Juve" />
		<tag k="place" v="farm" />
		<tag k="ssr:stedsnr" v="428658" />
	</node>
	<node id="-200473" lat="59.6587861103" lon="10.3718361145">
		<tag k="alt_name" v="Furru" />
		<tag k="name" v="Furu" />
		<tag k="place" v="farm" />
		<tag k="ssr:stedsnr" v="247859" />
	</node>
	<node id="-200469" lat="59.5618555572" lon="10.3931472176">
		<tag k="name" v="Høyen søndre" />
		<tag k="place" v="farm" />
		<tag k="ssr:stedsnr" v="246665" />
	</node>
	<node id="-200467" lat="59.6847916658" lon="10.338597227">
		<tag k="name" v="Nøsterud" />
		<tag k="place" v="farm" />
		<tag k="ssr:stedsnr" v="246234" />
	</node>
	<node id="-200465" lat="59.6857388924" lon="10.3417333365">
		<tag k="name" v="Labråten" />
		<tag k="place" v="quarter" />
		<tag k="ssr:stedsnr" v="240880" />
	</node>
	<node id="-200464" lat="59.5448638912" lon="10.3718055547">
		<tag k="name" v="Torbjørnhaugen" />
		<tag k="place" v="quarter" />
		<tag k="ssr:stedsnr" v="240873" />
	</node>
	<node id="-200460" lat="59.6839194442" lon="10.3579472244">
		<tag k="name" v="Tangenhavna" />
		<tag k="place" v="quarter" />
		<tag k="ssr:stedsnr" v="210398" />
	</node>
	<node id="-200459" lat="59.682419443" lon="10.3346750082">
		<tag k="name" v="Nøsterud" />
		<tag k="place" v="farm" />
		<tag k="ssr:stedsnr" v="210386" />
	</node>
	<node id="-200445" lat="59.6828694474" lon="10.3496250047">
		<tag k="name" v="Stomperud" />
		<tag k="place" v="farm" />
		<tag k="ssr:stedsnr" v="185749" />
	</node>
	<node id="-200444" lat="59.6293749966" lon="10.4061722276">
		<tag k="name" v="Rørvik" />
		<tag k="place" v="isolated_dwelling" />
		<tag k="ssr:stedsnr" v="185639" />
	</node>
	<node id="-200442" lat="59.550519445" lon="10.3892472166">
		<tag k="name" v="Bergeråsen" />
		<tag k="place" v="quarter" />
		<tag k="ssr:stedsnr" v="180861" />
	</node>
	<node id="-200441" lat="59.623586112" lon="10.4029194485">
		<tag k="name" v="Juveåsen" />
		<tag k="place" v="quarter" />
		<tag k="ssr:stedsnr" v="163926" />
	</node>
	<node id="-200439" lat="59.6540305545" lon="10.3757583361">
		<tag k="alt_name" v="Girud" />
		<tag k="name" v="Gjerrud" />
		<tag k="place" v="farm" />
		<tag k="ssr:stedsnr" v="149362" />
	</node>
	<node id="-200436" lat="59.602152776" lon="10.4040749983">
		<tag k="name" v="Knem" />
		<tag k="place" v="farm" />
		<tag k="ssr:stedsnr" v="149354" />
	</node>
	<node id="-200434" lat="59.5853222237" lon="10.3902305556">
		<tag k="name" v="Myre" />
		<tag k="place" v="farm" />
		<tag k="ssr:stedsnr" v="149334" />
	</node>
	<node id="-200430" lat="59.6815166687" lon="10.3593055586">
		<tag k="name" v="Tangen" />
		<tag k="place" v="hamlet" />
		<tag k="ssr:stedsnr" v="141964" />
	</node>
	<node id="-200429" lat="59.6573805533" lon="10.3769305517">
		<tag k="name" v="Nes" />
		<tag k="place" v="farm" />
		<tag k="ssr:stedsnr" v="141965" />
	</node>
	<node id="-200425" lat="59.6136805537" lon="10.4087472258">
		<tag k="name" v="Svelvik" />
		<tag k="place" v="town" />
		<tag k="ssr:stedsnr" v="124591" />
	</node>
	<node id="-200424" lat="59.6158027763" lon="10.3962805496">
		<tag k="name" v="Sverstad" />
		<tag k="place" v="farm" />
		<tag k="ssr:stedsnr" v="124589" />
	</node>
	<node id="-200423" lat="59.5468888859" lon="10.3795055535">
		<tag k="alt_name" v="Berger gård" />
		<tag k="name" v="Berger" />
		<tag k="place" v="farm" />
		<tag k="ssr:stedsnr" v="124495" />
	</node>
	<node id="-200420" lat="59.6024527756" lon="10.3910638966">
		<tag k="name" v="Knem" />
		<tag k="place" v="farm" />
		<tag k="ssr:stedsnr" v="89382" />
	</node>
	<node id="-200419" lat="59.6188750017" lon="10.4010583364">
		<tag k="leisure" v="pitch" />
		<tag k="name" v="Solbakken idr. pl." />
		<tag k="ssr:stedsnr" v="89365" />
	</node>
	<node id="-200415" lat="59.6787888858" lon="10.3545444409">
		<tag k="name" v="Sletta" />
		<tag k="place" v="farm" />
		<tag k="ssr:stedsnr" v="85655" />
	</node>
	<node id="-200414" lat="59.5713944473" lon="10.3867750084">
		<tag k="name" v="Ådne" />
		<tag k="place" v="farm" />
		<tag k="ssr:stedsnr" v="64728" />
	</node>
	<node id="-200410" lat="59.6812222187" lon="10.3369583364">
		<tag k="name" v="Helgerud" />
		<tag k="place" v="farm" />
		<tag k="ssr:stedsnr" v="28383" />
	</node>
	<node id="-200406" lat="59.6802638927" lon="10.3574416732">
		<tag k="name" v="Sletten" />
		<tag k="place" v="farm" />
		<tag k="ssr:stedsnr" v="28159" />
	</node>
	<node id="-200402" lat="59.5823055593" lon="10.3877750077">
		<tag k="name" v="Kinn" />
		<tag k="place" v="farm" />
		<tag k="ssr:stedsnr" v="3697" />
	</node>
	<node id="-200401" lat="59.6367638907" lon="10.3475777858">
		<tag k="alt_name" v="Røde-Kors hytta" />
		<tag k="name" v="Røde kors-hytta" />
		<tag k="place" v="isolated_dwelling" />
		<tag k="ssr:stedsnr" v="3640" />
	</node>
	<node id="-200400" lat="59.6848499971" lon="10.3214250082">
		<tag k="alt_name" v="Bråthen;Dambråten" />
		<tag k="name" v="Dambråtan" />
		<tag k="place" v="farm" />
		<tag k="ssr:stedsnr" v="3210" />
	</node>
	<node id="-200399" lat="59.6879527821" lon="10.3263083388">
		<tag k="name" v="Sagkleiva" />
		<tag k="place" v="farm" />
		<tag k="ssr:stedsnr" v="3208" />
	</node>
	<node id="-200392" lat="59.6172388924" lon="10.3985444489">
		<tag k="name" v="Ødegårdsgrenda" />
		<tag k="place" v="quarter" />
		<tag k="ssr:stedsnr" v="392372" />
	</node>
	<node id="-200390" lat="59.5729444467" lon="10.3869666733">
		<tag k="name" v="Ådne" />
		<tag k="place" v="farm" />
		<tag k="ssr:stedsnr" v="392363" />
	</node>
	<node id="-200389" lat="59.6542416631" lon="10.3843527707">
		<tag k="name" v="Engeland" />
		<tag k="place" v="farm" />
		<tag k="ssr:stedsnr" v="392322" />
	</node>
	<node id="-200378" lat="59.5437833295" lon="10.3699805638">
		<tag k="name" v="Berger" />
		<tag k="place" v="farm" />
		<tag k="ssr:stedsnr" v="392029" />
	</node>
	<node id="-200377" lat="59.6215472237" lon="10.392091664">
		<tag k="name" v="Mariås" />
		<tag k="place" v="quarter" />
		<tag k="ssr:stedsnr" v="384952" />
	</node>
	<node id="-200375" lat="59.6156777792" lon="10.3862250081">
		<tag k="name" v="Ebbestad" />
		<tag k="place" v="farm" />
		<tag k="ssr:stedsnr" v="367631" />
	</node>
	<node id="-200373" lat="59.5997305511" lon="10.3968361197">
		<tag k="name" v="Knem" />
		<tag k="place" v="farm" />
		<tag k="ssr:stedsnr" v="367594" />
	</node>
	<node id="-200370" lat="59.6901361072" lon="10.334044443">
		<tag k="name" v="Bråten" />
		<tag k="place" v="farm" />
		<tag k="ssr:stedsnr" v="331369" />
	</node>
	<node id="-200368" lat="59.6851000016" lon="10.353758335">
		<tag k="name" v="Bakken" />
		<tag k="place" v="isolated_dwelling" />
		<tag k="ssr:stedsnr" v="331365" />
	</node>
	<node id="-200365" lat="59.5638194463" lon="10.4006888855">
		<tag k="name" v="Krokshaga" />
		<tag k="place" v="farm" />
		<tag k="ssr:stedsnr" v="331347" />
	</node>
	<node id="-200363" lat="59.5963138889" lon="10.3763277751">
		<tag k="name" v="Kirkestuvollen" />
		<tag k="place" v="locality" />
		<tag k="ssr:stedsnr" v="331162" />
	</node>
	<node id="-200361" lat="59.650522224" lon="10.3876138844">
		<tag k="name" v="Landet" />
		<tag k="place" v="isolated_dwelling" />
		<tag k="ssr:stedsnr" v="327747" />
	</node>
	<node id="-200360" lat="59.6809000013" lon="10.3572916688">
		<tag k="name" v="Steinbråten" />
		<tag k="place" v="farm" />
		<tag k="ssr:stedsnr" v="327658" />
	</node>
	<node id="-200332" lat="59.5927833328" lon="10.3938250048">
		<tag k="name" v="Knem" />
		<tag k="place" v="farm" />
		<tag k="ssr:stedsnr" v="307639" />
	</node>
	<node id="-200330" lat="59.5901694414" lon="10.3887749955">
		<tag k="name" v="Myre" />
		<tag k="place" v="farm" />
		<tag k="ssr:stedsnr" v="306711" />
	</node>
	<node id="-200329" lat="59.683399998" lon="10.3408500017">
		<tag k="name" v="Helgerud" />
		<tag k="place" v="farm" />
		<tag k="ssr:stedsnr" v="306219" />
	</node>
	<node id="-200328" lat="59.5949222179" lon="10.3380750038">
		<tag k="name" v="Lysverkhytta" />
		<tag k="place" v="isolated_dwelling" />
		<tag k="ssr:stedsnr" v="306034" />
	</node>
	<node id="-200326" lat="59.6858916694" lon="10.3345444365">
		<tag k="name" v="Bjerkely" />
		<tag k="place" v="farm" />
		<tag k="ssr:stedsnr" v="271422" />
	</node>
</osm>
