<?xml version="1.0" encoding="UTF-8"?>
<osm generator="osmapis" version="0.6">
	<node id="-200448" lat="59.6627861074" lon="10.3508055637">
		<tag k="landuse" v="meadow" />
		<tag k="name" v="Sæterenga" />
		<tag k="ssr:stedsnr" v="210154" />
	</node>
	<node id="-200447" lat="59.6626166691" lon="10.3372027721">
		<tag k="name" v="Langmyra" />
		<tag k="natural" v="wetland" />
		<tag k="ssr:stedsnr" v="210153" />
	</node>
	<node id="-200440" lat="59.6867805587" lon="10.3456388942">
		<tag k="name" v="Grønlihavna" />
		<tag k="place" v="locality" />
		<tag k="ssr:stedsnr" v="149365" />
	</node>
	<node id="-200548" lat="59.5868388872" lon="10.3481583394">
		<tag k="name" v="Fokslemyra" />
		<tag k="natural" v="wetland" />
		<tag k="ssr:stedsnr" v="634261" />
	</node>
	<node id="-200547" lat="59.5696194477" lon="10.3526749973">
		<tag k="name" v="Høgåsemyrene" />
		<tag k="natural" v="wetland" />
		<tag k="ssr:stedsnr" v="634224" />
	</node>
	<node id="-200408" lat="59.5939944473" lon="10.3427111041">
		<tag k="name" v="Blakkemyra" />
		<tag k="natural" v="wetland" />
		<tag k="ssr:stedsnr" v="28261" />
	</node>
	<node id="-200663" lat="59.6389027803" lon="10.3529111025">
		<tag k="name" v="Bolesteinkleivene" />
		<tag k="place" v="locality" />
		<tag k="ssr:stedsnr" v="938362" />
	</node>
	<node id="-200662" lat="59.6406222222" lon="10.3466111182">
		<tag k="name" v="Bollsteinkulpen" />
		<tag k="natural" v="wetland" />
		<tag k="ssr:stedsnr" v="938358" />
	</node>
	<node id="-200654" lat="59.6133666712" lon="10.3624555559">
		<tag k="name" v="Breimyr" />
		<tag k="natural" v="wetland" />
		<tag k="ssr:stedsnr" v="938153" />
	</node>
	<node id="-200655" lat="59.5688388851" lon="10.3695833377">
		<tag k="name" v="Høiensætermyrene" />
		<tag k="natural" v="wetland" />
		<tag k="ssr:stedsnr" v="938211" />
	</node>
	<node id="-200526" lat="59.6248055581" lon="10.3617972267">
		<tag k="name" v="Nedre Kloppmyr" />
		<tag k="natural" v="wetland" />
		<tag k="ssr:stedsnr" v="574209" />
	</node>
	<node id="-200525" lat="59.6219888915" lon="10.3511472201">
		<tag k="name" v="Båsen" />
		<tag k="place" v="locality" />
		<tag k="ssr:stedsnr" v="574207" />
	</node>
	<node id="-200523" lat="59.6545166644" lon="10.3251055543">
		<tag k="name" v="Kringlemyr" />
		<tag k="place" v="locality" />
		<tag k="ssr:stedsnr" v="574152" />
	</node>
	<node id="-200641" lat="59.6265416662" lon="10.3959972287">
		<tag k="name" v="Sverstadstykket" />
		<tag k="place" v="locality" />
		<tag k="ssr:stedsnr" v="878408" />
	</node>
	<node id="-200383" lat="59.6131249987" lon="10.3419277821">
		<tag k="name" v="Petersætra" />
		<tag k="place" v="locality" />
		<tag k="ssr:stedsnr" v="392191" />
	</node>
	<node id="-200508" lat="59.6478527774" lon="10.3610833402">
		<tag k="name" v="Vassmyr" />
		<tag k="natural" v="wetland" />
		<tag k="ssr:stedsnr" v="513396" />
	</node>
	<node id="-200505" lat="59.5812527817" lon="10.3588361072">
		<tag k="name" v="Solbergmyrene" />
		<tag k="natural" v="wetland" />
		<tag k="ssr:stedsnr" v="513267" />
	</node>
	<node id="-200500" lat="59.6643305537" lon="10.35706389">
		<tag k="name" v="Bjørkebråtan" />
		<tag k="place" v="locality" />
		<tag k="ssr:stedsnr" v="513139" />
	</node>
	<node id="-200627" lat="59.650522224" lon="10.3876138844">
		<tag k="landuse" v="quarry" />
		<tag k="name" v="Juve" />
		<tag k="ssr:stedsnr" v="873742" />
	</node>
	<node id="-200610" lat="59.661816665" lon="10.3504944465">
		<tag k="historic" v="shieling" />
		<tag k="name" v="Nordbysætra" />
		<tag k="place" v="locality" />
		<tag k="ssr:stedsnr" v="817153" />
	</node>
	<node id="-200600" lat="59.6037138857" lon="10.4062388958">
		<tag k="name" v="Elvestad" />
		<tag k="place" v="locality" />
		<tag k="ssr:stedsnr" v="756351" />
	</node>
	<node id="-200458" lat="59.656344441" lon="10.3638472145">
		<tag k="name" v="Bråtaløkka" />
		<tag k="place" v="locality" />
		<tag k="ssr:stedsnr" v="210380" />
	</node>
	<node id="-200321" lat="59.6263111071" lon="10.3571416716">
		<tag k="name" v="Øvre Kloppmyr" />
		<tag k="natural" v="wetland" />
		<tag k="ssr:stedsnr" v="271218" />
	</node>
</osm>
