<?xml version="1.0" encoding="UTF-8"?>
<osm generator="osmapis" version="0.6">
	<node id="-735858" lat="68.836299999" lon="17.2007166648">
		<tag k="highway" v="path" />
		<tag k="name" v="Buveien" />
		<tag k="ssr:stedsnr" v="231674" />
	</node>
	<node id="-735343" lat="68.7857166624" lon="16.926338896">
		<tag k="highway" v="path" />
		<tag k="name" v="Brattstien" />
		<tag k="ssr:stedsnr" v="292396" />
	</node>
	<node id="-735465" lat="68.7516388894" lon="16.973211122">
		<tag k="highway" v="path" />
		<tag k="name" v="Hallevikveien" />
		<tag k="ssr:stedsnr" v="413103" />
	</node>
	<node id="-735848" lat="68.7812500017" lon="16.9341000067">
		<tag k="highway" v="path" />
		<tag k="name" v="Hallevikveien" />
		<tag k="ssr:stedsnr" v="231469" />
	</node>
	<node id="-736059" lat="68.8118861079" lon="17.0162583227">
		<tag k="highway" v="path" />
		<tag k="name" v="Stien" />
		<tag k="ssr:stedsnr" v="595490" />
	</node>
	<node id="-735964" lat="68.7988583293" lon="17.0125250008">
		<tag k="highway" v="path" />
		<tag k="name" v="Dyrstadveien" />
		<tag k="ssr:stedsnr" v="534404" />
	</node>
	<node id="-735702" lat="68.7895444417" lon="17.089561115">
		<tag k="highway" v="path" />
		<tag k="name" v="Hannaveien" />
		<tag k="ssr:stedsnr" v="110300" />
	</node>
	<node id="-736339" lat="68.8448333302" lon="17.0290166745">
		<tag k="highway" v="path" />
		<tag k="name" v="Høgstiveien" />
		<tag k="ssr:stedsnr" v="838502" />
	</node>
	<node id="-735694" lat="68.920733335" lon="17.1361138818">
		<tag k="highway" v="path" />
		<tag k="name" v="Brakkeveien" />
		<tag k="ssr:stedsnr" v="110727" />
	</node>
	<node id="-736332" lat="68.7594027735" lon="16.96538611">
		<tag k="highway" v="path" />
		<tag k="name" v="Hallevikvinterveien" />
		<tag k="ssr:stedsnr" v="838089" />
	</node>
	<node id="-735691" lat="68.7561722246" lon="16.9514194481">
		<tag k="highway" v="path" />
		<tag k="name" v="Halleviksommerveien" />
		<tag k="ssr:stedsnr" v="110059" />
	</node>
	<node id="-736067" lat="68.8197472224" lon="17.0425055569">
		<tag k="highway" v="path" />
		<tag k="name" v="Namsteveien" />
		<tag k="ssr:stedsnr" v="595713" />
	</node>
	<node id="-736443" lat="68.7926861095" lon="17.2012611082">
		<tag k="layer" v="-1" />
		<tag k="name" v="Ibestadtunnelen" />
		<tag k="ssr:stedsnr" v="930477" />
		<tag k="tunnel" v="yes" />
	</node>
	<node id="-735539" lat="68.87950278" lon="17.4760333207">
		<tag k="layer" v="-1" />
		<tag k="name" v="Svarthammeren" />
		<tag k="ssr:stedsnr" v="894721" />
		<tag k="tunnel" v="yes" />
	</node>
	<node id="-735654" lat="68.8868694469" lon="17.2401916777">
		<tag k="highway" v="path" />
		<tag k="name" v="Tømmerveien" />
		<tag k="ssr:stedsnr" v="50866" />
	</node>
	<node id="-736162" lat="68.8610111084" lon="17.4558166517">
		<tag k="highway" v="path" />
		<tag k="name" v="Øverveien" />
		<tag k="ssr:stedsnr" v="656798" />
	</node>
	<node id="-735519" lat="68.8029527761" lon="17.2473777792">
		<tag k="highway" v="path" />
		<tag k="name" v="Skavveien" />
		<tag k="ssr:stedsnr" v="474647" />
	</node>
	<node id="-736284" lat="68.8437749996" lon="16.9932750095">
		<tag k="highway" v="path" />
		<tag k="name" v="Toppeskarveien" />
		<tag k="ssr:stedsnr" v="777466" />
	</node>
	<node id="-736400" lat="68.8038805599" lon="17.2117388861">
		<tag k="highway" v="path" />
		<tag k="name" v="Mellastien" />
		<tag k="ssr:stedsnr" v="899647" />
	</node>
	<node id="-735497" lat="68.7519166643" lon="17.1146555632">
		<tag k="highway" v="path" />
		<tag k="name" v="Nakkeveien" />
		<tag k="ssr:stedsnr" v="474263" />
	</node>
	<node id="-735622" lat="68.7702138908" lon="17.1401611226">
		<tag k="highway" v="path" />
		<tag k="name" v="Rødsandveien" />
		<tag k="ssr:stedsnr" v="49375" />
	</node>
	<node id="-735491" lat="68.8083833365" lon="17.2021916653">
		<tag k="highway" v="path" />
		<tag k="name" v="Fjellveien" />
		<tag k="ssr:stedsnr" v="413661" />
	</node>
</osm>
