<?xml version="1.0" encoding="UTF-8"?>
<osm generator="osmapis" version="0.6">
	<node id="-484288" lat="60.5347750034" lon="4.89044166843">
		<tag k="bridge" v="yes" />
		<tag k="layer" v="1" />
		<tag k="old_name" v="Blom" />
		<tag k="ssr:date" v="2016-05-10" />
		<tag k="ssr:gruppe" v="samferdselsanlegg" />
		<tag k="ssr:hovedgruppe" v="infrastruktur" />
		<tag k="ssr:stedsnr" v="108001" />
		<tag k="ssr:type" v="bru" />
	</node>
	<node id="-484471" lat="60.4705194452" lon="4.95951944437">
		<tag k="bridge" v="yes" />
		<tag k="layer" v="1" />
		<tag k="old_name" v="Vik" />
		<tag k="ssr:date" v="2016-05-10" />
		<tag k="ssr:gruppe" v="samferdselsanlegg" />
		<tag k="ssr:hovedgruppe" v="infrastruktur" />
		<tag k="ssr:stedsnr" v="229026" />
		<tag k="ssr:type" v="bru" />
	</node>
	<node id="-484786" lat="60.6148472241" lon="4.82762221469">
		<tag k="natural" v="water" />
		<tag k="old_name" v="Tjørna" />
		<tag k="ssr:date" v="2016-05-10" />
		<tag k="ssr:gruppe" v="stilleståendeVann" />
		<tag k="ssr:hovedgruppe" v="ferskvann" />
		<tag k="ssr:stedsnr" v="652167" />
		<tag k="ssr:type" v="tjern" />
	</node>
	<node id="-484264" lat="60.6189361067" lon="4.84649165908">
		<tag k="natural" v="strait" />
		<tag k="old_name" v="Eideto" />
		<tag k="ssr:date" v="2016-05-10" />
		<tag k="ssr:gruppe" v="ferskvannskontur" />
		<tag k="ssr:hovedgruppe" v="ferskvann" />
		<tag k="ssr:stedsnr" v="106477" />
		<tag k="ssr:type" v="eid" />
	</node>
	<node id="-484391" lat="60.6181583308" lon="4.84935000904">
		<tag k="fixme" v="consider natural=peak for the most distinct mountains in the district" />
		<tag k="natural" v="hill" />
		<tag k="old_name" v="Eidtuva;Søre Eidtua;Søra Eidtua;Eidtua" />
		<tag k="place" v="locality" />
		<tag k="ssr:date" v="2016-05-10" />
		<tag k="ssr:gruppe" v="høyder" />
		<tag k="ssr:hovedgruppe" v="terreng" />
		<tag k="ssr:stedsnr" v="188625" />
		<tag k="ssr:type" v="ås" />
	</node>
	<node id="-484006" lat="60.5349250043" lon="4.90639444964">
		<tag k="loc_name" v="Nordre Sandknappen" />
		<tag k="natural" v="cape" />
		<tag k="ssr:date" v="2016-05-10" />
		<tag k="ssr:gruppe" v="ferskvannskontur" />
		<tag k="ssr:hovedgruppe" v="ferskvann" />
		<tag k="ssr:stedsnr" v="403922" />
		<tag k="ssr:type" v="halvøy" />
	</node>
	<node id="-484100" lat="60.6267235712" lon="4.8538989056">
		<tag k="natural" v="bay" />
		<tag k="old_name" v="Djupevika" />
		<tag k="ssr:date" v="2019-05-29" />
		<tag k="ssr:gruppe" v="kystkontur" />
		<tag k="ssr:hovedgruppe" v="sjø" />
		<tag k="ssr:stedsnr" v="895866" />
		<tag k="ssr:type" v="vikISjø" />
	</node>
	<node id="-485126" lat="60.5271694434" lon="4.85933889279">
		<tag k="building" v="industrial" />
		<tag k="industrial" v="factory" />
		<tag k="old_name" v="Kvalstasjon" />
		<tag k="ssr:date" v="2016-05-11" />
		<tag k="ssr:gruppe" v="næring" />
		<tag k="ssr:hovedgruppe" v="bebyggelse" />
		<tag k="ssr:stedsnr" v="954080" />
		<tag k="ssr:type" v="fabrikk" />
	</node>
	<node id="-484964" lat="60.5708166659" lon="4.86376666162">
		<tag k="bridge" v="yes" />
		<tag k="layer" v="1" />
		<tag k="old_name" v="Oen" />
		<tag k="ssr:date" v="2016-05-11" />
		<tag k="ssr:gruppe" v="samferdselsanlegg" />
		<tag k="ssr:hovedgruppe" v="infrastruktur" />
		<tag k="ssr:stedsnr" v="775025" />
		<tag k="ssr:type" v="bru" />
	</node>
</osm>
