<?xml version="1.0" encoding="UTF-8"?>
<osm generator="osmapis" version="0.6">
	<node id="-485112" lat="60.5097829336" lon="4.86622790425">
		<tag k="alt_name" v="Oneknappen" />
		<tag k="name" v="Oneknappen lykt" />
		<tag k="ssr:date" v="2019-03-11" />
		<tag k="ssr:gruppe" v="navigasjon" />
		<tag k="ssr:hovedgruppe" v="infrastruktur" />
		<tag k="ssr:stedsnr" v="917720" />
		<tag k="ssr:type" v="fyrlykt" />
	</node>
	<node id="-484979" lat="60.6676055572" lon="4.74869444078">
		<tag k="name" v="Lyngøy molo" />
		<tag k="ssr:date" v="2016-05-11" />
		<tag k="ssr:gruppe" v="navigasjon" />
		<tag k="ssr:hovedgruppe" v="infrastruktur" />
		<tag k="ssr:stedsnr" v="795640" />
		<tag k="ssr:type" v="fyrlykt" />
	</node>
	<node id="-484579" lat="60.7131694418" lon="4.73490833466">
		<tag k="name" v="Nordøyna" />
		<tag k="ssr:date" v="2019-05-31" />
		<tag k="ssr:gruppe" v="veg" />
		<tag k="ssr:hovedgruppe" v="infrastruktur" />
		<tag k="ssr:stedsnr" v="482186" />
		<tag k="ssr:type" v="adressenavn" />
	</node>
	<node id="-484578" lat="60.5567222212" lon="4.82073610544">
		<tag k="name" v="Nordre Rønholmen" />
		<tag k="ssr:date" v="2019-05-31" />
		<tag k="ssr:gruppe" v="veg" />
		<tag k="ssr:hovedgruppe" v="infrastruktur" />
		<tag k="ssr:stedsnr" v="482179" />
		<tag k="ssr:type" v="adressenavn" />
	</node>
	<node id="-484320" lat="60.5199888924" lon="4.93808332971">
		<tag k="name" v="Gjona" />
		<tag k="ssr:date" v="2016-05-10" />
		<tag k="ssr:gruppe" v="navigasjon" />
		<tag k="ssr:hovedgruppe" v="infrastruktur" />
		<tag k="ssr:stedsnr" v="127774" />
		<tag k="ssr:type" v="fyrlykt" />
	</node>
	<node id="-484699" lat="60.7198833313" lon="4.72438055453">
		<tag k="fixme" v="multiple name tags, choose one and add the other to alt_name" />
		<tag k="name" v="Nordøyna lykt;Nordøyna" />
		<tag k="ssr:date" v="2019-07-03" />
		<tag k="ssr:gruppe" v="navigasjon" />
		<tag k="ssr:hovedgruppe" v="infrastruktur" />
		<tag k="ssr:stedsnr" v="574025" />
		<tag k="ssr:type" v="fyrlykt" />
	</node>
	<node id="-485082" lat="60.5187111084" lon="4.91158056304">
		<tag k="name" v="Ivarsholmen" />
		<tag k="ssr:date" v="2019-05-31" />
		<tag k="ssr:gruppe" v="veg" />
		<tag k="ssr:hovedgruppe" v="infrastruktur" />
		<tag k="ssr:stedsnr" v="907177" />
		<tag k="ssr:type" v="adressenavn" />
	</node>
	<node id="-485081" lat="60.5543666649" lon="4.81585278386">
		<tag k="name" v="Rønevågen" />
		<tag k="ssr:date" v="2019-05-31" />
		<tag k="ssr:gruppe" v="veg" />
		<tag k="ssr:hovedgruppe" v="infrastruktur" />
		<tag k="ssr:stedsnr" v="907173" />
		<tag k="ssr:type" v="adressenavn" />
	</node>
	<node id="-484216" lat="60.6879694435" lon="4.72216666407">
		<tag k="alt_name" v="Hernar" />
		<tag k="name" v="Hernar lykt" />
		<tag k="ssr:date" v="2016-05-10" />
		<tag k="ssr:gruppe" v="navigasjon" />
		<tag k="ssr:hovedgruppe" v="infrastruktur" />
		<tag k="ssr:stedsnr" v="67880" />
		<tag k="ssr:type" v="fyrlykt" />
	</node>
	<node id="-483917" lat="60.5451000037" lon="4.82230833014">
		<tag k="name" v="Luseskjeret" />
		<tag k="ssr:date" v="2016-05-10" />
		<tag k="ssr:gruppe" v="navigasjon" />
		<tag k="ssr:hovedgruppe" v="infrastruktur" />
		<tag k="ssr:stedsnr" v="329336" />
		<tag k="ssr:type" v="fyrlykt" />
	</node>
	<node id="-484425" lat="60.5488055531" lon="4.8228722274">
		<tag k="name" v="Vardholmen" />
		<tag k="ssr:date" v="2019-05-31" />
		<tag k="ssr:gruppe" v="veg" />
		<tag k="ssr:hovedgruppe" v="infrastruktur" />
		<tag k="ssr:stedsnr" v="221731" />
		<tag k="ssr:type" v="adressenavn" />
	</node>
	<node id="-484806" lat="60.5655388889" lon="4.86014444293">
		<tag k="name" v="Hildalen" />
		<tag k="ssr:date" v="2019-05-31" />
		<tag k="ssr:gruppe" v="veg" />
		<tag k="ssr:hovedgruppe" v="infrastruktur" />
		<tag k="ssr:stedsnr" v="666816" />
		<tag k="ssr:type" v="adressenavn" />
	</node>
	<node id="-484805" lat="60.5906361078" lon="4.79130278053">
		<tag k="name" v="Gjesholmen" />
		<tag k="ssr:date" v="2019-05-31" />
		<tag k="ssr:gruppe" v="veg" />
		<tag k="ssr:hovedgruppe" v="infrastruktur" />
		<tag k="ssr:stedsnr" v="664178" />
		<tag k="ssr:type" v="adressenavn" />
	</node>
	<node id="-484291" lat="60.5862361122" lon="4.79807222259">
		<tag k="name" v="Heggholmen" />
		<tag k="ssr:date" v="2019-05-31" />
		<tag k="ssr:gruppe" v="veg" />
		<tag k="ssr:hovedgruppe" v="infrastruktur" />
		<tag k="ssr:stedsnr" v="118175" />
		<tag k="ssr:type" v="adressenavn" />
	</node>
	<node id="-485173" lat="60.8816104596" lon="6.30047518531">
		<tag k="name" v="Vestlandet" />
		<tag k="ssr:date" v="2019-01-06" />
		<tag k="ssr:gruppe" v="administrativeIndelinger" />
		<tag k="ssr:hovedgruppe" v="offentligAdministrasjon" />
		<tag k="ssr:stedsnr" v="974777" />
		<tag k="ssr:type" v="annenAdministrativInndeling" />
	</node>
	<node id="-484766" lat="60.5904055521" lon="4.80966667367">
		<tag k="name" v="Solheim" />
		<tag k="ssr:date" v="2019-05-31" />
		<tag k="ssr:gruppe" v="veg" />
		<tag k="ssr:hovedgruppe" v="infrastruktur" />
		<tag k="ssr:stedsnr" v="646744" />
		<tag k="ssr:type" v="adressenavn" />
	</node>
	<node id="-485042" lat="60.4891123996" lon="4.92433411859">
		<tag k="name" v="Rongasundet" />
		<tag k="ssr:date" v="2019-05-21" />
		<tag k="ssr:gruppe" v="navigasjon" />
		<tag k="ssr:hovedgruppe" v="infrastruktur" />
		<tag k="ssr:stedsnr" v="855213" />
		<tag k="ssr:type" v="fyrlykt" />
	</node>
	<node id="-484595" lat="60.5790861146" lon="4.79097499641">
		<tag k="alt_name" v="Geitingen" />
		<tag k="name" v="Geitingen lykt" />
		<tag k="ssr:date" v="2016-05-10" />
		<tag k="ssr:gruppe" v="navigasjon" />
		<tag k="ssr:hovedgruppe" v="infrastruktur" />
		<tag k="ssr:stedsnr" v="491587" />
		<tag k="ssr:type" v="fyrlykt" />
	</node>
	<node id="-484655" lat="60.5946194473" lon="4.83636111537">
		<tag k="name" v="Jensvardbrekka" />
		<tag k="ssr:date" v="2019-05-31" />
		<tag k="ssr:gruppe" v="veg" />
		<tag k="ssr:hovedgruppe" v="infrastruktur" />
		<tag k="ssr:stedsnr" v="545814" />
		<tag k="ssr:type" v="adressenavn" />
	</node>
	<node id="-485038" lat="60.459958334" lon="4.92240555405">
		<tag k="alt_name" v="Skåragavlen" />
		<tag k="name" v="Skåragavlen lykt" />
		<tag k="old_name" v="Skoragavlen" />
		<tag k="ssr:date" v="2016-05-11" />
		<tag k="ssr:gruppe" v="navigasjon" />
		<tag k="ssr:hovedgruppe" v="infrastruktur" />
		<tag k="ssr:stedsnr" v="855132" />
		<tag k="ssr:type" v="fyrlykt" />
	</node>
	<node id="-485170" lat="60.7029611066" lon="4.7469222176">
		<tag k="name" v="Sanden" />
		<tag k="ssr:date" v="2019-05-31" />
		<tag k="ssr:gruppe" v="veg" />
		<tag k="ssr:hovedgruppe" v="infrastruktur" />
		<tag k="ssr:stedsnr" v="967154" />
		<tag k="ssr:type" v="adressenavn" />
	</node>
	<node id="-484521" lat="60.6552388928" lon="4.78653889582">
		<tag k="alt_name" v="Svellingen" />
		<tag k="name" v="Svellingen lykt" />
		<tag k="ssr:date" v="2016-05-10" />
		<tag k="ssr:gruppe" v="navigasjon" />
		<tag k="ssr:hovedgruppe" v="infrastruktur" />
		<tag k="ssr:stedsnr" v="431628" />
		<tag k="ssr:type" v="fyrlykt" />
	</node>
	<node id="-484136" lat="60.6056055597" lon="4.79766667072">
		<tag k="name" v="Søra Kvalvika" />
		<tag k="ssr:date" v="2016-05-10" />
		<tag k="ssr:gruppe" v="navigasjon" />
		<tag k="ssr:hovedgruppe" v="infrastruktur" />
		<tag k="ssr:stedsnr" v="6570" />
		<tag k="ssr:type" v="fyrlykt" />
	</node>
	<node id="-483996" lat="60.7259475912" lon="4.7052113558">
		<tag k="name" v="Bolleflesa lanterne" />
		<tag k="ssr:date" v="2016-12-28" />
		<tag k="ssr:gruppe" v="navigasjon" />
		<tag k="ssr:hovedgruppe" v="infrastruktur" />
		<tag k="ssr:stedsnr" v="388194" />
		<tag k="ssr:type" v="lanterne" />
	</node>
	<node id="-484518" lat="60.6357111103" lon="4.840055564">
		<tag k="alt_name" v="Ådneset" />
		<tag k="name" v="Ådneset lykt" />
		<tag k="ssr:date" v="2016-05-10" />
		<tag k="ssr:gruppe" v="navigasjon" />
		<tag k="ssr:hovedgruppe" v="infrastruktur" />
		<tag k="ssr:stedsnr" v="431606" />
		<tag k="ssr:type" v="fyrlykt" />
	</node>
	<node id="-483876" lat="60.6349956366" lon="4.83685767641">
		<tag k="name" v="Hopøy" />
		<tag k="ssr:date" v="2019-05-31" />
		<tag k="ssr:gruppe" v="veg" />
		<tag k="ssr:hovedgruppe" v="infrastruktur" />
		<tag k="ssr:stedsnr" v="1041175" />
		<tag k="ssr:type" v="adressenavn" />
	</node>
	<node id="-483875" lat="60.5373021722" lon="4.88577037721">
		<tag k="name" v="Gjeneklettvegen" />
		<tag k="ssr:date" v="2019-05-31" />
		<tag k="ssr:gruppe" v="veg" />
		<tag k="ssr:hovedgruppe" v="infrastruktur" />
		<tag k="ssr:stedsnr" v="1041060" />
		<tag k="ssr:type" v="adressenavn" />
	</node>
	<node id="-483874" lat="60.4558955233" lon="4.95247555489">
		<tag k="name" v="Turøyvegen" />
		<tag k="ssr:date" v="2019-05-31" />
		<tag k="ssr:gruppe" v="veg" />
		<tag k="ssr:hovedgruppe" v="infrastruktur" />
		<tag k="ssr:stedsnr" v="1041031" />
		<tag k="ssr:type" v="adressenavn" />
	</node>
	<node id="-483873" lat="60.5044245289" lon="4.83094118257">
		<tag k="fixme" v="multiple name tags, choose one and add the other to alt_name" />
		<tag k="name" v="Skarvøyna;Skarvøyna lykt" />
		<tag k="ssr:date" v="2019-05-08" />
		<tag k="ssr:gruppe" v="navigasjon" />
		<tag k="ssr:hovedgruppe" v="infrastruktur" />
		<tag k="ssr:stedsnr" v="297160" />
		<tag k="ssr:type" v="fyrlykt" />
	</node>
	<node id="-484894" lat="60.4897749994" lon="4.83262499121">
		<tag k="alt_name" v="Greipingen" />
		<tag k="name" v="Greipingen lykt" />
		<tag k="ssr:date" v="2016-05-11" />
		<tag k="ssr:gruppe" v="navigasjon" />
		<tag k="ssr:hovedgruppe" v="infrastruktur" />
		<tag k="ssr:stedsnr" v="734226" />
		<tag k="ssr:type" v="fyrlykt" />
	</node>
	<node id="-484764" lat="60.6113083335" lon="4.86738888116">
		<tag k="alt_name" v="Stureholmen" />
		<tag k="name" v="Stureholmen lykt" />
		<tag k="ssr:date" v="2016-05-10" />
		<tag k="ssr:gruppe" v="navigasjon" />
		<tag k="ssr:hovedgruppe" v="infrastruktur" />
		<tag k="ssr:stedsnr" v="634018" />
		<tag k="ssr:type" v="fyrlykt" />
	</node>
	<node id="-484890" lat="60.4541138869" lon="4.94887500173">
		<tag k="alt_name" v="Svelgen" />
		<tag k="name" v="Svelgen lykt" />
		<tag k="ssr:date" v="2016-05-11" />
		<tag k="ssr:gruppe" v="navigasjon" />
		<tag k="ssr:hovedgruppe" v="infrastruktur" />
		<tag k="ssr:stedsnr" v="733147" />
		<tag k="ssr:type" v="fyrlykt" />
	</node>
	<node id="-484911" lat="60.6324750012" lon="4.78688333482">
		<tag k="name" v="Laksholmsundet" />
		<tag k="ssr:date" v="2016-05-11" />
		<tag k="ssr:gruppe" v="navigasjon" />
		<tag k="ssr:hovedgruppe" v="infrastruktur" />
		<tag k="ssr:stedsnr" v="734618" />
		<tag k="ssr:type" v="fyrlykt" />
	</node>
	<node id="-484887" lat="60.5779722197" lon="4.846527777">
		<tag k="name" v="Galten" />
		<tag k="ssr:date" v="2019-05-31" />
		<tag k="ssr:gruppe" v="veg" />
		<tag k="ssr:hovedgruppe" v="infrastruktur" />
		<tag k="ssr:stedsnr" v="725193" />
		<tag k="ssr:type" v="adressenavn" />
	</node>
	<node id="-483984" lat="60.6746527791" lon="4.79406388685">
		<tag k="name" v="Rubbegarnståna" />
		<tag k="ssr:date" v="2016-05-10" />
		<tag k="ssr:gruppe" v="navigasjon" />
		<tag k="ssr:hovedgruppe" v="infrastruktur" />
		<tag k="ssr:stedsnr" v="370617" />
		<tag k="ssr:type" v="fyrlykt" />
	</node>
	<node id="-484494" lat="60.691319446" lon="4.7399500039">
		<tag k="name" v="Stakksøyna" />
		<tag k="ssr:date" v="2016-05-10" />
		<tag k="ssr:gruppe" v="navigasjon" />
		<tag k="ssr:hovedgruppe" v="infrastruktur" />
		<tag k="ssr:stedsnr" v="249873" />
		<tag k="ssr:type" v="fyrlykt" />
	</node>
	<node id="-484748" lat="60.5895805513" lon="4.86122500126">
		<tag k="alt_name" v="Straumøytangen" />
		<tag k="name" v="Straumøytangen lykt" />
		<tag k="ssr:date" v="2016-05-10" />
		<tag k="ssr:gruppe" v="navigasjon" />
		<tag k="ssr:hovedgruppe" v="infrastruktur" />
		<tag k="ssr:stedsnr" v="613549" />
		<tag k="ssr:type" v="fyrlykt" />
	</node>
	<node id="-484619" lat="60.5143249982" lon="4.91217221578">
		<tag k="alt_name" v="Øygarden" />
		<tag k="name" v="Øygarden kommune" />
		<tag k="ssr:date" v="2019-05-07" />
		<tag k="ssr:gruppe" v="administrativeIndelinger" />
		<tag k="ssr:hovedgruppe" v="offentligAdministrasjon" />
		<tag k="ssr:stedsnr" v="513942" />
		<tag k="ssr:type" v="kommune" />
	</node>
	<node id="-484106" lat="60.4632207102" lon="4.9615940497">
		<tag k="name" v="Midtneset" />
		<tag k="ssr:date" v="2019-05-31" />
		<tag k="ssr:gruppe" v="veg" />
		<tag k="ssr:hovedgruppe" v="infrastruktur" />
		<tag k="ssr:stedsnr" v="989944" />
		<tag k="ssr:type" v="adressenavn" />
	</node>
	<node id="-484503" lat="60.5884833326" lon="4.83159445339">
		<tag k="name" v="Ådnevikvarden" />
		<tag k="ssr:date" v="2019-05-31" />
		<tag k="ssr:gruppe" v="veg" />
		<tag k="ssr:hovedgruppe" v="infrastruktur" />
		<tag k="ssr:stedsnr" v="424817" />
		<tag k="ssr:type" v="adressenavn" />
	</node>
	<node id="-485035" lat="60.5974000043" lon="4.79334722335">
		<tag k="name" v="Stridsholmen" />
		<tag k="ssr:date" v="2019-05-31" />
		<tag k="ssr:gruppe" v="veg" />
		<tag k="ssr:hovedgruppe" v="infrastruktur" />
		<tag k="ssr:stedsnr" v="846167" />
		<tag k="ssr:type" v="adressenavn" />
	</node>
</osm>
