<?xml version="1.0" encoding="UTF-8"?>
<osm version="0.6" generator="osmapis">
	<node id="2354941508" lat="63.592942" lon="10.832383" version="2" timestamp="2018-05-02T17:04:08Z" changeset="58620907" uid="3497659" user="NKA">
		<tag k="name" v="Raudberget" />
		<tag k="natural" v="peak" />
		<tag k="source" v="Kartverket" />
		<tag k="ssr:stedsnr" v="46154" />
	</node>
	<node id="3492796793" lat="63.5533675" lon="10.6768385" version="3" timestamp="2022-07-24T15:47:18Z" changeset="124014980" uid="3497659" user="NKA">
		<tag k="name" v="Evenhus" />
		<tag k="place" v="hamlet" />
		<tag k="ssr:stedsnr" v="13248" />
	</node>
	<node id="3492796796" lat="63.567098" lon="10.703646" version="2" timestamp="2022-07-24T15:47:18Z" changeset="124014980" uid="3497659" user="NKA">
		<tag k="name" v="Logtun" />
		<tag k="place" v="village" />
		<tag k="ssr:stedsnr" v="25416" />
	</node>
	<node id="3492796797" lat="63.5976747" lon="10.7061413" version="2" timestamp="2022-07-24T15:47:18Z" changeset="124014980" uid="3497659" user="NKA">
		<tag k="name" v="Småland" />
		<tag k="place" v="village" />
		<tag k="ssr:stedsnr" v="256280" />
	</node>
	<node id="6568787588" lat="63.6201461" lon="10.8929083" version="2" timestamp="2022-07-24T15:47:18Z" changeset="124014980" uid="3497659" user="NKA">
		<tag k="name" v="Svenskhalla" />
		<tag k="place" v="farm" />
		<tag k="ssr:stedsnr" v="559970" />
	</node>
	<node id="9907818955" lat="63.5829369" lon="10.7362194" version="1" timestamp="2022-07-24T15:47:18Z" changeset="124014980" uid="3497659" user="NKA">
		<tag k="name" v="Vinnan" />
		<tag k="place" v="farm" />
		<tag k="ssr:stedsnr" v="256781" />
	</node>
	<node id="9907818956" lat="63.5971974" lon="10.8303335" version="1" timestamp="2022-07-24T15:47:18Z" changeset="124014980" uid="3497659" user="NKA">
		<tag k="name" v="Banlia" />
		<tag k="place" v="farm" />
		<tag k="ssr:stedsnr" v="438848" />
	</node>
	<node id="9907818957" lat="63.5854444" lon="10.7590279" version="1" timestamp="2022-07-24T15:47:18Z" changeset="124014980" uid="3497659" user="NKA">
		<tag k="alt_name" v="Juberg, ytre" />
		<tag k="name" v="Ytre Juberg" />
		<tag k="place" v="farm" />
		<tag k="ssr:stedsnr" v="741897" />
	</node>
	<node id="9907818958" lat="63.5925416" lon="10.7431235" version="1" timestamp="2022-07-24T15:47:18Z" changeset="124014980" uid="3497659" user="NKA">
		<tag k="name" v="Berg" />
		<tag k="place" v="farm" />
		<tag k="ssr:stedsnr" v="316933" />
	</node>
	<node id="9907818959" lat="63.573885" lon="10.7287964" version="1" timestamp="2022-07-24T15:47:18Z" changeset="124014980" uid="3497659" user="NKA">
		<tag k="name" v="Storsveet" />
		<tag k="place" v="farm" />
		<tag k="ssr:stedsnr" v="168366" />
	</node>
	<node id="9907818960" lat="63.6214347" lon="10.8168213" version="1" timestamp="2022-07-24T15:47:18Z" changeset="124014980" uid="3497659" user="NKA">
		<tag k="name" v="Litl Kvamman" />
		<tag k="place" v="farm" />
		<tag k="ssr:stedsnr" v="74971" />
	</node>
	<node id="9907818961" lat="63.6160561" lon="10.7513092" version="1" timestamp="2022-07-24T15:47:18Z" changeset="124014980" uid="3497659" user="NKA">
		<tag k="name" v="Skågset" />
		<tag k="place" v="hamlet" />
		<tag k="ssr:stedsnr" v="377913" />
	</node>
	<node id="9907818962" lat="63.600225" lon="10.8172666" version="1" timestamp="2022-07-24T15:47:18Z" changeset="124014980" uid="3497659" user="NKA">
		<tag k="name" v="Bjørkli" />
		<tag k="place" v="farm" />
		<tag k="ssr:stedsnr" v="255877" />
	</node>
	<node id="9907818963" lat="63.60484" lon="10.7346399" version="1" timestamp="2022-07-24T15:47:18Z" changeset="124014980" uid="3497659" user="NKA">
		<tag k="name" v="Brattsvedalen" />
		<tag k="place" v="farm" />
		<tag k="ssr:stedsnr" v="74922" />
	</node>
	<node id="9907818964" lat="63.6160105" lon="10.8895817" version="1" timestamp="2022-07-24T15:47:18Z" changeset="124014980" uid="3497659" user="NKA">
		<tag k="name" v="Brannåsen" />
		<tag k="place" v="farm" />
		<tag k="ssr:stedsnr" v="74899" />
	</node>
	<node id="9907818965" lat="63.5727362" lon="10.7276388" version="1" timestamp="2022-07-24T15:47:18Z" changeset="124014980" uid="3497659" user="NKA">
		<tag k="name" v="Austeng" />
		<tag k="place" v="farm" />
		<tag k="ssr:stedsnr" v="74829" />
	</node>
	<node id="9907818966" lat="63.615135" lon="10.7787084" version="1" timestamp="2022-07-24T15:47:18Z" changeset="124014980" uid="3497659" user="NKA">
		<tag k="name" v="Stokkan" />
		<tag k="place" v="farm" />
		<tag k="ssr:stedsnr" v="74918" />
	</node>
	<node id="9907818967" lat="63.6051445" lon="10.7424167" version="1" timestamp="2022-07-24T15:47:18Z" changeset="124014980" uid="3497659" user="NKA">
		<tag k="name" v="Fagerheim" />
		<tag k="place" v="farm" />
		<tag k="ssr:stedsnr" v="863862" />
	</node>
	<node id="9907818968" lat="63.5868419" lon="10.788475" version="1" timestamp="2022-07-24T15:47:18Z" changeset="124014980" uid="3497659" user="NKA">
		<tag k="name" v="Helltrøa" />
		<tag k="place" v="farm" />
		<tag k="ssr:stedsnr" v="863841" />
	</node>
	<node id="9907818969" lat="63.6237097" lon="10.8220431" version="1" timestamp="2022-07-24T15:47:18Z" changeset="124014980" uid="3497659" user="NKA">
		<tag k="name" v="Vestgård" />
		<tag k="place" v="farm" />
		<tag k="ssr:stedsnr" v="13970" />
	</node>
	<node id="9907818970" lat="63.6203013" lon="10.8559565" version="1" timestamp="2022-07-24T15:47:18Z" changeset="124014980" uid="3497659" user="NKA">
		<tag k="name" v="Indre Hovdalen" />
		<tag k="place" v="farm" />
		<tag k="ssr:stedsnr" v="195973" />
	</node>
	<node id="9907818971" lat="63.5728917" lon="10.6852527" version="1" timestamp="2022-07-24T15:47:18Z" changeset="124014980" uid="3497659" user="NKA">
		<tag k="alt_name" v="Rygg, vestre" />
		<tag k="name" v="Vestre Rygg" />
		<tag k="place" v="farm" />
		<tag k="ssr:stedsnr" v="195215" />
	</node>
	<node id="9907818972" lat="63.5771222" lon="10.7048639" version="1" timestamp="2022-07-24T15:47:18Z" changeset="124014980" uid="3497659" user="NKA">
		<tag k="alt_name" v="Lein, litle" />
		<tag k="name" v="Litl-Lein" />
		<tag k="place" v="farm" />
		<tag k="ssr:stedsnr" v="13226" />
	</node>
	<node id="9907818973" lat="63.6298806" lon="10.8229582" version="1" timestamp="2022-07-24T15:47:18Z" changeset="124014980" uid="3497659" user="NKA">
		<tag k="alt_name" v="Stavset;Stavset, søre" />
		<tag k="name" v="Søre Stavset" />
		<tag k="place" v="farm" />
		<tag k="ssr:stedsnr" v="195992" />
	</node>
	<node id="9907818974" lat="63.5797417" lon="10.7796694" version="1" timestamp="2022-07-24T15:47:18Z" changeset="124014980" uid="3497659" user="NKA">
		<tag k="name" v="Myr" />
		<tag k="place" v="farm" />
		<tag k="ssr:stedsnr" v="863810" />
	</node>
	<node id="9907818975" lat="63.5711729" lon="10.6800243" version="1" timestamp="2022-07-24T15:47:18Z" changeset="124014980" uid="3497659" user="NKA">
		<tag k="name" v="Rønningen" />
		<tag k="place" v="farm" />
		<tag k="ssr:stedsnr" v="195213" />
	</node>
	<node id="9907818976" lat="63.5741594" lon="10.7241326" version="1" timestamp="2022-07-24T15:47:18Z" changeset="124014980" uid="3497659" user="NKA">
		<tag k="name" v="Revhaug" />
		<tag k="place" v="farm" />
		<tag k="ssr:stedsnr" v="195832" />
	</node>
	<node id="9907818977" lat="63.5930283" lon="10.7040239" version="1" timestamp="2022-07-24T15:47:18Z" changeset="124014980" uid="3497659" user="NKA">
		<tag k="name" v="Risetsveet" />
		<tag k="place" v="farm" />
		<tag k="ssr:stedsnr" v="652788" />
	</node>
	<node id="9907818978" lat="63.5527247" lon="10.6807704" version="1" timestamp="2022-07-24T15:47:18Z" changeset="124014980" uid="3497659" user="NKA">
		<tag k="name" v="Valheim" />
		<tag k="place" v="farm" />
		<tag k="ssr:stedsnr" v="652117" />
	</node>
	<node id="9907818979" lat="63.5787029" lon="10.7449595" version="1" timestamp="2022-07-24T15:47:18Z" changeset="124014980" uid="3497659" user="NKA">
		<tag k="name" v="Nordvik" />
		<tag k="place" v="farm" />
		<tag k="ssr:stedsnr" v="714318" />
	</node>
	<node id="9907818980" lat="63.554639" lon="10.6947348" version="1" timestamp="2022-07-24T15:47:18Z" changeset="124014980" uid="3497659" user="NKA">
		<tag k="name" v="Svendgård" />
		<tag k="place" v="farm" />
		<tag k="ssr:stedsnr" v="713136" />
	</node>
	<node id="9907818981" lat="63.6176599" lon="10.8137709" version="1" timestamp="2022-07-24T15:47:18Z" changeset="124014980" uid="3497659" user="NKA">
		<tag k="name" v="Kvamman" />
		<tag k="place" v="hamlet" />
		<tag k="ssr:stedsnr" v="207026" />
	</node>
	<node id="9907818982" lat="63.5792927" lon="10.7616225" version="1" timestamp="2022-07-24T15:47:18Z" changeset="124014980" uid="3497659" user="NKA">
		<tag k="name" v="Bjørnstad" />
		<tag k="place" v="farm" />
		<tag k="ssr:stedsnr" v="836209" />
	</node>
	<node id="9907818983" lat="63.6003606" lon="10.8486754" version="1" timestamp="2022-07-24T15:47:18Z" changeset="124014980" uid="3497659" user="NKA">
		<tag k="name" v="Åsgutu" />
		<tag k="place" v="farm" />
		<tag k="ssr:stedsnr" v="838005" />
	</node>
	<node id="9907818984" lat="63.6275111" lon="10.788013" version="1" timestamp="2022-07-24T15:47:18Z" changeset="124014980" uid="3497659" user="NKA">
		<tag k="name" v="Rekbu" />
		<tag k="place" v="hamlet" />
		<tag k="ssr:stedsnr" v="559948" />
	</node>
	<node id="9907818985" lat="63.6152171" lon="10.8243347" version="1" timestamp="2022-07-24T15:47:18Z" changeset="124014980" uid="3497659" user="NKA">
		<tag k="name" v="Hovd" />
		<tag k="place" v="farm" />
		<tag k="ssr:stedsnr" v="411229" />
	</node>
	<node id="9907818986" lat="63.5804483" lon="10.7957296" version="1" timestamp="2022-07-24T15:47:18Z" changeset="124014980" uid="3497659" user="NKA">
		<tag k="name" v="Steinan" />
		<tag k="place" v="farm" />
		<tag k="ssr:stedsnr" v="896246" />
	</node>
	<node id="9907818987" lat="63.5867082" lon="10.7317119" version="1" timestamp="2022-07-24T15:47:18Z" changeset="124014980" uid="3497659" user="NKA">
		<tag k="name" v="Asklund" />
		<tag k="place" v="hamlet" />
		<tag k="ssr:stedsnr" v="559863" />
	</node>
	<node id="9907818988" lat="63.5741445" lon="10.7091388" version="1" timestamp="2022-07-24T15:47:18Z" changeset="124014980" uid="3497659" user="NKA">
		<tag k="name" v="Leinum" />
		<tag k="place" v="farm" />
		<tag k="ssr:stedsnr" v="834760" />
	</node>
	<node id="9907818989" lat="63.5769017" lon="10.7494249" version="1" timestamp="2022-07-24T15:47:18Z" changeset="124014980" uid="3497659" user="NKA">
		<tag k="alt_name" v="Vika;Vika, midtre" />
		<tag k="name" v="Midtre Vika" />
		<tag k="place" v="farm" />
		<tag k="ssr:stedsnr" v="620795" />
	</node>
	<node id="9907818990" lat="63.5815346" lon="10.705975" version="1" timestamp="2022-07-24T15:47:18Z" changeset="124014980" uid="3497659" user="NKA">
		<tag k="alt_name" v="Hogstad, øvre" />
		<tag k="name" v="Øvre Hogstad" />
		<tag k="place" v="farm" />
		<tag k="ssr:stedsnr" v="256206" />
	</node>
	<node id="9907818991" lat="63.5662671" lon="10.721837" version="1" timestamp="2022-07-24T15:47:18Z" changeset="124014980" uid="3497659" user="NKA">
		<tag k="name" v="Hammeren" />
		<tag k="place" v="farm" />
		<tag k="ssr:stedsnr" v="414237" />
	</node>
	<node id="9907818992" lat="63.5713726" lon="10.6893609" version="1" timestamp="2022-07-24T15:47:18Z" changeset="124014980" uid="3497659" user="NKA">
		<tag k="alt_name" v="Rygg, nedre;Rygg" />
		<tag k="name" v="Nedre Rygg" />
		<tag k="place" v="farm" />
		<tag k="ssr:stedsnr" v="316212" />
	</node>
	<node id="9907818993" lat="63.6383695" lon="10.8480694" version="1" timestamp="2022-07-24T15:47:18Z" changeset="124014980" uid="3497659" user="NKA">
		<tag k="name" v="Fossli" />
		<tag k="place" v="farm" />
		<tag k="ssr:stedsnr" v="923985" />
	</node>
	<node id="9907818994" lat="63.6424199" lon="10.8584882" version="1" timestamp="2022-07-24T15:47:18Z" changeset="124014980" uid="3497659" user="NKA">
		<tag k="name" v="Åtlo" />
		<tag k="place" v="hamlet" />
		<tag k="ssr:stedsnr" v="498987" />
	</node>
	<node id="9907818995" lat="63.5660083" lon="10.7221471" version="1" timestamp="2022-07-24T15:47:18Z" changeset="124014980" uid="3497659" user="NKA">
		<tag k="name" v="Håmmåren" />
		<tag k="place" v="farm" />
		<tag k="ssr:stedsnr" v="195809" />
	</node>
	<node id="9907818996" lat="63.5714239" lon="10.7067924" version="1" timestamp="2022-07-24T15:47:18Z" changeset="124014980" uid="3497659" user="NKA">
		<tag k="name" v="Bolkan" />
		<tag k="place" v="farm" />
		<tag k="ssr:stedsnr" v="287791" />
	</node>
	<node id="9907818997" lat="63.6341482" lon="10.8233327" version="1" timestamp="2022-07-24T15:47:18Z" changeset="124014980" uid="3497659" user="NKA">
		<tag k="name" v="Stavset" />
		<tag k="place" v="hamlet" />
		<tag k="ssr:stedsnr" v="558998" />
	</node>
	<node id="9907818998" lat="63.6530653" lon="10.857698" version="1" timestamp="2022-07-24T15:47:18Z" changeset="124014980" uid="3497659" user="NKA">
		<tag k="name" v="Vikan" />
		<tag k="place" v="farm" />
		<tag k="ssr:stedsnr" v="471072" />
	</node>
	<node id="9907818999" lat="63.650121" lon="10.8593108" version="1" timestamp="2022-07-24T15:47:18Z" changeset="124014980" uid="3497659" user="NKA">
		<tag k="name" v="Leirvika" />
		<tag k="place" v="isolated_dwelling" />
		<tag k="ssr:stedsnr" v="498045" />
	</node>
	<node id="9907819000" lat="63.632051" lon="10.8792471" version="1" timestamp="2022-07-24T15:47:18Z" changeset="124014980" uid="3497659" user="NKA">
		<tag k="name" v="Hesttjønnåsen" />
		<tag k="place" v="farm" />
		<tag k="ssr:stedsnr" v="713159" />
	</node>
	<node id="9907819001" lat="63.5559004" lon="10.6536692" version="1" timestamp="2022-07-24T15:47:18Z" changeset="124014980" uid="3497659" user="NKA">
		<tag k="name" v="Øra" />
		<tag k="place" v="farm" />
		<tag k="ssr:stedsnr" v="558246" />
	</node>
	<node id="9907819002" lat="63.576525" lon="10.6136084" version="1" timestamp="2022-07-24T15:47:18Z" changeset="124014980" uid="3497659" user="NKA">
		<tag k="name" v="Nordvik" />
		<tag k="place" v="farm" />
		<tag k="ssr:stedsnr" v="558208" />
	</node>
	<node id="9907819003" lat="63.6561512" lon="10.8692382" version="1" timestamp="2022-07-24T15:47:18Z" changeset="124014980" uid="3497659" user="NKA">
		<tag k="name" v="Olderbakken" />
		<tag k="place" v="farm" />
		<tag k="ssr:stedsnr" v="896063" />
	</node>
	<node id="9907819004" lat="63.6463112" lon="10.8687155" version="1" timestamp="2022-07-24T15:47:18Z" changeset="124014980" uid="3497659" user="NKA">
		<tag k="name" v="Åtloaunet" />
		<tag k="place" v="farm" />
		<tag k="ssr:stedsnr" v="349075" />
	</node>
	<node id="9907819005" lat="63.5836953" lon="10.6236179" version="1" timestamp="2022-07-24T15:47:18Z" changeset="124014980" uid="3497659" user="NKA">
		<tag k="alt_name" v="Tautra nordre;Nord-Tautra;Tautra, nordre" />
		<tag k="name" v="Nordre Tautra" />
		<tag k="place" v="hamlet" />
		<tag k="ssr:stedsnr" v="74206" />
	</node>
	<node id="9907819006" lat="63.5736153" lon="10.5971618" version="1" timestamp="2022-07-24T15:47:18Z" changeset="124014980" uid="3497659" user="NKA">
		<tag k="name" v="Nordstrand" />
		<tag k="place" v="farm" />
		<tag k="ssr:stedsnr" v="289017" />
	</node>
	<node id="9907819007" lat="63.5827342" lon="10.6232325" version="1" timestamp="2022-07-24T15:47:18Z" changeset="124014980" uid="3497659" user="NKA">
		<tag k="alt_name" v="Tautra midtre;Tautra, midtre" />
		<tag k="name" v="Midtre Tautra" />
		<tag k="place" v="farm" />
		<tag k="ssr:stedsnr" v="74207" />
	</node>
	<node id="9907819008" lat="63.5706603" lon="10.7594172" version="1" timestamp="2022-07-24T15:47:18Z" changeset="124014980" uid="3497659" user="NKA">
		<tag k="name" v="Moksnes ytre" />
		<tag k="place" v="farm" />
		<tag k="ssr:stedsnr" v="986100" />
	</node>
	<node id="9907819009" lat="63.5726359" lon="10.7180628" version="1" timestamp="2022-07-24T15:47:18Z" changeset="124014980" uid="3497659" user="NKA">
		<tag k="name" v="Nordtun" />
		<tag k="place" v="farm" />
		<tag k="ssr:stedsnr" v="957340" />
	</node>
	<node id="9907819010" lat="63.5879222" lon="10.76305" version="1" timestamp="2022-07-24T15:47:18Z" changeset="124014980" uid="3497659" user="NKA">
		<tag k="alt_name" v="Juberg, øvre" />
		<tag k="name" v="Øvre Juberg" />
		<tag k="place" v="farm" />
		<tag k="ssr:stedsnr" v="256829" />
	</node>
	<node id="9907819011" lat="63.5813073" lon="10.801395" version="1" timestamp="2022-07-24T15:47:18Z" changeset="124014980" uid="3497659" user="NKA">
		<tag k="name" v="Saltbuvollen" />
		<tag k="place" v="farm" />
		<tag k="ssr:stedsnr" v="714216" />
	</node>
	<node id="9907819012" lat="63.6016837" lon="10.7966398" version="1" timestamp="2022-07-24T15:47:18Z" changeset="124014980" uid="3497659" user="NKA">
		<tag k="name" v="Hogstad" />
		<tag k="place" v="farm" />
		<tag k="ssr:stedsnr" v="957257" />
	</node>
	<node id="9907819013" lat="63.5999222" lon="10.7079028" version="1" timestamp="2022-07-24T15:47:18Z" changeset="124014980" uid="3497659" user="NKA">
		<tag k="name" v="Helsingplassen" />
		<tag k="place" v="farm" />
		<tag k="ssr:stedsnr" v="134347" />
	</node>
	<node id="9907819014" lat="63.5611394" lon="10.6929834" version="1" timestamp="2022-07-24T15:47:18Z" changeset="124014980" uid="3497659" user="NKA">
		<tag k="alt_name" v="Mo;Mo, vestre" />
		<tag k="name" v="Vestre Mo" />
		<tag k="place" v="farm" />
		<tag k="ssr:stedsnr" v="862254" />
	</node>
	<node id="9907819015" lat="63.5950735" lon="10.7170034" version="1" timestamp="2022-07-24T15:47:18Z" changeset="124014980" uid="3497659" user="NKA">
		<tag k="name" v="Storlia" />
		<tag k="place" v="farm" />
		<tag k="ssr:stedsnr" v="410810" />
	</node>
	<node id="9907819016" lat="63.5724889" lon="10.7174194" version="1" timestamp="2022-07-24T15:47:18Z" changeset="124014980" uid="3497659" user="NKA">
		<tag k="name" v="Solstad" />
		<tag k="place" v="farm" />
		<tag k="ssr:stedsnr" v="712761" />
	</node>
	<node id="9907820017" lat="63.5689697" lon="10.7266152" version="1" timestamp="2022-07-24T15:47:18Z" changeset="124014980" uid="3497659" user="NKA">
		<tag k="name" v="Elverhaug" />
		<tag k="place" v="farm" />
		<tag k="ssr:stedsnr" v="13835" />
	</node>
	<node id="9907820018" lat="63.5746056" lon="10.689886" version="1" timestamp="2022-07-24T15:47:18Z" changeset="124014980" uid="3497659" user="NKA">
		<tag k="alt_name" v="Rygg, øvre" />
		<tag k="name" v="Øvre Rygg" />
		<tag k="place" v="farm" />
		<tag k="ssr:stedsnr" v="316209" />
	</node>
	<node id="9907820019" lat="63.5770011" lon="10.717422" version="1" timestamp="2022-07-24T15:47:18Z" changeset="124014980" uid="3497659" user="NKA">
		<tag k="name" v="Solbakken" />
		<tag k="place" v="farm" />
		<tag k="ssr:stedsnr" v="896367" />
	</node>
	<node id="9907820020" lat="63.5631909" lon="10.7073577" version="1" timestamp="2022-07-24T15:47:18Z" changeset="124014980" uid="3497659" user="NKA">
		<tag k="name" v="Logstein" />
		<tag k="place" v="farm" />
		<tag k="ssr:stedsnr" v="255232" />
	</node>
	<node id="9907820021" lat="63.5868692" lon="10.7596298" version="1" timestamp="2022-07-24T15:47:18Z" changeset="124014980" uid="3497659" user="NKA">
		<tag k="name" v="Juberg" />
		<tag k="place" v="hamlet" />
		<tag k="ssr:stedsnr" v="408139" />
	</node>
	<node id="9907820022" lat="63.5803227" lon="10.7005186" version="1" timestamp="2022-07-24T15:47:18Z" changeset="124014980" uid="3497659" user="NKA">
		<tag k="name" v="Hogstad" />
		<tag k="place" v="hamlet" />
		<tag k="ssr:stedsnr" v="165056" />
	</node>
	<node id="9907820023" lat="63.5820048" lon="10.7209191" version="1" timestamp="2022-07-24T15:47:18Z" changeset="124014980" uid="3497659" user="NKA">
		<tag k="name" v="Grostad" />
		<tag k="place" v="farm" />
		<tag k="ssr:stedsnr" v="229345" />
	</node>
	<node id="9907820024" lat="63.5473613" lon="10.672609" version="1" timestamp="2022-07-24T15:47:18Z" changeset="124014980" uid="3497659" user="NKA">
		<tag k="name" v="Otterstad" />
		<tag k="place" v="farm" />
		<tag k="ssr:stedsnr" v="349148" />
	</node>
	<node id="9907820025" lat="63.5717905" lon="10.7376695" version="1" timestamp="2022-07-24T15:47:18Z" changeset="124014980" uid="3497659" user="NKA">
		<tag k="name" v="Karlberget" />
		<tag k="place" v="isolated_dwelling" />
		<tag k="ssr:stedsnr" v="107374" />
	</node>
	<node id="9907820026" lat="63.5656821" lon="10.6947257" version="1" timestamp="2022-07-24T15:47:18Z" changeset="124014980" uid="3497659" user="NKA">
		<tag k="name" v="Mo" />
		<tag k="place" v="farm" />
		<tag k="ssr:stedsnr" v="13267" />
	</node>
	<node id="9907820027" lat="63.5713409" lon="10.7172373" version="1" timestamp="2022-07-24T15:47:18Z" changeset="124014980" uid="3497659" user="NKA">
		<tag k="name" v="Lund" />
		<tag k="place" v="farm" />
		<tag k="ssr:stedsnr" v="227757" />
	</node>
	<node id="9907820028" lat="63.5575259" lon="10.6784694" version="1" timestamp="2022-07-24T15:47:18Z" changeset="124014980" uid="3497659" user="NKA">
		<tag k="name" v="Nordstad" />
		<tag k="place" v="farm" />
		<tag k="ssr:stedsnr" v="107101" />
	</node>
	<node id="9907820029" lat="63.5724341" lon="10.7617235" version="1" timestamp="2022-07-24T15:47:18Z" changeset="124014980" uid="3497659" user="NKA">
		<tag k="name" v="Moksnes" />
		<tag k="place" v="hamlet" />
		<tag k="ssr:stedsnr" v="924766" />
	</node>
	<node id="9907820030" lat="63.5888049" lon="10.7567356" version="1" timestamp="2022-07-24T15:47:18Z" changeset="124014980" uid="3497659" user="NKA">
		<tag k="name" v="Presthus" />
		<tag k="place" v="farm" />
		<tag k="ssr:stedsnr" v="498885" />
	</node>
	<node id="9907820031" lat="63.6227611" lon="10.8197527" version="1" timestamp="2022-07-24T15:47:18Z" changeset="124014980" uid="3497659" user="NKA">
		<tag k="name" v="Nyenget" />
		<tag k="place" v="farm" />
		<tag k="ssr:stedsnr" v="923980" />
	</node>
	<node id="9907820032" lat="63.5849576" lon="10.7926108" version="1" timestamp="2022-07-24T15:47:18Z" changeset="124014980" uid="3497659" user="NKA">
		<tag k="name" v="Bakkli" />
		<tag k="place" v="farm" />
		<tag k="ssr:stedsnr" v="714219" />
	</node>
	<node id="9907820033" lat="63.632039" lon="10.8277639" version="1" timestamp="2022-07-24T15:47:18Z" changeset="124014980" uid="3497659" user="NKA">
		<tag k="name" v="Buset" />
		<tag k="place" v="hamlet" />
		<tag k="ssr:stedsnr" v="923996" />
	</node>
	<node id="9907820034" lat="63.6013785" lon="10.7297213" version="1" timestamp="2022-07-24T15:47:18Z" changeset="124014980" uid="3497659" user="NKA">
		<tag k="name" v="Nåvik søndre" />
		<tag k="place" v="farm" />
		<tag k="ssr:stedsnr" v="986098" />
	</node>
	<node id="9907820035" lat="63.6307194" lon="10.803711" version="1" timestamp="2022-07-24T15:47:18Z" changeset="124014980" uid="3497659" user="NKA">
		<tag k="name" v="Austgård" />
		<tag k="place" v="farm" />
		<tag k="ssr:stedsnr" v="437991" />
	</node>
	<node id="9907820036" lat="63.6334673" lon="10.8741328" version="1" timestamp="2022-07-24T15:47:18Z" changeset="124014980" uid="3497659" user="NKA">
		<tag k="name" v="Reitan" />
		<tag k="place" v="farm" />
		<tag k="ssr:stedsnr" v="73989" />
	</node>
	<node id="9907820037" lat="63.620042" lon="10.742402" version="1" timestamp="2022-07-24T15:47:18Z" changeset="124014980" uid="3497659" user="NKA">
		<tag k="name" v="Orsanden" />
		<tag k="place" v="hamlet" />
		<tag k="ssr:stedsnr" v="316944" />
	</node>
	<node id="9907820038" lat="63.5817685" lon="10.7252892" version="1" timestamp="2022-07-24T15:47:18Z" changeset="124014980" uid="3497659" user="NKA">
		<tag k="name" v="Lein" />
		<tag k="place" v="hamlet" />
		<tag k="ssr:stedsnr" v="256786" />
	</node>
	<node id="9907820039" lat="63.5775647" lon="10.6052388" version="1" timestamp="2022-07-24T15:47:18Z" changeset="124014980" uid="3497659" user="NKA">
		<tag k="alt_name" v="Bakken" />
		<tag k="name" v="Bakkan" />
		<tag k="place" v="farm" />
		<tag k="ssr:stedsnr" v="195248" />
	</node>
	<node id="9907820040" lat="63.5485141" lon="10.6692909" version="1" timestamp="2022-07-24T15:47:18Z" changeset="124014980" uid="3497659" user="NKA">
		<tag k="name" v="Nesvoll" />
		<tag k="place" v="isolated_dwelling" />
		<tag k="ssr:stedsnr" v="956136" />
	</node>
	<node id="9907820041" lat="63.5602901" lon="10.6795567" version="1" timestamp="2022-07-24T15:47:18Z" changeset="124014980" uid="3497659" user="NKA">
		<tag k="name" v="Sandstad" />
		<tag k="place" v="farm" />
		<tag k="ssr:stedsnr" v="255252" />
	</node>
	<node id="9907820042" lat="63.5396859" lon="10.6448818" version="1" timestamp="2022-07-24T15:47:18Z" changeset="124014980" uid="3497659" user="NKA">
		<tag k="name" v="Kleiva" />
		<tag k="place" v="farm" />
		<tag k="ssr:stedsnr" v="195251" />
	</node>
	<node id="9907820043" lat="63.5464283" lon="10.6795409" version="1" timestamp="2022-07-24T15:47:18Z" changeset="124014980" uid="3497659" user="NKA">
		<tag k="name" v="Galtviksveet" />
		<tag k="place" v="farm" />
		<tag k="ssr:stedsnr" v="680246" />
	</node>
	<node id="9907820044" lat="63.5513372" lon="10.654658" version="1" timestamp="2022-07-24T15:47:18Z" changeset="124014980" uid="3497659" user="NKA">
		<tag k="name" v="Island" />
		<tag k="place" v="hamlet" />
		<tag k="ssr:stedsnr" v="862248" />
	</node>
	<node id="9907820045" lat="63.5433638" lon="10.6433253" version="1" timestamp="2022-07-24T15:47:18Z" changeset="124014980" uid="3497659" user="NKA">
		<tag k="name" v="Haugsand" />
		<tag k="place" v="farm" />
		<tag k="ssr:stedsnr" v="835223" />
	</node>
	<node id="9907820046" lat="63.5428101" lon="10.6513925" version="1" timestamp="2022-07-24T15:47:18Z" changeset="124014980" uid="3497659" user="NKA">
		<tag k="alt_name" v="Haugan nedre" />
		<tag k="name" v="Nedre Haugan" />
		<tag k="place" v="farm" />
		<tag k="ssr:stedsnr" v="592236" />
	</node>
	<node id="9907820047" lat="63.5452637" lon="10.6599674" version="1" timestamp="2022-07-24T15:47:18Z" changeset="124014980" uid="3497659" user="NKA">
		<tag k="alt_name" v="Hernes, nedre" />
		<tag k="name" v="Nedre Hernes" />
		<tag k="place" v="farm" />
		<tag k="ssr:stedsnr" v="316250" />
	</node>
	<node id="9907820048" lat="63.5493758" lon="10.6335835" version="1" timestamp="2022-07-24T15:47:18Z" changeset="124014980" uid="3497659" user="NKA">
		<tag k="name" v="Ballsvik" />
		<tag k="place" v="farm" />
		<tag k="ssr:stedsnr" v="316261" />
	</node>
	<node id="9907820049" lat="63.5481244" lon="10.6377742" version="1" timestamp="2022-07-24T15:47:18Z" changeset="124014980" uid="3497659" user="NKA">
		<tag k="name" v="Uthaug" />
		<tag k="place" v="farm" />
		<tag k="ssr:stedsnr" v="531240" />
	</node>
	<node id="9907820050" lat="63.5756648" lon="10.6783171" version="1" timestamp="2022-07-24T15:47:18Z" changeset="124014980" uid="3497659" user="NKA">
		<tag k="name" v="Bakken" />
		<tag k="place" v="farm" />
		<tag k="ssr:stedsnr" v="134238" />
	</node>
	<node id="9907820051" lat="63.5820611" lon="10.6281667" version="1" timestamp="2022-07-24T15:47:18Z" changeset="124014980" uid="3497659" user="NKA">
		<tag k="name" v="Sørhamna" />
		<tag k="place" v="farm" />
		<tag k="ssr:stedsnr" v="316234" />
	</node>
	<node id="9907820052" lat="63.6021157" lon="10.7996555" version="1" timestamp="2022-07-24T15:47:18Z" changeset="124014980" uid="3497659" user="NKA">
		<tag k="name" v="Litjhogstad" />
		<tag k="place" v="farm" />
		<tag k="ssr:stedsnr" v="986353" />
	</node>
	<node id="9907820053" lat="63.5534916" lon="10.6892805" version="1" timestamp="2022-07-24T15:47:18Z" changeset="124014980" uid="3497659" user="NKA">
		<tag k="name" v="Austvik" />
		<tag k="place" v="farm" />
		<tag k="ssr:stedsnr" v="74224" />
	</node>
	<node id="9907820054" lat="63.5460535" lon="10.6766648" version="1" timestamp="2022-07-24T15:47:18Z" changeset="124014980" uid="3497659" user="NKA">
		<tag k="name" v="Sørheim" />
		<tag k="place" v="farm" />
		<tag k="ssr:stedsnr" v="592376" />
	</node>
	<node id="9907820055" lat="63.5576514" lon="10.6754724" version="1" timestamp="2022-07-24T15:47:18Z" changeset="124014980" uid="3497659" user="NKA">
		<tag k="name" v="Hernesmarka" />
		<tag k="place" v="farm" />
		<tag k="ssr:stedsnr" v="470322" />
	</node>
	<node id="9907820056" lat="63.5829128" lon="10.7946524" version="1" timestamp="2022-07-24T15:47:18Z" changeset="124014980" uid="3497659" user="NKA">
		<tag k="alt_name" v="Hundøya" />
		<tag k="name" v="Hyndøya" />
		<tag k="place" v="hamlet" />
		<tag k="ssr:stedsnr" v="377866" />
	</node>
	<node id="9907820057" lat="63.6150697" lon="10.8275756" version="1" timestamp="2022-07-24T15:47:18Z" changeset="124014980" uid="3497659" user="NKA">
		<tag k="alt_name" v="Hovdalen" />
		<tag k="name" v="Ytre Hovdalen" />
		<tag k="place" v="farm" />
		<tag k="ssr:stedsnr" v="13899" />
	</node>
	<node id="9907820058" lat="63.5430195" lon="10.6696667" version="1" timestamp="2022-07-24T15:47:18Z" changeset="124014980" uid="3497659" user="NKA">
		<tag k="name" v="Heggvik" />
		<tag k="place" v="farm" />
		<tag k="ssr:stedsnr" v="13242" />
	</node>
	<node id="9907820059" lat="63.619009" lon="10.8082729" version="1" timestamp="2022-07-24T15:47:18Z" changeset="124014980" uid="3497659" user="NKA">
		<tag k="name" v="Frøstad" />
		<tag k="place" v="farm" />
		<tag k="ssr:stedsnr" v="46213" />
	</node>
	<node id="9907820060" lat="63.6020497" lon="10.827652" version="1" timestamp="2022-07-24T15:47:18Z" changeset="124014980" uid="3497659" user="NKA">
		<tag k="name" v="Giset" />
		<tag k="place" v="farm" />
		<tag k="ssr:stedsnr" v="802915" />
	</node>
	<node id="9907820061" lat="63.5949695" lon="10.8422083" version="1" timestamp="2022-07-24T15:47:18Z" changeset="124014980" uid="3497659" user="NKA">
		<tag k="name" v="Steinsvoll" />
		<tag k="place" v="farm" />
		<tag k="ssr:stedsnr" v="802879" />
	</node>
	<node id="9907820062" lat="63.6007127" lon="10.836354" version="1" timestamp="2022-07-24T15:47:18Z" changeset="124014980" uid="3497659" user="NKA">
		<tag k="name" v="Skogtrøa" />
		<tag k="place" v="farm" />
		<tag k="ssr:stedsnr" v="13883" />
	</node>
	<node id="9907820063" lat="63.6188395" lon="10.7996373" version="2" timestamp="2022-07-26T15:15:56Z" changeset="124101246" uid="3497659" user="NKA">
		<tag k="name" v="Frøstad" />
		<tag k="place" v="hamlet" />
		<tag k="ssr:stedsnr" v="13969" />
	</node>
	<node id="9907820064" lat="63.5451511" lon="10.6728252" version="1" timestamp="2022-07-24T15:47:18Z" changeset="124014980" uid="3497659" user="NKA">
		<tag k="alt_name" v="Hernes, søre" />
		<tag k="name" v="Søre Hernes" />
		<tag k="place" v="farm" />
		<tag k="ssr:stedsnr" v="134279" />
	</node>
	<node id="9907820065" lat="63.5603162" lon="10.6866023" version="1" timestamp="2022-07-24T15:47:18Z" changeset="124014980" uid="3497659" user="NKA">
		<tag k="alt_name" v="Moholtan" />
		<tag k="name" v="Moholt" />
		<tag k="place" v="farm" />
		<tag k="ssr:stedsnr" v="437256" />
	</node>
	<node id="9907820066" lat="63.6017889" lon="10.7884694" version="1" timestamp="2022-07-24T15:47:18Z" changeset="124014980" uid="3497659" user="NKA">
		<tag k="name" v="Solvang" />
		<tag k="place" v="isolated_dwelling" />
		<tag k="ssr:stedsnr" v="741918" />
	</node>
	<node id="9907820067" lat="63.5521626" lon="10.6646895" version="1" timestamp="2022-07-24T15:47:18Z" changeset="124014980" uid="3497659" user="NKA">
		<tag k="alt_name" v="Hernes, østre" />
		<tag k="name" v="Østre Hernes" />
		<tag k="place" v="farm" />
		<tag k="ssr:stedsnr" v="802255" />
	</node>
	<node id="9907820068" lat="63.5843917" lon="10.7860645" version="1" timestamp="2022-07-24T15:47:18Z" changeset="124014980" uid="3497659" user="NKA">
		<tag k="name" v="Kjøbenhavn" />
		<tag k="place" v="farm" />
		<tag k="ssr:stedsnr" v="471253" />
	</node>
	<node id="9907820069" lat="63.5816084" lon="10.8074277" version="1" timestamp="2022-07-24T15:47:18Z" changeset="124014980" uid="3497659" user="NKA">
		<tag k="name" v="Kvitsandvika" />
		<tag k="place" v="farm" />
		<tag k="ssr:stedsnr" v="377823" />
	</node>
	<node id="9907820070" lat="63.5879916" lon="10.7793819" version="1" timestamp="2022-07-24T15:47:18Z" changeset="124014980" uid="3497659" user="NKA">
		<tag k="name" v="Hellan" />
		<tag k="place" v="hamlet" />
		<tag k="ssr:stedsnr" v="741895" />
	</node>
	<node id="9907820071" lat="63.5888195" lon="10.713435" version="1" timestamp="2022-07-24T15:47:18Z" changeset="124014980" uid="3497659" user="NKA">
		<tag k="name" v="Riset" />
		<tag k="place" v="hamlet" />
		<tag k="ssr:stedsnr" v="619361" />
	</node>
	<node id="9907820072" lat="63.5673553" lon="10.7117422" version="1" timestamp="2022-07-24T15:47:18Z" changeset="124014980" uid="3497659" user="NKA">
		<tag k="name" v="Prestaunet" />
		<tag k="place" v="farm" />
		<tag k="ssr:stedsnr" v="107685" />
	</node>
	<node id="9907820073" lat="63.5710474" lon="10.7239352" version="1" timestamp="2022-07-24T15:47:18Z" changeset="124014980" uid="3497659" user="NKA">
		<tag k="name" v="Svean" />
		<tag k="place" v="farm" />
		<tag k="ssr:stedsnr" v="13836" />
	</node>
	<node id="9907820074" lat="63.5701122" lon="10.7273087" version="1" timestamp="2022-07-24T15:47:18Z" changeset="124014980" uid="3497659" user="NKA">
		<tag k="name" v="Dunsplassen" />
		<tag k="place" v="farm" />
		<tag k="ssr:stedsnr" v="532338" />
	</node>
	<node id="9907820075" lat="63.5893519" lon="10.8154142" version="1" timestamp="2022-07-24T15:47:18Z" changeset="124014980" uid="3497659" user="NKA">
		<tag k="name" v="Myrheim" />
		<tag k="place" v="farm" />
		<tag k="ssr:stedsnr" v="316918" />
	</node>
	<node id="9907820076" lat="63.6305425" lon="10.8568313" version="1" timestamp="2022-07-24T15:47:18Z" changeset="124014980" uid="3497659" user="NKA">
		<tag k="name" v="Eide" />
		<tag k="place" v="farm" />
		<tag k="ssr:stedsnr" v="923993" />
	</node>
	<node id="9907820077" lat="63.6081905" lon="10.8138312" version="1" timestamp="2022-07-24T15:47:18Z" changeset="124014980" uid="3497659" user="NKA">
		<tag k="name" v="Hojem" />
		<tag k="place" v="hamlet" />
		<tag k="ssr:stedsnr" v="681893" />
	</node>
	<node id="9907820078" lat="63.5833306" lon="10.8037629" version="1" timestamp="2022-07-24T15:47:18Z" changeset="124014980" uid="3497659" user="NKA">
		<tag k="name" v="Vågsveet" />
		<tag k="place" v="farm" />
		<tag k="ssr:stedsnr" v="107240" />
	</node>
	<node id="9907820079" lat="63.6461911" lon="10.8622917" version="1" timestamp="2022-07-24T15:47:18Z" changeset="124014980" uid="3497659" user="NKA">
		<tag k="name" v="Åvik" />
		<tag k="place" v="farm" />
		<tag k="ssr:stedsnr" v="774075" />
	</node>
	<node id="9907820080" lat="63.6059409" lon="10.8203235" version="1" timestamp="2022-07-24T15:47:18Z" changeset="124014980" uid="3497659" user="NKA">
		<tag k="name" v="Hojemsåsen" />
		<tag k="place" v="isolated_dwelling" />
		<tag k="ssr:stedsnr" v="559892" />
	</node>
	<node id="9907820081" lat="63.6206894" lon="10.8051094" version="1" timestamp="2022-07-24T15:47:18Z" changeset="124014980" uid="3497659" user="NKA">
		<tag k="name" v="Voll" />
		<tag k="place" v="farm" />
		<tag k="ssr:stedsnr" v="680981" />
	</node>
	<node id="9907820082" lat="63.6115619" lon="10.8970508" version="1" timestamp="2022-07-24T15:47:18Z" changeset="124014980" uid="3497659" user="NKA">
		<tag k="name" v="Litlvika" />
		<tag k="place" v="hamlet" />
		<tag k="ssr:stedsnr" v="680926" />
	</node>
	<node id="9907820083" lat="63.6436254" lon="10.8640766" version="1" timestamp="2022-07-24T15:47:18Z" changeset="124014980" uid="3497659" user="NKA">
		<tag k="name" v="Åtlohellan" />
		<tag k="place" v="farm" />
		<tag k="ssr:stedsnr" v="741994" />
	</node>
	<node id="9907820084" lat="63.6157555" lon="10.8121444" version="1" timestamp="2022-07-24T15:47:18Z" changeset="124014980" uid="3497659" user="NKA">
		<tag k="name" v="Vestre Kvamman" />
		<tag k="place" v="farm" />
		<tag k="ssr:stedsnr" v="438914" />
	</node>
	<node id="9907820085" lat="63.6279336" lon="10.82177" version="1" timestamp="2022-07-24T15:47:18Z" changeset="124014980" uid="3497659" user="NKA">
		<tag k="name" v="Flekkstad" />
		<tag k="place" v="farm" />
		<tag k="ssr:stedsnr" v="498978" />
	</node>
	<node id="9907820089" lat="63.6062" lon="10.8018749" version="1" timestamp="2022-07-24T15:47:18Z" changeset="124014980" uid="3497659" user="NKA">
		<tag k="name" v="Halset" />
		<tag k="place" v="farm" />
		<tag k="ssr:stedsnr" v="438873" />
	</node>
	<node id="9907820090" lat="63.6648328" lon="10.8774152" version="1" timestamp="2022-07-24T15:47:18Z" changeset="124014980" uid="3497659" user="NKA">
		<tag k="name" v="Åsholmen" />
		<tag k="place" v="hamlet" />
		<tag k="ssr:stedsnr" v="753050" />
	</node>
	<node id="9907820091" lat="63.6297389" lon="10.8547555" version="1" timestamp="2022-07-24T15:47:18Z" changeset="124014980" uid="3497659" user="NKA">
		<tag k="name" v="Staurset" />
		<tag k="place" v="isolated_dwelling" />
		<tag k="ssr:stedsnr" v="255987" />
	</node>
	<node id="9907820092" lat="63.640406" lon="10.8505697" version="1" timestamp="2022-07-24T15:47:18Z" changeset="124014980" uid="3497659" user="NKA">
		<tag k="alt_name" v="Åtlo" />
		<tag k="name" v="Åtlohaugen" />
		<tag k="place" v="farm" />
		<tag k="ssr:stedsnr" v="134056" />
	</node>
	<node id="9907820093" lat="63.636537" lon="10.8877705" version="1" timestamp="2022-07-24T15:47:18Z" changeset="124014980" uid="3497659" user="NKA">
		<tag k="name" v="Storsveet" />
		<tag k="place" v="farm" />
		<tag k="ssr:stedsnr" v="376980" />
	</node>
	<node id="9907820094" lat="63.6337167" lon="10.858125" version="1" timestamp="2022-07-24T15:47:18Z" changeset="124014980" uid="3497659" user="NKA">
		<tag k="name" v="Fossbakken" />
		<tag k="place" v="farm" />
		<tag k="ssr:stedsnr" v="316994" />
	</node>
	<node id="9907820095" lat="63.6035203" lon="10.8196899" version="1" timestamp="2022-07-24T15:47:18Z" changeset="124014980" uid="3497659" user="NKA">
		<tag k="name" v="Husby" />
		<tag k="place" v="farm" />
		<tag k="ssr:stedsnr" v="13878" />
	</node>
	<node id="9907820096" lat="63.6134704" lon="10.8795248" version="1" timestamp="2022-07-24T15:47:18Z" changeset="124014980" uid="3497659" user="NKA">
		<tag k="name" v="Linsvekleiva" />
		<tag k="place" v="farm" />
		<tag k="ssr:stedsnr" v="863893" />
	</node>
	<node id="9907820097" lat="63.6362307" lon="10.8395482" version="1" timestamp="2022-07-24T15:47:18Z" changeset="124014980" uid="3497659" user="NKA">
		<tag k="name" v="Staur" />
		<tag k="place" v="hamlet" />
		<tag k="ssr:stedsnr" v="134987" />
	</node>
	<node id="9907820098" lat="63.6160064" lon="10.8650278" version="1" timestamp="2022-07-24T15:47:18Z" changeset="124014980" uid="3497659" user="NKA">
		<tag k="name" v="Brenne" />
		<tag k="place" v="farm" />
		<tag k="ssr:stedsnr" v="134919" />
	</node>
	<node id="9907820099" lat="63.6049917" lon="10.8087166" version="1" timestamp="2022-07-24T15:47:18Z" changeset="124014980" uid="3497659" user="NKA">
		<tag k="alt_name" v="Hojem, litle" />
		<tag k="name" v="Litle Hojem" />
		<tag k="place" v="farm" />
		<tag k="ssr:stedsnr" v="559888" />
	</node>
	<node id="9907820100" lat="63.6080855" lon="10.8010135" version="1" timestamp="2022-07-24T15:47:18Z" changeset="124014980" uid="3497659" user="NKA">
		<tag k="name" v="Myraunet" />
		<tag k="place" v="farm" />
		<tag k="ssr:stedsnr" v="559884" />
	</node>
	<node id="9907820101" lat="63.6031272" lon="10.8656422" version="1" timestamp="2022-07-24T15:47:18Z" changeset="124014980" uid="3497659" user="NKA">
		<tag k="name" v="Aunet" />
		<tag k="place" v="farm" />
		<tag k="ssr:stedsnr" v="195881" />
	</node>
	<node id="9907820102" lat="63.596456" lon="10.8493075" version="1" timestamp="2022-07-24T15:47:18Z" changeset="124014980" uid="3497659" user="NKA">
		<tag k="name" v="Ulvika" />
		<tag k="place" v="hamlet" />
		<tag k="ssr:stedsnr" v="195857" />
	</node>
	<node id="9907820103" lat="63.6457578" lon="10.8689597" version="1" timestamp="2022-07-24T15:47:18Z" changeset="124014980" uid="3497659" user="NKA">
		<tag k="name" v="Åstad" />
		<tag k="place" v="farm" />
		<tag k="ssr:stedsnr" v="620033" />
	</node>
	<node id="9907820104" lat="63.5932173" lon="10.8447014" version="1" timestamp="2022-07-24T15:47:18Z" changeset="124014980" uid="3497659" user="NKA">
		<tag k="alt_name" v="Ulvviksveet" />
		<tag k="name" v="Ulviksveet" />
		<tag k="place" v="farm" />
		<tag k="ssr:stedsnr" v="619872" />
	</node>
	<node id="9907820105" lat="63.6035417" lon="10.8415944" version="1" timestamp="2022-07-24T15:47:18Z" changeset="124014980" uid="3497659" user="NKA">
		<tag k="name" v="Dalen" />
		<tag k="place" v="farm" />
		<tag k="ssr:stedsnr" v="498906" />
	</node>
	<node id="9907820106" lat="63.6176863" lon="10.8115232" version="1" timestamp="2022-07-24T15:47:18Z" changeset="124014980" uid="3497659" user="NKA">
		<tag k="name" v="Kvamman" />
		<tag k="place" v="farm" />
		<tag k="ssr:stedsnr" v="531211" />
	</node>
	<node id="9907820107" lat="63.6170219" lon="10.8150558" version="1" timestamp="2022-07-24T15:47:18Z" changeset="124014980" uid="3497659" user="NKA">
		<tag k="name" v="Austre Kvamman" />
		<tag k="place" v="farm" />
		<tag k="ssr:stedsnr" v="13914" />
	</node>
	<node id="9907820108" lat="63.6367791" lon="10.8411842" version="1" timestamp="2022-07-24T15:47:18Z" changeset="124014980" uid="3497659" user="NKA">
		<tag k="name" v="Gammelgården" />
		<tag k="place" v="farm" />
		<tag k="ssr:stedsnr" v="46204" />
	</node>
	<node id="9907820109" lat="63.6120938" lon="10.8547484" version="1" timestamp="2022-07-24T15:47:18Z" changeset="124014980" uid="3497659" user="NKA">
		<tag k="name" v="Gisetstaden" />
		<tag k="place" v="farm" />
		<tag k="ssr:stedsnr" v="74900" />
	</node>
	<node id="9907820110" lat="63.6248964" lon="10.8613441" version="1" timestamp="2022-07-24T15:47:18Z" changeset="124014980" uid="3497659" user="NKA">
		<tag k="name" v="Vang" />
		<tag k="place" v="farm" />
		<tag k="ssr:stedsnr" v="13964" />
	</node>
	<node id="9907820111" lat="63.6097833" lon="10.7786638" version="1" timestamp="2022-07-24T15:47:18Z" changeset="124014980" uid="3497659" user="NKA">
		<tag k="historic" v="shieling" />
		<tag k="name" v="Brekksveet" />
		<tag k="place" v="isolated_dwelling" />
		<tag k="ssr:stedsnr" v="741915" />
	</node>
	<node id="9907820112" lat="63.5892712" lon="10.7510405" version="1" timestamp="2022-07-24T15:47:18Z" changeset="124014980" uid="3497659" user="NKA">
		<tag k="name" v="Vangberg" />
		<tag k="place" v="hamlet" />
		<tag k="ssr:stedsnr" v="741898" />
	</node>
	<node id="9907820113" lat="63.6236943" lon="10.7649261" version="1" timestamp="2022-07-24T15:47:18Z" changeset="124014980" uid="3497659" user="NKA">
		<tag k="name" v="Romma" />
		<tag k="place" v="isolated_dwelling" />
		<tag k="ssr:stedsnr" v="774962" />
	</node>
	<node id="9907820114" lat="63.6151222" lon="10.8069195" version="1" timestamp="2022-07-24T15:47:18Z" changeset="124014980" uid="3497659" user="NKA">
		<tag k="name" v="Høgset" />
		<tag k="place" v="farm" />
		<tag k="ssr:stedsnr" v="13912" />
	</node>
	<node id="9907820115" lat="63.602212" lon="10.7067875" version="1" timestamp="2022-07-24T15:47:18Z" changeset="124014980" uid="3497659" user="NKA">
		<tag k="alt_name" v="Oldervika" />
		<tag k="name" v="Oldervik" />
		<tag k="place" v="farm" />
		<tag k="ssr:stedsnr" v="741352" />
	</node>
	<node id="9907820116" lat="63.6117763" lon="10.7402164" version="1" timestamp="2022-07-24T15:47:18Z" changeset="124014980" uid="3497659" user="NKA">
		<tag k="name" v="Søre Orsanden" />
		<tag k="place" v="farm" />
		<tag k="ssr:stedsnr" v="680938" />
	</node>
	<node id="9907820117" lat="63.6082389" lon="10.7371478" version="1" timestamp="2022-07-24T15:47:18Z" changeset="124014980" uid="3497659" user="NKA">
		<tag k="name" v="Tømret" />
		<tag k="place" v="farm" />
		<tag k="ssr:stedsnr" v="741958" />
	</node>
	<node id="9907820118" lat="63.5780677" lon="10.7881654" version="1" timestamp="2022-07-24T15:47:18Z" changeset="124014980" uid="3497659" user="NKA">
		<tag k="name" v="Sveplassen" />
		<tag k="place" v="farm" />
		<tag k="ssr:stedsnr" v="741872" />
	</node>
	<node id="9907820119" lat="63.5997017" lon="10.7073479" version="1" timestamp="2022-07-24T15:47:18Z" changeset="124014980" uid="3497659" user="NKA">
		<tag k="name" v="Nåvikaunet" />
		<tag k="place" v="farm" />
		<tag k="ssr:stedsnr" v="591795" />
	</node>
	<node id="9907820120" lat="63.5957944" lon="10.7363416" version="1" timestamp="2022-07-24T15:47:18Z" changeset="124014980" uid="3497659" user="NKA">
		<tag k="name" v="Skardet" />
		<tag k="place" v="neighbourhood" />
		<tag k="ssr:stedsnr" v="591878" />
	</node>
	<node id="9907820121" lat="63.5889749" lon="10.7932763" version="1" timestamp="2022-07-24T15:47:18Z" changeset="124014980" uid="3497659" user="NKA">
		<tag k="name" v="Nytrøa" />
		<tag k="place" v="farm" />
		<tag k="ssr:stedsnr" v="741893" />
	</node>
	<node id="9907820122" lat="63.6332401" lon="10.777235" version="1" timestamp="2022-07-24T15:47:18Z" changeset="124014980" uid="3497659" user="NKA">
		<tag k="alt_name" v="Fånes, nedre;Fånes" />
		<tag k="name" v="Nedre Fånes" />
		<tag k="place" v="farm" />
		<tag k="ssr:stedsnr" v="498996" />
	</node>
	<node id="9907820123" lat="63.5920472" lon="10.7383249" version="1" timestamp="2022-07-24T15:47:18Z" changeset="124014980" uid="3497659" user="NKA">
		<tag k="name" v="Borg" />
		<tag k="place" v="hamlet" />
		<tag k="ssr:stedsnr" v="438859" />
	</node>
	<node id="9907820124" lat="63.5930372" lon="10.7626437" version="1" timestamp="2022-07-24T15:47:18Z" changeset="124014980" uid="3497659" user="NKA">
		<tag k="name" v="Vassli" />
		<tag k="place" v="farm" />
		<tag k="ssr:stedsnr" v="593000" />
	</node>
	<node id="9907820125" lat="63.6133323" lon="10.724664" version="1" timestamp="2022-07-24T15:47:18Z" changeset="124014980" uid="3497659" user="NKA">
		<tag k="name" v="Storsveet" />
		<tag k="place" v="farm" />
		<tag k="ssr:stedsnr" v="559915" />
	</node>
	<node id="9907820126" lat="63.5782199" lon="10.7530012" version="1" timestamp="2022-07-24T15:47:18Z" changeset="124014980" uid="3497659" user="NKA">
		<tag k="alt_name" v="Vika, austre" />
		<tag k="name" v="Austre Vika" />
		<tag k="place" v="farm" />
		<tag k="ssr:stedsnr" v="438815" />
	</node>
	<node id="9907820127" lat="63.5922193" lon="10.7707658" version="1" timestamp="2022-07-24T15:47:18Z" changeset="124014980" uid="3497659" user="NKA">
		<tag k="name" v="Liberg" />
		<tag k="place" v="farm" />
		<tag k="ssr:stedsnr" v="377840" />
	</node>
	<node id="9907820128" lat="63.6009169" lon="10.7611428" version="1" timestamp="2022-07-24T15:47:18Z" changeset="124014980" uid="3497659" user="NKA">
		<tag k="name" v="Remman" />
		<tag k="place" v="farm" />
		<tag k="ssr:stedsnr" v="438884" />
	</node>
	<node id="9907820129" lat="63.5856278" lon="10.6965443" version="1" timestamp="2022-07-24T15:47:18Z" changeset="124014980" uid="3497659" user="NKA">
		<tag k="name" v="Ådal" />
		<tag k="place" v="farm" />
		<tag k="ssr:stedsnr" v="316357" />
	</node>
	<node id="9907820130" lat="63.5845507" lon="10.6911975" version="1" timestamp="2022-07-24T15:47:18Z" changeset="124014980" uid="3497659" user="NKA">
		<tag k="name" v="Aunan" />
		<tag k="place" v="farm" />
		<tag k="ssr:stedsnr" v="316351" />
	</node>
	<node id="9907820131" lat="63.6300243" lon="10.7729152" version="1" timestamp="2022-07-24T15:47:18Z" changeset="124014980" uid="3497659" user="NKA">
		<tag k="name" v="Fånes" />
		<tag k="place" v="hamlet" />
		<tag k="ssr:stedsnr" v="316997" />
	</node>
	<node id="9907820132" lat="63.6144149" lon="10.7831967" version="1" timestamp="2022-07-24T15:47:18Z" changeset="124014980" uid="3497659" user="NKA">
		<tag k="name" v="Brekka" />
		<tag k="place" v="farm" />
		<tag k="ssr:stedsnr" v="377917" />
	</node>
	<node id="9907820133" lat="63.620847" lon="10.7954653" version="1" timestamp="2022-07-24T15:47:18Z" changeset="124014980" uid="3497659" user="NKA">
		<tag k="name" v="Solvang" />
		<tag k="place" v="farm" />
		<tag k="ssr:stedsnr" v="256964" />
	</node>
	<node id="9907820134" lat="63.6216582" lon="10.7819986" version="2" timestamp="2022-07-26T15:15:56Z" changeset="124101246" uid="3497659" user="NKA">
		<tag k="name" v="Breiset" />
		<tag k="place" v="hamlet" />
		<tag k="ssr:stedsnr" v="316970" />
	</node>
	<node id="9907820135" lat="63.5873361" lon="10.6896751" version="1" timestamp="2022-07-24T15:47:18Z" changeset="124014980" uid="3497659" user="NKA">
		<tag k="alt_name" v="Lenvik" />
		<tag k="name" v="Lenvika" />
		<tag k="place" v="farm" />
		<tag k="ssr:stedsnr" v="316359" />
	</node>
	<node id="9907820136" lat="63.6121079" lon="10.7568343" version="1" timestamp="2022-07-24T15:47:18Z" changeset="124014980" uid="3497659" user="NKA">
		<tag k="name" v="Solem" />
		<tag k="place" v="farm" />
		<tag k="ssr:stedsnr" v="863902" />
	</node>
	<node id="9907820137" lat="63.6039544" lon="10.7912594" version="1" timestamp="2022-07-24T15:47:18Z" changeset="124014980" uid="3497659" user="NKA">
		<tag k="alt_name" v="Jakobsminde" />
		<tag k="name" v="Minde" />
		<tag k="place" v="farm" />
		<tag k="ssr:stedsnr" v="74874" />
	</node>
	<node id="9907820138" lat="63.5730026" lon="10.6894254" version="1" timestamp="2022-07-24T15:47:18Z" changeset="124014980" uid="3497659" user="NKA">
		<tag k="name" v="Rygg" />
		<tag k="place" v="hamlet" />
		<tag k="ssr:stedsnr" v="207392" />
	</node>
	<node id="9907820139" lat="63.5875078" lon="10.7403378" version="1" timestamp="2022-07-24T15:47:18Z" changeset="124014980" uid="3497659" user="NKA">
		<tag k="name" v="Alstad" />
		<tag k="place" v="village" />
		<tag k="ssr:stedsnr" v="195869" />
	</node>
	<node id="9907820140" lat="63.5798623" lon="10.6965778" version="1" timestamp="2022-07-24T15:47:18Z" changeset="124014980" uid="3497659" user="NKA">
		<tag k="alt_name" v="Hogstad, midtre" />
		<tag k="name" v="Midtre Hogstad" />
		<tag k="place" v="farm" />
		<tag k="ssr:stedsnr" v="620204" />
	</node>
	<node id="9907820141" lat="63.5798548" lon="10.7719014" version="1" timestamp="2022-07-24T15:47:18Z" changeset="124014980" uid="3497659" user="NKA">
		<tag k="name" v="Revlan" />
		<tag k="place" v="farm" />
		<tag k="ssr:stedsnr" v="863815" />
	</node>
	<node id="9907820142" lat="63.5779029" lon="10.6776768" version="1" timestamp="2022-07-24T15:47:18Z" changeset="124014980" uid="3497659" user="NKA">
		<tag k="name" v="Hogstadsveet" />
		<tag k="place" v="farm" />
		<tag k="ssr:stedsnr" v="74189" />
	</node>
	<node id="9907820143" lat="63.6298584" lon="10.7986917" version="1" timestamp="2022-07-24T15:47:18Z" changeset="124014980" uid="3497659" user="NKA">
		<tag k="name" v="Fredtun" />
		<tag k="place" v="farm" />
		<tag k="ssr:stedsnr" v="862993" />
	</node>
	<node id="9907820144" lat="63.5755917" lon="10.6968334" version="1" timestamp="2022-07-24T15:47:18Z" changeset="124014980" uid="3497659" user="NKA">
		<tag k="alt_name" v="Rygg, østre" />
		<tag k="name" v="Østre Rygg" />
		<tag k="place" v="farm" />
		<tag k="ssr:stedsnr" v="316211" />
	</node>
	<node id="9907820145" lat="63.5964214" lon="10.7667284" version="1" timestamp="2022-07-24T15:47:18Z" changeset="124014980" uid="3497659" user="NKA">
		<tag k="name" v="Lian" />
		<tag k="place" v="farm" />
		<tag k="ssr:stedsnr" v="498910" />
	</node>
	<node id="9907820146" lat="63.5727882" lon="10.768138" version="1" timestamp="2022-07-24T15:47:18Z" changeset="124014980" uid="3497659" user="NKA">
		<tag k="alt_name" v="Moksnes østre;Moksnes, austre" />
		<tag k="name" v="Austre Moksnes" />
		<tag k="place" v="farm" />
		<tag k="ssr:stedsnr" v="863811" />
	</node>
	<node id="9907820147" lat="63.5966416" lon="10.7228891" version="1" timestamp="2022-07-24T15:47:18Z" changeset="124014980" uid="3497659" user="NKA">
		<tag k="name" v="Kjelstad" />
		<tag k="place" v="farm" />
		<tag k="ssr:stedsnr" v="376905" />
	</node>
	<node id="9907820148" lat="63.595551" lon="10.7121073" version="1" timestamp="2022-07-24T15:47:18Z" changeset="124014980" uid="3497659" user="NKA">
		<tag k="name" v="Haugen" />
		<tag k="place" v="farm" />
		<tag k="ssr:stedsnr" v="349833" />
	</node>
	<node id="9907820149" lat="63.6062689" lon="10.7092542" version="1" timestamp="2022-07-24T15:47:18Z" changeset="124014980" uid="3497659" user="NKA">
		<tag k="alt_name" v="Skjeran" />
		<tag k="name" v="Skjæran" />
		<tag k="place" v="farm" />
		<tag k="ssr:stedsnr" v="558302" />
	</node>
	<node id="9907820150" lat="63.5950006" lon="10.7069426" version="1" timestamp="2022-07-24T15:47:18Z" changeset="124014980" uid="3497659" user="NKA">
		<tag k="name" v="Steinhaugen" />
		<tag k="place" v="farm" />
		<tag k="ssr:stedsnr" v="288791" />
	</node>
	<node id="9907820151" lat="63.5649232" lon="10.6752505" version="1" timestamp="2022-07-24T15:47:18Z" changeset="124014980" uid="3497659" user="NKA">
		<tag k="name" v="Nordfjæra" />
		<tag k="place" v="farm" />
		<tag k="ssr:stedsnr" v="786832" />
	</node>
	<node id="9907820152" lat="63.6074618" lon="10.7411297" version="1" timestamp="2022-07-24T15:47:18Z" changeset="124014980" uid="3497659" user="NKA">
		<tag k="name" v="Myrholt" />
		<tag k="place" v="farm" />
		<tag k="ssr:stedsnr" v="195925" />
	</node>
	<node id="9907820153" lat="63.6231264" lon="10.7687007" version="1" timestamp="2022-07-24T15:47:18Z" changeset="124014980" uid="3497659" user="NKA">
		<tag k="name" v="Gristad" />
		<tag k="place" v="farm" />
		<tag k="ssr:stedsnr" v="619963" />
	</node>
	<node id="9907820154" lat="63.6021257" lon="10.7278585" version="1" timestamp="2022-07-24T15:47:18Z" changeset="124014980" uid="3497659" user="NKA">
		<tag k="name" v="Nåvik" />
		<tag k="place" v="hamlet" />
		<tag k="ssr:stedsnr" v="530954" />
	</node>
	<node id="9907820155" lat="63.5565793" lon="10.6750974" version="1" timestamp="2022-07-24T15:47:18Z" changeset="124014980" uid="3497659" user="NKA">
		<tag k="name" v="Sandvei" />
		<tag k="place" v="farm" />
		<tag k="ssr:stedsnr" v="498281" />
	</node>
	<node id="9907820156" lat="63.5418526" lon="10.6623339" version="1" timestamp="2022-07-24T15:47:18Z" changeset="124014980" uid="3497659" user="NKA">
		<tag k="name" v="Sørli" />
		<tag k="place" v="farm" />
		<tag k="ssr:stedsnr" v="438210" />
	</node>
	<node id="9907820157" lat="63.5660043" lon="10.7006072" version="1" timestamp="2022-07-24T15:47:18Z" changeset="124014980" uid="3497659" user="NKA">
		<tag k="name" v="Kråklund" />
		<tag k="place" v="farm" />
		<tag k="ssr:stedsnr" v="619268" />
	</node>
	<node id="9907820158" lat="63.5596031" lon="10.6936471" version="1" timestamp="2022-07-24T15:47:18Z" changeset="124014980" uid="3497659" user="NKA">
		<tag k="name" v="Mostad" />
		<tag k="place" v="hamlet" />
		<tag k="ssr:stedsnr" v="777059" />
	</node>
	<node id="9907820159" lat="63.5627799" lon="10.6772203" version="1" timestamp="2022-07-24T15:47:18Z" changeset="124014980" uid="3497659" user="NKA">
		<tag k="name" v="Nordfjæra" />
		<tag k="place" v="hamlet" />
		<tag k="ssr:stedsnr" v="389073" />
	</node>
	<node id="9907820160" lat="63.544825" lon="10.6571334" version="1" timestamp="2022-07-24T15:47:18Z" changeset="124014980" uid="3497659" user="NKA">
		<tag k="alt_name" v="Hernes;Hernes, vestre" />
		<tag k="name" v="Vestre Hernes" />
		<tag k="place" v="farm" />
		<tag k="ssr:stedsnr" v="558237" />
	</node>
	<node id="9907820161" lat="63.5532245" lon="10.6596985" version="1" timestamp="2022-07-24T15:47:18Z" changeset="124014980" uid="3497659" user="NKA">
		<tag k="alt_name" v="Hernes, øvre" />
		<tag k="name" v="Øvre Hernes" />
		<tag k="place" v="farm" />
		<tag k="ssr:stedsnr" v="316259" />
	</node>
	<node id="9907820162" lat="63.566623" lon="10.6892365" version="1" timestamp="2022-07-24T15:47:18Z" changeset="124014980" uid="3497659" user="NKA">
		<tag k="alt_name" v="Mo, nordre;Mo nordre" />
		<tag k="name" v="Nordre Mo" />
		<tag k="place" v="farm" />
		<tag k="ssr:stedsnr" v="316216" />
	</node>
	<node id="9907820163" lat="63.5532021" lon="10.6619337" version="1" timestamp="2022-07-24T15:47:18Z" changeset="124014980" uid="3497659" user="NKA">
		<tag k="name" v="Hernes" />
		<tag k="place" v="hamlet" />
		<tag k="ssr:stedsnr" v="118828" />
	</node>
	<node id="9907820164" lat="63.5617504" lon="10.6756411" version="1" timestamp="2022-07-24T15:47:18Z" changeset="124014980" uid="3497659" user="NKA">
		<tag k="alt_name" v="Nordfjæra, søre" />
		<tag k="name" v="Søre Nordfjæra" />
		<tag k="place" v="farm" />
		<tag k="ssr:stedsnr" v="134294" />
	</node>
	<node id="9907820165" lat="63.5436587" lon="10.653663" version="1" timestamp="2022-07-24T15:47:18Z" changeset="124014980" uid="3497659" user="NKA">
		<tag k="name" v="Haugan" />
		<tag k="place" v="hamlet" />
		<tag k="ssr:stedsnr" v="316240" />
	</node>
	<node id="9907820166" lat="63.5627406" lon="10.68153" version="1" timestamp="2022-07-24T15:47:18Z" changeset="124014980" uid="3497659" user="NKA">
		<tag k="name" v="Rønning" />
		<tag k="place" v="farm" />
		<tag k="ssr:stedsnr" v="894772" />
	</node>
	<node id="9907820167" lat="63.5682555" lon="10.6972055" version="1" timestamp="2022-07-24T15:47:18Z" changeset="124014980" uid="3497659" user="NKA">
		<tag k="name" v="Logtunmyra" />
		<tag k="place" v="locality" />
		<tag k="ssr:stedsnr" v="712758" />
	</node>
	<node id="9907820168" lat="63.5566972" lon="10.6865924" version="1" timestamp="2022-07-24T15:47:18Z" changeset="124014980" uid="3497659" user="NKA">
		<tag k="name" v="Valtun" />
		<tag k="place" v="farm" />
		<tag k="ssr:stedsnr" v="46135" />
	</node>
	<node id="9907820169" lat="63.546996" lon="10.6497017" version="1" timestamp="2022-07-24T15:47:18Z" changeset="124014980" uid="3497659" user="NKA">
		<tag k="name" v="Oldret" />
		<tag k="place" v="farm" />
		<tag k="ssr:stedsnr" v="134274" />
	</node>
	<node id="9907820170" lat="63.6309945" lon="10.7657416" version="1" timestamp="2022-07-24T15:47:18Z" changeset="124014980" uid="3497659" user="NKA">
		<tag k="name" v="Sandberga" />
		<tag k="place" v="neighbourhood" />
		<tag k="ssr:stedsnr" v="712965" />
	</node>
	<node id="9907820171" lat="63.6418222" lon="10.8658222" version="1" timestamp="2022-07-24T15:47:18Z" changeset="124014980" uid="3497659" user="NKA">
		<tag k="name" v="Sørenplassen" />
		<tag k="place" v="farm" />
		<tag k="ssr:stedsnr" v="376982" />
	</node>
	<node id="9907820172" lat="63.5737978" lon="10.7229716" version="1" timestamp="2022-07-24T15:47:18Z" changeset="124014980" uid="3497659" user="NKA">
		<tag k="name" v="Løkstad" />
		<tag k="place" v="farm" />
		<tag k="ssr:stedsnr" v="653351" />
	</node>
	<node id="9907820173" lat="63.6323748" lon="10.8112527" version="1" timestamp="2022-07-24T15:47:18Z" changeset="124014980" uid="3497659" user="NKA">
		<tag k="name" v="Hellberg" />
		<tag k="place" v="farm" />
		<tag k="ssr:stedsnr" v="255990" />
	</node>
	<node id="9907820174" lat="63.5755418" lon="10.6100312" version="1" timestamp="2022-07-24T15:47:18Z" changeset="124014980" uid="3497659" user="NKA">
		<tag k="name" v="Grande" />
		<tag k="place" v="farm" />
		<tag k="ssr:stedsnr" v="653016" />
	</node>
	<node id="9907820175" lat="63.5724492" lon="10.596509" version="1" timestamp="2022-07-24T15:47:18Z" changeset="124014980" uid="3497659" user="NKA">
		<tag k="name" v="Sandan" />
		<tag k="place" v="farm" />
		<tag k="ssr:stedsnr" v="498251" />
	</node>
	<node id="9907820176" lat="63.570029" lon="10.7183006" version="1" timestamp="2022-07-24T15:47:18Z" changeset="124014980" uid="3497659" user="NKA">
		<tag k="name" v="Midttun" />
		<tag k="place" v="farm" />
		<tag k="ssr:stedsnr" v="471347" />
	</node>
	<node id="9907820177" lat="63.6509336" lon="10.9110737" version="1" timestamp="2022-07-24T15:47:18Z" changeset="124014980" uid="3497659" user="NKA">
		<tag k="name" v="Fjellplassen" />
		<tag k="place" v="farm" />
		<tag k="ssr:stedsnr" v="195031" />
	</node>
	<node id="9907820178" lat="63.5905488" lon="10.8307143" version="1" timestamp="2022-07-24T15:47:18Z" changeset="124014980" uid="3497659" user="NKA">
		<tag k="name" v="Steine" />
		<tag k="place" v="hamlet" />
		<tag k="ssr:stedsnr" v="377865" />
	</node>
	<node id="9907820179" lat="63.5825251" lon="10.7756439" version="1" timestamp="2022-07-24T15:47:18Z" changeset="124014980" uid="3497659" user="NKA">
		<tag k="name" v="Kvarme" />
		<tag k="place" v="hamlet" />
		<tag k="ssr:stedsnr" v="256793" />
	</node>
	<node id="9907820180" lat="63.6004201" lon="10.723747" version="1" timestamp="2022-07-24T15:47:18Z" changeset="124014980" uid="3497659" user="NKA">
		<tag k="alt_name" v="Nåvik;Nåvikan;Nåvik nedre" />
		<tag k="name" v="Nedre Nåvik" />
		<tag k="place" v="farm" />
		<tag k="ssr:stedsnr" v="741922" />
	</node>
	<node id="9907820181" lat="63.5854498" lon="10.806727" version="1" timestamp="2022-07-24T15:47:18Z" changeset="124014980" uid="3497659" user="NKA">
		<tag k="name" v="Vågen" />
		<tag k="place" v="hamlet" />
		<tag k="ssr:stedsnr" v="316917" />
	</node>
	<node id="9907820182" lat="63.5907047" lon="10.7072115" version="1" timestamp="2022-07-24T15:47:18Z" changeset="124014980" uid="3497659" user="NKA">
		<tag k="name" v="Trøan" />
		<tag k="place" v="farm" />
		<tag k="ssr:stedsnr" v="591804" />
	</node>
	<node id="9907820183" lat="63.550369" lon="10.6861057" version="1" timestamp="2022-07-24T15:47:18Z" changeset="124014980" uid="3497659" user="NKA">
		<tag k="name" v="Galtvik" />
		<tag k="place" v="farm" />
		<tag k="ssr:stedsnr" v="498279" />
	</node>
	<node id="9907820184" lat="63.6103917" lon="10.8938584" version="1" timestamp="2022-07-24T15:47:18Z" changeset="124014980" uid="3497659" user="NKA">
		<tag k="name" v="Litlgjerdet" />
		<tag k="place" v="farm" />
		<tag k="ssr:stedsnr" v="134917" />
	</node>
	<node id="9907820185" lat="63.5811834" lon="10.7485471" version="1" timestamp="2022-07-24T15:47:18Z" changeset="124014980" uid="3497659" user="NKA">
		<tag k="name" v="Gorset" />
		<tag k="place" v="farm" />
		<tag k="ssr:stedsnr" v="134838" />
	</node>
	<node id="9907820186" lat="63.5787044" lon="10.6930968" version="1" timestamp="2022-07-24T15:47:18Z" changeset="124014980" uid="3497659" user="NKA">
		<tag k="alt_name" v="Hogstad, nedre" />
		<tag k="name" v="Nedre Hogstad" />
		<tag k="place" v="farm" />
		<tag k="ssr:stedsnr" v="377186" />
	</node>
	<node id="9907820187" lat="63.5902389" lon="10.6978278" version="1" timestamp="2022-07-24T15:47:18Z" changeset="124014980" uid="3497659" user="NKA">
		<tag k="name" v="Granheim" />
		<tag k="place" v="farm" />
		<tag k="ssr:stedsnr" v="863303" />
	</node>
	<node id="9907820188" lat="63.6352594" lon="10.8551956" version="1" timestamp="2022-07-24T15:47:18Z" changeset="124014980" uid="3497659" user="NKA">
		<tag k="name" v="Feset" />
		<tag k="place" v="farm" />
		<tag k="ssr:stedsnr" v="680990" />
	</node>
	<node id="9907820189" lat="63.5686806" lon="10.6739666" version="1" timestamp="2022-07-24T15:47:18Z" changeset="124014980" uid="3497659" user="NKA">
		<tag k="alt_name" v="Ryggvik" />
		<tag k="name" v="Ryggavika" />
		<tag k="place" v="farm" />
		<tag k="ssr:stedsnr" v="437214" />
	</node>
	<node id="9907820190" lat="63.5611654" lon="10.7033918" version="1" timestamp="2022-07-24T15:47:18Z" changeset="124014980" uid="3497659" user="NKA">
		<tag k="name" v="Mostadtrøa" />
		<tag k="place" v="farm" />
		<tag k="ssr:stedsnr" v="411637" />
	</node>
	<node id="9907820191" lat="63.6060184" lon="10.8457345" version="1" timestamp="2022-07-24T15:47:18Z" changeset="124014980" uid="3497659" user="NKA">
		<tag k="name" v="Dalsveet" />
		<tag k="place" v="farm" />
		<tag k="ssr:stedsnr" v="255910" />
	</node>
	<node id="9907820192" lat="63.5775473" lon="10.6213512" version="1" timestamp="2022-07-24T15:47:18Z" changeset="124014980" uid="3497659" user="NKA">
		<tag k="name" v="Tautra" />
		<tag k="place" v="hamlet" />
		<tag k="ssr:stedsnr" v="105066" />
	</node>
	<node id="9907820193" lat="63.6237322" lon="10.7585834" version="1" timestamp="2022-07-24T15:47:18Z" changeset="124014980" uid="3497659" user="NKA">
		<tag k="name" v="Vigtil" />
		<tag k="place" v="village" />
		<tag k="ssr:stedsnr" v="559951" />
	</node>
	<node id="9907820194" lat="63.629639" lon="10.7624239" version="1" timestamp="2022-07-24T15:47:18Z" changeset="124014980" uid="3497659" user="NKA">
		<tag k="name" v="Ohlen" />
		<tag k="place" v="farm" />
		<tag k="ssr:stedsnr" v="348945" />
	</node>
	<node id="9907820195" lat="63.6075014" lon="10.852176" version="1" timestamp="2022-07-24T15:47:18Z" changeset="124014980" uid="3497659" user="NKA">
		<tag k="name" v="Aspmodal" />
		<tag k="place" v="farm" />
		<tag k="ssr:stedsnr" v="349213" />
	</node>
	<node id="9907820196" lat="63.576902" lon="10.7016867" version="1" timestamp="2022-07-24T15:47:18Z" changeset="124014980" uid="3497659" user="NKA">
		<tag k="name" v="Solli" />
		<tag k="place" v="farm" />
		<tag k="ssr:stedsnr" v="620201" />
	</node>
	<node id="9907820197" lat="63.6087405" lon="10.8907368" version="1" timestamp="2022-07-24T15:47:18Z" changeset="124014980" uid="3497659" user="NKA">
		<tag k="name" v="Kuvika" />
		<tag k="place" v="farm" />
		<tag k="ssr:stedsnr" v="350183" />
	</node>
	<node id="9907820198" lat="63.609985" lon="10.7144915" version="1" timestamp="2022-07-24T15:47:18Z" changeset="124014980" uid="3497659" user="NKA">
		<tag k="alt_name" v="Breidvika" />
		<tag k="name" v="Breivika" />
		<tag k="place" v="hamlet" />
		<tag k="ssr:stedsnr" v="802321" />
	</node>
	<node id="9907820199" lat="63.6118758" lon="10.8070125" version="1" timestamp="2022-07-24T15:47:18Z" changeset="124014980" uid="3497659" user="NKA">
		<tag k="name" v="Rønningen" />
		<tag k="place" v="farm" />
		<tag k="ssr:stedsnr" v="619934" />
	</node>
	<node id="9907820200" lat="63.5583378" lon="10.6722185" version="1" timestamp="2022-07-24T15:47:18Z" changeset="124014980" uid="3497659" user="NKA">
		<tag k="name" v="Hernesmarka" />
		<tag k="place" v="farm" />
		<tag k="ssr:stedsnr" v="229650" />
	</node>
	<node id="9907820201" lat="63.5686612" lon="10.7245187" version="1" timestamp="2022-07-24T15:47:18Z" changeset="124014980" uid="3497659" user="NKA">
		<tag k="name" v="Vikaleiret" />
		<tag k="place" v="hamlet" />
		<tag k="ssr:stedsnr" v="741876" />
	</node>
	<node id="9907820202" lat="63.5758195" lon="10.7453166" version="1" timestamp="2022-07-24T15:47:18Z" changeset="124014980" uid="3497659" user="NKA">
		<tag k="alt_name" v="Vika, øvre" />
		<tag k="name" v="Øvre Vika" />
		<tag k="place" v="farm" />
		<tag k="ssr:stedsnr" v="741855" />
	</node>
	<node id="9907820203" lat="63.5776256" lon="10.7107651" version="1" timestamp="2022-07-24T15:47:18Z" changeset="124014980" uid="3497659" user="NKA">
		<tag k="alt_name" v="Lein, vestre" />
		<tag k="name" v="Vestre Lein" />
		<tag k="place" v="farm" />
		<tag k="ssr:stedsnr" v="498265" />
	</node>
	<node id="9907820204" lat="63.6169152" lon="10.7573621" version="1" timestamp="2022-07-24T15:47:18Z" changeset="124014980" uid="3497659" user="NKA">
		<tag k="name" v="Åsen" />
		<tag k="place" v="farm" />
		<tag k="ssr:stedsnr" v="316943" />
	</node>
	<node id="9907820205" lat="63.5671672" lon="10.6794429" version="1" timestamp="2022-07-24T15:47:18Z" changeset="124014980" uid="3497659" user="NKA">
		<tag k="alt_name" v="Nordfjæra nordre" />
		<tag k="name" v="Nordre Nordfjæra" />
		<tag k="place" v="farm" />
		<tag k="ssr:stedsnr" v="592704" />
	</node>
	<node id="9907820206" lat="63.5538005" lon="10.6622553" version="1" timestamp="2022-07-24T15:47:18Z" changeset="124014980" uid="3497659" user="NKA">
		<tag k="name" v="Nygården" />
		<tag k="place" v="farm" />
		<tag k="ssr:stedsnr" v="741292" />
	</node>
	<node id="9907820207" lat="63.5816153" lon="10.6760105" version="1" timestamp="2022-07-24T15:47:18Z" changeset="124014980" uid="3497659" user="NKA">
		<tag k="name" v="Holmberget" />
		<tag k="place" v="hamlet" />
		<tag k="ssr:stedsnr" v="753052" />
	</node>
	<node id="9907820208" lat="63.5454596" lon="10.6780365" version="1" timestamp="2022-07-24T15:47:18Z" changeset="124014980" uid="3497659" user="NKA">
		<tag k="name" v="Sørgrenda" />
		<tag k="place" v="hamlet" />
		<tag k="ssr:stedsnr" v="619253" />
	</node>
	<node id="9907820209" lat="63.5534476" lon="10.6700703" version="1" timestamp="2022-07-24T15:47:18Z" changeset="124014980" uid="3497659" user="NKA">
		<tag k="name" v="Valberg" />
		<tag k="place" v="farm" />
		<tag k="ssr:stedsnr" v="255227" />
	</node>
	<node id="9907820210" lat="63.6299253" lon="10.8550465" version="1" timestamp="2022-07-24T15:47:18Z" changeset="124014980" uid="3497659" user="NKA">
		<tag k="name" v="Svean" />
		<tag k="place" v="farm" />
		<tag k="ssr:stedsnr" v="774090" />
	</node>
	<node id="9907820211" lat="63.5730073" lon="10.6051411" version="1" timestamp="2022-07-24T15:47:18Z" changeset="124014980" uid="3497659" user="NKA">
		<tag k="alt_name" v="Tautra, s;Sør-Tautra;Tautra" />
		<tag k="name" v="Søre Tautra" />
		<tag k="place" v="hamlet" />
		<tag k="ssr:stedsnr" v="741231" />
	</node>
	<node id="9907820212" lat="63.5933806" lon="10.7311556" version="1" timestamp="2022-07-24T15:47:18Z" changeset="124014980" uid="3497659" user="NKA">
		<tag k="name" v="Skogbrynet" />
		<tag k="place" v="neighbourhood" />
		<tag k="ssr:stedsnr" v="713895" />
	</node>
	<node id="9907820213" lat="63.6320247" lon="10.8101199" version="1" timestamp="2022-07-24T15:47:18Z" changeset="124014980" uid="3497659" user="NKA">
		<tag k="name" v="Skogen" />
		<tag k="place" v="farm" />
		<tag k="ssr:stedsnr" v="680994" />
	</node>
	<node id="9907820214" lat="63.5980772" lon="10.8426903" version="1" timestamp="2022-07-24T15:47:18Z" changeset="124014980" uid="3497659" user="NKA">
		<tag k="name" v="Ulvik" />
		<tag k="place" v="farm" />
		<tag k="ssr:stedsnr" v="714227" />
	</node>
	<node id="9907820215" lat="63.6238" lon="10.7768972" version="1" timestamp="2022-07-24T15:47:18Z" changeset="124014980" uid="3497659" user="NKA">
		<tag k="name" v="Kalvhagan" />
		<tag k="place" v="farm" />
		<tag k="ssr:stedsnr" v="349972" />
	</node>
	<node id="9907820216" lat="63.6286564" lon="10.8807981" version="1" timestamp="2022-07-24T15:47:18Z" changeset="124014980" uid="3497659" user="NKA">
		<tag k="name" v="Lutdalen" />
		<tag k="place" v="hamlet" />
		<tag k="ssr:stedsnr" v="316993" />
	</node>
	<node id="9907820217" lat="63.5768915" lon="10.7473734" version="1" timestamp="2022-07-24T15:47:18Z" changeset="124014980" uid="3497659" user="NKA">
		<tag k="name" v="Vika" />
		<tag k="place" v="hamlet" />
		<tag k="ssr:stedsnr" v="976232" />
	</node>
	<node id="9907820218" lat="63.574225" lon="10.7316223" version="1" timestamp="2022-07-24T15:47:18Z" changeset="124014980" uid="3497659" user="NKA">
		<tag k="name" v="Holte" />
		<tag k="place" v="farm" />
		<tag k="ssr:stedsnr" v="438811" />
	</node>
	<node id="9907820219" lat="63.6004134" lon="10.7926858" version="1" timestamp="2022-07-24T15:47:18Z" changeset="124014980" uid="3497659" user="NKA">
		<tag k="name" v="Hogstad" />
		<tag k="place" v="farm" />
		<tag k="ssr:stedsnr" v="316929" />
	</node>
	<node id="9907820220" lat="63.5624334" lon="10.700154" version="1" timestamp="2022-07-24T15:47:18Z" changeset="124014980" uid="3497659" user="NKA">
		<tag k="name" v="Moum" />
		<tag k="place" v="farm" />
		<tag k="ssr:stedsnr" v="923264" />
	</node>
	<node id="9907820221" lat="63.5847435" lon="10.73677" version="1" timestamp="2022-07-24T15:47:18Z" changeset="124014980" uid="3497659" user="NKA">
		<tag k="name" v="Alstad østre" />
		<tag k="place" v="farm" />
		<tag k="ssr:stedsnr" v="985856" />
	</node>
	<node id="9907820222" lat="63.5765899" lon="10.758084" version="1" timestamp="2022-07-24T15:47:18Z" changeset="124014980" uid="3497659" user="NKA">
		<tag k="name" v="Sveet" />
		<tag k="place" v="farm" />
		<tag k="ssr:stedsnr" v="923846" />
	</node>
	<node id="9907820223" lat="63.6182639" lon="10.8097194" version="1" timestamp="2022-07-24T15:47:18Z" changeset="124014980" uid="3497659" user="NKA">
		<tag k="name" v="Nordre Kvamman" />
		<tag k="place" v="farm" />
		<tag k="ssr:stedsnr" v="498939" />
	</node>
	<node id="9907820224" lat="63.5852759" lon="10.7175283" version="1" timestamp="2022-07-24T15:47:18Z" changeset="124014980" uid="3497659" user="NKA">
		<tag k="name" v="Risan" />
		<tag k="place" v="hamlet" />
		<tag k="ssr:stedsnr" v="802198" />
	</node>
	<node id="9907820225" lat="63.6006917" lon="10.8487307" version="1" timestamp="2022-07-24T15:47:18Z" changeset="124014980" uid="3497659" user="NKA">
		<tag k="name" v="Ospguttu" />
		<tag k="place" v="farm" />
		<tag k="ssr:stedsnr" v="923886" />
	</node>
	<node id="2354939665" lat="63.5376612" lon="10.6473611" version="3" timestamp="2015-10-19T16:20:32Z" changeset="34736396" uid="3296383" user="Reitstoen_import" />
	<node id="2354939667" lat="63.537575" lon="10.6477389" version="3" timestamp="2015-10-19T16:20:32Z" changeset="34736396" uid="3296383" user="Reitstoen_import" />
	<node id="2354939668" lat="63.5373778" lon="10.6476167" version="3" timestamp="2015-10-19T16:20:32Z" changeset="34736396" uid="3296383" user="Reitstoen_import" />
	<node id="2354939997" lat="63.5373695" lon="10.6472861" version="2" timestamp="2015-10-19T16:20:32Z" changeset="34736396" uid="3296383" user="Reitstoen_import" />
	<node id="3792886757" lat="63.5374139" lon="10.6472111" version="1" timestamp="2015-10-19T16:19:10Z" changeset="34736396" uid="3296383" user="Reitstoen_import" />
	<node id="3792886758" lat="63.5374778" lon="10.647864" version="1" timestamp="2015-10-19T16:19:10Z" changeset="34736396" uid="3296383" user="Reitstoen_import" />
	<node id="3792886759" lat="63.5375083" lon="10.6471362" version="1" timestamp="2015-10-19T16:19:10Z" changeset="34736396" uid="3296383" user="Reitstoen_import" />
	<node id="3792886760" lat="63.5376028" lon="10.6471945" version="1" timestamp="2015-10-19T16:19:10Z" changeset="34736396" uid="3296383" user="Reitstoen_import" />
	<node id="5552137739" lat="63.5632152" lon="10.6418708" version="1" timestamp="2018-04-14T09:57:35Z" changeset="58085730" uid="7543313" user="ENTUR Fredrik Edler" />
	<node id="9445777855" lat="63.5648586" lon="10.6395923" version="1" timestamp="2022-01-24T21:00:15Z" changeset="116559033" uid="3497659" user="NKA" />
	<node id="1400156501" lat="63.5621557" lon="10.6433263" version="3" timestamp="2015-07-07T17:49:15Z" changeset="32477947" uid="1710144" user="rubund">
		<tag k="access" v="yes" />
		<tag k="barrier" v="gate" />
	</node>
	<way id="226739588" version="4" timestamp="2018-05-02T17:09:23Z" changeset="58620907" uid="3497659" user="NKA">
		<tag k="name" v="Slegga" />
		<tag k="natural" v="coastline" />
		<tag k="place" v="islet" />
		<tag k="source" v="Kartverket N50" />
		<tag k="source:date" v="1999-07-01" />
		<tag k="ssr:stedsnr" v="408938" />
		<nd ref="3792886760" />
		<nd ref="3792886759" />
		<nd ref="3792886757" />
		<nd ref="2354939997" />
		<nd ref="2354939668" />
		<nd ref="3792886758" />
		<nd ref="2354939667" />
		<nd ref="2354939665" />
		<nd ref="3792886760" />
	</way>
	<way id="342458426" version="7" timestamp="2022-01-24T21:00:15Z" changeset="116559033" uid="3497659" user="NKA">
		<tag k="bridge" v="yes" />
		<tag k="highway" v="secondary" />
		<tag k="lanes" v="1" />
		<tag k="layer" v="1" />
		<tag k="maxspeed" v="40" />
		<tag k="name" v="Tauterbrua" />
		<tag k="passing_places" v="yes" />
		<tag k="ref" v="6830" />
		<tag k="ssr:stedsnr" v="944932" />
		<nd ref="1400156501" />
		<nd ref="5552137739" />
	</way>
	<way id="579814153" version="4" timestamp="2022-01-24T21:00:15Z" changeset="116559033" uid="3497659" user="NKA">
		<tag k="bridge" v="yes" />
		<tag k="bridge:structure" v="beam" />
		<tag k="highway" v="secondary" />
		<tag k="lanes" v="1" />
		<tag k="layer" v="1" />
		<tag k="maxspeed" v="80" />
		<tag k="name" v="Tauterbrua" />
		<tag k="ref" v="6830" />
		<tag k="ssr:stedsnr" v="944932" />
		<nd ref="5552137739" />
		<nd ref="9445777855" />
	</way>
</osm>
