<?xml version="1.0" encoding="UTF-8"?>
<osm version="0.6" generator="osmapis">
	<node id="259865715" lat="69.0885272" lon="17.6934309" version="3" timestamp="2022-07-06T07:57:05Z" changeset="123264973" uid="3497659" user="NKA">
		<tag k="name" v="Brøstadbotn" />
		<tag k="place" v="village" />
		<tag k="ssr:stedsnr" v="807350" />
		<tag k="wikidata" v="Q1781995" />
		<tag k="wikipedia" v="en:Brøstadbotn" />
	</node>
	<node id="260688988" lat="69.0712278" lon="17.6597501" version="2" timestamp="2022-07-06T07:57:05Z" changeset="123264973" uid="3497659" user="NKA">
		<tag k="name" v="Bergan" />
		<tag k="place" v="hamlet" />
		<tag k="ssr:stedsnr" v="950143" />
	</node>
	<node id="260688989" lat="69.0609509" lon="17.6411039" version="2" timestamp="2022-07-06T07:57:05Z" changeset="123264973" uid="3497659" user="NKA">
		<tag k="name" v="Sæter" />
		<tag k="place" v="hamlet" />
		<tag k="ssr:stedsnr" v="817389" />
	</node>
	<node id="260688990" lat="69.0508634" lon="17.6120863" version="2" timestamp="2022-07-06T07:57:05Z" changeset="123264973" uid="3497659" user="NKA">
		<tag k="name" v="Hundstrand" />
		<tag k="place" v="hamlet" />
		<tag k="ssr:stedsnr" v="807328" />
	</node>
	<node id="9869726207" lat="69.0390346" lon="17.7311085" version="1" timestamp="2022-07-06T07:57:05Z" changeset="123264973" uid="3497659" user="NKA">
		<tag k="name" v="Myrvang" />
		<tag k="place" v="isolated_dwelling" />
		<tag k="ssr:stedsnr" v="322298" />
	</node>
	<node id="9869726208" lat="69.0787713" lon="17.7519904" version="1" timestamp="2022-07-06T07:57:05Z" changeset="123264973" uid="3497659" user="NKA">
		<tag k="alt_name" v="Finnfjellet, s" />
		<tag k="name" v="Søre Finnfjellet" />
		<tag k="old_name" v="Finnfjellet" />
		<tag k="place" v="farm" />
		<tag k="ssr:stedsnr" v="382347" />
	</node>
	<node id="9869726209" lat="69.0544951" lon="17.7963395" version="1" timestamp="2022-07-06T07:57:05Z" changeset="123264973" uid="3497659" user="NKA">
		<tag k="name" v="Langmyrmo" />
		<tag k="place" v="farm" />
		<tag k="ssr:stedsnr" v="37275" />
	</node>
	<node id="9869726210" lat="69.0800004" lon="17.7522608" version="1" timestamp="2022-07-06T07:57:05Z" changeset="123264973" uid="3497659" user="NKA">
		<tag k="name" v="Finnfjellet" />
		<tag k="place" v="farm" />
		<tag k="ssr:stedsnr" v="211379" />
	</node>
	<node id="9869726211" lat="69.0413945" lon="17.7259833" version="1" timestamp="2022-07-06T07:57:05Z" changeset="123264973" uid="3497659" user="NKA">
		<tag k="alt_name" v="Morstad;Nordahl" />
		<tag k="name" v="Norstad" />
		<tag k="place" v="farm" />
		<tag k="ssr:stedsnr" v="79309" />
	</node>
	<node id="9869726212" lat="69.0822278" lon="17.7426444" version="1" timestamp="2022-07-06T07:57:05Z" changeset="123264973" uid="3497659" user="NKA">
		<tag k="name" v="Nyheim" />
		<tag k="place" v="farm" />
		<tag k="ssr:stedsnr" v="79233" />
	</node>
	<node id="9869726213" lat="69.0853972" lon="17.7632665" version="1" timestamp="2022-07-06T07:57:05Z" changeset="123264973" uid="3497659" user="NKA">
		<tag k="alt_name" v="Finnfjellet, nordre;Finnefjellet nordre" />
		<tag k="name" v="Nordre Finnfjellet" />
		<tag k="place" v="farm" />
		<tag k="ssr:stedsnr" v="868354" />
	</node>
	<node id="9869726214" lat="69.0788687" lon="17.6816707" version="1" timestamp="2022-07-06T07:57:05Z" changeset="123264973" uid="3497659" user="NKA">
		<tag k="name" v="Nergård" />
		<tag k="place" v="farm" />
		<tag k="ssr:stedsnr" v="1077635" />
	</node>
	<node id="9869726215" lat="69.0845361" lon="17.6980973" version="1" timestamp="2022-07-06T07:57:05Z" changeset="123264973" uid="3497659" user="NKA">
		<tag k="name" v="Lia" />
		<tag k="place" v="farm" />
		<tag k="ssr:stedsnr" v="200240" />
	</node>
	<node id="9869726216" lat="68.9223139" lon="17.466914" version="1" timestamp="2022-07-06T07:57:05Z" changeset="123264973" uid="3497659" user="NKA">
		<tag k="name" v="Sætran" />
		<tag k="place" v="locality" />
		<tag k="ssr:stedsnr" v="476896" />
	</node>
	<node id="9869796217" lat="68.9251278" lon="17.4923388" version="1" timestamp="2022-07-06T07:57:05Z" changeset="123264973" uid="3497659" user="NKA">
		<tag k="name" v="Sommarheimen" />
		<tag k="place" v="locality" />
		<tag k="ssr:stedsnr" v="901907" />
	</node>
	<node id="9869796218" lat="69.0102916" lon="17.5241889" version="1" timestamp="2022-07-06T07:57:05Z" changeset="123264973" uid="3497659" user="NKA">
		<tag k="name" v="Rydningen" />
		<tag k="place" v="farm" />
		<tag k="ssr:stedsnr" v="927643" />
	</node>
	<node id="9869796219" lat="69.1338905" lon="17.8942786" version="1" timestamp="2022-07-06T07:57:05Z" changeset="123264973" uid="3497659" user="NKA">
		<tag k="alt_name" v="Søre Lavika;Lavika, s" />
		<tag k="name" v="Lavik" />
		<tag k="place" v="hamlet" />
		<tag k="ssr:stedsnr" v="443297" />
	</node>
	<node id="9869796220" lat="68.9811972" lon="17.4933362" version="1" timestamp="2022-07-06T07:57:05Z" changeset="123264973" uid="3497659" user="NKA">
		<tag k="name" v="Steinvoll" />
		<tag k="place" v="farm" />
		<tag k="ssr:stedsnr" v="901802" />
	</node>
	<node id="9869796221" lat="69.035422" lon="17.4657944" version="1" timestamp="2022-07-06T07:57:05Z" changeset="123264973" uid="3497659" user="NKA">
		<tag k="name" v="Hagan" />
		<tag k="place" v="locality" />
		<tag k="ssr:stedsnr" v="780181" />
	</node>
	<node id="9869796222" lat="69.0310667" lon="17.5546028" version="1" timestamp="2022-07-06T07:57:05Z" changeset="123264973" uid="3497659" user="NKA">
		<tag k="name" v="Bergli" />
		<tag k="place" v="farm" />
		<tag k="ssr:stedsnr" v="809255" />
	</node>
	<node id="9869796223" lat="69.0869667" lon="17.5642556" version="1" timestamp="2022-07-06T07:57:05Z" changeset="123264973" uid="3497659" user="NKA">
		<tag k="name" v="Sandvik" />
		<tag k="place" v="farm" />
		<tag k="ssr:stedsnr" v="685248" />
	</node>
	<node id="9869796224" lat="69.027318" lon="17.4567893" version="1" timestamp="2022-07-06T07:57:05Z" changeset="123264973" uid="3497659" user="NKA">
		<tag k="name" v="Sletta" />
		<tag k="place" v="farm" />
		<tag k="ssr:stedsnr" v="686639" />
	</node>
	<node id="9869796225" lat="69.0863112" lon="17.4972751" version="1" timestamp="2022-07-06T07:57:05Z" changeset="123264973" uid="3497659" user="NKA">
		<tag k="name" v="Seljevoll" />
		<tag k="place" v="farm" />
		<tag k="ssr:stedsnr" v="382240" />
	</node>
	<node id="9869796226" lat="69.083941" lon="17.5038111" version="1" timestamp="2022-07-06T07:57:05Z" changeset="123264973" uid="3497659" user="NKA">
		<tag k="name" v="Skogshamn" />
		<tag k="place" v="hamlet" />
		<tag k="ssr:stedsnr" v="597196" />
	</node>
	<node id="9869796227" lat="68.9829566" lon="17.5514819" version="1" timestamp="2022-07-06T07:57:05Z" changeset="123264973" uid="3497659" user="NKA">
		<tag k="alt_name" v="Faksfjord" />
		<tag k="name" v="Faksfjorden" />
		<tag k="place" v="hamlet" />
		<tag k="ssr:stedsnr" v="260935" />
	</node>
	<node id="9869796228" lat="68.9574548" lon="17.5642267" version="1" timestamp="2022-07-06T07:57:05Z" changeset="123264973" uid="3497659" user="NKA">
		<tag k="name" v="Sørfjorden" />
		<tag k="place" v="hamlet" />
		<tag k="ssr:stedsnr" v="321857" />
	</node>
	<node id="9869796229" lat="69.076025" lon="17.5489723" version="1" timestamp="2022-07-06T07:57:05Z" changeset="123264973" uid="3497659" user="NKA">
		<tag k="name" v="Furuheim hyttefelt" />
		<tag k="place" v="neighbourhood" />
		<tag k="ssr:stedsnr" v="829119" />
	</node>
	<node id="9869796230" lat="69.0429848" lon="17.5198645" version="1" timestamp="2022-07-06T07:57:05Z" changeset="123264973" uid="3497659" user="NKA">
		<tag k="name" v="Merkesnes" />
		<tag k="place" v="farm" />
		<tag k="ssr:stedsnr" v="151974" />
	</node>
	<node id="9869796231" lat="69.0261536" lon="17.4533897" version="1" timestamp="2022-07-06T07:57:05Z" changeset="123264973" uid="3497659" user="NKA">
		<tag k="name" v="Liasletta" />
		<tag k="place" v="farm" />
		<tag k="ssr:stedsnr" v="1077644" />
	</node>
	<node id="9869796232" lat="69.0329818" lon="17.4616617" version="1" timestamp="2022-07-06T07:57:05Z" changeset="123264973" uid="3497659" user="NKA">
		<tag k="name" v="Forså" />
		<tag k="place" v="hamlet" />
		<tag k="ssr:stedsnr" v="868302" />
	</node>
	<node id="9869796233" lat="69.0001639" lon="17.4170305" version="1" timestamp="2022-07-06T07:57:05Z" changeset="123264973" uid="3497659" user="NKA">
		<tag k="name" v="Myrlund" />
		<tag k="place" v="farm" />
		<tag k="ssr:stedsnr" v="807417" />
	</node>
	<node id="9869796234" lat="69.0394443" lon="17.5042512" version="1" timestamp="2022-07-06T07:57:05Z" changeset="123264973" uid="3497659" user="NKA">
		<tag k="name" v="Framnes" />
		<tag k="place" v="farm" />
		<tag k="ssr:stedsnr" v="719149" />
	</node>
	<node id="9869796235" lat="69.0151282" lon="17.4403909" version="1" timestamp="2022-07-06T07:57:05Z" changeset="123264973" uid="3497659" user="NKA">
		<tag k="alt_name" v="Stølfest" />
		<tag k="name" v="Sølvfest" />
		<tag k="place" v="farm" />
		<tag k="ssr:stedsnr" v="746620" />
	</node>
	<node id="9869796236" lat="69.0831028" lon="17.4355945" version="1" timestamp="2022-07-06T07:57:05Z" changeset="123264973" uid="3497659" user="NKA">
		<tag k="name" v="Sandnes" />
		<tag k="place" v="farm" />
		<tag k="ssr:stedsnr" v="746358" />
	</node>
	<node id="9869796237" lat="69.0082951" lon="17.3668548" version="1" timestamp="2022-07-06T07:57:05Z" changeset="123264973" uid="3497659" user="NKA">
		<tag k="alt_name" v="Vinje, store" />
		<tag k="name" v="Store Vinje" />
		<tag k="place" v="farm" />
		<tag k="ssr:stedsnr" v="139088" />
	</node>
	<node id="9869796238" lat="69.0290444" lon="17.3573194" version="1" timestamp="2022-07-06T07:57:05Z" changeset="123264973" uid="3497659" user="NKA">
		<tag k="name" v="Teien" />
		<tag k="place" v="farm" />
		<tag k="ssr:stedsnr" v="719892" />
	</node>
	<node id="9869796239" lat="69.0298456" lon="17.3567151" version="1" timestamp="2022-07-06T07:57:05Z" changeset="123264973" uid="3497659" user="NKA">
		<tag k="name" v="Berg" />
		<tag k="place" v="hamlet" />
		<tag k="ssr:stedsnr" v="79084" />
	</node>
	<node id="9869796240" lat="69.0715081" lon="17.3998375" version="1" timestamp="2022-07-06T07:57:05Z" changeset="123264973" uid="3497659" user="NKA">
		<tag k="name" v="Nordstorelva" />
		<tag k="place" v="locality" />
		<tag k="ssr:stedsnr" v="79007" />
	</node>
	<node id="9869796241" lat="69.0713861" lon="17.3999472" version="1" timestamp="2022-07-06T07:57:05Z" changeset="123264973" uid="3497659" user="NKA">
		<tag k="name" v="Storelvhaug" />
		<tag k="place" v="farm" />
		<tag k="ssr:stedsnr" v="719174" />
	</node>
	<node id="9869796242" lat="68.9946511" lon="17.4039788" version="1" timestamp="2022-07-06T07:57:05Z" changeset="123264973" uid="3497659" user="NKA">
		<tag k="name" v="Mikkelbostad" />
		<tag k="place" v="hamlet" />
		<tag k="ssr:stedsnr" v="17138" />
	</node>
	<node id="9869796243" lat="69.0073861" lon="17.3753888" version="1" timestamp="2022-07-06T07:57:05Z" changeset="123264973" uid="3497659" user="NKA">
		<tag k="name" v="Brenna" />
		<tag k="place" v="farm" />
		<tag k="ssr:stedsnr" v="841828" />
	</node>
	<node id="9869796244" lat="69.0086344" lon="17.3759956" version="1" timestamp="2022-07-06T07:57:05Z" changeset="123264973" uid="3497659" user="NKA">
		<tag k="name" v="Vinje" />
		<tag k="place" v="hamlet" />
		<tag k="ssr:stedsnr" v="688637" />
	</node>
	<node id="9869796245" lat="68.9964028" lon="17.4059916" version="1" timestamp="2022-07-06T07:57:05Z" changeset="123264973" uid="3497659" user="NKA">
		<tag k="name" v="Strand" />
		<tag k="place" v="farm" />
		<tag k="ssr:stedsnr" v="112822" />
	</node>
	<node id="9869796246" lat="69.0608805" lon="17.3897944" version="1" timestamp="2022-07-06T07:57:05Z" changeset="123264973" uid="3497659" user="NKA">
		<tag k="name" v="Storelva" />
		<tag k="place" v="farm" />
		<tag k="ssr:stedsnr" v="416757" />
	</node>
	<node id="9869796247" lat="69.0146232" lon="17.3645365" version="1" timestamp="2022-07-06T07:57:05Z" changeset="123264973" uid="3497659" user="NKA">
		<tag k="alt_name" v="Vinje, l;Vinje, lille" />
		<tag k="name" v="Litje Vinje" />
		<tag k="place" v="farm" />
		<tag k="ssr:stedsnr" v="139087" />
	</node>
	<node id="9869796248" lat="69.0125778" lon="17.385575" version="1" timestamp="2022-07-06T07:57:05Z" changeset="123264973" uid="3497659" user="NKA">
		<tag k="name" v="Skaubu" />
		<tag k="place" v="farm" />
		<tag k="ssr:stedsnr" v="79095" />
	</node>
	<node id="9869796249" lat="69.1151056" lon="17.69155" version="1" timestamp="2022-07-06T07:57:05Z" changeset="123264973" uid="3497659" user="NKA">
		<tag k="name" v="Nordhus" />
		<tag k="place" v="farm" />
		<tag k="ssr:stedsnr" v="584146" />
	</node>
	<node id="9869796250" lat="69.1288056" lon="17.8604112" version="1" timestamp="2022-07-06T07:57:05Z" changeset="123264973" uid="3497659" user="NKA">
		<tag k="name" v="Holtet hyttefelt" />
		<tag k="place" v="neighbourhood" />
		<tag k="ssr:stedsnr" v="768115" />
	</node>
	<node id="9869796251" lat="69.1034667" lon="17.7626555" version="1" timestamp="2022-07-06T07:57:05Z" changeset="123264973" uid="3497659" user="NKA">
		<tag k="name" v="Kvanto" />
		<tag k="place" v="farm" />
		<tag k="ssr:stedsnr" v="462028" />
	</node>
	<node id="9869796252" lat="69.1154007" lon="17.7945157" version="1" timestamp="2022-07-06T07:57:05Z" changeset="123264973" uid="3497659" user="NKA">
		<tag k="alt_name" v="Mobakken søndre" />
		<tag k="loc_name" v="Søndre Mobakken" />
		<tag k="name" v="Søre Mobakken" />
		<tag k="place" v="farm" />
		<tag k="ssr:stedsnr" v="463849" />
	</node>
	<node id="9869796253" lat="69.117225" lon="17.7999223" version="1" timestamp="2022-07-06T07:57:05Z" changeset="123264973" uid="3497659" user="NKA">
		<tag k="name" v="Mohamn" />
		<tag k="place" v="farm" />
		<tag k="ssr:stedsnr" v="261283" />
	</node>
	<node id="9869796254" lat="69.1128444" lon="17.7469527" version="1" timestamp="2022-07-06T07:57:05Z" changeset="123264973" uid="3497659" user="NKA">
		<tag k="name" v="Skogstad" />
		<tag k="place" v="farm" />
		<tag k="ssr:stedsnr" v="443274" />
	</node>
	<node id="9869796255" lat="69.1122222" lon="17.6791222" version="1" timestamp="2022-07-06T07:57:05Z" changeset="123264973" uid="3497659" user="NKA">
		<tag k="name" v="Betholmen vestre" />
		<tag k="place" v="farm" />
		<tag k="ssr:stedsnr" v="99579" />
	</node>
	<node id="9869796256" lat="69.1134461" lon="17.7506919" version="1" timestamp="2022-07-06T07:57:05Z" changeset="123264973" uid="3497659" user="NKA">
		<tag k="name" v="Espenes" />
		<tag k="place" v="hamlet" />
		<tag k="ssr:stedsnr" v="261273" />
	</node>
	<node id="9869796257" lat="69.0931061" lon="17.685368" version="1" timestamp="2022-07-06T07:57:05Z" changeset="123264973" uid="3497659" user="NKA">
		<tag k="name" v="Sollia" />
		<tag k="place" v="farm" />
		<tag k="ssr:stedsnr" v="200249" />
	</node>
	<node id="9869796258" lat="69.1267278" lon="17.8363029" version="1" timestamp="2022-07-06T07:57:05Z" changeset="123264973" uid="3497659" user="NKA">
		<tag k="name" v="Strand" />
		<tag k="place" v="farm" />
		<tag k="ssr:stedsnr" v="38150" />
	</node>
	<node id="9869796259" lat="69.1279428" lon="17.84954" version="1" timestamp="2022-07-06T07:57:05Z" changeset="123264973" uid="3497659" user="NKA">
		<tag k="alt_name" v="Forstrand" />
		<tag k="name" v="Furstrand" />
		<tag k="place" v="farm" />
		<tag k="ssr:stedsnr" v="888114" />
	</node>
	<node id="9869796260" lat="69.0934805" lon="17.6663793" version="1" timestamp="2022-07-06T07:57:05Z" changeset="123264973" uid="3497659" user="NKA">
		<tag k="name" v="Finnland" />
		<tag k="place" v="farm" />
		<tag k="ssr:stedsnr" v="200247" />
	</node>
	<node id="9869796261" lat="69.1272598" lon="17.8481819" version="1" timestamp="2022-07-06T07:57:05Z" changeset="123264973" uid="3497659" user="NKA">
		<tag k="name" v="Forstrand" />
		<tag k="place" v="hamlet" />
		<tag k="ssr:stedsnr" v="322266" />
	</node>
	<node id="9869796262" lat="69.1246278" lon="17.8303778" version="1" timestamp="2022-07-06T07:57:05Z" changeset="123264973" uid="3497659" user="NKA">
		<tag k="name" v="Bekkevoll" />
		<tag k="place" v="farm" />
		<tag k="ssr:stedsnr" v="746273" />
	</node>
	<node id="9869796263" lat="69.0175611" lon="17.8602029" version="1" timestamp="2022-07-06T07:57:05Z" changeset="123264973" uid="3497659" user="NKA">
		<tag k="name" v="Sætra" />
		<tag k="place" v="isolated_dwelling" />
		<tag k="ssr:stedsnr" v="705862" />
	</node>
	<node id="9869796264" lat="68.9991278" lon="17.8368333" version="1" timestamp="2022-07-06T07:57:05Z" changeset="123264973" uid="3497659" user="NKA">
		<tag k="alt_name" v="Skjelhaugan" />
		<tag k="name" v="Skjellhaugan" />
		<tag k="place" v="locality" />
		<tag k="ssr:stedsnr" v="442965" />
	</node>
	<node id="9869796265" lat="69.0540139" lon="17.7323807" version="1" timestamp="2022-07-06T07:57:05Z" changeset="123264973" uid="3497659" user="NKA">
		<tag k="alt_name" v="Huldrehågen" />
		<tag k="name" v="Huldrehaugen" />
		<tag k="place" v="farm" />
		<tag k="ssr:stedsnr" v="79334" />
	</node>
	<node id="9869796266" lat="69.0171445" lon="17.7363279" version="1" timestamp="2022-07-06T07:57:05Z" changeset="123264973" uid="3497659" user="NKA">
		<tag k="name" v="Rubben" />
		<tag k="place" v="locality" />
		<tag k="ssr:stedsnr" v="443627" />
	</node>
	<node id="9869796267" lat="69.0791443" lon="17.684948" version="1" timestamp="2022-07-06T07:57:05Z" changeset="123264973" uid="3497659" user="NKA">
		<tag k="name" v="Brøstad" />
		<tag k="place" v="quarter" />
		<tag k="ssr:stedsnr" v="719509" />
	</node>
	<node id="9869796268" lat="69.0639174" lon="17.7455202" version="1" timestamp="2022-07-06T07:57:05Z" changeset="123264973" uid="3497659" user="NKA">
		<tag k="name" v="Lunde" />
		<tag k="place" v="farm" />
		<tag k="ssr:stedsnr" v="200357" />
	</node>
	<node id="9869796269" lat="69.0554778" lon="17.7928942" version="1" timestamp="2022-07-06T07:57:05Z" changeset="123264973" uid="3497659" user="NKA">
		<tag k="alt_name" v="Langbakkan" />
		<tag k="name" v="Langbakken" />
		<tag k="place" v="hamlet" />
		<tag k="ssr:stedsnr" v="625350" />
	</node>
	<node id="9869796270" lat="69.0542222" lon="17.7999527" version="1" timestamp="2022-07-06T07:57:05Z" changeset="123264973" uid="3497659" user="NKA">
		<tag k="name" v="Øverli" />
		<tag k="place" v="farm" />
		<tag k="ssr:stedsnr" v="564342" />
	</node>
	<node id="9869796271" lat="69.0433026" lon="17.7286222" version="1" timestamp="2022-07-06T07:57:05Z" changeset="123264973" uid="3497659" user="NKA">
		<tag k="alt_name" v="Høymoen" />
		<tag k="name" v="Høgmo" />
		<tag k="place" v="farm" />
		<tag k="ssr:stedsnr" v="625318" />
	</node>
	<node id="9869796272" lat="69.0641813" lon="17.758779" version="1" timestamp="2022-07-06T07:57:05Z" changeset="123264973" uid="3497659" user="NKA">
		<tag k="name" v="Storli" />
		<tag k="place" v="farm" />
		<tag k="ssr:stedsnr" v="625353" />
	</node>
	<node id="9869796273" lat="69.0225313" lon="17.9199646" version="1" timestamp="2022-07-06T07:57:05Z" changeset="123264973" uid="3497659" user="NKA">
		<tag k="alt_name" v="Sandvik" />
		<tag k="name" v="Sandvika" />
		<tag k="place" v="hamlet" />
		<tag k="ssr:stedsnr" v="624644" />
	</node>
	<node id="9869796274" lat="69.0396417" lon="17.8452777" version="1" timestamp="2022-07-06T07:57:05Z" changeset="123264973" uid="3497659" user="NKA">
		<tag k="alt_name" v="Rud" />
		<tag k="name" v="Ruud" />
		<tag k="place" v="farm" />
		<tag k="ssr:stedsnr" v="625325" />
	</node>
	<node id="9869796275" lat="69.0323041" lon="17.7435895" version="1" timestamp="2022-07-06T07:57:05Z" changeset="123264973" uid="3497659" user="NKA">
		<tag k="name" v="Innigårdan" />
		<tag k="place" v="hamlet" />
		<tag k="ssr:stedsnr" v="220328" />
	</node>
	<node id="9869796276" lat="69.0339694" lon="17.7411527" version="1" timestamp="2022-07-06T07:57:05Z" changeset="123264973" uid="3497659" user="NKA">
		<tag k="name" v="Dalgård" />
		<tag k="place" v="farm" />
		<tag k="ssr:stedsnr" v="341305" />
	</node>
	<node id="9869796277" lat="69.0112944" lon="17.8976222" version="1" timestamp="2022-07-06T07:57:05Z" changeset="123264973" uid="3497659" user="NKA">
		<tag k="name" v="Strandly" />
		<tag k="place" v="farm" />
		<tag k="ssr:stedsnr" v="141247" />
	</node>
	<node id="9869796278" lat="69.0774111" lon="17.6787583" version="1" timestamp="2022-07-06T07:57:05Z" changeset="123264973" uid="3497659" user="NKA">
		<tag k="name" v="Sørsjøen" />
		<tag k="place" v="farm" />
		<tag k="ssr:stedsnr" v="112538" />
	</node>
	<node id="9869796279" lat="69.0252111" lon="17.6907305" version="1" timestamp="2022-07-06T07:57:05Z" changeset="123264973" uid="3497659" user="NKA">
		<tag k="name" v="Plassen" />
		<tag k="place" v="locality" />
		<tag k="ssr:stedsnr" v="38303" />
	</node>
	<node id="9869796280" lat="69.0122703" lon="17.7271067" version="1" timestamp="2022-07-06T07:57:05Z" changeset="123264973" uid="3497659" user="NKA">
		<tag k="name" v="Rubbåsen" />
		<tag k="place" v="farm" />
		<tag k="ssr:stedsnr" v="139638" />
	</node>
	<node id="9869796281" lat="69.0157944" lon="17.8775334" version="1" timestamp="2022-07-06T07:57:05Z" changeset="123264973" uid="3497659" user="NKA">
		<tag k="name" v="Sæter" />
		<tag k="place" v="isolated_dwelling" />
		<tag k="ssr:stedsnr" v="18595" />
	</node>
	<node id="9869796282" lat="69.122531" lon="17.8168896" version="1" timestamp="2022-07-06T07:57:05Z" changeset="123264973" uid="3497659" user="NKA">
		<tag k="name" v="Bråten" />
		<tag k="place" v="farm" />
		<tag k="ssr:stedsnr" v="975601" />
	</node>
	<node id="9869796283" lat="69.1302882" lon="17.872709" version="1" timestamp="2022-07-06T07:57:05Z" changeset="123264973" uid="3497659" user="NKA">
		<tag k="name" v="Solstrand" />
		<tag k="place" v="farm" />
		<tag k="ssr:stedsnr" v="322268" />
	</node>
	<node id="9869796284" lat="69.1163528" lon="17.798964" version="1" timestamp="2022-07-06T07:57:05Z" changeset="123264973" uid="3497659" user="NKA">
		<tag k="name" v="Moen" />
		<tag k="place" v="hamlet" />
		<tag k="ssr:stedsnr" v="322252" />
	</node>
	<node id="9869796285" lat="69.1352528" lon="17.8998196" version="1" timestamp="2022-07-06T07:57:05Z" changeset="123264973" uid="3497659" user="NKA">
		<tag k="alt_name" v="Lavika, nordre" />
		<tag k="name" v="Nordre Lavika" />
		<tag k="place" v="farm" />
		<tag k="ssr:stedsnr" v="443295" />
	</node>
	<node id="9869796286" lat="69.1092444" lon="17.6646749" version="1" timestamp="2022-07-06T07:57:05Z" changeset="123264973" uid="3497659" user="NKA">
		<tag k="name" v="Betholmen vestre" />
		<tag k="place" v="farm" />
		<tag k="ssr:stedsnr" v="787191" />
	</node>
	<node id="9869796287" lat="69.0818483" lon="17.6940242" version="1" timestamp="2022-07-06T07:57:05Z" changeset="123264973" uid="3497659" user="NKA">
		<tag k="name" v="Korgedalen boligfelt" />
		<tag k="place" v="neighbourhood" />
		<tag k="ssr:stedsnr" v="950141" />
	</node>
	<node id="9869796288" lat="69.1089" lon="17.7447472" version="1" timestamp="2022-07-06T07:57:05Z" changeset="123264973" uid="3497659" user="NKA">
		<tag k="name" v="Storhaugen" />
		<tag k="place" v="farm" />
		<tag k="ssr:stedsnr" v="504239" />
	</node>
	<node id="9869796289" lat="69.084775" lon="17.7751444" version="1" timestamp="2022-07-06T07:57:05Z" changeset="123264973" uid="3497659" user="NKA">
		<tag k="historic" v="shieling" />
		<tag k="name" v="Fjellset" />
		<tag k="place" v="isolated_dwelling" />
		<tag k="ssr:stedsnr" v="705202" />
	</node>
	<node id="9869796290" lat="69.1165639" lon="17.7714583" version="1" timestamp="2022-07-06T07:57:05Z" changeset="123264973" uid="3497659" user="NKA">
		<tag k="name" v="Haug" />
		<tag k="place" v="farm" />
		<tag k="ssr:stedsnr" v="868263" />
	</node>
	<node id="9869796291" lat="69.1235995" lon="17.8211685" version="1" timestamp="2022-07-06T07:57:05Z" changeset="123264973" uid="3497659" user="NKA">
		<tag k="alt_name" v="Enga" />
		<tag k="name" v="Engen" />
		<tag k="place" v="farm" />
		<tag k="ssr:stedsnr" v="382272" />
	</node>
	<node id="9869796292" lat="69.0938306" lon="17.6956888" version="1" timestamp="2022-07-06T07:57:05Z" changeset="123264973" uid="3497659" user="NKA">
		<tag k="name" v="Lundheim" />
		<tag k="place" v="farm" />
		<tag k="ssr:stedsnr" v="503231" />
	</node>
	<node id="9869796293" lat="69.1185949" lon="17.8019615" version="1" timestamp="2022-07-06T07:57:05Z" changeset="123264973" uid="3497659" user="NKA">
		<tag k="alt_name" v="Mobakken nordre" />
		<tag k="name" v="Nordre Mobakken" />
		<tag k="place" v="farm" />
		<tag k="ssr:stedsnr" v="644855" />
	</node>
	<node id="9869796294" lat="69.1126971" lon="17.6827763" version="1" timestamp="2022-07-06T07:57:05Z" changeset="123264973" uid="3497659" user="NKA">
		<tag k="alt_name" v="Betholmen" />
		<tag k="name" v="Bettholmen" />
		<tag k="place" v="farm" />
		<tag k="ssr:stedsnr" v="451389" />
	</node>
	<node id="9869796295" lat="69.1144528" lon="17.6868668" version="1" timestamp="2022-07-06T07:57:05Z" changeset="123264973" uid="3497659" user="NKA">
		<tag k="name" v="Betholmen" />
		<tag k="old_name" v="Bettholmen" />
		<tag k="place" v="farm" />
		<tag k="ssr:stedsnr" v="571614" />
	</node>
	<node id="9869796296" lat="69.0820834" lon="17.6921056" version="1" timestamp="2022-07-06T07:57:05Z" changeset="123264973" uid="3497659" user="NKA">
		<tag k="name" v="Nyrud" />
		<tag k="place" v="farm" />
		<tag k="ssr:stedsnr" v="624259" />
	</node>
	<node id="9869796297" lat="69.1127055" lon="17.7906888" version="1" timestamp="2022-07-06T07:57:05Z" changeset="123264973" uid="3497659" user="NKA">
		<tag k="name" v="Einemo" />
		<tag k="place" v="farm" />
		<tag k="ssr:stedsnr" v="625278" />
	</node>
	<node id="9869796298" lat="69.084925" lon="17.7635805" version="1" timestamp="2022-07-06T07:57:05Z" changeset="123264973" uid="3497659" user="NKA">
		<tag k="name" v="Skoglund" />
		<tag k="place" v="farm" />
		<tag k="ssr:stedsnr" v="321346" />
	</node>
	<node id="9869796299" lat="69.0851944" lon="17.7198029" version="1" timestamp="2022-07-06T07:57:05Z" changeset="123264973" uid="3497659" user="NKA">
		<tag k="alt_name" v="Fossmoen" />
		<tag k="name" v="Fossmo" />
		<tag k="place" v="farm" />
		<tag k="ssr:stedsnr" v="624257" />
	</node>
	<node id="9869796300" lat="69.0892398" lon="17.703552" version="1" timestamp="2022-07-06T07:57:05Z" changeset="123264973" uid="3497659" user="NKA">
		<tag k="name" v="Finnlandsmoan" />
		<tag k="place" v="neighbourhood" />
		<tag k="ssr:stedsnr" v="141245" />
	</node>
	<node id="9869796301" lat="69.0811194" lon="17.6856665" version="1" timestamp="2022-07-06T07:57:05Z" changeset="123264973" uid="3497659" user="NKA">
		<tag k="name" v="Brøstad boligfelt" />
		<tag k="place" v="farm" />
		<tag k="ssr:stedsnr" v="282116" />
	</node>
	<node id="9869796302" lat="69.1244167" lon="17.9068277" version="1" timestamp="2022-07-06T07:57:05Z" changeset="123264973" uid="3497659" user="NKA">
		<tag k="name" v="Vakkerheimen" />
		<tag k="place" v="locality" />
		<tag k="ssr:stedsnr" v="112769" />
	</node>
	<node id="9869796303" lat="69.1300641" lon="17.8709743" version="1" timestamp="2022-07-06T07:57:05Z" changeset="123264973" uid="3497659" user="NKA">
		<tag k="name" v="Lavika" />
		<tag k="place" v="farm" />
		<tag k="ssr:stedsnr" v="85192" />
	</node>
	<node id="9869796304" lat="69.0843694" lon="17.5507565" version="1" timestamp="2022-07-06T07:57:05Z" changeset="123264973" uid="3497659" user="NKA">
		<tag k="name" v="Dyrøyklauva" />
		<tag k="place" v="farm" />
		<tag k="ssr:stedsnr" v="928222" />
	</node>
	<node id="9869796305" lat="68.9468204" lon="17.4789685" version="1" timestamp="2022-07-06T07:57:05Z" changeset="123264973" uid="3497659" user="NKA">
		<tag k="alt_name" v="Nordre Giskevik" />
		<tag k="name" v="Nordre Gjeskevika" />
		<tag k="place" v="locality" />
		<tag k="ssr:stedsnr" v="1077637" />
	</node>
	<node id="9869796306" lat="69.0936119" lon="17.6242286" version="1" timestamp="2022-07-06T07:57:05Z" changeset="123264973" uid="3497659" user="NKA">
		<tag k="alt_name" v="Finnlandsnesset" />
		<tag k="name" v="Finnlandsneset" />
		<tag k="place" v="farm" />
		<tag k="ssr:stedsnr" v="1077632" />
	</node>
	<node id="9869796307" lat="69.0812037" lon="17.5352277" version="1" timestamp="2022-07-06T07:57:05Z" changeset="123264973" uid="3497659" user="NKA">
		<tag k="alt_name" v="Espejorda" />
		<tag k="name" v="Espejord" />
		<tag k="place" v="hamlet" />
		<tag k="ssr:stedsnr" v="261378" />
	</node>
	<node id="9869796308" lat="69.0844611" lon="17.5101166" version="1" timestamp="2022-07-06T07:57:05Z" changeset="123264973" uid="3497659" user="NKA">
		<tag k="alt_name" v="Skarli" />
		<tag k="name" v="Skardlia" />
		<tag k="place" v="farm" />
		<tag k="ssr:stedsnr" v="139256" />
	</node>
	<node id="9869796309" lat="69.0821055" lon="17.5293666" version="1" timestamp="2022-07-06T07:57:05Z" changeset="123264973" uid="3497659" user="NKA">
		<tag k="name" v="Aspelia" />
		<tag k="place" v="farm" />
		<tag k="ssr:stedsnr" v="139382" />
	</node>
	<node id="9869796310" lat="69.0329694" lon="17.5582583" version="1" timestamp="2022-07-06T07:57:05Z" changeset="123264973" uid="3497659" user="NKA">
		<tag k="name" v="Vollstad" />
		<tag k="place" v="farm" />
		<tag k="ssr:stedsnr" v="901346" />
	</node>
	<node id="9869796311" lat="68.9876776" lon="17.4903934" version="1" timestamp="2022-07-06T07:57:05Z" changeset="123264973" uid="3497659" user="NKA">
		<tag k="name" v="Kastnes" />
		<tag k="place" v="farm" />
		<tag k="ssr:stedsnr" v="515518" />
	</node>
	<node id="9869796312" lat="69.0395966" lon="17.4974955" version="1" timestamp="2022-07-06T07:57:05Z" changeset="123264973" uid="3497659" user="NKA">
		<tag k="name" v="Holm" />
		<tag k="place" v="hamlet" />
		<tag k="ssr:stedsnr" v="807315" />
	</node>
	<node id="9869796313" lat="69.026425" lon="17.5450555" version="1" timestamp="2022-07-06T07:57:05Z" changeset="123264973" uid="3497659" user="NKA">
		<tag k="name" v="Rye" />
		<tag k="place" v="farm" />
		<tag k="ssr:stedsnr" v="504636" />
	</node>
	<node id="9869796314" lat="69.0575544" lon="17.6245801" version="1" timestamp="2022-07-06T07:57:05Z" changeset="123264973" uid="3497659" user="NKA">
		<tag k="name" v="Søre Sæter" />
		<tag k="old_name" v="Sæter, s" />
		<tag k="place" v="farm" />
		<tag k="ssr:stedsnr" v="504322" />
	</node>
	<node id="9869796315" lat="69.0062861" lon="17.4288473" version="1" timestamp="2022-07-06T07:57:05Z" changeset="123264973" uid="3497659" user="NKA">
		<tag k="name" v="Nyset" />
		<tag k="place" v="farm" />
		<tag k="ssr:stedsnr" v="442651" />
	</node>
	<node id="9869796316" lat="69.037301" lon="17.5720862" version="1" timestamp="2022-07-06T07:57:05Z" changeset="123264973" uid="3497659" user="NKA">
		<tag k="alt_name" v="Steffanes, nedre" />
		<tag k="name" v="Nedre Steffanes" />
		<tag k="place" v="farm" />
		<tag k="ssr:stedsnr" v="504289" />
	</node>
	<node id="9869796317" lat="69.06895" lon="17.3980862" version="1" timestamp="2022-07-06T07:57:05Z" changeset="123264973" uid="3497659" user="NKA">
		<tag k="alt_name" v="Storelv" />
		<tag k="name" v="Berglund" />
		<tag k="place" v="farm" />
		<tag k="ssr:stedsnr" v="384622" />
	</node>
	<node id="9869796318" lat="69.0238861" lon="17.4528722" version="1" timestamp="2022-07-06T07:57:05Z" changeset="123264973" uid="3497659" user="NKA">
		<tag k="name" v="Kjerrvik" />
		<tag k="place" v="farm" />
		<tag k="ssr:stedsnr" v="393959" />
	</node>
	<node id="9869796319" lat="69.0600028" lon="17.5382028" version="1" timestamp="2022-07-06T07:57:05Z" changeset="123264973" uid="3497659" user="NKA">
		<tag k="alt_name" v="Djupvika" />
		<tag k="name" v="Djupvik" />
		<tag k="place" v="farm" />
		<tag k="ssr:stedsnr" v="261348" />
	</node>
	<node id="9869796320" lat="69.0633677" lon="17.5428013" version="1" timestamp="2022-07-06T07:57:05Z" changeset="123264973" uid="3497659" user="NKA">
		<tag k="name" v="Langhamn" />
		<tag k="place" v="hamlet" />
		<tag k="ssr:stedsnr" v="322322" />
	</node>
	<node id="9869796321" lat="68.9876195" lon="17.3749917" version="1" timestamp="2022-07-06T07:57:05Z" changeset="123264973" uid="3497659" user="NKA">
		<tag k="name" v="Hagenes" />
		<tag k="place" v="farm" />
		<tag k="ssr:stedsnr" v="212647" />
	</node>
	<node id="9869796322" lat="69.0020111" lon="17.4195333" version="1" timestamp="2022-07-06T07:57:05Z" changeset="123264973" uid="3497659" user="NKA">
		<tag k="name" v="Holtet" />
		<tag k="place" v="farm" />
		<tag k="ssr:stedsnr" v="260672" />
	</node>
	<node id="9869796323" lat="69.0413409" lon="17.5170326" version="1" timestamp="2022-07-06T07:57:05Z" changeset="123264973" uid="3497659" user="NKA">
		<tag k="name" v="Bakaromnen" />
		<tag k="place" v="farm" />
		<tag k="ssr:stedsnr" v="79320" />
	</node>
	<node id="9869796324" lat="69.0175611" lon="17.4443249" version="1" timestamp="2022-07-06T07:57:05Z" changeset="123264973" uid="3497659" user="NKA">
		<tag k="name" v="Haug" />
		<tag k="place" v="farm" />
		<tag k="ssr:stedsnr" v="79613" />
	</node>
	<node id="9869796325" lat="68.9975278" lon="17.4149584" version="1" timestamp="2022-07-06T07:57:05Z" changeset="123264973" uid="3497659" user="NKA">
		<tag k="name" v="Nordhus" />
		<tag k="place" v="farm" />
		<tag k="ssr:stedsnr" v="879926" />
	</node>
	<node id="9869796326" lat="69.0323593" lon="17.4565964" version="1" timestamp="2022-07-06T07:57:05Z" changeset="123264973" uid="3497659" user="NKA">
		<tag k="name" v="Øvre Forså" />
		<tag k="place" v="farm" />
		<tag k="ssr:stedsnr" v="1077645" />
	</node>
	<node id="9869796327" lat="69.0649445" lon="17.3909638" version="1" timestamp="2022-07-06T07:57:05Z" changeset="123264973" uid="3497659" user="NKA">
		<tag k="name" v="Storelvhaugen" />
		<tag k="place" v="locality" />
		<tag k="ssr:stedsnr" v="719768" />
	</node>
	<node id="9869796328" lat="69.0321945" lon="17.5572388" version="1" timestamp="2022-07-06T07:57:05Z" changeset="123264973" uid="3497659" user="NKA">
		<tag k="name" v="Berglund" />
		<tag k="place" v="farm" />
		<tag k="ssr:stedsnr" v="870275" />
	</node>
	<node id="9869796329" lat="69.0349651" lon="17.5608085" version="1" timestamp="2022-07-06T07:57:05Z" changeset="123264973" uid="3497659" user="NKA">
		<tag k="alt_name" v="Skjeret" />
		<tag k="name" v="Skjæret" />
		<tag k="place" v="farm" />
		<tag k="ssr:stedsnr" v="625315" />
	</node>
	<node id="9869796330" lat="69.0721805" lon="17.5491279" version="1" timestamp="2022-07-06T07:57:05Z" changeset="123264973" uid="3497659" user="NKA">
		<tag k="name" v="Dalvik" />
		<tag k="place" v="farm" />
		<tag k="ssr:stedsnr" v="200369" />
	</node>
	<node id="9869796331" lat="69.040275" lon="17.5837778" version="1" timestamp="2022-07-06T07:57:05Z" changeset="123264973" uid="3497659" user="NKA">
		<tag k="name" v="Eineset" />
		<tag k="place" v="farm" />
		<tag k="ssr:stedsnr" v="625322" />
	</node>
	<node id="9869796332" lat="69.0115172" lon="17.4347793" version="1" timestamp="2022-07-06T07:57:05Z" changeset="123264973" uid="3497659" user="NKA">
		<tag k="alt_name" v="Hamn" />
		<tag k="name" v="Dyrøyhamn" />
		<tag k="place" v="hamlet" />
		<tag k="ssr:stedsnr" v="564643" />
	</node>
	<node id="9869796333" lat="69.0604305" lon="17.4326057" version="1" timestamp="2022-07-06T07:57:05Z" changeset="123264973" uid="3497659" user="NKA">
		<tag k="name" v="Gårdan" />
		<tag k="place" v="locality" />
		<tag k="ssr:stedsnr" v="416747" />
	</node>
	<node id="9869796334" lat="69.0446055" lon="17.6034721" version="1" timestamp="2022-07-06T07:57:05Z" changeset="123264973" uid="3497659" user="NKA">
		<tag k="name" v="Høglund" />
		<tag k="place" v="farm" />
		<tag k="ssr:stedsnr" v="625320" />
	</node>
	<node id="9869796335" lat="69.0252334" lon="17.4549888" version="1" timestamp="2022-07-06T07:57:05Z" changeset="123264973" uid="3497659" user="NKA">
		<tag k="name" v="Fagerli" />
		<tag k="place" v="farm" />
		<tag k="ssr:stedsnr" v="201603" />
	</node>
	<node id="9869796336" lat="69.050825" lon="17.5166612" version="1" timestamp="2022-07-06T07:57:05Z" changeset="123264973" uid="3497659" user="NKA">
		<tag k="name" v="Litje-Perheimen" />
		<tag k="place" v="locality" />
		<tag k="ssr:stedsnr" v="294116" />
	</node>
	<node id="9869796337" lat="69.0550126" lon="17.5317751" version="1" timestamp="2022-07-06T07:57:05Z" changeset="123264973" uid="3497659" user="NKA">
		<tag k="name" v="Klubbenes" />
		<tag k="place" v="farm" />
		<tag k="ssr:stedsnr" v="172296" />
	</node>
	<node id="9869796338" lat="69.0746535" lon="17.5487275" version="1" timestamp="2022-07-06T07:57:05Z" changeset="123264973" uid="3497659" user="NKA">
		<tag k="name" v="Furuheim" />
		<tag k="place" v="farm" />
		<tag k="ssr:stedsnr" v="404115" />
	</node>
	<node id="9869796339" lat="69.0230917" lon="17.5404943" version="1" timestamp="2022-07-06T07:57:05Z" changeset="123264973" uid="3497659" user="NKA">
		<tag k="name" v="Rognstad" />
		<tag k="place" v="farm" />
		<tag k="ssr:stedsnr" v="19607" />
	</node>
	<node id="9869796340" lat="68.9948673" lon="17.4838778" version="1" timestamp="2022-07-06T07:57:05Z" changeset="123264973" uid="3497659" user="NKA">
		<tag k="name" v="Kastneshamn" />
		<tag k="place" v="hamlet" />
		<tag k="ssr:stedsnr" v="86181" />
	</node>
	<node id="9869796341" lat="69.0289084" lon="17.5491082" version="1" timestamp="2022-07-06T07:57:05Z" changeset="123264973" uid="3497659" user="NKA">
		<tag k="name" v="Elvebakken" />
		<tag k="place" v="farm" />
		<tag k="ssr:stedsnr" v="19603" />
	</node>
	<node id="9869796342" lat="68.9236518" lon="17.4746412" version="1" timestamp="2022-07-06T07:57:05Z" changeset="123264973" uid="3497659" user="NKA">
		<tag k="alt_name" v="Søndre Giskevik" />
		<tag k="name" v="Søre Gjeskevika" />
		<tag k="place" v="locality" />
		<tag k="ssr:stedsnr" v="1077638" />
	</node>
	<node id="9869796343" lat="68.9253305" lon="17.4703722" version="1" timestamp="2022-07-06T07:57:05Z" changeset="123264973" uid="3497659" user="NKA">
		<tag k="name" v="Slåtta" />
		<tag k="place" v="locality" />
		<tag k="ssr:stedsnr" v="442931" />
	</node>
	<node id="9869796344" lat="68.9942456" lon="17.9887124" version="1" timestamp="2022-07-06T07:57:05Z" changeset="123264973" uid="3497659" user="NKA">
		<tag k="name" v="Synnerdalen" />
		<tag k="place" v="locality" />
		<tag k="ssr:stedsnr" v="1077654" />
	</node>
	<node id="9869796345" lat="68.9455945" lon="17.4839889" version="1" timestamp="2022-07-06T07:57:05Z" changeset="123264973" uid="3497659" user="NKA">
		<tag k="name" v="Sommarheimen" />
		<tag k="place" v="locality" />
		<tag k="ssr:stedsnr" v="537856" />
	</node>
	<node id="9869796346" lat="68.9826667" lon="17.5310055" version="1" timestamp="2022-07-06T07:57:05Z" changeset="123264973" uid="3497659" user="NKA">
		<tag k="alt_name" v="Stigen" />
		<tag k="name" v="Stien" />
		<tag k="place" v="farm" />
		<tag k="ssr:stedsnr" v="807888" />
	</node>
	<node id="9869796347" lat="68.956774" lon="17.5003612" version="1" timestamp="2022-07-06T07:57:05Z" changeset="123264973" uid="3497659" user="NKA">
		<tag k="name" v="Kvalnes" />
		<tag k="place" v="locality" />
		<tag k="ssr:stedsnr" v="78902" />
	</node>
	<node id="9869796348" lat="68.9808723" lon="17.5161723" version="1" timestamp="2022-07-06T07:57:05Z" changeset="123264973" uid="3497659" user="NKA">
		<tag k="name" v="Lasletta" />
		<tag k="place" v="farm" />
		<tag k="ssr:stedsnr" v="260934" />
	</node>
	<node id="9869796349" lat="68.9847581" lon="17.5504295" version="1" timestamp="2022-07-06T07:57:05Z" changeset="123264973" uid="3497659" user="NKA">
		<tag k="alt_name" v="Finnobakken" />
		<tag k="name" v="Frimobakken" />
		<tag k="place" v="farm" />
		<tag k="ssr:stedsnr" v="321883" />
	</node>
	<node id="9869796350" lat="68.9808667" lon="17.4937278" version="1" timestamp="2022-07-06T07:57:05Z" changeset="123264973" uid="3497659" user="NKA">
		<tag k="name" v="Steinvollen" />
		<tag k="place" v="farm" />
		<tag k="ssr:stedsnr" v="18987" />
	</node>
	<node id="9869796351" lat="68.9755806" lon="17.5499279" version="1" timestamp="2022-07-06T07:57:05Z" changeset="123264973" uid="3497659" user="NKA">
		<tag k="name" v="Solvang" />
		<tag k="place" v="farm" />
		<tag k="ssr:stedsnr" v="624892" />
	</node>
	<node id="9869796352" lat="69.0828276" lon="17.7462701" version="1" timestamp="2022-07-06T07:57:05Z" changeset="123264973" uid="3497659" user="NKA">
		<tag k="name" v="Solbakken" />
		<tag k="place" v="farm" />
		<tag k="ssr:stedsnr" v="928343" />
	</node>
	<node id="9869796353" lat="69.0309139" lon="17.5511306" version="1" timestamp="2022-07-06T07:57:05Z" changeset="123264973" uid="3497659" user="NKA">
		<tag k="name" v="Ryvoll" />
		<tag k="place" v="farm" />
		<tag k="ssr:stedsnr" v="686290" />
	</node>
	<node id="9869796354" lat="69.0915028" lon="17.5750444" version="1" timestamp="2022-07-06T07:57:05Z" changeset="123264973" uid="3497659" user="NKA">
		<tag k="name" v="Ørnneset hyttefelt" />
		<tag k="place" v="neighbourhood" />
		<tag k="ssr:stedsnr" v="768116" />
	</node>
	<node id="9869796355" lat="69.06395" lon="17.7542972" version="1" timestamp="2022-07-06T07:57:05Z" changeset="123264973" uid="3497659" user="NKA">
		<tag k="name" v="Solbakken" />
		<tag k="place" v="farm" />
		<tag k="ssr:stedsnr" v="686344" />
	</node>
	<node id="9869796356" lat="69.063079" lon="17.6421633" version="1" timestamp="2022-07-06T07:57:05Z" changeset="123264973" uid="3497659" user="NKA">
		<tag k="alt_name" v="Sæter;Sæter, nordre" />
		<tag k="name" v="Nordre Sæter" />
		<tag k="place" v="farm" />
		<tag k="ssr:stedsnr" v="686328" />
	</node>
	<node id="9869796357" lat="69.1176636" lon="17.7392758" version="1" timestamp="2022-07-06T07:57:05Z" changeset="123264973" uid="3497659" user="NKA">
		<tag k="name" v="Espenes" />
		<tag k="place" v="farm" />
		<tag k="ssr:stedsnr" v="382268" />
	</node>
	<node id="9869796358" lat="69.0361372" lon="17.4709844" version="1" timestamp="2022-07-06T07:57:05Z" changeset="123264973" uid="3497659" user="NKA">
		<tag k="name" v="Hals" />
		<tag k="place" v="farm" />
		<tag k="ssr:stedsnr" v="686285" />
	</node>
	<node id="9869796359" lat="69.0415917" lon="17.8157944" version="1" timestamp="2022-07-06T07:57:05Z" changeset="123264973" uid="3497659" user="NKA">
		<tag k="historic" v="shieling" />
		<tag k="name" v="Lars-Olsabua" />
		<tag k="place" v="isolated_dwelling" />
		<tag k="ssr:stedsnr" v="98516" />
	</node>
	<node id="9869796360" lat="69.1118" lon="17.753311" version="1" timestamp="2022-07-06T07:57:05Z" changeset="123264973" uid="3497659" user="NKA">
		<tag k="name" v="Myrset" />
		<tag k="place" v="farm" />
		<tag k="ssr:stedsnr" v="261272" />
	</node>
	<node id="9869796361" lat="69.0188002" lon="17.5369254" version="1" timestamp="2022-07-06T07:57:05Z" changeset="123264973" uid="3497659" user="NKA">
		<tag k="name" v="Sortevik" />
		<tag k="place" v="farm" />
		<tag k="ssr:stedsnr" v="79611" />
	</node>
	<node id="9869796362" lat="69.0545861" lon="17.6214582" version="1" timestamp="2022-07-06T07:57:05Z" changeset="123264973" uid="3497659" user="NKA">
		<tag k="name" v="Lilleng" />
		<tag k="place" v="farm" />
		<tag k="ssr:stedsnr" v="151946" />
	</node>
	<node id="9869796363" lat="69.0098639" lon="17.3889194" version="1" timestamp="2022-07-06T07:57:05Z" changeset="123264973" uid="3497659" user="NKA">
		<tag k="name" v="Solstad" />
		<tag k="place" v="farm" />
		<tag k="ssr:stedsnr" v="18085" />
	</node>
	<node id="9869796364" lat="69.0360213" lon="17.9038719" version="1" timestamp="2022-07-06T07:57:05Z" changeset="123264973" uid="3497659" user="NKA">
		<tag k="name" v="Brattli" />
		<tag k="place" v="farm" />
		<tag k="ssr:stedsnr" v="79300" />
	</node>
	<node id="9869796365" lat="69.0084973" lon="17.4305805" version="1" timestamp="2022-07-06T07:57:05Z" changeset="123264973" uid="3497659" user="NKA">
		<tag k="alt_name" v="Hågen" />
		<tag k="name" v="Haugen" />
		<tag k="place" v="farm" />
		<tag k="ssr:stedsnr" v="78635" />
	</node>
	<node id="9869796366" lat="69.028225" lon="17.85485" version="1" timestamp="2022-07-06T07:57:05Z" changeset="123264973" uid="3497659" user="NKA">
		<tag k="historic" v="shieling" />
		<tag k="name" v="Anekåken" />
		<tag k="place" v="isolated_dwelling" />
		<tag k="ssr:stedsnr" v="887785" />
	</node>
	<node id="9869796367" lat="69.0464666" lon="17.7443945" version="1" timestamp="2022-07-06T07:57:05Z" changeset="123264973" uid="3497659" user="NKA">
		<tag k="name" v="Birgerheimen" />
		<tag k="place" v="locality" />
		<tag k="ssr:stedsnr" v="746328" />
	</node>
	<node id="9869796368" lat="69.124792" lon="17.8281576" version="1" timestamp="2022-07-06T07:57:05Z" changeset="123264973" uid="3497659" user="NKA">
		<tag k="name" v="Lynghaug" />
		<tag k="place" v="farm" />
		<tag k="ssr:stedsnr" v="929260" />
	</node>
	<node id="9869796369" lat="69.080275" lon="17.740164" version="1" timestamp="2022-07-06T07:57:05Z" changeset="123264973" uid="3497659" user="NKA">
		<tag k="name" v="Rydningen" />
		<tag k="place" v="farm" />
		<tag k="ssr:stedsnr" v="686349" />
	</node>
	<node id="9869796370" lat="69.0938102" lon="17.7505213" version="1" timestamp="2022-07-06T07:57:05Z" changeset="123264973" uid="3497659" user="NKA">
		<tag k="alt_name" v="Espenes, øvre" />
		<tag k="name" v="Øvre Espenes" />
		<tag k="place" v="hamlet" />
		<tag k="ssr:stedsnr" v="139259" />
	</node>
	<node id="9869796371" lat="69.0216722" lon="17.4491443" version="1" timestamp="2022-07-06T07:57:05Z" changeset="123264973" uid="3497659" user="NKA">
		<tag k="name" v="Lia" />
		<tag k="place" v="farm" />
		<tag k="ssr:stedsnr" v="443624" />
	</node>
	<node id="9869796372" lat="69.0553805" lon="17.8048472" version="1" timestamp="2022-07-06T07:57:05Z" changeset="123264973" uid="3497659" user="NKA">
		<tag k="name" v="Molund" />
		<tag k="place" v="farm" />
		<tag k="ssr:stedsnr" v="443359" />
	</node>
	<node id="9869796373" lat="69.035275" lon="17.5665168" version="1" timestamp="2022-07-06T07:57:05Z" changeset="123264973" uid="3497659" user="NKA">
		<tag k="alt_name" v="Steffanes, øvre" />
		<tag k="name" v="Øvre Steffanes" />
		<tag k="old_name" v="Steffanes" />
		<tag k="place" v="farm" />
		<tag k="ssr:stedsnr" v="504288" />
	</node>
	<node id="9869796374" lat="68.988427" lon="17.4871454" version="1" timestamp="2022-07-06T07:57:05Z" changeset="123264973" uid="3497659" user="NKA">
		<tag k="name" v="Tufteteigen" />
		<tag k="place" v="isolated_dwelling" />
		<tag k="ssr:stedsnr" v="233826" />
	</node>
	<node id="9869796375" lat="69.050464" lon="17.528081" version="1" timestamp="2022-07-06T07:57:05Z" changeset="123264973" uid="3497659" user="NKA">
		<tag k="alt_name" v="Utenga" />
		<tag k="name" v="Uteng" />
		<tag k="place" v="farm" />
		<tag k="ssr:stedsnr" v="382327" />
	</node>
	<node id="9869796376" lat="69.0558722" lon="17.8125584" version="1" timestamp="2022-07-06T07:57:05Z" changeset="123264973" uid="3497659" user="NKA">
		<tag k="name" v="Gammelheimen" />
		<tag k="place" v="locality" />
		<tag k="ssr:stedsnr" v="36266" />
	</node>
	<node id="9869796377" lat="68.980925" lon="17.4983333" version="1" timestamp="2022-07-06T07:57:05Z" changeset="123264973" uid="3497659" user="NKA">
		<tag k="name" v="Ås" />
		<tag k="place" v="farm" />
		<tag k="ssr:stedsnr" v="79880" />
	</node>
	<node id="9869796378" lat="69.0942833" lon="17.5767861" version="1" timestamp="2022-07-06T07:57:05Z" changeset="123264973" uid="3497659" user="NKA">
		<tag k="name" v="Klauvhamn" />
		<tag k="place" v="farm" />
		<tag k="ssr:stedsnr" v="18246" />
	</node>
	<node id="9869796379" lat="69.0983917" lon="17.6498138" version="1" timestamp="2022-07-06T07:57:05Z" changeset="123264973" uid="3497659" user="NKA">
		<tag k="name" v="Finnlandsvika" />
		<tag k="place" v="hamlet" />
		<tag k="ssr:stedsnr" v="503244" />
	</node>
	<node id="9869796380" lat="69.0407" lon="17.7258055" version="1" timestamp="2022-07-06T07:57:05Z" changeset="123264973" uid="3497659" user="NKA">
		<tag k="name" v="Nordheim" />
		<tag k="place" v="farm" />
		<tag k="ssr:stedsnr" v="929289" />
	</node>
	<node id="9869796381" lat="69.0904139" lon="17.6727334" version="1" timestamp="2022-07-06T07:57:05Z" changeset="123264973" uid="3497659" user="NKA">
		<tag k="name" v="Lindberget" />
		<tag k="place" v="farm" />
		<tag k="ssr:stedsnr" v="818386" />
	</node>
	<node id="9869796382" lat="69.0409305" lon="17.9184861" version="1" timestamp="2022-07-06T07:57:05Z" changeset="123264973" uid="3497659" user="NKA">
		<tag k="name" v="Vangen" />
		<tag k="place" v="farm" />
		<tag k="ssr:stedsnr" v="827874" />
	</node>
	<node id="9869796383" lat="69.0180861" lon="17.8662445" version="1" timestamp="2022-07-06T07:57:05Z" changeset="123264973" uid="3497659" user="NKA">
		<tag k="name" v="Bjørklund" />
		<tag k="place" v="isolated_dwelling" />
		<tag k="ssr:stedsnr" v="746615" />
	</node>
	<node id="9869796384" lat="69.0276722" lon="17.6883751" version="1" timestamp="2022-07-06T07:57:05Z" changeset="123264973" uid="3497659" user="NKA">
		<tag k="name" v="Kristian-Mikkelsaplassen" />
		<tag k="place" v="locality" />
		<tag k="ssr:stedsnr" v="524241" />
	</node>
	<node id="9869796385" lat="69.0819417" lon="17.685264" version="1" timestamp="2022-07-06T07:57:05Z" changeset="123264973" uid="3497659" user="NKA">
		<tag k="name" v="Lauvset" />
		<tag k="place" v="farm" />
		<tag k="ssr:stedsnr" v="746236" />
	</node>
	<node id="9869796386" lat="69.0702167" lon="17.7360195" version="1" timestamp="2022-07-06T07:57:05Z" changeset="123264973" uid="3497659" user="NKA">
		<tag k="name" v="Elvevoll" />
		<tag k="place" v="farm" />
		<tag k="ssr:stedsnr" v="504330" />
	</node>
	<node id="9869796387" lat="69.0494417" lon="17.7475861" version="1" timestamp="2022-07-06T07:57:05Z" changeset="123264973" uid="3497659" user="NKA">
		<tag k="name" v="Blindfinnheimen" />
		<tag k="place" v="locality" />
		<tag k="ssr:stedsnr" v="504315" />
	</node>
	<node id="9869796388" lat="69.0324833" lon="17.7455806" version="1" timestamp="2022-07-06T07:57:05Z" changeset="123264973" uid="3497659" user="NKA">
		<tag k="alt_name" v="Bjørkebakken, s" />
		<tag k="name" v="Søre Bjørkebakken" />
		<tag k="place" v="farm" />
		<tag k="ssr:stedsnr" v="443603" />
	</node>
	<node id="9869796389" lat="69.0406917" lon="17.7237888" version="1" timestamp="2022-07-06T07:57:05Z" changeset="123264973" uid="3497659" user="NKA">
		<tag k="name" v="Hisia" />
		<tag k="place" v="hamlet" />
		<tag k="ssr:stedsnr" v="462228" />
	</node>
	<node id="9869796390" lat="69.0624111" lon="17.7648888" version="1" timestamp="2022-07-06T07:57:05Z" changeset="123264973" uid="3497659" user="NKA">
		<tag k="name" v="Underberg" />
		<tag k="place" v="farm" />
		<tag k="ssr:stedsnr" v="443358" />
	</node>
	<node id="9869796391" lat="69.0346001" lon="17.7362096" version="1" timestamp="2022-07-06T07:57:05Z" changeset="123264973" uid="3497659" user="NKA">
		<tag k="name" v="Bjørkebakken" />
		<tag k="place" v="hamlet" />
		<tag k="ssr:stedsnr" v="445250" />
	</node>
	<node id="9869796392" lat="69.0884167" lon="17.7076527" version="1" timestamp="2022-07-06T07:57:05Z" changeset="123264973" uid="3497659" user="NKA">
		<tag k="name" v="Elvetun" />
		<tag k="place" v="farm" />
		<tag k="ssr:stedsnr" v="443240" />
	</node>
	<node id="170721943" lat="69.0897796" lon="17.5863998" version="3" timestamp="2016-04-30T22:17:06Z" changeset="39007594" uid="3296383" user="Reitstoen_import" />
	<node id="1757251923" lat="69.0895914" lon="17.5932349" version="3" timestamp="2020-01-09T23:45:30Z" changeset="79396142" uid="32112" user="SverigeFan">
		<tag k="bridge:support" v="pier" />
	</node>
	<node id="170721930" lat="69.0894441" lon="17.601689" version="4" timestamp="2020-03-15T18:00:04Z" changeset="82224015" uid="32112" user="SverigeFan" />
	<node id="1757251918" lat="69.089451" lon="17.5987074" version="3" timestamp="2020-01-09T23:45:30Z" changeset="79396142" uid="32112" user="SverigeFan">
		<tag k="bridge:support" v="pier" />
	</node>
	<node id="4158448936" lat="69.0894232" lon="17.6001525" version="2" timestamp="2022-01-25T18:21:17Z" changeset="116596754" uid="3497659" user="NKA" />
	<node id="4158448938" lat="69.0894247" lon="17.600719" version="2" timestamp="2022-01-25T18:21:17Z" changeset="116596754" uid="3497659" user="NKA" />
	<node id="4158448940" lat="69.0894323" lon="17.5995389" version="2" timestamp="2022-01-25T18:21:17Z" changeset="116596754" uid="3497659" user="NKA" />
	<node id="4158448941" lat="69.0894323" lon="17.6012657" version="2" timestamp="2020-03-15T18:00:04Z" changeset="82224015" uid="32112" user="SverigeFan" />
	<way id="114864986" version="11" timestamp="2022-05-14T15:00:53Z" changeset="120982896" uid="3497659" user="NKA">
		<tag k="bridge" v="cantilever" />
		<tag k="bridge:structure" v="beam" />
		<tag k="highway" v="secondary" />
		<tag k="layer" v="1" />
		<tag k="maxspeed" v="80" />
		<tag k="name" v="Dyrøybrua" />
		<tag k="old_ref" v="212" />
		<tag k="ref" v="7842" />
		<tag k="ssr:stedsnr" v="87789" />
		<tag k="surface" v="asphalt" />
		<tag k="wikidata" v="Q4585591" />
		<nd ref="170721930" />
		<nd ref="4158448941" />
		<nd ref="4158448938" />
		<nd ref="4158448936" />
		<nd ref="4158448940" />
		<nd ref="1757251918" />
		<nd ref="1757251923" />
		<nd ref="170721943" />
	</way>
</osm>
