<?xml version="1.0" encoding="UTF-8"?>
<osm version="0.6" generator="osmapis">
	<node id="31264119" lat="61.9336888" lon="5.1129133" version="9" timestamp="2022-08-20T08:50:22Z" changeset="125138148" uid="3497659" user="NKA">
		<tag k="name" v="Måløy" />
		<tag k="place" v="town" />
		<tag k="population" v="3293" />
		<tag k="population:date" v="2021-01-01" />
		<tag k="ref:ssb_tettsted" v="5682" />
		<tag k="source:population" v="SSB - befolkning i tettstedet" />
		<tag k="ssr:stedsnr" v="677817" />
	</node>
	<node id="256607480" lat="61.5646439" lon="4.7934479" version="4" timestamp="2022-08-20T08:50:22Z" changeset="125138148" uid="3497659" user="NKA">
		<tag k="name" v="Rognaldsvåg" />
		<tag k="place" v="village" />
		<tag k="ssr:stedsnr" v="312202" />
	</node>
	<node id="258770049" lat="61.6002583" lon="5.0349596" version="15" timestamp="2022-08-20T08:50:22Z" changeset="125138148" uid="3497659" user="NKA">
		<tag k="alt_name" v="Flora" />
		<tag k="name" v="Florø" />
		<tag k="name:ru" v="Флурё" />
		<tag k="place" v="town" />
		<tag k="population" v="8917" />
		<tag k="population:date" v="2021-01-01" />
		<tag k="ref:ssb_tettsted" v="5501" />
		<tag k="source:population" v="SSB - befolkning i tettstedet" />
		<tag k="ssr:stedsnr" v="919127" />
	</node>
	<node id="544068594" lat="61.9849433" lon="5.13778" version="6" timestamp="2022-08-20T08:50:22Z" changeset="125138148" uid="3497659" user="NKA">
		<tag k="name" v="Raudeberg" />
		<tag k="place" v="village" />
		<tag k="population" v="585" />
		<tag k="population:date" v="2021-01-01" />
		<tag k="ref:ssb_tettsted" v="5681" />
		<tag k="source:population" v="SSB - befolkning i tettstedet" />
		<tag k="ssr:stedsnr" v="616891" />
	</node>
	<node id="623716131" lat="61.5781" lon="5.3693268" version="3" timestamp="2022-08-20T08:50:22Z" changeset="125138148" uid="3497659" user="NKA">
		<tag k="alt_name" v="Hopeteigen;Hopeteig" />
		<tag k="name" v="Teigen" />
		<tag k="place" v="farm" />
		<tag k="ssr:stedsnr" v="819997" />
	</node>
	<node id="775846165" lat="61.5674695" lon="5.6496322" version="6" timestamp="2022-08-20T08:50:22Z" changeset="125138148" uid="3497659" user="NKA">
		<tag k="name" v="Svarthumla" />
		<tag k="place" v="hamlet" />
		<tag k="ssr:stedsnr" v="660503" />
	</node>
	<node id="1386765666" lat="62.0025886" lon="5.1426368" version="2" timestamp="2022-08-20T08:50:22Z" changeset="125138148" uid="3497659" user="NKA">
		<tag k="name" v="Halsøyra" />
		<tag k="place" v="hamlet" />
		<tag k="ssr:stedsnr" v="131664" />
	</node>
	<node id="1386767030" lat="61.9985886" lon="5.0898652" version="2" timestamp="2022-08-20T08:50:22Z" changeset="125138148" uid="3497659" user="NKA">
		<tag k="name" v="Refvika" />
		<tag k="place" v="hamlet" />
		<tag k="ssr:stedsnr" v="506008" />
	</node>
	<node id="1386767031" lat="62.0130772" lon="5.0981883" version="2" timestamp="2022-08-20T08:50:22Z" changeset="125138148" uid="3497659" user="NKA">
		<tag k="name" v="Vedvika" />
		<tag k="place" v="village" />
		<tag k="ssr:stedsnr" v="253649" />
	</node>
	<node id="1386767032" lat="61.9898268" lon="5.0447137" version="2" timestamp="2022-08-20T08:50:22Z" changeset="125138148" uid="3497659" user="NKA">
		<tag k="name" v="Ytre Kvalheim" />
		<tag k="place" v="farm" />
		<tag k="ssr:stedsnr" v="435975" />
	</node>
	<node id="1387327049" lat="61.9712721" lon="5.0709527" version="3" timestamp="2022-08-20T08:50:22Z" changeset="125138148" uid="3497659" user="NKA">
		<tag k="alt_name" v="Oppedalen" />
		<tag k="name" v="Nordoppedalen" />
		<tag k="place" v="hamlet" />
		<tag k="ssr:stedsnr" v="477967" />
	</node>
	<node id="1387329086" lat="61.9374653" lon="5.048424" version="4" timestamp="2022-08-20T08:50:22Z" changeset="125138148" uid="3497659" user="NKA">
		<tag k="name" v="Vågsvåg" />
		<tag k="place" v="village" />
		<tag k="population" v="205" />
		<tag k="population:date" v="2020-01-01" />
		<tag k="ref:ssb_tettsted" v="5685" />
		<tag k="source:population" v="SSB - befolkning i tettstedet" />
		<tag k="ssr:stedsnr" v="860976" />
	</node>
	<node id="3009777270" lat="61.5881405" lon="5.4624139" version="5" timestamp="2022-08-20T08:50:22Z" changeset="125138148" uid="3497659" user="NKA">
		<tag k="name" v="Eikefjord" />
		<tag k="place" v="village" />
		<tag k="population" v="414" />
		<tag k="population:date" v="2021-01-01" />
		<tag k="ref:ssb_tettsted" v="5503" />
		<tag k="source:population" v="SSB - befolkning i tettstedet" />
		<tag k="ssr:stedsnr" v="554561" />
	</node>
	<node id="3009777278" lat="61.5743463" lon="5.5437859" version="4" timestamp="2022-08-20T08:50:22Z" changeset="125138148" uid="3497659" user="NKA">
		<tag k="name" v="Storebru" />
		<tag k="place" v="hamlet" />
		<tag k="ssr:stedsnr" v="737461" />
	</node>
	<node id="3261646796" lat="61.9430067" lon="5.1472671" version="2" timestamp="2022-08-20T08:50:22Z" changeset="125138148" uid="3497659" user="NKA">
		<tag k="name" v="Trollebø" />
		<tag k="place" v="hamlet" />
		<tag k="ssr:stedsnr" v="616803" />
	</node>
	<node id="3294951717" lat="61.5328136" lon="5.1880007" version="2" timestamp="2022-08-20T08:50:22Z" changeset="125138148" uid="3497659" user="NKA">
		<tag k="name" v="Stavang" />
		<tag k="place" v="hamlet" />
		<tag k="ssr:stedsnr" v="130565" />
	</node>
	<node id="3722010243" lat="61.650925" lon="5.2892589" version="3" timestamp="2022-08-20T08:50:22Z" changeset="125138148" uid="3497659" user="NKA">
		<tag k="building" v="ruins" />
		<tag k="historic" v="shieling" />
		<tag k="name" v="Rimstølen" />
		<tag k="place" v="locality" />
		<tag k="ssr:stedsnr" v="69889" />
	</node>
	<node id="3802289357" lat="61.6925791" lon="5.5733311" version="2" timestamp="2022-08-20T08:50:22Z" changeset="125138148" uid="3497659" user="NKA">
		<tag k="name" v="Grøndalen" />
		<tag k="place" v="hamlet" />
		<tag k="ssr:stedsnr" v="919635" />
	</node>
	<node id="3802383423" lat="61.6430745" lon="5.0060841" version="2" timestamp="2022-08-20T08:50:22Z" changeset="125138148" uid="3497659" user="NKA">
		<tag k="name" v="Årebrotet" />
		<tag k="place" v="hamlet" />
		<tag k="ssr:stedsnr" v="919109" />
	</node>
	<node id="4021759164" lat="61.5910416" lon="5.0279312" version="2" timestamp="2022-08-20T08:50:22Z" changeset="125138148" uid="3497659" user="NKA">
		<tag k="name" v="Soldal" />
		<tag k="place" v="farm" />
		<tag k="ssr:stedsnr" v="554240" />
	</node>
	<node id="4021759172" lat="61.5863679" lon="5.0329349" version="2" timestamp="2022-08-20T08:50:22Z" changeset="125138148" uid="3497659" user="NKA">
		<tag k="name" v="Sørstrand" />
		<tag k="place" v="neighbourhood" />
		<tag k="ssr:stedsnr" v="525680" />
	</node>
	<node id="4161989946" lat="61.6625722" lon="5.3611137" version="2" timestamp="2022-08-20T08:50:22Z" changeset="125138148" uid="3497659" user="NKA">
		<tag k="name" v="Hestedalsheia" />
		<tag k="place" v="locality" />
		<tag k="ssr:stedsnr" v="130888" />
	</node>
	<node id="4500255705" lat="61.5873694" lon="5.0191591" version="2" timestamp="2022-08-20T08:50:22Z" changeset="125138148" uid="3497659" user="NKA">
		<tag k="name" v="Fimlandsmarka" />
		<tag k="place" v="neighbourhood" />
		<tag k="ssr:stedsnr" v="510157" />
	</node>
	<node id="4704953689" lat="61.6460444" lon="5.3301505" version="2" timestamp="2022-08-20T08:50:22Z" changeset="125138148" uid="3497659" user="NKA">
		<tag k="historic" v="shieling" />
		<tag k="name" v="Straumsnesstølen" />
		<tag k="place" v="isolated_dwelling" />
		<tag k="ssr:stedsnr" v="130918" />
	</node>
	<node id="4704954038" lat="61.6277511" lon="5.3212514" version="2" timestamp="2022-08-20T08:50:22Z" changeset="125138148" uid="3497659" user="NKA">
		<tag k="historic" v="shieling" />
		<tag k="name" v="Grovastølen" />
		<tag k="place" v="isolated_dwelling" />
		<tag k="ssr:stedsnr" v="395606" />
	</node>
	<node id="4761666030" lat="61.9016469" lon="5.1687331" version="2" timestamp="2022-08-20T08:50:22Z" changeset="125138148" uid="3497659" user="NKA">
		<tag k="name" v="Vemmelsvika" />
		<tag k="place" v="farm" />
		<tag k="ssr:stedsnr" v="616195" />
	</node>
	<node id="4763748545" lat="61.9104371" lon="5.1683169" version="2" timestamp="2022-08-20T08:50:22Z" changeset="125138148" uid="3497659" user="NKA">
		<tag k="alt_name" v="Evjen" />
		<tag k="name" v="Evja" />
		<tag k="place" v="hamlet" />
		<tag k="ssr:stedsnr" v="10221" />
	</node>
	<node id="5036437767" lat="61.6694618" lon="4.8852947" version="3" timestamp="2022-08-20T08:50:22Z" changeset="125138148" uid="3497659" user="NKA">
		<tag k="name" v="Barekstad" />
		<tag k="place" v="hamlet" />
		<tag k="ssr:stedsnr" v="554001" />
	</node>
	<node id="5121723138" lat="61.5294856" lon="4.9464018" version="2" timestamp="2022-08-20T08:50:22Z" changeset="125138148" uid="3497659" user="NKA">
		<tag k="name" v="Hammarset" />
		<tag k="place" v="hamlet" />
		<tag k="ssr:stedsnr" v="798712" />
	</node>
	<node id="5121723142" lat="61.5066178" lon="4.9490794" version="2" timestamp="2022-08-20T08:50:22Z" changeset="125138148" uid="3497659" user="NKA">
		<tag k="name" v="Espeset" />
		<tag k="place" v="hamlet" />
		<tag k="ssr:stedsnr" v="493821" />
	</node>
	<node id="5121723143" lat="61.4989333" lon="4.9659905" version="3" timestamp="2022-08-20T08:50:22Z" changeset="125138148" uid="3497659" user="NKA">
		<tag k="name" v="Tansøya" />
		<tag k="place" v="hamlet" />
		<tag k="ssr:stedsnr" v="973760" />
	</node>
	<node id="5121723145" lat="61.5242081" lon="4.9539117" version="2" timestamp="2022-08-20T08:50:22Z" changeset="125138148" uid="3497659" user="NKA">
		<tag k="name" v="Gjerde" />
		<tag k="place" v="farm" />
		<tag k="ssr:stedsnr" v="939150" />
	</node>
	<node id="5121723146" lat="61.5245278" lon="4.9257586" version="2" timestamp="2022-08-20T08:50:22Z" changeset="125138148" uid="3497659" user="NKA">
		<tag k="name" v="Ura" />
		<tag k="place" v="farm" />
		<tag k="ssr:stedsnr" v="312728" />
	</node>
	<node id="5121723147" lat="61.5211082" lon="4.9213232" version="2" timestamp="2022-08-20T08:50:22Z" changeset="125138148" uid="3497659" user="NKA">
		<tag k="name" v="Valvika" />
		<tag k="place" v="hamlet" />
		<tag k="ssr:stedsnr" v="676797" />
	</node>
	<node id="5121723158" lat="61.5132811" lon="4.9648772" version="2" timestamp="2022-08-20T08:50:22Z" changeset="125138148" uid="3497659" user="NKA">
		<tag k="name" v="Vallestad" />
		<tag k="place" v="hamlet" />
		<tag k="ssr:stedsnr" v="858819" />
	</node>
	<node id="5121723159" lat="61.5044764" lon="4.9656184" version="2" timestamp="2022-08-20T08:50:22Z" changeset="125138148" uid="3497659" user="NKA">
		<tag k="name" v="Garvoll" />
		<tag k="place" v="farm" />
		<tag k="ssr:stedsnr" v="8807" />
	</node>
	<node id="5121723160" lat="61.5026502" lon="4.9652733" version="2" timestamp="2022-08-20T08:50:22Z" changeset="125138148" uid="3497659" user="NKA">
		<tag k="name" v="Sunde" />
		<tag k="place" v="hamlet" />
		<tag k="ssr:stedsnr" v="433812" />
	</node>
	<node id="5341530486" lat="61.9285001" lon="5.0799222" version="5" timestamp="2022-08-20T08:50:22Z" changeset="125138148" uid="3497659" user="NKA">
		<tag k="name" v="Holvika" />
		<tag k="place" v="village" />
		<tag k="population" v="290" />
		<tag k="population:date" v="2021-01-01" />
		<tag k="ref:ssb_tettsted" v="5684" />
		<tag k="source:population" v="SSB - befolkning i tettstedet" />
		<tag k="ssr:stedsnr" v="374968" />
	</node>
	<node id="5582674742" lat="61.9254656" lon="5.1471649" version="2" timestamp="2022-08-20T08:50:22Z" changeset="125138148" uid="3497659" user="NKA">
		<tag k="name" v="Deknepollen" />
		<tag k="place" v="quarter" />
		<tag k="ssr:stedsnr" v="146296" />
	</node>
	<node id="6214191499" lat="61.5864052" lon="4.8129172" version="2" timestamp="2022-08-20T08:50:22Z" changeset="125138148" uid="3497659" user="NKA">
		<tag k="alt_name" v="Sør-Skorpa" />
		<tag k="name" v="Skorpa" />
		<tag k="place" v="hamlet" />
		<tag k="ssr:stedsnr" v="251159" />
	</node>
	<node id="6214191510" lat="61.9112556" lon="5.243343" version="2" timestamp="2022-08-20T08:50:22Z" changeset="125138148" uid="3497659" user="NKA">
		<tag k="alt_name" v="Almenningen" />
		<tag k="name" v="Allmenningen" />
		<tag k="place" v="hamlet" />
		<tag k="ssr:stedsnr" v="495234" />
	</node>
	<node id="6216710670" lat="62.0100757" lon="5.1948299" version="2" timestamp="2022-08-20T08:50:22Z" changeset="125138148" uid="3497659" user="NKA">
		<tag k="alt_name" v="Silda;Søre Silda" />
		<tag k="name" v="Sørsilda" />
		<tag k="place" v="hamlet" />
		<tag k="ssr:stedsnr" v="496663" />
	</node>
	<node id="6216715402" lat="61.5615517" lon="4.7705003" version="2" timestamp="2022-08-20T08:50:22Z" changeset="125138148" uid="3497659" user="NKA">
		<tag k="name" v="Kinn" />
		<tag k="place" v="hamlet" />
		<tag k="ssr:stedsnr" v="736224" />
	</node>
	<node id="6216715410" lat="61.9156013" lon="5.0418175" version="2" timestamp="2022-08-20T08:50:22Z" changeset="125138148" uid="3497659" user="NKA">
		<tag k="name" v="Husevåg" />
		<tag k="place" v="hamlet" />
		<tag k="ssr:stedsnr" v="374985" />
	</node>
	<node id="6216715412" lat="61.5038508" lon="5.2419546" version="2" timestamp="2022-08-20T08:50:22Z" changeset="125138148" uid="3497659" user="NKA">
		<tag k="name" v="Svortevik" />
		<tag k="place" v="hamlet" />
		<tag k="ssr:stedsnr" v="918690" />
	</node>
	<node id="6216715416" lat="61.6383356" lon="4.81131" version="2" timestamp="2022-08-20T08:50:22Z" changeset="125138148" uid="3497659" user="NKA">
		<tag k="alt_name" v="Store Batalden" />
		<tag k="name" v="Batalden" />
		<tag k="place" v="farm" />
		<tag k="ssr:stedsnr" v="130092" />
	</node>
	<node id="6448489171" lat="61.4933455" lon="5.0588983" version="2" timestamp="2022-08-20T08:50:22Z" changeset="125138148" uid="3497659" user="NKA">
		<tag k="name" v="Grepland" />
		<tag k="place" v="farm" />
		<tag k="ssr:stedsnr" v="433332" />
	</node>
	<node id="6448489230" lat="61.4793445" lon="5.0794061" version="2" timestamp="2022-08-20T08:50:22Z" changeset="125138148" uid="3497659" user="NKA">
		<tag k="name" v="Trædet" />
		<tag k="place" v="farm" />
		<tag k="ssr:stedsnr" v="8373" />
	</node>
	<node id="6448489247" lat="61.4798604" lon="5.0958296" version="2" timestamp="2022-08-20T08:50:22Z" changeset="125138148" uid="3497659" user="NKA">
		<tag k="name" v="Kvalstad" />
		<tag k="place" v="hamlet" />
		<tag k="ssr:stedsnr" v="614067" />
	</node>
	<node id="6448489379" lat="61.4917139" lon="5.1417256" version="2" timestamp="2022-08-20T08:50:22Z" changeset="125138148" uid="3497659" user="NKA">
		<tag k="name" v="Plassen" />
		<tag k="place" v="farm" />
		<tag k="ssr:stedsnr" v="797050" />
	</node>
	<node id="7005772001" lat="61.6162943" lon="5.5698645" version="2" timestamp="2022-08-20T08:50:22Z" changeset="125138148" uid="3497659" user="NKA">
		<tag k="name" v="Lykkjebøen" />
		<tag k="place" v="hamlet" />
		<tag k="ssr:stedsnr" v="615708" />
	</node>
	<node id="7104131452" lat="61.6026712" lon="5.1359345" version="4" timestamp="2022-08-20T08:50:22Z" changeset="125138148" uid="3497659" user="NKA">
		<tag k="name" v="Brandsøy" />
		<tag k="place" v="village" />
		<tag k="population" v="698" />
		<tag k="population:date" v="2021-01-01" />
		<tag k="ref:ssb_tettsted" v="5502" />
		<tag k="source:population" v="SSB - befolkning i tettstedet" />
		<tag k="ssr:stedsnr" v="554975" />
	</node>
	<node id="9965445362" lat="61.639806" lon="5.3772832" version="1" timestamp="2022-08-20T08:50:22Z" changeset="125138148" uid="3497659" user="NKA">
		<tag k="name" v="Sørbakken" />
		<tag k="place" v="farm" />
		<tag k="ssr:stedsnr" v="902323" />
	</node>
	<node id="9965445363" lat="61.5722405" lon="5.3712802" version="1" timestamp="2022-08-20T08:50:22Z" changeset="125138148" uid="3497659" user="NKA">
		<tag k="name" v="Haugland" />
		<tag k="place" v="farm" />
		<tag k="ssr:stedsnr" v="903128" />
	</node>
	<node id="9965445364" lat="61.609642" lon="5.2354376" version="1" timestamp="2022-08-20T08:50:22Z" changeset="125138148" uid="3497659" user="NKA">
		<tag k="name" v="Ellingsund" />
		<tag k="place" v="farm" />
		<tag k="ssr:stedsnr" v="973776" />
	</node>
	<node id="9965445365" lat="61.6139083" lon="5.2175312" version="1" timestamp="2022-08-20T08:50:22Z" changeset="125138148" uid="3497659" user="NKA">
		<tag k="name" v="Tunet" />
		<tag k="place" v="farm" />
		<tag k="ssr:stedsnr" v="614969" />
	</node>
	<node id="9965445366" lat="61.5819702" lon="5.2477479" version="1" timestamp="2022-08-20T08:50:22Z" changeset="125138148" uid="3497659" user="NKA">
		<tag k="name" v="Seljeset" />
		<tag k="place" v="hamlet" />
		<tag k="ssr:stedsnr" v="494480" />
	</node>
	<node id="9965445367" lat="61.5719389" lon="5.3563891" version="1" timestamp="2022-08-20T08:50:22Z" changeset="125138148" uid="3497659" user="NKA">
		<tag k="name" v="Fagerheim" />
		<tag k="place" v="farm" />
		<tag k="ssr:stedsnr" v="918601" />
	</node>
	<node id="9965445368" lat="61.572206" lon="5.3003991" version="1" timestamp="2022-08-20T08:50:22Z" changeset="125138148" uid="3497659" user="NKA">
		<tag k="name" v="Plassen" />
		<tag k="place" v="farm" />
		<tag k="ssr:stedsnr" v="902931" />
	</node>
	<node id="9965445369" lat="61.5401628" lon="5.277063" version="1" timestamp="2022-08-20T08:50:22Z" changeset="125138148" uid="3497659" user="NKA">
		<tag k="name" v="Ausevik" />
		<tag k="place" v="hamlet" />
		<tag k="ssr:stedsnr" v="919568" />
	</node>
	<node id="9965445370" lat="61.6445194" lon="5.4006449" version="1" timestamp="2022-08-20T08:50:22Z" changeset="125138148" uid="3497659" user="NKA">
		<tag k="name" v="Leirvika" />
		<tag k="place" v="farm" />
		<tag k="ssr:stedsnr" v="203655" />
	</node>
	<node id="9965445371" lat="61.4929" lon="5.121284" version="1" timestamp="2022-08-20T08:50:22Z" changeset="125138148" uid="3497659" user="NKA">
		<tag k="name" v="Solhaug" />
		<tag k="place" v="farm" />
		<tag k="ssr:stedsnr" v="553016" />
	</node>
	<node id="9965445372" lat="61.6060806" lon="5.4568032" version="1" timestamp="2022-08-20T08:50:22Z" changeset="125138148" uid="3497659" user="NKA">
		<tag k="historic" v="shieling" />
		<tag k="name" v="Hovlandsstølane" />
		<tag k="place" v="isolated_dwelling" />
		<tag k="ssr:stedsnr" v="797969" />
	</node>
	<node id="9965445373" lat="61.60115" lon="5.3330728" version="1" timestamp="2022-08-20T08:50:22Z" changeset="125138148" uid="3497659" user="NKA">
		<tag k="name" v="Ospedal" />
		<tag k="place" v="farm" />
		<tag k="ssr:stedsnr" v="919994" />
	</node>
	<node id="9965445374" lat="61.5982694" lon="5.216895" version="1" timestamp="2022-08-20T08:50:22Z" changeset="125138148" uid="3497659" user="NKA">
		<tag k="alt_name" v="Rabben" />
		<tag k="name" v="Rabbane" />
		<tag k="place" v="farm" />
		<tag k="ssr:stedsnr" v="494998" />
	</node>
	<node id="9965445375" lat="61.5794236" lon="4.9937411" version="1" timestamp="2022-08-20T08:50:22Z" changeset="125138148" uid="3497659" user="NKA">
		<tag k="name" v="Vaulen" />
		<tag k="place" v="isolated_dwelling" />
		<tag k="ssr:stedsnr" v="967170" />
	</node>
	<node id="9965445376" lat="61.5415223" lon="5.2387977" version="1" timestamp="2022-08-20T08:50:22Z" changeset="125138148" uid="3497659" user="NKA">
		<tag k="alt_name" v="Berg" />
		<tag k="name" v="Berge" />
		<tag k="place" v="farm" />
		<tag k="ssr:stedsnr" v="797585" />
	</node>
	<node id="9965445377" lat="61.5761803" lon="5.2781136" version="1" timestamp="2022-08-20T08:50:22Z" changeset="125138148" uid="3497659" user="NKA">
		<tag k="name" v="Høyvik" />
		<tag k="place" v="hamlet" />
		<tag k="ssr:stedsnr" v="433515" />
	</node>
	<node id="9965445378" lat="61.5715583" lon="5.2892395" version="1" timestamp="2022-08-20T08:50:22Z" changeset="125138148" uid="3497659" user="NKA">
		<tag k="name" v="Kvia" />
		<tag k="place" v="farm" />
		<tag k="ssr:stedsnr" v="433507" />
	</node>
	<node id="9965445379" lat="61.5088949" lon="5.2253046" version="1" timestamp="2022-08-20T08:50:22Z" changeset="125138148" uid="3497659" user="NKA">
		<tag k="name" v="Tyvoll" />
		<tag k="place" v="hamlet" />
		<tag k="ssr:stedsnr" v="555778" />
	</node>
	<node id="9965445380" lat="61.5375861" lon="5.3281311" version="1" timestamp="2022-08-20T08:50:22Z" changeset="125138148" uid="3497659" user="NKA">
		<tag k="name" v="Lia" />
		<tag k="place" v="farm" />
		<tag k="ssr:stedsnr" v="494553" />
	</node>
	<node id="9965445381" lat="61.5960889" lon="5.3317089" version="1" timestamp="2022-08-20T08:50:22Z" changeset="125138148" uid="3497659" user="NKA">
		<tag k="alt_name" v="Jagedal" />
		<tag k="name" v="Jagedalen" />
		<tag k="place" v="farm" />
		<tag k="ssr:stedsnr" v="372983" />
	</node>
	<node id="9965445382" lat="61.5700874" lon="5.5706057" version="1" timestamp="2022-08-20T08:50:22Z" changeset="125138148" uid="3497659" user="NKA">
		<tag k="name" v="Langedal" />
		<tag k="place" v="hamlet" />
		<tag k="ssr:stedsnr" v="191452" />
	</node>
	<node id="9965445383" lat="61.5687482" lon="5.5433478" version="1" timestamp="2022-08-20T08:50:22Z" changeset="125138148" uid="3497659" user="NKA">
		<tag k="name" v="Sørdalen" />
		<tag k="place" v="farm" />
		<tag k="ssr:stedsnr" v="69525" />
	</node>
	<node id="9965445384" lat="61.5699916" lon="5.517956" version="1" timestamp="2022-08-20T08:50:22Z" changeset="125138148" uid="3497659" user="NKA">
		<tag k="name" v="Åsen" />
		<tag k="place" v="farm" />
		<tag k="ssr:stedsnr" v="554526" />
	</node>
	<node id="9965445385" lat="61.6674778" lon="4.9883173" version="1" timestamp="2022-08-20T08:50:22Z" changeset="125138148" uid="3497659" user="NKA">
		<tag k="name" v="Klipeholten" />
		<tag k="place" v="locality" />
		<tag k="ssr:stedsnr" v="130020" />
	</node>
	<node id="9965445386" lat="61.5713326" lon="5.3048465" version="1" timestamp="2022-08-20T08:50:22Z" changeset="125138148" uid="3497659" user="NKA">
		<tag k="name" v="Steinhovden" />
		<tag k="place" v="hamlet" />
		<tag k="ssr:stedsnr" v="263669" />
	</node>
	<node id="9965445387" lat="61.5214542" lon="5.5647146" version="1" timestamp="2022-08-20T08:50:22Z" changeset="125138148" uid="3497659" user="NKA">
		<tag k="historic" v="shieling" />
		<tag k="name" v="Hellestølen" />
		<tag k="place" v="isolated_dwelling" />
		<tag k="ssr:stedsnr" v="273394" />
	</node>
	<node id="9965445388" lat="61.5408278" lon="5.2472062" version="1" timestamp="2022-08-20T08:50:22Z" changeset="125138148" uid="3497659" user="NKA">
		<tag k="name" v="Stranda" />
		<tag k="place" v="farm" />
		<tag k="ssr:stedsnr" v="372578" />
	</node>
	<node id="9965445389" lat="61.5421139" lon="5.3387256" version="1" timestamp="2022-08-20T08:50:22Z" changeset="125138148" uid="3497659" user="NKA">
		<tag k="name" v="Heggkvia" />
		<tag k="place" v="farm" />
		<tag k="ssr:stedsnr" v="251612" />
	</node>
	<node id="9965445390" lat="61.5794298" lon="5.2556046" version="1" timestamp="2022-08-20T08:50:22Z" changeset="125138148" uid="3497659" user="NKA">
		<tag k="name" v="Stranda" />
		<tag k="place" v="farm" />
		<tag k="ssr:stedsnr" v="637335" />
	</node>
	<node id="9965445391" lat="61.5894583" lon="5.4714726" version="1" timestamp="2022-08-20T08:50:22Z" changeset="125138148" uid="3497659" user="NKA">
		<tag k="alt_name" v="Hardbakke" />
		<tag k="name" v="Hardbakken" />
		<tag k="place" v="farm" />
		<tag k="ssr:stedsnr" v="191693" />
	</node>
	<node id="9965445392" lat="61.6566768" lon="4.9994638" version="1" timestamp="2022-08-20T08:50:22Z" changeset="125138148" uid="3497659" user="NKA">
		<tag k="name" v="Kvalvik" />
		<tag k="place" v="farm" />
		<tag k="ssr:stedsnr" v="797108" />
	</node>
	<node id="9965445393" lat="61.9898515" lon="5.1537618" version="1" timestamp="2022-08-20T08:50:22Z" changeset="125138148" uid="3497659" user="NKA">
		<tag k="name" v="Røysa" />
		<tag k="place" v="farm" />
		<tag k="ssr:stedsnr" v="495879" />
	</node>
	<node id="9965445394" lat="61.9557944" lon="5.1537257" version="1" timestamp="2022-08-20T08:50:22Z" changeset="125138148" uid="3497659" user="NKA">
		<tag k="name" v="Saltkjelvika" />
		<tag k="place" v="farm" />
		<tag k="ssr:stedsnr" v="799803" />
	</node>
	<node id="9965445395" lat="61.9521902" lon="5.1534161" version="1" timestamp="2022-08-20T08:50:22Z" changeset="125138148" uid="3497659" user="NKA">
		<tag k="name" v="Saltkjelen" />
		<tag k="place" v="hamlet" />
		<tag k="ssr:stedsnr" v="313818" />
	</node>
	<node id="9965445396" lat="61.5456222" lon="5.3932311" version="1" timestamp="2022-08-20T08:50:22Z" changeset="125138148" uid="3497659" user="NKA">
		<tag k="name" v="Teigane" />
		<tag k="place" v="locality" />
		<tag k="ssr:stedsnr" v="130549" />
	</node>
	<node id="9965445397" lat="61.5690461" lon="5.0529733" version="1" timestamp="2022-08-20T08:50:22Z" changeset="125138148" uid="3497659" user="NKA">
		<tag k="name" v="Veidesund" />
		<tag k="place" v="farm" />
		<tag k="ssr:stedsnr" v="554227" />
	</node>
	<node id="9965445398" lat="61.6178859" lon="5.2586967" version="1" timestamp="2022-08-20T08:50:22Z" changeset="125138148" uid="3497659" user="NKA">
		<tag k="alt_name" v="Uføret" />
		<tag k="name" v="Uførene" />
		<tag k="place" v="farm" />
		<tag k="ssr:stedsnr" v="736938" />
	</node>
	<node id="9965445399" lat="61.5752916" lon="5.3913089" version="1" timestamp="2022-08-20T08:50:22Z" changeset="125138148" uid="3497659" user="NKA">
		<tag k="alt_name" v="Skredhaugane;Skrehaug" />
		<tag k="name" v="Skredhaug" />
		<tag k="place" v="farm" />
		<tag k="ssr:stedsnr" v="69586" />
	</node>
	<node id="9965445400" lat="61.5400339" lon="5.3010383" version="1" timestamp="2022-08-20T08:50:22Z" changeset="125138148" uid="3497659" user="NKA">
		<tag k="alt_name" v="Høydal;Høydal, litle" />
		<tag k="name" v="Litle Høydal" />
		<tag k="place" v="hamlet" />
		<tag k="ssr:stedsnr" v="737590" />
	</node>
	<node id="9965445401" lat="61.6150389" lon="5.2113534" version="1" timestamp="2022-08-20T08:50:22Z" changeset="125138148" uid="3497659" user="NKA">
		<tag k="name" v="Vika" />
		<tag k="place" v="farm" />
		<tag k="ssr:stedsnr" v="493965" />
	</node>
	<node id="9965445402" lat="61.6125184" lon="5.3504793" version="1" timestamp="2022-08-20T08:50:22Z" changeset="125138148" uid="3497659" user="NKA">
		<tag k="name" v="Hatleset" />
		<tag k="place" v="hamlet" />
		<tag k="ssr:stedsnr" v="858989" />
	</node>
	<node id="9965445403" lat="61.5949714" lon="5.2173205" version="1" timestamp="2022-08-20T08:50:22Z" changeset="125138148" uid="3497659" user="NKA">
		<tag k="name" v="Nyttingnes" />
		<tag k="place" v="hamlet" />
		<tag k="ssr:stedsnr" v="797998" />
	</node>
	<node id="9965445404" lat="61.53575" lon="5.3107616" version="1" timestamp="2022-08-20T08:50:22Z" changeset="125138148" uid="3497659" user="NKA">
		<tag k="alt_name" v="Hillaren" />
		<tag k="name" v="Hilleren" />
		<tag k="place" v="farm" />
		<tag k="ssr:stedsnr" v="372597" />
	</node>
	<node id="9965445405" lat="61.6139799" lon="5.2196066" version="1" timestamp="2022-08-20T08:50:22Z" changeset="125138148" uid="3497659" user="NKA">
		<tag k="name" v="Bjørnset" />
		<tag k="place" v="hamlet" />
		<tag k="ssr:stedsnr" v="736965" />
	</node>
	<node id="9965445406" lat="61.6342303" lon="5.2398739" version="1" timestamp="2022-08-20T08:50:22Z" changeset="125138148" uid="3497659" user="NKA">
		<tag k="name" v="Haukå" />
		<tag k="place" v="hamlet" />
		<tag k="ssr:stedsnr" v="858915" />
	</node>
	<node id="9965445407" lat="61.5665889" lon="5.3134672" version="1" timestamp="2022-08-20T08:50:22Z" changeset="125138148" uid="3497659" user="NKA">
		<tag k="name" v="Steinvik" />
		<tag k="place" v="farm" />
		<tag k="ssr:stedsnr" v="129528" />
	</node>
	<node id="9965445408" lat="61.599643" lon="5.0647027" version="1" timestamp="2022-08-20T08:50:22Z" changeset="125138148" uid="3497659" user="NKA">
		<tag k="name" v="Gaddevåg" />
		<tag k="place" v="suburb" />
		<tag k="ssr:stedsnr" v="191110" />
	</node>
	<node id="9965445409" lat="61.6371494" lon="5.1110017" version="1" timestamp="2022-08-20T08:50:22Z" changeset="125138148" uid="3497659" user="NKA">
		<tag k="name" v="Terdalen" />
		<tag k="place" v="hamlet" />
		<tag k="ssr:stedsnr" v="190891" />
	</node>
	<node id="9965445410" lat="61.6527795" lon="5.0047829" version="1" timestamp="2022-08-20T08:50:22Z" changeset="125138148" uid="3497659" user="NKA">
		<tag k="name" v="Ura" />
		<tag k="place" v="hamlet" />
		<tag k="ssr:stedsnr" v="69099" />
	</node>
	<node id="9965445411" lat="61.6432223" lon="5.1983839" version="1" timestamp="2022-08-20T08:50:22Z" changeset="125138148" uid="3497659" user="NKA">
		<tag k="historic" v="shieling" />
		<tag k="name" v="Gamlestølen" />
		<tag k="place" v="isolated_dwelling" />
		<tag k="ssr:stedsnr" v="757128" />
	</node>
	<node id="9965445412" lat="61.6342512" lon="4.9708456" version="1" timestamp="2022-08-20T08:50:22Z" changeset="125138148" uid="3497659" user="NKA">
		<tag k="name" v="Nærøyane" />
		<tag k="place" v="farm" />
		<tag k="ssr:stedsnr" v="973726" />
	</node>
	<node id="9965445413" lat="61.6363778" lon="5.1138312" version="1" timestamp="2022-08-20T08:50:22Z" changeset="125138148" uid="3497659" user="NKA">
		<tag k="name" v="Nova" />
		<tag k="place" v="farm" />
		<tag k="ssr:stedsnr" v="69896" />
	</node>
	<node id="9965445414" lat="61.6015084" lon="5.1313905" version="1" timestamp="2022-08-20T08:50:22Z" changeset="125138148" uid="3497659" user="NKA">
		<tag k="name" v="Slettevollen" />
		<tag k="place" v="neighbourhood" />
		<tag k="ssr:stedsnr" v="209736" />
	</node>
	<node id="9965445415" lat="61.5607195" lon="5.0679396" version="1" timestamp="2022-08-20T08:50:22Z" changeset="125138148" uid="3497659" user="NKA">
		<tag k="name" v="Djupevågen" />
		<tag k="place" v="farm" />
		<tag k="ssr:stedsnr" v="8796" />
	</node>
	<node id="9965445416" lat="61.5963055" lon="5.0916507" version="1" timestamp="2022-08-20T08:50:22Z" changeset="125138148" uid="3497659" user="NKA">
		<tag k="name" v="Orheim" />
		<tag k="place" v="farm" />
		<tag k="ssr:stedsnr" v="737203" />
	</node>
	<node id="9965481217" lat="61.5919394" lon="4.8667445" version="1" timestamp="2022-08-20T08:50:22Z" changeset="125138148" uid="3497659" user="NKA">
		<tag k="alt_name" v="Skorpeeidet" />
		<tag k="name" v="Skorpeidet" />
		<tag k="place" v="hamlet" />
		<tag k="ssr:stedsnr" v="494135" />
	</node>
	<node id="9965481218" lat="61.6366727" lon="5.3258528" version="1" timestamp="2022-08-20T08:50:22Z" changeset="125138148" uid="3497659" user="NKA">
		<tag k="name" v="Straumsneset" />
		<tag k="place" v="farm" />
		<tag k="ssr:stedsnr" v="312902" />
	</node>
	<node id="9965481219" lat="61.6242185" lon="5.0882189" version="1" timestamp="2022-08-20T08:50:22Z" changeset="125138148" uid="3497659" user="NKA">
		<tag k="name" v="Terøy" />
		<tag k="place" v="farm" />
		<tag k="ssr:stedsnr" v="8189" />
	</node>
	<node id="9965481220" lat="61.5296792" lon="5.1773566" version="1" timestamp="2022-08-20T08:50:22Z" changeset="125138148" uid="3497659" user="NKA">
		<tag k="name" v="Selvik" />
		<tag k="place" v="farm" />
		<tag k="ssr:stedsnr" v="393069" />
	</node>
	<node id="9965481221" lat="61.5742306" lon="5.2663533" version="1" timestamp="2022-08-20T08:50:22Z" changeset="125138148" uid="3497659" user="NKA">
		<tag k="name" v="Holmesund" />
		<tag k="place" v="hamlet" />
		<tag k="ssr:stedsnr" v="312527" />
	</node>
	<node id="9965481222" lat="61.600562" lon="5.1154036" version="1" timestamp="2022-08-20T08:50:22Z" changeset="125138148" uid="3497659" user="NKA">
		<tag k="name" v="Solheim" />
		<tag k="place" v="hamlet" />
		<tag k="ssr:stedsnr" v="372991" />
	</node>
	<node id="9965481223" lat="61.5436979" lon="5.1860346" version="1" timestamp="2022-08-20T08:50:22Z" changeset="125138148" uid="3497659" user="NKA">
		<tag k="name" v="Vika" />
		<tag k="place" v="hamlet" />
		<tag k="ssr:stedsnr" v="129561" />
	</node>
	<node id="9965481224" lat="61.5758414" lon="5.1462457" version="1" timestamp="2022-08-20T08:50:22Z" changeset="125138148" uid="3497659" user="NKA">
		<tag k="name" v="Alværn" />
		<tag k="place" v="farm" />
		<tag k="ssr:stedsnr" v="393126" />
	</node>
	<node id="9965481225" lat="61.563942" lon="5.0717361" version="1" timestamp="2022-08-20T08:50:22Z" changeset="125138148" uid="3497659" user="NKA">
		<tag k="name" v="Andalen" />
		<tag k="place" v="hamlet" />
		<tag k="ssr:stedsnr" v="8240" />
	</node>
	<node id="9965481226" lat="61.5758722" lon="5.1498089" version="1" timestamp="2022-08-20T08:50:22Z" changeset="125138148" uid="3497659" user="NKA">
		<tag k="name" v="Tunet" />
		<tag k="place" v="farm" />
		<tag k="ssr:stedsnr" v="372534" />
	</node>
	<node id="9965481227" lat="61.5145722" lon="5.1833505" version="1" timestamp="2022-08-20T08:50:22Z" changeset="125138148" uid="3497659" user="NKA">
		<tag k="name" v="Steinavågen" />
		<tag k="place" v="farm" />
		<tag k="ssr:stedsnr" v="130576" />
	</node>
	<node id="9965481228" lat="61.5526388" lon="5.1594006" version="1" timestamp="2022-08-20T08:50:22Z" changeset="125138148" uid="3497659" user="NKA">
		<tag k="name" v="Stølen" />
		<tag k="place" v="farm" />
		<tag k="ssr:stedsnr" v="129545" />
	</node>
	<node id="9965481229" lat="61.5794673" lon="4.9934429" version="1" timestamp="2022-08-20T08:50:22Z" changeset="125138148" uid="3497659" user="NKA">
		<tag k="name" v="Furesund" />
		<tag k="place" v="farm" />
		<tag k="ssr:stedsnr" v="675283" />
	</node>
	<node id="9965481230" lat="61.5980724" lon="5.2494588" version="1" timestamp="2022-08-20T08:50:22Z" changeset="125138148" uid="3497659" user="NKA">
		<tag k="name" v="Sandvika" />
		<tag k="place" v="hamlet" />
		<tag k="ssr:stedsnr" v="190996" />
	</node>
	<node id="9965481231" lat="61.9827635" lon="5.0591107" version="1" timestamp="2022-08-20T08:50:22Z" changeset="125138148" uid="3497659" user="NKA">
		<tag k="name" v="Indre Kvalheim" />
		<tag k="place" v="farm" />
		<tag k="ssr:stedsnr" v="738960" />
	</node>
	<node id="9965481232" lat="61.9560603" lon="5.0570177" version="1" timestamp="2022-08-20T08:50:22Z" changeset="125138148" uid="3497659" user="NKA">
		<tag k="name" v="Myrestrand" />
		<tag k="place" v="farm" />
		<tag k="ssr:stedsnr" v="882364" />
	</node>
	<node id="9965481233" lat="61.6271666" lon="5.4177004" version="1" timestamp="2022-08-20T08:50:22Z" changeset="125138148" uid="3497659" user="NKA">
		<tag k="alt_name" v="Nordalsstølen" />
		<tag k="historic" v="shieling" />
		<tag k="name" v="Norddalsstølen" />
		<tag k="place" v="isolated_dwelling" />
		<tag k="ssr:stedsnr" v="69957" />
	</node>
	<node id="9965481234" lat="61.5739582" lon="5.345236" version="1" timestamp="2022-08-20T08:50:22Z" changeset="125138148" uid="3497659" user="NKA">
		<tag k="name" v="Lendinga" />
		<tag k="place" v="farm" />
		<tag k="ssr:stedsnr" v="174142" />
	</node>
	<node id="9965481235" lat="61.6511722" lon="5.13057" version="1" timestamp="2022-08-20T08:50:22Z" changeset="125138148" uid="3497659" user="NKA">
		<tag k="historic" v="shieling" />
		<tag k="name" v="Stølen" />
		<tag k="place" v="isolated_dwelling" />
		<tag k="ssr:stedsnr" v="635622" />
	</node>
	<node id="9965481236" lat="61.6024906" lon="5.1383885" version="1" timestamp="2022-08-20T08:50:22Z" changeset="125138148" uid="3497659" user="NKA">
		<tag k="name" v="Røysa" />
		<tag k="place" v="neighbourhood" />
		<tag k="ssr:stedsnr" v="574604" />
	</node>
	<node id="9965481237" lat="61.5516588" lon="5.1350561" version="1" timestamp="2022-08-20T08:50:22Z" changeset="125138148" uid="3497659" user="NKA">
		<tag k="name" v="Stavøyteigen" />
		<tag k="place" v="farm" />
		<tag k="ssr:stedsnr" v="635047" />
	</node>
	<node id="9965481238" lat="61.610677" lon="5.3029381" version="1" timestamp="2022-08-20T08:50:22Z" changeset="125138148" uid="3497659" user="NKA">
		<tag k="name" v="Leversund" />
		<tag k="place" v="farm" />
		<tag k="ssr:stedsnr" v="31995" />
	</node>
	<node id="9965481239" lat="61.5524608" lon="5.1234662" version="1" timestamp="2022-08-20T08:50:22Z" changeset="125138148" uid="3497659" user="NKA">
		<tag k="name" v="Stavøy" />
		<tag k="place" v="hamlet" />
		<tag k="ssr:stedsnr" v="433543" />
	</node>
	<node id="9965481240" lat="61.5997472" lon="5.2993728" version="1" timestamp="2022-08-20T08:50:22Z" changeset="125138148" uid="3497659" user="NKA">
		<tag k="historic" v="shieling" />
		<tag k="name" v="Ospedalstølen" />
		<tag k="place" v="isolated_dwelling" />
		<tag k="ssr:stedsnr" v="31966" />
	</node>
	<node id="9965481241" lat="61.5966933" lon="5.2513284" version="1" timestamp="2022-08-20T08:50:22Z" changeset="125138148" uid="3497659" user="NKA">
		<tag k="name" v="Reinene" />
		<tag k="place" v="farm" />
		<tag k="ssr:stedsnr" v="31070" />
	</node>
	<node id="9965481242" lat="61.5753833" lon="5.1607866" version="1" timestamp="2022-08-20T08:50:22Z" changeset="125138148" uid="3497659" user="NKA">
		<tag k="name" v="Neset" />
		<tag k="place" v="farm" />
		<tag k="ssr:stedsnr" v="191478" />
	</node>
	<node id="9965481243" lat="61.5386389" lon="5.3013091" version="1" timestamp="2022-08-20T08:50:22Z" changeset="125138148" uid="3497659" user="NKA">
		<tag k="name" v="Tunet" />
		<tag k="place" v="farm" />
		<tag k="ssr:stedsnr" v="31912" />
	</node>
	<node id="9965481244" lat="61.6093334" lon="5.1935173" version="1" timestamp="2022-08-20T08:50:22Z" changeset="125138148" uid="3497659" user="NKA">
		<tag k="name" v="Uførsteigen" />
		<tag k="place" v="locality" />
		<tag k="ssr:stedsnr" v="879755" />
	</node>
	<node id="9965481245" lat="61.6001397" lon="5.3591432" version="1" timestamp="2022-08-20T08:50:22Z" changeset="125138148" uid="3497659" user="NKA">
		<tag k="name" v="Grønevik" />
		<tag k="place" v="farm" />
		<tag k="ssr:stedsnr" v="8976" />
	</node>
	<node id="9965481246" lat="61.6066972" lon="5.2988421" version="1" timestamp="2022-08-20T08:50:22Z" changeset="125138148" uid="3497659" user="NKA">
		<tag k="name" v="Fjellvik" />
		<tag k="place" v="farm" />
		<tag k="ssr:stedsnr" v="8989" />
	</node>
	<node id="9965481247" lat="61.6275917" lon="5.3462143" version="1" timestamp="2022-08-20T08:50:22Z" changeset="125138148" uid="3497659" user="NKA">
		<tag k="name" v="Røyremarka" />
		<tag k="place" v="locality" />
		<tag k="ssr:stedsnr" v="30768" />
	</node>
	<node id="9965481248" lat="61.5889712" lon="5.3684153" version="1" timestamp="2022-08-20T08:50:22Z" changeset="125138148" uid="3497659" user="NKA">
		<tag k="alt_name" v="Kvalsvik;Kallsvika" />
		<tag k="name" v="Kalsvik" />
		<tag k="place" v="hamlet" />
		<tag k="ssr:stedsnr" v="9527" />
	</node>
	<node id="9965481249" lat="61.6048778" lon="5.0721117" version="1" timestamp="2022-08-20T08:50:22Z" changeset="125138148" uid="3497659" user="NKA">
		<tag k="name" v="Plassane" />
		<tag k="place" v="farm" />
		<tag k="ssr:stedsnr" v="312121" />
	</node>
	<node id="9965481250" lat="61.4991242" lon="5.0769418" version="1" timestamp="2022-08-20T08:50:22Z" changeset="125138148" uid="3497659" user="NKA">
		<tag k="name" v="Erikstad" />
		<tag k="place" v="hamlet" />
		<tag k="ssr:stedsnr" v="675381" />
	</node>
	<node id="9965481251" lat="61.5441" lon="5.3377394" version="1" timestamp="2022-08-20T08:50:22Z" changeset="125138148" uid="3497659" user="NKA">
		<tag k="alt_name" v="Leirbakken" />
		<tag k="name" v="Leirbakk" />
		<tag k="place" v="farm" />
		<tag k="ssr:stedsnr" v="372581" />
	</node>
	<node id="9965481252" lat="61.9145283" lon="5.2967948" version="1" timestamp="2022-08-20T08:50:22Z" changeset="125138148" uid="3497659" user="NKA">
		<tag k="alt_name" v="Rødhjelle" />
		<tag k="name" v="Raudhjellane" />
		<tag k="place" v="farm" />
		<tag k="ssr:stedsnr" v="822520" />
	</node>
	<node id="9965481253" lat="61.6321481" lon="5.2706671" version="1" timestamp="2022-08-20T08:50:22Z" changeset="125138148" uid="3497659" user="NKA">
		<tag k="name" v="Trettevika" />
		<tag k="place" v="farm" />
		<tag k="ssr:stedsnr" v="69954" />
	</node>
	<node id="9965481254" lat="61.9965528" lon="5.0279396" version="1" timestamp="2022-08-20T08:50:22Z" changeset="125138148" uid="3497659" user="NKA">
		<tag k="name" v="Skjenet" />
		<tag k="place" v="locality" />
		<tag k="ssr:stedsnr" v="920528" />
	</node>
	<node id="9965481255" lat="61.5341338" lon="5.1952537" version="1" timestamp="2022-08-20T08:50:22Z" changeset="125138148" uid="3497659" user="NKA">
		<tag k="name" v="Indrebø" />
		<tag k="place" v="farm" />
		<tag k="ssr:stedsnr" v="113502" />
	</node>
	<node id="9965481256" lat="61.583496" lon="5.3317529" version="1" timestamp="2022-08-20T08:50:22Z" changeset="125138148" uid="3497659" user="NKA">
		<tag k="name" v="Botnavik" />
		<tag k="place" v="farm" />
		<tag k="ssr:stedsnr" v="919504" />
	</node>
	<node id="9965481257" lat="61.5868333" lon="4.7956315" version="1" timestamp="2022-08-20T08:50:22Z" changeset="125138148" uid="3497659" user="NKA">
		<tag k="name" v="Plassen" />
		<tag k="place" v="isolated_dwelling" />
		<tag k="ssr:stedsnr" v="554150" />
	</node>
	<node id="9965481258" lat="61.9144167" lon="5.2506367" version="1" timestamp="2022-08-20T08:50:22Z" changeset="125138148" uid="3497659" user="NKA">
		<tag k="historic" v="shieling" />
		<tag k="name" v="Setra" />
		<tag k="place" v="isolated_dwelling" />
		<tag k="ssr:stedsnr" v="882478" />
	</node>
	<node id="9965481259" lat="61.6329138" lon="5.0450174" version="1" timestamp="2022-08-20T08:50:22Z" changeset="125138148" uid="3497659" user="NKA">
		<tag k="name" v="Otrevik" />
		<tag k="place" v="isolated_dwelling" />
		<tag k="ssr:stedsnr" v="466809" />
	</node>
	<node id="9965481260" lat="61.6203028" lon="5.3890838" version="1" timestamp="2022-08-20T08:50:22Z" changeset="125138148" uid="3497659" user="NKA">
		<tag k="historic" v="shieling" />
		<tag k="name" v="Ytre Strandastølen" />
		<tag k="place" v="isolated_dwelling" />
		<tag k="ssr:stedsnr" v="858938" />
	</node>
	<node id="9965481261" lat="61.5641336" lon="4.8472225" version="1" timestamp="2022-08-20T08:50:22Z" changeset="125138148" uid="3497659" user="NKA">
		<tag k="name" v="Indre Reksta" />
		<tag k="place" v="hamlet" />
		<tag k="ssr:stedsnr" v="615182" />
	</node>
	<node id="9965481262" lat="61.5245889" lon="5.4654367" version="1" timestamp="2022-08-20T08:50:22Z" changeset="125138148" uid="3497659" user="NKA">
		<tag k="name" v="Øyrakvia" />
		<tag k="place" v="locality" />
		<tag k="ssr:stedsnr" v="494585" />
	</node>
	<node id="9965481263" lat="61.6224611" lon="5.5803865" version="1" timestamp="2022-08-20T08:50:22Z" changeset="125138148" uid="3497659" user="NKA">
		<tag k="name" v="Oppheim" />
		<tag k="place" v="farm" />
		<tag k="ssr:stedsnr" v="494694" />
	</node>
	<node id="9965481264" lat="61.5875835" lon="5.3340366" version="1" timestamp="2022-08-20T08:50:22Z" changeset="125138148" uid="3497659" user="NKA">
		<tag k="name" v="Sagevik" />
		<tag k="place" v="hamlet" />
		<tag k="ssr:stedsnr" v="494474" />
	</node>
	<node id="9965481265" lat="61.5270235" lon="5.1861892" version="1" timestamp="2022-08-20T08:50:22Z" changeset="125138148" uid="3497659" user="NKA">
		<tag k="name" v="Stokkebekken" />
		<tag k="place" v="farm" />
		<tag k="ssr:stedsnr" v="919562" />
	</node>
	<node id="9965481266" lat="61.5153527" lon="5.260406" version="1" timestamp="2022-08-20T08:50:22Z" changeset="125138148" uid="3497659" user="NKA">
		<tag k="historic" v="shieling" />
		<tag k="name" v="Einastølen" />
		<tag k="place" v="isolated_dwelling" />
		<tag k="ssr:stedsnr" v="941844" />
	</node>
	<node id="9965481267" lat="61.51795" lon="5.3142116" version="1" timestamp="2022-08-20T08:50:22Z" changeset="125138148" uid="3497659" user="NKA">
		<tag k="name" v="Tungene" />
		<tag k="place" v="locality" />
		<tag k="ssr:stedsnr" v="676594" />
	</node>
	<node id="9965481268" lat="61.9131099" lon="5.2881959" version="1" timestamp="2022-08-20T08:50:22Z" changeset="125138148" uid="3497659" user="NKA">
		<tag k="name" v="Raudegga" />
		<tag k="place" v="hamlet" />
		<tag k="ssr:stedsnr" v="616199" />
	</node>
	<node id="9965481269" lat="61.5168917" lon="5.3526476" version="1" timestamp="2022-08-20T08:50:22Z" changeset="125138148" uid="3497659" user="NKA">
		<tag k="historic" v="shieling" />
		<tag k="name" v="Standalsstølen" />
		<tag k="place" v="isolated_dwelling" />
		<tag k="ssr:stedsnr" v="797618" />
	</node>
	<node id="9965481270" lat="61.6009028" lon="5.609692" version="1" timestamp="2022-08-20T08:50:22Z" changeset="125138148" uid="3497659" user="NKA">
		<tag k="historic" v="shieling" />
		<tag k="name" v="Endestadstøylen" />
		<tag k="place" v="isolated_dwelling" />
		<tag k="ssr:stedsnr" v="372755" />
	</node>
	<node id="9965481271" lat="61.5160222" lon="5.3350422" version="1" timestamp="2022-08-20T08:50:22Z" changeset="125138148" uid="3497659" user="NKA">
		<tag k="name" v="Gamlestølen" />
		<tag k="place" v="locality" />
		<tag k="ssr:stedsnr" v="8626" />
	</node>
	<node id="9965481272" lat="61.5847638" lon="5.361881" version="1" timestamp="2022-08-20T08:50:22Z" changeset="125138148" uid="3497659" user="NKA">
		<tag k="alt_name" v="Djupevik" />
		<tag k="name" v="Djupvik" />
		<tag k="place" v="farm" />
		<tag k="ssr:stedsnr" v="798490" />
	</node>
	<node id="9965481273" lat="61.5423102" lon="5.1860427" version="1" timestamp="2022-08-20T08:50:22Z" changeset="125138148" uid="3497659" user="NKA">
		<tag k="name" v="Tomasvik" />
		<tag k="place" v="farm" />
		<tag k="ssr:stedsnr" v="902568" />
	</node>
	<node id="9965481274" lat="61.6191945" lon="5.3598561" version="1" timestamp="2022-08-20T08:50:22Z" changeset="125138148" uid="3497659" user="NKA">
		<tag k="historic" v="shieling" />
		<tag k="name" v="Hatlesetstølen" />
		<tag k="place" v="isolated_dwelling" />
		<tag k="ssr:stedsnr" v="190945" />
	</node>
	<node id="9965481275" lat="61.5743666" lon="5.4620644" version="1" timestamp="2022-08-20T08:50:22Z" changeset="125138148" uid="3497659" user="NKA">
		<tag k="name" v="Orehola" />
		<tag k="place" v="farm" />
		<tag k="ssr:stedsnr" v="797544" />
	</node>
	<node id="9965481276" lat="61.9377976" lon="5.1091802" version="1" timestamp="2022-08-20T08:50:22Z" changeset="125138148" uid="3497659" user="NKA">
		<tag k="alt_name" v="Midgarden" />
		<tag k="name" v="Midtgård" />
		<tag k="place" v="neighbourhood" />
		<tag k="ssr:stedsnr" v="822673" />
	</node>
	<node id="9965481277" lat="61.9490519" lon="5.0528457" version="1" timestamp="2022-08-20T08:50:22Z" changeset="125138148" uid="3497659" user="NKA">
		<tag k="name" v="Gravdal" />
		<tag k="place" v="farm" />
		<tag k="ssr:stedsnr" v="478504" />
	</node>
	<node id="9965481278" lat="61.6045167" lon="5.1542339" version="1" timestamp="2022-08-20T08:50:22Z" changeset="125138148" uid="3497659" user="NKA">
		<tag k="name" v="Skogheim" />
		<tag k="place" v="farm" />
		<tag k="ssr:stedsnr" v="433946" />
	</node>
	<node id="9965481279" lat="61.5839931" lon="5.4940831" version="1" timestamp="2022-08-20T08:50:22Z" changeset="125138148" uid="3497659" user="NKA">
		<tag k="name" v="Knappstad" />
		<tag k="place" v="hamlet" />
		<tag k="ssr:stedsnr" v="737738" />
	</node>
	<node id="9965481280" lat="61.6406183" lon="5.3822703" version="1" timestamp="2022-08-20T08:50:22Z" changeset="125138148" uid="3497659" user="NKA">
		<tag k="name" v="Sørtun" />
		<tag k="place" v="farm" />
		<tag k="ssr:stedsnr" v="174343" />
	</node>
	<node id="9965481281" lat="61.5560135" lon="5.1579408" version="1" timestamp="2022-08-20T08:50:22Z" changeset="125138148" uid="3497659" user="NKA">
		<tag k="name" v="Eikevik" />
		<tag k="place" v="farm" />
		<tag k="ssr:stedsnr" v="190552" />
	</node>
	<node id="9965481282" lat="61.6650028" lon="4.9395091" version="1" timestamp="2022-08-20T08:50:22Z" changeset="125138148" uid="3497659" user="NKA">
		<tag k="name" v="Gåsøy" />
		<tag k="place" v="farm" />
		<tag k="ssr:stedsnr" v="494022" />
	</node>
	<node id="9965481283" lat="61.6425805" lon="5.3809117" version="1" timestamp="2022-08-20T08:50:22Z" changeset="125138148" uid="3497659" user="NKA">
		<tag k="name" v="Nordgard" />
		<tag k="place" v="farm" />
		<tag k="ssr:stedsnr" v="114306" />
	</node>
	<node id="9965481284" lat="61.6404898" lon="5.3800446" version="1" timestamp="2022-08-20T08:50:22Z" changeset="125138148" uid="3497659" user="NKA">
		<tag k="name" v="Hagen" />
		<tag k="place" v="farm" />
		<tag k="ssr:stedsnr" v="114303" />
	</node>
	<node id="9965481285" lat="61.65755" lon="5.2929143" version="1" timestamp="2022-08-20T08:50:22Z" changeset="125138148" uid="3497659" user="NKA">
		<tag k="name" v="Børabu" />
		<tag k="place" v="isolated_dwelling" />
		<tag k="ssr:stedsnr" v="146625" />
	</node>
	<node id="9965481286" lat="61.5781972" lon="5.6122698" version="1" timestamp="2022-08-20T08:50:22Z" changeset="125138148" uid="3497659" user="NKA">
		<tag k="historic" v="shieling" />
		<tag k="name" v="Sætelistøylen" />
		<tag k="place" v="isolated_dwelling" />
		<tag k="ssr:stedsnr" v="676474" />
	</node>
	<node id="9965481287" lat="61.5721805" lon="5.7184281" version="1" timestamp="2022-08-20T08:50:22Z" changeset="125138148" uid="3497659" user="NKA">
		<tag k="name" v="Trollstova" />
		<tag k="place" v="isolated_dwelling" />
		<tag k="ssr:stedsnr" v="554533" />
	</node>
	<node id="9965481288" lat="61.5763833" lon="5.4493755" version="1" timestamp="2022-08-20T08:50:22Z" changeset="125138148" uid="3497659" user="NKA">
		<tag k="name" v="Leirvåg" />
		<tag k="place" v="hamlet" />
		<tag k="ssr:stedsnr" v="554578" />
	</node>
	<node id="9965481289" lat="61.6656456" lon="4.8760665" version="1" timestamp="2022-08-20T08:50:22Z" changeset="125138148" uid="3497659" user="NKA">
		<tag k="name" v="Hundevågneset" />
		<tag k="place" v="farm" />
		<tag k="ssr:stedsnr" v="393302" />
	</node>
	<node id="9965481290" lat="61.5788306" lon="5.3359561" version="1" timestamp="2022-08-20T08:50:22Z" changeset="125138148" uid="3497659" user="NKA">
		<tag k="name" v="Vågen" />
		<tag k="place" v="farm" />
		<tag k="ssr:stedsnr" v="434463" />
	</node>
	<node id="9965481291" lat="61.5717756" lon="5.2846958" version="1" timestamp="2022-08-20T08:50:22Z" changeset="125138148" uid="3497659" user="NKA">
		<tag k="name" v="Furely" />
		<tag k="place" v="farm" />
		<tag k="ssr:stedsnr" v="493516" />
	</node>
	<node id="9965481292" lat="61.605" lon="5.4353588" version="1" timestamp="2022-08-20T08:50:22Z" changeset="125138148" uid="3497659" user="NKA">
		<tag k="alt_name" v="Kvalvikstølen" />
		<tag k="historic" v="shieling" />
		<tag k="name" v="Kvalvikstølane" />
		<tag k="place" v="isolated_dwelling" />
		<tag k="ssr:stedsnr" v="858966" />
	</node>
	<node id="9965481293" lat="61.5586583" lon="5.5486422" version="1" timestamp="2022-08-20T08:50:22Z" changeset="125138148" uid="3497659" user="NKA">
		<tag k="name" v="Sørdalsstøylen" />
		<tag k="place" v="isolated_dwelling" />
		<tag k="ssr:stedsnr" v="565688" />
	</node>
	<node id="9965481294" lat="61.6485155" lon="5.4447655" version="1" timestamp="2022-08-20T08:50:22Z" changeset="125138148" uid="3497659" user="NKA">
		<tag k="name" v="Solheim" />
		<tag k="place" v="farm" />
		<tag k="ssr:stedsnr" v="538717" />
	</node>
	<node id="9965481295" lat="61.6500092" lon="5.4652945" version="1" timestamp="2022-08-20T08:50:22Z" changeset="125138148" uid="3497659" user="NKA">
		<tag k="name" v="Porsvika" />
		<tag k="place" v="farm" />
		<tag k="ssr:stedsnr" v="880339" />
	</node>
	<node id="9965481296" lat="61.5794528" lon="5.5883977" version="1" timestamp="2022-08-20T08:50:22Z" changeset="125138148" uid="3497659" user="NKA">
		<tag k="historic" v="shieling" />
		<tag k="name" v="Langedalsstøylen" />
		<tag k="place" v="isolated_dwelling" />
		<tag k="ssr:stedsnr" v="919474" />
	</node>
	<node id="9965481297" lat="61.5461438" lon="5.1423106" version="1" timestamp="2022-08-20T08:50:22Z" changeset="125138148" uid="3497659" user="NKA">
		<tag k="name" v="Storøy" />
		<tag k="place" v="farm" />
		<tag k="ssr:stedsnr" v="494518" />
	</node>
	<node id="9965481298" lat="61.5573861" lon="5.4769671" version="1" timestamp="2022-08-20T08:50:22Z" changeset="125138148" uid="3497659" user="NKA">
		<tag k="historic" v="shieling" />
		<tag k="name" v="Vassetstølen" />
		<tag k="place" v="isolated_dwelling" />
		<tag k="ssr:stedsnr" v="212259" />
	</node>
	<node id="9965481299" lat="61.5922" lon="5.4252894" version="1" timestamp="2022-08-20T08:50:22Z" changeset="125138148" uid="3497659" user="NKA">
		<tag k="name" v="Nesjane" />
		<tag k="place" v="locality" />
		<tag k="ssr:stedsnr" v="737498" />
	</node>
	<node id="9965481300" lat="61.586675" lon="5.5575644" version="1" timestamp="2022-08-20T08:50:22Z" changeset="125138148" uid="3497659" user="NKA">
		<tag k="name" v="Bøen" />
		<tag k="place" v="farm" />
		<tag k="ssr:stedsnr" v="434433" />
	</node>
	<node id="9965481301" lat="61.6351361" lon="5.2061895" version="1" timestamp="2022-08-20T08:50:22Z" changeset="125138148" uid="3497659" user="NKA">
		<tag k="name" v="Tå" />
		<tag k="place" v="isolated_dwelling" />
		<tag k="ssr:stedsnr" v="434901" />
	</node>
	<node id="9965481302" lat="61.5953055" lon="5.0557035" version="1" timestamp="2022-08-20T08:50:22Z" changeset="125138148" uid="3497659" user="NKA">
		<tag k="name" v="Nybø" />
		<tag k="place" v="neighbourhood" />
		<tag k="ssr:stedsnr" v="251239" />
	</node>
	<node id="9965481303" lat="61.5934695" lon="5.448756" version="1" timestamp="2022-08-20T08:50:22Z" changeset="125138148" uid="3497659" user="NKA">
		<tag k="name" v="Kleiva" />
		<tag k="place" v="farm" />
		<tag k="ssr:stedsnr" v="434470" />
	</node>
	<node id="9965481304" lat="61.6719833" lon="5.3971506" version="1" timestamp="2022-08-20T08:50:22Z" changeset="125138148" uid="3497659" user="NKA">
		<tag k="name" v="Fessestølen" />
		<tag k="place" v="locality" />
		<tag k="ssr:stedsnr" v="433904" />
	</node>
	<node id="9965481305" lat="61.6504166" lon="5.4687643" version="1" timestamp="2022-08-20T08:50:22Z" changeset="125138148" uid="3497659" user="NKA">
		<tag k="name" v="Nesheim" />
		<tag k="place" v="farm" />
		<tag k="ssr:stedsnr" v="797711" />
	</node>
	<node id="9965481306" lat="61.5705084" lon="5.4453367" version="1" timestamp="2022-08-20T08:50:22Z" changeset="125138148" uid="3497659" user="NKA">
		<tag k="name" v="Stegane" />
		<tag k="place" v="farm" />
		<tag k="ssr:stedsnr" v="190556" />
	</node>
	<node id="9965481307" lat="61.6130081" lon="5.5527789" version="1" timestamp="2022-08-20T08:50:22Z" changeset="125138148" uid="3497659" user="NKA">
		<tag k="name" v="Botnen" />
		<tag k="place" v="farm" />
		<tag k="ssr:stedsnr" v="434690" />
	</node>
	<node id="9965481308" lat="61.5856056" lon="5.5397338" version="1" timestamp="2022-08-20T08:50:22Z" changeset="125138148" uid="3497659" user="NKA">
		<tag k="name" v="Øyraskora" />
		<tag k="place" v="isolated_dwelling" />
		<tag k="ssr:stedsnr" v="312464" />
	</node>
	<node id="9965481309" lat="61.5842873" lon="5.5538105" version="1" timestamp="2022-08-20T08:50:22Z" changeset="125138148" uid="3497659" user="NKA">
		<tag k="name" v="Endestad" />
		<tag k="place" v="hamlet" />
		<tag k="ssr:stedsnr" v="373487" />
	</node>
	<node id="9965481310" lat="61.5919575" lon="5.4525502" version="1" timestamp="2022-08-20T08:50:22Z" changeset="125138148" uid="3497659" user="NKA">
		<tag k="name" v="Hovland" />
		<tag k="place" v="hamlet" />
		<tag k="ssr:stedsnr" v="737501" />
	</node>
	<node id="9965481311" lat="61.6561278" lon="5.5095393" version="1" timestamp="2022-08-20T08:50:22Z" changeset="125138148" uid="3497659" user="NKA">
		<tag k="name" v="Langemyra" />
		<tag k="place" v="farm" />
		<tag k="ssr:stedsnr" v="372717" />
	</node>
	<node id="9965481312" lat="61.6533917" lon="5.5072781" version="1" timestamp="2022-08-20T08:50:22Z" changeset="125138148" uid="3497659" user="NKA">
		<tag k="name" v="Holmane" />
		<tag k="place" v="locality" />
		<tag k="ssr:stedsnr" v="372716" />
	</node>
	<node id="9965481313" lat="61.9399194" lon="5.1005673" version="1" timestamp="2022-08-20T08:50:22Z" changeset="125138148" uid="3497659" user="NKA">
		<tag k="historic" v="shieling" />
		<tag k="name" v="Gamlesetra" />
		<tag k="place" v="isolated_dwelling" />
		<tag k="ssr:stedsnr" v="336281" />
	</node>
	<node id="9965481314" lat="61.9624998" lon="5.160469" version="1" timestamp="2022-08-20T08:50:22Z" changeset="125138148" uid="3497659" user="NKA">
		<tag k="name" v="Hagevik" />
		<tag k="place" v="farm" />
		<tag k="ssr:stedsnr" v="799788" />
	</node>
	<node id="9965481315" lat="61.9300384" lon="5.1277947" version="1" timestamp="2022-08-20T08:50:22Z" changeset="125138148" uid="3497659" user="NKA">
		<tag k="name" v="Kulen" />
		<tag k="place" v="neighbourhood" />
		<tag k="ssr:stedsnr" v="761668" />
	</node>
	<node id="9965481316" lat="61.5135806" lon="5.4984253" version="1" timestamp="2022-08-20T08:50:22Z" changeset="125138148" uid="3497659" user="NKA">
		<tag k="historic" v="shieling" />
		<tag k="name" v="Svardalsstøylen" />
		<tag k="place" v="isolated_dwelling" />
		<tag k="ssr:stedsnr" v="251433" />
	</node>
	<node id="9965481317" lat="61.9453929" lon="5.1613248" version="1" timestamp="2022-08-20T08:50:22Z" changeset="125138148" uid="3497659" user="NKA">
		<tag k="historic" v="shieling" />
		<tag k="name" v="Setra" />
		<tag k="place" v="isolated_dwelling" />
		<tag k="ssr:stedsnr" v="761316" />
	</node>
	<node id="9965481318" lat="61.9788141" lon="5.1587734" version="1" timestamp="2022-08-20T08:50:22Z" changeset="125138148" uid="3497659" user="NKA">
		<tag k="name" v="Hjartaneset" />
		<tag k="place" v="farm" />
		<tag k="ssr:stedsnr" v="253776" />
	</node>
	<node id="9965481319" lat="61.9138444" lon="5.1395729" version="1" timestamp="2022-08-20T08:50:22Z" changeset="125138148" uid="3497659" user="NKA">
		<tag k="name" v="Skavøy" />
		<tag k="place" v="farm" />
		<tag k="ssr:stedsnr" v="738227" />
	</node>
	<node id="9965481320" lat="61.6802577" lon="5.424011" version="1" timestamp="2022-08-20T08:50:22Z" changeset="125138148" uid="3497659" user="NKA">
		<tag k="name" v="Øyra" />
		<tag k="place" v="isolated_dwelling" />
		<tag k="ssr:stedsnr" v="615888" />
	</node>
	<node id="9965481321" lat="61.5829229" lon="5.4523779" version="1" timestamp="2022-08-20T08:50:22Z" changeset="125138148" uid="3497659" user="NKA">
		<tag k="name" v="Hella" />
		<tag k="place" v="farm" />
		<tag k="ssr:stedsnr" v="676529" />
	</node>
	<node id="9965481322" lat="61.6943571" lon="4.9856588" version="1" timestamp="2022-08-20T08:50:22Z" changeset="125138148" uid="3497659" user="NKA">
		<tag k="name" v="Husefest" />
		<tag k="place" v="hamlet" />
		<tag k="ssr:stedsnr" v="494052" />
	</node>
	<node id="9965481323" lat="61.5325556" lon="5.2755033" version="1" timestamp="2022-08-20T08:50:22Z" changeset="125138148" uid="3497659" user="NKA">
		<tag k="name" v="Ausevikstølen" />
		<tag k="place" v="locality" />
		<tag k="ssr:stedsnr" v="615588" />
	</node>
	<node id="9965481324" lat="61.9882726" lon="5.0555489" version="1" timestamp="2022-08-20T08:50:22Z" changeset="125138148" uid="3497659" user="NKA">
		<tag k="name" v="Kvalheim" />
		<tag k="place" v="hamlet" />
		<tag k="ssr:stedsnr" v="1080301" />
	</node>
	<node id="9965481325" lat="61.5696972" lon="4.8313481" version="1" timestamp="2022-08-20T08:50:22Z" changeset="125138148" uid="3497659" user="NKA">
		<tag k="name" v="Nesjane" />
		<tag k="place" v="farm" />
		<tag k="ssr:stedsnr" v="736203" />
	</node>
	<node id="9965481326" lat="61.6408277" lon="5.3770702" version="1" timestamp="2022-08-20T08:50:22Z" changeset="125138148" uid="3497659" user="NKA">
		<tag k="name" v="Nordbakken" />
		<tag k="place" v="farm" />
		<tag k="ssr:stedsnr" v="599276" />
	</node>
	<node id="9965481327" lat="61.9141695" lon="5.2984506" version="1" timestamp="2022-08-20T08:50:22Z" changeset="125138148" uid="3497659" user="NKA">
		<tag k="name" v="Brunnsvika" />
		<tag k="place" v="farm" />
		<tag k="ssr:stedsnr" v="920214" />
	</node>
	<node id="9965481328" lat="61.5725718" lon="5.466442" version="1" timestamp="2022-08-20T08:50:22Z" changeset="125138148" uid="3497659" user="NKA">
		<tag k="alt_name" v="Sundvorvik" />
		<tag k="name" v="Sunnarvik" />
		<tag k="place" v="hamlet" />
		<tag k="ssr:stedsnr" v="858495" />
	</node>
	<node id="9965481329" lat="61.6514472" lon="5.4741172" version="1" timestamp="2022-08-20T08:50:22Z" changeset="125138148" uid="3497659" user="NKA">
		<tag k="name" v="Nesjane" />
		<tag k="place" v="locality" />
		<tag k="ssr:stedsnr" v="515363" />
	</node>
	<node id="9965481330" lat="61.5948004" lon="5.0774522" version="1" timestamp="2022-08-20T08:50:22Z" changeset="125138148" uid="3497659" user="NKA">
		<tag k="name" v="Krokane" />
		<tag k="place" v="hamlet" />
		<tag k="ssr:stedsnr" v="676219" />
	</node>
	<node id="9965481331" lat="61.60562" lon="5.39986" version="1" timestamp="2022-08-20T08:50:22Z" changeset="125138148" uid="3497659" user="NKA">
		<tag k="name" v="Tonheim" />
		<tag k="place" v="hamlet" />
		<tag k="ssr:stedsnr" v="919960" />
	</node>
	<node id="9965481332" lat="61.9344171" lon="5.1059976" version="1" timestamp="2022-08-20T08:50:22Z" changeset="125138148" uid="3497659" user="NKA">
		<tag k="name" v="Skram" />
		<tag k="place" v="neighbourhood" />
		<tag k="ssr:stedsnr" v="215675" />
	</node>
	<node id="9965481333" lat="61.9152984" lon="5.2324478" version="1" timestamp="2022-08-20T08:50:22Z" changeset="125138148" uid="3497659" user="NKA">
		<tag k="name" v="Leitet" />
		<tag k="place" v="isolated_dwelling" />
		<tag k="ssr:stedsnr" v="295620" />
	</node>
	<node id="9965481334" lat="61.9370972" lon="5.1382174" version="1" timestamp="2022-08-20T08:50:22Z" changeset="125138148" uid="3497659" user="NKA">
		<tag k="name" v="Trollebø industriområde" />
		<tag k="place" v="neighbourhood" />
		<tag k="ssr:stedsnr" v="58895" />
	</node>
	<node id="9965481335" lat="61.5710545" lon="5.2845823" version="1" timestamp="2022-08-20T08:50:22Z" changeset="125138148" uid="3497659" user="NKA">
		<tag k="name" v="Myra" />
		<tag k="place" v="farm" />
		<tag k="ssr:stedsnr" v="759254" />
	</node>
	<node id="9965481336" lat="61.5952104" lon="5.0819958" version="1" timestamp="2022-08-20T08:50:22Z" changeset="125138148" uid="3497659" user="NKA">
		<tag k="name" v="Krokevoll" />
		<tag k="place" v="farm" />
		<tag k="ssr:stedsnr" v="973759" />
	</node>
	<node id="9965481337" lat="61.500125" lon="5.0652615" version="1" timestamp="2022-08-20T08:50:22Z" changeset="125138148" uid="3497659" user="NKA">
		<tag k="name" v="Tyvåg" />
		<tag k="place" v="locality" />
		<tag k="ssr:stedsnr" v="973791" />
	</node>
	<node id="9965481338" lat="61.9754951" lon="5.1577304" version="1" timestamp="2022-08-20T08:50:22Z" changeset="125138148" uid="3497659" user="NKA">
		<tag k="name" v="Ura" />
		<tag k="place" v="hamlet" />
		<tag k="ssr:stedsnr" v="860789" />
	</node>
	<node id="9965481339" lat="61.5265333" lon="5.1848561" version="1" timestamp="2022-08-20T08:50:22Z" changeset="125138148" uid="3497659" user="NKA">
		<tag k="name" v="Myra" />
		<tag k="place" v="farm" />
		<tag k="ssr:stedsnr" v="676579" />
	</node>
	<node id="9965481340" lat="61.5630048" lon="4.7704458" version="1" timestamp="2022-08-20T08:50:22Z" changeset="125138148" uid="3497659" user="NKA">
		<tag k="name" v="Kinnasund" />
		<tag k="place" v="isolated_dwelling" />
		<tag k="ssr:stedsnr" v="296099" />
	</node>
	<node id="9965481341" lat="61.5781509" lon="5.5478366" version="1" timestamp="2022-08-20T08:50:22Z" changeset="125138148" uid="3497659" user="NKA">
		<tag k="name" v="Fossheim" />
		<tag k="place" v="farm" />
		<tag k="ssr:stedsnr" v="576216" />
	</node>
	<node id="9965481342" lat="61.9865234" lon="5.1176317" version="1" timestamp="2022-08-20T08:50:22Z" changeset="125138148" uid="3497659" user="NKA">
		<tag k="name" v="Hagen" />
		<tag k="place" v="farm" />
		<tag k="ssr:stedsnr" v="677875" />
	</node>
	<node id="9965481343" lat="61.5304805" lon="4.9219674" version="1" timestamp="2022-08-20T08:50:22Z" changeset="125138148" uid="3497659" user="NKA">
		<tag k="name" v="Hagen" />
		<tag k="place" v="locality" />
		<tag k="ssr:stedsnr" v="494731" />
	</node>
	<node id="9965481344" lat="61.9353222" lon="5.2391784" version="1" timestamp="2022-08-20T08:50:22Z" changeset="125138148" uid="3497659" user="NKA">
		<tag k="historic" v="shieling" />
		<tag k="name" v="Godfarsetra" />
		<tag k="place" v="isolated_dwelling" />
		<tag k="ssr:stedsnr" v="699540" />
	</node>
	<node id="9965481345" lat="61.6429139" lon="5.1247811" version="1" timestamp="2022-08-20T08:50:22Z" changeset="125138148" uid="3497659" user="NKA">
		<tag k="historic" v="shieling" />
		<tag k="name" v="Gamlestølen" />
		<tag k="place" v="isolated_dwelling" />
		<tag k="ssr:stedsnr" v="757621" />
	</node>
	<node id="9965481346" lat="61.9527194" lon="5.2195979" version="1" timestamp="2022-08-20T08:50:22Z" changeset="125138148" uid="3497659" user="NKA">
		<tag k="name" v="Straumssetra" />
		<tag k="place" v="farm" />
		<tag k="ssr:stedsnr" v="700605" />
	</node>
	<node id="9965481347" lat="61.8938944" lon="5.1291119" version="1" timestamp="2022-08-20T08:50:22Z" changeset="125138148" uid="3497659" user="NKA">
		<tag k="name" v="Grindøya" />
		<tag k="place" v="farm" />
		<tag k="ssr:stedsnr" v="859177" />
	</node>
	<node id="9965481348" lat="61.9159225" lon="5.1933204" version="1" timestamp="2022-08-20T08:50:22Z" changeset="125138148" uid="3497659" user="NKA">
		<tag k="name" v="Skavøypollen" />
		<tag k="place" v="farm" />
		<tag k="ssr:stedsnr" v="495232" />
	</node>
	<node id="9965481349" lat="61.9284973" lon="5.1171452" version="1" timestamp="2022-08-20T08:50:22Z" changeset="125138148" uid="3497659" user="NKA">
		<tag k="name" v="Måløy" />
		<tag k="place" v="neighbourhood" />
		<tag k="ssr:stedsnr" v="301899" />
	</node>
	<node id="9965481350" lat="61.9435351" lon="5.1225574" version="1" timestamp="2022-08-20T08:50:22Z" changeset="125138148" uid="3497659" user="NKA">
		<tag k="name" v="Gotteberg" />
		<tag k="place" v="neighbourhood" />
		<tag k="ssr:stedsnr" v="978964" />
	</node>
	<node id="9965481351" lat="61.8805861" lon="5.1767367" version="1" timestamp="2022-08-20T08:50:22Z" changeset="125138148" uid="3497659" user="NKA">
		<tag k="alt_name" v="Risøy" />
		<tag k="name" v="Risøya" />
		<tag k="place" v="farm" />
		<tag k="ssr:stedsnr" v="397283" />
	</node>
	<node id="9965481352" lat="61.8972808" lon="5.0486313" version="1" timestamp="2022-08-20T08:50:22Z" changeset="125138148" uid="3497659" user="NKA">
		<tag k="name" v="Krabbestigen" />
		<tag k="place" v="farm" />
		<tag k="ssr:stedsnr" v="131998" />
	</node>
	<node id="9965481353" lat="61.9518052" lon="5.2080389" version="1" timestamp="2022-08-20T08:50:22Z" changeset="125138148" uid="3497659" user="NKA">
		<tag k="name" v="Straumen" />
		<tag k="old_name" v="Strauman" />
		<tag k="place" v="hamlet" />
		<tag k="ssr:stedsnr" v="192822" />
	</node>
	<node id="9965481354" lat="61.9179715" lon="5.1486851" version="1" timestamp="2022-08-20T08:50:22Z" changeset="125138148" uid="3497659" user="NKA">
		<tag k="name" v="Okshola" />
		<tag k="place" v="neighbourhood" />
		<tag k="ssr:stedsnr" v="313233" />
	</node>
	<node id="9965481355" lat="61.933035" lon="5.0524567" version="1" timestamp="2022-08-20T08:50:22Z" changeset="125138148" uid="3497659" user="NKA">
		<tag k="name" v="Vågsberget" />
		<tag k="place" v="farm" />
		<tag k="ssr:stedsnr" v="263016" />
	</node>
	<node id="9965481356" lat="61.8878071" lon="5.1550269" version="1" timestamp="2022-08-20T08:50:22Z" changeset="125138148" uid="3497659" user="NKA">
		<tag k="name" v="Gangsøy" />
		<tag k="place" v="farm" />
		<tag k="ssr:stedsnr" v="71221" />
	</node>
	<node id="9965481357" lat="61.923132" lon="5.0906636" version="1" timestamp="2022-08-20T08:50:22Z" changeset="125138148" uid="3497659" user="NKA">
		<tag k="name" v="Halneset" />
		<tag k="place" v="hamlet" />
		<tag k="ssr:stedsnr" v="313978" />
	</node>
	<node id="9965481358" lat="61.5668944" lon="4.8082898" version="1" timestamp="2022-08-20T08:50:22Z" changeset="125138148" uid="3497659" user="NKA">
		<tag k="alt_name" v="Rindemyra" />
		<tag k="name" v="Rindemyr" />
		<tag k="place" v="farm" />
		<tag k="ssr:stedsnr" v="736204" />
	</node>
	<node id="9965481359" lat="62.0088185" lon="5.135282" version="1" timestamp="2022-08-20T08:50:22Z" changeset="125138148" uid="3497659" user="NKA">
		<tag k="name" v="Hovset" />
		<tag k="place" v="farm" />
		<tag k="ssr:stedsnr" v="822595" />
	</node>
	<node id="9965481360" lat="61.6136186" lon="5.1519673" version="1" timestamp="2022-08-20T08:50:22Z" changeset="125138148" uid="3497659" user="NKA">
		<tag k="name" v="Haugen" />
		<tag k="place" v="farm" />
		<tag k="ssr:stedsnr" v="902382" />
	</node>
	<node id="9965481361" lat="61.6744446" lon="4.9721058" version="1" timestamp="2022-08-20T08:50:22Z" changeset="125138148" uid="3497659" user="NKA">
		<tag k="name" v="Seljestokken" />
		<tag k="place" v="farm" />
		<tag k="ssr:stedsnr" v="858011" />
	</node>
	<node id="9965481362" lat="61.9723583" lon="5.1136951" version="1" timestamp="2022-08-20T08:50:22Z" changeset="125138148" uid="3497659" user="NKA">
		<tag k="historic" v="shieling" />
		<tag k="name" v="Rystestølen" />
		<tag k="place" v="isolated_dwelling" />
		<tag k="ssr:stedsnr" v="639747" />
	</node>
	<node id="9965481363" lat="61.5622133" lon="4.8198057" version="1" timestamp="2022-08-20T08:50:22Z" changeset="125138148" uid="3497659" user="NKA">
		<tag k="name" v="Ytre Reksta" />
		<tag k="place" v="hamlet" />
		<tag k="ssr:stedsnr" v="129224" />
	</node>
	<node id="9965481364" lat="61.6403213" lon="5.0017187" version="1" timestamp="2022-08-20T08:50:22Z" changeset="125138148" uid="3497659" user="NKA">
		<tag k="name" v="Vaulen" />
		<tag k="place" v="hamlet" />
		<tag k="ssr:stedsnr" v="8071" />
	</node>
	<node id="9965481365" lat="61.8979369" lon="5.0567114" version="1" timestamp="2022-08-20T08:50:22Z" changeset="125138148" uid="3497659" user="NKA">
		<tag k="name" v="Haugen" />
		<tag k="place" v="farm" />
		<tag k="ssr:stedsnr" v="539296" />
	</node>
	<node id="9965481366" lat="61.9847793" lon="5.1884292" version="1" timestamp="2022-08-20T08:50:22Z" changeset="125138148" uid="3497659" user="NKA">
		<tag k="name" v="Osmundsvåg" />
		<tag k="place" v="hamlet" />
		<tag k="ssr:stedsnr" v="537845" />
	</node>
	<node id="9965481367" lat="61.6532111" lon="5.0125534" version="1" timestamp="2022-08-20T08:50:22Z" changeset="125138148" uid="3497659" user="NKA">
		<tag k="alt_name" v="Urdadalen" />
		<tag k="name" v="Uradalen" />
		<tag k="place" v="farm" />
		<tag k="ssr:stedsnr" v="842103" />
	</node>
	<node id="9965481368" lat="61.9719428" lon="5.1587177" version="1" timestamp="2022-08-20T08:50:22Z" changeset="125138148" uid="3497659" user="NKA">
		<tag k="alt_name" v="Tvindeseter" />
		<tag k="name" v="Tvinneseter" />
		<tag k="place" v="farm" />
		<tag k="ssr:stedsnr" v="33755" />
	</node>
	<node id="9965481369" lat="61.512685" lon="4.936803" version="1" timestamp="2022-08-20T08:50:22Z" changeset="125138148" uid="3497659" user="NKA">
		<tag k="name" v="Kvamen" />
		<tag k="place" v="farm" />
		<tag k="ssr:stedsnr" v="69826" />
	</node>
	<node id="9965481370" lat="61.5642611" lon="5.1217728" version="1" timestamp="2022-08-20T08:50:22Z" changeset="125138148" uid="3497659" user="NKA">
		<tag k="historic" v="shieling" />
		<tag k="name" v="Seterskar" />
		<tag k="place" v="isolated_dwelling" />
		<tag k="ssr:stedsnr" v="757080" />
	</node>
	<node id="9965481371" lat="61.5633536" lon="4.8510284" version="1" timestamp="2022-08-20T08:50:22Z" changeset="125138148" uid="3497659" user="NKA">
		<tag k="name" v="Klokkarneset" />
		<tag k="place" v="farm" />
		<tag k="ssr:stedsnr" v="879231" />
	</node>
	<node id="9965481372" lat="61.5275779" lon="5.4997297" version="1" timestamp="2022-08-20T08:50:22Z" changeset="125138148" uid="3497659" user="NKA">
		<tag k="name" v="Steindalen" />
		<tag k="place" v="hamlet" />
		<tag k="ssr:stedsnr" v="433466" />
	</node>
	<node id="9965481373" lat="61.899642" lon="5.0893759" version="1" timestamp="2022-08-20T08:50:22Z" changeset="125138148" uid="3497659" user="NKA">
		<tag k="name" v="Tytingvågen" />
		<tag k="place" v="hamlet" />
		<tag k="ssr:stedsnr" v="10214" />
	</node>
	<node id="9965481374" lat="61.5904731" lon="5.4455313" version="1" timestamp="2022-08-20T08:50:22Z" changeset="125138148" uid="3497659" user="NKA">
		<tag k="name" v="Hovlandshamn" />
		<tag k="place" v="farm" />
		<tag k="ssr:stedsnr" v="697440" />
	</node>
	<node id="9965481375" lat="61.9295425" lon="5.109723" version="1" timestamp="2022-08-20T08:50:22Z" changeset="125138148" uid="3497659" user="NKA">
		<tag k="name" v="Seternes" />
		<tag k="place" v="neighbourhood" />
		<tag k="ssr:stedsnr" v="33688" />
	</node>
	<node id="9965481376" lat="62.0165028" lon="5.1134591" version="1" timestamp="2022-08-20T08:50:22Z" changeset="125138148" uid="3497659" user="NKA">
		<tag k="name" v="Nordsanden" />
		<tag k="place" v="neighbourhood" />
		<tag k="ssr:stedsnr" v="161689" />
	</node>
	<node id="9965481377" lat="61.9598024" lon="5.0425867" version="1" timestamp="2022-08-20T08:50:22Z" changeset="125138148" uid="3497659" user="NKA">
		<tag k="name" v="Færestranda" />
		<tag k="place" v="hamlet" />
		<tag k="ssr:stedsnr" v="677956" />
	</node>
	<node id="9965481378" lat="61.5655528" lon="5.4802171" version="1" timestamp="2022-08-20T08:50:22Z" changeset="125138148" uid="3497659" user="NKA">
		<tag k="name" v="Rabbane" />
		<tag k="place" v="farm" />
		<tag k="ssr:stedsnr" v="312481" />
	</node>
	<node id="9965481379" lat="61.531075" lon="4.9390007" version="1" timestamp="2022-08-20T08:50:22Z" changeset="125138148" uid="3497659" user="NKA">
		<tag k="historic" v="shieling" />
		<tag k="name" v="Vårstølen" />
		<tag k="place" v="isolated_dwelling" />
		<tag k="ssr:stedsnr" v="514256" />
	</node>
	<node id="9965481380" lat="61.6426107" lon="5.0052473" version="1" timestamp="2022-08-20T08:50:22Z" changeset="125138148" uid="3497659" user="NKA">
		<tag k="name" v="Årebrotsvågen" />
		<tag k="place" v="farm" />
		<tag k="ssr:stedsnr" v="150405" />
	</node>
	<node id="9965481381" lat="61.5463944" lon="5.438131" version="1" timestamp="2022-08-20T08:50:22Z" changeset="125138148" uid="3497659" user="NKA">
		<tag k="historic" v="shieling" />
		<tag k="name" v="Leirvågstølen" />
		<tag k="place" v="isolated_dwelling" />
		<tag k="ssr:stedsnr" v="30295" />
	</node>
	<node id="9965481382" lat="62.0127472" lon="5.1302117" version="1" timestamp="2022-08-20T08:50:22Z" changeset="125138148" uid="3497659" user="NKA">
		<tag k="alt_name" v="Sæter" />
		<tag k="name" v="Setra" />
		<tag k="place" v="hamlet" />
		<tag k="ssr:stedsnr" v="617641" />
	</node>
	<node id="9965481383" lat="61.9984007" lon="5.1460773" version="1" timestamp="2022-08-20T08:50:22Z" changeset="125138148" uid="3497659" user="NKA">
		<tag k="name" v="Hals" />
		<tag k="place" v="hamlet" />
		<tag k="ssr:stedsnr" v="71182" />
	</node>
	<node id="9965481384" lat="61.6632417" lon="4.9892557" version="1" timestamp="2022-08-20T08:50:22Z" changeset="125138148" uid="3497659" user="NKA">
		<tag k="name" v="Sunnarvåg" />
		<tag k="place" v="farm" />
		<tag k="ssr:stedsnr" v="312026" />
	</node>
	<node id="9965481385" lat="61.5707111" lon="4.8712035" version="1" timestamp="2022-08-20T08:50:22Z" changeset="125138148" uid="3497659" user="NKA">
		<tag k="name" v="Selvåg" />
		<tag k="place" v="farm" />
		<tag k="ssr:stedsnr" v="312180" />
	</node>
	<node id="9965481386" lat="61.5327172" lon="5.4586584" version="1" timestamp="2022-08-20T08:50:22Z" changeset="125138148" uid="3497659" user="NKA">
		<tag k="name" v="Svardal" />
		<tag k="place" v="hamlet" />
		<tag k="ssr:stedsnr" v="69649" />
	</node>
	<node id="9965481387" lat="61.8987929" lon="5.0973509" version="1" timestamp="2022-08-20T08:50:22Z" changeset="125138148" uid="3497659" user="NKA">
		<tag k="name" v="Nordvik" />
		<tag k="place" v="farm" />
		<tag k="ssr:stedsnr" v="337341" />
	</node>
	<node id="9965481388" lat="61.5849028" lon="4.8092843" version="1" timestamp="2022-08-20T08:50:22Z" changeset="125138148" uid="3497659" user="NKA">
		<tag k="name" v="Plassen" />
		<tag k="place" v="farm" />
		<tag k="ssr:stedsnr" v="334192" />
	</node>
	<node id="9965481389" lat="61.5900611" lon="5.4469422" version="1" timestamp="2022-08-20T08:50:22Z" changeset="125138148" uid="3497659" user="NKA">
		<tag k="alt_name" v="Hamnen" />
		<tag k="name" v="Hamn" />
		<tag k="place" v="farm" />
		<tag k="ssr:stedsnr" v="737508" />
	</node>
	<node id="9965481390" lat="61.9469842" lon="5.0507546" version="1" timestamp="2022-08-20T08:50:22Z" changeset="125138148" uid="3497659" user="NKA">
		<tag k="name" v="Nyborg" />
		<tag k="place" v="isolated_dwelling" />
		<tag k="ssr:stedsnr" v="903467" />
	</node>
	<node id="9965481391" lat="61.65895" lon="5.4395115" version="1" timestamp="2022-08-20T08:50:22Z" changeset="125138148" uid="3497659" user="NKA">
		<tag k="name" v="Kvamane" />
		<tag k="place" v="locality" />
		<tag k="ssr:stedsnr" v="879719" />
	</node>
	<node id="9965481392" lat="61.6285111" lon="4.9679064" version="1" timestamp="2022-08-20T08:50:22Z" changeset="125138148" uid="3497659" user="NKA">
		<tag k="name" v="Nærøy" />
		<tag k="place" v="farm" />
		<tag k="ssr:stedsnr" v="454317" />
	</node>
	<node id="9965481393" lat="61.6872479" lon="4.9736914" version="1" timestamp="2022-08-20T08:50:22Z" changeset="125138148" uid="3497659" user="NKA">
		<tag k="name" v="Storevika" />
		<tag k="place" v="farm" />
		<tag k="ssr:stedsnr" v="174673" />
	</node>
	<node id="9965481394" lat="61.6562883" lon="5.4746158" version="1" timestamp="2022-08-20T08:50:22Z" changeset="125138148" uid="3497659" user="NKA">
		<tag k="name" v="Solheim" />
		<tag k="place" v="hamlet" />
		<tag k="ssr:stedsnr" v="494646" />
	</node>
	<node id="9965481395" lat="61.9138014" lon="5.2172527" version="1" timestamp="2022-08-20T08:50:22Z" changeset="125138148" uid="3497659" user="NKA">
		<tag k="name" v="Falkevik" />
		<tag k="place" v="hamlet" />
		<tag k="ssr:stedsnr" v="822589" />
	</node>
	<node id="9965481396" lat="61.6264622" lon="4.9570296" version="1" timestamp="2022-08-20T08:50:22Z" changeset="125138148" uid="3497659" user="NKA">
		<tag k="name" v="Solstrand" />
		<tag k="place" v="farm" />
		<tag k="ssr:stedsnr" v="103474" />
	</node>
	<node id="9965481397" lat="61.6697917" lon="5.406895" version="1" timestamp="2022-08-20T08:50:22Z" changeset="125138148" uid="3497659" user="NKA">
		<tag k="name" v="Stølen" />
		<tag k="place" v="locality" />
		<tag k="ssr:stedsnr" v="333554" />
	</node>
	<node id="9965481398" lat="61.6570639" lon="5.4120116" version="1" timestamp="2022-08-20T08:50:22Z" changeset="125138148" uid="3497659" user="NKA">
		<tag k="name" v="Lendinga" />
		<tag k="place" v="locality" />
		<tag k="ssr:stedsnr" v="515640" />
	</node>
	<node id="9965481400" lat="61.5739828" lon="5.6665179" version="1" timestamp="2022-08-20T08:50:22Z" changeset="125138148" uid="3497659" user="NKA">
		<tag k="name" v="Humlestøylen" />
		<tag k="place" v="farm" />
		<tag k="ssr:stedsnr" v="373496" />
	</node>
	<node id="9965481401" lat="61.9873472" lon="5.1921755" version="1" timestamp="2022-08-20T08:50:22Z" changeset="125138148" uid="3497659" user="NKA">
		<tag k="name" v="Nordheim" />
		<tag k="place" v="farm" />
		<tag k="ssr:stedsnr" v="435888" />
	</node>
	<node id="9965481402" lat="61.915025" lon="5.1847923" version="1" timestamp="2022-08-20T08:50:22Z" changeset="125138148" uid="3497659" user="NKA">
		<tag k="name" v="Grønevika" />
		<tag k="place" v="farm" />
		<tag k="ssr:stedsnr" v="495231" />
	</node>
	<node id="9965481403" lat="61.9123711" lon="5.0723575" version="1" timestamp="2022-08-20T08:50:22Z" changeset="125138148" uid="3497659" user="NKA">
		<tag k="name" v="Ramsevika" />
		<tag k="place" v="farm" />
		<tag k="ssr:stedsnr" v="495981" />
	</node>
	<node id="9965481404" lat="61.598435" lon="5.4262736" version="1" timestamp="2022-08-20T08:50:22Z" changeset="125138148" uid="3497659" user="NKA">
		<tag k="name" v="Bakkane" />
		<tag k="place" v="farm" />
		<tag k="ssr:stedsnr" v="174131" />
	</node>
	<node id="9965481405" lat="62.0269091" lon="4.997263" version="1" timestamp="2022-08-20T08:50:22Z" changeset="125138148" uid="3497659" user="NKA">
		<tag k="name" v="Kråkeneset" />
		<tag k="place" v="hamlet" />
		<tag k="ssr:stedsnr" v="375637" />
	</node>
	<node id="9965481406" lat="61.6024447" lon="4.8277881" version="1" timestamp="2022-08-20T08:50:22Z" changeset="125138148" uid="3497659" user="NKA">
		<tag k="name" v="Kvaløysund" />
		<tag k="place" v="farm" />
		<tag k="ssr:stedsnr" v="615158" />
	</node>
	<node id="9965481407" lat="61.5816583" lon="5.4531255" version="1" timestamp="2022-08-20T08:50:22Z" changeset="125138148" uid="3497659" user="NKA">
		<tag k="name" v="Høgereina" />
		<tag k="place" v="farm" />
		<tag k="ssr:stedsnr" v="190541" />
	</node>
	<node id="9965481408" lat="62.0167246" lon="5.2022301" version="1" timestamp="2022-08-20T08:50:22Z" changeset="125138148" uid="3497659" user="NKA">
		<tag k="alt_name" v="Nordre Silda" />
		<tag k="name" v="Nordsilda" />
		<tag k="place" v="hamlet" />
		<tag k="ssr:stedsnr" v="861611" />
	</node>
	<node id="9965481409" lat="61.9237306" lon="5.2463783" version="1" timestamp="2022-08-20T08:50:22Z" changeset="125138148" uid="3497659" user="NKA">
		<tag k="historic" v="shieling" />
		<tag k="name" v="Setra" />
		<tag k="place" v="isolated_dwelling" />
		<tag k="ssr:stedsnr" v="214570" />
	</node>
	<node id="9965481410" lat="61.5683889" lon="5.660667" version="1" timestamp="2022-08-20T08:50:22Z" changeset="125138148" uid="3497659" user="NKA">
		<tag k="name" v="Reinene" />
		<tag k="place" v="farm" />
		<tag k="ssr:stedsnr" v="565685" />
	</node>
	<node id="9965481411" lat="61.5916417" lon="5.4586709" version="1" timestamp="2022-08-20T08:50:22Z" changeset="125138148" uid="3497659" user="NKA">
		<tag k="name" v="Haugane" />
		<tag k="place" v="farm" />
		<tag k="ssr:stedsnr" v="53771" />
	</node>
	<node id="9965481412" lat="61.9242" lon="5.2898367" version="1" timestamp="2022-08-20T08:50:22Z" changeset="125138148" uid="3497659" user="NKA">
		<tag k="historic" v="shieling" />
		<tag k="name" v="Raudeggesætra" />
		<tag k="place" v="isolated_dwelling" />
		<tag k="ssr:stedsnr" v="192243" />
	</node>
	<node id="9965481413" lat="61.5855805" lon="5.2313228" version="1" timestamp="2022-08-20T08:50:22Z" changeset="125138148" uid="3497659" user="NKA">
		<tag k="name" v="Seljesetplassen" />
		<tag k="place" v="farm" />
		<tag k="ssr:stedsnr" v="919967" />
	</node>
	<node id="9965481414" lat="61.9230639" lon="5.2068645" version="1" timestamp="2022-08-20T08:50:22Z" changeset="125138148" uid="3497659" user="NKA">
		<tag k="historic" v="shieling" />
		<tag k="name" v="Gamlestølen" />
		<tag k="place" v="isolated_dwelling" />
		<tag k="ssr:stedsnr" v="457569" />
	</node>
	<node id="9965481415" lat="61.9329241" lon="5.2252195" version="1" timestamp="2022-08-20T08:50:22Z" changeset="125138148" uid="3497659" user="NKA">
		<tag k="alt_name" v="Sør-pollen" />
		<tag k="name" v="Sørpollen" />
		<tag k="place" v="farm" />
		<tag k="ssr:stedsnr" v="10245" />
	</node>
	<node id="9965481416" lat="61.5746778" lon="5.5354052" version="1" timestamp="2022-08-20T08:50:22Z" changeset="125138148" uid="3497659" user="NKA">
		<tag k="name" v="Eikevollen" />
		<tag k="place" v="farm" />
		<tag k="ssr:stedsnr" v="263695" />
	</node>
	<node id="9965481417" lat="61.6734361" lon="5.545492" version="1" timestamp="2022-08-20T08:50:22Z" changeset="125138148" uid="3497659" user="NKA">
		<tag k="historic" v="shieling" />
		<tag k="name" v="Støylen" />
		<tag k="place" v="isolated_dwelling" />
		<tag k="ssr:stedsnr" v="627681" />
	</node>
	<node id="9965481418" lat="61.5703361" lon="5.4594726" version="1" timestamp="2022-08-20T08:50:22Z" changeset="125138148" uid="3497659" user="NKA">
		<tag k="name" v="Myra" />
		<tag k="place" v="farm" />
		<tag k="ssr:stedsnr" v="8578" />
	</node>
	<node id="9965481419" lat="61.6608409" lon="5.5129197" version="1" timestamp="2022-08-20T08:50:22Z" changeset="125138148" uid="3497659" user="NKA">
		<tag k="name" v="Midbøen" />
		<tag k="place" v="hamlet" />
		<tag k="ssr:stedsnr" v="9683" />
	</node>
	<node id="9965481420" lat="61.6229" lon="5.4428504" version="1" timestamp="2022-08-20T08:50:22Z" changeset="125138148" uid="3497659" user="NKA">
		<tag k="name" v="Kvanngrø" />
		<tag k="place" v="locality" />
		<tag k="ssr:stedsnr" v="8948" />
	</node>
	<node id="9965481421" lat="61.6461152" lon="5.4221177" version="1" timestamp="2022-08-20T08:50:22Z" changeset="125138148" uid="3497659" user="NKA">
		<tag k="name" v="Øya" />
		<tag k="place" v="farm" />
		<tag k="ssr:stedsnr" v="902746" />
	</node>
	<node id="9965481422" lat="61.4936268" lon="5.131383" version="1" timestamp="2022-08-20T08:50:22Z" changeset="125138148" uid="3497659" user="NKA">
		<tag k="name" v="Svanøy" />
		<tag k="place" v="hamlet" />
		<tag k="ssr:stedsnr" v="736054" />
	</node>
	<node id="9965481423" lat="61.5944702" lon="5.5320089" version="1" timestamp="2022-08-20T08:50:22Z" changeset="125138148" uid="3497659" user="NKA">
		<tag k="historic" v="shieling" />
		<tag k="name" v="Indrestøylen" />
		<tag k="place" v="isolated_dwelling" />
		<tag k="ssr:stedsnr" v="931713" />
	</node>
	<node id="9965481424" lat="61.6319139" lon="5.1696035" version="1" timestamp="2022-08-20T08:50:22Z" changeset="125138148" uid="3497659" user="NKA">
		<tag k="name" v="Sildevika" />
		<tag k="place" v="farm" />
		<tag k="ssr:stedsnr" v="554950" />
	</node>
	<node id="9965481425" lat="61.5415443" lon="5.4213223" version="1" timestamp="2022-08-20T08:50:22Z" changeset="125138148" uid="3497659" user="NKA">
		<tag k="name" v="Holmen" />
		<tag k="place" v="farm" />
		<tag k="ssr:stedsnr" v="797591" />
	</node>
	<node id="9965481426" lat="61.5349647" lon="5.1832026" version="1" timestamp="2022-08-20T08:50:22Z" changeset="125138148" uid="3497659" user="NKA">
		<tag k="name" v="Bru" />
		<tag k="place" v="village" />
		<tag k="ssr:stedsnr" v="737583" />
	</node>
	<node id="9965481427" lat="61.6679389" lon="4.9792953" version="1" timestamp="2022-08-20T08:50:22Z" changeset="125138148" uid="3497659" user="NKA">
		<tag k="name" v="Solberg" />
		<tag k="place" v="farm" />
		<tag k="ssr:stedsnr" v="797007" />
	</node>
	<node id="9965481428" lat="61.920525" lon="5.2309895" version="1" timestamp="2022-08-20T08:50:22Z" changeset="125138148" uid="3497659" user="NKA">
		<tag k="name" v="Austadalen" />
		<tag k="place" v="farm" />
		<tag k="ssr:stedsnr" v="616200" />
	</node>
	<node id="9965481429" lat="61.5720028" lon="5.6078365" version="1" timestamp="2022-08-20T08:50:22Z" changeset="125138148" uid="3497659" user="NKA">
		<tag k="alt_name" v="Listene" />
		<tag k="name" v="Lista" />
		<tag k="place" v="farm" />
		<tag k="ssr:stedsnr" v="798453" />
	</node>
	<node id="9965481430" lat="61.5328889" lon="5.1954867" version="1" timestamp="2022-08-20T08:50:22Z" changeset="125138148" uid="3497659" user="NKA">
		<tag k="name" v="Garden" />
		<tag k="place" v="farm" />
		<tag k="ssr:stedsnr" v="372593" />
	</node>
	<node id="9965481431" lat="61.5956944" lon="5.4503505" version="1" timestamp="2022-08-20T08:50:22Z" changeset="125138148" uid="3497659" user="NKA">
		<tag k="name" v="Bakkane" />
		<tag k="place" v="farm" />
		<tag k="ssr:stedsnr" v="494487" />
	</node>
	<node id="9965481432" lat="61.9612167" lon="5.0725146" version="1" timestamp="2022-08-20T08:50:22Z" changeset="125138148" uid="3497659" user="NKA">
		<tag k="historic" v="shieling" />
		<tag k="name" v="Søroppedalsstøylen" />
		<tag k="place" v="isolated_dwelling" />
		<tag k="ssr:stedsnr" v="566013" />
	</node>
	<node id="9965481433" lat="61.6065111" lon="5.0230007" version="1" timestamp="2022-08-20T08:50:22Z" changeset="125138148" uid="3497659" user="NKA">
		<tag k="name" v="Rota" />
		<tag k="place" v="isolated_dwelling" />
		<tag k="ssr:stedsnr" v="494124" />
	</node>
	<node id="9965481434" lat="62.0242987" lon="4.9971858" version="1" timestamp="2022-08-20T08:50:22Z" changeset="125138148" uid="3497659" user="NKA">
		<tag k="name" v="Teige" />
		<tag k="place" v="farm" />
		<tag k="ssr:stedsnr" v="921691" />
	</node>
	<node id="9965481435" lat="61.5109135" lon="5.2770918" version="1" timestamp="2022-08-20T08:50:22Z" changeset="125138148" uid="3497659" user="NKA">
		<tag k="name" v="Sørbø" />
		<tag k="place" v="farm" />
		<tag k="ssr:stedsnr" v="902572" />
	</node>
	<node id="9965481436" lat="61.9327583" lon="5.2208977" version="1" timestamp="2022-08-20T08:50:22Z" changeset="125138148" uid="3497659" user="NKA">
		<tag k="name" v="Nybø" />
		<tag k="place" v="farm" />
		<tag k="ssr:stedsnr" v="799251" />
	</node>
	<node id="9965481437" lat="61.9075895" lon="5.2087115" version="1" timestamp="2022-08-20T08:50:22Z" changeset="125138148" uid="3497659" user="NKA">
		<tag k="alt_name" v="Verpeide" />
		<tag k="name" v="Verpeidet" />
		<tag k="place" v="farm" />
		<tag k="ssr:stedsnr" v="799225" />
	</node>
	<node id="9965481438" lat="62.0126194" lon="5.1112563" version="1" timestamp="2022-08-20T08:50:22Z" changeset="125138148" uid="3497659" user="NKA">
		<tag k="name" v="Bakke" />
		<tag k="place" v="farm" />
		<tag k="ssr:stedsnr" v="254603" />
	</node>
	<node id="9965481439" lat="61.6537167" lon="5.1675812" version="1" timestamp="2022-08-20T08:50:22Z" changeset="125138148" uid="3497659" user="NKA">
		<tag k="historic" v="shieling" />
		<tag k="name" v="Klauvestølen" />
		<tag k="place" v="isolated_dwelling" />
		<tag k="ssr:stedsnr" v="433881" />
	</node>
	<node id="9965481440" lat="61.5022746" lon="5.1020681" version="1" timestamp="2022-08-20T08:50:22Z" changeset="125138148" uid="3497659" user="NKA">
		<tag k="name" v="Marøy" />
		<tag k="place" v="farm" />
		<tag k="ssr:stedsnr" v="737612" />
	</node>
	<node id="9965481441" lat="61.5790444" lon="5.571742" version="1" timestamp="2022-08-20T08:50:22Z" changeset="125138148" uid="3497659" user="NKA">
		<tag k="historic" v="shieling" />
		<tag k="name" v="Villumstølen" />
		<tag k="place" v="isolated_dwelling" />
		<tag k="ssr:stedsnr" v="758718" />
	</node>
	<node id="9965481442" lat="61.9194385" lon="5.1833742" version="1" timestamp="2022-08-20T08:50:22Z" changeset="125138148" uid="3497659" user="NKA">
		<tag k="name" v="Nygård" />
		<tag k="place" v="hamlet" />
		<tag k="ssr:stedsnr" v="738252" />
	</node>
	<node id="9965481443" lat="61.9377487" lon="5.0526712" version="1" timestamp="2022-08-20T08:50:22Z" changeset="125138148" uid="3497659" user="NKA">
		<tag k="name" v="Våge" />
		<tag k="place" v="neighbourhood" />
		<tag k="ssr:stedsnr" v="457411" />
	</node>
	<node id="9965481444" lat="61.5634027" lon="5.5069755" version="1" timestamp="2022-08-20T08:50:22Z" changeset="125138148" uid="3497659" user="NKA">
		<tag k="name" v="Osa" />
		<tag k="place" v="hamlet" />
		<tag k="ssr:stedsnr" v="918551" />
	</node>
	<node id="9965481445" lat="61.5250195" lon="5.5499226" version="1" timestamp="2022-08-20T08:50:22Z" changeset="125138148" uid="3497659" user="NKA">
		<tag k="name" v="Sandbotnen" />
		<tag k="place" v="isolated_dwelling" />
		<tag k="ssr:stedsnr" v="918468" />
	</node>
	<node id="9965481446" lat="61.5594198" lon="5.4892566" version="1" timestamp="2022-08-20T08:50:22Z" changeset="125138148" uid="3497659" user="NKA">
		<tag k="name" v="Vasset" />
		<tag k="place" v="hamlet" />
		<tag k="ssr:stedsnr" v="918550" />
	</node>
	<node id="9965481447" lat="61.9495442" lon="5.2037568" version="1" timestamp="2022-08-20T08:50:22Z" changeset="125138148" uid="3497659" user="NKA">
		<tag k="name" v="Reina" />
		<tag k="place" v="farm" />
		<tag k="ssr:stedsnr" v="738815" />
	</node>
	<node id="9965481448" lat="61.642975" lon="5.3775031" version="1" timestamp="2022-08-20T08:50:22Z" changeset="125138148" uid="3497659" user="NKA">
		<tag k="name" v="Norddalsfjord" />
		<tag k="place" v="hamlet" />
		<tag k="ssr:stedsnr" v="798922" />
	</node>
	<node id="9965481449" lat="61.5921416" lon="5.5134422" version="1" timestamp="2022-08-20T08:50:22Z" changeset="125138148" uid="3497659" user="NKA">
		<tag k="historic" v="shieling" />
		<tag k="name" v="Ytrestøylen" />
		<tag k="place" v="isolated_dwelling" />
		<tag k="ssr:stedsnr" v="566685" />
	</node>
	<node id="9965481450" lat="61.5515473" lon="5.4168782" version="1" timestamp="2022-08-20T08:50:22Z" changeset="125138148" uid="3497659" user="NKA">
		<tag k="name" v="Floten" />
		<tag k="place" v="locality" />
		<tag k="ssr:stedsnr" v="797580" />
	</node>
	<node id="9965481451" lat="61.9009737" lon="5.1918148" version="1" timestamp="2022-08-20T08:50:22Z" changeset="125138148" uid="3497659" user="NKA">
		<tag k="name" v="Angelshaug" />
		<tag k="place" v="hamlet" />
		<tag k="ssr:stedsnr" v="616192" />
	</node>
	<node id="9965481452" lat="61.5957372" lon="5.432439" version="1" timestamp="2022-08-20T08:50:22Z" changeset="125138148" uid="3497659" user="NKA">
		<tag k="name" v="Kvalvik" />
		<tag k="place" v="hamlet" />
		<tag k="ssr:stedsnr" v="798477" />
	</node>
	<node id="9965481453" lat="61.5019445" lon="5.25327" version="1" timestamp="2022-08-20T08:50:22Z" changeset="125138148" uid="3497659" user="NKA">
		<tag k="name" v="Droga" />
		<tag k="place" v="farm" />
		<tag k="ssr:stedsnr" v="493639" />
	</node>
	<node id="9965481454" lat="61.655675" lon="5.5404477" version="1" timestamp="2022-08-20T08:50:22Z" changeset="125138148" uid="3497659" user="NKA">
		<tag k="historic" v="shieling" />
		<tag k="name" v="Rusta" />
		<tag k="place" v="isolated_dwelling" />
		<tag k="ssr:stedsnr" v="931680" />
	</node>
	<node id="9965481455" lat="62.0109912" lon="5.1387381" version="1" timestamp="2022-08-20T08:50:22Z" changeset="125138148" uid="3497659" user="NKA">
		<tag k="name" v="Langeneset" />
		<tag k="place" v="farm" />
		<tag k="ssr:stedsnr" v="739636" />
	</node>
	<node id="9965481456" lat="61.5711083" lon="5.2763422" version="1" timestamp="2022-08-20T08:50:22Z" changeset="125138148" uid="3497659" user="NKA">
		<tag k="name" v="Solstrand" />
		<tag k="place" v="farm" />
		<tag k="ssr:stedsnr" v="736513" />
	</node>
	<node id="9965481457" lat="61.5774361" lon="5.7095115" version="1" timestamp="2022-08-20T08:50:22Z" changeset="125138148" uid="3497659" user="NKA">
		<tag k="historic" v="shieling" />
		<tag k="name" v="Ramsdalsstøylen" />
		<tag k="place" v="isolated_dwelling" />
		<tag k="ssr:stedsnr" v="687684" />
	</node>
	<node id="9965481458" lat="61.5404778" lon="5.2875866" version="1" timestamp="2022-08-20T08:50:22Z" changeset="125138148" uid="3497659" user="NKA">
		<tag k="name" v="Plassen" />
		<tag k="place" v="farm" />
		<tag k="ssr:stedsnr" v="494551" />
	</node>
	<node id="9965481459" lat="61.6292361" lon="5.4435782" version="1" timestamp="2022-08-20T08:50:22Z" changeset="125138148" uid="3497659" user="NKA">
		<tag k="historic" v="shieling" />
		<tag k="name" v="Solheimsstølen" />
		<tag k="place" v="isolated_dwelling" />
		<tag k="ssr:stedsnr" v="614965" />
	</node>
	<node id="9965481460" lat="61.6281997" lon="5.2488286" version="1" timestamp="2022-08-20T08:50:22Z" changeset="125138148" uid="3497659" user="NKA">
		<tag k="name" v="Fanevik" />
		<tag k="place" v="farm" />
		<tag k="ssr:stedsnr" v="614955" />
	</node>
	<node id="9965481461" lat="61.5751555" lon="5.1440922" version="1" timestamp="2022-08-20T08:50:22Z" changeset="125138148" uid="3497659" user="NKA">
		<tag k="name" v="Kvia" />
		<tag k="place" v="farm" />
		<tag k="ssr:stedsnr" v="191484" />
	</node>
	<node id="9965481462" lat="61.5318083" lon="5.3566561" version="1" timestamp="2022-08-20T08:50:22Z" changeset="125138148" uid="3497659" user="NKA">
		<tag k="historic" v="shieling" />
		<tag k="name" v="Høydalsstølen" />
		<tag k="place" v="isolated_dwelling" />
		<tag k="ssr:stedsnr" v="251627" />
	</node>
	<node id="9965481463" lat="61.9140343" lon="5.231931" version="1" timestamp="2022-08-20T08:50:22Z" changeset="125138148" uid="3497659" user="NKA">
		<tag k="name" v="Eldevika" />
		<tag k="place" v="hamlet" />
		<tag k="ssr:stedsnr" v="555181" />
	</node>
	<node id="9965481464" lat="61.5678333" lon="5.5984561" version="1" timestamp="2022-08-20T08:50:22Z" changeset="125138148" uid="3497659" user="NKA">
		<tag k="name" v="Åsen" />
		<tag k="place" v="farm" />
		<tag k="ssr:stedsnr" v="493492" />
	</node>
	<node id="9965481465" lat="61.6026585" lon="5.4118479" version="1" timestamp="2022-08-20T08:50:22Z" changeset="125138148" uid="3497659" user="NKA">
		<tag k="name" v="Instigarden" />
		<tag k="place" v="farm" />
		<tag k="ssr:stedsnr" v="599717" />
	</node>
	<node id="9965481466" lat="61.5540309" lon="5.5882394" version="1" timestamp="2022-08-20T08:50:22Z" changeset="125138148" uid="3497659" user="NKA">
		<tag k="name" v="Agledal" />
		<tag k="place" v="farm" />
		<tag k="ssr:stedsnr" v="614448" />
	</node>
	<node id="9965481467" lat="61.6089694" lon="5.1951283" version="1" timestamp="2022-08-20T08:50:22Z" changeset="125138148" uid="3497659" user="NKA">
		<tag k="name" v="Teigen" />
		<tag k="place" v="locality" />
		<tag k="ssr:stedsnr" v="797942" />
	</node>
	<node id="9965481468" lat="61.583923" lon="5.542727" version="1" timestamp="2022-08-20T08:50:22Z" changeset="125138148" uid="3497659" user="NKA">
		<tag k="name" v="Øyra" />
		<tag k="place" v="farm" />
		<tag k="ssr:stedsnr" v="312471" />
	</node>
	<node id="9965481469" lat="61.5820939" lon="5.3306215" version="1" timestamp="2022-08-20T08:50:22Z" changeset="125138148" uid="3497659" user="NKA">
		<tag k="alt_name" v="Barlindbotnen" />
		<tag k="name" v="Barlindbotn" />
		<tag k="place" v="farm" />
		<tag k="ssr:stedsnr" v="798461" />
	</node>
	<node id="9965481470" lat="61.6284555" lon="5.5637948" version="1" timestamp="2022-08-20T08:50:22Z" changeset="125138148" uid="3497659" user="NKA">
		<tag k="historic" v="shieling" />
		<tag k="name" v="Ytrestøylen" />
		<tag k="place" v="isolated_dwelling" />
		<tag k="ssr:stedsnr" v="69753" />
	</node>
	<node id="9965481471" lat="61.5520777" lon="5.5315865" version="1" timestamp="2022-08-20T08:50:22Z" changeset="125138148" uid="3497659" user="NKA">
		<tag k="historic" v="shieling" />
		<tag k="name" v="Osestøylen" />
		<tag k="place" v="isolated_dwelling" />
		<tag k="ssr:stedsnr" v="797436" />
	</node>
	<node id="9965481472" lat="61.7060056" lon="4.8644469" version="1" timestamp="2022-08-20T08:50:22Z" changeset="125138148" uid="3497659" user="NKA">
		<tag k="name" v="Hovden" />
		<tag k="place" v="hamlet" />
		<tag k="ssr:stedsnr" v="736049" />
	</node>
	<node id="9965481473" lat="61.5315667" lon="5.5618838" version="1" timestamp="2022-08-20T08:50:22Z" changeset="125138148" uid="3497659" user="NKA">
		<tag k="historic" v="shieling" />
		<tag k="name" v="Steindalsstøylen" />
		<tag k="place" v="isolated_dwelling" />
		<tag k="ssr:stedsnr" v="8487" />
	</node>
	<node id="9965481474" lat="61.5670055" lon="5.5973226" version="1" timestamp="2022-08-20T08:50:22Z" changeset="125138148" uid="3497659" user="NKA">
		<tag k="name" v="Hesjedal" />
		<tag k="place" v="farm" />
		<tag k="ssr:stedsnr" v="736488" />
	</node>
	<node id="9965481475" lat="61.6251806" lon="5.580831" version="1" timestamp="2022-08-20T08:50:22Z" changeset="125138148" uid="3497659" user="NKA">
		<tag k="alt_name" v="Nerstøl" />
		<tag k="name" v="Nerstølen" />
		<tag k="place" v="farm" />
		<tag k="ssr:stedsnr" v="69752" />
	</node>
	<node id="9965481476" lat="61.5698085" lon="5.5892523" version="1" timestamp="2022-08-20T08:50:22Z" changeset="125138148" uid="3497659" user="NKA">
		<tag k="name" v="Sætelia" />
		<tag k="place" v="farm" />
		<tag k="ssr:stedsnr" v="69522" />
	</node>
	<node id="9965481477" lat="61.634625" lon="5.5828254" version="1" timestamp="2022-08-20T08:50:22Z" changeset="125138148" uid="3497659" user="NKA">
		<tag k="historic" v="shieling" />
		<tag k="name" v="Indrestøylen" />
		<tag k="place" v="isolated_dwelling" />
		<tag k="ssr:stedsnr" v="69746" />
	</node>
	<node id="9965481478" lat="61.6136116" lon="5.328732" version="1" timestamp="2022-08-20T08:50:22Z" changeset="125138148" uid="3497659" user="NKA">
		<tag k="alt_name" v="Floten" />
		<tag k="name" v="Flåten" />
		<tag k="place" v="farm" />
		<tag k="ssr:stedsnr" v="919982" />
	</node>
	<node id="9965481479" lat="61.6571249" lon="5.5499281" version="1" timestamp="2022-08-20T08:50:22Z" changeset="125138148" uid="3497659" user="NKA">
		<tag k="historic" v="shieling" />
		<tag k="name" v="Midbøstøylen" />
		<tag k="place" v="isolated_dwelling" />
		<tag k="ssr:stedsnr" v="797709" />
	</node>
	<node id="9965481480" lat="61.5655207" lon="5.1282887" version="1" timestamp="2022-08-20T08:50:22Z" changeset="125138148" uid="3497659" user="NKA">
		<tag k="name" v="Sætreskaret" />
		<tag k="place" v="farm" />
		<tag k="ssr:stedsnr" v="251549" />
	</node>
	<node id="9965481481" lat="61.5740889" lon="5.4049255" version="1" timestamp="2022-08-20T08:50:22Z" changeset="125138148" uid="3497659" user="NKA">
		<tag k="name" v="Porsemyr" />
		<tag k="place" v="farm" />
		<tag k="ssr:stedsnr" v="797553" />
	</node>
	<node id="9965481482" lat="61.6586278" lon="5.6194449" version="1" timestamp="2022-08-20T08:50:22Z" changeset="125138148" uid="3497659" user="NKA">
		<tag k="historic" v="shieling" />
		<tag k="name" v="Sunndalsstøylen" />
		<tag k="place" v="isolated_dwelling" />
		<tag k="ssr:stedsnr" v="858715" />
	</node>
	<node id="9965481483" lat="61.5670944" lon="5.5192422" version="1" timestamp="2022-08-20T08:50:22Z" changeset="125138148" uid="3497659" user="NKA">
		<tag k="name" v="Myrane" />
		<tag k="place" v="farm" />
		<tag k="ssr:stedsnr" v="554527" />
	</node>
	<node id="9965481484" lat="61.611625" lon="5.597231" version="1" timestamp="2022-08-20T08:50:22Z" changeset="125138148" uid="3497659" user="NKA">
		<tag k="name" v="Barlund" />
		<tag k="place" v="farm" />
		<tag k="ssr:stedsnr" v="919717" />
	</node>
	<node id="9965481485" lat="61.6160453" lon="4.796195" version="1" timestamp="2022-08-20T08:50:22Z" changeset="125138148" uid="3497659" user="NKA">
		<tag k="name" v="Litle Batalden" />
		<tag k="place" v="farm" />
		<tag k="ssr:stedsnr" v="973755" />
	</node>
	<node id="9965481486" lat="61.6211306" lon="5.5508838" version="1" timestamp="2022-08-20T08:50:22Z" changeset="125138148" uid="3497659" user="NKA">
		<tag k="historic" v="shieling" />
		<tag k="name" v="Skitnestøylen" />
		<tag k="place" v="isolated_dwelling" />
		<tag k="ssr:stedsnr" v="737708" />
	</node>
	<node id="9965481487" lat="61.56895" lon="5.6854809" version="1" timestamp="2022-08-20T08:50:22Z" changeset="125138148" uid="3497659" user="NKA">
		<tag k="name" v="Slåttene" />
		<tag k="place" v="farm" />
		<tag k="ssr:stedsnr" v="445700" />
	</node>
	<node id="9965481488" lat="61.6455611" lon="5.2909255" version="1" timestamp="2022-08-20T08:50:22Z" changeset="125138148" uid="3497659" user="NKA">
		<tag k="name" v="Øyrane" />
		<tag k="place" v="isolated_dwelling" />
		<tag k="ssr:stedsnr" v="434920" />
	</node>
	<node id="9965481489" lat="62.0115305" lon="5.1036311" version="1" timestamp="2022-08-20T08:50:22Z" changeset="125138148" uid="3497659" user="NKA">
		<tag k="name" v="Steinagard" />
		<tag k="place" v="farm" />
		<tag k="ssr:stedsnr" v="822563" />
	</node>
	<node id="9965481490" lat="62.0137042" lon="5.0886984" version="1" timestamp="2022-08-20T08:50:22Z" changeset="125138148" uid="3497659" user="NKA">
		<tag k="alt_name" v="Kongshaugen" />
		<tag k="name" v="Kongshaug" />
		<tag k="place" v="farm" />
		<tag k="ssr:stedsnr" v="253659" />
	</node>
	<node id="9965481491" lat="61.505825" lon="5.0972896" version="1" timestamp="2022-08-20T08:50:22Z" changeset="125138148" uid="3497659" user="NKA">
		<tag k="name" v="Heggøy" />
		<tag k="place" v="farm" />
		<tag k="ssr:stedsnr" v="676615" />
	</node>
	<node id="9965481492" lat="61.5892324" lon="5.042735" version="1" timestamp="2022-08-20T08:50:22Z" changeset="125138148" uid="3497659" user="NKA">
		<tag k="name" v="Austvik" />
		<tag k="place" v="locality" />
		<tag k="ssr:stedsnr" v="161660" />
	</node>
	<node id="9965481493" lat="61.7055139" lon="5.5641865" version="1" timestamp="2022-08-20T08:50:22Z" changeset="125138148" uid="3497659" user="NKA">
		<tag k="historic" v="shieling" />
		<tag k="name" v="Grøndalsstøylen" />
		<tag k="place" v="isolated_dwelling" />
		<tag k="ssr:stedsnr" v="69697" />
	</node>
	<node id="9965481494" lat="61.5694721" lon="5.6959874" version="1" timestamp="2022-08-20T08:50:22Z" changeset="125138148" uid="3497659" user="NKA">
		<tag k="name" v="Ramsdal" />
		<tag k="place" v="hamlet" />
		<tag k="ssr:stedsnr" v="433484" />
	</node>
	<node id="9965481495" lat="61.5028611" lon="5.2467089" version="1" timestamp="2022-08-20T08:50:22Z" changeset="125138148" uid="3497659" user="NKA">
		<tag k="name" v="Kvia" />
		<tag k="place" v="farm" />
		<tag k="ssr:stedsnr" v="858653" />
	</node>
	<node id="9965481496" lat="61.5750667" lon="5.640867" version="1" timestamp="2022-08-20T08:50:22Z" changeset="125138148" uid="3497659" user="NKA">
		<tag k="historic" v="shieling" />
		<tag k="name" v="Norestølen" />
		<tag k="place" v="isolated_dwelling" />
		<tag k="ssr:stedsnr" v="30632" />
	</node>
	<node id="9965481497" lat="62.0220194" lon="5.0069618" version="1" timestamp="2022-08-20T08:50:22Z" changeset="125138148" uid="3497659" user="NKA">
		<tag k="historic" v="shieling" />
		<tag k="name" v="Kloppestølen" />
		<tag k="place" v="isolated_dwelling" />
		<tag k="ssr:stedsnr" v="94453" />
	</node>
	<node id="9965481498" lat="61.527" lon="5.3135533" version="1" timestamp="2022-08-20T08:50:22Z" changeset="125138148" uid="3497659" user="NKA">
		<tag k="historic" v="shieling" />
		<tag k="name" v="Tunastølen" />
		<tag k="place" v="isolated_dwelling" />
		<tag k="ssr:stedsnr" v="69642" />
	</node>
	<node id="9965481499" lat="61.9462889" lon="5.0816063" version="1" timestamp="2022-08-20T08:50:22Z" changeset="125138148" uid="3497659" user="NKA">
		<tag k="historic" v="shieling" />
		<tag k="name" v="Nysetra" />
		<tag k="place" v="isolated_dwelling" />
		<tag k="ssr:stedsnr" v="578219" />
	</node>
	<node id="9965481500" lat="61.5120417" lon="5.2468617" version="1" timestamp="2022-08-20T08:50:22Z" changeset="125138148" uid="3497659" user="NKA">
		<tag k="name" v="Leirvika" />
		<tag k="place" v="farm" />
		<tag k="ssr:stedsnr" v="615602" />
	</node>
	<node id="9965481501" lat="61.7016891" lon="4.8665058" version="1" timestamp="2022-08-20T08:50:22Z" changeset="125138148" uid="3497659" user="NKA">
		<tag k="name" v="Hovdevåg" />
		<tag k="place" v="farm" />
		<tag k="ssr:stedsnr" v="372048" />
	</node>
	<node id="9965481502" lat="61.5129506" lon="5.2286257" version="1" timestamp="2022-08-20T08:50:22Z" changeset="125138148" uid="3497659" user="NKA">
		<tag k="alt_name" v="Standal, nedre" />
		<tag k="name" v="Nedre Standal" />
		<tag k="place" v="hamlet" />
		<tag k="ssr:stedsnr" v="130573" />
	</node>
	<node id="9965481503" lat="61.6088871" lon="5.390173" version="1" timestamp="2022-08-20T08:50:22Z" changeset="125138148" uid="3497659" user="NKA">
		<tag k="name" v="Tonheimslia" />
		<tag k="place" v="farm" />
		<tag k="ssr:stedsnr" v="858988" />
	</node>
	<node id="9965481504" lat="61.4992315" lon="5.2542681" version="1" timestamp="2022-08-20T08:50:22Z" changeset="125138148" uid="3497659" user="NKA">
		<tag k="alt_name" v="Svortevik" />
		<tag k="name" v="Svortevika" />
		<tag k="place" v="farm" />
		<tag k="ssr:stedsnr" v="371022" />
	</node>
	<node id="9965481505" lat="61.5223896" lon="5.1868977" version="1" timestamp="2022-08-20T08:50:22Z" changeset="125138148" uid="3497659" user="NKA">
		<tag k="name" v="Stavvika" />
		<tag k="place" v="farm" />
		<tag k="ssr:stedsnr" v="69625" />
	</node>
	<node id="9965481506" lat="61.6045528" lon="5.3194811" version="1" timestamp="2022-08-20T08:50:22Z" changeset="125138148" uid="3497659" user="NKA">
		<tag k="name" v="Storeteigen" />
		<tag k="place" v="locality" />
		<tag k="ssr:stedsnr" v="31961" />
	</node>
	<node id="9965481507" lat="61.5443424" lon="5.3310537" version="1" timestamp="2022-08-20T08:50:22Z" changeset="125138148" uid="3497659" user="NKA">
		<tag k="loc_name" v="Høydalane" />
		<tag k="name" v="Høydalen" />
		<tag k="place" v="farm" />
		<tag k="ssr:stedsnr" v="973782" />
	</node>
	<node id="9965481508" lat="61.6341083" lon="5.0379118" version="1" timestamp="2022-08-20T08:50:22Z" changeset="125138148" uid="3497659" user="NKA">
		<tag k="name" v="Solly" />
		<tag k="place" v="farm" />
		<tag k="ssr:stedsnr" v="433109" />
	</node>
	<node id="9965481509" lat="61.5731778" lon="5.2747951" version="1" timestamp="2022-08-20T08:50:22Z" changeset="125138148" uid="3497659" user="NKA">
		<tag k="alt_name" v="Kjærevik" />
		<tag k="name" v="Kjervik" />
		<tag k="place" v="farm" />
		<tag k="ssr:stedsnr" v="129515" />
	</node>
	<node id="9965481510" lat="61.5770833" lon="5.3358033" version="1" timestamp="2022-08-20T08:50:22Z" changeset="125138148" uid="3497659" user="NKA">
		<tag k="alt_name" v="Hamrebø" />
		<tag k="name" v="Klipe" />
		<tag k="place" v="farm" />
		<tag k="ssr:stedsnr" v="554555" />
	</node>
	<node id="9965481511" lat="61.5974324" lon="5.2591756" version="1" timestamp="2022-08-20T08:50:22Z" changeset="125138148" uid="3497659" user="NKA">
		<tag k="name" v="Hovdasteinen" />
		<tag k="place" v="farm" />
		<tag k="ssr:stedsnr" v="456083" />
	</node>
	<node id="9965481512" lat="61.8901444" lon="5.1498757" version="1" timestamp="2022-08-20T08:50:22Z" changeset="125138148" uid="3497659" user="NKA">
		<tag k="name" v="Buvika" />
		<tag k="place" v="farm" />
		<tag k="ssr:stedsnr" v="555159" />
	</node>
	<node id="9965481513" lat="61.8887025" lon="5.1529468" version="1" timestamp="2022-08-20T08:50:22Z" changeset="125138148" uid="3497659" user="NKA">
		<tag k="name" v="Rognelund" />
		<tag k="place" v="farm" />
		<tag k="ssr:stedsnr" v="659838" />
	</node>
	<node id="9965481514" lat="61.5651722" lon="5.1239478" version="1" timestamp="2022-08-20T08:50:22Z" changeset="125138148" uid="3497659" user="NKA">
		<tag k="name" v="Skarekvia" />
		<tag k="place" v="farm" />
		<tag k="ssr:stedsnr" v="393094" />
	</node>
	<node id="9965481515" lat="61.5970083" lon="5.4834365" version="1" timestamp="2022-08-20T08:50:22Z" changeset="125138148" uid="3497659" user="NKA">
		<tag k="historic" v="shieling" />
		<tag k="name" v="Eikefjordstøylen" />
		<tag k="place" v="isolated_dwelling" />
		<tag k="ssr:stedsnr" v="737733" />
	</node>
	<node id="9965481516" lat="61.9184292" lon="5.1660433" version="1" timestamp="2022-08-20T08:50:22Z" changeset="125138148" uid="3497659" user="NKA">
		<tag k="name" v="Tennebø" />
		<tag k="place" v="quarter" />
		<tag k="ssr:stedsnr" v="555202" />
	</node>
	<node id="9965481517" lat="61.5140889" lon="5.4497922" version="1" timestamp="2022-08-20T08:50:22Z" changeset="125138148" uid="3497659" user="NKA">
		<tag k="historic" v="shieling" />
		<tag k="name" v="Høyvikestølen" />
		<tag k="place" v="isolated_dwelling" />
		<tag k="ssr:stedsnr" v="433596" />
	</node>
	<node id="9965481518" lat="61.5641361" lon="4.8219648" version="1" timestamp="2022-08-20T08:50:22Z" changeset="125138148" uid="3497659" user="NKA">
		<tag k="historic" v="shieling" />
		<tag k="name" v="Stølen" />
		<tag k="place" v="isolated_dwelling" />
		<tag k="ssr:stedsnr" v="636402" />
	</node>
	<node id="9965481519" lat="61.6316159" lon="5.173531" version="1" timestamp="2022-08-20T08:50:22Z" changeset="125138148" uid="3497659" user="NKA">
		<tag k="loc_name" v="Klauvene" />
		<tag k="name" v="Klauva" />
		<tag k="place" v="hamlet" />
		<tag k="ssr:stedsnr" v="676930" />
	</node>
	<node id="9965481520" lat="61.9190136" lon="5.1297121" version="1" timestamp="2022-08-20T08:50:22Z" changeset="125138148" uid="3497659" user="NKA">
		<tag k="name" v="Blålid" />
		<tag k="place" v="neighbourhood" />
		<tag k="ssr:stedsnr" v="283474" />
	</node>
	<node id="9965481521" lat="61.6145361" lon="5.2230812" version="1" timestamp="2022-08-20T08:50:22Z" changeset="125138148" uid="3497659" user="NKA">
		<tag k="name" v="Kvia" />
		<tag k="place" v="farm" />
		<tag k="ssr:stedsnr" v="69964" />
	</node>
	<node id="9965481522" lat="61.5135694" lon="5.1888757" version="1" timestamp="2022-08-20T08:50:22Z" changeset="125138148" uid="3497659" user="NKA">
		<tag k="name" v="Fløholmen" />
		<tag k="place" v="farm" />
		<tag k="ssr:stedsnr" v="615582" />
	</node>
	<node id="9965481523" lat="61.9896168" lon="5.0541812" version="1" timestamp="2022-08-20T08:50:22Z" changeset="125138148" uid="3497659" user="NKA">
		<tag k="name" v="Myre" />
		<tag k="place" v="farm" />
		<tag k="ssr:stedsnr" v="616967" />
	</node>
	<node id="9965481524" lat="61.6745821" lon="4.8459368" version="1" timestamp="2022-08-20T08:50:22Z" changeset="125138148" uid="3497659" user="NKA">
		<tag k="name" v="Domba" />
		<tag k="place" v="farm" />
		<tag k="ssr:stedsnr" v="8018" />
	</node>
	<node id="9965481525" lat="61.604317" lon="5.1425267" version="1" timestamp="2022-08-20T08:50:22Z" changeset="125138148" uid="3497659" user="NKA">
		<tag k="name" v="Sundet" />
		<tag k="place" v="hamlet" />
		<tag k="ssr:stedsnr" v="676959" />
	</node>
	<node id="9965481526" lat="61.6437028" lon="5.25317" version="1" timestamp="2022-08-20T08:50:22Z" changeset="125138148" uid="3497659" user="NKA">
		<tag k="name" v="Haukåstølen" />
		<tag k="place" v="locality" />
		<tag k="ssr:stedsnr" v="615914" />
	</node>
	<node id="9965481527" lat="61.6657402" lon="4.9012597" version="1" timestamp="2022-08-20T08:50:22Z" changeset="125138148" uid="3497659" user="NKA">
		<tag k="name" v="Barekstadneset" />
		<tag k="place" v="hamlet" />
		<tag k="ssr:stedsnr" v="8022" />
	</node>
	<node id="9965481528" lat="61.5215678" lon="5.5658452" version="1" timestamp="2022-08-20T08:50:22Z" changeset="125138148" uid="3497659" user="NKA">
		<tag k="historic" v="shieling" />
		<tag k="name" v="Kvanngrøstøylen" />
		<tag k="place" v="isolated_dwelling" />
		<tag k="ssr:stedsnr" v="797417" />
	</node>
	<node id="9965481529" lat="61.5876778" lon="5.3397394" version="1" timestamp="2022-08-20T08:50:22Z" changeset="125138148" uid="3497659" user="NKA">
		<tag k="alt_name" v="Kjørstevik" />
		<tag k="name" v="Kjørslevik" />
		<tag k="place" v="farm" />
		<tag k="ssr:stedsnr" v="554544" />
	</node>
	<node id="9965481530" lat="61.6927975" lon="4.8852736" version="1" timestamp="2022-08-20T08:50:22Z" changeset="125138148" uid="3497659" user="NKA">
		<tag k="name" v="Hovdetræet" />
		<tag k="place" v="hamlet" />
		<tag k="ssr:stedsnr" v="615057" />
	</node>
	<node id="9965481531" lat="61.606045" lon="5.0861102" version="1" timestamp="2022-08-20T08:50:22Z" changeset="125138148" uid="3497659" user="NKA">
		<tag k="name" v="Havikbotn" />
		<tag k="place" v="farm" />
		<tag k="ssr:stedsnr" v="372150" />
	</node>
	<node id="9965481532" lat="61.6008111" lon="5.5482616" version="1" timestamp="2022-08-20T08:50:22Z" changeset="125138148" uid="3497659" user="NKA">
		<tag k="alt_name" v="Eikevik" />
		<tag k="name" v="Eikevika" />
		<tag k="place" v="farm" />
		<tag k="ssr:stedsnr" v="434696" />
	</node>
	<node id="9965481533" lat="62.0223222" lon="5.0264869" version="1" timestamp="2022-08-20T08:50:22Z" changeset="125138148" uid="3497659" user="NKA">
		<tag k="historic" v="shieling" />
		<tag k="name" v="Setra" />
		<tag k="place" v="isolated_dwelling" />
		<tag k="ssr:stedsnr" v="519321" />
	</node>
	<node id="9965481534" lat="61.6482778" lon="5.5156671" version="1" timestamp="2022-08-20T08:50:22Z" changeset="125138148" uid="3497659" user="NKA">
		<tag k="historic" v="shieling" />
		<tag k="name" v="Eilistølen" />
		<tag k="place" v="isolated_dwelling" />
		<tag k="ssr:stedsnr" v="576388" />
	</node>
	<node id="9965481535" lat="62.0076676" lon="5.1386272" version="1" timestamp="2022-08-20T08:50:22Z" changeset="125138148" uid="3497659" user="NKA">
		<tag k="name" v="Kjerringdalen" />
		<tag k="place" v="farm" />
		<tag k="ssr:stedsnr" v="557610" />
	</node>
	<node id="9965481536" lat="61.5735195" lon="5.4209199" version="1" timestamp="2022-08-20T08:50:22Z" changeset="125138148" uid="3497659" user="NKA">
		<tag k="name" v="Remma" />
		<tag k="place" v="farm" />
		<tag k="ssr:stedsnr" v="311578" />
	</node>
	<node id="9965481537" lat="61.6344095" lon="5.0413237" version="1" timestamp="2022-08-20T08:50:22Z" changeset="125138148" uid="3497659" user="NKA">
		<tag k="name" v="Pusavika" />
		<tag k="place" v="farm" />
		<tag k="ssr:stedsnr" v="372103" />
	</node>
	<node id="9965481538" lat="61.9634453" lon="5.0672766" version="1" timestamp="2022-08-20T08:50:22Z" changeset="125138148" uid="3497659" user="NKA">
		<tag k="name" v="Søre Oppedalen" />
		<tag k="place" v="hamlet" />
		<tag k="ssr:stedsnr" v="518845" />
	</node>
	<node id="9965481539" lat="61.6125166" lon="5.5320449" version="1" timestamp="2022-08-20T08:50:22Z" changeset="125138148" uid="3497659" user="NKA">
		<tag k="historic" v="shieling" />
		<tag k="name" v="Øyrastøylen" />
		<tag k="place" v="isolated_dwelling" />
		<tag k="ssr:stedsnr" v="9734" />
	</node>
	<node id="9965481540" lat="61.5497478" lon="5.4118642" version="1" timestamp="2022-08-20T08:50:22Z" changeset="125138148" uid="3497659" user="NKA">
		<tag k="name" v="Osen" />
		<tag k="place" v="farm" />
		<tag k="ssr:stedsnr" v="130550" />
	</node>
	<node id="9965481541" lat="61.6076027" lon="5.5570281" version="1" timestamp="2022-08-20T08:50:22Z" changeset="125138148" uid="3497659" user="NKA">
		<tag k="name" v="Støylsvika" />
		<tag k="place" v="farm" />
		<tag k="ssr:stedsnr" v="919716" />
	</node>
	<node id="9965481542" lat="61.6375124" lon="5.074649" version="1" timestamp="2022-08-20T08:50:22Z" changeset="125138148" uid="3497659" user="NKA">
		<tag k="name" v="Saga" />
		<tag k="place" v="farm" />
		<tag k="ssr:stedsnr" v="251095" />
	</node>
	<node id="9965481543" lat="61.6879085" lon="4.976201" version="1" timestamp="2022-08-20T08:50:22Z" changeset="125138148" uid="3497659" user="NKA">
		<tag k="name" v="Breivik" />
		<tag k="place" v="farm" />
		<tag k="ssr:stedsnr" v="312061" />
	</node>
	<node id="9965481544" lat="61.5496083" lon="5.5209948" version="1" timestamp="2022-08-20T08:50:22Z" changeset="125138148" uid="3497659" user="NKA">
		<tag k="historic" v="shieling" />
		<tag k="name" v="Vassetestøylen" />
		<tag k="place" v="isolated_dwelling" />
		<tag k="ssr:stedsnr" v="251459" />
	</node>
	<node id="9965481545" lat="61.5348088" lon="5.4639998" version="1" timestamp="2022-08-20T08:50:22Z" changeset="125138148" uid="3497659" user="NKA">
		<tag k="name" v="Teigen" />
		<tag k="place" v="farm" />
		<tag k="ssr:stedsnr" v="858622" />
	</node>
	<node id="9965481546" lat="61.5476009" lon="5.180317" version="1" timestamp="2022-08-20T08:50:22Z" changeset="125138148" uid="3497659" user="NKA">
		<tag k="name" v="Hellevik" />
		<tag k="place" v="farm" />
		<tag k="ssr:stedsnr" v="129538" />
	</node>
	<node id="9965481547" lat="61.5643222" lon="5.4781533" version="1" timestamp="2022-08-20T08:50:22Z" changeset="125138148" uid="3497659" user="NKA">
		<tag k="name" v="Vassetehola" />
		<tag k="place" v="farm" />
		<tag k="ssr:stedsnr" v="129492" />
	</node>
	<node id="9965481548" lat="61.6403596" lon="5.3788699" version="1" timestamp="2022-08-20T08:50:22Z" changeset="125138148" uid="3497659" user="NKA">
		<tag k="name" v="Norddal" />
		<tag k="place" v="hamlet" />
		<tag k="ssr:stedsnr" v="973771" />
	</node>
	<node id="9965481549" lat="61.5371222" lon="5.4704504" version="1" timestamp="2022-08-20T08:50:22Z" changeset="125138148" uid="3497659" user="NKA">
		<tag k="name" v="Litleteigen" />
		<tag k="place" v="locality" />
		<tag k="ssr:stedsnr" v="698271" />
	</node>
	<node id="9965481550" lat="61.6682673" lon="5.6028963" version="1" timestamp="2022-08-20T08:50:22Z" changeset="125138148" uid="3497659" user="NKA">
		<tag k="name" v="Sunndalen" />
		<tag k="place" v="hamlet" />
		<tag k="ssr:stedsnr" v="554720" />
	</node>
	<node id="9965481551" lat="61.6148162" lon="5.322144" version="1" timestamp="2022-08-20T08:50:22Z" changeset="125138148" uid="3497659" user="NKA">
		<tag k="name" v="Grov" />
		<tag k="place" v="farm" />
		<tag k="ssr:stedsnr" v="129938" />
	</node>
	<node id="9965481552" lat="61.6285972" lon="4.9986869" version="1" timestamp="2022-08-20T08:50:22Z" changeset="125138148" uid="3497659" user="NKA">
		<tag k="name" v="Brotet" />
		<tag k="place" v="farm" />
		<tag k="ssr:stedsnr" v="554075" />
	</node>
	<node id="9965481553" lat="61.5457693" lon="5.32696" version="1" timestamp="2022-08-20T08:50:22Z" changeset="125138148" uid="3497659" user="NKA">
		<tag k="alt_name" v="Høydal;Høydal, store;Høydalen" />
		<tag k="name" v="Store Høydal" />
		<tag k="place" v="hamlet" />
		<tag k="ssr:stedsnr" v="372579" />
	</node>
	<node id="9965481554" lat="61.6144292" lon="5.1573263" version="1" timestamp="2022-08-20T08:50:22Z" changeset="125138148" uid="3497659" user="NKA">
		<tag k="name" v="Grønenga" />
		<tag k="place" v="hamlet" />
		<tag k="ssr:stedsnr" v="69959" />
	</node>
	<node id="9965481555" lat="61.5848552" lon="5.4614674" version="1" timestamp="2022-08-20T08:50:22Z" changeset="125138148" uid="3497659" user="NKA">
		<tag k="name" v="Skaret" />
		<tag k="place" v="farm" />
		<tag k="ssr:stedsnr" v="988631" />
	</node>
	<node id="9965481556" lat="61.5744655" lon="5.3718705" version="1" timestamp="2022-08-20T08:50:22Z" changeset="125138148" uid="3497659" user="NKA">
		<tag k="name" v="Holterheim" />
		<tag k="place" v="farm" />
		<tag k="ssr:stedsnr" v="554582" />
	</node>
	<node id="9965481557" lat="61.561871" lon="5.333894" version="1" timestamp="2022-08-20T08:50:22Z" changeset="125138148" uid="3497659" user="NKA">
		<tag k="name" v="Hopen" />
		<tag k="place" v="hamlet" />
		<tag k="ssr:stedsnr" v="69572" />
	</node>
	<node id="9965481558" lat="61.5399574" lon="5.2654176" version="1" timestamp="2022-08-20T08:50:22Z" changeset="125138148" uid="3497659" user="NKA">
		<tag k="name" v="Myra" />
		<tag k="place" v="farm" />
		<tag k="ssr:stedsnr" v="494552" />
	</node>
	<node id="9965481559" lat="61.5858444" lon="5.228445" version="1" timestamp="2022-08-20T08:50:22Z" changeset="125138148" uid="3497659" user="NKA">
		<tag k="name" v="Skorane" />
		<tag k="place" v="isolated_dwelling" />
		<tag k="ssr:stedsnr" v="919966" />
	</node>
	<node id="9965481560" lat="61.5504512" lon="5.3361943" version="1" timestamp="2022-08-20T08:50:22Z" changeset="125138148" uid="3497659" user="NKA">
		<tag k="alt_name" v="Vika" />
		<tag k="name" v="Vikane" />
		<tag k="place" v="farm" />
		<tag k="ssr:stedsnr" v="69622" />
	</node>
	<node id="9965481561" lat="61.5139908" lon="5.2844757" version="1" timestamp="2022-08-20T08:50:22Z" changeset="125138148" uid="3497659" user="NKA">
		<tag k="alt_name" v="Standal, øvre" />
		<tag k="name" v="Øvre Standal" />
		<tag k="place" v="hamlet" />
		<tag k="ssr:stedsnr" v="615596" />
	</node>
	<node id="9965481562" lat="61.5329877" lon="5.4656667" version="1" timestamp="2022-08-20T08:50:22Z" changeset="125138148" uid="3497659" user="NKA">
		<tag k="name" v="Sæten" />
		<tag k="place" v="farm" />
		<tag k="ssr:stedsnr" v="919586" />
	</node>
</osm>
