<?xml version="1.0" encoding="UTF-8"?>
<osm version="0.6" generator="osmapis">
	<node id="2354924430" lat="68.744525" lon="22.535528" version="2" timestamp="2018-05-02T17:04:05Z" changeset="58620907" uid="3497659" user="NKA">
		<tag k="name" v="Urdevárri" />
		<tag k="name:se" v="Urdevárri" />
		<tag k="natural" v="peak" />
		<tag k="source" v="Kartverket" />
		<tag k="ssr:stedsnr" v="868042" />
	</node>
	<node id="2354924673" lat="68.748175" lon="22.692978" version="2" timestamp="2018-05-02T17:04:05Z" changeset="58620907" uid="3497659" user="NKA">
		<tag k="name" v="Bizoaivi" />
		<tag k="name:se" v="Bizoaivi" />
		<tag k="natural" v="peak" />
		<tag k="source" v="Kartverket" />
		<tag k="ssr:stedsnr" v="139049" />
	</node>
	<node id="2354928348" lat="68.725192" lon="22.397528" version="2" timestamp="2018-05-02T17:04:05Z" changeset="58620907" uid="3497659" user="NKA">
		<tag k="name" v="Buvssašvárri" />
		<tag k="name:se" v="Buvssašvárri" />
		<tag k="natural" v="peak" />
		<tag k="source" v="Kartverket" />
		<tag k="ssr:stedsnr" v="928055" />
	</node>
	<node id="3061317375" lat="69.4577147" lon="23.5037979" version="5" timestamp="2022-01-26T06:08:00Z" changeset="116609992" uid="3497659" user="NKA">
		<tag k="junction" v="yes" />
		<tag k="name" v="Stuoroaivi" />
		<tag k="name:se" v="Stuoroaivi" />
		<tag k="old_name:se" v="Stuoroai'vi" />
		<tag k="ssr:stedsnr" v="929392" />
	</node>
	<node id="5814778347" lat="68.7662476" lon="22.549433" version="1" timestamp="2018-08-07T12:30:20Z" changeset="61433683" uid="3497659" user="NKA" />
	<node id="5814778348" lat="69.0558056" lon="22.0742743" version="1" timestamp="2018-08-07T12:30:20Z" changeset="61433683" uid="3497659" user="NKA" />
	<node id="5814778342" lat="69.3158958" lon="22.9573032" version="1" timestamp="2018-08-07T12:30:19Z" changeset="61433683" uid="3497659" user="NKA" />
	<node id="5814778346" lat="68.6865261" lon="24.8840277" version="1" timestamp="2018-08-07T12:30:20Z" changeset="61433683" uid="3497659" user="NKA" />
	<node id="5814778343" lat="69.7223925" lon="23.8265936" version="1" timestamp="2018-08-07T12:30:19Z" changeset="61433683" uid="3497659" user="NKA" />
	<node id="5814778345" lat="69.0155153" lon="25.5487006" version="1" timestamp="2018-08-07T12:30:20Z" changeset="61433683" uid="3497659" user="NKA" />
	<node id="5814778344" lat="69.7628088" lon="25.8933966" version="1" timestamp="2018-08-07T12:30:19Z" changeset="61433683" uid="3497659" user="NKA" />
	<way id="614791809" version="58" timestamp="2020-03-08T19:59:43Z" changeset="81932379" uid="7589857" user="Marius Geitle_import">
		<tag k="name" v="Finnmarksvidda" />
		<tag k="natural" v="mountain_range" />
		<tag k="note" v="Please refine boundary based on local knowledge" />
		<tag k="ssr:stedsnr" v="754051" />
		<tag k="ssr:type" v="fjellområde" />
		<nd ref="5814778348" />
		<nd ref="5814778347" />
		<nd ref="5814778346" />
		<nd ref="5814778345" />
		<nd ref="5814778344" />
		<nd ref="5814778343" />
		<nd ref="5814778342" />
		<nd ref="5814778348" />
	</way>
</osm>
