<?xml version="1.0" encoding="UTF-8"?>
<osm generator="osmapis" version="0.6">
	<node id="-590592" lat="62.9691472201" lon="7.00982222947">
		<tag k="name" v="Stoplene, Nedre" />
		<tag k="ssr:date" v="2016-05-10" />
		<tag k="ssr:gruppe" v="navigasjon" />
		<tag k="ssr:hovedgruppe" v="infrastruktur" />
		<tag k="ssr:stedsnr" v="465255" />
		<tag k="ssr:type" v="lanterne" />
	</node>
	<node id="-591486" lat="62.9679083293" lon="6.88072777664">
		<tag k="name" v="Kolbeinflua" />
		<tag k="ssr:date" v="2016-05-11" />
		<tag k="ssr:gruppe" v="navigasjon" />
		<tag k="ssr:hovedgruppe" v="infrastruktur" />
		<tag k="ssr:stedsnr" v="838585" />
		<tag k="ssr:type" v="lysbøye" />
	</node>
	<node id="-590716" lat="62.9559694472" lon="6.90135277477">
		<tag k="name" v="Lyroddan" />
		<tag k="ssr:date" v="2016-05-10" />
		<tag k="ssr:gruppe" v="navigasjon" />
		<tag k="ssr:hovedgruppe" v="infrastruktur" />
		<tag k="ssr:stedsnr" v="525725" />
		<tag k="ssr:type" v="fyrlykt" />
	</node>
	<node id="-591563" lat="62.8010583376" lon="7.12212222476">
		<tag k="name" v="Fjellsetra" />
		<tag k="ssr:date" v="2019-05-31" />
		<tag k="ssr:gruppe" v="veg" />
		<tag k="ssr:hovedgruppe" v="infrastruktur" />
		<tag k="ssr:stedsnr" v="909847" />
		<tag k="ssr:type" v="adressenavn" />
	</node>
	<node id="-589631" lat="62.9513724137" lon="7.00416415673">
		<tag k="name" v="Langholmen" />
		<tag k="ssr:date" v="2019-05-31" />
		<tag k="ssr:gruppe" v="veg" />
		<tag k="ssr:hovedgruppe" v="infrastruktur" />
		<tag k="ssr:stedsnr" v="1058363" />
		<tag k="ssr:type" v="adressenavn" />
	</node>
	<node id="-590455" lat="62.9527972259" lon="7.00399444357">
		<tag k="name" v="Skutholmen" />
		<tag k="ssr:date" v="2019-05-31" />
		<tag k="ssr:gruppe" v="veg" />
		<tag k="ssr:hovedgruppe" v="infrastruktur" />
		<tag k="ssr:stedsnr" v="424843" />
		<tag k="ssr:type" v="adressenavn" />
	</node>
	<node id="-591349" lat="62.9694527779" lon="7.01033611513">
		<tag k="name" v="Stoplene, Øvre" />
		<tag k="ssr:date" v="2016-05-11" />
		<tag k="ssr:gruppe" v="navigasjon" />
		<tag k="ssr:hovedgruppe" v="infrastruktur" />
		<tag k="ssr:stedsnr" v="769255" />
		<tag k="ssr:type" v="lanterne" />
	</node>
	<node id="-591348" lat="62.8341472199" lon="6.99539166491">
		<tag k="name" v="Hamnneset" />
		<tag k="ssr:date" v="2016-05-11" />
		<tag k="ssr:gruppe" v="navigasjon" />
		<tag k="ssr:hovedgruppe" v="infrastruktur" />
		<tag k="ssr:stedsnr" v="769098" />
		<tag k="ssr:type" v="lanterne" />
	</node>
	<node id="-589943" lat="62.9046888923" lon="6.90496110136">
		<tag k="name" v="Bud molo" />
		<tag k="ssr:date" v="2016-05-10" />
		<tag k="ssr:gruppe" v="navigasjon" />
		<tag k="ssr:hovedgruppe" v="infrastruktur" />
		<tag k="ssr:stedsnr" v="49851" />
		<tag k="ssr:type" v="lanterne" />
	</node>
	<node id="-590447" lat="62.9192500043" lon="6.92058333879">
		<tag k="name" v="Dubla" />
		<tag k="ssr:date" v="2016-05-10" />
		<tag k="ssr:gruppe" v="navigasjon" />
		<tag k="ssr:hovedgruppe" v="infrastruktur" />
		<tag k="ssr:stedsnr" v="414356" />
		<tag k="ssr:type" v="lanterne" />
	</node>
	<node id="-591698" lat="62.8342888889" lon="7.04176666252">
		<tag k="name" v="Nesaflua" />
		<tag k="ssr:date" v="2016-05-11" />
		<tag k="ssr:gruppe" v="navigasjon" />
		<tag k="ssr:hovedgruppe" v="infrastruktur" />
		<tag k="ssr:stedsnr" v="951345" />
		<tag k="ssr:type" v="lanterne" />
	</node>
	<node id="-591720" lat="62.8281432612" lon="7.24464546762">
		<tag k="name" v="Emilievegen" />
		<tag k="ssr:date" v="2019-05-31" />
		<tag k="ssr:gruppe" v="veg" />
		<tag k="ssr:hovedgruppe" v="infrastruktur" />
		<tag k="ssr:stedsnr" v="980249" />
		<tag k="ssr:type" v="adressenavn" />
	</node>
	<node id="-591591" lat="63.0029777751" lon="7.1993972211">
		<tag k="name" v="Kusundet" />
		<tag k="ssr:date" v="2016-05-11" />
		<tag k="ssr:gruppe" v="navigasjon" />
		<tag k="ssr:hovedgruppe" v="infrastruktur" />
		<tag k="ssr:stedsnr" v="922660" />
		<tag k="ssr:type" v="fyrlykt" />
	</node>
	<node id="-591718" lat="60.8816104596" lon="6.30047518531">
		<tag k="name" v="Vestlandet" />
		<tag k="ssr:date" v="2019-01-06" />
		<tag k="ssr:gruppe" v="administrativeIndelinger" />
		<tag k="ssr:hovedgruppe" v="offentligAdministrasjon" />
		<tag k="ssr:stedsnr" v="974777" />
		<tag k="ssr:type" v="annenAdministrativInndeling" />
	</node>
	<node id="-591057" lat="62.9509444467" lon="7.00816110631">
		<tag k="name" v="Notholmen" />
		<tag k="ssr:date" v="2019-05-31" />
		<tag k="ssr:gruppe" v="veg" />
		<tag k="ssr:hovedgruppe" v="infrastruktur" />
		<tag k="ssr:stedsnr" v="666843" />
		<tag k="ssr:type" v="adressenavn" />
	</node>
	<node id="-591494" lat="63.0050972246" lon="7.24074444173">
		<tag k="name" v="Marholmen" />
		<tag k="ssr:date" v="2019-05-31" />
		<tag k="ssr:gruppe" v="veg" />
		<tag k="ssr:hovedgruppe" v="infrastruktur" />
		<tag k="ssr:stedsnr" v="848846" />
		<tag k="ssr:type" v="adressenavn" />
	</node>
	<node id="-591056" lat="63.0066527757" lon="7.2116138794">
		<tag k="name" v="Teistklubben" />
		<tag k="ssr:date" v="2019-05-31" />
		<tag k="ssr:gruppe" v="veg" />
		<tag k="ssr:hovedgruppe" v="infrastruktur" />
		<tag k="ssr:stedsnr" v="666747" />
		<tag k="ssr:type" v="adressenavn" />
	</node>
	<node id="-589948" lat="62.9579305595" lon="6.96363056434">
		<tag k="name" v="Rota" />
		<tag k="ssr:date" v="2019-05-31" />
		<tag k="ssr:gruppe" v="veg" />
		<tag k="ssr:hovedgruppe" v="infrastruktur" />
		<tag k="ssr:stedsnr" v="59841" />
		<tag k="ssr:type" v="adressenavn" />
	</node>
	<node id="-591562" lat="62.8258666675" lon="7.1330083235">
		<tag k="name" v="Beøya" />
		<tag k="ssr:date" v="2019-05-31" />
		<tag k="ssr:gruppe" v="veg" />
		<tag k="ssr:hovedgruppe" v="infrastruktur" />
		<tag k="ssr:stedsnr" v="909844" />
		<tag k="ssr:type" v="adressenavn" />
	</node>
	<node id="-589787" lat="62.9082805579" lon="6.88986111408">
		<tag k="name" v="Storesundet" />
		<tag k="ssr:date" v="2016-05-10" />
		<tag k="ssr:gruppe" v="navigasjon" />
		<tag k="ssr:hovedgruppe" v="infrastruktur" />
		<tag k="ssr:stedsnr" v="413866" />
		<tag k="ssr:type" v="fyrlykt" />
	</node>
	<node id="-591706" lat="63.0496500003" lon="6.97511110752">
		<tag k="name" v="Kroppen Lysbøye" />
		<tag k="ssr:date" v="2016-05-11" />
		<tag k="ssr:gruppe" v="navigasjon" />
		<tag k="ssr:hovedgruppe" v="infrastruktur" />
		<tag k="ssr:stedsnr" v="959135" />
		<tag k="ssr:type" v="lysbøye" />
	</node>
	<node id="-589528" lat="62.8537472241" lon="7.1538138794">
		<tag k="name" v="Fræna kommune" />
		<tag k="ssr:date" v="2016-05-10" />
		<tag k="ssr:gruppe" v="administrativeIndelinger" />
		<tag k="ssr:hovedgruppe" v="offentligAdministrasjon" />
		<tag k="ssr:stedsnr" v="389666" />
		<tag k="ssr:type" v="kommune" />
	</node>
	<node id="-589782" lat="62.8455694832" lon="7.05824523366">
		<tag k="name" v="Iver Kjørsviks veg" />
		<tag k="ssr:date" v="2019-05-31" />
		<tag k="ssr:gruppe" v="veg" />
		<tag k="ssr:hovedgruppe" v="infrastruktur" />
		<tag k="ssr:stedsnr" v="983633" />
		<tag k="ssr:type" v="adressenavn" />
	</node>
	<node id="-589781" lat="62.8424722758" lon="7.04723336045">
		<tag k="name" v="Lindy Eidems veg" />
		<tag k="ssr:date" v="2019-05-31" />
		<tag k="ssr:gruppe" v="veg" />
		<tag k="ssr:hovedgruppe" v="infrastruktur" />
		<tag k="ssr:stedsnr" v="983632" />
		<tag k="ssr:type" v="adressenavn" />
	</node>
	<node id="-589780" lat="62.8425717763" lon="7.05052683332">
		<tag k="name" v="Balders veg" />
		<tag k="ssr:date" v="2019-05-31" />
		<tag k="ssr:gruppe" v="veg" />
		<tag k="ssr:hovedgruppe" v="infrastruktur" />
		<tag k="ssr:stedsnr" v="983631" />
		<tag k="ssr:type" v="adressenavn" />
	</node>
	<node id="-589779" lat="62.8425013418" lon="7.0525743981">
		<tag k="name" v="Brages veg" />
		<tag k="ssr:date" v="2019-05-31" />
		<tag k="ssr:gruppe" v="veg" />
		<tag k="ssr:hovedgruppe" v="infrastruktur" />
		<tag k="ssr:stedsnr" v="983630" />
		<tag k="ssr:type" v="adressenavn" />
	</node>
	<node id="-589778" lat="62.8436647961" lon="7.04970793481">
		<tag k="name" v="Idunns veg" />
		<tag k="ssr:date" v="2019-05-31" />
		<tag k="ssr:gruppe" v="veg" />
		<tag k="ssr:hovedgruppe" v="infrastruktur" />
		<tag k="ssr:stedsnr" v="983629" />
		<tag k="ssr:type" v="adressenavn" />
	</node>
	<node id="-589777" lat="62.8455930354" lon="7.05474681927">
		<tag k="name" v="Frøyas veg" />
		<tag k="ssr:date" v="2019-05-31" />
		<tag k="ssr:gruppe" v="veg" />
		<tag k="ssr:hovedgruppe" v="infrastruktur" />
		<tag k="ssr:stedsnr" v="983628" />
		<tag k="ssr:type" v="adressenavn" />
	</node>
	<node id="-589776" lat="62.8465959287" lon="7.05780420789">
		<tag k="name" v="Njords veg" />
		<tag k="ssr:date" v="2019-05-31" />
		<tag k="ssr:gruppe" v="veg" />
		<tag k="ssr:hovedgruppe" v="infrastruktur" />
		<tag k="ssr:stedsnr" v="983568" />
		<tag k="ssr:type" v="adressenavn" />
	</node>
	<node id="-589775" lat="62.8446555933" lon="7.05123347295">
		<tag k="name" v="Grids veg" />
		<tag k="ssr:date" v="2019-05-31" />
		<tag k="ssr:gruppe" v="veg" />
		<tag k="ssr:hovedgruppe" v="infrastruktur" />
		<tag k="ssr:stedsnr" v="983567" />
		<tag k="ssr:type" v="adressenavn" />
	</node>
	<node id="-589774" lat="62.8431998842" lon="7.05439431285">
		<tag k="name" v="Friggs veg" />
		<tag k="ssr:date" v="2019-05-31" />
		<tag k="ssr:gruppe" v="veg" />
		<tag k="ssr:hovedgruppe" v="infrastruktur" />
		<tag k="ssr:stedsnr" v="983565" />
		<tag k="ssr:type" v="adressenavn" />
	</node>
	<node id="-589773" lat="62.8444467572" lon="7.05431185447">
		<tag k="name" v="Tors veg" />
		<tag k="ssr:date" v="2019-05-31" />
		<tag k="ssr:gruppe" v="veg" />
		<tag k="ssr:hovedgruppe" v="infrastruktur" />
		<tag k="ssr:stedsnr" v="983566" />
		<tag k="ssr:type" v="adressenavn" />
	</node>
	<node id="-589772" lat="62.853741799" lon="7.18219031598">
		<tag k="name" v="Tollhaugmarka" />
		<tag k="ssr:date" v="2019-05-31" />
		<tag k="ssr:gruppe" v="veg" />
		<tag k="ssr:hovedgruppe" v="infrastruktur" />
		<tag k="ssr:stedsnr" v="983564" />
		<tag k="ssr:type" v="adressenavn" />
	</node>
	<node id="-589771" lat="62.906108632" lon="6.93112230713">
		<tag k="name" v="Buplassvegen" />
		<tag k="ssr:date" v="2019-05-31" />
		<tag k="ssr:gruppe" v="veg" />
		<tag k="ssr:hovedgruppe" v="infrastruktur" />
		<tag k="ssr:stedsnr" v="983563" />
		<tag k="ssr:type" v="adressenavn" />
	</node>
	<node id="-589770" lat="62.9071933709" lon="6.93100644057">
		<tag k="name" v="Rullesteinsvegen" />
		<tag k="ssr:date" v="2019-05-31" />
		<tag k="ssr:gruppe" v="veg" />
		<tag k="ssr:hovedgruppe" v="infrastruktur" />
		<tag k="ssr:stedsnr" v="983562" />
		<tag k="ssr:type" v="adressenavn" />
	</node>
	<node id="-589769" lat="62.9082724334" lon="6.93417888021">
		<tag k="name" v="Flintvegen" />
		<tag k="ssr:date" v="2019-05-31" />
		<tag k="ssr:gruppe" v="veg" />
		<tag k="ssr:hovedgruppe" v="infrastruktur" />
		<tag k="ssr:stedsnr" v="983561" />
		<tag k="ssr:type" v="adressenavn" />
	</node>
	<node id="-589768" lat="62.9067704583" lon="6.92788632344">
		<tag k="name" v="Steinaldervegen" />
		<tag k="ssr:date" v="2019-05-31" />
		<tag k="ssr:gruppe" v="veg" />
		<tag k="ssr:hovedgruppe" v="infrastruktur" />
		<tag k="ssr:stedsnr" v="983560" />
		<tag k="ssr:type" v="adressenavn" />
	</node>
	<node id="-589767" lat="62.9078893091" lon="6.92887044633">
		<tag k="name" v="Korsmyrvegen" />
		<tag k="ssr:date" v="2019-05-31" />
		<tag k="ssr:gruppe" v="veg" />
		<tag k="ssr:hovedgruppe" v="infrastruktur" />
		<tag k="ssr:stedsnr" v="983559" />
		<tag k="ssr:type" v="adressenavn" />
	</node>
	<node id="-589766" lat="62.9915344403" lon="7.17714199217">
		<tag k="name" v="Ørnetunet" />
		<tag k="ssr:date" v="2019-05-31" />
		<tag k="ssr:gruppe" v="veg" />
		<tag k="ssr:hovedgruppe" v="infrastruktur" />
		<tag k="ssr:stedsnr" v="983558" />
		<tag k="ssr:type" v="adressenavn" />
	</node>
	<node id="-589765" lat="62.9915553841" lon="7.18016128872">
		<tag k="name" v="Hegrevegen" />
		<tag k="ssr:date" v="2019-05-31" />
		<tag k="ssr:gruppe" v="veg" />
		<tag k="ssr:hovedgruppe" v="infrastruktur" />
		<tag k="ssr:stedsnr" v="983557" />
		<tag k="ssr:type" v="adressenavn" />
	</node>
	<node id="-589764" lat="62.7959602952" lon="6.98406846218">
		<tag k="name" v="Jendemsvorpa" />
		<tag k="ssr:date" v="2018-04-10" />
		<tag k="ssr:gruppe" v="veg" />
		<tag k="ssr:hovedgruppe" v="infrastruktur" />
		<tag k="ssr:stedsnr" v="983525" />
		<tag k="ssr:type" v="adressetilleggsnavn" />
	</node>
	<node id="-589762" lat="62.9565396683" lon="7.17596429978">
		<tag k="name" v="Brandshaug" />
		<tag k="ssr:date" v="2018-04-10" />
		<tag k="ssr:gruppe" v="veg" />
		<tag k="ssr:hovedgruppe" v="infrastruktur" />
		<tag k="ssr:stedsnr" v="983522" />
		<tag k="ssr:type" v="adressetilleggsnavn" />
	</node>
	<node id="-589633" lat="62.8417788389" lon="7.24449831347">
		<tag k="name" v="Sverre Moens veg" />
		<tag k="ssr:date" v="2019-05-31" />
		<tag k="ssr:gruppe" v="veg" />
		<tag k="ssr:hovedgruppe" v="infrastruktur" />
		<tag k="ssr:stedsnr" v="1058416" />
		<tag k="ssr:type" v="adressenavn" />
	</node>
	<node id="-589632" lat="62.8263644686" lon="7.24492071286">
		<tag k="name" v="Elvebakken" />
		<tag k="ssr:date" v="2019-05-31" />
		<tag k="ssr:gruppe" v="veg" />
		<tag k="ssr:hovedgruppe" v="infrastruktur" />
		<tag k="ssr:stedsnr" v="1058450" />
		<tag k="ssr:type" v="adressenavn" />
	</node>
	<node id="-589759" lat="62.8164686936" lon="7.19297255733">
		<tag k="name" v="Lindset" />
		<tag k="ssr:date" v="2018-02-13" />
		<tag k="ssr:gruppe" v="veg" />
		<tag k="ssr:hovedgruppe" v="infrastruktur" />
		<tag k="ssr:stedsnr" v="982285" />
		<tag k="ssr:type" v="adressetilleggsnavn" />
	</node>
	<node id="-591139" lat="62.92955278" lon="7.05679445076">
		<tag k="name" v="Langlivegen" />
		<tag k="ssr:date" v="2016-05-11" />
		<tag k="ssr:gruppe" v="veg" />
		<tag k="ssr:hovedgruppe" v="infrastruktur" />
		<tag k="ssr:stedsnr" v="702492" />
		<tag k="ssr:type" v="vegstrekning" />
	</node>
	<node id="-591093" lat="62.9060333371" lon="6.877619454">
		<tag k="name" v="Oddane" />
		<tag k="ssr:date" v="2016-05-11" />
		<tag k="ssr:gruppe" v="navigasjon" />
		<tag k="ssr:hovedgruppe" v="infrastruktur" />
		<tag k="ssr:stedsnr" v="680102" />
		<tag k="ssr:type" v="lanterne" />
	</node>
	<node id="-589756" lat="62.8555486415" lon="7.16471527337">
		<tag k="name" v="Haukås" />
		<tag k="ssr:date" v="2018-02-13" />
		<tag k="ssr:gruppe" v="veg" />
		<tag k="ssr:hovedgruppe" v="infrastruktur" />
		<tag k="ssr:stedsnr" v="982282" />
		<tag k="ssr:type" v="adressetilleggsnavn" />
	</node>
	<node id="-589755" lat="62.8934967384" lon="6.82511433902">
		<tag k="name" v="Hanstrikholmen" />
		<tag k="ssr:date" v="2018-02-13" />
		<tag k="ssr:gruppe" v="veg" />
		<tag k="ssr:hovedgruppe" v="infrastruktur" />
		<tag k="ssr:stedsnr" v="982279" />
		<tag k="ssr:type" v="adressetilleggsnavn" />
	</node>
	<node id="-589754" lat="62.9319337774" lon="6.9849928469">
		<tag k="name" v="Sunde" />
		<tag k="ssr:date" v="2018-02-13" />
		<tag k="ssr:gruppe" v="veg" />
		<tag k="ssr:hovedgruppe" v="infrastruktur" />
		<tag k="ssr:stedsnr" v="982277" />
		<tag k="ssr:type" v="adressetilleggsnavn" />
	</node>
	<node id="-589753" lat="62.8834482852" lon="6.96404799676">
		<tag k="name" v="Jensholmen" />
		<tag k="ssr:date" v="2018-02-13" />
		<tag k="ssr:gruppe" v="veg" />
		<tag k="ssr:hovedgruppe" v="infrastruktur" />
		<tag k="ssr:stedsnr" v="982275" />
		<tag k="ssr:type" v="adressetilleggsnavn" />
	</node>
	<node id="-589752" lat="62.9602795905" lon="7.06954053221">
		<tag k="name" v="Lysaker" />
		<tag k="ssr:date" v="2018-02-13" />
		<tag k="ssr:gruppe" v="veg" />
		<tag k="ssr:hovedgruppe" v="infrastruktur" />
		<tag k="ssr:stedsnr" v="982272" />
		<tag k="ssr:type" v="adressetilleggsnavn" />
	</node>
	<node id="-589751" lat="62.9604107364" lon="7.0706181829">
		<tag k="name" v="Lysaker" />
		<tag k="ssr:date" v="2018-02-13" />
		<tag k="ssr:gruppe" v="veg" />
		<tag k="ssr:hovedgruppe" v="infrastruktur" />
		<tag k="ssr:stedsnr" v="982270" />
		<tag k="ssr:type" v="adressetilleggsnavn" />
	</node>
	<node id="-589748" lat="62.9117400362" lon="7.1926159149">
		<tag k="name" v="Bjørsnøs" />
		<tag k="ssr:date" v="2018-02-13" />
		<tag k="ssr:gruppe" v="veg" />
		<tag k="ssr:hovedgruppe" v="infrastruktur" />
		<tag k="ssr:stedsnr" v="982264" />
		<tag k="ssr:type" v="adressetilleggsnavn" />
	</node>
	<node id="-589992" lat="62.9346765824" lon="6.93945087269">
		<tag k="name" v="Romsdalsholmen" />
		<tag k="ssr:date" v="2017-08-23" />
		<tag k="ssr:gruppe" v="navigasjon" />
		<tag k="ssr:hovedgruppe" v="infrastruktur" />
		<tag k="ssr:stedsnr" v="73124" />
		<tag k="ssr:type" v="fyrlykt" />
	</node>
	<node id="-590420" lat="62.9566027742" lon="7.00957222409">
		<tag k="name" v="Solholmen" />
		<tag k="ssr:date" v="2016-05-10" />
		<tag k="ssr:gruppe" v="navigasjon" />
		<tag k="ssr:hovedgruppe" v="infrastruktur" />
		<tag k="ssr:stedsnr" v="255015" />
		<tag k="ssr:type" v="fyrlykt" />
	</node>
	<node id="-589959" lat="62.8883383463" lon="6.81803893193">
		<tag k="alt_name" v="Hammarøyskjæret" />
		<tag k="name" v="Hammerøyskjæret" />
		<tag k="ssr:date" v="2019-03-14" />
		<tag k="ssr:gruppe" v="navigasjon" />
		<tag k="ssr:hovedgruppe" v="infrastruktur" />
		<tag k="ssr:stedsnr" v="72183" />
		<tag k="ssr:type" v="fyrlykt" />
	</node>
	<node id="-590248" lat="62.8784861103" lon="6.93858334184">
		<tag k="name" v="Harøyodden" />
		<tag k="ssr:date" v="2016-05-10" />
		<tag k="ssr:gruppe" v="navigasjon" />
		<tag k="ssr:hovedgruppe" v="infrastruktur" />
		<tag k="ssr:stedsnr" v="193155" />
		<tag k="ssr:type" v="fyrlykt" />
	</node>
	<node id="-591526" lat="62.9534499998" lon="6.98117499734">
		<tag k="name" v="Vikan" />
		<tag k="ssr:date" v="2016-05-11" />
		<tag k="ssr:gruppe" v="navigasjon" />
		<tag k="ssr:hovedgruppe" v="infrastruktur" />
		<tag k="ssr:stedsnr" v="862023" />
		<tag k="ssr:type" v="fyrlykt" />
	</node>
	<node id="-589349" lat="62.7857416648" lon="7.00728888288">
		<tag k="name" v="Trondshaugen" />
		<tag k="ssr:date" v="2016-05-10" />
		<tag k="ssr:gruppe" v="administrativeIndelinger" />
		<tag k="ssr:hovedgruppe" v="offentligAdministrasjon" />
		<tag k="ssr:stedsnr" v="301297" />
		<tag k="ssr:type" v="statistiskTettsted" />
	</node>
	<node id="-590858" lat="62.8185410179" lon="7.08502052325">
		<tag k="name" v="Svansholmen" />
		<tag k="ssr:date" v="2019-05-31" />
		<tag k="ssr:gruppe" v="veg" />
		<tag k="ssr:hovedgruppe" v="infrastruktur" />
		<tag k="ssr:stedsnr" v="587967" />
		<tag k="ssr:type" v="adressenavn" />
	</node>
	<node id="-589510" lat="62.9662944431" lon="7.03745833364">
		<tag k="name" v="Askvågen" />
		<tag k="ssr:date" v="2016-05-10" />
		<tag k="ssr:gruppe" v="navigasjon" />
		<tag k="ssr:hovedgruppe" v="infrastruktur" />
		<tag k="ssr:stedsnr" v="376033" />
		<tag k="ssr:type" v="fyrlykt" />
	</node>
	<node id="-589342" lat="62.8850305591" lon="6.94806943585">
		<tag k="name" v="Søre Harøysund" />
		<tag k="ssr:date" v="2016-05-10" />
		<tag k="ssr:gruppe" v="navigasjon" />
		<tag k="ssr:hovedgruppe" v="infrastruktur" />
		<tag k="ssr:stedsnr" v="292172" />
		<tag k="ssr:type" v="lanterne" />
	</node>
	<node id="-590298" lat="62.861861112" lon="7.10900277962">
		<tag k="name" v="Ny-Jordsvegen" />
		<tag k="ssr:date" v="2016-05-10" />
		<tag k="ssr:gruppe" v="veg" />
		<tag k="ssr:hovedgruppe" v="infrastruktur" />
		<tag k="ssr:stedsnr" v="216531" />
		<tag k="ssr:type" v="vegstrekning" />
	</node>
	<node id="-589465" lat="62.8495555536" lon="6.96909443745">
		<tag k="name" v="Steinsneset" />
		<tag k="ssr:date" v="2016-05-10" />
		<tag k="ssr:gruppe" v="navigasjon" />
		<tag k="ssr:hovedgruppe" v="infrastruktur" />
		<tag k="ssr:stedsnr" v="344095" />
		<tag k="ssr:type" v="lanterne" />
	</node>
	<node id="-589900" lat="62.938447224" lon="7.12650555425">
		<tag k="name" v="Nerlandssetervegen" />
		<tag k="ssr:date" v="2016-05-10" />
		<tag k="ssr:gruppe" v="veg" />
		<tag k="ssr:hovedgruppe" v="infrastruktur" />
		<tag k="ssr:stedsnr" v="35667" />
		<tag k="ssr:type" v="vegstrekning" />
	</node>
	<node id="-589333" lat="62.8646305577" lon="7.18520000172">
		<tag k="name" v="Orrehaugen" />
		<tag k="ssr:date" v="2019-05-31" />
		<tag k="ssr:gruppe" v="veg" />
		<tag k="ssr:hovedgruppe" v="infrastruktur" />
		<tag k="ssr:stedsnr" v="278130" />
		<tag k="ssr:type" v="adressenavn" />
	</node>
	<node id="-591192" lat="62.8174819445" lon="7.1133337175">
		<tag k="name" v="Aureholmen" />
		<tag k="ssr:date" v="2019-05-31" />
		<tag k="ssr:gruppe" v="veg" />
		<tag k="ssr:hovedgruppe" v="infrastruktur" />
		<tag k="ssr:stedsnr" v="709963" />
		<tag k="ssr:type" v="adressenavn" />
	</node>
	<node id="-590734" lat="62.9845555578" lon="7.1241055606">
		<tag k="name" v="Storholmvågen" />
		<tag k="ssr:date" v="2016-05-10" />
		<tag k="ssr:gruppe" v="navigasjon" />
		<tag k="ssr:hovedgruppe" v="infrastruktur" />
		<tag k="ssr:stedsnr" v="557036" />
		<tag k="ssr:type" v="fyrlykt" />
	</node>
	<node id="-590733" lat="62.8333726547" lon="7.14311579702">
		<tag k="name" v="Svenøya" />
		<tag k="ssr:date" v="2019-05-31" />
		<tag k="ssr:gruppe" v="veg" />
		<tag k="ssr:hovedgruppe" v="infrastruktur" />
		<tag k="ssr:stedsnr" v="545836" />
		<tag k="ssr:type" v="adressenavn" />
	</node>
	<node id="-591362" lat="62.8882972219" lon="6.96021665713">
		<tag k="name" v="Sørvestre Lamholmgrunne" />
		<tag k="ssr:date" v="2016-05-11" />
		<tag k="ssr:gruppe" v="navigasjon" />
		<tag k="ssr:hovedgruppe" v="infrastruktur" />
		<tag k="ssr:stedsnr" v="778200" />
		<tag k="ssr:type" v="lanterne" />
	</node>
	<node id="-591498" lat="62.8956694269" lon="6.81585454727">
		<tag k="alt_name" v="Bjørnsund" />
		<tag k="name" v="Bjørnsund fyr" />
		<tag k="ssr:date" v="2019-02-12" />
		<tag k="ssr:gruppe" v="navigasjon" />
		<tag k="ssr:hovedgruppe" v="infrastruktur" />
		<tag k="ssr:stedsnr" v="861067" />
		<tag k="ssr:type" v="fyrstasjon" />
	</node>
	<node id="-589847" lat="62.9887027748" lon="7.23594444582">
		<tag k="name" v="Rådyrfaret" />
		<tag k="ssr:date" v="2019-05-31" />
		<tag k="ssr:gruppe" v="veg" />
		<tag k="ssr:hovedgruppe" v="infrastruktur" />
		<tag k="ssr:stedsnr" v="24982" />
		<tag k="ssr:type" v="adressenavn" />
	</node>
	<node id="-589575" lat="62.8630361156" lon="7.18662222971">
		<tag k="name" v="Hestelia" />
		<tag k="ssr:date" v="2019-05-31" />
		<tag k="ssr:gruppe" v="veg" />
		<tag k="ssr:hovedgruppe" v="infrastruktur" />
		<tag k="ssr:stedsnr" v="399141" />
		<tag k="ssr:type" v="adressenavn" />
	</node>
	<node id="-589574" lat="62.863583337" lon="7.18650000037">
		<tag k="name" v="Britstien" />
		<tag k="ssr:date" v="2019-05-31" />
		<tag k="ssr:gruppe" v="veg" />
		<tag k="ssr:hovedgruppe" v="infrastruktur" />
		<tag k="ssr:stedsnr" v="399120" />
		<tag k="ssr:type" v="adressenavn" />
	</node>
	<node id="-590725" lat="63.0289111136" lon="7.1550194406">
		<tag k="name" v="Midtflua" />
		<tag k="ssr:date" v="2016-05-10" />
		<tag k="ssr:gruppe" v="navigasjon" />
		<tag k="ssr:hovedgruppe" v="infrastruktur" />
		<tag k="ssr:stedsnr" v="534912" />
		<tag k="ssr:type" v="lysbøye" />
	</node>
	<node id="-589828" lat="62.9935555522" lon="7.14137776857">
		<tag k="name" v="Nordneset" />
		<tag k="ssr:date" v="2016-05-10" />
		<tag k="ssr:gruppe" v="navigasjon" />
		<tag k="ssr:hovedgruppe" v="infrastruktur" />
		<tag k="ssr:stedsnr" v="12049" />
		<tag k="ssr:type" v="fyrlykt" />
	</node>
	<node id="-591490" lat="62.9240611103" lon="6.93994166847">
		<tag k="name" v="Ersholmen" />
		<tag k="ssr:date" v="2016-05-11" />
		<tag k="ssr:gruppe" v="navigasjon" />
		<tag k="ssr:hovedgruppe" v="infrastruktur" />
		<tag k="ssr:stedsnr" v="839366" />
		<tag k="ssr:type" v="lanterne" />
	</node>
	<node id="-590593" lat="63.0453222229" lon="7.14001945126">
		<tag k="name" v="Fuglen" />
		<tag k="ssr:date" v="2016-05-10" />
		<tag k="ssr:gruppe" v="navigasjon" />
		<tag k="ssr:hovedgruppe" v="infrastruktur" />
		<tag k="ssr:stedsnr" v="465273" />
		<tag k="ssr:type" v="fyrlykt" />
	</node>
</osm>
