<?xml version="1.0" encoding="UTF-8"?>
<osm generator="osmapis" version="0.6">
	<node id="-293663" lat="60.1911500463" lon="11.8892002781">
		<tag k="name" v="Ånerudvegen" />
		<tag k="ssr:date" v="2019-12-27" />
		<tag k="ssr:gruppe" v="veg" />
		<tag k="ssr:hovedgruppe" v="infrastruktur" />
		<tag k="ssr:stedsnr" v="1004555" />
		<tag k="ssr:type" v="adressenavn" />
	</node>
	<node id="-293662" lat="60.1678071593" lon="12.0294616108">
		<tag k="name" v="Astrid Brincks veg" />
		<tag k="ssr:date" v="2019-12-27" />
		<tag k="ssr:gruppe" v="veg" />
		<tag k="ssr:hovedgruppe" v="infrastruktur" />
		<tag k="ssr:stedsnr" v="1004492" />
		<tag k="ssr:type" v="adressenavn" />
	</node>
	<node id="-293679" lat="60.7952487072" lon="11.0825912243">
		<tag k="name" v="Innlandet fylke" />
		<tag k="ssr:date" v="2020-01-13" />
		<tag k="ssr:gruppe" v="administrativeIndelinger" />
		<tag k="ssr:hovedgruppe" v="offentligAdministrasjon" />
		<tag k="ssr:stedsnr" v="1074406" />
		<tag k="ssr:type" v="fylke" />
	</node>
	<node id="-293678" lat="60.1914320286" lon="12.0133542848">
		<tag k="name" v="Johan F Schmidts veg" />
		<tag k="ssr:date" v="2019-12-27" />
		<tag k="ssr:gruppe" v="veg" />
		<tag k="ssr:hovedgruppe" v="infrastruktur" />
		<tag k="ssr:stedsnr" v="1073779" />
		<tag k="ssr:type" v="adressenavn" />
	</node>
	<node id="-293676" lat="60.3137496439" lon="12.2254504606">
		<tag k="name" v="Storfallvegen" />
		<tag k="ssr:date" v="2019-12-27" />
		<tag k="ssr:gruppe" v="veg" />
		<tag k="ssr:hovedgruppe" v="infrastruktur" />
		<tag k="ssr:stedsnr" v="1073319" />
		<tag k="ssr:type" v="vegstrekning" />
	</node>
	<node id="-291689" lat="60.1870147647" lon="12.001654742">
		<tag k="name" v="Gågata" />
		<tag k="ssr:date" v="2019-12-27" />
		<tag k="ssr:gruppe" v="veg" />
		<tag k="ssr:hovedgruppe" v="infrastruktur" />
		<tag k="ssr:stedsnr" v="1002821" />
		<tag k="ssr:type" v="adressenavn" />
	</node>
	<node id="-291688" lat="60.186478749" lon="12.0035002261">
		<tag k="name" v="Bankparken" />
		<tag k="ssr:date" v="2019-12-27" />
		<tag k="ssr:gruppe" v="veg" />
		<tag k="ssr:hovedgruppe" v="infrastruktur" />
		<tag k="ssr:stedsnr" v="1002817" />
		<tag k="ssr:type" v="adressenavn" />
	</node>
	<node id="-291687" lat="60.1911945005" lon="11.9988066048">
		<tag k="name" v="Rådhusplassen" />
		<tag k="ssr:date" v="2019-12-27" />
		<tag k="ssr:gruppe" v="veg" />
		<tag k="ssr:hovedgruppe" v="infrastruktur" />
		<tag k="ssr:stedsnr" v="1002342" />
		<tag k="ssr:type" v="adressenavn" />
	</node>
	<node id="-291495" lat="60.1911666639" lon="11.9991638802">
		<tag k="name" v="Kongsvinger kommune" />
		<tag k="ssr:date" v="2019-12-27" />
		<tag k="ssr:gruppe" v="administrativeIndelinger" />
		<tag k="ssr:hovedgruppe" v="offentligAdministrasjon" />
		<tag k="ssr:stedsnr" v="937725" />
		<tag k="ssr:type" v="kommune" />
	</node>
</osm>
