<?xml version="1.0" encoding="UTF-8"?>
<<<<<<< HEAD
<osm version="0.6" generator="osmapis">
	<node lat="60.26140000288242" lon="12.37136111474511" id="-13465">
		<tag k="amenity" v="school" />
		<tag k="old_name" v="Smedtorpskolen" />
		<tag k="ssr:date" v="2019-12-27" />
		<tag k="ssr:gruppe" v="institusjoner" />
		<tag k="ssr:hovedgruppe" v="bebyggelse" />
		<tag k="ssr:stedsnr" v="120919" />
		<tag k="ssr:type" v="skole" />
	</node>
	<node lat="60.164611113464204" lon="12.189208332940321" id="-13641">
		<tag k="amenity" v="school" />
		<tag k="old_name" v="Tekstebakken skole" />
=======
<osm generator="osmapis" version="0.6">
	<node id="-301664" lat="60.3179111077" lon="12.020197229">
		<tag k="building" v="industrial" />
		<tag k="industrial" v="factory" />
		<tag k="old_name" v="Brandval Træuldfabrikk" />
		<tag k="ssr:date" v="2019-12-27" />
		<tag k="ssr:gruppe" v="næring" />
		<tag k="ssr:hovedgruppe" v="bebyggelse" />
		<tag k="ssr:stedsnr" v="544985" />
		<tag k="ssr:type" v="fabrikk" />
	</node>
	<node id="-301503" lat="60.1903777783" lon="12.00166389">
		<tag k="amenity" v="school" />
		<tag k="old_name" v="Kongsvinger sentralskole" />
>>>>>>> e1d4bc35ff8a6074a6f2e91616a996b547c36f15
		<tag k="ssr:date" v="2019-12-27" />
		<tag k="ssr:gruppe" v="institusjoner" />
		<tag k="ssr:hovedgruppe" v="bebyggelse" />
		<tag k="ssr:stedsnr" v="237090" />
		<tag k="ssr:type" v="skole" />
	</node>
<<<<<<< HEAD
	<node lat="60.25576103972531" lon="12.513505194821263" id="-13848">
=======
	<node id="-301751" lat="60.2606166677" lon="12.0750861063">
		<tag k="old_name" v="Tronbøl, østre;Østre Tronbøl" />
		<tag k="place" v="farm" />
		<tag k="ssr:date" v="2019-12-27" />
		<tag k="ssr:gruppe" v="gardsbebyggelse" />
		<tag k="ssr:hovedgruppe" v="bebyggelse" />
		<tag k="ssr:stedsnr" v="552495" />
		<tag k="ssr:type" v="bruk" />
	</node>
	<node id="-299030" lat="60.0510861098" lon="12.4597583283">
		<tag k="historic" v="boundary_stone" />
		<tag k="loc_name" v="Holmtjennsrøysa" />
		<tag k="man_made" v="cairn" />
		<tag k="place" v="locality" />
		<tag k="ssr:date" v="2019-12-27" />
		<tag k="ssr:gruppe" v="administrativeIndelinger" />
		<tag k="ssr:hovedgruppe" v="offentligAdministrasjon" />
		<tag k="ssr:stedsnr" v="170439" />
		<tag k="ssr:type" v="grensemerke" />
	</node>
	<node id="-299076" lat="60.1221555599" lon="12.4200166645">
		<tag k="amenity" v="school" />
		<tag k="old_name" v="Holmby skole" />
		<tag k="ssr:date" v="2019-12-27" />
		<tag k="ssr:gruppe" v="institusjoner" />
		<tag k="ssr:hovedgruppe" v="bebyggelse" />
		<tag k="ssr:stedsnr" v="285253" />
		<tag k="ssr:type" v="skole" />
	</node>
	<node id="-301812" lat="60.1660527767" lon="12.5298277787">
		<tag k="historic" v="boundary_stone" />
		<tag k="loc_name" v="Myråsrøysa" />
		<tag k="man_made" v="cairn" />
		<tag k="old_name" v="Moosaas Røset" />
		<tag k="place" v="locality" />
		<tag k="ssr:date" v="2019-12-27" />
		<tag k="ssr:gruppe" v="administrativeIndelinger" />
		<tag k="ssr:hovedgruppe" v="offentligAdministrasjon" />
		<tag k="ssr:stedsnr" v="595388" />
		<tag k="ssr:type" v="grensemerke" />
	</node>
	<node id="-301811" lat="60.2521111082" lon="12.5148333286">
>>>>>>> e1d4bc35ff8a6074a6f2e91616a996b547c36f15
		<tag k="historic" v="boundary_stone" />
		<tag k="loc_name" v="Riksåsrøysa" />
		<tag k="man_made" v="cairn" />
		<tag k="place" v="locality" />
		<tag k="ssr:date" v="2020-07-09" />
		<tag k="ssr:gruppe" v="administrativeIndelinger" />
		<tag k="ssr:hovedgruppe" v="offentligAdministrasjon" />
		<tag k="ssr:stedsnr" v="352402" />
		<tag k="ssr:type" v="grensemerke" />
	</node>
<<<<<<< HEAD
	<node lat="60.20071111454457" lon="11.914005563320304" id="-14252">
=======
	<node id="-298770" lat="60.1646111135" lon="12.1892083329">
>>>>>>> e1d4bc35ff8a6074a6f2e91616a996b547c36f15
		<tag k="amenity" v="school" />
		<tag k="old_name" v="Gamle Åsum skole" />
		<tag k="ssr:date" v="2019-12-27" />
		<tag k="ssr:gruppe" v="institusjoner" />
		<tag k="ssr:hovedgruppe" v="bebyggelse" />
		<tag k="ssr:stedsnr" v="527178" />
		<tag k="ssr:type" v="skole" />
	</node>
<<<<<<< HEAD
	<node lat="60.317911107733195" lon="12.020197228970812" id="-14306">
		<tag k="building" v="industrial" />
		<tag k="industrial" v="factory" />
		<tag k="old_name" v="Brandval Træuldfabrikk" />
=======
	<node id="-302193" lat="60.1933805537" lon="12.5419000073">
		<tag k="historic" v="boundary_stone" />
		<tag k="loc_name" v="Kronhallsrøysa" />
		<tag k="man_made" v="cairn" />
		<tag k="old_name" v="Cronhalds Røset" />
		<tag k="place" v="locality" />
		<tag k="ssr:date" v="2019-12-27" />
		<tag k="ssr:gruppe" v="administrativeIndelinger" />
		<tag k="ssr:hovedgruppe" v="offentligAdministrasjon" />
		<tag k="ssr:stedsnr" v="838445" />
		<tag k="ssr:type" v="grensemerke" />
	</node>
	<node id="-300591" lat="59.9914777788" lon="12.3693361133">
		<tag k="historic" v="boundary_stone" />
		<tag k="loc_name" v="Engbråterøysa" />
		<tag k="man_made" v="cairn" />
		<tag k="old_name" v="Engebraate Røset" />
		<tag k="place" v="locality" />
>>>>>>> e1d4bc35ff8a6074a6f2e91616a996b547c36f15
		<tag k="ssr:date" v="2019-12-27" />
		<tag k="ssr:gruppe" v="næring" />
		<tag k="ssr:hovedgruppe" v="bebyggelse" />
		<tag k="ssr:stedsnr" v="544985" />
		<tag k="ssr:type" v="fabrikk" />
	</node>
	<node id="-299688" lat="60.2007111145" lon="11.9140055633">
		<tag k="amenity" v="school" />
		<tag k="old_name" v="Gamle Åsum skole" />
		<tag k="ssr:date" v="2019-12-27" />
		<tag k="ssr:gruppe" v="institusjoner" />
		<tag k="ssr:hovedgruppe" v="bebyggelse" />
		<tag k="ssr:stedsnr" v="527178" />
		<tag k="ssr:type" v="skole" />
	</node>
	<node id="-300837" lat="60.2614000029" lon="12.3713611147">
		<tag k="amenity" v="school" />
		<tag k="old_name" v="Smedtorpskolen" />
		<tag k="ssr:date" v="2019-12-27" />
		<tag k="ssr:gruppe" v="institusjoner" />
		<tag k="ssr:hovedgruppe" v="bebyggelse" />
		<tag k="ssr:stedsnr" v="120919" />
		<tag k="ssr:type" v="skole" />
	</node>
	<node id="-302436" lat="60.1256680303" lon="12.0500368144">
		<tag k="loc_name" v="Strengelsrudåa" />
		<tag k="ssr:date" v="2019-12-27" />
		<tag k="ssr:gruppe" v="rennendeVann" />
		<tag k="ssr:hovedgruppe" v="ferskvann" />
		<tag k="ssr:stedsnr" v="1072224" />
		<tag k="ssr:type" v="elv" />
		<tag k="waterway" v="river" />
	</node>
	<node id="-301315" lat="60.2433250012" lon="12.0797694499">
		<tag k="amenity" v="school" />
		<tag k="old_name" v="Brøderud skole" />
		<tag k="ssr:date" v="2019-12-27" />
		<tag k="ssr:gruppe" v="institusjoner" />
		<tag k="ssr:hovedgruppe" v="bebyggelse" />
		<tag k="ssr:stedsnr" v="361132" />
		<tag k="ssr:type" v="skole" />
	</node>
</osm>
