<?xml version="1.0" encoding="UTF-8"?>
<osm version="0.6" generator="osmapis">
	<node lat="69.29806111425613" lon="20.9635166317725" id="-47820">
		<tag k="name" v="Gaskkamus Smuolkojávri" />
		<tag k="name:se" v="Gaskkamus Smuolkojávri" />
		<tag k="natural" v="water" />
		<tag k="old_name:se" v="Smuolkojávri, gaskkamus" />
		<tag k="ssr:date" v="2019-12-27" />
		<tag k="ssr:gruppe" v="stilleståendeVann" />
		<tag k="ssr:hovedgruppe" v="ferskvann" />
		<tag k="ssr:stedsnr" v="18498" />
		<tag k="ssr:type" v="vann" />
		<tag k="water" v="lake" />
	</node>
	<node lat="69.62202777742864" lon="20.533005544981705" id="-47821">
		<tag k="name" v="Uhcavákkáš - Lilledalen - Pikkuvankka" />
		<tag k="name:fkv" v="Pikkuvankka" />
		<tag k="name:no" v="Lilledalen" />
		<tag k="name:se" v="Uhcavákkáš" />
		<tag k="natural" v="valley" />
		<tag k="old_name:se" v="Vákkáš, unna" />
		<tag k="place" v="locality" />
		<tag k="ssr:date" v="2019-12-27" />
		<tag k="ssr:gruppe" v="senkninger" />
		<tag k="ssr:hovedgruppe" v="terreng" />
		<tag k="ssr:stedsnr" v="19415" />
		<tag k="ssr:type" v="dal" />
	</node>
	<node lat="69.51715277525385" lon="20.848138859117906" id="-47822">
		<tag k="name" v="Litledalen" />
		<tag k="name:no" v="Litledalen" />
		<tag k="natural" v="valley" />
		<tag k="place" v="locality" />
		<tag k="ssr:date" v="2019-12-27" />
		<tag k="ssr:gruppe" v="senkninger" />
		<tag k="ssr:hovedgruppe" v="terreng" />
		<tag k="ssr:stedsnr" v="19417" />
		<tag k="ssr:type" v="dal" />
	</node>
	<node lat="69.4128416671319" lon="20.899324963299396" id="-47823">
		<tag k="name" v="Moskkujávri" />
		<tag k="name:se" v="Moskkujávri" />
		<tag k="natural" v="water" />
		<tag k="ssr:date" v="2019-12-27" />
		<tag k="ssr:gruppe" v="stilleståendeVann" />
		<tag k="ssr:hovedgruppe" v="ferskvann" />
		<tag k="ssr:stedsnr" v="19501" />
		<tag k="ssr:type" v="tjern" />
	</node>
	<node lat="69.42745833780003" lon="20.946099975148304" id="-47824">
		<tag k="fixme" v="consider natural=peak for the most distinct mountains in the district" />
		<tag k="name" v="Suonjerčohkat" />
		<tag k="name:se" v="Suonjerčohkat" />
		<tag k="natural" v="hill" />
		<tag k="place" v="locality" />
		<tag k="ssr:date" v="2019-12-27" />
		<tag k="ssr:gruppe" v="høyder" />
		<tag k="ssr:hovedgruppe" v="terreng" />
		<tag k="ssr:stedsnr" v="19502" />
		<tag k="ssr:type" v="ås" />
	</node>
	<node lat="69.42772500372888" lon="20.508486082042424" id="-47825">
		<tag k="fixme" v="consider natural=peak for the most distinct mountains in the district" />
		<tag k="name" v="Vállasvárri" />
		<tag k="name:se" v="Vállasvárri" />
		<tag k="natural" v="hill" />
		<tag k="place" v="locality" />
		<tag k="ssr:date" v="2019-12-27" />
		<tag k="ssr:gruppe" v="høyder" />
		<tag k="ssr:hovedgruppe" v="terreng" />
		<tag k="ssr:stedsnr" v="19505" />
		<tag k="ssr:type" v="fjell" />
	</node>
	<node lat="69.44486389032596" lon="20.632483300655455" id="-47826">
		<tag k="fixme" v="consider natural=peak for the most distinct mountains in the district" />
		<tag k="name" v="Rastteváddjačohkka" />
		<tag k="name:se" v="Rastteváddjačohkka" />
		<tag k="natural" v="hill" />
		<tag k="place" v="locality" />
		<tag k="ssr:date" v="2019-12-27" />
		<tag k="ssr:gruppe" v="høyder" />
		<tag k="ssr:hovedgruppe" v="terreng" />
		<tag k="ssr:stedsnr" v="19514" />
		<tag k="ssr:type" v="fjell" />
	</node>
	<node lat="69.49849444235186" lon="20.932999974596687" id="-47827">
		<tag k="fixme" v="consider natural=peak for the most distinct mountains in the district" />
		<tag k="name" v="Ruovddášvárri" />
		<tag k="name:se" v="Ruovddášvárri" />
		<tag k="natural" v="hill" />
		<tag k="place" v="locality" />
		<tag k="ssr:date" v="2019-12-27" />
		<tag k="ssr:gruppe" v="høyder" />
		<tag k="ssr:hovedgruppe" v="terreng" />
		<tag k="ssr:stedsnr" v="19543" />
		<tag k="ssr:type" v="fjell" />
	</node>
	<node lat="69.66385000530049" lon="20.7271249709948" id="-47828">
		<tag k="name" v="Mohcehatčazajávrrit - Nordmannvikvatnan" />
		<tag k="name:no" v="Nordmannvikvatnan" />
		<tag k="name:se" v="Mohcehatčazajávrrit" />
		<tag k="natural" v="water" />
		<tag k="ssr:date" v="2019-12-27" />
		<tag k="ssr:gruppe" v="stilleståendeVann" />
		<tag k="ssr:hovedgruppe" v="ferskvann" />
		<tag k="ssr:stedsnr" v="19546" />
		<tag k="ssr:type" v="tjern" />
	</node>
	<node lat="69.65987500459795" lon="20.66132498784293" id="-47829">
		<tag k="name" v="Sánnjáriehppi" />
		<tag k="name:se" v="Sánnjáriehppi" />
		<tag k="natural" v="valley" />
		<tag k="place" v="locality" />
		<tag k="ssr:date" v="2019-12-27" />
		<tag k="ssr:gruppe" v="senkninger" />
		<tag k="ssr:hovedgruppe" v="terreng" />
		<tag k="ssr:stedsnr" v="19548" />
		<tag k="ssr:type" v="dal" />
	</node>
	<node lat="69.38311111631322" lon="20.91586941646733" id="-47830">
		<tag k="name" v="Magervatnet" />
		<tag k="name:no" v="Magervatnet" />
		<tag k="natural" v="water" />
		<tag k="ssr:date" v="2019-12-27" />
		<tag k="ssr:gruppe" v="stilleståendeVann" />
		<tag k="ssr:hovedgruppe" v="ferskvann" />
		<tag k="ssr:stedsnr" v="19491" />
		<tag k="ssr:type" v="vann" />
		<tag k="water" v="lake" />
	</node>
	<node lat="69.61069722491244" lon="20.51310275546604" id="-47831">
		<tag k="name" v="Doarrunjohka - Doronelva - Toronjoki" />
		<tag k="name:fkv" v="Toronjoki" />
		<tag k="name:no" v="Doronelva" />
		<tag k="name:se" v="Doarrunjohka" />
		<tag k="ssr:date" v="2019-12-27" />
		<tag k="ssr:gruppe" v="rennendeVann" />
		<tag k="ssr:hovedgruppe" v="ferskvann" />
		<tag k="ssr:stedsnr" v="19646" />
		<tag k="ssr:type" v="bekk" />
		<tag k="waterway" v="stream" />
	</node>
	<node lat="69.62334721979472" lon="20.75884163990888" id="-47832">
		<tag k="fixme" v="consider natural=peak for the most distinct mountains in the district" />
		<tag k="name" v="Kistefjellet" />
		<tag k="name:no" v="Kistefjellet" />
		<tag k="natural" v="hill" />
		<tag k="place" v="locality" />
		<tag k="ssr:date" v="2019-12-27" />
		<tag k="ssr:gruppe" v="høyder" />
		<tag k="ssr:hovedgruppe" v="terreng" />
		<tag k="ssr:stedsnr" v="19648" />
		<tag k="ssr:type" v="ås" />
	</node>
	<node lat="69.45496111080472" lon="21.02459996146677" id="-47833">
		<tag k="name" v="Hánskejávrrit" />
		<tag k="name:se" v="Hánskejávrrit" />
		<tag k="natural" v="water" />
		<tag k="ssr:date" v="2019-12-27" />
		<tag k="ssr:gruppe" v="stilleståendeVann" />
		<tag k="ssr:hovedgruppe" v="ferskvann" />
		<tag k="ssr:stedsnr" v="19745" />
		<tag k="ssr:type" v="vann" />
		<tag k="water" v="lake" />
	</node>
	<node lat="69.58518611373344" lon="20.39676388082792" id="-47834">
		<tag k="name" v="Lillebukta" />
		<tag k="name:no" v="Lillebukta" />
		<tag k="natural" v="bay" />
		<tag k="ssr:date" v="2019-12-27" />
		<tag k="ssr:gruppe" v="kystkontur" />
		<tag k="ssr:hovedgruppe" v="sjø" />
		<tag k="ssr:stedsnr" v="26230" />
		<tag k="ssr:type" v="vikISjø" />
	</node>
	<node lat="69.58864722045257" lon="20.399749988147118" id="-47835">
		<tag k="name" v="Odden" />
		<tag k="name:no" v="Odden" />
		<tag k="natural" v="shoal" />
		<tag k="place" v="locality" />
		<tag k="ssr:date" v="2019-12-27" />
		<tag k="ssr:gruppe" v="grunnerISjø" />
		<tag k="ssr:hovedgruppe" v="sjø" />
		<tag k="ssr:stedsnr" v="26231" />
		<tag k="ssr:type" v="grunneISjø" />
	</node>
	<node lat="69.53953055834039" lon="20.528194415265766" id="-47836">
		<tag k="name" v="Grønnsletta" />
		<tag k="name:no" v="Grønnsletta" />
		<tag k="place" v="locality" />
		<tag k="ssr:date" v="2019-12-27" />
		<tag k="ssr:gruppe" v="flater" />
		<tag k="ssr:hovedgruppe" v="terreng" />
		<tag k="ssr:stedsnr" v="235147" />
		<tag k="ssr:type" v="slette" />
	</node>
	<node lat="69.532547222139" lon="20.539649979234905" id="-47837">
		<tag k="name" v="Suhpiroggi" />
		<tag k="name:se" v="Suhpiroggi" />
		<tag k="natural" v="valley" />
		<tag k="place" v="locality" />
		<tag k="ssr:date" v="2019-12-27" />
		<tag k="ssr:gruppe" v="senkninger" />
		<tag k="ssr:hovedgruppe" v="terreng" />
		<tag k="ssr:stedsnr" v="235165" />
		<tag k="ssr:type" v="søkk" />
	</node>
	<node lat="69.52510000373353" lon="20.505277748802484" id="-47838">
		<tag k="name" v="Sávzačohkka" />
		<tag k="name:se" v="Sávzačohkka" />
		<tag k="natural" v="hill" />
		<tag k="place" v="locality" />
		<tag k="ssr:date" v="2019-12-27" />
		<tag k="ssr:gruppe" v="høyder" />
		<tag k="ssr:hovedgruppe" v="terreng" />
		<tag k="ssr:stedsnr" v="235114" />
		<tag k="ssr:type" v="haug" />
	</node>
	<node lat="69.52973611535023" lon="20.508297206324926" id="-47839">
		<tag k="name" v="Guohcahovkkaidlátnja" />
		<tag k="name:se" v="Guohcahovkkaidlátnja" />
		<tag k="natural" v="slope" />
		<tag k="place" v="locality" />
		<tag k="ssr:date" v="2019-12-27" />
		<tag k="ssr:gruppe" v="skråninger" />
		<tag k="ssr:hovedgruppe" v="terreng" />
		<tag k="ssr:stedsnr" v="235116" />
		<tag k="ssr:type" v="li" />
	</node>
	<node lat="69.52269722253848" lon="20.782777761353106" id="-47840">
		<tag k="loc_name:no" v="Nedre Storberget" />
		<tag k="loc_name:se" v="Vuolit Stuorabákti" />
		<tag k="name" v="Stuorabákti" />
		<tag k="name:se" v="Stuorabákti" />
		<tag k="natural" v="hill" />
		<tag k="place" v="locality" />
		<tag k="ssr:date" v="2019-12-27" />
		<tag k="ssr:gruppe" v="høyder" />
		<tag k="ssr:hovedgruppe" v="terreng" />
		<tag k="ssr:stedsnr" v="235441" />
		<tag k="ssr:type" v="berg" />
	</node>
	<node lat="69.52542499917578" lon="20.745066640313667" id="-47841">
		<tag k="name" v="Bajitgieddi" />
		<tag k="name:se" v="Bajitgieddi" />
		<tag k="natural" v="slope" />
		<tag k="place" v="locality" />
		<tag k="ssr:date" v="2019-12-27" />
		<tag k="ssr:gruppe" v="skråninger" />
		<tag k="ssr:hovedgruppe" v="terreng" />
		<tag k="ssr:stedsnr" v="235444" />
		<tag k="ssr:type" v="li" />
	</node>
	<node lat="69.52324999662814" lon="20.74763053752147" id="-47842">
		<tag k="name" v="Huvvaš" />
		<tag k="name:se" v="Huvvaš" />
		<tag k="natural" v="hill" />
		<tag k="place" v="locality" />
		<tag k="ssr:date" v="2019-12-27" />
		<tag k="ssr:gruppe" v="høyder" />
		<tag k="ssr:hovedgruppe" v="terreng" />
		<tag k="ssr:stedsnr" v="235448" />
		<tag k="ssr:type" v="haug" />
	</node>
	<node lat="69.52948333811851" lon="20.754088874070604" id="-47843">
		<tag k="name" v="Gálberiidi" />
		<tag k="name:se" v="Gálberiidi" />
		<tag k="natural" v="slope" />
		<tag k="place" v="locality" />
		<tag k="ssr:date" v="2019-12-27" />
		<tag k="ssr:gruppe" v="skråninger" />
		<tag k="ssr:hovedgruppe" v="terreng" />
		<tag k="ssr:stedsnr" v="235450" />
		<tag k="ssr:type" v="li" />
	</node>
	<node lat="69.52698889012017" lon="20.773972196746083" id="-47844">
		<tag k="name" v="Moskijuovva" />
		<tag k="name:se" v="Moskijuovva" />
		<tag k="natural" v="scree" />
		<tag k="ssr:date" v="2019-12-27" />
		<tag k="ssr:gruppe" v="løsmasseavsetninger" />
		<tag k="ssr:hovedgruppe" v="markslag" />
		<tag k="ssr:stedsnr" v="235454" />
		<tag k="ssr:type" v="ur" />
	</node>
	<node lat="69.45275277877255" lon="20.955630526841027" id="-47845">
		<tag k="name" v="Vuovdenjungila" />
		<tag k="name:se" v="Vuovdenjungila" />
		<tag k="natural" v="slope" />
		<tag k="place" v="locality" />
		<tag k="ssr:date" v="2019-12-27" />
		<tag k="ssr:gruppe" v="skråninger" />
		<tag k="ssr:hovedgruppe" v="terreng" />
		<tag k="ssr:stedsnr" v="235463" />
		<tag k="ssr:type" v="li" />
	</node>
	<node lat="69.50295833018147" lon="20.77471109631995" id="-47846">
		<tag k="name" v="Guošuir" />
		<tag k="name:se" v="Guošuir" />
		<tag k="natural" v="scree" />
		<tag k="ssr:date" v="2019-12-27" />
		<tag k="ssr:gruppe" v="løsmasseavsetninger" />
		<tag k="ssr:hovedgruppe" v="markslag" />
		<tag k="ssr:stedsnr" v="235529" />
		<tag k="ssr:type" v="ur" />
	</node>
	<node lat="69.49199999773703" lon="20.850122197091917" id="-47847">
		<tag k="name" v="Riepmitčohkka" />
		<tag k="name:se" v="Riepmitčohkka" />
		<tag k="natural" v="hill" />
		<tag k="place" v="locality" />
		<tag k="ssr:date" v="2019-12-27" />
		<tag k="ssr:gruppe" v="høyder" />
		<tag k="ssr:hovedgruppe" v="terreng" />
		<tag k="ssr:stedsnr" v="235533" />
		<tag k="ssr:type" v="haug" />
	</node>
	<node lat="69.53642777579012" lon="20.776255531916004" id="-47848">
		<tag k="name" v="Nieiddavággi" />
		<tag k="name:se" v="Nieiddavággi" />
		<tag k="natural" v="valley" />
		<tag k="place" v="locality" />
		<tag k="ssr:date" v="2019-12-27" />
		<tag k="ssr:gruppe" v="senkninger" />
		<tag k="ssr:hovedgruppe" v="terreng" />
		<tag k="ssr:stedsnr" v="235585" />
		<tag k="ssr:type" v="dal" />
	</node>
	<node lat="69.53038611575329" lon="20.723127765592213" id="-47849">
		<tag k="loc_name:se" v="Siemoljeaggi" />
		<tag k="name" v="Simmunjeaggi" />
		<tag k="name:se" v="Simmunjeaggi" />
		<tag k="natural" v="wetland" />
		<tag k="ssr:date" v="2019-12-27" />
		<tag k="ssr:gruppe" v="våtmark" />
		<tag k="ssr:hovedgruppe" v="markslag" />
		<tag k="ssr:stedsnr" v="235599" />
		<tag k="ssr:type" v="myr" />
	</node>
	<node lat="69.74557222740096" lon="20.498133306681506" id="-47850">
		<tag k="amenity" v="place_of_worship" />
		<tag k="denomination" v="lutheran" />
		<tag k="name" v="Djupvik" />
		<tag k="name:no" v="Djupvik" />
		<tag k="religion" v="christian" />
		<tag k="ssr:date" v="2021-10-29" />
		<tag k="ssr:gruppe" v="kulturinstitusjoner" />
		<tag k="ssr:hovedgruppe" v="kultur" />
		<tag k="ssr:stedsnr" v="33522" />
		<tag k="ssr:type" v="kirke" />
	</node>
	<node lat="69.74549722714504" lon="20.53998886492009" id="-47851">
		<tag k="name" v="Hammarsletta" />
		<tag k="name:no" v="Hammarsletta" />
		<tag k="place" v="locality" />
		<tag k="ssr:date" v="2019-12-27" />
		<tag k="ssr:gruppe" v="flater" />
		<tag k="ssr:hovedgruppe" v="terreng" />
		<tag k="ssr:stedsnr" v="235896" />
		<tag k="ssr:type" v="slette" />
	</node>
	<node lat="69.51020833717448" lon="20.60947497264966" id="-47852">
		<tag k="name" v="Nihkolasariidi" />
		<tag k="name:se" v="Nihkolasariidi" />
		<tag k="natural" v="slope" />
		<tag k="place" v="locality" />
		<tag k="ssr:date" v="2019-12-27" />
		<tag k="ssr:gruppe" v="skråninger" />
		<tag k="ssr:hovedgruppe" v="terreng" />
		<tag k="ssr:stedsnr" v="236852" />
		<tag k="ssr:type" v="li" />
	</node>
	<node lat="69.67504722011505" lon="20.526347211817402" id="-47853">
		<tag k="name" v="Lille oldergropa" />
		<tag k="name:no" v="Lille oldergropa" />
		<tag k="natural" v="valley" />
		<tag k="place" v="locality" />
		<tag k="ssr:date" v="2019-12-27" />
		<tag k="ssr:gruppe" v="senkninger" />
		<tag k="ssr:hovedgruppe" v="terreng" />
		<tag k="ssr:stedsnr" v="235982" />
		<tag k="ssr:type" v="søkk" />
	</node>
	<node lat="69.67397222726152" lon="20.51406663861414" id="-47854">
		<tag k="name" v="Hersemokka" />
		<tag k="name:no" v="Hersemokka" />
		<tag k="natural" v="bay" />
		<tag k="ssr:date" v="2019-12-27" />
		<tag k="ssr:gruppe" v="ferskvannskontur" />
		<tag k="ssr:hovedgruppe" v="ferskvann" />
		<tag k="ssr:stedsnr" v="235984" />
		<tag k="ssr:type" v="vik" />
	</node>
	<node lat="69.61805277838504" lon="20.499724991884793" id="-47855">
		<tag k="name" v="Sobel" />
		<tag k="name:no" v="Sobel" />
		<tag k="natural" v="slope" />
		<tag k="place" v="locality" />
		<tag k="ssr:date" v="2019-12-27" />
		<tag k="ssr:gruppe" v="skråninger" />
		<tag k="ssr:hovedgruppe" v="terreng" />
		<tag k="ssr:stedsnr" v="236017" />
		<tag k="ssr:type" v="li" />
	</node>
	<node lat="69.62480000384888" lon="20.50391665655645" id="-47856">
		<tag k="fixme" v="consider natural=peak for the most distinct mountains in the district" />
		<tag k="name" v="Buollánvárri" />
		<tag k="name:se" v="Buollánvárri" />
		<tag k="natural" v="hill" />
		<tag k="place" v="locality" />
		<tag k="ssr:date" v="2019-12-27" />
		<tag k="ssr:gruppe" v="høyder" />
		<tag k="ssr:hovedgruppe" v="terreng" />
		<tag k="ssr:stedsnr" v="236023" />
		<tag k="ssr:type" v="fjell" />
	</node>
	<node lat="69.52000555869051" lon="20.54506664214687" id="-47857">
		<tag k="name" v="Hánnosiida" />
		<tag k="name:se" v="Hánnosiida" />
		<tag k="place" v="locality" />
		<tag k="ssr:date" v="2019-12-27" />
		<tag k="ssr:gruppe" v="bolighus" />
		<tag k="ssr:hovedgruppe" v="bebyggelse" />
		<tag k="ssr:stedsnr" v="236113" />
		<tag k="ssr:type" v="gammelBosettingsplass" />
	</node>
	<node lat="69.51731944584144" lon="20.510452758537973" id="-47858">
		<tag k="name" v="Ribet" />
		<tag k="name:se" v="Ribet" />
		<tag k="place" v="locality" />
		<tag k="ssr:date" v="2019-12-27" />
		<tag k="ssr:gruppe" v="flater" />
		<tag k="ssr:hovedgruppe" v="terreng" />
		<tag k="ssr:stedsnr" v="236115" />
		<tag k="ssr:type" v="mo" />
	</node>
	<node lat="69.49830833573282" lon="20.50689442766616" id="-47859">
		<tag k="name" v="Márjjutdearbmi" />
		<tag k="name:se" v="Márjjutdearbmi" />
		<tag k="natural" v="slope" />
		<tag k="place" v="locality" />
		<tag k="ssr:date" v="2019-12-27" />
		<tag k="ssr:gruppe" v="skråninger" />
		<tag k="ssr:hovedgruppe" v="terreng" />
		<tag k="ssr:stedsnr" v="236062" />
		<tag k="ssr:type" v="bakke" />
	</node>
	<node lat="69.53207777959861" lon="20.371888875666233" id="-47860">
		<tag k="fixme" v="consider seamark:type=rock or natural=shoal" />
		<tag k="name" v="Skjæret" />
		<tag k="name:no" v="Skjæret" />
		<tag k="place" v="islet" />
		<tag k="ssr:date" v="2019-12-27" />
		<tag k="ssr:gruppe" v="grunnerISjø" />
		<tag k="ssr:hovedgruppe" v="sjø" />
		<tag k="ssr:stedsnr" v="236211" />
		<tag k="ssr:type" v="skjærISjø" />
	</node>
	<node lat="69.47798055590515" lon="20.91565275418007" id="-47861">
		<tag k="name" v="Guolejohluohkká" />
		<tag k="name:se" v="Guolejohluohkká" />
		<tag k="natural" v="slope" />
		<tag k="place" v="locality" />
		<tag k="ssr:date" v="2019-12-27" />
		<tag k="ssr:gruppe" v="skråninger" />
		<tag k="ssr:hovedgruppe" v="terreng" />
		<tag k="ssr:stedsnr" v="236283" />
		<tag k="ssr:type" v="bakke" />
	</node>
	<node lat="69.48805833478623" lon="20.892958317358275" id="-47862">
		<tag k="name" v="Gihtel-Ellejohka - Ellenelva" />
		<tag k="name:no" v="Ellenelva" />
		<tag k="name:se" v="Gihtel-Ellejohka" />
		<tag k="ssr:date" v="2019-12-27" />
		<tag k="ssr:gruppe" v="rennendeVann" />
		<tag k="ssr:hovedgruppe" v="ferskvann" />
		<tag k="ssr:stedsnr" v="236285" />
		<tag k="ssr:type" v="bekk" />
		<tag k="waterway" v="stream" />
	</node>
	<node lat="69.47009444855178" lon="20.92582776150051" id="-47863">
		<tag k="name" v="Uhcamielli" />
		<tag k="name:se" v="Uhcamielli" />
		<tag k="natural" v="slope" />
		<tag k="place" v="locality" />
		<tag k="ssr:date" v="2019-12-27" />
		<tag k="ssr:gruppe" v="skråninger" />
		<tag k="ssr:hovedgruppe" v="terreng" />
		<tag k="ssr:stedsnr" v="236261" />
		<tag k="ssr:type" v="bakke" />
	</node>
	<node lat="69.47570278038401" lon="20.93713053782017" id="-47864">
		<tag k="name" v="Gierdobákti" />
		<tag k="name:se" v="Gierdobákti" />
		<tag k="natural" v="hill" />
		<tag k="place" v="locality" />
		<tag k="ssr:date" v="2019-12-27" />
		<tag k="ssr:gruppe" v="høyder" />
		<tag k="ssr:hovedgruppe" v="terreng" />
		<tag k="ssr:stedsnr" v="236268" />
		<tag k="ssr:type" v="berg" />
	</node>
	<node lat="69.47782777957774" lon="20.89865830767064" id="-47865">
		<tag k="name" v="Ruffebákti" />
		<tag k="name:se" v="Ruffebákti" />
		<tag k="natural" v="hill" />
		<tag k="place" v="locality" />
		<tag k="ssr:date" v="2019-12-27" />
		<tag k="ssr:gruppe" v="høyder" />
		<tag k="ssr:hovedgruppe" v="terreng" />
		<tag k="ssr:stedsnr" v="236276" />
		<tag k="ssr:type" v="berg" />
	</node>
	<node lat="69.4656722214406" lon="20.95138886062168" id="-47866">
		<tag k="name" v="Soahkegurra" />
		<tag k="name:se" v="Soahkegurra" />
		<tag k="natural" v="valley" />
		<tag k="place" v="locality" />
		<tag k="ssr:date" v="2019-12-27" />
		<tag k="ssr:gruppe" v="senkninger" />
		<tag k="ssr:hovedgruppe" v="terreng" />
		<tag k="ssr:stedsnr" v="236341" />
		<tag k="ssr:type" v="skar" />
	</node>
	<node lat="69.4641166725043" lon="20.936577745047025" id="-47867">
		<tag k="name" v="Ráigegállu" />
		<tag k="name:se" v="Ráigegállu" />
		<tag k="natural" v="hill" />
		<tag k="place" v="locality" />
		<tag k="ssr:date" v="2019-12-27" />
		<tag k="ssr:gruppe" v="høyder" />
		<tag k="ssr:hovedgruppe" v="terreng" />
		<tag k="ssr:stedsnr" v="236343" />
		<tag k="ssr:type" v="haug" />
	</node>
	<node lat="69.46090277604239" lon="20.90581108383742" id="-47868">
		<tag k="name" v="Riđugurra" />
		<tag k="name:se" v="Riđugurra" />
		<tag k="natural" v="valley" />
		<tag k="place" v="locality" />
		<tag k="ssr:date" v="2019-12-27" />
		<tag k="ssr:gruppe" v="senkninger" />
		<tag k="ssr:hovedgruppe" v="terreng" />
		<tag k="ssr:stedsnr" v="236344" />
		<tag k="ssr:type" v="skar" />
	</node>
	<node lat="69.52406388851811" lon="20.61426942480352" id="-47869">
		<tag k="loc_name:se" v="Gaskamuš Stuorageađggit;Davimuš Stuorageađggit;Siskkimuš Stuorageađggit" />
		<tag k="name" v="Stuorageađggit" />
		<tag k="name:se" v="Stuorageađggit" />
		<tag k="natural" v="hill" />
		<tag k="place" v="locality" />
		<tag k="ssr:date" v="2019-12-27" />
		<tag k="ssr:gruppe" v="høyder" />
		<tag k="ssr:hovedgruppe" v="terreng" />
		<tag k="ssr:stedsnr" v="36204" />
		<tag k="ssr:type" v="berg" />
	</node>
	<node lat="69.51938889327397" lon="20.77645831736579" id="-47870">
		<tag k="name" v="Čorru" />
		<tag k="name:se" v="Čorru" />
		<tag k="natural" v="hill" />
		<tag k="place" v="locality" />
		<tag k="ssr:date" v="2019-12-27" />
		<tag k="ssr:gruppe" v="høyder" />
		<tag k="ssr:hovedgruppe" v="terreng" />
		<tag k="ssr:stedsnr" v="236355" />
		<tag k="ssr:type" v="haug" />
	</node>
	<node lat="69.51828888508432" lon="20.794397207018008" id="-47871">
		<tag k="name" v="Buollán" />
		<tag k="name:se" v="Buollán" />
		<tag k="place" v="locality" />
		<tag k="ssr:date" v="2019-12-27" />
		<tag k="ssr:gruppe" v="flater" />
		<tag k="ssr:hovedgruppe" v="terreng" />
		<tag k="ssr:stedsnr" v="236458" />
		<tag k="ssr:type" v="slette" />
	</node>
	<node lat="69.59735277603201" lon="20.56948054775797" id="-47872">
		<tag k="fixme" v="consider natural=peak for the most distinct mountains in the district" />
		<tag k="name" v="Coaffi" />
		<tag k="name:se" v="Coaffi" />
		<tag k="natural" v="hill" />
		<tag k="place" v="locality" />
		<tag k="ssr:date" v="2019-12-27" />
		<tag k="ssr:gruppe" v="høyder" />
		<tag k="ssr:hovedgruppe" v="terreng" />
		<tag k="ssr:stedsnr" v="236669" />
		<tag k="ssr:type" v="fjell" />
	</node>
	<node lat="69.58371111206151" lon="20.587172211721526" id="-47873">
		<tag k="name" v="Oaffirjeaggi" />
		<tag k="name:se" v="Oaffirjeaggi" />
		<tag k="natural" v="wetland" />
		<tag k="ssr:date" v="2019-12-27" />
		<tag k="ssr:gruppe" v="våtmark" />
		<tag k="ssr:hovedgruppe" v="markslag" />
		<tag k="ssr:stedsnr" v="236754" />
		<tag k="ssr:type" v="myr" />
	</node>
	<node lat="69.61425833090834" lon="20.642088880114486" id="-47874">
		<tag k="name" v="Muozehat" />
		<tag k="name:se" v="Muozehat" />
		<tag k="natural" v="slope" />
		<tag k="place" v="locality" />
		<tag k="ssr:date" v="2019-12-27" />
		<tag k="ssr:gruppe" v="skråninger" />
		<tag k="ssr:hovedgruppe" v="terreng" />
		<tag k="ssr:stedsnr" v="236756" />
		<tag k="ssr:type" v="li" />
	</node>
	<node lat="69.52752499760584" lon="20.568041644809657" id="-47875">
		<tag k="alt_name:se" v="Gussalátnja" />
		<tag k="loc_name:se" v="Gurralatnja" />
		<tag k="name" v="Gurralátnja" />
		<tag k="name:se" v="Gurralátnja" />
		<tag k="place" v="locality" />
		<tag k="ssr:date" v="2019-12-27" />
		<tag k="ssr:gruppe" v="terrengdetaljer" />
		<tag k="ssr:hovedgruppe" v="terreng" />
		<tag k="ssr:stedsnr" v="236818" />
		<tag k="ssr:type" v="hylle" />
	</node>
	<node lat="69.53641666924133" lon="20.59999997176936" id="-47876">
		<tag k="loc_name:se" v="Ándaras;Áŋŋaras" />
		<tag k="name" v="Andersnes" />
		<tag k="name:no" v="Andersnes" />
		<tag k="natural" v="cape" />
		<tag k="ssr:date" v="2019-12-27" />
		<tag k="ssr:gruppe" v="kystkontur" />
		<tag k="ssr:hovedgruppe" v="sjø" />
		<tag k="ssr:stedsnr" v="236824" />
		<tag k="ssr:type" v="nesISjø" />
	</node>
	<node lat="69.44063888818317" lon="20.562769414684404" id="-47877">
		<tag k="name" v="Banul" />
		<tag k="name:se" v="Banul" />
		<tag k="natural" v="slope" />
		<tag k="place" v="locality" />
		<tag k="ssr:date" v="2021-06-08" />
		<tag k="ssr:gruppe" v="skråninger" />
		<tag k="ssr:hovedgruppe" v="terreng" />
		<tag k="ssr:stedsnr" v="236913" />
		<tag k="ssr:type" v="li" />
	</node>
	<node lat="69.51658611293621" lon="20.63524721262435" id="-47879">
		<tag k="name" v="Jogagieddi" />
		<tag k="name:se" v="Jogagieddi" />
		<tag k="place" v="locality" />
		<tag k="ssr:date" v="2019-12-27" />
		<tag k="ssr:gruppe" v="flater" />
		<tag k="ssr:hovedgruppe" v="terreng" />
		<tag k="ssr:stedsnr" v="236859" />
		<tag k="ssr:type" v="mo" />
	</node>
	<node lat="69.51217500457905" lon="20.61532774916865" id="-47880">
		<tag k="name" v="Luoktagieddi" />
		<tag k="name:se" v="Luoktagieddi" />
		<tag k="place" v="locality" />
		<tag k="ssr:date" v="2019-12-27" />
		<tag k="ssr:gruppe" v="flater" />
		<tag k="ssr:hovedgruppe" v="terreng" />
		<tag k="ssr:stedsnr" v="236860" />
		<tag k="ssr:type" v="mo" />
	</node>
	<node lat="69.64354444905328" lon="20.476072210886162" id="-47881">
		<tag k="name" v="Skarvelva" />
		<tag k="name:no" v="Skarvelva" />
		<tag k="ssr:date" v="2019-12-27" />
		<tag k="ssr:gruppe" v="rennendeVann" />
		<tag k="ssr:hovedgruppe" v="ferskvann" />
		<tag k="ssr:stedsnr" v="236953" />
		<tag k="ssr:type" v="bekk" />
		<tag k="waterway" v="stream" />
	</node>
	<node lat="69.43155278060742" lon="20.57540275416937" id="-47882">
		<tag k="name" v="Banulamoski" />
		<tag k="name:se" v="Banulamoski" />
		<tag k="place" v="locality" />
		<tag k="ssr:date" v="2021-06-08" />
		<tag k="ssr:gruppe" v="terrengdetaljer" />
		<tag k="ssr:hovedgruppe" v="terreng" />
		<tag k="ssr:stedsnr" v="41367" />
		<tag k="ssr:type" v="hylle" />
	</node>
	<node lat="69.52831666467715" lon="20.51132775306725" id="-47883">
		<tag k="name" v="Gáiccaidjuovva" />
		<tag k="name:se" v="Gáiccaidjuovva" />
		<tag k="natural" v="scree" />
		<tag k="ssr:date" v="2019-12-27" />
		<tag k="ssr:gruppe" v="løsmasseavsetninger" />
		<tag k="ssr:hovedgruppe" v="markslag" />
		<tag k="ssr:stedsnr" v="53105" />
		<tag k="ssr:type" v="ur" />
	</node>
	<node lat="69.5255861132856" lon="20.509161095652384" id="-47884">
		<tag k="name" v="Leaibejohka" />
		<tag k="name:se" v="Leaibejohka" />
		<tag k="ssr:date" v="2019-12-27" />
		<tag k="ssr:gruppe" v="rennendeVann" />
		<tag k="ssr:hovedgruppe" v="ferskvann" />
		<tag k="ssr:stedsnr" v="53109" />
		<tag k="ssr:type" v="bekk" />
		<tag k="waterway" v="stream" />
	</node>
	<node lat="69.50678055923571" lon="20.798397195614093" id="-47885">
		<tag k="name" v="Billosnjárga" />
		<tag k="name:se" v="Billosnjárga" />
		<tag k="natural" v="cape" />
		<tag k="ssr:date" v="2019-12-27" />
		<tag k="ssr:gruppe" v="kystkontur" />
		<tag k="ssr:hovedgruppe" v="sjø" />
		<tag k="ssr:stedsnr" v="53510" />
		<tag k="ssr:type" v="nesISjø" />
	</node>
	<node lat="69.4869305581971" lon="20.828322200213695" id="-47886">
		<tag k="name" v="Geađgeláddu" />
		<tag k="name:se" v="Geađgeláddu" />
		<tag k="natural" v="water" />
		<tag k="ssr:date" v="2019-12-27" />
		<tag k="ssr:gruppe" v="rennendeVann" />
		<tag k="ssr:hovedgruppe" v="ferskvann" />
		<tag k="ssr:stedsnr" v="53519" />
		<tag k="ssr:type" v="lon" />
		<tag k="water" v="lake" />
	</node>
	<node lat="69.52727222272664" lon="20.770305538289573" id="-47887">
		<tag k="highway" v="path" />
		<tag k="name" v="Bajit Čunobálggis" />
		<tag k="name:se" v="Bajit Čunobálggis" />
		<tag k="ssr:date" v="2019-12-27" />
		<tag k="ssr:gruppe" v="veg" />
		<tag k="ssr:hovedgruppe" v="infrastruktur" />
		<tag k="ssr:stedsnr" v="53422" />
		<tag k="ssr:type" v="sti" />
	</node>
	<node lat="69.40003611010403" lon="20.982197189909524" id="-47888">
		<tag k="name" v="Gorži" />
		<tag k="name:se" v="Gorži" />
		<tag k="natural" v="waterfall" />
		<tag k="ssr:date" v="2019-12-27" />
		<tag k="ssr:gruppe" v="rennendeVann" />
		<tag k="ssr:hovedgruppe" v="ferskvann" />
		<tag k="ssr:stedsnr" v="53480" />
		<tag k="ssr:type" v="foss" />
	</node>
	<node lat="69.5044694444423" lon="20.81725274244235" id="-47889">
		<tag k="name" v="Uksadearbmi" />
		<tag k="name:se" v="Uksadearbmi" />
		<tag k="natural" v="slope" />
		<tag k="place" v="locality" />
		<tag k="ssr:date" v="2019-12-27" />
		<tag k="ssr:gruppe" v="skråninger" />
		<tag k="ssr:hovedgruppe" v="terreng" />
		<tag k="ssr:stedsnr" v="53486" />
		<tag k="ssr:type" v="bakke" />
	</node>
	<node lat="69.74592222633164" lon="20.524241642031264" id="-47890">
		<tag k="fixme" v="consider natural=peak for the most distinct mountains in the district" />
		<tag k="loc_name:se" v="Veažir" />
		<tag k="name" v="Storhammaren" />
		<tag k="name:no" v="Storhammaren" />
		<tag k="natural" v="hill" />
		<tag k="place" v="locality" />
		<tag k="ssr:date" v="2021-06-25" />
		<tag k="ssr:gruppe" v="høyder" />
		<tag k="ssr:hovedgruppe" v="terreng" />
		<tag k="ssr:stedsnr" v="53907" />
		<tag k="ssr:type" v="fjell" />
	</node>
	<node lat="69.61997222037043" lon="20.506086086254484" id="-47891">
		<tag k="name" v="Smådalan" />
		<tag k="name:no" v="Smådalan" />
		<tag k="natural" v="valley" />
		<tag k="place" v="locality" />
		<tag k="ssr:date" v="2019-12-27" />
		<tag k="ssr:gruppe" v="senkninger" />
		<tag k="ssr:hovedgruppe" v="terreng" />
		<tag k="ssr:stedsnr" v="54001" />
		<tag k="ssr:type" v="dal" />
	</node>
	<node lat="69.51838333240157" lon="20.521644423839394" id="-47892">
		<tag k="name" v="Hánssasavu" />
		<tag k="name:se" v="Hánssasavu" />
		<tag k="natural" v="water" />
		<tag k="ssr:date" v="2019-12-27" />
		<tag k="ssr:gruppe" v="rennendeVann" />
		<tag k="ssr:hovedgruppe" v="ferskvann" />
		<tag k="ssr:stedsnr" v="54116" />
		<tag k="ssr:type" v="lon" />
		<tag k="water" v="lake" />
	</node>
	<node lat="69.51220833431131" lon="20.359486093515667" id="-47893">
		<tag k="name" v="Naustbuktbergan" />
		<tag k="name:no" v="Naustbuktbergan" />
		<tag k="natural" v="hill" />
		<tag k="place" v="locality" />
		<tag k="ssr:date" v="2019-12-27" />
		<tag k="ssr:gruppe" v="høyder" />
		<tag k="ssr:hovedgruppe" v="terreng" />
		<tag k="ssr:stedsnr" v="54205" />
		<tag k="ssr:type" v="berg" />
	</node>
	<node lat="69.47683055538708" lon="20.90689164453623" id="-47894">
		<tag k="name" v="Várevuolbákti" />
		<tag k="name:se" v="Várevuolbákti" />
		<tag k="natural" v="hill" />
		<tag k="place" v="locality" />
		<tag k="ssr:date" v="2019-12-27" />
		<tag k="ssr:gruppe" v="høyder" />
		<tag k="ssr:hovedgruppe" v="terreng" />
		<tag k="ssr:stedsnr" v="54268" />
		<tag k="ssr:type" v="berg" />
	</node>
	<node lat="69.47691944765486" lon="20.892680538107772" id="-47895">
		<tag k="fixme" v="consider natural=peak for the most distinct mountains in the district" />
		<tag k="name" v="Aláš" />
		<tag k="name:se" v="Aláš" />
		<tag k="natural" v="hill" />
		<tag k="place" v="locality" />
		<tag k="ssr:date" v="2019-12-27" />
		<tag k="ssr:gruppe" v="høyder" />
		<tag k="ssr:hovedgruppe" v="terreng" />
		<tag k="ssr:stedsnr" v="54277" />
		<tag k="ssr:type" v="ås" />
	</node>
	<node lat="69.46957222413234" lon="20.917936079433957" id="-47896">
		<tag k="name" v="Nuorejohrohtu" />
		<tag k="name:se" v="Nuorejohrohtu" />
		<tag k="place" v="locality" />
		<tag k="ssr:date" v="2019-12-27" />
		<tag k="ssr:gruppe" v="vegetasjon" />
		<tag k="ssr:hovedgruppe" v="markslag" />
		<tag k="ssr:stedsnr" v="54279" />
		<tag k="ssr:type" v="skog" />
	</node>
	<node lat="69.48251111347956" lon="20.88385832168615" id="-47897">
		<tag k="name" v="Melen" />
		<tag k="name:no" v="Melen" />
		<tag k="natural" v="slope" />
		<tag k="place" v="locality" />
		<tag k="ssr:date" v="2019-12-27" />
		<tag k="ssr:gruppe" v="skråninger" />
		<tag k="ssr:hovedgruppe" v="terreng" />
		<tag k="ssr:stedsnr" v="54280" />
		<tag k="ssr:type" v="bakke" />
	</node>
	<node lat="69.51739166581869" lon="20.77883609082568" id="-47898">
		<tag k="name" v="Eartalátnja" />
		<tag k="name:se" v="Eartalátnja" />
		<tag k="natural" v="slope" />
		<tag k="place" v="locality" />
		<tag k="ssr:date" v="2019-12-27" />
		<tag k="ssr:gruppe" v="skråninger" />
		<tag k="ssr:hovedgruppe" v="terreng" />
		<tag k="ssr:stedsnr" v="54379" />
		<tag k="ssr:type" v="bakke" />
	</node>
	<node lat="69.51473333373882" lon="20.79084721037163" id="-47899">
		<tag k="name" v="Hánnošjohka" />
		<tag k="name:se" v="Hánnošjohka" />
		<tag k="ssr:date" v="2019-12-27" />
		<tag k="ssr:gruppe" v="rennendeVann" />
		<tag k="ssr:hovedgruppe" v="ferskvann" />
		<tag k="ssr:stedsnr" v="54380" />
		<tag k="ssr:type" v="bekk" />
		<tag k="waterway" v="stream" />
	</node>
	<node lat="69.51572777448519" lon="20.640766653732836" id="-47900">
		<tag k="name" v="Sáttu" />
		<tag k="name:se" v="Sáttu" />
		<tag k="natural" v="beach" />
		<tag k="ssr:date" v="2019-12-27" />
		<tag k="ssr:gruppe" v="kystkontur" />
		<tag k="ssr:hovedgruppe" v="sjø" />
		<tag k="ssr:stedsnr" v="54769" />
		<tag k="ssr:type" v="strandISjø" />
	</node>
	<node lat="69.67045278181745" lon="20.499341661593935" id="-47901">
		<tag k="name" v="Vikemelen" />
		<tag k="name:no" v="Vikemelen" />
		<tag k="natural" v="slope" />
		<tag k="place" v="locality" />
		<tag k="ssr:date" v="2019-12-27" />
		<tag k="ssr:gruppe" v="skråninger" />
		<tag k="ssr:hovedgruppe" v="terreng" />
		<tag k="ssr:stedsnr" v="54970" />
		<tag k="ssr:type" v="bakke" />
	</node>
	<node lat="69.53482500391374" lon="20.666213876597396" id="-47915">
		<tag k="name" v="Skoalpi" />
		<tag k="name:se" v="Skoalpi" />
		<tag k="place" v="locality" />
		<tag k="ssr:date" v="2019-12-27" />
		<tag k="ssr:gruppe" v="flater" />
		<tag k="ssr:hovedgruppe" v="terreng" />
		<tag k="ssr:stedsnr" v="241100" />
		<tag k="ssr:type" v="slette" />
	</node>
	<node lat="69.54033055339109" lon="20.65257497593945" id="-47919">
		<tag k="name" v="Ovlládearbmi" />
		<tag k="name:se" v="Ovlládearbmi" />
		<tag k="natural" v="slope" />
		<tag k="place" v="locality" />
		<tag k="ssr:date" v="2019-12-27" />
		<tag k="ssr:gruppe" v="skråninger" />
		<tag k="ssr:hovedgruppe" v="terreng" />
		<tag k="ssr:stedsnr" v="242138" />
		<tag k="ssr:type" v="bakke" />
	</node>
	<node lat="69.6705392002228" lon="20.49537446606321" id="-47921">
		<tag k="name" v="Siskkit Dážavággi - Indre Nordmannvik" />
		<tag k="name:no" v="Indre Nordmannvik" />
		<tag k="name:se" v="Siskkit Dážavággi" />
		<tag k="place" v="hamlet" />
		<tag k="ssr:date" v="2021-08-12" />
		<tag k="ssr:gruppe" v="bebyggelsesområder" />
		<tag k="ssr:hovedgruppe" v="bebyggelse" />
		<tag k="ssr:stedsnr" v="242315" />
		<tag k="ssr:type" v="grend" />
	</node>
	<node lat="69.61207499558112" lon="20.525308324452794" id="-47925">
		<tag k="name" v="Ytsteby" />
		<tag k="name:no" v="Ytsteby" />
		<tag k="place" v="farm" />
		<tag k="ssr:date" v="2019-12-27" />
		<tag k="ssr:gruppe" v="gardsbebyggelse" />
		<tag k="ssr:hovedgruppe" v="bebyggelse" />
		<tag k="ssr:stedsnr" v="242635" />
		<tag k="ssr:type" v="bruk" />
	</node>
	<node lat="69.60547221912053" lon="20.529758324729773" id="-47927">
		<tag k="name" v="Olderdalen" />
		<tag k="name:no" v="Olderdalen" />
		<tag k="place" v="farm" />
		<tag k="ssr:date" v="2021-06-08" />
		<tag k="ssr:gruppe" v="gardsbebyggelse" />
		<tag k="ssr:hovedgruppe" v="bebyggelse" />
		<tag k="ssr:stedsnr" v="242644" />
		<tag k="ssr:type" v="bruk" />
	</node>
	<node lat="69.54775555581654" lon="20.528338873610533" id="-47935">
		<tag k="name" v="Øvergård" />
		<tag k="name:no" v="Øvergård" />
		<tag k="place" v="farm" />
		<tag k="ssr:date" v="2019-12-27" />
		<tag k="ssr:gruppe" v="gardsbebyggelse" />
		<tag k="ssr:hovedgruppe" v="bebyggelse" />
		<tag k="ssr:stedsnr" v="79607" />
		<tag k="ssr:type" v="bruk" />
	</node>
	<node lat="69.55577499943266" lon="20.888130522139306" id="-47936">
		<tag k="name" v="Holmevatnet" />
		<tag k="name:no" v="Holmevatnet" />
		<tag k="natural" v="water" />
		<tag k="ssr:date" v="2019-12-27" />
		<tag k="ssr:gruppe" v="stilleståendeVann" />
		<tag k="ssr:hovedgruppe" v="ferskvann" />
		<tag k="ssr:stedsnr" v="79608" />
		<tag k="ssr:type" v="tjern" />
	</node>
	<node lat="69.4071833341619" lon="20.813624970644376" id="-47937">
		<tag k="fixme" v="consider natural=peak for the most distinct mountains in the district" />
		<tag k="name" v="Ruostavárri" />
		<tag k="name:se" v="Ruostavárri" />
		<tag k="natural" v="hill" />
		<tag k="place" v="locality" />
		<tag k="ssr:date" v="2019-12-27" />
		<tag k="ssr:gruppe" v="høyder" />
		<tag k="ssr:hovedgruppe" v="terreng" />
		<tag k="ssr:stedsnr" v="79502" />
		<tag k="ssr:type" v="ås" />
	</node>
	<node lat="69.53677500431833" lon="20.548213879272346" id="-47938">
		<tag k="name" v="Moen" />
		<tag k="name:no" v="Moen" />
		<tag k="place" v="farm" />
		<tag k="ssr:date" v="2019-12-27" />
		<tag k="ssr:gruppe" v="gardsbebyggelse" />
		<tag k="ssr:hovedgruppe" v="bebyggelse" />
		<tag k="ssr:stedsnr" v="79598" />
		<tag k="ssr:type" v="bruk" />
	</node>
	<node lat="69.37745277838107" lon="21.15726386313808" id="-47939">
		<tag k="fixme" v="consider natural=peak for the most distinct mountains in the district" />
		<tag k="name" v="Áhkkečohkka" />
		<tag k="name:se" v="Áhkkečohkka" />
		<tag k="natural" v="hill" />
		<tag k="place" v="locality" />
		<tag k="ssr:date" v="2019-12-27" />
		<tag k="ssr:gruppe" v="høyder" />
		<tag k="ssr:hovedgruppe" v="terreng" />
		<tag k="ssr:stedsnr" v="79600" />
		<tag k="ssr:type" v="ås" />
	</node>
	<node lat="69.53677778035816" lon="20.594374989051847" id="-47940">
		<tag k="name" v="Čealugáddi" />
		<tag k="name:se" v="Čealugáddi" />
		<tag k="natural" v="slope" />
		<tag k="place" v="locality" />
		<tag k="ssr:date" v="2019-12-27" />
		<tag k="ssr:gruppe" v="skråninger" />
		<tag k="ssr:hovedgruppe" v="terreng" />
		<tag k="ssr:stedsnr" v="79601" />
		<tag k="ssr:type" v="li" />
	</node>
	<node lat="69.74380833755828" lon="20.498411090680662" id="-47941">
		<tag k="name" v="Lyngslett" />
		<tag k="name:no" v="Lyngslett" />
		<tag k="place" v="farm" />
		<tag k="ssr:date" v="2019-12-27" />
		<tag k="ssr:gruppe" v="gardsbebyggelse" />
		<tag k="ssr:hovedgruppe" v="bebyggelse" />
		<tag k="ssr:stedsnr" v="80604" />
		<tag k="ssr:type" v="bruk" />
	</node>
	<node lat="69.74657499899067" lon="20.495124986626998" id="-47942">
		<tag k="name" v="Lund" />
		<tag k="name:no" v="Lund" />
		<tag k="place" v="farm" />
		<tag k="ssr:date" v="2019-12-27" />
		<tag k="ssr:gruppe" v="gardsbebyggelse" />
		<tag k="ssr:hovedgruppe" v="bebyggelse" />
		<tag k="ssr:stedsnr" v="80606" />
		<tag k="ssr:type" v="bruk" />
	</node>
	<node lat="69.65617500385304" lon="20.74595831488448" id="-47943">
		<tag k="name" v="Rundvatnet" />
		<tag k="name:no" v="Rundvatnet" />
		<tag k="natural" v="water" />
		<tag k="ssr:date" v="2019-12-27" />
		<tag k="ssr:gruppe" v="stilleståendeVann" />
		<tag k="ssr:hovedgruppe" v="ferskvann" />
		<tag k="ssr:stedsnr" v="80591" />
		<tag k="ssr:type" v="tjern" />
	</node>
	<node lat="69.73836300608785" lon="20.517917317111348" id="-47944">
		<tag k="name" v="Ytre Hammarvik" />
		<tag k="name:no" v="Ytre Hammarvik" />
		<tag k="place" v="farm" />
		<tag k="ssr:date" v="2021-04-30" />
		<tag k="ssr:gruppe" v="gardsbebyggelse" />
		<tag k="ssr:hovedgruppe" v="bebyggelse" />
		<tag k="ssr:stedsnr" v="86295" />
		<tag k="ssr:type" v="bruk" />
	</node>
	<node lat="69.48314444270008" lon="20.518674992749773" id="-47948">
		<tag k="name" v="Rávra" />
		<tag k="name:se" v="Rávra" />
		<tag k="old_name:no" v="Sommerlien" />
		<tag k="place" v="farm" />
		<tag k="ssr:date" v="2021-06-08" />
		<tag k="ssr:gruppe" v="gardsbebyggelse" />
		<tag k="ssr:hovedgruppe" v="bebyggelse" />
		<tag k="ssr:stedsnr" v="100963" />
		<tag k="ssr:type" v="bruk" />
	</node>
	<node lat="69.4947444431982" lon="20.842966640693884" id="-47949">
		<tag k="name" v="Alladearbmi" />
		<tag k="name:se" v="Alladearbmi" />
		<tag k="natural" v="slope" />
		<tag k="place" v="locality" />
		<tag k="ssr:date" v="2019-12-27" />
		<tag k="ssr:gruppe" v="skråninger" />
		<tag k="ssr:hovedgruppe" v="terreng" />
		<tag k="ssr:stedsnr" v="113586" />
		<tag k="ssr:type" v="bakke" />
	</node>
	<node lat="69.52055555403703" lon="20.499544432061025" id="-47950">
		<tag k="name" v="Allagohpi" />
		<tag k="name:se" v="Allagohpi" />
		<tag k="natural" v="valley" />
		<tag k="place" v="locality" />
		<tag k="ssr:date" v="2019-12-27" />
		<tag k="ssr:gruppe" v="senkninger" />
		<tag k="ssr:hovedgruppe" v="terreng" />
		<tag k="ssr:stedsnr" v="114077" />
		<tag k="ssr:type" v="botn" />
	</node>
	<node lat="69.50791944374949" lon="20.757127746964986" id="-47951">
		<tag k="name" v="Bajilánjjat" />
		<tag k="name:se" v="Bajilánjjat" />
		<tag k="place" v="locality" />
		<tag k="ssr:date" v="2019-12-27" />
		<tag k="ssr:gruppe" v="terrengdetaljer" />
		<tag k="ssr:hovedgruppe" v="terreng" />
		<tag k="ssr:stedsnr" v="114527" />
		<tag k="ssr:type" v="hylle" />
	</node>
	<node lat="69.75460833423269" lon="20.5167722020944" id="-47952">
		<tag k="name" v="Dalen" />
		<tag k="name:no" v="Dalen" />
		<tag k="natural" v="valley" />
		<tag k="place" v="locality" />
		<tag k="ssr:date" v="2019-12-27" />
		<tag k="ssr:gruppe" v="senkninger" />
		<tag k="ssr:hovedgruppe" v="terreng" />
		<tag k="ssr:stedsnr" v="114903" />
		<tag k="ssr:type" v="dal" />
	</node>
	<node lat="69.67799722427655" lon="20.51286387842118" id="-47953">
		<tag k="name" v="Langbakken" />
		<tag k="name:no" v="Langbakken" />
		<tag k="natural" v="slope" />
		<tag k="place" v="locality" />
		<tag k="ssr:date" v="2019-12-27" />
		<tag k="ssr:gruppe" v="skråninger" />
		<tag k="ssr:hovedgruppe" v="terreng" />
		<tag k="ssr:stedsnr" v="114914" />
		<tag k="ssr:type" v="bakke" />
	</node>
	<node lat="69.51930833227114" lon="20.52917775561385" id="-47954">
		<tag k="name" v="Langmyra" />
		<tag k="name:no" v="Langmyra" />
		<tag k="natural" v="wetland" />
		<tag k="ssr:date" v="2019-12-27" />
		<tag k="ssr:gruppe" v="våtmark" />
		<tag k="ssr:hovedgruppe" v="markslag" />
		<tag k="ssr:stedsnr" v="115143" />
		<tag k="ssr:type" v="myr" />
	</node>
	<node lat="69.61796111480332" lon="20.508344423929323" id="-47955">
		<tag k="name" v="Katteberget" />
		<tag k="name:no" v="Katteberget" />
		<tag k="natural" v="hill" />
		<tag k="place" v="locality" />
		<tag k="ssr:date" v="2019-12-27" />
		<tag k="ssr:gruppe" v="høyder" />
		<tag k="ssr:hovedgruppe" v="terreng" />
		<tag k="ssr:stedsnr" v="115015" />
		<tag k="ssr:type" v="berg" />
	</node>
	<node lat="69.55107499694672" lon="20.63058054446168" id="-47956">
		<tag k="name" v="Langbergan" />
		<tag k="name:no" v="Langbergan" />
		<tag k="natural" v="hill" />
		<tag k="place" v="locality" />
		<tag k="ssr:date" v="2019-12-27" />
		<tag k="ssr:gruppe" v="høyder" />
		<tag k="ssr:hovedgruppe" v="terreng" />
		<tag k="ssr:stedsnr" v="115729" />
		<tag k="ssr:type" v="berg" />
	</node>
	<node lat="69.53415000204923" lon="20.654886100551497" id="-47957">
		<tag k="fixme" v="multiple name tags, choose one and add the other to alt_name" />
		<tag k="name" v="Earkobákti;Earkonjárga - Erkoberget" />
		<tag k="name:no" v="Erkoberget" />
		<tag k="name:se" v="Earkobákti;Earkonjárga" />
		<tag k="natural" v="hill" />
		<tag k="place" v="locality" />
		<tag k="ssr:date" v="2019-12-27" />
		<tag k="ssr:gruppe" v="høyder" />
		<tag k="ssr:hovedgruppe" v="terreng" />
		<tag k="ssr:stedsnr" v="115789" />
		<tag k="ssr:type" v="berg" />
	</node>
	<node lat="69.4948416716854" lon="20.775588870203165" id="-47958">
		<tag k="name" v="Jullalokta" />
		<tag k="name:se" v="Jullalokta" />
		<tag k="place" v="locality" />
		<tag k="ssr:date" v="2019-12-27" />
		<tag k="ssr:gruppe" v="terrengdetaljer" />
		<tag k="ssr:hovedgruppe" v="terreng" />
		<tag k="ssr:stedsnr" v="115678" />
		<tag k="ssr:type" v="hylle" />
	</node>
	<node lat="69.53689166924408" lon="20.611244419289623" id="-47959">
		<tag k="name" v="Haugameđđi" />
		<tag k="name:no" v="Haugameđđi" />
		<tag k="natural" v="shoal" />
		<tag k="place" v="locality" />
		<tag k="ssr:date" v="2019-12-27" />
		<tag k="ssr:gruppe" v="grunnerISjø" />
		<tag k="ssr:hovedgruppe" v="sjø" />
		<tag k="ssr:stedsnr" v="115806" />
		<tag k="ssr:type" v="grunneISjø" />
	</node>
	<node lat="69.53298611542108" lon="20.58971387564087" id="-47960">
		<tag k="name" v="Skáhpelátnja" />
		<tag k="name:se" v="Skáhpelátnja" />
		<tag k="place" v="locality" />
		<tag k="ssr:date" v="2019-12-27" />
		<tag k="ssr:gruppe" v="terrengdetaljer" />
		<tag k="ssr:hovedgruppe" v="terreng" />
		<tag k="ssr:stedsnr" v="115814" />
		<tag k="ssr:type" v="hylle" />
	</node>
	<node lat="69.53615277784034" lon="20.557077752195042" id="-47961">
		<tag k="name" v="Vuolit Čáhppesbákti" />
		<tag k="name:se" v="Vuolit Čáhppesbákti" />
		<tag k="natural" v="hill" />
		<tag k="place" v="locality" />
		<tag k="ssr:date" v="2019-12-27" />
		<tag k="ssr:gruppe" v="høyder" />
		<tag k="ssr:hovedgruppe" v="terreng" />
		<tag k="ssr:stedsnr" v="115817" />
		<tag k="ssr:type" v="berg" />
	</node>
	<node lat="69.68924166853822" lon="20.51332774870987" id="-47962">
		<tag k="name" v="Bonisvollen" />
		<tag k="name:no" v="Bonisvollen" />
		<tag k="place" v="locality" />
		<tag k="ssr:date" v="2019-12-27" />
		<tag k="ssr:gruppe" v="flater" />
		<tag k="ssr:hovedgruppe" v="terreng" />
		<tag k="ssr:stedsnr" v="115970" />
		<tag k="ssr:type" v="mo" />
	</node>
	<node lat="69.52734722550451" lon="20.729594427643985" id="-47965">
		<tag k="name" v="Stoppelokta" />
		<tag k="name:se" v="Stoppelokta" />
		<tag k="place" v="locality" />
		<tag k="ssr:date" v="2019-12-27" />
		<tag k="ssr:gruppe" v="flater" />
		<tag k="ssr:hovedgruppe" v="terreng" />
		<tag k="ssr:stedsnr" v="120081" />
		<tag k="ssr:type" v="slette" />
	</node>
	<node lat="69.41023055177875" lon="20.56776943139825" id="-47973">
		<tag k="name" v="Ruovddáš" />
		<tag k="name:se" v="Ruovddáš" />
		<tag k="natural" v="valley" />
		<tag k="place" v="locality" />
		<tag k="ssr:date" v="2021-06-08" />
		<tag k="ssr:gruppe" v="senkninger" />
		<tag k="ssr:hovedgruppe" v="terreng" />
		<tag k="ssr:stedsnr" v="120971" />
		<tag k="ssr:type" v="skar" />
	</node>
	<node lat="69.52900474355862" lon="20.673728869417783" id="-47974">
		<tag k="fixme" v="consider place=hamlet" />
		<tag k="name" v="Áibanášši - Langnes" />
		<tag k="name:no" v="Langnes" />
		<tag k="name:se" v="Áibanášši" />
		<tag k="place" v="farm" />
		<tag k="ssr:date" v="2021-06-08" />
		<tag k="ssr:gruppe" v="gardsbebyggelse" />
		<tag k="ssr:hovedgruppe" v="bebyggelse" />
		<tag k="ssr:stedsnr" v="139640" />
		<tag k="ssr:type" v="gard" />
	</node>
	<node lat="69.5250055545601" lon="20.75416107951387" id="-47975">
		<tag k="name" v="Berg" />
		<tag k="name:no" v="Berg" />
		<tag k="place" v="farm" />
		<tag k="ssr:date" v="2019-12-27" />
		<tag k="ssr:gruppe" v="gardsbebyggelse" />
		<tag k="ssr:hovedgruppe" v="bebyggelse" />
		<tag k="ssr:stedsnr" v="139643" />
		<tag k="ssr:type" v="bruk" />
	</node>
	<node lat="69.46228888581413" lon="21.033508301800026" id="-47976">
		<tag k="fixme" v="consider natural=peak for the most distinct mountains in the district" />
		<tag k="name" v="Hánskkevárri" />
		<tag k="name:se" v="Hánskkevárri" />
		<tag k="natural" v="hill" />
		<tag k="place" v="locality" />
		<tag k="ssr:date" v="2019-12-27" />
		<tag k="ssr:gruppe" v="høyder" />
		<tag k="ssr:hovedgruppe" v="terreng" />
		<tag k="ssr:stedsnr" v="139697" />
		<tag k="ssr:type" v="ås" />
	</node>
	<node lat="69.45020833741422" lon="20.58928609526695" id="-47977">
		<tag k="alt_name:se" v="Rastteváddjafielbmá" />
		<tag k="name" v="Rastteváddjajohka" />
		<tag k="name:se" v="Rastteváddjajohka" />
		<tag k="ssr:date" v="2019-12-27" />
		<tag k="ssr:gruppe" v="rennendeVann" />
		<tag k="ssr:hovedgruppe" v="ferskvann" />
		<tag k="ssr:stedsnr" v="140503" />
		<tag k="ssr:type" v="bekk" />
		<tag k="waterway" v="stream" />
	</node>
	<node lat="69.44801768277722" lon="20.921667995596486" id="-47978">
		<tag k="alt_name:no" v="Båršo, litle" />
		<tag k="name" v="Uhca Boršu - Litle Båršo" />
		<tag k="name:no" v="Litle Båršo" />
		<tag k="name:se" v="Uhca Boršu" />
		<tag k="ssr:date" v="2021-08-18" />
		<tag k="ssr:gruppe" v="rennendeVann" />
		<tag k="ssr:hovedgruppe" v="ferskvann" />
		<tag k="ssr:stedsnr" v="140505" />
		<tag k="ssr:type" v="bekk" />
		<tag k="waterway" v="stream" />
	</node>
	<node lat="69.71670555781654" lon="20.56191941647288" id="-47979">
		<tag k="name" v="Engnesdalen" />
		<tag k="name:no" v="Engnesdalen" />
		<tag k="natural" v="valley" />
		<tag k="place" v="locality" />
		<tag k="ssr:date" v="2019-12-27" />
		<tag k="ssr:gruppe" v="senkninger" />
		<tag k="ssr:hovedgruppe" v="terreng" />
		<tag k="ssr:stedsnr" v="140602" />
		<tag k="ssr:type" v="dal" />
	</node>
	<node lat="69.5241635574986" lon="20.692972923160486" id="-47980">
		<tag k="name" v="Langnesbukt" />
		<tag k="name:no" v="Langnesbukt" />
		<tag k="place" v="farm" />
		<tag k="ssr:date" v="2019-12-27" />
		<tag k="ssr:gruppe" v="gardsbebyggelse" />
		<tag k="ssr:hovedgruppe" v="bebyggelse" />
		<tag k="ssr:stedsnr" v="140636" />
		<tag k="ssr:type" v="bruk" />
	</node>
	<node lat="69.40177499874112" lon="21.052277748415" id="-47981">
		<tag k="name" v="Sabetjávri" />
		<tag k="name:se" v="Sabetjávri" />
		<tag k="natural" v="water" />
		<tag k="ssr:date" v="2019-12-27" />
		<tag k="ssr:gruppe" v="stilleståendeVann" />
		<tag k="ssr:hovedgruppe" v="ferskvann" />
		<tag k="ssr:stedsnr" v="140640" />
		<tag k="ssr:type" v="tjern" />
	</node>
	<node lat="69.6373527762363" lon="20.469605547149836" id="-47982">
		<tag k="name" v="Russelva" />
		<tag k="name:no" v="Russelva" />
		<tag k="ssr:date" v="2019-12-27" />
		<tag k="ssr:gruppe" v="rennendeVann" />
		<tag k="ssr:hovedgruppe" v="ferskvann" />
		<tag k="ssr:stedsnr" v="140575" />
		<tag k="ssr:type" v="bekk" />
		<tag k="waterway" v="stream" />
	</node>
	<node lat="69.47510277469631" lon="20.686180524119646" id="-47983">
		<tag k="name" v="Bievlačahca" />
		<tag k="name:se" v="Bievlačahca" />
		<tag k="natural" v="valley" />
		<tag k="place" v="locality" />
		<tag k="ssr:date" v="2019-12-27" />
		<tag k="ssr:gruppe" v="senkninger" />
		<tag k="ssr:hovedgruppe" v="terreng" />
		<tag k="ssr:stedsnr" v="140589" />
		<tag k="ssr:type" v="skar" />
	</node>
	<node lat="69.47388333293782" lon="20.93358330886566" id="-47984">
		<tag k="name" v="Skáidejohka" />
		<tag k="name:se" v="Skáidejohka" />
		<tag k="old_name:se" v="Skáidijohka" />
		<tag k="ssr:date" v="2019-12-27" />
		<tag k="ssr:gruppe" v="rennendeVann" />
		<tag k="ssr:hovedgruppe" v="ferskvann" />
		<tag k="ssr:stedsnr" v="140595" />
		<tag k="ssr:type" v="bekk" />
		<tag k="waterway" v="stream" />
	</node>
	<node lat="69.52615555859431" lon="20.610977753288974" id="-47986">
		<tag k="name" v="Deappogeađgi" />
		<tag k="name:se" v="Deappogeađgi" />
		<tag k="natural" v="hill" />
		<tag k="place" v="locality" />
		<tag k="ssr:date" v="2019-12-27" />
		<tag k="ssr:gruppe" v="høyder" />
		<tag k="ssr:hovedgruppe" v="terreng" />
		<tag k="ssr:stedsnr" v="157202" />
		<tag k="ssr:type" v="berg" />
	</node>
	<node lat="69.52683611189306" lon="20.501138864408308" id="-47987">
		<tag k="name" v="Stuoralatnja" />
		<tag k="name:se" v="Stuoralatnja" />
		<tag k="natural" v="slope" />
		<tag k="place" v="locality" />
		<tag k="ssr:date" v="2019-12-27" />
		<tag k="ssr:gruppe" v="skråninger" />
		<tag k="ssr:hovedgruppe" v="terreng" />
		<tag k="ssr:stedsnr" v="174118" />
		<tag k="ssr:type" v="li" />
	</node>
	<node lat="69.52950556045447" lon="20.552883305791823" id="-47988">
		<tag k="name" v="Grinta" />
		<tag k="name:no" v="Grinta" />
		<tag k="natural" v="hill" />
		<tag k="place" v="locality" />
		<tag k="ssr:date" v="2019-12-27" />
		<tag k="ssr:gruppe" v="høyder" />
		<tag k="ssr:hovedgruppe" v="terreng" />
		<tag k="ssr:stedsnr" v="174129" />
		<tag k="ssr:type" v="haug" />
	</node>
	<node lat="69.53216389214474" lon="20.54444998261804" id="-47989">
		<tag k="name" v="Aspegropa" />
		<tag k="name:no" v="Aspegropa" />
		<tag k="natural" v="valley" />
		<tag k="place" v="locality" />
		<tag k="ssr:date" v="2019-12-27" />
		<tag k="ssr:gruppe" v="senkninger" />
		<tag k="ssr:hovedgruppe" v="terreng" />
		<tag k="ssr:stedsnr" v="174149" />
		<tag k="ssr:type" v="søkk" />
	</node>
	<node lat="69.49776666320297" lon="20.37018331678222" id="-47990">
		<tag k="name" v="Ytterelva" />
		<tag k="name:no" v="Ytterelva" />
		<tag k="ssr:date" v="2021-06-08" />
		<tag k="ssr:gruppe" v="rennendeVann" />
		<tag k="ssr:hovedgruppe" v="ferskvann" />
		<tag k="ssr:stedsnr" v="261280" />
		<tag k="ssr:type" v="bekk" />
		<tag k="waterway" v="stream" />
	</node>
	<node lat="69.46633055499309" lon="20.540455545516" id="-47991">
		<tag k="name" v="Gálasavvon" />
		<tag k="name:se" v="Gálasavvon" />
		<tag k="natural" v="water" />
		<tag k="ssr:date" v="2019-12-27" />
		<tag k="ssr:gruppe" v="rennendeVann" />
		<tag k="ssr:hovedgruppe" v="ferskvann" />
		<tag k="ssr:stedsnr" v="174213" />
		<tag k="ssr:type" v="lon" />
		<tag k="water" v="lake" />
	</node>
	<node lat="69.470947224033" lon="20.52676386547134" id="-47992">
		<tag k="name" v="Njirrangieddi" />
		<tag k="name:se" v="Njirrangieddi" />
		<tag k="place" v="locality" />
		<tag k="ssr:date" v="2019-12-27" />
		<tag k="ssr:gruppe" v="flater" />
		<tag k="ssr:hovedgruppe" v="terreng" />
		<tag k="ssr:stedsnr" v="174219" />
		<tag k="ssr:type" v="mo" />
	</node>
	<node lat="69.52107777540884" lon="20.792908314597902" id="-47993">
		<tag k="name" v="Návrrašbákti" />
		<tag k="name:se" v="Návrrašbákti" />
		<tag k="natural" v="hill" />
		<tag k="place" v="locality" />
		<tag k="ssr:date" v="2019-12-27" />
		<tag k="ssr:gruppe" v="høyder" />
		<tag k="ssr:hovedgruppe" v="terreng" />
		<tag k="ssr:stedsnr" v="174459" />
		<tag k="ssr:type" v="berg" />
	</node>
	<node lat="69.61570833526692" lon="20.526894416334624" id="-47994">
		<tag k="name" v="Ravnaberget" />
		<tag k="name:no" v="Ravnaberget" />
		<tag k="natural" v="hill" />
		<tag k="place" v="locality" />
		<tag k="ssr:date" v="2019-12-27" />
		<tag k="ssr:gruppe" v="høyder" />
		<tag k="ssr:hovedgruppe" v="terreng" />
		<tag k="ssr:stedsnr" v="175011" />
		<tag k="ssr:type" v="berg" />
	</node>
	<node lat="69.61106389131832" lon="20.521080543375902" id="-47995">
		<tag k="name" v="Tjeldmyra" />
		<tag k="name:no" v="Tjeldmyra" />
		<tag k="natural" v="wetland" />
		<tag k="ssr:date" v="2019-12-27" />
		<tag k="ssr:gruppe" v="våtmark" />
		<tag k="ssr:hovedgruppe" v="markslag" />
		<tag k="ssr:stedsnr" v="175014" />
		<tag k="ssr:type" v="myr" />
	</node>
	<node lat="69.51883611193136" lon="20.53656387047625" id="-47996">
		<tag k="name" v="Riebančorru" />
		<tag k="name:se" v="Riebančorru" />
		<tag k="natural" v="hill" />
		<tag k="place" v="locality" />
		<tag k="ssr:date" v="2019-12-27" />
		<tag k="ssr:gruppe" v="høyder" />
		<tag k="ssr:hovedgruppe" v="terreng" />
		<tag k="ssr:stedsnr" v="175102" />
		<tag k="ssr:type" v="haug" />
	</node>
	<node lat="69.41677221979987" lon="20.956136088931896" id="-47997">
		<tag k="highway" v="path" />
		<tag k="name" v="Guhkessviŋga" />
		<tag k="name:se" v="Guhkessviŋga" />
		<tag k="ssr:date" v="2019-12-27" />
		<tag k="ssr:gruppe" v="veg" />
		<tag k="ssr:hovedgruppe" v="infrastruktur" />
		<tag k="ssr:stedsnr" v="175305" />
		<tag k="ssr:type" v="sti" />
	</node>
	<node lat="69.44804999892126" lon="20.94757498467311" id="-47998">
		<tag k="name" v="Ealhuogudat" />
		<tag k="name:se" v="Ealhuogudat" />
		<tag k="natural" v="slope" />
		<tag k="place" v="locality" />
		<tag k="ssr:date" v="2019-12-27" />
		<tag k="ssr:gruppe" v="skråninger" />
		<tag k="ssr:hovedgruppe" v="terreng" />
		<tag k="ssr:stedsnr" v="175441" />
		<tag k="ssr:type" v="li" />
	</node>
	<node lat="69.39991944494508" lon="21.010466640933384" id="-47999">
		<tag k="name" v="Miesevárluohkát" />
		<tag k="name:se" v="Miesevárluohkát" />
		<tag k="natural" v="slope" />
		<tag k="place" v="locality" />
		<tag k="ssr:date" v="2019-12-27" />
		<tag k="ssr:gruppe" v="skråninger" />
		<tag k="ssr:hovedgruppe" v="terreng" />
		<tag k="ssr:stedsnr" v="175455" />
		<tag k="ssr:type" v="bakke" />
	</node>
	<node lat="69.3918555548521" lon="21.023013849196772" id="-48000">
		<tag k="name" v="Rovejalga" />
		<tag k="name:se" v="Rovejalga" />
		<tag k="place" v="locality" />
		<tag k="ssr:date" v="2019-12-27" />
		<tag k="ssr:gruppe" v="flater" />
		<tag k="ssr:hovedgruppe" v="terreng" />
		<tag k="ssr:stedsnr" v="175460" />
		<tag k="ssr:type" v="slette" />
	</node>
	<node lat="69.39758611261287" lon="20.973161076331518" id="-48001">
		<tag k="name" v="Magergorsa" />
		<tag k="name:se" v="Magergorsa" />
		<tag k="natural" v="valley" />
		<tag k="place" v="locality" />
		<tag k="ssr:date" v="2019-12-27" />
		<tag k="ssr:gruppe" v="senkninger" />
		<tag k="ssr:hovedgruppe" v="terreng" />
		<tag k="ssr:stedsnr" v="175464" />
		<tag k="ssr:type" v="skar" />
	</node>
	<node lat="69.5170250004296" lon="20.801988853857736" id="-48002">
		<tag k="name" v="Gievdnečorru" />
		<tag k="name:se" v="Gievdnečorru" />
		<tag k="natural" v="hill" />
		<tag k="place" v="locality" />
		<tag k="ssr:date" v="2019-12-27" />
		<tag k="ssr:gruppe" v="høyder" />
		<tag k="ssr:hovedgruppe" v="terreng" />
		<tag k="ssr:stedsnr" v="175471" />
		<tag k="ssr:type" v="haug" />
	</node>
	<node lat="69.51936110731927" lon="20.83290275797062" id="-48003">
		<tag k="name" v="Liigevággi" />
		<tag k="name:se" v="Liigevággi" />
		<tag k="natural" v="valley" />
		<tag k="place" v="locality" />
		<tag k="ssr:date" v="2019-12-27" />
		<tag k="ssr:gruppe" v="senkninger" />
		<tag k="ssr:hovedgruppe" v="terreng" />
		<tag k="ssr:stedsnr" v="175473" />
		<tag k="ssr:type" v="dal" />
	</node>
	<node lat="69.49971667185528" lon="20.6106638607196" id="-48004">
		<tag k="name" v="Badjegiettvuolit" />
		<tag k="name:se" v="Badjegiettvuolit" />
		<tag k="natural" v="slope" />
		<tag k="place" v="locality" />
		<tag k="ssr:date" v="2019-12-27" />
		<tag k="ssr:gruppe" v="skråninger" />
		<tag k="ssr:hovedgruppe" v="terreng" />
		<tag k="ssr:stedsnr" v="175868" />
		<tag k="ssr:type" v="li" />
	</node>
	<node lat="69.72960555941056" lon="20.536169415472745" id="-48005">
		<tag k="name" v="Lauvgropa" />
		<tag k="name:no" v="Lauvgropa" />
		<tag k="natural" v="valley" />
		<tag k="place" v="locality" />
		<tag k="ssr:date" v="2019-12-27" />
		<tag k="ssr:gruppe" v="senkninger" />
		<tag k="ssr:hovedgruppe" v="terreng" />
		<tag k="ssr:stedsnr" v="175875" />
		<tag k="ssr:type" v="søkk" />
	</node>
	<node lat="69.54807777679534" lon="20.574599992030098" id="-48006">
		<tag k="name" v="Oterholla" />
		<tag k="name:no" v="Oterholla" />
		<tag k="natural" v="bay" />
		<tag k="ssr:date" v="2019-12-27" />
		<tag k="ssr:gruppe" v="kystkontur" />
		<tag k="ssr:hovedgruppe" v="sjø" />
		<tag k="ssr:stedsnr" v="175762" />
		<tag k="ssr:type" v="vikISjø" />
	</node>
	<node lat="69.38743610782694" lon="20.567361089746903" id="-48007">
		<tag k="name" v="Rissegoahti" />
		<tag k="name:se" v="Rissegoahti" />
		<tag k="place" v="locality" />
		<tag k="ssr:date" v="2019-12-27" />
		<tag k="ssr:gruppe" v="bolighus" />
		<tag k="ssr:hovedgruppe" v="bebyggelse" />
		<tag k="ssr:stedsnr" v="175913" />
		<tag k="ssr:type" v="gammelBosettingsplass" />
	</node>
	<node lat="69.38198055607076" lon="20.573527765713543" id="-48008">
		<tag k="name" v="Skáidenjunni" />
		<tag k="name:se" v="Skáidenjunni" />
		<tag k="natural" v="cape" />
		<tag k="ssr:date" v="2019-12-27" />
		<tag k="ssr:gruppe" v="ferskvannskontur" />
		<tag k="ssr:hovedgruppe" v="ferskvann" />
		<tag k="ssr:stedsnr" v="175915" />
		<tag k="ssr:type" v="nes" />
	</node>
	<node lat="69.37780833743285" lon="20.553191653685186" id="-48009">
		<tag k="fixme" v="consider natural=peak for the most distinct mountains in the district" />
		<tag k="name" v="Heaidnanjunni" />
		<tag k="name:se" v="Heaidnanjunni" />
		<tag k="natural" v="hill" />
		<tag k="place" v="locality" />
		<tag k="ssr:date" v="2019-12-27" />
		<tag k="ssr:gruppe" v="høyder" />
		<tag k="ssr:hovedgruppe" v="terreng" />
		<tag k="ssr:stedsnr" v="261519" />
		<tag k="ssr:type" v="ås" />
	</node>
	<node lat="69.39181944220063" lon="20.876861084949205" id="-48010">
		<tag k="name" v="Moskkuvággi" />
		<tag k="name:se" v="Moskkuvággi" />
		<tag k="natural" v="valley" />
		<tag k="place" v="locality" />
		<tag k="ssr:date" v="2019-12-27" />
		<tag k="ssr:gruppe" v="senkninger" />
		<tag k="ssr:hovedgruppe" v="terreng" />
		<tag k="ssr:stedsnr" v="261523" />
		<tag k="ssr:type" v="dal" />
	</node>
	<node lat="69.35588055329592" lon="20.910811073412205" id="-48011">
		<tag k="name" v="Unna Njárggajávri" />
		<tag k="name:se" v="Unna Njárggajávri" />
		<tag k="natural" v="water" />
		<tag k="old_name:se" v="Njárggajávri, unna" />
		<tag k="ssr:date" v="2019-12-27" />
		<tag k="ssr:gruppe" v="stilleståendeVann" />
		<tag k="ssr:hovedgruppe" v="ferskvann" />
		<tag k="ssr:stedsnr" v="261574" />
		<tag k="ssr:type" v="tjern" />
	</node>
	<node lat="69.74395833369343" lon="20.51460831246459" id="-48012">
		<tag k="name" v="Bjørkli" />
		<tag k="name:no" v="Bjørkli" />
		<tag k="place" v="farm" />
		<tag k="ssr:date" v="2019-12-27" />
		<tag k="ssr:gruppe" v="gardsbebyggelse" />
		<tag k="ssr:hovedgruppe" v="bebyggelse" />
		<tag k="ssr:stedsnr" v="261593" />
		<tag k="ssr:type" v="bruk" />
	</node>
	<node lat="69.40026944852269" lon="20.661474989213314" id="-48013">
		<tag k="fixme" v="consider natural=peak for the most distinct mountains in the district" />
		<tag k="name" v="Čiččenvárri" />
		<tag k="name:se" v="Čiččenvárri" />
		<tag k="natural" v="hill" />
		<tag k="place" v="locality" />
		<tag k="ssr:date" v="2019-12-27" />
		<tag k="ssr:gruppe" v="høyder" />
		<tag k="ssr:hovedgruppe" v="terreng" />
		<tag k="ssr:stedsnr" v="261528" />
		<tag k="ssr:type" v="fjell" />
	</node>
	<node lat="69.40444444127473" lon="20.601016637270007" id="-48014">
		<tag k="fixme" v="consider natural=peak for the most distinct mountains in the district" />
		<tag k="name" v="Čiččenčohkka" />
		<tag k="name:se" v="Čiččenčohkka" />
		<tag k="natural" v="hill" />
		<tag k="place" v="locality" />
		<tag k="ssr:date" v="2019-12-27" />
		<tag k="ssr:gruppe" v="høyder" />
		<tag k="ssr:hovedgruppe" v="terreng" />
		<tag k="ssr:stedsnr" v="261530" />
		<tag k="ssr:type" v="ås" />
	</node>
	<node lat="69.4192638917361" lon="20.943286080848385" id="-48015">
		<tag k="name" v="Sorbmejohka - Ørnedalselva" />
		<tag k="name:no" v="Ørnedalselva" />
		<tag k="name:se" v="Sorbmejohka" />
		<tag k="ssr:date" v="2019-12-27" />
		<tag k="ssr:gruppe" v="rennendeVann" />
		<tag k="ssr:hovedgruppe" v="ferskvann" />
		<tag k="ssr:stedsnr" v="261533" />
		<tag k="ssr:type" v="bekk" />
		<tag k="waterway" v="stream" />
	</node>
	<node lat="69.44037499642805" lon="20.774808318195934" id="-48016">
		<tag k="fixme" v="consider natural=peak for the most distinct mountains in the district" />
		<tag k="name" v="Bievlavárri" />
		<tag k="name:se" v="Bievlavárri" />
		<tag k="natural" v="hill" />
		<tag k="place" v="locality" />
		<tag k="ssr:date" v="2019-12-27" />
		<tag k="ssr:gruppe" v="høyder" />
		<tag k="ssr:hovedgruppe" v="terreng" />
		<tag k="ssr:stedsnr" v="261540" />
		<tag k="ssr:type" v="fjell" />
	</node>
	<node lat="69.47589166935617" lon="20.644338863043497" id="-48017">
		<tag k="name" v="Kopperlia" />
		<tag k="name:no" v="Kopperlia" />
		<tag k="natural" v="slope" />
		<tag k="place" v="locality" />
		<tag k="ssr:date" v="2019-12-27" />
		<tag k="ssr:gruppe" v="skråninger" />
		<tag k="ssr:hovedgruppe" v="terreng" />
		<tag k="ssr:stedsnr" v="261617" />
		<tag k="ssr:type" v="li" />
	</node>
	<node lat="69.59780000135692" lon="20.878849982124073" id="-48018">
		<tag k="name" v="Gievačahca" />
		<tag k="name:se" v="Gievačahca" />
		<tag k="natural" v="valley" />
		<tag k="place" v="locality" />
		<tag k="ssr:date" v="2019-12-27" />
		<tag k="ssr:gruppe" v="senkninger" />
		<tag k="ssr:hovedgruppe" v="terreng" />
		<tag k="ssr:stedsnr" v="261649" />
		<tag k="ssr:type" v="skar" />
	</node>
	<node lat="69.5315611086717" lon="20.465922202574067" id="-48019">
		<tag k="fixme" v="consider natural=peak for the most distinct mountains in the district" />
		<tag k="name" v="Geađgevárri" />
		<tag k="name:se" v="Geađgevárri" />
		<tag k="natural" v="hill" />
		<tag k="place" v="locality" />
		<tag k="ssr:date" v="2019-12-27" />
		<tag k="ssr:gruppe" v="høyder" />
		<tag k="ssr:hovedgruppe" v="terreng" />
		<tag k="ssr:stedsnr" v="261619" />
		<tag k="ssr:type" v="ås" />
	</node>
	<node lat="69.54193055843358" lon="20.55304999341038" id="-48020">
		<tag k="name" v="Leirvollen" />
		<tag k="name:no" v="Leirvollen" />
		<tag k="place" v="farm" />
		<tag k="ssr:date" v="2019-12-27" />
		<tag k="ssr:gruppe" v="gardsbebyggelse" />
		<tag k="ssr:hovedgruppe" v="bebyggelse" />
		<tag k="ssr:stedsnr" v="261626" />
		<tag k="ssr:type" v="bruk" />
	</node>
	<node lat="69.55817500425668" lon="20.650888877731983" id="-48021">
		<tag k="alt_name:no" v="Raudfjellet" />
		<tag k="fixme" v="consider natural=peak for the most distinct mountains in the district" />
		<tag k="name" v="Rødfjellet" />
		<tag k="name:no" v="Rødfjellet" />
		<tag k="natural" v="hill" />
		<tag k="place" v="locality" />
		<tag k="ssr:date" v="2019-12-27" />
		<tag k="ssr:gruppe" v="høyder" />
		<tag k="ssr:hovedgruppe" v="terreng" />
		<tag k="ssr:stedsnr" v="261656" />
		<tag k="ssr:type" v="ås" />
	</node>
	<node lat="69.59170806517372" lon="20.56322926766561" id="-48022">
		<tag k="name" v="Åsli" />
		<tag k="name:no" v="Åsli" />
		<tag k="place" v="farm" />
		<tag k="ssr:date" v="2019-12-27" />
		<tag k="ssr:gruppe" v="gardsbebyggelse" />
		<tag k="ssr:hovedgruppe" v="bebyggelse" />
		<tag k="ssr:stedsnr" v="261658" />
		<tag k="ssr:type" v="bruk" />
	</node>
	<node lat="69.57516111372223" lon="20.584677763690216" id="-48023">
		<tag k="name" v="Noammervákkinjárga - Nommedalsneset - Numerovankanniemi" />
		<tag k="name:fkv" v="Numerovankanniemi" />
		<tag k="name:no" v="Nommedalsneset" />
		<tag k="name:se" v="Noammervákkinjárga" />
		<tag k="natural" v="cape" />
		<tag k="ssr:date" v="2019-12-27" />
		<tag k="ssr:gruppe" v="kystkontur" />
		<tag k="ssr:hovedgruppe" v="sjø" />
		<tag k="ssr:stedsnr" v="261663" />
		<tag k="ssr:type" v="nesISjø" />
	</node>
	<node lat="69.51725000286147" lon="20.634688883139614" id="-48024">
		<tag k="name" v="Nymoen" />
		<tag k="name:no" v="Nymoen" />
		<tag k="place" v="farm" />
		<tag k="ssr:date" v="2019-12-27" />
		<tag k="ssr:gruppe" v="gardsbebyggelse" />
		<tag k="ssr:hovedgruppe" v="bebyggelse" />
		<tag k="ssr:stedsnr" v="261632" />
		<tag k="ssr:type" v="bruk" />
	</node>
	<node lat="69.5258861150681" lon="20.546999986945682" id="-48025">
		<tag k="name" v="Lia" />
		<tag k="name:no" v="Lia" />
		<tag k="place" v="farm" />
		<tag k="ssr:date" v="2019-12-27" />
		<tag k="ssr:gruppe" v="gardsbebyggelse" />
		<tag k="ssr:hovedgruppe" v="bebyggelse" />
		<tag k="ssr:stedsnr" v="261638" />
		<tag k="ssr:type" v="bruk" />
	</node>
	<node lat="69.53048055706087" lon="20.698861100931033" id="-48026">
		<tag k="name" v="Lássejohka - Lassielva" />
		<tag k="name:no" v="Lassielva" />
		<tag k="name:se" v="Lássejohka" />
		<tag k="ssr:date" v="2019-12-27" />
		<tag k="ssr:gruppe" v="rennendeVann" />
		<tag k="ssr:hovedgruppe" v="ferskvann" />
		<tag k="ssr:stedsnr" v="261642" />
		<tag k="ssr:type" v="bekk" />
		<tag k="waterway" v="stream" />
	</node>
	<node lat="69.49243333731445" lon="21.113608302236077" id="-48027">
		<tag k="name" v="Stuora Njuorjojávri" />
		<tag k="name:se" v="Stuora Njuorjojávri" />
		<tag k="natural" v="water" />
		<tag k="old_name:se" v="Njuorjojávri, stuora;Njuorjojávri" />
		<tag k="ssr:date" v="2019-12-27" />
		<tag k="ssr:gruppe" v="stilleståendeVann" />
		<tag k="ssr:hovedgruppe" v="ferskvann" />
		<tag k="ssr:stedsnr" v="261677" />
		<tag k="ssr:type" v="vann" />
		<tag k="water" v="lake" />
	</node>
	<node lat="69.63467778077249" lon="20.46583609144336" id="-48028">
		<tag k="name" v="Storklubben" />
		<tag k="name:no" v="Storklubben" />
		<tag k="natural" v="cape" />
		<tag k="ssr:date" v="2019-12-27" />
		<tag k="ssr:gruppe" v="kystkontur" />
		<tag k="ssr:hovedgruppe" v="sjø" />
		<tag k="ssr:stedsnr" v="179460" />
		<tag k="ssr:type" v="nesISjø" />
	</node>
	<node lat="69.53996944816414" lon="20.652041646809575" id="-48029">
		<tag k="name" v="Kálladearbmi - Kallabakken" />
		<tag k="name:no" v="Kallabakken" />
		<tag k="name:se" v="Kálladearbmi" />
		<tag k="natural" v="slope" />
		<tag k="place" v="locality" />
		<tag k="ssr:date" v="2019-12-27" />
		<tag k="ssr:gruppe" v="skråninger" />
		<tag k="ssr:hovedgruppe" v="terreng" />
		<tag k="ssr:stedsnr" v="181161" />
		<tag k="ssr:type" v="bakke" />
	</node>
	<node lat="69.53940556074183" lon="20.651433307118488" id="-48030">
		<tag k="name" v="Skáhpeleahskohpi" />
		<tag k="name:se" v="Skáhpeleahskohpi" />
		<tag k="place" v="locality" />
		<tag k="ssr:date" v="2019-12-27" />
		<tag k="ssr:gruppe" v="terrengdetaljer" />
		<tag k="ssr:hovedgruppe" v="terreng" />
		<tag k="ssr:stedsnr" v="181163" />
		<tag k="ssr:type" v="annenTerrengdetalj" />
	</node>
	<node lat="69.6316888917729" lon="20.469883307060112" id="-48032">
		<tag k="name" v="Ytsteby" />
		<tag k="name:no" v="Ytsteby" />
		<tag k="place" v="farm" />
		<tag k="ssr:date" v="2019-12-27" />
		<tag k="ssr:gruppe" v="gardsbebyggelse" />
		<tag k="ssr:hovedgruppe" v="bebyggelse" />
		<tag k="ssr:stedsnr" v="181665" />
		<tag k="ssr:type" v="bruk" />
	</node>
	<node lat="69.67048056000303" lon="20.494394418900267" id="-48036">
		<tag k="name" v="Nordmannvik" />
		<tag k="name:no" v="Nordmannvik" />
		<tag k="place" v="farm" />
		<tag k="ssr:date" v="2019-12-27" />
		<tag k="ssr:gruppe" v="gardsbebyggelse" />
		<tag k="ssr:hovedgruppe" v="bebyggelse" />
		<tag k="ssr:stedsnr" v="181754" />
		<tag k="ssr:type" v="bruk" />
	</node>
	<node lat="69.5557638889268" lon="20.609299982613933" id="-48039">
		<tag k="name" v="Geađgenjárjohka" />
		<tag k="name:se" v="Geađgenjárjohka" />
		<tag k="ssr:date" v="2019-12-27" />
		<tag k="ssr:gruppe" v="rennendeVann" />
		<tag k="ssr:hovedgruppe" v="ferskvann" />
		<tag k="ssr:stedsnr" v="181765" />
		<tag k="ssr:type" v="bekk" />
		<tag k="waterway" v="stream" />
	</node>
	<node lat="69.57768888594545" lon="20.40219164585371" id="-48040">
		<tag k="name" v="Bukta" />
		<tag k="name:no" v="Bukta" />
		<tag k="place" v="farm" />
		<tag k="ssr:date" v="2019-12-27" />
		<tag k="ssr:gruppe" v="gardsbebyggelse" />
		<tag k="ssr:hovedgruppe" v="bebyggelse" />
		<tag k="ssr:stedsnr" v="261963" />
		<tag k="ssr:type" v="bruk" />
	</node>
	<node lat="69.60998611351167" lon="20.64488887908799" id="-48042">
		<tag k="name" v="Stuorajeaggi - Stormyra - Isojänkkä" />
		<tag k="name:fkv" v="Isojänkkä" />
		<tag k="name:no" v="Stormyra" />
		<tag k="name:se" v="Stuorajeaggi" />
		<tag k="natural" v="wetland" />
		<tag k="ssr:date" v="2019-12-27" />
		<tag k="ssr:gruppe" v="våtmark" />
		<tag k="ssr:hovedgruppe" v="markslag" />
		<tag k="ssr:stedsnr" v="262658" />
		<tag k="ssr:type" v="myr" />
	</node>
	<node lat="69.60795278129295" lon="20.593194436863456" id="-48043">
		<tag k="name" v="Dálvvesvággi - Olderdalen - Talosvankka" />
		<tag k="name:fkv" v="Talosvankka" />
		<tag k="name:no" v="Olderdalen" />
		<tag k="name:se" v="Dálvvesvággi" />
		<tag k="natural" v="valley" />
		<tag k="place" v="locality" />
		<tag k="ssr:date" v="2019-12-27" />
		<tag k="ssr:gruppe" v="senkninger" />
		<tag k="ssr:hovedgruppe" v="terreng" />
		<tag k="ssr:stedsnr" v="262678" />
		<tag k="ssr:type" v="dal" />
	</node>
	<node lat="69.518361107597" lon="20.630441649442353" id="-48044">
		<tag k="fixme" v="consider place=hamlet" />
		<tag k="name" v="Skárfvággi - Skardalen - Skaarfvankka" />
		<tag k="name:fkv" v="Skaarfvankka" />
		<tag k="name:no" v="Skardalen" />
		<tag k="name:se" v="Skárfvággi" />
		<tag k="place" v="village" />
		<tag k="ssr:date" v="2021-06-08" />
		<tag k="ssr:gruppe" v="bebyggelsesområder" />
		<tag k="ssr:hovedgruppe" v="bebyggelse" />
		<tag k="ssr:stedsnr" v="265701" />
		<tag k="ssr:type" v="bygdelagBygd" />
	</node>
	<node lat="69.64580833721786" lon="20.500949973515183" id="-48045">
		<tag k="name" v="Rypbergan" />
		<tag k="name:no" v="Rypbergan" />
		<tag k="natural" v="hill" />
		<tag k="place" v="locality" />
		<tag k="ssr:date" v="2019-12-27" />
		<tag k="ssr:gruppe" v="høyder" />
		<tag k="ssr:hovedgruppe" v="terreng" />
		<tag k="ssr:stedsnr" v="201543" />
		<tag k="ssr:type" v="berg" />
	</node>
	<node lat="69.65149167168741" lon="20.62028053498367" id="-48046">
		<tag k="fixme" v="multiple name tags, choose one and add the other to alt_name" />
		<tag k="name" v="Dážavákkijohka - Vikelva;Storelva;Nordmannvikelva" />
		<tag k="name:no" v="Vikelva;Storelva;Nordmannvikelva" />
		<tag k="name:se" v="Dážavákkijohka" />
		<tag k="ssr:date" v="2019-12-27" />
		<tag k="ssr:gruppe" v="rennendeVann" />
		<tag k="ssr:hovedgruppe" v="ferskvann" />
		<tag k="ssr:stedsnr" v="201544" />
		<tag k="ssr:type" v="elv" />
		<tag k="waterway" v="river" />
	</node>
	<node lat="69.71886662019261" lon="20.525304580797094" id="-48047">
		<tag k="loc_name:se" v="Lađđonjárga" />
		<tag k="name" v="Engenes" />
		<tag k="name:no" v="Engenes" />
		<tag k="place" v="hamlet" />
		<tag k="ssr:date" v="2021-06-28" />
		<tag k="ssr:gruppe" v="bebyggelsesområder" />
		<tag k="ssr:hovedgruppe" v="bebyggelse" />
		<tag k="ssr:stedsnr" v="269021" />
		<tag k="ssr:type" v="grend" />
	</node>
	<node lat="69.52949166346708" lon="20.60638331714594" id="-48048">
		<tag k="name" v="Fierrannjárga" />
		<tag k="name:se" v="Fierrannjárga" />
		<tag k="natural" v="cape" />
		<tag k="ssr:date" v="2019-12-27" />
		<tag k="ssr:gruppe" v="kystkontur" />
		<tag k="ssr:hovedgruppe" v="sjø" />
		<tag k="ssr:stedsnr" v="218190" />
		<tag k="ssr:type" v="nesISjø" />
	</node>
	<node lat="69.52602703263082" lon="20.527526760047806" id="-48049">
		<tag k="alt_name:no" v="Goržži mánáidgárdi" />
		<tag k="amenity" v="kindergarten" />
		<tag k="name" v="Fossen barnehage" />
		<tag k="name:no" v="Fossen barnehage" />
		<tag k="ssr:date" v="2021-08-11" />
		<tag k="ssr:gruppe" v="institusjoner" />
		<tag k="ssr:hovedgruppe" v="bebyggelse" />
		<tag k="ssr:stedsnr" v="222307" />
		<tag k="ssr:type" v="barnehage" />
	</node>
	<node lat="69.49191666844897" lon="20.31667220631525" id="-48051">
		<tag k="name" v="Gorgin" />
		<tag k="name:se" v="Gorgin" />
		<tag k="natural" v="shoal" />
		<tag k="place" v="locality" />
		<tag k="ssr:date" v="2019-12-27" />
		<tag k="ssr:gruppe" v="grunnerISjø" />
		<tag k="ssr:hovedgruppe" v="sjø" />
		<tag k="ssr:stedsnr" v="449548" />
		<tag k="ssr:type" v="grunneISjø" />
	</node>
	<node lat="69.52392778147554" lon="20.499797216312345" id="-48052">
		<tag k="name" v="Stuorabákti" />
		<tag k="name:se" v="Stuorabákti" />
		<tag k="natural" v="hill" />
		<tag k="place" v="locality" />
		<tag k="ssr:date" v="2019-12-27" />
		<tag k="ssr:gruppe" v="høyder" />
		<tag k="ssr:hovedgruppe" v="terreng" />
		<tag k="ssr:stedsnr" v="235108" />
		<tag k="ssr:type" v="berg" />
	</node>
	<node lat="69.4441611096816" lon="20.544169433894236" id="-48053">
		<tag k="name" v="Vállasfielbmá" />
		<tag k="name:se" v="Vállasfielbmá" />
		<tag k="ssr:date" v="2019-12-27" />
		<tag k="ssr:gruppe" v="rennendeVann" />
		<tag k="ssr:hovedgruppe" v="ferskvann" />
		<tag k="ssr:stedsnr" v="235227" />
		<tag k="ssr:type" v="bekk" />
		<tag k="waterway" v="stream" />
	</node>
	<node lat="69.52042778123636" lon="20.78269720861975" id="-48054">
		<tag k="name" v="Márjjahoallu" />
		<tag k="name:se" v="Márjjahoallu" />
		<tag k="natural" v="hill" />
		<tag k="place" v="locality" />
		<tag k="ssr:date" v="2019-12-27" />
		<tag k="ssr:gruppe" v="høyder" />
		<tag k="ssr:hovedgruppe" v="terreng" />
		<tag k="ssr:stedsnr" v="235436" />
		<tag k="ssr:type" v="haug" />
	</node>
	<node lat="69.52050277979184" lon="20.7774221992523" id="-48055">
		<tag k="name" v="Bánnahanbákti" />
		<tag k="name:se" v="Bánnahanbákti" />
		<tag k="natural" v="hill" />
		<tag k="place" v="locality" />
		<tag k="ssr:date" v="2019-12-27" />
		<tag k="ssr:gruppe" v="høyder" />
		<tag k="ssr:hovedgruppe" v="terreng" />
		<tag k="ssr:stedsnr" v="235437" />
		<tag k="ssr:type" v="berg" />
	</node>
	<node lat="69.47830278225646" lon="20.846486077433934" id="-48056">
		<tag k="name" v="Čolpičohkka" />
		<tag k="name:se" v="Čolpičohkka" />
		<tag k="natural" v="hill" />
		<tag k="place" v="locality" />
		<tag k="ssr:date" v="2019-12-27" />
		<tag k="ssr:gruppe" v="høyder" />
		<tag k="ssr:hovedgruppe" v="terreng" />
		<tag k="ssr:stedsnr" v="235551" />
		<tag k="ssr:type" v="haug" />
	</node>
	<node lat="69.53379722319964" lon="20.768288877739536" id="-48057">
		<tag k="loc_name:se" v="Davit Vággečorru;Vuolit Vággečorru" />
		<tag k="name" v="Vággečorru" />
		<tag k="name:se" v="Vággečorru" />
		<tag k="natural" v="hill" />
		<tag k="place" v="locality" />
		<tag k="ssr:date" v="2019-12-27" />
		<tag k="ssr:gruppe" v="høyder" />
		<tag k="ssr:hovedgruppe" v="terreng" />
		<tag k="ssr:stedsnr" v="235579" />
		<tag k="ssr:type" v="haug" />
	</node>
	<node lat="69.74359444375645" lon="20.509619436240087" id="-48058">
		<tag k="name" v="Vedhøgga" />
		<tag k="name:no" v="Vedhøgga" />
		<tag k="natural" v="slope" />
		<tag k="place" v="locality" />
		<tag k="ssr:date" v="2019-12-27" />
		<tag k="ssr:gruppe" v="skråninger" />
		<tag k="ssr:hovedgruppe" v="terreng" />
		<tag k="ssr:stedsnr" v="235903" />
		<tag k="ssr:type" v="li" />
	</node>
	<node lat="69.55823055679838" lon="20.51908331759137" id="-48059">
		<tag k="name" v="Čohkápmir" />
		<tag k="name:se" v="Čohkápmir" />
		<tag k="natural" v="hill" />
		<tag k="place" v="locality" />
		<tag k="ssr:date" v="2019-12-27" />
		<tag k="ssr:gruppe" v="høyder" />
		<tag k="ssr:hovedgruppe" v="terreng" />
		<tag k="ssr:stedsnr" v="236005" />
		<tag k="ssr:type" v="haug" />
	</node>
	<node lat="69.51098889118401" lon="20.355672216838816" id="-48060">
		<tag k="name" v="Buollán" />
		<tag k="name:se" v="Buollán" />
		<tag k="place" v="locality" />
		<tag k="ssr:date" v="2019-12-27" />
		<tag k="ssr:gruppe" v="flater" />
		<tag k="ssr:hovedgruppe" v="terreng" />
		<tag k="ssr:stedsnr" v="236205" />
		<tag k="ssr:type" v="mo" />
	</node>
	<node lat="69.59331895167077" lon="20.614544979156612" id="-48061">
		<tag k="fixme" v="consider natural=peak for the most distinct mountains in the district" />
		<tag k="name" v="Askevárri" />
		<tag k="name:se" v="Askevárri" />
		<tag k="natural" v="hill" />
		<tag k="place" v="locality" />
		<tag k="ssr:date" v="2019-12-27" />
		<tag k="ssr:gruppe" v="høyder" />
		<tag k="ssr:hovedgruppe" v="terreng" />
		<tag k="ssr:stedsnr" v="236654" />
		<tag k="ssr:type" v="fjell" />
	</node>
	<node lat="69.56344722018987" lon="20.600624989992003" id="-48062">
		<tag k="name" v="Kielva" />
		<tag k="name:no" v="Kielva" />
		<tag k="ssr:date" v="2019-12-27" />
		<tag k="ssr:gruppe" v="rennendeVann" />
		<tag k="ssr:hovedgruppe" v="ferskvann" />
		<tag k="ssr:stedsnr" v="236724" />
		<tag k="ssr:type" v="bekk" />
		<tag k="waterway" v="stream" />
	</node>
	<node lat="69.56394166961688" lon="20.609161085529017" id="-48063">
		<tag k="name" v="Sieđgasoahki" />
		<tag k="name:se" v="Sieđgasoahki" />
		<tag k="place" v="locality" />
		<tag k="ssr:date" v="2019-12-27" />
		<tag k="ssr:gruppe" v="vegetasjon" />
		<tag k="ssr:hovedgruppe" v="markslag" />
		<tag k="ssr:stedsnr" v="236726" />
		<tag k="ssr:type" v="skog" />
	</node>
	<node lat="69.60930277826333" lon="20.622191647409977" id="-48064">
		<tag k="name" v="Skávhlegeađgi - Måsesteinen" />
		<tag k="name:no" v="Måsesteinen" />
		<tag k="name:se" v="Skávhlegeađgi" />
		<tag k="natural" v="stone" />
		<tag k="ssr:date" v="2019-12-27" />
		<tag k="ssr:gruppe" v="løsmasseavsetninger" />
		<tag k="ssr:hovedgruppe" v="markslag" />
		<tag k="ssr:stedsnr" v="236784" />
		<tag k="ssr:type" v="stein" />
	</node>
	<node lat="69.60986389339864" lon="20.6291499887309" id="-48065">
		<tag k="name" v="Guhkesláddu - Langtjønna" />
		<tag k="name:no" v="Langtjønna" />
		<tag k="name:se" v="Guhkesláddu" />
		<tag k="natural" v="water" />
		<tag k="ssr:date" v="2019-12-27" />
		<tag k="ssr:gruppe" v="stilleståendeVann" />
		<tag k="ssr:hovedgruppe" v="ferskvann" />
		<tag k="ssr:stedsnr" v="236785" />
		<tag k="ssr:type" v="tjern" />
	</node>
	<node lat="69.53614444963156" lon="20.691580526286838" id="-48066">
		<tag k="alt_name:se" v="Wassmodarfejeaggi" />
		<tag k="name" v="Wasmuthdarfejeaggi" />
		<tag k="name:se" v="Wasmuthdarfejeaggi" />
		<tag k="natural" v="wetland" />
		<tag k="ssr:date" v="2019-12-27" />
		<tag k="ssr:gruppe" v="våtmark" />
		<tag k="ssr:hovedgruppe" v="markslag" />
		<tag k="ssr:stedsnr" v="236790" />
		<tag k="ssr:type" v="myr" />
	</node>
	<node lat="69.40127500532168" lon="20.563949975704514" id="-48067">
		<tag k="name" v="Njiccenčorru" />
		<tag k="name:se" v="Njiccenčorru" />
		<tag k="natural" v="hill" />
		<tag k="place" v="locality" />
		<tag k="ssr:date" v="2019-12-27" />
		<tag k="ssr:gruppe" v="høyder" />
		<tag k="ssr:hovedgruppe" v="terreng" />
		<tag k="ssr:stedsnr" v="236928" />
		<tag k="ssr:type" v="haug" />
	</node>
	<node lat="69.54675555892615" lon="20.383744434997805" id="-48068">
		<tag k="fixme" v="multiple name tags, choose one and add the other to alt_name" />
		<tag k="name" v="Jiehtanasskihppa;Láivi;Skihpageargi - Skipet - Laiva" />
		<tag k="name:fkv" v="Laiva" />
		<tag k="name:no" v="Skipet" />
		<tag k="name:se" v="Jiehtanasskihppa;Láivi;Skihpageargi" />
		<tag k="natural" v="cape" />
		<tag k="ssr:date" v="2021-06-08" />
		<tag k="ssr:gruppe" v="kystkontur" />
		<tag k="ssr:hovedgruppe" v="sjø" />
		<tag k="ssr:stedsnr" v="451230" />
		<tag k="ssr:type" v="nesISjø" />
	</node>
	<node lat="69.54141666389391" lon="20.64218608365042" id="-48069">
		<tag k="name" v="Gieddejohorrit" />
		<tag k="name:se" v="Gieddejohorrit" />
		<tag k="place" v="locality" />
		<tag k="ssr:date" v="2019-12-27" />
		<tag k="ssr:gruppe" v="terrengdetaljer" />
		<tag k="ssr:hovedgruppe" v="terreng" />
		<tag k="ssr:stedsnr" v="242135" />
		<tag k="ssr:type" v="annenTerrengdetalj" />
	</node>
	<node lat="69.60570000477789" lon="20.560577753053632" id="-48072">
		<tag k="name" v="Gáivuona skovlabiire - Kåfjord skolekrets - Kaivuonon koulupiire" />
		<tag k="name:fkv" v="Kaivuonon koulupiire" />
		<tag k="name:no" v="Kåfjord skolekrets" />
		<tag k="name:se" v="Gáivuona skovlabiire" />
		<tag k="place" v="locality" />
		<tag k="ssr:date" v="2021-06-08" />
		<tag k="ssr:gruppe" v="administrativeIndelinger" />
		<tag k="ssr:hovedgruppe" v="offentligAdministrasjon" />
		<tag k="ssr:stedsnr" v="242312" />
		<tag k="ssr:type" v="skolekrets" />
	</node>
	<node lat="69.52902315609781" lon="20.37620305505198" id="-48075">
		<tag k="name" v="Nordnes" />
		<tag k="name:no" v="Nordnes" />
		<tag k="old_name:no" v="Indre Nordnes" />
		<tag k="place" v="farm" />
		<tag k="ssr:date" v="2019-12-27" />
		<tag k="ssr:gruppe" v="gardsbebyggelse" />
		<tag k="ssr:hovedgruppe" v="bebyggelse" />
		<tag k="ssr:stedsnr" v="451835" />
		<tag k="ssr:type" v="bruk" />
	</node>
	<node lat="69.597352775081" lon="20.55104997346338" id="-48076">
		<tag k="name" v="Soleng" />
		<tag k="name:no" v="Soleng" />
		<tag k="place" v="hamlet" />
		<tag k="ssr:date" v="2019-12-27" />
		<tag k="ssr:gruppe" v="bebyggelsesområder" />
		<tag k="ssr:hovedgruppe" v="bebyggelse" />
		<tag k="ssr:stedsnr" v="454797" />
		<tag k="ssr:type" v="grend" />
	</node>
	<node lat="69.46587499798332" lon="20.33615552928208" id="-48077">
		<tag k="name" v="Reavčájohka - Revdalselva" />
		<tag k="name:no" v="Revdalselva" />
		<tag k="name:se" v="Reavčájohka" />
		<tag k="ssr:date" v="2019-12-27" />
		<tag k="ssr:gruppe" v="rennendeVann" />
		<tag k="ssr:hovedgruppe" v="ferskvann" />
		<tag k="ssr:stedsnr" v="261247" />
		<tag k="ssr:type" v="bekk" />
		<tag k="waterway" v="stream" />
	</node>
	<node lat="69.47293056046318" lon="20.331036090885142" id="-48078">
		<tag k="name" v="Penteberget - Penttopahta" />
		<tag k="name:fkv" v="Penttopahta" />
		<tag k="name:no" v="Penteberget" />
		<tag k="natural" v="hill" />
		<tag k="place" v="locality" />
		<tag k="ssr:date" v="2021-06-08" />
		<tag k="ssr:gruppe" v="høyder" />
		<tag k="ssr:hovedgruppe" v="terreng" />
		<tag k="ssr:stedsnr" v="261304" />
		<tag k="ssr:type" v="berg" />
	</node>
	<node lat="69.46844999943953" lon="20.924397189027996" id="-48079">
		<tag k="name" v="Lauvli" />
		<tag k="name:no" v="Lauvli" />
		<tag k="place" v="farm" />
		<tag k="ssr:date" v="2019-12-27" />
		<tag k="ssr:gruppe" v="gardsbebyggelse" />
		<tag k="ssr:hovedgruppe" v="bebyggelse" />
		<tag k="ssr:stedsnr" v="261603" />
		<tag k="ssr:type" v="bruk" />
	</node>
	<node lat="69.46006111529002" lon="20.48553331033915" id="-48080">
		<tag k="fixme" v="consider natural=peak for the most distinct mountains in the district" />
		<tag k="name" v="Áhkávátgáisi" />
		<tag k="name:se" v="Áhkávátgáisi" />
		<tag k="natural" v="hill" />
		<tag k="old_name:se" v="Áhkavátgáisi" />
		<tag k="place" v="locality" />
		<tag k="ssr:date" v="2019-12-27" />
		<tag k="ssr:gruppe" v="høyder" />
		<tag k="ssr:hovedgruppe" v="terreng" />
		<tag k="ssr:stedsnr" v="261610" />
		<tag k="ssr:type" v="fjell" />
	</node>
	<node lat="69.50355000353196" lon="20.5364305457688" id="-48081">
		<tag k="name" v="Haglund" />
		<tag k="name:no" v="Haglund" />
		<tag k="place" v="farm" />
		<tag k="ssr:date" v="2019-12-27" />
		<tag k="ssr:gruppe" v="gardsbebyggelse" />
		<tag k="ssr:hovedgruppe" v="bebyggelse" />
		<tag k="ssr:stedsnr" v="261687" />
		<tag k="ssr:type" v="bruk" />
	</node>
	<node lat="69.4612657890753" lon="20.93613600293157" id="-48082">
		<tag k="fixme" v="consider place=hamlet" />
		<tag k="name" v="Vállas - Kåfjorddalen" />
		<tag k="name:no" v="Kåfjorddalen" />
		<tag k="name:se" v="Vállas" />
		<tag k="place" v="village" />
		<tag k="ssr:date" v="2021-08-17" />
		<tag k="ssr:gruppe" v="bebyggelsesområder" />
		<tag k="ssr:hovedgruppe" v="bebyggelse" />
		<tag k="ssr:stedsnr" v="264181" />
		<tag k="ssr:type" v="bygdelagBygd" />
	</node>
	<node lat="69.74728055689894" lon="20.472572217446057" id="-48083">
		<tag k="name" v="Djupvikgrunnen" />
		<tag k="name:no" v="Djupvikgrunnen" />
		<tag k="natural" v="shoal" />
		<tag k="place" v="locality" />
		<tag k="ssr:date" v="2019-12-27" />
		<tag k="ssr:gruppe" v="grunnerISjø" />
		<tag k="ssr:hovedgruppe" v="sjø" />
		<tag k="ssr:stedsnr" v="267232" />
		<tag k="ssr:type" v="grunneISjø" />
	</node>
	<node lat="69.53726388638863" lon="20.597961082108057" id="-48085">
		<tag k="name" v="Sieđgasoahki" />
		<tag k="name:se" v="Sieđgasoahki" />
		<tag k="natural" v="hill" />
		<tag k="place" v="locality" />
		<tag k="ssr:date" v="2019-12-27" />
		<tag k="ssr:gruppe" v="høyder" />
		<tag k="ssr:hovedgruppe" v="terreng" />
		<tag k="ssr:stedsnr" v="461190" />
		<tag k="ssr:type" v="berg" />
	</node>
	<node lat="69.5240694461183" lon="20.790472198510084" id="-48086">
		<tag k="name" v="Suolu" />
		<tag k="name:se" v="Suolu" />
		<tag k="natural" v="valley" />
		<tag k="place" v="locality" />
		<tag k="ssr:date" v="2019-12-27" />
		<tag k="ssr:gruppe" v="senkninger" />
		<tag k="ssr:hovedgruppe" v="terreng" />
		<tag k="ssr:stedsnr" v="295412" />
		<tag k="ssr:type" v="søkk" />
	</node>
	<node lat="69.5220944439921" lon="20.78275830537568" id="-48087">
		<tag k="name" v="Riebanmoski" />
		<tag k="name:se" v="Riebanmoski" />
		<tag k="natural" v="valley" />
		<tag k="place" v="locality" />
		<tag k="ssr:date" v="2019-12-27" />
		<tag k="ssr:gruppe" v="senkninger" />
		<tag k="ssr:hovedgruppe" v="terreng" />
		<tag k="ssr:stedsnr" v="295423" />
		<tag k="ssr:type" v="skar" />
	</node>
	<node lat="69.54589444439107" lon="20.53405553121568" id="-48088">
		<tag k="name" v="Johkanjárga - Elvenes" />
		<tag k="name:no" v="Elvenes" />
		<tag k="name:se" v="Johkanjárga" />
		<tag k="natural" v="cape" />
		<tag k="ssr:date" v="2020-01-16" />
		<tag k="ssr:gruppe" v="kystkontur" />
		<tag k="ssr:hovedgruppe" v="sjø" />
		<tag k="ssr:stedsnr" v="296004" />
		<tag k="ssr:type" v="nesISjø" />
	</node>
	<node lat="69.44579999944682" lon="20.55304441268098" id="-48089">
		<tag k="name" v="Áitegállusuolu" />
		<tag k="name:se" v="Áitegállusuolu" />
		<tag k="place" v="islet" />
		<tag k="ssr:date" v="2019-12-27" />
		<tag k="ssr:gruppe" v="ferskvannskontur" />
		<tag k="ssr:hovedgruppe" v="ferskvann" />
		<tag k="ssr:stedsnr" v="296182" />
		<tag k="ssr:type" v="holme" />
	</node>
	<node lat="69.5224361086713" lon="20.512177753386442" id="-48090">
		<tag k="name" v="Goahtebákti" />
		<tag k="name:se" v="Goahtebákti" />
		<tag k="natural" v="hill" />
		<tag k="place" v="locality" />
		<tag k="ssr:date" v="2019-12-27" />
		<tag k="ssr:gruppe" v="høyder" />
		<tag k="ssr:hovedgruppe" v="terreng" />
		<tag k="ssr:stedsnr" v="296081" />
		<tag k="ssr:type" v="berg" />
	</node>
	<node lat="69.52674444795583" lon="20.536419421685345" id="-48091">
		<tag k="name" v="Goržžinjárga" />
		<tag k="name:se" v="Goržžinjárga" />
		<tag k="natural" v="cape" />
		<tag k="ssr:date" v="2019-12-27" />
		<tag k="ssr:gruppe" v="ferskvannskontur" />
		<tag k="ssr:hovedgruppe" v="ferskvann" />
		<tag k="ssr:stedsnr" v="296082" />
		<tag k="ssr:type" v="nes" />
	</node>
	<node lat="69.52223611582781" lon="20.491744427944393" id="-48092">
		<tag k="name" v="Miellegorsa" />
		<tag k="name:se" v="Miellegorsa" />
		<tag k="natural" v="valley" />
		<tag k="place" v="locality" />
		<tag k="ssr:date" v="2019-12-27" />
		<tag k="ssr:gruppe" v="senkninger" />
		<tag k="ssr:hovedgruppe" v="terreng" />
		<tag k="ssr:stedsnr" v="296083" />
		<tag k="ssr:type" v="skar" />
	</node>
	<node lat="69.40883333728598" lon="20.9787527537861" id="-48093">
		<tag k="name" v="Gorsa" />
		<tag k="name:se" v="Gorsa" />
		<tag k="natural" v="valley" />
		<tag k="place" v="locality" />
		<tag k="ssr:date" v="2019-12-27" />
		<tag k="ssr:gruppe" v="senkninger" />
		<tag k="ssr:hovedgruppe" v="terreng" />
		<tag k="ssr:stedsnr" v="296432" />
		<tag k="ssr:type" v="skar" />
	</node>
	<node lat="69.50621666564388" lon="20.808563874693135" id="-48094">
		<tag k="fixme" v="multiple name tags, choose one and add the other to alt_name" />
		<tag k="name" v="Siskkitájajohka;Náhkkejohka" />
		<tag k="name:se" v="Siskkitájajohka;Náhkkejohka" />
		<tag k="ssr:date" v="2019-12-27" />
		<tag k="ssr:gruppe" v="rennendeVann" />
		<tag k="ssr:hovedgruppe" v="ferskvann" />
		<tag k="ssr:stedsnr" v="296450" />
		<tag k="ssr:type" v="bekk" />
		<tag k="waterway" v="stream" />
	</node>
	<node lat="69.50064722087815" lon="20.76493607538463" id="-48095">
		<tag k="name" v="Jullalokta" />
		<tag k="name:se" v="Jullalokta" />
		<tag k="place" v="locality" />
		<tag k="ssr:date" v="2019-12-27" />
		<tag k="ssr:gruppe" v="terrengdetaljer" />
		<tag k="ssr:hovedgruppe" v="terreng" />
		<tag k="ssr:stedsnr" v="296462" />
		<tag k="ssr:type" v="hylle" />
	</node>
	<node lat="69.6913916651867" lon="20.51836665172651" id="-48096">
		<tag k="name" v="Hamnvikbakken" />
		<tag k="name:no" v="Hamnvikbakken" />
		<tag k="natural" v="slope" />
		<tag k="place" v="locality" />
		<tag k="ssr:date" v="2019-12-27" />
		<tag k="ssr:gruppe" v="skråninger" />
		<tag k="ssr:hovedgruppe" v="terreng" />
		<tag k="ssr:stedsnr" v="296972" />
		<tag k="ssr:type" v="bakke" />
	</node>
	<node lat="69.71075278113912" lon="20.53172499190152" id="-48097">
		<tag k="name" v="Gaddonberget" />
		<tag k="name:no" v="Gaddonberget" />
		<tag k="natural" v="hill" />
		<tag k="place" v="locality" />
		<tag k="ssr:date" v="2019-12-27" />
		<tag k="ssr:gruppe" v="høyder" />
		<tag k="ssr:hovedgruppe" v="terreng" />
		<tag k="ssr:stedsnr" v="296986" />
		<tag k="ssr:type" v="berg" />
	</node>
	<node lat="69.70870277750028" lon="20.526680538018752" id="-48098">
		<tag k="name" v="Kråbukta" />
		<tag k="name:no" v="Kråbukta" />
		<tag k="natural" v="bay" />
		<tag k="ssr:date" v="2019-12-27" />
		<tag k="ssr:gruppe" v="kystkontur" />
		<tag k="ssr:hovedgruppe" v="sjø" />
		<tag k="ssr:stedsnr" v="296988" />
		<tag k="ssr:type" v="vikISjø" />
	</node>
	<node lat="69.58183610896992" lon="20.40600275301201" id="-48099">
		<tag k="landuse" v="meadow" />
		<tag k="name" v="Duhkkagieddi - Tuhkakenttä" />
		<tag k="name:fkv" v="Tuhkakenttä" />
		<tag k="name:se" v="Duhkkagieddi" />
		<tag k="ssr:date" v="2019-12-27" />
		<tag k="ssr:gruppe" v="dyrkamark" />
		<tag k="ssr:hovedgruppe" v="markslag" />
		<tag k="ssr:stedsnr" v="297105" />
		<tag k="ssr:type" v="eng" />
	</node>
	<node lat="69.57161142579037" lon="20.507630217172984" id="-48100">
		<tag k="name" v="Sámmolborri" />
		<tag k="name:se" v="Sámmolborri" />
		<tag k="natural" v="slope" />
		<tag k="place" v="locality" />
		<tag k="ssr:date" v="2020-01-15" />
		<tag k="ssr:gruppe" v="skråninger" />
		<tag k="ssr:hovedgruppe" v="terreng" />
		<tag k="ssr:stedsnr" v="297110" />
		<tag k="ssr:type" v="bakke" />
	</node>
	<node lat="69.73565833264725" lon="20.519247202069444" id="-48101">
		<tag k="name" v="Hammarvikneset" />
		<tag k="name:no" v="Hammarvikneset" />
		<tag k="natural" v="cape" />
		<tag k="ssr:date" v="2019-12-27" />
		<tag k="ssr:gruppe" v="kystkontur" />
		<tag k="ssr:hovedgruppe" v="sjø" />
		<tag k="ssr:stedsnr" v="296874" />
		<tag k="ssr:type" v="nesISjø" />
	</node>
	<node lat="69.50338332939562" lon="20.546647212508574" id="-48102">
		<tag k="fixme" v="consider natural=peak for the most distinct mountains in the district" />
		<tag k="name" v="Bovdnagieddvárri" />
		<tag k="name:se" v="Bovdnagieddvárri" />
		<tag k="natural" v="hill" />
		<tag k="place" v="locality" />
		<tag k="ssr:date" v="2019-12-27" />
		<tag k="ssr:gruppe" v="høyder" />
		<tag k="ssr:hovedgruppe" v="terreng" />
		<tag k="ssr:stedsnr" v="297092" />
		<tag k="ssr:type" v="fjell" />
	</node>
	<node lat="69.50603610855661" lon="20.50945553296921" id="-48103">
		<tag k="name" v="Vuolimus darfehávdi" />
		<tag k="name:se" v="Vuolimus darfehávdi" />
		<tag k="place" v="locality" />
		<tag k="ssr:date" v="2019-12-27" />
		<tag k="ssr:gruppe" v="flater" />
		<tag k="ssr:hovedgruppe" v="terreng" />
		<tag k="ssr:stedsnr" v="297093" />
		<tag k="ssr:type" v="mo" />
	</node>
	<node lat="69.50342777979044" lon="20.5395833071832" id="-48104">
		<tag k="name" v="Vákkit" />
		<tag k="name:se" v="Vákkit" />
		<tag k="natural" v="valley" />
		<tag k="place" v="locality" />
		<tag k="ssr:date" v="2019-12-27" />
		<tag k="ssr:gruppe" v="senkninger" />
		<tag k="ssr:hovedgruppe" v="terreng" />
		<tag k="ssr:stedsnr" v="297096" />
		<tag k="ssr:type" v="dal" />
	</node>
	<node lat="69.45912500174704" lon="20.946372193388058" id="-48105">
		<tag k="name" v="Guhkesbákti" />
		<tag k="name:se" v="Guhkesbákti" />
		<tag k="natural" v="hill" />
		<tag k="place" v="locality" />
		<tag k="ssr:date" v="2019-12-27" />
		<tag k="ssr:gruppe" v="høyder" />
		<tag k="ssr:hovedgruppe" v="terreng" />
		<tag k="ssr:stedsnr" v="297355" />
		<tag k="ssr:type" v="berg" />
	</node>
	<node lat="69.4949638855431" lon="20.893127752607167" id="-48106">
		<tag k="name" v="Áhkkarat" />
		<tag k="name:se" v="Áhkkarat" />
		<tag k="natural" v="slope" />
		<tag k="place" v="locality" />
		<tag k="ssr:date" v="2019-12-27" />
		<tag k="ssr:gruppe" v="skråninger" />
		<tag k="ssr:hovedgruppe" v="terreng" />
		<tag k="ssr:stedsnr" v="297277" />
		<tag k="ssr:type" v="li" />
	</node>
	<node lat="69.60380278231362" lon="20.589508316274713" id="-48107">
		<tag k="fixme" v="consider natural=peak for the most distinct mountains in the district" />
		<tag k="name" v="Čohkápmir" />
		<tag k="name:se" v="Čohkápmir" />
		<tag k="natural" v="hill" />
		<tag k="place" v="locality" />
		<tag k="ssr:date" v="2019-12-27" />
		<tag k="ssr:gruppe" v="høyder" />
		<tag k="ssr:hovedgruppe" v="terreng" />
		<tag k="ssr:stedsnr" v="297787" />
		<tag k="ssr:type" v="fjell" />
	</node>
	<node lat="69.60763610852025" lon="20.56865553779666" id="-48108">
		<tag k="name" v="Aspelia" />
		<tag k="name:no" v="Aspelia" />
		<tag k="natural" v="slope" />
		<tag k="place" v="locality" />
		<tag k="ssr:date" v="2019-12-27" />
		<tag k="ssr:gruppe" v="skråninger" />
		<tag k="ssr:hovedgruppe" v="terreng" />
		<tag k="ssr:stedsnr" v="297795" />
		<tag k="ssr:type" v="li" />
	</node>
	<node lat="69.61349166878551" lon="20.509491640685415" id="-48113">
		<tag k="name" v="Ytsteby" />
		<tag k="name:no" v="Ytsteby" />
		<tag k="place" v="farm" />
		<tag k="ssr:date" v="2019-12-27" />
		<tag k="ssr:gruppe" v="gardsbebyggelse" />
		<tag k="ssr:hovedgruppe" v="bebyggelse" />
		<tag k="ssr:stedsnr" v="303668" />
		<tag k="ssr:type" v="bruk" />
	</node>
	<node lat="69.38755833498072" lon="20.605691644451127" id="-48116">
		<tag k="name" v="Uhcanjárggašjohka" />
		<tag k="name:se" v="Uhcanjárggašjohka" />
		<tag k="ssr:date" v="2019-12-27" />
		<tag k="ssr:gruppe" v="rennendeVann" />
		<tag k="ssr:hovedgruppe" v="ferskvann" />
		<tag k="ssr:stedsnr" v="322504" />
		<tag k="ssr:type" v="bekk" />
		<tag k="waterway" v="stream" />
	</node>
	<node lat="69.40766944214143" lon="20.75416663356" id="-48117">
		<tag k="name" v="Čiččenjávri" />
		<tag k="name:se" v="Čiččenjávri" />
		<tag k="natural" v="water" />
		<tag k="ssr:date" v="2019-12-27" />
		<tag k="ssr:gruppe" v="stilleståendeVann" />
		<tag k="ssr:hovedgruppe" v="ferskvann" />
		<tag k="ssr:stedsnr" v="322516" />
		<tag k="ssr:type" v="vann" />
		<tag k="water" v="lake" />
	</node>
	<node lat="69.65656666988296" lon="20.480055551427434" id="-48118">
		<tag k="name" v="Sieidičohkka - Seidigentsokken" />
		<tag k="name:no" v="Seidigentsokken" />
		<tag k="name:se" v="Sieidičohkka" />
		<tag k="natural" v="hill" />
		<tag k="place" v="locality" />
		<tag k="ssr:date" v="2019-12-27" />
		<tag k="ssr:gruppe" v="høyder" />
		<tag k="ssr:hovedgruppe" v="terreng" />
		<tag k="ssr:stedsnr" v="322581" />
		<tag k="ssr:type" v="haug" />
	</node>
	<node lat="69.62170555550298" lon="20.625730542920437" id="-48119">
		<tag k="fixme" v="consider natural=peak for the most distinct mountains in the district" />
		<tag k="name" v="Skávlevárri - Skavlekila" />
		<tag k="name:no" v="Skavlekila" />
		<tag k="name:se" v="Skávlevárri" />
		<tag k="natural" v="hill" />
		<tag k="place" v="locality" />
		<tag k="ssr:date" v="2019-12-27" />
		<tag k="ssr:gruppe" v="høyder" />
		<tag k="ssr:hovedgruppe" v="terreng" />
		<tag k="ssr:stedsnr" v="322582" />
		<tag k="ssr:type" v="ås" />
	</node>
	<node lat="69.53606388914736" lon="20.652188880500255" id="-48120">
		<tag k="loc_name:se" v="Sámmolsiida" />
		<tag k="name" v="Brattland" />
		<tag k="name:no" v="Brattland" />
		<tag k="place" v="farm" />
		<tag k="ssr:date" v="2019-12-27" />
		<tag k="ssr:gruppe" v="gardsbebyggelse" />
		<tag k="ssr:hovedgruppe" v="bebyggelse" />
		<tag k="ssr:stedsnr" v="322637" />
		<tag k="ssr:type" v="bruk" />
	</node>
	<node lat="69.49957500111499" lon="21.17338053901362" id="-48121">
		<tag k="name" v="Vuođđojávrrit" />
		<tag k="name:se" v="Vuođđojávrrit" />
		<tag k="natural" v="water" />
		<tag k="ssr:date" v="2019-12-27" />
		<tag k="ssr:gruppe" v="stilleståendeVann" />
		<tag k="ssr:hovedgruppe" v="ferskvann" />
		<tag k="ssr:stedsnr" v="322689" />
		<tag k="ssr:type" v="vann" />
		<tag k="water" v="lake" />
	</node>
	<node lat="69.55131388906415" lon="20.392952752863835" id="-48122">
		<tag k="name" v="Speinabitelva" />
		<tag k="name:no" v="Speinabitelva" />
		<tag k="ssr:date" v="2019-12-27" />
		<tag k="ssr:gruppe" v="rennendeVann" />
		<tag k="ssr:hovedgruppe" v="ferskvann" />
		<tag k="ssr:stedsnr" v="330064" />
		<tag k="ssr:type" v="elv" />
		<tag k="waterway" v="river" />
	</node>
	<node lat="69.52449520240094" lon="20.74979920249743" id="-48123">
		<tag k="fixme" v="consider place=hamlet" />
		<tag k="name" v="Oksnes" />
		<tag k="name:no" v="Oksnes" />
		<tag k="place" v="farm" />
		<tag k="ssr:date" v="2020-08-25" />
		<tag k="ssr:gruppe" v="gardsbebyggelse" />
		<tag k="ssr:hovedgruppe" v="bebyggelse" />
		<tag k="ssr:stedsnr" v="330820" />
		<tag k="ssr:type" v="gard" />
	</node>
	<node lat="69.52070833051161" lon="20.52563887604266" id="-48125">
		<tag k="name" v="Millonjárga" />
		<tag k="name:se" v="Millonjárga" />
		<tag k="natural" v="cape" />
		<tag k="ssr:date" v="2019-12-27" />
		<tag k="ssr:gruppe" v="ferskvannskontur" />
		<tag k="ssr:hovedgruppe" v="ferskvann" />
		<tag k="ssr:stedsnr" v="356111" />
		<tag k="ssr:type" v="nes" />
	</node>
	<node lat="69.4942305541668" lon="20.534511092155725" id="-48126">
		<tag k="name" v="Fierran" />
		<tag k="name:se" v="Fierran" />
		<tag k="natural" v="slope" />
		<tag k="place" v="locality" />
		<tag k="ssr:date" v="2019-12-27" />
		<tag k="ssr:gruppe" v="skråninger" />
		<tag k="ssr:hovedgruppe" v="terreng" />
		<tag k="ssr:stedsnr" v="356188" />
		<tag k="ssr:type" v="bakke" />
	</node>
	<node lat="69.47206944246453" lon="20.537113881224666" id="-48127">
		<tag k="name" v="Njirran" />
		<tag k="name:se" v="Njirran" />
		<tag k="natural" v="slope" />
		<tag k="place" v="locality" />
		<tag k="ssr:date" v="2021-06-08" />
		<tag k="ssr:gruppe" v="skråninger" />
		<tag k="ssr:hovedgruppe" v="terreng" />
		<tag k="ssr:stedsnr" v="356202" />
		<tag k="ssr:type" v="li" />
	</node>
	<node lat="69.51163888673005" lon="20.754599969449355" id="-48128">
		<tag k="fixme" v="consider seamark:type=rock or natural=shoal" />
		<tag k="name" v="Nuorjalássa" />
		<tag k="name:se" v="Nuorjalássa" />
		<tag k="place" v="islet" />
		<tag k="ssr:date" v="2019-12-27" />
		<tag k="ssr:gruppe" v="grunnerISjø" />
		<tag k="ssr:hovedgruppe" v="sjø" />
		<tag k="ssr:stedsnr" v="356405" />
		<tag k="ssr:type" v="skjærISjø" />
	</node>
	<node lat="69.52862499882235" lon="20.790249975504477" id="-48129">
		<tag k="loc_name:se" v="Vuolit Fierahat" />
		<tag k="name" v="Fierahat" />
		<tag k="name:se" v="Fierahat" />
		<tag k="natural" v="slope" />
		<tag k="place" v="locality" />
		<tag k="ssr:date" v="2019-12-27" />
		<tag k="ssr:gruppe" v="skråninger" />
		<tag k="ssr:hovedgruppe" v="terreng" />
		<tag k="ssr:stedsnr" v="356426" />
		<tag k="ssr:type" v="bakke" />
	</node>
	<node lat="69.52366666623361" lon="20.74344999071727" id="-48130">
		<tag k="name" v="Uhcagiettáš" />
		<tag k="name:se" v="Uhcagiettáš" />
		<tag k="place" v="locality" />
		<tag k="ssr:date" v="2019-12-27" />
		<tag k="ssr:gruppe" v="flater" />
		<tag k="ssr:hovedgruppe" v="terreng" />
		<tag k="ssr:stedsnr" v="356430" />
		<tag k="ssr:type" v="slette" />
	</node>
	<node lat="69.47287222376497" lon="20.535280532618728" id="-48131">
		<tag k="name" v="Golccageađgi" />
		<tag k="name:se" v="Golccageađgi" />
		<tag k="natural" v="stone" />
		<tag k="ssr:date" v="2019-12-27" />
		<tag k="ssr:gruppe" v="løsmasseavsetninger" />
		<tag k="ssr:hovedgruppe" v="markslag" />
		<tag k="ssr:stedsnr" v="356199" />
		<tag k="ssr:type" v="stein" />
	</node>
	<node lat="69.74627499717023" lon="20.503191648685437" id="-48132">
		<tag k="name" v="Kvitbakken" />
		<tag k="name:no" v="Kvitbakken" />
		<tag k="natural" v="slope" />
		<tag k="place" v="locality" />
		<tag k="ssr:date" v="2019-12-27" />
		<tag k="ssr:gruppe" v="skråninger" />
		<tag k="ssr:hovedgruppe" v="terreng" />
		<tag k="ssr:stedsnr" v="356900" />
		<tag k="ssr:type" v="bakke" />
	</node>
	<node lat="69.54353888684832" lon="20.548463861710694" id="-48133">
		<tag k="name" v="Riešši - Leira" />
		<tag k="name:no" v="Leira" />
		<tag k="name:se" v="Riešši" />
		<tag k="natural" v="bay" />
		<tag k="ssr:date" v="2019-12-27" />
		<tag k="ssr:gruppe" v="kystkontur" />
		<tag k="ssr:hovedgruppe" v="sjø" />
		<tag k="ssr:stedsnr" v="357002" />
		<tag k="ssr:type" v="vikISjø" />
	</node>
	<node lat="69.61318055669551" lon="20.50436666107395" id="-48134">
		<tag k="name" v="Lallasjohka" />
		<tag k="name:se" v="Lallasjohka" />
		<tag k="ssr:date" v="2019-12-27" />
		<tag k="ssr:gruppe" v="rennendeVann" />
		<tag k="ssr:hovedgruppe" v="ferskvann" />
		<tag k="ssr:stedsnr" v="357019" />
		<tag k="ssr:type" v="bekk" />
		<tag k="waterway" v="stream" />
	</node>
	<node lat="69.60912499798415" lon="20.50417776154002" id="-48135">
		<tag k="name" v="Bánccugieddi" />
		<tag k="name:se" v="Bánccugieddi" />
		<tag k="place" v="locality" />
		<tag k="ssr:date" v="2019-12-27" />
		<tag k="ssr:gruppe" v="flater" />
		<tag k="ssr:hovedgruppe" v="terreng" />
		<tag k="ssr:stedsnr" v="357023" />
		<tag k="ssr:type" v="slette" />
	</node>
	<node lat="69.46817500437527" lon="20.95217498904442" id="-48136">
		<tag k="name" v="Ovllároggi" />
		<tag k="name:se" v="Ovllároggi" />
		<tag k="natural" v="valley" />
		<tag k="place" v="locality" />
		<tag k="ssr:date" v="2019-12-27" />
		<tag k="ssr:gruppe" v="senkninger" />
		<tag k="ssr:hovedgruppe" v="terreng" />
		<tag k="ssr:stedsnr" v="357253" />
		<tag k="ssr:type" v="søkk" />
	</node>
	<node lat="69.47393888651692" lon="20.92221108881369" id="-48137">
		<tag k="name" v="Stealli" />
		<tag k="name:se" v="Stealli" />
		<tag k="place" v="locality" />
		<tag k="ssr:date" v="2019-12-27" />
		<tag k="ssr:gruppe" v="terrengdetaljer" />
		<tag k="ssr:hovedgruppe" v="terreng" />
		<tag k="ssr:stedsnr" v="357255" />
		<tag k="ssr:type" v="hylle" />
	</node>
	<node lat="69.47366111151406" lon="20.91812497117594" id="-48138">
		<tag k="name" v="Ládjoroggi" />
		<tag k="name:se" v="Ládjoroggi" />
		<tag k="natural" v="valley" />
		<tag k="place" v="locality" />
		<tag k="ssr:date" v="2019-12-27" />
		<tag k="ssr:gruppe" v="senkninger" />
		<tag k="ssr:hovedgruppe" v="terreng" />
		<tag k="ssr:stedsnr" v="357256" />
		<tag k="ssr:type" v="søkk" />
	</node>
	<node lat="69.51423055115417" lon="20.612219434329276" id="-48139">
		<tag k="name" v="Gáiskeleahki" />
		<tag k="name:se" v="Gáiskeleahki" />
		<tag k="natural" v="valley" />
		<tag k="place" v="locality" />
		<tag k="ssr:date" v="2019-12-27" />
		<tag k="ssr:gruppe" v="senkninger" />
		<tag k="ssr:hovedgruppe" v="terreng" />
		<tag k="ssr:stedsnr" v="357860" />
		<tag k="ssr:type" v="dal" />
	</node>
	<node lat="69.51267222014344" lon="20.70489718792536" id="-48140">
		<tag k="loc_name:se" v="Luopmanorrit" />
		<tag k="name" v="Luomeorrit" />
		<tag k="name:se" v="Luomeorrit" />
		<tag k="natural" v="hill" />
		<tag k="place" v="locality" />
		<tag k="ssr:date" v="2019-12-27" />
		<tag k="ssr:gruppe" v="høyder" />
		<tag k="ssr:hovedgruppe" v="terreng" />
		<tag k="ssr:stedsnr" v="357752" />
		<tag k="ssr:type" v="berg" />
	</node>
	<node lat="69.52004166376123" lon="20.561994433975936" id="-48141">
		<tag k="fixme" v="consider natural=peak for the most distinct mountains in the district" />
		<tag k="name" v="Martápmir" />
		<tag k="name:se" v="Martápmir" />
		<tag k="natural" v="hill" />
		<tag k="place" v="locality" />
		<tag k="ssr:date" v="2019-12-27" />
		<tag k="ssr:gruppe" v="høyder" />
		<tag k="ssr:hovedgruppe" v="terreng" />
		<tag k="ssr:stedsnr" v="357799" />
		<tag k="ssr:type" v="fjell" />
	</node>
	<node lat="69.40315278111082" lon="20.562536102491272" id="-48142">
		<tag k="name" v="Háldegoahti" />
		<tag k="name:se" v="Háldegoahti" />
		<tag k="place" v="locality" />
		<tag k="ssr:date" v="2019-12-27" />
		<tag k="ssr:gruppe" v="bolighus" />
		<tag k="ssr:hovedgruppe" v="bebyggelse" />
		<tag k="ssr:stedsnr" v="357902" />
		<tag k="ssr:type" v="gammelBosettingsplass" />
	</node>
	<node lat="69.71677222001256" lon="20.539836080934624" id="-48143">
		<tag k="name" v="Stakbakken" />
		<tag k="name:no" v="Stakbakken" />
		<tag k="natural" v="slope" />
		<tag k="place" v="locality" />
		<tag k="ssr:date" v="2019-12-27" />
		<tag k="ssr:gruppe" v="skråninger" />
		<tag k="ssr:hovedgruppe" v="terreng" />
		<tag k="ssr:stedsnr" v="357908" />
		<tag k="ssr:type" v="bakke" />
	</node>
	<node lat="69.71986389122436" lon="20.525524972512173" id="-48144">
		<tag k="name" v="Holmen" />
		<tag k="name:no" v="Holmen" />
		<tag k="natural" v="cape" />
		<tag k="ssr:date" v="2019-12-27" />
		<tag k="ssr:gruppe" v="kystkontur" />
		<tag k="ssr:hovedgruppe" v="sjø" />
		<tag k="ssr:stedsnr" v="357909" />
		<tag k="ssr:type" v="nesISjø" />
	</node>
	<node lat="69.524857875304" lon="20.771412000768272" id="-48145">
		<tag k="name" v="Millojohka - Møllelva" />
		<tag k="name:no" v="Møllelva" />
		<tag k="name:se" v="Millojohka" />
		<tag k="ssr:date" v="2021-08-12" />
		<tag k="ssr:gruppe" v="rennendeVann" />
		<tag k="ssr:hovedgruppe" v="ferskvann" />
		<tag k="ssr:stedsnr" v="477441" />
		<tag k="ssr:type" v="bekk" />
		<tag k="waterway" v="stream" />
	</node>
	<node lat="69.49328888780914" lon="20.871319424510844" id="-48146">
		<tag k="name" v="Gáldojohjeaggi" />
		<tag k="name:se" v="Gáldojohjeaggi" />
		<tag k="natural" v="wetland" />
		<tag k="ssr:date" v="2019-12-27" />
		<tag k="ssr:gruppe" v="våtmark" />
		<tag k="ssr:hovedgruppe" v="markslag" />
		<tag k="ssr:stedsnr" v="477642" />
		<tag k="ssr:type" v="myr" />
	</node>
	<node lat="69.48469722001022" lon="20.836930537634235" id="-48147">
		<tag k="name" v="Állisavvongieddi" />
		<tag k="name:se" v="Állisavvongieddi" />
		<tag k="place" v="locality" />
		<tag k="ssr:date" v="2019-12-27" />
		<tag k="ssr:gruppe" v="flater" />
		<tag k="ssr:hovedgruppe" v="terreng" />
		<tag k="ssr:stedsnr" v="477544" />
		<tag k="ssr:type" v="slette" />
	</node>
	<node lat="69.62595277605517" lon="20.485555547144955" id="-48148">
		<tag k="name" v="Ytsteby" />
		<tag k="name:no" v="Ytsteby" />
		<tag k="place" v="farm" />
		<tag k="ssr:date" v="2019-12-27" />
		<tag k="ssr:gruppe" v="gardsbebyggelse" />
		<tag k="ssr:hovedgruppe" v="bebyggelse" />
		<tag k="ssr:stedsnr" v="363623" />
		<tag k="ssr:type" v="bruk" />
	</node>
	<node lat="69.60321944875285" lon="20.539261102469275" id="-48149">
		<tag k="name" v="Olderdalen" />
		<tag k="name:no" v="Olderdalen" />
		<tag k="place" v="farm" />
		<tag k="ssr:date" v="2019-12-27" />
		<tag k="ssr:gruppe" v="gardsbebyggelse" />
		<tag k="ssr:hovedgruppe" v="bebyggelse" />
		<tag k="ssr:stedsnr" v="363637" />
		<tag k="ssr:type" v="bruk" />
	</node>
	<node lat="69.60433333239158" lon="20.544452764911668" id="-48150">
		<tag k="name" v="Olderdalen" />
		<tag k="name:no" v="Olderdalen" />
		<tag k="place" v="farm" />
		<tag k="ssr:date" v="2019-12-27" />
		<tag k="ssr:gruppe" v="gardsbebyggelse" />
		<tag k="ssr:hovedgruppe" v="bebyggelse" />
		<tag k="ssr:stedsnr" v="363638" />
		<tag k="ssr:type" v="bruk" />
	</node>
	<node lat="69.48251944263117" lon="20.531211094437705" id="-48151">
		<tag k="name" v="Rávrračorru" />
		<tag k="name:se" v="Rávrračorru" />
		<tag k="natural" v="hill" />
		<tag k="place" v="locality" />
		<tag k="ssr:date" v="2019-12-27" />
		<tag k="ssr:gruppe" v="høyder" />
		<tag k="ssr:hovedgruppe" v="terreng" />
		<tag k="ssr:stedsnr" v="478141" />
		<tag k="ssr:type" v="haug" />
	</node>
	<node lat="69.58021111529962" lon="20.47248886869866" id="-48153">
		<tag k="name" v="Galbmaádja" />
		<tag k="name:se" v="Galbmaádja" />
		<tag k="natural" v="spring" />
		<tag k="ssr:date" v="2019-12-27" />
		<tag k="ssr:gruppe" v="rennendeVann" />
		<tag k="ssr:hovedgruppe" v="ferskvann" />
		<tag k="ssr:stedsnr" v="478079" />
		<tag k="ssr:type" v="kilde" />
	</node>
	<node lat="69.52452500033715" lon="20.51195275070978" id="-48154">
		<tag k="name" v="Njurgobákti" />
		<tag k="name:se" v="Njurgobákti" />
		<tag k="natural" v="hill" />
		<tag k="place" v="locality" />
		<tag k="ssr:date" v="2019-12-27" />
		<tag k="ssr:gruppe" v="høyder" />
		<tag k="ssr:hovedgruppe" v="terreng" />
		<tag k="ssr:stedsnr" v="478087" />
		<tag k="ssr:type" v="berg" />
	</node>
	<node lat="69.52703888591502" lon="20.545633313661376" id="-48155">
		<tag k="name" v="Gilvatvuovdi" />
		<tag k="name:se" v="Gilvatvuovdi" />
		<tag k="place" v="locality" />
		<tag k="ssr:date" v="2019-12-27" />
		<tag k="ssr:gruppe" v="vegetasjon" />
		<tag k="ssr:hovedgruppe" v="markslag" />
		<tag k="ssr:stedsnr" v="478099" />
		<tag k="ssr:type" v="skog" />
	</node>
	<node lat="69.48834721852776" lon="20.531111096191136" id="-48156">
		<tag k="name" v="Leaibečorru" />
		<tag k="name:se" v="Leaibečorru" />
		<tag k="natural" v="hill" />
		<tag k="place" v="locality" />
		<tag k="ssr:date" v="2019-12-27" />
		<tag k="ssr:gruppe" v="høyder" />
		<tag k="ssr:hovedgruppe" v="terreng" />
		<tag k="ssr:stedsnr" v="478197" />
		<tag k="ssr:type" v="haug" />
	</node>
	<node lat="69.47475278025178" lon="20.961744433427903" id="-48157">
		<tag k="name" v="Seahtogeađgi" />
		<tag k="name:se" v="Seahtogeađgi" />
		<tag k="natural" v="stone" />
		<tag k="ssr:date" v="2019-12-27" />
		<tag k="ssr:gruppe" v="løsmasseavsetninger" />
		<tag k="ssr:hovedgruppe" v="markslag" />
		<tag k="ssr:stedsnr" v="478247" />
		<tag k="ssr:type" v="stein" />
	</node>
	<node lat="69.41375555808703" lon="20.937847197341778" id="-48158">
		<tag k="highway" v="path" />
		<tag k="name" v="Moskogáisabálggis" />
		<tag k="name:se" v="Moskogáisabálggis" />
		<tag k="ssr:date" v="2019-12-27" />
		<tag k="ssr:gruppe" v="veg" />
		<tag k="ssr:hovedgruppe" v="infrastruktur" />
		<tag k="ssr:stedsnr" v="478305" />
		<tag k="ssr:type" v="sti" />
	</node>
	<node lat="69.50640555843083" lon="20.82476108222263" id="-48159">
		<tag k="name" v="Vilgesbákti" />
		<tag k="name:se" v="Vilgesbákti" />
		<tag k="natural" v="hill" />
		<tag k="place" v="locality" />
		<tag k="ssr:date" v="2019-12-27" />
		<tag k="ssr:gruppe" v="høyder" />
		<tag k="ssr:hovedgruppe" v="terreng" />
		<tag k="ssr:stedsnr" v="478475" />
		<tag k="ssr:type" v="berg" />
	</node>
	<node lat="69.51366389048066" lon="20.796769410524774" id="-48160">
		<tag k="highway" v="path" />
		<tag k="name" v="Boares-Issáhabálggis" />
		<tag k="name:se" v="Boares-Issáhabálggis" />
		<tag k="ssr:date" v="2019-12-27" />
		<tag k="ssr:gruppe" v="veg" />
		<tag k="ssr:hovedgruppe" v="infrastruktur" />
		<tag k="ssr:stedsnr" v="478501" />
		<tag k="ssr:type" v="sti" />
	</node>
	<node lat="69.37266389334569" lon="21.034541643952174" id="-48161">
		<tag k="name" v="Uhca Goddeluohkká" />
		<tag k="name:se" v="Uhca Goddeluohkká" />
		<tag k="natural" v="slope" />
		<tag k="place" v="locality" />
		<tag k="ssr:date" v="2019-12-27" />
		<tag k="ssr:gruppe" v="skråninger" />
		<tag k="ssr:hovedgruppe" v="terreng" />
		<tag k="ssr:stedsnr" v="478433" />
		<tag k="ssr:type" v="bakke" />
	</node>
	<node lat="69.44881388577504" lon="20.948261093743383" id="-48162">
		<tag k="name" v="Vuovdenjunni" />
		<tag k="name:se" v="Vuovdenjunni" />
		<tag k="natural" v="hill" />
		<tag k="place" v="locality" />
		<tag k="ssr:date" v="2019-12-27" />
		<tag k="ssr:gruppe" v="høyder" />
		<tag k="ssr:hovedgruppe" v="terreng" />
		<tag k="ssr:stedsnr" v="478446" />
		<tag k="ssr:type" v="haug" />
	</node>
	<node lat="69.51103055320335" lon="20.69885275604553" id="-48163">
		<tag k="historic" v="shieling" />
		<tag k="name" v="Setra" />
		<tag k="name:no" v="Setra" />
		<tag k="place" v="locality" />
		<tag k="ssr:date" v="2019-12-27" />
		<tag k="ssr:gruppe" v="dyrkamark" />
		<tag k="ssr:hovedgruppe" v="markslag" />
		<tag k="ssr:stedsnr" v="478776" />
		<tag k="ssr:type" v="setervoll" />
	</node>
	<node lat="69.61586944302397" lon="20.57926664019848" id="-48164">
		<tag k="name" v="Juopmugorzi" />
		<tag k="name:se" v="Juopmugorzi" />
		<tag k="natural" v="valley" />
		<tag k="place" v="locality" />
		<tag k="ssr:date" v="2019-12-27" />
		<tag k="ssr:gruppe" v="senkninger" />
		<tag k="ssr:hovedgruppe" v="terreng" />
		<tag k="ssr:stedsnr" v="478797" />
		<tag k="ssr:type" v="skar" />
	</node>
	<node lat="69.54018889096552" lon="20.56855552755056" id="-48165">
		<tag k="name" v="Guigobákti" />
		<tag k="name:se" v="Guigobákti" />
		<tag k="natural" v="hill" />
		<tag k="place" v="locality" />
		<tag k="ssr:date" v="2019-12-27" />
		<tag k="ssr:gruppe" v="høyder" />
		<tag k="ssr:hovedgruppe" v="terreng" />
		<tag k="ssr:stedsnr" v="478825" />
		<tag k="ssr:type" v="berg" />
	</node>
	<node lat="69.41312499819185" lon="20.572552757479244" id="-48166">
		<tag k="name" v="Antasnjárga" />
		<tag k="name:se" v="Antasnjárga" />
		<tag k="natural" v="cape" />
		<tag k="ssr:date" v="2019-12-27" />
		<tag k="ssr:gruppe" v="ferskvannskontur" />
		<tag k="ssr:hovedgruppe" v="ferskvann" />
		<tag k="ssr:stedsnr" v="478916" />
		<tag k="ssr:type" v="nes" />
	</node>
	<node lat="69.38144166320794" lon="20.56641109540923" id="-48167">
		<tag k="name" v="Grønnhøydenelva" />
		<tag k="name:no" v="Grønnhøydenelva" />
		<tag k="ssr:date" v="2019-12-27" />
		<tag k="ssr:gruppe" v="rennendeVann" />
		<tag k="ssr:hovedgruppe" v="ferskvann" />
		<tag k="ssr:stedsnr" v="478924" />
		<tag k="ssr:type" v="bekk" />
		<tag k="waterway" v="stream" />
	</node>
	<node lat="69.44594444163779" lon="20.55760832482414" id="-48168">
		<tag k="name" v="Áitegállu" />
		<tag k="name:se" v="Áitegállu" />
		<tag k="natural" v="hill" />
		<tag k="place" v="locality" />
		<tag k="ssr:date" v="2019-12-27" />
		<tag k="ssr:gruppe" v="høyder" />
		<tag k="ssr:hovedgruppe" v="terreng" />
		<tag k="ssr:stedsnr" v="478925" />
		<tag k="ssr:type" v="haug" />
	</node>
	<node lat="69.72648333061899" lon="20.528791635505737" id="-48169">
		<tag k="name" v="Bergan" />
		<tag k="name:no" v="Bergan" />
		<tag k="natural" v="hill" />
		<tag k="place" v="locality" />
		<tag k="ssr:date" v="2019-12-27" />
		<tag k="ssr:gruppe" v="høyder" />
		<tag k="ssr:hovedgruppe" v="terreng" />
		<tag k="ssr:stedsnr" v="478928" />
		<tag k="ssr:type" v="berg" />
	</node>
	<node lat="69.65322777862104" lon="20.47848609653006" id="-48170">
		<tag k="name" v="Mølnelva" />
		<tag k="name:no" v="Mølnelva" />
		<tag k="ssr:date" v="2019-12-27" />
		<tag k="ssr:gruppe" v="rennendeVann" />
		<tag k="ssr:hovedgruppe" v="ferskvann" />
		<tag k="ssr:stedsnr" v="478946" />
		<tag k="ssr:type" v="bekk" />
		<tag k="waterway" v="stream" />
	</node>
	<node lat="69.48995833398492" lon="20.596797192036153" id="-48171">
		<tag k="name" v="Skárfvággi - Skardalen - Skaarfvankka" />
		<tag k="name:fkv" v="Skaarfvankka" />
		<tag k="name:no" v="Skardalen" />
		<tag k="name:se" v="Skárfvággi" />
		<tag k="natural" v="valley" />
		<tag k="place" v="locality" />
		<tag k="ssr:date" v="2021-06-08" />
		<tag k="ssr:gruppe" v="senkninger" />
		<tag k="ssr:hovedgruppe" v="terreng" />
		<tag k="ssr:stedsnr" v="382603" />
		<tag k="ssr:type" v="dal" />
	</node>
	<node lat="69.48107499660837" lon="20.85802220396054" id="-48172">
		<tag k="name" v="Holmeslett" />
		<tag k="name:no" v="Holmeslett" />
		<tag k="place" v="farm" />
		<tag k="ssr:date" v="2019-12-27" />
		<tag k="ssr:gruppe" v="gardsbebyggelse" />
		<tag k="ssr:hovedgruppe" v="bebyggelse" />
		<tag k="ssr:stedsnr" v="382605" />
		<tag k="ssr:type" v="bruk" />
	</node>
	<node lat="69.53429999722296" lon="20.774408308372536" id="-48173">
		<tag k="name" v="Nieidajohka - Trollvikelva" />
		<tag k="name:no" v="Trollvikelva" />
		<tag k="name:se" v="Nieidajohka" />
		<tag k="ssr:date" v="2019-12-27" />
		<tag k="ssr:gruppe" v="rennendeVann" />
		<tag k="ssr:hovedgruppe" v="ferskvann" />
		<tag k="ssr:stedsnr" v="382613" />
		<tag k="ssr:type" v="elv" />
		<tag k="waterway" v="river" />
	</node>
	<node lat="69.65120277769766" lon="20.62723887907522" id="-48174">
		<tag k="name" v="Gaukneset" />
		<tag k="name:no" v="Gaukneset" />
		<tag k="place" v="isolated_dwelling" />
		<tag k="ssr:date" v="2019-12-27" />
		<tag k="ssr:gruppe" v="bolighus" />
		<tag k="ssr:hovedgruppe" v="bebyggelse" />
		<tag k="ssr:stedsnr" v="383603" />
		<tag k="ssr:type" v="fritidsbolig" />
	</node>
	<node lat="69.63843333691561" lon="20.464533316552902" id="-48175">
		<tag k="name" v="Russebakken" />
		<tag k="name:no" v="Russebakken" />
		<tag k="natural" v="slope" />
		<tag k="place" v="locality" />
		<tag k="ssr:date" v="2019-12-27" />
		<tag k="ssr:gruppe" v="skråninger" />
		<tag k="ssr:hovedgruppe" v="terreng" />
		<tag k="ssr:stedsnr" v="383609" />
		<tag k="ssr:type" v="bakke" />
	</node>
	<node lat="69.5465333369393" lon="20.544291659584452" id="-48176">
		<tag k="name" v="Luokta - Manndalsbukta" />
		<tag k="name:no" v="Manndalsbukta" />
		<tag k="name:se" v="Luokta" />
		<tag k="natural" v="bay" />
		<tag k="ssr:date" v="2021-06-08" />
		<tag k="ssr:gruppe" v="kystkontur" />
		<tag k="ssr:hovedgruppe" v="sjø" />
		<tag k="ssr:stedsnr" v="384949" />
		<tag k="ssr:type" v="vikISjø" />
	</node>
	<node lat="69.49487562727633" lon="20.50137226551158" id="-48177">
		<tag k="fixme" v="consider place=hamlet" />
		<tag k="name" v="Áhkkavággi - Kjerringdalen" />
		<tag k="name:no" v="Kjerringdalen" />
		<tag k="name:se" v="Áhkkavággi" />
		<tag k="place" v="farm" />
		<tag k="ssr:date" v="2021-06-08" />
		<tag k="ssr:gruppe" v="gardsbebyggelse" />
		<tag k="ssr:hovedgruppe" v="bebyggelse" />
		<tag k="ssr:stedsnr" v="386205" />
		<tag k="ssr:type" v="gard" />
	</node>
	<node lat="69.53052777579067" lon="20.677016653525122" id="-48179">
		<tag k="highway" v="path" />
		<tag k="name" v="Jeanssabálggis - Jensvegen" />
		<tag k="name:no" v="Jensvegen" />
		<tag k="name:se" v="Jeanssabálggis" />
		<tag k="ssr:date" v="2019-12-27" />
		<tag k="ssr:gruppe" v="veg" />
		<tag k="ssr:hovedgruppe" v="infrastruktur" />
		<tag k="ssr:stedsnr" v="484084" />
		<tag k="ssr:type" v="sti" />
	</node>
	<node lat="69.52456111471852" lon="20.76344164270409" id="-48188">
		<tag k="amenity" v="school" />
		<tag k="name" v="Ruollaluovtta skovla - Trollvik skole" />
		<tag k="name:no" v="Trollvik skole" />
		<tag k="name:se" v="Ruollaluovtta skovla" />
		<tag k="ssr:date" v="2021-06-08" />
		<tag k="ssr:gruppe" v="institusjoner" />
		<tag k="ssr:hovedgruppe" v="bebyggelse" />
		<tag k="ssr:stedsnr" v="484880" />
		<tag k="ssr:type" v="skole" />
	</node>
	<node lat="69.49508333008207" lon="20.835866641523733" id="-48192">
		<tag k="amenity" v="kindergarten" />
		<tag k="name" v="Biertavári mánáidgárdi - Birtavarre barnehage - Pirttavaaran lastentaras" />
		<tag k="name:fkv" v="Pirttavaaran lastentaras" />
		<tag k="name:no" v="Birtavarre barnehage" />
		<tag k="name:se" v="Biertavári mánáidgárdi" />
		<tag k="ssr:date" v="2021-06-08" />
		<tag k="ssr:gruppe" v="institusjoner" />
		<tag k="ssr:hovedgruppe" v="bebyggelse" />
		<tag k="ssr:stedsnr" v="485251" />
		<tag k="ssr:type" v="barnehage" />
	</node>
	<node lat="69.51795833118322" lon="20.630724974707643" id="-48193">
		<tag k="name" v="Skardalen" />
		<tag k="name:no" v="Skardalen" />
		<tag k="place" v="farm" />
		<tag k="ssr:date" v="2019-12-27" />
		<tag k="ssr:gruppe" v="gardsbebyggelse" />
		<tag k="ssr:hovedgruppe" v="bebyggelse" />
		<tag k="ssr:stedsnr" v="485579" />
		<tag k="ssr:type" v="bruk" />
	</node>
	<node lat="69.49671388901754" lon="20.828916653335465" id="-48194">
		<tag k="name" v="Jeaggeduohki" />
		<tag k="name:se" v="Jeaggeduohki" />
		<tag k="place" v="locality" />
		<tag k="ssr:date" v="2021-06-08" />
		<tag k="ssr:gruppe" v="flater" />
		<tag k="ssr:hovedgruppe" v="terreng" />
		<tag k="ssr:stedsnr" v="404303" />
		<tag k="ssr:type" v="mo" />
	</node>
	<node lat="69.47799166575108" lon="20.493877752162096" id="-48195">
		<tag k="fixme" v="consider natural=peak for the most distinct mountains in the district" />
		<tag k="name" v="Gáisa" />
		<tag k="name:se" v="Gáisa" />
		<tag k="natural" v="hill" />
		<tag k="place" v="locality" />
		<tag k="ssr:date" v="2019-12-27" />
		<tag k="ssr:gruppe" v="høyder" />
		<tag k="ssr:hovedgruppe" v="terreng" />
		<tag k="ssr:stedsnr" v="408568" />
		<tag k="ssr:type" v="topp" />
	</node>
	<node lat="69.52926666614174" lon="20.54082219344939" id="-48196">
		<tag k="name" v="Ravalden" />
		<tag k="name:no" v="Ravalden" />
		<tag k="natural" v="hill" />
		<tag k="place" v="locality" />
		<tag k="ssr:date" v="2019-12-27" />
		<tag k="ssr:gruppe" v="høyder" />
		<tag k="ssr:hovedgruppe" v="terreng" />
		<tag k="ssr:stedsnr" v="417105" />
		<tag k="ssr:type" v="haug" />
	</node>
	<node lat="69.49570000042308" lon="20.51731387067383" id="-48197">
		<tag k="name" v="Gáhkkorjávri" />
		<tag k="name:se" v="Gáhkkorjávri" />
		<tag k="natural" v="water" />
		<tag k="ssr:date" v="2019-12-27" />
		<tag k="ssr:gruppe" v="stilleståendeVann" />
		<tag k="ssr:hovedgruppe" v="ferskvann" />
		<tag k="ssr:stedsnr" v="417208" />
		<tag k="ssr:type" v="tjern" />
	</node>
	<node lat="69.51055555602544" lon="20.87489996483451" id="-48198">
		<tag k="name" v="Almmilátnja" />
		<tag k="name:se" v="Almmilátnja" />
		<tag k="place" v="locality" />
		<tag k="ssr:date" v="2019-12-27" />
		<tag k="ssr:gruppe" v="terrengdetaljer" />
		<tag k="ssr:hovedgruppe" v="terreng" />
		<tag k="ssr:stedsnr" v="417506" />
		<tag k="ssr:type" v="hylle" />
	</node>
	<node lat="69.47614166666126" lon="20.530713866662047" id="-48199">
		<tag k="name" v="Skuole" />
		<tag k="name:se" v="Skuole" />
		<tag k="place" v="locality" />
		<tag k="ssr:date" v="2021-06-08" />
		<tag k="ssr:gruppe" v="flater" />
		<tag k="ssr:hovedgruppe" v="terreng" />
		<tag k="ssr:stedsnr" v="417191" />
		<tag k="ssr:type" v="mo" />
	</node>
	<node lat="69.46747500125241" lon="20.53248609205857" id="-48200">
		<tag k="name" v="Váddjafielbmá" />
		<tag k="name:se" v="Váddjafielbmá" />
		<tag k="ssr:date" v="2019-12-27" />
		<tag k="ssr:gruppe" v="rennendeVann" />
		<tag k="ssr:hovedgruppe" v="ferskvann" />
		<tag k="ssr:stedsnr" v="417192" />
		<tag k="ssr:type" v="bekk" />
		<tag k="waterway" v="stream" />
	</node>
	<node lat="69.41074167258867" lon="20.983999965636805" id="-48201">
		<tag k="name" v="Duovddat" />
		<tag k="name:se" v="Duovddat" />
		<tag k="natural" v="slope" />
		<tag k="place" v="locality" />
		<tag k="ssr:date" v="2019-12-27" />
		<tag k="ssr:gruppe" v="skråninger" />
		<tag k="ssr:hovedgruppe" v="terreng" />
		<tag k="ssr:stedsnr" v="417498" />
		<tag k="ssr:type" v="li" />
	</node>
	<node lat="69.50271111489397" lon="20.759258324431144" id="-48202">
		<tag k="name" v="Hánolátnja" />
		<tag k="name:se" v="Hánolátnja" />
		<tag k="place" v="locality" />
		<tag k="ssr:date" v="2019-12-27" />
		<tag k="ssr:gruppe" v="terrengdetaljer" />
		<tag k="ssr:hovedgruppe" v="terreng" />
		<tag k="ssr:stedsnr" v="417535" />
		<tag k="ssr:type" v="hylle" />
	</node>
	<node lat="69.48778333162308" lon="20.86166108216453" id="-48203">
		<tag k="name" v="Ribatdearbmi" />
		<tag k="name:se" v="Ribatdearbmi" />
		<tag k="natural" v="slope" />
		<tag k="place" v="locality" />
		<tag k="ssr:date" v="2019-12-27" />
		<tag k="ssr:gruppe" v="skråninger" />
		<tag k="ssr:hovedgruppe" v="terreng" />
		<tag k="ssr:stedsnr" v="417537" />
		<tag k="ssr:type" v="bakke" />
	</node>
	<node lat="69.48886667055949" lon="20.846691648340425" id="-48204">
		<tag k="name" v="Stornes" />
		<tag k="name:no" v="Stornes" />
		<tag k="place" v="hamlet" />
		<tag k="ssr:date" v="2019-12-27" />
		<tag k="ssr:gruppe" v="bebyggelsesområder" />
		<tag k="ssr:hovedgruppe" v="bebyggelse" />
		<tag k="ssr:stedsnr" v="417538" />
		<tag k="ssr:type" v="grend" />
	</node>
	<node lat="69.53886389371856" lon="20.773538865855333" id="-48205">
		<tag k="name" v="Čolperoggi" />
		<tag k="name:se" v="Čolperoggi" />
		<tag k="natural" v="valley" />
		<tag k="place" v="locality" />
		<tag k="ssr:date" v="2019-12-27" />
		<tag k="ssr:gruppe" v="senkninger" />
		<tag k="ssr:hovedgruppe" v="terreng" />
		<tag k="ssr:stedsnr" v="417587" />
		<tag k="ssr:type" v="søkk" />
	</node>
	<node lat="69.51630000334174" lon="20.514674978996887" id="-48206">
		<tag k="name" v="Gáiskevállas" />
		<tag k="name:se" v="Gáiskevállas" />
		<tag k="place" v="locality" />
		<tag k="ssr:date" v="2021-06-08" />
		<tag k="ssr:gruppe" v="flater" />
		<tag k="ssr:hovedgruppe" v="terreng" />
		<tag k="ssr:stedsnr" v="418111" />
		<tag k="ssr:type" v="slette" />
	</node>
	<node lat="69.54440278040775" lon="20.527786083043345" id="-48207">
		<tag k="name" v="Miellegieddi" />
		<tag k="name:se" v="Miellegieddi" />
		<tag k="place" v="locality" />
		<tag k="ssr:date" v="2021-06-08" />
		<tag k="ssr:gruppe" v="dyrkamark" />
		<tag k="ssr:hovedgruppe" v="markslag" />
		<tag k="ssr:stedsnr" v="418005" />
		<tag k="ssr:type" v="jorde" />
	</node>
	<node lat="69.61897222550897" lon="20.507266662156532" id="-48208">
		<tag k="name" v="Eiragárdi" />
		<tag k="name:se" v="Eiragárdi" />
		<tag k="natural" v="slope" />
		<tag k="place" v="locality" />
		<tag k="ssr:date" v="2019-12-27" />
		<tag k="ssr:gruppe" v="skråninger" />
		<tag k="ssr:hovedgruppe" v="terreng" />
		<tag k="ssr:stedsnr" v="418007" />
		<tag k="ssr:type" v="li" />
	</node>
	<node lat="69.61477221864516" lon="20.48398053679595" id="-48209">
		<tag k="name" v="Ytstebyneset" />
		<tag k="name:no" v="Ytstebyneset" />
		<tag k="natural" v="cape" />
		<tag k="ssr:date" v="2019-12-27" />
		<tag k="ssr:gruppe" v="kystkontur" />
		<tag k="ssr:hovedgruppe" v="sjø" />
		<tag k="ssr:stedsnr" v="418016" />
		<tag k="ssr:type" v="nesISjø" />
	</node>
	<node lat="69.47511389444436" lon="20.941936077315066" id="-48210">
		<tag k="name" v="Riddjeduohkin" />
		<tag k="name:se" v="Riddjeduohkin" />
		<tag k="natural" v="hill" />
		<tag k="place" v="locality" />
		<tag k="ssr:date" v="2019-12-27" />
		<tag k="ssr:gruppe" v="høyder" />
		<tag k="ssr:hovedgruppe" v="terreng" />
		<tag k="ssr:stedsnr" v="418236" />
		<tag k="ssr:type" v="haug" />
	</node>
	<node lat="69.47685555805243" lon="20.952180541760775" id="-48211">
		<tag k="name" v="Hoaŋgabákti" />
		<tag k="name:se" v="Hoaŋgabákti" />
		<tag k="natural" v="hill" />
		<tag k="place" v="locality" />
		<tag k="ssr:date" v="2019-12-27" />
		<tag k="ssr:gruppe" v="høyder" />
		<tag k="ssr:hovedgruppe" v="terreng" />
		<tag k="ssr:stedsnr" v="418238" />
		<tag k="ssr:type" v="berg" />
	</node>
	<node lat="69.46418611397152" lon="20.89519719542828" id="-48212">
		<tag k="name" v="Arvegurra" />
		<tag k="name:se" v="Arvegurra" />
		<tag k="natural" v="valley" />
		<tag k="place" v="locality" />
		<tag k="ssr:date" v="2019-12-27" />
		<tag k="ssr:gruppe" v="senkninger" />
		<tag k="ssr:hovedgruppe" v="terreng" />
		<tag k="ssr:stedsnr" v="418339" />
		<tag k="ssr:type" v="skar" />
	</node>
	<node lat="69.49553333353093" lon="20.798119410390566" id="-48213">
		<tag k="loc_name:no" v="Kvesmesteinen" />
		<tag k="name" v="Vieksageađgi" />
		<tag k="name:se" v="Vieksageađgi" />
		<tag k="natural" v="hill" />
		<tag k="place" v="locality" />
		<tag k="ssr:date" v="2019-12-27" />
		<tag k="ssr:gruppe" v="høyder" />
		<tag k="ssr:hovedgruppe" v="terreng" />
		<tag k="ssr:stedsnr" v="418692" />
		<tag k="ssr:type" v="berg" />
	</node>
	<node lat="69.60173055707585" lon="20.54466110247747" id="-48214">
		<tag k="name" v="Melen" />
		<tag k="name:no" v="Melen" />
		<tag k="place" v="locality" />
		<tag k="ssr:date" v="2019-12-27" />
		<tag k="ssr:gruppe" v="løsmasseavsetninger" />
		<tag k="ssr:hovedgruppe" v="markslag" />
		<tag k="ssr:stedsnr" v="418945" />
		<tag k="ssr:type" v="elvemel" />
	</node>
	<node lat="69.54857778025459" lon="20.57033330643026" id="-48215">
		<tag k="name" v="Nortihamna" />
		<tag k="name:no" v="Nortihamna" />
		<tag k="natural" v="bay" />
		<tag k="ssr:date" v="2019-12-27" />
		<tag k="ssr:gruppe" v="kystkontur" />
		<tag k="ssr:hovedgruppe" v="sjø" />
		<tag k="ssr:stedsnr" v="418738" />
		<tag k="ssr:type" v="vikISjø" />
	</node>
	<node lat="69.54229167085724" lon="20.5921499914531" id="-48216">
		<tag k="name" v="Bossobuoidi" />
		<tag k="name:se" v="Bossobuoidi" />
		<tag k="natural" v="cape" />
		<tag k="ssr:date" v="2019-12-27" />
		<tag k="ssr:gruppe" v="kystkontur" />
		<tag k="ssr:hovedgruppe" v="sjø" />
		<tag k="ssr:stedsnr" v="418739" />
		<tag k="ssr:type" v="nesISjø" />
	</node>
	<node lat="69.51464166995054" lon="20.6497721983209" id="-48217">
		<tag k="name" v="Ruovddášgaska" />
		<tag k="name:se" v="Ruovddášgaska" />
		<tag k="natural" v="cape" />
		<tag k="ssr:date" v="2019-12-27" />
		<tag k="ssr:gruppe" v="kystkontur" />
		<tag k="ssr:hovedgruppe" v="sjø" />
		<tag k="ssr:stedsnr" v="418744" />
		<tag k="ssr:type" v="nesISjø" />
	</node>
	<node lat="69.53962777483558" lon="20.655386084512006" id="-48218">
		<tag k="fixme" v="multiple name tags, choose one and add the other to alt_name" />
		<tag k="highway" v="path" />
		<tag k="name" v="Ordabálggis;Ordavegen" />
		<tag k="name:se" v="Ordabálggis;Ordavegen" />
		<tag k="ssr:date" v="2019-12-27" />
		<tag k="ssr:gruppe" v="veg" />
		<tag k="ssr:hovedgruppe" v="infrastruktur" />
		<tag k="ssr:stedsnr" v="418793" />
		<tag k="ssr:type" v="sti" />
	</node>
	<node lat="69.51779444171916" lon="20.63420276296308" id="-48219">
		<tag k="name" v="Sisnjárga" />
		<tag k="name:se" v="Sisnjárga" />
		<tag k="natural" v="cape" />
		<tag k="ssr:date" v="2019-12-27" />
		<tag k="ssr:gruppe" v="kystkontur" />
		<tag k="ssr:hovedgruppe" v="sjø" />
		<tag k="ssr:stedsnr" v="418848" />
		<tag k="ssr:type" v="nesISjø" />
	</node>
	<node lat="69.70646944935147" lon="20.53013887035406" id="-48220">
		<tag k="name" v="Kråa" />
		<tag k="name:no" v="Kråa" />
		<tag k="natural" v="slope" />
		<tag k="place" v="locality" />
		<tag k="ssr:date" v="2019-12-27" />
		<tag k="ssr:gruppe" v="skråninger" />
		<tag k="ssr:hovedgruppe" v="terreng" />
		<tag k="ssr:stedsnr" v="418991" />
		<tag k="ssr:type" v="bakke" />
	</node>
	<node lat="69.5303500026635" lon="20.712208313556616" id="-48221">
		<tag k="name" v="Skáhpebákti" />
		<tag k="name:se" v="Skáhpebákti" />
		<tag k="natural" v="hill" />
		<tag k="place" v="locality" />
		<tag k="ssr:date" v="2019-12-27" />
		<tag k="ssr:gruppe" v="høyder" />
		<tag k="ssr:hovedgruppe" v="terreng" />
		<tag k="ssr:stedsnr" v="424109" />
		<tag k="ssr:type" v="haug" />
	</node>
	<node lat="69.52675277742301" lon="20.70908887114912" id="-48222">
		<tag k="name" v="Svarffubákti - Svarfobergan" />
		<tag k="name:no" v="Svarfobergan" />
		<tag k="name:se" v="Svarffubákti" />
		<tag k="natural" v="hill" />
		<tag k="place" v="locality" />
		<tag k="ssr:date" v="2019-12-27" />
		<tag k="ssr:gruppe" v="høyder" />
		<tag k="ssr:hovedgruppe" v="terreng" />
		<tag k="ssr:stedsnr" v="424111" />
		<tag k="ssr:type" v="berg" />
	</node>
	<node lat="69.6047722239089" lon="20.535974969276726" id="-48224">
		<tag k="amenity" v="school" />
		<tag k="name" v="Dálusvákki skovla - Olderdalen skole - Talusvankan koulu" />
		<tag k="name:fkv" v="Talusvankan koulu" />
		<tag k="name:no" v="Olderdalen skole" />
		<tag k="name:se" v="Dálusvákki skovla" />
		<tag k="ssr:date" v="2021-06-08" />
		<tag k="ssr:gruppe" v="institusjoner" />
		<tag k="ssr:hovedgruppe" v="bebyggelse" />
		<tag k="ssr:stedsnr" v="424317" />
		<tag k="ssr:type" v="skole" />
	</node>
	<node lat="69.75364166410354" lon="20.493166646370447" id="-48226">
		<tag k="name" v="Djupvik" />
		<tag k="name:no" v="Djupvik" />
		<tag k="old_name:no" v="Øvergård" />
		<tag k="place" v="farm" />
		<tag k="ssr:date" v="2019-12-27" />
		<tag k="ssr:gruppe" v="gardsbebyggelse" />
		<tag k="ssr:hovedgruppe" v="bebyggelse" />
		<tag k="ssr:stedsnr" v="424648" />
		<tag k="ssr:type" v="bruk" />
	</node>
	<node lat="69.49051388891864" lon="20.340424970747524" id="-48231">
		<tag k="name" v="Klakkeberget" />
		<tag k="name:no" v="Klakkeberget" />
		<tag k="natural" v="hill" />
		<tag k="place" v="locality" />
		<tag k="ssr:date" v="2021-06-08" />
		<tag k="ssr:gruppe" v="høyder" />
		<tag k="ssr:hovedgruppe" v="terreng" />
		<tag k="ssr:stedsnr" v="443287" />
		<tag k="ssr:type" v="berg" />
	</node>
	<node lat="69.53725000286254" lon="20.480302765349027" id="-48232">
		<tag k="name" v="Steinvatnet" />
		<tag k="name:no" v="Steinvatnet" />
		<tag k="natural" v="water" />
		<tag k="ssr:date" v="2019-12-27" />
		<tag k="ssr:gruppe" v="stilleståendeVann" />
		<tag k="ssr:hovedgruppe" v="ferskvann" />
		<tag k="ssr:stedsnr" v="443602" />
		<tag k="ssr:type" v="tjern" />
	</node>
	<node lat="69.3665277775061" lon="21.157694423889268" id="-48233">
		<tag k="fixme" v="consider natural=peak for the most distinct mountains in the district" />
		<tag k="name" v="Ruvdnaruvža" />
		<tag k="name:se" v="Ruvdnaruvža" />
		<tag k="natural" v="hill" />
		<tag k="place" v="locality" />
		<tag k="ssr:date" v="2019-12-27" />
		<tag k="ssr:gruppe" v="høyder" />
		<tag k="ssr:hovedgruppe" v="terreng" />
		<tag k="ssr:stedsnr" v="443605" />
		<tag k="ssr:type" v="ås" />
	</node>
	<node lat="69.46927500181965" lon="21.050349980526132" id="-48234">
		<tag k="name" v="Boatkajávrrit" />
		<tag k="name:se" v="Boatkajávrrit" />
		<tag k="natural" v="water" />
		<tag k="ssr:date" v="2019-12-27" />
		<tag k="ssr:gruppe" v="stilleståendeVann" />
		<tag k="ssr:hovedgruppe" v="ferskvann" />
		<tag k="ssr:stedsnr" v="443699" />
		<tag k="ssr:type" v="vann" />
		<tag k="water" v="lake" />
	</node>
	<node lat="69.45621945007494" lon="20.677133304851235" id="-48235">
		<tag k="fixme" v="consider natural=peak for the most distinct mountains in the district" />
		<tag k="name" v="Skáiddevárri - Tverrfjellet" />
		<tag k="name:no" v="Tverrfjellet" />
		<tag k="name:se" v="Skáiddevárri" />
		<tag k="natural" v="hill" />
		<tag k="old_name:se" v="Skáidivárri" />
		<tag k="place" v="locality" />
		<tag k="ssr:date" v="2019-12-27" />
		<tag k="ssr:gruppe" v="høyder" />
		<tag k="ssr:hovedgruppe" v="terreng" />
		<tag k="ssr:stedsnr" v="444579" />
		<tag k="ssr:type" v="fjell" />
	</node>
	<node lat="69.46095943310772" lon="20.935377315571078" id="-48236">
		<tag k="name" v="Seljeli" />
		<tag k="name:no" v="Seljeli" />
		<tag k="place" v="farm" />
		<tag k="ssr:date" v="2019-12-27" />
		<tag k="ssr:gruppe" v="gardsbebyggelse" />
		<tag k="ssr:hovedgruppe" v="bebyggelse" />
		<tag k="ssr:stedsnr" v="444580" />
		<tag k="ssr:type" v="bruk" />
	</node>
	<node lat="69.68706389207964" lon="20.554436100901302" id="-48237">
		<tag k="fixme" v="consider natural=peak for the most distinct mountains in the district" />
		<tag k="name" v="Stálunjunni" />
		<tag k="name:se" v="Stálunjunni" />
		<tag k="natural" v="hill" />
		<tag k="place" v="locality" />
		<tag k="ssr:date" v="2019-12-27" />
		<tag k="ssr:gruppe" v="høyder" />
		<tag k="ssr:hovedgruppe" v="terreng" />
		<tag k="ssr:stedsnr" v="444602" />
		<tag k="ssr:type" v="ås" />
	</node>
	<node lat="69.74876389306847" lon="20.498649980663576" id="-48238">
		<tag k="fixme" v="consider place=hamlet" />
		<tag k="name" v="Čietnjalluokta - Djupvik - Siennalahti" />
		<tag k="name:fkv" v="Siennalahti" />
		<tag k="name:no" v="Djupvik" />
		<tag k="name:se" v="Čietnjalluokta" />
		<tag k="place" v="village" />
		<tag k="ssr:date" v="2021-06-08" />
		<tag k="ssr:gruppe" v="bebyggelsesområder" />
		<tag k="ssr:hovedgruppe" v="bebyggelse" />
		<tag k="ssr:stedsnr" v="444930" />
		<tag k="ssr:type" v="bygdelagBygd" />
	</node>
	<node lat="69.49388611032651" lon="20.840958321754844" id="-48239">
		<tag k="loc_name:se" v="Reatkáčorru" />
		<tag k="name" v="Einebakken" />
		<tag k="name:no" v="Einebakken" />
		<tag k="place" v="farm" />
		<tag k="ssr:date" v="2019-12-27" />
		<tag k="ssr:gruppe" v="gardsbebyggelse" />
		<tag k="ssr:hovedgruppe" v="bebyggelse" />
		<tag k="ssr:stedsnr" v="447171" />
		<tag k="ssr:type" v="bruk" />
	</node>
	<node lat="69.49923888637659" lon="20.345527772495867" id="-48240">
		<tag k="name" v="Innerneset" />
		<tag k="name:no" v="Innerneset" />
		<tag k="natural" v="cape" />
		<tag k="ssr:date" v="2021-06-08" />
		<tag k="ssr:gruppe" v="kystkontur" />
		<tag k="ssr:hovedgruppe" v="sjø" />
		<tag k="ssr:stedsnr" v="461203" />
		<tag k="ssr:type" v="nesISjø" />
	</node>
	<node lat="69.51355832990765" lon="20.731511094812365" id="-48241">
		<tag k="name" v="Muorjeorrit" />
		<tag k="name:se" v="Muorjeorrit" />
		<tag k="natural" v="hill" />
		<tag k="place" v="locality" />
		<tag k="ssr:date" v="2019-12-27" />
		<tag k="ssr:gruppe" v="høyder" />
		<tag k="ssr:hovedgruppe" v="terreng" />
		<tag k="ssr:stedsnr" v="477402" />
		<tag k="ssr:type" v="haug" />
	</node>
	<node lat="69.53296111305603" lon="20.510811086351566" id="-48242">
		<tag k="name" v="Hánssabákti" />
		<tag k="name:se" v="Hánssabákti" />
		<tag k="natural" v="hill" />
		<tag k="place" v="locality" />
		<tag k="ssr:date" v="2019-12-27" />
		<tag k="ssr:gruppe" v="høyder" />
		<tag k="ssr:hovedgruppe" v="terreng" />
		<tag k="ssr:stedsnr" v="478119" />
		<tag k="ssr:type" v="berg" />
	</node>
	<node lat="69.60759999718263" lon="20.54016385713915" id="-48243">
		<tag k="name" v="Kirkesteinen" />
		<tag k="name:no" v="Kirkesteinen" />
		<tag k="natural" v="stone" />
		<tag k="ssr:date" v="2019-12-27" />
		<tag k="ssr:gruppe" v="løsmasseavsetninger" />
		<tag k="ssr:hovedgruppe" v="markslag" />
		<tag k="ssr:stedsnr" v="478009" />
		<tag k="ssr:type" v="stein" />
	</node>
	<node lat="69.49940555740945" lon="20.511911105835015" id="-48244">
		<tag k="name" v="Vuovdegieddi" />
		<tag k="name:se" v="Vuovdegieddi" />
		<tag k="place" v="locality" />
		<tag k="ssr:date" v="2019-12-27" />
		<tag k="ssr:gruppe" v="flater" />
		<tag k="ssr:hovedgruppe" v="terreng" />
		<tag k="ssr:stedsnr" v="478057" />
		<tag k="ssr:type" v="mo" />
	</node>
	<node lat="69.508544441157" lon="20.54451665384197" id="-48245">
		<tag k="name" v="Čáhcevuovdi" />
		<tag k="name:se" v="Čáhcevuovdi" />
		<tag k="place" v="locality" />
		<tag k="ssr:date" v="2019-12-27" />
		<tag k="ssr:gruppe" v="vegetasjon" />
		<tag k="ssr:hovedgruppe" v="markslag" />
		<tag k="ssr:stedsnr" v="478061" />
		<tag k="ssr:type" v="skog" />
	</node>
	<node lat="69.50850278132509" lon="20.52544720911029" id="-48246">
		<tag k="name" v="Sáttosavu" />
		<tag k="name:se" v="Sáttosavu" />
		<tag k="natural" v="water" />
		<tag k="ssr:date" v="2019-12-27" />
		<tag k="ssr:gruppe" v="rennendeVann" />
		<tag k="ssr:hovedgruppe" v="ferskvann" />
		<tag k="ssr:stedsnr" v="478063" />
		<tag k="ssr:type" v="lon" />
		<tag k="water" v="lake" />
	</node>
	<node lat="69.49836667114495" lon="20.51809998564297" id="-48247">
		<tag k="name" v="Báhppasavu" />
		<tag k="name:se" v="Báhppasavu" />
		<tag k="natural" v="water" />
		<tag k="ssr:date" v="2019-12-27" />
		<tag k="ssr:gruppe" v="rennendeVann" />
		<tag k="ssr:hovedgruppe" v="ferskvann" />
		<tag k="ssr:stedsnr" v="478068" />
		<tag k="ssr:type" v="lon" />
		<tag k="water" v="lake" />
	</node>
	<node lat="69.45625277919841" lon="20.93726385787604" id="-48248">
		<tag k="name" v="Ealuoadat" />
		<tag k="name:se" v="Ealuoadat" />
		<tag k="natural" v="slope" />
		<tag k="place" v="locality" />
		<tag k="ssr:date" v="2019-12-27" />
		<tag k="ssr:gruppe" v="skråninger" />
		<tag k="ssr:hovedgruppe" v="terreng" />
		<tag k="ssr:stedsnr" v="478356" />
		<tag k="ssr:type" v="li" />
	</node>
	<node lat="69.46083333773996" lon="20.914263855098426" id="-48249">
		<tag k="name" v="Jorbajuovva" />
		<tag k="name:se" v="Jorbajuovva" />
		<tag k="natural" v="scree" />
		<tag k="ssr:date" v="2019-12-27" />
		<tag k="ssr:gruppe" v="løsmasseavsetninger" />
		<tag k="ssr:hovedgruppe" v="markslag" />
		<tag k="ssr:stedsnr" v="478360" />
		<tag k="ssr:type" v="ur" />
	</node>
	<node lat="69.47112500165882" lon="20.94945829880769" id="-48250">
		<tag k="name" v="Nuorejohgorsa" />
		<tag k="name:se" v="Nuorejohgorsa" />
		<tag k="natural" v="valley" />
		<tag k="place" v="locality" />
		<tag k="ssr:date" v="2019-12-27" />
		<tag k="ssr:gruppe" v="senkninger" />
		<tag k="ssr:hovedgruppe" v="terreng" />
		<tag k="ssr:stedsnr" v="478370" />
		<tag k="ssr:type" v="skar" />
	</node>
	<node lat="69.47426666626491" lon="20.883008303340354" id="-48251">
		<tag k="name" v="Čunomielli" />
		<tag k="name:se" v="Čunomielli" />
		<tag k="natural" v="slope" />
		<tag k="place" v="locality" />
		<tag k="ssr:date" v="2019-12-27" />
		<tag k="ssr:gruppe" v="skråninger" />
		<tag k="ssr:hovedgruppe" v="terreng" />
		<tag k="ssr:stedsnr" v="478257" />
		<tag k="ssr:type" v="bakke" />
	</node>
	<node lat="69.39355277547193" lon="20.988391647582674" id="-48252">
		<tag k="name" v="Unna Goddegorsa" />
		<tag k="name:se" v="Unna Goddegorsa" />
		<tag k="natural" v="valley" />
		<tag k="place" v="locality" />
		<tag k="ssr:date" v="2019-12-27" />
		<tag k="ssr:gruppe" v="senkninger" />
		<tag k="ssr:hovedgruppe" v="terreng" />
		<tag k="ssr:stedsnr" v="478468" />
		<tag k="ssr:type" v="skar" />
	</node>
	<node lat="69.6100388928998" lon="20.657180543381667" id="-48253">
		<tag k="name" v="Bártnajeaggi - Bartnamyra" />
		<tag k="name:no" v="Bartnamyra" />
		<tag k="name:se" v="Bártnajeaggi" />
		<tag k="natural" v="wetland" />
		<tag k="ssr:date" v="2019-12-27" />
		<tag k="ssr:gruppe" v="våtmark" />
		<tag k="ssr:hovedgruppe" v="markslag" />
		<tag k="ssr:stedsnr" v="478804" />
		<tag k="ssr:type" v="myr" />
	</node>
	<node lat="69.52539999750542" lon="20.686124989731425" id="-48254">
		<tag k="name" v="Langnes" />
		<tag k="name:no" v="Langnes" />
		<tag k="place" v="farm" />
		<tag k="ssr:date" v="2019-12-27" />
		<tag k="ssr:gruppe" v="gardsbebyggelse" />
		<tag k="ssr:hovedgruppe" v="bebyggelse" />
		<tag k="ssr:stedsnr" v="478819" />
		<tag k="ssr:type" v="bruk" />
	</node>
	<node lat="69.53944444842364" lon="20.691583311771236" id="-48255">
		<tag k="name" v="Juopmoriidi" />
		<tag k="name:se" v="Juopmoriidi" />
		<tag k="natural" v="slope" />
		<tag k="place" v="locality" />
		<tag k="ssr:date" v="2019-12-27" />
		<tag k="ssr:gruppe" v="skråninger" />
		<tag k="ssr:hovedgruppe" v="terreng" />
		<tag k="ssr:stedsnr" v="478820" />
		<tag k="ssr:type" v="li" />
	</node>
	<node lat="69.53886111101721" lon="20.59462497903852" id="-48256">
		<tag k="name" v="Lovttesgeađggigohpi" />
		<tag k="name:se" v="Lovttesgeađggigohpi" />
		<tag k="natural" v="valley" />
		<tag k="place" v="locality" />
		<tag k="ssr:date" v="2019-12-27" />
		<tag k="ssr:gruppe" v="senkninger" />
		<tag k="ssr:hovedgruppe" v="terreng" />
		<tag k="ssr:stedsnr" v="478822" />
		<tag k="ssr:type" v="botn" />
	</node>
	<node lat="69.50408333097892" lon="20.59845553945799" id="-48257">
		<tag k="name" v="Gálogiettriiddit" />
		<tag k="name:se" v="Gálogiettriiddit" />
		<tag k="natural" v="slope" />
		<tag k="place" v="locality" />
		<tag k="ssr:date" v="2019-12-27" />
		<tag k="ssr:gruppe" v="skråninger" />
		<tag k="ssr:hovedgruppe" v="terreng" />
		<tag k="ssr:stedsnr" v="478868" />
		<tag k="ssr:type" v="li" />
	</node>
	<node lat="69.58505278146731" lon="20.586424989782625" id="-48258">
		<tag k="name" v="Oaffir" />
		<tag k="name:se" v="Oaffir" />
		<tag k="natural" v="hill" />
		<tag k="place" v="locality" />
		<tag k="ssr:date" v="2019-12-27" />
		<tag k="ssr:gruppe" v="høyder" />
		<tag k="ssr:hovedgruppe" v="terreng" />
		<tag k="ssr:stedsnr" v="478708" />
		<tag k="ssr:type" v="haug" />
	</node>
	<node lat="69.59086782896662" lon="20.565884150246536" id="-48259">
		<tag k="alt_name:no" v="Storslett" />
		<tag k="fixme" v="consider place=hamlet" />
		<tag k="name" v="Storsletta" />
		<tag k="name:no" v="Storsletta" />
		<tag k="place" v="farm" />
		<tag k="ssr:date" v="2020-08-25" />
		<tag k="ssr:gruppe" v="gardsbebyggelse" />
		<tag k="ssr:hovedgruppe" v="bebyggelse" />
		<tag k="ssr:stedsnr" v="478710" />
		<tag k="ssr:type" v="gard" />
	</node>
	<node lat="69.61005555812268" lon="20.67024443155711" id="-48260">
		<tag k="name" v="Bártnajuovva - Bartnaura" />
		<tag k="name:no" v="Bartnaura" />
		<tag k="name:se" v="Bártnajuovva" />
		<tag k="natural" v="scree" />
		<tag k="ssr:date" v="2019-12-27" />
		<tag k="ssr:gruppe" v="løsmasseavsetninger" />
		<tag k="ssr:hovedgruppe" v="markslag" />
		<tag k="ssr:stedsnr" v="478780" />
		<tag k="ssr:type" v="ur" />
	</node>
	<node lat="69.60244722476561" lon="20.54477219394045" id="-48261">
		<tag k="name" v="Elveholmen" />
		<tag k="name:no" v="Elveholmen" />
		<tag k="place" v="islet" />
		<tag k="ssr:date" v="2019-12-27" />
		<tag k="ssr:gruppe" v="ferskvannskontur" />
		<tag k="ssr:hovedgruppe" v="ferskvann" />
		<tag k="ssr:stedsnr" v="478960" />
		<tag k="ssr:type" v="holme" />
	</node>
	<node lat="69.53280555787265" lon="20.738008303943392" id="-48267">
		<tag k="name" v="Rihkošlatnjabákti" />
		<tag k="name:se" v="Rihkošlatnjabákti" />
		<tag k="natural" v="hill" />
		<tag k="place" v="locality" />
		<tag k="ssr:date" v="2019-12-27" />
		<tag k="ssr:gruppe" v="høyder" />
		<tag k="ssr:hovedgruppe" v="terreng" />
		<tag k="ssr:stedsnr" v="484958" />
		<tag k="ssr:type" v="berg" />
	</node>
	<node lat="69.4584000026546" lon="20.389002750170853" id="-48270">
		<tag k="fixme" v="consider natural=peak for the most distinct mountains in the district" />
		<tag k="name" v="Tverrfjellet" />
		<tag k="name:no" v="Tverrfjellet" />
		<tag k="natural" v="hill" />
		<tag k="place" v="locality" />
		<tag k="ssr:date" v="2019-12-27" />
		<tag k="ssr:gruppe" v="høyder" />
		<tag k="ssr:hovedgruppe" v="terreng" />
		<tag k="ssr:stedsnr" v="504220" />
		<tag k="ssr:type" v="ås" />
	</node>
	<node lat="69.47447499725976" lon="20.41705830628476" id="-48271">
		<tag k="fixme" v="consider natural=peak for the most distinct mountains in the district" />
		<tag k="name" v="Revdalsfjellet - Revtsanvaarat" />
		<tag k="name:fkv" v="Revtsanvaarat" />
		<tag k="name:no" v="Revdalsfjellet" />
		<tag k="natural" v="hill" />
		<tag k="place" v="locality" />
		<tag k="ssr:date" v="2019-12-27" />
		<tag k="ssr:gruppe" v="høyder" />
		<tag k="ssr:hovedgruppe" v="terreng" />
		<tag k="ssr:stedsnr" v="504268" />
		<tag k="ssr:type" v="ås" />
	</node>
	<node lat="69.45800833052165" lon="20.506674987777856" id="-48272">
		<tag k="name" v="Váddásjohka" />
		<tag k="name:se" v="Váddásjohka" />
		<tag k="ssr:date" v="2019-12-27" />
		<tag k="ssr:gruppe" v="rennendeVann" />
		<tag k="ssr:hovedgruppe" v="ferskvann" />
		<tag k="ssr:stedsnr" v="504608" />
		<tag k="ssr:type" v="bekk" />
		<tag k="waterway" v="stream" />
	</node>
	<node lat="69.3805194430167" lon="20.825294418930618" id="-48273">
		<tag k="fixme" v="consider natural=peak for the most distinct mountains in the district" />
		<tag k="name" v="Viessogielas" />
		<tag k="name:se" v="Viessogielas" />
		<tag k="natural" v="hill" />
		<tag k="place" v="locality" />
		<tag k="ssr:date" v="2019-12-27" />
		<tag k="ssr:gruppe" v="høyder" />
		<tag k="ssr:hovedgruppe" v="terreng" />
		<tag k="ssr:stedsnr" v="504508" />
		<tag k="ssr:type" v="ås" />
	</node>
	<node lat="69.48954444493599" lon="20.526180527084687" id="-48274">
		<tag k="name" v="Dallund" />
		<tag k="name:no" v="Dallund" />
		<tag k="place" v="farm" />
		<tag k="ssr:date" v="2019-12-27" />
		<tag k="ssr:gruppe" v="gardsbebyggelse" />
		<tag k="ssr:hovedgruppe" v="bebyggelse" />
		<tag k="ssr:stedsnr" v="504570" />
		<tag k="ssr:type" v="bruk" />
	</node>
	<node lat="69.66571111068875" lon="20.48766942727822" id="-48275">
		<tag k="name" v="Olderelva" />
		<tag k="name:no" v="Olderelva" />
		<tag k="ssr:date" v="2019-12-27" />
		<tag k="ssr:gruppe" v="rennendeVann" />
		<tag k="ssr:hovedgruppe" v="ferskvann" />
		<tag k="ssr:stedsnr" v="504579" />
		<tag k="ssr:type" v="bekk" />
		<tag k="waterway" v="stream" />
	</node>
	<node lat="69.47577778019978" lon="20.891894418550578" id="-48276">
		<tag k="name" v="Máhtečorru" />
		<tag k="name:se" v="Máhtečorru" />
		<tag k="natural" v="hill" />
		<tag k="place" v="locality" />
		<tag k="ssr:date" v="2019-12-27" />
		<tag k="ssr:gruppe" v="høyder" />
		<tag k="ssr:hovedgruppe" v="terreng" />
		<tag k="ssr:stedsnr" v="507160" />
		<tag k="ssr:type" v="haug" />
	</node>
	<node lat="69.4230527755982" lon="20.96502219044115" id="-48277">
		<tag k="name" v="Ruosta - Røsten" />
		<tag k="name:no" v="Røsten" />
		<tag k="name:se" v="Ruosta" />
		<tag k="place" v="locality" />
		<tag k="ssr:date" v="2019-12-27" />
		<tag k="ssr:gruppe" v="kulturminner" />
		<tag k="ssr:hovedgruppe" v="kultur" />
		<tag k="ssr:stedsnr" v="507163" />
		<tag k="ssr:type" v="annenKulturdetalj" />
	</node>
	<node lat="69.53335555886642" lon="20.602697204442467" id="-48278">
		<tag k="historic" v="shieling" />
		<tag k="name" v="Geassesadji" />
		<tag k="name:se" v="Geassesadji" />
		<tag k="place" v="locality" />
		<tag k="ssr:date" v="2019-12-27" />
		<tag k="ssr:gruppe" v="dyrkamark" />
		<tag k="ssr:hovedgruppe" v="markslag" />
		<tag k="ssr:stedsnr" v="521179" />
		<tag k="ssr:type" v="setervoll" />
	</node>
	<node lat="69.53269999757255" lon="20.59745832088624" id="-48279">
		<tag k="name" v="Jierjelátnja" />
		<tag k="name:se" v="Jierjelátnja" />
		<tag k="place" v="locality" />
		<tag k="ssr:date" v="2019-12-27" />
		<tag k="ssr:gruppe" v="terrengdetaljer" />
		<tag k="ssr:hovedgruppe" v="terreng" />
		<tag k="ssr:stedsnr" v="521183" />
		<tag k="ssr:type" v="hylle" />
	</node>
	<node lat="69.39358333127207" lon="20.861130521667864" id="-48281">
		<tag k="name" v="Moskkuráššajohka" />
		<tag k="name:se" v="Moskkuráššajohka" />
		<tag k="ssr:date" v="2019-12-27" />
		<tag k="ssr:gruppe" v="rennendeVann" />
		<tag k="ssr:hovedgruppe" v="ferskvann" />
		<tag k="ssr:stedsnr" v="686520" />
		<tag k="ssr:type" v="bekk" />
		<tag k="waterway" v="stream" />
	</node>
	<node lat="69.3601249993829" lon="20.576855534308326" id="-48282">
		<tag k="name" v="Fávrrosvárjohka" />
		<tag k="name:se" v="Fávrrosvárjohka" />
		<tag k="ssr:date" v="2019-12-27" />
		<tag k="ssr:gruppe" v="rennendeVann" />
		<tag k="ssr:hovedgruppe" v="ferskvann" />
		<tag k="ssr:stedsnr" v="686571" />
		<tag k="ssr:type" v="bekk" />
		<tag k="waterway" v="stream" />
	</node>
	<node lat="69.51338055905758" lon="20.58509443243382" id="-48283">
		<tag k="fixme" v="consider natural=peak for the most distinct mountains in the district" />
		<tag k="name" v="Stuoračohkka - Skarfjellet" />
		<tag k="name:no" v="Skarfjellet" />
		<tag k="name:se" v="Stuoračohkka" />
		<tag k="natural" v="hill" />
		<tag k="place" v="locality" />
		<tag k="ssr:date" v="2021-06-08" />
		<tag k="ssr:gruppe" v="høyder" />
		<tag k="ssr:hovedgruppe" v="terreng" />
		<tag k="ssr:stedsnr" v="686573" />
		<tag k="ssr:type" v="fjell" />
	</node>
	<node lat="69.49526944584035" lon="20.528416651656677" id="-48284">
		<tag k="name" v="Solberg" />
		<tag k="name:no" v="Solberg" />
		<tag k="place" v="farm" />
		<tag k="ssr:date" v="2019-12-27" />
		<tag k="ssr:gruppe" v="gardsbebyggelse" />
		<tag k="ssr:hovedgruppe" v="bebyggelse" />
		<tag k="ssr:stedsnr" v="686574" />
		<tag k="ssr:type" v="bruk" />
	</node>
	<node lat="69.66647500257423" lon="20.478661096007603" id="-48285">
		<tag k="name" v="Olderen" />
		<tag k="name:no" v="Olderen" />
		<tag k="place" v="farm" />
		<tag k="ssr:date" v="2019-12-27" />
		<tag k="ssr:gruppe" v="gardsbebyggelse" />
		<tag k="ssr:hovedgruppe" v="bebyggelse" />
		<tag k="ssr:stedsnr" v="686584" />
		<tag k="ssr:type" v="bruk" />
	</node>
	<node lat="69.72790000189508" lon="20.577249976952" id="-48286">
		<tag k="fixme" v="consider natural=peak for the most distinct mountains in the district" />
		<tag k="name" v="Hammarvikfjellet" />
		<tag k="name:no" v="Hammarvikfjellet" />
		<tag k="natural" v="hill" />
		<tag k="place" v="locality" />
		<tag k="ssr:date" v="2019-12-27" />
		<tag k="ssr:gruppe" v="høyder" />
		<tag k="ssr:hovedgruppe" v="terreng" />
		<tag k="ssr:stedsnr" v="686618" />
		<tag k="ssr:type" v="ås" />
	</node>
	<node lat="69.33534999827718" lon="21.15670831007098" id="-48287">
		<tag k="name" v="Lágosjohka" />
		<tag k="name:se" v="Lágosjohka" />
		<tag k="ssr:date" v="2019-12-27" />
		<tag k="ssr:gruppe" v="rennendeVann" />
		<tag k="ssr:hovedgruppe" v="ferskvann" />
		<tag k="ssr:stedsnr" v="686672" />
		<tag k="ssr:type" v="bekk" />
		<tag k="waterway" v="stream" />
	</node>
	<node lat="69.56110833384842" lon="20.59899998625564" id="-48288">
		<tag k="name" v="Strand" />
		<tag k="name:no" v="Strand" />
		<tag k="place" v="farm" />
		<tag k="ssr:date" v="2019-12-27" />
		<tag k="ssr:gruppe" v="gardsbebyggelse" />
		<tag k="ssr:hovedgruppe" v="bebyggelse" />
		<tag k="ssr:stedsnr" v="686673" />
		<tag k="ssr:type" v="bruk" />
	</node>
	<node lat="69.55035000500133" lon="20.531349978671763" id="-48289">
		<tag k="name" v="Joramo" />
		<tag k="name:no" v="Joramo" />
		<tag k="place" v="farm" />
		<tag k="ssr:date" v="2019-12-27" />
		<tag k="ssr:gruppe" v="gardsbebyggelse" />
		<tag k="ssr:hovedgruppe" v="bebyggelse" />
		<tag k="ssr:stedsnr" v="686676" />
		<tag k="ssr:type" v="bruk" />
	</node>
	<node lat="69.55211666987289" lon="20.614636102948438" id="-48290">
		<tag k="alt_name:no" v="Steinnes;Storsteinnes" />
		<tag k="name" v="Geađgenjárga - Steinneset - Kiviniemi" />
		<tag k="name:fkv" v="Kiviniemi" />
		<tag k="name:no" v="Steinneset" />
		<tag k="name:se" v="Geađgenjárga" />
		<tag k="natural" v="cape" />
		<tag k="ssr:date" v="2021-06-08" />
		<tag k="ssr:gruppe" v="kystkontur" />
		<tag k="ssr:hovedgruppe" v="sjø" />
		<tag k="ssr:stedsnr" v="686680" />
		<tag k="ssr:type" v="nesISjø" />
	</node>
	<node lat="69.51439722314355" lon="20.734394414194192" id="-48291">
		<tag k="loc_name:se" v="Nuorttihápman" />
		<tag k="name" v="Nuorttihávna" />
		<tag k="name:se" v="Nuorttihávna" />
		<tag k="natural" v="bay" />
		<tag k="ssr:date" v="2019-12-27" />
		<tag k="ssr:gruppe" v="kystkontur" />
		<tag k="ssr:hovedgruppe" v="sjø" />
		<tag k="ssr:stedsnr" v="538420" />
		<tag k="ssr:type" v="vikISjø" />
	</node>
	<node lat="69.49478055852148" lon="20.86338053079618" id="-48292">
		<tag k="name" v="Gáldojohka" />
		<tag k="name:se" v="Gáldojohka" />
		<tag k="ssr:date" v="2019-12-27" />
		<tag k="ssr:gruppe" v="rennendeVann" />
		<tag k="ssr:hovedgruppe" v="ferskvann" />
		<tag k="ssr:stedsnr" v="538520" />
		<tag k="ssr:type" v="bekk" />
		<tag k="waterway" v="stream" />
	</node>
	<node lat="69.48469444541202" lon="20.82598609739048" id="-48293">
		<tag k="name" v="Ruovvdagasbákti" />
		<tag k="name:se" v="Ruovvdagasbákti" />
		<tag k="natural" v="hill" />
		<tag k="place" v="locality" />
		<tag k="ssr:date" v="2019-12-27" />
		<tag k="ssr:gruppe" v="høyder" />
		<tag k="ssr:hovedgruppe" v="terreng" />
		<tag k="ssr:stedsnr" v="538526" />
		<tag k="ssr:type" v="berg" />
	</node>
	<node lat="69.6243111097429" lon="20.511622215574825" id="-48294">
		<tag k="name" v="Čuohpahat" />
		<tag k="name:se" v="Čuohpahat" />
		<tag k="natural" v="hill" />
		<tag k="place" v="locality" />
		<tag k="ssr:date" v="2019-12-27" />
		<tag k="ssr:gruppe" v="høyder" />
		<tag k="ssr:hovedgruppe" v="terreng" />
		<tag k="ssr:stedsnr" v="539008" />
		<tag k="ssr:type" v="haug" />
	</node>
	<node lat="69.47145833414417" lon="20.925363865512935" id="-48295">
		<tag k="name" v="Kálkabákti" />
		<tag k="name:se" v="Kálkabákti" />
		<tag k="natural" v="hill" />
		<tag k="place" v="locality" />
		<tag k="ssr:date" v="2019-12-27" />
		<tag k="ssr:gruppe" v="høyder" />
		<tag k="ssr:hovedgruppe" v="terreng" />
		<tag k="ssr:stedsnr" v="539215" />
		<tag k="ssr:type" v="berg" />
	</node>
	<node lat="69.47660000332951" lon="20.91703885586199" id="-48296">
		<tag k="name" v="Gilačorru" />
		<tag k="name:se" v="Gilačorru" />
		<tag k="natural" v="hill" />
		<tag k="place" v="locality" />
		<tag k="ssr:date" v="2019-12-27" />
		<tag k="ssr:gruppe" v="høyder" />
		<tag k="ssr:hovedgruppe" v="terreng" />
		<tag k="ssr:stedsnr" v="539219" />
		<tag k="ssr:type" v="haug" />
	</node>
	<node lat="69.48909166434369" lon="20.897452744771254" id="-48297">
		<tag k="name" v="Idnečorru" />
		<tag k="name:se" v="Idnečorru" />
		<tag k="natural" v="hill" />
		<tag k="place" v="locality" />
		<tag k="ssr:date" v="2019-12-27" />
		<tag k="ssr:gruppe" v="høyder" />
		<tag k="ssr:hovedgruppe" v="terreng" />
		<tag k="ssr:stedsnr" v="539236" />
		<tag k="ssr:type" v="haug" />
	</node>
	<node lat="69.51086388697162" lon="20.53358608917032" id="-48298">
		<tag k="name" v="Lojesduolban" />
		<tag k="name:se" v="Lojesduolban" />
		<tag k="place" v="locality" />
		<tag k="ssr:date" v="2019-12-27" />
		<tag k="ssr:gruppe" v="flater" />
		<tag k="ssr:hovedgruppe" v="terreng" />
		<tag k="ssr:stedsnr" v="539104" />
		<tag k="ssr:type" v="mo" />
	</node>
	<node lat="69.45073611237697" lon="20.95974440902411" id="-48299">
		<tag k="fixme" v="consider natural=peak for the most distinct mountains in the district" />
		<tag k="name" v="Vuovdenjunjiehtanas" />
		<tag k="name:se" v="Vuovdenjunjiehtanas" />
		<tag k="natural" v="hill" />
		<tag k="place" v="locality" />
		<tag k="ssr:date" v="2019-12-27" />
		<tag k="ssr:gruppe" v="høyder" />
		<tag k="ssr:hovedgruppe" v="terreng" />
		<tag k="ssr:stedsnr" v="539404" />
		<tag k="ssr:type" v="fjell" />
	</node>
	<node lat="69.41270277743527" lon="20.56947775770075" id="-48300">
		<tag k="name" v="Uhcanjárga" />
		<tag k="name:se" v="Uhcanjárga" />
		<tag k="natural" v="cape" />
		<tag k="ssr:date" v="2019-12-27" />
		<tag k="ssr:gruppe" v="ferskvannskontur" />
		<tag k="ssr:hovedgruppe" v="ferskvann" />
		<tag k="ssr:stedsnr" v="539905" />
		<tag k="ssr:type" v="nes" />
	</node>
	<node lat="69.73019722548847" lon="20.54329719578644" id="-48301">
		<tag k="name" v="Snebakken" />
		<tag k="name:no" v="Snebakken" />
		<tag k="natural" v="slope" />
		<tag k="place" v="locality" />
		<tag k="ssr:date" v="2019-12-27" />
		<tag k="ssr:gruppe" v="skråninger" />
		<tag k="ssr:hovedgruppe" v="terreng" />
		<tag k="ssr:stedsnr" v="539916" />
		<tag k="ssr:type" v="bakke" />
	</node>
	<node lat="69.67322222296357" lon="20.49298331499409" id="-48302">
		<tag k="name" v="Josvaneset" />
		<tag k="name:no" v="Josvaneset" />
		<tag k="natural" v="cape" />
		<tag k="ssr:date" v="2019-12-27" />
		<tag k="ssr:gruppe" v="kystkontur" />
		<tag k="ssr:hovedgruppe" v="sjø" />
		<tag k="ssr:stedsnr" v="539967" />
		<tag k="ssr:type" v="nesISjø" />
	</node>
	<node lat="69.7498055566842" lon="20.508183326562733" id="-48303">
		<tag k="name" v="Mosletta" />
		<tag k="name:no" v="Mosletta" />
		<tag k="place" v="locality" />
		<tag k="ssr:date" v="2019-12-27" />
		<tag k="ssr:gruppe" v="flater" />
		<tag k="ssr:hovedgruppe" v="terreng" />
		<tag k="ssr:stedsnr" v="539871" />
		<tag k="ssr:type" v="slette" />
	</node>
	<node lat="69.74830556064282" lon="20.501408312972035" id="-48304">
		<tag k="name" v="Tottleiren" />
		<tag k="name:no" v="Tottleiren" />
		<tag k="place" v="locality" />
		<tag k="ssr:date" v="2019-12-27" />
		<tag k="ssr:gruppe" v="kulturminner" />
		<tag k="ssr:hovedgruppe" v="kultur" />
		<tag k="ssr:stedsnr" v="539872" />
		<tag k="ssr:type" v="annenKulturdetalj" />
	</node>
	<node lat="69.5032499998049" lon="20.36304443778733" id="-48305">
		<tag k="fixme" v="multiple name tags, choose one and add the other to alt_name" />
		<tag k="name" v="Buljohka;Bullojohka - Pullujoki" />
		<tag k="name:fkv" v="Pullujoki" />
		<tag k="name:se" v="Buljohka;Bullojohka" />
		<tag k="ssr:date" v="2019-12-27" />
		<tag k="ssr:gruppe" v="rennendeVann" />
		<tag k="ssr:hovedgruppe" v="ferskvann" />
		<tag k="ssr:stedsnr" v="686859" />
		<tag k="ssr:type" v="elv" />
		<tag k="waterway" v="river" />
	</node>
	<node lat="69.75067777509844" lon="20.499358308077692" id="-48306">
		<tag k="loc_name:no" v="Bakken" />
		<tag k="name" v="Haugatun" />
		<tag k="name:no" v="Haugatun" />
		<tag k="place" v="farm" />
		<tag k="ssr:date" v="2019-12-27" />
		<tag k="ssr:gruppe" v="gardsbebyggelse" />
		<tag k="ssr:hovedgruppe" v="bebyggelse" />
		<tag k="ssr:stedsnr" v="686911" />
		<tag k="ssr:type" v="bruk" />
	</node>
	<node lat="69.75249166502343" lon="20.484713868604047" id="-48307">
		<tag k="name" v="Čietnjalluokta - Djupvik - Siennalahti" />
		<tag k="name:fkv" v="Siennalahti" />
		<tag k="name:no" v="Djupvik" />
		<tag k="name:se" v="Čietnjalluokta" />
		<tag k="natural" v="bay" />
		<tag k="ssr:date" v="2019-12-27" />
		<tag k="ssr:gruppe" v="kystkontur" />
		<tag k="ssr:hovedgruppe" v="sjø" />
		<tag k="ssr:stedsnr" v="686915" />
		<tag k="ssr:type" v="vikISjø" />
	</node>
	<node lat="69.60423055654114" lon="20.57453887408351" id="-48321">
		<tag k="name" v="Dálvvesváhjohka - Olderdalselva - Talosvankanjoki" />
		<tag k="name:fkv" v="Talosvankanjoki" />
		<tag k="name:no" v="Olderdalselva" />
		<tag k="name:se" v="Dálvvesváhjohka" />
		<tag k="ssr:date" v="2021-06-08" />
		<tag k="ssr:gruppe" v="rennendeVann" />
		<tag k="ssr:hovedgruppe" v="ferskvann" />
		<tag k="ssr:stedsnr" v="687664" />
		<tag k="ssr:type" v="elv" />
		<tag k="waterway" v="river" />
	</node>
	<node lat="69.60647499978764" lon="20.782724970892673" id="-48322">
		<tag k="name" v="Báhkkavággi" />
		<tag k="name:se" v="Báhkkavággi" />
		<tag k="natural" v="valley" />
		<tag k="place" v="locality" />
		<tag k="ssr:date" v="2019-12-27" />
		<tag k="ssr:gruppe" v="senkninger" />
		<tag k="ssr:hovedgruppe" v="terreng" />
		<tag k="ssr:stedsnr" v="687665" />
		<tag k="ssr:type" v="dal" />
	</node>
	<node lat="69.60737499636434" lon="20.610549987727786" id="-48323">
		<tag k="name" v="Darfejeaggi - Torvmyra - Turvetjänkkä" />
		<tag k="name:fkv" v="Turvetjänkkä" />
		<tag k="name:no" v="Torvmyra" />
		<tag k="name:se" v="Darfejeaggi" />
		<tag k="natural" v="wetland" />
		<tag k="ssr:date" v="2019-12-27" />
		<tag k="ssr:gruppe" v="våtmark" />
		<tag k="ssr:hovedgruppe" v="markslag" />
		<tag k="ssr:stedsnr" v="687675" />
		<tag k="ssr:type" v="myr" />
	</node>
	<node lat="69.56521388500563" lon="20.58532220917391" id="-48324">
		<tag k="name" v="Kroken" />
		<tag k="name:no" v="Kroken" />
		<tag k="natural" v="shoal" />
		<tag k="place" v="locality" />
		<tag k="ssr:date" v="2019-12-27" />
		<tag k="ssr:gruppe" v="grunnerISjø" />
		<tag k="ssr:hovedgruppe" v="sjø" />
		<tag k="ssr:stedsnr" v="692313" />
		<tag k="ssr:type" v="grunneISjø" />
	</node>
	<node lat="69.38330833177406" lon="20.59970275983734" id="-48325">
		<tag k="fixme" v="consider natural=peak for the most distinct mountains in the district" />
		<tag k="name" v="Uhcanjárggaš" />
		<tag k="name:se" v="Uhcanjárggaš" />
		<tag k="natural" v="hill" />
		<tag k="place" v="locality" />
		<tag k="ssr:date" v="2019-12-27" />
		<tag k="ssr:gruppe" v="høyder" />
		<tag k="ssr:hovedgruppe" v="terreng" />
		<tag k="ssr:stedsnr" v="564518" />
		<tag k="ssr:type" v="ås" />
	</node>
	<node lat="69.4973984373361" lon="20.8338510698643" id="-48326">
		<tag k="fixme" v="consider place=hamlet" />
		<tag k="name" v="Gáivuonbahta - Kåfjordbotn" />
		<tag k="name:no" v="Kåfjordbotn" />
		<tag k="name:se" v="Gáivuonbahta" />
		<tag k="place" v="farm" />
		<tag k="ssr:date" v="2020-08-25" />
		<tag k="ssr:gruppe" v="gardsbebyggelse" />
		<tag k="ssr:hovedgruppe" v="bebyggelse" />
		<tag k="ssr:stedsnr" v="564571" />
		<tag k="ssr:type" v="gard" />
	</node>
	<node lat="69.48287778101948" lon="20.444874995840372" id="-48327">
		<tag k="name" v="Doaresjohka - Tverrelva" />
		<tag k="name:no" v="Tverrelva" />
		<tag k="name:se" v="Doaresjohka" />
		<tag k="ssr:date" v="2019-12-27" />
		<tag k="ssr:gruppe" v="rennendeVann" />
		<tag k="ssr:hovedgruppe" v="ferskvann" />
		<tag k="ssr:stedsnr" v="564573" />
		<tag k="ssr:type" v="bekk" />
		<tag k="waterway" v="stream" />
	</node>
	<node lat="69.49026975633868" lon="20.836643020320345" id="-48328">
		<tag k="name" v="Haugli" />
		<tag k="name:no" v="Haugli" />
		<tag k="place" v="farm" />
		<tag k="ssr:date" v="2019-12-27" />
		<tag k="ssr:gruppe" v="gardsbebyggelse" />
		<tag k="ssr:hovedgruppe" v="bebyggelse" />
		<tag k="ssr:stedsnr" v="564574" />
		<tag k="ssr:type" v="bruk" />
	</node>
	<node lat="69.50692778104448" lon="20.688947193943363" id="-48329">
		<tag k="name" v="Boađđojohka - Båelva" />
		<tag k="name:no" v="Båelva" />
		<tag k="name:se" v="Boađđojohka" />
		<tag k="ssr:date" v="2019-12-27" />
		<tag k="ssr:gruppe" v="rennendeVann" />
		<tag k="ssr:hovedgruppe" v="ferskvann" />
		<tag k="ssr:stedsnr" v="564703" />
		<tag k="ssr:type" v="bekk" />
		<tag k="waterway" v="stream" />
	</node>
	<node lat="69.47334444713557" lon="20.900449980628903" id="-48330">
		<tag k="name" v="Nordheim" />
		<tag k="name:no" v="Nordheim" />
		<tag k="place" v="farm" />
		<tag k="ssr:date" v="2019-12-27" />
		<tag k="ssr:gruppe" v="gardsbebyggelse" />
		<tag k="ssr:hovedgruppe" v="bebyggelse" />
		<tag k="ssr:stedsnr" v="564609" />
		<tag k="ssr:type" v="bruk" />
	</node>
	<node lat="69.48445277638908" lon="20.90564720752212" id="-48331">
		<tag k="name" v="Ruovddášjohka" />
		<tag k="name:se" v="Ruovddášjohka" />
		<tag k="ssr:date" v="2019-12-27" />
		<tag k="ssr:gruppe" v="rennendeVann" />
		<tag k="ssr:hovedgruppe" v="ferskvann" />
		<tag k="ssr:stedsnr" v="564616" />
		<tag k="ssr:type" v="bekk" />
		<tag k="waterway" v="stream" />
	</node>
	<node lat="69.58410278118005" lon="20.580047200886135" id="-48332">
		<tag k="alt_name:no" v="Storslett" />
		<tag k="name" v="Storsletta" />
		<tag k="name:no" v="Storsletta" />
		<tag k="place" v="farm" />
		<tag k="ssr:date" v="2019-12-27" />
		<tag k="ssr:gruppe" v="gardsbebyggelse" />
		<tag k="ssr:hovedgruppe" v="bebyggelse" />
		<tag k="ssr:stedsnr" v="564669" />
		<tag k="ssr:type" v="bruk" />
	</node>
	<node lat="69.59249722174617" lon="20.432483316385373" id="-48333">
		<tag k="name" v="Nessebåen" />
		<tag k="name:no" v="Nessebåen" />
		<tag k="natural" v="shoal" />
		<tag k="place" v="locality" />
		<tag k="ssr:date" v="2019-12-27" />
		<tag k="ssr:gruppe" v="grunnerISjø" />
		<tag k="ssr:hovedgruppe" v="sjø" />
		<tag k="ssr:stedsnr" v="693240" />
		<tag k="ssr:type" v="grunneISjø" />
	</node>
	<node lat="69.51427222052455" lon="20.356238877895485" id="-48334">
		<tag k="name" v="Buvollan" />
		<tag k="name:no" v="Buvollan" />
		<tag k="natural" v="slope" />
		<tag k="place" v="locality" />
		<tag k="ssr:date" v="2019-12-27" />
		<tag k="ssr:gruppe" v="skråninger" />
		<tag k="ssr:hovedgruppe" v="terreng" />
		<tag k="ssr:stedsnr" v="572064" />
		<tag k="ssr:type" v="li" />
	</node>
	<node lat="69.57779722063893" lon="20.397280526806874" id="-48335">
		<tag k="name" v="Rottenvikgrunnen" />
		<tag k="name:no" v="Rottenvikgrunnen" />
		<tag k="natural" v="shoal" />
		<tag k="place" v="locality" />
		<tag k="ssr:date" v="2019-12-27" />
		<tag k="ssr:gruppe" v="grunnerISjø" />
		<tag k="ssr:hovedgruppe" v="sjø" />
		<tag k="ssr:stedsnr" v="572248" />
		<tag k="ssr:type" v="grunneISjø" />
	</node>
	<node lat="69.52746111554316" lon="20.60887774997166" id="-48336">
		<tag k="name" v="Seahtolovttvuolli" />
		<tag k="name:se" v="Seahtolovttvuolli" />
		<tag k="natural" v="hill" />
		<tag k="place" v="locality" />
		<tag k="ssr:date" v="2019-12-27" />
		<tag k="ssr:gruppe" v="høyder" />
		<tag k="ssr:hovedgruppe" v="terreng" />
		<tag k="ssr:stedsnr" v="582204" />
		<tag k="ssr:type" v="berg" />
	</node>
	<node lat="69.52655000336011" lon="20.753072208790073" id="-48337">
		<tag k="name" v="Gáiccabákti" />
		<tag k="name:se" v="Gáiccabákti" />
		<tag k="natural" v="hill" />
		<tag k="place" v="locality" />
		<tag k="ssr:date" v="2019-12-27" />
		<tag k="ssr:gruppe" v="høyder" />
		<tag k="ssr:hovedgruppe" v="terreng" />
		<tag k="ssr:stedsnr" v="598411" />
		<tag k="ssr:type" v="berg" />
	</node>
	<node lat="69.52747777836247" lon="20.775913876363393" id="-48338">
		<tag k="highway" v="path" />
		<tag k="name" v="Ceakkobálggis" />
		<tag k="name:se" v="Ceakkobálggis" />
		<tag k="ssr:date" v="2019-12-27" />
		<tag k="ssr:gruppe" v="veg" />
		<tag k="ssr:hovedgruppe" v="infrastruktur" />
		<tag k="ssr:stedsnr" v="598417" />
		<tag k="ssr:type" v="sti" />
	</node>
	<node lat="69.5350388891233" lon="20.75076942341769" id="-48339">
		<tag k="name" v="Soahkečohkka" />
		<tag k="name:se" v="Soahkečohkka" />
		<tag k="natural" v="hill" />
		<tag k="place" v="locality" />
		<tag k="ssr:date" v="2019-12-27" />
		<tag k="ssr:gruppe" v="høyder" />
		<tag k="ssr:hovedgruppe" v="terreng" />
		<tag k="ssr:stedsnr" v="598516" />
		<tag k="ssr:type" v="haug" />
	</node>
	<node lat="69.53946666252074" lon="20.76868887234405" id="-48340">
		<tag k="loc_name:se" v="Uhcačolppaš" />
		<tag k="name" v="Čolpi" />
		<tag k="name:se" v="Čolpi" />
		<tag k="natural" v="hill" />
		<tag k="place" v="locality" />
		<tag k="ssr:date" v="2019-12-27" />
		<tag k="ssr:gruppe" v="høyder" />
		<tag k="ssr:hovedgruppe" v="terreng" />
		<tag k="ssr:stedsnr" v="598519" />
		<tag k="ssr:type" v="haug" />
	</node>
	<node lat="69.52781944401202" lon="20.73248608285348" id="-48341">
		<tag k="loc_name:no" v="Forneselva;Fyenelva" />
		<tag k="loc_name:se" v="Fyenajohka" />
		<tag k="name" v="Luohtejohka" />
		<tag k="name:se" v="Luohtejohka" />
		<tag k="ssr:date" v="2019-12-27" />
		<tag k="ssr:gruppe" v="rennendeVann" />
		<tag k="ssr:hovedgruppe" v="ferskvann" />
		<tag k="ssr:stedsnr" v="598552" />
		<tag k="ssr:type" v="bekk" />
		<tag k="waterway" v="stream" />
	</node>
	<node lat="69.48625000159605" lon="20.83026942008454" id="-48342">
		<tag k="name" v="Girkogeađgi" />
		<tag k="name:se" v="Girkogeađgi" />
		<tag k="natural" v="stone" />
		<tag k="ssr:date" v="2019-12-27" />
		<tag k="ssr:gruppe" v="løsmasseavsetninger" />
		<tag k="ssr:hovedgruppe" v="markslag" />
		<tag k="ssr:stedsnr" v="598499" />
		<tag k="ssr:type" v="stein" />
	</node>
	<node lat="69.61992500290435" lon="20.510949992568836" id="-48343">
		<tag k="name" v="Evačorru" />
		<tag k="name:se" v="Evačorru" />
		<tag k="natural" v="hill" />
		<tag k="place" v="locality" />
		<tag k="ssr:date" v="2019-12-27" />
		<tag k="ssr:gruppe" v="høyder" />
		<tag k="ssr:hovedgruppe" v="terreng" />
		<tag k="ssr:stedsnr" v="599005" />
		<tag k="ssr:type" v="haug" />
	</node>
	<node lat="69.6164944452373" lon="20.545786080514013" id="-48344">
		<tag k="name" v="Gullberget" />
		<tag k="name:no" v="Gullberget" />
		<tag k="natural" v="hill" />
		<tag k="place" v="locality" />
		<tag k="ssr:date" v="2019-12-27" />
		<tag k="ssr:gruppe" v="høyder" />
		<tag k="ssr:hovedgruppe" v="terreng" />
		<tag k="ssr:stedsnr" v="599010" />
		<tag k="ssr:type" v="berg" />
	</node>
	<node lat="69.51870277560127" lon="20.520611087220054" id="-48345">
		<tag k="loc_name:se" v="Gárjjusnjárga" />
		<tag k="name" v="Gárjelnjárga" />
		<tag k="name:se" v="Gárjelnjárga" />
		<tag k="natural" v="cape" />
		<tag k="ssr:date" v="2019-12-27" />
		<tag k="ssr:gruppe" v="ferskvannskontur" />
		<tag k="ssr:hovedgruppe" v="ferskvann" />
		<tag k="ssr:stedsnr" v="599056" />
		<tag k="ssr:type" v="nes" />
	</node>
	<node lat="69.50838888917554" lon="20.5042055479261" id="-48346">
		<tag k="name" v="Vannbakken" />
		<tag k="name:no" v="Vannbakken" />
		<tag k="place" v="farm" />
		<tag k="ssr:date" v="2019-12-27" />
		<tag k="ssr:gruppe" v="gardsbebyggelse" />
		<tag k="ssr:hovedgruppe" v="bebyggelse" />
		<tag k="ssr:stedsnr" v="599060" />
		<tag k="ssr:type" v="bruk" />
	</node>
	<node lat="69.57701666401546" lon="20.396994427549952" id="-48347">
		<tag k="name" v="Libukta" />
		<tag k="name:no" v="Libukta" />
		<tag k="natural" v="bay" />
		<tag k="ssr:date" v="2019-12-27" />
		<tag k="ssr:gruppe" v="kystkontur" />
		<tag k="ssr:hovedgruppe" v="sjø" />
		<tag k="ssr:stedsnr" v="599066" />
		<tag k="ssr:type" v="vikISjø" />
	</node>
	<node lat="69.4960555544766" lon="20.367491641328403" id="-48348">
		<tag k="name" v="Snoitilia" />
		<tag k="name:no" v="Snoitilia" />
		<tag k="natural" v="slope" />
		<tag k="place" v="locality" />
		<tag k="ssr:date" v="2019-12-27" />
		<tag k="ssr:gruppe" v="skråninger" />
		<tag k="ssr:hovedgruppe" v="terreng" />
		<tag k="ssr:stedsnr" v="599221" />
		<tag k="ssr:type" v="li" />
	</node>
	<node lat="69.49041389210775" lon="20.516052770628168" id="-48349">
		<tag k="name" v="Gihcenjárga" />
		<tag k="name:se" v="Gihcenjárga" />
		<tag k="natural" v="cape" />
		<tag k="ssr:date" v="2019-12-27" />
		<tag k="ssr:gruppe" v="ferskvannskontur" />
		<tag k="ssr:hovedgruppe" v="ferskvann" />
		<tag k="ssr:stedsnr" v="599148" />
		<tag k="ssr:type" v="nes" />
	</node>
	<node lat="69.4916638877947" lon="20.533366638350515" id="-48350">
		<tag k="name" v="Golgi" />
		<tag k="name:se" v="Golgi" />
		<tag k="natural" v="spring" />
		<tag k="ssr:date" v="2019-12-27" />
		<tag k="ssr:gruppe" v="rennendeVann" />
		<tag k="ssr:hovedgruppe" v="ferskvann" />
		<tag k="ssr:stedsnr" v="599149" />
		<tag k="ssr:type" v="kilde" />
	</node>
	<node lat="69.45573888633893" lon="20.530927752195215" id="-48351">
		<tag k="name" v="Biltariidi" />
		<tag k="name:se" v="Biltariidi" />
		<tag k="natural" v="slope" />
		<tag k="place" v="locality" />
		<tag k="ssr:date" v="2019-12-27" />
		<tag k="ssr:gruppe" v="skråninger" />
		<tag k="ssr:hovedgruppe" v="terreng" />
		<tag k="ssr:stedsnr" v="599162" />
		<tag k="ssr:type" v="li" />
	</node>
	<node lat="69.56012500002262" lon="20.513705537745256" id="-48352">
		<tag k="name" v="Jávvagieddi" />
		<tag k="name:se" v="Jávvagieddi" />
		<tag k="place" v="locality" />
		<tag k="ssr:date" v="2019-12-27" />
		<tag k="ssr:gruppe" v="flater" />
		<tag k="ssr:hovedgruppe" v="terreng" />
		<tag k="ssr:stedsnr" v="599200" />
		<tag k="ssr:type" v="slette" />
	</node>
	<node lat="69.45938889144384" lon="20.542666644085283" id="-48353">
		<tag k="name" v="Cuoppogieddi" />
		<tag k="name:se" v="Cuoppogieddi" />
		<tag k="place" v="locality" />
		<tag k="ssr:date" v="2021-06-08" />
		<tag k="ssr:gruppe" v="flater" />
		<tag k="ssr:hovedgruppe" v="terreng" />
		<tag k="ssr:stedsnr" v="599201" />
		<tag k="ssr:type" v="slette" />
	</node>
	<node lat="69.5045749978384" lon="20.764277758554776" id="-48354">
		<tag k="name" v="Bahábákti" />
		<tag k="name:se" v="Bahábákti" />
		<tag k="natural" v="hill" />
		<tag k="place" v="locality" />
		<tag k="ssr:date" v="2019-12-27" />
		<tag k="ssr:gruppe" v="høyder" />
		<tag k="ssr:hovedgruppe" v="terreng" />
		<tag k="ssr:stedsnr" v="599501" />
		<tag k="ssr:type" v="berg" />
	</node>
	<node lat="69.74922222670105" lon="20.52807775274106" id="-48355">
		<tag k="name" v="Lakselvmyra" />
		<tag k="name:no" v="Lakselvmyra" />
		<tag k="natural" v="wetland" />
		<tag k="ssr:date" v="2019-12-27" />
		<tag k="ssr:gruppe" v="våtmark" />
		<tag k="ssr:hovedgruppe" v="markslag" />
		<tag k="ssr:stedsnr" v="599899" />
		<tag k="ssr:type" v="myr" />
	</node>
	<node lat="69.67676944790591" lon="20.520322200236325" id="-48356">
		<tag k="name" v="Moen" />
		<tag k="name:no" v="Moen" />
		<tag k="place" v="locality" />
		<tag k="ssr:date" v="2019-12-27" />
		<tag k="ssr:gruppe" v="flater" />
		<tag k="ssr:hovedgruppe" v="terreng" />
		<tag k="ssr:stedsnr" v="599900" />
		<tag k="ssr:type" v="mo" />
	</node>
	<node lat="69.46858055521145" lon="20.959583295705702" id="-48357">
		<tag k="fixme" v="consider natural=peak for the most distinct mountains in the district" />
		<tag k="name" v="Orda" />
		<tag k="name:se" v="Orda" />
		<tag k="natural" v="hill" />
		<tag k="place" v="locality" />
		<tag k="ssr:date" v="2019-12-27" />
		<tag k="ssr:gruppe" v="høyder" />
		<tag k="ssr:hovedgruppe" v="terreng" />
		<tag k="ssr:stedsnr" v="600267" />
		<tag k="ssr:type" v="fjell" />
	</node>
	<node lat="69.50969444406229" lon="20.624997207677" id="-48358">
		<tag k="name" v="Laktán" />
		<tag k="name:se" v="Laktán" />
		<tag k="natural" v="slope" />
		<tag k="place" v="locality" />
		<tag k="ssr:date" v="2019-12-27" />
		<tag k="ssr:gruppe" v="skråninger" />
		<tag k="ssr:hovedgruppe" v="terreng" />
		<tag k="ssr:stedsnr" v="600849" />
		<tag k="ssr:type" v="li" />
	</node>
	<node lat="69.508897221778" lon="20.63417497172467" id="-48359">
		<tag k="name" v="Fjellvåkberget" />
		<tag k="name:no" v="Fjellvåkberget" />
		<tag k="natural" v="hill" />
		<tag k="place" v="locality" />
		<tag k="ssr:date" v="2019-12-27" />
		<tag k="ssr:gruppe" v="høyder" />
		<tag k="ssr:hovedgruppe" v="terreng" />
		<tag k="ssr:stedsnr" v="600850" />
		<tag k="ssr:type" v="berg" />
	</node>
	<node lat="69.49552500027937" lon="20.834291651789528" id="-48361">
		<tag k="name" v="Myrberg" />
		<tag k="name:no" v="Myrberg" />
		<tag k="old_name:no" v="Jeaggeduohki" />
		<tag k="place" v="farm" />
		<tag k="ssr:date" v="2019-12-27" />
		<tag k="ssr:gruppe" v="gardsbebyggelse" />
		<tag k="ssr:hovedgruppe" v="bebyggelse" />
		<tag k="ssr:stedsnr" v="605272" />
		<tag k="ssr:type" v="bruk" />
	</node>
	<node lat="69.75256389157286" lon="20.494002749098293" id="-48371">
		<tag k="name" v="Djupvik" />
		<tag k="name:no" v="Djupvik" />
		<tag k="place" v="farm" />
		<tag k="ssr:date" v="2019-12-27" />
		<tag k="ssr:gruppe" v="gardsbebyggelse" />
		<tag k="ssr:hovedgruppe" v="bebyggelse" />
		<tag k="ssr:stedsnr" v="606323" />
		<tag k="ssr:type" v="bruk" />
	</node>
	<node lat="69.36832500184647" lon="21.132308315168046" id="-48372">
		<tag k="name" v="Vuolimus Áhkkejávri" />
		<tag k="name:se" v="Vuolimus Áhkkejávri" />
		<tag k="natural" v="water" />
		<tag k="old_name:se" v="Áhkkejávri, vuolimus" />
		<tag k="ssr:date" v="2019-12-27" />
		<tag k="ssr:gruppe" v="stilleståendeVann" />
		<tag k="ssr:hovedgruppe" v="ferskvann" />
		<tag k="ssr:stedsnr" v="624617" />
		<tag k="ssr:type" v="vann" />
		<tag k="water" v="lake" />
	</node>
	<node lat="69.27341944434758" lon="20.922808316346117" id="-48373">
		<tag k="name" v="Smuolkovággi" />
		<tag k="name:se" v="Smuolkovággi" />
		<tag k="natural" v="valley" />
		<tag k="place" v="locality" />
		<tag k="ssr:date" v="2019-12-27" />
		<tag k="ssr:gruppe" v="senkninger" />
		<tag k="ssr:hovedgruppe" v="terreng" />
		<tag k="ssr:stedsnr" v="624705" />
		<tag k="ssr:type" v="dal" />
	</node>
	<node lat="69.43165833451373" lon="20.907547206140965" id="-48374">
		<tag k="name" v="Siskkit Boršojávri" />
		<tag k="name:se" v="Siskkit Boršojávri" />
		<tag k="natural" v="water" />
		<tag k="old_name:se" v="Boršojávri, siskkit" />
		<tag k="ssr:date" v="2019-12-27" />
		<tag k="ssr:gruppe" v="stilleståendeVann" />
		<tag k="ssr:hovedgruppe" v="ferskvann" />
		<tag k="ssr:stedsnr" v="625514" />
		<tag k="ssr:type" v="tjern" />
	</node>
	<node lat="69.29318055900876" lon="21.091638861269654" id="-48375">
		<tag k="name" v="Márfejávri" />
		<tag k="name:se" v="Márfejávri" />
		<tag k="natural" v="water" />
		<tag k="ssr:date" v="2019-12-27" />
		<tag k="ssr:gruppe" v="stilleståendeVann" />
		<tag k="ssr:hovedgruppe" v="ferskvann" />
		<tag k="ssr:stedsnr" v="625653" />
		<tag k="ssr:type" v="vann" />
		<tag k="water" v="lake" />
	</node>
	<node lat="69.55702499889928" lon="20.3898749935755" id="-48376">
		<tag k="name" v="Ankran" />
		<tag k="name:no" v="Ankran" />
		<tag k="natural" v="cape" />
		<tag k="ssr:date" v="2019-12-27" />
		<tag k="ssr:gruppe" v="kystkontur" />
		<tag k="ssr:hovedgruppe" v="sjø" />
		<tag k="ssr:stedsnr" v="625911" />
		<tag k="ssr:type" v="nesISjø" />
	</node>
	<node lat="69.52505555929316" lon="20.595783314781993" id="-48377">
		<tag k="name" v="Sáttofierran" />
		<tag k="name:se" v="Sáttofierran" />
		<tag k="natural" v="slope" />
		<tag k="place" v="locality" />
		<tag k="ssr:date" v="2019-12-27" />
		<tag k="ssr:gruppe" v="skråninger" />
		<tag k="ssr:hovedgruppe" v="terreng" />
		<tag k="ssr:stedsnr" v="703284" />
		<tag k="ssr:type" v="bakke" />
	</node>
	<node lat="69.52153610839781" lon="20.610627746709945" id="-48378">
		<tag k="name" v="Duvnnirohtu" />
		<tag k="name:se" v="Duvnnirohtu" />
		<tag k="place" v="locality" />
		<tag k="ssr:date" v="2019-12-27" />
		<tag k="ssr:gruppe" v="vegetasjon" />
		<tag k="ssr:hovedgruppe" v="markslag" />
		<tag k="ssr:stedsnr" v="703285" />
		<tag k="ssr:type" v="skog" />
	</node>
	<node lat="69.49340833604217" lon="20.35949443195035" id="-48379">
		<tag k="name" v="Stormyrberget" />
		<tag k="name:no" v="Stormyrberget" />
		<tag k="natural" v="hill" />
		<tag k="place" v="locality" />
		<tag k="ssr:date" v="2021-06-08" />
		<tag k="ssr:gruppe" v="høyder" />
		<tag k="ssr:hovedgruppe" v="terreng" />
		<tag k="ssr:stedsnr" v="703287" />
		<tag k="ssr:type" v="berg" />
	</node>
	<node lat="69.52321389016502" lon="20.47613885858299" id="-48380">
		<tag k="name" v="Doaresjohka - Tverrelva" />
		<tag k="name:no" v="Tverrelva" />
		<tag k="name:se" v="Doaresjohka" />
		<tag k="ssr:date" v="2019-12-27" />
		<tag k="ssr:gruppe" v="rennendeVann" />
		<tag k="ssr:hovedgruppe" v="ferskvann" />
		<tag k="ssr:stedsnr" v="626462" />
		<tag k="ssr:type" v="bekk" />
		<tag k="waterway" v="stream" />
	</node>
	<node lat="69.47923889144845" lon="20.519874975800576" id="-48381">
		<tag k="name" v="Njirranfielbmá" />
		<tag k="name:se" v="Njirranfielbmá" />
		<tag k="ssr:date" v="2021-06-08" />
		<tag k="ssr:gruppe" v="rennendeVann" />
		<tag k="ssr:hovedgruppe" v="ferskvann" />
		<tag k="ssr:stedsnr" v="648602" />
		<tag k="ssr:type" v="bekk" />
		<tag k="waterway" v="stream" />
	</node>
	<node lat="69.53475000279055" lon="20.546938883995598" id="-48382">
		<tag k="name" v="Badjeljeaggi - Øvermyra" />
		<tag k="name:no" v="Øvermyra" />
		<tag k="name:se" v="Badjeljeaggi" />
		<tag k="natural" v="wetland" />
		<tag k="ssr:date" v="2021-06-08" />
		<tag k="ssr:gruppe" v="våtmark" />
		<tag k="ssr:hovedgruppe" v="markslag" />
		<tag k="ssr:stedsnr" v="707144" />
		<tag k="ssr:type" v="myr" />
	</node>
	<node lat="69.49433611460805" lon="20.574952770261163" id="-48386">
		<tag k="fixme" v="consider natural=peak for the most distinct mountains in the district" />
		<tag k="name" v="Stuoračohkka - Storhaugen" />
		<tag k="name:no" v="Storhaugen" />
		<tag k="name:se" v="Stuoračohkka" />
		<tag k="natural" v="hill" />
		<tag k="place" v="locality" />
		<tag k="ssr:date" v="2019-12-27" />
		<tag k="ssr:gruppe" v="høyder" />
		<tag k="ssr:hovedgruppe" v="terreng" />
		<tag k="ssr:stedsnr" v="652809" />
		<tag k="ssr:type" v="fjell" />
	</node>
</osm>
