<?xml version="1.0" encoding="UTF-8"?>
<osm version="0.6" generator="osmapis">
	<node lat="69.60399444743369" lon="20.534555545154703" id="-48563">
		<tag k="name" v="Gáivuona suohkan - Kåfjord kommune - Kaivuonon komuuni" />
		<tag k="name:fkv" v="Kaivuonon komuuni" />
		<tag k="name:no" v="Kåfjord kommune" />
		<tag k="name:se" v="Gáivuona suohkan" />
		<tag k="ssr:date" v="2021-06-08" />
		<tag k="ssr:gruppe" v="administrativeIndelinger" />
		<tag k="ssr:hovedgruppe" v="offentligAdministrasjon" />
		<tag k="ssr:stedsnr" v="147873" />
		<tag k="ssr:type" v="kommune" />
	</node>
	<node lat="69.60289697088983" lon="20.531596531990367" id="-49188">
		<tag k="name" v="Olderdalen" />
		<tag k="name:no" v="Olderdalen" />
		<tag k="ssr:date" v="2019-12-27" />
		<tag k="ssr:gruppe" v="navigasjon" />
		<tag k="ssr:hovedgruppe" v="infrastruktur" />
		<tag k="ssr:stedsnr" v="929630" />
		<tag k="ssr:type" v="fyrlykt" />
	</node>
	<node lat="69.52613333807565" lon="20.52595830891912" id="-49206">
		<tag k="name" v="Manndalen skolekrets" />
		<tag k="name:no" v="Manndalen skolekrets" />
		<tag k="ssr:date" v="2021-06-08" />
		<tag k="ssr:gruppe" v="administrativeIndelinger" />
		<tag k="ssr:hovedgruppe" v="offentligAdministrasjon" />
		<tag k="ssr:stedsnr" v="931965" />
		<tag k="ssr:type" v="annenAdministrativInndeling" />
	</node>
	<node lat="69.5138750016881" lon="20.785099969859157" id="-49537">
		<tag k="name" v="Bartagieddi - Pertenga - Perttukenttä" />
		<tag k="name:fkv" v="Perttukenttä" />
		<tag k="name:no" v="Pertenga" />
		<tag k="name:se" v="Bartagieddi" />
		<tag k="ssr:date" v="2021-06-08" />
		<tag k="ssr:gruppe" v="navigasjon" />
		<tag k="ssr:hovedgruppe" v="infrastruktur" />
		<tag k="ssr:stedsnr" v="201710" />
		<tag k="ssr:type" v="fyrlykt" />
	</node>
	<node lat="69.52613333807565" lon="20.52595830891912" id="-49615">
		<tag k="name" v="Manndalen stemmekrets" />
		<tag k="name:no" v="Manndalen stemmekrets" />
		<tag k="ssr:date" v="2021-06-08" />
		<tag k="ssr:gruppe" v="administrativeIndelinger" />
		<tag k="ssr:hovedgruppe" v="offentligAdministrasjon" />
		<tag k="ssr:stedsnr" v="324954" />
		<tag k="ssr:type" v="annenAdministrativInndeling" />
	</node>
	<node lat="69.54562491285151" lon="20.58495594463977" id="-49677">
		<tag k="name" v="Manndalsklubben" />
		<tag k="name:no" v="Manndalsklubben" />
		<tag k="ssr:date" v="2021-06-08" />
		<tag k="ssr:gruppe" v="navigasjon" />
		<tag k="ssr:hovedgruppe" v="infrastruktur" />
		<tag k="ssr:stedsnr" v="382621" />
		<tag k="ssr:type" v="fyrlykt" />
	</node>
	<node lat="69.74552137080079" lon="20.494948704497247" id="-50330">
		<tag k="name" v="Hammarneset" />
		<tag k="name:no" v="Hammarneset" />
		<tag k="ssr:date" v="2019-12-27" />
		<tag k="ssr:gruppe" v="veg" />
		<tag k="ssr:hovedgruppe" v="infrastruktur" />
		<tag k="ssr:stedsnr" v="1073762" />
		<tag k="ssr:type" v="adressenavn" />
	</node>
	<node lat="69.75161354509827" lon="20.49734153692846" id="-50331">
		<tag k="name" v="Storhaugveien" />
		<tag k="name:no" v="Storhaugveien" />
		<tag k="ssr:date" v="2019-12-27" />
		<tag k="ssr:gruppe" v="veg" />
		<tag k="ssr:hovedgruppe" v="infrastruktur" />
		<tag k="ssr:stedsnr" v="1073763" />
		<tag k="ssr:type" v="adressenavn" />
	</node>
	<node lat="69.74480430229629" lon="20.49868377781422" id="-50332">
		<tag k="name" v="Gambukta" />
		<tag k="name:no" v="Gambukta" />
		<tag k="ssr:date" v="2019-12-27" />
		<tag k="ssr:gruppe" v="veg" />
		<tag k="ssr:hovedgruppe" v="infrastruktur" />
		<tag k="ssr:stedsnr" v="1073764" />
		<tag k="ssr:type" v="adressenavn" />
	</node>
	<node lat="70.08225403199775" lon="29.73028468656217" id="-50333">
		<tag k="fixme" v="multiple name tags, choose one and add the other to alt_name" />
		<tag k="name" v="Troms og Finnmark;Troms og Finnmark fylke - Romssa ja Finnmárkku fylka - Tromssan ja Finmarkun fylkki" />
		<tag k="name:fkv" v="Tromssan ja Finmarkun fylkki" />
		<tag k="name:no" v="Troms og Finnmark;Troms og Finnmark fylke" />
		<tag k="name:se" v="Romssa ja Finnmárkku fylka" />
		<tag k="ssr:date" v="2021-06-08" />
		<tag k="ssr:gruppe" v="administrativeIndelinger" />
		<tag k="ssr:hovedgruppe" v="offentligAdministrasjon" />
		<tag k="ssr:stedsnr" v="1073694" />
		<tag k="ssr:type" v="fylke" />
	</node>
	<node lat="69.60124858748966" lon="20.547466846174835" id="-50334">
		<tag k="name" v="Soleng" />
		<tag k="name:no" v="Soleng" />
		<tag k="ssr:date" v="2019-12-27" />
		<tag k="ssr:gruppe" v="veg" />
		<tag k="ssr:hovedgruppe" v="infrastruktur" />
		<tag k="ssr:stedsnr" v="1074253" />
		<tag k="ssr:type" v="adressenavn" />
	</node>
	<node lat="69.50058237012216" lon="20.821443286600633" id="-50335">
		<tag k="name" v="Bjørkholt" />
		<tag k="name:no" v="Bjørkholt" />
		<tag k="ssr:date" v="2019-12-27" />
		<tag k="ssr:gruppe" v="veg" />
		<tag k="ssr:hovedgruppe" v="infrastruktur" />
		<tag k="ssr:stedsnr" v="1074258" />
		<tag k="ssr:type" v="adressenavn" />
	</node>
	<node lat="69.49299310086609" lon="20.828157925051613" id="-50336">
		<tag k="name" v="Isfjellveien" />
		<tag k="name:no" v="Isfjellveien" />
		<tag k="ssr:date" v="2019-12-27" />
		<tag k="ssr:gruppe" v="veg" />
		<tag k="ssr:hovedgruppe" v="infrastruktur" />
		<tag k="ssr:stedsnr" v="1074260" />
		<tag k="ssr:type" v="adressenavn" />
	</node>
	<node lat="69.45212585694287" lon="7.996818763004846" id="-50337">
		<tag k="name" v="Perttukentäntie" />
		<tag k="name:fkv" v="Perttukentäntie" />
		<tag k="ssr:date" v="2019-12-27" />
		<tag k="ssr:gruppe" v="veg" />
		<tag k="ssr:hovedgruppe" v="infrastruktur" />
		<tag k="ssr:stedsnr" v="1074262" />
		<tag k="ssr:type" v="adressenavn" />
	</node>
	<node lat="69.36693482304057" lon="21.07415295634827" id="-50338">
		<tag k="name" v="Haltiantie" />
		<tag k="name:fkv" v="Haltiantie" />
		<tag k="ssr:date" v="2019-12-27" />
		<tag k="ssr:gruppe" v="veg" />
		<tag k="ssr:hovedgruppe" v="infrastruktur" />
		<tag k="ssr:stedsnr" v="1074263" />
		<tag k="ssr:type" v="adressenavn" />
	</node>
	<node lat="69.54216902136066" lon="20.551055830085403" id="-50339">
		<tag k="name" v="Olmmáiváhbálggis" />
		<tag k="name:se" v="Olmmáiváhbálggis" />
		<tag k="ssr:date" v="2019-12-27" />
		<tag k="ssr:gruppe" v="veg" />
		<tag k="ssr:hovedgruppe" v="infrastruktur" />
		<tag k="ssr:stedsnr" v="1074266" />
		<tag k="ssr:type" v="adressenavn" />
	</node>
	<node lat="69.44005423835128" lon="20.562453749198223" id="-50340">
		<tag k="name" v="Vállas" />
		<tag k="name:se" v="Vállas" />
		<tag k="ssr:date" v="2019-12-27" />
		<tag k="ssr:gruppe" v="veg" />
		<tag k="ssr:hovedgruppe" v="infrastruktur" />
		<tag k="ssr:stedsnr" v="1074269" />
		<tag k="ssr:type" v="adressenavn" />
	</node>
	<node lat="69.52417896372341" lon="20.544551913149558" id="-50341">
		<tag k="name" v="Lovttat" />
		<tag k="name:se" v="Lovttat" />
		<tag k="ssr:date" v="2019-12-27" />
		<tag k="ssr:gruppe" v="veg" />
		<tag k="ssr:hovedgruppe" v="infrastruktur" />
		<tag k="ssr:stedsnr" v="1074268" />
		<tag k="ssr:type" v="adressenavn" />
	</node>
	<node lat="69.4702255313826" lon="20.923949121725574" id="-50342">
		<tag k="name" v="Stasjonsveien" />
		<tag k="name:no" v="Stasjonsveien" />
		<tag k="ssr:date" v="2019-12-27" />
		<tag k="ssr:gruppe" v="veg" />
		<tag k="ssr:hovedgruppe" v="infrastruktur" />
		<tag k="ssr:stedsnr" v="1074291" />
		<tag k="ssr:type" v="adressenavn" />
	</node>
	<node lat="69.54536662817664" lon="20.528884814149126" id="-50343">
		<tag k="name" v="Kjerringdalsveien" />
		<tag k="name:no" v="Kjerringdalsveien" />
		<tag k="ssr:date" v="2019-12-27" />
		<tag k="ssr:gruppe" v="veg" />
		<tag k="ssr:hovedgruppe" v="infrastruktur" />
		<tag k="ssr:stedsnr" v="1074293" />
		<tag k="ssr:type" v="adressenavn" />
	</node>
	<node lat="69.4858021210783" lon="20.85995336967884" id="-50344">
		<tag k="name" v="Holmen" />
		<tag k="name:no" v="Holmen" />
		<tag k="ssr:date" v="2019-12-27" />
		<tag k="ssr:gruppe" v="veg" />
		<tag k="ssr:hovedgruppe" v="infrastruktur" />
		<tag k="ssr:stedsnr" v="1074292" />
		<tag k="ssr:type" v="adressenavn" />
	</node>
	<node lat="69.51343671052328" lon="20.51100958868546" id="-50345">
		<tag k="name" v="Vatneveien" />
		<tag k="name:no" v="Vatneveien" />
		<tag k="ssr:date" v="2019-12-27" />
		<tag k="ssr:gruppe" v="veg" />
		<tag k="ssr:hovedgruppe" v="infrastruktur" />
		<tag k="ssr:stedsnr" v="1074294" />
		<tag k="ssr:type" v="adressenavn" />
	</node>
	<node lat="69.52465518249132" lon="20.524753566934358" id="-50346">
		<tag k="name" v="Biedebakken" />
		<tag k="name:no" v="Biedebakken" />
		<tag k="ssr:date" v="2019-12-27" />
		<tag k="ssr:gruppe" v="veg" />
		<tag k="ssr:hovedgruppe" v="infrastruktur" />
		<tag k="ssr:stedsnr" v="1074296" />
		<tag k="ssr:type" v="adressenavn" />
	</node>
	<node lat="69.6005151696313" lon="20.544205507880918" id="-50347">
		<tag k="name" v="Kirkeveien" />
		<tag k="name:no" v="Kirkeveien" />
		<tag k="ssr:date" v="2019-12-27" />
		<tag k="ssr:gruppe" v="veg" />
		<tag k="ssr:hovedgruppe" v="infrastruktur" />
		<tag k="ssr:stedsnr" v="1074300" />
		<tag k="ssr:type" v="adressenavn" />
	</node>
	<node lat="69.53609075166135" lon="20.54664483985234" id="-50348">
		<tag k="name" v="Moen" />
		<tag k="name:no" v="Moen" />
		<tag k="ssr:date" v="2019-12-27" />
		<tag k="ssr:gruppe" v="veg" />
		<tag k="ssr:hovedgruppe" v="infrastruktur" />
		<tag k="ssr:stedsnr" v="1074297" />
		<tag k="ssr:type" v="adressenavn" />
	</node>
	<node lat="69.67199831412726" lon="20.493934195732862" id="-50349">
		<tag k="name" v="Lyngenfjordveien" />
		<tag k="ssr:date" v="2019-12-27" />
		<tag k="ssr:gruppe" v="veg" />
		<tag k="ssr:hovedgruppe" v="infrastruktur" />
		<tag k="ssr:stedsnr" v="1074231" />
		<tag k="ssr:type" v="adressenavn" />
	</node>
	<node lat="69.60304524457597" lon="20.537641210947708" id="-50350">
		<tag k="name" v="Gropa" />
		<tag k="name:no" v="Gropa" />
		<tag k="ssr:date" v="2019-12-27" />
		<tag k="ssr:gruppe" v="veg" />
		<tag k="ssr:hovedgruppe" v="infrastruktur" />
		<tag k="ssr:stedsnr" v="1074237" />
		<tag k="ssr:type" v="adressenavn" />
	</node>
	<node lat="69.44963121105853" lon="20.94060209331223" id="-50351">
		<tag k="name" v="Guolášveien" />
		<tag k="name:no" v="Guolášveien" />
		<tag k="ssr:date" v="2019-12-27" />
		<tag k="ssr:gruppe" v="veg" />
		<tag k="ssr:hovedgruppe" v="infrastruktur" />
		<tag k="ssr:stedsnr" v="1074298" />
		<tag k="ssr:type" v="adressenavn" />
	</node>
	<node lat="69.75864268360176" lon="20.466428436332432" id="-50352">
		<tag k="name" v="Spåkenesveien" />
		<tag k="name:no" v="Spåkenesveien" />
		<tag k="ssr:date" v="2019-12-27" />
		<tag k="ssr:gruppe" v="veg" />
		<tag k="ssr:hovedgruppe" v="infrastruktur" />
		<tag k="ssr:stedsnr" v="1074299" />
		<tag k="ssr:type" v="adressenavn" />
	</node>
	<node lat="69.52486864438045" lon="20.73228255738004" id="-50353">
		<tag k="name" v="Langnesveien" />
		<tag k="name:no" v="Langnesveien" />
		<tag k="ssr:date" v="2019-12-27" />
		<tag k="ssr:gruppe" v="veg" />
		<tag k="ssr:hovedgruppe" v="infrastruktur" />
		<tag k="ssr:stedsnr" v="1074301" />
		<tag k="ssr:type" v="adressenavn" />
	</node>
	<node lat="69.51522036471331" lon="20.785285550919777" id="-50354">
		<tag k="name" v="Trollvikveien" />
		<tag k="name:no" v="Trollvikveien" />
		<tag k="ssr:date" v="2019-12-27" />
		<tag k="ssr:gruppe" v="veg" />
		<tag k="ssr:hovedgruppe" v="infrastruktur" />
		<tag k="ssr:stedsnr" v="1074302" />
		<tag k="ssr:type" v="adressenavn" />
	</node>
	<node lat="69.48936735048395" lon="20.84390865221756" id="-50355">
		<tag k="name" v="Nesseveien" />
		<tag k="name:no" v="Nesseveien" />
		<tag k="ssr:date" v="2019-12-27" />
		<tag k="ssr:gruppe" v="veg" />
		<tag k="ssr:hovedgruppe" v="infrastruktur" />
		<tag k="ssr:stedsnr" v="1074303" />
		<tag k="ssr:type" v="adressenavn" />
	</node>
	<node lat="69.4949175709472" lon="20.831712988550578" id="-50356">
		<tag k="name" v="Svenhaugen" />
		<tag k="name:no" v="Svenhaugen" />
		<tag k="ssr:date" v="2019-12-27" />
		<tag k="ssr:gruppe" v="veg" />
		<tag k="ssr:hovedgruppe" v="infrastruktur" />
		<tag k="ssr:stedsnr" v="1074305" />
		<tag k="ssr:type" v="adressenavn" />
	</node>
	<node lat="69.49759495448359" lon="20.824892792766477" id="-50357">
		<tag k="name" v="Bakkemoen" />
		<tag k="name:no" v="Bakkemoen" />
		<tag k="ssr:date" v="2019-12-27" />
		<tag k="ssr:gruppe" v="veg" />
		<tag k="ssr:hovedgruppe" v="infrastruktur" />
		<tag k="ssr:stedsnr" v="1074304" />
		<tag k="ssr:type" v="adressenavn" />
	</node>
	<node lat="69.51208870435637" lon="20.70865405635673" id="-50358">
		<tag k="name" v="Båen" />
		<tag k="name:no" v="Båen" />
		<tag k="ssr:date" v="2019-12-27" />
		<tag k="ssr:gruppe" v="veg" />
		<tag k="ssr:hovedgruppe" v="infrastruktur" />
		<tag k="ssr:stedsnr" v="1074306" />
		<tag k="ssr:type" v="adressenavn" />
	</node>
	<node lat="69.54302790681385" lon="20.526863384265948" id="-50359">
		<tag k="name" v="Skardalsveien" />
		<tag k="name:no" v="Skardalsveien" />
		<tag k="ssr:date" v="2019-12-27" />
		<tag k="ssr:gruppe" v="veg" />
		<tag k="ssr:hovedgruppe" v="infrastruktur" />
		<tag k="ssr:stedsnr" v="1074307" />
		<tag k="ssr:type" v="adressenavn" />
	</node>
	<node lat="69.50676098701881" lon="20.51095708756086" id="-50360">
		<tag k="name" v="Bakvannet" />
		<tag k="name:no" v="Bakvannet" />
		<tag k="ssr:date" v="2019-12-27" />
		<tag k="ssr:gruppe" v="veg" />
		<tag k="ssr:hovedgruppe" v="infrastruktur" />
		<tag k="ssr:stedsnr" v="1074308" />
		<tag k="ssr:type" v="adressenavn" />
	</node>
	<node lat="69.54590706220011" lon="20.52915359827286" id="-50361">
		<tag k="name" v="Samuelsbergveien" />
		<tag k="name:no" v="Samuelsbergveien" />
		<tag k="ssr:date" v="2019-12-27" />
		<tag k="ssr:gruppe" v="veg" />
		<tag k="ssr:hovedgruppe" v="infrastruktur" />
		<tag k="ssr:stedsnr" v="1074309" />
		<tag k="ssr:type" v="adressenavn" />
	</node>
	<node lat="69.57666316739896" lon="20.58860377319228" id="-50362">
		<tag k="name" v="Nommedalsveien" />
		<tag k="name:no" v="Nommedalsveien" />
		<tag k="ssr:date" v="2019-12-27" />
		<tag k="ssr:gruppe" v="veg" />
		<tag k="ssr:hovedgruppe" v="infrastruktur" />
		<tag k="ssr:stedsnr" v="1074311" />
		<tag k="ssr:type" v="adressenavn" />
	</node>
	<node lat="69.53198376928002" lon="20.374487750405557" id="-50363">
		<tag k="name" v="Indre Nordneset" />
		<tag k="name:no" v="Indre Nordneset" />
		<tag k="ssr:date" v="2019-12-27" />
		<tag k="ssr:gruppe" v="veg" />
		<tag k="ssr:hovedgruppe" v="infrastruktur" />
		<tag k="ssr:stedsnr" v="1074453" />
		<tag k="ssr:type" v="adressenavn" />
	</node>
	<node lat="69.4597659005097" lon="20.323441737665313" id="-50364">
		<tag k="name" v="Nordnesveien" />
		<tag k="name:no" v="Nordnesveien" />
		<tag k="old_name:no" v="Indre Nordneset" />
		<tag k="ssr:date" v="2019-12-27" />
		<tag k="ssr:gruppe" v="veg" />
		<tag k="ssr:hovedgruppe" v="infrastruktur" />
		<tag k="ssr:stedsnr" v="1074454" />
		<tag k="ssr:type" v="adressenavn" />
	</node>
	<node lat="69.67140274192768" lon="20.493986778432888" id="-50368">
		<tag k="name" v="Viikka" />
		<tag k="name:fkv" v="Viikka" />
		<tag k="ssr:date" v="2020-02-17" />
		<tag k="ssr:gruppe" v="veg" />
		<tag k="ssr:hovedgruppe" v="infrastruktur" />
		<tag k="ssr:stedsnr" v="1075198" />
		<tag k="ssr:type" v="adressenavn" />
	</node>
</osm>
