<?xml version="1.0" encoding="UTF-8"?>
<<<<<<< HEAD
<osm version="0.6" generator="osmapis">
	<node lat="62.90718611196009" lon="11.847999998690916" id="-28437">
		<tag k="highway" v="path" />
		<tag k="name" v="Møbekkvollvegen" />
		<tag k="ssr:stedsnr" v="31820" />
	</node>
	<node lat="63.05465278015782" lon="11.636658330770851" id="-28536">
		<tag k="highway" v="path" />
		<tag k="name" v="Seterbakksvingen" />
		<tag k="ssr:stedsnr" v="213625" />
	</node>
	<node lat="62.89452778200539" lon="11.826316676748307" id="-28664">
		<tag k="highway" v="path" />
		<tag k="name" v="Kjølivegen" />
		<tag k="ssr:stedsnr" v="395994" />
	</node>
	<node lat="62.99390555521333" lon="11.677950005694173" id="-28838">
		<tag k="highway" v="path" />
		<tag k="name" v="Svartåvegen" />
		<tag k="ssr:stedsnr" v="637975" />
	</node>
	<node lat="63.075388888272435" lon="11.440511104078208" id="-28919">
=======
<osm generator="osmapis" version="0.6">
	<node id="-761566" lat="62.894527782" lon="11.8263166767">
>>>>>>> e1d4bc35ff8a6074a6f2e91616a996b547c36f15
		<tag k="highway" v="path" />
		<tag k="name" v="Langbakken" />
		<tag k="ssr:stedsnr" v="819573" />
	</node>
<<<<<<< HEAD
	<node lat="62.884041670758876" lon="11.829163899032244" id="-28928">
		<tag k="highway" v="path" />
		<tag k="name" v="Riastvegen" />
		<tag k="ssr:stedsnr" v="820809" />
	</node>
	<node lat="63.093838886764146" lon="11.442866672604222" id="-28962">
=======
	<node id="-760859" lat="63.0699916623" lon="11.6276694484">
		<tag k="ford" v="yes" />
		<tag k="name" v="Øra" />
		<tag k="place" v="locality" />
		<tag k="ssr:stedsnr" v="445439" />
	</node>
	<node id="-761242" lat="62.907186112" lon="11.8479999987">
>>>>>>> e1d4bc35ff8a6074a6f2e91616a996b547c36f15
		<tag k="highway" v="path" />
		<tag k="name" v="Høyskogvegen" />
		<tag k="ssr:stedsnr" v="880523" />
	</node>
<<<<<<< HEAD
	<node lat="62.98773888576512" lon="11.684988897954739" id="-29099">
=======
	<node id="-761092" lat="63.0753888883" lon="11.4405111041">
		<tag k="highway" v="path" />
		<tag k="name" v="Langbakken" />
		<tag k="ssr:stedsnr" v="819573" />
	</node>
	<node id="-761302" lat="62.9877388858" lon="11.684988898">
>>>>>>> e1d4bc35ff8a6074a6f2e91616a996b547c36f15
		<tag k="highway" v="path" />
		<tag k="name" v="Grønsjøvegen" />
		<tag k="ssr:stedsnr" v="91981" />
	</node>
<<<<<<< HEAD
	<node lat="63.069991662316646" lon="11.627669448410812" id="-29409">
		<tag k="ford" v="yes" />
		<tag k="name" v="Øra" />
		<tag k="place" v="locality" />
		<tag k="ssr:stedsnr" v="445439" />
	</node>
	<node lat="62.91993611536707" lon="11.917969445983776" id="-29521">
=======
	<node id="-761102" lat="62.8840416708" lon="11.829163899">
>>>>>>> e1d4bc35ff8a6074a6f2e91616a996b547c36f15
		<tag k="highway" v="path" />
		<tag k="name" v="Rotåtjønnvegen" />
		<tag k="ssr:stedsnr" v="577919" />
	</node>
<<<<<<< HEAD
	<node lat="62.985591670101726" lon="11.710049993455971" id="-29729">
=======
	<node id="-761002" lat="62.9855916701" lon="11.7100499935">
>>>>>>> e1d4bc35ff8a6074a6f2e91616a996b547c36f15
		<tag k="highway" v="path" />
		<tag k="name" v="Vintervegen" />
		<tag k="ssr:stedsnr" v="880980" />
	</node>
<<<<<<< HEAD
=======
	<node id="-761669" lat="62.9199361154" lon="11.917969446">
		<tag k="highway" v="path" />
		<tag k="name" v="Rotåtjønnvegen" />
		<tag k="ssr:stedsnr" v="577919" />
	</node>
	<node id="-761156" lat="63.0938388868" lon="11.4428666726">
		<tag k="highway" v="path" />
		<tag k="name" v="Høyskogvegen" />
		<tag k="ssr:stedsnr" v="880523" />
	</node>
	<node id="-761730" lat="62.9939055552" lon="11.6779500057">
		<tag k="highway" v="path" />
		<tag k="name" v="Svartåvegen" />
		<tag k="ssr:stedsnr" v="637975" />
	</node>
	<node id="-760635" lat="63.0546527802" lon="11.6366583308">
		<tag k="highway" v="path" />
		<tag k="name" v="Seterbakksvingen" />
		<tag k="ssr:stedsnr" v="213625" />
	</node>
>>>>>>> e1d4bc35ff8a6074a6f2e91616a996b547c36f15
</osm>
