<?xml version="1.0" encoding="UTF-8"?>
<osm generator="osmapis" version="0.6">
	<node id="-888319" lat="63.0408611155" lon="11.7644138847">
		<tag k="alt_name" v="Nevollen, østre" />
		<tag k="fixme" v="multiple name tags, choose one and add the other to alt_name" />
		<tag k="historic" v="shieling" />
		<tag k="name" v="Jenshaugvollen;Østre Nevollen" />
		<tag k="place" v="locality" />
		<tag k="ssr:stedsnr" v="12421" />
	</node>
	<node id="-888318" lat="62.9989127194" lon="11.6842970139">
		<tag k="fixme" v="consider place=hamlet" />
		<tag k="name" v="Løvøya" />
		<tag k="place" v="farm" />
		<tag k="ssr:stedsnr" v="437266" />
	</node>
	<node id="-888316" lat="63.0801321152" lon="11.4150693271">
		<tag k="name" v="Øvre Hillmo" />
		<tag k="old_name" v="Hilmo øv." />
		<tag k="place" v="farm" />
		<tag k="ssr:stedsnr" v="698619" />
	</node>
	<node id="-887466" lat="62.9377194426" lon="11.8290249981">
		<tag k="name" v="Kuhaugen" />
		<tag k="place" v="farm" />
		<tag k="ssr:stedsnr" v="576710" />
	</node>
	<node id="-887551" lat="63.072244445" lon="11.8661333398">
		<tag k="name" v="Pilråa" />
		<tag k="place" v="locality" />
		<tag k="ssr:stedsnr" v="384607" />
	</node>
	<node id="-888310" lat="63.0636361156" lon="11.4567722227">
		<tag k="name" v="Gresslia" />
		<tag k="place" v="hamlet" />
		<tag k="ssr:stedsnr" v="142243" />
	</node>
	<node id="-888308" lat="63.0529944429" lon="11.6717999917">
		<tag k="name" v="Høgli" />
		<tag k="place" v="farm" />
		<tag k="ssr:stedsnr" v="819757" />
	</node>
	<node id="-887294" lat="62.9008111152" lon="11.8739888822">
		<tag k="name" v="Nylandet" />
		<tag k="place" v="farm" />
		<tag k="ssr:stedsnr" v="680809" />
	</node>
	<node id="-888305" lat="63.0415861084" lon="11.6439777725">
		<tag k="name" v="Hallvardsgarden" />
		<tag k="place" v="farm" />
		<tag k="ssr:stedsnr" v="637735" />
	</node>
	<node id="-887464" lat="63.0496063127" lon="11.6688481858">
		<tag k="name" v="Jensgarden" />
		<tag k="place" v="farm" />
		<tag k="ssr:stedsnr" v="12333" />
	</node>
	<node id="-887277" lat="63.0417583362" lon="11.7047138985">
		<tag k="leisure" v="pitch" />
		<tag k="name" v="Sellisjøbanen" />
		<tag k="ssr:stedsnr" v="423471" />
	</node>
	<node id="-887787" lat="63.0498777761" lon="11.5838638895">
		<tag k="name" v="Larshenmoen" />
		<tag k="place" v="farm" />
		<tag k="ssr:stedsnr" v="819644" />
	</node>
	<node id="-887273" lat="63.1334027802" lon="11.9020861152">
		<tag k="historic" v="shieling" />
		<tag k="name" v="Haugvollen" />
		<tag k="place" v="locality" />
		<tag k="ssr:stedsnr" v="931424" />
	</node>
	<node id="-887548" lat="63.0549777778" lon="11.474438898">
		<tag k="name" v="Soltun" />
		<tag k="place" v="isolated_dwelling" />
		<tag k="ssr:stedsnr" v="455626" />
	</node>
	<node id="-887270" lat="62.9854388917" lon="11.7244944351">
		<tag k="name" v="Brautvollen" />
		<tag k="place" v="locality" />
		<tag k="ssr:stedsnr" v="73961" />
	</node>
	<node id="-887267" lat="63.0456722245" lon="11.5881472167">
		<tag k="alt_name" v="Henmo Østre" />
		<tag k="name" v="Østre Henmo" />
		<tag k="place" v="farm" />
		<tag k="ssr:stedsnr" v="91655" />
	</node>
	<node id="-887778" lat="62.8917833372" lon="11.8732472219">
		<tag k="name" v="Brattkåsa" />
		<tag k="place" v="isolated_dwelling" />
		<tag k="ssr:stedsnr" v="274892" />
	</node>
	<node id="-888289" lat="63.0508194485" lon="11.6729999971">
		<tag k="name" v="Østby" />
		<tag k="place" v="hamlet" />
		<tag k="ssr:stedsnr" v="680375" />
	</node>
	<node id="-888288" lat="63.0431027818" lon="11.7507555508">
		<tag k="alt_name" v="Nevollen, vestre" />
		<tag k="name" v="Vestre Nevollen" />
		<tag k="place" v="locality" />
		<tag k="ssr:stedsnr" v="12420" />
	</node>
	<node id="-887263" lat="63.0461972265" lon="11.6117555574">
		<tag k="name" v="Svellmoen" />
		<tag k="place" v="farm" />
		<tag k="ssr:stedsnr" v="315297" />
	</node>
	<node id="-888286" lat="63.0640916662" lon="11.4460666663">
		<tag k="name" v="Haugen" />
		<tag k="place" v="farm" />
		<tag k="ssr:stedsnr" v="759645" />
	</node>
	<node id="-887260" lat="63.0506260961" lon="11.6723651574">
		<tag k="fixme" v="consider place=hamlet" />
		<tag k="name" v="Østby" />
		<tag k="place" v="farm" />
		<tag k="ssr:stedsnr" v="971883" />
	</node>
	<node id="-887770" lat="62.9131361156" lon="11.9405999907">
		<tag k="name" v="Nyvollen" />
		<tag k="place" v="isolated_dwelling" />
		<tag k="ssr:stedsnr" v="619794" />
	</node>
	<node id="-887769" lat="63.0457638882" lon="11.6262555644">
		<tag k="name" v="Søråsen" />
		<tag k="place" v="farm" />
		<tag k="ssr:stedsnr" v="618302" />
	</node>
	<node id="-888280" lat="63.0604333302" lon="11.4538666676">
		<tag k="name" v="Vårtun" />
		<tag k="place" v="farm" />
		<tag k="ssr:stedsnr" v="152663" />
	</node>
	<node id="-887250" lat="63.0624527741" lon="11.4291555571">
		<tag k="name" v="Djupbekk-koja" />
		<tag k="place" v="farm" />
		<tag k="ssr:stedsnr" v="941634" />
	</node>
	<node id="-888271" lat="63.0645194458" lon="11.4430166602">
		<tag k="name" v="Myrvang" />
		<tag k="place" v="farm" />
		<tag k="ssr:stedsnr" v="195354" />
	</node>
	<node id="-887756" lat="62.9294111138" lon="11.9083361034">
		<tag k="historic" v="shieling" />
		<tag k="name" v="Bergevollen" />
		<tag k="place" v="locality" />
		<tag k="ssr:stedsnr" v="941920" />
	</node>
	<node id="-887242" lat="62.9250638877" lon="11.8646833345">
		<tag k="historic" v="shieling" />
		<tag k="name" v="Ørnesvollen" />
		<tag k="place" v="locality" />
		<tag k="ssr:stedsnr" v="194983" />
	</node>
	<node id="-887241" lat="63.0439348847" lon="11.6483326157">
		<tag k="name" v="Ås" />
		<tag k="place" v="hamlet" />
		<tag k="ssr:stedsnr" v="971882" />
	</node>
	<node id="-887628" lat="63.0596749964" lon="11.4542916688">
		<tag k="alt_name" v="Perhansgarden" />
		<tag k="name" v="Perhansagarden" />
		<tag k="place" v="farm" />
		<tag k="ssr:stedsnr" v="801305" />
	</node>
	<node id="-887238" lat="62.9481305534" lon="11.7852916718">
		<tag k="historic" v="shieling" />
		<tag k="name" v="Langkåsvollen" />
		<tag k="place" v="locality" />
		<tag k="ssr:stedsnr" v="12976" />
	</node>
	<node id="-887749" lat="63.0928750041" lon="11.4513805502">
		<tag k="historic" v="shieling" />
		<tag k="name" v="Nordpåvollen" />
		<tag k="place" v="locality" />
		<tag k="ssr:stedsnr" v="740274" />
	</node>
	<node id="-888260" lat="62.8751861126" lon="11.8907249969">
		<tag k="name" v="Brattfonnvollen" />
		<tag k="place" v="locality" />
		<tag k="ssr:stedsnr" v="923804" />
	</node>
	<node id="-887746" lat="62.9433083291" lon="11.8223166699">
		<tag k="name" v="Arnevollen" />
		<tag k="place" v="isolated_dwelling" />
		<tag k="ssr:stedsnr" v="437995" />
	</node>
	<node id="-887745" lat="63.0557944482" lon="11.5625055609">
		<tag k="name" v="Grubba" />
		<tag k="place" v="farm" />
		<tag k="ssr:stedsnr" v="819645" />
	</node>
	<node id="-887744" lat="63.0858861099" lon="11.633163879">
		<tag k="historic" v="shieling" />
		<tag k="name" v="Bønbekkvollen" />
		<tag k="place" v="locality" />
		<tag k="ssr:stedsnr" v="740275" />
	</node>
	<node id="-888255" lat="63.054786115" lon="11.4751944483">
		<tag k="alt_name" v="Bjørkli" />
		<tag k="name" v="Bjørkly" />
		<tag k="place" v="isolated_dwelling" />
		<tag k="ssr:stedsnr" v="213560" />
	</node>
	<node id="-887229" lat="63.0979249966" lon="11.6983361202">
		<tag k="name" v="Røvollen" />
		<tag k="place" v="isolated_dwelling" />
		<tag k="ssr:stedsnr" v="619337" />
	</node>
	<node id="-887206" lat="63.0022305545" lon="11.8827194525">
		<tag k="name" v="Ånøygamma" />
		<tag k="place" v="locality" />
		<tag k="ssr:stedsnr" v="870595" />
	</node>
	<node id="-887114" lat="63.0985861068" lon="11.4080249978">
		<tag k="name" v="Bjørgvollen" />
		<tag k="place" v="isolated_dwelling" />
		<tag k="ssr:stedsnr" v="323465" />
	</node>
	<node id="-887226" lat="62.9058361143" lon="11.8948500083">
		<tag k="amenity" v="school" />
		<tag k="name" v="Stuggudal skule" />
		<tag k="ssr:stedsnr" v="152918" />
	</node>
	<node id="-887199" lat="63.0611544602" lon="11.4531922695">
		<tag k="fixme" v="consider place=hamlet" />
		<tag k="name" v="Vestre Gresslia" />
		<tag k="place" v="farm" />
		<tag k="ssr:stedsnr" v="971888" />
	</node>
	<node id="-888248" lat="63.0432500025" lon="11.7500916643">
		<tag k="historic" v="shieling" />
		<tag k="name" v="Bønsnevollen" />
		<tag k="place" v="locality" />
		<tag k="ssr:stedsnr" v="213562" />
	</node>
	<node id="-887735" lat="62.9155333342" lon="11.8070555503">
		<tag k="historic" v="shieling" />
		<tag k="name" v="Øvre Fresvollen" />
		<tag k="place" v="locality" />
		<tag k="ssr:stedsnr" v="619790" />
	</node>
	<node id="-887222" lat="62.9954749974" lon="11.6846916669">
		<tag k="name" v="Løvøygjerdet" />
		<tag k="place" v="farm" />
		<tag k="ssr:stedsnr" v="576669" />
	</node>
	<node id="-887733" lat="63.0483305552" lon="11.3791583254">
		<tag k="historic" v="shieling" />
		<tag k="name" v="Granlundvollen" />
		<tag k="place" v="locality" />
		<tag k="ssr:stedsnr" v="819852" />
	</node>
	<node id="-888238" lat="62.8330277823" lon="11.8694083305">
		<tag k="name" v="Langen" />
		<tag k="place" v="farm" />
		<tag k="ssr:stedsnr" v="558837" />
	</node>
	<node id="-888236" lat="63.0831861126" lon="11.4461888898">
		<tag k="name" v="Bjørga" />
		<tag k="place" v="farm" />
		<tag k="ssr:stedsnr" v="142431" />
	</node>
	<node id="-888235" lat="63.0449138919" lon="11.6731694407">
		<tag k="name" v="Skogum" />
		<tag k="place" v="farm" />
		<tag k="ssr:stedsnr" v="801350" />
	</node>
	<node id="-887722" lat="62.9370666707" lon="11.9016333285">
		<tag k="historic" v="shieling" />
		<tag k="name" v="Nygardsvollen" />
		<tag k="place" v="locality" />
		<tag k="ssr:stedsnr" v="698924" />
	</node>
	<node id="-887879" lat="63.1292694455" lon="11.6347638907">
		<tag k="historic" v="shieling" />
		<tag k="name" v="Silderstuggu" />
		<tag k="place" v="locality" />
		<tag k="ssr:stedsnr" v="941742" />
	</node>
	<node id="-887196" lat="63.0450944439" lon="11.6313388806">
		<tag k="name" v="Litlbrekka" />
		<tag k="place" v="farm" />
		<tag k="ssr:stedsnr" v="516705" />
	</node>
	<node id="-888230" lat="63.0429833329" lon="11.6388222282">
		<tag k="name" v="Sollisenget" />
		<tag k="place" v="farm" />
		<tag k="ssr:stedsnr" v="30583" />
	</node>
	<node id="-888229" lat="63.0515888878" lon="11.6738694388">
		<tag k="name" v="Haugen" />
		<tag k="place" v="farm" />
		<tag k="ssr:stedsnr" v="455727" />
	</node>
	<node id="-887836" lat="62.8976000149" lon="11.8773341421">
		<tag k="fixme" v="multiple name tags, choose one and add the other to alt_name; consider place=hamlet" />
		<tag k="name" v="Nedre Stuggudalen;Negarden" />
		<tag k="place" v="farm" />
		<tag k="ssr:stedsnr" v="12764" />
	</node>
	<node id="-887202" lat="62.9327631275" lon="11.8495143044">
		<tag k="name" v="Skogtun" />
		<tag k="place" v="farm" />
		<tag k="ssr:stedsnr" v="558994" />
	</node>
	<node id="-887201" lat="63.0564833313" lon="11.4699222275">
		<tag k="name" v="Solvang" />
		<tag k="place" v="farm" />
		<tag k="ssr:stedsnr" v="576670" />
	</node>
	<node id="-888224" lat="63.0004888847" lon="11.684294451">
		<tag k="name" v="Sakrismoen" />
		<tag k="place" v="farm" />
		<tag k="ssr:stedsnr" v="437402" />
	</node>
	<node id="-888223" lat="63.0449277789" lon="11.6577805624">
		<tag k="fixme" v="consider place=hamlet" />
		<tag k="name" v="Ås" />
		<tag k="place" v="village" />
		<tag k="ssr:stedsnr" v="740324" />
	</node>
	<node id="-887710" lat="63.0616265759" lon="11.4541592829">
		<tag k="name" v="Jensgarden" />
		<tag k="place" v="farm" />
		<tag k="ssr:stedsnr" v="437347" />
	</node>
	<node id="-888221" lat="63.0453638844" lon="11.6562527855">
		<tag k="name" v="Åsheim" />
		<tag k="place" v="farm" />
		<tag k="ssr:stedsnr" v="91601" />
	</node>
	<node id="-887708" lat="63.0438333345" lon="11.613161111">
		<tag k="name" v="Lian" />
		<tag k="place" v="farm" />
		<tag k="ssr:stedsnr" v="133294" />
	</node>
	<node id="-888219" lat="63.0942638905" lon="11.695519437">
		<tag k="name" v="Øyvollen" />
		<tag k="place" v="locality" />
		<tag k="ssr:stedsnr" v="862312" />
	</node>
	<node id="-887706" lat="63.0418361072" lon="11.6646194416">
		<tag k="alt_name" v="Kløften østre;Østre Kløften" />
		<tag k="name" v="Østre Kløfta" />
		<tag k="place" v="farm" />
		<tag k="ssr:stedsnr" v="698707" />
	</node>
	<node id="-887193" lat="63.0787277803" lon="11.4208388964">
		<tag k="name" v="Kvernmoen" />
		<tag k="place" v="farm" />
		<tag k="ssr:stedsnr" v="498361" />
	</node>
	<node id="-887191" lat="63.1046805533" lon="11.6760416634">
		<tag k="name" v="Bakkslåtten" />
		<tag k="place" v="locality" />
		<tag k="ssr:stedsnr" v="437291" />
	</node>
	<node id="-887186" lat="63.0798729737" lon="11.4215259028">
		<tag k="name" v="Nordre Hillmo" />
		<tag k="old_name" v="Hilmo n." />
		<tag k="place" v="farm" />
		<tag k="ssr:stedsnr" v="941629" />
	</node>
	<node id="-887697" lat="63.0569888877" lon="11.4850000059">
		<tag k="name" v="Egga" />
		<tag k="place" v="locality" />
		<tag k="ssr:stedsnr" v="923360" />
	</node>
	<node id="-888207" lat="63.0409472182" lon="11.6468027837">
		<tag k="alt_name" v="Brennåsen østre" />
		<tag k="name" v="Østre Brennåsen" />
		<tag k="place" v="farm" />
		<tag k="ssr:stedsnr" v="455706" />
	</node>
	<node id="-887182" lat="63.0563583332" lon="11.4665777687">
		<tag k="name" v="Bakketun" />
		<tag k="place" v="farm" />
		<tag k="ssr:stedsnr" v="698630" />
	</node>
	<node id="-888205" lat="63.0298194418" lon="11.4580249912">
		<tag k="historic" v="shieling" />
		<tag k="name" v="Jensvollen" />
		<tag k="place" v="locality" />
		<tag k="ssr:stedsnr" v="437388" />
	</node>
	<node id="-887178" lat="63.0614472224" lon="11.4538527802">
		<tag k="name" v="Gresli vestre" />
		<tag k="place" v="farm" />
		<tag k="ssr:stedsnr" v="30631" />
	</node>
	<node id="-887177" lat="62.9179277809" lon="11.8827249913">
		<tag k="name" v="Vestre Stugguvollen" />
		<tag k="old_name" v="Stugguvollen vestre" />
		<tag k="place" v="farm" />
		<tag k="ssr:stedsnr" v="680802" />
	</node>
	<node id="-888198" lat="63.1014083314" lon="11.3786249928">
		<tag k="name" v="Skorbergkoia" />
		<tag k="place" v="isolated_dwelling" />
		<tag k="ssr:stedsnr" v="263479" />
	</node>
	<node id="-887685" lat="63.0798155201" lon="11.4189253595">
		<tag k="fixme" v="consider place=hamlet" />
		<tag k="name" v="Hillmo" />
		<tag k="place" v="farm" />
		<tag k="ssr:stedsnr" v="437330" />
	</node>
	<node id="-887172" lat="63.0700305594" lon="11.4722333302">
		<tag k="fixme" v="consider tourism=alpine_hut or tourism=chalet" />
		<tag k="name" v="Græslihytta" />
		<tag k="old_name" v="Gresslihytta;Greslihytta" />
		<tag k="ssr:stedsnr" v="558328" />
		<tag k="tourism" v="wilderness_hut" />
	</node>
	<node id="-887529" lat="63.052108329" lon="11.576738892">
		<tag k="name" v="Fætta" />
		<tag k="place" v="farm" />
		<tag k="ssr:stedsnr" v="73328" />
	</node>
	<node id="-887169" lat="62.9114027816" lon="11.8921416694">
		<tag k="name" v="Heimro" />
		<tag k="place" v="farm" />
		<tag k="ssr:stedsnr" v="152697" />
	</node>
	<node id="-887680" lat="63.0580222252" lon="11.5309277858">
		<tag k="name" v="Øyvollen" />
		<tag k="place" v="locality" />
		<tag k="ssr:stedsnr" v="151956" />
	</node>
	<node id="-887679" lat="63.0384333348" lon="11.6743333247">
		<tag k="name" v="Husvollen" />
		<tag k="place" v="farm" />
		<tag k="ssr:stedsnr" v="73349" />
	</node>
	<node id="-888188" lat="63.0596527776" lon="11.4487666672">
		<tag k="name" v="Moheim" />
		<tag k="place" v="farm" />
		<tag k="ssr:stedsnr" v="516631" />
	</node>
	<node id="-887675" lat="62.9555138851" lon="11.7963749918">
		<tag k="name" v="Kjørkvollsmoen" />
		<tag k="place" v="farm" />
		<tag k="ssr:stedsnr" v="801975" />
	</node>
	<node id="-887161" lat="63.0794138885" lon="11.4105944496">
		<tag k="name" v="Haugen" />
		<tag k="place" v="farm" />
		<tag k="ssr:stedsnr" v="73298" />
	</node>
	<node id="-888184" lat="63.0301055517" lon="11.5148777728">
		<tag k="historic" v="shieling" />
		<tag k="name" v="Moavollen" />
		<tag k="place" v="locality" />
		<tag k="ssr:stedsnr" v="133341" />
	</node>
	<node id="-888183" lat="62.9785916687" lon="12.1018583389">
		<tag k="fixme" v="consider tourism=alpine_hut or tourism=chalet" />
		<tag k="name" v="Nedalshytta" />
		<tag k="ssr:stedsnr" v="862988" />
		<tag k="tourism" v="wilderness_hut" />
	</node>
	<node id="-887158" lat="63.077677777" lon="11.5079972313">
		<tag k="name" v="Ol-Andersbua" />
		<tag k="place" v="locality" />
		<tag k="ssr:stedsnr" v="749445" />
	</node>
	<node id="-887785" lat="63.0547916643" lon="11.4660333331">
		<tag k="alt_name" v="Græslimoen" />
		<tag k="name" v="Gresslimoen" />
		<tag k="place" v="farm" />
		<tag k="ssr:stedsnr" v="923361" />
	</node>
	<node id="-888180" lat="63.1283194433" lon="11.7080833287">
		<tag k="name" v="Svartåsvollen" />
		<tag k="place" v="isolated_dwelling" />
		<tag k="ssr:stedsnr" v="142424" />
	</node>
	<node id="-888178" lat="62.9412138892" lon="11.8236333428">
		<tag k="historic" v="shieling" />
		<tag k="name" v="Storvollen" />
		<tag k="place" v="locality" />
		<tag k="ssr:stedsnr" v="255995" />
	</node>
	<node id="-888176" lat="63.044649996" lon="11.65868334">
		<tag k="building" v="commercial" />
		<tag k="name" v="Tydalstorget" />
		<tag k="ssr:stedsnr" v="968426" />
	</node>
	<node id="-887150" lat="63.043384985" lon="11.6484185286">
		<tag k="fixme" v="multiple name tags, choose one and add the other to alt_name" />
		<tag k="name" v="Ustgarden;Østre Ås;Ås østre" />
		<tag k="place" v="farm" />
		<tag k="ssr:stedsnr" v="376361" />
	</node>
	<node id="-887661" lat="62.9297055567" lon="11.9613805534">
		<tag k="name" v="Spaklarslivollen" />
		<tag k="place" v="locality" />
		<tag k="ssr:stedsnr" v="437987" />
	</node>
	<node id="-887660" lat="62.8974083369" lon="11.9392583314">
		<tag k="historic" v="shieling" />
		<tag k="name" v="Vektarhaugen" />
		<tag k="place" v="locality" />
		<tag k="ssr:stedsnr" v="316813" />
	</node>
	<node id="-887657" lat="63.0581944416" lon="11.5721444348">
		<tag k="name" v="Solbakken" />
		<tag k="place" v="farm" />
		<tag k="ssr:stedsnr" v="698521" />
	</node>
	<node id="-888167" lat="63.0445917753" lon="11.662262928">
		<tag k="alt_name" v="Åshaugen" />
		<tag k="fixme" v="consider place=hamlet" />
		<tag k="name" v="Jenshaugen" />
		<tag k="place" v="farm" />
		<tag k="ssr:stedsnr" v="455712" />
	</node>
	<node id="-887141" lat="63.0591583291" lon="11.4597277792">
		<tag k="name" v="Malmhaugen" />
		<tag k="place" v="farm" />
		<tag k="ssr:stedsnr" v="941636" />
	</node>
	<node id="-888160" lat="62.9223444461" lon="11.8791944398">
		<tag k="historic" v="shieling" />
		<tag k="name" v="Gjetvollen" />
		<tag k="place" v="locality" />
		<tag k="ssr:stedsnr" v="255986" />
	</node>
	<node id="-887647" lat="62.9358417104" lon="11.9040112727">
		<tag k="historic" v="shieling" />
		<tag k="name" v="Kjølvollan" />
		<tag k="old_name" v="Kjølvollen" />
		<tag k="place" v="locality" />
		<tag k="ssr:stedsnr" v="437990" />
	</node>
	<node id="-887646" lat="63.0421555512" lon="11.6672611188">
		<tag k="leisure" v="pitch" />
		<tag k="name" v="Kløfta idrettsanlegg" />
		<tag k="ssr:stedsnr" v="38641" />
	</node>
	<node id="-887133" lat="63.0373166667" lon="11.6748472262">
		<tag k="name" v="Nytrøa" />
		<tag k="place" v="farm" />
		<tag k="ssr:stedsnr" v="334643" />
	</node>
	<node id="-887643" lat="63.0421944471" lon="11.6250611176">
		<tag k="alt_name" v="Lian" />
		<tag k="name" v="Lia" />
		<tag k="place" v="farm" />
		<tag k="ssr:stedsnr" v="618306" />
	</node>
	<node id="-887130" lat="63.0892583302" lon="11.6861583234">
		<tag k="historic" v="shieling" />
		<tag k="name" v="Øya" />
		<tag k="place" v="locality" />
		<tag k="ssr:stedsnr" v="324453" />
	</node>
	<node id="-887695" lat="63.1116777804" lon="11.9817722293">
		<tag k="fixme" v="consider tourism=alpine_hut or tourism=chalet" />
		<tag k="name" v="Storerikvollen" />
		<tag k="ssr:stedsnr" v="376420" />
		<tag k="tourism" v="wilderness_hut" />
	</node>
	<node id="-888152" lat="63.0430305555" lon="11.4277666646">
		<tag k="historic" v="shieling" />
		<tag k="name" v="Hammervollen" />
		<tag k="place" v="locality" />
		<tag k="ssr:stedsnr" v="255342" />
	</node>
	<node id="-888330" lat="63.0642027739" lon="11.4503416568">
		<tag k="name" v="Gjardesenget" />
		<tag k="place" v="farm" />
		<tag k="ssr:stedsnr" v="273701" />
	</node>
	<node id="-887125" lat="63.061127776" lon="11.4587694423">
		<tag k="fixme" v="consider place=hamlet" />
		<tag k="name" v="Søre Gresslia" />
		<tag k="old_name" v="Gresli søre" />
		<tag k="place" v="farm" />
		<tag k="ssr:stedsnr" v="576659" />
	</node>
	<node id="-888148" lat="62.9007444406" lon="11.8984833419">
		<tag k="fixme" v="consider place=hamlet" />
		<tag k="name" v="Klokkarvollen" />
		<tag k="place" v="farm" />
		<tag k="ssr:stedsnr" v="92865" />
	</node>
	<node id="-887631" lat="63.0579361141" lon="11.456513887">
		<tag k="name" v="Furuly" />
		<tag k="place" v="farm" />
		<tag k="ssr:stedsnr" v="213677" />
	</node>
	<node id="-887117" lat="62.9134833362" lon="11.9378777837">
		<tag k="name" v="Nyvollen" />
		<tag k="place" v="farm" />
		<tag k="ssr:stedsnr" v="152695" />
	</node>
	<node id="-888140" lat="63.0475000039" lon="11.5965916707">
		<tag k="name" v="Brekka" />
		<tag k="place" v="farm" />
		<tag k="ssr:stedsnr" v="376329" />
	</node>
	<node id="-888138" lat="63.139544444" lon="11.7287083279">
		<tag k="name" v="Nesbua" />
		<tag k="place" v="isolated_dwelling" />
		<tag k="ssr:stedsnr" v="273892" />
	</node>
	<node id="-887351" lat="62.9334773272" lon="11.845488157">
		<tag k="fixme" v="consider place=hamlet" />
		<tag k="name" v="Jensvollen" />
		<tag k="place" v="farm" />
		<tag k="ssr:stedsnr" v="558999" />
	</node>
	<node id="-887111" lat="63.1184" lon="11.6394361117">
		<tag k="name" v="Grubb-bua" />
		<tag k="place" v="locality" />
		<tag k="ssr:stedsnr" v="637763" />
	</node>
	<node id="-888132" lat="63.0645111121" lon="11.4583416703">
		<tag k="name" v="Minde" />
		<tag k="place" v="farm" />
		<tag k="ssr:stedsnr" v="880676" />
	</node>
	<node id="-888118" lat="63.0270249997" lon="11.6921138854">
		<tag k="name" v="Stampa" />
		<tag k="place" v="isolated_dwelling" />
		<tag k="ssr:stedsnr" v="30564" />
	</node>
	<node id="-887106" lat="62.934625" lon="11.8413499938">
		<tag k="fixme" v="consider place=hamlet" />
		<tag k="name" v="Patruslia" />
		<tag k="place" v="farm" />
		<tag k="ssr:stedsnr" v="315990" />
	</node>
	<node id="-887236" lat="62.9631722222" lon="11.7384277791">
		<tag k="historic" v="shieling" />
		<tag k="name" v="Molivollen" />
		<tag k="place" v="locality" />
		<tag k="ssr:stedsnr" v="151895" />
	</node>
	<node id="-887104" lat="62.9067444443" lon="11.8958833405">
		<tag k="alt_name" v="Rotvollen;Møsjødalen;Rotvoll;Rotvollen, nordre" />
		<tag k="name" v="Nordre Rotvollen" />
		<tag k="place" v="farm" />
		<tag k="ssr:stedsnr" v="740758" />
	</node>
	<node id="-887103" lat="62.9049527803" lon="11.8962305492">
		<tag k="name" v="Solbakken" />
		<tag k="place" v="isolated_dwelling" />
		<tag k="ssr:stedsnr" v="759915" />
	</node>
	<node id="-887102" lat="62.8956638849" lon="11.8855749994">
		<tag k="name" v="Solvang" />
		<tag k="place" v="isolated_dwelling" />
		<tag k="ssr:stedsnr" v="577930" />
	</node>
	<node id="-888327" lat="63.1636083318" lon="11.7227694399">
		<tag k="fixme" v="consider tourism=alpine_hut or tourism=chalet" />
		<tag k="name" v="Ramsjøhytta" />
		<tag k="ssr:stedsnr" v="73412" />
		<tag k="tourism" v="wilderness_hut" />
	</node>
	<node id="-887099" lat="63.0864055543" lon="11.6487833259">
		<tag k="name" v="Holmsåkoia" />
		<tag k="place" v="locality" />
		<tag k="ssr:stedsnr" v="506429" />
	</node>
	<node id="-887097" lat="63.0433944403" lon="11.6164055581">
		<tag k="alt_name" v="Sollien" />
		<tag k="name" v="Sollia" />
		<tag k="place" v="farm" />
		<tag k="ssr:stedsnr" v="862344" />
	</node>
	<node id="-887608" lat="63.0425583295" lon="11.6696722314">
		<tag k="amenity" v="sports_centre" />
		<tag k="name" v="Tydalshallen" />
		<tag k="ssr:stedsnr" v="361462" />
	</node>
	<node id="-888119" lat="63.0427052905" lon="11.6510142786">
		<tag k="fixme" v="consider place=hamlet" />
		<tag k="name" v="Østre Ås" />
		<tag k="place" v="farm" />
		<tag k="ssr:stedsnr" v="334572" />
	</node>
	<node id="-887606" lat="63.0481111144" lon="11.6130916597">
		<tag k="name" v="Skogly" />
		<tag k="place" v="farm" />
		<tag k="ssr:stedsnr" v="73337" />
	</node>
	<node id="-888117" lat="63.0448972244" lon="11.662799993">
		<tag k="name" v="Jenshaugjerdet" />
		<tag k="place" v="farm" />
		<tag k="ssr:stedsnr" v="213746" />
	</node>
	<node id="-887604" lat="63.0433138931" lon="11.6771388879">
		<tag k="name" v="Lidarende" />
		<tag k="place" v="farm" />
		<tag k="ssr:stedsnr" v="12350" />
	</node>
	<node id="-887603" lat="63.0573944458" lon="11.5768305495">
		<tag k="name" v="Aunhaugen" />
		<tag k="place" v="farm" />
		<tag k="ssr:stedsnr" v="133277" />
	</node>
	<node id="-887601" lat="62.8990305521" lon="11.8748444367">
		<tag k="fixme" v="multiple name tags, choose one and add the other to alt_name; consider place=hamlet" />
		<tag k="name" v="Øvre Stuggudalen;Oppgarden" />
		<tag k="place" v="farm" />
		<tag k="ssr:stedsnr" v="385289" />
	</node>
	<node id="-888110" lat="63.0630638926" lon="11.6213000019">
		<tag k="name" v="Nordhalla" />
		<tag k="place" v="isolated_dwelling" />
		<tag k="ssr:stedsnr" v="740312" />
	</node>
	<node id="-887597" lat="63.0499138899" lon="11.6773111066">
		<tag k="alt_name" v="Sjursgarden ø.v." />
		<tag k="name" v="Sjursgarden" />
		<tag k="place" v="farm" />
		<tag k="ssr:stedsnr" v="73338" />
	</node>
	<node id="-888105" lat="63.0444833362" lon="11.6344333423">
		<tag k="name" v="Åsgrinda" />
		<tag k="place" v="quarter" />
		<tag k="ssr:stedsnr" v="634164" />
	</node>
	<node id="-887525" lat="63.0768583312" lon="11.4167999948">
		<tag k="name" v="Gullbrekka" />
		<tag k="place" v="farm" />
		<tag k="ssr:stedsnr" v="801289" />
	</node>
	<node id="-887591" lat="63.0397888905" lon="11.6458583382">
		<tag k="alt_name" v="Brennåsen vestre" />
		<tag k="name" v="Vestre Brennåsen" />
		<tag k="place" v="farm" />
		<tag k="ssr:stedsnr" v="334701" />
	</node>
	<node id="-888101" lat="62.9405527806" lon="11.8427833294">
		<tag k="historic" v="shieling" />
		<tag k="name" v="Øver Jehanvollen" />
		<tag k="place" v="locality" />
		<tag k="ssr:stedsnr" v="820990" />
	</node>
	<node id="-888100" lat="63.1122027798" lon="11.7554055489">
		<tag k="historic" v="shieling" />
		<tag k="name" v="Riskleppvollen" />
		<tag k="place" v="locality" />
		<tag k="ssr:stedsnr" v="263611" />
	</node>
	<node id="-887934" lat="63.1129527816" lon="11.9015111127">
		<tag k="historic" v="shieling" />
		<tag k="name" v="Gardkleppvollen" />
		<tag k="place" v="locality" />
		<tag k="ssr:stedsnr" v="12388" />
	</node>
	<node id="-888095" lat="62.8396777813" lon="11.8404277694">
		<tag k="historic" v="shieling" />
		<tag k="name" v="Langsvollen" />
		<tag k="place" v="locality" />
		<tag k="ssr:stedsnr" v="12785" />
	</node>
	<node id="-888090" lat="62.92275" lon="11.8704277872">
		<tag k="historic" v="shieling" />
		<tag k="name" v="Brennåsvollen" />
		<tag k="place" v="locality" />
		<tag k="ssr:stedsnr" v="255984" />
	</node>
	<node id="-888089" lat="63.0006361092" lon="11.5983555598">
		<tag k="historic" v="shieling" />
		<tag k="name" v="Ytre Svartåvollen" />
		<tag k="place" v="locality" />
		<tag k="ssr:stedsnr" v="688429" />
	</node>
	<node id="-887354" lat="63.038341666" lon="11.6705138825">
		<tag k="name" v="Tyholt" />
		<tag k="place" v="farm" />
		<tag k="ssr:stedsnr" v="759730" />
	</node>
	<node id="-888086" lat="62.9364777741" lon="11.8314166689">
		<tag k="historic" v="shieling" />
		<tag k="name" v="Jehanvollen" />
		<tag k="place" v="locality" />
		<tag k="ssr:stedsnr" v="801995" />
	</node>
	<node id="-888085" lat="63.0615222183" lon="11.3644638809">
		<tag k="name" v="Hillmohytta" />
		<tag k="old_name" v="Hilmohytta" />
		<tag k="place" v="isolated_dwelling" />
		<tag k="ssr:stedsnr" v="213959" />
	</node>
	<node id="-888082" lat="63.053511114" lon="11.4761555603">
		<tag k="alt_name" v="Greslivollen;Vestre Gresslia" />
		<tag k="name" v="Gresslivollen" />
		<tag k="old_name" v="Gresli vestre" />
		<tag k="place" v="farm" />
		<tag k="ssr:stedsnr" v="680357" />
	</node>
	<node id="-888081" lat="63.040048405" lon="11.6459479744">
		<tag k="fixme" v="consider place=hamlet" />
		<tag k="name" v="Brennåsen" />
		<tag k="place" v="farm" />
		<tag k="ssr:stedsnr" v="679306" />
	</node>
	<node id="-887456" lat="63.0513361099" lon="11.6709499987">
		<tag k="alt_name" v="Bersvendgarden" />
		<tag k="name" v="Bersvengarden" />
		<tag k="place" v="farm" />
		<tag k="ssr:stedsnr" v="12334" />
	</node>
	<node id="-887564" lat="63.0454177868" lon="11.6586277545">
		<tag k="fixme" v="consider place=hamlet" />
		<tag k="name" v="Bønsgarden" />
		<tag k="place" v="farm" />
		<tag k="ssr:stedsnr" v="12344" />
	</node>
	<node id="-887563" lat="63.0442055563" lon="11.6446083402">
		<tag k="name" v="Nygarden" />
		<tag k="old_name" v="Nygård øv.;Nygården" />
		<tag k="place" v="farm" />
		<tag k="ssr:stedsnr" v="73334" />
	</node>
	<node id="-887562" lat="62.9813555519" lon="11.5508805586">
		<tag k="alt_name" v="Smedvollen" />
		<tag k="historic" v="shieling" />
		<tag k="name" v="Hendalsvollen" />
		<tag k="place" v="locality" />
		<tag k="ssr:stedsnr" v="203283" />
	</node>
	<node id="-887183" lat="63.0655615498" lon="11.4537348468">
		<tag k="fixme" v="consider place=hamlet" />
		<tag k="name" v="Nordre Gresslia" />
		<tag k="place" v="farm" />
		<tag k="ssr:stedsnr" v="971887" />
	</node>
	<node id="-887434" lat="63.0780083299" lon="11.4137694519">
		<tag k="alt_name" v="Aune" />
		<tag k="name" v="Aunet" />
		<tag k="place" v="farm" />
		<tag k="ssr:stedsnr" v="133263" />
	</node>
	<node id="-887559" lat="62.8950444455" lon="11.8630888953">
		<tag k="alt_name" v="Kåsen" />
		<tag k="name" v="Kåsa" />
		<tag k="place" v="farm" />
		<tag k="ssr:stedsnr" v="194750" />
	</node>
	<node id="-887558" lat="63.0552833358" lon="11.5577638857">
		<tag k="name" v="Bakktrøa" />
		<tag k="place" v="farm" />
		<tag k="ssr:stedsnr" v="213662" />
	</node>
	<node id="-887556" lat="63.0505194405" lon="11.6728277676">
		<tag k="name" v="Gammelgarden" />
		<tag k="place" v="farm" />
		<tag k="ssr:stedsnr" v="880763" />
	</node>
	<node id="-887554" lat="62.9564197422" lon="11.7741404051">
		<tag k="fixme" v="consider place=hamlet" />
		<tag k="name" v="Moen" />
		<tag k="place" v="farm" />
		<tag k="ssr:stedsnr" v="814072" />
	</node>
	<node id="-887339" lat="62.918894442" lon="11.8749999962">
		<tag k="name" v="Strandstua" />
		<tag k="place" v="isolated_dwelling" />
		<tag k="ssr:stedsnr" v="516926" />
	</node>
	<node id="-887477" lat="62.9597813916" lon="11.7891602968">
		<tag k="historic" v="shieling" />
		<tag k="name" v="Movollan" />
		<tag k="place" v="locality" />
		<tag k="ssr:stedsnr" v="437973" />
	</node>
	<node id="-888063" lat="63.0960638911" lon="11.726702782">
		<tag k="name" v="Nattmoen" />
		<tag k="place" v="locality" />
		<tag k="ssr:stedsnr" v="12399" />
	</node>
	<node id="-888062" lat="62.9809666696" lon="11.785224998">
		<tag k="historic" v="shieling" />
		<tag k="name" v="Vessingvollen" />
		<tag k="place" v="locality" />
		<tag k="ssr:stedsnr" v="315947" />
	</node>
	<node id="-887419" lat="63.0581750012" lon="11.4585361086">
		<tag k="name" v="Tunstad" />
		<tag k="place" v="farm" />
		<tag k="ssr:stedsnr" v="394628" />
	</node>
	<node id="-888060" lat="62.9118638924" lon="11.8918444515">
		<tag k="name" v="Stugguvollmoen" />
		<tag k="place" v="farm" />
		<tag k="ssr:stedsnr" v="819689" />
	</node>
	<node id="-887547" lat="63.0375499975" lon="11.3948333282">
		<tag k="name" v="Movollen" />
		<tag k="place" v="isolated_dwelling" />
		<tag k="ssr:stedsnr" v="12342" />
	</node>
	<node id="-887546" lat="62.9079861113" lon="11.8928083306">
		<tag k="fixme" v="consider place=hamlet" />
		<tag k="name" v="Stugudalen" />
		<tag k="place" v="village" />
		<tag k="ssr:stedsnr" v="21306" />
	</node>
	<node id="-888057" lat="62.9639833359" lon="11.7785750053">
		<tag k="historic" v="shieling" />
		<tag k="name" v="Tjønnvollen" />
		<tag k="place" v="locality" />
		<tag k="ssr:stedsnr" v="255979" />
	</node>
	<node id="-888054" lat="63.0433611096" lon="11.6427472271">
		<tag k="name" v="Åsgård" />
		<tag k="place" v="farm" />
		<tag k="ssr:stedsnr" v="213742" />
	</node>
	<node id="-887337" lat="63.0472277815" lon="11.60353333">
		<tag k="name" v="Svellmoen" />
		<tag k="place" v="farm" />
		<tag k="ssr:stedsnr" v="516710" />
	</node>
	<node id="-888052" lat="63.0768555536" lon="11.6765694479">
		<tag k="name" v="Livollen" />
		<tag k="place" v="locality" />
		<tag k="ssr:stedsnr" v="680353" />
	</node>
	<node id="-887539" lat="62.9353527809" lon="11.9061722246">
		<tag k="historic" v="shieling" />
		<tag k="name" v="Sakrismovollen" />
		<tag k="place" v="locality" />
		<tag k="ssr:stedsnr" v="576938" />
	</node>
	<node id="-888050" lat="63.0592916675" lon="11.453705552">
		<tag k="fixme" v="consider place=hamlet" />
		<tag k="name" v="Gressli" />
		<tag k="place" v="village" />
		<tag k="ssr:stedsnr" v="376320" />
	</node>
	<node id="-887378" lat="62.9935861112" lon="11.7138527783">
		<tag k="historic" v="shieling" />
		<tag k="name" v="Fellesseter" />
		<tag k="place" v="locality" />
		<tag k="ssr:stedsnr" v="273987" />
	</node>
	<node id="-888045" lat="63.0432916642" lon="11.6353944457">
		<tag k="name" v="Bergehaug" />
		<tag k="place" v="farm" />
		<tag k="ssr:stedsnr" v="576597" />
	</node>
	<node id="-888044" lat="63.0515888925" lon="11.6692888823">
		<tag k="name" v="Nordgarden" />
		<tag k="place" v="farm" />
		<tag k="ssr:stedsnr" v="801330" />
	</node>
	<node id="-887530" lat="63.126625002" lon="11.63025">
		<tag k="historic" v="shieling" />
		<tag k="name" v="Øyvollen" />
		<tag k="place" v="locality" />
		<tag k="ssr:stedsnr" v="194228" />
	</node>
	<node id="-888041" lat="63.0471750024" lon="11.7650111157">
		<tag k="historic" v="shieling" />
		<tag k="name" v="Gravbakkvollen" />
		<tag k="place" v="locality" />
		<tag k="ssr:stedsnr" v="497411" />
	</node>
	<node id="-887528" lat="62.9114749999" lon="11.8355416731">
		<tag k="historic" v="shieling" />
		<tag k="name" v="Møbekkvollen" />
		<tag k="place" v="locality" />
		<tag k="ssr:stedsnr" v="316797" />
	</node>
	<node id="-887527" lat="62.9345611092" lon="11.822033342">
		<tag k="name" v="Granodden" />
		<tag k="place" v="isolated_dwelling" />
		<tag k="ssr:stedsnr" v="274855" />
	</node>
	<node id="-888037" lat="63.0777611127" lon="11.4218111104">
		<tag k="name" v="Bjørkem" />
		<tag k="place" v="farm" />
		<tag k="ssr:stedsnr" v="819691" />
	</node>
	<node id="-887524" lat="62.9929722236" lon="11.6192805488">
		<tag k="historic" v="shieling" />
		<tag k="name" v="Svartåvollen" />
		<tag k="old_name" v="Svartårollen" />
		<tag k="place" v="locality" />
		<tag k="ssr:stedsnr" v="558227" />
	</node>
	<node id="-887521" lat="62.9404055563" lon="11.8433527821">
		<tag k="historic" v="shieling" />
		<tag k="name" v="Øvervollen" />
		<tag k="place" v="locality" />
		<tag k="ssr:stedsnr" v="12998" />
	</node>
	<node id="-888127" lat="63.0564083328" lon="11.4637333374">
		<tag k="name" v="Mohaugen" />
		<tag k="place" v="farm" />
		<tag k="ssr:stedsnr" v="516637" />
	</node>
	<node id="-887519" lat="62.9629166646" lon="11.7893666593">
		<tag k="landuse" v="winter_sports" />
		<tag k="name" v="Tydal skisenter" />
		<tag k="piste:type" v="downhill" />
		<tag k="ssr:stedsnr" v="786446" />
	</node>
	<node id="-887517" lat="63.0569194434" lon="11.4855166684">
		<tag k="name" v="Egga" />
		<tag k="place" v="farm" />
		<tag k="ssr:stedsnr" v="455602" />
	</node>
	<node id="-888028" lat="63.047575" lon="11.5877888841">
		<tag k="alt_name" v="Henmo Midtre" />
		<tag k="name" v="Midtre Henmo" />
		<tag k="place" v="farm" />
		<tag k="ssr:stedsnr" v="759636" />
	</node>
	<node id="-887515" lat="62.9660083368" lon="11.7568861042">
		<tag k="name" v="Setermoen" />
		<tag k="place" v="farm" />
		<tag k="ssr:stedsnr" v="870641" />
	</node>
	<node id="-887514" lat="63.0446388889" lon="11.6490944364">
		<tag k="name" v="Kirkhus" />
		<tag k="place" v="farm" />
		<tag k="ssr:stedsnr" v="152748" />
	</node>
	<node id="-888025" lat="63.0411694488" lon="11.6651722268">
		<tag k="alt_name" v="Kløften vestre;Kløfta" />
		<tag k="name" v="Vestre Kløfta" />
		<tag k="place" v="farm" />
		<tag k="ssr:stedsnr" v="679319" />
	</node>
	<node id="-888024" lat="63.1056694413" lon="11.7567722122">
		<tag k="name" v="Nordgardsløddu" />
		<tag k="place" v="isolated_dwelling" />
		<tag k="ssr:stedsnr" v="698169" />
	</node>
	<node id="-887511" lat="63.0399083367" lon="11.6905555529">
		<tag k="name" v="Selliberget" />
		<tag k="place" v="isolated_dwelling" />
		<tag k="ssr:stedsnr" v="778851" />
	</node>
	<node id="-888021" lat="63.0337194445" lon="11.6726000042">
		<tag k="name" v="Stentippen" />
		<tag k="place" v="quarter" />
		<tag k="ssr:stedsnr" v="880653" />
	</node>
	<node id="-888020" lat="63.0866083303" lon="11.4290638894">
		<tag k="name" v="Seteråplassen" />
		<tag k="place" v="locality" />
		<tag k="ssr:stedsnr" v="376310" />
	</node>
	<node id="-887507" lat="62.8936999956" lon="11.869966674">
		<tag k="name" v="Dalheim" />
		<tag k="place" v="farm" />
		<tag k="ssr:stedsnr" v="194746" />
	</node>
	<node id="-887504" lat="63.0352416711" lon="11.3136722167">
		<tag k="name" v="Usmesjøsetra" />
		<tag k="place" v="locality" />
		<tag k="ssr:stedsnr" v="315320" />
	</node>
	<node id="-887160" lat="63.0943750018" lon="11.5967027779">
		<tag k="historic" v="shieling" />
		<tag k="name" v="Tjønnvollen" />
		<tag k="place" v="locality" />
		<tag k="ssr:stedsnr" v="91861" />
	</node>
	<node id="-887502" lat="62.8983694486" lon="11.8751777757">
		<tag k="name" v="Skansen" />
		<tag k="place" v="farm" />
		<tag k="ssr:stedsnr" v="576706" />
	</node>
	<node id="-887181" lat="62.9288055568" lon="11.8573999966">
		<tag k="name" v="Patrusvollen" />
		<tag k="place" v="farm" />
		<tag k="ssr:stedsnr" v="558995" />
	</node>
	<node id="-887500" lat="63.0470388913" lon="11.6063333262">
		<tag k="name" v="Midtre Svellmoen" />
		<tag k="place" v="farm" />
		<tag k="ssr:stedsnr" v="698704" />
	</node>
	<node id="-888009" lat="63.0550361088" lon="11.5630555617">
		<tag k="fixme" v="consider place=hamlet" />
		<tag k="name" v="Auntrøa" />
		<tag k="place" v="farm" />
		<tag k="ssr:stedsnr" v="759632" />
	</node>
	<node id="-888008" lat="63.0465249967" lon="11.6637999938">
		<tag k="name" v="Åsen" />
		<tag k="place" v="farm" />
		<tag k="ssr:stedsnr" v="437373" />
	</node>
	<node id="-888007" lat="63.0639111079" lon="11.622924996">
		<tag k="name" v="Larsrommet" />
		<tag k="place" v="isolated_dwelling" />
		<tag k="ssr:stedsnr" v="151800" />
	</node>
	<node id="-888006" lat="63.138552781" lon="11.7631388838">
		<tag k="name" v="Krankbua" />
		<tag k="place" v="isolated_dwelling" />
		<tag k="ssr:stedsnr" v="576165" />
	</node>
	<node id="-888005" lat="63.0652388906" lon="11.4576527847">
		<tag k="alt_name" v="Ol-Andersgarden" />
		<tag k="name" v="Nordre Gresslia" />
		<tag k="old_name" v="Gresli nordre" />
		<tag k="place" v="farm" />
		<tag k="ssr:stedsnr" v="688438" />
	</node>
	<node id="-887670" lat="62.9219469116" lon="11.7889278986">
		<tag k="historic" v="shieling" />
		<tag k="name" v="Finnøyvollan" />
		<tag k="place" v="locality" />
		<tag k="ssr:stedsnr" v="437988" />
	</node>
	<node id="-888002" lat="62.9667888896" lon="11.7584055468">
		<tag k="name" v="Sellanrå" />
		<tag k="place" v="farm" />
		<tag k="ssr:stedsnr" v="637692" />
	</node>
	<node id="-887485" lat="63.0415351877" lon="11.650015616">
		<tag k="fixme" v="consider place=hamlet" />
		<tag k="name" v="Berget" />
		<tag k="place" v="farm" />
		<tag k="ssr:stedsnr" v="558361" />
	</node>
	<node id="-887481" lat="63.0552916697" lon="11.5701222142">
		<tag k="name" v="Bortstuggu" />
		<tag k="place" v="farm" />
		<tag k="ssr:stedsnr" v="455608" />
	</node>
	<node id="-887992" lat="63.0438388872" lon="11.6538194494">
		<tag k="name" v="Lunden" />
		<tag k="place" v="farm" />
		<tag k="ssr:stedsnr" v="437375" />
	</node>
	<node id="-887991" lat="63.0740000018" lon="11.69808889">
		<tag k="building" v="industrial" />
		<tag k="name" v="Østbysaga" />
		<tag k="old_name" v="Østby-saga" />
		<tag k="ssr:stedsnr" v="698780" />
	</node>
	<node id="-888265" lat="63.1157499959" lon="11.678727781">
		<tag k="name" v="Ystersetervollen" />
		<tag k="place" v="locality" />
		<tag k="ssr:stedsnr" v="862300" />
	</node>
	<node id="-887326" lat="62.9087222183" lon="11.8932055488">
		<tag k="name" v="Væktarstua Hotell" />
		<tag k="old_name" v="Vektarstua Turiststasjon;Vektarstua Fjellhotell;Vektarstua" />
		<tag k="ssr:stedsnr" v="680812" />
		<tag k="tourism" v="hotel" />
	</node>
	<node id="-887588" lat="63.0569555529" lon="11.5566833354">
		<tag k="name" v="Gunnheim" />
		<tag k="place" v="farm" />
		<tag k="ssr:stedsnr" v="133280" />
	</node>
	<node id="-887163" lat="62.9631888872" lon="11.7881861067">
		<tag k="historic" v="shieling" />
		<tag k="name" v="Bønsvollen" />
		<tag k="place" v="locality" />
		<tag k="ssr:stedsnr" v="558981" />
	</node>
	<node id="-887470" lat="63.0124500016" lon="11.8018833379">
		<tag k="historic" v="shieling" />
		<tag k="name" v="Vessingvollen" />
		<tag k="place" v="locality" />
		<tag k="ssr:stedsnr" v="73466" />
	</node>
	<node id="-887980" lat="63.0420361148" lon="11.6825611198">
		<tag k="name" v="Søliås" />
		<tag k="old_name" v="Sørliåsen" />
		<tag k="place" v="farm" />
		<tag k="ssr:stedsnr" v="437379" />
	</node>
	<node id="-887467" lat="62.9984833305" lon="11.6894500011">
		<tag k="name" v="Nyhåggån" />
		<tag k="place" v="farm" />
		<tag k="ssr:stedsnr" v="394646" />
	</node>
	<node id="-887978" lat="63.0339215054" lon="11.6771513708">
		<tag k="fixme" v="consider place=hamlet" />
		<tag k="name" v="Kirkvollen" />
		<tag k="place" v="farm" />
		<tag k="ssr:stedsnr" v="133320" />
	</node>
	<node id="-887976" lat="63.0267527805" lon="11.4496638955">
		<tag k="alt_name" v="Olandersvollen" />
		<tag k="historic" v="shieling" />
		<tag k="name" v="Ol-Andersvollen" />
		<tag k="place" v="locality" />
		<tag k="ssr:stedsnr" v="922342" />
	</node>
	<node id="-888039" lat="63.0043749971" lon="11.6818277794">
		<tag k="name" v="Håvollsenget" />
		<tag k="place" v="farm" />
		<tag k="ssr:stedsnr" v="619417" />
	</node>
	<node id="-887458" lat="62.9170333328" lon="11.8968777834">
		<tag k="name" v="Myrvollen" />
		<tag k="place" v="farm" />
		<tag k="ssr:stedsnr" v="316798" />
	</node>
	<node id="-887968" lat="63.0844805602" lon="12.0585027688">
		<tag k="name" v="Essandheim" />
		<tag k="place" v="isolated_dwelling" />
		<tag k="ssr:stedsnr" v="376442" />
	</node>
	<node id="-887455" lat="62.9167222267" lon="11.8867833275">
		<tag k="name" v="Østre Stugguvollen" />
		<tag k="old_name" v="Stugguvollen østre" />
		<tag k="place" v="farm" />
		<tag k="ssr:stedsnr" v="376777" />
	</node>
	<node id="-887966" lat="63.0500694455" lon="11.5844833265">
		<tag k="name" v="Henmoen" />
		<tag k="place" v="farm" />
		<tag k="ssr:stedsnr" v="255329" />
	</node>
	<node id="-887965" lat="63.0428083292" lon="11.6739055645">
		<tag k="name" v="Østtun" />
		<tag k="place" v="farm" />
		<tag k="ssr:stedsnr" v="437377" />
	</node>
	<node id="-887451" lat="63.0299277732" lon="11.4153250095">
		<tag k="historic" v="shieling" />
		<tag k="name" v="Hyllingvollen" />
		<tag k="place" v="locality" />
		<tag k="ssr:stedsnr" v="862377" />
	</node>
	<node id="-887776" lat="63.0249037645" lon="11.6839266113">
		<tag k="fixme" v="consider place=hamlet" />
		<tag k="name" v="Fossan" />
		<tag k="place" v="farm" />
		<tag k="ssr:stedsnr" v="497371" />
	</node>
	<node id="-887448" lat="63.0571611134" lon="11.5692861031">
		<tag k="name" v="Nordpågjardet" />
		<tag k="place" v="farm" />
		<tag k="ssr:stedsnr" v="30667" />
	</node>
	<node id="-887748" lat="62.9060388881" lon="11.8940916641">
		<tag k="name" v="Bjørklund" />
		<tag k="place" v="farm" />
		<tag k="ssr:stedsnr" v="394677" />
	</node>
	<node id="-887446" lat="62.9626416683" lon="11.7848777781">
		<tag k="historic" v="shieling" />
		<tag k="name" v="Jenshaugvollen" />
		<tag k="place" v="locality" />
		<tag k="ssr:stedsnr" v="73977" />
	</node>
	<node id="-887956" lat="63.0314111104" lon="11.676936105">
		<tag k="amenity" v="nursing_home" />
		<tag k="name" v="Neatun" />
		<tag k="ssr:stedsnr" v="133319" />
	</node>
	<node id="-887108" lat="62.9196583298" lon="11.8737111158">
		<tag k="name" v="Gjetneset" />
		<tag k="place" v="farm" />
		<tag k="ssr:stedsnr" v="152693" />
	</node>
	<node id="-887491" lat="62.903083332" lon="11.8992055582">
		<tag k="alt_name" v="Rotvollen østre;Rotvollen, søre;Østre Rotvollen" />
		<tag k="name" v="Søre Rotvollen" />
		<tag k="place" v="farm" />
		<tag k="ssr:stedsnr" v="194742" />
	</node>
	<node id="-887440" lat="62.828661108" lon="11.8145611205">
		<tag k="name" v="Nordre Fjellheim" />
		<tag k="old_name" v="Fjellheim, nordre" />
		<tag k="place" v="isolated_dwelling" />
		<tag k="ssr:stedsnr" v="679774" />
	</node>
	<node id="-888462" lat="63.0551047282" lon="11.4733069917">
		<tag k="name" v="Bergtun" />
		<tag k="place" v="isolated_dwelling" />
		<tag k="ssr:stedsnr" v="987172" />
	</node>
	<node id="-887948" lat="62.8952972195" lon="11.8755611073">
		<tag k="alt_name" v="Flaten, nedre;Nedre Flaten" />
		<tag k="name" v="Flaten" />
		<tag k="place" v="farm" />
		<tag k="ssr:stedsnr" v="619811" />
	</node>
	<node id="-887946" lat="62.9019611083" lon="11.8977833293">
		<tag k="name" v="Solhaugen" />
		<tag k="place" v="farm" />
		<tag k="ssr:stedsnr" v="455667" />
	</node>
	<node id="-887945" lat="62.9409305567" lon="11.7756805497">
		<tag k="fixme" v="multiple name tags, choose one and add the other to alt_name" />
		<tag k="historic" v="shieling" />
		<tag k="name" v="Svellmovollen;Ustgardsvollen" />
		<tag k="place" v="locality" />
		<tag k="ssr:stedsnr" v="923000" />
	</node>
	<node id="-887148" lat="63.0576500012" lon="11.462972221">
		<tag k="name" v="Myrmoen" />
		<tag k="place" v="farm" />
		<tag k="ssr:stedsnr" v="334634" />
	</node>
	<node id="-887940" lat="63.0955888866" lon="11.7696499918">
		<tag k="historic" v="shieling" />
		<tag k="name" v="Rødalsvollen" />
		<tag k="place" v="locality" />
		<tag k="ssr:stedsnr" v="376430" />
	</node>
	<node id="-887426" lat="62.9853777816" lon="11.9112583352">
		<tag k="historic" v="shieling" />
		<tag k="name" v="Brennåsvollen" />
		<tag k="place" v="locality" />
		<tag k="ssr:stedsnr" v="506648" />
	</node>
	<node id="-888449" lat="63.0655805516" lon="11.6390888822">
		<tag k="name" v="Åsdalen" />
		<tag k="place" v="locality" />
		<tag k="ssr:stedsnr" v="316370" />
	</node>
	<node id="-888446" lat="62.9382190886" lon="11.8209921376">
		<tag k="fixme" v="consider place=hamlet" />
		<tag k="name" v="Stuggusjøen" />
		<tag k="old_name" v="Stuggusjøholet" />
		<tag k="place" v="farm" />
		<tag k="ssr:stedsnr" v="740997" />
	</node>
	<node id="-887573" lat="63.0554348366" lon="11.4716793129">
		<tag k="name" v="Neaglimt" />
		<tag k="place" v="isolated_dwelling" />
		<tag k="ssr:stedsnr" v="455623" />
	</node>
	<node id="-888116" lat="63.0393555577" lon="11.6931944458">
		<tag k="name" v="Sølivoll" />
		<tag k="place" v="farm" />
		<tag k="ssr:stedsnr" v="437380" />
	</node>
	<node id="-887931" lat="63.0315472232" lon="11.6787500062">
		<tag k="name" v="Neabyen" />
		<tag k="place" v="quarter" />
		<tag k="ssr:stedsnr" v="695190" />
	</node>
	<node id="-887418" lat="63.0509916644" lon="11.6652694476">
		<tag k="name" v="Smedgjardet" />
		<tag k="place" v="farm" />
		<tag k="ssr:stedsnr" v="516722" />
	</node>
	<node id="-888441" lat="63.0378055513" lon="11.6780638859">
		<tag k="name" v="Løvtun" />
		<tag k="place" v="farm" />
		<tag k="ssr:stedsnr" v="941608" />
	</node>
	<node id="-887316" lat="62.9631250006" lon="11.7388333239">
		<tag k="historic" v="shieling" />
		<tag k="name" v="Knallvollen" />
		<tag k="place" v="locality" />
		<tag k="ssr:stedsnr" v="12982" />
	</node>
	<node id="-887926" lat="63.0179666682" lon="11.5301638865">
		<tag k="name" v="Vollavollen" />
		<tag k="place" v="isolated_dwelling" />
		<tag k="ssr:stedsnr" v="73372" />
	</node>
	<node id="-887413" lat="63.0421333326" lon="11.6350666651">
		<tag k="name" v="Åsberget" />
		<tag k="place" v="farm" />
		<tag k="ssr:stedsnr" v="12328" />
	</node>
	<node id="-887412" lat="62.9888527737" lon="11.9569388862">
		<tag k="historic" v="shieling" />
		<tag k="name" v="Liavollen" />
		<tag k="place" v="locality" />
		<tag k="ssr:stedsnr" v="506647" />
	</node>
	<node id="-888434" lat="62.9433194482" lon="11.6977027859">
		<tag k="name" v="Grønsjøvollan" />
		<tag k="place" v="isolated_dwelling" />
		<tag k="ssr:stedsnr" v="376217" />
	</node>
	<node id="-887409" lat="62.9156805526" lon="11.8923499926">
		<tag k="name" v="Stugguvollmoen" />
		<tag k="place" v="farm" />
		<tag k="ssr:stedsnr" v="497751" />
	</node>
	<node id="-888432" lat="63.0558905254" lon="11.7617809843">
		<tag k="historic" v="shieling" />
		<tag k="name" v="Brennøyvollen" />
		<tag k="place" v="locality" />
		<tag k="ssr:stedsnr" v="203606" />
	</node>
	<node id="-888430" lat="63.0316722251" lon="11.7128555497">
		<tag k="name" v="Livollen" />
		<tag k="place" v="farm" />
		<tag k="ssr:stedsnr" v="819750" />
	</node>
	<node id="-888428" lat="62.8608666642" lon="11.8860305514">
		<tag k="name" v="Håvollen" />
		<tag k="place" v="locality" />
		<tag k="ssr:stedsnr" v="801761" />
	</node>
	<node id="-887116" lat="63.034419443" lon="11.6772916708">
		<tag k="name" v="Kirkvollen" />
		<tag k="place" v="farm" />
		<tag k="ssr:stedsnr" v="728276" />
	</node>
	<node id="-887911" lat="63.0490944433" lon="11.6827749908">
		<tag k="name" v="Skultrøa" />
		<tag k="place" v="farm" />
		<tag k="ssr:stedsnr" v="618316" />
	</node>
	<node id="-887398" lat="62.8981527755" lon="11.8966111173">
		<tag k="leisure" v="pitch" />
		<tag k="name" v="Stugudalsbanen" />
		<tag k="ssr:stedsnr" v="58460" />
	</node>
	<node id="-888421" lat="63.0558472184" lon="11.4688527863">
		<tag k="name" v="Bernheim" />
		<tag k="place" v="farm" />
		<tag k="ssr:stedsnr" v="558323" />
	</node>
	<node id="-888420" lat="63.0656444417" lon="11.4548722257">
		<tag k="name" v="Sersjantgarden" />
		<tag k="place" v="farm" />
		<tag k="ssr:stedsnr" v="316374" />
	</node>
	<node id="-888418" lat="63.090405555" lon="11.4350694438">
		<tag k="name" v="Tørresrommet" />
		<tag k="place" v="locality" />
		<tag k="ssr:stedsnr" v="688464" />
	</node>
	<node id="-887905" lat="62.9660027759" lon="11.7625555573">
		<tag k="alt_name" v="Valset" />
		<tag k="name" v="Fossvollen" />
		<tag k="place" v="farm" />
		<tag k="ssr:stedsnr" v="213712" />
	</node>
	<node id="-887392" lat="62.9255991086" lon="11.8024685455">
		<tag k="historic" v="shieling" />
		<tag k="name" v="Tjønnvollen" />
		<tag k="place" v="locality" />
		<tag k="ssr:stedsnr" v="12987" />
	</node>
	<node id="-887903" lat="63.0518666688" lon="11.5855027787">
		<tag k="name" v="Østeraunet" />
		<tag k="place" v="farm" />
		<tag k="ssr:stedsnr" v="255318" />
	</node>
	<node id="-887902" lat="63.1375027749" lon="11.7273222187">
		<tag k="name" v="Lauvåvollen" />
		<tag k="place" v="locality" />
		<tag k="ssr:stedsnr" v="862402" />
	</node>
	<node id="-887397" lat="62.9541750004" lon="11.7866555649">
		<tag k="historic" v="shieling" />
		<tag k="name" v="Stormovollen" />
		<tag k="place" v="locality" />
		<tag k="ssr:stedsnr" v="437969" />
	</node>
	<node id="-887900" lat="63.0557647071" lon="11.5684070106">
		<tag k="fixme" v="consider place=hamlet" />
		<tag k="name" v="Aunet" />
		<tag k="place" v="farm" />
		<tag k="ssr:stedsnr" v="688250" />
	</node>
	<node id="-888410" lat="63.057002777" lon="11.4683555572">
		<tag k="name" v="Stenletet" />
		<tag k="place" v="farm" />
		<tag k="ssr:stedsnr" v="334631" />
	</node>
	<node id="-887908" lat="63.0583444413" lon="11.5200666589">
		<tag k="historic" v="shieling" />
		<tag k="name" v="Nyvollen" />
		<tag k="place" v="locality" />
		<tag k="ssr:stedsnr" v="255316" />
	</node>
	<node id="-887894" lat="63.0448527735" lon="11.3316527692">
		<tag k="historic" v="shieling" />
		<tag k="name" v="Sjøvollen" />
		<tag k="place" v="locality" />
		<tag k="ssr:stedsnr" v="73367" />
	</node>
	<node id="-887194" lat="62.8971250021" lon="11.8924361145">
		<tag k="name" v="Viklund" />
		<tag k="place" v="farm" />
		<tag k="ssr:stedsnr" v="152707" />
	</node>
	<node id="-887890" lat="63.0511916696" lon="11.6782861187">
		<tag k="name" v="Bakken" />
		<tag k="place" v="farm" />
		<tag k="ssr:stedsnr" v="91763" />
	</node>
	<node id="-887886" lat="63.0549527786" lon="11.4725722232">
		<tag k="name" v="Granly" />
		<tag k="place" v="farm" />
		<tag k="ssr:stedsnr" v="941522" />
	</node>
	<node id="-887885" lat="63.0422472244" lon="11.640302786">
		<tag k="alt_name" v="Berget vestre" />
		<tag k="name" v="Vestre Berget" />
		<tag k="place" v="farm" />
		<tag k="ssr:stedsnr" v="880613" />
	</node>
	<node id="-887371" lat="63.0390055514" lon="11.6940527699">
		<tag k="name" v="Sølivollråa" />
		<tag k="place" v="locality" />
		<tag k="ssr:stedsnr" v="171876" />
	</node>
	<node id="-887881" lat="63.0343596791" lon="11.6760891048">
		<tag k="name" v="Kirkvollen" />
		<tag k="place" v="farm" />
		<tag k="ssr:stedsnr" v="60316" />
	</node>
	<node id="-888391" lat="63.0307583333" lon="11.7124749913">
		<tag k="name" v="Livolltippen" />
		<tag k="place" v="quarter" />
		<tag k="ssr:stedsnr" v="455547" />
	</node>
	<node id="-887366" lat="63.1041749975" lon="11.6123416678">
		<tag k="historic" v="shieling" />
		<tag k="name" v="Styttådalsvollen" />
		<tag k="place" v="locality" />
		<tag k="ssr:stedsnr" v="437294" />
	</node>
	<node id="-887877" lat="63.0552944423" lon="11.5507083324">
		<tag k="name" v="Aunmoen" />
		<tag k="place" v="farm" />
		<tag k="ssr:stedsnr" v="263452" />
	</node>
	<node id="-887364" lat="63.0549805535" lon="11.5686638892">
		<tag k="fixme" v="consider place=hamlet" />
		<tag k="name" v="Aunet" />
		<tag k="place" v="village" />
		<tag k="ssr:stedsnr" v="12321" />
	</node>
	<node id="-888387" lat="62.9329750021" lon="11.7830833241">
		<tag k="historic" v="shieling" />
		<tag k="name" v="Hyttmovollen" />
		<tag k="place" v="locality" />
		<tag k="ssr:stedsnr" v="31886" />
	</node>
	<node id="-888438" lat="63.0612388887" lon="11.4577638929">
		<tag k="name" v="Jonilsagården" />
		<tag k="place" v="farm" />
		<tag k="ssr:stedsnr" v="152689" />
	</node>
	<node id="-887361" lat="63.0549388933" lon="11.565999999">
		<tag k="name" v="Olagarden" />
		<tag k="place" v="farm" />
		<tag k="ssr:stedsnr" v="273532" />
	</node>
	<node id="-887360" lat="63.0395194484" lon="11.6757499941">
		<tag k="alt_name" v="Husvollen øvre" />
		<tag k="name" v="Øvre Husvollen" />
		<tag k="place" v="farm" />
		<tag k="ssr:stedsnr" v="30655" />
	</node>
	<node id="-887357" lat="63.0555343485" lon="11.5483722433">
		<tag k="name" v="Heggneset" />
		<tag k="place" v="farm" />
		<tag k="ssr:stedsnr" v="619365" />
	</node>
	<node id="-887355" lat="62.9543638871" lon="11.7786749903">
		<tag k="historic" v="shieling" />
		<tag k="name" v="Moen fellesseter" />
		<tag k="place" v="locality" />
		<tag k="ssr:stedsnr" v="758908" />
	</node>
	<node id="-887866" lat="62.9601166648" lon="11.7924555599">
		<tag k="historic" v="shieling" />
		<tag k="name" v="Kirkvollsvollen" />
		<tag k="place" v="locality" />
		<tag k="ssr:stedsnr" v="446643" />
	</node>
	<node id="-887312" lat="63.0466814665" lon="11.6210698416">
		<tag k="name" v="Svellmoen" />
		<tag k="place" v="farm" />
		<tag k="ssr:stedsnr" v="516713" />
	</node>
	<node id="-887863" lat="63.1216304789" lon="11.9204272094">
		<tag k="alt_name" v="Sankåvollen" />
		<tag k="historic" v="shieling" />
		<tag k="name" v="Sjursvollen" />
		<tag k="place" v="locality" />
		<tag k="ssr:stedsnr" v="862412" />
	</node>
	<node id="-888374" lat="62.93968333" lon="11.7847111156">
		<tag k="alt_name" v="Øvlingvollen" />
		<tag k="historic" v="shieling" />
		<tag k="name" v="Svellmovollen" />
		<tag k="place" v="locality" />
		<tag k="ssr:stedsnr" v="863000" />
	</node>
	<node id="-888373" lat="63.0592472253" lon="11.4455916633">
		<tag k="name" v="Fossevangen" />
		<tag k="place" v="farm" />
		<tag k="ssr:stedsnr" v="698627" />
	</node>
	<node id="-887346" lat="63.0550694477" lon="11.5863444465">
		<tag k="name" v="Aunåkeren" />
		<tag k="place" v="isolated_dwelling" />
		<tag k="ssr:stedsnr" v="619364" />
	</node>
	<node id="-887857" lat="63.0415972186" lon="11.6696833341">
		<tag k="amenity" v="school" />
		<tag k="name" v="Tydal barne- og ungdomsskole" />
		<tag k="ssr:stedsnr" v="768227" />
	</node>
	<node id="-887404" lat="62.9237777744" lon="11.8224861146">
		<tag k="historic" v="shieling" />
		<tag k="name" v="Nedre Fresvollen" />
		<tag k="place" v="locality" />
		<tag k="ssr:stedsnr" v="12988" />
	</node>
	<node id="-887619" lat="63.0258305529" lon="11.7920333324">
		<tag k="historic" v="shieling" />
		<tag k="name" v="Langdalsvollen" />
		<tag k="place" v="locality" />
		<tag k="ssr:stedsnr" v="255431" />
	</node>
	<node id="-888365" lat="63.0492361143" lon="11.6650166637">
		<tag k="name" v="Jensgarden" />
		<tag k="place" v="farm" />
		<tag k="ssr:stedsnr" v="394568" />
	</node>
	<node id="-887851" lat="63.0324138915" lon="11.714230557">
		<tag k="amenity" v="school" />
		<tag k="name" v="Livollen" />
		<tag k="ssr:stedsnr" v="21163" />
	</node>
	<node id="-888071" lat="63.0761166655" lon="12.147755549">
		<tag k="fixme" v="consider tourism=alpine_hut or tourism=chalet" />
		<tag k="name" v="Fiskåhøgda" />
		<tag k="ssr:stedsnr" v="769140" />
		<tag k="tourism" v="wilderness_hut" />
	</node>
	<node id="-887335" lat="63.0604305567" lon="11.4627444529">
		<tag k="name" v="Tømmeråsen" />
		<tag k="place" v="farm" />
		<tag k="ssr:stedsnr" v="619362" />
	</node>
	<node id="-887334" lat="63.0517916627" lon="11.6751444343">
		<tag k="name" v="Østbyhaugen" />
		<tag k="place" v="farm" />
		<tag k="ssr:stedsnr" v="315302" />
	</node>
	<node id="-887333" lat="63.0525972235" lon="11.4583972186">
		<tag k="alt_name" v="Moavollen" />
		<tag k="name" v="Gjardavollen" />
		<tag k="place" v="farm" />
		<tag k="ssr:stedsnr" v="394624" />
	</node>
	<node id="-887493" lat="62.9035027781" lon="11.8676361024">
		<tag k="name" v="Nyheim" />
		<tag k="place" v="farm" />
		<tag k="ssr:stedsnr" v="255788" />
	</node>
	<node id="-888355" lat="63.1578138903" lon="11.8104083377">
		<tag k="historic" v="shieling" />
		<tag k="name" v="Skarpdalsvollen" />
		<tag k="place" v="locality" />
		<tag k="ssr:stedsnr" v="73413" />
	</node>
	<node id="-888350" lat="63.0501444422" lon="11.3950361127">
		<tag k="name" v="Seterdalskoia" />
		<tag k="place" v="locality" />
		<tag k="ssr:stedsnr" v="870452" />
	</node>
	<node id="-888348" lat="62.9732277735" lon="11.6349777692">
		<tag k="historic" v="shieling" />
		<tag k="name" v="Svartåvollen" />
		<tag k="place" v="locality" />
		<tag k="ssr:stedsnr" v="679213" />
	</node>
	<node id="-887386" lat="63.043444443" lon="11.6466638896">
		<tag k="alt_name" v="Ås nordre" />
		<tag k="fixme" v="consider place=hamlet" />
		<tag k="name" v="Nordre Ås" />
		<tag k="place" v="farm" />
		<tag k="ssr:stedsnr" v="516728" />
	</node>
	<node id="-888346" lat="63.0529138917" lon="11.4932805514">
		<tag k="name" v="Klingan" />
		<tag k="place" v="farm" />
		<tag k="ssr:stedsnr" v="516657" />
	</node>
	<node id="-887832" lat="63.0868666629" lon="11.4562249985">
		<tag k="fixme" v="multiple name tags, choose one and add the other to alt_name" />
		<tag k="historic" v="shieling" />
		<tag k="name" v="Nordpåvollen;Serjantvollen" />
		<tag k="place" v="locality" />
		<tag k="ssr:stedsnr" v="680347" />
	</node>
	<node id="-887891" lat="63.0538138847" lon="11.6739833367">
		<tag k="alt_name" v="Opphaug" />
		<tag k="name" v="Opphaugen" />
		<tag k="place" v="farm" />
		<tag k="ssr:stedsnr" v="133311" />
	</node>
	<node id="-888340" lat="63.01632222" lon="11.521175">
		<tag k="historic" v="shieling" />
		<tag k="name" v="Sersjantsetra" />
		<tag k="place" v="locality" />
		<tag k="ssr:stedsnr" v="740348" />
	</node>
	<node id="-887214" lat="63.0796589591" lon="11.4166176466">
		<tag k="name" v="Hillmo" />
		<tag k="place" v="farm" />
		<tag k="ssr:stedsnr" v="91649" />
	</node>
	<node id="-887826" lat="63.0095527761" lon="11.5727888889">
		<tag k="historic" v="shieling" />
		<tag k="name" v="Aunmovollen" />
		<tag k="old_name" v="Hendalsvollen;Storhendalsvollen" />
		<tag k="place" v="locality" />
		<tag k="ssr:stedsnr" v="81405" />
	</node>
	<node id="-887825" lat="62.9132999999" lon="11.8941055604">
		<tag k="name" v="Fredmo" />
		<tag k="place" v="farm" />
		<tag k="ssr:stedsnr" v="923780" />
	</node>
	<node id="-888336" lat="62.9431503494" lon="11.8075502798">
		<tag k="historic" v="shieling" />
		<tag k="name" v="Nyvollen" />
		<tag k="place" v="locality" />
		<tag k="ssr:stedsnr" v="741000" />
	</node>
	<node id="-887823" lat="63.0532444429" lon="11.314813889">
		<tag k="name" v="Damkoja" />
		<tag k="place" v="isolated_dwelling" />
		<tag k="ssr:stedsnr" v="516183" />
	</node>
	<node id="-887195" lat="63.0793916666" lon="11.9069805615">
		<tag k="historic" v="shieling" />
		<tag k="name" v="Esandtjønnvollen" />
		<tag k="place" v="locality" />
		<tag k="ssr:stedsnr" v="73434" />
	</node>
	<node id="-888333" lat="62.9071892578" lon="11.896953649">
		<tag k="fixme" v="consider place=hamlet" />
		<tag k="name" v="Møsjødalen" />
		<tag k="place" v="farm" />
		<tag k="ssr:stedsnr" v="118878" />
	</node>
	<node id="-888331" lat="62.932913893" lon="11.7857388899">
		<tag k="historic" v="shieling" />
		<tag k="name" v="Finnøyvollen" />
		<tag k="place" v="locality" />
		<tag k="ssr:stedsnr" v="376996" />
	</node>
	<node id="-887862" lat="63.0451006883" lon="11.6205966923">
		<tag k="name" v="Langmyr" />
		<tag k="place" v="locality" />
		<tag k="ssr:stedsnr" v="801323" />
	</node>
	<node id="-887383" lat="62.9838000017" lon="11.5660583428">
		<tag k="historic" v="shieling" />
		<tag k="name" v="Rasmusvollen" />
		<tag k="place" v="locality" />
		<tag k="ssr:stedsnr" v="740234" />
	</node>
	<node id="-887304" lat="63.0858444481" lon="11.6936888868">
		<tag k="name" v="Nyvollen" />
		<tag k="place" v="locality" />
		<tag k="ssr:stedsnr" v="801270" />
	</node>
	<node id="-887379" lat="63.0372583295" lon="11.6838833413">
		<tag k="alt_name" v="Berggård" />
		<tag k="name" v="Berggarden" />
		<tag k="old_name" v="Berggård øvre" />
		<tag k="place" v="farm" />
		<tag k="ssr:stedsnr" v="315316" />
	</node>
	<node id="-887298" lat="62.9987101974" lon="11.6826957382">
		<tag k="name" v="Løvøya" />
		<tag k="place" v="farm" />
		<tag k="ssr:stedsnr" v="30645" />
	</node>
	<node id="-887300" lat="63.0709333312" lon="11.3542527766">
		<tag k="name" v="Stugguvollkoia" />
		<tag k="place" v="locality" />
		<tag k="ssr:stedsnr" v="810433" />
	</node>
	<node id="-887821" lat="62.8390750037" lon="11.9062916586">
		<tag k="historic" v="shieling" />
		<tag k="name" v="Møsjødalsvollen" />
		<tag k="place" v="locality" />
		<tag k="ssr:stedsnr" v="254765" />
	</node>
	<node id="-888322" lat="63.0440666699" lon="11.6501444508">
		<tag k="fixme" v="consider place=hamlet" />
		<tag k="name" v="Gården" />
		<tag k="place" v="farm" />
		<tag k="ssr:stedsnr" v="819760" />
	</node>
</osm>
