<?xml version="1.0" encoding="UTF-8"?>
<<<<<<< HEAD
<osm version="0.6" generator="osmapis">
	<node lat="62.96741666626845" lon="12.170405548402554" id="-28548">
		<tag k="historic" v="boundary_stone" />
		<tag k="man_made" v="cairn" />
		<tag k="name" v="Ikornrøysa" />
		<tag k="old_name" v="Sødre Syl Røset" />
		<tag k="place" v="locality" />
		<tag k="ssr:stedsnr" v="231138" />
	</node>
	<node lat="63.02133888509292" lon="12.199475003835424" id="-28697">
		<tag k="historic" v="boundary_stone" />
		<tag k="man_made" v="cairn" />
		<tag k="name" v="Storsylrøysa" />
		<tag k="place" v="locality" />
		<tag k="ssr:stedsnr" v="474102" />
	</node>
	<node lat="62.94321944745151" lon="12.134772215662469" id="-29064">
		<tag k="historic" v="boundary_stone" />
		<tag k="man_made" v="cairn" />
		<tag k="name" v="Nerøysa" />
		<tag k="place" v="locality" />
		<tag k="ssr:stedsnr" v="49149" />
	</node>
	<node lat="63.05936944526064" lon="11.544327778102067" id="-29065">
		<tag k="fixme" v="specify shooting=range, clay_pigeon etc" />
		<tag k="leisure" v="pitch" />
		<tag k="name" v="Tydal skytebane" />
		<tag k="sport" v="shooting" />
		<tag k="ssr:stedsnr" v="57930" />
	</node>
	<node lat="63.16104006534423" lon="12.072753465579602" id="-29162">
=======
<osm generator="osmapis" version="0.6">
	<node id="-761857" lat="63.0003361075" lon="12.2182249937">
		<tag k="historic" v="boundary_stone" />
		<tag k="man_made" v="cairn" />
		<tag k="name" v="Storsolrøysa" />
		<tag k="place" v="locality" />
		<tag k="ssr:stedsnr" v="838149" />
	</node>
	<node id="-760536" lat="62.9674166663" lon="12.1704055484">
		<tag k="historic" v="boundary_stone" />
		<tag k="man_made" v="cairn" />
		<tag k="name" v="Ikornrøysa" />
		<tag k="old_name" v="Sødre Syl Røset" />
		<tag k="place" v="locality" />
		<tag k="ssr:stedsnr" v="231138" />
	</node>
	<node id="-760721" lat="63.0213388851" lon="12.1994750038">
		<tag k="historic" v="boundary_stone" />
		<tag k="man_made" v="cairn" />
		<tag k="name" v="Storsylrøysa" />
		<tag k="place" v="locality" />
		<tag k="ssr:stedsnr" v="474102" />
	</node>
	<node id="-761378" lat="62.8295485182" lon="12.1038214061">
>>>>>>> e1d4bc35ff8a6074a6f2e91616a996b547c36f15
		<tag k="historic" v="boundary_stone" />
		<tag k="man_made" v="cairn" />
		<tag k="name" v="Kniprøysa" />
		<tag k="place" v="locality" />
		<tag k="ssr:stedsnr" v="170123" />
	</node>
<<<<<<< HEAD
	<node lat="62.82954851819431" lon="12.103821406126706" id="-29163">
		<tag k="historic" v="boundary_stone" />
		<tag k="man_made" v="cairn" />
		<tag k="name" v="Kniprøysa" />
		<tag k="place" v="locality" />
		<tag k="ssr:stedsnr" v="170123" />
	</node>
	<node lat="62.71252221852467" lon="11.993536113410785" id="-29317">
		<tag k="fixme" v="consider boundary=protected_area and relevant protect_class if not nature reserve" />
		<tag k="leisure" v="nature_reserve" />
		<tag k="loc_name:no" v="Skardsfjella og Hyllingsdalen" />
		<tag k="loc_name:sma" v="Gaejsietjahke jïh Hyllege" />
		<tag k="name" v="Skardsfjella og Hyllingsdalen landskapsvernområde" />
		<tag k="name:no" v="Skardsfjella og Hyllingsdalen landskapsvernområde" />
		<tag k="ssr:stedsnr" v="343168" />
	</node>
	<node lat="62.794831580672756" lon="12.117691664515899" id="-29374">
		<tag k="historic" v="boundary_stone" />
		<tag k="man_made" v="cairn" />
		<tag k="name" v="Hyddklepprøysa" />
		<tag k="place" v="locality" />
		<tag k="ssr:stedsnr" v="413125" />
	</node>
	<node lat="62.90254483757078" lon="12.07466460817775" id="-29476">
=======
	<node id="-761612" lat="62.9025448376" lon="12.0746646082">
		<tag k="historic" v="boundary_stone" />
		<tag k="man_made" v="cairn" />
		<tag k="name" v="Skarddørsrøysa" />
		<tag k="place" v="locality" />
		<tag k="ssr:stedsnr" v="534114" />
	</node>
	<node id="-761250" lat="63.0593694453" lon="11.5443277781">
		<tag k="fixme" v="specify shooting=range, clay_pigeon etc" />
		<tag k="leisure" v="pitch" />
		<tag k="name" v="Tydal skytebane" />
		<tag k="sport" v="shooting" />
		<tag k="ssr:stedsnr" v="57930" />
	</node>
	<node id="-761512" lat="62.7125222185" lon="11.9935361134">
		<tag k="fixme" v="consider boundary=protected_area and relevant protect_class if not nature reserve" />
		<tag k="leisure" v="nature_reserve" />
		<tag k="loc_name:no" v="Skardsfjella og Hyllingsdalen" />
		<tag k="loc_name:sma" v="Gaejsietjahke jïh Hyllege" />
		<tag k="name" v="Skardsfjella og Hyllingsdalen landskapsvernområde" />
		<tag k="name:no" v="Skardsfjella og Hyllingsdalen landskapsvernområde" />
		<tag k="ssr:stedsnr" v="343168" />
	</node>
	<node id="-761377" lat="63.1610400653" lon="12.0727534656">
>>>>>>> e1d4bc35ff8a6074a6f2e91616a996b547c36f15
		<tag k="historic" v="boundary_stone" />
		<tag k="man_made" v="cairn" />
		<tag k="name" v="Bustvolrøysa" />
		<tag k="old_name" v="Krok Røset;Krokrøysa" />
		<tag k="place" v="locality" />
		<tag k="ssr:stedsnr" v="170118" />
	</node>
<<<<<<< HEAD
	<node lat="63.00033610745127" lon="12.218224993683993" id="-29690">
=======
	<node id="-761891" lat="63.0223067688" lon="11.5986492945">
		<tag k="fixme" v="consider boundary=protected_area and relevant protect_class if not nature reserve" />
		<tag k="leisure" v="nature_reserve" />
		<tag k="name" v="Henfallet naturreservat" />
		<tag k="ssr:stedsnr" v="991060" />
	</node>
	<node id="-761154" lat="63.0863122754" lon="12.1412788118">
>>>>>>> e1d4bc35ff8a6074a6f2e91616a996b547c36f15
		<tag k="historic" v="boundary_stone" />
		<tag k="man_made" v="cairn" />
		<tag k="name" v="Storsolrøysa" />
		<tag k="place" v="locality" />
		<tag k="ssr:stedsnr" v="838149" />
	</node>
<<<<<<< HEAD
	<node lat="63.08631227542414" lon="12.141278811836132" id="-29713">
		<tag k="historic" v="boundary_stone" />
		<tag k="man_made" v="cairn" />
		<tag k="name" v="Fiskåhøgdrøysa" />
		<tag k="old_name" v="Nordre StorSola Røset;Nordre Storsolarøysa" />
		<tag k="place" v="locality" />
		<tag k="ssr:stedsnr" v="875125" />
	</node>
	<node lat="63.02230676878435" lon="11.598649294481138" id="-29784">
		<tag k="fixme" v="consider boundary=protected_area and relevant protect_class if not nature reserve" />
		<tag k="leisure" v="nature_reserve" />
		<tag k="name" v="Henfallet naturreservat" />
		<tag k="ssr:stedsnr" v="991060" />
=======
	<node id="-761249" lat="62.9432194475" lon="12.1347722157">
		<tag k="historic" v="boundary_stone" />
		<tag k="man_made" v="cairn" />
		<tag k="name" v="Nerøysa" />
		<tag k="place" v="locality" />
		<tag k="ssr:stedsnr" v="49149" />
>>>>>>> e1d4bc35ff8a6074a6f2e91616a996b547c36f15
	</node>
</osm>
