<?xml version="1.0" encoding="UTF-8"?>
<osm version="0.6" generator="osmapis">
	<node lat="62.89832777759923" lon="11.63572777998428" id="-85442">
		<tag k="fixme" v="consider natural=peak for the most distinct mountains in the district" />
		<tag k="name" v="Midtihøgda" />
		<tag k="natural" v="hill" />
		<tag k="place" v="locality" />
		<tag k="ssr:stedsnr" v="12190" />
	</node>
	<node lat="63.0341083357375" lon="11.681105553764267" id="-85453">
		<tag k="name" v="Granlia" />
		<tag k="natural" v="slope" />
		<tag k="place" v="locality" />
		<tag k="ssr:stedsnr" v="30570" />
	</node>
	<node lat="63.06721110822451" lon="11.460049995204745" id="-85455">
		<tag k="name" v="Svartberget" />
		<tag k="natural" v="hill" />
		<tag k="place" v="locality" />
		<tag k="ssr:stedsnr" v="30542" />
	</node>
	<node lat="63.05847778148855" lon="11.656713898810194" id="-85488">
		<tag k="fixme" v="consider natural=peak for the most distinct mountains in the district" />
		<tag k="name" v="Høgåsen" />
		<tag k="natural" v="hill" />
		<tag k="place" v="locality" />
		<tag k="ssr:stedsnr" v="91604" />
	</node>
	<node lat="63.03792222027962" lon="11.530075008856038" id="-85492">
		<tag k="name" v="Måssådalen" />
		<tag k="natural" v="valley" />
		<tag k="place" v="locality" />
		<tag k="ssr:stedsnr" v="91876" />
	</node>
	<node lat="63.133161113564974" lon="11.71912778245881" id="-85494">
		<tag k="name" v="Holet" />
		<tag k="place" v="locality" />
		<tag k="ssr:stedsnr" v="91880" />
	</node>
	<node lat="62.97908611295086" lon="11.676186119302232" id="-85497">
		<tag k="name" v="Gammelvollhaugan" />
		<tag k="natural" v="hill" />
		<tag k="place" v="locality" />
		<tag k="ssr:stedsnr" v="92807" />
	</node>
	<node lat="63.052002778982406" lon="11.642433340374108" id="-85502">
		<tag k="fixme" v="consider natural=peak for the most distinct mountains in the district" />
		<tag k="name" v="Våttån" />
		<tag k="natural" v="hill" />
		<tag k="old_name" v="Våttan" />
		<tag k="place" v="locality" />
		<tag k="ssr:stedsnr" v="133312" />
	</node>
	<node lat="63.16486944822639" lon="12.052591663990386" id="-85508">
		<tag k="fixme" v="consider natural=peak for the most distinct mountains in the district" />
		<tag k="name" v="Bustvola" />
		<tag k="name:no" v="Bustvola" />
		<tag k="name:sma" v="Klievmie" />
		<tag k="natural" v="hill" />
		<tag k="place" v="locality" />
		<tag k="ssr:stedsnr" v="142389" />
	</node>
	<node lat="62.95581330190157" lon="11.559753763173472" id="-85515">
		<tag k="fixme" v="consider natural=peak for the most distinct mountains in the district" />
		<tag k="name" v="Litlkleppen" />
		<tag k="name:no" v="Litlkleppen" />
		<tag k="name:sma" v="Gearhkehke" />
		<tag k="natural" v="hill" />
		<tag k="place" v="locality" />
		<tag k="ssr:stedsnr" v="255195" />
	</node>
	<node lat="63.08889722416775" lon="11.551480564713499" id="-85516">
		<tag k="fixme" v="consider natural=peak for the most distinct mountains in the district" />
		<tag k="name" v="Kvassåsen" />
		<tag k="natural" v="hill" />
		<tag k="place" v="locality" />
		<tag k="ssr:stedsnr" v="255287" />
	</node>
	<node lat="62.96786666278852" lon="11.699652771881091" id="-85517">
		<tag k="fixme" v="consider natural=peak for the most distinct mountains in the district" />
		<tag k="name" v="Knallen" />
		<tag k="natural" v="hill" />
		<tag k="place" v="locality" />
		<tag k="ssr:stedsnr" v="255241" />
	</node>
	<node lat="63.11127777749338" lon="11.486402779656675" id="-85518">
		<tag k="fixme" v="consider natural=peak for the most distinct mountains in the district" />
		<tag k="name" v="Melshogna" />
		<tag k="natural" v="hill" />
		<tag k="place" v="locality" />
		<tag k="ssr:stedsnr" v="255257" />
	</node>
	<node lat="63.1184027748779" lon="11.75910834292414" id="-85531">
		<tag k="fixme" v="consider natural=peak for the most distinct mountains in the district" />
		<tag k="name" v="Riskleppen" />
		<tag k="natural" v="hill" />
		<tag k="place" v="locality" />
		<tag k="ssr:stedsnr" v="151204" />
	</node>
	<node lat="63.02857499789079" lon="11.715516663350655" id="-85533">
		<tag k="name" v="Storlia" />
		<tag k="natural" v="slope" />
		<tag k="place" v="locality" />
		<tag k="ssr:stedsnr" v="152606" />
	</node>
	<node lat="63.007344448277294" lon="11.724841665606002" id="-85535">
		<tag k="name" v="Rabben" />
		<tag k="natural" v="slope" />
		<tag k="place" v="locality" />
		<tag k="ssr:stedsnr" v="152652" />
	</node>
	<node lat="65.11002777597567" lon="13.085422216082504" id="-85554">
		<tag k="fixme" v="consider natural=peak for the most distinct mountains in the district" />
		<tag k="name" v="Kløftfjellet - Sloeptjenguevtele" />
		<tag k="name:no" v="Kløftfjellet" />
		<tag k="name:sma" v="Sloeptjenguevtele" />
		<tag k="natural" v="hill" />
		<tag k="place" v="locality" />
		<tag k="ssr:stedsnr" v="196523" />
	</node>
	<node lat="63.03189444333073" lon="11.726000009680705" id="-85567">
		<tag k="fixme" v="consider natural=peak for the most distinct mountains in the district" />
		<tag k="name" v="Samuelsryen" />
		<tag k="natural" v="hill" />
		<tag k="place" v="locality" />
		<tag k="ssr:stedsnr" v="213602" />
	</node>
	<node lat="63.04310555124935" lon="11.629736115665022" id="-85569">
		<tag k="name" v="Åslien" />
		<tag k="natural" v="slope" />
		<tag k="place" v="locality" />
		<tag k="ssr:stedsnr" v="213629" />
	</node>
	<node lat="63.06693889355062" lon="11.678327769636708" id="-85572">
		<tag k="name" v="Størmyrberget" />
		<tag k="natural" v="hill" />
		<tag k="place" v="locality" />
		<tag k="ssr:stedsnr" v="213829" />
	</node>
	<node lat="63.03139166812985" lon="11.704330555016076" id="-85573">
		<tag k="fixme" v="consider natural=peak for the most distinct mountains in the district" />
		<tag k="name" v="Fasteåsen" />
		<tag k="natural" v="hill" />
		<tag k="place" v="locality" />
		<tag k="ssr:stedsnr" v="213833" />
	</node>
	<node lat="63.06478611123173" lon="11.659525001886644" id="-85576">
		<tag k="name" v="Skøren" />
		<tag k="natural" v="valley" />
		<tag k="place" v="locality" />
		<tag k="ssr:stedsnr" v="213789" />
	</node>
	<node lat="62.9611861069913" lon="11.750361112456257" id="-85578">
		<tag k="name" v="Molia" />
		<tag k="natural" v="slope" />
		<tag k="place" v="locality" />
		<tag k="ssr:stedsnr" v="213906" />
	</node>
	<node lat="62.98739444394208" lon="11.628458341410498" id="-85582">
		<tag k="name" v="Langhaugen" />
		<tag k="natural" v="hill" />
		<tag k="place" v="locality" />
		<tag k="ssr:stedsnr" v="455176" />
	</node>
	<node lat="63.022888888363674" lon="11.656166659080993" id="-85591">
		<tag k="name" v="Børhølbakkan" />
		<tag k="natural" v="slope" />
		<tag k="place" v="locality" />
		<tag k="ssr:stedsnr" v="455596" />
	</node>
	<node lat="63.04510555293933" lon="11.415513889906867" id="-85593">
		<tag k="name" v="Lergruva" />
		<tag k="place" v="locality" />
		<tag k="ssr:stedsnr" v="455499" />
	</node>
	<node lat="63.07140277493185" lon="11.629725001926353" id="-85602">
		<tag k="fixme" v="consider natural=peak for the most distinct mountains in the district" />
		<tag k="name" v="Lødøljåsen" />
		<tag k="natural" v="hill" />
		<tag k="place" v="locality" />
		<tag k="ssr:stedsnr" v="455794" />
	</node>
	<node lat="62.98576111354291" lon="11.735563887665243" id="-85604">
		<tag k="name" v="Brautlia" />
		<tag k="natural" v="slope" />
		<tag k="place" v="locality" />
		<tag k="ssr:stedsnr" v="455928" />
	</node>
	<node lat="63.02902777844954" lon="11.47506111931259" id="-85615">
		<tag k="fixme" v="consider natural=peak for the most distinct mountains in the district" />
		<tag k="name" v="Skaftet" />
		<tag k="natural" v="hill" />
		<tag k="place" v="locality" />
		<tag k="ssr:stedsnr" v="255367" />
	</node>
	<node lat="63.054194440808445" lon="11.657463889620097" id="-85630">
		<tag k="fixme" v="consider natural=peak for the most distinct mountains in the district" />
		<tag k="name" v="Berlåsen" />
		<tag k="natural" v="hill" />
		<tag k="place" v="locality" />
		<tag k="ssr:stedsnr" v="273574" />
	</node>
	<node lat="63.06827777762278" lon="11.655166666899092" id="-85633">
		<tag k="name" v="Faglibakkan" />
		<tag k="natural" v="slope" />
		<tag k="place" v="locality" />
		<tag k="ssr:stedsnr" v="273804" />
	</node>
	<node lat="63.15317500417973" lon="11.670563880814317" id="-85650">
		<tag k="fixme" v="consider natural=peak for the most distinct mountains in the district" />
		<tag k="name" v="Fongtrøa" />
		<tag k="name:no" v="Fongtrøa" />
		<tag k="name:sma" v="Tripmehtahke" />
		<tag k="natural" v="hill" />
		<tag k="place" v="locality" />
		<tag k="ssr:stedsnr" v="315212" />
	</node>
	<node lat="62.99196944785603" lon="12.047669440299815" id="-85651">
		<tag k="fixme" v="consider natural=peak for the most distinct mountains in the district" />
		<tag k="name" v="Kneppen" />
		<tag k="natural" v="hill" />
		<tag k="place" v="locality" />
		<tag k="ssr:stedsnr" v="315953" />
	</node>
	<node lat="63.081561107976746" lon="11.656525007645394" id="-85653">
		<tag k="name" v="Smålian" />
		<tag k="natural" v="slope" />
		<tag k="place" v="locality" />
		<tag k="ssr:stedsnr" v="316358" />
	</node>
	<node lat="63.02735277490762" lon="11.633236118413121" id="-85659">
		<tag k="fixme" v="consider natural=peak for the most distinct mountains in the district" />
		<tag k="name" v="Litlåsen" />
		<tag k="natural" v="hill" />
		<tag k="place" v="locality" />
		<tag k="ssr:stedsnr" v="334607" />
	</node>
	<node lat="63.029477779575" lon="11.660899997745249" id="-85660">
		<tag k="name" v="Fuggelhaugen" />
		<tag k="natural" v="hill" />
		<tag k="place" v="locality" />
		<tag k="ssr:stedsnr" v="334611" />
	</node>
	<node lat="63.05261389158553" lon="11.685805554841464" id="-85661">
		<tag k="name" v="Grønbakken" />
		<tag k="natural" v="slope" />
		<tag k="place" v="locality" />
		<tag k="ssr:stedsnr" v="334645" />
	</node>
	<node lat="63.09133611367064" lon="11.512619438754735" id="-85669">
		<tag k="name" v="Fuglhaugan" />
		<tag k="natural" v="hill" />
		<tag k="place" v="locality" />
		<tag k="ssr:stedsnr" v="376292" />
	</node>
	<node lat="63.066147222972674" lon="11.706252776929878" id="-85686">
		<tag k="fixme" v="consider natural=peak for the most distinct mountains in the district" />
		<tag k="name" v="Rødalstjønnåsen" />
		<tag k="natural" v="hill" />
		<tag k="place" v="locality" />
		<tag k="ssr:stedsnr" v="394805" />
	</node>
	<node lat="63.094497219446446" lon="11.610191674006888" id="-85687">
		<tag k="name" v="Seterhaugane" />
		<tag k="natural" v="hill" />
		<tag k="place" v="locality" />
		<tag k="ssr:stedsnr" v="394784" />
	</node>
	<node lat="63.06576110872181" lon="11.605377783366873" id="-85689">
		<tag k="fixme" v="consider natural=peak for the most distinct mountains in the district" />
		<tag k="name" v="Fabakkåsen" />
		<tag k="natural" v="hill" />
		<tag k="place" v="locality" />
		<tag k="ssr:stedsnr" v="394796" />
	</node>
	<node lat="62.991763890962915" lon="11.702544438385539" id="-85693">
		<tag k="fixme" v="consider natural=peak for the most distinct mountains in the district" />
		<tag k="name" v="Kløftåsen" />
		<tag k="natural" v="hill" />
		<tag k="place" v="locality" />
		<tag k="ssr:stedsnr" v="394986" />
	</node>
	<node lat="63.06772777550618" lon="11.670580548565678" id="-85694">
		<tag k="name" v="Damtjønnberget" />
		<tag k="natural" v="hill" />
		<tag k="place" v="locality" />
		<tag k="ssr:stedsnr" v="394829" />
	</node>
	<node lat="63.03725555836889" lon="11.463344447483387" id="-85695">
		<tag k="fixme" v="consider natural=peak for the most distinct mountains in the district" />
		<tag k="name" v="Ner Bøneggan" />
		<tag k="natural" v="hill" />
		<tag k="place" v="locality" />
		<tag k="ssr:stedsnr" v="394885" />
	</node>
	<node lat="63.00332500297828" lon="11.401233332650312" id="-85705">
		<tag k="fixme" v="consider natural=peak for the most distinct mountains in the district" />
		<tag k="name" v="Hynnøyfjellet" />
		<tag k="natural" v="hill" />
		<tag k="place" v="locality" />
		<tag k="ssr:stedsnr" v="437405" />
	</node>
	<node lat="63.07558333308862" lon="12.13268889361818" id="-85708">
		<tag k="fixme" v="consider natural=peak for the most distinct mountains in the district" />
		<tag k="name" v="Fiskåhøgda" />
		<tag k="name:no" v="Fiskåhøgda" />
		<tag k="name:sma" v="Svaaletjahke" />
		<tag k="natural" v="hill" />
		<tag k="place" v="locality" />
		<tag k="ssr:stedsnr" v="437453" />
	</node>
	<node lat="62.91501666853516" lon="11.716652784485143" id="-85715">
		<tag k="fixme" v="consider natural=peak for the most distinct mountains in the district" />
		<tag k="name" v="Grønvola" />
		<tag k="name:no" v="Grønvola" />
		<tag k="name:sma" v="Jolhtere" />
		<tag k="natural" v="hill" />
		<tag k="place" v="locality" />
		<tag k="ssr:stedsnr" v="446206" />
	</node>
	<node lat="63.185330559338524" lon="11.79735277812361" id="-85718">
		<tag k="name" v="Ingvaldhaugan" />
		<tag k="natural" v="hill" />
		<tag k="place" v="locality" />
		<tag k="ssr:stedsnr" v="455169" />
	</node>
	<node lat="63.04957777404534" lon="11.434794452644477" id="-85722">
		<tag k="fixme" v="consider natural=peak for the most distinct mountains in the district" />
		<tag k="name" v="Jensbergfuruåsen" />
		<tag k="natural" v="hill" />
		<tag k="place" v="locality" />
		<tag k="ssr:stedsnr" v="455518" />
	</node>
	<node lat="63.131155557746766" lon="11.726077768511038" id="-85728">
		<tag k="name" v="Movollmoen" />
		<tag k="place" v="locality" />
		<tag k="ssr:stedsnr" v="455869" />
	</node>
	<node lat="63.10852778141264" lon="11.715699999320341" id="-85732">
		<tag k="fixme" v="consider natural=peak for the most distinct mountains in the district" />
		<tag k="name" v="Røttesåsen" />
		<tag k="name:no" v="Røttesåsen" />
		<tag k="name:sma" v="Njuanabaahke" />
		<tag k="natural" v="hill" />
		<tag k="place" v="locality" />
		<tag k="ssr:stedsnr" v="679238" />
	</node>
	<node lat="63.10931110869293" lon="11.797174994048715" id="-85733">
		<tag k="fixme" v="consider natural=peak for the most distinct mountains in the district" />
		<tag k="name" v="Røkleppen" />
		<tag k="name:no" v="Røkleppen" />
		<tag k="name:sma" v="Mietietjahke" />
		<tag k="natural" v="hill" />
		<tag k="place" v="locality" />
		<tag k="ssr:stedsnr" v="679366" />
	</node>
	<node lat="63.12254444243886" lon="11.971852777711918" id="-85735">
		<tag k="fixme" v="consider natural=peak for the most distinct mountains in the district" />
		<tag k="name" v="Blåkkåkleppen" />
		<tag k="name:no" v="Blåkkåkleppen" />
		<tag k="name:sma" v="Blåahke" />
		<tag k="natural" v="hill" />
		<tag k="place" v="locality" />
		<tag k="ssr:stedsnr" v="679373" />
	</node>
	<node lat="63.09138333353938" lon="11.857958331640331" id="-85736">
		<tag k="fixme" v="consider natural=peak for the most distinct mountains in the district" />
		<tag k="name" v="Finnsbrekka" />
		<tag k="natural" v="hill" />
		<tag k="place" v="locality" />
		<tag k="ssr:stedsnr" v="679376" />
	</node>
	<node lat="63.114891663015534" lon="11.871158333012433" id="-85744">
		<tag k="fixme" v="consider natural=peak for the most distinct mountains in the district" />
		<tag k="name" v="Gardkleppen" />
		<tag k="name:no" v="Gardkleppen" />
		<tag k="name:sma" v="Njuanatjahke" />
		<tag k="natural" v="hill" />
		<tag k="place" v="locality" />
		<tag k="ssr:stedsnr" v="679365" />
	</node>
	<node lat="62.863916669964794" lon="11.89932777688397" id="-85755">
		<tag k="fixme" v="consider natural=peak for the most distinct mountains in the district" />
		<tag k="name" v="Falkberget" />
		<tag k="natural" v="hill" />
		<tag k="place" v="locality" />
		<tag k="ssr:stedsnr" v="680831" />
	</node>
	<node lat="63.14830833229836" lon="11.71526943654889" id="-85756">
		<tag k="fixme" v="consider natural=peak for the most distinct mountains in the district" />
		<tag k="name" v="Kvammen" />
		<tag k="natural" v="hill" />
		<tag k="place" v="locality" />
		<tag k="ssr:stedsnr" v="497210" />
	</node>
	<node lat="63.13984167060986" lon="11.607808327969527" id="-85757">
		<tag k="loc_name" v="Fongskaret" />
		<tag k="name" v="Fongskardet" />
		<tag k="natural" v="valley" />
		<tag k="place" v="locality" />
		<tag k="ssr:stedsnr" v="497257" />
	</node>
	<node lat="63.05132221928633" lon="11.45860000677344" id="-85763">
		<tag k="name" v="Gressligruva" />
		<tag k="old_name" v="Gresligruva" />
		<tag k="place" v="locality" />
		<tag k="ssr:stedsnr" v="516523" />
	</node>
	<node lat="63.00498888704132" lon="11.656166664385697" id="-85766">
		<tag k="name" v="Rabben" />
		<tag k="natural" v="hill" />
		<tag k="place" v="locality" />
		<tag k="ssr:stedsnr" v="516806" />
	</node>
	<node lat="63.009155554547625" lon="11.627891661792331" id="-85767">
		<tag k="name" v="Litllia" />
		<tag k="natural" v="slope" />
		<tag k="place" v="locality" />
		<tag k="ssr:stedsnr" v="516808" />
	</node>
	<node lat="63.0886750033177" lon="11.64247777839908" id="-85771">
		<tag k="name" v="Storkjølbakken" />
		<tag k="natural" v="slope" />
		<tag k="place" v="locality" />
		<tag k="ssr:stedsnr" v="516768" />
	</node>
	<node lat="63.121419444183154" lon="11.615016668303936" id="-85774">
		<tag k="name" v="Grønbakken" />
		<tag k="natural" v="slope" />
		<tag k="place" v="locality" />
		<tag k="ssr:stedsnr" v="516771" />
	</node>
	<node lat="63.058327778138015" lon="11.524627771017988" id="-85777">
		<tag k="name" v="Sandmelen" />
		<tag k="place" v="locality" />
		<tag k="ssr:stedsnr" v="516930" />
	</node>
	<node lat="63.07865278115923" lon="11.56902222548766" id="-85779">
		<tag k="fixme" v="consider natural=peak for the most distinct mountains in the district" />
		<tag k="name" v="Bekkslåttåsen" />
		<tag k="natural" v="hill" />
		<tag k="place" v="locality" />
		<tag k="ssr:stedsnr" v="516865" />
	</node>
	<node lat="63.06676111396544" lon="11.503913895752126" id="-85780">
		<tag k="name" v="Storinnbørbakken" />
		<tag k="natural" v="slope" />
		<tag k="place" v="locality" />
		<tag k="ssr:stedsnr" v="516870" />
	</node>
	<node lat="62.940733336713876" lon="11.636783337699798" id="-85788">
		<tag k="fixme" v="consider natural=peak for the most distinct mountains in the district" />
		<tag k="name" v="Gråvola" />
		<tag k="natural" v="hill" />
		<tag k="place" v="locality" />
		<tag k="ssr:stedsnr" v="558201" />
	</node>
	<node lat="63.039169447857105" lon="11.788800002235448" id="-85808">
		<tag k="name" v="Rishaugen" />
		<tag k="natural" v="hill" />
		<tag k="place" v="locality" />
		<tag k="ssr:stedsnr" v="576611" />
	</node>
	<node lat="63.01900833045838" lon="11.672927786738734" id="-85809">
		<tag k="name" v="Børhølmoen" />
		<tag k="place" v="locality" />
		<tag k="ssr:stedsnr" v="576618" />
	</node>
	<node lat="63.142961111088994" lon="11.695663885114971" id="-85817">
		<tag k="name" v="Løvdalen" />
		<tag k="natural" v="valley" />
		<tag k="place" v="locality" />
		<tag k="ssr:stedsnr" v="576895" />
	</node>
	<node lat="63.04300278029109" lon="11.706794440494825" id="-85826">
		<tag k="name" v="Skreddarbakken" />
		<tag k="natural" v="slope" />
		<tag k="place" v="locality" />
		<tag k="ssr:stedsnr" v="698645" />
	</node>
	<node lat="63.05002777488613" lon="11.791016671793983" id="-85827">
		<tag k="name" v="Skorsålia" />
		<tag k="natural" v="slope" />
		<tag k="place" v="locality" />
		<tag k="ssr:stedsnr" v="698580" />
	</node>
	<node lat="63.051944443539305" lon="11.773469435867945" id="-85828">
		<tag k="name" v="Skorsåhaugan" />
		<tag k="natural" v="hill" />
		<tag k="place" v="locality" />
		<tag k="ssr:stedsnr" v="698586" />
	</node>
	<node lat="63.0212749958608" lon="11.606955560686908" id="-85832">
		<tag k="name" v="Orlandersdalen" />
		<tag k="natural" v="valley" />
		<tag k="place" v="locality" />
		<tag k="ssr:stedsnr" v="698603" />
	</node>
	<node lat="63.09202777566142" lon="11.682102781974738" id="-85833">
		<tag k="fixme" v="consider natural=peak for the most distinct mountains in the district" />
		<tag k="name" v="Høgåsen" />
		<tag k="natural" v="hill" />
		<tag k="place" v="locality" />
		<tag k="ssr:stedsnr" v="698741" />
	</node>
	<node lat="63.10319166278204" lon="11.651888896057642" id="-85835">
		<tag k="name" v="Vasslåttmoan" />
		<tag k="place" v="locality" />
		<tag k="ssr:stedsnr" v="698748" />
	</node>
	<node lat="63.0906527808606" lon="11.623633337495203" id="-85837">
		<tag k="fixme" v="consider natural=peak for the most distinct mountains in the district" />
		<tag k="name" v="Torkalen" />
		<tag k="natural" v="hill" />
		<tag k="place" v="locality" />
		<tag k="ssr:stedsnr" v="698755" />
	</node>
	<node lat="63.09002777684441" lon="11.613280561116978" id="-85838">
		<tag k="name" v="Tynna" />
		<tag k="natural" v="valley" />
		<tag k="place" v="locality" />
		<tag k="ssr:stedsnr" v="698756" />
	</node>
	<node lat="63.061536111007605" lon="11.630586101944798" id="-85839">
		<tag k="fixme" v="consider natural=peak for the most distinct mountains in the district" />
		<tag k="name" v="Sandvikåsen" />
		<tag k="natural" v="hill" />
		<tag k="place" v="locality" />
		<tag k="ssr:stedsnr" v="698762" />
	</node>
	<node lat="63.03549721818389" lon="11.465019434877428" id="-85843">
		<tag k="fixme" v="consider natural=peak for the most distinct mountains in the district" />
		<tag k="name" v="Øver Bøneggan" />
		<tag k="natural" v="hill" />
		<tag k="place" v="locality" />
		<tag k="ssr:stedsnr" v="698853" />
	</node>
	<node lat="62.89946111287473" lon="11.830847223809554" id="-85850">
		<tag k="name" v="Stenvardan" />
		<tag k="natural" v="hill" />
		<tag k="place" v="locality" />
		<tag k="ssr:stedsnr" v="699992" />
	</node>
	<node lat="62.98338611172797" lon="11.583216663257794" id="-85853">
		<tag k="fixme" v="consider natural=peak for the most distinct mountains in the district" />
		<tag k="name" v="Falkfangarvola" />
		<tag k="natural" v="hill" />
		<tag k="place" v="locality" />
		<tag k="ssr:stedsnr" v="619273" />
	</node>
	<node lat="62.97001944862641" lon="11.840663899035324" id="-85863">
		<tag k="fixme" v="consider natural=peak for the most distinct mountains in the district" />
		<tag k="name" v="Storvollvola" />
		<tag k="natural" v="hill" />
		<tag k="place" v="locality" />
		<tag k="ssr:stedsnr" v="619990" />
	</node>
	<node lat="62.89419722047092" lon="12.066277783309209" id="-85864">
		<tag k="fixme" v="consider natural=peak for the most distinct mountains in the district" />
		<tag k="name" v="Sørskardsfjellet" />
		<tag k="name:no" v="Sørskardsfjellet" />
		<tag k="name:sma" v="Åarjelgaejsie" />
		<tag k="natural" v="hill" />
		<tag k="place" v="locality" />
		<tag k="ssr:stedsnr" v="628653" />
	</node>
	<node lat="63.021836112564415" lon="11.691327775001186" id="-85865">
		<tag k="name" v="Knipstenberget" />
		<tag k="natural" v="hill" />
		<tag k="place" v="locality" />
		<tag k="ssr:stedsnr" v="637609" />
	</node>
	<node lat="63.04709444145761" lon="11.617502780383825" id="-85867">
		<tag k="name" v="Varhusbakken" />
		<tag k="natural" v="slope" />
		<tag k="place" v="locality" />
		<tag k="ssr:stedsnr" v="637625" />
	</node>
	<node lat="63.07722222558849" lon="11.460761113185091" id="-85870">
		<tag k="fixme" v="consider natural=peak for the most distinct mountains in the district" />
		<tag k="name" v="Brattåsen" />
		<tag k="natural" v="hill" />
		<tag k="place" v="locality" />
		<tag k="ssr:stedsnr" v="637591" />
	</node>
	<node lat="63.072197218242096" lon="11.41633610816858" id="-85871">
		<tag k="fixme" v="consider natural=peak for the most distinct mountains in the district" />
		<tag k="name" v="Storåsen" />
		<tag k="natural" v="hill" />
		<tag k="place" v="locality" />
		<tag k="ssr:stedsnr" v="637595" />
	</node>
	<node lat="62.98761388784599" lon="11.64300555331293" id="-85872">
		<tag k="name" v="Svartålia" />
		<tag k="natural" v="slope" />
		<tag k="place" v="locality" />
		<tag k="ssr:stedsnr" v="637806" />
	</node>
	<node lat="63.04311944148743" lon="11.575500002905306" id="-85893">
		<tag k="fixme" v="consider natural=peak for the most distinct mountains in the district" />
		<tag k="name" v="Bakkboåsen" />
		<tag k="natural" v="hill" />
		<tag k="place" v="locality" />
		<tag k="ssr:stedsnr" v="698519" />
	</node>
	<node lat="63.064683333603256" lon="11.693463892229193" id="-85900">
		<tag k="name" v="Kattbakken" />
		<tag k="natural" v="hill" />
		<tag k="place" v="locality" />
		<tag k="ssr:stedsnr" v="698769" />
	</node>
	<node lat="62.961427776147104" lon="11.792727774999854" id="-85906">
		<tag k="name" v="Blomlia" />
		<tag k="natural" v="slope" />
		<tag k="place" v="locality" />
		<tag k="ssr:stedsnr" v="698873" />
	</node>
	<node lat="62.893599999739656" lon="11.84258334001057" id="-85907">
		<tag k="name" v="Vermdalen" />
		<tag k="natural" v="valley" />
		<tag k="place" v="locality" />
		<tag k="ssr:stedsnr" v="699813" />
	</node>
	<node lat="62.90857499568362" lon="11.692399992841864" id="-85909">
		<tag k="name" v="Grøndalen" />
		<tag k="natural" v="valley" />
		<tag k="place" v="locality" />
		<tag k="ssr:stedsnr" v="740151" />
	</node>
	<node lat="63.06264999979692" lon="11.661252780279169" id="-85910">
		<tag k="alt_name" v="Hekåsberget" />
		<tag k="fixme" v="consider natural=peak for the most distinct mountains in the district" />
		<tag k="name" v="Heknåsberget" />
		<tag k="natural" v="hill" />
		<tag k="place" v="locality" />
		<tag k="ssr:stedsnr" v="740294" />
	</node>
	<node lat="63.005974998011936" lon="11.441002768268904" id="-85915">
		<tag k="name" v="Sopphaugen" />
		<tag k="natural" v="hill" />
		<tag k="place" v="locality" />
		<tag k="ssr:stedsnr" v="740347" />
	</node>
	<node lat="63.1222972203401" lon="11.645822228696893" id="-85957">
		<tag k="name" v="Silderdalen" />
		<tag k="natural" v="valley" />
		<tag k="place" v="locality" />
		<tag k="ssr:stedsnr" v="819783" />
	</node>
	<node lat="63.06887222474908" lon="11.660211102468427" id="-85959">
		<tag k="name" v="Smålian" />
		<tag k="natural" v="slope" />
		<tag k="place" v="locality" />
		<tag k="ssr:stedsnr" v="819805" />
	</node>
	<node lat="63.06489999550733" lon="11.704844449183904" id="-85960">
		<tag k="name" v="Benthaugen" />
		<tag k="natural" v="hill" />
		<tag k="place" v="locality" />
		<tag k="ssr:stedsnr" v="819807" />
	</node>
	<node lat="63.073838890274025" lon="11.7209944509036" id="-85961">
		<tag k="name" v="Måssådalen" />
		<tag k="natural" v="valley" />
		<tag k="place" v="locality" />
		<tag k="ssr:stedsnr" v="819819" />
	</node>
	<node lat="63.061491669791316" lon="11.667905552313389" id="-85962">
		<tag k="name" v="Litlheknosberget" />
		<tag k="natural" v="hill" />
		<tag k="place" v="locality" />
		<tag k="ssr:stedsnr" v="819824" />
	</node>
	<node lat="62.92215555855529" lon="11.942766668740353" id="-85966">
		<tag k="name" v="Kikut" />
		<tag k="place" v="locality" />
		<tag k="ssr:stedsnr" v="820915" />
	</node>
	<node lat="63.1827388894681" lon="11.714616667148746" id="-85975">
		<tag k="fixme" v="consider natural=peak for the most distinct mountains in the district" />
		<tag k="name" v="Ettfjellet" />
		<tag k="name:no" v="Ettfjellet" />
		<tag k="name:sma" v="Aktetjahke" />
		<tag k="natural" v="hill" />
		<tag k="place" v="locality" />
		<tag k="ssr:stedsnr" v="923267" />
	</node>
	<node lat="63.05747222352395" lon="11.483908332910671" id="-85996">
		<tag k="name" v="Tydalen" />
		<tag k="natural" v="valley" />
		<tag k="place" v="locality" />
		<tag k="ssr:stedsnr" v="875723" />
	</node>
	<node lat="63.061505555469374" lon="11.611716663982682" id="-86007">
		<tag k="name" v="Gjetdalen" />
		<tag k="natural" v="valley" />
		<tag k="place" v="locality" />
		<tag k="ssr:stedsnr" v="880802" />
	</node>
	<node lat="63.047269441231975" lon="11.692886114153833" id="-86011">
		<tag k="name" v="Sluskbakken" />
		<tag k="natural" v="slope" />
		<tag k="place" v="locality" />
		<tag k="ssr:stedsnr" v="880700" />
	</node>
	<node lat="63.06380555740188" lon="11.711316672412218" id="-86013">
		<tag k="name" v="Vektbubakken" />
		<tag k="natural" v="slope" />
		<tag k="place" v="locality" />
		<tag k="ssr:stedsnr" v="880808" />
	</node>
	<node lat="63.08109999876421" lon="11.406533334644338" id="-86019">
		<tag k="name" v="Henningsdalen" />
		<tag k="natural" v="valley" />
		<tag k="place" v="locality" />
		<tag k="ssr:stedsnr" v="881964" />
	</node>
	<node lat="62.988794440719275" lon="11.39610832916467" id="-86020">
		<tag k="fixme" v="consider natural=peak for the most distinct mountains in the district" />
		<tag k="name" v="Hynnhøgda" />
		<tag k="natural" v="hill" />
		<tag k="place" v="locality" />
		<tag k="ssr:stedsnr" v="922224" />
	</node>
	<node lat="63.01805833768952" lon="11.571538895800888" id="-86051">
		<tag k="name" v="Henlia" />
		<tag k="natural" v="slope" />
		<tag k="place" v="locality" />
		<tag k="ssr:stedsnr" v="12354" />
	</node>
	<node lat="63.184888887450505" lon="11.76645278157786" id="-86054">
		<tag k="fixme" v="consider natural=peak for the most distinct mountains in the district" />
		<tag k="name" v="Finnkoihøgda" />
		<tag k="natural" v="hill" />
		<tag k="place" v="locality" />
		<tag k="ssr:stedsnr" v="12380" />
	</node>
	<node lat="63.051255552198384" lon="11.613600007187246" id="-86084">
		<tag k="fixme" v="consider natural=peak for the most distinct mountains in the district" />
		<tag k="name" v="Markaåsen" />
		<tag k="natural" v="hill" />
		<tag k="place" v="locality" />
		<tag k="ssr:stedsnr" v="30555" />
	</node>
	<node lat="62.969747224855695" lon="11.735086104997633" id="-86086">
		<tag k="name" v="Synnermolia" />
		<tag k="natural" v="slope" />
		<tag k="place" v="locality" />
		<tag k="ssr:stedsnr" v="30895" />
	</node>
	<node lat="63.11268333472397" lon="11.681911107125764" id="-86092">
		<tag k="name" v="Ystersetermoen" />
		<tag k="place" v="locality" />
		<tag k="ssr:stedsnr" v="30760" />
	</node>
	<node lat="63.07493888579081" lon="11.524097228880606" id="-86095">
		<tag k="name" v="Hatmyrbakken" />
		<tag k="natural" v="slope" />
		<tag k="place" v="locality" />
		<tag k="ssr:stedsnr" v="30854" />
	</node>
	<node lat="63.04895833336009" lon="11.550208341668588" id="-86096">
		<tag k="name" v="Gubben" />
		<tag k="natural" v="hill" />
		<tag k="place" v="locality" />
		<tag k="ssr:stedsnr" v="30950" />
	</node>
	<node lat="62.93497222538485" lon="11.838236103764737" id="-86103">
		<tag k="name" v="Patruslia" />
		<tag k="natural" v="slope" />
		<tag k="place" v="locality" />
		<tag k="ssr:stedsnr" v="31994" />
	</node>
	<node lat="63.033977775320785" lon="11.975286101318105" id="-86124">
		<tag k="fixme" v="consider natural=peak for the most distinct mountains in the district" />
		<tag k="name" v="Gruvkneppen" />
		<tag k="natural" v="hill" />
		<tag k="place" v="locality" />
		<tag k="ssr:stedsnr" v="73452" />
	</node>
	<node lat="62.95040832961111" lon="12.02369444794511" id="-86127">
		<tag k="name" v="Hamndalen" />
		<tag k="natural" v="valley" />
		<tag k="place" v="locality" />
		<tag k="ssr:stedsnr" v="73998" />
	</node>
	<node lat="63.05848055181881" lon="11.608994445727477" id="-86136">
		<tag k="fixme" v="consider natural=peak for the most distinct mountains in the district" />
		<tag k="name" v="Oksåsen" />
		<tag k="natural" v="hill" />
		<tag k="place" v="locality" />
		<tag k="ssr:stedsnr" v="91579" />
	</node>
	<node lat="63.02632777435488" lon="11.703547225991278" id="-86137">
		<tag k="name" v="Litllia" />
		<tag k="natural" v="slope" />
		<tag k="place" v="locality" />
		<tag k="ssr:stedsnr" v="91592" />
	</node>
	<node lat="63.02165833619003" lon="11.436680562764206" id="-86155">
		<tag k="name" v="Megroin" />
		<tag k="natural" v="slope" />
		<tag k="place" v="locality" />
		<tag k="ssr:stedsnr" v="133332" />
	</node>
	<node lat="63.03077777612949" lon="11.555494437963205" id="-86157">
		<tag k="fixme" v="consider natural=peak for the most distinct mountains in the district" />
		<tag k="name" v="Henvola" />
		<tag k="natural" v="hill" />
		<tag k="place" v="locality" />
		<tag k="ssr:stedsnr" v="133342" />
	</node>
	<node lat="63.07432221845298" lon="11.618063898142982" id="-86176">
		<tag k="fixme" v="consider natural=peak for the most distinct mountains in the district" />
		<tag k="name" v="Luåsen" />
		<tag k="natural" v="hill" />
		<tag k="place" v="locality" />
		<tag k="ssr:stedsnr" v="151817" />
	</node>
	<node lat="63.0582777741659" lon="11.670588895004746" id="-86197">
		<tag k="name" v="Vektarhaugen" />
		<tag k="natural" v="hill" />
		<tag k="place" v="locality" />
		<tag k="ssr:stedsnr" v="152825" />
	</node>
	<node lat="62.987352776189304" lon="11.76464167097424" id="-86230">
		<tag k="fixme" v="consider natural=peak for the most distinct mountains in the district" />
		<tag k="name" v="Movola" />
		<tag k="natural" v="hill" />
		<tag k="place" v="locality" />
		<tag k="ssr:stedsnr" v="194945" />
	</node>
	<node lat="62.978800001882774" lon="11.92581943784987" id="-86232">
		<tag k="fixme" v="consider natural=peak for the most distinct mountains in the district" />
		<tag k="name" v="Falkhyttvola" />
		<tag k="natural" v="hill" />
		<tag k="place" v="locality" />
		<tag k="ssr:stedsnr" v="194980" />
	</node>
	<node lat="62.87307778034008" lon="12.06155000974967" id="-86239">
		<tag k="name" v="Villskarddøra" />
		<tag k="natural" v="valley" />
		<tag k="place" v="locality" />
		<tag k="ssr:stedsnr" v="195787" />
	</node>
	<node lat="62.878466663142966" lon="11.936161113338478" id="-86243">
		<tag k="fixme" v="consider natural=peak for the most distinct mountains in the district" />
		<tag k="name" v="Gråsida" />
		<tag k="name:no" v="Gråsida" />
		<tag k="name:sma" v="Kraeviesgealta" />
		<tag k="natural" v="hill" />
		<tag k="place" v="locality" />
		<tag k="ssr:stedsnr" v="203780" />
	</node>
	<node lat="63.10832777451082" lon="11.641772231752055" id="-86246">
		<tag k="fixme" v="consider natural=peak for the most distinct mountains in the district" />
		<tag k="name" v="Fallåsan" />
		<tag k="natural" v="hill" />
		<tag k="place" v="locality" />
		<tag k="ssr:stedsnr" v="212784" />
	</node>
	<node lat="63.06927222224059" lon="11.59632499049942" id="-86250">
		<tag k="fixme" v="consider natural=peak for the most distinct mountains in the district" />
		<tag k="name" v="Lermelåsen" />
		<tag k="natural" v="hill" />
		<tag k="place" v="locality" />
		<tag k="ssr:stedsnr" v="212863" />
	</node>
	<node lat="63.057219443222806" lon="11.54583611447427" id="-86251">
		<tag k="name" v="Vælberget" />
		<tag k="natural" v="hill" />
		<tag k="place" v="locality" />
		<tag k="ssr:stedsnr" v="213952" />
	</node>
	<node lat="63.065816666591274" lon="11.398283340319466" id="-86254">
		<tag k="fixme" v="consider natural=peak for the most distinct mountains in the district" />
		<tag k="name" v="Brattkneppet" />
		<tag k="natural" v="hill" />
		<tag k="place" v="locality" />
		<tag k="ssr:stedsnr" v="213966" />
	</node>
	<node lat="63.09987499929951" lon="11.450561111470968" id="-86257">
		<tag k="name" v="Hattlia" />
		<tag k="natural" v="slope" />
		<tag k="place" v="locality" />
		<tag k="ssr:stedsnr" v="213545" />
	</node>
	<node lat="63.06130833311733" lon="11.68937777335943" id="-86269">
		<tag k="name" v="Gohaugen" />
		<tag k="natural" v="hill" />
		<tag k="place" v="locality" />
		<tag k="ssr:stedsnr" v="213818" />
	</node>
	<node lat="62.9710777763164" lon="11.73107222011773" id="-86273">
		<tag k="name" v="Vermdalen" />
		<tag k="natural" v="valley" />
		<tag k="place" v="locality" />
		<tag k="ssr:stedsnr" v="213900" />
	</node>
	<node lat="63.061919443011526" lon="11.473524997411612" id="-86276">
		<tag k="fixme" v="consider natural=peak for the most distinct mountains in the district" />
		<tag k="name" v="Skjulhåmmåren" />
		<tag k="natural" v="hill" />
		<tag k="place" v="locality" />
		<tag k="ssr:stedsnr" v="213841" />
	</node>
	<node lat="63.07023610775975" lon="11.565966666951159" id="-86278">
		<tag k="fixme" v="consider natural=peak for the most distinct mountains in the district" />
		<tag k="name" v="Tørråsen" />
		<tag k="natural" v="hill" />
		<tag k="place" v="locality" />
		<tag k="ssr:stedsnr" v="213858" />
	</node>
	<node lat="63.020319440463275" lon="11.686141657959102" id="-86282">
		<tag k="name" v="Torthaugen" />
		<tag k="natural" v="hill" />
		<tag k="place" v="locality" />
		<tag k="ssr:stedsnr" v="273615" />
	</node>
	<node lat="63.03383610655435" lon="11.703819450110224" id="-86285">
		<tag k="name" v="Lensmannskolbotnen" />
		<tag k="natural" v="valley" />
		<tag k="place" v="locality" />
		<tag k="ssr:stedsnr" v="273564" />
	</node>
	<node lat="62.87402778014477" lon="11.907652769726528" id="-86286">
		<tag k="name" v="Langberga" />
		<tag k="natural" v="hill" />
		<tag k="place" v="locality" />
		<tag k="ssr:stedsnr" v="273844" />
	</node>
	<node lat="63.08183055657157" lon="11.612574993024591" id="-86289">
		<tag k="fixme" v="consider natural=peak for the most distinct mountains in the district" />
		<tag k="name" v="Storslåttåsen" />
		<tag k="natural" v="hill" />
		<tag k="place" v="locality" />
		<tag k="ssr:stedsnr" v="273800" />
	</node>
	<node lat="63.08505833557621" lon="11.51160833466611" id="-86291">
		<tag k="fixme" v="consider natural=peak for the most distinct mountains in the district" />
		<tag k="name" v="Huitfeldt" />
		<tag k="natural" v="hill" />
		<tag k="place" v="locality" />
		<tag k="ssr:stedsnr" v="273882" />
	</node>
	<node lat="63.03838333665463" lon="11.570736117015963" id="-86292">
		<tag k="name" v="Bergbekkdalen" />
		<tag k="natural" v="valley" />
		<tag k="place" v="locality" />
		<tag k="ssr:stedsnr" v="273884" />
	</node>
	<node lat="63.138336110373494" lon="11.72708055314375" id="-86293">
		<tag k="name" v="Løvøllia" />
		<tag k="natural" v="slope" />
		<tag k="place" v="locality" />
		<tag k="ssr:stedsnr" v="273891" />
	</node>
	<node lat="62.91565000171364" lon="11.81455556281862" id="-86302">
		<tag k="name" v="Fresvoll-lia" />
		<tag k="natural" v="slope" />
		<tag k="place" v="locality" />
		<tag k="ssr:stedsnr" v="274996" />
	</node>
	<node lat="62.94363611559572" lon="11.77068610799594" id="-86303">
		<tag k="name" v="Grønlia" />
		<tag k="natural" v="slope" />
		<tag k="place" v="locality" />
		<tag k="ssr:stedsnr" v="274847" />
	</node>
	<node lat="63.07104444846104" lon="11.398563882365188" id="-86306">
		<tag k="name" v="Kaffekjelberget" />
		<tag k="natural" v="hill" />
		<tag k="place" v="locality" />
		<tag k="ssr:stedsnr" v="274948" />
	</node>
	<node lat="63.01680555395215" lon="11.716766657250064" id="-86317">
		<tag k="fixme" v="consider natural=peak for the most distinct mountains in the district" />
		<tag k="name" v="Fosskleppen" />
		<tag k="natural" v="hill" />
		<tag k="place" v="locality" />
		<tag k="ssr:stedsnr" v="315337" />
	</node>
	<node lat="63.026949998247396" lon="11.725036102424896" id="-86320">
		<tag k="fixme" v="consider natural=peak for the most distinct mountains in the district" />
		<tag k="name" v="Storkleppen" />
		<tag k="natural" v="hill" />
		<tag k="place" v="locality" />
		<tag k="ssr:stedsnr" v="315416" />
	</node>
	<node lat="63.03311666727278" lon="11.92610278118086" id="-86321">
		<tag k="name" v="Brokksjødalen" />
		<tag k="natural" v="valley" />
		<tag k="place" v="locality" />
		<tag k="ssr:stedsnr" v="315422" />
	</node>
	<node lat="63.06956111392311" lon="11.476113892603324" id="-86327">
		<tag k="fixme" v="consider natural=peak for the most distinct mountains in the district" />
		<tag k="name" v="Motoppen" />
		<tag k="natural" v="hill" />
		<tag k="place" v="locality" />
		<tag k="ssr:stedsnr" v="316345" />
	</node>
	<node lat="63.08947500148442" lon="11.3929722313331" id="-86338">
		<tag k="fixme" v="consider natural=peak for the most distinct mountains in the district" />
		<tag k="name" v="Lomtjønnåsen" />
		<tag k="natural" v="hill" />
		<tag k="place" v="locality" />
		<tag k="ssr:stedsnr" v="334518" />
	</node>
	<node lat="63.07164167030624" lon="11.455336105164564" id="-86339">
		<tag k="name" v="Langlia" />
		<tag k="natural" v="slope" />
		<tag k="place" v="locality" />
		<tag k="ssr:stedsnr" v="334528" />
	</node>
	<node lat="63.069047217864885" lon="11.455608329092474" id="-86340">
		<tag k="name" v="Rundhaugen" />
		<tag k="natural" v="hill" />
		<tag k="place" v="locality" />
		<tag k="ssr:stedsnr" v="334531" />
	</node>
	<node lat="63.052838892927674" lon="11.634230553673248" id="-86344">
		<tag k="name" v="Tinnersberget" />
		<tag k="natural" v="hill" />
		<tag k="place" v="locality" />
		<tag k="ssr:stedsnr" v="334575" />
	</node>
	<node lat="63.03931111088337" lon="11.775899997831427" id="-86345">
		<tag k="fixme" v="consider natural=peak for the most distinct mountains in the district" />
		<tag k="name" v="Kverngrubba" />
		<tag k="natural" v="hill" />
		<tag k="place" v="locality" />
		<tag k="ssr:stedsnr" v="334589" />
	</node>
	<node lat="63.1444388878219" lon="11.661538879465366" id="-86351">
		<tag k="name" v="Fongtrøa" />
		<tag k="natural" v="slope" />
		<tag k="place" v="locality" />
		<tag k="ssr:stedsnr" v="334737" />
	</node>
	<node lat="62.97182777374028" lon="11.7440916685062" id="-86353">
		<tag k="name" v="Nordmolia" />
		<tag k="natural" v="slope" />
		<tag k="place" v="locality" />
		<tag k="ssr:stedsnr" v="334879" />
	</node>
	<node lat="63.05974444593186" lon="11.526744448807495" id="-86355">
		<tag k="fixme" v="consider natural=peak for the most distinct mountains in the district" />
		<tag k="name" v="Sandmelåsen" />
		<tag k="natural" v="hill" />
		<tag k="place" v="locality" />
		<tag k="ssr:stedsnr" v="334927" />
	</node>
	<node lat="63.0530249981931" lon="11.497575009007301" id="-86359">
		<tag k="name" v="Gammelgjertrudberget" />
		<tag k="natural" v="hill" />
		<tag k="place" v="locality" />
		<tag k="ssr:stedsnr" v="334957" />
	</node>
	<node lat="63.00452500235964" lon="11.481994451551483" id="-86372">
		<tag k="name" v="Storbekkdalen" />
		<tag k="natural" v="valley" />
		<tag k="place" v="locality" />
		<tag k="ssr:stedsnr" v="376397" />
	</node>
	<node lat="63.14654444450385" lon="11.733750000789861" id="-86373">
		<tag k="fixme" v="consider natural=peak for the most distinct mountains in the district" />
		<tag k="name" v="Lauvvola" />
		<tag k="natural" v="hill" />
		<tag k="place" v="locality" />
		<tag k="ssr:stedsnr" v="376416" />
	</node>
	<node lat="63.148936111501335" lon="11.991413883136929" id="-86374">
		<tag k="name" v="Remslihøgda" />
		<tag k="natural" v="hill" />
		<tag k="place" v="locality" />
		<tag k="ssr:stedsnr" v="376417" />
	</node>
	<node lat="63.166611111910946" lon="11.78266944605001" id="-86375">
		<tag k="name" v="Skarpdalen" />
		<tag k="name:no" v="Skarpdalen" />
		<tag k="name:sma" v="Skaarhpdaelie" />
		<tag k="natural" v="valley" />
		<tag k="place" v="locality" />
		<tag k="ssr:stedsnr" v="376418" />
	</node>
	<node lat="63.03766110669548" lon="11.818666672771354" id="-86385">
		<tag k="name" v="Gammelgruvhøgda" />
		<tag k="name:no" v="Gammelgruvhøgda" />
		<tag k="name:sma" v="Tsoevtsedalvese" />
		<tag k="natural" v="hill" />
		<tag k="place" v="locality" />
		<tag k="ssr:stedsnr" v="376444" />
	</node>
	<node lat="63.15110277778778" lon="11.777852781039247" id="-86399">
		<tag k="name" v="Løvhaugen" />
		<tag k="natural" v="hill" />
		<tag k="place" v="locality" />
		<tag k="ssr:stedsnr" v="394162" />
	</node>
	<node lat="63.06708055321484" lon="11.454133336537687" id="-86402">
		<tag k="name" v="Tyskhaugen" />
		<tag k="natural" v="hill" />
		<tag k="place" v="locality" />
		<tag k="ssr:stedsnr" v="394545" />
	</node>
	<node lat="63.06330000307088" lon="11.440786107759399" id="-86403">
		<tag k="name" v="Sponghaugen" />
		<tag k="natural" v="hill" />
		<tag k="place" v="locality" />
		<tag k="ssr:stedsnr" v="394554" />
	</node>
	<node lat="63.070752780579966" lon="11.715805557996692" id="-86417">
		<tag k="name" v="Søre Toslålia" />
		<tag k="natural" v="slope" />
		<tag k="place" v="locality" />
		<tag k="ssr:stedsnr" v="394820" />
	</node>
	<node lat="63.03503888948739" lon="11.473183331792304" id="-86424">
		<tag k="name" v="Brandrya" />
		<tag k="natural" v="hill" />
		<tag k="place" v="locality" />
		<tag k="ssr:stedsnr" v="437365" />
	</node>
	<node lat="63.02022499581508" lon="12.198741662964727" id="-86432">
		<tag k="fixme" v="consider natural=peak for the most distinct mountains in the district" />
		<tag k="name" v="Storsylen" />
		<tag k="natural" v="hill" />
		<tag k="place" v="locality" />
		<tag k="ssr:stedsnr" v="437471" />
	</node>
	<node lat="62.893944448280074" lon="11.666769453986674" id="-86433">
		<tag k="fixme" v="consider natural=peak for the most distinct mountains in the district" />
		<tag k="name" v="Rypkleppen" />
		<tag k="natural" v="hill" />
		<tag k="place" v="locality" />
		<tag k="ssr:stedsnr" v="437207" />
	</node>
	<node lat="63.151888887711415" lon="11.628725005431782" id="-86435">
		<tag k="fixme" v="consider natural=peak for the most distinct mountains in the district" />
		<tag k="name" v="Tronshatten" />
		<tag k="natural" v="hill" />
		<tag k="place" v="locality" />
		<tag k="ssr:stedsnr" v="437246" />
	</node>
	<node lat="63.10016111059858" lon="11.906855563041935" id="-86442">
		<tag k="name" v="Fiskhushaugan" />
		<tag k="natural" v="hill" />
		<tag k="place" v="locality" />
		<tag k="ssr:stedsnr" v="437443" />
	</node>
	<node lat="62.86549166386644" lon="11.901763893516888" id="-86445">
		<tag k="name" v="Styggdalen" />
		<tag k="natural" v="valley" />
		<tag k="place" v="locality" />
		<tag k="ssr:stedsnr" v="437777" />
	</node>
	<node lat="63.030866666196566" lon="11.306313881230228" id="-86461">
		<tag k="name" v="Røsta" />
		<tag k="natural" v="slope" />
		<tag k="place" v="locality" />
		<tag k="ssr:stedsnr" v="497350" />
	</node>
	<node lat="62.880238890893295" lon="11.594699994439535" id="-86462">
		<tag k="fixme" v="consider natural=peak for the most distinct mountains in the district" />
		<tag k="name" v="Kjøliskarven" />
		<tag k="natural" v="hill" />
		<tag k="place" v="locality" />
		<tag k="ssr:stedsnr" v="497168" />
	</node>
	<node lat="62.795527778607685" lon="12.116708339614455" id="-86464">
		<tag k="fixme" v="consider natural=peak for the most distinct mountains in the district" />
		<tag k="name" v="Hyddkleppen" />
		<tag k="natural" v="hill" />
		<tag k="place" v="locality" />
		<tag k="ssr:stedsnr" v="497808" />
	</node>
	<node lat="62.902250003560766" lon="12.054844454143018" id="-86466">
		<tag k="name" v="Skarddøra" />
		<tag k="name:no" v="Skarddøra" />
		<tag k="name:sma" v="Durrie" />
		<tag k="natural" v="valley" />
		<tag k="place" v="locality" />
		<tag k="ssr:stedsnr" v="497761" />
	</node>
	<node lat="62.907794441207166" lon="12.029461114471728" id="-86487">
		<tag k="fixme" v="consider natural=peak for the most distinct mountains in the district" />
		<tag k="name" v="Nordskardsfjellet" />
		<tag k="name:no" v="Nordskardsfjellet" />
		<tag k="name:sma" v="Noerhtegaejsie" />
		<tag k="natural" v="hill" />
		<tag k="place" v="locality" />
		<tag k="ssr:stedsnr" v="507675" />
	</node>
	<node lat="63.138547218202866" lon="11.659683341656198" id="-86492">
		<tag k="name" v="Fongtrøhaugan" />
		<tag k="natural" v="hill" />
		<tag k="place" v="locality" />
		<tag k="ssr:stedsnr" v="516752" />
	</node>
	<node lat="63.120319444289386" lon="11.631311113626337" id="-86493">
		<tag k="name" v="Gjardaøya" />
		<tag k="place" v="locality" />
		<tag k="ssr:stedsnr" v="516757" />
	</node>
	<node lat="63.096975003431034" lon="11.670899997860621" id="-86494">
		<tag k="fixme" v="consider natural=peak for the most distinct mountains in the district" />
		<tag k="name" v="Ongeltjønnåsen" />
		<tag k="natural" v="hill" />
		<tag k="place" v="locality" />
		<tag k="ssr:stedsnr" v="516760" />
	</node>
	<node lat="62.98848333239438" lon="11.608152787272473" id="-86495">
		<tag k="name" v="Stutberga" />
		<tag k="natural" v="hill" />
		<tag k="place" v="locality" />
		<tag k="ssr:stedsnr" v="516178" />
	</node>
	<node lat="63.129513888542235" lon="11.74856111137035" id="-86497">
		<tag k="name" v="Bårdseggdalen" />
		<tag k="natural" v="valley" />
		<tag k="place" v="locality" />
		<tag k="ssr:stedsnr" v="516191" />
	</node>
	<node lat="63.091511107477906" lon="11.468269446581182" id="-86501">
		<tag k="fixme" v="consider natural=peak for the most distinct mountains in the district" />
		<tag k="name" v="Huitfeldt" />
		<tag k="natural" v="hill" />
		<tag k="place" v="locality" />
		<tag k="ssr:stedsnr" v="516494" />
	</node>
	<node lat="63.09793333661563" lon="11.435602776486176" id="-86502">
		<tag k="name" v="Kvernarbesdalen" />
		<tag k="natural" v="valley" />
		<tag k="place" v="locality" />
		<tag k="ssr:stedsnr" v="516497" />
	</node>
	<node lat="63.0726083326906" lon="11.644424991438768" id="-86511">
		<tag k="fixme" v="consider natural=peak for the most distinct mountains in the district" />
		<tag k="name" v="Storhesjesundet" />
		<tag k="natural" v="hill" />
		<tag k="place" v="locality" />
		<tag k="ssr:stedsnr" v="516783" />
	</node>
	<node lat="63.068461111544856" lon="11.695925001521825" id="-86512">
		<tag k="name" v="Kattberget" />
		<tag k="natural" v="hill" />
		<tag k="place" v="locality" />
		<tag k="ssr:stedsnr" v="516798" />
	</node>
	<node lat="63.072441665388126" lon="11.718394445218713" id="-86513">
		<tag k="name" v="Nordre Toslålia" />
		<tag k="natural" v="slope" />
		<tag k="place" v="locality" />
		<tag k="ssr:stedsnr" v="516800" />
	</node>
	<node lat="63.04141944318224" lon="11.327380555002808" id="-86517">
		<tag k="name" v="Rundhaugen" />
		<tag k="natural" v="hill" />
		<tag k="place" v="locality" />
		<tag k="ssr:stedsnr" v="516857" />
	</node>
	<node lat="62.87657222152182" lon="11.861233342169315" id="-86521">
		<tag k="fixme" v="consider natural=peak for the most distinct mountains in the district" />
		<tag k="name" v="Storkåsklumpen" />
		<tag k="natural" v="hill" />
		<tag k="place" v="locality" />
		<tag k="ssr:stedsnr" v="516895" />
	</node>
	<node lat="62.9253055529292" lon="11.807533338500342" id="-86523">
		<tag k="name" v="Tjønnvollia" />
		<tag k="natural" v="slope" />
		<tag k="place" v="locality" />
		<tag k="ssr:stedsnr" v="517000" />
	</node>
	<node lat="63.02028333517226" lon="11.510080556908454" id="-86533">
		<tag k="name" v="Storgroin" />
		<tag k="natural" v="slope" />
		<tag k="place" v="locality" />
		<tag k="ssr:stedsnr" v="558377" />
	</node>
	<node lat="63.02561111447756" lon="11.660797225406801" id="-86543">
		<tag k="fixme" v="consider natural=peak for the most distinct mountains in the district" />
		<tag k="name" v="Synneråsen" />
		<tag k="natural" v="hill" />
		<tag k="place" v="locality" />
		<tag k="ssr:stedsnr" v="576628" />
	</node>
	<node lat="63.01103055726562" lon="11.722558332337785" id="-86544">
		<tag k="name" v="Gullia" />
		<tag k="natural" v="slope" />
		<tag k="place" v="locality" />
		<tag k="ssr:stedsnr" v="576631" />
	</node>
	<node lat="63.11216110756075" lon="11.741252787190021" id="-86546">
		<tag k="name" v="Buhaugen" />
		<tag k="natural" v="hill" />
		<tag k="place" v="locality" />
		<tag k="ssr:stedsnr" v="576175" />
	</node>
	<node lat="63.021591667368895" lon="11.700800003294663" id="-86548">
		<tag k="name" v="Hårråhaugan" />
		<tag k="natural" v="hill" />
		<tag k="place" v="locality" />
		<tag k="ssr:stedsnr" v="576581" />
	</node>
	<node lat="63.06006666969446" lon="11.714511112415076" id="-86552">
		<tag k="name" v="Toraldhaugen" />
		<tag k="natural" v="hill" />
		<tag k="place" v="locality" />
		<tag k="ssr:stedsnr" v="576815" />
	</node>
	<node lat="63.05716388754508" lon="11.335875000926988" id="-86560">
		<tag k="fixme" v="consider natural=peak for the most distinct mountains in the district" />
		<tag k="name" v="Storkleppen" />
		<tag k="natural" v="hill" />
		<tag k="place" v="locality" />
		<tag k="ssr:stedsnr" v="576869" />
	</node>
	<node lat="63.084233337153734" lon="11.480058339652807" id="-86562">
		<tag k="fixme" v="consider natural=peak for the most distinct mountains in the district" />
		<tag k="name" v="Storkleppen" />
		<tag k="natural" v="hill" />
		<tag k="place" v="locality" />
		<tag k="ssr:stedsnr" v="576885" />
	</node>
	<node lat="63.06163332884999" lon="11.678627783333543" id="-86564">
		<tag k="fixme" v="consider natural=peak for the most distinct mountains in the district" />
		<tag k="name" v="Strokkstensåsen" />
		<tag k="natural" v="hill" />
		<tag k="place" v="locality" />
		<tag k="ssr:stedsnr" v="576824" />
	</node>
	<node lat="62.88916110901899" lon="11.89713333950248" id="-86568">
		<tag k="name" v="Stillhåhaugen" />
		<tag k="natural" v="hill" />
		<tag k="place" v="locality" />
		<tag k="ssr:stedsnr" v="577905" />
	</node>
	<node lat="63.140000001136606" lon="11.78351389882546" id="-86581">
		<tag k="name" v="Kranklia" />
		<tag k="name:no" v="Kranklia" />
		<tag k="name:sma" v="Kraanka" />
		<tag k="natural" v="slope" />
		<tag k="place" v="locality" />
		<tag k="ssr:stedsnr" v="619449" />
	</node>
	<node lat="62.93104167071765" lon="11.527933339177906" id="-86584">
		<tag k="fixme" v="consider natural=peak for the most distinct mountains in the district" />
		<tag k="name" v="Ysterhøgda" />
		<tag k="natural" v="hill" />
		<tag k="place" v="locality" />
		<tag k="ssr:stedsnr" v="619196" />
	</node>
	<node lat="62.96160555323896" lon="11.59431667049231" id="-86586">
		<tag k="name" v="Lauvun" />
		<tag k="natural" v="slope" />
		<tag k="place" v="locality" />
		<tag k="ssr:stedsnr" v="619231" />
	</node>
	<node lat="62.857833335017865" lon="11.856377784075686" id="-86596">
		<tag k="fixme" v="consider natural=peak for the most distinct mountains in the district" />
		<tag k="name" v="Falkfangarvola" />
		<tag k="natural" v="hill" />
		<tag k="place" v="locality" />
		<tag k="ssr:stedsnr" v="619829" />
	</node>
	<node lat="63.06356388477246" lon="11.379086119300705" id="-86604">
		<tag k="name" v="Kattuggelhaugen" />
		<tag k="natural" v="hill" />
		<tag k="place" v="locality" />
		<tag k="ssr:stedsnr" v="637961" />
	</node>
	<node lat="63.055180558644985" lon="11.49373610323689" id="-86605">
		<tag k="fixme" v="consider natural=peak for the most distinct mountains in the district" />
		<tag k="name" v="Klingåsen" />
		<tag k="natural" v="hill" />
		<tag k="place" v="locality" />
		<tag k="ssr:stedsnr" v="637967" />
	</node>
	<node lat="63.06506388798217" lon="11.40376387893399" id="-86606">
		<tag k="name" v="Brattbakken" />
		<tag k="natural" v="slope" />
		<tag k="place" v="locality" />
		<tag k="ssr:stedsnr" v="637969" />
	</node>
	<node lat="62.99598055378198" lon="11.721708333561024" id="-86610">
		<tag k="name" v="Spøneslia" />
		<tag k="natural" v="slope" />
		<tag k="place" v="locality" />
		<tag k="ssr:stedsnr" v="637649" />
	</node>
	<node lat="63.073577773359176" lon="11.613866674159931" id="-86613">
		<tag k="name" v="Brenthaugen" />
		<tag k="natural" v="hill" />
		<tag k="place" v="locality" />
		<tag k="ssr:stedsnr" v="637789" />
	</node>
	<node lat="63.00038611544565" lon="11.65738055147003" id="-86614">
		<tag k="name" v="Ner Løvøkleppen" />
		<tag k="natural" v="hill" />
		<tag k="place" v="locality" />
		<tag k="ssr:stedsnr" v="637802" />
	</node>
	<node lat="63.037427778256145" lon="11.580630555410728" id="-86616">
		<tag k="fixme" v="consider natural=peak for the most distinct mountains in the district" />
		<tag k="name" v="Bekkbotnåsen" />
		<tag k="natural" v="hill" />
		<tag k="place" v="locality" />
		<tag k="ssr:stedsnr" v="637857" />
	</node>
	<node lat="63.114986108535014" lon="11.695441675002845" id="-86618">
		<tag k="name" v="Sjurdsøya" />
		<tag k="place" v="locality" />
		<tag k="ssr:stedsnr" v="637758" />
	</node>
	<node lat="63.0860222236233" lon="11.62669722066889" id="-86648">
		<tag k="fixme" v="consider natural=peak for the most distinct mountains in the district" />
		<tag k="name" v="Klevan" />
		<tag k="natural" v="hill" />
		<tag k="place" v="locality" />
		<tag k="ssr:stedsnr" v="758784" />
	</node>
	<node lat="63.06933610980994" lon="11.470866668767782" id="-86663">
		<tag k="name" v="Mototoppen" />
		<tag k="natural" v="hill" />
		<tag k="place" v="locality" />
		<tag k="ssr:stedsnr" v="759562" />
	</node>
	<node lat="63.03079722679212" lon="11.723888880417157" id="-86664">
		<tag k="name" v="Stordalen" />
		<tag k="natural" v="valley" />
		<tag k="place" v="locality" />
		<tag k="ssr:stedsnr" v="759575" />
	</node>
	<node lat="63.01957221831625" lon="11.707072225955558" id="-86671">
		<tag k="fixme" v="consider natural=peak for the most distinct mountains in the district" />
		<tag k="name" v="Somnholet" />
		<tag k="natural" v="hill" />
		<tag k="place" v="locality" />
		<tag k="ssr:stedsnr" v="759577" />
	</node>
	<node lat="63.13541388737699" lon="11.559277781874053" id="-86690">
		<tag k="fixme" v="consider natural=peak for the most distinct mountains in the district" />
		<tag k="name" v="Ruten" />
		<tag k="natural" v="hill" />
		<tag k="place" v="locality" />
		<tag k="ssr:stedsnr" v="801238" />
	</node>
	<node lat="62.88475277774513" lon="11.891236105610009" id="-86720">
		<tag k="name" v="Tytinghaugen" />
		<tag k="natural" v="hill" />
		<tag k="place" v="locality" />
		<tag k="ssr:stedsnr" v="819900" />
	</node>
	<node lat="63.13792222323969" lon="11.759783327397" id="-86721">
		<tag k="name" v="Styggbekkdalen" />
		<tag k="natural" v="valley" />
		<tag k="place" v="locality" />
		<tag k="ssr:stedsnr" v="819195" />
	</node>
	<node lat="63.038658329390756" lon="11.660663883412015" id="-86723">
		<tag k="fixme" v="consider natural=peak for the most distinct mountains in the district" />
		<tag k="name" v="Fellmannåsen" />
		<tag k="natural" v="hill" />
		<tag k="place" v="locality" />
		<tag k="ssr:stedsnr" v="819601" />
	</node>
	<node lat="63.04715833086548" lon="11.560397226296491" id="-86728">
		<tag k="fixme" v="consider natural=peak for the most distinct mountains in the district" />
		<tag k="name" v="Midtiåsen" />
		<tag k="natural" v="hill" />
		<tag k="place" v="locality" />
		<tag k="ssr:stedsnr" v="819554" />
	</node>
	<node lat="63.041530555286215" lon="11.569702784890666" id="-86729">
		<tag k="fixme" v="consider natural=peak for the most distinct mountains in the district" />
		<tag k="name" v="Vestbotnåsen" />
		<tag k="natural" v="hill" />
		<tag k="place" v="locality" />
		<tag k="ssr:stedsnr" v="819557" />
	</node>
	<node lat="63.07021389126984" lon="11.452430557173557" id="-86730">
		<tag k="name" v="Pettergruva" />
		<tag k="place" v="locality" />
		<tag k="ssr:stedsnr" v="819565" />
	</node>
	<node lat="63.05333055793836" lon="11.43399721710001" id="-86736">
		<tag k="name" v="Hynnkløfta" />
		<tag k="natural" v="valley" />
		<tag k="place" v="locality" />
		<tag k="ssr:stedsnr" v="819829" />
	</node>
	<node lat="63.07534999819954" lon="11.599949990088977" id="-86741">
		<tag k="name" v="Halendbakken" />
		<tag k="natural" v="slope" />
		<tag k="place" v="locality" />
		<tag k="ssr:stedsnr" v="819855" />
	</node>
	<node lat="63.085119443912326" lon="11.598641675991141" id="-86742">
		<tag k="name" v="Storslåtthøgda" />
		<tag k="natural" v="hill" />
		<tag k="place" v="locality" />
		<tag k="ssr:stedsnr" v="819857" />
	</node>
	<node lat="62.96323055981447" lon="11.535841658615023" id="-86747">
		<tag k="name" v="Hendalen" />
		<tag k="natural" v="valley" />
		<tag k="place" v="locality" />
		<tag k="ssr:stedsnr" v="862228" />
	</node>
	<node lat="63.164616663027736" lon="11.629600007364806" id="-86749">
		<tag k="fixme" v="consider natural=peak for the most distinct mountains in the district" />
		<tag k="name" v="Fongskaftet" />
		<tag k="natural" v="hill" />
		<tag k="place" v="locality" />
		<tag k="ssr:stedsnr" v="862246" />
	</node>
	<node lat="63.079080556662255" lon="11.474941664689553" id="-86750">
		<tag k="name" v="Jogrubba" />
		<tag k="natural" v="valley" />
		<tag k="place" v="locality" />
		<tag k="ssr:stedsnr" v="862330" />
	</node>
	<node lat="63.01831666777365" lon="11.922483339036035" id="-86754">
		<tag k="fixme" v="consider natural=peak for the most distinct mountains in the district" />
		<tag k="name" v="Brokksjøvola" />
		<tag k="name:no" v="Brokksjøvola" />
		<tag k="name:sma" v="Bråehke" />
		<tag k="natural" v="hill" />
		<tag k="place" v="locality" />
		<tag k="ssr:stedsnr" v="862445" />
	</node>
	<node lat="62.96743611326573" lon="12.106675008739742" id="-86763">
		<tag k="name" v="Styggdalen" />
		<tag k="natural" v="valley" />
		<tag k="place" v="locality" />
		<tag k="ssr:stedsnr" v="862985" />
	</node>
	<node lat="63.0942888859244" lon="11.70321389658035" id="-86780">
		<tag k="name" v="Øyan" />
		<tag k="place" v="locality" />
		<tag k="ssr:stedsnr" v="880773" />
	</node>
	<node lat="63.11535833626343" lon="11.612869435717995" id="-86781">
		<tag k="name" v="Øverdalen" />
		<tag k="natural" v="valley" />
		<tag k="place" v="locality" />
		<tag k="ssr:stedsnr" v="880788" />
	</node>
	<node lat="63.144369443542764" lon="11.731394441676901" id="-86783">
		<tag k="fixme" v="consider natural=peak for the most distinct mountains in the district" />
		<tag k="name" v="Kvammen" />
		<tag k="natural" v="hill" />
		<tag k="place" v="locality" />
		<tag k="ssr:stedsnr" v="880877" />
	</node>
	<node lat="63.04249722429874" lon="11.53623055133319" id="-86788">
		<tag k="name" v="Måssådalen" />
		<tag k="natural" v="valley" />
		<tag k="place" v="locality" />
		<tag k="ssr:stedsnr" v="881931" />
	</node>
	<node lat="63.07089444819035" lon="11.39254443753997" id="-86792">
		<tag k="fixme" v="consider natural=peak for the most distinct mountains in the district" />
		<tag k="name" v="Buråsen" />
		<tag k="natural" v="hill" />
		<tag k="place" v="locality" />
		<tag k="ssr:stedsnr" v="881947" />
	</node>
	<node lat="63.091833329776044" lon="11.388950006434259" id="-86793">
		<tag k="name" v="Rødhaugen" />
		<tag k="natural" v="hill" />
		<tag k="place" v="locality" />
		<tag k="ssr:stedsnr" v="941535" />
	</node>
	<node lat="63.07147222499521" lon="11.442788894128306" id="-86797">
		<tag k="fixme" v="consider natural=peak for the most distinct mountains in the district" />
		<tag k="name" v="Kringelåsen" />
		<tag k="natural" v="hill" />
		<tag k="place" v="locality" />
		<tag k="ssr:stedsnr" v="941555" />
	</node>
	<node lat="63.02386111019538" lon="11.716283340497933" id="-86798">
		<tag k="name" v="Langfall-lia" />
		<tag k="natural" v="slope" />
		<tag k="place" v="locality" />
		<tag k="ssr:stedsnr" v="941564" />
	</node>
	<node lat="63.02607222602991" lon="11.683113881100482" id="-86806">
		<tag k="name" v="Fossberget" />
		<tag k="natural" v="hill" />
		<tag k="place" v="locality" />
		<tag k="ssr:stedsnr" v="941604" />
	</node>
	<node lat="63.097375004363144" lon="11.649663890093256" id="-86814">
		<tag k="fixme" v="consider natural=peak for the most distinct mountains in the district" />
		<tag k="name" v="Holmåneset" />
		<tag k="natural" v="hill" />
		<tag k="place" v="locality" />
		<tag k="ssr:stedsnr" v="941755" />
	</node>
	<node lat="63.03445555799415" lon="11.440669443730119" id="-86818">
		<tag k="name" v="Pallen" />
		<tag k="natural" v="hill" />
		<tag k="place" v="locality" />
		<tag k="ssr:stedsnr" v="941862" />
	</node>
	<node lat="63.065472220215874" lon="11.604222230749519" id="-86822">
		<tag k="name" v="Brattbakken" />
		<tag k="natural" v="slope" />
		<tag k="place" v="locality" />
		<tag k="ssr:stedsnr" v="941783" />
	</node>
	<node lat="63.05961666397985" lon="11.505955562710936" id="-86827">
		<tag k="fixme" v="consider natural=peak for the most distinct mountains in the district" />
		<tag k="name" v="Aspegga" />
		<tag k="natural" v="hill" />
		<tag k="place" v="locality" />
		<tag k="ssr:stedsnr" v="941939" />
	</node>
	<node lat="63.07043611259212" lon="11.369686120500779" id="-86830">
		<tag k="name" v="Våttåhaugen" />
		<tag k="natural" v="hill" />
		<tag k="place" v="locality" />
		<tag k="ssr:stedsnr" v="941955" />
	</node>
</osm>
