<?xml version="1.0" encoding="UTF-8"?>
<<<<<<< HEAD
<osm version="0.6" generator="osmapis">
	<node lat="63.04310502694992" lon="11.75069781251862" id="-28415">
		<tag k="alt_name" v="Nevollen, vestre" />
		<tag k="historic" v="shieling" />
		<tag k="name" v="Vestre Nevollen" />
		<tag k="place" v="locality" />
		<tag k="ssr:stedsnr" v="12420" />
	</node>
	<node lat="63.10811389100942" lon="11.717180547166802" id="-28420">
		<tag k="name" v="Storingbriktmyra" />
		<tag k="natural" v="wetland" />
		<tag k="ssr:stedsnr" v="30181" />
	</node>
	<node lat="63.105530551585204" lon="11.663194436603677" id="-28426">
		<tag k="name" v="Ystersetermyran" />
		<tag k="natural" v="wetland" />
		<tag k="ssr:stedsnr" v="30766" />
	</node>
	<node lat="63.08145555509194" lon="11.692974995789427" id="-28428">
		<tag k="name" v="Navvelmyra" />
		<tag k="natural" v="wetland" />
		<tag k="ssr:stedsnr" v="30774" />
	</node>
	<node lat="63.10668333731072" lon="11.654438897922253" id="-28430">
		<tag k="name" v="Rundmyra" />
		<tag k="natural" v="wetland" />
		<tag k="ssr:stedsnr" v="30782" />
	</node>
	<node lat="63.06177222564178" lon="11.662038888724142" id="-28431">
		<tag k="name" v="Storstenen" />
		<tag k="natural" v="stone" />
		<tag k="ssr:stedsnr" v="30787" />
	</node>
	<node lat="63.0025611119597" lon="11.609666663788689" id="-28434">
		<tag k="name" v="Storfloen" />
		<tag k="natural" v="wetland" />
		<tag k="ssr:stedsnr" v="30808" />
	</node>
	<node lat="62.98890000157261" lon="11.716811109075088" id="-28436">
		<tag k="historic" v="shieling" />
		<tag k="name" v="Harvollen" />
		<tag k="place" v="locality" />
		<tag k="ssr:stedsnr" v="31813" />
	</node>
	<node lat="62.889558330257046" lon="11.85312498989915" id="-28438">
		<tag k="name" v="Storøyan" />
		<tag k="natural" v="wetland" />
		<tag k="ssr:stedsnr" v="31920" />
	</node>
	<node lat="63.004622226204695" lon="11.381686107589433" id="-28453">
		<tag k="historic" v="shieling" />
		<tag k="name" v="Hynnøyvollen" />
		<tag k="place" v="locality" />
		<tag k="ssr:stedsnr" v="81434" />
	</node>
	<node lat="63.172688889753275" lon="11.793705560269744" id="-28455">
		<tag k="name" v="Stormyra" />
		<tag k="natural" v="wetland" />
		<tag k="ssr:stedsnr" v="91183" />
	</node>
	<node lat="63.037372221310626" lon="11.50026111893693" id="-28461">
		<tag k="name" v="Restbakkmyra" />
		<tag k="natural" v="wetland" />
		<tag k="ssr:stedsnr" v="91877" />
	</node>
	<node lat="62.96420555277268" lon="11.775205554729974" id="-28463">
		<tag k="historic" v="shieling" />
		<tag k="name" v="Åsvollen" />
		<tag k="place" v="locality" />
		<tag k="ssr:stedsnr" v="91891" />
	</node>
	<node lat="63.06668333157486" lon="11.355091668934904" id="-28477">
		<tag k="historic" v="shieling" />
		<tag k="name" v="Øvre Stugguvollen" />
		<tag k="place" v="locality" />
		<tag k="ssr:stedsnr" v="142412" />
	</node>
	<node lat="63.05560277469114" lon="11.390402786886073" id="-28487">
		<tag k="name" v="Kjølan" />
		<tag k="natural" v="wetland" />
		<tag k="ssr:stedsnr" v="255325" />
	</node>
	<node lat="63.089638892800934" lon="11.750125004933297" id="-28500">
		<tag k="name" v="Hammerslættet" />
		<tag k="place" v="locality" />
		<tag k="ssr:stedsnr" v="151207" />
	</node>
	<node lat="63.03128889162374" lon="11.695908333811827" id="-28502">
		<tag k="name" v="Setermyra" />
		<tag k="natural" v="wetland" />
		<tag k="ssr:stedsnr" v="152610" />
	</node>
	<node lat="63.08980555813373" lon="11.442469446871431" id="-28505">
		<tag k="name" v="Storhogstret" />
		<tag k="place" v="locality" />
		<tag k="ssr:stedsnr" v="152554" />
	</node>
	<node lat="63.04645000031895" lon="11.733341661212227" id="-28506">
		<tag k="name" v="Djupmyra" />
		<tag k="natural" v="wetland" />
		<tag k="ssr:stedsnr" v="152555" />
	</node>
	<node lat="63.03687221932028" lon="11.717377771911861" id="-28507">
		<tag k="name" v="Klemmetfloen" />
		<tag k="natural" v="wetland" />
		<tag k="ssr:stedsnr" v="152601" />
	</node>
	<node lat="63.05894166524864" lon="11.496802786738886" id="-28509">
		<tag k="name" v="Kartfloen" />
		<tag k="natural" v="wetland" />
		<tag k="ssr:stedsnr" v="152961" />
	</node>
	<node lat="63.051377724520584" lon="11.610027489487072" id="-28523">
		<tag k="name" v="Marka" />
		<tag k="place" v="locality" />
		<tag k="ssr:stedsnr" v="202440" />
	</node>
	<node lat="63.05350833313244" lon="11.40690833394175" id="-28524">
		<tag k="name" v="Hyllingvollkjølen" />
		<tag k="natural" v="wetland" />
		<tag k="ssr:stedsnr" v="202443" />
	</node>
	<node lat="63.072650001278596" lon="11.635305554905766" id="-28530">
		<tag k="name" v="Kammyra" />
		<tag k="natural" v="wetland" />
		<tag k="ssr:stedsnr" v="212805" />
	</node>
	<node lat="63.14317777946727" lon="11.718580563687297" id="-28533">
		<tag k="name" v="Stormyra" />
		<tag k="natural" v="wetland" />
		<tag k="ssr:stedsnr" v="212893" />
	</node>
	<node lat="63.086013892195595" lon="11.620700000448249" id="-28545">
		<tag k="name" v="Kringlemyra" />
		<tag k="natural" v="wetland" />
		<tag k="ssr:stedsnr" v="213792" />
	</node>
	<node lat="62.981630558488284" lon="11.684591668693676" id="-28547">
		<tag k="historic" v="shieling" />
		<tag k="name" v="Gammelvollen" />
=======
<osm generator="osmapis" version="0.6">
	<node id="-761855" lat="63.0372749993" lon="11.7057722233">
		<tag k="name" v="Langsundet" />
		<tag k="place" v="locality" />
		<tag k="ssr:stedsnr" v="820799" />
	</node>
	<node id="-760830" lat="63.0625138899" lon="11.6197388879">
		<tag k="name" v="Bekkøyan" />
>>>>>>> e1d4bc35ff8a6074a6f2e91616a996b547c36f15
		<tag k="place" v="locality" />
		<tag k="ssr:stedsnr" v="213981" />
	</node>
<<<<<<< HEAD
	<node lat="63.13693333027887" lon="11.741405564471679" id="-28551">
		<tag k="name" v="Løvvølbjørga" />
		<tag k="place" v="locality" />
		<tag k="ssr:stedsnr" v="455185" />
	</node>
	<node lat="63.051155556115724" lon="11.574608336560251" id="-28552">
		<tag k="name" v="Storfloen" />
		<tag k="natural" v="wetland" />
		<tag k="ssr:stedsnr" v="455531" />
	</node>
	<node lat="63.06634166764484" lon="11.46356944427283" id="-28553">
=======
	<node id="-761852" lat="63.0711861072" lon="11.3604444472">
		<tag k="name" v="Kleva" />
		<tag k="place" v="locality" />
		<tag k="ssr:stedsnr" v="819978" />
	</node>
	<node id="-761338" lat="62.9995916671" lon="11.6990583347">
		<tag k="name" v="Grasmyra" />
		<tag k="natural" v="wetland" />
		<tag k="ssr:stedsnr" v="152629" />
	</node>
	<node id="-761337" lat="63.0535722226" lon="11.6359916682">
		<tag k="name" v="Tinnersbergmyra" />
		<tag k="natural" v="wetland" />
		<tag k="ssr:stedsnr" v="152626" />
	</node>
	<node id="-761847" lat="62.962442143" lon="11.7906288388">
>>>>>>> e1d4bc35ff8a6074a6f2e91616a996b547c36f15
		<tag k="historic" v="shieling" />
		<tag k="name" v="Litlvollen" />
		<tag k="place" v="locality" />
		<tag k="ssr:stedsnr" v="455537" />
	</node>
<<<<<<< HEAD
	<node lat="63.02596389092137" lon="11.71173333848221" id="-28554">
		<tag k="name" v="Storlifloen" />
		<tag k="natural" v="wetland" />
		<tag k="ssr:stedsnr" v="455545" />
	</node>
	<node lat="63.08493889284931" lon="11.462144442022426" id="-28559">
		<tag k="name" v="Slakterplanet" />
=======
	<node id="-761842" lat="63.0565888876" lon="11.4719444424">
		<tag k="name" v="Maryhaugen" />
		<tag k="place" v="locality" />
		<tag k="ssr:stedsnr" v="819538" />
	</node>
	<node id="-761841" lat="63.0899277796" lon="11.4251722195">
		<tag k="name" v="Sjersantfetten" />
>>>>>>> e1d4bc35ff8a6074a6f2e91616a996b547c36f15
		<tag k="place" v="locality" />
		<tag k="ssr:stedsnr" v="455495" />
	</node>
<<<<<<< HEAD
	<node lat="63.05704999736864" lon="11.683700005919432" id="-28562">
		<tag k="name" v="Vindmyra" />
=======
	<node id="-761840" lat="63.0855972178" lon="11.6396111131">
		<tag k="name" v="Litlkjølen" />
>>>>>>> e1d4bc35ff8a6074a6f2e91616a996b547c36f15
		<tag k="natural" v="wetland" />
		<tag k="ssr:stedsnr" v="455635" />
	</node>
<<<<<<< HEAD
	<node lat="63.06857777835825" lon="11.63363334304372" id="-28567">
=======
	<node id="-761256" lat="63.0591388875" lon="11.6930805644">
		<tag k="name" v="Toraldsmyra" />
		<tag k="natural" v="wetland" />
		<tag k="ssr:stedsnr" v="73326" />
	</node>
	<node id="-761326" lat="63.0666833316" lon="11.3550916689">
>>>>>>> e1d4bc35ff8a6074a6f2e91616a996b547c36f15
		<tag k="historic" v="shieling" />
		<tag k="name" v="Hallvardskamvollen" />
		<tag k="place" v="locality" />
		<tag k="ssr:stedsnr" v="455784" />
	</node>
<<<<<<< HEAD
	<node lat="63.067444447881364" lon="11.69476389005066" id="-28570">
		<tag k="name" v="Kattfloen" />
=======
	<node id="-760812" lat="63.0185222202" lon="11.6294638826">
		<tag k="name" v="Kringlåtmyra" />
>>>>>>> e1d4bc35ff8a6074a6f2e91616a996b547c36f15
		<tag k="natural" v="wetland" />
		<tag k="ssr:stedsnr" v="455799" />
	</node>
<<<<<<< HEAD
	<node lat="63.06901666816852" lon="11.532222225296756" id="-28573">
		<tag k="name" v="Litlkjølen" />
		<tag k="natural" v="wetland" />
		<tag k="ssr:stedsnr" v="455857" />
	</node>
	<node lat="63.01316388907597" lon="11.650277778730484" id="-28581">
		<tag k="name" v="Buråsfloen" />
		<tag k="natural" v="wetland" />
		<tag k="ssr:stedsnr" v="255364" />
	</node>
	<node lat="63.11687499631978" lon="11.70790832685746" id="-28587">
		<tag k="name" v="Hallvardsslåtten" />
		<tag k="place" v="locality" />
		<tag k="ssr:stedsnr" v="456748" />
	</node>
	<node lat="63.043755552791076" lon="11.58868333539471" id="-28588">
		<tag k="name" v="Henneset" />
=======
	<node id="-760811" lat="63.0545972229" lon="11.7712722223">
		<tag k="name" v="Brennøyhallen" />
		<tag k="place" v="locality" />
		<tag k="ssr:stedsnr" v="516601" />
	</node>
	<node id="-760809" lat="63.0533305588" lon="11.6396833365">
		<tag k="name" v="Våttån" />
>>>>>>> e1d4bc35ff8a6074a6f2e91616a996b547c36f15
		<tag k="place" v="locality" />
		<tag k="ssr:stedsnr" v="456818" />
	</node>
<<<<<<< HEAD
	<node lat="63.09068333211572" lon="11.448133327588257" id="-28596">
		<tag k="name" v="Litlhogstret" />
=======
	<node id="-760806" lat="63.0812666661" lon="11.4504916584">
		<tag k="name" v="Kjerstibrenna" />
>>>>>>> e1d4bc35ff8a6074a6f2e91616a996b547c36f15
		<tag k="place" v="locality" />
		<tag k="ssr:stedsnr" v="273506" />
	</node>
<<<<<<< HEAD
	<node lat="63.05012777461234" lon="11.691080563473799" id="-28598">
		<tag k="name" v="Nebjørga" />
=======
	<node id="-760805" lat="63.0931499981" lon="11.4178055464">
		<tag k="name" v="Storøya" />
>>>>>>> e1d4bc35ff8a6074a6f2e91616a996b547c36f15
		<tag k="place" v="locality" />
		<tag k="ssr:stedsnr" v="273687" />
	</node>
<<<<<<< HEAD
	<node lat="63.07053055884379" lon="11.681908332950172" id="-28601">
		<tag k="name" v="Skjettenmyra" />
=======
	<node id="-761827" lat="63.0434361144" lon="11.7013944483">
		<tag k="name" v="Vassfloen" />
>>>>>>> e1d4bc35ff8a6074a6f2e91616a996b547c36f15
		<tag k="natural" v="wetland" />
		<tag k="ssr:stedsnr" v="273826" />
	</node>
<<<<<<< HEAD
	<node lat="62.89150833183983" lon="11.855127786710772" id="-28605">
		<tag k="name" v="Småøyan" />
=======
	<node id="-761821" lat="62.9570416657" lon="11.931061112">
		<tag k="name" v="Kjølen" />
>>>>>>> e1d4bc35ff8a6074a6f2e91616a996b547c36f15
		<tag k="natural" v="wetland" />
		<tag k="ssr:stedsnr" v="274882" />
	</node>
<<<<<<< HEAD
	<node lat="63.05844444253469" lon="11.537150003426031" id="-28607">
		<tag k="name" v="Heggøyan" />
		<tag k="place" v="locality" />
		<tag k="ssr:stedsnr" v="274771" />
	</node>
	<node lat="63.01356666861693" lon="11.671325002702797" id="-28614">
		<tag k="name" v="Håmyran" />
=======
	<node id="-761307" lat="62.8933416685" lon="11.8558861179">
		<tag k="name" v="Laksfloen" />
		<tag k="natural" v="wetland" />
		<tag k="ssr:stedsnr" v="92891" />
	</node>
	<node id="-761301" lat="63.0457388878" lon="11.5498222277">
		<tag k="name" v="Bønflåkkåmyra" />
>>>>>>> e1d4bc35ff8a6074a6f2e91616a996b547c36f15
		<tag k="natural" v="wetland" />
		<tag k="ssr:stedsnr" v="315353" />
	</node>
<<<<<<< HEAD
	<node lat="63.07330833077315" lon="11.638002773793522" id="-28618">
		<tag k="historic" v="shieling" />
		<tag k="name" v="Kamvollen" />
		<tag k="place" v="locality" />
		<tag k="ssr:stedsnr" v="316347" />
	</node>
	<node lat="62.911433330571924" lon="11.943050004751099" id="-28620">
		<tag k="historic" v="shieling" />
		<tag k="name" v="Vektarhaugvollen" />
		<tag k="place" v="locality" />
		<tag k="ssr:stedsnr" v="316803" />
	</node>
	<node lat="63.09734166858847" lon="11.377847216689046" id="-28628">
		<tag k="name" v="Stallan" />
		<tag k="place" v="locality" />
		<tag k="ssr:stedsnr" v="334511" />
	</node>
	<node lat="63.03198611094577" lon="11.701286103000351" id="-28629">
		<tag k="name" v="Vassmyra" />
		<tag k="natural" v="wetland" />
		<tag k="ssr:stedsnr" v="334557" />
	</node>
	<node lat="63.03589999895144" lon="11.576177782297082" id="-28630">
		<tag k="name" v="Øvermyrin" />
=======
	<node id="-761299" lat="62.9642055528" lon="11.7752055547">
		<tag k="historic" v="shieling" />
		<tag k="name" v="Åsvollen" />
		<tag k="place" v="locality" />
		<tag k="ssr:stedsnr" v="91891" />
	</node>
	<node id="-761297" lat="63.0373722213" lon="11.5002611189">
		<tag k="name" v="Restbakkmyra" />
>>>>>>> e1d4bc35ff8a6074a6f2e91616a996b547c36f15
		<tag k="natural" v="wetland" />
		<tag k="ssr:stedsnr" v="334853" />
	</node>
<<<<<<< HEAD
	<node lat="63.092144447166916" lon="11.63692222278552" id="-28642">
		<tag k="name" v="Sunda" />
=======
	<node id="-761806" lat="63.0767999992" lon="11.3859194506">
		<tag k="name" v="Trøskmyra" />
>>>>>>> e1d4bc35ff8a6074a6f2e91616a996b547c36f15
		<tag k="natural" v="wetland" />
		<tag k="ssr:stedsnr" v="384448" />
	</node>
<<<<<<< HEAD
	<node lat="63.049277774943015" lon="11.59131666970701" id="-28647">
		<tag k="name" v="Hyttmoen" />
		<tag k="place" v="locality" />
		<tag k="ssr:stedsnr" v="394533" />
	</node>
	<node lat="63.10253333294943" lon="11.383986103994097" id="-28648">
		<tag k="name" v="Skorberguvollen" />
		<tag k="old_name" v="Skørberguvollen" />
		<tag k="place" v="locality" />
		<tag k="ssr:stedsnr" v="394535" />
	</node>
	<node lat="63.01091110709702" lon="11.6996138952213" id="-28649">
		<tag k="name" v="Røsta" />
		<tag k="place" v="locality" />
		<tag k="ssr:stedsnr" v="394582" />
	</node>
	<node lat="63.018197224654685" lon="11.633897223692749" id="-28651">
		<tag k="name" v="Vollan" />
=======
	<node id="-761803" lat="63.0858444481" lon="11.6936888868">
		<tag k="historic" v="shieling" />
		<tag k="name" v="Nyvollen" />
		<tag k="place" v="locality" />
		<tag k="ssr:stedsnr" v="801270" />
	</node>
	<node id="-761798" lat="63.1410222213" lon="11.7836944464">
		<tag k="historic" v="shieling" />
		<tag k="name" v="Krankvollen" />
		<tag k="place" v="locality" />
		<tag k="ssr:stedsnr" v="801388" />
	</node>
	<node id="-761285" lat="63.0669861096" lon="11.4248944503">
		<tag k="name" v="Langmyran" />
		<tag k="natural" v="wetland" />
		<tag k="ssr:stedsnr" v="91572" />
	</node>
	<node id="-761284" lat="63.0434416691" lon="11.5604888802">
		<tag k="name" v="Styggheta" />
>>>>>>> e1d4bc35ff8a6074a6f2e91616a996b547c36f15
		<tag k="place" v="locality" />
		<tag k="ssr:stedsnr" v="394605" />
	</node>
<<<<<<< HEAD
	<node lat="63.0900000005106" lon="11.635630564789688" id="-28654">
		<tag k="name" v="Holmslåtten" />
=======
	<node id="-761283" lat="63.1726888898" lon="11.7937055603">
		<tag k="name" v="Stormyra" />
>>>>>>> e1d4bc35ff8a6074a6f2e91616a996b547c36f15
		<tag k="natural" v="wetland" />
		<tag k="ssr:stedsnr" v="394791" />
	</node>
<<<<<<< HEAD
	<node lat="62.922947222168276" lon="11.903547221533234" id="-28657">
		<tag k="name" v="Fugllekmyra" />
=======
	<node id="-760769" lat="63.0918361121" lon="11.7200250071">
		<tag k="name" v="Litlfinnmyra" />
>>>>>>> e1d4bc35ff8a6074a6f2e91616a996b547c36f15
		<tag k="natural" v="wetland" />
		<tag k="ssr:stedsnr" v="394938" />
	</node>
<<<<<<< HEAD
	<node lat="62.98187500117035" lon="11.719255564710533" id="-28658">
		<tag k="name" v="Ånrøsta" />
=======
	<node id="-761790" lat="62.9264722239" lon="11.7873361153">
		<tag k="historic" v="shieling" />
		<tag k="name" v="Abrahamsvollen" />
>>>>>>> e1d4bc35ff8a6074a6f2e91616a996b547c36f15
		<tag k="place" v="locality" />
		<tag k="ssr:stedsnr" v="394984" />
	</node>
<<<<<<< HEAD
	<node lat="63.12724444851415" lon="11.727152776274359" id="-28662">
		<tag k="name" v="Movollmyra" />
		<tag k="natural" v="wetland" />
		<tag k="ssr:stedsnr" v="394886" />
	</node>
	<node lat="63.0051999964933" lon="11.381977773826033" id="-28672">
		<tag k="name" v="Hynnøyan" />
=======
	<node id="-761789" lat="62.8820805516" lon="11.8252194509">
		<tag k="name" v="Stormyra" />
		<tag k="natural" v="wetland" />
		<tag k="ssr:stedsnr" v="759977" />
	</node>
	<node id="-761788" lat="63.0547833295" lon="11.4891194419">
		<tag k="name" v="Klinglotten" />
		<tag k="place" v="locality" />
		<tag k="ssr:stedsnr" v="759958" />
	</node>
	<node id="-761787" lat="63.0574166627" lon="11.4984222266">
		<tag k="name" v="Storfloen" />
>>>>>>> e1d4bc35ff8a6074a6f2e91616a996b547c36f15
		<tag k="natural" v="wetland" />
		<tag k="ssr:stedsnr" v="437407" />
	</node>
<<<<<<< HEAD
	<node lat="63.064241666215125" lon="11.685811110781927" id="-28676">
		<tag k="name" v="Størmyra" />
		<tag k="natural" v="wetland" />
		<tag k="ssr:stedsnr" v="437352" />
	</node>
	<node lat="63.057625004030676" lon="11.583400002594528" id="-28690">
		<tag k="name" v="Storfloen" />
		<tag k="natural" v="wetland" />
		<tag k="ssr:stedsnr" v="455528" />
	</node>
	<node lat="63.05140277920038" lon="11.64090555881889" id="-28691">
		<tag k="name" v="Våttfloen" />
=======
	<node id="-761786" lat="62.9023083311" lon="11.9047416754">
		<tag k="name" v="Skjeftingmyra" />
		<tag k="natural" v="wetland" />
		<tag k="ssr:stedsnr" v="759895" />
	</node>
	<node id="-761780" lat="63.0349722249" lon="11.6790777732">
		<tag k="name" v="Åsvang" />
		<tag k="place" v="locality" />
		<tag k="ssr:stedsnr" v="759583" />
	</node>
	<node id="-761775" lat="63.0445388931" lon="11.4338027759">
		<tag k="name" v="Hammervollfloen" />
>>>>>>> e1d4bc35ff8a6074a6f2e91616a996b547c36f15
		<tag k="natural" v="wetland" />
		<tag k="ssr:stedsnr" v="455570" />
	</node>
<<<<<<< HEAD
	<node lat="62.95625833495962" lon="11.798688885331334" id="-28696">
		<tag k="name" v="Rødmyra" />
=======
	<node id="-761773" lat="63.0912000024" lon="11.4310416679">
		<tag k="name" v="Setråmyra" />
>>>>>>> e1d4bc35ff8a6074a6f2e91616a996b547c36f15
		<tag k="natural" v="wetland" />
		<tag k="ssr:stedsnr" v="455878" />
	</node>
<<<<<<< HEAD
	<node lat="63.04509166690067" lon="11.594988894612108" id="-28730">
		<tag k="name" v="Neset" />
=======
	<node id="-761772" lat="63.0494111152" lon="11.4178694445">
		<tag k="historic" v="shieling" />
		<tag k="name" v="Digeråsvollen" />
>>>>>>> e1d4bc35ff8a6074a6f2e91616a996b547c36f15
		<tag k="place" v="locality" />
		<tag k="ssr:stedsnr" v="516527" />
	</node>
<<<<<<< HEAD
	<node lat="63.01852222017677" lon="11.629463882580191" id="-28731">
		<tag k="name" v="Kringlåtmyra" />
		<tag k="natural" v="wetland" />
		<tag k="ssr:stedsnr" v="516616" />
	</node>
	<node lat="63.0959805521417" lon="11.640511113389067" id="-28736">
		<tag k="name" v="Grevslåtten" />
=======
	<node id="-761768" lat="63.050938891" lon="11.361758334">
		<tag k="name" v="Gråbergslåtten" />
		<tag k="place" v="locality" />
		<tag k="ssr:stedsnr" v="758848" />
	</node>
	<node id="-761767" lat="63.05632222" lon="11.3853888895">
		<tag k="name" v="Granlundkjølen" />
>>>>>>> e1d4bc35ff8a6074a6f2e91616a996b547c36f15
		<tag k="natural" v="wetland" />
		<tag k="ssr:stedsnr" v="516767" />
	</node>
<<<<<<< HEAD
	<node lat="62.88778610802945" lon="11.860527776723636" id="-28741">
		<tag k="name" v="Tappmyran" />
		<tag k="natural" v="wetland" />
		<tag k="ssr:stedsnr" v="516914" />
	</node>
	<node lat="63.07075832991936" lon="11.570274993916119" id="-28744">
		<tag k="name" v="Bjørkrisslåtten" />
=======
	<node id="-761766" lat="63.0797527753" lon="11.6701805532">
		<tag k="name" v="Høgslåtten" />
		<tag k="place" v="locality" />
		<tag k="ssr:stedsnr" v="758807" />
	</node>
	<node id="-761765" lat="62.9187194411" lon="11.9066638898">
		<tag k="name" v="Storfloen" />
>>>>>>> e1d4bc35ff8a6074a6f2e91616a996b547c36f15
		<tag k="natural" v="wetland" />
		<tag k="ssr:stedsnr" v="516864" />
	</node>
<<<<<<< HEAD
	<node lat="62.961763889738926" lon="11.787161111701966" id="-28747">
		<tag k="historic" v="shieling" />
		<tag k="name" v="Movollen" />
=======
	<node id="-761764" lat="63.0636611128" lon="11.6281999954">
		<tag k="historic" v="shieling" />
		<tag k="name" v="Litlvollen" />
		<tag k="place" v="locality" />
		<tag k="ssr:stedsnr" v="758788" />
	</node>
	<node id="-761760" lat="62.9816388867" lon="11.6303333248">
		<tag k="name" v="Storrya" />
>>>>>>> e1d4bc35ff8a6074a6f2e91616a996b547c36f15
		<tag k="place" v="locality" />
		<tag k="ssr:stedsnr" v="516881" />
	</node>
<<<<<<< HEAD
	<node lat="63.07449166890471" lon="11.644352773847432" id="-28754">
		<tag k="historic" v="shieling" />
		<tag k="name" v="Pettersvollen" />
=======
	<node id="-761759" lat="63.1459777768" lon="11.7646944401">
		<tag k="name" v="Ramnmoan" />
>>>>>>> e1d4bc35ff8a6074a6f2e91616a996b547c36f15
		<tag k="place" v="locality" />
		<tag k="ssr:stedsnr" v="558315" />
	</node>
<<<<<<< HEAD
	<node lat="63.090508332853155" lon="11.676483336962312" id="-28757">
		<tag k="name" v="Kleggmyra" />
		<tag k="natural" v="wetland" />
		<tag k="ssr:stedsnr" v="558296" />
	</node>
	<node lat="63.06931666985618" lon="12.052811115556517" id="-28761">
		<tag k="name" v="Fiskåøyan" />
=======
	<node id="-761246" lat="62.8895583303" lon="11.8531249899">
		<tag k="name" v="Storøyan" />
		<tag k="natural" v="wetland" />
		<tag k="ssr:stedsnr" v="31920" />
	</node>
	<node id="-760733" lat="63.0550361128" lon="11.3646166581">
		<tag k="name" v="Bjørkstangslåtten" />
		<tag k="place" v="locality" />
		<tag k="ssr:stedsnr" v="334823" />
	</node>
	<node id="-761244" lat="63.0652388909" lon="11.5764833371">
		<tag k="name" v="Ruskåsmyra" />
>>>>>>> e1d4bc35ff8a6074a6f2e91616a996b547c36f15
		<tag k="natural" v="wetland" />
		<tag k="ssr:stedsnr" v="558450" />
	</node>
<<<<<<< HEAD
	<node lat="63.06845555698024" lon="11.46589721694871" id="-28777">
		<tag k="name" v="Brattsvøddu" />
=======
	<node id="-761241" lat="62.9889000016" lon="11.7168111091">
		<tag k="historic" v="shieling" />
		<tag k="name" v="Harvollen" />
>>>>>>> e1d4bc35ff8a6074a6f2e91616a996b547c36f15
		<tag k="place" v="locality" />
		<tag k="ssr:stedsnr" v="576561" />
	</node>
<<<<<<< HEAD
	<node lat="63.05330555572323" lon="11.618544453206438" id="-28779">
		<tag k="name" v="Hoegga" />
		<tag k="place" v="locality" />
		<tag k="ssr:stedsnr" v="576600" />
	</node>
	<node lat="63.06086110969143" lon="11.657361104923458" id="-28783">
		<tag k="name" v="Heknosmyran" />
		<tag k="natural" v="wetland" />
		<tag k="ssr:stedsnr" v="576799" />
	</node>
	<node lat="63.18474166257784" lon="11.788411117429943" id="-28787">
		<tag k="name" v="Gorholtet" />
=======
	<node id="-760722" lat="62.9114333306" lon="11.9430500048">
		<tag k="historic" v="shieling" />
		<tag k="name" v="Vektarhaugvollen" />
>>>>>>> e1d4bc35ff8a6074a6f2e91616a996b547c36f15
		<tag k="place" v="locality" />
		<tag k="ssr:stedsnr" v="698152" />
	</node>
<<<<<<< HEAD
	<node lat="63.053502779255886" lon="11.738013890267498" id="-28789">
		<tag k="name" v="Blomtjønnfloen" />
		<tag k="natural" v="wetland" />
		<tag k="ssr:stedsnr" v="698499" />
	</node>
	<node lat="63.05199722575999" lon="11.61567777343013" id="-28790">
		<tag k="name" v="Hoeggmyra" />
=======
	<node id="-760720" lat="63.0592999963" lon="11.6627277766">
		<tag k="alt_name" v="Heknosfloen" />
		<tag k="name" v="Heknåsfloen" />
		<tag k="natural" v="wetland" />
		<tag k="ssr:stedsnr" v="316371" />
	</node>
	<node id="-761231" lat="62.9590027745" lon="11.7869249948">
		<tag k="name" v="Jonasøya" />
		<tag k="place" v="locality" />
		<tag k="ssr:stedsnr" v="30835" />
	</node>
	<node id="-761230" lat="63.002561112" lon="11.6096666638">
		<tag k="name" v="Storfloen" />
>>>>>>> e1d4bc35ff8a6074a6f2e91616a996b547c36f15
		<tag k="natural" v="wetland" />
		<tag k="ssr:stedsnr" v="698543" />
	</node>
<<<<<<< HEAD
	<node lat="63.02907222189924" lon="11.66667499619073" id="-28794">
		<tag k="name" v="Slåttmyra" />
		<tag k="natural" v="wetland" />
		<tag k="ssr:stedsnr" v="698590" />
	</node>
	<node lat="63.091697223577675" lon="11.642355558822631" id="-28799">
		<tag k="name" v="Storkjølen" />
		<tag k="natural" v="wetland" />
		<tag k="ssr:stedsnr" v="698744" />
	</node>
	<node lat="62.96054444102891" lon="11.814180549317678" id="-28806">
		<tag k="name" v="Hamran" />
		<tag k="place" v="locality" />
		<tag k="ssr:stedsnr" v="698878" />
	</node>
	<node lat="63.07453888473295" lon="11.568327780593302" id="-28810">
		<tag k="name" v="Bekkslåttan" />
		<tag k="natural" v="wetland" />
		<tag k="ssr:stedsnr" v="699842" />
	</node>
	<node lat="62.90364444344191" lon="11.909044439166568" id="-28811">
		<tag k="name" v="Langmyra" />
		<tag k="natural" v="wetland" />
		<tag k="ssr:stedsnr" v="699886" />
	</node>
	<node lat="63.05613333740781" lon="11.53643333147883" id="-28813">
		<tag k="name" v="Børhølmoen" />
=======
	<node id="-760715" lat="63.0135666686" lon="11.6713250027">
		<tag k="name" v="Håmyran" />
		<tag k="natural" v="wetland" />
		<tag k="ssr:stedsnr" v="315353" />
	</node>
	<node id="-761225" lat="63.0422027816" lon="11.6608749973">
		<tag k="name" v="Storekra" />
		<tag k="place" v="locality" />
		<tag k="ssr:stedsnr" v="30576" />
	</node>
	<node id="-760982" lat="63.0585805518" lon="11.6867749957">
		<tag k="name" v="Skansen" />
		<tag k="place" v="locality" />
		<tag k="ssr:stedsnr" v="880699" />
	</node>
	<node id="-761218" lat="63.0617722256" lon="11.6620388887">
		<tag k="name" v="Storstenen" />
		<tag k="natural" v="stone" />
		<tag k="ssr:stedsnr" v="30787" />
	</node>
	<node id="-761217" lat="63.1066833373" lon="11.6544388979">
		<tag k="name" v="Rundmyra" />
		<tag k="natural" v="wetland" />
		<tag k="ssr:stedsnr" v="30782" />
	</node>
	<node id="-760704" lat="63.0525805565" lon="11.367766667">
		<tag k="name" v="Storslåtten" />
		<tag k="place" v="locality" />
		<tag k="ssr:stedsnr" v="273865" />
	</node>
	<node id="-761215" lat="63.0814555551" lon="11.6929749958">
		<tag k="name" v="Navvelmyra" />
		<tag k="natural" v="wetland" />
		<tag k="ssr:stedsnr" v="30774" />
	</node>
	<node id="-761726" lat="63.0593000031" lon="11.5489194466">
		<tag k="name" v="Væløyan" />
>>>>>>> e1d4bc35ff8a6074a6f2e91616a996b547c36f15
		<tag k="place" v="locality" />
		<tag k="ssr:stedsnr" v="699941" />
	</node>
<<<<<<< HEAD
	<node lat="63.0707611149876" lon="11.386883337938768" id="-28814">
		<tag k="name" v="Rundmyra" />
		<tag k="natural" v="wetland" />
		<tag k="ssr:stedsnr" v="699957" />
	</node>
	<node lat="62.996924998619946" lon="11.70672500727823" id="-28819">
		<tag k="alt_name" v="Fettvollen" />
		<tag k="name" v="Fættvollen" />
=======
	<node id="-761213" lat="63.1055305516" lon="11.6631944366">
		<tag k="name" v="Ystersetermyran" />
		<tag k="natural" v="wetland" />
		<tag k="ssr:stedsnr" v="30766" />
	</node>
	<node id="-760700" lat="63.0906833321" lon="11.4481333276">
		<tag k="name" v="Litlhogstret" />
		<tag k="place" v="locality" />
		<tag k="ssr:stedsnr" v="273506" />
	</node>
	<node id="-761723" lat="63.0697916665" lon="11.5282888907">
		<tag k="name" v="Vælafeltet" />
>>>>>>> e1d4bc35ff8a6074a6f2e91616a996b547c36f15
		<tag k="place" v="locality" />
		<tag k="ssr:stedsnr" v="619276" />
	</node>
<<<<<<< HEAD
	<node lat="63.02568611454797" lon="11.695149997834807" id="-28831">
		<tag k="historic" v="shieling" />
		<tag k="name" v="Ysesvollen" />
		<tag k="place" v="locality" />
		<tag k="ssr:stedsnr" v="637610" />
	</node>
	<node lat="63.03066944605817" lon="11.646338894359864" id="-28833">
		<tag k="name" v="Langberget" />
=======
	<node id="-761210" lat="63.108113891" lon="11.7171805472">
		<tag k="name" v="Storingbriktmyra" />
		<tag k="natural" v="wetland" />
		<tag k="ssr:stedsnr" v="30181" />
	</node>
	<node id="-760697" lat="63.04102778" lon="11.7827027838">
		<tag k="name" v="Tømmeråsgrubba" />
>>>>>>> e1d4bc35ff8a6074a6f2e91616a996b547c36f15
		<tag k="place" v="locality" />
		<tag k="ssr:stedsnr" v="637639" />
	</node>
<<<<<<< HEAD
	<node lat="63.080997221649476" lon="11.454266672630839" id="-28834">
		<tag k="name" v="Kjerstibrennmyra" />
=======
	<node id="-761720" lat="63.0758361122" lon="11.721480554">
		<tag k="name" v="Stormyra" />
>>>>>>> e1d4bc35ff8a6074a6f2e91616a996b547c36f15
		<tag k="natural" v="wetland" />
		<tag k="ssr:stedsnr" v="637586" />
	</node>
<<<<<<< HEAD
	<node lat="63.06506388556409" lon="11.607988894802245" id="-28864">
		<tag k="name" v="Fabakkjølen" />
=======
	<node id="-761719" lat="63.067597219" lon="11.7232138816">
		<tag k="name" v="Svensklægret" />
>>>>>>> e1d4bc35ff8a6074a6f2e91616a996b547c36f15
		<tag k="natural" v="wetland" />
		<tag k="ssr:stedsnr" v="698763" />
	</node>
<<<<<<< HEAD
	<node lat="63.07558333208642" lon="11.692027784756784" id="-28866">
		<tag k="historic" v="shieling" />
		<tag k="name" v="Nøstervollen" />
		<tag k="place" v="locality" />
		<tag k="ssr:stedsnr" v="698779" />
	</node>
	<node lat="62.97686666756759" lon="11.737147223074142" id="-28868">
		<tag k="name" v="Kjølmyra" />
		<tag k="natural" v="wetland" />
		<tag k="ssr:stedsnr" v="698918" />
	</node>
	<node lat="63.135980553755" lon="11.702052769016603" id="-28870">
		<tag k="name" v="Løvkroken" />
		<tag k="place" v="locality" />
		<tag k="ssr:stedsnr" v="698864" />
	</node>
	<node lat="63.003083332399896" lon="11.905033327854378" id="-28893">
		<tag k="name" v="Ånøya" />
=======
	<node id="-761718" lat="63.0849444473" lon="11.6639750008">
		<tag k="name" v="Stormyra" />
		<tag k="natural" v="wetland" />
		<tag k="ssr:stedsnr" v="637768" />
	</node>
	<node id="-760690" lat="62.956258335" lon="11.7986888853">
		<tag k="name" v="Rødmyra" />
>>>>>>> e1d4bc35ff8a6074a6f2e91616a996b547c36f15
		<tag k="natural" v="wetland" />
		<tag k="ssr:stedsnr" v="749622" />
	</node>
<<<<<<< HEAD
	<node lat="63.07975277532285" lon="11.670180553208906" id="-28896">
		<tag k="name" v="Høgslåtten" />
=======
	<node id="-761712" lat="63.0267194423" lon="11.6536611048">
		<tag k="name" v="Hallvardsegga" />
>>>>>>> e1d4bc35ff8a6074a6f2e91616a996b547c36f15
		<tag k="place" v="locality" />
		<tag k="ssr:stedsnr" v="758807" />
	</node>
<<<<<<< HEAD
	<node lat="63.049411115197344" lon="11.41786944448179" id="-28898">
		<tag k="historic" v="shieling" />
		<tag k="name" v="Digeråsvollen" />
		<tag k="place" v="locality" />
		<tag k="ssr:stedsnr" v="759509" />
	</node>
	<node lat="63.091200002403944" lon="11.431041667878873" id="-28899">
		<tag k="name" v="Setråmyra" />
=======
	<node id="-761711" lat="63.0306694461" lon="11.6463388944">
		<tag k="name" v="Langberget" />
		<tag k="place" v="locality" />
		<tag k="ssr:stedsnr" v="637639" />
	</node>
	<node id="-760685" lat="63.0674444479" lon="11.6947638901">
		<tag k="name" v="Kattfloen" />
>>>>>>> e1d4bc35ff8a6074a6f2e91616a996b547c36f15
		<tag k="natural" v="wetland" />
		<tag k="ssr:stedsnr" v="759511" />
	</node>
<<<<<<< HEAD
	<node lat="62.90230833108961" lon="11.904741675443573" id="-28902">
		<tag k="name" v="Skjeftingmyra" />
=======
	<node id="-761708" lat="63.0809972216" lon="11.4542666726">
		<tag k="name" v="Kjerstibrennmyra" />
>>>>>>> e1d4bc35ff8a6074a6f2e91616a996b547c36f15
		<tag k="natural" v="wetland" />
		<tag k="ssr:stedsnr" v="759895" />
	</node>
<<<<<<< HEAD
	<node lat="63.141022221318984" lon="11.783694446386233" id="-28910">
=======
	<node id="-761707" lat="62.9796944413" lon="11.620430547">
>>>>>>> e1d4bc35ff8a6074a6f2e91616a996b547c36f15
		<tag k="historic" v="shieling" />
		<tag k="name" v="Krankvollen" />
		<tag k="place" v="locality" />
<<<<<<< HEAD
		<tag k="ssr:stedsnr" v="801388" />
	</node>
	<node lat="63.085844448094264" lon="11.69368888676534" id="-28912">
		<tag k="historic" v="shieling" />
		<tag k="name" v="Nyvollen" />
		<tag k="place" v="locality" />
		<tag k="ssr:stedsnr" v="801270" />
	</node>
	<node lat="62.96244214296994" lon="11.790628838768994" id="-28926">
=======
		<tag k="ssr:stedsnr" v="637199" />
	</node>
	<node id="-761706" lat="63.0410500042" lon="11.4418805596">
		<tag k="name" v="Storfloen" />
		<tag k="natural" v="wetland" />
		<tag k="ssr:stedsnr" v="626471" />
	</node>
	<node id="-760675" lat="63.0570499974" lon="11.6837000059">
		<tag k="name" v="Vindmyra" />
		<tag k="natural" v="wetland" />
		<tag k="ssr:stedsnr" v="455635" />
	</node>
	<node id="-761186" lat="63.0431050269" lon="11.7506978125">
		<tag k="alt_name" v="Nevollen, vestre" />
>>>>>>> e1d4bc35ff8a6074a6f2e91616a996b547c36f15
		<tag k="historic" v="shieling" />
		<tag k="name" v="Movollen" />
		<tag k="place" v="locality" />
		<tag k="ssr:stedsnr" v="819889" />
	</node>
<<<<<<< HEAD
	<node lat="63.071186107195075" lon="11.360444447211568" id="-28927">
		<tag k="name" v="Kleva" />
		<tag k="place" v="locality" />
		<tag k="ssr:stedsnr" v="819978" />
	</node>
	<node lat="63.09444788077271" lon="11.695514464553657" id="-28942">
		<tag k="historic" v="shieling" />
		<tag k="name" v="Øyvollen" />
		<tag k="place" v="locality" />
		<tag k="ssr:stedsnr" v="862312" />
	</node>
	<node lat="63.13750277492455" lon="11.727322218735248" id="-28945">
		<tag k="historic" v="shieling" />
		<tag k="name" v="Lauvåvollen" />
		<tag k="place" v="locality" />
		<tag k="ssr:stedsnr" v="862402" />
	</node>
	<node lat="63.11571081280898" lon="11.678857015727905" id="-28946">
		<tag k="historic" v="shieling" />
		<tag k="name" v="Ystersetervollen" />
		<tag k="place" v="locality" />
		<tag k="ssr:stedsnr" v="862300" />
	</node>
	<node lat="63.07053611201214" lon="11.59729999977517" id="-28958">
		<tag k="name" v="Tjønnslåtten" />
=======
	<node id="-761183" lat="63.0525194411" lon="11.7547722244">
		<tag k="name" v="Skorsåøyan" />
		<tag k="natural" v="wetland" />
		<tag k="ssr:stedsnr" v="12412" />
	</node>
	<node id="-760825" lat="63.0959805521" lon="11.6405111134">
		<tag k="name" v="Grevslåtten" />
		<tag k="natural" v="wetland" />
		<tag k="ssr:stedsnr" v="516767" />
	</node>
	<node id="-761180" lat="63.1148916667" lon="11.7329333337">
		<tag k="name" v="Røkjølen" />
		<tag k="natural" v="wetland" />
		<tag k="ssr:stedsnr" v="12386" />
	</node>
	<node id="-760666" lat="63.0259638909" lon="11.7117333385">
		<tag k="name" v="Storlifloen" />
		<tag k="natural" v="wetland" />
		<tag k="ssr:stedsnr" v="455545" />
	</node>
	<node id="-761177" lat="63.0255527758" lon="11.6255611123">
		<tag k="name" v="Langfloen" />
		<tag k="natural" v="wetland" />
		<tag k="ssr:stedsnr" v="12361" />
	</node>
	<node id="-760664" lat="63.0511555561" lon="11.5746083366">
		<tag k="name" v="Storfloen" />
>>>>>>> e1d4bc35ff8a6074a6f2e91616a996b547c36f15
		<tag k="natural" v="wetland" />
		<tag k="ssr:stedsnr" v="931456" />
	</node>
<<<<<<< HEAD
	<node lat="63.04518333415242" lon="11.721930555472452" id="-28967">
		<tag k="historic" v="shieling" />
		<tag k="name" v="Bekkøyvollen" />
		<tag k="place" v="locality" />
		<tag k="ssr:stedsnr" v="880703" />
	</node>
	<node lat="63.03661111264997" lon="11.662236116621761" id="-28972">
		<tag k="name" v="Fellmannmyra" />
=======
	<node id="-760663" lat="63.057625004" lon="11.5834000026">
		<tag k="name" v="Storfloen" />
		<tag k="natural" v="wetland" />
		<tag k="ssr:stedsnr" v="455528" />
	</node>
	<node id="-761685" lat="63.0629250009" lon="11.3677805643">
		<tag k="name" v="Rødkjølen" />
>>>>>>> e1d4bc35ff8a6074a6f2e91616a996b547c36f15
		<tag k="natural" v="wetland" />
		<tag k="ssr:stedsnr" v="880650" />
	</node>
<<<<<<< HEAD
	<node lat="63.07197500311508" lon="11.636944441813576" id="-28975">
		<tag k="historic" v="shieling" />
		<tag k="name" v="Ustgardskamvollen" />
=======
	<node id="-761683" lat="62.9969249986" lon="11.7067250073">
		<tag k="alt_name" v="Fettvollen" />
		<tag k="name" v="Fættvollen" />
>>>>>>> e1d4bc35ff8a6074a6f2e91616a996b547c36f15
		<tag k="place" v="locality" />
		<tag k="ssr:stedsnr" v="880803" />
	</node>
<<<<<<< HEAD
	<node lat="63.074108330646375" lon="11.685033328521794" id="-28977">
		<tag k="name" v="Sømyra" />
		<tag k="natural" v="wetland" />
		<tag k="ssr:stedsnr" v="880819" />
	</node>
	<node lat="63.054452779496884" lon="11.40865556451842" id="-28978">
		<tag k="name" v="Bergstakkstoet" />
=======
	<node id="-760658" lat="63.0849388928" lon="11.462144442">
		<tag k="name" v="Slakterplanet" />
>>>>>>> e1d4bc35ff8a6074a6f2e91616a996b547c36f15
		<tag k="place" v="locality" />
		<tag k="ssr:stedsnr" v="880851" />
	</node>
<<<<<<< HEAD
	<node lat="63.03594166978047" lon="11.588727781364165" id="-28979">
		<tag k="name" v="Henbjørga" />
=======
	<node id="-760657" lat="63.1369333303" lon="11.7414055645">
		<tag k="name" v="Løvvølbjørga" />
>>>>>>> e1d4bc35ff8a6074a6f2e91616a996b547c36f15
		<tag k="place" v="locality" />
		<tag k="ssr:stedsnr" v="880868" />
	</node>
<<<<<<< HEAD
	<node lat="63.0517388860219" lon="11.556594441890786" id="-28980">
		<tag k="name" v="Aunfloen" />
		<tag k="natural" v="wetland" />
		<tag k="ssr:stedsnr" v="880951" />
	</node>
	<node lat="63.025552775813686" lon="11.625561112322501" id="-29011">
		<tag k="name" v="Langfloen" />
=======
	<node id="-761157" lat="63.0892472203" lon="11.4464749979">
		<tag k="name" v="Stormyra" />
>>>>>>> e1d4bc35ff8a6074a6f2e91616a996b547c36f15
		<tag k="natural" v="wetland" />
		<tag k="ssr:stedsnr" v="12361" />
	</node>
<<<<<<< HEAD
	<node lat="63.11489166673404" lon="11.732933333689326" id="-29015">
		<tag k="name" v="Røkjølen" />
=======
	<node id="-760643" lat="63.0555249966" lon="11.7354388902">
		<tag k="name" v="Storfloen" />
>>>>>>> e1d4bc35ff8a6074a6f2e91616a996b547c36f15
		<tag k="natural" v="wetland" />
		<tag k="ssr:stedsnr" v="12386" />
	</node>
<<<<<<< HEAD
	<node lat="63.052519441107144" lon="11.754772224399973" id="-29019">
		<tag k="name" v="Skorsåøyan" />
=======
	<node id="-761665" lat="63.0608611097" lon="11.6573611049">
		<tag k="name" v="Heknosmyran" />
>>>>>>> e1d4bc35ff8a6074a6f2e91616a996b547c36f15
		<tag k="natural" v="wetland" />
		<tag k="ssr:stedsnr" v="12412" />
	</node>
<<<<<<< HEAD
	<node lat="62.95900277452955" lon="11.786924994848626" id="-29042">
		<tag k="name" v="Jonasøya" />
		<tag k="place" v="locality" />
		<tag k="ssr:stedsnr" v="30835" />
	</node>
	<node lat="63.0422027816355" lon="11.660874997333615" id="-29046">
		<tag k="name" v="Storekra" />
=======
	<node id="-761663" lat="63.0871277759" lon="11.6861777873">
		<tag k="historic" v="shieling" />
		<tag k="name" v="Gammelvollen" />
>>>>>>> e1d4bc35ff8a6074a6f2e91616a996b547c36f15
		<tag k="place" v="locality" />
		<tag k="ssr:stedsnr" v="30576" />
	</node>
<<<<<<< HEAD
	<node lat="63.06523889091792" lon="11.57648333705242" id="-29060">
		<tag k="name" v="Ruskåsmyra" />
		<tag k="natural" v="wetland" />
		<tag k="ssr:stedsnr" v="31844" />
	</node>
	<node lat="63.084102780161636" lon="11.525050000445164" id="-29073">
		<tag k="name" v="Vælhølen" />
		<tag k="natural" v="wetland" />
		<tag k="ssr:stedsnr" v="73312" />
	</node>
	<node lat="63.05913888752322" lon="11.693080564441248" id="-29074">
		<tag k="name" v="Toraldsmyra" />
=======
	<node id="-761662" lat="63.0886361118" lon="11.7246111184">
		<tag k="name" v="Litlfinnen" />
		<tag k="place" v="locality" />
		<tag k="ssr:stedsnr" v="576780" />
	</node>
	<node id="-761149" lat="63.0944478808" lon="11.6955144646">
		<tag k="historic" v="shieling" />
		<tag k="name" v="Øyvollen" />
		<tag k="place" v="locality" />
		<tag k="ssr:stedsnr" v="862312" />
	</node>
	<node id="-761148" lat="62.9895333308" lon="11.6990972227">
		<tag k="name" v="Løvøymyran" />
>>>>>>> e1d4bc35ff8a6074a6f2e91616a996b547c36f15
		<tag k="natural" v="wetland" />
		<tag k="ssr:stedsnr" v="73326" />
	</node>
<<<<<<< HEAD
	<node lat="63.04573888782968" lon="11.549822227749573" id="-29091">
		<tag k="name" v="Bønflåkkåmyra" />
=======
	<node id="-761147" lat="62.8802111066" lon="11.8210416687">
		<tag k="name" v="Ingeborgfloen" />
>>>>>>> e1d4bc35ff8a6074a6f2e91616a996b547c36f15
		<tag k="natural" v="wetland" />
		<tag k="ssr:stedsnr" v="91962" />
	</node>
<<<<<<< HEAD
	<node lat="63.066986109551266" lon="11.424894450325317" id="-29092">
		<tag k="name" v="Langmyran" />
=======
	<node id="-760634" lat="63.0533500031" lon="11.6438944513">
		<tag k="name" v="Floan" />
>>>>>>> e1d4bc35ff8a6074a6f2e91616a996b547c36f15
		<tag k="natural" v="wetland" />
		<tag k="ssr:stedsnr" v="91572" />
	</node>
<<<<<<< HEAD
	<node lat="63.04344166908262" lon="11.560488880172569" id="-29097">
		<tag k="name" v="Styggheta" />
=======
	<node id="-760633" lat="63.0522777778" lon="11.65827222">
		<tag k="name" v="Glennom" />
>>>>>>> e1d4bc35ff8a6074a6f2e91616a996b547c36f15
		<tag k="place" v="locality" />
		<tag k="ssr:stedsnr" v="91556" />
	</node>
<<<<<<< HEAD
	<node lat="62.89334166849117" lon="11.855886117902742" id="-29103">
		<tag k="name" v="Laksfloen" />
=======
	<node id="-761144" lat="63.073244445" lon="11.3986333377">
		<tag k="name" v="Brennåmyran" />
>>>>>>> e1d4bc35ff8a6074a6f2e91616a996b547c36f15
		<tag k="natural" v="wetland" />
		<tag k="ssr:stedsnr" v="92891" />
	</node>
	<node lat="63.07736666781357" lon="11.7247583282496" id="-29133">
		<tag k="historic" v="shieling" />
		<tag k="name" v="Høvtjønnvollen" />
		<tag k="place" v="locality" />
		<tag k="ssr:stedsnr" v="151808" />
	</node>
<<<<<<< HEAD
	<node lat="63.04341388632615" lon="11.423616670213542" id="-29139">
		<tag k="name" v="Vassmyra" />
		<tag k="natural" v="wetland" />
		<tag k="ssr:stedsnr" v="152549" />
	</node>
	<node lat="63.05357222257869" lon="11.63599166823342" id="-29140">
		<tag k="name" v="Tinnersbergmyra" />
=======
	<node id="-761654" lat="63.0533055557" lon="11.6185444532">
		<tag k="name" v="Hoegga" />
		<tag k="place" v="locality" />
		<tag k="ssr:stedsnr" v="576600" />
	</node>
	<node id="-760665" lat="63.0663416676" lon="11.4635694443">
		<tag k="historic" v="shieling" />
		<tag k="name" v="Litlvollen" />
		<tag k="place" v="locality" />
		<tag k="ssr:stedsnr" v="455537" />
	</node>
	<node id="-761652" lat="63.02885" lon="11.6927277825">
		<tag k="name" v="Ysesmyra" />
>>>>>>> e1d4bc35ff8a6074a6f2e91616a996b547c36f15
		<tag k="natural" v="wetland" />
		<tag k="ssr:stedsnr" v="152626" />
	</node>
<<<<<<< HEAD
	<node lat="62.999591667092986" lon="11.69905833465065" id="-29141">
		<tag k="name" v="Grasmyra" />
		<tag k="natural" v="wetland" />
		<tag k="ssr:stedsnr" v="152629" />
	</node>
	<node lat="63.09776666321538" lon="11.390233331551753" id="-29142">
		<tag k="name" v="Brunmyra" />
		<tag k="natural" v="wetland" />
		<tag k="ssr:stedsnr" v="152570" />
	</node>
	<node lat="63.044119441233896" lon="11.574561106584405" id="-29143">
		<tag k="name" v="Storflobrøtta" />
=======
	<node id="-761138" lat="63.0617861083" lon="11.4819444422">
		<tag k="name" v="Flåkkåmyra" />
		<tag k="natural" v="wetland" />
		<tag k="ssr:stedsnr" v="941854" />
	</node>
	<node id="-761649" lat="63.068455557" lon="11.4658972169">
		<tag k="name" v="Brattsvøddu" />
>>>>>>> e1d4bc35ff8a6074a6f2e91616a996b547c36f15
		<tag k="place" v="locality" />
		<tag k="ssr:stedsnr" v="152577" />
	</node>
<<<<<<< HEAD
	<node lat="63.101686108997704" lon="11.407927783947137" id="-29145">
		<tag k="name" v="Olvelta" />
		<tag k="place" v="locality" />
		<tag k="ssr:stedsnr" v="152588" />
	</node>
	<node lat="63.080083331178415" lon="11.443516668866272" id="-29147">
		<tag k="name" v="Huitfeldt" />
		<tag k="place" v="locality" />
		<tag k="ssr:stedsnr" v="152597" />
	</node>
	<node lat="62.90831944251454" lon="11.911222213045841" id="-29154">
		<tag k="name" v="Bekkøyan" />
		<tag k="place" v="locality" />
		<tag k="ssr:stedsnr" v="152907" />
	</node>
	<node lat="63.0716027767885" lon="11.564286113908363" id="-29159">
		<tag k="name" v="Bonfloin" />
=======
	<node id="-761133" lat="63.0657055525" lon="11.7129833238">
		<tag k="name" v="Hærtjønnfloen" />
		<tag k="natural" v="wetland" />
		<tag k="ssr:stedsnr" v="941793" />
	</node>
	<node id="-761644" lat="63.0507694449" lon="11.443561116">
		<tag k="name" v="Revmyra" />
		<tag k="natural" v="wetland" />
		<tag k="ssr:stedsnr" v="576537" />
	</node>
	<node id="-761131" lat="63.0882083327" lon="11.6341888808">
		<tag k="name" v="Stormyra" />
		<tag k="natural" v="wetland" />
		<tag k="ssr:stedsnr" v="941779" />
	</node>
	<node id="-761129" lat="63.095047223" lon="11.6838250021">
		<tag k="name" v="Korsmyra" />
>>>>>>> e1d4bc35ff8a6074a6f2e91616a996b547c36f15
		<tag k="natural" v="wetland" />
		<tag k="ssr:stedsnr" v="152867" />
	</node>
<<<<<<< HEAD
	<node lat="63.05796388567598" lon="11.491536117153043" id="-29161">
		<tag k="name" v="Svindalsmyra" />
		<tag k="natural" v="wetland" />
		<tag k="ssr:stedsnr" v="152943" />
	</node>
	<node lat="63.08809166706687" lon="11.40099167240144" id="-29166">
		<tag k="name" v="Stormyra" />
		<tag k="natural" v="wetland" />
		<tag k="ssr:stedsnr" v="194257" />
	</node>
	<node lat="63.028366670061054" lon="11.602008326893502" id="-29195">
		<tag k="name" v="Fallmyran" />
=======
	<node id="-760630" lat="63.0726500013" lon="11.6353055549">
		<tag k="name" v="Kammyra" />
		<tag k="natural" v="wetland" />
		<tag k="ssr:stedsnr" v="212805" />
	</node>
	<node id="-760615" lat="63.0896388928" lon="11.7501250049">
		<tag k="name" v="Hammerslættet" />
		<tag k="place" v="locality" />
		<tag k="ssr:stedsnr" v="151207" />
	</node>
	<node id="-761137" lat="63.0726666659" lon="11.5416222282">
		<tag k="name" v="Trollheta" />
		<tag k="place" v="locality" />
		<tag k="ssr:stedsnr" v="941850" />
	</node>
	<node id="-760612" lat="63.0672194461" lon="11.578302777">
		<tag k="name" v="Olmångmyra" />
>>>>>>> e1d4bc35ff8a6074a6f2e91616a996b547c36f15
		<tag k="natural" v="wetland" />
		<tag k="ssr:stedsnr" v="202410" />
	</node>
<<<<<<< HEAD
	<node lat="63.08459444411203" lon="11.621211110887057" id="-29202">
		<tag k="name" v="Kloppan" />
=======
	<node id="-760611" lat="63.0729611088" lon="11.5859500006">
		<tag k="name" v="Nyslåtten" />
>>>>>>> e1d4bc35ff8a6074a6f2e91616a996b547c36f15
		<tag k="natural" v="wetland" />
		<tag k="ssr:stedsnr" v="212792" />
	</node>
<<<<<<< HEAD
	<node lat="63.06837777488387" lon="11.649630548454757" id="-29203">
		<tag k="historic" v="shieling" />
		<tag k="name" v="Litlkamvollen" />
		<tag k="place" v="locality" />
		<tag k="ssr:stedsnr" v="212800" />
	</node>
	<node lat="63.07639166855393" lon="11.618502776483497" id="-29204">
		<tag k="name" v="Lukjølen" />
		<tag k="natural" v="wetland" />
		<tag k="ssr:stedsnr" v="212812" />
	</node>
	<node lat="63.0686333322969" lon="11.386913890880624" id="-29208">
		<tag k="name" v="Rumpslåtten" />
		<tag k="place" v="locality" />
		<tag k="ssr:stedsnr" v="213961" />
	</node>
	<node lat="63.06599722297596" lon="11.551463890957635" id="-29210">
		<tag k="name" v="Lillekølen" />
=======
	<node id="-761122" lat="63.029713888" lon="11.6728222305">
		<tag k="name" v="Hamran" />
		<tag k="place" v="locality" />
		<tag k="ssr:stedsnr" v="941610" />
	</node>
	<node id="-760795" lat="63.0666694428" lon="11.4291805617">
		<tag k="name" v="Langmyra" />
		<tag k="natural" v="wetland" />
		<tag k="ssr:stedsnr" v="506432" />
	</node>
	<node id="-760606" lat="62.8915083318" lon="11.8551277867">
		<tag k="name" v="Småøyan" />
		<tag k="natural" v="wetland" />
		<tag k="ssr:stedsnr" v="274882" />
	</node>
	<node id="-761117" lat="63.0536583319" lon="11.6306749918">
		<tag k="name" v="Bremyran" />
>>>>>>> e1d4bc35ff8a6074a6f2e91616a996b547c36f15
		<tag k="natural" v="wetland" />
		<tag k="ssr:stedsnr" v="212871" />
	</node>
<<<<<<< HEAD
	<node lat="63.08509444421625" lon="11.431586107034972" id="-29213">
		<tag k="name" v="Seteråplassen" />
		<tag k="place" v="locality" />
		<tag k="ssr:stedsnr" v="213554" />
	</node>
	<node lat="63.04803333767237" lon="11.63615556302414" id="-29216">
		<tag k="name" v="Langmyra" />
=======
	<node id="-761627" lat="63.0693166699" lon="12.0528111156">
		<tag k="name" v="Fiskåøyan" />
>>>>>>> e1d4bc35ff8a6074a6f2e91616a996b547c36f15
		<tag k="natural" v="wetland" />
		<tag k="ssr:stedsnr" v="213633" />
	</node>
<<<<<<< HEAD
	<node lat="63.022988888678285" lon="11.670547217214866" id="-29218">
		<tag k="name" v="Storfloen" />
=======
	<node id="-761113" lat="63.0741444477" lon="11.4574972217">
		<tag k="name" v="Liamyra" />
>>>>>>> e1d4bc35ff8a6074a6f2e91616a996b547c36f15
		<tag k="natural" v="wetland" />
		<tag k="ssr:stedsnr" v="213649" />
	</node>
<<<<<<< HEAD
	<node lat="63.052277777848886" lon="11.658272219998578" id="-29222">
		<tag k="name" v="Glennom" />
=======
	<node id="-761112" lat="63.0937499998" lon="11.3744194488">
		<tag k="name" v="Grovan" />
>>>>>>> e1d4bc35ff8a6074a6f2e91616a996b547c36f15
		<tag k="place" v="locality" />
		<tag k="ssr:stedsnr" v="213617" />
	</node>
<<<<<<< HEAD
	<node lat="63.05335000305232" lon="11.643894451327684" id="-29223">
		<tag k="name" v="Floan" />
		<tag k="natural" v="wetland" />
		<tag k="ssr:stedsnr" v="213622" />
	</node>
	<node lat="62.908691667232254" lon="11.83583889574496" id="-29230">
		<tag k="name" v="Stormyra" />
=======
	<node id="-760598" lat="63.0705305588" lon="11.681908333">
		<tag k="name" v="Skjettenmyra" />
>>>>>>> e1d4bc35ff8a6074a6f2e91616a996b547c36f15
		<tag k="natural" v="wetland" />
		<tag k="ssr:stedsnr" v="213997" />
	</node>
<<<<<<< HEAD
	<node lat="62.9113166621668" lon="11.809866669378923" id="-29232">
		<tag k="name" v="Fresvollmyra" />
=======
	<node id="-760597" lat="63.0795999991" lon="11.712030559">
		<tag k="name" v="Høvtjernfloan" />
>>>>>>> e1d4bc35ff8a6074a6f2e91616a996b547c36f15
		<tag k="natural" v="wetland" />
		<tag k="ssr:stedsnr" v="213842" />
	</node>
<<<<<<< HEAD
	<node lat="63.06031944087939" lon="11.446824998014812" id="-29234">
		<tag k="name" v="Furuodden" />
		<tag k="place" v="locality" />
		<tag k="ssr:stedsnr" v="273520" />
	</node>
	<node lat="63.041027779994955" lon="11.782702783809269" id="-29235">
		<tag k="name" v="Tømmeråsgrubba" />
		<tag k="place" v="locality" />
		<tag k="ssr:stedsnr" v="273608" />
	</node>
	<node lat="63.05313333067897" lon="11.376636115456572" id="-29242">
		<tag k="name" v="Sluppen" />
=======
	<node id="-761618" lat="63.0744916689" lon="11.6443527738">
		<tag k="historic" v="shieling" />
		<tag k="name" v="Pettersvollen" />
		<tag k="place" v="locality" />
		<tag k="ssr:stedsnr" v="558315" />
	</node>
	<node id="-761617" lat="63.0905083329" lon="11.676483337">
		<tag k="name" v="Kleggmyra" />
		<tag k="natural" v="wetland" />
		<tag k="ssr:stedsnr" v="558296" />
	</node>
	<node id="-760592" lat="63.0501277746" lon="11.6910805635">
		<tag k="name" v="Nebjørga" />
>>>>>>> e1d4bc35ff8a6074a6f2e91616a996b547c36f15
		<tag k="place" v="locality" />
		<tag k="ssr:stedsnr" v="273860" />
	</node>
<<<<<<< HEAD
	<node lat="63.05258055645996" lon="11.367766667040161" id="-29243">
		<tag k="name" v="Storslåtten" />
=======
	<node id="-760590" lat="63.0603194409" lon="11.446824998">
		<tag k="name" v="Furuodden" />
>>>>>>> e1d4bc35ff8a6074a6f2e91616a996b547c36f15
		<tag k="place" v="locality" />
		<tag k="ssr:stedsnr" v="273865" />
	</node>
<<<<<<< HEAD
	<node lat="63.0795999991217" lon="11.712030558962319" id="-29245">
		<tag k="name" v="Høvtjernfloan" />
=======
	<node id="-760621" lat="63.0394638919" lon="11.5063055588">
		<tag k="name" v="Bønfloen" />
		<tag k="natural" v="wetland" />
		<tag k="ssr:stedsnr" v="274931" />
	</node>
	<node id="-761098" lat="63.077061112" lon="11.5438250073">
		<tag k="name" v="Stappenkjølen" />
>>>>>>> e1d4bc35ff8a6074a6f2e91616a996b547c36f15
		<tag k="natural" v="wetland" />
		<tag k="ssr:stedsnr" v="273820" />
	</node>
<<<<<<< HEAD
	<node lat="62.96088333478042" lon="11.76473888401317" id="-29250">
		<tag k="name" v="Sjømyra" />
=======
	<node id="-761047" lat="63.0649305565" lon="11.4994138812">
		<tag k="name" v="Kruggen" />
		<tag k="place" v="locality" />
		<tag k="ssr:stedsnr" v="758861" />
	</node>
	<node id="-761607" lat="62.9295444465" lon="11.9230083387">
		<tag k="name" v="Vassmyra" />
>>>>>>> e1d4bc35ff8a6074a6f2e91616a996b547c36f15
		<tag k="natural" v="wetland" />
		<tag k="ssr:stedsnr" v="273920" />
	</node>
<<<<<<< HEAD
	<node lat="63.067219446070396" lon="11.578302776972537" id="-29252">
		<tag k="name" v="Olmångmyra" />
		<tag k="natural" v="wetland" />
		<tag k="ssr:stedsnr" v="274819" />
	</node>
	<node lat="63.07296110879521" lon="11.585950000599386" id="-29253">
		<tag k="name" v="Nyslåtten" />
=======
	<node id="-760705" lat="62.9608833348" lon="11.764738884">
		<tag k="name" v="Sjømyra" />
		<tag k="natural" v="wetland" />
		<tag k="ssr:stedsnr" v="273920" />
	</node>
	<node id="-761088" lat="63.070536112" lon="11.5972999998">
		<tag k="name" v="Tjønnslåtten" />
>>>>>>> e1d4bc35ff8a6074a6f2e91616a996b547c36f15
		<tag k="natural" v="wetland" />
		<tag k="ssr:stedsnr" v="274817" />
	</node>
<<<<<<< HEAD
	<node lat="63.03946389189371" lon="11.506305558831478" id="-29260">
		<tag k="name" v="Bønfloen" />
=======
	<node id="-761045" lat="63.0030833324" lon="11.9050333279">
		<tag k="name" v="Ånøya" />
		<tag k="natural" v="wetland" />
		<tag k="ssr:stedsnr" v="749622" />
	</node>
	<node id="-760703" lat="63.0531333307" lon="11.3766361155">
		<tag k="name" v="Sluppen" />
		<tag k="place" v="locality" />
		<tag k="ssr:stedsnr" v="273860" />
	</node>
	<node id="-761589" lat="63.0051999965" lon="11.3819777738">
		<tag k="name" v="Hynnøyan" />
>>>>>>> e1d4bc35ff8a6074a6f2e91616a996b547c36f15
		<tag k="natural" v="wetland" />
		<tag k="ssr:stedsnr" v="274931" />
	</node>
<<<<<<< HEAD
	<node lat="63.06808055762501" lon="11.412477773619301" id="-29262">
		<tag k="name" v="Bruskottmyra" />
=======
	<node id="-760787" lat="63.0181972247" lon="11.6338972237">
		<tag k="name" v="Vollan" />
		<tag k="place" v="locality" />
		<tag k="ssr:stedsnr" v="394605" />
	</node>
	<node id="-760616" lat="63.0680805576" lon="11.4124777736">
		<tag k="name" v="Bruskottmyra" />
		<tag k="natural" v="wetland" />
		<tag k="ssr:stedsnr" v="274963" />
	</node>
	<node id="-760556" lat="63.0131638891" lon="11.6502777787">
		<tag k="name" v="Buråsfloen" />
>>>>>>> e1d4bc35ff8a6074a6f2e91616a996b547c36f15
		<tag k="natural" v="wetland" />
		<tag k="ssr:stedsnr" v="274963" />
	</node>
<<<<<<< HEAD
	<node lat="63.05929999625917" lon="11.66272777661699" id="-29283">
		<tag k="alt_name" v="Heknosfloen" />
		<tag k="name" v="Heknåsfloen" />
		<tag k="natural" v="wetland" />
		<tag k="ssr:stedsnr" v="316371" />
	</node>
	<node lat="63.041272224813504" lon="11.424947228210028" id="-29296">
		<tag k="name" v="Estenøyan" />
		<tag k="place" v="locality" />
		<tag k="ssr:stedsnr" v="334481" />
	</node>
	<node lat="63.055036112811514" lon="11.364616658127535" id="-29308">
		<tag k="name" v="Bjørkstangslåtten" />
		<tag k="place" v="locality" />
		<tag k="ssr:stedsnr" v="334823" />
	</node>
	<node lat="63.04903055724312" lon="11.502805564038926" id="-29311">
		<tag k="name" v="Vassfloen" />
=======
	<node id="-761577" lat="63.0642416662" lon="11.6858111108">
		<tag k="name" v="Størmyra" />
		<tag k="natural" v="wetland" />
		<tag k="ssr:stedsnr" v="437352" />
	</node>
	<node id="-761574" lat="62.9457499976" lon="11.6553361161">
		<tag k="landuse" v="quarry" />
		<tag k="name" v="Allergodt" />
		<tag k="ssr:stedsnr" v="437212" />
	</node>
	<node id="-760549" lat="63.0556027747" lon="11.3904027869">
		<tag k="name" v="Kjølan" />
		<tag k="natural" v="wetland" />
		<tag k="ssr:stedsnr" v="255325" />
	</node>
	<node id="-761572" lat="63.0523388891" lon="11.517963884">
		<tag k="alt_name" v="Vasklingmarka" />
		<tag k="name" v="Vassklingmarka" />
		<tag k="place" v="locality" />
		<tag k="ssr:stedsnr" v="437333" />
	</node>
	<node id="-761567" lat="63.0608333319" lon="11.5925722262">
		<tag k="name" v="Førkjemyra" />
>>>>>>> e1d4bc35ff8a6074a6f2e91616a996b547c36f15
		<tag k="natural" v="wetland" />
		<tag k="ssr:stedsnr" v="334929" />
	</node>
<<<<<<< HEAD
	<node lat="63.055444440535574" lon="11.547366657939005" id="-29312">
		<tag k="name" v="Heggneset" />
		<tag k="place" v="locality" />
		<tag k="ssr:stedsnr" v="334934" />
	</node>
	<node lat="62.88247777577972" lon="11.832880546618158" id="-29314">
		<tag k="historic" v="shieling" />
		<tag k="name" v="Tjønndalsvollen" />
		<tag k="place" v="locality" />
		<tag k="ssr:stedsnr" v="334969" />
	</node>
	<node lat="62.99309166285779" lon="11.710283335876086" id="-29315">
		<tag k="name" v="Spøneset" />
=======
	<node id="-761565" lat="63.073047218" lon="11.4093527792">
		<tag k="name" v="Kvernbekkmyra" />
		<tag k="natural" v="wetland" />
		<tag k="ssr:stedsnr" v="395964" />
	</node>
	<node id="-760540" lat="63.0841027802" lon="11.5250500004">
		<tag k="name" v="Vælhølen" />
		<tag k="natural" v="wetland" />
		<tag k="ssr:stedsnr" v="73312" />
	</node>
	<node id="-761563" lat="62.9818750012" lon="11.7192555647">
		<tag k="name" v="Ånrøsta" />
>>>>>>> e1d4bc35ff8a6074a6f2e91616a996b547c36f15
		<tag k="place" v="locality" />
		<tag k="ssr:stedsnr" v="334984" />
	</node>
<<<<<<< HEAD
	<node lat="63.09183611210376" lon="11.72002500714751" id="-29330">
		<tag k="name" v="Litlfinnmyra" />
=======
	<node id="-761562" lat="62.9229472222" lon="11.9035472215">
		<tag k="name" v="Fugllekmyra" />
>>>>>>> e1d4bc35ff8a6074a6f2e91616a996b547c36f15
		<tag k="natural" v="wetland" />
		<tag k="ssr:stedsnr" v="376427" />
	</node>
<<<<<<< HEAD
	<node lat="63.05504166921989" lon="11.40376944463843" id="-29349">
		<tag k="name" v="Movollkjølen" />
		<tag k="natural" v="wetland" />
		<tag k="ssr:stedsnr" v="384433" />
	</node>
	<node lat="63.02468055130556" lon="11.692291671304824" id="-29357">
		<tag k="name" v="Ingridmyra" />
=======
	<node id="-761049" lat="63.0831138921" lon="11.531941674">
		<tag k="name" v="Kvassåkjølan" />
		<tag k="natural" v="wetland" />
		<tag k="ssr:stedsnr" v="758865" />
	</node>
	<node id="-761048" lat="63.0618888864" lon="11.4907888943">
		<tag k="name" v="Keinglotten" />
		<tag k="place" v="locality" />
		<tag k="ssr:stedsnr" v="758864" />
	</node>
	<node id="-761559" lat="63.1272444485" lon="11.7271527763">
		<tag k="name" v="Movollmyra" />
>>>>>>> e1d4bc35ff8a6074a6f2e91616a996b547c36f15
		<tag k="natural" v="wetland" />
		<tag k="ssr:stedsnr" v="394563" />
	</node>
<<<<<<< HEAD
	<node lat="63.044527773895666" lon="11.676763886305189" id="-29360">
		<tag k="name" v="Ololsmyra" />
		<tag k="natural" v="wetland" />
		<tag k="ssr:stedsnr" v="394648" />
	</node>
	<node lat="63.0433999967751" lon="11.711475008627659" id="-29363">
		<tag k="name" v="Tjurrubufloen" />
=======
	<node id="-761046" lat="63.0655083378" lon="11.5180999907">
		<tag k="name" v="Eggslåtten" />
		<tag k="place" v="locality" />
		<tag k="ssr:stedsnr" v="758860" />
	</node>
	<node id="-761557" lat="63.0717083358" lon="11.5491333426">
		<tag k="name" v="Bønmyra" />
>>>>>>> e1d4bc35ff8a6074a6f2e91616a996b547c36f15
		<tag k="natural" v="wetland" />
		<tag k="ssr:stedsnr" v="394660" />
	</node>
<<<<<<< HEAD
	<node lat="63.0582777793001" lon="11.36599443796901" id="-29366">
=======
	<node id="-761554" lat="63.0582777793" lon="11.365994438">
>>>>>>> e1d4bc35ff8a6074a6f2e91616a996b547c36f15
		<tag k="name" v="Bergslåtten" />
		<tag k="place" v="locality" />
		<tag k="ssr:stedsnr" v="394857" />
	</node>
<<<<<<< HEAD
	<node lat="63.07170833579342" lon="11.549133342604096" id="-29369">
		<tag k="name" v="Bønmyra" />
		<tag k="natural" v="wetland" />
		<tag k="ssr:stedsnr" v="394873" />
	</node>
	<node lat="63.012327778210675" lon="11.632766668159288" id="-29371">
=======
	<node id="-761552" lat="63.0123277782" lon="11.6327666682">
>>>>>>> e1d4bc35ff8a6074a6f2e91616a996b547c36f15
		<tag k="name" v="Østeraunfloen" />
		<tag k="natural" v="wetland" />
		<tag k="ssr:stedsnr" v="394824" />
	</node>
<<<<<<< HEAD
	<node lat="63.06083333194143" lon="11.592572226182934" id="-29372">
		<tag k="name" v="Førkjemyra" />
		<tag k="natural" v="wetland" />
		<tag k="ssr:stedsnr" v="395860" />
	</node>
	<node lat="63.07304721798299" lon="11.40935277919167" id="-29373">
		<tag k="name" v="Kvernbekkmyra" />
=======
	<node id="-760696" lat="63.1168749963" lon="11.7079083269">
		<tag k="name" v="Hallvardsslåtten" />
		<tag k="place" v="locality" />
		<tag k="ssr:stedsnr" v="456748" />
	</node>
	<node id="-761549" lat="63.0900000005" lon="11.6356305648">
		<tag k="name" v="Holmslåtten" />
>>>>>>> e1d4bc35ff8a6074a6f2e91616a996b547c36f15
		<tag k="natural" v="wetland" />
		<tag k="ssr:stedsnr" v="395964" />
	</node>
<<<<<<< HEAD
	<node lat="62.94574999761213" lon="11.65533611606622" id="-29386">
		<tag k="landuse" v="quarry" />
		<tag k="name" v="Allergodt" />
		<tag k="ssr:stedsnr" v="437212" />
	</node>
	<node lat="63.05233888912497" lon="11.517963884011372" id="-29389">
		<tag k="alt_name" v="Vasklingmarka" />
		<tag k="name" v="Vassklingmarka" />
		<tag k="place" v="locality" />
		<tag k="ssr:stedsnr" v="437333" />
	</node>
	<node lat="62.92954444654882" lon="11.923008338678821" id="-29404">
		<tag k="name" v="Vassmyra" />
		<tag k="natural" v="wetland" />
		<tag k="ssr:stedsnr" v="437986" />
	</node>
	<node lat="63.05552499655477" lon="11.73543889016833" id="-29411">
		<tag k="name" v="Storfloen" />
=======
	<node id="-761545" lat="63.0433999968" lon="11.7114750086">
		<tag k="name" v="Tjurrubufloen" />
		<tag k="natural" v="wetland" />
		<tag k="ssr:stedsnr" v="394660" />
	</node>
	<node id="-760637" lat="63.0480333377" lon="11.636155563">
		<tag k="name" v="Langmyra" />
		<tag k="natural" v="wetland" />
		<tag k="ssr:stedsnr" v="213633" />
	</node>
	<node id="-761542" lat="63.0445277739" lon="11.6767638863">
		<tag k="name" v="Ololsmyra" />
>>>>>>> e1d4bc35ff8a6074a6f2e91616a996b547c36f15
		<tag k="natural" v="wetland" />
		<tag k="ssr:stedsnr" v="445630" />
	</node>
<<<<<<< HEAD
	<node lat="63.137858330129355" lon="11.927383324555443" id="-29421">
		<tag k="name" v="Sankåkjølen" />
=======
	<node id="-761029" lat="63.070761115" lon="11.3868833379">
		<tag k="name" v="Rundmyra" />
>>>>>>> e1d4bc35ff8a6074a6f2e91616a996b547c36f15
		<tag k="natural" v="wetland" />
		<tag k="ssr:stedsnr" v="497391" />
	</node>
<<<<<<< HEAD
	<node lat="63.066669442783365" lon="11.429180561675095" id="-29434">
		<tag k="name" v="Langmyra" />
		<tag k="natural" v="wetland" />
		<tag k="ssr:stedsnr" v="506432" />
	</node>
	<node lat="63.08126666609587" lon="11.45049165840022" id="-29450">
		<tag k="name" v="Kjerstibrenna" />
=======
	<node id="-761540" lat="63.0109111071" lon="11.6996138952">
		<tag k="name" v="Røsta" />
>>>>>>> e1d4bc35ff8a6074a6f2e91616a996b547c36f15
		<tag k="place" v="locality" />
		<tag k="ssr:stedsnr" v="516553" />
	</node>
<<<<<<< HEAD
	<node lat="63.09314999805769" lon="11.417805546378274" id="-29455">
		<tag k="name" v="Storøya" />
		<tag k="place" v="locality" />
		<tag k="ssr:stedsnr" v="516501" />
	</node>
	<node lat="63.05333055879395" lon="11.639683336480385" id="-29458">
		<tag k="name" v="Våttån" />
		<tag k="place" v="locality" />
		<tag k="ssr:stedsnr" v="516577" />
	</node>
	<node lat="63.054597222872474" lon="11.77127222225626" id="-29460">
		<tag k="name" v="Brennøyhallen" />
=======
	<node id="-761027" lat="62.9768666676" lon="11.7371472231">
		<tag k="name" v="Kjølmyra" />
		<tag k="natural" v="wetland" />
		<tag k="ssr:stedsnr" v="698918" />
	</node>
	<node id="-761538" lat="63.0246805513" lon="11.6922916713">
		<tag k="name" v="Ingridmyra" />
		<tag k="natural" v="wetland" />
		<tag k="ssr:stedsnr" v="394563" />
	</node>
	<node id="-761535" lat="63.1025333329" lon="11.383986104">
		<tag k="name" v="Skorberguvollen" />
		<tag k="old_name" v="Skørberguvollen" />
>>>>>>> e1d4bc35ff8a6074a6f2e91616a996b547c36f15
		<tag k="place" v="locality" />
		<tag k="ssr:stedsnr" v="516601" />
	</node>
<<<<<<< HEAD
	<node lat="63.06251388990015" lon="11.619738887863951" id="-29462">
		<tag k="name" v="Bekkøyan" />
=======
	<node id="-761534" lat="63.0492777749" lon="11.5913166697">
		<tag k="name" v="Hyttmoen" />
>>>>>>> e1d4bc35ff8a6074a6f2e91616a996b547c36f15
		<tag k="place" v="locality" />
		<tag k="ssr:stedsnr" v="516779" />
	</node>
<<<<<<< HEAD
	<node lat="62.92056944522265" lon="11.886088892192905" id="-29467">
		<tag k="name" v="Torvmyra" />
		<tag k="natural" v="wetland" />
		<tag k="ssr:stedsnr" v="516823" />
	</node>
	<node lat="63.05114166852353" lon="11.479000000460776" id="-29468">
		<tag k="name" v="Nesset" />
		<tag k="place" v="locality" />
		<tag k="ssr:stedsnr" v="516826" />
	</node>
	<node lat="62.94603055171422" lon="11.813461118634628" id="-29471">
		<tag k="name" v="Storvollbrauten" />
		<tag k="place" v="locality" />
		<tag k="ssr:stedsnr" v="516888" />
	</node>
	<node lat="62.92249444336011" lon="11.785499990760897" id="-29474">
		<tag k="historic" v="shieling" />
		<tag k="name" v="Rønningsvollen" />
		<tag k="place" v="locality" />
		<tag k="ssr:stedsnr" v="516983" />
	</node>
	<node lat="63.02885000002717" lon="11.692727782451824" id="-29500">
		<tag k="name" v="Ysesmyra" />
=======
	<node id="-761531" lat="63.0921444472" lon="11.6369222228">
		<tag k="name" v="Sunda" />
		<tag k="natural" v="wetland" />
		<tag k="ssr:stedsnr" v="384448" />
	</node>
	<node id="-761529" lat="63.0550416692" lon="11.4037694446">
		<tag k="name" v="Movollkjølen" />
		<tag k="natural" v="wetland" />
		<tag k="ssr:stedsnr" v="384433" />
	</node>
	<node id="-761033" lat="63.0257777777" lon="11.6564888936">
		<tag k="name" v="Lomtjønnfloen" />
		<tag k="natural" v="wetland" />
		<tag k="ssr:stedsnr" v="740363" />
	</node>
	<node id="-760862" lat="63.0437555528" lon="11.5886833354">
		<tag k="name" v="Henneset" />
		<tag k="place" v="locality" />
		<tag k="ssr:stedsnr" v="456818" />
	</node>
	<node id="-760947" lat="63.0604638918" lon="11.4049027684">
		<tag k="name" v="Vedslåttbråttet" />
		<tag k="place" v="locality" />
		<tag k="ssr:stedsnr" v="576864" />
	</node>
	<node id="-760626" lat="63.0312888916" lon="11.6959083338">
		<tag k="name" v="Setermyra" />
		<tag k="natural" v="wetland" />
		<tag k="ssr:stedsnr" v="152610" />
	</node>
	<node id="-760913" lat="63.0519972258" lon="11.6156777734">
		<tag k="name" v="Hoeggmyra" />
		<tag k="natural" v="wetland" />
		<tag k="ssr:stedsnr" v="698543" />
	</node>
	<node id="-761003" lat="63.0689638917" lon="11.580688888">
		<tag k="name" v="Hårråslåtten" />
>>>>>>> e1d4bc35ff8a6074a6f2e91616a996b547c36f15
		<tag k="natural" v="wetland" />
		<tag k="ssr:stedsnr" v="576585" />
	</node>
<<<<<<< HEAD
	<node lat="63.03979166787717" lon="11.435741674130856" id="-29501">
		<tag k="name" v="Kolbotnen" />
		<tag k="natural" v="wetland" />
		<tag k="ssr:stedsnr" v="576533" />
	</node>
	<node lat="63.05076944487833" lon="11.44356111603654" id="-29502">
		<tag k="name" v="Revmyra" />
=======
	<node id="-760999" lat="63.051738886" lon="11.5565944419">
		<tag k="name" v="Aunfloen" />
>>>>>>> e1d4bc35ff8a6074a6f2e91616a996b547c36f15
		<tag k="natural" v="wetland" />
		<tag k="ssr:stedsnr" v="576537" />
	</node>
<<<<<<< HEAD
	<node lat="63.0886361117764" lon="11.724611118363025" id="-29507">
		<tag k="name" v="Litlfinnen" />
=======
	<node id="-761510" lat="62.9930916629" lon="11.7102833359">
		<tag k="name" v="Spøneset" />
>>>>>>> e1d4bc35ff8a6074a6f2e91616a996b547c36f15
		<tag k="place" v="locality" />
		<tag k="ssr:stedsnr" v="576780" />
	</node>
<<<<<<< HEAD
	<node lat="63.08712777585344" lon="11.686177787344885" id="-29508">
=======
	<node id="-761509" lat="62.8824777758" lon="11.8328805466">
>>>>>>> e1d4bc35ff8a6074a6f2e91616a996b547c36f15
		<tag k="historic" v="shieling" />
		<tag k="name" v="Gammelvollen" />
		<tag k="place" v="locality" />
		<tag k="ssr:stedsnr" v="576788" />
	</node>
<<<<<<< HEAD
	<node lat="63.060463891773395" lon="11.40490276836278" id="-29510">
		<tag k="name" v="Vedslåttbråttet" />
=======
	<node id="-761507" lat="63.0554444405" lon="11.5473666579">
		<tag k="name" v="Heggneset" />
>>>>>>> e1d4bc35ff8a6074a6f2e91616a996b547c36f15
		<tag k="place" v="locality" />
		<tag k="ssr:stedsnr" v="576864" />
	</node>
<<<<<<< HEAD
	<node lat="63.066038888379175" lon="11.545927772091979" id="-29512">
		<tag k="name" v="Rødmyra" />
		<tag k="natural" v="wetland" />
		<tag k="ssr:stedsnr" v="576878" />
	</node>
	<node lat="62.91231388653019" lon="11.901169438434282" id="-29516">
		<tag k="historic" v="shieling" />
		<tag k="name" v="Kjørubuvollen" />
=======
	<node id="-760994" lat="63.0359416698" lon="11.5887277814">
		<tag k="name" v="Henbjørga" />
		<tag k="place" v="locality" />
		<tag k="ssr:stedsnr" v="880868" />
	</node>
	<node id="-760993" lat="63.0544527795" lon="11.4086555645">
		<tag k="name" v="Bergstakkstoet" />
>>>>>>> e1d4bc35ff8a6074a6f2e91616a996b547c36f15
		<tag k="place" v="locality" />
		<tag k="ssr:stedsnr" v="576926" />
	</node>
<<<<<<< HEAD
	<node lat="63.13428055192228" lon="11.724422215691494" id="-29518">
		<tag k="name" v="Kjerringvadslåtten" />
		<tag k="place" v="locality" />
		<tag k="ssr:stedsnr" v="576892" />
	</node>
	<node lat="63.06292500091429" lon="11.367780564302905" id="-29540">
		<tag k="name" v="Rødkjølen" />
=======
	<node id="-760992" lat="63.0741083306" lon="11.6850333285">
		<tag k="name" v="Sømyra" />
>>>>>>> e1d4bc35ff8a6074a6f2e91616a996b547c36f15
		<tag k="natural" v="wetland" />
		<tag k="ssr:stedsnr" v="619349" />
	</node>
<<<<<<< HEAD
	<node lat="63.041050004240645" lon="11.441880559583877" id="-29548">
		<tag k="name" v="Storfloen" />
		<tag k="natural" v="wetland" />
		<tag k="ssr:stedsnr" v="626471" />
	</node>
	<node lat="62.979694441310755" lon="11.620430547010267" id="-29552">
=======
	<node id="-760944" lat="63.0397916679" lon="11.4357416741">
		<tag k="name" v="Kolbotnen" />
		<tag k="natural" v="wetland" />
		<tag k="ssr:stedsnr" v="576533" />
	</node>
	<node id="-760990" lat="63.0719750031" lon="11.6369444418">
>>>>>>> e1d4bc35ff8a6074a6f2e91616a996b547c36f15
		<tag k="historic" v="shieling" />
		<tag k="name" v="Utpågjardsvollen" />
		<tag k="place" v="locality" />
<<<<<<< HEAD
		<tag k="ssr:stedsnr" v="637199" />
	</node>
	<node lat="63.0593000031113" lon="11.548919446638745" id="-29553">
		<tag k="name" v="Væløyan" />
=======
		<tag k="ssr:stedsnr" v="880803" />
	</node>
	<node id="-761500" lat="63.035899999" lon="11.5761777823">
		<tag k="name" v="Øvermyrin" />
		<tag k="natural" v="wetland" />
		<tag k="ssr:stedsnr" v="334853" />
	</node>
	<node id="-760687" lat="63.0690166682" lon="11.5322222253">
		<tag k="name" v="Litlkjølen" />
		<tag k="natural" v="wetland" />
		<tag k="ssr:stedsnr" v="455857" />
	</node>
	<node id="-760984" lat="63.0451833342" lon="11.7219305555">
		<tag k="historic" v="shieling" />
		<tag k="name" v="Bekkøyvollen" />
>>>>>>> e1d4bc35ff8a6074a6f2e91616a996b547c36f15
		<tag k="place" v="locality" />
		<tag k="ssr:stedsnr" v="637948" />
	</node>
<<<<<<< HEAD
	<node lat="63.02671944228904" lon="11.653661104811134" id="-29559">
		<tag k="name" v="Hallvardsegga" />
		<tag k="place" v="locality" />
		<tag k="ssr:stedsnr" v="637646" />
	</node>
	<node lat="63.06759721896741" lon="11.723213881554539" id="-29561">
		<tag k="name" v="Svensklægret" />
=======
	<node id="-761494" lat="63.0319861109" lon="11.701286103">
		<tag k="name" v="Vassmyra" />
		<tag k="natural" v="wetland" />
		<tag k="ssr:stedsnr" v="334557" />
	</node>
	<node id="-760980" lat="63.0276888911" lon="11.653455556">
		<tag k="name" v="Toskkjølen" />
>>>>>>> e1d4bc35ff8a6074a6f2e91616a996b547c36f15
		<tag k="natural" v="wetland" />
		<tag k="ssr:stedsnr" v="637783" />
	</node>
<<<<<<< HEAD
	<node lat="63.07583611224347" lon="11.72148055403395" id="-29562">
		<tag k="name" v="Stormyra" />
		<tag k="natural" v="wetland" />
		<tag k="ssr:stedsnr" v="637784" />
	</node>
	<node lat="63.06979166645069" lon="11.528288890698306" id="-29565">
		<tag k="name" v="Vælafeltet" />
=======
	<node id="-760978" lat="63.0366111126" lon="11.6622361166">
		<tag k="name" v="Fellmannmyra" />
		<tag k="natural" v="wetland" />
		<tag k="ssr:stedsnr" v="880650" />
	</node>
	<node id="-761488" lat="63.0412722248" lon="11.4249472282">
		<tag k="name" v="Estenøyan" />
		<tag k="place" v="locality" />
		<tag k="ssr:stedsnr" v="334481" />
	</node>
	<node id="-761486" lat="63.0973416686" lon="11.3778472167">
		<tag k="name" v="Stallan" />
>>>>>>> e1d4bc35ff8a6074a6f2e91616a996b547c36f15
		<tag k="place" v="locality" />
		<tag k="ssr:stedsnr" v="637849" />
	</node>
<<<<<<< HEAD
	<node lat="63.08494444729213" lon="11.663975000790222" id="-29570">
		<tag k="name" v="Stormyra" />
=======
	<node id="-760973" lat="63.0693722198" lon="11.4620444353">
		<tag k="name" v="Furugardsmyra" />
>>>>>>> e1d4bc35ff8a6074a6f2e91616a996b547c36f15
		<tag k="natural" v="wetland" />
		<tag k="ssr:stedsnr" v="637768" />
	</node>
<<<<<<< HEAD
	<node lat="63.02577777772229" lon="11.65648889355705" id="-29585">
		<tag k="name" v="Lomtjønnfloen" />
		<tag k="natural" v="wetland" />
		<tag k="ssr:stedsnr" v="740363" />
	</node>
	<node lat="63.14597777684898" lon="11.764694440109716" id="-29594">
		<tag k="name" v="Ramnmoan" />
=======
	<node id="-760971" lat="63.0562166653" lon="11.6006611152">
		<tag k="name" v="Auneaker" />
>>>>>>> e1d4bc35ff8a6074a6f2e91616a996b547c36f15
		<tag k="place" v="locality" />
		<tag k="ssr:stedsnr" v="758226" />
	</node>
	<node lat="62.98163888671162" lon="11.630333324756618" id="-29595">
		<tag k="name" v="Storrya" />
		<tag k="place" v="locality" />
		<tag k="ssr:stedsnr" v="758227" />
	</node>
<<<<<<< HEAD
	<node lat="63.06366111279647" lon="11.628199995441072" id="-29598">
=======
	<node id="-760744" lat="63.1378583301" lon="11.9273833246">
		<tag k="name" v="Sankåkjølen" />
		<tag k="natural" v="wetland" />
		<tag k="ssr:stedsnr" v="497391" />
	</node>
	<node id="-760967" lat="63.0256861145" lon="11.6951499978">
>>>>>>> e1d4bc35ff8a6074a6f2e91616a996b547c36f15
		<tag k="historic" v="shieling" />
		<tag k="name" v="Litlvollen" />
		<tag k="place" v="locality" />
		<tag k="ssr:stedsnr" v="758788" />
	</node>
<<<<<<< HEAD
	<node lat="63.050938891012834" lon="11.361758334040436" id="-29599">
		<tag k="name" v="Gråbergslåtten" />
		<tag k="place" v="locality" />
		<tag k="ssr:stedsnr" v="758848" />
	</node>
	<node lat="63.065508337780116" lon="11.51809999073885" id="-29601">
		<tag k="name" v="Eggslåtten" />
		<tag k="place" v="locality" />
		<tag k="ssr:stedsnr" v="758860" />
	</node>
	<node lat="63.064930556533405" lon="11.499413881172707" id="-29602">
		<tag k="name" v="Kruggen" />
=======
	<node id="-761506" lat="63.0490305572" lon="11.502805564">
		<tag k="name" v="Vassfloen" />
		<tag k="natural" v="wetland" />
		<tag k="ssr:stedsnr" v="334929" />
	</node>
	<node id="-761903" lat="63.0462688343" lon="11.6770314739">
		<tag k="name" v="Tydal naturpark" />
		<tag k="place" v="locality" />
		<tag k="ssr:stedsnr" v="1076854" />
	</node>
	<node id="-760682" lat="63.0685777784" lon="11.633633343">
		<tag k="historic" v="shieling" />
		<tag k="name" v="Hallvardskamvollen" />
		<tag k="place" v="locality" />
		<tag k="ssr:stedsnr" v="455784" />
	</node>
	<node id="-760952" lat="62.9123138865" lon="11.9011694384">
		<tag k="historic" v="shieling" />
		<tag k="name" v="Kjørubuvollen" />
>>>>>>> e1d4bc35ff8a6074a6f2e91616a996b547c36f15
		<tag k="place" v="locality" />
		<tag k="ssr:stedsnr" v="758861" />
	</node>
<<<<<<< HEAD
	<node lat="63.06188888637993" lon="11.490788894341673" id="-29603">
		<tag k="name" v="Keinglotten" />
=======
	<node id="-760951" lat="63.1342805519" lon="11.7244222157">
		<tag k="name" v="Kjerringvadslåtten" />
>>>>>>> e1d4bc35ff8a6074a6f2e91616a996b547c36f15
		<tag k="place" v="locality" />
		<tag k="ssr:stedsnr" v="758864" />
	</node>
<<<<<<< HEAD
	<node lat="63.08311389212496" lon="11.531941674033652" id="-29604">
		<tag k="name" v="Kvassåkjølan" />
=======
	<node id="-760949" lat="63.0660388884" lon="11.5459277721">
		<tag k="name" v="Rødmyra" />
>>>>>>> e1d4bc35ff8a6074a6f2e91616a996b547c36f15
		<tag k="natural" v="wetland" />
		<tag k="ssr:stedsnr" v="758865" />
	</node>
<<<<<<< HEAD
	<node lat="63.05632222001237" lon="11.385388889543657" id="-29605">
		<tag k="name" v="Granlundkjølen" />
		<tag k="natural" v="wetland" />
		<tag k="ssr:stedsnr" v="758840" />
	</node>
	<node lat="62.918719441117034" lon="11.906663889750753" id="-29610">
		<tag k="name" v="Storfloen" />
		<tag k="natural" v="wetland" />
		<tag k="ssr:stedsnr" v="758940" />
	</node>
	<node lat="63.0445388931443" lon="11.433802775942505" id="-29615">
		<tag k="name" v="Hammervollfloen" />
=======
	<node id="-761278" lat="63.0046222262" lon="11.3816861076">
		<tag k="historic" v="shieling" />
		<tag k="name" v="Hynnøyvollen" />
		<tag k="place" v="locality" />
		<tag k="ssr:stedsnr" v="81434" />
	</node>
	<node id="-761457" lat="62.9086916672" lon="11.8358388957">
		<tag k="name" v="Stormyra" />
>>>>>>> e1d4bc35ff8a6074a6f2e91616a996b547c36f15
		<tag k="natural" v="wetland" />
		<tag k="ssr:stedsnr" v="759535" />
	</node>
<<<<<<< HEAD
	<node lat="63.03497222494678" lon="11.679077773159193" id="-29621">
		<tag k="name" v="Åsvang" />
=======
	<node id="-761456" lat="62.9816305585" lon="11.6845916687">
		<tag k="historic" v="shieling" />
		<tag k="name" v="Gammelvollen" />
>>>>>>> e1d4bc35ff8a6074a6f2e91616a996b547c36f15
		<tag k="place" v="locality" />
		<tag k="ssr:stedsnr" v="759583" />
	</node>
<<<<<<< HEAD
	<node lat="63.05741666272543" lon="11.498422226609367" id="-29625">
		<tag k="name" v="Storfloen" />
		<tag k="natural" v="wetland" />
		<tag k="ssr:stedsnr" v="759939" />
	</node>
	<node lat="63.0547833294634" lon="11.489119441920657" id="-29626">
		<tag k="name" v="Klinglotten" />
=======
	<node id="-761454" lat="63.0686333323" lon="11.3869138909">
		<tag k="name" v="Rumpslåtten" />
>>>>>>> e1d4bc35ff8a6074a6f2e91616a996b547c36f15
		<tag k="place" v="locality" />
		<tag k="ssr:stedsnr" v="759958" />
	</node>
<<<<<<< HEAD
	<node lat="62.882080551562645" lon="11.825219450861391" id="-29627">
		<tag k="name" v="Stormyra" />
=======
	<node id="-761451" lat="63.0860138922" lon="11.6207000004">
		<tag k="name" v="Kringlemyra" />
>>>>>>> e1d4bc35ff8a6074a6f2e91616a996b547c36f15
		<tag k="natural" v="wetland" />
		<tag k="ssr:stedsnr" v="759977" />
	</node>
<<<<<<< HEAD
	<node lat="62.92647222390894" lon="11.787336115306372" id="-29628">
		<tag k="historic" v="shieling" />
		<tag k="name" v="Abrahamsvollen" />
=======
	<node id="-760936" lat="63.0561333374" lon="11.5364333315">
		<tag k="name" v="Børhølmoen" />
>>>>>>> e1d4bc35ff8a6074a6f2e91616a996b547c36f15
		<tag k="place" v="locality" />
		<tag k="ssr:stedsnr" v="759985" />
	</node>
<<<<<<< HEAD
	<node lat="63.076799999191785" lon="11.385919450643074" id="-29633">
		<tag k="name" v="Trøskmyra" />
=======
	<node id="-761447" lat="62.9113166622" lon="11.8098666694">
		<tag k="name" v="Fresvollmyra" />
>>>>>>> e1d4bc35ff8a6074a6f2e91616a996b547c36f15
		<tag k="natural" v="wetland" />
		<tag k="ssr:stedsnr" v="801295" />
	</node>
<<<<<<< HEAD
	<node lat="62.95704166568747" lon="11.931061111980096" id="-29647">
		<tag k="name" v="Kjølen" />
=======
	<node id="-760934" lat="62.9036444434" lon="11.9090444392">
		<tag k="name" v="Langmyra" />
>>>>>>> e1d4bc35ff8a6074a6f2e91616a996b547c36f15
		<tag k="natural" v="wetland" />
		<tag k="ssr:stedsnr" v="801978" />
	</node>
<<<<<<< HEAD
	<node lat="63.04343611438878" lon="11.70139444831512" id="-29658">
		<tag k="name" v="Vassfloen" />
=======
	<node id="-760932" lat="63.0745388847" lon="11.5683277806">
		<tag k="name" v="Bekkslåttan" />
>>>>>>> e1d4bc35ff8a6074a6f2e91616a996b547c36f15
		<tag k="natural" v="wetland" />
		<tag k="ssr:stedsnr" v="809463" />
	</node>
<<<<<<< HEAD
	<node lat="63.08559721783734" lon="11.639611113050611" id="-29670">
		<tag k="name" v="Litlkjølen" />
		<tag k="natural" v="wetland" />
		<tag k="ssr:stedsnr" v="819796" />
	</node>
	<node lat="63.08992777957815" lon="11.425172219539576" id="-29671">
		<tag k="name" v="Sjersantfetten" />
=======
	<node id="-760929" lat="62.960544441" lon="11.8141805493">
		<tag k="name" v="Hamran" />
>>>>>>> e1d4bc35ff8a6074a6f2e91616a996b547c36f15
		<tag k="place" v="locality" />
		<tag k="ssr:stedsnr" v="819534" />
	</node>
<<<<<<< HEAD
	<node lat="63.05658888756044" lon="11.471944442405222" id="-29672">
		<tag k="name" v="Maryhaugen" />
=======
	<node id="-760848" lat="62.887786108" lon="11.8605277767">
		<tag k="name" v="Tappmyran" />
		<tag k="natural" v="wetland" />
		<tag k="ssr:stedsnr" v="516914" />
	</node>
	<node id="-760923" lat="63.0755833321" lon="11.6920277848">
		<tag k="historic" v="shieling" />
		<tag k="name" v="Nøstervollen" />
>>>>>>> e1d4bc35ff8a6074a6f2e91616a996b547c36f15
		<tag k="place" v="locality" />
		<tag k="ssr:stedsnr" v="819538" />
	</node>
<<<<<<< HEAD
	<node lat="63.037274999259346" lon="11.70577222326298" id="-29683">
		<tag k="name" v="Langsundet" />
		<tag k="place" v="locality" />
		<tag k="ssr:stedsnr" v="820799" />
	</node>
	<node lat="63.077061112025014" lon="11.543825007304441" id="-29688">
		<tag k="name" v="Stappenkjølen" />
=======
	<node id="-760921" lat="63.0650638856" lon="11.6079888948">
		<tag k="name" v="Fabakkjølen" />
>>>>>>> e1d4bc35ff8a6074a6f2e91616a996b547c36f15
		<tag k="natural" v="wetland" />
		<tag k="ssr:stedsnr" v="819866" />
	</node>
<<<<<<< HEAD
	<node lat="63.08924722033825" lon="11.446474997931714" id="-29714">
		<tag k="name" v="Stormyra" />
=======
	<node id="-761430" lat="63.0229888887" lon="11.6705472172">
		<tag k="name" v="Storfloen" />
>>>>>>> e1d4bc35ff8a6074a6f2e91616a996b547c36f15
		<tag k="natural" v="wetland" />
		<tag k="ssr:stedsnr" v="880525" />
	</node>
<<<<<<< HEAD
	<node lat="63.056216665282925" lon="11.600661115197628" id="-29717">
		<tag k="name" v="Auneaker" />
		<tag k="place" v="locality" />
		<tag k="ssr:stedsnr" v="880567" />
	</node>
	<node lat="63.069372219824146" lon="11.462044435343383" id="-29719">
		<tag k="name" v="Furugardsmyra" />
=======
	<node id="-761429" lat="63.1431777795" lon="11.7185805637">
		<tag k="name" v="Stormyra" />
>>>>>>> e1d4bc35ff8a6074a6f2e91616a996b547c36f15
		<tag k="natural" v="wetland" />
		<tag k="ssr:stedsnr" v="880577" />
	</node>
<<<<<<< HEAD
	<node lat="63.02768889109185" lon="11.653455556036908" id="-29720">
		<tag k="name" v="Toskkjølen" />
=======
	<node id="-761428" lat="63.065997223" lon="11.551463891">
		<tag k="name" v="Lillekølen" />
>>>>>>> e1d4bc35ff8a6074a6f2e91616a996b547c36f15
		<tag k="natural" v="wetland" />
		<tag k="ssr:stedsnr" v="880659" />
	</node>
<<<<<<< HEAD
	<node lat="63.05858055180248" lon="11.686774995665818" id="-29722">
		<tag k="name" v="Skansen" />
		<tag k="place" v="locality" />
		<tag k="ssr:stedsnr" v="880699" />
	</node>
	<node lat="63.068963891674755" lon="11.58068888799148" id="-29731">
		<tag k="name" v="Hårråslåtten" />
=======
	<node id="-760915" lat="63.0916972236" lon="11.6423555588">
		<tag k="name" v="Storkjølen" />
>>>>>>> e1d4bc35ff8a6074a6f2e91616a996b547c36f15
		<tag k="natural" v="wetland" />
		<tag k="ssr:stedsnr" v="881831" />
	</node>
<<<<<<< HEAD
	<node lat="63.09374999980232" lon="11.374419448813292" id="-29736">
		<tag k="name" v="Grovan" />
=======
	<node id="-761426" lat="63.0683777749" lon="11.6496305485">
		<tag k="historic" v="shieling" />
		<tag k="name" v="Litlkamvollen" />
>>>>>>> e1d4bc35ff8a6074a6f2e91616a996b547c36f15
		<tag k="place" v="locality" />
		<tag k="ssr:stedsnr" v="941536" />
	</node>
<<<<<<< HEAD
	<node lat="63.07414444771217" lon="11.45749722165973" id="-29737">
		<tag k="name" v="Liamyra" />
=======
	<node id="-761425" lat="63.0763916686" lon="11.6185027765">
		<tag k="name" v="Lukjølen" />
>>>>>>> e1d4bc35ff8a6074a6f2e91616a996b547c36f15
		<tag k="natural" v="wetland" />
		<tag k="ssr:stedsnr" v="941545" />
	</node>
<<<<<<< HEAD
	<node lat="63.05365833187511" lon="11.630674991823609" id="-29745">
		<tag k="name" v="Bremyran" />
=======
	<node id="-761424" lat="63.0845944441" lon="11.6212111109">
		<tag k="name" v="Kloppan" />
>>>>>>> e1d4bc35ff8a6074a6f2e91616a996b547c36f15
		<tag k="natural" v="wetland" />
		<tag k="ssr:stedsnr" v="941583" />
	</node>
<<<<<<< HEAD
	<node lat="63.02971388797616" lon="11.67282223045336" id="-29750">
		<tag k="name" v="Hamran" />
		<tag k="place" v="locality" />
		<tag k="ssr:stedsnr" v="941610" />
	</node>
	<node lat="63.09504722295357" lon="11.683825002061068" id="-29755">
		<tag k="name" v="Korsmyra" />
=======
	<node id="-760910" lat="63.0290722219" lon="11.6666749962">
		<tag k="name" v="Slåttmyra" />
>>>>>>> e1d4bc35ff8a6074a6f2e91616a996b547c36f15
		<tag k="natural" v="wetland" />
		<tag k="ssr:stedsnr" v="941749" />
	</node>
<<<<<<< HEAD
	<node lat="63.08820833274006" lon="11.634188880758934" id="-29757">
		<tag k="name" v="Stormyra" />
=======
	<node id="-761475" lat="63.0733083308" lon="11.6380027738">
		<tag k="historic" v="shieling" />
		<tag k="name" v="Kamvollen" />
		<tag k="place" v="locality" />
		<tag k="ssr:stedsnr" v="316347" />
	</node>
	<node id="-760904" lat="63.0535027793" lon="11.7380138903">
		<tag k="name" v="Blomtjønnfloen" />
>>>>>>> e1d4bc35ff8a6074a6f2e91616a996b547c36f15
		<tag k="natural" v="wetland" />
		<tag k="ssr:stedsnr" v="941779" />
	</node>
<<<<<<< HEAD
	<node lat="63.0726666658957" lon="11.541622228175841" id="-29758">
		<tag k="name" v="Trollheta" />
=======
	<node id="-760903" lat="63.1847416626" lon="11.7884111174">
		<tag k="name" v="Gorholtet" />
>>>>>>> e1d4bc35ff8a6074a6f2e91616a996b547c36f15
		<tag k="place" v="locality" />
		<tag k="ssr:stedsnr" v="941850" />
	</node>
	<node lat="63.06178610826641" lon="11.48194444218813" id="-29759">
		<tag k="name" v="Flåkkåmyra" />
		<tag k="natural" v="wetland" />
		<tag k="ssr:stedsnr" v="941854" />
	</node>
	<node lat="62.98953333083033" lon="11.699097222709108" id="-29763">
		<tag k="name" v="Løvøymyran" />
		<tag k="natural" v="wetland" />
		<tag k="ssr:stedsnr" v="941982" />
	</node>
	<node lat="63.06570555246423" lon="11.712983323791494" id="-29765">
		<tag k="name" v="Hærtjønnfloen" />
		<tag k="natural" v="wetland" />
		<tag k="ssr:stedsnr" v="941793" />
	</node>
	<node lat="63.073244445025246" lon="11.398633337714529" id="-29771">
		<tag k="name" v="Brennåmyran" />
		<tag k="natural" v="wetland" />
		<tag k="ssr:stedsnr" v="941951" />
	</node>
	<node lat="62.880211106628146" lon="11.821041668657358" id="-29774">
		<tag k="name" v="Ingeborgfloen" />
		<tag k="natural" v="wetland" />
		<tag k="ssr:stedsnr" v="941973" />
	</node>
	<node lat="63.04626883426159" lon="11.677031473935138" id="-29796">
		<tag k="name" v="Tydal naturpark" />
		<tag k="place" v="locality" />
		<tag k="ssr:stedsnr" v="1076854" />
	</node>
	<node id="-761412" lat="63.0535083331" lon="11.4069083339">
		<tag k="name" v="Hyllingvollkjølen" />
		<tag k="natural" v="wetland" />
		<tag k="ssr:stedsnr" v="202443" />
	</node>
	<node id="-761411" lat="63.0513777245" lon="11.6100274895">
		<tag k="name" v="Marka" />
		<tag k="place" v="locality" />
		<tag k="ssr:stedsnr" v="202440" />
	</node>
	<node id="-761409" lat="63.0283666701" lon="11.6020083269">
		<tag k="name" v="Fallmyran" />
		<tag k="natural" v="wetland" />
		<tag k="ssr:stedsnr" v="202410" />
	</node>
	<node id="-760890" lat="63.0450916669" lon="11.5949888946">
		<tag k="name" v="Neset" />
		<tag k="place" v="locality" />
		<tag k="ssr:stedsnr" v="516527" />
	</node>
	<node id="-760707" lat="63.0584444425" lon="11.5371500034">
		<tag k="name" v="Heggøyan" />
		<tag k="place" v="locality" />
		<tag k="ssr:stedsnr" v="274771" />
	</node>
	<node id="-761391" lat="63.0880916671" lon="11.4009916724">
		<tag k="name" v="Stormyra" />
		<tag k="natural" v="wetland" />
		<tag k="ssr:stedsnr" v="194257" />
	</node>
	<node id="-760668" lat="63.0514027792" lon="11.6409055588">
		<tag k="name" v="Våttfloen" />
		<tag k="natural" v="wetland" />
		<tag k="ssr:stedsnr" v="455570" />
	</node>
	<node id="-761862" lat="63.1157108128" lon="11.6788570157">
		<tag k="historic" v="shieling" />
		<tag k="name" v="Ystersetervollen" />
		<tag k="place" v="locality" />
		<tag k="ssr:stedsnr" v="862300" />
	</node>
	<node id="-761375" lat="63.0589416652" lon="11.4968027867">
		<tag k="name" v="Kartfloen" />
		<tag k="natural" v="wetland" />
		<tag k="ssr:stedsnr" v="152961" />
	</node>
	<node id="-761374" lat="63.0579638857" lon="11.4915361172">
		<tag k="name" v="Svindalsmyra" />
		<tag k="natural" v="wetland" />
		<tag k="ssr:stedsnr" v="152943" />
	</node>
	<node id="-761372" lat="62.9083194425" lon="11.911222213">
		<tag k="name" v="Bekkøyan" />
		<tag k="place" v="locality" />
		<tag k="ssr:stedsnr" v="152907" />
	</node>
	<node id="-761370" lat="63.0716027768" lon="11.5642861139">
		<tag k="name" v="Bonfloin" />
		<tag k="natural" v="wetland" />
		<tag k="ssr:stedsnr" v="152867" />
	</node>
	<node id="-761367" lat="63.0368722193" lon="11.7173777719">
		<tag k="name" v="Klemmetfloen" />
		<tag k="natural" v="wetland" />
		<tag k="ssr:stedsnr" v="152601" />
	</node>
	<node id="-761366" lat="63.0800833312" lon="11.4435166689">
		<tag k="name" v="Huitfeldt" />
		<tag k="place" v="locality" />
		<tag k="ssr:stedsnr" v="152597" />
	</node>
	<node id="-761433" lat="63.0850944442" lon="11.431586107">
		<tag k="name" v="Seteråplassen" />
		<tag k="place" v="locality" />
		<tag k="ssr:stedsnr" v="213554" />
	</node>
	<node id="-761364" lat="63.101686109" lon="11.4079277839">
		<tag k="name" v="Olvelta" />
		<tag k="place" v="locality" />
		<tag k="ssr:stedsnr" v="152588" />
	</node>
	<node id="-760851" lat="62.9224944434" lon="11.7854999908">
		<tag k="historic" v="shieling" />
		<tag k="name" v="Rønningsvollen" />
		<tag k="place" v="locality" />
		<tag k="ssr:stedsnr" v="516983" />
	</node>
	<node id="-761362" lat="63.0441194412" lon="11.5745611066">
		<tag k="name" v="Storflobrøtta" />
		<tag k="place" v="locality" />
		<tag k="ssr:stedsnr" v="152577" />
	</node>
	<node id="-761361" lat="63.0977666632" lon="11.3902333316">
		<tag k="name" v="Brunmyra" />
		<tag k="natural" v="wetland" />
		<tag k="ssr:stedsnr" v="152570" />
	</node>
	<node id="-761360" lat="63.0464500003" lon="11.7333416612">
		<tag k="name" v="Djupmyra" />
		<tag k="natural" v="wetland" />
		<tag k="ssr:stedsnr" v="152555" />
	</node>
	<node id="-761359" lat="63.0898055581" lon="11.4424694469">
		<tag k="name" v="Storhogstret" />
		<tag k="place" v="locality" />
		<tag k="ssr:stedsnr" v="152554" />
	</node>
	<node id="-761358" lat="63.0434138863" lon="11.4236166702">
		<tag k="name" v="Vassmyra" />
		<tag k="natural" v="wetland" />
		<tag k="ssr:stedsnr" v="152549" />
	</node>
	<node id="-760845" lat="62.9460305517" lon="11.8134611186">
		<tag k="name" v="Storvollbrauten" />
		<tag k="place" v="locality" />
		<tag k="ssr:stedsnr" v="516888" />
	</node>
	<node id="-761868" lat="63.1375027749" lon="11.7273222187">
		<tag k="historic" v="shieling" />
		<tag k="name" v="Lauvåvollen" />
		<tag k="place" v="locality" />
		<tag k="ssr:stedsnr" v="862402" />
	</node>
	<node id="-760843" lat="62.9617638897" lon="11.7871611117">
		<tag k="historic" v="shieling" />
		<tag k="name" v="Movollen" />
		<tag k="place" v="locality" />
		<tag k="ssr:stedsnr" v="516881" />
	</node>
	<node id="-760840" lat="63.0707583299" lon="11.5702749939">
		<tag k="name" v="Bjørkrisslåtten" />
		<tag k="natural" v="wetland" />
		<tag k="ssr:stedsnr" v="516864" />
	</node>
	<node id="-761351" lat="63.0773666678" lon="11.7247583282">
		<tag k="historic" v="shieling" />
		<tag k="name" v="Høvtjønnvollen" />
		<tag k="place" v="locality" />
		<tag k="ssr:stedsnr" v="151808" />
	</node>
	<node id="-760838" lat="63.0511416685" lon="11.4790000005">
		<tag k="name" v="Nesset" />
		<tag k="place" v="locality" />
		<tag k="ssr:stedsnr" v="516826" />
	</node>
	<node id="-760837" lat="62.9205694452" lon="11.8860888922">
		<tag k="name" v="Torvmyra" />
		<tag k="natural" v="wetland" />
		<tag k="ssr:stedsnr" v="516823" />
	</node>
	<node id="-760918" lat="63.1359805538" lon="11.702052769">
		<tag k="name" v="Løvkroken" />
		<tag k="place" v="locality" />
		<tag k="ssr:stedsnr" v="698864" />
	</node>
</osm>
