<?xml version="1.0" encoding="UTF-8"?>
<osm generator="osmapis" version="0.6">
	<node id="-743166" lat="63.0317805572" lon="11.3261194366">
		<tag k="name" v="Tverråbekken" />
		<tag k="ssr:stedsnr" v="870427" />
		<tag k="waterway" v="stream" />
	</node>
	<node id="-743161" lat="62.9623500036" lon="11.8074416758">
		<tag k="name" v="Raudmyrbekken" />
		<tag k="ssr:stedsnr" v="862978" />
		<tag k="waterway" v="stream" />
	</node>
	<node id="-743160" lat="62.8063777751" lon="11.9178444439">
		<tag k="name" v="Knugltjønna" />
		<tag k="natural" v="water" />
		<tag k="ssr:stedsnr" v="862829" />
	</node>
	<node id="-743159" lat="62.8671027807" lon="11.799930559">
		<tag k="name" v="Mustjønna" />
		<tag k="natural" v="water" />
		<tag k="ssr:stedsnr" v="862800" />
	</node>
	<node id="-743158" lat="62.891825002" lon="11.8015583255">
		<tag k="name" v="Litlvoltjønnan" />
		<tag k="natural" v="water" />
		<tag k="ssr:stedsnr" v="862778" />
	</node>
	<node id="-743157" lat="62.9132545116" lon="11.8442444942">
		<tag k="name" v="Møssmørvika" />
		<tag k="natural" v="bay" />
		<tag k="ssr:stedsnr" v="862761" />
	</node>
	<node id="-743155" lat="63.013305559" lon="12.0375805521">
		<tag k="name" v="Pikhaugbekken" />
		<tag k="ssr:stedsnr" v="862444" />
		<tag k="waterway" v="stream" />
	</node>
	<node id="-743154" lat="63.047138886" lon="12.0481749959">
		<tag k="name" v="Røbekken" />
		<tag k="ssr:stedsnr" v="862441" />
		<tag k="waterway" v="stream" />
	</node>
	<node id="-743150" lat="63.173472219" lon="11.9660416656">
		<tag k="name" v="Sandtjønna" />
		<tag k="natural" v="water" />
		<tag k="ssr:stedsnr" v="862397" />
	</node>
	<node id="-743148" lat="63.0333055542" lon="11.3359916655">
		<tag k="name" v="Styggbekken" />
		<tag k="ssr:stedsnr" v="862361" />
		<tag k="waterway" v="stream" />
	</node>
	<node id="-743144" lat="63.134986115" lon="11.7288916617">
		<tag k="alt_name" v="Lødøja" />
		<tag k="name" v="Lødølja" />
		<tag k="ssr:stedsnr" v="862276" />
		<tag k="waterway" v="river" />
	</node>
	<node id="-743142" lat="62.9652638906" lon="11.7064750032">
		<tag k="name" v="Grønsjøtjønnan" />
		<tag k="natural" v="water" />
		<tag k="ssr:stedsnr" v="862230" />
	</node>
	<node id="-743137" lat="62.9438638929" lon="11.7812527726">
		<tag k="name" v="Korsbekken" />
		<tag k="ssr:stedsnr" v="820879" />
		<tag k="waterway" v="stream" />
	</node>
	<node id="-743136" lat="63.1090722225" lon="11.7019388961">
		<tag k="name" v="Merkesbekken" />
		<tag k="ssr:stedsnr" v="820741" />
		<tag k="waterway" v="stream" />
	</node>
	<node id="-743126" lat="63.0534555522" lon="11.4587749973">
		<tag k="name" v="Litløya" />
		<tag k="place" v="island" />
		<tag k="ssr:stedsnr" v="819547" />
	</node>
	<node id="-743112" lat="62.9297444487" lon="12.0055555558">
		<tag k="name" v="Stenlaupbekken" />
		<tag k="ssr:stedsnr" v="809718" />
		<tag k="waterway" v="stream" />
	</node>
	<node id="-743108" lat="63.0163000028" lon="11.3499861165">
		<tag k="name" v="Styggbekktjønnan" />
		<tag k="natural" v="water" />
		<tag k="ssr:stedsnr" v="809435" />
	</node>
	<node id="-743106" lat="62.9323194457" lon="11.9167833428">
		<tag k="name" v="Gjeta" />
		<tag k="ssr:stedsnr" v="801993" />
		<tag k="waterway" v="river" />
	</node>
	<node id="-743105" lat="62.9190027754" lon="11.9214833243">
		<tag k="name" v="Rotåtjønna" />
		<tag k="natural" v="water" />
		<tag k="ssr:stedsnr" v="801990" />
	</node>
	<node id="-743102" lat="62.9982138854" lon="11.7943166738">
		<tag k="name" v="Vessingsjøen" />
		<tag k="natural" v="water" />
		<tag k="ssr:stedsnr" v="801962" />
		<tag k="water" v="lake" />
	</node>
	<node id="-743101" lat="62.9841333303" lon="12.080899997">
		<tag k="name" v="Storbekken" />
		<tag k="ssr:stedsnr" v="801955" />
		<tag k="waterway" v="stream" />
	</node>
	<node id="-743099" lat="62.9360583311" lon="11.6956583256">
		<tag k="name" v="Grøna" />
		<tag k="ssr:stedsnr" v="801633" />
		<tag k="waterway" v="river" />
	</node>
	<node id="-743097" lat="63.1506527748" lon="11.7000027845">
		<tag k="name" v="Lauva" />
		<tag k="ssr:stedsnr" v="801483" />
		<tag k="waterway" v="river" />
	</node>
	<node id="-743094" lat="63.0485777812" lon="11.4091499943">
		<tag k="alt_name" v="Fjerdingsbekken" />
		<tag k="name" v="Fjordungsbekken" />
		<tag k="ssr:stedsnr" v="801332" />
		<tag k="waterway" v="stream" />
	</node>
	<node id="-743087" lat="63.0960444412" lon="11.3786999935">
		<tag k="name" v="Skorbergbekken" />
		<tag k="ssr:stedsnr" v="801273" />
		<tag k="waterway" v="stream" />
	</node>
	<node id="-743085" lat="63.1098583376" lon="12.0668444451">
		<tag k="name" v="Nørdre Remslibekken" />
		<tag k="ssr:stedsnr" v="801402" />
		<tag k="waterway" v="stream" />
	</node>
	<node id="-743084" lat="63.1317777795" lon="11.9298861107">
		<tag k="name" v="Litlsanka" />
		<tag k="ssr:stedsnr" v="801396" />
		<tag k="waterway" v="stream" />
	</node>
	<node id="-743083" lat="63.1078055586" lon="11.9199138856">
		<tag k="name" v="Langodden" />
		<tag k="natural" v="cape" />
		<tag k="ssr:stedsnr" v="801393" />
	</node>
	<node id="-743074" lat="62.9478138854" lon="11.8267861072">
		<tag k="name" v="Storvollbekken" />
		<tag k="ssr:stedsnr" v="759993" />
		<tag k="waterway" v="stream" />
	</node>
	<node id="-743065" lat="63.0213500038" lon="11.6138694353">
		<tag k="name" v="Orlandersbekken" />
		<tag k="ssr:stedsnr" v="759630" />
		<tag k="waterway" v="stream" />
	</node>
	<node id="-743064" lat="63.0315083329" lon="11.6727611055">
		<tag k="name" v="Kvernfossen" />
		<tag k="natural" v="waterfall" />
		<tag k="ssr:stedsnr" v="759621" />
	</node>
	<node id="-743059" lat="63.0686277805" lon="11.5903722236">
		<tag k="name" v="Blisterbekken" />
		<tag k="ssr:stedsnr" v="759833" />
		<tag k="waterway" v="stream" />
	</node>
	<node id="-743057" lat="63.0528972232" lon="11.4662722248">
		<tag k="name" v="Granøya" />
		<tag k="place" v="island" />
		<tag k="ssr:stedsnr" v="759525" />
	</node>
	<node id="-743054" lat="62.8851805553" lon="11.8351249943">
		<tag k="name" v="Tjønndalsvollbekken" />
		<tag k="ssr:stedsnr" v="758966" />
		<tag k="waterway" v="stream" />
	</node>
	<node id="-743053" lat="63.0564833341" lon="11.5413861078">
		<tag k="name" v="Børhølen" />
		<tag k="place" v="locality" />
		<tag k="ssr:stedsnr" v="758953" />
	</node>
	<node id="-743052" lat="63.0547750016" lon="11.3175944542">
		<tag k="name" v="Pålbekken" />
		<tag k="ssr:stedsnr" v="758850" />
		<tag k="waterway" v="stream" />
	</node>
	<node id="-743045" lat="63.0816055537" lon="11.6801944532">
		<tag k="name" v="Sandodden" />
		<tag k="natural" v="cape" />
		<tag k="ssr:stedsnr" v="758771" />
	</node>
	<node id="-743044" lat="63.0938083307" lon="11.6878222244">
		<tag k="name" v="Ongeltjønnbekken" />
		<tag k="ssr:stedsnr" v="758760" />
		<tag k="waterway" v="stream" />
	</node>
	<node id="-743041" lat="63.0975666694" lon="11.4179499967">
		<tag k="name" v="Heggsetsjøen" />
		<tag k="natural" v="water" />
		<tag k="ssr:stedsnr" v="756112" />
		<tag k="water" v="lake" />
	</node>
	<node id="-743040" lat="63.1093888844" lon="11.3875666746">
		<tag k="name" v="Heggsetdammen" />
		<tag k="ssr:stedsnr" v="749137" />
		<tag k="waterway" v="dam" />
	</node>
	<node id="-743038" lat="63.0499083297" lon="11.3379055564">
		<tag k="name" v="Nedre Støttjønna" />
		<tag k="natural" v="water" />
		<tag k="ssr:stedsnr" v="748443" />
	</node>
	<node id="-743035" lat="62.9262083351" lon="11.7932583293">
		<tag k="name" v="Langtjønna" />
		<tag k="natural" v="water" />
		<tag k="ssr:stedsnr" v="740985" />
	</node>
	<node id="-743034" lat="62.9653583293" lon="11.7983388797">
		<tag k="name" v="Bønsbekken" />
		<tag k="ssr:stedsnr" v="740979" />
		<tag k="waterway" v="stream" />
	</node>
	<node id="-743032" lat="62.8304750022" lon="11.8607527819">
		<tag k="name" v="Langen" />
		<tag k="natural" v="water" />
		<tag k="ssr:stedsnr" v="740787" />
		<tag k="water" v="lake" />
	</node>
	<node id="-743031" lat="62.8293777802" lon="11.9253888858">
		<tag k="name" v="Djupholet" />
		<tag k="place" v="locality" />
		<tag k="ssr:stedsnr" v="740785" />
	</node>
	<node id="-743028" lat="63.0969750022" lon="11.7385833393">
		<tag k="name" v="Røa" />
		<tag k="ssr:stedsnr" v="740598" />
		<tag k="waterway" v="river" />
	</node>
	<node id="-743027" lat="63.0851749958" lon="11.95773056">
		<tag k="name" v="Myrodden" />
		<tag k="natural" v="cape" />
		<tag k="ssr:stedsnr" v="740397" />
	</node>
	<node id="-743026" lat="63.0921833376" lon="11.7843694378">
		<tag k="name" v="Storbekken" />
		<tag k="ssr:stedsnr" v="740394" />
		<tag k="waterway" v="stream" />
	</node>
	<node id="-743024" lat="63.0673805575" lon="11.3411583363">
		<tag k="name" v="Støtbekken" />
		<tag k="ssr:stedsnr" v="740299" />
		<tag k="waterway" v="stream" />
	</node>
	<node id="-743022" lat="63.0786694404" lon="11.5331361115">
		<tag k="name" v="Djupbekken" />
		<tag k="ssr:stedsnr" v="740287" />
		<tag k="waterway" v="stream" />
	</node>
	<node id="-743021" lat="63.1008527816" lon="11.6727555479">
		<tag k="name" v="Ongeltjønna" />
		<tag k="natural" v="water" />
		<tag k="ssr:stedsnr" v="740276" />
	</node>
	<node id="-743018" lat="63.0835055534" lon="11.4004388851">
		<tag k="name" v="Gulltjønna" />
		<tag k="natural" v="water" />
		<tag k="ssr:stedsnr" v="740273" />
	</node>
	<node id="-743014" lat="62.946211115" lon="11.6769694352">
		<tag k="name" v="Allergodtbekken" />
		<tag k="ssr:stedsnr" v="740202" />
		<tag k="waterway" v="stream" />
	</node>
	<node id="-743008" lat="62.9611888845" lon="11.7968777782">
		<tag k="name" v="Kirkvollsbekken" />
		<tag k="ssr:stedsnr" v="637873" />
		<tag k="waterway" v="stream" />
	</node>
	<node id="-742986" lat="62.9589027751" lon="11.7764138943">
		<tag k="name" v="Mosjøen" />
		<tag k="natural" v="water" />
		<tag k="ssr:stedsnr" v="619988" />
		<tag k="water" v="lake" />
	</node>
	<node id="-742985" lat="62.9092694423" lon="11.8564638909">
		<tag k="name" v="Svartodden" />
		<tag k="natural" v="cape" />
		<tag k="ssr:stedsnr" v="619799" />
	</node>
	<node id="-742983" lat="62.9181805527" lon="11.8754000039">
		<tag k="name" v="Gjetneset" />
		<tag k="natural" v="cape" />
		<tag k="ssr:stedsnr" v="619791" />
	</node>
	<node id="-742980" lat="63.0355499981" lon="11.7261888984">
		<tag k="name" v="Bekkøybekken" />
		<tag k="ssr:stedsnr" v="619500" />
		<tag k="waterway" v="stream" />
	</node>
	<node id="-742979" lat="63.0810000022" lon="11.9929111083">
		<tag k="name" v="Mulen" />
		<tag k="natural" v="cape" />
		<tag k="ssr:stedsnr" v="619475" />
	</node>
	<node id="-742978" lat="63.0845694431" lon="11.9454250085">
		<tag k="name" v="Kløftbekkvika" />
		<tag k="natural" v="bay" />
		<tag k="ssr:stedsnr" v="619474" />
	</node>
	<node id="-742976" lat="63.098158336" lon="11.9199388795">
		<tag k="name" v="Nøstervika" />
		<tag k="natural" v="bay" />
		<tag k="ssr:stedsnr" v="619466" />
	</node>
	<node id="-742974" lat="63.1763055524" lon="12.0051361116">
		<tag k="name" v="Trolltjønna" />
		<tag k="natural" v="water" />
		<tag k="ssr:stedsnr" v="619441" />
	</node>
	<node id="-742962" lat="62.9760194414" lon="11.79015833">
		<tag k="name" v="Vessingbekken" />
		<tag k="ssr:stedsnr" v="618944" />
		<tag k="waterway" v="stream" />
	</node>
	<node id="-742958" lat="63.0439555529" lon="11.4929277873">
		<tag k="name" v="Litlhena" />
		<tag k="ssr:stedsnr" v="618299" />
		<tag k="waterway" v="river" />
	</node>
	<node id="-742955" lat="62.9012138889" lon="11.8475555566">
		<tag k="name" v="Småtjønnan" />
		<tag k="natural" v="water" />
		<tag k="ssr:stedsnr" v="577973" />
	</node>
	<node id="-742953" lat="62.9138361149" lon="11.9588361198">
		<tag k="name" v="Nyvolltjønna" />
		<tag k="natural" v="water" />
		<tag k="ssr:stedsnr" v="577926" />
	</node>
	<node id="-742950" lat="63.0764583337" lon="11.629330563">
		<tag k="name" v="Kamfossen" />
		<tag k="natural" v="waterfall" />
		<tag k="ssr:stedsnr" v="576820" />
	</node>
	<node id="-742944" lat="63.0912749972" lon="11.7055777711">
		<tag k="name" v="Øvermobekken" />
		<tag k="ssr:stedsnr" v="576778" />
		<tag k="waterway" v="stream" />
	</node>
	<node id="-742938" lat="63.0598222192" lon="11.6208416604">
		<tag k="name" v="Bekkøybekken" />
		<tag k="ssr:stedsnr" v="576602" />
		<tag k="waterway" v="stream" />
	</node>
	<node id="-742933" lat="63.0233083336" lon="11.7119972248">
		<tag k="name" v="Langfallbekken" />
		<tag k="ssr:stedsnr" v="576577" />
		<tag k="waterway" v="stream" />
	</node>
	<node id="-742929" lat="63.0608194451" lon="11.443575">
		<tag k="name" v="Krokbekken" />
		<tag k="ssr:stedsnr" v="576547" />
		<tag k="waterway" v="stream" />
	</node>
	<node id="-742924" lat="62.9126805537" lon="11.781769445">
		<tag k="name" v="Øvlingsåa" />
		<tag k="ssr:stedsnr" v="566778" />
		<tag k="waterway" v="stream" />
	</node>
	<node id="-742923" lat="62.9854388923" lon="11.8638527818">
		<tag k="name" v="Jenshaugvika" />
		<tag k="natural" v="bay" />
		<tag k="ssr:stedsnr" v="566647" />
	</node>
	<node id="-742920" lat="63.034425" lon="11.7792500092">
		<tag k="name" v="Øyvollhølen" />
		<tag k="place" v="locality" />
		<tag k="ssr:stedsnr" v="566610" />
	</node>
	<node id="-742919" lat="63.0217055549" lon="11.8476611075">
		<tag k="name" v="Nåvårtjønna" />
		<tag k="natural" v="water" />
		<tag k="ssr:stedsnr" v="566608" />
	</node>
	<node id="-742918" lat="63.0912500008" lon="11.4446666571">
		<tag k="name" v="Seteråa" />
		<tag k="ssr:stedsnr" v="566462" />
		<tag k="waterway" v="river" />
	</node>
	<node id="-742911" lat="62.8808083347" lon="11.8955055615">
		<tag k="name" v="Møåa" />
		<tag k="ssr:stedsnr" v="558827" />
		<tag k="waterway" v="river" />
	</node>
	<node id="-742909" lat="63.0777694486" lon="11.9429138965">
		<tag k="name" v="Kløftbekken - Klivhtege" />
		<tag k="name:no" v="Kløftbekken" />
		<tag k="name:sma" v="Klivhtege" />
		<tag k="ssr:stedsnr" v="558448" />
		<tag k="waterway" v="stream" />
	</node>
	<node id="-742908" lat="63.079886108" lon="11.9116722178">
		<tag k="name" v="Esandtjønnbekken" />
		<tag k="ssr:stedsnr" v="558446" />
		<tag k="waterway" v="stream" />
	</node>
	<node id="-742906" lat="63.0859333313" lon="11.3979805567">
		<tag k="name" v="Lomtjønna" />
		<tag k="natural" v="water" />
		<tag k="ssr:stedsnr" v="558472" />
	</node>
	<node id="-742905" lat="63.0382638894" lon="11.9068750001">
		<tag k="name" v="Brokksjøtjønna" />
		<tag k="natural" v="water" />
		<tag k="ssr:stedsnr" v="558466" />
	</node>
	<node id="-742888" lat="62.962977778" lon="12.1570138868">
		<tag k="name" v="Skreddarsjøane - Faatnajabpejaevrieh" />
		<tag k="name:no" v="Skreddarsjøane" />
		<tag k="name:sma" v="Faatnajabpejaevrieh" />
		<tag k="natural" v="water" />
		<tag k="ssr:stedsnr" v="437976" />
		<tag k="water" v="lake" />
	</node>
	<node id="-742886" lat="62.9574666635" lon="11.9811750034">
		<tag k="name" v="Gjetbekken - Niejtenjohke" />
		<tag k="name:no" v="Gjetbekken" />
		<tag k="name:sma" v="Niejtenjohke" />
		<tag k="ssr:stedsnr" v="437971" />
		<tag k="waterway" v="river" />
	</node>
	<node id="-742884" lat="62.9788000014" lon="11.7876416639">
		<tag k="name" v="Vessingtjønna" />
		<tag k="natural" v="water" />
		<tag k="ssr:stedsnr" v="437953" />
	</node>
	<node id="-742881" lat="62.9932833323" lon="11.7089750062">
		<tag k="name" v="Tya" />
		<tag k="ssr:stedsnr" v="437650" />
		<tag k="waterway" v="river" />
	</node>
	<node id="-742880" lat="63.2189277777" lon="11.0001250085">
		<tag k="name" v="Nea - Ganka" />
		<tag k="name:no" v="Nea" />
		<tag k="name:sma" v="Ganka" />
		<tag k="ssr:stedsnr" v="437514" />
		<tag k="waterway" v="river" />
	</node>
	<node id="-742878" lat="63.0668999974" lon="11.7216166676">
		<tag k="name" v="Hærtjønna" />
		<tag k="natural" v="water" />
		<tag k="ssr:stedsnr" v="437454" />
	</node>
	<node id="-742876" lat="63.0538027768" lon="11.7657999911">
		<tag k="name" v="Skorsåa" />
		<tag k="ssr:stedsnr" v="437452" />
		<tag k="waterway" v="stream" />
	</node>
	<node id="-742875" lat="63.0981416622" lon="11.8569972305">
		<tag k="name" v="Eggtjønna" />
		<tag k="natural" v="water" />
		<tag k="ssr:stedsnr" v="437445" />
	</node>
	<node id="-742873" lat="63.0971638862" lon="11.8859749968">
		<tag k="name" v="Nøsteråa" />
		<tag k="ssr:stedsnr" v="437440" />
		<tag k="waterway" v="river" />
	</node>
	<node id="-742868" lat="63.0176777815" lon="11.5955194366">
		<tag k="name" v="Hena" />
		<tag k="ssr:stedsnr" v="437393" />
		<tag k="waterway" v="river" />
	</node>
	<node id="-742844" lat="62.9281250011" lon="11.9043444542">
		<tag k="name" v="Langodden" />
		<tag k="natural" v="cape" />
		<tag k="ssr:stedsnr" v="394936" />
	</node>
	<node id="-742843" lat="63.1342361151" lon="11.7281472137">
		<tag k="alt_name" v="Mobekken" />
		<tag k="name" v="Movollbekken" />
		<tag k="ssr:stedsnr" v="394888" />
		<tag k="waterway" v="stream" />
	</node>
	<node id="-742839" lat="63.0454055588" lon="11.3222444539">
		<tag k="name" v="Sløbekken" />
		<tag k="ssr:stedsnr" v="394863" />
		<tag k="waterway" v="stream" />
	</node>
	<node id="-742838" lat="63.0428916666" lon="11.3080999943">
		<tag k="name" v="Kinnbekken" />
		<tag k="ssr:stedsnr" v="394859" />
		<tag k="waterway" v="stream" />
	</node>
	<node id="-742830" lat="63.0994027741" lon="11.7248250015">
		<tag k="name" v="Jensbekken" />
		<tag k="ssr:stedsnr" v="394756" />
		<tag k="waterway" v="stream" />
	</node>
	<node id="-742827" lat="63.0403027741" lon="11.705322226">
		<tag k="name" v="Stangaråsbekken" />
		<tag k="ssr:stedsnr" v="394658" />
		<tag k="waterway" v="stream" />
	</node>
	<node id="-742826" lat="63.0546222204" lon="11.6925944462">
		<tag k="name" v="Olpersbekken" />
		<tag k="ssr:stedsnr" v="394652" />
		<tag k="waterway" v="stream" />
	</node>
	<node id="-742824" lat="63.0420166684" lon="11.7691194418">
		<tag k="name" v="Gravbakkfossen" />
		<tag k="natural" v="waterfall" />
		<tag k="ssr:stedsnr" v="394590" />
	</node>
	<node id="-742813" lat="63.0651527804" lon="11.7002499988">
		<tag k="name" v="Rødalstjønna" />
		<tag k="natural" v="water" />
		<tag k="ssr:stedsnr" v="384437" />
	</node>
	<node id="-742810" lat="62.9384750021" lon="11.9173916714">
		<tag k="name" v="Langtjønna" />
		<tag k="natural" v="water" />
		<tag k="ssr:stedsnr" v="376997" />
	</node>
	<node id="-742809" lat="62.9424250028" lon="11.7313000099">
		<tag k="name" v="Merkesbekken" />
		<tag k="ssr:stedsnr" v="376975" />
		<tag k="waterway" v="stream" />
	</node>
	<node id="-742808" lat="62.9460249973" lon="11.9175749947">
		<tag k="name" v="Tvillingtjønna" />
		<tag k="natural" v="water" />
		<tag k="ssr:stedsnr" v="376974" />
	</node>
	<node id="-742806" lat="63.0105500019" lon="11.8412861021">
		<tag k="name" v="Råvåtjønnbekken" />
		<tag k="ssr:stedsnr" v="376462" />
		<tag k="waterway" v="stream" />
	</node>
	<node id="-742802" lat="63.0863000011" lon="11.6552527824">
		<tag k="name" v="Holmsåa" />
		<tag k="ssr:stedsnr" v="376293" />
		<tag k="waterway" v="stream" />
	</node>
	<node id="-742800" lat="63.095994448" lon="11.4913611033">
		<tag k="name" v="Seteråtjønna" />
		<tag k="natural" v="water" />
		<tag k="ssr:stedsnr" v="376291" />
	</node>
	<node id="-742799" lat="63.1320999971" lon="11.6721999935">
		<tag k="name" v="Litlåa" />
		<tag k="ssr:stedsnr" v="376269" />
		<tag k="waterway" v="stream" />
	</node>
	<node id="-742796" lat="63.0486277801" lon="11.3117944406">
		<tag k="name" v="Usmesjøen" />
		<tag k="natural" v="water" />
		<tag k="ssr:stedsnr" v="376348" />
		<tag k="water" v="lake" />
	</node>
	<node id="-742794" lat="62.9354194426" lon="11.8303555506">
		<tag k="name" v="Jehanodden" />
		<tag k="natural" v="cape" />
		<tag k="ssr:stedsnr" v="334991" />
	</node>
	<node id="-742788" lat="63.054686109" lon="11.5369861105">
		<tag k="name" v="Børhølmotjønna" />
		<tag k="natural" v="water" />
		<tag k="ssr:stedsnr" v="334928" />
	</node>
	<node id="-742786" lat="62.8970083335" lon="11.8868277699">
		<tag k="name" v="Svarthølvika" />
		<tag k="natural" v="bay" />
		<tag k="ssr:stedsnr" v="334896" />
	</node>
	<node id="-742784" lat="62.8977611086" lon="11.8948416707">
		<tag k="name" v="Bekkøybekken" />
		<tag k="ssr:stedsnr" v="334872" />
		<tag k="waterway" v="stream" />
	</node>
	<node id="-742781" lat="63.0403416659" lon="11.7734083289">
		<tag k="name" v="Kverngrubb-bekken" />
		<tag k="ssr:stedsnr" v="334591" />
		<tag k="waterway" v="stream" />
	</node>
	<node id="-742776" lat="63.0746611108" lon="11.4189472142">
		<tag k="name" v="Kvernbekken" />
		<tag k="ssr:stedsnr" v="334539" />
		<tag k="waterway" v="stream" />
	</node>
	<node id="-742772" lat="63.0413611072" lon="11.4343972173">
		<tag k="name" v="Håmmårvollbekken" />
		<tag k="ssr:stedsnr" v="334497" />
		<tag k="waterway" v="stream" />
	</node>
	<node id="-742768" lat="62.9444500003" lon="11.9281888912">
		<tag k="name" v="Djupbekken" />
		<tag k="ssr:stedsnr" v="324633" />
		<tag k="waterway" v="stream" />
	</node>
	<node id="-742765" lat="63.0520527748" lon="11.4903638902">
		<tag k="name" v="Gresslidammen" />
		<tag k="ssr:stedsnr" v="323418" />
		<tag k="waterway" v="dam" />
	</node>
	<node id="-742761" lat="62.865755553" lon="12.0809138834">
		<tag k="name" v="Skarddørssjøan" />
		<tag k="natural" v="water" />
		<tag k="ssr:stedsnr" v="316684" />
		<tag k="water" v="lake" />
	</node>
	<node id="-742753" lat="63.1131944463" lon="11.9247416749">
		<tag k="name" v="Sankåvika" />
		<tag k="natural" v="bay" />
		<tag k="ssr:stedsnr" v="315381" />
	</node>
	<node id="-742752" lat="63.1512500013" lon="11.8229249979">
		<tag k="name" v="Nørdre Sanka" />
		<tag k="ssr:stedsnr" v="315378" />
		<tag k="waterway" v="river" />
	</node>
	<node id="-742749" lat="63.023783337" lon="11.5805638822">
		<tag k="name" v="Henlibekken" />
		<tag k="ssr:stedsnr" v="315346" />
		<tag k="waterway" v="stream" />
	</node>
	<node id="-742747" lat="63.0232500035" lon="11.3936222136">
		<tag k="name" v="Litlhynna" />
		<tag k="ssr:stedsnr" v="315329" />
		<tag k="waterway" v="stream" />
	</node>
	<node id="-742744" lat="62.9632916696" lon="11.6149055639">
		<tag k="name" v="Svartåa" />
		<tag k="ssr:stedsnr" v="315186" />
		<tag k="waterway" v="stream" />
	</node>
	<node id="-742741" lat="62.9439249959" lon="11.8156666744">
		<tag k="name" v="Stuggusjødammen" />
		<tag k="ssr:stedsnr" v="213889" />
		<tag k="waterway" v="dam" />
	</node>
	<node id="-742726" lat="63.0635194415" lon="11.6718277677">
		<tag k="name" v="Damtjønna" />
		<tag k="natural" v="water" />
		<tag k="ssr:stedsnr" v="213828" />
	</node>
	<node id="-742725" lat="63.0605666701" lon="11.6757249923">
		<tag k="name" v="Sjurdsbekken" />
		<tag k="ssr:stedsnr" v="213819" />
		<tag k="waterway" v="stream" />
	</node>
	<node id="-742723" lat="63.1134111152" lon="11.727011118">
		<tag k="name" v="Merkestjønna" />
		<tag k="natural" v="water" />
		<tag k="ssr:stedsnr" v="213774" />
	</node>
	<node id="-742719" lat="63.0562611153" lon="11.6080777776">
		<tag k="name" v="Hoeggbekken" />
		<tag k="ssr:stedsnr" v="213598" />
		<tag k="waterway" v="stream" />
	</node>
	<node id="-742705" lat="63.0997222245" lon="11.6348861029">
		<tag k="name" v="Brit-Larsabekken" />
		<tag k="ssr:stedsnr" v="212777" />
		<tag k="waterway" v="stream" />
	</node>
	<node id="-742704" lat="63.0830194461" lon="11.6536222201">
		<tag k="name" v="Svarttjønna" />
		<tag k="natural" v="water" />
		<tag k="ssr:stedsnr" v="212776" />
	</node>
	<node id="-742702" lat="62.7882055576" lon="12.0063972279">
		<tag k="name" v="Viglsjøen - Guevtelsjaevrie" />
		<tag k="name:no" v="Viglsjøen" />
		<tag k="name:sma" v="Guevtelsjaevrie" />
		<tag k="natural" v="water" />
		<tag k="ssr:stedsnr" v="203825" />
		<tag k="water" v="lake" />
	</node>
	<node id="-742690" lat="62.8894999986" lon="11.9507499934">
		<tag k="alt_name" v="Rotåa;Rotåa, vestre" />
		<tag k="name" v="Vestre Rotåa" />
		<tag k="ssr:stedsnr" v="195785" />
		<tag k="waterway" v="stream" />
	</node>
	<node id="-742689" lat="62.9887722219" lon="11.6224777727">
		<tag k="name" v="Svartåa" />
		<tag k="ssr:stedsnr" v="195661" />
		<tag k="waterway" v="river" />
	</node>
	<node id="-742687" lat="63.1691249988" lon="11.7005305529">
		<tag k="name" v="Ramsjøen - Raammanjaevrie" />
		<tag k="name:no" v="Ramsjøen" />
		<tag k="name:sma" v="Raammanjaevrie" />
		<tag k="natural" v="water" />
		<tag k="ssr:stedsnr" v="195256" />
		<tag k="water" v="lake" />
	</node>
	<node id="-742686" lat="62.9393166699" lon="11.9239638931">
		<tag k="name" v="Rundtjønna" />
		<tag k="natural" v="water" />
		<tag k="ssr:stedsnr" v="194996" />
	</node>
	<node id="-742685" lat="62.9230685478" lon="11.8416867845">
		<tag k="name" v="Stuggusjøen" />
		<tag k="natural" v="water" />
		<tag k="ssr:stedsnr" v="194988" />
		<tag k="water" v="lake" />
	</node>
	<node id="-742682" lat="62.9613277824" lon="12.0902944396">
		<tag k="name" v="Litlelva" />
		<tag k="ssr:stedsnr" v="194970" />
		<tag k="waterway" v="stream" />
	</node>
	<node id="-742675" lat="62.9086388879" lon="11.8464361016">
		<tag k="name" v="Skjettåbekken" />
		<tag k="ssr:stedsnr" v="194736" />
		<tag k="waterway" v="stream" />
	</node>
	<node id="-742673" lat="63.108825002" lon="11.6296888842">
		<tag k="name" v="Styttåa" />
		<tag k="ssr:stedsnr" v="194252" />
		<tag k="waterway" v="river" />
	</node>
	<node id="-742671" lat="63.0478611097" lon="11.7921250043">
		<tag k="name" v="Skorsåsjøen" />
		<tag k="natural" v="water" />
		<tag k="ssr:stedsnr" v="194383" />
		<tag k="water" v="lake" />
	</node>
	<node id="-742670" lat="63.0820277753" lon="11.7228527762">
		<tag k="alt_name" v="Krokotbekken" />
		<tag k="name" v="Kroketbekken" />
		<tag k="ssr:stedsnr" v="194367" />
		<tag k="waterway" v="stream" />
	</node>
	<node id="-742668" lat="63.0067805516" lon="11.6797749964">
		<tag k="name" v="Håen" />
		<tag k="natural" v="water" />
		<tag k="ssr:stedsnr" v="194340" />
		<tag k="water" v="lake" />
	</node>
	<node id="-742667" lat="63.1260277745" lon="11.6371583388">
		<tag k="name" v="Sildertjønna" />
		<tag k="natural" v="water" />
		<tag k="ssr:stedsnr" v="194230" />
	</node>
	<node id="-742665" lat="63.1925777807" lon="11.7451916686">
		<tag k="name" v="Finnkoisjøen" />
		<tag k="natural" v="water" />
		<tag k="ssr:stedsnr" v="194179" />
		<tag k="water" v="lake" />
	</node>
	<node id="-742664" lat="62.9118583304" lon="11.6640833422">
		<tag k="name" v="Fremmergrøna" />
		<tag k="ssr:stedsnr" v="194175" />
		<tag k="waterway" v="river" />
	</node>
	<node id="-742663" lat="62.9214388912" lon="11.5870166699">
		<tag k="name" v="Veundsjøen" />
		<tag k="natural" v="water" />
		<tag k="ssr:stedsnr" v="194155" />
		<tag k="water" v="lake" />
	</node>
	<node id="-742659" lat="62.9011416653" lon="11.8420638863">
		<tag k="name" v="Storholet" />
		<tag k="natural" v="water" />
		<tag k="ssr:stedsnr" v="152970" />
	</node>
	<node id="-742654" lat="63.0672583328" lon="11.556702772">
		<tag k="name" v="Kvernbekken" />
		<tag k="ssr:stedsnr" v="152872" />
		<tag k="waterway" v="stream" />
	</node>
	<node id="-742648" lat="63.0615277773" lon="11.4205722192">
		<tag k="name" v="Djupbekken" />
		<tag k="ssr:stedsnr" v="152592" />
		<tag k="waterway" v="stream" />
	</node>
	<node id="-742640" lat="63.0955944414" lon="11.4560972249">
		<tag k="name" v="Storbekken" />
		<tag k="ssr:stedsnr" v="152547" />
		<tag k="waterway" v="stream" />
	</node>
	<node id="-742637" lat="62.9543861153" lon="11.8076055563">
		<tag k="name" v="Rødmyrbekken" />
		<tag k="ssr:stedsnr" v="151881" />
		<tag k="waterway" v="stream" />
	</node>
	<node id="-742636" lat="63.0290833368" lon="11.6837638979">
		<tag k="name" v="Kvernbekken" />
		<tag k="ssr:stedsnr" v="151836" />
		<tag k="waterway" v="stream" />
	</node>
	<node id="-742632" lat="63.087041665" lon="11.6284305482">
		<tag k="name" v="Bønbekken" />
		<tag k="ssr:stedsnr" v="151796" />
		<tag k="waterway" v="stream" />
	</node>
	<node id="-742631" lat="63.105222218" lon="11.637694439">
		<tag k="name" v="Styttåfallet" />
		<tag k="natural" v="waterfall" />
		<tag k="ssr:stedsnr" v="151792" />
	</node>
	<node id="-742626" lat="63.0455861135" lon="11.6858916746">
		<tag k="name" v="Sølibekken" />
		<tag k="ssr:stedsnr" v="152675" />
		<tag k="waterway" v="stream" />
	</node>
	<node id="-742623" lat="63.0378999964" lon="11.6683444531">
		<tag k="name" v="Trongfossen" />
		<tag k="natural" v="waterfall" />
		<tag k="ssr:stedsnr" v="152646" />
	</node>
	<node id="-742622" lat="63.0248805532" lon="11.6790444344">
		<tag k="name" v="Småfossan" />
		<tag k="natural" v="waterfall" />
		<tag k="ssr:stedsnr" v="152644" />
	</node>
	<node id="-742619" lat="63.1871388885" lon="11.7811499989">
		<tag k="name" v="Lerbekken" />
		<tag k="ssr:stedsnr" v="151189" />
		<tag k="waterway" v="stream" />
	</node>
	<node id="-742618" lat="62.8666388891" lon="12.0139138888">
		<tag k="name" v="Rotåsjøen" />
		<tag k="natural" v="water" />
		<tag k="ssr:stedsnr" v="142633" />
		<tag k="water" v="lake" />
	</node>
	<node id="-742616" lat="63.0616861153" lon="11.7809472145">
		<tag k="name" v="Brennøybekken" />
		<tag k="ssr:stedsnr" v="142582" />
		<tag k="waterway" v="stream" />
	</node>
	<node id="-742614" lat="63.0292500006" lon="11.8050194357">
		<tag k="name" v="Øyvollbekken" />
		<tag k="ssr:stedsnr" v="142578" />
		<tag k="waterway" v="stream" />
	</node>
	<node id="-742605" lat="62.963311115" lon="11.9019527836">
		<tag k="name" v="Djuptjønna" />
		<tag k="natural" v="water" />
		<tag k="ssr:stedsnr" v="133978" />
	</node>
	<node id="-742604" lat="62.9032611072" lon="11.8961499975">
		<tag k="name" v="Glefsodden" />
		<tag k="natural" v="cape" />
		<tag k="ssr:stedsnr" v="133748" />
	</node>
	<node id="-742600" lat="63.0373499998" lon="11.8804555652">
		<tag k="name" v="Øvre Råvåtjønna" />
		<tag k="natural" v="water" />
		<tag k="ssr:stedsnr" v="133390" />
	</node>
	<node id="-742592" lat="62.9311500026" lon="11.6785305611">
		<tag k="name" v="Storbekken" />
		<tag k="ssr:stedsnr" v="133153" />
		<tag k="waterway" v="stream" />
	</node>
	<node id="-742591" lat="63.0595916677" lon="11.5154472311">
		<tag k="name" v="Nyvollbekken" />
		<tag k="ssr:stedsnr" v="92926" />
		<tag k="waterway" v="stream" />
	</node>
	<node id="-742589" lat="62.9209111109" lon="11.9161222181">
		<tag k="name" v="Vestre Rotåtjønna" />
		<tag k="natural" v="water" />
		<tag k="ssr:stedsnr" v="92889" />
	</node>
	<node id="-742586" lat="63.1059611122" lon="11.3683972151">
		<tag k="name" v="Merkesbekken" />
		<tag k="ssr:stedsnr" v="92802" />
		<tag k="waterway" v="stream" />
	</node>
	<node id="-742583" lat="62.9153388895" lon="11.8872611194">
		<tag k="name" v="Stugguvollvika" />
		<tag k="natural" v="bay" />
		<tag k="ssr:stedsnr" v="91948" />
	</node>
	<node id="-742576" lat="62.9974944416" lon="11.6299138916">
		<tag k="name" v="Auretjønna" />
		<tag k="natural" v="water" />
		<tag k="ssr:stedsnr" v="91770" />
	</node>
	<node id="-742565" lat="62.9051638905" lon="11.6562166673">
		<tag k="name" v="Grøntjønna" />
		<tag k="natural" v="water" />
		<tag k="ssr:stedsnr" v="81653" />
	</node>
	<node id="-742564" lat="63.045613893" lon="11.5940111161">
		<tag k="name" v="Kistafossen" />
		<tag k="natural" v="waterfall" />
		<tag k="ssr:stedsnr" v="81462" />
	</node>
	<node id="-742562" lat="63.0180583349" lon="11.6746250038">
		<tag k="name" v="Børhølen" />
		<tag k="place" v="locality" />
		<tag k="ssr:stedsnr" v="81442" />
	</node>
	<node id="-742556" lat="62.941791664" lon="11.8618638915">
		<tag k="name" v="Patrusbekken" />
		<tag k="ssr:stedsnr" v="73997" />
		<tag k="waterway" v="stream" />
	</node>
	<node id="-742554" lat="63.0306666653" lon="11.9420361149">
		<tag k="name" v="Øvre Brokksjøen" />
		<tag k="natural" v="water" />
		<tag k="ssr:stedsnr" v="73461" />
		<tag k="water" v="lake" />
	</node>
	<node id="-742552" lat="63.0559000014" lon="11.8851999914">
		<tag k="name" v="Elgesjøen" />
		<tag k="natural" v="water" />
		<tag k="ssr:stedsnr" v="73441" />
		<tag k="water" v="lake" />
	</node>
	<node id="-742550" lat="63.0818916633" lon="11.7770250053">
		<tag k="name" v="Svensklægertjønna" />
		<tag k="natural" v="water" />
		<tag k="ssr:stedsnr" v="73432" />
	</node>
	<node id="-742549" lat="63.0246083337" lon="11.3172499957">
		<tag k="name" v="Lobekken" />
		<tag k="ssr:stedsnr" v="73385" />
		<tag k="waterway" v="stream" />
	</node>
	<node id="-742545" lat="63.0387750029" lon="11.572791672">
		<tag k="name" v="Brattbotnbekken" />
		<tag k="ssr:stedsnr" v="73346" />
		<tag k="waterway" v="stream" />
	</node>
	<node id="-742544" lat="63.0452611153" lon="11.3805305509">
		<tag k="alt_name" v="Gunhildbekken" />
		<tag k="name" v="Gunnhildbekken" />
		<tag k="ssr:stedsnr" v="73341" />
		<tag k="waterway" v="stream" />
	</node>
	<node id="-742526" lat="62.9309305588" lon="11.8169555473">
		<tag k="name" v="Jostbekken" />
		<tag k="ssr:stedsnr" v="31828" />
		<tag k="waterway" v="stream" />
	</node>
	<node id="-742523" lat="62.9893361128" lon="11.721225009">
		<tag k="name" v="Fiskehølen" />
		<tag k="place" v="locality" />
		<tag k="ssr:stedsnr" v="30985" />
	</node>
	<node id="-742522" lat="63.0596361098" lon="11.5311722133">
		<tag k="name" v="Øybekken" />
		<tag k="ssr:stedsnr" v="30956" />
		<tag k="waterway" v="stream" />
	</node>
	<node id="-742521" lat="63.0542055537" lon="11.5547666708">
		<tag k="name" v="Granøya" />
		<tag k="place" v="island" />
		<tag k="ssr:stedsnr" v="30953" />
	</node>
	<node id="-742519" lat="63.0477999973" lon="11.7275750012">
		<tag k="name" v="Djupmyrbekken" />
		<tag k="ssr:stedsnr" v="30920" />
		<tag k="waterway" v="stream" />
	</node>
	<node id="-742517" lat="62.9662250001" lon="11.7847222291">
		<tag k="name" v="Jenshaugbekken" />
		<tag k="ssr:stedsnr" v="30874" />
		<tag k="waterway" v="stream" />
	</node>
	<node id="-742515" lat="63.0442472202" lon="11.3979805527">
		<tag k="name" v="Svarttjønna" />
		<tag k="natural" v="water" />
		<tag k="ssr:stedsnr" v="30839" />
	</node>
	<node id="-742512" lat="63.0722583343" lon="11.6943888875">
		<tag k="name" v="Rødalstjønnbekken" />
		<tag k="ssr:stedsnr" v="30807" />
		<tag k="waterway" v="stream" />
	</node>
	<node id="-742509" lat="63.0488777773" lon="11.6551805642">
		<tag k="name" v="Bønsbekken" />
		<tag k="ssr:stedsnr" v="30580" />
		<tag k="waterway" v="stream" />
	</node>
	<node id="-742503" lat="63.044322223" lon="11.5692111194">
		<tag k="name" v="Godmatmyrbekken" />
		<tag k="ssr:stedsnr" v="30534" />
		<tag k="waterway" v="stream" />
	</node>
	<node id="-742502" lat="63.0594472256" lon="11.438238894">
		<tag k="name" v="Plankhølen" />
		<tag k="place" v="locality" />
		<tag k="ssr:stedsnr" v="30508" />
	</node>
	<node id="-742499" lat="63.10183889" lon="11.6421611186">
		<tag k="name" v="Skyttåøyan" />
		<tag k="place" v="island" />
		<tag k="ssr:stedsnr" v="30778" />
	</node>
	<node id="-742497" lat="63.1231083377" lon="11.6287222222">
		<tag k="name" v="Bakktjønna" />
		<tag k="natural" v="water" />
		<tag k="ssr:stedsnr" v="30770" />
	</node>
	<node id="-742495" lat="63.1071472185" lon="11.7027861188">
		<tag k="name" v="Bøntjønna" />
		<tag k="natural" v="water" />
		<tag k="ssr:stedsnr" v="30762" />
	</node>
	<node id="-742491" lat="62.8825000017" lon="12.0259333348">
		<tag k="name" v="Villskardsjøen" />
		<tag k="natural" v="water" />
		<tag k="ssr:stedsnr" v="21655" />
		<tag k="water" v="lake" />
	</node>
	<node id="-742490" lat="62.9409250019" lon="11.8890916702">
		<tag k="name" v="Hallvardtjønna" />
		<tag k="natural" v="water" />
		<tag k="ssr:stedsnr" v="21651" />
	</node>
	<node id="-742489" lat="62.9950888891" lon="11.8312361108">
		<tag k="name" v="Nesjødammen" />
		<tag k="ssr:stedsnr" v="21649" />
		<tag k="waterway" v="dam" />
	</node>
	<node id="-742487" lat="63.0729083329" lon="11.3833055509">
		<tag k="name" v="Trøskmyrbekken" />
		<tag k="ssr:stedsnr" v="21459" />
		<tag k="waterway" v="stream" />
	</node>
	<node id="-742485" lat="63.0754055561" lon="11.4440777802">
		<tag k="name" v="Nøkkelbekken" />
		<tag k="ssr:stedsnr" v="21453" />
		<tag k="waterway" v="stream" />
	</node>
	<node id="-742477" lat="62.9469944406" lon="11.8381944435">
		<tag k="name" v="Storbekken" />
		<tag k="ssr:stedsnr" v="12972" />
		<tag k="waterway" v="stream" />
	</node>
	<node id="-742473" lat="62.8932888919" lon="11.8892388845">
		<tag k="name" v="Stillhåen" />
		<tag k="ssr:stedsnr" v="12762" />
		<tag k="waterway" v="stream" />
	</node>
	<node id="-742472" lat="62.907483335" lon="11.7271555597">
		<tag k="name" v="Grønvoltjønnan" />
		<tag k="natural" v="water" />
		<tag k="ssr:stedsnr" v="12750" />
	</node>
	<node id="-742471" lat="63.0267055551" lon="12.1582944404">
		<tag k="name" v="Syltjønna" />
		<tag k="natural" v="water" />
		<tag k="ssr:stedsnr" v="12437" />
		<tag k="water" v="lake" />
	</node>
	<node id="-742468" lat="63.0242000022" lon="11.7333527704">
		<tag k="alt_name" v="Langfallsjøen" />
		<tag k="name" v="Langfallsjøan" />
		<tag k="natural" v="water" />
		<tag k="ssr:stedsnr" v="12418" />
		<tag k="water" v="lake" />
	</node>
	<node id="-742467" lat="63.0652750001" lon="12.009274992">
		<tag k="name" v="Singervika" />
		<tag k="natural" v="bay" />
		<tag k="ssr:stedsnr" v="12416" />
	</node>
	<node id="-742459" lat="62.7334499967" lon="12.0949861203">
		<tag k="name" v="Hadtanjohke - Hydda" />
		<tag k="name:no" v="Hydda" />
		<tag k="name:sma" v="Hadtanjohke" />
		<tag k="ssr:stedsnr" v="12555" />
		<tag k="waterway" v="river" />
	</node>
	<node id="-742456" lat="63.0208888932" lon="11.5989138987">
		<tag k="name" v="Henfallet" />
		<tag k="natural" v="waterfall" />
		<tag k="ssr:stedsnr" v="12353" />
	</node>
	<node id="-742448" lat="63.109149997" lon="11.387816662">
		<tag k="name" v="Heggsetdammen" />
		<tag k="ssr:stedsnr" v="947603" />
		<tag k="waterway" v="dam" />
	</node>
	<node id="-742447" lat="63.1109777811" lon="11.947088894">
		<tag k="name" v="Holmen" />
		<tag k="place" v="islet" />
		<tag k="ssr:stedsnr" v="931603" />
	</node>
	<node id="-742444" lat="62.984936108" lon="11.6874666598">
		<tag k="name" v="Kvernbekken" />
		<tag k="ssr:stedsnr" v="922222" />
		<tag k="waterway" v="stream" />
	</node>
	<node id="-742442" lat="63.0509055521" lon="11.5187499907">
		<tag k="name" v="Tjønna" />
		<tag k="natural" v="water" />
		<tag k="ssr:stedsnr" v="881934" />
	</node>
	<node id="-742438" lat="63.0962416643" lon="11.4435805543">
		<tag k="name" v="Litldambekken" />
		<tag k="ssr:stedsnr" v="880514" />
		<tag k="waterway" v="stream" />
	</node>
	<node id="-742435" lat="63.1007083307" lon="11.9225749996">
		<tag k="name" v="Nøsterodden" />
		<tag k="natural" v="cape" />
		<tag k="ssr:stedsnr" v="870604" />
	</node>
	<node id="-742434" lat="62.9317000003" lon="11.9357194394">
		<tag k="name" v="Storbekken" />
		<tag k="ssr:stedsnr" v="862624" />
		<tag k="waterway" v="stream" />
	</node>
	<node id="-742433" lat="63.0971888895" lon="11.5802361051">
		<tag k="name" v="Mustjønna" />
		<tag k="natural" v="water" />
		<tag k="ssr:stedsnr" v="862317" />
	</node>
	<node id="-742429" lat="63.062013891" lon="11.3826888913">
		<tag k="name" v="Hotjønna" />
		<tag k="natural" v="water" />
		<tag k="ssr:stedsnr" v="941958" />
	</node>
	<node id="-742426" lat="63.0532583371" lon="11.5418083277">
		<tag k="name" v="Søre Børhølen" />
		<tag k="place" v="locality" />
		<tag k="ssr:stedsnr" v="941946" />
	</node>
	<node id="-742424" lat="62.92947222" lon="11.93700556">
		<tag k="name" v="Storbekken" />
		<tag k="ssr:stedsnr" v="941926" />
		<tag k="waterway" v="stream" />
	</node>
	<node id="-742418" lat="63.0726833331" lon="11.7158111022">
		<tag k="name" v="Toslåbekken" />
		<tag k="ssr:stedsnr" v="941803" />
		<tag k="waterway" v="stream" />
	</node>
	<node id="-742417" lat="63.0799222239" lon="11.7299916718">
		<tag k="name" v="Svarttjønna" />
		<tag k="natural" v="water" />
		<tag k="ssr:stedsnr" v="941797" />
	</node>
	<node id="-742411" lat="63.103291663" lon="11.6615388956">
		<tag k="name" v="Svartøya" />
		<tag k="place" v="island" />
		<tag k="ssr:stedsnr" v="941744" />
	</node>
	<node id="-742409" lat="63.1121249974" lon="11.6752750061">
		<tag k="name" v="Ystersetertangen" />
		<tag k="natural" v="cape" />
		<tag k="ssr:stedsnr" v="941738" />
	</node>
	<node id="-742402" lat="62.9991666653" lon="11.6855249985">
		<tag k="name" v="Løvøybekken" />
		<tag k="ssr:stedsnr" v="941591" />
		<tag k="waterway" v="stream" />
	</node>
	<node id="-742401" lat="63.0104749971" lon="11.6687999977">
		<tag k="name" v="Musbørhølen" />
		<tag k="place" v="locality" />
		<tag k="ssr:stedsnr" v="941590" />
	</node>
	<node id="-742397" lat="63.0619833334" lon="11.4562194482">
		<tag k="name" v="Krokbekken" />
		<tag k="ssr:stedsnr" v="941548" />
		<tag k="waterway" v="stream" />
	</node>
	<node id="-742392" lat="63.0572444475" lon="11.4373555646">
		<tag k="name" v="Hynnfossen" />
		<tag k="natural" v="waterfall" />
		<tag k="ssr:stedsnr" v="941504" />
	</node>
	<node id="-742390" lat="62.9573000041" lon="11.9656777706">
		<tag k="name" v="Gjetbekkvika" />
		<tag k="natural" v="bay" />
		<tag k="ssr:stedsnr" v="931660" />
	</node>
	<node id="-742368" lat="63.0721638861" lon="11.7020777707">
		<tag k="name" v="Sagbekken" />
		<tag k="ssr:stedsnr" v="930428" />
		<tag k="waterway" v="stream" />
	</node>
	<node id="-742366" lat="62.8651500023" lon="11.8789583271">
		<tag k="name" v="Falkhyttbekken" />
		<tag k="ssr:stedsnr" v="801758" />
		<tag k="waterway" v="stream" />
	</node>
	<node id="-742365" lat="62.7622250026" lon="12.1294416761">
		<tag k="name" v="Storhyddsjøen" />
		<tag k="natural" v="water" />
		<tag k="ssr:stedsnr" v="801809" />
		<tag k="water" v="lake" />
	</node>
	<node id="-742364" lat="63.0272944483" lon="11.3676166726">
		<tag k="name" v="Nauttjønna" />
		<tag k="natural" v="water" />
		<tag k="ssr:stedsnr" v="801362" />
	</node>
	<node id="-742363" lat="63.0322500003" lon="11.3122000033">
		<tag k="name" v="Bukkhåmmårelva" />
		<tag k="ssr:stedsnr" v="801361" />
		<tag k="waterway" v="stream" />
	</node>
	<node id="-742362" lat="63.0134055543" lon="11.4482666744">
		<tag k="name" v="Hyllingtjønna" />
		<tag k="natural" v="water" />
		<tag k="ssr:stedsnr" v="801356" />
	</node>
	<node id="-742360" lat="62.9105055546" lon="11.6421611137">
		<tag k="name" v="Skardøyan" />
		<tag k="ssr:stedsnr" v="801173" />
		<tag k="waterway" v="stream" />
	</node>
	<node id="-742359" lat="62.9789833358" lon="11.5243416579">
		<tag k="name" v="Storbekken" />
		<tag k="ssr:stedsnr" v="801220" />
		<tag k="waterway" v="stream" />
	</node>
	<node id="-742358" lat="62.8556333323" lon="11.9106250061">
		<tag k="name" v="Møsjøen" />
		<tag k="natural" v="water" />
		<tag k="ssr:stedsnr" v="923819" />
		<tag k="water" v="lake" />
	</node>
	<node id="-742356" lat="62.8815583296" lon="11.795227778">
		<tag k="name" v="Grunnsjøen" />
		<tag k="natural" v="water" />
		<tag k="ssr:stedsnr" v="923798" />
	</node>
	<node id="-742354" lat="62.9060999969" lon="11.8856361067">
		<tag k="name" v="Rotodden" />
		<tag k="natural" v="cape" />
		<tag k="ssr:stedsnr" v="923783" />
	</node>
	<node id="-742346" lat="63.0094666656" lon="11.7535749909">
		<tag k="name" v="Stortjønna" />
		<tag k="natural" v="water" />
		<tag k="ssr:stedsnr" v="922409" />
		<tag k="water" v="lake" />
	</node>
	<node id="-742345" lat="63.0834250044" lon="12.0388916723">
		<tag k="name" v="Kantholmen" />
		<tag k="place" v="islet" />
		<tag k="ssr:stedsnr" v="922389" />
	</node>
	<node id="-742344" lat="63.1142444451" lon="11.8182749999">
		<tag k="name" v="Kranktjønna" />
		<tag k="natural" v="water" />
		<tag k="ssr:stedsnr" v="922380" />
	</node>
	<node id="-742343" lat="63.1344805559" lon="12.0004861156">
		<tag k="name" v="Djupholma" />
		<tag k="ssr:stedsnr" v="922375" />
		<tag k="waterway" v="river" />
	</node>
	<node id="-742340" lat="63.041883332" lon="11.3934666583">
		<tag k="alt_name" v="Movollbekken" />
		<tag k="name" v="Mobekken" />
		<tag k="ssr:stedsnr" v="922322" />
		<tag k="waterway" v="stream" />
	</node>
	<node id="-742337" lat="63.0507805513" lon="11.7211944528">
		<tag k="name" v="Kjerringmyrbekken" />
		<tag k="ssr:stedsnr" v="759665" />
		<tag k="waterway" v="stream" />
	</node>
	<node id="-742335" lat="62.9329444489" lon="11.8640138869">
		<tag k="name" v="Litlbekken" />
		<tag k="ssr:stedsnr" v="758928" />
		<tag k="waterway" v="stream" />
	</node>
	<node id="-742334" lat="62.9796805592" lon="11.7323944449">
		<tag k="name" v="Esfossen" />
		<tag k="natural" v="waterfall" />
		<tag k="ssr:stedsnr" v="758927" />
	</node>
	<node id="-742326" lat="63.0986500018" lon="11.8417805575">
		<tag k="name" v="Stortjønna" />
		<tag k="natural" v="water" />
		<tag k="ssr:stedsnr" v="749615" />
	</node>
	<node id="-742325" lat="63.0449000025" lon="11.7420888969">
		<tag k="name" v="Svarttjønna" />
		<tag k="natural" v="water" />
		<tag k="ssr:stedsnr" v="748510" />
	</node>
	<node id="-742322" lat="62.9864083359" lon="12.005461111">
		<tag k="name" v="Nesjøen" />
		<tag k="natural" v="water" />
		<tag k="ssr:stedsnr" v="740954" />
		<tag k="water" v="lake" />
	</node>
	<node id="-742321" lat="62.8800944435" lon="11.847761116">
		<tag k="name" v="Tjønndalstjønna" />
		<tag k="natural" v="water" />
		<tag k="ssr:stedsnr" v="740763" />
	</node>
	<node id="-742320" lat="62.8972444427" lon="11.737366665">
		<tag k="name" v="Hundloken" />
		<tag k="natural" v="water" />
		<tag k="ssr:stedsnr" v="740759" />
	</node>
	<node id="-742318" lat="63.0093027745" lon="12.0370055624">
		<tag k="name" v="Pikhaugtjønna" />
		<tag k="place" v="locality" />
		<tag k="ssr:stedsnr" v="740416" />
	</node>
	<node id="-742317" lat="63.0232083353" lon="11.8785250019">
		<tag k="name" v="Nedre Råvåtjønna" />
		<tag k="natural" v="water" />
		<tag k="ssr:stedsnr" v="740413" />
		<tag k="water" v="lake" />
	</node>
	<node id="-742313" lat="63.0533934013" lon="11.5418018992">
		<tag k="name" v="Sørbørhølen" />
		<tag k="place" v="locality" />
		<tag k="ssr:stedsnr" v="740310" />
	</node>
	<node id="-742308" lat="62.9320555547" lon="11.8572861029">
		<tag k="name" v="Storbekken" />
		<tag k="ssr:stedsnr" v="698809" />
		<tag k="waterway" v="stream" />
	</node>
	<node id="-742298" lat="62.8291674115" lon="11.8078228518">
		<tag k="name" v="Svarttjønna" />
		<tag k="natural" v="water" />
		<tag k="ssr:stedsnr" v="679771" />
	</node>
	<node id="-742297" lat="62.8226277792" lon="11.9004833394">
		<tag k="name" v="Møsjøtjønna" />
		<tag k="natural" v="water" />
		<tag k="ssr:stedsnr" v="679766" />
	</node>
	<node id="-742296" lat="62.8288361145" lon="12.080477782">
		<tag k="name" v="Soenehkejaevrie" />
		<tag k="name:sma" v="Soenehkejaevrie" />
		<tag k="natural" v="water" />
		<tag k="ssr:stedsnr" v="679760" />
		<tag k="water" v="lake" />
	</node>
	<node id="-742295" lat="63.0401527778" lon="12.0220555497">
		<tag k="name" v="Esnadammen" />
		<tag k="ssr:stedsnr" v="679404" />
		<tag k="waterway" v="dam" />
	</node>
	<node id="-742294" lat="63.0207749987" lon="11.975738883">
		<tag k="name" v="Nedre Brokksjøen" />
		<tag k="natural" v="water" />
		<tag k="ssr:stedsnr" v="679403" />
	</node>
	<node id="-742290" lat="63.0019805568" lon="11.636169445">
		<tag k="name" v="Væråstjønnan" />
		<tag k="natural" v="water" />
		<tag k="ssr:stedsnr" v="679218" />
	</node>
	<node id="-742284" lat="63.0720972221" lon="11.3516388841">
		<tag k="name" v="Stugguvollbekken" />
		<tag k="ssr:stedsnr" v="880978" />
		<tag k="waterway" v="stream" />
	</node>
	<node id="-742283" lat="63.053733331" lon="11.5438583356">
		<tag k="name" v="Bukkøya" />
		<tag k="place" v="island" />
		<tag k="ssr:stedsnr" v="880953" />
	</node>
	<node id="-742281" lat="62.9379388887" lon="11.867833332">
		<tag k="name" v="Litlhanstjønna" />
		<tag k="natural" v="water" />
		<tag k="ssr:stedsnr" v="880926" />
	</node>
	<node id="-742280" lat="62.9726944419" lon="11.7371222138">
		<tag k="name" v="Hølan" />
		<tag k="place" v="locality" />
		<tag k="ssr:stedsnr" v="880903" />
	</node>
	<node id="-742278" lat="63.0373638848" lon="11.4387638894">
		<tag k="name" v="Storbekken" />
		<tag k="ssr:stedsnr" v="880874" />
		<tag k="waterway" v="stream" />
	</node>
	<node id="-742260" lat="63.0148416682" lon="11.7113944462">
		<tag k="name" v="Svarttjønna" />
		<tag k="natural" v="water" />
		<tag k="ssr:stedsnr" v="880623" />
	</node>
	<node id="-742259" lat="63.0155916639" lon="11.6834000015">
		<tag k="name" v="Sørbekken" />
		<tag k="ssr:stedsnr" v="880621" />
		<tag k="waterway" v="stream" />
	</node>
	<node id="-742257" lat="63.0582749975" lon="11.6398583236">
		<tag k="name" v="Gårdabekken" />
		<tag k="ssr:stedsnr" v="880611" />
		<tag k="waterway" v="stream" />
	</node>
	<node id="-742255" lat="63.0766111079" lon="11.4522944371">
		<tag k="name" v="Brøttbekken" />
		<tag k="ssr:stedsnr" v="880570" />
		<tag k="waterway" v="stream" />
	</node>
	<node id="-742252" lat="63.1039944433" lon="11.7327472246">
		<tag k="name" v="Vista" />
		<tag k="ssr:stedsnr" v="880184" />
		<tag k="waterway" v="stream" />
	</node>
	<node id="-742243" lat="62.9913888923" lon="11.791377783">
		<tag k="name" v="Kobbtjønna" />
		<tag k="natural" v="water" />
		<tag k="ssr:stedsnr" v="627664" />
	</node>
	<node id="-742241" lat="62.9505111092" lon="11.7017222296">
		<tag k="name" v="Grønsjøen" />
		<tag k="natural" v="water" />
		<tag k="ssr:stedsnr" v="619222" />
		<tag k="water" v="lake" />
	</node>
	<node id="-742240" lat="62.8214055595" lon="11.8592444368">
		<tag k="name" v="Skorbekken" />
		<tag k="ssr:stedsnr" v="618768" />
		<tag k="waterway" v="stream" />
	</node>
	<node id="-742239" lat="62.8934555581" lon="11.908319445">
		<tag k="name" v="Stillhåbekken" />
		<tag k="ssr:stedsnr" v="577907" />
		<tag k="waterway" v="stream" />
	</node>
	<node id="-742237" lat="62.9251472217" lon="11.9108194513">
		<tag k="name" v="Kroktjønna" />
		<tag k="natural" v="water" />
		<tag k="ssr:stedsnr" v="576944" />
	</node>
	<node id="-742224" lat="62.8983805582" lon="11.7852138811">
		<tag k="name" v="Øvlingen" />
		<tag k="natural" v="water" />
		<tag k="ssr:stedsnr" v="558812" />
		<tag k="water" v="lake" />
	</node>
	<node id="-742222" lat="63.0358305599" lon="11.6983250034">
		<tag k="name" v="Sølisjøen" />
		<tag k="natural" v="water" />
		<tag k="ssr:stedsnr" v="558354" />
		<tag k="water" v="lake" />
	</node>
	<node id="-742221" lat="63.1372083298" lon="11.8877000009">
		<tag k="name" v="Storsanka - Saanka" />
		<tag k="name:no" v="Storsanka" />
		<tag k="name:sma" v="Saanka" />
		<tag k="ssr:stedsnr" v="558413" />
		<tag k="waterway" v="river" />
	</node>
	<node id="-742218" lat="63.0589638848" lon="11.5199194418">
		<tag k="name" v="Sandmelbekken" />
		<tag k="ssr:stedsnr" v="699939" />
		<tag k="waterway" v="stream" />
	</node>
	<node id="-742214" lat="63.0585111123" lon="11.5609999983">
		<tag k="name" v="Mobekken" />
		<tag k="ssr:stedsnr" v="698944" />
		<tag k="waterway" v="stream" />
	</node>
	<node id="-742210" lat="63.0847833298" lon="11.5267249916">
		<tag k="name" v="Væløya" />
		<tag k="place" v="island" />
		<tag k="ssr:stedsnr" v="698848" />
	</node>
	<node id="-742209" lat="63.0703194403" lon="11.5997388943">
		<tag k="name" v="Tjønna" />
		<tag k="natural" v="water" />
		<tag k="ssr:stedsnr" v="698833" />
	</node>
	<node id="-742208" lat="63.0756583292" lon="11.6692138935">
		<tag k="name" v="Gruvbekken" />
		<tag k="ssr:stedsnr" v="698786" />
		<tag k="waterway" v="stream" />
	</node>
	<node id="-742200" lat="63.0986055532" lon="11.6086333365">
		<tag k="name" v="Tjønnbekken" />
		<tag k="ssr:stedsnr" v="698752" />
		<tag k="waterway" v="stream" />
	</node>
	<node id="-742188" lat="63.0514999983" lon="11.5650111136">
		<tag k="name" v="Skvælmyrbekken" />
		<tag k="ssr:stedsnr" v="698517" />
		<tag k="waterway" v="stream" />
	</node>
	<node id="-742183" lat="62.989800001" lon="11.6104888942">
		<tag k="name" v="Stuttjønna" />
		<tag k="natural" v="water" />
		<tag k="ssr:stedsnr" v="688640" />
	</node>
	<node id="-742181" lat="63.0977194423" lon="11.5444666705">
		<tag k="name" v="Rutbekken" />
		<tag k="ssr:stedsnr" v="688461" />
		<tag k="waterway" v="stream" />
	</node>
	<node id="-742179" lat="63.0646500023" lon="11.5425888892">
		<tag k="name" v="Vælfallet" />
		<tag k="natural" v="waterfall" />
		<tag k="ssr:stedsnr" v="688439" />
	</node>
	<node id="-742169" lat="62.8898749961" lon="11.8531583326">
		<tag k="name" v="Kvernbekken" />
		<tag k="ssr:stedsnr" v="680823" />
		<tag k="waterway" v="stream" />
	</node>
	<node id="-742162" lat="62.9736277754" lon="12.1321055648">
		<tag k="name" v="Ikornåa" />
		<tag k="ssr:stedsnr" v="679982" />
		<tag k="waterway" v="river" />
	</node>
	<node id="-742160" lat="63.090211115" lon="11.7809694405">
		<tag k="name" v="Morbekken" />
		<tag k="ssr:stedsnr" v="679390" />
		<tag k="waterway" v="stream" />
	</node>
	<node id="-742159" lat="63.0773555587" lon="11.9734583361">
		<tag k="name" v="Mulbekken" />
		<tag k="ssr:stedsnr" v="679387" />
		<tag k="waterway" v="river" />
	</node>
	<node id="-742158" lat="63.0729361141" lon="11.7364416596">
		<tag k="name" v="Tåslåbekken" />
		<tag k="ssr:stedsnr" v="679383" />
		<tag k="waterway" v="stream" />
	</node>
	<node id="-742157" lat="63.1024999975" lon="11.953605558">
		<tag k="name" v="Blåkkåneset" />
		<tag k="natural" v="cape" />
		<tag k="ssr:stedsnr" v="679382" />
	</node>
	<node id="-742156" lat="63.0903888905" lon="12.0336361107">
		<tag k="name" v="Stormælen - Guhkiesåarka" />
		<tag k="name:no" v="Stormælen" />
		<tag k="name:sma" v="Guhkiesåarka" />
		<tag k="natural" v="cape" />
		<tag k="ssr:stedsnr" v="679379" />
	</node>
	<node id="-742153" lat="63.1213749993" lon="11.855750008">
		<tag k="name" v="Gardkleppsjøen" />
		<tag k="natural" v="water" />
		<tag k="ssr:stedsnr" v="679369" />
		<tag k="water" v="lake" />
	</node>
	<node id="-742150" lat="63.1536916671" lon="11.7459611127">
		<tag k="alt_name:no" v="Ramna" />
		<tag k="name" v="Ramsjøelva - Raammanjohke" />
		<tag k="name:no" v="Ramsjøelva" />
		<tag k="name:sma" v="Raammanjohke" />
		<tag k="ssr:stedsnr" v="679364" />
		<tag k="waterway" v="river" />
	</node>
	<node id="-742149" lat="63.2061861145" lon="11.9881361179">
		<tag k="name" v="Rangla" />
		<tag k="ssr:stedsnr" v="679360" />
		<tag k="waterway" v="river" />
	</node>
	<node id="-742146" lat="63.0041611146" lon="11.7181000051">
		<tag k="name" v="Grasmyrbekken" />
		<tag k="ssr:stedsnr" v="456819" />
		<tag k="waterway" v="stream" />
	</node>
	<node id="-742141" lat="62.9090999972" lon="11.8382277761">
		<tag k="name" v="Møbekken" />
		<tag k="ssr:stedsnr" v="437763" />
		<tag k="waterway" v="stream" />
	</node>
	<node id="-742140" lat="62.9170194461" lon="11.8159833278">
		<tag k="name" v="Fresa" />
		<tag k="ssr:stedsnr" v="437756" />
		<tag k="waterway" v="stream" />
	</node>
	<node id="-742136" lat="63.1149666659" lon="11.7015027821">
		<tag k="name" v="Hallvardsbekken" />
		<tag k="ssr:stedsnr" v="437304" />
		<tag k="waterway" v="stream" />
	</node>
	<node id="-742129" lat="62.8906583368" lon="11.8996305501">
		<tag k="name" v="Stillhåtjønna" />
		<tag k="natural" v="water" />
		<tag k="ssr:stedsnr" v="516892" />
	</node>
	<node id="-742119" lat="63.0736055568" lon="11.6823861166">
		<tag k="name" v="Sømyrbekken" />
		<tag k="ssr:stedsnr" v="516812" />
		<tag k="waterway" v="stream" />
	</node>
	<node id="-742111" lat="63.1206666673" lon="11.623494442">
		<tag k="name" v="Gjardabekken" />
		<tag k="ssr:stedsnr" v="516770" />
		<tag k="waterway" v="stream" />
	</node>
	<node id="-742110" lat="63.1061222227" lon="11.6121111199">
		<tag k="name" v="Enarsbekken" />
		<tag k="ssr:stedsnr" v="516769" />
		<tag k="waterway" v="stream" />
	</node>
	<node id="-742104" lat="63.1282833365" lon="11.6191305578">
		<tag k="name" v="Fossan" />
		<tag k="natural" v="waterfall" />
		<tag k="ssr:stedsnr" v="516750" />
	</node>
	<node id="-742093" lat="63.0010749963" lon="11.6779694438">
		<tag k="name" v="Storhølen" />
		<tag k="place" v="locality" />
		<tag k="ssr:stedsnr" v="516587" />
	</node>
	<node id="-742091" lat="63.0502388931" lon="11.6597111114">
		<tag k="name" v="Medbekken" />
		<tag k="ssr:stedsnr" v="516572" />
		<tag k="waterway" v="stream" />
	</node>
	<node id="-742090" lat="63.0339972264" lon="11.699891664">
		<tag k="name" v="Fiskbekken" />
		<tag k="ssr:stedsnr" v="516564" />
		<tag k="waterway" v="stream" />
	</node>
	<node id="-742068" lat="63.1725555558" lon="11.7918500081">
		<tag k="name" v="Storrybekken" />
		<tag k="ssr:stedsnr" v="503556" />
		<tag k="waterway" v="stream" />
	</node>
	<node id="-742061" lat="62.8713555585" lon="11.8781499913">
		<tag k="name" v="Hyllbekken" />
		<tag k="ssr:stedsnr" v="498807" />
		<tag k="waterway" v="stream" />
	</node>
	<node id="-742060" lat="62.8887388916" lon="11.8670027683">
		<tag k="name" v="Rybekken" />
		<tag k="ssr:stedsnr" v="498801" />
		<tag k="waterway" v="stream" />
	</node>
	<node id="-742059" lat="62.8458388921" lon="11.8680249923">
		<tag k="name" v="Toraldsvika" />
		<tag k="natural" v="bay" />
		<tag k="ssr:stedsnr" v="376813" />
	</node>
	<node id="-742057" lat="62.873719448" lon="11.7963305531">
		<tag k="name" v="Ystesosen" />
		<tag k="natural" v="water" />
		<tag k="ssr:stedsnr" v="376806" />
	</node>
	<node id="-742054" lat="63.0871250007" lon="11.9040083394">
		<tag k="name" v="Esandtjønna - Raavtejaevrie" />
		<tag k="name:no" v="Esandtjønna" />
		<tag k="name:sma" v="Raavtejaevrie" />
		<tag k="natural" v="water" />
		<tag k="ssr:stedsnr" v="376438" />
	</node>
	<node id="-742051" lat="63.0900055524" lon="11.9810138891">
		<tag k="name" v="Esandsjøen - Saantenjaevrie" />
		<tag k="name:no" v="Esandsjøen" />
		<tag k="name:sma" v="Saantenjaevrie" />
		<tag k="natural" v="water" />
		<tag k="ssr:stedsnr" v="376426" />
		<tag k="water" v="lake" />
	</node>
	<node id="-742050" lat="63.137299998" lon="11.7893277796">
		<tag k="name" v="Kranka - Kraanka" />
		<tag k="name:no" v="Kranka" />
		<tag k="name:sma" v="Kraanka" />
		<tag k="ssr:stedsnr" v="376422" />
		<tag k="waterway" v="stream" />
	</node>
	<node id="-742044" lat="63.0619277753" lon="11.3823499974">
		<tag k="name" v="Hotjønnan" />
		<tag k="natural" v="water" />
		<tag k="ssr:stedsnr" v="498365" />
	</node>
	<node id="-742038" lat="63.0703027799" lon="11.5410833433">
		<tag k="name" v="Væla" />
		<tag k="ssr:stedsnr" v="376302" />
		<tag k="waterway" v="river" />
	</node>
	<node id="-742037" lat="62.7831138891" lon="12.0407083356">
		<tag k="name" v="Grønsjøen" />
		<tag k="natural" v="water" />
		<tag k="ssr:stedsnr" v="497818" />
	</node>
	<node id="-742030" lat="63.0604583337" lon="12.073933325">
		<tag k="name" v="Fiskåa - Åarkanjohke" />
		<tag k="name:no" v="Fiskåa" />
		<tag k="name:sma" v="Åarkanjohke" />
		<tag k="ssr:stedsnr" v="497414" />
		<tag k="waterway" v="river" />
	</node>
	<node id="-742028" lat="63.0921861081" lon="12.0611000026">
		<tag k="name" v="Syndre Remslibekken" />
		<tag k="ssr:stedsnr" v="497400" />
		<tag k="waterway" v="stream" />
	</node>
	<node id="-742024" lat="62.9767027786" lon="11.6319749911">
		<tag k="name" v="Svartåsjøen" />
		<tag k="natural" v="water" />
		<tag k="ssr:stedsnr" v="497230" />
	</node>
	<node id="-742022" lat="62.9925944471" lon="11.5524749913">
		<tag k="name" v="Henkrokfossen" />
		<tag k="natural" v="waterfall" />
		<tag k="ssr:stedsnr" v="497201" />
	</node>
	<node id="-742021" lat="62.9363361086" lon="11.6567694503">
		<tag k="name" v="Blåhåmmårtjønna" />
		<tag k="natural" v="water" />
		<tag k="ssr:stedsnr" v="497194" />
	</node>
	<node id="-742017" lat="62.9921666684" lon="11.7381138987">
		<tag k="name" v="Brautbekken" />
		<tag k="ssr:stedsnr" v="334906" />
		<tag k="waterway" v="stream" />
	</node>
	<node id="-742007" lat="62.8977416655" lon="11.9590388809">
		<tag k="alt_name" v="Rotåa;Rotåa, østre" />
		<tag k="name" v="Østre Rotåa" />
		<tag k="ssr:stedsnr" v="316815" />
		<tag k="waterway" v="stream" />
	</node>
	<node id="-741999" lat="63.0073777794" lon="11.5602444433">
		<tag k="name" v="Dansbakktjønnan" />
		<tag k="natural" v="water" />
		<tag k="ssr:stedsnr" v="315357" />
	</node>
	<node id="-741996" lat="63.0524694426" lon="12.0956027736">
		<tag k="name" v="Syndre Fiskåa" />
		<tag k="ssr:stedsnr" v="315412" />
		<tag k="waterway" v="river" />
	</node>
	<node id="-741989" lat="63.0761805553" lon="11.3689416684">
		<tag k="name" v="Svarttjønna" />
		<tag k="natural" v="water" />
		<tag k="ssr:stedsnr" v="273973" />
	</node>
	<node id="-741981" lat="63.0473861102" lon="11.768600003">
		<tag k="name" v="Gravbakkbekken" />
		<tag k="ssr:stedsnr" v="273610" />
		<tag k="waterway" v="stream" />
	</node>
	<node id="-741976" lat="62.9150861135" lon="11.8939416647">
		<tag k="name" v="Stugguvollbekken" />
		<tag k="ssr:stedsnr" v="455942" />
		<tag k="waterway" v="stream" />
	</node>
	<node id="-741975" lat="62.9103805526" lon="11.8932416752">
		<tag k="name" v="Rotåa" />
		<tag k="ssr:stedsnr" v="455940" />
		<tag k="waterway" v="river" />
	</node>
	<node id="-741972" lat="63.1358194415" lon="11.7124583345">
		<tag k="name" v="Løva" />
		<tag k="ssr:stedsnr" v="455873" />
		<tag k="waterway" v="river" />
	</node>
	<node id="-741969" lat="63.0543249968" lon="11.3549138937">
		<tag k="name" v="Gjettjønnloken" />
		<tag k="natural" v="water" />
		<tag k="ssr:stedsnr" v="455837" />
	</node>
	<node id="-741966" lat="63.0727500005" lon="11.62676111">
		<tag k="name" v="Gudmundbekken" />
		<tag k="ssr:stedsnr" v="455793" />
		<tag k="waterway" v="stream" />
	</node>
	<node id="-741964" lat="63.1167722268" lon="11.6358583263">
		<tag k="name" v="Silderbekken" />
		<tag k="ssr:stedsnr" v="455756" />
		<tag k="waterway" v="stream" />
	</node>
	<node id="-741959" lat="63.0510861079" lon="11.711991668">
		<tag k="name" v="Blisrerbekken" />
		<tag k="ssr:stedsnr" v="455642" />
		<tag k="waterway" v="stream" />
	</node>
	<node id="-741953" lat="63.0216694408" lon="11.6761750044">
		<tag k="name" v="Lomtjønna" />
		<tag k="natural" v="water" />
		<tag k="ssr:stedsnr" v="455591" />
	</node>
	<node id="-741952" lat="63.0068527746" lon="11.671069441">
		<tag k="name" v="Gammelåa" />
		<tag k="ssr:stedsnr" v="455582" />
		<tag k="waterway" v="river" />
	</node>
	<node id="-741945" lat="63.051652781" lon="11.4570472192">
		<tag k="name" v="Gjardabekken" />
		<tag k="ssr:stedsnr" v="455520" />
		<tag k="waterway" v="stream" />
	</node>
	<node id="-741943" lat="63.0545138883" lon="11.4341444368">
		<tag k="name" v="Hynna" />
		<tag k="ssr:stedsnr" v="455516" />
		<tag k="waterway" v="river" />
	</node>
	<node id="-741937" lat="62.9528055554" lon="11.8934555471">
		<tag k="name" v="Stortjønna" />
		<tag k="natural" v="water" />
		<tag k="ssr:stedsnr" v="255973" />
	</node>
	<node id="-741936" lat="63.1108888847" lon="12.0251250088">
		<tag k="name" v="Djupholmvika" />
		<tag k="natural" v="bay" />
		<tag k="ssr:stedsnr" v="255413" />
	</node>
	<node id="-741934" lat="62.9405249971" lon="11.5255861167">
		<tag k="name" v="Veunda" />
		<tag k="ssr:stedsnr" v="255212" />
		<tag k="waterway" v="river" />
	</node>
	<node id="-741925" lat="63.0543583295" lon="11.3402416604">
		<tag k="name" v="Øvre Støttjønna" />
		<tag k="natural" v="water" />
		<tag k="ssr:stedsnr" v="445459" />
	</node>
	<node id="-741924" lat="62.9269444412" lon="11.9429249939">
		<tag k="name" v="Storbekken" />
		<tag k="ssr:stedsnr" v="213918" />
		<tag k="waterway" v="stream" />
	</node>
	<node id="-741914" lat="63.038238889" lon="11.3220583299">
		<tag k="name" v="Styggbekken" />
		<tag k="ssr:stedsnr" v="213202" />
		<tag k="waterway" v="stream" />
	</node>
	<node id="-741912" lat="62.846602777" lon="11.8292861027">
		<tag k="name" v="Litllangen" />
		<tag k="natural" v="water" />
		<tag k="ssr:stedsnr" v="195807" />
	</node>
	<node id="-741911" lat="63.0207694451" lon="11.6160777734">
		<tag k="name" v="Ulendesbekken" />
		<tag k="ssr:stedsnr" v="194327" />
		<tag k="waterway" v="stream" />
	</node>
	<node id="-741903" lat="63.0457083373" lon="11.5658499965">
		<tag k="name" v="Vollbekken" />
		<tag k="ssr:stedsnr" v="151541" />
		<tag k="waterway" v="stream" />
	</node>
	<node id="-741901" lat="62.8820833307" lon="11.8364027718">
		<tag k="name" v="Merkesbekken" />
		<tag k="ssr:stedsnr" v="274970" />
		<tag k="waterway" v="stream" />
	</node>
	<node id="-741900" lat="63.055333335" lon="11.4803333432">
		<tag k="name" v="Eggabekken" />
		<tag k="ssr:stedsnr" v="274966" />
		<tag k="waterway" v="stream" />
	</node>
	<node id="-741893" lat="62.9050527738" lon="11.894111119">
		<tag k="name" v="Rotvollvika" />
		<tag k="natural" v="bay" />
		<tag k="ssr:stedsnr" v="274895" />
	</node>
	<node id="-741890" lat="62.89726667" lon="11.8541500007">
		<tag k="name" v="Handtjønna" />
		<tag k="natural" v="water" />
		<tag k="ssr:stedsnr" v="274885" />
	</node>
	<node id="-741888" lat="62.919380553" lon="11.9197972168">
		<tag k="name" v="Østre Rotåtjønna" />
		<tag k="natural" v="water" />
		<tag k="ssr:stedsnr" v="274879" />
	</node>
	<node id="-741878" lat="63.0932194403" lon="11.6740833427">
		<tag k="name" v="Kleggmyrbekken" />
		<tag k="ssr:stedsnr" v="273783" />
		<tag k="waterway" v="stream" />
	</node>
	<node id="-741876" lat="63.0534194445" lon="11.7042611059">
		<tag k="name" v="Kjøllbekken" />
		<tag k="ssr:stedsnr" v="273693" />
		<tag k="waterway" v="stream" />
	</node>
	<node id="-741871" lat="63.0940972223" lon="11.7514499934">
		<tag k="name" v="Morbekken" />
		<tag k="ssr:stedsnr" v="273205" />
		<tag k="waterway" v="stream" />
	</node>
	<node id="-741870" lat="63.1814638895" lon="11.7914083341">
		<tag k="name" v="Kaldveltbekken" />
		<tag k="ssr:stedsnr" v="273198" />
		<tag k="waterway" v="stream" />
	</node>
	<node id="-741868" lat="63.0265277808" lon="11.3848138902">
		<tag k="name" v="Nauttjønnbekken" />
		<tag k="ssr:stedsnr" v="133331" />
		<tag k="waterway" v="stream" />
	</node>
	<node id="-741867" lat="63.043155554" lon="11.3300750065">
		<tag k="name" v="Storlibekken" />
		<tag k="ssr:stedsnr" v="133327" />
		<tag k="waterway" v="stream" />
	</node>
	<node id="-741860" lat="63.0424250045" lon="11.7876694396">
		<tag k="name" v="Ristjønna" />
		<tag k="natural" v="water" />
		<tag k="ssr:stedsnr" v="263622" />
	</node>
	<node id="-741852" lat="63.0014611094" lon="11.8338527711">
		<tag k="name" v="Nylaugbekken" />
		<tag k="ssr:stedsnr" v="263102" />
		<tag k="waterway" v="river" />
	</node>
	<node id="-741851" lat="63.0492749966" lon="11.7345611144">
		<tag k="name" v="Storfossen" />
		<tag k="natural" v="waterfall" />
		<tag k="ssr:stedsnr" v="262518" />
	</node>
	<node id="-741846" lat="62.9672666713" lon="11.9204999926">
		<tag k="name" v="Falkhyttjønna" />
		<tag k="natural" v="water" />
		<tag k="ssr:stedsnr" v="255981" />
	</node>
	<node id="-741841" lat="63.0079555537" lon="11.8837805575">
		<tag k="name" v="Merkesbekken" />
		<tag k="ssr:stedsnr" v="255444" />
		<tag k="waterway" v="stream" />
	</node>
	<node id="-741837" lat="63.0565805569" lon="12.1182138899">
		<tag k="name" v="Nørdre Fiskåa" />
		<tag k="ssr:stedsnr" v="255428" />
		<tag k="waterway" v="river" />
	</node>
	<node id="-741835" lat="63.0527861127" lon="11.3423194475">
		<tag k="name" v="Støttjønnan" />
		<tag k="natural" v="water" />
		<tag k="ssr:stedsnr" v="255338" />
	</node>
	<node id="-741822" lat="63.0811805535" lon="11.6871749945">
		<tag k="name" v="Gammelvollsjøen" />
		<tag k="natural" v="water" />
		<tag k="ssr:stedsnr" v="73304" />
		<tag k="water" v="lake" />
	</node>
	<node id="-741821" lat="63.0769527787" lon="11.7102749936">
		<tag k="name" v="Høvtjønna" />
		<tag k="natural" v="water" />
		<tag k="ssr:stedsnr" v="73303" />
	</node>
	<node id="-741820" lat="62.9370888896" lon="11.671088898">
		<tag k="name" v="Blåhåmmårbekken" />
		<tag k="ssr:stedsnr" v="73201" />
		<tag k="waterway" v="stream" />
	</node>
	<node id="-741814" lat="62.7986111087" lon="11.9675055558">
		<tag k="name" v="Vigltjønnan" />
		<tag k="natural" v="water" />
		<tag k="ssr:stedsnr" v="12810" />
		<tag k="water" v="lake" />
	</node>
	<node id="-741813" lat="63.0749249982" lon="12.0034999907">
		<tag k="name" v="Rennsøra" />
		<tag k="natural" v="cape" />
		<tag k="ssr:stedsnr" v="12401" />
	</node>
	<node id="-741807" lat="63.0942194448" lon="11.5948166682">
		<tag k="name" v="Enartjønnan" />
		<tag k="natural" v="water" />
		<tag k="ssr:stedsnr" v="12301" />
	</node>
	<node id="-741805" lat="62.9727555528" lon="11.6988000011">
		<tag k="name" v="Tærberstjønna" />
		<tag k="natural" v="water" />
		<tag k="ssr:stedsnr" v="12235" />
	</node>
	<node id="-741804" lat="62.993858331" lon="11.4299416749">
		<tag k="name" v="Storhynna" />
		<tag k="ssr:stedsnr" v="12222" />
		<tag k="waterway" v="river" />
	</node>
</osm>
