<?xml version="1.0" encoding="UTF-8"?>
<osm generator="osmapis" version="0.6">
	<node id="-781343" lat="70.5776909742" lon="23.0713756633">
		<tag k="name" v="Laukvika" />
		<tag k="ssr:date" v="2019-05-31" />
		<tag k="ssr:gruppe" v="veg" />
		<tag k="ssr:hovedgruppe" v="infrastruktur" />
		<tag k="ssr:stedsnr" v="1056240" />
		<tag k="ssr:type" v="adressenavn" />
	</node>
	<node id="-781360" lat="70.5157183432" lon="23.2287746161">
		<tag k="name" v="Skreifjordeidet" />
		<tag k="ssr:date" v="2019-05-31" />
		<tag k="ssr:gruppe" v="veg" />
		<tag k="ssr:hovedgruppe" v="infrastruktur" />
		<tag k="ssr:stedsnr" v="1056262" />
		<tag k="ssr:type" v="adressenavn" />
	</node>
	<node id="-781689" lat="70.6625666712" lon="23.6829415788">
		<tag k="name" v="Hammerfest kommune" />
		<tag k="ssr:date" v="2016-05-10" />
		<tag k="ssr:gruppe" v="administrativeIndelinger" />
		<tag k="ssr:hovedgruppe" v="offentligAdministrasjon" />
		<tag k="ssr:stedsnr" v="147461" />
		<tag k="ssr:type" v="kommune" />
	</node>
	<node id="-781249" lat="70.6662861171" lon="23.6617165881">
		<tag k="name" v="Fuglenes molo" />
		<tag k="ssr:date" v="2016-05-10" />
		<tag k="ssr:gruppe" v="navigasjon" />
		<tag k="ssr:hovedgruppe" v="infrastruktur" />
		<tag k="ssr:stedsnr" v="361663" />
		<tag k="ssr:type" v="lanterne" />
	</node>
	<node id="-782070" lat="70.6196111141" lon="23.6093749231">
		<tag k="name" v="Nordmannsbåen" />
		<tag k="ssr:date" v="2016-05-10" />
		<tag k="ssr:gruppe" v="navigasjon" />
		<tag k="ssr:hovedgruppe" v="infrastruktur" />
		<tag k="ssr:stedsnr" v="517321" />
		<tag k="ssr:type" v="lanterne" />
	</node>
	<node id="-782578" lat="70.6797666736" lon="23.005680483">
		<tag k="name" v="Gammelheim" />
		<tag k="ssr:date" v="2016-05-11" />
		<tag k="ssr:gruppe" v="veg" />
		<tag k="ssr:hovedgruppe" v="infrastruktur" />
		<tag k="ssr:stedsnr" v="849302" />
		<tag k="ssr:type" v="adressetilleggsnavn" />
	</node>
	<node id="-781425" lat="70.4957449374" lon="23.4795826344">
		<tag k="name" v="Tindstua" />
		<tag k="ssr:date" v="2019-12-05" />
		<tag k="ssr:gruppe" v="veg" />
		<tag k="ssr:hovedgruppe" v="infrastruktur" />
		<tag k="ssr:stedsnr" v="1073809" />
		<tag k="ssr:type" v="adressenavn" />
	</node>
	<node id="-781424" lat="70.6209844152" lon="23.6648943909">
		<tag k="name" v="Lillevassdalen" />
		<tag k="ssr:date" v="2019-12-05" />
		<tag k="ssr:gruppe" v="veg" />
		<tag k="ssr:hovedgruppe" v="infrastruktur" />
		<tag k="ssr:stedsnr" v="1073808" />
		<tag k="ssr:type" v="adressenavn" />
	</node>
	<node id="-782191" lat="70.6808172813" lon="23.0013870586">
		<tag k="name" v="Fiskenes" />
		<tag k="ssr:date" v="2017-01-31" />
		<tag k="ssr:gruppe" v="veg" />
		<tag k="ssr:hovedgruppe" v="infrastruktur" />
		<tag k="ssr:stedsnr" v="606494" />
		<tag k="ssr:type" v="adressetilleggsnavn" />
	</node>
	<node id="-781422" lat="70.7111084576" lon="23.6895510177">
		<tag k="name" v="Doaresjávri" />
		<tag k="name:se" v="Doaresjávri" />
		<tag k="ssr:date" v="2019-12-05" />
		<tag k="ssr:gruppe" v="veg" />
		<tag k="ssr:hovedgruppe" v="infrastruktur" />
		<tag k="ssr:stedsnr" v="1073806" />
		<tag k="ssr:type" v="adressenavn" />
	</node>
	<node id="-781421" lat="70.4652810379" lon="23.2399054834">
		<tag k="name" v="Straumen" />
		<tag k="ssr:date" v="2019-12-05" />
		<tag k="ssr:gruppe" v="veg" />
		<tag k="ssr:hovedgruppe" v="infrastruktur" />
		<tag k="ssr:stedsnr" v="1073805" />
		<tag k="ssr:type" v="adressenavn" />
	</node>
	<node id="-781420" lat="70.5392667645" lon="22.9256893703">
		<tag k="name" v="Slåttebukt" />
		<tag k="ssr:date" v="2019-12-05" />
		<tag k="ssr:gruppe" v="veg" />
		<tag k="ssr:hovedgruppe" v="infrastruktur" />
		<tag k="ssr:stedsnr" v="1073804" />
		<tag k="ssr:type" v="adressenavn" />
	</node>
	<node id="-781366" lat="70.6844964435" lon="23.2172207917">
		<tag k="name" v="Svartbotn" />
		<tag k="ssr:date" v="2019-05-31" />
		<tag k="ssr:gruppe" v="veg" />
		<tag k="ssr:hovedgruppe" v="infrastruktur" />
		<tag k="ssr:stedsnr" v="1056465" />
		<tag k="ssr:type" v="adressenavn" />
	</node>
	<node id="-781418" lat="70.7213748821" lon="23.7987408021">
		<tag k="name" v="Forsølringen" />
		<tag k="ssr:date" v="2019-07-03" />
		<tag k="ssr:gruppe" v="veg" />
		<tag k="ssr:hovedgruppe" v="infrastruktur" />
		<tag k="ssr:stedsnr" v="1071967" />
		<tag k="ssr:type" v="adressenavn" />
	</node>
	<node id="-781340" lat="70.6594546388" lon="23.1848667282">
		<tag k="name" v="Odden" />
		<tag k="ssr:date" v="2019-05-31" />
		<tag k="ssr:gruppe" v="veg" />
		<tag k="ssr:hovedgruppe" v="infrastruktur" />
		<tag k="ssr:stedsnr" v="1056237" />
		<tag k="ssr:type" v="adressenavn" />
	</node>
	<node id="-781338" lat="70.5917783008" lon="23.0904651214">
		<tag k="name" v="Urelva" />
		<tag k="ssr:date" v="2019-05-31" />
		<tag k="ssr:gruppe" v="veg" />
		<tag k="ssr:hovedgruppe" v="infrastruktur" />
		<tag k="ssr:stedsnr" v="1056235" />
		<tag k="ssr:type" v="adressenavn" />
	</node>
	<node id="-781423" lat="70.6207463578" lon="23.6596775732">
		<tag k="name" v="Saragamvannet" />
		<tag k="ssr:date" v="2019-12-05" />
		<tag k="ssr:gruppe" v="veg" />
		<tag k="ssr:hovedgruppe" v="infrastruktur" />
		<tag k="ssr:stedsnr" v="1073807" />
		<tag k="ssr:type" v="adressenavn" />
	</node>
	<node id="-781342" lat="70.5830427714" lon="23.0712445321">
		<tag k="name" v="Oksevika" />
		<tag k="ssr:date" v="2019-05-31" />
		<tag k="ssr:gruppe" v="veg" />
		<tag k="ssr:hovedgruppe" v="infrastruktur" />
		<tag k="ssr:stedsnr" v="1056239" />
		<tag k="ssr:type" v="adressenavn" />
	</node>
	<node id="-782045" lat="70.6236638914" lon="23.3687610232">
		<tag k="name" v="Grunnvågnes" />
		<tag k="ssr:date" v="2016-05-10" />
		<tag k="ssr:gruppe" v="navigasjon" />
		<tag k="ssr:hovedgruppe" v="infrastruktur" />
		<tag k="ssr:stedsnr" v="505433" />
		<tag k="ssr:type" v="fyrlykt" />
	</node>
	<node id="-781327" lat="70.6672459282" lon="23.700506168">
		<tag k="name" v="Fjellplatået" />
		<tag k="ssr:date" v="2019-05-31" />
		<tag k="ssr:gruppe" v="veg" />
		<tag k="ssr:hovedgruppe" v="infrastruktur" />
		<tag k="ssr:stedsnr" v="1055373" />
		<tag k="ssr:type" v="adressenavn" />
	</node>
	<node id="-781348" lat="70.5298805885" lon="22.9121456642">
		<tag k="name" v="Vatnan" />
		<tag k="ssr:date" v="2019-05-31" />
		<tag k="ssr:gruppe" v="veg" />
		<tag k="ssr:hovedgruppe" v="infrastruktur" />
		<tag k="ssr:stedsnr" v="1056247" />
		<tag k="ssr:type" v="adressenavn" />
	</node>
	<node id="-781334" lat="70.6642557468" lon="23.6983560722">
		<tag k="name" v="Belsen" />
		<tag k="ssr:date" v="2019-05-31" />
		<tag k="ssr:gruppe" v="veg" />
		<tag k="ssr:hovedgruppe" v="infrastruktur" />
		<tag k="ssr:stedsnr" v="1056219" />
		<tag k="ssr:type" v="adressenavn" />
	</node>
	<node id="-781333" lat="70.626074268" lon="23.4001445251">
		<tag k="name" v="Grunnvågen" />
		<tag k="ssr:date" v="2019-05-31" />
		<tag k="ssr:gruppe" v="veg" />
		<tag k="ssr:hovedgruppe" v="infrastruktur" />
		<tag k="ssr:stedsnr" v="1056178" />
		<tag k="ssr:type" v="adressenavn" />
	</node>
	<node id="-781368" lat="70.7303346531" lon="23.357945624">
		<tag k="name" v="Skippernes" />
		<tag k="ssr:date" v="2019-05-31" />
		<tag k="ssr:gruppe" v="veg" />
		<tag k="ssr:hovedgruppe" v="infrastruktur" />
		<tag k="ssr:stedsnr" v="1056468" />
		<tag k="ssr:type" v="adressenavn" />
	</node>
	<node id="-782412" lat="70.8327250006" lon="23.0684082799">
		<tag k="name" v="Store Kammøy" />
		<tag k="old_name" v="Kamøy" />
		<tag k="ssr:date" v="2016-05-11" />
		<tag k="ssr:gruppe" v="navigasjon" />
		<tag k="ssr:hovedgruppe" v="infrastruktur" />
		<tag k="ssr:stedsnr" v="748072" />
		<tag k="ssr:type" v="fyrlykt" />
	</node>
	<node id="-781380" lat="70.8463562095" lon="23.3595258681">
		<tag k="name" v="Kjøttvikvarden" />
		<tag k="ssr:date" v="2019-05-31" />
		<tag k="ssr:gruppe" v="veg" />
		<tag k="ssr:hovedgruppe" v="infrastruktur" />
		<tag k="ssr:stedsnr" v="1056492" />
		<tag k="ssr:type" v="adressenavn" />
	</node>
	<node id="-781379" lat="70.8691857374" lon="23.3146117134">
		<tag k="name" v="Tarhalsen" />
		<tag k="ssr:date" v="2019-05-31" />
		<tag k="ssr:gruppe" v="veg" />
		<tag k="ssr:hovedgruppe" v="infrastruktur" />
		<tag k="ssr:stedsnr" v="1056491" />
		<tag k="ssr:type" v="adressenavn" />
	</node>
	<node id="-781378" lat="70.8388040062" lon="23.3713519719">
		<tag k="name" v="Kjøttvika" />
		<tag k="ssr:date" v="2019-05-31" />
		<tag k="ssr:gruppe" v="veg" />
		<tag k="ssr:hovedgruppe" v="infrastruktur" />
		<tag k="ssr:stedsnr" v="1056490" />
		<tag k="ssr:type" v="adressenavn" />
	</node>
	<node id="-781889" lat="70.6292222221" lon="23.1494971434">
		<tag k="name" v="Slettnesfjorden" />
		<tag k="ssr:date" v="2016-05-10" />
		<tag k="ssr:gruppe" v="navigasjon" />
		<tag k="ssr:hovedgruppe" v="infrastruktur" />
		<tag k="ssr:stedsnr" v="263438" />
		<tag k="ssr:type" v="fyrlykt" />
	</node>
	<node id="-781376" lat="70.6718369746" lon="23.1469617223">
		<tag k="name" v="Jakobbuktvannet" />
		<tag k="ssr:date" v="2019-05-31" />
		<tag k="ssr:gruppe" v="veg" />
		<tag k="ssr:hovedgruppe" v="infrastruktur" />
		<tag k="ssr:stedsnr" v="1056482" />
		<tag k="ssr:type" v="adressenavn" />
	</node>
	<node id="-781375" lat="70.6988706376" lon="22.9117886948">
		<tag k="name" v="Salomonneset" />
		<tag k="ssr:date" v="2019-05-31" />
		<tag k="ssr:gruppe" v="veg" />
		<tag k="ssr:hovedgruppe" v="infrastruktur" />
		<tag k="ssr:stedsnr" v="1056480" />
		<tag k="ssr:type" v="adressenavn" />
	</node>
	<node id="-781374" lat="70.6765953935" lon="22.9449429381">
		<tag k="name" v="Avløysinga" />
		<tag k="ssr:date" v="2019-05-31" />
		<tag k="ssr:gruppe" v="veg" />
		<tag k="ssr:hovedgruppe" v="infrastruktur" />
		<tag k="ssr:stedsnr" v="1056478" />
		<tag k="ssr:type" v="adressenavn" />
	</node>
	<node id="-781373" lat="70.6854820744" lon="22.9147668903">
		<tag k="name" v="Koppardalen" />
		<tag k="ssr:date" v="2019-05-31" />
		<tag k="ssr:gruppe" v="veg" />
		<tag k="ssr:hovedgruppe" v="infrastruktur" />
		<tag k="ssr:stedsnr" v="1056477" />
		<tag k="ssr:type" v="adressenavn" />
	</node>
	<node id="-781372" lat="70.7509363596" lon="22.9515882467">
		<tag k="name" v="Sandøya" />
		<tag k="ssr:date" v="2019-05-31" />
		<tag k="ssr:gruppe" v="veg" />
		<tag k="ssr:hovedgruppe" v="infrastruktur" />
		<tag k="ssr:stedsnr" v="1056475" />
		<tag k="ssr:type" v="adressenavn" />
	</node>
	<node id="-781371" lat="70.6828769606" lon="23.955924011">
		<tag k="name" v="Storvikvannet" />
		<tag k="ssr:date" v="2019-05-31" />
		<tag k="ssr:gruppe" v="veg" />
		<tag k="ssr:hovedgruppe" v="infrastruktur" />
		<tag k="ssr:stedsnr" v="1056473" />
		<tag k="ssr:type" v="adressenavn" />
	</node>
	<node id="-781370" lat="70.6903645715" lon="23.9964830778">
		<tag k="name" v="Storvika" />
		<tag k="ssr:date" v="2019-05-31" />
		<tag k="ssr:gruppe" v="veg" />
		<tag k="ssr:hovedgruppe" v="infrastruktur" />
		<tag k="ssr:stedsnr" v="1056472" />
		<tag k="ssr:type" v="adressenavn" />
	</node>
	<node id="-781369" lat="70.6684187729" lon="23.7446790698">
		<tag k="name" v="Langvannet" />
		<tag k="ssr:date" v="2019-05-31" />
		<tag k="ssr:gruppe" v="veg" />
		<tag k="ssr:hovedgruppe" v="infrastruktur" />
		<tag k="ssr:stedsnr" v="1056471" />
		<tag k="ssr:type" v="adressenavn" />
	</node>
	<node id="-782008" lat="70.7466722223" lon="23.6737415689">
		<tag k="name" v="Mylingen" />
		<tag k="ssr:date" v="2016-05-10" />
		<tag k="ssr:gruppe" v="navigasjon" />
		<tag k="ssr:hovedgruppe" v="infrastruktur" />
		<tag k="ssr:stedsnr" v="505086" />
		<tag k="ssr:type" v="lanterne" />
	</node>
	<node id="-781367" lat="70.7004010695" lon="23.2406221346">
		<tag k="name" v="Lunnhamna" />
		<tag k="ssr:date" v="2019-05-31" />
		<tag k="ssr:gruppe" v="veg" />
		<tag k="ssr:hovedgruppe" v="infrastruktur" />
		<tag k="ssr:stedsnr" v="1056466" />
		<tag k="ssr:type" v="adressenavn" />
	</node>
	<node id="-782646" lat="70.7876777788" lon="23.505033258">
		<tag k="name" v="Litlenæringen" />
		<tag k="ssr:date" v="2016-05-11" />
		<tag k="ssr:gruppe" v="navigasjon" />
		<tag k="ssr:hovedgruppe" v="infrastruktur" />
		<tag k="ssr:stedsnr" v="906767" />
		<tag k="ssr:type" v="fyrlykt" />
	</node>
	<node id="-781365" lat="70.5258775585" lon="23.1507323482">
		<tag k="name" v="Jonsbukta" />
		<tag k="ssr:date" v="2019-05-31" />
		<tag k="ssr:gruppe" v="veg" />
		<tag k="ssr:hovedgruppe" v="infrastruktur" />
		<tag k="ssr:stedsnr" v="1056267" />
		<tag k="ssr:type" v="adressenavn" />
	</node>
	<node id="-781364" lat="70.523396015" lon="23.1595842884">
		<tag k="name" v="Rastaby" />
		<tag k="ssr:date" v="2019-05-31" />
		<tag k="ssr:gruppe" v="veg" />
		<tag k="ssr:hovedgruppe" v="infrastruktur" />
		<tag k="ssr:stedsnr" v="1056266" />
		<tag k="ssr:type" v="adressenavn" />
	</node>
	<node id="-781363" lat="70.4968670443" lon="23.1466715188">
		<tag k="name" v="Kalvebukta" />
		<tag k="ssr:date" v="2019-05-31" />
		<tag k="ssr:gruppe" v="veg" />
		<tag k="ssr:hovedgruppe" v="infrastruktur" />
		<tag k="ssr:stedsnr" v="1056265" />
		<tag k="ssr:type" v="adressenavn" />
	</node>
	<node id="-781362" lat="70.4551836768" lon="23.206804113">
		<tag k="name" v="Straumvannene" />
		<tag k="ssr:date" v="2019-05-31" />
		<tag k="ssr:gruppe" v="veg" />
		<tag k="ssr:hovedgruppe" v="infrastruktur" />
		<tag k="ssr:stedsnr" v="1056264" />
		<tag k="ssr:type" v="adressenavn" />
	</node>
	<node id="-781361" lat="70.5129352097" lon="23.0844307905">
		<tag k="name" v="Seines" />
		<tag k="ssr:date" v="2019-05-31" />
		<tag k="ssr:gruppe" v="veg" />
		<tag k="ssr:hovedgruppe" v="infrastruktur" />
		<tag k="ssr:stedsnr" v="1056263" />
		<tag k="ssr:type" v="adressenavn" />
	</node>
	<node id="-782768" lat="68.4849327361" lon="16.2297866207">
		<tag k="fixme" v="multiple name tags, choose one and add the other to alt_name" />
		<tag k="name" v="Nord-Noreg;Nord-Norge" />
		<tag k="ssr:date" v="2017-05-18" />
		<tag k="ssr:gruppe" v="administrativeIndelinger" />
		<tag k="ssr:hovedgruppe" v="offentligAdministrasjon" />
		<tag k="ssr:stedsnr" v="976106" />
		<tag k="ssr:type" v="annenAdministrativInndeling" />
	</node>
	<node id="-781359" lat="70.5146152255" lon="23.1700344202">
		<tag k="name" v="Gåsenga" />
		<tag k="ssr:date" v="2019-05-31" />
		<tag k="ssr:gruppe" v="veg" />
		<tag k="ssr:hovedgruppe" v="infrastruktur" />
		<tag k="ssr:stedsnr" v="1056261" />
		<tag k="ssr:type" v="adressenavn" />
	</node>
	<node id="-781358" lat="70.5021443318" lon="23.1585522629">
		<tag k="name" v="Hamnebukta" />
		<tag k="ssr:date" v="2019-05-31" />
		<tag k="ssr:gruppe" v="veg" />
		<tag k="ssr:hovedgruppe" v="infrastruktur" />
		<tag k="ssr:stedsnr" v="1056260" />
		<tag k="ssr:type" v="adressenavn" />
	</node>
	<node id="-781357" lat="70.5346687999" lon="23.3434845799">
		<tag k="name" v="Veggvika" />
		<tag k="ssr:date" v="2019-05-31" />
		<tag k="ssr:gruppe" v="veg" />
		<tag k="ssr:hovedgruppe" v="infrastruktur" />
		<tag k="ssr:stedsnr" v="1056259" />
		<tag k="ssr:type" v="adressenavn" />
	</node>
	<node id="-781356" lat="70.5190429911" lon="23.3434880241">
		<tag k="name" v="Tverrfjordvannet" />
		<tag k="ssr:date" v="2019-05-31" />
		<tag k="ssr:gruppe" v="veg" />
		<tag k="ssr:hovedgruppe" v="infrastruktur" />
		<tag k="ssr:stedsnr" v="1056258" />
		<tag k="ssr:type" v="adressenavn" />
	</node>
	<node id="-781426" lat="70.6552486311" lon="22.8747528016">
		<tag k="name" v="Steinvannet" />
		<tag k="ssr:date" v="2019-05-31" />
		<tag k="ssr:gruppe" v="veg" />
		<tag k="ssr:hovedgruppe" v="infrastruktur" />
		<tag k="ssr:stedsnr" v="1056479" />
		<tag k="ssr:type" v="adressenavn" />
	</node>
	<node id="-781354" lat="70.5147975346" lon="23.2063603108">
		<tag k="name" v="Sandan" />
		<tag k="ssr:date" v="2019-05-31" />
		<tag k="ssr:gruppe" v="veg" />
		<tag k="ssr:hovedgruppe" v="infrastruktur" />
		<tag k="ssr:stedsnr" v="1056256" />
		<tag k="ssr:type" v="adressenavn" />
	</node>
	<node id="-781353" lat="70.5094303409" lon="23.3875787349">
		<tag k="name" v="Storvannet" />
		<tag k="ssr:date" v="2019-05-31" />
		<tag k="ssr:gruppe" v="veg" />
		<tag k="ssr:hovedgruppe" v="infrastruktur" />
		<tag k="ssr:stedsnr" v="1056255" />
		<tag k="ssr:type" v="adressenavn" />
	</node>
	<node id="-781352" lat="70.6108770868" lon="23.4606604072">
		<tag k="name" v="Fagervika" />
		<tag k="ssr:date" v="2019-05-31" />
		<tag k="ssr:gruppe" v="veg" />
		<tag k="ssr:hovedgruppe" v="infrastruktur" />
		<tag k="ssr:stedsnr" v="1056253" />
		<tag k="ssr:type" v="adressenavn" />
	</node>
	<node id="-781351" lat="70.5544328527" lon="22.7235922326">
		<tag k="name" v="Ramnes" />
		<tag k="ssr:date" v="2019-05-31" />
		<tag k="ssr:gruppe" v="veg" />
		<tag k="ssr:hovedgruppe" v="infrastruktur" />
		<tag k="ssr:stedsnr" v="1056250" />
		<tag k="ssr:type" v="adressenavn" />
	</node>
	<node id="-781350" lat="70.5197490125" lon="22.8371263911">
		<tag k="name" v="Gåshopen" />
		<tag k="ssr:date" v="2019-05-31" />
		<tag k="ssr:gruppe" v="veg" />
		<tag k="ssr:hovedgruppe" v="infrastruktur" />
		<tag k="ssr:stedsnr" v="1056249" />
		<tag k="ssr:type" v="adressenavn" />
	</node>
	<node id="-781349" lat="70.5581267796" lon="22.8934548392">
		<tag k="name" v="Husfjorden" />
		<tag k="ssr:date" v="2019-05-31" />
		<tag k="ssr:gruppe" v="veg" />
		<tag k="ssr:hovedgruppe" v="infrastruktur" />
		<tag k="ssr:stedsnr" v="1056248" />
		<tag k="ssr:type" v="adressenavn" />
	</node>
	<node id="-782244" lat="70.6671166688" lon="23.654841573">
		<tag k="name" v="Fuglenes" />
		<tag k="ssr:date" v="2016-05-10" />
		<tag k="ssr:gruppe" v="navigasjon" />
		<tag k="ssr:hovedgruppe" v="infrastruktur" />
		<tag k="ssr:stedsnr" v="627008" />
		<tag k="ssr:type" v="fyrlykt" />
	</node>
	<node id="-781347" lat="70.5336018195" lon="22.9305720007">
		<tag k="name" v="Vatnhamna" />
		<tag k="ssr:date" v="2019-05-31" />
		<tag k="ssr:gruppe" v="veg" />
		<tag k="ssr:hovedgruppe" v="infrastruktur" />
		<tag k="ssr:stedsnr" v="1056246" />
		<tag k="ssr:type" v="adressenavn" />
	</node>
	<node id="-781346" lat="70.4012379295" lon="22.9394345456">
		<tag k="name" v="Bårdfjorden" />
		<tag k="ssr:date" v="2019-05-31" />
		<tag k="ssr:gruppe" v="veg" />
		<tag k="ssr:hovedgruppe" v="infrastruktur" />
		<tag k="ssr:stedsnr" v="1056244" />
		<tag k="ssr:type" v="adressenavn" />
	</node>
	<node id="-781345" lat="70.6589906179" lon="23.1621277227">
		<tag k="name" v="Storbukta" />
		<tag k="ssr:date" v="2019-05-31" />
		<tag k="ssr:gruppe" v="veg" />
		<tag k="ssr:hovedgruppe" v="infrastruktur" />
		<tag k="ssr:stedsnr" v="1056242" />
		<tag k="ssr:type" v="adressenavn" />
	</node>
	<node id="-781344" lat="70.5712815907" lon="23.0569786212">
		<tag k="name" v="Fella" />
		<tag k="ssr:date" v="2019-05-31" />
		<tag k="ssr:gruppe" v="veg" />
		<tag k="ssr:hovedgruppe" v="infrastruktur" />
		<tag k="ssr:stedsnr" v="1056241" />
		<tag k="ssr:type" v="adressenavn" />
	</node>
	<node id="-782111" lat="70.6742194426" lon="22.9703916087">
		<tag k="name" v="Skarvskjæret" />
		<tag k="old_name" v="Skarvskjeret" />
		<tag k="ssr:date" v="2016-05-10" />
		<tag k="ssr:gruppe" v="navigasjon" />
		<tag k="ssr:hovedgruppe" v="infrastruktur" />
		<tag k="ssr:stedsnr" v="565433" />
		<tag k="ssr:type" v="fyrlykt" />
	</node>
	<node id="-782494" lat="70.6649250032" lon="23.6775610286">
		<tag k="name" v="Batterimoloen" />
		<tag k="ssr:date" v="2016-05-11" />
		<tag k="ssr:gruppe" v="navigasjon" />
		<tag k="ssr:hovedgruppe" v="infrastruktur" />
		<tag k="ssr:stedsnr" v="786662" />
		<tag k="ssr:type" v="lanterne" />
	</node>
	<node id="-781341" lat="70.5854077576" lon="23.0095777182">
		<tag k="name" v="Hamnefjorden" />
		<tag k="ssr:date" v="2019-05-31" />
		<tag k="ssr:gruppe" v="veg" />
		<tag k="ssr:hovedgruppe" v="infrastruktur" />
		<tag k="ssr:stedsnr" v="1056238" />
		<tag k="ssr:type" v="adressenavn" />
	</node>
	<node id="-781724" lat="70.5552777762" lon="23.5405332463">
		<tag k="name" v="Kristinehamn, Søre" />
		<tag k="ssr:date" v="2016-05-10" />
		<tag k="ssr:gruppe" v="navigasjon" />
		<tag k="ssr:hovedgruppe" v="infrastruktur" />
		<tag k="ssr:stedsnr" v="179678" />
		<tag k="ssr:type" v="lanterne" />
	</node>
	<node id="-781339" lat="70.5859178916" lon="23.0754334992">
		<tag k="name" v="Nordbukta" />
		<tag k="ssr:date" v="2019-05-31" />
		<tag k="ssr:gruppe" v="veg" />
		<tag k="ssr:hovedgruppe" v="infrastruktur" />
		<tag k="ssr:stedsnr" v="1056236" />
		<tag k="ssr:type" v="adressenavn" />
	</node>
	<node id="-782746" lat="70.555802784" lon="23.541086023">
		<tag k="name" v="Kristinehamn, Nordre" />
		<tag k="ssr:date" v="2016-05-11" />
		<tag k="ssr:gruppe" v="navigasjon" />
		<tag k="ssr:hovedgruppe" v="infrastruktur" />
		<tag k="ssr:stedsnr" v="968728" />
		<tag k="ssr:type" v="lanterne" />
	</node>
	<node id="-782745" lat="70.9175249993" lon="23.6775332543">
		<tag k="name" v="Skipsholmen" />
		<tag k="ssr:date" v="2016-05-11" />
		<tag k="ssr:gruppe" v="navigasjon" />
		<tag k="ssr:hovedgruppe" v="infrastruktur" />
		<tag k="ssr:stedsnr" v="968406" />
		<tag k="ssr:type" v="fyrlykt" />
	</node>
	<node id="-781336" lat="70.6076560868" lon="23.0943580971">
		<tag k="name" v="Gjeltindneset" />
		<tag k="ssr:date" v="2019-05-31" />
		<tag k="ssr:gruppe" v="veg" />
		<tag k="ssr:hovedgruppe" v="infrastruktur" />
		<tag k="ssr:stedsnr" v="1056233" />
		<tag k="ssr:type" v="adressenavn" />
	</node>
	<node id="-781335" lat="70.6287241889" lon="23.0881137921">
		<tag k="name" v="Slettnesfjorden" />
		<tag k="ssr:date" v="2019-05-31" />
		<tag k="ssr:gruppe" v="veg" />
		<tag k="ssr:hovedgruppe" v="infrastruktur" />
		<tag k="ssr:stedsnr" v="1056232" />
		<tag k="ssr:type" v="adressenavn" />
	</node>
	<node id="-782230" lat="70.602375" lon="23.5957138068">
		<tag k="name" v="Strømmen" />
		<tag k="ssr:date" v="2016-05-10" />
		<tag k="ssr:gruppe" v="navigasjon" />
		<tag k="ssr:hovedgruppe" v="infrastruktur" />
		<tag k="ssr:stedsnr" v="626238" />
		<tag k="ssr:type" v="fyrlykt" />
	</node>
	<node id="-781337" lat="70.5971170732" lon="23.0945540441">
		<tag k="name" v="Nordbø" />
		<tag k="ssr:date" v="2019-05-31" />
		<tag k="ssr:gruppe" v="veg" />
		<tag k="ssr:hovedgruppe" v="infrastruktur" />
		<tag k="ssr:stedsnr" v="1056234" />
		<tag k="ssr:type" v="adressenavn" />
	</node>
	<node id="-781332" lat="70.6071031688" lon="23.5444444222">
		<tag k="name" v="Rásláttat" />
		<tag k="ssr:date" v="2019-05-31" />
		<tag k="ssr:gruppe" v="veg" />
		<tag k="ssr:hovedgruppe" v="infrastruktur" />
		<tag k="ssr:stedsnr" v="1056174" />
		<tag k="ssr:type" v="adressenavn" />
	</node>
	<node id="-781331" lat="70.6203162708" lon="23.4770308113">
		<tag k="name" v="Ersvika" />
		<tag k="ssr:date" v="2019-05-31" />
		<tag k="ssr:gruppe" v="veg" />
		<tag k="ssr:hovedgruppe" v="infrastruktur" />
		<tag k="ssr:stedsnr" v="1056173" />
		<tag k="ssr:type" v="adressenavn" />
	</node>
	<node id="-781329" lat="70.6211332678" lon="23.8311928561">
		<tag k="name" v="Montenegrovannet" />
		<tag k="ssr:date" v="2019-05-31" />
		<tag k="ssr:gruppe" v="veg" />
		<tag k="ssr:hovedgruppe" v="infrastruktur" />
		<tag k="ssr:stedsnr" v="1056084" />
		<tag k="ssr:type" v="adressenavn" />
	</node>
	<node id="-781328" lat="70.6293856349" lon="23.6973092366">
		<tag k="name" v="Dolomittveien" />
		<tag k="ssr:date" v="2019-05-31" />
		<tag k="ssr:gruppe" v="veg" />
		<tag k="ssr:hovedgruppe" v="infrastruktur" />
		<tag k="ssr:stedsnr" v="1055676" />
		<tag k="ssr:type" v="adressenavn" />
	</node>
	<node id="-782095" lat="70.8690833322" lon="23.3148276985">
		<tag k="name" v="Tarhalsen" />
		<tag k="ssr:date" v="2016-05-10" />
		<tag k="ssr:gruppe" v="navigasjon" />
		<tag k="ssr:hovedgruppe" v="infrastruktur" />
		<tag k="ssr:stedsnr" v="565102" />
		<tag k="ssr:type" v="fyrlykt" />
	</node>
	<node id="-782733" lat="70.5718527782" lon="23.3459276909">
		<tag k="name" v="Vinna" />
		<tag k="ssr:date" v="2016-05-11" />
		<tag k="ssr:gruppe" v="navigasjon" />
		<tag k="ssr:hovedgruppe" v="infrastruktur" />
		<tag k="ssr:stedsnr" v="943767" />
		<tag k="ssr:type" v="fyrlykt" />
	</node>
	<node id="-782091" lat="70.5486388915" lon="23.1634332549">
		<tag k="name" v="Kårhamn" />
		<tag k="ssr:date" v="2016-05-10" />
		<tag k="ssr:gruppe" v="navigasjon" />
		<tag k="ssr:hovedgruppe" v="infrastruktur" />
		<tag k="ssr:stedsnr" v="565091" />
		<tag k="ssr:type" v="fyrlykt" />
	</node>
	<node id="-781192" lat="70.7609944479" lon="23.0882610374">
		<tag k="name" v="Skarvfjord" />
		<tag k="ssr:date" v="2016-05-10" />
		<tag k="ssr:gruppe" v="navigasjon" />
		<tag k="ssr:hovedgruppe" v="infrastruktur" />
		<tag k="ssr:stedsnr" v="323183" />
		<tag k="ssr:type" v="fyrlykt" />
	</node>
	<node id="-781165" lat="70.654975001" lon="23.4631360273">
		<tag k="name" v="Håja" />
		<tag k="ssr:date" v="2016-05-10" />
		<tag k="ssr:gruppe" v="navigasjon" />
		<tag k="ssr:hovedgruppe" v="infrastruktur" />
		<tag k="ssr:stedsnr" v="300650" />
		<tag k="ssr:type" v="fyrlykt" />
	</node>
	<node id="-781377" lat="70.8117897749" lon="23.4077795237">
		<tag k="name" v="Mefjord" />
		<tag k="ssr:date" v="2019-05-31" />
		<tag k="ssr:gruppe" v="veg" />
		<tag k="ssr:hovedgruppe" v="infrastruktur" />
		<tag k="ssr:stedsnr" v="1056489" />
		<tag k="ssr:type" v="adressenavn" />
	</node>
	<node id="-782211" lat="70.5208944468" lon="22.9319360536">
		<tag k="name" v="Vatnholmen" />
		<tag k="ssr:date" v="2016-05-10" />
		<tag k="ssr:gruppe" v="navigasjon" />
		<tag k="ssr:hovedgruppe" v="infrastruktur" />
		<tag k="ssr:stedsnr" v="626097" />
		<tag k="ssr:type" v="fyrlykt" />
	</node>
	<node id="-781355" lat="70.5253155367" lon="23.3241182714">
		<tag k="name" v="Tverrfjorden" />
		<tag k="ssr:date" v="2019-05-31" />
		<tag k="ssr:gruppe" v="veg" />
		<tag k="ssr:hovedgruppe" v="infrastruktur" />
		<tag k="ssr:stedsnr" v="1056257" />
		<tag k="ssr:type" v="adressenavn" />
	</node>
</osm>
