<?xml version="1.0" encoding="UTF-8"?>
<osm version="0.6" generator="osmapis">
	<node lat="61.6402426504628" lon="12.275628462162366" id="-27510">
		<tag k="historic" v="boundary_stone" />
		<tag k="loc_name" v="Litlfjellsrøysa" />
		<tag k="man_made" v="cairn" />
		<tag k="name" v="Lillefjellsrøysa" />
		<tag k="old_name" v="Lislefjelds Røset" />
		<tag k="place" v="locality" />
		<tag k="ssr:stedsnr" v="231013" />
	</node>
	<node lat="62.01741943783689" lon="12.224728562661731" id="-27511">
		<tag k="historic" v="boundary_stone" />
		<tag k="man_made" v="cairn" />
		<tag k="name" v="Fjellgutuskaftrøysa" />
		<tag k="old_name" v="Fieldgutuskaft Røset" />
		<tag k="place" v="locality" />
		<tag k="ssr:stedsnr" v="231067" />
	</node>
	<node lat="62.12005277514157" lon="12.16911388741509" id="-27512">
		<tag k="fixme" v="consider natural=peak for the most distinct mountains in the district" />
		<tag k="name" v="Digerhogna - Goebletjahke" />
		<tag k="name:no" v="Digerhogna" />
		<tag k="name:sma" v="Goebletjahke" />
		<tag k="natural" v="hill" />
		<tag k="place" v="locality" />
		<tag k="ssr:stedsnr" v="10248" />
	</node>
	<node lat="61.646205558970564" lon="11.709288887422215" id="-27513">
		<tag k="fixme" v="consider natural=peak for the most distinct mountains in the district" />
		<tag k="name" v="Gråhøgda" />
		<tag k="natural" v="hill" />
		<tag k="place" v="locality" />
		<tag k="ssr:stedsnr" v="10305" />
	</node>
	<node lat="61.64966110810628" lon="11.77931389082067" id="-27514">
		<tag k="name" v="Tanggjota" />
		<tag k="natural" v="valley" />
		<tag k="place" v="locality" />
		<tag k="ssr:stedsnr" v="10307" />
	</node>
	<node lat="61.68621666811629" lon="11.787327774122714" id="-27515">
		<tag k="name" v="Sætertjønna" />
		<tag k="natural" v="water" />
		<tag k="ssr:stedsnr" v="10329" />
	</node>
	<node lat="61.646366668552304" lon="11.760094446114916" id="-27516">
		<tag k="alt_name" v="Skjærbekkdalen" />
		<tag k="name" v="Skjerbekkdalen" />
		<tag k="natural" v="valley" />
		<tag k="place" v="locality" />
		<tag k="ssr:stedsnr" v="10339" />
	</node>
	<node lat="61.64019999629772" lon="12.275388897330066" id="-27517">
		<tag k="fixme" v="consider natural=peak for the most distinct mountains in the district" />
		<tag k="name" v="Litlfjellet" />
		<tag k="natural" v="hill" />
		<tag k="place" v="locality" />
		<tag k="ssr:stedsnr" v="10484" />
	</node>
	<node lat="61.68754444048054" lon="12.060374997141114" id="-27518">
		<tag k="name" v="Lebladtjønna" />
		<tag k="natural" v="water" />
		<tag k="ssr:stedsnr" v="10733" />
	</node>
	<node lat="61.76235833732236" lon="12.112991659975393" id="-27519">
		<tag k="alt_name" v="Fuglebekken, s" />
		<tag k="name" v="Søndre Fuglebekken" />
		<tag k="ssr:stedsnr" v="10737" />
		<tag k="waterway" v="stream" />
	</node>
	<node lat="61.78595000348236" lon="11.714461109946912" id="-27520">
		<tag k="name" v="Bjørbekktjønna" />
		<tag k="natural" v="water" />
		<tag k="ssr:stedsnr" v="10933" />
	</node>
	<node lat="61.7806003669271" lon="11.777412396604083" id="-27521">
		<tag k="name" v="Flåtjønnan" />
		<tag k="natural" v="water" />
		<tag k="ssr:stedsnr" v="10936" />
		<tag k="water" v="lake" />
	</node>
	<node lat="61.79000000332171" lon="11.799761116287923" id="-27522">
		<tag k="name" v="Varmsbekkroa" />
		<tag k="natural" v="valley" />
		<tag k="place" v="locality" />
		<tag k="ssr:stedsnr" v="10941" />
	</node>
	<node lat="61.87232500369602" lon="12.160255555373908" id="-27523">
		<tag k="alt_name" v="Vestre Lillebo" />
		<tag k="name" v="Veslbu" />
		<tag k="place" v="locality" />
		<tag k="ssr:stedsnr" v="11110" />
	</node>
	<node lat="62.05737777597415" lon="12.023850007464395" id="-27524">
		<tag k="name" v="Storsjøberget" />
		<tag k="natural" v="hill" />
		<tag k="place" v="locality" />
		<tag k="ssr:stedsnr" v="11282" />
	</node>
	<node lat="62.03192499892022" lon="11.818658334013685" id="-27525">
		<tag k="name" v="Risbekken" />
		<tag k="ssr:stedsnr" v="11290" />
		<tag k="waterway" v="stream" />
	</node>
	<node lat="62.052513889192106" lon="11.790708338326363" id="-27526">
		<tag k="name" v="Bjørnfjordvika" />
		<tag k="natural" v="bay" />
		<tag k="ssr:stedsnr" v="11294" />
	</node>
	<node lat="62.123650004176945" lon="11.66470555742844" id="-27527">
		<tag k="fixme" v="consider natural=peak for the most distinct mountains in the district" />
		<tag k="name" v="Mikkelsbrenna" />
		<tag k="natural" v="hill" />
		<tag k="place" v="locality" />
		<tag k="ssr:stedsnr" v="11394" />
	</node>
	<node lat="62.12273333384109" lon="11.624383335213082" id="-27528">
		<tag k="fixme" v="consider natural=peak for the most distinct mountains in the district" />
		<tag k="name" v="Langsjøåsen" />
		<tag k="natural" v="hill" />
		<tag k="place" v="locality" />
		<tag k="ssr:stedsnr" v="11396" />
	</node>
	<node lat="62.197622224619714" lon="11.943630560395162" id="-27529">
		<tag k="name" v="Langodden" />
		<tag k="natural" v="cape" />
		<tag k="ssr:stedsnr" v="11678" />
	</node>
	<node lat="61.83545555956305" lon="12.050027785503861" id="-27530">
		<tag k="name" v="Kvannjota" />
		<tag k="place" v="locality" />
		<tag k="ssr:stedsnr" v="11812" />
	</node>
	<node lat="61.830566664417766" lon="11.97944165741932" id="-27531">
		<tag k="alt_name" v="Hovdkjølen, østre;Hovdkjølen" />
		<tag k="name" v="Østre Hovdkjølen" />
		<tag k="natural" v="wetland" />
		<tag k="ssr:stedsnr" v="11813" />
	</node>
	<node lat="61.830819440903646" lon="12.121149998493221" id="-27532">
		<tag k="name" v="Stortjønna" />
		<tag k="natural" v="water" />
		<tag k="ssr:stedsnr" v="11822" />
	</node>
	<node lat="61.826505555275745" lon="12.149758338713648" id="-27533">
		<tag k="alt_name" v="Tollåa, nordre" />
		<tag k="name" v="Nordre Tollåa" />
		<tag k="ssr:stedsnr" v="11825" />
		<tag k="waterway" v="stream" />
	</node>
	<node lat="61.850550003017055" lon="12.016580554294267" id="-27534">
		<tag k="name" v="Åsheim" />
		<tag k="place" v="farm" />
		<tag k="ssr:stedsnr" v="11828" />
	</node>
	<node lat="61.7792802469319" lon="11.977373064330822" id="-27535">
		<tag k="alt_name" v="Ørnhølet" />
		<tag k="name" v="Ørnholet" />
		<tag k="natural" v="valley" />
		<tag k="place" v="locality" />
		<tag k="ssr:stedsnr" v="11773" />
	</node>
	<node lat="61.81342222396997" lon="11.919236107895092" id="-27536">
		<tag k="name" v="Gammeljordet" />
		<tag k="place" v="farm" />
		<tag k="ssr:stedsnr" v="11780" />
	</node>
	<node lat="61.98570555201117" lon="11.87390555265628" id="-27537">
		<tag k="name" v="Veslbuvikmyra" />
		<tag k="natural" v="wetland" />
		<tag k="ssr:stedsnr" v="11902" />
	</node>
	<node lat="61.989952779078116" lon="11.989638880192436" id="-27538">
		<tag k="alt_name" v="Tolgebekken" />
		<tag k="name" v="Tolgesbekken" />
		<tag k="ssr:stedsnr" v="11922" />
		<tag k="waterway" v="stream" />
	</node>
	<node lat="61.890358336950925" lon="11.758413898438132" id="-27539">
		<tag k="alt_name" v="Øvre Galten" />
		<tag k="name" v="Galten" />
		<tag k="place" v="farm" />
		<tag k="ssr:stedsnr" v="11986" />
	</node>
	<node lat="62.00688332907755" lon="11.750480553266772" id="-27540">
		<tag k="name" v="Stongholmsundet" />
		<tag k="natural" v="strait" />
		<tag k="ssr:stedsnr" v="20748" />
	</node>
	<node lat="61.63563055153429" lon="11.850952781139684" id="-27541">
		<tag k="name" v="Vikholmen" />
		<tag k="natural" v="cape" />
		<tag k="ssr:stedsnr" v="235045" />
	</node>
	<node lat="62.18311666596373" lon="11.85928334032902" id="-27542">
		<tag k="name" v="Rotvikholmen" />
		<tag k="place" v="islet" />
		<tag k="ssr:stedsnr" v="236167" />
	</node>
	<node lat="62.191544440404925" lon="11.867800000847287" id="-27543">
		<tag k="name" v="Stalloddrøstan" />
		<tag k="natural" v="hill" />
		<tag k="place" v="locality" />
		<tag k="ssr:stedsnr" v="236172" />
	</node>
	<node lat="62.17172777367794" lon="11.864883335788033" id="-27544">
		<tag k="name" v="Svartskvampen" />
		<tag k="natural" v="shoal" />
		<tag k="place" v="locality" />
		<tag k="ssr:stedsnr" v="236223" />
	</node>
	<node lat="61.60924722170634" lon="12.035430553633432" id="-27545">
		<tag k="name" v="Røneset" />
		<tag k="natural" v="cape" />
		<tag k="ssr:stedsnr" v="236581" />
	</node>
	<node lat="61.83514166676282" lon="12.038269448978685" id="-27546">
		<tag k="name" v="Storbekken" />
		<tag k="ssr:stedsnr" v="237017" />
		<tag k="waterway" v="stream" />
	</node>
	<node lat="61.881649997179714" lon="11.804463883773998" id="-27547">
		<tag k="name" v="Gråndalen" />
		<tag k="natural" v="valley" />
		<tag k="place" v="locality" />
		<tag k="ssr:stedsnr" v="41116" />
	</node>
	<node lat="61.64677499986509" lon="11.762075008823597" id="-27548">
		<tag k="historic" v="shieling" />
		<tag k="name" v="Nymosætra" />
		<tag k="place" v="isolated_dwelling" />
		<tag k="ssr:stedsnr" v="237133" />
	</node>
	<node lat="61.69713055867176" lon="11.720441660973602" id="-27549">
		<tag k="name" v="Hundsholmen" />
		<tag k="place" v="islet" />
		<tag k="ssr:stedsnr" v="237160" />
	</node>
	<node lat="62.05941388633562" lon="12.002763889919585" id="-27550">
		<tag k="name" v="Kjøråa" />
		<tag k="ssr:stedsnr" v="237174" />
		<tag k="waterway" v="stream" />
	</node>
	<node lat="61.77392500321797" lon="11.932177768916997" id="-27551">
		<tag k="name" v="Nygårdsjota" />
		<tag k="place" v="locality" />
		<tag k="ssr:stedsnr" v="41983" />
	</node>
	<node lat="62.0381333352564" lon="11.668177780252973" id="-27552">
		<tag k="name" v="Granhullet" />
		<tag k="natural" v="water" />
		<tag k="ssr:stedsnr" v="237355" />
	</node>
	<node lat="61.84088611444132" lon="11.88807221463831" id="-27553">
		<tag k="name" v="Jakobsbekken" />
		<tag k="ssr:stedsnr" v="237372" />
		<tag k="waterway" v="stream" />
	</node>
	<node lat="61.6542194424327" lon="12.16127778342121" id="-27554">
		<tag k="fixme" v="consider natural=peak for the most distinct mountains in the district" />
		<tag k="name" v="Gaukåsen" />
		<tag k="natural" v="hill" />
		<tag k="place" v="locality" />
		<tag k="ssr:stedsnr" v="237755" />
	</node>
	<node lat="61.64805277994716" lon="12.153638882060912" id="-27555">
		<tag k="name" v="Vidammen" />
		<tag k="natural" v="water" />
		<tag k="ssr:stedsnr" v="237757" />
		<tag k="water" v="pond" />
	</node>
	<node lat="61.644061108479455" lon="12.177447229524022" id="-27556">
		<tag k="name" v="Storvien" />
		<tag k="natural" v="wetland" />
		<tag k="ssr:stedsnr" v="237760" />
	</node>
	<node lat="61.82974166758095" lon="11.728972228109042" id="-27557">
		<tag k="name" v="Ulvåberget" />
		<tag k="place" v="neighbourhood" />
		<tag k="ssr:stedsnr" v="43925" />
	</node>
	<node lat="62.13875278061073" lon="11.933769435924377" id="-27558">
		<tag k="fixme" v="consider natural=peak for the most distinct mountains in the district" />
		<tag k="name" v="Stygglandet" />
		<tag k="natural" v="hill" />
		<tag k="place" v="locality" />
		<tag k="ssr:stedsnr" v="237919" />
	</node>
	<node lat="62.152599997217465" lon="11.956811111210001" id="-27559">
		<tag k="name" v="Jensloken" />
		<tag k="natural" v="water" />
		<tag k="ssr:stedsnr" v="238100" />
		<tag k="water" v="pond" />
	</node>
	<node lat="62.115980554295476" lon="11.655961103996177" id="-27560">
		<tag k="name" v="Storholmen" />
		<tag k="place" v="islet" />
		<tag k="ssr:stedsnr" v="238026" />
	</node>
	<node lat="61.87176944852867" lon="11.98773055925832" id="-27561">
		<tag k="name" v="Hansbakktjønna" />
		<tag k="natural" v="water" />
		<tag k="ssr:stedsnr" v="238124" />
	</node>
	<node lat="61.675747221774884" lon="11.702491673734347" id="-27562">
		<tag k="fixme" v="consider natural=peak for the most distinct mountains in the district" />
		<tag k="name" v="Hølbekkåsen" />
		<tag k="natural" v="hill" />
		<tag k="place" v="locality" />
		<tag k="ssr:stedsnr" v="238198" />
	</node>
	<node lat="61.92423927975446" lon="11.918889271957843" id="-27563">
		<tag k="name" v="Østre Femundsenden" />
		<tag k="place" v="farm" />
		<tag k="ssr:stedsnr" v="238587" />
	</node>
	<node lat="62.01184722336789" lon="12.179077781761945" id="-27564">
		<tag k="name" v="Kølmilmyra" />
		<tag k="natural" v="wetland" />
		<tag k="ssr:stedsnr" v="238763" />
	</node>
	<node lat="62.01522500269112" lon="12.181055547434857" id="-27565">
		<tag k="name" v="Hammeren" />
		<tag k="natural" v="hill" />
		<tag k="place" v="locality" />
		<tag k="ssr:stedsnr" v="238764" />
	</node>
	<node lat="62.08789999701647" lon="12.133475005239525" id="-27566">
		<tag k="name" v="Rismyra" />
		<tag k="natural" v="wetland" />
		<tag k="ssr:stedsnr" v="238767" />
	</node>
	<node lat="61.79376944307967" lon="11.717486104058995" id="-27567">
		<tag k="name" v="Litløenget" />
		<tag k="place" v="locality" />
		<tag k="ssr:stedsnr" v="238848" />
	</node>
	<node lat="61.70743611380374" lon="12.041472214692654" id="-27568">
		<tag k="name" v="Fantkjerringmyra" />
		<tag k="natural" v="wetland" />
		<tag k="ssr:stedsnr" v="239200" />
	</node>
	<node lat="61.73515000446601" lon="12.019583335674021" id="-27569">
		<tag k="name" v="Svingslåtten" />
		<tag k="place" v="locality" />
		<tag k="ssr:stedsnr" v="239201" />
	</node>
	<node lat="61.60926111494886" lon="12.017563881019873" id="-27570">
		<tag k="name" v="Tverrfjellia" />
		<tag k="natural" v="slope" />
		<tag k="place" v="locality" />
		<tag k="ssr:stedsnr" v="53421" />
	</node>
	<node lat="61.60363777554021" lon="11.990027631264558" id="-27571">
		<tag k="name" v="Litlskora" />
		<tag k="natural" v="valley" />
		<tag k="place" v="locality" />
		<tag k="ssr:stedsnr" v="53423" />
	</node>
	<node lat="61.631719441690535" lon="12.133638885576683" id="-27572">
		<tag k="name" v="Karitjønnan" />
		<tag k="natural" v="water" />
		<tag k="ssr:stedsnr" v="53567" />
		<tag k="water" v="lake" />
	</node>
	<node lat="61.624016663228865" lon="12.195997222701578" id="-27573">
		<tag k="name" v="Støta" />
		<tag k="natural" v="hill" />
		<tag k="place" v="locality" />
		<tag k="ssr:stedsnr" v="53570" />
	</node>
	<node lat="61.80156666565599" lon="12.107319453612645" id="-27574">
		<tag k="name" v="Litlsvarttjønna" />
		<tag k="natural" v="water" />
		<tag k="ssr:stedsnr" v="55053" />
	</node>
	<node lat="62.073088886346" lon="11.72256945112034" id="-27575">
		<tag k="name" v="Bekkjølen" />
		<tag k="natural" v="wetland" />
		<tag k="ssr:stedsnr" v="55367" />
	</node>
	<node lat="61.862744445798675" lon="11.99014165775376" id="-27576">
		<tag k="name" v="Bjørbekktjønna" />
		<tag k="natural" v="water" />
		<tag k="ssr:stedsnr" v="56105" />
	</node>
	<node lat="62.10783333603793" lon="11.67382500711886" id="-27577">
		<tag k="name" v="Måsåegga" />
		<tag k="natural" v="hill" />
		<tag k="place" v="locality" />
		<tag k="ssr:stedsnr" v="56042" />
	</node>
	<node lat="61.80078610872168" lon="11.92375000779062" id="-27578">
		<tag k="name" v="Nordre Sollitjønna" />
		<tag k="natural" v="water" />
		<tag k="ssr:stedsnr" v="56490" />
	</node>
	<node lat="61.67912777616236" lon="11.745663880266507" id="-27579">
		<tag k="name" v="Rankvika" />
		<tag k="natural" v="bay" />
		<tag k="ssr:stedsnr" v="56818" />
	</node>
	<node lat="61.808733337539714" lon="11.786569442012249" id="-27580">
		<tag k="name" v="Myrburøsta" />
		<tag k="natural" v="wetland" />
		<tag k="ssr:stedsnr" v="56821" />
	</node>
	<node lat="61.673183731574696" lon="11.998127570542351" id="-27581">
		<tag k="landuse" v="meadow" />
		<tag k="name" v="Gjermundskvea" />
		<tag k="ssr:stedsnr" v="56706" />
	</node>
	<node lat="61.72458333444424" lon="11.72119443998798" id="-27582">
		<tag k="name" v="Sveinmyra" />
		<tag k="natural" v="wetland" />
		<tag k="ssr:stedsnr" v="56785" />
	</node>
	<node lat="61.72548333625982" lon="11.939047219541411" id="-27583">
		<tag k="name" v="Jonsæterdalen" />
		<tag k="natural" v="valley" />
		<tag k="place" v="locality" />
		<tag k="ssr:stedsnr" v="56981" />
	</node>
	<node lat="62.00126944504899" lon="12.073888882256192" id="-27584">
		<tag k="name" v="Lørjemåsåmyra" />
		<tag k="natural" v="wetland" />
		<tag k="ssr:stedsnr" v="57091" />
	</node>
	<node lat="61.82119444167681" lon="11.714500000347202" id="-27585">
		<tag k="name" v="Langbakkmyra" />
		<tag k="natural" v="wetland" />
		<tag k="ssr:stedsnr" v="58385" />
	</node>
	<node lat="61.886486113399656" lon="12.007516669792862" id="-27586">
		<tag k="name" v="Blokkodden" />
		<tag k="natural" v="cape" />
		<tag k="ssr:stedsnr" v="59025" />
	</node>
	<node lat="61.72156110778875" lon="11.685077770034626" id="-27587">
		<tag k="name" v="Sæterbuvika" />
		<tag k="natural" v="bay" />
		<tag k="ssr:stedsnr" v="58921" />
	</node>
	<node lat="61.87638888571357" lon="11.727633339826577" id="-27588">
		<tag k="name" v="Øvre Fallet" />
		<tag k="ssr:stedsnr" v="240414" />
		<tag k="waterway" v="rapids" />
	</node>
	<node lat="61.86843333253892" lon="11.729236110816807" id="-27589">
		<tag k="name" v="Stengarden" />
		<tag k="natural" v="beach" />
		<tag k="ssr:stedsnr" v="240416" />
	</node>
	<node lat="61.63606388605438" lon="12.099583328817287" id="-27590">
		<tag k="name" v="Bjørkrusttjønna" />
		<tag k="natural" v="water" />
		<tag k="ssr:stedsnr" v="59202" />
	</node>
	<node lat="61.629022225223956" lon="12.094347219110608" id="-27591">
		<tag k="name" v="Storkjellmyra" />
		<tag k="natural" v="wetland" />
		<tag k="ssr:stedsnr" v="59205" />
	</node>
	<node lat="61.885094447188806" lon="12.007380555599129" id="-27592">
		<tag k="name" v="Blokka" />
		<tag k="natural" v="bay" />
		<tag k="ssr:stedsnr" v="241022" />
	</node>
	<node lat="61.63806388735662" lon="12.03244443814777" id="-27593">
		<tag k="name" v="Lund" />
		<tag k="place" v="farm" />
		<tag k="ssr:stedsnr" v="241243" />
	</node>
	<node lat="61.64178888864068" lon="12.027369453314275" id="-27594">
		<tag k="name" v="Tytlingneset" />
		<tag k="natural" v="cape" />
		<tag k="ssr:stedsnr" v="241249" />
	</node>
	<node lat="61.659588887930916" lon="12.045477783592121" id="-27595">
		<tag k="historic" v="shieling" />
		<tag k="name" v="Svartåssætra" />
		<tag k="place" v="isolated_dwelling" />
		<tag k="ssr:stedsnr" v="70641" />
	</node>
	<node lat="61.65288333275039" lon="11.829755558150824" id="-27596">
		<tag k="alt_name" v="Husfloen, s" />
		<tag k="name" v="Søndre Husfloen" />
		<tag k="place" v="farm" />
		<tag k="ssr:stedsnr" v="71403" />
	</node>
	<node lat="61.84306760093018" lon="12.002497563079011" id="-27597">
		<tag k="alt_name" v="Nybo" />
		<tag k="name" v="Nybø" />
		<tag k="place" v="farm" />
		<tag k="ssr:stedsnr" v="71839" />
	</node>
	<node lat="61.84485277866226" lon="11.94631110737924" id="-27598">
		<tag k="name" v="Strandvoll" />
		<tag k="place" v="farm" />
		<tag k="ssr:stedsnr" v="71843" />
	</node>
	<node lat="61.978347914962534" lon="11.969472414807415" id="-27599">
		<tag k="name" v="Stenbekktjønnan" />
		<tag k="natural" v="water" />
		<tag k="ssr:stedsnr" v="71914" />
		<tag k="water" v="lake" />
	</node>
	<node lat="61.97994999540516" lon="11.86607500688129" id="-27600">
		<tag k="name" v="Harrbekken" />
		<tag k="ssr:stedsnr" v="71916" />
		<tag k="waterway" v="stream" />
	</node>
	<node lat="61.99715000204252" lon="12.029277784937992" id="-27601">
		<tag k="name" v="Storflomyra" />
		<tag k="natural" v="wetland" />
		<tag k="ssr:stedsnr" v="71928" />
	</node>
	<node lat="61.997083335064254" lon="11.924272223117447" id="-27603">
		<tag k="alt_name" v="Gjermundstjønna" />
		<tag k="name" v="Gjermundtjønna" />
		<tag k="natural" v="water" />
		<tag k="ssr:stedsnr" v="71940" />
	</node>
	<node lat="61.781086107337366" lon="11.729699993519056" id="-27604">
		<tag k="name" v="Volltjønna" />
		<tag k="natural" v="water" />
		<tag k="ssr:stedsnr" v="71953" />
	</node>
	<node lat="61.97916389329331" lon="11.732180561267041" id="-27605">
		<tag k="fixme" v="consider natural=peak for the most distinct mountains in the district" />
		<tag k="name" v="Svalåsen" />
		<tag k="natural" v="hill" />
		<tag k="place" v="locality" />
		<tag k="ssr:stedsnr" v="72079" />
	</node>
	<node lat="62.169074996829416" lon="12.176533330848327" id="-27606">
		<tag k="name" v="Varga" />
		<tag k="ssr:stedsnr" v="72330" />
		<tag k="waterway" v="stream" />
	</node>
	<node lat="62.16795833441936" lon="11.943550007919063" id="-27607">
		<tag k="alt_name" v="Søndre Elgåen" />
		<tag k="name" v="Elgåa" />
		<tag k="place" v="farm" />
		<tag k="ssr:stedsnr" v="72331" />
	</node>
	<node lat="62.27470832954041" lon="12.032333324672605" id="-27609">
		<tag k="name" v="Falkfangarhøgda" />
		<tag k="natural" v="hill" />
		<tag k="place" v="locality" />
		<tag k="ssr:stedsnr" v="72641" />
	</node>
	<node lat="62.25663333377811" lon="11.900891673458036" id="-27610">
		<tag k="name" v="Munkfoten" />
		<tag k="natural" v="cape" />
		<tag k="ssr:stedsnr" v="72646" />
	</node>
	<node lat="62.30658611018341" lon="11.85490832839902" id="-27611">
		<tag k="name" v="Smålokan" />
		<tag k="natural" v="water" />
		<tag k="ssr:stedsnr" v="72568" />
	</node>
	<node lat="61.77098055667738" lon="11.942594446709373" id="-27612">
		<tag k="name" v="Nordgård" />
		<tag k="place" v="farm" />
		<tag k="ssr:stedsnr" v="72730" />
	</node>
	<node lat="61.78047222244823" lon="12.13419444581194" id="-27613">
		<tag k="name" v="Langtjønna" />
		<tag k="natural" v="water" />
		<tag k="ssr:stedsnr" v="72731" />
	</node>
	<node lat="61.77204444771235" lon="11.874158324683647" id="-27614">
		<tag k="alt_name" v="Kvitvordaknappen, s" />
		<tag k="fixme" v="consider natural=peak for the most distinct mountains in the district" />
		<tag k="name" v="Søndre Kvitvolaknappen" />
		<tag k="natural" v="hill" />
		<tag k="place" v="locality" />
		<tag k="ssr:stedsnr" v="72732" />
	</node>
	<node lat="61.951011110548606" lon="11.883977771073715" id="-27615">
		<tag k="name" v="Gløtbekken" />
		<tag k="ssr:stedsnr" v="72867" />
		<tag k="waterway" v="stream" />
	</node>
	<node lat="61.90383055139554" lon="12.003908333606189" id="-27616">
		<tag k="building" v="industrial" />
		<tag k="name" v="Drevsjø trelast" />
		<tag k="ssr:stedsnr" v="100004" />
	</node>
	<node lat="61.89257221913469" lon="12.027327769004856" id="-27617">
		<tag k="name" v="Flaten" />
		<tag k="place" v="farm" />
		<tag k="ssr:stedsnr" v="100022" />
	</node>
	<node lat="62.03913333651583" lon="11.73819999414614" id="-27618">
		<tag k="name" v="Orderrøsta" />
		<tag k="natural" v="slope" />
		<tag k="place" v="locality" />
		<tag k="ssr:stedsnr" v="101078" />
	</node>
	<node lat="61.765527780733656" lon="11.951344444947551" id="-27619">
		<tag k="name" v="Brenneset" />
		<tag k="natural" v="cape" />
		<tag k="ssr:stedsnr" v="101984" />
	</node>
	<node lat="61.723819442512685" lon="12.137658332889632" id="-27620">
		<tag k="historic" v="boundary_stone" />
		<tag k="man_made" v="cairn" />
		<tag k="name" v="Herjehognarøysa" />
		<tag k="old_name" v="Herjehaagna Røset" />
		<tag k="place" v="locality" />
		<tag k="ssr:stedsnr" v="110011" />
	</node>
	<node lat="61.851083329221304" lon="11.850663882702987" id="-27621">
		<tag k="highway" v="path" />
		<tag k="name" v="Femundsætervegen" />
		<tag k="ssr:stedsnr" v="116477" />
	</node>
	<node lat="62.090566663629915" lon="11.648719453439924" id="-27622">
		<tag k="name" v="Rybekken" />
		<tag k="ssr:stedsnr" v="116482" />
		<tag k="waterway" v="stream" />
	</node>
	<node lat="61.97703055904032" lon="11.94285278029676" id="-27623">
		<tag k="alt_name" v="Langmyra" />
		<tag k="name" v="Nordstad" />
		<tag k="place" v="farm" />
		<tag k="ssr:stedsnr" v="116614" />
	</node>
	<node lat="61.973711114763766" lon="11.947286111310245" id="-27624">
		<tag k="name" v="Østheim" />
		<tag k="old_name" v="Kjellmyra" />
		<tag k="place" v="farm" />
		<tag k="ssr:stedsnr" v="116615" />
	</node>
	<node lat="61.67711388607866" lon="12.004455557997908" id="-27625">
		<tag k="name" v="Gjermunds" />
		<tag k="place" v="farm" />
		<tag k="ssr:stedsnr" v="116671" />
	</node>
	<node lat="61.679488889209594" lon="12.003533331247125" id="-27626">
		<tag k="landuse" v="meadow" />
		<tag k="name" v="Lortstranda" />
		<tag k="ssr:stedsnr" v="116674" />
	</node>
	<node lat="61.67668889027972" lon="12.006738883003283" id="-27627">
		<tag k="name" v="Oppgård" />
		<tag k="place" v="farm" />
		<tag k="ssr:stedsnr" v="116678" />
	</node>
	<node lat="61.833241669213535" lon="11.827288881671372" id="-27628">
		<tag k="name" v="Tørrbrenna" />
		<tag k="place" v="locality" />
		<tag k="ssr:stedsnr" v="116367" />
	</node>
	<node lat="61.84013888679824" lon="11.816805545924572" id="-27629">
		<tag k="name" v="Eggen" />
		<tag k="natural" v="water" />
		<tag k="ssr:stedsnr" v="116372" />
		<tag k="water" v="pond" />
	</node>
	<node lat="62.07179166768395" lon="11.816058331670922" id="-27630">
		<tag k="name" v="Joneset" />
		<tag k="natural" v="cape" />
		<tag k="ssr:stedsnr" v="116380" />
	</node>
	<node lat="61.85599999912571" lon="11.820811113770722" id="-27631">
		<tag k="name" v="Veslemyra" />
		<tag k="natural" v="wetland" />
		<tag k="ssr:stedsnr" v="116386" />
	</node>
	<node lat="61.93562500173912" lon="11.869030559984738" id="-27632">
		<tag k="name" v="Gløtfossdammen" />
		<tag k="ssr:stedsnr" v="116522" />
		<tag k="waterway" v="dam" />
	</node>
	<node lat="62.09924999970378" lon="12.014583338591574" id="-27633">
		<tag k="name" v="Rognrusta" />
		<tag k="natural" v="slope" />
		<tag k="place" v="locality" />
		<tag k="ssr:stedsnr" v="116768" />
	</node>
	<node lat="61.821966663602794" lon="11.724391665054211" id="-27634">
		<tag k="highway" v="path" />
		<tag k="name" v="Sætervegen" />
		<tag k="ssr:stedsnr" v="119378" />
	</node>
	<node lat="61.74824166564472" lon="11.74928055030204" id="-27635">
		<tag k="alt_name" v="Åsgård" />
		<tag k="name" v="Åsgard" />
		<tag k="place" v="farm" />
		<tag k="ssr:stedsnr" v="252233" />
	</node>
	<node lat="61.72766111201316" lon="11.75284444736095" id="-27636">
		<tag k="name" v="Snertøya" />
		<tag k="place" v="isolated_dwelling" />
		<tag k="ssr:stedsnr" v="252250" />
	</node>
	<node lat="61.655230554952546" lon="12.20761111623771" id="-27637">
		<tag k="name" v="Trangjota" />
		<tag k="natural" v="valley" />
		<tag k="old_name" v="Tronggjota" />
		<tag k="place" v="locality" />
		<tag k="ssr:stedsnr" v="252584" />
	</node>
	<node lat="61.64201666991086" lon="11.784894437344322" id="-27638">
		<tag k="name" v="Svarttjønna" />
		<tag k="natural" v="water" />
		<tag k="ssr:stedsnr" v="131308" />
	</node>
	<node lat="61.66412778068803" lon="11.978491673109085" id="-27639">
		<tag k="historic" v="shieling" />
		<tag k="name" v="Gnollsætra" />
		<tag k="place" v="isolated_dwelling" />
		<tag k="ssr:stedsnr" v="252594" />
	</node>
	<node lat="61.66416110713301" lon="12.187016668931946" id="-27640">
		<tag k="name" v="Krokbekkjølen" />
		<tag k="natural" v="wetland" />
		<tag k="ssr:stedsnr" v="252598" />
	</node>
	<node lat="61.67139722214145" lon="12.139383329953848" id="-27641">
		<tag k="name" v="Grøttjønna" />
		<tag k="natural" v="water" />
		<tag k="ssr:stedsnr" v="252604" />
	</node>
	<node lat="62.09624134995338" lon="11.813681235175286" id="-27642">
		<tag k="alt_name" v="Sollerøya, l;Lille Sollerøya" />
		<tag k="loc_name" v="Litlsoldera;Veslsoldera" />
		<tag k="name" v="Litle Sollerøya" />
		<tag k="place" v="islet" />
		<tag k="ssr:stedsnr" v="131269" />
	</node>
	<node lat="61.72977222585432" lon="11.772897227434832" id="-27643">
		<tag k="name" v="Snertådalen" />
		<tag k="natural" v="valley" />
		<tag k="place" v="locality" />
		<tag k="ssr:stedsnr" v="131270" />
	</node>
	<node lat="61.64560278211969" lon="12.165608333798419" id="-27644">
		<tag k="name" v="Hoptjønna" />
		<tag k="natural" v="water" />
		<tag k="ssr:stedsnr" v="252647" />
	</node>
	<node lat="62.05901944584359" lon="11.605027779626353" id="-27645">
		<tag k="name" v="Litlebuvatnet" />
		<tag k="natural" v="water" />
		<tag k="ssr:stedsnr" v="131381" />
	</node>
	<node lat="61.62022222285831" lon="12.05275834199743" id="-27646">
		<tag k="name" v="Basdalen" />
		<tag k="natural" v="valley" />
		<tag k="place" v="locality" />
		<tag k="ssr:stedsnr" v="252651" />
	</node>
	<node lat="61.77067222556605" lon="12.02281944373641" id="-27647">
		<tag k="name" v="Røskalhøgda" />
		<tag k="natural" v="hill" />
		<tag k="place" v="locality" />
		<tag k="ssr:stedsnr" v="131763" />
	</node>
	<node lat="61.75586111476292" lon="11.981294450300409" id="-27648">
		<tag k="name" v="Sagbekken" />
		<tag k="ssr:stedsnr" v="132102" />
		<tag k="waterway" v="stream" />
	</node>
	<node lat="62.192113884731675" lon="11.873630558485175" id="-27649">
		<tag k="name" v="Stalloddan" />
		<tag k="natural" v="cape" />
		<tag k="ssr:stedsnr" v="132309" />
	</node>
	<node lat="62.314780554183066" lon="11.876941661147299" id="-27650">
		<tag k="name" v="Hyttbekken" />
		<tag k="ssr:stedsnr" v="132561" />
		<tag k="waterway" v="stream" />
	</node>
	<node lat="61.7524409060963" lon="11.967051419945536" id="-27651">
		<tag k="fixme" v="consider place=hamlet" />
		<tag k="name" v="Semings" />
		<tag k="old_name" v="Slettmoen" />
		<tag k="place" v="farm" />
		<tag k="ssr:stedsnr" v="132721" />
	</node>
	<node lat="62.00777777597452" lon="12.06560000590154" id="-27652">
		<tag k="historic" v="shieling" />
		<tag k="loc_name" v="Bekkedalssætra" />
		<tag k="name" v="Bekkdalssætra" />
		<tag k="place" v="isolated_dwelling" />
		<tag k="ssr:stedsnr" v="132737" />
	</node>
	<node lat="61.77111944089442" lon="12.124688880436267" id="-27653">
		<tag k="name" v="Bjørntjønna" />
		<tag k="natural" v="water" />
		<tag k="ssr:stedsnr" v="132749" />
	</node>
	<node lat="61.8418166644531" lon="11.900666666977454" id="-27654">
		<tag k="alt_name" v="Vordskaftet" />
		<tag k="name" v="Volskaftet" />
		<tag k="natural" v="hill" />
		<tag k="place" v="locality" />
		<tag k="ssr:stedsnr" v="132823" />
	</node>
	<node lat="61.84405277357691" lon="11.881694437326694" id="-27655">
		<tag k="name" v="Halamyra" />
		<tag k="natural" v="wetland" />
		<tag k="ssr:stedsnr" v="132826" />
	</node>
	<node lat="61.99775278079746" lon="11.878524992658603" id="-27656">
		<tag k="alt_name" v="Storbufloen" />
		<tag k="name" v="Storbuvikfloen" />
		<tag k="natural" v="wetland" />
		<tag k="ssr:stedsnr" v="132915" />
	</node>
	<node lat="61.779511111417385" lon="11.81984444215608" id="-27657">
		<tag k="name" v="Gråhøgda" />
		<tag k="natural" v="hill" />
		<tag k="place" v="locality" />
		<tag k="ssr:stedsnr" v="132918" />
	</node>
	<node lat="61.76840000169429" lon="11.696586112231008" id="-27658">
		<tag k="name" v="Stormyra" />
		<tag k="natural" v="wetland" />
		<tag k="ssr:stedsnr" v="132921" />
	</node>
	<node lat="61.76315555530726" lon="11.65487499713784" id="-27659">
		<tag k="name" v="Elvsætra" />
		<tag k="place" v="farm" />
		<tag k="ssr:stedsnr" v="132925" />
	</node>
	<node lat="61.85029999828432" lon="11.758174996620436" id="-27660">
		<tag k="name" v="Søndre Holtjønna" />
		<tag k="natural" v="water" />
		<tag k="ssr:stedsnr" v="132965" />
	</node>
	<node lat="61.89563075162251" lon="12.010977959269887" id="-27661">
		<tag k="name" v="Drevsjømoen" />
		<tag k="place" v="locality" />
		<tag k="ssr:stedsnr" v="132859" />
	</node>
	<node lat="61.92225277625217" lon="12.173341665362047" id="-27662">
		<tag k="name" v="Skjervagtjønna" />
		<tag k="natural" v="water" />
		<tag k="ssr:stedsnr" v="132862" />
	</node>
	<node lat="61.94550277705814" lon="12.094269440810526" id="-27663">
		<tag k="name" v="Kornandermyra" />
		<tag k="natural" v="wetland" />
		<tag k="ssr:stedsnr" v="132868" />
	</node>
	<node lat="62.18435277646241" lon="12.054677776432285" id="-27664">
		<tag k="name" v="Sandtjønna" />
		<tag k="natural" v="water" />
		<tag k="ssr:stedsnr" v="253392" />
	</node>
	<node lat="62.22070555151795" lon="11.868016668860438" id="-27665">
		<tag k="name" v="Bergvika" />
		<tag k="natural" v="bay" />
		<tag k="ssr:stedsnr" v="253367" />
	</node>
	<node lat="62.16341389011555" lon="11.951047229783265" id="-27666">
		<tag k="name" v="Egga" />
		<tag k="place" v="farm" />
		<tag k="ssr:stedsnr" v="253409" />
	</node>
	<node lat="61.696008332483125" lon="11.75456110612467" id="-27667">
		<tag k="name" v="Ås" />
		<tag k="place" v="farm" />
		<tag k="ssr:stedsnr" v="253412" />
	</node>
	<node lat="62.172088890398015" lon="11.93846111050327" id="-27668">
		<tag k="name" v="Hansodden" />
		<tag k="natural" v="cape" />
		<tag k="ssr:stedsnr" v="253416" />
	</node>
	<node lat="62.05280383610658" lon="11.694808162246323" id="-27669">
		<tag k="name" v="Sømå" />
		<tag k="old_name" v="Sømåa" />
		<tag k="place" v="locality" />
		<tag k="ssr:stedsnr" v="253470" />
	</node>
	<node lat="62.05250555971573" lon="11.688574994238786" id="-27670">
		<tag k="name" v="Vesterheim" />
		<tag k="place" v="farm" />
		<tag k="ssr:stedsnr" v="253471" />
	</node>
	<node lat="62.04262777518573" lon="11.7129750077153" id="-27671">
		<tag k="name" v="Hovden" />
		<tag k="place" v="farm" />
		<tag k="ssr:stedsnr" v="253473" />
	</node>
	<node lat="61.633813893239214" lon="12.244900003331074" id="-27672">
		<tag k="name" v="Skagatjønna" />
		<tag k="natural" v="water" />
		<tag k="ssr:stedsnr" v="253533" />
	</node>
	<node lat="61.70657612267375" lon="11.925507726078106" id="-27673">
		<tag k="alt_name" v="Bjønnskåra" />
		<tag k="name" v="Bjørnskora" />
		<tag k="natural" v="valley" />
		<tag k="place" v="locality" />
		<tag k="ssr:stedsnr" v="253757" />
	</node>
	<node lat="61.70180000074483" lon="11.870999996133762" id="-27674">
		<tag k="name" v="Tuvflået" />
		<tag k="natural" v="wetland" />
		<tag k="ssr:stedsnr" v="253760" />
	</node>
	<node lat="61.731750002339425" lon="12.042691673363427" id="-27675">
		<tag k="name" v="Blakkmoen" />
		<tag k="place" v="locality" />
		<tag k="ssr:stedsnr" v="253699" />
	</node>
	<node lat="61.83616666811453" lon="11.952452773606488" id="-27676">
		<tag k="alt_name" v="Østgård" />
		<tag k="name" v="Nygård" />
		<tag k="place" v="farm" />
		<tag k="ssr:stedsnr" v="253820" />
	</node>
	<node lat="61.833397222587806" lon="11.882447217832063" id="-27677">
		<tag k="alt_name" v="Nordre Vollen" />
		<tag k="historic" v="shieling" />
		<tag k="name" v="Nordrevollen" />
		<tag k="place" v="isolated_dwelling" />
		<tag k="ssr:stedsnr" v="253821" />
	</node>
	<node lat="61.95519999640465" lon="11.955133324541425" id="-27678">
		<tag k="fixme" v="consider natural=peak for the most distinct mountains in the district" />
		<tag k="name" v="Kvemsjøåsen" />
		<tag k="natural" v="hill" />
		<tag k="place" v="locality" />
		<tag k="ssr:stedsnr" v="253899" />
	</node>
	<node lat="62.01234444648797" lon="11.740227785122332" id="-27679">
		<tag k="name" v="Drukningsodden" />
		<tag k="natural" v="cape" />
		<tag k="ssr:stedsnr" v="253766" />
	</node>
	<node lat="62.00541667100393" lon="11.838561104733275" id="-27680">
		<tag k="name" v="Gullsmedtjønna" />
		<tag k="natural" v="water" />
		<tag k="ssr:stedsnr" v="253771" />
	</node>
	<node lat="61.84155000431738" lon="11.998036107286183" id="-27681">
		<tag k="name" v="Borg" />
		<tag k="place" v="farm" />
		<tag k="ssr:stedsnr" v="253837" />
	</node>
	<node lat="61.87810000398602" lon="12.136161113804464" id="-27682">
		<tag k="name" v="Nordli" />
		<tag k="place" v="farm" />
		<tag k="ssr:stedsnr" v="253849" />
	</node>
	<node lat="61.855977782177746" lon="12.020594450025152" id="-27683">
		<tag k="name" v="Liheim" />
		<tag k="place" v="farm" />
		<tag k="ssr:stedsnr" v="253853" />
	</node>
	<node lat="61.99306944207407" lon="12.017888897194702" id="-27684">
		<tag k="name" v="Stormyra" />
		<tag k="natural" v="wetland" />
		<tag k="ssr:stedsnr" v="253925" />
	</node>
	<node lat="62.14847500079956" lon="11.710541659582923" id="-27685">
		<tag k="name" v="Tangbekken" />
		<tag k="ssr:stedsnr" v="254359" />
		<tag k="waterway" v="stream" />
	</node>
	<node lat="62.13054999991433" lon="11.63862777727399" id="-27686">
		<tag k="name" v="Langsjøen" />
		<tag k="place" v="farm" />
		<tag k="ssr:stedsnr" v="254360" />
	</node>
	<node lat="62.11051110698739" lon="11.660041666296104" id="-27687">
		<tag k="name" v="Langhåen" />
		<tag k="natural" v="water" />
		<tag k="ssr:stedsnr" v="254368" />
		<tag k="water" v="lake" />
	</node>
	<node lat="62.31279999933041" lon="12.150580563861153" id="-27688">
		<tag k="name" v="Storbuddhåen" />
		<tag k="name:no" v="Storbuddhåen" />
		<tag k="place" v="locality" />
		<tag k="ssr:stedsnr" v="254540" />
	</node>
	<node lat="62.28540833710699" lon="11.947758332571878" id="-27689">
		<tag k="alt_name" v="Kuneset, l" />
		<tag k="name" v="Litle Kuneset" />
		<tag k="natural" v="cape" />
		<tag k="ssr:stedsnr" v="254553" />
	</node>
	<node lat="62.26873333516526" lon="11.970949992102183" id="-27690">
		<tag k="historic" v="shieling" />
		<tag k="name" v="Kuvolsætra" />
		<tag k="place" v="isolated_dwelling" />
		<tag k="ssr:stedsnr" v="254631" />
	</node>
	<node lat="62.273869443084294" lon="12.225511101470683" id="-27691">
		<tag k="name" v="Rundtjønna" />
		<tag k="natural" v="water" />
		<tag k="ssr:stedsnr" v="254642" />
	</node>
	<node lat="61.79633055405848" lon="11.875094440380273" id="-27692">
		<tag k="name" v="Kartmyra" />
		<tag k="natural" v="wetland" />
		<tag k="ssr:stedsnr" v="254734" />
	</node>
	<node lat="61.79099999582897" lon="11.993691669696583" id="-27693">
		<tag k="name" v="Nysæterskarven" />
		<tag k="natural" v="hill" />
		<tag k="place" v="locality" />
		<tag k="ssr:stedsnr" v="254740" />
	</node>
	<node lat="61.78685833430176" lon="11.88337499687941" id="-27694">
		<tag k="name" v="Bujotskarven" />
		<tag k="natural" v="hill" />
		<tag k="place" v="locality" />
		<tag k="ssr:stedsnr" v="254745" />
	</node>
	<node lat="62.24958518318701" lon="12.235184754848213" id="-27695">
		<tag k="name" v="Stormyrtjønnan" />
		<tag k="natural" v="water" />
		<tag k="ssr:stedsnr" v="254700" />
		<tag k="water" v="lake" />
	</node>
	<node lat="61.92393888597743" lon="11.879899993593492" id="-27696">
		<tag k="name" v="Stormyra" />
		<tag k="natural" v="wetland" />
		<tag k="ssr:stedsnr" v="254852" />
	</node>
	<node lat="61.91417777852829" lon="12.164499996325132" id="-27697">
		<tag k="name" v="Knertmyra" />
		<tag k="natural" v="wetland" />
		<tag k="ssr:stedsnr" v="254863" />
	</node>
	<node lat="61.9161916626935" lon="12.049019445193595" id="-27698">
		<tag k="fixme" v="consider natural=peak for the most distinct mountains in the district" />
		<tag k="name" v="Brattmyråsen" />
		<tag k="natural" v="hill" />
		<tag k="place" v="locality" />
		<tag k="ssr:stedsnr" v="254865" />
	</node>
	<node lat="61.85703888911201" lon="11.815674992760226" id="-27699">
		<tag k="name" v="Galtåsbekken" />
		<tag k="ssr:stedsnr" v="254956" />
		<tag k="waterway" v="stream" />
	</node>
	<node lat="61.720772219994366" lon="11.980383341524478" id="-27700">
		<tag k="name" v="Halvmilbekken" />
		<tag k="ssr:stedsnr" v="145668" />
		<tag k="waterway" v="stream" />
	</node>
	<node lat="61.894180557605296" lon="11.776483336900672" id="-27701">
		<tag k="name" v="Tjukkrøsta" />
		<tag k="natural" v="slope" />
		<tag k="place" v="locality" />
		<tag k="ssr:stedsnr" v="162113" />
	</node>
	<node lat="61.787427776522414" lon="11.953122213037359" id="-27702">
		<tag k="name" v="Nedre Knulmyra" />
		<tag k="natural" v="wetland" />
		<tag k="ssr:stedsnr" v="162147" />
	</node>
	<node lat="61.953611107343455" lon="12.048752770271655" id="-27703">
		<tag k="name" v="Nordpåtjønnan" />
		<tag k="natural" v="wetland" />
		<tag k="ssr:stedsnr" v="162097" />
	</node>
	<node lat="61.65083888890001" lon="11.83089166243066" id="-27704">
		<tag k="name" v="Øybrøstet" />
		<tag k="natural" v="water" />
		<tag k="ssr:stedsnr" v="177114" />
		<tag k="water" v="lake" />
	</node>
	<node lat="61.656625000528194" lon="11.815663887913965" id="-27705">
		<tag k="name" v="Øvre Embretsholmen" />
		<tag k="place" v="islet" />
		<tag k="ssr:stedsnr" v="177117" />
	</node>
	<node lat="62.09690555192755" lon="11.650688895278234" id="-27706">
		<tag k="amenity" v="community_centre" />
		<tag k="name" v="Skogtun" />
		<tag k="ssr:stedsnr" v="177055" />
	</node>
	<node lat="62.12787778083618" lon="11.984408333014205" id="-27707">
		<tag k="landuse" v="meadow" />
		<tag k="name" v="Fetthåen" />
		<tag k="ssr:stedsnr" v="177210" />
	</node>
	<node lat="61.81919722051039" lon="11.921475001137914" id="-27708">
		<tag k="amenity" v="school" />
		<tag k="name" v="Engerdal barne- og ungdomsskole" />
		<tag k="ssr:stedsnr" v="177278" />
	</node>
	<node lat="62.07728055802883" lon="11.73688888189367" id="-27709">
		<tag k="fixme" v="consider natural=peak for the most distinct mountains in the district" />
		<tag k="name" v="Trolltjønnåstangen" />
		<tag k="natural" v="hill" />
		<tag k="place" v="locality" />
		<tag k="ssr:stedsnr" v="177410" />
	</node>
	<node lat="61.69535833363405" lon="11.990263891130805" id="-27710">
		<tag k="landuse" v="meadow" />
		<tag k="name" v="Krokmyra" />
		<tag k="ssr:stedsnr" v="177702" />
	</node>
	<node lat="61.67627221944795" lon="12.003163881717134" id="-27711">
		<tag k="name" v="Vestgård" />
		<tag k="place" v="farm" />
		<tag k="ssr:stedsnr" v="177703" />
	</node>
	<node lat="61.67565290061444" lon="11.998521751515568" id="-27712">
		<tag k="name" v="Nordre Kveen" />
		<tag k="place" v="farm" />
		<tag k="ssr:stedsnr" v="177710" />
	</node>
	<node lat="61.67490833706235" lon="12.00592499754119" id="-27713">
		<tag k="name" v="Nothangvarpet" />
		<tag k="natural" v="bay" />
		<tag k="ssr:stedsnr" v="177711" />
	</node>
	<node lat="61.67556667074235" lon="12.003738888211453" id="-27714">
		<tag k="name" v="Tuvodden" />
		<tag k="natural" v="cape" />
		<tag k="ssr:stedsnr" v="177712" />
	</node>
	<node lat="62.04849444043555" lon="12.060247215163747" id="-27715">
		<tag k="name" v="Egga" />
		<tag k="place" v="locality" />
		<tag k="ssr:stedsnr" v="177866" />
	</node>
	<node lat="61.997683334861755" lon="12.069111105052622" id="-27716">
		<tag k="name" v="Vatningsloken" />
		<tag k="natural" v="water" />
		<tag k="ssr:stedsnr" v="178109" />
		<tag k="water" v="pond" />
	</node>
	<node lat="61.81966944216367" lon="11.722097229275406" id="-27717">
		<tag k="name" v="Litltangen" />
		<tag k="natural" v="hill" />
		<tag k="place" v="locality" />
		<tag k="ssr:stedsnr" v="179361" />
	</node>
	<node lat="61.62921666952003" lon="12.075827783275333" id="-27718">
		<tag k="name" v="Kjerringmyra" />
		<tag k="natural" v="wetland" />
		<tag k="ssr:stedsnr" v="180202" />
	</node>
	<node lat="62.32962500364771" lon="11.980700003806062" id="-27720">
		<tag k="name" v="Røvolbekken" />
		<tag k="ssr:stedsnr" v="263857" />
		<tag k="waterway" v="stream" />
	</node>
	<node lat="62.316058329620084" lon="12.103350001339921" id="-27721">
		<tag k="name" v="Roastbuan" />
		<tag k="place" v="isolated_dwelling" />
		<tag k="ssr:stedsnr" v="263859" />
	</node>
	<node lat="61.69401944176176" lon="11.987391660937412" id="-27722">
		<tag k="alt_name" v="Olderskogen Camping" />
		<tag k="name" v="Olderskogen" />
		<tag k="ssr:stedsnr" v="266668" />
		<tag k="tourism" v="camp_site" />
	</node>
	<node lat="61.704647223984225" lon="11.97371389638033" id="-27723">
		<tag k="alt_name" v="Engerdal" />
		<tag k="name" v="Engerdalen" />
		<tag k="natural" v="valley" />
		<tag k="place" v="locality" />
		<tag k="ssr:stedsnr" v="207403" />
	</node>
	<node lat="61.872558335241806" lon="12.162200003891348" id="-27724">
		<tag k="name" v="Søndre Lillebo" />
		<tag k="place" v="farm" />
		<tag k="ssr:stedsnr" v="208203" />
	</node>
	<node lat="61.98750277482622" lon="11.719186103853147" id="-27725">
		<tag k="fixme" v="consider natural=peak for the most distinct mountains in the district" />
		<tag k="name" v="Svalåsen" />
		<tag k="natural" v="hill" />
		<tag k="place" v="locality" />
		<tag k="ssr:stedsnr" v="222072" />
	</node>
	<node lat="61.69396110712615" lon="12.102311103066105" id="-27726">
		<tag k="name" v="Norderlægret" />
		<tag k="place" v="locality" />
		<tag k="ssr:stedsnr" v="224221" />
	</node>
	<node lat="61.67799722589792" lon="12.04133610796609" id="-27727">
		<tag k="fixme" v="consider natural=peak for the most distinct mountains in the district" />
		<tag k="name" v="Sæteråsen" />
		<tag k="natural" v="hill" />
		<tag k="place" v="locality" />
		<tag k="ssr:stedsnr" v="224235" />
	</node>
	<node lat="62.0498444452636" lon="11.77757222710129" id="-27728">
		<tag k="name" v="Trolltjønnsundet" />
		<tag k="natural" v="strait" />
		<tag k="ssr:stedsnr" v="224102" />
	</node>
	<node lat="62.19627777740831" lon="12.277719441025697" id="-27729">
		<tag k="historic" v="boundary_stone" />
		<tag k="man_made" v="cairn" />
		<tag k="name" v="Grøtåarøysa" />
		<tag k="old_name" v="Grøtaa Røset" />
		<tag k="place" v="locality" />
		<tag k="ssr:stedsnr" v="231034" />
	</node>
	<node lat="61.8904388903318" lon="11.759391658877936" id="-27730">
		<tag k="name" v="Galten Gård og Pensjonat" />
		<tag k="ssr:stedsnr" v="232808" />
		<tag k="tourism" v="guest_house" />
	</node>
	<node lat="61.655255556844345" lon="11.795250001258431" id="-27731">
		<tag k="name" v="Kanalen" />
		<tag k="natural" v="shoal" />
		<tag k="place" v="locality" />
		<tag k="ssr:stedsnr" v="237097" />
	</node>
	<node lat="61.817263892863096" lon="11.916847213484735" id="-27732">
		<tag k="building" v="industrial" />
		<tag k="name" v="Risbakken sag" />
		<tag k="ssr:stedsnr" v="237281" />
	</node>
	<node lat="61.69903055872703" lon="11.746355562219005" id="-27733">
		<tag k="historic" v="shieling" />
		<tag k="name" v="Nordgardsætra" />
		<tag k="place" v="isolated_dwelling" />
		<tag k="ssr:stedsnr" v="237176" />
	</node>
	<node lat="61.688244446846134" lon="11.767994453698423" id="-27734">
		<tag k="name" v="Kalvhammeren" />
		<tag k="natural" v="hill" />
		<tag k="place" v="locality" />
		<tag k="ssr:stedsnr" v="237179" />
	</node>
	<node lat="61.62186666667719" lon="12.031594437165072" id="-27735">
		<tag k="name" v="Storrotneset" />
		<tag k="natural" v="cape" />
		<tag k="ssr:stedsnr" v="237196" />
	</node>
	<node lat="62.0129361117664" lon="11.751061108488223" id="-27736">
		<tag k="name" v="Gottodden" />
		<tag k="natural" v="cape" />
		<tag k="ssr:stedsnr" v="237380" />
	</node>
	<node lat="61.83844444497918" lon="11.81577777426882" id="-27737">
		<tag k="fixme" v="consider highway=path" />
		<tag k="highway" v="track" />
		<tag k="name" v="Eggvegen" />
		<tag k="ssr:stedsnr" v="237387" />
	</node>
	<node lat="62.01427777686465" lon="11.776888883955523" id="-27738">
		<tag k="name" v="Måsåbekkholmen" />
		<tag k="place" v="islet" />
		<tag k="ssr:stedsnr" v="237395" />
	</node>
	<node lat="61.848716668468484" lon="11.845197224918778" id="-27739">
		<tag k="name" v="Tøsbekken" />
		<tag k="ssr:stedsnr" v="237491" />
		<tag k="waterway" v="stream" />
	</node>
	<node lat="61.77599722026356" lon="12.144855553686499" id="-27740">
		<tag k="name" v="Midtjønnbekken" />
		<tag k="ssr:stedsnr" v="237602" />
		<tag k="waterway" v="stream" />
	</node>
	<node lat="61.97206666546572" lon="11.942816672744808" id="-27741">
		<tag k="name" v="Nordre Sorken" />
		<tag k="place" v="farm" />
		<tag k="ssr:stedsnr" v="237606" />
	</node>
	<node lat="62.09242222549985" lon="11.6484583300052" id="-27742">
		<tag k="name" v="Åkeregga" />
		<tag k="natural" v="hill" />
		<tag k="place" v="locality" />
		<tag k="ssr:stedsnr" v="238079" />
	</node>
	<node lat="62.085313893279974" lon="11.648222216170167" id="-27743">
		<tag k="highway" v="path" />
		<tag k="name" v="Rendalsvegen" />
		<tag k="ssr:stedsnr" v="238511" />
	</node>
	<node lat="62.08987777435605" lon="11.659369446373406" id="-27744">
		<tag k="name" v="Nordstuhaugen" />
		<tag k="natural" v="hill" />
		<tag k="place" v="locality" />
		<tag k="ssr:stedsnr" v="238525" />
	</node>
	<node lat="61.86871944478044" lon="12.13842221646454" id="-27745">
		<tag k="name" v="Kviltsand" />
		<tag k="natural" v="beach" />
		<tag k="ssr:stedsnr" v="238606" />
	</node>
	<node lat="61.98288888769515" lon="11.891119444505403" id="-27746">
		<tag k="name" v="Litlbuvika" />
		<tag k="natural" v="bay" />
		<tag k="ssr:stedsnr" v="238727" />
	</node>
	<node lat="61.65341666325761" lon="11.977366658102707" id="-27747">
		<tag k="name" v="Skaftesletta" />
		<tag k="place" v="locality" />
		<tag k="ssr:stedsnr" v="238732" />
	</node>
	<node lat="62.040427774065414" lon="12.194577778266416" id="-27748">
		<tag k="name" v="Valsjølia" />
		<tag k="natural" v="slope" />
		<tag k="place" v="locality" />
		<tag k="ssr:stedsnr" v="238734" />
	</node>
	<node lat="61.73261944479784" lon="11.762205550992375" id="-27749">
		<tag k="name" v="Sagbekkdalsbekken" />
		<tag k="ssr:stedsnr" v="238788" />
		<tag k="waterway" v="stream" />
	</node>
	<node lat="61.77460832971381" lon="11.629311109443968" id="-27750">
		<tag k="name" v="Elvbrufossen" />
		<tag k="natural" v="waterfall" />
		<tag k="ssr:stedsnr" v="238795" />
	</node>
	<node lat="61.926427776167024" lon="12.116494442315478" id="-27751">
		<tag k="name" v="Svarttjønnbekken" />
		<tag k="ssr:stedsnr" v="239106" />
		<tag k="waterway" v="stream" />
	</node>
	<node lat="61.81213333625446" lon="11.711852782887872" id="-27752">
		<tag k="name" v="Brattbekken" />
		<tag k="ssr:stedsnr" v="240386" />
		<tag k="waterway" v="stream" />
	</node>
	<node lat="62.0915305543883" lon="11.6551444358975" id="-27755">
		<tag k="alt_name" v="Nordre Joten" />
		<tag k="name" v="Nordre Gjota" />
		<tag k="place" v="farm" />
		<tag k="ssr:stedsnr" v="480069" />
	</node>
	<node lat="61.93162778064474" lon="11.731363888630304" id="-27756">
		<tag k="name" v="Sæterbekken" />
		<tag k="ssr:stedsnr" v="253131" />
		<tag k="waterway" v="stream" />
	</node>
	<node lat="62.08743610989603" lon="12.062349999614357" id="-27757">
		<tag k="name" v="Elgådalen" />
		<tag k="place" v="farm" />
		<tag k="ssr:stedsnr" v="253303" />
	</node>
	<node lat="61.721950001920895" lon="11.762247217138485" id="-27758">
		<tag k="name" v="Svartlia" />
		<tag k="natural" v="slope" />
		<tag k="place" v="locality" />
		<tag k="ssr:stedsnr" v="253305" />
	</node>
	<node lat="62.063388953303644" lon="11.758305604794362" id="-27759">
		<tag k="name" v="Smårøsttjønnan" />
		<tag k="natural" v="water" />
		<tag k="ssr:stedsnr" v="253327" />
		<tag k="water" v="lake" />
	</node>
	<node lat="62.05754444243318" lon="12.091805563311295" id="-27760">
		<tag k="name" v="Yttersjøen" />
		<tag k="natural" v="water" />
		<tag k="ssr:stedsnr" v="253332" />
		<tag k="water" v="lake" />
	</node>
	<node lat="62.07341111054487" lon="12.044230548250683" id="-27761">
		<tag k="name" v="Storsjøen" />
		<tag k="natural" v="water" />
		<tag k="ssr:stedsnr" v="253336" />
		<tag k="water" v="lake" />
	</node>
	<node lat="62.07072500079941" lon="11.935013894321399" id="-27762">
		<tag k="name" v="Tovbergan" />
		<tag k="natural" v="hill" />
		<tag k="place" v="locality" />
		<tag k="ssr:stedsnr" v="253343" />
	</node>
	<node lat="61.665477780155726" lon="11.792527768753297" id="-27763">
		<tag k="alt_name" v="Rusta" />
		<tag k="name" v="Røsta" />
		<tag k="old_name" v="Røstad" />
		<tag k="place" v="isolated_dwelling" />
		<tag k="ssr:stedsnr" v="253427" />
	</node>
	<node lat="61.74300277984043" lon="11.95160556250964" id="-27764">
		<tag k="name" v="Messeltkampen" />
		<tag k="natural" v="hill" />
		<tag k="place" v="locality" />
		<tag k="ssr:stedsnr" v="253702" />
	</node>
	<node lat="61.67693888614618" lon="11.99893610334545" id="-27765">
		<tag k="name" v="Fonnås" />
		<tag k="place" v="farm" />
		<tag k="ssr:stedsnr" v="253732" />
	</node>
	<node lat="61.75498067229698" lon="12.048510582551462" id="-27766">
		<tag k="name" v="Blakksjøen" />
		<tag k="natural" v="water" />
		<tag k="ssr:stedsnr" v="253736" />
		<tag k="water" v="lake" />
	</node>
	<node lat="61.69142499749109" lon="11.938480550196928" id="-27767">
		<tag k="name" v="Kansbekken" />
		<tag k="ssr:stedsnr" v="253740" />
		<tag k="waterway" v="stream" />
	</node>
	<node lat="61.75266388634087" lon="11.938416659912116" id="-27768">
		<tag k="name" v="Bergesætra" />
		<tag k="place" v="hamlet" />
		<tag k="ssr:stedsnr" v="253744" />
	</node>
	<node lat="62.02517221884152" lon="11.720080554084841" id="-27769">
		<tag k="name" v="Lørjefloan" />
		<tag k="natural" v="wetland" />
		<tag k="ssr:stedsnr" v="253749" />
	</node>
	<node lat="61.833372222632015" lon="12.11715000138686" id="-27770">
		<tag k="name" v="Røkketjønnan" />
		<tag k="natural" v="water" />
		<tag k="ssr:stedsnr" v="253823" />
		<tag k="water" v="lake" />
	</node>
	<node lat="61.8229694418326" lon="11.982469438873474" id="-27771">
		<tag k="name" v="Kuholkjølen" />
		<tag k="natural" v="wetland" />
		<tag k="ssr:stedsnr" v="253826" />
	</node>
	<node lat="61.85788610966338" lon="12.149713892524936" id="-27772">
		<tag k="name" v="Flåtåberget" />
		<tag k="natural" v="hill" />
		<tag k="old_name" v="Flataberget" />
		<tag k="place" v="locality" />
		<tag k="ssr:stedsnr" v="253830" />
	</node>
	<node lat="61.89001944579707" lon="12.151038882356916" id="-27773">
		<tag k="alt_name" v="Vordåa" />
		<tag k="name" v="Vålåa" />
		<tag k="ssr:stedsnr" v="253878" />
		<tag k="waterway" v="river" />
	</node>
	<node lat="61.90233333433326" lon="11.779958330676662" id="-27774">
		<tag k="name" v="Håbu" />
		<tag k="place" v="isolated_dwelling" />
		<tag k="ssr:stedsnr" v="253992" />
	</node>
	<node lat="61.90594166974615" lon="11.80029167487876" id="-27775">
		<tag k="alt_name" v="Kvernhusbekken, s" />
		<tag k="name" v="Søndre Kvernhusbekken" />
		<tag k="ssr:stedsnr" v="253997" />
		<tag k="waterway" v="stream" />
	</node>
	<node lat="61.8302305532372" lon="11.797080555492725" id="-27776">
		<tag k="name" v="Ulvåkjølen" />
		<tag k="natural" v="wetland" />
		<tag k="ssr:stedsnr" v="254941" />
	</node>
	<node lat="61.88722221883468" lon="12.041399995244989" id="-27777">
		<tag k="name" v="Fredheim" />
		<tag k="place" v="farm" />
		<tag k="ssr:stedsnr" v="283016" />
	</node>
	<node lat="61.894311108149495" lon="11.760291671290698" id="-27778">
		<tag k="fixme" v="consider boundary=protected_area and relevant protect_class if not nature reserve" />
		<tag k="leisure" v="nature_reserve" />
		<tag k="name" v="Galten naturreservat" />
		<tag k="ssr:stedsnr" v="284079" />
	</node>
	<node lat="62.13611231802893" lon="12.261239648015865" id="-27779">
		<tag k="historic" v="boundary_stone" />
		<tag k="man_made" v="cairn" />
		<tag k="name" v="Greflingsvolarøysa" />
		<tag k="old_name" v="Greflingsvola Røset;Græflings Walla Røset" />
		<tag k="place" v="locality" />
		<tag k="ssr:stedsnr" v="292032" />
	</node>
	<node lat="61.75401111113793" lon="11.786469448542938" id="-27780">
		<tag k="name" v="Vestgårdsmyra" />
		<tag k="natural" v="wetland" />
		<tag k="ssr:stedsnr" v="298173" />
	</node>
	<node lat="62.02744773582964" lon="12.108239632037591" id="-27781">
		<tag k="name" v="Stygglandet" />
		<tag k="place" v="locality" />
		<tag k="ssr:stedsnr" v="298175" />
	</node>
	<node lat="62.01969166417761" lon="12.061138882769786" id="-27782">
		<tag k="name" v="Øvste Floen" />
		<tag k="natural" v="wetland" />
		<tag k="ssr:stedsnr" v="298176" />
	</node>
	<node lat="62.09284166350518" lon="11.64063888472547" id="-27783">
		<tag k="name" v="Vangstjønna" />
		<tag k="natural" v="water" />
		<tag k="ssr:stedsnr" v="298082" />
	</node>
	<node lat="62.08853055264609" lon="11.651433330228341" id="-27784">
		<tag k="name" v="Eggen" />
		<tag k="place" v="farm" />
		<tag k="ssr:stedsnr" v="298476" />
	</node>
	<node lat="61.90773055960259" lon="11.878169444925504" id="-27785">
		<tag k="name" v="Kløftebekken" />
		<tag k="ssr:stedsnr" v="298392" />
		<tag k="waterway" v="stream" />
	</node>
	<node lat="61.933225001548095" lon="11.818725006916727" id="-27786">
		<tag k="name" v="Tjønnholmen" />
		<tag k="place" v="islet" />
		<tag k="ssr:stedsnr" v="298505" />
	</node>
	<node lat="61.93177777527519" lon="11.863180564334304" id="-27787">
		<tag k="name" v="Fosseng" />
		<tag k="place" v="farm" />
		<tag k="ssr:stedsnr" v="298506" />
	</node>
	<node lat="61.9202361125743" lon="11.91568611292604" id="-27788">
		<tag k="name" v="Enbekken" />
		<tag k="ssr:stedsnr" v="298529" />
		<tag k="waterway" v="stream" />
	</node>
	<node lat="61.97228611347272" lon="11.938866660289484" id="-27789">
		<tag k="name" v="Vestre Sorken" />
		<tag k="place" v="farm" />
		<tag k="ssr:stedsnr" v="298585" />
	</node>
	<node lat="62.14859444759066" lon="11.890372230789493" id="-27790">
		<tag k="name" v="Tjønnoddtjønna" />
		<tag k="natural" v="water" />
		<tag k="ssr:stedsnr" v="298895" />
	</node>
	<node lat="61.765791670441665" lon="11.718183324778355" id="-27791">
		<tag k="name" v="Skjærbuloka" />
		<tag k="natural" v="water" />
		<tag k="ssr:stedsnr" v="299205" />
	</node>
	<node lat="61.72795277437" lon="12.02866944238386" id="-27792">
		<tag k="name" v="Hestbekkkjølen" />
		<tag k="natural" v="wetland" />
		<tag k="ssr:stedsnr" v="299225" />
	</node>
	<node lat="61.86933333720853" lon="12.163372218786577" id="-27793">
		<tag k="name" v="Langsand" />
		<tag k="natural" v="beach" />
		<tag k="ssr:stedsnr" v="299591" />
	</node>
	<node lat="61.73824722578627" lon="11.971994439576571" id="-27794">
		<tag k="name" v="Nordre Svingen" />
		<tag k="place" v="farm" />
		<tag k="ssr:stedsnr" v="299704" />
	</node>
	<node lat="61.903738887656914" lon="12.152127779870066" id="-27795">
		<tag k="name" v="Røskåsremme" />
		<tag k="natural" v="wetland" />
		<tag k="ssr:stedsnr" v="299611" />
	</node>
	<node lat="61.69441944199302" lon="11.983797213560884" id="-27796">
		<tag k="name" v="Nordeng" />
		<tag k="place" v="farm" />
		<tag k="ssr:stedsnr" v="299681" />
	</node>
	<node lat="61.920572218571316" lon="12.072483327004063" id="-27797">
		<tag k="name" v="Rakstvegskardet" />
		<tag k="natural" v="valley" />
		<tag k="place" v="locality" />
		<tag k="ssr:stedsnr" v="300104" />
	</node>
	<node lat="61.813324995721025" lon="11.708422213373256" id="-27798">
		<tag k="name" v="Strand" />
		<tag k="place" v="isolated_dwelling" />
		<tag k="ssr:stedsnr" v="300383" />
	</node>
	<node lat="61.8295250037226" lon="11.720594449811797" id="-27799">
		<tag k="name" v="Ulvåoset" />
		<tag k="natural" v="bay" />
		<tag k="ssr:stedsnr" v="300386" />
	</node>
	<node lat="61.75084444337877" lon="12.112436107288927" id="-27800">
		<tag k="name" v="Hognsjøhøgda" />
		<tag k="natural" v="hill" />
		<tag k="place" v="locality" />
		<tag k="ssr:stedsnr" v="464037" />
	</node>
	<node lat="61.72387761330061" lon="12.137039808361946" id="-27802">
		<tag k="alt_name" v="Härjehogna;Østrehogna" />
		<tag k="fixme" v="multiple name tags, choose one and add the other to alt_name; consider natural=peak for the most distinct mountains in the district" />
		<tag k="name" v="Østerhogna;Herjehogna" />
		<tag k="natural" v="hill" />
		<tag k="place" v="locality" />
		<tag k="ssr:stedsnr" v="309733" />
	</node>
	<node lat="61.68399444555473" lon="11.947958328433595" id="-27803">
		<tag k="fixme" v="consider natural=peak for the most distinct mountains in the district" />
		<tag k="name" v="Løvåsen" />
		<tag k="natural" v="hill" />
		<tag k="place" v="locality" />
		<tag k="ssr:stedsnr" v="465998" />
	</node>
	<node lat="61.67286388492609" lon="12.01839165739516" id="-27804">
		<tag k="name" v="Tallbusdalen" />
		<tag k="natural" v="valley" />
		<tag k="place" v="locality" />
		<tag k="ssr:stedsnr" v="466239" />
	</node>
	<node lat="61.676780558012695" lon="12.033047214253429" id="-27805">
		<tag k="name" v="Skjærhøa" />
		<tag k="natural" v="hill" />
		<tag k="place" v="locality" />
		<tag k="ssr:stedsnr" v="466240" />
	</node>
	<node lat="61.65646111240503" lon="11.81959722828297" id="-27806">
		<tag k="alt_name" v="Husfloen, nordre" />
		<tag k="name" v="Nordre Husfloen" />
		<tag k="place" v="farm" />
		<tag k="ssr:stedsnr" v="313365" />
	</node>
	<node lat="61.66023888772194" lon="11.789252771826488" id="-27807">
		<tag k="name" v="Bekkslåtten" />
		<tag k="place" v="locality" />
		<tag k="ssr:stedsnr" v="313366" />
	</node>
	<node lat="61.71331666240856" lon="11.697319438340788" id="-27808">
		<tag k="name" v="Kastfloen" />
		<tag k="natural" v="water" />
		<tag k="ssr:stedsnr" v="313273" />
		<tag k="water" v="lake" />
	</node>
	<node lat="61.73105555183648" lon="11.754208335361335" id="-27809">
		<tag k="name" v="Dammen" />
		<tag k="ssr:stedsnr" v="313276" />
		<tag k="waterway" v="dam" />
	</node>
	<node lat="61.62109999957752" lon="12.020375001552617" id="-27810">
		<tag k="name" v="Engeren" />
		<tag k="natural" v="water" />
		<tag k="ssr:stedsnr" v="313672" />
		<tag k="water" v="lake" />
	</node>
	<node lat="61.62220278057523" lon="12.033513891257263" id="-27811">
		<tag k="name" v="Nylund" />
		<tag k="place" v="farm" />
		<tag k="ssr:stedsnr" v="313679" />
	</node>
	<node lat="61.64287777633873" lon="12.20812222460058" id="-27812">
		<tag k="name" v="Sørmyra" />
		<tag k="natural" v="wetland" />
		<tag k="ssr:stedsnr" v="313685" />
	</node>
	<node lat="61.63382499678906" lon="12.127163880123923" id="-27813">
		<tag k="name" v="Stormerramyra" />
		<tag k="natural" v="wetland" />
		<tag k="ssr:stedsnr" v="313687" />
	</node>
	<node lat="61.981577778201505" lon="11.782675008465883" id="-27814">
		<tag k="name" v="Storholmen" />
		<tag k="place" v="islet" />
		<tag k="ssr:stedsnr" v="314077" />
	</node>
	<node lat="61.93708889180195" lon="11.800183325518226" id="-27815">
		<tag k="name" v="Barnholmen" />
		<tag k="place" v="islet" />
		<tag k="ssr:stedsnr" v="314122" />
	</node>
	<node lat="62.0660805556299" lon="12.1635277852196" id="-27816">
		<tag k="name" v="Abbortjønna" />
		<tag k="natural" v="water" />
		<tag k="ssr:stedsnr" v="314323" />
	</node>
	<node lat="62.039011108594764" lon="12.108499990835872" id="-27817">
		<tag k="name" v="Småsjøelva" />
		<tag k="ssr:stedsnr" v="314325" />
		<tag k="waterway" v="stream" />
	</node>
	<node lat="62.04762568320933" lon="11.659129066687743" id="-27818">
		<tag k="name" v="Skåran" />
		<tag k="natural" v="valley" />
		<tag k="place" v="locality" />
		<tag k="ssr:stedsnr" v="314458" />
	</node>
	<node lat="62.036449999953184" lon="11.71613056505516" id="-27819">
		<tag k="name" v="Åsli" />
		<tag k="place" v="farm" />
		<tag k="ssr:stedsnr" v="314466" />
	</node>
	<node lat="62.02297222068896" lon="11.639627777110393" id="-27820">
		<tag k="name" v="Hopparbekken" />
		<tag k="ssr:stedsnr" v="314472" />
		<tag k="waterway" v="stream" />
	</node>
	<node lat="62.200657773694154" lon="12.16817594120038" id="-27821">
		<tag k="name" v="Rønsjøen" />
		<tag k="natural" v="water" />
		<tag k="ssr:stedsnr" v="314366" />
		<tag k="water" v="lake" />
	</node>
	<node lat="61.827425000665215" lon="12.037958339129839" id="-27822">
		<tag k="name" v="Storbekkmyra" />
		<tag k="natural" v="wetland" />
		<tag k="ssr:stedsnr" v="314808" />
	</node>
	<node lat="61.82404444534883" lon="12.098913895278915" id="-27823">
		<tag k="name" v="Stubbanetjønna" />
		<tag k="natural" v="water" />
		<tag k="ssr:stedsnr" v="314813" />
	</node>
	<node lat="61.87098889322411" lon="12.022702776780257" id="-27824">
		<tag k="name" v="Åsvang" />
		<tag k="place" v="farm" />
		<tag k="ssr:stedsnr" v="314825" />
	</node>
	<node lat="61.88029166809187" lon="12.16539721810882" id="-27825">
		<tag k="alt_name" v="Vordsjøen" />
		<tag k="name" v="Vålsjøen" />
		<tag k="natural" v="water" />
		<tag k="ssr:stedsnr" v="314829" />
	</node>
	<node lat="61.880520084832405" lon="12.056269370479315" id="-27826">
		<tag k="name" v="Brennodden" />
		<tag k="place" v="locality" />
		<tag k="ssr:stedsnr" v="314832" />
	</node>
	<node lat="61.78074166285443" lon="11.6384555536395" id="-27827">
		<tag k="name" v="Fløta" />
		<tag k="place" v="locality" />
		<tag k="ssr:stedsnr" v="314911" />
	</node>
	<node lat="61.77356666280785" lon="11.754308325603665" id="-27828">
		<tag k="alt_name" v="Granbergtangen" />
		<tag k="fixme" v="consider natural=peak for the most distinct mountains in the district" />
		<tag k="name" v="Granberget" />
		<tag k="natural" v="hill" />
		<tag k="place" v="locality" />
		<tag k="ssr:stedsnr" v="314912" />
	</node>
	<node lat="61.79825833018004" lon="11.708219453413221" id="-27829">
		<tag k="name" v="Bjørbekken" />
		<tag k="ssr:stedsnr" v="314914" />
		<tag k="waterway" v="stream" />
	</node>
	<node lat="62.26186612601502" lon="12.156697842769995" id="-27830">
		<tag k="name" v="Finnvolltjønnan" />
		<tag k="natural" v="water" />
		<tag k="ssr:stedsnr" v="315667" />
		<tag k="water" v="lake" />
	</node>
	<node lat="62.072125003966924" lon="11.623388889874649" id="-27831">
		<tag k="name" v="Litlbuhøgda" />
		<tag k="natural" v="hill" />
		<tag k="place" v="locality" />
		<tag k="ssr:stedsnr" v="324406" />
	</node>
	<node lat="62.090766667115474" lon="11.960027769315104" id="-27832">
		<tag k="name" v="Midttjønna" />
		<tag k="natural" v="water" />
		<tag k="ssr:stedsnr" v="324412" />
		<tag k="water" v="lake" />
	</node>
	<node lat="61.75453333706918" lon="11.96498055226421" id="-27834">
		<tag k="name" v="Nordi" />
		<tag k="place" v="farm" />
		<tag k="ssr:stedsnr" v="341042" />
	</node>
	<node lat="61.89651666912511" lon="12.01012222476836" id="-27835">
		<tag k="alt_name" v="Drevsjømoen mellom" />
		<tag k="name" v="Midtre Drevsjømoen" />
		<tag k="place" v="farm" />
		<tag k="ssr:stedsnr" v="342002" />
	</node>
	<node lat="61.91364444070251" lon="12.088933325773418" id="-27836">
		<tag k="name" v="Vintervegskardet" />
		<tag k="natural" v="valley" />
		<tag k="place" v="locality" />
		<tag k="ssr:stedsnr" v="342018" />
	</node>
	<node lat="61.90083889286401" lon="12.101050006324472" id="-27837">
		<tag k="name" v="Hallsteinsskardet" />
		<tag k="natural" v="valley" />
		<tag k="place" v="locality" />
		<tag k="ssr:stedsnr" v="342019" />
	</node>
	<node lat="61.83460277947028" lon="11.727541668006568" id="-27838">
		<tag k="fixme" v="consider tourism=alpine_hut or tourism=chalet" />
		<tag k="name" v="Femundsundet turisthytte" />
		<tag k="ssr:stedsnr" v="344046" />
		<tag k="tourism" v="wilderness_hut" />
	</node>
	<node lat="61.647347223586024" lon="11.832441670372486" id="-27839">
		<tag k="name" v="Strikåsa" />
		<tag k="ssr:stedsnr" v="473142" />
		<tag k="waterway" v="rapids" />
	</node>
	<node lat="61.83505278205216" lon="11.731058336694874" id="-27840">
		<tag k="fixme" v="consider tourism=alpine_hut or tourism=chalet" />
		<tag k="name" v="Sølenstua Camp &amp; Hytter" />
		<tag k="ssr:stedsnr" v="346106" />
		<tag k="tourism" v="wilderness_hut" />
	</node>
	<node lat="61.65314166935871" lon="12.024588897085605" id="-27841">
		<tag k="name" v="Hyllneset" />
		<tag k="natural" v="cape" />
		<tag k="ssr:stedsnr" v="358206" />
	</node>
	<node lat="62.02481944761228" lon="11.73888333545159" id="-27842">
		<tag k="name" v="Storkroken" />
		<tag k="place" v="locality" />
		<tag k="ssr:stedsnr" v="358362" />
	</node>
	<node lat="62.16071944320525" lon="11.731269444566209" id="-27843">
		<tag k="alt_name" v="Tyldalsvika" />
		<tag k="name" v="Tylldalsvika" />
		<tag k="natural" v="bay" />
		<tag k="ssr:stedsnr" v="358906" />
	</node>
	<node lat="62.10168333037776" lon="11.6465055612436" id="-27844">
		<tag k="name" v="Gråegga" />
		<tag k="natural" v="hill" />
		<tag k="place" v="locality" />
		<tag k="ssr:stedsnr" v="359054" />
	</node>
	<node lat="62.0946222255386" lon="11.65087221347932" id="-27845">
		<tag k="name" v="Bakosegga" />
		<tag k="natural" v="hill" />
		<tag k="place" v="locality" />
		<tag k="ssr:stedsnr" v="359060" />
	</node>
	<node lat="62.16287222407039" lon="11.985822219504188" id="-27846">
		<tag k="name" v="Rundmyrloken" />
		<tag k="natural" v="water" />
		<tag k="ssr:stedsnr" v="359210" />
	</node>
	<node lat="61.772752774021676" lon="12.132347214248297" id="-27847">
		<tag k="name" v="Kvisflået" />
		<tag k="natural" v="wetland" />
		<tag k="ssr:stedsnr" v="359606" />
	</node>
	<node lat="61.716713885352085" lon="11.74781667545212" id="-27848">
		<tag k="name" v="Haradalen" />
		<tag k="natural" v="valley" />
		<tag k="place" v="locality" />
		<tag k="ssr:stedsnr" v="359862" />
	</node>
	<node lat="61.63514166316382" lon="11.83733610537966" id="-27849">
		<tag k="name" v="Andvikbekken" />
		<tag k="ssr:stedsnr" v="477241" />
		<tag k="waterway" v="stream" />
	</node>
	<node lat="61.611786109867346" lon="12.046869451543444" id="-27851">
		<tag k="name" v="Høgtun" />
		<tag k="place" v="farm" />
		<tag k="ssr:stedsnr" v="478639" />
	</node>
	<node lat="61.61050555944333" lon="12.044938894545517" id="-27852">
		<tag k="name" v="Rødalen" />
		<tag k="place" v="farm" />
		<tag k="ssr:stedsnr" v="478641" />
	</node>
	<node lat="62.14251111547862" lon="11.612900002627361" id="-27853">
		<tag k="historic" v="shieling" />
		<tag k="name" v="Langoddvollen" />
		<tag k="place" v="isolated_dwelling" />
		<tag k="ssr:stedsnr" v="478881" />
	</node>
	<node lat="62.145319441731495" lon="11.632274995923844" id="-27854">
		<tag k="name" v="Nordre Langvika" />
		<tag k="natural" v="bay" />
		<tag k="ssr:stedsnr" v="478883" />
	</node>
	<node lat="62.21126666618035" lon="11.866641676207394" id="-27855">
		<tag k="name" v="Berga" />
		<tag k="natural" v="hill" />
		<tag k="place" v="locality" />
		<tag k="ssr:stedsnr" v="479176" />
	</node>
	<node lat="61.63957500351672" lon="12.182699994306503" id="-27856">
		<tag k="name" v="Gjotmarka" />
		<tag k="natural" v="slope" />
		<tag k="place" v="locality" />
		<tag k="ssr:stedsnr" v="373697" />
	</node>
	<node lat="61.65308055558167" lon="11.858261115199415" id="-27857">
		<tag k="name" v="Mælbekken" />
		<tag k="ssr:stedsnr" v="373647" />
		<tag k="waterway" v="stream" />
	</node>
	<node lat="61.659464706965885" lon="12.226414706334754" id="-27858">
		<tag k="alt_name" v="Østrefjellet" />
		<tag k="fixme" v="consider natural=peak for the most distinct mountains in the district" />
		<tag k="name" v="Østerfjellet" />
		<tag k="natural" v="hill" />
		<tag k="place" v="locality" />
		<tag k="ssr:stedsnr" v="373651" />
	</node>
	<node lat="61.654813891336026" lon="12.152211118526083" id="-27859">
		<tag k="name" v="Karttjønna" />
		<tag k="natural" v="water" />
		<tag k="ssr:stedsnr" v="373656" />
	</node>
	<node lat="62.05804444831606" lon="11.973433337907181" id="-27860">
		<tag k="name" v="Skogtjønna" />
		<tag k="natural" v="water" />
		<tag k="ssr:stedsnr" v="374302" />
	</node>
	<node lat="62.06472642197768" lon="12.127124995062438" id="-27861">
		<tag k="fixme" v="multiple name tags, choose one and add the other to alt_name" />
		<tag k="name" v="Bjørnholbekken;Brunnhølbekken" />
		<tag k="ssr:stedsnr" v="374303" />
		<tag k="waterway" v="stream" />
	</node>
	<node lat="62.07590833365807" lon="12.171508331367672" id="-27862">
		<tag k="fixme" v="consider tourism=alpine_hut or tourism=chalet" />
		<tag k="name" v="Valdalen gård" />
		<tag k="ssr:stedsnr" v="374308" />
		<tag k="tourism" v="wilderness_hut" />
	</node>
	<node lat="62.069200004190364" lon="12.106994451489445" id="-27863">
		<tag k="historic" v="shieling" />
		<tag k="name" v="Yttervollen" />
		<tag k="place" v="isolated_dwelling" />
		<tag k="ssr:stedsnr" v="374319" />
	</node>
	<node lat="62.07181111199207" lon="11.819213881944327" id="-27864">
		<tag k="name" v="Jonasodden" />
		<tag k="natural" v="cape" />
		<tag k="ssr:stedsnr" v="374321" />
	</node>
	<node lat="61.6486499964834" lon="11.834561113569588" id="-27865">
		<tag k="name" v="Kviløya" />
		<tag k="place" v="island" />
		<tag k="ssr:stedsnr" v="374350" />
	</node>
	<node lat="61.715708331563846" lon="11.802199994753806" id="-27866">
		<tag k="name" v="Storbekken" />
		<tag k="ssr:stedsnr" v="374289" />
		<tag k="waterway" v="stream" />
	</node>
	<node lat="62.10405277896368" lon="12.207005546465448" id="-27867">
		<tag k="alt_name" v="Olåa, l" />
		<tag k="name" v="Litle Olåa" />
		<tag k="ssr:stedsnr" v="374295" />
		<tag k="waterway" v="stream" />
	</node>
	<node lat="62.09849722283052" lon="12.140050001284944" id="-27868">
		<tag k="name" v="Rundhøgda" />
		<tag k="natural" v="hill" />
		<tag k="place" v="locality" />
		<tag k="ssr:stedsnr" v="374296" />
	</node>
	<node lat="62.0592522633857" lon="11.88674655251473" id="-27869">
		<tag k="alt_name" v="Gråsneset, store" />
		<tag k="name" v="Store Gråsneset" />
		<tag k="natural" v="cape" />
		<tag k="ssr:stedsnr" v="374301" />
	</node>
	<node lat="61.693699998059" lon="12.018527770589458" id="-27870">
		<tag k="name" v="Vetbekkmyrene" />
		<tag k="natural" v="wetland" />
		<tag k="ssr:stedsnr" v="374731" />
	</node>
	<node lat="61.697180552219216" lon="11.940041667868845" id="-27871">
		<tag k="alt_name" v="Grønnhulubekken" />
		<tag k="name" v="Grønholbekken" />
		<tag k="ssr:stedsnr" v="374733" />
		<tag k="waterway" v="stream" />
	</node>
	<node lat="61.7021972243195" lon="12.053758334784156" id="-27872">
		<tag k="name" v="Nystorbekken" />
		<tag k="ssr:stedsnr" v="374737" />
		<tag k="waterway" v="stream" />
	</node>
	<node lat="61.70761944273187" lon="11.963822220035691" id="-27873">
		<tag k="name" v="Grasbekken" />
		<tag k="ssr:stedsnr" v="374740" />
		<tag k="waterway" v="stream" />
	</node>
	<node lat="61.72286388454106" lon="11.973050000704205" id="-27874">
		<tag k="name" v="Brustad" />
		<tag k="place" v="farm" />
		<tag k="ssr:stedsnr" v="374750" />
	</node>
	<node lat="61.844052720159766" lon="11.84436913517936" id="-27875">
		<tag k="name" v="Gløtvola" />
		<tag k="old_name" v="Gløtvorda" />
		<tag k="place" v="hamlet" />
		<tag k="ssr:stedsnr" v="374835" />
	</node>
	<node lat="61.850222226254516" lon="12.003200009723654" id="-27876">
		<tag k="alt_name" v="Skau" />
		<tag k="name" v="Skog" />
		<tag k="place" v="farm" />
		<tag k="ssr:stedsnr" v="374842" />
	</node>
	<node lat="61.84808610680415" lon="11.93983055129256" id="-27877">
		<tag k="alt_name" v="Hovdbekken, nordre" />
		<tag k="name" v="Nordre Hovdbekken" />
		<tag k="ssr:stedsnr" v="374847" />
		<tag k="waterway" v="stream" />
	</node>
	<node lat="61.98342500028525" lon="11.891583327157692" id="-27878">
		<tag k="name" v="Veslbuvika" />
		<tag k="natural" v="bay" />
		<tag k="ssr:stedsnr" v="374908" />
	</node>
	<node lat="62.12793888884806" lon="11.64841388968259" id="-27879">
		<tag k="name" v="Håen" />
		<tag k="natural" v="water" />
		<tag k="ssr:stedsnr" v="480039" />
		<tag k="water" v="lake" />
	</node>
	<node lat="61.97666944470546" lon="11.79795555759737" id="-27880">
		<tag k="name" v="Nysandvika" />
		<tag k="natural" v="bay" />
		<tag k="ssr:stedsnr" v="375086" />
	</node>
	<node lat="62.13160833616557" lon="12.060913888655913" id="-27881">
		<tag k="name" v="Storslågskardet" />
		<tag k="natural" v="valley" />
		<tag k="place" v="locality" />
		<tag k="ssr:stedsnr" v="375210" />
	</node>
	<node lat="62.16385278198831" lon="11.87305555239167" id="-27882">
		<tag k="name" v="Storholmen" />
		<tag k="place" v="islet" />
		<tag k="ssr:stedsnr" v="375308" />
	</node>
	<node lat="62.163966668627346" lon="11.963338891372372" id="-27883">
		<tag k="name" v="Røstbekken" />
		<tag k="ssr:stedsnr" v="375312" />
		<tag k="waterway" v="stream" />
	</node>
	<node lat="62.15731111448402" lon="11.90028056028104" id="-27884">
		<tag k="name" v="Elvodden" />
		<tag k="natural" v="cape" />
		<tag k="ssr:stedsnr" v="375336" />
	</node>
	<node lat="62.27340555360433" lon="12.160402768398859" id="-27885">
		<tag k="name" v="Stortjønna" />
		<tag k="natural" v="water" />
		<tag k="ssr:stedsnr" v="375631" />
	</node>
	<node lat="62.26905555384695" lon="11.84750000610941" id="-27886">
		<tag k="name" v="Falkfangarhøgda" />
		<tag k="natural" v="hill" />
		<tag k="place" v="locality" />
		<tag k="ssr:stedsnr" v="375634" />
	</node>
	<node lat="62.16841999305156" lon="12.239275079946022" id="-27887">
		<tag k="fixme" v="consider place=hamlet" />
		<tag k="name" v="Sylen" />
		<tag k="old_name" v="Sylset" />
		<tag k="place" v="farm" />
		<tag k="ssr:stedsnr" v="375702" />
	</node>
	<node lat="62.02471389003288" lon="11.945819445382146" id="-27888">
		<tag k="fixme" v="consider natural=peak for the most distinct mountains in the district" />
		<tag k="name" v="Stenvikåsen" />
		<tag k="natural" v="hill" />
		<tag k="place" v="locality" />
		<tag k="ssr:stedsnr" v="375719" />
	</node>
	<node lat="61.772036114076116" lon="11.942750005335016" id="-27889">
		<tag k="name" v="Haugen" />
		<tag k="place" v="farm" />
		<tag k="ssr:stedsnr" v="375725" />
	</node>
	<node lat="61.7936694456036" lon="12.010841673405018" id="-27890">
		<tag k="alt_name" v="Rundjotskarven" />
		<tag k="name" v="Rundgjotskarven" />
		<tag k="natural" v="hill" />
		<tag k="place" v="locality" />
		<tag k="ssr:stedsnr" v="375777" />
	</node>
	<node lat="61.814394446060916" lon="11.914902780238041" id="-27891">
		<tag k="name" v="Pers" />
		<tag k="place" v="farm" />
		<tag k="ssr:stedsnr" v="375789" />
	</node>
	<node lat="61.96467777670095" lon="12.124119445024766" id="-27892">
		<tag k="name" v="Skarpabbortjønna" />
		<tag k="natural" v="water" />
		<tag k="ssr:stedsnr" v="375877" />
	</node>
	<node lat="61.97142301504661" lon="11.944534207228887" id="-27893">
		<tag k="fixme" v="consider place=hamlet" />
		<tag k="name" v="Sorken" />
		<tag k="place" v="village" />
		<tag k="ssr:stedsnr" v="375885" />
	</node>
	<node lat="61.968246372798575" lon="11.886942332186713" id="-27894">
		<tag k="name" v="Furuoddtjønnan" />
		<tag k="natural" v="water" />
		<tag k="ssr:stedsnr" v="375897" />
		<tag k="water" v="lake" />
	</node>
	<node lat="61.90743333274356" lon="11.825550002467118" id="-27895">
		<tag k="fixme" v="consider natural=peak for the most distinct mountains in the district" />
		<tag k="name" v="Snauåsen" />
		<tag k="natural" v="hill" />
		<tag k="place" v="locality" />
		<tag k="ssr:stedsnr" v="375996" />
	</node>
	<node lat="62.10278332892872" lon="11.667341670775016" id="-27896">
		<tag k="name" v="Brustad" />
		<tag k="place" v="farm" />
		<tag k="ssr:stedsnr" v="480046" />
	</node>
</osm>
