<?xml version="1.0" encoding="UTF-8"?>
<<<<<<< HEAD
<osm version="0.6" generator="osmapis">
	<node lat="61.851083329221304" lon="11.850663882702987" id="-16959">
		<tag k="highway" v="path" />
		<tag k="name" v="Femundsætervegen" />
		<tag k="ssr:stedsnr" v="116477" />
	</node>
	<node lat="61.821966663602794" lon="11.724391665054211" id="-16972">
=======
<osm generator="osmapis" version="0.6">
	<node id="-346451" lat="61.838444445" lon="11.8157777743">
		<tag k="fixme" v="consider highway=path" />
		<tag k="highway" v="track" />
		<tag k="name" v="Eggvegen" />
		<tag k="ssr:stedsnr" v="237387" />
	</node>
	<node id="-348542" lat="61.8201861139" lon="11.7048833247">
		<tag k="name" v="Myrstadvelta" />
		<tag k="place" v="locality" />
		<tag k="ssr:stedsnr" v="847407" />
	</node>
	<node id="-348668" lat="62.073702467" lon="11.5993689735">
		<tag k="highway" v="path" />
		<tag k="name" v="Gjotvegen" />
		<tag k="ssr:stedsnr" v="1073538" />
	</node>
	<node id="-348667" lat="61.6932324353" lon="12.1070797733">
		<tag k="highway" v="path" />
		<tag k="name" v="Rødalsvegen" />
		<tag k="ssr:stedsnr" v="1073528" />
	</node>
	<node id="-348535" lat="61.7619055599" lon="11.6447694492">
		<tag k="name" v="Kubbvelta" />
		<tag k="place" v="locality" />
		<tag k="ssr:stedsnr" v="845950" />
	</node>
	<node id="-346707" lat="61.8129361105" lon="11.915100009">
		<tag k="bridge" v="yes" />
		<tag k="layer" v="1" />
		<tag k="name" v="Hovdbekk" />
		<tag k="ssr:stedsnr" v="289263" />
	</node>
	<node id="-348528" lat="61.7444583339" lon="11.764877774">
>>>>>>> e1d4bc35ff8a6074a6f2e91616a996b547c36f15
		<tag k="highway" v="path" />
		<tag k="name" v="Sætervegen" />
		<tag k="ssr:stedsnr" v="119378" />
	</node>
<<<<<<< HEAD
	<node lat="61.83844444497918" lon="11.81577777426882" id="-17075">
		<tag k="fixme" v="consider highway=path" />
		<tag k="highway" v="track" />
		<tag k="name" v="Eggvegen" />
		<tag k="ssr:stedsnr" v="237387" />
	</node>
	<node lat="62.085313893279974" lon="11.648222216170167" id="-17081">
		<tag k="highway" v="path" />
		<tag k="name" v="Rendalsvegen" />
		<tag k="ssr:stedsnr" v="238511" />
	</node>
	<node lat="61.73431666593825" lon="11.826583325990926" id="-17251">
		<tag k="highway" v="path" />
		<tag k="name" v="Turvflåvegen" />
		<tag k="ssr:stedsnr" v="480991" />
	</node>
	<node lat="61.92569722289888" lon="11.90207221424135" id="-17315">
=======
	<node id="-347499" lat="61.8437555594" lon="11.8617694481">
		<tag k="highway" v="path" />
		<tag k="name" v="Kviltvegen" />
		<tag k="ssr:stedsnr" v="905510" />
	</node>
	<node id="-348648" lat="61.811483334" lon="11.7074499931">
		<tag k="fixme" v="verify maritime location" />
		<tag k="mooring" v="yes" />
		<tag k="name" v="Haugbåtstøa" />
		<tag k="place" v="locality" />
		<tag k="ssr:stedsnr" v="968386" />
	</node>
	<node id="-348135" lat="61.8069666637" lon="11.9131361171">
		<tag k="alt_name" v="Storbekkvaet" />
		<tag k="ford" v="yes" />
		<tag k="name" v="Storbekkvadet" />
		<tag k="place" v="locality" />
		<tag k="ssr:stedsnr" v="541486" />
	</node>
	<node id="-346723" lat="61.9256972229" lon="11.9020722142">
>>>>>>> e1d4bc35ff8a6074a6f2e91616a996b547c36f15
		<tag k="bridge" v="yes" />
		<tag k="layer" v="1" />
		<tag k="name" v="Bjerta bru" />
		<tag k="ssr:stedsnr" v="471265" />
	</node>
<<<<<<< HEAD
	<node lat="61.91740833775879" lon="11.92827777131198" id="-17452">
		<tag k="highway" v="path" />
		<tag k="name" v="Kvennhusbakken" />
		<tag k="ssr:stedsnr" v="541576" />
	</node>
	<node lat="61.83652777954021" lon="11.732350009426652" id="-17581">
=======
	<node id="-346846" lat="61.9073555577" lon="11.7852416722">
>>>>>>> e1d4bc35ff8a6074a6f2e91616a996b547c36f15
		<tag k="junction" v="yes" />
		<tag k="name" v="Sølenstua" />
		<tag k="place" v="locality" />
<<<<<<< HEAD
		<tag k="ssr:stedsnr" v="626300" />
	</node>
	<node lat="61.68071944819799" lon="12.0663194442796" id="-17603">
=======
		<tag k="ssr:stedsnr" v="496992" />
	</node>
	<node id="-346584" lat="61.8219666636" lon="11.7243916651">
		<tag k="highway" v="path" />
		<tag k="name" v="Sætervegen" />
		<tag k="ssr:stedsnr" v="119378" />
	</node>
	<node id="-347735" lat="61.8806222248" lon="11.7402249944">
>>>>>>> e1d4bc35ff8a6074a6f2e91616a996b547c36f15
		<tag k="fixme" v="verify maritime location" />
		<tag k="mooring" v="yes" />
		<tag k="name" v="Trysilstøa" />
		<tag k="place" v="locality" />
		<tag k="ssr:stedsnr" v="709242" />
	</node>
<<<<<<< HEAD
	<node lat="61.744458333918786" lon="11.76487777401298" id="-17869">
		<tag k="highway" v="path" />
		<tag k="name" v="Venundåsvegen" />
		<tag k="ssr:stedsnr" v="845811" />
	</node>
	<node lat="61.82018611385502" lon="11.704883324656404" id="-17873">
		<tag k="name" v="Myrstadvelta" />
		<tag k="place" v="locality" />
		<tag k="ssr:stedsnr" v="847407" />
	</node>
	<node lat="61.8437555593945" lon="11.861769448107184" id="-17910">
		<tag k="highway" v="path" />
		<tag k="name" v="Kviltvegen" />
		<tag k="ssr:stedsnr" v="905510" />
	</node>
	<node lat="61.80441666720991" lon="11.705463893957091" id="-17963">
=======
	<node id="-348500" lat="61.9562166639" lon="12.1462083255">
		<tag k="fixme" v="consider highway=path" />
		<tag k="highway" v="track" />
		<tag k="name" v="Dynamittvegen" />
		<tag k="ssr:stedsnr" v="844545" />
	</node>
	<node id="-347091" lat="61.9174083378" lon="11.9282777713">
		<tag k="highway" v="path" />
		<tag k="name" v="Kvennhusbakken" />
		<tag k="ssr:stedsnr" v="541576" />
	</node>
	<node id="-347858" lat="62.1531999964" lon="12.1597833395">
		<tag k="alt_name" v="Linnes veg" />
		<tag k="highway" v="path" />
		<tag k="name" v="Linnes veg 1734" />
		<tag k="ssr:stedsnr" v="193389" />
	</node>
	<node id="-348234" lat="61.6871833302" lon="11.7120583389">
		<tag k="fixme" v="consider highway=path" />
		<tag k="highway" v="track" />
		<tag k="name" v="Måsåvegen" />
		<tag k="ssr:stedsnr" v="601135" />
	</node>
	<node id="-348610" lat="62.1307166664" lon="11.7057083405">
>>>>>>> e1d4bc35ff8a6074a6f2e91616a996b547c36f15
		<tag k="bridge" v="yes" />
		<tag k="layer" v="1" />
		<tag k="name" v="Bjørbekken" />
		<tag k="ssr:stedsnr" v="956294" />
	</node>
<<<<<<< HEAD
	<node lat="61.81148333401184" lon="11.707449993071034" id="-17986">
		<tag k="fixme" v="verify maritime location" />
		<tag k="mooring" v="yes" />
		<tag k="name" v="Haugbåtstøa" />
		<tag k="place" v="locality" />
		<tag k="ssr:stedsnr" v="968386" />
	</node>
	<node lat="61.84450277840329" lon="11.842230560485957" id="-18135">
=======
	<node id="-348609" lat="62.0063388874" lon="11.7109277825">
		<tag k="bridge" v="yes" />
		<tag k="layer" v="1" />
		<tag k="name" v="Ormutta" />
		<tag k="ssr:stedsnr" v="957263" />
	</node>
	<node id="-348608" lat="61.8044166672" lon="11.705463894">
>>>>>>> e1d4bc35ff8a6074a6f2e91616a996b547c36f15
		<tag k="bridge" v="yes" />
		<tag k="layer" v="1" />
		<tag k="name" v="Gløtvola bru" />
		<tag k="ssr:stedsnr" v="107259" />
	</node>
<<<<<<< HEAD
	<node lat="62.14587500435169" lon="11.584750002002194" id="-18139">
		<tag k="fixme" v="consider highway=path" />
		<tag k="highway" v="track" />
		<tag k="name" v="Jotsætervegen" />
		<tag k="ssr:stedsnr" v="115869" />
	</node>
	<node lat="62.10258611101441" lon="11.637883326461498" id="-18144">
=======
	<node id="-347711" lat="61.8510833292" lon="11.8506638827">
		<tag k="highway" v="path" />
		<tag k="name" v="Femundsætervegen" />
		<tag k="ssr:stedsnr" v="116477" />
	</node>
	<node id="-347709" lat="62.102586111" lon="11.6378833265">
>>>>>>> e1d4bc35ff8a6074a6f2e91616a996b547c36f15
		<tag k="fixme" v="consider highway=path" />
		<tag k="highway" v="track" />
		<tag k="name" v="Rovegen" />
		<tag k="ssr:stedsnr" v="116066" />
	</node>
<<<<<<< HEAD
	<node lat="61.88062222476508" lon="11.74022499440014" id="-18163">
		<tag k="fixme" v="verify maritime location" />
		<tag k="mooring" v="yes" />
		<tag k="name" v="Felhansbåtstøa" />
		<tag k="place" v="locality" />
		<tag k="ssr:stedsnr" v="118362" />
	</node>
	<node lat="62.153199996351134" lon="12.159783339473588" id="-18291">
		<tag k="alt_name" v="Linnes veg" />
		<tag k="highway" v="path" />
		<tag k="name" v="Linnes veg 1734" />
		<tag k="ssr:stedsnr" v="193389" />
	</node>
	<node lat="61.70498333706012" lon="11.980475008877669" id="-18331">
		<tag k="bridge" v="yes" />
		<tag k="layer" v="1" />
		<tag k="name" v="Blakå bru" />
		<tag k="ssr:stedsnr" v="228271" />
	</node>
	<node lat="61.81293611045978" lon="11.915100008988631" id="-18339">
=======
	<node id="-346683" lat="61.7049833371" lon="11.9804750089">
		<tag k="bridge" v="yes" />
		<tag k="layer" v="1" />
		<tag k="name" v="Blakå bru" />
		<tag k="ssr:stedsnr" v="228271" />
	</node>
	<node id="-347705" lat="62.1458750044" lon="11.584750002">
		<tag k="fixme" v="consider highway=path" />
		<tag k="highway" v="track" />
		<tag k="name" v="Jotsætervegen" />
		<tag k="ssr:stedsnr" v="115869" />
	</node>
	<node id="-346935" lat="61.7552111114" lon="11.9001638808">
		<tag k="highway" v="path" />
		<tag k="name" v="Svingvegen" />
		<tag k="ssr:stedsnr" v="662345" />
	</node>
	<node id="-347701" lat="61.8445027784" lon="11.8422305605">
>>>>>>> e1d4bc35ff8a6074a6f2e91616a996b547c36f15
		<tag k="bridge" v="yes" />
		<tag k="layer" v="1" />
		<tag k="name" v="Hovdbekk" />
		<tag k="ssr:stedsnr" v="289263" />
	</node>
<<<<<<< HEAD
	<node lat="61.76146389306217" lon="11.844336109951547" id="-18348">
=======
	<node id="-346669" lat="61.7614638931" lon="11.84433611">
>>>>>>> e1d4bc35ff8a6074a6f2e91616a996b547c36f15
		<tag k="highway" v="path" />
		<tag k="name" v="Kringsillen" />
		<tag k="ssr:stedsnr" v="298338" />
	</node>
<<<<<<< HEAD
	<node lat="61.67734444867351" lon="12.005619452769894" id="-18418">
=======
	<node id="-347943" lat="61.6773444487" lon="12.0056194528">
>>>>>>> e1d4bc35ff8a6074a6f2e91616a996b547c36f15
		<tag k="bridge" v="yes" />
		<tag k="layer" v="1" />
		<tag k="name" v="Hundsbekk bru" />
		<tag k="ssr:stedsnr" v="349327" />
	</node>
<<<<<<< HEAD
=======
	<node id="-348325" lat="61.8365277795" lon="11.7323500094">
		<tag k="junction" v="yes" />
		<tag k="name" v="Sølenstua" />
		<tag k="place" v="locality" />
		<tag k="ssr:stedsnr" v="626300" />
	</node>
	<node id="-346778" lat="61.7343166659" lon="11.826583326">
		<tag k="highway" v="path" />
		<tag k="name" v="Turvflåvegen" />
		<tag k="ssr:stedsnr" v="480991" />
	</node>
	<node id="-347142" lat="61.6807194482" lon="12.0663194443">
		<tag k="fixme" v="verify maritime location" />
		<tag k="mooring" v="yes" />
		<tag k="name" v="Trysilstøa" />
		<tag k="place" v="locality" />
		<tag k="ssr:stedsnr" v="709242" />
	</node>
	<node id="-346475" lat="62.0853138933" lon="11.6482222162">
		<tag k="highway" v="path" />
		<tag k="name" v="Rendalsvegen" />
		<tag k="ssr:stedsnr" v="238511" />
	</node>
>>>>>>> e1d4bc35ff8a6074a6f2e91616a996b547c36f15
</osm>
