<?xml version="1.0" encoding="UTF-8"?>
<osm version="0.6" generator="osmapis">
	<node lat="61.68621666811629" lon="11.787327774122714" id="-21334">
		<tag k="name" v="Sætertjønna" />
		<tag k="natural" v="water" />
		<tag k="ssr:stedsnr" v="10329" />
	</node>
	<node lat="61.68754444048054" lon="12.060374997141114" id="-21337">
		<tag k="name" v="Lebladtjønna" />
		<tag k="natural" v="water" />
		<tag k="ssr:stedsnr" v="10733" />
	</node>
	<node lat="61.76235833732236" lon="12.112991659975393" id="-21338">
		<tag k="alt_name" v="Fuglebekken, s" />
		<tag k="name" v="Søndre Fuglebekken" />
		<tag k="ssr:stedsnr" v="10737" />
		<tag k="waterway" v="stream" />
	</node>
	<node lat="61.78595000348236" lon="11.714461109946912" id="-21339">
		<tag k="name" v="Bjørbekktjønna" />
		<tag k="natural" v="water" />
		<tag k="ssr:stedsnr" v="10933" />
	</node>
	<node lat="61.7806003669271" lon="11.777412396604083" id="-21340">
		<tag k="name" v="Flåtjønnan" />
		<tag k="natural" v="water" />
		<tag k="ssr:stedsnr" v="10936" />
		<tag k="water" v="lake" />
	</node>
	<node lat="62.03192499892022" lon="11.818658334013685" id="-21344">
		<tag k="name" v="Risbekken" />
		<tag k="ssr:stedsnr" v="11290" />
		<tag k="waterway" v="stream" />
	</node>
	<node lat="62.052513889192106" lon="11.790708338326363" id="-21345">
		<tag k="name" v="Bjørnfjordvika" />
		<tag k="natural" v="bay" />
		<tag k="ssr:stedsnr" v="11294" />
	</node>
	<node lat="62.197622224619714" lon="11.943630560395162" id="-21348">
		<tag k="name" v="Langodden" />
		<tag k="natural" v="cape" />
		<tag k="ssr:stedsnr" v="11678" />
	</node>
	<node lat="61.830819440903646" lon="12.121149998493221" id="-21351">
		<tag k="name" v="Stortjønna" />
		<tag k="natural" v="water" />
		<tag k="ssr:stedsnr" v="11822" />
	</node>
	<node lat="61.826505555275745" lon="12.149758338713648" id="-21352">
		<tag k="alt_name" v="Tollåa, nordre" />
		<tag k="name" v="Nordre Tollåa" />
		<tag k="ssr:stedsnr" v="11825" />
		<tag k="waterway" v="stream" />
	</node>
	<node lat="61.989952779078116" lon="11.989638880192436" id="-21357">
		<tag k="alt_name" v="Tolgebekken" />
		<tag k="name" v="Tolgesbekken" />
		<tag k="ssr:stedsnr" v="11922" />
		<tag k="waterway" v="stream" />
	</node>
	<node lat="62.00688332907755" lon="11.750480553266772" id="-21359">
		<tag k="name" v="Stongholmsundet" />
		<tag k="natural" v="strait" />
		<tag k="ssr:stedsnr" v="20748" />
	</node>
	<node lat="61.63563055153429" lon="11.850952781139684" id="-21360">
		<tag k="name" v="Vikholmen" />
		<tag k="natural" v="cape" />
		<tag k="ssr:stedsnr" v="235045" />
	</node>
	<node lat="62.18311666596373" lon="11.85928334032902" id="-21361">
		<tag k="name" v="Rotvikholmen" />
		<tag k="place" v="islet" />
		<tag k="ssr:stedsnr" v="236167" />
	</node>
	<node lat="62.17172777367794" lon="11.864883335788033" id="-21363">
		<tag k="name" v="Svartskvampen" />
		<tag k="natural" v="shoal" />
		<tag k="place" v="locality" />
		<tag k="ssr:stedsnr" v="236223" />
	</node>
	<node lat="61.60924722170634" lon="12.035430553633432" id="-21364">
		<tag k="name" v="Røneset" />
		<tag k="natural" v="cape" />
		<tag k="ssr:stedsnr" v="236581" />
	</node>
	<node lat="61.83514166676282" lon="12.038269448978685" id="-21365">
		<tag k="name" v="Storbekken" />
		<tag k="ssr:stedsnr" v="237017" />
		<tag k="waterway" v="stream" />
	</node>
	<node lat="61.69713055867176" lon="11.720441660973602" id="-21368">
		<tag k="name" v="Hundsholmen" />
		<tag k="place" v="islet" />
		<tag k="ssr:stedsnr" v="237160" />
	</node>
	<node lat="62.05941388633562" lon="12.002763889919585" id="-21369">
		<tag k="name" v="Kjøråa" />
		<tag k="ssr:stedsnr" v="237174" />
		<tag k="waterway" v="stream" />
	</node>
	<node lat="62.0381333352564" lon="11.668177780252973" id="-21371">
		<tag k="name" v="Granhullet" />
		<tag k="natural" v="water" />
		<tag k="ssr:stedsnr" v="237355" />
	</node>
	<node lat="61.84088611444132" lon="11.88807221463831" id="-21372">
		<tag k="name" v="Jakobsbekken" />
		<tag k="ssr:stedsnr" v="237372" />
		<tag k="waterway" v="stream" />
	</node>
	<node lat="61.64805277994716" lon="12.153638882060912" id="-21374">
		<tag k="name" v="Vidammen" />
		<tag k="natural" v="water" />
		<tag k="ssr:stedsnr" v="237757" />
		<tag k="water" v="pond" />
	</node>
	<node lat="62.152599997217465" lon="11.956811111210001" id="-21378">
		<tag k="name" v="Jensloken" />
		<tag k="natural" v="water" />
		<tag k="ssr:stedsnr" v="238100" />
		<tag k="water" v="pond" />
	</node>
	<node lat="62.115980554295476" lon="11.655961103996177" id="-21379">
		<tag k="name" v="Storholmen" />
		<tag k="place" v="islet" />
		<tag k="ssr:stedsnr" v="238026" />
	</node>
	<node lat="61.87176944852867" lon="11.98773055925832" id="-21380">
		<tag k="name" v="Hansbakktjønna" />
		<tag k="natural" v="water" />
		<tag k="ssr:stedsnr" v="238124" />
	</node>
	<node lat="61.631719441690535" lon="12.133638885576683" id="-21391">
		<tag k="name" v="Karitjønnan" />
		<tag k="natural" v="water" />
		<tag k="ssr:stedsnr" v="53567" />
		<tag k="water" v="lake" />
	</node>
	<node lat="61.80156666565599" lon="12.107319453612645" id="-21393">
		<tag k="name" v="Litlsvarttjønna" />
		<tag k="natural" v="water" />
		<tag k="ssr:stedsnr" v="55053" />
	</node>
	<node lat="61.862744445798675" lon="11.99014165775376" id="-21395">
		<tag k="name" v="Bjørbekktjønna" />
		<tag k="natural" v="water" />
		<tag k="ssr:stedsnr" v="56105" />
	</node>
	<node lat="61.80078610872168" lon="11.92375000779062" id="-21397">
		<tag k="name" v="Nordre Sollitjønna" />
		<tag k="natural" v="water" />
		<tag k="ssr:stedsnr" v="56490" />
	</node>
	<node lat="61.67912777616236" lon="11.745663880266507" id="-21398">
		<tag k="name" v="Rankvika" />
		<tag k="natural" v="bay" />
		<tag k="ssr:stedsnr" v="56818" />
	</node>
	<node lat="61.886486113399656" lon="12.007516669792862" id="-21405">
		<tag k="name" v="Blokkodden" />
		<tag k="natural" v="cape" />
		<tag k="ssr:stedsnr" v="59025" />
	</node>
	<node lat="61.72156110778875" lon="11.685077770034626" id="-21406">
		<tag k="name" v="Sæterbuvika" />
		<tag k="natural" v="bay" />
		<tag k="ssr:stedsnr" v="58921" />
	</node>
	<node lat="61.87638888571357" lon="11.727633339826577" id="-21407">
		<tag k="name" v="Øvre Fallet" />
		<tag k="ssr:stedsnr" v="240414" />
		<tag k="waterway" v="rapids" />
	</node>
	<node lat="61.86843333253892" lon="11.729236110816807" id="-21408">
		<tag k="name" v="Stengarden" />
		<tag k="natural" v="beach" />
		<tag k="ssr:stedsnr" v="240416" />
	</node>
	<node lat="61.63606388605438" lon="12.099583328817287" id="-21409">
		<tag k="name" v="Bjørkrusttjønna" />
		<tag k="natural" v="water" />
		<tag k="ssr:stedsnr" v="59202" />
	</node>
	<node lat="61.885094447188806" lon="12.007380555599129" id="-21411">
		<tag k="name" v="Blokka" />
		<tag k="natural" v="bay" />
		<tag k="ssr:stedsnr" v="241022" />
	</node>
	<node lat="61.64178888864068" lon="12.027369453314275" id="-21413">
		<tag k="name" v="Tytlingneset" />
		<tag k="natural" v="cape" />
		<tag k="ssr:stedsnr" v="241249" />
	</node>
	<node lat="61.978347914962534" lon="11.969472414807415" id="-21418">
		<tag k="name" v="Stenbekktjønnan" />
		<tag k="natural" v="water" />
		<tag k="ssr:stedsnr" v="71914" />
		<tag k="water" v="lake" />
	</node>
	<node lat="61.97994999540516" lon="11.86607500688129" id="-21419">
		<tag k="name" v="Harrbekken" />
		<tag k="ssr:stedsnr" v="71916" />
		<tag k="waterway" v="stream" />
	</node>
	<node lat="61.997083335064254" lon="11.924272223117447" id="-21422">
		<tag k="alt_name" v="Gjermundstjønna" />
		<tag k="name" v="Gjermundtjønna" />
		<tag k="natural" v="water" />
		<tag k="ssr:stedsnr" v="71940" />
	</node>
	<node lat="61.781086107337366" lon="11.729699993519056" id="-21423">
		<tag k="name" v="Volltjønna" />
		<tag k="natural" v="water" />
		<tag k="ssr:stedsnr" v="71953" />
	</node>
	<node lat="62.169074996829416" lon="12.176533330848327" id="-21425">
		<tag k="name" v="Varga" />
		<tag k="ssr:stedsnr" v="72330" />
		<tag k="waterway" v="stream" />
	</node>
	<node lat="62.25663333377811" lon="11.900891673458036" id="-21429">
		<tag k="name" v="Munkfoten" />
		<tag k="natural" v="cape" />
		<tag k="ssr:stedsnr" v="72646" />
	</node>
	<node lat="62.30658611018341" lon="11.85490832839902" id="-21430">
		<tag k="name" v="Smålokan" />
		<tag k="natural" v="water" />
		<tag k="ssr:stedsnr" v="72568" />
	</node>
	<node lat="61.78047222244823" lon="12.13419444581194" id="-21432">
		<tag k="name" v="Langtjønna" />
		<tag k="natural" v="water" />
		<tag k="ssr:stedsnr" v="72731" />
	</node>
	<node lat="61.951011110548606" lon="11.883977771073715" id="-21434">
		<tag k="name" v="Gløtbekken" />
		<tag k="ssr:stedsnr" v="72867" />
		<tag k="waterway" v="stream" />
	</node>
	<node lat="61.765527780733656" lon="11.951344444947551" id="-21438">
		<tag k="name" v="Brenneset" />
		<tag k="natural" v="cape" />
		<tag k="ssr:stedsnr" v="101984" />
	</node>
	<node lat="62.090566663629915" lon="11.648719453439924" id="-21441">
		<tag k="name" v="Rybekken" />
		<tag k="ssr:stedsnr" v="116482" />
		<tag k="waterway" v="stream" />
	</node>
	<node lat="61.84013888679824" lon="11.816805545924572" id="-21448">
		<tag k="name" v="Eggen" />
		<tag k="natural" v="water" />
		<tag k="ssr:stedsnr" v="116372" />
		<tag k="water" v="pond" />
	</node>
	<node lat="62.07179166768395" lon="11.816058331670922" id="-21449">
		<tag k="name" v="Joneset" />
		<tag k="natural" v="cape" />
		<tag k="ssr:stedsnr" v="116380" />
	</node>
	<node lat="61.93562500173912" lon="11.869030559984738" id="-21451">
		<tag k="name" v="Gløtfossdammen" />
		<tag k="ssr:stedsnr" v="116522" />
		<tag k="waterway" v="dam" />
	</node>
	<node lat="61.64201666991086" lon="11.784894437344322" id="-21457">
		<tag k="name" v="Svarttjønna" />
		<tag k="natural" v="water" />
		<tag k="ssr:stedsnr" v="131308" />
	</node>
	<node lat="61.67139722214145" lon="12.139383329953848" id="-21460">
		<tag k="name" v="Grøttjønna" />
		<tag k="natural" v="water" />
		<tag k="ssr:stedsnr" v="252604" />
	</node>
	<node lat="62.09624134995338" lon="11.813681235175286" id="-21461">
		<tag k="alt_name" v="Sollerøya, l;Lille Sollerøya" />
		<tag k="loc_name" v="Litlsoldera;Veslsoldera" />
		<tag k="name" v="Litle Sollerøya" />
		<tag k="place" v="islet" />
		<tag k="ssr:stedsnr" v="131269" />
	</node>
	<node lat="61.64560278211969" lon="12.165608333798419" id="-21463">
		<tag k="name" v="Hoptjønna" />
		<tag k="natural" v="water" />
		<tag k="ssr:stedsnr" v="252647" />
	</node>
	<node lat="62.05901944584359" lon="11.605027779626353" id="-21464">
		<tag k="name" v="Litlebuvatnet" />
		<tag k="natural" v="water" />
		<tag k="ssr:stedsnr" v="131381" />
	</node>
	<node lat="61.75586111476292" lon="11.981294450300409" id="-21467">
		<tag k="name" v="Sagbekken" />
		<tag k="ssr:stedsnr" v="132102" />
		<tag k="waterway" v="stream" />
	</node>
	<node lat="62.192113884731675" lon="11.873630558485175" id="-21468">
		<tag k="name" v="Stalloddan" />
		<tag k="natural" v="cape" />
		<tag k="ssr:stedsnr" v="132309" />
	</node>
	<node lat="62.314780554183066" lon="11.876941661147299" id="-21469">
		<tag k="name" v="Hyttbekken" />
		<tag k="ssr:stedsnr" v="132561" />
		<tag k="waterway" v="stream" />
	</node>
	<node lat="61.77111944089442" lon="12.124688880436267" id="-21472">
		<tag k="name" v="Bjørntjønna" />
		<tag k="natural" v="water" />
		<tag k="ssr:stedsnr" v="132749" />
	</node>
	<node lat="61.85029999828432" lon="11.758174996620436" id="-21479">
		<tag k="name" v="Søndre Holtjønna" />
		<tag k="natural" v="water" />
		<tag k="ssr:stedsnr" v="132965" />
	</node>
	<node lat="61.92225277625217" lon="12.173341665362047" id="-21481">
		<tag k="name" v="Skjervagtjønna" />
		<tag k="natural" v="water" />
		<tag k="ssr:stedsnr" v="132862" />
	</node>
	<node lat="62.18435277646241" lon="12.054677776432285" id="-21483">
		<tag k="name" v="Sandtjønna" />
		<tag k="natural" v="water" />
		<tag k="ssr:stedsnr" v="253392" />
	</node>
	<node lat="62.22070555151795" lon="11.868016668860438" id="-21484">
		<tag k="name" v="Bergvika" />
		<tag k="natural" v="bay" />
		<tag k="ssr:stedsnr" v="253367" />
	</node>
	<node lat="62.172088890398015" lon="11.93846111050327" id="-21487">
		<tag k="name" v="Hansodden" />
		<tag k="natural" v="cape" />
		<tag k="ssr:stedsnr" v="253416" />
	</node>
	<node lat="61.633813893239214" lon="12.244900003331074" id="-21491">
		<tag k="name" v="Skagatjønna" />
		<tag k="natural" v="water" />
		<tag k="ssr:stedsnr" v="253533" />
	</node>
	<node lat="62.01234444648797" lon="11.740227785122332" id="-21498">
		<tag k="name" v="Drukningsodden" />
		<tag k="natural" v="cape" />
		<tag k="ssr:stedsnr" v="253766" />
	</node>
	<node lat="62.00541667100393" lon="11.838561104733275" id="-21499">
		<tag k="name" v="Gullsmedtjønna" />
		<tag k="natural" v="water" />
		<tag k="ssr:stedsnr" v="253771" />
	</node>
	<node lat="62.14847500079956" lon="11.710541659582923" id="-21504">
		<tag k="name" v="Tangbekken" />
		<tag k="ssr:stedsnr" v="254359" />
		<tag k="waterway" v="stream" />
	</node>
	<node lat="62.11051110698739" lon="11.660041666296104" id="-21506">
		<tag k="name" v="Langhåen" />
		<tag k="natural" v="water" />
		<tag k="ssr:stedsnr" v="254368" />
		<tag k="water" v="lake" />
	</node>
	<node lat="62.31279999933041" lon="12.150580563861153" id="-21507">
		<tag k="name" v="Storbuddhåen" />
		<tag k="name:no" v="Storbuddhåen" />
		<tag k="place" v="locality" />
		<tag k="ssr:stedsnr" v="254540" />
	</node>
	<node lat="62.28540833710699" lon="11.947758332571878" id="-21508">
		<tag k="alt_name" v="Kuneset, l" />
		<tag k="name" v="Litle Kuneset" />
		<tag k="natural" v="cape" />
		<tag k="ssr:stedsnr" v="254553" />
	</node>
	<node lat="62.273869443084294" lon="12.225511101470683" id="-21510">
		<tag k="name" v="Rundtjønna" />
		<tag k="natural" v="water" />
		<tag k="ssr:stedsnr" v="254642" />
	</node>
	<node lat="62.24958518318701" lon="12.235184754848213" id="-21514">
		<tag k="name" v="Stormyrtjønnan" />
		<tag k="natural" v="water" />
		<tag k="ssr:stedsnr" v="254700" />
		<tag k="water" v="lake" />
	</node>
	<node lat="61.85703888911201" lon="11.815674992760226" id="-21518">
		<tag k="name" v="Galtåsbekken" />
		<tag k="ssr:stedsnr" v="254956" />
		<tag k="waterway" v="stream" />
	</node>
	<node lat="61.720772219994366" lon="11.980383341524478" id="-21519">
		<tag k="name" v="Halvmilbekken" />
		<tag k="ssr:stedsnr" v="145668" />
		<tag k="waterway" v="stream" />
	</node>
	<node lat="61.65083888890001" lon="11.83089166243066" id="-21523">
		<tag k="name" v="Øybrøstet" />
		<tag k="natural" v="water" />
		<tag k="ssr:stedsnr" v="177114" />
		<tag k="water" v="lake" />
	</node>
	<node lat="61.656625000528194" lon="11.815663887913965" id="-21524">
		<tag k="name" v="Øvre Embretsholmen" />
		<tag k="place" v="islet" />
		<tag k="ssr:stedsnr" v="177117" />
	</node>
	<node lat="61.67490833706235" lon="12.00592499754119" id="-21532">
		<tag k="name" v="Nothangvarpet" />
		<tag k="natural" v="bay" />
		<tag k="ssr:stedsnr" v="177711" />
	</node>
	<node lat="61.67556667074235" lon="12.003738888211453" id="-21533">
		<tag k="name" v="Tuvodden" />
		<tag k="natural" v="cape" />
		<tag k="ssr:stedsnr" v="177712" />
	</node>
	<node lat="61.997683334861755" lon="12.069111105052622" id="-21535">
		<tag k="name" v="Vatningsloken" />
		<tag k="natural" v="water" />
		<tag k="ssr:stedsnr" v="178109" />
		<tag k="water" v="pond" />
	</node>
	<node lat="62.32962500364771" lon="11.980700003806062" id="-21539">
		<tag k="name" v="Røvolbekken" />
		<tag k="ssr:stedsnr" v="263857" />
		<tag k="waterway" v="stream" />
	</node>
	<node lat="62.0498444452636" lon="11.77757222710129" id="-21547">
		<tag k="name" v="Trolltjønnsundet" />
		<tag k="natural" v="strait" />
		<tag k="ssr:stedsnr" v="224102" />
	</node>
	<node lat="61.655255556844345" lon="11.795250001258431" id="-21550">
		<tag k="name" v="Kanalen" />
		<tag k="natural" v="shoal" />
		<tag k="place" v="locality" />
		<tag k="ssr:stedsnr" v="237097" />
	</node>
	<node lat="61.62186666667719" lon="12.031594437165072" id="-21554">
		<tag k="name" v="Storrotneset" />
		<tag k="natural" v="cape" />
		<tag k="ssr:stedsnr" v="237196" />
	</node>
	<node lat="62.0129361117664" lon="11.751061108488223" id="-21555">
		<tag k="name" v="Gottodden" />
		<tag k="natural" v="cape" />
		<tag k="ssr:stedsnr" v="237380" />
	</node>
	<node lat="62.01427777686465" lon="11.776888883955523" id="-21557">
		<tag k="name" v="Måsåbekkholmen" />
		<tag k="place" v="islet" />
		<tag k="ssr:stedsnr" v="237395" />
	</node>
	<node lat="61.848716668468484" lon="11.845197224918778" id="-21558">
		<tag k="name" v="Tøsbekken" />
		<tag k="ssr:stedsnr" v="237491" />
		<tag k="waterway" v="stream" />
	</node>
	<node lat="61.77599722026356" lon="12.144855553686499" id="-21559">
		<tag k="name" v="Midtjønnbekken" />
		<tag k="ssr:stedsnr" v="237602" />
		<tag k="waterway" v="stream" />
	</node>
	<node lat="61.86871944478044" lon="12.13842221646454" id="-21564">
		<tag k="name" v="Kviltsand" />
		<tag k="natural" v="beach" />
		<tag k="ssr:stedsnr" v="238606" />
	</node>
	<node lat="61.98288888769515" lon="11.891119444505403" id="-21565">
		<tag k="name" v="Litlbuvika" />
		<tag k="natural" v="bay" />
		<tag k="ssr:stedsnr" v="238727" />
	</node>
	<node lat="61.73261944479784" lon="11.762205550992375" id="-21568">
		<tag k="name" v="Sagbekkdalsbekken" />
		<tag k="ssr:stedsnr" v="238788" />
		<tag k="waterway" v="stream" />
	</node>
	<node lat="61.77460832971381" lon="11.629311109443968" id="-21569">
		<tag k="name" v="Elvbrufossen" />
		<tag k="natural" v="waterfall" />
		<tag k="ssr:stedsnr" v="238795" />
	</node>
	<node lat="61.926427776167024" lon="12.116494442315478" id="-21570">
		<tag k="name" v="Svarttjønnbekken" />
		<tag k="ssr:stedsnr" v="239106" />
		<tag k="waterway" v="stream" />
	</node>
	<node lat="61.81213333625446" lon="11.711852782887872" id="-21571">
		<tag k="name" v="Brattbekken" />
		<tag k="ssr:stedsnr" v="240386" />
		<tag k="waterway" v="stream" />
	</node>
	<node lat="61.93162778064474" lon="11.731363888630304" id="-21575">
		<tag k="name" v="Sæterbekken" />
		<tag k="ssr:stedsnr" v="253131" />
		<tag k="waterway" v="stream" />
	</node>
	<node lat="62.063388953303644" lon="11.758305604794362" id="-21578">
		<tag k="name" v="Smårøsttjønnan" />
		<tag k="natural" v="water" />
		<tag k="ssr:stedsnr" v="253327" />
		<tag k="water" v="lake" />
	</node>
	<node lat="62.05754444243318" lon="12.091805563311295" id="-21579">
		<tag k="name" v="Yttersjøen" />
		<tag k="natural" v="water" />
		<tag k="ssr:stedsnr" v="253332" />
		<tag k="water" v="lake" />
	</node>
	<node lat="62.07341111054487" lon="12.044230548250683" id="-21580">
		<tag k="name" v="Storsjøen" />
		<tag k="natural" v="water" />
		<tag k="ssr:stedsnr" v="253336" />
		<tag k="water" v="lake" />
	</node>
	<node lat="61.75498067229698" lon="12.048510582551462" id="-21585">
		<tag k="name" v="Blakksjøen" />
		<tag k="natural" v="water" />
		<tag k="ssr:stedsnr" v="253736" />
		<tag k="water" v="lake" />
	</node>
	<node lat="61.69142499749109" lon="11.938480550196928" id="-21586">
		<tag k="name" v="Kansbekken" />
		<tag k="ssr:stedsnr" v="253740" />
		<tag k="waterway" v="stream" />
	</node>
	<node lat="61.833372222632015" lon="12.11715000138686" id="-21589">
		<tag k="name" v="Røkketjønnan" />
		<tag k="natural" v="water" />
		<tag k="ssr:stedsnr" v="253823" />
		<tag k="water" v="lake" />
	</node>
	<node lat="61.89001944579707" lon="12.151038882356916" id="-21592">
		<tag k="alt_name" v="Vordåa" />
		<tag k="name" v="Vålåa" />
		<tag k="ssr:stedsnr" v="253878" />
		<tag k="waterway" v="river" />
	</node>
	<node lat="61.90594166974615" lon="11.80029167487876" id="-21594">
		<tag k="alt_name" v="Kvernhusbekken, s" />
		<tag k="name" v="Søndre Kvernhusbekken" />
		<tag k="ssr:stedsnr" v="253997" />
		<tag k="waterway" v="stream" />
	</node>
	<node lat="62.09284166350518" lon="11.64063888472547" id="-21602">
		<tag k="name" v="Vangstjønna" />
		<tag k="natural" v="water" />
		<tag k="ssr:stedsnr" v="298082" />
	</node>
	<node lat="61.90773055960259" lon="11.878169444925504" id="-21604">
		<tag k="name" v="Kløftebekken" />
		<tag k="ssr:stedsnr" v="298392" />
		<tag k="waterway" v="stream" />
	</node>
	<node lat="61.933225001548095" lon="11.818725006916727" id="-21605">
		<tag k="name" v="Tjønnholmen" />
		<tag k="place" v="islet" />
		<tag k="ssr:stedsnr" v="298505" />
	</node>
	<node lat="61.9202361125743" lon="11.91568611292604" id="-21607">
		<tag k="name" v="Enbekken" />
		<tag k="ssr:stedsnr" v="298529" />
		<tag k="waterway" v="stream" />
	</node>
	<node lat="62.14859444759066" lon="11.890372230789493" id="-21609">
		<tag k="name" v="Tjønnoddtjønna" />
		<tag k="natural" v="water" />
		<tag k="ssr:stedsnr" v="298895" />
	</node>
	<node lat="61.765791670441665" lon="11.718183324778355" id="-21610">
		<tag k="name" v="Skjærbuloka" />
		<tag k="natural" v="water" />
		<tag k="ssr:stedsnr" v="299205" />
	</node>
	<node lat="61.86933333720853" lon="12.163372218786577" id="-21612">
		<tag k="name" v="Langsand" />
		<tag k="natural" v="beach" />
		<tag k="ssr:stedsnr" v="299591" />
	</node>
	<node lat="61.8295250037226" lon="11.720594449811797" id="-21618">
		<tag k="name" v="Ulvåoset" />
		<tag k="natural" v="bay" />
		<tag k="ssr:stedsnr" v="300386" />
	</node>
	<node lat="61.71331666240856" lon="11.697319438340788" id="-21627">
		<tag k="name" v="Kastfloen" />
		<tag k="natural" v="water" />
		<tag k="ssr:stedsnr" v="313273" />
		<tag k="water" v="lake" />
	</node>
	<node lat="61.73105555183648" lon="11.754208335361335" id="-21628">
		<tag k="name" v="Dammen" />
		<tag k="ssr:stedsnr" v="313276" />
		<tag k="waterway" v="dam" />
	</node>
	<node lat="61.62109999957752" lon="12.020375001552617" id="-21629">
		<tag k="name" v="Engeren" />
		<tag k="natural" v="water" />
		<tag k="ssr:stedsnr" v="313672" />
		<tag k="water" v="lake" />
	</node>
	<node lat="61.981577778201505" lon="11.782675008465883" id="-21633">
		<tag k="name" v="Storholmen" />
		<tag k="place" v="islet" />
		<tag k="ssr:stedsnr" v="314077" />
	</node>
	<node lat="61.93708889180195" lon="11.800183325518226" id="-21634">
		<tag k="name" v="Barnholmen" />
		<tag k="place" v="islet" />
		<tag k="ssr:stedsnr" v="314122" />
	</node>
	<node lat="62.0660805556299" lon="12.1635277852196" id="-21635">
		<tag k="name" v="Abbortjønna" />
		<tag k="natural" v="water" />
		<tag k="ssr:stedsnr" v="314323" />
	</node>
	<node lat="62.039011108594764" lon="12.108499990835872" id="-21636">
		<tag k="name" v="Småsjøelva" />
		<tag k="ssr:stedsnr" v="314325" />
		<tag k="waterway" v="stream" />
	</node>
	<node lat="62.02297222068896" lon="11.639627777110393" id="-21639">
		<tag k="name" v="Hopparbekken" />
		<tag k="ssr:stedsnr" v="314472" />
		<tag k="waterway" v="stream" />
	</node>
	<node lat="62.200657773694154" lon="12.16817594120038" id="-21640">
		<tag k="name" v="Rønsjøen" />
		<tag k="natural" v="water" />
		<tag k="ssr:stedsnr" v="314366" />
		<tag k="water" v="lake" />
	</node>
	<node lat="61.82404444534883" lon="12.098913895278915" id="-21642">
		<tag k="name" v="Stubbanetjønna" />
		<tag k="natural" v="water" />
		<tag k="ssr:stedsnr" v="314813" />
	</node>
	<node lat="61.88029166809187" lon="12.16539721810882" id="-21644">
		<tag k="alt_name" v="Vordsjøen" />
		<tag k="name" v="Vålsjøen" />
		<tag k="natural" v="water" />
		<tag k="ssr:stedsnr" v="314829" />
	</node>
	<node lat="61.78074166285443" lon="11.6384555536395" id="-21646">
		<tag k="name" v="Fløta" />
		<tag k="place" v="locality" />
		<tag k="ssr:stedsnr" v="314911" />
	</node>
	<node lat="61.79825833018004" lon="11.708219453413221" id="-21648">
		<tag k="name" v="Bjørbekken" />
		<tag k="ssr:stedsnr" v="314914" />
		<tag k="waterway" v="stream" />
	</node>
	<node lat="62.26186612601502" lon="12.156697842769995" id="-21649">
		<tag k="name" v="Finnvolltjønnan" />
		<tag k="natural" v="water" />
		<tag k="ssr:stedsnr" v="315667" />
		<tag k="water" v="lake" />
	</node>
	<node lat="62.090766667115474" lon="11.960027769315104" id="-21651">
		<tag k="name" v="Midttjønna" />
		<tag k="natural" v="water" />
		<tag k="ssr:stedsnr" v="324412" />
		<tag k="water" v="lake" />
	</node>
	<node lat="61.647347223586024" lon="11.832441670372486" id="-21658">
		<tag k="name" v="Strikåsa" />
		<tag k="ssr:stedsnr" v="473142" />
		<tag k="waterway" v="rapids" />
	</node>
	<node lat="61.65314166935871" lon="12.024588897085605" id="-21660">
		<tag k="name" v="Hyllneset" />
		<tag k="natural" v="cape" />
		<tag k="ssr:stedsnr" v="358206" />
	</node>
	<node lat="62.02481944761228" lon="11.73888333545159" id="-21661">
		<tag k="name" v="Storkroken" />
		<tag k="place" v="locality" />
		<tag k="ssr:stedsnr" v="358362" />
	</node>
	<node lat="62.16071944320525" lon="11.731269444566209" id="-21662">
		<tag k="alt_name" v="Tyldalsvika" />
		<tag k="name" v="Tylldalsvika" />
		<tag k="natural" v="bay" />
		<tag k="ssr:stedsnr" v="358906" />
	</node>
	<node lat="62.16287222407039" lon="11.985822219504188" id="-21665">
		<tag k="name" v="Rundmyrloken" />
		<tag k="natural" v="water" />
		<tag k="ssr:stedsnr" v="359210" />
	</node>
	<node lat="61.63514166316382" lon="11.83733610537966" id="-21668">
		<tag k="name" v="Andvikbekken" />
		<tag k="ssr:stedsnr" v="477241" />
		<tag k="waterway" v="stream" />
	</node>
	<node lat="62.145319441731495" lon="11.632274995923844" id="-21673">
		<tag k="name" v="Nordre Langvika" />
		<tag k="natural" v="bay" />
		<tag k="ssr:stedsnr" v="478883" />
	</node>
	<node lat="61.65308055558167" lon="11.858261115199415" id="-21676">
		<tag k="name" v="Mælbekken" />
		<tag k="ssr:stedsnr" v="373647" />
		<tag k="waterway" v="stream" />
	</node>
	<node lat="61.654813891336026" lon="12.152211118526083" id="-21678">
		<tag k="name" v="Karttjønna" />
		<tag k="natural" v="water" />
		<tag k="ssr:stedsnr" v="373656" />
	</node>
	<node lat="62.05804444831606" lon="11.973433337907181" id="-21679">
		<tag k="name" v="Skogtjønna" />
		<tag k="natural" v="water" />
		<tag k="ssr:stedsnr" v="374302" />
	</node>
	<node lat="62.06472642197768" lon="12.127124995062438" id="-21680">
		<tag k="fixme" v="multiple name tags, choose one and add the other to alt_name" />
		<tag k="name" v="Bjørnholbekken;Brunnhølbekken" />
		<tag k="ssr:stedsnr" v="374303" />
		<tag k="waterway" v="stream" />
	</node>
	<node lat="62.07181111199207" lon="11.819213881944327" id="-21683">
		<tag k="name" v="Jonasodden" />
		<tag k="natural" v="cape" />
		<tag k="ssr:stedsnr" v="374321" />
	</node>
	<node lat="61.6486499964834" lon="11.834561113569588" id="-21684">
		<tag k="name" v="Kviløya" />
		<tag k="place" v="island" />
		<tag k="ssr:stedsnr" v="374350" />
	</node>
	<node lat="61.715708331563846" lon="11.802199994753806" id="-21685">
		<tag k="name" v="Storbekken" />
		<tag k="ssr:stedsnr" v="374289" />
		<tag k="waterway" v="stream" />
	</node>
	<node lat="62.10405277896368" lon="12.207005546465448" id="-21686">
		<tag k="alt_name" v="Olåa, l" />
		<tag k="name" v="Litle Olåa" />
		<tag k="ssr:stedsnr" v="374295" />
		<tag k="waterway" v="stream" />
	</node>
	<node lat="62.0592522633857" lon="11.88674655251473" id="-21688">
		<tag k="alt_name" v="Gråsneset, store" />
		<tag k="name" v="Store Gråsneset" />
		<tag k="natural" v="cape" />
		<tag k="ssr:stedsnr" v="374301" />
	</node>
	<node lat="61.697180552219216" lon="11.940041667868845" id="-21690">
		<tag k="alt_name" v="Grønnhulubekken" />
		<tag k="name" v="Grønholbekken" />
		<tag k="ssr:stedsnr" v="374733" />
		<tag k="waterway" v="stream" />
	</node>
	<node lat="61.7021972243195" lon="12.053758334784156" id="-21691">
		<tag k="name" v="Nystorbekken" />
		<tag k="ssr:stedsnr" v="374737" />
		<tag k="waterway" v="stream" />
	</node>
	<node lat="61.70761944273187" lon="11.963822220035691" id="-21692">
		<tag k="name" v="Grasbekken" />
		<tag k="ssr:stedsnr" v="374740" />
		<tag k="waterway" v="stream" />
	</node>
	<node lat="61.84808610680415" lon="11.93983055129256" id="-21696">
		<tag k="alt_name" v="Hovdbekken, nordre" />
		<tag k="name" v="Nordre Hovdbekken" />
		<tag k="ssr:stedsnr" v="374847" />
		<tag k="waterway" v="stream" />
	</node>
	<node lat="61.98342500028525" lon="11.891583327157692" id="-21697">
		<tag k="name" v="Veslbuvika" />
		<tag k="natural" v="bay" />
		<tag k="ssr:stedsnr" v="374908" />
	</node>
	<node lat="62.12793888884806" lon="11.64841388968259" id="-21698">
		<tag k="name" v="Håen" />
		<tag k="natural" v="water" />
		<tag k="ssr:stedsnr" v="480039" />
		<tag k="water" v="lake" />
	</node>
	<node lat="61.97666944470546" lon="11.79795555759737" id="-21699">
		<tag k="name" v="Nysandvika" />
		<tag k="natural" v="bay" />
		<tag k="ssr:stedsnr" v="375086" />
	</node>
	<node lat="62.16385278198831" lon="11.87305555239167" id="-21701">
		<tag k="name" v="Storholmen" />
		<tag k="place" v="islet" />
		<tag k="ssr:stedsnr" v="375308" />
	</node>
	<node lat="62.163966668627346" lon="11.963338891372372" id="-21702">
		<tag k="name" v="Røstbekken" />
		<tag k="ssr:stedsnr" v="375312" />
		<tag k="waterway" v="stream" />
	</node>
	<node lat="62.15731111448402" lon="11.90028056028104" id="-21703">
		<tag k="name" v="Elvodden" />
		<tag k="natural" v="cape" />
		<tag k="ssr:stedsnr" v="375336" />
	</node>
	<node lat="62.27340555360433" lon="12.160402768398859" id="-21704">
		<tag k="name" v="Stortjønna" />
		<tag k="natural" v="water" />
		<tag k="ssr:stedsnr" v="375631" />
	</node>
	<node lat="61.96467777670095" lon="12.124119445024766" id="-21711">
		<tag k="name" v="Skarpabbortjønna" />
		<tag k="natural" v="water" />
		<tag k="ssr:stedsnr" v="375877" />
	</node>
	<node lat="61.968246372798575" lon="11.886942332186713" id="-21713">
		<tag k="name" v="Furuoddtjønnan" />
		<tag k="natural" v="water" />
		<tag k="ssr:stedsnr" v="375897" />
		<tag k="water" v="lake" />
	</node>
</osm>
