<?xml version="1.0" encoding="UTF-8"?>
<osm version="0.6" generator="osmapis">
	<node lat="61.830566664417766" lon="11.97944165741932" id="-20676">
		<tag k="alt_name" v="Hovdkjølen, østre;Hovdkjølen" />
		<tag k="name" v="Østre Hovdkjølen" />
		<tag k="natural" v="wetland" />
		<tag k="ssr:stedsnr" v="11813" />
	</node>
	<node lat="61.98570555201117" lon="11.87390555265628" id="-20682">
		<tag k="name" v="Veslbuvikmyra" />
		<tag k="natural" v="wetland" />
		<tag k="ssr:stedsnr" v="11902" />
	</node>
	<node lat="61.77392500321797" lon="11.932177768916997" id="-20696">
		<tag k="name" v="Nygårdsjota" />
		<tag k="place" v="locality" />
		<tag k="ssr:stedsnr" v="41983" />
	</node>
	<node lat="61.644061108479455" lon="12.177447229524022" id="-20701">
		<tag k="name" v="Storvien" />
		<tag k="natural" v="wetland" />
		<tag k="ssr:stedsnr" v="237760" />
	</node>
	<node lat="62.01184722336789" lon="12.179077781761945" id="-20709">
		<tag k="name" v="Kølmilmyra" />
		<tag k="natural" v="wetland" />
		<tag k="ssr:stedsnr" v="238763" />
	</node>
	<node lat="62.08789999701647" lon="12.133475005239525" id="-20711">
		<tag k="name" v="Rismyra" />
		<tag k="natural" v="wetland" />
		<tag k="ssr:stedsnr" v="238767" />
	</node>
	<node lat="61.79376944307967" lon="11.717486104058995" id="-20712">
		<tag k="name" v="Litløenget" />
		<tag k="place" v="locality" />
		<tag k="ssr:stedsnr" v="238848" />
	</node>
	<node lat="61.70743611380374" lon="12.041472214692654" id="-20713">
		<tag k="name" v="Fantkjerringmyra" />
		<tag k="natural" v="wetland" />
		<tag k="ssr:stedsnr" v="239200" />
	</node>
	<node lat="62.073088886346" lon="11.72256945112034" id="-20720">
		<tag k="name" v="Bekkjølen" />
		<tag k="natural" v="wetland" />
		<tag k="ssr:stedsnr" v="55367" />
	</node>
	<node lat="61.808733337539714" lon="11.786569442012249" id="-20725">
		<tag k="name" v="Myrburøsta" />
		<tag k="natural" v="wetland" />
		<tag k="ssr:stedsnr" v="56821" />
	</node>
	<node lat="61.673183731574696" lon="11.998127570542351" id="-20726">
		<tag k="landuse" v="meadow" />
		<tag k="name" v="Gjermundskvea" />
		<tag k="ssr:stedsnr" v="56706" />
	</node>
	<node lat="61.72458333444424" lon="11.72119443998798" id="-20727">
		<tag k="name" v="Sveinmyra" />
		<tag k="natural" v="wetland" />
		<tag k="ssr:stedsnr" v="56785" />
	</node>
	<node lat="62.00126944504899" lon="12.073888882256192" id="-20729">
		<tag k="name" v="Lørjemåsåmyra" />
		<tag k="natural" v="wetland" />
		<tag k="ssr:stedsnr" v="57091" />
	</node>
	<node lat="61.82119444167681" lon="11.714500000347202" id="-20730">
		<tag k="name" v="Langbakkmyra" />
		<tag k="natural" v="wetland" />
		<tag k="ssr:stedsnr" v="58385" />
	</node>
	<node lat="61.629022225223956" lon="12.094347219110608" id="-20736">
		<tag k="name" v="Storkjellmyra" />
		<tag k="natural" v="wetland" />
		<tag k="ssr:stedsnr" v="59205" />
	</node>
	<node lat="61.99715000204252" lon="12.029277784937992" id="-20746">
		<tag k="name" v="Storflomyra" />
		<tag k="natural" v="wetland" />
		<tag k="ssr:stedsnr" v="71928" />
	</node>
	<node lat="61.679488889209594" lon="12.003533331247125" id="-20771">
		<tag k="landuse" v="meadow" />
		<tag k="name" v="Lortstranda" />
		<tag k="ssr:stedsnr" v="116674" />
	</node>
	<node lat="61.85599999912571" lon="11.820811113770722" id="-20776">
		<tag k="name" v="Veslemyra" />
		<tag k="natural" v="wetland" />
		<tag k="ssr:stedsnr" v="116386" />
	</node>
	<node lat="61.66416110713301" lon="12.187016668931946" id="-20785">
		<tag k="name" v="Krokbekkjølen" />
		<tag k="natural" v="wetland" />
		<tag k="ssr:stedsnr" v="252598" />
	</node>
	<node lat="61.84405277357691" lon="11.881694437326694" id="-20800">
		<tag k="name" v="Halamyra" />
		<tag k="natural" v="wetland" />
		<tag k="ssr:stedsnr" v="132826" />
	</node>
	<node lat="61.99775278079746" lon="11.878524992658603" id="-20801">
		<tag k="alt_name" v="Storbufloen" />
		<tag k="name" v="Storbuvikfloen" />
		<tag k="natural" v="wetland" />
		<tag k="ssr:stedsnr" v="132915" />
	</node>
	<node lat="61.76840000169429" lon="11.696586112231008" id="-20803">
		<tag k="name" v="Stormyra" />
		<tag k="natural" v="wetland" />
		<tag k="ssr:stedsnr" v="132921" />
	</node>
	<node lat="61.94550277705814" lon="12.094269440810526" id="-20808">
		<tag k="name" v="Kornandermyra" />
		<tag k="natural" v="wetland" />
		<tag k="ssr:stedsnr" v="132868" />
	</node>
	<node lat="61.70180000074483" lon="11.870999996133762" id="-20819">
		<tag k="name" v="Tuvflået" />
		<tag k="natural" v="wetland" />
		<tag k="ssr:stedsnr" v="253760" />
	</node>
	<node lat="61.99306944207407" lon="12.017888897194702" id="-20829">
		<tag k="name" v="Stormyra" />
		<tag k="natural" v="wetland" />
		<tag k="ssr:stedsnr" v="253925" />
	</node>
	<node lat="61.79633055405848" lon="11.875094440380273" id="-20837">
		<tag k="name" v="Kartmyra" />
		<tag k="natural" v="wetland" />
		<tag k="ssr:stedsnr" v="254734" />
	</node>
	<node lat="61.92393888597743" lon="11.879899993593492" id="-20841">
		<tag k="name" v="Stormyra" />
		<tag k="natural" v="wetland" />
		<tag k="ssr:stedsnr" v="254852" />
	</node>
	<node lat="61.91417777852829" lon="12.164499996325132" id="-20842">
		<tag k="name" v="Knertmyra" />
		<tag k="natural" v="wetland" />
		<tag k="ssr:stedsnr" v="254863" />
	</node>
	<node lat="61.787427776522414" lon="11.953122213037359" id="-20847">
		<tag k="name" v="Nedre Knulmyra" />
		<tag k="natural" v="wetland" />
		<tag k="ssr:stedsnr" v="162147" />
	</node>
	<node lat="61.953611107343455" lon="12.048752770271655" id="-20848">
		<tag k="name" v="Nordpåtjønnan" />
		<tag k="natural" v="wetland" />
		<tag k="ssr:stedsnr" v="162097" />
	</node>
	<node lat="62.12787778083618" lon="11.984408333014205" id="-20852">
		<tag k="landuse" v="meadow" />
		<tag k="name" v="Fetthåen" />
		<tag k="ssr:stedsnr" v="177210" />
	</node>
	<node lat="61.69535833363405" lon="11.990263891130805" id="-20855">
		<tag k="landuse" v="meadow" />
		<tag k="name" v="Krokmyra" />
		<tag k="ssr:stedsnr" v="177702" />
	</node>
	<node lat="61.62921666952003" lon="12.075827783275333" id="-20863">
		<tag k="name" v="Kjerringmyra" />
		<tag k="natural" v="wetland" />
		<tag k="ssr:stedsnr" v="180202" />
	</node>
	<node lat="62.02517221884152" lon="11.720080554084841" id="-20914">
		<tag k="name" v="Lørjefloan" />
		<tag k="natural" v="wetland" />
		<tag k="ssr:stedsnr" v="253749" />
	</node>
	<node lat="61.8229694418326" lon="11.982469438873474" id="-20916">
		<tag k="name" v="Kuholkjølen" />
		<tag k="natural" v="wetland" />
		<tag k="ssr:stedsnr" v="253826" />
	</node>
	<node lat="61.8302305532372" lon="11.797080555492725" id="-20921">
		<tag k="name" v="Ulvåkjølen" />
		<tag k="natural" v="wetland" />
		<tag k="ssr:stedsnr" v="254941" />
	</node>
	<node lat="61.75401111113793" lon="11.786469448542938" id="-20925">
		<tag k="name" v="Vestgårdsmyra" />
		<tag k="natural" v="wetland" />
		<tag k="ssr:stedsnr" v="298173" />
	</node>
	<node lat="62.01969166417761" lon="12.061138882769786" id="-20927">
		<tag k="name" v="Øvste Floen" />
		<tag k="natural" v="wetland" />
		<tag k="ssr:stedsnr" v="298176" />
	</node>
	<node lat="61.72795277437" lon="12.02866944238386" id="-20937">
		<tag k="name" v="Hestbekkkjølen" />
		<tag k="natural" v="wetland" />
		<tag k="ssr:stedsnr" v="299225" />
	</node>
	<node lat="61.903738887656914" lon="12.152127779870066" id="-20940">
		<tag k="name" v="Røskåsremme" />
		<tag k="natural" v="wetland" />
		<tag k="ssr:stedsnr" v="299611" />
	</node>
	<node lat="61.66023888772194" lon="11.789252771826488" id="-20952">
		<tag k="name" v="Bekkslåtten" />
		<tag k="place" v="locality" />
		<tag k="ssr:stedsnr" v="313366" />
	</node>
	<node lat="61.64287777633873" lon="12.20812222460058" id="-20957">
		<tag k="name" v="Sørmyra" />
		<tag k="natural" v="wetland" />
		<tag k="ssr:stedsnr" v="313685" />
	</node>
	<node lat="61.63382499678906" lon="12.127163880123923" id="-20958">
		<tag k="name" v="Stormerramyra" />
		<tag k="natural" v="wetland" />
		<tag k="ssr:stedsnr" v="313687" />
	</node>
	<node lat="61.827425000665215" lon="12.037958339129839" id="-20967">
		<tag k="name" v="Storbekkmyra" />
		<tag k="natural" v="wetland" />
		<tag k="ssr:stedsnr" v="314808" />
	</node>
	<node lat="61.772752774021676" lon="12.132347214248297" id="-20992">
		<tag k="name" v="Kvisflået" />
		<tag k="natural" v="wetland" />
		<tag k="ssr:stedsnr" v="359606" />
	</node>
	<node lat="61.693699998059" lon="12.018527770589458" id="-21015">
		<tag k="name" v="Vetbekkmyrene" />
		<tag k="natural" v="wetland" />
		<tag k="ssr:stedsnr" v="374731" />
	</node>
	<node lat="62.01907777990968" lon="12.069777784722087" id="-21042">
		<tag k="name" v="Smårøstan" />
		<tag k="natural" v="wetland" />
		<tag k="ssr:stedsnr" v="480150" />
	</node>
	<node lat="61.84002777828369" lon="11.845361116393924" id="-21049">
		<tag k="name" v="Langjota" />
		<tag k="natural" v="wetland" />
		<tag k="ssr:stedsnr" v="480491" />
	</node>
	<node lat="61.69162221928778" lon="11.992702771857735" id="-21052">
		<tag k="landuse" v="meadow" />
		<tag k="name" v="Skogenget" />
		<tag k="ssr:stedsnr" v="480733" />
	</node>
	<node lat="61.678183334723045" lon="11.80726944571086" id="-21057">
		<tag k="name" v="Syrbekkmyra" />
		<tag k="natural" v="wetland" />
		<tag k="ssr:stedsnr" v="480894" />
	</node>
	<node lat="61.8685166665111" lon="12.019013893670243" id="-21064">
		<tag k="name" v="Langkloppmyra" />
		<tag k="natural" v="wetland" />
		<tag k="ssr:stedsnr" v="483061" />
	</node>
	<node lat="61.805238887950736" lon="12.141411111104766" id="-21076">
		<tag k="name" v="Kvislflået" />
		<tag k="natural" v="wetland" />
		<tag k="ssr:stedsnr" v="420611" />
	</node>
	<node lat="61.90508055822149" lon="12.14422500645086" id="-21077">
		<tag k="name" v="Blæsterkjølen" />
		<tag k="natural" v="wetland" />
		<tag k="ssr:stedsnr" v="420636" />
	</node>
	<node lat="61.67474444863566" lon="11.811208332651708" id="-21081">
		<tag k="name" v="Lortbekkmyra" />
		<tag k="natural" v="wetland" />
		<tag k="ssr:stedsnr" v="420902" />
	</node>
	<node lat="61.828250002395976" lon="11.871433342048135" id="-21089">
		<tag k="name" v="Halamyra" />
		<tag k="natural" v="wetland" />
		<tag k="ssr:stedsnr" v="435164" />
	</node>
	<node lat="61.84167500346911" lon="12.125005558054218" id="-21101">
		<tag k="name" v="Sæterkjølen" />
		<tag k="natural" v="wetland" />
		<tag k="ssr:stedsnr" v="435816" />
	</node>
	<node lat="61.83699722387654" lon="11.851977779580265" id="-21102">
		<tag k="name" v="Stormyra" />
		<tag k="natural" v="wetland" />
		<tag k="ssr:stedsnr" v="435824" />
	</node>
	<node lat="61.82650000305475" lon="12.10940000153501" id="-21110">
		<tag k="name" v="Granmyra" />
		<tag k="natural" v="wetland" />
		<tag k="ssr:stedsnr" v="436808" />
	</node>
	<node lat="61.74582222161724" lon="11.949891665657184" id="-21120">
		<tag k="name" v="Blekmyra" />
		<tag k="natural" v="wetland" />
		<tag k="ssr:stedsnr" v="465988" />
	</node>
	<node lat="61.92669999736349" lon="11.761691661981496" id="-21142">
		<tag k="name" v="Sætermyra" />
		<tag k="natural" v="wetland" />
		<tag k="ssr:stedsnr" v="678123" />
	</node>
	<node lat="61.96350277835438" lon="11.98021666071517" id="-21145">
		<tag k="name" v="Litle Sorksjørøsta" />
		<tag k="natural" v="wetland" />
		<tag k="ssr:stedsnr" v="480113" />
	</node>
	<node lat="62.15556944536566" lon="11.972463890424637" id="-21149">
		<tag k="name" v="Dalsmyra" />
		<tag k="natural" v="wetland" />
		<tag k="ssr:stedsnr" v="480175" />
	</node>
	<node lat="62.063350001466624" lon="12.157916674772478" id="-21157">
		<tag k="name" v="Brennmyra" />
		<tag k="natural" v="wetland" />
		<tag k="ssr:stedsnr" v="678301" />
	</node>
	<node lat="61.80778333335519" lon="11.91868056304515" id="-21160">
		<tag k="name" v="Sletmojoten" />
		<tag k="place" v="locality" />
		<tag k="ssr:stedsnr" v="480470" />
	</node>
	<node lat="61.80745277533739" lon="11.920338889812937" id="-21161">
		<tag k="name" v="Nystedjoten" />
		<tag k="place" v="locality" />
		<tag k="ssr:stedsnr" v="480471" />
	</node>
	<node lat="61.651291667553494" lon="12.19064166999294" id="-21164">
		<tag k="name" v="Trankjølen" />
		<tag k="natural" v="wetland" />
		<tag k="ssr:stedsnr" v="480769" />
	</node>
	<node lat="61.80913332903298" lon="11.725888883911605" id="-21167">
		<tag k="name" v="Haugmyra" />
		<tag k="natural" v="wetland" />
		<tag k="ssr:stedsnr" v="480872" />
	</node>
	<node lat="61.791038018840936" lon="11.967285128091193" id="-21183">
		<tag k="name" v="Ørnholmyra" />
		<tag k="natural" v="wetland" />
		<tag k="ssr:stedsnr" v="678763" />
	</node>
	<node lat="61.902430554974075" lon="12.170255550126523" id="-21185">
		<tag k="name" v="Ertkjølen" />
		<tag k="natural" v="wetland" />
		<tag k="ssr:stedsnr" v="678832" />
	</node>
	<node lat="61.85670832918955" lon="11.847100007908207" id="-21187">
		<tag k="name" v="Vintervegmyra" />
		<tag k="natural" v="wetland" />
		<tag k="ssr:stedsnr" v="678820" />
	</node>
	<node lat="61.98894999737022" lon="12.058466670521904" id="-21188">
		<tag k="name" v="Storfloen" />
		<tag k="natural" v="wetland" />
		<tag k="ssr:stedsnr" v="678899" />
	</node>
	<node lat="61.84046110753061" lon="11.774336117222061" id="-21192">
		<tag k="name" v="Stormyra" />
		<tag k="natural" v="wetland" />
		<tag k="ssr:stedsnr" v="678941" />
	</node>
	<node lat="61.65287777615825" lon="11.727574999660542" id="-21203">
		<tag k="name" v="Holbekkjølen" />
		<tag k="natural" v="wetland" />
		<tag k="ssr:stedsnr" v="495365" />
	</node>
	<node lat="62.22215555849781" lon="12.049033336952947" id="-21211">
		<tag k="name" v="Småbekkfloan" />
		<tag k="natural" v="wetland" />
		<tag k="ssr:stedsnr" v="496330" />
	</node>
	<node lat="61.88222499852551" lon="11.867277782083317" id="-21229">
		<tag k="name" v="Bjertkjølen" />
		<tag k="natural" v="wetland" />
		<tag k="ssr:stedsnr" v="496849" />
	</node>
	<node lat="61.905883330530465" lon="11.887305546650365" id="-21231">
		<tag k="name" v="Tengstadmyra" />
		<tag k="natural" v="wetland" />
		<tag k="ssr:stedsnr" v="496865" />
	</node>
	<node lat="61.990916665427946" lon="12.152444441433936" id="-21233">
		<tag k="alt_name" v="Ånesmyrane" />
		<tag k="name" v="Ånesmyran" />
		<tag k="natural" v="wetland" />
		<tag k="ssr:stedsnr" v="496903" />
	</node>
	<node lat="61.877694445288796" lon="11.77084166530918" id="-21235">
		<tag k="name" v="Løvhuskjølen" />
		<tag k="natural" v="wetland" />
		<tag k="ssr:stedsnr" v="496966" />
	</node>
	<node lat="61.61428055627681" lon="12.103472227954123" id="-21245">
		<tag k="historic" v="shieling" />
		<tag k="name" v="Gammelvollen" />
		<tag k="place" v="locality" />
		<tag k="ssr:stedsnr" v="539520" />
	</node>
	<node lat="62.0974722196483" lon="11.657274998440077" id="-21248">
		<tag k="name" v="Kirkfloen" />
		<tag k="natural" v="wetland" />
		<tag k="ssr:stedsnr" v="541046" />
	</node>
	<node lat="62.096411113095" lon="11.666666665941019" id="-21249">
		<tag k="landuse" v="meadow" />
		<tag k="name" v="Krontrerøsta" />
		<tag k="ssr:stedsnr" v="541047" />
	</node>
	<node lat="61.807327775540934" lon="11.981749991050044" id="-21250">
		<tag k="name" v="Skjeftmyra" />
		<tag k="natural" v="wetland" />
		<tag k="ssr:stedsnr" v="541121" />
	</node>
	<node lat="62.15946944152225" lon="11.982450007643786" id="-21252">
		<tag k="name" v="Storblautmyra" />
		<tag k="natural" v="wetland" />
		<tag k="ssr:stedsnr" v="541220" />
	</node>
	<node lat="61.8315166687123" lon="11.883011118513467" id="-21253">
		<tag k="name" v="Brennhaugmyra" />
		<tag k="natural" v="wetland" />
		<tag k="ssr:stedsnr" v="541404" />
	</node>
	<node lat="61.82851389074156" lon="11.891277769367889" id="-21255">
		<tag k="landuse" v="quarry" />
		<tag k="name" v="Lergruva" />
		<tag k="ssr:stedsnr" v="541304" />
	</node>
	<node lat="62.049461107451506" lon="12.12729444035006" id="-21262">
		<tag k="name" v="Litlmyra" />
		<tag k="natural" v="wetland" />
		<tag k="ssr:stedsnr" v="541717" />
	</node>
	<node lat="61.663238886271344" lon="12.072200000053527" id="-21274">
		<tag k="name" v="Storkjølen" />
		<tag k="natural" v="wetland" />
		<tag k="ssr:stedsnr" v="555610" />
	</node>
	<node lat="61.67678055298262" lon="12.154805563024073" id="-21276">
		<tag k="name" v="Vikjølen" />
		<tag k="natural" v="wetland" />
		<tag k="ssr:stedsnr" v="555627" />
	</node>
	<node lat="62.13393333085558" lon="12.126194451352248" id="-21295">
		<tag k="alt_name" v="Litlegrøvelsjøfloane" />
		<tag k="name" v="Litlegrøvelsjøfloan" />
		<tag k="natural" v="wetland" />
		<tag k="ssr:stedsnr" v="557250" />
	</node>
	<node lat="61.9045583291169" lon="12.084283341582042" id="-21315">
		<tag k="name" v="Malmtekmyra" />
		<tag k="natural" v="wetland" />
		<tag k="ssr:stedsnr" v="585041" />
	</node>
	<node lat="61.79060833606633" lon="11.966863895356248" id="-21317">
		<tag k="name" v="Øvre Knulmyra" />
		<tag k="natural" v="wetland" />
		<tag k="ssr:stedsnr" v="586150" />
	</node>
	<node lat="61.826091665486196" lon="11.89488888207621" id="-21330">
		<tag k="name" v="Veltmyra" />
		<tag k="natural" v="wetland" />
		<tag k="ssr:stedsnr" v="601252" />
	</node>
	<node lat="62.01631944425387" lon="11.729516662036396" id="-21332">
		<tag k="name" v="Elvålsvollfloen" />
		<tag k="natural" v="wetland" />
		<tag k="ssr:stedsnr" v="601358" />
	</node>
	<node lat="61.67613889243349" lon="11.793094449061805" id="-21346">
		<tag k="name" v="Skjeftmyra" />
		<tag k="natural" v="wetland" />
		<tag k="ssr:stedsnr" v="602810" />
	</node>
	<node lat="61.66343611185752" lon="12.098936116796246" id="-21353">
		<tag k="name" v="Hopsmyra" />
		<tag k="natural" v="wetland" />
		<tag k="ssr:stedsnr" v="616647" />
	</node>
	<node lat="62.067100000820076" lon="12.205919442805287" id="-21363">
		<tag k="name" v="Storfloen" />
		<tag k="natural" v="wetland" />
		<tag k="ssr:stedsnr" v="617317" />
	</node>
	<node lat="61.79565278012791" lon="11.846775000234388" id="-21378">
		<tag k="name" v="Slettmomyra" />
		<tag k="natural" v="wetland" />
		<tag k="ssr:stedsnr" v="617782" />
	</node>
	<node lat="61.7474638933654" lon="11.875636111284713" id="-21402">
		<tag k="name" v="Kjerkeskjæra" />
		<tag k="place" v="locality" />
		<tag k="ssr:stedsnr" v="662254" />
	</node>
	<node lat="61.9908972178813" lon="11.930977774810072" id="-21414">
		<tag k="name" v="Svartoddmyra" />
		<tag k="natural" v="wetland" />
		<tag k="ssr:stedsnr" v="662731" />
	</node>
	<node lat="61.689149998708814" lon="11.99522223142796" id="-21415">
		<tag k="landuse" v="meadow" />
		<tag k="name" v="Storenget" />
		<tag k="ssr:stedsnr" v="662732" />
	</node>
	<node lat="61.69012500434366" lon="11.989680556693488" id="-21416">
		<tag k="landuse" v="meadow" />
		<tag k="name" v="Syrholken" />
		<tag k="ssr:stedsnr" v="662733" />
	</node>
	<node lat="61.756205552574734" lon="11.936158324886154" id="-21425">
		<tag k="name" v="Bergmyra" />
		<tag k="natural" v="wetland" />
		<tag k="ssr:stedsnr" v="890991" />
	</node>
	<node lat="61.84586111422094" lon="11.805869447394123" id="-21426">
		<tag k="name" v="Akselmyra" />
		<tag k="natural" v="wetland" />
		<tag k="ssr:stedsnr" v="891084" />
	</node>
	<node lat="61.64782500263735" lon="12.1391999948204" id="-21432">
		<tag k="name" v="Øvstkjeldkjølen" />
		<tag k="natural" v="wetland" />
		<tag k="ssr:stedsnr" v="677676" />
	</node>
	<node lat="61.702000000995476" lon="12.02791388029001" id="-21435">
		<tag k="name" v="Granbekkmyrene" />
		<tag k="natural" v="wetland" />
		<tag k="ssr:stedsnr" v="677733" />
	</node>
	<node lat="61.92290555593694" lon="11.880683339069398" id="-21475">
		<tag k="name" v="Slaggkjølen" />
		<tag k="natural" v="wetland" />
		<tag k="ssr:stedsnr" v="723520" />
	</node>
	<node lat="61.638119445228256" lon="12.254563889554225" id="-21489">
		<tag k="name" v="Litlfjellkjølen" />
		<tag k="natural" v="wetland" />
		<tag k="ssr:stedsnr" v="738518" />
	</node>
	<node lat="61.82213611521648" lon="11.902758342800364" id="-21518">
		<tag k="landuse" v="meadow" />
		<tag k="name" v="Hesjejota" />
		<tag k="ssr:stedsnr" v="905270" />
	</node>
	<node lat="62.01828333256647" lon="11.702777786864669" id="-21521">
		<tag k="name" v="Åsmyra" />
		<tag k="natural" v="wetland" />
		<tag k="ssr:stedsnr" v="905361" />
	</node>
	<node lat="61.71682499906837" lon="12.053891659290292" id="-21529">
		<tag k="name" v="Gammelvollen" />
		<tag k="place" v="locality" />
		<tag k="ssr:stedsnr" v="906030" />
	</node>
	<node lat="61.68632777411431" lon="11.999300004138227" id="-21531">
		<tag k="landuse" v="meadow" />
		<tag k="name" v="Hansjotstranda" />
		<tag k="ssr:stedsnr" v="906742" />
	</node>
	<node lat="61.64526388583355" lon="12.230386101524166" id="-21533">
		<tag k="landuse" v="meadow" />
		<tag k="name" v="Stenjota" />
		<tag k="ssr:stedsnr" v="906991" />
	</node>
	<node lat="62.13787222200825" lon="11.625513895796724" id="-21548">
		<tag k="name" v="Floa" />
		<tag k="natural" v="wetland" />
		<tag k="ssr:stedsnr" v="782863" />
	</node>
	<node lat="62.02591388740797" lon="12.164749998555893" id="-21552">
		<tag k="name" v="Gammelvollen" />
		<tag k="place" v="locality" />
		<tag k="ssr:stedsnr" v="784559" />
	</node>
	<node lat="62.07786388797536" lon="12.195408331957548" id="-21554">
		<tag k="name" v="Skalsterfloen" />
		<tag k="natural" v="wetland" />
		<tag k="ssr:stedsnr" v="784723" />
	</node>
	<node lat="61.77172499589122" lon="11.652319447765237" id="-21561">
		<tag k="name" v="Ølet" />
		<tag k="place" v="locality" />
		<tag k="ssr:stedsnr" v="786862" />
	</node>
	<node lat="61.61973888541516" lon="12.104100002336697" id="-21577">
		<tag k="name" v="Gyssdalskjølen" />
		<tag k="natural" v="wetland" />
		<tag k="ssr:stedsnr" v="799705" />
	</node>
	<node lat="61.75808055149971" lon="11.682925005418355" id="-21594">
		<tag k="name" v="Kaldmyrene" />
		<tag k="natural" v="wetland" />
		<tag k="ssr:stedsnr" v="800928" />
	</node>
	<node lat="61.710850000296716" lon="11.783227781499816" id="-21599">
		<tag k="name" v="Vidjerismyra" />
		<tag k="natural" v="wetland" />
		<tag k="ssr:stedsnr" v="920263" />
	</node>
	<node lat="61.80591111508834" lon="11.919280553013861" id="-21668">
		<tag k="landuse" v="meadow" />
		<tag k="name" v="Kjølljoten" />
		<tag k="ssr:stedsnr" v="845495" />
	</node>
	<node lat="61.65260555255271" lon="12.171711107210875" id="-21675">
		<tag k="name" v="Rypkallmyra" />
		<tag k="natural" v="wetland" />
		<tag k="ssr:stedsnr" v="845808" />
	</node>
	<node lat="61.760577777833" lon="12.094191666945918" id="-21691">
		<tag k="name" v="Skjeftmyra" />
		<tag k="natural" v="wetland" />
		<tag k="ssr:stedsnr" v="860758" />
	</node>
	<node lat="61.87403888739727" lon="11.806541663178043" id="-21703">
		<tag k="alt_name" v="Sættamyra" />
		<tag k="name" v="Sættanmyra" />
		<tag k="natural" v="wetland" />
		<tag k="ssr:stedsnr" v="861984" />
	</node>
	<node lat="62.13871944801221" lon="11.933652774411827" id="-21710">
		<tag k="name" v="Stygglandet" />
		<tag k="place" v="locality" />
		<tag k="ssr:stedsnr" v="905104" />
	</node>
	<node lat="62.16139166481593" lon="11.982408327316596" id="-21712">
		<tag k="name" v="Lilleblautmyra" />
		<tag k="natural" v="wetland" />
		<tag k="ssr:stedsnr" v="905212" />
	</node>
	<node lat="61.77813332907032" lon="11.986524998642077" id="-21714">
		<tag k="name" v="Øvre Ørnhølmyra" />
		<tag k="natural" v="wetland" />
		<tag k="ssr:stedsnr" v="905153" />
	</node>
	<node lat="61.836058337267566" lon="12.163572218378484" id="-21725">
		<tag k="name" v="Vindkjølen" />
		<tag k="natural" v="wetland" />
		<tag k="ssr:stedsnr" v="905899" />
	</node>
	<node lat="61.74172500449352" lon="11.822811110013902" id="-21726">
		<tag k="landuse" v="meadow" />
		<tag k="name" v="Brenna" />
		<tag k="ssr:stedsnr" v="905999" />
	</node>
	<node lat="61.864752777067" lon="12.1644583378899" id="-21727">
		<tag k="name" v="Sjøendmyra" />
		<tag k="natural" v="wetland" />
		<tag k="ssr:stedsnr" v="906605" />
	</node>
	<node lat="61.622611113547066" lon="12.110411113382922" id="-21732">
		<tag k="name" v="Litlmerramyra" />
		<tag k="natural" v="wetland" />
		<tag k="ssr:stedsnr" v="908210" />
	</node>
	<node lat="61.75636944537355" lon="11.714563884113897" id="-21757">
		<tag k="alt_name" v="Stenbekkjølen" />
		<tag k="name" v="Steinbekkjølen" />
		<tag k="natural" v="wetland" />
		<tag k="ssr:stedsnr" v="921903" />
	</node>
	<node lat="61.777836107189046" lon="11.678633334371177" id="-21758">
		<tag k="name" v="Krokmyra" />
		<tag k="natural" v="wetland" />
		<tag k="ssr:stedsnr" v="921921" />
	</node>
	<node lat="61.84482777797708" lon="11.820733329226524" id="-21779">
		<tag k="name" v="Mæloka" />
		<tag k="natural" v="wetland" />
		<tag k="ssr:stedsnr" v="965495" />
	</node>
	<node lat="61.62314722383722" lon="12.090399998450549" id="-21797">
		<tag k="name" v="Stormyra" />
		<tag k="natural" v="wetland" />
		<tag k="ssr:stedsnr" v="969214" />
	</node>
	<node lat="61.65765555430656" lon="12.115005555546812" id="-21813">
		<tag k="name" v="Storkjølen" />
		<tag k="natural" v="wetland" />
		<tag k="ssr:stedsnr" v="10656" />
	</node>
	<node lat="61.65683333276251" lon="12.18778610167854" id="-21815">
		<tag k="name" v="Slaggkjølen" />
		<tag k="natural" v="wetland" />
		<tag k="ssr:stedsnr" v="10661" />
	</node>
	<node lat="61.77415833561793" lon="12.101000000724666" id="-21822">
		<tag k="name" v="Multemyra" />
		<tag k="natural" v="wetland" />
		<tag k="ssr:stedsnr" v="10766" />
	</node>
	<node lat="62.2383000021744" lon="12.025127778815365" id="-21829">
		<tag k="loc_name" v="Svukurisfloan" />
		<tag k="name" v="Svukurismyra" />
		<tag k="natural" v="wetland" />
		<tag k="ssr:stedsnr" v="11310" />
	</node>
	<node lat="61.801974999953586" lon="11.853549992382579" id="-21839">
		<tag k="name" v="Skjeftmyra" />
		<tag k="natural" v="wetland" />
		<tag k="ssr:stedsnr" v="11796" />
	</node>
	<node lat="61.85069999972436" lon="11.915822218240416" id="-21842">
		<tag k="alt_name" v="Vordenget" />
		<tag k="name" v="Volenget" />
		<tag k="place" v="locality" />
		<tag k="ssr:stedsnr" v="11835" />
	</node>
	<node lat="61.85248333564867" lon="11.970372221753765" id="-21843">
		<tag k="name" v="Blæsterkjølen" />
		<tag k="natural" v="wetland" />
		<tag k="ssr:stedsnr" v="11836" />
	</node>
	<node lat="61.908963891226406" lon="12.063444448380867" id="-21846">
		<tag k="name" v="Storkjølen" />
		<tag k="natural" v="wetland" />
		<tag k="ssr:stedsnr" v="11870" />
	</node>
	<node lat="62.07929721881891" lon="12.019097231418046" id="-21863">
		<tag k="name" v="Storfloen" />
		<tag k="natural" v="wetland" />
		<tag k="ssr:stedsnr" v="55232" />
	</node>
	<node lat="61.83524166837352" lon="11.81913055553202" id="-21866">
		<tag k="name" v="Flomyra" />
		<tag k="natural" v="wetland" />
		<tag k="ssr:stedsnr" v="55365" />
	</node>
	<node lat="61.6334749957514" lon="12.073380547342667" id="-21884">
		<tag k="name" v="Svartmyra" />
		<tag k="natural" v="wetland" />
		<tag k="ssr:stedsnr" v="59200" />
	</node>
	<node lat="61.77132500023598" lon="12.082302783935951" id="-21885">
		<tag k="name" v="Multkjølen" />
		<tag k="natural" v="wetland" />
		<tag k="ssr:stedsnr" v="59038" />
	</node>
	<node lat="61.73542499723258" lon="11.819427786970028" id="-21899">
		<tag k="name" v="Stormyra" />
		<tag k="natural" v="wetland" />
		<tag k="ssr:stedsnr" v="71301" />
	</node>
	<node lat="62.05216944201518" lon="12.137636104324148" id="-21902">
		<tag k="name" v="Kjeldmyra" />
		<tag k="natural" v="wetland" />
		<tag k="ssr:stedsnr" v="71345" />
	</node>
	<node lat="61.812150000836894" lon="11.85314722711241" id="-21910">
		<tag k="name" v="Holtjønnmyra" />
		<tag k="natural" v="wetland" />
		<tag k="ssr:stedsnr" v="72767" />
	</node>
	<node lat="61.871499998760484" lon="11.905394438699775" id="-21917">
		<tag k="name" v="Djupdalsmyra" />
		<tag k="natural" v="wetland" />
		<tag k="ssr:stedsnr" v="71848" />
	</node>
	<node lat="61.908152777541844" lon="11.921925008025818" id="-21931">
		<tag k="name" v="Hølbekkjølen" />
		<tag k="natural" v="wetland" />
		<tag k="ssr:stedsnr" v="72857" />
	</node>
	<node lat="62.186261111067324" lon="11.854541663096661" id="-21944">
		<tag k="name" v="Rotvikfloen" />
		<tag k="natural" v="wetland" />
		<tag k="ssr:stedsnr" v="115192" />
	</node>
	<node lat="61.780011109139544" lon="11.981983326864835" id="-21952">
		<tag k="name" v="Nedre Ørnhølmyra" />
		<tag k="natural" v="wetland" />
		<tag k="ssr:stedsnr" v="116144" />
	</node>
	<node lat="61.66554444277359" lon="12.151775001224117" id="-21958">
		<tag k="name" v="Storfloen" />
		<tag k="natural" v="wetland" />
		<tag k="ssr:stedsnr" v="116870" />
	</node>
	<node lat="61.833461108112594" lon="12.151083332071982" id="-21960">
		<tag k="name" v="Stokkmyrkjølen" />
		<tag k="natural" v="wetland" />
		<tag k="ssr:stedsnr" v="116887" />
	</node>
	<node lat="61.74827222366859" lon="11.698388892175966" id="-21965">
		<tag k="name" v="Tølløfslåtten" />
		<tag k="place" v="locality" />
		<tag k="ssr:stedsnr" v="117233" />
	</node>
	<node lat="61.7433388871216" lon="11.813297222267547" id="-21969">
		<tag k="historic" v="shieling" />
		<tag k="name" v="Markjota" />
		<tag k="place" v="locality" />
		<tag k="ssr:stedsnr" v="117999" />
	</node>
	<node lat="61.634541670431005" lon="12.075166674513946" id="-21976">
		<tag k="name" v="Kjellmyra" />
		<tag k="natural" v="wetland" />
		<tag k="ssr:stedsnr" v="119198" />
	</node>
	<node lat="61.62412222422127" lon="12.179261116779097" id="-21992">
		<tag k="name" v="Storbekkflået" />
		<tag k="natural" v="wetland" />
		<tag k="ssr:stedsnr" v="131683" />
	</node>
	<node lat="61.713700000326796" lon="12.017230548001034" id="-21996">
		<tag k="name" v="Stormyra" />
		<tag k="natural" v="wetland" />
		<tag k="ssr:stedsnr" v="131746" />
	</node>
	<node lat="61.859144445901244" lon="11.927333332405" id="-22010">
		<tag k="name" v="Hovdbekkkjølen" />
		<tag k="natural" v="wetland" />
		<tag k="ssr:stedsnr" v="132835" />
	</node>
	<node lat="61.92285000412106" lon="12.055116664493585" id="-22014">
		<tag k="name" v="Brattmyra" />
		<tag k="natural" v="wetland" />
		<tag k="ssr:stedsnr" v="132857" />
	</node>
	<node lat="61.81830833125309" lon="11.836355547587528" id="-22016">
		<tag k="name" v="Slåttmyra" />
		<tag k="natural" v="wetland" />
		<tag k="ssr:stedsnr" v="132943" />
	</node>
	<node lat="61.84371944070185" lon="12.1043777858875" id="-22021">
		<tag k="alt_name" v="Bjønnåsmyra" />
		<tag k="name" v="Bjørnåsmyra" />
		<tag k="natural" v="wetland" />
		<tag k="ssr:stedsnr" v="132790" />
	</node>
	<node lat="61.8997111091248" lon="12.069283328082216" id="-22039">
		<tag k="name" v="Hedbladkjølen" />
		<tag k="natural" v="wetland" />
		<tag k="ssr:stedsnr" v="161025" />
	</node>
	<node lat="61.84728888605387" lon="11.928577784423616" id="-22044">
		<tag k="name" v="Skaftmyra" />
		<tag k="natural" v="wetland" />
		<tag k="ssr:stedsnr" v="177390" />
	</node>
	<node lat="61.81237777441944" lon="11.788380551965439" id="-22060">
		<tag k="name" v="Stormyra" />
		<tag k="natural" v="wetland" />
		<tag k="ssr:stedsnr" v="177854" />
	</node>
	<node lat="61.84271944254954" lon="12.158308332240274" id="-22061">
		<tag k="name" v="Kulkjølen" />
		<tag k="natural" v="wetland" />
		<tag k="ssr:stedsnr" v="177909" />
	</node>
	<node lat="61.81485555832356" lon="11.721408329736688" id="-22064">
		<tag k="name" v="Svartskjæret" />
		<tag k="natural" v="scree" />
		<tag k="ssr:stedsnr" v="179362" />
	</node>
	<node lat="61.76929166870831" lon="12.092938897604569" id="-22081">
		<tag k="name" v="Luvhøkjølen" />
		<tag k="natural" v="wetland" />
		<tag k="ssr:stedsnr" v="192760" />
	</node>
	<node lat="61.78813610746869" lon="12.060758325076621" id="-22107">
		<tag k="name" v="Slektriset" />
		<tag k="place" v="locality" />
		<tag k="ssr:stedsnr" v="193753" />
	</node>
	<node lat="61.85456666318105" lon="12.049661113368655" id="-22116">
		<tag k="alt_name" v="Bjønnåsmoan" />
		<tag k="name" v="Bjørnåsmoan" />
		<tag k="place" v="locality" />
		<tag k="ssr:stedsnr" v="193817" />
	</node>
	<node lat="61.84838888983555" lon="11.889555548251547" id="-22119">
		<tag k="name" v="Kartmyra" />
		<tag k="natural" v="wetland" />
		<tag k="ssr:stedsnr" v="193832" />
	</node>
	<node lat="61.84257778088085" lon="11.786424994543076" id="-22126">
		<tag k="name" v="Østermyra" />
		<tag k="natural" v="wetland" />
		<tag k="ssr:stedsnr" v="193959" />
	</node>
	<node lat="62.28068333698409" lon="12.083466666167155" id="-22131">
		<tag k="name" v="Oasen" />
		<tag k="natural" v="wetland" />
		<tag k="ssr:stedsnr" v="202868" />
	</node>
	<node lat="61.90325833251764" lon="12.045905553304243" id="-22139">
		<tag k="name" v="Langkloppmyra" />
		<tag k="natural" v="wetland" />
		<tag k="ssr:stedsnr" v="282033" />
	</node>
	<node lat="61.678909298378144" lon="12.069280488654988" id="-22142">
		<tag k="name" v="Bjørn-Sandmyra" />
		<tag k="natural" v="wetland" />
		<tag k="ssr:stedsnr" v="284243" />
	</node>
	<node lat="61.66603333120511" lon="12.090641672314105" id="-22143">
		<tag k="name" v="Gjermundshoppmyra" />
		<tag k="natural" v="wetland" />
		<tag k="ssr:stedsnr" v="284246" />
	</node>
	<node lat="61.62896111295537" lon="12.148086115655127" id="-22147">
		<tag k="name" v="Blekkmyrslåtten" />
		<tag k="place" v="locality" />
		<tag k="ssr:stedsnr" v="295561" />
	</node>
	<node lat="61.644811110305106" lon="12.035352776168327" id="-22149">
		<tag k="name" v="Grønkjelda" />
		<tag k="place" v="locality" />
		<tag k="ssr:stedsnr" v="298202" />
	</node>
	<node lat="62.01612777617627" lon="12.191052771458986" id="-22159">
		<tag k="name" v="Stenbakkmyra" />
		<tag k="natural" v="wetland" />
		<tag k="ssr:stedsnr" v="298713" />
	</node>
	<node lat="61.715638888112245" lon="11.761952772065339" id="-22161">
		<tag k="name" v="Myra" />
		<tag k="natural" v="wetland" />
		<tag k="ssr:stedsnr" v="298813" />
	</node>
	<node lat="61.7833527782289" lon="11.746122223292753" id="-22163">
		<tag k="name" v="Olemyra" />
		<tag k="natural" v="wetland" />
		<tag k="ssr:stedsnr" v="299199" />
	</node>
	<node lat="61.671963890576286" lon="12.078261115049557" id="-22185">
		<tag k="alt_name" v="Stor-Ingeborgmyra" />
		<tag k="name" v="Storingeborgmyra" />
		<tag k="natural" v="wetland" />
		<tag k="ssr:stedsnr" v="313655" />
	</node>
	<node lat="61.7573111106914" lon="11.922933340749006" id="-22201">
		<tag k="name" v="Fløyet" />
		<tag k="natural" v="wetland" />
		<tag k="ssr:stedsnr" v="314728" />
	</node>
	<node lat="61.765527780733656" lon="11.951344444947551" id="-22222">
		<tag k="name" v="Toresrønningen" />
		<tag k="place" v="locality" />
		<tag k="ssr:stedsnr" v="344990" />
	</node>
	<node lat="62.13513055189054" lon="11.95873332956496" id="-22231">
		<tag k="name" v="Volsjørøsta" />
		<tag k="place" v="locality" />
		<tag k="ssr:stedsnr" v="359093" />
	</node>
	<node lat="62.163650000034245" lon="11.974313897179238" id="-22237">
		<tag k="name" v="Heggrøsta" />
		<tag k="place" v="locality" />
		<tag k="ssr:stedsnr" v="359201" />
	</node>
	<node lat="61.78971666956421" lon="11.920477780937423" id="-22240">
		<tag k="landuse" v="meadow" />
		<tag k="name" v="Strupen" />
		<tag k="ssr:stedsnr" v="359491" />
	</node>
	<node lat="61.872594441373785" lon="12.146105547135301" id="-22242">
		<tag k="name" v="Kjøllandet" />
		<tag k="natural" v="wetland" />
		<tag k="ssr:stedsnr" v="359593" />
	</node>
	<node lat="62.02330833703676" lon="12.172586110730446" id="-22243">
		<tag k="name" v="Brattmyra" />
		<tag k="natural" v="wetland" />
		<tag k="ssr:stedsnr" v="359743" />
	</node>
	<node lat="61.73736944590815" lon="11.713327770593631" id="-22245">
		<tag k="name" v="Andreasmyra" />
		<tag k="natural" v="wetland" />
		<tag k="ssr:stedsnr" v="359766" />
	</node>
	<node lat="61.848908329499935" lon="12.16818611067248" id="-22249">
		<tag k="name" v="Myra søom berget" />
		<tag k="natural" v="wetland" />
		<tag k="ssr:stedsnr" v="359878" />
	</node>
	<node lat="61.7947194425299" lon="11.695708327790113" id="-22251">
		<tag k="landuse" v="meadow" />
		<tag k="name" v="Slåttloken" />
		<tag k="ssr:stedsnr" v="359841" />
	</node>
	<node lat="61.771638886232275" lon="12.080380562949863" id="-22260">
		<tag k="name" v="Luvhøbrenna" />
		<tag k="place" v="locality" />
		<tag k="ssr:stedsnr" v="362045" />
	</node>
	<node lat="62.15157500135321" lon="11.656005559835299" id="-22282">
		<tag k="name" v="Rya" />
		<tag k="natural" v="wetland" />
		<tag k="ssr:stedsnr" v="375348" />
	</node>
	<node lat="61.8128527767239" lon="12.069772225597992" id="-22287">
		<tag k="name" v="Kløftmyra" />
		<tag k="natural" v="wetland" />
		<tag k="ssr:stedsnr" v="375760" />
	</node>
	<node lat="61.808238890500185" lon="12.100091672078802" id="-22288">
		<tag k="name" v="Blæstermyra" />
		<tag k="natural" v="wetland" />
		<tag k="ssr:stedsnr" v="375771" />
	</node>
	<node lat="61.82131666766644" lon="11.979591662301983" id="-22299">
		<tag k="name" v="Eksingrøsta" />
		<tag k="natural" v="wetland" />
		<tag k="ssr:stedsnr" v="389162" />
	</node>
	<node lat="61.7202027742208" lon="11.72202222679821" id="-22300">
		<tag k="name" v="Gjeltmyra" />
		<tag k="natural" v="wetland" />
		<tag k="ssr:stedsnr" v="495285" />
	</node>
	<node lat="62.15531666498511" lon="11.680227776368664" id="-22309">
		<tag k="name" v="Bakkvollen" />
		<tag k="place" v="locality" />
		<tag k="ssr:stedsnr" v="418873" />
	</node>
	<node lat="62.0805888920541" lon="12.2104861120949" id="-22321">
		<tag k="name" v="Fjellmyran" />
		<tag k="natural" v="wetland" />
		<tag k="ssr:stedsnr" v="420725" />
	</node>
	<node lat="61.983952776863944" lon="11.879877785449816" id="-22324">
		<tag k="name" v="Litlbuvikmyra" />
		<tag k="natural" v="wetland" />
		<tag k="ssr:stedsnr" v="420733" />
	</node>
	<node lat="61.68241111216418" lon="12.000583324515468" id="-22325">
		<tag k="landuse" v="meadow" />
		<tag k="name" v="Stranda" />
		<tag k="ssr:stedsnr" v="420735" />
	</node>
	<node lat="61.65065555460188" lon="12.139736117931298" id="-22335">
		<tag k="name" v="Brekkjølen" />
		<tag k="natural" v="wetland" />
		<tag k="ssr:stedsnr" v="420774" />
	</node>
	<node lat="61.641702780888075" lon="12.088663895964519" id="-22348">
		<tag k="name" v="Sjangelmyra" />
		<tag k="natural" v="wetland" />
		<tag k="ssr:stedsnr" v="423272" />
	</node>
	<node lat="61.76933611101938" lon="11.767202768740445" id="-22356">
		<tag k="name" v="Langmyra" />
		<tag k="natural" v="wetland" />
		<tag k="ssr:stedsnr" v="435941" />
	</node>
	<node lat="61.67193611062566" lon="12.109677782233215" id="-22357">
		<tag k="name" v="Båtkjølen" />
		<tag k="natural" v="wetland" />
		<tag k="ssr:stedsnr" v="435686" />
	</node>
	<node lat="61.7634638898361" lon="12.048997231726466" id="-22360">
		<tag k="name" v="Blakksjøkvelven" />
		<tag k="natural" v="wetland" />
		<tag k="ssr:stedsnr" v="435749" />
	</node>
</osm>
