<?xml version="1.0" encoding="UTF-8"?>
<osm version="0.6" generator="osmapis">
	<node lat="62.12005277514157" lon="12.16911388741509" id="-21331">
		<tag k="fixme" v="consider natural=peak for the most distinct mountains in the district" />
		<tag k="name" v="Digerhogna - Goebletjahke" />
		<tag k="name:no" v="Digerhogna" />
		<tag k="name:sma" v="Goebletjahke" />
		<tag k="natural" v="hill" />
		<tag k="place" v="locality" />
		<tag k="ssr:stedsnr" v="10248" />
	</node>
	<node lat="61.646205558970564" lon="11.709288887422215" id="-21332">
		<tag k="fixme" v="consider natural=peak for the most distinct mountains in the district" />
		<tag k="name" v="Gråhøgda" />
		<tag k="natural" v="hill" />
		<tag k="place" v="locality" />
		<tag k="ssr:stedsnr" v="10305" />
	</node>
	<node lat="61.64966110810628" lon="11.77931389082067" id="-21333">
		<tag k="name" v="Tanggjota" />
		<tag k="natural" v="valley" />
		<tag k="place" v="locality" />
		<tag k="ssr:stedsnr" v="10307" />
	</node>
	<node lat="61.646366668552304" lon="11.760094446114916" id="-21335">
		<tag k="alt_name" v="Skjærbekkdalen" />
		<tag k="name" v="Skjerbekkdalen" />
		<tag k="natural" v="valley" />
		<tag k="place" v="locality" />
		<tag k="ssr:stedsnr" v="10339" />
	</node>
	<node lat="61.64019999629772" lon="12.275388897330066" id="-21336">
		<tag k="fixme" v="consider natural=peak for the most distinct mountains in the district" />
		<tag k="name" v="Litlfjellet" />
		<tag k="natural" v="hill" />
		<tag k="place" v="locality" />
		<tag k="ssr:stedsnr" v="10484" />
	</node>
	<node lat="61.79000000332171" lon="11.799761116287923" id="-21341">
		<tag k="name" v="Varmsbekkroa" />
		<tag k="natural" v="valley" />
		<tag k="place" v="locality" />
		<tag k="ssr:stedsnr" v="10941" />
	</node>
	<node lat="62.05737777597415" lon="12.023850007464395" id="-21343">
		<tag k="name" v="Storsjøberget" />
		<tag k="natural" v="hill" />
		<tag k="place" v="locality" />
		<tag k="ssr:stedsnr" v="11282" />
	</node>
	<node lat="62.123650004176945" lon="11.66470555742844" id="-21346">
		<tag k="fixme" v="consider natural=peak for the most distinct mountains in the district" />
		<tag k="name" v="Mikkelsbrenna" />
		<tag k="natural" v="hill" />
		<tag k="place" v="locality" />
		<tag k="ssr:stedsnr" v="11394" />
	</node>
	<node lat="62.12273333384109" lon="11.624383335213082" id="-21347">
		<tag k="fixme" v="consider natural=peak for the most distinct mountains in the district" />
		<tag k="name" v="Langsjøåsen" />
		<tag k="natural" v="hill" />
		<tag k="place" v="locality" />
		<tag k="ssr:stedsnr" v="11396" />
	</node>
	<node lat="61.83545555956305" lon="12.050027785503861" id="-21349">
		<tag k="name" v="Kvannjota" />
		<tag k="place" v="locality" />
		<tag k="ssr:stedsnr" v="11812" />
	</node>
	<node lat="61.7792802469319" lon="11.977373064330822" id="-21354">
		<tag k="alt_name" v="Ørnhølet" />
		<tag k="name" v="Ørnholet" />
		<tag k="natural" v="valley" />
		<tag k="place" v="locality" />
		<tag k="ssr:stedsnr" v="11773" />
	</node>
	<node lat="62.191544440404925" lon="11.867800000847287" id="-21362">
		<tag k="name" v="Stalloddrøstan" />
		<tag k="natural" v="hill" />
		<tag k="place" v="locality" />
		<tag k="ssr:stedsnr" v="236172" />
	</node>
	<node lat="61.881649997179714" lon="11.804463883773998" id="-21366">
		<tag k="name" v="Gråndalen" />
		<tag k="natural" v="valley" />
		<tag k="place" v="locality" />
		<tag k="ssr:stedsnr" v="41116" />
	</node>
	<node lat="61.6542194424327" lon="12.16127778342121" id="-21373">
		<tag k="fixme" v="consider natural=peak for the most distinct mountains in the district" />
		<tag k="name" v="Gaukåsen" />
		<tag k="natural" v="hill" />
		<tag k="place" v="locality" />
		<tag k="ssr:stedsnr" v="237755" />
	</node>
	<node lat="62.13875278061073" lon="11.933769435924377" id="-21377">
		<tag k="fixme" v="consider natural=peak for the most distinct mountains in the district" />
		<tag k="name" v="Stygglandet" />
		<tag k="natural" v="hill" />
		<tag k="place" v="locality" />
		<tag k="ssr:stedsnr" v="237919" />
	</node>
	<node lat="61.675747221774884" lon="11.702491673734347" id="-21381">
		<tag k="fixme" v="consider natural=peak for the most distinct mountains in the district" />
		<tag k="name" v="Hølbekkåsen" />
		<tag k="natural" v="hill" />
		<tag k="place" v="locality" />
		<tag k="ssr:stedsnr" v="238198" />
	</node>
	<node lat="62.01522500269112" lon="12.181055547434857" id="-21384">
		<tag k="name" v="Hammeren" />
		<tag k="natural" v="hill" />
		<tag k="place" v="locality" />
		<tag k="ssr:stedsnr" v="238764" />
	</node>
	<node lat="61.73515000446601" lon="12.019583335674021" id="-21388">
		<tag k="name" v="Svingslåtten" />
		<tag k="place" v="locality" />
		<tag k="ssr:stedsnr" v="239201" />
	</node>
	<node lat="61.60926111494886" lon="12.017563881019873" id="-21389">
		<tag k="name" v="Tverrfjellia" />
		<tag k="natural" v="slope" />
		<tag k="place" v="locality" />
		<tag k="ssr:stedsnr" v="53421" />
	</node>
	<node lat="61.60363777554021" lon="11.990027631264558" id="-21390">
		<tag k="name" v="Litlskora" />
		<tag k="natural" v="valley" />
		<tag k="place" v="locality" />
		<tag k="ssr:stedsnr" v="53423" />
	</node>
	<node lat="61.624016663228865" lon="12.195997222701578" id="-21392">
		<tag k="name" v="Støta" />
		<tag k="natural" v="hill" />
		<tag k="place" v="locality" />
		<tag k="ssr:stedsnr" v="53570" />
	</node>
	<node lat="62.10783333603793" lon="11.67382500711886" id="-21396">
		<tag k="name" v="Måsåegga" />
		<tag k="natural" v="hill" />
		<tag k="place" v="locality" />
		<tag k="ssr:stedsnr" v="56042" />
	</node>
	<node lat="61.72548333625982" lon="11.939047219541411" id="-21402">
		<tag k="name" v="Jonsæterdalen" />
		<tag k="natural" v="valley" />
		<tag k="place" v="locality" />
		<tag k="ssr:stedsnr" v="56981" />
	</node>
	<node lat="61.97916389329331" lon="11.732180561267041" id="-21424">
		<tag k="fixme" v="consider natural=peak for the most distinct mountains in the district" />
		<tag k="name" v="Svalåsen" />
		<tag k="natural" v="hill" />
		<tag k="place" v="locality" />
		<tag k="ssr:stedsnr" v="72079" />
	</node>
	<node lat="62.27470832954041" lon="12.032333324672605" id="-21428">
		<tag k="name" v="Falkfangarhøgda" />
		<tag k="natural" v="hill" />
		<tag k="place" v="locality" />
		<tag k="ssr:stedsnr" v="72641" />
	</node>
	<node lat="61.77204444771235" lon="11.874158324683647" id="-21433">
		<tag k="alt_name" v="Kvitvordaknappen, s" />
		<tag k="fixme" v="consider natural=peak for the most distinct mountains in the district" />
		<tag k="name" v="Søndre Kvitvolaknappen" />
		<tag k="natural" v="hill" />
		<tag k="place" v="locality" />
		<tag k="ssr:stedsnr" v="72732" />
	</node>
	<node lat="62.03913333651583" lon="11.73819999414614" id="-21437">
		<tag k="name" v="Orderrøsta" />
		<tag k="natural" v="slope" />
		<tag k="place" v="locality" />
		<tag k="ssr:stedsnr" v="101078" />
	</node>
	<node lat="61.833241669213535" lon="11.827288881671372" id="-21447">
		<tag k="name" v="Tørrbrenna" />
		<tag k="place" v="locality" />
		<tag k="ssr:stedsnr" v="116367" />
	</node>
	<node lat="62.09924999970378" lon="12.014583338591574" id="-21452">
		<tag k="name" v="Rognrusta" />
		<tag k="natural" v="slope" />
		<tag k="place" v="locality" />
		<tag k="ssr:stedsnr" v="116768" />
	</node>
	<node lat="61.655230554952546" lon="12.20761111623771" id="-21456">
		<tag k="name" v="Trangjota" />
		<tag k="natural" v="valley" />
		<tag k="old_name" v="Tronggjota" />
		<tag k="place" v="locality" />
		<tag k="ssr:stedsnr" v="252584" />
	</node>
	<node lat="61.72977222585432" lon="11.772897227434832" id="-21462">
		<tag k="name" v="Snertådalen" />
		<tag k="natural" v="valley" />
		<tag k="place" v="locality" />
		<tag k="ssr:stedsnr" v="131270" />
	</node>
	<node lat="61.62022222285831" lon="12.05275834199743" id="-21465">
		<tag k="name" v="Basdalen" />
		<tag k="natural" v="valley" />
		<tag k="place" v="locality" />
		<tag k="ssr:stedsnr" v="252651" />
	</node>
	<node lat="61.77067222556605" lon="12.02281944373641" id="-21466">
		<tag k="name" v="Røskalhøgda" />
		<tag k="natural" v="hill" />
		<tag k="place" v="locality" />
		<tag k="ssr:stedsnr" v="131763" />
	</node>
	<node lat="61.8418166644531" lon="11.900666666977454" id="-21473">
		<tag k="alt_name" v="Vordskaftet" />
		<tag k="name" v="Volskaftet" />
		<tag k="natural" v="hill" />
		<tag k="place" v="locality" />
		<tag k="ssr:stedsnr" v="132823" />
	</node>
	<node lat="61.779511111417385" lon="11.81984444215608" id="-21476">
		<tag k="name" v="Gråhøgda" />
		<tag k="natural" v="hill" />
		<tag k="place" v="locality" />
		<tag k="ssr:stedsnr" v="132918" />
	</node>
	<node lat="61.70657612267375" lon="11.925507726078106" id="-21492">
		<tag k="alt_name" v="Bjønnskåra" />
		<tag k="name" v="Bjørnskora" />
		<tag k="natural" v="valley" />
		<tag k="place" v="locality" />
		<tag k="ssr:stedsnr" v="253757" />
	</node>
	<node lat="61.731750002339425" lon="12.042691673363427" id="-21494">
		<tag k="name" v="Blakkmoen" />
		<tag k="place" v="locality" />
		<tag k="ssr:stedsnr" v="253699" />
	</node>
	<node lat="61.95519999640465" lon="11.955133324541425" id="-21497">
		<tag k="fixme" v="consider natural=peak for the most distinct mountains in the district" />
		<tag k="name" v="Kvemsjøåsen" />
		<tag k="natural" v="hill" />
		<tag k="place" v="locality" />
		<tag k="ssr:stedsnr" v="253899" />
	</node>
	<node lat="61.79099999582897" lon="11.993691669696583" id="-21512">
		<tag k="name" v="Nysæterskarven" />
		<tag k="natural" v="hill" />
		<tag k="place" v="locality" />
		<tag k="ssr:stedsnr" v="254740" />
	</node>
	<node lat="61.78685833430176" lon="11.88337499687941" id="-21513">
		<tag k="name" v="Bujotskarven" />
		<tag k="natural" v="hill" />
		<tag k="place" v="locality" />
		<tag k="ssr:stedsnr" v="254745" />
	</node>
	<node lat="61.9161916626935" lon="12.049019445193595" id="-21517">
		<tag k="fixme" v="consider natural=peak for the most distinct mountains in the district" />
		<tag k="name" v="Brattmyråsen" />
		<tag k="natural" v="hill" />
		<tag k="place" v="locality" />
		<tag k="ssr:stedsnr" v="254865" />
	</node>
	<node lat="61.894180557605296" lon="11.776483336900672" id="-21520">
		<tag k="name" v="Tjukkrøsta" />
		<tag k="natural" v="slope" />
		<tag k="place" v="locality" />
		<tag k="ssr:stedsnr" v="162113" />
	</node>
	<node lat="62.07728055802883" lon="11.73688888189367" id="-21528">
		<tag k="fixme" v="consider natural=peak for the most distinct mountains in the district" />
		<tag k="name" v="Trolltjønnåstangen" />
		<tag k="natural" v="hill" />
		<tag k="place" v="locality" />
		<tag k="ssr:stedsnr" v="177410" />
	</node>
	<node lat="62.04849444043555" lon="12.060247215163747" id="-21534">
		<tag k="name" v="Egga" />
		<tag k="place" v="locality" />
		<tag k="ssr:stedsnr" v="177866" />
	</node>
	<node lat="61.81966944216367" lon="11.722097229275406" id="-21536">
		<tag k="name" v="Litltangen" />
		<tag k="natural" v="hill" />
		<tag k="place" v="locality" />
		<tag k="ssr:stedsnr" v="179361" />
	</node>
	<node lat="61.704647223984225" lon="11.97371389638033" id="-21542">
		<tag k="alt_name" v="Engerdal" />
		<tag k="name" v="Engerdalen" />
		<tag k="natural" v="valley" />
		<tag k="place" v="locality" />
		<tag k="ssr:stedsnr" v="207403" />
	</node>
	<node lat="61.98750277482622" lon="11.719186103853147" id="-21544">
		<tag k="fixme" v="consider natural=peak for the most distinct mountains in the district" />
		<tag k="name" v="Svalåsen" />
		<tag k="natural" v="hill" />
		<tag k="place" v="locality" />
		<tag k="ssr:stedsnr" v="222072" />
	</node>
	<node lat="61.67799722589792" lon="12.04133610796609" id="-21546">
		<tag k="fixme" v="consider natural=peak for the most distinct mountains in the district" />
		<tag k="name" v="Sæteråsen" />
		<tag k="natural" v="hill" />
		<tag k="place" v="locality" />
		<tag k="ssr:stedsnr" v="224235" />
	</node>
	<node lat="61.688244446846134" lon="11.767994453698423" id="-21553">
		<tag k="name" v="Kalvhammeren" />
		<tag k="natural" v="hill" />
		<tag k="place" v="locality" />
		<tag k="ssr:stedsnr" v="237179" />
	</node>
	<node lat="62.09242222549985" lon="11.6484583300052" id="-21561">
		<tag k="name" v="Åkeregga" />
		<tag k="natural" v="hill" />
		<tag k="place" v="locality" />
		<tag k="ssr:stedsnr" v="238079" />
	</node>
	<node lat="62.08987777435605" lon="11.659369446373406" id="-21563">
		<tag k="name" v="Nordstuhaugen" />
		<tag k="natural" v="hill" />
		<tag k="place" v="locality" />
		<tag k="ssr:stedsnr" v="238525" />
	</node>
	<node lat="61.65341666325761" lon="11.977366658102707" id="-21566">
		<tag k="name" v="Skaftesletta" />
		<tag k="place" v="locality" />
		<tag k="ssr:stedsnr" v="238732" />
	</node>
	<node lat="62.040427774065414" lon="12.194577778266416" id="-21567">
		<tag k="name" v="Valsjølia" />
		<tag k="natural" v="slope" />
		<tag k="place" v="locality" />
		<tag k="ssr:stedsnr" v="238734" />
	</node>
	<node lat="61.721950001920895" lon="11.762247217138485" id="-21577">
		<tag k="name" v="Svartlia" />
		<tag k="natural" v="slope" />
		<tag k="place" v="locality" />
		<tag k="ssr:stedsnr" v="253305" />
	</node>
	<node lat="62.07072500079941" lon="11.935013894321399" id="-21581">
		<tag k="name" v="Tovbergan" />
		<tag k="natural" v="hill" />
		<tag k="place" v="locality" />
		<tag k="ssr:stedsnr" v="253343" />
	</node>
	<node lat="61.74300277984043" lon="11.95160556250964" id="-21583">
		<tag k="name" v="Messeltkampen" />
		<tag k="natural" v="hill" />
		<tag k="place" v="locality" />
		<tag k="ssr:stedsnr" v="253702" />
	</node>
	<node lat="61.85788610966338" lon="12.149713892524936" id="-21591">
		<tag k="name" v="Flåtåberget" />
		<tag k="natural" v="hill" />
		<tag k="old_name" v="Flataberget" />
		<tag k="place" v="locality" />
		<tag k="ssr:stedsnr" v="253830" />
	</node>
	<node lat="62.02744773582964" lon="12.108239632037591" id="-21600">
		<tag k="name" v="Stygglandet" />
		<tag k="place" v="locality" />
		<tag k="ssr:stedsnr" v="298175" />
	</node>
	<node lat="61.920572218571316" lon="12.072483327004063" id="-21616">
		<tag k="name" v="Rakstvegskardet" />
		<tag k="natural" v="valley" />
		<tag k="place" v="locality" />
		<tag k="ssr:stedsnr" v="300104" />
	</node>
	<node lat="61.75084444337877" lon="12.112436107288927" id="-21619">
		<tag k="name" v="Hognsjøhøgda" />
		<tag k="natural" v="hill" />
		<tag k="place" v="locality" />
		<tag k="ssr:stedsnr" v="464037" />
	</node>
	<node lat="61.72387761330061" lon="12.137039808361946" id="-21621">
		<tag k="alt_name" v="Härjehogna;Østrehogna" />
		<tag k="fixme" v="multiple name tags, choose one and add the other to alt_name; consider natural=peak for the most distinct mountains in the district" />
		<tag k="name" v="Østerhogna;Herjehogna" />
		<tag k="natural" v="hill" />
		<tag k="place" v="locality" />
		<tag k="ssr:stedsnr" v="309733" />
	</node>
	<node lat="61.68399444555473" lon="11.947958328433595" id="-21622">
		<tag k="fixme" v="consider natural=peak for the most distinct mountains in the district" />
		<tag k="name" v="Løvåsen" />
		<tag k="natural" v="hill" />
		<tag k="place" v="locality" />
		<tag k="ssr:stedsnr" v="465998" />
	</node>
	<node lat="61.67286388492609" lon="12.01839165739516" id="-21623">
		<tag k="name" v="Tallbusdalen" />
		<tag k="natural" v="valley" />
		<tag k="place" v="locality" />
		<tag k="ssr:stedsnr" v="466239" />
	</node>
	<node lat="61.676780558012695" lon="12.033047214253429" id="-21624">
		<tag k="name" v="Skjærhøa" />
		<tag k="natural" v="hill" />
		<tag k="place" v="locality" />
		<tag k="ssr:stedsnr" v="466240" />
	</node>
	<node lat="62.04762568320933" lon="11.659129066687743" id="-21637">
		<tag k="name" v="Skåran" />
		<tag k="natural" v="valley" />
		<tag k="place" v="locality" />
		<tag k="ssr:stedsnr" v="314458" />
	</node>
	<node lat="61.77356666280785" lon="11.754308325603665" id="-21647">
		<tag k="alt_name" v="Granbergtangen" />
		<tag k="fixme" v="consider natural=peak for the most distinct mountains in the district" />
		<tag k="name" v="Granberget" />
		<tag k="natural" v="hill" />
		<tag k="place" v="locality" />
		<tag k="ssr:stedsnr" v="314912" />
	</node>
	<node lat="62.072125003966924" lon="11.623388889874649" id="-21650">
		<tag k="name" v="Litlbuhøgda" />
		<tag k="natural" v="hill" />
		<tag k="place" v="locality" />
		<tag k="ssr:stedsnr" v="324406" />
	</node>
	<node lat="61.91364444070251" lon="12.088933325773418" id="-21655">
		<tag k="name" v="Vintervegskardet" />
		<tag k="natural" v="valley" />
		<tag k="place" v="locality" />
		<tag k="ssr:stedsnr" v="342018" />
	</node>
	<node lat="61.90083889286401" lon="12.101050006324472" id="-21656">
		<tag k="name" v="Hallsteinsskardet" />
		<tag k="natural" v="valley" />
		<tag k="place" v="locality" />
		<tag k="ssr:stedsnr" v="342019" />
	</node>
	<node lat="62.10168333037776" lon="11.6465055612436" id="-21663">
		<tag k="name" v="Gråegga" />
		<tag k="natural" v="hill" />
		<tag k="place" v="locality" />
		<tag k="ssr:stedsnr" v="359054" />
	</node>
	<node lat="62.0946222255386" lon="11.65087221347932" id="-21664">
		<tag k="name" v="Bakosegga" />
		<tag k="natural" v="hill" />
		<tag k="place" v="locality" />
		<tag k="ssr:stedsnr" v="359060" />
	</node>
	<node lat="61.716713885352085" lon="11.74781667545212" id="-21667">
		<tag k="name" v="Haradalen" />
		<tag k="natural" v="valley" />
		<tag k="place" v="locality" />
		<tag k="ssr:stedsnr" v="359862" />
	</node>
	<node lat="62.21126666618035" lon="11.866641676207394" id="-21674">
		<tag k="name" v="Berga" />
		<tag k="natural" v="hill" />
		<tag k="place" v="locality" />
		<tag k="ssr:stedsnr" v="479176" />
	</node>
	<node lat="61.63957500351672" lon="12.182699994306503" id="-21675">
		<tag k="name" v="Gjotmarka" />
		<tag k="natural" v="slope" />
		<tag k="place" v="locality" />
		<tag k="ssr:stedsnr" v="373697" />
	</node>
	<node lat="61.659464706965885" lon="12.226414706334754" id="-21677">
		<tag k="alt_name" v="Østrefjellet" />
		<tag k="fixme" v="consider natural=peak for the most distinct mountains in the district" />
		<tag k="name" v="Østerfjellet" />
		<tag k="natural" v="hill" />
		<tag k="place" v="locality" />
		<tag k="ssr:stedsnr" v="373651" />
	</node>
	<node lat="62.09849722283052" lon="12.140050001284944" id="-21687">
		<tag k="name" v="Rundhøgda" />
		<tag k="natural" v="hill" />
		<tag k="place" v="locality" />
		<tag k="ssr:stedsnr" v="374296" />
	</node>
	<node lat="62.13160833616557" lon="12.060913888655913" id="-21700">
		<tag k="name" v="Storslågskardet" />
		<tag k="natural" v="valley" />
		<tag k="place" v="locality" />
		<tag k="ssr:stedsnr" v="375210" />
	</node>
	<node lat="62.26905555384695" lon="11.84750000610941" id="-21705">
		<tag k="name" v="Falkfangarhøgda" />
		<tag k="natural" v="hill" />
		<tag k="place" v="locality" />
		<tag k="ssr:stedsnr" v="375634" />
	</node>
	<node lat="62.02471389003288" lon="11.945819445382146" id="-21707">
		<tag k="fixme" v="consider natural=peak for the most distinct mountains in the district" />
		<tag k="name" v="Stenvikåsen" />
		<tag k="natural" v="hill" />
		<tag k="place" v="locality" />
		<tag k="ssr:stedsnr" v="375719" />
	</node>
	<node lat="61.7936694456036" lon="12.010841673405018" id="-21709">
		<tag k="alt_name" v="Rundjotskarven" />
		<tag k="name" v="Rundgjotskarven" />
		<tag k="natural" v="hill" />
		<tag k="place" v="locality" />
		<tag k="ssr:stedsnr" v="375777" />
	</node>
	<node lat="61.90743333274356" lon="11.825550002467118" id="-21714">
		<tag k="fixme" v="consider natural=peak for the most distinct mountains in the district" />
		<tag k="name" v="Snauåsen" />
		<tag k="natural" v="hill" />
		<tag k="place" v="locality" />
		<tag k="ssr:stedsnr" v="375996" />
	</node>
</osm>
