<?xml version="1.0" encoding="UTF-8"?>
<<<<<<< HEAD
<osm version="0.6" generator="osmapis">
	<node lat="62.09690555192755" lon="11.650688895278234" id="-17044">
=======
<osm generator="osmapis" version="0.6">
	<node id="-346427" lat="61.6939611071" lon="12.1023111031">
		<tag k="name" v="Norderlægret" />
		<tag k="place" v="locality" />
		<tag k="ssr:stedsnr" v="224221" />
	</node>
	<node id="-347738" lat="61.6379666637" lon="12.0303194417">
>>>>>>> e1d4bc35ff8a6074a6f2e91616a996b547c36f15
		<tag k="amenity" v="community_centre" />
		<tag k="name" v="Skogtun" />
		<tag k="ssr:stedsnr" v="177055" />
	</node>
<<<<<<< HEAD
	<node lat="61.69396110712615" lon="12.102311103066105" id="-17064">
		<tag k="name" v="Norderlægret" />
		<tag k="place" v="locality" />
		<tag k="ssr:stedsnr" v="224221" />
	</node>
	<node lat="62.16517778122272" lon="11.944149995584027" id="-17358">
		<tag k="amenity" v="community_centre" />
		<tag k="name" v="Elgå samfunnshus" />
		<tag k="ssr:stedsnr" v="480908" />
	</node>
	<node lat="61.6678999979505" lon="11.78614999540789" id="-17929">
		<tag k="amenity" v="place_of_worship" />
		<tag k="denomination" v="lutheran" />
		<tag k="name" v="Søre Elvdal kirke" />
		<tag k="old_name" v="Elvdal" />
		<tag k="religion" v="christian" />
		<tag k="ssr:stedsnr" v="920346" />
	</node>
	<node lat="61.69766388774425" lon="11.731119451266105" id="-17967">
=======
	<node id="-347673" lat="62.0992611083" lon="11.6608611097">
		<tag k="amenity" v="place_of_worship" />
		<tag k="denomination" v="lutheran" />
		<tag k="name" v="Sømådal kirke" />
		<tag k="religion" v="christian" />
		<tag k="ssr:stedsnr" v="72381" />
	</node>
	<node id="-348617" lat="61.6976638877" lon="11.7311194513">
		<tag k="amenity" v="community_centre" />
		<tag k="name" v="Elvheim" />
		<tag k="ssr:stedsnr" v="965142" />
	</node>
	<node id="-347289" lat="61.890580552" lon="12.0324805625">
		<tag k="amenity" v="community_centre" />
		<tag k="name" v="Fjellvang" />
		<tag k="ssr:stedsnr" v="889027" />
	</node>
	<node id="-346676" lat="61.6784388874" lon="12.0031277709">
>>>>>>> e1d4bc35ff8a6074a6f2e91616a996b547c36f15
		<tag k="amenity" v="community_centre" />
		<tag k="name" v="Elvheim" />
		<tag k="ssr:stedsnr" v="965142" />
	</node>
<<<<<<< HEAD
	<node lat="62.09926110825858" lon="11.660861109732137" id="-18113">
=======
	<node id="-347955" lat="61.8191972205" lon="11.9214750011">
		<tag k="amenity" v="community_centre" />
		<tag k="name" v="Engerdal sætermuseum" />
		<tag k="ssr:stedsnr" v="359291" />
	</node>
	<node id="-347779" lat="61.7578444469" lon="11.9606722246">
>>>>>>> e1d4bc35ff8a6074a6f2e91616a996b547c36f15
		<tag k="amenity" v="place_of_worship" />
		<tag k="denomination" v="lutheran" />
		<tag k="name" v="Engerdal kirke" />
		<tag k="religion" v="christian" />
		<tag k="ssr:stedsnr" v="132755" />
	</node>
	<node id="-347920" lat="61.8847777784" lon="12.030058333">
		<tag k="amenity" v="place_of_worship" />
		<tag k="denomination" v="lutheran" />
		<tag k="name" v="Drevsjø kirke" />
		<tag k="religion" v="christian" />
		<tag k="ssr:stedsnr" v="314843" />
	</node>
<<<<<<< HEAD
	<node lat="61.63796666373929" lon="12.03031944170916" id="-18165">
		<tag k="amenity" v="community_centre" />
		<tag k="name" v="Åsvang Samfunnshus" />
		<tag k="ssr:stedsnr" v="119248" />
	</node>
	<node lat="61.75784444694105" lon="11.96067222459906" id="-18174">
=======
	<node id="-347215" lat="61.8850416632" lon="12.0119055458">
		<tag k="name" v="Blokkodden villmarksmuseum" />
		<tag k="ssr:stedsnr" v="630171" />
		<tag k="tourism" v="museum" />
	</node>
	<node id="-346988" lat="62.1651777812" lon="11.9441499956">
		<tag k="amenity" v="community_centre" />
		<tag k="name" v="Elgå samfunnshus" />
		<tag k="ssr:stedsnr" v="480908" />
	</node>
	<node id="-347817" lat="62.0969055519" lon="11.6506888953">
		<tag k="amenity" v="community_centre" />
		<tag k="name" v="Skogtun" />
		<tag k="ssr:stedsnr" v="177055" />
	</node>
	<node id="-347367" lat="61.667899998" lon="11.7861499954">
>>>>>>> e1d4bc35ff8a6074a6f2e91616a996b547c36f15
		<tag k="amenity" v="place_of_worship" />
		<tag k="denomination" v="lutheran" />
		<tag k="name" v="Engerdal kirke" />
		<tag k="religion" v="christian" />
<<<<<<< HEAD
		<tag k="ssr:stedsnr" v="132755" />
	</node>
	<node lat="62.03498055324724" lon="12.074055547972238" id="-18321">
=======
		<tag k="ssr:stedsnr" v="920346" />
	</node>
	<node id="-347879" lat="62.0349805532" lon="12.074055548">
>>>>>>> e1d4bc35ff8a6074a6f2e91616a996b547c36f15
		<tag k="name" v="Småsjøkongen" />
		<tag k="ssr:stedsnr" v="203433" />
		<tag k="tourism" v="attraction" />
	</node>
<<<<<<< HEAD
	<node lat="61.678438887438865" lon="12.003127770881687" id="-18349">
		<tag k="amenity" v="community_centre" />
		<tag k="name" v="Samfunnshus" />
		<tag k="ssr:stedsnr" v="298655" />
	</node>
	<node lat="61.88477777841154" lon="12.03005833298991" id="-18399">
=======
	<node id="-348099" lat="62.1666138856" lon="11.9416388814">
>>>>>>> e1d4bc35ff8a6074a6f2e91616a996b547c36f15
		<tag k="amenity" v="place_of_worship" />
		<tag k="denomination" v="lutheran" />
		<tag k="name" v="Elgå kirke" />
		<tag k="religion" v="christian" />
		<tag k="ssr:stedsnr" v="436328" />
	</node>
	<node lat="61.81919722051039" lon="11.921475001137914" id="-18432">
		<tag k="amenity" v="community_centre" />
		<tag k="name" v="Engerdal sætermuseum" />
		<tag k="ssr:stedsnr" v="359291" />
	</node>
	<node lat="62.1666138855855" lon="11.941638881400005" id="-18558">
		<tag k="amenity" v="place_of_worship" />
		<tag k="denomination" v="lutheran" />
		<tag k="name" v="Elgå kirke" />
		<tag k="religion" v="christian" />
		<tag k="ssr:stedsnr" v="436328" />
	</node>
</osm>
