<?xml version="1.0" encoding="UTF-8"?>
<osm generator="osmapis" version="0.6">
	<node id="-33597" lat="62.086669442" lon="12.2447249996">
		<tag k="historic" v="boundary_stone" />
		<tag k="man_made" v="cairn" />
		<tag k="name" v="Bergsetrøysa" />
		<tag k="old_name" v="Bærgsæt Røse;Bergshætte Røset?" />
		<tag k="place" v="locality" />
		<tag k="ssr:stedsnr" v="717027" />
	</node>
	<node id="-32731" lat="62.1962777774" lon="12.277719441">
		<tag k="historic" v="boundary_stone" />
		<tag k="man_made" v="cairn" />
		<tag k="name" v="Grøtåarøysa" />
		<tag k="old_name" v="Grøtaa Røset" />
		<tag k="place" v="locality" />
		<tag k="ssr:stedsnr" v="231034" />
	</node>
	<node id="-33913" lat="62.3197305586" lon="12.2626444518">
		<tag k="historic" v="boundary_stone" />
		<tag k="man_made" v="cairn" />
		<tag k="name" v="Rogsjørøysa" />
		<tag k="old_name" v="Rogsiø Røset" />
		<tag k="place" v="locality" />
		<tag k="ssr:stedsnr" v="49040" />
	</node>
	<node id="-34793" lat="61.9466805571" lon="12.2044749967">
		<tag k="historic" v="boundary_stone" />
		<tag k="man_made" v="cairn" />
		<tag k="name" v="Staupåsrøysa" />
		<tag k="old_name" v="Stupuaas Røset" />
		<tag k="place" v="locality" />
		<tag k="ssr:stedsnr" v="838070" />
	</node>
	<node id="-34992" lat="62.0174194378" lon="12.2247285627">
		<tag k="historic" v="boundary_stone" />
		<tag k="man_made" v="cairn" />
		<tag k="name" v="Fjellgutuskaftrøysa" />
		<tag k="old_name" v="Fieldgutuskaft Røset" />
		<tag k="place" v="locality" />
		<tag k="ssr:stedsnr" v="231067" />
	</node>
	<node id="-34991" lat="61.6402426505" lon="12.2756284622">
		<tag k="historic" v="boundary_stone" />
		<tag k="loc_name" v="Litlfjellsrøysa" />
		<tag k="man_made" v="cairn" />
		<tag k="name" v="Lillefjellsrøysa" />
		<tag k="old_name" v="Lislefjelds Røset" />
		<tag k="place" v="locality" />
		<tag k="ssr:stedsnr" v="231013" />
	</node>
	<node id="-32878" lat="61.7238194425" lon="12.1376583329">
		<tag k="historic" v="boundary_stone" />
		<tag k="man_made" v="cairn" />
		<tag k="name" v="Herjehognarøysa" />
		<tag k="old_name" v="Herjehaagna Røset" />
		<tag k="place" v="locality" />
		<tag k="ssr:stedsnr" v="110011" />
	</node>
	<node id="-34989" lat="61.6732021405" lon="12.2212248127">
		<tag k="historic" v="boundary_stone" />
		<tag k="man_made" v="cairn" />
		<tag k="name" v="Hvidhognarøysa" />
		<tag k="old_name" v="Hvidhaagna Røset" />
		<tag k="place" v="locality" />
		<tag k="ssr:stedsnr" v="595002" />
	</node>
	<node id="-34988" lat="61.799322454" lon="12.161237275">
		<tag k="historic" v="boundary_stone" />
		<tag k="man_made" v="cairn" />
		<tag k="name" v="Tjernrøysa" />
		<tag k="old_name" v="Kiærn Røset;Kierns Røset" />
		<tag k="place" v="locality" />
		<tag k="ssr:stedsnr" v="899008" />
	</node>
	<node id="-33387" lat="62.0311277776" lon="12.1814527745">
		<tag k="alt_name" v="Gutulia" />
		<tag k="fixme" v="consider boundary=protected_area and relevant protect_class if not nature reserve" />
		<tag k="leisure" v="nature_reserve" />
		<tag k="name" v="Gutulia nasjonalpark" />
		<tag k="ssr:stedsnr" v="692240" />
	</node>
	<node id="-34987" lat="62.136112318" lon="12.261239648">
		<tag k="historic" v="boundary_stone" />
		<tag k="man_made" v="cairn" />
		<tag k="name" v="Greflingsvolarøysa" />
		<tag k="old_name" v="Greflingsvola Røset;Græflings Walla Røset" />
		<tag k="place" v="locality" />
		<tag k="ssr:stedsnr" v="292032" />
	</node>
	<node id="-34985" lat="62.2674861079" lon="12.2993547111">
		<tag k="historic" v="boundary_stone" />
		<tag k="man_made" v="cairn" />
		<tag k="name" v="Vonsjøgustrøysa" />
		<tag k="old_name" v="Vonsiøgust Røset;Wansiøgust Røset" />
		<tag k="place" v="locality" />
		<tag k="ssr:stedsnr" v="352038" />
	</node>
	<node id="-34984" lat="61.8783181131" lon="12.184815948">
		<tag k="historic" v="boundary_stone" />
		<tag k="man_made" v="cairn" />
		<tag k="name" v="Haalrøysa" />
		<tag k="old_name" v="Haal Røset;Holn Røset" />
		<tag k="place" v="locality" />
		<tag k="ssr:stedsnr" v="170054" />
	</node>
	<node id="-33612" lat="62.2972833297" lon="12.2784083358">
		<tag k="historic" v="boundary_stone" />
		<tag k="man_made" v="cairn" />
		<tag k="name" v="Litle Vonsjørøysa" />
		<tag k="place" v="locality" />
		<tag k="ssr:stedsnr" v="899048" />
	</node>
	<node id="-32911" lat="61.8943111081" lon="11.7602916713">
		<tag k="fixme" v="consider boundary=protected_area and relevant protect_class if not nature reserve" />
		<tag k="leisure" v="nature_reserve" />
		<tag k="name" v="Galten naturreservat" />
		<tag k="ssr:stedsnr" v="284079" />
	</node>
	<node id="-34849" lat="61.7811166667" lon="12.1018750061">
		<tag k="fixme" v="consider boundary=protected_area and relevant protect_class if not nature reserve" />
		<tag k="leisure" v="nature_reserve" />
		<tag k="name" v="Kvisleflået naturreservat" />
		<tag k="ssr:stedsnr" v="848050" />
	</node>
</osm>
