<?xml version="1.0" encoding="UTF-8"?>
<osm version="0.6" generator="osmapis">
	<node lat="61.87232500369602" lon="12.160255555373908" id="-27523">
		<tag k="alt_name" v="Vestre Lillebo" />
		<tag k="name" v="Veslbu" />
		<tag k="place" v="locality" />
		<tag k="ssr:stedsnr" v="11110" />
	</node>
	<node lat="61.850550003017055" lon="12.016580554294267" id="-27534">
		<tag k="name" v="Åsheim" />
		<tag k="place" v="farm" />
		<tag k="ssr:stedsnr" v="11828" />
	</node>
	<node lat="61.81342222396997" lon="11.919236107895092" id="-27536">
		<tag k="name" v="Gammeljordet" />
		<tag k="place" v="farm" />
		<tag k="ssr:stedsnr" v="11780" />
	</node>
	<node lat="61.890358336950925" lon="11.758413898438132" id="-27539">
		<tag k="alt_name" v="Øvre Galten" />
		<tag k="name" v="Galten" />
		<tag k="place" v="farm" />
		<tag k="ssr:stedsnr" v="11986" />
	</node>
	<node lat="61.64677499986509" lon="11.762075008823597" id="-27548">
		<tag k="historic" v="shieling" />
		<tag k="name" v="Nymosætra" />
		<tag k="place" v="isolated_dwelling" />
		<tag k="ssr:stedsnr" v="237133" />
	</node>
	<node lat="61.82974166758095" lon="11.728972228109042" id="-27557">
		<tag k="name" v="Ulvåberget" />
		<tag k="place" v="neighbourhood" />
		<tag k="ssr:stedsnr" v="43925" />
	</node>
	<node lat="61.92423927975446" lon="11.918889271957843" id="-27563">
		<tag k="name" v="Østre Femundsenden" />
		<tag k="place" v="farm" />
		<tag k="ssr:stedsnr" v="238587" />
	</node>
	<node lat="61.63806388735662" lon="12.03244443814777" id="-27593">
		<tag k="name" v="Lund" />
		<tag k="place" v="farm" />
		<tag k="ssr:stedsnr" v="241243" />
	</node>
	<node lat="61.659588887930916" lon="12.045477783592121" id="-27595">
		<tag k="historic" v="shieling" />
		<tag k="name" v="Svartåssætra" />
		<tag k="place" v="isolated_dwelling" />
		<tag k="ssr:stedsnr" v="70641" />
	</node>
	<node lat="61.65288333275039" lon="11.829755558150824" id="-27596">
		<tag k="alt_name" v="Husfloen, s" />
		<tag k="name" v="Søndre Husfloen" />
		<tag k="place" v="farm" />
		<tag k="ssr:stedsnr" v="71403" />
	</node>
	<node lat="61.84306760093018" lon="12.002497563079011" id="-27597">
		<tag k="alt_name" v="Nybo" />
		<tag k="name" v="Nybø" />
		<tag k="place" v="farm" />
		<tag k="ssr:stedsnr" v="71839" />
	</node>
	<node lat="61.84485277866226" lon="11.94631110737924" id="-27598">
		<tag k="name" v="Strandvoll" />
		<tag k="place" v="farm" />
		<tag k="ssr:stedsnr" v="71843" />
	</node>
	<node lat="62.16795833441936" lon="11.943550007919063" id="-27607">
		<tag k="alt_name" v="Søndre Elgåen" />
		<tag k="name" v="Elgåa" />
		<tag k="place" v="farm" />
		<tag k="ssr:stedsnr" v="72331" />
	</node>
	<node lat="61.77098055667738" lon="11.942594446709373" id="-27612">
		<tag k="name" v="Nordgård" />
		<tag k="place" v="farm" />
		<tag k="ssr:stedsnr" v="72730" />
	</node>
	<node lat="61.90383055139554" lon="12.003908333606189" id="-27616">
		<tag k="building" v="industrial" />
		<tag k="name" v="Drevsjø trelast" />
		<tag k="ssr:stedsnr" v="100004" />
	</node>
	<node lat="61.89257221913469" lon="12.027327769004856" id="-27617">
		<tag k="name" v="Flaten" />
		<tag k="place" v="farm" />
		<tag k="ssr:stedsnr" v="100022" />
	</node>
	<node lat="61.97703055904032" lon="11.94285278029676" id="-27623">
		<tag k="alt_name" v="Langmyra" />
		<tag k="name" v="Nordstad" />
		<tag k="place" v="farm" />
		<tag k="ssr:stedsnr" v="116614" />
	</node>
	<node lat="61.973711114763766" lon="11.947286111310245" id="-27624">
		<tag k="name" v="Østheim" />
		<tag k="old_name" v="Kjellmyra" />
		<tag k="place" v="farm" />
		<tag k="ssr:stedsnr" v="116615" />
	</node>
	<node lat="61.67711388607866" lon="12.004455557997908" id="-27625">
		<tag k="name" v="Gjermunds" />
		<tag k="place" v="farm" />
		<tag k="ssr:stedsnr" v="116671" />
	</node>
	<node lat="61.67668889027972" lon="12.006738883003283" id="-27627">
		<tag k="name" v="Oppgård" />
		<tag k="place" v="farm" />
		<tag k="ssr:stedsnr" v="116678" />
	</node>
	<node lat="61.74824166564472" lon="11.74928055030204" id="-27635">
		<tag k="alt_name" v="Åsgård" />
		<tag k="name" v="Åsgard" />
		<tag k="place" v="farm" />
		<tag k="ssr:stedsnr" v="252233" />
	</node>
	<node lat="61.72766111201316" lon="11.75284444736095" id="-27636">
		<tag k="name" v="Snertøya" />
		<tag k="place" v="isolated_dwelling" />
		<tag k="ssr:stedsnr" v="252250" />
	</node>
	<node lat="61.66412778068803" lon="11.978491673109085" id="-27639">
		<tag k="historic" v="shieling" />
		<tag k="name" v="Gnollsætra" />
		<tag k="place" v="isolated_dwelling" />
		<tag k="ssr:stedsnr" v="252594" />
	</node>
	<node lat="61.7524409060963" lon="11.967051419945536" id="-27651">
		<tag k="fixme" v="consider place=hamlet" />
		<tag k="name" v="Semings" />
		<tag k="old_name" v="Slettmoen" />
		<tag k="place" v="farm" />
		<tag k="ssr:stedsnr" v="132721" />
	</node>
	<node lat="62.00777777597452" lon="12.06560000590154" id="-27652">
		<tag k="historic" v="shieling" />
		<tag k="loc_name" v="Bekkedalssætra" />
		<tag k="name" v="Bekkdalssætra" />
		<tag k="place" v="isolated_dwelling" />
		<tag k="ssr:stedsnr" v="132737" />
	</node>
	<node lat="61.76315555530726" lon="11.65487499713784" id="-27659">
		<tag k="name" v="Elvsætra" />
		<tag k="place" v="farm" />
		<tag k="ssr:stedsnr" v="132925" />
	</node>
	<node lat="61.89563075162251" lon="12.010977959269887" id="-27661">
		<tag k="name" v="Drevsjømoen" />
		<tag k="place" v="locality" />
		<tag k="ssr:stedsnr" v="132859" />
	</node>
	<node lat="62.16341389011555" lon="11.951047229783265" id="-27666">
		<tag k="name" v="Egga" />
		<tag k="place" v="farm" />
		<tag k="ssr:stedsnr" v="253409" />
	</node>
	<node lat="61.696008332483125" lon="11.75456110612467" id="-27667">
		<tag k="name" v="Ås" />
		<tag k="place" v="farm" />
		<tag k="ssr:stedsnr" v="253412" />
	</node>
	<node lat="62.05280383610658" lon="11.694808162246323" id="-27669">
		<tag k="name" v="Sømå" />
		<tag k="old_name" v="Sømåa" />
		<tag k="place" v="locality" />
		<tag k="ssr:stedsnr" v="253470" />
	</node>
	<node lat="62.05250555971573" lon="11.688574994238786" id="-27670">
		<tag k="name" v="Vesterheim" />
		<tag k="place" v="farm" />
		<tag k="ssr:stedsnr" v="253471" />
	</node>
	<node lat="62.04262777518573" lon="11.7129750077153" id="-27671">
		<tag k="name" v="Hovden" />
		<tag k="place" v="farm" />
		<tag k="ssr:stedsnr" v="253473" />
	</node>
	<node lat="61.83616666811453" lon="11.952452773606488" id="-27676">
		<tag k="alt_name" v="Østgård" />
		<tag k="name" v="Nygård" />
		<tag k="place" v="farm" />
		<tag k="ssr:stedsnr" v="253820" />
	</node>
	<node lat="61.833397222587806" lon="11.882447217832063" id="-27677">
		<tag k="alt_name" v="Nordre Vollen" />
		<tag k="historic" v="shieling" />
		<tag k="name" v="Nordrevollen" />
		<tag k="place" v="isolated_dwelling" />
		<tag k="ssr:stedsnr" v="253821" />
	</node>
	<node lat="61.84155000431738" lon="11.998036107286183" id="-27681">
		<tag k="name" v="Borg" />
		<tag k="place" v="farm" />
		<tag k="ssr:stedsnr" v="253837" />
	</node>
	<node lat="61.87810000398602" lon="12.136161113804464" id="-27682">
		<tag k="name" v="Nordli" />
		<tag k="place" v="farm" />
		<tag k="ssr:stedsnr" v="253849" />
	</node>
	<node lat="61.855977782177746" lon="12.020594450025152" id="-27683">
		<tag k="name" v="Liheim" />
		<tag k="place" v="farm" />
		<tag k="ssr:stedsnr" v="253853" />
	</node>
	<node lat="62.13054999991433" lon="11.63862777727399" id="-27686">
		<tag k="name" v="Langsjøen" />
		<tag k="place" v="farm" />
		<tag k="ssr:stedsnr" v="254360" />
	</node>
	<node lat="62.26873333516526" lon="11.970949992102183" id="-27690">
		<tag k="historic" v="shieling" />
		<tag k="name" v="Kuvolsætra" />
		<tag k="place" v="isolated_dwelling" />
		<tag k="ssr:stedsnr" v="254631" />
	</node>
	<node lat="61.81919722051039" lon="11.921475001137914" id="-27708">
		<tag k="amenity" v="school" />
		<tag k="name" v="Engerdal barne- og ungdomsskole" />
		<tag k="ssr:stedsnr" v="177278" />
	</node>
	<node lat="61.67627221944795" lon="12.003163881717134" id="-27711">
		<tag k="name" v="Vestgård" />
		<tag k="place" v="farm" />
		<tag k="ssr:stedsnr" v="177703" />
	</node>
	<node lat="61.67565290061444" lon="11.998521751515568" id="-27712">
		<tag k="name" v="Nordre Kveen" />
		<tag k="place" v="farm" />
		<tag k="ssr:stedsnr" v="177710" />
	</node>
	<node lat="62.316058329620084" lon="12.103350001339921" id="-27721">
		<tag k="name" v="Roastbuan" />
		<tag k="place" v="isolated_dwelling" />
		<tag k="ssr:stedsnr" v="263859" />
	</node>
	<node lat="61.69401944176176" lon="11.987391660937412" id="-27722">
		<tag k="alt_name" v="Olderskogen Camping" />
		<tag k="name" v="Olderskogen" />
		<tag k="ssr:stedsnr" v="266668" />
		<tag k="tourism" v="camp_site" />
	</node>
	<node lat="61.872558335241806" lon="12.162200003891348" id="-27724">
		<tag k="name" v="Søndre Lillebo" />
		<tag k="place" v="farm" />
		<tag k="ssr:stedsnr" v="208203" />
	</node>
	<node lat="61.8904388903318" lon="11.759391658877936" id="-27730">
		<tag k="name" v="Galten Gård og Pensjonat" />
		<tag k="ssr:stedsnr" v="232808" />
		<tag k="tourism" v="guest_house" />
	</node>
	<node lat="61.817263892863096" lon="11.916847213484735" id="-27732">
		<tag k="building" v="industrial" />
		<tag k="name" v="Risbakken sag" />
		<tag k="ssr:stedsnr" v="237281" />
	</node>
	<node lat="61.69903055872703" lon="11.746355562219005" id="-27733">
		<tag k="historic" v="shieling" />
		<tag k="name" v="Nordgardsætra" />
		<tag k="place" v="isolated_dwelling" />
		<tag k="ssr:stedsnr" v="237176" />
	</node>
	<node lat="61.97206666546572" lon="11.942816672744808" id="-27741">
		<tag k="name" v="Nordre Sorken" />
		<tag k="place" v="farm" />
		<tag k="ssr:stedsnr" v="237606" />
	</node>
	<node lat="62.0915305543883" lon="11.6551444358975" id="-27755">
		<tag k="alt_name" v="Nordre Joten" />
		<tag k="name" v="Nordre Gjota" />
		<tag k="place" v="farm" />
		<tag k="ssr:stedsnr" v="480069" />
	</node>
	<node lat="62.08743610989603" lon="12.062349999614357" id="-27757">
		<tag k="name" v="Elgådalen" />
		<tag k="place" v="farm" />
		<tag k="ssr:stedsnr" v="253303" />
	</node>
	<node lat="61.665477780155726" lon="11.792527768753297" id="-27763">
		<tag k="alt_name" v="Rusta" />
		<tag k="name" v="Røsta" />
		<tag k="old_name" v="Røstad" />
		<tag k="place" v="isolated_dwelling" />
		<tag k="ssr:stedsnr" v="253427" />
	</node>
	<node lat="61.67693888614618" lon="11.99893610334545" id="-27765">
		<tag k="name" v="Fonnås" />
		<tag k="place" v="farm" />
		<tag k="ssr:stedsnr" v="253732" />
	</node>
	<node lat="61.75266388634087" lon="11.938416659912116" id="-27768">
		<tag k="name" v="Bergesætra" />
		<tag k="place" v="hamlet" />
		<tag k="ssr:stedsnr" v="253744" />
	</node>
	<node lat="61.90233333433326" lon="11.779958330676662" id="-27774">
		<tag k="name" v="Håbu" />
		<tag k="place" v="isolated_dwelling" />
		<tag k="ssr:stedsnr" v="253992" />
	</node>
	<node lat="61.88722221883468" lon="12.041399995244989" id="-27777">
		<tag k="name" v="Fredheim" />
		<tag k="place" v="farm" />
		<tag k="ssr:stedsnr" v="283016" />
	</node>
	<node lat="62.08853055264609" lon="11.651433330228341" id="-27784">
		<tag k="name" v="Eggen" />
		<tag k="place" v="farm" />
		<tag k="ssr:stedsnr" v="298476" />
	</node>
	<node lat="61.93177777527519" lon="11.863180564334304" id="-27787">
		<tag k="name" v="Fosseng" />
		<tag k="place" v="farm" />
		<tag k="ssr:stedsnr" v="298506" />
	</node>
	<node lat="61.97228611347272" lon="11.938866660289484" id="-27789">
		<tag k="name" v="Vestre Sorken" />
		<tag k="place" v="farm" />
		<tag k="ssr:stedsnr" v="298585" />
	</node>
	<node lat="61.73824722578627" lon="11.971994439576571" id="-27794">
		<tag k="name" v="Nordre Svingen" />
		<tag k="place" v="farm" />
		<tag k="ssr:stedsnr" v="299704" />
	</node>
	<node lat="61.69441944199302" lon="11.983797213560884" id="-27796">
		<tag k="name" v="Nordeng" />
		<tag k="place" v="farm" />
		<tag k="ssr:stedsnr" v="299681" />
	</node>
	<node lat="61.813324995721025" lon="11.708422213373256" id="-27798">
		<tag k="name" v="Strand" />
		<tag k="place" v="isolated_dwelling" />
		<tag k="ssr:stedsnr" v="300383" />
	</node>
	<node lat="61.65646111240503" lon="11.81959722828297" id="-27806">
		<tag k="alt_name" v="Husfloen, nordre" />
		<tag k="name" v="Nordre Husfloen" />
		<tag k="place" v="farm" />
		<tag k="ssr:stedsnr" v="313365" />
	</node>
	<node lat="61.62220278057523" lon="12.033513891257263" id="-27811">
		<tag k="name" v="Nylund" />
		<tag k="place" v="farm" />
		<tag k="ssr:stedsnr" v="313679" />
	</node>
	<node lat="62.036449999953184" lon="11.71613056505516" id="-27819">
		<tag k="name" v="Åsli" />
		<tag k="place" v="farm" />
		<tag k="ssr:stedsnr" v="314466" />
	</node>
	<node lat="61.87098889322411" lon="12.022702776780257" id="-27824">
		<tag k="name" v="Åsvang" />
		<tag k="place" v="farm" />
		<tag k="ssr:stedsnr" v="314825" />
	</node>
	<node lat="61.880520084832405" lon="12.056269370479315" id="-27826">
		<tag k="name" v="Brennodden" />
		<tag k="place" v="locality" />
		<tag k="ssr:stedsnr" v="314832" />
	</node>
	<node lat="61.75453333706918" lon="11.96498055226421" id="-27834">
		<tag k="name" v="Nordi" />
		<tag k="place" v="farm" />
		<tag k="ssr:stedsnr" v="341042" />
	</node>
	<node lat="61.89651666912511" lon="12.01012222476836" id="-27835">
		<tag k="alt_name" v="Drevsjømoen mellom" />
		<tag k="name" v="Midtre Drevsjømoen" />
		<tag k="place" v="farm" />
		<tag k="ssr:stedsnr" v="342002" />
	</node>
	<node lat="61.83460277947028" lon="11.727541668006568" id="-27838">
		<tag k="fixme" v="consider tourism=alpine_hut or tourism=chalet" />
		<tag k="name" v="Femundsundet turisthytte" />
		<tag k="ssr:stedsnr" v="344046" />
		<tag k="tourism" v="wilderness_hut" />
	</node>
	<node lat="61.83505278205216" lon="11.731058336694874" id="-27840">
		<tag k="fixme" v="consider tourism=alpine_hut or tourism=chalet" />
		<tag k="name" v="Sølenstua Camp &amp; Hytter" />
		<tag k="ssr:stedsnr" v="346106" />
		<tag k="tourism" v="wilderness_hut" />
	</node>
	<node lat="61.611786109867346" lon="12.046869451543444" id="-27851">
		<tag k="name" v="Høgtun" />
		<tag k="place" v="farm" />
		<tag k="ssr:stedsnr" v="478639" />
	</node>
	<node lat="61.61050555944333" lon="12.044938894545517" id="-27852">
		<tag k="name" v="Rødalen" />
		<tag k="place" v="farm" />
		<tag k="ssr:stedsnr" v="478641" />
	</node>
	<node lat="62.14251111547862" lon="11.612900002627361" id="-27853">
		<tag k="historic" v="shieling" />
		<tag k="name" v="Langoddvollen" />
		<tag k="place" v="isolated_dwelling" />
		<tag k="ssr:stedsnr" v="478881" />
	</node>
	<node lat="62.07590833365807" lon="12.171508331367672" id="-27862">
		<tag k="fixme" v="consider tourism=alpine_hut or tourism=chalet" />
		<tag k="name" v="Valdalen gård" />
		<tag k="ssr:stedsnr" v="374308" />
		<tag k="tourism" v="wilderness_hut" />
	</node>
	<node lat="62.069200004190364" lon="12.106994451489445" id="-27863">
		<tag k="historic" v="shieling" />
		<tag k="name" v="Yttervollen" />
		<tag k="place" v="isolated_dwelling" />
		<tag k="ssr:stedsnr" v="374319" />
	</node>
	<node lat="61.72286388454106" lon="11.973050000704205" id="-27874">
		<tag k="name" v="Brustad" />
		<tag k="place" v="farm" />
		<tag k="ssr:stedsnr" v="374750" />
	</node>
	<node lat="61.844052720159766" lon="11.84436913517936" id="-27875">
		<tag k="name" v="Gløtvola" />
		<tag k="old_name" v="Gløtvorda" />
		<tag k="place" v="hamlet" />
		<tag k="ssr:stedsnr" v="374835" />
	</node>
	<node lat="61.850222226254516" lon="12.003200009723654" id="-27876">
		<tag k="alt_name" v="Skau" />
		<tag k="name" v="Skog" />
		<tag k="place" v="farm" />
		<tag k="ssr:stedsnr" v="374842" />
	</node>
	<node lat="62.16841999305156" lon="12.239275079946022" id="-27887">
		<tag k="fixme" v="consider place=hamlet" />
		<tag k="name" v="Sylen" />
		<tag k="old_name" v="Sylset" />
		<tag k="place" v="farm" />
		<tag k="ssr:stedsnr" v="375702" />
	</node>
	<node lat="61.772036114076116" lon="11.942750005335016" id="-27889">
		<tag k="name" v="Haugen" />
		<tag k="place" v="farm" />
		<tag k="ssr:stedsnr" v="375725" />
	</node>
	<node lat="61.814394446060916" lon="11.914902780238041" id="-27891">
		<tag k="name" v="Pers" />
		<tag k="place" v="farm" />
		<tag k="ssr:stedsnr" v="375789" />
	</node>
	<node lat="61.97142301504661" lon="11.944534207228887" id="-27893">
		<tag k="fixme" v="consider place=hamlet" />
		<tag k="name" v="Sorken" />
		<tag k="place" v="village" />
		<tag k="ssr:stedsnr" v="375885" />
	</node>
	<node lat="62.10278332892872" lon="11.667341670775016" id="-27896">
		<tag k="name" v="Brustad" />
		<tag k="place" v="farm" />
		<tag k="ssr:stedsnr" v="480046" />
	</node>
</osm>
