<?xml version="1.0" encoding="UTF-8"?>
<osm generator="osmapis" version="0.6">
	<node id="-26624" lat="59.7917472224" lon="10.3494555498">
		<tag k="name" v="Kavlebrumyr" />
		<tag k="natural" v="wetland" />
		<tag k="ssr:stedsnr" v="689641" />
	</node>
	<node id="-26623" lat="59.7816138893" lon="10.4709749974">
		<tag k="name" v="Høymyrdammen" />
		<tag k="natural" v="water" />
		<tag k="ssr:stedsnr" v="689593" />
	</node>
	<node id="-26622" lat="59.7819083305" lon="10.4633777739">
		<tag k="fixme" v="consider place=suburb, village or hamlet" />
		<tag k="name" v="Sakserudbråten" />
		<tag k="place" v="quarter" />
		<tag k="ssr:stedsnr" v="689592" />
	</node>
	<node id="-26621" lat="59.8509250044" lon="10.3891305476">
		<tag k="name" v="Bjønnhølet" />
		<tag k="natural" v="valley" />
		<tag k="place" v="locality" />
		<tag k="ssr:stedsnr" v="689588" />
	</node>
	<node id="-26620" lat="59.8470361083" lon="10.3779666741">
		<tag k="name" v="Olledalen" />
		<tag k="natural" v="valley" />
		<tag k="place" v="locality" />
		<tag k="ssr:stedsnr" v="689584" />
	</node>
	<node id="-26619" lat="59.8505861076" lon="10.3994638856">
		<tag k="name" v="Semskollen" />
		<tag k="natural" v="hill" />
		<tag k="place" v="locality" />
		<tag k="ssr:stedsnr" v="689238" />
	</node>
	<node id="-26618" lat="59.8538583291" lon="10.5431027731">
		<tag k="alt_name" v="Langårasundet" />
		<tag k="name" v="Langårsundet" />
		<tag k="natural" v="strait" />
		<tag k="ssr:stedsnr" v="672800" />
	</node>
	<node id="-26617" lat="59.8569916638" lon="10.5399611148">
		<tag k="name" v="Brønnøya" />
		<tag k="place" v="island" />
		<tag k="ssr:stedsnr" v="672797" />
	</node>
	<node id="-26616" lat="59.8419294234" lon="10.3860580657">
		<tag k="name" v="Daleløkka" />
		<tag k="place" v="farm" />
		<tag k="ssr:stedsnr" v="672767" />
	</node>
	<node id="-26615" lat="59.846949999" lon="10.5387666746">
		<tag k="fixme" v="consider seamark:type=rock or natural=shoal" />
		<tag k="name" v="Terneholmen" />
		<tag k="place" v="islet" />
		<tag k="ssr:stedsnr" v="672762" />
	</node>
	<node id="-26614" lat="59.833741669" lon="10.4979416612">
		<tag k="name" v="Spirebukta" />
		<tag k="natural" v="bay" />
		<tag k="ssr:stedsnr" v="672760" />
	</node>
	<node id="-26613" lat="59.8245472231" lon="10.4103444381">
		<tag k="name" v="Drengsrudvanna" />
		<tag k="natural" v="water" />
		<tag k="ssr:stedsnr" v="672727" />
	</node>
	<node id="-26612" lat="59.823702775" lon="10.4890861111">
		<tag k="alt_name" v="Blakkstadbogen" />
		<tag k="fixme" v="multiple name tags, choose one and add the other to alt_name" />
		<tag k="name" v="Blakstadbukta;Blakstadbogen" />
		<tag k="natural" v="bay" />
		<tag k="ssr:stedsnr" v="672713" />
	</node>
	<node id="-26611" lat="59.8305472182" lon="10.5521861161">
		<tag k="alt_name" v="Måsane, vestre" />
		<tag k="name" v="Vestre Måsane" />
		<tag k="natural" v="shoal" />
		<tag k="place" v="locality" />
		<tag k="ssr:stedsnr" v="672709" />
	</node>
	<node id="-26610" lat="59.7965333313" lon="10.4224333263">
		<tag k="alt_name" v="Skjellestadgårdene" />
		<tag k="name" v="Skjellestad" />
		<tag k="place" v="farm" />
		<tag k="ssr:stedsnr" v="672693" />
	</node>
	<node id="-26609" lat="59.7939061825" lon="10.5022473199">
		<tag k="name" v="Djuptrekkodden" />
		<tag k="natural" v="cape" />
		<tag k="ssr:stedsnr" v="672632" />
	</node>
	<node id="-26608" lat="59.8631333324" lon="10.4758500026">
		<tag k="name" v="Torstad" />
		<tag k="place" v="farm" />
		<tag k="ssr:stedsnr" v="671800" />
	</node>
	<node id="-26607" lat="59.8029416671" lon="10.3890166705">
		<tag k="name" v="Solberg" />
		<tag k="place" v="farm" />
		<tag k="ssr:stedsnr" v="671704" />
	</node>
	<node id="-26606" lat="59.8383194482" lon="10.4182388908">
		<tag k="name" v="Hukenbekken" />
		<tag k="old_name" v="Haukenbekken" />
		<tag k="ssr:stedsnr" v="664633" />
		<tag k="waterway" v="stream" />
	</node>
	<node id="-26605" lat="59.818647222" lon="10.5003888855">
		<tag k="name" v="Koiaberget" />
		<tag k="natural" v="shoal" />
		<tag k="place" v="locality" />
		<tag k="ssr:stedsnr" v="630503" />
	</node>
	<node id="-26604" lat="59.8289611146" lon="10.40454166">
		<tag k="amenity" v="school" />
		<tag k="name" v="Drengsrud skole" />
		<tag k="ssr:stedsnr" v="629693" />
	</node>
	<node id="-26603" lat="59.8187833346" lon="10.4009833338">
		<tag k="alt_name" v="Abbortjern" />
		<tag k="name" v="Åbortjern" />
		<tag k="natural" v="water" />
		<tag k="ssr:stedsnr" v="629692" />
	</node>
	<node id="-26602" lat="59.8263055581" lon="10.4200583348">
		<tag k="amenity" v="school" />
		<tag k="name" v="Borgen skole" />
		<tag k="ssr:stedsnr" v="629690" />
	</node>
	<node id="-26601" lat="59.8476694418" lon="10.4721166744">
		<tag k="amenity" v="school" />
		<tag k="name" v="Hofstad skole" />
		<tag k="ssr:stedsnr" v="629677" />
	</node>
	<node id="-26600" lat="59.8275250031" lon="10.4270722232">
		<tag k="alt_name" v="Borgen søndre" />
		<tag k="name" v="Søndre Borgen" />
		<tag k="place" v="isolated_dwelling" />
		<tag k="ssr:stedsnr" v="629664" />
	</node>
	<node id="-26599" lat="59.8513750043" lon="10.4491805472">
		<tag k="name" v="Bikkjedammen" />
		<tag k="natural" v="water" />
		<tag k="ssr:stedsnr" v="629655" />
	</node>
	<node id="-26598" lat="59.8754777755" lon="10.4822972132">
		<tag k="name" v="Billingstad" />
		<tag k="place" v="village" />
		<tag k="ssr:stedsnr" v="629632" />
	</node>
	<node id="-26597" lat="59.8814527815" lon="10.3816972262">
		<tag k="name" v="Nordhagan" />
		<tag k="place" v="locality" />
		<tag k="ssr:stedsnr" v="629598" />
	</node>
	<node id="-26596" lat="59.814938487" lon="10.4837843194">
		<tag k="name" v="Sjøvollbukta" />
		<tag k="natural" v="bay" />
		<tag k="ssr:stedsnr" v="629586" />
	</node>
	<node id="-26595" lat="59.818577782" lon="10.4489333409">
		<tag k="name" v="Elvestua" />
		<tag k="place" v="quarter" />
		<tag k="ssr:stedsnr" v="629579" />
	</node>
	<node id="-26594" lat="59.8164555557" lon="10.4428555634">
		<tag k="junction" v="yes" />
		<tag k="name" v="Sikta" />
		<tag k="place" v="locality" />
		<tag k="ssr:stedsnr" v="629578" />
	</node>
	<node id="-26593" lat="59.8782749985" lon="10.5108111156">
		<tag k="man_made" v="quay" />
		<tag k="name" v="Gyssestad båthavn" />
		<tag k="place" v="locality" />
		<tag k="ssr:stedsnr" v="629560" />
	</node>
	<node id="-26592" lat="59.8513055585" lon="10.4929666616">
		<tag k="alt_name" v="Granlien;Grønlien" />
		<tag k="name" v="Grønnlia" />
		<tag k="place" v="locality" />
		<tag k="ssr:stedsnr" v="629531" />
	</node>
	<node id="-26591" lat="59.8641222234" lon="10.4576777831">
		<tag k="name" v="Furubakken" />
		<tag k="natural" v="slope" />
		<tag k="place" v="locality" />
		<tag k="ssr:stedsnr" v="629527" />
	</node>
	<node id="-26590" lat="59.8666888918" lon="10.4580694503">
		<tag k="name" v="Solstadlia" />
		<tag k="natural" v="slope" />
		<tag k="place" v="locality" />
		<tag k="ssr:stedsnr" v="629520" />
	</node>
	<node id="-26589" lat="59.8657833296" lon="10.4680972254">
		<tag k="name" v="Skustad" />
		<tag k="place" v="farm" />
		<tag k="ssr:stedsnr" v="629518" />
	</node>
	<node id="-26588" lat="59.8548138897" lon="10.4961694525">
		<tag k="name" v="Holmenskjæret" />
		<tag k="natural" v="cape" />
		<tag k="ssr:stedsnr" v="629512" />
	</node>
	<node id="-26587" lat="59.7859194481" lon="10.4566416681">
		<tag k="name" v="Dal" />
		<tag k="place" v="farm" />
		<tag k="ssr:stedsnr" v="628714" />
	</node>
	<node id="-26586" lat="59.8068972221" lon="10.4742222167">
		<tag k="fixme" v="consider natural=peak for the most distinct mountains in the district" />
		<tag k="name" v="Heslebergtoppen" />
		<tag k="natural" v="hill" />
		<tag k="place" v="locality" />
		<tag k="ssr:stedsnr" v="628701" />
	</node>
	<node id="-26585" lat="59.8411555512" lon="10.3812916636">
		<tag k="name" v="Kvernhusdalen" />
		<tag k="natural" v="valley" />
		<tag k="place" v="locality" />
		<tag k="ssr:stedsnr" v="628612" />
	</node>
	<node id="-26584" lat="59.8597000038" lon="10.4102222217">
		<tag k="name" v="Tveiter" />
		<tag k="old_name" v="Tveter" />
		<tag k="place" v="farm" />
		<tag k="ssr:stedsnr" v="611818" />
	</node>
	<node id="-26583" lat="59.858549883" lon="10.4218198247">
		<tag k="name" v="Semsvannet" />
		<tag k="natural" v="water" />
		<tag k="ssr:stedsnr" v="611817" />
		<tag k="water" v="lake" />
	</node>
	<node id="-26582" lat="59.8510361154" lon="10.5189777772">
		<tag k="name" v="Torbjørnsøy" />
		<tag k="place" v="islet" />
		<tag k="ssr:stedsnr" v="611809" />
	</node>
	<node id="-26581" lat="59.8557416666" lon="10.4914694446">
		<tag k="name" v="Holmen" />
		<tag k="place" v="village" />
		<tag k="ssr:stedsnr" v="611808" />
	</node>
	<node id="-26580" lat="59.8574250013" lon="10.4700638838">
		<tag k="name" v="Hvalstad" />
		<tag k="place" v="farm" />
		<tag k="ssr:stedsnr" v="611806" />
	</node>
	<node id="-26579" lat="59.8340805568" lon="10.4732999927">
		<tag k="name" v="Tangen" />
		<tag k="natural" v="cape" />
		<tag k="ssr:stedsnr" v="611788" />
	</node>
	<node id="-26578" lat="59.8393111145" lon="10.5098999934">
		<tag k="fixme" v="consider place=suburb, village or hamlet" />
		<tag k="name" v="Konglungen" />
		<tag k="place" v="quarter" />
		<tag k="ssr:stedsnr" v="611786" />
	</node>
	<node id="-26577" lat="59.8116055579" lon="10.4499499988">
		<tag k="name" v="Gullhella" />
		<tag k="place" v="village" />
		<tag k="ssr:stedsnr" v="611760" />
	</node>
	<node id="-26576" lat="59.8248805539" lon="10.3848361039">
		<tag k="name" v="Svarteputt" />
		<tag k="natural" v="water" />
		<tag k="ssr:stedsnr" v="611743" />
	</node>
	<node id="-26575" lat="59.8243138864" lon="10.4342722244">
		<tag k="name" v="Bondivannet" />
		<tag k="natural" v="water" />
		<tag k="ssr:stedsnr" v="611741" />
	</node>
	<node id="-26574" lat="59.8333277739" lon="10.4372055633">
		<tag k="name" v="Asker" />
		<tag k="place" v="village" />
		<tag k="ssr:stedsnr" v="611735" />
	</node>
	<node id="-26573" lat="59.7995111103" lon="10.3864861125">
		<tag k="name" v="Eriksrud" />
		<tag k="place" v="farm" />
		<tag k="ssr:stedsnr" v="611704" />
	</node>
	<node id="-26572" lat="59.7921167275" lon="10.5019881723">
		<tag k="name" v="Bjerkåsholmen" />
		<tag k="natural" v="cape" />
		<tag k="ssr:stedsnr" v="611679" />
	</node>
	<node id="-26571" lat="59.8456416626" lon="10.357686117">
		<tag k="fixme" v="consider natural=peak for the most distinct mountains in the district" />
		<tag k="name" v="Furuåsen" />
		<tag k="natural" v="hill" />
		<tag k="place" v="locality" />
		<tag k="ssr:stedsnr" v="611519" />
	</node>
	<node id="-26570" lat="59.8815083366" lon="10.4513972164">
		<tag k="name" v="Stokker" />
		<tag k="place" v="farm" />
		<tag k="ssr:stedsnr" v="610863" />
	</node>
	<node id="-26569" lat="59.8636333296" lon="10.491269448">
		<tag k="name" v="Neselva" />
		<tag k="ssr:stedsnr" v="610836" />
		<tag k="waterway" v="stream" />
	</node>
	<node id="-26568" lat="59.8500249989" lon="10.3404250055">
		<tag k="name" v="Solli" />
		<tag k="place" v="farm" />
		<tag k="ssr:stedsnr" v="610340" />
	</node>
	<node id="-26567" lat="59.847188886" lon="10.5199861052">
		<tag k="fixme" v="consider seamark:type=rock or natural=shoal" />
		<tag k="name" v="Sværslepene" />
		<tag k="place" v="islet" />
		<tag k="ssr:stedsnr" v="603587" />
	</node>
	<node id="-26566" lat="59.8172722227" lon="10.5052472242">
		<tag k="name" v="Tunga" />
		<tag k="natural" v="shoal" />
		<tag k="place" v="locality" />
		<tag k="ssr:stedsnr" v="602914" />
	</node>
	<node id="-26565" lat="59.8112527741" lon="10.4496055571">
		<tag k="bridge" v="yes" />
		<tag k="layer" v="1" />
		<tag k="name" v="Bukkemyr" />
		<tag k="ssr:stedsnr" v="592089" />
	</node>
	<node id="-26564" lat="59.8285833306" lon="10.4714083313">
		<tag k="bridge" v="yes" />
		<tag k="layer" v="1" />
		<tag k="name" v="Konglungen" />
		<tag k="ssr:stedsnr" v="592080" />
	</node>
	<node id="-26563" lat="59.8141527738" lon="10.4783694367">
		<tag k="bridge" v="yes" />
		<tag k="layer" v="1" />
		<tag k="name" v="Sjøvollveien" />
		<tag k="ssr:stedsnr" v="592074" />
	</node>
	<node id="-26562" lat="59.8363833319" lon="10.4317333292">
		<tag k="bridge" v="yes" />
		<tag k="layer" v="1" />
		<tag k="name" v="Semsveien" />
		<tag k="ssr:stedsnr" v="592072" />
	</node>
	<node id="-26561" lat="59.8460277788" lon="10.5067611146">
		<tag k="bay" v="fjord" />
		<tag k="name" v="Holmenfjorden" />
		<tag k="natural" v="bay" />
		<tag k="ssr:stedsnr" v="570398" />
	</node>
	<node id="-26560" lat="59.8545333359" lon="10.5170527861">
		<tag k="name" v="Knollen" />
		<tag k="natural" v="shoal" />
		<tag k="place" v="locality" />
		<tag k="ssr:stedsnr" v="569493" />
	</node>
	<node id="-26559" lat="59.8527277814" lon="10.4144138882">
		<tag k="name" v="Store Berg" />
		<tag k="place" v="farm" />
		<tag k="ssr:stedsnr" v="569289" />
	</node>
	<node id="-26558" lat="59.823936112" lon="10.3909694532">
		<tag k="name" v="Måsan" />
		<tag k="natural" v="wetland" />
		<tag k="ssr:stedsnr" v="568668" />
	</node>
	<node id="-26557" lat="59.8129722247" lon="10.4035166592">
		<tag k="name" v="Råtadalen" />
		<tag k="natural" v="valley" />
		<tag k="place" v="locality" />
		<tag k="ssr:stedsnr" v="568659" />
	</node>
	<node id="-26556" lat="59.8491694444" lon="10.4730138812">
		<tag k="name" v="Hofstad" />
		<tag k="place" v="farm" />
		<tag k="ssr:stedsnr" v="568634" />
	</node>
	<node id="-26555" lat="59.8273194448" lon="10.3869944437">
		<tag k="name" v="Katteputt" />
		<tag k="natural" v="water" />
		<tag k="ssr:stedsnr" v="568630" />
		<tag k="water" v="pond" />
	</node>
	<node id="-26554" lat="59.8195503745" lon="10.4595917351">
		<tag k="name" v="Åbydammen" />
		<tag k="natural" v="water" />
		<tag k="ssr:stedsnr" v="568555" />
		<tag k="water" v="lake" />
	</node>
	<node id="-26553" lat="59.8402305539" lon="10.503491674">
		<tag k="alt_name" v="Merraneset" />
		<tag k="name" v="Merranes" />
		<tag k="place" v="farm" />
		<tag k="ssr:stedsnr" v="568508" />
	</node>
	<node id="-26552" lat="59.7987138884" lon="10.4917055479">
		<tag k="name" v="Eljarnes" />
		<tag k="place" v="farm" />
		<tag k="ssr:stedsnr" v="568500" />
	</node>
	<node id="-26551" lat="59.8594611078" lon="10.4759000059">
		<tag k="name" v="Torstaddammen" />
		<tag k="natural" v="water" />
		<tag k="ssr:stedsnr" v="568491" />
	</node>
	<node id="-26550" lat="59.854680557" lon="10.4862666605">
		<tag k="name" v="Vogellund" />
		<tag k="place" v="locality" />
		<tag k="ssr:stedsnr" v="568486" />
	</node>
	<node id="-26549" lat="59.8539250012" lon="10.496280559">
		<tag k="fixme" v="consider seamark:type=rock or natural=shoal" />
		<tag k="name" v="Presteskjær" />
		<tag k="place" v="islet" />
		<tag k="ssr:stedsnr" v="568470" />
	</node>
	<node id="-26548" lat="59.8748444479" lon="10.5053333264">
		<tag k="name" v="Elgarnes" />
		<tag k="place" v="farm" />
		<tag k="ssr:stedsnr" v="568469" />
	</node>
	<node id="-26547" lat="59.8672222187" lon="10.5209305542">
		<tag k="fixme" v="consider boundary=protected_area and relevant protect_class if not nature reserve" />
		<tag k="leisure" v="nature_reserve" />
		<tag k="name" v="Nesøytjern naturreservat" />
		<tag k="ssr:stedsnr" v="568464" />
	</node>
	<node id="-26546" lat="59.8700500031" lon="10.3448638877">
		<tag k="fixme" v="consider natural=peak for the most distinct mountains in the district" />
		<tag k="name" v="St. Hansåsen" />
		<tag k="natural" v="hill" />
		<tag k="place" v="locality" />
		<tag k="ssr:stedsnr" v="567711" />
	</node>
	<node id="-26545" lat="59.8019499993" lon="10.4146333292">
		<tag k="alt_name" v="Bråtan nedre" />
		<tag k="name" v="Nedre Bråtan" />
		<tag k="place" v="farm" />
		<tag k="ssr:stedsnr" v="567707" />
	</node>
	<node id="-26544" lat="59.8520222255" lon="10.3403055605">
		<tag k="name" v="Finneløkka" />
		<tag k="place" v="locality" />
		<tag k="ssr:stedsnr" v="567691" />
	</node>
	<node id="-26543" lat="59.8253444484" lon="10.3691333412">
		<tag k="name" v="Vekta" />
		<tag k="place" v="farm" />
		<tag k="ssr:stedsnr" v="567687" />
	</node>
	<node id="-26542" lat="59.8087528297" lon="10.361716919">
		<tag k="alt_name" v="Poverudelva" />
		<tag k="name" v="Påverudelva" />
		<tag k="ssr:stedsnr" v="567671" />
		<tag k="waterway" v="river" />
	</node>
	<node id="-26541" lat="59.7856944417" lon="10.4442666646">
		<tag k="fixme" v="consider place=suburb, village or hamlet" />
		<tag k="name" v="Homansbyen" />
		<tag k="place" v="quarter" />
		<tag k="ssr:stedsnr" v="567617" />
	</node>
	<node id="-26540" lat="59.852536114" lon="10.4211416634">
		<tag k="name" v="Sagdammen" />
		<tag k="natural" v="water" />
		<tag k="ssr:stedsnr" v="567613" />
	</node>
	<node id="-26539" lat="59.8518361119" lon="10.4061611158">
		<tag k="fixme" v="consider natural=peak for the most distinct mountains in the district" />
		<tag k="loc_name" v="Vinkova" />
		<tag k="name" v="Vindkovan" />
		<tag k="natural" v="hill" />
		<tag k="place" v="locality" />
		<tag k="ssr:stedsnr" v="567612" />
	</node>
	<node id="-26538" lat="59.8381194444" lon="10.4023305569">
		<tag k="name" v="Nedre Hogstad" />
		<tag k="place" v="farm" />
		<tag k="ssr:stedsnr" v="567611" />
	</node>
	<node id="-26537" lat="59.8527334857" lon="10.3810411812">
		<tag k="name" v="Hagahogget" />
		<tag k="natural" v="gorge" />
		<tag k="ssr:stedsnr" v="550801" />
	</node>
	<node id="-26536" lat="59.8560000012" lon="10.4736777741">
		<tag k="name" v="Bruset" />
		<tag k="place" v="farm" />
		<tag k="ssr:stedsnr" v="550794" />
	</node>
	<node id="-26535" lat="59.8589745553" lon="10.462249216">
		<tag k="alt_name" v="Hvalstad" />
		<tag k="name" v="Hvalstad stasjon" />
		<tag k="railway" v="station" />
		<tag k="ssr:stedsnr" v="550793" />
		<tag k="train" v="yes" />
	</node>
	<node id="-26534" lat="59.848449998" lon="10.5309611071">
		<tag k="name" v="Langåra" />
		<tag k="place" v="island" />
		<tag k="ssr:stedsnr" v="550769" />
	</node>
	<node id="-26533" lat="59.8366861144" lon="10.4157055535">
		<tag k="name" v="Dæli" />
		<tag k="place" v="farm" />
		<tag k="ssr:stedsnr" v="550754" />
	</node>
	<node id="-26532" lat="59.830377775" lon="10.4068249996">
		<tag k="name" v="Ånnerud" />
		<tag k="place" v="farm" />
		<tag k="ssr:stedsnr" v="550743" />
	</node>
	<node id="-26531" lat="59.8249694403" lon="10.4502611066">
		<tag k="alt_name" v="Bleiker, nedre" />
		<tag k="name" v="Nedre Bleiker" />
		<tag k="place" v="farm" />
		<tag k="ssr:stedsnr" v="550711" />
	</node>
	<node id="-26530" lat="59.7986579021" lon="10.4624631215">
		<tag k="name" v="Sand" />
		<tag k="place" v="farm" />
		<tag k="ssr:stedsnr" v="550700" />
	</node>
	<node id="-26529" lat="59.8072004979" lon="10.4361766484">
		<tag k="alt_name" v="Gullhella" />
		<tag k="name" v="Gullhella holdeplass" />
		<tag k="railway" v="halt" />
		<tag k="ssr:stedsnr" v="550697" />
		<tag k="train" v="yes" />
	</node>
	<node id="-26528" lat="59.8078305586" lon="10.5507444426">
		<tag k="name" v="Storegrunnane" />
		<tag k="natural" v="shoal" />
		<tag k="place" v="locality" />
		<tag k="ssr:stedsnr" v="550698" />
	</node>
	<node id="-26527" lat="59.7991666677" lon="10.3653333414">
		<tag k="name" v="Påverud" />
		<tag k="place" v="isolated_dwelling" />
		<tag k="ssr:stedsnr" v="550677" />
	</node>
	<node id="-26526" lat="59.7868577995" lon="10.4308952408">
		<tag k="alt_name" v="Heggedal" />
		<tag k="name" v="Heggedal stasjon" />
		<tag k="railway" v="station" />
		<tag k="ssr:stedsnr" v="550641" />
		<tag k="train" v="yes" />
	</node>
	<node id="-26525" lat="59.7960694425" lon="10.4891222176">
		<tag k="name" v="Elnes" />
		<tag k="place" v="farm" />
		<tag k="ssr:stedsnr" v="550632" />
	</node>
	<node id="-26524" lat="59.8852138858" lon="10.4351388912">
		<tag k="alt_name" v="Stokkerbråten" />
		<tag k="name" v="Stokkerbråtan" />
		<tag k="place" v="isolated_dwelling" />
		<tag k="ssr:stedsnr" v="549833" />
	</node>
	<node id="-26523" lat="59.8091277796" lon="10.498675004">
		<tag k="name" v="Knerten" />
		<tag k="natural" v="shoal" />
		<tag k="place" v="locality" />
		<tag k="ssr:stedsnr" v="543235" />
	</node>
	<node id="-26522" lat="59.8296777791" lon="10.5111944395">
		<tag k="name" v="Bjerkøybukta" />
		<tag k="natural" v="bay" />
		<tag k="ssr:stedsnr" v="542927" />
	</node>
	<node id="-26521" lat="59.8324055553" lon="10.4203638918">
		<tag k="bridge" v="yes" />
		<tag k="layer" v="1" />
		<tag k="name" v="Oreholtet" />
		<tag k="ssr:stedsnr" v="531066" />
	</node>
	<node id="-26520" lat="59.8109000023" lon="10.4999861185">
		<tag k="name" v="Blakstadgrunnen" />
		<tag k="natural" v="shoal" />
		<tag k="place" v="locality" />
		<tag k="ssr:stedsnr" v="510540" />
	</node>
	<node id="-26519" lat="59.7852777783" lon="10.3902777848">
		<tag k="fixme" v="consider natural=peak for the most distinct mountains in the district" />
		<tag k="name" v="Brennåsen" />
		<tag k="natural" v="hill" />
		<tag k="place" v="locality" />
		<tag k="ssr:stedsnr" v="510527" />
	</node>
	<node id="-26518" lat="59.8470500021" lon="10.5608527821">
		<tag k="name" v="Høyerholmfluene" />
		<tag k="natural" v="shoal" />
		<tag k="place" v="locality" />
		<tag k="ssr:stedsnr" v="510467" />
	</node>
	<node id="-26517" lat="59.8305222265" lon="10.4192888902">
		<tag k="name" v="Vanntroa" />
		<tag k="place" v="isolated_dwelling" />
		<tag k="ssr:stedsnr" v="508686" />
	</node>
	<node id="-26516" lat="59.8374527799" lon="10.4660055577">
		<tag k="name" v="Teigen" />
		<tag k="place" v="farm" />
		<tag k="ssr:stedsnr" v="508677" />
	</node>
	<node id="-26515" lat="59.8350055589" lon="10.4494583309">
		<tag k="name" v="Jørgensløkka" />
		<tag k="place" v="farm" />
		<tag k="ssr:stedsnr" v="508673" />
	</node>
	<node id="-26514" lat="59.8386944454" lon="10.4770527738">
		<tag k="man_made" v="quay" />
		<tag k="name" v="Leangen brygge" />
		<tag k="place" v="locality" />
		<tag k="ssr:stedsnr" v="508669" />
	</node>
	<node id="-26513" lat="59.8317055585" lon="10.396100008">
		<tag k="name" v="Limomnroa" />
		<tag k="place" v="locality" />
		<tag k="ssr:stedsnr" v="508664" />
	</node>
	<node id="-26512" lat="59.8353416646" lon="10.4271444479">
		<tag k="name" v="Føyka" />
		<tag k="natural" v="slope" />
		<tag k="place" v="locality" />
		<tag k="ssr:stedsnr" v="508660" />
	</node>
	<node id="-26511" lat="59.8791194449" lon="10.4489611183">
		<tag k="name" v="Kippåsen" />
		<tag k="place" v="farm" />
		<tag k="ssr:stedsnr" v="508647" />
	</node>
	<node id="-26510" lat="59.8180543875" lon="10.4842800244">
		<tag k="name" v="Trosvika" />
		<tag k="natural" v="bay" />
		<tag k="ssr:stedsnr" v="508615" />
	</node>
	<node id="-26509" lat="59.8084972226" lon="10.4956277781">
		<tag k="name" v="Tjuvholmene" />
		<tag k="place" v="islet" />
		<tag k="ssr:stedsnr" v="508560" />
	</node>
	<node id="-26508" lat="59.863241668" lon="10.4537944522">
		<tag k="name" v="Rugbråtesletta" />
		<tag k="place" v="locality" />
		<tag k="ssr:stedsnr" v="508554" />
	</node>
	<node id="-26507" lat="59.858286112" lon="10.4360777831">
		<tag k="name" v="Svartdalen" />
		<tag k="natural" v="valley" />
		<tag k="place" v="locality" />
		<tag k="ssr:stedsnr" v="508548" />
	</node>
	<node id="-26506" lat="59.8548000016" lon="10.5046083346">
		<tag k="fixme" v="consider seamark:type=rock or natural=shoal" />
		<tag k="name" v="Landøyfluene" />
		<tag k="place" v="islet" />
		<tag k="ssr:stedsnr" v="508543" />
	</node>
	<node id="-26505" lat="59.8591833342" lon="10.5285472212">
		<tag k="man_made" v="quay" />
		<tag k="name" v="Vestre brygge" />
		<tag k="place" v="locality" />
		<tag k="ssr:stedsnr" v="508536" />
	</node>
	<node id="-26504" lat="59.8648277796" lon="10.5411138865">
		<tag k="name" v="Vendelholmene" />
		<tag k="place" v="islet" />
		<tag k="ssr:stedsnr" v="508535" />
	</node>
	<node id="-26503" lat="59.8586842469" lon="10.5492129791">
		<tag k="name" v="Viernbukta" />
		<tag k="natural" v="bay" />
		<tag k="ssr:stedsnr" v="508492" />
	</node>
	<node id="-26502" lat="59.8559308254" lon="10.3821605896">
		<tag k="fixme" v="consider natural=peak for the most distinct mountains in the district" />
		<tag k="name" v="Bergsåsen" />
		<tag k="natural" v="hill" />
		<tag k="place" v="locality" />
		<tag k="ssr:stedsnr" v="508375" />
	</node>
	<node id="-26501" lat="59.8074416642" lon="10.4417361163">
		<tag k="name" v="Rabakken" />
		<tag k="place" v="farm" />
		<tag k="ssr:stedsnr" v="507752" />
	</node>
	<node id="-26500" lat="59.8030055548" lon="10.4767638893">
		<tag k="alt_name" v="Bråten" />
		<tag k="name" v="Bråtan" />
		<tag k="place" v="farm" />
		<tag k="ssr:stedsnr" v="507749" />
	</node>
	<node id="-26499" lat="59.7846833292" lon="10.436122216">
		<tag k="amenity" v="school" />
		<tag k="name" v="Hovedgården skole" />
		<tag k="ssr:stedsnr" v="507748" />
	</node>
	<node id="-26498" lat="59.8005000035" lon="10.3937499981">
		<tag k="name" v="Enga" />
		<tag k="place" v="farm" />
		<tag k="ssr:stedsnr" v="507724" />
	</node>
	<node id="-26497" lat="59.8764166659" lon="10.3530416718">
		<tag k="name" v="Vadfoss" />
		<tag k="natural" v="waterfall" />
		<tag k="ssr:stedsnr" v="507713" />
	</node>
	<node id="-26496" lat="59.8941416625" lon="10.3678333319">
		<tag k="name" v="Bjønneputt" />
		<tag k="natural" v="wetland" />
		<tag k="ssr:stedsnr" v="507709" />
	</node>
	<node id="-26495" lat="59.8260305563" lon="10.3739416598">
		<tag k="name" v="Sandbekken" />
		<tag k="place" v="farm" />
		<tag k="ssr:stedsnr" v="507704" />
	</node>
	<node id="-26494" lat="59.802711115" lon="10.3706749933">
		<tag k="amenity" v="hospital" />
		<tag k="name" v="Dikemark sykehus" />
		<tag k="ssr:stedsnr" v="507694" />
	</node>
	<node id="-26493" lat="59.8483333308" lon="10.3802194362">
		<tag k="loc_name" v="Skåbakke" />
		<tag k="name" v="Skovbakke" />
		<tag k="natural" v="slope" />
		<tag k="place" v="locality" />
		<tag k="ssr:stedsnr" v="507630" />
	</node>
	<node id="-26492" lat="59.8437784644" lon="10.4562457599">
		<tag k="alt_name" v="Høn" />
		<tag k="name" v="Høn holdeplass" />
		<tag k="railway" v="halt" />
		<tag k="ssr:stedsnr" v="490775" />
		<tag k="train" v="yes" />
	</node>
	<node id="-26491" lat="59.8350416704" lon="10.3837861059">
		<tag k="name" v="Høgås" />
		<tag k="place" v="farm" />
		<tag k="ssr:stedsnr" v="490773" />
	</node>
	<node id="-26490" lat="59.8414027778" lon="10.5409222145">
		<tag k="fixme" v="consider seamark:type=rock or natural=shoal" />
		<tag k="name" v="Raudskjæra" />
		<tag k="place" v="islet" />
		<tag k="ssr:stedsnr" v="490765" />
	</node>
	<node id="-26489" lat="59.8120138898" lon="10.4168527818">
		<tag k="name" v="Vardetjern" />
		<tag k="natural" v="water" />
		<tag k="ssr:stedsnr" v="490759" />
	</node>
	<node id="-26488" lat="59.8073583295" lon="10.4853861194">
		<tag k="name" v="Vollen" />
		<tag k="place" v="village" />
		<tag k="ssr:stedsnr" v="490756" />
	</node>
	<node id="-26487" lat="59.826330554" lon="10.4379611038">
		<tag k="fixme" v="consider place=suburb, village or hamlet" />
		<tag k="name" v="Risenga" />
		<tag k="place" v="quarter" />
		<tag k="ssr:stedsnr" v="490743" />
	</node>
	<node id="-26486" lat="59.8191305549" lon="10.4645083291">
		<tag k="fixme" v="consider place=suburb, village or hamlet" />
		<tag k="name" v="Blakstad" />
		<tag k="place" v="quarter" />
		<tag k="ssr:stedsnr" v="490739" />
	</node>
	<node id="-26485" lat="59.7951296347" lon="10.4669371674">
		<tag k="fixme" v="consider place=hamlet" />
		<tag k="name" v="Østeren" />
		<tag k="place" v="farm" />
		<tag k="ssr:stedsnr" v="490720" />
	</node>
	<node id="-26484" lat="59.8788361129" lon="10.4553249961">
		<tag k="name" v="Groset" />
		<tag k="place" v="farm" />
		<tag k="ssr:stedsnr" v="489850" />
	</node>
	<node id="-26483" lat="59.8736332217" lon="10.3665759375">
		<tag k="alt_name" v="Sandungen, store;Sandungen" />
		<tag k="name" v="Store Sandungen" />
		<tag k="natural" v="water" />
		<tag k="ssr:stedsnr" v="489837" />
		<tag k="water" v="lake" />
	</node>
	<node id="-26482" lat="59.871091669" lon="10.4681805587">
		<tag k="name" v="Åstad" />
		<tag k="place" v="farm" />
		<tag k="ssr:stedsnr" v="489833" />
	</node>
	<node id="-26481" lat="59.8694111133" lon="10.3480527696">
		<tag k="name" v="Storemyr" />
		<tag k="natural" v="wetland" />
		<tag k="ssr:stedsnr" v="489824" />
	</node>
	<node id="-26480" lat="59.863308334" lon="10.52037778">
		<tag k="name" v="Nesøya" />
		<tag k="place" v="island" />
		<tag k="ssr:stedsnr" v="489820" />
	</node>
	<node id="-26479" lat="59.869602779" lon="10.4819250087">
		<tag k="alt_name" v="Berger" />
		<tag k="name" v="Nordre Berger" />
		<tag k="place" v="farm" />
		<tag k="ssr:stedsnr" v="489816" />
	</node>
	<node id="-26478" lat="59.8583333332" lon="10.4813194437">
		<tag k="name" v="Ravnsborg" />
		<tag k="place" v="isolated_dwelling" />
		<tag k="ssr:stedsnr" v="489814" />
	</node>
	<node id="-26477" lat="59.8548138873" lon="10.4052111176">
		<tag k="name" v="Semsvik" />
		<tag k="place" v="farm" />
		<tag k="ssr:stedsnr" v="489812" />
	</node>
	<node id="-26476" lat="59.8601833317" lon="10.4071333397">
		<tag k="name" v="Kveglund" />
		<tag k="place" v="isolated_dwelling" />
		<tag k="ssr:stedsnr" v="489805" />
	</node>
	<node id="-26475" lat="59.8511333323" lon="10.5571138945">
		<tag k="name" v="Høyerholmen" />
		<tag k="place" v="islet" />
		<tag k="ssr:stedsnr" v="489780" />
	</node>
	<node id="-26474" lat="59.7927888846" lon="10.3513055533">
		<tag k="name" v="Fuglemyr" />
		<tag k="natural" v="wetland" />
		<tag k="ssr:stedsnr" v="489743" />
	</node>
	<node id="-26473" lat="59.8452027775" lon="10.5005833418">
		<tag k="name" v="Kjoneberget" />
		<tag k="natural" v="shoal" />
		<tag k="place" v="locality" />
		<tag k="ssr:stedsnr" v="481604" />
	</node>
	<node id="-26472" lat="59.8342888918" lon="10.4370055617">
		<tag k="bridge" v="yes" />
		<tag k="layer" v="1" />
		<tag k="name" v="Asker G/S-kulvert" />
		<tag k="ssr:stedsnr" v="471094" />
	</node>
	<node id="-26471" lat="59.8317972226" lon="10.4341138972">
		<tag k="bridge" v="yes" />
		<tag k="layer" v="1" />
		<tag k="name" v="Asker" />
		<tag k="ssr:stedsnr" v="471092" />
	</node>
	<node id="-26470" lat="59.8548250041" lon="10.4902194533">
		<tag k="bridge" v="yes" />
		<tag k="layer" v="1" />
		<tag k="name" v="Holmenkrysset" />
		<tag k="ssr:stedsnr" v="471085" />
	</node>
	<node id="-26469" lat="59.834730557" lon="10.4315861171">
		<tag k="bridge" v="yes" />
		<tag k="layer" v="1" />
		<tag k="name" v="Vanntroa" />
		<tag k="ssr:stedsnr" v="471079" />
	</node>
	<node id="-26468" lat="59.8363972245" lon="10.4778999973">
		<tag k="name" v="Tangegrunnen" />
		<tag k="natural" v="shoal" />
		<tag k="place" v="locality" />
		<tag k="ssr:stedsnr" v="449426" />
	</node>
	<node id="-26467" lat="59.7832583348" lon="10.4327694481">
		<tag k="name" v="Åmot" />
		<tag k="place" v="farm" />
		<tag k="ssr:stedsnr" v="447709" />
	</node>
	<node id="-26466" lat="59.8051333316" lon="10.395272231">
		<tag k="name" v="Vestengen" />
		<tag k="place" v="farm" />
		<tag k="ssr:stedsnr" v="447706" />
	</node>
	<node id="-26465" lat="59.8008027783" lon="10.4160333413">
		<tag k="alt_name" v="Bråtan, øvre" />
		<tag k="name" v="Øvre Bråtan" />
		<tag k="place" v="farm" />
		<tag k="ssr:stedsnr" v="447694" />
	</node>
	<node id="-26464" lat="59.8449111108" lon="10.3628083417">
		<tag k="fixme" v="consider natural=peak for the most distinct mountains in the district" />
		<tag k="name" v="Kvieberget" />
		<tag k="natural" v="hill" />
		<tag k="place" v="locality" />
		<tag k="ssr:stedsnr" v="447692" />
	</node>
	<node id="-26463" lat="59.8349444407" lon="10.3615611024">
		<tag k="name" v="Jerpåsmarka" />
		<tag k="place" v="locality" />
		<tag k="ssr:stedsnr" v="447693" />
	</node>
	<node id="-26462" lat="59.8497805599" lon="10.3677333256">
		<tag k="name" v="Tranevassdalen" />
		<tag k="natural" v="valley" />
		<tag k="place" v="locality" />
		<tag k="ssr:stedsnr" v="447687" />
	</node>
	<node id="-26461" lat="59.8871194463" lon="10.3598527813">
		<tag k="fixme" v="consider natural=peak for the most distinct mountains in the district" />
		<tag k="name" v="Korpåsen" />
		<tag k="natural" v="hill" />
		<tag k="place" v="locality" />
		<tag k="ssr:stedsnr" v="447684" />
	</node>
	<node id="-26460" lat="59.8316638896" lon="10.411844437">
		<tag k="name" v="Solbrå" />
		<tag k="place" v="locality" />
		<tag k="ssr:stedsnr" v="447657" />
	</node>
	<node id="-26459" lat="59.8305111122" lon="10.4217333359">
		<tag k="amenity" v="school" />
		<tag k="name" v="Hagaløkka skole" />
		<tag k="ssr:stedsnr" v="447656" />
	</node>
	<node id="-26458" lat="59.8189749967" lon="10.4177194428">
		<tag k="name" v="Jutemyr" />
		<tag k="natural" v="wetland" />
		<tag k="ssr:stedsnr" v="447654" />
	</node>
	<node id="-26457" lat="59.8342916671" lon="10.484163894">
		<tag k="alt_name" v="Ersvika" />
		<tag k="name" v="Esvika" />
		<tag k="natural" v="bay" />
		<tag k="ssr:stedsnr" v="447635" />
	</node>
	<node id="-26456" lat="59.8399777746" lon="10.4246777857">
		<tag k="amenity" v="school" />
		<tag k="name" v="Solvang skole" />
		<tag k="ssr:stedsnr" v="447628" />
	</node>
	<node id="-26455" lat="59.8505833353" lon="10.4518972253">
		<tag k="name" v="Bøsebakken" />
		<tag k="place" v="farm" />
		<tag k="ssr:stedsnr" v="447623" />
	</node>
	<node id="-26454" lat="59.7785694409" lon="10.4358916594">
		<tag k="name" v="Grodalen" />
		<tag k="natural" v="valley" />
		<tag k="place" v="locality" />
		<tag k="ssr:stedsnr" v="447617" />
	</node>
	<node id="-26453" lat="59.8523138897" lon="10.422427781">
		<tag k="name" v="Seheim" />
		<tag k="place" v="farm" />
		<tag k="ssr:stedsnr" v="447616" />
	</node>
	<node id="-26452" lat="59.8194305529" lon="10.436536106">
		<tag k="name" v="Høva" />
		<tag k="place" v="locality" />
		<tag k="ssr:stedsnr" v="447543" />
	</node>
	<node id="-26451" lat="59.827522223" lon="10.4646916755">
		<tag k="fixme" v="consider natural=peak for the most distinct mountains in the district" />
		<tag k="name" v="Krillås" />
		<tag k="natural" v="hill" />
		<tag k="place" v="locality" />
		<tag k="ssr:stedsnr" v="447542" />
	</node>
	<node id="-26450" lat="59.8742221556" lon="10.5231571506">
		<tag k="alt_name" v="Hals;Østre Hals" />
		<tag k="name" v="Halsbukta" />
		<tag k="natural" v="bay" />
		<tag k="ssr:stedsnr" v="447527" />
	</node>
	<node id="-26449" lat="59.8212694446" lon="10.4957000017">
		<tag k="name" v="Katteflu" />
		<tag k="place" v="locality" />
		<tag k="seamark:type" v="rock" />
		<tag k="ssr:stedsnr" v="447502" />
	</node>
	<node id="-26448" lat="59.8296083346" lon="10.512652779">
		<tag k="name" v="Nordskog" />
		<tag k="place" v="farm" />
		<tag k="ssr:stedsnr" v="447501" />
	</node>
	<node id="-26447" lat="59.8613138928" lon="10.4730666631">
		<tag k="name" v="Kalddalen" />
		<tag k="natural" v="valley" />
		<tag k="place" v="locality" />
		<tag k="ssr:stedsnr" v="447489" />
	</node>
	<node id="-26446" lat="59.8601527753" lon="10.4564416599">
		<tag k="amenity" v="hospital" />
		<tag k="name" v="Sanatoriet" />
		<tag k="ssr:stedsnr" v="447477" />
	</node>
	<node id="-26445" lat="59.8552250026" lon="10.4354083359">
		<tag k="name" v="Grana" />
		<tag k="place" v="farm" />
		<tag k="ssr:stedsnr" v="447469" />
	</node>
	<node id="-26444" lat="59.8569694459" lon="10.4408555523">
		<tag k="name" v="Holtet" />
		<tag k="place" v="farm" />
		<tag k="ssr:stedsnr" v="447468" />
	</node>
	<node id="-26443" lat="59.871449996" lon="10.5458972145">
		<tag k="fixme" v="consider seamark:type=rock or natural=shoal" />
		<tag k="name" v="Kreyerskjær" />
		<tag k="place" v="islet" />
		<tag k="ssr:stedsnr" v="447453" />
	</node>
	<node id="-26442" lat="59.8092388891" lon="10.4849694463">
		<tag k="name" v="Skjæret" />
		<tag k="natural" v="cape" />
		<tag k="ssr:stedsnr" v="447318" />
	</node>
	<node id="-26441" lat="59.8213083295" lon="10.503344439">
		<tag k="fixme" v="consider seamark:type=rock or natural=shoal" />
		<tag k="name" v="Bjerkøyskjæra" />
		<tag k="place" v="islet" />
		<tag k="ssr:stedsnr" v="430729" />
	</node>
	<node id="-26440" lat="59.8202883188" lon="10.4329958675">
		<tag k="alt_name" v="Bondivatn;Bondivann store" />
		<tag k="name" v="Bondivann holdeplass" />
		<tag k="railway" v="halt" />
		<tag k="ssr:stedsnr" v="430718" />
		<tag k="train" v="yes" />
	</node>
	<node id="-26439" lat="59.8459249992" lon="10.3992833369">
		<tag k="alt_name" v="Bakkegårdene" />
		<tag k="name" v="Bakke" />
		<tag k="place" v="farm" />
		<tag k="ssr:stedsnr" v="429794" />
	</node>
	<node id="-26438" lat="59.8491666645" lon="10.5248388917">
		<tag k="name" v="Spannslokket" />
		<tag k="place" v="islet" />
		<tag k="ssr:stedsnr" v="429767" />
	</node>
	<node id="-26437" lat="59.8286773319" lon="10.3823772013">
		<tag k="name" v="Finnsrud" />
		<tag k="place" v="farm" />
		<tag k="ssr:stedsnr" v="429752" />
	</node>
	<node id="-26436" lat="59.8309001871" lon="10.3854109687">
		<tag k="name" v="Finnsrudvannet" />
		<tag k="natural" v="water" />
		<tag k="ssr:stedsnr" v="429749" />
	</node>
	<node id="-26435" lat="59.8328804283" lon="10.3860401921">
		<tag k="name" v="Vassås" />
		<tag k="place" v="farm" />
		<tag k="ssr:stedsnr" v="429741" />
	</node>
	<node id="-26434" lat="59.797166665" lon="10.3917166612">
		<tag k="name" v="Nyfjell" />
		<tag k="place" v="farm" />
		<tag k="ssr:stedsnr" v="429718" />
	</node>
	<node id="-26433" lat="59.7997027789" lon="10.4667555586">
		<tag k="name" v="Gisle" />
		<tag k="place" v="farm" />
		<tag k="ssr:stedsnr" v="429692" />
	</node>
	<node id="-26432" lat="59.8027388884" lon="10.4594750067">
		<tag k="name" v="Enga" />
		<tag k="place" v="farm" />
		<tag k="ssr:stedsnr" v="429690" />
	</node>
	<node id="-26431" lat="59.8738722207" lon="10.3297472147">
		<tag k="name" v="Asdøltjern" />
		<tag k="natural" v="water" />
		<tag k="ssr:stedsnr" v="429310" />
	</node>
	<node id="-26430" lat="59.8319805556" lon="10.3705361027">
		<tag k="fixme" v="consider natural=peak for the most distinct mountains in the district" />
		<tag k="name" v="Høgås" />
		<tag k="natural" v="hill" />
		<tag k="place" v="locality" />
		<tag k="ssr:stedsnr" v="429493" />
	</node>
	<node id="-26429" lat="59.8712916649" lon="10.4501666644">
		<tag k="fixme" v="consider natural=peak for the most distinct mountains in the district" />
		<tag k="name" v="Grosetkollen" />
		<tag k="natural" v="hill" />
		<tag k="place" v="locality" />
		<tag k="ssr:stedsnr" v="428824" />
	</node>
	<node id="-26428" lat="59.8663472216" lon="10.4148666637">
		<tag k="name" v="Svensrud" />
		<tag k="place" v="isolated_dwelling" />
		<tag k="ssr:stedsnr" v="428814" />
	</node>
	<node id="-26427" lat="59.8743962411" lon="10.379855765">
		<tag k="fixme" v="consider place=hamlet" />
		<tag k="name" v="Rustaden" />
		<tag k="place" v="farm" />
		<tag k="ssr:stedsnr" v="422109" />
	</node>
	<node id="-26426" lat="59.8196916662" lon="10.488236117">
		<tag k="fixme" v="consider seamark:type=rock or natural=shoal" />
		<tag k="name" v="Torsken" />
		<tag k="place" v="islet" />
		<tag k="ssr:stedsnr" v="421925" />
	</node>
	<node id="-26425" lat="59.8369777776" lon="10.4994277795">
		<tag k="name" v="Myra" />
		<tag k="place" v="isolated_dwelling" />
		<tag k="ssr:stedsnr" v="421605" />
	</node>
	<node id="-26424" lat="59.8289750024" lon="10.4900055615">
		<tag k="name" v="Ulalandet" />
		<tag k="place" v="locality" />
		<tag k="ssr:stedsnr" v="421581" />
	</node>
	<node id="-26423" lat="59.8277111085" lon="10.4866499949">
		<tag k="name" v="Vettrebukta" />
		<tag k="natural" v="bay" />
		<tag k="ssr:stedsnr" v="421578" />
	</node>
	<node id="-26422" lat="59.8159805512" lon="10.4033277864">
		<tag k="name" v="Stupet" />
		<tag k="place" v="locality" />
		<tag k="ssr:stedsnr" v="265721" />
	</node>
	<node id="-26421" lat="59.8279083349" lon="10.443222221">
		<tag k="name" v="Leikvoll" />
		<tag k="place" v="farm" />
		<tag k="ssr:stedsnr" v="265707" />
	</node>
	<node id="-26420" lat="59.8485722225" lon="10.4470638815">
		<tag k="amenity" v="nursing_home" />
		<tag k="name" v="Solgården" />
		<tag k="ssr:stedsnr" v="265699" />
	</node>
	<node id="-26419" lat="59.8507645108" lon="10.4873186504">
		<tag k="name" v="Syverstaddammen" />
		<tag k="natural" v="water" />
		<tag k="ssr:stedsnr" v="265692" />
	</node>
	<node id="-26418" lat="59.8356361129" lon="10.3958472306">
		<tag k="name" v="Øvre Hogstad" />
		<tag k="place" v="farm" />
		<tag k="ssr:stedsnr" v="265686" />
	</node>
	<node id="-26417" lat="59.838833332" lon="10.3823138862">
		<tag k="name" v="Ulverud" />
		<tag k="place" v="locality" />
		<tag k="ssr:stedsnr" v="265658" />
	</node>
	<node id="-26416" lat="59.8389166673" lon="10.4049638924">
		<tag k="name" v="Wittenberg" />
		<tag k="place" v="locality" />
		<tag k="ssr:stedsnr" v="265659" />
	</node>
	<node id="-26415" lat="59.877191667" lon="10.4722194425">
		<tag k="name" v="Nadderud" />
		<tag k="natural" v="slope" />
		<tag k="place" v="locality" />
		<tag k="ssr:stedsnr" v="265652" />
	</node>
	<node id="-26414" lat="59.8146000002" lon="10.4759111191">
		<tag k="name" v="Nordre Østenstad" />
		<tag k="place" v="farm" />
		<tag k="ssr:stedsnr" v="265604" />
	</node>
	<node id="-26413" lat="59.8306583289" lon="10.4614749976">
		<tag k="name" v="Lindløkka" />
		<tag k="place" v="locality" />
		<tag k="ssr:stedsnr" v="265580" />
	</node>
	<node id="-26412" lat="59.8278972206" lon="10.4724250019">
		<tag k="name" v="Kirkesletta" />
		<tag k="place" v="locality" />
		<tag k="ssr:stedsnr" v="265581" />
	</node>
	<node id="-26411" lat="59.8762805551" lon="10.5000222287">
		<tag k="junction" v="yes" />
		<tag k="name" v="Marienlyst" />
		<tag k="place" v="locality" />
		<tag k="ssr:stedsnr" v="265569" />
	</node>
	<node id="-26410" lat="59.8663944451" lon="10.4923944455">
		<tag k="name" v="Mellom-Nes" />
		<tag k="place" v="farm" />
		<tag k="ssr:stedsnr" v="265567" />
	</node>
	<node id="-26409" lat="59.8663305524" lon="10.4970361022">
		<tag k="amenity" v="school" />
		<tag k="name" v="Mellom-Nes skole" />
		<tag k="ssr:stedsnr" v="265566" />
	</node>
	<node id="-26408" lat="59.8660861075" lon="10.4904166714">
		<tag k="bridge" v="yes" />
		<tag k="layer" v="1" />
		<tag k="name" v="Nesbru" />
		<tag k="ssr:stedsnr" v="265565" />
	</node>
	<node id="-26407" lat="59.8544694426" lon="10.5279222197">
		<tag k="name" v="Pilbogen" />
		<tag k="natural" v="bay" />
		<tag k="ssr:stedsnr" v="265547" />
	</node>
	<node id="-26406" lat="59.8322527755" lon="10.5162222309">
		<tag k="alt_name" v="Svartebukta" />
		<tag k="name" v="Svartbukta" />
		<tag k="natural" v="bay" />
		<tag k="ssr:stedsnr" v="265543" />
	</node>
	<node id="-26405" lat="59.8246111113" lon="10.5126666643">
		<tag k="fixme" v="consider seamark:type=rock or natural=shoal" />
		<tag k="name" v="Lille Bjerkøyskjær" />
		<tag k="place" v="islet" />
		<tag k="ssr:stedsnr" v="265544" />
	</node>
	<node id="-26404" lat="59.8060722182" lon="10.4948777823">
		<tag k="alt_name" v="Selvika" />
		<tag k="name" v="Selvikbukta" />
		<tag k="natural" v="bay" />
		<tag k="ssr:stedsnr" v="265533" />
	</node>
	<node id="-26403" lat="59.8513805544" lon="10.5215805599">
		<tag k="name" v="Mellomholmen" />
		<tag k="place" v="islet" />
		<tag k="ssr:stedsnr" v="265532" />
	</node>
	<node id="-26402" lat="59.80826667" lon="10.4929916662">
		<tag k="name" v="Evjeodden" />
		<tag k="natural" v="cape" />
		<tag k="ssr:stedsnr" v="265528" />
	</node>
	<node id="-26401" lat="59.8709638927" lon="10.4250972201">
		<tag k="name" v="Djupendalen" />
		<tag k="natural" v="valley" />
		<tag k="place" v="locality" />
		<tag k="ssr:stedsnr" v="265517" />
	</node>
	<node id="-26400" lat="59.8707333322" lon="10.3993749977">
		<tag k="name" v="Tveitermarka" />
		<tag k="place" v="locality" />
		<tag k="ssr:stedsnr" v="265514" />
	</node>
	<node id="-26399" lat="59.8616388855" lon="10.4177916749">
		<tag k="name" v="Tveiterfossen" />
		<tag k="natural" v="waterfall" />
		<tag k="ssr:stedsnr" v="265512" />
	</node>
	<node id="-26398" lat="59.86011389" lon="10.4992749996">
		<tag k="amenity" v="school" />
		<tag k="name" v="Landøya skole" />
		<tag k="ssr:stedsnr" v="265509" />
	</node>
	<node id="-26397" lat="59.8580805568" lon="10.5187750044">
		<tag k="man_made" v="quay" />
		<tag k="name" v="Søndre brygge" />
		<tag k="place" v="locality" />
		<tag k="ssr:stedsnr" v="265501" />
	</node>
	<node id="-26396" lat="59.8709888862" lon="10.530905557">
		<tag k="fixme" v="consider natural=peak for the most distinct mountains in the district" />
		<tag k="name" v="Borgen" />
		<tag k="natural" v="hill" />
		<tag k="place" v="locality" />
		<tag k="ssr:stedsnr" v="265500" />
	</node>
	<node id="-26395" lat="59.7936944446" lon="10.4898333407">
		<tag k="name" v="Deledammen" />
		<tag k="natural" v="water" />
		<tag k="ssr:stedsnr" v="264749" />
	</node>
	<node id="-26394" lat="59.7981055519" lon="10.4450888896">
		<tag k="fixme" v="consider place=suburb, village or hamlet" />
		<tag k="name" v="Trollstein" />
		<tag k="place" v="quarter" />
		<tag k="ssr:stedsnr" v="264743" />
	</node>
	<node id="-26393" lat="59.7859138882" lon="10.4488805561">
		<tag k="name" v="Nyhus" />
		<tag k="place" v="farm" />
		<tag k="ssr:stedsnr" v="264738" />
	</node>
	<node id="-26392" lat="59.7841416634" lon="10.4346138838">
		<tag k="name" v="Kistefossdammen" />
		<tag k="natural" v="water" />
		<tag k="ssr:stedsnr" v="264736" />
	</node>
	<node id="-26391" lat="59.7793722265" lon="10.4328583323">
		<tag k="fixme" v="consider natural=peak for the most distinct mountains in the district" />
		<tag k="name" v="Åmotåsen" />
		<tag k="natural" v="hill" />
		<tag k="place" v="locality" />
		<tag k="ssr:stedsnr" v="264731" />
	</node>
	<node id="-26390" lat="59.8070416654" lon="10.4443583348">
		<tag k="name" v="Eidbråten" />
		<tag k="place" v="farm" />
		<tag k="ssr:stedsnr" v="264713" />
	</node>
	<node id="-26389" lat="59.8073000041" lon="10.4388694452">
		<tag k="name" v="Kodalen" />
		<tag k="place" v="farm" />
		<tag k="ssr:stedsnr" v="264711" />
	</node>
	<node id="-26388" lat="59.8831416655" lon="10.3726361144">
		<tag k="name" v="Lushattdalen" />
		<tag k="natural" v="valley" />
		<tag k="place" v="locality" />
		<tag k="ssr:stedsnr" v="247833" />
	</node>
	<node id="-26387" lat="59.8610138855" lon="10.5180277769">
		<tag k="name" v="Sververen" />
		<tag k="place" v="village" />
		<tag k="ssr:stedsnr" v="247800" />
	</node>
	<node id="-26386" lat="59.867550877" lon="10.5271912469">
		<tag k="alt_name" v="Nesøytjern" />
		<tag k="name" v="Nesøytjernet" />
		<tag k="natural" v="water" />
		<tag k="ssr:stedsnr" v="247799" />
	</node>
	<node id="-26385" lat="59.8574305558" lon="10.5336972253">
		<tag k="name" v="Vendelsund" />
		<tag k="place" v="farm" />
		<tag k="ssr:stedsnr" v="247788" />
	</node>
	<node id="-26384" lat="59.8461527795" lon="10.4772944452">
		<tag k="name" v="Reistad" />
		<tag k="place" v="farm" />
		<tag k="ssr:stedsnr" v="247776" />
	</node>
	<node id="-26383" lat="59.8481277771" lon="10.4968888884">
		<tag k="alt_name" v="Devikodden" />
		<tag k="name" v="Odden" />
		<tag k="natural" v="cape" />
		<tag k="ssr:stedsnr" v="247772" />
	</node>
	<node id="-26382" lat="59.8450706986" lon="10.4151907322">
		<tag k="alt_name" v="Hanevollgårdene" />
		<tag k="name" v="Haneval" />
		<tag k="place" v="hamlet" />
		<tag k="ssr:stedsnr" v="247771" />
	</node>
	<node id="-26381" lat="59.8431611081" lon="10.4853749912">
		<tag k="name" v="Hval" />
		<tag k="place" v="farm" />
		<tag k="ssr:stedsnr" v="247762" />
	</node>
	<node id="-26380" lat="59.8394388879" lon="10.4369333333">
		<tag k="alt_name" v="Askergårdene" />
		<tag k="name" v="Asker" />
		<tag k="place" v="farm" />
		<tag k="ssr:stedsnr" v="247753" />
	</node>
	<node id="-26379" lat="59.8221874334" lon="10.4868767747">
		<tag k="fixme" v="consider seamark:type=rock or natural=shoal" />
		<tag k="name" v="Rogneskjær" />
		<tag k="place" v="islet" />
		<tag k="ssr:stedsnr" v="247737" />
	</node>
	<node id="-26378" lat="59.8224000034" lon="10.4269055508">
		<tag k="name" v="Rønningen" />
		<tag k="place" v="farm" />
		<tag k="ssr:stedsnr" v="247724" />
	</node>
	<node id="-26377" lat="59.8292500035" lon="10.4525499979">
		<tag k="alt_name" v="Bleiker, øvre" />
		<tag k="name" v="Øvre Bleiker" />
		<tag k="place" v="farm" />
		<tag k="ssr:stedsnr" v="247715" />
	</node>
	<node id="-26376" lat="59.8068500022" lon="10.4096444515">
		<tag k="alt_name" v="Haugergårdene" />
		<tag k="name" v="Hauger" />
		<tag k="place" v="farm" />
		<tag k="ssr:stedsnr" v="247685" />
	</node>
	<node id="-26375" lat="59.806366666" lon="10.3670777806">
		<tag k="name" v="Verkensvannet" />
		<tag k="natural" v="water" />
		<tag k="ssr:stedsnr" v="247668" />
	</node>
	<node id="-26374" lat="59.8787271701" lon="10.5143626507">
		<tag k="alt_name" v="Slependen" />
		<tag k="name" v="Slependrenna" />
		<tag k="natural" v="strait" />
		<tag k="ssr:stedsnr" v="246822" />
	</node>
	<node id="-26373" lat="59.876061114" lon="10.3740249967">
		<tag k="name" v="Vestmarka" />
		<tag k="natural" v="wood" />
		<tag k="ssr:stedsnr" v="246804" />
	</node>
	<node id="-26372" lat="59.8662750035" lon="10.4100749925">
		<tag k="name" v="Mobråtan" />
		<tag k="place" v="isolated_dwelling" />
		<tag k="ssr:stedsnr" v="246786" />
	</node>
	<node id="-26370" lat="59.8175916699" lon="10.439652773">
		<tag k="bridge" v="yes" />
		<tag k="layer" v="1" />
		<tag k="name" v="Bondi" />
		<tag k="ssr:stedsnr" v="228099" />
	</node>
	<node id="-26369" lat="59.8140583332" lon="10.4459388818">
		<tag k="bridge" v="yes" />
		<tag k="layer" v="1" />
		<tag k="name" v="Gullhella" />
		<tag k="ssr:stedsnr" v="228090" />
	</node>
	<node id="-26368" lat="59.8323083302" lon="10.4405833418">
		<tag k="bridge" v="yes" />
		<tag k="layer" v="1" />
		<tag k="name" v="Risenga" />
		<tag k="ssr:stedsnr" v="228082" />
	</node>
	<node id="-26367" lat="59.8248472261" lon="10.3783361167">
		<tag k="bridge" v="yes" />
		<tag k="layer" v="1" />
		<tag k="name" v="Liahagen" />
		<tag k="ssr:stedsnr" v="228080" />
	</node>
	<node id="-26366" lat="59.8746861107" lon="10.5026944452">
		<tag k="bridge" v="yes" />
		<tag k="layer" v="1" />
		<tag k="name" v="Nesøyvegen" />
		<tag k="ssr:stedsnr" v="228081" />
	</node>
	<node id="-26365" lat="59.833050001" lon="10.4310666656">
		<tag k="bridge" v="yes" />
		<tag k="layer" v="1" />
		<tag k="name" v="Lenken" />
		<tag k="ssr:stedsnr" v="228078" />
	</node>
	<node id="-26364" lat="59.8190638931" lon="10.4645055641">
		<tag k="bridge" v="yes" />
		<tag k="layer" v="1" />
		<tag k="name" v="Åby" />
		<tag k="ssr:stedsnr" v="228072" />
	</node>
	<node id="-26363" lat="59.7934027765" lon="10.3949055471">
		<tag k="name" v="Geitmyra" />
		<tag k="natural" v="wetland" />
		<tag k="ssr:stedsnr" v="208963" />
	</node>
	<node id="-26362" lat="59.8538916644" lon="10.551247218">
		<tag k="name" v="Nordre Langåra" />
		<tag k="natural" v="cape" />
		<tag k="ssr:stedsnr" v="206425" />
	</node>
	<node id="-26361" lat="59.817022221" lon="10.392677784">
		<tag k="name" v="Lille Oppsjø" />
		<tag k="natural" v="water" />
		<tag k="ssr:stedsnr" v="205708" />
	</node>
	<node id="-26360" lat="59.8189583323" lon="10.4065777785">
		<tag k="name" v="Åsløkka" />
		<tag k="place" v="locality" />
		<tag k="ssr:stedsnr" v="205704" />
	</node>
	<node id="-26359" lat="59.817630558" lon="10.4224555502">
		<tag k="fixme" v="consider natural=peak for the most distinct mountains in the district" />
		<tag k="name" v="Gjøkhaugen" />
		<tag k="natural" v="hill" />
		<tag k="place" v="locality" />
		<tag k="ssr:stedsnr" v="205700" />
	</node>
	<node id="-26358" lat="59.8461277736" lon="10.4381111069">
		<tag k="name" v="Prinsehaugen" />
		<tag k="natural" v="hill" />
		<tag k="place" v="locality" />
		<tag k="ssr:stedsnr" v="205696" />
	</node>
	<node id="-26357" lat="59.8347594687" lon="10.4645427437">
		<tag k="name" v="Bårdsruddammen" />
		<tag k="natural" v="water" />
		<tag k="old_name" v="Baarsruddammen" />
		<tag k="ssr:stedsnr" v="205685" />
	</node>
	<node id="-26356" lat="59.8322694399" lon="10.3913500073">
		<tag k="name" v="Brendsrudvannet" />
		<tag k="natural" v="water" />
		<tag k="ssr:stedsnr" v="205675" />
	</node>
	<node id="-26355" lat="59.8323166649" lon="10.4267833293">
		<tag k="name" v="Hagaløkka" />
		<tag k="place" v="quarter" />
		<tag k="ssr:stedsnr" v="205674" />
	</node>
	<node id="-26354" lat="59.8504194454" lon="10.4461722232">
		<tag k="name" v="Fjelken" />
		<tag k="place" v="farm" />
		<tag k="ssr:stedsnr" v="205671" />
	</node>
	<node id="-26353" lat="59.8512083367" lon="10.4546944401">
		<tag k="name" v="Brusetkollen" />
		<tag k="natural" v="hill" />
		<tag k="place" v="locality" />
		<tag k="ssr:stedsnr" v="205667" />
	</node>
	<node id="-26352" lat="59.850383331" lon="10.459447225">
		<tag k="name" v="Leikarvollen" />
		<tag k="place" v="locality" />
		<tag k="ssr:stedsnr" v="205665" />
	</node>
	<node id="-26351" lat="59.8403555523" lon="10.5134055522">
		<tag k="name" v="Østbukta" />
		<tag k="natural" v="bay" />
		<tag k="ssr:stedsnr" v="205579" />
	</node>
	<node id="-26350" lat="59.8026472218" lon="10.4966111168">
		<tag k="fixme" v="multiple name tags, choose one and add the other to alt_name" />
		<tag k="name" v="Arnestadbukta;Hagabukta" />
		<tag k="natural" v="bay" />
		<tag k="ssr:stedsnr" v="205571" />
	</node>
	<node id="-26349" lat="59.8711555599" lon="10.4747777709">
		<tag k="name" v="Åstadlia" />
		<tag k="natural" v="slope" />
		<tag k="place" v="locality" />
		<tag k="ssr:stedsnr" v="205563" />
	</node>
	<node id="-26348" lat="59.8548833362" lon="10.3964055601">
		<tag k="name" v="Almedalen" />
		<tag k="natural" v="valley" />
		<tag k="place" v="locality" />
		<tag k="ssr:stedsnr" v="205556" />
	</node>
	<node id="-26347" lat="59.8653666649" lon="10.4187944446">
		<tag k="name" v="Hajumskleiva" />
		<tag k="natural" v="slope" />
		<tag k="place" v="locality" />
		<tag k="ssr:stedsnr" v="205553" />
	</node>
	<node id="-26346" lat="59.8540777777" lon="10.4201638947">
		<tag k="name" v="Høveldammen" />
		<tag k="natural" v="water" />
		<tag k="ssr:stedsnr" v="205552" />
	</node>
	<node id="-26345" lat="59.8257361111" lon="10.4691777853">
		<tag k="amenity" v="school" />
		<tag k="name" v="Vettre skole" />
		<tag k="ssr:stedsnr" v="205604" />
	</node>
	<node id="-26344" lat="59.8005222242" lon="10.3883527752">
		<tag k="name" v="Holstein" />
		<tag k="place" v="farm" />
		<tag k="ssr:stedsnr" v="204695" />
	</node>
	<node id="-26343" lat="59.8098166697" lon="10.4865666725">
		<tag k="fixme" v="consider seamark:type=rock or natural=shoal" />
		<tag k="name" v="Skjæret" />
		<tag k="place" v="islet" />
		<tag k="ssr:stedsnr" v="204689" />
	</node>
	<node id="-26342" lat="59.8855583303" lon="10.3544944441">
		<tag k="name" v="Korpåsmyra" />
		<tag k="natural" v="wetland" />
		<tag k="ssr:stedsnr" v="204674" />
	</node>
	<node id="-26341" lat="59.8335229234" lon="10.4012641093">
		<tag k="name" v="Hogstadvannet" />
		<tag k="natural" v="water" />
		<tag k="ssr:stedsnr" v="187734" />
	</node>
	<node id="-26340" lat="59.8204055562" lon="10.4642055603">
		<tag k="name" v="Åby" />
		<tag k="place" v="farm" />
		<tag k="ssr:stedsnr" v="187700" />
	</node>
	<node id="-26339" lat="59.8135111081" lon="10.4144222208">
		<tag k="fixme" v="consider natural=peak for the most distinct mountains in the district" />
		<tag k="name" v="Vardåsen" />
		<tag k="natural" v="hill" />
		<tag k="place" v="locality" />
		<tag k="ssr:stedsnr" v="187494" />
	</node>
	<node id="-26338" lat="59.8510027823" lon="10.4946805519">
		<tag k="name" v="Solheim" />
		<tag k="place" v="isolated_dwelling" />
		<tag k="ssr:stedsnr" v="186799" />
	</node>
	<node id="-26337" lat="59.849188888" lon="10.4240000078">
		<tag k="name" v="Vøyen" />
		<tag k="place" v="farm" />
		<tag k="ssr:stedsnr" v="186795" />
	</node>
	<node id="-26336" lat="59.8433240142" lon="10.4363096175">
		<tag k="alt_name" v="Asker" />
		<tag k="amenity" v="place_of_worship" />
		<tag k="denomination" v="lutheran" />
		<tag k="name" v="Asker kirke" />
		<tag k="religion" v="christian" />
		<tag k="ssr:stedsnr" v="186793" />
	</node>
	<node id="-26335" lat="59.7920027765" lon="10.4619250077">
		<tag k="alt_name" v="Yggesetgårdene" />
		<tag k="name" v="Yggeset" />
		<tag k="place" v="farm" />
		<tag k="ssr:stedsnr" v="186744" />
	</node>
	<node id="-26334" lat="59.7975138878" lon="10.4916499922">
		<tag k="name" v="Sjøstrand" />
		<tag k="place" v="village" />
		<tag k="ssr:stedsnr" v="186740" />
	</node>
	<node id="-26333" lat="59.805716671" lon="10.3805250011">
		<tag k="name" v="Dikemark" />
		<tag k="place" v="village" />
		<tag k="ssr:stedsnr" v="186729" />
	</node>
	<node id="-26332" lat="59.8660519161" lon="10.5556464241">
		<tag k="alt_name" v="Ostsund, store;Store Ostsund" />
		<tag k="name" v="Store Ostsundet" />
		<tag k="natural" v="strait" />
		<tag k="ssr:stedsnr" v="186828" />
	</node>
	<node id="-26331" lat="59.8426361152" lon="10.4793500031">
		<tag k="name" v="Haga" />
		<tag k="place" v="farm" />
		<tag k="ssr:stedsnr" v="186802" />
	</node>
	<node id="-26330" lat="59.785652777" lon="10.468722225">
		<tag k="name" v="Torp" />
		<tag k="place" v="farm" />
		<tag k="ssr:stedsnr" v="186699" />
	</node>
	<node id="-26329" lat="59.7848911485" lon="10.3873103311">
		<tag k="name" v="Verkensmåsan" />
		<tag k="natural" v="wetland" />
		<tag k="old_name" v="Verkensmosen" />
		<tag k="ssr:stedsnr" v="186694" />
	</node>
	<node id="-26328" lat="59.871511328" lon="10.3903363578">
		<tag k="historic" v="shieling" />
		<tag k="name" v="Tveitersetra" />
		<tag k="place" v="locality" />
		<tag k="ssr:stedsnr" v="185814" />
	</node>
	<node id="-26327" lat="59.8616163641" lon="10.3650589844">
		<tag k="alt_name" v="Sandungen, lille" />
		<tag k="name" v="Lille Sandungen" />
		<tag k="natural" v="water" />
		<tag k="ssr:stedsnr" v="185798" />
		<tag k="water" v="lake" />
	</node>
	<node id="-26326" lat="59.8182361087" lon="10.4786666701">
		<tag k="name" v="Vadhusleira" />
		<tag k="natural" v="shoal" />
		<tag k="place" v="locality" />
		<tag k="ssr:stedsnr" v="178909" />
	</node>
	<node id="-26324" lat="59.8395611141" lon="10.4305305636">
		<tag k="bridge" v="yes" />
		<tag k="layer" v="1" />
		<tag k="name" v="Rabbe" />
		<tag k="ssr:stedsnr" v="167073" />
	</node>
	<node id="-26323" lat="59.8328277764" lon="10.421841668">
		<tag k="bridge" v="yes" />
		<tag k="layer" v="1" />
		<tag k="name" v="Oreholt øst" />
		<tag k="ssr:stedsnr" v="167071" />
	</node>
	<node id="-26322" lat="59.8069805544" lon="10.5161388931">
		<tag k="name" v="Moen" />
		<tag k="natural" v="shoal" />
		<tag k="place" v="locality" />
		<tag k="ssr:stedsnr" v="145530" />
	</node>
	<node id="-26321" lat="59.8583748538" lon="10.5545176199">
		<tag k="name" v="Viern" />
		<tag k="natural" v="bay" />
		<tag k="ssr:stedsnr" v="145451" />
	</node>
	<node id="-26320" lat="59.8427749975" lon="10.4522833405">
		<tag k="name" v="Øvre Høn" />
		<tag k="place" v="farm" />
		<tag k="ssr:stedsnr" v="144678" />
	</node>
	<node id="-26319" lat="59.8559527804" lon="10.4322083381">
		<tag k="amenity" v="school" />
		<tag k="name" v="N L H Sem" />
		<tag k="ssr:stedsnr" v="144633" />
	</node>
	<node id="-26318" lat="59.8833833289" lon="10.4509555589">
		<tag k="fixme" v="consider natural=peak for the most distinct mountains in the district" />
		<tag k="name" v="Eikhaugen" />
		<tag k="natural" v="hill" />
		<tag k="place" v="locality" />
		<tag k="ssr:stedsnr" v="144629" />
	</node>
	<node id="-26317" lat="59.8512333365" lon="10.5253638811">
		<tag k="name" v="Katterompa" />
		<tag k="place" v="islet" />
		<tag k="ssr:stedsnr" v="144549" />
	</node>
	<node id="-26316" lat="59.791802777" lon="10.4913055629">
		<tag k="name" v="Stupeng" />
		<tag k="place" v="farm" />
		<tag k="ssr:stedsnr" v="144547" />
	</node>
	<node id="-26315" lat="59.854336109" lon="10.4519583255">
		<tag k="name" v="Bråtan" />
		<tag k="place" v="isolated_dwelling" />
		<tag k="ssr:stedsnr" v="144531" />
	</node>
	<node id="-26314" lat="59.8575972237" lon="10.4532861147">
		<tag k="fixme" v="consider natural=peak for the most distinct mountains in the district" />
		<tag k="name" v="Kloåsen" />
		<tag k="natural" v="hill" />
		<tag k="place" v="locality" />
		<tag k="ssr:stedsnr" v="144528" />
	</node>
	<node id="-26313" lat="59.779813886" lon="10.4263722139">
		<tag k="name" v="Haugen" />
		<tag k="place" v="farm" />
		<tag k="ssr:stedsnr" v="143716" />
	</node>
	<node id="-26312" lat="59.8669472259" lon="10.3656055645">
		<tag k="name" v="Sirismyr" />
		<tag k="natural" v="wetland" />
		<tag k="ssr:stedsnr" v="143707" />
	</node>
	<node id="-26311" lat="59.8691555565" lon="10.3620638878">
		<tag k="name" v="Junkertangen" />
		<tag k="natural" v="cape" />
		<tag k="ssr:stedsnr" v="143705" />
	</node>
	<node id="-26310" lat="59.8100861091" lon="10.4668222186">
		<tag k="name" v="Østenstaddammen" />
		<tag k="natural" v="water" />
		<tag k="ssr:stedsnr" v="143703" />
	</node>
	<node id="-26309" lat="59.7956027741" lon="10.4141555581">
		<tag k="name" v="Sletthella" />
		<tag k="place" v="locality" />
		<tag k="ssr:stedsnr" v="143699" />
	</node>
	<node id="-26308" lat="59.8266722253" lon="10.3625055586">
		<tag k="name" v="Fingalsmyr" />
		<tag k="place" v="farm" />
		<tag k="ssr:stedsnr" v="143687" />
	</node>
	<node id="-26307" lat="59.8167694409" lon="10.4077583368">
		<tag k="name" v="Langemyr" />
		<tag k="natural" v="wetland" />
		<tag k="ssr:stedsnr" v="143674" />
	</node>
	<node id="-26306" lat="59.8260932304" lon="10.4280571492">
		<tag k="name" v="Kjonebråten" />
		<tag k="place" v="farm" />
		<tag k="ssr:stedsnr" v="143668" />
	</node>
	<node id="-26305" lat="59.8339416706" lon="10.4352499939">
		<tag k="alt_name" v="Asker" />
		<tag k="name" v="Asker stasjon" />
		<tag k="railway" v="station" />
		<tag k="ssr:stedsnr" v="143659" />
		<tag k="train" v="yes" />
	</node>
	<node id="-26304" lat="59.8340055593" lon="10.4808500024">
		<tag k="name" v="Hvitfisken" />
		<tag k="natural" v="beach" />
		<tag k="place" v="locality" />
		<tag k="ssr:stedsnr" v="143650" />
	</node>
	<node id="-26303" lat="59.8368694444" lon="10.415897229">
		<tag k="name" v="Huken" />
		<tag k="place" v="farm" />
		<tag k="ssr:stedsnr" v="143649" />
	</node>
	<node id="-26302" lat="59.8521722201" lon="10.4524222146">
		<tag k="name" v="Labråten" />
		<tag k="place" v="isolated_dwelling" />
		<tag k="ssr:stedsnr" v="143640" />
	</node>
	<node id="-26301" lat="59.8523138863" lon="10.4598416738">
		<tag k="name" v="Vangen" />
		<tag k="place" v="farm" />
		<tag k="ssr:stedsnr" v="143636" />
	</node>
	<node id="-26300" lat="59.8385070857" lon="10.4133095073">
		<tag k="alt_name" v="Vestre Haneval" />
		<tag k="name" v="Øvre Hagen" />
		<tag k="place" v="farm" />
		<tag k="ssr:stedsnr" v="143630" />
	</node>
	<node id="-26299" lat="59.8787555553" lon="10.4021333257">
		<tag k="name" v="Tveitermåsan" />
		<tag k="natural" v="wetland" />
		<tag k="ssr:stedsnr" v="143602" />
	</node>
	<node id="-26298" lat="59.8150555525" lon="10.4519027843">
		<tag k="name" v="Lensmannssvingen" />
		<tag k="place" v="locality" />
		<tag k="ssr:stedsnr" v="143567" />
	</node>
	<node id="-26297" lat="59.8227472262" lon="10.4344416676">
		<tag k="name" v="Bondilia" />
		<tag k="place" v="locality" />
		<tag k="ssr:stedsnr" v="143564" />
	</node>
	<node id="-26296" lat="59.8617767777" lon="10.5067928242">
		<tag k="name" v="Nesbukta" />
		<tag k="natural" v="bay" />
		<tag k="ssr:stedsnr" v="143488" />
	</node>
	<node id="-26295" lat="59.8563333373" lon="10.5257444475">
		<tag k="name" v="Sandbukta" />
		<tag k="natural" v="bay" />
		<tag k="ssr:stedsnr" v="143485" />
	</node>
	<node id="-26294" lat="59.8573416673" lon="10.5400138938">
		<tag k="name" v="Kuhavna" />
		<tag k="place" v="locality" />
		<tag k="ssr:stedsnr" v="143481" />
	</node>
	<node id="-26293" lat="59.8420305523" lon="10.529152772">
		<tag k="fixme" v="consider seamark:type=rock or natural=shoal" />
		<tag k="name" v="Djupalen" />
		<tag k="place" v="islet" />
		<tag k="ssr:stedsnr" v="126741" />
	</node>
	<node id="-26292" lat="59.8260500016" lon="10.4053361048">
		<tag k="name" v="Drengsrud" />
		<tag k="place" v="farm" />
		<tag k="ssr:stedsnr" v="126729" />
	</node>
	<node id="-26291" lat="59.815513886" lon="10.5276361051">
		<tag k="name" v="Knollen" />
		<tag k="natural" v="shoal" />
		<tag k="place" v="locality" />
		<tag k="ssr:stedsnr" v="126714" />
	</node>
	<node id="-26290" lat="59.8222555563" lon="10.3868333316">
		<tag k="name" v="Trollstua" />
		<tag k="place" v="isolated_dwelling" />
		<tag k="ssr:stedsnr" v="126697" />
	</node>
	<node id="-26289" lat="59.8155861095" lon="10.4607555547">
		<tag k="name" v="Blakstad" />
		<tag k="place" v="farm" />
		<tag k="ssr:stedsnr" v="126695" />
	</node>
	<node id="-26288" lat="59.8289859219" lon="10.5081034949">
		<tag k="name" v="Bjerkøya" />
		<tag k="place" v="island" />
		<tag k="ssr:stedsnr" v="126690" />
	</node>
	<node id="-26287" lat="59.8455638922" lon="10.4986194425">
		<tag k="fixme" v="consider seamark:type=rock or natural=shoal" />
		<tag k="name" v="Hvalskjær" />
		<tag k="place" v="islet" />
		<tag k="ssr:stedsnr" v="125796" />
	</node>
	<node id="-26286" lat="59.8462944418" lon="10.4677527821">
		<tag k="alt_name" v="Hofstad" />
		<tag k="name" v="Nordre Hofstad" />
		<tag k="place" v="farm" />
		<tag k="ssr:stedsnr" v="125792" />
	</node>
	<node id="-26285" lat="59.8681083337" lon="10.4122444418">
		<tag k="name" v="Kølabonn" />
		<tag k="place" v="isolated_dwelling" />
		<tag k="ssr:stedsnr" v="125829" />
	</node>
	<node id="-26284" lat="59.8029999969" lon="10.4431361195">
		<tag k="name" v="Eid" />
		<tag k="place" v="farm" />
		<tag k="ssr:stedsnr" v="125714" />
	</node>
	<node id="-26283" lat="59.8032194418" lon="10.3657916588">
		<tag k="alt_name" v="Brenna" />
		<tag k="name" v="Helsing" />
		<tag k="place" v="isolated_dwelling" />
		<tag k="ssr:stedsnr" v="125709" />
	</node>
	<node id="-26282" lat="59.8771250041" lon="10.4405416625">
		<tag k="name" v="Pålsbråtan" />
		<tag k="place" v="isolated_dwelling" />
		<tag k="ssr:stedsnr" v="124800" />
	</node>
	<node id="-26281" lat="59.8750108235" lon="10.4839291444">
		<tag k="alt_name" v="Billingstad" />
		<tag k="name" v="Billingstad stasjon" />
		<tag k="railway" v="station" />
		<tag k="ssr:stedsnr" v="124795" />
		<tag k="train" v="yes" />
	</node>
	<node id="-26280" lat="59.8569277822" lon="10.515752772">
		<tag k="name" v="Trettodden" />
		<tag k="natural" v="cape" />
		<tag k="ssr:stedsnr" v="118573" />
	</node>
	<node id="-26279" lat="59.7920611086" lon="10.5052888839">
		<tag k="name" v="Stabben" />
		<tag k="natural" v="shoal" />
		<tag k="place" v="locality" />
		<tag k="ssr:stedsnr" v="118186" />
	</node>
	<node id="-26278" lat="59.8172805539" lon="10.5193000043">
		<tag k="name" v="Bjerkøygrunnen" />
		<tag k="natural" v="shoal" />
		<tag k="old_name" v="Bjørkøygrunnen" />
		<tag k="place" v="locality" />
		<tag k="ssr:stedsnr" v="117913" />
	</node>
	<node id="-26277" lat="59.833563891" lon="10.4257249974">
		<tag k="bridge" v="yes" />
		<tag k="layer" v="1" />
		<tag k="name" v="Hagaløkka" />
		<tag k="ssr:stedsnr" v="107067" />
	</node>
	<node id="-26276" lat="59.8522194411" lon="10.4787749931">
		<tag k="bridge" v="yes" />
		<tag k="layer" v="1" />
		<tag k="name" v="Ålerud" />
		<tag k="ssr:stedsnr" v="107059" />
	</node>
	<node id="-26274" lat="59.8278055589" lon="10.3984888858">
		<tag k="name" v="Brendsvoll" />
		<tag k="place" v="farm" />
		<tag k="ssr:stedsnr" v="84305" />
	</node>
	<node id="-26273" lat="59.7923916626" lon="10.4894694526">
		<tag k="name" v="Stupengdammen" />
		<tag k="natural" v="water" />
		<tag k="ssr:stedsnr" v="83746" />
	</node>
	<node id="-26272" lat="59.8612638849" lon="10.3486055558">
		<tag k="name" v="Midtskogbonn" />
		<tag k="place" v="locality" />
		<tag k="ssr:stedsnr" v="83734" />
	</node>
	<node id="-26271" lat="59.864530556" lon="10.3361111101">
		<tag k="name" v="Myggheim" />
		<tag k="place" v="isolated_dwelling" />
		<tag k="ssr:stedsnr" v="83728" />
	</node>
	<node id="-26270" lat="59.8037888894" lon="10.3953916706">
		<tag k="name" v="Stampedammen" />
		<tag k="place" v="locality" />
		<tag k="ssr:stedsnr" v="83725" />
	</node>
	<node id="-26269" lat="59.8140361112" lon="10.4820472167">
		<tag k="name" v="Tørkopp" />
		<tag k="natural" v="beach" />
		<tag k="place" v="locality" />
		<tag k="ssr:stedsnr" v="83567" />
	</node>
	<node id="-26268" lat="59.8196555532" lon="10.4495305536">
		<tag k="name" v="Ridderkleiva" />
		<tag k="natural" v="slope" />
		<tag k="place" v="locality" />
		<tag k="ssr:stedsnr" v="83560" />
	</node>
	<node id="-26267" lat="59.8239527818" lon="10.4396194371">
		<tag k="amenity" v="school" />
		<tag k="name" v="Bondi skole" />
		<tag k="ssr:stedsnr" v="83553" />
	</node>
	<node id="-26266" lat="59.8281111143" lon="10.4585527822">
		<tag k="landuse" v="meadow" />
		<tag k="name" v="Langenga" />
		<tag k="ssr:stedsnr" v="83554" />
	</node>
	<node id="-26265" lat="59.816033336" lon="10.4309916691">
		<tag k="name" v="Kullebunn" />
		<tag k="place" v="quarter" />
		<tag k="ssr:stedsnr" v="83552" />
	</node>
	<node id="-26264" lat="59.8719527744" lon="10.4983555564">
		<tag k="name" v="Pustut" />
		<tag k="natural" v="hill" />
		<tag k="place" v="locality" />
		<tag k="ssr:stedsnr" v="83540" />
	</node>
	<node id="-26263" lat="59.8542055541" lon="10.4593999946">
		<tag k="name" v="Kunstnerdalen" />
		<tag k="place" v="quarter" />
		<tag k="ssr:stedsnr" v="83493" />
	</node>
	<node id="-26262" lat="59.8723055599" lon="10.4610055642">
		<tag k="name" v="Bjønnekleiva" />
		<tag k="natural" v="valley" />
		<tag k="place" v="locality" />
		<tag k="ssr:stedsnr" v="83488" />
	</node>
	<node id="-26261" lat="59.8571583378" lon="10.3843027818">
		<tag k="name" v="Breskemyr" />
		<tag k="natural" v="wetland" />
		<tag k="ssr:stedsnr" v="83486" />
	</node>
	<node id="-26260" lat="59.8723833347" lon="10.4339583283">
		<tag k="name" v="Stokkermyra" />
		<tag k="natural" v="wetland" />
		<tag k="ssr:stedsnr" v="83483" />
	</node>
	<node id="-26259" lat="59.8629791975" lon="10.5555727298">
		<tag k="man_made" v="quay" />
		<tag k="name" v="Østre brygge" />
		<tag k="place" v="locality" />
		<tag k="ssr:stedsnr" v="83283" />
	</node>
	<node id="-26258" lat="59.8269361125" lon="10.4248305561">
		<tag k="amenity" v="nursing_home" />
		<tag k="name" v="Søndre Borgen sykehjem" />
		<tag k="ssr:stedsnr" v="83675" />
	</node>
	<node id="-26257" lat="59.8179333377" lon="10.4286722216">
		<tag k="amenity" v="school" />
		<tag k="name" v="Rønningen skole" />
		<tag k="ssr:stedsnr" v="83672" />
	</node>
	<node id="-26256" lat="59.8327027798" lon="10.4474083415">
		<tag k="name" v="Bondibråten" />
		<tag k="place" v="village" />
		<tag k="ssr:stedsnr" v="83661" />
	</node>
	<node id="-26255" lat="59.7798277739" lon="10.4530249939">
		<tag k="name" v="Gjellumbekken" />
		<tag k="ssr:stedsnr" v="83634" />
		<tag k="waterway" v="stream" />
	</node>
	<node id="-26254" lat="59.7803916627" lon="10.4443666688">
		<tag k="name" v="Heggedalsmarka" />
		<tag k="place" v="locality" />
		<tag k="ssr:stedsnr" v="83633" />
	</node>
	<node id="-26253" lat="59.8516277758" lon="10.4096249946">
		<tag k="name" v="Øvre Berg" />
		<tag k="place" v="farm" />
		<tag k="ssr:stedsnr" v="83631" />
	</node>
	<node id="-26252" lat="59.850722224" lon="10.429577785">
		<tag k="name" v="Høyklopp" />
		<tag k="place" v="isolated_dwelling" />
		<tag k="ssr:stedsnr" v="83624" />
	</node>
	<node id="-26251" lat="59.8147361136" lon="10.3597833399">
		<tag k="name" v="Engelsrudmyra" />
		<tag k="natural" v="wetland" />
		<tag k="ssr:stedsnr" v="82689" />
	</node>
	<node id="-26250" lat="59.8030277769" lon="10.5040750062">
		<tag k="name" v="Elnestangen" />
		<tag k="natural" v="cape" />
		<tag k="ssr:stedsnr" v="82620" />
	</node>
	<node id="-26248" lat="59.8145833351" lon="10.368733326">
		<tag k="name" v="Nordvannet" />
		<tag k="natural" v="water" />
		<tag k="ssr:stedsnr" v="66738" />
	</node>
	<node id="-26247" lat="59.8144055556" lon="10.4331083376">
		<tag k="name" v="Borgen" />
		<tag k="place" v="isolated_dwelling" />
		<tag k="ssr:stedsnr" v="66733" />
	</node>
	<node id="-26246" lat="59.8381633509" lon="10.4619404267">
		<tag k="name" v="Båstad" />
		<tag k="place" v="hamlet" />
		<tag k="ssr:stedsnr" v="65772" />
	</node>
	<node id="-26245" lat="59.8305666583" lon="10.3960253481">
		<tag k="alt_name" v="Brendsrudgårdene;Brendsrud" />
		<tag k="fixme" v="consider place=hamlet" />
		<tag k="name" v="Brennsrud" />
		<tag k="place" v="farm" />
		<tag k="ssr:stedsnr" v="65769" />
	</node>
	<node id="-26244" lat="59.8305916656" lon="10.4268527792">
		<tag k="name" v="Borgen" />
		<tag k="place" v="farm" />
		<tag k="ssr:stedsnr" v="65765" />
	</node>
	<node id="-26243" lat="59.8309194464" lon="10.3594666716">
		<tag k="name" v="Jerpåsen" />
		<tag k="place" v="farm" />
		<tag k="ssr:stedsnr" v="65761" />
	</node>
	<node id="-26242" lat="59.7916500002" lon="10.459983325">
		<tag k="name" v="Gjellum" />
		<tag k="place" v="farm" />
		<tag k="ssr:stedsnr" v="65711" />
	</node>
	<node id="-26241" lat="59.7992583343" lon="10.4270749945">
		<tag k="name" v="Verkenselva" />
		<tag k="ssr:stedsnr" v="65693" />
		<tag k="waterway" v="stream" />
	</node>
	<node id="-26240" lat="59.8755249986" lon="10.4329333257">
		<tag k="fixme" v="consider natural=peak for the most distinct mountains in the district" />
		<tag k="name" v="Furuåsen" />
		<tag k="natural" v="hill" />
		<tag k="place" v="locality" />
		<tag k="ssr:stedsnr" v="65511" />
	</node>
	<node id="-26239" lat="59.8718194411" lon="10.4901861159">
		<tag k="alt_name" v="Holmen" />
		<tag k="amenity" v="place_of_worship" />
		<tag k="denomination" v="lutheran" />
		<tag k="name" v="Holmen kirke" />
		<tag k="religion" v="christian" />
		<tag k="ssr:stedsnr" v="64843" />
	</node>
	<node id="-26238" lat="59.8702027746" lon="10.5289138806">
		<tag k="name" v="Nesøya" />
		<tag k="place" v="farm" />
		<tag k="ssr:stedsnr" v="64837" />
	</node>
	<node id="-26237" lat="59.8019861072" lon="10.4950222164">
		<tag k="name" v="Sjødal" />
		<tag k="place" v="isolated_dwelling" />
		<tag k="ssr:stedsnr" v="58244" />
	</node>
	<node id="-26236" lat="59.8330138862" lon="10.4393972194">
		<tag k="bridge" v="yes" />
		<tag k="layer" v="1" />
		<tag k="name" v="Bleikervegen" />
		<tag k="ssr:stedsnr" v="46098" />
	</node>
	<node id="-26235" lat="59.8516444426" lon="10.4216666673">
		<tag k="bridge" v="yes" />
		<tag k="layer" v="1" />
		<tag k="name" v="Sem" />
		<tag k="ssr:stedsnr" v="46074" />
	</node>
	<node id="-26234" lat="59.7875944437" lon="10.5093277732">
		<tag k="name" v="Slemmestadgrunnen" />
		<tag k="natural" v="shoal" />
		<tag k="place" v="locality" />
		<tag k="ssr:stedsnr" v="24599" />
	</node>
	<node id="-26233" lat="59.8320861111" lon="10.4968000037">
		<tag k="name" v="Spireodden" />
		<tag k="natural" v="cape" />
		<tag k="ssr:stedsnr" v="24455" />
	</node>
	<node id="-26232" lat="59.8245694471" lon="10.4189777735">
		<tag k="name" v="Borgenbråten" />
		<tag k="place" v="quarter" />
		<tag k="ssr:stedsnr" v="23698" />
	</node>
	<node id="-26231" lat="59.8268027747" lon="10.4461194435">
		<tag k="amenity" v="school" />
		<tag k="name" v="Bleiker v.g. skole" />
		<tag k="ssr:stedsnr" v="23689" />
	</node>
	<node id="-26230" lat="59.8421638935" lon="10.4350749924">
		<tag k="name" v="Askertun" />
		<tag k="place" v="locality" />
		<tag k="ssr:stedsnr" v="23686" />
	</node>
	<node id="-26229" lat="59.8373361068" lon="10.4359388907">
		<tag k="amenity" v="townhall" />
		<tag k="name" v="Asker rådhus" />
		<tag k="ssr:stedsnr" v="23684" />
	</node>
	<node id="-26228" lat="59.8399416678" lon="10.4167249937">
		<tag k="name" v="Solvangbakkene" />
		<tag k="natural" v="slope" />
		<tag k="place" v="locality" />
		<tag k="ssr:stedsnr" v="23670" />
	</node>
	<node id="-26227" lat="59.8479111069" lon="10.4404861033">
		<tag k="name" v="Vogeliusstøtten" />
		<tag k="ssr:stedsnr" v="23660" />
		<tag k="tourism" v="attraction" />
	</node>
	<node id="-26226" lat="59.8533361133" lon="10.4549444378">
		<tag k="name" v="Asker museum" />
		<tag k="ssr:stedsnr" v="23659" />
		<tag k="tourism" v="museum" />
	</node>
	<node id="-26225" lat="59.8111944408" lon="10.4782361181">
		<tag k="fixme" v="consider natural=peak for the most distinct mountains in the district" />
		<tag k="name" v="Kojaåsen" />
		<tag k="natural" v="hill" />
		<tag k="place" v="locality" />
		<tag k="ssr:stedsnr" v="23615" />
	</node>
	<node id="-26224" lat="59.8128722185" lon="10.4826944482">
		<tag k="name" v="Rønningen" />
		<tag k="place" v="locality" />
		<tag k="ssr:stedsnr" v="23613" />
	</node>
	<node id="-26223" lat="59.8149166704" lon="10.4588361151">
		<tag k="name" v="Munkedammen" />
		<tag k="natural" v="water" />
		<tag k="ssr:stedsnr" v="23611" />
	</node>
	<node id="-26222" lat="59.8293083353" lon="10.4694027822">
		<tag k="landuse" v="meadow" />
		<tag k="name" v="Langenga" />
		<tag k="ssr:stedsnr" v="23605" />
	</node>
	<node id="-26221" lat="59.8303638912" lon="10.4669861161">
		<tag k="name" v="Hvile" />
		<tag k="place" v="locality" />
		<tag k="ssr:stedsnr" v="23603" />
	</node>
	<node id="-26220" lat="59.8024222199" lon="10.481525002">
		<tag k="name" v="Øgården" />
		<tag k="place" v="farm" />
		<tag k="ssr:stedsnr" v="22731" />
	</node>
	<node id="-26219" lat="59.788622219" lon="10.485416675">
		<tag k="name" v="Sibiriedammen" />
		<tag k="natural" v="water" />
		<tag k="ssr:stedsnr" v="22723" />
	</node>
	<node id="-26218" lat="59.8023833329" lon="10.3860694445">
		<tag k="name" v="Kvennhaugen" />
		<tag k="place" v="locality" />
		<tag k="ssr:stedsnr" v="22714" />
	</node>
	<node id="-26217" lat="59.837366671" lon="10.367205564">
		<tag k="name" v="Langemyr" />
		<tag k="natural" v="wetland" />
		<tag k="ssr:stedsnr" v="22707" />
	</node>
	<node id="-26216" lat="59.8105555522" lon="10.3637500004">
		<tag k="name" v="Skrangla" />
		<tag k="place" v="farm" />
		<tag k="ssr:stedsnr" v="22694" />
	</node>
	<node id="-26215" lat="59.8419555517" lon="10.3777861194">
		<tag k="name" v="Gjertrudsen" />
		<tag k="natural" v="water" />
		<tag k="ssr:stedsnr" v="22621" />
	</node>
	<node id="-26214" lat="59.8142027821" lon="10.3789277743">
		<tag k="alt_name" v="Vardåsen sykehus" />
		<tag k="name" v="Vardåsen" />
		<tag k="place" v="isolated_dwelling" />
		<tag k="ssr:stedsnr" v="5738" />
	</node>
	<node id="-26213" lat="59.8174333377" lon="10.4858305635">
		<tag k="alt_name" v="Odden" />
		<tag k="name" v="Østenstadodden" />
		<tag k="natural" v="cape" />
		<tag k="ssr:stedsnr" v="5728" />
	</node>
	<node id="-26212" lat="59.8540166673" lon="10.3466027737">
		<tag k="name" v="Vestlia" />
		<tag k="place" v="isolated_dwelling" />
		<tag k="ssr:stedsnr" v="4826" />
	</node>
	<node id="-26211" lat="59.8525000043" lon="10.4964277843">
		<tag k="name" v="Furunes" />
		<tag k="place" v="isolated_dwelling" />
		<tag k="ssr:stedsnr" v="4820" />
	</node>
	<node id="-26210" lat="59.8426250001" lon="10.4906111106">
		<tag k="name" v="Hvalstrand" />
		<tag k="place" v="isolated_dwelling" />
		<tag k="ssr:stedsnr" v="4797" />
	</node>
	<node id="-26209" lat="59.8499641742" lon="10.4673008477">
		<tag k="alt_name" v="Vakås" />
		<tag k="name" v="Vakås stasjon" />
		<tag k="railway" v="station" />
		<tag k="ssr:stedsnr" v="4791" />
		<tag k="train" v="yes" />
	</node>
	<node id="-26208" lat="59.790225001" lon="10.4264750036">
		<tag k="name" v="Sætre" />
		<tag k="place" v="isolated_dwelling" />
		<tag k="ssr:stedsnr" v="4726" />
	</node>
	<node id="-26207" lat="59.8033388904" lon="10.4888444366">
		<tag k="name" v="Arnestad" />
		<tag k="place" v="farm" />
		<tag k="ssr:stedsnr" v="4720" />
	</node>
	<node id="-26206" lat="59.8008666644" lon="10.3984472212">
		<tag k="name" v="Strømnes" />
		<tag k="place" v="farm" />
		<tag k="ssr:stedsnr" v="4708" />
	</node>
	<node id="-26205" lat="59.7986353286" lon="10.4734023683">
		<tag k="name" v="Linlandet" />
		<tag k="place" v="farm" />
		<tag k="ssr:stedsnr" v="4707" />
	</node>
	<node id="-26204" lat="59.8070249985" lon="10.3572777782">
		<tag k="alt_name" v="Påverud, nordre;Poverud" />
		<tag k="name" v="Nordre Påverud" />
		<tag k="place" v="farm" />
		<tag k="ssr:stedsnr" v="4693" />
	</node>
	<node id="-26203" lat="59.7850500004" lon="10.3751999997">
		<tag k="alt_name" v="Småtjerna;Småvannene" />
		<tag k="name" v="Småvann" />
		<tag k="natural" v="water" />
		<tag k="ssr:stedsnr" v="4667" />
	</node>
	<node id="-26202" lat="59.864605553" lon="10.4725944379">
		<tag k="name" v="Berger" />
		<tag k="place" v="farm" />
		<tag k="ssr:stedsnr" v="3801" />
	</node>
	<node id="-26201" lat="59.8640499989" lon="10.4286361099">
		<tag k="name" v="Tømmervika" />
		<tag k="place" v="isolated_dwelling" />
		<tag k="ssr:stedsnr" v="3797" />
	</node>
	<node id="-26200" lat="59.7981277762" lon="10.5149888814">
		<tag k="name" v="Torsgrunnen" />
		<tag k="natural" v="shoal" />
		<tag k="place" v="locality" />
		<tag k="ssr:stedsnr" v="267562" />
	</node>
	<node id="-26195" lat="59.8260209414" lon="10.4134755615">
		<tag k="amenity" v="place_of_worship" />
		<tag k="denomination" v="lutheran" />
		<tag k="name" v="Vardåsen kirke" />
		<tag k="religion" v="christian" />
		<tag k="ssr:stedsnr" v="991001" />
	</node>
	<node id="-26194" lat="59.7959100868" lon="10.4771776333">
		<tag k="name" v="Åsaker" />
		<tag k="place" v="farm" />
		<tag k="ssr:stedsnr" v="988667" />
	</node>
	<node id="-26193" lat="59.8496007374" lon="10.3814109593">
		<tag k="fixme" v="consider boundary=protected_area and relevant protect_class if not nature reserve" />
		<tag k="leisure" v="nature_reserve" />
		<tag k="name" v="Furuåsen og Hagahogget naturreservat" />
		<tag k="ssr:stedsnr" v="987919" />
	</node>
	<node id="-26178" lat="59.828947223" lon="10.4060277754">
		<tag k="bridge" v="yes" />
		<tag k="layer" v="1" />
		<tag k="name" v="Drengsrud" />
		<tag k="ssr:stedsnr" v="896085" />
	</node>
	<node id="-26177" lat="59.8012611068" lon="10.4185916587">
		<tag k="bridge" v="yes" />
		<tag k="layer" v="1" />
		<tag k="name" v="Bråta" />
		<tag k="ssr:stedsnr" v="896086" />
	</node>
	<node id="-26176" lat="59.8248055555" lon="10.3679805634">
		<tag k="bridge" v="yes" />
		<tag k="layer" v="1" />
		<tag k="name" v="Vekta" />
		<tag k="ssr:stedsnr" v="896073" />
	</node>
	<node id="-26175" lat="59.8072027765" lon="10.4856861199">
		<tag k="bridge" v="yes" />
		<tag k="layer" v="1" />
		<tag k="name" v="Vollen" />
		<tag k="ssr:stedsnr" v="896061" />
	</node>
	<node id="-26174" lat="59.874894445" lon="10.3770527829">
		<tag k="alt_name" v="Nordre Rustan;N. Rustan" />
		<tag k="name" v="Nordre Rustaden" />
		<tag k="place" v="farm" />
		<tag k="ssr:stedsnr" v="889644" />
	</node>
	<node id="-26172" lat="59.8578527766" lon="10.4773472173">
		<tag k="bridge" v="yes" />
		<tag k="layer" v="1" />
		<tag k="name" v="Hvalstad" />
		<tag k="ssr:stedsnr" v="410085" />
	</node>
	<node id="-26171" lat="59.7879222255" lon="10.4342888842">
		<tag k="bridge" v="yes" />
		<tag k="layer" v="1" />
		<tag k="name" v="Gjellumvannet" />
		<tag k="ssr:stedsnr" v="410082" />
	</node>
	<node id="-26170" lat="59.8273444406" lon="10.4369055604">
		<tag k="bridge" v="yes" />
		<tag k="layer" v="1" />
		<tag k="name" v="Fredtun" />
		<tag k="ssr:stedsnr" v="410079" />
	</node>
	<node id="-26169" lat="59.8218416707" lon="10.3875222216">
		<tag k="bridge" v="yes" />
		<tag k="layer" v="1" />
		<tag k="name" v="Trollstua" />
		<tag k="ssr:stedsnr" v="410076" />
	</node>
	<node id="-26168" lat="59.8238111126" lon="10.4665916676">
		<tag k="bridge" v="yes" />
		<tag k="layer" v="1" />
		<tag k="name" v="Vettrelia" />
		<tag k="ssr:stedsnr" v="410057" />
	</node>
	<node id="-26167" lat="59.8087861153" lon="10.5314833366">
		<tag k="name" v="Morragrunnen" />
		<tag k="natural" v="shoal" />
		<tag k="place" v="locality" />
		<tag k="ssr:stedsnr" v="388512" />
	</node>
	<node id="-26166" lat="59.8393250015" lon="10.5127222293">
		<tag k="name" v="Konglungøya" />
		<tag k="place" v="islet" />
		<tag k="ssr:stedsnr" v="388422" />
	</node>
	<node id="-26165" lat="59.8874055518" lon="10.3636166658">
		<tag k="name" v="Djupdalen" />
		<tag k="natural" v="valley" />
		<tag k="place" v="locality" />
		<tag k="ssr:stedsnr" v="386701" />
	</node>
	<node id="-26164" lat="59.8096638874" lon="10.3626361097">
		<tag k="leisure" v="pitch" />
		<tag k="name" v="Dikemark idrettsanlegg" />
		<tag k="ssr:stedsnr" v="386684" />
	</node>
	<node id="-26163" lat="59.8295416701" lon="10.4106694478">
		<tag k="name" v="Drengsrudbekken" />
		<tag k="ssr:stedsnr" v="386672" />
		<tag k="waterway" v="stream" />
	</node>
	<node id="-26162" lat="59.8255472183" lon="10.4348972157">
		<tag k="name" v="Søndre Bondi" />
		<tag k="place" v="farm" />
		<tag k="ssr:stedsnr" v="386661" />
	</node>
	<node id="-26161" lat="59.8256194416" lon="10.4465222182">
		<tag k="amenity" v="sports_centre" />
		<tag k="name" v="Askerhallen" />
		<tag k="ssr:stedsnr" v="386655" />
	</node>
	<node id="-26160" lat="59.8456611084" lon="10.4380972214">
		<tag k="name" v="Asker prestegård (Røren)" />
		<tag k="place" v="farm" />
		<tag k="ssr:stedsnr" v="386653" />
	</node>
	<node id="-26159" lat="59.8531749985" lon="10.4878833386">
		<tag k="name" v="Holmenbakkene" />
		<tag k="natural" v="slope" />
		<tag k="place" v="locality" />
		<tag k="ssr:stedsnr" v="386648" />
	</node>
	<node id="-26158" lat="59.8417722245" lon="10.47738611">
		<tag k="name" v="Hestehagen" />
		<tag k="place" v="locality" />
		<tag k="ssr:stedsnr" v="386646" />
	</node>
	<node id="-26157" lat="59.8530472187" lon="10.4249555511">
		<tag k="name" v="Sem bruk" />
		<tag k="place" v="farm" />
		<tag k="ssr:stedsnr" v="386626" />
	</node>
	<node id="-26156" lat="59.8433250013" lon="10.3911166696">
		<tag k="name" v="Røisland" />
		<tag k="place" v="farm" />
		<tag k="ssr:stedsnr" v="386625" />
	</node>
	<node id="-26155" lat="59.8164333337" lon="10.4576638896">
		<tag k="name" v="Blakstadmarka" />
		<tag k="place" v="locality" />
		<tag k="ssr:stedsnr" v="386565" />
	</node>
	<node id="-26154" lat="59.8194307986" lon="10.4871602087">
		<tag k="fixme" v="consider seamark:type=rock or natural=shoal" />
		<tag k="name" v="Fliene" />
		<tag k="place" v="islet" />
		<tag k="ssr:stedsnr" v="386558" />
	</node>
	<node id="-26153" lat="59.8187222201" lon="10.4536361135">
		<tag k="name" v="Vabråten" />
		<tag k="place" v="locality" />
		<tag k="ssr:stedsnr" v="386557" />
	</node>
	<node id="-26152" lat="59.8210500035" lon="10.4514250049">
		<tag k="fixme" v="consider natural=peak for the most distinct mountains in the district" />
		<tag k="name" v="Kjøiaåsen" />
		<tag k="natural" v="hill" />
		<tag k="place" v="locality" />
		<tag k="ssr:stedsnr" v="386553" />
	</node>
	<node id="-26151" lat="59.8316388921" lon="10.4634111041">
		<tag k="name" v="Leangkollen" />
		<tag k="natural" v="hill" />
		<tag k="place" v="locality" />
		<tag k="ssr:stedsnr" v="386543" />
	</node>
	<node id="-26150" lat="59.8357611136" lon="10.5148805509">
		<tag k="alt_name" v="Einarsgrunn" />
		<tag k="name" v="Einarsgrunnen" />
		<tag k="natural" v="shoal" />
		<tag k="place" v="locality" />
		<tag k="ssr:stedsnr" v="386510" />
	</node>
	<node id="-26149" lat="59.7959388864" lon="10.4359722264">
		<tag k="name" v="Sætrefossen" />
		<tag k="natural" v="waterfall" />
		<tag k="ssr:stedsnr" v="386727" />
	</node>
	<node id="-26148" lat="59.8055916707" lon="10.477063882">
		<tag k="amenity" v="school" />
		<tag k="name" v="Gisle skole" />
		<tag k="ssr:stedsnr" v="386709" />
	</node>
	<node id="-26147" lat="59.8024055513" lon="10.4097472188">
		<tag k="name" v="Plassen" />
		<tag k="place" v="farm" />
		<tag k="ssr:stedsnr" v="386707" />
	</node>
	<node id="-26146" lat="59.8444833324" lon="10.3437444502">
		<tag k="name" v="Lirastua" />
		<tag k="place" v="isolated_dwelling" />
		<tag k="ssr:stedsnr" v="386703" />
	</node>
	<node id="-26145" lat="59.8708166668" lon="10.4856333363">
		<tag k="name" v="Lahaugen" />
		<tag k="place" v="farm" />
		<tag k="ssr:stedsnr" v="386496" />
	</node>
	<node id="-26144" lat="59.8720499989" lon="10.4795555491">
		<tag k="name" v="Askenga" />
		<tag k="place" v="village" />
		<tag k="ssr:stedsnr" v="386495" />
	</node>
	<node id="-26143" lat="59.8688472227" lon="10.454855562">
		<tag k="name" v="Solstadkleiva" />
		<tag k="natural" v="slope" />
		<tag k="place" v="locality" />
		<tag k="ssr:stedsnr" v="386490" />
	</node>
	<node id="-26142" lat="59.8038805532" lon="10.5046194446">
		<tag k="name" v="Takkedraget" />
		<tag k="place" v="sea" />
		<tag k="ssr:stedsnr" v="386505" />
	</node>
	<node id="-26141" lat="59.8332638872" lon="10.4436500038">
		<tag k="name" v="Fusdal" />
		<tag k="place" v="farm" />
		<tag k="ssr:stedsnr" v="369685" />
	</node>
	<node id="-26140" lat="59.8253833309" lon="10.4736999945">
		<tag k="name" v="Vettre" />
		<tag k="place" v="farm" />
		<tag k="ssr:stedsnr" v="369681" />
	</node>
	<node id="-26139" lat="59.8445388853" lon="10.4311749968">
		<tag k="name" v="Askerelva" />
		<tag k="ssr:stedsnr" v="368811" />
		<tag k="waterway" v="river" />
	</node>
	<node id="-26138" lat="59.8447611156" lon="10.4430777772">
		<tag k="name" v="Haugbo" />
		<tag k="place" v="farm" />
		<tag k="ssr:stedsnr" v="368809" />
	</node>
	<node id="-26137" lat="59.8386750016" lon="10.4749694467">
		<tag k="name" v="Leangen" />
		<tag k="place" v="farm" />
		<tag k="ssr:stedsnr" v="368802" />
	</node>
	<node id="-26136" lat="59.8264027764" lon="10.3795055602">
		<tag k="name" v="Skansen" />
		<tag k="place" v="isolated_dwelling" />
		<tag k="ssr:stedsnr" v="368794" />
	</node>
	<node id="-26135" lat="59.7905750002" lon="10.3881805507">
		<tag k="name" v="Slåttebråtan" />
		<tag k="place" v="isolated_dwelling" />
		<tag k="ssr:stedsnr" v="368749" />
	</node>
	<node id="-26134" lat="59.7924333367" lon="10.4858805512">
		<tag k="name" v="Bjerkås" />
		<tag k="place" v="village" />
		<tag k="ssr:stedsnr" v="368745" />
	</node>
	<node id="-26133" lat="59.8011916682" lon="10.4622250087">
		<tag k="name" v="Lindås" />
		<tag k="place" v="farm" />
		<tag k="ssr:stedsnr" v="368734" />
	</node>
	<node id="-26132" lat="59.8724277811" lon="10.5461444406">
		<tag k="name" v="Kreierskjæret" />
		<tag k="place" v="islet" />
		<tag k="ssr:stedsnr" v="367797" />
	</node>
	<node id="-26131" lat="59.846124997" lon="10.5295944394">
		<tag k="name" v="Fururyggen" />
		<tag k="place" v="locality" />
		<tag k="ssr:stedsnr" v="361650" />
	</node>
	<node id="-26130" lat="59.786244442" lon="10.3763194377">
		<tag k="fixme" v="consider tourism=alpine_hut or tourism=chalet" />
		<tag k="name" v="Småvannsbu" />
		<tag k="ssr:stedsnr" v="359940" />
		<tag k="tourism" v="wilderness_hut" />
	</node>
	<node id="-26129" lat="59.8368861134" lon="10.4894305618">
		<tag k="name" v="Løkeneslandet" />
		<tag k="natural" v="beach" />
		<tag k="place" v="locality" />
		<tag k="ssr:stedsnr" v="359630" />
	</node>
	<node id="-26127" lat="59.8255722223" lon="10.3844166746">
		<tag k="bridge" v="yes" />
		<tag k="layer" v="1" />
		<tag k="name" v="Skansenhagen" />
		<tag k="ssr:stedsnr" v="349095" />
	</node>
	<node id="-26126" lat="59.8514771263" lon="10.5400271015">
		<tag k="fixme" v="consider tourism=alpine_hut or tourism=chalet" />
		<tag k="name" v="Butikken" />
		<tag k="ssr:stedsnr" v="345331" />
		<tag k="tourism" v="wilderness_hut" />
	</node>
	<node id="-26125" lat="59.8289194439" lon="10.4247944459">
		<tag k="alt_name" v="Borgen, nordre" />
		<tag k="name" v="Nordre Borgen" />
		<tag k="place" v="farm" />
		<tag k="ssr:stedsnr" v="326694" />
	</node>
	<node id="-26124" lat="59.8345722197" lon="10.4572888925">
		<tag k="fixme" v="consider place=hamlet" />
		<tag k="name" v="Øvre Båstad" />
		<tag k="place" v="farm" />
		<tag k="ssr:stedsnr" v="326682" />
	</node>
	<node id="-26123" lat="59.8225272884" lon="10.3592612331">
		<tag k="name" v="Padderudvannet" />
		<tag k="natural" v="water" />
		<tag k="ssr:stedsnr" v="326681" />
		<tag k="water" v="lake" />
	</node>
	<node id="-26122" lat="59.8421138867" lon="10.4873194503">
		<tag k="name" v="Hvalstrand bad" />
		<tag k="natural" v="beach" />
		<tag k="place" v="locality" />
		<tag k="ssr:stedsnr" v="326677" />
	</node>
	<node id="-26121" lat="59.8742250044" lon="10.3854527844">
		<tag k="name" v="Østre Rustan" />
		<tag k="natural" v="hill" />
		<tag k="place" v="locality" />
		<tag k="ssr:stedsnr" v="326649" />
	</node>
	<node id="-26120" lat="59.8789638871" lon="10.3919833349">
		<tag k="name" v="Gabrielsbonn" />
		<tag k="place" v="locality" />
		<tag k="ssr:stedsnr" v="326632" />
	</node>
	<node id="-26119" lat="59.8177527805" lon="10.476280563">
		<tag k="name" v="Vadhus" />
		<tag k="place" v="locality" />
		<tag k="ssr:stedsnr" v="326602" />
	</node>
	<node id="-26118" lat="59.8186805599" lon="10.4835999984">
		<tag k="name" v="Blakstadtangen" />
		<tag k="natural" v="cape" />
		<tag k="ssr:stedsnr" v="326597" />
	</node>
	<node id="-26117" lat="59.8280879396" lon="10.4609491155">
		<tag k="name" v="Einedammen" />
		<tag k="natural" v="water" />
		<tag k="ssr:stedsnr" v="326588" />
		<tag k="water" v="lake" />
	</node>
	<node id="-26116" lat="59.8620527796" lon="10.4940555525">
		<tag k="name" v="Nesvangen" />
		<tag k="place" v="village" />
		<tag k="ssr:stedsnr" v="326573" />
	</node>
	<node id="-26115" lat="59.83589632" lon="10.4979780095">
		<tag k="name" v="Spiradammen" />
		<tag k="natural" v="water" />
		<tag k="ssr:stedsnr" v="326550" />
	</node>
	<node id="-26114" lat="59.8622638911" lon="10.4810555606">
		<tag k="amenity" v="school" />
		<tag k="name" v="Torstad skole" />
		<tag k="ssr:stedsnr" v="326538" />
	</node>
	<node id="-26113" lat="59.8698916627" lon="10.4569194399">
		<tag k="fixme" v="consider natural=peak for the most distinct mountains in the district" />
		<tag k="name" v="Salåsen" />
		<tag k="natural" v="hill" />
		<tag k="place" v="locality" />
		<tag k="ssr:stedsnr" v="326533" />
	</node>
	<node id="-26112" lat="59.8731916706" lon="10.4217222237">
		<tag k="amenity" v="community_centre" />
		<tag k="name" v="Asker trekkhundklubb" />
		<tag k="ssr:stedsnr" v="326528" />
	</node>
	<node id="-26111" lat="59.8682820973" lon="10.5059387981">
		<tag k="name" v="Breivika" />
		<tag k="natural" v="bay" />
		<tag k="ssr:stedsnr" v="326522" />
	</node>
	<node id="-26110" lat="59.8678611114" lon="10.509486109">
		<tag k="name" v="Kuholmene" />
		<tag k="place" v="islet" />
		<tag k="ssr:stedsnr" v="326520" />
	</node>
	<node id="-26109" lat="59.7878833322" lon="10.3993583418">
		<tag k="name" v="Skjellestadmåsan" />
		<tag k="natural" v="wetland" />
		<tag k="ssr:stedsnr" v="325723" />
	</node>
	<node id="-26108" lat="59.7852333325" lon="10.4635027855">
		<tag k="name" v="Høgdabekken" />
		<tag k="ssr:stedsnr" v="325717" />
		<tag k="waterway" v="stream" />
	</node>
	<node id="-26107" lat="59.8732249964" lon="10.3738388931">
		<tag k="name" v="Dulut" />
		<tag k="place" v="locality" />
		<tag k="ssr:stedsnr" v="325705" />
	</node>
	<node id="-26106" lat="59.7958861082" lon="10.3733111109">
		<tag k="name" v="Styggedalsbekken" />
		<tag k="ssr:stedsnr" v="325669" />
		<tag k="waterway" v="stream" />
	</node>
	<node id="-26105" lat="59.8146027734" lon="10.4875500017">
		<tag k="name" v="Koiatangen" />
		<tag k="natural" v="cape" />
		<tag k="ssr:stedsnr" v="324627" />
	</node>
	<node id="-26104" lat="59.8484388889" lon="10.4839805584">
		<tag k="name" v="Syverstad" />
		<tag k="place" v="farm" />
		<tag k="ssr:stedsnr" v="308776" />
	</node>
	<node id="-26103" lat="59.8414749991" lon="10.4536555609">
		<tag k="name" v="Høn" />
		<tag k="place" v="farm" />
		<tag k="ssr:stedsnr" v="308748" />
	</node>
	<node id="-26102" lat="59.8098499963" lon="10.3843638886">
		<tag k="name" v="Slottsberget" />
		<tag k="natural" v="hill" />
		<tag k="place" v="locality" />
		<tag k="ssr:stedsnr" v="308729" />
	</node>
	<node id="-26101" lat="59.7920333318" lon="10.4387305583">
		<tag k="name" v="Gjellumvannet" />
		<tag k="natural" v="water" />
		<tag k="ssr:stedsnr" v="308679" />
	</node>
	<node id="-26100" lat="59.7858805512" lon="10.4368055526">
		<tag k="amenity" v="place_of_worship" />
		<tag k="denomination" v="lutheran" />
		<tag k="name" v="Heggedal kirke" />
		<tag k="religion" v="christian" />
		<tag k="ssr:stedsnr" v="308639" />
	</node>
	<node id="-26099" lat="59.7893249963" lon="10.4984250043">
		<tag k="name" v="Tajet" />
		<tag k="place" v="isolated_dwelling" />
		<tag k="ssr:stedsnr" v="308628" />
	</node>
	<node id="-26098" lat="59.7892166632" lon="10.4027527838">
		<tag k="name" v="Slottsberget" />
		<tag k="natural" v="hill" />
		<tag k="place" v="locality" />
		<tag k="ssr:stedsnr" v="308485" />
	</node>
	<node id="-26097" lat="59.8803000039" lon="10.4817555633">
		<tag k="alt_name" v="Nordengen" />
		<tag k="name" v="Nordenga" />
		<tag k="place" v="farm" />
		<tag k="ssr:stedsnr" v="307846" />
	</node>
	<node id="-26096" lat="59.8611361102" lon="10.4434027768">
		<tag k="fixme" v="consider natural=peak for the most distinct mountains in the district" />
		<tag k="name" v="Skaugumsåsen" />
		<tag k="natural" v="hill" />
		<tag k="place" v="locality" />
		<tag k="ssr:stedsnr" v="307806" />
	</node>
	<node id="-26095" lat="59.8681194455" lon="10.4671805624">
		<tag k="name" v="Solhaug" />
		<tag k="place" v="farm" />
		<tag k="ssr:stedsnr" v="307805" />
	</node>
	<node id="-26094" lat="59.8604804525" lon="10.5311274811">
		<tag k="name" v="Vendelsund" />
		<tag k="natural" v="strait" />
		<tag k="ssr:stedsnr" v="307798" />
	</node>
	<node id="-26093" lat="59.855275" lon="10.426116666">
		<tag k="name" v="Lund" />
		<tag k="place" v="farm" />
		<tag k="ssr:stedsnr" v="307792" />
	</node>
	<node id="-26092" lat="59.8555333368" lon="10.4303055543">
		<tag k="name" v="Sem" />
		<tag k="place" v="farm" />
		<tag k="ssr:stedsnr" v="307790" />
	</node>
	<node id="-26091" lat="59.8571863242" lon="10.5621349418">
		<tag k="alt_name" v="Viernrenna" />
		<tag k="name" v="Vierrenna" />
		<tag k="natural" v="strait" />
		<tag k="ssr:stedsnr" v="307783" />
	</node>
	<node id="-26090" lat="59.8026749983" lon="10.5030333402">
		<tag k="name" v="Håkavik" />
		<tag k="place" v="isolated_dwelling" />
		<tag k="ssr:stedsnr" v="307716" />
	</node>
	<node id="-26089" lat="59.8017138909" lon="10.426663891">
		<tag k="name" v="Vinnulstad" />
		<tag k="place" v="farm" />
		<tag k="ssr:stedsnr" v="307711" />
	</node>
	<node id="-26088" lat="59.7978361129" lon="10.4462444459">
		<tag k="name" v="Gui" />
		<tag k="place" v="farm" />
		<tag k="ssr:stedsnr" v="307703" />
	</node>
	<node id="-26087" lat="59.8092944442" lon="10.5084888922">
		<tag k="name" v="Hoggestabben" />
		<tag k="natural" v="shoal" />
		<tag k="place" v="locality" />
		<tag k="ssr:stedsnr" v="300220" />
	</node>
	<node id="-26086" lat="59.8362333355" lon="10.4318611043">
		<tag k="bridge" v="yes" />
		<tag k="layer" v="1" />
		<tag k="name" v="Kirkevegen" />
		<tag k="ssr:stedsnr" v="289076" />
	</node>
	<node id="-26085" lat="59.8458999986" lon="10.357633332">
		<tag k="fixme" v="consider tourism=alpine_hut or tourism=chalet" />
		<tag k="name" v="Hovdehytta" />
		<tag k="ssr:stedsnr" v="283152" />
		<tag k="tourism" v="wilderness_hut" />
	</node>
	<node id="-26824" lat="59.8453131943" lon="10.4130816041">
		<tag k="fixme" v="consider place=hamlet" />
		<tag k="name" v="Vestre Haneval" />
		<tag k="place" v="farm" />
		<tag k="ssr:stedsnr" v="981050" />
	</node>
	<node id="-26823" lat="59.8438324822" lon="10.4168066844">
		<tag k="fixme" v="consider place=hamlet" />
		<tag k="name" v="Østre Haneval" />
		<tag k="place" v="farm" />
		<tag k="ssr:stedsnr" v="981046" />
	</node>
	<node id="-26822" lat="59.8709133427" lon="10.390595192">
		<tag k="fixme" v="consider tourism=alpine_hut or tourism=chalet" />
		<tag k="name" v="Halvorsenhytta" />
		<tag k="ssr:stedsnr" v="977709" />
		<tag k="tourism" v="wilderness_hut" />
	</node>
	<node id="-26821" lat="59.8612260043" lon="10.4876982212">
		<tag k="amenity" v="nursing_home" />
		<tag k="name" v="Nesbru bo- og omsorgssenter" />
		<tag k="ssr:stedsnr" v="975425" />
	</node>
	<node id="-26818" lat="59.8253730792" lon="10.4260231051">
		<tag k="name" v="Vardeborg" />
		<tag k="place" v="farm" />
		<tag k="ssr:stedsnr" v="972337" />
	</node>
	<node id="-26817" lat="59.8197277742" lon="10.4826722304">
		<tag k="name" v="Dynga" />
		<tag k="natural" v="bay" />
		<tag k="ssr:stedsnr" v="966920" />
	</node>
	<node id="-26815" lat="59.7930694449" lon="10.4861000016">
		<tag k="bridge" v="yes" />
		<tag k="layer" v="1" />
		<tag k="name" v="Bjerkås" />
		<tag k="ssr:stedsnr" v="956103" />
	</node>
	<node id="-26814" lat="59.83860833" lon="10.4763527769">
		<tag k="bridge" v="yes" />
		<tag k="layer" v="1" />
		<tag k="name" v="Leangen" />
		<tag k="ssr:stedsnr" v="956099" />
	</node>
	<node id="-26813" lat="59.8328361107" lon="10.4218416665">
		<tag k="bridge" v="yes" />
		<tag k="layer" v="1" />
		<tag k="name" v="Drengsrudbekken" />
		<tag k="ssr:stedsnr" v="956093" />
	</node>
	<node id="-26812" lat="59.8141000032" lon="10.4253194366">
		<tag k="name" v="Trettestykket" />
		<tag k="place" v="locality" />
		<tag k="ssr:stedsnr" v="933710" />
	</node>
	<node id="-26811" lat="59.8122055574" lon="10.4286166729">
		<tag k="name" v="Barlindbekken" />
		<tag k="ssr:stedsnr" v="933708" />
		<tag k="waterway" v="stream" />
	</node>
	<node id="-26810" lat="59.8259861113" lon="10.441758333">
		<tag k="amenity" v="school" />
		<tag k="name" v="Risenga skole" />
		<tag k="ssr:stedsnr" v="933704" />
	</node>
	<node id="-26809" lat="59.8502944487" lon="10.4699916642">
		<tag k="name" v="Bjørndalen" />
		<tag k="place" v="farm" />
		<tag k="ssr:stedsnr" v="933698" />
	</node>
	<node id="-26808" lat="59.8369611134" lon="10.4286999981">
		<tag k="name" v="Askerbrubakken" />
		<tag k="natural" v="slope" />
		<tag k="place" v="locality" />
		<tag k="ssr:stedsnr" v="933681" />
	</node>
	<node id="-26807" lat="59.8384555519" lon="10.4649805568">
		<tag k="fixme" v="consider place=hamlet" />
		<tag k="name" v="Nedre Båstad" />
		<tag k="place" v="farm" />
		<tag k="ssr:stedsnr" v="933680" />
	</node>
	<node id="-26806" lat="59.8365194467" lon="10.3903805541">
		<tag k="name" v="Hogstadbråtan" />
		<tag k="place" v="locality" />
		<tag k="ssr:stedsnr" v="933663" />
	</node>
	<node id="-26805" lat="59.8596888886" lon="10.3771055517">
		<tag k="name" v="Kulpemyrene" />
		<tag k="natural" v="wetland" />
		<tag k="ssr:stedsnr" v="933660" />
	</node>
	<node id="-26804" lat="59.8213777794" lon="10.4717083354">
		<tag k="amenity" v="hospital" />
		<tag k="name" v="Blakstad sykehus" />
		<tag k="ssr:stedsnr" v="933615" />
	</node>
	<node id="-26803" lat="59.8301138846" lon="10.486958336">
		<tag k="name" v="Munkesletta" />
		<tag k="place" v="locality" />
		<tag k="ssr:stedsnr" v="933603" />
	</node>
	<node id="-26802" lat="59.8758500002" lon="10.5405555544">
		<tag k="fixme" v="consider seamark:type=rock or natural=shoal" />
		<tag k="name" v="Ulvungene" />
		<tag k="place" v="islet" />
		<tag k="ssr:stedsnr" v="933595" />
	</node>
	<node id="-26801" lat="59.8747083328" lon="10.4939611127">
		<tag k="name" v="Billingstadsletta" />
		<tag k="place" v="locality" />
		<tag k="ssr:stedsnr" v="933589" />
	</node>
	<node id="-26800" lat="59.842613888" lon="10.4909555533">
		<tag k="name" v="Hvalstrand bad" />
		<tag k="natural" v="beach" />
		<tag k="place" v="locality" />
		<tag k="ssr:stedsnr" v="933571" />
	</node>
	<node id="-26799" lat="59.8398444465" lon="10.514783329">
		<tag k="name" v="Utskuddet" />
		<tag k="natural" v="cape" />
		<tag k="ssr:stedsnr" v="933570" />
	</node>
	<node id="-26798" lat="59.8526694483" lon="10.4968805512">
		<tag k="name" v="Furunesodden" />
		<tag k="natural" v="cape" />
		<tag k="ssr:stedsnr" v="933558" />
	</node>
	<node id="-26797" lat="59.8552472223" lon="10.550141661">
		<tag k="name" v="Middagsbukta" />
		<tag k="natural" v="bay" />
		<tag k="ssr:stedsnr" v="933555" />
	</node>
	<node id="-26796" lat="59.8703361144" lon="10.4636444484">
		<tag k="name" v="Åstaddammen" />
		<tag k="natural" v="water" />
		<tag k="ssr:stedsnr" v="933542" />
	</node>
	<node id="-26795" lat="59.7841972181" lon="10.4708472216">
		<tag k="fixme" v="consider natural=peak for the most distinct mountains in the district" />
		<tag k="name" v="Torpfjellet" />
		<tag k="natural" v="hill" />
		<tag k="place" v="locality" />
		<tag k="ssr:stedsnr" v="932699" />
	</node>
	<node id="-26794" lat="59.7836305546" lon="10.4388194359">
		<tag k="name" v="Heggedal hovedgård" />
		<tag k="place" v="farm" />
		<tag k="ssr:stedsnr" v="932697" />
	</node>
	<node id="-26793" lat="59.8500638933" lon="10.3654999945">
		<tag k="name" v="Brudetrappa" />
		<tag k="natural" v="slope" />
		<tag k="place" v="locality" />
		<tag k="ssr:stedsnr" v="932674" />
	</node>
	<node id="-26792" lat="59.8531333332" lon="10.3723000072">
		<tag k="name" v="Lensmannsdalen" />
		<tag k="natural" v="valley" />
		<tag k="place" v="locality" />
		<tag k="ssr:stedsnr" v="932673" />
	</node>
	<node id="-26791" lat="59.8238083341" lon="10.3687222179">
		<tag k="name" v="Rønningen" />
		<tag k="place" v="farm" />
		<tag k="ssr:stedsnr" v="932664" />
	</node>
	<node id="-26790" lat="59.782922218" lon="10.4434722214">
		<tag k="building" v="industrial" />
		<tag k="name" v="Stokkersmia" />
		<tag k="ssr:stedsnr" v="932597" />
	</node>
	<node id="-26789" lat="59.849600002" lon="10.4017388953">
		<tag k="loc_name" v="Juntru" />
		<tag k="name" v="Junterud" />
		<tag k="place" v="locality" />
		<tag k="ssr:stedsnr" v="932594" />
	</node>
	<node id="-26788" lat="59.858969442" lon="10.5052027823">
		<tag k="name" v="Landøya" />
		<tag k="place" v="village" />
		<tag k="ssr:stedsnr" v="915785" />
	</node>
	<node id="-26787" lat="59.8465611109" lon="10.3717611076">
		<tag k="name" v="Tranevann" />
		<tag k="natural" v="water" />
		<tag k="ssr:stedsnr" v="915780" />
	</node>
	<node id="-26786" lat="59.8392833334" lon="10.4574527799">
		<tag k="fixme" v="consider place=hamlet" />
		<tag k="name" v="Unnelstad" />
		<tag k="place" v="farm" />
		<tag k="ssr:stedsnr" v="915751" />
	</node>
	<node id="-26785" lat="59.8377861102" lon="10.4028499941">
		<tag k="name" v="Hogstad" />
		<tag k="place" v="farm" />
		<tag k="ssr:stedsnr" v="915752" />
	</node>
	<node id="-26784" lat="59.8264666665" lon="10.3621861134">
		<tag k="name" v="Brattum" />
		<tag k="place" v="farm" />
		<tag k="ssr:stedsnr" v="915745" />
	</node>
	<node id="-26783" lat="59.8292499961" lon="10.4374222255">
		<tag k="name" v="Bondi" />
		<tag k="place" v="farm" />
		<tag k="ssr:stedsnr" v="915709" />
	</node>
	<node id="-26782" lat="59.7999083311" lon="10.5002749933">
		<tag k="name" v="Engervik" />
		<tag k="place" v="isolated_dwelling" />
		<tag k="ssr:stedsnr" v="915689" />
	</node>
	<node id="-26781" lat="59.864636114" lon="10.4651666682">
		<tag k="name" v="Solstad" />
		<tag k="place" v="farm" />
		<tag k="ssr:stedsnr" v="914809" />
	</node>
	<node id="-26780" lat="59.8021250039" lon="10.4017805563">
		<tag k="name" v="Sebjørnsrud" />
		<tag k="place" v="farm" />
		<tag k="ssr:stedsnr" v="914718" />
	</node>
	<node id="-26779" lat="59.8630155799" lon="10.5117981901">
		<tag k="name" v="Nesbukta" />
		<tag k="natural" v="bay" />
		<tag k="ssr:stedsnr" v="907569" />
	</node>
	<node id="-26778" lat="59.8202666648" lon="10.4936833403">
		<tag k="name" v="Kattegrunnen" />
		<tag k="natural" v="shoal" />
		<tag k="place" v="locality" />
		<tag k="ssr:stedsnr" v="874550" />
	</node>
	<node id="-26777" lat="59.8124611091" lon="10.5056555607">
		<tag k="name" v="Geiteryggen" />
		<tag k="natural" v="shoal" />
		<tag k="place" v="locality" />
		<tag k="ssr:stedsnr" v="874544" />
	</node>
	<node id="-26776" lat="59.8140694475" lon="10.4794249971">
		<tag k="name" v="Sjøvollen" />
		<tag k="place" v="isolated_dwelling" />
		<tag k="ssr:stedsnr" v="874509" />
	</node>
	<node id="-26775" lat="59.851505556" lon="10.4836305513">
		<tag k="name" v="Syverstadbråten" />
		<tag k="natural" v="hill" />
		<tag k="place" v="locality" />
		<tag k="ssr:stedsnr" v="872683" />
	</node>
	<node id="-26774" lat="59.8427194436" lon="10.4232277769">
		<tag k="name" v="Frydendal" />
		<tag k="place" v="farm" />
		<tag k="ssr:stedsnr" v="872655" />
	</node>
	<node id="-26773" lat="59.8777638869" lon="10.4508222296">
		<tag k="name" v="Eikestuen" />
		<tag k="place" v="isolated_dwelling" />
		<tag k="ssr:stedsnr" v="872649" />
	</node>
	<node id="-26772" lat="59.8848722224" lon="10.3882722188">
		<tag k="name" v="Tuemyr" />
		<tag k="natural" v="wetland" />
		<tag k="ssr:stedsnr" v="872627" />
	</node>
	<node id="-26771" lat="59.8108361072" lon="10.4835111094">
		<tag k="name" v="Høybakkdammen" />
		<tag k="natural" v="water" />
		<tag k="ssr:stedsnr" v="872613" />
	</node>
	<node id="-26770" lat="59.8247027774" lon="10.4641583248">
		<tag k="name" v="Brudegrinda" />
		<tag k="place" v="locality" />
		<tag k="ssr:stedsnr" v="872599" />
	</node>
	<node id="-26769" lat="59.840158331" lon="10.5146555577">
		<tag k="name" v="Skjærodden" />
		<tag k="natural" v="cape" />
		<tag k="ssr:stedsnr" v="872566" />
	</node>
	<node id="-26768" lat="59.860069449" lon="10.4425416616">
		<tag k="name" v="Raset" />
		<tag k="natural" v="slope" />
		<tag k="place" v="locality" />
		<tag k="ssr:stedsnr" v="872544" />
	</node>
	<node id="-26767" lat="59.8628361092" lon="10.4574916642">
		<tag k="name" v="Lidarende" />
		<tag k="place" v="farm" />
		<tag k="ssr:stedsnr" v="872537" />
	</node>
	<node id="-26766" lat="59.8649280414" lon="10.5121586034">
		<tag k="name" v="Tobakkshølet" />
		<tag k="natural" v="bay" />
		<tag k="ssr:stedsnr" v="872522" />
	</node>
	<node id="-26765" lat="59.8047861091" lon="10.4599833355">
		<tag k="fixme" v="consider natural=peak for the most distinct mountains in the district" />
		<tag k="name" v="Årostoppen" />
		<tag k="natural" v="hill" />
		<tag k="place" v="locality" />
		<tag k="ssr:stedsnr" v="871725" />
	</node>
	<node id="-26764" lat="59.787433337" lon="10.4456805564">
		<tag k="name" v="Kloppedalen" />
		<tag k="place" v="farm" />
		<tag k="ssr:stedsnr" v="871712" />
	</node>
	<node id="-26763" lat="59.8552416699" lon="10.3656055609">
		<tag k="name" v="Hansemarka" />
		<tag k="place" v="locality" />
		<tag k="ssr:stedsnr" v="871710" />
	</node>
	<node id="-26762" lat="59.8103166706" lon="10.4796305643">
		<tag k="name" v="Høybakk" />
		<tag k="place" v="farm" />
		<tag k="ssr:stedsnr" v="871695" />
	</node>
	<node id="-26761" lat="59.8233055514" lon="10.3523999985">
		<tag k="name" v="Fiskumbråten" />
		<tag k="place" v="farm" />
		<tag k="ssr:stedsnr" v="871674" />
	</node>
	<node id="-26760" lat="59.7891611089" lon="10.3589916715">
		<tag k="name" v="Djupmyr" />
		<tag k="natural" v="wetland" />
		<tag k="ssr:stedsnr" v="871664" />
	</node>
	<node id="-26759" lat="59.8079250024" lon="10.524255548">
		<tag k="name" v="Sanden" />
		<tag k="natural" v="shoal" />
		<tag k="place" v="locality" />
		<tag k="ssr:stedsnr" v="855763" />
	</node>
	<node id="-26758" lat="59.8231250035" lon="10.4924694465">
		<tag k="name" v="Kråkholmen" />
		<tag k="place" v="islet" />
		<tag k="ssr:stedsnr" v="855761" />
	</node>
	<node id="-26757" lat="59.8178916635" lon="10.4889555478">
		<tag k="name" v="Børsholmen" />
		<tag k="place" v="islet" />
		<tag k="ssr:stedsnr" v="855759" />
	</node>
	<node id="-26756" lat="59.886674996" lon="10.3684388927">
		<tag k="fixme" v="consider natural=peak for the most distinct mountains in the district" />
		<tag k="name" v="Haveråsen" />
		<tag k="natural" v="hill" />
		<tag k="place" v="locality" />
		<tag k="ssr:stedsnr" v="854840" />
	</node>
	<node id="-26755" lat="59.8578277817" lon="10.3507027751">
		<tag k="fixme" v="consider natural=peak for the most distinct mountains in the district" />
		<tag k="name" v="Kariåsen" />
		<tag k="natural" v="hill" />
		<tag k="place" v="locality" />
		<tag k="ssr:stedsnr" v="854789" />
	</node>
	<node id="-26754" lat="59.8554611113" lon="10.5563694512">
		<tag k="name" v="Hareholmen" />
		<tag k="place" v="islet" />
		<tag k="ssr:stedsnr" v="854779" />
	</node>
	<node id="-26753" lat="59.8588611153" lon="10.431699999">
		<tag k="name" v="Tangen" />
		<tag k="place" v="isolated_dwelling" />
		<tag k="ssr:stedsnr" v="854775" />
	</node>
	<node id="-26752" lat="59.8380499956" lon="10.3589305547">
		<tag k="name" v="Bergsmarka" />
		<tag k="place" v="farm" />
		<tag k="ssr:stedsnr" v="854761" />
	</node>
	<node id="-26751" lat="59.8463500004" lon="10.5403833354">
		<tag k="fixme" v="consider seamark:type=rock or natural=shoal" />
		<tag k="name" v="Skaueren" />
		<tag k="place" v="islet" />
		<tag k="ssr:stedsnr" v="854756" />
	</node>
	<node id="-26750" lat="59.8386722144" lon="10.4142654971">
		<tag k="alt_name" v="Hagan;Limovnhagen" />
		<tag k="name" v="Hagen" />
		<tag k="place" v="locality" />
		<tag k="ssr:stedsnr" v="854745" />
	</node>
	<node id="-26749" lat="59.8029249963" lon="10.4946000064">
		<tag k="name" v="Håkavik" />
		<tag k="place" v="village" />
		<tag k="ssr:stedsnr" v="854686" />
	</node>
	<node id="-26748" lat="59.8812250003" lon="10.4338999983">
		<tag k="name" v="Ormerud" />
		<tag k="place" v="isolated_dwelling" />
		<tag k="ssr:stedsnr" v="853851" />
	</node>
	<node id="-26747" lat="59.7804111133" lon="10.4583055492">
		<tag k="name" v="Rustad" />
		<tag k="place" v="farm" />
		<tag k="ssr:stedsnr" v="853827" />
	</node>
	<node id="-26746" lat="59.8673888913" lon="10.3904777754">
		<tag k="name" v="Flåbekken" />
		<tag k="ssr:stedsnr" v="853814" />
		<tag k="waterway" v="stream" />
	</node>
	<node id="-26745" lat="59.8638944469" lon="10.4198722239">
		<tag k="name" v="Hajem" />
		<tag k="place" v="farm" />
		<tag k="ssr:stedsnr" v="853809" />
	</node>
	<node id="-26744" lat="59.8621138886" lon="10.499105547">
		<tag k="alt_name" v="Øvre Nes" />
		<tag k="name" v="Nes" />
		<tag k="place" v="farm" />
		<tag k="ssr:stedsnr" v="853803" />
	</node>
	<node id="-26743" lat="59.8589388913" lon="10.5143249986">
		<tag k="name" v="Omnen" />
		<tag k="natural" v="valley" />
		<tag k="place" v="locality" />
		<tag k="ssr:stedsnr" v="847615" />
	</node>
	<node id="-26742" lat="59.8100777763" lon="10.3666000013">
		<tag k="bridge" v="yes" />
		<tag k="layer" v="1" />
		<tag k="name" v="Fløyta" />
		<tag k="ssr:stedsnr" v="835078" />
	</node>
	<node id="-26741" lat="59.8404111132" lon="10.455325003">
		<tag k="bridge" v="yes" />
		<tag k="layer" v="1" />
		<tag k="name" v="Undelstadlia" />
		<tag k="ssr:stedsnr" v="835074" />
	</node>
	<node id="-26740" lat="59.849202776" lon="10.4906944477">
		<tag k="bridge" v="yes" />
		<tag k="layer" v="1" />
		<tag k="name" v="Syverstad" />
		<tag k="ssr:stedsnr" v="835073" />
	</node>
	<node id="-26739" lat="59.7990611127" lon="10.5050499982">
		<tag k="name" v="Elnesgrunnene" />
		<tag k="natural" v="shoal" />
		<tag k="place" v="locality" />
		<tag k="ssr:stedsnr" v="813579" />
	</node>
	<node id="-26738" lat="59.8115222235" lon="10.5256722296">
		<tag k="name" v="Stuteberget" />
		<tag k="natural" v="shoal" />
		<tag k="place" v="locality" />
		<tag k="ssr:stedsnr" v="813505" />
	</node>
	<node id="-26737" lat="59.817027776" lon="10.4927361071">
		<tag k="name" v="Østenstadberget" />
		<tag k="natural" v="shoal" />
		<tag k="place" v="locality" />
		<tag k="ssr:stedsnr" v="813499" />
	</node>
	<node id="-26736" lat="59.8740972208" lon="10.3389444471">
		<tag k="name" v="Karibekken" />
		<tag k="ssr:stedsnr" v="811704" />
		<tag k="waterway" v="stream" />
	</node>
	<node id="-26735" lat="59.8045277764" lon="10.3928555492">
		<tag k="amenity" v="school" />
		<tag k="name" v="Solberg skole" />
		<tag k="ssr:stedsnr" v="811694" />
	</node>
	<node id="-26734" lat="59.819758336" lon="10.371261117">
		<tag k="name" v="Svinesjøen" />
		<tag k="natural" v="water" />
		<tag k="ssr:stedsnr" v="811692" />
	</node>
	<node id="-26733" lat="59.8381694455" lon="10.3592083247">
		<tag k="name" v="Myra" />
		<tag k="place" v="farm" />
		<tag k="ssr:stedsnr" v="811690" />
	</node>
	<node id="-26732" lat="59.8183277817" lon="10.4323027779">
		<tag k="name" v="Vassbunn" />
		<tag k="place" v="quarter" />
		<tag k="ssr:stedsnr" v="811663" />
	</node>
	<node id="-26731" lat="59.8426916625" lon="10.4338749965">
		<tag k="name" v="Kirkelia" />
		<tag k="natural" v="slope" />
		<tag k="place" v="locality" />
		<tag k="ssr:stedsnr" v="811655" />
	</node>
	<node id="-26730" lat="59.8326305525" lon="10.4230861098">
		<tag k="name" v="Oreholt" />
		<tag k="place" v="isolated_dwelling" />
		<tag k="ssr:stedsnr" v="811641" />
	</node>
	<node id="-26729" lat="59.8508500042" lon="10.4334305596">
		<tag k="name" v="Sagvollen" />
		<tag k="place" v="locality" />
		<tag k="ssr:stedsnr" v="811633" />
	</node>
	<node id="-26728" lat="59.841069444" lon="10.4231000066">
		<tag k="name" v="Biterud" />
		<tag k="place" v="farm" />
		<tag k="ssr:stedsnr" v="811622" />
	</node>
	<node id="-26727" lat="59.8669083334" lon="10.381633341">
		<tag k="name" v="Sørmarka" />
		<tag k="place" v="locality" />
		<tag k="ssr:stedsnr" v="811615" />
	</node>
	<node id="-26726" lat="59.8181611111" lon="10.4602166678">
		<tag k="name" v="Husejordet" />
		<tag k="place" v="locality" />
		<tag k="ssr:stedsnr" v="811569" />
	</node>
	<node id="-26725" lat="59.8203666698" lon="10.4773472183">
		<tag k="name" v="Ormodden" />
		<tag k="natural" v="cape" />
		<tag k="ssr:stedsnr" v="811562" />
	</node>
	<node id="-26724" lat="59.8483972222" lon="10.4929277806">
		<tag k="fixme" v="consider place=suburb, village or hamlet" />
		<tag k="name" v="Hvalsbakken" />
		<tag k="place" v="quarter" />
		<tag k="ssr:stedsnr" v="811517" />
	</node>
	<node id="-26723" lat="59.8360638868" lon="10.5026805525">
		<tag k="name" v="Ovnsbråten" />
		<tag k="place" v="quarter" />
		<tag k="ssr:stedsnr" v="811512" />
	</node>
	<node id="-26722" lat="59.8050861117" lon="10.4965055521">
		<tag k="name" v="Rabben" />
		<tag k="natural" v="cape" />
		<tag k="ssr:stedsnr" v="811508" />
	</node>
	<node id="-26721" lat="59.851747224" lon="10.5090527757">
		<tag k="fixme" v="multiple name tags, choose one and add the other to alt_name; consider seamark:type=rock or natural=shoal" />
		<tag k="name" v="Midtskjær;Torbjørnskjær" />
		<tag k="place" v="islet" />
		<tag k="ssr:stedsnr" v="811503" />
	</node>
	<node id="-26720" lat="59.8529472246" lon="10.4963611046">
		<tag k="name" v="Devikbukta" />
		<tag k="natural" v="bay" />
		<tag k="ssr:stedsnr" v="811499" />
	</node>
	<node id="-26719" lat="59.87188786" lon="10.5120641299">
		<tag k="name" v="Vestre Hals" />
		<tag k="natural" v="bay" />
		<tag k="ssr:stedsnr" v="811470" />
	</node>
	<node id="-26718" lat="59.869347222" lon="10.5190972309">
		<tag k="amenity" v="school" />
		<tag k="name" v="Nesøya skole" />
		<tag k="ssr:stedsnr" v="811466" />
	</node>
	<node id="-26717" lat="59.866122943" lon="10.5366043925">
		<tag k="name" v="Kalkbukta" />
		<tag k="natural" v="bay" />
		<tag k="ssr:stedsnr" v="811462" />
	</node>
	<node id="-26716" lat="59.8105055552" lon="10.486630548">
		<tag k="name" v="Vollebukta" />
		<tag k="natural" v="bay" />
		<tag k="ssr:stedsnr" v="811339" />
	</node>
	<node id="-26715" lat="59.8670444468" lon="10.5478500088">
		<tag k="man_made" v="quay" />
		<tag k="name" v="Nordre brygge" />
		<tag k="place" v="locality" />
		<tag k="ssr:stedsnr" v="811262" />
	</node>
	<node id="-26714" lat="59.815652782" lon="10.3875166595">
		<tag k="name" v="Oppsjø" />
		<tag k="natural" v="water" />
		<tag k="ssr:stedsnr" v="794749" />
	</node>
	<node id="-26713" lat="59.8132916631" lon="10.4876444525">
		<tag k="name" v="Vennelslund" />
		<tag k="place" v="farm" />
		<tag k="ssr:stedsnr" v="794744" />
	</node>
	<node id="-26712" lat="59.8978861091" lon="10.3701333368">
		<tag k="name" v="Kastemyr" />
		<tag k="natural" v="wetland" />
		<tag k="ssr:stedsnr" v="793882" />
	</node>
	<node id="-26711" lat="59.8522527796" lon="10.4128861174">
		<tag k="name" v="Berg" />
		<tag k="place" v="farm" />
		<tag k="ssr:stedsnr" v="793816" />
	</node>
	<node id="-26710" lat="59.8542916687" lon="10.444427777">
		<tag k="name" v="Skaugum" />
		<tag k="place" v="farm" />
		<tag k="ssr:stedsnr" v="793804" />
	</node>
	<node id="-26709" lat="59.8424529675" lon="10.3883166835">
		<tag k="name" v="Steinset" />
		<tag k="place" v="farm" />
		<tag k="ssr:stedsnr" v="793802" />
	</node>
	<node id="-26708" lat="59.8389313415" lon="10.4857304859">
		<tag k="name" v="Leangbukta" />
		<tag k="natural" v="bay" />
		<tag k="ssr:stedsnr" v="793787" />
	</node>
	<node id="-26707" lat="59.8202750013" lon="10.3655055644">
		<tag k="name" v="Engelsrud" />
		<tag k="place" v="farm" />
		<tag k="ssr:stedsnr" v="793759" />
	</node>
	<node id="-26706" lat="59.8314499982" lon="10.4911305613">
		<tag k="name" v="Løkenes" />
		<tag k="place" v="farm" />
		<tag k="ssr:stedsnr" v="793750" />
	</node>
	<node id="-26705" lat="59.8029305586" lon="10.4778055483">
		<tag k="name" v="Stålenga" />
		<tag k="place" v="farm" />
		<tag k="ssr:stedsnr" v="793720" />
	</node>
	<node id="-26704" lat="59.8496750016" lon="10.5196138958">
		<tag k="name" v="Furuholmen" />
		<tag k="place" v="islet" />
		<tag k="ssr:stedsnr" v="793552" />
	</node>
	<node id="-26703" lat="59.7925027811" lon="10.514575001">
		<tag k="name" v="Torsteingrunnen" />
		<tag k="natural" v="shoal" />
		<tag k="place" v="locality" />
		<tag k="ssr:stedsnr" v="786209" />
	</node>
	<node id="-26701" lat="59.8407749956" lon="10.4564722193">
		<tag k="bridge" v="yes" />
		<tag k="layer" v="1" />
		<tag k="name" v="Høn" />
		<tag k="ssr:stedsnr" v="774096" />
	</node>
	<node id="-26700" lat="59.8000638918" lon="10.4875999991">
		<tag k="bridge" v="yes" />
		<tag k="layer" v="1" />
		<tag k="name" v="Håkavik" />
		<tag k="ssr:stedsnr" v="774093" />
	</node>
	<node id="-26699" lat="59.8421055588" lon="10.4817749927">
		<tag k="bridge" v="yes" />
		<tag k="layer" v="1" />
		<tag k="name" v="Hval" />
		<tag k="ssr:stedsnr" v="774092" />
	</node>
	<node id="-26698" lat="59.8127888891" lon="10.4639805604">
		<tag k="amenity" v="place_of_worship" />
		<tag k="denomination" v="lutheran" />
		<tag k="name" v="Østenstad kirke" />
		<tag k="religion" v="christian" />
		<tag k="ssr:stedsnr" v="753463" />
	</node>
	<node id="-26697" lat="59.8310805593" lon="10.3978166643">
		<tag k="fixme" v="consider natural=peak for the most distinct mountains in the district" />
		<tag k="name" v="Kalkås" />
		<tag k="natural" v="hill" />
		<tag k="place" v="locality" />
		<tag k="ssr:stedsnr" v="751698" />
	</node>
	<node id="-26696" lat="59.8174194412" lon="10.4618638916">
		<tag k="name" v="Langlibakken" />
		<tag k="natural" v="slope" />
		<tag k="place" v="locality" />
		<tag k="ssr:stedsnr" v="751586" />
	</node>
	<node id="-26695" lat="59.827138889" lon="10.4608777812">
		<tag k="name" v="Granbakken" />
		<tag k="natural" v="slope" />
		<tag k="place" v="locality" />
		<tag k="ssr:stedsnr" v="751579" />
	</node>
	<node id="-26694" lat="59.8246583355" lon="10.4420888879">
		<tag k="amenity" v="sports_centre" />
		<tag k="name" v="Bondihallen" />
		<tag k="ssr:stedsnr" v="751577" />
	</node>
	<node id="-26693" lat="59.8539500031" lon="10.4850055633">
		<tag k="leisure" v="pitch" />
		<tag k="name" v="Holmen idrettsanlegg" />
		<tag k="ssr:stedsnr" v="751537" />
	</node>
	<node id="-26692" lat="59.8653333321" lon="10.4668083343">
		<tag k="name" v="Nedre Solstad" />
		<tag k="place" v="farm" />
		<tag k="ssr:stedsnr" v="751529" />
	</node>
	<node id="-26691" lat="59.862391663" lon="10.4637416676">
		<tag k="name" v="Øvre Solstad" />
		<tag k="place" v="farm" />
		<tag k="ssr:stedsnr" v="751525" />
	</node>
	<node id="-26690" lat="59.855544443" lon="10.4071249932">
		<tag k="name" v="Herkjelbekken" />
		<tag k="ssr:stedsnr" v="751521" />
		<tag k="waterway" v="stream" />
	</node>
	<node id="-26689" lat="59.8637416627" lon="10.4266805583">
		<tag k="name" v="Tømmervika" />
		<tag k="natural" v="bay" />
		<tag k="ssr:stedsnr" v="751516" />
	</node>
	<node id="-26688" lat="59.7915333308" lon="10.4455027841">
		<tag k="amenity" v="school" />
		<tag k="name" v="Heggedal skole" />
		<tag k="ssr:stedsnr" v="750723" />
	</node>
	<node id="-26687" lat="59.8733055557" lon="10.370733336">
		<tag k="name" v="Eikestøa" />
		<tag k="natural" v="cape" />
		<tag k="ssr:stedsnr" v="750706" />
	</node>
	<node id="-26686" lat="59.872230552" lon="10.3613527717">
		<tag k="name" v="Snarodden" />
		<tag k="natural" v="cape" />
		<tag k="ssr:stedsnr" v="750705" />
	</node>
	<node id="-26685" lat="59.8409638889" lon="10.359497229">
		<tag k="name" v="Kasteløkka" />
		<tag k="place" v="farm" />
		<tag k="ssr:stedsnr" v="750690" />
	</node>
	<node id="-26684" lat="59.8254305537" lon="10.3546749911">
		<tag k="name" v="Bruås" />
		<tag k="place" v="isolated_dwelling" />
		<tag k="ssr:stedsnr" v="750682" />
	</node>
	<node id="-26683" lat="59.7972250005" lon="10.3740999951">
		<tag k="name" v="Stinaløkka" />
		<tag k="place" v="locality" />
		<tag k="ssr:stedsnr" v="750665" />
	</node>
	<node id="-26682" lat="59.799680552" lon="10.3650777691">
		<tag k="name" v="Dyring" />
		<tag k="place" v="locality" />
		<tag k="ssr:stedsnr" v="750663" />
	</node>
	<node id="-26681" lat="59.8619097579" lon="10.5115916672">
		<tag k="name" v="Sververen" />
		<tag k="natural" v="bay" />
		<tag k="ssr:stedsnr" v="750469" />
	</node>
	<node id="-26680" lat="59.8108250018" lon="10.4258666747">
		<tag k="landuse" v="winter_sports" />
		<tag k="name" v="Vardåsen skisenter" />
		<tag k="piste:type" v="downhill" />
		<tag k="ssr:stedsnr" v="751690" />
	</node>
	<node id="-26679" lat="59.8450888844" lon="10.4597194508">
		<tag k="name" v="Muserud" />
		<tag k="place" v="isolated_dwelling" />
		<tag k="ssr:stedsnr" v="751679" />
	</node>
	<node id="-26678" lat="59.8348083326" lon="10.4097638956">
		<tag k="name" v="Ånnerudskogen" />
		<tag k="place" v="locality" />
		<tag k="ssr:stedsnr" v="751670" />
	</node>
	<node id="-26677" lat="59.839752777" lon="10.4095916691">
		<tag k="name" v="Haugerud" />
		<tag k="place" v="farm" />
		<tag k="ssr:stedsnr" v="751668" />
	</node>
	<node id="-26676" lat="59.8388694471" lon="10.4152361174">
		<tag k="name" v="Nedre Hagen" />
		<tag k="place" v="farm" />
		<tag k="ssr:stedsnr" v="751667" />
	</node>
	<node id="-26675" lat="59.8349027794" lon="10.4277555515">
		<tag k="leisure" v="pitch" />
		<tag k="name" v="Asker stadion" />
		<tag k="ssr:stedsnr" v="751665" />
	</node>
	<node id="-26674" lat="59.8343805578" lon="10.4112305628">
		<tag k="name" v="Lysthusbråten" />
		<tag k="place" v="locality" />
		<tag k="ssr:stedsnr" v="751664" />
	</node>
	<node id="-26673" lat="59.8509805569" lon="10.4616555533">
		<tag k="fixme" v="consider natural=peak for the most distinct mountains in the district" />
		<tag k="name" v="Vakås" />
		<tag k="natural" v="hill" />
		<tag k="place" v="locality" />
		<tag k="ssr:stedsnr" v="751659" />
	</node>
	<node id="-26672" lat="59.8491638921" lon="10.4427944429">
		<tag k="amenity" v="school" />
		<tag k="name" v="Jansløkka skole" />
		<tag k="ssr:stedsnr" v="751657" />
	</node>
	<node id="-26671" lat="59.8437722201" lon="10.3861694455">
		<tag k="fixme" v="consider natural=peak for the most distinct mountains in the district" />
		<tag k="name" v="Rudsåsen" />
		<tag k="natural" v="hill" />
		<tag k="place" v="locality" />
		<tag k="ssr:stedsnr" v="751646" />
	</node>
	<node id="-26670" lat="59.8438333293" lon="10.4265527734">
		<tag k="name" v="Kattugledalen" />
		<tag k="natural" v="valley" />
		<tag k="place" v="locality" />
		<tag k="ssr:stedsnr" v="751638" />
	</node>
	<node id="-26669" lat="59.8824222191" lon="10.4563805543">
		<tag k="name" v="Fuglesang" />
		<tag k="place" v="locality" />
		<tag k="ssr:stedsnr" v="751635" />
	</node>
	<node id="-26668" lat="59.8781777766" lon="10.4493194459">
		<tag k="name" v="Rugbråtan" />
		<tag k="place" v="farm" />
		<tag k="ssr:stedsnr" v="751625" />
	</node>
	<node id="-26667" lat="59.8995972264" lon="10.36716667">
		<tag k="fixme" v="consider natural=peak for the most distinct mountains in the district" />
		<tag k="name" v="Buråsen" />
		<tag k="natural" v="hill" />
		<tag k="place" v="locality" />
		<tag k="ssr:stedsnr" v="750026" />
	</node>
	<node id="-26666" lat="59.8459833337" lon="10.4953500077">
		<tag k="name" v="Stilleren" />
		<tag k="place" v="isolated_dwelling" />
		<tag k="ssr:stedsnr" v="733755" />
	</node>
	<node id="-26665" lat="59.841591671" lon="10.4022250068">
		<tag k="name" v="Jøssong" />
		<tag k="place" v="farm" />
		<tag k="ssr:stedsnr" v="733745" />
	</node>
	<node id="-26664" lat="59.8118805539" lon="10.4612111169">
		<tag k="name" v="Østenstad" />
		<tag k="place" v="farm" />
		<tag k="ssr:stedsnr" v="733733" />
	</node>
	<node id="-26663" lat="59.8176111143" lon="10.4415222302">
		<tag k="alt_name" v="Bondibroen" />
		<tag k="name" v="Bondibrua" />
		<tag k="place" v="farm" />
		<tag k="ssr:stedsnr" v="733705" />
	</node>
	<node id="-26662" lat="59.8336694489" lon="10.5279694467">
		<tag k="name" v="Bjerkøygrunnen" />
		<tag k="natural" v="shoal" />
		<tag k="place" v="locality" />
		<tag k="ssr:stedsnr" v="733691" />
	</node>
	<node id="-26661" lat="59.7828861109" lon="10.425288888">
		<tag k="name" v="Underland" />
		<tag k="place" v="farm" />
		<tag k="ssr:stedsnr" v="733633" />
	</node>
	<node id="-26660" lat="59.8932714074" lon="10.362459031">
		<tag k="name" v="Øyevann" />
		<tag k="natural" v="water" />
		<tag k="ssr:stedsnr" v="732859" />
	</node>
	<node id="-26659" lat="59.8643555572" lon="10.5094833276">
		<tag k="name" v="Hestesund" />
		<tag k="natural" v="strait" />
		<tag k="ssr:stedsnr" v="732811" />
	</node>
	<node id="-26658" lat="59.8771346233" lon="10.536348706">
		<tag k="fixme" v="consider seamark:type=rock or natural=shoal" />
		<tag k="name" v="Ulykkesskjær" />
		<tag k="place" v="islet" />
		<tag k="ssr:stedsnr" v="731828" />
	</node>
	<node id="-26657" lat="59.8705805514" lon="10.4908999946">
		<tag k="alt_name" v="Vestre Nes" />
		<tag k="name" v="Nes" />
		<tag k="place" v="farm" />
		<tag k="ssr:stedsnr" v="731815" />
	</node>
	<node id="-26656" lat="59.8508138872" lon="10.5309500031">
		<tag k="fixme" v="consider seamark:type=rock or natural=shoal" />
		<tag k="name" v="Skurven" />
		<tag k="place" v="islet" />
		<tag k="ssr:stedsnr" v="725562" />
	</node>
	<node id="-26655" lat="59.8191527812" lon="10.4859638871">
		<tag k="fixme" v="consider seamark:type=rock or natural=shoal" />
		<tag k="name" v="Flyndra" />
		<tag k="place" v="islet" />
		<tag k="ssr:stedsnr" v="724930" />
	</node>
	<node id="-26654" lat="59.8035583302" lon="10.4872138971">
		<tag k="bridge" v="yes" />
		<tag k="layer" v="1" />
		<tag k="name" v="Arnestad" />
		<tag k="ssr:stedsnr" v="713083" />
	</node>
	<node id="-26653" lat="59.8358027775" lon="10.4700333356">
		<tag k="bridge" v="yes" />
		<tag k="layer" v="1" />
		<tag k="name" v="Leangbukta" />
		<tag k="ssr:stedsnr" v="713081" />
	</node>
	<node id="-26652" lat="59.8223027742" lon="10.3510916632">
		<tag k="bridge" v="yes" />
		<tag k="layer" v="1" />
		<tag k="name" v="Fiskum" />
		<tag k="ssr:stedsnr" v="713074" />
	</node>
	<node id="-26651" lat="59.7825916677" lon="10.4281638872">
		<tag k="name" v="Skitthegga" />
		<tag k="ssr:stedsnr" v="694579" />
		<tag k="waterway" v="river" />
	</node>
	<node id="-26650" lat="59.8294583336" lon="10.4378416693">
		<tag k="name" v="Nordre Bondi" />
		<tag k="place" v="farm" />
		<tag k="ssr:stedsnr" v="690710" />
	</node>
	<node id="-26649" lat="59.8407388898" lon="10.4051611134">
		<tag k="name" v="Dalsmyra" />
		<tag k="natural" v="wetland" />
		<tag k="ssr:stedsnr" v="690669" />
	</node>
	<node id="-26648" lat="59.8135722242" lon="10.4555305508">
		<tag k="fixme" v="consider natural=peak for the most distinct mountains in the district" />
		<tag k="name" v="Maihaugen" />
		<tag k="natural" v="hill" />
		<tag k="place" v="locality" />
		<tag k="ssr:stedsnr" v="690623" />
	</node>
	<node id="-26647" lat="59.816158334" lon="10.4387388833">
		<tag k="name" v="Granerudbakken" />
		<tag k="natural" v="slope" />
		<tag k="place" v="locality" />
		<tag k="ssr:stedsnr" v="690617" />
	</node>
	<node id="-26646" lat="59.8224694434" lon="10.4467611143">
		<tag k="name" v="Myrabakken" />
		<tag k="natural" v="slope" />
		<tag k="place" v="locality" />
		<tag k="ssr:stedsnr" v="690612" />
	</node>
	<node id="-26645" lat="59.8234527785" lon="10.4675916748">
		<tag k="name" v="Aspelund" />
		<tag k="place" v="locality" />
		<tag k="ssr:stedsnr" v="690610" />
	</node>
	<node id="-26644" lat="59.8767944532" lon="10.5193094128">
		<tag k="name" v="Nordre Nesøya" />
		<tag k="place" v="island" />
		<tag k="ssr:stedsnr" v="690601" />
	</node>
	<node id="-26643" lat="59.7978472265" lon="10.4979083352">
		<tag k="name" v="Havneåsfjellet" />
		<tag k="natural" v="hill" />
		<tag k="place" v="locality" />
		<tag k="ssr:stedsnr" v="690576" />
	</node>
	<node id="-26642" lat="59.8069027791" lon="10.4971527731">
		<tag k="fixme" v="consider seamark:type=rock or natural=shoal" />
		<tag k="name" v="Terneskjær" />
		<tag k="place" v="islet" />
		<tag k="ssr:stedsnr" v="690572" />
	</node>
	<node id="-26641" lat="59.8075638874" lon="10.490680551">
		<tag k="name" v="Maudbukta" />
		<tag k="natural" v="bay" />
		<tag k="ssr:stedsnr" v="690565" />
	</node>
	<node id="-26640" lat="59.8642250001" lon="10.4518944482">
		<tag k="name" v="Lindleina" />
		<tag k="natural" v="slope" />
		<tag k="place" v="locality" />
		<tag k="ssr:stedsnr" v="690560" />
	</node>
	<node id="-26639" lat="59.8748083319" lon="10.473608331">
		<tag k="amenity" v="school" />
		<tag k="name" v="Billingstad skole" />
		<tag k="ssr:stedsnr" v="690558" />
	</node>
	<node id="-26638" lat="59.8701583366" lon="10.4188222183">
		<tag k="name" v="Semsmarka" />
		<tag k="place" v="locality" />
		<tag k="ssr:stedsnr" v="690554" />
	</node>
	<node id="-26637" lat="59.867438886" lon="10.4069416676">
		<tag k="name" v="Finnebråtekleiva" />
		<tag k="natural" v="slope" />
		<tag k="place" v="locality" />
		<tag k="ssr:stedsnr" v="690551" />
	</node>
	<node id="-26636" lat="59.8730611122" lon="10.5073111122">
		<tag k="name" v="Grønsund" />
		<tag k="natural" v="strait" />
		<tag k="ssr:stedsnr" v="690539" />
	</node>
	<node id="-26635" lat="59.8673138851" lon="10.5164138815">
		<tag k="fixme" v="consider natural=peak for the most distinct mountains in the district" />
		<tag k="name" v="Tverråsen" />
		<tag k="natural" v="hill" />
		<tag k="place" v="locality" />
		<tag k="ssr:stedsnr" v="690533" />
	</node>
	<node id="-26634" lat="59.8720694403" lon="10.5212416679">
		<tag k="name" v="Kjeksla" />
		<tag k="place" v="isolated_dwelling" />
		<tag k="ssr:stedsnr" v="690531" />
	</node>
	<node id="-26633" lat="59.7944583339" lon="10.4480611172">
		<tag k="name" v="Guibekken" />
		<tag k="ssr:stedsnr" v="689710" />
		<tag k="waterway" v="stream" />
	</node>
	<node id="-26632" lat="59.8013416631" lon="10.4843472225">
		<tag k="name" v="Bekkelund" />
		<tag k="place" v="farm" />
		<tag k="ssr:stedsnr" v="689703" />
	</node>
	<node id="-26631" lat="59.7969666641" lon="10.4550416601">
		<tag k="name" v="Lille Gui" />
		<tag k="place" v="farm" />
		<tag k="ssr:stedsnr" v="689701" />
	</node>
	<node id="-26630" lat="59.791786109" lon="10.4481111141">
		<tag k="name" v="Heggedal" />
		<tag k="place" v="village" />
		<tag k="ssr:stedsnr" v="689694" />
	</node>
	<node id="-26629" lat="59.7869527796" lon="10.4483555577">
		<tag k="name" v="Fjellhøy" />
		<tag k="place" v="farm" />
		<tag k="ssr:stedsnr" v="689692" />
	</node>
	<node id="-26628" lat="59.7901361081" lon="10.4173194388">
		<tag k="name" v="Nyborgsåsen" />
		<tag k="place" v="quarter" />
		<tag k="ssr:stedsnr" v="689685" />
	</node>
	<node id="-26627" lat="59.7954416651" lon="10.3954194456">
		<tag k="name" v="Langmyr" />
		<tag k="natural" v="wetland" />
		<tag k="ssr:stedsnr" v="689675" />
	</node>
	<node id="-26626" lat="59.8399000009" lon="10.345116665">
		<tag k="name" v="Sleppen" />
		<tag k="place" v="locality" />
		<tag k="ssr:stedsnr" v="689667" />
	</node>
	<node id="-26625" lat="59.8285583297" lon="10.3691888948">
		<tag k="name" v="Kampenhaug" />
		<tag k="place" v="farm" />
		<tag k="ssr:stedsnr" v="689654" />
	</node>
</osm>
