<?xml version="1.0" encoding="UTF-8"?>
<osm generator="osmapis" version="0.6">
	<node id="-26751" lat="59.7891611089" lon="10.3589916715">
		<tag k="name" v="Djupmyr" />
		<tag k="natural" v="wetland" />
		<tag k="ssr:stedsnr" v="871664" />
	</node>
	<node id="-26754" lat="59.8552416699" lon="10.3656055609">
		<tag k="name" v="Hansemarka" />
		<tag k="place" v="locality" />
		<tag k="ssr:stedsnr" v="871710" />
	</node>
	<node id="-26618" lat="59.7954416651" lon="10.3954194456">
		<tag k="name" v="Langmyr" />
		<tag k="natural" v="wetland" />
		<tag k="ssr:stedsnr" v="689675" />
	</node>
	<node id="-26615" lat="59.7917472224" lon="10.3494555498">
		<tag k="name" v="Kavlebrumyr" />
		<tag k="natural" v="wetland" />
		<tag k="ssr:stedsnr" v="689641" />
	</node>
	<node id="-26099" lat="59.7878833322" lon="10.3993583418">
		<tag k="name" v="Skjellestadmåsan" />
		<tag k="natural" v="wetland" />
		<tag k="ssr:stedsnr" v="325723" />
	</node>
	<node id="-26354" lat="59.7934027765" lon="10.3949055471">
		<tag k="name" v="Geitmyra" />
		<tag k="natural" v="wetland" />
		<tag k="ssr:stedsnr" v="208963" />
	</node>
	<node id="-26097" lat="59.8732249964" lon="10.3738388931">
		<tag k="name" v="Dulut" />
		<tag k="place" v="locality" />
		<tag k="ssr:stedsnr" v="325705" />
	</node>
	<node id="-26472" lat="59.8694111133" lon="10.3480527696">
		<tag k="name" v="Storemyr" />
		<tag k="natural" v="wetland" />
		<tag k="ssr:stedsnr" v="489824" />
	</node>
	<node id="-26213" lat="59.8293083353" lon="10.4694027822">
		<tag k="landuse" v="meadow" />
		<tag k="name" v="Langenga" />
		<tag k="ssr:stedsnr" v="23605" />
	</node>
	<node id="-26465" lat="59.7927888846" lon="10.3513055533">
		<tag k="name" v="Fuglemyr" />
		<tag k="natural" v="wetland" />
		<tag k="ssr:stedsnr" v="489743" />
	</node>
	<node id="-26208" lat="59.837366671" lon="10.367205564">
		<tag k="name" v="Langemyr" />
		<tag k="natural" v="wetland" />
		<tag k="ssr:stedsnr" v="22707" />
	</node>
	<node id="-26718" lat="59.8669083334" lon="10.381633341">
		<tag k="name" v="Sørmarka" />
		<tag k="place" v="locality" />
		<tag k="ssr:stedsnr" v="811615" />
	</node>
	<node id="-26333" lat="59.8855583303" lon="10.3544944441">
		<tag k="name" v="Korpåsmyra" />
		<tag k="natural" v="wetland" />
		<tag k="ssr:stedsnr" v="204674" />
	</node>
	<node id="-26588" lat="59.8814527815" lon="10.3816972262">
		<tag k="name" v="Nordhagan" />
		<tag k="place" v="locality" />
		<tag k="ssr:stedsnr" v="629598" />
	</node>
	<node id="-26660" lat="59.8824222191" lon="10.4563805543">
		<tag k="name" v="Fuglesang" />
		<tag k="place" v="locality" />
		<tag k="ssr:stedsnr" v="751635" />
	</node>
	<node id="-26454" lat="59.8349444407" lon="10.3615611024">
		<tag k="name" v="Jerpåsmarka" />
		<tag k="place" v="locality" />
		<tag k="ssr:stedsnr" v="447693" />
	</node>
	<node id="-26449" lat="59.8189749967" lon="10.4177194428">
		<tag k="name" v="Jutemyr" />
		<tag k="natural" v="wetland" />
		<tag k="ssr:stedsnr" v="447654" />
	</node>
	<node id="-26320" lat="59.7848911485" lon="10.3873103311">
		<tag k="name" v="Verkensmåsan" />
		<tag k="natural" v="wetland" />
		<tag k="old_name" v="Verkensmosen" />
		<tag k="ssr:stedsnr" v="186694" />
	</node>
	<node id="-26703" lat="59.8978861091" lon="10.3701333368">
		<tag k="name" v="Kastemyr" />
		<tag k="natural" v="wetland" />
		<tag k="ssr:stedsnr" v="793882" />
	</node>
	<node id="-26487" lat="59.8941416625" lon="10.3678333319">
		<tag k="name" v="Bjønneputt" />
		<tag k="natural" v="wetland" />
		<tag k="ssr:stedsnr" v="507709" />
	</node>
	<node id="-26763" lat="59.8848722224" lon="10.3882722188">
		<tag k="name" v="Tuemyr" />
		<tag k="natural" v="wetland" />
		<tag k="ssr:stedsnr" v="872627" />
	</node>
	<node id="-26303" lat="59.8669472259" lon="10.3656055645">
		<tag k="name" v="Sirismyr" />
		<tag k="natural" v="wetland" />
		<tag k="ssr:stedsnr" v="143707" />
	</node>
	<node id="-26298" lat="59.8167694409" lon="10.4077583368">
		<tag k="name" v="Langemyr" />
		<tag k="natural" v="wetland" />
		<tag k="ssr:stedsnr" v="143674" />
	</node>
	<node id="-26549" lat="59.823936112" lon="10.3909694532">
		<tag k="name" v="Måsan" />
		<tag k="natural" v="wetland" />
		<tag k="ssr:stedsnr" v="568668" />
	</node>
	<node id="-26290" lat="59.8787555553" lon="10.4021333257">
		<tag k="name" v="Tveitermåsan" />
		<tag k="natural" v="wetland" />
		<tag k="ssr:stedsnr" v="143602" />
	</node>
	<node id="-26669" lat="59.8348083326" lon="10.4097638956">
		<tag k="name" v="Ånnerudskogen" />
		<tag k="place" v="locality" />
		<tag k="ssr:stedsnr" v="751670" />
	</node>
	<node id="-26796" lat="59.8596888886" lon="10.3771055517">
		<tag k="name" v="Kulpemyrene" />
		<tag k="natural" v="wetland" />
		<tag k="ssr:stedsnr" v="933660" />
	</node>
	<node id="-26674" lat="59.7972250005" lon="10.3740999951">
		<tag k="name" v="Stinaløkka" />
		<tag k="place" v="locality" />
		<tag k="ssr:stedsnr" v="750665" />
	</node>
	<node id="-26408" lat="59.838833332" lon="10.3823138862">
		<tag k="name" v="Ulverud" />
		<tag k="place" v="locality" />
		<tag k="ssr:stedsnr" v="265658" />
	</node>
	<node id="-26148" lat="59.8417722245" lon="10.47738611">
		<tag k="name" v="Hestehagen" />
		<tag k="place" v="locality" />
		<tag k="ssr:stedsnr" v="386646" />
	</node>
	<node id="-26717" lat="59.8181611111" lon="10.4602166678">
		<tag k="name" v="Husejordet" />
		<tag k="place" v="locality" />
		<tag k="ssr:stedsnr" v="811569" />
	</node>
	<node id="-26629" lat="59.8701583366" lon="10.4188222183">
		<tag k="name" v="Semsmarka" />
		<tag k="place" v="locality" />
		<tag k="ssr:stedsnr" v="690554" />
	</node>
	<node id="-26263" lat="59.8612638849" lon="10.3486055558">
		<tag k="name" v="Midtskogbonn" />
		<tag k="place" v="locality" />
		<tag k="ssr:stedsnr" v="83734" />
	</node>
	<node id="-26257" lat="59.8281111143" lon="10.4585527822">
		<tag k="landuse" v="meadow" />
		<tag k="name" v="Langenga" />
		<tag k="ssr:stedsnr" v="83554" />
	</node>
	<node id="-26640" lat="59.8407388898" lon="10.4051611134">
		<tag k="name" v="Dalsmyra" />
		<tag k="natural" v="wetland" />
		<tag k="ssr:stedsnr" v="690669" />
	</node>
	<node id="-26413" lat="59.8159805512" lon="10.4033277864">
		<tag k="name" v="Stupet" />
		<tag k="place" v="locality" />
		<tag k="ssr:stedsnr" v="265721" />
	</node>
	<node id="-26252" lat="59.8571583378" lon="10.3843027818">
		<tag k="name" v="Breskemyr" />
		<tag k="natural" v="wetland" />
		<tag k="ssr:stedsnr" v="83486" />
	</node>
	<node id="-26251" lat="59.8723833347" lon="10.4339583283">
		<tag k="name" v="Stokkermyra" />
		<tag k="natural" v="wetland" />
		<tag k="ssr:stedsnr" v="83483" />
	</node>
	<node id="-26391" lat="59.8707333322" lon="10.3993749977">
		<tag k="name" v="Tveitermarka" />
		<tag k="place" v="locality" />
		<tag k="ssr:stedsnr" v="265514" />
	</node>
	<node id="-26797" lat="59.8365194467" lon="10.3903805541">
		<tag k="name" v="Hogstadbråtan" />
		<tag k="place" v="locality" />
		<tag k="ssr:stedsnr" v="933663" />
	</node>
	<node id="-26245" lat="59.7803916627" lon="10.4443666688">
		<tag k="name" v="Heggedalsmarka" />
		<tag k="place" v="locality" />
		<tag k="ssr:stedsnr" v="83633" />
	</node>
	<node id="-26242" lat="59.8147361136" lon="10.3597833399">
		<tag k="name" v="Engelsrudmyra" />
		<tag k="natural" v="wetland" />
		<tag k="ssr:stedsnr" v="82689" />
	</node>
</osm>
