<?xml version="1.0" encoding="UTF-8"?>
<osm generator="osmapis" version="0.6">
	<node id="-26186" lat="59.8260209414" lon="10.4134755615">
		<tag k="amenity" v="place_of_worship" />
		<tag k="denomination" v="lutheran" />
		<tag k="name" v="Vardåsen kirke" />
		<tag k="religion" v="christian" />
		<tag k="ssr:stedsnr" v="991001" />
	</node>
	<node id="-26327" lat="59.8433240142" lon="10.4363096175">
		<tag k="alt_name" v="Asker" />
		<tag k="amenity" v="place_of_worship" />
		<tag k="denomination" v="lutheran" />
		<tag k="name" v="Asker kirke" />
		<tag k="religion" v="christian" />
		<tag k="ssr:stedsnr" v="186793" />
	</node>
	<node id="-26230" lat="59.8718194411" lon="10.4901861159">
		<tag k="alt_name" v="Holmen" />
		<tag k="amenity" v="place_of_worship" />
		<tag k="denomination" v="lutheran" />
		<tag k="name" v="Holmen kirke" />
		<tag k="religion" v="christian" />
		<tag k="ssr:stedsnr" v="64843" />
	</node>
	<node id="-26218" lat="59.8479111069" lon="10.4404861033">
		<tag k="name" v="Vogeliusstøtten" />
		<tag k="ssr:stedsnr" v="23660" />
		<tag k="tourism" v="attraction" />
	</node>
	<node id="-26217" lat="59.8533361133" lon="10.4549444378">
		<tag k="name" v="Asker museum" />
		<tag k="ssr:stedsnr" v="23659" />
		<tag k="tourism" v="museum" />
	</node>
	<node id="-26090" lat="59.7858805512" lon="10.4368055526">
		<tag k="amenity" v="place_of_worship" />
		<tag k="denomination" v="lutheran" />
		<tag k="name" v="Heggedal kirke" />
		<tag k="religion" v="christian" />
		<tag k="ssr:stedsnr" v="308639" />
	</node>
	<node id="-26102" lat="59.8731916706" lon="10.4217222237">
		<tag k="amenity" v="community_centre" />
		<tag k="name" v="Asker trekkhundklubb" />
		<tag k="ssr:stedsnr" v="326528" />
	</node>
	<node id="-26689" lat="59.8127888891" lon="10.4639805604">
		<tag k="amenity" v="place_of_worship" />
		<tag k="denomination" v="lutheran" />
		<tag k="name" v="Østenstad kirke" />
		<tag k="religion" v="christian" />
		<tag k="ssr:stedsnr" v="753463" />
	</node>
</osm>
