<?xml version="1.0" encoding="UTF-8"?>
<osm generator="osmapis" version="0.6">
	<node id="-26112" lat="59.8421138867" lon="10.4873194503">
		<tag k="name" v="Hvalstrand bad" />
		<tag k="natural" v="beach" />
		<tag k="place" v="locality" />
		<tag k="ssr:stedsnr" v="326677" />
	</node>
	<node id="-26108" lat="59.8186805599" lon="10.4835999984">
		<tag k="name" v="Blakstadtangen" />
		<tag k="natural" v="cape" />
		<tag k="ssr:stedsnr" v="326597" />
	</node>
	<node id="-26101" lat="59.8682820973" lon="10.5059387981">
		<tag k="name" v="Breivika" />
		<tag k="natural" v="bay" />
		<tag k="ssr:stedsnr" v="326522" />
	</node>
	<node id="-26100" lat="59.8678611114" lon="10.509486109">
		<tag k="name" v="Kuholmene" />
		<tag k="place" v="islet" />
		<tag k="ssr:stedsnr" v="326520" />
	</node>
	<node id="-26609" lat="59.8538583291" lon="10.5431027731">
		<tag k="alt_name" v="Langårasundet" />
		<tag k="name" v="Langårsundet" />
		<tag k="natural" v="strait" />
		<tag k="ssr:stedsnr" v="672800" />
	</node>
	<node id="-26608" lat="59.8569916638" lon="10.5399611148">
		<tag k="name" v="Brønnøya" />
		<tag k="place" v="island" />
		<tag k="ssr:stedsnr" v="672797" />
	</node>
	<node id="-26606" lat="59.846949999" lon="10.5387666746">
		<tag k="fixme" v="consider seamark:type=rock or natural=shoal" />
		<tag k="name" v="Terneholmen" />
		<tag k="place" v="islet" />
		<tag k="ssr:stedsnr" v="672762" />
	</node>
	<node id="-26605" lat="59.833741669" lon="10.4979416612">
		<tag k="name" v="Spirebukta" />
		<tag k="natural" v="bay" />
		<tag k="ssr:stedsnr" v="672760" />
	</node>
	<node id="-26603" lat="59.823702775" lon="10.4890861111">
		<tag k="alt_name" v="Blakkstadbogen" />
		<tag k="fixme" v="multiple name tags, choose one and add the other to alt_name" />
		<tag k="name" v="Blakstadbukta;Blakstadbogen" />
		<tag k="natural" v="bay" />
		<tag k="ssr:stedsnr" v="672713" />
	</node>
	<node id="-26602" lat="59.8305472182" lon="10.5521861161">
		<tag k="alt_name" v="Måsane, vestre" />
		<tag k="name" v="Vestre Måsane" />
		<tag k="natural" v="shoal" />
		<tag k="place" v="locality" />
		<tag k="ssr:stedsnr" v="672709" />
	</node>
	<node id="-26791" lat="59.842613888" lon="10.4909555533">
		<tag k="name" v="Hvalstrand bad" />
		<tag k="natural" v="beach" />
		<tag k="place" v="locality" />
		<tag k="ssr:stedsnr" v="933571" />
	</node>
	<node id="-26600" lat="59.7939061825" lon="10.5022473199">
		<tag k="name" v="Djuptrekkodden" />
		<tag k="natural" v="cape" />
		<tag k="ssr:stedsnr" v="672632" />
	</node>
	<node id="-26596" lat="59.818647222" lon="10.5003888855">
		<tag k="name" v="Koiaberget" />
		<tag k="natural" v="shoal" />
		<tag k="place" v="locality" />
		<tag k="ssr:stedsnr" v="630503" />
	</node>
	<node id="-26790" lat="59.8398444465" lon="10.514783329">
		<tag k="name" v="Utskuddet" />
		<tag k="natural" v="cape" />
		<tag k="ssr:stedsnr" v="933570" />
	</node>
	<node id="-26081" lat="59.8571863242" lon="10.5621349418">
		<tag k="alt_name" v="Viernrenna" />
		<tag k="name" v="Vierrenna" />
		<tag k="natural" v="strait" />
		<tag k="ssr:stedsnr" v="307783" />
	</node>
	<node id="-26077" lat="59.8092944442" lon="10.5084888922">
		<tag k="name" v="Hoggestabben" />
		<tag k="natural" v="shoal" />
		<tag k="place" v="locality" />
		<tag k="ssr:stedsnr" v="300220" />
	</node>
	<node id="-26587" lat="59.814938487" lon="10.4837843194">
		<tag k="name" v="Sjøvollbukta" />
		<tag k="natural" v="bay" />
		<tag k="ssr:stedsnr" v="629586" />
	</node>
	<node id="-26579" lat="59.8548138897" lon="10.4961694525">
		<tag k="name" v="Holmenskjæret" />
		<tag k="natural" v="cape" />
		<tag k="ssr:stedsnr" v="629512" />
	</node>
	<node id="-26573" lat="59.8510361154" lon="10.5189777772">
		<tag k="name" v="Torbjørnsøy" />
		<tag k="place" v="islet" />
		<tag k="ssr:stedsnr" v="611809" />
	</node>
	<node id="-26570" lat="59.8340805568" lon="10.4732999927">
		<tag k="name" v="Tangen" />
		<tag k="natural" v="cape" />
		<tag k="ssr:stedsnr" v="611788" />
	</node>
	<node id="-26563" lat="59.7921167275" lon="10.5019881723">
		<tag k="name" v="Bjerkåsholmen" />
		<tag k="natural" v="cape" />
		<tag k="ssr:stedsnr" v="611679" />
	</node>
	<node id="-26558" lat="59.847188886" lon="10.5199861052">
		<tag k="fixme" v="consider seamark:type=rock or natural=shoal" />
		<tag k="name" v="Sværslepene" />
		<tag k="place" v="islet" />
		<tag k="ssr:stedsnr" v="603587" />
	</node>
	<node id="-26557" lat="59.8172722227" lon="10.5052472242">
		<tag k="name" v="Tunga" />
		<tag k="natural" v="shoal" />
		<tag k="place" v="locality" />
		<tag k="ssr:stedsnr" v="602914" />
	</node>
	<node id="-26552" lat="59.8460277788" lon="10.5067611146">
		<tag k="bay" v="fjord" />
		<tag k="name" v="Holmenfjorden" />
		<tag k="natural" v="bay" />
		<tag k="ssr:stedsnr" v="570398" />
	</node>
	<node id="-26551" lat="59.8545333359" lon="10.5170527861">
		<tag k="name" v="Knollen" />
		<tag k="natural" v="shoal" />
		<tag k="place" v="locality" />
		<tag k="ssr:stedsnr" v="569493" />
	</node>
	<node id="-26540" lat="59.8539250012" lon="10.496280559">
		<tag k="fixme" v="consider seamark:type=rock or natural=shoal" />
		<tag k="name" v="Presteskjær" />
		<tag k="place" v="islet" />
		<tag k="ssr:stedsnr" v="568470" />
	</node>
	<node id="-26525" lat="59.848449998" lon="10.5309611071">
		<tag k="name" v="Langåra" />
		<tag k="place" v="island" />
		<tag k="ssr:stedsnr" v="550769" />
	</node>
	<node id="-26519" lat="59.8078305586" lon="10.5507444426">
		<tag k="name" v="Storegrunnane" />
		<tag k="natural" v="shoal" />
		<tag k="place" v="locality" />
		<tag k="ssr:stedsnr" v="550698" />
	</node>
	<node id="-26514" lat="59.8091277796" lon="10.498675004">
		<tag k="name" v="Knerten" />
		<tag k="natural" v="shoal" />
		<tag k="place" v="locality" />
		<tag k="ssr:stedsnr" v="543235" />
	</node>
	<node id="-26513" lat="59.8296777791" lon="10.5111944395">
		<tag k="name" v="Bjerkøybukta" />
		<tag k="natural" v="bay" />
		<tag k="ssr:stedsnr" v="542927" />
	</node>
	<node id="-26511" lat="59.8109000023" lon="10.4999861185">
		<tag k="name" v="Blakstadgrunnen" />
		<tag k="natural" v="shoal" />
		<tag k="place" v="locality" />
		<tag k="ssr:stedsnr" v="510540" />
	</node>
	<node id="-26509" lat="59.8470500021" lon="10.5608527821">
		<tag k="name" v="Høyerholmfluene" />
		<tag k="natural" v="shoal" />
		<tag k="place" v="locality" />
		<tag k="ssr:stedsnr" v="510467" />
	</node>
	<node id="-26501" lat="59.8180543875" lon="10.4842800244">
		<tag k="name" v="Trosvika" />
		<tag k="natural" v="bay" />
		<tag k="ssr:stedsnr" v="508615" />
	</node>
	<node id="-26500" lat="59.8084972226" lon="10.4956277781">
		<tag k="name" v="Tjuvholmene" />
		<tag k="place" v="islet" />
		<tag k="ssr:stedsnr" v="508560" />
	</node>
	<node id="-26497" lat="59.8548000016" lon="10.5046083346">
		<tag k="fixme" v="consider seamark:type=rock or natural=shoal" />
		<tag k="name" v="Landøyfluene" />
		<tag k="place" v="islet" />
		<tag k="ssr:stedsnr" v="508543" />
	</node>
	<node id="-26495" lat="59.8648277796" lon="10.5411138865">
		<tag k="name" v="Vendelholmene" />
		<tag k="place" v="islet" />
		<tag k="ssr:stedsnr" v="508535" />
	</node>
	<node id="-26494" lat="59.8586842469" lon="10.5492129791">
		<tag k="name" v="Viernbukta" />
		<tag k="natural" v="bay" />
		<tag k="ssr:stedsnr" v="508492" />
	</node>
	<node id="-26481" lat="59.8414027778" lon="10.5409222145">
		<tag k="fixme" v="consider seamark:type=rock or natural=shoal" />
		<tag k="name" v="Raudskjæra" />
		<tag k="place" v="islet" />
		<tag k="ssr:stedsnr" v="490765" />
	</node>
	<node id="-26471" lat="59.863308334" lon="10.52037778">
		<tag k="name" v="Nesøya" />
		<tag k="place" v="island" />
		<tag k="ssr:stedsnr" v="489820" />
	</node>
	<node id="-26466" lat="59.8511333323" lon="10.5571138945">
		<tag k="name" v="Høyerholmen" />
		<tag k="place" v="islet" />
		<tag k="ssr:stedsnr" v="489780" />
	</node>
	<node id="-26464" lat="59.8452027775" lon="10.5005833418">
		<tag k="name" v="Kjoneberget" />
		<tag k="natural" v="shoal" />
		<tag k="place" v="locality" />
		<tag k="ssr:stedsnr" v="481604" />
	</node>
	<node id="-26459" lat="59.8363972245" lon="10.4778999973">
		<tag k="name" v="Tangegrunnen" />
		<tag k="natural" v="shoal" />
		<tag k="place" v="locality" />
		<tag k="ssr:stedsnr" v="449426" />
	</node>
	<node id="-26084" lat="59.8604804525" lon="10.5311274811">
		<tag k="name" v="Vendelsund" />
		<tag k="natural" v="strait" />
		<tag k="ssr:stedsnr" v="307798" />
	</node>
	<node id="-26448" lat="59.8342916671" lon="10.484163894">
		<tag k="alt_name" v="Ersvika" />
		<tag k="name" v="Esvika" />
		<tag k="natural" v="bay" />
		<tag k="ssr:stedsnr" v="447635" />
	</node>
	<node id="-26441" lat="59.8742221556" lon="10.5231571506">
		<tag k="alt_name" v="Hals;Østre Hals" />
		<tag k="name" v="Halsbukta" />
		<tag k="natural" v="bay" />
		<tag k="ssr:stedsnr" v="447527" />
	</node>
	<node id="-26440" lat="59.8212694446" lon="10.4957000017">
		<tag k="name" v="Katteflu" />
		<tag k="place" v="locality" />
		<tag k="seamark:type" v="rock" />
		<tag k="ssr:stedsnr" v="447502" />
	</node>
	<node id="-26434" lat="59.871449996" lon="10.5458972145">
		<tag k="fixme" v="consider seamark:type=rock or natural=shoal" />
		<tag k="name" v="Kreyerskjær" />
		<tag k="place" v="islet" />
		<tag k="ssr:stedsnr" v="447453" />
	</node>
	<node id="-26433" lat="59.8092388891" lon="10.4849694463">
		<tag k="name" v="Skjæret" />
		<tag k="natural" v="cape" />
		<tag k="ssr:stedsnr" v="447318" />
	</node>
	<node id="-26432" lat="59.8213083295" lon="10.503344439">
		<tag k="fixme" v="consider seamark:type=rock or natural=shoal" />
		<tag k="name" v="Bjerkøyskjæra" />
		<tag k="place" v="islet" />
		<tag k="ssr:stedsnr" v="430729" />
	</node>
	<node id="-26429" lat="59.8491666645" lon="10.5248388917">
		<tag k="name" v="Spannslokket" />
		<tag k="place" v="islet" />
		<tag k="ssr:stedsnr" v="429767" />
	</node>
	<node id="-26417" lat="59.8196916662" lon="10.488236117">
		<tag k="fixme" v="consider seamark:type=rock or natural=shoal" />
		<tag k="name" v="Torsken" />
		<tag k="place" v="islet" />
		<tag k="ssr:stedsnr" v="421925" />
	</node>
	<node id="-26414" lat="59.8277111085" lon="10.4866499949">
		<tag k="name" v="Vettrebukta" />
		<tag k="natural" v="bay" />
		<tag k="ssr:stedsnr" v="421578" />
	</node>
	<node id="-26398" lat="59.8544694426" lon="10.5279222197">
		<tag k="name" v="Pilbogen" />
		<tag k="natural" v="bay" />
		<tag k="ssr:stedsnr" v="265547" />
	</node>
	<node id="-26397" lat="59.8322527755" lon="10.5162222309">
		<tag k="alt_name" v="Svartebukta" />
		<tag k="name" v="Svartbukta" />
		<tag k="natural" v="bay" />
		<tag k="ssr:stedsnr" v="265543" />
	</node>
	<node id="-26396" lat="59.8246111113" lon="10.5126666643">
		<tag k="fixme" v="consider seamark:type=rock or natural=shoal" />
		<tag k="name" v="Lille Bjerkøyskjær" />
		<tag k="place" v="islet" />
		<tag k="ssr:stedsnr" v="265544" />
	</node>
	<node id="-26395" lat="59.8060722182" lon="10.4948777823">
		<tag k="alt_name" v="Selvika" />
		<tag k="name" v="Selvikbukta" />
		<tag k="natural" v="bay" />
		<tag k="ssr:stedsnr" v="265533" />
	</node>
	<node id="-26394" lat="59.8513805544" lon="10.5215805599">
		<tag k="name" v="Mellomholmen" />
		<tag k="place" v="islet" />
		<tag k="ssr:stedsnr" v="265532" />
	</node>
	<node id="-26393" lat="59.80826667" lon="10.4929916662">
		<tag k="name" v="Evjeodden" />
		<tag k="natural" v="cape" />
		<tag k="ssr:stedsnr" v="265528" />
	</node>
	<node id="-26374" lat="59.8481277771" lon="10.4968888884">
		<tag k="alt_name" v="Devikodden" />
		<tag k="name" v="Odden" />
		<tag k="natural" v="cape" />
		<tag k="ssr:stedsnr" v="247772" />
	</node>
	<node id="-26370" lat="59.8221874334" lon="10.4868767747">
		<tag k="fixme" v="consider seamark:type=rock or natural=shoal" />
		<tag k="name" v="Rogneskjær" />
		<tag k="place" v="islet" />
		<tag k="ssr:stedsnr" v="247737" />
	</node>
	<node id="-26365" lat="59.8787271701" lon="10.5143626507">
		<tag k="alt_name" v="Slependen" />
		<tag k="name" v="Slependrenna" />
		<tag k="natural" v="strait" />
		<tag k="ssr:stedsnr" v="246822" />
	</node>
	<node id="-26353" lat="59.8538916644" lon="10.551247218">
		<tag k="name" v="Nordre Langåra" />
		<tag k="natural" v="cape" />
		<tag k="ssr:stedsnr" v="206425" />
	</node>
	<node id="-26342" lat="59.8403555523" lon="10.5134055522">
		<tag k="name" v="Østbukta" />
		<tag k="natural" v="bay" />
		<tag k="ssr:stedsnr" v="205579" />
	</node>
	<node id="-26341" lat="59.8026472218" lon="10.4966111168">
		<tag k="fixme" v="multiple name tags, choose one and add the other to alt_name" />
		<tag k="name" v="Arnestadbukta;Hagabukta" />
		<tag k="natural" v="bay" />
		<tag k="ssr:stedsnr" v="205571" />
	</node>
	<node id="-26334" lat="59.8098166697" lon="10.4865666725">
		<tag k="fixme" v="consider seamark:type=rock or natural=shoal" />
		<tag k="name" v="Skjæret" />
		<tag k="place" v="islet" />
		<tag k="ssr:stedsnr" v="204689" />
	</node>
	<node id="-26323" lat="59.8660519161" lon="10.5556464241">
		<tag k="alt_name" v="Ostsund, store;Store Ostsund" />
		<tag k="name" v="Store Ostsundet" />
		<tag k="natural" v="strait" />
		<tag k="ssr:stedsnr" v="186828" />
	</node>
	<node id="-26317" lat="59.8182361087" lon="10.4786666701">
		<tag k="name" v="Vadhusleira" />
		<tag k="natural" v="shoal" />
		<tag k="place" v="locality" />
		<tag k="ssr:stedsnr" v="178909" />
	</node>
	<node id="-26313" lat="59.8069805544" lon="10.5161388931">
		<tag k="name" v="Moen" />
		<tag k="natural" v="shoal" />
		<tag k="place" v="locality" />
		<tag k="ssr:stedsnr" v="145530" />
	</node>
	<node id="-26312" lat="59.8583748538" lon="10.5545176199">
		<tag k="name" v="Viern" />
		<tag k="natural" v="bay" />
		<tag k="ssr:stedsnr" v="145451" />
	</node>
	<node id="-26308" lat="59.8512333365" lon="10.5253638811">
		<tag k="name" v="Katterompa" />
		<tag k="place" v="islet" />
		<tag k="ssr:stedsnr" v="144549" />
	</node>
	<node id="-26808" lat="59.8197277742" lon="10.4826722304">
		<tag k="name" v="Dynga" />
		<tag k="natural" v="bay" />
		<tag k="ssr:stedsnr" v="966920" />
	</node>
	<node id="-26295" lat="59.8340055593" lon="10.4808500024">
		<tag k="name" v="Hvitfisken" />
		<tag k="natural" v="beach" />
		<tag k="place" v="locality" />
		<tag k="ssr:stedsnr" v="143650" />
	</node>
	<node id="-26287" lat="59.8617767777" lon="10.5067928242">
		<tag k="name" v="Nesbukta" />
		<tag k="natural" v="bay" />
		<tag k="ssr:stedsnr" v="143488" />
	</node>
	<node id="-26286" lat="59.8563333373" lon="10.5257444475">
		<tag k="name" v="Sandbukta" />
		<tag k="natural" v="bay" />
		<tag k="ssr:stedsnr" v="143485" />
	</node>
	<node id="-26284" lat="59.8420305523" lon="10.529152772">
		<tag k="fixme" v="consider seamark:type=rock or natural=shoal" />
		<tag k="name" v="Djupalen" />
		<tag k="place" v="islet" />
		<tag k="ssr:stedsnr" v="126741" />
	</node>
	<node id="-26282" lat="59.815513886" lon="10.5276361051">
		<tag k="name" v="Knollen" />
		<tag k="natural" v="shoal" />
		<tag k="place" v="locality" />
		<tag k="ssr:stedsnr" v="126714" />
	</node>
	<node id="-26793" lat="59.8758500002" lon="10.5405555544">
		<tag k="fixme" v="consider seamark:type=rock or natural=shoal" />
		<tag k="name" v="Ulvungene" />
		<tag k="place" v="islet" />
		<tag k="ssr:stedsnr" v="933595" />
	</node>
	<node id="-26279" lat="59.8289859219" lon="10.5081034949">
		<tag k="name" v="Bjerkøya" />
		<tag k="place" v="island" />
		<tag k="ssr:stedsnr" v="126690" />
	</node>
	<node id="-26278" lat="59.8455638922" lon="10.4986194425">
		<tag k="fixme" v="consider seamark:type=rock or natural=shoal" />
		<tag k="name" v="Hvalskjær" />
		<tag k="place" v="islet" />
		<tag k="ssr:stedsnr" v="125796" />
	</node>
	<node id="-26789" lat="59.8526694483" lon="10.4968805512">
		<tag k="name" v="Furunesodden" />
		<tag k="natural" v="cape" />
		<tag k="ssr:stedsnr" v="933558" />
	</node>
	<node id="-26788" lat="59.8552472223" lon="10.550141661">
		<tag k="name" v="Middagsbukta" />
		<tag k="natural" v="bay" />
		<tag k="ssr:stedsnr" v="933555" />
	</node>
	<node id="-26271" lat="59.8569277822" lon="10.515752772">
		<tag k="name" v="Trettodden" />
		<tag k="natural" v="cape" />
		<tag k="ssr:stedsnr" v="118573" />
	</node>
	<node id="-26270" lat="59.7920611086" lon="10.5052888839">
		<tag k="name" v="Stabben" />
		<tag k="natural" v="shoal" />
		<tag k="place" v="locality" />
		<tag k="ssr:stedsnr" v="118186" />
	</node>
	<node id="-26269" lat="59.8172805539" lon="10.5193000043">
		<tag k="name" v="Bjerkøygrunnen" />
		<tag k="natural" v="shoal" />
		<tag k="old_name" v="Bjørkøygrunnen" />
		<tag k="place" v="locality" />
		<tag k="ssr:stedsnr" v="117913" />
	</node>
	<node id="-26260" lat="59.8140361112" lon="10.4820472167">
		<tag k="name" v="Tørkopp" />
		<tag k="natural" v="beach" />
		<tag k="place" v="locality" />
		<tag k="ssr:stedsnr" v="83567" />
	</node>
	<node id="-26770" lat="59.8630155799" lon="10.5117981901">
		<tag k="name" v="Nesbukta" />
		<tag k="natural" v="bay" />
		<tag k="ssr:stedsnr" v="907569" />
	</node>
	<node id="-26769" lat="59.8202666648" lon="10.4936833403">
		<tag k="name" v="Kattegrunnen" />
		<tag k="natural" v="shoal" />
		<tag k="place" v="locality" />
		<tag k="ssr:stedsnr" v="874550" />
	</node>
	<node id="-26768" lat="59.8124611091" lon="10.5056555607">
		<tag k="name" v="Geiteryggen" />
		<tag k="natural" v="shoal" />
		<tag k="place" v="locality" />
		<tag k="ssr:stedsnr" v="874544" />
	</node>
	<node id="-26760" lat="59.840158331" lon="10.5146555577">
		<tag k="name" v="Skjærodden" />
		<tag k="natural" v="cape" />
		<tag k="ssr:stedsnr" v="872566" />
	</node>
	<node id="-26757" lat="59.8649280414" lon="10.5121586034">
		<tag k="name" v="Tobakkshølet" />
		<tag k="natural" v="bay" />
		<tag k="ssr:stedsnr" v="872522" />
	</node>
	<node id="-26750" lat="59.8079250024" lon="10.524255548">
		<tag k="name" v="Sanden" />
		<tag k="natural" v="shoal" />
		<tag k="place" v="locality" />
		<tag k="ssr:stedsnr" v="855763" />
	</node>
	<node id="-26749" lat="59.8231250035" lon="10.4924694465">
		<tag k="name" v="Kråkholmen" />
		<tag k="place" v="islet" />
		<tag k="ssr:stedsnr" v="855761" />
	</node>
	<node id="-26748" lat="59.8178916635" lon="10.4889555478">
		<tag k="name" v="Børsholmen" />
		<tag k="place" v="islet" />
		<tag k="ssr:stedsnr" v="855759" />
	</node>
	<node id="-26745" lat="59.8554611113" lon="10.5563694512">
		<tag k="name" v="Hareholmen" />
		<tag k="place" v="islet" />
		<tag k="ssr:stedsnr" v="854779" />
	</node>
	<node id="-26742" lat="59.8463500004" lon="10.5403833354">
		<tag k="fixme" v="consider seamark:type=rock or natural=shoal" />
		<tag k="name" v="Skaueren" />
		<tag k="place" v="islet" />
		<tag k="ssr:stedsnr" v="854756" />
	</node>
	<node id="-26225" lat="59.7875944437" lon="10.5093277732">
		<tag k="name" v="Slemmestadgrunnen" />
		<tag k="natural" v="shoal" />
		<tag k="place" v="locality" />
		<tag k="ssr:stedsnr" v="24599" />
	</node>
	<node id="-26224" lat="59.8320861111" lon="10.4968000037">
		<tag k="name" v="Spireodden" />
		<tag k="natural" v="cape" />
		<tag k="ssr:stedsnr" v="24455" />
	</node>
	<node id="-26730" lat="59.7990611127" lon="10.5050499982">
		<tag k="name" v="Elnesgrunnene" />
		<tag k="natural" v="shoal" />
		<tag k="place" v="locality" />
		<tag k="ssr:stedsnr" v="813579" />
	</node>
	<node id="-26729" lat="59.8115222235" lon="10.5256722296">
		<tag k="name" v="Stuteberget" />
		<tag k="natural" v="shoal" />
		<tag k="place" v="locality" />
		<tag k="ssr:stedsnr" v="813505" />
	</node>
	<node id="-26728" lat="59.817027776" lon="10.4927361071">
		<tag k="name" v="Østenstadberget" />
		<tag k="natural" v="shoal" />
		<tag k="place" v="locality" />
		<tag k="ssr:stedsnr" v="813499" />
	</node>
	<node id="-26204" lat="59.8174333377" lon="10.4858305635">
		<tag k="alt_name" v="Odden" />
		<tag k="name" v="Østenstadodden" />
		<tag k="natural" v="cape" />
		<tag k="ssr:stedsnr" v="5728" />
	</node>
	<node id="-26713" lat="59.8050861117" lon="10.4965055521">
		<tag k="name" v="Rabben" />
		<tag k="natural" v="cape" />
		<tag k="ssr:stedsnr" v="811508" />
	</node>
	<node id="-26712" lat="59.851747224" lon="10.5090527757">
		<tag k="fixme" v="multiple name tags, choose one and add the other to alt_name; consider seamark:type=rock or natural=shoal" />
		<tag k="name" v="Midtskjær;Torbjørnskjær" />
		<tag k="place" v="islet" />
		<tag k="ssr:stedsnr" v="811503" />
	</node>
	<node id="-26711" lat="59.8529472246" lon="10.4963611046">
		<tag k="name" v="Devikbukta" />
		<tag k="natural" v="bay" />
		<tag k="ssr:stedsnr" v="811499" />
	</node>
	<node id="-26710" lat="59.87188786" lon="10.5120641299">
		<tag k="name" v="Vestre Hals" />
		<tag k="natural" v="bay" />
		<tag k="ssr:stedsnr" v="811470" />
	</node>
	<node id="-26708" lat="59.866122943" lon="10.5366043925">
		<tag k="name" v="Kalkbukta" />
		<tag k="natural" v="bay" />
		<tag k="ssr:stedsnr" v="811462" />
	</node>
	<node id="-26707" lat="59.8105055552" lon="10.486630548">
		<tag k="name" v="Vollebukta" />
		<tag k="natural" v="bay" />
		<tag k="ssr:stedsnr" v="811339" />
	</node>
	<node id="-26191" lat="59.7981277762" lon="10.5149888814">
		<tag k="name" v="Torsgrunnen" />
		<tag k="natural" v="shoal" />
		<tag k="place" v="locality" />
		<tag k="ssr:stedsnr" v="267562" />
	</node>
	<node id="-26699" lat="59.8389313415" lon="10.4857304859">
		<tag k="name" v="Leangbukta" />
		<tag k="natural" v="bay" />
		<tag k="ssr:stedsnr" v="793787" />
	</node>
	<node id="-26695" lat="59.8496750016" lon="10.5196138958">
		<tag k="name" v="Furuholmen" />
		<tag k="place" v="islet" />
		<tag k="ssr:stedsnr" v="793552" />
	</node>
	<node id="-26694" lat="59.7925027811" lon="10.514575001">
		<tag k="name" v="Torsteingrunnen" />
		<tag k="natural" v="shoal" />
		<tag k="place" v="locality" />
		<tag k="ssr:stedsnr" v="786209" />
	</node>
	<node id="-26633" lat="59.8069027791" lon="10.4971527731">
		<tag k="fixme" v="consider seamark:type=rock or natural=shoal" />
		<tag k="name" v="Terneskjær" />
		<tag k="place" v="islet" />
		<tag k="ssr:stedsnr" v="690572" />
	</node>
	<node id="-26672" lat="59.8619097579" lon="10.5115916672">
		<tag k="name" v="Sververen" />
		<tag k="natural" v="bay" />
		<tag k="ssr:stedsnr" v="750469" />
	</node>
	<node id="-26157" lat="59.8087861153" lon="10.5314833366">
		<tag k="name" v="Morragrunnen" />
		<tag k="natural" v="shoal" />
		<tag k="place" v="locality" />
		<tag k="ssr:stedsnr" v="388512" />
	</node>
	<node id="-26156" lat="59.8393250015" lon="10.5127222293">
		<tag k="name" v="Konglungøya" />
		<tag k="place" v="islet" />
		<tag k="ssr:stedsnr" v="388422" />
	</node>
	<node id="-26716" lat="59.8203666698" lon="10.4773472183">
		<tag k="name" v="Ormodden" />
		<tag k="natural" v="cape" />
		<tag k="ssr:stedsnr" v="811562" />
	</node>
	<node id="-26144" lat="59.8194307986" lon="10.4871602087">
		<tag k="fixme" v="consider seamark:type=rock or natural=shoal" />
		<tag k="name" v="Fliene" />
		<tag k="place" v="islet" />
		<tag k="ssr:stedsnr" v="386558" />
	</node>
	<node id="-26653" lat="59.8336694489" lon="10.5279694467">
		<tag k="name" v="Bjerkøygrunnen" />
		<tag k="natural" v="shoal" />
		<tag k="place" v="locality" />
		<tag k="ssr:stedsnr" v="733691" />
	</node>
	<node id="-26140" lat="59.8357611136" lon="10.5148805509">
		<tag k="alt_name" v="Einarsgrunn" />
		<tag k="name" v="Einarsgrunnen" />
		<tag k="natural" v="shoal" />
		<tag k="place" v="locality" />
		<tag k="ssr:stedsnr" v="386510" />
	</node>
	<node id="-26650" lat="59.8643555572" lon="10.5094833276">
		<tag k="name" v="Hestesund" />
		<tag k="natural" v="strait" />
		<tag k="ssr:stedsnr" v="732811" />
	</node>
	<node id="-26649" lat="59.8771346233" lon="10.536348706">
		<tag k="fixme" v="consider seamark:type=rock or natural=shoal" />
		<tag k="name" v="Ulykkesskjær" />
		<tag k="place" v="islet" />
		<tag k="ssr:stedsnr" v="731828" />
	</node>
	<node id="-26647" lat="59.8508138872" lon="10.5309500031">
		<tag k="fixme" v="consider seamark:type=rock or natural=shoal" />
		<tag k="name" v="Skurven" />
		<tag k="place" v="islet" />
		<tag k="ssr:stedsnr" v="725562" />
	</node>
	<node id="-26646" lat="59.8191527812" lon="10.4859638871">
		<tag k="fixme" v="consider seamark:type=rock or natural=shoal" />
		<tag k="name" v="Flyndra" />
		<tag k="place" v="islet" />
		<tag k="ssr:stedsnr" v="724930" />
	</node>
	<node id="-26132" lat="59.8038805532" lon="10.5046194446">
		<tag k="name" v="Takkedraget" />
		<tag k="place" v="sea" />
		<tag k="ssr:stedsnr" v="386505" />
	</node>
	<node id="-26635" lat="59.8767944532" lon="10.5193094128">
		<tag k="name" v="Nordre Nesøya" />
		<tag k="place" v="island" />
		<tag k="ssr:stedsnr" v="690601" />
	</node>
	<node id="-26121" lat="59.846124997" lon="10.5295944394">
		<tag k="name" v="Fururyggen" />
		<tag k="place" v="locality" />
		<tag k="ssr:stedsnr" v="361650" />
	</node>
	<node id="-26632" lat="59.8075638874" lon="10.490680551">
		<tag k="name" v="Maudbukta" />
		<tag k="natural" v="bay" />
		<tag k="ssr:stedsnr" v="690565" />
	</node>
	<node id="-26119" lat="59.8368861134" lon="10.4894305618">
		<tag k="name" v="Løkeneslandet" />
		<tag k="natural" v="beach" />
		<tag k="place" v="locality" />
		<tag k="ssr:stedsnr" v="359630" />
	</node>
	<node id="-26627" lat="59.8730611122" lon="10.5073111122">
		<tag k="name" v="Grønsund" />
		<tag k="natural" v="strait" />
		<tag k="ssr:stedsnr" v="690539" />
	</node>
</osm>
