<?xml version="1.0" encoding="UTF-8"?>
<osm generator="osmapis" version="0.6">
	<node id="-26111" lat="59.8742250044" lon="10.3854527844">
		<tag k="name" v="Østre Rustan" />
		<tag k="natural" v="hill" />
		<tag k="place" v="locality" />
		<tag k="ssr:stedsnr" v="326649" />
	</node>
	<node id="-26110" lat="59.8789638871" lon="10.3919833349">
		<tag k="name" v="Gabrielsbonn" />
		<tag k="place" v="locality" />
		<tag k="ssr:stedsnr" v="326632" />
	</node>
	<node id="-26617" lat="59.8399000009" lon="10.345116665">
		<tag k="name" v="Sleppen" />
		<tag k="place" v="locality" />
		<tag k="ssr:stedsnr" v="689667" />
	</node>
	<node id="-26103" lat="59.8698916627" lon="10.4569194399">
		<tag k="fixme" v="consider natural=peak for the most distinct mountains in the district" />
		<tag k="name" v="Salåsen" />
		<tag k="natural" v="hill" />
		<tag k="place" v="locality" />
		<tag k="ssr:stedsnr" v="326533" />
	</node>
	<node id="-26612" lat="59.8509250044" lon="10.3891305476">
		<tag k="name" v="Bjønnhølet" />
		<tag k="natural" v="valley" />
		<tag k="place" v="locality" />
		<tag k="ssr:stedsnr" v="689588" />
	</node>
	<node id="-26611" lat="59.8470361083" lon="10.3779666741">
		<tag k="name" v="Olledalen" />
		<tag k="natural" v="valley" />
		<tag k="place" v="locality" />
		<tag k="ssr:stedsnr" v="689584" />
	</node>
	<node id="-26610" lat="59.8505861076" lon="10.3994638856">
		<tag k="name" v="Semskollen" />
		<tag k="natural" v="hill" />
		<tag k="place" v="locality" />
		<tag k="ssr:stedsnr" v="689238" />
	</node>
	<node id="-26092" lat="59.8098499963" lon="10.3843638886">
		<tag k="name" v="Slottsberget" />
		<tag k="natural" v="hill" />
		<tag k="place" v="locality" />
		<tag k="ssr:stedsnr" v="308729" />
	</node>
	<node id="-26088" lat="59.7892166632" lon="10.4027527838">
		<tag k="name" v="Slottsberget" />
		<tag k="natural" v="hill" />
		<tag k="place" v="locality" />
		<tag k="ssr:stedsnr" v="308485" />
	</node>
	<node id="-26086" lat="59.8611361102" lon="10.4434027768">
		<tag k="fixme" v="consider natural=peak for the most distinct mountains in the district" />
		<tag k="name" v="Skaugumsåsen" />
		<tag k="natural" v="hill" />
		<tag k="place" v="locality" />
		<tag k="ssr:stedsnr" v="307806" />
	</node>
	<node id="-26582" lat="59.8641222234" lon="10.4576777831">
		<tag k="name" v="Furubakken" />
		<tag k="natural" v="slope" />
		<tag k="place" v="locality" />
		<tag k="ssr:stedsnr" v="629527" />
	</node>
	<node id="-26581" lat="59.8666888918" lon="10.4580694503">
		<tag k="name" v="Solstadlia" />
		<tag k="natural" v="slope" />
		<tag k="place" v="locality" />
		<tag k="ssr:stedsnr" v="629520" />
	</node>
	<node id="-26577" lat="59.8068972221" lon="10.4742222167">
		<tag k="fixme" v="consider natural=peak for the most distinct mountains in the district" />
		<tag k="name" v="Heslebergtoppen" />
		<tag k="natural" v="hill" />
		<tag k="place" v="locality" />
		<tag k="ssr:stedsnr" v="628701" />
	</node>
	<node id="-26576" lat="59.8411555512" lon="10.3812916636">
		<tag k="name" v="Kvernhusdalen" />
		<tag k="natural" v="valley" />
		<tag k="place" v="locality" />
		<tag k="ssr:stedsnr" v="628612" />
	</node>
	<node id="-26562" lat="59.8456416626" lon="10.357686117">
		<tag k="fixme" v="consider natural=peak for the most distinct mountains in the district" />
		<tag k="name" v="Furuåsen" />
		<tag k="natural" v="hill" />
		<tag k="place" v="locality" />
		<tag k="ssr:stedsnr" v="611519" />
	</node>
	<node id="-26548" lat="59.8129722247" lon="10.4035166592">
		<tag k="name" v="Råtadalen" />
		<tag k="natural" v="valley" />
		<tag k="place" v="locality" />
		<tag k="ssr:stedsnr" v="568659" />
	</node>
	<node id="-26537" lat="59.8700500031" lon="10.3448638877">
		<tag k="fixme" v="consider natural=peak for the most distinct mountains in the district" />
		<tag k="name" v="St. Hansåsen" />
		<tag k="natural" v="hill" />
		<tag k="place" v="locality" />
		<tag k="ssr:stedsnr" v="567711" />
	</node>
	<node id="-26535" lat="59.8520222255" lon="10.3403055605">
		<tag k="name" v="Finneløkka" />
		<tag k="place" v="locality" />
		<tag k="ssr:stedsnr" v="567691" />
	</node>
	<node id="-26530" lat="59.8518361119" lon="10.4061611158">
		<tag k="fixme" v="consider natural=peak for the most distinct mountains in the district" />
		<tag k="loc_name" v="Vinkova" />
		<tag k="name" v="Vindkovan" />
		<tag k="natural" v="hill" />
		<tag k="place" v="locality" />
		<tag k="ssr:stedsnr" v="567612" />
	</node>
	<node id="-26528" lat="59.8527334857" lon="10.3810411812">
		<tag k="name" v="Hagahogget" />
		<tag k="natural" v="gorge" />
		<tag k="ssr:stedsnr" v="550801" />
	</node>
	<node id="-26510" lat="59.7852777783" lon="10.3902777848">
		<tag k="fixme" v="consider natural=peak for the most distinct mountains in the district" />
		<tag k="name" v="Brennåsen" />
		<tag k="natural" v="hill" />
		<tag k="place" v="locality" />
		<tag k="ssr:stedsnr" v="510527" />
	</node>
	<node id="-26504" lat="59.8317055585" lon="10.396100008">
		<tag k="name" v="Limomnroa" />
		<tag k="place" v="locality" />
		<tag k="ssr:stedsnr" v="508664" />
	</node>
	<node id="-26503" lat="59.8353416646" lon="10.4271444479">
		<tag k="name" v="Føyka" />
		<tag k="natural" v="slope" />
		<tag k="place" v="locality" />
		<tag k="ssr:stedsnr" v="508660" />
	</node>
	<node id="-26499" lat="59.863241668" lon="10.4537944522">
		<tag k="name" v="Rugbråtesletta" />
		<tag k="place" v="locality" />
		<tag k="ssr:stedsnr" v="508554" />
	</node>
	<node id="-26498" lat="59.858286112" lon="10.4360777831">
		<tag k="name" v="Svartdalen" />
		<tag k="natural" v="valley" />
		<tag k="place" v="locality" />
		<tag k="ssr:stedsnr" v="508548" />
	</node>
	<node id="-26493" lat="59.8559308254" lon="10.3821605896">
		<tag k="fixme" v="consider natural=peak for the most distinct mountains in the district" />
		<tag k="name" v="Bergsåsen" />
		<tag k="natural" v="hill" />
		<tag k="place" v="locality" />
		<tag k="ssr:stedsnr" v="508375" />
	</node>
	<node id="-26484" lat="59.8483333308" lon="10.3802194362">
		<tag k="loc_name" v="Skåbakke" />
		<tag k="name" v="Skovbakke" />
		<tag k="natural" v="slope" />
		<tag k="place" v="locality" />
		<tag k="ssr:stedsnr" v="507630" />
	</node>
	<node id="-26455" lat="59.8449111108" lon="10.3628083417">
		<tag k="fixme" v="consider natural=peak for the most distinct mountains in the district" />
		<tag k="name" v="Kvieberget" />
		<tag k="natural" v="hill" />
		<tag k="place" v="locality" />
		<tag k="ssr:stedsnr" v="447692" />
	</node>
	<node id="-26453" lat="59.8497805599" lon="10.3677333256">
		<tag k="name" v="Tranevassdalen" />
		<tag k="natural" v="valley" />
		<tag k="place" v="locality" />
		<tag k="ssr:stedsnr" v="447687" />
	</node>
	<node id="-26452" lat="59.8871194463" lon="10.3598527813">
		<tag k="fixme" v="consider natural=peak for the most distinct mountains in the district" />
		<tag k="name" v="Korpåsen" />
		<tag k="natural" v="hill" />
		<tag k="place" v="locality" />
		<tag k="ssr:stedsnr" v="447684" />
	</node>
	<node id="-26445" lat="59.7785694409" lon="10.4358916594">
		<tag k="name" v="Grodalen" />
		<tag k="natural" v="valley" />
		<tag k="place" v="locality" />
		<tag k="ssr:stedsnr" v="447617" />
	</node>
	<node id="-26443" lat="59.8194305529" lon="10.436536106">
		<tag k="name" v="Høva" />
		<tag k="place" v="locality" />
		<tag k="ssr:stedsnr" v="447543" />
	</node>
	<node id="-26442" lat="59.827522223" lon="10.4646916755">
		<tag k="fixme" v="consider natural=peak for the most distinct mountains in the district" />
		<tag k="name" v="Krillås" />
		<tag k="natural" v="hill" />
		<tag k="place" v="locality" />
		<tag k="ssr:stedsnr" v="447542" />
	</node>
	<node id="-26438" lat="59.8613138928" lon="10.4730666631">
		<tag k="name" v="Kalddalen" />
		<tag k="natural" v="valley" />
		<tag k="place" v="locality" />
		<tag k="ssr:stedsnr" v="447489" />
	</node>
	<node id="-26421" lat="59.8319805556" lon="10.3705361027">
		<tag k="fixme" v="consider natural=peak for the most distinct mountains in the district" />
		<tag k="name" v="Høgås" />
		<tag k="natural" v="hill" />
		<tag k="place" v="locality" />
		<tag k="ssr:stedsnr" v="429493" />
	</node>
	<node id="-26420" lat="59.8712916649" lon="10.4501666644">
		<tag k="fixme" v="consider natural=peak for the most distinct mountains in the district" />
		<tag k="name" v="Grosetkollen" />
		<tag k="natural" v="hill" />
		<tag k="place" v="locality" />
		<tag k="ssr:stedsnr" v="428824" />
	</node>
	<node id="-26415" lat="59.8289750024" lon="10.4900055615">
		<tag k="name" v="Ulalandet" />
		<tag k="place" v="locality" />
		<tag k="ssr:stedsnr" v="421581" />
	</node>
	<node id="-26407" lat="59.8389166673" lon="10.4049638924">
		<tag k="name" v="Wittenberg" />
		<tag k="place" v="locality" />
		<tag k="ssr:stedsnr" v="265659" />
	</node>
	<node id="-26406" lat="59.877191667" lon="10.4722194425">
		<tag k="name" v="Nadderud" />
		<tag k="natural" v="slope" />
		<tag k="place" v="locality" />
		<tag k="ssr:stedsnr" v="265652" />
	</node>
	<node id="-26404" lat="59.8306583289" lon="10.4614749976">
		<tag k="name" v="Lindløkka" />
		<tag k="place" v="locality" />
		<tag k="ssr:stedsnr" v="265580" />
	</node>
	<node id="-26403" lat="59.8278972206" lon="10.4724250019">
		<tag k="name" v="Kirkesletta" />
		<tag k="place" v="locality" />
		<tag k="ssr:stedsnr" v="265581" />
	</node>
	<node id="-26392" lat="59.8709638927" lon="10.4250972201">
		<tag k="name" v="Djupendalen" />
		<tag k="natural" v="valley" />
		<tag k="place" v="locality" />
		<tag k="ssr:stedsnr" v="265517" />
	</node>
	<node id="-26387" lat="59.8709888862" lon="10.530905557">
		<tag k="fixme" v="consider natural=peak for the most distinct mountains in the district" />
		<tag k="name" v="Borgen" />
		<tag k="natural" v="hill" />
		<tag k="place" v="locality" />
		<tag k="ssr:stedsnr" v="265500" />
	</node>
	<node id="-26382" lat="59.7793722265" lon="10.4328583323">
		<tag k="fixme" v="consider natural=peak for the most distinct mountains in the district" />
		<tag k="name" v="Åmotåsen" />
		<tag k="natural" v="hill" />
		<tag k="place" v="locality" />
		<tag k="ssr:stedsnr" v="264731" />
	</node>
	<node id="-26379" lat="59.8831416655" lon="10.3726361144">
		<tag k="name" v="Lushattdalen" />
		<tag k="natural" v="valley" />
		<tag k="place" v="locality" />
		<tag k="ssr:stedsnr" v="247833" />
	</node>
	<node id="-26364" lat="59.876061114" lon="10.3740249967">
		<tag k="name" v="Vestmarka" />
		<tag k="natural" v="wood" />
		<tag k="ssr:stedsnr" v="246804" />
	</node>
	<node id="-26351" lat="59.8189583323" lon="10.4065777785">
		<tag k="name" v="Åsløkka" />
		<tag k="place" v="locality" />
		<tag k="ssr:stedsnr" v="205704" />
	</node>
	<node id="-26350" lat="59.817630558" lon="10.4224555502">
		<tag k="fixme" v="consider natural=peak for the most distinct mountains in the district" />
		<tag k="name" v="Gjøkhaugen" />
		<tag k="natural" v="hill" />
		<tag k="place" v="locality" />
		<tag k="ssr:stedsnr" v="205700" />
	</node>
	<node id="-26349" lat="59.8461277736" lon="10.4381111069">
		<tag k="name" v="Prinsehaugen" />
		<tag k="natural" v="hill" />
		<tag k="place" v="locality" />
		<tag k="ssr:stedsnr" v="205696" />
	</node>
	<node id="-26344" lat="59.8512083367" lon="10.4546944401">
		<tag k="name" v="Brusetkollen" />
		<tag k="natural" v="hill" />
		<tag k="place" v="locality" />
		<tag k="ssr:stedsnr" v="205667" />
	</node>
	<node id="-26343" lat="59.850383331" lon="10.459447225">
		<tag k="name" v="Leikarvollen" />
		<tag k="place" v="locality" />
		<tag k="ssr:stedsnr" v="205665" />
	</node>
	<node id="-26340" lat="59.8711555599" lon="10.4747777709">
		<tag k="name" v="Åstadlia" />
		<tag k="natural" v="slope" />
		<tag k="place" v="locality" />
		<tag k="ssr:stedsnr" v="205563" />
	</node>
	<node id="-26339" lat="59.8548833362" lon="10.3964055601">
		<tag k="name" v="Almedalen" />
		<tag k="natural" v="valley" />
		<tag k="place" v="locality" />
		<tag k="ssr:stedsnr" v="205556" />
	</node>
	<node id="-26338" lat="59.8653666649" lon="10.4187944446">
		<tag k="name" v="Hajumskleiva" />
		<tag k="natural" v="slope" />
		<tag k="place" v="locality" />
		<tag k="ssr:stedsnr" v="205553" />
	</node>
	<node id="-26661" lat="59.8438333293" lon="10.4265527734">
		<tag k="name" v="Kattugledalen" />
		<tag k="natural" v="valley" />
		<tag k="place" v="locality" />
		<tag k="ssr:stedsnr" v="751638" />
	</node>
	<node id="-26330" lat="59.8135111081" lon="10.4144222208">
		<tag k="fixme" v="consider natural=peak for the most distinct mountains in the district" />
		<tag k="name" v="Vardåsen" />
		<tag k="natural" v="hill" />
		<tag k="place" v="locality" />
		<tag k="ssr:stedsnr" v="187494" />
	</node>
	<node id="-26309" lat="59.8833833289" lon="10.4509555589">
		<tag k="fixme" v="consider natural=peak for the most distinct mountains in the district" />
		<tag k="name" v="Eikhaugen" />
		<tag k="natural" v="hill" />
		<tag k="place" v="locality" />
		<tag k="ssr:stedsnr" v="144629" />
	</node>
	<node id="-26305" lat="59.8575972237" lon="10.4532861147">
		<tag k="fixme" v="consider natural=peak for the most distinct mountains in the district" />
		<tag k="name" v="Kloåsen" />
		<tag k="natural" v="hill" />
		<tag k="place" v="locality" />
		<tag k="ssr:stedsnr" v="144528" />
	</node>
	<node id="-26289" lat="59.8150555525" lon="10.4519027843">
		<tag k="name" v="Lensmannssvingen" />
		<tag k="place" v="locality" />
		<tag k="ssr:stedsnr" v="143567" />
	</node>
	<node id="-26288" lat="59.8227472262" lon="10.4344416676">
		<tag k="name" v="Bondilia" />
		<tag k="place" v="locality" />
		<tag k="ssr:stedsnr" v="143564" />
	</node>
	<node id="-26799" lat="59.8369611134" lon="10.4286999981">
		<tag k="name" v="Askerbrubakken" />
		<tag k="natural" v="slope" />
		<tag k="place" v="locality" />
		<tag k="ssr:stedsnr" v="933681" />
	</node>
	<node id="-26794" lat="59.8301138846" lon="10.486958336">
		<tag k="name" v="Munkesletta" />
		<tag k="place" v="locality" />
		<tag k="ssr:stedsnr" v="933603" />
	</node>
	<node id="-26792" lat="59.8747083328" lon="10.4939611127">
		<tag k="name" v="Billingstadsletta" />
		<tag k="place" v="locality" />
		<tag k="ssr:stedsnr" v="933589" />
	</node>
	<node id="-26786" lat="59.7841972181" lon="10.4708472216">
		<tag k="fixme" v="consider natural=peak for the most distinct mountains in the district" />
		<tag k="name" v="Torpfjellet" />
		<tag k="natural" v="hill" />
		<tag k="place" v="locality" />
		<tag k="ssr:stedsnr" v="932699" />
	</node>
	<node id="-26784" lat="59.8500638933" lon="10.3654999945">
		<tag k="name" v="Brudetrappa" />
		<tag k="natural" v="slope" />
		<tag k="place" v="locality" />
		<tag k="ssr:stedsnr" v="932674" />
	</node>
	<node id="-26783" lat="59.8531333332" lon="10.3723000072">
		<tag k="name" v="Lensmannsdalen" />
		<tag k="natural" v="valley" />
		<tag k="place" v="locality" />
		<tag k="ssr:stedsnr" v="932673" />
	</node>
	<node id="-26259" lat="59.8196555532" lon="10.4495305536">
		<tag k="name" v="Ridderkleiva" />
		<tag k="natural" v="slope" />
		<tag k="place" v="locality" />
		<tag k="ssr:stedsnr" v="83560" />
	</node>
	<node id="-26255" lat="59.8719527744" lon="10.4983555564">
		<tag k="name" v="Pustut" />
		<tag k="natural" v="hill" />
		<tag k="place" v="locality" />
		<tag k="ssr:stedsnr" v="83540" />
	</node>
	<node id="-26766" lat="59.851505556" lon="10.4836305513">
		<tag k="name" v="Syverstadbråten" />
		<tag k="natural" v="hill" />
		<tag k="place" v="locality" />
		<tag k="ssr:stedsnr" v="872683" />
	</node>
	<node id="-26253" lat="59.8723055599" lon="10.4610055642">
		<tag k="name" v="Bjønnekleiva" />
		<tag k="natural" v="valley" />
		<tag k="place" v="locality" />
		<tag k="ssr:stedsnr" v="83488" />
	</node>
	<node id="-26761" lat="59.8247027774" lon="10.4641583248">
		<tag k="name" v="Brudegrinda" />
		<tag k="place" v="locality" />
		<tag k="ssr:stedsnr" v="872599" />
	</node>
	<node id="-26759" lat="59.860069449" lon="10.4425416616">
		<tag k="name" v="Raset" />
		<tag k="natural" v="slope" />
		<tag k="place" v="locality" />
		<tag k="ssr:stedsnr" v="872544" />
	</node>
	<node id="-26756" lat="59.8047861091" lon="10.4599833355">
		<tag k="fixme" v="consider natural=peak for the most distinct mountains in the district" />
		<tag k="name" v="Årostoppen" />
		<tag k="natural" v="hill" />
		<tag k="place" v="locality" />
		<tag k="ssr:stedsnr" v="871725" />
	</node>
	<node id="-26747" lat="59.886674996" lon="10.3684388927">
		<tag k="fixme" v="consider natural=peak for the most distinct mountains in the district" />
		<tag k="name" v="Haveråsen" />
		<tag k="natural" v="hill" />
		<tag k="place" v="locality" />
		<tag k="ssr:stedsnr" v="854840" />
	</node>
	<node id="-26746" lat="59.8578277817" lon="10.3507027751">
		<tag k="fixme" v="consider natural=peak for the most distinct mountains in the district" />
		<tag k="name" v="Kariåsen" />
		<tag k="natural" v="hill" />
		<tag k="place" v="locality" />
		<tag k="ssr:stedsnr" v="854789" />
	</node>
	<node id="-26231" lat="59.8755249986" lon="10.4329333257">
		<tag k="fixme" v="consider natural=peak for the most distinct mountains in the district" />
		<tag k="name" v="Furuåsen" />
		<tag k="natural" v="hill" />
		<tag k="place" v="locality" />
		<tag k="ssr:stedsnr" v="65511" />
	</node>
	<node id="-26734" lat="59.8589388913" lon="10.5143249986">
		<tag k="name" v="Omnen" />
		<tag k="natural" v="valley" />
		<tag k="place" v="locality" />
		<tag k="ssr:stedsnr" v="847615" />
	</node>
	<node id="-26219" lat="59.8399416678" lon="10.4167249937">
		<tag k="name" v="Solvangbakkene" />
		<tag k="natural" v="slope" />
		<tag k="place" v="locality" />
		<tag k="ssr:stedsnr" v="23670" />
	</node>
	<node id="-26216" lat="59.8111944408" lon="10.4782361181">
		<tag k="fixme" v="consider natural=peak for the most distinct mountains in the district" />
		<tag k="name" v="Kojaåsen" />
		<tag k="natural" v="hill" />
		<tag k="place" v="locality" />
		<tag k="ssr:stedsnr" v="23615" />
	</node>
	<node id="-26215" lat="59.8128722185" lon="10.4826944482">
		<tag k="name" v="Rønningen" />
		<tag k="place" v="locality" />
		<tag k="ssr:stedsnr" v="23613" />
	</node>
	<node id="-26212" lat="59.8303638912" lon="10.4669861161">
		<tag k="name" v="Hvile" />
		<tag k="place" v="locality" />
		<tag k="ssr:stedsnr" v="23603" />
	</node>
	<node id="-26722" lat="59.8426916625" lon="10.4338749965">
		<tag k="name" v="Kirkelia" />
		<tag k="natural" v="slope" />
		<tag k="place" v="locality" />
		<tag k="ssr:stedsnr" v="811655" />
	</node>
	<node id="-26688" lat="59.8310805593" lon="10.3978166643">
		<tag k="fixme" v="consider natural=peak for the most distinct mountains in the district" />
		<tag k="name" v="Kalkås" />
		<tag k="natural" v="hill" />
		<tag k="place" v="locality" />
		<tag k="ssr:stedsnr" v="751698" />
	</node>
	<node id="-26687" lat="59.8174194412" lon="10.4618638916">
		<tag k="name" v="Langlibakken" />
		<tag k="natural" v="slope" />
		<tag k="place" v="locality" />
		<tag k="ssr:stedsnr" v="751586" />
	</node>
	<node id="-26686" lat="59.827138889" lon="10.4608777812">
		<tag k="name" v="Granbakken" />
		<tag k="natural" v="slope" />
		<tag k="place" v="locality" />
		<tag k="ssr:stedsnr" v="751579" />
	</node>
	<node id="-26155" lat="59.8874055518" lon="10.3636166658">
		<tag k="name" v="Djupdalen" />
		<tag k="natural" v="valley" />
		<tag k="place" v="locality" />
		<tag k="ssr:stedsnr" v="386701" />
	</node>
	<node id="-26665" lat="59.8343805578" lon="10.4112305628">
		<tag k="name" v="Lysthusbråten" />
		<tag k="place" v="locality" />
		<tag k="ssr:stedsnr" v="751664" />
	</node>
	<node id="-26664" lat="59.8509805569" lon="10.4616555533">
		<tag k="fixme" v="consider natural=peak for the most distinct mountains in the district" />
		<tag k="name" v="Vakås" />
		<tag k="natural" v="hill" />
		<tag k="place" v="locality" />
		<tag k="ssr:stedsnr" v="751659" />
	</node>
	<node id="-26662" lat="59.8437722201" lon="10.3861694455">
		<tag k="fixme" v="consider natural=peak for the most distinct mountains in the district" />
		<tag k="name" v="Rudsåsen" />
		<tag k="natural" v="hill" />
		<tag k="place" v="locality" />
		<tag k="ssr:stedsnr" v="751646" />
	</node>
	<node id="-26149" lat="59.8531749985" lon="10.4878833386">
		<tag k="name" v="Holmenbakkene" />
		<tag k="natural" v="slope" />
		<tag k="place" v="locality" />
		<tag k="ssr:stedsnr" v="386648" />
	</node>
	<node id="-26658" lat="59.8995972264" lon="10.36716667">
		<tag k="fixme" v="consider natural=peak for the most distinct mountains in the district" />
		<tag k="name" v="Buråsen" />
		<tag k="natural" v="hill" />
		<tag k="place" v="locality" />
		<tag k="ssr:stedsnr" v="750026" />
	</node>
	<node id="-26145" lat="59.8164333337" lon="10.4576638896">
		<tag k="name" v="Blakstadmarka" />
		<tag k="place" v="locality" />
		<tag k="ssr:stedsnr" v="386565" />
	</node>
	<node id="-26143" lat="59.8187222201" lon="10.4536361135">
		<tag k="name" v="Vabråten" />
		<tag k="place" v="locality" />
		<tag k="ssr:stedsnr" v="386557" />
	</node>
	<node id="-26142" lat="59.8210500035" lon="10.4514250049">
		<tag k="fixme" v="consider natural=peak for the most distinct mountains in the district" />
		<tag k="name" v="Kjøiaåsen" />
		<tag k="natural" v="hill" />
		<tag k="place" v="locality" />
		<tag k="ssr:stedsnr" v="386553" />
	</node>
	<node id="-26141" lat="59.8316388921" lon="10.4634111041">
		<tag k="name" v="Leangkollen" />
		<tag k="natural" v="hill" />
		<tag k="place" v="locality" />
		<tag k="ssr:stedsnr" v="386543" />
	</node>
	<node id="-26133" lat="59.8688472227" lon="10.454855562">
		<tag k="name" v="Solstadkleiva" />
		<tag k="natural" v="slope" />
		<tag k="place" v="locality" />
		<tag k="ssr:stedsnr" v="386490" />
	</node>
	<node id="-26639" lat="59.8135722242" lon="10.4555305508">
		<tag k="fixme" v="consider natural=peak for the most distinct mountains in the district" />
		<tag k="name" v="Maihaugen" />
		<tag k="natural" v="hill" />
		<tag k="place" v="locality" />
		<tag k="ssr:stedsnr" v="690623" />
	</node>
	<node id="-26638" lat="59.816158334" lon="10.4387388833">
		<tag k="name" v="Granerudbakken" />
		<tag k="natural" v="slope" />
		<tag k="place" v="locality" />
		<tag k="ssr:stedsnr" v="690617" />
	</node>
	<node id="-26637" lat="59.8224694434" lon="10.4467611143">
		<tag k="name" v="Myrabakken" />
		<tag k="natural" v="slope" />
		<tag k="place" v="locality" />
		<tag k="ssr:stedsnr" v="690612" />
	</node>
	<node id="-26636" lat="59.8234527785" lon="10.4675916748">
		<tag k="name" v="Aspelund" />
		<tag k="place" v="locality" />
		<tag k="ssr:stedsnr" v="690610" />
	</node>
	<node id="-26634" lat="59.7978472265" lon="10.4979083352">
		<tag k="name" v="Havneåsfjellet" />
		<tag k="natural" v="hill" />
		<tag k="place" v="locality" />
		<tag k="ssr:stedsnr" v="690576" />
	</node>
	<node id="-26631" lat="59.8642250001" lon="10.4518944482">
		<tag k="name" v="Lindleina" />
		<tag k="natural" v="slope" />
		<tag k="place" v="locality" />
		<tag k="ssr:stedsnr" v="690560" />
	</node>
	<node id="-26628" lat="59.867438886" lon="10.4069416676">
		<tag k="name" v="Finnebråtekleiva" />
		<tag k="natural" v="slope" />
		<tag k="place" v="locality" />
		<tag k="ssr:stedsnr" v="690551" />
	</node>
	<node id="-26626" lat="59.8673138851" lon="10.5164138815">
		<tag k="fixme" v="consider natural=peak for the most distinct mountains in the district" />
		<tag k="name" v="Tverråsen" />
		<tag k="natural" v="hill" />
		<tag k="place" v="locality" />
		<tag k="ssr:stedsnr" v="690533" />
	</node>
</osm>
