<?xml version="1.0" encoding="UTF-8"?>
<osm generator="osmapis" version="0.6">
	<node id="-26368" lat="59.8323083302" lon="10.4405833418">
		<tag k="bridge" v="yes" />
		<tag k="layer" v="1" />
		<tag k="name" v="Risenga" />
		<tag k="ssr:stedsnr" v="228082" />
	</node>
	<node id="-26367" lat="59.8248472261" lon="10.3783361167">
		<tag k="bridge" v="yes" />
		<tag k="layer" v="1" />
		<tag k="name" v="Liahagen" />
		<tag k="ssr:stedsnr" v="228080" />
	</node>
	<node id="-26366" lat="59.8746861107" lon="10.5026944452">
		<tag k="bridge" v="yes" />
		<tag k="layer" v="1" />
		<tag k="name" v="Nesøyvegen" />
		<tag k="ssr:stedsnr" v="228081" />
	</node>
	<node id="-26365" lat="59.833050001" lon="10.4310666656">
		<tag k="bridge" v="yes" />
		<tag k="layer" v="1" />
		<tag k="name" v="Lenken" />
		<tag k="ssr:stedsnr" v="228078" />
	</node>
	<node id="-26492" lat="59.8437784644" lon="10.4562457599">
		<tag k="alt_name" v="Høn" />
		<tag k="name" v="Høn holdeplass" />
		<tag k="railway" v="halt" />
		<tag k="ssr:stedsnr" v="490775" />
		<tag k="train" v="yes" />
	</node>
	<node id="-26235" lat="59.8516444426" lon="10.4216666673">
		<tag k="bridge" v="yes" />
		<tag k="layer" v="1" />
		<tag k="name" v="Sem" />
		<tag k="ssr:stedsnr" v="46074" />
	</node>
	<node id="-26815" lat="59.7930694449" lon="10.4861000016">
		<tag k="bridge" v="yes" />
		<tag k="layer" v="1" />
		<tag k="name" v="Bjerkås" />
		<tag k="ssr:stedsnr" v="956103" />
	</node>
	<node id="-26742" lat="59.8100777763" lon="10.3666000013">
		<tag k="bridge" v="yes" />
		<tag k="layer" v="1" />
		<tag k="name" v="Fløyta" />
		<tag k="ssr:stedsnr" v="835078" />
	</node>
	<node id="-26741" lat="59.8404111132" lon="10.455325003">
		<tag k="bridge" v="yes" />
		<tag k="layer" v="1" />
		<tag k="name" v="Undelstadlia" />
		<tag k="ssr:stedsnr" v="835074" />
	</node>
	<node id="-26740" lat="59.849202776" lon="10.4906944477">
		<tag k="bridge" v="yes" />
		<tag k="layer" v="1" />
		<tag k="name" v="Syverstad" />
		<tag k="ssr:stedsnr" v="835073" />
	</node>
	<node id="-26472" lat="59.8342888918" lon="10.4370055617">
		<tag k="bridge" v="yes" />
		<tag k="layer" v="1" />
		<tag k="name" v="Asker G/S-kulvert" />
		<tag k="ssr:stedsnr" v="471094" />
	</node>
	<node id="-26471" lat="59.8317972226" lon="10.4341138972">
		<tag k="bridge" v="yes" />
		<tag k="layer" v="1" />
		<tag k="name" v="Asker" />
		<tag k="ssr:stedsnr" v="471092" />
	</node>
	<node id="-26470" lat="59.8548250041" lon="10.4902194533">
		<tag k="bridge" v="yes" />
		<tag k="layer" v="1" />
		<tag k="name" v="Holmenkrysset" />
		<tag k="ssr:stedsnr" v="471085" />
	</node>
	<node id="-26469" lat="59.834730557" lon="10.4315861171">
		<tag k="bridge" v="yes" />
		<tag k="layer" v="1" />
		<tag k="name" v="Vanntroa" />
		<tag k="ssr:stedsnr" v="471079" />
	</node>
	<node id="-26086" lat="59.8362333355" lon="10.4318611043">
		<tag k="bridge" v="yes" />
		<tag k="layer" v="1" />
		<tag k="name" v="Kirkevegen" />
		<tag k="ssr:stedsnr" v="289076" />
	</node>
	<node id="-26594" lat="59.8164555557" lon="10.4428555634">
		<tag k="junction" v="yes" />
		<tag k="name" v="Sikta" />
		<tag k="place" v="locality" />
		<tag k="ssr:stedsnr" v="629578" />
	</node>
	<node id="-26593" lat="59.8782749985" lon="10.5108111156">
		<tag k="man_made" v="quay" />
		<tag k="name" v="Gyssestad båthavn" />
		<tag k="place" v="locality" />
		<tag k="ssr:stedsnr" v="629560" />
	</node>
	<node id="-26715" lat="59.8670444468" lon="10.5478500088">
		<tag k="man_made" v="quay" />
		<tag k="name" v="Nordre brygge" />
		<tag k="place" v="locality" />
		<tag k="ssr:stedsnr" v="811262" />
	</node>
	<node id="-26324" lat="59.8395611141" lon="10.4305305636">
		<tag k="bridge" v="yes" />
		<tag k="layer" v="1" />
		<tag k="name" v="Rabbe" />
		<tag k="ssr:stedsnr" v="167073" />
	</node>
	<node id="-26323" lat="59.8328277764" lon="10.421841668">
		<tag k="bridge" v="yes" />
		<tag k="layer" v="1" />
		<tag k="name" v="Oreholt øst" />
		<tag k="ssr:stedsnr" v="167071" />
	</node>
	<node id="-26364" lat="59.8190638931" lon="10.4645055641">
		<tag k="bridge" v="yes" />
		<tag k="layer" v="1" />
		<tag k="name" v="Åby" />
		<tag k="ssr:stedsnr" v="228072" />
	</node>
	<node id="-26701" lat="59.8407749956" lon="10.4564722193">
		<tag k="bridge" v="yes" />
		<tag k="layer" v="1" />
		<tag k="name" v="Høn" />
		<tag k="ssr:stedsnr" v="774096" />
	</node>
	<node id="-26700" lat="59.8000638918" lon="10.4875999991">
		<tag k="bridge" v="yes" />
		<tag k="layer" v="1" />
		<tag k="name" v="Håkavik" />
		<tag k="ssr:stedsnr" v="774093" />
	</node>
	<node id="-26699" lat="59.8421055588" lon="10.4817749927">
		<tag k="bridge" v="yes" />
		<tag k="layer" v="1" />
		<tag k="name" v="Hval" />
		<tag k="ssr:stedsnr" v="774092" />
	</node>
	<node id="-26440" lat="59.8202883188" lon="10.4329958675">
		<tag k="alt_name" v="Bondivatn;Bondivann store" />
		<tag k="name" v="Bondivann holdeplass" />
		<tag k="railway" v="halt" />
		<tag k="ssr:stedsnr" v="430718" />
		<tag k="train" v="yes" />
	</node>
	<node id="-26565" lat="59.8112527741" lon="10.4496055571">
		<tag k="bridge" v="yes" />
		<tag k="layer" v="1" />
		<tag k="name" v="Bukkemyr" />
		<tag k="ssr:stedsnr" v="592089" />
	</node>
	<node id="-26564" lat="59.8285833306" lon="10.4714083313">
		<tag k="bridge" v="yes" />
		<tag k="layer" v="1" />
		<tag k="name" v="Konglungen" />
		<tag k="ssr:stedsnr" v="592080" />
	</node>
	<node id="-26563" lat="59.8141527738" lon="10.4783694367">
		<tag k="bridge" v="yes" />
		<tag k="layer" v="1" />
		<tag k="name" v="Sjøvollveien" />
		<tag k="ssr:stedsnr" v="592074" />
	</node>
	<node id="-26562" lat="59.8363833319" lon="10.4317333292">
		<tag k="bridge" v="yes" />
		<tag k="layer" v="1" />
		<tag k="name" v="Semsveien" />
		<tag k="ssr:stedsnr" v="592072" />
	</node>
	<node id="-26305" lat="59.8339416706" lon="10.4352499939">
		<tag k="alt_name" v="Asker" />
		<tag k="name" v="Asker stasjon" />
		<tag k="railway" v="station" />
		<tag k="ssr:stedsnr" v="143659" />
		<tag k="train" v="yes" />
	</node>
	<node id="-26176" lat="59.8248055555" lon="10.3679805634">
		<tag k="bridge" v="yes" />
		<tag k="layer" v="1" />
		<tag k="name" v="Vekta" />
		<tag k="ssr:stedsnr" v="896073" />
	</node>
	<node id="-26175" lat="59.8072027765" lon="10.4856861199">
		<tag k="bridge" v="yes" />
		<tag k="layer" v="1" />
		<tag k="name" v="Vollen" />
		<tag k="ssr:stedsnr" v="896061" />
	</node>
	<node id="-26814" lat="59.83860833" lon="10.4763527769">
		<tag k="bridge" v="yes" />
		<tag k="layer" v="1" />
		<tag k="name" v="Leangen" />
		<tag k="ssr:stedsnr" v="956099" />
	</node>
	<node id="-26813" lat="59.8328361107" lon="10.4218416665">
		<tag k="bridge" v="yes" />
		<tag k="layer" v="1" />
		<tag k="name" v="Drengsrudbekken" />
		<tag k="ssr:stedsnr" v="956093" />
	</node>
	<node id="-26172" lat="59.8578527766" lon="10.4773472173">
		<tag k="bridge" v="yes" />
		<tag k="layer" v="1" />
		<tag k="name" v="Hvalstad" />
		<tag k="ssr:stedsnr" v="410085" />
	</node>
	<node id="-26171" lat="59.7879222255" lon="10.4342888842">
		<tag k="bridge" v="yes" />
		<tag k="layer" v="1" />
		<tag k="name" v="Gjellumvannet" />
		<tag k="ssr:stedsnr" v="410082" />
	</node>
	<node id="-26170" lat="59.8273444406" lon="10.4369055604">
		<tag k="bridge" v="yes" />
		<tag k="layer" v="1" />
		<tag k="name" v="Fredtun" />
		<tag k="ssr:stedsnr" v="410079" />
	</node>
	<node id="-26169" lat="59.8218416707" lon="10.3875222216">
		<tag k="bridge" v="yes" />
		<tag k="layer" v="1" />
		<tag k="name" v="Trollstua" />
		<tag k="ssr:stedsnr" v="410076" />
	</node>
	<node id="-26168" lat="59.8238111126" lon="10.4665916676">
		<tag k="bridge" v="yes" />
		<tag k="layer" v="1" />
		<tag k="name" v="Vettrelia" />
		<tag k="ssr:stedsnr" v="410057" />
	</node>
	<node id="-26236" lat="59.8330138862" lon="10.4393972194">
		<tag k="bridge" v="yes" />
		<tag k="layer" v="1" />
		<tag k="name" v="Bleikervegen" />
		<tag k="ssr:stedsnr" v="46098" />
	</node>
	<node id="-26654" lat="59.8035583302" lon="10.4872138971">
		<tag k="bridge" v="yes" />
		<tag k="layer" v="1" />
		<tag k="name" v="Arnestad" />
		<tag k="ssr:stedsnr" v="713083" />
	</node>
	<node id="-26653" lat="59.8358027775" lon="10.4700333356">
		<tag k="bridge" v="yes" />
		<tag k="layer" v="1" />
		<tag k="name" v="Leangbukta" />
		<tag k="ssr:stedsnr" v="713081" />
	</node>
	<node id="-26411" lat="59.8762805551" lon="10.5000222287">
		<tag k="junction" v="yes" />
		<tag k="name" v="Marienlyst" />
		<tag k="place" v="locality" />
		<tag k="ssr:stedsnr" v="265569" />
	</node>
	<node id="-26281" lat="59.8750108235" lon="10.4839291444">
		<tag k="alt_name" v="Billingstad" />
		<tag k="name" v="Billingstad stasjon" />
		<tag k="railway" v="station" />
		<tag k="ssr:stedsnr" v="124795" />
		<tag k="train" v="yes" />
	</node>
	<node id="-26408" lat="59.8660861075" lon="10.4904166714">
		<tag k="bridge" v="yes" />
		<tag k="layer" v="1" />
		<tag k="name" v="Nesbru" />
		<tag k="ssr:stedsnr" v="265565" />
	</node>
	<node id="-26535" lat="59.8589745553" lon="10.462249216">
		<tag k="alt_name" v="Hvalstad" />
		<tag k="name" v="Hvalstad stasjon" />
		<tag k="railway" v="station" />
		<tag k="ssr:stedsnr" v="550793" />
		<tag k="train" v="yes" />
	</node>
	<node id="-26277" lat="59.833563891" lon="10.4257249974">
		<tag k="bridge" v="yes" />
		<tag k="layer" v="1" />
		<tag k="name" v="Hagaløkka" />
		<tag k="ssr:stedsnr" v="107067" />
	</node>
	<node id="-26276" lat="59.8522194411" lon="10.4787749931">
		<tag k="bridge" v="yes" />
		<tag k="layer" v="1" />
		<tag k="name" v="Ålerud" />
		<tag k="ssr:stedsnr" v="107059" />
	</node>
	<node id="-26529" lat="59.8072004979" lon="10.4361766484">
		<tag k="alt_name" v="Gullhella" />
		<tag k="name" v="Gullhella holdeplass" />
		<tag k="railway" v="halt" />
		<tag k="ssr:stedsnr" v="550697" />
		<tag k="train" v="yes" />
	</node>
	<node id="-26526" lat="59.7868577995" lon="10.4308952408">
		<tag k="alt_name" v="Heggedal" />
		<tag k="name" v="Heggedal stasjon" />
		<tag k="railway" v="station" />
		<tag k="ssr:stedsnr" v="550641" />
		<tag k="train" v="yes" />
	</node>
	<node id="-26397" lat="59.8580805568" lon="10.5187750044">
		<tag k="man_made" v="quay" />
		<tag k="name" v="Søndre brygge" />
		<tag k="place" v="locality" />
		<tag k="ssr:stedsnr" v="265501" />
	</node>
	<node id="-26652" lat="59.8223027742" lon="10.3510916632">
		<tag k="bridge" v="yes" />
		<tag k="layer" v="1" />
		<tag k="name" v="Fiskum" />
		<tag k="ssr:stedsnr" v="713074" />
	</node>
	<node id="-26521" lat="59.8324055553" lon="10.4203638918">
		<tag k="bridge" v="yes" />
		<tag k="layer" v="1" />
		<tag k="name" v="Oreholtet" />
		<tag k="ssr:stedsnr" v="531066" />
	</node>
	<node id="-26259" lat="59.8629791975" lon="10.5555727298">
		<tag k="man_made" v="quay" />
		<tag k="name" v="Østre brygge" />
		<tag k="place" v="locality" />
		<tag k="ssr:stedsnr" v="83283" />
	</node>
	<node id="-26514" lat="59.8386944454" lon="10.4770527738">
		<tag k="man_made" v="quay" />
		<tag k="name" v="Leangen brygge" />
		<tag k="place" v="locality" />
		<tag k="ssr:stedsnr" v="508669" />
	</node>
	<node id="-26127" lat="59.8255722223" lon="10.3844166746">
		<tag k="bridge" v="yes" />
		<tag k="layer" v="1" />
		<tag k="name" v="Skansenhagen" />
		<tag k="ssr:stedsnr" v="349095" />
	</node>
	<node id="-26209" lat="59.8499641742" lon="10.4673008477">
		<tag k="alt_name" v="Vakås" />
		<tag k="name" v="Vakås stasjon" />
		<tag k="railway" v="station" />
		<tag k="ssr:stedsnr" v="4791" />
		<tag k="train" v="yes" />
	</node>
	<node id="-26178" lat="59.828947223" lon="10.4060277754">
		<tag k="bridge" v="yes" />
		<tag k="layer" v="1" />
		<tag k="name" v="Drengsrud" />
		<tag k="ssr:stedsnr" v="896085" />
	</node>
	<node id="-26505" lat="59.8591833342" lon="10.5285472212">
		<tag k="man_made" v="quay" />
		<tag k="name" v="Vestre brygge" />
		<tag k="place" v="locality" />
		<tag k="ssr:stedsnr" v="508536" />
	</node>
	<node id="-26177" lat="59.8012611068" lon="10.4185916587">
		<tag k="bridge" v="yes" />
		<tag k="layer" v="1" />
		<tag k="name" v="Bråta" />
		<tag k="ssr:stedsnr" v="896086" />
	</node>
	<node id="-26370" lat="59.8175916699" lon="10.439652773">
		<tag k="bridge" v="yes" />
		<tag k="layer" v="1" />
		<tag k="name" v="Bondi" />
		<tag k="ssr:stedsnr" v="228099" />
	</node>
	<node id="-26369" lat="59.8140583332" lon="10.4459388818">
		<tag k="bridge" v="yes" />
		<tag k="layer" v="1" />
		<tag k="name" v="Gullhella" />
		<tag k="ssr:stedsnr" v="228090" />
	</node>
</osm>
