<?xml version="1.0" encoding="UTF-8"?>
<osm generator="osmapis" version="0.6">
	<node id="-26623" lat="59.7816138893" lon="10.4709749974">
		<tag k="name" v="Høymyrdammen" />
		<tag k="natural" v="water" />
		<tag k="ssr:stedsnr" v="689593" />
	</node>
	<node id="-26108" lat="59.7852333325" lon="10.4635027855">
		<tag k="name" v="Høgdabekken" />
		<tag k="ssr:stedsnr" v="325717" />
		<tag k="waterway" v="stream" />
	</node>
	<node id="-26106" lat="59.7958861082" lon="10.3733111109">
		<tag k="name" v="Styggedalsbekken" />
		<tag k="ssr:stedsnr" v="325669" />
		<tag k="waterway" v="stream" />
	</node>
	<node id="-26361" lat="59.817022221" lon="10.392677784">
		<tag k="name" v="Lille Oppsjø" />
		<tag k="natural" v="water" />
		<tag k="ssr:stedsnr" v="205708" />
	</node>
	<node id="-26357" lat="59.8347594687" lon="10.4645427437">
		<tag k="name" v="Bårdsruddammen" />
		<tag k="natural" v="water" />
		<tag k="old_name" v="Baarsruddammen" />
		<tag k="ssr:stedsnr" v="205685" />
	</node>
	<node id="-26356" lat="59.8322694399" lon="10.3913500073">
		<tag k="name" v="Brendsrudvannet" />
		<tag k="natural" v="water" />
		<tag k="ssr:stedsnr" v="205675" />
	</node>
	<node id="-26483" lat="59.8736332217" lon="10.3665759375">
		<tag k="alt_name" v="Sandungen, store;Sandungen" />
		<tag k="name" v="Store Sandungen" />
		<tag k="natural" v="water" />
		<tag k="ssr:stedsnr" v="489837" />
		<tag k="water" v="lake" />
	</node>
	<node id="-26736" lat="59.8740972208" lon="10.3389444471">
		<tag k="name" v="Karibekken" />
		<tag k="ssr:stedsnr" v="811704" />
		<tag k="waterway" v="stream" />
	</node>
	<node id="-26223" lat="59.8149166704" lon="10.4588361151">
		<tag k="name" v="Munkedammen" />
		<tag k="natural" v="water" />
		<tag k="ssr:stedsnr" v="23611" />
	</node>
	<node id="-26606" lat="59.8383194482" lon="10.4182388908">
		<tag k="name" v="Hukenbekken" />
		<tag k="old_name" v="Haukenbekken" />
		<tag k="ssr:stedsnr" v="664633" />
		<tag k="waterway" v="stream" />
	</node>
	<node id="-26613" lat="59.8245472231" lon="10.4103444381">
		<tag k="name" v="Drengsrudvanna" />
		<tag k="natural" v="water" />
		<tag k="ssr:stedsnr" v="672727" />
	</node>
	<node id="-26603" lat="59.8187833346" lon="10.4009833338">
		<tag k="alt_name" v="Abbortjern" />
		<tag k="name" v="Åbortjern" />
		<tag k="natural" v="water" />
		<tag k="ssr:stedsnr" v="629692" />
	</node>
	<node id="-26346" lat="59.8540777777" lon="10.4201638947">
		<tag k="name" v="Høveldammen" />
		<tag k="natural" v="water" />
		<tag k="ssr:stedsnr" v="205552" />
	</node>
	<node id="-26215" lat="59.8419555517" lon="10.3777861194">
		<tag k="name" v="Gjertrudsen" />
		<tag k="natural" v="water" />
		<tag k="ssr:stedsnr" v="22621" />
	</node>
	<node id="-26599" lat="59.8513750043" lon="10.4491805472">
		<tag k="name" v="Bikkjedammen" />
		<tag k="natural" v="water" />
		<tag k="ssr:stedsnr" v="629655" />
	</node>
	<node id="-26341" lat="59.8335229234" lon="10.4012641093">
		<tag k="name" v="Hogstadvannet" />
		<tag k="natural" v="water" />
		<tag k="ssr:stedsnr" v="187734" />
	</node>
	<node id="-26811" lat="59.8122055574" lon="10.4286166729">
		<tag k="name" v="Barlindbekken" />
		<tag k="ssr:stedsnr" v="933708" />
		<tag k="waterway" v="stream" />
	</node>
	<node id="-26540" lat="59.852536114" lon="10.4211416634">
		<tag k="name" v="Sagdammen" />
		<tag k="natural" v="water" />
		<tag k="ssr:stedsnr" v="567613" />
	</node>
	<node id="-26651" lat="59.7825916677" lon="10.4281638872">
		<tag k="name" v="Skitthegga" />
		<tag k="ssr:stedsnr" v="694579" />
		<tag k="waterway" v="river" />
	</node>
	<node id="-26203" lat="59.7850500004" lon="10.3751999997">
		<tag k="alt_name" v="Småtjerna;Småvannene" />
		<tag k="name" v="Småvann" />
		<tag k="natural" v="water" />
		<tag k="ssr:stedsnr" v="4667" />
	</node>
	<node id="-26714" lat="59.815652782" lon="10.3875166595">
		<tag k="name" v="Oppsjø" />
		<tag k="natural" v="water" />
		<tag k="ssr:stedsnr" v="794749" />
	</node>
	<node id="-26105" lat="59.8146027734" lon="10.4875500017">
		<tag k="name" v="Koiatangen" />
		<tag k="natural" v="cape" />
		<tag k="ssr:stedsnr" v="324627" />
	</node>
	<node id="-26327" lat="59.8616163641" lon="10.3650589844">
		<tag k="alt_name" v="Sandungen, lille" />
		<tag k="name" v="Lille Sandungen" />
		<tag k="natural" v="water" />
		<tag k="ssr:stedsnr" v="185798" />
		<tag k="water" v="lake" />
	</node>
	<node id="-26489" lat="59.8120138898" lon="10.4168527818">
		<tag k="name" v="Vardetjern" />
		<tag k="natural" v="water" />
		<tag k="ssr:stedsnr" v="490759" />
	</node>
	<node id="-26576" lat="59.8248805539" lon="10.3848361039">
		<tag k="name" v="Svarteputt" />
		<tag k="natural" v="water" />
		<tag k="ssr:stedsnr" v="611743" />
	</node>
	<node id="-26575" lat="59.8243138864" lon="10.4342722244">
		<tag k="name" v="Bondivannet" />
		<tag k="natural" v="water" />
		<tag k="ssr:stedsnr" v="611741" />
	</node>
	<node id="-26746" lat="59.8673888913" lon="10.3904777754">
		<tag k="name" v="Flåbekken" />
		<tag k="ssr:stedsnr" v="853814" />
		<tag k="waterway" v="stream" />
	</node>
	<node id="-26139" lat="59.8445388853" lon="10.4311749968">
		<tag k="name" v="Askerelva" />
		<tag k="ssr:stedsnr" v="368811" />
		<tag k="waterway" v="river" />
	</node>
	<node id="-26569" lat="59.8636333296" lon="10.491269448">
		<tag k="name" v="Neselva" />
		<tag k="ssr:stedsnr" v="610836" />
		<tag k="waterway" v="stream" />
	</node>
	<node id="-26311" lat="59.8691555565" lon="10.3620638878">
		<tag k="name" v="Junkertangen" />
		<tag k="natural" v="cape" />
		<tag k="ssr:stedsnr" v="143705" />
	</node>
	<node id="-26310" lat="59.8100861091" lon="10.4668222186">
		<tag k="name" v="Østenstaddammen" />
		<tag k="natural" v="water" />
		<tag k="ssr:stedsnr" v="143703" />
	</node>
	<node id="-26436" lat="59.8309001871" lon="10.3854109687">
		<tag k="name" v="Finnsrudvannet" />
		<tag k="natural" v="water" />
		<tag k="ssr:stedsnr" v="429749" />
	</node>
	<node id="-26690" lat="59.855544443" lon="10.4071249932">
		<tag k="name" v="Herkjelbekken" />
		<tag k="ssr:stedsnr" v="751521" />
		<tag k="waterway" v="stream" />
	</node>
	<node id="-26689" lat="59.8637416627" lon="10.4266805583">
		<tag k="name" v="Tømmervika" />
		<tag k="natural" v="bay" />
		<tag k="ssr:stedsnr" v="751516" />
	</node>
	<node id="-26431" lat="59.8738722207" lon="10.3297472147">
		<tag k="name" v="Asdøltjern" />
		<tag k="natural" v="water" />
		<tag k="ssr:stedsnr" v="429310" />
	</node>
	<node id="-26686" lat="59.872230552" lon="10.3613527717">
		<tag k="name" v="Snarodden" />
		<tag k="natural" v="cape" />
		<tag k="ssr:stedsnr" v="750705" />
	</node>
	<node id="-26101" lat="59.7920333318" lon="10.4387305583">
		<tag k="name" v="Gjellumvannet" />
		<tag k="natural" v="water" />
		<tag k="ssr:stedsnr" v="308679" />
	</node>
	<node id="-26555" lat="59.8273194448" lon="10.3869944437">
		<tag k="name" v="Katteputt" />
		<tag k="natural" v="water" />
		<tag k="ssr:stedsnr" v="568630" />
		<tag k="water" v="pond" />
	</node>
	<node id="-26554" lat="59.8195503745" lon="10.4595917351">
		<tag k="name" v="Åbydammen" />
		<tag k="natural" v="water" />
		<tag k="ssr:stedsnr" v="568555" />
		<tag k="water" v="lake" />
	</node>
	<node id="-26219" lat="59.788622219" lon="10.485416675">
		<tag k="name" v="Sibiriedammen" />
		<tag k="natural" v="water" />
		<tag k="ssr:stedsnr" v="22723" />
	</node>
	<node id="-26551" lat="59.8594611078" lon="10.4759000059">
		<tag k="name" v="Torstaddammen" />
		<tag k="natural" v="water" />
		<tag k="ssr:stedsnr" v="568491" />
	</node>
	<node id="-26633" lat="59.7944583339" lon="10.4480611172">
		<tag k="name" v="Guibekken" />
		<tag k="ssr:stedsnr" v="689710" />
		<tag k="waterway" v="stream" />
	</node>
	<node id="-26419" lat="59.8507645108" lon="10.4873186504">
		<tag k="name" v="Syverstaddammen" />
		<tag k="natural" v="water" />
		<tag k="ssr:stedsnr" v="265692" />
	</node>
	<node id="-26163" lat="59.8295416701" lon="10.4106694478">
		<tag k="name" v="Drengsrudbekken" />
		<tag k="ssr:stedsnr" v="386672" />
		<tag k="waterway" v="stream" />
	</node>
	<node id="-26542" lat="59.8087528297" lon="10.361716919">
		<tag k="alt_name" v="Poverudelva" />
		<tag k="name" v="Påverudelva" />
		<tag k="ssr:stedsnr" v="567671" />
		<tag k="waterway" v="river" />
	</node>
	<node id="-26796" lat="59.8703361144" lon="10.4636444484">
		<tag k="name" v="Åstaddammen" />
		<tag k="natural" v="water" />
		<tag k="ssr:stedsnr" v="933542" />
	</node>
	<node id="-26149" lat="59.7959388864" lon="10.4359722264">
		<tag k="name" v="Sætrefossen" />
		<tag k="natural" v="waterfall" />
		<tag k="ssr:stedsnr" v="386727" />
	</node>
	<node id="-26660" lat="59.8932714074" lon="10.362459031">
		<tag k="name" v="Øyevann" />
		<tag k="natural" v="water" />
		<tag k="ssr:stedsnr" v="732859" />
	</node>
	<node id="-26787" lat="59.8465611109" lon="10.3717611076">
		<tag k="name" v="Tranevann" />
		<tag k="natural" v="water" />
		<tag k="ssr:stedsnr" v="915780" />
	</node>
	<node id="-26734" lat="59.819758336" lon="10.371261117">
		<tag k="name" v="Svinesjøen" />
		<tag k="natural" v="water" />
		<tag k="ssr:stedsnr" v="811692" />
	</node>
	<node id="-26273" lat="59.7923916626" lon="10.4894694526">
		<tag k="name" v="Stupengdammen" />
		<tag k="natural" v="water" />
		<tag k="ssr:stedsnr" v="83746" />
	</node>
	<node id="-26399" lat="59.8616388855" lon="10.4177916749">
		<tag k="name" v="Tveiterfossen" />
		<tag k="natural" v="waterfall" />
		<tag k="ssr:stedsnr" v="265512" />
	</node>
	<node id="-26687" lat="59.8733055557" lon="10.370733336">
		<tag k="name" v="Eikestøa" />
		<tag k="natural" v="cape" />
		<tag k="ssr:stedsnr" v="750706" />
	</node>
	<node id="-26117" lat="59.8280879396" lon="10.4609491155">
		<tag k="name" v="Einedammen" />
		<tag k="natural" v="water" />
		<tag k="ssr:stedsnr" v="326588" />
		<tag k="water" v="lake" />
	</node>
	<node id="-26395" lat="59.7936944446" lon="10.4898333407">
		<tag k="name" v="Deledammen" />
		<tag k="natural" v="water" />
		<tag k="ssr:stedsnr" v="264749" />
	</node>
	<node id="-26270" lat="59.8037888894" lon="10.3953916706">
		<tag k="name" v="Stampedammen" />
		<tag k="place" v="locality" />
		<tag k="ssr:stedsnr" v="83725" />
	</node>
	<node id="-26132" lat="59.8724277811" lon="10.5461444406">
		<tag k="name" v="Kreierskjæret" />
		<tag k="place" v="islet" />
		<tag k="ssr:stedsnr" v="367797" />
	</node>
	<node id="-26771" lat="59.8108361072" lon="10.4835111094">
		<tag k="name" v="Høybakkdammen" />
		<tag k="natural" v="water" />
		<tag k="ssr:stedsnr" v="872613" />
	</node>
	<node id="-26386" lat="59.867550877" lon="10.5271912469">
		<tag k="alt_name" v="Nesøytjern" />
		<tag k="name" v="Nesøytjernet" />
		<tag k="natural" v="water" />
		<tag k="ssr:stedsnr" v="247799" />
	</node>
	<node id="-26115" lat="59.83589632" lon="10.4979780095">
		<tag k="name" v="Spiradammen" />
		<tag k="natural" v="water" />
		<tag k="ssr:stedsnr" v="326550" />
	</node>
	<node id="-26255" lat="59.7798277739" lon="10.4530249939">
		<tag k="name" v="Gjellumbekken" />
		<tag k="ssr:stedsnr" v="83634" />
		<tag k="waterway" v="stream" />
	</node>
	<node id="-26123" lat="59.8225272884" lon="10.3592612331">
		<tag k="name" v="Padderudvannet" />
		<tag k="natural" v="water" />
		<tag k="ssr:stedsnr" v="326681" />
		<tag k="water" v="lake" />
	</node>
	<node id="-26250" lat="59.8030277769" lon="10.5040750062">
		<tag k="name" v="Elnestangen" />
		<tag k="natural" v="cape" />
		<tag k="ssr:stedsnr" v="82620" />
	</node>
	<node id="-26583" lat="59.858549883" lon="10.4218198247">
		<tag k="name" v="Semsvannet" />
		<tag k="natural" v="water" />
		<tag k="ssr:stedsnr" v="611817" />
		<tag k="water" v="lake" />
	</node>
	<node id="-26248" lat="59.8145833351" lon="10.368733326">
		<tag k="name" v="Nordvannet" />
		<tag k="natural" v="water" />
		<tag k="ssr:stedsnr" v="66738" />
	</node>
	<node id="-26375" lat="59.806366666" lon="10.3670777806">
		<tag k="name" v="Verkensvannet" />
		<tag k="natural" v="water" />
		<tag k="ssr:stedsnr" v="247668" />
	</node>
	<node id="-26241" lat="59.7992583343" lon="10.4270749945">
		<tag k="name" v="Verkenselva" />
		<tag k="ssr:stedsnr" v="65693" />
		<tag k="waterway" v="stream" />
	</node>
	<node id="-26392" lat="59.7841416634" lon="10.4346138838">
		<tag k="name" v="Kistefossdammen" />
		<tag k="natural" v="water" />
		<tag k="ssr:stedsnr" v="264736" />
	</node>
	<node id="-26497" lat="59.8764166659" lon="10.3530416718">
		<tag k="name" v="Vadfoss" />
		<tag k="natural" v="waterfall" />
		<tag k="ssr:stedsnr" v="507713" />
	</node>
</osm>
