<?xml version="1.0" encoding="UTF-8"?>
<osm generator="osmapis" version="0.6">
	<node id="-26622" lat="59.7819083305" lon="10.4633777739">
		<tag k="fixme" v="consider place=suburb, village or hamlet" />
		<tag k="name" v="Sakserudbråten" />
		<tag k="place" v="quarter" />
		<tag k="ssr:stedsnr" v="689592" />
	</node>
	<node id="-26794" lat="59.7836305546" lon="10.4388194359">
		<tag k="name" v="Heggedal hovedgård" />
		<tag k="place" v="farm" />
		<tag k="ssr:stedsnr" v="932697" />
	</node>
	<node id="-26616" lat="59.8419294234" lon="10.3860580657">
		<tag k="name" v="Daleløkka" />
		<tag k="place" v="farm" />
		<tag k="ssr:stedsnr" v="672767" />
	</node>
	<node id="-26103" lat="59.8414749991" lon="10.4536555609">
		<tag k="name" v="Høn" />
		<tag k="place" v="farm" />
		<tag k="ssr:stedsnr" v="308748" />
	</node>
	<node id="-26099" lat="59.7893249963" lon="10.4984250043">
		<tag k="name" v="Tajet" />
		<tag k="place" v="isolated_dwelling" />
		<tag k="ssr:stedsnr" v="308628" />
	</node>
	<node id="-26610" lat="59.7965333313" lon="10.4224333263">
		<tag k="alt_name" v="Skjellestadgårdene" />
		<tag k="name" v="Skjellestad" />
		<tag k="place" v="farm" />
		<tag k="ssr:stedsnr" v="672693" />
	</node>
	<node id="-26097" lat="59.8803000039" lon="10.4817555633">
		<tag k="alt_name" v="Nordengen" />
		<tag k="name" v="Nordenga" />
		<tag k="place" v="farm" />
		<tag k="ssr:stedsnr" v="307846" />
	</node>
	<node id="-26608" lat="59.8631333324" lon="10.4758500026">
		<tag k="name" v="Torstad" />
		<tag k="place" v="farm" />
		<tag k="ssr:stedsnr" v="671800" />
	</node>
	<node id="-26607" lat="59.8029416671" lon="10.3890166705">
		<tag k="name" v="Solberg" />
		<tag k="place" v="farm" />
		<tag k="ssr:stedsnr" v="671704" />
	</node>
	<node id="-26093" lat="59.855275" lon="10.426116666">
		<tag k="name" v="Lund" />
		<tag k="place" v="farm" />
		<tag k="ssr:stedsnr" v="307792" />
	</node>
	<node id="-26604" lat="59.8289611146" lon="10.40454166">
		<tag k="amenity" v="school" />
		<tag k="name" v="Drengsrud skole" />
		<tag k="ssr:stedsnr" v="629693" />
	</node>
	<node id="-26706" lat="59.8314499982" lon="10.4911305613">
		<tag k="name" v="Løkenes" />
		<tag k="place" v="farm" />
		<tag k="ssr:stedsnr" v="793750" />
	</node>
	<node id="-26602" lat="59.8263055581" lon="10.4200583348">
		<tag k="amenity" v="school" />
		<tag k="name" v="Borgen skole" />
		<tag k="ssr:stedsnr" v="629690" />
	</node>
	<node id="-26601" lat="59.8476694418" lon="10.4721166744">
		<tag k="amenity" v="school" />
		<tag k="name" v="Hofstad skole" />
		<tag k="ssr:stedsnr" v="629677" />
	</node>
	<node id="-26600" lat="59.8275250031" lon="10.4270722232">
		<tag k="alt_name" v="Borgen søndre" />
		<tag k="name" v="Søndre Borgen" />
		<tag k="place" v="isolated_dwelling" />
		<tag k="ssr:stedsnr" v="629664" />
	</node>
	<node id="-26598" lat="59.8754777755" lon="10.4822972132">
		<tag k="name" v="Billingstad" />
		<tag k="place" v="village" />
		<tag k="ssr:stedsnr" v="629632" />
	</node>
	<node id="-26085" lat="59.8458999986" lon="10.357633332">
		<tag k="fixme" v="consider tourism=alpine_hut or tourism=chalet" />
		<tag k="name" v="Hovdehytta" />
		<tag k="ssr:stedsnr" v="283152" />
		<tag k="tourism" v="wilderness_hut" />
	</node>
	<node id="-26595" lat="59.818577782" lon="10.4489333409">
		<tag k="name" v="Elvestua" />
		<tag k="place" v="quarter" />
		<tag k="ssr:stedsnr" v="629579" />
	</node>
	<node id="-26592" lat="59.8513055585" lon="10.4929666616">
		<tag k="alt_name" v="Granlien;Grønlien" />
		<tag k="name" v="Grønnlia" />
		<tag k="place" v="locality" />
		<tag k="ssr:stedsnr" v="629531" />
	</node>
	<node id="-26589" lat="59.8657833296" lon="10.4680972254">
		<tag k="name" v="Skustad" />
		<tag k="place" v="farm" />
		<tag k="ssr:stedsnr" v="629518" />
	</node>
	<node id="-26587" lat="59.7859194481" lon="10.4566416681">
		<tag k="name" v="Dal" />
		<tag k="place" v="farm" />
		<tag k="ssr:stedsnr" v="628714" />
	</node>
	<node id="-26584" lat="59.8597000038" lon="10.4102222217">
		<tag k="name" v="Tveiter" />
		<tag k="old_name" v="Tveter" />
		<tag k="place" v="farm" />
		<tag k="ssr:stedsnr" v="611818" />
	</node>
	<node id="-26581" lat="59.8557416666" lon="10.4914694446">
		<tag k="name" v="Holmen" />
		<tag k="place" v="village" />
		<tag k="ssr:stedsnr" v="611808" />
	</node>
	<node id="-26580" lat="59.8574250013" lon="10.4700638838">
		<tag k="name" v="Hvalstad" />
		<tag k="place" v="farm" />
		<tag k="ssr:stedsnr" v="611806" />
	</node>
	<node id="-26578" lat="59.8393111145" lon="10.5098999934">
		<tag k="fixme" v="consider place=suburb, village or hamlet" />
		<tag k="name" v="Konglungen" />
		<tag k="place" v="quarter" />
		<tag k="ssr:stedsnr" v="611786" />
	</node>
	<node id="-26577" lat="59.8116055579" lon="10.4499499988">
		<tag k="name" v="Gullhella" />
		<tag k="place" v="village" />
		<tag k="ssr:stedsnr" v="611760" />
	</node>
	<node id="-26104" lat="59.8484388889" lon="10.4839805584">
		<tag k="name" v="Syverstad" />
		<tag k="place" v="farm" />
		<tag k="ssr:stedsnr" v="308776" />
	</node>
	<node id="-26574" lat="59.8333277739" lon="10.4372055633">
		<tag k="name" v="Asker" />
		<tag k="place" v="village" />
		<tag k="ssr:stedsnr" v="611735" />
	</node>
	<node id="-26573" lat="59.7995111103" lon="10.3864861125">
		<tag k="name" v="Eriksrud" />
		<tag k="place" v="farm" />
		<tag k="ssr:stedsnr" v="611704" />
	</node>
	<node id="-26786" lat="59.8392833334" lon="10.4574527799">
		<tag k="fixme" v="consider place=hamlet" />
		<tag k="name" v="Unnelstad" />
		<tag k="place" v="farm" />
		<tag k="ssr:stedsnr" v="915751" />
	</node>
	<node id="-26570" lat="59.8815083366" lon="10.4513972164">
		<tag k="name" v="Stokker" />
		<tag k="place" v="farm" />
		<tag k="ssr:stedsnr" v="610863" />
	</node>
	<node id="-26568" lat="59.8500249989" lon="10.3404250055">
		<tag k="name" v="Solli" />
		<tag k="place" v="farm" />
		<tag k="ssr:stedsnr" v="610340" />
	</node>
	<node id="-26559" lat="59.8527277814" lon="10.4144138882">
		<tag k="name" v="Store Berg" />
		<tag k="place" v="farm" />
		<tag k="ssr:stedsnr" v="569289" />
	</node>
	<node id="-26556" lat="59.8491694444" lon="10.4730138812">
		<tag k="name" v="Hofstad" />
		<tag k="place" v="farm" />
		<tag k="ssr:stedsnr" v="568634" />
	</node>
	<node id="-26553" lat="59.8402305539" lon="10.503491674">
		<tag k="alt_name" v="Merraneset" />
		<tag k="name" v="Merranes" />
		<tag k="place" v="farm" />
		<tag k="ssr:stedsnr" v="568508" />
	</node>
	<node id="-26552" lat="59.7987138884" lon="10.4917055479">
		<tag k="name" v="Eljarnes" />
		<tag k="place" v="farm" />
		<tag k="ssr:stedsnr" v="568500" />
	</node>
	<node id="-26550" lat="59.854680557" lon="10.4862666605">
		<tag k="name" v="Vogellund" />
		<tag k="place" v="locality" />
		<tag k="ssr:stedsnr" v="568486" />
	</node>
	<node id="-26548" lat="59.8748444479" lon="10.5053333264">
		<tag k="name" v="Elgarnes" />
		<tag k="place" v="farm" />
		<tag k="ssr:stedsnr" v="568469" />
	</node>
	<node id="-26628" lat="59.7901361081" lon="10.4173194388">
		<tag k="name" v="Nyborgsåsen" />
		<tag k="place" v="quarter" />
		<tag k="ssr:stedsnr" v="689685" />
	</node>
	<node id="-26545" lat="59.8019499993" lon="10.4146333292">
		<tag k="alt_name" v="Bråtan nedre" />
		<tag k="name" v="Nedre Bråtan" />
		<tag k="place" v="farm" />
		<tag k="ssr:stedsnr" v="567707" />
	</node>
	<node id="-26543" lat="59.8253444484" lon="10.3691333412">
		<tag k="name" v="Vekta" />
		<tag k="place" v="farm" />
		<tag k="ssr:stedsnr" v="567687" />
	</node>
	<node id="-26541" lat="59.7856944417" lon="10.4442666646">
		<tag k="fixme" v="consider place=suburb, village or hamlet" />
		<tag k="name" v="Homansbyen" />
		<tag k="place" v="quarter" />
		<tag k="ssr:stedsnr" v="567617" />
	</node>
	<node id="-26713" lat="59.8132916631" lon="10.4876444525">
		<tag k="name" v="Vennelslund" />
		<tag k="place" v="farm" />
		<tag k="ssr:stedsnr" v="794744" />
	</node>
	<node id="-26538" lat="59.8381194444" lon="10.4023305569">
		<tag k="name" v="Nedre Hogstad" />
		<tag k="place" v="farm" />
		<tag k="ssr:stedsnr" v="567611" />
	</node>
	<node id="-26536" lat="59.8560000012" lon="10.4736777741">
		<tag k="name" v="Bruset" />
		<tag k="place" v="farm" />
		<tag k="ssr:stedsnr" v="550794" />
	</node>
	<node id="-26764" lat="59.787433337" lon="10.4456805564">
		<tag k="name" v="Kloppedalen" />
		<tag k="place" v="farm" />
		<tag k="ssr:stedsnr" v="871712" />
	</node>
	<node id="-26533" lat="59.8366861144" lon="10.4157055535">
		<tag k="name" v="Dæli" />
		<tag k="place" v="farm" />
		<tag k="ssr:stedsnr" v="550754" />
	</node>
	<node id="-26532" lat="59.830377775" lon="10.4068249996">
		<tag k="name" v="Ånnerud" />
		<tag k="place" v="farm" />
		<tag k="ssr:stedsnr" v="550743" />
	</node>
	<node id="-26531" lat="59.8249694403" lon="10.4502611066">
		<tag k="alt_name" v="Bleiker, nedre" />
		<tag k="name" v="Nedre Bleiker" />
		<tag k="place" v="farm" />
		<tag k="ssr:stedsnr" v="550711" />
	</node>
	<node id="-26530" lat="59.7986579021" lon="10.4624631215">
		<tag k="name" v="Sand" />
		<tag k="place" v="farm" />
		<tag k="ssr:stedsnr" v="550700" />
	</node>
	<node id="-26527" lat="59.7991666677" lon="10.3653333414">
		<tag k="name" v="Påverud" />
		<tag k="place" v="isolated_dwelling" />
		<tag k="ssr:stedsnr" v="550677" />
	</node>
	<node id="-26525" lat="59.7960694425" lon="10.4891222176">
		<tag k="name" v="Elnes" />
		<tag k="place" v="farm" />
		<tag k="ssr:stedsnr" v="550632" />
	</node>
	<node id="-26524" lat="59.8852138858" lon="10.4351388912">
		<tag k="alt_name" v="Stokkerbråten" />
		<tag k="name" v="Stokkerbråtan" />
		<tag k="place" v="isolated_dwelling" />
		<tag k="ssr:stedsnr" v="549833" />
	</node>
	<node id="-26723" lat="59.8360638868" lon="10.5026805525">
		<tag k="name" v="Ovnsbråten" />
		<tag k="place" v="quarter" />
		<tag k="ssr:stedsnr" v="811512" />
	</node>
	<node id="-26095" lat="59.8681194455" lon="10.4671805624">
		<tag k="name" v="Solhaug" />
		<tag k="place" v="farm" />
		<tag k="ssr:stedsnr" v="307805" />
	</node>
	<node id="-26732" lat="59.8183277817" lon="10.4323027779">
		<tag k="name" v="Vassbunn" />
		<tag k="place" v="quarter" />
		<tag k="ssr:stedsnr" v="811663" />
	</node>
	<node id="-26517" lat="59.8305222265" lon="10.4192888902">
		<tag k="name" v="Vanntroa" />
		<tag k="place" v="isolated_dwelling" />
		<tag k="ssr:stedsnr" v="508686" />
	</node>
	<node id="-26516" lat="59.8374527799" lon="10.4660055577">
		<tag k="name" v="Teigen" />
		<tag k="place" v="farm" />
		<tag k="ssr:stedsnr" v="508677" />
	</node>
	<node id="-26515" lat="59.8350055589" lon="10.4494583309">
		<tag k="name" v="Jørgensløkka" />
		<tag k="place" v="farm" />
		<tag k="ssr:stedsnr" v="508673" />
	</node>
	<node id="-26511" lat="59.8791194449" lon="10.4489611183">
		<tag k="name" v="Kippåsen" />
		<tag k="place" v="farm" />
		<tag k="ssr:stedsnr" v="508647" />
	</node>
	<node id="-26092" lat="59.8555333368" lon="10.4303055543">
		<tag k="name" v="Sem" />
		<tag k="place" v="farm" />
		<tag k="ssr:stedsnr" v="307790" />
	</node>
	<node id="-26501" lat="59.8074416642" lon="10.4417361163">
		<tag k="name" v="Rabakken" />
		<tag k="place" v="farm" />
		<tag k="ssr:stedsnr" v="507752" />
	</node>
	<node id="-26500" lat="59.8030055548" lon="10.4767638893">
		<tag k="alt_name" v="Bråten" />
		<tag k="name" v="Bråtan" />
		<tag k="place" v="farm" />
		<tag k="ssr:stedsnr" v="507749" />
	</node>
	<node id="-26499" lat="59.7846833292" lon="10.436122216">
		<tag k="amenity" v="school" />
		<tag k="name" v="Hovedgården skole" />
		<tag k="ssr:stedsnr" v="507748" />
	</node>
	<node id="-26498" lat="59.8005000035" lon="10.3937499981">
		<tag k="name" v="Enga" />
		<tag k="place" v="farm" />
		<tag k="ssr:stedsnr" v="507724" />
	</node>
	<node id="-26495" lat="59.8260305563" lon="10.3739416598">
		<tag k="name" v="Sandbekken" />
		<tag k="place" v="farm" />
		<tag k="ssr:stedsnr" v="507704" />
	</node>
	<node id="-26494" lat="59.802711115" lon="10.3706749933">
		<tag k="amenity" v="hospital" />
		<tag k="name" v="Dikemark sykehus" />
		<tag k="ssr:stedsnr" v="507694" />
	</node>
	<node id="-26491" lat="59.8350416704" lon="10.3837861059">
		<tag k="name" v="Høgås" />
		<tag k="place" v="farm" />
		<tag k="ssr:stedsnr" v="490773" />
	</node>
	<node id="-26488" lat="59.8073583295" lon="10.4853861194">
		<tag k="name" v="Vollen" />
		<tag k="place" v="village" />
		<tag k="ssr:stedsnr" v="490756" />
	</node>
	<node id="-26487" lat="59.826330554" lon="10.4379611038">
		<tag k="fixme" v="consider place=suburb, village or hamlet" />
		<tag k="name" v="Risenga" />
		<tag k="place" v="quarter" />
		<tag k="ssr:stedsnr" v="490743" />
	</node>
	<node id="-26486" lat="59.8191305549" lon="10.4645083291">
		<tag k="fixme" v="consider place=suburb, village or hamlet" />
		<tag k="name" v="Blakstad" />
		<tag k="place" v="quarter" />
		<tag k="ssr:stedsnr" v="490739" />
	</node>
	<node id="-26485" lat="59.7951296347" lon="10.4669371674">
		<tag k="fixme" v="consider place=hamlet" />
		<tag k="name" v="Østeren" />
		<tag k="place" v="farm" />
		<tag k="ssr:stedsnr" v="490720" />
	</node>
	<node id="-26484" lat="59.8788361129" lon="10.4553249961">
		<tag k="name" v="Groset" />
		<tag k="place" v="farm" />
		<tag k="ssr:stedsnr" v="489850" />
	</node>
	<node id="-26482" lat="59.871091669" lon="10.4681805587">
		<tag k="name" v="Åstad" />
		<tag k="place" v="farm" />
		<tag k="ssr:stedsnr" v="489833" />
	</node>
	<node id="-26088" lat="59.7978361129" lon="10.4462444459">
		<tag k="name" v="Gui" />
		<tag k="place" v="farm" />
		<tag k="ssr:stedsnr" v="307703" />
	</node>
	<node id="-26478" lat="59.8583333332" lon="10.4813194437">
		<tag k="name" v="Ravnsborg" />
		<tag k="place" v="isolated_dwelling" />
		<tag k="ssr:stedsnr" v="489814" />
	</node>
	<node id="-26477" lat="59.8548138873" lon="10.4052111176">
		<tag k="name" v="Semsvik" />
		<tag k="place" v="farm" />
		<tag k="ssr:stedsnr" v="489812" />
	</node>
	<node id="-26476" lat="59.8601833317" lon="10.4071333397">
		<tag k="name" v="Kveglund" />
		<tag k="place" v="isolated_dwelling" />
		<tag k="ssr:stedsnr" v="489805" />
	</node>
	<node id="-26467" lat="59.7832583348" lon="10.4327694481">
		<tag k="name" v="Åmot" />
		<tag k="place" v="farm" />
		<tag k="ssr:stedsnr" v="447709" />
	</node>
	<node id="-26466" lat="59.8051333316" lon="10.395272231">
		<tag k="name" v="Vestengen" />
		<tag k="place" v="farm" />
		<tag k="ssr:stedsnr" v="447706" />
	</node>
	<node id="-26465" lat="59.8008027783" lon="10.4160333413">
		<tag k="alt_name" v="Bråtan, øvre" />
		<tag k="name" v="Øvre Bråtan" />
		<tag k="place" v="farm" />
		<tag k="ssr:stedsnr" v="447694" />
	</node>
	<node id="-26216" lat="59.8105555522" lon="10.3637500004">
		<tag k="name" v="Skrangla" />
		<tag k="place" v="farm" />
		<tag k="ssr:stedsnr" v="22694" />
	</node>
	<node id="-26460" lat="59.8316638896" lon="10.411844437">
		<tag k="name" v="Solbrå" />
		<tag k="place" v="locality" />
		<tag k="ssr:stedsnr" v="447657" />
	</node>
	<node id="-26459" lat="59.8305111122" lon="10.4217333359">
		<tag k="amenity" v="school" />
		<tag k="name" v="Hagaløkka skole" />
		<tag k="ssr:stedsnr" v="447656" />
	</node>
	<node id="-26456" lat="59.8399777746" lon="10.4246777857">
		<tag k="amenity" v="school" />
		<tag k="name" v="Solvang skole" />
		<tag k="ssr:stedsnr" v="447628" />
	</node>
	<node id="-26455" lat="59.8505833353" lon="10.4518972253">
		<tag k="name" v="Bøsebakken" />
		<tag k="place" v="farm" />
		<tag k="ssr:stedsnr" v="447623" />
	</node>
	<node id="-26453" lat="59.8523138897" lon="10.422427781">
		<tag k="name" v="Seheim" />
		<tag k="place" v="farm" />
		<tag k="ssr:stedsnr" v="447616" />
	</node>
	<node id="-26448" lat="59.8296083346" lon="10.512652779">
		<tag k="name" v="Nordskog" />
		<tag k="place" v="farm" />
		<tag k="ssr:stedsnr" v="447501" />
	</node>
	<node id="-26680" lat="59.8108250018" lon="10.4258666747">
		<tag k="landuse" v="winter_sports" />
		<tag k="name" v="Vardåsen skisenter" />
		<tag k="piste:type" v="downhill" />
		<tag k="ssr:stedsnr" v="751690" />
	</node>
	<node id="-26446" lat="59.8601527753" lon="10.4564416599">
		<tag k="amenity" v="hospital" />
		<tag k="name" v="Sanatoriet" />
		<tag k="ssr:stedsnr" v="447477" />
	</node>
	<node id="-26445" lat="59.8552250026" lon="10.4354083359">
		<tag k="name" v="Grana" />
		<tag k="place" v="farm" />
		<tag k="ssr:stedsnr" v="447469" />
	</node>
	<node id="-26444" lat="59.8569694459" lon="10.4408555523">
		<tag k="name" v="Holtet" />
		<tag k="place" v="farm" />
		<tag k="ssr:stedsnr" v="447468" />
	</node>
	<node id="-26679" lat="59.8450888844" lon="10.4597194508">
		<tag k="name" v="Muserud" />
		<tag k="place" v="isolated_dwelling" />
		<tag k="ssr:stedsnr" v="751679" />
	</node>
	<node id="-26439" lat="59.8459249992" lon="10.3992833369">
		<tag k="alt_name" v="Bakkegårdene" />
		<tag k="name" v="Bakke" />
		<tag k="place" v="farm" />
		<tag k="ssr:stedsnr" v="429794" />
	</node>
	<node id="-26437" lat="59.8286773319" lon="10.3823772013">
		<tag k="name" v="Finnsrud" />
		<tag k="place" v="farm" />
		<tag k="ssr:stedsnr" v="429752" />
	</node>
	<node id="-26435" lat="59.8328804283" lon="10.3860401921">
		<tag k="name" v="Vassås" />
		<tag k="place" v="farm" />
		<tag k="ssr:stedsnr" v="429741" />
	</node>
	<node id="-26434" lat="59.797166665" lon="10.3917166612">
		<tag k="name" v="Nyfjell" />
		<tag k="place" v="farm" />
		<tag k="ssr:stedsnr" v="429718" />
	</node>
	<node id="-26433" lat="59.7997027789" lon="10.4667555586">
		<tag k="name" v="Gisle" />
		<tag k="place" v="farm" />
		<tag k="ssr:stedsnr" v="429692" />
	</node>
	<node id="-26432" lat="59.8027388884" lon="10.4594750067">
		<tag k="name" v="Enga" />
		<tag k="place" v="farm" />
		<tag k="ssr:stedsnr" v="429690" />
	</node>
	<node id="-26428" lat="59.8663472216" lon="10.4148666637">
		<tag k="name" v="Svensrud" />
		<tag k="place" v="isolated_dwelling" />
		<tag k="ssr:stedsnr" v="428814" />
	</node>
	<node id="-26427" lat="59.8743962411" lon="10.379855765">
		<tag k="fixme" v="consider place=hamlet" />
		<tag k="name" v="Rustaden" />
		<tag k="place" v="farm" />
		<tag k="ssr:stedsnr" v="422109" />
	</node>
	<node id="-26425" lat="59.8369777776" lon="10.4994277795">
		<tag k="name" v="Myra" />
		<tag k="place" v="isolated_dwelling" />
		<tag k="ssr:stedsnr" v="421605" />
	</node>
	<node id="-26676" lat="59.8388694471" lon="10.4152361174">
		<tag k="name" v="Nedre Hagen" />
		<tag k="place" v="farm" />
		<tag k="ssr:stedsnr" v="751667" />
	</node>
	<node id="-26421" lat="59.8279083349" lon="10.443222221">
		<tag k="name" v="Leikvoll" />
		<tag k="place" v="farm" />
		<tag k="ssr:stedsnr" v="265707" />
	</node>
	<node id="-26420" lat="59.8485722225" lon="10.4470638815">
		<tag k="amenity" v="nursing_home" />
		<tag k="name" v="Solgården" />
		<tag k="ssr:stedsnr" v="265699" />
	</node>
	<node id="-26418" lat="59.8356361129" lon="10.3958472306">
		<tag k="name" v="Øvre Hogstad" />
		<tag k="place" v="farm" />
		<tag k="ssr:stedsnr" v="265686" />
	</node>
	<node id="-26675" lat="59.8349027794" lon="10.4277555515">
		<tag k="leisure" v="pitch" />
		<tag k="name" v="Asker stadion" />
		<tag k="ssr:stedsnr" v="751665" />
	</node>
	<node id="-26414" lat="59.8146000002" lon="10.4759111191">
		<tag k="name" v="Nordre Østenstad" />
		<tag k="place" v="farm" />
		<tag k="ssr:stedsnr" v="265604" />
	</node>
	<node id="-26410" lat="59.8663944451" lon="10.4923944455">
		<tag k="name" v="Mellom-Nes" />
		<tag k="place" v="farm" />
		<tag k="ssr:stedsnr" v="265567" />
	</node>
	<node id="-26409" lat="59.8663305524" lon="10.4970361022">
		<tag k="amenity" v="school" />
		<tag k="name" v="Mellom-Nes skole" />
		<tag k="ssr:stedsnr" v="265566" />
	</node>
	<node id="-26271" lat="59.864530556" lon="10.3361111101">
		<tag k="name" v="Myggheim" />
		<tag k="place" v="isolated_dwelling" />
		<tag k="ssr:stedsnr" v="83728" />
	</node>
	<node id="-26744" lat="59.8621138886" lon="10.499105547">
		<tag k="alt_name" v="Øvre Nes" />
		<tag k="name" v="Nes" />
		<tag k="place" v="farm" />
		<tag k="ssr:stedsnr" v="853803" />
	</node>
	<node id="-26672" lat="59.8491638921" lon="10.4427944429">
		<tag k="amenity" v="school" />
		<tag k="name" v="Jansløkka skole" />
		<tag k="ssr:stedsnr" v="751657" />
	</node>
	<node id="-26398" lat="59.86011389" lon="10.4992749996">
		<tag k="amenity" v="school" />
		<tag k="name" v="Landøya skole" />
		<tag k="ssr:stedsnr" v="265509" />
	</node>
	<node id="-26394" lat="59.7981055519" lon="10.4450888896">
		<tag k="fixme" v="consider place=suburb, village or hamlet" />
		<tag k="name" v="Trollstein" />
		<tag k="place" v="quarter" />
		<tag k="ssr:stedsnr" v="264743" />
	</node>
	<node id="-26393" lat="59.7859138882" lon="10.4488805561">
		<tag k="name" v="Nyhus" />
		<tag k="place" v="farm" />
		<tag k="ssr:stedsnr" v="264738" />
	</node>
	<node id="-26390" lat="59.8070416654" lon="10.4443583348">
		<tag k="name" v="Eidbråten" />
		<tag k="place" v="farm" />
		<tag k="ssr:stedsnr" v="264713" />
	</node>
	<node id="-26389" lat="59.8073000041" lon="10.4388694452">
		<tag k="name" v="Kodalen" />
		<tag k="place" v="farm" />
		<tag k="ssr:stedsnr" v="264711" />
	</node>
	<node id="-26387" lat="59.8610138855" lon="10.5180277769">
		<tag k="name" v="Sververen" />
		<tag k="place" v="village" />
		<tag k="ssr:stedsnr" v="247800" />
	</node>
	<node id="-26385" lat="59.8574305558" lon="10.5336972253">
		<tag k="name" v="Vendelsund" />
		<tag k="place" v="farm" />
		<tag k="ssr:stedsnr" v="247788" />
	</node>
	<node id="-26384" lat="59.8461527795" lon="10.4772944452">
		<tag k="name" v="Reistad" />
		<tag k="place" v="farm" />
		<tag k="ssr:stedsnr" v="247776" />
	</node>
	<node id="-26382" lat="59.8450706986" lon="10.4151907322">
		<tag k="alt_name" v="Hanevollgårdene" />
		<tag k="name" v="Haneval" />
		<tag k="place" v="hamlet" />
		<tag k="ssr:stedsnr" v="247771" />
	</node>
	<node id="-26381" lat="59.8431611081" lon="10.4853749912">
		<tag k="name" v="Hval" />
		<tag k="place" v="farm" />
		<tag k="ssr:stedsnr" v="247762" />
	</node>
	<node id="-26380" lat="59.8394388879" lon="10.4369333333">
		<tag k="alt_name" v="Askergårdene" />
		<tag k="name" v="Asker" />
		<tag k="place" v="farm" />
		<tag k="ssr:stedsnr" v="247753" />
	</node>
	<node id="-26378" lat="59.8224000034" lon="10.4269055508">
		<tag k="name" v="Rønningen" />
		<tag k="place" v="farm" />
		<tag k="ssr:stedsnr" v="247724" />
	</node>
	<node id="-26377" lat="59.8292500035" lon="10.4525499979">
		<tag k="alt_name" v="Bleiker, øvre" />
		<tag k="name" v="Øvre Bleiker" />
		<tag k="place" v="farm" />
		<tag k="ssr:stedsnr" v="247715" />
	</node>
	<node id="-26376" lat="59.8068500022" lon="10.4096444515">
		<tag k="alt_name" v="Haugergårdene" />
		<tag k="name" v="Hauger" />
		<tag k="place" v="farm" />
		<tag k="ssr:stedsnr" v="247685" />
	</node>
	<node id="-26668" lat="59.8781777766" lon="10.4493194459">
		<tag k="name" v="Rugbråtan" />
		<tag k="place" v="farm" />
		<tag k="ssr:stedsnr" v="751625" />
	</node>
	<node id="-26372" lat="59.8662750035" lon="10.4100749925">
		<tag k="name" v="Mobråtan" />
		<tag k="place" v="isolated_dwelling" />
		<tag k="ssr:stedsnr" v="246786" />
	</node>
	<node id="-26355" lat="59.8323166649" lon="10.4267833293">
		<tag k="name" v="Hagaløkka" />
		<tag k="place" v="quarter" />
		<tag k="ssr:stedsnr" v="205674" />
	</node>
	<node id="-26354" lat="59.8504194454" lon="10.4461722232">
		<tag k="name" v="Fjelken" />
		<tag k="place" v="farm" />
		<tag k="ssr:stedsnr" v="205671" />
	</node>
	<node id="-26749" lat="59.8029249963" lon="10.4946000064">
		<tag k="name" v="Håkavik" />
		<tag k="place" v="village" />
		<tag k="ssr:stedsnr" v="854686" />
	</node>
	<node id="-26345" lat="59.8257361111" lon="10.4691777853">
		<tag k="amenity" v="school" />
		<tag k="name" v="Vettre skole" />
		<tag k="ssr:stedsnr" v="205604" />
	</node>
	<node id="-26344" lat="59.8005222242" lon="10.3883527752">
		<tag k="name" v="Holstein" />
		<tag k="place" v="farm" />
		<tag k="ssr:stedsnr" v="204695" />
	</node>
	<node id="-26340" lat="59.8204055562" lon="10.4642055603">
		<tag k="name" v="Åby" />
		<tag k="place" v="farm" />
		<tag k="ssr:stedsnr" v="187700" />
	</node>
	<node id="-26338" lat="59.8510027823" lon="10.4946805519">
		<tag k="name" v="Solheim" />
		<tag k="place" v="isolated_dwelling" />
		<tag k="ssr:stedsnr" v="186799" />
	</node>
	<node id="-26337" lat="59.849188888" lon="10.4240000078">
		<tag k="name" v="Vøyen" />
		<tag k="place" v="farm" />
		<tag k="ssr:stedsnr" v="186795" />
	</node>
	<node id="-26335" lat="59.7920027765" lon="10.4619250077">
		<tag k="alt_name" v="Yggesetgårdene" />
		<tag k="name" v="Yggeset" />
		<tag k="place" v="farm" />
		<tag k="ssr:stedsnr" v="186744" />
	</node>
	<node id="-26334" lat="59.7975138878" lon="10.4916499922">
		<tag k="name" v="Sjøstrand" />
		<tag k="place" v="village" />
		<tag k="ssr:stedsnr" v="186740" />
	</node>
	<node id="-26333" lat="59.805716671" lon="10.3805250011">
		<tag k="name" v="Dikemark" />
		<tag k="place" v="village" />
		<tag k="ssr:stedsnr" v="186729" />
	</node>
	<node id="-26331" lat="59.8426361152" lon="10.4793500031">
		<tag k="name" v="Haga" />
		<tag k="place" v="farm" />
		<tag k="ssr:stedsnr" v="186802" />
	</node>
	<node id="-26330" lat="59.785652777" lon="10.468722225">
		<tag k="name" v="Torp" />
		<tag k="place" v="farm" />
		<tag k="ssr:stedsnr" v="186699" />
	</node>
	<node id="-26328" lat="59.871511328" lon="10.3903363578">
		<tag k="historic" v="shieling" />
		<tag k="name" v="Tveitersetra" />
		<tag k="place" v="locality" />
		<tag k="ssr:stedsnr" v="185814" />
	</node>
	<node id="-26774" lat="59.8427194436" lon="10.4232277769">
		<tag k="name" v="Frydendal" />
		<tag k="place" v="farm" />
		<tag k="ssr:stedsnr" v="872655" />
	</node>
	<node id="-26320" lat="59.8427749975" lon="10.4522833405">
		<tag k="name" v="Øvre Høn" />
		<tag k="place" v="farm" />
		<tag k="ssr:stedsnr" v="144678" />
	</node>
	<node id="-26319" lat="59.8559527804" lon="10.4322083381">
		<tag k="amenity" v="school" />
		<tag k="name" v="N L H Sem" />
		<tag k="ssr:stedsnr" v="144633" />
	</node>
	<node id="-26316" lat="59.791802777" lon="10.4913055629">
		<tag k="name" v="Stupeng" />
		<tag k="place" v="farm" />
		<tag k="ssr:stedsnr" v="144547" />
	</node>
	<node id="-26315" lat="59.854336109" lon="10.4519583255">
		<tag k="name" v="Bråtan" />
		<tag k="place" v="isolated_dwelling" />
		<tag k="ssr:stedsnr" v="144531" />
	</node>
	<node id="-26313" lat="59.779813886" lon="10.4263722139">
		<tag k="name" v="Haugen" />
		<tag k="place" v="farm" />
		<tag k="ssr:stedsnr" v="143716" />
	</node>
	<node id="-26824" lat="59.8453131943" lon="10.4130816041">
		<tag k="fixme" v="consider place=hamlet" />
		<tag k="name" v="Vestre Haneval" />
		<tag k="place" v="farm" />
		<tag k="ssr:stedsnr" v="981050" />
	</node>
	<node id="-26823" lat="59.8438324822" lon="10.4168066844">
		<tag k="fixme" v="consider place=hamlet" />
		<tag k="name" v="Østre Haneval" />
		<tag k="place" v="farm" />
		<tag k="ssr:stedsnr" v="981046" />
	</node>
	<node id="-26822" lat="59.8709133427" lon="10.390595192">
		<tag k="fixme" v="consider tourism=alpine_hut or tourism=chalet" />
		<tag k="name" v="Halvorsenhytta" />
		<tag k="ssr:stedsnr" v="977709" />
		<tag k="tourism" v="wilderness_hut" />
	</node>
	<node id="-26309" lat="59.7956027741" lon="10.4141555581">
		<tag k="name" v="Sletthella" />
		<tag k="place" v="locality" />
		<tag k="ssr:stedsnr" v="143699" />
	</node>
	<node id="-26308" lat="59.8266722253" lon="10.3625055586">
		<tag k="name" v="Fingalsmyr" />
		<tag k="place" v="farm" />
		<tag k="ssr:stedsnr" v="143687" />
	</node>
	<node id="-26306" lat="59.8260932304" lon="10.4280571492">
		<tag k="name" v="Kjonebråten" />
		<tag k="place" v="farm" />
		<tag k="ssr:stedsnr" v="143668" />
	</node>
	<node id="-26303" lat="59.8368694444" lon="10.415897229">
		<tag k="name" v="Huken" />
		<tag k="place" v="farm" />
		<tag k="ssr:stedsnr" v="143649" />
	</node>
	<node id="-26302" lat="59.8521722201" lon="10.4524222146">
		<tag k="name" v="Labråten" />
		<tag k="place" v="isolated_dwelling" />
		<tag k="ssr:stedsnr" v="143640" />
	</node>
	<node id="-26301" lat="59.8523138863" lon="10.4598416738">
		<tag k="name" v="Vangen" />
		<tag k="place" v="farm" />
		<tag k="ssr:stedsnr" v="143636" />
	</node>
	<node id="-26300" lat="59.8385070857" lon="10.4133095073">
		<tag k="alt_name" v="Vestre Haneval" />
		<tag k="name" v="Øvre Hagen" />
		<tag k="place" v="farm" />
		<tag k="ssr:stedsnr" v="143630" />
	</node>
	<node id="-26810" lat="59.8259861113" lon="10.441758333">
		<tag k="amenity" v="school" />
		<tag k="name" v="Risenga skole" />
		<tag k="ssr:stedsnr" v="933704" />
	</node>
	<node id="-26809" lat="59.8502944487" lon="10.4699916642">
		<tag k="name" v="Bjørndalen" />
		<tag k="place" v="farm" />
		<tag k="ssr:stedsnr" v="933698" />
	</node>
	<node id="-26807" lat="59.8384555519" lon="10.4649805568">
		<tag k="fixme" v="consider place=hamlet" />
		<tag k="name" v="Nedre Båstad" />
		<tag k="place" v="farm" />
		<tag k="ssr:stedsnr" v="933680" />
	</node>
	<node id="-26294" lat="59.8573416673" lon="10.5400138938">
		<tag k="name" v="Kuhavna" />
		<tag k="place" v="locality" />
		<tag k="ssr:stedsnr" v="143481" />
	</node>
	<node id="-26292" lat="59.8260500016" lon="10.4053361048">
		<tag k="name" v="Drengsrud" />
		<tag k="place" v="farm" />
		<tag k="ssr:stedsnr" v="126729" />
	</node>
	<node id="-26290" lat="59.8222555563" lon="10.3868333316">
		<tag k="name" v="Trollstua" />
		<tag k="place" v="isolated_dwelling" />
		<tag k="ssr:stedsnr" v="126697" />
	</node>
	<node id="-26289" lat="59.8155861095" lon="10.4607555547">
		<tag k="name" v="Blakstad" />
		<tag k="place" v="farm" />
		<tag k="ssr:stedsnr" v="126695" />
	</node>
	<node id="-26286" lat="59.8462944418" lon="10.4677527821">
		<tag k="alt_name" v="Hofstad" />
		<tag k="name" v="Nordre Hofstad" />
		<tag k="place" v="farm" />
		<tag k="ssr:stedsnr" v="125792" />
	</node>
	<node id="-26285" lat="59.8681083337" lon="10.4122444418">
		<tag k="name" v="Kølabonn" />
		<tag k="place" v="isolated_dwelling" />
		<tag k="ssr:stedsnr" v="125829" />
	</node>
	<node id="-26284" lat="59.8029999969" lon="10.4431361195">
		<tag k="name" v="Eid" />
		<tag k="place" v="farm" />
		<tag k="ssr:stedsnr" v="125714" />
	</node>
	<node id="-26283" lat="59.8032194418" lon="10.3657916588">
		<tag k="alt_name" v="Brenna" />
		<tag k="name" v="Helsing" />
		<tag k="place" v="isolated_dwelling" />
		<tag k="ssr:stedsnr" v="125709" />
	</node>
	<node id="-26282" lat="59.8771250041" lon="10.4405416625">
		<tag k="name" v="Pålsbråtan" />
		<tag k="place" v="isolated_dwelling" />
		<tag k="ssr:stedsnr" v="124800" />
	</node>
	<node id="-26791" lat="59.8238083341" lon="10.3687222179">
		<tag k="name" v="Rønningen" />
		<tag k="place" v="farm" />
		<tag k="ssr:stedsnr" v="932664" />
	</node>
	<node id="-26790" lat="59.782922218" lon="10.4434722214">
		<tag k="building" v="industrial" />
		<tag k="name" v="Stokkersmia" />
		<tag k="ssr:stedsnr" v="932597" />
	</node>
	<node id="-26789" lat="59.849600002" lon="10.4017388953">
		<tag k="loc_name" v="Juntru" />
		<tag k="name" v="Junterud" />
		<tag k="place" v="locality" />
		<tag k="ssr:stedsnr" v="932594" />
	</node>
	<node id="-26788" lat="59.858969442" lon="10.5052027823">
		<tag k="name" v="Landøya" />
		<tag k="place" v="village" />
		<tag k="ssr:stedsnr" v="915785" />
	</node>
	<node id="-26274" lat="59.8278055589" lon="10.3984888858">
		<tag k="name" v="Brendsvoll" />
		<tag k="place" v="farm" />
		<tag k="ssr:stedsnr" v="84305" />
	</node>
	<node id="-26785" lat="59.8377861102" lon="10.4028499941">
		<tag k="name" v="Hogstad" />
		<tag k="place" v="farm" />
		<tag k="ssr:stedsnr" v="915752" />
	</node>
	<node id="-26784" lat="59.8264666665" lon="10.3621861134">
		<tag k="name" v="Brattum" />
		<tag k="place" v="farm" />
		<tag k="ssr:stedsnr" v="915745" />
	</node>
	<node id="-26783" lat="59.8292499961" lon="10.4374222255">
		<tag k="name" v="Bondi" />
		<tag k="place" v="farm" />
		<tag k="ssr:stedsnr" v="915709" />
	</node>
	<node id="-26782" lat="59.7999083311" lon="10.5002749933">
		<tag k="name" v="Engervik" />
		<tag k="place" v="isolated_dwelling" />
		<tag k="ssr:stedsnr" v="915689" />
	</node>
	<node id="-26821" lat="59.8612260043" lon="10.4876982212">
		<tag k="amenity" v="nursing_home" />
		<tag k="name" v="Nesbru bo- og omsorgssenter" />
		<tag k="ssr:stedsnr" v="975425" />
	</node>
	<node id="-26780" lat="59.8021250039" lon="10.4017805563">
		<tag k="name" v="Sebjørnsrud" />
		<tag k="place" v="farm" />
		<tag k="ssr:stedsnr" v="914718" />
	</node>
	<node id="-26267" lat="59.8239527818" lon="10.4396194371">
		<tag k="amenity" v="school" />
		<tag k="name" v="Bondi skole" />
		<tag k="ssr:stedsnr" v="83553" />
	</node>
	<node id="-26265" lat="59.816033336" lon="10.4309916691">
		<tag k="name" v="Kullebunn" />
		<tag k="place" v="quarter" />
		<tag k="ssr:stedsnr" v="83552" />
	</node>
	<node id="-26776" lat="59.8140694475" lon="10.4794249971">
		<tag k="name" v="Sjøvollen" />
		<tag k="place" v="isolated_dwelling" />
		<tag k="ssr:stedsnr" v="874509" />
	</node>
	<node id="-26263" lat="59.8542055541" lon="10.4593999946">
		<tag k="name" v="Kunstnerdalen" />
		<tag k="place" v="quarter" />
		<tag k="ssr:stedsnr" v="83493" />
	</node>
	<node id="-26090" lat="59.8026749983" lon="10.5030333402">
		<tag k="name" v="Håkavik" />
		<tag k="place" v="isolated_dwelling" />
		<tag k="ssr:stedsnr" v="307716" />
	</node>
	<node id="-26773" lat="59.8777638869" lon="10.4508222296">
		<tag k="name" v="Eikestuen" />
		<tag k="place" v="isolated_dwelling" />
		<tag k="ssr:stedsnr" v="872649" />
	</node>
	<node id="-26124" lat="59.8345722197" lon="10.4572888925">
		<tag k="fixme" v="consider place=hamlet" />
		<tag k="name" v="Øvre Båstad" />
		<tag k="place" v="farm" />
		<tag k="ssr:stedsnr" v="326682" />
	</node>
	<node id="-26258" lat="59.8269361125" lon="10.4248305561">
		<tag k="amenity" v="nursing_home" />
		<tag k="name" v="Søndre Borgen sykehjem" />
		<tag k="ssr:stedsnr" v="83675" />
	</node>
	<node id="-26257" lat="59.8179333377" lon="10.4286722216">
		<tag k="amenity" v="school" />
		<tag k="name" v="Rønningen skole" />
		<tag k="ssr:stedsnr" v="83672" />
	</node>
	<node id="-26256" lat="59.8327027798" lon="10.4474083415">
		<tag k="name" v="Bondibråten" />
		<tag k="place" v="village" />
		<tag k="ssr:stedsnr" v="83661" />
	</node>
	<node id="-26767" lat="59.8628361092" lon="10.4574916642">
		<tag k="name" v="Lidarende" />
		<tag k="place" v="farm" />
		<tag k="ssr:stedsnr" v="872537" />
	</node>
	<node id="-26253" lat="59.8516277758" lon="10.4096249946">
		<tag k="name" v="Øvre Berg" />
		<tag k="place" v="farm" />
		<tag k="ssr:stedsnr" v="83631" />
	</node>
	<node id="-26252" lat="59.850722224" lon="10.429577785">
		<tag k="name" v="Høyklopp" />
		<tag k="place" v="isolated_dwelling" />
		<tag k="ssr:stedsnr" v="83624" />
	</node>
	<node id="-26818" lat="59.8253730792" lon="10.4260231051">
		<tag k="name" v="Vardeborg" />
		<tag k="place" v="farm" />
		<tag k="ssr:stedsnr" v="972337" />
	</node>
	<node id="-26762" lat="59.8103166706" lon="10.4796305643">
		<tag k="name" v="Høybakk" />
		<tag k="place" v="farm" />
		<tag k="ssr:stedsnr" v="871695" />
	</node>
	<node id="-26761" lat="59.8233055514" lon="10.3523999985">
		<tag k="name" v="Fiskumbråten" />
		<tag k="place" v="farm" />
		<tag k="ssr:stedsnr" v="871674" />
	</node>
	<node id="-26247" lat="59.8144055556" lon="10.4331083376">
		<tag k="name" v="Borgen" />
		<tag k="place" v="isolated_dwelling" />
		<tag k="ssr:stedsnr" v="66733" />
	</node>
	<node id="-26246" lat="59.8381633509" lon="10.4619404267">
		<tag k="name" v="Båstad" />
		<tag k="place" v="hamlet" />
		<tag k="ssr:stedsnr" v="65772" />
	</node>
	<node id="-26245" lat="59.8305666583" lon="10.3960253481">
		<tag k="alt_name" v="Brendsrudgårdene;Brendsrud" />
		<tag k="fixme" v="consider place=hamlet" />
		<tag k="name" v="Brennsrud" />
		<tag k="place" v="farm" />
		<tag k="ssr:stedsnr" v="65769" />
	</node>
	<node id="-26244" lat="59.8305916656" lon="10.4268527792">
		<tag k="name" v="Borgen" />
		<tag k="place" v="farm" />
		<tag k="ssr:stedsnr" v="65765" />
	</node>
	<node id="-26243" lat="59.8309194464" lon="10.3594666716">
		<tag k="name" v="Jerpåsen" />
		<tag k="place" v="farm" />
		<tag k="ssr:stedsnr" v="65761" />
	</node>
	<node id="-26242" lat="59.7916500002" lon="10.459983325">
		<tag k="name" v="Gjellum" />
		<tag k="place" v="farm" />
		<tag k="ssr:stedsnr" v="65711" />
	</node>
	<node id="-26753" lat="59.8588611153" lon="10.431699999">
		<tag k="name" v="Tangen" />
		<tag k="place" v="isolated_dwelling" />
		<tag k="ssr:stedsnr" v="854775" />
	</node>
	<node id="-26752" lat="59.8380499956" lon="10.3589305547">
		<tag k="name" v="Bergsmarka" />
		<tag k="place" v="farm" />
		<tag k="ssr:stedsnr" v="854761" />
	</node>
	<node id="-26238" lat="59.8702027746" lon="10.5289138806">
		<tag k="name" v="Nesøya" />
		<tag k="place" v="farm" />
		<tag k="ssr:stedsnr" v="64837" />
	</node>
	<node id="-26237" lat="59.8019861072" lon="10.4950222164">
		<tag k="name" v="Sjødal" />
		<tag k="place" v="isolated_dwelling" />
		<tag k="ssr:stedsnr" v="58244" />
	</node>
	<node id="-26748" lat="59.8812250003" lon="10.4338999983">
		<tag k="name" v="Ormerud" />
		<tag k="place" v="isolated_dwelling" />
		<tag k="ssr:stedsnr" v="853851" />
	</node>
	<node id="-26747" lat="59.7804111133" lon="10.4583055492">
		<tag k="name" v="Rustad" />
		<tag k="place" v="farm" />
		<tag k="ssr:stedsnr" v="853827" />
	</node>
	<node id="-26745" lat="59.8638944469" lon="10.4198722239">
		<tag k="name" v="Hajem" />
		<tag k="place" v="farm" />
		<tag k="ssr:stedsnr" v="853809" />
	</node>
	<node id="-26232" lat="59.8245694471" lon="10.4189777735">
		<tag k="name" v="Borgenbråten" />
		<tag k="place" v="quarter" />
		<tag k="ssr:stedsnr" v="23698" />
	</node>
	<node id="-26231" lat="59.8268027747" lon="10.4461194435">
		<tag k="amenity" v="school" />
		<tag k="name" v="Bleiker v.g. skole" />
		<tag k="ssr:stedsnr" v="23689" />
	</node>
	<node id="-26230" lat="59.8421638935" lon="10.4350749924">
		<tag k="name" v="Askertun" />
		<tag k="place" v="locality" />
		<tag k="ssr:stedsnr" v="23686" />
	</node>
	<node id="-26229" lat="59.8373361068" lon="10.4359388907">
		<tag k="amenity" v="townhall" />
		<tag k="name" v="Asker rådhus" />
		<tag k="ssr:stedsnr" v="23684" />
	</node>
	<node id="-26140" lat="59.8253833309" lon="10.4736999945">
		<tag k="name" v="Vettre" />
		<tag k="place" v="farm" />
		<tag k="ssr:stedsnr" v="369681" />
	</node>
	<node id="-26089" lat="59.8017138909" lon="10.426663891">
		<tag k="name" v="Vinnulstad" />
		<tag k="place" v="farm" />
		<tag k="ssr:stedsnr" v="307711" />
	</node>
	<node id="-26735" lat="59.8045277764" lon="10.3928555492">
		<tag k="amenity" v="school" />
		<tag k="name" v="Solberg skole" />
		<tag k="ssr:stedsnr" v="811694" />
	</node>
	<node id="-26733" lat="59.8381694455" lon="10.3592083247">
		<tag k="name" v="Myra" />
		<tag k="place" v="farm" />
		<tag k="ssr:stedsnr" v="811690" />
	</node>
	<node id="-26220" lat="59.8024222199" lon="10.481525002">
		<tag k="name" v="Øgården" />
		<tag k="place" v="farm" />
		<tag k="ssr:stedsnr" v="22731" />
	</node>
	<node id="-26218" lat="59.8023833329" lon="10.3860694445">
		<tag k="name" v="Kvennhaugen" />
		<tag k="place" v="locality" />
		<tag k="ssr:stedsnr" v="22714" />
	</node>
	<node id="-26729" lat="59.8508500042" lon="10.4334305596">
		<tag k="name" v="Sagvollen" />
		<tag k="place" v="locality" />
		<tag k="ssr:stedsnr" v="811633" />
	</node>
	<node id="-26728" lat="59.841069444" lon="10.4231000066">
		<tag k="name" v="Biterud" />
		<tag k="place" v="farm" />
		<tag k="ssr:stedsnr" v="811622" />
	</node>
	<node id="-26812" lat="59.8141000032" lon="10.4253194366">
		<tag k="name" v="Trettestykket" />
		<tag k="place" v="locality" />
		<tag k="ssr:stedsnr" v="933710" />
	</node>
	<node id="-26214" lat="59.8142027821" lon="10.3789277743">
		<tag k="alt_name" v="Vardåsen sykehus" />
		<tag k="name" v="Vardåsen" />
		<tag k="place" v="isolated_dwelling" />
		<tag k="ssr:stedsnr" v="5738" />
	</node>
	<node id="-26212" lat="59.8540166673" lon="10.3466027737">
		<tag k="name" v="Vestlia" />
		<tag k="place" v="isolated_dwelling" />
		<tag k="ssr:stedsnr" v="4826" />
	</node>
	<node id="-26211" lat="59.8525000043" lon="10.4964277843">
		<tag k="name" v="Furunes" />
		<tag k="place" v="isolated_dwelling" />
		<tag k="ssr:stedsnr" v="4820" />
	</node>
	<node id="-26210" lat="59.8426250001" lon="10.4906111106">
		<tag k="name" v="Hvalstrand" />
		<tag k="place" v="isolated_dwelling" />
		<tag k="ssr:stedsnr" v="4797" />
	</node>
	<node id="-26208" lat="59.790225001" lon="10.4264750036">
		<tag k="name" v="Sætre" />
		<tag k="place" v="isolated_dwelling" />
		<tag k="ssr:stedsnr" v="4726" />
	</node>
	<node id="-26207" lat="59.8033388904" lon="10.4888444366">
		<tag k="name" v="Arnestad" />
		<tag k="place" v="farm" />
		<tag k="ssr:stedsnr" v="4720" />
	</node>
	<node id="-26206" lat="59.8008666644" lon="10.3984472212">
		<tag k="name" v="Strømnes" />
		<tag k="place" v="farm" />
		<tag k="ssr:stedsnr" v="4708" />
	</node>
	<node id="-26205" lat="59.7986353286" lon="10.4734023683">
		<tag k="name" v="Linlandet" />
		<tag k="place" v="farm" />
		<tag k="ssr:stedsnr" v="4707" />
	</node>
	<node id="-26204" lat="59.8070249985" lon="10.3572777782">
		<tag k="alt_name" v="Påverud, nordre;Poverud" />
		<tag k="name" v="Nordre Påverud" />
		<tag k="place" v="farm" />
		<tag k="ssr:stedsnr" v="4693" />
	</node>
	<node id="-26631" lat="59.7969666641" lon="10.4550416601">
		<tag k="name" v="Lille Gui" />
		<tag k="place" v="farm" />
		<tag k="ssr:stedsnr" v="689701" />
	</node>
	<node id="-26202" lat="59.864605553" lon="10.4725944379">
		<tag k="name" v="Berger" />
		<tag k="place" v="farm" />
		<tag k="ssr:stedsnr" v="3801" />
	</node>
	<node id="-26201" lat="59.8640499989" lon="10.4286361099">
		<tag k="name" v="Tømmervika" />
		<tag k="place" v="isolated_dwelling" />
		<tag k="ssr:stedsnr" v="3797" />
	</node>
	<node id="-26724" lat="59.8483972222" lon="10.4929277806">
		<tag k="fixme" v="consider place=suburb, village or hamlet" />
		<tag k="name" v="Hvalsbakken" />
		<tag k="place" v="quarter" />
		<tag k="ssr:stedsnr" v="811517" />
	</node>
	<node id="-26710" lat="59.8542916687" lon="10.444427777">
		<tag k="name" v="Skaugum" />
		<tag k="place" v="farm" />
		<tag k="ssr:stedsnr" v="793804" />
	</node>
	<node id="-26709" lat="59.8424529675" lon="10.3883166835">
		<tag k="name" v="Steinset" />
		<tag k="place" v="farm" />
		<tag k="ssr:stedsnr" v="793802" />
	</node>
	<node id="-26707" lat="59.8202750013" lon="10.3655055644">
		<tag k="name" v="Engelsrud" />
		<tag k="place" v="farm" />
		<tag k="ssr:stedsnr" v="793759" />
	</node>
	<node id="-26194" lat="59.7959100868" lon="10.4771776333">
		<tag k="name" v="Åsaker" />
		<tag k="place" v="farm" />
		<tag k="ssr:stedsnr" v="988667" />
	</node>
	<node id="-26705" lat="59.8029305586" lon="10.4778055483">
		<tag k="name" v="Stålenga" />
		<tag k="place" v="farm" />
		<tag k="ssr:stedsnr" v="793720" />
	</node>
	<node id="-26650" lat="59.8294583336" lon="10.4378416693">
		<tag k="name" v="Nordre Bondi" />
		<tag k="place" v="farm" />
		<tag k="ssr:stedsnr" v="690710" />
	</node>
	<node id="-26694" lat="59.8246583355" lon="10.4420888879">
		<tag k="amenity" v="sports_centre" />
		<tag k="name" v="Bondihallen" />
		<tag k="ssr:stedsnr" v="751577" />
	</node>
	<node id="-26693" lat="59.8539500031" lon="10.4850055633">
		<tag k="leisure" v="pitch" />
		<tag k="name" v="Holmen idrettsanlegg" />
		<tag k="ssr:stedsnr" v="751537" />
	</node>
	<node id="-26692" lat="59.8653333321" lon="10.4668083343">
		<tag k="name" v="Nedre Solstad" />
		<tag k="place" v="farm" />
		<tag k="ssr:stedsnr" v="751529" />
	</node>
	<node id="-26691" lat="59.862391663" lon="10.4637416676">
		<tag k="name" v="Øvre Solstad" />
		<tag k="place" v="farm" />
		<tag k="ssr:stedsnr" v="751525" />
	</node>
	<node id="-26688" lat="59.7915333308" lon="10.4455027841">
		<tag k="amenity" v="school" />
		<tag k="name" v="Heggedal skole" />
		<tag k="ssr:stedsnr" v="750723" />
	</node>
	<node id="-26174" lat="59.874894445" lon="10.3770527829">
		<tag k="alt_name" v="Nordre Rustan;N. Rustan" />
		<tag k="name" v="Nordre Rustaden" />
		<tag k="place" v="farm" />
		<tag k="ssr:stedsnr" v="889644" />
	</node>
	<node id="-26685" lat="59.8409638889" lon="10.359497229">
		<tag k="name" v="Kasteløkka" />
		<tag k="place" v="farm" />
		<tag k="ssr:stedsnr" v="750690" />
	</node>
	<node id="-26684" lat="59.8254305537" lon="10.3546749911">
		<tag k="name" v="Bruås" />
		<tag k="place" v="isolated_dwelling" />
		<tag k="ssr:stedsnr" v="750682" />
	</node>
	<node id="-26682" lat="59.799680552" lon="10.3650777691">
		<tag k="name" v="Dyring" />
		<tag k="place" v="locality" />
		<tag k="ssr:stedsnr" v="750663" />
	</node>
	<node id="-26479" lat="59.869602779" lon="10.4819250087">
		<tag k="alt_name" v="Berger" />
		<tag k="name" v="Nordre Berger" />
		<tag k="place" v="farm" />
		<tag k="ssr:stedsnr" v="489816" />
	</node>
	<node id="-26804" lat="59.8213777794" lon="10.4717083354">
		<tag k="amenity" v="hospital" />
		<tag k="name" v="Blakstad sykehus" />
		<tag k="ssr:stedsnr" v="933615" />
	</node>
	<node id="-26677" lat="59.839752777" lon="10.4095916691">
		<tag k="name" v="Haugerud" />
		<tag k="place" v="farm" />
		<tag k="ssr:stedsnr" v="751668" />
	</node>
	<node id="-26164" lat="59.8096638874" lon="10.3626361097">
		<tag k="leisure" v="pitch" />
		<tag k="name" v="Dikemark idrettsanlegg" />
		<tag k="ssr:stedsnr" v="386684" />
	</node>
	<node id="-26718" lat="59.869347222" lon="10.5190972309">
		<tag k="amenity" v="school" />
		<tag k="name" v="Nesøya skole" />
		<tag k="ssr:stedsnr" v="811466" />
	</node>
	<node id="-26162" lat="59.8255472183" lon="10.4348972157">
		<tag k="name" v="Søndre Bondi" />
		<tag k="place" v="farm" />
		<tag k="ssr:stedsnr" v="386661" />
	</node>
	<node id="-26161" lat="59.8256194416" lon="10.4465222182">
		<tag k="amenity" v="sports_centre" />
		<tag k="name" v="Askerhallen" />
		<tag k="ssr:stedsnr" v="386655" />
	</node>
	<node id="-26160" lat="59.8456611084" lon="10.4380972214">
		<tag k="name" v="Asker prestegård (Røren)" />
		<tag k="place" v="farm" />
		<tag k="ssr:stedsnr" v="386653" />
	</node>
	<node id="-26157" lat="59.8530472187" lon="10.4249555511">
		<tag k="name" v="Sem bruk" />
		<tag k="place" v="farm" />
		<tag k="ssr:stedsnr" v="386626" />
	</node>
	<node id="-26156" lat="59.8433250013" lon="10.3911166696">
		<tag k="name" v="Røisland" />
		<tag k="place" v="farm" />
		<tag k="ssr:stedsnr" v="386625" />
	</node>
	<node id="-26666" lat="59.8459833337" lon="10.4953500077">
		<tag k="name" v="Stilleren" />
		<tag k="place" v="isolated_dwelling" />
		<tag k="ssr:stedsnr" v="733755" />
	</node>
	<node id="-26665" lat="59.841591671" lon="10.4022250068">
		<tag k="name" v="Jøssong" />
		<tag k="place" v="farm" />
		<tag k="ssr:stedsnr" v="733745" />
	</node>
	<node id="-26664" lat="59.8118805539" lon="10.4612111169">
		<tag k="name" v="Østenstad" />
		<tag k="place" v="farm" />
		<tag k="ssr:stedsnr" v="733733" />
	</node>
	<node id="-26663" lat="59.8176111143" lon="10.4415222302">
		<tag k="alt_name" v="Bondibroen" />
		<tag k="name" v="Bondibrua" />
		<tag k="place" v="farm" />
		<tag k="ssr:stedsnr" v="733705" />
	</node>
	<node id="-26661" lat="59.7828861109" lon="10.425288888">
		<tag k="name" v="Underland" />
		<tag k="place" v="farm" />
		<tag k="ssr:stedsnr" v="733633" />
	</node>
	<node id="-26148" lat="59.8055916707" lon="10.477063882">
		<tag k="amenity" v="school" />
		<tag k="name" v="Gisle skole" />
		<tag k="ssr:stedsnr" v="386709" />
	</node>
	<node id="-26147" lat="59.8024055513" lon="10.4097472188">
		<tag k="name" v="Plassen" />
		<tag k="place" v="farm" />
		<tag k="ssr:stedsnr" v="386707" />
	</node>
	<node id="-26146" lat="59.8444833324" lon="10.3437444502">
		<tag k="name" v="Lirastua" />
		<tag k="place" v="isolated_dwelling" />
		<tag k="ssr:stedsnr" v="386703" />
	</node>
	<node id="-26145" lat="59.8708166668" lon="10.4856333363">
		<tag k="name" v="Lahaugen" />
		<tag k="place" v="farm" />
		<tag k="ssr:stedsnr" v="386496" />
	</node>
	<node id="-26144" lat="59.8720499989" lon="10.4795555491">
		<tag k="name" v="Askenga" />
		<tag k="place" v="village" />
		<tag k="ssr:stedsnr" v="386495" />
	</node>
	<node id="-26141" lat="59.8332638872" lon="10.4436500038">
		<tag k="name" v="Fusdal" />
		<tag k="place" v="farm" />
		<tag k="ssr:stedsnr" v="369685" />
	</node>
	<node id="-26730" lat="59.8326305525" lon="10.4230861098">
		<tag k="name" v="Oreholt" />
		<tag k="place" v="isolated_dwelling" />
		<tag k="ssr:stedsnr" v="811641" />
	</node>
	<node id="-26781" lat="59.864636114" lon="10.4651666682">
		<tag k="name" v="Solstad" />
		<tag k="place" v="farm" />
		<tag k="ssr:stedsnr" v="914809" />
	</node>
	<node id="-26138" lat="59.8447611156" lon="10.4430777772">
		<tag k="name" v="Haugbo" />
		<tag k="place" v="farm" />
		<tag k="ssr:stedsnr" v="368809" />
	</node>
	<node id="-26137" lat="59.8386750016" lon="10.4749694467">
		<tag k="name" v="Leangen" />
		<tag k="place" v="farm" />
		<tag k="ssr:stedsnr" v="368802" />
	</node>
	<node id="-26136" lat="59.8264027764" lon="10.3795055602">
		<tag k="name" v="Skansen" />
		<tag k="place" v="isolated_dwelling" />
		<tag k="ssr:stedsnr" v="368794" />
	</node>
	<node id="-26135" lat="59.7905750002" lon="10.3881805507">
		<tag k="name" v="Slåttebråtan" />
		<tag k="place" v="isolated_dwelling" />
		<tag k="ssr:stedsnr" v="368749" />
	</node>
	<node id="-26134" lat="59.7924333367" lon="10.4858805512">
		<tag k="name" v="Bjerkås" />
		<tag k="place" v="village" />
		<tag k="ssr:stedsnr" v="368745" />
	</node>
	<node id="-26133" lat="59.8011916682" lon="10.4622250087">
		<tag k="name" v="Lindås" />
		<tag k="place" v="farm" />
		<tag k="ssr:stedsnr" v="368734" />
	</node>
	<node id="-26130" lat="59.786244442" lon="10.3763194377">
		<tag k="fixme" v="consider tourism=alpine_hut or tourism=chalet" />
		<tag k="name" v="Småvannsbu" />
		<tag k="ssr:stedsnr" v="359940" />
		<tag k="tourism" v="wilderness_hut" />
	</node>
	<node id="-26639" lat="59.8748083319" lon="10.473608331">
		<tag k="amenity" v="school" />
		<tag k="name" v="Billingstad skole" />
		<tag k="ssr:stedsnr" v="690558" />
	</node>
	<node id="-26126" lat="59.8514771263" lon="10.5400271015">
		<tag k="fixme" v="consider tourism=alpine_hut or tourism=chalet" />
		<tag k="name" v="Butikken" />
		<tag k="ssr:stedsnr" v="345331" />
		<tag k="tourism" v="wilderness_hut" />
	</node>
	<node id="-26125" lat="59.8289194439" lon="10.4247944459">
		<tag k="alt_name" v="Borgen, nordre" />
		<tag k="name" v="Nordre Borgen" />
		<tag k="place" v="farm" />
		<tag k="ssr:stedsnr" v="326694" />
	</node>
	<node id="-26657" lat="59.8705805514" lon="10.4908999946">
		<tag k="alt_name" v="Vestre Nes" />
		<tag k="name" v="Nes" />
		<tag k="place" v="farm" />
		<tag k="ssr:stedsnr" v="731815" />
	</node>
	<node id="-26114" lat="59.8622638911" lon="10.4810555606">
		<tag k="amenity" v="school" />
		<tag k="name" v="Torstad skole" />
		<tag k="ssr:stedsnr" v="326538" />
	</node>
	<node id="-26634" lat="59.8720694403" lon="10.5212416679">
		<tag k="name" v="Kjeksla" />
		<tag k="place" v="isolated_dwelling" />
		<tag k="ssr:stedsnr" v="690531" />
	</node>
	<node id="-26711" lat="59.8522527796" lon="10.4128861174">
		<tag k="name" v="Berg" />
		<tag k="place" v="farm" />
		<tag k="ssr:stedsnr" v="793816" />
	</node>
	<node id="-26632" lat="59.8013416631" lon="10.4843472225">
		<tag k="name" v="Bekkelund" />
		<tag k="place" v="farm" />
		<tag k="ssr:stedsnr" v="689703" />
	</node>
	<node id="-26119" lat="59.8177527805" lon="10.476280563">
		<tag k="name" v="Vadhus" />
		<tag k="place" v="locality" />
		<tag k="ssr:stedsnr" v="326602" />
	</node>
	<node id="-26630" lat="59.791786109" lon="10.4481111141">
		<tag k="name" v="Heggedal" />
		<tag k="place" v="village" />
		<tag k="ssr:stedsnr" v="689694" />
	</node>
	<node id="-26629" lat="59.7869527796" lon="10.4483555577">
		<tag k="name" v="Fjellhøy" />
		<tag k="place" v="farm" />
		<tag k="ssr:stedsnr" v="689692" />
	</node>
	<node id="-26116" lat="59.8620527796" lon="10.4940555525">
		<tag k="name" v="Nesvangen" />
		<tag k="place" v="village" />
		<tag k="ssr:stedsnr" v="326573" />
	</node>
	<node id="-26750" lat="59.8386722144" lon="10.4142654971">
		<tag k="alt_name" v="Hagan;Limovnhagen" />
		<tag k="name" v="Hagen" />
		<tag k="place" v="locality" />
		<tag k="ssr:stedsnr" v="854745" />
	</node>
	<node id="-26625" lat="59.8285583297" lon="10.3691888948">
		<tag k="name" v="Kampenhaug" />
		<tag k="place" v="farm" />
		<tag k="ssr:stedsnr" v="689654" />
	</node>
</osm>
