<?xml version="1.0" encoding="UTF-8"?>
<osm version="0.6" generator="osmapis">
	<node id="266706712" lat="68.7726305" lon="16.1715549" version="7" timestamp="2022-07-04T06:29:14Z" changeset="123173796" uid="3497659" user="NKA">
		<tag k="name" v="Borkenes" />
		<tag k="place" v="village" />
		<tag k="population" v="1391" />
		<tag k="population:date" v="2021-01-01" />
		<tag k="ref:ssb_tettsted" v="8021" />
		<tag k="source:population" v="SSB - befolkning i tettstedet" />
		<tag k="ssr:stedsnr" v="199188" />
	</node>
	<node id="885819498" lat="68.6177901" lon="15.7598481" version="3" timestamp="2022-07-04T06:29:14Z" changeset="123173796" uid="3497659" user="NKA">
		<tag k="loc_name" v="Langvassbukt" />
		<tag k="name" v="Langvassbukta" />
		<tag k="place" v="hamlet" />
		<tag k="ssr:stedsnr" v="928321" />
	</node>
	<node id="1587519042" lat="68.7422267" lon="16.2774742" version="5" timestamp="2022-07-04T06:29:14Z" changeset="123173796" uid="3497659" user="NKA">
		<tag k="name" v="Vik" />
		<tag k="place" v="village" />
		<tag k="population" v="282" />
		<tag k="population:date" v="2021-01-01" />
		<tag k="ref:ssb_tettsted" v="8022" />
		<tag k="source:population" v="SSB - befolkning i tettstedet" />
		<tag k="ssr:stedsnr" v="18761" />
	</node>
	<node id="1587519051" lat="68.7382501" lon="16.2609682" version="2" timestamp="2022-07-04T06:29:14Z" changeset="123173796" uid="3497659" user="NKA">
		<tag k="name" v="Lamhagan" />
		<tag k="place" v="hamlet" />
		<tag k="ssr:stedsnr" v="624942" />
	</node>
	<node id="1587520189" lat="68.7084783" lon="16.3050406" version="3" timestamp="2022-07-04T06:29:14Z" changeset="123173796" uid="3497659" user="NKA">
		<tag k="name" v="Nygård" />
		<tag k="place" v="farm" />
		<tag k="ssr:stedsnr" v="563905" />
	</node>
	<node id="1587527181" lat="68.7865278" lon="16.0707468" version="3" timestamp="2022-07-04T06:29:14Z" changeset="123173796" uid="3497659" user="NKA">
		<tag k="name" v="Øynes" />
		<tag k="place" v="hamlet" />
		<tag k="ssr:stedsnr" v="657418" />
	</node>
	<node id="1591071352" lat="68.8244641" lon="16.1035666" version="2" timestamp="2022-07-04T06:29:14Z" changeset="123173796" uid="3497659" user="NKA">
		<tag k="alt_name" v="Elde" />
		<tag k="name" v="Elda" />
		<tag k="place" v="hamlet" />
		<tag k="ssr:stedsnr" v="841619" />
	</node>
	<node id="1591086915" lat="68.8636914" lon="16.1931548" version="2" timestamp="2022-07-04T06:29:14Z" changeset="123173796" uid="3497659" user="NKA">
		<tag k="name" v="Bremnes" />
		<tag k="place" v="hamlet" />
		<tag k="ssr:stedsnr" v="571984" />
	</node>
	<node id="1675732882" lat="68.6722248" lon="15.9126785" version="2" timestamp="2022-07-04T06:29:14Z" changeset="123173796" uid="3497659" user="NKA">
		<tag k="name" v="Flesnes" />
		<tag k="place" v="hamlet" />
		<tag k="ssr:stedsnr" v="79245" />
	</node>
	<node id="1675732886" lat="68.6790694" lon="16.0484582" version="3" timestamp="2022-07-04T06:29:14Z" changeset="123173796" uid="3497659" user="NKA">
		<tag k="alt_name:no" v="Refsnes" />
		<tag k="name" v="Revsnes - Reavččak" />
		<tag k="name:no" v="Revsnes" />
		<tag k="name:se" v="Reavččak" />
		<tag k="place" v="hamlet" />
		<tag k="ssr:stedsnr" v="807246" />
	</node>
	<node id="3297545939" lat="68.7890945" lon="16.1217882" version="2" timestamp="2022-07-04T06:29:14Z" changeset="123173796" uid="3497659" user="NKA">
		<tag k="name" v="Dale" />
		<tag k="place" v="hamlet" />
		<tag k="ssr:stedsnr" v="112730" />
	</node>
	<node id="3297545942" lat="68.7610324" lon="16.2430933" version="2" timestamp="2022-07-04T06:29:14Z" changeset="123173796" uid="3497659" user="NKA">
		<tag k="name" v="Gåra" />
		<tag k="place" v="hamlet" />
		<tag k="ssr:stedsnr" v="450039" />
	</node>
	<node id="3297545943" lat="68.7296047" lon="16.0569799" version="2" timestamp="2022-07-04T06:29:14Z" changeset="123173796" uid="3497659" user="NKA">
		<tag k="name" v="Hemmestad - Hinak" />
		<tag k="name:no" v="Hemmestad" />
		<tag k="name:se" v="Hinak" />
		<tag k="place" v="hamlet" />
		<tag k="ssr:stedsnr" v="1077558" />
	</node>
	<node id="3297545944" lat="68.7684894" lon="16.2046999" version="2" timestamp="2022-07-04T06:29:14Z" changeset="123173796" uid="3497659" user="NKA">
		<tag k="name" v="Strand" />
		<tag k="place" v="quarter" />
		<tag k="ssr:stedsnr" v="233325" />
	</node>
	<node id="3297545945" lat="68.7362657" lon="16.2443973" version="2" timestamp="2022-07-04T06:29:14Z" changeset="123173796" uid="3497659" user="NKA">
		<tag k="name" v="Straumen - Strávvi" />
		<tag k="name:no" v="Straumen" />
		<tag k="name:se" v="Strávvi" />
		<tag k="place" v="hamlet" />
		<tag k="ssr:stedsnr" v="753032" />
	</node>
	<node id="3297545946" lat="68.7814467" lon="16.1393773" version="2" timestamp="2022-07-04T06:29:14Z" changeset="123173796" uid="3497659" user="NKA">
		<tag k="name" v="Trastad" />
		<tag k="place" v="quarter" />
		<tag k="ssr:stedsnr" v="719691" />
	</node>
	<node id="3297545947" lat="68.8086327" lon="16.1047971" version="2" timestamp="2022-07-04T06:29:14Z" changeset="123173796" uid="3497659" user="NKA">
		<tag k="name" v="Utstrand" />
		<tag k="place" v="hamlet" />
		<tag k="ssr:stedsnr" v="18104" />
	</node>
	<node id="3297545948" lat="68.7543445" lon="16.2559788" version="2" timestamp="2022-07-04T06:29:14Z" changeset="123173796" uid="3497659" user="NKA">
		<tag k="name" v="Vikeland" />
		<tag k="place" v="hamlet" />
		<tag k="ssr:stedsnr" v="138322" />
	</node>
	<node id="3297545949" lat="68.7414833" lon="16.2845945" version="2" timestamp="2022-07-04T06:29:14Z" changeset="123173796" uid="3497659" user="NKA">
		<tag k="name" v="Voktor" />
		<tag k="place" v="hamlet" />
		<tag k="ssr:stedsnr" v="442826" />
	</node>
	<node id="3376349551" lat="68.5706082" lon="15.796738" version="2" timestamp="2022-07-04T06:29:14Z" changeset="123173796" uid="3497659" user="NKA">
		<tag k="name" v="Våtvoll" />
		<tag k="place" v="hamlet" />
		<tag k="ssr:stedsnr" v="503806" />
	</node>
	<node id="4029892669" lat="68.6051454" lon="15.7789065" version="3" timestamp="2022-07-04T06:29:14Z" changeset="123173796" uid="3497659" user="NKA">
		<tag k="alt_name" v="Bømarken" />
		<tag k="name" v="Bømarka" />
		<tag k="place" v="hamlet" />
		<tag k="ssr:stedsnr" v="685349" />
	</node>
	<node id="4029925334" lat="68.6229843" lon="15.6682031" version="2" timestamp="2022-07-04T06:29:14Z" changeset="123173796" uid="3497659" user="NKA">
		<tag k="name" v="Langvassdalen" />
		<tag k="place" v="hamlet" />
		<tag k="ssr:stedsnr" v="1077079" />
	</node>
	<node id="4030412962" lat="68.5715549" lon="15.8280316" version="2" timestamp="2022-07-04T06:29:14Z" changeset="123173796" uid="3497659" user="NKA">
		<tag k="alt_name" v="Moelv" />
		<tag k="name" v="Moelva" />
		<tag k="place" v="hamlet" />
		<tag k="ssr:stedsnr" v="503801" />
	</node>
	<node id="4030412963" lat="68.5645217" lon="15.8265244" version="2" timestamp="2022-07-04T06:29:14Z" changeset="123173796" uid="3497659" user="NKA">
		<tag k="name" v="Eidet - Áidi" />
		<tag k="name:no" v="Eidet" />
		<tag k="name:se" v="Áidi" />
		<tag k="place" v="hamlet" />
		<tag k="ssr:stedsnr" v="745878" />
	</node>
	<node id="4030412964" lat="68.5965159" lon="15.8233024" version="2" timestamp="2022-07-04T06:29:14Z" changeset="123173796" uid="3497659" user="NKA">
		<tag k="alt_name:no" v="Gulholmen;Gullholm" />
		<tag k="alt_name:se" v="Guollesuolu" />
		<tag k="name" v="Gullholmen - Gollesuolu" />
		<tag k="name:no" v="Gullholmen" />
		<tag k="name:se" v="Gollesuolu" />
		<tag k="place" v="hamlet" />
		<tag k="ssr:stedsnr" v="382804" />
	</node>
	<node id="5481070508" lat="68.8428059" lon="16.1280383" version="2" timestamp="2022-07-04T06:29:14Z" changeset="123173796" uid="3497659" user="NKA">
		<tag k="name" v="Aspenes" />
		<tag k="place" v="farm" />
		<tag k="ssr:stedsnr" v="962621" />
	</node>
	<node id="6205774452" lat="68.5363764" lon="15.7521794" version="2" timestamp="2022-07-04T06:29:14Z" changeset="123173796" uid="3497659" user="NKA">
		<tag k="alt_name:no" v="Gullesfjord;Botn" />
		<tag k="name" v="Gullesfjordbotn - Skájeaggi" />
		<tag k="name:no" v="Gullesfjordbotn" />
		<tag k="name:se" v="Skájeaggi" />
		<tag k="place" v="hamlet" />
		<tag k="ssr:stedsnr" v="78774" />
	</node>
	<node id="6565972021" lat="68.7622005" lon="16.2497333" version="2" timestamp="2022-07-04T06:29:14Z" changeset="123173796" uid="3497659" user="NKA">
		<tag k="name" v="Skallan" />
		<tag k="place" v="farm" />
		<tag k="ssr:stedsnr" v="745446" />
	</node>
	<node id="7827976041" lat="68.6540441" lon="15.9443475" version="2" timestamp="2022-07-04T06:29:14Z" changeset="123173796" uid="3497659" user="NKA">
		<tag k="name" v="Lyså - Lissuk" />
		<tag k="name:no" v="Lyså" />
		<tag k="name:se" v="Lissuk" />
		<tag k="place" v="farm" />
		<tag k="ssr:stedsnr" v="624313" />
	</node>
	<node id="7827978705" lat="68.6622294" lon="15.8862416" version="2" timestamp="2022-07-04T06:29:14Z" changeset="123173796" uid="3497659" user="NKA">
		<tag k="name" v="Bogen" />
		<tag k="place" v="hamlet" />
		<tag k="ssr:stedsnr" v="928244" />
	</node>
	<node id="7827978706" lat="68.6534085" lon="15.8518721" version="2" timestamp="2022-07-04T06:29:14Z" changeset="123173796" uid="3497659" user="NKA">
		<tag k="alt_name:no" v="Gambogen" />
		<tag k="name" v="Gombogen - Gámbohki" />
		<tag k="name:no" v="Gombogen" />
		<tag k="name:se" v="Gámbohki" />
		<tag k="place" v="hamlet" />
		<tag k="ssr:stedsnr" v="17347" />
	</node>
	<node id="7827978707" lat="68.6880079" lon="15.9471218" version="2" timestamp="2022-07-04T06:29:14Z" changeset="123173796" uid="3497659" user="NKA">
		<tag k="name" v="Holand" />
		<tag k="place" v="hamlet" />
		<tag k="ssr:stedsnr" v="840499" />
	</node>
	<node id="7827978708" lat="68.6334202" lon="15.9084717" version="2" timestamp="2022-07-04T06:29:14Z" changeset="123173796" uid="3497659" user="NKA">
		<tag k="name" v="Vassvika" />
		<tag k="place" v="hamlet" />
		<tag k="ssr:stedsnr" v="685309" />
	</node>
	<node id="7834656526" lat="68.6333327" lon="15.8588462" version="2" timestamp="2022-07-04T06:29:14Z" changeset="123173796" uid="3497659" user="NKA">
		<tag k="alt_name" v="Huseby" />
		<tag k="name" v="Huseby" />
		<tag k="place" v="farm" />
		<tag k="ssr:stedsnr" v="503315" />
	</node>
	<node id="9865082062" lat="68.769576" lon="16.076658" version="1" timestamp="2022-07-04T06:29:14Z" changeset="123173796" uid="3497659" user="NKA">
		<tag k="name" v="Haug" />
		<tag k="place" v="farm" />
		<tag k="ssr:stedsnr" v="158676" />
	</node>
	<node id="9865082063" lat="68.6542055" lon="16.0824472" version="1" timestamp="2022-07-04T06:29:14Z" changeset="123173796" uid="3497659" user="NKA">
		<tag k="name" v="Finnvik" />
		<tag k="place" v="locality" />
		<tag k="ssr:stedsnr" v="158681" />
	</node>
	<node id="9865082064" lat="68.7758922" lon="16.1781209" version="1" timestamp="2022-07-04T06:29:14Z" changeset="123173796" uid="3497659" user="NKA">
		<tag k="name" v="Øvre Huseby" />
		<tag k="place" v="neighbourhood" />
		<tag k="ssr:stedsnr" v="294706" />
	</node>
	<node id="9865082065" lat="68.7680083" lon="16.0803944" version="1" timestamp="2022-07-04T06:29:14Z" changeset="123173796" uid="3497659" user="NKA">
		<tag k="name" v="Grønlia" />
		<tag k="place" v="farm" />
		<tag k="ssr:stedsnr" v="381171" />
	</node>
	<node id="9865082066" lat="68.7174131" lon="15.9871281" version="1" timestamp="2022-07-04T06:29:14Z" changeset="123173796" uid="3497659" user="NKA">
		<tag k="alt_name" v="Røyrvik" />
		<tag k="name" v="Rørvika" />
		<tag k="place" v="farm" />
		<tag k="ssr:stedsnr" v="1077078" />
	</node>
	<node id="9865082067" lat="68.8425287" lon="16.1429232" version="1" timestamp="2022-07-04T06:29:14Z" changeset="123173796" uid="3497659" user="NKA">
		<tag k="name" v="Haugen" />
		<tag k="place" v="farm" />
		<tag k="ssr:stedsnr" v="901652" />
	</node>
	<node id="9865082068" lat="68.7501556" lon="16.1732749" version="1" timestamp="2022-07-04T06:29:14Z" changeset="123173796" uid="3497659" user="NKA">
		<tag k="name" v="Hamn" />
		<tag k="place" v="farm" />
		<tag k="ssr:stedsnr" v="52268" />
	</node>
	<node id="9865082069" lat="68.6437136" lon="16.0569805" version="1" timestamp="2022-07-04T06:29:14Z" changeset="123173796" uid="3497659" user="NKA">
		<tag k="name" v="Aspenes" />
		<tag k="place" v="farm" />
		<tag k="ssr:stedsnr" v="719051" />
	</node>
	<node id="9865082070" lat="68.7427991" lon="16.0678184" version="1" timestamp="2022-07-04T06:29:14Z" changeset="123173796" uid="3497659" user="NKA">
		<tag k="alt_name" v="Sandvik" />
		<tag k="name" v="Sandvika" />
		<tag k="place" v="farm" />
		<tag k="ssr:stedsnr" v="294493" />
	</node>
	<node id="9865082071" lat="68.7339722" lon="16.0545833" version="1" timestamp="2022-07-04T06:29:14Z" changeset="123173796" uid="3497659" user="NKA">
		<tag k="name" v="Brekka" />
		<tag k="place" v="farm" />
		<tag k="ssr:stedsnr" v="961416" />
	</node>
	<node id="9865082072" lat="68.7162028" lon="16.3182778" version="1" timestamp="2022-07-04T06:29:14Z" changeset="123173796" uid="3497659" user="NKA">
		<tag k="name" v="Aletsætran" />
		<tag k="place" v="locality" />
		<tag k="ssr:stedsnr" v="294593" />
	</node>
	<node id="9865082073" lat="68.7638497" lon="16.2230629" version="1" timestamp="2022-07-04T06:29:14Z" changeset="123173796" uid="3497659" user="NKA">
		<tag k="alt_name" v="Gåra, yt" />
		<tag k="name" v="Ytre Gåra" />
		<tag k="place" v="farm" />
		<tag k="ssr:stedsnr" v="260471" />
	</node>
	<node id="9865082074" lat="68.7585084" lon="16.2459251" version="1" timestamp="2022-07-04T06:29:14Z" changeset="123173796" uid="3497659" user="NKA">
		<tag k="name" v="Gamman" />
		<tag k="place" v="locality" />
		<tag k="ssr:stedsnr" v="294286" />
	</node>
	<node id="9865082075" lat="68.5994639" lon="15.8231917" version="1" timestamp="2022-07-04T06:29:14Z" changeset="123173796" uid="3497659" user="NKA">
		<tag k="name" v="Leirvikvågen" />
		<tag k="place" v="farm" />
		<tag k="ssr:stedsnr" v="536186" />
	</node>
	<node id="9865082076" lat="68.7491592" lon="16.1673779" version="1" timestamp="2022-07-04T06:29:14Z" changeset="123173796" uid="3497659" user="NKA">
		<tag k="name" v="Hundstad" />
		<tag k="old_name" v="Hunstad" />
		<tag k="place" v="hamlet" />
		<tag k="ssr:stedsnr" v="693986" />
	</node>
	<node id="9865082077" lat="68.7351268" lon="16.2317655" version="1" timestamp="2022-07-04T06:29:14Z" changeset="123173796" uid="3497659" user="NKA">
		<tag k="name" v="Vikran" />
		<tag k="place" v="isolated_dwelling" />
		<tag k="ssr:stedsnr" v="173708" />
	</node>
	<node id="9865082078" lat="68.7664306" lon="16.32695" version="1" timestamp="2022-07-04T06:29:14Z" changeset="123173796" uid="3497659" user="NKA">
		<tag k="historic" v="shieling" />
		<tag k="name" v="Storhaugen" />
		<tag k="place" v="isolated_dwelling" />
		<tag k="ssr:stedsnr" v="138454" />
	</node>
	<node id="9865082079" lat="68.8464346" lon="16.1634897" version="1" timestamp="2022-07-04T06:29:14Z" changeset="123173796" uid="3497659" user="NKA">
		<tag k="name" v="Molvik" />
		<tag k="place" v="locality" />
		<tag k="ssr:stedsnr" v="52608" />
	</node>
	<node id="9865082080" lat="68.668657" lon="16.0414024" version="1" timestamp="2022-07-04T06:29:14Z" changeset="123173796" uid="3497659" user="NKA">
		<tag k="name" v="Kjengsnes - Geaŋkkak" />
		<tag k="name:no" v="Kjengsnes" />
		<tag k="name:se" v="Geaŋkkak" />
		<tag k="place" v="hamlet" />
		<tag k="ssr:stedsnr" v="624291" />
	</node>
	<node id="9865082081" lat="68.6850573" lon="16.3202265" version="1" timestamp="2022-07-04T06:29:14Z" changeset="123173796" uid="3497659" user="NKA">
		<tag k="name" v="Grashola - Rássegohpi" />
		<tag k="name:no" v="Grashola" />
		<tag k="name:se" v="Rássegohpi" />
		<tag k="place" v="locality" />
		<tag k="ssr:stedsnr" v="203169" />
	</node>
	<node id="9865082082" lat="68.5878445" lon="15.8224279" version="1" timestamp="2022-07-04T06:29:14Z" changeset="123173796" uid="3497659" user="NKA">
		<tag k="name" v="Åsheim" />
		<tag k="place" v="farm" />
		<tag k="ssr:stedsnr" v="112840" />
	</node>
	<node id="9865082083" lat="68.7750815" lon="16.1749208" version="1" timestamp="2022-07-04T06:29:14Z" changeset="123173796" uid="3497659" user="NKA">
		<tag k="name" v="Nedre Huseby" />
		<tag k="place" v="neighbourhood" />
		<tag k="ssr:stedsnr" v="1077090" />
	</node>
	<node id="9865082084" lat="68.7348833" lon="16.2243667" version="1" timestamp="2022-07-04T06:29:14Z" changeset="123173796" uid="3497659" user="NKA">
		<tag k="alt_name" v="Hestevik;Heslevika" />
		<tag k="name" v="Hestvika" />
		<tag k="place" v="farm" />
		<tag k="ssr:stedsnr" v="868925" />
	</node>
	<node id="9865082085" lat="68.633675" lon="16.0427693" version="1" timestamp="2022-07-04T06:29:14Z" changeset="123173796" uid="3497659" user="NKA">
		<tag k="name" v="Moa" />
		<tag k="place" v="farm" />
		<tag k="ssr:stedsnr" v="537005" />
	</node>
	<node id="9865082086" lat="68.6942584" lon="16.3420417" version="1" timestamp="2022-07-04T06:29:14Z" changeset="123173796" uid="3497659" user="NKA">
		<tag k="name" v="Almenningssætran" />
		<tag k="place" v="locality" />
		<tag k="ssr:stedsnr" v="51640" />
	</node>
	<node id="9865082087" lat="68.5957342" lon="15.8173276" version="1" timestamp="2022-07-04T06:29:14Z" changeset="123173796" uid="3497659" user="NKA">
		<tag k="name" v="Skjåberget" />
		<tag k="place" v="farm" />
		<tag k="ssr:stedsnr" v="18784" />
	</node>
	<node id="9865082088" lat="68.7231306" lon="16.2601584" version="1" timestamp="2022-07-04T06:29:14Z" changeset="123173796" uid="3497659" user="NKA">
		<tag k="name" v="Gammelsætran" />
		<tag k="place" v="locality" />
		<tag k="ssr:stedsnr" v="841507" />
	</node>
	<node id="9865082089" lat="68.6529191" lon="15.8531126" version="1" timestamp="2022-07-04T06:29:14Z" changeset="123173796" uid="3497659" user="NKA">
		<tag k="name" v="Solvik" />
		<tag k="place" v="farm" />
		<tag k="ssr:stedsnr" v="886663" />
	</node>
	<node id="9865082090" lat="68.6502361" lon="16.0916749" version="1" timestamp="2022-07-04T06:29:14Z" changeset="123173796" uid="3497659" user="NKA">
		<tag k="name" v="Einlia" />
		<tag k="place" v="isolated_dwelling" />
		<tag k="ssr:stedsnr" v="199321" />
	</node>
	<node id="9865082091" lat="68.8070639" lon="16.2287862" version="1" timestamp="2022-07-04T06:29:14Z" changeset="123173796" uid="3497659" user="NKA">
		<tag k="name" v="Koven" />
		<tag k="place" v="isolated_dwelling" />
		<tag k="ssr:stedsnr" v="563362" />
	</node>
	<node id="9865082092" lat="68.7426777" lon="16.1030806" version="1" timestamp="2022-07-04T06:29:14Z" changeset="123173796" uid="3497659" user="NKA">
		<tag k="name" v="Garnbukta" />
		<tag k="place" v="isolated_dwelling" />
		<tag k="ssr:stedsnr" v="563413" />
	</node>
	<node id="9865082093" lat="68.5944333" lon="15.8159945" version="1" timestamp="2022-07-04T06:29:14Z" changeset="123173796" uid="3497659" user="NKA">
		<tag k="name" v="Skinnhallaren" />
		<tag k="place" v="farm" />
		<tag k="ssr:stedsnr" v="503783" />
	</node>
	<node id="9865082094" lat="68.6167083" lon="16.0243445" version="1" timestamp="2022-07-04T06:29:14Z" changeset="123173796" uid="3497659" user="NKA">
		<tag k="name" v="Knut-Jonsaheimen" />
		<tag k="place" v="locality" />
		<tag k="ssr:stedsnr" v="112012" />
	</node>
	<node id="9865082095" lat="68.7181084" lon="16.0610837" version="1" timestamp="2022-07-04T06:29:14Z" changeset="123173796" uid="3497659" user="NKA">
		<tag k="alt_name" v="Skommesvika" />
		<tag k="name" v="Skommesvik" />
		<tag k="place" v="farm" />
		<tag k="ssr:stedsnr" v="928442" />
	</node>
	<node id="9865082096" lat="68.7710794" lon="16.1953275" version="1" timestamp="2022-07-04T06:29:14Z" changeset="123173796" uid="3497659" user="NKA">
		<tag k="name" v="Rå" />
		<tag k="place" v="farm" />
		<tag k="ssr:stedsnr" v="658684" />
	</node>
	<node id="9865082097" lat="68.6471223" lon="16.093511" version="1" timestamp="2022-07-04T06:29:14Z" changeset="123173796" uid="3497659" user="NKA">
		<tag k="name" v="Finnviken" />
		<tag k="place" v="farm" />
		<tag k="ssr:stedsnr" v="52416" />
	</node>
	<node id="9865082098" lat="68.5720537" lon="15.8341169" version="1" timestamp="2022-07-04T06:29:14Z" changeset="123173796" uid="3497659" user="NKA">
		<tag k="name" v="Moelv" />
		<tag k="place" v="farm" />
		<tag k="ssr:stedsnr" v="1077081" />
	</node>
	<node id="9865082099" lat="68.7770905" lon="16.1675371" version="1" timestamp="2022-07-04T06:29:14Z" changeset="123173796" uid="3497659" user="NKA">
		<tag k="name" v="Berg" />
		<tag k="place" v="neighbourhood" />
		<tag k="ssr:stedsnr" v="462673" />
	</node>
	<node id="9865082100" lat="68.7553709" lon="16.1640618" version="1" timestamp="2022-07-04T06:29:14Z" changeset="123173796" uid="3497659" user="NKA">
		<tag k="name" v="Hokland" />
		<tag k="place" v="hamlet" />
		<tag k="ssr:stedsnr" v="657376" />
	</node>
	<node id="9865082101" lat="68.6809" lon="16.3326721" version="1" timestamp="2022-07-04T06:29:14Z" changeset="123173796" uid="3497659" user="NKA">
		<tag k="name" v="Frydenlund" />
		<tag k="place" v="farm" />
		<tag k="ssr:stedsnr" v="809134" />
	</node>
	<node id="9865082102" lat="68.7383105" lon="16.2710306" version="1" timestamp="2022-07-04T06:29:14Z" changeset="123173796" uid="3497659" user="NKA">
		<tag k="name" v="Kleiva" />
		<tag k="place" v="farm" />
		<tag k="ssr:stedsnr" v="624965" />
	</node>
	<node id="9865082103" lat="68.7390167" lon="16.1247999" version="1" timestamp="2022-07-04T06:29:14Z" changeset="123173796" uid="3497659" user="NKA">
		<tag k="alt_name" v="Vebestadsætran" />
		<tag k="name" v="Vebbestadsætran" />
		<tag k="place" v="isolated_dwelling" />
		<tag k="ssr:stedsnr" v="928413" />
	</node>
	<node id="9865082104" lat="68.7366333" lon="16.0566667" version="1" timestamp="2022-07-04T06:29:14Z" changeset="123173796" uid="3497659" user="NKA">
		<tag k="alt_name" v="Hemmestad indre" />
		<tag k="name" v="Indre Hemmestad" />
		<tag k="place" v="farm" />
		<tag k="ssr:stedsnr" v="961415" />
	</node>
	<node id="9865082105" lat="68.7448473" lon="16.2627944" version="1" timestamp="2022-07-04T06:29:14Z" changeset="123173796" uid="3497659" user="NKA">
		<tag k="name" v="Bartega" />
		<tag k="place" v="farm" />
		<tag k="ssr:stedsnr" v="624804" />
	</node>
	<node id="9865082106" lat="68.7217822" lon="16.2988319" version="1" timestamp="2022-07-04T06:29:14Z" changeset="123173796" uid="3497659" user="NKA">
		<tag k="name" v="Voktarstranda" />
		<tag k="place" v="isolated_dwelling" />
		<tag k="ssr:stedsnr" v="806976" />
	</node>
	<node id="9865082107" lat="68.5757222" lon="15.8260362" version="1" timestamp="2022-07-04T06:29:14Z" changeset="123173796" uid="3497659" user="NKA">
		<tag k="name" v="Solfjell" />
		<tag k="place" v="farm" />
		<tag k="ssr:stedsnr" v="901937" />
	</node>
	<node id="9865082108" lat="68.7178361" lon="16.1977638" version="1" timestamp="2022-07-04T06:29:14Z" changeset="123173796" uid="3497659" user="NKA">
		<tag k="name" v="Saldalskråa" />
		<tag k="place" v="isolated_dwelling" />
		<tag k="ssr:stedsnr" v="624487" />
	</node>
	<node id="9865082109" lat="68.7546263" lon="16.1260381" version="1" timestamp="2022-07-04T06:29:14Z" changeset="123173796" uid="3497659" user="NKA">
		<tag k="alt_name" v="Vebbestad" />
		<tag k="name" v="Vebostad" />
		<tag k="place" v="hamlet" />
		<tag k="ssr:stedsnr" v="745182" />
	</node>
	<node id="9865082110" lat="68.6350083" lon="16.0778417" version="1" timestamp="2022-07-04T06:29:14Z" changeset="123173796" uid="3497659" user="NKA">
		<tag k="name" v="Botnjorda" />
		<tag k="place" v="isolated_dwelling" />
		<tag k="ssr:stedsnr" v="806333" />
	</node>
	<node id="9865082111" lat="68.68135" lon="16.3282305" version="1" timestamp="2022-07-04T06:29:14Z" changeset="123173796" uid="3497659" user="NKA">
		<tag k="name" v="Tungebakken" />
		<tag k="place" v="farm" />
		<tag k="ssr:stedsnr" v="688127" />
	</node>
	<node id="9865082112" lat="68.6409139" lon="16.0899" version="1" timestamp="2022-07-04T06:29:14Z" changeset="123173796" uid="3497659" user="NKA">
		<tag k="name" v="Seljeneset" />
		<tag k="place" v="isolated_dwelling" />
		<tag k="ssr:stedsnr" v="806338" />
	</node>
	<node id="9865082113" lat="68.7560907" lon="16.1151268" version="1" timestamp="2022-07-04T06:29:14Z" changeset="123173796" uid="3497659" user="NKA">
		<tag k="alt_name" v="Gardløs" />
		<tag k="name" v="Gardløys" />
		<tag k="place" v="farm" />
		<tag k="ssr:stedsnr" v="806145" />
	</node>
	<node id="9865082114" lat="68.8382644" lon="16.1224882" version="1" timestamp="2022-07-04T06:29:14Z" changeset="123173796" uid="3497659" user="NKA">
		<tag k="name" v="Bonstadvik" />
		<tag k="place" v="farm" />
		<tag k="ssr:stedsnr" v="824890" />
	</node>
	<node id="9865082115" lat="68.7394666" lon="16.0647362" version="1" timestamp="2022-07-04T06:29:14Z" changeset="123173796" uid="3497659" user="NKA">
		<tag k="name" v="Nergård" />
		<tag k="place" v="farm" />
		<tag k="ssr:stedsnr" v="522666" />
	</node>
	<node id="9865082116" lat="68.7325055" lon="16.2478862" version="1" timestamp="2022-07-04T06:29:14Z" changeset="123173796" uid="3497659" user="NKA">
		<tag k="name" v="Vika" />
		<tag k="place" v="farm" />
		<tag k="ssr:stedsnr" v="807945" />
	</node>
	<node id="9865096417" lat="68.7601686" lon="16.095119" version="1" timestamp="2022-07-04T06:29:14Z" changeset="123173796" uid="3497659" user="NKA">
		<tag k="name" v="Skår" />
		<tag k="place" v="hamlet" />
		<tag k="ssr:stedsnr" v="685172" />
	</node>
	<node id="9865096418" lat="68.762569" lon="16.2431045" version="1" timestamp="2022-07-04T06:29:14Z" changeset="123173796" uid="3497659" user="NKA">
		<tag k="alt_name" v="Gåra, in" />
		<tag k="name" v="Indre Gåra" />
		<tag k="place" v="farm" />
		<tag k="ssr:stedsnr" v="442444" />
	</node>
	<node id="9865096419" lat="68.6733862" lon="16.0772139" version="1" timestamp="2022-07-04T06:29:14Z" changeset="123173796" uid="3497659" user="NKA">
		<tag k="name" v="Bjørnlia" />
		<tag k="place" v="farm" />
		<tag k="ssr:stedsnr" v="503235" />
	</node>
	<node id="9865096420" lat="68.8332036" lon="15.9740938" version="1" timestamp="2022-07-04T06:29:14Z" changeset="123173796" uid="3497659" user="NKA">
		<tag k="name" v="Gapøy" />
		<tag k="place" v="hamlet" />
		<tag k="ssr:stedsnr" v="260016" />
	</node>
	<node id="9865096421" lat="68.6771194" lon="16.3533723" version="1" timestamp="2022-07-04T06:29:14Z" changeset="123173796" uid="3497659" user="NKA">
		<tag k="historic" v="shieling" />
		<tag k="name" v="Gammelheimen" />
		<tag k="place" v="isolated_dwelling" />
		<tag k="ssr:stedsnr" v="808099" />
	</node>
	<node id="9865096422" lat="68.6735042" lon="16.348775" version="1" timestamp="2022-07-04T06:29:14Z" changeset="123173796" uid="3497659" user="NKA">
		<tag k="name" v="Storjorda - Stuorgieddi" />
		<tag k="name:no" v="Storjorda" />
		<tag k="name:se" v="Stuorgieddi" />
		<tag k="place" v="hamlet" />
		<tag k="ssr:stedsnr" v="930111" />
	</node>
	<node id="9865096423" lat="68.7355197" lon="16.2043538" version="1" timestamp="2022-07-04T06:29:14Z" changeset="123173796" uid="3497659" user="NKA">
		<tag k="name" v="Hoklandsætran" />
		<tag k="place" v="farm" />
		<tag k="ssr:stedsnr" v="261453" />
	</node>
	<node id="9865096424" lat="68.5800556" lon="15.8260194" version="1" timestamp="2022-07-04T06:29:14Z" changeset="123173796" uid="3497659" user="NKA">
		<tag k="name" v="Holten" />
		<tag k="place" v="farm" />
		<tag k="ssr:stedsnr" v="901935" />
	</node>
	<node id="9865096425" lat="68.7170859" lon="16.3024609" version="1" timestamp="2022-07-04T06:29:14Z" changeset="123173796" uid="3497659" user="NKA">
		<tag k="name" v="Storlia" />
		<tag k="place" v="farm" />
		<tag k="ssr:stedsnr" v="685986" />
	</node>
	<node id="9865096426" lat="68.6794633" lon="16.3372023" version="1" timestamp="2022-07-04T06:29:14Z" changeset="123173796" uid="3497659" user="NKA">
		<tag k="name" v="Skoglund" />
		<tag k="place" v="farm" />
		<tag k="ssr:stedsnr" v="323134" />
	</node>
	<node id="9865096427" lat="68.7336362" lon="16.2750111" version="1" timestamp="2022-07-04T06:29:14Z" changeset="123173796" uid="3497659" user="NKA">
		<tag k="name" v="Kristligflata" />
		<tag k="place" v="farm" />
		<tag k="ssr:stedsnr" v="443947" />
	</node>
	<node id="9865096428" lat="68.663403" lon="16.0814976" version="1" timestamp="2022-07-04T06:29:14Z" changeset="123173796" uid="3497659" user="NKA">
		<tag k="alt_name:no" v="Melåen;Melå" />
		<tag k="name" v="Melåa - Mieluk" />
		<tag k="name:no" v="Melåa" />
		<tag k="name:se" v="Mieluk" />
		<tag k="place" v="hamlet" />
		<tag k="ssr:stedsnr" v="200298" />
	</node>
	<node id="9865096429" lat="68.7355139" lon="16.2654251" version="1" timestamp="2022-07-04T06:29:14Z" changeset="123173796" uid="3497659" user="NKA">
		<tag k="name" v="Rydningen" />
		<tag k="place" v="farm" />
		<tag k="ssr:stedsnr" v="807969" />
	</node>
	<node id="9865096430" lat="68.6687638" lon="16.3637278" version="1" timestamp="2022-07-04T06:29:14Z" changeset="123173796" uid="3497659" user="NKA">
		<tag k="name" v="Storjorda - Stuorgieddi" />
		<tag k="name:no" v="Storjorda" />
		<tag k="name:se" v="Stuorgieddi" />
		<tag k="place" v="farm" />
		<tag k="ssr:stedsnr" v="962590" />
	</node>
	<node id="9865096431" lat="68.7714722" lon="16.345214" version="1" timestamp="2022-07-04T06:29:14Z" changeset="123173796" uid="3497659" user="NKA">
		<tag k="historic" v="shieling" />
		<tag k="name" v="Vikelandsstølen" />
		<tag k="place" v="isolated_dwelling" />
		<tag k="ssr:stedsnr" v="827984" />
	</node>
	<node id="9865096432" lat="68.5457722" lon="15.761211" version="1" timestamp="2022-07-04T06:29:14Z" changeset="123173796" uid="3497659" user="NKA">
		<tag k="alt_name" v="Våtvoll, l" />
		<tag k="name" v="Litle Våtvoll" />
		<tag k="place" v="farm" />
		<tag k="ssr:stedsnr" v="928860" />
	</node>
	<node id="9865096433" lat="68.6256714" lon="15.7730543" version="1" timestamp="2022-07-04T06:29:14Z" changeset="123173796" uid="3497659" user="NKA">
		<tag k="alt_name" v="Forøysætran" />
		<tag k="name" v="Forøysæter" />
		<tag k="place" v="hamlet" />
		<tag k="ssr:stedsnr" v="928300" />
	</node>
	<node id="9865096434" lat="68.6542094" lon="16.0878873" version="1" timestamp="2022-07-04T06:29:14Z" changeset="123173796" uid="3497659" user="NKA">
		<tag k="alt_name" v="Forholtan" />
		<tag k="name" v="Forrholtan" />
		<tag k="place" v="farm" />
		<tag k="ssr:stedsnr" v="260348" />
	</node>
	<node id="9865096435" lat="68.7272555" lon="16.2919139" version="1" timestamp="2022-07-04T06:29:14Z" changeset="123173796" uid="3497659" user="NKA">
		<tag k="name" v="Vonheim" />
		<tag k="place" v="farm" />
		<tag k="ssr:stedsnr" v="199979" />
	</node>
	<node id="9865096436" lat="68.6025556" lon="15.7873472" version="1" timestamp="2022-07-04T06:29:14Z" changeset="123173796" uid="3497659" user="NKA">
		<tag k="name" v="Torsete" />
		<tag k="place" v="farm" />
		<tag k="ssr:stedsnr" v="901963" />
	</node>
	<node id="9865096437" lat="68.8468083" lon="16.1620853" version="1" timestamp="2022-07-04T06:29:14Z" changeset="123173796" uid="3497659" user="NKA">
		<tag k="alt_name" v="Molvika;Molvik" />
		<tag k="name" v="Mollvik" />
		<tag k="place" v="hamlet" />
		<tag k="ssr:stedsnr" v="260053" />
	</node>
	<node id="9865096438" lat="68.56165" lon="15.7465833" version="1" timestamp="2022-07-04T06:29:14Z" changeset="123173796" uid="3497659" user="NKA">
		<tag k="name" v="Løbergsbukta" />
		<tag k="place" v="isolated_dwelling" />
		<tag k="ssr:stedsnr" v="745891" />
	</node>
	<node id="9865096439" lat="68.7247445" lon="16.2986334" version="1" timestamp="2022-07-04T06:29:14Z" changeset="123173796" uid="3497659" user="NKA">
		<tag k="name" v="Solheim" />
		<tag k="place" v="farm" />
		<tag k="ssr:stedsnr" v="321970" />
	</node>
	<node id="9865096440" lat="68.6502194" lon="16.0916443" version="1" timestamp="2022-07-04T06:29:14Z" changeset="123173796" uid="3497659" user="NKA">
		<tag k="name" v="Skreden" />
		<tag k="place" v="isolated_dwelling" />
		<tag k="ssr:stedsnr" v="321286" />
	</node>
	<node id="9865096441" lat="68.5143274" lon="15.6581837" version="1" timestamp="2022-07-04T06:29:14Z" changeset="123173796" uid="3497659" user="NKA">
		<tag k="name" v="Øvre Storelvvatnet statsgrunn" />
		<tag k="place" v="locality" />
		<tag k="ssr:stedsnr" v="1080504" />
	</node>
	<node id="9865096443" lat="68.7833639" lon="16.333614" version="1" timestamp="2022-07-04T06:29:14Z" changeset="123173796" uid="3497659" user="NKA">
		<tag k="name" v="Kvilheim" />
		<tag k="place" v="isolated_dwelling" />
		<tag k="ssr:stedsnr" v="719960" />
	</node>
	<node id="9865096444" lat="68.4590286" lon="15.6390107" version="1" timestamp="2022-07-04T06:29:14Z" changeset="123173796" uid="3497659" user="NKA">
		<tag k="name" v="Bukketinden statsgrunn" />
		<tag k="place" v="locality" />
		<tag k="ssr:stedsnr" v="1080501" />
	</node>
	<node id="9865096445" lat="68.7519954" lon="16.1374173" version="1" timestamp="2022-07-04T06:29:14Z" changeset="123173796" uid="3497659" user="NKA">
		<tag k="name" v="Vebostad" />
		<tag k="place" v="locality" />
		<tag k="ssr:stedsnr" v="658390" />
	</node>
	<node id="9865096446" lat="68.5731334" lon="15.8243695" version="1" timestamp="2022-07-04T06:29:14Z" changeset="123173796" uid="3497659" user="NKA">
		<tag k="alt_name" v="Gammalgården" />
		<tag k="name" v="Gammelgården" />
		<tag k="place" v="farm" />
		<tag k="ssr:stedsnr" v="78859" />
	</node>
	<node id="9865096447" lat="68.8360144" lon="16.1243063" version="1" timestamp="2022-07-04T06:29:14Z" changeset="123173796" uid="3497659" user="NKA">
		<tag k="name" v="Myrvik" />
		<tag k="place" v="farm" />
		<tag k="ssr:stedsnr" v="703893" />
	</node>
	<node id="9865096448" lat="68.5850389" lon="15.8224082" version="1" timestamp="2022-07-04T06:29:14Z" changeset="123173796" uid="3497659" user="NKA">
		<tag k="name" v="Tennholmen" />
		<tag k="place" v="farm" />
		<tag k="ssr:stedsnr" v="260865" />
	</node>
	<node id="9865096449" lat="68.7270323" lon="16.0652439" version="1" timestamp="2022-07-04T06:29:14Z" changeset="123173796" uid="3497659" user="NKA">
		<tag k="name" v="Øvre Hemmestad" />
		<tag k="old_name" v="Hemmestad øvre;Hemmestad, øvre" />
		<tag k="place" v="farm" />
		<tag k="ssr:stedsnr" v="844179" />
	</node>
	<node id="9865096450" lat="68.7107667" lon="16.3019277" version="1" timestamp="2022-07-04T06:29:14Z" changeset="123173796" uid="3497659" user="NKA">
		<tag k="name" v="Solheim" />
		<tag k="place" v="farm" />
		<tag k="ssr:stedsnr" v="200868" />
	</node>
	<node id="9865096451" lat="68.5863083" lon="15.7902362" version="1" timestamp="2022-07-04T06:29:14Z" changeset="123173796" uid="3497659" user="NKA">
		<tag k="name" v="Bergli" />
		<tag k="place" v="farm" />
		<tag k="ssr:stedsnr" v="233880" />
	</node>
	<node id="9865096452" lat="68.7804861" lon="16.0610833" version="1" timestamp="2022-07-04T06:29:14Z" changeset="123173796" uid="3497659" user="NKA">
		<tag k="name" v="Leite" />
		<tag k="place" v="farm" />
		<tag k="ssr:stedsnr" v="597402" />
	</node>
	<node id="9865096453" lat="68.6707862" lon="16.3699028" version="1" timestamp="2022-07-04T06:29:14Z" changeset="123173796" uid="3497659" user="NKA">
		<tag k="name" v="Øvergården" />
		<tag k="place" v="farm" />
		<tag k="ssr:stedsnr" v="505114" />
	</node>
	<node id="9865096454" lat="68.6674187" lon="15.9131647" version="1" timestamp="2022-07-04T06:29:14Z" changeset="123173796" uid="3497659" user="NKA">
		<tag k="name" v="Lanes" />
		<tag k="place" v="farm" />
		<tag k="ssr:stedsnr" v="158648" />
	</node>
	<node id="9865096455" lat="68.7719031" lon="16.3303829" version="1" timestamp="2022-07-04T06:29:14Z" changeset="123173796" uid="3497659" user="NKA">
		<tag k="historic" v="shieling" />
		<tag k="name" v="Prestlahaugen" />
		<tag k="place" v="isolated_dwelling" />
		<tag k="ssr:stedsnr" v="806436" />
	</node>
	<node id="9865096456" lat="68.7191361" lon="16.2999667" version="1" timestamp="2022-07-04T06:29:14Z" changeset="123173796" uid="3497659" user="NKA">
		<tag k="name" v="Lavollen" />
		<tag k="place" v="farm" />
		<tag k="ssr:stedsnr" v="563987" />
	</node>
	<node id="9865096457" lat="68.7808049" lon="16.3496336" version="1" timestamp="2022-07-04T06:29:14Z" changeset="123173796" uid="3497659" user="NKA">
		<tag k="name" v="Bjørklund" />
		<tag k="place" v="farm" />
		<tag k="ssr:stedsnr" v="685446" />
	</node>
	<node id="9865096458" lat="68.7322552" lon="16.187037" version="1" timestamp="2022-07-04T06:29:14Z" changeset="123173796" uid="3497659" user="NKA">
		<tag k="name" v="Salsætran" />
		<tag k="place" v="isolated_dwelling" />
		<tag k="ssr:stedsnr" v="173723" />
	</node>
	<node id="9865096459" lat="68.7343085" lon="16.2061399" version="1" timestamp="2022-07-04T06:29:14Z" changeset="123173796" uid="3497659" user="NKA">
		<tag k="name" v="Salen - Sáttal" />
		<tag k="name:no" v="Salen" />
		<tag k="name:se" v="Sáttal" />
		<tag k="place" v="farm" />
		<tag k="ssr:stedsnr" v="1077089" />
	</node>
	<node id="9865096460" lat="68.6380417" lon="16.0447861" version="1" timestamp="2022-07-04T06:29:14Z" changeset="123173796" uid="3497659" user="NKA">
		<tag k="name" v="Sætran" />
		<tag k="place" v="locality" />
		<tag k="ssr:stedsnr" v="597065" />
	</node>
	<node id="9865096461" lat="68.6697917" lon="15.9025611" version="1" timestamp="2022-07-04T06:29:14Z" changeset="123173796" uid="3497659" user="NKA">
		<tag k="name" v="Lamarka" />
		<tag k="place" v="locality" />
		<tag k="ssr:stedsnr" v="867314" />
	</node>
	<node id="9865096462" lat="68.8487906" lon="16.1712667" version="1" timestamp="2022-07-04T06:29:14Z" changeset="123173796" uid="3497659" user="NKA">
		<tag k="alt_name" v="Ytre Mollvik" />
		<tag k="name" v="Elva" />
		<tag k="place" v="farm" />
		<tag k="ssr:stedsnr" v="460901" />
	</node>
	<node id="9865096463" lat="68.7008973" lon="16.3081196" version="1" timestamp="2022-07-04T06:29:14Z" changeset="123173796" uid="3497659" user="NKA">
		<tag k="historic" v="shieling" />
		<tag k="name" v="Rudda" />
		<tag k="place" v="isolated_dwelling" />
		<tag k="ssr:stedsnr" v="627155" />
	</node>
	<node id="9865096464" lat="68.7081222" lon="16.301975" version="1" timestamp="2022-07-04T06:29:14Z" changeset="123173796" uid="3497659" user="NKA">
		<tag k="name" v="Vollan" />
		<tag k="place" v="farm" />
		<tag k="ssr:stedsnr" v="624867" />
	</node>
	<node id="9865096465" lat="68.7057611" lon="16.3286306" version="1" timestamp="2022-07-04T06:29:14Z" changeset="123173796" uid="3497659" user="NKA">
		<tag k="alt_name" v="Vikesetran" />
		<tag k="name" v="Viksætra" />
		<tag k="place" v="locality" />
		<tag k="ssr:stedsnr" v="624870" />
	</node>
	<node id="9865096466" lat="68.7350667" lon="16.1485027" version="1" timestamp="2022-07-04T06:29:14Z" changeset="123173796" uid="3497659" user="NKA">
		<tag k="historic" v="shieling" />
		<tag k="name" v="Hundstadsætran" />
		<tag k="old_name" v="Hunstadsætran" />
		<tag k="place" v="isolated_dwelling" />
		<tag k="ssr:stedsnr" v="624461" />
	</node>
	<node id="5867939332" lat="68.5312456" lon="15.7278907" version="1" timestamp="2018-08-30T10:44:39Z" changeset="62134783" uid="8524080" user="ENTUR Bjørn Lie Rapp" />
	<node id="5867940327" lat="68.5311476" lon="15.7281023" version="1" timestamp="2018-08-30T10:44:46Z" changeset="62134783" uid="8524080" user="ENTUR Bjørn Lie Rapp" />
	<node id="5867935126" lat="68.5290988" lon="15.7508365" version="1" timestamp="2018-08-30T10:44:06Z" changeset="62134783" uid="8524080" user="ENTUR Bjørn Lie Rapp" />
	<node id="5867935127" lat="68.529168" lon="15.7509081" version="1" timestamp="2018-08-30T10:44:06Z" changeset="62134783" uid="8524080" user="ENTUR Bjørn Lie Rapp" />
	<node id="5867935128" lat="68.5289645" lon="15.7523786" version="1" timestamp="2018-08-30T10:44:06Z" changeset="62134783" uid="8524080" user="ENTUR Bjørn Lie Rapp" />
	<node id="5867935129" lat="68.5288952" lon="15.752307" version="1" timestamp="2018-08-30T10:44:06Z" changeset="62134783" uid="8524080" user="ENTUR Bjørn Lie Rapp" />
	<node id="5867940307" lat="68.5289281" lon="15.752341" version="1" timestamp="2018-08-30T10:44:46Z" changeset="62134783" uid="8524080" user="ENTUR Bjørn Lie Rapp" />
	<node id="5867940331" lat="68.5291343" lon="15.7508733" version="1" timestamp="2018-08-30T10:44:46Z" changeset="62134783" uid="8524080" user="ENTUR Bjørn Lie Rapp" />
	<node id="254368446" lat="68.5608894" lon="15.7521175" version="5" timestamp="2018-08-30T10:45:38Z" changeset="62134783" uid="8524080" user="ENTUR Bjørn Lie Rapp" />
	<node id="2199707689" lat="68.5607882" lon="15.7519067" version="4" timestamp="2018-08-30T10:45:52Z" changeset="62134783" uid="8524080" user="ENTUR Bjørn Lie Rapp" />
	<node id="5867939344" lat="68.5608393" lon="15.7520045" version="1" timestamp="2018-08-30T10:44:40Z" changeset="62134783" uid="8524080" user="ENTUR Bjørn Lie Rapp" />
	<node id="9448191265" lat="68.5842649" lon="15.7918824" version="1" timestamp="2022-01-25T18:21:17Z" changeset="116596754" uid="3497659" user="NKA" />
	<node id="9448191266" lat="68.5843173" lon="15.7918757" version="1" timestamp="2022-01-25T18:21:17Z" changeset="116596754" uid="3497659" user="NKA" />
	<node id="1894559735" lat="68.6161151" lon="15.7597662" version="2" timestamp="2018-08-30T10:45:50Z" changeset="62134783" uid="8524080" user="ENTUR Bjørn Lie Rapp" />
	<node id="1894559743" lat="68.6162046" lon="15.7596771" version="2" timestamp="2018-08-30T10:45:50Z" changeset="62134783" uid="8524080" user="ENTUR Bjørn Lie Rapp" />
	<node id="254368501" lat="68.6038053" lon="15.7823546" version="2" timestamp="2018-08-30T10:45:39Z" changeset="62134783" uid="8524080" user="ENTUR Bjørn Lie Rapp" />
	<node id="5867939538" lat="68.6038933" lon="15.782089" version="1" timestamp="2018-08-30T10:44:41Z" changeset="62134783" uid="8524080" user="ENTUR Bjørn Lie Rapp" />
	<node id="1233127931" lat="68.736273" lon="16.198171" version="3" timestamp="2018-08-30T14:50:14Z" changeset="62142858" uid="8524080" user="ENTUR Bjørn Lie Rapp" />
	<node id="1884152703" lat="68.7375573" lon="16.197612" version="2" timestamp="2018-08-30T14:50:19Z" changeset="62142858" uid="8524080" user="ENTUR Bjørn Lie Rapp">
		<tag k="highway" v="passing_place" />
	</node>
	<node id="5868648410" lat="68.7395655" lon="16.1967378" version="1" timestamp="2018-08-30T14:47:33Z" changeset="62142752" uid="8524080" user="ENTUR Bjørn Lie Rapp" />
	<way id="107257560" version="8" timestamp="2022-01-21T07:34:53Z" changeset="116415921" uid="3497659" user="NKA">
		<tag k="bridge" v="yes" />
		<tag k="bridge:structure" v="beam" />
		<tag k="highway" v="secondary" />
		<tag k="layer" v="1" />
		<tag k="maxspeed" v="60" />
		<tag k="name" v="Kveøybrua" />
		<tag k="old_ref" v="105" />
		<tag k="ref" v="7785" />
		<tag k="ssr:stedsnr" v="181050" />
		<nd ref="1233127931" />
		<nd ref="1884152703" />
		<nd ref="5868648410" />
	</way>
	<way id="179116560" version="7" timestamp="2022-05-29T12:25:11Z" changeset="121654815" uid="715936" user="Gazer75">
		<tag k="bridge" v="yes" />
		<tag k="highway" v="trunk" />
		<tag k="lanes" v="2" />
		<tag k="layer" v="1" />
		<tag k="lit" v="no" />
		<tag k="maxspeed" v="60" />
		<tag k="name" v="Våtvollveien" />
		<tag k="ref" v="85" />
		<tag k="sidewalk" v="none" />
		<tag k="source:maxspeed" v="sign" />
		<tag k="ssr:stedsnr" v="1073127" />
		<tag k="surface" v="asphalt" />
		<tag k="width" v="6" />
		<nd ref="1894559735" />
		<nd ref="1894559743" />
	</way>
	<way id="209793397" version="7" timestamp="2022-05-29T12:25:11Z" changeset="121654815" uid="715936" user="Gazer75">
		<tag k="bridge" v="yes" />
		<tag k="bridge:name" v="Løbergsbrua" />
		<tag k="highway" v="trunk" />
		<tag k="lanes" v="2" />
		<tag k="layer" v="1" />
		<tag k="lit" v="no" />
		<tag k="maxspeed" v="80" />
		<tag k="name" v="Våtvollveien" />
		<tag k="ref" v="85" />
		<tag k="ssr:stedsnr" v="1073132" />
		<tag k="surface" v="asphalt" />
		<tag k="width" v="6.5" />
		<nd ref="2199707689" />
		<nd ref="5867939344" />
		<nd ref="254368446" />
	</way>
	<way id="621156749" version="3" timestamp="2022-05-29T12:25:11Z" changeset="121654815" uid="715936" user="Gazer75">
		<tag k="layer" v="1" />
		<tag k="length" v="62" />
		<tag k="man_made" v="bridge" />
		<tag k="name" v="Lakselvbrua - Luossvuomjohrovvi" />
		<tag k="name:no" v="Lakselvbrua" />
		<tag k="name:se" v="Luossvuomjohrovvi" />
		<tag k="ssr:stedsnr" v="1073226" />
		<nd ref="5867935129" />
		<nd ref="5867940307" />
		<nd ref="5867935128" />
		<nd ref="5867935127" />
		<nd ref="5867940331" />
		<nd ref="5867935126" />
		<nd ref="5867935129" />
	</way>
	<way id="621156860" version="3" timestamp="2022-05-29T12:25:11Z" changeset="121654815" uid="715936" user="Gazer75">
		<tag k="bridge" v="yes" />
		<tag k="bridge:name" v="Vesterelvbrua" />
		<tag k="highway" v="trunk" />
		<tag k="layer" v="1" />
		<tag k="maxspeed" v="80" />
		<tag k="name" v="Våtvollveien" />
		<tag k="ref" v="85" />
		<tag k="ssr:stedsnr" v="1073133" />
		<tag k="surface" v="asphalt" />
		<nd ref="5867940327" />
		<nd ref="5867939332" />
	</way>
	<way id="621156866" version="3" timestamp="2022-05-29T12:25:11Z" changeset="121654815" uid="715936" user="Gazer75">
		<tag k="bridge" v="yes" />
		<tag k="bridge:name" v="Bømarkbrua" />
		<tag k="highway" v="trunk" />
		<tag k="layer" v="1" />
		<tag k="maxspeed" v="60" />
		<tag k="name" v="Våtvollveien" />
		<tag k="ref" v="85" />
		<tag k="ssr:stedsnr" v="1073128" />
		<tag k="surface" v="asphalt" />
		<nd ref="254368501" />
		<nd ref="5867939538" />
	</way>
	<way id="1024634145" version="2" timestamp="2022-05-29T12:25:11Z" changeset="121654815" uid="715936" user="Gazer75">
		<tag k="bridge" v="yes" />
		<tag k="bridge:name" v="Skjellnesbrua - Skellanjárrovvi" />
		<tag k="bridge:name:no" v="Skjellnesbrua" />
		<tag k="bridge:name:se" v="Skellanjárrovvi" />
		<tag k="highway" v="trunk" />
		<tag k="lanes" v="2" />
		<tag k="layer" v="1" />
		<tag k="lit" v="yes" />
		<tag k="maxspeed" v="60" />
		<tag k="name" v="Våtvollveien" />
		<tag k="ref" v="85" />
		<tag k="ssr:stedsnr" v="1073129" />
		<tag k="surface" v="asphalt" />
		<tag k="width" v="6.5" />
		<nd ref="9448191265" />
		<nd ref="9448191266" />
	</way>
</osm>
