<?xml version="1.0" encoding="UTF-8"?>
<<<<<<< HEAD
<osm version="0.6" generator="osmapis">
	<node lat="62.289750001030676" lon="10.329516662694177" id="-24614">
		<tag k="name" v="Marsjølivegen" />
		<tag k="ssr:date" v="2019-12-27" />
=======
<osm generator="osmapis" version="0.6">
	<node id="-354652" lat="62.0759249967" lon="10.3941694528">
		<tag k="name" v="Follandsvangvegen" />
		<tag k="ssr:date" v="2019-12-27" />
		<tag k="ssr:gruppe" v="veg" />
		<tag k="ssr:hovedgruppe" v="infrastruktur" />
		<tag k="ssr:stedsnr" v="841762" />
		<tag k="ssr:type" v="vegstrekning" />
	</node>
	<node id="-355085" lat="62.289750001" lon="10.3295166627">
		<tag k="name" v="Marsjølivegen" />
		<tag k="ssr:date" v="2019-12-27" />
		<tag k="ssr:gruppe" v="veg" />
		<tag k="ssr:hovedgruppe" v="infrastruktur" />
		<tag k="ssr:stedsnr" v="538126" />
		<tag k="ssr:type" v="vegstrekning" />
	</node>
	<node id="-354295" lat="62.0010833334" lon="10.8878916597">
		<tag k="name" v="Midtskogsvegen" />
		<tag k="ssr:date" v="2019-12-27" />
		<tag k="ssr:gruppe" v="veg" />
		<tag k="ssr:hovedgruppe" v="infrastruktur" />
		<tag k="ssr:stedsnr" v="357673" />
		<tag k="ssr:type" v="vegstrekning" />
	</node>
	<node id="-355186" lat="62.1085361141" lon="10.6348305548">
		<tag k="name" v="Alvdal kommune" />
		<tag k="ssr:date" v="2019-12-27" />
		<tag k="ssr:gruppe" v="administrativeIndelinger" />
		<tag k="ssr:hovedgruppe" v="offentligAdministrasjon" />
		<tag k="ssr:stedsnr" v="631251" />
		<tag k="ssr:type" v="kommune" />
	</node>
	<node id="-355375" lat="62.176695657" lon="10.505176164">
		<tag k="name" v="Follheimveien" />
		<tag k="ssr:date" v="2020-03-10" />
>>>>>>> e1d4bc35ff8a6074a6f2e91616a996b547c36f15
		<tag k="ssr:gruppe" v="veg" />
		<tag k="ssr:hovedgruppe" v="infrastruktur" />
		<tag k="ssr:stedsnr" v="538126" />
		<tag k="ssr:type" v="vegstrekning" />
	</node>
<<<<<<< HEAD
	<node lat="62.106236109617846" lon="10.633388896334852" id="-25173">
		<tag k="name" v="Grindegga" />
		<tag k="ssr:date" v="2019-12-27" />
=======
	<node id="-355374" lat="62.1317509288" lon="10.5871797829">
		<tag k="name" v="Solhellinga" />
		<tag k="ssr:date" v="2020-03-10" />
>>>>>>> e1d4bc35ff8a6074a6f2e91616a996b547c36f15
		<tag k="ssr:gruppe" v="veg" />
		<tag k="ssr:hovedgruppe" v="infrastruktur" />
		<tag k="ssr:stedsnr" v="356797" />
		<tag k="ssr:type" v="vegstrekning" />
	</node>
<<<<<<< HEAD
	<node lat="62.00108333338174" lon="10.887891659690306" id="-25181">
		<tag k="name" v="Midtskogsvegen" />
		<tag k="ssr:date" v="2019-12-27" />
=======
	<node id="-355373" lat="62.1326783649" lon="10.5822415611">
		<tag k="name" v="Spurvtrøa" />
		<tag k="ssr:date" v="2020-03-10" />
>>>>>>> e1d4bc35ff8a6074a6f2e91616a996b547c36f15
		<tag k="ssr:gruppe" v="veg" />
		<tag k="ssr:hovedgruppe" v="infrastruktur" />
		<tag k="ssr:stedsnr" v="357673" />
		<tag k="ssr:type" v="vegstrekning" />
	</node>
<<<<<<< HEAD
	<node lat="62.10853611405492" lon="10.63483055480744" id="-25383">
		<tag k="name" v="Alvdal kommune" />
		<tag k="ssr:date" v="2019-12-27" />
		<tag k="ssr:gruppe" v="administrativeIndelinger" />
		<tag k="ssr:hovedgruppe" v="offentligAdministrasjon" />
		<tag k="ssr:stedsnr" v="631251" />
		<tag k="ssr:type" v="kommune" />
	</node>
	<node lat="62.07592499674577" lon="10.394169452787608" id="-25521">
		<tag k="name" v="Follandsvangvegen" />
		<tag k="ssr:date" v="2019-12-27" />
=======
	<node id="-355372" lat="62.129359794" lon="10.5621812449">
		<tag k="name" v="Mælengtunet" />
		<tag k="ssr:date" v="2020-03-10" />
>>>>>>> e1d4bc35ff8a6074a6f2e91616a996b547c36f15
		<tag k="ssr:gruppe" v="veg" />
		<tag k="ssr:hovedgruppe" v="infrastruktur" />
		<tag k="ssr:stedsnr" v="841762" />
		<tag k="ssr:type" v="vegstrekning" />
	</node>
<<<<<<< HEAD
	<node lat="60.795248707246294" lon="11.082591224285064" id="-25582">
=======
	<node id="-355371" lat="60.7952487072" lon="11.0825912243">
>>>>>>> e1d4bc35ff8a6074a6f2e91616a996b547c36f15
		<tag k="name" v="Innlandet fylke" />
		<tag k="ssr:date" v="2021-06-08" />
		<tag k="ssr:gruppe" v="administrativeIndelinger" />
		<tag k="ssr:hovedgruppe" v="offentligAdministrasjon" />
		<tag k="ssr:stedsnr" v="1074406" />
		<tag k="ssr:type" v="fylke" />
	</node>
<<<<<<< HEAD
	<node lat="62.12935979403217" lon="10.56218124492519" id="-25583">
		<tag k="name" v="Mælengtunet" />
		<tag k="ssr:date" v="2020-03-10" />
=======
	<node id="-355383" lat="69.6388889725" lon="30.5666644427">
		<tag k="fixme" v="multiple name tags, choose one and add the other to alt_name" />
		<tag k="loc_name:se" v="Norgga gonagasriika" />
		<tag k="loc_name:sma" v="Nöörjen gånkarïjhke" />
		<tag k="loc_name:smj" v="Vuona gånågisrijkka" />
		<tag k="name" v="Noreg;Norge" />
		<tag k="name:en" v="Norway" />
		<tag k="name:no" v="Noreg;Norge" />
		<tag k="ssr:date" v="2020-06-04" />
		<tag k="ssr:gruppe" v="administrativeIndelinger" />
		<tag k="ssr:hovedgruppe" v="offentligAdministrasjon" />
		<tag k="ssr:stedsnr" v="26330" />
		<tag k="ssr:type" v="nasjon" />
	</node>
	<node id="-354982" lat="62.1062361096" lon="10.6333888963">
		<tag k="name" v="Grindegga" />
		<tag k="ssr:date" v="2019-12-27" />
>>>>>>> e1d4bc35ff8a6074a6f2e91616a996b547c36f15
		<tag k="ssr:gruppe" v="veg" />
		<tag k="ssr:hovedgruppe" v="infrastruktur" />
		<tag k="ssr:stedsnr" v="1075907" />
		<tag k="ssr:type" v="adressenavn" />
	</node>
<<<<<<< HEAD
	<node lat="62.13267836487666" lon="10.582241561068189" id="-25584">
		<tag k="name" v="Spurvtrøa" />
		<tag k="ssr:date" v="2020-03-10" />
		<tag k="ssr:gruppe" v="veg" />
		<tag k="ssr:hovedgruppe" v="infrastruktur" />
		<tag k="ssr:stedsnr" v="1075908" />
		<tag k="ssr:type" v="adressenavn" />
	</node>
	<node lat="62.176695656997126" lon="10.505176163969255" id="-25585">
		<tag k="name" v="Follheimveien" />
		<tag k="ssr:date" v="2020-03-10" />
		<tag k="ssr:gruppe" v="veg" />
		<tag k="ssr:hovedgruppe" v="infrastruktur" />
		<tag k="ssr:stedsnr" v="1075910" />
		<tag k="ssr:type" v="adressenavn" />
	</node>
	<node lat="62.131750928792044" lon="10.587179782872088" id="-25586">
		<tag k="name" v="Solhellinga" />
		<tag k="ssr:date" v="2020-03-10" />
		<tag k="ssr:gruppe" v="veg" />
		<tag k="ssr:hovedgruppe" v="infrastruktur" />
		<tag k="ssr:stedsnr" v="1075909" />
		<tag k="ssr:type" v="adressenavn" />
	</node>
	<node lat="62.10501566352046" lon="10.641905363087046" id="-25591">
		<tag k="name" v="Sole" />
		<tag k="ssr:date" v="2021-11-03" />
		<tag k="ssr:gruppe" v="veg" />
		<tag k="ssr:hovedgruppe" v="infrastruktur" />
		<tag k="ssr:stedsnr" v="1082795" />
		<tag k="ssr:type" v="adressenavn" />
	</node>
=======
>>>>>>> e1d4bc35ff8a6074a6f2e91616a996b547c36f15
</osm>
