<?xml version="1.0" encoding="UTF-8"?>
<osm version="0.6" generator="osmapis">
	<node lat="59.322411111078026" lon="7.140799997683675" id="-63734">
		<tag k="name" v="Skolås" />
		<tag k="place" v="locality" />
		<tag k="ssr:stedsnr" v="2307" />
	</node>
	<node lat="59.654661106925836" lon="7.163724994047187" id="-63753">
		<tag k="name" v="Storheller" />
		<tag k="place" v="locality" />
		<tag k="ssr:stedsnr" v="3425" />
	</node>
	<node lat="59.559069448209115" lon="7.355869435839446" id="-63755">
		<tag k="name" v="Haugly gjesteheim" />
		<tag k="ssr:stedsnr" v="3726" />
		<tag k="tourism" v="hotel" />
	</node>
	<node lat="59.555836111318534" lon="7.350030555180913" id="-63764">
		<tag k="name" v="Otrosåsen hyttefelt" />
		<tag k="place" v="neighbourhood" />
		<tag k="ssr:stedsnr" v="23417" />
	</node>
	<node lat="59.30673328146358" lon="7.426409291539871" id="-63791">
		<tag k="alt_name" v="Gaukstone" />
		<tag k="historic" v="shieling" />
		<tag k="name" v="Gauketostøylen" />
		<tag k="place" v="isolated_dwelling" />
		<tag k="ssr:stedsnr" v="52014" />
	</node>
	<node lat="59.42773132473007" lon="7.355655322828723" id="-63922">
		<tag k="historic" v="shieling" />
		<tag k="name" v="Lundan" />
		<tag k="old_name" v="Lundane" />
		<tag k="place" v="isolated_dwelling" />
		<tag k="ssr:stedsnr" v="63442" />
	</node>
	<node lat="59.49205176628107" lon="7.440824646313974" id="-63924">
		<tag k="name" v="Geiskeli" />
		<tag k="place" v="farm" />
		<tag k="ssr:stedsnr" v="63512" />
	</node>
	<node lat="59.640077779266484" lon="7.44040278030948" id="-63933">
		<tag k="alt_name" v="Bjåen" />
		<tag k="name" v="Bjåi" />
		<tag k="place" v="farm" />
		<tag k="ssr:stedsnr" v="64554" />
	</node>
	<node lat="59.609802773365956" lon="7.420475002911265" id="-63934">
		<tag k="alt_name" v="Lislefjøddstølen" />
		<tag k="historic" v="shieling" />
		<tag k="name" v="Lislefjøddstøylen" />
		<tag k="place" v="isolated_dwelling" />
		<tag k="ssr:stedsnr" v="64719" />
	</node>
	<node lat="59.48951388713513" lon="7.427658338313573" id="-63949">
		<tag k="name" v="Solhaugen" />
		<tag k="place" v="isolated_dwelling" />
		<tag k="ssr:stedsnr" v="92609" />
	</node>
	<node lat="59.35152222110893" lon="7.348794440700083" id="-63953">
		<tag k="name" v="Fådapen" />
		<tag k="place" v="farm" />
		<tag k="ssr:stedsnr" v="92910" />
	</node>
	<node lat="59.31612221778573" lon="7.358269445010066" id="-64299">
		<tag k="name" v="Åstog" />
		<tag k="old_name" v="Åsdokk" />
		<tag k="place" v="farm" />
		<tag k="ssr:stedsnr" v="123565" />
	</node>
	<node lat="59.434652517107104" lon="7.362250351564499" id="-64305">
		<tag k="historic" v="shieling" />
		<tag k="name" v="Listøyl" />
		<tag k="old_name" v="Listøl" />
		<tag k="place" v="isolated_dwelling" />
		<tag k="ssr:stedsnr" v="124359" />
	</node>
	<node lat="59.316048487288505" lon="7.0850626910099885" id="-64316">
		<tag k="name" v="Stakkslåtta" />
		<tag k="place" v="locality" />
		<tag k="ssr:stedsnr" v="148855" />
	</node>
	<node lat="59.354591667664174" lon="7.35266388486942" id="-64323">
		<tag k="name" v="Haugen" />
		<tag k="place" v="farm" />
		<tag k="ssr:stedsnr" v="152916" />
	</node>
	<node lat="59.574000003098064" lon="7.288733327566544" id="-64334">
		<tag k="name" v="Solbakken" />
		<tag k="place" v="farm" />
		<tag k="ssr:stedsnr" v="153607" />
	</node>
	<node lat="59.49048610977573" lon="7.43049721417761" id="-64335">
		<tag k="landuse" v="military" />
		<tag k="name" v="Agdertun" />
		<tag k="ssr:stedsnr" v="153611" />
	</node>
	<node lat="59.61104166575869" lon="7.415563889834026" id="-64339">
		<tag k="historic" v="shieling" />
		<tag k="name" v="Heimre Løbakken" />
		<tag k="place" v="isolated_dwelling" />
		<tag k="ssr:stedsnr" v="153650" />
	</node>
	<node lat="59.6127499978797" lon="7.389116666916284" id="-64341">
		<tag k="historic" v="shieling" />
		<tag k="name" v="Kloppestøylane" />
		<tag k="place" v="isolated_dwelling" />
		<tag k="ssr:stedsnr" v="153659" />
	</node>
	<node lat="59.346677775517726" lon="7.291127770602967" id="-64351">
		<tag k="name" v="Holen" />
		<tag k="place" v="farm" />
		<tag k="ssr:stedsnr" v="245257" />
	</node>
	<node lat="59.320149237915466" lon="7.200759750125974" id="-64355">
		<tag k="name" v="Ljosland" />
		<tag k="place" v="isolated_dwelling" />
		<tag k="ssr:stedsnr" v="245275" />
	</node>
	<node lat="59.44692123510025" lon="7.417334588440197" id="-64365">
		<tag k="name" v="Åsland" />
		<tag k="place" v="farm" />
		<tag k="ssr:stedsnr" v="245371" />
	</node>
	<node lat="59.4475944469759" lon="7.428577779241742" id="-64366">
		<tag k="name" v="Berdalen" />
		<tag k="place" v="farm" />
		<tag k="ssr:stedsnr" v="245373" />
	</node>
	<node lat="59.28095833562723" lon="7.0554722236233145" id="-64498">
		<tag k="fixme" v="consider tourism=alpine_hut or tourism=chalet" />
		<tag k="name" v="Sandvassbu" />
		<tag k="old_name" v="Sandvasshytta" />
		<tag k="ssr:stedsnr" v="175809" />
		<tag k="tourism" v="wilderness_hut" />
	</node>
	<node lat="59.3169027780202" lon="7.376619438211128" id="-64518">
		<tag k="historic" v="shieling" />
		<tag k="name" v="Øybøstøylen" />
		<tag k="place" v="isolated_dwelling" />
		<tag k="ssr:stedsnr" v="274930" />
	</node>
	<node lat="59.35272500042824" lon="7.0362916642006565" id="-64522">
		<tag k="fixme" v="consider tourism=alpine_hut or tourism=chalet" />
		<tag k="name" v="Hovatn" />
		<tag k="ssr:stedsnr" v="209841" />
		<tag k="tourism" v="wilderness_hut" />
	</node>
	<node lat="59.438698942725566" lon="7.033009833043686" id="-64523">
		<tag k="name" v="Blåbergåskilen" />
		<tag k="place" v="locality" />
		<tag k="ssr:stedsnr" v="210909" />
	</node>
	<node lat="59.3509500012196" lon="7.338700004927121" id="-64525">
		<tag k="name" v="Austistog" />
		<tag k="place" v="farm" />
		<tag k="ssr:stedsnr" v="213912" />
	</node>
	<node lat="59.35481944272195" lon="7.35401111605036" id="-64655">
		<tag k="name" v="Jarehaugen" />
		<tag k="place" v="farm" />
		<tag k="ssr:stedsnr" v="235351" />
	</node>
	<node lat="59.53733055494143" lon="7.519583329258036" id="-64686">
		<tag k="fixme" v="consider tourism=alpine_hut or tourism=chalet" />
		<tag k="name" v="Tjønnbrotbu" />
		<tag k="ssr:stedsnr" v="236501" />
		<tag k="tourism" v="wilderness_hut" />
	</node>
	<node lat="59.348549995877484" lon="7.258475000752696" id="-64699">
		<tag k="name" v="Nordbygdi" />
		<tag k="place" v="hamlet" />
		<tag k="ssr:stedsnr" v="245235" />
	</node>
	<node lat="59.32763889079736" lon="7.319988880009685" id="-64701">
		<tag k="name" v="Sanden" />
		<tag k="place" v="farm" />
		<tag k="ssr:stedsnr" v="245291" />
	</node>
	<node lat="59.31464167043712" lon="7.393983335712443" id="-64706">
		<tag k="historic" v="shieling" />
		<tag k="name" v="Finnfloti" />
		<tag k="place" v="isolated_dwelling" />
		<tag k="ssr:stedsnr" v="245503" />
	</node>
	<node lat="59.38917777957338" lon="7.391150005455014" id="-64711">
		<tag k="historic" v="shieling" />
		<tag k="name" v="Bygdestøylan" />
		<tag k="place" v="isolated_dwelling" />
		<tag k="ssr:stedsnr" v="245588" />
	</node>
	<node lat="59.40899999857067" lon="7.45088334095432" id="-64713">
		<tag k="historic" v="shieling" />
		<tag k="name" v="Tykkelunden" />
		<tag k="place" v="isolated_dwelling" />
		<tag k="ssr:stedsnr" v="245596" />
	</node>
	<node lat="59.3052555566487" lon="7.399472218378123" id="-64716">
		<tag k="historic" v="shieling" />
		<tag k="name" v="Løyningsstøylen" />
		<tag k="old_name" v="Løyningsstølen" />
		<tag k="place" v="isolated_dwelling" />
		<tag k="ssr:stedsnr" v="245711" />
	</node>
	<node lat="59.573813891196906" lon="7.290405560072531" id="-64718">
		<tag k="name" v="Breive" />
		<tag k="place" v="hamlet" />
		<tag k="ssr:stedsnr" v="246287" />
	</node>
	<node lat="59.32266110697479" lon="7.356883325187406" id="-64748">
		<tag k="name" v="Storstein" />
		<tag k="place" v="farm" />
		<tag k="ssr:stedsnr" v="274801" />
	</node>
	<node lat="59.40082492241402" lon="7.088801666164601" id="-64761">
		<tag k="name" v="Krokevasshytta" />
		<tag k="place" v="locality" />
		<tag k="ssr:stedsnr" v="452846" />
	</node>
	<node lat="59.3334527811682" lon="7.325099999409687" id="-64913">
		<tag k="name" v="Bjones" />
		<tag k="place" v="farm" />
		<tag k="ssr:stedsnr" v="305305" />
	</node>
	<node lat="59.49317499624754" lon="7.186386109721621" id="-64915">
		<tag k="historic" v="shieling" />
		<tag k="name" v="Flatestøyl" />
		<tag k="place" v="isolated_dwelling" />
		<tag k="ssr:stedsnr" v="306122" />
	</node>
	<node lat="59.42597782172264" lon="7.375952186355707" id="-64927">
		<tag k="name" v="Stedjan" />
		<tag k="old_name" v="Stedjane" />
		<tag k="place" v="locality" />
		<tag k="ssr:stedsnr" v="306412" />
	</node>
	<node lat="59.3249972265687" lon="7.345827783982459" id="-64933">
		<tag k="name" v="Trydal" />
		<tag k="place" v="farm" />
		<tag k="ssr:stedsnr" v="306507" />
	</node>
	<node lat="59.44973055672754" lon="7.424077776264937" id="-64940">
		<tag k="name" v="Hagen" />
		<tag k="place" v="locality" />
		<tag k="ssr:stedsnr" v="456546" />
	</node>
	<node lat="59.57609166494527" lon="7.279697223454814" id="-64945">
		<tag k="historic" v="shieling" />
		<tag k="name" v="Listøyl" />
		<tag k="place" v="isolated_dwelling" />
		<tag k="ssr:stedsnr" v="456581" />
	</node>
	<node lat="59.5738277790902" lon="7.2936027824986205" id="-64946">
		<tag k="name" v="Haugen" />
		<tag k="place" v="farm" />
		<tag k="ssr:stedsnr" v="456594" />
	</node>
	<node lat="59.37981666726825" lon="7.383061119491239" id="-64976">
		<tag k="name" v="Hageleitet" />
		<tag k="place" v="locality" />
		<tag k="ssr:stedsnr" v="335519" />
	</node>
	<node lat="59.56014722454662" lon="7.35716389296339" id="-65044">
		<tag k="amenity" v="cafe" />
		<tag k="name" v="Furumo" />
		<tag k="ssr:stedsnr" v="355784" />
	</node>
	<node lat="59.38782500020068" lon="7.277875006648798" id="-65134">
		<tag k="historic" v="shieling" />
		<tag k="name" v="Øystøyl" />
		<tag k="place" v="isolated_dwelling" />
		<tag k="ssr:stedsnr" v="366353" />
	</node>
	<node lat="59.38559166414364" lon="7.2848138971708885" id="-65135">
		<tag k="historic" v="shieling" />
		<tag k="name" v="Kaupmannsbui" />
		<tag k="place" v="isolated_dwelling" />
		<tag k="ssr:stedsnr" v="366356" />
	</node>
	<node lat="59.574241671147185" lon="7.286097229969205" id="-65143">
		<tag k="name" v="Nordgarden" />
		<tag k="place" v="farm" />
		<tag k="ssr:stedsnr" v="367235" />
	</node>
	<node lat="59.6396888868897" lon="7.428594446449184" id="-65150">
		<tag k="name" v="Bjåland" />
		<tag k="place" v="farm" />
		<tag k="ssr:stedsnr" v="367498" />
	</node>
	<node lat="59.569074172858656" lon="7.348718644282381" id="-65157">
		<tag k="leisure" v="pitch" />
		<tag k="name" v="Hovden skisenter" />
		<tag k="ssr:stedsnr" v="387364" />
	</node>
	<node lat="59.56397777578965" lon="7.348322227024188" id="-65158">
		<tag k="name" v="Dyregrendi" />
		<tag k="place" v="hamlet" />
		<tag k="ssr:stedsnr" v="387367" />
	</node>
	<node lat="59.57689721980993" lon="7.3071500011608" id="-65168">
		<tag k="historic" v="shieling" />
		<tag k="name" v="Kvernlistøylen" />
		<tag k="place" v="isolated_dwelling" />
		<tag k="ssr:stedsnr" v="395608" />
	</node>
	<node lat="59.37303333665738" lon="7.269727778447304" id="-65178">
		<tag k="name" v="Flottebui" />
		<tag k="place" v="locality" />
		<tag k="ssr:stedsnr" v="395893" />
	</node>
	<node lat="59.32088333200854" lon="7.400650004655218" id="-65181">
		<tag k="historic" v="shieling" />
		<tag k="name" v="Nystøyl" />
		<tag k="place" v="isolated_dwelling" />
		<tag k="ssr:stedsnr" v="395941" />
	</node>
	<node lat="59.32269631658989" lon="7.187205405853941" id="-65377">
		<tag k="historic" v="shieling" />
		<tag k="name" v="Åsane" />
		<tag k="place" v="isolated_dwelling" />
		<tag k="ssr:stedsnr" v="427314" />
	</node>
	<node lat="59.32527778067314" lon="7.1322250069916455" id="-65382">
		<tag k="historic" v="shieling" />
		<tag k="name" v="Ånaråstøylen" />
		<tag k="place" v="isolated_dwelling" />
		<tag k="ssr:stedsnr" v="427291" />
	</node>
	<node lat="59.36626666690887" lon="7.319100000907222" id="-65390">
		<tag k="historic" v="shieling" />
		<tag k="name" v="Kilane" />
		<tag k="place" v="isolated_dwelling" />
		<tag k="ssr:stedsnr" v="427394" />
	</node>
	<node lat="59.35136110954109" lon="7.354505549313516" id="-65394">
		<tag k="name" v="Lii" />
		<tag k="place" v="farm" />
		<tag k="ssr:stedsnr" v="427582" />
	</node>
	<node lat="59.62916756149074" lon="7.315789108347252" id="-65405">
		<tag k="name" v="Myrekvæven" />
		<tag k="place" v="isolated_dwelling" />
		<tag k="ssr:stedsnr" v="428408" />
	</node>
	<node lat="59.35129444517806" lon="7.282302785604555" id="-65545">
		<tag k="name" v="Heimtveiti" />
		<tag k="place" v="farm" />
		<tag k="ssr:stedsnr" v="452676" />
	</node>
	<node lat="59.385380555224096" lon="7.381102770161736" id="-65547">
		<tag k="historic" v="shieling" />
		<tag k="name" v="Seten" />
		<tag k="place" v="isolated_dwelling" />
		<tag k="ssr:stedsnr" v="456509" />
	</node>
	<node lat="59.352363890657955" lon="7.346672227052445" id="-65627">
		<tag k="building" v="commercial" />
		<tag k="name" v="Samvirkelaget" />
		<tag k="ssr:stedsnr" v="477328" />
	</node>
	<node lat="59.3673916653469" lon="7.311177775121222" id="-65730">
		<tag k="alt_name" v="Vedhus" />
		<tag k="historic" v="shieling" />
		<tag k="name" v="Vehus" />
		<tag k="place" v="isolated_dwelling" />
		<tag k="ssr:stedsnr" v="669354" />
	</node>
	<node lat="59.35420833620656" lon="7.357383330355424" id="-65736">
		<tag k="name" v="Bykle" />
		<tag k="place" v="quarter" />
		<tag k="ssr:stedsnr" v="669268" />
	</node>
	<node lat="59.55532777944688" lon="7.335669444326176" id="-65749">
		<tag k="name" v="Hovden" />
		<tag k="place" v="farm" />
		<tag k="ssr:stedsnr" v="670270" />
	</node>
	<node lat="59.33185277724667" lon="7.37644166025566" id="-65750">
		<tag k="historic" v="shieling" />
		<tag k="name" v="Fosstøyl" />
		<tag k="old_name" v="Fosstøl" />
		<tag k="place" v="isolated_dwelling" />
		<tag k="ssr:stedsnr" v="670511" />
	</node>
	<node lat="59.445044446525486" lon="7.505186116270626" id="-65753">
		<tag k="historic" v="shieling" />
		<tag k="name" v="Krenkjarsmo" />
		<tag k="old_name" v="Kringsjarsmo" />
		<tag k="place" v="isolated_dwelling" />
		<tag k="ssr:stedsnr" v="670399" />
	</node>
	<node lat="59.3880750006731" lon="7.282650007809731" id="-65757">
		<tag k="historic" v="shieling" />
		<tag k="name" v="Tykkholt" />
		<tag k="place" v="isolated_dwelling" />
		<tag k="ssr:stedsnr" v="670357" />
	</node>
	<node lat="59.36603333303253" lon="7.30317777821894" id="-65760">
		<tag k="alt_name" v="Fit" />
		<tag k="historic" v="shieling" />
		<tag k="name" v="Fet" />
		<tag k="place" v="isolated_dwelling" />
		<tag k="ssr:stedsnr" v="670370" />
	</node>
	<node lat="59.55796389026216" lon="7.355905555249315" id="-65767">
		<tag k="building" v="civic" />
		<tag k="name" v="Raudekrossen" />
		<tag k="ssr:stedsnr" v="508368" />
	</node>
	<node lat="59.4679416667415" lon="7.383672218529055" id="-65976">
		<tag k="name" v="Systog" />
		<tag k="place" v="farm" />
		<tag k="ssr:stedsnr" v="577607" />
	</node>
	<node lat="59.38333055362737" lon="7.386749998106751" id="-65982">
		<tag k="historic" v="shieling" />
		<tag k="name" v="Høymyr" />
		<tag k="place" v="isolated_dwelling" />
		<tag k="ssr:stedsnr" v="577513" />
	</node>
	<node lat="59.30424722229417" lon="7.402122220366543" id="-65992">
		<tag k="historic" v="shieling" />
		<tag k="name" v="Øvre Løken" />
		<tag k="place" v="isolated_dwelling" />
		<tag k="ssr:stedsnr" v="577966" />
	</node>
	<node lat="59.42910737786305" lon="7.356239589841701" id="-66089">
		<tag k="alt_name" v="Heistøyl" />
		<tag k="historic" v="shieling" />
		<tag k="name" v="Heistøl" />
		<tag k="place" v="isolated_dwelling" />
		<tag k="ssr:stedsnr" v="609403" />
	</node>
	<node lat="59.5603111081278" lon="7.356730563949816" id="-66104">
		<tag k="name" v="Hovden" />
		<tag k="place" v="quarter" />
		<tag k="ssr:stedsnr" v="629348" />
	</node>
	<node lat="59.574516666958985" lon="7.391813881086211" id="-66105">
		<tag k="name" v="Hovden Appartements" />
		<tag k="old_name" v="Hovden Appartementhotell" />
		<tag k="ssr:stedsnr" v="629356" />
		<tag k="tourism" v="hotel" />
	</node>
	<node lat="59.384513890437596" lon="7.049800003427347" id="-66109">
		<tag k="name" v="Den flå dokki" />
		<tag k="place" v="locality" />
		<tag k="ssr:stedsnr" v="633691" />
	</node>
	<node lat="59.46851389092652" lon="7.374863890572163" id="-66118">
		<tag k="name" v="Nordstog" />
		<tag k="place" v="farm" />
		<tag k="ssr:stedsnr" v="638597" />
	</node>
	<node lat="59.352877775936186" lon="7.338455556278275" id="-66133">
		<tag k="name" v="Oppistog" />
		<tag k="place" v="farm" />
		<tag k="ssr:stedsnr" v="638906" />
	</node>
	<node lat="59.351183329838015" lon="7.281977780075737" id="-66134">
		<tag k="name" v="Heimtveiti" />
		<tag k="place" v="farm" />
		<tag k="ssr:stedsnr" v="638917" />
	</node>
	<node lat="59.353683337099525" lon="7.362141661019249" id="-66137">
		<tag k="name" v="Kroni" />
		<tag k="place" v="farm" />
		<tag k="ssr:stedsnr" v="638928" />
	</node>
	<node lat="59.35306111293412" lon="7.258802772473731" id="-66146">
		<tag k="historic" v="shieling" />
		<tag k="name" v="Voddeskard" />
		<tag k="place" v="isolated_dwelling" />
		<tag k="ssr:stedsnr" v="694659" />
	</node>
	<node lat="59.313447221963216" lon="7.076650007017379" id="-66294">
		<tag k="historic" v="shieling" />
		<tag k="name" v="Strondestøyl" />
		<tag k="place" v="isolated_dwelling" />
		<tag k="ssr:stedsnr" v="670306" />
	</node>
	<node lat="59.46120277603922" lon="7.375550000354048" id="-66307">
		<tag k="name" v="Løyning" />
		<tag k="place" v="farm" />
		<tag k="ssr:stedsnr" v="670381" />
	</node>
	<node lat="59.373097221496174" lon="7.3448777771973095" id="-66327">
		<tag k="historic" v="shieling" />
		<tag k="name" v="Blomstøylrjodet" />
		<tag k="place" v="isolated_dwelling" />
		<tag k="ssr:stedsnr" v="881887" />
	</node>
	<node lat="59.354594441984034" lon="7.345988894775397" id="-66328">
		<tag k="name" v="Myri" />
		<tag k="place" v="farm" />
		<tag k="ssr:stedsnr" v="881889" />
	</node>
	<node lat="59.57894166318758" lon="7.3895388806597975" id="-66341">
		<tag k="name" v="Hovden hyttegrend" />
		<tag k="place" v="hamlet" />
		<tag k="ssr:stedsnr" v="690398" />
	</node>
	<node lat="59.48974444304168" lon="7.428794444960797" id="-66351">
		<tag k="name" v="Persbu" />
		<tag k="place" v="isolated_dwelling" />
		<tag k="ssr:stedsnr" v="699569" />
	</node>
	<node lat="59.49711944191849" lon="7.43961666200579" id="-66352">
		<tag k="name" v="Øygarden" />
		<tag k="place" v="locality" />
		<tag k="ssr:stedsnr" v="699575" />
	</node>
	<node lat="59.354288893321026" lon="7.341863890181395" id="-66520">
		<tag k="name" v="Jåro" />
		<tag k="place" v="farm" />
		<tag k="ssr:stedsnr" v="726480" />
	</node>
	<node lat="59.34949999596057" lon="7.228083330256376" id="-66525">
		<tag k="historic" v="shieling" />
		<tag k="name" v="Hisbekk" />
		<tag k="place" v="isolated_dwelling" />
		<tag k="ssr:stedsnr" v="730268" />
	</node>
	<node lat="59.30155926577651" lon="7.30939256587237" id="-66541">
		<tag k="name" v="Lislehisdal" />
		<tag k="place" v="locality" />
		<tag k="ssr:stedsnr" v="731419" />
	</node>
	<node lat="59.640158337056285" lon="7.454138888950058" id="-66546">
		<tag k="name" v="Bjåen fjellstove" />
		<tag k="ssr:stedsnr" v="731521" />
		<tag k="tourism" v="guest_house" />
	</node>
	<node lat="59.18829444824149" lon="6.877022219765646" id="-66547">
		<tag k="fixme" v="consider tourism=alpine_hut or tourism=chalet" />
		<tag k="name" v="Litle Aurådal" />
		<tag k="old_name" v="Litle Aurådalen turisthytte;Litle Aurådalen" />
		<tag k="ssr:stedsnr" v="748404" />
		<tag k="tourism" v="wilderness_hut" />
	</node>
	<node lat="59.35072777418946" lon="7.344316667871367" id="-66572">
		<tag k="name" v="Torsbu" />
		<tag k="place" v="farm" />
		<tag k="ssr:stedsnr" v="759908" />
	</node>
	<node lat="59.3543361141788" lon="7.345063883148875" id="-66732">
		<tag k="name" v="Jåro" />
		<tag k="place" v="farm" />
		<tag k="ssr:stedsnr" v="791253" />
	</node>
	<node lat="59.38700555827242" lon="7.275552780627331" id="-66750">
		<tag k="historic" v="shieling" />
		<tag k="name" v="Fosstøyl" />
		<tag k="place" v="isolated_dwelling" />
		<tag k="ssr:stedsnr" v="791332" />
	</node>
	<node lat="59.28949999852927" lon="7.400330551673496" id="-66757">
		<tag k="name" v="Bjørnarå" />
		<tag k="place" v="farm" />
		<tag k="ssr:stedsnr" v="791701" />
	</node>
	<node lat="59.30706599877232" lon="7.4270640278846045" id="-66763">
		<tag k="alt_name" v="Gaukestone" />
		<tag k="name" v="Gauketoni" />
		<tag k="place" v="locality" />
		<tag k="ssr:stedsnr" v="791730" />
	</node>
	<node lat="59.43004444701474" lon="7.403336111071447" id="-66874">
		<tag k="name" v="Hagastøyl" />
		<tag k="ssr:stedsnr" v="902834" />
		<tag k="tourism" v="camp_site" />
	</node>
	<node lat="59.40019082635984" lon="7.378960744391129" id="-66985">
		<tag k="historic" v="shieling" />
		<tag k="name" v="Steibuskardet" />
		<tag k="place" v="isolated_dwelling" />
		<tag k="ssr:stedsnr" v="820524" />
	</node>
	<node lat="59.32775555759137" lon="7.371247226708459" id="-66993">
		<tag k="historic" v="shieling" />
		<tag k="name" v="Slipestellet" />
		<tag k="place" v="isolated_dwelling" />
		<tag k="ssr:stedsnr" v="820816" />
	</node>
	<node lat="59.34553333366597" lon="7.307638889684214" id="-67140">
		<tag k="alt_name" v="Nygård" />
		<tag k="name" v="Nygard" />
		<tag k="place" v="farm" />
		<tag k="ssr:stedsnr" v="912269" />
	</node>
	<node lat="59.34125425619845" lon="7.216270310946282" id="-67141">
		<tag k="name" v="Trogumstøylen" />
		<tag k="place" v="locality" />
		<tag k="ssr:stedsnr" v="912288" />
	</node>
	<node lat="59.37348094584617" lon="7.338405080632804" id="-67144">
		<tag k="alt_name" v="Leirfadd" />
		<tag k="name" v="Leirfall" />
		<tag k="place" v="locality" />
		<tag k="ssr:stedsnr" v="912379" />
	</node>
	<node lat="59.495208334753926" lon="7.189880563328688" id="-67152">
		<tag k="historic" v="shieling" />
		<tag k="name" v="Listøyl" />
		<tag k="place" v="isolated_dwelling" />
		<tag k="ssr:stedsnr" v="913129" />
	</node>
	<node lat="59.318900003816054" lon="7.327536113590719" id="-67155">
		<tag k="name" v="Moen" />
		<tag k="place" v="farm" />
		<tag k="ssr:stedsnr" v="913294" />
	</node>
	<node lat="59.3105972258535" lon="7.057697228759668" id="-67156">
		<tag k="historic" v="shieling" />
		<tag k="name" v="Flatstøyl" />
		<tag k="place" v="isolated_dwelling" />
		<tag k="ssr:stedsnr" v="913301" />
	</node>
	<node lat="59.45633055755336" lon="7.39135000382934" id="-67159">
		<tag k="name" v="Åsheim" />
		<tag k="place" v="farm" />
		<tag k="ssr:stedsnr" v="852384" />
	</node>
	<node lat="59.45089166680683" lon="7.414374991304345" id="-67160">
		<tag k="name" v="Nordheim" />
		<tag k="place" v="farm" />
		<tag k="ssr:stedsnr" v="852391" />
	</node>
	<node lat="59.32067500171378" lon="7.415441659550314" id="-67162">
		<tag k="historic" v="shieling" />
		<tag k="name" v="Strond" />
		<tag k="old_name" v="Strand" />
		<tag k="place" v="isolated_dwelling" />
		<tag k="ssr:stedsnr" v="852522" />
	</node>
	<node lat="59.44087499628682" lon="7.485613882819635" id="-67163">
		<tag k="historic" v="shieling" />
		<tag k="name" v="Rjodet" />
		<tag k="place" v="isolated_dwelling" />
		<tag k="ssr:stedsnr" v="852403" />
	</node>
	<node lat="59.54343392380616" lon="7.366682555834754" id="-67200">
		<tag k="name" v="Hartholt" />
		<tag k="place" v="isolated_dwelling" />
		<tag k="ssr:stedsnr" v="873363" />
	</node>
	<node lat="59.350522224971165" lon="7.278197220470776" id="-67210">
		<tag k="name" v="Nordtveiti" />
		<tag k="place" v="farm" />
		<tag k="ssr:stedsnr" v="881913" />
	</node>
	<node lat="59.52893369269689" lon="7.087788469272666" id="-67330">
		<tag k="name" v="Odden" />
		<tag k="place" v="isolated_dwelling" />
		<tag k="ssr:stedsnr" v="913241" />
	</node>
	<node lat="59.53083663637074" lon="7.340777977289919" id="-67331">
		<tag k="alt_name" v="Roterjeet;Roterostøylen" />
		<tag k="historic" v="shieling" />
		<tag k="loc_name" v="Roterjodet" />
		<tag k="name" v="Roteroi" />
		<tag k="place" v="isolated_dwelling" />
		<tag k="ssr:stedsnr" v="913245" />
	</node>
	<node lat="59.386758335338946" lon="7.2820083345671645" id="-67336">
		<tag k="historic" v="shieling" />
		<tag k="name" v="Råsi" />
		<tag k="place" v="isolated_dwelling" />
		<tag k="ssr:stedsnr" v="913342" />
	</node>
	<node lat="59.30191944194135" lon="7.430683328551824" id="-67343">
		<tag k="historic" v="shieling" />
		<tag k="name" v="Hagen" />
		<tag k="place" v="isolated_dwelling" />
		<tag k="ssr:stedsnr" v="932239" />
	</node>
	<node lat="59.397389143043945" lon="6.972980584662937" id="-67347">
		<tag k="alt_name" v="Vassdalstjønn" />
		<tag k="fixme" v="consider tourism=alpine_hut or tourism=chalet" />
		<tag k="name" v="Vassdalstjørn" />
		<tag k="old_name" v="Vassdalstjønn turisthytte" />
		<tag k="ssr:stedsnr" v="938838" />
		<tag k="tourism" v="wilderness_hut" />
	</node>
	<node lat="59.32234999584653" lon="7.3538500064549615" id="-67362">
		<tag k="name" v="Tykkholt" />
		<tag k="place" v="isolated_dwelling" />
		<tag k="ssr:stedsnr" v="942826" />
	</node>
	<node lat="59.31716666541423" lon="7.366688887570423" id="-67365">
		<tag k="historic" v="shieling" />
		<tag k="name" v="Øybø" />
		<tag k="place" v="isolated_dwelling" />
		<tag k="ssr:stedsnr" v="942841" />
	</node>
	<node lat="59.579437325437624" lon="7.389299776589583" id="-67508">
		<tag k="fixme" v="consider tourism=alpine_hut or tourism=chalet" />
		<tag k="name" v="Hovden Fjellstoge" />
		<tag k="ssr:stedsnr" v="989094" />
		<tag k="tourism" v="wilderness_hut" />
	</node>
	<node lat="59.352780557170824" lon="7.270552781358356" id="-67512">
		<tag k="historic" v="shieling" />
		<tag k="name" v="Skard" />
		<tag k="place" v="isolated_dwelling" />
		<tag k="ssr:stedsnr" v="2256" />
	</node>
	<node lat="59.31323055269721" lon="7.364697220001056" id="-67514">
		<tag k="name" v="Optestøyl" />
		<tag k="old_name" v="Optestøl" />
		<tag k="place" v="farm" />
		<tag k="ssr:stedsnr" v="2540" />
	</node>
	<node lat="59.328847224689376" lon="7.365125003176815" id="-67516">
		<tag k="historic" v="shieling" />
		<tag k="name" v="Borkebu" />
		<tag k="old_name" v="Borkebui" />
		<tag k="place" v="isolated_dwelling" />
		<tag k="ssr:stedsnr" v="2550" />
	</node>
	<node lat="59.32846476535539" lon="7.415529062725844" id="-67517">
		<tag k="name" v="Troddedalen" />
		<tag k="place" v="locality" />
		<tag k="ssr:stedsnr" v="2552" />
	</node>
	<node lat="59.432947226242334" lon="7.392897221247872" id="-67536">
		<tag k="name" v="Hoslemo" />
		<tag k="place" v="farm" />
		<tag k="ssr:stedsnr" v="2438" />
	</node>
	<node lat="59.30488333162407" lon="7.1655250059923326" id="-67539">
		<tag k="name" v="Bekkimillom" />
		<tag k="place" v="isolated_dwelling" />
		<tag k="ssr:stedsnr" v="2464" />
	</node>
	<node lat="59.394905552698575" lon="7.3971805627441" id="-67543">
		<tag k="historic" v="shieling" />
		<tag k="name" v="Dvolo" />
		<tag k="place" v="isolated_dwelling" />
		<tag k="ssr:stedsnr" v="2637" />
	</node>
	<node lat="59.35059444547529" lon="7.27798332611099" id="-67555">
		<tag k="name" v="Nordtveiti" />
		<tag k="place" v="farm" />
		<tag k="ssr:stedsnr" v="27697" />
	</node>
	<node lat="59.437194443844795" lon="7.372397225983975" id="-67557">
		<tag k="historic" v="shieling" />
		<tag k="name" v="Lognestøyl" />
		<tag k="place" v="isolated_dwelling" />
		<tag k="ssr:stedsnr" v="31583" />
	</node>
	<node lat="59.4915027785455" lon="7.193341668089227" id="-67561">
		<tag k="name" v="Heggli" />
		<tag k="place" v="locality" />
		<tag k="ssr:stedsnr" v="31817" />
	</node>
	<node lat="59.327744445625974" lon="7.366002772134894" id="-67562">
		<tag k="historic" v="shieling" />
		<tag k="name" v="Myrstøyl" />
		<tag k="place" v="isolated_dwelling" />
		<tag k="ssr:stedsnr" v="31825" />
	</node>
	<node lat="59.565122220248576" lon="7.345969452324904" id="-67571">
		<tag k="name" v="Dyregrendi" />
		<tag k="place" v="hamlet" />
		<tag k="ssr:stedsnr" v="31666" />
	</node>
	<node lat="59.637272219499714" lon="7.464738884917879" id="-67572">
		<tag k="historic" v="shieling" />
		<tag k="name" v="Buskarstøylen" />
		<tag k="place" v="isolated_dwelling" />
		<tag k="ssr:stedsnr" v="31684" />
	</node>
	<node lat="59.30146666582244" lon="7.405988896218468" id="-67578">
		<tag k="historic" v="shieling" />
		<tag k="name" v="Nedre Løken" />
		<tag k="place" v="isolated_dwelling" />
		<tag k="ssr:stedsnr" v="31967" />
	</node>
	<node lat="59.35621156136471" lon="7.382828680938442" id="-67707">
		<tag k="loc_name" v="Nordstog" />
		<tag k="name" v="Stavenes" />
		<tag k="place" v="farm" />
		<tag k="ssr:stedsnr" v="52962" />
	</node>
	<node lat="59.306573244983625" lon="7.2009197029452" id="-67794">
		<tag k="name" v="Sleskred" />
		<tag k="place" v="locality" />
		<tag k="ssr:stedsnr" v="63471" />
	</node>
	<node lat="59.59705833135098" lon="7.224133328404754" id="-67800">
		<tag k="historic" v="shieling" />
		<tag k="name" v="Væringsstølen" />
		<tag k="place" v="isolated_dwelling" />
		<tag k="ssr:stedsnr" v="63331" />
	</node>
	<node lat="59.35143333628997" lon="7.289233328119317" id="-67808">
		<tag k="name" v="Skarg" />
		<tag k="place" v="farm" />
		<tag k="ssr:stedsnr" v="63266" />
	</node>
	<node lat="59.35084999651465" lon="7.3476333390234405" id="-67814">
		<tag k="name" v="Gjuvi" />
		<tag k="place" v="farm" />
		<tag k="ssr:stedsnr" v="63593" />
	</node>
	<node lat="59.566675000156245" lon="7.359138887789025" id="-67822">
		<tag k="name" v="Hovden Resort" />
		<tag k="old_name" v="Quality Hovden Høyfjellshotell" />
		<tag k="ssr:stedsnr" v="64689" />
		<tag k="tourism" v="hotel" />
	</node>
	<node lat="59.4745111082998" lon="7.416486113412271" id="-67826">
		<tag k="alt_name" v="Steinsland hyttefelt" />
		<tag k="name" v="Steinsland" />
		<tag k="place" v="neighbourhood" />
		<tag k="ssr:stedsnr" v="84164" />
	</node>
	<node lat="59.57597778097326" lon="7.263897223591373" id="-67827">
		<tag k="name" v="Osstøyl" />
		<tag k="place" v="locality" />
		<tag k="ssr:stedsnr" v="88338" />
	</node>
	<node lat="59.3489916655592" lon="7.33772500638519" id="-67845">
		<tag k="name" v="Berget" />
		<tag k="place" v="farm" />
		<tag k="ssr:stedsnr" v="92892" />
	</node>
	<node lat="59.35430555820617" lon="7.341177777248964" id="-68055">
		<tag k="name" v="Jåro" />
		<tag k="place" v="farm" />
		<tag k="ssr:stedsnr" v="119495" />
	</node>
	<node lat="59.367144352208825" lon="7.3256819308332854" id="-68060">
		<tag k="historic" v="shieling" />
		<tag k="loc_name" v="Nyvelkinn" />
		<tag k="name" v="Nyveltjønn" />
		<tag k="place" v="isolated_dwelling" />
		<tag k="ssr:stedsnr" v="123391" />
	</node>
	<node lat="59.337002773612106" lon="7.203825007202785" id="-68062">
		<tag k="historic" v="shieling" />
		<tag k="name" v="Furestøyl" />
		<tag k="place" v="isolated_dwelling" />
		<tag k="ssr:stedsnr" v="123293" />
	</node>
	<node lat="59.36045000215018" lon="7.426341670904418" id="-68063">
		<tag k="alt_name" v="Reidalstølen;Reindalsstøylen" />
		<tag k="historic" v="shieling" />
		<tag k="name" v="Reidalsstøylen" />
		<tag k="place" v="isolated_dwelling" />
		<tag k="ssr:stedsnr" v="123638" />
	</node>
	<node lat="59.49516388747133" lon="7.386527786013594" id="-68071">
		<tag k="alt_name" v="Ørnefjødd" />
		<tag k="name" v="Ørnefjell" />
		<tag k="place" v="farm" />
		<tag k="ssr:stedsnr" v="123537" />
	</node>
	<node lat="59.41244722414542" lon="7.4336416729163135" id="-68077">
		<tag k="name" v="Glidbjørg" />
		<tag k="place" v="farm" />
		<tag k="ssr:stedsnr" v="124377" />
	</node>
	<node lat="59.44327674404323" lon="7.508588322317825" id="-68088">
		<tag k="fixme" v="consider tourism=alpine_hut or tourism=chalet" />
		<tag k="name" v="Berdalsbu" />
		<tag k="old_name" v="Berdalsbu" />
		<tag k="ssr:stedsnr" v="144141" />
		<tag k="tourism" v="wilderness_hut" />
	</node>
	<node lat="59.35688055713355" lon="7.360049994271145" id="-68092">
		<tag k="name" v="Sarv" />
		<tag k="place" v="neighbourhood" />
		<tag k="ssr:stedsnr" v="148645" />
	</node>
	<node lat="59.39307500194329" lon="7.380105561856989" id="-68104">
		<tag k="historic" v="shieling" />
		<tag k="name" v="Stokkestøyl" />
		<tag k="place" v="isolated_dwelling" />
		<tag k="ssr:stedsnr" v="152543" />
	</node>
	<node lat="59.366661107614064" lon="7.318775008412565" id="-68109">
		<tag k="historic" v="shieling" />
		<tag k="name" v="Lislestøyl" />
		<tag k="place" v="isolated_dwelling" />
		<tag k="ssr:stedsnr" v="152896" />
	</node>
	<node lat="59.342136114496405" lon="7.410888881497681" id="-68116">
		<tag k="name" v="Dalebui" />
		<tag k="place" v="locality" />
		<tag k="ssr:stedsnr" v="152993" />
	</node>
	<node lat="59.317180016316364" lon="7.095982245030165" id="-68355">
		<tag k="name" v="Dysje" />
		<tag k="place" v="isolated_dwelling" />
		<tag k="ssr:stedsnr" v="184275" />
	</node>
	<node lat="59.465736108579826" lon="7.413308335408904" id="-68359">
		<tag k="name" v="Steinsland" />
		<tag k="place" v="farm" />
		<tag k="ssr:stedsnr" v="184396" />
	</node>
	<node lat="59.320350003792285" lon="7.354686106871672" id="-68369">
		<tag k="name" v="Hagen" />
		<tag k="place" v="farm" />
		<tag k="ssr:stedsnr" v="184541" />
	</node>
	<node lat="59.238811109590245" lon="7.0396361194266355" id="-68385">
		<tag k="fixme" v="consider tourism=alpine_hut or tourism=chalet" />
		<tag k="name" v="Kringlevatn" />
		<tag k="ssr:stedsnr" v="209134" />
		<tag k="tourism" v="wilderness_hut" />
	</node>
	<node lat="59.3240194440665" lon="7.353202786391819" id="-68389">
		<tag k="name" v="Strandestøyl" />
		<tag k="place" v="isolated_dwelling" />
		<tag k="ssr:stedsnr" v="213853" />
	</node>
	<node lat="59.35947777349523" lon="7.297858331802684" id="-68415">
		<tag k="historic" v="shieling" />
		<tag k="name" v="Listøyl" />
		<tag k="place" v="isolated_dwelling" />
		<tag k="ssr:stedsnr" v="214921" />
	</node>
	<node lat="59.331286111042544" lon="7.422116663131531" id="-68418">
		<tag k="name" v="Fitjan" />
		<tag k="place" v="isolated_dwelling" />
		<tag k="ssr:stedsnr" v="266138" />
	</node>
	<node lat="59.45957777372222" lon="7.39186666786244" id="-68419">
		<tag k="alt_name" v="Haugen hyttefelt" />
		<tag k="name" v="Haugen" />
		<tag k="place" v="neighbourhood" />
		<tag k="ssr:stedsnr" v="266145" />
	</node>
	<node lat="59.34084693520191" lon="7.20902454520964" id="-68687">
		<tag k="name" v="Myrstøyl" />
		<tag k="place" v="isolated_dwelling" />
		<tag k="ssr:stedsnr" v="305273" />
	</node>
	<node lat="59.36196666272821" lon="7.408708332715117" id="-68691">
		<tag k="alt_name" v="Solavodden" />
		<tag k="historic" v="shieling" />
		<tag k="name" v="Solavollen" />
		<tag k="place" v="isolated_dwelling" />
		<tag k="ssr:stedsnr" v="305643" />
	</node>
	<node lat="59.54731388511083" lon="7.366505552847809" id="-68715">
		<tag k="fixme" v="consider tourism=alpine_hut or tourism=chalet" />
		<tag k="name" v="Hartevassbu" />
		<tag k="ssr:stedsnr" v="307743" />
		<tag k="tourism" v="wilderness_hut" />
	</node>
	<node lat="59.29289129927791" lon="6.95855331252476" id="-68721">
		<tag k="name" v="Gyvasshytta" />
		<tag k="place" v="isolated_dwelling" />
		<tag k="ssr:stedsnr" v="330442" />
	</node>
	<node lat="59.453336111861354" lon="7.4453333264281305" id="-68725">
		<tag k="historic" v="shieling" />
		<tag k="name" v="Listøyl" />
		<tag k="place" v="isolated_dwelling" />
		<tag k="ssr:stedsnr" v="335574" />
	</node>
	<node lat="59.55796389026216" lon="7.355905555249315" id="-68729">
		<tag k="building" v="civic" />
		<tag k="name" v="Raudekrossen" />
		<tag k="ssr:stedsnr" v="335675" />
	</node>
	<node lat="59.351094448837635" lon="7.345091672046635" id="-68746">
		<tag k="name" v="Kultrane" />
		<tag k="place" v="farm" />
		<tag k="ssr:stedsnr" v="335948" />
	</node>
	<node lat="59.35592149503982" lon="7.383875754672309" id="-68797">
		<tag k="loc_name" v="Teigen" />
		<tag k="name" v="Stavenes" />
		<tag k="place" v="farm" />
		<tag k="ssr:stedsnr" v="355031" />
	</node>
	<node lat="59.355308172681376" lon="7.385503090656965" id="-68800">
		<tag k="loc_name" v="Utistog" />
		<tag k="name" v="Stavenes" />
		<tag k="place" v="farm" />
		<tag k="ssr:stedsnr" v="355037" />
	</node>
	<node lat="59.35122500085536" lon="7.339261103260382" id="-68968">
		<tag k="name" v="Byklum" />
		<tag k="place" v="farm" />
		<tag k="ssr:stedsnr" v="366253" />
	</node>
	<node lat="59.328108335580765" lon="7.050099993299172" id="-68971">
		<tag k="historic" v="shieling" />
		<tag k="name" v="Brattelistøyl" />
		<tag k="place" v="isolated_dwelling" />
		<tag k="ssr:stedsnr" v="366276" />
	</node>
	<node lat="59.338100002988504" lon="7.311425003213251" id="-68973">
		<tag k="name" v="Solli" />
		<tag k="place" v="farm" />
		<tag k="ssr:stedsnr" v="366286" />
	</node>
	<node lat="59.40827500339581" lon="7.415949994866989" id="-68983">
		<tag k="alt_name" v="Smylemoen" />
		<tag k="name" v="Moen" />
		<tag k="place" v="farm" />
		<tag k="ssr:stedsnr" v="366621" />
	</node>
	<node lat="59.35521111473213" lon="7.409377777642382" id="-68986">
		<tag k="historic" v="shieling" />
		<tag k="name" v="Rota" />
		<tag k="place" v="isolated_dwelling" />
		<tag k="ssr:stedsnr" v="366582" />
	</node>
	<node lat="59.31767221906029" lon="7.359066660858003" id="-68988">
		<tag k="name" v="Grasbrokke" />
		<tag k="place" v="farm" />
		<tag k="ssr:stedsnr" v="366539" />
	</node>
	<node lat="59.54749166733261" lon="7.311763893071373" id="-68991">
		<tag k="alt_name" v="Brattlistøylen" />
		<tag k="historic" v="shieling" />
		<tag k="name" v="Brattlistølen" />
		<tag k="place" v="isolated_dwelling" />
		<tag k="ssr:stedsnr" v="367227" />
	</node>
	<node lat="59.57516076970154" lon="7.3605717007697935" id="-68994">
		<tag k="historic" v="shieling" />
		<tag k="name" v="Lundebuteigen" />
		<tag k="place" v="isolated_dwelling" />
		<tag k="ssr:stedsnr" v="367675" />
	</node>
	<node lat="59.34727777453363" lon="6.853949992781677" id="-68999">
		<tag k="name" v="Beinleihytta" />
		<tag k="place" v="isolated_dwelling" />
		<tag k="ssr:stedsnr" v="391441" />
	</node>
	<node lat="59.63980833233272" lon="7.42846944216664" id="-69012">
		<tag k="fixme" v="consider tourism=alpine_hut or tourism=chalet" />
		<tag k="name" v="Bjåen turisthytte" />
		<tag k="ssr:stedsnr" v="395531" />
		<tag k="tourism" v="wilderness_hut" />
	</node>
	<node lat="59.38835000433439" lon="7.471605560809818" id="-69239">
		<tag k="name" v="Glidbjørg" />
		<tag k="place" v="farm" />
		<tag k="ssr:stedsnr" v="424022" />
	</node>
	<node lat="59.37057453955024" lon="7.414651542397591" id="-69252">
		<tag k="name" v="Fitjan" />
		<tag k="old_name" v="Fitjane" />
		<tag k="place" v="isolated_dwelling" />
		<tag k="ssr:stedsnr" v="427603" />
	</node>
	<node lat="59.35538055980748" lon="7.35236388797732" id="-69279">
		<tag k="name" v="Jåro" />
		<tag k="place" v="farm" />
		<tag k="ssr:stedsnr" v="483499" />
	</node>
	<node lat="59.48427222413315" lon="7.421302785021445" id="-69284">
		<tag k="name" v="Nylund" />
		<tag k="place" v="farm" />
		<tag k="ssr:stedsnr" v="487535" />
	</node>
	<node lat="59.314776104422485" lon="7.361580717468425" id="-69286">
		<tag k="name" v="Svingen" />
		<tag k="place" v="farm" />
		<tag k="ssr:stedsnr" v="487558" />
	</node>
	<node lat="59.359341666196194" lon="7.361455562846253" id="-69288">
		<tag k="name" v="Berg" />
		<tag k="place" v="farm" />
		<tag k="ssr:stedsnr" v="487642" />
	</node>
	<node lat="59.374789796884265" lon="7.381105631876344" id="-69290">
		<tag k="name" v="Rota" />
		<tag k="place" v="isolated_dwelling" />
		<tag k="ssr:stedsnr" v="487651" />
	</node>
	<node lat="59.348988888360054" lon="7.3368388875398" id="-69293">
		<tag k="name" v="Mosdøl" />
		<tag k="place" v="farm" />
		<tag k="ssr:stedsnr" v="487257" />
	</node>
	<node lat="59.574194441469125" lon="7.290633329574939" id="-69300">
		<tag k="alt_name" v="Midtbø" />
		<tag k="name" v="Midbø" />
		<tag k="place" v="farm" />
		<tag k="ssr:stedsnr" v="488255" />
	</node>
	<node lat="59.30399166938715" lon="7.28029999534329" id="-69306">
		<tag k="name" v="Hisdal" />
		<tag k="place" v="farm" />
		<tag k="ssr:stedsnr" v="488426" />
	</node>
	<node lat="59.60833055875451" lon="7.416841658804455" id="-69309">
		<tag k="name" v="Fjellbø hyttefelt" />
		<tag k="place" v="neighbourhood" />
		<tag k="ssr:stedsnr" v="488670" />
	</node>
	<node lat="59.571838890469614" lon="7.35560277891596" id="-69310">
		<tag k="historic" v="shieling" />
		<tag k="name" v="Finnstøyl" />
		<tag k="old_name" v="Finnstøl" />
		<tag k="place" v="isolated_dwelling" />
		<tag k="ssr:stedsnr" v="488678" />
	</node>
	<node lat="59.6097972179339" lon="7.417699998775943" id="-69329">
		<tag k="historic" v="shieling" />
		<tag k="name" v="Lislefjødd" />
		<tag k="place" v="isolated_dwelling" />
		<tag k="ssr:stedsnr" v="517635" />
	</node>
	<node lat="59.61169721916187" lon="7.409799998805641" id="-69331">
		<tag k="historic" v="shieling" />
		<tag k="name" v="Nørdre Løbakken" />
		<tag k="place" v="isolated_dwelling" />
		<tag k="ssr:stedsnr" v="517646" />
	</node>
	<node lat="59.35747500374384" lon="7.355958334376108" id="-69338">
		<tag k="name" v="Gamlemolii" />
		<tag k="place" v="neighbourhood" />
		<tag k="ssr:stedsnr" v="517918" />
	</node>
	<node lat="59.32165000323807" lon="7.334483334308169" id="-69552">
		<tag k="name" v="Skardberg" />
		<tag k="place" v="farm" />
		<tag k="ssr:stedsnr" v="548325" />
	</node>
	<node lat="59.38967357807226" lon="7.279426482543063" id="-69555">
		<tag k="historic" v="shieling" />
		<tag k="name" v="Blomstøyl" />
		<tag k="place" v="isolated_dwelling" />
		<tag k="ssr:stedsnr" v="548353" />
	</node>
	<node lat="59.323650001112256" lon="7.355341660753806" id="-69558">
		<tag k="name" v="Støylan" />
		<tag k="old_name" v="Stølane" />
		<tag k="place" v="farm" />
		<tag k="ssr:stedsnr" v="548543" />
	</node>
	<node lat="59.493516663474864" lon="7.418019442568181" id="-69564">
		<tag k="fixme" v="multiple name tags, choose one and add the other to alt_name; consider tourism=alpine_hut or tourism=chalet" />
		<tag k="name" v="Nordli;Nordli fjellstove" />
		<tag k="ssr:stedsnr" v="548496" />
		<tag k="tourism" v="wilderness_hut" />
	</node>
	<node lat="59.351219441881035" lon="7.281700002240849" id="-69572">
		<tag k="alt_name" v="Tveiten" />
		<tag k="loc_name" v="Heimtveiti" />
		<tag k="name" v="Tveiti" />
		<tag k="place" v="farm" />
		<tag k="ssr:stedsnr" v="548251" />
	</node>
	<node lat="59.447149999064024" lon="7.432488891775724" id="-69574">
		<tag k="name" v="Haugen" />
		<tag k="place" v="farm" />
		<tag k="ssr:stedsnr" v="548414" />
	</node>
	<node lat="59.64659506250777" lon="7.258548298139785" id="-69578">
		<tag k="fixme" v="consider tourism=alpine_hut or tourism=chalet" />
		<tag k="name" v="Sloaros" />
		<tag k="ssr:stedsnr" v="549432" />
		<tag k="tourism" v="wilderness_hut" />
	</node>
	<node lat="59.45233144899258" lon="7.398399332532795" id="-69581">
		<tag k="name" v="Flæmoen" />
		<tag k="old_name" v="Flæmoen hyttefelt" />
		<tag k="place" v="isolated_dwelling" />
		<tag k="ssr:stedsnr" v="569145" />
	</node>
	<node lat="59.35143333682714" lon="7.289236107159139" id="-69588">
		<tag k="name" v="Ryningen" />
		<tag k="place" v="farm" />
		<tag k="ssr:stedsnr" v="572838" />
	</node>
	<node lat="59.46232499955239" lon="7.020213881039482" id="-69589">
		<tag k="name" v="Grjotdokki" />
		<tag k="place" v="locality" />
		<tag k="ssr:stedsnr" v="573649" />
	</node>
	<node lat="59.35017222218733" lon="7.340741667361185" id="-69607">
		<tag k="name" v="Vodden" />
		<tag k="place" v="farm" />
		<tag k="ssr:stedsnr" v="577925" />
	</node>
	<node lat="59.35689444120978" lon="7.361711110027757" id="-69608">
		<tag k="name" v="Sarv" />
		<tag k="place" v="neighbourhood" />
		<tag k="ssr:stedsnr" v="577933" />
	</node>
	<node lat="59.34795277993926" lon="7.288250003501878" id="-69855">
		<tag k="name" v="Lyngtveit" />
		<tag k="place" v="farm" />
		<tag k="ssr:stedsnr" v="608238" />
	</node>
	<node lat="59.34647500065418" lon="7.252933326221906" id="-69856">
		<tag k="name" v="Nesland" />
		<tag k="place" v="farm" />
		<tag k="ssr:stedsnr" v="608240" />
	</node>
	<node lat="59.37520555143306" lon="7.284052771845413" id="-69880">
		<tag k="historic" v="shieling" />
		<tag k="name" v="Ljoråsen" />
		<tag k="place" v="isolated_dwelling" />
		<tag k="ssr:stedsnr" v="609365" />
	</node>
	<node lat="59.44793888889883" lon="7.4227333339543975" id="-69883">
		<tag k="alt_name" v="Hagamo" />
		<tag k="name" v="Hagemo" />
		<tag k="place" v="farm" />
		<tag k="ssr:stedsnr" v="609383" />
	</node>
	<node lat="59.311850000614214" lon="7.113825000202008" id="-69887">
		<tag k="historic" v="shieling" />
		<tag k="name" v="Sandbekkstøylen" />
		<tag k="place" v="isolated_dwelling" />
		<tag k="ssr:stedsnr" v="609286" />
	</node>
	<node lat="59.34334855225979" lon="7.413457240086588" id="-69889">
		<tag k="name" v="Fossen" />
		<tag k="place" v="locality" />
		<tag k="ssr:stedsnr" v="609529" />
	</node>
	<node lat="59.50651740179479" lon="7.167506184964824" id="-69893">
		<tag k="name" v="Ormsaosen" />
		<tag k="place" v="isolated_dwelling" />
		<tag k="ssr:stedsnr" v="610396" />
	</node>
	<node lat="59.56187222287565" lon="7.35343332814383" id="-69894">
		<tag k="name" v="Hovdehytta Resort" />
		<tag k="place" v="isolated_dwelling" />
		<tag k="ssr:stedsnr" v="610765" />
	</node>
	<node lat="59.37606797001973" lon="7.328501687932029" id="-69898">
		<tag k="name" v="Øvstebu" />
		<tag k="place" v="locality" />
		<tag k="ssr:stedsnr" v="633857" />
	</node>
	<node lat="59.38534167074418" lon="7.386597227146055" id="-69910">
		<tag k="name" v="Libu" />
		<tag k="place" v="isolated_dwelling" />
		<tag k="ssr:stedsnr" v="638460" />
	</node>
	<node lat="59.310641662397984" lon="7.3262888867129305" id="-69916">
		<tag k="historic" v="shieling" />
		<tag k="name" v="Ytre Støylen" />
		<tag k="place" v="isolated_dwelling" />
		<tag k="ssr:stedsnr" v="638856" />
	</node>
	<node lat="59.63979444282558" lon="7.439413881885476" id="-69918">
		<tag k="fixme" v="consider tourism=alpine_hut or tourism=chalet" />
		<tag k="name" v="Bjåen Turistheim" />
		<tag k="ssr:stedsnr" v="638672" />
		<tag k="tourism" v="wilderness_hut" />
	</node>
	<node lat="59.33591111135189" lon="7.302461115495519" id="-69923">
		<tag k="historic" v="shieling" />
		<tag k="name" v="Husfjøddstøylen" />
		<tag k="place" v="isolated_dwelling" />
		<tag k="ssr:stedsnr" v="638902" />
	</node>
	<node lat="59.57571944345763" lon="7.270202782184234" id="-70113">
		<tag k="historic" v="shieling" />
		<tag k="name" v="Nystøyl" />
		<tag k="place" v="isolated_dwelling" />
		<tag k="ssr:stedsnr" v="699550" />
	</node>
	<node lat="59.39334646239397" lon="7.400189799079488" id="-70115">
		<tag k="historic" v="shieling" />
		<tag k="name" v="Nybu" />
		<tag k="place" v="isolated_dwelling" />
		<tag k="ssr:stedsnr" v="699492" />
	</node>
	<node lat="59.31400555471109" lon="7.326191660006197" id="-70119">
		<tag k="name" v="Olavshus" />
		<tag k="place" v="farm" />
		<tag k="ssr:stedsnr" v="699844" />
	</node>
	<node lat="59.377577773554876" lon="7.395686119158657" id="-70123">
		<tag k="name" v="Søylebakkteigen" />
		<tag k="place" v="locality" />
		<tag k="ssr:stedsnr" v="699498" />
	</node>
	<node lat="59.640319448915264" lon="7.441016665962075" id="-70135">
		<tag k="fixme" v="consider tourism=alpine_hut or tourism=chalet" />
		<tag k="name" v="Breivatn høgfjellstove" />
		<tag k="ssr:stedsnr" v="699649" />
		<tag k="tourism" v="wilderness_hut" />
	</node>
	<node lat="59.313000375234914" lon="7.059783711510365" id="-70382">
		<tag k="name" v="Bratteli" />
		<tag k="place" v="farm" />
		<tag k="ssr:stedsnr" v="730313" />
	</node>
	<node lat="59.44497222311531" lon="7.46387778173552" id="-70392">
		<tag k="historic" v="shieling" />
		<tag k="name" v="Hovden" />
		<tag k="place" v="isolated_dwelling" />
		<tag k="ssr:stedsnr" v="731371" />
	</node>
	<node lat="59.50365555449864" lon="7.428725003712582" id="-70397">
		<tag k="name" v="Maurli" />
		<tag k="place" v="locality" />
		<tag k="ssr:stedsnr" v="731589" />
	</node>
	<node lat="59.32134166341935" lon="7.333552784519511" id="-70414">
		<tag k="name" v="Kroni" />
		<tag k="place" v="farm" />
		<tag k="ssr:stedsnr" v="759821" />
	</node>
	<node lat="59.32107500308128" lon="7.354447218448435" id="-70415">
		<tag k="name" v="Strondi" />
		<tag k="place" v="farm" />
		<tag k="ssr:stedsnr" v="759824" />
	</node>
	<node lat="59.3536583331961" lon="7.357661105588628" id="-70418">
		<tag k="name" v="Haugebakk" />
		<tag k="place" v="farm" />
		<tag k="ssr:stedsnr" v="759929" />
	</node>
	<node lat="59.34220833204667" lon="7.265813890569286" id="-70647">
		<tag k="name" v="Viki" />
		<tag k="place" v="farm" />
		<tag k="ssr:stedsnr" v="791270" />
	</node>
	<node lat="59.341049055362525" lon="7.406077010688844" id="-70654">
		<tag k="name" v="Finndalen" />
		<tag k="place" v="locality" />
		<tag k="ssr:stedsnr" v="791550" />
	</node>
	<node lat="59.37252656252514" lon="7.381199950768533" id="-70655">
		<tag k="name" v="Kvæven" />
		<tag k="place" v="isolated_dwelling" />
		<tag k="ssr:stedsnr" v="791579" />
	</node>
	<node lat="59.5372500018366" lon="7.519072216162485" id="-70672">
		<tag k="fixme" v="consider tourism=alpine_hut or tourism=chalet" />
		<tag k="name" v="Tjørnbrotbu" />
		<tag k="old_name" v="Tjørnebrotbu" />
		<tag k="ssr:stedsnr" v="812367" />
		<tag k="tourism" v="wilderness_hut" />
	</node>
	<node lat="59.338911348562625" lon="7.199011907970456" id="-70678">
		<tag k="name" v="Såto" />
		<tag k="place" v="locality" />
		<tag k="ssr:stedsnr" v="816862" />
	</node>
	<node lat="59.33576944031508" lon="7.305486115861123" id="-70703">
		<tag k="historic" v="shieling" />
		<tag k="name" v="Mostøyl" />
		<tag k="place" v="isolated_dwelling" />
		<tag k="ssr:stedsnr" v="820912" />
	</node>
	<node lat="59.35559609647037" lon="7.384724288224201" id="-70745">
		<tag k="loc_name" v="Systog" />
		<tag k="name" v="Stavenes" />
		<tag k="place" v="farm" />
		<tag k="ssr:stedsnr" v="841046" />
	</node>
	<node lat="59.279447218799454" lon="6.908052776659242" id="-70907">
		<tag k="fixme" v="consider tourism=alpine_hut or tourism=chalet" />
		<tag k="name" v="Storsteinen" />
		<tag k="ssr:stedsnr" v="852150" />
		<tag k="tourism" v="wilderness_hut" />
	</node>
	<node lat="59.57347499959283" lon="7.298283341184795" id="-70915">
		<tag k="name" v="Flaten" />
		<tag k="place" v="farm" />
		<tag k="ssr:stedsnr" v="853275" />
	</node>
	<node lat="59.46813611271425" lon="7.383527773776708" id="-70916">
		<tag k="name" v="Dalen" />
		<tag k="place" v="farm" />
		<tag k="ssr:stedsnr" v="852379" />
	</node>
	<node lat="59.35560359846164" lon="7.384149592760696" id="-70918">
		<tag k="alt_name" v="Stavenes" />
		<tag k="name" v="Stavnes" />
		<tag k="place" v="farm" />
		<tag k="ssr:stedsnr" v="852561" />
	</node>
	<node lat="59.3509305546903" lon="7.344566663974419" id="-70919">
		<tag k="name" v="Byklum" />
		<tag k="place" v="farm" />
		<tag k="ssr:stedsnr" v="852574" />
	</node>
	<node lat="59.38434043332332" lon="7.452403597924679" id="-70922">
		<tag k="name" v="Stridsmostøylen" />
		<tag k="old_name" v="Stridsmostølen" />
		<tag k="place" v="locality" />
		<tag k="ssr:stedsnr" v="852598" />
	</node>
	<node lat="59.582069448348314" lon="7.245747221726168" id="-70929">
		<tag k="name" v="Fiskebekklega" />
		<tag k="place" v="locality" />
		<tag k="ssr:stedsnr" v="853269" />
	</node>
	<node lat="59.57146255165483" lon="7.13923128417205" id="-70931">
		<tag k="name" v="Grøningshylkvelven" />
		<tag k="place" v="isolated_dwelling" />
		<tag k="ssr:stedsnr" v="853272" />
	</node>
	<node lat="59.387581893280206" lon="7.432674488346825" id="-70948">
		<tag k="name" v="Takrinden" />
		<tag k="place" v="locality" />
		<tag k="ssr:stedsnr" v="933134" />
	</node>
	<node lat="59.54055277339825" lon="7.333472221550459" id="-70949">
		<tag k="historic" v="shieling" />
		<tag k="name" v="Myklestøyl" />
		<tag k="place" v="isolated_dwelling" />
		<tag k="ssr:stedsnr" v="933356" />
	</node>
	<node lat="59.54783980364969" lon="7.3668724027557" id="-70950">
		<tag k="historic" v="shieling" />
		<tag k="name" v="Hartevasstøylen" />
		<tag k="place" v="isolated_dwelling" />
		<tag k="ssr:stedsnr" v="933357" />
	</node>
	<node lat="59.557563889516736" lon="7.35821111753255" id="-70953">
		<tag k="name" v="Hovden industri" />
		<tag k="place" v="neighbourhood" />
		<tag k="ssr:stedsnr" v="933378" />
	</node>
	<node lat="59.5561166653642" lon="7.3418388971203505" id="-70954">
		<tag k="name" v="Plassen" />
		<tag k="place" v="farm" />
		<tag k="ssr:stedsnr" v="933382" />
	</node>
	<node lat="59.43256944248136" lon="7.394630548164975" id="-70955">
		<tag k="name" v="Hoslemo" />
		<tag k="place" v="hamlet" />
		<tag k="ssr:stedsnr" v="935767" />
	</node>
	<node lat="59.30497499611263" lon="7.357038893360163" id="-70968">
		<tag k="historic" v="shieling" />
		<tag k="name" v="Lomskrostøylen" />
		<tag k="place" v="isolated_dwelling" />
		<tag k="ssr:stedsnr" v="942863" />
	</node>
	<node lat="59.373102776453365" lon="7.292138894745117" id="-70971">
		<tag k="historic" v="shieling" />
		<tag k="name" v="Finnstøyl" />
		<tag k="place" v="isolated_dwelling" />
		<tag k="ssr:stedsnr" v="942872" />
	</node>
	<node lat="59.50373611225056" lon="7.396224998716316" id="-70984">
		<tag k="historic" v="shieling" />
		<tag k="name" v="Gamalstøyl" />
		<tag k="place" v="isolated_dwelling" />
		<tag k="ssr:stedsnr" v="942620" />
	</node>
	<node lat="59.219256698016146" lon="6.981284695552511" id="-71226">
		<tag k="fixme" v="consider tourism=alpine_hut or tourism=chalet" />
		<tag k="name" v="Smalevassbu" />
		<tag k="ssr:stedsnr" v="979796" />
		<tag k="tourism" v="wilderness_hut" />
	</node>
</osm>
