<?xml version="1.0" encoding="UTF-8"?>
<osm version="0.6" generator="osmapis">
	<node lat="59.38106666871939" lon="7.3844638959632745" id="-30545">
		<tag k="name" v="Høymyrsmyrane" />
		<tag k="natural" v="wetland" />
		<tag k="ssr:stedsnr" v="31514" />
	</node>
	<node lat="59.47134167078935" lon="7.278883336887573" id="-30765">
		<tag k="alt_name" v="Røyruri, lisle" />
		<tag k="name" v="Lisle Røyruri" />
		<tag k="natural" v="scree" />
		<tag k="ssr:stedsnr" v="245172" />
	</node>
	<node lat="59.4719833299768" lon="7.319641674137704" id="-30767">
		<tag k="name" v="Røyruri" />
		<tag k="natural" v="scree" />
		<tag k="ssr:stedsnr" v="245145" />
	</node>
	<node lat="59.57440555124396" lon="7.3175444526109" id="-30770">
		<tag k="name" v="Blomreisflot" />
		<tag k="place" v="locality" />
		<tag k="ssr:stedsnr" v="84336" />
	</node>
	<node lat="59.46035277908039" lon="7.248011118979323" id="-30823">
		<tag k="name" v="Lundeflatane" />
		<tag k="natural" v="wetland" />
		<tag k="ssr:stedsnr" v="92569" />
	</node>
	<node lat="59.40262778174596" lon="7.429541671981998" id="-30825">
		<tag k="name" v="Stoplestaden" />
		<tag k="natural" v="wetland" />
		<tag k="ssr:stedsnr" v="92583" />
	</node>
	<node lat="59.3343777818207" lon="7.180688890669423" id="-30968">
		<tag k="loc_name" v="Svåune" />
		<tag k="name" v="Svåberget" />
		<tag k="place" v="locality" />
		<tag k="ssr:stedsnr" v="123303" />
	</node>
	<node lat="59.57225757028978" lon="7.372531989630667" id="-30986">
		<tag k="name" v="Reinane" />
		<tag k="natural" v="wetland" />
		<tag k="ssr:stedsnr" v="143321" />
	</node>
	<node lat="59.38613332990065" lon="7.396947220093671" id="-31122">
		<tag k="name" v="Momyran" />
		<tag k="natural" v="wetland" />
		<tag k="old_name" v="Momyrane" />
		<tag k="ssr:stedsnr" v="184618" />
	</node>
	<node lat="59.493150001971955" lon="7.449361114370665" id="-31146">
		<tag k="name" v="Buene" />
		<tag k="natural" v="wetland" />
		<tag k="ssr:stedsnr" v="214607" />
	</node>
	<node lat="59.30623610726875" lon="7.361930552826218" id="-31347">
		<tag k="name" v="Holamyr" />
		<tag k="natural" v="wetland" />
		<tag k="ssr:stedsnr" v="456865" />
	</node>
	<node lat="59.329147219912024" lon="7.379780552201252" id="-31369">
		<tag k="name" v="Den lange jota" />
		<tag k="natural" v="wetland" />
		<tag k="ssr:stedsnr" v="456955" />
	</node>
	<node lat="59.37784722563657" lon="7.380311118994184" id="-31377">
		<tag k="name" v="Stokkemyrane" />
		<tag k="natural" v="wetland" />
		<tag k="ssr:stedsnr" v="274480" />
	</node>
	<node lat="59.36351944692108" lon="7.401408335407494" id="-31397">
		<tag k="name" v="Kolsvikmyrane" />
		<tag k="natural" v="wetland" />
		<tag k="ssr:stedsnr" v="274981" />
	</node>
	<node lat="59.470769443367836" lon="7.34319166771353" id="-31572">
		<tag k="name" v="Pershola" />
		<tag k="natural" v="wetland" />
		<tag k="ssr:stedsnr" v="335548" />
	</node>
	<node lat="59.39469722586061" lon="7.4518916648005895" id="-31575">
		<tag k="name" v="Lundeflatane" />
		<tag k="natural" v="wetland" />
		<tag k="ssr:stedsnr" v="335595" />
	</node>
	<node lat="59.47083333240056" lon="7.3971527780286355" id="-31578">
		<tag k="name" v="Stykkjeslåtta" />
		<tag k="natural" v="wetland" />
		<tag k="ssr:stedsnr" v="335616" />
	</node>
	<node lat="59.63087500450053" lon="7.461550001694669" id="-31583">
		<tag k="name" v="Nubbeslåttone" />
		<tag k="natural" v="wetland" />
		<tag k="ssr:stedsnr" v="335657" />
	</node>
	<node lat="59.637352777416204" lon="7.40390277746103" id="-31586">
		<tag k="historic" v="shieling" />
		<tag k="name" v="Hyttevodden" />
		<tag k="place" v="locality" />
		<tag k="ssr:stedsnr" v="335698" />
	</node>
	<node lat="59.4183249985879" lon="7.174188895809951" id="-31884">
		<tag k="name" v="Ulvetuva" />
		<tag k="natural" v="stone" />
		<tag k="ssr:stedsnr" v="366317" />
	</node>
	<node lat="59.48227777923419" lon="7.346944436989935" id="-31936">
		<tag k="name" v="Svåa" />
		<tag k="place" v="locality" />
		<tag k="ssr:stedsnr" v="391905" />
	</node>
	<node lat="59.428038887871786" lon="7.177105555294713" id="-31948">
		<tag k="name" v="Svåa" />
		<tag k="place" v="locality" />
		<tag k="ssr:stedsnr" v="395840" />
	</node>
	<node lat="59.3312138863447" lon="7.420786104285442" id="-31952">
		<tag k="name" v="Fitjane" />
		<tag k="natural" v="wetland" />
		<tag k="ssr:stedsnr" v="395928" />
	</node>
	<node lat="59.52793937402704" lon="7.396307061662429" id="-32527">
		<tag k="historic" v="shieling" />
		<tag k="name" v="Gamalstøyl" />
		<tag k="place" v="locality" />
		<tag k="ssr:stedsnr" v="690400" />
	</node>
	<node lat="59.569186111772616" lon="7.366802775204592" id="-32529">
		<tag k="historic" v="shieling" />
		<tag k="name" v="Nystøyl" />
		<tag k="place" v="locality" />
		<tag k="ssr:stedsnr" v="691371" />
	</node>
	<node lat="59.388702779264094" lon="7.376094436203542" id="-32540">
		<tag k="name" v="Hægjesslått" />
		<tag k="natural" v="wetland" />
		<tag k="ssr:stedsnr" v="577515" />
	</node>
	<node lat="59.45009444430784" lon="7.3986138903281615" id="-32692">
		<tag k="name" v="Alvsmyr" />
		<tag k="natural" v="wetland" />
		<tag k="ssr:stedsnr" v="699528" />
	</node>
	<node lat="59.646702773314864" lon="7.405433325860906" id="-32706">
		<tag k="name" v="Bekkjekrokane" />
		<tag k="natural" v="wetland" />
		<tag k="ssr:stedsnr" v="699644" />
	</node>
	<node lat="59.29147221934046" lon="7.391724998907938" id="-32725">
		<tag k="name" v="Myrane" />
		<tag k="natural" v="wetland" />
		<tag k="ssr:stedsnr" v="699958" />
	</node>
	<node lat="59.349844446577805" lon="7.366227783123993" id="-32774">
		<tag k="name" v="Ægredekkane" />
		<tag k="place" v="locality" />
		<tag k="ssr:stedsnr" v="638927" />
	</node>
	<node lat="59.32088333180653" lon="7.335533333019029" id="-32779">
		<tag k="name" v="Vardebrokkmyrane" />
		<tag k="natural" v="wetland" />
		<tag k="ssr:stedsnr" v="638829" />
	</node>
</osm>
