<?xml version="1.0" encoding="UTF-8"?>
<osm version="0.6" generator="osmapis">
	<node lat="59.41374166843409" lon="7.410763888753974" id="-31097">
		<tag k="bridge" v="yes" />
		<tag k="layer" v="1" />
		<tag k="name" v="Glidbjørgsbruni" />
		<tag k="ssr:stedsnr" v="174724" />
	</node>
	<node lat="59.44506389174167" lon="7.417308331935467" id="-31340">
		<tag k="bridge" v="yes" />
		<tag k="layer" v="1" />
		<tag k="name" v="Berdalsbru" />
		<tag k="ssr:stedsnr" v="456550" />
	</node>
	<node lat="59.406399998718285" lon="7.225274995043276" id="-31373">
		<tag k="ford" v="yes" />
		<tag k="name" v="Spranget" />
		<tag k="place" v="locality" />
		<tag k="ssr:stedsnr" v="270821" />
	</node>
	<node lat="59.56739444640367" lon="7.2986527789406415" id="-31385">
		<tag k="name" v="Kanalen" />
		<tag k="ssr:stedsnr" v="274569" />
		<tag k="waterway" v="canal" />
	</node>
	<node lat="59.35545833504635" lon="7.361508330619164" id="-31404">
		<tag k="bridge" v="yes" />
		<tag k="layer" v="1" />
		<tag k="name" v="Bykle undergang" />
		<tag k="ssr:stedsnr" v="289136" />
	</node>
	<node lat="59.312402776956525" lon="7.365808335898788" id="-31571">
		<tag k="bridge" v="yes" />
		<tag k="layer" v="1" />
		<tag k="name" v="Uptestøyl øvre" />
		<tag k="ssr:stedsnr" v="471153" />
	</node>
	<node lat="59.2936333343664" lon="7.404852771422119" id="-32351">
		<tag k="highway" v="path" />
		<tag k="name" v="Vedbakk" />
		<tag k="ssr:stedsnr" v="517962" />
	</node>
	<node lat="59.32356944708538" lon="7.362011109181245" id="-32713">
		<tag k="bridge" v="yes" />
		<tag k="layer" v="1" />
		<tag k="name" v="Stigebrune" />
		<tag k="ssr:stedsnr" v="699830" />
	</node>
	<node lat="59.35688332948016" lon="6.960099999382633" id="-32739">
		<tag k="ford" v="yes" />
		<tag k="name" v="Sandvadet" />
		<tag k="place" v="locality" />
		<tag k="ssr:stedsnr" v="609239" />
	</node>
</osm>
