<?xml version="1.0" encoding="UTF-8"?>
<osm version="0.6" generator="osmapis">
	<node lat="59.427541402336146" lon="7.223961768564901" id="-27049">
		<tag k="alt_name" v="Reinevasstjønni" />
		<tag k="name" v="Snjoheitjønni" />
		<tag k="natural" v="water" />
		<tag k="ssr:stedsnr" v="2343" />
	</node>
	<node lat="59.285277774834015" lon="7.407258332271766" id="-27082">
		<tag k="name" v="Klamrebekken" />
		<tag k="ssr:stedsnr" v="22116" />
		<tag k="waterway" v="stream" />
	</node>
	<node lat="59.60292500404491" lon="7.405202784420062" id="-27094">
		<tag k="name" v="Lundebekken" />
		<tag k="ssr:stedsnr" v="23290" />
		<tag k="waterway" v="stream" />
	</node>
	<node lat="59.475130556580766" lon="7.246880560167969" id="-27229">
		<tag k="name" v="Øykjelibekken" />
		<tag k="ssr:stedsnr" v="31576" />
		<tag k="waterway" v="stream" />
	</node>
	<node lat="59.364563893055355" lon="7.424611114242165" id="-27246">
		<tag k="alt_name" v="Kolsviktjørn" />
		<tag k="name" v="Kolsviktjønn" />
		<tag k="natural" v="water" />
		<tag k="ssr:stedsnr" v="31980" />
	</node>
	<node lat="59.223988656632876" lon="6.970173153288442" id="-27420">
		<tag k="name" v="Smalevatnet" />
		<tag k="natural" v="water" />
		<tag k="ssr:stedsnr" v="62769" />
		<tag k="water" v="lake" />
	</node>
	<node lat="59.451400000396596" lon="7.406275002380118" id="-27425">
		<tag k="alt_name" v="Flæhylen" />
		<tag k="name" v="Flæhyl" />
		<tag k="place" v="locality" />
		<tag k="ssr:stedsnr" v="63409" />
	</node>
	<node lat="59.47292500171048" lon="7.132636115887333" id="-27427">
		<tag k="name" v="Skreppetjønni" />
		<tag k="natural" v="water" />
		<tag k="ssr:stedsnr" v="63178" />
	</node>
	<node lat="59.32252500019017" lon="7.174602783791768" id="-27429">
		<tag k="name" v="Viki" />
		<tag k="natural" v="bay" />
		<tag k="ssr:stedsnr" v="63311" />
	</node>
	<node lat="59.383999998918505" lon="7.445916675378485" id="-27437">
		<tag k="alt_name" v="Stridsmotjønn;Stridsmotjørni" />
		<tag k="name" v="Stridsmotjønni" />
		<tag k="natural" v="water" />
		<tag k="ssr:stedsnr" v="63614" />
	</node>
	<node lat="59.34882500010554" lon="7.43066111834114" id="-27439">
		<tag k="alt_name" v="Finndalstjørn;Finndalstjørni;Finndalstjønn" />
		<tag k="name" v="Finndalstjønni" />
		<tag k="natural" v="water" />
		<tag k="ssr:stedsnr" v="63586" />
	</node>
	<node lat="59.66536667080632" lon="7.211108325992117" id="-27442">
		<tag k="alt_name" v="Fisketjørn" />
		<tag k="name" v="Fisketjønn" />
		<tag k="natural" v="water" />
		<tag k="ssr:stedsnr" v="64463" />
		<tag k="water" v="lake" />
	</node>
	<node lat="59.29323889215229" lon="6.9536222153800855" id="-27446">
		<tag k="name" v="Vestre Gyvatnet" />
		<tag k="natural" v="water" />
		<tag k="ssr:stedsnr" v="245133" />
	</node>
	<node lat="59.46779999754449" lon="7.202641675133618" id="-27448">
		<tag k="name" v="Holmebekken" />
		<tag k="ssr:stedsnr" v="245176" />
		<tag k="waterway" v="stream" />
	</node>
	<node lat="59.45877499728526" lon="7.2985750056334595" id="-27450">
		<tag k="name" v="Troddedalstjønnane" />
		<tag k="natural" v="water" />
		<tag k="ssr:stedsnr" v="245158" />
	</node>
	<node lat="59.471447219843014" lon="7.236236108624743" id="-27451">
		<tag k="name" v="Steinnest" />
		<tag k="natural" v="cape" />
		<tag k="ssr:stedsnr" v="245167" />
	</node>
	<node lat="59.55070749365864" lon="7.360581001620314" id="-27453">
		<tag k="name" v="Otros" />
		<tag k="natural" v="bay" />
		<tag k="ssr:stedsnr" v="84337" />
	</node>
	<node lat="59.30958888783299" lon="7.041799999674563" id="-27462">
		<tag k="name" v="Venehøl" />
		<tag k="place" v="locality" />
		<tag k="ssr:stedsnr" v="245300" />
	</node>
	<node lat="59.58446944494046" lon="7.171608339774226" id="-27466">
		<tag k="name" v="Skurevatnet" />
		<tag k="natural" v="water" />
		<tag k="ssr:stedsnr" v="245266" />
		<tag k="water" v="lake" />
	</node>
	<node lat="59.58666666696229" lon="7.228097221059561" id="-27467">
		<tag k="name" v="Væringsåni" />
		<tag k="ssr:stedsnr" v="245267" />
		<tag k="waterway" v="river" />
	</node>
	<node lat="59.45142499588498" lon="7.574119442936698" id="-27469">
		<tag k="alt_name" v="Gjuvvatna, ytre" />
		<tag k="name" v="Ytre Gjuvvatn" />
		<tag k="natural" v="water" />
		<tag k="ssr:stedsnr" v="245376" />
		<tag k="water" v="lake" />
	</node>
	<node lat="59.49673611225711" lon="7.402074996478468" id="-27470">
		<tag k="name" v="Langehylen" />
		<tag k="ssr:stedsnr" v="245464" />
		<tag k="waterway" v="stream" />
	</node>
	<node lat="59.396486106798704" lon="7.18088332796634" id="-27471">
		<tag k="name" v="Tveite" />
		<tag k="place" v="locality" />
		<tag k="ssr:stedsnr" v="245322" />
	</node>
	<node lat="59.401738889290314" lon="7.083505548144349" id="-27472">
		<tag k="name" v="Krokevatnet" />
		<tag k="natural" v="water" />
		<tag k="ssr:stedsnr" v="245326" />
		<tag k="water" v="lake" />
	</node>
	<node lat="59.38813553843838" lon="7.264566563622047" id="-27473">
		<tag k="fixme" v="multiple name tags, choose one and add the other to alt_name" />
		<tag k="name" v="Skargjesfossen;Fosstøylfossen" />
		<tag k="natural" v="waterfall" />
		<tag k="ssr:stedsnr" v="245340" />
	</node>
	<node lat="59.35833584844877" lon="7.244143548453541" id="-27474">
		<tag k="name" v="Falkeflottjønn" />
		<tag k="natural" v="water" />
		<tag k="old_name" v="Falkeflottjønni" />
		<tag k="ssr:stedsnr" v="245348" />
	</node>
	<node lat="59.493706975751024" lon="7.580027347019502" id="-27476">
		<tag k="name" v="Øystre Brandsvatnet" />
		<tag k="natural" v="water" />
		<tag k="old_name" v="Brandsvatni, øystre" />
		<tag k="ssr:stedsnr" v="245479" />
		<tag k="water" v="lake" />
	</node>
	<node lat="59.63903889017818" lon="7.361699993408101" id="-27483">
		<tag k="alt_name" v="Nørdre Kaldsvatn;Kaldsvatn, øvre" />
		<tag k="name" v="Øvre Kaldsvatn" />
		<tag k="natural" v="water" />
		<tag k="ssr:stedsnr" v="245531" />
		<tag k="water" v="lake" />
	</node>
	<node lat="59.45692500247058" lon="7.233727772124888" id="-27489">
		<tag k="name" v="Heimre Lundebekken" />
		<tag k="ssr:stedsnr" v="88877" />
		<tag k="waterway" v="stream" />
	</node>
	<node lat="59.44637778156759" lon="7.336738882463702" id="-27491">
		<tag k="name" v="Rundemandalstjønnane" />
		<tag k="natural" v="water" />
		<tag k="ssr:stedsnr" v="88889" />
	</node>
	<node lat="59.5002638855342" lon="7.219822224777016" id="-27496">
		<tag k="alt_name" v="Stølstjørn" />
		<tag k="name" v="Støylstjønn" />
		<tag k="natural" v="water" />
		<tag k="ssr:stedsnr" v="246353" />
	</node>
	<node lat="59.50412777647757" lon="7.167530556504729" id="-27497">
		<tag k="name" v="Ormsaåni" />
		<tag k="ssr:stedsnr" v="246356" />
		<tag k="waterway" v="river" />
	</node>
	<node lat="59.38803333502699" lon="7.38708332845365" id="-27503">
		<tag k="name" v="Heimre Iverosbekken" />
		<tag k="ssr:stedsnr" v="92510" />
		<tag k="waterway" v="stream" />
	</node>
	<node lat="59.32985833081769" lon="7.337911114125889" id="-27509">
		<tag k="name" v="Ausa" />
		<tag k="natural" v="water" />
		<tag k="ssr:stedsnr" v="92811" />
	</node>
	<node lat="59.37409444785133" lon="6.959455551218729" id="-27644">
		<tag k="name" v="Vassdalselvi" />
		<tag k="ssr:stedsnr" v="123268" />
		<tag k="waterway" v="stream" />
	</node>
	<node lat="59.44172500207761" lon="7.012963888359946" id="-27646">
		<tag k="alt_name" v="Ratevatn, øvre" />
		<tag k="name" v="Øvre Ratevatn" />
		<tag k="natural" v="water" />
		<tag k="ssr:stedsnr" v="123178" />
		<tag k="water" v="lake" />
	</node>
	<node lat="59.3784138929468" lon="6.970813896016644" id="-27658">
		<tag k="name" v="Ålbogen" />
		<tag k="natural" v="water" />
		<tag k="ssr:stedsnr" v="124303" />
	</node>
	<node lat="59.37357499928515" lon="7.271575001819584" id="-27659">
		<tag k="name" v="Ljoråsbekken" />
		<tag k="ssr:stedsnr" v="124319" />
		<tag k="waterway" v="stream" />
	</node>
	<node lat="59.60637499772226" lon="7.457902781136638" id="-27664">
		<tag k="alt_name" v="Lislefjøddtjørni" />
		<tag k="name" v="Lislefjøddtjønni" />
		<tag k="natural" v="water" />
		<tag k="ssr:stedsnr" v="124661" />
	</node>
	<node lat="59.301375001582116" lon="6.938102785211826" id="-27669">
		<tag k="name" v="Storevassdammen" />
		<tag k="ssr:stedsnr" v="145293" />
		<tag k="waterway" v="dam" />
	</node>
	<node lat="59.47596667001006" lon="7.193597214089959" id="-27674">
		<tag k="name" v="Rjobekken" />
		<tag k="ssr:stedsnr" v="149906" />
		<tag k="waterway" v="stream" />
	</node>
	<node lat="59.438225001788396" lon="7.107400000642777" id="-27675">
		<tag k="name" v="Vøylen" />
		<tag k="natural" v="strait" />
		<tag k="ssr:stedsnr" v="149910" />
	</node>
	<node lat="59.35645000062058" lon="7.389991666954733" id="-27680">
		<tag k="name" v="Saubekken" />
		<tag k="ssr:stedsnr" v="152968" />
		<tag k="waterway" v="stream" />
	</node>
	<node lat="59.46713611424852" lon="7.370575003007473" id="-27683">
		<tag k="name" v="Skarketjønn" />
		<tag k="natural" v="water" />
		<tag k="ssr:stedsnr" v="153622" />
	</node>
	<node lat="59.60906944890928" lon="7.406730555602278" id="-27686">
		<tag k="name" v="Løbakkhylen" />
		<tag k="place" v="locality" />
		<tag k="ssr:stedsnr" v="153657" />
	</node>
	<node lat="59.398330551445255" lon="7.432686119378553" id="-27803">
		<tag k="alt_name" v="Grønåstjørn" />
		<tag k="name" v="Grønåstjønn" />
		<tag k="natural" v="water" />
		<tag k="ssr:stedsnr" v="184615" />
	</node>
	<node lat="59.51531666752234" lon="7.412944444705515" id="-27811">
		<tag k="name" v="Lomehylen" />
		<tag k="place" v="locality" />
		<tag k="ssr:stedsnr" v="185590" />
	</node>
	<node lat="59.524155554773905" lon="7.4964305587390125" id="-27812">
		<tag k="name" v="Auversvatn" />
		<tag k="natural" v="water" />
		<tag k="ssr:stedsnr" v="185599" />
		<tag k="water" v="lake" />
	</node>
	<node lat="59.592986108017215" lon="7.379900004355574" id="-27816">
		<tag k="name" v="Straumane" />
		<tag k="ssr:stedsnr" v="266348" />
		<tag k="waterway" v="rapids" />
	</node>
	<node lat="59.450572225345255" lon="7.388297215064904" id="-27822">
		<tag k="name" v="Øytjønn" />
		<tag k="natural" v="water" />
		<tag k="ssr:stedsnr" v="213589" />
	</node>
	<node lat="59.32874722595742" lon="7.403733327181389" id="-27824">
		<tag k="name" v="Askaut" />
		<tag k="place" v="locality" />
		<tag k="ssr:stedsnr" v="213928" />
	</node>
	<node lat="59.303397221611554" lon="7.30497222983713" id="-27830">
		<tag k="alt_name" v="Litjørn" />
		<tag k="name" v="Litjønn" />
		<tag k="natural" v="water" />
		<tag k="ssr:stedsnr" v="214906" />
	</node>
	<node lat="59.29876691917414" lon="7.342979307400614" id="-27833">
		<tag k="name" v="Raudkleivhylen" />
		<tag k="place" v="locality" />
		<tag k="ssr:stedsnr" v="214884" />
	</node>
	<node lat="59.30475277454166" lon="7.3595555558658114" id="-27835">
		<tag k="alt_name" v="Lomskrotjørni" />
		<tag k="name" v="Lomskrotjønni" />
		<tag k="natural" v="water" />
		<tag k="ssr:stedsnr" v="214890" />
	</node>
	<node lat="59.63170833148713" lon="7.303352786354169" id="-27837">
		<tag k="name" v="Arthurstjønni" />
		<tag k="natural" v="water" />
		<tag k="old_name" v="Myrekvævtjørni" />
		<tag k="ssr:stedsnr" v="270412" />
	</node>
	<node lat="59.62212222435783" lon="7.125924999780939" id="-27993">
		<tag k="alt_name" v="Såtetjørn" />
		<tag k="name" v="Såtetjønn" />
		<tag k="natural" v="water" />
		<tag k="ssr:stedsnr" v="245428" />
	</node>
	<node lat="59.30602222265428" lon="7.471594446455636" id="-28000">
		<tag k="alt_name" v="Vasstøylsåne" />
		<tag k="loc_name" v="Vasstøylåni" />
		<tag k="name" v="Vasstøylsåni" />
		<tag k="old_name" v="Vasstølåni" />
		<tag k="ssr:stedsnr" v="245713" />
		<tag k="waterway" v="river" />
	</node>
	<node lat="59.54621944711114" lon="7.283347221028537" id="-28005">
		<tag k="name" v="Vesterdalsåni" />
		<tag k="ssr:stedsnr" v="246279" />
		<tag k="waterway" v="stream" />
	</node>
	<node lat="59.647169443521896" lon="7.120625000445698" id="-28007">
		<tag k="alt_name" v="Svartepoddtjørni" />
		<tag k="name" v="Svartepoddtjønni" />
		<tag k="natural" v="water" />
		<tag k="ssr:stedsnr" v="246420" />
	</node>
	<node lat="59.65458333067373" lon="7.284005557423282" id="-28008">
		<tag k="name" v="Svartehyl" />
		<tag k="place" v="locality" />
		<tag k="ssr:stedsnr" v="246423" />
	</node>
	<node lat="59.32105277744564" lon="7.2223111126721955" id="-28015">
		<tag k="name" v="Lislestøylstjønni" />
		<tag k="natural" v="water" />
		<tag k="ssr:stedsnr" v="452859" />
	</node>
	<node lat="59.40371666967573" lon="7.422311103866473" id="-28019">
		<tag k="name" v="Stoplestadbekken" />
		<tag k="ssr:stedsnr" v="456523" />
		<tag k="waterway" v="stream" />
	</node>
	<node lat="59.309688892373835" lon="7.308638882156033" id="-28030">
		<tag k="name" v="Libekk" />
		<tag k="ssr:stedsnr" v="456867" />
		<tag k="waterway" v="stream" />
	</node>
	<node lat="59.322113885430554" lon="7.357227786363841" id="-28031">
		<tag k="name" v="Strandebekken" />
		<tag k="ssr:stedsnr" v="456841" />
		<tag k="waterway" v="stream" />
	</node>
	<node lat="59.30167222267006" lon="7.2911916662401755" id="-28033">
		<tag k="name" v="Løken" />
		<tag k="natural" v="water" />
		<tag k="ssr:stedsnr" v="456883" />
		<tag k="water" v="lake" />
	</node>
	<node lat="59.31687222492594" lon="7.324074993760155" id="-28036">
		<tag k="name" v="Storøy" />
		<tag k="place" v="island" />
		<tag k="ssr:stedsnr" v="456847" />
	</node>
	<node lat="59.31301110827721" lon="7.325763894133668" id="-28037">
		<tag k="name" v="Rekaviki" />
		<tag k="natural" v="bay" />
		<tag k="ssr:stedsnr" v="456850" />
	</node>
	<node lat="59.34010555744417" lon="7.445736108421778" id="-28042">
		<tag k="alt_name" v="Tinndalstjørn" />
		<tag k="name" v="Tinndalstjønn" />
		<tag k="natural" v="water" />
		<tag k="ssr:stedsnr" v="456991" />
	</node>
	<node lat="59.335541665362335" lon="7.402947218652246" id="-28044">
		<tag k="name" v="Tjørnane" />
		<tag k="natural" v="water" />
		<tag k="ssr:stedsnr" v="456993" />
	</node>
	<node lat="59.33084444315334" lon="7.420877779397696" id="-28046">
		<tag k="name" v="Fitjebekken" />
		<tag k="ssr:stedsnr" v="456924" />
		<tag k="waterway" v="stream" />
	</node>
	<node lat="59.32331389042705" lon="7.394911111669178" id="-28050">
		<tag k="alt_name" v="Svårtetjørn" />
		<tag k="name" v="Svårtetjønn" />
		<tag k="natural" v="water" />
		<tag k="ssr:stedsnr" v="456951" />
	</node>
	<node lat="59.32463332917023" lon="7.299019448757407" id="-28056">
		<tag k="name" v="Nausebekken" />
		<tag k="ssr:stedsnr" v="270823" />
		<tag k="waterway" v="stream" />
	</node>
	<node lat="59.38661388996411" lon="7.395888881667099" id="-28058">
		<tag k="name" v="Mobekken" />
		<tag k="ssr:stedsnr" v="274474" />
		<tag k="waterway" v="stream" />
	</node>
	<node lat="59.57183333001455" lon="7.305450005303512" id="-28068">
		<tag k="name" v="Heibekken" />
		<tag k="ssr:stedsnr" v="274574" />
		<tag k="waterway" v="stream" />
	</node>
	<node lat="59.31769999734" lon="7.3265583309484255" id="-28070">
		<tag k="name" v="Evjane" />
		<tag k="place" v="locality" />
		<tag k="ssr:stedsnr" v="274812" />
	</node>
	<node lat="59.3072333326045" lon="7.3321027800631775" id="-28071">
		<tag k="name" v="Hisøyni" />
		<tag k="place" v="island" />
		<tag k="ssr:stedsnr" v="274829" />
	</node>
	<node lat="59.34048333292936" lon="7.28052777804923" id="-28072">
		<tag k="name" v="Bubekken" />
		<tag k="ssr:stedsnr" v="274881" />
		<tag k="waterway" v="stream" />
	</node>
	<node lat="59.36758611055616" lon="7.393280554283185" id="-28080">
		<tag k="name" v="Tveitstøylbekken" />
		<tag k="ssr:stedsnr" v="274983" />
		<tag k="waterway" v="stream" />
	</node>
	<node lat="59.39737777646405" lon="7.37483611678129" id="-28229">
		<tag k="name" v="Hagabubekken" />
		<tag k="ssr:stedsnr" v="305665" />
		<tag k="waterway" v="stream" />
	</node>
	<node lat="59.32646666307118" lon="7.4081055604460975" id="-28233">
		<tag k="alt_name" v="Kroketjørn;Kroktjørn;Kroketjønn" />
		<tag k="name" v="Kroktjønn" />
		<tag k="natural" v="water" />
		<tag k="ssr:stedsnr" v="306502" />
	</node>
	<node lat="59.35373610857199" lon="7.379930551775312" id="-28237">
		<tag k="alt_name" v="Bjårbekken" />
		<tag k="name" v="Bjorbekken" />
		<tag k="ssr:stedsnr" v="306535" />
		<tag k="waterway" v="stream" />
	</node>
	<node lat="59.42480833614514" lon="7.553208341958136" id="-28240">
		<tag k="alt_name" v="Den lange tjørni" />
		<tag k="name" v="Den lange tjønni" />
		<tag k="natural" v="water" />
		<tag k="ssr:stedsnr" v="306415" />
	</node>
	<node lat="59.619463889431245" lon="7.335438887619758" id="-28242">
		<tag k="name" v="Mjåvatn" />
		<tag k="natural" v="water" />
		<tag k="ssr:stedsnr" v="306422" />
		<tag k="water" v="lake" />
	</node>
	<node lat="59.6324111107892" lon="7.183513881145051" id="-28246">
		<tag k="name" v="Båstogvatn" />
		<tag k="natural" v="water" />
		<tag k="ssr:stedsnr" v="307466" />
		<tag k="water" v="lake" />
	</node>
	<node lat="59.558278126091494" lon="7.345926435922844" id="-28250">
		<tag k="alt_name" v="Djupetjørn" />
		<tag k="name" v="Djupetjønn" />
		<tag k="natural" v="water" />
		<tag k="ssr:stedsnr" v="326371" />
	</node>
	<node lat="59.5283587471431" lon="7.389734359412342" id="-28251">
		<tag k="alt_name" v="Badstogdalstjørn" />
		<tag k="name" v="Badstogdalstjønn" />
		<tag k="natural" v="water" />
		<tag k="ssr:stedsnr" v="326377" />
	</node>
	<node lat="59.45381110920377" lon="7.389241664315815" id="-28255">
		<tag k="name" v="Langetjønnbekken" />
		<tag k="natural" v="water" />
		<tag k="ssr:stedsnr" v="335552" />
	</node>
	<node lat="59.62098610763413" lon="7.426680550601335" id="-28262">
		<tag k="name" v="Breivassosen" />
		<tag k="natural" v="bay" />
		<tag k="ssr:stedsnr" v="335646" />
	</node>
	<node lat="59.62353055785439" lon="7.4433222287368155" id="-28263">
		<tag k="name" v="Grunnen" />
		<tag k="natural" v="shoal" />
		<tag k="place" v="locality" />
		<tag k="ssr:stedsnr" v="335649" />
	</node>
	<node lat="59.637155554190386" lon="7.40784444304689" id="-28267">
		<tag k="name" v="Heimre Kiletjønn" />
		<tag k="natural" v="water" />
		<tag k="ssr:stedsnr" v="335696" />
	</node>
	<node lat="59.30251389262953" lon="7.400194438595744" id="-28270">
		<tag k="name" v="Dapane" />
		<tag k="place" v="locality" />
		<tag k="ssr:stedsnr" v="335970" />
	</node>
	<node lat="59.31959721954118" lon="7.322363896022834" id="-28565">
		<tag k="name" v="Stigahyl" />
		<tag k="place" v="locality" />
		<tag k="ssr:stedsnr" v="366307" />
	</node>
	<node lat="59.42504444534285" lon="7.049997224114365" id="-28568">
		<tag k="alt_name" v="Ratevatn, yt" />
		<tag k="name" v="Ytre Ratevatn" />
		<tag k="natural" v="water" />
		<tag k="ssr:stedsnr" v="366323" />
		<tag k="water" v="lake" />
	</node>
	<node lat="59.395061109098926" lon="7.181361105754143" id="-28570">
		<tag k="name" v="Tveite-Djupetjønn" />
		<tag k="natural" v="water" />
		<tag k="ssr:stedsnr" v="366335" />
	</node>
	<node lat="59.376152779827365" lon="7.042466660449601" id="-28572">
		<tag k="name" v="Sandvodene" />
		<tag k="place" v="locality" />
		<tag k="ssr:stedsnr" v="366348" />
	</node>
	<node lat="59.31887777748012" lon="7.025433334173006" id="-28577">
		<tag k="name" v="Glovetjønn" />
		<tag k="natural" v="water" />
		<tag k="ssr:stedsnr" v="366297" />
	</node>
	<node lat="59.43653055316249" lon="7.367286108284608" id="-28579">
		<tag k="alt_name" v="Flotatjørn" />
		<tag k="name" v="Flotatjønn" />
		<tag k="natural" v="water" />
		<tag k="old_name" v="Flotatjørni" />
		<tag k="ssr:stedsnr" v="366414" />
	</node>
	<node lat="59.355227774197076" lon="7.3677750018313946" id="-28584">
		<tag k="name" v="Sarvsfossen" />
		<tag k="natural" v="waterfall" />
		<tag k="ssr:stedsnr" v="366586" />
	</node>
	<node lat="59.618902780521836" lon="7.4509638841929515" id="-28593">
		<tag k="name" v="Flottebekken" />
		<tag k="ssr:stedsnr" v="367482" />
		<tag k="waterway" v="stream" />
	</node>
	<node lat="59.431825003883326" lon="7.41688055226275" id="-28624">
		<tag k="name" v="Øybekk" />
		<tag k="ssr:stedsnr" v="395594" />
		<tag k="waterway" v="stream" />
	</node>
	<node lat="59.63931110730702" lon="7.410974996341677" id="-28625">
		<tag k="name" v="Bringebekken" />
		<tag k="ssr:stedsnr" v="395702" />
		<tag k="waterway" v="stream" />
	</node>
	<node lat="59.3242027739892" lon="7.348569435962581" id="-28631">
		<tag k="name" v="Hørnes" />
		<tag k="natural" v="cape" />
		<tag k="ssr:stedsnr" v="395849" />
	</node>
	<node lat="59.30772222397601" lon="7.328761115206443" id="-28640">
		<tag k="name" v="Nordre Hisåni" />
		<tag k="ssr:stedsnr" v="395881" />
		<tag k="waterway" v="river" />
	</node>
	<node lat="59.49548333368454" lon="7.378974997877187" id="-28653">
		<tag k="name" v="Kvernebekken" />
		<tag k="ssr:stedsnr" v="487526" />
		<tag k="waterway" v="stream" />
	</node>
	<node lat="59.363050002612745" lon="7.408130563281205" id="-28659">
		<tag k="alt_name" v="Fitjeåni" />
		<tag k="name" v="Fitjåni" />
		<tag k="ssr:stedsnr" v="487637" />
		<tag k="waterway" v="stream" />
	</node>
	<node lat="59.29593888997603" lon="7.367963897560649" id="-28662">
		<tag k="alt_name" v="Skistoghylen;Skidstodhylen" />
		<tag k="name" v="Skeistoghylen" />
		<tag k="place" v="locality" />
		<tag k="ssr:stedsnr" v="487772" />
	</node>
	<node lat="59.569133337116476" lon="7.023624999902327" id="-28714">
		<tag k="name" v="Urdåni" />
		<tag k="ssr:stedsnr" v="488252" />
		<tag k="waterway" v="stream" />
	</node>
	<node lat="59.31973083961192" lon="7.258252668290007" id="-28723">
		<tag k="name" v="Noheitjønnane" />
		<tag k="natural" v="water" />
		<tag k="ssr:stedsnr" v="488268" />
		<tag k="water" v="lake" />
	</node>
	<node lat="59.51081111261416" lon="6.9738055491095094" id="-28778">
		<tag k="name" v="Steinkilen" />
		<tag k="place" v="locality" />
		<tag k="ssr:stedsnr" v="488227" />
	</node>
	<node lat="59.439511114460736" lon="7.449811110953786" id="-28795">
		<tag k="name" v="Berdøl" />
		<tag k="old_name" v="Berdøla" />
		<tag k="ssr:stedsnr" v="488384" />
		<tag k="waterway" v="river" />
	</node>
	<node lat="59.51536388915014" lon="7.403258332087709" id="-28809">
		<tag k="alt_name" v="Nilsahyl" />
		<tag k="name" v="Nilsehylen" />
		<tag k="place" v="locality" />
		<tag k="ssr:stedsnr" v="488617" />
	</node>
	<node lat="59.62907777719961" lon="7.230827773081782" id="-28819">
		<tag k="name" v="Øydeskyvatn" />
		<tag k="natural" v="water" />
		<tag k="ssr:stedsnr" v="489466" />
		<tag k="water" v="lake" />
	</node>
	<node lat="59.535452065053555" lon="7.520704384757314" id="-28821">
		<tag k="alt_name" v="Tjørnebrottjørnane" />
		<tag k="name" v="Tjønnebrottjønnane" />
		<tag k="natural" v="water" />
		<tag k="old_name" v="Tjørnebrottjørnin" />
		<tag k="ssr:stedsnr" v="489684" />
		<tag k="water" v="lake" />
	</node>
	<node lat="59.54830833729086" lon="7.411497223648419" id="-28822">
		<tag k="alt_name" v="Hartevasstjørni" />
		<tag k="name" v="Hartevasstjønni" />
		<tag k="natural" v="water" />
		<tag k="ssr:stedsnr" v="489749" />
	</node>
	<node lat="59.40690000289484" lon="7.2035055528327" id="-28831">
		<tag k="name" v="Reinevasstjønni" />
		<tag k="natural" v="water" />
		<tag k="ssr:stedsnr" v="427370" />
	</node>
	<node lat="59.29416666513781" lon="7.289208338002815" id="-28839">
		<tag k="alt_name" v="Storetjørn" />
		<tag k="name" v="Storetjønni" />
		<tag k="natural" v="water" />
		<tag k="ssr:stedsnr" v="427469" />
	</node>
	<node lat="59.348199997991536" lon="7.374549998843613" id="-28843">
		<tag k="alt_name" v="Dei runde tjørnane;Rundtjørn;Dei runde tjønnane" />
		<tag k="name" v="Rundtjønn" />
		<tag k="natural" v="water" />
		<tag k="ssr:stedsnr" v="427581" />
	</node>
	<node lat="59.63501388647586" lon="7.408291670668326" id="-28851">
		<tag k="name" v="Kilane" />
		<tag k="natural" v="bay" />
		<tag k="ssr:stedsnr" v="428502" />
	</node>
	<node lat="59.62843055364964" lon="7.432136111911826" id="-28852">
		<tag k="alt_name" v="Breivatn" />
		<tag k="name" v="Breidvatn" />
		<tag k="natural" v="water" />
		<tag k="ssr:stedsnr" v="428505" />
		<tag k="water" v="lake" />
	</node>
	<node lat="59.45888055892553" lon="7.364605554031799" id="-28854">
		<tag k="alt_name" v="Vatnedalsdammen" />
		<tag k="name" v="Vatndalsdammene" />
		<tag k="ssr:stedsnr" v="449738" />
		<tag k="waterway" v="dam" />
	</node>
	<node lat="59.39176944162639" lon="7.420547225673708" id="-28855">
		<tag k="name" v="Takrindbekkene" />
		<tag k="ssr:stedsnr" v="456507" />
		<tag k="waterway" v="stream" />
	</node>
	<node lat="59.25171110894859" lon="6.911249991853511" id="-29003">
		<tag k="alt_name" v="Storvatnet, ytre;Storvatnet" />
		<tag k="name" v="Ytre Storevatnet" />
		<tag k="natural" v="water" />
		<tag k="ssr:stedsnr" v="487156" />
		<tag k="water" v="lake" />
	</node>
	<node lat="59.305316664524554" lon="7.018308329066542" id="-29004">
		<tag k="name" v="Brattelielvi" />
		<tag k="ssr:stedsnr" v="487326" />
		<tag k="waterway" v="river" />
	</node>
	<node lat="59.39548333402662" lon="7.367652783751036" id="-29011">
		<tag k="alt_name" v="Iverosbekken" />
		<tag k="name" v="Yverosbekken" />
		<tag k="ssr:stedsnr" v="487669" />
		<tag k="waterway" v="stream" />
	</node>
	<node lat="59.37147777367673" lon="7.2528805504233755" id="-29016">
		<tag k="name" v="Skuggetjønn" />
		<tag k="natural" v="water" />
		<tag k="ssr:stedsnr" v="488348" />
	</node>
	<node lat="59.42200833241748" lon="7.3684555578956505" id="-29017">
		<tag k="name" v="Råsebekken" />
		<tag k="ssr:stedsnr" v="488400" />
		<tag k="waterway" v="stream" />
	</node>
	<node lat="59.48696388987395" lon="7.303700001562888" id="-29020">
		<tag k="name" v="Den lange tjønni bak uri" />
		<tag k="natural" v="water" />
		<tag k="ssr:stedsnr" v="513910" />
	</node>
	<node lat="59.502869441198555" lon="7.165233333169424" id="-29026">
		<tag k="name" v="Tjønni" />
		<tag k="natural" v="water" />
		<tag k="ssr:stedsnr" v="517842" />
	</node>
	<node lat="59.325233331057646" lon="7.367761102900401" id="-29028">
		<tag k="alt_name" v="Kåpårtjørni" />
		<tag k="name" v="Kåpårtjønni" />
		<tag k="natural" v="water" />
		<tag k="ssr:stedsnr" v="517849" />
	</node>
	<node lat="59.358833331436344" lon="7.353019450503212" id="-29030">
		<tag k="name" v="Stedjebekken" />
		<tag k="ssr:stedsnr" v="517919" />
		<tag k="waterway" v="stream" />
	</node>
	<node lat="59.326324996101576" lon="7.182188894800151" id="-29184">
		<tag k="name" v="Håvreisundet" />
		<tag k="natural" v="strait" />
		<tag k="ssr:stedsnr" v="548281" />
	</node>
	<node lat="59.441955556120874" lon="7.368377776534048" id="-29186">
		<tag k="alt_name" v="Langetjørn" />
		<tag k="name" v="Langetjønn" />
		<tag k="natural" v="water" />
		<tag k="ssr:stedsnr" v="548420" />
	</node>
	<node lat="59.392911108332115" lon="7.125541665204961" id="-29191">
		<tag k="name" v="Ljosetjønnane" />
		<tag k="natural" v="water" />
		<tag k="ssr:stedsnr" v="548359" />
		<tag k="water" v="lake" />
	</node>
	<node lat="59.40383333161519" lon="7.257080563514637" id="-29192">
		<tag k="alt_name" v="Brattebakkstjønni" />
		<tag k="name" v="Brattebakktjønni" />
		<tag k="natural" v="water" />
		<tag k="ssr:stedsnr" v="548365" />
	</node>
	<node lat="59.40544722333672" lon="7.43300555298329" id="-29196">
		<tag k="alt_name" v="Lomstjørn" />
		<tag k="name" v="Lomstjønn" />
		<tag k="natural" v="water" />
		<tag k="ssr:stedsnr" v="548614" />
	</node>
	<node lat="59.607766667187896" lon="7.333819440363423" id="-29199">
		<tag k="name" v="Skykkjebekken" />
		<tag k="ssr:stedsnr" v="549304" />
		<tag k="waterway" v="stream" />
	</node>
	<node lat="59.58626138122456" lon="7.392937206385597" id="-29214">
		<tag k="alt_name" v="Sigvassundshylen" />
		<tag k="name" v="Sigvaldsonhylen" />
		<tag k="place" v="locality" />
		<tag k="ssr:stedsnr" v="568360" />
	</node>
	<node lat="59.539813888580085" lon="7.314924994836413" id="-29215">
		<tag k="alt_name" v="Stigatjørnane" />
		<tag k="name" v="Stigatjønnane" />
		<tag k="natural" v="water" />
		<tag k="ssr:stedsnr" v="569326" />
		<tag k="water" v="lake" />
	</node>
	<node lat="59.30165277984115" lon="7.281602782211818" id="-29224">
		<tag k="name" v="Hisdalstjønni" />
		<tag k="natural" v="water" />
		<tag k="ssr:stedsnr" v="694825" />
	</node>
	<node lat="59.63950555829426" lon="7.396213890574211" id="-29231">
		<tag k="name" v="Støyletjønn" />
		<tag k="natural" v="water" />
		<tag k="ssr:stedsnr" v="577692" />
	</node>
	<node lat="59.477091669575906" lon="7.066277771404388" id="-29240">
		<tag k="name" v="Urevasstjønnane" />
		<tag k="natural" v="water" />
		<tag k="ssr:stedsnr" v="695879" />
	</node>
	<node lat="59.452369448120585" lon="7.383519449882733" id="-29375">
		<tag k="name" v="Kotetjønn" />
		<tag k="natural" v="water" />
		<tag k="ssr:stedsnr" v="699531" />
	</node>
	<node lat="59.57803611330472" lon="7.2771333417553485" id="-29380">
		<tag k="name" v="Listøylbekken" />
		<tag k="ssr:stedsnr" v="699551" />
		<tag k="waterway" v="stream" />
	</node>
	<node lat="59.62814999580627" lon="7.416502775057584" id="-29386">
		<tag k="name" v="Kaldsosen" />
		<tag k="natural" v="bay" />
		<tag k="ssr:stedsnr" v="699628" />
	</node>
	<node lat="59.63678888724388" lon="7.457830561683883" id="-29387">
		<tag k="name" v="Jensbekk" />
		<tag k="ssr:stedsnr" v="699643" />
		<tag k="waterway" v="stream" />
	</node>
	<node lat="59.63568333264584" lon="7.417008337902939" id="-29389">
		<tag k="name" v="Bringeneset" />
		<tag k="natural" v="cape" />
		<tag k="ssr:stedsnr" v="699645" />
	</node>
	<node lat="59.63840555285908" lon="7.403944441618116" id="-29390">
		<tag k="name" v="Midttjønn" />
		<tag k="natural" v="water" />
		<tag k="ssr:stedsnr" v="699647" />
	</node>
	<node lat="59.636533337709984" lon="7.429305548089253" id="-29394">
		<tag k="name" v="Vikvoddodden" />
		<tag k="natural" v="cape" />
		<tag k="ssr:stedsnr" v="699656" />
	</node>
	<node lat="59.31819722306438" lon="7.357016673897525" id="-29396">
		<tag k="alt_name" v="Mostjørn" />
		<tag k="name" v="Mostjønn" />
		<tag k="natural" v="water" />
		<tag k="ssr:stedsnr" v="699837" />
	</node>
	<node lat="59.31726944153412" lon="7.307641671233536" id="-29401">
		<tag k="alt_name" v="Fonnutdalstjørni" />
		<tag k="name" v="Fonnutdalstjønni" />
		<tag k="natural" v="water" />
		<tag k="ssr:stedsnr" v="699867" />
	</node>
	<node lat="59.31569999910209" lon="7.267902781345531" id="-29402">
		<tag k="name" v="Dapane" />
		<tag k="natural" v="water" />
		<tag k="ssr:stedsnr" v="699869" />
		<tag k="water" v="pond" />
	</node>
	<node lat="59.24418055446374" lon="7.039052773220479" id="-29413">
		<tag k="name" v="Kringlevatnet" />
		<tag k="natural" v="water" />
		<tag k="ssr:stedsnr" v="608789" />
		<tag k="water" v="lake" />
	</node>
	<node lat="59.46450000182811" lon="7.157333340147358" id="-29415">
		<tag k="name" v="Langetjønni" />
		<tag k="natural" v="water" />
		<tag k="ssr:stedsnr" v="609184" />
	</node>
	<node lat="59.35261944525469" lon="6.908147219102673" id="-29420">
		<tag k="name" v="Trettheddervatnet" />
		<tag k="natural" v="water" />
		<tag k="ssr:stedsnr" v="609238" />
		<tag k="water" v="lake" />
	</node>
	<node lat="59.30900832911939" lon="7.159586108003938" id="-29423">
		<tag k="name" v="Haugimillomtjønnane" />
		<tag k="natural" v="water" />
		<tag k="ssr:stedsnr" v="609289" />
	</node>
	<node lat="59.30746666704494" lon="7.1907805593996" id="-29428">
		<tag k="name" v="Storvatnet" />
		<tag k="natural" v="water" />
		<tag k="ssr:stedsnr" v="609433" />
	</node>
	<node lat="59.66483333410751" lon="7.236755563054862" id="-29430">
		<tag k="alt_name" v="Holmevasstjørni" />
		<tag k="name" v="Holmevasstjønni" />
		<tag k="natural" v="water" />
		<tag k="ssr:stedsnr" v="609446" />
	</node>
	<node lat="59.364100001486335" lon="7.389255550398793" id="-29432">
		<tag k="name" v="Tveiteråni" />
		<tag k="ssr:stedsnr" v="609555" />
		<tag k="waterway" v="stream" />
	</node>
	<node lat="59.64496070886607" lon="7.279826200906413" id="-29436">
		<tag k="alt_name" v="Gravevotni, midtre" />
		<tag k="name" v="Midtre Gravevotni" />
		<tag k="natural" v="water" />
		<tag k="ssr:stedsnr" v="610499" />
		<tag k="water" v="lake" />
	</node>
	<node lat="59.410991667649476" lon="7.412080562967736" id="-29448">
		<tag k="name" v="Glidbjørgsøyni" />
		<tag k="place" v="islet" />
		<tag k="ssr:stedsnr" v="638489" />
	</node>
	<node lat="59.494013884600186" lon="7.400377784435264" id="-29450">
		<tag k="name" v="Vetrehylen" />
		<tag k="place" v="locality" />
		<tag k="ssr:stedsnr" v="638607" />
	</node>
	<node lat="59.3090944409347" lon="7.368569448209357" id="-29613">
		<tag k="name" v="Trydalsbekken" />
		<tag k="ssr:stedsnr" v="669726" />
		<tag k="waterway" v="stream" />
	</node>
	<node lat="59.33085277886846" lon="7.2046916675284045" id="-29616">
		<tag k="name" v="Botsvatn" />
		<tag k="natural" v="water" />
		<tag k="ssr:stedsnr" v="670283" />
		<tag k="water" v="lake" />
	</node>
	<node lat="59.57705278214844" lon="7.303911117547841" id="-29617">
		<tag k="name" v="Kvernebekken" />
		<tag k="ssr:stedsnr" v="670284" />
		<tag k="waterway" v="stream" />
	</node>
	<node lat="59.43533333231981" lon="7.548208339240458" id="-29621">
		<tag k="alt_name" v="Skardstjørnin" />
		<tag k="name" v="Skardstjønnane" />
		<tag k="natural" v="water" />
		<tag k="ssr:stedsnr" v="670409" />
		<tag k="water" v="lake" />
	</node>
	<node lat="59.445200004124246" lon="6.994224996906509" id="-29622">
		<tag k="name" v="Heddevasslaupet" />
		<tag k="natural" v="strait" />
		<tag k="ssr:stedsnr" v="670171" />
	</node>
	<node lat="59.444500002854724" lon="6.979780550223205" id="-29623">
		<tag k="name" v="Heddevatnet" />
		<tag k="natural" v="water" />
		<tag k="ssr:stedsnr" v="670172" />
		<tag k="water" v="lake" />
	</node>
	<node lat="59.43692499857833" lon="7.145824997027911" id="-29625">
		<tag k="alt_name" v="Sandvotjønni;Urevasstjønni" />
		<tag k="name" v="Sandvodtjønni" />
		<tag k="natural" v="water" />
		<tag k="ssr:stedsnr" v="670324" />
	</node>
	<node lat="59.43377222207318" lon="7.0447527712528295" id="-29627">
		<tag k="loc_name" v="Blåbergkilen" />
		<tag k="name" v="Blåbergåskilen" />
		<tag k="natural" v="water" />
		<tag k="ssr:stedsnr" v="670328" />
	</node>
	<node lat="59.470858331543134" lon="7.566750001802893" id="-29630">
		<tag k="alt_name" v="Den lange tjørni" />
		<tag k="name" v="Den lange tjønni" />
		<tag k="natural" v="water" />
		<tag k="ssr:stedsnr" v="670379" />
	</node>
	<node lat="59.4614166646944" lon="7.516388882314602" id="-29632">
		<tag k="alt_name" v="Tverrheitjørni" />
		<tag k="name" v="Tverrheitjønni" />
		<tag k="natural" v="water" />
		<tag k="ssr:stedsnr" v="670383" />
	</node>
	<node lat="59.51010555277223" lon="7.5413388812958395" id="-29635">
		<tag k="name" v="Gråsteinsvatn" />
		<tag k="natural" v="water" />
		<tag k="ssr:stedsnr" v="670617" />
	</node>
	<node lat="59.55681388529422" lon="7.316786105505405" id="-29639">
		<tag k="name" v="Grananeset" />
		<tag k="natural" v="cape" />
		<tag k="ssr:stedsnr" v="690377" />
	</node>
	<node lat="59.570308332766174" lon="7.300877779588352" id="-29645">
		<tag k="name" v="Sandviki" />
		<tag k="natural" v="bay" />
		<tag k="ssr:stedsnr" v="699564" />
	</node>
	<node lat="59.482427779053616" lon="7.411672215356522" id="-29650">
		<tag k="name" v="Maurliøyane" />
		<tag k="place" v="island" />
		<tag k="ssr:stedsnr" v="699580" />
	</node>
	<node lat="59.32178611447838" lon="7.331436104790633" id="-29652">
		<tag k="name" v="Sandviki" />
		<tag k="natural" v="bay" />
		<tag k="ssr:stedsnr" v="699829" />
	</node>
	<node lat="59.45874444509022" lon="7.171286112445866" id="-29815">
		<tag k="alt_name" v="Lisle Urevatn" />
		<tag k="name" v="Lisle-Urevatn" />
		<tag k="natural" v="water" />
		<tag k="ssr:stedsnr" v="730168" />
		<tag k="water" v="lake" />
	</node>
	<node lat="59.42735277556745" lon="7.020950001094671" id="-29822">
		<tag k="name" v="Den lange tjønni" />
		<tag k="natural" v="water" />
		<tag k="ssr:stedsnr" v="730320" />
	</node>
	<node lat="59.34791944660745" lon="7.241802777136161" id="-29824">
		<tag k="name" v="Fossbekken" />
		<tag k="ssr:stedsnr" v="730262" />
		<tag k="waterway" v="stream" />
	</node>
	<node lat="59.48842777386625" lon="7.455200004308285" id="-29829">
		<tag k="name" v="Geiskeliåni" />
		<tag k="ssr:stedsnr" v="730522" />
		<tag k="waterway" v="river" />
	</node>
	<node lat="59.38190351060896" lon="7.346669121781641" id="-29841">
		<tag k="name" v="Heitjønn" />
		<tag k="natural" v="water" />
		<tag k="ssr:stedsnr" v="731304" />
	</node>
	<node lat="59.421897222467244" lon="7.380236114501789" id="-29844">
		<tag k="name" v="Tjoveholsbekken" />
		<tag k="ssr:stedsnr" v="731397" />
		<tag k="waterway" v="stream" />
	</node>
	<node lat="59.56789330996391" lon="7.233477843580381" id="-30061">
		<tag k="name" v="Tormodstjønn" />
		<tag k="natural" v="water" />
		<tag k="ssr:stedsnr" v="755397" />
	</node>
	<node lat="59.3670000025719" lon="7.302349991712261" id="-30063">
		<tag k="name" v="Fitshyl" />
		<tag k="place" v="locality" />
		<tag k="ssr:stedsnr" v="755850" />
	</node>
	<node lat="59.57301111469716" lon="7.2782750011676445" id="-30065">
		<tag k="name" v="Steintangen" />
		<tag k="natural" v="cape" />
		<tag k="ssr:stedsnr" v="759604" />
	</node>
	<node lat="59.567019440919104" lon="7.269030553457884" id="-30068">
		<tag k="name" v="Kyrsveltbekken" />
		<tag k="ssr:stedsnr" v="759596" />
		<tag k="waterway" v="stream" />
	</node>
	<node lat="59.353461114246144" lon="7.329377771933446" id="-30074">
		<tag k="name" v="Litjørn" />
		<tag k="natural" v="water" />
		<tag k="ssr:stedsnr" v="759909" />
	</node>
	<node lat="59.35658610897748" lon="7.353188897302525" id="-30075">
		<tag k="name" v="Kvernebekken" />
		<tag k="ssr:stedsnr" v="759911" />
		<tag k="waterway" v="stream" />
	</node>
	<node lat="59.34579166725183" lon="7.285741670314138" id="-30076">
		<tag k="name" v="Hylen" />
		<tag k="place" v="locality" />
		<tag k="ssr:stedsnr" v="759912" />
	</node>
	<node lat="59.63442777720887" lon="7.396447217074105" id="-30078">
		<tag k="name" v="Svarttjønn" />
		<tag k="natural" v="water" />
		<tag k="ssr:stedsnr" v="759652" />
	</node>
	<node lat="59.51212778038657" lon="7.448669439124564" id="-30079">
		<tag k="name" v="Maurlibekken" />
		<tag k="ssr:stedsnr" v="759653" />
		<tag k="waterway" v="stream" />
	</node>
	<node lat="59.4396138904416" lon="7.2433749971605605" id="-30207">
		<tag k="name" v="Nygardstjønni" />
		<tag k="natural" v="water" />
		<tag k="ssr:stedsnr" v="791311" />
	</node>
	<node lat="59.400336106944536" lon="7.219475001946661" id="-30210">
		<tag k="name" v="Reinevassåni" />
		<tag k="ssr:stedsnr" v="791321" />
		<tag k="waterway" v="river" />
	</node>
	<node lat="59.36516666690748" lon="7.2597666687562885" id="-30215">
		<tag k="name" v="Småtjønnane" />
		<tag k="natural" v="water" />
		<tag k="ssr:stedsnr" v="791351" />
		<tag k="water" v="lake" />
	</node>
	<node lat="59.35027777677444" lon="7.201186119015588" id="-30217">
		<tag k="name" v="Trågumsåni" />
		<tag k="ssr:stedsnr" v="791261" />
		<tag k="waterway" v="stream" />
	</node>
	<node lat="59.39948055155887" lon="7.4138777700765415" id="-30223">
		<tag k="name" v="Stedjebekken" />
		<tag k="old_name" v="Steggjebekken" />
		<tag k="ssr:stedsnr" v="791600" />
		<tag k="waterway" v="stream" />
	</node>
	<node lat="59.65187778048106" lon="7.285883328525343" id="-30228">
		<tag k="alt_name" v="Gravevotni, nedre" />
		<tag k="name" v="Nedre Gravevotni" />
		<tag k="natural" v="water" />
		<tag k="ssr:stedsnr" v="792442" />
		<tag k="water" v="lake" />
	</node>
	<node lat="59.64540833115405" lon="7.321005557334733" id="-30229">
		<tag k="name" v="Kaldsåni" />
		<tag k="ssr:stedsnr" v="792443" />
		<tag k="waterway" v="river" />
	</node>
	<node lat="59.65051666392944" lon="7.250052783457869" id="-30230">
		<tag k="name" v="Sloarosvatnet" />
		<tag k="natural" v="water" />
		<tag k="ssr:stedsnr" v="792445" />
		<tag k="water" v="lake" />
	</node>
	<node lat="59.379208329127124" lon="7.092974994041214" id="-30231">
		<tag k="name" v="Ratevatnet" />
		<tag k="natural" v="water" />
		<tag k="ssr:stedsnr" v="792637" />
		<tag k="water" v="lake" />
	</node>
	<node lat="59.377380559889346" lon="6.806627776930663" id="-30233">
		<tag k="name" v="Urdanutvatnet" />
		<tag k="natural" v="water" />
		<tag k="ssr:stedsnr" v="912194" />
		<tag k="water" v="lake" />
	</node>
	<node lat="59.36779721823281" lon="6.875602784686389" id="-30236">
		<tag k="name" v="Flingrevatnet" />
		<tag k="natural" v="water" />
		<tag k="ssr:stedsnr" v="912249" />
	</node>
	<node lat="59.41008798353021" lon="7.483674409446626" id="-30242">
		<tag k="alt_name" v="Breidskardtjønn;Breidskardtjørnan" />
		<tag k="name" v="Breidskardtjønnane" />
		<tag k="natural" v="water" />
		<tag k="old_name" v="Breidskardtjørnin" />
		<tag k="ssr:stedsnr" v="912448" />
		<tag k="water" v="lake" />
	</node>
	<node lat="59.60229383128782" lon="7.378405920310846" id="-30244">
		<tag k="name" v="Lislevatn" />
		<tag k="natural" v="water" />
		<tag k="ssr:stedsnr" v="913683" />
		<tag k="water" v="lake" />
	</node>
	<node lat="59.60143610747514" lon="7.43688333615237" id="-30245">
		<tag k="name" v="Lislefjøddåi" />
		<tag k="ssr:stedsnr" v="913685" />
		<tag k="waterway" v="stream" />
	</node>
	<node lat="59.40202500336569" lon="7.441625007647786" id="-30246">
		<tag k="alt_name" v="Hågåstjønni;Hågåstjørnan" />
		<tag k="name" v="Hågåstjønnane" />
		<tag k="natural" v="water" />
		<tag k="old_name" v="Hågåstjørnin" />
		<tag k="ssr:stedsnr" v="912634" />
	</node>
	<node lat="59.24906666863033" lon="6.996575005323613" id="-30247">
		<tag k="name" v="Brundtjørni" />
		<tag k="natural" v="water" />
		<tag k="ssr:stedsnr" v="912760" />
	</node>
	<node lat="59.23235000004382" lon="7.035000001430094" id="-30248">
		<tag k="alt_name" v="Breidåtjørni" />
		<tag k="name" v="Breidåtjønni" />
		<tag k="natural" v="water" />
		<tag k="ssr:stedsnr" v="912775" />
	</node>
	<node lat="59.49835833005552" lon="7.2924916682941365" id="-30250">
		<tag k="name" v="Kaldsvatn" />
		<tag k="natural" v="water" />
		<tag k="ssr:stedsnr" v="913131" />
		<tag k="water" v="lake" />
	</node>
	<node lat="59.465030551686965" lon="7.231358336155886" id="-30253">
		<tag k="alt_name" v="Vatnedalsvatnet" />
		<tag k="name" v="Vatndalsvatnet" />
		<tag k="natural" v="water" />
		<tag k="ssr:stedsnr" v="913177" />
		<tag k="water" v="lake" />
	</node>
	<node lat="59.553513890487615" lon="7.244880556471937" id="-30254">
		<tag k="alt_name" v="Bergetjørnin" />
		<tag k="name" v="Bergetjønni" />
		<tag k="natural" v="water" />
		<tag k="ssr:stedsnr" v="913254" />
	</node>
	<node lat="59.55281388743739" lon="7.174069448313222" id="-30255">
		<tag k="alt_name" v="Førsvatn, store" />
		<tag k="name" v="Store Førsvatn" />
		<tag k="natural" v="water" />
		<tag k="ssr:stedsnr" v="913258" />
		<tag k="water" v="lake" />
	</node>
	<node lat="59.32303889255003" lon="7.154524998216933" id="-30258">
		<tag k="name" v="Ånaråneset" />
		<tag k="natural" v="cape" />
		<tag k="ssr:stedsnr" v="913274" />
	</node>
	<node lat="59.61972777947835" lon="7.176447219963787" id="-30266">
		<tag k="name" v="Skyvatn" />
		<tag k="natural" v="water" />
		<tag k="ssr:stedsnr" v="913424" />
		<tag k="water" v="lake" />
	</node>
	<node lat="59.5948833315254" lon="7.4697166673266775" id="-30269">
		<tag k="alt_name" v="Olavstogtjønn;Olavsstogtjørni" />
		<tag k="name" v="Olavsstogtjønni" />
		<tag k="natural" v="water" />
		<tag k="old_name" v="Olavstogtjørni" />
		<tag k="ssr:stedsnr" v="913676" />
	</node>
	<node lat="59.55631110669254" lon="7.350872219238369" id="-30270">
		<tag k="alt_name" v="Gardtjørnane" />
		<tag k="name" v="Gardtjønnane" />
		<tag k="natural" v="water" />
		<tag k="old_name" v="Gardtjørnin" />
		<tag k="ssr:stedsnr" v="913717" />
		<tag k="water" v="lake" />
	</node>
	<node lat="59.30735000053926" lon="7.308100005257479" id="-30278">
		<tag k="name" v="Libekk" />
		<tag k="ssr:stedsnr" v="816869" />
		<tag k="waterway" v="stream" />
	</node>
	<node lat="59.42037499975716" lon="7.40765833300996" id="-30286">
		<tag k="name" v="Hæknehylen" />
		<tag k="place" v="locality" />
		<tag k="ssr:stedsnr" v="820607" />
	</node>
	<node lat="59.50512500135074" lon="7.380116658274994" id="-30287">
		<tag k="name" v="Fjorungsbekken" />
		<tag k="ssr:stedsnr" v="820610" />
		<tag k="waterway" v="stream" />
	</node>
	<node lat="59.33835277605913" lon="7.294491675380466" id="-30295">
		<tag k="name" v="Tygleneset" />
		<tag k="natural" v="cape" />
		<tag k="ssr:stedsnr" v="820906" />
	</node>
	<node lat="59.30046944659949" lon="7.3407111155415645" id="-30298">
		<tag k="name" v="Raudkleivfossen" />
		<tag k="natural" v="waterfall" />
		<tag k="ssr:stedsnr" v="820867" />
	</node>
	<node lat="59.429349997016445" lon="7.390808325625862" id="-30419">
		<tag k="name" v="Hoslemobekken" />
		<tag k="ssr:stedsnr" v="852411" />
		<tag k="waterway" v="stream" />
	</node>
	<node lat="59.35793333234686" lon="7.412238887084091" id="-30426">
		<tag k="name" v="Reidalsåni" />
		<tag k="ssr:stedsnr" v="852575" />
		<tag k="waterway" v="stream" />
	</node>
	<node lat="59.589027782211765" lon="7.309002775321238" id="-30431">
		<tag k="alt_name" v="Stemtjørni" />
		<tag k="name" v="Stemtjønni" />
		<tag k="natural" v="water" />
		<tag k="ssr:stedsnr" v="853271" />
	</node>
	<node lat="59.553730555538394" lon="7.425966665277815" id="-30436">
		<tag k="name" v="Byrtemannsbekken" />
		<tag k="ssr:stedsnr" v="853730" />
		<tag k="waterway" v="stream" />
	</node>
	<node lat="59.392991090665795" lon="7.328507053337713" id="-30438">
		<tag k="name" v="Mørketjønn" />
		<tag k="natural" v="water" />
		<tag k="ssr:stedsnr" v="877853" />
	</node>
	<node lat="59.44494166246543" lon="7.174772215029543" id="-30439">
		<tag k="name" v="Skurvetjønni" />
		<tag k="natural" v="water" />
		<tag k="ssr:stedsnr" v="877901" />
	</node>
	<node lat="59.40578332894809" lon="7.403188882353906" id="-30449">
		<tag k="name" v="Skardsmobekken" />
		<tag k="ssr:stedsnr" v="881512" />
		<tag k="waterway" v="stream" />
	</node>
</osm>
