<?xml version="1.0" encoding="UTF-8"?>
<osm generator="osmapis" version="0.6">
	<node id="-56311" lat="59.3293361086" lon="7.40985554802">
		<tag k="name" v="Gryggjetveit" />
		<tag k="place" v="locality" />
		<tag k="ssr:stedsnr" v="31926" />
	</node>
	<node id="-55157" lat="59.518849999" lon="7.45282777295">
		<tag k="name" v="Såta" />
		<tag k="place" v="locality" />
		<tag k="ssr:stedsnr" v="699622" />
	</node>
	<node id="-56301" lat="59.3221305564" lon="7.33908888673">
		<tag k="name" v="Hestevelt" />
		<tag k="place" v="locality" />
		<tag k="ssr:stedsnr" v="31833" />
	</node>
	<node id="-58450" lat="59.561600003" lon="7.35361944625">
		<tag k="alt_name" v="Hovden kapell" />
		<tag k="amenity" v="place_of_worship" />
		<tag k="denomination" v="lutheran" />
		<tag k="name" v="Hovden" />
		<tag k="religion" v="christian" />
		<tag k="ssr:stedsnr" v="549716" />
	</node>
	<node id="-53463" lat="59.6163666647" lon="7.37703056305">
		<tag k="name" v="Kloppi" />
		<tag k="place" v="locality" />
		<tag k="ssr:stedsnr" v="274614" />
	</node>
	<node id="-53972" lat="59.3583972186" lon="7.39758889485">
		<tag k="name" v="Leitet" />
		<tag k="place" v="locality" />
		<tag k="ssr:stedsnr" v="517978" />
	</node>
	<node id="-55122" lat="59.614752774" lon="7.38436944626">
		<tag k="name" v="Hylen" />
		<tag k="place" v="locality" />
		<tag k="ssr:stedsnr" v="881631" />
	</node>
	<node id="-55121" lat="59.5961861087" lon="7.47529444972">
		<tag k="name" v="Olavstog" />
		<tag k="place" v="locality" />
		<tag k="ssr:stedsnr" v="881616" />
	</node>
	<node id="-56904" lat="59.324997223" lon="7.35017500545">
		<tag k="name" v="Skuta" />
		<tag k="place" v="locality" />
		<tag k="ssr:stedsnr" v="152856" />
	</node>
	<node id="-56903" lat="59.3193305565" lon="7.34926389507">
		<tag k="name" v="Fjosi" />
		<tag k="place" v="locality" />
		<tag k="ssr:stedsnr" v="152850" />
	</node>
	<node id="-55878" lat="59.3449972259" lon="7.41125554856">
		<tag k="name" v="Slakteplassen" />
		<tag k="place" v="locality" />
		<tag k="ssr:stedsnr" v="943000" />
	</node>
	<node id="-54981" lat="59.3903236743" lon="7.44875130521">
		<tag k="alt_name" v="Lunden" />
		<tag k="name" v="Lundan" />
		<tag k="old_name" v="Lundane" />
		<tag k="place" v="locality" />
		<tag k="ssr:stedsnr" v="730672" />
	</node>
	<node id="-57412" lat="59.6378666662" lon="7.42365555813">
		<tag k="name" v="Rjodet" />
		<tag k="place" v="locality" />
		<tag k="ssr:stedsnr" v="335687" />
	</node>
	<node id="-55107" lat="59.3828888931" lon="7.37861388008">
		<tag k="name" v="Byklebø" />
		<tag k="place" v="locality" />
		<tag k="ssr:stedsnr" v="881497" />
	</node>
	<node id="-53437" lat="59.3182527749" lon="7.36404722713">
		<tag k="name" v="Ånundsbu" />
		<tag k="place" v="locality" />
		<tag k="ssr:stedsnr" v="456857" />
	</node>
	<node id="-54966" lat="59.351952742" lon="7.25323400957">
		<tag k="name" v="Seten" />
		<tag k="place" v="locality" />
		<tag k="ssr:stedsnr" v="730264" />
	</node>
	<node id="-53429" lat="59.6201305589" lon="7.37250277009">
		<tag k="name" v="Ørnereiret" />
		<tag k="place" v="locality" />
		<tag k="ssr:stedsnr" v="456643" />
	</node>
	<node id="-52915" lat="59.6404527739" lon="7.43518889359">
		<tag k="name" v="Seten" />
		<tag k="place" v="locality" />
		<tag k="ssr:stedsnr" v="274644" />
	</node>
	<node id="-54568" lat="59.5748694459" lon="7.26786945258">
		<tag k="name" v="Viknesdokki" />
		<tag k="place" v="locality" />
		<tag k="ssr:stedsnr" v="699548" />
	</node>
	<node id="-56229" lat="59.41368761" lon="7.28817030036">
		<tag k="name" v="Steinbui" />
		<tag k="place" v="locality" />
		<tag k="ssr:stedsnr" v="2365" />
	</node>
	<node id="-58916" lat="59.3190805552" lon="7.35764722823">
		<tag k="name" v="Kvernhusi" />
		<tag k="place" v="locality" />
		<tag k="ssr:stedsnr" v="759828" />
	</node>
	<node id="-55583" lat="59.3519305518" lon="7.34429999339">
		<tag k="amenity" v="place_of_worship" />
		<tag k="denomination" v="lutheran" />
		<tag k="name" v="Bykle" />
		<tag k="religion" v="christian" />
		<tag k="ssr:stedsnr" v="913549" />
	</node>
	<node id="-54427" lat="59.3874499992" lon="7.39060277193">
		<tag k="name" v="Iverone" />
		<tag k="place" v="locality" />
		<tag k="ssr:stedsnr" v="517710" />
	</node>
	<node id="-59280" lat="59.5695611101" lon="7.30441111125">
		<tag k="name" v="Leiti" />
		<tag k="place" v="locality" />
		<tag k="ssr:stedsnr" v="820590" />
	</node>
	<node id="-59535" lat="59.6437593442" lon="7.455420568">
		<tag k="name" v="Hemlemoen" />
		<tag k="place" v="locality" />
		<tag k="ssr:stedsnr" v="853533" />
	</node>
	<node id="-56589" lat="59.2924111091" lon="7.37161111876">
		<tag k="name" v="Sessene" />
		<tag k="place" v="locality" />
		<tag k="ssr:stedsnr" v="92860" />
	</node>
	<node id="-57346" lat="59.3068583372" lon="7.36093611379">
		<tag k="name" v="Lomskro" />
		<tag k="place" v="locality" />
		<tag k="ssr:stedsnr" v="214891" />
	</node>
	<node id="-56586" lat="59.3105666705" lon="7.32906110898">
		<tag k="name" v="Hisdalsbuene" />
		<tag k="place" v="locality" />
		<tag k="ssr:stedsnr" v="92836" />
	</node>
	<node id="-58887" lat="59.5300027786" lon="7.10229166525">
		<tag k="name" v="Badstoga" />
		<tag k="place" v="locality" />
		<tag k="ssr:stedsnr" v="755401" />
	</node>
	<node id="-58882" lat="59.5634944471" lon="7.35552778273">
		<tag k="amenity" v="community_centre" />
		<tag k="name" v="Hovden grendehus" />
		<tag k="ssr:stedsnr" v="751368" />
	</node>
</osm>
