<?xml version="1.0" encoding="UTF-8"?>
<osm version="0.6" generator="osmapis">
	<node lat="59.18740555616351" lon="6.844597221924145" id="-30361">
		<tag k="name" v="Auråskardet" />
		<tag k="natural" v="valley" />
		<tag k="place" v="locality" />
		<tag k="ssr:stedsnr" v="1235" />
	</node>
	<node lat="59.49378055956809" lon="7.323236119443342" id="-30362">
		<tag k="alt_name" v="Ørnefjøddalen" />
		<tag k="name" v="Ørnefjelldalen" />
		<tag k="natural" v="valley" />
		<tag k="place" v="locality" />
		<tag k="ssr:stedsnr" v="2135" />
	</node>
	<node lat="59.322411111078026" lon="7.140799997683675" id="-30363">
		<tag k="name" v="Skolås" />
		<tag k="place" v="locality" />
		<tag k="ssr:stedsnr" v="2307" />
	</node>
	<node lat="59.34009999950865" lon="7.317725004665806" id="-30364">
		<tag k="name" v="Eirikshovden" />
		<tag k="natural" v="hill" />
		<tag k="place" v="locality" />
		<tag k="ssr:stedsnr" v="2310" />
	</node>
	<node lat="59.31563611193936" lon="7.176941662063436" id="-30365">
		<tag k="fixme" v="consider natural=peak for the most distinct mountains in the district" />
		<tag k="name" v="Åsnuten" />
		<tag k="natural" v="hill" />
		<tag k="place" v="locality" />
		<tag k="ssr:stedsnr" v="2324" />
	</node>
	<node lat="59.32445277673076" lon="7.323074992874337" id="-30366">
		<tag k="name" v="Stigamellom" />
		<tag k="natural" v="hill" />
		<tag k="place" v="locality" />
		<tag k="ssr:stedsnr" v="2330" />
	</node>
	<node lat="59.427541402336146" lon="7.223961768564901" id="-30367">
		<tag k="alt_name" v="Reinevasstjønni" />
		<tag k="name" v="Snjoheitjønni" />
		<tag k="natural" v="water" />
		<tag k="ssr:stedsnr" v="2343" />
	</node>
	<node lat="59.41783888826372" lon="6.932005562252319" id="-30368">
		<tag k="fixme" v="consider natural=peak for the most distinct mountains in the district" />
		<tag k="name" v="Skreinuten" />
		<tag k="natural" v="hill" />
		<tag k="place" v="locality" />
		<tag k="ssr:stedsnr" v="2213" />
	</node>
	<node lat="59.29128889005658" lon="7.0816944402614626" id="-30369">
		<tag k="name" v="Austmannskard" />
		<tag k="natural" v="valley" />
		<tag k="place" v="locality" />
		<tag k="ssr:stedsnr" v="2485" />
	</node>
	<node lat="59.28420832988609" lon="7.107936118512399" id="-30370">
		<tag k="fixme" v="consider natural=peak for the most distinct mountains in the district" />
		<tag k="loc_name" v="Steineheii" />
		<tag k="name" v="Steinheii" />
		<tag k="natural" v="hill" />
		<tag k="place" v="locality" />
		<tag k="ssr:stedsnr" v="2493" />
	</node>
	<node lat="59.36053333595329" lon="7.382269445892251" id="-30371">
		<tag k="fixme" v="consider natural=peak for the most distinct mountains in the district" />
		<tag k="name" v="Teråsen" />
		<tag k="natural" v="hill" />
		<tag k="old_name" v="Tereåsen" />
		<tag k="place" v="locality" />
		<tag k="ssr:stedsnr" v="2606" />
	</node>
	<node lat="59.371227773421055" lon="7.455391675042382" id="-30372">
		<tag k="alt_name" v="Stridemonutane" />
		<tag k="fixme" v="consider natural=peak for the most distinct mountains in the district" />
		<tag k="name" v="Stridsmonutan" />
		<tag k="natural" v="hill" />
		<tag k="old_name" v="Stridsmonutane" />
		<tag k="place" v="locality" />
		<tag k="ssr:stedsnr" v="2613" />
	</node>
	<node lat="59.40371111493648" lon="7.400044439582607" id="-30373">
		<tag k="name" v="Skardsmo" />
		<tag k="old_name" v="Skardsmoen" />
		<tag k="place" v="locality" />
		<tag k="ssr:stedsnr" v="2629" />
	</node>
	<node lat="59.31323055269721" lon="7.364697220001056" id="-30374">
		<tag k="name" v="Optestøyl" />
		<tag k="old_name" v="Optestøl" />
		<tag k="place" v="farm" />
		<tag k="ssr:stedsnr" v="2540" />
	</node>
	<node lat="59.35269721800804" lon="7.462541674731016" id="-30375">
		<tag k="alt_name" v="Rotafjødd" />
		<tag k="fixme" v="consider natural=peak for the most distinct mountains in the district" />
		<tag k="name" v="Rotafjellet" />
		<tag k="natural" v="hill" />
		<tag k="old_name" v="Rotafjell" />
		<tag k="place" v="locality" />
		<tag k="ssr:stedsnr" v="2593" />
	</node>
	<node lat="59.347847223321665" lon="7.445738889234422" id="-30376">
		<tag k="fixme" v="consider natural=peak for the most distinct mountains in the district" />
		<tag k="name" v="Grjotdalsnuten" />
		<tag k="natural" v="hill" />
		<tag k="place" v="locality" />
		<tag k="ssr:stedsnr" v="2594" />
	</node>
	<node lat="59.654983329769735" lon="7.265208328934354" id="-30377">
		<tag k="fixme" v="consider natural=peak for the most distinct mountains in the district" />
		<tag k="name" v="Sloarosnuten" />
		<tag k="natural" v="hill" />
		<tag k="place" v="locality" />
		<tag k="ssr:stedsnr" v="3420" />
	</node>
	<node lat="59.654661106925836" lon="7.163724994047187" id="-30378">
		<tag k="name" v="Storheller" />
		<tag k="place" v="locality" />
		<tag k="ssr:stedsnr" v="3425" />
	</node>
	<node lat="59.62480555860961" lon="7.284480547552486" id="-30379">
		<tag k="fixme" v="consider natural=peak for the most distinct mountains in the district" />
		<tag k="name" v="Mjåvasseggi" />
		<tag k="natural" v="hill" />
		<tag k="place" v="locality" />
		<tag k="ssr:stedsnr" v="3397" />
	</node>
	<node lat="59.61135000190602" lon="7.359358335666889" id="-30380">
		<tag k="fixme" v="consider natural=peak for the most distinct mountains in the district" />
		<tag k="name" v="Mjåvassristi" />
		<tag k="natural" v="hill" />
		<tag k="place" v="locality" />
		<tag k="ssr:stedsnr" v="3689" />
	</node>
	<node lat="59.55906944820913" lon="7.355869435839446" id="-30381">
		<tag k="name" v="Haugly gjesteheim" />
		<tag k="ssr:stedsnr" v="3726" />
		<tag k="tourism" v="hotel" />
	</node>
	<node lat="59.285277774834015" lon="7.407258332271766" id="-30400">
		<tag k="name" v="Klamrebekken" />
		<tag k="ssr:stedsnr" v="22116" />
		<tag k="waterway" v="stream" />
	</node>
	<node lat="59.60292500404491" lon="7.405202784420062" id="-30412">
		<tag k="name" v="Lundebekken" />
		<tag k="ssr:stedsnr" v="23290" />
		<tag k="waterway" v="stream" />
	</node>
	<node lat="59.618461110385965" lon="7.406594440877668" id="-30413">
		<tag k="alt_name" v="Løebakknuten" />
		<tag k="name" v="Løbakknuten" />
		<tag k="natural" v="hill" />
		<tag k="place" v="locality" />
		<tag k="ssr:stedsnr" v="23291" />
	</node>
	<node lat="59.49429444080503" lon="7.44256943941259" id="-30418">
		<tag k="name" v="Geiskelii" />
		<tag k="natural" v="slope" />
		<tag k="place" v="locality" />
		<tag k="ssr:stedsnr" v="233967" />
	</node>
	<node lat="59.5585555560637" lon="7.33619722579109" id="-30422">
		<tag k="name" v="Plassenuten" />
		<tag k="natural" v="hill" />
		<tag k="place" v="locality" />
		<tag k="ssr:stedsnr" v="23396" />
	</node>
	<node lat="59.546150002241546" lon="7.300725007593941" id="-30480">
		<tag k="name" v="Råsehalli" />
		<tag k="natural" v="slope" />
		<tag k="place" v="locality" />
		<tag k="ssr:stedsnr" v="27409" />
	</node>
	<node lat="59.4034361121783" lon="7.263872215691821" id="-30504">
		<tag k="fixme" v="consider natural=peak for the most distinct mountains in the district" />
		<tag k="name" v="Blomstøylnuten" />
		<tag k="natural" v="hill" />
		<tag k="place" v="locality" />
		<tag k="ssr:stedsnr" v="28868" />
	</node>
	<node lat="59.35481944272193" lon="7.35401111605036" id="-30542">
		<tag k="name" v="Jarehaugen" />
		<tag k="place" v="farm" />
		<tag k="ssr:stedsnr" v="235351" />
	</node>
	<node lat="59.38106666871939" lon="7.3844638959632745" id="-30545">
		<tag k="name" v="Høymyrsmyrane" />
		<tag k="natural" v="wetland" />
		<tag k="ssr:stedsnr" v="31514" />
	</node>
	<node lat="59.41591666563459" lon="7.396086102935122" id="-30546">
		<tag k="name" v="Takkli" />
		<tag k="natural" v="slope" />
		<tag k="place" v="locality" />
		<tag k="ssr:stedsnr" v="31520" />
	</node>
	<node lat="59.475130556580766" lon="7.246880560167969" id="-30547">
		<tag k="name" v="Øykjelibekken" />
		<tag k="ssr:stedsnr" v="31576" />
		<tag k="waterway" v="stream" />
	</node>
	<node lat="59.43771666749016" lon="7.45182221750618" id="-30548">
		<tag k="name" v="Berdalsmoane" />
		<tag k="place" v="locality" />
		<tag k="ssr:stedsnr" v="31582" />
	</node>
	<node lat="59.437194443844795" lon="7.372397225983975" id="-30549">
		<tag k="historic" v="shieling" />
		<tag k="name" v="Lognestøyl" />
		<tag k="place" v="isolated_dwelling" />
		<tag k="ssr:stedsnr" v="31583" />
	</node>
	<node lat="59.43719444301327" lon="7.392336105301903" id="-30550">
		<tag k="fixme" v="consider natural=peak for the most distinct mountains in the district" />
		<tag k="name" v="Lislefjødd" />
		<tag k="natural" v="hill" />
		<tag k="place" v="locality" />
		<tag k="ssr:stedsnr" v="31586" />
	</node>
	<node lat="59.565122220248576" lon="7.345969452324904" id="-30551">
		<tag k="name" v="Dyregrendi" />
		<tag k="place" v="hamlet" />
		<tag k="ssr:stedsnr" v="31666" />
	</node>
	<node lat="59.637272219499714" lon="7.464738884917879" id="-30552">
		<tag k="historic" v="shieling" />
		<tag k="name" v="Buskarstøylen" />
		<tag k="place" v="isolated_dwelling" />
		<tag k="ssr:stedsnr" v="31684" />
	</node>
	<node lat="59.42735278215868" lon="7.010536103844665" id="-30553">
		<tag k="fixme" v="consider natural=peak for the most distinct mountains in the district" />
		<tag k="name" v="Bergi" />
		<tag k="natural" v="hill" />
		<tag k="place" v="locality" />
		<tag k="ssr:stedsnr" v="31809" />
	</node>
	<node lat="59.4915027785455" lon="7.193341668089227" id="-30554">
		<tag k="name" v="Heggli" />
		<tag k="place" v="locality" />
		<tag k="ssr:stedsnr" v="31817" />
	</node>
	<node lat="59.362872226652605" lon="7.292233328771405" id="-30559">
		<tag k="name" v="Fitsfjøddkvæven" />
		<tag k="natural" v="valley" />
		<tag k="place" v="locality" />
		<tag k="ssr:stedsnr" v="31904" />
	</node>
	<node lat="59.33246388794047" lon="7.378480546885838" id="-30560">
		<tag k="name" v="Tone" />
		<tag k="natural" v="valley" />
		<tag k="place" v="locality" />
		<tag k="ssr:stedsnr" v="31925" />
	</node>
	<node lat="59.299725003949796" lon="7.425416659062752" id="-30561">
		<tag k="name" v="Røyrtveithaugane" />
		<tag k="natural" v="hill" />
		<tag k="place" v="locality" />
		<tag k="ssr:stedsnr" v="31962" />
	</node>
	<node lat="59.30146666582244" lon="7.405988896218468" id="-30562">
		<tag k="historic" v="shieling" />
		<tag k="name" v="Nedre Løken" />
		<tag k="place" v="isolated_dwelling" />
		<tag k="ssr:stedsnr" v="31967" />
	</node>
	<node lat="59.30557778229334" lon="7.420988890053501" id="-30563">
		<tag k="name" v="Ormebakkane" />
		<tag k="natural" v="slope" />
		<tag k="place" v="locality" />
		<tag k="ssr:stedsnr" v="31972" />
	</node>
	<node lat="59.364563893055355" lon="7.424611114242165" id="-30564">
		<tag k="alt_name" v="Kolsviktjørn" />
		<tag k="name" v="Kolsviktjønn" />
		<tag k="natural" v="water" />
		<tag k="ssr:stedsnr" v="31980" />
	</node>
	<node lat="59.30673328146358" lon="7.426409291539871" id="-30623">
		<tag k="alt_name" v="Gaukstone" />
		<tag k="historic" v="shieling" />
		<tag k="name" v="Gauketostøylen" />
		<tag k="place" v="isolated_dwelling" />
		<tag k="ssr:stedsnr" v="52014" />
	</node>
	<node lat="59.17380833175229" lon="7.342336115303057" id="-30737">
		<tag k="fixme" v="consider boundary=protected_area and relevant protect_class if not nature reserve" />
		<tag k="leisure" v="nature_reserve" />
		<tag k="name" v="Setesdal Vesthei Ryfylkeheiane landskapsvernområde" />
		<tag k="ssr:stedsnr" v="60524" />
	</node>
	<node lat="59.223988656632876" lon="6.970173153288442" id="-30738">
		<tag k="name" v="Smalevatnet" />
		<tag k="natural" v="water" />
		<tag k="ssr:stedsnr" v="62769" />
		<tag k="water" v="lake" />
	</node>
	<node lat="59.38542222644973" lon="6.91235832642171" id="-30739">
		<tag k="fixme" v="consider natural=peak for the most distinct mountains in the district" />
		<tag k="name" v="Simlenuten" />
		<tag k="natural" v="hill" />
		<tag k="place" v="locality" />
		<tag k="ssr:stedsnr" v="63203" />
	</node>
	<node lat="59.35143333628997" lon="7.289233328119317" id="-30740">
		<tag k="name" v="Skarg" />
		<tag k="place" v="farm" />
		<tag k="ssr:stedsnr" v="63266" />
	</node>
	<node lat="59.3479277750515" lon="7.295213896426609" id="-30741">
		<tag k="name" v="Lauvtjønndalen" />
		<tag k="natural" v="valley" />
		<tag k="place" v="locality" />
		<tag k="ssr:stedsnr" v="63267" />
	</node>
	<node lat="59.357827775886165" lon="7.33623056255318" id="-30742">
		<tag k="name" v="Jarekollen" />
		<tag k="natural" v="hill" />
		<tag k="place" v="locality" />
		<tag k="ssr:stedsnr" v="63282" />
	</node>
	<node lat="59.451400000396596" lon="7.406275002380118" id="-30743">
		<tag k="alt_name" v="Flæhylen" />
		<tag k="name" v="Flæhyl" />
		<tag k="place" v="locality" />
		<tag k="ssr:stedsnr" v="63409" />
	</node>
	<node lat="59.44959166491927" lon="7.46874999570342" id="-30744">
		<tag k="fixme" v="consider natural=peak for the most distinct mountains in the district" />
		<tag k="name" v="Hovdenuten" />
		<tag k="natural" v="hill" />
		<tag k="place" v="locality" />
		<tag k="ssr:stedsnr" v="63417" />
	</node>
	<node lat="59.47292500171048" lon="7.132636115887333" id="-30745">
		<tag k="name" v="Skreppetjønni" />
		<tag k="natural" v="water" />
		<tag k="ssr:stedsnr" v="63178" />
	</node>
	<node lat="59.32447777639726" lon="7.074850000932311" id="-30746">
		<tag k="fixme" v="consider natural=peak for the most distinct mountains in the district" />
		<tag k="name" v="Svodene" />
		<tag k="natural" v="hill" />
		<tag k="place" v="locality" />
		<tag k="ssr:stedsnr" v="63302" />
	</node>
	<node lat="59.32252500019017" lon="7.174602783791768" id="-30747">
		<tag k="name" v="Viki" />
		<tag k="natural" v="bay" />
		<tag k="ssr:stedsnr" v="63311" />
	</node>
	<node lat="59.6052250043822" lon="7.295330554574439" id="-30748">
		<tag k="name" v="Krosslosskardet" />
		<tag k="natural" v="valley" />
		<tag k="place" v="locality" />
		<tag k="ssr:stedsnr" v="63320" />
	</node>
	<node lat="59.58713888608588" lon="7.158266669591239" id="-30749">
		<tag k="fixme" v="consider natural=peak for the most distinct mountains in the district" />
		<tag k="name" v="Førsvassfjelli" />
		<tag k="natural" v="hill" />
		<tag k="place" v="locality" />
		<tag k="ssr:stedsnr" v="63324" />
	</node>
	<node lat="59.3927999998995" lon="7.335166668186044" id="-30750">
		<tag k="fixme" v="consider natural=peak for the most distinct mountains in the district" />
		<tag k="name" v="Vardenutane" />
		<tag k="natural" v="hill" />
		<tag k="place" v="locality" />
		<tag k="ssr:stedsnr" v="63379" />
	</node>
	<node lat="59.30421388841607" lon="7.134638889653379" id="-30751">
		<tag k="fixme" v="consider natural=peak for the most distinct mountains in the district" />
		<tag k="name" v="Sletteheinuten" />
		<tag k="natural" v="hill" />
		<tag k="place" v="locality" />
		<tag k="ssr:stedsnr" v="63462" />
	</node>
	<node lat="59.30474722151887" lon="7.085072217965615" id="-30752">
		<tag k="fixme" v="consider natural=peak for the most distinct mountains in the district" />
		<tag k="name" v="Storefjell" />
		<tag k="natural" v="hill" />
		<tag k="place" v="locality" />
		<tag k="ssr:stedsnr" v="63464" />
	</node>
	<node lat="59.37316651911367" lon="7.428739456406256" id="-30753">
		<tag k="name" v="Finnstøyl" />
		<tag k="old_name" v="Finnstøl" />
		<tag k="place" v="locality" />
		<tag k="ssr:stedsnr" v="63608" />
	</node>
	<node lat="59.38182918464474" lon="7.3948242542002225" id="-30754">
		<tag k="alt_name" v="Iverone" />
		<tag k="name" v="Yveroni" />
		<tag k="old_name" v="Yverone" />
		<tag k="place" v="locality" />
		<tag k="ssr:stedsnr" v="63612" />
	</node>
	<node lat="59.383999998918505" lon="7.445916675378485" id="-30755">
		<tag k="alt_name" v="Stridsmotjønn;Stridsmotjørni" />
		<tag k="name" v="Stridsmotjønni" />
		<tag k="natural" v="water" />
		<tag k="ssr:stedsnr" v="63614" />
	</node>
	<node lat="59.49205176628107" lon="7.440824646313974" id="-30756">
		<tag k="name" v="Geiskeli" />
		<tag k="place" v="farm" />
		<tag k="ssr:stedsnr" v="63512" />
	</node>
	<node lat="59.34882500010554" lon="7.43066111834114" id="-30757">
		<tag k="alt_name" v="Finndalstjørn;Finndalstjørni;Finndalstjønn" />
		<tag k="name" v="Finndalstjønni" />
		<tag k="natural" v="water" />
		<tag k="ssr:stedsnr" v="63586" />
	</node>
	<node lat="59.56490555698132" lon="7.328613882601786" id="-30758">
		<tag k="name" v="Hovdenuten" />
		<tag k="natural" v="hill" />
		<tag k="place" v="locality" />
		<tag k="ssr:stedsnr" v="64268" />
	</node>
	<node lat="59.651677774144304" lon="7.119858329425635" id="-30759">
		<tag k="name" v="Svartepodd" />
		<tag k="natural" v="slope" />
		<tag k="place" v="locality" />
		<tag k="ssr:stedsnr" v="64457" />
	</node>
	<node lat="59.66536667080632" lon="7.211108325992117" id="-30760">
		<tag k="alt_name" v="Fisketjørn" />
		<tag k="name" v="Fisketjønn" />
		<tag k="natural" v="water" />
		<tag k="ssr:stedsnr" v="64463" />
		<tag k="water" v="lake" />
	</node>
	<node lat="59.609802773365956" lon="7.420475002911265" id="-30761">
		<tag k="alt_name" v="Lislefjøddstølen" />
		<tag k="historic" v="shieling" />
		<tag k="name" v="Lislefjøddstøylen" />
		<tag k="place" v="isolated_dwelling" />
		<tag k="ssr:stedsnr" v="64719" />
	</node>
	<node lat="59.18554722110241" lon="6.904402779988554" id="-30762">
		<tag k="fixme" v="consider natural=peak for the most distinct mountains in the district" />
		<tag k="name" v="Loneknuten" />
		<tag k="natural" v="hill" />
		<tag k="place" v="locality" />
		<tag k="ssr:stedsnr" v="244160" />
	</node>
	<node lat="59.29323889215229" lon="6.9536222153800855" id="-30764">
		<tag k="name" v="Vestre Gyvatnet" />
		<tag k="natural" v="water" />
		<tag k="ssr:stedsnr" v="245133" />
	</node>
	<node lat="59.47134167078935" lon="7.278883336887573" id="-30765">
		<tag k="alt_name" v="Røyruri, lisle" />
		<tag k="name" v="Lisle Røyruri" />
		<tag k="natural" v="scree" />
		<tag k="ssr:stedsnr" v="245172" />
	</node>
	<node lat="59.46779999754449" lon="7.202641675133618" id="-30766">
		<tag k="name" v="Holmebekken" />
		<tag k="ssr:stedsnr" v="245176" />
		<tag k="waterway" v="stream" />
	</node>
	<node lat="59.4719833299768" lon="7.319641674137704" id="-30767">
		<tag k="name" v="Røyruri" />
		<tag k="natural" v="scree" />
		<tag k="ssr:stedsnr" v="245145" />
	</node>
	<node lat="59.45877499728526" lon="7.2985750056334595" id="-30768">
		<tag k="name" v="Troddedalstjønnane" />
		<tag k="natural" v="water" />
		<tag k="ssr:stedsnr" v="245158" />
	</node>
	<node lat="59.471447219843014" lon="7.236236108624743" id="-30769">
		<tag k="name" v="Steinnest" />
		<tag k="natural" v="cape" />
		<tag k="ssr:stedsnr" v="245167" />
	</node>
	<node lat="59.57440555124396" lon="7.3175444526109" id="-30770">
		<tag k="name" v="Blomreisflot" />
		<tag k="place" v="locality" />
		<tag k="ssr:stedsnr" v="84336" />
	</node>
	<node lat="59.55070749365864" lon="7.360581001620314" id="-30771">
		<tag k="name" v="Otros" />
		<tag k="natural" v="bay" />
		<tag k="ssr:stedsnr" v="84337" />
	</node>
	<node lat="59.55814444566705" lon="7.361694445913756" id="-30772">
		<tag k="name" v="Stusli" />
		<tag k="natural" v="slope" />
		<tag k="place" v="locality" />
		<tag k="ssr:stedsnr" v="84340" />
	</node>
	<node lat="59.32016389294155" lon="7.200755548744109" id="-30774">
		<tag k="name" v="Ljosland" />
		<tag k="place" v="isolated_dwelling" />
		<tag k="ssr:stedsnr" v="245275" />
	</node>
	<node lat="59.348549995877484" lon="7.258475000752696" id="-30775">
		<tag k="name" v="Nordbygdi" />
		<tag k="place" v="hamlet" />
		<tag k="ssr:stedsnr" v="245235" />
	</node>
	<node lat="59.595258330323475" lon="7.062966669609971" id="-30777">
		<tag k="name" v="Førsskori" />
		<tag k="natural" v="valley" />
		<tag k="place" v="locality" />
		<tag k="ssr:stedsnr" v="245289" />
	</node>
	<node lat="59.32763889079736" lon="7.319988880009685" id="-30778">
		<tag k="name" v="Sanden" />
		<tag k="place" v="farm" />
		<tag k="ssr:stedsnr" v="245291" />
	</node>
	<node lat="59.587947219537234" lon="7.319213885136983" id="-30779">
		<tag k="alt_name" v="Støylskaret" />
		<tag k="name" v="Stølskardet" />
		<tag k="natural" v="valley" />
		<tag k="place" v="locality" />
		<tag k="ssr:stedsnr" v="245297" />
	</node>
	<node lat="59.30958888783299" lon="7.041799999674563" id="-30780">
		<tag k="name" v="Venehøl" />
		<tag k="place" v="locality" />
		<tag k="ssr:stedsnr" v="245300" />
	</node>
	<node lat="59.433383335763956" lon="7.257674999014426" id="-30781">
		<tag k="alt_name" v="Simlehjeddin" />
		<tag k="name" v="Simlehjellin" />
		<tag k="place" v="locality" />
		<tag k="ssr:stedsnr" v="245313" />
	</node>
	<node lat="59.346677775517726" lon="7.291127770602967" id="-30783">
		<tag k="name" v="Holen" />
		<tag k="place" v="farm" />
		<tag k="ssr:stedsnr" v="245257" />
	</node>
	<node lat="59.58446944494046" lon="7.171608339774226" id="-30784">
		<tag k="name" v="Skurevatnet" />
		<tag k="natural" v="water" />
		<tag k="ssr:stedsnr" v="245266" />
		<tag k="water" v="lake" />
	</node>
	<node lat="59.58666666696229" lon="7.228097221059561" id="-30785">
		<tag k="name" v="Væringsåni" />
		<tag k="ssr:stedsnr" v="245267" />
		<tag k="waterway" v="river" />
	</node>
	<node lat="59.31690278039022" lon="7.0872250010258195" id="-30786">
		<tag k="fixme" v="consider natural=peak for the most distinct mountains in the district" />
		<tag k="name" v="Dysjeåsen" />
		<tag k="natural" v="hill" />
		<tag k="place" v="locality" />
		<tag k="ssr:stedsnr" v="245268" />
	</node>
	<node lat="59.45142499588498" lon="7.574119442936698" id="-30787">
		<tag k="alt_name" v="Gjuvvatna, ytre" />
		<tag k="name" v="Ytre Gjuvvatn" />
		<tag k="natural" v="water" />
		<tag k="ssr:stedsnr" v="245376" />
		<tag k="water" v="lake" />
	</node>
	<node lat="59.49673611225711" lon="7.402074996478468" id="-30788">
		<tag k="name" v="Langehylen" />
		<tag k="ssr:stedsnr" v="245464" />
		<tag k="waterway" v="stream" />
	</node>
	<node lat="59.396486106798704" lon="7.18088332796634" id="-30789">
		<tag k="name" v="Tveite" />
		<tag k="place" v="locality" />
		<tag k="ssr:stedsnr" v="245322" />
	</node>
	<node lat="59.401738889290314" lon="7.083505548144349" id="-30790">
		<tag k="name" v="Krokevatnet" />
		<tag k="natural" v="water" />
		<tag k="ssr:stedsnr" v="245326" />
		<tag k="water" v="lake" />
	</node>
	<node lat="59.38813553843838" lon="7.264566563622047" id="-30791">
		<tag k="fixme" v="multiple name tags, choose one and add the other to alt_name" />
		<tag k="name" v="Skargjesfossen;Fosstøylfossen" />
		<tag k="natural" v="waterfall" />
		<tag k="ssr:stedsnr" v="245340" />
	</node>
	<node lat="59.35833584844877" lon="7.244143548453541" id="-30792">
		<tag k="name" v="Falkeflottjønn" />
		<tag k="natural" v="water" />
		<tag k="old_name" v="Falkeflottjønni" />
		<tag k="ssr:stedsnr" v="245348" />
	</node>
	<node lat="59.36667500297619" lon="7.256188888476556" id="-30793">
		<tag k="name" v="Flotti" />
		<tag k="place" v="locality" />
		<tag k="ssr:stedsnr" v="245354" />
	</node>
	<node lat="59.493706975751024" lon="7.580027347019502" id="-30794">
		<tag k="name" v="Øystre Brandsvatnet" />
		<tag k="natural" v="water" />
		<tag k="old_name" v="Brandsvatni, øystre" />
		<tag k="ssr:stedsnr" v="245479" />
		<tag k="water" v="lake" />
	</node>
	<node lat="59.31464167043712" lon="7.393983335712443" id="-30795">
		<tag k="historic" v="shieling" />
		<tag k="name" v="Finnfloti" />
		<tag k="place" v="isolated_dwelling" />
		<tag k="ssr:stedsnr" v="245503" />
	</node>
	<node lat="59.31101666975875" lon="7.351324999544813" id="-30796">
		<tag k="alt_name" v="Åsdekkane" />
		<tag k="name" v="Åsdekkan" />
		<tag k="natural" v="valley" />
		<tag k="place" v="locality" />
		<tag k="ssr:stedsnr" v="245504" />
	</node>
	<node lat="59.62692499681186" lon="7.489374993696804" id="-30797">
		<tag k="fixme" v="consider natural=peak for the most distinct mountains in the district" />
		<tag k="name" v="Bueggi" />
		<tag k="natural" v="hill" />
		<tag k="place" v="locality" />
		<tag k="ssr:stedsnr" v="245515" />
	</node>
	<node lat="59.38917777957338" lon="7.391150005455014" id="-30798">
		<tag k="historic" v="shieling" />
		<tag k="name" v="Bygdestøylan" />
		<tag k="place" v="isolated_dwelling" />
		<tag k="ssr:stedsnr" v="245588" />
	</node>
	<node lat="59.38630555921515" lon="7.441391668853509" id="-30799">
		<tag k="fixme" v="consider natural=peak for the most distinct mountains in the district" />
		<tag k="name" v="Stridsmonuten" />
		<tag k="natural" v="hill" />
		<tag k="place" v="locality" />
		<tag k="ssr:stedsnr" v="245590" />
	</node>
	<node lat="59.40899999857067" lon="7.45088334095432" id="-30800">
		<tag k="historic" v="shieling" />
		<tag k="name" v="Tykkelunden" />
		<tag k="place" v="isolated_dwelling" />
		<tag k="ssr:stedsnr" v="245596" />
	</node>
	<node lat="59.63903889017818" lon="7.361699993408101" id="-30801">
		<tag k="alt_name" v="Nørdre Kaldsvatn;Kaldsvatn, øvre" />
		<tag k="name" v="Øvre Kaldsvatn" />
		<tag k="natural" v="water" />
		<tag k="ssr:stedsnr" v="245531" />
		<tag k="water" v="lake" />
	</node>
	<node lat="59.353177781339824" lon="7.4387749927394635" id="-30802">
		<tag k="fixme" v="consider natural=peak for the most distinct mountains in the district" />
		<tag k="name" v="Finndalsenden" />
		<tag k="natural" v="hill" />
		<tag k="place" v="locality" />
		<tag k="ssr:stedsnr" v="245554" />
	</node>
	<node lat="59.29857777638184" lon="7.3915111068750985" id="-30803">
		<tag k="fixme" v="consider natural=peak for the most distinct mountains in the district" />
		<tag k="name" v="Bjørkåsen" />
		<tag k="natural" v="hill" />
		<tag k="place" v="locality" />
		<tag k="ssr:stedsnr" v="245690" />
	</node>
	<node lat="59.38906666824094" lon="7.284750005362927" id="-30805">
		<tag k="name" v="Støyldalen" />
		<tag k="natural" v="valley" />
		<tag k="place" v="locality" />
		<tag k="ssr:stedsnr" v="88817" />
	</node>
	<node lat="59.31458888777931" lon="7.212863891472179" id="-30806">
		<tag k="fixme" v="consider natural=peak for the most distinct mountains in the district" />
		<tag k="name" v="Ljoslandsnuten" />
		<tag k="natural" v="hill" />
		<tag k="place" v="locality" />
		<tag k="ssr:stedsnr" v="88835" />
	</node>
	<node lat="59.45692500247058" lon="7.233727772124888" id="-30807">
		<tag k="name" v="Heimre Lundebekken" />
		<tag k="ssr:stedsnr" v="88877" />
		<tag k="waterway" v="stream" />
	</node>
	<node lat="59.43926389112199" lon="7.327474999531826" id="-30808">
		<tag k="fixme" v="consider natural=peak for the most distinct mountains in the district" />
		<tag k="name" v="Simledalsnibba" />
		<tag k="natural" v="hill" />
		<tag k="place" v="locality" />
		<tag k="ssr:stedsnr" v="88888" />
	</node>
	<node lat="59.44637778156759" lon="7.336738882463702" id="-30809">
		<tag k="name" v="Rundemandalstjønnane" />
		<tag k="natural" v="water" />
		<tag k="ssr:stedsnr" v="88889" />
	</node>
	<node lat="59.54809722183166" lon="7.333441672773481" id="-30810">
		<tag k="fixme" v="consider natural=peak for the most distinct mountains in the district" />
		<tag k="name" v="Røyrvikåsen" />
		<tag k="natural" v="hill" />
		<tag k="place" v="locality" />
		<tag k="ssr:stedsnr" v="246246" />
	</node>
	<node lat="59.53591312512761" lon="7.314455596684755" id="-30811">
		<tag k="alt_name" v="Søndre Brattlifjellet" />
		<tag k="fixme" v="consider natural=peak for the most distinct mountains in the district" />
		<tag k="name" v="Brattlifjelli" />
		<tag k="natural" v="hill" />
		<tag k="place" v="locality" />
		<tag k="ssr:stedsnr" v="246252" />
	</node>
	<node lat="59.51622221876604" lon="7.05023054935036" id="-30812">
		<tag k="name" v="Reinådalane" />
		<tag k="natural" v="valley" />
		<tag k="old_name" v="Reinadalane" />
		<tag k="place" v="locality" />
		<tag k="ssr:stedsnr" v="246254" />
	</node>
	<node lat="59.52846944169568" lon="7.335366660760169" id="-30813">
		<tag k="alt_name" v="Rotefjøddet;Roterjofjøddet" />
		<tag k="fixme" v="consider natural=peak for the most distinct mountains in the district" />
		<tag k="name" v="Rotefjellet" />
		<tag k="natural" v="hill" />
		<tag k="place" v="locality" />
		<tag k="ssr:stedsnr" v="246256" />
	</node>
	<node lat="59.5002638855342" lon="7.219822224777016" id="-30814">
		<tag k="alt_name" v="Stølstjørn" />
		<tag k="name" v="Støylstjønn" />
		<tag k="natural" v="water" />
		<tag k="ssr:stedsnr" v="246353" />
	</node>
	<node lat="59.50412777647757" lon="7.167530556504729" id="-30815">
		<tag k="name" v="Ormsaåni" />
		<tag k="ssr:stedsnr" v="246356" />
		<tag k="waterway" v="river" />
	</node>
	<node lat="59.607708335700536" lon="7.50633054669781" id="-30816">
		<tag k="fixme" v="consider natural=peak for the most distinct mountains in the district" />
		<tag k="name" v="Lislesåta" />
		<tag k="natural" v="hill" />
		<tag k="old_name" v="Såta, lisle" />
		<tag k="place" v="locality" />
		<tag k="ssr:stedsnr" v="246676" />
	</node>
	<node lat="59.53472500307264" lon="7.366480557044" id="-30817">
		<tag k="name" v="Hartevassnibba" />
		<tag k="natural" v="hill" />
		<tag k="place" v="locality" />
		<tag k="ssr:stedsnr" v="246688" />
	</node>
	<node lat="59.56176388757781" lon="7.498738892590431" id="-30818">
		<tag k="name" v="Venevasshalli" />
		<tag k="natural" v="slope" />
		<tag k="old_name" v="Venevasshallet" />
		<tag k="place" v="locality" />
		<tag k="ssr:stedsnr" v="246659" />
	</node>
	<node lat="59.48951388713513" lon="7.427658338313573" id="-30819">
		<tag k="name" v="Solhaugen" />
		<tag k="place" v="isolated_dwelling" />
		<tag k="ssr:stedsnr" v="92609" />
	</node>
	<node lat="59.500655556713845" lon="7.373547223733204" id="-30820">
		<tag k="fixme" v="consider natural=peak for the most distinct mountains in the district" />
		<tag k="name" v="Slåttefjødd" />
		<tag k="natural" v="hill" />
		<tag k="place" v="locality" />
		<tag k="ssr:stedsnr" v="92623" />
	</node>
	<node lat="59.38803333502699" lon="7.38708332845365" id="-30821">
		<tag k="name" v="Heimre Iverosbekken" />
		<tag k="ssr:stedsnr" v="92510" />
		<tag k="waterway" v="stream" />
	</node>
	<node lat="59.6070583331045" lon="7.446930560078224" id="-30822">
		<tag k="name" v="Lislefjøddskari" />
		<tag k="natural" v="valley" />
		<tag k="place" v="locality" />
		<tag k="ssr:stedsnr" v="92514" />
	</node>
	<node lat="59.46035277908039" lon="7.248011118979323" id="-30823">
		<tag k="name" v="Lundeflatane" />
		<tag k="natural" v="wetland" />
		<tag k="ssr:stedsnr" v="92569" />
	</node>
	<node lat="59.45874721804427" lon="7.4472805569418155" id="-30824">
		<tag k="name" v="Haddine" />
		<tag k="natural" v="slope" />
		<tag k="place" v="locality" />
		<tag k="ssr:stedsnr" v="92579" />
	</node>
	<node lat="59.40262778174596" lon="7.429541671981998" id="-30825">
		<tag k="name" v="Stoplestaden" />
		<tag k="natural" v="wetland" />
		<tag k="ssr:stedsnr" v="92583" />
	</node>
	<node lat="59.42506111104203" lon="7.105250002501616" id="-30826">
		<tag k="fixme" v="consider natural=peak for the most distinct mountains in the district" />
		<tag k="name" v="Austre Urevassnutane" />
		<tag k="natural" v="hill" />
		<tag k="place" v="locality" />
		<tag k="ssr:stedsnr" v="92706" />
	</node>
	<node lat="59.32985833081769" lon="7.337911114125889" id="-30827">
		<tag k="name" v="Ausa" />
		<tag k="natural" v="water" />
		<tag k="ssr:stedsnr" v="92811" />
	</node>
	<node lat="59.326394445312914" lon="7.326438882254965" id="-30828">
		<tag k="name" v="Den store skori" />
		<tag k="natural" v="valley" />
		<tag k="place" v="locality" />
		<tag k="ssr:stedsnr" v="92817" />
	</node>
	<node lat="59.29534722229483" lon="7.27419722185535" id="-30829">
		<tag k="name" v="Beinleidalen" />
		<tag k="natural" v="valley" />
		<tag k="place" v="locality" />
		<tag k="ssr:stedsnr" v="92863" />
	</node>
	<node lat="59.365741664609175" lon="7.337324999086917" id="-30830">
		<tag k="name" v="Listøylbrotet" />
		<tag k="natural" v="slope" />
		<tag k="place" v="locality" />
		<tag k="ssr:stedsnr" v="92868" />
	</node>
	<node lat="59.36861389040044" lon="7.281125001512963" id="-30831">
		<tag k="name" v="Kramfordalen" />
		<tag k="natural" v="valley" />
		<tag k="place" v="locality" />
		<tag k="ssr:stedsnr" v="92875" />
	</node>
	<node lat="59.34227222513793" lon="7.282724991815093" id="-30832">
		<tag k="fixme" v="consider natural=peak for the most distinct mountains in the district" />
		<tag k="name" v="Tjurrvedåsen" />
		<tag k="natural" v="hill" />
		<tag k="place" v="locality" />
		<tag k="ssr:stedsnr" v="92883" />
	</node>
	<node lat="59.30928333685117" lon="7.408277775412324" id="-30833">
		<tag k="name" v="Øvre Mjelteheii" />
		<tag k="natural" v="hill" />
		<tag k="place" v="locality" />
		<tag k="ssr:stedsnr" v="92918" />
	</node>
	<node lat="59.30766389232091" lon="7.410441674435659" id="-30834">
		<tag k="name" v="Nedre Mjelteheii" />
		<tag k="natural" v="hill" />
		<tag k="place" v="locality" />
		<tag k="ssr:stedsnr" v="92920" />
	</node>
	<node lat="59.30431666644692" lon="7.390863888282484" id="-30835">
		<tag k="name" v="Heddeberget" />
		<tag k="natural" v="hill" />
		<tag k="place" v="locality" />
		<tag k="ssr:stedsnr" v="92922" />
	</node>
	<node lat="59.37046944621422" lon="7.410213880291361" id="-30836">
		<tag k="name" v="Myrburisti" />
		<tag k="natural" v="ridge" />
		<tag k="place" v="locality" />
		<tag k="ssr:stedsnr" v="92976" />
	</node>
	<node lat="59.3691861099925" lon="7.453499999064579" id="-30837">
		<tag k="fixme" v="consider natural=peak for the most distinct mountains in the district" />
		<tag k="name" v="Den håge nuten" />
		<tag k="natural" v="hill" />
		<tag k="place" v="locality" />
		<tag k="ssr:stedsnr" v="92987" />
	</node>
	<node lat="59.37409444785133" lon="6.959455551218729" id="-30962">
		<tag k="name" v="Vassdalselvi" />
		<tag k="ssr:stedsnr" v="123268" />
		<tag k="waterway" v="stream" />
	</node>
	<node lat="59.454836107519455" lon="7.212025004595128" id="-30963">
		<tag k="fixme" v="consider natural=peak for the most distinct mountains in the district" />
		<tag k="name" v="Mjeltenuten" />
		<tag k="natural" v="hill" />
		<tag k="place" v="locality" />
		<tag k="ssr:stedsnr" v="123175" />
	</node>
	<node lat="59.44172500207761" lon="7.012963888359946" id="-30964">
		<tag k="alt_name" v="Ratevatn, øvre" />
		<tag k="name" v="Øvre Ratevatn" />
		<tag k="natural" v="water" />
		<tag k="ssr:stedsnr" v="123178" />
		<tag k="water" v="lake" />
	</node>
	<node lat="59.45620555110302" lon="7.244786102582397" id="-30965">
		<tag k="alt_name" v="Søndre Skori" />
		<tag k="name" v="Søre-Skor" />
		<tag k="natural" v="valley" />
		<tag k="place" v="locality" />
		<tag k="ssr:stedsnr" v="123180" />
	</node>
	<node lat="59.44190000196501" lon="7.066766672851797" id="-30966">
		<tag k="name" v="Klokkarkvævane" />
		<tag k="natural" v="valley" />
		<tag k="place" v="locality" />
		<tag k="ssr:stedsnr" v="123184" />
	</node>
	<node lat="59.444838888115584" lon="7.155900008013263" id="-30967">
		<tag k="alt_name" v="Sandvoene" />
		<tag k="name" v="Sandvodene" />
		<tag k="natural" v="valley" />
		<tag k="place" v="locality" />
		<tag k="ssr:stedsnr" v="123185" />
	</node>
	<node lat="59.3343777818207" lon="7.180688890669423" id="-30968">
		<tag k="loc_name" v="Svåune" />
		<tag k="name" v="Svåberget" />
		<tag k="place" v="locality" />
		<tag k="ssr:stedsnr" v="123303" />
	</node>
	<node lat="59.367144352208825" lon="7.3256819308332854" id="-30969">
		<tag k="historic" v="shieling" />
		<tag k="loc_name" v="Nyvelkinn" />
		<tag k="name" v="Nyveltjønn" />
		<tag k="place" v="isolated_dwelling" />
		<tag k="ssr:stedsnr" v="123391" />
	</node>
	<node lat="59.25090833067092" lon="7.042286103674267" id="-30970">
		<tag k="alt_name" v="Breidådalen" />
		<tag k="name" v="Breidadalen" />
		<tag k="natural" v="valley" />
		<tag k="place" v="locality" />
		<tag k="ssr:stedsnr" v="123532" />
	</node>
	<node lat="59.49516388747133" lon="7.386527786013594" id="-30971">
		<tag k="alt_name" v="Ørnefjødd" />
		<tag k="name" v="Ørnefjell" />
		<tag k="place" v="farm" />
		<tag k="ssr:stedsnr" v="123537" />
	</node>
	<node lat="59.31612221778573" lon="7.358269445010066" id="-30972">
		<tag k="name" v="Åstog" />
		<tag k="old_name" v="Åsdokk" />
		<tag k="place" v="farm" />
		<tag k="ssr:stedsnr" v="123565" />
	</node>
	<node lat="59.47621389190332" lon="7.514763887015713" id="-30973">
		<tag k="fixme" v="consider natural=peak for the most distinct mountains in the district" />
		<tag k="name" v="Tverrheieggi" />
		<tag k="natural" v="hill" />
		<tag k="place" v="locality" />
		<tag k="ssr:stedsnr" v="123413" />
	</node>
	<node lat="59.36045000215018" lon="7.426341670904418" id="-30974">
		<tag k="alt_name" v="Reidalstølen;Reindalsstøylen" />
		<tag k="historic" v="shieling" />
		<tag k="name" v="Reidalsstøylen" />
		<tag k="place" v="isolated_dwelling" />
		<tag k="ssr:stedsnr" v="123638" />
	</node>
	<node lat="59.19771944376106" lon="6.970827778281099" id="-30975">
		<tag k="alt_name" v="Auråskardet" />
		<tag k="name" v="Auraskardet" />
		<tag k="natural" v="valley" />
		<tag k="place" v="locality" />
		<tag k="ssr:stedsnr" v="123858" />
	</node>
	<node lat="59.3784138929468" lon="6.970813896016644" id="-30976">
		<tag k="name" v="Ålbogen" />
		<tag k="natural" v="water" />
		<tag k="ssr:stedsnr" v="124303" />
	</node>
	<node lat="59.37357499928515" lon="7.271575001819584" id="-30977">
		<tag k="name" v="Ljoråsbekken" />
		<tag k="ssr:stedsnr" v="124319" />
		<tag k="waterway" v="stream" />
	</node>
	<node lat="59.577983332358876" lon="7.063427773085569" id="-30978">
		<tag k="fixme" v="consider natural=peak for the most distinct mountains in the district" />
		<tag k="name" v="Ivarsnuten" />
		<tag k="natural" v="hill" />
		<tag k="place" v="locality" />
		<tag k="ssr:stedsnr" v="124255" />
	</node>
	<node lat="59.511638893030614" lon="7.43384999689934" id="-30979">
		<tag k="name" v="Maurliristi" />
		<tag k="natural" v="hill" />
		<tag k="place" v="locality" />
		<tag k="ssr:stedsnr" v="124565" />
	</node>
	<node lat="59.51130345059842" lon="7.391095539169359" id="-30980">
		<tag k="fixme" v="consider natural=peak for the most distinct mountains in the district" />
		<tag k="name" v="Dei brende åsane" />
		<tag k="natural" v="hill" />
		<tag k="old_name" v="Den brende åsen" />
		<tag k="place" v="locality" />
		<tag k="ssr:stedsnr" v="124573" />
	</node>
	<node lat="59.60526666747486" lon="7.447816661387638" id="-30981">
		<tag k="fixme" v="consider natural=peak for the most distinct mountains in the district" />
		<tag k="name" v="Lislefjøddnuten" />
		<tag k="natural" v="hill" />
		<tag k="place" v="locality" />
		<tag k="ssr:stedsnr" v="124659" />
	</node>
	<node lat="59.60637499772226" lon="7.457902781136638" id="-30982">
		<tag k="alt_name" v="Lislefjøddtjørni" />
		<tag k="name" v="Lislefjøddtjønni" />
		<tag k="natural" v="water" />
		<tag k="ssr:stedsnr" v="124661" />
	</node>
	<node lat="59.532477775499515" lon="7.398066659755644" id="-30983">
		<tag k="alt_name" v="Badstogdalen" />
		<tag k="name" v="Bastogdalen" />
		<tag k="natural" v="valley" />
		<tag k="place" v="locality" />
		<tag k="ssr:stedsnr" v="124670" />
	</node>
	<node lat="59.53713333315258" lon="7.382600004315723" id="-30984">
		<tag k="fixme" v="consider natural=peak for the most distinct mountains in the district" />
		<tag k="name" v="Revafjellet" />
		<tag k="natural" v="hill" />
		<tag k="place" v="locality" />
		<tag k="ssr:stedsnr" v="124673" />
	</node>
	<node lat="59.57225757028978" lon="7.372531989630667" id="-30986">
		<tag k="name" v="Reinane" />
		<tag k="natural" v="wetland" />
		<tag k="ssr:stedsnr" v="143321" />
	</node>
	<node lat="59.301375001582116" lon="6.938102785211826" id="-30987">
		<tag k="name" v="Storevassdammen" />
		<tag k="ssr:stedsnr" v="145293" />
		<tag k="waterway" v="dam" />
	</node>
	<node lat="59.45504166960109" lon="7.21676667309406" id="-30988">
		<tag k="name" v="Bykleheiane" />
		<tag k="natural" v="mountain_range" />
		<tag k="ssr:stedsnr" v="145294" />
	</node>
	<node lat="59.31605278155635" lon="7.084438882635306" id="-30990">
		<tag k="name" v="Stakkslåtta" />
		<tag k="place" v="isolated_dwelling" />
		<tag k="ssr:stedsnr" v="148855" />
	</node>
	<node lat="59.31379444369458" lon="7.295080553516426" id="-30991">
		<tag k="fixme" v="consider natural=peak for the most distinct mountains in the district" />
		<tag k="name" v="Nausen" />
		<tag k="natural" v="hill" />
		<tag k="place" v="locality" />
		<tag k="ssr:stedsnr" v="148857" />
	</node>
	<node lat="59.47596667001006" lon="7.193597214089959" id="-30992">
		<tag k="name" v="Rjobekken" />
		<tag k="ssr:stedsnr" v="149906" />
		<tag k="waterway" v="stream" />
	</node>
	<node lat="59.438225001788396" lon="7.107400000642777" id="-30993">
		<tag k="name" v="Vøylen" />
		<tag k="natural" v="strait" />
		<tag k="ssr:stedsnr" v="149910" />
	</node>
	<node lat="59.31933055647868" lon="7.349263895071891" id="-30994">
		<tag k="name" v="Fjosi" />
		<tag k="place" v="locality" />
		<tag k="ssr:stedsnr" v="152850" />
	</node>
	<node lat="59.32499722304164" lon="7.350175005451161" id="-30995">
		<tag k="name" v="Skuta" />
		<tag k="place" v="locality" />
		<tag k="ssr:stedsnr" v="152856" />
	</node>
	<node lat="59.40398611015212" lon="7.380116660319633" id="-30996">
		<tag k="name" v="Kvævane" />
		<tag k="natural" v="valley" />
		<tag k="place" v="locality" />
		<tag k="ssr:stedsnr" v="152558" />
	</node>
	<node lat="59.301002780773814" lon="7.416238893461643" id="-30997">
		<tag k="name" v="Bekkedalen" />
		<tag k="natural" v="valley" />
		<tag k="place" v="locality" />
		<tag k="ssr:stedsnr" v="152955" />
	</node>
	<node lat="59.35645000062058" lon="7.389991666954733" id="-30998">
		<tag k="name" v="Saubekken" />
		<tag k="ssr:stedsnr" v="152968" />
		<tag k="waterway" v="stream" />
	</node>
	<node lat="59.574000003098064" lon="7.288733327566544" id="-30999">
		<tag k="name" v="Solbakken" />
		<tag k="place" v="farm" />
		<tag k="ssr:stedsnr" v="153607" />
	</node>
	<node lat="59.49048610977573" lon="7.43049721417761" id="-31000">
		<tag k="name" v="Agdertun" />
		<tag k="place" v="isolated_dwelling" />
		<tag k="ssr:stedsnr" v="153611" />
	</node>
	<node lat="59.46713611424852" lon="7.370575003007473" id="-31001">
		<tag k="name" v="Skarketjønn" />
		<tag k="natural" v="water" />
		<tag k="ssr:stedsnr" v="153622" />
	</node>
	<node lat="59.47370833133423" lon="7.400799993467722" id="-31002">
		<tag k="fixme" v="consider natural=peak for the most distinct mountains in the district" />
		<tag k="name" v="Kaldshylåsen" />
		<tag k="natural" v="hill" />
		<tag k="place" v="locality" />
		<tag k="ssr:stedsnr" v="153623" />
	</node>
	<node lat="59.61104166575869" lon="7.415563889834026" id="-31003">
		<tag k="historic" v="shieling" />
		<tag k="name" v="Heimre Løbakken" />
		<tag k="place" v="isolated_dwelling" />
		<tag k="ssr:stedsnr" v="153650" />
	</node>
	<node lat="59.60906944890928" lon="7.406730555602278" id="-31004">
		<tag k="name" v="Løbakkhylen" />
		<tag k="place" v="locality" />
		<tag k="ssr:stedsnr" v="153657" />
	</node>
	<node lat="59.61274999787972" lon="7.389116666916284" id="-31005">
		<tag k="historic" v="shieling" />
		<tag k="name" v="Kloppestøylane" />
		<tag k="place" v="isolated_dwelling" />
		<tag k="ssr:stedsnr" v="153659" />
	</node>
	<node lat="59.63895555972725" lon="7.4223916600908515" id="-31006">
		<tag k="name" v="Rjoddalen" />
		<tag k="natural" v="valley" />
		<tag k="place" v="locality" />
		<tag k="ssr:stedsnr" v="153701" />
	</node>
	<node lat="59.41374166843409" lon="7.410763888753974" id="-31097">
		<tag k="bridge" v="yes" />
		<tag k="layer" v="1" />
		<tag k="name" v="Glidbjørgsbruni" />
		<tag k="ssr:stedsnr" v="174724" />
	</node>
	<node lat="59.28095833562723" lon="7.0554722236233145" id="-31114">
		<tag k="fixme" v="consider tourism=alpine_hut or tourism=chalet" />
		<tag k="loc_name" v="Sandvasshytta" />
		<tag k="name" v="Sandvassbu" />
		<tag k="ssr:stedsnr" v="175809" />
		<tag k="tourism" v="wilderness_hut" />
	</node>
	<node lat="59.48950555674941" lon="7.152655559288293" id="-31115">
		<tag k="name" v="Raudrotkvæven" />
		<tag k="natural" v="valley" />
		<tag k="place" v="locality" />
		<tag k="ssr:stedsnr" v="184122" />
	</node>
	<node lat="59.49215000440362" lon="7.194966661977551" id="-31116">
		<tag k="name" v="Heggliufsene" />
		<tag k="natural" v="slope" />
		<tag k="place" v="locality" />
		<tag k="ssr:stedsnr" v="184123" />
	</node>
	<node lat="59.2778250042779" lon="6.958988893350582" id="-31117">
		<tag k="name" v="Skorpeskaret" />
		<tag k="natural" v="valley" />
		<tag k="place" v="locality" />
		<tag k="ssr:stedsnr" v="184139" />
	</node>
	<node lat="59.26603888853741" lon="6.9446027784853746" id="-31118">
		<tag k="fixme" v="consider natural=peak for the most distinct mountains in the district" />
		<tag k="name" v="Skorpa" />
		<tag k="natural" v="hill" />
		<tag k="place" v="locality" />
		<tag k="ssr:stedsnr" v="184145" />
	</node>
	<node lat="59.46452500433391" lon="7.179219442378868" id="-31119">
		<tag k="fixme" v="consider natural=peak for the most distinct mountains in the district" />
		<tag k="name" v="Hågheii" />
		<tag k="natural" v="hill" />
		<tag k="place" v="locality" />
		<tag k="ssr:stedsnr" v="184191" />
	</node>
	<node lat="59.30016666467939" lon="7.230211111559239" id="-31120">
		<tag k="name" v="Hisvassjuvet" />
		<tag k="natural" v="valley" />
		<tag k="place" v="locality" />
		<tag k="ssr:stedsnr" v="184464" />
	</node>
	<node lat="59.398330551445255" lon="7.432686119378553" id="-31121">
		<tag k="alt_name" v="Grønåstjørn" />
		<tag k="name" v="Grønåstjønn" />
		<tag k="natural" v="water" />
		<tag k="ssr:stedsnr" v="184615" />
	</node>
	<node lat="59.38613332990065" lon="7.396947220093671" id="-31122">
		<tag k="name" v="Momyran" />
		<tag k="natural" v="wetland" />
		<tag k="old_name" v="Momyrane" />
		<tag k="ssr:stedsnr" v="184618" />
	</node>
	<node lat="59.40057499804347" lon="7.309161112359983" id="-31123">
		<tag k="fixme" v="consider natural=peak for the most distinct mountains in the district" />
		<tag k="name" v="Gråsteinsnutane" />
		<tag k="natural" v="hill" />
		<tag k="place" v="locality" />
		<tag k="ssr:stedsnr" v="184334" />
	</node>
	<node lat="59.3124999967492" lon="7.413055555906699" id="-31124">
		<tag k="alt_name" v="Nasefjødd" />
		<tag k="fixme" v="consider natural=peak for the most distinct mountains in the district" />
		<tag k="name" v="Nasefjell" />
		<tag k="natural" v="hill" />
		<tag k="place" v="locality" />
		<tag k="ssr:stedsnr" v="184517" />
	</node>
	<node lat="59.31768333475937" lon="7.355588888755832" id="-31125">
		<tag k="name" v="Tjørnlii" />
		<tag k="natural" v="slope" />
		<tag k="place" v="locality" />
		<tag k="ssr:stedsnr" v="184527" />
	</node>
	<node lat="59.53070833484896" lon="7.304805559823046" id="-31126">
		<tag k="fixme" v="consider natural=peak for the most distinct mountains in the district" />
		<tag k="name" v="Kaldsåkollane" />
		<tag k="natural" v="hill" />
		<tag k="place" v="locality" />
		<tag k="ssr:stedsnr" v="185241" />
	</node>
	<node lat="59.52811110838544" lon="7.128069439640317" id="-31127">
		<tag k="name" v="Langemyrkvæven" />
		<tag k="natural" v="valley" />
		<tag k="place" v="locality" />
		<tag k="ssr:stedsnr" v="185243" />
	</node>
	<node lat="59.52408055196112" lon="7.536386118905369" id="-31128">
		<tag k="fixme" v="consider natural=peak for the most distinct mountains in the district" />
		<tag k="name" v="Gråsteinsnosi" />
		<tag k="natural" v="hill" />
		<tag k="place" v="locality" />
		<tag k="ssr:stedsnr" v="185609" />
	</node>
	<node lat="59.51531666752234" lon="7.412944444705515" id="-31129">
		<tag k="name" v="Lomehylen" />
		<tag k="place" v="locality" />
		<tag k="ssr:stedsnr" v="185590" />
	</node>
	<node lat="59.524155554773905" lon="7.4964305587390125" id="-31130">
		<tag k="name" v="Auversvatn" />
		<tag k="natural" v="water" />
		<tag k="ssr:stedsnr" v="185599" />
		<tag k="water" v="lake" />
	</node>
	<node lat="59.389800002473166" lon="7.433049993308297" id="-31132">
		<tag k="name" v="Takrindristi" />
		<tag k="natural" v="ridge" />
		<tag k="place" v="locality" />
		<tag k="ssr:stedsnr" v="266151" />
	</node>
	<node lat="59.59520833430355" lon="7.497902777474057" id="-31133">
		<tag k="name" v="Olavsstogkultane" />
		<tag k="natural" v="hill" />
		<tag k="place" v="locality" />
		<tag k="ssr:stedsnr" v="266246" />
	</node>
	<node lat="59.592986108017215" lon="7.379900004355574" id="-31134">
		<tag k="name" v="Straumane" />
		<tag k="ssr:stedsnr" v="266348" />
		<tag k="waterway" v="rapids" />
	</node>
	<node lat="59.59635833519981" lon="7.435844449328844" id="-31135">
		<tag k="alt_name" v="Øvre Galteristi" />
		<tag k="name" v="Galteristi" />
		<tag k="natural" v="ridge" />
		<tag k="place" v="locality" />
		<tag k="ssr:stedsnr" v="266349" />
	</node>
	<node lat="59.55886944687045" lon="7.455124998308909" id="-31136">
		<tag k="fixme" v="consider natural=peak for the most distinct mountains in the district" />
		<tag k="name" v="Ytre Hyttenuten" />
		<tag k="natural" v="hill" />
		<tag k="old_name" v="Hyttnuten, yt" />
		<tag k="place" v="locality" />
		<tag k="ssr:stedsnr" v="205402" />
	</node>
	<node lat="59.38964999756086" lon="7.332688885684636" id="-31137">
		<tag k="name" v="Kjellaren" />
		<tag k="natural" v="valley" />
		<tag k="place" v="locality" />
		<tag k="ssr:stedsnr" v="209829" />
	</node>
	<node lat="59.43872777935701" lon="7.032505562955399" id="-31138">
		<tag k="name" v="Blåbergåskilen" />
		<tag k="place" v="isolated_dwelling" />
		<tag k="ssr:stedsnr" v="210909" />
	</node>
	<node lat="59.37593333184434" lon="7.358530563826117" id="-31139">
		<tag k="fixme" v="consider natural=peak for the most distinct mountains in the district" />
		<tag k="name" v="Grjotskrednuten" />
		<tag k="natural" v="hill" />
		<tag k="place" v="locality" />
		<tag k="ssr:stedsnr" v="213576" />
	</node>
	<node lat="59.450572225345255" lon="7.388297215064904" id="-31140">
		<tag k="name" v="Øytjønn" />
		<tag k="natural" v="water" />
		<tag k="ssr:stedsnr" v="213589" />
	</node>
	<node lat="59.31904999897293" lon="7.3121138831287995" id="-31141">
		<tag k="name" v="Kvåsten" />
		<tag k="natural" v="slope" />
		<tag k="place" v="locality" />
		<tag k="ssr:stedsnr" v="213876" />
	</node>
	<node lat="59.32874722595742" lon="7.403733327181389" id="-31142">
		<tag k="name" v="Askaut" />
		<tag k="place" v="locality" />
		<tag k="ssr:stedsnr" v="213928" />
	</node>
	<node lat="59.392347226005455" lon="7.404780559091422" id="-31143">
		<tag k="name" v="Åkroken" />
		<tag k="place" v="locality" />
		<tag k="ssr:stedsnr" v="214504" />
	</node>
	<node lat="59.418205558184646" lon="7.3906166671493185" id="-31144">
		<tag k="name" v="Nohedda" />
		<tag k="place" v="locality" />
		<tag k="ssr:stedsnr" v="214496" />
	</node>
	<node lat="59.41830278068405" lon="7.392788896892763" id="-31145">
		<tag k="name" v="Takkliskar" />
		<tag k="natural" v="valley" />
		<tag k="place" v="locality" />
		<tag k="ssr:stedsnr" v="214497" />
	</node>
	<node lat="59.493150001971955" lon="7.449361114370665" id="-31146">
		<tag k="name" v="Buene" />
		<tag k="natural" v="wetland" />
		<tag k="ssr:stedsnr" v="214607" />
	</node>
	<node lat="59.64188610876615" lon="7.395891664197402" id="-31147">
		<tag k="name" v="Kiletjønnlii" />
		<tag k="natural" v="slope" />
		<tag k="place" v="locality" />
		<tag k="ssr:stedsnr" v="214704" />
	</node>
	<node lat="59.303397221611554" lon="7.30497222983713" id="-31148">
		<tag k="alt_name" v="Litjørn" />
		<tag k="name" v="Litjønn" />
		<tag k="natural" v="water" />
		<tag k="ssr:stedsnr" v="214906" />
	</node>
	<node lat="59.35820000097454" lon="7.318341664839758" id="-31149">
		<tag k="name" v="Kileleitet" />
		<tag k="natural" v="slope" />
		<tag k="place" v="locality" />
		<tag k="ssr:stedsnr" v="214912" />
	</node>
	<node lat="59.51719444334618" lon="7.38415555763976" id="-31150">
		<tag k="name" v="Smylemoen" />
		<tag k="place" v="locality" />
		<tag k="ssr:stedsnr" v="214676" />
	</node>
	<node lat="59.29876691917414" lon="7.342979307400614" id="-31151">
		<tag k="name" v="Raudkleivhylen" />
		<tag k="place" v="locality" />
		<tag k="ssr:stedsnr" v="214884" />
	</node>
	<node lat="59.3064833324145" lon="7.36578055908302" id="-31152">
		<tag k="name" v="Lomskromoen" />
		<tag k="place" v="locality" />
		<tag k="ssr:stedsnr" v="214885" />
	</node>
	<node lat="59.30475277454166" lon="7.3595555558658114" id="-31153">
		<tag k="alt_name" v="Lomskrotjørni" />
		<tag k="name" v="Lomskrotjønni" />
		<tag k="natural" v="water" />
		<tag k="ssr:stedsnr" v="214890" />
	</node>
	<node lat="59.30685833718926" lon="7.360936113791776" id="-31154">
		<tag k="name" v="Lomskro" />
		<tag k="place" v="locality" />
		<tag k="ssr:stedsnr" v="214891" />
	</node>
	<node lat="59.63170833148713" lon="7.303352786354169" id="-31155">
		<tag k="name" v="Arthurstjønni" />
		<tag k="natural" v="water" />
		<tag k="old_name" v="Myrekvævtjørni" />
		<tag k="ssr:stedsnr" v="270412" />
	</node>
	<node lat="59.4407805594733" lon="7.338902780590858" id="-31157">
		<tag k="fixme" v="consider natural=peak for the most distinct mountains in the district" />
		<tag k="name" v="Heitjønnfjellet" />
		<tag k="natural" v="hill" />
		<tag k="place" v="locality" />
		<tag k="ssr:stedsnr" v="270870" />
	</node>
	<node lat="59.3638555532005" lon="7.191394449103571" id="-31158">
		<tag k="fixme" v="consider natural=peak for the most distinct mountains in the district" />
		<tag k="name" v="Krodalstindi" />
		<tag k="natural" v="hill" />
		<tag k="place" v="locality" />
		<tag k="ssr:stedsnr" v="270817" />
	</node>
	<node lat="59.44692123510025" lon="7.417334588440197" id="-31306">
		<tag k="name" v="Åsland" />
		<tag k="place" v="farm" />
		<tag k="ssr:stedsnr" v="245371" />
	</node>
	<node lat="59.4475944469759" lon="7.428577779241742" id="-31307">
		<tag k="fixme" v="consider place=hamlet" />
		<tag k="name" v="Berdalen" />
		<tag k="place" v="farm" />
		<tag k="ssr:stedsnr" v="245373" />
	</node>
	<node lat="59.44895833656877" lon="7.359824992795107" id="-31308">
		<tag k="fixme" v="consider natural=peak for the most distinct mountains in the district" />
		<tag k="name" v="Den lange ribben" />
		<tag k="natural" v="hill" />
		<tag k="old_name" v="Den lange risti" />
		<tag k="place" v="locality" />
		<tag k="ssr:stedsnr" v="245374" />
	</node>
	<node lat="59.508899996489305" lon="7.448199993836741" id="-31309">
		<tag k="name" v="Maurliflotti" />
		<tag k="natural" v="slope" />
		<tag k="place" v="locality" />
		<tag k="ssr:stedsnr" v="245624" />
	</node>
	<node lat="59.40051388619104" lon="7.350677783854635" id="-31310">
		<tag k="alt_name" v="Turtefjøddet" />
		<tag k="fixme" v="consider natural=peak for the most distinct mountains in the district" />
		<tag k="name" v="Turtefjelli" />
		<tag k="natural" v="hill" />
		<tag k="place" v="locality" />
		<tag k="ssr:stedsnr" v="245421" />
	</node>
	<node lat="59.62212222435783" lon="7.125924999780939" id="-31311">
		<tag k="alt_name" v="Såtetjørn" />
		<tag k="name" v="Såtetjønn" />
		<tag k="natural" v="water" />
		<tag k="ssr:stedsnr" v="245428" />
	</node>
	<node lat="59.30353055339374" lon="7.210066663334413" id="-31312">
		<tag k="name" v="Kydalen" />
		<tag k="natural" v="valley" />
		<tag k="place" v="locality" />
		<tag k="ssr:stedsnr" v="245437" />
	</node>
	<node lat="59.36883953837372" lon="7.372257722358129" id="-31313">
		<tag k="name" v="Vråstøyl" />
		<tag k="old_name" v="Vråstøl" />
		<tag k="place" v="locality" />
		<tag k="ssr:stedsnr" v="245572" />
	</node>
	<node lat="59.3846500029678" lon="7.475149992874732" id="-31314">
		<tag k="fixme" v="consider natural=peak for the most distinct mountains in the district" />
		<tag k="name" v="Stridsmoheii" />
		<tag k="natural" v="hill" />
		<tag k="place" v="locality" />
		<tag k="ssr:stedsnr" v="245578" />
	</node>
	<node lat="59.30080000013829" lon="7.362497222535127" id="-31315">
		<tag k="name" v="Sollinutane" />
		<tag k="natural" v="hill" />
		<tag k="place" v="locality" />
		<tag k="ssr:stedsnr" v="245706" />
	</node>
	<node lat="59.30172008375163" lon="7.423972485887273" id="-31316">
		<tag k="name" v="Røyrtveit" />
		<tag k="place" v="locality" />
		<tag k="ssr:stedsnr" v="245708" />
	</node>
	<node lat="59.3052555566487" lon="7.399472218378123" id="-31317">
		<tag k="historic" v="shieling" />
		<tag k="name" v="Løyningsstøylen" />
		<tag k="old_name" v="Løyningsstølen" />
		<tag k="place" v="isolated_dwelling" />
		<tag k="ssr:stedsnr" v="245711" />
	</node>
	<node lat="59.30602222265428" lon="7.471594446455636" id="-31318">
		<tag k="alt_name" v="Vasstøylsåne" />
		<tag k="loc_name" v="Vasstøylåni" />
		<tag k="name" v="Vasstøylsåni" />
		<tag k="old_name" v="Vasstølåni" />
		<tag k="ssr:stedsnr" v="245713" />
		<tag k="waterway" v="river" />
	</node>
	<node lat="59.55064444044128" lon="7.041786113979667" id="-31320">
		<tag k="name" v="Kvosshovd" />
		<tag k="natural" v="hill" />
		<tag k="place" v="locality" />
		<tag k="ssr:stedsnr" v="452399" />
	</node>
	<node lat="59.57058333433866" lon="7.315977778270608" id="-31321">
		<tag k="alt_name" v="Breiveskaret" />
		<tag k="name" v="Skardet" />
		<tag k="natural" v="valley" />
		<tag k="place" v="locality" />
		<tag k="ssr:stedsnr" v="246263" />
	</node>
	<node lat="59.546044448237524" lon="7.1716583333783515" id="-31322">
		<tag k="name" v="Åsmundstoglii" />
		<tag k="natural" v="slope" />
		<tag k="place" v="locality" />
		<tag k="ssr:stedsnr" v="246271" />
	</node>
	<node lat="59.54621944711114" lon="7.283347221028537" id="-31323">
		<tag k="name" v="Vesterdalsåni" />
		<tag k="ssr:stedsnr" v="246279" />
		<tag k="waterway" v="stream" />
	</node>
	<node lat="59.573813891196906" lon="7.290405560072531" id="-31324">
		<tag k="name" v="Breive" />
		<tag k="place" v="hamlet" />
		<tag k="ssr:stedsnr" v="246287" />
	</node>
	<node lat="59.647169443521896" lon="7.120625000445698" id="-31325">
		<tag k="alt_name" v="Svartepoddtjørni" />
		<tag k="name" v="Svartepoddtjønni" />
		<tag k="natural" v="water" />
		<tag k="ssr:stedsnr" v="246420" />
	</node>
	<node lat="59.65458333067373" lon="7.284005557423282" id="-31326">
		<tag k="name" v="Svartehyl" />
		<tag k="place" v="locality" />
		<tag k="ssr:stedsnr" v="246423" />
	</node>
	<node lat="59.64414999902575" lon="7.4245527722699665" id="-31327">
		<tag k="alt_name" v="Kvævbrotet" />
		<tag k="fixme" v="consider natural=peak for the most distinct mountains in the district" />
		<tag k="name" v="Kvæbrotet" />
		<tag k="natural" v="hill" />
		<tag k="place" v="locality" />
		<tag k="ssr:stedsnr" v="246520" />
	</node>
	<node lat="59.55910832891406" lon="7.454916666699453" id="-31328">
		<tag k="fixme" v="consider natural=peak for the most distinct mountains in the district" />
		<tag k="name" v="Hyttenuten" />
		<tag k="natural" v="hill" />
		<tag k="old_name" v="Hyttnuten" />
		<tag k="place" v="locality" />
		<tag k="ssr:stedsnr" v="246701" />
	</node>
	<node lat="59.35129444517806" lon="7.282302785604555" id="-31329">
		<tag k="name" v="Heimtveiti" />
		<tag k="place" v="farm" />
		<tag k="ssr:stedsnr" v="452676" />
	</node>
	<node lat="59.419850000743494" lon="7.115930564003867" id="-31330">
		<tag k="name" v="Gravvikskardet" />
		<tag k="natural" v="valley" />
		<tag k="place" v="locality" />
		<tag k="ssr:stedsnr" v="452894" />
	</node>
	<node lat="59.44446111232779" lon="7.316869445419673" id="-31331">
		<tag k="name" v="Kvæven" />
		<tag k="natural" v="valley" />
		<tag k="place" v="locality" />
		<tag k="ssr:stedsnr" v="452896" />
	</node>
	<node lat="59.400022224741065" lon="7.088922218905371" id="-31332">
		<tag k="name" v="Krokevasshytta" />
		<tag k="place" v="isolated_dwelling" />
		<tag k="ssr:stedsnr" v="452846" />
	</node>
	<node lat="59.32105277744564" lon="7.2223111126721955" id="-31333">
		<tag k="name" v="Lislestøylstjønni" />
		<tag k="natural" v="water" />
		<tag k="ssr:stedsnr" v="452859" />
	</node>
	<node lat="59.29030277474044" lon="7.388869452013057" id="-31334">
		<tag k="name" v="Hågås" />
		<tag k="natural" v="hill" />
		<tag k="place" v="locality" />
		<tag k="ssr:stedsnr" v="456962" />
	</node>
	<node lat="59.385380555224096" lon="7.381102770161736" id="-31335">
		<tag k="historic" v="shieling" />
		<tag k="name" v="Seten" />
		<tag k="place" v="isolated_dwelling" />
		<tag k="ssr:stedsnr" v="456509" />
	</node>
	<node lat="59.40371666967573" lon="7.422311103866473" id="-31337">
		<tag k="name" v="Stoplestadbekken" />
		<tag k="ssr:stedsnr" v="456523" />
		<tag k="waterway" v="stream" />
	</node>
	<node lat="59.387291671025054" lon="7.34399722851151" id="-31338">
		<tag k="fixme" v="consider natural=peak for the most distinct mountains in the district" />
		<tag k="name" v="Heitjønnfjøddet" />
		<tag k="natural" v="hill" />
		<tag k="place" v="locality" />
		<tag k="ssr:stedsnr" v="456528" />
	</node>
	<node lat="59.44973055672754" lon="7.424077776264937" id="-31339">
		<tag k="name" v="Hagen" />
		<tag k="place" v="locality" />
		<tag k="ssr:stedsnr" v="456546" />
	</node>
	<node lat="59.44506389174167" lon="7.417308331935467" id="-31340">
		<tag k="bridge" v="yes" />
		<tag k="layer" v="1" />
		<tag k="name" v="Berdalsbru" />
		<tag k="ssr:stedsnr" v="456550" />
	</node>
	<node lat="59.45615000199243" lon="7.446366661038517" id="-31341">
		<tag k="fixme" v="consider natural=peak for the most distinct mountains in the district" />
		<tag k="name" v="Listøylnuten" />
		<tag k="natural" v="hill" />
		<tag k="place" v="locality" />
		<tag k="ssr:stedsnr" v="456558" />
	</node>
	<node lat="59.5738277790902" lon="7.2936027824986205" id="-31342">
		<tag k="name" v="Haugen" />
		<tag k="place" v="farm" />
		<tag k="ssr:stedsnr" v="456594" />
	</node>
	<node lat="59.495391670006725" lon="7.452816669985123" id="-31343">
		<tag k="name" v="Hagadalsrenna" />
		<tag k="natural" v="valley" />
		<tag k="place" v="locality" />
		<tag k="ssr:stedsnr" v="456600" />
	</node>
	<node lat="59.62013055893526" lon="7.372502770086308" id="-31344">
		<tag k="name" v="Ørnereiret" />
		<tag k="place" v="locality" />
		<tag k="ssr:stedsnr" v="456643" />
	</node>
	<node lat="59.64246944581966" lon="7.440466661962702" id="-31345">
		<tag k="name" v="Bjålii" />
		<tag k="natural" v="slope" />
		<tag k="place" v="locality" />
		<tag k="ssr:stedsnr" v="456667" />
	</node>
	<node lat="59.46462221865996" lon="7.376594442087188" id="-31346">
		<tag k="name" v="Sagebenken" />
		<tag k="natural" v="ridge" />
		<tag k="place" v="locality" />
		<tag k="ssr:stedsnr" v="456650" />
	</node>
	<node lat="59.30623610726875" lon="7.361930552826218" id="-31347">
		<tag k="name" v="Holamyr" />
		<tag k="natural" v="wetland" />
		<tag k="ssr:stedsnr" v="456865" />
	</node>
	<node lat="59.309688892373835" lon="7.308638882156033" id="-31348">
		<tag k="name" v="Libekk" />
		<tag k="ssr:stedsnr" v="456867" />
		<tag k="waterway" v="stream" />
	</node>
	<node lat="59.322113885430554" lon="7.357227786363841" id="-31349">
		<tag k="name" v="Strandebekken" />
		<tag k="ssr:stedsnr" v="456841" />
		<tag k="waterway" v="stream" />
	</node>
	<node lat="59.304169442696264" lon="7.319575004409042" id="-31350">
		<tag k="name" v="Hisåjuvet" />
		<tag k="natural" v="gorge" />
		<tag k="ssr:stedsnr" v="456879" />
	</node>
	<node lat="59.30167222267006" lon="7.2911916662401755" id="-31351">
		<tag k="name" v="Løken" />
		<tag k="natural" v="water" />
		<tag k="ssr:stedsnr" v="456883" />
		<tag k="water" v="lake" />
	</node>
	<node lat="59.303655558693045" lon="7.313397229865325" id="-31352">
		<tag k="name" v="Skarshaugen" />
		<tag k="natural" v="hill" />
		<tag k="place" v="locality" />
		<tag k="ssr:stedsnr" v="456884" />
	</node>
	<node lat="59.31898055986015" lon="7.362322220617071" id="-31353">
		<tag k="name" v="Grasholtkrone" />
		<tag k="place" v="locality" />
		<tag k="ssr:stedsnr" v="456846" />
	</node>
	<node lat="59.31687222492594" lon="7.324074993760155" id="-31354">
		<tag k="name" v="Storøy" />
		<tag k="place" v="island" />
		<tag k="ssr:stedsnr" v="456847" />
	</node>
	<node lat="59.31301110827721" lon="7.325763894133668" id="-31355">
		<tag k="name" v="Rekaviki" />
		<tag k="natural" v="bay" />
		<tag k="ssr:stedsnr" v="456850" />
	</node>
	<node lat="59.318658331686166" lon="7.36866111362623" id="-31356">
		<tag k="fixme" v="consider natural=peak for the most distinct mountains in the district" />
		<tag k="name" v="Øybønuten" />
		<tag k="natural" v="hill" />
		<tag k="place" v="locality" />
		<tag k="ssr:stedsnr" v="456856" />
	</node>
	<node lat="59.318252774856944" lon="7.3640472271308735" id="-31357">
		<tag k="name" v="Ånundsbu" />
		<tag k="place" v="locality" />
		<tag k="ssr:stedsnr" v="456857" />
	</node>
	<node lat="59.33654722187236" lon="7.283419435949052" id="-31358">
		<tag k="name" v="Tveiteljotdal" />
		<tag k="natural" v="valley" />
		<tag k="place" v="locality" />
		<tag k="ssr:stedsnr" v="456909" />
	</node>
	<node lat="59.54846944659981" lon="7.452797217936349" id="-31359">
		<tag k="name" v="Torvevarane" />
		<tag k="place" v="locality" />
		<tag k="ssr:stedsnr" v="456990" />
	</node>
	<node lat="59.34010555744417" lon="7.445736108421778" id="-31360">
		<tag k="alt_name" v="Tinndalstjørn" />
		<tag k="name" v="Tinndalstjønn" />
		<tag k="natural" v="water" />
		<tag k="ssr:stedsnr" v="456991" />
	</node>
	<node lat="59.33345000008761" lon="7.376505554196806" id="-31361">
		<tag k="fixme" v="consider natural=peak for the most distinct mountains in the district" />
		<tag k="name" v="Nonåsen" />
		<tag k="natural" v="hill" />
		<tag k="place" v="locality" />
		<tag k="ssr:stedsnr" v="456992" />
	</node>
	<node lat="59.335541665362335" lon="7.402947218652246" id="-31362">
		<tag k="name" v="Tjørnane" />
		<tag k="natural" v="water" />
		<tag k="ssr:stedsnr" v="456993" />
	</node>
	<node lat="59.33815833089564" lon="7.398361107504897" id="-31363">
		<tag k="name" v="Hommelii" />
		<tag k="natural" v="slope" />
		<tag k="place" v="locality" />
		<tag k="ssr:stedsnr" v="456994" />
	</node>
	<node lat="59.33084444315334" lon="7.420877779397696" id="-31364">
		<tag k="name" v="Fitjebekken" />
		<tag k="ssr:stedsnr" v="456924" />
		<tag k="waterway" v="stream" />
	</node>
	<node lat="59.332938892859715" lon="7.426402785900063" id="-31365">
		<tag k="name" v="Smoget" />
		<tag k="natural" v="valley" />
		<tag k="place" v="locality" />
		<tag k="ssr:stedsnr" v="456933" />
	</node>
	<node lat="59.31258611238941" lon="7.392619440609897" id="-31366">
		<tag k="name" v="Bikkjeskar" />
		<tag k="natural" v="valley" />
		<tag k="place" v="locality" />
		<tag k="ssr:stedsnr" v="456942" />
	</node>
	<node lat="59.31650277820219" lon="7.381055546906168" id="-31367">
		<tag k="name" v="Øybølii" />
		<tag k="natural" v="slope" />
		<tag k="place" v="locality" />
		<tag k="ssr:stedsnr" v="456948" />
	</node>
	<node lat="59.32331389042705" lon="7.394911111669178" id="-31368">
		<tag k="alt_name" v="Svårtetjørn" />
		<tag k="name" v="Svårtetjønn" />
		<tag k="natural" v="water" />
		<tag k="ssr:stedsnr" v="456951" />
	</node>
	<node lat="59.329147219912024" lon="7.379780552201252" id="-31369">
		<tag k="name" v="Den lange jota" />
		<tag k="natural" v="wetland" />
		<tag k="ssr:stedsnr" v="456955" />
	</node>
	<node lat="59.29309444196114" lon="7.3977277801406185" id="-31370">
		<tag k="name" v="Kåveskori" />
		<tag k="natural" v="valley" />
		<tag k="place" v="locality" />
		<tag k="ssr:stedsnr" v="456957" />
	</node>
	<node lat="59.33128611104256" lon="7.422116663131531" id="-31371">
		<tag k="name" v="Fitjan" />
		<tag k="place" v="isolated_dwelling" />
		<tag k="ssr:stedsnr" v="266138" />
	</node>
	<node lat="59.45957777372222" lon="7.39186666786244" id="-31372">
		<tag k="alt_name" v="Haugen hyttefelt" />
		<tag k="name" v="Haugen" />
		<tag k="place" v="neighbourhood" />
		<tag k="ssr:stedsnr" v="266145" />
	</node>
	<node lat="59.406399998718285" lon="7.225274995043276" id="-31373">
		<tag k="ford" v="yes" />
		<tag k="name" v="Spranget" />
		<tag k="place" v="locality" />
		<tag k="ssr:stedsnr" v="270821" />
	</node>
	<node lat="59.32463332917023" lon="7.299019448757407" id="-31374">
		<tag k="name" v="Nausebekken" />
		<tag k="ssr:stedsnr" v="270823" />
		<tag k="waterway" v="stream" />
	</node>
	<node lat="59.30946110976311" lon="7.300180552687525" id="-31375">
		<tag k="fixme" v="consider natural=peak for the most distinct mountains in the district" />
		<tag k="name" v="Rysefjellet" />
		<tag k="natural" v="hill" />
		<tag k="place" v="locality" />
		<tag k="ssr:stedsnr" v="270833" />
	</node>
	<node lat="59.38661388996411" lon="7.395888881667099" id="-31376">
		<tag k="name" v="Mobekken" />
		<tag k="ssr:stedsnr" v="274474" />
		<tag k="waterway" v="stream" />
	</node>
	<node lat="59.37784722563657" lon="7.380311118994184" id="-31377">
		<tag k="name" v="Stokkemyrane" />
		<tag k="natural" v="wetland" />
		<tag k="ssr:stedsnr" v="274480" />
	</node>
	<node lat="59.64417777497629" lon="7.4412083313582125" id="-31378">
		<tag k="name" v="Hjedden" />
		<tag k="place" v="locality" />
		<tag k="ssr:stedsnr" v="274603" />
	</node>
	<node lat="59.61636666474259" lon="7.377030563052731" id="-31379">
		<tag k="name" v="Kloppi" />
		<tag k="place" v="locality" />
		<tag k="ssr:stedsnr" v="274614" />
	</node>
	<node lat="59.52179722113626" lon="7.468536110969341" id="-31380">
		<tag k="name" v="Flæi" />
		<tag k="natural" v="slope" />
		<tag k="place" v="locality" />
		<tag k="ssr:stedsnr" v="274622" />
	</node>
	<node lat="59.46772500135602" lon="7.414152777105048" id="-31381">
		<tag k="name" v="Steinmoen" />
		<tag k="place" v="locality" />
		<tag k="ssr:stedsnr" v="274623" />
	</node>
	<node lat="59.402291666666684" lon="7.3862555588019765" id="-31382">
		<tag k="name" v="Glommane" />
		<tag k="natural" v="slope" />
		<tag k="place" v="locality" />
		<tag k="ssr:stedsnr" v="274502" />
	</node>
	<node lat="59.43975555198138" lon="7.350844452363122" id="-31383">
		<tag k="name" v="Rundemandalen" />
		<tag k="natural" v="valley" />
		<tag k="place" v="locality" />
		<tag k="ssr:stedsnr" v="274509" />
	</node>
	<node lat="59.43375277889702" lon="7.351363884796289" id="-31384">
		<tag k="name" v="Vedebrokke" />
		<tag k="place" v="locality" />
		<tag k="ssr:stedsnr" v="274514" />
	</node>
	<node lat="59.56739444640367" lon="7.2986527789406415" id="-31385">
		<tag k="name" v="Kanalen" />
		<tag k="ssr:stedsnr" v="274569" />
		<tag k="waterway" v="canal" />
	</node>
	<node lat="59.57183333001455" lon="7.305450005303512" id="-31386">
		<tag k="name" v="Heibekken" />
		<tag k="ssr:stedsnr" v="274574" />
		<tag k="waterway" v="stream" />
	</node>
	<node lat="59.49045555360331" lon="7.479341659040164" id="-31387">
		<tag k="name" v="Flatane" />
		<tag k="place" v="locality" />
		<tag k="ssr:stedsnr" v="274581" />
	</node>
	<node lat="59.31769999734" lon="7.3265583309484255" id="-31388">
		<tag k="name" v="Evjane" />
		<tag k="place" v="locality" />
		<tag k="ssr:stedsnr" v="274812" />
	</node>
	<node lat="59.3072333326045" lon="7.3321027800631775" id="-31389">
		<tag k="name" v="Hisøyni" />
		<tag k="place" v="island" />
		<tag k="ssr:stedsnr" v="274829" />
	</node>
	<node lat="59.34048333292936" lon="7.28052777804923" id="-31390">
		<tag k="name" v="Bubekken" />
		<tag k="ssr:stedsnr" v="274881" />
		<tag k="waterway" v="stream" />
	</node>
	<node lat="59.33239444034339" lon="7.422830553750928" id="-31391">
		<tag k="fixme" v="consider natural=peak for the most distinct mountains in the district" />
		<tag k="name" v="Øvre Fitjehaugen" />
		<tag k="natural" v="hill" />
		<tag k="place" v="locality" />
		<tag k="ssr:stedsnr" v="274909" />
	</node>
	<node lat="59.34757222319503" lon="7.352197219375385" id="-31392">
		<tag k="name" v="Byklelii" />
		<tag k="natural" v="slope" />
		<tag k="place" v="locality" />
		<tag k="ssr:stedsnr" v="274911" />
	</node>
	<node lat="59.288144446479194" lon="7.411444441556226" id="-31393">
		<tag k="name" v="Padane" />
		<tag k="place" v="locality" />
		<tag k="ssr:stedsnr" v="274917" />
	</node>
	<node lat="59.31085000003293" lon="7.418286105730405" id="-31394">
		<tag k="fixme" v="consider natural=peak for the most distinct mountains in the district" />
		<tag k="name" v="Oppå Nasefjødd" />
		<tag k="natural" v="hill" />
		<tag k="place" v="locality" />
		<tag k="ssr:stedsnr" v="274923" />
	</node>
	<node lat="59.367072219662234" lon="7.376225004466305" id="-31395">
		<tag k="name" v="Otrajuvet" />
		<tag k="natural" v="gorge" />
		<tag k="ssr:stedsnr" v="274978" />
	</node>
	<node lat="59.3654333304589" lon="7.392908328627758" id="-31396">
		<tag k="name" v="Trætteholet" />
		<tag k="natural" v="valley" />
		<tag k="place" v="locality" />
		<tag k="ssr:stedsnr" v="274980" />
	</node>
	<node lat="59.36351944692108" lon="7.401408335407494" id="-31397">
		<tag k="name" v="Kolsvikmyrane" />
		<tag k="natural" v="wetland" />
		<tag k="ssr:stedsnr" v="274981" />
	</node>
	<node lat="59.36758611055616" lon="7.393280554283185" id="-31398">
		<tag k="name" v="Tveitstøylbekken" />
		<tag k="ssr:stedsnr" v="274983" />
		<tag k="waterway" v="stream" />
	</node>
	<node lat="59.374805557980714" lon="7.420938880824821" id="-31399">
		<tag k="name" v="Kvæven" />
		<tag k="natural" v="valley" />
		<tag k="place" v="locality" />
		<tag k="ssr:stedsnr" v="274984" />
	</node>
	<node lat="59.337555556576994" lon="7.398308330420924" id="-31400">
		<tag k="name" v="Hommen" />
		<tag k="place" v="locality" />
		<tag k="ssr:stedsnr" v="274990" />
	</node>
	<node lat="59.33533888910397" lon="7.383944437913562" id="-31401">
		<tag k="name" v="Trydalsjota" />
		<tag k="natural" v="valley" />
		<tag k="place" v="locality" />
		<tag k="ssr:stedsnr" v="274991" />
	</node>
	<node lat="59.337452778766014" lon="7.395102780975938" id="-31402">
		<tag k="name" v="Kverven" />
		<tag k="place" v="locality" />
		<tag k="ssr:stedsnr" v="274993" />
	</node>
	<node lat="59.35545833504635" lon="7.361508330619164" id="-31404">
		<tag k="bridge" v="yes" />
		<tag k="layer" v="1" />
		<tag k="name" v="Bykle undergang" />
		<tag k="ssr:stedsnr" v="289136" />
	</node>
	<node lat="59.35677499871332" lon="7.0776138969192735" id="-31439">
		<tag k="name" v="Flæheii" />
		<tag k="natural" v="hill" />
		<tag k="place" v="locality" />
		<tag k="ssr:stedsnr" v="295024" />
	</node>
	<node lat="59.3334527811682" lon="7.325099999409687" id="-31545">
		<tag k="name" v="Bjones" />
		<tag k="place" v="farm" />
		<tag k="ssr:stedsnr" v="305305" />
	</node>
	<node lat="59.413886115119276" lon="7.4517166636484085" id="-31546">
		<tag k="name" v="Glidbjørgsdalen" />
		<tag k="natural" v="valley" />
		<tag k="place" v="locality" />
		<tag k="ssr:stedsnr" v="305453" />
	</node>
	<node lat="59.39737777646405" lon="7.37483611678129" id="-31547">
		<tag k="name" v="Hagabubekken" />
		<tag k="ssr:stedsnr" v="305665" />
		<tag k="waterway" v="stream" />
	</node>
	<node lat="59.314466664641174" lon="7.379502786092688" id="-31548">
		<tag k="name" v="Såvesli" />
		<tag k="natural" v="slope" />
		<tag k="old_name" v="Sovesli" />
		<tag k="place" v="locality" />
		<tag k="ssr:stedsnr" v="305570" />
	</node>
	<node lat="59.49317499624754" lon="7.186386109721621" id="-31549">
		<tag k="historic" v="shieling" />
		<tag k="name" v="Flatestøyl" />
		<tag k="place" v="isolated_dwelling" />
		<tag k="ssr:stedsnr" v="306122" />
	</node>
	<node lat="59.59660555561721" lon="7.306113887669536" id="-31550">
		<tag k="alt_name" v="Stemtjørnnutane" />
		<tag k="fixme" v="consider natural=peak for the most distinct mountains in the district" />
		<tag k="name" v="Stemtjønnutane" />
		<tag k="natural" v="hill" />
		<tag k="place" v="locality" />
		<tag k="ssr:stedsnr" v="306302" />
	</node>
	<node lat="59.32646666307118" lon="7.4081055604460975" id="-31551">
		<tag k="alt_name" v="Kroketjørn;Kroktjørn;Kroketjønn" />
		<tag k="name" v="Kroktjønn" />
		<tag k="natural" v="water" />
		<tag k="ssr:stedsnr" v="306502" />
	</node>
	<node lat="59.3249972265687" lon="7.345827783982459" id="-31552">
		<tag k="fixme" v="consider place=hamlet" />
		<tag k="name" v="Trydal" />
		<tag k="place" v="farm" />
		<tag k="ssr:stedsnr" v="306507" />
	</node>
	<node lat="59.63779280951893" lon="7.415809462599566" id="-31553">
		<tag k="name" v="Bringa" />
		<tag k="place" v="locality" />
		<tag k="ssr:stedsnr" v="306523" />
	</node>
	<node lat="59.63765390432693" lon="7.431830429395089" id="-31554">
		<tag k="alt_name" v="Vikvodden" />
		<tag k="name" v="Vikvollen" />
		<tag k="place" v="locality" />
		<tag k="ssr:stedsnr" v="306524" />
	</node>
	<node lat="59.35373610857199" lon="7.379930551775312" id="-31555">
		<tag k="alt_name" v="Bjårbekken" />
		<tag k="name" v="Bjorbekken" />
		<tag k="ssr:stedsnr" v="306535" />
		<tag k="waterway" v="stream" />
	</node>
	<node lat="59.43465000186897" lon="7.489963893284087" id="-31556">
		<tag k="fixme" v="consider natural=peak for the most distinct mountains in the district" />
		<tag k="name" v="Rjodnuten" />
		<tag k="natural" v="hill" />
		<tag k="place" v="locality" />
		<tag k="ssr:stedsnr" v="306407" />
	</node>
	<node lat="59.42579999569744" lon="7.375522228072847" id="-31557">
		<tag k="name" v="Stedjan" />
		<tag k="old_name" v="Stedjane" />
		<tag k="place" v="isolated_dwelling" />
		<tag k="ssr:stedsnr" v="306412" />
	</node>
	<node lat="59.42480833614514" lon="7.553208341958136" id="-31558">
		<tag k="alt_name" v="Den lange tjørni" />
		<tag k="name" v="Den lange tjønni" />
		<tag k="natural" v="water" />
		<tag k="ssr:stedsnr" v="306415" />
	</node>
	<node lat="59.41181110842226" lon="7.3987416710760625" id="-31559">
		<tag k="name" v="Skardgil" />
		<tag k="place" v="isolated_dwelling" />
		<tag k="ssr:stedsnr" v="306416" />
	</node>
	<node lat="59.619463889431245" lon="7.335438887619758" id="-31560">
		<tag k="name" v="Mjåvatn" />
		<tag k="natural" v="water" />
		<tag k="ssr:stedsnr" v="306422" />
		<tag k="water" v="lake" />
	</node>
	<node lat="59.38934166352254" lon="7.303113889575454" id="-31561">
		<tag k="alt_name" v="Krofjøddet" />
		<tag k="fixme" v="consider natural=peak for the most distinct mountains in the district" />
		<tag k="name" v="Krofjellet" />
		<tag k="natural" v="hill" />
		<tag k="place" v="locality" />
		<tag k="ssr:stedsnr" v="306615" />
	</node>
	<node lat="59.626452781137864" lon="7.110877780672309" id="-31562">
		<tag k="name" v="Såtedalen" />
		<tag k="natural" v="valley" />
		<tag k="place" v="locality" />
		<tag k="ssr:stedsnr" v="307454" />
	</node>
	<node lat="59.63189444416489" lon="7.2546944405901135" id="-31563">
		<tag k="name" v="Hardingskardet" />
		<tag k="natural" v="valley" />
		<tag k="place" v="locality" />
		<tag k="ssr:stedsnr" v="307462" />
	</node>
	<node lat="59.6324111107892" lon="7.183513881145051" id="-31564">
		<tag k="name" v="Båstogvatn" />
		<tag k="natural" v="water" />
		<tag k="ssr:stedsnr" v="307466" />
		<tag k="water" v="lake" />
	</node>
	<node lat="59.24859999703415" lon="6.806783328633947" id="-31566">
		<tag k="name" v="Heiane" />
		<tag k="natural" v="mountain_range" />
		<tag k="ssr:stedsnr" v="326179" />
	</node>
	<node lat="59.56667681107781" lon="7.356949264782505" id="-31567">
		<tag k="fixme" v="consider natural=peak for the most distinct mountains in the district" />
		<tag k="name" v="Flatastøylåsen" />
		<tag k="natural" v="hill" />
		<tag k="place" v="locality" />
		<tag k="ssr:stedsnr" v="326365" />
	</node>
	<node lat="59.558278126091494" lon="7.345926435922844" id="-31568">
		<tag k="alt_name" v="Djupetjørn" />
		<tag k="name" v="Djupetjønn" />
		<tag k="natural" v="water" />
		<tag k="ssr:stedsnr" v="326371" />
	</node>
	<node lat="59.5283587471431" lon="7.389734359412342" id="-31569">
		<tag k="alt_name" v="Badstogdalstjørn" />
		<tag k="name" v="Badstogdalstjønn" />
		<tag k="natural" v="water" />
		<tag k="ssr:stedsnr" v="326377" />
	</node>
	<node lat="59.37216388639453" lon="7.314786102579345" id="-31570">
		<tag k="fixme" v="consider natural=peak for the most distinct mountains in the district" />
		<tag k="name" v="Tindi" />
		<tag k="natural" v="hill" />
		<tag k="place" v="locality" />
		<tag k="ssr:stedsnr" v="330875" />
	</node>
	<node lat="59.312402776956525" lon="7.365808335898788" id="-31571">
		<tag k="bridge" v="yes" />
		<tag k="layer" v="1" />
		<tag k="name" v="Uptestøyl øvre" />
		<tag k="ssr:stedsnr" v="471153" />
	</node>
	<node lat="59.470769443367836" lon="7.34319166771353" id="-31572">
		<tag k="name" v="Pershola" />
		<tag k="natural" v="wetland" />
		<tag k="ssr:stedsnr" v="335548" />
	</node>
	<node lat="59.45381110920377" lon="7.389241664315815" id="-31573">
		<tag k="name" v="Langetjønnbekken" />
		<tag k="natural" v="water" />
		<tag k="ssr:stedsnr" v="335552" />
	</node>
	<node lat="59.575091664094096" lon="7.302927786449735" id="-31574">
		<tag k="name" v="Legi" />
		<tag k="natural" v="valley" />
		<tag k="place" v="locality" />
		<tag k="ssr:stedsnr" v="335593" />
	</node>
	<node lat="59.39469722586061" lon="7.4518916648005895" id="-31575">
		<tag k="name" v="Lundeflatane" />
		<tag k="natural" v="wetland" />
		<tag k="ssr:stedsnr" v="335595" />
	</node>
	<node lat="59.64106389224652" lon="7.421333326753819" id="-31576">
		<tag k="name" v="Kvævrenna" />
		<tag k="natural" v="valley" />
		<tag k="place" v="locality" />
		<tag k="ssr:stedsnr" v="335704" />
	</node>
	<node lat="59.3944249992402" lon="7.391911104624835" id="-31577">
		<tag k="fixme" v="consider natural=peak for the most distinct mountains in the district" />
		<tag k="name" v="Dvolenuten" />
		<tag k="natural" v="hill" />
		<tag k="place" v="locality" />
		<tag k="ssr:stedsnr" v="335754" />
	</node>
	<node lat="59.47083333240056" lon="7.3971527780286355" id="-31578">
		<tag k="name" v="Stykkjeslåtta" />
		<tag k="natural" v="wetland" />
		<tag k="ssr:stedsnr" v="335616" />
	</node>
	<node lat="59.50450277987288" lon="7.39520832987505" id="-31579">
		<tag k="name" v="Grasdalsnibba" />
		<tag k="natural" v="ridge" />
		<tag k="place" v="locality" />
		<tag k="ssr:stedsnr" v="335631" />
	</node>
	<node lat="59.62098610763413" lon="7.426680550601335" id="-31580">
		<tag k="name" v="Breivassosen" />
		<tag k="natural" v="bay" />
		<tag k="ssr:stedsnr" v="335646" />
	</node>
	<node lat="59.62353055785439" lon="7.4433222287368155" id="-31581">
		<tag k="name" v="Grunnen" />
		<tag k="natural" v="shoal" />
		<tag k="place" v="locality" />
		<tag k="ssr:stedsnr" v="335649" />
	</node>
	<node lat="59.607827778659164" lon="7.3761333376784375" id="-31582">
		<tag k="name" v="Lislevassliane" />
		<tag k="natural" v="slope" />
		<tag k="place" v="locality" />
		<tag k="ssr:stedsnr" v="335655" />
	</node>
	<node lat="59.63087500450053" lon="7.461550001694669" id="-31583">
		<tag k="name" v="Nubbeslåttone" />
		<tag k="natural" v="wetland" />
		<tag k="ssr:stedsnr" v="335657" />
	</node>
	<node lat="59.638480555855615" lon="7.417311108936669" id="-31584">
		<tag k="name" v="Bringelii" />
		<tag k="natural" v="slope" />
		<tag k="place" v="locality" />
		<tag k="ssr:stedsnr" v="335694" />
	</node>
	<node lat="59.637155554190386" lon="7.40784444304689" id="-31585">
		<tag k="name" v="Heimre Kiletjønn" />
		<tag k="natural" v="water" />
		<tag k="ssr:stedsnr" v="335696" />
	</node>
	<node lat="59.637352777416204" lon="7.40390277746103" id="-31586">
		<tag k="historic" v="shieling" />
		<tag k="name" v="Hyttevodden" />
		<tag k="place" v="locality" />
		<tag k="ssr:stedsnr" v="335698" />
	</node>
	<node lat="59.351094448837635" lon="7.345091672046635" id="-31587">
		<tag k="name" v="Kultrane" />
		<tag k="place" v="farm" />
		<tag k="ssr:stedsnr" v="335948" />
	</node>
	<node lat="59.30251389262953" lon="7.400194438595744" id="-31588">
		<tag k="name" v="Dapane" />
		<tag k="place" v="locality" />
		<tag k="ssr:stedsnr" v="335970" />
	</node>
	<node lat="59.33976111004076" lon="7.403908338733505" id="-31589">
		<tag k="name" v="Stedi" />
		<tag k="place" v="locality" />
		<tag k="ssr:stedsnr" v="335998" />
	</node>
	<node lat="59.46271388946507" lon="7.19517778608698" id="-31882">
		<tag k="name" v="Novi" />
		<tag k="natural" v="hill" />
		<tag k="place" v="locality" />
		<tag k="ssr:stedsnr" v="366183" />
	</node>
	<node lat="59.31959721954118" lon="7.322363896022834" id="-31883">
		<tag k="name" v="Stigahyl" />
		<tag k="place" v="locality" />
		<tag k="ssr:stedsnr" v="366307" />
	</node>
	<node lat="59.4183249985879" lon="7.174188895809951" id="-31884">
		<tag k="name" v="Ulvetuva" />
		<tag k="natural" v="stone" />
		<tag k="ssr:stedsnr" v="366317" />
	</node>
	<node lat="59.41367499942039" lon="6.998658333644863" id="-31885">
		<tag k="fixme" v="consider natural=peak for the most distinct mountains in the district" />
		<tag k="name" v="Vassdalsbergi" />
		<tag k="natural" v="hill" />
		<tag k="place" v="locality" />
		<tag k="ssr:stedsnr" v="366320" />
	</node>
	<node lat="59.42504444534285" lon="7.049997224114365" id="-31886">
		<tag k="alt_name" v="Ratevatn, yt" />
		<tag k="name" v="Ytre Ratevatn" />
		<tag k="natural" v="water" />
		<tag k="ssr:stedsnr" v="366323" />
		<tag k="water" v="lake" />
	</node>
	<node lat="59.43825000262203" lon="7.194966670201457" id="-31887">
		<tag k="alt_name" v="Reinevasskaret" />
		<tag k="name" v="Reinevasskardet" />
		<tag k="natural" v="valley" />
		<tag k="place" v="locality" />
		<tag k="ssr:stedsnr" v="366327" />
	</node>
	<node lat="59.395061109098926" lon="7.181361105754143" id="-31888">
		<tag k="name" v="Tveite-Djupetjønn" />
		<tag k="natural" v="water" />
		<tag k="ssr:stedsnr" v="366335" />
	</node>
	<node lat="59.40632777511115" lon="7.140302771354542" id="-31889">
		<tag k="name" v="Venedal" />
		<tag k="natural" v="valley" />
		<tag k="place" v="locality" />
		<tag k="ssr:stedsnr" v="366343" />
	</node>
	<node lat="59.376152779827365" lon="7.042466660449601" id="-31890">
		<tag k="name" v="Sandvodene" />
		<tag k="place" v="locality" />
		<tag k="ssr:stedsnr" v="366348" />
	</node>
	<node lat="59.38782500020068" lon="7.277875006648798" id="-31891">
		<tag k="historic" v="shieling" />
		<tag k="name" v="Øystøyl" />
		<tag k="place" v="isolated_dwelling" />
		<tag k="ssr:stedsnr" v="366353" />
	</node>
	<node lat="59.338100002988504" lon="7.311425003213251" id="-31892">
		<tag k="name" v="Solli" />
		<tag k="place" v="farm" />
		<tag k="ssr:stedsnr" v="366286" />
	</node>
	<node lat="59.32600277558877" lon="7.231049993674767" id="-31893">
		<tag k="fixme" v="consider natural=peak for the most distinct mountains in the district" />
		<tag k="name" v="Tjønnefjell" />
		<tag k="natural" v="hill" />
		<tag k="place" v="locality" />
		<tag k="ssr:stedsnr" v="366290" />
	</node>
	<node lat="59.32802777785141" lon="7.311286102822828" id="-31894">
		<tag k="alt_name" v="Lambetone;Lammeto" />
		<tag k="name" v="Lambeto" />
		<tag k="natural" v="valley" />
		<tag k="place" v="locality" />
		<tag k="ssr:stedsnr" v="366292" />
	</node>
	<node lat="59.31887777748012" lon="7.025433334173006" id="-31895">
		<tag k="name" v="Glovetjønn" />
		<tag k="natural" v="water" />
		<tag k="ssr:stedsnr" v="366297" />
	</node>
	<node lat="59.31005555754826" lon="7.143525002210784" id="-31896">
		<tag k="fixme" v="consider natural=peak for the most distinct mountains in the district" />
		<tag k="name" v="Storehaug" />
		<tag k="natural" v="hill" />
		<tag k="place" v="locality" />
		<tag k="ssr:stedsnr" v="366299" />
	</node>
	<node lat="59.43653055316249" lon="7.367286108284608" id="-31897">
		<tag k="alt_name" v="Flotatjørn" />
		<tag k="name" v="Flotatjønn" />
		<tag k="natural" v="water" />
		<tag k="old_name" v="Flotatjørni" />
		<tag k="ssr:stedsnr" v="366414" />
	</node>
	<node lat="59.31767221906029" lon="7.359066660858003" id="-31900">
		<tag k="name" v="Grasbrokke" />
		<tag k="place" v="farm" />
		<tag k="ssr:stedsnr" v="366539" />
	</node>
	<node lat="59.35521111473213" lon="7.409377777642382" id="-31901">
		<tag k="historic" v="shieling" />
		<tag k="name" v="Rota" />
		<tag k="place" v="isolated_dwelling" />
		<tag k="ssr:stedsnr" v="366582" />
	</node>
	<node lat="59.355227774197076" lon="7.3677750018313946" id="-31902">
		<tag k="name" v="Sarvsfossen" />
		<tag k="natural" v="waterfall" />
		<tag k="ssr:stedsnr" v="366586" />
	</node>
	<node lat="59.50633889133303" lon="7.0640361191708605" id="-31906">
		<tag k="fixme" v="consider natural=peak for the most distinct mountains in the district" />
		<tag k="name" v="Sandbankane" />
		<tag k="natural" v="hill" />
		<tag k="place" v="locality" />
		<tag k="ssr:stedsnr" v="367212" />
	</node>
	<node lat="59.54749166733261" lon="7.311763893071373" id="-31907">
		<tag k="alt_name" v="Brattlistøylen" />
		<tag k="historic" v="shieling" />
		<tag k="name" v="Brattlistølen" />
		<tag k="place" v="isolated_dwelling" />
		<tag k="ssr:stedsnr" v="367227" />
	</node>
	<node lat="59.618902780521836" lon="7.4509638841929515" id="-31911">
		<tag k="name" v="Flottebekken" />
		<tag k="ssr:stedsnr" v="367482" />
		<tag k="waterway" v="stream" />
	</node>
	<node lat="59.64935833200037" lon="7.4097777860929686" id="-31912">
		<tag k="fixme" v="consider natural=peak for the most distinct mountains in the district" />
		<tag k="name" v="Halsenden" />
		<tag k="natural" v="hill" />
		<tag k="place" v="locality" />
		<tag k="ssr:stedsnr" v="367486" />
	</node>
	<node lat="59.6396888868897" lon="7.428594446449184" id="-31913">
		<tag k="name" v="Bjåland" />
		<tag k="place" v="farm" />
		<tag k="ssr:stedsnr" v="367498" />
	</node>
	<node lat="59.575491665852574" lon="7.36083889095267" id="-31919">
		<tag k="name" v="Lundebuteigen" />
		<tag k="place" v="isolated_dwelling" />
		<tag k="ssr:stedsnr" v="367675" />
	</node>
	<node lat="59.35538055980748" lon="7.35236388797732" id="-31931">
		<tag k="name" v="Jåro" />
		<tag k="place" v="farm" />
		<tag k="ssr:stedsnr" v="483499" />
	</node>
	<node lat="59.34727777453363" lon="6.853949992781677" id="-31933">
		<tag k="name" v="Beinleihytta" />
		<tag k="place" v="isolated_dwelling" />
		<tag k="ssr:stedsnr" v="391441" />
	</node>
	<node lat="59.649975001597674" lon="7.2204833299829225" id="-31934">
		<tag k="name" v="Langevasshalli" />
		<tag k="natural" v="slope" />
		<tag k="place" v="locality" />
		<tag k="ssr:stedsnr" v="391443" />
	</node>
	<node lat="59.47820277534676" lon="7.298030553209197" id="-31935">
		<tag k="fixme" v="consider natural=peak for the most distinct mountains in the district" />
		<tag k="name" v="Fitfjell" />
		<tag k="natural" v="hill" />
		<tag k="place" v="locality" />
		<tag k="ssr:stedsnr" v="391902" />
	</node>
	<node lat="59.48227777923419" lon="7.346944436989935" id="-31936">
		<tag k="name" v="Svåa" />
		<tag k="place" v="locality" />
		<tag k="ssr:stedsnr" v="391905" />
	</node>
	<node lat="59.43102500305485" lon="7.170758326004985" id="-31937">
		<tag k="fixme" v="consider natural=peak for the most distinct mountains in the district" />
		<tag k="name" v="Skredenuten" />
		<tag k="natural" v="hill" />
		<tag k="place" v="locality" />
		<tag k="ssr:stedsnr" v="391907" />
	</node>
	<node lat="59.47604444601796" lon="7.274394440461796" id="-31938">
		<tag k="fixme" v="consider natural=peak for the most distinct mountains in the district" />
		<tag k="name" v="Håvfarsnutane" />
		<tag k="natural" v="hill" />
		<tag k="place" v="locality" />
		<tag k="ssr:stedsnr" v="391898" />
	</node>
	<node lat="59.63980833233272" lon="7.42846944216664" id="-31939">
		<tag k="fixme" v="consider tourism=alpine_hut or tourism=chalet" />
		<tag k="name" v="Bjåen turisthytte" />
		<tag k="ssr:stedsnr" v="395531" />
		<tag k="tourism" v="wilderness_hut" />
	</node>
	<node lat="59.4070333315581" lon="7.388133324978206" id="-31940">
		<tag k="name" v="Reiskvævfjøddet" />
		<tag k="natural" v="ridge" />
		<tag k="place" v="locality" />
		<tag k="ssr:stedsnr" v="395533" />
	</node>
	<node lat="59.43758611180973" lon="7.402036102896677" id="-31941">
		<tag k="name" v="Glova" />
		<tag k="natural" v="valley" />
		<tag k="place" v="locality" />
		<tag k="ssr:stedsnr" v="395591" />
	</node>
	<node lat="59.431825003883326" lon="7.41688055226275" id="-31942">
		<tag k="name" v="Øybekk" />
		<tag k="ssr:stedsnr" v="395594" />
		<tag k="waterway" v="stream" />
	</node>
	<node lat="59.63931110730702" lon="7.410974996341677" id="-31943">
		<tag k="name" v="Bringebekken" />
		<tag k="ssr:stedsnr" v="395702" />
		<tag k="waterway" v="stream" />
	</node>
	<node lat="59.642088891453845" lon="7.4334111172472594" id="-31944">
		<tag k="name" v="Den runde kullen" />
		<tag k="natural" v="ridge" />
		<tag k="place" v="locality" />
		<tag k="ssr:stedsnr" v="395708" />
	</node>
	<node lat="59.57972222179046" lon="7.25770277816573" id="-31945">
		<tag k="fixme" v="consider natural=peak for the most distinct mountains in the district" />
		<tag k="name" v="Osstøylfjøddi" />
		<tag k="natural" v="hill" />
		<tag k="place" v="locality" />
		<tag k="ssr:stedsnr" v="395605" />
	</node>
	<node lat="59.57689721980993" lon="7.3071500011608" id="-31946">
		<tag k="historic" v="shieling" />
		<tag k="name" v="Kvernlistøylen" />
		<tag k="place" v="isolated_dwelling" />
		<tag k="ssr:stedsnr" v="395608" />
	</node>
	<node lat="59.45275277693852" lon="7.040013895054353" id="-31947">
		<tag k="name" v="Svårtestein" />
		<tag k="place" v="locality" />
		<tag k="ssr:stedsnr" v="395834" />
	</node>
	<node lat="59.428038887871786" lon="7.177105555294713" id="-31948">
		<tag k="name" v="Svåa" />
		<tag k="place" v="locality" />
		<tag k="ssr:stedsnr" v="395840" />
	</node>
	<node lat="59.3242027739892" lon="7.348569435962581" id="-31949">
		<tag k="name" v="Hørnes" />
		<tag k="natural" v="cape" />
		<tag k="ssr:stedsnr" v="395849" />
	</node>
	<node lat="59.363702776825676" lon="7.31403889142133" id="-31950">
		<tag k="fixme" v="consider natural=peak for the most distinct mountains in the district" />
		<tag k="name" v="Åsane" />
		<tag k="natural" v="hill" />
		<tag k="place" v="locality" />
		<tag k="ssr:stedsnr" v="395903" />
	</node>
	<node lat="59.363361115244196" lon="7.2671222137949405" id="-31951">
		<tag k="name" v="Urdalen" />
		<tag k="natural" v="valley" />
		<tag k="place" v="locality" />
		<tag k="ssr:stedsnr" v="395907" />
	</node>
	<node lat="59.3312138863447" lon="7.420786104285442" id="-31952">
		<tag k="name" v="Fitjane" />
		<tag k="natural" v="wetland" />
		<tag k="ssr:stedsnr" v="395928" />
	</node>
	<node lat="59.32978055892787" lon="7.426180553510337" id="-31953">
		<tag k="name" v="Krossen" />
		<tag k="place" v="locality" />
		<tag k="ssr:stedsnr" v="395931" />
	</node>
	<node lat="59.3469694427392" lon="7.331758335214337" id="-31954">
		<tag k="name" v="Øyrveiksbakkane" />
		<tag k="natural" v="slope" />
		<tag k="place" v="locality" />
		<tag k="ssr:stedsnr" v="395938" />
	</node>
	<node lat="59.32088333200854" lon="7.400650004655218" id="-31955">
		<tag k="historic" v="shieling" />
		<tag k="name" v="Nystøyl" />
		<tag k="place" v="isolated_dwelling" />
		<tag k="ssr:stedsnr" v="395941" />
	</node>
	<node lat="59.367377780804105" lon="7.422608330162425" id="-31956">
		<tag k="name" v="Fitjeheii" />
		<tag k="natural" v="hill" />
		<tag k="place" v="locality" />
		<tag k="ssr:stedsnr" v="395985" />
	</node>
	<node lat="59.341697223771234" lon="7.434797214433131" id="-31957">
		<tag k="name" v="Tinndalsheii" />
		<tag k="natural" v="hill" />
		<tag k="place" v="locality" />
		<tag k="ssr:stedsnr" v="395990" />
	</node>
	<node lat="59.30772222397601" lon="7.328761115206443" id="-31958">
		<tag k="name" v="Nordre Hisåni" />
		<tag k="ssr:stedsnr" v="395881" />
		<tag k="waterway" v="river" />
	</node>
	<node lat="59.48285555289562" lon="7.220888893208273" id="-31964">
		<tag k="alt_name" v="Klubben" />
		<tag k="fixme" v="consider natural=peak for the most distinct mountains in the district" />
		<tag k="name" v="Knubben" />
		<tag k="natural" v="hill" />
		<tag k="place" v="locality" />
		<tag k="ssr:stedsnr" v="487133" />
	</node>
	<node lat="59.18270277733324" lon="6.847622230572342" id="-31965">
		<tag k="fixme" v="consider natural=peak for the most distinct mountains in the district" />
		<tag k="name" v="Presteknuten" />
		<tag k="natural" v="hill" />
		<tag k="place" v="locality" />
		<tag k="ssr:stedsnr" v="487145" />
	</node>
	<node lat="59.25973055255605" lon="6.951280548138983" id="-31966">
		<tag k="name" v="Hyttedalen" />
		<tag k="natural" v="valley" />
		<tag k="place" v="locality" />
		<tag k="ssr:stedsnr" v="487152" />
	</node>
	<node lat="59.31796111245716" lon="7.038750001773557" id="-31967">
		<tag k="fixme" v="consider natural=peak for the most distinct mountains in the district" />
		<tag k="name" v="Torsteinsnut" />
		<tag k="natural" v="hill" />
		<tag k="place" v="locality" />
		<tag k="ssr:stedsnr" v="487285" />
	</node>
	<node lat="59.36063332900759" lon="7.244619443447823" id="-31968">
		<tag k="loc_name" v="Falkeflotti" />
		<tag k="name" v="Falkefloti" />
		<tag k="place" v="locality" />
		<tag k="ssr:stedsnr" v="487383" />
	</node>
	<node lat="59.45763611495824" lon="7.515916669607014" id="-31969">
		<tag k="name" v="Tverrheiskardet" />
		<tag k="natural" v="valley" />
		<tag k="place" v="locality" />
		<tag k="ssr:stedsnr" v="487428" />
	</node>
	<node lat="59.45347222193943" lon="7.433855561200223" id="-31970">
		<tag k="fixme" v="consider natural=peak for the most distinct mountains in the district" />
		<tag k="name" v="Berdalsnuten" />
		<tag k="natural" v="hill" />
		<tag k="place" v="locality" />
		<tag k="ssr:stedsnr" v="487432" />
	</node>
	<node lat="59.49548333368454" lon="7.378974997877187" id="-31971">
		<tag k="name" v="Kvernebekken" />
		<tag k="ssr:stedsnr" v="487526" />
		<tag k="waterway" v="stream" />
	</node>
	<node lat="59.48427222413315" lon="7.421302785021445" id="-31972">
		<tag k="name" v="Nylund" />
		<tag k="place" v="farm" />
		<tag k="ssr:stedsnr" v="487535" />
	</node>
	<node lat="59.485988892637955" lon="7.345438880045865" id="-31973">
		<tag k="fixme" v="consider natural=peak for the most distinct mountains in the district" />
		<tag k="name" v="Enden" />
		<tag k="natural" v="hill" />
		<tag k="place" v="locality" />
		<tag k="ssr:stedsnr" v="487543" />
	</node>
	<node lat="59.37453889336244" lon="7.380802784992315" id="-31974">
		<tag k="name" v="Rota" />
		<tag k="place" v="isolated_dwelling" />
		<tag k="ssr:stedsnr" v="487651" />
	</node>
	<node lat="59.40191110737748" lon="7.482841664840303" id="-31975">
		<tag k="alt_name" v="Jegerbergsnuten" />
		<tag k="fixme" v="consider natural=peak for the most distinct mountains in the district" />
		<tag k="name" v="Jegersbergsnuten" />
		<tag k="natural" v="hill" />
		<tag k="place" v="locality" />
		<tag k="ssr:stedsnr" v="487660" />
	</node>
	<node lat="59.405874995823304" lon="7.464913890434091" id="-31976">
		<tag k="fixme" v="consider natural=peak for the most distinct mountains in the district" />
		<tag k="name" v="Støylsnuten" />
		<tag k="natural" v="hill" />
		<tag k="old_name" v="Stølsnuten" />
		<tag k="place" v="locality" />
		<tag k="ssr:stedsnr" v="487667" />
	</node>
	<node lat="59.363050002612745" lon="7.408130563281205" id="-31977">
		<tag k="alt_name" v="Fitjeåni" />
		<tag k="name" v="Fitjåni" />
		<tag k="ssr:stedsnr" v="487637" />
		<tag k="waterway" v="stream" />
	</node>
	<node lat="59.359341666196194" lon="7.361455562846253" id="-31978">
		<tag k="name" v="Berg" />
		<tag k="place" v="farm" />
		<tag k="ssr:stedsnr" v="487642" />
	</node>
	<node lat="59.39074167091262" lon="7.469255549382395" id="-31979">
		<tag k="name" v="Stridsmoskardet" />
		<tag k="natural" v="valley" />
		<tag k="place" v="locality" />
		<tag k="ssr:stedsnr" v="487650" />
	</node>
	<node lat="59.29593888997603" lon="7.367963897560649" id="-31980">
		<tag k="alt_name" v="Skistoghylen;Skidstodhylen" />
		<tag k="name" v="Skeistoghylen" />
		<tag k="place" v="locality" />
		<tag k="ssr:stedsnr" v="487772" />
	</node>
	<node lat="59.43003888745477" lon="7.231444450854808" id="-31992">
		<tag k="name" v="Snjoheii" />
		<tag k="natural" v="hill" />
		<tag k="place" v="locality" />
		<tag k="ssr:stedsnr" v="416085" />
	</node>
	<node lat="59.569133337116476" lon="7.023624999902327" id="-32032">
		<tag k="name" v="Urdåni" />
		<tag k="ssr:stedsnr" v="488252" />
		<tag k="waterway" v="stream" />
	</node>
	<node lat="59.574194441469125" lon="7.290633329574939" id="-32033">
		<tag k="alt_name" v="Midtbø" />
		<tag k="name" v="Midbø" />
		<tag k="place" v="farm" />
		<tag k="ssr:stedsnr" v="488255" />
	</node>
	<node lat="59.60754721856282" lon="7.199791666466764" id="-32039">
		<tag k="fixme" v="consider natural=peak for the most distinct mountains in the district" />
		<tag k="name" v="Nobbane" />
		<tag k="natural" v="hill" />
		<tag k="place" v="locality" />
		<tag k="ssr:stedsnr" v="488260" />
	</node>
	<node lat="59.606641666281625" lon="7.130511114533766" id="-32040">
		<tag k="fixme" v="consider natural=peak for the most distinct mountains in the district" />
		<tag k="name" v="Den runde nuten" />
		<tag k="natural" v="hill" />
		<tag k="place" v="locality" />
		<tag k="ssr:stedsnr" v="488262" />
	</node>
	<node lat="59.31973083961192" lon="7.258252668290007" id="-32041">
		<tag k="name" v="Noheitjønnane" />
		<tag k="natural" v="water" />
		<tag k="ssr:stedsnr" v="488268" />
		<tag k="water" v="lake" />
	</node>
	<node lat="59.310149996612225" lon="7.25528888292191" id="-32042">
		<tag k="fixme" v="consider natural=peak for the most distinct mountains in the district" />
		<tag k="name" v="Støylsnuten" />
		<tag k="natural" v="hill" />
		<tag k="place" v="locality" />
		<tag k="ssr:stedsnr" v="488271" />
	</node>
	<node lat="59.53086111505429" lon="7.234775000147224" id="-32072">
		<tag k="name" v="Tjørnnutdalen" />
		<tag k="natural" v="valley" />
		<tag k="place" v="locality" />
		<tag k="ssr:stedsnr" v="488217" />
	</node>
	<node lat="59.38440000411423" lon="7.083350007059172" id="-32087">
		<tag k="fixme" v="consider natural=peak for the most distinct mountains in the district" />
		<tag k="name" v="Ratevassnuten" />
		<tag k="natural" v="hill" />
		<tag k="place" v="locality" />
		<tag k="ssr:stedsnr" v="488334" />
	</node>
	<node lat="59.51081111261416" lon="6.9738055491095094" id="-32096">
		<tag k="name" v="Steinkilen" />
		<tag k="place" v="locality" />
		<tag k="ssr:stedsnr" v="488227" />
	</node>
	<node lat="59.51784444586309" lon="7.150752771975522" id="-32097">
		<tag k="name" v="Hågenutkvæven" />
		<tag k="natural" v="valley" />
		<tag k="place" v="locality" />
		<tag k="ssr:stedsnr" v="488231" />
	</node>
	<node lat="59.5458527786774" lon="7.06283054666966" id="-32098">
		<tag k="fixme" v="consider natural=peak for the most distinct mountains in the district" />
		<tag k="name" v="Hyttinghaugane" />
		<tag k="natural" v="hill" />
		<tag k="place" v="locality" />
		<tag k="ssr:stedsnr" v="488232" />
	</node>
	<node lat="59.383755552671914" lon="7.058236111575384" id="-32107">
		<tag k="name" v="Den flå dokki" />
		<tag k="natural" v="valley" />
		<tag k="place" v="locality" />
		<tag k="ssr:stedsnr" v="488337" />
	</node>
	<node lat="59.38665555619959" lon="7.1308749923785575" id="-32108">
		<tag k="name" v="Øvre Djuptjønnskardet" />
		<tag k="natural" v="valley" />
		<tag k="place" v="locality" />
		<tag k="ssr:stedsnr" v="488338" />
	</node>
	<node lat="59.439511114460736" lon="7.449811110953786" id="-32113">
		<tag k="name" v="Berdøl" />
		<tag k="old_name" v="Berdøla" />
		<tag k="ssr:stedsnr" v="488384" />
		<tag k="waterway" v="river" />
	</node>
	<node lat="59.51536388915014" lon="7.403258332087709" id="-32127">
		<tag k="alt_name" v="Nilsahyl" />
		<tag k="name" v="Nilsehylen" />
		<tag k="place" v="locality" />
		<tag k="ssr:stedsnr" v="488617" />
	</node>
	<node lat="59.60833055875451" lon="7.416841658804455" id="-32132">
		<tag k="name" v="Fjellbø hyttefelt" />
		<tag k="place" v="neighbourhood" />
		<tag k="ssr:stedsnr" v="488670" />
	</node>
	<node lat="59.571838890469614" lon="7.35560277891596" id="-32133">
		<tag k="historic" v="shieling" />
		<tag k="name" v="Finnstøyl" />
		<tag k="old_name" v="Finnstøl" />
		<tag k="place" v="isolated_dwelling" />
		<tag k="ssr:stedsnr" v="488678" />
	</node>
	<node lat="59.52343611144651" lon="6.980316660660914" id="-32136">
		<tag k="fixme" v="consider natural=peak for the most distinct mountains in the district" />
		<tag k="loc_name" v="Austra Kaldafjellet" />
		<tag k="name" v="Kaldafjellet" />
		<tag k="natural" v="hill" />
		<tag k="place" v="locality" />
		<tag k="ssr:stedsnr" v="489431" />
	</node>
	<node lat="59.62907777719961" lon="7.230827773081782" id="-32137">
		<tag k="name" v="Øydeskyvatn" />
		<tag k="natural" v="water" />
		<tag k="ssr:stedsnr" v="489466" />
		<tag k="water" v="lake" />
	</node>
	<node lat="59.38835000433439" lon="7.471605560809818" id="-32138">
		<tag k="name" v="Glidbjørg" />
		<tag k="place" v="farm" />
		<tag k="ssr:stedsnr" v="424022" />
	</node>
	<node lat="59.535452065053555" lon="7.520704384757314" id="-32139">
		<tag k="alt_name" v="Tjørnebrottjørnane" />
		<tag k="name" v="Tjønnebrottjønnane" />
		<tag k="natural" v="water" />
		<tag k="old_name" v="Tjørnebrottjørnin" />
		<tag k="ssr:stedsnr" v="489684" />
		<tag k="water" v="lake" />
	</node>
	<node lat="59.54830833729086" lon="7.411497223648419" id="-32140">
		<tag k="alt_name" v="Hartevasstjørni" />
		<tag k="name" v="Hartevasstjønni" />
		<tag k="natural" v="water" />
		<tag k="ssr:stedsnr" v="489749" />
	</node>
	<node lat="59.453088885342396" lon="7.1986027776569275" id="-32141">
		<tag k="fixme" v="consider natural=peak for the most distinct mountains in the district" />
		<tag k="name" v="Skurvendan" />
		<tag k="natural" v="hill" />
		<tag k="place" v="locality" />
		<tag k="ssr:stedsnr" v="427172" />
	</node>
	<node lat="59.447777775611456" lon="7.273533332378074" id="-32142">
		<tag k="fixme" v="consider natural=peak for the most distinct mountains in the district" />
		<tag k="name" v="Skordalsnutane" />
		<tag k="natural" v="hill" />
		<tag k="place" v="locality" />
		<tag k="ssr:stedsnr" v="427181" />
	</node>
	<node lat="59.44561666885591" lon="7.266450001617027" id="-32143">
		<tag k="name" v="Troddeskeidi" />
		<tag k="natural" v="valley" />
		<tag k="place" v="locality" />
		<tag k="ssr:stedsnr" v="427184" />
	</node>
	<node lat="59.484563891329955" lon="7.331463885185975" id="-32144">
		<tag k="fixme" v="consider natural=peak for the most distinct mountains in the district" />
		<tag k="name" v="Svånuten" />
		<tag k="natural" v="hill" />
		<tag k="place" v="locality" />
		<tag k="ssr:stedsnr" v="427191" />
	</node>
	<node lat="59.481091664172986" lon="7.289899995919573" id="-32145">
		<tag k="alt_name" v="Flottetjønnuten" />
		<tag k="fixme" v="consider natural=peak for the most distinct mountains in the district" />
		<tag k="name" v="Flottjønnuten" />
		<tag k="natural" v="hill" />
		<tag k="place" v="locality" />
		<tag k="ssr:stedsnr" v="427195" />
	</node>
	<node lat="59.324883334343795" lon="7.029613882932877" id="-32146">
		<tag k="fixme" v="consider natural=peak for the most distinct mountains in the district" />
		<tag k="name" v="Raudenut" />
		<tag k="natural" v="hill" />
		<tag k="place" v="locality" />
		<tag k="ssr:stedsnr" v="427307" />
	</node>
	<node lat="59.32271666221632" lon="7.18724999877512" id="-32147">
		<tag k="name" v="Åsane" />
		<tag k="place" v="isolated_dwelling" />
		<tag k="ssr:stedsnr" v="427314" />
	</node>
	<node lat="59.33054444583994" lon="7.244952776552837" id="-32148">
		<tag k="name" v="Driftebergi" />
		<tag k="place" v="locality" />
		<tag k="ssr:stedsnr" v="427321" />
	</node>
	<node lat="59.40690000289484" lon="7.2035055528327" id="-32149">
		<tag k="name" v="Reinevasstjønni" />
		<tag k="natural" v="water" />
		<tag k="ssr:stedsnr" v="427370" />
	</node>
	<node lat="59.37468055548444" lon="7.140494438329038" id="-32150">
		<tag k="fixme" v="consider natural=peak for the most distinct mountains in the district" />
		<tag k="name" v="Ytre Djuptjønnuten" />
		<tag k="natural" v="hill" />
		<tag k="place" v="locality" />
		<tag k="ssr:stedsnr" v="427378" />
	</node>
	<node lat="59.38307500006876" lon="7.299852780281082" id="-32151">
		<tag k="name" v="Holskroni" />
		<tag k="natural" v="valley" />
		<tag k="place" v="locality" />
		<tag k="ssr:stedsnr" v="427382" />
	</node>
	<node lat="59.39164999755368" lon="7.246383338480433" id="-32152">
		<tag k="fixme" v="consider natural=peak for the most distinct mountains in the district" />
		<tag k="name" v="Storren" />
		<tag k="natural" v="hill" />
		<tag k="place" v="locality" />
		<tag k="ssr:stedsnr" v="427385" />
	</node>
	<node lat="59.36626666690887" lon="7.319100000907222" id="-32153">
		<tag k="historic" v="shieling" />
		<tag k="name" v="Kilane" />
		<tag k="place" v="isolated_dwelling" />
		<tag k="ssr:stedsnr" v="427394" />
	</node>
	<node lat="59.36557777944663" lon="7.282780558709046" id="-32154">
		<tag k="alt_name" v="Fitsfjødd" />
		<tag k="fixme" v="consider natural=peak for the most distinct mountains in the district" />
		<tag k="name" v="Fitsfjell" />
		<tag k="natural" v="hill" />
		<tag k="place" v="locality" />
		<tag k="ssr:stedsnr" v="427396" />
	</node>
	<node lat="59.46451666998711" lon="7.512861111412839" id="-32155">
		<tag k="fixme" v="consider natural=peak for the most distinct mountains in the district" />
		<tag k="name" v="Tverrheii" />
		<tag k="natural" v="hill" />
		<tag k="place" v="locality" />
		<tag k="ssr:stedsnr" v="427405" />
	</node>
	<node lat="59.44152499654544" lon="7.487205552546937" id="-32156">
		<tag k="name" v="Berdalen" />
		<tag k="natural" v="valley" />
		<tag k="place" v="locality" />
		<tag k="ssr:stedsnr" v="427423" />
	</node>
	<node lat="59.29416666513781" lon="7.289208338002815" id="-32157">
		<tag k="alt_name" v="Storetjørn" />
		<tag k="name" v="Storetjønni" />
		<tag k="natural" v="water" />
		<tag k="ssr:stedsnr" v="427469" />
	</node>
	<node lat="59.37050000102442" lon="7.41413889549729" id="-32158">
		<tag k="name" v="Fitjan" />
		<tag k="old_name" v="Fitjane" />
		<tag k="place" v="isolated_dwelling" />
		<tag k="ssr:stedsnr" v="427603" />
	</node>
	<node lat="59.37015000064735" lon="7.485269452171442" id="-32159">
		<tag k="alt_name" v="Kaldeskardnutan" />
		<tag k="fixme" v="consider natural=peak for the most distinct mountains in the district" />
		<tag k="name" v="Kaldeskardnutane" />
		<tag k="natural" v="hill" />
		<tag k="place" v="locality" />
		<tag k="ssr:stedsnr" v="427604" />
	</node>
	<node lat="59.37779999906825" lon="7.424799998195393" id="-32160">
		<tag k="fixme" v="consider natural=peak for the most distinct mountains in the district" />
		<tag k="name" v="Hårshovden" />
		<tag k="natural" v="hill" />
		<tag k="place" v="locality" />
		<tag k="ssr:stedsnr" v="427605" />
	</node>
	<node lat="59.348199997991536" lon="7.374549998843613" id="-32161">
		<tag k="alt_name" v="Dei runde tjørnane;Rundtjørn;Dei runde tjønnane" />
		<tag k="name" v="Rundtjønn" />
		<tag k="natural" v="water" />
		<tag k="ssr:stedsnr" v="427581" />
	</node>
	<node lat="59.35136110954109" lon="7.354505549313516" id="-32162">
		<tag k="name" v="Lii" />
		<tag k="place" v="farm" />
		<tag k="ssr:stedsnr" v="427582" />
	</node>
	<node lat="59.546322225729" lon="7.2230694479400555" id="-32163">
		<tag k="fixme" v="consider natural=peak for the most distinct mountains in the district" />
		<tag k="name" v="Tjørnnutribbene" />
		<tag k="natural" v="hill" />
		<tag k="place" v="locality" />
		<tag k="ssr:stedsnr" v="428260" />
	</node>
	<node lat="59.580819443407236" lon="7.28696666935988" id="-32164">
		<tag k="fixme" v="consider natural=peak for the most distinct mountains in the district" />
		<tag k="name" v="Slettenuten" />
		<tag k="natural" v="hill" />
		<tag k="place" v="locality" />
		<tag k="ssr:stedsnr" v="428263" />
	</node>
	<node lat="59.56669999658246" lon="7.177211102915684" id="-32165">
		<tag k="fixme" v="consider natural=peak for the most distinct mountains in the district" />
		<tag k="name" v="Den raude nuten" />
		<tag k="natural" v="hill" />
		<tag k="place" v="locality" />
		<tag k="ssr:stedsnr" v="428271" />
	</node>
	<node lat="59.59509444191889" lon="7.015369445026797" id="-32166">
		<tag k="name" v="Urdevasskvelven" />
		<tag k="natural" v="slope" />
		<tag k="place" v="locality" />
		<tag k="ssr:stedsnr" v="428276" />
	</node>
	<node lat="59.62918055970279" lon="7.315627769331707" id="-32167">
		<tag k="name" v="Myrekvæven" />
		<tag k="place" v="isolated_dwelling" />
		<tag k="ssr:stedsnr" v="428408" />
	</node>
	<node lat="59.6358305548924" lon="7.116947230333553" id="-32168">
		<tag k="fixme" v="consider natural=peak for the most distinct mountains in the district" />
		<tag k="name" v="Skyvassnuten" />
		<tag k="natural" v="hill" />
		<tag k="place" v="locality" />
		<tag k="ssr:stedsnr" v="428416" />
	</node>
	<node lat="59.63501388647586" lon="7.408291670668326" id="-32169">
		<tag k="name" v="Kilane" />
		<tag k="natural" v="bay" />
		<tag k="ssr:stedsnr" v="428502" />
	</node>
	<node lat="59.62843055364964" lon="7.432136111911826" id="-32170">
		<tag k="alt_name" v="Breivatn" />
		<tag k="name" v="Breidvatn" />
		<tag k="natural" v="water" />
		<tag k="ssr:stedsnr" v="428505" />
		<tag k="water" v="lake" />
	</node>
	<node lat="59.57670000405317" lon="7.467830560826834" id="-32171">
		<tag k="name" v="Galteflotti" />
		<tag k="place" v="locality" />
		<tag k="ssr:stedsnr" v="428672" />
	</node>
	<node lat="59.45888055892553" lon="7.364605554031799" id="-32172">
		<tag k="alt_name" v="Vatnedalsdammen" />
		<tag k="name" v="Vatndalsdammene" />
		<tag k="ssr:stedsnr" v="449738" />
		<tag k="waterway" v="dam" />
	</node>
	<node lat="59.39176944162639" lon="7.420547225673708" id="-32173">
		<tag k="name" v="Takrindbekkene" />
		<tag k="ssr:stedsnr" v="456507" />
		<tag k="waterway" v="stream" />
	</node>
	<node lat="59.476205555675506" lon="7.388791672224968" id="-32174">
		<tag k="fixme" v="consider natural=peak for the most distinct mountains in the district" />
		<tag k="name" v="Løyningsåsane" />
		<tag k="natural" v="hill" />
		<tag k="place" v="locality" />
		<tag k="ssr:stedsnr" v="456605" />
	</node>
	<node lat="59.42686666353017" lon="7.385050006727979" id="-32175">
		<tag k="fixme" v="consider natural=peak for the most distinct mountains in the district" />
		<tag k="name" v="Åsen" />
		<tag k="natural" v="hill" />
		<tag k="place" v="locality" />
		<tag k="ssr:stedsnr" v="456610" />
	</node>
	<node lat="59.383094446923714" lon="7.475947214140823" id="-32176">
		<tag k="fixme" v="consider natural=peak for the most distinct mountains in the district" />
		<tag k="name" v="Vardenuten" />
		<tag k="natural" v="hill" />
		<tag k="place" v="locality" />
		<tag k="ssr:stedsnr" v="456564" />
	</node>
	<node lat="59.440436112478736" lon="7.394372225134339" id="-32177">
		<tag k="fixme" v="consider natural=peak for the most distinct mountains in the district" />
		<tag k="name" v="Lislægrås" />
		<tag k="natural" v="hill" />
		<tag k="place" v="locality" />
		<tag k="ssr:stedsnr" v="456567" />
	</node>
	<node lat="59.57609166494527" lon="7.279697223454814" id="-32178">
		<tag k="historic" v="shieling" />
		<tag k="name" v="Listøyl" />
		<tag k="place" v="isolated_dwelling" />
		<tag k="ssr:stedsnr" v="456581" />
	</node>
	<node lat="59.25171110894859" lon="6.911249991853511" id="-32321">
		<tag k="alt_name" v="Storvatnet, ytre;Storvatnet" />
		<tag k="name" v="Ytre Storevatnet" />
		<tag k="natural" v="water" />
		<tag k="ssr:stedsnr" v="487156" />
		<tag k="water" v="lake" />
	</node>
	<node lat="59.305316664524554" lon="7.018308329066542" id="-32322">
		<tag k="name" v="Brattelielvi" />
		<tag k="ssr:stedsnr" v="487326" />
		<tag k="waterway" v="river" />
	</node>
	<node lat="59.348988888360054" lon="7.3368388875398" id="-32323">
		<tag k="name" v="Mosdøl" />
		<tag k="place" v="farm" />
		<tag k="ssr:stedsnr" v="487257" />
	</node>
	<node lat="59.33745833228888" lon="7.210483339194428" id="-32324">
		<tag k="name" v="Strond" />
		<tag k="place" v="locality" />
		<tag k="ssr:stedsnr" v="487276" />
	</node>
	<node lat="59.479049996646815" lon="7.594172229349067" id="-32325">
		<tag k="fixme" v="consider natural=peak for the most distinct mountains in the district" />
		<tag k="name" v="Svolhusgreini" />
		<tag k="natural" v="hill" />
		<tag k="place" v="locality" />
		<tag k="ssr:stedsnr" v="487407" />
	</node>
	<node lat="59.46901111251347" lon="7.452149991466124" id="-32326">
		<tag k="fixme" v="consider natural=peak for the most distinct mountains in the district" />
		<tag k="name" v="Risåsnuten" />
		<tag k="natural" v="hill" />
		<tag k="place" v="locality" />
		<tag k="ssr:stedsnr" v="487417" />
	</node>
	<node lat="59.314776104422485" lon="7.361580717468425" id="-32327">
		<tag k="name" v="Svingen" />
		<tag k="place" v="farm" />
		<tag k="ssr:stedsnr" v="487558" />
	</node>
	<node lat="59.36298055791159" lon="7.442002783128918" id="-32328">
		<tag k="name" v="Reidalen" />
		<tag k="natural" v="valley" />
		<tag k="place" v="locality" />
		<tag k="ssr:stedsnr" v="487623" />
	</node>
	<node lat="59.39548333402662" lon="7.367652783751036" id="-32329">
		<tag k="alt_name" v="Iverosbekken" />
		<tag k="name" v="Yverosbekken" />
		<tag k="ssr:stedsnr" v="487669" />
		<tag k="waterway" v="stream" />
	</node>
	<node lat="59.61115555858831" lon="7.1008694486485595" id="-32330">
		<tag k="fixme" v="consider natural=peak for the most distinct mountains in the district" />
		<tag k="name" v="Sveigen" />
		<tag k="natural" v="hill" />
		<tag k="place" v="locality" />
		<tag k="ssr:stedsnr" v="488418" />
	</node>
	<node lat="59.30399166938715" lon="7.28029999534329" id="-32331">
		<tag k="name" v="Hisdal" />
		<tag k="place" v="farm" />
		<tag k="ssr:stedsnr" v="488426" />
	</node>
	<node lat="59.3952166637905" lon="7.104833330530424" id="-32332">
		<tag k="name" v="Den mørke kvæven" />
		<tag k="natural" v="valley" />
		<tag k="place" v="locality" />
		<tag k="ssr:stedsnr" v="488303" />
	</node>
	<node lat="59.409386109306894" lon="7.326477785031864" id="-32333">
		<tag k="name" v="Gråsteinskardet" />
		<tag k="natural" v="valley" />
		<tag k="place" v="locality" />
		<tag k="ssr:stedsnr" v="488311" />
	</node>
	<node lat="59.37147777367673" lon="7.2528805504233755" id="-32334">
		<tag k="name" v="Skuggetjønn" />
		<tag k="natural" v="water" />
		<tag k="ssr:stedsnr" v="488348" />
	</node>
	<node lat="59.42200833241748" lon="7.3684555578956505" id="-32335">
		<tag k="name" v="Råsebekken" />
		<tag k="ssr:stedsnr" v="488400" />
		<tag k="waterway" v="stream" />
	</node>
	<node lat="59.609355555669076" lon="7.320963886487528" id="-32337">
		<tag k="name" v="Skykkjebekkhaugane" />
		<tag k="natural" v="ridge" />
		<tag k="place" v="locality" />
		<tag k="ssr:stedsnr" v="512418" />
	</node>
	<node lat="59.48696388987395" lon="7.303700001562888" id="-32338">
		<tag k="name" v="Den lange tjønni bak uri" />
		<tag k="natural" v="water" />
		<tag k="ssr:stedsnr" v="513910" />
	</node>
	<node lat="59.396241670039124" lon="7.400288889186271" id="-32339">
		<tag k="fixme" v="consider natural=peak for the most distinct mountains in the district" />
		<tag k="name" v="Dvolåsen" />
		<tag k="natural" v="hill" />
		<tag k="place" v="locality" />
		<tag k="ssr:stedsnr" v="517509" />
	</node>
	<node lat="59.38766944208663" lon="7.395491670174603" id="-32340">
		<tag k="name" v="Mørkebumoen" />
		<tag k="place" v="locality" />
		<tag k="ssr:stedsnr" v="517514" />
	</node>
	<node lat="59.39953610760924" lon="7.395727771044857" id="-32341">
		<tag k="fixme" v="consider natural=peak for the most distinct mountains in the district" />
		<tag k="name" v="Humla" />
		<tag k="natural" v="hill" />
		<tag k="place" v="locality" />
		<tag k="ssr:stedsnr" v="517531" />
	</node>
	<node lat="59.387449999168105" lon="7.39060277193021" id="-32342">
		<tag k="name" v="Iverone" />
		<tag k="place" v="locality" />
		<tag k="ssr:stedsnr" v="517710" />
	</node>
	<node lat="59.431986115098304" lon="7.130669442759537" id="-32343">
		<tag k="alt_name" v="Sandvoribbane" />
		<tag k="name" v="Sandvodribbane" />
		<tag k="natural" v="hill" />
		<tag k="place" v="locality" />
		<tag k="ssr:stedsnr" v="517840" />
	</node>
	<node lat="59.502869441198555" lon="7.165233333169424" id="-32344">
		<tag k="name" v="Tjønni" />
		<tag k="natural" v="water" />
		<tag k="ssr:stedsnr" v="517842" />
	</node>
	<node lat="59.50107778126937" lon="7.145008332435" id="-32345">
		<tag k="fixme" v="consider natural=peak for the most distinct mountains in the district" />
		<tag k="name" v="Fjellsenden" />
		<tag k="natural" v="hill" />
		<tag k="place" v="locality" />
		<tag k="ssr:stedsnr" v="517844" />
	</node>
	<node lat="59.325233331057646" lon="7.367761102900401" id="-32346">
		<tag k="alt_name" v="Kåpårtjørni" />
		<tag k="name" v="Kåpårtjønni" />
		<tag k="natural" v="water" />
		<tag k="ssr:stedsnr" v="517849" />
	</node>
	<node lat="59.35747500374384" lon="7.355958334376108" id="-32347">
		<tag k="name" v="Gamlemolii" />
		<tag k="place" v="quarter" />
		<tag k="ssr:stedsnr" v="517918" />
	</node>
	<node lat="59.358833331436344" lon="7.353019450503212" id="-32348">
		<tag k="name" v="Stedjebekken" />
		<tag k="ssr:stedsnr" v="517919" />
		<tag k="waterway" v="stream" />
	</node>
	<node lat="59.331791667873034" lon="7.392302780200194" id="-32349">
		<tag k="name" v="Varden" />
		<tag k="place" v="locality" />
		<tag k="ssr:stedsnr" v="517930" />
	</node>
	<node lat="59.29260833636648" lon="7.400491660612901" id="-32350">
		<tag k="name" v="Bjørnetone" />
		<tag k="place" v="locality" />
		<tag k="ssr:stedsnr" v="517959" />
	</node>
	<node lat="59.2936333343664" lon="7.404852771422119" id="-32351">
		<tag k="highway" v="path" />
		<tag k="name" v="Vedbakk" />
		<tag k="ssr:stedsnr" v="517962" />
	</node>
	<node lat="59.29252500040341" lon="7.3875250019988075" id="-32352">
		<tag k="name" v="Øvre Ormetone" />
		<tag k="place" v="locality" />
		<tag k="ssr:stedsnr" v="517964" />
	</node>
	<node lat="59.29423888537045" lon="7.379152783445951" id="-32353">
		<tag k="name" v="Lislefjødd" />
		<tag k="natural" v="ridge" />
		<tag k="place" v="locality" />
		<tag k="ssr:stedsnr" v="517967" />
	</node>
	<node lat="59.29706667076429" lon="7.383813887062001" id="-32354">
		<tag k="name" v="Urdalen" />
		<tag k="natural" v="valley" />
		<tag k="place" v="locality" />
		<tag k="ssr:stedsnr" v="517968" />
	</node>
	<node lat="59.29870278137881" lon="7.399530547405021" id="-32355">
		<tag k="fixme" v="consider natural=peak for the most distinct mountains in the district" />
		<tag k="name" v="Nipa" />
		<tag k="natural" v="hill" />
		<tag k="place" v="locality" />
		<tag k="ssr:stedsnr" v="517972" />
	</node>
	<node lat="59.35839721864683" lon="7.397588894853882" id="-32356">
		<tag k="name" v="Leitet" />
		<tag k="place" v="locality" />
		<tag k="ssr:stedsnr" v="517978" />
	</node>
	<node lat="59.326324996101576" lon="7.182188894800151" id="-32502">
		<tag k="name" v="Håvreisundet" />
		<tag k="natural" v="strait" />
		<tag k="ssr:stedsnr" v="548281" />
	</node>
	<node lat="59.447149999064024" lon="7.432488891775724" id="-32503">
		<tag k="name" v="Haugen" />
		<tag k="place" v="farm" />
		<tag k="ssr:stedsnr" v="548414" />
	</node>
	<node lat="59.441955556120874" lon="7.368377776534048" id="-32504">
		<tag k="alt_name" v="Langetjørn" />
		<tag k="name" v="Langetjønn" />
		<tag k="natural" v="water" />
		<tag k="ssr:stedsnr" v="548420" />
	</node>
	<node lat="59.31628888751217" lon="7.005511107200956" id="-32505">
		<tag k="name" v="Dekkane" />
		<tag k="place" v="locality" />
		<tag k="ssr:stedsnr" v="548316" />
	</node>
	<node lat="59.30944444360743" lon="7.227213892347487" id="-32506">
		<tag k="fixme" v="consider natural=peak for the most distinct mountains in the district" />
		<tag k="name" v="Skurvenuten" />
		<tag k="natural" v="hill" />
		<tag k="place" v="locality" />
		<tag k="ssr:stedsnr" v="548320" />
	</node>
	<node lat="59.32165000323807" lon="7.334483334308169" id="-32507">
		<tag k="name" v="Skardberg" />
		<tag k="place" v="farm" />
		<tag k="ssr:stedsnr" v="548325" />
	</node>
	<node lat="59.32652778159408" lon="7.342066669477827" id="-32508">
		<tag k="name" v="Stogefjell" />
		<tag k="natural" v="hill" />
		<tag k="place" v="locality" />
		<tag k="ssr:stedsnr" v="548326" />
	</node>
	<node lat="59.392911108332115" lon="7.125541665204961" id="-32509">
		<tag k="name" v="Ljosetjønnane" />
		<tag k="natural" v="water" />
		<tag k="ssr:stedsnr" v="548359" />
		<tag k="water" v="lake" />
	</node>
	<node lat="59.40383333161519" lon="7.257080563514637" id="-32510">
		<tag k="alt_name" v="Brattebakkstjønni" />
		<tag k="name" v="Brattebakktjønni" />
		<tag k="natural" v="water" />
		<tag k="ssr:stedsnr" v="548365" />
	</node>
	<node lat="59.40258055886422" lon="6.981202776327268" id="-32511">
		<tag k="fixme" v="consider natural=peak for the most distinct mountains in the district" />
		<tag k="name" v="Vassdalseggi" />
		<tag k="natural" v="hill" />
		<tag k="place" v="locality" />
		<tag k="ssr:stedsnr" v="548366" />
	</node>
	<node lat="59.413675001019605" lon="7.159108324646205" id="-32512">
		<tag k="fixme" v="consider natural=peak for the most distinct mountains in the district" />
		<tag k="name" v="Venedalsristi" />
		<tag k="natural" v="hill" />
		<tag k="place" v="locality" />
		<tag k="ssr:stedsnr" v="548369" />
	</node>
	<node lat="59.47948888630491" lon="7.360058328466591" id="-32513">
		<tag k="name" v="Finnflatan" />
		<tag k="old_name" v="Finnflatane" />
		<tag k="place" v="locality" />
		<tag k="ssr:stedsnr" v="548509" />
	</node>
	<node lat="59.40544722333672" lon="7.43300555298329" id="-32514">
		<tag k="alt_name" v="Lomstjørn" />
		<tag k="name" v="Lomstjønn" />
		<tag k="natural" v="water" />
		<tag k="ssr:stedsnr" v="548614" />
	</node>
	<node lat="59.34139166328668" lon="7.454549999284387" id="-32515">
		<tag k="alt_name" v="Poddefjødd" />
		<tag k="fixme" v="consider natural=peak for the most distinct mountains in the district" />
		<tag k="name" v="Poddefjellet" />
		<tag k="natural" v="hill" />
		<tag k="old_name" v="Poddefjell" />
		<tag k="place" v="locality" />
		<tag k="ssr:stedsnr" v="548567" />
	</node>
	<node lat="59.29279166318314" lon="7.391327773863926" id="-32516">
		<tag k="alt_name" v="Bjørnaråfjøddet" />
		<tag k="fixme" v="consider natural=peak for the most distinct mountains in the district" />
		<tag k="name" v="Bjørnaråfjellet" />
		<tag k="natural" v="hill" />
		<tag k="place" v="locality" />
		<tag k="ssr:stedsnr" v="548703" />
	</node>
	<node lat="59.607766667187896" lon="7.333819440363423" id="-32517">
		<tag k="name" v="Skykkjebekken" />
		<tag k="ssr:stedsnr" v="549304" />
		<tag k="waterway" v="stream" />
	</node>
	<node lat="59.506686108616684" lon="7.1827999934805975" id="-32518">
		<tag k="name" v="Råsehallene" />
		<tag k="natural" v="slope" />
		<tag k="place" v="locality" />
		<tag k="ssr:stedsnr" v="549365" />
	</node>
	<node lat="59.63058480709604" lon="7.455688788911123" id="-32519">
		<tag k="name" v="Flottestøylen" />
		<tag k="old_name" v="Flottestølen" />
		<tag k="place" v="locality" />
		<tag k="ssr:stedsnr" v="549511" />
	</node>
	<node lat="59.647038892762055" lon="7.428941674275981" id="-32520">
		<tag k="fixme" v="consider natural=peak for the most distinct mountains in the district" />
		<tag k="name" v="Jerpenuten" />
		<tag k="natural" v="hill" />
		<tag k="place" v="locality" />
		<tag k="ssr:stedsnr" v="549524" />
	</node>
	<node lat="59.5354305522632" lon="7.057116668050623" id="-32521">
		<tag k="name" v="Snauhallet" />
		<tag k="natural" v="slope" />
		<tag k="place" v="locality" />
		<tag k="ssr:stedsnr" v="549255" />
	</node>
	<node lat="59.63340833490276" lon="7.341330551652012" id="-32522">
		<tag k="fixme" v="consider natural=peak for the most distinct mountains in the district" />
		<tag k="name" v="Kaldsfjelli" />
		<tag k="natural" v="hill" />
		<tag k="place" v="locality" />
		<tag k="ssr:stedsnr" v="549425" />
	</node>
	<node lat="59.63305555339573" lon="7.311000000361181" id="-32523">
		<tag k="name" v="Myrekvævdalen" />
		<tag k="natural" v="valley" />
		<tag k="place" v="locality" />
		<tag k="ssr:stedsnr" v="549426" />
	</node>
	<node lat="59.639341667455234" lon="7.263533336980879" id="-32524">
		<tag k="fixme" v="consider natural=peak for the most distinct mountains in the district" />
		<tag k="name" v="Gjuvshedderkollen" />
		<tag k="natural" v="hill" />
		<tag k="place" v="locality" />
		<tag k="ssr:stedsnr" v="549427" />
	</node>
	<node lat="59.57894166318758" lon="7.3895388806597975" id="-32526">
		<tag k="name" v="Hovden hyttegrend" />
		<tag k="place" v="hamlet" />
		<tag k="ssr:stedsnr" v="690398" />
	</node>
	<node lat="59.52793937402704" lon="7.396307061662429" id="-32527">
		<tag k="historic" v="shieling" />
		<tag k="name" v="Gamalstøyl" />
		<tag k="place" v="locality" />
		<tag k="ssr:stedsnr" v="690400" />
	</node>
	<node lat="59.54238611158788" lon="7.31503610857983" id="-32528">
		<tag k="name" v="Stigane" />
		<tag k="natural" v="slope" />
		<tag k="place" v="locality" />
		<tag k="ssr:stedsnr" v="691363" />
	</node>
	<node lat="59.569186111772616" lon="7.366802775204592" id="-32529">
		<tag k="historic" v="shieling" />
		<tag k="name" v="Nystøyl" />
		<tag k="place" v="locality" />
		<tag k="ssr:stedsnr" v="691371" />
	</node>
	<node lat="59.58626138122456" lon="7.392937206385597" id="-32532">
		<tag k="alt_name" v="Sigvassundshylen" />
		<tag k="name" v="Sigvaldsonhylen" />
		<tag k="place" v="locality" />
		<tag k="ssr:stedsnr" v="568360" />
	</node>
	<node lat="59.539813888580085" lon="7.314924994836413" id="-32533">
		<tag k="alt_name" v="Stigatjørnane" />
		<tag k="name" v="Stigatjønnane" />
		<tag k="natural" v="water" />
		<tag k="ssr:stedsnr" v="569326" />
		<tag k="water" v="lake" />
	</node>
	<node lat="59.46232499955241" lon="7.020213881039482" id="-32534">
		<tag k="name" v="Grjotdokki" />
		<tag k="place" v="isolated_dwelling" />
		<tag k="ssr:stedsnr" v="573649" />
	</node>
	<node lat="59.40996388544763" lon="7.330252772916341" id="-32535">
		<tag k="fixme" v="consider natural=peak for the most distinct mountains in the district" />
		<tag k="name" v="Tindane" />
		<tag k="natural" v="hill" />
		<tag k="place" v="locality" />
		<tag k="ssr:stedsnr" v="573652" />
	</node>
	<node lat="59.35306111293412" lon="7.258802772473731" id="-32537">
		<tag k="historic" v="shieling" />
		<tag k="name" v="Voddeskard" />
		<tag k="place" v="isolated_dwelling" />
		<tag k="ssr:stedsnr" v="694659" />
	</node>
	<node lat="59.38333055362737" lon="7.386749998106751" id="-32538">
		<tag k="historic" v="shieling" />
		<tag k="name" v="Høymyr" />
		<tag k="place" v="isolated_dwelling" />
		<tag k="ssr:stedsnr" v="577513" />
	</node>
	<node lat="59.38997778142893" lon="7.390549992128931" id="-32539">
		<tag k="name" v="Hagabu" />
		<tag k="place" v="isolated_dwelling" />
		<tag k="ssr:stedsnr" v="577514" />
	</node>
	<node lat="59.388702779264094" lon="7.376094436203542" id="-32540">
		<tag k="name" v="Hægjesslått" />
		<tag k="natural" v="wetland" />
		<tag k="ssr:stedsnr" v="577515" />
	</node>
	<node lat="59.65217777790603" lon="7.430708340213155" id="-32541">
		<tag k="name" v="Kråkeliane" />
		<tag k="natural" v="slope" />
		<tag k="place" v="locality" />
		<tag k="ssr:stedsnr" v="577518" />
	</node>
	<node lat="59.30165277984115" lon="7.281602782211818" id="-32542">
		<tag k="name" v="Hisdalstjønni" />
		<tag k="natural" v="water" />
		<tag k="ssr:stedsnr" v="694825" />
	</node>
	<node lat="59.4679416667415" lon="7.383672218529055" id="-32543">
		<tag k="name" v="Systog" />
		<tag k="place" v="farm" />
		<tag k="ssr:stedsnr" v="577607" />
	</node>
	<node lat="59.479999995825025" lon="7.395119447884437" id="-32544">
		<tag k="name" v="Løåsen" />
		<tag k="natural" v="hill" />
		<tag k="place" v="locality" />
		<tag k="ssr:stedsnr" v="577611" />
	</node>
	<node lat="59.42428055159754" lon="7.400361106096312" id="-32545">
		<tag k="name" v="Såvesli" />
		<tag k="natural" v="slope" />
		<tag k="place" v="locality" />
		<tag k="ssr:stedsnr" v="577614" />
	</node>
	<node lat="59.50084999818774" lon="7.376533341135273" id="-32546">
		<tag k="name" v="Storegrødet" />
		<tag k="place" v="locality" />
		<tag k="ssr:stedsnr" v="577616" />
	</node>
	<node lat="59.469727773384" lon="7.42512221903301" id="-32547">
		<tag k="fixme" v="consider natural=peak for the most distinct mountains in the district" />
		<tag k="name" v="Risåsen" />
		<tag k="natural" v="hill" />
		<tag k="place" v="locality" />
		<tag k="ssr:stedsnr" v="577653" />
	</node>
	<node lat="59.62790555126671" lon="7.37754167031421" id="-32548">
		<tag k="name" v="Bjørnekvævskori" />
		<tag k="natural" v="valley" />
		<tag k="place" v="locality" />
		<tag k="ssr:stedsnr" v="577656" />
	</node>
	<node lat="59.63950555829426" lon="7.396213890574211" id="-32549">
		<tag k="name" v="Støyletjønn" />
		<tag k="natural" v="water" />
		<tag k="ssr:stedsnr" v="577692" />
	</node>
	<node lat="59.345294445459395" lon="7.332836113567408" id="-32550">
		<tag k="name" v="Hyttebakksmoen" />
		<tag k="place" v="locality" />
		<tag k="ssr:stedsnr" v="577946" />
	</node>
	<node lat="59.34995555916934" lon="7.4499666604109755" id="-32551">
		<tag k="name" v="Grjotdalsristi" />
		<tag k="natural" v="ridge" />
		<tag k="place" v="locality" />
		<tag k="ssr:stedsnr" v="577991" />
	</node>
	<node lat="59.33448610794897" lon="7.386750008806767" id="-32552">
		<tag k="name" v="Hågeli" />
		<tag k="natural" v="slope" />
		<tag k="place" v="locality" />
		<tag k="ssr:stedsnr" v="577992" />
	</node>
	<node lat="59.33690833184643" lon="7.41292222682057" id="-32553">
		<tag k="name" v="Halsen" />
		<tag k="place" v="locality" />
		<tag k="ssr:stedsnr" v="577993" />
	</node>
	<node lat="59.33540000027921" lon="7.396094451454286" id="-32554">
		<tag k="name" v="Djupedalsbrotet" />
		<tag k="place" v="locality" />
		<tag k="ssr:stedsnr" v="577995" />
	</node>
	<node lat="59.477091669575906" lon="7.066277771404388" id="-32558">
		<tag k="name" v="Urevasstjønnane" />
		<tag k="natural" v="water" />
		<tag k="ssr:stedsnr" v="695879" />
	</node>
	<node lat="59.393361113917244" lon="7.40022221586988" id="-32689">
		<tag k="name" v="Nybu" />
		<tag k="place" v="isolated_dwelling" />
		<tag k="ssr:stedsnr" v="699492" />
	</node>
	<node lat="59.38242500117238" lon="7.407125001775141" id="-32690">
		<tag k="name" v="Bordtrebakken" />
		<tag k="natural" v="slope" />
		<tag k="place" v="locality" />
		<tag k="ssr:stedsnr" v="699497" />
	</node>
	<node lat="59.37757777355489" lon="7.395686119158657" id="-32691">
		<tag k="name" v="Søylebakkteigen" />
		<tag k="place" v="locality" />
		<tag k="ssr:stedsnr" v="699498" />
	</node>
	<node lat="59.45009444430784" lon="7.3986138903281615" id="-32692">
		<tag k="name" v="Alvsmyr" />
		<tag k="natural" v="wetland" />
		<tag k="ssr:stedsnr" v="699528" />
	</node>
	<node lat="59.452369448120585" lon="7.383519449882733" id="-32693">
		<tag k="name" v="Kotetjønn" />
		<tag k="natural" v="water" />
		<tag k="ssr:stedsnr" v="699531" />
	</node>
	<node lat="59.45523055436967" lon="7.441538892613974" id="-32694">
		<tag k="name" v="Klyvjeskar" />
		<tag k="natural" v="valley" />
		<tag k="place" v="locality" />
		<tag k="ssr:stedsnr" v="699537" />
	</node>
	<node lat="59.43920833403079" lon="7.375202776460575" id="-32695">
		<tag k="fixme" v="consider natural=peak for the most distinct mountains in the district" />
		<tag k="name" v="Lognestøylåsen" />
		<tag k="natural" v="hill" />
		<tag k="place" v="locality" />
		<tag k="ssr:stedsnr" v="699546" />
	</node>
	<node lat="59.57486944592831" lon="7.267869452581619" id="-32696">
		<tag k="name" v="Viknesdokki" />
		<tag k="place" v="locality" />
		<tag k="ssr:stedsnr" v="699548" />
	</node>
	<node lat="59.57571944345763" lon="7.270202782184234" id="-32697">
		<tag k="historic" v="shieling" />
		<tag k="name" v="Nystøyl" />
		<tag k="place" v="isolated_dwelling" />
		<tag k="ssr:stedsnr" v="699550" />
	</node>
	<node lat="59.57803611330472" lon="7.2771333417553485" id="-32698">
		<tag k="name" v="Listøylbekken" />
		<tag k="ssr:stedsnr" v="699551" />
		<tag k="waterway" v="stream" />
	</node>
	<node lat="59.39677500278321" lon="7.460722230464321" id="-32699">
		<tag k="name" v="Austre Haddin" />
		<tag k="natural" v="slope" />
		<tag k="place" v="locality" />
		<tag k="ssr:stedsnr" v="699560" />
	</node>
	<node lat="59.62487222516854" lon="7.371274991766226" id="-32700">
		<tag k="fixme" v="consider natural=peak for the most distinct mountains in the district" />
		<tag k="name" v="Kaldseggi" />
		<tag k="natural" v="hill" />
		<tag k="place" v="locality" />
		<tag k="ssr:stedsnr" v="699617" />
	</node>
	<node lat="59.633980559873685" lon="7.454730556049557" id="-32701">
		<tag k="name" v="Nubbebakken" />
		<tag k="natural" v="slope" />
		<tag k="place" v="locality" />
		<tag k="ssr:stedsnr" v="699619" />
	</node>
	<node lat="59.51884999900153" lon="7.4528277729494405" id="-32702">
		<tag k="name" v="Såta" />
		<tag k="place" v="locality" />
		<tag k="ssr:stedsnr" v="699622" />
	</node>
	<node lat="59.52813055171307" lon="7.380355552366895" id="-32703">
		<tag k="name" v="Solheimskullane" />
		<tag k="natural" v="hill" />
		<tag k="place" v="locality" />
		<tag k="ssr:stedsnr" v="699690" />
	</node>
	<node lat="59.62814999580627" lon="7.416502775057584" id="-32704">
		<tag k="name" v="Kaldsosen" />
		<tag k="natural" v="bay" />
		<tag k="ssr:stedsnr" v="699628" />
	</node>
	<node lat="59.63678888724388" lon="7.457830561683883" id="-32705">
		<tag k="name" v="Jensbekk" />
		<tag k="ssr:stedsnr" v="699643" />
		<tag k="waterway" v="stream" />
	</node>
	<node lat="59.646702773314864" lon="7.405433325860906" id="-32706">
		<tag k="name" v="Bekkjekrokane" />
		<tag k="natural" v="wetland" />
		<tag k="ssr:stedsnr" v="699644" />
	</node>
	<node lat="59.63568333264584" lon="7.417008337902939" id="-32707">
		<tag k="name" v="Bringeneset" />
		<tag k="natural" v="cape" />
		<tag k="ssr:stedsnr" v="699645" />
	</node>
	<node lat="59.63840555285908" lon="7.403944441618116" id="-32708">
		<tag k="name" v="Midttjønn" />
		<tag k="natural" v="water" />
		<tag k="ssr:stedsnr" v="699647" />
	</node>
	<node lat="59.64031944891525" lon="7.441016665962075" id="-32709">
		<tag k="fixme" v="consider tourism=alpine_hut or tourism=chalet" />
		<tag k="name" v="Breivatn høgfjellstove" />
		<tag k="ssr:stedsnr" v="699649" />
		<tag k="tourism" v="wilderness_hut" />
	</node>
	<node lat="59.6474722252396" lon="7.427836115528402" id="-32710">
		<tag k="name" v="Jerpeeggi" />
		<tag k="natural" v="ridge" />
		<tag k="place" v="locality" />
		<tag k="ssr:stedsnr" v="699651" />
	</node>
	<node lat="59.64256388851185" lon="7.433922221817214" id="-32711">
		<tag k="name" v="Driftedalen" />
		<tag k="natural" v="valley" />
		<tag k="place" v="locality" />
		<tag k="ssr:stedsnr" v="699652" />
	</node>
	<node lat="59.636533337709984" lon="7.429305548089253" id="-32712">
		<tag k="name" v="Vikvoddodden" />
		<tag k="natural" v="cape" />
		<tag k="ssr:stedsnr" v="699656" />
	</node>
	<node lat="59.32356944708538" lon="7.362011109181245" id="-32713">
		<tag k="bridge" v="yes" />
		<tag k="layer" v="1" />
		<tag k="name" v="Stigebrune" />
		<tag k="ssr:stedsnr" v="699830" />
	</node>
	<node lat="59.31819722306438" lon="7.357016673897525" id="-32714">
		<tag k="alt_name" v="Mostjørn" />
		<tag k="name" v="Mostjønn" />
		<tag k="natural" v="water" />
		<tag k="ssr:stedsnr" v="699837" />
	</node>
	<node lat="59.31400555471109" lon="7.326191660006197" id="-32715">
		<tag k="name" v="Olavshus" />
		<tag k="place" v="farm" />
		<tag k="ssr:stedsnr" v="699844" />
	</node>
	<node lat="59.31438055862531" lon="7.341725001892832" id="-32716">
		<tag k="name" v="Lægdi" />
		<tag k="natural" v="slope" />
		<tag k="place" v="locality" />
		<tag k="ssr:stedsnr" v="699848" />
	</node>
	<node lat="59.30804721785032" lon="7.324188886596814" id="-32717">
		<tag k="name" v="Brattebakke" />
		<tag k="natural" v="slope" />
		<tag k="place" v="locality" />
		<tag k="ssr:stedsnr" v="699854" />
	</node>
	<node lat="59.309486110374436" lon="7.354000005288078" id="-32718">
		<tag k="fixme" v="consider natural=peak for the most distinct mountains in the district" />
		<tag k="name" v="Lomskrofjøddet" />
		<tag k="natural" v="hill" />
		<tag k="place" v="locality" />
		<tag k="ssr:stedsnr" v="699863" />
	</node>
	<node lat="59.31726944153412" lon="7.307641671233536" id="-32719">
		<tag k="alt_name" v="Fonnutdalstjørni" />
		<tag k="name" v="Fonnutdalstjønni" />
		<tag k="natural" v="water" />
		<tag k="ssr:stedsnr" v="699867" />
	</node>
	<node lat="59.31569999910209" lon="7.267902781345531" id="-32720">
		<tag k="name" v="Dapane" />
		<tag k="natural" v="water" />
		<tag k="ssr:stedsnr" v="699869" />
		<tag k="water" v="pond" />
	</node>
	<node lat="59.5036638911856" lon="7.185097215450394" id="-32721">
		<tag k="name" v="Råsene" />
		<tag k="natural" v="slope" />
		<tag k="place" v="locality" />
		<tag k="ssr:stedsnr" v="699807" />
	</node>
	<node lat="59.35550555361405" lon="7.297583327232265" id="-32722">
		<tag k="fixme" v="consider natural=peak for the most distinct mountains in the district" />
		<tag k="name" v="Åsane" />
		<tag k="natural" v="hill" />
		<tag k="place" v="locality" />
		<tag k="ssr:stedsnr" v="699883" />
	</node>
	<node lat="59.374008331553455" lon="7.354891659237756" id="-32723">
		<tag k="fixme" v="consider natural=peak for the most distinct mountains in the district" />
		<tag k="name" v="Solbrokkfjøddet" />
		<tag k="natural" v="hill" />
		<tag k="place" v="locality" />
		<tag k="ssr:stedsnr" v="699892" />
	</node>
	<node lat="59.32454166422311" lon="7.412741670204883" id="-32724">
		<tag k="name" v="Stavvassristi" />
		<tag k="natural" v="hill" />
		<tag k="place" v="locality" />
		<tag k="ssr:stedsnr" v="699953" />
	</node>
	<node lat="59.29147221934046" lon="7.391724998907938" id="-32725">
		<tag k="name" v="Myrane" />
		<tag k="natural" v="wetland" />
		<tag k="ssr:stedsnr" v="699958" />
	</node>
	<node lat="59.340230554415214" lon="7.414230547010239" id="-32726">
		<tag k="name" v="Finndalsristi" />
		<tag k="natural" v="ridge" />
		<tag k="place" v="locality" />
		<tag k="ssr:stedsnr" v="699999" />
	</node>
	<node lat="59.34647500065418" lon="7.252933326221906" id="-32727">
		<tag k="fixme" v="consider place=hamlet" />
		<tag k="name" v="Nesland" />
		<tag k="place" v="farm" />
		<tag k="ssr:stedsnr" v="608240" />
	</node>
	<node lat="59.311016669194494" lon="7.427549991243729" id="-32728">
		<tag k="fixme" v="consider natural=peak for the most distinct mountains in the district" />
		<tag k="name" v="Torsdalsristi" />
		<tag k="natural" v="hill" />
		<tag k="place" v="locality" />
		<tag k="ssr:stedsnr" v="608556" />
	</node>
	<node lat="59.28044444200248" lon="7.153119439440549" id="-32729">
		<tag k="name" v="Ytrebukti" />
		<tag k="natural" v="valley" />
		<tag k="place" v="locality" />
		<tag k="ssr:stedsnr" v="608488" />
	</node>
	<node lat="59.376177777498874" lon="7.43553610986632" id="-32730">
		<tag k="name" v="Stridsmodalen" />
		<tag k="natural" v="valley" />
		<tag k="place" v="locality" />
		<tag k="ssr:stedsnr" v="608642" />
	</node>
	<node lat="59.24418055446374" lon="7.039052773220479" id="-32731">
		<tag k="name" v="Kringlevatnet" />
		<tag k="natural" v="water" />
		<tag k="ssr:stedsnr" v="608789" />
		<tag k="water" v="lake" />
	</node>
	<node lat="59.321183329442" lon="6.883944445329401" id="-32732">
		<tag k="name" v="Beinleidokki" />
		<tag k="natural" v="valley" />
		<tag k="place" v="locality" />
		<tag k="ssr:stedsnr" v="609206" />
	</node>
	<node lat="59.46450000182811" lon="7.157333340147358" id="-32733">
		<tag k="name" v="Langetjønni" />
		<tag k="natural" v="water" />
		<tag k="ssr:stedsnr" v="609184" />
	</node>
	<node lat="59.41979999879918" lon="7.317311118983803" id="-32734">
		<tag k="alt_name" v="Hoslemoskaret" />
		<tag k="name" v="Hoslemoskardet" />
		<tag k="natural" v="valley" />
		<tag k="place" v="locality" />
		<tag k="ssr:stedsnr" v="609305" />
	</node>
	<node lat="59.42885000370448" lon="7.096402782933671" id="-32735">
		<tag k="alt_name" v="Vestre Urevassnutane" />
		<tag k="fixme" v="consider natural=peak for the most distinct mountains in the district" />
		<tag k="name" v="Urevassnutane" />
		<tag k="natural" v="hill" />
		<tag k="place" v="locality" />
		<tag k="ssr:stedsnr" v="609316" />
	</node>
	<node lat="59.39466666539875" lon="7.048638890065855" id="-32736">
		<tag k="name" v="Tverregghelleren" />
		<tag k="place" v="locality" />
		<tag k="ssr:stedsnr" v="609333" />
	</node>
	<node lat="59.38603889075512" lon="7.232874993572257" id="-32737">
		<tag k="fixme" v="consider natural=peak for the most distinct mountains in the district" />
		<tag k="name" v="Løkjenuten" />
		<tag k="natural" v="hill" />
		<tag k="place" v="locality" />
		<tag k="ssr:stedsnr" v="609346" />
	</node>
	<node lat="59.35261944525469" lon="6.908147219102673" id="-32738">
		<tag k="name" v="Trettheddervatnet" />
		<tag k="natural" v="water" />
		<tag k="ssr:stedsnr" v="609238" />
		<tag k="water" v="lake" />
	</node>
	<node lat="59.35688332948016" lon="6.960099999382633" id="-32739">
		<tag k="ford" v="yes" />
		<tag k="name" v="Sandvadet" />
		<tag k="place" v="locality" />
		<tag k="ssr:stedsnr" v="609239" />
	</node>
	<node lat="59.311850000614214" lon="7.113825000202008" id="-32740">
		<tag k="historic" v="shieling" />
		<tag k="name" v="Sandbekkstøylen" />
		<tag k="place" v="isolated_dwelling" />
		<tag k="ssr:stedsnr" v="609286" />
	</node>
	<node lat="59.30900832911939" lon="7.159586108003938" id="-32741">
		<tag k="name" v="Haugimillomtjønnane" />
		<tag k="natural" v="water" />
		<tag k="ssr:stedsnr" v="609289" />
	</node>
	<node lat="59.314011110452846" lon="7.017538887039308" id="-32742">
		<tag k="fixme" v="consider natural=peak for the most distinct mountains in the district" />
		<tag k="name" v="Tindefjell" />
		<tag k="natural" v="hill" />
		<tag k="place" v="locality" />
		<tag k="ssr:stedsnr" v="609301" />
	</node>
	<node lat="59.42893889089169" lon="7.356047213729476" id="-32743">
		<tag k="alt_name" v="Heistøyl" />
		<tag k="name" v="Heistøl" />
		<tag k="place" v="isolated_dwelling" />
		<tag k="ssr:stedsnr" v="609403" />
	</node>
	<node lat="59.43261111462116" lon="7.356558327900774" id="-32744">
		<tag k="name" v="Seten" />
		<tag k="place" v="isolated_dwelling" />
		<tag k="ssr:stedsnr" v="609408" />
	</node>
	<node lat="59.41855000204769" lon="7.390316670908139" id="-32745">
		<tag k="fixme" v="consider natural=peak for the most distinct mountains in the district" />
		<tag k="name" v="Nonåsen" />
		<tag k="natural" v="hill" />
		<tag k="place" v="locality" />
		<tag k="ssr:stedsnr" v="609415" />
	</node>
	<node lat="59.30746666704494" lon="7.1907805593996" id="-32746">
		<tag k="name" v="Storvatnet" />
		<tag k="natural" v="water" />
		<tag k="ssr:stedsnr" v="609433" />
	</node>
	<node lat="59.29391388874167" lon="7.255183336213378" id="-32747">
		<tag k="name" v="Hestekvæven" />
		<tag k="natural" v="valley" />
		<tag k="place" v="locality" />
		<tag k="ssr:stedsnr" v="609436" />
	</node>
	<node lat="59.66483333410751" lon="7.236755563054862" id="-32748">
		<tag k="alt_name" v="Holmevasstjørni" />
		<tag k="name" v="Holmevasstjønni" />
		<tag k="natural" v="water" />
		<tag k="ssr:stedsnr" v="609446" />
	</node>
	<node lat="59.44793888889883" lon="7.4227333339543975" id="-32749">
		<tag k="alt_name" v="Hagamo" />
		<tag k="name" v="Hagemo" />
		<tag k="place" v="farm" />
		<tag k="ssr:stedsnr" v="609383" />
	</node>
	<node lat="59.364100001486335" lon="7.389255550398793" id="-32750">
		<tag k="name" v="Tveiteråni" />
		<tag k="ssr:stedsnr" v="609555" />
		<tag k="waterway" v="stream" />
	</node>
	<node lat="59.292672225115886" lon="7.378655560196832" id="-32751">
		<tag k="name" v="Storekvæv" />
		<tag k="natural" v="valley" />
		<tag k="place" v="locality" />
		<tag k="ssr:stedsnr" v="609694" />
	</node>
	<node lat="59.622713891486384" lon="7.205913885464627" id="-32752">
		<tag k="fixme" v="consider natural=peak for the most distinct mountains in the district" />
		<tag k="name" v="Skurefjellet" />
		<tag k="natural" v="hill" />
		<tag k="place" v="locality" />
		<tag k="ssr:stedsnr" v="610486" />
	</node>
	<node lat="59.623411113150006" lon="7.126741665075811" id="-32753">
		<tag k="fixme" v="consider natural=peak for the most distinct mountains in the district" />
		<tag k="name" v="Såta" />
		<tag k="natural" v="hill" />
		<tag k="place" v="locality" />
		<tag k="ssr:stedsnr" v="610487" />
	</node>
	<node lat="59.64496070886607" lon="7.279826200906413" id="-32754">
		<tag k="alt_name" v="Gravevotni, midtre" />
		<tag k="name" v="Midtre Gravevotni" />
		<tag k="natural" v="water" />
		<tag k="ssr:stedsnr" v="610499" />
		<tag k="water" v="lake" />
	</node>
	<node lat="59.5603111081278" lon="7.356730563949816" id="-32758">
		<tag k="fixme" v="consider place=hamlet" />
		<tag k="name" v="Hovden" />
		<tag k="place" v="village" />
		<tag k="ssr:stedsnr" v="629348" />
	</node>
	<node lat="59.574516666958985" lon="7.391813881086211" id="-32759">
		<tag k="name" v="Hovden Appartements" />
		<tag k="old_name" v="Hovden Appartementhotell" />
		<tag k="ssr:stedsnr" v="629356" />
		<tag k="tourism" v="hotel" />
	</node>
	<node lat="59.384513890437596" lon="7.049800003427347" id="-32763">
		<tag k="name" v="Den flå dokki" />
		<tag k="place" v="isolated_dwelling" />
		<tag k="ssr:stedsnr" v="633691" />
	</node>
	<node lat="59.41354721955595" lon="7.093711104253853" id="-32764">
		<tag k="name" v="Krokevasskvæven" />
		<tag k="place" v="isolated_dwelling" />
		<tag k="ssr:stedsnr" v="634913" />
	</node>
	<node lat="59.441261107179734" lon="7.356133341482768" id="-32765">
		<tag k="name" v="Flotti" />
		<tag k="place" v="locality" />
		<tag k="ssr:stedsnr" v="638505" />
	</node>
	<node lat="59.410991667649476" lon="7.412080562967736" id="-32766">
		<tag k="name" v="Glidbjørgsøyni" />
		<tag k="place" v="islet" />
		<tag k="ssr:stedsnr" v="638489" />
	</node>
	<node lat="59.42777222154156" lon="7.3997805570409865" id="-32767">
		<tag k="fixme" v="consider natural=peak for the most distinct mountains in the district" />
		<tag k="name" v="Øystøylåsane" />
		<tag k="natural" v="hill" />
		<tag k="place" v="locality" />
		<tag k="ssr:stedsnr" v="638603" />
	</node>
	<node lat="59.494013884600186" lon="7.400377784435264" id="-32768">
		<tag k="name" v="Vetrehylen" />
		<tag k="place" v="locality" />
		<tag k="ssr:stedsnr" v="638607" />
	</node>
	<node lat="59.491247224806564" lon="7.411527778522947" id="-32769">
		<tag k="fixme" v="consider natural=peak for the most distinct mountains in the district" />
		<tag k="name" v="Tykkås" />
		<tag k="natural" v="hill" />
		<tag k="place" v="locality" />
		<tag k="ssr:stedsnr" v="638609" />
	</node>
	<node lat="59.623086108098626" lon="7.387983341478434" id="-32770">
		<tag k="name" v="Kaldsfjøddhalsen" />
		<tag k="natural" v="ridge" />
		<tag k="place" v="locality" />
		<tag k="ssr:stedsnr" v="638630" />
	</node>
	<node lat="59.48650555578024" lon="7.453927784699523" id="-32771">
		<tag k="name" v="Gamlestøyljuvet" />
		<tag k="natural" v="gorge" />
		<tag k="ssr:stedsnr" v="638587" />
	</node>
	<node lat="59.46851389092652" lon="7.374863890572163" id="-32772">
		<tag k="name" v="Nordstog" />
		<tag k="place" v="farm" />
		<tag k="ssr:stedsnr" v="638597" />
	</node>
	<node lat="59.352877775936186" lon="7.338455556278275" id="-32773">
		<tag k="name" v="Oppistog" />
		<tag k="place" v="farm" />
		<tag k="ssr:stedsnr" v="638906" />
	</node>
	<node lat="59.349844446577805" lon="7.366227783123993" id="-32774">
		<tag k="name" v="Ægredekkane" />
		<tag k="place" v="locality" />
		<tag k="ssr:stedsnr" v="638927" />
	</node>
	<node lat="59.353683337099525" lon="7.362141661019249" id="-32775">
		<tag k="name" v="Kroni" />
		<tag k="place" v="farm" />
		<tag k="ssr:stedsnr" v="638928" />
	</node>
	<node lat="59.375247222340754" lon="7.391422222781683" id="-32776">
		<tag k="name" v="Hesjedalen" />
		<tag k="natural" v="valley" />
		<tag k="place" v="locality" />
		<tag k="ssr:stedsnr" v="638981" />
	</node>
	<node lat="59.34151388732181" lon="7.398002778184543" id="-32777">
		<tag k="name" v="Benkene" />
		<tag k="place" v="locality" />
		<tag k="ssr:stedsnr" v="638995" />
	</node>
	<node lat="59.32088333180653" lon="7.335533333019029" id="-32779">
		<tag k="name" v="Vardebrokkmyrane" />
		<tag k="natural" v="wetland" />
		<tag k="ssr:stedsnr" v="638829" />
	</node>
	<node lat="59.37283610700564" lon="7.332186117753366" id="-32780">
		<tag k="fixme" v="consider natural=peak for the most distinct mountains in the district" />
		<tag k="name" v="Listøylfjøddet" />
		<tag k="natural" v="hill" />
		<tag k="place" v="locality" />
		<tag k="ssr:stedsnr" v="638879" />
	</node>
	<node lat="59.37109722166349" lon="7.264049995271541" id="-32781">
		<tag k="name" v="Dekkane" />
		<tag k="natural" v="valley" />
		<tag k="place" v="locality" />
		<tag k="ssr:stedsnr" v="638889" />
	</node>
	<node lat="59.33591111135189" lon="7.302461115495519" id="-32782">
		<tag k="historic" v="shieling" />
		<tag k="name" v="Husfjøddstøylen" />
		<tag k="place" v="isolated_dwelling" />
		<tag k="ssr:stedsnr" v="638902" />
	</node>
	<node lat="59.55232222128451" lon="7.009536108582138" id="-32846">
		<tag k="name" v="Kaldevassdekkane" />
		<tag k="natural" v="hill" />
		<tag k="place" v="locality" />
		<tag k="ssr:stedsnr" v="659139" />
	</node>
</osm>
