<?xml version="1.0" encoding="UTF-8"?>
<osm version="0.6" generator="osmapis">
	<node id="2580479931" lat="58.4627233" lon="7.9115698" version="3" timestamp="2018-04-10T18:40:07Z" changeset="57982147" uid="3497659" user="NKA">
		<tag k="name" v="Birketveit" />
		<tag k="place" v="village" />
		<tag k="ssr:stedsnr" v="485183" />
		<tag k="ssr:type" v="bygdelagBygd" />
	</node>
	<node id="2580479934" lat="58.4547949" lon="7.9192295" version="3" timestamp="2018-04-10T18:40:08Z" changeset="57982147" uid="3497659" user="NKA">
		<tag k="name" v="Iveland" />
		<tag k="place" v="village" />
		<tag k="ssr:stedsnr" v="728199" />
		<tag k="ssr:type" v="grend" />
	</node>
	<node id="2580482372" lat="58.4707848" lon="7.8883809" version="3" timestamp="2018-04-10T18:40:08Z" changeset="57982147" uid="3497659" user="NKA">
		<tag k="name" v="Æretveit" />
		<tag k="place" v="farm" />
		<tag k="ssr:stedsnr" v="255" />
		<tag k="ssr:type" v="bruk" />
	</node>
	<node id="4477662230" lat="58.4769619" lon="7.7936248" version="2" timestamp="2018-04-10T18:51:36Z" changeset="57982147" uid="3497659" user="NKA">
		<tag k="alt_name" v="Horne austre" />
		<tag k="name" v="Austre Horne" />
		<tag k="place" v="farm" />
		<tag k="ssr:stedsnr" v="910198" />
		<tag k="ssr:type" v="bruk" />
	</node>
	<node id="4477662231" lat="58.4179521" lon="8.0646997" version="2" timestamp="2018-04-10T18:51:36Z" changeset="57982147" uid="3497659" user="NKA">
		<tag k="name" v="Bakkane" />
		<tag k="place" v="neighbourhood" />
		<tag k="ssr:stedsnr" v="273402" />
		<tag k="ssr:type" v="boligfelt" />
	</node>
	<node id="4477662232" lat="58.4023175" lon="7.9169865" version="2" timestamp="2018-04-10T18:51:36Z" changeset="57982147" uid="3497659" user="NKA">
		<tag k="name" v="Bakken" />
		<tag k="place" v="hamlet" />
		<tag k="ssr:stedsnr" v="303132" />
		<tag k="ssr:type" v="bruk" />
	</node>
	<node id="4477662233" lat="58.4586238" lon="7.9522165" version="2" timestamp="2018-04-10T18:51:36Z" changeset="57982147" uid="3497659" user="NKA">
		<tag k="fixme" v="check position" />
		<tag k="historic" v="ruins" />
		<tag k="name" v="Berås" />
		<tag k="place" v="locality" />
		<tag k="ssr:stedsnr" v="455532" />
		<tag k="ssr:type" v="gammelBosettingsplass" />
	</node>
	<node id="4477662234" lat="58.5310163" lon="7.9238883" version="2" timestamp="2018-04-10T18:51:36Z" changeset="57982147" uid="3497659" user="NKA">
		<tag k="name" v="Birkeland" />
		<tag k="place" v="farm" />
		<tag k="ssr:stedsnr" v="122653" />
		<tag k="ssr:type" v="bruk" />
	</node>
	<node id="4477662235" lat="58.3410324" lon="7.9464051" version="3" timestamp="2018-04-28T08:07:08Z" changeset="58497758" uid="3497659" user="NKA">
		<tag k="historic" v="shieling" />
		<tag k="name" v="Bjørkestøl" />
		<tag k="place" v="locality" />
		<tag k="ssr:stedsnr" v="819185" />
		<tag k="ssr:type" v="seterStøl" />
	</node>
	<node id="4477662236" lat="58.3825054" lon="7.9513044" version="2" timestamp="2018-04-10T18:51:37Z" changeset="57982147" uid="3497659" user="NKA">
		<tag k="name" v="Budalshei" />
		<tag k="place" v="farm" />
		<tag k="ssr:stedsnr" v="849202" />
		<tag k="ssr:type" v="bruk" />
	</node>
	<node id="4477662237" lat="58.4188906" lon="8.0900668" version="2" timestamp="2018-04-10T18:51:37Z" changeset="57982147" uid="3497659" user="NKA">
		<tag k="name" v="Bukksund" />
		<tag k="place" v="locality" />
		<tag k="ssr:stedsnr" v="273415" />
		<tag k="ssr:type" v="gammelBosettingsplass" />
	</node>
	<node id="4477662238" lat="58.407307" lon="7.868707" version="2" timestamp="2018-04-10T18:51:37Z" changeset="57982147" uid="3497659" user="NKA">
		<tag k="name" v="Dalane" />
		<tag k="place" v="farm" />
		<tag k="ssr:stedsnr" v="182115" />
		<tag k="ssr:type" v="bruk" />
	</node>
	<node id="4477662239" lat="58.5207471" lon="7.9294501" version="2" timestamp="2018-04-10T18:51:37Z" changeset="57982147" uid="3497659" user="NKA">
		<tag k="alt_name" v="Eptevatn" />
		<tag k="name" v="Eftevatn" />
		<tag k="place" v="farm" />
		<tag k="ssr:stedsnr" v="183384" />
		<tag k="ssr:type" v="bruk" />
	</node>
	<node id="4477662240" lat="58.4374551" lon="8.0050909" version="2" timestamp="2018-04-10T18:51:37Z" changeset="57982147" uid="3497659" user="NKA">
		<tag k="name" v="Eieland" />
		<tag k="place" v="hamlet" />
		<tag k="ssr:stedsnr" v="364168" />
		<tag k="ssr:type" v="gard" />
	</node>
	<node id="4477662241" lat="58.4780233" lon="8.0122574" version="2" timestamp="2018-04-10T18:51:37Z" changeset="57982147" uid="3497659" user="NKA">
		<tag k="name" v="Eikeland" />
		<tag k="place" v="farm" />
		<tag k="ssr:stedsnr" v="667242" />
		<tag k="ssr:type" v="bruk" />
	</node>
	<node id="4477662242" lat="58.3949985" lon="7.929963" version="2" timestamp="2018-04-10T18:51:37Z" changeset="57982147" uid="3497659" user="NKA">
		<tag k="fixme" v="check position" />
		<tag k="historic" v="ruins" />
		<tag k="name" v="Elgebrokka" />
		<tag k="place" v="locality" />
		<tag k="ssr:stedsnr" v="394033" />
		<tag k="ssr:type" v="gammelBosettingsplass" />
	</node>
	<node id="4477662243" lat="58.4859779" lon="7.9760772" version="2" timestamp="2018-04-10T18:51:38Z" changeset="57982147" uid="3497659" user="NKA">
		<tag k="name" v="Elshaugane" />
		<tag k="place" v="farm" />
		<tag k="ssr:stedsnr" v="182186" />
		<tag k="ssr:type" v="bruk" />
	</node>
	<node id="4477662244" lat="58.4761636" lon="8.0307255" version="2" timestamp="2018-04-10T18:51:38Z" changeset="57982147" uid="3497659" user="NKA">
		<tag k="name" v="Engestøl" />
		<tag k="place" v="farm" />
		<tag k="ssr:stedsnr" v="182233" />
		<tag k="ssr:type" v="bruk" />
	</node>
	<node id="4477662245" lat="58.4354363" lon="8.0814584" version="2" timestamp="2018-04-10T18:51:38Z" changeset="57982147" uid="3497659" user="NKA">
		<tag k="name" v="Fjermeros" />
		<tag k="place" v="hamlet" />
		<tag k="ssr:stedsnr" v="787097" />
		<tag k="ssr:type" v="gard" />
	</node>
	<node id="4477662246" lat="58.4868409" lon="7.9258072" version="2" timestamp="2018-04-10T18:51:38Z" changeset="57982147" uid="3497659" user="NKA">
		<tag k="name" v="Fossbekk" />
		<tag k="place" v="farm" />
		<tag k="ssr:stedsnr" v="697629" />
		<tag k="ssr:type" v="bruk" />
	</node>
	<node id="4477662247" lat="58.468651" lon="7.9148668" version="2" timestamp="2018-04-10T18:51:38Z" changeset="57982147" uid="3497659" user="NKA">
		<tag k="name" v="Fossli" />
		<tag k="place" v="farm" />
		<tag k="ssr:stedsnr" v="728211" />
		<tag k="ssr:type" v="bruk" />
	</node>
	<node id="4477662248" lat="58.4635274" lon="7.9113403" version="2" timestamp="2018-04-10T18:51:38Z" changeset="57982147" uid="3497659" user="NKA">
		<tag k="name" v="Fosstveit" />
		<tag k="place" v="farm" />
		<tag k="ssr:stedsnr" v="728217" />
		<tag k="ssr:type" v="bruk" />
	</node>
	<node id="4477662249" lat="58.4339781" lon="8.0925063" version="2" timestamp="2018-04-10T18:51:38Z" changeset="57982147" uid="3497659" user="NKA">
		<tag k="name" v="Fredheim" />
		<tag k="place" v="farm" />
		<tag k="ssr:stedsnr" v="910153" />
		<tag k="ssr:type" v="bruk" />
	</node>
	<node id="4477662250" lat="58.5246826" lon="7.8962548" version="2" timestamp="2018-04-10T18:51:39Z" changeset="57982147" uid="3497659" user="NKA">
		<tag k="name" v="Frigstad vestre" />
		<tag k="place" v="farm" />
		<tag k="ssr:stedsnr" v="697734" />
		<tag k="ssr:type" v="gard" />
	</node>
	<node id="4477662251" lat="58.5251851" lon="7.9094438" version="2" timestamp="2018-04-10T18:51:39Z" changeset="57982147" uid="3497659" user="NKA">
		<tag k="name" v="Frigstad østre" />
		<tag k="place" v="farm" />
		<tag k="ssr:stedsnr" v="758749" />
		<tag k="ssr:type" v="bruk" />
	</node>
	<node id="4477662252" lat="58.5242759" lon="7.9018435" version="2" timestamp="2018-04-10T18:51:39Z" changeset="57982147" uid="3497659" user="NKA">
		<tag k="name" v="Frikstad" />
		<tag k="place" v="hamlet" />
		<tag k="ssr:stedsnr" v="729434" />
		<tag k="ssr:type" v="grend" />
	</node>
	<node id="4477662253" lat="58.4207203" lon="8.0619111" version="2" timestamp="2018-04-10T18:51:39Z" changeset="57982147" uid="3497659" user="NKA">
		<tag k="name" v="Frostemyr" />
		<tag k="place" v="farm" />
		<tag k="ssr:stedsnr" v="425133" />
		<tag k="ssr:type" v="bruk" />
	</node>
	<node id="4477662254" lat="58.4188785" lon="7.9093906" version="2" timestamp="2018-04-10T18:51:39Z" changeset="57982147" uid="3497659" user="NKA">
		<tag k="name" v="Frøyså" />
		<tag k="place" v="hamlet" />
		<tag k="ssr:stedsnr" v="728123" />
		<tag k="ssr:type" v="bruk" />
	</node>
	<node id="4477662255" lat="58.4664005" lon="7.8917341" version="2" timestamp="2018-04-10T18:51:39Z" changeset="57982147" uid="3497659" user="NKA">
		<tag k="name" v="Gautestad" />
		<tag k="place" v="farm" />
		<tag k="ssr:stedsnr" v="364266" />
		<tag k="ssr:type" v="bruk" />
	</node>
	<node id="4477662256" lat="58.3999825" lon="8.0889118" version="2" timestamp="2018-04-10T18:51:39Z" changeset="57982147" uid="3497659" user="NKA">
		<tag k="name" v="Gjengninga" />
		<tag k="place" v="locality" />
		<tag k="ssr:stedsnr" v="940330" />
		<tag k="ssr:type" v="gammelBosettingsplass" />
	</node>
	<node id="4477662257" lat="58.4585722" lon="7.8626275" version="2" timestamp="2018-04-10T18:51:39Z" changeset="57982147" uid="3497659" user="NKA">
		<tag k="alt_name" v="Grossås" />
		<tag k="name" v="Grosås" />
		<tag k="place" v="hamlet" />
		<tag k="ssr:stedsnr" v="850240" />
		<tag k="ssr:type" v="gard" />
	</node>
	<node id="4477662258" lat="58.4201098" lon="8.0525162" version="2" timestamp="2018-04-10T18:51:40Z" changeset="57982147" uid="3497659" user="NKA">
		<tag k="fixme" v="check position" />
		<tag k="historic" v="ruins" />
		<tag k="name" v="Gåstjønndalen" />
		<tag k="place" v="locality" />
		<tag k="ssr:stedsnr" v="455510" />
		<tag k="ssr:type" v="gammelBosettingsplass" />
	</node>
	<node id="4477662259" lat="58.4304768" lon="7.9230571" version="2" timestamp="2018-04-10T18:51:40Z" changeset="57982147" uid="3497659" user="NKA">
		<tag k="historic" v="ruins" />
		<tag k="name" v="Hagevoll" />
		<tag k="place" v="locality" />
		<tag k="ssr:stedsnr" v="273774" />
		<tag k="ssr:type" v="gammelBosettingsplass" />
	</node>
	<node id="4477662260" lat="58.3771006" lon="7.9326716" version="2" timestamp="2018-04-10T18:51:40Z" changeset="57982147" uid="3497659" user="NKA">
		<tag k="name" v="Halvfar" />
		<tag k="place" v="farm" />
		<tag k="ssr:stedsnr" v="121161" />
		<tag k="ssr:type" v="bruk" />
	</node>
	<node id="4477662261" lat="58.4218809" lon="8.0648595" version="2" timestamp="2018-04-10T18:51:40Z" changeset="57982147" uid="3497659" user="NKA">
		<tag k="name" v="Haugen" />
		<tag k="place" v="farm" />
		<tag k="ssr:stedsnr" v="333440" />
		<tag k="ssr:type" v="eneboligMindreBoligbygg" />
	</node>
	<node id="4477662262" lat="58.441317" lon="7.8743564" version="2" timestamp="2018-04-10T18:51:40Z" changeset="57982147" uid="3497659" user="NKA">
		<tag k="name" v="Heia" />
		<tag k="place" v="farm" />
		<tag k="ssr:stedsnr" v="243211" />
		<tag k="ssr:type" v="bruk" />
	</node>
	<node id="4477662263" lat="58.4431079" lon="8.0568309" version="2" timestamp="2018-04-10T18:51:40Z" changeset="57982147" uid="3497659" user="NKA">
		<tag k="fixme" v="check position" />
		<tag k="historic" v="ruins" />
		<tag k="name" v="Heia" />
		<tag k="place" v="locality" />
		<tag k="ssr:stedsnr" v="333460" />
		<tag k="ssr:type" v="gammelBosettingsplass" />
	</node>
	<node id="4477662264" lat="58.4065968" lon="7.96204" version="2" timestamp="2018-04-10T18:51:40Z" changeset="57982147" uid="3497659" user="NKA">
		<tag k="fixme" v="check position" />
		<tag k="historic" v="ruins" />
		<tag k="name" v="Hestebeita" />
		<tag k="place" v="locality" />
		<tag k="ssr:stedsnr" v="880910" />
		<tag k="ssr:type" v="gammelBosettingsplass" />
	</node>
	<node id="4477662265" lat="58.4542785" lon="7.9045313" version="2" timestamp="2018-04-10T18:51:41Z" changeset="57982147" uid="3497659" user="NKA">
		<tag k="name" v="Hiltveit" />
		<tag k="place" v="hamlet" />
		<tag k="ssr:stedsnr" v="789240" />
		<tag k="ssr:type" v="gard" />
	</node>
	<node id="4477662266" lat="58.4217362" lon="8.0661763" version="2" timestamp="2018-04-10T18:51:41Z" changeset="57982147" uid="3497659" user="NKA">
		<tag k="name" v="Holtet" />
		<tag k="place" v="farm" />
		<tag k="ssr:stedsnr" v="850143" />
		<tag k="ssr:type" v="bruk" />
	</node>
	<node id="4477662267" lat="58.4747103" lon="7.7938699" version="2" timestamp="2018-04-10T18:51:41Z" changeset="57982147" uid="3497659" user="NKA">
		<tag k="name" v="Horne" />
		<tag k="place" v="farm" />
		<tag k="ssr:stedsnr" v="241084" />
		<tag k="ssr:type" v="gard" />
	</node>
	<node id="4477662268" lat="58.4326421" lon="8.0852805" version="2" timestamp="2018-04-10T18:51:41Z" changeset="57982147" uid="3497659" user="NKA">
		<tag k="name" v="Hunsfossheimen" />
		<tag k="place" v="locality" />
		<tag k="ssr:stedsnr" v="880416" />
		<tag k="ssr:type" v="fritidsbolig" />
	</node>
	<node id="4477662269" lat="58.4975513" lon="7.922501" version="2" timestamp="2018-04-10T18:51:41Z" changeset="57982147" uid="3497659" user="NKA">
		<tag k="name" v="Håland" />
		<tag k="place" v="farm" />
		<tag k="ssr:stedsnr" v="303201" />
		<tag k="ssr:type" v="bruk" />
	</node>
	<node id="4477662270" lat="58.5024197" lon="7.9228407" version="2" timestamp="2018-04-10T18:51:41Z" changeset="57982147" uid="3497659" user="NKA">
		<tag k="alt_name" v="Håvarstad" />
		<tag k="name" v="Håverstad" />
		<tag k="place" v="farm" />
		<tag k="ssr:stedsnr" v="850418" />
		<tag k="ssr:type" v="bruk" />
	</node>
	<node id="4477662271" lat="58.5266741" lon="7.9038734" version="2" timestamp="2018-04-10T18:51:41Z" changeset="57982147" uid="3497659" user="NKA">
		<tag k="fixme" v="check position" />
		<tag k="historic" v="ruins" />
		<tag k="name" v="Høyland" />
		<tag k="place" v="locality" />
		<tag k="ssr:stedsnr" v="880732" />
		<tag k="ssr:type" v="gammelBosettingsplass" />
	</node>
	<node id="4477662272" lat="58.428831" lon="7.9241139" version="2" timestamp="2018-04-10T18:51:42Z" changeset="57982147" uid="3497659" user="NKA">
		<tag k="name" v="Ivedal" />
		<tag k="place" v="farm" />
		<tag k="ssr:stedsnr" v="425146" />
		<tag k="ssr:type" v="bruk" />
	</node>
	<node id="4477662273" lat="58.5032984" lon="7.9836658" version="2" timestamp="2018-04-10T18:51:42Z" changeset="57982147" uid="3497659" user="NKA">
		<tag k="name" v="Jokeli" />
		<tag k="place" v="farm" />
		<tag k="ssr:stedsnr" v="486416" />
		<tag k="ssr:type" v="bruk" />
	</node>
	<node id="4477662274" lat="58.4737351" lon="7.9180108" version="2" timestamp="2018-04-10T18:51:42Z" changeset="57982147" uid="3497659" user="NKA">
		<tag k="name" v="Kamperhaug" />
		<tag k="place" v="isolated_dwelling" />
		<tag k="ssr:stedsnr" v="819816" />
		<tag k="ssr:type" v="gammelBosettingsplass" />
	</node>
	<node id="4477662275" lat="58.4674672" lon="8.0527109" version="2" timestamp="2018-04-10T18:51:42Z" changeset="57982147" uid="3497659" user="NKA">
		<tag k="fixme" v="check position" />
		<tag k="historic" v="ruins" />
		<tag k="name" v="Kleiva" />
		<tag k="place" v="locality" />
		<tag k="ssr:stedsnr" v="212545" />
		<tag k="ssr:type" v="gammelBosettingsplass" />
	</node>
	<node id="4477662276" lat="58.4320219" lon="7.9591237" version="2" timestamp="2018-04-10T18:51:42Z" changeset="57982147" uid="3497659" user="NKA">
		<tag k="name" v="Kleivane" />
		<tag k="place" v="farm" />
		<tag k="ssr:stedsnr" v="728131" />
		<tag k="ssr:type" v="bruk" />
	</node>
	<node id="4477662277" lat="58.5130059" lon="7.9140529" version="2" timestamp="2018-04-10T18:51:42Z" changeset="57982147" uid="3497659" user="NKA">
		<tag k="name" v="Klepp" />
		<tag k="place" v="farm" />
		<tag k="ssr:stedsnr" v="697620" />
		<tag k="ssr:type" v="bruk" />
	</node>
	<node id="4477662278" lat="58.5280773" lon="7.9265023" version="2" timestamp="2018-04-10T18:51:42Z" changeset="57982147" uid="3497659" user="NKA">
		<tag k="fixme" v="check position" />
		<tag k="historic" v="ruins" />
		<tag k="name" v="Kloppane" />
		<tag k="place" v="locality" />
		<tag k="ssr:stedsnr" v="697726" />
		<tag k="ssr:type" v="gammelBosettingsplass" />
	</node>
	<node id="4477662279" lat="58.321254" lon="7.9507065" version="2" timestamp="2018-04-10T18:51:42Z" changeset="57982147" uid="3497659" user="NKA">
		<tag k="fixme" v="check position" />
		<tag k="historic" v="ruins" />
		<tag k="name" v="Knutane" />
		<tag k="place" v="locality" />
		<tag k="ssr:stedsnr" v="758134" />
		<tag k="ssr:type" v="gammelBosettingsplass" />
	</node>
	<node id="4477662280" lat="58.3975927" lon="8.046352" version="2" timestamp="2018-04-10T18:51:42Z" changeset="57982147" uid="3497659" user="NKA">
		<tag k="name" v="Krossdal" />
		<tag k="place" v="farm" />
		<tag k="ssr:stedsnr" v="30948" />
		<tag k="ssr:type" v="bruk" />
	</node>
	<node id="4477662281" lat="58.3271032" lon="7.9605713" version="2" timestamp="2018-04-10T18:51:43Z" changeset="57982147" uid="3497659" user="NKA">
		<tag k="alt_name" v="Kuastøl" />
		<tag k="name" v="Kuarstøl" />
		<tag k="place" v="farm" />
		<tag k="ssr:stedsnr" v="910125" />
		<tag k="ssr:type" v="bruk" />
	</node>
	<node id="4477662282" lat="58.5295615" lon="7.9152728" version="2" timestamp="2018-04-10T18:51:43Z" changeset="57982147" uid="3497659" user="NKA">
		<tag k="name" v="Kåbuland" />
		<tag k="place" v="farm" />
		<tag k="ssr:stedsnr" v="665" />
		<tag k="ssr:type" v="bruk" />
	</node>
	<node id="4477662283" lat="58.3833781" lon="8.0683596" version="2" timestamp="2018-04-10T18:51:43Z" changeset="57982147" uid="3497659" user="NKA">
		<tag k="name" v="Landekil" />
		<tag k="place" v="farm" />
		<tag k="ssr:stedsnr" v="546163" />
		<tag k="ssr:type" v="bruk" />
	</node>
	<node id="4477662284" lat="58.4659264" lon="7.9726954" version="2" timestamp="2018-04-10T18:51:43Z" changeset="57982147" uid="3497659" user="NKA">
		<tag k="name" v="Landsverk" />
		<tag k="place" v="farm" />
		<tag k="ssr:stedsnr" v="425233" />
		<tag k="ssr:type" v="bruk" />
	</node>
	<node id="4477662285" lat="58.4919008" lon="7.8404775" version="2" timestamp="2018-04-10T18:51:43Z" changeset="57982147" uid="3497659" user="NKA">
		<tag k="name" v="Landås" />
		<tag k="place" v="hamlet" />
		<tag k="ssr:stedsnr" v="606208" />
		<tag k="ssr:type" v="gard" />
	</node>
	<node id="4477662286" lat="58.4871999" lon="7.8303739" version="2" timestamp="2018-04-10T18:51:43Z" changeset="57982147" uid="3497659" user="NKA">
		<tag k="name" v="Langevei" />
		<tag k="place" v="farm" />
		<tag k="ssr:stedsnr" v="728174" />
		<tag k="ssr:type" v="bruk" />
	</node>
	<node id="4477662288" lat="58.3709929" lon="7.9872495" version="2" timestamp="2018-04-10T18:51:44Z" changeset="57982147" uid="3497659" user="NKA">
		<tag k="name" v="Leesland" />
		<tag k="place" v="hamlet" />
		<tag k="ssr:stedsnr" v="121154" />
		<tag k="ssr:type" v="gard" />
	</node>
	<node id="4477662489" lat="58.5017657" lon="7.8819903" version="2" timestamp="2018-04-10T18:51:44Z" changeset="57982147" uid="3497659" user="NKA">
		<tag k="fixme" v="check position" />
		<tag k="historic" v="ruins" />
		<tag k="name" v="Liestøl" />
		<tag k="place" v="locality" />
		<tag k="ssr:stedsnr" v="940657" />
		<tag k="ssr:type" v="gammelBosettingsplass" />
	</node>
	<node id="4477662490" lat="58.4507297" lon="7.8161477" version="2" timestamp="2018-04-10T18:51:44Z" changeset="57982147" uid="3497659" user="NKA">
		<tag k="fixme" v="check position" />
		<tag k="historic" v="ruins" />
		<tag k="name" v="Lille Øygarden" />
		<tag k="place" v="locality" />
		<tag k="ssr:stedsnr" v="940182" />
		<tag k="ssr:type" v="gammelBosettingsplass" />
	</node>
	<node id="4477662491" lat="58.487266" lon="7.9443839" version="2" timestamp="2018-04-10T18:51:44Z" changeset="57982147" uid="3497659" user="NKA">
		<tag k="name" v="Ljosland" />
		<tag k="place" v="hamlet" />
		<tag k="ssr:stedsnr" v="239119" />
		<tag k="ssr:type" v="gard" />
	</node>
	<node id="4477662493" lat="58.429495" lon="8.0809479" version="2" timestamp="2018-04-10T18:51:44Z" changeset="57982147" uid="3497659" user="NKA">
		<tag k="name" v="Lomstjønn" />
		<tag k="place" v="farm" />
		<tag k="ssr:stedsnr" v="91451" />
		<tag k="ssr:type" v="bruk" />
	</node>
	<node id="4477662494" lat="58.3988397" lon="7.9275591" version="2" timestamp="2018-04-10T18:51:44Z" changeset="57982147" uid="3497659" user="NKA">
		<tag k="name" v="Lunden" />
		<tag k="place" v="farm" />
		<tag k="ssr:stedsnr" v="546183" />
		<tag k="ssr:type" v="bruk" />
	</node>
	<node id="4477662495" lat="58.4263906" lon="8.042627" version="2" timestamp="2018-04-10T18:51:44Z" changeset="57982147" uid="3497659" user="NKA">
		<tag k="historic" v="ruins" />
		<tag k="name" v="Lunden" />
		<tag k="place" v="locality" />
		<tag k="ssr:stedsnr" v="61130" />
		<tag k="ssr:type" v="fritidsbolig" />
	</node>
	<node id="4477662496" lat="58.4394323" lon="8.0170511" version="2" timestamp="2018-04-10T18:51:44Z" changeset="57982147" uid="3497659" user="NKA">
		<tag k="fixme" v="check position" />
		<tag k="historic" v="ruins" />
		<tag k="name" v="Lykke" />
		<tag k="place" v="locality" />
		<tag k="ssr:stedsnr" v="273621" />
		<tag k="ssr:type" v="gammelBosettingsplass" />
	</node>
	<node id="4477662497" lat="58.3982435" lon="7.9521083" version="2" timestamp="2018-04-10T18:51:45Z" changeset="57982147" uid="3497659" user="NKA">
		<tag k="name" v="Løland" />
		<tag k="place" v="farm" />
		<tag k="ssr:stedsnr" v="910189" />
		<tag k="ssr:type" v="bruk" />
	</node>
	<node id="4477662499" lat="58.3626733" lon="7.9462558" version="2" timestamp="2018-04-10T18:51:45Z" changeset="57982147" uid="3497659" user="NKA">
		<tag k="name" v="Mykland" />
		<tag k="place" v="farm" />
		<tag k="ssr:stedsnr" v="80" />
		<tag k="ssr:type" v="bruk" />
	</node>
	<node id="4477662500" lat="58.4417399" lon="8.0022574" version="2" timestamp="2018-04-10T18:51:45Z" changeset="57982147" uid="3497659" user="NKA">
		<tag k="fixme" v="check position" />
		<tag k="historic" v="ruins" />
		<tag k="name" v="Myra" />
		<tag k="place" v="locality" />
		<tag k="ssr:stedsnr" v="697593" />
		<tag k="ssr:type" v="gammelBosettingsplass" />
	</node>
	<node id="4477662501" lat="58.4373246" lon="7.8715168" version="2" timestamp="2018-04-10T18:51:45Z" changeset="57982147" uid="3497659" user="NKA">
		<tag k="name" v="Myrbotn" />
		<tag k="place" v="farm" />
		<tag k="ssr:stedsnr" v="667233" />
		<tag k="ssr:type" v="bruk" />
	</node>
	<node id="4477662502" lat="58.4366326" lon="8.0153209" version="2" timestamp="2018-04-10T18:51:45Z" changeset="57982147" uid="3497659" user="NKA">
		<tag k="name" v="Møkjåland" />
		<tag k="place" v="hamlet" />
		<tag k="ssr:stedsnr" v="182142" />
		<tag k="ssr:type" v="gard" />
	</node>
	<node id="4477662503" lat="58.4981708" lon="7.9116559" version="2" timestamp="2018-04-10T18:51:45Z" changeset="57982147" uid="3497659" user="NKA">
		<tag k="name" v="Mølland" />
		<tag k="place" v="farm" />
		<tag k="ssr:stedsnr" v="606193" />
		<tag k="ssr:type" v="bruk" />
	</node>
	<node id="4477662504" lat="58.4692158" lon="7.9051575" version="2" timestamp="2018-04-10T18:51:45Z" changeset="57982147" uid="3497659" user="NKA">
		<tag k="name" v="Nateland" />
		<tag k="place" v="farm" />
		<tag k="ssr:stedsnr" v="789243" />
		<tag k="ssr:type" v="bruk" />
	</node>
	<node id="4477662505" lat="58.4668169" lon="8.0573256" version="2" timestamp="2018-04-10T18:51:46Z" changeset="57982147" uid="3497659" user="NKA">
		<tag k="alt_name" v="Fjermedal nedre" />
		<tag k="name" v="Nedre Fjermedal" />
		<tag k="place" v="farm" />
		<tag k="ssr:stedsnr" v="121240" />
		<tag k="ssr:type" v="bruk" />
	</node>
	<node id="4477662506" lat="58.5214268" lon="7.8946829" version="2" timestamp="2018-04-10T18:51:46Z" changeset="57982147" uid="3497659" user="NKA">
		<tag k="name" v="Nedre Frigstad" />
		<tag k="place" v="farm" />
		<tag k="ssr:stedsnr" v="940741" />
		<tag k="ssr:type" v="gard" />
	</node>
	<node id="4477662507" lat="58.4865418" lon="7.9387978" version="2" timestamp="2018-04-10T18:51:46Z" changeset="57982147" uid="3497659" user="NKA">
		<tag k="alt_name" v="Ljosland, nedre" />
		<tag k="name" v="Nedre Ljosland" />
		<tag k="place" v="farm" />
		<tag k="ssr:stedsnr" v="243177" />
		<tag k="ssr:type" v="bruk" />
	</node>
	<node id="4477662508" lat="58.4219619" lon="7.9725027" version="2" timestamp="2018-04-10T18:51:46Z" changeset="57982147" uid="3497659" user="NKA">
		<tag k="alt_name" v="Mjåland;Mjåland, nedre" />
		<tag k="name" v="Nedre Mjåland" />
		<tag k="place" v="farm" />
		<tag k="ssr:stedsnr" v="243132" />
		<tag k="ssr:type" v="bruk" />
	</node>
	<node id="4477662509" lat="58.4143043" lon="8.0809384" version="2" timestamp="2018-04-10T18:51:46Z" changeset="57982147" uid="3497659" user="NKA">
		<tag k="name" v="Nesbakken" />
		<tag k="place" v="farm" />
		<tag k="ssr:stedsnr" v="333467" />
		<tag k="ssr:type" v="bruk" />
	</node>
	<node id="4477662510" lat="58.4122952" lon="8.0793393" version="2" timestamp="2018-04-10T18:51:46Z" changeset="57982147" uid="3497659" user="NKA">
		<tag k="name" v="Nesheim" />
		<tag k="place" v="farm" />
		<tag k="ssr:stedsnr" v="940428" />
		<tag k="ssr:type" v="bruk" />
	</node>
	<node id="4477662512" lat="58.5164436" lon="7.9163511" version="2" timestamp="2018-04-10T18:51:46Z" changeset="57982147" uid="3497659" user="NKA">
		<tag k="name" v="Nyland" />
		<tag k="place" v="farm" />
		<tag k="ssr:stedsnr" v="151636" />
		<tag k="ssr:type" v="bruk" />
	</node>
	<node id="4477662513" lat="58.4551723" lon="7.8189498" version="2" timestamp="2018-04-10T18:51:46Z" changeset="57982147" uid="3497659" user="NKA">
		<tag k="name" v="Odderstøl" />
		<tag k="place" v="hamlet" />
		<tag k="ssr:stedsnr" v="364257" />
		<tag k="ssr:type" v="gard" />
	</node>
	<node id="4477662514" lat="58.5037681" lon="7.8732389" version="2" timestamp="2018-04-10T18:51:47Z" changeset="57982147" uid="3497659" user="NKA">
		<tag k="alt_name" v="Åmdal" />
		<tag k="name" v="Omdal" />
		<tag k="place" v="farm" />
		<tag k="ssr:stedsnr" v="304391" />
		<tag k="ssr:type" v="bruk" />
	</node>
	<node id="4477662515" lat="58.3848563" lon="8.0341707" version="2" timestamp="2018-04-10T18:51:47Z" changeset="57982147" uid="3497659" user="NKA">
		<tag k="name" v="Omestad" />
		<tag k="place" v="hamlet" />
		<tag k="ssr:stedsnr" v="849195" />
		<tag k="ssr:type" v="gard" />
	</node>
	<node id="4477662516" lat="58.4428699" lon="7.9128386" version="2" timestamp="2018-04-10T18:51:47Z" changeset="57982147" uid="3497659" user="NKA">
		<tag k="fixme" v="check position" />
		<tag k="historic" v="ruins" />
		<tag k="name" v="Oppesjorde" />
		<tag k="place" v="locality" />
		<tag k="ssr:stedsnr" v="940813" />
		<tag k="ssr:type" v="gammelBosettingsplass" />
	</node>
	<node id="4477662517" lat="58.4488828" lon="7.9947981" version="2" timestamp="2018-04-10T18:51:47Z" changeset="57982147" uid="3497659" user="NKA">
		<tag k="name" v="Ranestad" />
		<tag k="place" v="hamlet" />
		<tag k="ssr:stedsnr" v="303235" />
		<tag k="ssr:type" v="gard" />
	</node>
	<node id="4477662518" lat="58.4528562" lon="7.9909949" version="2" timestamp="2018-04-10T18:51:47Z" changeset="57982147" uid="3497659" user="NKA">
		<tag k="alt_name" v="Monen" />
		<tag k="name" v="Ranestadmoen" />
		<tag k="place" v="farm" />
		<tag k="ssr:stedsnr" v="910232" />
		<tag k="ssr:type" v="bruk" />
	</node>
	<node id="4477662519" lat="58.4142516" lon="7.811194" version="2" timestamp="2018-04-10T18:51:47Z" changeset="57982147" uid="3497659" user="NKA">
		<tag k="fixme" v="check position" />
		<tag k="historic" v="ruins" />
		<tag k="name" v="Rolleivstad" />
		<tag k="place" v="locality" />
		<tag k="ssr:stedsnr" v="576340" />
		<tag k="ssr:type" v="gammelBosettingsplass" />
	</node>
	<node id="4477662520" lat="58.4341082" lon="7.8901371" version="2" timestamp="2018-04-10T18:51:47Z" changeset="57982147" uid="3497659" user="NKA">
		<tag k="name" v="Rossås" />
		<tag k="place" v="hamlet" />
		<tag k="ssr:stedsnr" v="546153" />
		<tag k="ssr:type" v="gard" />
	</node>
	<node id="4477662521" lat="58.4176678" lon="7.9153667" version="2" timestamp="2018-04-10T18:51:47Z" changeset="57982147" uid="3497659" user="NKA">
		<tag k="name" v="Røllend" />
		<tag k="place" v="farm" />
		<tag k="ssr:stedsnr" v="30784" />
		<tag k="ssr:type" v="eneboligMindreBoligbygg" />
	</node>
	<node id="4477662522" lat="58.3734351" lon="8.03659" version="2" timestamp="2018-04-10T18:51:48Z" changeset="57982147" uid="3497659" user="NKA">
		<tag k="name" v="Rønningen" />
		<tag k="place" v="farm" />
		<tag k="ssr:stedsnr" v="121153" />
		<tag k="ssr:type" v="bruk" />
	</node>
	<node id="4477662523" lat="58.3929377" lon="7.9139506" version="2" timestamp="2018-04-10T18:51:48Z" changeset="57982147" uid="3497659" user="NKA">
		<tag k="name" v="Skaiå" />
		<tag k="place" v="hamlet" />
		<tag k="ssr:stedsnr" v="606179" />
		<tag k="ssr:type" v="gard" />
	</node>
	<node id="4477662525" lat="58.3442844" lon="7.9110416" version="2" timestamp="2018-04-10T18:51:48Z" changeset="57982147" uid="3497659" user="NKA">
		<tag k="name" v="Skisland" />
		<tag k="place" v="hamlet" />
		<tag k="ssr:stedsnr" v="910084" />
		<tag k="ssr:type" v="gard" />
	</node>
	<node id="4477662526" lat="58.3970595" lon="7.9452044" version="2" timestamp="2018-04-10T18:51:48Z" changeset="57982147" uid="3497659" user="NKA">
		<tag k="name" v="Skogvin" />
		<tag k="place" v="farm" />
		<tag k="ssr:stedsnr" v="870068" />
		<tag k="ssr:type" v="bruk" />
	</node>
	<node id="4477662527" lat="58.4868097" lon="7.8771575" version="2" timestamp="2018-04-10T18:51:48Z" changeset="57982147" uid="3497659" user="NKA">
		<tag k="name" v="Skripeland" />
		<tag k="place" v="farm" />
		<tag k="ssr:stedsnr" v="910196" />
		<tag k="ssr:type" v="bruk" />
	</node>
	<node id="4477662528" lat="58.4701003" lon="7.9438802" version="3" timestamp="2018-04-28T08:07:08Z" changeset="58497758" uid="3497659" user="NKA">
		<tag k="historic" v="shieling" />
		<tag k="name" v="Skrømestøl" />
		<tag k="place" v="farm" />
		<tag k="ssr:stedsnr" v="30830" />
		<tag k="ssr:type" v="bruk" />
	</node>
	<node id="4477662529" lat="58.4771426" lon="7.8477124" version="2" timestamp="2018-04-10T18:51:48Z" changeset="57982147" uid="3497659" user="NKA">
		<tag k="name" v="Solberg" />
		<tag k="place" v="farm" />
		<tag k="ssr:stedsnr" v="667204" />
		<tag k="ssr:type" v="bruk" />
	</node>
	<node id="4477662530" lat="58.4877479" lon="7.9170354" version="2" timestamp="2018-04-10T18:51:48Z" changeset="57982147" uid="3497659" user="NKA">
		<tag k="name" v="Solås" />
		<tag k="place" v="farm" />
		<tag k="ssr:stedsnr" v="606185" />
		<tag k="ssr:type" v="bruk" />
	</node>
	<node id="4477662531" lat="58.415294" lon="8.0382357" version="2" timestamp="2018-04-10T18:51:49Z" changeset="57982147" uid="3497659" user="NKA">
		<tag k="name" v="Spjote" />
		<tag k="place" v="farm" />
		<tag k="ssr:stedsnr" v="61117" />
		<tag k="ssr:type" v="bruk" />
	</node>
	<node id="4477662532" lat="58.396594" lon="8.0535538" version="2" timestamp="2018-04-10T18:51:49Z" changeset="57982147" uid="3497659" user="NKA">
		<tag k="name" v="Steane" />
		<tag k="place" v="farm" />
		<tag k="ssr:stedsnr" v="667196" />
		<tag k="ssr:type" v="bruk" />
	</node>
	<node id="4477662533" lat="58.4895677" lon="7.9665682" version="2" timestamp="2018-04-10T18:51:49Z" changeset="57982147" uid="3497659" user="NKA">
		<tag k="alt_name" v="Stormyr" />
		<tag k="name" v="Storemyr" />
		<tag k="place" v="farm" />
		<tag k="ssr:stedsnr" v="364214" />
		<tag k="ssr:type" v="bruk" />
	</node>
	<node id="4477662534" lat="58.4970196" lon="7.8862568" version="2" timestamp="2018-04-10T18:51:49Z" changeset="57982147" uid="3497659" user="NKA">
		<tag k="name" v="Støldal" />
		<tag k="place" v="farm" />
		<tag k="ssr:stedsnr" v="303202" />
		<tag k="ssr:type" v="bruk" />
	</node>
	<node id="4477662535" lat="58.3992356" lon="7.9664845" version="2" timestamp="2018-04-10T18:51:49Z" changeset="57982147" uid="3497659" user="NKA">
		<tag k="name" v="Støledalen" />
		<tag k="place" v="hamlet" />
		<tag k="ssr:stedsnr" v="606176" />
		<tag k="ssr:type" v="gard" />
	</node>
	<node id="4477662536" lat="58.38469" lon="8.0002139" version="3" timestamp="2018-04-28T08:07:09Z" changeset="58497758" uid="3497659" user="NKA">
		<tag k="historic" v="shieling" />
		<tag k="name" v="Stølen" />
		<tag k="place" v="farm" />
		<tag k="ssr:stedsnr" v="121171" />
		<tag k="ssr:type" v="bruk" />
	</node>
	<node id="4477662537" lat="58.3960012" lon="8.0322655" version="2" timestamp="2018-04-10T18:51:49Z" changeset="57982147" uid="3497659" user="NKA">
		<tag k="name" v="Svaland" />
		<tag k="place" v="farm" />
		<tag k="ssr:stedsnr" v="849212" />
		<tag k="ssr:type" v="bruk" />
	</node>
	<node id="4477662538" lat="58.39976" lon="7.9963005" version="2" timestamp="2018-04-10T18:51:49Z" changeset="57982147" uid="3497659" user="NKA">
		<tag k="name" v="Svengestøl" />
		<tag k="place" v="farm" />
		<tag k="ssr:stedsnr" v="121182" />
		<tag k="ssr:type" v="bruk" />
	</node>
	<node id="4477662539" lat="58.350383" lon="7.9226045" version="2" timestamp="2018-04-10T18:51:49Z" changeset="57982147" uid="3497659" user="NKA">
		<tag k="fixme" v="check position" />
		<tag k="historic" v="ruins" />
		<tag k="name" v="Taraldsplass" />
		<tag k="place" v="locality" />
		<tag k="ssr:stedsnr" v="636253" />
		<tag k="ssr:type" v="gammelBosettingsplass" />
	</node>
	<node id="4477662540" lat="58.3457853" lon="7.9619101" version="2" timestamp="2018-04-10T18:51:50Z" changeset="57982147" uid="3497659" user="NKA">
		<tag k="alt_name" v="Tellhaugan" />
		<tag k="name" v="Tellhaugen" />
		<tag k="place" v="farm" />
		<tag k="ssr:stedsnr" v="61064" />
		<tag k="ssr:type" v="bruk" />
	</node>
	<node id="4477662541" lat="58.4692356" lon="7.9204552" version="2" timestamp="2018-04-10T18:51:50Z" changeset="57982147" uid="3497659" user="NKA">
		<tag k="name" v="Tjomstøl" />
		<tag k="place" v="farm" />
		<tag k="ssr:stedsnr" v="728213" />
		<tag k="ssr:type" v="bruk" />
	</node>
	<node id="4477662542" lat="58.4441353" lon="7.915719" version="2" timestamp="2018-04-10T18:51:50Z" changeset="57982147" uid="3497659" user="NKA">
		<tag k="name" v="Tollekleiv" />
		<tag k="place" v="farm" />
		<tag k="ssr:stedsnr" v="728193" />
		<tag k="ssr:type" v="bruk" />
	</node>
	<node id="4477662543" lat="58.4793606" lon="7.9007802" version="2" timestamp="2018-04-10T18:51:50Z" changeset="57982147" uid="3497659" user="NKA">
		<tag k="name" v="Tortveit" />
		<tag k="place" v="farm" />
		<tag k="ssr:stedsnr" v="910241" />
		<tag k="ssr:type" v="bruk" />
	</node>
	<node id="4477662544" lat="58.4613784" lon="7.9097882" version="2" timestamp="2018-04-10T18:51:50Z" changeset="57982147" uid="3497659" user="NKA">
		<tag k="name" v="Trudvang" />
		<tag k="place" v="farm" />
		<tag k="ssr:stedsnr" v="697827" />
		<tag k="ssr:type" v="bruk" />
	</node>
	<node id="4477662545" lat="58.4039962" lon="7.9006621" version="2" timestamp="2018-04-10T18:51:50Z" changeset="57982147" uid="3497659" user="NKA">
		<tag k="name" v="Tveit" />
		<tag k="place" v="farm" />
		<tag k="ssr:stedsnr" v="667154" />
		<tag k="ssr:type" v="bruk" />
	</node>
	<node id="4477662546" lat="58.4200101" lon="8.0339508" version="2" timestamp="2018-04-10T18:51:50Z" changeset="57982147" uid="3497659" user="NKA">
		<tag k="name" v="Urda" />
		<tag k="place" v="farm" />
		<tag k="ssr:stedsnr" v="61134" />
		<tag k="ssr:type" v="bruk" />
	</node>
	<node id="4477662547" lat="58.4184778" lon="8.0753782" version="2" timestamp="2018-04-10T18:51:50Z" changeset="57982147" uid="3497659" user="NKA">
		<tag k="name" v="Vatneli" />
		<tag k="place" v="farm" />
		<tag k="ssr:stedsnr" v="758462" />
		<tag k="ssr:type" v="eneboligMindreBoligbygg" />
	</node>
	<node id="4477662548" lat="58.4130999" lon="8.0629521" version="2" timestamp="2018-04-10T18:51:50Z" changeset="57982147" uid="3497659" user="NKA">
		<tag k="name" v="Vatnestrøm" />
		<tag k="place" v="farm" />
		<tag k="ssr:stedsnr" v="455361" />
		<tag k="ssr:type" v="bruk" />
	</node>
	<node id="4477662549" lat="58.5115781" lon="7.9031598" version="2" timestamp="2018-04-10T18:51:51Z" changeset="57982147" uid="3497659" user="NKA">
		<tag k="fixme" v="check position" />
		<tag k="historic" v="ruins" />
		<tag k="name" v="Vedbakken" />
		<tag k="place" v="locality" />
		<tag k="ssr:stedsnr" v="394619" />
		<tag k="ssr:type" v="gammelBosettingsplass" />
	</node>
	<node id="4477662550" lat="58.4347786" lon="8.0027675" version="2" timestamp="2018-04-10T18:51:51Z" changeset="57982147" uid="3497659" user="NKA">
		<tag k="name" v="Venje" />
		<tag k="place" v="farm" />
		<tag k="ssr:stedsnr" v="515625" />
		<tag k="ssr:type" v="bruk" />
	</node>
	<node id="4477662551" lat="58.4244873" lon="8.0601338" version="2" timestamp="2018-04-10T18:51:51Z" changeset="57982147" uid="3497659" user="NKA">
		<tag k="alt_name" v="Verebråtane" />
		<tag k="name" v="Verebrot" />
		<tag k="place" v="farm" />
		<tag k="ssr:stedsnr" v="425138" />
		<tag k="ssr:type" v="bruk" />
	</node>
	<node id="4477662552" lat="58.4428215" lon="7.9871566" version="2" timestamp="2018-04-10T18:51:51Z" changeset="57982147" uid="3497659" user="NKA">
		<tag k="historic" v="yes" />
		<tag k="name" v="Veststø" />
		<tag k="place" v="locality" />
		<tag k="ssr:stedsnr" v="636592" />
		<tag k="ssr:type" v="stø" />
	</node>
	<node id="4477662553" lat="58.4359769" lon="8.078701" version="2" timestamp="2018-04-10T18:51:51Z" changeset="57982147" uid="3497659" user="NKA">
		<tag k="alt_name" v="Fjermeros ytre" />
		<tag k="name" v="Ytre Fjermeros" />
		<tag k="place" v="farm" />
		<tag k="ssr:stedsnr" v="546149" />
		<tag k="ssr:type" v="bruk" />
	</node>
	<node id="4477662759" lat="58.4305859" lon="7.9857356" version="2" timestamp="2018-04-10T18:51:51Z" changeset="57982147" uid="3497659" user="NKA">
		<tag k="alt_name" v="Åros" />
		<tag k="name" v="Årås" />
		<tag k="place" v="farm" />
		<tag k="ssr:stedsnr" v="425143" />
		<tag k="ssr:type" v="bruk" />
	</node>
	<node id="4477662760" lat="58.5368486" lon="7.9066981" version="2" timestamp="2018-04-10T18:51:51Z" changeset="57982147" uid="3497659" user="NKA">
		<tag k="historic" v="yes" />
		<tag k="name" v="Åsastø" />
		<tag k="place" v="locality" />
		<tag k="ssr:stedsnr" v="636718" />
		<tag k="ssr:type" v="stø" />
	</node>
	<node id="4477662761" lat="58.4336821" lon="7.8538056" version="2" timestamp="2018-04-10T18:51:52Z" changeset="57982147" uid="3497659" user="NKA">
		<tag k="name" v="Åsen" />
		<tag k="place" v="farm" />
		<tag k="ssr:stedsnr" v="850160" />
		<tag k="ssr:type" v="bruk" />
	</node>
	<node id="4477662762" lat="58.4398238" lon="8.0776476" version="2" timestamp="2018-04-10T18:51:52Z" changeset="57982147" uid="3497659" user="NKA">
		<tag k="alt_name" v="Øvre Fjærmeros;Fjermeros, øvre" />
		<tag k="name" v="Øvre Fjermeros" />
		<tag k="place" v="farm" />
		<tag k="ssr:stedsnr" v="303159" />
		<tag k="ssr:type" v="bruk" />
	</node>
	<node id="4477662763" lat="58.4870727" lon="7.9503011" version="2" timestamp="2018-04-10T18:51:52Z" changeset="57982147" uid="3497659" user="NKA">
		<tag k="alt_name" v="Ljosland, øvre" />
		<tag k="name" v="Øvre Ljosland" />
		<tag k="place" v="farm" />
		<tag k="ssr:stedsnr" v="243180" />
		<tag k="ssr:type" v="bruk" />
	</node>
	<node id="4477662764" lat="58.4148628" lon="7.9658136" version="2" timestamp="2018-04-10T18:51:52Z" changeset="57982147" uid="3497659" user="NKA">
		<tag k="alt_name" v="Mjåland, øvre;Mjåland" />
		<tag k="name" v="Øvre Mjåland" />
		<tag k="place" v="farm" />
		<tag k="ssr:stedsnr" v="728120" />
		<tag k="ssr:type" v="bruk" />
	</node>
	<node id="4477662765" lat="58.41199" lon="8.0608085" version="2" timestamp="2018-04-10T18:51:52Z" changeset="57982147" uid="3497659" user="NKA">
		<tag k="name" v="Øvre Vatnestrøm" />
		<tag k="place" v="farm" />
		<tag k="ssr:stedsnr" v="515430" />
		<tag k="ssr:type" v="bruk" />
	</node>
	<node id="4477662766" lat="58.3528559" lon="7.9139117" version="2" timestamp="2018-04-10T18:51:52Z" changeset="57982147" uid="3497659" user="NKA">
		<tag k="fixme" v="check position" />
		<tag k="historic" v="ruins" />
		<tag k="name" v="Øygarden" />
		<tag k="place" v="locality" />
		<tag k="ssr:stedsnr" v="758291" />
		<tag k="ssr:type" v="gammelBosettingsplass" />
	</node>
	<node id="4477662768" lat="58.4145654" lon="8.0589197" version="2" timestamp="2018-04-10T18:51:52Z" changeset="57982147" uid="3497659" user="NKA">
		<tag k="name" v="Øygarden" />
		<tag k="place" v="farm" />
		<tag k="ssr:stedsnr" v="333444" />
		<tag k="ssr:type" v="bruk" />
	</node>
	<node id="4477662769" lat="58.4211454" lon="7.8497264" version="2" timestamp="2018-04-10T18:51:53Z" changeset="57982147" uid="3497659" user="NKA">
		<tag k="historic" v="ruins" />
		<tag k="name" v="Øygarden" />
		<tag k="place" v="locality" />
		<tag k="ssr:stedsnr" v="151222" />
		<tag k="ssr:type" v="gammelBosettingsplass" />
	</node>
	<node id="4477662770" lat="58.4622193" lon="7.9315086" version="2" timestamp="2018-04-10T18:51:53Z" changeset="57982147" uid="3497659" user="NKA">
		<tag k="fixme" v="check position" />
		<tag k="historic" v="ruins" />
		<tag k="name" v="Øygarden" />
		<tag k="place" v="locality" />
		<tag k="ssr:stedsnr" v="697826" />
		<tag k="ssr:type" v="gammelBosettingsplass" />
	</node>
	<node id="4477662771" lat="58.4737467" lon="7.8775161" version="2" timestamp="2018-04-10T18:51:53Z" changeset="57982147" uid="3497659" user="NKA">
		<tag k="fixme" v="check position" />
		<tag k="historic" v="ruins" />
		<tag k="name" v="Øygarden" />
		<tag k="place" v="locality" />
		<tag k="ssr:stedsnr" v="697853" />
		<tag k="ssr:type" v="gammelBosettingsplass" />
	</node>
	<node id="4477662772" lat="58.5007732" lon="7.8936254" version="2" timestamp="2018-04-10T18:51:53Z" changeset="57982147" uid="3497659" user="NKA">
		<tag k="fixme" v="check position" />
		<tag k="historic" v="ruins" />
		<tag k="name" v="Øygarden" />
		<tag k="place" v="locality" />
		<tag k="ssr:stedsnr" v="697660" />
		<tag k="ssr:type" v="gammelBosettingsplass" />
	</node>
	<node id="4477662773" lat="58.4193161" lon="7.8262087" version="2" timestamp="2018-04-10T18:51:53Z" changeset="57982147" uid="3497659" user="NKA">
		<tag k="name" v="Øyna" />
		<tag k="place" v="hamlet" />
		<tag k="ssr:stedsnr" v="182137" />
		<tag k="ssr:type" v="gard" />
	</node>
	<node id="5600637874" lat="58.3160778" lon="7.970675" version="1" timestamp="2018-05-06T18:30:44Z" changeset="58737241" uid="3842253" user="NKA_import">
		<tag k="name" v="Kringsjå" />
		<tag k="place" v="isolated_dwelling" />
		<tag k="ssr:stedsnr" v="304092" />
		<tag k="ssr:type" v="eneboligMindreBoligbygg" />
	</node>
	<node id="4477662524" lat="58.381726" lon="7.9285805" version="3" timestamp="2021-03-19T13:52:31Z" changeset="101334214" uid="5198133" user="Wulfmorn" />
	<node id="8537018237" lat="58.38169" lon="7.928348" version="1" timestamp="2021-03-19T13:52:21Z" changeset="101334207" uid="5198133" user="Wulfmorn" />
	<node id="8537019954" lat="58.3817609" lon="7.9283969" version="1" timestamp="2021-03-19T13:52:22Z" changeset="101334207" uid="5198133" user="Wulfmorn" />
	<node id="8537028147" lat="58.3816551" lon="7.9285316" version="1" timestamp="2021-03-19T13:52:28Z" changeset="101334214" uid="5198133" user="Wulfmorn" />
	<node id="4477662767" lat="58.4087189" lon="7.9405828" version="3" timestamp="2021-03-19T13:52:31Z" changeset="101334214" uid="5198133" user="Wulfmorn" />
	<node id="8537021631" lat="58.408668" lon="7.9405201" version="1" timestamp="2021-03-19T13:52:23Z" changeset="101334207" uid="5198133" user="Wulfmorn" />
	<node id="8537024334" lat="58.4086431" lon="7.9405937" version="1" timestamp="2021-03-19T13:52:25Z" changeset="101334207" uid="5198133" user="Wulfmorn" />
	<node id="8537025421" lat="58.408694" lon="7.9406564" version="1" timestamp="2021-03-19T13:52:25Z" changeset="101334207" uid="5198133" user="Wulfmorn" />
	<node id="4477662492" lat="58.4330716" lon="7.8457815" version="3" timestamp="2021-03-19T13:52:31Z" changeset="101334214" uid="5198133" user="Wulfmorn" />
	<node id="8537017088" lat="58.4330897" lon="7.8456287" version="1" timestamp="2021-03-19T13:52:20Z" changeset="101334207" uid="5198133" user="Wulfmorn" />
	<node id="8537017089" lat="58.4330796" lon="7.8456243" version="1" timestamp="2021-03-19T13:52:20Z" changeset="101334207" uid="5198133" user="Wulfmorn" />
	<node id="8537024529" lat="58.4330815" lon="7.8456079" version="1" timestamp="2021-03-19T13:52:25Z" changeset="101334207" uid="5198133" user="Wulfmorn" />
	<node id="8537025772" lat="58.433013" lon="7.8457561" version="1" timestamp="2021-03-19T13:52:26Z" changeset="101334207" uid="5198133" user="Wulfmorn" />
	<node id="8537027433" lat="58.433033" lon="7.8455869" version="1" timestamp="2021-03-19T13:52:27Z" changeset="101334214" uid="5198133" user="Wulfmorn" />
	<node id="2580479933" lat="58.456208" lon="7.918879" version="5" timestamp="2021-03-19T13:52:31Z" changeset="101334214" uid="5198133" user="Wulfmorn" />
	<node id="4463977995" lat="58.456094" lon="7.919025" version="3" timestamp="2021-03-19T13:52:31Z" changeset="101334214" uid="5198133" user="Wulfmorn" />
	<node id="4463977996" lat="58.456098" lon="7.918868" version="3" timestamp="2021-03-19T13:52:31Z" changeset="101334214" uid="5198133" user="Wulfmorn" />
	<node id="4463977997" lat="58.45612" lon="7.919132" version="3" timestamp="2021-03-19T13:52:31Z" changeset="101334214" uid="5198133" user="Wulfmorn" />
	<node id="4463977998" lat="58.456123" lon="7.919027" version="3" timestamp="2021-03-19T13:52:31Z" changeset="101334214" uid="5198133" user="Wulfmorn" />
	<node id="4463977999" lat="58.456126" lon="7.918871" version="3" timestamp="2021-03-19T13:52:31Z" changeset="101334214" uid="5198133" user="Wulfmorn" />
	<node id="4463978000" lat="58.456128" lon="7.918774" version="3" timestamp="2021-03-19T13:52:31Z" changeset="101334214" uid="5198133" user="Wulfmorn" />
	<node id="4463978001" lat="58.456136" lon="7.919201" version="3" timestamp="2021-03-19T13:52:31Z" changeset="101334214" uid="5198133" user="Wulfmorn" />
	<node id="4463978002" lat="58.456137" lon="7.919133" version="3" timestamp="2021-03-19T13:52:31Z" changeset="101334214" uid="5198133" user="Wulfmorn" />
	<node id="4463978003" lat="58.456142" lon="7.918776" version="3" timestamp="2021-03-19T13:52:31Z" changeset="101334214" uid="5198133" user="Wulfmorn" />
	<node id="4463978004" lat="58.456145" lon="7.91871" version="3" timestamp="2021-03-19T13:52:31Z" changeset="101334214" uid="5198133" user="Wulfmorn" />
	<node id="4463978005" lat="58.456184" lon="7.919205" version="3" timestamp="2021-03-19T13:52:31Z" changeset="101334214" uid="5198133" user="Wulfmorn" />
	<node id="4463978006" lat="58.456186" lon="7.919137" version="3" timestamp="2021-03-19T13:52:31Z" changeset="101334214" uid="5198133" user="Wulfmorn" />
	<node id="4463978007" lat="58.456196" lon="7.918781" version="3" timestamp="2021-03-19T13:52:31Z" changeset="101334214" uid="5198133" user="Wulfmorn" />
	<node id="4463978008" lat="58.456197" lon="7.918715" version="3" timestamp="2021-03-19T13:52:31Z" changeset="101334214" uid="5198133" user="Wulfmorn" />
	<node id="4463978009" lat="58.456202" lon="7.919139" version="3" timestamp="2021-03-19T13:52:31Z" changeset="101334214" uid="5198133" user="Wulfmorn" />
	<node id="4463978010" lat="58.456204" lon="7.919033" version="3" timestamp="2021-03-19T13:52:31Z" changeset="101334214" uid="5198133" user="Wulfmorn" />
	<node id="4463978012" lat="58.45621" lon="7.918782" version="3" timestamp="2021-03-19T13:52:31Z" changeset="101334214" uid="5198133" user="Wulfmorn" />
	<node id="4463978013" lat="58.456235" lon="7.919036" version="3" timestamp="2021-03-19T13:52:31Z" changeset="101334214" uid="5198133" user="Wulfmorn" />
	<node id="4463978014" lat="58.456239" lon="7.918882" version="3" timestamp="2021-03-19T13:52:31Z" changeset="101334214" uid="5198133" user="Wulfmorn" />
	<node id="8537018823" lat="58.456144" lon="7.918773" version="1" timestamp="2021-03-19T13:52:22Z" changeset="101334207" uid="5198133" user="Wulfmorn" />
	<node id="8537024060" lat="58.456196" lon="7.918778" version="1" timestamp="2021-03-19T13:52:25Z" changeset="101334207" uid="5198133" user="Wulfmorn" />
	<node id="4477662498" lat="58.47532" lon="7.9543589" version="3" timestamp="2021-03-19T13:52:31Z" changeset="101334214" uid="5198133" user="Wulfmorn" />
	<node id="8537022578" lat="58.4753781" lon="7.9544332" version="1" timestamp="2021-03-19T13:52:24Z" changeset="101334207" uid="5198133" user="Wulfmorn" />
	<node id="8537024612" lat="58.4753839" lon="7.9541763" version="1" timestamp="2021-03-19T13:52:25Z" changeset="101334207" uid="5198133" user="Wulfmorn" />
	<node id="8537026684" lat="58.475442" lon="7.9542506" version="1" timestamp="2021-03-19T13:52:26Z" changeset="101334207" uid="5198133" user="Wulfmorn" />
	<node id="4477662511" lat="58.4073369" lon="7.993993" version="3" timestamp="2021-03-19T13:52:31Z" changeset="101334214" uid="5198133" user="Wulfmorn" />
	<node id="8537016463" lat="58.4073659" lon="7.9938779" version="1" timestamp="2021-03-19T13:52:27Z" changeset="101334214" uid="5198133" user="Wulfmorn" />
	<node id="8537018920" lat="58.4073906" lon="7.9939309" version="1" timestamp="2021-03-19T13:52:22Z" changeset="101334207" uid="5198133" user="Wulfmorn" />
	<node id="8537022412" lat="58.4073899" lon="7.9940249" version="1" timestamp="2021-03-19T13:52:24Z" changeset="101334207" uid="5198133" user="Wulfmorn" />
	<node id="8537023276" lat="58.4074041" lon="7.993939" version="1" timestamp="2021-03-19T13:52:24Z" changeset="101334207" uid="5198133" user="Wulfmorn" />
	<node id="8537026232" lat="58.407351" lon="7.9939073" version="1" timestamp="2021-03-19T13:52:26Z" changeset="101334207" uid="5198133" user="Wulfmorn" />
	<node id="8537027971" lat="58.4073602" lon="7.9939128" version="1" timestamp="2021-03-19T13:52:28Z" changeset="101334214" uid="5198133" user="Wulfmorn" />
	<node id="8537028871" lat="58.4073963" lon="7.9938962" version="1" timestamp="2021-03-19T13:52:28Z" changeset="101334214" uid="5198133" user="Wulfmorn" />
	<node id="4477662287" lat="58.388571" lon="8.048699" version="3" timestamp="2021-03-19T13:52:31Z" changeset="101334214" uid="5198133" user="Wulfmorn" />
	<node id="8537017850" lat="58.388571" lon="8.048753" version="1" timestamp="2021-03-19T13:52:21Z" changeset="101334207" uid="5198133" user="Wulfmorn" />
	<node id="8537019251" lat="58.38852" lon="8.048699" version="1" timestamp="2021-03-19T13:52:23Z" changeset="101334207" uid="5198133" user="Wulfmorn" />
	<node id="8537020513" lat="58.38852" lon="8.04855" version="1" timestamp="2021-03-19T13:52:23Z" changeset="101334207" uid="5198133" user="Wulfmorn" />
	<node id="8537022188" lat="58.388593" lon="8.04855" version="1" timestamp="2021-03-19T13:52:24Z" changeset="101334207" uid="5198133" user="Wulfmorn" />
	<node id="8537023776" lat="58.388606" lon="8.048753" version="1" timestamp="2021-03-19T13:52:25Z" changeset="101334207" uid="5198133" user="Wulfmorn" />
	<node id="8537023951" lat="58.388593" lon="8.048588" version="1" timestamp="2021-03-19T13:52:25Z" changeset="101334207" uid="5198133" user="Wulfmorn" />
	<node id="8537026020" lat="58.388606" lon="8.048588" version="1" timestamp="2021-03-19T13:52:26Z" changeset="101334207" uid="5198133" user="Wulfmorn" />
	<way id="449445247" version="4" timestamp="2021-03-19T13:52:31Z" changeset="101334214" uid="5198133" user="Wulfmorn">
		<tag k="amenity" v="place_of_worship" />
		<tag k="architect" v="Linstow type / Anders Thorsen Syrtveit" />
		<tag k="building" v="church" />
		<tag k="capacity" v="350" />
		<tag k="deanery" v="Otredal" />
		<tag k="denomination" v="lutheran" />
		<tag k="diocese" v="Agder og Telemark" />
		<tag k="hearing_aids" v="yes" />
		<tag k="heritage" v="yes" />
		<tag k="image" v="https://www.kirkebyggdatabasen.no/KBDBweb/getPublicImage.aspx?vedleggId=7CF10C65-F2E1-43E9-A6F8-3E261C53FF28" />
		<tag k="name" v="Iveland kyrkje" />
		<tag k="operator" v="Iveland sokneråd" />
		<tag k="parish" v="Iveland" />
		<tag k="ref:bygningsnr" v="167763693" />
		<tag k="religion" v="christian" />
		<tag k="ssr:stedsnr" v="333401" />
		<tag k="ssr:type" v="kirke" />
		<tag k="start_date" v="1837" />
		<tag k="toilets" v="yes" />
		<tag k="toilets:wheelchair" v="yes" />
		<tag k="wheelchair" v="yes" />
		<nd ref="8537024060" />
		<nd ref="4463978008" />
		<nd ref="4463978004" />
		<nd ref="8537018823" />
		<nd ref="4463978003" />
		<nd ref="4463978000" />
		<nd ref="4463977999" />
		<nd ref="4463977996" />
		<nd ref="4463977995" />
		<nd ref="4463977998" />
		<nd ref="4463977997" />
		<nd ref="4463978002" />
		<nd ref="4463978001" />
		<nd ref="4463978005" />
		<nd ref="4463978006" />
		<nd ref="4463978009" />
		<nd ref="4463978010" />
		<nd ref="4463978013" />
		<nd ref="4463978014" />
		<nd ref="2580479933" />
		<nd ref="4463978012" />
		<nd ref="4463978007" />
		<nd ref="8537024060" />
	</way>
	<way id="919192214" version="1" timestamp="2021-03-19T13:52:29Z" changeset="101334214" uid="5198133" user="Wulfmorn">
		<tag k="building" v="cabin" />
		<tag k="name" v="Noslebu" />
		<tag k="place" v="isolated_dwelling" />
		<tag k="ref:bygningsnr" v="8866279" />
		<tag k="ssr:stedsnr" v="182117" />
		<tag k="ssr:type" v="gard" />
		<nd ref="8537018920" />
		<nd ref="8537028871" />
		<nd ref="8537016463" />
		<nd ref="8537027971" />
		<nd ref="8537026232" />
		<nd ref="4477662511" />
		<nd ref="8537022412" />
		<nd ref="8537023276" />
		<nd ref="8537018920" />
	</way>
	<way id="919192490" version="1" timestamp="2021-03-19T13:52:29Z" changeset="101334214" uid="5198133" user="Wulfmorn">
		<tag k="building" v="cabin" />
		<tag k="name" v="Lauvfjell" />
		<tag k="place" v="isolated_dwelling" />
		<tag k="ref:bygningsnr" v="167766315" />
		<tag k="ssr:stedsnr" v="273977" />
		<tag k="ssr:type" v="fritidsbolig" />
		<nd ref="8537023776" />
		<nd ref="8537026020" />
		<nd ref="8537023951" />
		<nd ref="8537022188" />
		<nd ref="8537020513" />
		<nd ref="8537019251" />
		<nd ref="4477662287" />
		<nd ref="8537017850" />
		<nd ref="8537023776" />
	</way>
	<way id="919192651" version="1" timestamp="2021-03-19T13:52:30Z" changeset="101334214" uid="5198133" user="Wulfmorn">
		<tag k="building" v="cabin" />
		<tag k="name" v="Skaiåheia" />
		<tag k="place" v="isolated_dwelling" />
		<tag k="ref:bygningsnr" v="167760708" />
		<tag k="ssr:stedsnr" v="425177" />
		<tag k="ssr:type" v="fritidsbolig" />
		<nd ref="4477662524" />
		<nd ref="8537019954" />
		<nd ref="8537018237" />
		<nd ref="8537028147" />
		<nd ref="4477662524" />
	</way>
	<way id="919192880" version="1" timestamp="2021-03-19T13:52:30Z" changeset="101334214" uid="5198133" user="Wulfmorn">
		<tag k="building" v="cabin" />
		<tag k="name" v="Øygarden" />
		<tag k="place" v="isolated_dwelling" />
		<tag k="ref:bygningsnr" v="8865841" />
		<tag k="ssr:stedsnr" v="333031" />
		<tag k="ssr:type" v="gammelBosettingsplass" />
		<nd ref="8537024334" />
		<nd ref="8537025421" />
		<nd ref="4477662767" />
		<nd ref="8537021631" />
		<nd ref="8537024334" />
	</way>
	<way id="919193136" version="1" timestamp="2021-03-19T13:52:30Z" changeset="101334214" uid="5198133" user="Wulfmorn">
		<tag k="building" v="cabin" />
		<tag k="name" v="Loddebu" />
		<tag k="place" v="isolated_dwelling" />
		<tag k="ref:bygningsnr" v="167764029" />
		<tag k="ssr:stedsnr" v="758145" />
		<tag k="ssr:type" v="fritidsbolig" />
		<nd ref="8537027433" />
		<nd ref="8537025772" />
		<nd ref="4477662492" />
		<nd ref="8537017088" />
		<nd ref="8537017089" />
		<nd ref="8537024529" />
		<nd ref="8537027433" />
	</way>
	<way id="919193226" version="1" timestamp="2021-03-19T13:52:30Z" changeset="101334214" uid="5198133" user="Wulfmorn">
		<tag k="building" v="cabin" />
		<tag k="name" v="Meeland" />
		<tag k="place" v="isolated_dwelling" />
		<tag k="ref:bygningsnr" v="140563293" />
		<tag k="ssr:stedsnr" v="910242" />
		<tag k="ssr:type" v="fritidsbolig" />
		<nd ref="8537026684" />
		<nd ref="8537024612" />
		<nd ref="4477662498" />
		<nd ref="8537022578" />
		<nd ref="8537026684" />
	</way>
</osm>
