<?xml version="1.0" encoding="UTF-8"?>
<osm generator="osmapis" version="0.6">
	<node id="-312704" lat="58.642730553" lon="7.97432777302">
		<tag k="name" v="Steinbrubekken" />
		<tag k="ssr:date" v="2019-05-31" />
		<tag k="ssr:gruppe" v="veg" />
		<tag k="ssr:hovedgruppe" v="infrastruktur" />
		<tag k="ssr:stedsnr" v="950104" />
		<tag k="ssr:type" v="adressenavn" />
	</node>
	<node id="-310810" lat="58.5313416682" lon="7.65887222999">
		<tag k="name" v="Solbakkvegen" />
		<tag k="ssr:date" v="2019-05-31" />
		<tag k="ssr:gruppe" v="veg" />
		<tag k="ssr:hovedgruppe" v="infrastruktur" />
		<tag k="ssr:stedsnr" v="161244" />
		<tag k="ssr:type" v="adressenavn" />
	</node>
	<node id="-309688" lat="58.6155398202" lon="8.08043349849">
		<tag k="name" v="Kjetevannsveien" />
		<tag k="ssr:date" v="2019-05-31" />
		<tag k="ssr:gruppe" v="veg" />
		<tag k="ssr:hovedgruppe" v="infrastruktur" />
		<tag k="ssr:stedsnr" v="1054906" />
		<tag k="ssr:type" v="adressenavn" />
	</node>
	<node id="-312053" lat="58.5914361121" lon="7.83245277907">
		<tag k="name" v="Magnetittvegen" />
		<tag k="ssr:date" v="2019-05-31" />
		<tag k="ssr:gruppe" v="veg" />
		<tag k="ssr:hovedgruppe" v="infrastruktur" />
		<tag k="ssr:stedsnr" v="723576" />
		<tag k="ssr:type" v="adressenavn" />
	</node>
	<node id="-309460" lat="58.5871194434" lon="7.81048889743">
		<tag k="name" v="Evje og Hornnes kommune" />
		<tag k="ssr:date" v="2016-05-10" />
		<tag k="ssr:gruppe" v="administrativeIndelinger" />
		<tag k="ssr:hovedgruppe" v="offentligAdministrasjon" />
		<tag k="ssr:stedsnr" v="328992" />
		<tag k="ssr:type" v="kommune" />
	</node>
	<node id="-311859" lat="58.5909277741" lon="7.82983889502">
		<tag k="name" v="Biotittvegen" />
		<tag k="ssr:date" v="2019-05-31" />
		<tag k="ssr:gruppe" v="veg" />
		<tag k="ssr:hovedgruppe" v="infrastruktur" />
		<tag k="ssr:stedsnr" v="662602" />
		<tag k="ssr:type" v="adressenavn" />
	</node>
	<node id="-310034" lat="58.6728452007" lon="7.80031462789">
		<tag k="name" v="Runebergodden" />
		<tag k="ssr:date" v="2019-12-13" />
		<tag k="ssr:gruppe" v="veg" />
		<tag k="ssr:hovedgruppe" v="infrastruktur" />
		<tag k="ssr:stedsnr" v="1074315" />
		<tag k="ssr:type" v="adressenavn" />
	</node>
	<node id="-310417" lat="58.4984638926" lon="7.77462778123">
		<tag k="name" v="Eventyrvegen" />
		<tag k="ssr:date" v="2019-05-31" />
		<tag k="ssr:gruppe" v="veg" />
		<tag k="ssr:hovedgruppe" v="infrastruktur" />
		<tag k="ssr:stedsnr" v="39749" />
		<tag k="ssr:type" v="adressenavn" />
	</node>
	<node id="-312048" lat="58.6193694436" lon="7.98699722264">
		<tag k="name" v="Dyplemyr" />
		<tag k="ssr:date" v="2019-05-31" />
		<tag k="ssr:gruppe" v="veg" />
		<tag k="ssr:hovedgruppe" v="infrastruktur" />
		<tag k="ssr:stedsnr" v="707951" />
		<tag k="ssr:type" v="adressenavn" />
	</node>
	<node id="-309645" lat="58.5164750005" lon="7.70182777788">
		<tag k="name" v="Bekkelia" />
		<tag k="ssr:date" v="2019-05-31" />
		<tag k="ssr:gruppe" v="veg" />
		<tag k="ssr:hovedgruppe" v="infrastruktur" />
		<tag k="ssr:stedsnr" v="361256" />
		<tag k="ssr:type" v="adressenavn" />
	</node>
	<node id="-310029" lat="58.4650638889" lon="7.64559166975">
		<tag k="name" v="Mjunelivegen" />
		<tag k="ssr:date" v="2019-05-31" />
		<tag k="ssr:gruppe" v="veg" />
		<tag k="ssr:hovedgruppe" v="infrastruktur" />
		<tag k="ssr:stedsnr" v="890560" />
		<tag k="ssr:type" v="adressenavn" />
	</node>
	<node id="-311480" lat="58.5916333374" lon="7.83241388168">
		<tag k="name" v="Thorittvegen" />
		<tag k="ssr:date" v="2019-05-31" />
		<tag k="ssr:gruppe" v="veg" />
		<tag k="ssr:hovedgruppe" v="infrastruktur" />
		<tag k="ssr:stedsnr" v="540582" />
		<tag k="ssr:type" v="adressenavn" />
	</node>
	<node id="-309640" lat="58.648080552" lon="7.96164443836">
		<tag k="name" v="Kvåva" />
		<tag k="ssr:date" v="2019-05-31" />
		<tag k="ssr:gruppe" v="veg" />
		<tag k="ssr:hovedgruppe" v="infrastruktur" />
		<tag k="ssr:stedsnr" v="343093" />
		<tag k="ssr:type" v="adressenavn" />
	</node>
	<node id="-310597" lat="58.5911083301" lon="7.83170832914">
		<tag k="name" v="Muskovittvegen" />
		<tag k="ssr:date" v="2019-05-31" />
		<tag k="ssr:gruppe" v="veg" />
		<tag k="ssr:hovedgruppe" v="infrastruktur" />
		<tag k="ssr:stedsnr" v="116581" />
		<tag k="ssr:type" v="adressenavn" />
	</node>
	<node id="-312706" lat="58.6211750019" lon="7.9890611105">
		<tag k="name" v="Takåsen" />
		<tag k="ssr:date" v="2019-05-31" />
		<tag k="ssr:gruppe" v="veg" />
		<tag k="ssr:hovedgruppe" v="infrastruktur" />
		<tag k="ssr:stedsnr" v="950957" />
		<tag k="ssr:type" v="adressenavn" />
	</node>
	<node id="-312705" lat="58.5939111124" lon="7.93207500361">
		<tag k="name" v="Ånestølkilen" />
		<tag k="ssr:date" v="2019-05-31" />
		<tag k="ssr:gruppe" v="veg" />
		<tag k="ssr:hovedgruppe" v="infrastruktur" />
		<tag k="ssr:stedsnr" v="950947" />
		<tag k="ssr:type" v="adressenavn" />
	</node>
</osm>
