<?xml version="1.0" encoding="UTF-8"?>
<osm generator="osmapis" version="0.6">
	<node id="-237568" lat="59.3869972221" lon="9.22782500457">
		<tag k="name" v="Prestholt" />
		<tag k="railway" v="station" />
		<tag k="ssr:stedsnr" v="731914" />
		<tag k="train" v="yes" />
	</node>
	<node id="-236414" lat="59.3699250035" lon="9.14186389674">
		<tag k="highway" v="path" />
		<tag k="name" v="Stuls-vegen" />
		<tag k="ssr:stedsnr" v="408231" />
	</node>
	<node id="-236285" lat="59.5111638925" lon="9.32608333793">
		<tag k="bridge" v="yes" />
		<tag k="layer" v="1" />
		<tag k="name" v="Hjuksevelta" />
		<tag k="ssr:stedsnr" v="350240" />
	</node>
	<node id="-236539" lat="59.3666611088" lon="9.19141110926">
		<tag k="man_made" v="quay" />
		<tag k="name" v="Årnes" />
		<tag k="place" v="locality" />
		<tag k="ssr:stedsnr" v="2320" />
	</node>
	<node id="-237076" lat="59.5313000011" lon="9.37604445064">
		<tag k="layer" v="-1" />
		<tag k="name" v="Vesle-tunnel" />
		<tag k="ssr:stedsnr" v="468649" />
		<tag k="tunnel" v="yes" />
	</node>
	<node id="-236277" lat="59.4364805522" lon="9.3063222233">
		<tag k="man_made" v="quay" />
		<tag k="name" v="Sanden" />
		<tag k="place" v="locality" />
		<tag k="ssr:stedsnr" v="347605" />
	</node>
	<node id="-237421" lat="59.3976194436" lon="9.2439416691">
		<tag k="junction" v="yes" />
		<tag k="name" v="Reset" />
		<tag k="place" v="locality" />
		<tag k="ssr:stedsnr" v="651673" />
	</node>
	<node id="-237548" lat="59.4568166675" lon="9.33939166857">
		<tag k="name" v="Holtsås" />
		<tag k="railway" v="station" />
		<tag k="ssr:stedsnr" v="730001" />
		<tag k="train" v="yes" />
	</node>
	<node id="-237418" lat="59.3707944412" lon="9.20944444852">
		<tag k="man_made" v="quay" />
		<tag k="name" v="Aslaksborg" />
		<tag k="place" v="locality" />
		<tag k="ssr:stedsnr" v="650887" />
	</node>
	<node id="-236133" lat="59.4602083359" lon="9.31381110686">
		<tag k="bridge" v="yes" />
		<tag k="layer" v="1" />
		<tag k="name" v="Nautesund bru" />
		<tag k="ssr:stedsnr" v="286783" />
	</node>
	<node id="-237580" lat="59.4891666707" lon="9.30357221776">
		<tag k="fixme" v="verify maritime location" />
		<tag k="mooring" v="yes" />
		<tag k="name" v="Nordstå" />
		<tag k="place" v="locality" />
		<tag k="ssr:stedsnr" v="771089" />
	</node>
	<node id="-236429" lat="59.3352500005" lon="9.22415278334">
		<tag k="man_made" v="quay" />
		<tag k="name" v="Gamle brygge" />
		<tag k="place" v="locality" />
		<tag k="ssr:stedsnr" v="893081" />
	</node>
	<node id="-237528" lat="59.4923638927" lon="9.34846389487">
		<tag k="ford" v="yes" />
		<tag k="name" v="Slettavadet" />
		<tag k="place" v="locality" />
		<tag k="ssr:stedsnr" v="711594" />
	</node>
	<node id="-236217" lat="59.4744333377" lon="9.44557777701">
		<tag k="highway" v="path" />
		<tag k="name" v="Stulsvegen" />
		<tag k="ssr:stedsnr" v="346532" />
	</node>
	<node id="-236626" lat="59.4755916639" lon="9.31024444976">
		<tag k="fixme" v="verify maritime location" />
		<tag k="mooring" v="yes" />
		<tag k="name" v="Svarteholet" />
		<tag k="place" v="locality" />
		<tag k="ssr:stedsnr" v="43987" />
	</node>
	<node id="-236878" lat="59.4583805592" lon="9.31459166139">
		<tag k="fixme" v="verify maritime location" />
		<tag k="mooring" v="yes" />
		<tag k="name" v="Nesestå" />
		<tag k="place" v="locality" />
		<tag k="ssr:stedsnr" v="225028" />
	</node>
	<node id="-236177" lat="59.4922722202" lon="9.33385000059">
		<tag k="name" v="Hjuksebø" />
		<tag k="railway" v="station" />
		<tag k="ssr:stedsnr" v="306085" />
		<tag k="train" v="yes" />
	</node>
	<node id="-236745" lat="59.3985833363" lon="9.14242499839">
		<tag k="bridge" v="yes" />
		<tag k="layer" v="1" />
		<tag k="name" v="Liaberget" />
		<tag k="ssr:stedsnr" v="107255" />
	</node>
	<node id="-236684" lat="59.5185444442" lon="9.34208610358">
		<tag k="bridge" v="yes" />
		<tag k="layer" v="1" />
		<tag k="name" v="Steinbrua" />
		<tag k="ssr:stedsnr" v="104080" />
	</node>
	<node id="-237889" lat="59.3936472241" lon="9.260958333">
		<tag k="bridge" v="yes" />
		<tag k="layer" v="1" />
		<tag k="name" v="Akkerhaugen" />
		<tag k="ssr:stedsnr" v="957266" />
	</node>
	<node id="-237888" lat="59.4048833361" lon="9.31163055129">
		<tag k="bridge" v="yes" />
		<tag k="layer" v="1" />
		<tag k="name" v="Moen" />
		<tag k="ssr:stedsnr" v="957264" />
	</node>
	<node id="-237887" lat="59.3697527779" lon="9.17746944961">
		<tag k="bridge" v="yes" />
		<tag k="layer" v="1" />
		<tag k="name" v="Årnes" />
		<tag k="ssr:stedsnr" v="957260" />
	</node>
	<node id="-236222" lat="59.5193416667" lon="9.37742500069">
		<tag k="bridge" v="yes" />
		<tag k="layer" v="1" />
		<tag k="name" v="Høgebru" />
		<tag k="ssr:stedsnr" v="346569" />
	</node>
	<node id="-236733" lat="59.4881055566" lon="9.31787500547">
		<tag k="fixme" v="verify maritime location" />
		<tag k="mooring" v="yes" />
		<tag k="name" v="Jønsi-ståin" />
		<tag k="place" v="locality" />
		<tag k="ssr:stedsnr" v="104833" />
	</node>
	<node id="-237756" lat="59.3885055542" lon="9.16522499751">
		<tag k="bridge" v="yes" />
		<tag k="layer" v="1" />
		<tag k="name" v="Sagavoll" />
		<tag k="ssr:stedsnr" v="836220" />
	</node>
	<node id="-236857" lat="59.386411113" lon="9.329905551">
		<tag k="name" v="Dalsvatn" />
		<tag k="railway" v="station" />
		<tag k="ssr:stedsnr" v="184886" />
		<tag k="train" v="yes" />
	</node>
	<node id="-237624" lat="59.4896805576" lon="9.31744166756">
		<tag k="fixme" v="verify maritime location" />
		<tag k="mooring" v="yes" />
		<tag k="name" v="Sugards-stå" />
		<tag k="place" v="locality" />
		<tag k="ssr:stedsnr" v="771854" />
	</node>
	<node id="-236850" lat="59.3892833349" lon="9.17823054762">
		<tag k="name" v="Gvarv" />
		<tag k="railway" v="station" />
		<tag k="ssr:stedsnr" v="184318" />
		<tag k="train" v="yes" />
	</node>
	<node id="-236465" lat="59.4028694418" lon="9.21793056263">
		<tag k="ford" v="yes" />
		<tag k="name" v="Heimevadet" />
		<tag k="place" v="locality" />
		<tag k="ssr:stedsnr" v="893429" />
	</node>
	<node id="-236189" lat="59.5168222218" lon="9.34406944242">
		<tag k="layer" v="-1" />
		<tag k="name" v="Bråten" />
		<tag k="ssr:stedsnr" v="346116" />
		<tag k="tunnel" v="yes" />
	</node>
	<node id="-236972" lat="59.4178999991" lon="9.32287500313">
		<tag k="name" v="Nordagutu" />
		<tag k="railway" v="station" />
		<tag k="ssr:stedsnr" v="245989" />
		<tag k="train" v="yes" />
	</node>
	<node id="-237611" lat="59.5325944467" lon="9.37571110742">
		<tag k="junction" v="yes" />
		<tag k="name" v="Kollset-åmotet" />
		<tag k="place" v="locality" />
		<tag k="ssr:stedsnr" v="771676" />
	</node>
	<node id="-236842" lat="59.3979722224" lon="9.24313610671">
		<tag k="bridge" v="yes" />
		<tag k="layer" v="1" />
		<tag k="name" v="Jonsåsreset" />
		<tag k="ssr:stedsnr" v="168264" />
	</node>
	<node id="-236841" lat="59.4196749974" lon="9.27775278166">
		<tag k="bridge" v="yes" />
		<tag k="layer" v="1" />
		<tag k="name" v="Sauar" />
		<tag k="ssr:stedsnr" v="168261" />
	</node>
	<node id="-237864" lat="59.3372444415" lon="9.22367222523">
		<tag k="man_made" v="quay" />
		<tag k="name" v="Holte brygge" />
		<tag k="place" v="locality" />
		<tag k="ssr:stedsnr" v="954069" />
	</node>
	<node id="-237733" lat="59.4436888865" lon="9.29976666804">
		<tag k="highway" v="path" />
		<tag k="name" v="Stegakleiv" />
		<tag k="ssr:stedsnr" v="833007" />
	</node>
	<node id="-237086" lat="59.487166664" lon="9.30613054688">
		<tag k="fixme" v="verify maritime location" />
		<tag k="mooring" v="yes" />
		<tag k="name" v="Brattestå" />
		<tag k="place" v="locality" />
		<tag k="ssr:stedsnr" v="468830" />
	</node>
	<node id="-237085" lat="59.5039916702" lon="9.31970834209">
		<tag k="fixme" v="verify maritime location" />
		<tag k="mooring" v="yes" />
		<tag k="name" v="Røste-stå" />
		<tag k="place" v="locality" />
		<tag k="ssr:stedsnr" v="468825" />
	</node>
	<node id="-237210" lat="59.4495305589" lon="9.32603055907">
		<tag k="bridge" v="yes" />
		<tag k="layer" v="1" />
		<tag k="name" v="Tveiten" />
		<tag k="ssr:stedsnr" v="532241" />
	</node>
	<node id="-236822" lat="59.3666249967" lon="9.30028610616">
		<tag k="name" v="Vinterlaget" />
		<tag k="place" v="locality" />
		<tag k="ssr:stedsnr" v="165255" />
	</node>
	<node id="-236820" lat="59.4590027753" lon="9.30515556066">
		<tag k="alt_name" v="Klevar" />
		<tag k="bridge" v="yes" />
		<tag k="layer" v="1" />
		<tag k="name" v="Klevarbrua" />
		<tag k="ssr:stedsnr" v="165153" />
	</node>
	<node id="-237587" lat="59.4041416684" lon="9.16709723048">
		<tag k="fixme" v="verify maritime location" />
		<tag k="mooring" v="yes" />
		<tag k="name" v="Kolatangen" />
		<tag k="place" v="locality" />
		<tag k="ssr:stedsnr" v="771272" />
	</node>
	<node id="-236305" lat="59.4031944405" lon="9.31196110586">
		<tag k="name" v="Moen" />
		<tag k="railway" v="station" />
		<tag k="ssr:stedsnr" v="366857" />
		<tag k="train" v="yes" />
	</node>
	<node id="-236909" lat="59.49095" lon="9.31698333543">
		<tag k="fixme" v="verify maritime location" />
		<tag k="mooring" v="yes" />
		<tag k="name" v="Tyri-stå" />
		<tag k="place" v="locality" />
		<tag k="ssr:stedsnr" v="225834" />
	</node>
	<node id="-236940" lat="59.3877083375" lon="9.16850278404">
		<tag k="bridge" v="yes" />
		<tag k="layer" v="1" />
		<tag k="name" v="Gvarv" />
		<tag k="ssr:stedsnr" v="228262" />
	</node>
	<node id="-236939" lat="59.3634749979" lon="9.18339999422">
		<tag k="bridge" v="yes" />
		<tag k="layer" v="1" />
		<tag k="name" v="Årnesbekk" />
		<tag k="ssr:stedsnr" v="228256" />
	</node>
	<node id="-237064" lat="59.4737694435" lon="9.30013888512">
		<tag k="highway" v="path" />
		<tag k="name" v="Vrangberg" />
		<tag k="ssr:stedsnr" v="468502" />
	</node>
	<node id="-237164" lat="59.5022833358" lon="9.29306665832">
		<tag k="fixme" v="verify maritime location" />
		<tag k="mooring" v="yes" />
		<tag k="name" v="Haslestå" />
		<tag k="place" v="locality" />
		<tag k="ssr:stedsnr" v="528808" />
	</node>
	<node id="-236421" lat="59.5121361085" lon="9.32213056058">
		<tag k="bridge" v="yes" />
		<tag k="layer" v="1" />
		<tag k="name" v="Hjukse" />
		<tag k="ssr:stedsnr" v="410279" />
	</node>
</osm>
