<?xml version="1.0" encoding="UTF-8"?>
<osm generator="osmapis" version="0.6">
	<node id="-237599" lat="59.4002750026" lon="9.24560833489">
		<tag k="name" v="Gvilar-bakken" />
		<tag k="place" v="locality" />
		<tag k="ssr:stedsnr" v="771535" />
	</node>
	<node id="-236860" lat="59.4217805532" lon="9.28110277224">
		<tag k="amenity" v="place_of_worship" />
		<tag k="denomination" v="lutheran" />
		<tag k="name" v="Sauherad" />
		<tag k="religion" v="christian" />
		<tag k="ssr:stedsnr" v="184972" />
	</node>
	<node id="-236731" lat="59.5045111121" lon="9.33121667153">
		<tag k="name" v="Mjølkevollen" />
		<tag k="place" v="locality" />
		<tag k="ssr:stedsnr" v="104785" />
	</node>
	<node id="-236212" lat="59.3719000032" lon="9.35451944661">
		<tag k="name" v="Røyeodden" />
		<tag k="place" v="locality" />
		<tag k="ssr:stedsnr" v="346499" />
	</node>
	<node id="-237427" lat="59.3719083296" lon="9.22104999972">
		<tag k="amenity" v="place_of_worship" />
		<tag k="denomination" v="lutheran" />
		<tag k="name" v="Nes" />
		<tag k="religion" v="christian" />
		<tag k="ssr:stedsnr" v="669813" />
	</node>
	<node id="-236082" lat="59.4077999968" lon="9.30854166736">
		<tag k="name" v="Hartang" />
		<tag k="place" v="locality" />
		<tag k="ssr:stedsnr" v="286086" />
	</node>
	<node id="-236367" lat="59.4733972226" lon="9.3082611071">
		<tag k="name" v="Kongshem" />
		<tag k="place" v="locality" />
		<tag k="ssr:stedsnr" v="407619" />
	</node>
	<node id="-236557" lat="59.3924249982" lon="9.24877223095">
		<tag k="amenity" v="community_centre" />
		<tag k="name" v="Akkerhaugen" />
		<tag k="ssr:stedsnr" v="2915" />
	</node>
	<node id="-236396" lat="59.4020055559" lon="9.30127222231">
		<tag k="amenity" v="place_of_worship" />
		<tag k="fixme" v="specify religion=*, denomination=*, building=* etc" />
		<tag k="name" v="Advent-kirken" />
		<tag k="ssr:stedsnr" v="407885" />
	</node>
	<node id="-237835" lat="59.4223583304" lon="9.28562777979">
		<tag k="cemetery" v="grave" />
		<tag k="name" v="Bloms løkke" />
		<tag k="place" v="locality" />
		<tag k="ssr:stedsnr" v="953495" />
	</node>
	<node id="-236618" lat="59.4920111141" lon="9.31780555185">
		<tag k="name" v="Kvennhus-holet" />
		<tag k="place" v="locality" />
		<tag k="ssr:stedsnr" v="43827" />
	</node>
	<node id="-237404" lat="59.4076916637" lon="9.23692221622">
		<tag k="name" v="Steinborg" />
		<tag k="place" v="locality" />
		<tag k="ssr:stedsnr" v="650474" />
	</node>
	<node id="-236582" lat="59.4152805592" lon="9.3663750079">
		<tag k="name" v="Nesabekken" />
		<tag k="place" v="locality" />
		<tag k="ssr:stedsnr" v="43328" />
	</node>
	<node id="-236453" lat="59.407302776" lon="9.1712722248">
		<tag k="name" v="Gislehaug" />
		<tag k="place" v="locality" />
		<tag k="ssr:stedsnr" v="893263" />
	</node>
	<node id="-237188" lat="59.4161722186" lon="9.36338888172">
		<tag k="name" v="Narekollen" />
		<tag k="place" v="locality" />
		<tag k="ssr:stedsnr" v="529316" />
	</node>
	<node id="-236262" lat="59.4566416664" lon="9.30786111028">
		<tag k="name" v="Runshaug" />
		<tag k="place" v="locality" />
		<tag k="ssr:stedsnr" v="347158" />
	</node>
	<node id="-237339" lat="59.4459361116" lon="9.32187778433">
		<tag k="amenity" v="community_centre" />
		<tag k="name" v="Sjodar" />
		<tag k="ssr:stedsnr" v="608959" />
	</node>
</osm>
