<?xml version="1.0" encoding="UTF-8"?>
<osm generator="osmapis" version="0.6">
	<node id="-237566" lat="59.3849972194" lon="9.10682777182">
		<tag k="alt_name" v="Svarttjørn" />
		<tag k="name" v="Svarttjønn" />
		<tag k="natural" v="water" />
		<tag k="ssr:stedsnr" v="548352" />
	</node>
	<node id="-237564" lat="59.3324861118" lon="9.20126388852">
		<tag k="alt_name" v="Storlitjørna" />
		<tag k="name" v="Storlitjønn" />
		<tag k="natural" v="water" />
		<tag k="ssr:stedsnr" v="548231" />
	</node>
	<node id="-237562" lat="59.4873138903" lon="9.45589999558">
		<tag k="alt_name" v="Kalvetjørn" />
		<tag k="name" v="Kalvetjønn" />
		<tag k="natural" v="water" />
		<tag k="ssr:stedsnr" v="548055" />
	</node>
	<node id="-237561" lat="59.4838305578" lon="9.22990278114">
		<tag k="name" v="Svarttjørn" />
		<tag k="natural" v="water" />
		<tag k="ssr:stedsnr" v="548051" />
	</node>
	<node id="-237555" lat="59.459483332" lon="9.39003332462">
		<tag k="alt_name" v="Holtstjørn" />
		<tag k="name" v="Holtstjønn" />
		<tag k="natural" v="water" />
		<tag k="ssr:stedsnr" v="548007" />
	</node>
	<node id="-237549" lat="59.4451527821" lon="9.39621943821">
		<tag k="name" v="Svarttjønn-putten" />
		<tag k="natural" v="water" />
		<tag k="ssr:stedsnr" v="529741" />
		<tag k="water" v="pond" />
	</node>
	<node id="-237544" lat="59.4936305533" lon="9.3458833414">
		<tag k="name" v="Røstebekken" />
		<tag k="ssr:stedsnr" v="529576" />
		<tag k="waterway" v="stream" />
	</node>
	<node id="-237542" lat="59.4722777811" lon="9.38749999445">
		<tag k="name" v="Storebuløken" />
		<tag k="natural" v="water" />
		<tag k="ssr:stedsnr" v="529565" />
		<tag k="water" v="lake" />
	</node>
	<node id="-237537" lat="59.4029222187" lon="9.21501111397">
		<tag k="name" v="Kvernbekken" />
		<tag k="ssr:stedsnr" v="529430" />
		<tag k="waterway" v="stream" />
	</node>
	<node id="-237535" lat="59.3972444477" lon="9.37481666325">
		<tag k="name" v="Øvre Lauvrostjønn" />
		<tag k="natural" v="water" />
		<tag k="ssr:stedsnr" v="529357" />
	</node>
	<node id="-237534" lat="59.4539416668" lon="9.19146388855">
		<tag k="name" v="Bostetjønn" />
		<tag k="natural" v="water" />
		<tag k="ssr:stedsnr" v="529344" />
	</node>
	<node id="-237520" lat="59.4031472239" lon="9.29468055822">
		<tag k="name" v="Suigardsbekken" />
		<tag k="ssr:stedsnr" v="529119" />
		<tag k="waterway" v="stream" />
	</node>
	<node id="-237510" lat="59.4717361116" lon="9.3122222168">
		<tag k="name" v="Kongshemfjorden" />
		<tag k="natural" v="water" />
		<tag k="ssr:stedsnr" v="528987" />
		<tag k="water" v="lake" />
	</node>
	<node id="-237509" lat="59.4702527764" lon="9.30375000544">
		<tag k="name" v="Undelåns-bukta" />
		<tag k="natural" v="bay" />
		<tag k="ssr:stedsnr" v="528985" />
	</node>
	<node id="-237504" lat="59.4505527807" lon="9.33703056358">
		<tag k="name" v="Holts-åa" />
		<tag k="ssr:stedsnr" v="528736" />
		<tag k="waterway" v="stream" />
	</node>
	<node id="-237500" lat="59.4386999987" lon="9.39823055759">
		<tag k="name" v="Damtjønnputten" />
		<tag k="natural" v="water" />
		<tag k="ssr:stedsnr" v="528681" />
		<tag k="water" v="pond" />
	</node>
	<node id="-237499" lat="59.4343333324" lon="9.36236111516">
		<tag k="name" v="Gvittingen" />
		<tag k="ssr:stedsnr" v="528671" />
		<tag k="waterway" v="river" />
	</node>
	<node id="-237498" lat="59.5280305588" lon="9.36075000678">
		<tag k="name" v="Hjukseåa" />
		<tag k="ssr:stedsnr" v="528664" />
		<tag k="waterway" v="river" />
	</node>
	<node id="-237490" lat="59.4822027795" lon="9.30588888378">
		<tag k="name" v="Kast-bukta" />
		<tag k="natural" v="bay" />
		<tag k="ssr:stedsnr" v="528586" />
	</node>
	<node id="-237489" lat="59.5057388853" lon="9.37513888928">
		<tag k="name" v="Høgelitjønn" />
		<tag k="natural" v="water" />
		<tag k="ssr:stedsnr" v="528575" />
	</node>
	<node id="-237488" lat="59.4656527803" lon="9.2953166591">
		<tag k="name" v="Dalebekken" />
		<tag k="ssr:stedsnr" v="528571" />
		<tag k="waterway" v="stream" />
	</node>
	<node id="-237487" lat="59.4734972232" lon="9.45692777082">
		<tag k="name" v="Ranten" />
		<tag k="natural" v="cape" />
		<tag k="ssr:stedsnr" v="528533" />
	</node>
	<node id="-237485" lat="59.4040944465" lon="9.27591943814">
		<tag k="name" v="Tangenbekken" />
		<tag k="ssr:stedsnr" v="528516" />
		<tag k="waterway" v="stream" />
	</node>
	<node id="-237484" lat="59.4678722179" lon="9.41508611905">
		<tag k="name" v="Vassbotn" />
		<tag k="natural" v="strait" />
		<tag k="ssr:stedsnr" v="528514" />
	</node>
	<node id="-237482" lat="59.4930722197" lon="9.43417499905">
		<tag k="name" v="Søndre Damvatn" />
		<tag k="natural" v="water" />
		<tag k="ssr:stedsnr" v="528476" />
		<tag k="water" v="lake" />
	</node>
	<node id="-237481" lat="59.4831527778" lon="9.41133055374">
		<tag k="name" v="Øvre Vetrhustjønn" />
		<tag k="natural" v="water" />
		<tag k="ssr:stedsnr" v="528458" />
	</node>
	<node id="-237477" lat="59.5071916642" lon="9.43768333744">
		<tag k="name" v="Fjellvassåa" />
		<tag k="ssr:stedsnr" v="528376" />
		<tag k="waterway" v="river" />
	</node>
	<node id="-237472" lat="59.450138891" lon="9.23648888524">
		<tag k="name" v="Hyttedalsbekken" />
		<tag k="ssr:stedsnr" v="528207" />
		<tag k="waterway" v="stream" />
	</node>
	<node id="-237471" lat="59.4922666706" lon="9.29668332712">
		<tag k="name" v="Kåsa-stranda" />
		<tag k="natural" v="beach" />
		<tag k="ssr:stedsnr" v="528095" />
	</node>
	<node id="-237470" lat="59.4849527733" lon="9.28752222352">
		<tag k="name" v="Svarttjønn-bekken" />
		<tag k="ssr:stedsnr" v="529040" />
		<tag k="waterway" v="stream" />
	</node>
	<node id="-237468" lat="59.3542416689" lon="9.15956389431">
		<tag k="name" v="Løkedalsbekken" />
		<tag k="ssr:stedsnr" v="494644" />
		<tag k="waterway" v="stream" />
	</node>
	<node id="-237464" lat="59.5071916642" lon="9.43768333744">
		<tag k="alt_name" v="Fjellvasselva" />
		<tag k="name" v="Fjellvassåa" />
		<tag k="ssr:stedsnr" v="488705" />
		<tag k="waterway" v="river" />
	</node>
	<node id="-237463" lat="59.4335638921" lon="9.23783055887">
		<tag k="name" v="Klevaråa" />
		<tag k="ssr:stedsnr" v="488943" />
		<tag k="waterway" v="stream" />
	</node>
	<node id="-237451" lat="59.3417722185" lon="9.27331388788">
		<tag k="name" v="Strævbekken" />
		<tag k="ssr:stedsnr" v="487861" />
		<tag k="waterway" v="stream" />
	</node>
	<node id="-237450" lat="59.3478888904" lon="9.25126388775">
		<tag k="name" v="Ottersnesodden" />
		<tag k="natural" v="cape" />
		<tag k="ssr:stedsnr" v="487848" />
	</node>
	<node id="-237449" lat="59.4857555586" lon="9.19753055761">
		<tag k="alt_name" v="Mjågetjern" />
		<tag k="name" v="Mjågetjønn" />
		<tag k="natural" v="water" />
		<tag k="ssr:stedsnr" v="487662" />
	</node>
	<node id="-237427" lat="59.4966916661" lon="9.29561944333">
		<tag k="name" v="Tjoneodden" />
		<tag k="natural" v="cape" />
		<tag k="ssr:stedsnr" v="468821" />
	</node>
	<node id="-237411" lat="59.496108331" lon="9.36525278264">
		<tag k="name" v="Åsbutjønnbekken" />
		<tag k="ssr:stedsnr" v="468557" />
		<tag k="waterway" v="stream" />
	</node>
	<node id="-237410" lat="59.3897555525" lon="9.25866666833">
		<tag k="name" v="Akkerhaugs-bukta" />
		<tag k="natural" v="bay" />
		<tag k="ssr:stedsnr" v="468554" />
	</node>
	<node id="-237406" lat="59.4691083331" lon="9.30548333179">
		<tag k="name" v="Store Kråka" />
		<tag k="place" v="islet" />
		<tag k="ssr:stedsnr" v="468497" />
	</node>
	<node id="-237400" lat="59.4707000016" lon="9.44764999396">
		<tag k="name" v="Holmen" />
		<tag k="place" v="islet" />
		<tag k="ssr:stedsnr" v="468451" />
	</node>
	<node id="-237394" lat="59.3576222223" lon="9.29357499397">
		<tag k="name" v="Kalveaugo" />
		<tag k="natural" v="water" />
		<tag k="ssr:stedsnr" v="468279" />
		<tag k="water" v="pond" />
	</node>
	<node id="-237386" lat="59.4813416696" lon="9.20843610456">
		<tag k="name" v="Mjågetjønn-åa" />
		<tag k="ssr:stedsnr" v="468167" />
		<tag k="waterway" v="river" />
	</node>
	<node id="-237384" lat="59.4811027761" lon="9.19210833182">
		<tag k="name" v="Kalvetjønn-bekken" />
		<tag k="ssr:stedsnr" v="468157" />
		<tag k="waterway" v="stream" />
	</node>
	<node id="-237383" lat="59.4488222263" lon="9.24414443662">
		<tag k="name" v="Gvanntjønn-løken" />
		<tag k="natural" v="water" />
		<tag k="ssr:stedsnr" v="468153" />
		<tag k="water" v="lake" />
	</node>
	<node id="-237379" lat="59.4069638901" lon="9.29573333136">
		<tag k="name" v="Hvål-striken" />
		<tag k="natural" v="shoal" />
		<tag k="place" v="locality" />
		<tag k="ssr:stedsnr" v="468137" />
	</node>
	<node id="-237377" lat="59.405224998" lon="9.2979944435">
		<tag k="name" v="Nigardsbekken" />
		<tag k="ssr:stedsnr" v="468131" />
		<tag k="waterway" v="stream" />
	</node>
	<node id="-237373" lat="59.3533888895" lon="9.18569444351">
		<tag k="name" v="Gjernesbekken" />
		<tag k="ssr:stedsnr" v="468088" />
		<tag k="waterway" v="stream" />
	</node>
	<node id="-237372" lat="59.4862666636" lon="9.22888888156">
		<tag k="name" v="Hem-Svarttjønn" />
		<tag k="natural" v="water" />
		<tag k="ssr:stedsnr" v="468071" />
	</node>
	<node id="-237371" lat="59.4445555591" lon="9.31561944591">
		<tag k="name" v="Deilodden" />
		<tag k="natural" v="cape" />
		<tag k="ssr:stedsnr" v="468055" />
	</node>
	<node id="-237369" lat="59.3426444454" lon="9.21865833089">
		<tag k="name" v="Nyhetsbukta" />
		<tag k="natural" v="strait" />
		<tag k="ssr:stedsnr" v="468051" />
	</node>
	<node id="-237365" lat="59.4561749985" lon="9.18158888046">
		<tag k="name" v="Vesle Gullnåstjønn" />
		<tag k="natural" v="water" />
		<tag k="ssr:stedsnr" v="468318" />
	</node>
	<node id="-237363" lat="59.4063166626" lon="9.34385833218">
		<tag k="name" v="Løkjin" />
		<tag k="natural" v="water" />
		<tag k="ssr:stedsnr" v="468314" />
		<tag k="water" v="lake" />
	</node>
	<node id="-237362" lat="59.3993777736" lon="9.35339999741">
		<tag k="name" v="Landtjønn" />
		<tag k="natural" v="water" />
		<tag k="ssr:stedsnr" v="468312" />
	</node>
	<node id="-237361" lat="59.3981250009" lon="9.34584722586">
		<tag k="name" v="Rogholt-tjønn" />
		<tag k="natural" v="water" />
		<tag k="ssr:stedsnr" v="468311" />
	</node>
	<node id="-237353" lat="59.5096861142" lon="9.3625972258">
		<tag k="name" v="Høgelibekken" />
		<tag k="ssr:stedsnr" v="448540" />
		<tag k="waterway" v="stream" />
	</node>
	<node id="-237351" lat="59.5434499963" lon="9.48114722943">
		<tag k="alt_name" v="Neråsløken" />
		<tag k="name" v="Neråsløkan" />
		<tag k="natural" v="water" />
		<tag k="ssr:stedsnr" v="428762" />
		<tag k="water" v="lake" />
	</node>
	<node id="-237349" lat="59.5098194409" lon="9.4699111168">
		<tag k="loc_name" v="Sølverudtjønna" />
		<tag k="name" v="Sølverudtjønn" />
		<tag k="natural" v="water" />
		<tag k="old_name" v="Sølvraudtjørn" />
		<tag k="ssr:stedsnr" v="428690" />
	</node>
	<node id="-237346" lat="59.433086113" lon="9.39286388751">
		<tag k="alt_name" v="Dugurdsfjelltjørn" />
		<tag k="name" v="Dugurdsfjell-tjønn" />
		<tag k="natural" v="water" />
		<tag k="ssr:stedsnr" v="427955" />
	</node>
	<node id="-237339" lat="59.4393583374" lon="9.17667777048">
		<tag k="name" v="Løken" />
		<tag k="ssr:stedsnr" v="427476" />
		<tag k="waterway" v="stream" />
	</node>
	<node id="-237337" lat="59.4346499968" lon="9.18571944148">
		<tag k="alt_name" v="Dyrud Damtjørn" />
		<tag k="name" v="Dyrud Damtjønn" />
		<tag k="natural" v="water" />
		<tag k="ssr:stedsnr" v="427427" />
	</node>
	<node id="-237335" lat="59.3786249961" lon="9.12335278394">
		<tag k="alt_name" v="Ljosvatn" />
		<tag k="name" v="Store Ljosvatn" />
		<tag k="natural" v="water" />
		<tag k="old_name" v="Ljostjørna, store;Store Ljostjørna" />
		<tag k="ssr:stedsnr" v="427365" />
	</node>
	<node id="-237330" lat="59.4966611146" lon="9.43808889149">
		<tag k="name" v="Fjellvatna" />
		<tag k="natural" v="water" />
		<tag k="ssr:stedsnr" v="427083" />
		<tag k="water" v="lake" />
	</node>
	<node id="-237329" lat="59.4713361116" lon="9.26335834172">
		<tag k="alt_name" v="Igletjørn" />
		<tag k="name" v="Igletjønn" />
		<tag k="natural" v="water" />
		<tag k="ssr:stedsnr" v="427047" />
	</node>
	<node id="-237327" lat="59.4768972247" lon="9.40754999528">
		<tag k="alt_name" v="Damtjønn" />
		<tag k="name" v="Blekketjørn" />
		<tag k="natural" v="water" />
		<tag k="ssr:stedsnr" v="427036" />
	</node>
	<node id="-237325" lat="59.4629499989" lon="9.4284416604">
		<tag k="name" v="Eiangen" />
		<tag k="natural" v="water" />
		<tag k="ssr:stedsnr" v="427024" />
		<tag k="water" v="lake" />
	</node>
	<node id="-237322" lat="59.4521805533" lon="9.31408332896">
		<tag k="name" v="Bråfjorden" />
		<tag k="natural" v="water" />
		<tag k="ssr:stedsnr" v="427013" />
	</node>
	<node id="-237320" lat="59.5325777816" lon="9.45142222637">
		<tag k="alt_name" v="Monsvatn" />
		<tag k="name" v="Monsvatnet" />
		<tag k="natural" v="water" />
		<tag k="ssr:stedsnr" v="246714" />
		<tag k="water" v="lake" />
	</node>
	<node id="-237319" lat="59.5339027797" lon="9.50665000721">
		<tag k="alt_name" v="Bufinntjørn" />
		<tag k="name" v="Bufinntjønn" />
		<tag k="natural" v="water" />
		<tag k="ssr:stedsnr" v="246713" />
	</node>
	<node id="-237318" lat="59.5053722203" lon="9.46777499561">
		<tag k="name" v="Perstjørn" />
		<tag k="natural" v="water" />
		<tag k="ssr:stedsnr" v="246685" />
	</node>
	<node id="-237312" lat="59.4331611085" lon="9.24388888381">
		<tag k="alt_name" v="Belleråstjørn" />
		<tag k="name" v="Bellerås-tjønn" />
		<tag k="natural" v="water" />
		<tag k="ssr:stedsnr" v="245947" />
	</node>
	<node id="-237310" lat="59.3752333331" lon="9.35398611835">
		<tag k="name" v="Dalsvatn" />
		<tag k="natural" v="water" />
		<tag k="ssr:stedsnr" v="245917" />
		<tag k="water" v="lake" />
	</node>
	<node id="-237303" lat="59.4059500002" lon="9.2861083406">
		<tag k="name" v="Saua" />
		<tag k="ssr:stedsnr" v="245880" />
		<tag k="waterway" v="river" />
	</node>
	<node id="-237302" lat="59.4041055519" lon="9.35411666111">
		<tag k="alt_name" v="Lisletjørn" />
		<tag k="name" v="Lisletjønn" />
		<tag k="natural" v="water" />
		<tag k="ssr:stedsnr" v="245877" />
	</node>
	<node id="-237300" lat="59.3623083324" lon="9.29264443851">
		<tag k="alt_name" v="Bekartjørn" />
		<tag k="name" v="Bekartjønn" />
		<tag k="natural" v="water" />
		<tag k="ssr:stedsnr" v="245810" />
	</node>
	<node id="-237298" lat="59.4555777822" lon="9.17667500589">
		<tag k="alt_name" v="Tveit-vatna" />
		<tag k="name" v="Tveitvatna" />
		<tag k="natural" v="water" />
		<tag k="ssr:stedsnr" v="245474" />
		<tag k="water" v="lake" />
	</node>
	<node id="-237288" lat="59.4728861127" lon="9.2394944459">
		<tag k="alt_name" v="Munketjørn" />
		<tag k="name" v="Munketjønn" />
		<tag k="natural" v="water" />
		<tag k="ssr:stedsnr" v="245044" />
	</node>
	<node id="-237287" lat="59.4615722193" lon="9.31494999537">
		<tag k="alt_name" v="Nautesund" />
		<tag k="name" v="Nautsund" />
		<tag k="natural" v="strait" />
		<tag k="ssr:stedsnr" v="245029" />
	</node>
	<node id="-237285" lat="59.4626527741" lon="9.22398056339">
		<tag k="alt_name" v="Bråtatjørn" />
		<tag k="name" v="Bråtåtjønn" />
		<tag k="natural" v="water" />
		<tag k="ssr:stedsnr" v="245026" />
	</node>
	<node id="-237281" lat="59.384741665" lon="9.23371388502">
		<tag k="name" v="Megards-bekken" />
		<tag k="ssr:stedsnr" v="226711" />
		<tag k="waterway" v="stream" />
	</node>
	<node id="-237280" lat="59.3912499988" lon="9.25147222951">
		<tag k="name" v="Geir-evju" />
		<tag k="natural" v="bay" />
		<tag k="ssr:stedsnr" v="226703" />
	</node>
	<node id="-237279" lat="59.3799583371" lon="9.23897777945">
		<tag k="name" v="Holt-evju" />
		<tag k="natural" v="bay" />
		<tag k="ssr:stedsnr" v="226699" />
	</node>
	<node id="-237272" lat="59.3960583337" lon="9.26275555039">
		<tag k="name" v="Kåsa-øyren" />
		<tag k="natural" v="shoal" />
		<tag k="place" v="locality" />
		<tag k="ssr:stedsnr" v="226626" />
	</node>
	<node id="-237271" lat="59.397822218" lon="9.26475277681">
		<tag k="name" v="Leirbakk-evju" />
		<tag k="natural" v="bay" />
		<tag k="ssr:stedsnr" v="226622" />
	</node>
	<node id="-237269" lat="59.4055777736" lon="9.22114999647">
		<tag k="name" v="Damtjønnbekken" />
		<tag k="ssr:stedsnr" v="226485" />
		<tag k="waterway" v="stream" />
	</node>
	<node id="-237267" lat="59.4831138927" lon="9.26879999221">
		<tag k="name" v="Ljostjønn-bekken" />
		<tag k="ssr:stedsnr" v="226228" />
		<tag k="waterway" v="stream" />
	</node>
	<node id="-237266" lat="59.4793277757" lon="9.27501944116">
		<tag k="name" v="Damtjønn-bekken" />
		<tag k="ssr:stedsnr" v="226226" />
		<tag k="waterway" v="stream" />
	</node>
	<node id="-237251" lat="59.5041194414" lon="9.29652499513">
		<tag k="name" v="Storbukta" />
		<tag k="natural" v="bay" />
		<tag k="ssr:stedsnr" v="225818" />
	</node>
	<node id="-237247" lat="59.5236805516" lon="9.49150277866">
		<tag k="name" v="Holmevassåa" />
		<tag k="ssr:stedsnr" v="225720" />
		<tag k="waterway" v="river" />
	</node>
	<node id="-237246" lat="59.442922219" lon="9.36267777817">
		<tag k="name" v="Øgnegravs-åa" />
		<tag k="ssr:stedsnr" v="225704" />
		<tag k="waterway" v="river" />
	</node>
	<node id="-237244" lat="59.4280527757" lon="9.3470972306">
		<tag k="name" v="Kvennhus-bekken" />
		<tag k="ssr:stedsnr" v="225673" />
		<tag k="waterway" v="stream" />
	</node>
	<node id="-237242" lat="59.4788388883" lon="9.44246944768">
		<tag k="name" v="Maurdalstjønn" />
		<tag k="natural" v="water" />
		<tag k="ssr:stedsnr" v="225532" />
	</node>
	<node id="-237241" lat="59.475411111" lon="9.43678610362">
		<tag k="name" v="Gvålstjønn" />
		<tag k="natural" v="water" />
		<tag k="ssr:stedsnr" v="225511" />
	</node>
	<node id="-237240" lat="59.4410083333" lon="9.23516944514">
		<tag k="name" v="Svinsbekk" />
		<tag k="ssr:stedsnr" v="225488" />
		<tag k="waterway" v="stream" />
	</node>
	<node id="-237239" lat="59.490100003" lon="9.4399611191">
		<tag k="name" v="Søndre Mjågesundvatn" />
		<tag k="natural" v="water" />
		<tag k="ssr:stedsnr" v="225472" />
		<tag k="water" v="lake" />
	</node>
	<node id="-237236" lat="59.3818194479" lon="9.35582222398">
		<tag k="name" v="Vihus-tjønna" />
		<tag k="natural" v="water" />
		<tag k="ssr:stedsnr" v="225375" />
	</node>
	<node id="-237233" lat="59.5158499957" lon="9.45160833711">
		<tag k="name" v="Godli-landet" />
		<tag k="natural" v="beach" />
		<tag k="ssr:stedsnr" v="225341" />
	</node>
	<node id="-237224" lat="59.5146249959" lon="9.29074722096">
		<tag k="name" v="Deilbekken" />
		<tag k="ssr:stedsnr" v="225145" />
		<tag k="waterway" v="stream" />
	</node>
	<node id="-237217" lat="59.523694445" lon="9.34966945018">
		<tag k="name" v="Håpåldalsbekken" />
		<tag k="ssr:stedsnr" v="225588" />
		<tag k="waterway" v="stream" />
	</node>
	<node id="-237211" lat="59.5351277801" lon="9.47464722197">
		<tag k="name" v="Sveinsbubekken" />
		<tag k="ssr:stedsnr" v="185713" />
		<tag k="waterway" v="stream" />
	</node>
	<node id="-237208" lat="59.5229500023" lon="9.50225833132">
		<tag k="alt_name" v="Arebuvatn" />
		<tag k="name" v="Arebuvatnet" />
		<tag k="natural" v="water" />
		<tag k="ssr:stedsnr" v="185702" />
	</node>
	<node id="-237205" lat="59.4188166695" lon="9.22712778291">
		<tag k="alt_name" v="Damtjørn" />
		<tag k="name" v="Holtan Damtjønn" />
		<tag k="natural" v="water" />
		<tag k="ssr:stedsnr" v="184993" />
	</node>
	<node id="-237204" lat="59.4147888934" lon="9.23481110666">
		<tag k="alt_name" v="Langtjørn" />
		<tag k="name" v="Langetjønn" />
		<tag k="natural" v="water" />
		<tag k="ssr:stedsnr" v="184989" />
	</node>
	<node id="-237201" lat="59.442127777" lon="9.26411944359">
		<tag k="alt_name" v="Svinetjørn" />
		<tag k="name" v="Svinetjønn" />
		<tag k="natural" v="water" />
		<tag k="ssr:stedsnr" v="184930" />
	</node>
	<node id="-237199" lat="59.3993111086" lon="9.35333888266">
		<tag k="name" v="Landtjørn" />
		<tag k="natural" v="water" />
		<tag k="ssr:stedsnr" v="184876" />
	</node>
	<node id="-237197" lat="59.357705554" lon="9.39035555203">
		<tag k="alt_name" v="Sautjørnene" />
		<tag k="name" v="Sauetjønnene" />
		<tag k="natural" v="water" />
		<tag k="ssr:stedsnr" v="184808" />
	</node>
	<node id="-237196" lat="59.3555499993" lon="9.24134721933">
		<tag k="name" v="Tjuveholmane" />
		<tag k="place" v="islet" />
		<tag k="ssr:stedsnr" v="184801" />
	</node>
	<node id="-237194" lat="59.3863222235" lon="9.11746944739">
		<tag k="alt_name" v="Damtjørn, store" />
		<tag k="name" v="Store Damtjønn" />
		<tag k="natural" v="water" />
		<tag k="ssr:stedsnr" v="184321" />
	</node>
	<node id="-237191" lat="59.371211115" lon="9.15102223074">
		<tag k="alt_name" v="Sulukolltjørna" />
		<tag k="name" v="Sulukolltjønn" />
		<tag k="natural" v="water" />
		<tag k="ssr:stedsnr" v="184292" />
	</node>
	<node id="-237188" lat="59.4824555521" lon="9.27457221376">
		<tag k="alt_name" v="Damtjørn" />
		<tag k="name" v="Damtjønn" />
		<tag k="natural" v="water" />
		<tag k="ssr:stedsnr" v="184033" />
	</node>
	<node id="-237187" lat="59.4976722251" lon="9.37644721789">
		<tag k="name" v="Ospetjernene" />
		<tag k="natural" v="water" />
		<tag k="ssr:stedsnr" v="184052" />
	</node>
	<node id="-237182" lat="59.4119472248" lon="9.30203055181">
		<tag k="name" v="Sauar-elva" />
		<tag k="ssr:stedsnr" v="165909" />
		<tag k="waterway" v="river" />
	</node>
	<node id="-237176" lat="59.4324111096" lon="9.30896111011">
		<tag k="name" v="Blodstreng" />
		<tag k="place" v="locality" />
		<tag k="ssr:stedsnr" v="165605" />
	</node>
	<node id="-237175" lat="59.4851472251" lon="9.38565555827">
		<tag k="name" v="Sæterdalsløken" />
		<tag k="natural" v="water" />
		<tag k="ssr:stedsnr" v="165588" />
		<tag k="water" v="lake" />
	</node>
	<node id="-237173" lat="59.482036108" lon="9.38171666766">
		<tag k="name" v="Sæterdalsbekken" />
		<tag k="ssr:stedsnr" v="165568" />
		<tag k="waterway" v="stream" />
	</node>
	<node id="-237170" lat="59.4972305556" lon="9.37610832679">
		<tag k="name" v="Store Åsbutjønn" />
		<tag k="natural" v="water" />
		<tag k="ssr:stedsnr" v="165557" />
	</node>
	<node id="-237166" lat="59.3530805535" lon="9.28714166234">
		<tag k="name" v="Nedre Pommertjønn" />
		<tag k="natural" v="water" />
		<tag k="ssr:stedsnr" v="165266" />
	</node>
	<node id="-237159" lat="59.4858833371" lon="9.21721111357">
		<tag k="name" v="Breidstul-bekken" />
		<tag k="ssr:stedsnr" v="165057" />
		<tag k="waterway" v="stream" />
	</node>
	<node id="-237156" lat="59.3838000029" lon="9.33780556392">
		<tag k="name" v="Gvarvar-vika" />
		<tag k="natural" v="bay" />
		<tag k="ssr:stedsnr" v="165026" />
	</node>
	<node id="-237155" lat="59.4106138862" lon="9.30046389024">
		<tag k="name" v="Kopperberget" />
		<tag k="place" v="locality" />
		<tag k="ssr:stedsnr" v="165009" />
	</node>
	<node id="-237148" lat="59.3588222236" lon="9.24641111481">
		<tag k="name" v="Store Tjodholmen" />
		<tag k="place" v="islet" />
		<tag k="ssr:stedsnr" v="164815" />
	</node>
	<node id="-237143" lat="59.5506805543" lon="9.41684166704">
		<tag k="name" v="Rakketjønnfossen" />
		<tag k="natural" v="waterfall" />
		<tag k="ssr:stedsnr" v="164700" />
	</node>
	<node id="-237140" lat="59.5207250019" lon="9.38771389114">
		<tag k="name" v="Postmyr-bekken" />
		<tag k="ssr:stedsnr" v="164616" />
		<tag k="waterway" v="stream" />
	</node>
	<node id="-237139" lat="59.4658638862" lon="9.30333055739">
		<tag k="name" v="Gvannes-bukta" />
		<tag k="natural" v="bay" />
		<tag k="ssr:stedsnr" v="164604" />
	</node>
	<node id="-237138" lat="59.4697888885" lon="9.30200833517">
		<tag k="name" v="Tollefsodden" />
		<tag k="natural" v="cape" />
		<tag k="ssr:stedsnr" v="164601" />
	</node>
	<node id="-237133" lat="59.5156722214" lon="9.41782500661">
		<tag k="name" v="Trytetjønnbekken" />
		<tag k="ssr:stedsnr" v="164440" />
		<tag k="waterway" v="stream" />
	</node>
	<node id="-237132" lat="59.3959555563" lon="9.37905555654">
		<tag k="name" v="Nedre Lauvrostjønn" />
		<tag k="natural" v="water" />
		<tag k="ssr:stedsnr" v="164424" />
	</node>
	<node id="-237129" lat="59.3833888925" lon="9.33286666195">
		<tag k="name" v="Stronka" />
		<tag k="natural" v="beach" />
		<tag k="ssr:stedsnr" v="164277" />
	</node>
	<node id="-237128" lat="59.3829805553" lon="9.32224444864">
		<tag k="name" v="Igletjønnbekken" />
		<tag k="ssr:stedsnr" v="164261" />
		<tag k="waterway" v="stream" />
	</node>
	<node id="-237120" lat="59.4133361125" lon="9.31016944808">
		<tag k="name" v="Guvihaug" />
		<tag k="place" v="locality" />
		<tag k="ssr:stedsnr" v="164111" />
	</node>
	<node id="-237115" lat="59.5181499994" lon="9.33472499345">
		<tag k="alt_name" v="Hjukseåa" />
		<tag k="name" v="Hjukseelva" />
		<tag k="ssr:stedsnr" v="124675" />
		<tag k="waterway" v="river" />
	</node>
	<node id="-237108" lat="59.3495138906" lon="9.28353056218">
		<tag k="alt_name" v="Serketjørn" />
		<tag k="name" v="Vesle Damtjønn" />
		<tag k="natural" v="water" />
		<tag k="ssr:stedsnr" v="123850" />
	</node>
	<node id="-237106" lat="59.3619222178" lon="9.30125278172">
		<tag k="alt_name" v="Ulevatn" />
		<tag k="name" v="Ulavatnet" />
		<tag k="natural" v="water" />
		<tag k="ssr:stedsnr" v="123835" />
	</node>
	<node id="-237105" lat="59.3601499962" lon="9.29682500561">
		<tag k="alt_name" v="Ormtjørn" />
		<tag k="name" v="Ormetjønn" />
		<tag k="natural" v="water" />
		<tag k="ssr:stedsnr" v="123832" />
	</node>
	<node id="-237101" lat="59.3927833327" lon="9.11788888403">
		<tag k="alt_name" v="Damtjørn, l" />
		<tag k="name" v="Vesle Damtjønn" />
		<tag k="natural" v="water" />
		<tag k="ssr:stedsnr" v="123405" />
	</node>
	<node id="-237095" lat="59.4897361152" lon="9.38909166014">
		<tag k="alt_name" v="Sæterdalstjørn" />
		<tag k="name" v="Sæterdalstjønn" />
		<tag k="natural" v="water" />
		<tag k="ssr:stedsnr" v="123067" />
	</node>
	<node id="-237093" lat="59.4706666668" lon="9.41649166157">
		<tag k="name" v="Tonebekkfjorden" />
		<tag k="natural" v="water" />
		<tag k="ssr:stedsnr" v="123020" />
	</node>
	<node id="-237087" lat="59.3775055542" lon="9.23807222493">
		<tag k="name" v="Bratsted-odden" />
		<tag k="natural" v="cape" />
		<tag k="ssr:stedsnr" v="105678" />
	</node>
	<node id="-237085" lat="59.4193111113" lon="9.2225972303">
		<tag k="name" v="Kålstulbekken" />
		<tag k="ssr:stedsnr" v="105632" />
		<tag k="waterway" v="stream" />
	</node>
	<node id="-237080" lat="59.4364361146" lon="9.33504999763">
		<tag k="name" v="Nordagutu vassverk" />
		<tag k="ssr:stedsnr" v="104924" />
		<tag k="waterway" v="dam" />
	</node>
	<node id="-237078" lat="59.3462083376" lon="9.25597222196">
		<tag k="name" v="Sikebukta" />
		<tag k="natural" v="bay" />
		<tag k="ssr:stedsnr" v="104902" />
	</node>
	<node id="-237070" lat="59.5128055595" lon="9.46175555118">
		<tag k="name" v="Tjønnåsbekken" />
		<tag k="ssr:stedsnr" v="104712" />
		<tag k="waterway" v="stream" />
	</node>
	<node id="-237063" lat="59.4401249999" lon="9.30229723019">
		<tag k="name" v="Pilodden" />
		<tag k="natural" v="cape" />
		<tag k="ssr:stedsnr" v="104610" />
	</node>
	<node id="-237057" lat="59.4046694436" lon="9.2323388965">
		<tag k="name" v="Lauvtjønnbekken" />
		<tag k="ssr:stedsnr" v="104502" />
		<tag k="waterway" v="stream" />
	</node>
	<node id="-237055" lat="59.360658331" lon="9.36920000787">
		<tag k="name" v="Hellebardbekken" />
		<tag k="ssr:stedsnr" v="104461" />
		<tag k="waterway" v="stream" />
	</node>
	<node id="-237053" lat="59.4329555578" lon="9.18236666409">
		<tag k="name" v="Damtjønn dam" />
		<tag k="ssr:stedsnr" v="104445" />
		<tag k="waterway" v="dam" />
	</node>
	<node id="-237051" lat="59.4925361097" lon="9.44734445239">
		<tag k="name" v="Kalvetjønnbekken" />
		<tag k="ssr:stedsnr" v="104430" />
		<tag k="waterway" v="stream" />
	</node>
	<node id="-237049" lat="59.4073888892" lon="9.35547778322">
		<tag k="name" v="Børtevassbekken" />
		<tag k="ssr:stedsnr" v="104331" />
		<tag k="waterway" v="stream" />
	</node>
	<node id="-237048" lat="59.4474833302" lon="9.19220832615">
		<tag k="name" v="Månetjønnene" />
		<tag k="natural" v="water" />
		<tag k="ssr:stedsnr" v="104329" />
	</node>
	<node id="-237035" lat="59.4056666711" lon="9.29659722267">
		<tag k="name" v="Nigardsevju" />
		<tag k="place" v="locality" />
		<tag k="ssr:stedsnr" v="104133" />
	</node>
	<node id="-237020" lat="59.3794916707" lon="9.30529443692">
		<tag k="name" v="Trengenbekken" />
		<tag k="ssr:stedsnr" v="103227" />
		<tag k="waterway" v="stream" />
	</node>
	<node id="-237016" lat="59.5503277778" lon="9.44889166811">
		<tag k="alt_name" v="Smørtjørn" />
		<tag k="name" v="Smørtjønn" />
		<tag k="natural" v="water" />
		<tag k="ssr:stedsnr" v="64784" />
	</node>
	<node id="-237012" lat="59.5257472252" lon="9.43962499715">
		<tag k="name" v="Putten" />
		<tag k="natural" v="water" />
		<tag k="ssr:stedsnr" v="64732" />
	</node>
	<node id="-237010" lat="59.5088638915" lon="9.43301945039">
		<tag k="alt_name" v="Kringletjørn" />
		<tag k="name" v="Kringletjønn" />
		<tag k="natural" v="water" />
		<tag k="ssr:stedsnr" v="64721" />
	</node>
	<node id="-237009" lat="59.5033111149" lon="9.4198694522">
		<tag k="alt_name" v="Bråtatjørn" />
		<tag k="name" v="Bråtåtjønn" />
		<tag k="natural" v="water" />
		<tag k="ssr:stedsnr" v="64722" />
	</node>
	<node id="-237008" lat="59.5089749963" lon="9.42730000597">
		<tag k="name" v="Løynfisktjørnene" />
		<tag k="natural" v="water" />
		<tag k="ssr:stedsnr" v="64712" />
	</node>
	<node id="-237001" lat="59.3733277823" lon="9.33360834165">
		<tag k="alt_name" v="Svarttjørn" />
		<tag k="name" v="Svart-tjønn" />
		<tag k="natural" v="water" />
		<tag k="ssr:stedsnr" v="63816" />
	</node>
	<node id="-237000" lat="59.3668758198" lon="9.30220058107">
		<tag k="alt_name" v="Ulavatna, små" />
		<tag k="name" v="Små Ulavatna" />
		<tag k="natural" v="water" />
		<tag k="ssr:stedsnr" v="63814" />
	</node>
	<node id="-236991" lat="59.4789138867" lon="9.26840833489">
		<tag k="alt_name" v="Ljostjørn" />
		<tag k="name" v="Ljostjønn" />
		<tag k="natural" v="water" />
		<tag k="ssr:stedsnr" v="63077" />
	</node>
	<node id="-236990" lat="59.4825888912" lon="9.28380556147">
		<tag k="alt_name" v="Svarttjørn" />
		<tag k="name" v="Svarttjønn" />
		<tag k="natural" v="water" />
		<tag k="ssr:stedsnr" v="63062" />
	</node>
	<node id="-236983" lat="59.384297225" lon="9.26283889352">
		<tag k="name" v="Haukvik-bukta" />
		<tag k="natural" v="bay" />
		<tag k="ssr:stedsnr" v="44590" />
	</node>
	<node id="-236982" lat="59.3841666683" lon="9.25947499906">
		<tag k="name" v="Kråkeholmen" />
		<tag k="natural" v="cape" />
		<tag k="ssr:stedsnr" v="44589" />
	</node>
	<node id="-236975" lat="59.3380305588" lon="9.22274443633">
		<tag k="name" v="Luguvika" />
		<tag k="natural" v="strait" />
		<tag k="ssr:stedsnr" v="44108" />
	</node>
	<node id="-236972" lat="59.4917055577" lon="9.26037222512">
		<tag k="name" v="Hustjønnbekken" />
		<tag k="ssr:stedsnr" v="44067" />
		<tag k="waterway" v="stream" />
	</node>
	<node id="-236966" lat="59.3497472221" lon="9.25985833213">
		<tag k="name" v="Gorrhol-bukta" />
		<tag k="natural" v="bay" />
		<tag k="ssr:stedsnr" v="43918" />
	</node>
	<node id="-236942" lat="59.4326138864" lon="9.181177779">
		<tag k="name" v="Kvitingen" />
		<tag k="natural" v="waterfall" />
		<tag k="ssr:stedsnr" v="43435" />
	</node>
	<node id="-236940" lat="59.513830559" lon="9.48107778229">
		<tag k="name" v="Kjellarfjelltjønn" />
		<tag k="natural" v="water" />
		<tag k="ssr:stedsnr" v="43728" />
	</node>
	<node id="-236938" lat="59.4750472264" lon="9.46066666789">
		<tag k="name" v="Surtetjønnbekken" />
		<tag k="old_name" v="Surfetjønnbekken" />
		<tag k="ssr:stedsnr" v="43478" />
		<tag k="waterway" v="stream" />
	</node>
	<node id="-236937" lat="59.4671499975" lon="9.45150833871">
		<tag k="name" v="Marta" />
		<tag k="place" v="islet" />
		<tag k="ssr:stedsnr" v="43477" />
	</node>
	<node id="-236936" lat="59.4046638904" lon="9.28554721664">
		<tag k="name" v="Hvåla-evju" />
		<tag k="natural" v="bay" />
		<tag k="ssr:stedsnr" v="43467" />
	</node>
	<node id="-236935" lat="59.4031388912" lon="9.28413610415">
		<tag k="name" v="Suigards-evju" />
		<tag k="natural" v="bay" />
		<tag k="ssr:stedsnr" v="43466" />
	</node>
	<node id="-236934" lat="59.5163583372" lon="9.43871111211">
		<tag k="name" v="Taklåsdammen" />
		<tag k="ssr:stedsnr" v="43363" />
		<tag k="waterway" v="dam" />
	</node>
	<node id="-236928" lat="59.4181055535" lon="9.16195556052">
		<tag k="name" v="Dyrudbekken" />
		<tag k="ssr:stedsnr" v="43244" />
		<tag k="waterway" v="stream" />
	</node>
	<node id="-236924" lat="59.509061115" lon="9.42730277324">
		<tag k="name" v="Nordre Løynfisktjønn" />
		<tag k="natural" v="water" />
		<tag k="ssr:stedsnr" v="43326" />
	</node>
	<node id="-236923" lat="59.511816663" lon="9.44074167259">
		<tag k="name" v="Kringleåa" />
		<tag k="ssr:stedsnr" v="43324" />
		<tag k="waterway" v="river" />
	</node>
	<node id="-236921" lat="59.3646777777" lon="9.15498888976">
		<tag k="name" v="Sulukollbekken" />
		<tag k="ssr:stedsnr" v="43171" />
		<tag k="waterway" v="stream" />
	</node>
	<node id="-236919" lat="59.4509000008" lon="9.32372777034">
		<tag k="name" v="Tveitåa" />
		<tag k="ssr:stedsnr" v="43234" />
		<tag k="waterway" v="river" />
	</node>
	<node id="-236918" lat="59.4697499959" lon="9.24110834155">
		<tag k="name" v="Munketjønn-bekken" />
		<tag k="ssr:stedsnr" v="43203" />
		<tag k="waterway" v="stream" />
	</node>
	<node id="-236915" lat="59.4817333308" lon="9.22480555637">
		<tag k="name" v="Svarttjønn-bekken" />
		<tag k="ssr:stedsnr" v="43151" />
		<tag k="waterway" v="stream" />
	</node>
	<node id="-236910" lat="59.5513611086" lon="9.45200000507">
		<tag k="alt_name" v="Primtjørn" />
		<tag k="name" v="Primtjønn" />
		<tag k="natural" v="water" />
		<tag k="ssr:stedsnr" v="3746" />
	</node>
	<node id="-236906" lat="59.5147416688" lon="9.44565556224">
		<tag k="alt_name" v="Taklåstjørn" />
		<tag k="name" v="Taklåstjønn" />
		<tag k="natural" v="water" />
		<tag k="ssr:stedsnr" v="3683" />
	</node>
	<node id="-236903" lat="59.4137805537" lon="9.35553333935">
		<tag k="name" v="Børtevatn" />
		<tag k="natural" v="water" />
		<tag k="ssr:stedsnr" v="2986" />
		<tag k="water" v="lake" />
	</node>
	<node id="-236898" lat="59.3976361068" lon="9.34548611352">
		<tag k="name" v="Rogholttjørn" />
		<tag k="natural" v="water" />
		<tag k="ssr:stedsnr" v="2890" />
	</node>
	<node id="-236894" lat="59.3558861084" lon="9.30854444979">
		<tag k="alt_name" v="Hestetjørn" />
		<tag k="name" v="Hestetjønn" />
		<tag k="natural" v="water" />
		<tag k="ssr:stedsnr" v="2829" />
	</node>
	<node id="-236890" lat="59.4294555535" lon="9.17548055903">
		<tag k="name" v="Kisebekken" />
		<tag k="ssr:stedsnr" v="2428" />
		<tag k="waterway" v="stream" />
	</node>
	<node id="-236879" lat="59.4943111113" lon="9.3062333319">
		<tag k="name" v="Heddalsvatnet" />
		<tag k="natural" v="water" />
		<tag k="ssr:stedsnr" v="2063" />
		<tag k="water" v="lake" />
	</node>
	<node id="-236878" lat="59.4922722267" lon="9.25631111658">
		<tag k="alt_name" v="Hustjørn" />
		<tag k="name" v="Hustjønn" />
		<tag k="natural" v="water" />
		<tag k="ssr:stedsnr" v="2054" />
	</node>
	<node id="-236871" lat="59.4629888862" lon="9.1535638815">
		<tag k="loc_name" v="Solbjørgvatnet" />
		<tag k="name" v="Solbjørvatnet" />
		<tag k="natural" v="water" />
		<tag k="ssr:stedsnr" v="791477" />
		<tag k="water" v="lake" />
	</node>
	<node id="-236842" lat="59.6742999753" lon="7.20371298785">
		<tag k="name" v="Holmavasskilen" />
		<tag k="natural" v="water" />
		<tag k="ssr:stedsnr" v="989113" />
		<tag k="water" v="lake" />
	</node>
	<node id="-236839" lat="59.4641805586" lon="9.31060555376">
		<tag k="name" v="Helsodden" />
		<tag k="natural" v="cape" />
		<tag k="ssr:stedsnr" v="894000" />
	</node>
	<node id="-236834" lat="59.354375984" lon="9.27614245096">
		<tag k="name" v="Dipletjønn" />
		<tag k="natural" v="water" />
		<tag k="ssr:stedsnr" v="893910" />
	</node>
	<node id="-236832" lat="59.4972722208" lon="9.29369166287">
		<tag k="name" v="Haukedalsbukta" />
		<tag k="natural" v="bay" />
		<tag k="ssr:stedsnr" v="893831" />
	</node>
	<node id="-236830" lat="59.3575222221" lon="9.26520833822">
		<tag k="name" v="Stangodd-bekken" />
		<tag k="ssr:stedsnr" v="893806" />
		<tag k="waterway" v="stream" />
	</node>
	<node id="-236829" lat="59.4541916704" lon="9.34993610518">
		<tag k="name" v="Holts-åa" />
		<tag k="ssr:stedsnr" v="893717" />
		<tag k="waterway" v="river" />
	</node>
	<node id="-236825" lat="59.4343555568" lon="9.37721666634">
		<tag k="name" v="Dugurdsfjellbekken" />
		<tag k="ssr:stedsnr" v="893664" />
		<tag k="waterway" v="stream" />
	</node>
	<node id="-236818" lat="59.3800222223" lon="9.27110277604">
		<tag k="name" v="Gjuvs-bekken" />
		<tag k="ssr:stedsnr" v="893576" />
		<tag k="waterway" v="stream" />
	</node>
	<node id="-236816" lat="59.4995888855" lon="9.40104165874">
		<tag k="name" v="Budalstjønn" />
		<tag k="natural" v="water" />
		<tag k="ssr:stedsnr" v="893575" />
	</node>
	<node id="-236811" lat="59.4673083361" lon="9.29461943936">
		<tag k="name" v="Roebekken" />
		<tag k="ssr:stedsnr" v="893526" />
		<tag k="waterway" v="stream" />
	</node>
	<node id="-236809" lat="59.4705555559" lon="9.44565278306">
		<tag k="name" v="Såta" />
		<tag k="place" v="islet" />
		<tag k="ssr:stedsnr" v="893511" />
	</node>
	<node id="-236808" lat="59.4737472188" lon="9.44287500632">
		<tag k="name" v="Stulsbekken" />
		<tag k="ssr:stedsnr" v="893508" />
		<tag k="waterway" v="stream" />
	</node>
	<node id="-236807" lat="59.4742222244" lon="9.43743889031">
		<tag k="name" v="Gvålsbekk" />
		<tag k="ssr:stedsnr" v="893506" />
		<tag k="waterway" v="stream" />
	</node>
	<node id="-236803" lat="59.5157222232" lon="9.41146944588">
		<tag k="name" v="Ølbekk" />
		<tag k="ssr:stedsnr" v="893370" />
		<tag k="waterway" v="stream" />
	</node>
	<node id="-236802" lat="59.5176972259" lon="9.45521666475">
		<tag k="name" v="Godliputten" />
		<tag k="natural" v="water" />
		<tag k="ssr:stedsnr" v="893322" />
		<tag k="water" v="pond" />
	</node>
	<node id="-236798" lat="59.3517833343" lon="9.29320833071">
		<tag k="name" v="Øvre Pommertjønn" />
		<tag k="natural" v="water" />
		<tag k="ssr:stedsnr" v="893280" />
	</node>
	<node id="-236790" lat="59.3822722178" lon="9.14597221588">
		<tag k="name" v="Sagbekken" />
		<tag k="ssr:stedsnr" v="893243" />
		<tag k="waterway" v="stream" />
	</node>
	<node id="-236788" lat="59.4777722183" lon="9.25265555082">
		<tag k="name" v="Bjønnetjønn" />
		<tag k="natural" v="water" />
		<tag k="ssr:stedsnr" v="893211" />
		<tag k="water" v="pond" />
	</node>
	<node id="-236784" lat="59.4843472216" lon="9.27347500401">
		<tag k="name" v="Damtjønn-putten" />
		<tag k="natural" v="water" />
		<tag k="ssr:stedsnr" v="893205" />
		<tag k="water" v="pond" />
	</node>
	<node id="-236782" lat="59.3627944451" lon="9.14079166821">
		<tag k="name" v="Røydalstjønn" />
		<tag k="natural" v="water" />
		<tag k="ssr:stedsnr" v="893196" />
	</node>
	<node id="-236764" lat="59.4975426833" lon="9.4402914465">
		<tag k="name" v="Nordre Damvatn" />
		<tag k="natural" v="water" />
		<tag k="ssr:stedsnr" v="892439" />
		<tag k="water" v="lake" />
	</node>
	<node id="-236763" lat="59.4996305538" lon="9.41315278611">
		<tag k="name" v="Budalsbekken" />
		<tag k="ssr:stedsnr" v="892409" />
		<tag k="waterway" v="stream" />
	</node>
	<node id="-236762" lat="59.3818972208" lon="9.29497777408">
		<tag k="name" v="Kvern-bekken" />
		<tag k="ssr:stedsnr" v="892229" />
		<tag k="waterway" v="stream" />
	</node>
	<node id="-236760" lat="59.386352781" lon="9.26278611309">
		<tag k="name" v="Holme-bukta" />
		<tag k="natural" v="bay" />
		<tag k="ssr:stedsnr" v="408602" />
	</node>
	<node id="-236757" lat="59.4594726083" lon="9.18460233502">
		<tag k="name" v="Ostenatt-tjønn" />
		<tag k="natural" v="water" />
		<tag k="ssr:stedsnr" v="408380" />
	</node>
	<node id="-236755" lat="59.4646166681" lon="9.22275832857">
		<tag k="name" v="Vidsjå-dammen" />
		<tag k="ssr:stedsnr" v="408256" />
		<tag k="waterway" v="dam" />
	</node>
	<node id="-236745" lat="59.3421083349" lon="9.17803055668">
		<tag k="name" v="Vesletjønn" />
		<tag k="natural" v="water" />
		<tag k="ssr:stedsnr" v="408044" />
	</node>
	<node id="-236744" lat="59.4881055545" lon="9.260474993">
		<tag k="name" v="Deiltjønn" />
		<tag k="natural" v="water" />
		<tag k="ssr:stedsnr" v="408031" />
	</node>
	<node id="-236741" lat="59.4659166634" lon="9.34141389215">
		<tag k="name" v="Røyrmyrbekken" />
		<tag k="ssr:stedsnr" v="407992" />
		<tag k="waterway" v="stream" />
	</node>
	<node id="-236740" lat="59.4761055537" lon="9.31777500373">
		<tag k="name" v="Hissebekk" />
		<tag k="ssr:stedsnr" v="407986" />
		<tag k="waterway" v="stream" />
	</node>
	<node id="-236739" lat="59.4709222243" lon="9.31687500882">
		<tag k="name" v="Sandvik" />
		<tag k="natural" v="bay" />
		<tag k="ssr:stedsnr" v="407974" />
	</node>
	<node id="-236732" lat="59.4969277803" lon="9.29015278201">
		<tag k="name" v="Haukedalsbekken" />
		<tag k="ssr:stedsnr" v="407839" />
		<tag k="waterway" v="stream" />
	</node>
	<node id="-236730" lat="59.5010472199" lon="9.32460555191">
		<tag k="name" v="Røstebekken" />
		<tag k="ssr:stedsnr" v="407818" />
		<tag k="waterway" v="stream" />
	</node>
	<node id="-236724" lat="59.5236666669" lon="9.48470000505">
		<tag k="name" v="Holmevassdammen" />
		<tag k="ssr:stedsnr" v="407744" />
		<tag k="waterway" v="dam" />
	</node>
	<node id="-236722" lat="59.4508194433" lon="9.39619444592">
		<tag k="name" v="Svarttjønnbekken" />
		<tag k="ssr:stedsnr" v="407736" />
		<tag k="waterway" v="stream" />
	</node>
	<node id="-236721" lat="59.4305749992" lon="9.39719443882">
		<tag k="name" v="Ellartjønn" />
		<tag k="natural" v="water" />
		<tag k="ssr:stedsnr" v="407728" />
	</node>
	<node id="-236719" lat="59.5438638891" lon="9.44996111255">
		<tag k="name" v="Høgstultjønn" />
		<tag k="natural" v="water" />
		<tag k="ssr:stedsnr" v="407716" />
	</node>
	<node id="-236716" lat="59.5417972249" lon="9.4072527704">
		<tag k="name" v="Astridåfossen" />
		<tag k="natural" v="waterfall" />
		<tag k="ssr:stedsnr" v="407709" />
	</node>
	<node id="-236713" lat="59.530949998" lon="9.5056138905">
		<tag k="name" v="Bufinnbekken" />
		<tag k="ssr:stedsnr" v="407697" />
		<tag k="waterway" v="stream" />
	</node>
	<node id="-236711" lat="59.5409177842" lon="9.50512377584">
		<tag k="name" v="Elgstjønnene" />
		<tag k="natural" v="water" />
		<tag k="ssr:stedsnr" v="407694" />
	</node>
	<node id="-236704" lat="59.4694472238" lon="9.30439722072">
		<tag k="name" v="Vesle Kråka" />
		<tag k="place" v="islet" />
		<tag k="ssr:stedsnr" v="407578" />
	</node>
	<node id="-236703" lat="59.4683444414" lon="9.44364166685">
		<tag k="name" v="Repsund" />
		<tag k="natural" v="strait" />
		<tag k="ssr:stedsnr" v="407548" />
	</node>
	<node id="-236700" lat="59.4710055582" lon="9.44095555035">
		<tag k="name" v="Flisholmen" />
		<tag k="place" v="islet" />
		<tag k="ssr:stedsnr" v="407528" />
	</node>
	<node id="-236699" lat="59.4717444463" lon="9.43408055657">
		<tag k="name" v="Sauebekken" />
		<tag k="ssr:stedsnr" v="407526" />
		<tag k="waterway" v="stream" />
	</node>
	<node id="-236698" lat="59.3995027791" lon="9.27528889407">
		<tag k="name" v="Kald-evju" />
		<tag k="natural" v="bay" />
		<tag k="ssr:stedsnr" v="407524" />
	</node>
	<node id="-236697" lat="59.4679944469" lon="9.43706943806">
		<tag k="name" v="Sponliodden" />
		<tag k="natural" v="cape" />
		<tag k="ssr:stedsnr" v="407522" />
	</node>
	<node id="-236693" lat="59.4892361081" lon="9.43119721717">
		<tag k="name" v="Svart-tjønn" />
		<tag k="natural" v="water" />
		<tag k="ssr:stedsnr" v="407480" />
	</node>
	<node id="-236692" lat="59.497997222" lon="9.44352500447">
		<tag k="name" v="Mjågesund" />
		<tag k="natural" v="strait" />
		<tag k="ssr:stedsnr" v="407478" />
	</node>
	<node id="-236690" lat="59.3790444455" lon="9.3463111172">
		<tag k="name" v="Smalsund" />
		<tag k="natural" v="strait" />
		<tag k="ssr:stedsnr" v="407379" />
	</node>
	<node id="-236689" lat="59.4040305597" lon="9.34701666853">
		<tag k="name" v="Ådalsåa" />
		<tag k="ssr:stedsnr" v="407368" />
		<tag k="waterway" v="stream" />
	</node>
	<node id="-236687" lat="59.4458805571" lon="9.21464722503">
		<tag k="name" v="Heståsbekken" />
		<tag k="ssr:stedsnr" v="407348" />
		<tag k="waterway" v="stream" />
	</node>
	<node id="-236683" lat="59.3452416639" lon="9.29762223082">
		<tag k="name" v="Gravtjønn" />
		<tag k="natural" v="water" />
		<tag k="ssr:stedsnr" v="407306" />
	</node>
	<node id="-236680" lat="59.4550555598" lon="9.30721667481">
		<tag k="name" v="Klevar-bukta" />
		<tag k="natural" v="bay" />
		<tag k="ssr:stedsnr" v="407277" />
	</node>
	<node id="-236670" lat="59.405308331" lon="9.29107778524">
		<tag k="name" v="Suigardsevju" />
		<tag k="place" v="locality" />
		<tag k="ssr:stedsnr" v="407142" />
	</node>
	<node id="-236657" lat="59.4134749989" lon="9.24117499837">
		<tag k="name" v="Åstjørn" />
		<tag k="natural" v="water" />
		<tag k="ssr:stedsnr" v="366988" />
	</node>
	<node id="-236650" lat="59.3761194441" lon="9.30106943719">
		<tag k="alt_name" v="Bånntjørn" />
		<tag k="name" v="Bånetjønn" />
		<tag k="natural" v="water" />
		<tag k="ssr:stedsnr" v="366917" />
	</node>
	<node id="-236641" lat="59.4543055556" lon="9.15172499464">
		<tag k="alt_name" v="Skardsdalstjørna" />
		<tag k="name" v="Skarsdalstjønna" />
		<tag k="natural" v="water" />
		<tag k="ssr:stedsnr" v="366459" />
	</node>
	<node id="-236636" lat="59.3814944442" lon="9.18697223098">
		<tag k="alt_name" v="Gvarv-elva" />
		<tag k="name" v="Gvarvelva" />
		<tag k="ssr:stedsnr" v="366324" />
		<tag k="waterway" v="river" />
	</node>
	<node id="-236633" lat="59.4918861138" lon="9.41618610403">
		<tag k="alt_name" v="Vetrhustjørn" />
		<tag k="name" v="Vetrhustjønn" />
		<tag k="natural" v="water" />
		<tag k="ssr:stedsnr" v="366072" />
	</node>
	<node id="-236624" lat="59.4944222254" lon="9.33088332669">
		<tag k="name" v="Slettabekken" />
		<tag k="ssr:stedsnr" v="347805" />
		<tag k="waterway" v="stream" />
	</node>
	<node id="-236613" lat="59.4578138909" lon="9.18943889756">
		<tag k="name" v="Blekktjønn" />
		<tag k="natural" v="water" />
		<tag k="ssr:stedsnr" v="347348" />
	</node>
	<node id="-236612" lat="59.4569833368" lon="9.22608055399">
		<tag k="name" v="Versmustjønn" />
		<tag k="natural" v="water" />
		<tag k="ssr:stedsnr" v="347339" />
	</node>
	<node id="-236611" lat="59.4423333309" lon="9.18136944464">
		<tag k="name" v="Nedre Dipilen" />
		<tag k="natural" v="water" />
		<tag k="ssr:stedsnr" v="347337" />
	</node>
	<node id="-236610" lat="59.4433166646" lon="9.18188611698">
		<tag k="name" v="Øvre Dipilen" />
		<tag k="natural" v="water" />
		<tag k="ssr:stedsnr" v="347335" />
	</node>
	<node id="-236609" lat="59.4445583377" lon="9.17884722735">
		<tag k="name" v="Tveitvass-dammen" />
		<tag k="ssr:stedsnr" v="347336" />
		<tag k="waterway" v="dam" />
	</node>
	<node id="-236606" lat="59.3410638867" lon="9.28666666577">
		<tag k="name" v="Strævbekken" />
		<tag k="ssr:stedsnr" v="347265" />
		<tag k="waterway" v="stream" />
	</node>
	<node id="-236601" lat="59.4077500007" lon="9.29246110968">
		<tag k="name" v="Sagevju" />
		<tag k="place" v="locality" />
		<tag k="ssr:stedsnr" v="347134" />
	</node>
	<node id="-236598" lat="59.329983331" lon="9.19363055384">
		<tag k="name" v="Storlibekken" />
		<tag k="ssr:stedsnr" v="347120" />
		<tag k="waterway" v="stream" />
	</node>
	<node id="-236592" lat="59.4962833316" lon="9.20945277038">
		<tag k="name" v="Blomtjønnbekken" />
		<tag k="ssr:stedsnr" v="347052" />
		<tag k="waterway" v="stream" />
	</node>
	<node id="-236588" lat="59.3430666705" lon="9.20452222873">
		<tag k="name" v="Åråsbekken" />
		<tag k="ssr:stedsnr" v="347039" />
		<tag k="waterway" v="stream" />
	</node>
	<node id="-236585" lat="59.4597666686" lon="9.29487777366">
		<tag k="name" v="Børs-bekken" />
		<tag k="ssr:stedsnr" v="347004" />
		<tag k="waterway" v="stream" />
	</node>
	<node id="-236553" lat="59.4666305541" lon="9.43358888259">
		<tag k="name" v="Vassausa" />
		<tag k="place" v="islet" />
		<tag k="ssr:stedsnr" v="346509" />
	</node>
	<node id="-236546" lat="59.4750861074" lon="9.41542778334">
		<tag k="name" v="Tonebekk" />
		<tag k="ssr:stedsnr" v="346437" />
		<tag k="waterway" v="stream" />
	</node>
	<node id="-236545" lat="59.4620138927" lon="9.42265000124">
		<tag k="name" v="Prestebukta" />
		<tag k="natural" v="bay" />
		<tag k="ssr:stedsnr" v="346431" />
	</node>
	<node id="-236544" lat="59.5149333302" lon="9.45168334198">
		<tag k="name" v="Tjønnås-landet" />
		<tag k="natural" v="beach" />
		<tag k="ssr:stedsnr" v="346332" />
	</node>
	<node id="-236532" lat="59.4579916685" lon="9.25197500014">
		<tag k="name" v="Strikine" />
		<tag k="ssr:stedsnr" v="346142" />
		<tag k="waterway" v="river" />
	</node>
	<node id="-236531" lat="59.4547694456" lon="9.25194721764">
		<tag k="name" v="Ølbekk" />
		<tag k="ssr:stedsnr" v="346139" />
		<tag k="waterway" v="stream" />
	</node>
	<node id="-236528" lat="59.4919500015" lon="9.303541666">
		<tag k="name" v="Deilodden" />
		<tag k="natural" v="cape" />
		<tag k="ssr:stedsnr" v="346091" />
	</node>
	<node id="-236520" lat="59.4572972249" lon="9.20466111989">
		<tag k="alt_name" v="Svartetjørn" />
		<tag k="name" v="Svarttjønn" />
		<tag k="natural" v="water" />
		<tag k="ssr:stedsnr" v="306457" />
	</node>
	<node id="-236514" lat="59.4813611069" lon="9.46602778404">
		<tag k="name" v="Surtetjørn" />
		<tag k="natural" v="water" />
		<tag k="ssr:stedsnr" v="306044" />
	</node>
	<node id="-236506" lat="59.4970916641" lon="9.20774167392">
		<tag k="alt_name" v="Blomtjørn, store" />
		<tag k="name" v="Store Blomtjønn" />
		<tag k="natural" v="water" />
		<tag k="ssr:stedsnr" v="305629" />
	</node>
	<node id="-236492" lat="59.4145416689" lon="9.20178333808">
		<tag k="name" v="Skreabekken" />
		<tag k="ssr:stedsnr" v="44626" />
		<tag k="waterway" v="stream" />
	</node>
	<node id="-236479" lat="59.4217972226" lon="9.3018388924">
		<tag k="name" v="Kastdalsbekken" />
		<tag k="ssr:stedsnr" v="286961" />
		<tag k="waterway" v="stream" />
	</node>
	<node id="-236475" lat="59.354372223" lon="9.25695277953">
		<tag k="name" v="Stangoddbukta" />
		<tag k="natural" v="bay" />
		<tag k="ssr:stedsnr" v="286921" />
	</node>
	<node id="-236469" lat="59.5374083306" lon="9.46114167175">
		<tag k="name" v="Monsvasskilen" />
		<tag k="natural" v="strait" />
		<tag k="ssr:stedsnr" v="286676" />
	</node>
	<node id="-236468" lat="59.550816668" lon="9.42018889213">
		<tag k="name" v="Drevdalsåa" />
		<tag k="ssr:stedsnr" v="286671" />
		<tag k="waterway" v="river" />
	</node>
	<node id="-236465" lat="59.495036109" lon="9.38859721608">
		<tag k="name" v="Heimdalsbekken" />
		<tag k="ssr:stedsnr" v="286623" />
		<tag k="waterway" v="stream" />
	</node>
	<node id="-236462" lat="59.5039999973" lon="9.39624444468">
		<tag k="name" v="Vesle Trytetjønn" />
		<tag k="natural" v="water" />
		<tag k="ssr:stedsnr" v="286604" />
	</node>
	<node id="-236460" lat="59.4667694471" lon="9.36558611482">
		<tag k="name" v="Åbakk-åa" />
		<tag k="ssr:stedsnr" v="286593" />
		<tag k="waterway" v="stream" />
	</node>
	<node id="-236459" lat="59.4876666644" lon="9.35251110594">
		<tag k="name" v="Spinndalsbekken" />
		<tag k="ssr:stedsnr" v="286592" />
		<tag k="waterway" v="stream" />
	</node>
	<node id="-236453" lat="59.4135472229" lon="9.24085555988">
		<tag k="name" v="Åstjønn" />
		<tag k="natural" v="water" />
		<tag k="ssr:stedsnr" v="286510" />
	</node>
	<node id="-236450" lat="59.4739083289" lon="9.45180833074">
		<tag k="name" v="Olavsbekk" />
		<tag k="ssr:stedsnr" v="286502" />
		<tag k="waterway" v="stream" />
	</node>
	<node id="-236449" lat="59.471980558" lon="9.43234166402">
		<tag k="name" v="Sauetjønn" />
		<tag k="natural" v="water" />
		<tag k="ssr:stedsnr" v="286492" />
	</node>
	<node id="-236448" lat="59.4662999998" lon="9.41062500023">
		<tag k="name" v="Hålåtjønn-bekken" />
		<tag k="ssr:stedsnr" v="286490" />
		<tag k="waterway" v="stream" />
	</node>
	<node id="-236445" lat="59.495175003" lon="9.44183055709">
		<tag k="name" v="Nordre Mjågesundvatn" />
		<tag k="natural" v="water" />
		<tag k="ssr:stedsnr" v="286442" />
		<tag k="water" v="lake" />
	</node>
	<node id="-236443" lat="59.4723805543" lon="9.41591110416">
		<tag k="name" v="Tonebekkevju" />
		<tag k="place" v="locality" />
		<tag k="ssr:stedsnr" v="286413" />
	</node>
	<node id="-236433" lat="59.4203972228" lon="9.15850277002">
		<tag k="name" v="Kisfoss" />
		<tag k="natural" v="waterfall" />
		<tag k="ssr:stedsnr" v="286261" />
	</node>
	<node id="-236432" lat="59.4693888869" lon="9.21481388889">
		<tag k="name" v="Grånmåså-bekken" />
		<tag k="ssr:stedsnr" v="286244" />
		<tag k="waterway" v="stream" />
	</node>
	<node id="-236431" lat="59.4764972222" lon="9.2166833252">
		<tag k="name" v="Kåmmår-bekken" />
		<tag k="ssr:stedsnr" v="286239" />
		<tag k="waterway" v="stream" />
	</node>
	<node id="-236430" lat="59.4762472232" lon="9.22184721647">
		<tag k="name" v="Stuls-bekken" />
		<tag k="ssr:stedsnr" v="286238" />
		<tag k="waterway" v="stream" />
	</node>
	<node id="-236427" lat="59.4618694424" lon="9.25621945013">
		<tag k="name" v="Fossenn" />
		<tag k="natural" v="waterfall" />
		<tag k="ssr:stedsnr" v="286182" />
	</node>
	<node id="-236424" lat="59.5115388898" lon="9.33261388156">
		<tag k="name" v="Snippebekken" />
		<tag k="ssr:stedsnr" v="286134" />
		<tag k="waterway" v="stream" />
	</node>
	<node id="-236421" lat="59.5106055536" lon="9.3288805632">
		<tag k="name" v="Haugsbekken" />
		<tag k="ssr:stedsnr" v="286080" />
		<tag k="waterway" v="stream" />
	</node>
	<node id="-236419" lat="59.4622416689" lon="9.29386667169">
		<tag k="name" v="Klevaråa" />
		<tag k="ssr:stedsnr" v="286007" />
		<tag k="waterway" v="river" />
	</node>
	<node id="-238229" lat="59.4096250044" lon="9.2900472267">
		<tag k="name" v="Sauar-åa" />
		<tag k="ssr:stedsnr" v="954902" />
		<tag k="waterway" v="river" />
	</node>
	<node id="-238224" lat="59.458933333" lon="9.1720777771">
		<tag k="name" v="Nordre Tveitvatnet" />
		<tag k="natural" v="water" />
		<tag k="ssr:stedsnr" v="954662" />
		<tag k="water" v="lake" />
	</node>
	<node id="-238220" lat="59.4887916686" lon="9.3484666601">
		<tag k="name" v="Slettabekken" />
		<tag k="ssr:stedsnr" v="954569" />
		<tag k="waterway" v="stream" />
	</node>
	<node id="-238218" lat="59.5030749956" lon="9.3854111158">
		<tag k="name" v="Åsmundstein-putten" />
		<tag k="natural" v="water" />
		<tag k="ssr:stedsnr" v="954566" />
		<tag k="water" v="pond" />
	</node>
	<node id="-238217" lat="59.5009055556" lon="9.3851138935">
		<tag k="name" v="Åsmundstein-bekken" />
		<tag k="ssr:stedsnr" v="954565" />
		<tag k="waterway" v="stream" />
	</node>
	<node id="-238214" lat="59.4012361144" lon="9.21926389234">
		<tag k="name" v="Holtanbekken" />
		<tag k="ssr:stedsnr" v="954443" />
		<tag k="waterway" v="stream" />
	</node>
	<node id="-238211" lat="59.3566777815" lon="9.32460000853">
		<tag k="name" v="Morgotjønn" />
		<tag k="natural" v="water" />
		<tag k="ssr:stedsnr" v="954253" />
	</node>
	<node id="-238209" lat="59.4772361152" lon="9.2641833421">
		<tag k="name" v="Stampe-åa" />
		<tag k="ssr:stedsnr" v="954194" />
		<tag k="waterway" v="stream" />
	</node>
	<node id="-238201" lat="59.4692861076" lon="9.29927777156">
		<tag k="name" v="Dålåbekken" />
		<tag k="ssr:stedsnr" v="953981" />
		<tag k="waterway" v="stream" />
	</node>
	<node id="-238197" lat="59.4909388871" lon="9.29412221911">
		<tag k="name" v="Hyttekåsbekken" />
		<tag k="old_name" v="Hyttekåsbekkken" />
		<tag k="ssr:stedsnr" v="953841" />
		<tag k="waterway" v="stream" />
	</node>
	<node id="-238195" lat="59.4846138877" lon="9.31165555421">
		<tag k="name" v="Tjuvodden" />
		<tag k="natural" v="cape" />
		<tag k="ssr:stedsnr" v="953835" />
	</node>
	<node id="-238193" lat="59.5179418717" lon="9.46458165302">
		<tag k="name" v="Killingdaltjønnene" />
		<tag k="natural" v="water" />
		<tag k="ssr:stedsnr" v="953733" />
	</node>
	<node id="-238184" lat="59.4670083346" lon="9.44797499638">
		<tag k="name" v="Damholmen" />
		<tag k="place" v="islet" />
		<tag k="ssr:stedsnr" v="953565" />
	</node>
	<node id="-238181" lat="59.464463889" lon="9.4317916693">
		<tag k="name" v="Krøkla" />
		<tag k="place" v="islet" />
		<tag k="ssr:stedsnr" v="953534" />
	</node>
	<node id="-238180" lat="59.4674527756" lon="9.43408888921">
		<tag k="name" v="Fløyte-odden" />
		<tag k="natural" v="cape" />
		<tag k="ssr:stedsnr" v="953532" />
	</node>
	<node id="-238177" lat="59.470383329" lon="9.41867221687">
		<tag k="name" v="Tonebekk-holmen" />
		<tag k="place" v="islet" />
		<tag k="ssr:stedsnr" v="953440" />
	</node>
	<node id="-238176" lat="59.4795944471" lon="9.40944166731">
		<tag k="name" v="Damtjønn-bekken" />
		<tag k="ssr:stedsnr" v="953439" />
		<tag k="waterway" v="stream" />
	</node>
	<node id="-238175" lat="59.5200611087" lon="9.42119167252">
		<tag k="name" v="Kjølbubekken" />
		<tag k="ssr:stedsnr" v="953407" />
		<tag k="waterway" v="stream" />
	</node>
	<node id="-238174" lat="59.5260388919" lon="9.43959444869">
		<tag k="name" v="Vesle Taklåstjønn" />
		<tag k="natural" v="water" />
		<tag k="ssr:stedsnr" v="953402" />
	</node>
	<node id="-238168" lat="59.4423861068" lon="9.23998055294">
		<tag k="name" v="Svarttjønn-bekken" />
		<tag k="ssr:stedsnr" v="953199" />
		<tag k="waterway" v="stream" />
	</node>
	<node id="-238156" lat="59.5326333316" lon="9.43421388623">
		<tag k="alt_name" v="Morttjørn" />
		<tag k="name" v="Murtetjønn" />
		<tag k="natural" v="water" />
		<tag k="ssr:stedsnr" v="913725" />
	</node>
	<node id="-238140" lat="59.3554111146" lon="9.25532500091">
		<tag k="name" v="Stangodden" />
		<tag k="natural" v="cape" />
		<tag k="ssr:stedsnr" v="912849" />
	</node>
	<node id="-238135" lat="59.5515277758" lon="9.46671943688">
		<tag k="alt_name" v="Springkåttjørn" />
		<tag k="name" v="Springkåttjønna" />
		<tag k="natural" v="water" />
		<tag k="ssr:stedsnr" v="853755" />
	</node>
	<node id="-238134" lat="59.5082277734" lon="9.40347221621">
		<tag k="name" v="Tryttjørnene" />
		<tag k="natural" v="water" />
		<tag k="ssr:stedsnr" v="853705" />
	</node>
	<node id="-238130" lat="59.4170416629" lon="9.23777221429">
		<tag k="alt_name" v="Stulstjørn" />
		<tag k="name" v="Stulstjønn" />
		<tag k="natural" v="water" />
		<tag k="ssr:stedsnr" v="852995" />
	</node>
	<node id="-238128" lat="59.4113527784" lon="9.2360277833">
		<tag k="alt_name" v="Lauvtjørn" />
		<tag k="name" v="Lauvtjønn" />
		<tag k="natural" v="water" />
		<tag k="ssr:stedsnr" v="852993" />
	</node>
	<node id="-238123" lat="59.3770750015" lon="9.3766749964">
		<tag k="alt_name" v="Mordatjørn" />
		<tag k="name" v="Mordatjønn" />
		<tag k="natural" v="water" />
		<tag k="ssr:stedsnr" v="852914" />
	</node>
	<node id="-238120" lat="59.3451361111" lon="9.24236111814">
		<tag k="alt_name" v="Skåråflesk" />
		<tag k="name" v="Skåraflesk" />
		<tag k="place" v="islet" />
		<tag k="ssr:stedsnr" v="852829" />
	</node>
	<node id="-238118" lat="59.3526426004" lon="9.28840614365">
		<tag k="name" v="Pommertjørnane" />
		<tag k="natural" v="water" />
		<tag k="ssr:stedsnr" v="852816" />
	</node>
	<node id="-238105" lat="59.4694472239" lon="9.39475555165">
		<tag k="alt_name" v="Damtjørn, store" />
		<tag k="name" v="Store Damtjønn" />
		<tag k="natural" v="water" />
		<tag k="ssr:stedsnr" v="852025" />
	</node>
	<node id="-238095" lat="59.4689749956" lon="9.34898054776">
		<tag k="name" v="Rørmyrbekken" />
		<tag k="ssr:stedsnr" v="833631" />
		<tag k="waterway" v="stream" />
	</node>
	<node id="-238093" lat="59.3871138857" lon="9.27387500541">
		<tag k="name" v="Kvernbekken" />
		<tag k="ssr:stedsnr" v="833597" />
		<tag k="waterway" v="stream" />
	</node>
	<node id="-238089" lat="59.4013888883" lon="9.20907500282">
		<tag k="name" v="Stampeura" />
		<tag k="natural" v="waterfall" />
		<tag k="ssr:stedsnr" v="833447" />
	</node>
	<node id="-238079" lat="59.4906111151" lon="9.28424721965">
		<tag k="name" v="Søndre Haukedalsbekken" />
		<tag k="ssr:stedsnr" v="833034" />
		<tag k="waterway" v="stream" />
	</node>
	<node id="-238077" lat="59.490252781" lon="9.26446667045">
		<tag k="name" v="Bjørndals-åa" />
		<tag k="ssr:stedsnr" v="833029" />
		<tag k="waterway" v="stream" />
	</node>
	<node id="-238067" lat="59.3561888849" lon="9.25504722005">
		<tag k="name" v="Stange-odden" />
		<tag k="natural" v="cape" />
		<tag k="ssr:stedsnr" v="832788" />
	</node>
	<node id="-238064" lat="59.4538027758" lon="9.40268333952">
		<tag k="name" v="Røysefjellbekken" />
		<tag k="ssr:stedsnr" v="832720" />
		<tag k="waterway" v="stream" />
	</node>
	<node id="-238052" lat="59.4750972208" lon="9.45346944245">
		<tag k="name" v="Jansenbekk" />
		<tag k="ssr:stedsnr" v="832534" />
		<tag k="waterway" v="stream" />
	</node>
	<node id="-238049" lat="59.4226277774" lon="9.22072223062">
		<tag k="name" v="Ringstulbekken" />
		<tag k="ssr:stedsnr" v="832484" />
		<tag k="waterway" v="stream" />
	</node>
	<node id="-238048" lat="59.4996361139" lon="9.43748334115">
		<tag k="name" v="Fjellvassdammen" />
		<tag k="ssr:stedsnr" v="832476" />
		<tag k="waterway" v="dam" />
	</node>
	<node id="-238046" lat="59.4442027778" lon="9.21148611641">
		<tag k="name" v="Gullnåsbekken" />
		<tag k="ssr:stedsnr" v="832358" />
		<tag k="waterway" v="stream" />
	</node>
	<node id="-238035" lat="59.4574333361" lon="9.23559722677">
		<tag k="name" v="Klevaråa" />
		<tag k="ssr:stedsnr" v="832153" />
		<tag k="waterway" v="river" />
	</node>
	<node id="-238014" lat="59.3847722187" lon="9.25942500434">
		<tag k="name" v="Kråkaholmen" />
		<tag k="place" v="islet" />
		<tag k="ssr:stedsnr" v="791908" />
	</node>
	<node id="-238008" lat="59.3470138899" lon="9.28293888863">
		<tag k="alt_name" v="Damtjørn" />
		<tag k="name" v="Damtjønn" />
		<tag k="natural" v="water" />
		<tag k="ssr:stedsnr" v="791853" />
	</node>
	<node id="-238006" lat="59.4720111134" lon="9.21771944559">
		<tag k="alt_name" v="Vidsjå" />
		<tag k="name" v="Visjå" />
		<tag k="natural" v="water" />
		<tag k="ssr:stedsnr" v="791453" />
		<tag k="water" v="lake" />
	</node>
	<node id="-237995" lat="59.4988138893" lon="9.40838056111">
		<tag k="alt_name" v="Budalstjørn" />
		<tag k="name" v="Budalstjønn" />
		<tag k="natural" v="water" />
		<tag k="ssr:stedsnr" v="791082" />
	</node>
	<node id="-237994" lat="59.4906944486" lon="9.46606943956">
		<tag k="alt_name" v="Deilstjørn" />
		<tag k="name" v="Deiltjønn" />
		<tag k="natural" v="water" />
		<tag k="ssr:stedsnr" v="791060" />
	</node>
	<node id="-237990" lat="59.3971027802" lon="9.23218888484">
		<tag k="name" v="Lauvtjønn-bekken" />
		<tag k="ssr:stedsnr" v="772672" />
		<tag k="waterway" v="stream" />
	</node>
	<node id="-237987" lat="59.4395972265" lon="9.30857499978">
		<tag k="name" v="Moneberg-odden" />
		<tag k="natural" v="cape" />
		<tag k="ssr:stedsnr" v="772620" />
	</node>
	<node id="-237976" lat="59.487111108" lon="9.2159000024">
		<tag k="name" v="Breidstul-fossen" />
		<tag k="natural" v="waterfall" />
		<tag k="ssr:stedsnr" v="772056" />
	</node>
	<node id="-237975" lat="59.4898666692" lon="9.25492499485">
		<tag k="name" v="Hustjønnløken" />
		<tag k="natural" v="water" />
		<tag k="ssr:stedsnr" v="772042" />
		<tag k="water" v="lake" />
	</node>
	<node id="-237966" lat="59.4878055526" lon="9.30586389341">
		<tag k="name" v="Ulebergs-Fiskodden" />
		<tag k="natural" v="cape" />
		<tag k="ssr:stedsnr" v="771839" />
	</node>
	<node id="-237962" lat="59.4566666693" lon="9.35889443695">
		<tag k="name" v="Åbakk-åa" />
		<tag k="ssr:stedsnr" v="771750" />
		<tag k="waterway" v="stream" />
	</node>
	<node id="-237958" lat="59.5386444406" lon="9.4381305472">
		<tag k="name" v="Kringletjønn" />
		<tag k="natural" v="water" />
		<tag k="ssr:stedsnr" v="771695" />
	</node>
	<node id="-237957" lat="59.5337916643" lon="9.44001110777">
		<tag k="name" v="Monsvassbekken" />
		<tag k="ssr:stedsnr" v="771693" />
		<tag k="waterway" v="stream" />
	</node>
	<node id="-237956" lat="59.5477444483" lon="9.45071944793">
		<tag k="name" v="Berrfittjønn" />
		<tag k="natural" v="water" />
		<tag k="ssr:stedsnr" v="771692" />
	</node>
	<node id="-237948" lat="59.5514166674" lon="9.448288893">
		<tag k="name" v="Ostetjønn" />
		<tag k="natural" v="water" />
		<tag k="ssr:stedsnr" v="771649" />
	</node>
	<node id="-237937" lat="59.4247305581" lon="9.27341111904">
		<tag k="name" v="Sauar-åa" />
		<tag k="ssr:stedsnr" v="771479" />
		<tag k="waterway" v="river" />
	</node>
	<node id="-237929" lat="59.3795027808" lon="9.12472777119">
		<tag k="name" v="Vesle Ljosvatn" />
		<tag k="natural" v="water" />
		<tag k="ssr:stedsnr" v="771259" />
	</node>
	<node id="-237928" lat="59.4473583349" lon="9.33440278066">
		<tag k="name" v="Sjåværbekken" />
		<tag k="ssr:stedsnr" v="771251" />
		<tag k="waterway" v="stream" />
	</node>
	<node id="-237924" lat="59.4027611079" lon="9.307611103">
		<tag k="name" v="Lauvheim" />
		<tag k="place" v="locality" />
		<tag k="ssr:stedsnr" v="771123" />
	</node>
	<node id="-237916" lat="59.500861115" lon="9.41645832972">
		<tag k="name" v="Skaverøy-putten" />
		<tag k="natural" v="water" />
		<tag k="ssr:stedsnr" v="770396" />
		<tag k="water" v="pond" />
	</node>
	<node id="-237902" lat="59.384408329" lon="9.31191945006">
		<tag k="alt_name" v="Igletjørn" />
		<tag k="name" v="Igletjønn" />
		<tag k="natural" v="water" />
		<tag k="ssr:stedsnr" v="730916" />
	</node>
	<node id="-237900" lat="59.3622948271" lon="9.28533570449">
		<tag k="alt_name" v="Høljerstjørn" />
		<tag k="name" v="Høljerstjønn" />
		<tag k="natural" v="water" />
		<tag k="ssr:stedsnr" v="730848" />
	</node>
	<node id="-237899" lat="59.4550527757" lon="9.18487221727">
		<tag k="alt_name" v="Store Gullnåstjønn" />
		<tag k="name" v="Gulnostjørnane" />
		<tag k="natural" v="water" />
		<tag k="ssr:stedsnr" v="730462" />
	</node>
	<node id="-237897" lat="59.3743305512" lon="9.18471667541">
		<tag k="name" v="Årnesbukta" />
		<tag k="natural" v="bay" />
		<tag k="ssr:stedsnr" v="730297" />
	</node>
	<node id="-237889" lat="59.5266249958" lon="9.39942221784">
		<tag k="name" v="Taklåselva" />
		<tag k="ssr:stedsnr" v="731696" />
		<tag k="waterway" v="river" />
	</node>
	<node id="-237887" lat="59.3914722231" lon="9.2310277833">
		<tag k="name" v="Holtan-bekken" />
		<tag k="ssr:stedsnr" v="712654" />
		<tag k="waterway" v="stream" />
	</node>
	<node id="-237879" lat="59.4545583312" lon="9.39180832755">
		<tag k="name" v="Holtstjønnbekken" />
		<tag k="ssr:stedsnr" v="711730" />
		<tag k="waterway" v="stream" />
	</node>
	<node id="-237876" lat="59.4191888876" lon="9.18176111873">
		<tag k="name" v="Dyrudbekken" />
		<tag k="ssr:stedsnr" v="711623" />
		<tag k="waterway" v="stream" />
	</node>
	<node id="-237869" lat="59.4763111089" lon="9.37531944066">
		<tag k="name" v="Kikja-fossen" />
		<tag k="natural" v="waterfall" />
		<tag k="ssr:stedsnr" v="711575" />
	</node>
	<node id="-237868" lat="59.4783444404" lon="9.38289721963">
		<tag k="name" v="Damtjønnbekken" />
		<tag k="ssr:stedsnr" v="711573" />
		<tag k="waterway" v="stream" />
	</node>
	<node id="-237864" lat="59.4349722203" lon="9.34272777373">
		<tag k="name" v="Gvåla-åa" />
		<tag k="ssr:stedsnr" v="711497" />
		<tag k="waterway" v="stream" />
	</node>
	<node id="-237862" lat="59.4679305536" lon="9.40772777752">
		<tag k="name" v="Hålåtjønnene" />
		<tag k="natural" v="water" />
		<tag k="ssr:stedsnr" v="711471" />
	</node>
	<node id="-237851" lat="59.4663944435" lon="9.22153334036">
		<tag k="name" v="Vidsjå-stubben" />
		<tag k="natural" v="bay" />
		<tag k="ssr:stedsnr" v="711258" />
	</node>
	<node id="-237847" lat="59.3646083322" lon="9.16981388959">
		<tag k="name" v="Kvennebekken" />
		<tag k="ssr:stedsnr" v="711193" />
		<tag k="waterway" v="stream" />
	</node>
	<node id="-237846" lat="59.484352775" lon="9.20063889171">
		<tag k="name" v="Mjågetjønn-dammen" />
		<tag k="ssr:stedsnr" v="711177" />
		<tag k="waterway" v="dam" />
	</node>
	<node id="-237844" lat="59.4763416622" lon="9.18516666817">
		<tag k="name" v="Kalvetjønn" />
		<tag k="natural" v="water" />
		<tag k="ssr:stedsnr" v="711170" />
	</node>
	<node id="-237838" lat="59.4879805531" lon="9.20046110656">
		<tag k="name" v="Jensestjønn" />
		<tag k="natural" v="water" />
		<tag k="ssr:stedsnr" v="711071" />
	</node>
	<node id="-237834" lat="59.393994446" lon="9.32214445064">
		<tag k="name" v="Åsdalsåa" />
		<tag k="ssr:stedsnr" v="711024" />
		<tag k="waterway" v="river" />
	</node>
	<node id="-237830" lat="59.4955166628" lon="9.29168610437">
		<tag k="name" v="Søndre Haukedalsbekken" />
		<tag k="ssr:stedsnr" v="710811" />
		<tag k="waterway" v="stream" />
	</node>
	<node id="-237827" lat="59.5336444412" lon="9.45587777443">
		<tag k="name" v="Holmen" />
		<tag k="place" v="islet" />
		<tag k="ssr:stedsnr" v="710684" />
	</node>
	<node id="-237826" lat="59.5388305511" lon="9.41916944364">
		<tag k="name" v="Astridåa" />
		<tag k="ssr:stedsnr" v="710678" />
		<tag k="waterway" v="river" />
	</node>
	<node id="-237822" lat="59.4811472235" lon="9.30796111317">
		<tag k="name" v="Fiskodden" />
		<tag k="natural" v="cape" />
		<tag k="ssr:stedsnr" v="710584" />
	</node>
	<node id="-237813" lat="59.4440361067" lon="9.23891111884">
		<tag k="name" v="Heståsbekken" />
		<tag k="ssr:stedsnr" v="710204" />
		<tag k="waterway" v="stream" />
	</node>
	<node id="-237812" lat="59.4574388891" lon="9.26072500728">
		<tag k="name" v="Djupebekk" />
		<tag k="ssr:stedsnr" v="710154" />
		<tag k="waterway" v="stream" />
	</node>
	<node id="-237810" lat="59.5113527821" lon="9.29396389211">
		<tag k="name" v="Sandbukta" />
		<tag k="natural" v="bay" />
		<tag k="ssr:stedsnr" v="710123" />
	</node>
	<node id="-237809" lat="59.5164805541" lon="9.33195833104">
		<tag k="name" v="Klypa" />
		<tag k="natural" v="strait" />
		<tag k="ssr:stedsnr" v="710073" />
	</node>
	<node id="-237805" lat="59.3578249963" lon="9.31528611563">
		<tag k="name" v="Svarttjørn" />
		<tag k="natural" v="water" />
		<tag k="ssr:stedsnr" v="677677" />
	</node>
	<node id="-237803" lat="59.4488416642" lon="9.3976861075">
		<tag k="alt_name" v="Svarttjørn" />
		<tag k="name" v="Svarttjønn" />
		<tag k="natural" v="water" />
		<tag k="ssr:stedsnr" v="670951" />
	</node>
	<node id="-237793" lat="59.4183666667" lon="9.19351943848">
		<tag k="alt_name" v="Dyrudtjønnputten" />
		<tag k="name" v="Dyrudtjørnpytten" />
		<tag k="natural" v="water" />
		<tag k="ssr:stedsnr" v="670395" />
	</node>
	<node id="-237790" lat="59.3439027777" lon="9.17533056329">
		<tag k="alt_name" v="Gjernestjørna" />
		<tag k="name" v="Gjernestjønn" />
		<tag k="natural" v="water" />
		<tag k="ssr:stedsnr" v="670235" />
	</node>
	<node id="-237785" lat="59.4749083325" lon="9.39991110641">
		<tag k="alt_name" v="Damtjørn, vesle;Blekketjønn" />
		<tag k="name" v="Vesle Damtjørn" />
		<tag k="natural" v="water" />
		<tag k="ssr:stedsnr" v="670038" />
	</node>
	<node id="-237779" lat="59.4360166654" lon="9.39956110814">
		<tag k="alt_name" v="Damtjørn" />
		<tag k="name" v="Damtjønn" />
		<tag k="natural" v="water" />
		<tag k="ssr:stedsnr" v="669954" />
	</node>
	<node id="-237765" lat="59.3910249993" lon="9.23527778251">
		<tag k="name" v="Hegna-bekken" />
		<tag k="ssr:stedsnr" v="651676" />
		<tag k="waterway" v="stream" />
	</node>
	<node id="-237759" lat="59.3745722221" lon="9.1994555601">
		<tag k="name" v="Øytangen" />
		<tag k="natural" v="cape" />
		<tag k="ssr:stedsnr" v="650882" />
	</node>
	<node id="-237758" lat="59.4460805597" lon="9.34796111217">
		<tag k="name" v="Høymyr-bekken" />
		<tag k="ssr:stedsnr" v="650673" />
		<tag k="waterway" v="stream" />
	</node>
	<node id="-237753" lat="59.3984333335" lon="9.18025555187">
		<tag k="name" v="Skreabekken" />
		<tag k="ssr:stedsnr" v="650597" />
		<tag k="waterway" v="stream" />
	</node>
	<node id="-237748" lat="59.4968305592" lon="9.37194721744">
		<tag k="name" v="Vesle Åsbutjønn" />
		<tag k="natural" v="water" />
		<tag k="ssr:stedsnr" v="650527" />
	</node>
	<node id="-237746" lat="59.4062277773" lon="9.26556943715">
		<tag k="name" v="Nigardsbekken" />
		<tag k="ssr:stedsnr" v="650469" />
		<tag k="waterway" v="stream" />
	</node>
	<node id="-237743" lat="59.3658166653" lon="9.32349722972">
		<tag k="name" v="Vardefjellputtene" />
		<tag k="natural" v="water" />
		<tag k="ssr:stedsnr" v="650303" />
		<tag k="water" v="pond" />
	</node>
	<node id="-237742" lat="59.3582694453" lon="9.31534166708">
		<tag k="name" v="Svarttjønn" />
		<tag k="natural" v="water" />
		<tag k="ssr:stedsnr" v="650286" />
	</node>
	<node id="-237735" lat="59.4691611155" lon="9.26649722804">
		<tag k="name" v="Igletjønn-bekken" />
		<tag k="ssr:stedsnr" v="650193" />
		<tag k="waterway" v="stream" />
	</node>
	<node id="-237726" lat="59.4859500016" lon="9.30659167338">
		<tag k="name" v="Ulebergsbukta" />
		<tag k="natural" v="bay" />
		<tag k="ssr:stedsnr" v="649830" />
	</node>
	<node id="-237724" lat="59.3693833318" lon="9.26752221666">
		<tag k="name" v="Kvittingen" />
		<tag k="ssr:stedsnr" v="649806" />
		<tag k="waterway" v="stream" />
	</node>
	<node id="-237722" lat="59.4620805582" lon="9.32199444271">
		<tag k="name" v="Ås-bekken" />
		<tag k="ssr:stedsnr" v="649761" />
		<tag k="waterway" v="stream" />
	</node>
	<node id="-237721" lat="59.4541888876" lon="9.32314999853">
		<tag k="name" v="Stennings-bekken" />
		<tag k="ssr:stedsnr" v="649759" />
		<tag k="waterway" v="stream" />
	</node>
	<node id="-237720" lat="59.5236249973" lon="9.50638054966">
		<tag k="name" v="Bufinnbekken" />
		<tag k="ssr:stedsnr" v="649730" />
		<tag k="waterway" v="stream" />
	</node>
	<node id="-237715" lat="59.5553416631" lon="9.44359999237">
		<tag k="name" v="Vesle Drevdalstjønn" />
		<tag k="natural" v="water" />
		<tag k="ssr:stedsnr" v="649666" />
	</node>
	<node id="-237707" lat="59.5067388927" lon="9.421369445">
		<tag k="name" v="Søndre Løynfisktjønn" />
		<tag k="natural" v="water" />
		<tag k="ssr:stedsnr" v="649351" />
	</node>
	<node id="-237706" lat="59.5141611136" lon="9.45397499814">
		<tag k="name" v="Tjønnåsbekken" />
		<tag k="ssr:stedsnr" v="649336" />
		<tag k="waterway" v="stream" />
	</node>
	<node id="-237705" lat="59.4354805573" lon="9.25402777081">
		<tag k="name" v="Belleråsbekken" />
		<tag k="ssr:stedsnr" v="649330" />
		<tag k="waterway" v="stream" />
	</node>
	<node id="-237696" lat="59.5275750013" lon="9.47445000704">
		<tag k="alt_name" v="Holmevatn" />
		<tag k="name" v="Holmevatnet" />
		<tag k="natural" v="water" />
		<tag k="ssr:stedsnr" v="610011" />
		<tag k="water" v="lake" />
	</node>
	<node id="-237684" lat="59.4514416666" lon="9.24440277659">
		<tag k="alt_name" v="Gvanntjørn" />
		<tag k="name" v="Gvanntjønn" />
		<tag k="natural" v="water" />
		<tag k="ssr:stedsnr" v="609007" />
	</node>
	<node id="-237680" lat="59.3586333306" lon="9.34571944958">
		<tag k="alt_name" v="Mjågetjørn" />
		<tag k="name" v="Mjågetjønn" />
		<tag k="natural" v="water" />
		<tag k="ssr:stedsnr" v="608859" />
	</node>
	<node id="-237679" lat="59.4955700434" lon="9.21138322424">
		<tag k="alt_name" v="Blomtjørn, l" />
		<tag k="name" v="Vesle Blomtjønn" />
		<tag k="natural" v="water" />
		<tag k="ssr:stedsnr" v="608610" />
	</node>
	<node id="-237664" lat="59.4873111129" lon="9.18676666133">
		<tag k="name" v="Primtjønn" />
		<tag k="natural" v="water" />
		<tag k="ssr:stedsnr" v="590059" />
	</node>
	<node id="-237661" lat="59.4813861073" lon="9.31881944608">
		<tag k="name" v="Sjåstranda" />
		<tag k="natural" v="beach" />
		<tag k="ssr:stedsnr" v="589987" />
	</node>
	<node id="-237660" lat="59.4248805524" lon="9.31143610685">
		<tag k="name" v="Langøyr" />
		<tag k="place" v="islet" />
		<tag k="ssr:stedsnr" v="589963" />
	</node>
	<node id="-237652" lat="59.5053166671" lon="9.29454445116">
		<tag k="name" v="Høgsrudbekken" />
		<tag k="ssr:stedsnr" v="589845" />
		<tag k="waterway" v="stream" />
	</node>
	<node id="-237650" lat="59.3557944425" lon="9.24137500154">
		<tag k="name" v="Vesle Tjodholmen" />
		<tag k="place" v="islet" />
		<tag k="ssr:stedsnr" v="589821" />
	</node>
	<node id="-237640" lat="59.5415333302" lon="9.4494277853">
		<tag k="name" v="Høgstulbekken" />
		<tag k="ssr:stedsnr" v="589686" />
		<tag k="waterway" v="stream" />
	</node>
	<node id="-237638" lat="59.4213888912" lon="9.38844721568">
		<tag k="name" v="Rupetjønn" />
		<tag k="natural" v="water" />
		<tag k="ssr:stedsnr" v="589672" />
	</node>
	<node id="-237636" lat="59.4391861135" lon="9.35065555867">
		<tag k="name" v="Gvåla-åa" />
		<tag k="ssr:stedsnr" v="589655" />
		<tag k="waterway" v="river" />
	</node>
	<node id="-237633" lat="59.552113889" lon="9.41617778133">
		<tag k="name" v="Rakketjønnbekken" />
		<tag k="ssr:stedsnr" v="589630" />
		<tag k="waterway" v="stream" />
	</node>
	<node id="-237631" lat="59.3894666636" lon="9.25362777046">
		<tag k="name" v="Akkerhaugstangen" />
		<tag k="natural" v="cape" />
		<tag k="ssr:stedsnr" v="589582" />
	</node>
	<node id="-237630" lat="59.4982083358" lon="9.39402222136">
		<tag k="name" v="Trytetjønnbekken" />
		<tag k="ssr:stedsnr" v="589571" />
		<tag k="waterway" v="stream" />
	</node>
	<node id="-237627" lat="59.4909638904" lon="9.385649999">
		<tag k="name" v="Kloppetjønn" />
		<tag k="natural" v="water" />
		<tag k="ssr:stedsnr" v="589565" />
	</node>
	<node id="-237621" lat="59.4679361068" lon="9.30368610879">
		<tag k="name" v="Eriksodden" />
		<tag k="natural" v="cape" />
		<tag k="ssr:stedsnr" v="589517" />
	</node>
	<node id="-237620" lat="59.4310361077" lon="9.30289722242">
		<tag k="name" v="Risbekk" />
		<tag k="ssr:stedsnr" v="589492" />
		<tag k="waterway" v="stream" />
	</node>
	<node id="-237618" lat="59.4669388894" lon="9.41964444254">
		<tag k="name" v="Vassbotten-holmene" />
		<tag k="place" v="islet" />
		<tag k="ssr:stedsnr" v="589462" />
	</node>
	<node id="-237616" lat="59.4317777766" lon="9.28284722397">
		<tag k="name" v="Kåsin-bekken" />
		<tag k="ssr:stedsnr" v="589437" />
		<tag k="waterway" v="stream" />
	</node>
	<node id="-237612" lat="59.5126222225" lon="9.42661944003">
		<tag k="name" v="Trytetjønn" />
		<tag k="natural" v="water" />
		<tag k="ssr:stedsnr" v="589373" />
	</node>
	<node id="-237611" lat="59.5084499999" lon="9.40321389064">
		<tag k="name" v="Store Trytetjønn" />
		<tag k="natural" v="water" />
		<tag k="ssr:stedsnr" v="589370" />
	</node>
	<node id="-237610" lat="59.5126222225" lon="9.42661944003">
		<tag k="name" v="Taklåselva" />
		<tag k="ssr:stedsnr" v="589369" />
		<tag k="waterway" v="river" />
	</node>
	<node id="-237609" lat="59.4388861153" lon="9.25909999882">
		<tag k="name" v="Svinetjønn-bekken" />
		<tag k="ssr:stedsnr" v="589330" />
		<tag k="waterway" v="stream" />
	</node>
	<node id="-237608" lat="59.3584694466" lon="9.30214167193">
		<tag k="name" v="Ulevassbekken" />
		<tag k="ssr:stedsnr" v="589319" />
		<tag k="waterway" v="stream" />
	</node>
	<node id="-237607" lat="59.3754166675" lon="9.31007500739">
		<tag k="name" v="Trengenbekken" />
		<tag k="ssr:stedsnr" v="589268" />
		<tag k="waterway" v="stream" />
	</node>
	<node id="-237605" lat="59.3588027823" lon="9.1464527785">
		<tag k="name" v="Røydalsbekken" />
		<tag k="old_name" v="Roydalsbekken" />
		<tag k="ssr:stedsnr" v="589211" />
		<tag k="waterway" v="stream" />
	</node>
	<node id="-237604" lat="59.4628055553" lon="9.24631388385">
		<tag k="name" v="Listulbekken" />
		<tag k="ssr:stedsnr" v="589182" />
		<tag k="waterway" v="stream" />
	</node>
	<node id="-237603" lat="59.4583972253" lon="9.27859722887">
		<tag k="name" v="Bjørndalsbekken" />
		<tag k="ssr:stedsnr" v="589163" />
		<tag k="waterway" v="stream" />
	</node>
	<node id="-237601" lat="59.5104277738" lon="9.29798333011">
		<tag k="name" v="Høgsrud-odden" />
		<tag k="natural" v="cape" />
		<tag k="ssr:stedsnr" v="589149" />
	</node>
	<node id="-237597" lat="59.3241527803" lon="9.21435832622">
		<tag k="name" v="Deiltjønn" />
		<tag k="natural" v="water" />
		<tag k="ssr:stedsnr" v="589133" />
	</node>
	<node id="-237595" lat="59.4159111108" lon="9.30777500548">
		<tag k="name" v="Krokmannevju" />
		<tag k="place" v="locality" />
		<tag k="ssr:stedsnr" v="589129" />
	</node>
	<node id="-237584" lat="59.4522527793" lon="9.29854999828">
		<tag k="name" v="Daudmanns-bekken" />
		<tag k="ssr:stedsnr" v="589003" />
		<tag k="waterway" v="stream" />
	</node>
	<node id="-237579" lat="59.5379972203" lon="9.46139999656">
		<tag k="name" v="Kilen" />
		<tag k="natural" v="bay" />
		<tag k="ssr:stedsnr" v="549754" />
	</node>
	<node id="-237578" lat="59.5465972259" lon="9.47730000694">
		<tag k="alt_name" v="Neråsvatn" />
		<tag k="name" v="Neråsvatnet" />
		<tag k="natural" v="water" />
		<tag k="ssr:stedsnr" v="549750" />
	</node>
	<node id="-237577" lat="59.5381055591" lon="9.50031944625">
		<tag k="alt_name" v="Deilstjørn" />
		<tag k="name" v="Deiltjønn" />
		<tag k="natural" v="water" />
		<tag k="ssr:stedsnr" v="549722" />
	</node>
	<node id="-237575" lat="59.4391805511" lon="9.35058333769">
		<tag k="name" v="Dugurdsfjellbekken" />
		<tag k="ssr:stedsnr" v="548953" />
		<tag k="waterway" v="stream" />
	</node>
	<node id="-237574" lat="59.4306888864" lon="9.2372361029">
		<tag k="alt_name" v="Svarttjørn" />
		<tag k="name" v="Svarttjønn" />
		<tag k="natural" v="water" />
		<tag k="ssr:stedsnr" v="548948" />
	</node>
</osm>
