<?xml version="1.0" encoding="UTF-8"?>
<osm generator="osmapis" version="0.6">
	<node id="-237555" lat="59.435597224" lon="9.19490277916">
		<tag k="fixme" v="consider natural=peak for the most distinct mountains in the district" />
		<tag k="name" v="Skåråfjell" />
		<tag k="natural" v="hill" />
		<tag k="place" v="locality" />
		<tag k="ssr:stedsnr" v="730424" />
	</node>
	<node id="-237553" lat="59.4953999971" lon="9.42530277886">
		<tag k="fixme" v="consider natural=peak for the most distinct mountains in the district" />
		<tag k="name" v="Vetrhusfjell" />
		<tag k="natural" v="hill" />
		<tag k="place" v="locality" />
		<tag k="ssr:stedsnr" v="730064" />
	</node>
	<node id="-237547" lat="59.5206250007" lon="9.48184999122">
		<tag k="name" v="Listulåsen" />
		<tag k="natural" v="hill" />
		<tag k="place" v="locality" />
		<tag k="ssr:stedsnr" v="731704" />
	</node>
	<node id="-237529" lat="59.4866166694" lon="9.3918055633">
		<tag k="name" v="Sæterdalsliene" />
		<tag k="natural" v="slope" />
		<tag k="place" v="locality" />
		<tag k="ssr:stedsnr" v="711598" />
	</node>
	<node id="-237527" lat="59.4895611153" lon="9.34539999436">
		<tag k="fixme" v="consider natural=peak for the most distinct mountains in the district" />
		<tag k="name" v="Slettaåsen" />
		<tag k="natural" v="hill" />
		<tag k="place" v="locality" />
		<tag k="ssr:stedsnr" v="711591" />
	</node>
	<node id="-237524" lat="59.4848472253" lon="9.35603055658">
		<tag k="name" v="Spinndalen" />
		<tag k="natural" v="valley" />
		<tag k="place" v="locality" />
		<tag k="ssr:stedsnr" v="711564" />
	</node>
	<node id="-237523" lat="59.3864555575" lon="9.24756667376">
		<tag k="name" v="Eyraberg" />
		<tag k="place" v="locality" />
		<tag k="ssr:stedsnr" v="711560" />
	</node>
	<node id="-237518" lat="59.4794916672" lon="9.45727777232">
		<tag k="fixme" v="consider natural=peak for the most distinct mountains in the district" />
		<tag k="name" v="Eiangs-vardefjell" />
		<tag k="natural" v="hill" />
		<tag k="place" v="locality" />
		<tag k="ssr:stedsnr" v="711450" />
	</node>
	<node id="-237515" lat="59.4028083339" lon="9.35080277091">
		<tag k="fixme" v="consider natural=peak for the most distinct mountains in the district" />
		<tag k="name" v="Høgsteåsen" />
		<tag k="natural" v="hill" />
		<tag k="place" v="locality" />
		<tag k="ssr:stedsnr" v="711368" />
	</node>
	<node id="-237513" lat="59.3753083356" lon="9.29738888057">
		<tag k="fixme" v="consider natural=peak for the most distinct mountains in the district" />
		<tag k="name" v="Tjyruhjell-åsen" />
		<tag k="natural" v="hill" />
		<tag k="place" v="locality" />
		<tag k="ssr:stedsnr" v="711339" />
	</node>
	<node id="-237511" lat="59.3735166662" lon="9.30210556263">
		<tag k="name" v="Bånetjønn-dalen" />
		<tag k="natural" v="valley" />
		<tag k="place" v="locality" />
		<tag k="ssr:stedsnr" v="711334" />
	</node>
	<node id="-237506" lat="59.4702777756" lon="9.27107777445">
		<tag k="fixme" v="consider natural=peak for the most distinct mountains in the district" />
		<tag k="name" v="Bakke-åsene" />
		<tag k="natural" v="hill" />
		<tag k="place" v="locality" />
		<tag k="ssr:stedsnr" v="711228" />
	</node>
	<node id="-237505" lat="59.4783472248" lon="9.24700833406">
		<tag k="name" v="Bjønnetjønn-skota" />
		<tag k="natural" v="cliff" />
		<tag k="ssr:stedsnr" v="711219" />
	</node>
	<node id="-237500" lat="59.3469055516" lon="9.14697778105">
		<tag k="name" v="Huldredalen" />
		<tag k="natural" v="valley" />
		<tag k="place" v="locality" />
		<tag k="ssr:stedsnr" v="711164" />
	</node>
	<node id="-237499" lat="59.34120556" lon="9.16985555392">
		<tag k="fixme" v="consider natural=peak for the most distinct mountains in the district" />
		<tag k="name" v="Gangsjå-åsen" />
		<tag k="natural" v="hill" />
		<tag k="place" v="locality" />
		<tag k="ssr:stedsnr" v="711154" />
	</node>
	<node id="-237498" lat="59.3310749982" lon="9.20549999951">
		<tag k="name" v="Kåsindalen" />
		<tag k="natural" v="valley" />
		<tag k="place" v="locality" />
		<tag k="ssr:stedsnr" v="711145" />
	</node>
	<node id="-237492" lat="59.4625194485" lon="9.31055832847">
		<tag k="fixme" v="consider natural=peak for the most distinct mountains in the district" />
		<tag k="name" v="Helsåsen" />
		<tag k="natural" v="hill" />
		<tag k="place" v="locality" />
		<tag k="ssr:stedsnr" v="711023" />
	</node>
	<node id="-237489" lat="59.4878916695" lon="9.33269722328">
		<tag k="fixme" v="consider natural=peak for the most distinct mountains in the district" />
		<tag k="name" v="Klevsås-natten" />
		<tag k="natural" v="hill" />
		<tag k="place" v="locality" />
		<tag k="ssr:stedsnr" v="710832" />
	</node>
	<node id="-237486" lat="59.52971389" lon="9.42422777823">
		<tag k="fixme" v="consider natural=peak for the most distinct mountains in the district" />
		<tag k="name" v="Kollsethaugen" />
		<tag k="natural" v="hill" />
		<tag k="place" v="locality" />
		<tag k="ssr:stedsnr" v="710723" />
	</node>
	<node id="-237482" lat="59.5351055577" lon="9.38893333204">
		<tag k="fixme" v="consider natural=peak for the most distinct mountains in the district" />
		<tag k="name" v="Nybuåsen" />
		<tag k="natural" v="hill" />
		<tag k="place" v="locality" />
		<tag k="ssr:stedsnr" v="710675" />
	</node>
	<node id="-237481" lat="59.5279777753" lon="9.39383054799">
		<tag k="name" v="Store Åsdalen" />
		<tag k="natural" v="valley" />
		<tag k="place" v="locality" />
		<tag k="ssr:stedsnr" v="710674" />
	</node>
	<node id="-237477" lat="59.3572805572" lon="9.34288610891">
		<tag k="name" v="Mjågetjønnliene" />
		<tag k="natural" v="slope" />
		<tag k="place" v="locality" />
		<tag k="ssr:stedsnr" v="710479" />
	</node>
	<node id="-237476" lat="59.4258277781" lon="9.21851111706">
		<tag k="name" v="Ringstulliene" />
		<tag k="natural" v="slope" />
		<tag k="place" v="locality" />
		<tag k="ssr:stedsnr" v="710478" />
	</node>
	<node id="-237474" lat="59.4274166663" lon="9.22006388986">
		<tag k="name" v="Ringstulstupet" />
		<tag k="natural" v="cliff" />
		<tag k="ssr:stedsnr" v="710474" />
	</node>
	<node id="-237471" lat="59.4595277777" lon="9.24205000789">
		<tag k="name" v="Sud-Lienn" />
		<tag k="natural" v="slope" />
		<tag k="place" v="locality" />
		<tag k="ssr:stedsnr" v="710207" />
	</node>
	<node id="-237468" lat="59.4537694475" lon="9.26717222753">
		<tag k="name" v="Stulsdalen" />
		<tag k="natural" v="valley" />
		<tag k="place" v="locality" />
		<tag k="ssr:stedsnr" v="710150" />
	</node>
	<node id="-237465" lat="59.5030166652" lon="9.42310834049">
		<tag k="name" v="Bråtåtjønnlia" />
		<tag k="natural" v="slope" />
		<tag k="place" v="locality" />
		<tag k="ssr:stedsnr" v="709417" />
	</node>
	<node id="-237464" lat="59.3530055569" lon="9.38993332675">
		<tag k="name" v="Nibbeliane" />
		<tag k="natural" v="slope" />
		<tag k="place" v="locality" />
		<tag k="ssr:stedsnr" v="695679" />
	</node>
	<node id="-237452" lat="59.5251777792" lon="9.44620555357">
		<tag k="name" v="Taklåsåsen" />
		<tag k="natural" v="hill" />
		<tag k="place" v="locality" />
		<tag k="ssr:stedsnr" v="670708" />
	</node>
	<node id="-237451" lat="59.4352805533" lon="9.20886388529">
		<tag k="alt_name" v="Dålåtjønnattene" />
		<tag k="fixme" v="consider natural=peak for the most distinct mountains in the district" />
		<tag k="name" v="Dålåtjørnnatten" />
		<tag k="natural" v="hill" />
		<tag k="place" v="locality" />
		<tag k="ssr:stedsnr" v="670403" />
	</node>
	<node id="-237446" lat="59.4974944405" lon="9.46623888566">
		<tag k="fixme" v="consider natural=peak for the most distinct mountains in the district" />
		<tag k="name" v="Flåttefjell" />
		<tag k="natural" v="hill" />
		<tag k="place" v="locality" />
		<tag k="ssr:stedsnr" v="670084" />
	</node>
	<node id="-237437" lat="59.4375749994" lon="9.38908610645">
		<tag k="fixme" v="consider natural=peak for the most distinct mountains in the district" />
		<tag k="name" v="Dugurdsfjell" />
		<tag k="natural" v="hill" />
		<tag k="place" v="locality" />
		<tag k="ssr:stedsnr" v="669958" />
	</node>
	<node id="-237432" lat="59.4484694415" lon="9.2154888889">
		<tag k="name" v="Lauvhaug" />
		<tag k="natural" v="hill" />
		<tag k="place" v="locality" />
		<tag k="ssr:stedsnr" v="669462" />
	</node>
	<node id="-237429" lat="59.3493888907" lon="9.30301943612">
		<tag k="fixme" v="consider natural=peak for the most distinct mountains in the district" />
		<tag k="name" v="Bufjell" />
		<tag k="natural" v="hill" />
		<tag k="place" v="locality" />
		<tag k="ssr:stedsnr" v="669838" />
	</node>
	<node id="-237419" lat="59.4269833365" lon="9.32371943884">
		<tag k="name" v="Galteryggen" />
		<tag k="natural" v="ridge" />
		<tag k="place" v="locality" />
		<tag k="ssr:stedsnr" v="650933" />
	</node>
	<node id="-237412" lat="59.4379638889" lon="9.36653610902">
		<tag k="name" v="Estrudalen" />
		<tag k="natural" v="valley" />
		<tag k="place" v="locality" />
		<tag k="ssr:stedsnr" v="650642" />
	</node>
	<node id="-237411" lat="59.4369861138" lon="9.34823056183">
		<tag k="name" v="Storskot" />
		<tag k="natural" v="cliff" />
		<tag k="ssr:stedsnr" v="650624" />
	</node>
	<node id="-237407" lat="59.4831638923" lon="9.35817222593">
		<tag k="name" v="Spinndalen" />
		<tag k="natural" v="valley" />
		<tag k="place" v="locality" />
		<tag k="ssr:stedsnr" v="650539" />
	</node>
	<node id="-237406" lat="59.4775916704" lon="9.36120554914">
		<tag k="name" v="Grasdalen" />
		<tag k="natural" v="valley" />
		<tag k="place" v="locality" />
		<tag k="ssr:stedsnr" v="650537" />
	</node>
	<node id="-237402" lat="59.4164111156" lon="9.26113056389">
		<tag k="fixme" v="consider natural=peak for the most distinct mountains in the district" />
		<tag k="name" v="Hellås" />
		<tag k="natural" v="hill" />
		<tag k="place" v="locality" />
		<tag k="ssr:stedsnr" v="650450" />
	</node>
	<node id="-237401" lat="59.4186805586" lon="9.3618416641">
		<tag k="name" v="Fjelldalen" />
		<tag k="natural" v="valley" />
		<tag k="place" v="locality" />
		<tag k="ssr:stedsnr" v="650321" />
	</node>
	<node id="-237395" lat="59.3875722225" lon="9.13145000667">
		<tag k="name" v="Elgeholet" />
		<tag k="natural" v="valley" />
		<tag k="place" v="locality" />
		<tag k="ssr:stedsnr" v="650221" />
	</node>
	<node id="-237393" lat="59.3856361101" lon="9.1417027722">
		<tag k="name" v="Nissedalen" />
		<tag k="natural" v="valley" />
		<tag k="place" v="locality" />
		<tag k="ssr:stedsnr" v="650217" />
	</node>
	<node id="-237391" lat="59.3638999967" lon="9.13919722827">
		<tag k="name" v="Røydalen" />
		<tag k="natural" v="valley" />
		<tag k="place" v="locality" />
		<tag k="ssr:stedsnr" v="650173" />
	</node>
	<node id="-237385" lat="59.4758249989" lon="9.3279666738">
		<tag k="fixme" v="consider natural=peak for the most distinct mountains in the district" />
		<tag k="name" v="Bæråsen" />
		<tag k="natural" v="hill" />
		<tag k="place" v="locality" />
		<tag k="ssr:stedsnr" v="649984" />
	</node>
	<node id="-237384" lat="59.4918694433" lon="9.34147499443">
		<tag k="name" v="Rinnen" />
		<tag k="natural" v="ridge" />
		<tag k="place" v="locality" />
		<tag k="ssr:stedsnr" v="649841" />
	</node>
	<node id="-237374" lat="59.4194472215" lon="9.38046388846">
		<tag k="name" v="Griselifjellet" />
		<tag k="natural" v="hill" />
		<tag k="place" v="locality" />
		<tag k="ssr:stedsnr" v="649689" />
	</node>
	<node id="-237370" lat="59.5500916679" lon="9.41655833825">
		<tag k="name" v="Steinsnippen" />
		<tag k="place" v="locality" />
		<tag k="ssr:stedsnr" v="649664" />
	</node>
	<node id="-237369" lat="59.4830166627" lon="9.30396944313">
		<tag k="name" v="Kastkleiva" />
		<tag k="natural" v="slope" />
		<tag k="place" v="locality" />
		<tag k="ssr:stedsnr" v="649587" />
	</node>
	<node id="-237368" lat="59.5194972239" lon="9.39237777434">
		<tag k="name" v="Gråndalsbakken" />
		<tag k="natural" v="slope" />
		<tag k="place" v="locality" />
		<tag k="ssr:stedsnr" v="649576" />
	</node>
	<node id="-237367" lat="59.365880559" lon="9.35997499192">
		<tag k="name" v="Vassliene" />
		<tag k="natural" v="slope" />
		<tag k="place" v="locality" />
		<tag k="ssr:stedsnr" v="649515" />
	</node>
	<node id="-237365" lat="59.4333055544" lon="9.26792499566">
		<tag k="name" v="Målbakk" />
		<tag k="place" v="locality" />
		<tag k="ssr:stedsnr" v="649498" />
	</node>
	<node id="-237358" lat="59.394436112" lon="9.30935832837">
		<tag k="fixme" v="consider natural=peak for the most distinct mountains in the district" />
		<tag k="name" v="Hvitåsnatten" />
		<tag k="natural" v="hill" />
		<tag k="place" v="locality" />
		<tag k="ssr:stedsnr" v="649217" />
	</node>
	<node id="-237356" lat="59.511050001" lon="9.32687777621">
		<tag k="name" v="Kobberdalen" />
		<tag k="natural" v="valley" />
		<tag k="place" v="locality" />
		<tag k="ssr:stedsnr" v="649069" />
	</node>
	<node id="-237350" lat="59.5441250001" lon="9.4300722153">
		<tag k="fixme" v="consider natural=peak for the most distinct mountains in the district" />
		<tag k="name" v="Grytefjell" />
		<tag k="natural" v="hill" />
		<tag k="place" v="locality" />
		<tag k="ssr:stedsnr" v="609732" />
	</node>
	<node id="-237348" lat="59.3381083349" lon="9.19010833034">
		<tag k="name" v="Fagerlikollen" />
		<tag k="natural" v="hill" />
		<tag k="place" v="locality" />
		<tag k="ssr:stedsnr" v="609236" />
	</node>
	<node id="-237345" lat="59.4824249982" lon="9.3749861064">
		<tag k="name" v="Storskotmoen" />
		<tag k="natural" v="hill" />
		<tag k="place" v="locality" />
		<tag k="ssr:stedsnr" v="609061" />
	</node>
	<node id="-237342" lat="59.4752416712" lon="9.42789166347">
		<tag k="fixme" v="consider natural=peak for the most distinct mountains in the district" />
		<tag k="name" v="Sauefjell" />
		<tag k="natural" v="hill" />
		<tag k="place" v="locality" />
		<tag k="ssr:stedsnr" v="609034" />
	</node>
	<node id="-237335" lat="59.3928722249" lon="9.12831666369">
		<tag k="name" v="Hyttedalen" />
		<tag k="natural" v="valley" />
		<tag k="place" v="locality" />
		<tag k="ssr:stedsnr" v="608383" />
	</node>
	<node id="-237328" lat="59.3978749981" lon="9.238966668">
		<tag k="fixme" v="consider natural=peak for the most distinct mountains in the district" />
		<tag k="name" v="Vesleås" />
		<tag k="natural" v="hill" />
		<tag k="place" v="locality" />
		<tag k="ssr:stedsnr" v="590680" />
	</node>
	<node id="-237322" lat="59.5130638914" lon="9.31755556254">
		<tag k="name" v="Haslekås-moen" />
		<tag k="place" v="locality" />
		<tag k="ssr:stedsnr" v="590129" />
	</node>
	<node id="-237320" lat="59.4857666629" lon="9.2365694487">
		<tag k="fixme" v="consider natural=peak for the most distinct mountains in the district" />
		<tag k="name" v="Fugleåsen" />
		<tag k="natural" v="hill" />
		<tag k="place" v="locality" />
		<tag k="ssr:stedsnr" v="590032" />
	</node>
	<node id="-237314" lat="59.3727777786" lon="9.17872499896">
		<tag k="name" v="Jutulfua" />
		<tag k="natural" v="hill" />
		<tag k="place" v="locality" />
		<tag k="ssr:stedsnr" v="589939" />
	</node>
	<node id="-237313" lat="59.4305805534" lon="9.34281388197">
		<tag k="fixme" v="consider natural=peak for the most distinct mountains in the district" />
		<tag k="name" v="Kvennhuskås-åsen" />
		<tag k="natural" v="hill" />
		<tag k="place" v="locality" />
		<tag k="ssr:stedsnr" v="589937" />
	</node>
	<node id="-237312" lat="59.3478000027" lon="9.2688277694">
		<tag k="name" v="Ljosdalsrenna" />
		<tag k="natural" v="gorge" />
		<tag k="ssr:stedsnr" v="589925" />
	</node>
	<node id="-237311" lat="59.351772225" lon="9.27634723037">
		<tag k="name" v="Revens klove" />
		<tag k="natural" v="valley" />
		<tag k="place" v="locality" />
		<tag k="ssr:stedsnr" v="589921" />
	</node>
	<node id="-237310" lat="59.4954749971" lon="9.31431667071">
		<tag k="name" v="Haugholt-hammeren" />
		<tag k="place" v="locality" />
		<tag k="ssr:stedsnr" v="589846" />
	</node>
	<node id="-237308" lat="59.3746500001" lon="9.27970833652">
		<tag k="name" v="Tutarnatten" />
		<tag k="natural" v="hill" />
		<tag k="place" v="locality" />
		<tag k="ssr:stedsnr" v="589823" />
	</node>
	<node id="-237306" lat="59.3693249959" lon="9.28364722843">
		<tag k="fixme" v="consider natural=peak for the most distinct mountains in the district" />
		<tag k="name" v="Høljerstjønn-åsane" />
		<tag k="natural" v="hill" />
		<tag k="place" v="locality" />
		<tag k="ssr:stedsnr" v="589822" />
	</node>
	<node id="-237303" lat="59.5040777746" lon="9.34157222517">
		<tag k="name" v="Svartufs" />
		<tag k="place" v="locality" />
		<tag k="ssr:stedsnr" v="589805" />
	</node>
	<node id="-237302" lat="59.4978555591" lon="9.34391943645">
		<tag k="name" v="Stangkleiv" />
		<tag k="natural" v="slope" />
		<tag k="place" v="locality" />
		<tag k="ssr:stedsnr" v="589807" />
	</node>
	<node id="-237298" lat="59.4513388866" lon="9.35329166589">
		<tag k="name" v="Fortgang" />
		<tag k="natural" v="slope" />
		<tag k="place" v="locality" />
		<tag k="ssr:stedsnr" v="589734" />
	</node>
	<node id="-237294" lat="59.4322361124" lon="9.36790278397">
		<tag k="name" v="Helleren" />
		<tag k="place" v="locality" />
		<tag k="ssr:stedsnr" v="589660" />
	</node>
	<node id="-237292" lat="59.4280833332" lon="9.37072777105">
		<tag k="fixme" v="consider natural=peak for the most distinct mountains in the district" />
		<tag k="name" v="Blåbæråsen" />
		<tag k="natural" v="hill" />
		<tag k="place" v="locality" />
		<tag k="ssr:stedsnr" v="589656" />
	</node>
	<node id="-237285" lat="59.4682472194" lon="9.38967500559">
		<tag k="name" v="Vrangeberga" />
		<tag k="natural" v="hill" />
		<tag k="place" v="locality" />
		<tag k="ssr:stedsnr" v="589566" />
	</node>
	<node id="-237282" lat="59.4821805548" lon="9.36358056401">
		<tag k="name" v="Brattelia" />
		<tag k="natural" v="slope" />
		<tag k="place" v="locality" />
		<tag k="ssr:stedsnr" v="589558" />
	</node>
	<node id="-237279" lat="59.5097388922" lon="9.39691111091">
		<tag k="name" v="Trytetjønnbakken" />
		<tag k="natural" v="slope" />
		<tag k="place" v="locality" />
		<tag k="ssr:stedsnr" v="589531" />
	</node>
	<node id="-237272" lat="59.4318527786" lon="9.27706945038">
		<tag k="fixme" v="consider natural=peak for the most distinct mountains in the district" />
		<tag k="name" v="Gjelvar-åsen" />
		<tag k="natural" v="hill" />
		<tag k="place" v="locality" />
		<tag k="ssr:stedsnr" v="589438" />
	</node>
	<node id="-237263" lat="59.3925111096" lon="9.12296943745">
		<tag k="fixme" v="consider natural=peak for the most distinct mountains in the district" />
		<tag k="name" v="Masteliåsen" />
		<tag k="natural" v="hill" />
		<tag k="place" v="locality" />
		<tag k="ssr:stedsnr" v="589251" />
	</node>
	<node id="-237259" lat="59.3473805598" lon="9.16831110835">
		<tag k="fixme" v="consider natural=peak for the most distinct mountains in the district" />
		<tag k="name" v="Gangsjåkollen" />
		<tag k="natural" v="hill" />
		<tag k="place" v="locality" />
		<tag k="ssr:stedsnr" v="589161" />
	</node>
	<node id="-237257" lat="59.5188416643" lon="9.34444444933">
		<tag k="name" v="Grisedansen" />
		<tag k="natural" v="hill" />
		<tag k="place" v="locality" />
		<tag k="ssr:stedsnr" v="589143" />
	</node>
	<node id="-237253" lat="59.4063027748" lon="9.30953889355">
		<tag k="name" v="Ørvel-dalen" />
		<tag k="natural" v="valley" />
		<tag k="place" v="locality" />
		<tag k="ssr:stedsnr" v="589132" />
	</node>
	<node id="-237250" lat="59.4114388852" lon="9.33685277163">
		<tag k="fixme" v="consider natural=peak for the most distinct mountains in the district" />
		<tag k="name" v="Kleivåsen" />
		<tag k="natural" v="hill" />
		<tag k="place" v="locality" />
		<tag k="ssr:stedsnr" v="589098" />
	</node>
	<node id="-237247" lat="59.4154194453" lon="9.34126110545">
		<tag k="fixme" v="consider natural=peak for the most distinct mountains in the district" />
		<tag k="name" v="Tegemyråsen" />
		<tag k="natural" v="hill" />
		<tag k="place" v="locality" />
		<tag k="ssr:stedsnr" v="589084" />
	</node>
	<node id="-237246" lat="59.3383055556" lon="9.18319722136">
		<tag k="fixme" v="consider natural=peak for the most distinct mountains in the district" />
		<tag k="name" v="Tjønnås" />
		<tag k="natural" v="hill" />
		<tag k="place" v="locality" />
		<tag k="ssr:stedsnr" v="589060" />
	</node>
	<node id="-237245" lat="59.3393222201" lon="9.20037222824">
		<tag k="fixme" v="consider natural=peak for the most distinct mountains in the district" />
		<tag k="name" v="Lagjesås" />
		<tag k="natural" v="hill" />
		<tag k="place" v="locality" />
		<tag k="ssr:stedsnr" v="589051" />
	</node>
	<node id="-237242" lat="59.4566416664" lon="9.30786111028">
		<tag k="name" v="Kleppen" />
		<tag k="place" v="locality" />
		<tag k="ssr:stedsnr" v="589005" />
	</node>
	<node id="-237240" lat="59.450438888" lon="9.30132222371">
		<tag k="name" v="Skrubbedalen" />
		<tag k="natural" v="valley" />
		<tag k="place" v="locality" />
		<tag k="ssr:stedsnr" v="589001" />
	</node>
	<node id="-237239" lat="59.4111333312" lon="9.36491666762">
		<tag k="fixme" v="consider natural=peak for the most distinct mountains in the district" />
		<tag k="name" v="Nesanuten" />
		<tag k="natural" v="hill" />
		<tag k="place" v="locality" />
		<tag k="ssr:stedsnr" v="588338" />
	</node>
	<node id="-237233" lat="59.513350001" lon="9.48669999788">
		<tag k="name" v="Kjellarfjelldalen" />
		<tag k="natural" v="valley" />
		<tag k="place" v="locality" />
		<tag k="ssr:stedsnr" v="549691" />
	</node>
	<node id="-237216" lat="59.4811861129" lon="9.2858249924">
		<tag k="alt_name" v="Blekksås" />
		<tag k="fixme" v="consider natural=peak for the most distinct mountains in the district" />
		<tag k="name" v="Blæksås" />
		<tag k="natural" v="hill" />
		<tag k="place" v="locality" />
		<tag k="ssr:stedsnr" v="548036" />
	</node>
	<node id="-237213" lat="59.4554250001" lon="9.34794721838">
		<tag k="alt_name" v="Holte-åsen" />
		<tag k="fixme" v="consider natural=peak for the most distinct mountains in the district" />
		<tag k="name" v="Holtsås" />
		<tag k="natural" v="hill" />
		<tag k="place" v="locality" />
		<tag k="ssr:stedsnr" v="548018" />
	</node>
	<node id="-237209" lat="59.4287527815" lon="9.33983888108">
		<tag k="name" v="Skarvin" />
		<tag k="natural" v="slope" />
		<tag k="place" v="locality" />
		<tag k="ssr:stedsnr" v="529947" />
	</node>
	<node id="-237203" lat="59.4256416657" lon="9.31556110697">
		<tag k="name" v="Danderud" />
		<tag k="natural" v="slope" />
		<tag k="place" v="locality" />
		<tag k="ssr:stedsnr" v="529596" />
	</node>
	<node id="-237202" lat="59.4937944431" lon="9.37696111568">
		<tag k="name" v="Møllbakken" />
		<tag k="natural" v="slope" />
		<tag k="place" v="locality" />
		<tag k="ssr:stedsnr" v="529577" />
	</node>
	<node id="-237197" lat="59.4395638894" lon="9.29262222414">
		<tag k="name" v="Kringsås-liene" />
		<tag k="natural" v="slope" />
		<tag k="place" v="locality" />
		<tag k="ssr:stedsnr" v="529517" />
	</node>
	<node id="-237195" lat="59.4001222188" lon="9.22337499407">
		<tag k="name" v="Skrubbedalen" />
		<tag k="natural" v="valley" />
		<tag k="place" v="locality" />
		<tag k="ssr:stedsnr" v="529431" />
	</node>
	<node id="-237190" lat="59.4201388886" lon="9.34928610767">
		<tag k="fixme" v="consider natural=peak for the most distinct mountains in the district" />
		<tag k="name" v="Langåsen" />
		<tag k="natural" v="hill" />
		<tag k="place" v="locality" />
		<tag k="ssr:stedsnr" v="529327" />
	</node>
	<node id="-237189" lat="59.4183777766" lon="9.35772778108">
		<tag k="name" v="Nordvårstulhaugene" />
		<tag k="natural" v="hill" />
		<tag k="old_name" v="Nordvårstulhuagene" />
		<tag k="place" v="locality" />
		<tag k="ssr:stedsnr" v="529324" />
	</node>
	<node id="-237187" lat="59.3615916698" lon="9.32521111183">
		<tag k="name" v="Tjuvsengdalen" />
		<tag k="natural" v="valley" />
		<tag k="place" v="locality" />
		<tag k="ssr:stedsnr" v="529300" />
	</node>
	<node id="-237185" lat="59.3524000029" lon="9.29974722393">
		<tag k="name" v="Elge-kjøkenet" />
		<tag k="natural" v="slope" />
		<tag k="place" v="locality" />
		<tag k="ssr:stedsnr" v="529252" />
	</node>
	<node id="-237182" lat="59.4688972247" lon="9.25209444935">
		<tag k="name" v="Urdskot" />
		<tag k="natural" v="cliff" />
		<tag k="ssr:stedsnr" v="529203" />
	</node>
	<node id="-237181" lat="59.4668583327" lon="9.27252222129">
		<tag k="name" v="Bergenn-gutune" />
		<tag k="place" v="locality" />
		<tag k="ssr:stedsnr" v="529201" />
	</node>
	<node id="-237174" lat="59.4082388856" lon="9.30228332612">
		<tag k="name" v="Spirskotet" />
		<tag k="natural" v="cliff" />
		<tag k="ssr:stedsnr" v="529100" />
	</node>
	<node id="-237170" lat="59.3526527804" lon="9.17709723035">
		<tag k="fixme" v="consider natural=peak for the most distinct mountains in the district" />
		<tag k="name" v="Åsmyråsen" />
		<tag k="natural" v="hill" />
		<tag k="place" v="locality" />
		<tag k="ssr:stedsnr" v="529071" />
	</node>
	<node id="-237163" lat="59.3598527755" lon="9.27369167396">
		<tag k="name" v="Råtebru-dalen" />
		<tag k="natural" v="valley" />
		<tag k="place" v="locality" />
		<tag k="ssr:stedsnr" v="528784" />
	</node>
	<node id="-237160" lat="59.4529055574" lon="9.3551722285">
		<tag k="fixme" v="consider natural=peak for the most distinct mountains in the district" />
		<tag k="name" v="Brenna-åsen" />
		<tag k="natural" v="hill" />
		<tag k="place" v="locality" />
		<tag k="ssr:stedsnr" v="528714" />
	</node>
	<node id="-237159" lat="59.5168388863" lon="9.4156527796">
		<tag k="fixme" v="consider natural=peak for the most distinct mountains in the district" />
		<tag k="name" v="Steinsåsen" />
		<tag k="natural" v="hill" />
		<tag k="place" v="locality" />
		<tag k="ssr:stedsnr" v="528699" />
	</node>
	<node id="-237158" lat="59.4254194475" lon="9.36335555081">
		<tag k="name" v="Fjelldalen" />
		<tag k="natural" v="valley" />
		<tag k="place" v="locality" />
		<tag k="ssr:stedsnr" v="528684" />
	</node>
	<node id="-237154" lat="59.5274750038" lon="9.3604333278">
		<tag k="name" v="Ådalsmoen" />
		<tag k="place" v="locality" />
		<tag k="ssr:stedsnr" v="528662" />
	</node>
	<node id="-237148" lat="59.4306361146" lon="9.16520277529">
		<tag k="fixme" v="consider natural=peak for the most distinct mountains in the district" />
		<tag k="name" v="Tørrskanken" />
		<tag k="natural" v="hill" />
		<tag k="place" v="locality" />
		<tag k="ssr:stedsnr" v="528602" />
	</node>
	<node id="-237140" lat="59.4805527811" lon="9.45390555041">
		<tag k="name" v="Øvre-Djupedal" />
		<tag k="natural" v="valley" />
		<tag k="place" v="locality" />
		<tag k="ssr:stedsnr" v="528490" />
	</node>
	<node id="-237137" lat="59.5126000011" lon="9.45710556328">
		<tag k="name" v="Tjønnåslia" />
		<tag k="natural" v="slope" />
		<tag k="place" v="locality" />
		<tag k="ssr:stedsnr" v="528432" />
	</node>
	<node id="-237136" lat="59.5264055567" lon="9.42594722622">
		<tag k="name" v="Deildmyrskåtet" />
		<tag k="natural" v="valley" />
		<tag k="place" v="locality" />
		<tag k="ssr:stedsnr" v="528404" />
	</node>
	<node id="-237135" lat="59.4087583321" lon="9.36211943625">
		<tag k="name" v="Kabrettholet" />
		<tag k="natural" v="valley" />
		<tag k="place" v="locality" />
		<tag k="ssr:stedsnr" v="528398" />
	</node>
	<node id="-237126" lat="59.4915499998" lon="9.24052778523">
		<tag k="name" v="Slåtteseterliene" />
		<tag k="natural" v="slope" />
		<tag k="place" v="locality" />
		<tag k="ssr:stedsnr" v="529030" />
	</node>
	<node id="-237122" lat="59.5207972238" lon="9.46610276938">
		<tag k="name" v="Storehaug" />
		<tag k="natural" v="hill" />
		<tag k="place" v="locality" />
		<tag k="ssr:stedsnr" v="488716" />
	</node>
	<node id="-237119" lat="59.437249996" lon="9.26625556382">
		<tag k="name" v="Brattningsborg" />
		<tag k="natural" v="hill" />
		<tag k="place" v="locality" />
		<tag k="ssr:stedsnr" v="488941" />
	</node>
	<node id="-237109" lat="59.402630553" lon="9.23512223026">
		<tag k="alt_name" v="Vardefjell" />
		<tag k="fixme" v="consider natural=peak for the most distinct mountains in the district" />
		<tag k="name" v="Vesle Vardeåsen" />
		<tag k="natural" v="hill" />
		<tag k="place" v="locality" />
		<tag k="ssr:stedsnr" v="487901" />
	</node>
	<node id="-237100" lat="59.3722111104" lon="9.16499721769">
		<tag k="alt_name" v="Sulukollen, vle" />
		<tag k="name" v="Vesle Sulukoll" />
		<tag k="natural" v="hill" />
		<tag k="place" v="locality" />
		<tag k="ssr:stedsnr" v="487309" />
	</node>
	<node id="-237099" lat="59.3535833289" lon="9.14262222747">
		<tag k="alt_name" v="Løkedalen" />
		<tag k="name" v="Løkjedalen" />
		<tag k="natural" v="valley" />
		<tag k="place" v="locality" />
		<tag k="ssr:stedsnr" v="487271" />
	</node>
	<node id="-237092" lat="59.3939888884" lon="9.232216661">
		<tag k="name" v="Trengen" />
		<tag k="natural" v="valley" />
		<tag k="place" v="locality" />
		<tag k="ssr:stedsnr" v="469687" />
	</node>
	<node id="-237091" lat="59.4630416623" lon="9.30930278513">
		<tag k="fixme" v="consider natural=peak for the most distinct mountains in the district" />
		<tag k="name" v="Helsåsen" />
		<tag k="natural" v="hill" />
		<tag k="place" v="locality" />
		<tag k="ssr:stedsnr" v="468999" />
	</node>
	<node id="-237087" lat="59.4401000044" lon="9.32633889677">
		<tag k="name" v="Gvåladalen" />
		<tag k="natural" v="valley" />
		<tag k="place" v="locality" />
		<tag k="ssr:stedsnr" v="468923" />
	</node>
	<node id="-237083" lat="59.3565999986" lon="9.27401111379">
		<tag k="fixme" v="consider natural=peak for the most distinct mountains in the district" />
		<tag k="name" v="Fjellstulåsen" />
		<tag k="natural" v="hill" />
		<tag k="place" v="locality" />
		<tag k="ssr:stedsnr" v="468803" />
	</node>
	<node id="-237077" lat="59.4314750026" lon="9.35300832868">
		<tag k="name" v="Steindalen" />
		<tag k="natural" v="valley" />
		<tag k="place" v="locality" />
		<tag k="ssr:stedsnr" v="468650" />
	</node>
	<node id="-237075" lat="59.5317305591" lon="9.47239721608">
		<tag k="fixme" v="consider natural=peak for the most distinct mountains in the district" />
		<tag k="name" v="Kjørkjeholmen" />
		<tag k="natural" v="hill" />
		<tag k="place" v="locality" />
		<tag k="ssr:stedsnr" v="468638" />
	</node>
	<node id="-237073" lat="59.5493999969" lon="9.42000278376">
		<tag k="name" v="Breisetlia" />
		<tag k="natural" v="slope" />
		<tag k="place" v="locality" />
		<tag k="ssr:stedsnr" v="468625" />
	</node>
	<node id="-237071" lat="59.5486277763" lon="9.42890832602">
		<tag k="fixme" v="consider natural=peak for the most distinct mountains in the district" />
		<tag k="name" v="Geitenatten" />
		<tag k="natural" v="hill" />
		<tag k="place" v="locality" />
		<tag k="ssr:stedsnr" v="468607" />
	</node>
	<node id="-237070" lat="59.4407055512" lon="9.3380944488">
		<tag k="fixme" v="consider natural=peak for the most distinct mountains in the district" />
		<tag k="name" v="Haugedalsåsen" />
		<tag k="natural" v="hill" />
		<tag k="place" v="locality" />
		<tag k="ssr:stedsnr" v="468600" />
	</node>
	<node id="-237069" lat="59.4967166644" lon="9.39176943656">
		<tag k="name" v="Tyskhol" />
		<tag k="natural" v="valley" />
		<tag k="place" v="locality" />
		<tag k="ssr:stedsnr" v="468563" />
	</node>
	<node id="-237066" lat="59.4868083317" lon="9.35810000763">
		<tag k="name" v="Spinndalsliene" />
		<tag k="natural" v="slope" />
		<tag k="place" v="locality" />
		<tag k="ssr:stedsnr" v="468539" />
	</node>
	<node id="-237061" lat="59.4235805524" lon="9.28404166263">
		<tag k="name" v="Kastdalen" />
		<tag k="natural" v="valley" />
		<tag k="place" v="locality" />
		<tag k="ssr:stedsnr" v="468486" />
	</node>
	<node id="-237060" lat="59.4344277754" lon="9.31967778159">
		<tag k="fixme" v="consider natural=peak for the most distinct mountains in the district" />
		<tag k="name" v="Sundshaugen" />
		<tag k="natural" v="hill" />
		<tag k="place" v="locality" />
		<tag k="ssr:stedsnr" v="468478" />
	</node>
	<node id="-237059" lat="59.4328444436" lon="9.28925555511">
		<tag k="fixme" v="consider natural=peak for the most distinct mountains in the district" />
		<tag k="name" v="Hofsrudåsen" />
		<tag k="natural" v="hill" />
		<tag k="place" v="locality" />
		<tag k="ssr:stedsnr" v="468473" />
	</node>
	<node id="-237058" lat="59.4122805511" lon="9.26393056177">
		<tag k="name" v="Fentehaugen" />
		<tag k="natural" v="hill" />
		<tag k="place" v="locality" />
		<tag k="ssr:stedsnr" v="468459" />
	</node>
	<node id="-237054" lat="59.4283222188" lon="9.27600834169">
		<tag k="name" v="Rolighets-moen" />
		<tag k="place" v="locality" />
		<tag k="ssr:stedsnr" v="468412" />
	</node>
	<node id="-237053" lat="59.4786111088" lon="9.45283888946">
		<tag k="name" v="Nedre Djupedal" />
		<tag k="natural" v="valley" />
		<tag k="place" v="locality" />
		<tag k="ssr:stedsnr" v="468413" />
	</node>
	<node id="-237052" lat="59.4392861104" lon="9.25403610767">
		<tag k="name" v="Bekkedalen" />
		<tag k="natural" v="valley" />
		<tag k="place" v="locality" />
		<tag k="ssr:stedsnr" v="468290" />
	</node>
	<node id="-237046" lat="59.4687333312" lon="9.26445555855">
		<tag k="name" v="Åskota" />
		<tag k="natural" v="cliff" />
		<tag k="ssr:stedsnr" v="468215" />
	</node>
	<node id="-237045" lat="59.4761694437" lon="9.2517861058">
		<tag k="name" v="Slettemo" />
		<tag k="place" v="locality" />
		<tag k="ssr:stedsnr" v="468206" />
	</node>
	<node id="-237042" lat="59.4543916699" lon="9.25474167063">
		<tag k="name" v="Svarvestol-dalen" />
		<tag k="natural" v="valley" />
		<tag k="place" v="locality" />
		<tag k="ssr:stedsnr" v="468162" />
	</node>
	<node id="-237025" lat="59.4884055586" lon="9.24078333754">
		<tag k="name" v="Langrenna" />
		<tag k="natural" v="valley" />
		<tag k="place" v="locality" />
		<tag k="ssr:stedsnr" v="468050" />
	</node>
	<node id="-237023" lat="59.3831305522" lon="9.34707777895">
		<tag k="fixme" v="consider natural=peak for the most distinct mountains in the district" />
		<tag k="name" v="Pølen" />
		<tag k="natural" v="hill" />
		<tag k="place" v="locality" />
		<tag k="ssr:stedsnr" v="468325" />
	</node>
	<node id="-237021" lat="59.4550138879" lon="9.22954167236">
		<tag k="name" v="Hyttedalen" />
		<tag k="natural" v="valley" />
		<tag k="place" v="locality" />
		<tag k="ssr:stedsnr" v="468315" />
	</node>
	<node id="-237017" lat="59.4155416638" lon="9.37076943873">
		<tag k="name" v="Skinnfellmoen" />
		<tag k="place" v="locality" />
		<tag k="ssr:stedsnr" v="468304" />
	</node>
	<node id="-237012" lat="59.3848138918" lon="9.30038610442">
		<tag k="name" v="Holtslia" />
		<tag k="natural" v="slope" />
		<tag k="place" v="locality" />
		<tag k="ssr:stedsnr" v="467231" />
	</node>
	<node id="-237011" lat="59.4118333315" lon="9.38991110452">
		<tag k="fixme" v="consider natural=peak for the most distinct mountains in the district" />
		<tag k="name" v="Lysthusnatten" />
		<tag k="natural" v="hill" />
		<tag k="place" v="locality" />
		<tag k="ssr:stedsnr" v="467200" />
	</node>
	<node id="-237000" lat="59.3898249976" lon="9.35195554681">
		<tag k="alt_name" v="Skulsnibben" />
		<tag k="name" v="Skulssnippen" />
		<tag k="natural" v="hill" />
		<tag k="place" v="locality" />
		<tag k="ssr:stedsnr" v="427893" />
	</node>
	<node id="-236993" lat="59.4215027775" lon="9.20465556415">
		<tag k="alt_name" v="Fugleleikhaugene" />
		<tag k="fixme" v="consider natural=peak for the most distinct mountains in the district" />
		<tag k="name" v="Fuglleikhaugane" />
		<tag k="natural" v="hill" />
		<tag k="place" v="locality" />
		<tag k="ssr:stedsnr" v="427406" />
	</node>
	<node id="-236989" lat="59.3427083294" lon="9.13990277424">
		<tag k="alt_name" v="Skinås" />
		<tag k="fixme" v="consider natural=peak for the most distinct mountains in the district" />
		<tag k="name" v="Skjenås" />
		<tag k="natural" v="hill" />
		<tag k="place" v="locality" />
		<tag k="ssr:stedsnr" v="427273" />
	</node>
	<node id="-236988" lat="59.3275361077" lon="9.20345834142">
		<tag k="alt_name" v="Ramsenatten, store;Store Ramseknatten" />
		<tag k="fixme" v="consider natural=peak for the most distinct mountains in the district" />
		<tag k="name" v="Store Ramsenatten" />
		<tag k="natural" v="hill" />
		<tag k="place" v="locality" />
		<tag k="ssr:stedsnr" v="427242" />
	</node>
	<node id="-236985" lat="59.4725222223" lon="9.34473333377">
		<tag k="alt_name" v="Haugåsen" />
		<tag k="fixme" v="consider natural=peak for the most distinct mountains in the district" />
		<tag k="name" v="Haugås" />
		<tag k="natural" v="hill" />
		<tag k="place" v="locality" />
		<tag k="ssr:stedsnr" v="427039" />
	</node>
	<node id="-236974" lat="59.5077749998" lon="9.37792500763">
		<tag k="fixme" v="consider natural=peak for the most distinct mountains in the district" />
		<tag k="name" v="Høgelifjell" />
		<tag k="natural" v="hill" />
		<tag k="place" v="locality" />
		<tag k="ssr:stedsnr" v="246686" />
	</node>
	<node id="-236962" lat="59.39750278" lon="9.32736388206">
		<tag k="alt_name" v="Smedsvål-åsen" />
		<tag k="fixme" v="consider natural=peak for the most distinct mountains in the district" />
		<tag k="name" v="Smedsvalåsen" />
		<tag k="natural" v="hill" />
		<tag k="place" v="locality" />
		<tag k="ssr:stedsnr" v="245892" />
	</node>
	<node id="-236958" lat="59.3493388873" lon="9.27803610661">
		<tag k="fixme" v="consider natural=peak for the most distinct mountains in the district" />
		<tag k="name" v="Ottersnesfjellet" />
		<tag k="natural" v="hill" />
		<tag k="place" v="locality" />
		<tag k="ssr:stedsnr" v="245828" />
	</node>
	<node id="-236956" lat="59.3642166677" lon="9.29144167234">
		<tag k="fixme" v="consider natural=peak for the most distinct mountains in the district" />
		<tag k="name" v="Nysefjell" />
		<tag k="natural" v="hill" />
		<tag k="place" v="locality" />
		<tag k="ssr:stedsnr" v="245800" />
	</node>
	<node id="-236948" lat="59.3604749977" lon="9.13471945146">
		<tag k="fixme" v="consider natural=peak for the most distinct mountains in the district" />
		<tag k="name" v="Griseryggen" />
		<tag k="natural" v="hill" />
		<tag k="place" v="locality" />
		<tag k="ssr:stedsnr" v="245234" />
	</node>
	<node id="-236932" lat="59.4197194441" lon="9.18448611387">
		<tag k="name" v="Bjørndalen" />
		<tag k="natural" v="valley" />
		<tag k="place" v="locality" />
		<tag k="ssr:stedsnr" v="226651" />
	</node>
	<node id="-236930" lat="59.4308000039" lon="9.31216110333">
		<tag k="name" v="Miledalen" />
		<tag k="natural" v="valley" />
		<tag k="place" v="locality" />
		<tag k="ssr:stedsnr" v="226637" />
	</node>
	<node id="-236927" lat="59.4835833353" lon="9.36077778355">
		<tag k="name" v="Spinndals-liene" />
		<tag k="natural" v="slope" />
		<tag k="place" v="locality" />
		<tag k="ssr:stedsnr" v="226593" />
	</node>
	<node id="-236921" lat="59.3304555582" lon="9.21579445103">
		<tag k="name" v="Syngardalene" />
		<tag k="natural" v="valley" />
		<tag k="place" v="locality" />
		<tag k="ssr:stedsnr" v="226130" />
	</node>
	<node id="-236917" lat="59.5036138863" lon="9.28621667348">
		<tag k="fixme" v="consider natural=peak for the most distinct mountains in the district" />
		<tag k="name" v="Vesleåsen" />
		<tag k="natural" v="hill" />
		<tag k="place" v="locality" />
		<tag k="ssr:stedsnr" v="226040" />
	</node>
	<node id="-236916" lat="59.3394111079" lon="9.20633055701">
		<tag k="fixme" v="consider natural=peak for the most distinct mountains in the district" />
		<tag k="name" v="Folgedalsåsen" />
		<tag k="natural" v="hill" />
		<tag k="place" v="locality" />
		<tag k="ssr:stedsnr" v="226038" />
	</node>
	<node id="-236915" lat="59.4854361108" lon="9.25181111486">
		<tag k="name" v="Roestul-liene" />
		<tag k="natural" v="slope" />
		<tag k="place" v="locality" />
		<tag k="ssr:stedsnr" v="226029" />
	</node>
	<node id="-236912" lat="59.4387805586" lon="9.33224166475">
		<tag k="fixme" v="consider natural=peak for the most distinct mountains in the district" />
		<tag k="name" v="Hvitås" />
		<tag k="natural" v="hill" />
		<tag k="place" v="locality" />
		<tag k="ssr:stedsnr" v="225924" />
	</node>
	<node id="-236907" lat="59.3574305591" lon="9.28001111259">
		<tag k="name" v="Ingridskleiv" />
		<tag k="natural" v="cliff" />
		<tag k="ssr:stedsnr" v="225796" />
	</node>
	<node id="-236902" lat="59.5423500017" lon="9.4538027826">
		<tag k="name" v="Høgstullia" />
		<tag k="natural" v="slope" />
		<tag k="place" v="locality" />
		<tag k="ssr:stedsnr" v="225681" />
	</node>
	<node id="-236900" lat="59.4089388877" lon="9.2410027864">
		<tag k="name" v="Lauvdalen" />
		<tag k="natural" v="valley" />
		<tag k="place" v="locality" />
		<tag k="ssr:stedsnr" v="225536" />
	</node>
	<node id="-236892" lat="59.4102249959" lon="9.36760278306">
		<tag k="name" v="Børtevassliene" />
		<tag k="natural" v="slope" />
		<tag k="place" v="locality" />
		<tag k="ssr:stedsnr" v="225371" />
	</node>
	<node id="-236889" lat="59.3653305592" lon="9.29953055746">
		<tag k="name" v="Ulevassdalen" />
		<tag k="natural" v="valley" />
		<tag k="place" v="locality" />
		<tag k="ssr:stedsnr" v="225292" />
	</node>
	<node id="-236884" lat="59.3545805548" lon="9.13633611394">
		<tag k="name" v="Sol-liene" />
		<tag k="natural" v="slope" />
		<tag k="place" v="locality" />
		<tag k="ssr:stedsnr" v="225162" />
	</node>
	<node id="-236882" lat="59.4528194453" lon="9.27480276914">
		<tag k="name" v="Sjølskota" />
		<tag k="natural" v="slope" />
		<tag k="place" v="locality" />
		<tag k="ssr:stedsnr" v="225150" />
	</node>
	<node id="-236879" lat="59.4088972194" lon="9.33732777501">
		<tag k="fixme" v="consider natural=peak for the most distinct mountains in the district" />
		<tag k="name" v="Øverland-åsen" />
		<tag k="natural" v="hill" />
		<tag k="place" v="locality" />
		<tag k="ssr:stedsnr" v="225102" />
	</node>
	<node id="-236873" lat="59.5205333291" lon="9.34996944695">
		<tag k="name" v="Bleka" />
		<tag k="place" v="locality" />
		<tag k="ssr:stedsnr" v="225583" />
	</node>
	<node id="-236871" lat="59.5188916707" lon="9.39530832714">
		<tag k="name" v="Gråndalen" />
		<tag k="natural" v="valley" />
		<tag k="place" v="locality" />
		<tag k="ssr:stedsnr" v="225580" />
	</node>
	<node id="-236870" lat="59.4991527801" lon="9.41098611113">
		<tag k="alt_name" v="Budals-stugo" />
		<tag k="name" v="Budalen" />
		<tag k="natural" v="valley" />
		<tag k="place" v="locality" />
		<tag k="ssr:stedsnr" v="224401" />
	</node>
	<node id="-236869" lat="59.4317888858" lon="9.3722222306">
		<tag k="name" v="Kuslungbotnen" />
		<tag k="natural" v="valley" />
		<tag k="place" v="locality" />
		<tag k="ssr:stedsnr" v="203792" />
	</node>
	<node id="-236863" lat="59.4126916678" lon="9.23903889019">
		<tag k="fixme" v="consider natural=peak for the most distinct mountains in the district" />
		<tag k="name" v="Vegemfjellet" />
		<tag k="natural" v="hill" />
		<tag k="place" v="locality" />
		<tag k="ssr:stedsnr" v="184999" />
	</node>
	<node id="-236852" lat="59.3754944458" lon="9.28952500118">
		<tag k="fixme" v="consider natural=peak for the most distinct mountains in the district" />
		<tag k="name" v="Haukvikfjellet" />
		<tag k="natural" v="hill" />
		<tag k="place" v="locality" />
		<tag k="ssr:stedsnr" v="184796" />
	</node>
	<node id="-236840" lat="59.4364361146" lon="9.33504999763">
		<tag k="fixme" v="consider natural=peak for the most distinct mountains in the district" />
		<tag k="name" v="Svartåsen" />
		<tag k="natural" v="hill" />
		<tag k="place" v="locality" />
		<tag k="ssr:stedsnr" v="165952" />
	</node>
	<node id="-236838" lat="59.4443611073" lon="9.17433056112">
		<tag k="fixme" v="consider natural=peak for the most distinct mountains in the district" />
		<tag k="name" v="Storhøvd" />
		<tag k="natural" v="hill" />
		<tag k="ssr:stedsnr" v="165689" />
	</node>
	<node id="-236826" lat="59.4069694457" lon="9.22657221454">
		<tag k="fixme" v="consider natural=peak for the most distinct mountains in the district" />
		<tag k="name" v="Holtan-åsen" />
		<tag k="natural" v="hill" />
		<tag k="place" v="locality" />
		<tag k="ssr:stedsnr" v="165436" />
	</node>
	<node id="-236818" lat="59.3480166682" lon="9.19221389493">
		<tag k="fixme" v="consider natural=peak for the most distinct mountains in the district" />
		<tag k="name" v="Liåsen" />
		<tag k="natural" v="hill" />
		<tag k="place" v="locality" />
		<tag k="ssr:stedsnr" v="165099" />
	</node>
	<node id="-236815" lat="59.495286114" lon="9.20642500716">
		<tag k="fixme" v="consider natural=peak for the most distinct mountains in the district" />
		<tag k="name" v="Blomtjønnåsen" />
		<tag k="natural" v="hill" />
		<tag k="place" v="locality" />
		<tag k="ssr:stedsnr" v="165050" />
	</node>
	<node id="-236809" lat="59.4324472208" lon="9.32695554776">
		<tag k="fixme" v="consider natural=peak for the most distinct mountains in the district" />
		<tag k="name" v="Kyrkjehaug" />
		<tag k="natural" v="hill" />
		<tag k="place" v="locality" />
		<tag k="ssr:stedsnr" v="164931" />
	</node>
	<node id="-236808" lat="59.4257583312" lon="9.34042500271">
		<tag k="name" v="Hanekoll-lia" />
		<tag k="natural" v="slope" />
		<tag k="place" v="locality" />
		<tag k="ssr:stedsnr" v="164924" />
	</node>
	<node id="-236803" lat="59.5252527774" lon="9.49130833254">
		<tag k="fixme" v="consider natural=peak for the most distinct mountains in the district" />
		<tag k="name" v="Arebunatten" />
		<tag k="natural" v="hill" />
		<tag k="place" v="locality" />
		<tag k="ssr:stedsnr" v="164741" />
	</node>
	<node id="-236792" lat="59.5013583359" lon="9.45404722156">
		<tag k="fixme" v="consider natural=peak for the most distinct mountains in the district" />
		<tag k="name" v="Flåttefjell" />
		<tag k="natural" v="hill" />
		<tag k="place" v="locality" />
		<tag k="ssr:stedsnr" v="164510" />
	</node>
	<node id="-236791" lat="59.4976944429" lon="9.44976666501">
		<tag k="name" v="Mjågesund-dalen" />
		<tag k="natural" v="valley" />
		<tag k="place" v="locality" />
		<tag k="ssr:stedsnr" v="164509" />
	</node>
	<node id="-236784" lat="59.4087027738" lon="9.38127778412">
		<tag k="name" v="Gullbufjell" />
		<tag k="natural" v="hill" />
		<tag k="place" v="locality" />
		<tag k="ssr:stedsnr" v="164223" />
	</node>
	<node id="-236783" lat="59.4050444433" lon="9.36903889215">
		<tag k="name" v="Nordagutuliene" />
		<tag k="natural" v="slope" />
		<tag k="place" v="locality" />
		<tag k="ssr:stedsnr" v="164218" />
	</node>
	<node id="-236782" lat="59.443488891" lon="9.24857499302">
		<tag k="name" v="Kringsås-hovet" />
		<tag k="place" v="locality" />
		<tag k="ssr:stedsnr" v="164206" />
	</node>
	<node id="-236780" lat="59.4543388923" lon="9.27858055023">
		<tag k="name" v="Knølen" />
		<tag k="natural" v="hill" />
		<tag k="place" v="locality" />
		<tag k="ssr:stedsnr" v="164137" />
	</node>
	<node id="-236761" lat="59.3690250022" lon="9.33640833894">
		<tag k="alt_name" v="Svarttjørnddalen" />
		<tag k="name" v="Svarttjønndalen" />
		<tag k="natural" v="valley" />
		<tag k="place" v="locality" />
		<tag k="ssr:stedsnr" v="123819" />
	</node>
	<node id="-236760" lat="59.4313166664" lon="9.16017221738">
		<tag k="alt_name" v="Kviteflog" />
		<tag k="name" v="Gviteflåg" />
		<tag k="natural" v="slope" />
		<tag k="place" v="locality" />
		<tag k="ssr:stedsnr" v="123459" />
	</node>
	<node id="-236757" lat="59.3718583362" lon="9.15975000009">
		<tag k="name" v="Hetterudkollen" />
		<tag k="natural" v="hill" />
		<tag k="place" v="locality" />
		<tag k="ssr:stedsnr" v="123327" />
	</node>
	<node id="-236756" lat="59.3671805561" lon="9.13699721532">
		<tag k="alt_name" v="Bjørnlikollene" />
		<tag k="name" v="Bjørnlikollen" />
		<tag k="natural" v="hill" />
		<tag k="place" v="locality" />
		<tag k="ssr:stedsnr" v="123325" />
	</node>
	<node id="-236753" lat="59.4868055535" lon="9.40833333443">
		<tag k="fixme" v="consider natural=peak for the most distinct mountains in the district" />
		<tag k="name" v="Sæterdalsfjell" />
		<tag k="natural" v="hill" />
		<tag k="place" v="locality" />
		<tag k="ssr:stedsnr" v="123069" />
	</node>
	<node id="-236741" lat="59.4893138862" lon="9.28232499951">
		<tag k="name" v="Masteskotet" />
		<tag k="natural" v="cliff" />
		<tag k="ssr:stedsnr" v="105243" />
	</node>
	<node id="-236739" lat="59.4867972184" lon="9.21181666625">
		<tag k="name" v="Godlidalen" />
		<tag k="natural" v="valley" />
		<tag k="place" v="locality" />
		<tag k="ssr:stedsnr" v="105064" />
	</node>
	<node id="-236736" lat="59.4323833347" lon="9.34313056209">
		<tag k="name" v="Kvennhuskåsa" />
		<tag k="natural" v="slope" />
		<tag k="place" v="locality" />
		<tag k="ssr:stedsnr" v="104923" />
	</node>
	<node id="-236728" lat="59.459386113" lon="9.38525000251">
		<tag k="fixme" v="consider natural=peak for the most distinct mountains in the district" />
		<tag k="name" v="Vestre Holtstjønnfjellet" />
		<tag k="natural" v="hill" />
		<tag k="place" v="locality" />
		<tag k="ssr:stedsnr" v="104715" />
	</node>
	<node id="-236726" lat="59.4516305535" lon="9.36594444482">
		<tag k="name" v="Svartdiket" />
		<tag k="natural" v="valley" />
		<tag k="place" v="locality" />
		<tag k="ssr:stedsnr" v="104707" />
	</node>
	<node id="-236725" lat="59.4480472233" lon="9.34815555062">
		<tag k="fixme" v="consider natural=peak for the most distinct mountains in the district" />
		<tag k="name" v="Lauvåsen" />
		<tag k="natural" v="hill" />
		<tag k="place" v="locality" />
		<tag k="ssr:stedsnr" v="104686" />
	</node>
	<node id="-236724" lat="59.4207694453" lon="9.35735555738">
		<tag k="name" v="Nordvårstulhaugene" />
		<tag k="natural" v="hill" />
		<tag k="place" v="locality" />
		<tag k="ssr:stedsnr" v="104680" />
	</node>
	<node id="-236719" lat="59.4302277808" lon="9.30803889004">
		<tag k="name" v="Dyrdals-spranget" />
		<tag k="natural" v="slope" />
		<tag k="place" v="locality" />
		<tag k="ssr:stedsnr" v="104600" />
	</node>
	<node id="-236717" lat="59.4333944413" lon="9.17236667201">
		<tag k="name" v="Tveitbrekkene" />
		<tag k="natural" v="slope" />
		<tag k="place" v="locality" />
		<tag k="ssr:stedsnr" v="104578" />
	</node>
	<node id="-236713" lat="59.468816665" lon="9.43173333737">
		<tag k="name" v="Sponlia" />
		<tag k="natural" v="slope" />
		<tag k="place" v="locality" />
		<tag k="ssr:stedsnr" v="104476" />
	</node>
	<node id="-236711" lat="59.3637027737" lon="9.36673889232">
		<tag k="name" v="Knuteliene" />
		<tag k="natural" v="slope" />
		<tag k="place" v="locality" />
		<tag k="ssr:stedsnr" v="104459" />
	</node>
	<node id="-236709" lat="59.4346555592" lon="9.24191665939">
		<tag k="fixme" v="consider natural=peak for the most distinct mountains in the district" />
		<tag k="name" v="Beller-ås" />
		<tag k="natural" v="hill" />
		<tag k="place" v="locality" />
		<tag k="ssr:stedsnr" v="104444" />
	</node>
	<node id="-236707" lat="59.4955416684" lon="9.40342499444">
		<tag k="name" v="Burotdalen" />
		<tag k="natural" v="valley" />
		<tag k="place" v="locality" />
		<tag k="ssr:stedsnr" v="104410" />
	</node>
	<node id="-236704" lat="59.3571666711" lon="9.3126388904">
		<tag k="fixme" v="consider natural=peak for the most distinct mountains in the district" />
		<tag k="name" v="Svarttjønn-natten" />
		<tag k="natural" v="hill" />
		<tag k="ssr:stedsnr" v="104310" />
	</node>
	<node id="-236702" lat="59.3798527768" lon="9.15591388358">
		<tag k="name" v="Skroftedalen" />
		<tag k="natural" v="valley" />
		<tag k="place" v="locality" />
		<tag k="ssr:stedsnr" v="104235" />
	</node>
	<node id="-236698" lat="59.4419944482" lon="9.27987222712">
		<tag k="name" v="Langeskår" />
		<tag k="natural" v="valley" />
		<tag k="place" v="locality" />
		<tag k="ssr:stedsnr" v="104187" />
	</node>
	<node id="-236696" lat="59.4770027795" lon="9.23003333861">
		<tag k="fixme" v="consider natural=peak for the most distinct mountains in the district" />
		<tag k="name" v="Vestre Helgebuåsen" />
		<tag k="natural" v="hill" />
		<tag k="place" v="locality" />
		<tag k="ssr:stedsnr" v="104160" />
	</node>
	<node id="-236695" lat="59.474169443" lon="9.18098611414">
		<tag k="fixme" v="consider natural=peak for the most distinct mountains in the district" />
		<tag k="name" v="Dufre-fjell" />
		<tag k="natural" v="hill" />
		<tag k="place" v="locality" />
		<tag k="ssr:stedsnr" v="104158" />
	</node>
	<node id="-236691" lat="59.509969442" lon="9.33373611966">
		<tag k="name" v="Lauvhaugen" />
		<tag k="natural" v="hill" />
		<tag k="place" v="locality" />
		<tag k="ssr:stedsnr" v="104129" />
	</node>
	<node id="-236682" lat="59.3375083356" lon="9.18161388749">
		<tag k="name" v="Bjørndalen" />
		<tag k="natural" v="valley" />
		<tag k="place" v="locality" />
		<tag k="ssr:stedsnr" v="104052" />
	</node>
	<node id="-236681" lat="59.3442361098" lon="9.17772777242">
		<tag k="fixme" v="consider natural=peak for the most distinct mountains in the district" />
		<tag k="name" v="Gjernestjønnkollen" />
		<tag k="natural" v="hill" />
		<tag k="place" v="locality" />
		<tag k="ssr:stedsnr" v="104050" />
	</node>
	<node id="-236679" lat="59.4471416649" lon="9.29259722158">
		<tag k="name" v="Kringsåsliene" />
		<tag k="natural" v="slope" />
		<tag k="place" v="locality" />
		<tag k="ssr:stedsnr" v="104026" />
	</node>
	<node id="-236678" lat="59.4461138879" lon="9.3435861136">
		<tag k="name" v="Grotmoldalen" />
		<tag k="natural" v="valley" />
		<tag k="place" v="locality" />
		<tag k="ssr:stedsnr" v="103239" />
	</node>
	<node id="-236676" lat="59.3902777762" lon="9.29930277378">
		<tag k="name" v="Skurvåsene" />
		<tag k="natural" v="hill" />
		<tag k="place" v="locality" />
		<tag k="ssr:stedsnr" v="103223" />
	</node>
	<node id="-236675" lat="59.4755583377" lon="9.4468333306">
		<tag k="fixme" v="consider natural=peak for the most distinct mountains in the district" />
		<tag k="name" v="Geitås" />
		<tag k="natural" v="hill" />
		<tag k="place" v="locality" />
		<tag k="ssr:stedsnr" v="82789" />
	</node>
	<node id="-236672" lat="59.5406500007" lon="9.41790277061">
		<tag k="name" v="Astridåsen" />
		<tag k="natural" v="hill" />
		<tag k="place" v="locality" />
		<tag k="ssr:stedsnr" v="64778" />
	</node>
	<node id="-236671" lat="59.5289250034" lon="9.41529999828">
		<tag k="name" v="Grønekoll" />
		<tag k="natural" v="hill" />
		<tag k="place" v="locality" />
		<tag k="ssr:stedsnr" v="64746" />
	</node>
	<node id="-236659" lat="59.4042833296" lon="9.38321110784">
		<tag k="alt_name" v="Bjørndalsfjell" />
		<tag k="fixme" v="consider natural=peak for the most distinct mountains in the district" />
		<tag k="name" v="Bjørndalsfjellet" />
		<tag k="natural" v="hill" />
		<tag k="place" v="locality" />
		<tag k="ssr:stedsnr" v="63867" />
	</node>
	<node id="-236651" lat="59.3876777793" lon="9.13173054855">
		<tag k="name" v="Godal" />
		<tag k="natural" v="valley" />
		<tag k="place" v="locality" />
		<tag k="ssr:stedsnr" v="63348" />
	</node>
	<node id="-236649" lat="59.3295388865" lon="9.20605833105">
		<tag k="alt_name" v="Ramsenatten, vle;Vesle Ramseknatten" />
		<tag k="fixme" v="consider natural=peak for the most distinct mountains in the district" />
		<tag k="name" v="Vesle Ramsenatten" />
		<tag k="natural" v="hill" />
		<tag k="place" v="locality" />
		<tag k="ssr:stedsnr" v="63236" />
	</node>
	<node id="-236645" lat="59.4607861088" lon="9.38381944536">
		<tag k="name" v="Hytteskota" />
		<tag k="natural" v="hill" />
		<tag k="place" v="locality" />
		<tag k="ssr:stedsnr" v="63028" />
	</node>
	<node id="-236637" lat="59.473516665" lon="9.27815000082">
		<tag k="fixme" v="consider natural=peak for the most distinct mountains in the district" />
		<tag k="name" v="Dalsås" />
		<tag k="natural" v="hill" />
		<tag k="place" v="locality" />
		<tag k="ssr:stedsnr" v="44221" />
	</node>
	<node id="-236636" lat="59.4750916673" lon="9.26700278204">
		<tag k="fixme" v="consider natural=peak for the most distinct mountains in the district" />
		<tag k="name" v="Stampe-åsene" />
		<tag k="natural" v="hill" />
		<tag k="place" v="locality" />
		<tag k="ssr:stedsnr" v="44220" />
	</node>
	<node id="-236635" lat="59.4827722238" lon="9.23624721619">
		<tag k="fixme" v="consider natural=peak for the most distinct mountains in the district" />
		<tag k="name" v="Fugle-åsen" />
		<tag k="natural" v="hill" />
		<tag k="place" v="locality" />
		<tag k="ssr:stedsnr" v="44213" />
	</node>
	<node id="-236634" lat="59.3252583341" lon="9.20834444954">
		<tag k="fixme" v="consider natural=peak for the most distinct mountains in the district" />
		<tag k="name" v="Middagskollen" />
		<tag k="natural" v="hill" />
		<tag k="place" v="locality" />
		<tag k="ssr:stedsnr" v="44118" />
	</node>
	<node id="-236628" lat="59.4660388884" lon="9.34058888408">
		<tag k="name" v="Hønsekleiv" />
		<tag k="natural" v="slope" />
		<tag k="place" v="locality" />
		<tag k="ssr:stedsnr" v="43995" />
	</node>
	<node id="-236625" lat="59.4202166688" lon="9.31483056373">
		<tag k="name" v="Djupedal" />
		<tag k="natural" v="valley" />
		<tag k="place" v="locality" />
		<tag k="ssr:stedsnr" v="43966" />
	</node>
	<node id="-236624" lat="59.3443722236" lon="9.26095277019">
		<tag k="name" v="Skrubbeberga" />
		<tag k="natural" v="hill" />
		<tag k="place" v="locality" />
		<tag k="ssr:stedsnr" v="43919" />
	</node>
	<node id="-236622" lat="59.3476694459" lon="9.25901389319">
		<tag k="fixme" v="consider natural=peak for the most distinct mountains in the district" />
		<tag k="name" v="Gjeldbekaråsen" />
		<tag k="natural" v="hill" />
		<tag k="place" v="locality" />
		<tag k="ssr:stedsnr" v="43916" />
	</node>
	<node id="-236617" lat="59.3712638862" lon="9.27464165821">
		<tag k="name" v="Gruve-liene" />
		<tag k="natural" v="slope" />
		<tag k="place" v="locality" />
		<tag k="ssr:stedsnr" v="43811" />
	</node>
	<node id="-236616" lat="59.3568972242" lon="9.2631527692">
		<tag k="name" v="Stange-kyrkja" />
		<tag k="place" v="locality" />
		<tag k="ssr:stedsnr" v="43808" />
	</node>
	<node id="-236613" lat="59.4369555552" lon="9.35231943966">
		<tag k="fixme" v="consider natural=peak for the most distinct mountains in the district" />
		<tag k="name" v="Kløvja-åsen" />
		<tag k="natural" v="hill" />
		<tag k="place" v="locality" />
		<tag k="ssr:stedsnr" v="43663" />
	</node>
	<node id="-236612" lat="59.5277388896" lon="9.38173610761">
		<tag k="fixme" v="consider natural=peak for the most distinct mountains in the district" />
		<tag k="name" v="Stavsås" />
		<tag k="natural" v="hill" />
		<tag k="place" v="locality" />
		<tag k="ssr:stedsnr" v="43657" />
	</node>
	<node id="-236607" lat="59.4915055568" lon="9.36983333964">
		<tag k="name" v="Godthol" />
		<tag k="natural" v="valley" />
		<tag k="place" v="locality" />
		<tag k="ssr:stedsnr" v="43598" />
	</node>
	<node id="-236604" lat="59.4657249997" lon="9.36830832897">
		<tag k="name" v="Gamlestul-liene" />
		<tag k="natural" v="slope" />
		<tag k="place" v="locality" />
		<tag k="ssr:stedsnr" v="43580" />
	</node>
	<node id="-236603" lat="59.4889777795" lon="9.37754444021">
		<tag k="fixme" v="consider natural=peak for the most distinct mountains in the district" />
		<tag k="name" v="Kloppefjell" />
		<tag k="natural" v="hill" />
		<tag k="place" v="locality" />
		<tag k="ssr:stedsnr" v="43577" />
	</node>
	<node id="-236601" lat="59.5239166645" lon="9.34895277876">
		<tag k="name" v="Håpåldalen" />
		<tag k="natural" v="valley" />
		<tag k="place" v="locality" />
		<tag k="ssr:stedsnr" v="43545" />
	</node>
	<node id="-236600" lat="59.3631944451" lon="9.35045555583">
		<tag k="fixme" v="consider natural=peak for the most distinct mountains in the district" />
		<tag k="name" v="Stulsåsen" />
		<tag k="natural" v="hill" />
		<tag k="place" v="locality" />
		<tag k="ssr:stedsnr" v="43450" />
	</node>
	<node id="-236596" lat="59.510230555" lon="9.4809444466">
		<tag k="fixme" v="consider natural=peak for the most distinct mountains in the district" />
		<tag k="name" v="Søndre Kjellarfjell" />
		<tag k="natural" v="hill" />
		<tag k="place" v="locality" />
		<tag k="ssr:stedsnr" v="43726" />
	</node>
	<node id="-236590" lat="59.5236916696" lon="9.44209999653">
		<tag k="name" v="Tjyruhjellskåtet" />
		<tag k="natural" v="cliff" />
		<tag k="ssr:stedsnr" v="43358" />
	</node>
	<node id="-236588" lat="59.3434333308" lon="9.29593888233">
		<tag k="fixme" v="consider natural=peak for the most distinct mountains in the district" />
		<tag k="name" v="Kroktjønnåsen" />
		<tag k="natural" v="hill" />
		<tag k="place" v="locality" />
		<tag k="ssr:stedsnr" v="43262" />
	</node>
	<node id="-236587" lat="59.3754194424" lon="9.3188166731">
		<tag k="name" v="Fugleleik-haugene" />
		<tag k="natural" v="hill" />
		<tag k="place" v="locality" />
		<tag k="ssr:stedsnr" v="43250" />
	</node>
	<node id="-236584" lat="59.4893555598" lon="9.42523333808">
		<tag k="name" v="Elgsfloget" />
		<tag k="place" v="locality" />
		<tag k="ssr:stedsnr" v="43406" />
	</node>
	<node id="-236583" lat="59.390961113" lon="9.35791389026">
		<tag k="name" v="Trengen" />
		<tag k="natural" v="valley" />
		<tag k="place" v="locality" />
		<tag k="ssr:stedsnr" v="43350" />
	</node>
	<node id="-236579" lat="59.3990472202" lon="9.37388333413">
		<tag k="name" v="Bjørndalen" />
		<tag k="natural" v="valley" />
		<tag k="place" v="locality" />
		<tag k="ssr:stedsnr" v="43176" />
	</node>
	<node id="-236577" lat="59.3666555594" lon="9.14990000519">
		<tag k="name" v="Bjørnlikollen" />
		<tag k="natural" v="hill" />
		<tag k="place" v="locality" />
		<tag k="ssr:stedsnr" v="43170" />
	</node>
	<node id="-236570" lat="59.4511499987" lon="9.29564722671">
		<tag k="name" v="Vierdalen" />
		<tag k="natural" v="valley" />
		<tag k="place" v="locality" />
		<tag k="ssr:stedsnr" v="43010" />
	</node>
	<node id="-236565" lat="59.5225722262" lon="9.47539722389">
		<tag k="name" v="Killingdalen" />
		<tag k="natural" v="valley" />
		<tag k="place" v="locality" />
		<tag k="ssr:stedsnr" v="3703" />
	</node>
	<node id="-236552" lat="59.4087916694" lon="9.35083056042">
		<tag k="alt_name" v="Krumleåsene" />
		<tag k="fixme" v="consider natural=peak for the most distinct mountains in the district" />
		<tag k="name" v="Krumleåsen" />
		<tag k="natural" v="hill" />
		<tag k="place" v="locality" />
		<tag k="ssr:stedsnr" v="2866" />
	</node>
	<node id="-236548" lat="59.4544527735" lon="9.20746666596">
		<tag k="alt_name" v="Svarttjørnåsen" />
		<tag k="fixme" v="consider natural=peak for the most distinct mountains in the district" />
		<tag k="name" v="Svartetjønnåsen" />
		<tag k="natural" v="hill" />
		<tag k="place" v="locality" />
		<tag k="ssr:stedsnr" v="2472" />
	</node>
	<node id="-236538" lat="59.3600555552" lon="9.14784166201">
		<tag k="alt_name" v="Einlifjell" />
		<tag k="fixme" v="consider natural=peak for the most distinct mountains in the district" />
		<tag k="name" v="Einlifjellet" />
		<tag k="natural" v="hill" />
		<tag k="place" v="locality" />
		<tag k="ssr:stedsnr" v="2254" />
	</node>
	<node id="-236537" lat="59.3444472249" lon="9.14954721922">
		<tag k="name" v="Røysetfjelldalen" />
		<tag k="natural" v="valley" />
		<tag k="place" v="locality" />
		<tag k="ssr:stedsnr" v="2251" />
	</node>
	<node id="-236501" lat="59.3872250035" lon="9.24649445032">
		<tag k="fixme" v="consider natural=peak for the most distinct mountains in the district" />
		<tag k="name" v="Kråkenabben" />
		<tag k="natural" v="hill" />
		<tag k="place" v="locality" />
		<tag k="ssr:stedsnr" v="894693" />
	</node>
	<node id="-236498" lat="59.4771888925" lon="9.321669445">
		<tag k="name" v="Hågåkleiva" />
		<tag k="natural" v="hill" />
		<tag k="place" v="locality" />
		<tag k="ssr:stedsnr" v="893987" />
	</node>
	<node id="-236497" lat="59.4712138867" lon="9.33988888615">
		<tag k="fixme" v="consider natural=peak for the most distinct mountains in the district" />
		<tag k="name" v="Svartås" />
		<tag k="natural" v="hill" />
		<tag k="place" v="locality" />
		<tag k="ssr:stedsnr" v="893975" />
	</node>
	<node id="-236496" lat="59.4251749987" lon="9.30015000442">
		<tag k="name" v="Moheim" />
		<tag k="natural" v="slope" />
		<tag k="place" v="locality" />
		<tag k="ssr:stedsnr" v="893953" />
	</node>
	<node id="-236493" lat="59.349061108" lon="9.27777221906">
		<tag k="fixme" v="consider natural=peak for the most distinct mountains in the district" />
		<tag k="name" v="Damtjønn-natten" />
		<tag k="natural" v="hill" />
		<tag k="place" v="locality" />
		<tag k="ssr:stedsnr" v="893908" />
	</node>
	<node id="-236488" lat="59.4506027774" lon="9.39281944994">
		<tag k="name" v="Håkåkleiv" />
		<tag k="natural" v="slope" />
		<tag k="place" v="locality" />
		<tag k="ssr:stedsnr" v="893697" />
	</node>
	<node id="-236486" lat="59.4232055563" lon="9.38674167318">
		<tag k="name" v="Einarhaugen" />
		<tag k="natural" v="hill" />
		<tag k="place" v="locality" />
		<tag k="ssr:stedsnr" v="893666" />
	</node>
	<node id="-236484" lat="59.4315611072" lon="9.34999721613">
		<tag k="name" v="Ingeberskleiv" />
		<tag k="natural" v="slope" />
		<tag k="place" v="locality" />
		<tag k="ssr:stedsnr" v="893646" />
	</node>
	<node id="-236483" lat="59.5349388914" lon="9.38267223075">
		<tag k="name" v="Nybuskotet" />
		<tag k="natural" v="slope" />
		<tag k="place" v="locality" />
		<tag k="ssr:stedsnr" v="893647" />
	</node>
	<node id="-236482" lat="59.5424916676" lon="9.46284166426">
		<tag k="name" v="Kilebråta" />
		<tag k="place" v="locality" />
		<tag k="ssr:stedsnr" v="893635" />
	</node>
	<node id="-236470" lat="59.4745111092" lon="9.30841666569">
		<tag k="name" v="Kongshem-berga" />
		<tag k="place" v="locality" />
		<tag k="ssr:stedsnr" v="893515" />
	</node>
	<node id="-236466" lat="59.3595972215" lon="9.35770277128">
		<tag k="name" v="Høymyrdalen" />
		<tag k="natural" v="valley" />
		<tag k="place" v="locality" />
		<tag k="ssr:stedsnr" v="893461" />
	</node>
	<node id="-236454" lat="59.3631861097" lon="9.31185277925">
		<tag k="fixme" v="consider natural=peak for the most distinct mountains in the district" />
		<tag k="name" v="Mannbeinfjell" />
		<tag k="natural" v="hill" />
		<tag k="place" v="locality" />
		<tag k="ssr:stedsnr" v="893264" />
	</node>
	<node id="-236452" lat="59.467997221" lon="9.20073888887">
		<tag k="name" v="Nybu-liene" />
		<tag k="natural" v="slope" />
		<tag k="place" v="locality" />
		<tag k="ssr:stedsnr" v="893262" />
	</node>
	<node id="-236443" lat="59.4617416708" lon="9.23298889464">
		<tag k="name" v="Bråtåtjønn-liene" />
		<tag k="natural" v="slope" />
		<tag k="place" v="locality" />
		<tag k="ssr:stedsnr" v="893197" />
	</node>
	<node id="-236441" lat="59.4772861093" lon="9.19531666663">
		<tag k="name" v="Klybbestul-liene" />
		<tag k="natural" v="slope" />
		<tag k="place" v="locality" />
		<tag k="ssr:stedsnr" v="893166" />
	</node>
	<node id="-236439" lat="59.4532166699" lon="9.24924443648">
		<tag k="fixme" v="consider natural=peak for the most distinct mountains in the district" />
		<tag k="name" v="Gvantjønn-åsene" />
		<tag k="natural" v="hill" />
		<tag k="place" v="locality" />
		<tag k="ssr:stedsnr" v="893158" />
	</node>
	<node id="-236434" lat="59.3291499963" lon="9.21061666173">
		<tag k="fixme" v="consider natural=peak for the most distinct mountains in the district" />
		<tag k="name" v="Skjenås" />
		<tag k="natural" v="hill" />
		<tag k="place" v="locality" />
		<tag k="ssr:stedsnr" v="893116" />
	</node>
	<node id="-236432" lat="59.3347250012" lon="9.20207222791">
		<tag k="fixme" v="consider natural=peak for the most distinct mountains in the district" />
		<tag k="name" v="Ullerås" />
		<tag k="natural" v="hill" />
		<tag k="place" v="locality" />
		<tag k="ssr:stedsnr" v="893098" />
	</node>
	<node id="-236428" lat="59.4891555549" lon="9.22917222511">
		<tag k="name" v="Svarttjønn-hova" />
		<tag k="natural" v="hill" />
		<tag k="place" v="locality" />
		<tag k="ssr:stedsnr" v="893065" />
	</node>
	<node id="-236426" lat="59.4873694437" lon="9.25537222124">
		<tag k="fixme" v="consider natural=peak for the most distinct mountains in the district" />
		<tag k="name" v="Deiltjønnåsene" />
		<tag k="natural" v="hill" />
		<tag k="place" v="locality" />
		<tag k="ssr:stedsnr" v="893034" />
	</node>
	<node id="-236412" lat="59.4821972219" lon="9.27961111964">
		<tag k="fixme" v="consider natural=peak for the most distinct mountains in the district" />
		<tag k="name" v="Damtjønn-åsene" />
		<tag k="natural" v="hill" />
		<tag k="place" v="locality" />
		<tag k="ssr:stedsnr" v="408215" />
	</node>
	<node id="-236411" lat="59.4668333296" lon="9.26826943909">
		<tag k="name" v="Å-rinnen" />
		<tag k="place" v="locality" />
		<tag k="ssr:stedsnr" v="408213" />
	</node>
	<node id="-236408" lat="59.3274638931" lon="9.19459166145">
		<tag k="fixme" v="consider natural=peak for the most distinct mountains in the district" />
		<tag k="name" v="Versmyråsen" />
		<tag k="natural" v="hill" />
		<tag k="place" v="locality" />
		<tag k="ssr:stedsnr" v="408138" />
	</node>
	<node id="-236406" lat="59.4927361093" lon="9.20539445243">
		<tag k="fixme" v="consider natural=peak for the most distinct mountains in the district" />
		<tag k="name" v="Myrenn-åsen" />
		<tag k="natural" v="hill" />
		<tag k="place" v="locality" />
		<tag k="ssr:stedsnr" v="408056" />
	</node>
	<node id="-236398" lat="59.4336777804" lon="9.33671666674">
		<tag k="fixme" v="consider natural=peak for the most distinct mountains in the district" />
		<tag k="name" v="Skåpilmyr-åsen" />
		<tag k="natural" v="hill" />
		<tag k="place" v="locality" />
		<tag k="ssr:stedsnr" v="407935" />
	</node>
	<node id="-236391" lat="59.3605472198" lon="9.28374999588">
		<tag k="fixme" v="consider natural=peak for the most distinct mountains in the district" />
		<tag k="name" v="Uldrefloget" />
		<tag k="natural" v="hill" />
		<tag k="place" v="locality" />
		<tag k="ssr:stedsnr" v="407826" />
	</node>
	<node id="-236386" lat="59.5069722232" lon="9.47552222228">
		<tag k="name" v="Solveruddalen" />
		<tag k="natural" v="valley" />
		<tag k="place" v="locality" />
		<tag k="ssr:stedsnr" v="407751" />
	</node>
	<node id="-236380" lat="59.4292027769" lon="9.37357777791">
		<tag k="name" v="Gvittingen" />
		<tag k="natural" v="slope" />
		<tag k="place" v="locality" />
		<tag k="ssr:stedsnr" v="407723" />
	</node>
	<node id="-236378" lat="59.533155558" lon="9.44543611882">
		<tag k="name" v="Monsvasshaugen" />
		<tag k="natural" v="hill" />
		<tag k="place" v="locality" />
		<tag k="ssr:stedsnr" v="407717" />
	</node>
	<node id="-236377" lat="59.5388972225" lon="9.41084445162">
		<tag k="name" v="Mekalsdiket" />
		<tag k="natural" v="valley" />
		<tag k="place" v="locality" />
		<tag k="ssr:stedsnr" v="407713" />
	</node>
	<node id="-236375" lat="59.4235333327" lon="9.35514443627">
		<tag k="name" v="Knipetangen" />
		<tag k="natural" v="ridge" />
		<tag k="place" v="locality" />
		<tag k="ssr:stedsnr" v="407702" />
	</node>
	<node id="-236372" lat="59.5292472226" lon="9.4967222227">
		<tag k="fixme" v="consider natural=peak for the most distinct mountains in the district" />
		<tag k="name" v="Arebunatten" />
		<tag k="natural" v="hill" />
		<tag k="ssr:stedsnr" v="407696" />
	</node>
	<node id="-236365" lat="59.5053722213" lon="9.38816388895">
		<tag k="fixme" v="consider natural=peak for the most distinct mountains in the district" />
		<tag k="name" v="Halvfaråsen" />
		<tag k="natural" v="hill" />
		<tag k="place" v="locality" />
		<tag k="ssr:stedsnr" v="407593" />
	</node>
	<node id="-236355" lat="59.3721416672" lon="9.3620027765">
		<tag k="name" v="Vihusliene" />
		<tag k="natural" v="slope" />
		<tag k="place" v="locality" />
		<tag k="ssr:stedsnr" v="407513" />
	</node>
	<node id="-236354" lat="59.441472225" lon="9.24965000168">
		<tag k="name" v="Bekkeskotet" />
		<tag k="natural" v="cliff" />
		<tag k="ssr:stedsnr" v="407502" />
	</node>
	<node id="-236351" lat="59.3840722209" lon="9.36074444644">
		<tag k="name" v="Vihusliene" />
		<tag k="natural" v="slope" />
		<tag k="place" v="locality" />
		<tag k="ssr:stedsnr" v="407384" />
	</node>
	<node id="-236348" lat="59.4179083333" lon="9.37009722583">
		<tag k="name" v="Flathusliene" />
		<tag k="natural" v="slope" />
		<tag k="place" v="locality" />
		<tag k="ssr:stedsnr" v="407365" />
	</node>
	<node id="-236346" lat="59.3765499958" lon="9.29446388181">
		<tag k="fixme" v="consider natural=peak for the most distinct mountains in the district" />
		<tag k="name" v="Spirskot-natten" />
		<tag k="natural" v="hill" />
		<tag k="place" v="locality" />
		<tag k="ssr:stedsnr" v="407341" />
	</node>
	<node id="-236345" lat="59.354313888" lon="9.3226361146">
		<tag k="name" v="Svartefjell" />
		<tag k="natural" v="hill" />
		<tag k="place" v="locality" />
		<tag k="ssr:stedsnr" v="407319" />
	</node>
	<node id="-236344" lat="59.3469138882" lon="9.28833334094">
		<tag k="name" v="Ottersnesfjellet" />
		<tag k="natural" v="hill" />
		<tag k="place" v="locality" />
		<tag k="ssr:stedsnr" v="407308" />
	</node>
	<node id="-236342" lat="59.3571666673" lon="9.34277777678">
		<tag k="name" v="Mjågetjønnliene" />
		<tag k="natural" v="slope" />
		<tag k="place" v="locality" />
		<tag k="ssr:stedsnr" v="407294" />
	</node>
	<node id="-236334" lat="59.449133335" lon="9.24734165799">
		<tag k="name" v="Gvanntjønn-liene" />
		<tag k="natural" v="slope" />
		<tag k="place" v="locality" />
		<tag k="ssr:stedsnr" v="407164" />
	</node>
	<node id="-236329" lat="59.4067388925" lon="9.33999722066">
		<tag k="name" v="Ådalen" />
		<tag k="natural" v="valley" />
		<tag k="place" v="locality" />
		<tag k="ssr:stedsnr" v="407103" />
	</node>
	<node id="-236326" lat="59.4168277762" lon="9.34015554938">
		<tag k="fixme" v="consider natural=peak for the most distinct mountains in the district" />
		<tag k="name" v="Høgståsen" />
		<tag k="natural" v="hill" />
		<tag k="place" v="locality" />
		<tag k="ssr:stedsnr" v="407090" />
	</node>
	<node id="-236324" lat="59.3930611083" lon="9.31863332524">
		<tag k="name" v="Askedalslien" />
		<tag k="natural" v="slope" />
		<tag k="place" v="locality" />
		<tag k="ssr:stedsnr" v="407019" />
	</node>
	<node id="-236321" lat="59.3667333377" lon="9.32145555895">
		<tag k="alt_name" v="Vardefjellet" />
		<tag k="fixme" v="consider natural=peak for the most distinct mountains in the district" />
		<tag k="name" v="Vardefjell" />
		<tag k="natural" v="hill" />
		<tag k="place" v="locality" />
		<tag k="ssr:stedsnr" v="373680" />
	</node>
	<node id="-236304" lat="59.3690499993" lon="9.34104444577">
		<tag k="fixme" v="consider natural=peak for the most distinct mountains in the district" />
		<tag k="name" v="Høgåsane" />
		<tag k="natural" v="hill" />
		<tag k="place" v="locality" />
		<tag k="ssr:stedsnr" v="366805" />
	</node>
	<node id="-236303" lat="59.4855472179" lon="9.18636388739">
		<tag k="alt_name" v="Roheimsheia" />
		<tag k="name" v="Roemsheia" />
		<tag k="natural" v="hill" />
		<tag k="place" v="locality" />
		<tag k="ssr:stedsnr" v="366618" />
	</node>
	<node id="-236302" lat="59.4386777776" lon="9.18790555819">
		<tag k="name" v="Rekmyrdalen" />
		<tag k="natural" v="valley" />
		<tag k="place" v="locality" />
		<tag k="ssr:stedsnr" v="366475" />
	</node>
	<node id="-236295" lat="59.3692750035" lon="9.15893054938">
		<tag k="alt_name" v="Sulukollen, store;Store Sulukoll" />
		<tag k="name" v="Store Sulukollen" />
		<tag k="natural" v="hill" />
		<tag k="place" v="locality" />
		<tag k="ssr:stedsnr" v="366300" />
	</node>
	<node id="-236278" lat="59.436580553" lon="9.32363333813">
		<tag k="fixme" v="consider natural=peak for the most distinct mountains in the district" />
		<tag k="name" v="Gutu-ås" />
		<tag k="natural" v="hill" />
		<tag k="place" v="locality" />
		<tag k="ssr:stedsnr" v="347616" />
	</node>
	<node id="-236275" lat="59.4065138885" lon="9.20222500223">
		<tag k="name" v="Åsreset" />
		<tag k="natural" v="slope" />
		<tag k="place" v="locality" />
		<tag k="ssr:stedsnr" v="347455" />
	</node>
	<node id="-236265" lat="59.3697944467" lon="9.31574444175">
		<tag k="name" v="Trengliene" />
		<tag k="natural" v="slope" />
		<tag k="place" v="locality" />
		<tag k="ssr:stedsnr" v="347243" />
	</node>
	<node id="-236264" lat="59.3954055586" lon="9.15668610452">
		<tag k="fixme" v="consider natural=peak for the most distinct mountains in the district" />
		<tag k="name" v="Kvigarden" />
		<tag k="natural" v="hill" />
		<tag k="place" v="locality" />
		<tag k="ssr:stedsnr" v="347234" />
	</node>
	<node id="-236257" lat="59.3276944427" lon="9.19354167156">
		<tag k="name" v="Olledalen" />
		<tag k="natural" v="valley" />
		<tag k="place" v="locality" />
		<tag k="ssr:stedsnr" v="347117" />
	</node>
	<node id="-236256" lat="59.3283166685" lon="9.22008055437">
		<tag k="fixme" v="consider natural=peak for the most distinct mountains in the district" />
		<tag k="name" v="Myreåsen" />
		<tag k="natural" v="hill" />
		<tag k="place" v="locality" />
		<tag k="ssr:stedsnr" v="347115" />
	</node>
	<node id="-236251" lat="59.500808332" lon="9.25788889577">
		<tag k="name" v="Frosthola" />
		<tag k="natural" v="valley" />
		<tag k="place" v="locality" />
		<tag k="ssr:stedsnr" v="347044" />
	</node>
	<node id="-236250" lat="59.3347055518" lon="9.19955833159">
		<tag k="name" v="Spirdalen" />
		<tag k="natural" v="valley" />
		<tag k="place" v="locality" />
		<tag k="ssr:stedsnr" v="347042" />
	</node>
	<node id="-236249" lat="59.3362249959" lon="9.19625556083">
		<tag k="name" v="Holteheia" />
		<tag k="natural" v="hill" />
		<tag k="place" v="locality" />
		<tag k="ssr:stedsnr" v="347041" />
	</node>
	<node id="-236247" lat="59.4902138883" lon="9.27436945082">
		<tag k="name" v="Standar-haugene" />
		<tag k="natural" v="hill" />
		<tag k="place" v="locality" />
		<tag k="ssr:stedsnr" v="347036" />
	</node>
	<node id="-236246" lat="59.391697224" lon="9.33093333508">
		<tag k="fixme" v="consider natural=peak for the most distinct mountains in the district" />
		<tag k="name" v="Ferto" />
		<tag k="natural" v="hill" />
		<tag k="place" v="locality" />
		<tag k="ssr:stedsnr" v="347030" />
	</node>
	<node id="-236236" lat="59.363319448" lon="9.27176110427">
		<tag k="name" v="Briskehaugene" />
		<tag k="natural" v="hill" />
		<tag k="place" v="locality" />
		<tag k="ssr:stedsnr" v="346795" />
	</node>
	<node id="-236230" lat="59.5279777815" lon="9.45623055241">
		<tag k="name" v="Bjønndalen" />
		<tag k="natural" v="valley" />
		<tag k="place" v="locality" />
		<tag k="ssr:stedsnr" v="346711" />
	</node>
	<node id="-236229" lat="59.4389805592" lon="9.39000832877">
		<tag k="name" v="Dugurdsfjell-dalen" />
		<tag k="natural" v="valley" />
		<tag k="place" v="locality" />
		<tag k="ssr:stedsnr" v="346698" />
	</node>
	<node id="-236227" lat="59.4352250037" lon="9.34613610452">
		<tag k="name" v="Askemyrdalen" />
		<tag k="natural" v="valley" />
		<tag k="place" v="locality" />
		<tag k="ssr:stedsnr" v="346679" />
	</node>
	<node id="-236225" lat="59.5516000027" lon="9.44226388322">
		<tag k="name" v="Diplemyrlia" />
		<tag k="natural" v="slope" />
		<tag k="place" v="locality" />
		<tag k="ssr:stedsnr" v="346651" />
	</node>
	<node id="-236220" lat="59.517583335" lon="9.40041388769">
		<tag k="name" v="Måråtjønndalen" />
		<tag k="natural" v="valley" />
		<tag k="place" v="locality" />
		<tag k="ssr:stedsnr" v="346565" />
	</node>
	<node id="-236218" lat="59.4701805554" lon="9.45543056259">
		<tag k="name" v="Grisen" />
		<tag k="place" v="locality" />
		<tag k="ssr:stedsnr" v="346534" />
	</node>
	<node id="-236216" lat="59.4834888927" lon="9.44478333604">
		<tag k="name" v="Veahaugen" />
		<tag k="natural" v="hill" />
		<tag k="place" v="locality" />
		<tag k="ssr:stedsnr" v="346531" />
	</node>
	<node id="-236211" lat="59.3573277797" lon="9.37884444504">
		<tag k="fixme" v="consider natural=peak for the most distinct mountains in the district" />
		<tag k="name" v="Sauetjønnåsene" />
		<tag k="natural" v="hill" />
		<tag k="place" v="locality" />
		<tag k="ssr:stedsnr" v="346497" />
	</node>
	<node id="-236208" lat="59.4235722189" lon="9.20874721843">
		<tag k="name" v="Ulvestupet" />
		<tag k="natural" v="cliff" />
		<tag k="ssr:stedsnr" v="346476" />
	</node>
	<node id="-236203" lat="59.4247138886" lon="9.2314138848">
		<tag k="name" v="Damtjønndalen" />
		<tag k="natural" v="valley" />
		<tag k="place" v="locality" />
		<tag k="ssr:stedsnr" v="346313" />
	</node>
	<node id="-236202" lat="59.3511722256" lon="9.31752221721">
		<tag k="name" v="Gothol" />
		<tag k="natural" v="valley" />
		<tag k="place" v="locality" />
		<tag k="ssr:stedsnr" v="346298" />
	</node>
	<node id="-236198" lat="59.4461555522" lon="9.32028332601">
		<tag k="fixme" v="consider natural=peak for the most distinct mountains in the district" />
		<tag k="name" v="Øya-åsen" />
		<tag k="natural" v="hill" />
		<tag k="place" v="locality" />
		<tag k="ssr:stedsnr" v="346230" />
	</node>
	<node id="-236196" lat="59.4607972215" lon="9.24305277386">
		<tag k="fixme" v="consider natural=peak for the most distinct mountains in the district" />
		<tag k="name" v="Lienn-åsen" />
		<tag k="natural" v="hill" />
		<tag k="place" v="locality" />
		<tag k="ssr:stedsnr" v="346191" />
	</node>
	<node id="-236194" lat="59.4615694449" lon="9.28464167447">
		<tag k="name" v="Åsli" />
		<tag k="natural" v="slope" />
		<tag k="place" v="locality" />
		<tag k="ssr:stedsnr" v="346189" />
	</node>
	<node id="-236183" lat="59.4201277762" lon="9.34947222989">
		<tag k="alt_name" v="Langåsen" />
		<tag k="fixme" v="consider natural=peak for the most distinct mountains in the district" />
		<tag k="name" v="Langåsåsen" />
		<tag k="natural" v="hill" />
		<tag k="place" v="locality" />
		<tag k="ssr:stedsnr" v="306990" />
	</node>
	<node id="-236181" lat="59.5536222264" lon="9.46279721854">
		<tag k="alt_name" v="Springkåtfjell" />
		<tag k="fixme" v="consider natural=peak for the most distinct mountains in the district" />
		<tag k="name" v="Springkåtfjellet" />
		<tag k="natural" v="hill" />
		<tag k="place" v="locality" />
		<tag k="ssr:stedsnr" v="306744" />
	</node>
	<node id="-236178" lat="59.3568638879" lon="9.33246111401">
		<tag k="fixme" v="consider natural=peak for the most distinct mountains in the district" />
		<tag k="name" v="Svartefjell" />
		<tag k="natural" v="hill" />
		<tag k="place" v="locality" />
		<tag k="ssr:stedsnr" v="306826" />
	</node>
	<node id="-236172" lat="59.4449555514" lon="9.27628055836">
		<tag k="fixme" v="consider natural=peak for the most distinct mountains in the district" />
		<tag k="name" v="Kringsås" />
		<tag k="natural" v="hill" />
		<tag k="place" v="locality" />
		<tag k="ssr:stedsnr" v="306008" />
	</node>
	<node id="-236170" lat="59.4232583346" lon="9.236063888">
		<tag k="fixme" v="consider natural=peak for the most distinct mountains in the district" />
		<tag k="name" v="Tåpålifjellet" />
		<tag k="natural" v="hill" />
		<tag k="old_name" v="Tapålifjellet" />
		<tag k="place" v="locality" />
		<tag k="ssr:stedsnr" v="305977" />
	</node>
	<node id="-236165" lat="59.4586638927" lon="9.20768610952">
		<tag k="alt_name" v="Knipeåsene" />
		<tag k="fixme" v="consider natural=peak for the most distinct mountains in the district" />
		<tag k="name" v="Knivåsen" />
		<tag k="natural" v="hill" />
		<tag k="place" v="locality" />
		<tag k="ssr:stedsnr" v="305524" />
	</node>
	<node id="-236164" lat="59.4288111125" lon="9.18014722097">
		<tag k="name" v="Brattliene" />
		<tag k="natural" v="slope" />
		<tag k="place" v="locality" />
		<tag k="ssr:stedsnr" v="305432" />
	</node>
	<node id="-236148" lat="59.3319944454" lon="9.20796389282">
		<tag k="fixme" v="consider natural=peak for the most distinct mountains in the district" />
		<tag k="name" v="Grindås" />
		<tag k="natural" v="hill" />
		<tag k="place" v="locality" />
		<tag k="ssr:stedsnr" v="287148" />
	</node>
	<node id="-236145" lat="59.5000805521" lon="9.24448611495">
		<tag k="fixme" v="consider natural=peak for the most distinct mountains in the district" />
		<tag k="name" v="Grønekoll" />
		<tag k="natural" v="hill" />
		<tag k="place" v="locality" />
		<tag k="ssr:stedsnr" v="287056" />
	</node>
	<node id="-236144" lat="59.3402388861" lon="9.19610555419">
		<tag k="fixme" v="consider natural=peak for the most distinct mountains in the district" />
		<tag k="name" v="Damås" />
		<tag k="natural" v="hill" />
		<tag k="place" v="locality" />
		<tag k="ssr:stedsnr" v="287053" />
	</node>
	<node id="-236143" lat="59.4989583324" lon="9.24172223076">
		<tag k="name" v="Spiredalen" />
		<tag k="natural" v="valley" />
		<tag k="place" v="locality" />
		<tag k="ssr:stedsnr" v="287052" />
	</node>
	<node id="-236142" lat="59.5019305593" lon="9.27916111132">
		<tag k="name" v="Haukedals-skotet" />
		<tag k="natural" v="cliff" />
		<tag k="ssr:stedsnr" v="287049" />
	</node>
	<node id="-236141" lat="59.5004111088" lon="9.27299166661">
		<tag k="fixme" v="consider natural=peak for the most distinct mountains in the district" />
		<tag k="name" v="Haukedalsåsen" />
		<tag k="natural" v="hill" />
		<tag k="place" v="locality" />
		<tag k="ssr:stedsnr" v="287050" />
	</node>
	<node id="-236140" lat="59.4850944432" lon="9.24089443992">
		<tag k="name" v="Elgestupet" />
		<tag k="natural" v="cliff" />
		<tag k="ssr:stedsnr" v="287042" />
	</node>
	<node id="-236131" lat="59.4210888909" lon="9.37445277267">
		<tag k="name" v="Griseliholet" />
		<tag k="natural" v="valley" />
		<tag k="place" v="locality" />
		<tag k="ssr:stedsnr" v="286706" />
	</node>
	<node id="-236126" lat="59.4802222247" lon="9.35025277469">
		<tag k="fixme" v="consider natural=peak for the most distinct mountains in the district" />
		<tag k="name" v="Trånå-åsen" />
		<tag k="natural" v="hill" />
		<tag k="place" v="locality" />
		<tag k="ssr:stedsnr" v="286647" />
	</node>
	<node id="-236124" lat="59.5067611078" lon="9.35616665871">
		<tag k="fixme" v="consider natural=peak for the most distinct mountains in the district" />
		<tag k="name" v="Rundemyråsen" />
		<tag k="natural" v="hill" />
		<tag k="place" v="locality" />
		<tag k="ssr:stedsnr" v="286607" />
	</node>
	<node id="-236121" lat="59.4363555587" lon="9.15104165961">
		<tag k="name" v="Spelberga" />
		<tag k="natural" v="hill" />
		<tag k="place" v="locality" />
		<tag k="ssr:stedsnr" v="286601" />
	</node>
	<node id="-236117" lat="59.5136861148" lon="9.40077221927">
		<tag k="name" v="Bordalen" />
		<tag k="natural" v="valley" />
		<tag k="place" v="locality" />
		<tag k="ssr:stedsnr" v="286561" />
	</node>
	<node id="-236114" lat="59.4370416688" lon="9.30166666729">
		<tag k="name" v="Bærbakken" />
		<tag k="natural" v="slope" />
		<tag k="place" v="locality" />
		<tag k="ssr:stedsnr" v="286524" />
	</node>
	<node id="-236107" lat="59.3628638929" lon="9.34421945004">
		<tag k="name" v="Svarttjønndalen" />
		<tag k="natural" v="valley" />
		<tag k="place" v="locality" />
		<tag k="ssr:stedsnr" v="286484" />
	</node>
	<node id="-236104" lat="59.4142194483" lon="9.22435555717">
		<tag k="fixme" v="consider natural=peak for the most distinct mountains in the district" />
		<tag k="name" v="Damtjønn-åsen" />
		<tag k="natural" v="hill" />
		<tag k="place" v="locality" />
		<tag k="ssr:stedsnr" v="286431" />
	</node>
	<node id="-236102" lat="59.391155558" lon="9.36654444864">
		<tag k="name" v="Rogholtliene" />
		<tag k="natural" v="slope" />
		<tag k="place" v="locality" />
		<tag k="ssr:stedsnr" v="286361" />
	</node>
	<node id="-236100" lat="59.4461000008" lon="9.22242778358">
		<tag k="fixme" v="consider natural=peak for the most distinct mountains in the district" />
		<tag k="name" v="Heståskollen" />
		<tag k="natural" v="hill" />
		<tag k="place" v="locality" />
		<tag k="ssr:stedsnr" v="286321" />
	</node>
	<node id="-236098" lat="59.3718388884" lon="9.33960000391">
		<tag k="fixme" v="consider natural=peak for the most distinct mountains in the district" />
		<tag k="name" v="Daleåsene" />
		<tag k="natural" v="hill" />
		<tag k="place" v="locality" />
		<tag k="ssr:stedsnr" v="286314" />
	</node>
	<node id="-236086" lat="59.3592833326" lon="9.13353888143">
		<tag k="fixme" v="consider natural=peak for the most distinct mountains in the district" />
		<tag k="name" v="Slettefjell" />
		<tag k="natural" v="hill" />
		<tag k="place" v="locality" />
		<tag k="ssr:stedsnr" v="286179" />
	</node>
	<node id="-236078" lat="59.4122027776" lon="9.36734443798">
		<tag k="name" v="Sommerflåtin" />
		<tag k="place" v="locality" />
		<tag k="ssr:stedsnr" v="285346" />
	</node>
	<node id="-237878" lat="59.4312611155" lon="9.33696667199">
		<tag k="name" v="Høgemo" />
		<tag k="place" v="locality" />
		<tag k="ssr:stedsnr" v="954589" />
	</node>
	<node id="-237876" lat="59.3817611075" lon="9.2795083304">
		<tag k="fixme" v="consider natural=peak for the most distinct mountains in the district" />
		<tag k="name" v="Haukvik-åsen" />
		<tag k="natural" v="hill" />
		<tag k="place" v="locality" />
		<tag k="ssr:stedsnr" v="954568" />
	</node>
	<node id="-237873" lat="59.4862027799" lon="9.36330832785">
		<tag k="fixme" v="consider natural=peak for the most distinct mountains in the district" />
		<tag k="name" v="Lønnås" />
		<tag k="natural" v="hill" />
		<tag k="place" v="locality" />
		<tag k="ssr:stedsnr" v="954555" />
	</node>
	<node id="-237872" lat="59.4339722219" lon="9.30149721459">
		<tag k="name" v="Rennefet" />
		<tag k="natural" v="slope" />
		<tag k="place" v="locality" />
		<tag k="ssr:stedsnr" v="954503" />
	</node>
	<node id="-237870" lat="59.4460111119" lon="9.22247777548">
		<tag k="name" v="Heståskollen" />
		<tag k="natural" v="hill" />
		<tag k="place" v="locality" />
		<tag k="ssr:stedsnr" v="954351" />
	</node>
	<node id="-237869" lat="59.351291665" lon="9.31086389443">
		<tag k="name" v="Fenteliene" />
		<tag k="natural" v="slope" />
		<tag k="place" v="locality" />
		<tag k="ssr:stedsnr" v="954273" />
	</node>
	<node id="-237865" lat="59.4798944462" lon="9.23829444356">
		<tag k="name" v="Tjyruhjellen" />
		<tag k="place" v="locality" />
		<tag k="ssr:stedsnr" v="954192" />
	</node>
	<node id="-237863" lat="59.4967777818" lon="9.25774999875">
		<tag k="name" v="Bjørndalen" />
		<tag k="natural" v="valley" />
		<tag k="place" v="locality" />
		<tag k="ssr:stedsnr" v="954062" />
	</node>
	<node id="-237862" lat="59.4949194448" lon="9.2192527839">
		<tag k="name" v="Kjerring-spranget" />
		<tag k="natural" v="gorge" />
		<tag k="ssr:stedsnr" v="954053" />
	</node>
	<node id="-237861" lat="59.5040027746" lon="9.26226110535">
		<tag k="name" v="Fjellveggene" />
		<tag k="natural" v="cliff" />
		<tag k="ssr:stedsnr" v="954038" />
	</node>
	<node id="-237860" lat="59.4446611069" lon="9.29917499904">
		<tag k="fixme" v="consider natural=peak for the most distinct mountains in the district" />
		<tag k="name" v="Geitebunatten" />
		<tag k="natural" v="hill" />
		<tag k="place" v="locality" />
		<tag k="ssr:stedsnr" v="954007" />
	</node>
	<node id="-237853" lat="59.4854611075" lon="9.29450554876">
		<tag k="fixme" v="consider natural=peak for the most distinct mountains in the district" />
		<tag k="name" v="Langbeinåsen" />
		<tag k="natural" v="hill" />
		<tag k="place" v="locality" />
		<tag k="ssr:stedsnr" v="953837" />
	</node>
	<node id="-237849" lat="59.4344527808" lon="9.35212500321">
		<tag k="fixme" v="consider natural=peak for the most distinct mountains in the district" />
		<tag k="name" v="Askemyråsen" />
		<tag k="natural" v="hill" />
		<tag k="place" v="locality" />
		<tag k="ssr:stedsnr" v="953701" />
	</node>
	<node id="-237848" lat="59.4257777792" lon="9.34535833813">
		<tag k="name" v="Hanekollen" />
		<tag k="natural" v="hill" />
		<tag k="place" v="locality" />
		<tag k="ssr:stedsnr" v="953694" />
	</node>
	<node id="-237846" lat="59.481713885" lon="9.29223611182">
		<tag k="fixme" v="consider natural=peak for the most distinct mountains in the district" />
		<tag k="name" v="Hvitås" />
		<tag k="natural" v="hill" />
		<tag k="place" v="locality" />
		<tag k="ssr:stedsnr" v="953614" />
	</node>
	<node id="-237844" lat="59.5242416704" lon="9.37053610331">
		<tag k="name" v="Vårbumoen" />
		<tag k="place" v="locality" />
		<tag k="ssr:stedsnr" v="953600" />
	</node>
	<node id="-237843" lat="59.5206388872" lon="9.37184444922">
		<tag k="name" v="Lang-sveun" />
		<tag k="natural" v="slope" />
		<tag k="place" v="locality" />
		<tag k="ssr:stedsnr" v="953599" />
	</node>
	<node id="-237840" lat="59.4152305561" lon="9.27099721678">
		<tag k="name" v="Deilrind" />
		<tag k="place" v="locality" />
		<tag k="ssr:stedsnr" v="953558" />
	</node>
	<node id="-237830" lat="59.4071972233" lon="9.36573611949">
		<tag k="fixme" v="consider natural=peak for the most distinct mountains in the district" />
		<tag k="name" v="Kuåsen" />
		<tag k="natural" v="hill" />
		<tag k="place" v="locality" />
		<tag k="ssr:stedsnr" v="953379" />
	</node>
	<node id="-237823" lat="59.4578749999" lon="9.27863888647">
		<tag k="name" v="Bjørndalen" />
		<tag k="natural" v="valley" />
		<tag k="place" v="locality" />
		<tag k="ssr:stedsnr" v="953139" />
	</node>
	<node id="-237822" lat="59.453633334" lon="9.28605556408">
		<tag k="fixme" v="consider natural=peak for the most distinct mountains in the district" />
		<tag k="name" v="Tutarnatten" />
		<tag k="natural" v="hill" />
		<tag k="place" v="locality" />
		<tag k="ssr:stedsnr" v="953136" />
	</node>
	<node id="-237817" lat="59.5184444469" lon="9.33849723005">
		<tag k="name" v="Snippe-knølen" />
		<tag k="place" v="locality" />
		<tag k="ssr:stedsnr" v="953074" />
	</node>
	<node id="-237812" lat="59.508772223" lon="9.48508888197">
		<tag k="alt_name" v="Kjellarfjellet, s" />
		<tag k="fixme" v="consider natural=peak for the most distinct mountains in the district" />
		<tag k="name" v="Søndre Kjellarfjellet" />
		<tag k="natural" v="hill" />
		<tag k="place" v="locality" />
		<tag k="ssr:stedsnr" v="913688" />
	</node>
	<node id="-237811" lat="59.469702776" lon="9.18040833603">
		<tag k="name" v="Lågmannslægeret" />
		<tag k="natural" v="cliff" />
		<tag k="ssr:stedsnr" v="913445" />
	</node>
	<node id="-237802" lat="59.4529583328" lon="9.29957499166">
		<tag k="alt_name" v="Nonsnatten" />
		<tag k="name" v="Nonsknatten" />
		<tag k="natural" v="hill" />
		<tag k="place" v="locality" />
		<tag k="ssr:stedsnr" v="913009" />
	</node>
	<node id="-237799" lat="59.4269111145" lon="9.35868611564">
		<tag k="alt_name" v="Kåsahaugane" />
		<tag k="name" v="Kåsahøgdin" />
		<tag k="natural" v="hill" />
		<tag k="place" v="locality" />
		<tag k="ssr:stedsnr" v="912959" />
	</node>
	<node id="-237795" lat="59.4083944466" lon="9.19108332836">
		<tag k="alt_name" v="Otersdalen" />
		<tag k="name" v="Oterdalen" />
		<tag k="natural" v="valley" />
		<tag k="place" v="locality" />
		<tag k="ssr:stedsnr" v="912363" />
	</node>
	<node id="-237790" lat="59.5337750003" lon="9.49322500161">
		<tag k="name" v="Deildalen" />
		<tag k="natural" v="valley" />
		<tag k="place" v="locality" />
		<tag k="ssr:stedsnr" v="853009" />
	</node>
	<node id="-237776" lat="59.3562999957" lon="9.35892500712">
		<tag k="alt_name" v="Langås, øvre;Langås" />
		<tag k="fixme" v="consider natural=peak for the most distinct mountains in the district" />
		<tag k="name" v="Øvre Langås" />
		<tag k="natural" v="hill" />
		<tag k="place" v="locality" />
		<tag k="ssr:stedsnr" v="852825" />
	</node>
	<node id="-237771" lat="59.4499888928" lon="9.15291666616">
		<tag k="name" v="Lusehaugen" />
		<tag k="natural" v="hill" />
		<tag k="place" v="locality" />
		<tag k="ssr:stedsnr" v="852443" />
	</node>
	<node id="-237764" lat="59.3502444471" lon="9.17415833339">
		<tag k="alt_name" v="Deilkollen" />
		<tag k="name" v="Deildkollen" />
		<tag k="natural" v="hill" />
		<tag k="place" v="locality" />
		<tag k="ssr:stedsnr" v="852273" />
	</node>
	<node id="-237759" lat="59.4614777762" lon="9.35769721968">
		<tag k="fixme" v="consider natural=peak for the most distinct mountains in the district" />
		<tag k="name" v="Siljuåsen" />
		<tag k="natural" v="hill" />
		<tag k="place" v="locality" />
		<tag k="ssr:stedsnr" v="852008" />
	</node>
	<node id="-237745" lat="59.3721722186" lon="9.32966945049">
		<tag k="name" v="Svarttjønnliene" />
		<tag k="natural" v="slope" />
		<tag k="place" v="locality" />
		<tag k="ssr:stedsnr" v="833327" />
	</node>
	<node id="-237744" lat="59.3554166644" lon="9.28961110755">
		<tag k="name" v="Haukvikseterfjell" />
		<tag k="natural" v="hill" />
		<tag k="place" v="locality" />
		<tag k="ssr:stedsnr" v="833310" />
	</node>
	<node id="-237743" lat="59.3619805571" lon="9.31999722568">
		<tag k="name" v="Barlindskotet" />
		<tag k="natural" v="cliff" />
		<tag k="ssr:stedsnr" v="833306" />
	</node>
	<node id="-237739" lat="59.493488891" lon="9.2225888928">
		<tag k="name" v="Dansardalen" />
		<tag k="natural" v="valley" />
		<tag k="place" v="locality" />
		<tag k="ssr:stedsnr" v="833058" />
	</node>
	<node id="-237738" lat="59.4880694432" lon="9.19631388497">
		<tag k="fixme" v="consider natural=peak for the most distinct mountains in the district" />
		<tag k="name" v="Mjågetjønnåsene" />
		<tag k="natural" v="hill" />
		<tag k="place" v="locality" />
		<tag k="ssr:stedsnr" v="833052" />
	</node>
	<node id="-237732" lat="59.4685527789" lon="9.33438056178">
		<tag k="name" v="Slett-Havrås" />
		<tag k="natural" v="ridge" />
		<tag k="place" v="locality" />
		<tag k="ssr:stedsnr" v="832995" />
	</node>
	<node id="-237729" lat="59.4800500024" lon="9.34075277173">
		<tag k="name" v="Grovdalen" />
		<tag k="natural" v="valley" />
		<tag k="place" v="locality" />
		<tag k="ssr:stedsnr" v="832982" />
	</node>
	<node id="-237726" lat="59.3459638884" lon="9.27772500217">
		<tag k="fixme" v="consider natural=peak for the most distinct mountains in the district" />
		<tag k="name" v="Korpenatten" />
		<tag k="natural" v="hill" />
		<tag k="place" v="locality" />
		<tag k="ssr:stedsnr" v="832896" />
	</node>
	<node id="-237720" lat="59.5138444472" lon="9.42762778197">
		<tag k="fixme" v="consider natural=peak for the most distinct mountains in the district" />
		<tag k="name" v="Søndre Taklåsåsen" />
		<tag k="natural" v="hill" />
		<tag k="place" v="locality" />
		<tag k="ssr:stedsnr" v="832713" />
	</node>
	<node id="-237719" lat="59.4273388883" lon="9.39073889124">
		<tag k="name" v="Langefonn" />
		<tag k="natural" v="ridge" />
		<tag k="place" v="locality" />
		<tag k="ssr:stedsnr" v="832700" />
	</node>
	<node id="-237717" lat="59.5447444408" lon="9.42392777534">
		<tag k="fixme" v="consider natural=peak for the most distinct mountains in the district" />
		<tag k="name" v="Blåbæråsen" />
		<tag k="natural" v="hill" />
		<tag k="place" v="locality" />
		<tag k="ssr:stedsnr" v="832688" />
	</node>
	<node id="-237716" lat="59.4221333301" lon="9.35362500849">
		<tag k="fixme" v="consider natural=peak for the most distinct mountains in the district" />
		<tag k="name" v="Knipetang-åsene" />
		<tag k="natural" v="hill" />
		<tag k="place" v="locality" />
		<tag k="ssr:stedsnr" v="832682" />
	</node>
	<node id="-237711" lat="59.5228388929" lon="9.36455832939">
		<tag k="name" v="Junkern-kleiv" />
		<tag k="natural" v="slope" />
		<tag k="place" v="locality" />
		<tag k="ssr:stedsnr" v="832593" />
	</node>
	<node id="-237710" lat="59.5221083293" lon="9.38308888598">
		<tag k="name" v="Stilledalen" />
		<tag k="natural" v="valley" />
		<tag k="place" v="locality" />
		<tag k="ssr:stedsnr" v="832581" />
	</node>
	<node id="-237707" lat="59.4302972257" lon="9.26007777604">
		<tag k="name" v="Bakhol-liene" />
		<tag k="natural" v="slope" />
		<tag k="place" v="locality" />
		<tag k="ssr:stedsnr" v="832485" />
	</node>
	<node id="-237700" lat="59.456500004" lon="9.32270556251">
		<tag k="name" v="Voluberga" />
		<tag k="natural" v="hill" />
		<tag k="place" v="locality" />
		<tag k="ssr:stedsnr" v="832267" />
	</node>
	<node id="-237699" lat="59.3960777785" lon="9.30704443926">
		<tag k="fixme" v="consider natural=peak for the most distinct mountains in the district" />
		<tag k="name" v="Geitenatten" />
		<tag k="natural" v="hill" />
		<tag k="place" v="locality" />
		<tag k="ssr:stedsnr" v="832256" />
	</node>
	<node id="-237698" lat="59.379916663" lon="9.3250277817">
		<tag k="name" v="Bakdal" />
		<tag k="natural" v="valley" />
		<tag k="place" v="locality" />
		<tag k="ssr:stedsnr" v="832247" />
	</node>
	<node id="-237697" lat="59.4616694467" lon="9.23991666537">
		<tag k="name" v="Ørken" />
		<tag k="natural" v="slope" />
		<tag k="place" v="locality" />
		<tag k="ssr:stedsnr" v="832214" />
	</node>
	<node id="-237693" lat="59.3520416679" lon="9.13916388332">
		<tag k="name" v="Bakliene" />
		<tag k="natural" v="slope" />
		<tag k="place" v="locality" />
		<tag k="ssr:stedsnr" v="832152" />
	</node>
	<node id="-237690" lat="59.5099722184" lon="9.32437500306">
		<tag k="name" v="Opp-Velta" />
		<tag k="place" v="locality" />
		<tag k="ssr:stedsnr" v="832114" />
	</node>
	<node id="-237688" lat="59.3677416668" lon="9.31264444481">
		<tag k="name" v="Trengen" />
		<tag k="natural" v="valley" />
		<tag k="place" v="locality" />
		<tag k="ssr:stedsnr" v="833252" />
	</node>
	<node id="-237687" lat="59.4690444426" lon="9.22660833377">
		<tag k="name" v="Vidsjå-liene" />
		<tag k="natural" v="slope" />
		<tag k="place" v="locality" />
		<tag k="ssr:stedsnr" v="833244" />
	</node>
	<node id="-237684" lat="59.4765694443" lon="9.25678889288">
		<tag k="fixme" v="consider natural=peak for the most distinct mountains in the district" />
		<tag k="name" v="Stulsåsen" />
		<tag k="natural" v="hill" />
		<tag k="place" v="locality" />
		<tag k="ssr:stedsnr" v="833210" />
	</node>
	<node id="-237683" lat="59.4827888896" lon="9.24860278635">
		<tag k="name" v="Roestul-liene" />
		<tag k="natural" v="slope" />
		<tag k="place" v="locality" />
		<tag k="ssr:stedsnr" v="833208" />
	</node>
	<node id="-237682" lat="59.4612888886" lon="9.18497222873">
		<tag k="name" v="Ostenatten" />
		<tag k="natural" v="hill" />
		<tag k="place" v="locality" />
		<tag k="ssr:stedsnr" v="815946" />
	</node>
	<node id="-237681" lat="59.4254972196" lon="9.37391665814">
		<tag k="name" v="Sundsliane" />
		<tag k="natural" v="slope" />
		<tag k="place" v="locality" />
		<tag k="ssr:stedsnr" v="810805" />
	</node>
	<node id="-237679" lat="59.5281750029" lon="9.36881944044">
		<tag k="name" v="Ådalen" />
		<tag k="natural" v="valley" />
		<tag k="place" v="locality" />
		<tag k="ssr:stedsnr" v="792713" />
	</node>
	<node id="-237674" lat="59.4323111116" lon="9.22898888349">
		<tag k="alt_name" v="Poll-nutane" />
		<tag k="fixme" v="consider natural=peak for the most distinct mountains in the district" />
		<tag k="name" v="Politinutane" />
		<tag k="natural" v="hill" />
		<tag k="place" v="locality" />
		<tag k="ssr:stedsnr" v="791948" />
	</node>
	<node id="-237662" lat="59.4526888859" lon="9.15948055388">
		<tag k="fixme" v="consider natural=peak for the most distinct mountains in the district" />
		<tag k="name" v="Maskat" />
		<tag k="natural" v="hill" />
		<tag k="place" v="locality" />
		<tag k="ssr:stedsnr" v="791422" />
	</node>
	<node id="-237661" lat="59.4464305551" lon="9.19209166127">
		<tag k="alt_name" v="Skaustein-fjell" />
		<tag k="fixme" v="consider natural=peak for the most distinct mountains in the district" />
		<tag k="name" v="Skautstein" />
		<tag k="natural" v="hill" />
		<tag k="place" v="locality" />
		<tag k="ssr:stedsnr" v="791420" />
	</node>
	<node id="-237656" lat="59.3744583305" lon="9.13324444279">
		<tag k="name" v="Hestmyrdalen" />
		<tag k="natural" v="valley" />
		<tag k="place" v="locality" />
		<tag k="ssr:stedsnr" v="791322" />
	</node>
	<node id="-237650" lat="59.4779361147" lon="9.45641388631">
		<tag k="fixme" v="consider natural=peak for the most distinct mountains in the district" />
		<tag k="name" v="Vardefjell" />
		<tag k="natural" v="hill" />
		<tag k="place" v="locality" />
		<tag k="ssr:stedsnr" v="791032" />
	</node>
	<node id="-237641" lat="59.4361611079" lon="9.32975278012">
		<tag k="name" v="Åsdalen" />
		<tag k="natural" v="valley" />
		<tag k="place" v="locality" />
		<tag k="ssr:stedsnr" v="772512" />
	</node>
	<node id="-237638" lat="59.4710388873" lon="9.24301111123">
		<tag k="fixme" v="consider natural=peak for the most distinct mountains in the district" />
		<tag k="name" v="Helgebu-åsen" />
		<tag k="natural" v="hill" />
		<tag k="place" v="locality" />
		<tag k="ssr:stedsnr" v="772226" />
	</node>
	<node id="-237630" lat="59.4668055542" lon="9.33766389371">
		<tag k="name" v="Langeskår" />
		<tag k="natural" v="cliff" />
		<tag k="ssr:stedsnr" v="771991" />
	</node>
	<node id="-237625" lat="59.4330416659" lon="9.34018888143">
		<tag k="name" v="Jutulstolen" />
		<tag k="place" v="locality" />
		<tag k="ssr:stedsnr" v="771910" />
	</node>
	<node id="-237618" lat="59.534263891" lon="9.43596110761">
		<tag k="name" v="Murtetjønnlia" />
		<tag k="natural" v="slope" />
		<tag k="place" v="locality" />
		<tag k="ssr:stedsnr" v="771749" />
	</node>
	<node id="-237616" lat="59.4608666632" lon="9.39462222245">
		<tag k="fixme" v="consider natural=peak for the most distinct mountains in the district" />
		<tag k="name" v="Østre Holtstjønnfjellet" />
		<tag k="natural" v="hill" />
		<tag k="place" v="locality" />
		<tag k="ssr:stedsnr" v="771739" />
	</node>
	<node id="-237612" lat="59.4224416698" lon="9.34475276914">
		<tag k="fixme" v="consider natural=peak for the most distinct mountains in the district" />
		<tag k="name" v="Bjørnebetåsen" />
		<tag k="natural" v="hill" />
		<tag k="place" v="locality" />
		<tag k="ssr:stedsnr" v="771682" />
	</node>
	<node id="-237609" lat="59.5442583359" lon="9.47504444158">
		<tag k="fixme" v="consider natural=peak for the most distinct mountains in the district" />
		<tag k="name" v="Neråsen" />
		<tag k="natural" v="hill" />
		<tag k="place" v="locality" />
		<tag k="ssr:stedsnr" v="771667" />
	</node>
	<node id="-237604" lat="59.4964361082" lon="9.36702777188">
		<tag k="name" v="Myrskot" />
		<tag k="place" v="locality" />
		<tag k="ssr:stedsnr" v="771611" />
	</node>
	<node id="-237603" lat="59.4410361135" lon="9.15978333682">
		<tag k="fixme" v="consider natural=peak for the most distinct mountains in the district" />
		<tag k="name" v="Tveithaugene" />
		<tag k="natural" v="hill" />
		<tag k="place" v="locality" />
		<tag k="ssr:stedsnr" v="771604" />
	</node>
	<node id="-237602" lat="59.4966638928" lon="9.38558889219">
		<tag k="name" v="Bjørnestilla" />
		<tag k="natural" v="slope" />
		<tag k="place" v="locality" />
		<tag k="ssr:stedsnr" v="771603" />
	</node>
	<node id="-237601" lat="59.4959194432" lon="9.38436666426">
		<tag k="name" v="Heimdalen" />
		<tag k="natural" v="valley" />
		<tag k="place" v="locality" />
		<tag k="ssr:stedsnr" v="771600" />
	</node>
	<node id="-237600" lat="59.5224388862" lon="9.36161389546">
		<tag k="name" v="Stutekleiv" />
		<tag k="natural" v="slope" />
		<tag k="place" v="locality" />
		<tag k="ssr:stedsnr" v="771574" />
	</node>
	<node id="-237598" lat="59.4057916668" lon="9.23514999681">
		<tag k="name" v="Store Vardeåsen" />
		<tag k="natural" v="valley" />
		<tag k="place" v="locality" />
		<tag k="ssr:stedsnr" v="771532" />
	</node>
	<node id="-237597" lat="59.3644861076" lon="9.34354445232">
		<tag k="name" v="Mjågetjønnhaugen" />
		<tag k="natural" v="hill" />
		<tag k="place" v="locality" />
		<tag k="ssr:stedsnr" v="771494" />
	</node>
	<node id="-237596" lat="59.4381388917" lon="9.27668610954">
		<tag k="name" v="Langeskår" />
		<tag k="natural" v="valley" />
		<tag k="place" v="locality" />
		<tag k="ssr:stedsnr" v="771487" />
	</node>
	<node id="-237592" lat="59.483538886" lon="9.44423888628">
		<tag k="name" v="Veahaugen" />
		<tag k="natural" v="hill" />
		<tag k="place" v="locality" />
		<tag k="ssr:stedsnr" v="771447" />
	</node>
	<node id="-237591" lat="59.4177638885" lon="9.35455555591">
		<tag k="name" v="Børtevassdalen" />
		<tag k="natural" v="valley" />
		<tag k="place" v="locality" />
		<tag k="ssr:stedsnr" v="771363" />
	</node>
	<node id="-237590" lat="59.3533083359" lon="9.30594167014">
		<tag k="fixme" v="consider natural=peak for the most distinct mountains in the district" />
		<tag k="name" v="Bjelkemyrnatten" />
		<tag k="natural" v="hill" />
		<tag k="place" v="locality" />
		<tag k="ssr:stedsnr" v="771295" />
	</node>
	<node id="-237584" lat="59.3724166702" lon="9.15187500175">
		<tag k="name" v="Trongedal" />
		<tag k="natural" v="valley" />
		<tag k="place" v="locality" />
		<tag k="ssr:stedsnr" v="771244" />
	</node>
	<node id="-237583" lat="59.3504055577" lon="9.13791667182">
		<tag k="name" v="Steinstolen" />
		<tag k="place" v="locality" />
		<tag k="ssr:stedsnr" v="771158" />
	</node>
	<node id="-237582" lat="59.5058750017" lon="9.32484443598">
		<tag k="name" v="Humlehaugen" />
		<tag k="natural" v="hill" />
		<tag k="place" v="locality" />
		<tag k="ssr:stedsnr" v="771139" />
	</node>
	<node id="-237579" lat="59.5149777807" lon="9.33373611061">
		<tag k="name" v="Hynnemoen" />
		<tag k="place" v="locality" />
		<tag k="ssr:stedsnr" v="771078" />
	</node>
	<node id="-237578" lat="59.4163138925" lon="9.33321943713">
		<tag k="fixme" v="consider natural=peak for the most distinct mountains in the district" />
		<tag k="name" v="Kjørekleivåsen" />
		<tag k="natural" v="hill" />
		<tag k="place" v="locality" />
		<tag k="ssr:stedsnr" v="771068" />
	</node>
	<node id="-237577" lat="59.4847333341" lon="9.46494443906">
		<tag k="name" v="Vesle Vardefjell" />
		<tag k="natural" v="hill" />
		<tag k="place" v="locality" />
		<tag k="ssr:stedsnr" v="771055" />
	</node>
	<node id="-237575" lat="59.5074055582" lon="9.27248611916">
		<tag k="fixme" v="consider natural=peak for the most distinct mountains in the district" />
		<tag k="name" v="Høgsrud-åsen" />
		<tag k="natural" v="hill" />
		<tag k="place" v="locality" />
		<tag k="ssr:stedsnr" v="771016" />
	</node>
	<node id="-237571" lat="59.4463888911" lon="9.34546389231">
		<tag k="name" v="Grotmol-dalen" />
		<tag k="natural" v="valley" />
		<tag k="place" v="locality" />
		<tag k="ssr:stedsnr" v="771713" />
	</node>
</osm>
