<?xml version="1.0" encoding="UTF-8"?>
<osm generator="osmapis" version="0.6">
	<node id="-237567" lat="59.3882777818" lon="9.23742222593">
		<tag k="fixme" v="consider place=hamlet" />
		<tag k="name" v="Midgarden" />
		<tag k="place" v="farm" />
		<tag k="ssr:stedsnr" v="731909" />
	</node>
	<node id="-237566" lat="59.3888472257" lon="9.27360554836">
		<tag k="fixme" v="consider place=hamlet" />
		<tag k="name" v="Ryntvet" />
		<tag k="place" v="farm" />
		<tag k="ssr:stedsnr" v="731906" />
	</node>
	<node id="-237565" lat="59.3905361079" lon="9.32325000423">
		<tag k="name" v="Holtet" />
		<tag k="place" v="farm" />
		<tag k="ssr:stedsnr" v="731899" />
	</node>
	<node id="-237564" lat="59.3954666657" lon="9.2917583349">
		<tag k="name" v="Kåsin" />
		<tag k="place" v="farm" />
		<tag k="ssr:stedsnr" v="731888" />
	</node>
	<node id="-237563" lat="59.3936111155" lon="9.2827277776">
		<tag k="name" v="Liland" />
		<tag k="place" v="farm" />
		<tag k="ssr:stedsnr" v="731886" />
	</node>
	<node id="-237562" lat="59.453491669" lon="9.32483611781">
		<tag k="fixme" v="consider place=hamlet" />
		<tag k="name" v="Stenningen" />
		<tag k="place" v="farm" />
		<tag k="ssr:stedsnr" v="731007" />
	</node>
	<node id="-237561" lat="59.4156611145" lon="9.3121250082">
		<tag k="name" v="Hegna" />
		<tag k="place" v="farm" />
		<tag k="ssr:stedsnr" v="730980" />
	</node>
	<node id="-237560" lat="59.429677778" lon="9.29369167332">
		<tag k="fixme" v="consider place=hamlet" />
		<tag k="name" v="Hofsrud" />
		<tag k="place" v="farm" />
		<tag k="ssr:stedsnr" v="730959" />
	</node>
	<node id="-237558" lat="59.4083027746" lon="9.31801110704">
		<tag k="name" v="Fossli" />
		<tag k="place" v="farm" />
		<tag k="ssr:stedsnr" v="730887" />
	</node>
	<node id="-237552" lat="59.4653499977" lon="9.27736388778">
		<tag k="name" v="Moen" />
		<tag k="place" v="farm" />
		<tag k="ssr:stedsnr" v="730036" />
	</node>
	<node id="-237551" lat="59.4660861078" lon="9.28446388757">
		<tag k="name" v="Kåsin" />
		<tag k="place" v="farm" />
		<tag k="ssr:stedsnr" v="730037" />
	</node>
	<node id="-237550" lat="59.4687611098" lon="9.31166111649">
		<tag k="name" v="Arudshegna" />
		<tag k="place" v="farm" />
		<tag k="ssr:stedsnr" v="730018" />
	</node>
	<node id="-237549" lat="59.4688499971" lon="9.28875555031">
		<tag k="name" v="Hegna" />
		<tag k="place" v="farm" />
		<tag k="ssr:stedsnr" v="730016" />
	</node>
	<node id="-237545" lat="59.5078027806" lon="9.29305277237">
		<tag k="alt_name" v="Høgsrud nedre" />
		<tag k="fixme" v="consider place=hamlet" />
		<tag k="name" v="Hogsrud" />
		<tag k="place" v="farm" />
		<tag k="ssr:stedsnr" v="731695" />
	</node>
	<node id="-237542" lat="59.3839805559" lon="9.2413444418">
		<tag k="name" v="Kåsa" />
		<tag k="place" v="isolated_dwelling" />
		<tag k="ssr:stedsnr" v="712648" />
	</node>
	<node id="-237541" lat="59.3815805594" lon="9.23513055474">
		<tag k="name" v="Haugen" />
		<tag k="place" v="farm" />
		<tag k="ssr:stedsnr" v="712646" />
	</node>
	<node id="-237539" lat="59.3602777774" lon="9.18374722652">
		<tag k="name" v="Haugen" />
		<tag k="place" v="isolated_dwelling" />
		<tag k="ssr:stedsnr" v="711939" />
	</node>
	<node id="-237538" lat="59.3608499986" lon="9.18416388203">
		<tag k="name" v="Nykås" />
		<tag k="place" v="farm" />
		<tag k="ssr:stedsnr" v="711937" />
	</node>
	<node id="-237537" lat="59.417583335" lon="9.31148333261">
		<tag k="name" v="Norheim" />
		<tag k="place" v="farm" />
		<tag k="ssr:stedsnr" v="711896" />
	</node>
	<node id="-237535" lat="59.381552775" lon="9.1796166605">
		<tag k="name" v="Øyhagen" />
		<tag k="place" v="farm" />
		<tag k="ssr:stedsnr" v="711637" />
	</node>
	<node id="-237534" lat="59.3870277764" lon="9.19734167069">
		<tag k="name" v="Tinghaug" />
		<tag k="place" v="locality" />
		<tag k="ssr:stedsnr" v="711632" />
	</node>
	<node id="-237532" lat="59.3992277807" lon="9.17981666618">
		<tag k="name" v="Kåsa" />
		<tag k="place" v="farm" />
		<tag k="ssr:stedsnr" v="711617" />
	</node>
	<node id="-237530" lat="59.4276583291" lon="9.31737777566">
		<tag k="name" v="Kåsin" />
		<tag k="place" v="farm" />
		<tag k="ssr:stedsnr" v="711605" />
	</node>
	<node id="-237522" lat="59.3924305534" lon="9.28158332517">
		<tag k="name" v="Sud-vegen" />
		<tag k="place" v="farm" />
		<tag k="ssr:stedsnr" v="711556" />
	</node>
	<node id="-237520" lat="59.4000583304" lon="9.26715278349">
		<tag k="name" v="Nedre Bunkholt" />
		<tag k="place" v="farm" />
		<tag k="ssr:stedsnr" v="711481" />
	</node>
	<node id="-237510" lat="59.4036416706" lon="9.13447777037">
		<tag k="building" v="industrial" />
		<tag k="name" v="Brenna" />
		<tag k="ssr:stedsnr" v="711289" />
	</node>
	<node id="-237507" lat="59.3875833334" lon="9.16624166696">
		<tag k="name" v="Søboden" />
		<tag k="place" v="isolated_dwelling" />
		<tag k="ssr:stedsnr" v="711239" />
	</node>
	<node id="-237497" lat="59.3302194407" lon="9.21034444418">
		<tag k="name" v="Kåsin" />
		<tag k="place" v="locality" />
		<tag k="ssr:stedsnr" v="711141" />
	</node>
	<node id="-237496" lat="59.3277111117" lon="9.2252499945">
		<tag k="name" v="Deilskås" />
		<tag k="place" v="locality" />
		<tag k="ssr:stedsnr" v="711130" />
	</node>
	<node id="-237494" lat="59.3394611126" lon="9.17478888049">
		<tag k="name" v="Lauvbuholta" />
		<tag k="place" v="locality" />
		<tag k="ssr:stedsnr" v="711058" />
	</node>
	<node id="-237493" lat="59.3384027744" lon="9.20975277722">
		<tag k="name" v="Flåtåland" />
		<tag k="place" v="locality" />
		<tag k="ssr:stedsnr" v="711040" />
	</node>
	<node id="-237490" lat="59.4614805569" lon="9.29885555783">
		<tag k="name" v="Zimmerhaug" />
		<tag k="place" v="isolated_dwelling" />
		<tag k="ssr:stedsnr" v="711010" />
	</node>
	<node id="-237485" lat="59.5470638914" lon="9.40758889289">
		<tag k="name" v="Astridheimen" />
		<tag k="place" v="isolated_dwelling" />
		<tag k="ssr:stedsnr" v="710705" />
	</node>
	<node id="-237480" lat="59.4812805513" lon="9.29795832699">
		<tag k="name" v="Lauvhagen" />
		<tag k="place" v="isolated_dwelling" />
		<tag k="ssr:stedsnr" v="710586" />
	</node>
	<node id="-237478" lat="59.4693944405" lon="9.32598889284">
		<tag k="name" v="Åsheim" />
		<tag k="place" v="farm" />
		<tag k="ssr:stedsnr" v="710563" />
	</node>
	<node id="-237473" lat="59.4016361133" lon="9.16707499767">
		<tag k="name" v="Sørtveit" />
		<tag k="place" v="farm" />
		<tag k="ssr:stedsnr" v="710279" />
	</node>
	<node id="-237472" lat="59.3961527741" lon="9.28861667056">
		<tag k="name" v="Ånås" />
		<tag k="place" v="isolated_dwelling" />
		<tag k="ssr:stedsnr" v="710261" />
	</node>
	<node id="-237461" lat="59.4177805583" lon="9.34742499245">
		<tag k="name" v="Langås" />
		<tag k="place" v="isolated_dwelling" />
		<tag k="ssr:stedsnr" v="670995" />
	</node>
	<node id="-237459" lat="59.4403555547" lon="9.30101389713">
		<tag k="name" v="Kringsjå" />
		<tag k="place" v="farm" />
		<tag k="ssr:stedsnr" v="670947" />
	</node>
	<node id="-237458" lat="59.3945250001" lon="9.29448056188">
		<tag k="name" v="Flåtin" />
		<tag k="place" v="farm" />
		<tag k="ssr:stedsnr" v="670897" />
	</node>
	<node id="-237457" lat="59.3921777741" lon="9.28102776958">
		<tag k="name" v="Vegen" />
		<tag k="place" v="farm" />
		<tag k="ssr:stedsnr" v="670894" />
	</node>
	<node id="-237456" lat="59.4004361109" lon="9.28231110651">
		<tag k="name" v="Tærud" />
		<tag k="place" v="farm" />
		<tag k="ssr:stedsnr" v="670891" />
	</node>
	<node id="-237455" lat="59.5310749979" lon="9.42293055352">
		<tag k="alt_name" v="Kollset" />
		<tag k="name" v="Kolsetsætra" />
		<tag k="place" v="isolated_dwelling" />
		<tag k="ssr:stedsnr" v="670723" />
	</node>
	<node id="-237454" lat="59.5189722244" lon="9.37874721859">
		<tag k="alt_name" v="Postmyr" />
		<tag k="historic" v="shieling" />
		<tag k="name" v="Porsmyr" />
		<tag k="place" v="locality" />
		<tag k="ssr:stedsnr" v="670714" />
	</node>
	<node id="-237453" lat="59.5207222198" lon="9.45445278604">
		<tag k="alt_name" v="Godli" />
		<tag k="name" v="Godlia" />
		<tag k="place" v="isolated_dwelling" />
		<tag k="ssr:stedsnr" v="670710" />
	</node>
	<node id="-237449" lat="59.4176749998" lon="9.14393333016">
		<tag k="name" v="Våle" />
		<tag k="place" v="farm" />
		<tag k="ssr:stedsnr" v="670393" />
	</node>
	<node id="-237448" lat="59.3475138928" lon="9.21117222655">
		<tag k="name" v="Vik" />
		<tag k="place" v="farm" />
		<tag k="ssr:stedsnr" v="670256" />
	</node>
	<node id="-237445" lat="59.4890499982" lon="9.35032499367">
		<tag k="name" v="Sletta" />
		<tag k="place" v="isolated_dwelling" />
		<tag k="ssr:stedsnr" v="670067" />
	</node>
	<node id="-237444" lat="59.4833499972" lon="9.30983611459">
		<tag k="name" v="Lyngnes" />
		<tag k="place" v="farm" />
		<tag k="ssr:stedsnr" v="670057" />
	</node>
	<node id="-237443" lat="59.4901472224" lon="9.29616110915">
		<tag k="name" v="Kåsa" />
		<tag k="place" v="farm" />
		<tag k="ssr:stedsnr" v="670049" />
	</node>
	<node id="-237441" lat="59.4737555546" lon="9.28447499597">
		<tag k="name" v="Moen" />
		<tag k="place" v="farm" />
		<tag k="ssr:stedsnr" v="670034" />
	</node>
	<node id="-237440" lat="59.4131166637" lon="9.2900527837">
		<tag k="name" v="Moen" />
		<tag k="place" v="farm" />
		<tag k="ssr:stedsnr" v="669984" />
	</node>
	<node id="-237439" lat="59.4249305539" lon="9.29985555525">
		<tag k="name" v="Kåsa" />
		<tag k="place" v="farm" />
		<tag k="ssr:stedsnr" v="669969" />
	</node>
	<node id="-237438" lat="59.42475556" lon="9.30597221611">
		<tag k="name" v="Plassene" />
		<tag k="place" v="farm" />
		<tag k="ssr:stedsnr" v="669967" />
	</node>
	<node id="-237435" lat="59.3810722196" lon="9.23001666164">
		<tag k="name" v="Nesland" />
		<tag k="place" v="farm" />
		<tag k="ssr:stedsnr" v="669928" />
	</node>
	<node id="-237434" lat="59.3822222221" lon="9.23952778226">
		<tag k="name" v="Flåtin" />
		<tag k="place" v="farm" />
		<tag k="ssr:stedsnr" v="669921" />
	</node>
	<node id="-237433" lat="59.4930333339" lon="9.20166389048">
		<tag k="alt_name" v="Myren" />
		<tag k="name" v="Myrane" />
		<tag k="place" v="isolated_dwelling" />
		<tag k="ssr:stedsnr" v="669585" />
	</node>
	<node id="-237431" lat="59.3963972243" lon="9.17703610271">
		<tag k="name" v="Underberg" />
		<tag k="place" v="farm" />
		<tag k="ssr:stedsnr" v="669366" />
	</node>
	<node id="-237430" lat="59.4052222262" lon="9.12654999467">
		<tag k="name" v="Storkås" />
		<tag k="place" v="farm" />
		<tag k="ssr:stedsnr" v="669327" />
	</node>
	<node id="-237426" lat="59.4719361114" lon="9.28620556145">
		<tag k="name" v="Sudlykkja" />
		<tag k="place" v="farm" />
		<tag k="ssr:stedsnr" v="669030" />
	</node>
	<node id="-237425" lat="59.4663777752" lon="9.31795833229">
		<tag k="alt_name" v="Arud, nordre" />
		<tag k="name" v="Nordre Arud" />
		<tag k="place" v="farm" />
		<tag k="ssr:stedsnr" v="669015" />
	</node>
	<node id="-237424" lat="59.3691472208" lon="9.16749722533">
		<tag k="name" v="Fjellstad" />
		<tag k="place" v="farm" />
		<tag k="ssr:stedsnr" v="669276" />
	</node>
	<node id="-237423" lat="59.4167805547" lon="9.1250972293">
		<tag k="amenity" v="nursing_home" />
		<tag k="name" v="Samtun" />
		<tag k="ssr:stedsnr" v="664991" />
	</node>
	<node id="-237420" lat="59.3973833301" lon="9.25115278319">
		<tag k="name" v="Idunsvoll" />
		<tag k="place" v="square" />
		<tag k="ssr:stedsnr" v="651672" />
	</node>
	<node id="-237417" lat="59.3711222229" lon="9.22118332779">
		<tag k="name" v="Øygarden" />
		<tag k="place" v="farm" />
		<tag k="ssr:stedsnr" v="650885" />
	</node>
	<node id="-237414" lat="59.4479999985" lon="9.35430832965">
		<tag k="historic" v="shieling" />
		<tag k="name" v="Høymyr" />
		<tag k="place" v="locality" />
		<tag k="ssr:stedsnr" v="650672" />
	</node>
	<node id="-237413" lat="59.4247444427" lon="9.38012499566">
		<tag k="name" v="Høgli" />
		<tag k="place" v="locality" />
		<tag k="ssr:stedsnr" v="650665" />
	</node>
	<node id="-237409" lat="59.4010222259" lon="9.17390833314">
		<tag k="name" v="Hallen" />
		<tag k="place" v="farm" />
		<tag k="ssr:stedsnr" v="650579" />
	</node>
	<node id="-237398" lat="59.3901944442" lon="9.16357221875">
		<tag k="name" v="Nyheim" />
		<tag k="place" v="farm" />
		<tag k="ssr:stedsnr" v="650248" />
	</node>
	<node id="-237397" lat="59.3869722205" lon="9.15910000554">
		<tag k="name" v="Kåsin" />
		<tag k="place" v="farm" />
		<tag k="ssr:stedsnr" v="650247" />
	</node>
	<node id="-237390" lat="59.5139972263" lon="9.31904723014">
		<tag k="name" v="Solli" />
		<tag k="place" v="isolated_dwelling" />
		<tag k="ssr:stedsnr" v="650123" />
	</node>
	<node id="-237389" lat="59.5115472186" lon="9.31631945209">
		<tag k="name" v="Muggerud" />
		<tag k="place" v="quarter" />
		<tag k="ssr:stedsnr" v="650117" />
	</node>
	<node id="-237387" lat="59.4014416678" lon="9.30525277496">
		<tag k="name" v="Åse" />
		<tag k="place" v="farm" />
		<tag k="ssr:stedsnr" v="650009" />
	</node>
	<node id="-237386" lat="59.4638527739" lon="9.33892222799">
		<tag k="name" v="Kolbotn" />
		<tag k="place" v="locality" />
		<tag k="ssr:stedsnr" v="649993" />
	</node>
	<node id="-237382" lat="59.4952111118" lon="9.2889583399">
		<tag k="name" v="Haukedalen nordre" />
		<tag k="place" v="farm" />
		<tag k="ssr:stedsnr" v="649822" />
	</node>
	<node id="-237380" lat="59.3733161913" lon="9.22386415295">
		<tag k="name" v="Østgarden" />
		<tag k="place" v="farm" />
		<tag k="ssr:stedsnr" v="649778" />
	</node>
	<node id="-237375" lat="59.5165444436" lon="9.43904999188">
		<tag k="name" v="Damstugo" />
		<tag k="place" v="locality" />
		<tag k="ssr:stedsnr" v="649707" />
	</node>
	<node id="-237373" lat="59.3786416639" lon="9.20739999217">
		<tag k="name" v="Stigen" />
		<tag k="place" v="farm" />
		<tag k="ssr:stedsnr" v="649669" />
	</node>
	<node id="-237371" lat="59.3921666653" lon="9.22782500472">
		<tag k="name" v="Bergshaug" />
		<tag k="place" v="isolated_dwelling" />
		<tag k="ssr:stedsnr" v="649663" />
	</node>
	<node id="-237366" lat="59.411830559" lon="9.26566110352">
		<tag k="name" v="Nordre Skobba" />
		<tag k="place" v="farm" />
		<tag k="ssr:stedsnr" v="649508" />
	</node>
	<node id="-237361" lat="59.4140416673" lon="9.13669721518">
		<tag k="name" v="Moen" />
		<tag k="place" v="farm" />
		<tag k="ssr:stedsnr" v="649297" />
	</node>
	<node id="-237360" lat="59.4058583295" lon="9.17113332662">
		<tag k="name" v="Kolstad" />
		<tag k="place" v="farm" />
		<tag k="ssr:stedsnr" v="649275" />
	</node>
	<node id="-237354" lat="59.3792527752" lon="9.23380276997">
		<tag k="name" v="Hegna" />
		<tag k="place" v="farm" />
		<tag k="ssr:stedsnr" v="616666" />
	</node>
	<node id="-237352" lat="59.387358331" lon="9.24910555498">
		<tag k="name" v="Odden" />
		<tag k="place" v="isolated_dwelling" />
		<tag k="ssr:stedsnr" v="609911" />
	</node>
	<node id="-237351" lat="59.4033750032" lon="9.35831389589">
		<tag k="alt_name" v="Seinbu" />
		<tag k="historic" v="shieling" />
		<tag k="name" v="Sonbusætra" />
		<tag k="place" v="locality" />
		<tag k="ssr:stedsnr" v="609858" />
	</node>
	<node id="-237349" lat="59.4220194455" lon="9.1627888932">
		<tag k="name" v="Åsen" />
		<tag k="place" v="farm" />
		<tag k="ssr:stedsnr" v="609381" />
	</node>
	<node id="-237347" lat="59.3388444407" lon="9.21737778132">
		<tag k="fixme" v="consider place=hamlet" />
		<tag k="name" v="Holte" />
		<tag k="place" v="farm" />
		<tag k="ssr:stedsnr" v="609232" />
	</node>
	<node id="-237346" lat="59.4986861112" lon="9.41126666898">
		<tag k="alt_name" v="Budals-stugo" />
		<tag k="name" v="Budalen" />
		<tag k="place" v="isolated_dwelling" />
		<tag k="ssr:stedsnr" v="609080" />
	</node>
	<node id="-237344" lat="59.4826749996" lon="9.29872499728">
		<tag k="alt_name" v="Norheim" />
		<tag k="name" v="Nordhæm" />
		<tag k="place" v="farm" />
		<tag k="ssr:stedsnr" v="609054" />
	</node>
	<node id="-237343" lat="59.4878750002" lon="9.29049166844">
		<tag k="name" v="Dalen" />
		<tag k="place" v="farm" />
		<tag k="ssr:stedsnr" v="609044" />
	</node>
	<node id="-237340" lat="59.4238583307" lon="9.29396111019">
		<tag k="name" v="Hegna" />
		<tag k="place" v="farm" />
		<tag k="ssr:stedsnr" v="608975" />
	</node>
	<node id="-237338" lat="59.4426027741" lon="9.32315000534">
		<tag k="alt_name" v="Sunde nordre" />
		<tag k="fixme" v="consider place=hamlet" />
		<tag k="name" v="Nordsunde" />
		<tag k="place" v="farm" />
		<tag k="ssr:stedsnr" v="608958" />
	</node>
	<node id="-237334" lat="59.3822333344" lon="9.15700278075">
		<tag k="fixme" v="consider place=hamlet" />
		<tag k="name" v="Hetterud" />
		<tag k="place" v="farm" />
		<tag k="ssr:stedsnr" v="608345" />
	</node>
	<node id="-237333" lat="59.3780055533" lon="9.17720277959">
		<tag k="building" v="industrial" />
		<tag k="industrial" v="factory" />
		<tag k="name" v="Norsjø sag" />
		<tag k="ssr:stedsnr" v="608344" />
	</node>
	<node id="-237332" lat="59.4568138911" lon="9.40245000629">
		<tag k="name" v="Elgstøa" />
		<tag k="place" v="isolated_dwelling" />
		<tag k="ssr:stedsnr" v="608004" />
	</node>
	<node id="-237331" lat="59.4608611086" lon="9.33772777372">
		<tag k="name" v="Hegna" />
		<tag k="place" v="farm" />
		<tag k="ssr:stedsnr" v="608001" />
	</node>
	<node id="-237330" lat="59.3929999989" lon="9.23908888122">
		<tag k="name" v="Idungsås øvre" />
		<tag k="place" v="farm" />
		<tag k="ssr:stedsnr" v="590684" />
	</node>
	<node id="-237329" lat="59.3944499977" lon="9.24238333552">
		<tag k="alt_name" v="Nordre Edingsås" />
		<tag k="fixme" v="consider place=hamlet" />
		<tag k="name" v="Idungsås nordre" />
		<tag k="place" v="farm" />
		<tag k="ssr:stedsnr" v="590683" />
	</node>
	<node id="-237325" lat="59.380913886" lon="9.23273889441">
		<tag k="name" v="Haugen" />
		<tag k="place" v="isolated_dwelling" />
		<tag k="ssr:stedsnr" v="590670" />
	</node>
	<node id="-237324" lat="59.3942611097" lon="9.1817444395">
		<tag k="name" v="Gunnheim" />
		<tag k="place" v="farm" />
		<tag k="ssr:stedsnr" v="590658" />
	</node>
	<node id="-237323" lat="59.3882027803" lon="9.27596110635">
		<tag k="name" v="Ryntveit øvre" />
		<tag k="place" v="farm" />
		<tag k="ssr:stedsnr" v="590587" />
	</node>
	<node id="-237319" lat="59.4632805517" lon="9.34102223097">
		<tag k="name" v="Siljuås" />
		<tag k="place" v="isolated_dwelling" />
		<tag k="ssr:stedsnr" v="589999" />
	</node>
	<node id="-237316" lat="59.3641027745" lon="9.18225278541">
		<tag k="building" v="industrial" />
		<tag k="name" v="Bakken" />
		<tag k="ssr:stedsnr" v="589960" />
	</node>
	<node id="-237315" lat="59.3586083341" lon="9.18984444455">
		<tag k="name" v="Gjernes" />
		<tag k="place" v="farm" />
		<tag k="ssr:stedsnr" v="589946" />
	</node>
	<node id="-237305" lat="59.4863194433" lon="9.29747777844">
		<tag k="name" v="Uleberg nedre" />
		<tag k="place" v="farm" />
		<tag k="ssr:stedsnr" v="589820" />
	</node>
	<node id="-237304" lat="59.3675194414" lon="9.26283054721">
		<tag k="name" v="Lia" />
		<tag k="place" v="farm" />
		<tag k="ssr:stedsnr" v="589812" />
	</node>
	<node id="-237301" lat="59.3731666707" lon="9.21446110665">
		<tag k="name" v="Langjordet" />
		<tag k="place" v="farm" />
		<tag k="ssr:stedsnr" v="589803" />
	</node>
	<node id="-237300" lat="59.4599722207" lon="9.33304721492">
		<tag k="name" v="Solheim" />
		<tag k="place" v="isolated_dwelling" />
		<tag k="ssr:stedsnr" v="589772" />
	</node>
	<node id="-237299" lat="59.4580972207" lon="9.33523334169">
		<tag k="name" v="Holte nordre" />
		<tag k="place" v="farm" />
		<tag k="ssr:stedsnr" v="589770" />
	</node>
	<node id="-237296" lat="59.4310472206" lon="9.36448610924">
		<tag k="name" v="Fjellkleiv" />
		<tag k="place" v="locality" />
		<tag k="ssr:stedsnr" v="589681" />
	</node>
	<node id="-237291" lat="59.3795583307" lon="9.2116777835">
		<tag k="name" v="Ekrene" />
		<tag k="place" v="farm" />
		<tag k="ssr:stedsnr" v="589635" />
	</node>
	<node id="-237286" lat="59.4703138894" lon="9.37068332779">
		<tag k="name" v="Gamlestul" />
		<tag k="place" v="locality" />
		<tag k="ssr:stedsnr" v="589568" />
	</node>
	<node id="-237281" lat="59.4753694445" lon="9.30097500632">
		<tag k="fixme" v="multiple name tags, choose one and add the other to alt_name" />
		<tag k="name" v="Hæm nordre;Nistugu" />
		<tag k="place" v="farm" />
		<tag k="ssr:stedsnr" v="589546" />
	</node>
	<node id="-237280" lat="59.5196777762" lon="9.36498054805">
		<tag k="name" v="Bærseter" />
		<tag k="place" v="locality" />
		<tag k="ssr:stedsnr" v="589536" />
	</node>
	<node id="-237276" lat="59.4127138893" lon="9.27026388493">
		<tag k="name" v="Linneflåta" />
		<tag k="place" v="farm" />
		<tag k="ssr:stedsnr" v="589478" />
	</node>
	<node id="-237274" lat="59.473163888" lon="9.40291111897">
		<tag k="name" v="Sorgenfri" />
		<tag k="place" v="isolated_dwelling" />
		<tag k="ssr:stedsnr" v="589459" />
	</node>
	<node id="-237271" lat="59.3995694489" lon="9.20142499679">
		<tag k="name" v="Bekkevold" />
		<tag k="place" v="farm" />
		<tag k="ssr:stedsnr" v="589426" />
	</node>
	<node id="-237270" lat="59.3990111069" lon="9.20305000635">
		<tag k="name" v="Fosse" />
		<tag k="place" v="farm" />
		<tag k="ssr:stedsnr" v="589417" />
	</node>
	<node id="-237256" lat="59.5143861068" lon="9.33970555172">
		<tag k="name" v="Bråten" />
		<tag k="place" v="farm" />
		<tag k="ssr:stedsnr" v="589142" />
	</node>
	<node id="-237255" lat="59.3309249971" lon="9.22204165922">
		<tag k="name" v="Gurstad nedre" />
		<tag k="place" v="farm" />
		<tag k="ssr:stedsnr" v="589140" />
	</node>
	<node id="-237251" lat="59.410113887" lon="9.31785000363">
		<tag k="fixme" v="consider place=hamlet" />
		<tag k="name" v="Flathus" />
		<tag k="place" v="farm" />
		<tag k="ssr:stedsnr" v="589108" />
	</node>
	<node id="-237249" lat="59.3515222186" lon="9.19166388874">
		<tag k="name" v="Øygarden" />
		<tag k="place" v="farm" />
		<tag k="ssr:stedsnr" v="589096" />
	</node>
	<node id="-237248" lat="59.4067666699" lon="9.3049027727">
		<tag k="name" v="Huslugun" />
		<tag k="place" v="locality" />
		<tag k="ssr:stedsnr" v="589092" />
	</node>
	<node id="-237244" lat="59.4161499997" lon="9.29929166993">
		<tag k="name" v="Gripastad-kåsa" />
		<tag k="place" v="locality" />
		<tag k="ssr:stedsnr" v="589010" />
	</node>
	<node id="-237243" lat="59.4486166663" lon="9.30361944566">
		<tag k="name" v="Nord Ramsvik" />
		<tag k="place" v="locality" />
		<tag k="ssr:stedsnr" v="589008" />
	</node>
	<node id="-237238" lat="59.3963916636" lon="9.28626389587">
		<tag k="name" v="Ånås" />
		<tag k="place" v="farm" />
		<tag k="ssr:stedsnr" v="588215" />
	</node>
	<node id="-237237" lat="59.3475472197" lon="9.25346388818">
		<tag k="loc_name" v="Otternesodden" />
		<tag k="name" v="Ottersnesodden" />
		<tag k="place" v="farm" />
		<tag k="ssr:stedsnr" v="570736" />
	</node>
	<node id="-237230" lat="59.440208336" lon="9.32835833549">
		<tag k="alt_name" v="Sundshvåla" />
		<tag k="fixme" v="consider place=hamlet" />
		<tag k="name" v="Sundsvalen" />
		<tag k="place" v="farm" />
		<tag k="ssr:stedsnr" v="548933" />
	</node>
	<node id="-237229" lat="59.3754472244" lon="9.26033332903">
		<tag k="alt_name" v="Vålanes" />
		<tag k="name" v="Vålånes" />
		<tag k="place" v="farm" />
		<tag k="ssr:stedsnr" v="548917" />
	</node>
	<node id="-237228" lat="59.3946333373" lon="9.22803055804">
		<tag k="name" v="Bånhus" />
		<tag k="place" v="farm" />
		<tag k="ssr:stedsnr" v="548886" />
	</node>
	<node id="-237227" lat="59.4029055592" lon="9.26500000464">
		<tag k="alt_name" v="Øvre Bunkholt" />
		<tag k="name" v="Bunkholt" />
		<tag k="place" v="farm" />
		<tag k="ssr:stedsnr" v="548873" />
	</node>
	<node id="-237226" lat="59.4154666691" lon="9.17392777873">
		<tag k="alt_name" v="Søndre Dyrud" />
		<tag k="fixme" v="consider place=hamlet" />
		<tag k="name" v="Dyrud" />
		<tag k="place" v="farm" />
		<tag k="ssr:stedsnr" v="548421" />
	</node>
	<node id="-237225" lat="59.3953611156" lon="9.21696667307">
		<tag k="name" v="Holtan" />
		<tag k="place" v="hamlet" />
		<tag k="ssr:stedsnr" v="548396" />
	</node>
	<node id="-237224" lat="59.4047361075" lon="9.14495278506">
		<tag k="name" v="Haugen" />
		<tag k="place" v="farm" />
		<tag k="ssr:stedsnr" v="548382" />
	</node>
	<node id="-237222" lat="59.3321722233" lon="9.19580554939">
		<tag k="name" v="Storli" />
		<tag k="place" v="farm" />
		<tag k="ssr:stedsnr" v="548237" />
	</node>
	<node id="-237220" lat="59.4921249984" lon="9.29349721778">
		<tag k="name" v="Lønvik" />
		<tag k="place" v="farm" />
		<tag k="ssr:stedsnr" v="548062" />
	</node>
	<node id="-237217" lat="59.4653500042" lon="9.24482778034">
		<tag k="alt_name" v="Nord-Liene" />
		<tag k="name" v="Lien" />
		<tag k="place" v="isolated_dwelling" />
		<tag k="ssr:stedsnr" v="548047" />
	</node>
	<node id="-237215" lat="59.4754888903" lon="9.28752499598">
		<tag k="name" v="Bekkhus" />
		<tag k="place" v="farm" />
		<tag k="ssr:stedsnr" v="548037" />
	</node>
	<node id="-237214" lat="59.4623000022" lon="9.24900277628">
		<tag k="name" v="Listul" />
		<tag k="place" v="isolated_dwelling" />
		<tag k="ssr:stedsnr" v="548030" />
	</node>
	<node id="-237211" lat="59.3904250031" lon="9.15693611287">
		<tag k="name" v="Ødegården" />
		<tag k="place" v="quarter" />
		<tag k="ssr:stedsnr" v="543966" />
	</node>
	<node id="-237208" lat="59.4690722219" lon="9.31579999613">
		<tag k="name" v="Bergenn" />
		<tag k="place" v="isolated_dwelling" />
		<tag k="ssr:stedsnr" v="529932" />
	</node>
	<node id="-237205" lat="59.4427722207" lon="9.36817221645">
		<tag k="historic" v="shieling" />
		<tag k="name" v="Øvrestul" />
		<tag k="place" v="locality" />
		<tag k="ssr:stedsnr" v="529732" />
	</node>
	<node id="-237198" lat="59.3925305555" lon="9.25875555893">
		<tag k="fixme" v="consider place=hamlet" />
		<tag k="name" v="Akkerhaugen" />
		<tag k="place" v="farm" />
		<tag k="ssr:stedsnr" v="529558" />
	</node>
	<node id="-237196" lat="59.4256972221" lon="9.29237777305">
		<tag k="name" v="Rønningen" />
		<tag k="place" v="farm" />
		<tag k="ssr:stedsnr" v="529505" />
	</node>
	<node id="-237193" lat="59.3992527777" lon="9.19772221734">
		<tag k="name" v="Flåterud" />
		<tag k="place" v="farm" />
		<tag k="ssr:stedsnr" v="529414" />
	</node>
	<node id="-237186" lat="59.4047361128" lon="9.14548888674">
		<tag k="name" v="Haugen" />
		<tag k="place" v="farm" />
		<tag k="ssr:stedsnr" v="529256" />
	</node>
	<node id="-237184" lat="59.3978666644" lon="9.15980554903">
		<tag k="name" v="Østtveit" />
		<tag k="place" v="farm" />
		<tag k="ssr:stedsnr" v="529245" />
	</node>
	<node id="-237183" lat="59.3742722182" lon="9.34077776975">
		<tag k="historic" v="shieling" />
		<tag k="name" v="Lyhaug" />
		<tag k="place" v="locality" />
		<tag k="ssr:stedsnr" v="529236" />
	</node>
	<node id="-237180" lat="59.4661583372" lon="9.28049443863">
		<tag k="name" v="Bakken" />
		<tag k="place" v="farm" />
		<tag k="ssr:stedsnr" v="529200" />
	</node>
	<node id="-237176" lat="59.4025027753" lon="9.31128611465">
		<tag k="name" v="Skotbakken" />
		<tag k="place" v="farm" />
		<tag k="ssr:stedsnr" v="529116" />
	</node>
	<node id="-237175" lat="59.4117416669" lon="9.30854166282">
		<tag k="name" v="Ripegutu" />
		<tag k="place" v="farm" />
		<tag k="ssr:stedsnr" v="529103" />
	</node>
	<node id="-237169" lat="59.4632166674" lon="9.32354167214">
		<tag k="name" v="Arud søndre" />
		<tag k="place" v="isolated_dwelling" />
		<tag k="ssr:stedsnr" v="528999" />
	</node>
	<node id="-237168" lat="59.4741361086" lon="9.32553888969">
		<tag k="name" v="Bergli" />
		<tag k="place" v="isolated_dwelling" />
		<tag k="ssr:stedsnr" v="528988" />
	</node>
	<node id="-237165" lat="59.4881500044" lon="9.33547500361">
		<tag k="name" v="Klevsås" />
		<tag k="place" v="locality" />
		<tag k="ssr:stedsnr" v="528826" />
	</node>
	<node id="-237162" lat="59.3755833299" lon="9.21443333372">
		<tag k="alt_name" v="Hesthage" />
		<tag k="fixme" v="consider place=hamlet" />
		<tag k="name" v="Hesthag" />
		<tag k="place" v="farm" />
		<tag k="ssr:stedsnr" v="528760" />
	</node>
	<node id="-237153" lat="59.3836972191" lon="9.20306944973">
		<tag k="name" v="Nyhus" />
		<tag k="place" v="farm" />
		<tag k="ssr:stedsnr" v="528660" />
	</node>
	<node id="-237152" lat="59.398194446" lon="9.20023055384">
		<tag k="name" v="Flåterud" />
		<tag k="place" v="farm" />
		<tag k="ssr:stedsnr" v="528651" />
	</node>
	<node id="-237151" lat="59.398652778" lon="9.20617500712">
		<tag k="name" v="Fjellheim" />
		<tag k="place" v="farm" />
		<tag k="ssr:stedsnr" v="528650" />
	</node>
	<node id="-237150" lat="59.4219722188" lon="9.16347221863">
		<tag k="name" v="Åsen" />
		<tag k="place" v="farm" />
		<tag k="ssr:stedsnr" v="528609" />
	</node>
	<node id="-237149" lat="59.4352388916" lon="9.17124722858">
		<tag k="historic" v="shieling" />
		<tag k="name" v="Tveiten" />
		<tag k="place" v="locality" />
		<tag k="ssr:stedsnr" v="528603" />
	</node>
	<node id="-237143" lat="59.4046444431" lon="9.25933056249">
		<tag k="name" v="Vegheim" />
		<tag k="place" v="farm" />
		<tag k="ssr:stedsnr" v="528530" />
	</node>
	<node id="-237133" lat="59.4107333331" lon="9.16365554765">
		<tag k="name" v="Evju" />
		<tag k="place" v="farm" />
		<tag k="ssr:stedsnr" v="528302" />
	</node>
	<node id="-237132" lat="59.4118083333" lon="9.14881666626">
		<tag k="name" v="Norheim" />
		<tag k="place" v="farm" />
		<tag k="ssr:stedsnr" v="528291" />
	</node>
	<node id="-237131" lat="59.3844388852" lon="9.32921943563">
		<tag k="name" v="Dale" />
		<tag k="place" v="isolated_dwelling" />
		<tag k="ssr:stedsnr" v="528276" />
	</node>
	<node id="-237130" lat="59.4450138923" lon="9.34198610353">
		<tag k="name" v="Øvre Haugedal" />
		<tag k="place" v="farm" />
		<tag k="ssr:stedsnr" v="528264" />
	</node>
	<node id="-237124" lat="59.3925416627" lon="9.23308610823">
		<tag k="name" v="Hegna" />
		<tag k="place" v="farm" />
		<tag k="ssr:stedsnr" v="488899" />
	</node>
	<node id="-237123" lat="59.4046111098" lon="9.30635000012">
		<tag k="fixme" v="consider place=hamlet" />
		<tag k="name" v="Moen" />
		<tag k="place" v="farm" />
		<tag k="ssr:stedsnr" v="488876" />
	</node>
	<node id="-237118" lat="59.3851333367" lon="9.24674721941">
		<tag k="alt_name" v="Eyra" />
		<tag k="name" v="Øya" />
		<tag k="place" v="farm" />
		<tag k="ssr:stedsnr" v="488915" />
	</node>
	<node id="-237117" lat="59.3885972208" lon="9.26281110389">
		<tag k="name" v="Dalen" />
		<tag k="place" v="farm" />
		<tag k="ssr:stedsnr" v="488913" />
	</node>
	<node id="-237116" lat="59.3906305565" lon="9.3138999915">
		<tag k="alt_name" v="Kvitås-kåsa" />
		<tag k="name" v="Kåsa" />
		<tag k="place" v="farm" />
		<tag k="ssr:stedsnr" v="488911" />
	</node>
	<node id="-237115" lat="59.41843611" lon="9.15461388769">
		<tag k="name" v="Kise" />
		<tag k="place" v="farm" />
		<tag k="ssr:stedsnr" v="488378" />
	</node>
	<node id="-237114" lat="59.341547219" lon="9.21359723048">
		<tag k="name" v="Nyhus" />
		<tag k="place" v="farm" />
		<tag k="ssr:stedsnr" v="488211" />
	</node>
	<node id="-237113" lat="59.4738527812" lon="9.32356666256">
		<tag k="name" v="Hagen" />
		<tag k="place" v="farm" />
		<tag k="ssr:stedsnr" v="488035" />
	</node>
	<node id="-237112" lat="59.4124666624" lon="9.28394166803">
		<tag k="name" v="Sauar" />
		<tag k="place" v="farm" />
		<tag k="ssr:stedsnr" v="487996" />
	</node>
	<node id="-237111" lat="59.417683335" lon="9.2754416652">
		<tag k="alt_name" v="Sauar vestre" />
		<tag k="fixme" v="consider place=hamlet" />
		<tag k="name" v="Sauar" />
		<tag k="place" v="farm" />
		<tag k="ssr:stedsnr" v="487974" />
	</node>
	<node id="-237110" lat="59.4267055529" lon="9.28513610775">
		<tag k="name" v="Kåsin" />
		<tag k="place" v="farm" />
		<tag k="ssr:stedsnr" v="487969" />
	</node>
	<node id="-237105" lat="59.3959805533" lon="9.19907777571">
		<tag k="name" v="Fossheim" />
		<tag k="place" v="farm" />
		<tag k="ssr:stedsnr" v="487403" />
	</node>
	<node id="-237104" lat="59.3996416684" lon="9.13890833765">
		<tag k="name" v="Haugerud" />
		<tag k="place" v="farm" />
		<tag k="ssr:stedsnr" v="487401" />
	</node>
	<node id="-237103" lat="59.4047833364" lon="9.19694721883">
		<tag k="alt_name" v="Kåsine" />
		<tag k="name" v="Kåsin" />
		<tag k="place" v="farm" />
		<tag k="ssr:stedsnr" v="487372" />
	</node>
	<node id="-237102" lat="59.4079472223" lon="9.12913056286">
		<tag k="name" v="Øya" />
		<tag k="place" v="farm" />
		<tag k="ssr:stedsnr" v="487364" />
	</node>
	<node id="-237101" lat="59.37063889" lon="9.17304721927">
		<tag k="name" v="Nordadal" />
		<tag k="place" v="farm" />
		<tag k="ssr:stedsnr" v="487308" />
	</node>
	<node id="-237098" lat="59.4961295286" lon="9.33120536774">
		<tag k="alt_name" v="Kallejord" />
		<tag k="fixme" v="consider place=hamlet" />
		<tag k="name" v="Kaljord" />
		<tag k="place" v="farm" />
		<tag k="ssr:stedsnr" v="487064" />
	</node>
	<node id="-237097" lat="59.4955472234" lon="9.31683610524">
		<tag k="fixme" v="consider place=hamlet" />
		<tag k="name" v="Haugholt" />
		<tag k="place" v="farm" />
		<tag k="ssr:stedsnr" v="487052" />
	</node>
	<node id="-237096" lat="59.4877250018" lon="9.2932777797">
		<tag k="name" v="Flåta" />
		<tag k="place" v="farm" />
		<tag k="ssr:stedsnr" v="487042" />
	</node>
	<node id="-237095" lat="59.4576499957" lon="9.31840277751">
		<tag k="name" v="Bolvik" />
		<tag k="place" v="farm" />
		<tag k="ssr:stedsnr" v="487023" />
	</node>
	<node id="-237093" lat="59.3858416661" lon="9.16010000556">
		<tag k="name" v="Hetterudfeltet" />
		<tag k="place" v="quarter" />
		<tag k="ssr:stedsnr" v="482966" />
	</node>
	<node id="-237090" lat="59.368105552" lon="9.17928611329">
		<tag k="alt_name" v="Nordre Årnes" />
		<tag k="fixme" v="consider place=hamlet" />
		<tag k="name" v="Årnes" />
		<tag k="place" v="farm" />
		<tag k="ssr:stedsnr" v="468992" />
	</node>
	<node id="-237089" lat="59.3640611071" lon="9.18035278383">
		<tag k="name" v="Årnes" />
		<tag k="place" v="farm" />
		<tag k="ssr:stedsnr" v="468990" />
	</node>
	<node id="-237088" lat="59.4803805534" lon="9.33377500472">
		<tag k="name" v="Grovdal" />
		<tag k="place" v="locality" />
		<tag k="ssr:stedsnr" v="468977" />
	</node>
	<node id="-237082" lat="59.3725861128" lon="9.2169972182">
		<tag k="fixme" v="consider place=hamlet" />
		<tag k="name" v="Vestgarden" />
		<tag k="place" v="farm" />
		<tag k="ssr:stedsnr" v="468791" />
	</node>
	<node id="-237080" lat="59.4515194445" lon="9.35793610852">
		<tag k="name" v="Innleggen" />
		<tag k="place" v="locality" />
		<tag k="ssr:stedsnr" v="468719" />
	</node>
	<node id="-237072" lat="59.3957472178" lon="9.22817777901">
		<tag k="name" v="Spirholt" />
		<tag k="place" v="locality" />
		<tag k="ssr:stedsnr" v="468621" />
	</node>
	<node id="-237065" lat="59.4771222208" lon="9.30442777956">
		<tag k="fixme" v="multiple name tags, choose one and add the other to alt_name" />
		<tag k="name" v="Hæm lille;Østistugu" />
		<tag k="place" v="farm" />
		<tag k="ssr:stedsnr" v="468527" />
	</node>
	<node id="-237062" lat="59.4687499973" lon="9.29386389691">
		<tag k="name" v="Roe" />
		<tag k="place" v="farm" />
		<tag k="ssr:stedsnr" v="468490" />
	</node>
	<node id="-237056" lat="59.4114416685" lon="9.28162499844">
		<tag k="fixme" v="consider place=hamlet" />
		<tag k="name" v="Kuslungen" />
		<tag k="place" v="farm" />
		<tag k="ssr:stedsnr" v="468446" />
	</node>
	<node id="-237055" lat="59.4116055545" lon="9.27505832935">
		<tag k="name" v="Johanskås" />
		<tag k="place" v="farm" />
		<tag k="ssr:stedsnr" v="468445" />
	</node>
	<node id="-237050" lat="59.4165194405" lon="9.16734445053">
		<tag k="name" v="Huset" />
		<tag k="place" v="farm" />
		<tag k="ssr:stedsnr" v="468245" />
	</node>
	<node id="-237049" lat="59.3921944439" lon="9.16224721738">
		<tag k="name" v="Skogheim" />
		<tag k="place" v="farm" />
		<tag k="ssr:stedsnr" v="468246" />
	</node>
	<node id="-237048" lat="59.3975027737" lon="9.15110278153">
		<tag k="name" v="Haga" />
		<tag k="place" v="isolated_dwelling" />
		<tag k="ssr:stedsnr" v="468229" />
	</node>
	<node id="-237047" lat="59.3971444464" lon="9.15257222235">
		<tag k="name" v="Bøen" />
		<tag k="place" v="farm" />
		<tag k="ssr:stedsnr" v="468230" />
	</node>
	<node id="-237044" lat="59.3690916709" lon="9.16789444513">
		<tag k="name" v="Fjelstad" />
		<tag k="place" v="farm" />
		<tag k="ssr:stedsnr" v="468183" />
	</node>
	<node id="-237039" lat="59.3483444421" lon="9.1590500041">
		<tag k="name" v="Roligheten" />
		<tag k="place" v="locality" />
		<tag k="ssr:stedsnr" v="468150" />
	</node>
	<node id="-237038" lat="59.453388888" lon="9.26638610442">
		<tag k="historic" v="shieling" />
		<tag k="name" v="Åsbakk-stul" />
		<tag k="place" v="locality" />
		<tag k="ssr:stedsnr" v="468149" />
	</node>
	<node id="-237035" lat="59.5130916632" lon="9.3311750041">
		<tag k="name" v="Kåsa" />
		<tag k="place" v="farm" />
		<tag k="ssr:stedsnr" v="468133" />
	</node>
	<node id="-237033" lat="59.3331722229" lon="9.21640832457">
		<tag k="name" v="Gurstad øvre" />
		<tag k="place" v="farm" />
		<tag k="ssr:stedsnr" v="468128" />
	</node>
	<node id="-237031" lat="59.4128821516" lon="9.31257829494">
		<tag k="name" v="Svalestuen" />
		<tag k="place" v="locality" />
		<tag k="ssr:stedsnr" v="468095" />
	</node>
	<node id="-237027" lat="59.4622972261" lon="9.31796110291">
		<tag k="name" v="Lystang" />
		<tag k="place" v="locality" />
		<tag k="ssr:stedsnr" v="468053" />
	</node>
	<node id="-237024" lat="59.3451583323" lon="9.20726111615">
		<tag k="name" v="Årås nedre" />
		<tag k="place" v="farm" />
		<tag k="ssr:stedsnr" v="468043" />
	</node>
	<node id="-237016" lat="59.4164277782" lon="9.36774722507">
		<tag k="name" v="Liheimen" />
		<tag k="place" v="isolated_dwelling" />
		<tag k="ssr:stedsnr" v="468303" />
	</node>
	<node id="-237015" lat="59.387283335" lon="9.33413610719">
		<tag k="name" v="Tveit" />
		<tag k="place" v="isolated_dwelling" />
		<tag k="ssr:stedsnr" v="467238" />
	</node>
	<node id="-237014" lat="59.3790861084" lon="9.28853333271">
		<tag k="fixme" v="consider tourism=alpine_hut or tourism=chalet" />
		<tag k="name" v="Boward-stugo" />
		<tag k="ssr:stedsnr" v="467236" />
		<tag k="tourism" v="wilderness_hut" />
	</node>
	<node id="-237009" lat="59.3947611149" lon="9.19732777442">
		<tag k="alt_name" v="Gunem;Søndre Gunem" />
		<tag k="fixme" v="consider place=hamlet" />
		<tag k="name" v="Gunnheim" />
		<tag k="place" v="farm" />
		<tag k="ssr:stedsnr" v="434658" />
	</node>
	<node id="-237007" lat="59.5087499962" lon="9.32089721643">
		<tag k="fixme" v="consider place=suburb, village or hamlet" />
		<tag k="name" v="Hjuksevelta" />
		<tag k="place" v="quarter" />
		<tag k="ssr:stedsnr" v="428700" />
	</node>
	<node id="-237005" lat="59.4180250001" lon="9.30892223005">
		<tag k="name" v="Vollen" />
		<tag k="place" v="farm" />
		<tag k="ssr:stedsnr" v="427984" />
	</node>
	<node id="-237004" lat="59.419200002" lon="9.26885000014">
		<tag k="name" v="Borgarås" />
		<tag k="place" v="farm" />
		<tag k="ssr:stedsnr" v="427978" />
	</node>
	<node id="-237002" lat="59.3750000018" lon="9.26722777339">
		<tag k="name" v="Lia" />
		<tag k="place" v="farm" />
		<tag k="ssr:stedsnr" v="427918" />
	</node>
	<node id="-237001" lat="59.3888222198" lon="9.32682500812">
		<tag k="alt_name" v="Steinstad" />
		<tag k="name" v="Stenstad" />
		<tag k="place" v="farm" />
		<tag k="ssr:stedsnr" v="427894" />
	</node>
	<node id="-236999" lat="59.3952999995" lon="9.26723054878">
		<tag k="name" v="Holta" />
		<tag k="place" v="farm" />
		<tag k="ssr:stedsnr" v="427875" />
	</node>
	<node id="-236998" lat="59.3613361104" lon="9.37570833237">
		<tag k="name" v="Hellebarden" />
		<tag k="place" v="isolated_dwelling" />
		<tag k="ssr:stedsnr" v="427790" />
	</node>
	<node id="-236997" lat="59.3666944475" lon="9.26212221449">
		<tag k="alt_name" v="Lia-grenda" />
		<tag k="name" v="Liagrend" />
		<tag k="place" v="hamlet" />
		<tag k="ssr:stedsnr" v="427781" />
	</node>
	<node id="-236995" lat="59.4229166683" lon="9.13831667229">
		<tag k="name" v="Løvland" />
		<tag k="place" v="farm" />
		<tag k="ssr:stedsnr" v="427443" />
	</node>
	<node id="-236991" lat="59.3847972234" lon="9.18193889367">
		<tag k="name" v="Teksten" />
		<tag k="ssr:stedsnr" v="427351" />
		<tag k="tourism" v="camp_site" />
	</node>
	<node id="-236990" lat="59.3805027799" lon="9.20131110286">
		<tag k="name" v="Nyhus" />
		<tag k="place" v="farm" />
		<tag k="ssr:stedsnr" v="427308" />
	</node>
	<node id="-236983" lat="59.4810388887" lon="9.30740000668">
		<tag k="name" v="Tjuven" />
		<tag k="place" v="isolated_dwelling" />
		<tag k="ssr:stedsnr" v="427033" />
	</node>
	<node id="-236981" lat="59.4655638931" lon="9.33044167213">
		<tag k="fixme" v="consider place=hamlet" />
		<tag k="name" v="Kleiverud" />
		<tag k="place" v="farm" />
		<tag k="ssr:stedsnr" v="427021" />
	</node>
	<node id="-236980" lat="59.4649722267" lon="9.32064445092">
		<tag k="alt_name" v="Arud, midtre" />
		<tag k="name" v="Midtre Arud" />
		<tag k="place" v="farm" />
		<tag k="ssr:stedsnr" v="427020" />
	</node>
	<node id="-236978" lat="59.402416667" lon="9.29069722736">
		<tag k="alt_name" v="Hvåla" />
		<tag k="name" v="Gvåla" />
		<tag k="place" v="farm" />
		<tag k="ssr:stedsnr" v="252636" />
	</node>
	<node id="-236973" lat="59.518300002" lon="9.34847221906">
		<tag k="name" v="Askemyra" />
		<tag k="place" v="isolated_dwelling" />
		<tag k="ssr:stedsnr" v="246681" />
	</node>
	<node id="-236971" lat="59.4169999956" lon="9.29053611094">
		<tag k="building" v="industrial" />
		<tag k="industrial" v="factory" />
		<tag k="name" v="Flathus" />
		<tag k="ssr:stedsnr" v="245985" />
	</node>
	<node id="-236970" lat="59.4429694401" lon="9.3884333304">
		<tag k="name" v="Høgli" />
		<tag k="place" v="isolated_dwelling" />
		<tag k="ssr:stedsnr" v="245955" />
	</node>
	<node id="-236968" lat="59.3767777776" lon="9.21872500239">
		<tag k="name" v="Prestgarden" />
		<tag k="place" v="farm" />
		<tag k="ssr:stedsnr" v="245921" />
	</node>
	<node id="-236966" lat="59.3889361073" lon="9.29272499307">
		<tag k="alt_name" v="Bråkollsrud" />
		<tag k="name" v="Bråkånsrud" />
		<tag k="place" v="farm" />
		<tag k="ssr:stedsnr" v="245906" />
	</node>
	<node id="-236965" lat="59.3876638912" lon="9.29942500579">
		<tag k="fixme" v="consider place=hamlet" />
		<tag k="name" v="Landsverk" />
		<tag k="place" v="farm" />
		<tag k="ssr:stedsnr" v="245904" />
	</node>
	<node id="-236964" lat="59.3930583298" lon="9.24074722767">
		<tag k="name" v="Jongsås" />
		<tag k="place" v="farm" />
		<tag k="ssr:stedsnr" v="245899" />
	</node>
	<node id="-236963" lat="59.3950916625" lon="9.25128333184">
		<tag k="name" v="Akkerhaugen" />
		<tag k="place" v="village" />
		<tag k="ssr:stedsnr" v="245895" />
	</node>
	<node id="-236961" lat="59.3950500027" lon="9.31691667178">
		<tag k="name" v="Skeiet" />
		<tag k="place" v="farm" />
		<tag k="ssr:stedsnr" v="245890" />
	</node>
	<node id="-236954" lat="59.442205553" lon="9.20215277384">
		<tag k="alt_name" v="Gullnås" />
		<tag k="name" v="Gulnos" />
		<tag k="place" v="isolated_dwelling" />
		<tag k="ssr:stedsnr" v="245444" />
	</node>
	<node id="-236953" lat="59.4195527818" lon="9.15396111284">
		<tag k="fixme" v="consider place=hamlet" />
		<tag k="name" v="Sætersbø" />
		<tag k="place" v="village" />
		<tag k="ssr:stedsnr" v="245394" />
	</node>
	<node id="-236952" lat="59.4144611096" lon="9.14310833437">
		<tag k="name" v="Norheim" />
		<tag k="place" v="farm" />
		<tag k="ssr:stedsnr" v="245388" />
	</node>
	<node id="-236951" lat="59.41504167" lon="9.14732500007">
		<tag k="alt_name" v="Lindem" />
		<tag k="name" v="Lindtveit" />
		<tag k="place" v="farm" />
		<tag k="ssr:stedsnr" v="245385" />
	</node>
	<node id="-236950" lat="59.3929694461" lon="9.20776111572">
		<tag k="name" v="Bergan" />
		<tag k="place" v="hamlet" />
		<tag k="ssr:stedsnr" v="245353" />
	</node>
	<node id="-236949" lat="59.3494416646" lon="9.18313889225">
		<tag k="name" v="Myrland" />
		<tag k="place" v="farm" />
		<tag k="ssr:stedsnr" v="245253" />
	</node>
	<node id="-236947" lat="59.3348722192" lon="9.20858054702">
		<tag k="name" v="Gurstad" />
		<tag k="place" v="farm" />
		<tag k="ssr:stedsnr" v="245217" />
	</node>
	<node id="-236946" lat="59.4954916629" lon="9.2942833392">
		<tag k="alt_name" v="Bolager" />
		<tag k="name" v="Bolåkeren" />
		<tag k="place" v="farm" />
		<tag k="ssr:stedsnr" v="245061" />
	</node>
	<node id="-236943" lat="59.462255552" lon="9.28164721515">
		<tag k="name" v="Åsen" />
		<tag k="place" v="farm" />
		<tag k="ssr:stedsnr" v="245027" />
	</node>
	<node id="-236941" lat="59.4687972208" lon="9.29645000348">
		<tag k="alt_name" v="Roe" />
		<tag k="fixme" v="consider place=hamlet" />
		<tag k="name" v="Rui" />
		<tag k="place" v="farm" />
		<tag k="ssr:stedsnr" v="245014" />
	</node>
	<node id="-236935" lat="59.3886750044" lon="9.22944722362">
		<tag k="fixme" v="consider place=hamlet" />
		<tag k="name" v="Østre Prestholt" />
		<tag k="place" v="farm" />
		<tag k="ssr:stedsnr" v="226692" />
	</node>
	<node id="-236934" lat="59.3941333344" lon="9.23735833761">
		<tag k="name" v="Idungsås vestre" />
		<tag k="place" v="farm" />
		<tag k="ssr:stedsnr" v="226686" />
	</node>
	<node id="-236933" lat="59.3970361074" lon="9.18446666827">
		<tag k="name" v="Gunnheim" />
		<tag k="place" v="farm" />
		<tag k="ssr:stedsnr" v="226656" />
	</node>
	<node id="-236931" lat="59.4022861147" lon="9.17867500864">
		<tag k="name" v="Skogen" />
		<tag k="place" v="farm" />
		<tag k="ssr:stedsnr" v="226642" />
	</node>
	<node id="-236925" lat="59.4992111099" lon="9.19617500171">
		<tag k="name" v="Murtebua" />
		<tag k="place" v="locality" />
		<tag k="ssr:stedsnr" v="226242" />
	</node>
	<node id="-236922" lat="59.5137027739" lon="9.31610555951">
		<tag k="name" v="Haslekåsa øvre" />
		<tag k="place" v="isolated_dwelling" />
		<tag k="ssr:stedsnr" v="226139" />
	</node>
	<node id="-236918" lat="59.353780554" lon="9.18354167017">
		<tag k="name" v="Storåsen" />
		<tag k="place" v="farm" />
		<tag k="ssr:stedsnr" v="226096" />
	</node>
	<node id="-236914" lat="59.4637722266" lon="9.3362750035">
		<tag k="name" v="Lykkja" />
		<tag k="place" v="farm" />
		<tag k="ssr:stedsnr" v="225995" />
	</node>
	<node id="-236911" lat="59.5031416654" lon="9.32697778421">
		<tag k="fixme" v="consider place=hamlet" />
		<tag k="name" v="Angard" />
		<tag k="place" v="farm" />
		<tag k="ssr:stedsnr" v="225910" />
	</node>
	<node id="-236910" lat="59.4150111102" lon="9.29124722456">
		<tag k="name" v="Bakketun" />
		<tag k="place" v="isolated_dwelling" />
		<tag k="ssr:stedsnr" v="225860" />
	</node>
	<node id="-236906" lat="59.4608777751" lon="9.32571666093">
		<tag k="name" v="Volltveit nordre" />
		<tag k="place" v="farm" />
		<tag k="ssr:stedsnr" v="225749" />
	</node>
	<node id="-236905" lat="59.4588777801" lon="9.32414443657">
		<tag k="name" v="Volltveit su" />
		<tag k="place" v="isolated_dwelling" />
		<tag k="ssr:stedsnr" v="225750" />
	</node>
	<node id="-236891" lat="59.4001611069" lon="9.35680278545">
		<tag k="historic" v="shieling" />
		<tag k="name" v="Landtjønnstulen" />
		<tag k="place" v="locality" />
		<tag k="ssr:stedsnr" v="225356" />
	</node>
	<node id="-236888" lat="59.3942777788" lon="9.15919722079">
		<tag k="name" v="Brattestå" />
		<tag k="place" v="farm" />
		<tag k="ssr:stedsnr" v="225290" />
	</node>
	<node id="-236887" lat="59.3883250016" lon="9.32306111569">
		<tag k="historic" v="shieling" />
		<tag k="name" v="Nordre Dale" />
		<tag k="place" v="locality" />
		<tag k="ssr:stedsnr" v="225268" />
	</node>
	<node id="-236886" lat="59.3842805592" lon="9.15562500647">
		<tag k="name" v="Juveland" />
		<tag k="place" v="farm" />
		<tag k="ssr:stedsnr" v="225250" />
	</node>
	<node id="-236885" lat="59.36245556" lon="9.16677500249">
		<tag k="name" v="Bakken" />
		<tag k="place" v="farm" />
		<tag k="ssr:stedsnr" v="225209" />
	</node>
	<node id="-236880" lat="59.4002055521" lon="9.31250834159">
		<tag k="name" v="Åse" />
		<tag k="place" v="isolated_dwelling" />
		<tag k="ssr:stedsnr" v="225112" />
	</node>
	<node id="-236876" lat="59.4580916675" lon="9.31456666214">
		<tag k="name" v="Neset" />
		<tag k="place" v="farm" />
		<tag k="ssr:stedsnr" v="225022" />
	</node>
	<node id="-236875" lat="59.4240583372" lon="9.16917499869">
		<tag k="historic" v="shieling" />
		<tag k="name" v="Lindelia" />
		<tag k="place" v="locality" />
		<tag k="ssr:stedsnr" v="225627" />
	</node>
	<node id="-236872" lat="59.5215944452" lon="9.37627222005">
		<tag k="name" v="Vårbustul" />
		<tag k="place" v="locality" />
		<tag k="ssr:stedsnr" v="225581" />
	</node>
	<node id="-236864" lat="59.5084472207" lon="9.32824999402">
		<tag k="name" v="Flatland" />
		<tag k="place" v="farm" />
		<tag k="ssr:stedsnr" v="185687" />
	</node>
	<node id="-236859" lat="59.433866664" lon="9.31809166841">
		<tag k="alt_name" v="Sunde søndre" />
		<tag k="name" v="Sunde" />
		<tag k="place" v="farm" />
		<tag k="ssr:stedsnr" v="184952" />
	</node>
	<node id="-236855" lat="59.4078500024" lon="9.26697777204">
		<tag k="name" v="Skobba" />
		<tag k="place" v="farm" />
		<tag k="ssr:stedsnr" v="184860" />
	</node>
	<node id="-236849" lat="59.3608305556" lon="9.176672229">
		<tag k="alt_name" v="Stranda, ytre" />
		<tag k="fixme" v="consider place=hamlet" />
		<tag k="name" v="Ytre Stranda" />
		<tag k="place" v="village" />
		<tag k="ssr:stedsnr" v="184251" />
	</node>
	<node id="-236847" lat="59.4966527821" lon="9.28516111049">
		<tag k="name" v="Haukedalen" />
		<tag k="place" v="farm" />
		<tag k="ssr:stedsnr" v="184041" />
	</node>
	<node id="-236846" lat="59.4867500033" lon="9.29938055693">
		<tag k="fixme" v="consider place=hamlet" />
		<tag k="name" v="Uleberg" />
		<tag k="place" v="farm" />
		<tag k="ssr:stedsnr" v="184035" />
	</node>
	<node id="-236843" lat="59.4628611069" lon="9.32386943814">
		<tag k="alt_name" v="Arud, s" />
		<tag k="name" v="Søndre Arud" />
		<tag k="place" v="farm" />
		<tag k="ssr:stedsnr" v="184014" />
	</node>
	<node id="-236837" lat="59.3889916684" lon="9.19316388931">
		<tag k="name" v="Kåsa" />
		<tag k="place" v="farm" />
		<tag k="ssr:stedsnr" v="165643" />
	</node>
	<node id="-236836" lat="59.3980805511" lon="9.18989444088">
		<tag k="name" v="Hovland" />
		<tag k="place" v="farm" />
		<tag k="ssr:stedsnr" v="165641" />
	</node>
	<node id="-236835" lat="59.3860305598" lon="9.18758055598">
		<tag k="fixme" v="consider place=hamlet" />
		<tag k="name" v="Notevarp" />
		<tag k="place" v="farm" />
		<tag k="ssr:stedsnr" v="165635" />
	</node>
	<node id="-236834" lat="59.3928138865" lon="9.19811388464">
		<tag k="name" v="Nykås" />
		<tag k="place" v="farm" />
		<tag k="ssr:stedsnr" v="165636" />
	</node>
	<node id="-236831" lat="59.3942388888" lon="9.28229721881">
		<tag k="name" v="Nord-vegen" />
		<tag k="place" v="farm" />
		<tag k="ssr:stedsnr" v="165586" />
	</node>
	<node id="-236829" lat="59.4655722208" lon="9.38873055409">
		<tag k="historic" v="shieling" />
		<tag k="name" v="Dyrås" />
		<tag k="place" v="locality" />
		<tag k="ssr:stedsnr" v="165565" />
	</node>
	<node id="-236825" lat="59.4002250029" lon="9.19980277785">
		<tag k="name" v="Bjørgeland" />
		<tag k="place" v="farm" />
		<tag k="ssr:stedsnr" v="165433" />
	</node>
	<node id="-236824" lat="59.4173916671" lon="9.15056110418">
		<tag k="amenity" v="school" />
		<tag k="name" v="Sætersbø" />
		<tag k="ssr:stedsnr" v="165276" />
	</node>
	<node id="-236821" lat="59.4524999988" lon="9.34084167209">
		<tag k="name" v="Brekke" />
		<tag k="place" v="isolated_dwelling" />
		<tag k="ssr:stedsnr" v="165225" />
	</node>
	<node id="-236819" lat="59.3308749973" lon="9.19873054768">
		<tag k="name" v="Ingebretskås" />
		<tag k="place" v="locality" />
		<tag k="ssr:stedsnr" v="165117" />
	</node>
	<node id="-236817" lat="59.3542027793" lon="9.2007638891">
		<tag k="name" v="Strandli" />
		<tag k="place" v="farm" />
		<tag k="ssr:stedsnr" v="165094" />
	</node>
	<node id="-236814" lat="59.3377916655" lon="9.2112305599">
		<tag k="name" v="Kåsin" />
		<tag k="place" v="isolated_dwelling" />
		<tag k="ssr:stedsnr" v="165035" />
	</node>
	<node id="-236811" lat="59.4508222221" lon="9.31057221382">
		<tag k="name" v="Smørklepp" />
		<tag k="place" v="locality" />
		<tag k="ssr:stedsnr" v="165007" />
	</node>
	<node id="-236810" lat="59.4251000001" lon="9.3261694494">
		<tag k="name" v="Sundsmoen" />
		<tag k="place" v="hamlet" />
		<tag k="ssr:stedsnr" v="164953" />
	</node>
	<node id="-236807" lat="59.4945888916" lon="9.28950833425">
		<tag k="alt_name" v="Haukedalen" />
		<tag k="fixme" v="consider place=hamlet" />
		<tag k="name" v="Søndre Haukedalen" />
		<tag k="place" v="farm" />
		<tag k="ssr:stedsnr" v="164841" />
	</node>
	<node id="-236806" lat="59.4888666681" lon="9.28986666015">
		<tag k="name" v="Hegna" />
		<tag k="place" v="farm" />
		<tag k="ssr:stedsnr" v="164838" />
	</node>
	<node id="-236804" lat="59.4541527813" lon="9.36233054778">
		<tag k="historic" v="shieling" />
		<tag k="name" v="Stennigs-stul" />
		<tag k="place" v="locality" />
		<tag k="ssr:stedsnr" v="164746" />
	</node>
	<node id="-236802" lat="59.382311114" lon="9.21218610241">
		<tag k="amenity" v="school" />
		<tag k="name" v="Nes" />
		<tag k="ssr:stedsnr" v="164703" />
	</node>
	<node id="-236801" lat="59.3781777748" lon="9.21549722929">
		<tag k="name" v="Hestehag" />
		<tag k="place" v="farm" />
		<tag k="ssr:stedsnr" v="164704" />
	</node>
	<node id="-236799" lat="59.4243861102" lon="9.13433610732">
		<tag k="name" v="Myrvang" />
		<tag k="place" v="farm" />
		<tag k="ssr:stedsnr" v="164649" />
	</node>
	<node id="-236798" lat="59.4779305517" lon="9.29682777165">
		<tag k="fixme" v="multiple name tags, choose one and add the other to alt_name" />
		<tag k="name" v="Hem Nigard;Hæm vestre" />
		<tag k="place" v="farm" />
		<tag k="ssr:stedsnr" v="164633" />
	</node>
	<node id="-236794" lat="59.4103277792" lon="9.25804999142">
		<tag k="name" v="Søndre Hegna" />
		<tag k="place" v="farm" />
		<tag k="ssr:stedsnr" v="164540" />
	</node>
	<node id="-236793" lat="59.4081777781" lon="9.2601444519">
		<tag k="name" v="Skobba" />
		<tag k="place" v="farm" />
		<tag k="ssr:stedsnr" v="164538" />
	</node>
	<node id="-236788" lat="59.4131083344" lon="9.14134166035">
		<tag k="name" v="Snippen" />
		<tag k="place" v="farm" />
		<tag k="ssr:stedsnr" v="164311" />
	</node>
	<node id="-236787" lat="59.4148666628" lon="9.1416472266">
		<tag k="name" v="Snippen" />
		<tag k="place" v="farm" />
		<tag k="ssr:stedsnr" v="164309" />
	</node>
	<node id="-236781" lat="59.4578749999" lon="9.27863888647">
		<tag k="name" v="Bergheim" />
		<tag k="place" v="farm" />
		<tag k="ssr:stedsnr" v="164146" />
	</node>
	<node id="-236778" lat="59.5106250005" lon="9.33227223006">
		<tag k="name" v="Haugen" />
		<tag k="place" v="farm" />
		<tag k="ssr:stedsnr" v="164127" />
	</node>
	<node id="-236776" lat="59.4079972265" lon="9.32770277909">
		<tag k="name" v="Låvell" />
		<tag k="place" v="hamlet" />
		<tag k="ssr:stedsnr" v="164082" />
	</node>
	<node id="-236774" lat="59.3871861148" lon="9.23967499877">
		<tag k="name" v="Jongsås" />
		<tag k="place" v="farm" />
		<tag k="ssr:stedsnr" v="124907" />
	</node>
	<node id="-236773" lat="59.3934138914" lon="9.30952499758">
		<tag k="alt_name" v="Hvitås" />
		<tag k="name" v="Kvitås" />
		<tag k="place" v="farm" />
		<tag k="ssr:stedsnr" v="124876" />
	</node>
	<node id="-236771" lat="59.4144638878" lon="9.16564166455">
		<tag k="name" v="Berge" />
		<tag k="place" v="farm" />
		<tag k="ssr:stedsnr" v="124346" />
	</node>
	<node id="-236770" lat="59.4804166643" lon="9.25720555984">
		<tag k="alt_name" v="Ruistulen" />
		<tag k="name" v="Roestul" />
		<tag k="place" v="isolated_dwelling" />
		<tag k="ssr:stedsnr" v="124065" />
	</node>
	<node id="-236769" lat="59.4473416639" lon="9.22110000697">
		<tag k="name" v="Hestås" />
		<tag k="place" v="isolated_dwelling" />
		<tag k="ssr:stedsnr" v="124013" />
	</node>
	<node id="-236768" lat="59.4123916661" lon="9.30536388723">
		<tag k="alt_name" v="Kullhuset" />
		<tag k="name" v="Kolahuset" />
		<tag k="place" v="farm" />
		<tag k="ssr:stedsnr" v="123993" />
	</node>
	<node id="-236767" lat="59.4188305532" lon="9.29703611771">
		<tag k="alt_name" v="Gripenstad" />
		<tag k="fixme" v="consider place=hamlet" />
		<tag k="name" v="Gripastad" />
		<tag k="place" v="farm" />
		<tag k="ssr:stedsnr" v="123970" />
	</node>
	<node id="-236766" lat="59.4037111115" lon="9.29228889186">
		<tag k="alt_name" v="Hvåla" />
		<tag k="name" v="Gvåla" />
		<tag k="place" v="farm" />
		<tag k="ssr:stedsnr" v="123893" />
	</node>
	<node id="-236764" lat="59.3561999974" lon="9.27633333564">
		<tag k="historic" v="shieling" />
		<tag k="name" v="Fjellstul" />
		<tag k="place" v="locality" />
		<tag k="ssr:stedsnr" v="123851" />
	</node>
	<node id="-236759" lat="59.4243916647" lon="9.1990527856">
		<tag k="name" v="Bordstul" />
		<tag k="place" v="locality" />
		<tag k="ssr:stedsnr" v="123428" />
	</node>
	<node id="-236755" lat="59.3773972183" lon="9.21155277753">
		<tag k="name" v="Stigen" />
		<tag k="place" v="farm" />
		<tag k="ssr:stedsnr" v="123310" />
	</node>
	<node id="-236754" lat="59.4933805599" lon="9.393030559">
		<tag k="historic" v="shieling" />
		<tag k="name" v="Sæterdalen" />
		<tag k="place" v="locality" />
		<tag k="ssr:stedsnr" v="123087" />
	</node>
	<node id="-236751" lat="59.4834777764" lon="9.32717223069">
		<tag k="alt_name" v="Op-hagen" />
		<tag k="name" v="Hagen" />
		<tag k="place" v="farm" />
		<tag k="ssr:stedsnr" v="123060" />
	</node>
	<node id="-236749" lat="59.4709305512" lon="9.36584166325">
		<tag k="name" v="Åbakken" />
		<tag k="place" v="isolated_dwelling" />
		<tag k="ssr:stedsnr" v="123019" />
	</node>
	<node id="-236748" lat="59.4555805531" lon="9.33611388198">
		<tag k="name" v="Holte" />
		<tag k="place" v="farm" />
		<tag k="ssr:stedsnr" v="123002" />
	</node>
	<node id="-236747" lat="59.4618305536" lon="9.33266110488">
		<tag k="alt_name" v="Kiken nordre" />
		<tag k="name" v="Kjika" />
		<tag k="place" v="farm" />
		<tag k="ssr:stedsnr" v="123001" />
	</node>
	<node id="-236746" lat="59.4043444486" lon="9.1345777772">
		<tag k="name" v="Brenna industriområde" />
		<tag k="place" v="quarter" />
		<tag k="ssr:stedsnr" v="118995" />
	</node>
	<node id="-236743" lat="59.3971305576" lon="9.18070000518">
		<tag k="building" v="industrial" />
		<tag k="name" v="Steinstad" />
		<tag k="ssr:stedsnr" v="105642" />
	</node>
	<node id="-236740" lat="59.5105194489" lon="9.32437221672">
		<tag k="name" v="Svingen" />
		<tag k="place" v="isolated_dwelling" />
		<tag k="ssr:stedsnr" v="105132" />
	</node>
	<node id="-236738" lat="59.4739305591" lon="9.32925556011">
		<tag k="name" v="Fykerud-kåsa" />
		<tag k="place" v="locality" />
		<tag k="ssr:stedsnr" v="104991" />
	</node>
	<node id="-236734" lat="59.3370361077" lon="9.21832777517">
		<tag k="name" v="Holte nedre" />
		<tag k="place" v="farm" />
		<tag k="ssr:stedsnr" v="104889" />
	</node>
	<node id="-236730" lat="59.3660805598" lon="9.21520277967">
		<tag k="name" v="Strand" />
		<tag k="place" v="farm" />
		<tag k="ssr:stedsnr" v="104777" />
	</node>
	<node id="-236729" lat="59.4592583356" lon="9.31995832602">
		<tag k="name" v="Volltveit ni" />
		<tag k="place" v="farm" />
		<tag k="ssr:stedsnr" v="104751" />
	</node>
	<node id="-236722" lat="59.3808861136" lon="9.21471944529">
		<tag k="name" v="Moen" />
		<tag k="place" v="farm" />
		<tag k="ssr:stedsnr" v="104640" />
	</node>
	<node id="-236721" lat="59.3777722228" lon="9.21188333319">
		<tag k="name" v="Hestehag" />
		<tag k="place" v="farm" />
		<tag k="ssr:stedsnr" v="104634" />
	</node>
	<node id="-236718" lat="59.4327861101" lon="9.31514443911">
		<tag k="name" v="Sunde" />
		<tag k="place" v="hamlet" />
		<tag k="ssr:stedsnr" v="104598" />
	</node>
	<node id="-236715" lat="59.4730527812" lon="9.33533333905">
		<tag k="name" v="Haugås" />
		<tag k="place" v="locality" />
		<tag k="ssr:stedsnr" v="104535" />
	</node>
	<node id="-236701" lat="59.4606555511" lon="9.32806944317">
		<tag k="name" v="Vårheim" />
		<tag k="place" v="hamlet" />
		<tag k="ssr:stedsnr" v="104222" />
	</node>
	<node id="-236699" lat="59.3675194416" lon="9.16780555428">
		<tag k="name" v="Bergli" />
		<tag k="place" v="isolated_dwelling" />
		<tag k="ssr:stedsnr" v="104194" />
	</node>
	<node id="-236694" lat="59.5128888908" lon="9.3370694431">
		<tag k="name" v="Øvre Slettemo" />
		<tag k="place" v="farm" />
		<tag k="ssr:stedsnr" v="104137" />
	</node>
	<node id="-236693" lat="59.3328750015" lon="9.20803611381">
		<tag k="name" v="Hegna" />
		<tag k="place" v="locality" />
		<tag k="ssr:stedsnr" v="104136" />
	</node>
	<node id="-236690" lat="59.3300805537" lon="9.18516666556">
		<tag k="name" v="Grasmyrkåsa" />
		<tag k="place" v="farm" />
		<tag k="ssr:stedsnr" v="104112" />
	</node>
	<node id="-236689" lat="59.3997638926" lon="9.3112444432">
		<tag k="name" v="Åse" />
		<tag k="place" v="isolated_dwelling" />
		<tag k="ssr:stedsnr" v="104101" />
	</node>
	<node id="-236688" lat="59.4132888854" lon="9.31950277519">
		<tag k="name" v="Fredbo" />
		<tag k="place" v="isolated_dwelling" />
		<tag k="ssr:stedsnr" v="104098" />
	</node>
	<node id="-236687" lat="59.4052388863" lon="9.34028889266">
		<tag k="name" v="Ådalen" />
		<tag k="place" v="locality" />
		<tag k="ssr:stedsnr" v="104094" />
	</node>
	<node id="-236686" lat="59.4855500012" lon="9.32382500817">
		<tag k="name" v="n-Hagen" />
		<tag k="place" v="farm" />
		<tag k="ssr:stedsnr" v="104088" />
	</node>
	<node id="-236685" lat="59.4037805577" lon="9.34066944273">
		<tag k="name" v="Hegnun" />
		<tag k="place" v="locality" />
		<tag k="ssr:stedsnr" v="104083" />
	</node>
	<node id="-236683" lat="59.4160087685" lon="9.32130440969">
		<tag k="fixme" v="consider place=hamlet" />
		<tag k="name" v="Nordagutu" />
		<tag k="place" v="farm" />
		<tag k="ssr:stedsnr" v="104074" />
	</node>
	<node id="-236680" lat="59.3417555557" lon="9.19744166264">
		<tag k="name" v="Dalen" />
		<tag k="place" v="locality" />
		<tag k="ssr:stedsnr" v="104038" />
	</node>
	<node id="-236674" lat="59.3993166646" lon="9.28915000488">
		<tag k="alt_name" v="Hvåla;Øvre Hvåla" />
		<tag k="fixme" v="consider place=hamlet" />
		<tag k="name" v="Gvåla" />
		<tag k="place" v="farm" />
		<tag k="ssr:stedsnr" v="70674" />
	</node>
	<node id="-236670" lat="59.5128499981" lon="9.33704166765">
		<tag k="name" v="Trykkerud" />
		<tag k="place" v="farm" />
		<tag k="ssr:stedsnr" v="64742" />
	</node>
	<node id="-236668" lat="59.5210972223" lon="9.43897777912">
		<tag k="alt_name" v="Taklås" />
		<tag k="historic" v="shieling" />
		<tag k="name" v="Taklåssætra" />
		<tag k="place" v="locality" />
		<tag k="ssr:stedsnr" v="64730" />
	</node>
	<node id="-236664" lat="59.414494442" lon="9.28973611039">
		<tag k="name" v="Plassen" />
		<tag k="place" v="farm" />
		<tag k="ssr:stedsnr" v="63985" />
	</node>
	<node id="-236663" lat="59.4456111132" lon="9.30375832676">
		<tag k="name" v="Ramsvik" />
		<tag k="place" v="farm" />
		<tag k="ssr:stedsnr" v="63936" />
	</node>
	<node id="-236662" lat="59.4424555589" lon="9.24168055869">
		<tag k="name" v="Haugestul" />
		<tag k="place" v="isolated_dwelling" />
		<tag k="ssr:stedsnr" v="63931" />
	</node>
	<node id="-236661" lat="59.384300001" lon="9.22739721764">
		<tag k="name" v="Grindekåsa" />
		<tag k="place" v="farm" />
		<tag k="ssr:stedsnr" v="63911" />
	</node>
	<node id="-236660" lat="59.3876083359" lon="9.33417500608">
		<tag k="name" v="Dalsvatn" />
		<tag k="place" v="locality" />
		<tag k="ssr:stedsnr" v="63902" />
	</node>
	<node id="-236656" lat="59.3677472258" lon="9.21850832868">
		<tag k="name" v="Øygarden" />
		<tag k="place" v="farm" />
		<tag k="ssr:stedsnr" v="63813" />
	</node>
	<node id="-236655" lat="59.4216777774" lon="9.13799444655">
		<tag k="name" v="Darrud" />
		<tag k="place" v="farm" />
		<tag k="ssr:stedsnr" v="63450" />
	</node>
	<node id="-236654" lat="59.4256694412" lon="9.13522500609">
		<tag k="name" v="Solbakken" />
		<tag k="place" v="farm" />
		<tag k="ssr:stedsnr" v="63449" />
	</node>
	<node id="-236653" lat="59.398158333" lon="9.1545749993">
		<tag k="name" v="Håtveit" />
		<tag k="place" v="farm" />
		<tag k="ssr:stedsnr" v="63391" />
	</node>
	<node id="-236652" lat="59.3756611083" lon="9.17228056001">
		<tag k="name" v="Gullhaugen" />
		<tag k="place" v="farm" />
		<tag k="ssr:stedsnr" v="63359" />
	</node>
	<node id="-236650" lat="59.3834416634" lon="9.20086388379">
		<tag k="alt_name" v="Lindem;Søndre Lindem" />
		<tag k="fixme" v="consider place=hamlet" />
		<tag k="name" v="Lindheim" />
		<tag k="place" v="farm" />
		<tag k="ssr:stedsnr" v="63303" />
	</node>
	<node id="-236646" lat="59.463124997" lon="9.29375277568">
		<tag k="alt_name" v="Hvannes" />
		<tag k="fixme" v="consider place=hamlet" />
		<tag k="name" v="Gvannes" />
		<tag k="place" v="farm" />
		<tag k="ssr:stedsnr" v="63036" />
	</node>
	<node id="-236644" lat="59.4694388898" lon="9.32163611667">
		<tag k="name" v="Flåta" />
		<tag k="place" v="farm" />
		<tag k="ssr:stedsnr" v="63021" />
	</node>
	<node id="-236643" lat="59.3888666702" lon="9.23836944563">
		<tag k="alt_name" v="Midgard Edingsås" />
		<tag k="name" v="Idungsås, megard" />
		<tag k="place" v="farm" />
		<tag k="ssr:stedsnr" v="44686" />
	</node>
	<node id="-236642" lat="59.3939777775" lon="9.26354444075">
		<tag k="building" v="industrial" />
		<tag k="name" v="Hestehegna" />
		<tag k="ssr:stedsnr" v="44594" />
	</node>
	<node id="-236638" lat="59.3860277823" lon="9.24695833801">
		<tag k="name" v="Solheim" />
		<tag k="place" v="isolated_dwelling" />
		<tag k="ssr:stedsnr" v="44565" />
	</node>
	<node id="-236631" lat="59.3524722236" lon="9.19931388364">
		<tag k="amenity" v="school" />
		<tag k="name" v="Stranda" />
		<tag k="ssr:stedsnr" v="44095" />
	</node>
	<node id="-236630" lat="59.3516888851" lon="9.20105556324">
		<tag k="name" v="Åsland" />
		<tag k="place" v="isolated_dwelling" />
		<tag k="ssr:stedsnr" v="44092" />
	</node>
	<node id="-236621" lat="59.407336108" lon="9.28734445264">
		<tag k="name" v="Gillaren" />
		<tag k="place" v="locality" />
		<tag k="ssr:stedsnr" v="43905" />
	</node>
	<node id="-236620" lat="59.3430638883" lon="9.21058610856">
		<tag k="fixme" v="consider place=hamlet" />
		<tag k="name" v="Folgedalen" />
		<tag k="place" v="farm" />
		<tag k="ssr:stedsnr" v="44035" />
	</node>
	<node id="-236619" lat="59.33991389" lon="9.21042221554">
		<tag k="name" v="Nyheim" />
		<tag k="place" v="locality" />
		<tag k="ssr:stedsnr" v="44031" />
	</node>
	<node id="-236615" lat="59.4610750012" lon="9.33205555446">
		<tag k="alt_name" v="Kiken" />
		<tag k="fixme" v="consider place=hamlet" />
		<tag k="name" v="Kiken søndre" />
		<tag k="place" v="farm" />
		<tag k="ssr:stedsnr" v="43765" />
	</node>
	<node id="-236611" lat="59.5352138917" lon="9.4745055509">
		<tag k="name" v="Sveinsbu" />
		<tag k="place" v="locality" />
		<tag k="ssr:stedsnr" v="43646" />
	</node>
	<node id="-236610" lat="59.388283337" lon="9.2116444433">
		<tag k="name" v="Skamlaus" />
		<tag k="place" v="isolated_dwelling" />
		<tag k="ssr:stedsnr" v="43644" />
	</node>
	<node id="-236608" lat="59.4333777793" lon="9.30962222281">
		<tag k="name" v="Sunde" />
		<tag k="place" v="farm" />
		<tag k="ssr:stedsnr" v="43616" />
	</node>
	<node id="-236606" lat="59.4685499958" lon="9.37820000313">
		<tag k="name" v="Øvrestul" />
		<tag k="place" v="locality" />
		<tag k="ssr:stedsnr" v="43587" />
	</node>
	<node id="-236605" lat="59.4253472188" lon="9.12991667164">
		<tag k="name" v="Hørte" />
		<tag k="place" v="farm" />
		<tag k="ssr:stedsnr" v="43583" />
	</node>
	<node id="-236602" lat="59.4765944482" lon="9.30295000104">
		<tag k="fixme" v="multiple name tags, choose one and add the other to alt_name" />
		<tag k="name" v="Hæm østre;Nordigard" />
		<tag k="place" v="farm" />
		<tag k="ssr:stedsnr" v="43556" />
	</node>
	<node id="-236589" lat="59.4101583298" lon="9.13278888368">
		<tag k="name" v="Hellkås" />
		<tag k="place" v="farm" />
		<tag k="ssr:stedsnr" v="43273" />
	</node>
	<node id="-236586" lat="59.4022916663" lon="9.13663055111">
		<tag k="name" v="Breibekk" />
		<tag k="place" v="farm" />
		<tag k="ssr:stedsnr" v="43247" />
	</node>
	<node id="-236574" lat="59.4062527736" lon="9.32274445113">
		<tag k="name" v="Smedsvålen" />
		<tag k="place" v="farm" />
		<tag k="ssr:stedsnr" v="43084" />
	</node>
	<node id="-236573" lat="59.5135888899" lon="9.32838055081">
		<tag k="name" v="Nedre Slettemo" />
		<tag k="place" v="farm" />
		<tag k="ssr:stedsnr" v="43076" />
	</node>
	<node id="-236571" lat="59.5073249975" lon="9.33179165957">
		<tag k="name" v="Gåthaug-haugen" />
		<tag k="place" v="isolated_dwelling" />
		<tag k="ssr:stedsnr" v="43107" />
	</node>
	<node id="-236569" lat="59.4005749959" lon="9.30304721847">
		<tag k="name" v="Åse" />
		<tag k="place" v="farm" />
		<tag k="ssr:stedsnr" v="43005" />
	</node>
	<node id="-236568" lat="59.472033334" lon="9.30154999537">
		<tag k="alt_name" v="Hem søndre;Søndre Hæm" />
		<tag k="fixme" v="consider place=hamlet" />
		<tag k="name" v="Søndre Hem" />
		<tag k="place" v="farm" />
		<tag k="ssr:stedsnr" v="9673" />
	</node>
	<node id="-236566" lat="59.5271555593" lon="9.37439999397">
		<tag k="name" v="Vårbumoen" />
		<tag k="place" v="isolated_dwelling" />
		<tag k="ssr:stedsnr" v="3708" />
	</node>
	<node id="-236564" lat="59.5038000042" lon="9.32590000471">
		<tag k="fixme" v="consider place=hamlet" />
		<tag k="name" v="Hjukse" />
		<tag k="place" v="farm" />
		<tag k="ssr:stedsnr" v="3694" />
	</node>
	<node id="-236562" lat="59.5148555578" lon="9.45509999226">
		<tag k="alt_name" v="Tjønnås" />
		<tag k="name" v="Tjørnåssætra" />
		<tag k="place" v="locality" />
		<tag k="ssr:stedsnr" v="3681" />
	</node>
	<node id="-236561" lat="59.4124416644" lon="9.26949999365">
		<tag k="name" v="Vestgarden" />
		<tag k="place" v="farm" />
		<tag k="ssr:stedsnr" v="2994" />
	</node>
	<node id="-236559" lat="59.4361749971" lon="9.35991110387">
		<tag k="name" v="Bjøranslettin" />
		<tag k="place" v="isolated_dwelling" />
		<tag k="ssr:stedsnr" v="2953" />
	</node>
	<node id="-236558" lat="59.4279916671" lon="9.28008888334">
		<tag k="alt_name" v="Roligheten" />
		<tag k="name" v="Roligheta" />
		<tag k="place" v="farm" />
		<tag k="ssr:stedsnr" v="2948" />
	</node>
	<node id="-236556" lat="59.3881361101" lon="9.32270277676">
		<tag k="name" v="Norddale" />
		<tag k="place" v="farm" />
		<tag k="ssr:stedsnr" v="2908" />
	</node>
	<node id="-236554" lat="59.4076055556" lon="9.25487221587">
		<tag k="name" v="Øvrebø" />
		<tag k="place" v="farm" />
		<tag k="ssr:stedsnr" v="2876" />
	</node>
	<node id="-236553" lat="59.4068750018" lon="9.25543888678">
		<tag k="alt_name" v="Vegheim" />
		<tag k="name" v="Vegem" />
		<tag k="place" v="hamlet" />
		<tag k="ssr:stedsnr" v="2873" />
	</node>
	<node id="-236550" lat="59.3630638905" lon="9.21948056118">
		<tag k="fixme" v="consider place=hamlet" />
		<tag k="name" v="Odden" />
		<tag k="place" v="farm" />
		<tag k="ssr:stedsnr" v="2805" />
	</node>
	<node id="-236549" lat="59.3697138925" lon="9.22337500604">
		<tag k="name" v="Nes" />
		<tag k="place" v="farm" />
		<tag k="ssr:stedsnr" v="2796" />
	</node>
	<node id="-236546" lat="59.4228935485" lon="9.14844730605">
		<tag k="alt_name" v="Sølverud" />
		<tag k="fixme" v="consider place=hamlet" />
		<tag k="name" v="Solverud" />
		<tag k="place" v="farm" />
		<tag k="ssr:stedsnr" v="2405" />
	</node>
	<node id="-236545" lat="59.4266111126" lon="9.15317222217">
		<tag k="name" v="Steinarsrud" />
		<tag k="place" v="farm" />
		<tag k="ssr:stedsnr" v="2403" />
	</node>
	<node id="-236544" lat="59.3941777769" lon="9.19056388026">
		<tag k="alt_name" v="Gunem" />
		<tag k="name" v="Gunnheim" />
		<tag k="place" v="farm" />
		<tag k="ssr:stedsnr" v="2391" />
	</node>
	<node id="-236543" lat="59.4066444402" lon="9.18235555509">
		<tag k="name" v="Lia" />
		<tag k="place" v="farm" />
		<tag k="ssr:stedsnr" v="2382" />
	</node>
	<node id="-236542" lat="59.402649448" lon="9.14299771389">
		<tag k="alt_name" v="Neset" />
		<tag k="name" v="Nesset" />
		<tag k="place" v="farm" />
		<tag k="ssr:stedsnr" v="2380" />
	</node>
	<node id="-236541" lat="59.3879111134" lon="9.1555138899">
		<tag k="alt_name" v="Ødegården" />
		<tag k="name" v="Øygarden" />
		<tag k="place" v="farm" />
		<tag k="ssr:stedsnr" v="2350" />
	</node>
	<node id="-236540" lat="59.3876666661" lon="9.17239722981">
		<tag k="name" v="Gvarv" />
		<tag k="place" v="village" />
		<tag k="ssr:stedsnr" v="2349" />
	</node>
	<node id="-236534" lat="59.4887250022" lon="9.28931388594">
		<tag k="name" v="Hegna" />
		<tag k="place" v="farm" />
		<tag k="ssr:stedsnr" v="2051" />
	</node>
	<node id="-236533" lat="59.4729611069" lon="9.29045000533">
		<tag k="alt_name" v="Berge" />
		<tag k="name" v="Berget" />
		<tag k="place" v="farm" />
		<tag k="ssr:stedsnr" v="2046" />
	</node>
	<node id="-236532" lat="59.4758138915" lon="9.28353888298">
		<tag k="name" v="Nordlykkja" />
		<tag k="place" v="farm" />
		<tag k="ssr:stedsnr" v="2037" />
	</node>
	<node id="-236531" lat="59.4587499998" lon="9.32626388554">
		<tag k="fixme" v="consider place=hamlet" />
		<tag k="name" v="Voltveit" />
		<tag k="place" v="farm" />
		<tag k="ssr:stedsnr" v="2033" />
	</node>
	<node id="-236530" lat="59.4505666632" lon="9.33429721946">
		<tag k="name" v="Kåsa" />
		<tag k="place" v="farm" />
		<tag k="ssr:stedsnr" v="2018" />
	</node>
	<node id="-236529" lat="59.453236114" lon="9.26660000057">
		<tag k="name" v="Åsbakk" />
		<tag k="place" v="isolated_dwelling" />
		<tag k="ssr:stedsnr" v="2014" />
	</node>
	<node id="-236527" lat="59.3667961363" lon="9.1838296319">
		<tag k="name" v="Årnes" />
		<tag k="place" v="hamlet" />
		<tag k="ssr:stedsnr" v="983173" />
	</node>
	<node id="-236526" lat="59.3765291383" lon="9.19131906871">
		<tag k="name" v="Holtanøya" />
		<tag k="place" v="locality" />
		<tag k="ssr:stedsnr" v="983133" />
	</node>
	<node id="-236525" lat="59.4162727068" lon="9.17268724142">
		<tag k="name" v="Dyrud" />
		<tag k="place" v="hamlet" />
		<tag k="ssr:stedsnr" v="983120" />
	</node>
	<node id="-236524" lat="59.4178200084" lon="9.17525094609">
		<tag k="fixme" v="consider place=hamlet" />
		<tag k="name" v="Nordre Dyrud" />
		<tag k="place" v="farm" />
		<tag k="ssr:stedsnr" v="983103" />
	</node>
	<node id="-236523" lat="59.3923551022" lon="9.18205654177">
		<tag k="fixme" v="consider place=hamlet" />
		<tag k="name" v="Nedre Gunem" />
		<tag k="place" v="farm" />
		<tag k="ssr:stedsnr" v="983102" />
	</node>
	<node id="-236522" lat="59.3933960495" lon="9.18784976885">
		<tag k="fixme" v="consider place=hamlet" />
		<tag k="name" v="Midgard Gunem" />
		<tag k="place" v="farm" />
		<tag k="ssr:stedsnr" v="983101" />
	</node>
	<node id="-236521" lat="59.3948407551" lon="9.20842925004">
		<tag k="fixme" v="consider place=hamlet" />
		<tag k="name" v="Bergan" />
		<tag k="place" v="farm" />
		<tag k="ssr:stedsnr" v="983100" />
	</node>
	<node id="-236520" lat="59.3688528407" lon="9.22383475227">
		<tag k="name" v="Nes" />
		<tag k="place" v="hamlet" />
		<tag k="ssr:stedsnr" v="983092" />
	</node>
	<node id="-236519" lat="59.3778225107" lon="9.21953765641">
		<tag k="fixme" v="consider place=hamlet" />
		<tag k="name" v="Nordre Nes" />
		<tag k="place" v="farm" />
		<tag k="ssr:stedsnr" v="983081" />
	</node>
	<node id="-236518" lat="59.4084064256" lon="9.32319216759">
		<tag k="name" v="Løvoll" />
		<tag k="place" v="hamlet" />
		<tag k="ssr:stedsnr" v="983050" />
	</node>
	<node id="-236517" lat="59.374277721" lon="9.22312130668">
		<tag k="fixme" v="consider place=hamlet" />
		<tag k="name" v="Kirkestuen" />
		<tag k="place" v="farm" />
		<tag k="ssr:stedsnr" v="983080" />
	</node>
	<node id="-236515" lat="59.3917745276" lon="9.23815881254">
		<tag k="name" v="Edingsås" />
		<tag k="place" v="hamlet" />
		<tag k="ssr:stedsnr" v="983074" />
	</node>
	<node id="-236514" lat="59.4074792659" lon="9.25277635313">
		<tag k="name" v="Vegem" />
		<tag k="place" v="hamlet" />
		<tag k="ssr:stedsnr" v="983070" />
	</node>
	<node id="-236513" lat="59.4043391205" lon="9.25527460014">
		<tag k="fixme" v="consider place=hamlet" />
		<tag k="name" v="Søndre Vegem" />
		<tag k="place" v="farm" />
		<tag k="ssr:stedsnr" v="983069" />
	</node>
	<node id="-236512" lat="59.4059121889" lon="9.25825060408">
		<tag k="fixme" v="consider place=hamlet" />
		<tag k="name" v="Midgard Vegem" />
		<tag k="place" v="farm" />
		<tag k="ssr:stedsnr" v="983068" />
	</node>
	<node id="-236511" lat="59.4097692101" lon="9.25827996005">
		<tag k="fixme" v="consider place=hamlet" />
		<tag k="name" v="Nordre Vegem" />
		<tag k="place" v="farm" />
		<tag k="ssr:stedsnr" v="983067" />
	</node>
	<node id="-236510" lat="59.4204288572" lon="9.28706391698">
		<tag k="fixme" v="consider place=hamlet" />
		<tag k="name" v="Østre Sauar" />
		<tag k="place" v="farm" />
		<tag k="ssr:stedsnr" v="983065" />
	</node>
	<node id="-236509" lat="59.422269472" lon="9.28081632471">
		<tag k="fixme" v="consider place=hamlet" />
		<tag k="name" v="Prestegården" />
		<tag k="place" v="farm" />
		<tag k="ssr:stedsnr" v="983064" />
	</node>
	<node id="-236508" lat="59.4579035707" lon="9.30049706427">
		<tag k="fixme" v="consider place=hamlet" />
		<tag k="name" v="Klever" />
		<tag k="place" v="farm" />
		<tag k="ssr:stedsnr" v="983062" />
	</node>
	<node id="-236507" lat="59.4748952407" lon="9.30477882715">
		<tag k="name" v="Hæm" />
		<tag k="place" v="hamlet" />
		<tag k="ssr:stedsnr" v="983057" />
	</node>
	<node id="-236506" lat="59.4771410196" lon="9.29925723809">
		<tag k="fixme" v="consider place=hamlet" />
		<tag k="name" v="Nordre Hæm" />
		<tag k="place" v="farm" />
		<tag k="ssr:stedsnr" v="983056" />
	</node>
	<node id="-236505" lat="59.4773735339" lon="9.3059981899">
		<tag k="alt_name" v="Lille Hem" />
		<tag k="fixme" v="consider place=hamlet" />
		<tag k="name" v="Lille Hæm" />
		<tag k="place" v="farm" />
		<tag k="ssr:stedsnr" v="983055" />
	</node>
	<node id="-236504" lat="59.437102486" lon="9.31689734534">
		<tag k="name" v="Sunde" />
		<tag k="place" v="hamlet" />
		<tag k="ssr:stedsnr" v="983049" />
	</node>
	<node id="-236503" lat="59.4333411422" lon="9.32152341409">
		<tag k="fixme" v="consider place=hamlet" />
		<tag k="name" v="Lille Sunde" />
		<tag k="place" v="farm" />
		<tag k="ssr:stedsnr" v="983047" />
	</node>
	<node id="-236502" lat="59.4079976669" lon="9.32121646652">
		<tag k="fixme" v="consider place=hamlet" />
		<tag k="name" v="Vestre Løvoll" />
		<tag k="place" v="farm" />
		<tag k="ssr:stedsnr" v="983042" />
	</node>
	<node id="-236500" lat="59.3850166647" lon="9.20186944098">
		<tag k="alt_name" v="Nordre Lindem" />
		<tag k="fixme" v="consider place=hamlet" />
		<tag k="name" v="Lindheim" />
		<tag k="place" v="farm" />
		<tag k="ssr:stedsnr" v="894676" />
	</node>
	<node id="-236491" lat="59.3658777813" lon="9.26136111382">
		<tag k="name" v="Lia" />
		<tag k="place" v="farm" />
		<tag k="ssr:stedsnr" v="893807" />
	</node>
	<node id="-236480" lat="59.4043277787" lon="9.17504167058">
		<tag k="name" v="Solstad" />
		<tag k="place" v="farm" />
		<tag k="ssr:stedsnr" v="893612" />
	</node>
	<node id="-236475" lat="59.3957305525" lon="9.28212778126">
		<tag k="fixme" v="consider place=hamlet" />
		<tag k="name" v="Ånås" />
		<tag k="place" v="farm" />
		<tag k="ssr:stedsnr" v="893572" />
	</node>
	<node id="-236474" lat="59.3889194433" lon="9.27374721486">
		<tag k="name" v="Ryntveit nedre" />
		<tag k="place" v="farm" />
		<tag k="ssr:stedsnr" v="893573" />
	</node>
	<node id="-236472" lat="59.4739750023" lon="9.32447499153">
		<tag k="name" v="Ut-hagen" />
		<tag k="place" v="farm" />
		<tag k="ssr:stedsnr" v="893535" />
	</node>
	<node id="-236460" lat="59.4184861134" lon="9.13975276914">
		<tag k="name" v="Helgetveit" />
		<tag k="place" v="farm" />
		<tag k="ssr:stedsnr" v="893288" />
	</node>
	<node id="-236459" lat="59.4196333378" lon="9.12732500852">
		<tag k="name" v="Sverdmyr" />
		<tag k="place" v="farm" />
		<tag k="ssr:stedsnr" v="893286" />
	</node>
	<node id="-236456" lat="59.4109722219" lon="9.1583611091">
		<tag k="name" v="Sætre" />
		<tag k="place" v="farm" />
		<tag k="ssr:stedsnr" v="893273" />
	</node>
	<node id="-236455" lat="59.3848944412" lon="9.15366943983">
		<tag k="name" v="Juve" />
		<tag k="place" v="farm" />
		<tag k="ssr:stedsnr" v="893270" />
	</node>
	<node id="-236451" lat="59.4754499958" lon="9.21729166002">
		<tag k="historic" v="shieling" />
		<tag k="name" v="Vidsjå-stul" />
		<tag k="place" v="locality" />
		<tag k="ssr:stedsnr" v="893246" />
	</node>
	<node id="-236449" lat="59.4681361153" lon="9.26680555043">
		<tag k="name" v="Åskota" />
		<tag k="place" v="locality" />
		<tag k="ssr:stedsnr" v="893222" />
	</node>
	<node id="-236447" lat="59.4723250041" lon="9.2605611135">
		<tag k="name" v="Igletjønn-stulen" />
		<tag k="place" v="locality" />
		<tag k="ssr:stedsnr" v="893212" />
	</node>
	<node id="-236436" lat="59.3330916643" lon="9.22186666073">
		<tag k="fixme" v="consider place=hamlet" />
		<tag k="name" v="Gurstad" />
		<tag k="place" v="farm" />
		<tag k="ssr:stedsnr" v="893125" />
	</node>
	<node id="-236435" lat="59.4045583321" lon="9.33745277963">
		<tag k="name" v="Bekkedalen" />
		<tag k="place" v="isolated_dwelling" />
		<tag k="ssr:stedsnr" v="893124" />
	</node>
	<node id="-236433" lat="59.487827778" lon="9.29109166323">
		<tag k="name" v="Dalen" />
		<tag k="place" v="farm" />
		<tag k="ssr:stedsnr" v="893099" />
	</node>
	<node id="-236431" lat="59.3516916643" lon="9.19328333801">
		<tag k="name" v="Solli" />
		<tag k="place" v="farm" />
		<tag k="ssr:stedsnr" v="893093" />
	</node>
	<node id="-236425" lat="59.4131138923" lon="9.29958055264">
		<tag k="name" v="Kåsa" />
		<tag k="place" v="farm" />
		<tag k="ssr:stedsnr" v="893025" />
	</node>
	<node id="-236416" lat="59.3997388891" lon="9.13884722269">
		<tag k="name" v="Haugerud" />
		<tag k="place" v="farm" />
		<tag k="ssr:stedsnr" v="408291" />
	</node>
	<node id="-236410" lat="59.4594055574" lon="9.30661388475">
		<tag k="name" v="Solvang" />
		<tag k="place" v="isolated_dwelling" />
		<tag k="ssr:stedsnr" v="408176" />
	</node>
	<node id="-236409" lat="59.4564555529" lon="9.3023888829">
		<tag k="name" v="Klevar nedre" />
		<tag k="place" v="farm" />
		<tag k="ssr:stedsnr" v="408172" />
	</node>
	<node id="-236403" lat="59.4628027768" lon="9.29460555124">
		<tag k="name" v="Gvannes" />
		<tag k="place" v="farm" />
		<tag k="ssr:stedsnr" v="408026" />
	</node>
	<node id="-236402" lat="59.4529916634" lon="9.29800555017">
		<tag k="name" v="Masterkåsa" />
		<tag k="place" v="locality" />
		<tag k="ssr:stedsnr" v="408004" />
	</node>
	<node id="-236395" lat="59.4846361148" lon="9.32860000327">
		<tag k="name" v="Kåsin" />
		<tag k="place" v="farm" />
		<tag k="ssr:stedsnr" v="407860" />
	</node>
	<node id="-236394" lat="59.3738861156" lon="9.26538611203">
		<tag k="name" v="Dragkåsa" />
		<tag k="place" v="locality" />
		<tag k="ssr:stedsnr" v="407855" />
	</node>
	<node id="-236393" lat="59.4878194451" lon="9.33908333291">
		<tag k="name" v="Vøllen" />
		<tag k="place" v="locality" />
		<tag k="ssr:stedsnr" v="407848" />
	</node>
	<node id="-236389" lat="59.5021472236" lon="9.32779723102">
		<tag k="name" v="Gåthaug vestre" />
		<tag k="place" v="farm" />
		<tag k="ssr:stedsnr" v="407815" />
	</node>
	<node id="-236388" lat="59.3702361088" lon="9.2262972304">
		<tag k="alt_name" v="Søndre Nes" />
		<tag k="fixme" v="consider place=hamlet" />
		<tag k="name" v="Nes" />
		<tag k="place" v="farm" />
		<tag k="ssr:stedsnr" v="407800" />
	</node>
	<node id="-236374" lat="59.3775361068" lon="9.20225278315">
		<tag k="name" v="Nyhus" />
		<tag k="place" v="farm" />
		<tag k="ssr:stedsnr" v="407701" />
	</node>
	<node id="-236370" lat="59.377341671" lon="9.22000000069">
		<tag k="name" v="Prestegården" />
		<tag k="place" v="farm" />
		<tag k="ssr:stedsnr" v="407692" />
	</node>
	<node id="-236366" lat="59.5131944485" lon="9.34933611919">
		<tag k="name" v="Øvre Moen" />
		<tag k="place" v="locality" />
		<tag k="ssr:stedsnr" v="407607" />
	</node>
	<node id="-236362" lat="59.4026611115" lon="9.24994722302">
		<tag k="name" v="Vegheim" />
		<tag k="place" v="farm" />
		<tag k="ssr:stedsnr" v="407536" />
	</node>
	<node id="-236361" lat="59.4012138845" lon="9.27575555468">
		<tag k="name" v="Tangen" />
		<tag k="place" v="farm" />
		<tag k="ssr:stedsnr" v="407527" />
	</node>
	<node id="-236356" lat="59.4177833358" lon="9.2864777831">
		<tag k="name" v="Flathus" />
		<tag k="place" v="farm" />
		<tag k="ssr:stedsnr" v="407521" />
	</node>
	<node id="-236341" lat="59.4169722249" lon="9.16060833656">
		<tag k="fixme" v="consider place=hamlet" />
		<tag k="name" v="Kise" />
		<tag k="place" v="farm" />
		<tag k="ssr:stedsnr" v="407290" />
	</node>
	<node id="-236339" lat="59.4442833337" lon="9.34242500069">
		<tag k="name" v="Bergsland" />
		<tag k="place" v="farm" />
		<tag k="ssr:stedsnr" v="407276" />
	</node>
	<node id="-236338" lat="59.447108329" lon="9.32275832838">
		<tag k="name" v="Øya" />
		<tag k="place" v="farm" />
		<tag k="ssr:stedsnr" v="407264" />
	</node>
	<node id="-236337" lat="59.4604500014" lon="9.33140277592">
		<tag k="name" v="Klippen" />
		<tag k="place" v="locality" />
		<tag k="ssr:stedsnr" v="407251" />
	</node>
	<node id="-236336" lat="59.4140182932" lon="9.38263613841">
		<tag k="name" v="Nareheimen" />
		<tag k="place" v="isolated_dwelling" />
		<tag k="ssr:stedsnr" v="407228" />
	</node>
	<node id="-236331" lat="59.5156444443" lon="9.33845277898">
		<tag k="name" v="Snippen" />
		<tag k="place" v="isolated_dwelling" />
		<tag k="ssr:stedsnr" v="407145" />
	</node>
	<node id="-236328" lat="59.4072305577" lon="9.31678332896">
		<tag k="name" v="Fossli" />
		<tag k="place" v="farm" />
		<tag k="ssr:stedsnr" v="407100" />
	</node>
	<node id="-236325" lat="59.4485583308" lon="9.33835000229">
		<tag k="name" v="Kåsin" />
		<tag k="place" v="locality" />
		<tag k="ssr:stedsnr" v="407025" />
	</node>
	<node id="-236323" lat="59.3908861123" lon="9.16449999227">
		<tag k="alt_name" v="Sagavoll folkehøyskole" />
		<tag k="amenity" v="university" />
		<tag k="name" v="Sagavoll" />
		<tag k="ssr:stedsnr" v="389795" />
	</node>
	<node id="-236320" lat="59.5000999972" lon="9.33067499627">
		<tag k="fixme" v="consider place=hamlet" />
		<tag k="name" v="Gåthaug" />
		<tag k="place" v="farm" />
		<tag k="ssr:stedsnr" v="367707" />
	</node>
	<node id="-236318" lat="59.4180888918" lon="9.26682778425">
		<tag k="name" v="Høgstad" />
		<tag k="place" v="farm" />
		<tag k="ssr:stedsnr" v="367000" />
	</node>
	<node id="-236316" lat="59.4111916639" lon="9.33258888074">
		<tag k="name" v="Kleiv" />
		<tag k="place" v="farm" />
		<tag k="ssr:stedsnr" v="366983" />
	</node>
	<node id="-236315" lat="59.410613885" lon="9.29682499653">
		<tag k="fixme" v="consider place=hamlet" />
		<tag k="name" v="Haug" />
		<tag k="place" v="farm" />
		<tag k="ssr:stedsnr" v="366980" />
	</node>
	<node id="-236314" lat="59.4235083341" lon="9.31625000728">
		<tag k="name" v="Sveva" />
		<tag k="place" v="farm" />
		<tag k="ssr:stedsnr" v="366956" />
	</node>
	<node id="-236313" lat="59.4354527774" lon="9.30492222168">
		<tag k="name" v="Sanden" />
		<tag k="place" v="farm" />
		<tag k="ssr:stedsnr" v="366946" />
	</node>
	<node id="-236312" lat="59.4447555519" lon="9.3378027801">
		<tag k="name" v="Haugedal" />
		<tag k="place" v="farm" />
		<tag k="ssr:stedsnr" v="366933" />
	</node>
	<node id="-236311" lat="59.3794888882" lon="9.33375555859">
		<tag k="name" v="Dalekåsa" />
		<tag k="place" v="farm" />
		<tag k="ssr:stedsnr" v="366920" />
	</node>
	<node id="-236309" lat="59.3789805565" lon="9.35673611379">
		<tag k="name" v="Vihus" />
		<tag k="place" v="isolated_dwelling" />
		<tag k="ssr:stedsnr" v="366911" />
	</node>
	<node id="-236308" lat="59.3836500036" lon="9.27384999659">
		<tag k="alt_name" v="Haukevik" />
		<tag k="fixme" v="consider place=hamlet" />
		<tag k="name" v="Haukvik" />
		<tag k="place" v="farm" />
		<tag k="ssr:stedsnr" v="366899" />
	</node>
	<node id="-236307" lat="59.3935749978" lon="9.22449999413">
		<tag k="fixme" v="consider place=hamlet" />
		<tag k="name" v="Holtan" />
		<tag k="place" v="farm" />
		<tag k="ssr:stedsnr" v="366881" />
	</node>
	<node id="-236306" lat="59.4012499974" lon="9.24862777711">
		<tag k="name" v="Deilrind" />
		<tag k="place" v="farm" />
		<tag k="ssr:stedsnr" v="366860" />
	</node>
	<node id="-236300" lat="59.4111583315" lon="9.15866666835">
		<tag k="name" v="Sætre" />
		<tag k="place" v="farm" />
		<tag k="ssr:stedsnr" v="366416" />
	</node>
	<node id="-236299" lat="59.400308335" lon="9.20408888668">
		<tag k="name" v="Flåta" />
		<tag k="place" v="farm" />
		<tag k="ssr:stedsnr" v="366383" />
	</node>
	<node id="-236298" lat="59.4032666634" lon="9.18318333563">
		<tag k="name" v="Lønheim" />
		<tag k="place" v="farm" />
		<tag k="ssr:stedsnr" v="366371" />
	</node>
	<node id="-236297" lat="59.4017694419" lon="9.12933611197">
		<tag k="name" v="Skogen" />
		<tag k="place" v="farm" />
		<tag k="ssr:stedsnr" v="366349" />
	</node>
	<node id="-236294" lat="59.355891663" lon="9.1930916749">
		<tag k="fixme" v="consider place=hamlet" />
		<tag k="name" v="Gjernes" />
		<tag k="place" v="farm" />
		<tag k="ssr:stedsnr" v="366264" />
	</node>
	<node id="-236292" lat="59.4964499972" lon="9.24634166494">
		<tag k="alt_name" v="Slåtteseter" />
		<tag k="name" v="Slåttesætra" />
		<tag k="place" v="isolated_dwelling" />
		<tag k="ssr:stedsnr" v="366062" />
	</node>
	<node id="-236291" lat="59.4976083292" lon="9.3258083377">
		<tag k="fixme" v="consider place=hamlet" />
		<tag k="name" v="Jønsi" />
		<tag k="place" v="farm" />
		<tag k="ssr:stedsnr" v="366060" />
	</node>
	<node id="-236290" lat="59.495766669" lon="9.3221000085">
		<tag k="alt_name" v="Sørgården" />
		<tag k="fixme" v="consider place=hamlet" />
		<tag k="name" v="Sørgarden" />
		<tag k="place" v="farm" />
		<tag k="ssr:stedsnr" v="366057" />
	</node>
	<node id="-236289" lat="59.4849249965" lon="9.33055833813">
		<tag k="name" v="Kittilsrud" />
		<tag k="place" v="farm" />
		<tag k="ssr:stedsnr" v="366049" />
	</node>
	<node id="-236287" lat="59.4731416624" lon="9.4457416706">
		<tag k="historic" v="shieling" />
		<tag k="name" v="Eiang" />
		<tag k="place" v="locality" />
		<tag k="ssr:stedsnr" v="366019" />
	</node>
	<node id="-236283" lat="59.5009194471" lon="9.33134721501">
		<tag k="name" v="Gåthaug østre" />
		<tag k="place" v="farm" />
		<tag k="ssr:stedsnr" v="347803" />
	</node>
	<node id="-236282" lat="59.3872444482" lon="9.23933333184">
		<tag k="alt_name" v="Nedre Edingsås" />
		<tag k="fixme" v="consider place=hamlet" />
		<tag k="name" v="Idungsås, nigard" />
		<tag k="place" v="farm" />
		<tag k="ssr:stedsnr" v="347682" />
	</node>
	<node id="-236281" lat="59.3970722253" lon="9.25595000435">
		<tag k="name" v="Kåsa" />
		<tag k="place" v="farm" />
		<tag k="ssr:stedsnr" v="347676" />
	</node>
	<node id="-236279" lat="59.3824277782" lon="9.17715554926">
		<tag k="name" v="Laskemoen" />
		<tag k="place" v="farm" />
		<tag k="ssr:stedsnr" v="347622" />
	</node>
	<node id="-236274" lat="59.4010722179" lon="9.19094999943">
		<tag k="name" v="Steinsrud" />
		<tag k="place" v="farm" />
		<tag k="ssr:stedsnr" v="347444" />
	</node>
	<node id="-236267" lat="59.4138694469" lon="9.12885555992">
		<tag k="name" v="Hvitsand" />
		<tag k="place" v="locality" />
		<tag k="ssr:stedsnr" v="347283" />
	</node>
	<node id="-236263" lat="59.4630861142" lon="9.28583054682">
		<tag k="name" v="Lommerud" />
		<tag k="place" v="locality" />
		<tag k="ssr:stedsnr" v="347199" />
	</node>
	<node id="-236260" lat="59.3324361088" lon="9.1960611038">
		<tag k="name" v="Storli østre" />
		<tag k="place" v="farm" />
		<tag k="ssr:stedsnr" v="347126" />
	</node>
	<node id="-236259" lat="59.4018777811" lon="9.2941194412">
		<tag k="alt_name" v="Nedre Hvåla" />
		<tag k="name" v="Hvåla" />
		<tag k="place" v="farm" />
		<tag k="ssr:stedsnr" v="347122" />
	</node>
	<node id="-236255" lat="59.3483972206" lon="9.20646111493">
		<tag k="name" v="Årås nordjordet" />
		<tag k="place" v="farm" />
		<tag k="ssr:stedsnr" v="347101" />
	</node>
	<node id="-236254" lat="59.4992111099" lon="9.19617500171">
		<tag k="name" v="Murtebua" />
		<tag k="place" v="locality" />
		<tag k="ssr:stedsnr" v="347060" />
	</node>
	<node id="-236253" lat="59.4900500021" lon="9.2157250084">
		<tag k="historic" v="shieling" />
		<tag k="name" v="Breidstul" />
		<tag k="place" v="locality" />
		<tag k="ssr:stedsnr" v="347056" />
	</node>
	<node id="-236244" lat="59.4641444445" lon="9.30924443669">
		<tag k="name" v="Helen" />
		<tag k="place" v="locality" />
		<tag k="ssr:stedsnr" v="346996" />
	</node>
	<node id="-236243" lat="59.3669972219" lon="9.18021111403">
		<tag k="building" v="commercial" />
		<tag k="name" v="Årnes" />
		<tag k="ssr:stedsnr" v="346988" />
	</node>
	<node id="-236242" lat="59.4712555586" lon="9.32572221444">
		<tag k="name" v="Kåsa" />
		<tag k="place" v="farm" />
		<tag k="ssr:stedsnr" v="346984" />
	</node>
	<node id="-236241" lat="59.4737361143" lon="9.3175527758">
		<tag k="name" v="Lye" />
		<tag k="place" v="locality" />
		<tag k="ssr:stedsnr" v="346975" />
	</node>
	<node id="-236240" lat="59.3627194421" lon="9.18255555363">
		<tag k="name" v="Årnes" />
		<tag k="place" v="farm" />
		<tag k="ssr:stedsnr" v="346922" />
	</node>
	<node id="-236239" lat="59.3631944428" lon="9.17641110909">
		<tag k="name" v="Kveldro" />
		<tag k="place" v="isolated_dwelling" />
		<tag k="ssr:stedsnr" v="346915" />
	</node>
	<node id="-236238" lat="59.338730555" lon="9.21752777408">
		<tag k="name" v="Holte øvre" />
		<tag k="place" v="farm" />
		<tag k="ssr:stedsnr" v="346890" />
	</node>
	<node id="-236237" lat="59.485305552" lon="9.32048055161">
		<tag k="name" v="Lykkja" />
		<tag k="place" v="farm" />
		<tag k="ssr:stedsnr" v="346832" />
	</node>
	<node id="-236235" lat="59.3710638846" lon="9.26302499442">
		<tag k="name" v="Lia" />
		<tag k="place" v="farm" />
		<tag k="ssr:stedsnr" v="346792" />
	</node>
	<node id="-236234" lat="59.3642666712" lon="9.2592111054">
		<tag k="name" v="Lia" />
		<tag k="place" v="farm" />
		<tag k="ssr:stedsnr" v="346788" />
	</node>
	<node id="-236233" lat="59.453483333" lon="9.35950833462">
		<tag k="name" v="Holte" />
		<tag k="place" v="locality" />
		<tag k="ssr:stedsnr" v="346738" />
	</node>
	<node id="-236232" lat="59.4504916628" lon="9.35152221628">
		<tag k="name" v="Brenna" />
		<tag k="place" v="isolated_dwelling" />
		<tag k="ssr:stedsnr" v="346739" />
	</node>
	<node id="-236231" lat="59.4534472263" lon="9.36077500373">
		<tag k="historic" v="shieling" />
		<tag k="name" v="Vårstul" />
		<tag k="place" v="locality" />
		<tag k="ssr:stedsnr" v="346729" />
	</node>
	<node id="-236224" lat="59.4211916702" lon="9.15756944431">
		<tag k="name" v="Fossland" />
		<tag k="place" v="farm" />
		<tag k="ssr:stedsnr" v="346608" />
	</node>
	<node id="-236219" lat="59.39896389" lon="9.24555832778">
		<tag k="name" v="Meierud og Inleggen" />
		<tag k="place" v="locality" />
		<tag k="ssr:stedsnr" v="346535" />
	</node>
	<node id="-236215" lat="59.4000916696" lon="9.25974165979">
		<tag k="name" v="Elvestad" />
		<tag k="place" v="farm" />
		<tag k="ssr:stedsnr" v="346513" />
	</node>
	<node id="-236210" lat="59.4121138926" lon="9.25925832994">
		<tag k="name" v="Nordre Hegna" />
		<tag k="place" v="farm" />
		<tag k="ssr:stedsnr" v="346485" />
	</node>
	<node id="-236207" lat="59.4226166701" lon="9.22953055965">
		<tag k="name" v="Damtjønnbua" />
		<tag k="place" v="locality" />
		<tag k="ssr:stedsnr" v="346474" />
	</node>
	<node id="-236201" lat="59.4025388889" lon="9.17225277765">
		<tag k="name" v="Hallen" />
		<tag k="place" v="farm" />
		<tag k="ssr:stedsnr" v="346277" />
	</node>
	<node id="-236200" lat="59.4092222203" lon="9.17184443862">
		<tag k="fixme" v="consider place=hamlet" />
		<tag k="name" v="Berge" />
		<tag k="place" v="farm" />
		<tag k="ssr:stedsnr" v="346267" />
	</node>
	<node id="-236199" lat="59.4480250005" lon="9.32521666979">
		<tag k="name" v="Tveiten" />
		<tag k="place" v="farm" />
		<tag k="ssr:stedsnr" v="346234" />
	</node>
	<node id="-236197" lat="59.4606222255" lon="9.34345277219">
		<tag k="name" v="Siljås" />
		<tag k="place" v="farm" />
		<tag k="ssr:stedsnr" v="346226" />
	</node>
	<node id="-236193" lat="59.3675111154" lon="9.16921110279">
		<tag k="name" v="Huset" />
		<tag k="place" v="farm" />
		<tag k="ssr:stedsnr" v="346188" />
	</node>
	<node id="-236187" lat="59.4845333352" lon="9.32153610997">
		<tag k="name" v="s-Hagen" />
		<tag k="place" v="farm" />
		<tag k="ssr:stedsnr" v="346084" />
	</node>
	<node id="-236185" lat="59.4169194443" lon="9.32570833881">
		<tag k="fixme" v="consider place=suburb, village or hamlet" />
		<tag k="name" v="Vidsjå" />
		<tag k="place" v="quarter" />
		<tag k="ssr:stedsnr" v="346057" />
	</node>
	<node id="-236182" lat="59.549905554" lon="9.42555277551">
		<tag k="alt_name" v="Breidsetsætra" />
		<tag k="historic" v="shieling" />
		<tag k="name" v="Breiset" />
		<tag k="place" v="locality" />
		<tag k="ssr:stedsnr" v="306752" />
	</node>
	<node id="-236179" lat="59.3521944425" lon="9.20369443945">
		<tag k="name" v="Langkås" />
		<tag k="place" v="farm" />
		<tag k="ssr:stedsnr" v="306243" />
	</node>
	<node id="-236176" lat="59.4985111145" lon="9.32398055884">
		<tag k="alt_name" v="Røste" />
		<tag k="fixme" v="consider place=hamlet" />
		<tag k="name" v="Røstet" />
		<tag k="place" v="farm" />
		<tag k="ssr:stedsnr" v="306076" />
	</node>
	<node id="-236175" lat="59.4861027794" lon="9.32667223094">
		<tag k="name" v="Kåsa" />
		<tag k="place" v="farm" />
		<tag k="ssr:stedsnr" v="306063" />
	</node>
	<node id="-236173" lat="59.4759777779" lon="9.30110832676">
		<tag k="alt_name" v="Hem" />
		<tag k="name" v="Hæm" />
		<tag k="place" v="hamlet" />
		<tag k="ssr:stedsnr" v="306041" />
	</node>
	<node id="-236171" lat="59.4154638904" lon="9.28965555774">
		<tag k="alt_name" v="Lille Flathus" />
		<tag k="name" v="Flathus" />
		<tag k="place" v="farm" />
		<tag k="ssr:stedsnr" v="305981" />
	</node>
	<node id="-236169" lat="59.4332500002" lon="9.38581110593">
		<tag k="name" v="Høgli" />
		<tag k="place" v="isolated_dwelling" />
		<tag k="ssr:stedsnr" v="305961" />
	</node>
	<node id="-236168" lat="59.4408916676" lon="9.31743332751">
		<tag k="alt_name" v="Sunde mellom" />
		<tag k="name" v="Sunde" />
		<tag k="place" v="farm" />
		<tag k="ssr:stedsnr" v="305953" />
	</node>
	<node id="-236167" lat="59.385400002" lon="9.32732222506">
		<tag k="fixme" v="consider place=hamlet" />
		<tag k="name" v="Dale" />
		<tag k="place" v="farm" />
		<tag k="ssr:stedsnr" v="305906" />
	</node>
	<node id="-236163" lat="59.4302638917" lon="9.14608333456">
		<tag k="name" v="Plassen" />
		<tag k="place" v="farm" />
		<tag k="ssr:stedsnr" v="305430" />
	</node>
	<node id="-236162" lat="59.4057388902" lon="9.17555278148">
		<tag k="name" v="Solberg" />
		<tag k="place" v="farm" />
		<tag k="ssr:stedsnr" v="305372" />
	</node>
	<node id="-236161" lat="59.4065499984" lon="9.13646944376">
		<tag k="alt_name" v="Kåsine" />
		<tag k="name" v="Kåsin" />
		<tag k="place" v="farm" />
		<tag k="ssr:stedsnr" v="305360" />
	</node>
	<node id="-236160" lat="59.3663277803" lon="9.18099444741">
		<tag k="alt_name" v="Søndre Årnes" />
		<tag k="fixme" v="consider place=hamlet" />
		<tag k="name" v="Årnes" />
		<tag k="place" v="farm" />
		<tag k="ssr:stedsnr" v="305314" />
	</node>
	<node id="-236159" lat="59.3593638848" lon="9.17077500538">
		<tag k="name" v="Kåsa" />
		<tag k="place" v="farm" />
		<tag k="ssr:stedsnr" v="305254" />
	</node>
	<node id="-236158" lat="59.3607333327" lon="9.187138883">
		<tag k="name" v="Kåsajordet" />
		<tag k="place" v="farm" />
		<tag k="ssr:stedsnr" v="305253" />
	</node>
	<node id="-236157" lat="59.4695027804" lon="9.24222777778">
		<tag k="alt_name" v="Helgebua" />
		<tag k="name" v="Helgebu" />
		<tag k="place" v="isolated_dwelling" />
		<tag k="ssr:stedsnr" v="305039" />
	</node>
	<node id="-236156" lat="59.4564888864" lon="9.30269166962">
		<tag k="name" v="Klevar" />
		<tag k="place" v="farm" />
		<tag k="ssr:stedsnr" v="305027" />
	</node>
	<node id="-236154" lat="59.3904777768" lon="9.16506943642">
		<tag k="name" v="Sjøbuhaugen" />
		<tag k="place" v="quarter" />
		<tag k="ssr:stedsnr" v="300965" />
	</node>
	<node id="-236153" lat="59.3972555557" lon="9.20124722135">
		<tag k="name" v="Solheim" />
		<tag k="place" v="farm" />
		<tag k="ssr:stedsnr" v="44641" />
	</node>
	<node id="-236151" lat="59.3979083375" lon="9.2410250026">
		<tag k="name" v="Åsen" />
		<tag k="place" v="isolated_dwelling" />
		<tag k="ssr:stedsnr" v="287702" />
	</node>
	<node id="-236150" lat="59.3952666706" lon="9.18611389739">
		<tag k="name" v="Haugen" />
		<tag k="place" v="farm" />
		<tag k="ssr:stedsnr" v="287676" />
	</node>
	<node id="-236149" lat="59.3855333374" lon="9.27779443973">
		<tag k="historic" v="shieling" />
		<tag k="name" v="Moen" />
		<tag k="place" v="locality" />
		<tag k="ssr:stedsnr" v="287618" />
	</node>
	<node id="-236147" lat="59.5121361096" lon="9.31546388569">
		<tag k="name" v="Haslekåsa nedre" />
		<tag k="place" v="farm" />
		<tag k="ssr:stedsnr" v="287144" />
	</node>
	<node id="-236146" lat="59.3335666705" lon="9.19180000314">
		<tag k="name" v="Storli vestre" />
		<tag k="place" v="farm" />
		<tag k="ssr:stedsnr" v="287140" />
	</node>
	<node id="-236138" lat="59.4381472199" lon="9.31787777147">
		<tag k="fixme" v="consider place=hamlet" />
		<tag k="name" v="Sunde mellom" />
		<tag k="place" v="farm" />
		<tag k="ssr:stedsnr" v="286945" />
	</node>
	<node id="-236137" lat="59.3760861117" lon="9.20446944618">
		<tag k="name" v="Skrabekk" />
		<tag k="place" v="farm" />
		<tag k="ssr:stedsnr" v="286942" />
	</node>
	<node id="-236134" lat="59.345074996" lon="9.20509722694">
		<tag k="name" v="Årås øvre" />
		<tag k="place" v="farm" />
		<tag k="ssr:stedsnr" v="286911" />
	</node>
	<node id="-236115" lat="59.4064222215" lon="9.13164999411">
		<tag k="name" v="Torshøl" />
		<tag k="place" v="farm" />
		<tag k="ssr:stedsnr" v="286545" />
	</node>
	<node id="-236111" lat="59.4044194434" lon="9.25016944809">
		<tag k="name" v="Haugland" />
		<tag k="place" v="farm" />
		<tag k="ssr:stedsnr" v="286506" />
	</node>
	<node id="-236106" lat="59.4294777754" lon="9.21620278402">
		<tag k="historic" v="shieling" />
		<tag k="name" v="Ringstul" />
		<tag k="place" v="locality" />
		<tag k="ssr:stedsnr" v="286457" />
	</node>
	<node id="-236096" lat="59.4112666702" lon="9.14158332918">
		<tag k="name" v="Bøen" />
		<tag k="place" v="farm" />
		<tag k="ssr:stedsnr" v="286284" />
	</node>
	<node id="-236095" lat="59.4115277757" lon="9.13990000617">
		<tag k="name" v="Irgemo" />
		<tag k="place" v="farm" />
		<tag k="ssr:stedsnr" v="286281" />
	</node>
	<node id="-236085" lat="59.4581694467" lon="9.29859166155">
		<tag k="name" v="Klevar nordre" />
		<tag k="place" v="farm" />
		<tag k="ssr:stedsnr" v="286163" />
	</node>
	<node id="-236083" lat="59.4873472203" lon="9.3286555611">
		<tag k="name" v="Kåsin" />
		<tag k="place" v="isolated_dwelling" />
		<tag k="ssr:stedsnr" v="286103" />
	</node>
	<node id="-236080" lat="59.5067861104" lon="9.28861389008">
		<tag k="name" v="Høgsrud øvre" />
		<tag k="place" v="farm" />
		<tag k="ssr:stedsnr" v="286020" />
	</node>
	<node id="-236077" lat="59.4846111116" lon="9.32443333086">
		<tag k="name" v="Innleggen" />
		<tag k="place" v="farm" />
		<tag k="ssr:stedsnr" v="286863" />
	</node>
	<node id="-236076" lat="59.4983027781" lon="9.33558333142">
		<tag k="name" v="Høiset" />
		<tag k="place" v="farm" />
		<tag k="ssr:stedsnr" v="286804" />
	</node>
	<node id="-236075" lat="59.3857333368" lon="9.30996666761">
		<tag k="name" v="Igletjønnlia" />
		<tag k="place" v="locality" />
		<tag k="ssr:stedsnr" v="285242" />
	</node>
	<node id="-237885" lat="59.497699997" lon="9.33328888683">
		<tag k="name" v="Lidarende" />
		<tag k="place" v="isolated_dwelling" />
		<tag k="ssr:stedsnr" v="954797" />
	</node>
	<node id="-237884" lat="59.4987027774" lon="9.32602499919">
		<tag k="name" v="Røste" />
		<tag k="place" v="farm" />
		<tag k="ssr:stedsnr" v="954796" />
	</node>
	<node id="-237883" lat="59.3877277786" lon="9.23702499886">
		<tag k="name" v="Edingsås" />
		<tag k="place" v="farm" />
		<tag k="ssr:stedsnr" v="954678" />
	</node>
	<node id="-237882" lat="59.3829888884" lon="9.23419722367">
		<tag k="name" v="Maurmoen" />
		<tag k="place" v="farm" />
		<tag k="ssr:stedsnr" v="954674" />
	</node>
	<node id="-237880" lat="59.3920083306" lon="9.21743611333">
		<tag k="fixme" v="consider place=hamlet" />
		<tag k="name" v="Holtan" />
		<tag k="place" v="farm" />
		<tag k="ssr:stedsnr" v="954645" />
	</node>
	<node id="-237859" lat="59.4709166638" lon="9.32784721721">
		<tag k="name" v="Ut-Kåsin" />
		<tag k="place" v="locality" />
		<tag k="ssr:stedsnr" v="953994" />
	</node>
	<node id="-237857" lat="59.4748805538" lon="9.31700000113">
		<tag k="historic" v="shieling" />
		<tag k="name" v="Høre" />
		<tag k="place" v="locality" />
		<tag k="ssr:stedsnr" v="953973" />
	</node>
	<node id="-237856" lat="59.3616527783" lon="9.1807888839">
		<tag k="name" v="Haugtun" />
		<tag k="place" v="isolated_dwelling" />
		<tag k="ssr:stedsnr" v="953919" />
	</node>
	<node id="-237851" lat="59.4997277736" lon="9.29167499403">
		<tag k="name" v="Fiskodd-kåsa" />
		<tag k="place" v="locality" />
		<tag k="ssr:stedsnr" v="953828" />
	</node>
	<node id="-237847" lat="59.4247305591" lon="9.14508889384">
		<tag k="fixme" v="consider place=hamlet" />
		<tag k="name" v="Sølverud" />
		<tag k="place" v="farm" />
		<tag k="ssr:stedsnr" v="953650" />
	</node>
	<node id="-237845" lat="59.5137527805" lon="9.34657778244">
		<tag k="name" v="Nedre Moen" />
		<tag k="place" v="locality" />
		<tag k="ssr:stedsnr" v="953601" />
	</node>
	<node id="-237839" lat="59.4020166644" lon="9.27921110869">
		<tag k="name" v="Holta-tangen" />
		<tag k="place" v="isolated_dwelling" />
		<tag k="ssr:stedsnr" v="953535" />
	</node>
	<node id="-237836" lat="59.4127694422" lon="9.28437222848">
		<tag k="name" v="Sauar" />
		<tag k="place" v="farm" />
		<tag k="ssr:stedsnr" v="953530" />
	</node>
	<node id="-237829" lat="59.4185972202" lon="9.15279166344">
		<tag k="name" v="Kise" />
		<tag k="place" v="farm" />
		<tag k="ssr:stedsnr" v="953279" />
	</node>
	<node id="-237828" lat="59.413530557" lon="9.13960832763">
		<tag k="name" v="Innleggen" />
		<tag k="place" v="farm" />
		<tag k="ssr:stedsnr" v="953271" />
	</node>
	<node id="-237827" lat="59.4464194469" lon="9.32732500277">
		<tag k="fixme" v="consider place=hamlet" />
		<tag k="name" v="Tveiten" />
		<tag k="place" v="farm" />
		<tag k="ssr:stedsnr" v="953234" />
	</node>
	<node id="-237824" lat="59.3662611146" lon="9.17136388976">
		<tag k="name" v="Nordli" />
		<tag k="place" v="farm" />
		<tag k="ssr:stedsnr" v="953191" />
	</node>
	<node id="-237821" lat="59.5139555563" lon="9.29037500479">
		<tag k="name" v="Kolbu" />
		<tag k="place" v="farm" />
		<tag k="ssr:stedsnr" v="953134" />
	</node>
	<node id="-237819" lat="59.3993111108" lon="9.30678056435">
		<tag k="fixme" v="consider place=hamlet" />
		<tag k="name" v="Åse" />
		<tag k="place" v="farm" />
		<tag k="ssr:stedsnr" v="953090" />
	</node>
	<node id="-237816" lat="59.4167722248" lon="9.35972499843">
		<tag k="alt_name" v="Nordvårstul" />
		<tag k="name" v="Nordvollstulen" />
		<tag k="place" v="isolated_dwelling" />
		<tag k="ssr:stedsnr" v="913994" />
	</node>
	<node id="-237815" lat="59.4040305528" lon="9.33475556014">
		<tag k="name" v="Slåttekåsa" />
		<tag k="place" v="farm" />
		<tag k="ssr:stedsnr" v="913879" />
	</node>
	<node id="-237814" lat="59.4013111146" lon="9.30502221467">
		<tag k="name" v="Åse" />
		<tag k="place" v="farm" />
		<tag k="ssr:stedsnr" v="913878" />
	</node>
	<node id="-237810" lat="59.4654138912" lon="9.21448888659">
		<tag k="alt_name" v="Nybustul, s" />
		<tag k="name" v="Søndre Nybustul" />
		<tag k="place" v="isolated_dwelling" />
		<tag k="ssr:stedsnr" v="913443" />
	</node>
	<node id="-237809" lat="59.4245805567" lon="9.13622499298">
		<tag k="name" v="Sandland" />
		<tag k="place" v="farm" />
		<tag k="ssr:stedsnr" v="913410" />
	</node>
	<node id="-237808" lat="59.4161416689" lon="9.15183889405">
		<tag k="name" v="Solheim" />
		<tag k="place" v="farm" />
		<tag k="ssr:stedsnr" v="913393" />
	</node>
	<node id="-237807" lat="59.4283638871" lon="9.19738332814">
		<tag k="name" v="Liastulen" />
		<tag k="place" v="isolated_dwelling" />
		<tag k="ssr:stedsnr" v="913371" />
	</node>
	<node id="-237806" lat="59.3450611133" lon="9.20481111882">
		<tag k="fixme" v="consider place=hamlet" />
		<tag k="name" v="Årås" />
		<tag k="place" v="farm" />
		<tag k="ssr:stedsnr" v="913229" />
	</node>
	<node id="-237804" lat="59.4807388927" lon="9.32712777526">
		<tag k="name" v="Innleggen" />
		<tag k="place" v="farm" />
		<tag k="ssr:stedsnr" v="913034" />
	</node>
	<node id="-237803" lat="59.4497027808" lon="9.34840000434">
		<tag k="name" v="Lauvås" />
		<tag k="place" v="farm" />
		<tag k="ssr:stedsnr" v="913012" />
	</node>
	<node id="-237801" lat="59.4500416642" lon="9.24268888366">
		<tag k="alt_name" v="Gvanntjønn-stulen" />
		<tag k="historic" v="shieling" />
		<tag k="name" v="Gvanntjørnstulen" />
		<tag k="place" v="locality" />
		<tag k="ssr:stedsnr" v="913008" />
	</node>
	<node id="-237800" lat="59.4188305554" lon="9.23596389354">
		<tag k="historic" v="shieling" />
		<tag k="name" v="Hasleto" />
		<tag k="place" v="locality" />
		<tag k="ssr:stedsnr" v="912999" />
	</node>
	<node id="-237798" lat="59.4382833322" lon="9.32605000091">
		<tag k="name" v="Runningen" />
		<tag k="place" v="farm" />
		<tag k="ssr:stedsnr" v="912946" />
	</node>
	<node id="-237796" lat="59.3732888891" lon="9.22002778239">
		<tag k="fixme" v="consider place=hamlet" />
		<tag k="name" v="Nesodden" />
		<tag k="place" v="village" />
		<tag k="ssr:stedsnr" v="912825" />
	</node>
	<node id="-237794" lat="59.3625861067" lon="9.16348889202">
		<tag k="name" v="Innleggen" />
		<tag k="place" v="farm" />
		<tag k="ssr:stedsnr" v="912259" />
	</node>
	<node id="-237793" lat="59.4664055595" lon="9.29367500023">
		<tag k="name" v="Dale" />
		<tag k="place" v="farm" />
		<tag k="ssr:stedsnr" v="912021" />
	</node>
	<node id="-237789" lat="59.4120999966" lon="9.25873054808">
		<tag k="name" v="Hegna" />
		<tag k="place" v="farm" />
		<tag k="ssr:stedsnr" v="853000" />
	</node>
	<node id="-237788" lat="59.4108666641" lon="9.28424721861">
		<tag k="name" v="Rinde" />
		<tag k="place" v="farm" />
		<tag k="ssr:stedsnr" v="852998" />
	</node>
	<node id="-237786" lat="59.4142722244" lon="9.26794722773">
		<tag k="name" v="Åsheim" />
		<tag k="place" v="farm" />
		<tag k="ssr:stedsnr" v="852996" />
	</node>
	<node id="-237784" lat="59.4427749963" lon="9.36493611261">
		<tag k="alt_name" v="Øgnegravin" />
		<tag k="historic" v="shieling" />
		<tag k="name" v="Øgnegraven" />
		<tag k="place" v="locality" />
		<tag k="ssr:stedsnr" v="852959" />
	</node>
	<node id="-237783" lat="59.4303305576" lon="9.31440832928">
		<tag k="name" v="Rugås" />
		<tag k="place" v="farm" />
		<tag k="ssr:stedsnr" v="852955" />
	</node>
	<node id="-237782" lat="59.3824749999" lon="9.24701111507">
		<tag k="name" v="Dingnes" />
		<tag k="place" v="farm" />
		<tag k="ssr:stedsnr" v="852917" />
	</node>
	<node id="-237781" lat="59.3831166707" lon="9.32370556304">
		<tag k="alt_name" v="Søndre Dale;Dale, øvre" />
		<tag k="name" v="Øvre Dale" />
		<tag k="place" v="farm" />
		<tag k="ssr:stedsnr" v="852915" />
	</node>
	<node id="-237779" lat="59.4064138864" lon="9.31936667187">
		<tag k="fixme" v="consider place=hamlet" />
		<tag k="name" v="Smedsvålen" />
		<tag k="place" v="farm" />
		<tag k="ssr:stedsnr" v="852867" />
	</node>
	<node id="-237778" lat="59.3307722216" lon="9.22656388702">
		<tag k="name" v="Sudkåsa" />
		<tag k="place" v="farm" />
		<tag k="ssr:stedsnr" v="852846" />
	</node>
	<node id="-237774" lat="59.3642833323" lon="9.22107222292">
		<tag k="alt_name" v="Steinhaug" />
		<tag k="name" v="Steinhaugen" />
		<tag k="place" v="farm" />
		<tag k="ssr:stedsnr" v="852803" />
	</node>
	<node id="-237773" lat="59.4787999992" lon="9.20103055353">
		<tag k="name" v="Klybbestul" />
		<tag k="place" v="isolated_dwelling" />
		<tag k="ssr:stedsnr" v="852585" />
	</node>
	<node id="-237770" lat="59.4216527753" lon="9.13095833991">
		<tag k="name" v="Hørte" />
		<tag k="place" v="hamlet" />
		<tag k="ssr:stedsnr" v="852424" />
	</node>
	<node id="-237769" lat="59.4337194462" lon="9.13901388276">
		<tag k="name" v="Kåsa" />
		<tag k="place" v="farm" />
		<tag k="ssr:stedsnr" v="852404" />
	</node>
	<node id="-237768" lat="59.4212249989" lon="9.15702222332">
		<tag k="name" v="Fossland" />
		<tag k="place" v="farm" />
		<tag k="ssr:stedsnr" v="852382" />
	</node>
	<node id="-237767" lat="59.4066833348" lon="9.15234166911">
		<tag k="alt_name" v="Leikvang" />
		<tag k="fixme" v="consider place=hamlet" />
		<tag k="name" v="Leikvam" />
		<tag k="place" v="farm" />
		<tag k="ssr:stedsnr" v="852360" />
	</node>
	<node id="-237766" lat="59.4091166667" lon="9.16093055473">
		<tag k="fixme" v="consider place=hamlet" />
		<tag k="name" v="Evju" />
		<tag k="place" v="farm" />
		<tag k="ssr:stedsnr" v="852361" />
	</node>
	<node id="-237765" lat="59.3887000039" lon="9.16264165929">
		<tag k="amenity" v="university" />
		<tag k="name" v="Sagavoll skole" />
		<tag k="ssr:stedsnr" v="852330" />
	</node>
	<node id="-237763" lat="59.4865888928" lon="9.31802223103">
		<tag k="name" v="Teigen" />
		<tag k="place" v="farm" />
		<tag k="ssr:stedsnr" v="852064" />
	</node>
	<node id="-237761" lat="59.464200004" lon="9.33729166225">
		<tag k="name" v="Lykkja" />
		<tag k="place" v="farm" />
		<tag k="ssr:stedsnr" v="852022" />
	</node>
	<node id="-237760" lat="59.4491083306" lon="9.32321944891">
		<tag k="name" v="Tveiten" />
		<tag k="place" v="farm" />
		<tag k="ssr:stedsnr" v="852018" />
	</node>
	<node id="-237755" lat="59.4182861131" lon="9.31460277195">
		<tag k="name" v="Plassen" />
		<tag k="place" v="locality" />
		<tag k="ssr:stedsnr" v="833898" />
	</node>
	<node id="-237754" lat="59.3925138859" lon="9.24075000501">
		<tag k="name" v="Idungsås nedre" />
		<tag k="place" v="farm" />
		<tag k="ssr:stedsnr" v="833701" />
	</node>
	<node id="-237753" lat="59.3865694431" lon="9.19948332595">
		<tag k="name" v="Lindheim" />
		<tag k="place" v="hamlet" />
		<tag k="ssr:stedsnr" v="833644" />
	</node>
	<node id="-237751" lat="59.3965500024" lon="9.27898055015">
		<tag k="name" v="Plassen" />
		<tag k="place" v="isolated_dwelling" />
		<tag k="ssr:stedsnr" v="833613" />
	</node>
	<node id="-237749" lat="59.386094445" lon="9.27177221986">
		<tag k="name" v="Haukvik" />
		<tag k="place" v="farm" />
		<tag k="ssr:stedsnr" v="833596" />
	</node>
	<node id="-237748" lat="59.4212166647" lon="9.28720278199">
		<tag k="name" v="Sauar nordre" />
		<tag k="place" v="farm" />
		<tag k="ssr:stedsnr" v="833527" />
	</node>
	<node id="-237747" lat="59.4347055544" lon="9.33123056289">
		<tag k="name" v="Åsen" />
		<tag k="place" v="locality" />
		<tag k="ssr:stedsnr" v="833523" />
	</node>
	<node id="-237740" lat="59.3529250005" lon="9.19563334207">
		<tag k="name" v="Glenna kiosk" />
		<tag k="place" v="isolated_dwelling" />
		<tag k="ssr:stedsnr" v="833094" />
	</node>
	<node id="-237737" lat="59.4966444481" lon="9.28551944922">
		<tag k="name" v="Haukedalen øvre" />
		<tag k="place" v="farm" />
		<tag k="ssr:stedsnr" v="833037" />
	</node>
	<node id="-237731" lat="59.3663083373" lon="9.17993054767">
		<tag k="name" v="Årnes" />
		<tag k="place" v="farm" />
		<tag k="ssr:stedsnr" v="832990" />
	</node>
	<node id="-237730" lat="59.4719249988" lon="9.33122778222">
		<tag k="name" v="Havrås" />
		<tag k="place" v="locality" />
		<tag k="ssr:stedsnr" v="832989" />
	</node>
	<node id="-237727" lat="59.3670916667" lon="9.17491944712">
		<tag k="name" v="Nordlund" />
		<tag k="place" v="isolated_dwelling" />
		<tag k="ssr:stedsnr" v="832920" />
	</node>
	<node id="-237725" lat="59.4875194428" lon="9.29394443887">
		<tag k="name" v="Flåta" />
		<tag k="place" v="farm" />
		<tag k="ssr:stedsnr" v="832831" />
	</node>
	<node id="-237723" lat="59.455438891" lon="9.33660278049">
		<tag k="name" v="Holte midtre" />
		<tag k="place" v="farm" />
		<tag k="ssr:stedsnr" v="832737" />
	</node>
	<node id="-237722" lat="59.5220305515" lon="9.48698055017">
		<tag k="name" v="Listul" />
		<tag k="place" v="locality" />
		<tag k="ssr:stedsnr" v="832722" />
	</node>
	<node id="-237715" lat="59.4380083341" lon="9.17238611679">
		<tag k="fixme" v="consider tourism=alpine_hut or tourism=chalet" />
		<tag k="name" v="Årneshytta" />
		<tag k="ssr:stedsnr" v="832632" />
		<tag k="tourism" v="wilderness_hut" />
	</node>
	<node id="-237714" lat="59.4248611074" lon="9.13289999383">
		<tag k="name" v="Skogheim" />
		<tag k="place" v="isolated_dwelling" />
		<tag k="ssr:stedsnr" v="832627" />
	</node>
	<node id="-237713" lat="59.4227888864" lon="9.12788889114">
		<tag k="name" v="Hørte" />
		<tag k="place" v="farm" />
		<tag k="ssr:stedsnr" v="832621" />
	</node>
	<node id="-237712" lat="59.4746861139" lon="9.30367500408">
		<tag k="fixme" v="multiple name tags, choose one and add the other to alt_name" />
		<tag k="name" v="Hæm søndre;Suigard" />
		<tag k="place" v="farm" />
		<tag k="ssr:stedsnr" v="832599" />
	</node>
	<node id="-237708" lat="59.4116000041" lon="9.28351389036">
		<tag k="name" v="Rinde" />
		<tag k="place" v="farm" />
		<tag k="ssr:stedsnr" v="832510" />
	</node>
	<node id="-237701" lat="59.4106027738" lon="9.15863333049">
		<tag k="name" v="Evju" />
		<tag k="place" v="farm" />
		<tag k="ssr:stedsnr" v="832284" />
	</node>
	<node id="-237696" lat="59.4618000015" lon="9.28630555111">
		<tag k="historic" v="shieling" />
		<tag k="name" v="Kåsa" />
		<tag k="place" v="locality" />
		<tag k="ssr:stedsnr" v="832210" />
	</node>
	<node id="-237695" lat="59.4103000042" lon="9.3838249965">
		<tag k="name" v="Gullbustul" />
		<tag k="place" v="locality" />
		<tag k="ssr:stedsnr" v="832211" />
	</node>
	<node id="-237694" lat="59.3718722254" lon="9.17265277119">
		<tag k="fixme" v="consider place=hamlet" />
		<tag k="name" v="Nordadal" />
		<tag k="place" v="farm" />
		<tag k="ssr:stedsnr" v="832208" />
	</node>
	<node id="-237691" lat="59.3542916643" lon="9.1550194419">
		<tag k="name" v="Løkjedalen" />
		<tag k="place" v="locality" />
		<tag k="ssr:stedsnr" v="832132" />
	</node>
	<node id="-237689" lat="59.4190527805" lon="9.32938610821">
		<tag k="name" v="Bjørnskås" />
		<tag k="place" v="locality" />
		<tag k="ssr:stedsnr" v="832068" />
	</node>
	<node id="-237686" lat="59.3964638868" lon="9.14942222219">
		<tag k="name" v="Tveit" />
		<tag k="place" v="farm" />
		<tag k="ssr:stedsnr" v="833233" />
	</node>
	<node id="-237685" lat="59.3816472247" lon="9.17148888471">
		<tag k="name" v="Kåsamoen" />
		<tag k="place" v="farm" />
		<tag k="ssr:stedsnr" v="833230" />
	</node>
	<node id="-237680" lat="59.4206333317" lon="9.28382778014">
		<tag k="name" v="Sauar" />
		<tag k="place" v="hamlet" />
		<tag k="ssr:stedsnr" v="798652" />
	</node>
	<node id="-237678" lat="59.5088999964" lon="9.33670000456">
		<tag k="alt_name" v="Ingolfsrud" />
		<tag k="name" v="Ingulsrud" />
		<tag k="place" v="farm" />
		<tag k="ssr:stedsnr" v="792697" />
	</node>
	<node id="-237677" lat="59.4158833328" lon="9.32579166426">
		<tag k="name" v="Nordagutu" />
		<tag k="place" v="village" />
		<tag k="ssr:stedsnr" v="791990" />
	</node>
	<node id="-237676" lat="59.4368416698" lon="9.30957500777">
		<tag k="name" v="Farvollen" />
		<tag k="place" v="farm" />
		<tag k="ssr:stedsnr" v="791955" />
	</node>
	<node id="-237675" lat="59.4269583378" lon="9.29661388263">
		<tag k="fixme" v="consider place=hamlet" />
		<tag k="name" v="Brårud" />
		<tag k="place" v="farm" />
		<tag k="ssr:stedsnr" v="791951" />
	</node>
	<node id="-237673" lat="59.4448249984" lon="9.3292000014">
		<tag k="alt_name" v="Listveiten;Lille Tveiten" />
		<tag k="fixme" v="consider place=hamlet" />
		<tag k="name" v="Lisletveiten" />
		<tag k="place" v="farm" />
		<tag k="ssr:stedsnr" v="791936" />
	</node>
	<node id="-237672" lat="59.3820888901" lon="9.22704721797">
		<tag k="name" v="Hegna" />
		<tag k="place" v="farm" />
		<tag k="ssr:stedsnr" v="791922" />
	</node>
	<node id="-237670" lat="59.3997055528" lon="9.25828333258">
		<tag k="name" v="Flatland" />
		<tag k="place" v="farm" />
		<tag k="ssr:stedsnr" v="791896" />
	</node>
	<node id="-237669" lat="59.3966416701" lon="9.2843250053">
		<tag k="name" v="Ånås" />
		<tag k="place" v="farm" />
		<tag k="ssr:stedsnr" v="791895" />
	</node>
	<node id="-237668" lat="59.3977527787" lon="9.33987222439">
		<tag k="fixme" v="consider place=hamlet" />
		<tag k="name" v="Rogholt" />
		<tag k="place" v="farm" />
		<tag k="ssr:stedsnr" v="791892" />
	</node>
	<node id="-237667" lat="59.4052138907" lon="9.27838611318">
		<tag k="alt_name" v="Høyom" />
		<tag k="name" v="Høyum" />
		<tag k="place" v="farm" />
		<tag k="ssr:stedsnr" v="791886" />
	</node>
	<node id="-237666" lat="59.4080638908" lon="9.32653611138">
		<tag k="alt_name" v="Østre Løvoll" />
		<tag k="fixme" v="consider place=hamlet" />
		<tag k="name" v="Løvoll" />
		<tag k="place" v="farm" />
		<tag k="ssr:stedsnr" v="791882" />
	</node>
	<node id="-237664" lat="59.3606499998" lon="9.25965833955">
		<tag k="name" v="Lia" />
		<tag k="place" v="farm" />
		<tag k="ssr:stedsnr" v="791831" />
	</node>
	<node id="-237660" lat="59.3936833368" lon="9.1428638846">
		<tag k="fixme" v="consider place=hamlet" />
		<tag k="name" v="Håtveit" />
		<tag k="place" v="farm" />
		<tag k="ssr:stedsnr" v="791354" />
	</node>
	<node id="-237659" lat="59.4108638902" lon="9.14978889553">
		<tag k="name" v="Hustveit" />
		<tag k="place" v="farm" />
		<tag k="ssr:stedsnr" v="791338" />
	</node>
	<node id="-237658" lat="59.4011305536" lon="9.20758055684">
		<tag k="name" v="Flåthaugen" />
		<tag k="place" v="farm" />
		<tag k="ssr:stedsnr" v="791335" />
	</node>
	<node id="-237657" lat="59.4031972267" lon="9.20155278071">
		<tag k="name" v="Åsheim" />
		<tag k="place" v="farm" />
		<tag k="ssr:stedsnr" v="791336" />
	</node>
	<node id="-237655" lat="59.3508694403" lon="9.18267222461">
		<tag k="name" v="Høgås" />
		<tag k="place" v="farm" />
		<tag k="ssr:stedsnr" v="791266" />
	</node>
	<node id="-237654" lat="59.3441666671" lon="9.21414166908">
		<tag k="name" v="Haug" />
		<tag k="place" v="farm" />
		<tag k="ssr:stedsnr" v="791245" />
	</node>
	<node id="-237653" lat="59.3345499968" lon="9.20813889355">
		<tag k="name" v="Holtskog" />
		<tag k="place" v="isolated_dwelling" />
		<tag k="ssr:stedsnr" v="791227" />
	</node>
	<node id="-237649" lat="59.465525004" lon="9.38852499827">
		<tag k="name" v="Dyrås" />
		<tag k="place" v="isolated_dwelling" />
		<tag k="ssr:stedsnr" v="791018" />
	</node>
	<node id="-237648" lat="59.4515000011" lon="9.34719999547">
		<tag k="alt_name" v="Brekk-kåsa" />
		<tag k="name" v="Brekkås" />
		<tag k="place" v="farm" />
		<tag k="ssr:stedsnr" v="791009" />
	</node>
	<node id="-237646" lat="59.3899027782" lon="9.18363055803">
		<tag k="name" v="Lindheimsmoen" />
		<tag k="place" v="farm" />
		<tag k="ssr:stedsnr" v="772635" />
	</node>
	<node id="-237643" lat="59.3949138863" lon="9.27939444894">
		<tag k="name" v="Pinknap" />
		<tag k="place" v="isolated_dwelling" />
		<tag k="ssr:stedsnr" v="772592" />
	</node>
	<node id="-237640" lat="59.4703333293" lon="9.21446665907">
		<tag k="historic" v="shieling" />
		<tag k="name" v="N Nybustul" />
		<tag k="place" v="locality" />
		<tag k="ssr:stedsnr" v="772248" />
	</node>
	<node id="-237636" lat="59.4571833357" lon="9.29845833865">
		<tag k="name" v="Klevar øvre" />
		<tag k="place" v="farm" />
		<tag k="ssr:stedsnr" v="772172" />
	</node>
	<node id="-237635" lat="59.5151222205" lon="9.31845832768">
		<tag k="name" v="Skogen" />
		<tag k="place" v="farm" />
		<tag k="ssr:stedsnr" v="772144" />
	</node>
	<node id="-237631" lat="59.449102781" lon="9.3049361193">
		<tag k="name" v="Buberget" />
		<tag k="place" v="locality" />
		<tag k="ssr:stedsnr" v="772001" />
	</node>
	<node id="-237629" lat="59.4808472221" lon="9.32101111276">
		<tag k="name" v="Sjå" />
		<tag k="place" v="locality" />
		<tag k="ssr:stedsnr" v="771947" />
	</node>
	<node id="-237628" lat="59.3656638876" lon="9.18746666948">
		<tag k="name" v="Arines" />
		<tag k="place" v="quarter" />
		<tag k="ssr:stedsnr" v="771933" />
	</node>
	<node id="-237627" lat="59.3583611073" lon="9.187780555">
		<tag k="name" v="Lauvstad" />
		<tag k="place" v="farm" />
		<tag k="ssr:stedsnr" v="771923" />
	</node>
	<node id="-237626" lat="59.3612666672" lon="9.17479999273">
		<tag k="name" v="Haugen" />
		<tag k="place" v="isolated_dwelling" />
		<tag k="ssr:stedsnr" v="771921" />
	</node>
	<node id="-237621" lat="59.360058329" lon="9.26838610983">
		<tag k="name" v="Massebu" />
		<tag k="place" v="locality" />
		<tag k="ssr:stedsnr" v="771808" />
	</node>
	<node id="-237620" lat="59.4551583322" lon="9.33685833647">
		<tag k="alt_name" v="Holte" />
		<tag k="fixme" v="consider place=hamlet" />
		<tag k="name" v="Holte søndre" />
		<tag k="place" v="farm" />
		<tag k="ssr:stedsnr" v="771758" />
	</node>
	<node id="-237610" lat="59.5289027741" lon="9.36411666893">
		<tag k="name" v="Ådalsplassen" />
		<tag k="place" v="locality" />
		<tag k="ssr:stedsnr" v="771673" />
	</node>
	<node id="-237608" lat="59.3828527802" lon="9.2162277837">
		<tag k="name" v="Milekåsa" />
		<tag k="place" v="farm" />
		<tag k="ssr:stedsnr" v="771662" />
	</node>
	<node id="-237607" lat="59.3958000041" lon="9.22279166414">
		<tag k="name" v="Tofsrud" />
		<tag k="place" v="locality" />
		<tag k="ssr:stedsnr" v="771660" />
	</node>
	<node id="-237593" lat="59.4248055591" lon="9.20986945292">
		<tag k="historic" v="shieling" />
		<tag k="name" v="Bordstul" />
		<tag k="place" v="locality" />
		<tag k="ssr:stedsnr" v="771476" />
	</node>
	<node id="-237588" lat="59.3981361073" lon="9.16840278412">
		<tag k="name" v="Hallen" />
		<tag k="place" v="farm" />
		<tag k="ssr:stedsnr" v="771287" />
	</node>
	<node id="-237574" lat="59.4010611082" lon="9.30034721732">
		<tag k="name" v="Åse" />
		<tag k="place" v="isolated_dwelling" />
		<tag k="ssr:stedsnr" v="771015" />
	</node>
	<node id="-237572" lat="59.4648999965" lon="9.32098611922">
		<tag k="fixme" v="consider place=hamlet" />
		<tag k="name" v="Arud" />
		<tag k="place" v="farm" />
		<tag k="ssr:stedsnr" v="768009" />
	</node>
	<node id="-237570" lat="59.4465333349" lon="9.38086666236">
		<tag k="name" v="Trengen" />
		<tag k="place" v="isolated_dwelling" />
		<tag k="ssr:stedsnr" v="731939" />
	</node>
	<node id="-237569" lat="59.3882055525" lon="9.22117499723">
		<tag k="alt_name" v="Vestre Prestholt" />
		<tag k="fixme" v="consider place=hamlet" />
		<tag k="name" v="Prestholt" />
		<tag k="place" v="farm" />
		<tag k="ssr:stedsnr" v="731916" />
	</node>
</osm>
