<?xml version="1.0" encoding="UTF-8"?>
<osm generator="osmapis" version="0.6">
	<node id="-238078" lat="59.3410277771" lon="9.19318889572">
		<tag k="name" v="Åråsmyra" />
		<tag k="natural" v="wetland" />
		<tag k="ssr:stedsnr" v="833032" />
	</node>
	<node id="-236535" lat="59.4606888859" lon="9.27020833069">
		<tag k="name" v="Kleivene" />
		<tag k="natural" v="wetland" />
		<tag k="ssr:stedsnr" v="346190" />
	</node>
	<node id="-237046" lat="59.454444444" lon="9.32243333588">
		<tag k="name" v="Volltveitøyren" />
		<tag k="place" v="locality" />
		<tag k="ssr:stedsnr" v="104240" />
	</node>
	<node id="-237043" lat="59.4670472223" lon="9.2562999986">
		<tag k="name" v="Hestemyrene" />
		<tag k="natural" v="wetland" />
		<tag k="ssr:stedsnr" v="104219" />
	</node>
	<node id="-236530" lat="59.3513944471" lon="9.16996666754">
		<tag k="name" v="Kringlemyr" />
		<tag k="natural" v="wetland" />
		<tag k="ssr:stedsnr" v="346130" />
	</node>
	<node id="-237040" lat="59.4825166679" lon="9.20867778091">
		<tag k="name" v="Reiphøl" />
		<tag k="natural" v="wetland" />
		<tag k="ssr:stedsnr" v="104167" />
	</node>
	<node id="-237550" lat="59.3521527803" lon="9.26668889631">
		<tag k="name" v="Ottersnes-sveune" />
		<tag k="place" v="locality" />
		<tag k="ssr:stedsnr" v="529914" />
	</node>
	<node id="-238061" lat="59.4252361111" lon="9.38991944275">
		<tag k="name" v="Tjona" />
		<tag k="natural" v="wetland" />
		<tag k="ssr:stedsnr" v="832699" />
	</node>
	<node id="-237547" lat="59.4718555516" lon="9.35264443849">
		<tag k="name" v="Kjerremyr" />
		<tag k="natural" v="wetland" />
		<tag k="ssr:stedsnr" v="529608" />
	</node>
	<node id="-237543" lat="59.5029388863" lon="9.38333889443">
		<tag k="name" v="Åsmundsteinen" />
		<tag k="natural" v="stone" />
		<tag k="ssr:stedsnr" v="529573" />
	</node>
	<node id="-238047" lat="59.3957111086" lon="9.37695556332">
		<tag k="name" v="Lauvrosmyrene" />
		<tag k="natural" v="wetland" />
		<tag k="ssr:stedsnr" v="832408" />
	</node>
	<node id="-238045" lat="59.4291916634" lon="9.23587777491">
		<tag k="name" v="Svarttjønn-myra" />
		<tag k="natural" v="wetland" />
		<tag k="ssr:stedsnr" v="832336" />
	</node>
	<node id="-236708" lat="59.4782222267" lon="9.30265832563">
		<tag k="historic" v="shieling" />
		<tag k="name" v="Kråkevollen" />
		<tag k="place" v="locality" />
		<tag k="ssr:stedsnr" v="407622" />
	</node>
	<node id="-237522" lat="59.4744194481" lon="9.27349722969">
		<tag k="name" v="Langemyr" />
		<tag k="natural" v="wetland" />
		<tag k="ssr:stedsnr" v="529198" />
	</node>
	<node id="-237521" lat="59.328566667" lon="9.19639167515">
		<tag k="name" v="Versmyra" />
		<tag k="natural" v="wetland" />
		<tag k="ssr:stedsnr" v="529123" />
	</node>
	<node id="-237516" lat="59.3469916632" lon="9.19974722718">
		<tag k="name" v="Fuglekåsa" />
		<tag k="place" v="locality" />
		<tag k="ssr:stedsnr" v="529090" />
	</node>
	<node id="-237515" lat="59.3460972244" lon="9.19338055269">
		<tag k="name" v="Bjørnebærmyra" />
		<tag k="natural" v="wetland" />
		<tag k="ssr:stedsnr" v="529087" />
	</node>
	<node id="-237514" lat="59.4155277777" lon="9.31524999214">
		<tag k="name" v="Gutuflått" />
		<tag k="place" v="locality" />
		<tag k="ssr:stedsnr" v="529082" />
	</node>
	<node id="-238071" lat="59.4209194442" lon="9.3079805623">
		<tag k="name" v="Feta" />
		<tag k="natural" v="wetland" />
		<tag k="ssr:stedsnr" v="832943" />
	</node>
	<node id="-236476" lat="59.3461722213" lon="9.26161388316">
		<tag k="name" v="Ottersnes" />
		<tag k="place" v="locality" />
		<tag k="ssr:stedsnr" v="286928" />
	</node>
	<node id="-236472" lat="59.4469916672" lon="9.35115833092">
		<tag k="name" v="Høymyr" />
		<tag k="natural" v="wetland" />
		<tag k="ssr:stedsnr" v="286718" />
	</node>
	<node id="-236470" lat="59.5304972203" lon="9.39201389429">
		<tag k="name" v="Barlind-dekkene" />
		<tag k="natural" v="wetland" />
		<tag k="ssr:stedsnr" v="286684" />
	</node>
	<node id="-236467" lat="59.4395111147" lon="9.3118694457">
		<tag k="name" v="Gonildskås" />
		<tag k="place" v="locality" />
		<tag k="ssr:stedsnr" v="286657" />
	</node>
	<node id="-236976" lat="59.3274138864" lon="9.19260554937">
		<tag k="name" v="Sveinskåsin" />
		<tag k="place" v="locality" />
		<tag k="ssr:stedsnr" v="44112" />
	</node>
	<node id="-236463" lat="59.4973444467" lon="9.36361111596">
		<tag k="name" v="Hovtrong" />
		<tag k="natural" v="wetland" />
		<tag k="ssr:stedsnr" v="286605" />
	</node>
	<node id="-236970" lat="59.4772527819" lon="9.31669444951">
		<tag k="name" v="Korpefloget" />
		<tag k="place" v="locality" />
		<tag k="ssr:stedsnr" v="43988" />
	</node>
	<node id="-236456" lat="59.4729555552" lon="9.30495000437">
		<tag k="name" v="Stigsjordet" />
		<tag k="place" v="locality" />
		<tag k="ssr:stedsnr" v="286554" />
	</node>
	<node id="-236452" lat="59.4176500028" lon="9.27303333026">
		<tag k="name" v="Lugusprang" />
		<tag k="place" v="locality" />
		<tag k="ssr:stedsnr" v="286504" />
	</node>
	<node id="-237985" lat="59.3908416643" lon="9.26675556364">
		<tag k="landuse" v="quarry" />
		<tag k="name" v="Ryntveit sandtak" />
		<tag k="ssr:stedsnr" v="772588" />
	</node>
	<node id="-237982" lat="59.4828861073" lon="9.2211277776">
		<tag k="name" v="Breidstul-myra" />
		<tag k="natural" v="wetland" />
		<tag k="ssr:stedsnr" v="772245" />
	</node>
	<node id="-236957" lat="59.4353944438" lon="9.38798055861">
		<tag k="name" v="Dugurdfjellmyra" />
		<tag k="natural" v="wetland" />
		<tag k="ssr:stedsnr" v="43674" />
	</node>
	<node id="-237980" lat="59.4837444437" lon="9.21204167228">
		<tag k="name" v="Golidmyrene" />
		<tag k="natural" v="wetland" />
		<tag k="ssr:stedsnr" v="772182" />
	</node>
	<node id="-237977" lat="59.3299138925" lon="9.19477221802">
		<tag k="name" v="Bjoredalsmyra" />
		<tag k="natural" v="wetland" />
		<tag k="ssr:stedsnr" v="772131" />
	</node>
	<node id="-236952" lat="59.3982222222" lon="9.2257916604">
		<tag k="name" v="Gorr-myr" />
		<tag k="natural" v="wetland" />
		<tag k="ssr:stedsnr" v="43641" />
	</node>
	<node id="-236441" lat="59.4474333371" lon="9.18397499993">
		<tag k="name" v="Hestmyr" />
		<tag k="natural" v="wetland" />
		<tag k="ssr:stedsnr" v="286337" />
	</node>
	<node id="-236434" lat="59.3521888895" lon="9.30438333001">
		<tag k="name" v="Buhol" />
		<tag k="natural" v="wetland" />
		<tag k="ssr:stedsnr" v="286278" />
	</node>
	<node id="-236429" lat="59.4731138917" lon="9.2671805541">
		<tag k="name" v="Kaldmyr-hola" />
		<tag k="natural" v="wetland" />
		<tag k="ssr:stedsnr" v="286213" />
	</node>
	<node id="-236428" lat="59.4802138845" lon="9.26877778252">
		<tag k="name" v="Ljostjønn-sletta" />
		<tag k="natural" v="wetland" />
		<tag k="ssr:stedsnr" v="286204" />
	</node>
	<node id="-237960" lat="59.4562361137" lon="9.37667500382">
		<tag k="name" v="Pallemyr" />
		<tag k="natural" v="wetland" />
		<tag k="ssr:stedsnr" v="771740" />
	</node>
	<node id="-237949" lat="59.5509416682" lon="9.43932500459">
		<tag k="name" v="Diplemyr" />
		<tag k="natural" v="wetland" />
		<tag k="ssr:stedsnr" v="771652" />
	</node>
	<node id="-237938" lat="59.4363138879" lon="9.26216944255">
		<tag k="name" v="Målbakkmyra" />
		<tag k="natural" v="wetland" />
		<tag k="ssr:stedsnr" v="771485" />
	</node>
	<node id="-237421" lat="59.4332888871" lon="9.35291944104">
		<tag k="name" v="Askemyra" />
		<tag k="natural" v="wetland" />
		<tag k="ssr:stedsnr" v="468654" />
	</node>
	<node id="-237932" lat="59.3492111108" lon="9.29377222099">
		<tag k="name" v="Masteholtet" />
		<tag k="natural" v="wetland" />
		<tag k="ssr:stedsnr" v="771293" />
	</node>
	<node id="-237417" lat="59.5463361122" lon="9.47033611611">
		<tag k="name" v="Vealøysa" />
		<tag k="natural" v="wetland" />
		<tag k="ssr:stedsnr" v="468632" />
	</node>
	<node id="-237883" lat="59.4323194424" lon="9.33442223025">
		<tag k="name" v="Skåpilmyr" />
		<tag k="natural" v="wetland" />
		<tag k="ssr:stedsnr" v="711941" />
	</node>
	<node id="-237919" lat="59.4507361108" lon="9.34114444009">
		<tag k="landuse" v="quarry" />
		<tag k="name" v="Stenningen sandtak" />
		<tag k="ssr:stedsnr" v="771024" />
	</node>
	<node id="-237965" lat="59.5056805537" lon="9.29801388888">
		<tag k="name" v="Gvit-skin" />
		<tag k="place" v="locality" />
		<tag k="ssr:stedsnr" v="771836" />
	</node>
	<node id="-237380" lat="59.4452222213" lon="9.2726611111">
		<tag k="name" v="Vestre Kringsåsmyr" />
		<tag k="natural" v="wetland" />
		<tag k="ssr:stedsnr" v="468144" />
	</node>
	<node id="-237375" lat="59.3280416685" lon="9.18682221977">
		<tag k="name" v="Bråtåmyra" />
		<tag k="natural" v="wetland" />
		<tag k="ssr:stedsnr" v="468108" />
	</node>
	<node id="-237886" lat="59.3967472186" lon="9.23726388157">
		<tag k="name" v="Berghøgda" />
		<tag k="place" v="locality" />
		<tag k="ssr:stedsnr" v="712651" />
	</node>
	<node id="-236859" lat="59.4271493778" lon="9.20858622716">
		<tag k="historic" v="shieling" />
		<tag k="name" v="Borstullien" />
		<tag k="place" v="locality" />
		<tag k="ssr:stedsnr" v="983078" />
	</node>
	<node id="-237874" lat="59.4274444444" lon="9.30035277503">
		<tag k="name" v="Sandsbrekka" />
		<tag k="place" v="locality" />
		<tag k="ssr:stedsnr" v="711610" />
	</node>
	<node id="-237356" lat="59.3792833338" lon="9.31445555119">
		<tag k="name" v="Moltemyr-haugene" />
		<tag k="natural" v="wetland" />
		<tag k="ssr:stedsnr" v="467233" />
	</node>
	<node id="-237860" lat="59.4806888859" lon="9.40253611">
		<tag k="name" v="Deildmyrane" />
		<tag k="natural" v="wetland" />
		<tag k="ssr:stedsnr" v="711410" />
	</node>
	<node id="-236835" lat="59.376224999" lon="9.18753333291">
		<tag k="name" v="Øyene" />
		<tag k="natural" v="wetland" />
		<tag k="ssr:stedsnr" v="893929" />
	</node>
	<node id="-237857" lat="59.4158777805" lon="9.34368611878">
		<tag k="name" v="Tegemyra" />
		<tag k="natural" v="wetland" />
		<tag k="ssr:stedsnr" v="711365" />
	</node>
	<node id="-237855" lat="59.3669055518" lon="9.29607222432">
		<tag k="name" v="Hestmyr" />
		<tag k="natural" v="wetland" />
		<tag k="ssr:stedsnr" v="711337" />
	</node>
	<node id="-237859" lat="59.5215805555" lon="9.40823610665">
		<tag k="name" v="Holkekleivdekkene" />
		<tag k="natural" v="wetland" />
		<tag k="ssr:stedsnr" v="711387" />
	</node>
	<node id="-237852" lat="59.3433611149" lon="9.28920554949">
		<tag k="name" v="Serketjønn" />
		<tag k="natural" v="wetland" />
		<tag k="ssr:stedsnr" v="711280" />
	</node>
	<node id="-236827" lat="59.5170583347" lon="9.4185222239">
		<tag k="name" v="Steinsmyrene" />
		<tag k="natural" v="wetland" />
		<tag k="ssr:stedsnr" v="893689" />
	</node>
	<node id="-236821" lat="59.5406388854" lon="9.48611665859">
		<tag k="name" v="Hestemyrdekkene" />
		<tag k="natural" v="wetland" />
		<tag k="ssr:stedsnr" v="893630" />
	</node>
	<node id="-236819" lat="59.3981666623" lon="9.26963889433">
		<tag k="name" v="Feta-landet" />
		<tag k="natural" v="wetland" />
		<tag k="ssr:stedsnr" v="893586" />
	</node>
	<node id="-236817" lat="59.5163888845" lon="9.35085833648">
		<tag k="name" v="Askemyra" />
		<tag k="natural" v="wetland" />
		<tag k="ssr:stedsnr" v="893577" />
	</node>
	<node id="-236813" lat="59.5113055525" lon="9.34486666215">
		<tag k="name" v="Store Hestemyr" />
		<tag k="natural" v="wetland" />
		<tag k="ssr:stedsnr" v="893544" />
	</node>
	<node id="-237831" lat="59.4931333291" lon="9.32027222182">
		<tag k="name" v="Humlegards-haugen" />
		<tag k="place" v="locality" />
		<tag k="ssr:stedsnr" v="710816" />
	</node>
	<node id="-236804" lat="59.4834722186" lon="9.40509444757">
		<tag k="name" v="Geitungs-standarden" />
		<tag k="natural" v="wetland" />
		<tag k="ssr:stedsnr" v="893400" />
	</node>
	<node id="-236801" lat="59.4207166638" lon="9.24239166238">
		<tag k="name" v="Hasletomarken" />
		<tag k="place" v="locality" />
		<tag k="ssr:stedsnr" v="893305" />
	</node>
	<node id="-236797" lat="59.3503222244" lon="9.30540555224">
		<tag k="name" v="Bufjelldalen" />
		<tag k="natural" v="wetland" />
		<tag k="ssr:stedsnr" v="893276" />
	</node>
	<node id="-237818" lat="59.4322833295" lon="9.22240278303">
		<tag k="name" v="Ringstulmyrene" />
		<tag k="natural" v="wetland" />
		<tag k="ssr:stedsnr" v="710476" />
	</node>
	<node id="-236786" lat="59.4769833335" lon="9.23617499392">
		<tag k="name" v="Espelid-slåtta" />
		<tag k="natural" v="wetland" />
		<tag k="ssr:stedsnr" v="893209" />
	</node>
	<node id="-236785" lat="59.4773527736" lon="9.23872499699">
		<tag k="name" v="Briskepålen" />
		<tag k="natural" v="wetland" />
		<tag k="ssr:stedsnr" v="893207" />
	</node>
	<node id="-236780" lat="59.452544448" lon="9.25180277584">
		<tag k="name" v="Torvmyra" />
		<tag k="natural" v="wetland" />
		<tag k="ssr:stedsnr" v="893160" />
	</node>
	<node id="-236778" lat="59.3502222194" lon="9.13694444596">
		<tag k="name" v="Steinstolmyrene" />
		<tag k="natural" v="wetland" />
		<tag k="ssr:stedsnr" v="893152" />
	</node>
	<node id="-236777" lat="59.3515000036" lon="9.15975554837">
		<tag k="name" v="Vinterlaget" />
		<tag k="natural" v="wetland" />
		<tag k="ssr:stedsnr" v="893142" />
	</node>
	<node id="-236770" lat="59.4064916655" lon="9.31083055397">
		<tag k="name" v="Tunga" />
		<tag k="place" v="locality" />
		<tag k="ssr:stedsnr" v="893089" />
	</node>
	<node id="-236767" lat="59.3467166624" lon="9.17312777932">
		<tag k="name" v="Byttingsmyr" />
		<tag k="natural" v="wetland" />
		<tag k="ssr:stedsnr" v="893044" />
	</node>
	<node id="-236759" lat="59.4840666634" lon="9.38131666928">
		<tag k="name" v="Krossmyr" />
		<tag k="natural" v="wetland" />
		<tag k="ssr:stedsnr" v="408597" />
	</node>
	<node id="-236758" lat="59.4679194403" lon="9.36311388371">
		<tag k="name" v="Olavsmyr" />
		<tag k="natural" v="wetland" />
		<tag k="ssr:stedsnr" v="408589" />
	</node>
	<node id="-236753" lat="59.4750388916" lon="9.27218889738">
		<tag k="name" v="Flisedunken" />
		<tag k="natural" v="wetland" />
		<tag k="ssr:stedsnr" v="408217" />
	</node>
	<node id="-237263" lat="59.3408111118" lon="9.22195277143">
		<tag k="name" v="Åsebak" />
		<tag k="place" v="locality" />
		<tag k="ssr:stedsnr" v="226110" />
	</node>
	<node id="-237262" lat="59.3395083354" lon="9.19519167525">
		<tag k="name" v="Skrikholene" />
		<tag k="place" v="locality" />
		<tag k="ssr:stedsnr" v="226105" />
	</node>
	<node id="-236747" lat="59.3279027743" lon="9.18875278243">
		<tag k="name" v="Heggedalsmoen" />
		<tag k="place" v="locality" />
		<tag k="ssr:stedsnr" v="408120" />
	</node>
	<node id="-237256" lat="59.420786107" lon="9.326755563">
		<tag k="landuse" v="quarry" />
		<tag k="name" v="Grautegrova" />
		<tag k="ssr:stedsnr" v="225952" />
	</node>
	<node id="-236737" lat="59.4296666633" lon="9.32784722144">
		<tag k="landuse" v="quarry" />
		<tag k="name" v="Sunde grustak" />
		<tag k="ssr:stedsnr" v="407929" />
	</node>
	<node id="-236727" lat="59.5295444442" lon="9.43450833679">
		<tag k="name" v="Holmemyra" />
		<tag k="natural" v="wetland" />
		<tag k="ssr:stedsnr" v="407755" />
	</node>
	<node id="-237237" lat="59.5141749971" lon="9.44461388947">
		<tag k="name" v="Kringleåsanden" />
		<tag k="natural" v="beach" />
		<tag k="ssr:stedsnr" v="225397" />
		<tag k="surface" v="sand" />
	</node>
	<node id="-236723" lat="59.4482111078" lon="9.39423055983">
		<tag k="name" v="Blektjønnmyra" />
		<tag k="natural" v="wetland" />
		<tag k="ssr:stedsnr" v="407738" />
	</node>
	<node id="-236659" lat="59.5061500014" lon="9.34792776998">
		<tag k="alt_name" v="Rundemyr" />
		<tag k="name" v="Rundemyra" />
		<tag k="natural" v="wetland" />
		<tag k="ssr:stedsnr" v="367704" />
	</node>
	<node id="-237739" lat="59.4729666665" lon="9.22679443647">
		<tag k="name" v="Vidsjåli-myrene" />
		<tag k="natural" v="wetland" />
		<tag k="ssr:stedsnr" v="650229" />
	</node>
	<node id="-237226" lat="59.4568472191" lon="9.26991665878">
		<tag k="name" v="Midtstykket" />
		<tag k="place" v="locality" />
		<tag k="ssr:stedsnr" v="225152" />
	</node>
	<node id="-237737" lat="59.468266664" lon="9.22201944037">
		<tag k="name" v="Snapholt" />
		<tag k="place" v="locality" />
		<tag k="ssr:stedsnr" v="650220" />
	</node>
	<node id="-237220" lat="59.3885805576" lon="9.31340555875">
		<tag k="name" v="Rismyrene" />
		<tag k="natural" v="wetland" />
		<tag k="ssr:stedsnr" v="225027" />
	</node>
	<node id="-237731" lat="59.5026805555" lon="9.25426388854">
		<tag k="name" v="Storemyr" />
		<tag k="natural" v="wetland" />
		<tag k="ssr:stedsnr" v="650045" />
	</node>
	<node id="-237209" lat="59.5355000035" lon="9.40353610627">
		<tag k="name" v="Nybumyra" />
		<tag k="natural" v="wetland" />
		<tag k="ssr:stedsnr" v="185754" />
	</node>
	<node id="-237719" lat="59.4569305539" lon="9.39880833346">
		<tag k="loc_name" v="Kinnesteinane" />
		<tag k="name" v="Kinnesteinene" />
		<tag k="natural" v="stone" />
		<tag k="ssr:stedsnr" v="649724" />
	</node>
	<node id="-238222" lat="59.4290333295" lon="9.30573334038">
		<tag k="landuse" v="quarry" />
		<tag k="name" v="Saudar sandtak" />
		<tag k="ssr:stedsnr" v="954597" />
	</node>
	<node id="-237702" lat="59.4518249978" lon="9.31957499144">
		<tag k="name" v="Stenningsøyren" />
		<tag k="place" v="locality" />
		<tag k="ssr:stedsnr" v="649248" />
	</node>
	<node id="-237700" lat="59.4544888868" lon="9.24682500296">
		<tag k="name" v="Stein-kitilen" />
		<tag k="place" v="locality" />
		<tag k="ssr:stedsnr" v="649183" />
	</node>
	<node id="-236675" lat="59.4145305553" lon="9.38600834059">
		<tag k="name" v="Hestegrætet" />
		<tag k="natural" v="wetland" />
		<tag k="ssr:stedsnr" v="407225" />
	</node>
	<node id="-237698" lat="59.3510527736" lon="9.20960000216">
		<tag k="name" v="Strandmarken" />
		<tag k="place" v="locality" />
		<tag k="ssr:stedsnr" v="650094" />
	</node>
	<node id="-236673" lat="59.3494888929" lon="9.14745833938">
		<tag k="name" v="Ollemyr" />
		<tag k="natural" v="wetland" />
		<tag k="ssr:stedsnr" v="407161" />
	</node>
	<node id="-236672" lat="59.4456722188" lon="9.27910555526">
		<tag k="name" v="Østre Kringsåsmyr" />
		<tag k="natural" v="wetland" />
		<tag k="ssr:stedsnr" v="407153" />
	</node>
	<node id="-236667" lat="59.4171722213" lon="9.33616667511">
		<tag k="name" v="Gildresteinen" />
		<tag k="natural" v="stone" />
		<tag k="ssr:stedsnr" v="407093" />
	</node>
	<node id="-238198" lat="59.4282972188" lon="9.33568610304">
		<tag k="name" v="Dåpan" />
		<tag k="natural" v="wetland" />
		<tag k="ssr:stedsnr" v="953916" />
	</node>
	<node id="-237171" lat="59.4680138855" lon="9.38755000134">
		<tag k="name" v="Skotmyr" />
		<tag k="natural" v="wetland" />
		<tag k="ssr:stedsnr" v="165563" />
	</node>
	<node id="-237075" lat="59.3725750045" lon="9.23407777848">
		<tag k="name" v="Nes-kåsin" />
		<tag k="natural" v="wetland" />
		<tag k="ssr:stedsnr" v="104802" />
	</node>
	<node id="-238185" lat="59.4705611089" lon="9.30176389333">
		<tag k="historic" v="shieling" />
		<tag k="name" v="Kråkevollen" />
		<tag k="place" v="locality" />
		<tag k="ssr:stedsnr" v="953592" />
	</node>
	<node id="-237670" lat="59.3954944416" lon="9.25721110941">
		<tag k="name" v="Kåsamoen" />
		<tag k="place" v="locality" />
		<tag k="ssr:stedsnr" v="590676" />
	</node>
	<node id="-237669" lat="59.3885777748" lon="9.2457027859">
		<tag k="name" v="Megardsmoen" />
		<tag k="place" v="locality" />
		<tag k="ssr:stedsnr" v="590673" />
	</node>
	<node id="-237771" lat="59.36417222" lon="9.31438055824">
		<tag k="name" v="Breidmyr" />
		<tag k="natural" v="wetland" />
		<tag k="ssr:stedsnr" v="669832" />
	</node>
	<node id="-238169" lat="59.443997218" lon="9.24648888657">
		<tag k="name" v="Bekkeskot-myra" />
		<tag k="natural" v="wetland" />
		<tag k="ssr:stedsnr" v="953202" />
	</node>
	<node id="-236628" lat="59.4812249961" lon="9.35410833309">
		<tag k="name" v="Trånåmyr" />
		<tag k="natural" v="wetland" />
		<tag k="ssr:stedsnr" v="366031" />
	</node>
	<node id="-238163" lat="59.5129555559" lon="9.33896110538">
		<tag k="name" v="Mineberget" />
		<tag k="place" v="locality" />
		<tag k="ssr:stedsnr" v="953125" />
	</node>
	<node id="-238161" lat="59.41113611" lon="9.34147500876">
		<tag k="name" v="Halvfar-myra" />
		<tag k="natural" v="wetland" />
		<tag k="ssr:stedsnr" v="953086" />
	</node>
	<node id="-236984" lat="59.3901444418" lon="9.26524167325">
		<tag k="landuse" v="quarry" />
		<tag k="name" v="Akkerhaugsmoen" />
		<tag k="ssr:stedsnr" v="44593" />
	</node>
	<node id="-236437" lat="59.3601444429" lon="9.30275000549">
		<tag k="name" v="Ulevassmyra" />
		<tag k="natural" v="wetland" />
		<tag k="ssr:stedsnr" v="286302" />
	</node>
	<node id="-236620" lat="59.3980527821" lon="9.23258055491">
		<tag k="name" v="Langkås" />
		<tag k="place" v="locality" />
		<tag k="ssr:stedsnr" v="347662" />
	</node>
	<node id="-237751" lat="59.3813999979" lon="9.26399722962">
		<tag k="name" v="Vårkvi" />
		<tag k="place" v="locality" />
		<tag k="ssr:stedsnr" v="650544" />
	</node>
	<node id="-236616" lat="59.4784194461" lon="9.39202222488">
		<tag k="name" v="Slåttemyrane" />
		<tag k="natural" v="wetland" />
		<tag k="ssr:stedsnr" v="347562" />
	</node>
	<node id="-238148" lat="59.4752916694" lon="9.34836666369">
		<tag k="alt_name" v="Røymyr" />
		<tag k="name" v="Røyrmyr" />
		<tag k="natural" v="wetland" />
		<tag k="ssr:stedsnr" v="913039" />
	</node>
	<node id="-237122" lat="59.3508944447" lon="9.16193889139">
		<tag k="name" v="Roksmyrene" />
		<tag k="natural" v="wetland" />
		<tag k="ssr:stedsnr" v="164138" />
	</node>
	<node id="-237632" lat="59.3917888859" lon="9.26616388195">
		<tag k="landuse" v="quarry" />
		<tag k="name" v="Holtamoen" />
		<tag k="ssr:stedsnr" v="589581" />
	</node>
	<node id="-237118" lat="59.4087138876" lon="9.33526111158">
		<tag k="name" v="Øverland" />
		<tag k="place" v="locality" />
		<tag k="ssr:stedsnr" v="164078" />
	</node>
	<node id="-236554" lat="59.3988694403" lon="9.27845833583">
		<tag k="name" v="Kvigarden" />
		<tag k="place" v="locality" />
		<tag k="ssr:stedsnr" v="346510" />
	</node>
	<node id="-237626" lat="59.483627782" lon="9.38103889557">
		<tag k="name" v="Krossmyr" />
		<tag k="natural" v="wetland" />
		<tag k="ssr:stedsnr" v="589561" />
	</node>
	<node id="-237988" lat="59.4291638884" lon="9.31144721563">
		<tag k="name" v="Gråten" />
		<tag k="natural" v="beach" />
		<tag k="ssr:stedsnr" v="772621" />
		<tag k="surface" v="sand" />
	</node>
	<node id="-238115" lat="59.4648861148" lon="9.16479167131">
		<tag k="alt_name" v="Flåtin" />
		<tag k="name" v="Flottin" />
		<tag k="place" v="locality" />
		<tag k="ssr:stedsnr" v="852487" />
	</node>
	<node id="-238085" lat="59.3671833329" lon="9.37429443613">
		<tag k="name" v="Klypa" />
		<tag k="natural" v="wetland" />
		<tag k="ssr:stedsnr" v="833300" />
	</node>
	<node id="-236568" lat="59.4220416638" lon="9.38022221381">
		<tag k="name" v="Griselimyra" />
		<tag k="natural" v="wetland" />
		<tag k="ssr:stedsnr" v="346696" />
	</node>
	<node id="-236566" lat="59.5347861086" lon="9.40394722916">
		<tag k="name" v="Lauvhyttemyrene" />
		<tag k="natural" v="wetland" />
		<tag k="ssr:stedsnr" v="346678" />
	</node>
	<node id="-236563" lat="59.5153583361" lon="9.34688889227">
		<tag k="name" v="Vesle Hestemyr" />
		<tag k="natural" v="wetland" />
		<tag k="ssr:stedsnr" v="346606" />
	</node>
	<node id="-236561" lat="59.5181333327" lon="9.3768083331">
		<tag k="name" v="Stellemyr" />
		<tag k="natural" v="wetland" />
		<tag k="ssr:stedsnr" v="346568" />
	</node>
	<node id="-237066" lat="59.5333638918" lon="9.41783611451">
		<tag k="name" v="Kollsetmyra" />
		<tag k="natural" v="wetland" />
		<tag k="ssr:stedsnr" v="104658" />
	</node>
	<node id="-236549" lat="59.4261277778" lon="9.27778332465">
		<tag k="name" v="Sæterledet" />
		<tag k="place" v="locality" />
		<tag k="ssr:stedsnr" v="346478" />
	</node>
	<node id="-237059" lat="59.4662694483" lon="9.380847224">
		<tag k="name" v="Rundemyr" />
		<tag k="natural" v="wetland" />
		<tag k="ssr:stedsnr" v="104569" />
	</node>
</osm>
