<?xml version="1.0" encoding="UTF-8"?>
<osm version="0.6" generator="osmapis">
	<node lat="61.491372218430506" lon="11.706922227483734" id="-19888">
		<tag k="name" v="Storåstjønna" />
		<tag k="natural" v="water" />
		<tag k="ssr:stedsnr" v="8202" />
	</node>
	<node lat="61.80163610879832" lon="10.87526944263336" id="-19892">
		<tag k="name" v="Sagbekken" />
		<tag k="ssr:stedsnr" v="10190" />
		<tag k="waterway" v="stream" />
	</node>
	<node lat="61.800044448082986" lon="11.021391672179064" id="-19893">
		<tag k="name" v="Hundtjønna" />
		<tag k="natural" v="water" />
		<tag k="ssr:stedsnr" v="10191" />
	</node>
	<node lat="61.96328888670919" lon="10.977361104766306" id="-19895">
		<tag k="alt_name" v="Gammelsæteråa" />
		<tag k="name" v="Tysla" />
		<tag k="ssr:stedsnr" v="10312" />
		<tag k="waterway" v="river" />
	</node>
	<node lat="61.57503611244957" lon="11.678391664372793" id="-19896">
		<tag k="name" v="Bjørbekken" />
		<tag k="ssr:stedsnr" v="10315" />
		<tag k="waterway" v="stream" />
	</node>
	<node lat="61.59915832985449" lon="11.496447214083494" id="-19897">
		<tag k="name" v="Gransjøen" />
		<tag k="natural" v="water" />
		<tag k="ssr:stedsnr" v="10320" />
	</node>
	<node lat="61.653458336662624" lon="11.672094445931087" id="-19898">
		<tag k="alt_name" v="Osdalssjøen, nordre" />
		<tag k="name" v="Nordre Osdalssjøen" />
		<tag k="natural" v="water" />
		<tag k="ssr:stedsnr" v="10341" />
		<tag k="water" v="lake" />
	</node>
	<node lat="61.68060000256297" lon="11.152136111235954" id="-19900">
		<tag k="fixme" v="multiple name tags, choose one and add the other to alt_name" />
		<tag k="name" v="Sagbekken;Saubekken" />
		<tag k="ssr:stedsnr" v="10384" />
		<tag k="waterway" v="stream" />
	</node>
	<node lat="61.57471667110575" lon="11.177458329966747" id="-19902">
		<tag k="name" v="Burua" />
		<tag k="ssr:stedsnr" v="10448" />
		<tag k="waterway" v="stream" />
	</node>
	<node lat="61.89098333436527" lon="11.456124998141302" id="-19905">
		<tag k="name" v="Skardsbekken" />
		<tag k="ssr:stedsnr" v="11011" />
		<tag k="waterway" v="stream" />
	</node>
	<node lat="61.81887777338969" lon="11.20556667491929" id="-19906">
		<tag k="name" v="Søndre Ælingsåtjønna" />
		<tag k="natural" v="water" />
		<tag k="ssr:stedsnr" v="11033" />
	</node>
	<node lat="61.77997222583137" lon="11.607791668185984" id="-19908">
		<tag k="name" v="Nedre Ørsjøtjønna" />
		<tag k="natural" v="water" />
		<tag k="ssr:stedsnr" v="10938" />
	</node>
	<node lat="61.88827499889751" lon="11.013327778084257" id="-19910">
		<tag k="name" v="Rullbekken" />
		<tag k="ssr:stedsnr" v="11113" />
		<tag k="waterway" v="stream" />
	</node>
	<node lat="61.85795000123441" lon="11.548911108601617" id="-19911">
		<tag k="name" v="Skardsbekken" />
		<tag k="ssr:stedsnr" v="11114" />
		<tag k="waterway" v="stream" />
	</node>
	<node lat="62.08688888999357" lon="11.171861111512708" id="-19916">
		<tag k="name" v="Kaldbrestbekken" />
		<tag k="ssr:stedsnr" v="11077" />
		<tag k="waterway" v="stream" />
	</node>
	<node lat="62.09588889345607" lon="11.47580832969795" id="-19918">
		<tag k="name" v="Skillebekken" />
		<tag k="ssr:stedsnr" v="11402" />
		<tag k="waterway" v="stream" />
	</node>
	<node lat="61.886455558808045" lon="11.673241673127405" id="-19923">
		<tag k="name" v="Gammeldammen" />
		<tag k="ssr:stedsnr" v="11987" />
		<tag k="waterway" v="dam" />
	</node>
	<node lat="61.903833337298266" lon="11.617363896084834" id="-19924">
		<tag k="name" v="Stollvika" />
		<tag k="natural" v="bay" />
		<tag k="ssr:stedsnr" v="11993" />
	</node>
	<node lat="61.91204166978787" lon="11.60979723069211" id="-19926">
		<tag k="name" v="Storpurka" />
		<tag k="place" v="islet" />
		<tag k="ssr:stedsnr" v="11997" />
	</node>
	<node lat="61.88403332916549" lon="11.661116667635524" id="-19928">
		<tag k="name" v="Håbudammen" />
		<tag k="place" v="locality" />
		<tag k="ssr:stedsnr" v="20283" />
	</node>
	<node lat="61.875736109980686" lon="11.687058335702943" id="-19929">
		<tag k="alt_name" v="Steensstrømmen" />
		<tag k="name" v="Steenstrømmen" />
		<tag k="old_name" v="Steinsstraumen;Stensstrømmen" />
		<tag k="ssr:stedsnr" v="21305" />
		<tag k="waterway" v="rapids" />
	</node>
	<node lat="61.80478611148637" lon="11.15684166741807" id="-19935">
		<tag k="name" v="Fallet" />
		<tag k="natural" v="waterfall" />
		<tag k="ssr:stedsnr" v="26480" />
	</node>
	<node lat="61.5838750003075" lon="11.321355554075001" id="-19938">
		<tag k="name" v="Veksenklavtjønna" />
		<tag k="natural" v="water" />
		<tag k="ssr:stedsnr" v="34432" />
	</node>
	<node lat="61.55200277520207" lon="11.222536111165345" id="-19944">
		<tag k="name" v="Rauhella" />
		<tag k="natural" v="cape" />
		<tag k="ssr:stedsnr" v="238347" />
	</node>
	<node lat="61.52576944062522" lon="11.203302778261437" id="-19946">
		<tag k="name" v="Eberhardodden" />
		<tag k="natural" v="cape" />
		<tag k="ssr:stedsnr" v="238361" />
	</node>
	<node lat="62.00183333746922" lon="10.93557221875124" id="-19950">
		<tag k="name" v="Fallneset" />
		<tag k="natural" v="cape" />
		<tag k="ssr:stedsnr" v="54673" />
	</node>
	<node lat="61.67464444398045" lon="11.188111110989563" id="-19960">
		<tag k="name" v="Korsbekken" />
		<tag k="ssr:stedsnr" v="240071" />
		<tag k="waterway" v="stream" />
	</node>
	<node lat="61.604538892048545" lon="11.357872229087745" id="-19975">
		<tag k="name" v="Myrebubekken" />
		<tag k="ssr:stedsnr" v="58127" />
		<tag k="waterway" v="stream" />
	</node>
	<node lat="61.69088333243104" lon="11.20464166544385" id="-19983">
		<tag k="name" v="Skjørbogen" />
		<tag k="natural" v="cape" />
		<tag k="ssr:stedsnr" v="58675" />
	</node>
	<node lat="62.062097223235924" lon="11.444044446279559" id="-19987">
		<tag k="name" v="Storbekken" />
		<tag k="ssr:stedsnr" v="240358" />
		<tag k="waterway" v="stream" />
	</node>
	<node lat="61.86587222140885" lon="10.96367778000997" id="-19989">
		<tag k="name" v="Brakkbekken" />
		<tag k="ssr:stedsnr" v="58783" />
		<tag k="waterway" v="stream" />
	</node>
	<node lat="62.11450555567488" lon="11.476919446568822" id="-19997">
		<tag k="name" v="Fjellbekken" />
		<tag k="ssr:stedsnr" v="240474" />
		<tag k="waterway" v="stream" />
	</node>
	<node lat="61.95718333130376" lon="11.182044449986108" id="-19998">
		<tag k="name" v="Dulluttjønnan" />
		<tag k="natural" v="water" />
		<tag k="ssr:stedsnr" v="240519" />
		<tag k="water" v="lake" />
	</node>
	<node lat="61.74844444836001" lon="10.993441665131895" id="-20003">
		<tag k="name" v="Svartbekken" />
		<tag k="ssr:stedsnr" v="240661" />
		<tag k="waterway" v="stream" />
	</node>
	<node lat="61.43110000280005" lon="11.29395556142055" id="-20017">
		<tag k="alt_name" v="Nakhuåa" />
		<tag k="name" v="Nakkua" />
		<tag k="ssr:stedsnr" v="69076" />
		<tag k="waterway" v="stream" />
	</node>
	<node lat="61.44509166640208" lon="11.686130552410932" id="-20020">
		<tag k="alt_name" v="Osa, nordre" />
		<tag k="name" v="Nordre Osa" />
		<tag k="ssr:stedsnr" v="69183" />
		<tag k="waterway" v="river" />
	</node>
	<node lat="61.60112465522958" lon="11.616088708092278" id="-20021">
		<tag k="name" v="Tarven" />
		<tag k="natural" v="water" />
		<tag k="ssr:stedsnr" v="70311" />
		<tag k="water" v="lake" />
	</node>
	<node lat="61.608874998822614" lon="11.75542777617911" id="-20022">
		<tag k="name" v="Bubekken" />
		<tag k="ssr:stedsnr" v="70312" />
		<tag k="waterway" v="stream" />
	</node>
	<node lat="61.751980251688096" lon="10.981332731137998" id="-20023">
		<tag k="alt_name" v="Mjovassjøen, nørdre" />
		<tag k="name" v="Nordre Mjovassjøen" />
		<tag k="natural" v="water" />
		<tag k="old_name" v="Mjøvassjøen, nørdre" />
		<tag k="ssr:stedsnr" v="70214" />
		<tag k="water" v="lake" />
	</node>
	<node lat="61.58263889263477" lon="11.397552772182037" id="-20024">
		<tag k="name" v="Storbekken" />
		<tag k="ssr:stedsnr" v="70422" />
		<tag k="waterway" v="stream" />
	</node>
	<node lat="61.56997222160247" lon="11.771491661049415" id="-20027">
		<tag k="name" v="Rundhaugflået" />
		<tag k="place" v="locality" />
		<tag k="ssr:stedsnr" v="70726" />
	</node>
	<node lat="61.82930278153631" lon="10.949688893565051" id="-20031">
		<tag k="name" v="Horntjønnbekken" />
		<tag k="ssr:stedsnr" v="71192" />
		<tag k="waterway" v="stream" />
	</node>
	<node lat="61.67257499783861" lon="11.439436116896033" id="-20036">
		<tag k="name" v="Måsårybekken" />
		<tag k="ssr:stedsnr" v="71434" />
		<tag k="waterway" v="stream" />
	</node>
	<node lat="61.67145833613698" lon="11.295405559122818" id="-20040">
		<tag k="name" v="Kvitskjærtjønna" />
		<tag k="natural" v="water" />
		<tag k="ssr:stedsnr" v="71498" />
	</node>
	<node lat="61.648680556562" lon="11.230508333285847" id="-20041">
		<tag k="name" v="Fallbekken" />
		<tag k="ssr:stedsnr" v="71513" />
		<tag k="waterway" v="stream" />
	</node>
	<node lat="61.77179727216717" lon="11.276583162358339" id="-20048">
		<tag k="name" v="Fuggsjøen" />
		<tag k="natural" v="water" />
		<tag k="ssr:stedsnr" v="72072" />
		<tag k="water" v="lake" />
	</node>
	<node lat="61.99544999944752" lon="10.972675003275945" id="-20050">
		<tag k="name" v="Rossbekken" />
		<tag k="ssr:stedsnr" v="72323" />
		<tag k="waterway" v="stream" />
	</node>
	<node lat="61.68229999678412" lon="11.57680833211029" id="-20063">
		<tag k="name" v="Kvitåsbekktjønna" />
		<tag k="natural" v="water" />
		<tag k="ssr:stedsnr" v="94121" />
	</node>
	<node lat="61.479647218093454" lon="11.61500833102805" id="-20064">
		<tag k="name" v="Holmtjønna" />
		<tag k="natural" v="water" />
		<tag k="ssr:stedsnr" v="250193" />
	</node>
	<node lat="61.65753333587326" lon="11.102733335730894" id="-20066">
		<tag k="name" v="Tolverbubekken" />
		<tag k="ssr:stedsnr" v="117023" />
		<tag k="waterway" v="stream" />
	</node>
	<node lat="61.62741111266419" lon="11.21986943787524" id="-20071">
		<tag k="name" v="Bredvika" />
		<tag k="natural" v="bay" />
		<tag k="ssr:stedsnr" v="117421" />
	</node>
	<node lat="61.73073889290443" lon="11.351863883218522" id="-20072">
		<tag k="name" v="Illevollsbubekken" />
		<tag k="ssr:stedsnr" v="117422" />
		<tag k="waterway" v="stream" />
	</node>
	<node lat="61.59552499973841" lon="11.184869442224318" id="-20075">
		<tag k="name" v="Solungsdalsbekken" />
		<tag k="ssr:stedsnr" v="117923" />
		<tag k="waterway" v="stream" />
	</node>
	<node lat="61.7572333376256" lon="11.301658339542668" id="-20076">
		<tag k="name" v="Storbekkdammen" />
		<tag k="ssr:stedsnr" v="117979" />
		<tag k="waterway" v="dam" />
	</node>
	<node lat="61.67923611443032" lon="11.196205547891775" id="-20079">
		<tag k="name" v="Bærodden" />
		<tag k="natural" v="cape" />
		<tag k="ssr:stedsnr" v="119097" />
	</node>
	<node lat="61.94592499907799" lon="11.004033327907601" id="-20086">
		<tag k="name" v="Korsnabben" />
		<tag k="natural" v="cape" />
		<tag k="ssr:stedsnr" v="119790" />
	</node>
	<node lat="61.553130554703635" lon="11.195994451541138" id="-20090">
		<tag k="name" v="Nordavindholet" />
		<tag k="natural" v="bay" />
		<tag k="ssr:stedsnr" v="119851" />
	</node>
	<node lat="61.489758329924165" lon="11.278302775458894" id="-20093">
		<tag k="name" v="Kattskjeret" />
		<tag k="place" v="islet" />
		<tag k="ssr:stedsnr" v="251108" />
	</node>
	<node lat="61.452049998273466" lon="11.521336107459344" id="-20100">
		<tag k="name" v="Pottbekken" />
		<tag k="ssr:stedsnr" v="251169" />
		<tag k="waterway" v="stream" />
	</node>
	<node lat="61.549475000746014" lon="11.271516668047456" id="-20102">
		<tag k="name" v="Andfallet" />
		<tag k="natural" v="waterfall" />
		<tag k="ssr:stedsnr" v="252263" />
	</node>
	<node lat="61.417908337275044" lon="11.298705560586733" id="-20111">
		<tag k="name" v="Eriksbekken" />
		<tag k="ssr:stedsnr" v="129094" />
		<tag k="waterway" v="stream" />
	</node>
	<node lat="61.60869166527567" lon="11.311441671353371" id="-20112">
		<tag k="name" v="Valsjøbekken" />
		<tag k="ssr:stedsnr" v="252405" />
		<tag k="waterway" v="stream" />
	</node>
	<node lat="61.616483336038144" lon="11.464430559526432" id="-20115">
		<tag k="name" v="Krokbekken" />
		<tag k="ssr:stedsnr" v="252447" />
		<tag k="waterway" v="stream" />
	</node>
	<node lat="61.62564999555575" lon="11.598377778211432" id="-20122">
		<tag k="name" v="Hallendtjønna" />
		<tag k="natural" v="water" />
		<tag k="ssr:stedsnr" v="131302" />
	</node>
	<node lat="61.57336388647717" lon="11.485605562397705" id="-20124">
		<tag k="name" v="Nottjønna" />
		<tag k="natural" v="water" />
		<tag k="ssr:stedsnr" v="131315" />
	</node>
	<node lat="61.98151944701685" lon="11.022500008178351" id="-20125">
		<tag k="name" v="Storbekktjønna" />
		<tag k="natural" v="water" />
		<tag k="ssr:stedsnr" v="131323" />
	</node>
	<node lat="61.55873888543756" lon="11.268338888657889" id="-20128">
		<tag k="name" v="Borkhustjønna" />
		<tag k="natural" v="water" />
		<tag k="ssr:stedsnr" v="131278" />
	</node>
	<node lat="61.52646666892503" lon="11.277816659864605" id="-20129">
		<tag k="name" v="Heggedalstjønna" />
		<tag k="natural" v="water" />
		<tag k="ssr:stedsnr" v="131283" />
	</node>
	<node lat="61.56045752401095" lon="11.618384454656509" id="-20130">
		<tag k="name" v="Lauvåstjønna" />
		<tag k="natural" v="water" />
		<tag k="ssr:stedsnr" v="252692" />
	</node>
	<node lat="62.04710555748797" lon="11.533577773137944" id="-20138">
		<tag k="name" v="Søre Kroketbekken" />
		<tag k="ssr:stedsnr" v="131385" />
		<tag k="waterway" v="stream" />
	</node>
	<node lat="61.50251388899996" lon="11.555625005583158" id="-20140">
		<tag k="fixme" v="multiple name tags, choose one and add the other to alt_name" />
		<tag k="name" v="Bjørbekkdalstjønna;Bjørbekktjønna" />
		<tag k="natural" v="water" />
		<tag k="ssr:stedsnr" v="252666" />
	</node>
	<node lat="61.76614999640097" lon="10.906550001591627" id="-20146">
		<tag k="name" v="Okstjønna" />
		<tag k="natural" v="water" />
		<tag k="ssr:stedsnr" v="132187" />
	</node>
	<node lat="62.14790555836652" lon="11.291933329628977" id="-20147">
		<tag k="name" v="Speketjønna" />
		<tag k="natural" v="water" />
		<tag k="ssr:stedsnr" v="132368" />
	</node>
	<node lat="61.970788891084794" lon="11.191061104787083" id="-20148">
		<tag k="alt_name" v="Søndre Størtjønna" />
		<tag k="name" v="Størtjønna" />
		<tag k="natural" v="water" />
		<tag k="ssr:stedsnr" v="132204" />
	</node>
	<node lat="62.127058337508274" lon="11.1694249907147" id="-20152">
		<tag k="name" v="Finnrobekken" />
		<tag k="ssr:stedsnr" v="132686" />
		<tag k="waterway" v="stream" />
	</node>
	<node lat="61.84661111158582" lon="11.125649992559717" id="-20156">
		<tag k="name" v="Bersettjønna" />
		<tag k="natural" v="water" />
		<tag k="ssr:stedsnr" v="253029" />
	</node>
	<node lat="61.82755556004602" lon="11.3712416670225" id="-20159">
		<tag k="name" v="Storbekken" />
		<tag k="ssr:stedsnr" v="253019" />
		<tag k="waterway" v="stream" />
	</node>
	<node lat="61.83145833278473" lon="11.21631110241597" id="-20160">
		<tag k="name" v="Nordre Ælingsåtjønna" />
		<tag k="natural" v="water" />
		<tag k="ssr:stedsnr" v="253022" />
	</node>
	<node lat="61.891500001762466" lon="10.738824994753696" id="-20161">
		<tag k="name" v="Grøvsbekken" />
		<tag k="ssr:stedsnr" v="253155" />
		<tag k="waterway" v="stream" />
	</node>
	<node lat="61.76023611375907" lon="11.293488887742996" id="-20166">
		<tag k="name" v="Storbekken" />
		<tag k="ssr:stedsnr" v="253059" />
		<tag k="waterway" v="stream" />
	</node>
	<node lat="61.969472217942595" lon="11.16810554572203" id="-20170">
		<tag k="name" v="Møkkelbekktjønna" />
		<tag k="natural" v="water" />
		<tag k="ssr:stedsnr" v="253270" />
	</node>
	<node lat="61.68089721971331" lon="11.597897227483273" id="-20172">
		<tag k="name" v="Åbortjønna" />
		<tag k="natural" v="water" />
		<tag k="ssr:stedsnr" v="253405" />
	</node>
	<node lat="61.90726944568377" lon="10.771099991085475" id="-20173">
		<tag k="name" v="Skjerbekken" />
		<tag k="ssr:stedsnr" v="253413" />
		<tag k="waterway" v="stream" />
	</node>
	<node lat="61.91631666845339" lon="10.953836102998356" id="-20174">
		<tag k="name" v="Slaggtjønna" />
		<tag k="natural" v="water" />
		<tag k="ssr:stedsnr" v="253418" />
	</node>
	<node lat="62.0103805586072" lon="11.379397228354643" id="-20175">
		<tag k="name" v="Tanntjønna" />
		<tag k="natural" v="water" />
		<tag k="ssr:stedsnr" v="253481" />
	</node>
	<node lat="62.00439444599795" lon="10.92493888843665" id="-20176">
		<tag k="name" v="Hoggtjønna" />
		<tag k="natural" v="water" />
		<tag k="ssr:stedsnr" v="253485" />
	</node>
	<node lat="62.00921944312989" lon="11.128019447647823" id="-20179">
		<tag k="alt_name" v="Uglåa, s" />
		<tag k="name" v="Søndre Uglåa" />
		<tag k="ssr:stedsnr" v="253491" />
		<tag k="waterway" v="river" />
	</node>
	<node lat="62.05729166664703" lon="11.035627777374671" id="-20180">
		<tag k="name" v="Nekbekken" />
		<tag k="ssr:stedsnr" v="254017" />
		<tag k="waterway" v="stream" />
	</node>
	<node lat="61.90709444787076" lon="11.32636389833237" id="-20183">
		<tag k="name" v="Kjelåsbekken" />
		<tag k="ssr:stedsnr" v="254215" />
		<tag k="waterway" v="stream" />
	</node>
	<node lat="61.81566111254861" lon="10.9803749994101" id="-20187">
		<tag k="name" v="Midtåstjønna" />
		<tag k="natural" v="water" />
		<tag k="ssr:stedsnr" v="154221" />
	</node>
	<node lat="61.715044442756835" lon="11.200252769402077" id="-20191">
		<tag k="name" v="Åkerstrømmen" />
		<tag k="ssr:stedsnr" v="177162" />
		<tag k="waterway" v="rapids" />
	</node>
	<node lat="61.61568055313357" lon="11.22486388016781" id="-20192">
		<tag k="name" v="Engelsvika" />
		<tag k="natural" v="bay" />
		<tag k="ssr:stedsnr" v="177304" />
	</node>
	<node lat="62.126761110035964" lon="11.040036107746719" id="-20203">
		<tag k="name" v="Håen" />
		<tag k="natural" v="bay" />
		<tag k="ssr:stedsnr" v="179336" />
	</node>
	<node lat="62.035247218715874" lon="11.481355553455982" id="-20205">
		<tag k="name" v="Fjordungsbekken" />
		<tag k="ssr:stedsnr" v="179414" />
		<tag k="waterway" v="stream" />
	</node>
	<node lat="61.97862499576448" lon="11.116247227631893" id="-20208">
		<tag k="name" v="Nordgardsbekken" />
		<tag k="ssr:stedsnr" v="179474" />
		<tag k="waterway" v="stream" />
	</node>
	<node lat="61.69021389171604" lon="11.205991672963382" id="-20216">
		<tag k="name" v="Sana" />
		<tag k="natural" v="beach" />
		<tag k="ssr:stedsnr" v="180657" />
	</node>
	<node lat="61.484280556521114" lon="11.592005551873145" id="-20220">
		<tag k="name" v="Bjørbekkfloen" />
		<tag k="natural" v="water" />
		<tag k="ssr:stedsnr" v="190202" />
	</node>
	<node lat="61.872674617885714" lon="11.425891063185425" id="-20221">
		<tag k="alt_name" v="Øvresjøen" />
		<tag k="name" v="Øversjøen" />
		<tag k="natural" v="water" />
		<tag k="ssr:stedsnr" v="192008" />
		<tag k="water" v="lake" />
	</node>
	<node lat="61.859769442418944" lon="11.094669437082906" id="-20225">
		<tag k="name" v="Veslesandbekken" />
		<tag k="ssr:stedsnr" v="208027" />
		<tag k="waterway" v="stream" />
	</node>
	<node lat="61.90933889145947" lon="11.08075556489778" id="-20238">
		<tag k="name" v="Vesleregna" />
		<tag k="ssr:stedsnr" v="269465" />
		<tag k="waterway" v="stream" />
	</node>
	<node lat="61.86000277533462" lon="11.059836105119135" id="-20239">
		<tag k="name" v="Bergetjønna" />
		<tag k="natural" v="water" />
		<tag k="ssr:stedsnr" v="269471" />
	</node>
	<node lat="61.79905555374559" lon="11.08688889245683" id="-20240">
		<tag k="name" v="Toerbekken" />
		<tag k="ssr:stedsnr" v="269492" />
		<tag k="waterway" v="stream" />
	</node>
	<node lat="61.72687777547379" lon="11.120291672363468" id="-20249">
		<tag k="name" v="Søstubekken" />
		<tag k="ssr:stedsnr" v="238169" />
		<tag k="waterway" v="stream" />
	</node>
	<node lat="61.62875277510284" lon="11.131663887806408" id="-20252">
		<tag k="name" v="Morsbångrøfta" />
		<tag k="ssr:stedsnr" v="239902" />
		<tag k="waterway" v="drain" />
	</node>
	<node lat="62.07876666920101" lon="11.043380562115283" id="-20257">
		<tag k="name" v="Nesset" />
		<tag k="natural" v="cape" />
		<tag k="ssr:stedsnr" v="240294" />
	</node>
	<node lat="61.73495833306059" lon="11.200355552832033" id="-20258">
		<tag k="name" v="Hallaren" />
		<tag k="natural" v="cape" />
		<tag k="ssr:stedsnr" v="240302" />
	</node>
	<node lat="61.76532221877314" lon="11.391338895921587" id="-20261">
		<tag k="name" v="Storbekken" />
		<tag k="ssr:stedsnr" v="240325" />
		<tag k="waterway" v="stream" />
	</node>
	<node lat="61.983458330715926" lon="11.53859166754169" id="-20268">
		<tag k="name" v="Åroodden" />
		<tag k="natural" v="cape" />
		<tag k="ssr:stedsnr" v="240434" />
	</node>
	<node lat="61.838033332269305" lon="11.12837499460896" id="-20282">
		<tag k="fixme" v="multiple name tags, choose one and add the other to alt_name" />
		<tag k="name" v="Langtjønna;Milskifttjønna" />
		<tag k="natural" v="water" />
		<tag k="ssr:stedsnr" v="253014" />
	</node>
	<node lat="62.093094444784185" lon="11.109752784500184" id="-20284">
		<tag k="name" v="Langklettbekken" />
		<tag k="ssr:stedsnr" v="253113" />
		<tag k="waterway" v="stream" />
	</node>
	<node lat="61.97159721940427" lon="11.57709999902477" id="-20285">
		<tag k="name" v="Gravneset" />
		<tag k="natural" v="cape" />
		<tag k="ssr:stedsnr" v="253116" />
	</node>
	<node lat="62.09978888840371" lon="11.136550006678071" id="-20287">
		<tag k="name" v="Bjørntjønna" />
		<tag k="natural" v="water" />
		<tag k="ssr:stedsnr" v="253121" />
	</node>
	<node lat="61.92698055487057" lon="11.596455564812109" id="-20288">
		<tag k="name" v="Langneset" />
		<tag k="natural" v="cape" />
		<tag k="ssr:stedsnr" v="253130" />
	</node>
	<node lat="62.102919444639696" lon="11.11819999898732" id="-20290">
		<tag k="name" v="Skarvtjønna" />
		<tag k="natural" v="water" />
		<tag k="ssr:stedsnr" v="253133" />
	</node>
	<node lat="61.66461111461421" lon="11.583883337237074" id="-20299">
		<tag k="name" v="Fjellbekken" />
		<tag k="ssr:stedsnr" v="253426" />
		<tag k="waterway" v="stream" />
	</node>
	<node lat="62.16388889218394" lon="11.289800001452047" id="-20301">
		<tag k="name" v="Øybekken" />
		<tag k="ssr:stedsnr" v="253437" />
		<tag k="waterway" v="stream" />
	</node>
	<node lat="61.851330551524946" lon="10.832616666913495" id="-20307">
		<tag k="name" v="Elstadbekken" />
		<tag k="ssr:stedsnr" v="254129" />
		<tag k="waterway" v="stream" />
	</node>
	<node lat="61.842983332862055" lon="11.532388895202232" id="-20309">
		<tag k="name" v="Småhøgdbekken" />
		<tag k="ssr:stedsnr" v="254945" />
		<tag k="waterway" v="stream" />
	</node>
	<node lat="61.84389166307284" lon="11.103197215046276" id="-20310">
		<tag k="name" v="Veslengbekken" />
		<tag k="ssr:stedsnr" v="269029" />
		<tag k="waterway" v="stream" />
	</node>
	<node lat="61.774372224889525" lon="11.165688889998808" id="-20313">
		<tag k="name" v="Pukodden" />
		<tag k="natural" v="cape" />
		<tag k="ssr:stedsnr" v="269406" />
	</node>
	<node lat="61.762866667758686" lon="11.108522229872563" id="-20323">
		<tag k="name" v="Krokbekken" />
		<tag k="ssr:stedsnr" v="299298" />
		<tag k="waterway" v="stream" />
	</node>
	<node lat="61.63950000416152" lon="11.185941676186804" id="-20326">
		<tag k="name" v="Røstaodden" />
		<tag k="natural" v="cape" />
		<tag k="ssr:stedsnr" v="299986" />
	</node>
	<node lat="61.44191388780425" lon="11.402411115635267" id="-20335">
		<tag k="name" v="Nedre Brennbekken" />
		<tag k="ssr:stedsnr" v="300907" />
		<tag k="waterway" v="stream" />
	</node>
	<node lat="61.87597500345613" lon="10.890674992598738" id="-20347">
		<tag k="name" v="Kvernbekken" />
		<tag k="ssr:stedsnr" v="301689" />
		<tag k="waterway" v="stream" />
	</node>
	<node lat="61.851713893332764" lon="11.008427779975463" id="-20351">
		<tag k="name" v="Brubekken" />
		<tag k="ssr:stedsnr" v="301782" />
		<tag k="waterway" v="stream" />
	</node>
	<node lat="61.42740000437575" lon="11.385877770982427" id="-20354">
		<tag k="alt_name" v="Blisterbekken" />
		<tag k="name" v="Blæsterbekken" />
		<tag k="ssr:stedsnr" v="311091" />
		<tag k="waterway" v="stream" />
	</node>
	<node lat="61.69883610724788" lon="11.04220555764632" id="-20355">
		<tag k="name" v="Rokka" />
		<tag k="ssr:stedsnr" v="313202" />
		<tag k="waterway" v="river" />
	</node>
	<node lat="61.72408055671102" lon="11.606755563581883" id="-20356">
		<tag k="name" v="Nessertjønna" />
		<tag k="natural" v="water" />
		<tag k="ssr:stedsnr" v="313281" />
	</node>
	<node lat="61.87769444602222" lon="11.312411106825465" id="-20361">
		<tag k="name" v="Veslmistra" />
		<tag k="ssr:stedsnr" v="314006" />
		<tag k="waterway" v="river" />
	</node>
	<node lat="62.076116671030505" lon="11.040347216524694" id="-20362">
		<tag k="alt_name" v="Finstadåa" />
		<tag k="name" v="Finnstadåa" />
		<tag k="ssr:stedsnr" v="314015" />
		<tag k="waterway" v="river" />
	</node>
	<node lat="62.03450587814846" lon="11.07227331332766" id="-20363">
		<tag k="name" v="Langleitet" />
		<tag k="place" v="locality" />
		<tag k="ssr:stedsnr" v="314061" />
	</node>
	<node lat="61.995316670678925" lon="11.44678610935037" id="-20369">
		<tag k="name" v="Søndre Tangtjønna" />
		<tag k="natural" v="water" />
		<tag k="ssr:stedsnr" v="314225" />
	</node>
	<node lat="61.88966666932812" lon="10.777574996390198" id="-20373">
		<tag k="name" v="Gamlebubekken" />
		<tag k="ssr:stedsnr" v="314132" />
		<tag k="waterway" v="stream" />
	</node>
	<node lat="61.85645555396308" lon="10.905422227331368" id="-20374">
		<tag k="alt_name" v="Grøtfossen" />
		<tag k="name" v="Grøtefossen" />
		<tag k="natural" v="waterfall" />
		<tag k="ssr:stedsnr" v="314167" />
	</node>
	<node lat="62.06944166934264" lon="11.381602769738068" id="-20378">
		<tag k="name" v="Søre Skjellåa" />
		<tag k="ssr:stedsnr" v="314455" />
		<tag k="waterway" v="river" />
	</node>
	<node lat="62.01554444207033" lon="11.576902771971392" id="-20379">
		<tag k="name" v="Fresatjønna" />
		<tag k="natural" v="water" />
		<tag k="ssr:stedsnr" v="314478" />
	</node>
	<node lat="61.82870000393934" lon="11.126475003526156" id="-20384">
		<tag k="name" v="Viktjønna" />
		<tag k="natural" v="water" />
		<tag k="ssr:stedsnr" v="329374" />
	</node>
	<node lat="61.917616666537796" lon="10.955769439052393" id="-20389">
		<tag k="name" v="Nordre Slaggtjønna" />
		<tag k="natural" v="water" />
		<tag k="ssr:stedsnr" v="336409" />
	</node>
	<node lat="61.77657500105446" lon="10.89138056377875" id="-20390">
		<tag k="name" v="Okstjønnbekken" />
		<tag k="ssr:stedsnr" v="337218" />
		<tag k="waterway" v="stream" />
	</node>
	<node lat="62.02450000177413" lon="10.910883327751817" id="-20392">
		<tag k="name" v="Brennbekken" />
		<tag k="ssr:stedsnr" v="355617" />
		<tag k="waterway" v="stream" />
	</node>
	<node lat="61.73446389189066" lon="11.33368055771883" id="-20397">
		<tag k="name" v="Djupdalsbekken" />
		<tag k="ssr:stedsnr" v="359407" />
		<tag k="waterway" v="stream" />
	</node>
	<node lat="61.73450217820914" lon="11.207782386279453" id="-20399">
		<tag k="name" v="Harvika" />
		<tag k="natural" v="bay" />
		<tag k="ssr:stedsnr" v="359557" />
	</node>
	<node lat="61.487533329563" lon="11.317141672790443" id="-20403">
		<tag k="name" v="Møra" />
		<tag k="ssr:stedsnr" v="372109" />
		<tag k="waterway" v="stream" />
	</node>
	<node lat="61.454086112419816" lon="11.251400000845578" id="-20405">
		<tag k="name" v="Trolltjønna" />
		<tag k="natural" v="water" />
		<tag k="ssr:stedsnr" v="372122" />
	</node>
	<node lat="61.444424998988225" lon="11.343391673953388" id="-20406">
		<tag k="alt_name" v="Nakhuåa" />
		<tag k="name" v="Nakkua" />
		<tag k="ssr:stedsnr" v="372070" />
		<tag k="waterway" v="river" />
	</node>
	<node lat="62.007477774459346" lon="10.929388893668921" id="-20408">
		<tag k="name" v="Tysladammen" />
		<tag k="ssr:stedsnr" v="479666" />
		<tag k="waterway" v="dam" />
	</node>
	<node lat="61.63488333466395" lon="11.582911110798603" id="-20409">
		<tag k="alt_name" v="Storbekken" />
		<tag k="name" v="Stokkbekken" />
		<tag k="ssr:stedsnr" v="373305" />
		<tag k="waterway" v="stream" />
	</node>
	<node lat="61.73113333560992" lon="11.203752783383228" id="-20410">
		<tag k="alt_name" v="Kværnesodden" />
		<tag k="name" v="Kvernnesodden" />
		<tag k="natural" v="cape" />
		<tag k="ssr:stedsnr" v="373421" />
	</node>
	<node lat="61.59688611318104" lon="11.240583339365287" id="-20411">
		<tag k="name" v="Storbekken" />
		<tag k="ssr:stedsnr" v="373449" />
		<tag k="waterway" v="stream" />
	</node>
	<node lat="61.950100003112865" lon="11.579691674251341" id="-20414">
		<tag k="name" v="Sandodden" />
		<tag k="natural" v="cape" />
		<tag k="ssr:stedsnr" v="374104" />
	</node>
	<node lat="61.814161111560104" lon="11.4438555513717" id="-20417">
		<tag k="name" v="Søttjønna" />
		<tag k="natural" v="water" />
		<tag k="ssr:stedsnr" v="374050" />
	</node>
	<node lat="61.78890555886797" lon="10.788386118797995" id="-20421">
		<tag k="name" v="Nea" />
		<tag k="ssr:stedsnr" v="374215" />
		<tag k="waterway" v="river" />
	</node>
	<node lat="61.55641110809649" lon="11.336116667181766" id="-20424">
		<tag k="name" v="Stortjønna" />
		<tag k="natural" v="water" />
		<tag k="ssr:stedsnr" v="374311" />
	</node>
	<node lat="61.671874996316006" lon="11.358708324725761" id="-20431">
		<tag k="alt_name" v="Renåtjønna;Søstutjønna" />
		<tag k="name" v="Renåtjønnan" />
		<tag k="natural" v="water" />
		<tag k="ssr:stedsnr" v="374405" />
		<tag k="water" v="lake" />
	</node>
	<node lat="61.74819999885451" lon="11.320444439447284" id="-20432">
		<tag k="name" v="Fugga" />
		<tag k="ssr:stedsnr" v="374409" />
		<tag k="waterway" v="river" />
	</node>
	<node lat="61.746516667644954" lon="11.440455549840197" id="-20434">
		<tag k="name" v="Nysæterbekken" />
		<tag k="ssr:stedsnr" v="374419" />
		<tag k="waterway" v="stream" />
	</node>
	<node lat="61.73849444780314" lon="11.37427777964548" id="-20436">
		<tag k="alt_name" v="Østre Renåa" />
		<tag k="name" v="Renåa" />
		<tag k="ssr:stedsnr" v="374423" />
		<tag k="waterway" v="river" />
	</node>
	<node lat="61.75991667068909" lon="11.527205555781102" id="-20440">
		<tag k="name" v="Blomsterdalsbekken" />
		<tag k="ssr:stedsnr" v="374936" />
		<tag k="waterway" v="stream" />
	</node>
	<node lat="61.76030555704783" lon="11.555291659463812" id="-20441">
		<tag k="alt_name" v="Nyklebekken" />
		<tag k="name" v="Nøklebekken" />
		<tag k="ssr:stedsnr" v="374939" />
		<tag k="waterway" v="stream" />
	</node>
	<node lat="61.910752782158916" lon="11.618641660812841" id="-20442">
		<tag k="name" v="Østmannholmen" />
		<tag k="place" v="islet" />
		<tag k="ssr:stedsnr" v="374997" />
	</node>
	<node lat="61.879011115262706" lon="11.059599999429228" id="-20444">
		<tag k="alt_name" v="Raubekken" />
		<tag k="name" v="Raudbekken" />
		<tag k="ssr:stedsnr" v="375108" />
		<tag k="waterway" v="stream" />
	</node>
	<node lat="61.87420555490699" lon="10.951888894426764" id="-20445">
		<tag k="name" v="Bjørnåstjønna" />
		<tag k="natural" v="water" />
		<tag k="ssr:stedsnr" v="375111" />
	</node>
	<node lat="61.91037222582635" lon="11.453663880893828" id="-20447">
		<tag k="name" v="Veslskardbekken" />
		<tag k="ssr:stedsnr" v="375205" />
		<tag k="waterway" v="stream" />
	</node>
	<node lat="61.476630554677925" lon="11.297958325320947" id="-20456">
		<tag k="name" v="Botillodden" />
		<tag k="natural" v="cape" />
		<tag k="ssr:stedsnr" v="481325" />
	</node>
	<node lat="61.54070000271367" lon="11.22184722855549" id="-20460">
		<tag k="name" v="Sæterbekkvika" />
		<tag k="natural" v="bay" />
		<tag k="ssr:stedsnr" v="481353" />
	</node>
	<node lat="61.559522221193184" lon="11.23533611001886" id="-20461">
		<tag k="name" v="Sagfallet" />
		<tag k="natural" v="waterfall" />
		<tag k="ssr:stedsnr" v="481356" />
	</node>
	<node lat="61.68050277489648" lon="11.59421111702859" id="-20473">
		<tag k="name" v="Illvålsdammen" />
		<tag k="ssr:stedsnr" v="482904" />
		<tag k="waterway" v="dam" />
	</node>
	<node lat="61.689102777373456" lon="11.1980583406462" id="-20475">
		<tag k="name" v="Strømsvåka" />
		<tag k="natural" v="bay" />
		<tag k="ssr:stedsnr" v="483097" />
	</node>
	<node lat="61.70201944243879" lon="11.11152221589504" id="-20476">
		<tag k="name" v="Vollbekken" />
		<tag k="ssr:stedsnr" v="483101" />
		<tag k="waterway" v="stream" />
	</node>
	<node lat="61.75699166505173" lon="11.157541670821203" id="-20481">
		<tag k="name" v="Ottfallet" />
		<tag k="natural" v="waterfall" />
		<tag k="ssr:stedsnr" v="390088" />
	</node>
	<node lat="62.015944446001384" lon="11.028530551783907" id="-20488">
		<tag k="name" v="Langtjønnbekken" />
		<tag k="ssr:stedsnr" v="483872" />
		<tag k="waterway" v="stream" />
	</node>
	<node lat="62.03299721886799" lon="11.01886111779683" id="-20489">
		<tag k="name" v="Harsandbekktjønna" />
		<tag k="ssr:stedsnr" v="483877" />
		<tag k="waterway" v="stream" />
	</node>
	<node lat="61.60658888730171" lon="11.262891671392106" id="-20494">
		<tag k="name" v="Øvre Bergetjønna" />
		<tag k="natural" v="water" />
		<tag k="ssr:stedsnr" v="398448" />
	</node>
	<node lat="61.4892138891038" lon="11.23470555117351" id="-20496">
		<tag k="name" v="Sandbubekken" />
		<tag k="ssr:stedsnr" v="420304" />
		<tag k="waterway" v="stream" />
	</node>
	<node lat="61.50920278020535" lon="11.272525003331067" id="-20500">
		<tag k="name" v="Målbekken" />
		<tag k="ssr:stedsnr" v="420337" />
		<tag k="waterway" v="stream" />
	</node>
	<node lat="61.773483337431124" lon="11.508958337164367" id="-20505">
		<tag k="name" v="Nystufossen" />
		<tag k="natural" v="waterfall" />
		<tag k="ssr:stedsnr" v="421826" />
	</node>
	<node lat="62.02827221815642" lon="11.18397778599538" id="-20508">
		<tag k="name" v="Uglåkrokene" />
		<tag k="ssr:stedsnr" v="422303" />
		<tag k="waterway" v="stream" />
	</node>
	<node lat="61.440486106651385" lon="11.457672226030146" id="-20511">
		<tag k="name" v="Gravbekken" />
		<tag k="ssr:stedsnr" v="422292" />
		<tag k="waterway" v="stream" />
	</node>
	<node lat="61.78905000253192" lon="11.394813889665098" id="-20512">
		<tag k="name" v="Storøya" />
		<tag k="place" v="islet" />
		<tag k="ssr:stedsnr" v="422295" />
	</node>
	<node lat="62.00378610671492" lon="11.180666664149449" id="-20513">
		<tag k="name" v="Søvollsbekken" />
		<tag k="ssr:stedsnr" v="422300" />
		<tag k="waterway" v="stream" />
	</node>
	<node lat="62.00218611116353" lon="11.536669435556204" id="-20514">
		<tag k="name" v="Fjølbuneset" />
		<tag k="natural" v="cape" />
		<tag k="ssr:stedsnr" v="422404" />
	</node>
	<node lat="61.8354527779956" lon="10.867519435128694" id="-20518">
		<tag k="name" v="Kivoset" />
		<tag k="natural" v="bay" />
		<tag k="ssr:stedsnr" v="422594" />
	</node>
	<node lat="61.548772219371436" lon="11.1869194520006" id="-20522">
		<tag k="name" v="Femmerbekken" />
		<tag k="ssr:stedsnr" v="422835" />
		<tag k="waterway" v="stream" />
	</node>
	<node lat="61.97126111404174" lon="11.049969442286967" id="-20523">
		<tag k="loc_name" v="Myssmørbekken" />
		<tag k="name" v="Møsmørbekken" />
		<tag k="ssr:stedsnr" v="422857" />
		<tag k="waterway" v="stream" />
	</node>
	<node lat="61.745005552434975" lon="11.48379721291575" id="-20535">
		<tag k="name" v="Øvre Nysætertjønnan" />
		<tag k="natural" v="water" />
		<tag k="ssr:stedsnr" v="435273" />
		<tag k="water" v="lake" />
	</node>
	<node lat="61.76188333616192" lon="11.076308337882514" id="-20536">
		<tag k="name" v="Otta" />
		<tag k="ssr:stedsnr" v="435170" />
		<tag k="waterway" v="river" />
	</node>
	<node lat="61.837344447406565" lon="11.31076110823308" id="-20537">
		<tag k="name" v="Tønnesbekken" />
		<tag k="ssr:stedsnr" v="435171" />
		<tag k="waterway" v="stream" />
	</node>
	<node lat="61.947933337518116" lon="10.812213890181935" id="-20539">
		<tag k="name" v="Øvre Nordisætertjønna" />
		<tag k="natural" v="water" />
		<tag k="ssr:stedsnr" v="435369" />
	</node>
	<node lat="61.65065000205832" lon="11.262661115029582" id="-20542">
		<tag k="name" v="Kolungsbekken" />
		<tag k="ssr:stedsnr" v="435506" />
		<tag k="waterway" v="stream" />
	</node>
	<node lat="61.92025278067405" lon="10.686786111305986" id="-20545">
		<tag k="name" v="Tegninga" />
		<tag k="old_name" v="Teininga" />
		<tag k="ssr:stedsnr" v="435518" />
		<tag k="waterway" v="river" />
	</node>
	<node lat="61.90479166231553" lon="10.921852781765162" id="-20547">
		<tag k="name" v="Rååstjønna" />
		<tag k="natural" v="water" />
		<tag k="ssr:stedsnr" v="435402" />
	</node>
	<node lat="61.661502781207936" lon="11.177580555956789" id="-20555">
		<tag k="alt_name" v="Nordre Kvennbekken;Kvennbekken" />
		<tag k="name" v="Kvernbekken" />
		<tag k="ssr:stedsnr" v="435804" />
		<tag k="waterway" v="stream" />
	</node>
	<node lat="61.80724722219027" lon="11.591563891628168" id="-20558">
		<tag k="name" v="Øvre Ørsjøtjønna" />
		<tag k="natural" v="water" />
		<tag k="ssr:stedsnr" v="435965" />
	</node>
	<node lat="62.1533999980714" lon="11.240244447680412" id="-20567">
		<tag k="alt_name" v="Søndre Spekesjøen" />
		<tag k="name" v="Spekesjøen" />
		<tag k="natural" v="water" />
		<tag k="ssr:stedsnr" v="436366" />
		<tag k="water" v="lake" />
	</node>
	<node lat="61.58341388617435" lon="11.299711117233459" id="-20575">
		<tag k="name" v="Gultjønna" />
		<tag k="natural" v="water" />
		<tag k="ssr:stedsnr" v="455614" />
	</node>
	<node lat="62.00871388752911" lon="10.937127776117435" id="-20580">
		<tag k="name" v="Hundbekken" />
		<tag k="ssr:stedsnr" v="476660" />
		<tag k="waterway" v="stream" />
	</node>
	<node lat="61.52838486245457" lon="11.30240637487661" id="-20582">
		<tag k="name" v="Holmtjønna" />
		<tag k="natural" v="water" />
		<tag k="ssr:stedsnr" v="677285" />
	</node>
	<node lat="61.61622499762599" lon="11.687327779951497" id="-20583">
		<tag k="name" v="Bjørbekktjønna" />
		<tag k="natural" v="water" />
		<tag k="ssr:stedsnr" v="677293" />
	</node>
	<node lat="61.6429416655032" lon="11.524808335470524" id="-20584">
		<tag k="name" v="Stokkbekktjønna" />
		<tag k="natural" v="water" />
		<tag k="ssr:stedsnr" v="677299" />
	</node>
	<node lat="61.64283055182327" lon="11.506427771601931" id="-20585">
		<tag k="name" v="Blæsterbekktjønna" />
		<tag k="natural" v="water" />
		<tag k="ssr:stedsnr" v="677300" />
	</node>
	<node lat="61.58620833229184" lon="11.67564722351371" id="-20587">
		<tag k="name" v="Rokstadbutjønna" />
		<tag k="natural" v="water" />
		<tag k="ssr:stedsnr" v="677309" />
	</node>
	<node lat="61.57944722444602" lon="11.504580547323881" id="-20588">
		<tag k="name" v="Gransjøbekken" />
		<tag k="ssr:stedsnr" v="677310" />
		<tag k="waterway" v="stream" />
	</node>
	<node lat="61.67697778178385" lon="11.444494440569626" id="-20592">
		<tag k="alt_name" v="Blesterbekken" />
		<tag k="name" v="Blæsterbekken" />
		<tag k="ssr:stedsnr" v="677376" />
		<tag k="waterway" v="stream" />
	</node>
	<node lat="61.95199999974605" lon="10.484086111923796" id="-20593">
		<tag k="name" v="Aumskardbekken" />
		<tag k="ssr:stedsnr" v="677451" />
		<tag k="waterway" v="stream" />
	</node>
	<node lat="61.59853055304373" lon="11.365208334357897" id="-20595">
		<tag k="name" v="Bekkedalsbekken" />
		<tag k="ssr:stedsnr" v="677423" />
		<tag k="waterway" v="stream" />
	</node>
	<node lat="61.925166667716155" lon="10.508327772120035" id="-20596">
		<tag k="name" v="Blankgryta" />
		<tag k="ssr:stedsnr" v="677425" />
		<tag k="waterway" v="stream" />
	</node>
	<node lat="61.85431666549112" lon="10.675327768725039" id="-20599">
		<tag k="name" v="Storgrubba" />
		<tag k="ssr:stedsnr" v="677462" />
		<tag k="waterway" v="stream" />
	</node>
	<node lat="61.66969444245531" lon="11.241469443977733" id="-20602">
		<tag k="name" v="Nedre Lomtjønna" />
		<tag k="natural" v="water" />
		<tag k="ssr:stedsnr" v="677467" />
	</node>
	<node lat="61.64998333461358" lon="11.163302777288102" id="-20603">
		<tag k="name" v="Ulbekken" />
		<tag k="ssr:stedsnr" v="677474" />
		<tag k="waterway" v="stream" />
	</node>
	<node lat="61.552386110436665" lon="11.71536666020794" id="-20605">
		<tag k="name" v="Langtjønnan" />
		<tag k="natural" v="water" />
		<tag k="ssr:stedsnr" v="677704" />
		<tag k="water" v="lake" />
	</node>
	<node lat="62.083008330577165" lon="11.018736107276505" id="-20608">
		<tag k="name" v="Rundtjønnsbekken" />
		<tag k="ssr:stedsnr" v="678029" />
		<tag k="waterway" v="stream" />
	</node>
	<node lat="61.99021944498004" lon="11.367091663590777" id="-20617">
		<tag k="name" v="Drevsjøbekken" />
		<tag k="ssr:stedsnr" v="678236" />
		<tag k="waterway" v="stream" />
	</node>
	<node lat="61.99238333671205" lon="11.063624992629052" id="-20630">
		<tag k="name" v="Djupdalsbekken" />
		<tag k="ssr:stedsnr" v="678369" />
		<tag k="waterway" v="stream" />
	</node>
	<node lat="61.75519444785029" lon="11.473841675315256" id="-20633">
		<tag k="name" v="Vassbekktjønna" />
		<tag k="natural" v="water" />
		<tag k="ssr:stedsnr" v="481805" />
	</node>
	<node lat="62.01240833009403" lon="11.574933325363371" id="-20636">
		<tag k="name" v="Langkåsbekken" />
		<tag k="ssr:stedsnr" v="678455" />
		<tag k="waterway" v="stream" />
	</node>
	<node lat="61.77606388687623" lon="11.58297221415396" id="-20637">
		<tag k="name" v="Kanalen" />
		<tag k="ssr:stedsnr" v="481961" />
		<tag k="waterway" v="drain" />
	</node>
	<node lat="62.01153055279779" lon="11.605591668464239" id="-20639">
		<tag k="name" v="Svarttjønna" />
		<tag k="natural" v="water" />
		<tag k="ssr:stedsnr" v="678464" />
	</node>
	<node lat="62.016319448565774" lon="11.087727770843243" id="-20641">
		<tag k="name" v="Ratevja" />
		<tag k="natural" v="bay" />
		<tag k="ssr:stedsnr" v="482305" />
	</node>
	<node lat="61.90663610785935" lon="11.62345000640332" id="-20645">
		<tag k="name" v="Vedholmen" />
		<tag k="place" v="islet" />
		<tag k="ssr:stedsnr" v="678993" />
	</node>
	<node lat="61.57614166871169" lon="11.168880560359463" id="-20652">
		<tag k="name" v="Burudalsbekken" />
		<tag k="ssr:stedsnr" v="483859" />
		<tag k="waterway" v="stream" />
	</node>
	<node lat="61.461774218117746" lon="11.265991309583372" id="-20656">
		<tag k="fixme" v="multiple name tags, choose one and add the other to alt_name" />
		<tag k="name" v="Mørbekken;Mørtjønnbekken" />
		<tag k="ssr:stedsnr" v="493122" />
		<tag k="waterway" v="stream" />
	</node>
	<node lat="61.61497500156082" lon="11.602488897716565" id="-20659">
		<tag k="name" v="Kroktjønna" />
		<tag k="natural" v="water" />
		<tag k="ssr:stedsnr" v="495315" />
	</node>
	<node lat="61.7291111114304" lon="11.507130553883599" id="-20660">
		<tag k="alt_name" v="Nøklebekken, vestre;Vestre Nøkkelåbekken" />
		<tag k="name" v="Vestre Nøklebekken" />
		<tag k="ssr:stedsnr" v="495261" />
		<tag k="waterway" v="stream" />
	</node>
	<node lat="61.504549998497296" lon="11.19873055799624" id="-20661">
		<tag k="alt_name" v="Skjerbekken" />
		<tag k="name" v="Skjærbekken" />
		<tag k="ssr:stedsnr" v="495268" />
		<tag k="waterway" v="stream" />
	</node>
	<node lat="61.70665555536865" lon="11.107536111680066" id="-20663">
		<tag k="name" v="Åsmyrtjønna" />
		<tag k="natural" v="water" />
		<tag k="ssr:stedsnr" v="495428" />
	</node>
	<node lat="61.879908334491425" lon="10.681083337110502" id="-20665">
		<tag k="alt_name" v="Grøtenea" />
		<tag k="name" v="Grøttingnea" />
		<tag k="ssr:stedsnr" v="495468" />
		<tag k="waterway" v="river" />
	</node>
	<node lat="61.62053055669328" lon="11.332025007330689" id="-20668">
		<tag k="name" v="Flenbubekken" />
		<tag k="ssr:stedsnr" v="495485" />
		<tag k="waterway" v="stream" />
	</node>
	<node lat="61.53853333034548" lon="11.58188333445415" id="-20670">
		<tag k="name" v="Oterbekken" />
		<tag k="ssr:stedsnr" v="495716" />
		<tag k="waterway" v="stream" />
	</node>
	<node lat="61.78719722433391" lon="11.447819445097634" id="-20673">
		<tag k="name" v="Storbekken" />
		<tag k="ssr:stedsnr" v="496056" />
		<tag k="waterway" v="stream" />
	</node>
	<node lat="61.77650833626544" lon="11.05519722923231" id="-20678">
		<tag k="alt_name" v="Ottadammen" />
		<tag k="name" v="Ottdammen" />
		<tag k="place" v="locality" />
		<tag k="ssr:stedsnr" v="496218" />
	</node>
	<node lat="61.93865555145969" lon="11.007275001894595" id="-20682">
		<tag k="name" v="Fossbekken" />
		<tag k="ssr:stedsnr" v="496326" />
		<tag k="waterway" v="stream" />
	</node>
	<node lat="61.94384444584262" lon="10.996444436682872" id="-20684">
		<tag k="alt_name" v="Ormrustbekken" />
		<tag k="name" v="Ormrøstbekken" />
		<tag k="ssr:stedsnr" v="496333" />
		<tag k="waterway" v="stream" />
	</node>
	<node lat="61.9941666660363" lon="11.091536110758987" id="-20687">
		<tag k="alt_name" v="Unnsetåa" />
		<tag k="name" v="Unsetåa" />
		<tag k="ssr:stedsnr" v="496347" />
		<tag k="waterway" v="river" />
	</node>
	<node lat="62.14774999581953" lon="11.441808329883134" id="-20690">
		<tag k="alt_name" v="Skjærbekken" />
		<tag k="name" v="Skjerbekken" />
		<tag k="ssr:stedsnr" v="496421" />
		<tag k="waterway" v="stream" />
	</node>
	<node lat="62.04071666472069" lon="11.41388054702465" id="-20691">
		<tag k="name" v="Meiåa" />
		<tag k="ssr:stedsnr" v="496452" />
		<tag k="waterway" v="river" />
	</node>
	<node lat="61.75400443571479" lon="11.591381611708988" id="-20693">
		<tag k="name" v="Lomtjønnan" />
		<tag k="natural" v="water" />
		<tag k="ssr:stedsnr" v="496907" />
		<tag k="water" v="lake" />
	</node>
	<node lat="61.81567222662449" lon="11.577480552507799" id="-20694">
		<tag k="name" v="Tobakktjønna" />
		<tag k="natural" v="water" />
		<tag k="ssr:stedsnr" v="496947" />
	</node>
	<node lat="61.76905315621804" lon="11.160893488068654" id="-20701">
		<tag k="name" v="Gundersens land" />
		<tag k="place" v="islet" />
		<tag k="ssr:stedsnr" v="511069" />
	</node>
	<node lat="61.48686111263008" lon="11.439750009225522" id="-20702">
		<tag k="name" v="Storbyringtjønna" />
		<tag k="natural" v="water" />
		<tag k="ssr:stedsnr" v="519109" />
	</node>
	<node lat="61.44975833090322" lon="11.430047218386784" id="-20706">
		<tag k="name" v="Brennbekken" />
		<tag k="ssr:stedsnr" v="542175" />
		<tag k="waterway" v="stream" />
	</node>
	<node lat="61.62396944684195" lon="11.190722227103041" id="-20714">
		<tag k="name" v="Brakkodden" />
		<tag k="natural" v="cape" />
		<tag k="ssr:stedsnr" v="542885" />
	</node>
	<node lat="61.59541944902245" lon="11.390197216937066" id="-20716">
		<tag k="name" v="Bekkevadbekken" />
		<tag k="ssr:stedsnr" v="543075" />
		<tag k="waterway" v="stream" />
	</node>
	<node lat="61.937688885602064" lon="11.128880556138096" id="-20717">
		<tag k="name" v="Nordre Tjønna" />
		<tag k="natural" v="water" />
		<tag k="ssr:stedsnr" v="543081" />
	</node>
	<node lat="61.65038610773715" lon="11.155536115607203" id="-20719">
		<tag k="name" v="Langkloppbekken" />
		<tag k="ssr:stedsnr" v="543084" />
		<tag k="waterway" v="stream" />
	</node>
	<node lat="62.023186112832136" lon="11.028697220912607" id="-20730">
		<tag k="name" v="Røskfløybekken" />
		<tag k="ssr:stedsnr" v="543824" />
		<tag k="waterway" v="stream" />
	</node>
	<node lat="61.790736111048275" lon="11.260930564093417" id="-20731">
		<tag k="name" v="Langbekken" />
		<tag k="ssr:stedsnr" v="543868" />
		<tag k="waterway" v="stream" />
	</node>
	<node lat="61.70278611428391" lon="11.595427779295864" id="-20734">
		<tag k="name" v="Krokbekkdammen" />
		<tag k="ssr:stedsnr" v="543903" />
		<tag k="waterway" v="dam" />
	</node>
	<node lat="61.89680277420994" lon="11.630627786424276" id="-20736">
		<tag k="name" v="Rønningstjønna" />
		<tag k="natural" v="water" />
		<tag k="ssr:stedsnr" v="687268" />
	</node>
	<node lat="61.45563888811355" lon="11.263461104624156" id="-20738">
		<tag k="name" v="Mørtjønna" />
		<tag k="natural" v="water" />
		<tag k="ssr:stedsnr" v="554121" />
	</node>
	<node lat="61.7165749957414" lon="11.300780552637969" id="-20742">
		<tag k="name" v="Misterlibekken" />
		<tag k="ssr:stedsnr" v="555375" />
		<tag k="waterway" v="stream" />
	</node>
	<node lat="61.96036388850399" lon="10.497824999914027" id="-20743">
		<tag k="name" v="Aumskardtjønnan" />
		<tag k="natural" v="water" />
		<tag k="ssr:stedsnr" v="555384" />
		<tag k="water" v="lake" />
	</node>
	<node lat="61.59033888476949" lon="11.300958336503244" id="-20744">
		<tag k="alt_name" v="Valsjøen, nørdre" />
		<tag k="name" v="Nordre Valsjøen" />
		<tag k="natural" v="water" />
		<tag k="ssr:stedsnr" v="555389" />
	</node>
	<node lat="61.59281111049869" lon="11.551683325253217" id="-20745">
		<tag k="name" v="Bortjønna" />
		<tag k="natural" v="water" />
		<tag k="ssr:stedsnr" v="555273" />
	</node>
	<node lat="61.892477777527716" lon="10.905702774726885" id="-20748">
		<tag k="name" v="Fossbekken" />
		<tag k="ssr:stedsnr" v="556163" />
		<tag k="waterway" v="stream" />
	</node>
	<node lat="61.97073888944652" lon="11.542999996499146" id="-20749">
		<tag k="name" v="Gammelbuodden" />
		<tag k="natural" v="cape" />
		<tag k="ssr:stedsnr" v="556117" />
	</node>
	<node lat="61.82940277379141" lon="10.977361110757663" id="-20754">
		<tag k="name" v="Gunnarstjønna" />
		<tag k="natural" v="water" />
		<tag k="ssr:stedsnr" v="556209" />
	</node>
	<node lat="61.57024721942387" lon="11.40986667007922" id="-20761">
		<tag k="alt_name" v="Klettbekken" />
		<tag k="name" v="Søre Klettbekken" />
		<tag k="ssr:stedsnr" v="556503" />
		<tag k="waterway" v="stream" />
	</node>
	<node lat="61.760424998389354" lon="11.578941663442789" id="-20764">
		<tag k="name" v="Lomtjønnbekken" />
		<tag k="ssr:stedsnr" v="556925" />
		<tag k="waterway" v="stream" />
	</node>
	<node lat="61.828081419868624" lon="11.69203289490304" id="-20765">
		<tag k="name" v="Stortjønna" />
		<tag k="natural" v="water" />
		<tag k="ssr:stedsnr" v="557948" />
	</node>
	<node lat="61.884280553579394" lon="11.666849994488636" id="-20768">
		<tag k="name" v="Håholmen" />
		<tag k="place" v="island" />
		<tag k="ssr:stedsnr" v="565268" />
	</node>
	<node lat="61.752375001141516" lon="11.16183055842" id="-20772">
		<tag k="name" v="Spondalsbekken" />
		<tag k="ssr:stedsnr" v="572110" />
		<tag k="waterway" v="stream" />
	</node>
	<node lat="61.691655558866316" lon="11.183208330426533" id="-20782">
		<tag k="name" v="Åsbekken" />
		<tag k="ssr:stedsnr" v="602149" />
		<tag k="waterway" v="stream" />
	</node>
	<node lat="61.46151388987342" lon="11.311688886839038" id="-20784">
		<tag k="name" v="Raskhammeren" />
		<tag k="natural" v="cape" />
		<tag k="ssr:stedsnr" v="602312" />
	</node>
	<node lat="61.749627775090325" lon="11.335969435385165" id="-20786">
		<tag k="name" v="Gjitlaugmyrbekken" />
		<tag k="ssr:stedsnr" v="602419" />
		<tag k="waterway" v="stream" />
	</node>
	<node lat="62.03489444732634" lon="11.135394449754562" id="-20795">
		<tag k="name" v="Rugsvebekken" />
		<tag k="ssr:stedsnr" v="603306" />
		<tag k="waterway" v="stream" />
	</node>
	<node lat="62.04089166950617" lon="11.137577770787914" id="-20796">
		<tag k="name" v="Økjotbekken" />
		<tag k="ssr:stedsnr" v="603314" />
		<tag k="waterway" v="stream" />
	</node>
	<node lat="61.981555552959804" lon="11.088513890321662" id="-20798">
		<tag k="name" v="Kverningletet" />
		<tag k="place" v="locality" />
		<tag k="ssr:stedsnr" v="603459" />
	</node>
	<node lat="61.83983333544568" lon="10.88098333384038" id="-20806">
		<tag k="name" v="Vestbyøyra" />
		<tag k="place" v="islet" />
		<tag k="ssr:stedsnr" v="604615" />
	</node>
	<node lat="61.85651944421583" lon="10.900330555283979" id="-20809">
		<tag k="name" v="Sandbekken" />
		<tag k="ssr:stedsnr" v="604600" />
		<tag k="waterway" v="stream" />
	</node>
	<node lat="61.52601666924085" lon="11.430824991187723" id="-20821">
		<tag k="name" v="Drykkjetjønna" />
		<tag k="natural" v="water" />
		<tag k="ssr:stedsnr" v="616295" />
	</node>
	<node lat="61.853977774001144" lon="10.645472224362685" id="-20824">
		<tag k="name" v="Hanestadnea" />
		<tag k="ssr:stedsnr" v="616454" />
		<tag k="waterway" v="river" />
	</node>
	<node lat="61.67059166247901" lon="11.248433332352668" id="-20825">
		<tag k="name" v="Midtre Lomtjønna" />
		<tag k="natural" v="water" />
		<tag k="ssr:stedsnr" v="616458" />
	</node>
	<node lat="61.52262222069746" lon="11.474633325707979" id="-20828">
		<tag k="name" v="Veslflena" />
		<tag k="ssr:stedsnr" v="616708" />
		<tag k="waterway" v="stream" />
	</node>
	<node lat="61.82259166473313" lon="11.133027769749855" id="-20832">
		<tag k="name" v="Signestjønna" />
		<tag k="natural" v="water" />
		<tag k="ssr:stedsnr" v="617053" />
	</node>
	<node lat="61.818183329343576" lon="10.909427786801492" id="-20838">
		<tag k="name" v="Kiva" />
		<tag k="ssr:stedsnr" v="617210" />
		<tag k="waterway" v="river" />
	</node>
	<node lat="61.978005552310066" lon="11.538508328755235" id="-20840">
		<tag k="name" v="Bjøntevika" />
		<tag k="natural" v="bay" />
		<tag k="ssr:stedsnr" v="617138" />
	</node>
	<node lat="61.92098889145014" lon="11.590230564944816" id="-20842">
		<tag k="name" v="Langvika" />
		<tag k="natural" v="bay" />
		<tag k="ssr:stedsnr" v="617141" />
	</node>
	<node lat="61.85480833440359" lon="11.023875009570645" id="-20844">
		<tag k="alt_name" v="Harsjøen" />
		<tag k="name" v="Harrsjøen" />
		<tag k="natural" v="water" />
		<tag k="ssr:stedsnr" v="617186" />
		<tag k="water" v="lake" />
	</node>
	<node lat="62.09917777360566" lon="11.363200000531666" id="-20852">
		<tag k="name" v="Kløftbekken" />
		<tag k="ssr:stedsnr" v="617431" />
		<tag k="waterway" v="stream" />
	</node>
	<node lat="61.92862499565124" lon="10.937872222815885" id="-20857">
		<tag k="alt_name" v="Aursjøane" />
		<tag k="name" v="Nordre Aursjøen" />
		<tag k="natural" v="water" />
		<tag k="ssr:stedsnr" v="617400" />
		<tag k="water" v="lake" />
	</node>
	<node lat="61.794091662743675" lon="11.65045277210789" id="-20859">
		<tag k="name" v="Engjottjønna" />
		<tag k="natural" v="water" />
		<tag k="ssr:stedsnr" v="617935" />
	</node>
	<node lat="61.89871389197585" lon="11.268405548929938" id="-20861">
		<tag k="name" v="Skånsjøen" />
		<tag k="natural" v="water" />
		<tag k="ssr:stedsnr" v="626319" />
		<tag k="water" v="lake" />
	</node>
	<node lat="61.76106944274342" lon="11.251477781513216" id="-20862">
		<tag k="name" v="Leirbekktjønna" />
		<tag k="natural" v="water" />
		<tag k="ssr:stedsnr" v="626279" />
	</node>
	<node lat="61.9202222189866" lon="11.129333338816224" id="-20871">
		<tag k="name" v="Spøkelsesbekken" />
		<tag k="ssr:stedsnr" v="632117" />
		<tag k="waterway" v="stream" />
	</node>
	<node lat="61.90466388864258" lon="11.0224388967922" id="-20879">
		<tag k="name" v="Tronsjøbekken" />
		<tag k="ssr:stedsnr" v="632447" />
		<tag k="waterway" v="stream" />
	</node>
	<node lat="61.579363891536715" lon="11.295719447765345" id="-20887">
		<tag k="name" v="Sandbekkvika" />
		<tag k="natural" v="bay" />
		<tag k="ssr:stedsnr" v="663320" />
	</node>
	<node lat="61.80846388651214" lon="11.056236118924362" id="-20889">
		<tag k="name" v="Femmerbekken" />
		<tag k="ssr:stedsnr" v="663732" />
		<tag k="waterway" v="stream" />
	</node>
	<node lat="61.44444167024774" lon="11.330636105582043" id="-20902">
		<tag k="name" v="Nakhuhammeren" />
		<tag k="natural" v="cape" />
		<tag k="ssr:stedsnr" v="664913" />
	</node>
	<node lat="61.724983333406136" lon="11.204530562988921" id="-20907">
		<tag k="name" v="Løvfjorden" />
		<tag k="natural" v="water" />
		<tag k="ssr:stedsnr" v="665684" />
		<tag k="water" v="lake" />
	</node>
	<node lat="61.47643055486173" lon="11.353963896455" id="-20914">
		<tag k="name" v="Raskbekken" />
		<tag k="ssr:stedsnr" v="676109" />
		<tag k="waterway" v="stream" />
	</node>
	<node lat="61.706914699036965" lon="11.420071344092246" id="-20918">
		<tag k="fixme" v="multiple name tags, choose one and add the other to alt_name" />
		<tag k="name" v="Jønnbekken;Granåsbekken" />
		<tag k="ssr:stedsnr" v="677414" />
		<tag k="waterway" v="stream" />
	</node>
	<node lat="61.937130558642515" lon="10.512044439381453" id="-20919">
		<tag k="name" v="Lykksandbekken" />
		<tag k="ssr:stedsnr" v="677429" />
		<tag k="waterway" v="stream" />
	</node>
	<node lat="61.557963887526874" lon="11.177111106472625" id="-20920">
		<tag k="name" v="Sagbekken" />
		<tag k="ssr:stedsnr" v="677435" />
		<tag k="waterway" v="stream" />
	</node>
	<node lat="61.6948944406444" lon="11.647477771205974" id="-20921">
		<tag k="name" v="Tørråstjønna" />
		<tag k="natural" v="water" />
		<tag k="ssr:stedsnr" v="677335" />
	</node>
	<node lat="61.65408055179972" lon="11.602686106934884" id="-20922">
		<tag k="name" v="Fjellkroken" />
		<tag k="place" v="locality" />
		<tag k="ssr:stedsnr" v="677341" />
	</node>
	<node lat="61.51061110798257" lon="11.620636110506164" id="-20926">
		<tag k="name" v="Lomtjønna" />
		<tag k="natural" v="water" />
		<tag k="ssr:stedsnr" v="677689" />
	</node>
	<node lat="61.530022218516194" lon="11.520511114810711" id="-20927">
		<tag k="name" v="Svarttjønna" />
		<tag k="natural" v="water" />
		<tag k="ssr:stedsnr" v="677699" />
	</node>
	<node lat="61.53519166475199" lon="11.671802773457946" id="-20928">
		<tag k="name" v="Døvhanstjønna" />
		<tag k="natural" v="water" />
		<tag k="ssr:stedsnr" v="677702" />
	</node>
	<node lat="61.97991111155684" lon="11.507091660526845" id="-20934">
		<tag k="name" v="Bjøntevikbekken" />
		<tag k="ssr:stedsnr" v="678085" />
		<tag k="waterway" v="stream" />
	</node>
	<node lat="61.75785110431725" lon="10.861296767172865" id="-20938">
		<tag k="name" v="Svarttjønna" />
		<tag k="natural" v="water" />
		<tag k="ssr:stedsnr" v="678225" />
	</node>
	<node lat="61.829225001766424" lon="10.814338891223624" id="-20941">
		<tag k="name" v="Storbekken" />
		<tag k="ssr:stedsnr" v="678179" />
		<tag k="waterway" v="stream" />
	</node>
	<node lat="62.0796694403031" lon="11.489752767959175" id="-20947">
		<tag k="name" v="Nordre Kroketbekken" />
		<tag k="ssr:stedsnr" v="678434" />
		<tag k="waterway" v="stream" />
	</node>
	<node lat="62.0044555544822" lon="11.187097227367383" id="-20948">
		<tag k="name" v="Fjellbekken" />
		<tag k="ssr:stedsnr" v="678479" />
		<tag k="waterway" v="stream" />
	</node>
	<node lat="61.91835555390818" lon="10.997666665640608" id="-20950">
		<tag k="name" v="Hammerskartjønna" />
		<tag k="natural" v="water" />
		<tag k="ssr:stedsnr" v="678393" />
	</node>
	<node lat="61.89591666770714" lon="11.658666664400098" id="-20951">
		<tag k="alt_name" v="Vioddholmen" />
		<tag k="name" v="Vioddholmene" />
		<tag k="place" v="islet" />
		<tag k="ssr:stedsnr" v="678975" />
	</node>
	<node lat="61.85476388849885" lon="11.166494435691783" id="-20953">
		<tag k="name" v="Sandbekken" />
		<tag k="ssr:stedsnr" v="687265" />
		<tag k="waterway" v="stream" />
	</node>
	<node lat="61.77501111458872" lon="11.171883327494914" id="-20961">
		<tag k="name" v="Gammelåa" />
		<tag k="ssr:stedsnr" v="694390" />
		<tag k="waterway" v="river" />
	</node>
	<node lat="61.797330551426796" lon="11.094094450646262" id="-20962">
		<tag k="name" v="Enerbekken" />
		<tag k="ssr:stedsnr" v="694479" />
		<tag k="waterway" v="stream" />
	</node>
	<node lat="61.4835277795247" lon="11.49014166407197" id="-20963">
		<tag k="name" v="Veslebyringtjønna" />
		<tag k="natural" v="water" />
		<tag k="old_name" v="Byringstjørnan" />
		<tag k="ssr:stedsnr" v="701224" />
	</node>
	<node lat="61.75779166506377" lon="10.851591660449724" id="-20964">
		<tag k="name" v="Tjønnbekken" />
		<tag k="ssr:stedsnr" v="701760" />
		<tag k="waterway" v="stream" />
	</node>
	<node lat="62.12047500077706" lon="10.972774991044304" id="-20969">
		<tag k="name" v="Kvannskardbekken" />
		<tag k="ssr:stedsnr" v="720070" />
		<tag k="waterway" v="stream" />
	</node>
	<node lat="61.577958334450464" lon="11.294733337165587" id="-20971">
		<tag k="name" v="Buvika" />
		<tag k="natural" v="bay" />
		<tag k="ssr:stedsnr" v="723320" />
	</node>
	<node lat="61.992047220329354" lon="11.091444436113253" id="-20974">
		<tag k="name" v="Birkeneset" />
		<tag k="natural" v="cape" />
		<tag k="ssr:stedsnr" v="724215" />
	</node>
	<node lat="61.602000000054495" lon="11.371047227454797" id="-20981">
		<tag k="name" v="Nordre Libekken" />
		<tag k="ssr:stedsnr" v="725110" />
		<tag k="waterway" v="stream" />
	</node>
	<node lat="62.05249722666778" lon="11.487408329509535" id="-20997">
		<tag k="name" v="Jenstuevja" />
		<tag k="natural" v="bay" />
		<tag k="ssr:stedsnr" v="726444" />
	</node>
	<node lat="61.82531389061371" lon="10.977630551606442" id="-21001">
		<tag k="name" v="Søbekken" />
		<tag k="ssr:stedsnr" v="726817" />
		<tag k="waterway" v="stream" />
	</node>
	<node lat="61.92214166542678" lon="10.973983342712751" id="-21002">
		<tag k="name" v="Fossbekkulpen" />
		<tag k="natural" v="water" />
		<tag k="ssr:stedsnr" v="726788" />
		<tag k="water" v="pond" />
	</node>
	<node lat="61.450513887109054" lon="11.416375000915428" id="-21005">
		<tag k="name" v="Skramslitjønna" />
		<tag k="natural" v="water" />
		<tag k="ssr:stedsnr" v="736123" />
	</node>
	<node lat="61.21996944470864" lon="11.492311111579792" id="-21008">
		<tag k="name" v="Rena" />
		<tag k="ssr:stedsnr" v="736316" />
		<tag k="waterway" v="river" />
	</node>
	<node lat="61.865558333041456" lon="11.123786117520321" id="-21009">
		<tag k="alt_name" v="Jupovbekken" />
		<tag k="name" v="Djupøubekken" />
		<tag k="ssr:stedsnr" v="738008" />
		<tag k="waterway" v="stream" />
	</node>
	<node lat="61.620691664842" lon="11.60163889722734" id="-21014">
		<tag k="name" v="Haugtjønna" />
		<tag k="natural" v="water" />
		<tag k="ssr:stedsnr" v="738325" />
	</node>
	<node lat="61.6505194413153" lon="11.689008339022308" id="-21016">
		<tag k="name" v="Gjeddtjønna" />
		<tag k="natural" v="water" />
		<tag k="ssr:stedsnr" v="738365" />
	</node>
	<node lat="61.63539999922392" lon="11.305411117146491" id="-21020">
		<tag k="name" v="Østigardsbekken" />
		<tag k="ssr:stedsnr" v="738463" />
		<tag k="waterway" v="stream" />
	</node>
	<node lat="61.63357499674647" lon="11.224211116032434" id="-21022">
		<tag k="alt_name" v="Mefurubekken" />
		<tag k="name" v="Midfurubekken" />
		<tag k="ssr:stedsnr" v="738469" />
		<tag k="waterway" v="stream" />
	</node>
	<node lat="61.568223512207844" lon="11.740788410576764" id="-21025">
		<tag k="name" v="Ryensjøen" />
		<tag k="natural" v="water" />
		<tag k="ssr:stedsnr" v="738731" />
		<tag k="water" v="lake" />
	</node>
	<node lat="61.68192500403351" lon="11.54827499847777" id="-21026">
		<tag k="name" v="Kvitåsbekken" />
		<tag k="ssr:stedsnr" v="738805" />
		<tag k="waterway" v="stream" />
	</node>
	<node lat="61.53130832890814" lon="11.18685278646207" id="-21027">
		<tag k="name" v="Sæterbekken" />
		<tag k="ssr:stedsnr" v="738806" />
		<tag k="waterway" v="stream" />
	</node>
	<node lat="62.076223048357285" lon="10.99656577848661" id="-21028">
		<tag k="name" v="Rundtjønna" />
		<tag k="natural" v="water" />
		<tag k="ssr:stedsnr" v="739014" />
	</node>
	<node lat="62.16954444489866" lon="11.177863888835486" id="-21031">
		<tag k="alt_name" v="Spekesjøen, nordre" />
		<tag k="name" v="Nordre Spekesjøen" />
		<tag k="natural" v="water" />
		<tag k="ssr:stedsnr" v="739112" />
		<tag k="water" v="lake" />
	</node>
	<node lat="61.88486389248379" lon="10.927488889596647" id="-21032">
		<tag k="name" v="Grasbekken" />
		<tag k="ssr:stedsnr" v="739114" />
		<tag k="waterway" v="stream" />
	</node>
	<node lat="62.09848333318918" lon="11.098019436964123" id="-21037">
		<tag k="name" v="Langklettjønna" />
		<tag k="natural" v="water" />
		<tag k="ssr:stedsnr" v="739096" />
	</node>
	<node lat="61.75757316620629" lon="10.994972520711892" id="-21039">
		<tag k="name" v="Svarttjønna" />
		<tag k="natural" v="water" />
		<tag k="ssr:stedsnr" v="739205" />
	</node>
	<node lat="61.77497500137605" lon="10.850555560651872" id="-21044">
		<tag k="name" v="Vasstasjonsbekken" />
		<tag k="ssr:stedsnr" v="739195" />
		<tag k="waterway" v="stream" />
	</node>
	<node lat="62.17212778079432" lon="11.231141671338635" id="-21047">
		<tag k="name" v="Vedhundrobekken" />
		<tag k="ssr:stedsnr" v="739363" />
		<tag k="waterway" v="stream" />
	</node>
	<node lat="61.93291388563333" lon="11.36033054589123" id="-21048">
		<tag k="name" v="Hovardsbekken" />
		<tag k="ssr:stedsnr" v="748276" />
		<tag k="waterway" v="stream" />
	</node>
	<node lat="61.75514166276284" lon="11.157169440989751" id="-21055">
		<tag k="name" v="Lysdammen" />
		<tag k="natural" v="water" />
		<tag k="ssr:stedsnr" v="754104" />
	</node>
	<node lat="61.749516785064294" lon="10.856963839704656" id="-21060">
		<tag k="name" v="Hjortetjønnan" />
		<tag k="natural" v="water" />
		<tag k="ssr:stedsnr" v="760995" />
		<tag k="water" v="lake" />
	</node>
	<node lat="61.92311388640901" lon="11.150938896056001" id="-21067">
		<tag k="name" v="Kanalen" />
		<tag k="ssr:stedsnr" v="906191" />
		<tag k="waterway" v="drain" />
	</node>
	<node lat="61.7466694459496" lon="11.12694445077552" id="-21068">
		<tag k="name" v="Skjærbekken" />
		<tag k="ssr:stedsnr" v="906194" />
		<tag k="waterway" v="stream" />
	</node>
	<node lat="61.609327777127604" lon="11.227624997639058" id="-21070">
		<tag k="name" v="Strandvollvika" />
		<tag k="natural" v="bay" />
		<tag k="ssr:stedsnr" v="906335" />
	</node>
	<node lat="61.66421666928674" lon="11.351716667796861" id="-21071">
		<tag k="name" v="Storbekken" />
		<tag k="ssr:stedsnr" v="906389" />
		<tag k="waterway" v="stream" />
	</node>
	<node lat="61.818313886084894" lon="10.967363887417754" id="-21077">
		<tag k="name" v="Langåsbekken" />
		<tag k="ssr:stedsnr" v="906824" />
		<tag k="waterway" v="stream" />
	</node>
	<node lat="61.77633889227011" lon="11.61174167609949" id="-21080">
		<tag k="name" v="Tjøllåsbekken" />
		<tag k="ssr:stedsnr" v="906962" />
		<tag k="waterway" v="stream" />
	</node>
	<node lat="61.5551444484082" lon="11.408444443666212" id="-21081">
		<tag k="name" v="Damfløta" />
		<tag k="natural" v="water" />
		<tag k="ssr:stedsnr" v="907066" />
		<tag k="water" v="lake" />
	</node>
	<node lat="61.666305551631865" lon="11.188172212729654" id="-21082">
		<tag k="name" v="Tørbekken" />
		<tag k="ssr:stedsnr" v="908076" />
		<tag k="waterway" v="stream" />
	</node>
	<node lat="61.786841670208126" lon="11.31343610789581" id="-21087">
		<tag k="name" v="Maurbekken" />
		<tag k="ssr:stedsnr" v="907874" />
		<tag k="waterway" v="stream" />
	</node>
	<node lat="61.43752777690317" lon="11.419594445248936" id="-21089">
		<tag k="name" v="Øvre Brennbekken" />
		<tag k="ssr:stedsnr" v="907883" />
		<tag k="waterway" v="stream" />
	</node>
	<node lat="61.689961107982796" lon="11.588622216404438" id="-21091">
		<tag k="name" v="Gammelvollbekken" />
		<tag k="ssr:stedsnr" v="907900" />
		<tag k="waterway" v="stream" />
	</node>
	<node lat="62.1024388926327" lon="11.02287221951831" id="-21093">
		<tag k="name" v="Storodden" />
		<tag k="natural" v="cape" />
		<tag k="ssr:stedsnr" v="908345" />
	</node>
	<node lat="61.86163888495053" lon="11.729600005770154" id="-21094">
		<tag k="name" v="Hølen" />
		<tag k="place" v="locality" />
		<tag k="ssr:stedsnr" v="908410" />
	</node>
	<node lat="61.667008330265624" lon="11.218088887142365" id="-21097">
		<tag k="name" v="Lilleodden" />
		<tag k="natural" v="cape" />
		<tag k="ssr:stedsnr" v="908531" />
	</node>
	<node lat="61.84784722321534" lon="10.902636120018064" id="-21099">
		<tag k="name" v="Killingholmen" />
		<tag k="place" v="islet" />
		<tag k="ssr:stedsnr" v="908622" />
	</node>
	<node lat="62.11536944087543" lon="11.442974995317327" id="-21100">
		<tag k="name" v="Skrebekken" />
		<tag k="ssr:stedsnr" v="908441" />
		<tag k="waterway" v="stream" />
	</node>
	<node lat="61.97339444403931" lon="11.540572213472986" id="-21101">
		<tag k="name" v="Gammelbuvika" />
		<tag k="natural" v="bay" />
		<tag k="ssr:stedsnr" v="908447" />
	</node>
	<node lat="62.02214721865498" lon="10.905902777549167" id="-21111">
		<tag k="name" v="Langmyrbekken" />
		<tag k="ssr:stedsnr" v="780521" />
		<tag k="waterway" v="stream" />
	</node>
	<node lat="61.774116666075024" lon="10.943786101993043" id="-21118">
		<tag k="name" v="Saltstenputten" />
		<tag k="natural" v="water" />
		<tag k="ssr:stedsnr" v="785406" />
		<tag k="water" v="pond" />
	</node>
	<node lat="61.94842777594945" lon="11.085372224423272" id="-21119">
		<tag k="name" v="Henriksevja" />
		<tag k="natural" v="bay" />
		<tag k="ssr:stedsnr" v="786105" />
	</node>
	<node lat="61.618188893313786" lon="11.19389722011743" id="-21129">
		<tag k="name" v="Svartodden" />
		<tag k="natural" v="cape" />
		<tag k="ssr:stedsnr" v="786920" />
	</node>
	<node lat="61.70373333450173" lon="11.27982500116681" id="-21130">
		<tag k="name" v="Skarbekken" />
		<tag k="ssr:stedsnr" v="786656" />
		<tag k="waterway" v="stream" />
	</node>
	<node lat="61.53880832978713" lon="11.177463881886835" id="-21134">
		<tag k="name" v="Rangkløvbekken" />
		<tag k="ssr:stedsnr" v="786823" />
		<tag k="waterway" v="stream" />
	</node>
	<node lat="61.60248333350188" lon="11.179149992375484" id="-21140">
		<tag k="name" v="Stortjønna" />
		<tag k="natural" v="water" />
		<tag k="ssr:stedsnr" v="798403" />
	</node>
	<node lat="61.5994750009921" lon="11.260966661945105" id="-21142">
		<tag k="name" v="Stortjønna" />
		<tag k="natural" v="water" />
		<tag k="ssr:stedsnr" v="798402" />
	</node>
	<node lat="61.86111388556208" lon="11.400172219999238" id="-21143">
		<tag k="name" v="Tissvoltjønna" />
		<tag k="natural" v="water" />
		<tag k="ssr:stedsnr" v="799021" />
	</node>
	<node lat="61.97257222673212" lon="10.936899990798876" id="-21148">
		<tag k="name" v="Barkaldtjønna" />
		<tag k="natural" v="water" />
		<tag k="ssr:stedsnr" v="799350" />
	</node>
	<node lat="61.72968333523304" lon="11.118933338163528" id="-21152">
		<tag k="name" v="Gammelsætertjønna" />
		<tag k="natural" v="water" />
		<tag k="ssr:stedsnr" v="799413" />
	</node>
	<node lat="61.740672224128254" lon="11.455624995643092" id="-21153">
		<tag k="name" v="Ytre Nysætertjønna" />
		<tag k="natural" v="water" />
		<tag k="ssr:stedsnr" v="799415" />
	</node>
	<node lat="61.72898333001832" lon="11.279825002286213" id="-21155">
		<tag k="name" v="Bekkedalsbekken" />
		<tag k="ssr:stedsnr" v="799418" />
		<tag k="waterway" v="stream" />
	</node>
	<node lat="61.51510277980902" lon="11.719755550038231" id="-21156">
		<tag k="name" v="Veslbekken" />
		<tag k="ssr:stedsnr" v="799731" />
		<tag k="waterway" v="stream" />
	</node>
	<node lat="61.56068055964378" lon="11.547058329086969" id="-21158">
		<tag k="name" v="Villfallet" />
		<tag k="place" v="locality" />
		<tag k="ssr:stedsnr" v="799744" />
	</node>
	<node lat="62.067394448680325" lon="10.966630560690511" id="-21164">
		<tag k="alt_name" v="Skardsjøen" />
		<tag k="name" v="Skårsjøen" />
		<tag k="natural" v="water" />
		<tag k="ssr:stedsnr" v="800015" />
		<tag k="water" v="lake" />
	</node>
	<node lat="61.87851388725787" lon="11.626427784402404" id="-21168">
		<tag k="alt_name" v="Ørsjøbekken, nordre" />
		<tag k="name" v="Nordre Ørsjøbekken" />
		<tag k="ssr:stedsnr" v="800978" />
		<tag k="waterway" v="stream" />
	</node>
	<node lat="61.872936114601785" lon="11.690308343123695" id="-21169">
		<tag k="name" v="Midthåen" />
		<tag k="natural" v="water" />
		<tag k="ssr:stedsnr" v="800980" />
	</node>
	<node lat="61.74342222032108" lon="11.19946666257084" id="-21176">
		<tag k="name" v="Lomnessjøen" />
		<tag k="natural" v="water" />
		<tag k="ssr:stedsnr" v="920375" />
		<tag k="water" v="lake" />
	</node>
	<node lat="61.75326111028233" lon="11.1809305536016" id="-21181">
		<tag k="name" v="Røstvika" />
		<tag k="natural" v="bay" />
		<tag k="ssr:stedsnr" v="815075" />
	</node>
	<node lat="62.0781388886856" lon="11.186841669527894" id="-21188">
		<tag k="name" v="Risbrubekken" />
		<tag k="ssr:stedsnr" v="921031" />
		<tag k="waterway" v="stream" />
	</node>
	<node lat="61.64659722468706" lon="11.66415556074946" id="-21190">
		<tag k="name" v="Osdalssjøtjønna" />
		<tag k="natural" v="water" />
		<tag k="ssr:stedsnr" v="920314" />
	</node>
	<node lat="61.69141111380869" lon="11.067349994507284" id="-21192">
		<tag k="name" v="Storbekken" />
		<tag k="ssr:stedsnr" v="920186" />
		<tag k="waterway" v="stream" />
	</node>
	<node lat="61.70865833377758" lon="11.629313891781967" id="-21194">
		<tag k="alt_name" v="Tøråsbekken" />
		<tag k="name" v="Tørråsbekken" />
		<tag k="ssr:stedsnr" v="920265" />
		<tag k="waterway" v="stream" />
	</node>
	<node lat="61.56152222135976" lon="11.283594453352238" id="-21196">
		<tag k="name" v="Nørdsttjønna" />
		<tag k="natural" v="water" />
		<tag k="ssr:stedsnr" v="920282" />
	</node>
	<node lat="61.768113885954186" lon="10.937833323815479" id="-21208">
		<tag k="name" v="Lorttjønna" />
		<tag k="natural" v="water" />
		<tag k="ssr:stedsnr" v="822203" />
	</node>
	<node lat="61.64631944099465" lon="11.129933338018386" id="-21209">
		<tag k="name" v="Lykkjetjønna" />
		<tag k="natural" v="water" />
		<tag k="ssr:stedsnr" v="822206" />
	</node>
	<node lat="61.93859444833166" lon="11.205163887153715" id="-21213">
		<tag k="name" v="Miltjønna" />
		<tag k="natural" v="water" />
		<tag k="ssr:stedsnr" v="921247" />
	</node>
	<node lat="61.90400277703521" lon="11.117030551681896" id="-21214">
		<tag k="alt_name" v="Haukåa, søre" />
		<tag k="name" v="Søndre Haukåa" />
		<tag k="ssr:stedsnr" v="921249" />
		<tag k="waterway" v="stream" />
	</node>
	<node lat="61.46134722427248" lon="11.251191665400015" id="-21215">
		<tag k="name" v="Trolltjønnbekken" />
		<tag k="ssr:stedsnr" v="823465" />
		<tag k="waterway" v="stream" />
	</node>
	<node lat="61.89569444400819" lon="11.016636108634437" id="-21216">
		<tag k="name" v="Gåstjønna" />
		<tag k="natural" v="water" />
		<tag k="ssr:stedsnr" v="921366" />
	</node>
	<node lat="62.15888333134958" lon="11.437233333467887" id="-21218">
		<tag k="alt_name" v="Finnrobekken" />
		<tag k="name" v="Finnbekken" />
		<tag k="ssr:stedsnr" v="921409" />
		<tag k="waterway" v="stream" />
	</node>
	<node lat="61.48667500337926" lon="11.57065278300385" id="-21220">
		<tag k="name" v="Høgåsbekken" />
		<tag k="ssr:stedsnr" v="935260" />
		<tag k="waterway" v="stream" />
	</node>
	<node lat="61.92627222588777" lon="11.17023332759064" id="-21222">
		<tag k="name" v="Fjellbekken" />
		<tag k="ssr:stedsnr" v="845204" />
		<tag k="waterway" v="stream" />
	</node>
	<node lat="61.730319448005275" lon="11.205105547824042" id="-21224">
		<tag k="name" v="Lortvika" />
		<tag k="natural" v="bay" />
		<tag k="ssr:stedsnr" v="845589" />
	</node>
	<node lat="61.67065555151855" lon="11.075574994563995" id="-21235">
		<tag k="name" v="Rokkdammen" />
		<tag k="ssr:stedsnr" v="847846" />
		<tag k="waterway" v="dam" />
	</node>
	<node lat="61.47960833616263" lon="11.459161112950348" id="-21240">
		<tag k="name" v="Storbekken" />
		<tag k="ssr:stedsnr" v="858109" />
		<tag k="waterway" v="stream" />
	</node>
	<node lat="61.46372777719884" lon="11.473961108657358" id="-21242">
		<tag k="name" v="Ygletjønna" />
		<tag k="natural" v="water" />
		<tag k="ssr:stedsnr" v="858212" />
	</node>
	<node lat="62.15925278102365" lon="11.214394440180968" id="-21247">
		<tag k="name" v="Søndre Gravtjønna" />
		<tag k="natural" v="water" />
		<tag k="ssr:stedsnr" v="860167" />
	</node>
	<node lat="61.88551388531541" lon="11.21112221349525" id="-21269">
		<tag k="name" v="Kverninga" />
		<tag k="ssr:stedsnr" v="861013" />
		<tag k="waterway" v="stream" />
	</node>
	<node lat="61.921486113660954" lon="11.130966661099565" id="-21274">
		<tag k="alt_name" v="Haukåa, nørdre" />
		<tag k="name" v="Nordre Haukåa" />
		<tag k="ssr:stedsnr" v="861215" />
		<tag k="waterway" v="stream" />
	</node>
	<node lat="61.839777776027816" lon="11.610211113405104" id="-21276">
		<tag k="alt_name" v="Ørsjøen, s" />
		<tag k="name" v="Søre Ørsjøen" />
		<tag k="natural" v="water" />
		<tag k="ssr:stedsnr" v="861976" />
		<tag k="water" v="lake" />
	</node>
	<node lat="61.79760833576214" lon="10.955672223062184" id="-21278">
		<tag k="name" v="Vollbekken" />
		<tag k="ssr:stedsnr" v="869609" />
		<tag k="waterway" v="stream" />
	</node>
	<node lat="61.787752776217225" lon="10.940908328568105" id="-21291">
		<tag k="name" v="Kiva" />
		<tag k="ssr:stedsnr" v="906456" />
		<tag k="waterway" v="stream" />
	</node>
	<node lat="61.81635833061011" lon="10.782516661535132" id="-21299">
		<tag k="name" v="Gammelbubekken" />
		<tag k="ssr:stedsnr" v="908320" />
		<tag k="waterway" v="stream" />
	</node>
	<node lat="61.98566944784981" lon="11.545136115604665" id="-21305">
		<tag k="name" v="Bjørkodden" />
		<tag k="natural" v="cape" />
		<tag k="ssr:stedsnr" v="908451" />
	</node>
	<node lat="61.904594441881905" lon="11.000000000200819" id="-21310">
		<tag k="name" v="Sundet" />
		<tag k="natural" v="strait" />
		<tag k="ssr:stedsnr" v="908817" />
	</node>
	<node lat="61.72050833584651" lon="11.156416659353889" id="-21317">
		<tag k="alt_name" v="Åkeråa" />
		<tag k="name" v="Åkersåa" />
		<tag k="ssr:stedsnr" v="920390" />
		<tag k="waterway" v="stream" />
	</node>
	<node lat="61.71805277335004" lon="11.225591667592626" id="-21319">
		<tag k="name" v="Stortjønna" />
		<tag k="natural" v="water" />
		<tag k="ssr:stedsnr" v="920401" />
	</node>
	<node lat="61.564833336173095" lon="11.196877775259617" id="-21325">
		<tag k="name" v="Liodden" />
		<tag k="natural" v="cape" />
		<tag k="ssr:stedsnr" v="920442" />
	</node>
	<node lat="61.57211389093513" lon="11.272083342233561" id="-21326">
		<tag k="name" v="Fiskløstjønna" />
		<tag k="natural" v="water" />
		<tag k="ssr:stedsnr" v="920445" />
	</node>
	<node lat="62.092949996124" lon="11.053419445348839" id="-21331">
		<tag k="name" v="Fjordungsbekken" />
		<tag k="ssr:stedsnr" v="921096" />
		<tag k="waterway" v="stream" />
	</node>
	<node lat="61.99030555375629" lon="11.353350004337608" id="-21332">
		<tag k="name" v="Smikkjøldbekken" />
		<tag k="ssr:stedsnr" v="921233" />
		<tag k="waterway" v="stream" />
	</node>
	<node lat="61.97716666506325" lon="11.15538332648039" id="-21334">
		<tag k="name" v="Møkkelbekken" />
		<tag k="ssr:stedsnr" v="921237" />
		<tag k="waterway" v="stream" />
	</node>
	<node lat="62.142033330601635" lon="11.035538881491126" id="-21342">
		<tag k="alt_name" v="Finstadsjøen" />
		<tag k="name" v="Finnstadsjøen" />
		<tag k="natural" v="water" />
		<tag k="ssr:stedsnr" v="921200" />
		<tag k="water" v="lake" />
	</node>
	<node lat="61.91759444760564" lon="10.72295554831785" id="-21343">
		<tag k="alt_name" v="Kløftbekken, vestre" />
		<tag k="name" v="Vestre Kløftbekken" />
		<tag k="ssr:stedsnr" v="921395" />
		<tag k="waterway" v="stream" />
	</node>
	<node lat="61.789474997066726" lon="11.639341674078041" id="-21344">
		<tag k="name" v="Stortjønna" />
		<tag k="natural" v="water" />
		<tag k="ssr:stedsnr" v="921918" />
	</node>
	<node lat="61.89147500055559" lon="11.668502785509485" id="-21346">
		<tag k="name" v="Østerhåen" />
		<tag k="natural" v="bay" />
		<tag k="ssr:stedsnr" v="921988" />
	</node>
	<node lat="61.853191662391026" lon="11.112522229403451" id="-21351">
		<tag k="name" v="Trettneset" />
		<tag k="natural" v="cape" />
		<tag k="ssr:stedsnr" v="936034" />
	</node>
	<node lat="61.809169445310445" lon="11.587294438994217" id="-21358">
		<tag k="name" v="Tobakkbekken" />
		<tag k="ssr:stedsnr" v="966808" />
		<tag k="waterway" v="stream" />
	</node>
	<node lat="61.64825833372503" lon="11.101713886543585" id="-21359">
		<tag k="name" v="Plaskedammen" />
		<tag k="natural" v="water" />
		<tag k="ssr:stedsnr" v="966949" />
	</node>
	<node lat="61.80565555489708" lon="11.059713889028316" id="-21362">
		<tag k="name" v="Firerbekken" />
		<tag k="ssr:stedsnr" v="967688" />
		<tag k="waterway" v="stream" />
	</node>
	<node lat="61.783311108000646" lon="10.961930546719769" id="-21367">
		<tag k="name" v="Kivoset" />
		<tag k="natural" v="bay" />
		<tag k="ssr:stedsnr" v="968703" />
	</node>
	<node lat="61.571463885902894" lon="11.158180561894623" id="-21373">
		<tag k="name" v="Sunndalsbekken" />
		<tag k="ssr:stedsnr" v="968838" />
		<tag k="waterway" v="stream" />
	</node>
	<node lat="61.54088611411013" lon="11.244016666590337" id="-21376">
		<tag k="name" v="Sæterbekken" />
		<tag k="ssr:stedsnr" v="10278" />
		<tag k="waterway" v="stream" />
	</node>
	<node lat="62.02271944728396" lon="10.94971666363672" id="-21380">
		<tag k="alt_name" v="Skårsåa" />
		<tag k="name" v="Skorsåa" />
		<tag k="ssr:stedsnr" v="10031" />
		<tag k="waterway" v="stream" />
	</node>
	<node lat="61.801575003522345" lon="11.678252783679739" id="-21381">
		<tag k="name" v="Muggbekken" />
		<tag k="ssr:stedsnr" v="10949" />
		<tag k="waterway" v="stream" />
	</node>
	<node lat="62.104755556313656" lon="11.130786108080866" id="-21382">
		<tag k="name" v="Bukstjønna" />
		<tag k="natural" v="water" />
		<tag k="ssr:stedsnr" v="10071" />
	</node>
	<node lat="61.81276944314325" lon="10.840338891233708" id="-21386">
		<tag k="name" v="Risholmen" />
		<tag k="place" v="islet" />
		<tag k="ssr:stedsnr" v="10182" />
	</node>
	<node lat="61.74868889268943" lon="11.377063890317146" id="-21389">
		<tag k="name" v="Fjordungsbekken" />
		<tag k="ssr:stedsnr" v="10408" />
		<tag k="waterway" v="stream" />
	</node>
	<node lat="62.031517111005634" lon="11.527132181449895" id="-21390">
		<tag k="name" v="Vesle Sølensjøen" />
		<tag k="natural" v="water" />
		<tag k="ssr:stedsnr" v="10419" />
		<tag k="water" v="lake" />
	</node>
	<node lat="61.68210000128118" lon="11.268649994136155" id="-21392">
		<tag k="name" v="Renåfallet" />
		<tag k="natural" v="waterfall" />
		<tag k="ssr:stedsnr" v="10377" />
	</node>
	<node lat="61.65812499878073" lon="11.251305559365528" id="-21394">
		<tag k="name" v="Rådelsbekken" />
		<tag k="ssr:stedsnr" v="10460" />
		<tag k="waterway" v="stream" />
	</node>
	<node lat="61.648819441554146" lon="11.437405548625156" id="-21395">
		<tag k="name" v="Lomtjønna" />
		<tag k="natural" v="water" />
		<tag k="ssr:stedsnr" v="10463" />
	</node>
	<node lat="61.635300000107364" lon="11.439599990920676" id="-21400">
		<tag k="alt_name" v="Rensjøen, søre;Søre Rensjøen" />
		<tag k="name" v="Søndre Rensjøen" />
		<tag k="natural" v="water" />
		<tag k="ssr:stedsnr" v="10475" />
		<tag k="water" v="lake" />
	</node>
	<node lat="61.945777775079954" lon="11.6116499989872" id="-21412">
		<tag k="name" v="Holbekken" />
		<tag k="ssr:stedsnr" v="11100" />
		<tag k="waterway" v="stream" />
	</node>
	<node lat="61.77366111064059" lon="11.45315556236982" id="-21413">
		<tag k="name" v="Grøna" />
		<tag k="ssr:stedsnr" v="11118" />
		<tag k="waterway" v="river" />
	</node>
	<node lat="61.91565000069222" lon="11.369777776214745" id="-21422">
		<tag k="name" v="Strupbekken" />
		<tag k="ssr:stedsnr" v="11234" />
		<tag k="waterway" v="stream" />
	</node>
	<node lat="61.85052221843617" lon="11.533261106947187" id="-21425">
		<tag k="alt_name" v="Skardsbekken, vestre" />
		<tag k="name" v="Vestre Skardsbekken" />
		<tag k="ssr:stedsnr" v="11970" />
		<tag k="waterway" v="stream" />
	</node>
	<node lat="61.758161111754404" lon="11.593172219001291" id="-21431">
		<tag k="name" v="Øvre Lomtjønna" />
		<tag k="natural" v="water" />
		<tag k="ssr:stedsnr" v="26336" />
	</node>
	<node lat="61.92383055800329" lon="10.940883333580977" id="-21438">
		<tag k="alt_name" v="Aursjøane" />
		<tag k="name" v="Søndre Aursjøen" />
		<tag k="natural" v="water" />
		<tag k="ssr:stedsnr" v="46559" />
		<tag k="water" v="lake" />
	</node>
	<node lat="61.54524722012818" lon="11.222577786154014" id="-21444">
		<tag k="name" v="Hestløpa" />
		<tag k="natural" v="bay" />
		<tag k="ssr:stedsnr" v="56338" />
	</node>
	<node lat="61.54483889202182" lon="11.315391673966857" id="-21445">
		<tag k="name" v="Kloppbekken" />
		<tag k="ssr:stedsnr" v="56346" />
		<tag k="waterway" v="stream" />
	</node>
	<node lat="61.7592166678737" lon="11.480452786635984" id="-21449">
		<tag k="name" v="Vassbekken" />
		<tag k="ssr:stedsnr" v="56799" />
		<tag k="waterway" v="stream" />
	</node>
	<node lat="61.47335555554689" lon="11.458052768843983" id="-21457">
		<tag k="name" v="Byringsbekken" />
		<tag k="ssr:stedsnr" v="58344" />
		<tag k="waterway" v="stream" />
	</node>
	<node lat="62.12048889234333" lon="11.04466388851164" id="-21461">
		<tag k="name" v="Finstaddammen" />
		<tag k="ssr:stedsnr" v="58356" />
		<tag k="waterway" v="dam" />
	</node>
	<node lat="62.13468611187962" lon="11.436741672819405" id="-21464">
		<tag k="name" v="Orvfallet" />
		<tag k="natural" v="waterfall" />
		<tag k="ssr:stedsnr" v="58425" />
	</node>
	<node lat="61.987055556527515" lon="11.568352786900238" id="-21465">
		<tag k="name" v="Storsand" />
		<tag k="natural" v="beach" />
		<tag k="ssr:stedsnr" v="58439" />
	</node>
	<node lat="61.96439999654439" lon="11.50889445004893" id="-21467">
		<tag k="name" v="Karlshaugbekken" />
		<tag k="ssr:stedsnr" v="58449" />
		<tag k="waterway" v="stream" />
	</node>
	<node lat="62.03483055626966" lon="11.526649996365652" id="-21471">
		<tag k="name" v="Østre Tjernsundet" />
		<tag k="natural" v="strait" />
		<tag k="ssr:stedsnr" v="58461" />
	</node>
	<node lat="62.02211388702846" lon="11.491972212941898" id="-21473">
		<tag k="name" v="Nordistubekken" />
		<tag k="ssr:stedsnr" v="58466" />
		<tag k="waterway" v="stream" />
	</node>
	<node lat="61.83210000422741" lon="11.71551666685055" id="-21475">
		<tag k="name" v="Måsåvika" />
		<tag k="natural" v="bay" />
		<tag k="ssr:stedsnr" v="58400" />
	</node>
	<node lat="61.97660000312861" lon="11.192844437501426" id="-21476">
		<tag k="name" v="Nordre Størtjønna" />
		<tag k="natural" v="water" />
		<tag k="ssr:stedsnr" v="58518" />
	</node>
	<node lat="61.67159722530351" lon="11.217538882172084" id="-21477">
		<tag k="name" v="Sandodden" />
		<tag k="natural" v="cape" />
		<tag k="ssr:stedsnr" v="58533" />
	</node>
	<node lat="61.66380277744362" lon="11.219149996714604" id="-21478">
		<tag k="name" v="Nordre Flenvika" />
		<tag k="natural" v="bay" />
		<tag k="ssr:stedsnr" v="58534" />
	</node>
	<node lat="61.447121848616185" lon="11.434422025210456" id="-21487">
		<tag k="fixme" v="multiple name tags, choose one and add the other to alt_name" />
		<tag k="name" v="Åstjønna;Storåstjønna" />
		<tag k="natural" v="water" />
		<tag k="ssr:stedsnr" v="69126" />
	</node>
	<node lat="61.582183335506144" lon="11.705505553321183" id="-21489">
		<tag k="name" v="Ryensjøbekken" />
		<tag k="ssr:stedsnr" v="70298" />
		<tag k="waterway" v="stream" />
	</node>
	<node lat="61.72806666568724" lon="11.460963884015754" id="-21491">
		<tag k="name" v="Rabbtjønna" />
		<tag k="natural" v="water" />
		<tag k="ssr:stedsnr" v="70397" />
	</node>
	<node lat="61.5401444403514" lon="11.306763887232787" id="-21494">
		<tag k="alt_name" v="Røtjønna" />
		<tag k="name" v="Røtjønnan" />
		<tag k="natural" v="water" />
		<tag k="ssr:stedsnr" v="70261" />
		<tag k="water" v="lake" />
	</node>
	<node lat="61.58619999616663" lon="11.244408335258113" id="-21498">
		<tag k="alt_name" v="Fjerdingsbekken" />
		<tag k="name" v="Fjordungsbekken" />
		<tag k="ssr:stedsnr" v="70432" />
		<tag k="waterway" v="stream" />
	</node>
	<node lat="61.6095916632104" lon="11.418150000921536" id="-21500">
		<tag k="name" v="Vamtjønnbekken" />
		<tag k="ssr:stedsnr" v="70414" />
		<tag k="waterway" v="stream" />
	</node>
	<node lat="62.1653972189127" lon="11.193891674978705" id="-21501">
		<tag k="name" v="Nordre Gravtjønna" />
		<tag k="natural" v="water" />
		<tag k="ssr:stedsnr" v="71152" />
	</node>
	<node lat="61.95239999557711" lon="11.502716669317724" id="-21505">
		<tag k="name" v="Åkeråa" />
		<tag k="ssr:stedsnr" v="71098" />
		<tag k="waterway" v="stream" />
	</node>
	<node lat="62.10387222158992" lon="11.135591673072321" id="-21507">
		<tag k="name" v="Storrtjønna" />
		<tag k="natural" v="water" />
		<tag k="ssr:stedsnr" v="71113" />
	</node>
	<node lat="61.642438884513" lon="11.671936116890718" id="-21513">
		<tag k="name" v="Storfisktjønna" />
		<tag k="natural" v="water" />
		<tag k="ssr:stedsnr" v="71354" />
	</node>
	<node lat="61.94836110766812" lon="11.053150001746456" id="-21514">
		<tag k="name" v="Fonnåsbekken" />
		<tag k="ssr:stedsnr" v="71355" />
		<tag k="waterway" v="stream" />
	</node>
	<node lat="61.57090000231208" lon="11.261372227634814" id="-21516">
		<tag k="name" v="Bjørntjønna" />
		<tag k="natural" v="water" />
		<tag k="ssr:stedsnr" v="71488" />
	</node>
	<node lat="62.01625555859508" lon="11.189144442364544" id="-21519">
		<tag k="name" v="Storbekken" />
		<tag k="ssr:stedsnr" v="71719" />
		<tag k="waterway" v="stream" />
	</node>
	<node lat="62.01845000410596" lon="11.264377778349541" id="-21523">
		<tag k="name" v="Mistertjønna" />
		<tag k="natural" v="water" />
		<tag k="ssr:stedsnr" v="71454" />
	</node>
	<node lat="62.08445277774147" lon="11.212313889151163" id="-21527">
		<tag k="name" v="Neka" />
		<tag k="ssr:stedsnr" v="72032" />
		<tag k="waterway" v="river" />
	</node>
	<node lat="61.85388333319469" lon="11.071688897145675" id="-21533">
		<tag k="name" v="Sandbekken" />
		<tag k="ssr:stedsnr" v="72154" />
		<tag k="waterway" v="stream" />
	</node>
	<node lat="61.97127777471493" lon="11.60026111022702" id="-21535">
		<tag k="name" v="Gravnesbekken" />
		<tag k="ssr:stedsnr" v="72101" />
		<tag k="waterway" v="stream" />
	</node>
	<node lat="62.118130558802584" lon="11.432697222927986" id="-21536">
		<tag k="alt_name" v="Orva;Orva, s" />
		<tag k="name" v="Søndre Orva" />
		<tag k="ssr:stedsnr" v="72367" />
		<tag k="waterway" v="stream" />
	</node>
	<node lat="62.118983331149074" lon="11.462486104408276" id="-21537">
		<tag k="name" v="Storlægdbekken" />
		<tag k="ssr:stedsnr" v="72369" />
		<tag k="waterway" v="stream" />
	</node>
	<node lat="61.995899998416476" lon="11.165894439956046" id="-21538">
		<tag k="name" v="Fjellbekken" />
		<tag k="ssr:stedsnr" v="80278" />
		<tag k="waterway" v="stream" />
	</node>
	<node lat="61.757713887294294" lon="11.594122231323064" id="-21546">
		<tag k="name" v="Nedre Lomtjønna" />
		<tag k="natural" v="water" />
		<tag k="ssr:stedsnr" v="87310" />
	</node>
	<node lat="61.69031944496056" lon="11.13845000437253" id="-21547">
		<tag k="name" v="Volltjønna" />
		<tag k="natural" v="water" />
		<tag k="ssr:stedsnr" v="95439" />
	</node>
	<node lat="61.79980833548084" lon="10.968341669867364" id="-21548">
		<tag k="name" v="Fisktjønnbekken" />
		<tag k="ssr:stedsnr" v="95449" />
		<tag k="waterway" v="stream" />
	</node>
	<node lat="61.583805552847835" lon="11.235344440183916" id="-21559">
		<tag k="name" v="Brennsatabekken" />
		<tag k="ssr:stedsnr" v="117356" />
		<tag k="waterway" v="stream" />
	</node>
	<node lat="61.57685555731681" lon="11.292566673505343" id="-21560">
		<tag k="name" v="Sjevråvika" />
		<tag k="natural" v="bay" />
		<tag k="ssr:stedsnr" v="117359" />
	</node>
	<node lat="61.577194441992766" lon="11.289091658217188" id="-21561">
		<tag k="name" v="Notholmen" />
		<tag k="place" v="islet" />
		<tag k="ssr:stedsnr" v="117362" />
	</node>
	<node lat="61.77416388518619" lon="11.477486109048794" id="-21563">
		<tag k="name" v="Hollfossen" />
		<tag k="natural" v="waterfall" />
		<tag k="ssr:stedsnr" v="117807" />
	</node>
	<node lat="61.62588333713783" lon="11.190241671585477" id="-21564">
		<tag k="name" v="Flaskodden" />
		<tag k="natural" v="cape" />
		<tag k="ssr:stedsnr" v="117881" />
	</node>
	<node lat="62.01380555903562" lon="11.540263889670479" id="-21569">
		<tag k="name" v="Sakrishølen" />
		<tag k="place" v="locality" />
		<tag k="ssr:stedsnr" v="119440" />
	</node>
	<node lat="61.70471389015204" lon="11.230736102720076" id="-21576">
		<tag k="name" v="Kvernøya" />
		<tag k="place" v="islet" />
		<tag k="ssr:stedsnr" v="119682" />
	</node>
	<node lat="62.0341416638623" lon="11.519886107172828" id="-21583">
		<tag k="name" v="Vestre Tjernsundet" />
		<tag k="natural" v="strait" />
		<tag k="ssr:stedsnr" v="119463" />
	</node>
	<node lat="61.482577781499785" lon="11.611311107764921" id="-21591">
		<tag k="name" v="Langtjønna" />
		<tag k="natural" v="water" />
		<tag k="ssr:stedsnr" v="129208" />
	</node>
	<node lat="61.834197218267064" lon="11.28318889794599" id="-21592">
		<tag k="name" v="Tønnesbekktjønna" />
		<tag k="natural" v="water" />
		<tag k="ssr:stedsnr" v="131025" />
	</node>
	<node lat="61.83534166911555" lon="11.441686114260383" id="-21593">
		<tag k="name" v="Sølentjønna" />
		<tag k="natural" v="water" />
		<tag k="ssr:stedsnr" v="131031" />
	</node>
	<node lat="61.85539444055985" lon="11.357936107250874" id="-21595">
		<tag k="alt_name" v="Missjøen s;Mistsjøen, søre" />
		<tag k="name" v="Søre Mistsjøen" />
		<tag k="natural" v="water" />
		<tag k="ssr:stedsnr" v="131039" />
		<tag k="water" v="lake" />
	</node>
	<node lat="61.82383610891133" lon="10.848636110674564" id="-21596">
		<tag k="name" v="Storholmen" />
		<tag k="place" v="islet" />
		<tag k="ssr:stedsnr" v="131165" />
	</node>
	<node lat="61.53816388553138" lon="11.278202786932741" id="-21597">
		<tag k="name" v="Sætertjønna" />
		<tag k="natural" v="water" />
		<tag k="ssr:stedsnr" v="131297" />
	</node>
	<node lat="61.71886388603102" lon="11.36434444821978" id="-21602">
		<tag k="name" v="Renåmyrtjønna" />
		<tag k="natural" v="water" />
		<tag k="ssr:stedsnr" v="131405" />
	</node>
	<node lat="61.6993083297033" lon="11.388930553508345" id="-21607">
		<tag k="name" v="Svarttjønna" />
		<tag k="natural" v="water" />
		<tag k="ssr:stedsnr" v="131358" />
	</node>
	<node lat="61.548799995843346" lon="11.633852770960933" id="-21619">
		<tag k="name" v="Lauvåstjønnbekken" />
		<tag k="ssr:stedsnr" v="131723" />
		<tag k="waterway" v="stream" />
	</node>
	<node lat="61.554575001063434" lon="11.785938894402545" id="-21620">
		<tag k="name" v="Ristjønnan" />
		<tag k="natural" v="water" />
		<tag k="ssr:stedsnr" v="131727" />
		<tag k="water" v="lake" />
	</node>
	<node lat="61.80434167011552" lon="11.498991670227328" id="-21621">
		<tag k="name" v="Storbekken" />
		<tag k="ssr:stedsnr" v="131954" />
		<tag k="waterway" v="stream" />
	</node>
	<node lat="61.810069442558046" lon="11.434475000638844" id="-21622">
		<tag k="name" v="Beitbekken" />
		<tag k="ssr:stedsnr" v="132029" />
		<tag k="waterway" v="stream" />
	</node>
	<node lat="61.820288889847895" lon="11.452394448958461" id="-21625">
		<tag k="alt_name" v="Storbekken" />
		<tag k="name" v="Søta" />
		<tag k="ssr:stedsnr" v="132037" />
		<tag k="waterway" v="stream" />
	</node>
	<node lat="61.75441944205306" lon="11.40732221978657" id="-21627">
		<tag k="name" v="Nysæterbekken" />
		<tag k="ssr:stedsnr" v="132055" />
		<tag k="waterway" v="stream" />
	</node>
	<node lat="61.97620000399578" lon="11.550249996550294" id="-21628">
		<tag k="name" v="Bjønteholmen" />
		<tag k="place" v="islet" />
		<tag k="ssr:stedsnr" v="132089" />
	</node>
	<node lat="61.9194166638463" lon="11.606863888889595" id="-21629">
		<tag k="name" v="Bratten" />
		<tag k="place" v="islet" />
		<tag k="ssr:stedsnr" v="132091" />
	</node>
	<node lat="62.16119444512932" lon="11.18815000927952" id="-21630">
		<tag k="name" v="Finnrobekken" />
		<tag k="ssr:stedsnr" v="132124" />
		<tag k="waterway" v="stream" />
	</node>
	<node lat="61.91411389273087" lon="11.210694444709372" id="-21636">
		<tag k="name" v="Nordre Gunnarstjønna" />
		<tag k="natural" v="water" />
		<tag k="ssr:stedsnr" v="132239" />
	</node>
	<node lat="61.909855551457234" lon="10.978194443092999" id="-21640">
		<tag k="name" v="Langmarittjønna" />
		<tag k="natural" v="water" />
		<tag k="ssr:stedsnr" v="132326" />
	</node>
	<node lat="61.927011112449584" lon="10.972330550749371" id="-21643">
		<tag k="name" v="Svarttjønna" />
		<tag k="natural" v="water" />
		<tag k="ssr:stedsnr" v="132350" />
	</node>
	<node lat="62.07711944450637" lon="11.419969436520269" id="-21645">
		<tag k="name" v="Nordre Skjellåa" />
		<tag k="ssr:stedsnr" v="132388" />
		<tag k="waterway" v="river" />
	</node>
	<node lat="61.89300555311302" lon="11.61097500192857" id="-21646">
		<tag k="name" v="Stolla" />
		<tag k="ssr:stedsnr" v="132988" />
		<tag k="waterway" v="river" />
	</node>
	<node lat="61.91415000425418" lon="11.657150009693192" id="-21647">
		<tag k="name" v="Rødbutjønna" />
		<tag k="natural" v="water" />
		<tag k="ssr:stedsnr" v="132997" />
	</node>
	<node lat="61.47437221784818" lon="11.518286117657857" id="-21661">
		<tag k="name" v="Høgåstjønna" />
		<tag k="natural" v="water" />
		<tag k="ssr:stedsnr" v="154135" />
	</node>
	<node lat="61.60043333425913" lon="11.317283339062445" id="-21672">
		<tag k="name" v="Djupdalsbekken" />
		<tag k="ssr:stedsnr" v="177350" />
		<tag k="waterway" v="stream" />
	</node>
	<node lat="61.78590555848579" lon="10.971163891510155" id="-21678">
		<tag k="name" v="Sjøbekken" />
		<tag k="ssr:stedsnr" v="178625" />
		<tag k="waterway" v="stream" />
	</node>
	<node lat="61.54664444455071" lon="11.373838894819945" id="-21683">
		<tag k="name" v="Veksenbekken" />
		<tag k="ssr:stedsnr" v="179078" />
		<tag k="waterway" v="stream" />
	</node>
	<node lat="61.9302249965389" lon="11.13148333573364" id="-21685">
		<tag k="name" v="Søndre Tjønna" />
		<tag k="natural" v="water" />
		<tag k="ssr:stedsnr" v="179086" />
	</node>
	<node lat="62.11118333238721" lon="11.429944444885225" id="-21687">
		<tag k="name" v="Gammelbruhølen" />
		<tag k="place" v="locality" />
		<tag k="ssr:stedsnr" v="179385" />
	</node>
	<node lat="61.98133889099008" lon="11.540308332681876" id="-21688">
		<tag k="name" v="Landodden" />
		<tag k="natural" v="cape" />
		<tag k="ssr:stedsnr" v="179396" />
	</node>
	<node lat="61.98757499825403" lon="11.553733327719947" id="-21689">
		<tag k="name" v="Vestre Storsand" />
		<tag k="natural" v="beach" />
		<tag k="ssr:stedsnr" v="179397" />
	</node>
	<node lat="61.98601666410999" lon="11.544250001189932" id="-21690">
		<tag k="name" v="Sandroa" />
		<tag k="natural" v="beach" />
		<tag k="ssr:stedsnr" v="179398" />
	</node>
	<node lat="62.06495000312405" lon="11.072188889517022" id="-21692">
		<tag k="name" v="Nekfallet" />
		<tag k="natural" v="waterfall" />
		<tag k="ssr:stedsnr" v="179280" />
	</node>
	<node lat="61.898480551641" lon="10.918036108897759" id="-21698">
		<tag k="name" v="Nysæterbekken" />
		<tag k="ssr:stedsnr" v="179677" />
		<tag k="waterway" v="stream" />
	</node>
	<node lat="61.855366664921654" lon="11.040980559924886" id="-21700">
		<tag k="name" v="Holmsbekken" />
		<tag k="ssr:stedsnr" v="179782" />
		<tag k="waterway" v="stream" />
	</node>
	<node lat="61.90762499859066" lon="10.987486119882245" id="-21703">
		<tag k="name" v="Langmaritbekken" />
		<tag k="ssr:stedsnr" v="179854" />
		<tag k="waterway" v="stream" />
	</node>
	<node lat="61.477072223890076" lon="11.432538893502588" id="-21705">
		<tag k="alt_name" v="Nordre Slemma" />
		<tag k="name" v="Slemma" />
		<tag k="ssr:stedsnr" v="191083" />
		<tag k="waterway" v="river" />
	</node>
	<node lat="61.821861109732076" lon="10.960847215370709" id="-21706">
		<tag k="name" v="Horntjønna" />
		<tag k="natural" v="water" />
		<tag k="ssr:stedsnr" v="192193" />
	</node>
	<node lat="61.81685000114016" lon="11.037011111099472" id="-21707">
		<tag k="name" v="Klettbekken" />
		<tag k="ssr:stedsnr" v="192196" />
		<tag k="waterway" v="stream" />
	</node>
	<node lat="61.55298888581012" lon="11.382849998293777" id="-21708">
		<tag k="name" v="Svarttjønna" />
		<tag k="natural" v="water" />
		<tag k="ssr:stedsnr" v="192310" />
	</node>
	<node lat="61.5483222229262" lon="11.243861108562312" id="-21710">
		<tag k="name" v="Harptjønna" />
		<tag k="natural" v="water" />
		<tag k="ssr:stedsnr" v="192325" />
	</node>
	<node lat="61.73912499866513" lon="11.0011666642616" id="-21716">
		<tag k="alt_name" v="Mjovassjøen, søre" />
		<tag k="name" v="Søndre Mjovassjøen" />
		<tag k="natural" v="water" />
		<tag k="ssr:stedsnr" v="192245" />
	</node>
	<node lat="61.73974166627253" lon="11.07640278366322" id="-21717">
		<tag k="name" v="Kløftbekken" />
		<tag k="ssr:stedsnr" v="192249" />
		<tag k="waterway" v="stream" />
	</node>
	<node lat="61.65374999661529" lon="11.470613893957259" id="-21719">
		<tag k="alt_name" v="Moserudbekken" />
		<tag k="name" v="Måsårybekken" />
		<tag k="ssr:stedsnr" v="192350" />
		<tag k="waterway" v="stream" />
	</node>
	<node lat="61.58228611258154" lon="11.777716662173466" id="-21720">
		<tag k="name" v="Flåbekken" />
		<tag k="ssr:stedsnr" v="192358" />
		<tag k="waterway" v="stream" />
	</node>
	<node lat="61.61150278191453" lon="11.77483610382718" id="-21722">
		<tag k="name" v="Storgjottjønna" />
		<tag k="natural" v="water" />
		<tag k="ssr:stedsnr" v="192369" />
	</node>
	<node lat="61.69151666498016" lon="11.197258331824267" id="-21727">
		<tag k="name" v="Åsøya" />
		<tag k="place" v="islet" />
		<tag k="ssr:stedsnr" v="192405" />
	</node>
	<node lat="61.68853055803473" lon="11.288430561835433" id="-21729">
		<tag k="alt_name" v="Vestre Renåa" />
		<tag k="name" v="Renåa" />
		<tag k="ssr:stedsnr" v="192413" />
		<tag k="waterway" v="stream" />
	</node>
	<node lat="61.57821388600253" lon="11.454650004660635" id="-21740">
		<tag k="name" v="Skarvtjønna" />
		<tag k="natural" v="water" />
		<tag k="ssr:stedsnr" v="192483" />
	</node>
	<node lat="61.57912296178782" lon="11.29155405195533" id="-21741">
		<tag k="alt_name" v="Valsjøen, søre" />
		<tag k="name" v="Søndre Valsjøen" />
		<tag k="natural" v="water" />
		<tag k="ssr:stedsnr" v="192484" />
		<tag k="water" v="lake" />
	</node>
	<node lat="61.665791666899295" lon="11.391347223746282" id="-21744">
		<tag k="alt_name" v="Rensjøen, nørdre" />
		<tag k="name" v="Nordre Rensjøen" />
		<tag k="natural" v="water" />
		<tag k="old_name" v="Nørdre Rensjøen" />
		<tag k="ssr:stedsnr" v="192496" />
		<tag k="water" v="lake" />
	</node>
	<node lat="61.90488610909049" lon="10.531716671831669" id="-21745">
		<tag k="name" v="Hattbekken" />
		<tag k="ssr:stedsnr" v="192506" />
		<tag k="waterway" v="stream" />
	</node>
	<node lat="61.637780558680326" lon="11.304061112278012" id="-21747">
		<tag k="alt_name" v="Vamåa" />
		<tag k="name" v="Vamma" />
		<tag k="ssr:stedsnr" v="192512" />
		<tag k="waterway" v="stream" />
	</node>
	<node lat="61.88278055126426" lon="10.600463881063467" id="-21748">
		<tag k="name" v="Gjømtbekken" />
		<tag k="ssr:stedsnr" v="192517" />
		<tag k="waterway" v="stream" />
	</node>
	<node lat="61.77788055399081" lon="11.075586112791639" id="-21758">
		<tag k="name" v="Lomnestjønna" />
		<tag k="natural" v="water" />
		<tag k="ssr:stedsnr" v="193198" />
	</node>
	<node lat="61.98436388893188" lon="11.53909721631506" id="-21761">
		<tag k="name" v="Åroe" />
		<tag k="natural" v="bay" />
		<tag k="ssr:stedsnr" v="193078" />
	</node>
	<node lat="61.78630000246436" lon="10.857725000291369" id="-21763">
		<tag k="alt_name" v="Tøråsbekken" />
		<tag k="name" v="Tørråsbekken" />
		<tag k="ssr:stedsnr" v="193186" />
		<tag k="waterway" v="stream" />
	</node>
	<node lat="61.90399327856638" lon="10.995236461860163" id="-21768">
		<tag k="name" v="Tronsjøen" />
		<tag k="natural" v="water" />
		<tag k="ssr:stedsnr" v="193364" />
		<tag k="water" v="lake" />
	</node>
	<node lat="61.917388886803444" lon="10.830705564128511" id="-21769">
		<tag k="name" v="Bjørnsjørustbekken" />
		<tag k="ssr:stedsnr" v="193386" />
		<tag k="waterway" v="stream" />
	</node>
	<node lat="61.75803888973506" lon="11.486744435529966" id="-21770">
		<tag k="name" v="Vassbekktjønna" />
		<tag k="natural" v="water" />
		<tag k="ssr:stedsnr" v="193906" />
	</node>
	<node lat="61.82533888726289" lon="11.686486101909384" id="-21771">
		<tag k="name" v="Nilsbutjønna" />
		<tag k="natural" v="water" />
		<tag k="ssr:stedsnr" v="193946" />
	</node>
	<node lat="61.87974999735727" lon="11.7282194356807" id="-21775">
		<tag k="alt_name" v="Galthovudet" />
		<tag k="name" v="Galthodet" />
		<tag k="place" v="locality" />
		<tag k="ssr:stedsnr" v="202285" />
	</node>
</osm>
