<?xml version="1.0" encoding="UTF-8"?>
<osm version="0.6" generator="osmapis">
	<node lat="61.76224722154283" lon="11.144633326379285" id="-35332">
		<tag k="highway" v="path" />
		<tag k="name" v="Viksætervegen" />
		<tag k="ssr:stedsnr" v="26088" />
	</node>
	<node lat="61.47818888692382" lon="11.309183323941316" id="-35342">
		<tag k="bridge" v="yes" />
		<tag k="layer" v="1" />
		<tag k="name" v="Møra bru" />
		<tag k="ssr:stedsnr" v="46280" />
	</node>
	<node lat="61.56496944719387" lon="11.23770278599313" id="-35343">
		<tag k="highway" v="path" />
		<tag k="name" v="Sætervegen" />
		<tag k="ssr:stedsnr" v="238337" />
	</node>
	<node lat="61.783302774331915" lon="11.048116661093575" id="-35351">
		<tag k="highway" v="path" />
		<tag k="name" v="Klettvolvegen" />
		<tag k="ssr:stedsnr" v="239655" />
	</node>
	<node lat="61.6592388899503" lon="11.225513894918423" id="-35358">
		<tag k="fixme" v="consider highway=path" />
		<tag k="highway" v="track" />
		<tag k="name" v="Fallvegen" />
		<tag k="ssr:stedsnr" v="56410" />
	</node>
	<node lat="61.789763885810714" lon="11.226188884910476" id="-35391">
		<tag k="highway" v="path" />
		<tag k="name" v="Veslesæterjotvegen" />
		<tag k="ssr:stedsnr" v="58901" />
	</node>
	<node lat="61.71859999942094" lon="11.267574995461098" id="-35402">
		<tag k="highway" v="path" />
		<tag k="name" v="Doningsvegen" />
		<tag k="ssr:stedsnr" v="240654" />
	</node>
	<node lat="61.94333333200543" lon="11.007780553000234" id="-35411">
		<tag k="name" v="Tobrovelta" />
		<tag k="place" v="locality" />
		<tag k="ssr:stedsnr" v="240777" />
	</node>
	<node lat="61.92834166629452" lon="10.98858055143515" id="-35413">
		<tag k="name" v="Fossbekkvelta" />
		<tag k="place" v="locality" />
		<tag k="ssr:stedsnr" v="240781" />
	</node>
	<node lat="62.10668333068148" lon="11.559447230155829" id="-35461">
		<tag k="highway" v="path" />
		<tag k="name" v="Fjellvegen" />
		<tag k="ssr:stedsnr" v="87428" />
	</node>
	<node lat="62.14917499935283" lon="11.435761104908412" id="-35465">
		<tag k="fixme" v="consider highway=path" />
		<tag k="highway" v="track" />
		<tag k="name" v="Skjærbekkvegen" />
		<tag k="ssr:stedsnr" v="115717" />
	</node>
	<node lat="61.95772222410469" lon="11.086036112490753" id="-35480">
		<tag k="fixme" v="consider highway=path" />
		<tag k="highway" v="track" />
		<tag k="name" v="Gamle Unsetveg" />
		<tag k="ssr:stedsnr" v="119119" />
	</node>
	<node lat="61.837969751330775" lon="10.878713860984465" id="-35582">
		<tag k="name" v="Hanestad stasjon" />
		<tag k="railway" v="station" />
		<tag k="ssr:stedsnr" v="254143" />
		<tag k="train" v="yes" />
	</node>
	<node lat="61.71979760883295" lon="11.197486908287326" id="-35588">
		<tag k="bridge" v="yes" />
		<tag k="layer" v="1" />
		<tag k="name" v="Åkeråa bru" />
		<tag k="ssr:stedsnr" v="167274" />
	</node>
	<node lat="61.769208330319046" lon="10.87211388748997" id="-35598">
		<tag k="highway" v="path" />
		<tag k="name" v="Slepvegen" />
		<tag k="ssr:stedsnr" v="178441" />
	</node>
	<node lat="61.8119944488296" lon="11.119619441226515" id="-35646">
		<tag k="landuse" v="industrial" />
		<tag k="name" v="Rendalen kraftverk" />
		<tag k="power" v="plant" />
		<tag k="ssr:stedsnr" v="269497" />
	</node>
	<node lat="61.89957222618113" lon="11.089261110409227" id="-35648">
		<tag k="bridge" v="yes" />
		<tag k="layer" v="1" />
		<tag k="name" v="Haukåa bru" />
		<tag k="ssr:stedsnr" v="228302" />
	</node>
	<node lat="61.806747220633355" lon="11.128155545980288" id="-35649">
		<tag k="bridge" v="yes" />
		<tag k="layer" v="1" />
		<tag k="name" v="Hornset bru" />
		<tag k="ssr:stedsnr" v="228305" />
	</node>
	<node lat="61.79894535009332" lon="11.131970471862925" id="-35650">
		<tag k="bridge" v="yes" />
		<tag k="layer" v="1" />
		<tag k="name" v="Hårenna bru" />
		<tag k="ssr:stedsnr" v="228308" />
	</node>
	<node lat="61.990796640870194" lon="11.09844016522928" id="-35651">
		<tag k="bridge" v="yes" />
		<tag k="layer" v="1" />
		<tag k="name" v="Kverninga bru" />
		<tag k="ssr:stedsnr" v="228284" />
	</node>
	<node lat="62.009419444385955" lon="11.476855551709319" id="-35673">
		<tag k="highway" v="path" />
		<tag k="name" v="Hemvegen" />
		<tag k="ssr:stedsnr" v="240432" />
	</node>
	<node lat="61.64487222571312" lon="11.43497499826234" id="-35735">
		<tag k="highway" v="path" />
		<tag k="name" v="Nubbvegen" />
		<tag k="ssr:stedsnr" v="300005" />
	</node>
	<node lat="61.667091664712395" lon="11.244125003467024" id="-35741">
		<tag k="highway" v="path" />
		<tag k="name" v="Yttergangsvegen" />
		<tag k="ssr:stedsnr" v="300487" />
	</node>
	<node lat="62.02221389022968" lon="11.541844444493556" id="-35744">
		<tag k="ford" v="yes" />
		<tag k="name" v="Istervadet" />
		<tag k="place" v="locality" />
		<tag k="ssr:stedsnr" v="301411" />
	</node>
	<node lat="61.91615832984916" lon="10.94079722772159" id="-35745">
		<tag k="highway" v="path" />
		<tag k="name" v="Gammellivegen" />
		<tag k="ssr:stedsnr" v="301631" />
	</node>
	<node lat="62.11246944865587" lon="11.065191661082732" id="-35750">
		<tag k="highway" v="path" />
		<tag k="name" v="Nysætervegen" />
		<tag k="ssr:stedsnr" v="301324" />
	</node>
	<node lat="61.71914999717334" lon="11.185774998479724" id="-35801">
		<tag k="highway" v="path" />
		<tag k="name" v="Klettvollsvegen" />
		<tag k="ssr:stedsnr" v="359149" />
	</node>
	<node lat="61.91627777886063" lon="11.188680547267719" id="-35858">
		<tag k="highway" v="path" />
		<tag k="name" v="Skånborketvegen" />
		<tag k="ssr:stedsnr" v="481212" />
	</node>
	<node lat="61.7527166633712" lon="11.124600003799065" id="-35862">
		<tag k="fixme" v="consider highway=path" />
		<tag k="highway" v="track" />
		<tag k="name" v="Nybuvegen" />
		<tag k="ssr:stedsnr" v="481287" />
	</node>
	<node lat="61.55850278155477" lon="11.257294439941012" id="-35866">
		<tag k="highway" v="path" />
		<tag k="name" v="Borkhusvegen" />
		<tag k="ssr:stedsnr" v="481350" />
	</node>
	<node lat="62.009369448418994" lon="11.174261106151636" id="-35877">
		<tag k="highway" v="path" />
		<tag k="name" v="Storbekkvegen" />
		<tag k="ssr:stedsnr" v="482297" />
	</node>
	<node lat="61.85031944062573" lon="10.84041388319114" id="-35891">
		<tag k="highway" v="path" />
		<tag k="name" v="Elstadmyra" />
		<tag k="ssr:stedsnr" v="483612" />
	</node>
	<node lat="61.601083336205676" lon="11.317938885647093" id="-35909">
		<tag k="fixme" v="consider highway=path" />
		<tag k="highway" v="track" />
		<tag k="name" v="Djupdalsvegen" />
		<tag k="ssr:stedsnr" v="420349" />
	</node>
	<node lat="61.8154916676109" lon="10.985269438680493" id="-35911">
		<tag k="ford" v="yes" />
		<tag k="name" v="Stenvadet" />
		<tag k="place" v="locality" />
		<tag k="ssr:stedsnr" v="421822" />
	</node>
	<node lat="61.827280559353305" lon="10.972447221207453" id="-35929">
		<tag k="highway" v="path" />
		<tag k="name" v="Snevegen" />
		<tag k="ssr:stedsnr" v="422805" />
	</node>
	<node lat="61.721522223838484" lon="11.370758330521895" id="-36032">
		<tag k="fixme" v="consider highway=path" />
		<tag k="highway" v="track" />
		<tag k="name" v="Johannesvegen" />
		<tag k="ssr:stedsnr" v="481414" />
	</node>
	<node lat="61.77548333039633" lon="10.948305560556507" id="-36033">
		<tag k="alt_name" v="Vaet" />
		<tag k="ford" v="yes" />
		<tag k="name" v="Vadet" />
		<tag k="place" v="locality" />
		<tag k="ssr:stedsnr" v="481463" />
	</node>
	<node lat="61.93241028239689" lon="11.05555495722352" id="-36114">
		<tag k="bridge" v="yes" />
		<tag k="layer" v="1" />
		<tag k="name" v="Elvål bru" />
		<tag k="ssr:stedsnr" v="532269" />
	</node>
	<node lat="61.73475555211166" lon="11.231552773104573" id="-36120">
		<tag k="name" v="Borkstan" />
		<tag k="place" v="locality" />
		<tag k="ssr:stedsnr" v="542515" />
	</node>
	<node lat="61.78816666829236" lon="10.85467499390708" id="-36121">
		<tag k="fixme" v="consider highway=path" />
		<tag k="highway" v="track" />
		<tag k="name" v="Klevvegen" />
		<tag k="ssr:stedsnr" v="542419" />
	</node>
	<node lat="61.78233055352056" lon="10.867175005086144" id="-36124">
		<tag k="junction" v="yes" />
		<tag k="name" v="Krysset" />
		<tag k="place" v="locality" />
		<tag k="ssr:stedsnr" v="542424" />
	</node>
	<node lat="62.00373055129145" lon="11.16127222715386" id="-36133">
		<tag k="fixme" v="verify maritime location" />
		<tag k="mooring" v="yes" />
		<tag k="name" v="Kvanntjølla" />
		<tag k="place" v="locality" />
		<tag k="ssr:stedsnr" v="543323" />
	</node>
	<node lat="61.96473055438335" lon="11.167747214620489" id="-36137">
		<tag k="highway" v="path" />
		<tag k="name" v="Dalevegen" />
		<tag k="ssr:stedsnr" v="543478" />
	</node>
	<node lat="61.67693889219141" lon="11.275338894369154" id="-36138">
		<tag k="fixme" v="consider highway=path" />
		<tag k="highway" v="track" />
		<tag k="name" v="Djupdalsvegen" />
		<tag k="ssr:stedsnr" v="543481" />
	</node>
	<node lat="61.6103777746093" lon="11.189519436571718" id="-36145">
		<tag k="highway" v="path" />
		<tag k="name" v="Elgstien" />
		<tag k="ssr:stedsnr" v="543890" />
	</node>
	<node lat="61.488513885265796" lon="11.282522213023345" id="-36178">
		<tag k="fixme" v="verify maritime location" />
		<tag k="mooring" v="yes" />
		<tag k="name" v="Syllistøa" />
		<tag k="place" v="locality" />
		<tag k="ssr:stedsnr" v="560290" />
	</node>
	<node lat="61.81228889273957" lon="11.113222220303706" id="-36189">
		<tag k="landuse" v="industrial" />
		<tag k="name" v="Bassenget" />
		<tag k="power" v="plant" />
		<tag k="ssr:stedsnr" v="694496" />
	</node>
	<node lat="61.78144166460863" lon="11.282975006592523" id="-36213">
		<tag k="highway" v="path" />
		<tag k="name" v="Vinterveglea" />
		<tag k="ssr:stedsnr" v="603898" />
	</node>
	<node lat="61.71081310714611" lon="11.242190193721548" id="-36221">
		<tag k="bridge" v="yes" />
		<tag k="layer" v="1" />
		<tag k="name" v="Mistra bru" />
		<tag k="ssr:stedsnr" v="604658" />
	</node>
	<node lat="61.98055277544772" lon="10.999375003846309" id="-36227">
		<tag k="highway" v="path" />
		<tag k="name" v="Fjellvegen" />
		<tag k="ssr:stedsnr" v="604863" />
	</node>
	<node lat="61.83024999811432" lon="10.889891666776617" id="-36279">
		<tag k="highway" v="path" />
		<tag k="name" v="Kivdalsvegen" />
		<tag k="ssr:stedsnr" v="630497" />
	</node>
	<node lat="62.037991663130136" lon="11.123091660329258" id="-36312">
		<tag k="highway" v="path" />
		<tag k="name" v="Engåsvegen" />
		<tag k="ssr:stedsnr" v="664295" />
	</node>
	<node lat="61.44687221892679" lon="11.982477785451357" id="-36370">
		<tag k="fixme" v="multiple name tags, choose one and add the other to alt_name" />
		<tag k="highway" v="path" />
		<tag k="name" v="Pilegrimsleden;Munkvegen" />
		<tag k="ssr:stedsnr" v="690081" />
	</node>
	<node lat="61.866677775214285" lon="11.098999999902398" id="-36373">
		<tag k="name" v="Storvetra" />
		<tag k="ssr:stedsnr" v="694015" />
		<tag k="waterway" v="canal" />
	</node>
	<node lat="61.766025003037655" lon="11.555255552220585" id="-36381">
		<tag k="bridge" v="yes" />
		<tag k="layer" v="1" />
		<tag k="name" v="Nøklebekk" />
		<tag k="ssr:stedsnr" v="896287" />
	</node>
	<node lat="61.670716668121194" lon="11.190797222555734" id="-36382">
		<tag k="bridge" v="yes" />
		<tag k="layer" v="1" />
		<tag k="name" v="Sagbekk bru" />
		<tag k="ssr:stedsnr" v="896288" />
	</node>
	<node lat="61.908438889996106" lon="11.061061110249447" id="-36383">
		<tag k="bridge" v="yes" />
		<tag k="layer" v="1" />
		<tag k="name" v="Kvernbekk bru" />
		<tag k="ssr:stedsnr" v="896296" />
	</node>
	<node lat="61.75172221976631" lon="11.426652772212453" id="-36384">
		<tag k="bridge" v="yes" />
		<tag k="layer" v="1" />
		<tag k="name" v="Nysæterbekk" />
		<tag k="ssr:stedsnr" v="714245" />
	</node>
	<node lat="61.7823583290825" lon="11.206983324546973" id="-36410">
		<tag k="highway" v="path" />
		<tag k="name" v="Gaupvegen" />
		<tag k="ssr:stedsnr" v="725882" />
	</node>
	<node lat="61.82016944004172" lon="10.919452775483784" id="-36470">
		<tag k="highway" v="path" />
		<tag k="name" v="Bekstrømvegen" />
		<tag k="ssr:stedsnr" v="753508" />
	</node>
	<node lat="61.703286106927216" lon="11.198730547866184" id="-36479">
		<tag k="bridge" v="yes" />
		<tag k="layer" v="1" />
		<tag k="name" v="Strømshue" />
		<tag k="ssr:stedsnr" v="906147" />
	</node>
	<node lat="61.72567407831264" lon="11.384673987764891" id="-36511">
		<tag k="bridge" v="yes" />
		<tag k="layer" v="1" />
		<tag k="name" v="Renå bru" />
		<tag k="ssr:stedsnr" v="774308" />
	</node>
	<node lat="61.85401944326467" lon="10.907297227162202" id="-36512">
		<tag k="bridge" v="yes" />
		<tag k="layer" v="1" />
		<tag k="name" v="Tingstadbekken" />
		<tag k="ssr:stedsnr" v="774312" />
	</node>
	<node lat="61.71329999702492" lon="11.277313891515053" id="-36548">
		<tag k="highway" v="path" />
		<tag k="name" v="Skarbekkløpa" />
		<tag k="ssr:stedsnr" v="786657" />
	</node>
	<node lat="61.85072500299244" lon="11.124322228166545" id="-36769">
		<tag k="name" v="Jordbrukskanalen" />
		<tag k="ssr:stedsnr" v="936033" />
		<tag k="waterway" v="canal" />
	</node>
	<node lat="61.84365000000463" lon="10.64973334032229" id="-36784">
		<tag k="highway" v="path" />
		<tag k="name" v="Nysætervegen" />
		<tag k="ssr:stedsnr" v="968286" />
	</node>
	<node lat="61.761758337670095" lon="11.070008335704657" id="-36791">
		<tag k="highway" v="path" />
		<tag k="name" v="Myrvegen" />
		<tag k="ssr:stedsnr" v="968689" />
	</node>
	<node lat="61.81100833507557" lon="10.930755547080578" id="-36887">
		<tag k="alt_name" v="Kvanbekkvegen" />
		<tag k="fixme" v="consider highway=path" />
		<tag k="highway" v="track" />
		<tag k="name" v="Kvannbekkvegen" />
		<tag k="ssr:stedsnr" v="25551" />
	</node>
	<node lat="61.56384444165902" lon="11.226519440599946" id="-36897">
		<tag k="bridge" v="yes" />
		<tag k="layer" v="1" />
		<tag k="name" v="Andrå bru" />
		<tag k="ssr:stedsnr" v="46291" />
	</node>
	<node lat="62.105650054716435" lon="11.045257593796139" id="-36898">
		<tag k="bridge" v="yes" />
		<tag k="layer" v="1" />
		<tag k="name" v="Finstad bru" />
		<tag k="ssr:stedsnr" v="46295" />
	</node>
	<node lat="61.58621111493941" lon="11.109333325760483" id="-36902">
		<tag k="fixme" v="consider highway=path" />
		<tag k="highway" v="track" />
		<tag k="name" v="Moravegen" />
		<tag k="ssr:stedsnr" v="55596" />
	</node>
	<node lat="61.56991111015375" lon="11.226513894881572" id="-36904">
		<tag k="name" v="Andersvelta" />
		<tag k="place" v="locality" />
		<tag k="ssr:stedsnr" v="56336" />
	</node>
	<node lat="61.803116663585485" lon="10.743902780602285" id="-36915">
		<tag k="fixme" v="consider highway=path" />
		<tag k="highway" v="track" />
		<tag k="name" v="Atnkjølsvegen" />
		<tag k="ssr:stedsnr" v="58326" />
	</node>
	<node lat="62.04571944263907" lon="11.180000009424841" id="-36921">
		<tag k="highway" v="path" />
		<tag k="name" v="Gamle Spekedalsvegen" />
		<tag k="ssr:stedsnr" v="58354" />
	</node>
	<node lat="62.02834999785146" lon="11.540538895422717" id="-36933">
		<tag k="ford" v="yes" />
		<tag k="name" v="Fenåvadet" />
		<tag k="place" v="locality" />
		<tag k="ssr:stedsnr" v="58462" />
	</node>
	<node lat="61.89269167112288" lon="10.947647217466592" id="-36941">
		<tag k="name" v="Grasbekkvelta" />
		<tag k="place" v="locality" />
		<tag k="ssr:stedsnr" v="58712" />
	</node>
	<node lat="61.808344441548776" lon="10.94666945201494" id="-37003">
		<tag k="fixme" v="consider highway=path" />
		<tag k="highway" v="track" />
		<tag k="name" v="Kivsjøvegen" />
		<tag k="ssr:stedsnr" v="85471" />
	</node>
	<node lat="62.07009167049823" lon="11.540800003880767" id="-37042">
		<tag k="highway" v="path" />
		<tag k="name" v="Jotvegen" />
		<tag k="ssr:stedsnr" v="119452" />
	</node>
	<node lat="61.68801388855463" lon="11.216025006357901" id="-37048">
		<tag k="name" v="Sjøvikvelta" />
		<tag k="place" v="locality" />
		<tag k="ssr:stedsnr" v="119668" />
	</node>
	<node lat="61.80770277377689" lon="10.863255563485323" id="-37109">
		<tag k="highway" v="path" />
		<tag k="name" v="Stenvegen" />
		<tag k="ssr:stedsnr" v="140557" />
	</node>
	<node lat="61.90929722479136" lon="11.07096944646627" id="-37119">
		<tag k="name" v="Strømevjekanalen" />
		<tag k="ssr:stedsnr" v="147437" />
		<tag k="waterway" v="canal" />
	</node>
	<node lat="61.626369440218525" lon="11.293272230889201" id="-37132">
		<tag k="name" v="Kvernesvelta" />
		<tag k="place" v="locality" />
		<tag k="ssr:stedsnr" v="177349" />
	</node>
	<node lat="61.460188885950465" lon="11.468263882133426" id="-37154">
		<tag k="name" v="Bjønndalsvelta" />
		<tag k="place" v="locality" />
		<tag k="ssr:stedsnr" v="179298" />
	</node>
	<node lat="61.72159444137944" lon="11.223069440749667" id="-37165">
		<tag k="highway" v="path" />
		<tag k="name" v="Yttergangsvegen" />
		<tag k="ssr:stedsnr" v="180641" />
	</node>
	<node lat="61.87964999671046" lon="11.064308326269831" id="-37353">
		<tag k="bridge" v="yes" />
		<tag k="layer" v="1" />
		<tag k="name" v="Rødbekk bru" />
		<tag k="ssr:stedsnr" v="349332" />
	</node>
	<node lat="61.66037270706619" lon="11.219723658067185" id="-37354">
		<tag k="bridge" v="yes" />
		<tag k="layer" v="1" />
		<tag k="name" v="Flena bru" />
		<tag k="ssr:stedsnr" v="349345" />
	</node>
	<node lat="61.83355690910195" lon="10.877416596330574" id="-37355">
		<tag k="bridge" v="yes" />
		<tag k="layer" v="1" />
		<tag k="name" v="Kiva bru" />
		<tag k="ssr:stedsnr" v="349350" />
	</node>
	<node lat="61.70270555655701" lon="11.134002783530418" id="-37377">
		<tag k="highway" v="path" />
		<tag k="name" v="Eliasvegen" />
		<tag k="ssr:stedsnr" v="361083" />
	</node>
	<node lat="62.03730277430577" lon="11.149183327089913" id="-37399">
		<tag k="ford" v="yes" />
		<tag k="name" v="Skjærvadet" />
		<tag k="place" v="locality" />
		<tag k="ssr:stedsnr" v="361373" />
	</node>
	<node lat="62.12435833704502" lon="11.439986117792309" id="-37404">
		<tag k="bridge" v="yes" />
		<tag k="layer" v="1" />
		<tag k="name" v="Øvre Orvkloppa" />
		<tag k="ssr:stedsnr" v="361432" />
	</node>
	<node lat="62.01422777889407" lon="11.550719441625715" id="-37405">
		<tag k="ford" v="yes" />
		<tag k="name" v="Sløkravadet" />
		<tag k="place" v="locality" />
		<tag k="ssr:stedsnr" v="361433" />
	</node>
	<node lat="62.0204111099578" lon="11.532399999109321" id="-37406">
		<tag k="highway" v="path" />
		<tag k="name" v="Istervadvegen" />
		<tag k="ssr:stedsnr" v="361437" />
	</node>
	<node lat="61.848099996546004" lon="10.87128333274364" id="-37411">
		<tag k="fixme" v="consider highway=path" />
		<tag k="highway" v="track" />
		<tag k="name" v="Petravegen" />
		<tag k="ssr:stedsnr" v="361619" />
	</node>
	<node lat="61.72375278101779" lon="11.310505547434884" id="-37413">
		<tag k="fixme" v="consider highway=path" />
		<tag k="highway" v="track" />
		<tag k="name" v="Gamle Engerdalsvegen" />
		<tag k="ssr:stedsnr" v="361660" />
	</node>
	<node lat="61.56893611378528" lon="11.171147225829518" id="-37418">
		<tag k="fixme" v="consider highway=path" />
		<tag k="highway" v="track" />
		<tag k="name" v="Gamle Liavegen" />
		<tag k="ssr:stedsnr" v="361842" />
	</node>
	<node lat="61.90145455660272" lon="11.079601904367731" id="-37486">
		<tag k="alt_name" v="Haugset bru" />
		<tag k="bridge" v="yes" />
		<tag k="layer" v="1" />
		<tag k="name" v="Haugsetbrua" />
		<tag k="ssr:stedsnr" v="390408" />
	</node>
	<node lat="61.44349444608232" lon="11.33696389295776" id="-37488">
		<tag k="bridge" v="yes" />
		<tag k="layer" v="1" />
		<tag k="name" v="Nakua bru" />
		<tag k="ssr:stedsnr" v="410294" />
	</node>
	<node lat="62.01208837927761" lon="11.090698925152209" id="-37489">
		<tag k="bridge" v="yes" />
		<tag k="layer" v="1" />
		<tag k="name" v="Nordre Uglå bru" />
		<tag k="ssr:stedsnr" v="410295" />
	</node>
	<node lat="61.780600000533475" lon="11.07846388340942" id="-37503">
		<tag k="highway" v="path" />
		<tag k="name" v="Nysætervegen" />
		<tag k="ssr:stedsnr" v="421643" />
	</node>
	<node lat="61.80598889308558" lon="11.13157222310633" id="-37628">
		<tag k="name" v="Kanalen" />
		<tag k="ssr:stedsnr" v="511458" />
		<tag k="waterway" v="canal" />
	</node>
	<node lat="61.69595496791397" lon="11.196607077542906" id="-37634">
		<tag k="bridge" v="yes" />
		<tag k="layer" v="1" />
		<tag k="name" v="Åkrestrømmen bru" />
		<tag k="ssr:stedsnr" v="532253" />
	</node>
	<node lat="61.73242577299525" lon="11.201545315231941" id="-37635">
		<tag k="bridge" v="yes" />
		<tag k="layer" v="1" />
		<tag k="name" v="Kvernesodden fagverksbru" />
		<tag k="ssr:stedsnr" v="532257" />
	</node>
	<node lat="61.8803965439718" lon="11.088632001332936" id="-37636">
		<tag k="bridge" v="yes" />
		<tag k="layer" v="1" />
		<tag k="name" v="Mosevja bru" />
		<tag k="ssr:stedsnr" v="532258" />
	</node>
	<node lat="62.01004636154897" lon="11.091779972317019" id="-37637">
		<tag k="bridge" v="yes" />
		<tag k="layer" v="1" />
		<tag k="name" v="Søndre Uglå bru" />
		<tag k="ssr:stedsnr" v="532262" />
	</node>
	<node lat="61.51581389035333" lon="11.241644453427279" id="-37649">
		<tag k="name" v="Melhusvelta" />
		<tag k="place" v="locality" />
		<tag k="ssr:stedsnr" v="541358" />
	</node>
	<node lat="62.12737500449052" lon="11.417041668407435" id="-37656">
		<tag k="highway" v="path" />
		<tag k="name" v="Spekedalsvegen" />
		<tag k="ssr:stedsnr" v="543400" />
	</node>
	<node lat="61.922091666960945" lon="11.09490277262483" id="-37771">
		<tag k="highway" v="path" />
		<tag k="name" v="Øvre Livegen" />
		<tag k="ssr:stedsnr" v="572129" />
	</node>
	<node lat="61.57501389308682" lon="11.174466676110965" id="-37781">
		<tag k="bridge" v="yes" />
		<tag k="layer" v="1" />
		<tag k="name" v="Burua" />
		<tag k="ssr:stedsnr" v="592298" />
	</node>
	<node lat="61.48693888857259" lon="11.423027773672043" id="-37785">
		<tag k="highway" v="path" />
		<tag k="name" v="Strandvegen" />
		<tag k="ssr:stedsnr" v="602188" />
	</node>
	<node lat="61.625030551918336" lon="11.296130551011434" id="-37792">
		<tag k="name" v="Åkervelta" />
		<tag k="place" v="locality" />
		<tag k="ssr:stedsnr" v="602366" />
	</node>
	<node lat="61.831911109479066" lon="10.864069444603851" id="-37794">
		<tag k="highway" v="path" />
		<tag k="name" v="Grønnegata" />
		<tag k="ssr:stedsnr" v="602605" />
	</node>
	<node lat="61.9576805550752" lon="11.087730561401544" id="-37799">
		<tag k="bridge" v="yes" />
		<tag k="layer" v="1" />
		<tag k="name" v="Gammelbrua" />
		<tag k="ssr:stedsnr" v="603093" />
	</node>
	<node lat="61.67795833103682" lon="11.184627772744514" id="-37803">
		<tag k="highway" v="path" />
		<tag k="name" v="Bureisningsvegen" />
		<tag k="ssr:stedsnr" v="604060" />
	</node>
	<node lat="61.689186106822355" lon="11.101744446982305" id="-37807">
		<tag k="highway" v="path" />
		<tag k="name" v="Rønningsvegen" />
		<tag k="ssr:stedsnr" v="604098" />
	</node>
	<node lat="61.456097222264965" lon="11.319088895906155" id="-37812">
		<tag k="man_made" v="quay" />
		<tag k="name" v="Strandbrygga" />
		<tag k="place" v="locality" />
		<tag k="ssr:stedsnr" v="604828" />
	</node>
	<node lat="61.84616944748752" lon="10.922241670708264" id="-37825">
		<tag k="bridge" v="yes" />
		<tag k="layer" v="1" />
		<tag k="name" v="Bruen" />
		<tag k="ssr:stedsnr" v="604598" />
	</node>
	<node lat="61.75990562555078" lon="11.171591995477993" id="-37901">
		<tag k="bridge" v="yes" />
		<tag k="layer" v="1" />
		<tag k="name" v="Ottåa bru" />
		<tag k="ssr:stedsnr" v="653259" />
	</node>
	<node lat="61.94383834758525" lon="11.081773892978225" id="-37902">
		<tag k="alt_name" v="Unset bru" />
		<tag k="bridge" v="yes" />
		<tag k="layer" v="1" />
		<tag k="name" v="Unsetbrua" />
		<tag k="ssr:stedsnr" v="653261" />
	</node>
	<node lat="61.7929500022502" lon="11.136502777185294" id="-37903">
		<tag k="bridge" v="yes" />
		<tag k="layer" v="1" />
		<tag k="name" v="Hornset bru" />
		<tag k="ssr:stedsnr" v="653264" />
	</node>
	<node lat="61.83114444294858" lon="11.010494438714383" id="-37929">
		<tag k="highway" v="path" />
		<tag k="name" v="Svartåsvegen" />
		<tag k="ssr:stedsnr" v="665823" />
	</node>
	<node lat="61.97003611121129" lon="11.519583335138435" id="-37930">
		<tag k="highway" v="path" />
		<tag k="name" v="Misjøhaugvegen" />
		<tag k="ssr:stedsnr" v="665471" />
	</node>
	<node lat="61.84027777458558" lon="10.851841662025127" id="-37931">
		<tag k="highway" v="path" />
		<tag k="name" v="Elstadstien" />
		<tag k="ssr:stedsnr" v="665644" />
	</node>
	<node lat="61.773769444715654" lon="10.953616672916366" id="-37944">
		<tag k="highway" v="path" />
		<tag k="name" v="Elgstien" />
		<tag k="ssr:stedsnr" v="724414" />
	</node>
	<node lat="61.79124722620435" lon="10.979905560297981" id="-37949">
		<tag k="highway" v="path" />
		<tag k="name" v="Turistvegen" />
		<tag k="ssr:stedsnr" v="724643" />
	</node>
	<node lat="62.02427499953825" lon="11.168561102989258" id="-37957">
		<tag k="highway" v="path" />
		<tag k="name" v="Gråfjellvegen" />
		<tag k="ssr:stedsnr" v="725293" />
	</node>
	<node lat="61.711186114541036" lon="11.251563886913079" id="-37971">
		<tag k="highway" v="path" />
		<tag k="name" v="Vassnosvingen" />
		<tag k="ssr:stedsnr" v="726663" />
	</node>
	<node lat="61.74611944732437" lon="11.039755564718758" id="-37972">
		<tag k="highway" v="path" />
		<tag k="name" v="Rokkdalsvegen" />
		<tag k="ssr:stedsnr" v="726666" />
	</node>
	<node lat="61.57400833286948" lon="11.197158332438116" id="-37975">
		<tag k="name" v="Buruvelta" />
		<tag k="place" v="locality" />
		<tag k="ssr:stedsnr" v="726842" />
	</node>
	<node lat="61.84086666687659" lon="11.11164999741788" id="-38042">
		<tag k="highway" v="path" />
		<tag k="name" v="Gamle Kongevegen" />
		<tag k="ssr:stedsnr" v="754036" />
	</node>
	<node lat="61.848259729094444" lon="11.108227647374616" id="-38043">
		<tag k="bridge" v="yes" />
		<tag k="layer" v="1" />
		<tag k="name" v="Kvarsbrua" />
		<tag k="ssr:stedsnr" v="754037" />
	</node>
	<node lat="61.79083888956951" lon="10.856733328293153" id="-38065">
		<tag k="fixme" v="consider highway=path" />
		<tag k="highway" v="track" />
		<tag k="name" v="Klevsvingen" />
		<tag k="ssr:stedsnr" v="785378" />
	</node>
	<node lat="62.10953333291755" lon="11.463963886111555" id="-38083">
		<tag k="highway" v="path" />
		<tag k="name" v="Jotvegen" />
		<tag k="ssr:stedsnr" v="786464" />
	</node>
	<node lat="62.0808833367966" lon="11.429277773272803" id="-38085">
		<tag k="highway" v="path" />
		<tag k="name" v="Neksjølivegen" />
		<tag k="ssr:stedsnr" v="786337" />
	</node>
	<node lat="61.880630123514514" lon="11.083329815833169" id="-38162">
		<tag k="bridge" v="yes" />
		<tag k="layer" v="1" />
		<tag k="name" v="Bygdbrua" />
		<tag k="ssr:stedsnr" v="815129" />
	</node>
	<node lat="61.86980000455273" lon="10.565505552063845" id="-38190">
		<tag k="bridge" v="yes" />
		<tag k="layer" v="1" />
		<tag k="name" v="Nedalsbotn" />
		<tag k="ssr:stedsnr" v="847289" />
	</node>
	<node lat="62.023261113057" lon="11.511122213937346" id="-38203">
		<tag k="highway" v="path" />
		<tag k="name" v="Fenåvadvegen" />
		<tag k="ssr:stedsnr" v="847458" />
	</node>
	<node lat="61.889483336550036" lon="10.944924994248328" id="-38206">
		<tag k="highway" v="path" />
		<tag k="name" v="Brakkvegen" />
		<tag k="ssr:stedsnr" v="847702" />
	</node>
	<node lat="61.70693333336511" lon="11.253719439002479" id="-38210">
		<tag k="highway" v="path" />
		<tag k="name" v="Langeggvegen" />
		<tag k="ssr:stedsnr" v="847648" />
	</node>
	<node lat="61.72329444858206" lon="11.23436944666817" id="-38212">
		<tag k="highway" v="path" />
		<tag k="name" v="Øvergangsvegen" />
		<tag k="ssr:stedsnr" v="847656" />
	</node>
	<node lat="61.61518055224286" lon="11.139494438885155" id="-38217">
		<tag k="fixme" v="consider highway=path" />
		<tag k="highway" v="track" />
		<tag k="name" v="Kneppåsvegen" />
		<tag k="ssr:stedsnr" v="847909" />
	</node>
	<node lat="61.446730556085356" lon="11.328505562749312" id="-38219">
		<tag k="name" v="Nakuvelta" />
		<tag k="place" v="locality" />
		<tag k="ssr:stedsnr" v="847912" />
	</node>
	<node lat="61.927736107057655" lon="10.945394435820656" id="-38285">
		<tag k="highway" v="path" />
		<tag k="name" v="Aursjøvegen" />
		<tag k="ssr:stedsnr" v="939643" />
	</node>
	<node lat="62.06042077325293" lon="11.06217927585461" id="-38287">
		<tag k="alt_name" v="Neka bru" />
		<tag k="bridge" v="yes" />
		<tag k="layer" v="1" />
		<tag k="name" v="Nekbrua" />
		<tag k="ssr:stedsnr" v="957277" />
	</node>
	<node lat="61.46502221897805" lon="11.400738896826931" id="-38291">
		<tag k="highway" v="path" />
		<tag k="name" v="Hedmarkingvegen" />
		<tag k="ssr:stedsnr" v="966182" />
	</node>
	<node lat="61.48660555288406" lon="11.303322222161874" id="-38296">
		<tag k="fixme" v="consider highway=path" />
		<tag k="highway" v="track" />
		<tag k="name" v="Sætervegen" />
		<tag k="ssr:stedsnr" v="966317" />
	</node>
	<node lat="61.75896666413941" lon="11.250358338909672" id="-38301">
		<tag k="highway" v="path" />
		<tag k="name" v="Sætervegen" />
		<tag k="ssr:stedsnr" v="966981" />
	</node>
	<node lat="61.817722218927855" lon="10.96350832771453" id="-38302">
		<tag k="highway" v="path" />
		<tag k="name" v="Storjotvegen" />
		<tag k="ssr:stedsnr" v="967769" />
	</node>
	<node lat="62.0409805597837" lon="11.128613895199813" id="-38310">
		<tag k="highway" v="path" />
		<tag k="name" v="Helgesvegen" />
		<tag k="ssr:stedsnr" v="968344" />
	</node>
	<node lat="62.05780000087164" lon="11.41963888697905" id="-38313">
		<tag k="man_made" v="cairn" />
		<tag k="name" v="Andersvarden" />
		<tag k="place" v="locality" />
		<tag k="ssr:stedsnr" v="968354" />
	</node>
	<node lat="61.71037222414445" lon="11.092588897557288" id="-38315">
		<tag k="highway" v="path" />
		<tag k="name" v="Fellingvegen" />
		<tag k="ssr:stedsnr" v="968198" />
	</node>
	<node lat="61.855252776108216" lon="11.158102769093466" id="-38317">
		<tag k="highway" v="path" />
		<tag k="name" v="Grauthølvegen" />
		<tag k="ssr:stedsnr" v="968234" />
	</node>
	<node lat="61.513941663821115" lon="11.546933337288452" id="-38321">
		<tag k="fixme" v="consider highway=path" />
		<tag k="highway" v="track" />
		<tag k="name" v="Sætervegen" />
		<tag k="ssr:stedsnr" v="968326" />
	</node>
	<node lat="62.07504999952385" lon="11.468594438223548" id="-38326">
		<tag k="ford" v="yes" />
		<tag k="name" v="Veslevadet" />
		<tag k="place" v="locality" />
		<tag k="ssr:stedsnr" v="968442" />
	</node>
	<node lat="62.07293610668707" lon="11.471297224261033" id="-38327">
		<tag k="ford" v="yes" />
		<tag k="name" v="Søndre Vadet" />
		<tag k="place" v="locality" />
		<tag k="ssr:stedsnr" v="968443" />
	</node>
	<node lat="61.91142499713985" lon="10.913969437959665" id="-38332">
		<tag k="highway" v="path" />
		<tag k="name" v="Jordabuvegen" />
		<tag k="ssr:stedsnr" v="968662" />
	</node>
	<node lat="61.91697778028175" lon="10.955858338455991" id="-38334">
		<tag k="highway" v="path" />
		<tag k="name" v="Elvålsløpa" />
		<tag k="ssr:stedsnr" v="968668" />
	</node>
	<node lat="61.98927777986934" lon="11.006949993325367" id="-38343">
		<tag k="highway" v="path" />
		<tag k="name" v="Skåråssætervegen" />
		<tag k="ssr:stedsnr" v="968871" />
	</node>
</osm>
