<?xml version="1.0" encoding="UTF-8"?>
<osm version="0.6" generator="osmapis">
	<node lat="61.89270278151029" lon="10.867083340351062" id="-26051">
		<tag k="name" v="Stormyra" />
		<tag k="natural" v="wetland" />
		<tag k="ssr:stedsnr" v="11116" />
	</node>
	<node lat="62.002063890355245" lon="10.954183341378162" id="-26087">
		<tag k="name" v="Skårer" />
		<tag k="place" v="locality" />
		<tag k="ssr:stedsnr" v="54672" />
	</node>
	<node lat="61.64960000442591" lon="11.128013890627933" id="-26091">
		<tag k="name" v="Lallemyra" />
		<tag k="natural" v="wetland" />
		<tag k="ssr:stedsnr" v="56001" />
	</node>
	<node lat="61.93379722656168" lon="11.16847778131198" id="-26093">
		<tag k="name" v="Viermyra" />
		<tag k="natural" v="wetland" />
		<tag k="ssr:stedsnr" v="56177" />
	</node>
	<node lat="61.76860833377137" lon="10.886355555857449" id="-26107">
		<tag k="name" v="Bløthølmyra" />
		<tag k="natural" v="wetland" />
		<tag k="ssr:stedsnr" v="57420" />
	</node>
	<node lat="61.642927775481155" lon="11.147488894947758" id="-26112">
		<tag k="name" v="Ulbekkmyra" />
		<tag k="natural" v="wetland" />
		<tag k="ssr:stedsnr" v="58080" />
	</node>
	<node lat="61.48764721868898" lon="11.537622222848569" id="-26114">
		<tag k="historic" v="shieling" />
		<tag k="name" v="Gammelvollen" />
		<tag k="place" v="locality" />
		<tag k="ssr:stedsnr" v="58322" />
	</node>
	<node lat="62.073625001866404" lon="11.047247226514438" id="-26116">
		<tag k="name" v="Nedre Vesleenget" />
		<tag k="place" v="locality" />
		<tag k="ssr:stedsnr" v="58306" />
	</node>
	<node lat="61.94998055787865" lon="11.161319453129913" id="-26119">
		<tag k="name" v="Langebekkmyrene" />
		<tag k="natural" v="wetland" />
		<tag k="ssr:stedsnr" v="58519" />
	</node>
	<node lat="61.84104999768409" lon="10.979088893870834" id="-26128">
		<tag k="name" v="Kvitmyra" />
		<tag k="natural" v="wetland" />
		<tag k="ssr:stedsnr" v="58787" />
	</node>
	<node lat="62.15430832903131" lon="11.436880547163513" id="-26131">
		<tag k="historic" v="shieling" />
		<tag k="name" v="Gamle Orvdalsvollen" />
		<tag k="place" v="locality" />
		<tag k="ssr:stedsnr" v="240442" />
	</node>
	<node lat="62.11257499593381" lon="11.438538887379119" id="-26132">
		<tag k="name" v="Finnjota" />
		<tag k="natural" v="wetland" />
		<tag k="ssr:stedsnr" v="240418" />
	</node>
	<node lat="62.082761110391004" lon="11.494580549461944" id="-26134">
		<tag k="name" v="Krokettbekkmyra" />
		<tag k="natural" v="wetland" />
		<tag k="ssr:stedsnr" v="240448" />
	</node>
	<node lat="61.618688893373346" lon="11.145083326303517" id="-26154">
		<tag k="name" v="Midtskogmyra" />
		<tag k="natural" v="wetland" />
		<tag k="ssr:stedsnr" v="240917" />
	</node>
	<node lat="61.65579999995802" lon="11.481524995221339" id="-26170">
		<tag k="name" v="Blæsterbekkjølen" />
		<tag k="natural" v="wetland" />
		<tag k="ssr:stedsnr" v="71401" />
	</node>
	<node lat="61.43582499953699" lon="11.281238889182381" id="-26207">
		<tag k="historic" v="shieling" />
		<tag k="name" v="Glesåvollen" />
		<tag k="place" v="locality" />
		<tag k="ssr:stedsnr" v="117310" />
	</node>
	<node lat="61.75701666857027" lon="10.883849992297876" id="-26223">
		<tag k="name" v="Salmyra" />
		<tag k="natural" v="wetland" />
		<tag k="ssr:stedsnr" v="119531" />
	</node>
	<node lat="61.77683055512172" lon="10.972908341512762" id="-26226">
		<tag k="name" v="Bløtmyra" />
		<tag k="natural" v="wetland" />
		<tag k="ssr:stedsnr" v="119677" />
	</node>
	<node lat="61.50904729808268" lon="11.375115878969401" id="-26239">
		<tag k="fixme" v="multiple name tags, choose one and add the other to alt_name" />
		<tag k="name" v="Storkjølen;Gammelsæterkjølen" />
		<tag k="natural" v="wetland" />
		<tag k="ssr:stedsnr" v="252240" />
	</node>
	<node lat="61.91157777445437" lon="10.539302784976758" id="-26252">
		<tag k="historic" v="shieling" />
		<tag k="name" v="Hattfløyvangen" />
		<tag k="place" v="locality" />
		<tag k="ssr:stedsnr" v="252441" />
	</node>
	<node lat="62.05230000384891" lon="11.116738880308102" id="-26280">
		<tag k="name" v="Slåttmyra" />
		<tag k="natural" v="wetland" />
		<tag k="ssr:stedsnr" v="132011" />
	</node>
	<node lat="61.785827774007245" lon="11.198330546765746" id="-26323">
		<tag k="alt_name" v="Bergvollen" />
		<tag k="historic" v="shieling" />
		<tag k="name" v="Bergevollen" />
		<tag k="place" v="locality" />
		<tag k="ssr:stedsnr" v="148426" />
	</node>
	<node lat="61.80420277918328" lon="10.995091663847482" id="-26335">
		<tag k="name" v="Klettbekkmyra" />
		<tag k="natural" v="wetland" />
		<tag k="ssr:stedsnr" v="178705" />
	</node>
	<node lat="62.01085277650996" lon="11.088330554352458" id="-26338">
		<tag k="name" v="Krokenget" />
		<tag k="place" v="locality" />
		<tag k="ssr:stedsnr" v="179315" />
	</node>
	<node lat="61.98283333186145" lon="11.029036113300624" id="-26340">
		<tag k="name" v="Grønnstripan" />
		<tag k="natural" v="wetland" />
		<tag k="ssr:stedsnr" v="179326" />
	</node>
	<node lat="62.076219441739404" lon="11.459666660219346" id="-26342">
		<tag k="name" v="Nordre Øya" />
		<tag k="place" v="locality" />
		<tag k="ssr:stedsnr" v="179406" />
	</node>
	<node lat="62.022819447497135" lon="11.484694441888964" id="-26344">
		<tag k="name" v="Hemmyra" />
		<tag k="natural" v="wetland" />
		<tag k="ssr:stedsnr" v="179418" />
	</node>
	<node lat="61.46688611092305" lon="11.439402770327169" id="-26348">
		<tag k="name" v="Bjønndalsmyra" />
		<tag k="natural" v="wetland" />
		<tag k="ssr:stedsnr" v="179604" />
	</node>
	<node lat="61.74803889250259" lon="11.043674991202549" id="-26349">
		<tag k="name" v="Stormyra" />
		<tag k="natural" v="wetland" />
		<tag k="ssr:stedsnr" v="179625" />
	</node>
	<node lat="61.686194444864256" lon="11.16884444340252" id="-26353">
		<tag k="name" v="Nybumyra" />
		<tag k="natural" v="wetland" />
		<tag k="ssr:stedsnr" v="180073" />
	</node>
	<node lat="62.02579444636228" lon="11.529313897709152" id="-26405">
		<tag k="name" v="Gjerdinga" />
		<tag k="place" v="locality" />
		<tag k="ssr:stedsnr" v="240433" />
	</node>
	<node lat="62.03425000248318" lon="11.072830555058562" id="-26411">
		<tag k="name" v="Langleitet" />
		<tag k="place" v="locality" />
		<tag k="ssr:stedsnr" v="240840" />
	</node>
	<node lat="61.635319443835854" lon="11.132258328915446" id="-26413">
		<tag k="name" v="Starrmyra" />
		<tag k="natural" v="wetland" />
		<tag k="ssr:stedsnr" v="240897" />
	</node>
	<node lat="62.089799999147694" lon="11.07479443492537" id="-26424">
		<tag k="alt_name" v="Lauvåsmyrene" />
		<tag k="name" v="Lauvåsmyra" />
		<tag k="natural" v="wetland" />
		<tag k="ssr:stedsnr" v="253117" />
	</node>
	<node lat="61.88863888575126" lon="11.424900000462438" id="-26440">
		<tag k="alt_name" v="Tannvordsmyra" />
		<tag k="name" v="Tannvolsmyra" />
		<tag k="natural" v="wetland" />
		<tag k="ssr:stedsnr" v="254008" />
	</node>
	<node lat="62.06336110978955" lon="11.180994441824167" id="-26441">
		<tag k="name" v="Gloppmyra" />
		<tag k="natural" v="wetland" />
		<tag k="ssr:stedsnr" v="254010" />
	</node>
	<node lat="61.81575555380547" lon="11.133522219026823" id="-26452">
		<tag k="name" v="Stubbteigen" />
		<tag k="natural" v="beach" />
		<tag k="ssr:stedsnr" v="269387" />
		<tag k="surface" v="sand" />
	</node>
	<node lat="61.65624166995242" lon="11.09922499345341" id="-26455">
		<tag k="name" v="Orrfuglholtet" />
		<tag k="place" v="locality" />
		<tag k="ssr:stedsnr" v="299026" />
	</node>
	<node lat="61.975919448209766" lon="11.118574999618687" id="-26470">
		<tag k="name" v="Veslefugldyet" />
		<tag k="natural" v="wetland" />
		<tag k="ssr:stedsnr" v="300476" />
	</node>
	<node lat="61.72623055735618" lon="11.105055561853952" id="-26474">
		<tag k="landuse" v="meadow" />
		<tag k="name" v="Småvolla" />
		<tag k="ssr:stedsnr" v="301173" />
	</node>
	<node lat="61.717011111386284" lon="11.25614444950703" id="-26478">
		<tag k="name" v="Lauvhusmyra" />
		<tag k="natural" v="wetland" />
		<tag k="ssr:stedsnr" v="301643" />
	</node>
	<node lat="61.608022223153974" lon="11.169622224580289" id="-26491">
		<tag k="name" v="Vierrismyra" />
		<tag k="natural" v="wetland" />
		<tag k="ssr:stedsnr" v="301917" />
	</node>
	<node lat="61.53552777349439" lon="11.451994448825939" id="-26495">
		<tag k="name" v="Flenkjølen" />
		<tag k="natural" v="wetland" />
		<tag k="ssr:stedsnr" v="313286" />
	</node>
	<node lat="61.78485277465058" lon="10.888452778661133" id="-26505">
		<tag k="alt_name" v="Tøråsmyra" />
		<tag k="name" v="Tørråsmyra" />
		<tag k="natural" v="wetland" />
		<tag k="ssr:stedsnr" v="314212" />
	</node>
	<node lat="61.91496388733207" lon="11.07275834265594" id="-26523">
		<tag k="landuse" v="meadow" />
		<tag k="name" v="Kvisla" />
		<tag k="ssr:stedsnr" v="329419" />
	</node>
	<node lat="61.72974444159075" lon="11.227627783427769" id="-26536">
		<tag k="name" v="Langmyra" />
		<tag k="natural" v="wetland" />
		<tag k="ssr:stedsnr" v="359550" />
	</node>
	<node lat="61.682224998033625" lon="11.127863888291872" id="-26568">
		<tag k="name" v="Røsken" />
		<tag k="place" v="locality" />
		<tag k="ssr:stedsnr" v="374398" />
	</node>
	<node lat="61.46721944883677" lon="11.357866673477702" id="-26587">
		<tag k="name" v="Bjørneltmyra" />
		<tag k="natural" v="wetland" />
		<tag k="ssr:stedsnr" v="481197" />
	</node>
	<node lat="61.91921389203523" lon="11.177761107869268" id="-26588">
		<tag k="name" v="Kjølvollmyra" />
		<tag k="natural" v="wetland" />
		<tag k="ssr:stedsnr" v="481211" />
	</node>
	<node lat="61.73959166985625" lon="11.153438890983674" id="-26591">
		<tag k="name" v="Langmyra" />
		<tag k="natural" v="wetland" />
		<tag k="ssr:stedsnr" v="481220" />
	</node>
	<node lat="61.63204722418366" lon="11.12857500010565" id="-26600">
		<tag k="name" v="Skrukkemyra" />
		<tag k="natural" v="wetland" />
		<tag k="ssr:stedsnr" v="481879" />
	</node>
	<node lat="61.59637222395843" lon="11.183658324139678" id="-26603">
		<tag k="historic" v="shieling" />
		<tag k="name" v="Røstvangen" />
		<tag k="place" v="locality" />
		<tag k="ssr:stedsnr" v="481931" />
	</node>
	<node lat="62.076302778721804" lon="11.042147228953668" id="-26605">
		<tag k="name" v="Vidvollen" />
		<tag k="place" v="locality" />
		<tag k="ssr:stedsnr" v="482255" />
	</node>
	<node lat="61.78882777589025" lon="11.310272227347964" id="-26610">
		<tag k="name" v="Maurbekkslauan" />
		<tag k="place" v="locality" />
		<tag k="ssr:stedsnr" v="482889" />
	</node>
	<node lat="61.7867222197195" lon="10.739419449658184" id="-26616">
		<tag k="name" v="Elgmyra" />
		<tag k="natural" v="wetland" />
		<tag k="ssr:stedsnr" v="483330" />
	</node>
	<node lat="61.839988885491394" lon="10.894652771887078" id="-26624">
		<tag k="name" v="Skulhusmyra" />
		<tag k="natural" v="wetland" />
		<tag k="ssr:stedsnr" v="483624" />
	</node>
	<node lat="61.95404166922742" lon="11.030899996236569" id="-26629">
		<tag k="landuse" v="meadow" />
		<tag k="name" v="Setan" />
		<tag k="ssr:stedsnr" v="483891" />
	</node>
	<node lat="61.83978889220739" lon="11.029219448969803" id="-26631">
		<tag k="name" v="Kalvmyra" />
		<tag k="natural" v="wetland" />
		<tag k="ssr:stedsnr" v="483833" />
	</node>
	<node lat="62.0111500009409" lon="11.191774993948862" id="-26647">
		<tag k="name" v="Storbekkjølen" />
		<tag k="natural" v="wetland" />
		<tag k="ssr:stedsnr" v="422305" />
	</node>
	<node lat="62.0725416667314" lon="11.464513895562908" id="-26653">
		<tag k="name" v="Søndre Øya" />
		<tag k="place" v="locality" />
		<tag k="ssr:stedsnr" v="422406" />
	</node>
	<node lat="61.61728333383246" lon="11.164233338983617" id="-26663">
		<tag k="name" v="Kringlemyra" />
		<tag k="natural" v="wetland" />
		<tag k="ssr:stedsnr" v="422911" />
	</node>
	<node lat="61.83309999581472" lon="10.995925003866967" id="-26671">
		<tag k="name" v="Mjeltmyra" />
		<tag k="natural" v="wetland" />
		<tag k="ssr:stedsnr" v="435206" />
	</node>
	<node lat="61.64357777370671" lon="11.123980546937036" id="-26679">
		<tag k="name" v="Lemyra" />
		<tag k="natural" v="wetland" />
		<tag k="ssr:stedsnr" v="435505" />
	</node>
	<node lat="62.07831944610582" lon="11.087433333460051" id="-26695">
		<tag k="name" v="Stormyra" />
		<tag k="natural" v="wetland" />
		<tag k="ssr:stedsnr" v="436017" />
	</node>
	<node lat="61.47449166571808" lon="11.611641674739971" id="-26717">
		<tag k="alt_name" v="Sylismyra" />
		<tag k="name" v="Syljismyra" />
		<tag k="natural" v="wetland" />
		<tag k="ssr:stedsnr" v="675243" />
	</node>
	<node lat="61.92852499943393" lon="11.160569436537477" id="-26759">
		<tag k="name" v="Vierrismyrene" />
		<tag k="natural" v="wetland" />
		<tag k="ssr:stedsnr" v="678264" />
	</node>
	<node lat="61.774197219737225" lon="10.925961109524007" id="-26763">
		<tag k="name" v="Toppmyra" />
		<tag k="natural" v="wetland" />
		<tag k="ssr:stedsnr" v="481465" />
	</node>
	<node lat="61.93482500181611" lon="11.094961117561967" id="-26778">
		<tag k="name" v="Stormyra" />
		<tag k="natural" v="wetland" />
		<tag k="ssr:stedsnr" v="482063" />
	</node>
	<node lat="61.88979444889466" lon="11.72042777434493" id="-26780">
		<tag k="name" v="Langmyra" />
		<tag k="natural" v="wetland" />
		<tag k="ssr:stedsnr" v="482376" />
	</node>
	<node lat="61.672966670824074" lon="11.303063884654664" id="-26782">
		<tag k="name" v="Bergevollen" />
		<tag k="place" v="locality" />
		<tag k="ssr:stedsnr" v="482472" />
	</node>
	<node lat="61.707041669350644" lon="11.239563885908426" id="-26788">
		<tag k="name" v="Skogholet" />
		<tag k="place" v="locality" />
		<tag k="ssr:stedsnr" v="483665" />
	</node>
	<node lat="61.96284722234457" lon="10.97706389443665" id="-26789">
		<tag k="name" v="Lensmannsengene" />
		<tag k="place" v="locality" />
		<tag k="ssr:stedsnr" v="483807" />
	</node>
	<node lat="61.61018333498736" lon="11.155783339788776" id="-26792">
		<tag k="name" v="Flarkemyra" />
		<tag k="natural" v="wetland" />
		<tag k="ssr:stedsnr" v="483924" />
	</node>
	<node lat="61.78036388974301" lon="11.266977769802695" id="-26833">
		<tag k="name" v="Fuggsjømyrene" />
		<tag k="natural" v="wetland" />
		<tag k="ssr:stedsnr" v="505302" />
	</node>
	<node lat="62.03707499677982" lon="11.532594442698237" id="-26860">
		<tag k="name" v="Sjømyra" />
		<tag k="natural" v="wetland" />
		<tag k="ssr:stedsnr" v="543421" />
	</node>
	<node lat="61.969544441839986" lon="11.191038894577375" id="-26861">
		<tag k="name" v="Størtjønnmyrene" />
		<tag k="natural" v="wetland" />
		<tag k="ssr:stedsnr" v="543467" />
	</node>
	<node lat="61.96700277518975" lon="11.085077784982106" id="-26862">
		<tag k="name" v="Stormyra" />
		<tag k="natural" v="wetland" />
		<tag k="ssr:stedsnr" v="543473" />
	</node>
	<node lat="61.56020555363228" lon="11.154238889616153" id="-26867">
		<tag k="name" v="Torvstrømyra" />
		<tag k="natural" v="wetland" />
		<tag k="ssr:stedsnr" v="543807" />
	</node>
	<node lat="61.62686666542423" lon="11.14100832448823" id="-26870">
		<tag k="name" v="Blestermyra" />
		<tag k="natural" v="wetland" />
		<tag k="ssr:stedsnr" v="543881" />
	</node>
	<node lat="61.70140277787486" lon="11.108874991960668" id="-26879">
		<tag k="name" v="Vollmyra" />
		<tag k="natural" v="wetland" />
		<tag k="ssr:stedsnr" v="555318" />
	</node>
	<node lat="61.8645638915201" lon="10.684500008457457" id="-26884">
		<tag k="name" v="Stormyra" />
		<tag k="natural" v="wetland" />
		<tag k="ssr:stedsnr" v="555422" />
	</node>
	<node lat="61.997811113489284" lon="11.120747215257989" id="-26896">
		<tag k="name" v="Kvilsteinmyra" />
		<tag k="natural" v="wetland" />
		<tag k="ssr:stedsnr" v="556236" />
	</node>
	<node lat="61.648244440610306" lon="11.122486109306427" id="-26919">
		<tag k="name" v="Gommomyra" />
		<tag k="natural" v="wetland" />
		<tag k="ssr:stedsnr" v="602005" />
	</node>
	<node lat="61.781674998760074" lon="10.953788891000006" id="-26925">
		<tag k="historic" v="shieling" />
		<tag k="name" v="Kivvollen" />
		<tag k="place" v="locality" />
		<tag k="ssr:stedsnr" v="602448" />
	</node>
	<node lat="61.77828055606549" lon="10.954938889464875" id="-26927">
		<tag k="name" v="Kivvollmyra" />
		<tag k="natural" v="wetland" />
		<tag k="ssr:stedsnr" v="602452" />
	</node>
	<node lat="61.484755551768416" lon="11.336208331202558" id="-26928">
		<tag k="name" v="Kvernbergsmyra" />
		<tag k="natural" v="wetland" />
		<tag k="ssr:stedsnr" v="603222" />
	</node>
	<node lat="62.080119444683675" lon="11.062836107058544" id="-26929">
		<tag k="name" v="Hemåsmyra" />
		<tag k="natural" v="wetland" />
		<tag k="ssr:stedsnr" v="603262" />
	</node>
	<node lat="62.08813055211339" lon="11.037661112585232" id="-26930">
		<tag k="name" v="Vestenget" />
		<tag k="place" v="locality" />
		<tag k="ssr:stedsnr" v="603265" />
	</node>
	<node lat="62.08844721799929" lon="11.043788894175469" id="-26931">
		<tag k="name" v="Rytterbotn" />
		<tag k="place" v="locality" />
		<tag k="ssr:stedsnr" v="603269" />
	</node>
	<node lat="61.474775001814166" lon="11.479305548736443" id="-26932">
		<tag k="name" v="Stormyra" />
		<tag k="natural" v="wetland" />
		<tag k="ssr:stedsnr" v="603270" />
	</node>
	<node lat="62.108783334360645" lon="11.084869452047714" id="-26972">
		<tag k="name" v="Stormyra" />
		<tag k="natural" v="wetland" />
		<tag k="ssr:stedsnr" v="617089" />
	</node>
	<node lat="62.048475003311474" lon="11.144286108869562" id="-26977">
		<tag k="alt_name" v="Økjoten" />
		<tag k="name" v="Øygjotmyra" />
		<tag k="natural" v="wetland" />
		<tag k="ssr:stedsnr" v="617001" />
	</node>
	<node lat="62.13729166502994" lon="11.081977773743402" id="-26986">
		<tag k="name" v="Lauvbekkfløyet" />
		<tag k="natural" v="wetland" />
		<tag k="ssr:stedsnr" v="617199" />
	</node>
	<node lat="62.020652775041285" lon="11.591366669863362" id="-26991">
		<tag k="name" v="Svarttjønnfloen" />
		<tag k="natural" v="wetland" />
		<tag k="ssr:stedsnr" v="617444" />
	</node>
	<node lat="61.82730277830004" lon="10.95935276956904" id="-27001">
		<tag k="name" v="Kalbergmyra" />
		<tag k="natural" v="wetland" />
		<tag k="ssr:stedsnr" v="630493" />
	</node>
	<node lat="61.932086109206935" lon="11.06374722359872" id="-27004">
		<tag k="name" v="Svartmoen" />
		<tag k="place" v="locality" />
		<tag k="ssr:stedsnr" v="632008" />
	</node>
	<node lat="61.88498611506274" lon="11.083361119092208" id="-27015">
		<tag k="name" v="Prestegardsjordet" />
		<tag k="place" v="locality" />
		<tag k="ssr:stedsnr" v="632150" />
	</node>
	<node lat="61.9055138926557" lon="11.07526666108171" id="-27018">
		<tag k="landuse" v="meadow" />
		<tag k="name" v="Nordengene" />
		<tag k="ssr:stedsnr" v="632455" />
	</node>
	<node lat="61.902013887241914" lon="11.16306667135679" id="-27022">
		<tag k="name" v="Orremyra" />
		<tag k="natural" v="wetland" />
		<tag k="ssr:stedsnr" v="663195" />
	</node>
	<node lat="62.05279722583452" lon="11.063024997461321" id="-27032">
		<tag k="name" v="Størnabben" />
		<tag k="place" v="locality" />
		<tag k="ssr:stedsnr" v="664232" />
	</node>
	<node lat="62.02708333440138" lon="11.200691667183442" id="-27033">
		<tag k="name" v="Uglåbørtet" />
		<tag k="natural" v="wetland" />
		<tag k="ssr:stedsnr" v="664284" />
	</node>
	<node lat="61.63826667083926" lon="11.113116667389288" id="-27049">
		<tag k="name" v="Rypemyra" />
		<tag k="natural" v="wetland" />
		<tag k="ssr:stedsnr" v="665902" />
	</node>
	<node lat="61.885186111761186" lon="11.226874996508714" id="-27067">
		<tag k="name" v="Milskiftmyra" />
		<tag k="natural" v="wetland" />
		<tag k="ssr:stedsnr" v="678011" />
	</node>
	<node lat="61.95237500209173" lon="11.474947224739594" id="-27074">
		<tag k="name" v="Åkeråmyra" />
		<tag k="natural" v="wetland" />
		<tag k="ssr:stedsnr" v="678097" />
	</node>
	<node lat="61.54787777995968" lon="11.30299444858621" id="-27093">
		<tag k="name" v="Andtjønnkjølen" />
		<tag k="natural" v="wetland" />
		<tag k="ssr:stedsnr" v="691478" />
	</node>
	<node lat="61.71730277481728" lon="11.367380549256989" id="-27115">
		<tag k="name" v="Renåmyra" />
		<tag k="natural" v="wetland" />
		<tag k="ssr:stedsnr" v="724375" />
	</node>
	<node lat="61.78221389199987" lon="11.49690000855889" id="-27116">
		<tag k="name" v="Stormyra" />
		<tag k="natural" v="wetland" />
		<tag k="ssr:stedsnr" v="724806" />
	</node>
	<node lat="61.6375333335977" lon="11.165277784946777" id="-27117">
		<tag k="name" v="Store Sten" />
		<tag k="natural" v="stone" />
		<tag k="ssr:stedsnr" v="724901" />
	</node>
	<node lat="61.60040277459743" lon="11.413344449717949" id="-27118">
		<tag k="name" v="Skogstjøllen" />
		<tag k="place" v="locality" />
		<tag k="ssr:stedsnr" v="725108" />
	</node>
	<node lat="62.08433888762094" lon="11.039974993666544" id="-27120">
		<tag k="name" v="Øvre Vesleenget" />
		<tag k="place" v="locality" />
		<tag k="ssr:stedsnr" v="725270" />
	</node>
	<node lat="62.031786114696615" lon="11.187355562303516" id="-27127">
		<tag k="name" v="Gråkolla" />
		<tag k="natural" v="wetland" />
		<tag k="ssr:stedsnr" v="725314" />
	</node>
	<node lat="62.04085833090238" lon="11.190036108193071" id="-27128">
		<tag k="name" v="Mokkmyrene" />
		<tag k="natural" v="wetland" />
		<tag k="ssr:stedsnr" v="725315" />
	</node>
	<node lat="62.117133330717834" lon="11.007288891429306" id="-27145">
		<tag k="name" v="Tegnodden" />
		<tag k="place" v="locality" />
		<tag k="ssr:stedsnr" v="902056" />
	</node>
	<node lat="62.038936112358094" lon="11.195594446404547" id="-27148">
		<tag k="name" v="Gråfjellmyrene" />
		<tag k="natural" v="wetland" />
		<tag k="ssr:stedsnr" v="738010" />
	</node>
	<node lat="61.53457778106717" lon="11.162575007386293" id="-27151">
		<tag k="name" v="Storåsmyra" />
		<tag k="natural" v="wetland" />
		<tag k="ssr:stedsnr" v="738313" />
	</node>
	<node lat="61.63555000319683" lon="11.122149998012132" id="-27159">
		<tag k="name" v="Malmmyra" />
		<tag k="natural" v="wetland" />
		<tag k="ssr:stedsnr" v="738468" />
	</node>
	<node lat="61.80891667083376" lon="10.70639167479484" id="-27179">
		<tag k="alt_name" v="Lemyrane" />
		<tag k="name" v="Lemyrene" />
		<tag k="natural" v="wetland" />
		<tag k="ssr:stedsnr" v="739247" />
	</node>
	<node lat="61.85725277633941" lon="10.98367500505546" id="-27181">
		<tag k="name" v="Hanestadkjølen" />
		<tag k="natural" v="wetland" />
		<tag k="ssr:stedsnr" v="739145" />
	</node>
	<node lat="61.450038892014156" lon="11.38719722183795" id="-27204">
		<tag k="name" v="Stormyra" />
		<tag k="natural" v="wetland" />
		<tag k="ssr:stedsnr" v="906187" />
	</node>
	<node lat="61.768736110668875" lon="10.868419448867163" id="-27210">
		<tag k="name" v="Grasmyra" />
		<tag k="natural" v="wetland" />
		<tag k="ssr:stedsnr" v="906391" />
	</node>
	<node lat="61.64157222660226" lon="11.153319436065939" id="-27222">
		<tag k="name" v="Halstenmyra" />
		<tag k="natural" v="wetland" />
		<tag k="ssr:stedsnr" v="908089" />
	</node>
	<node lat="61.96266388827387" lon="11.131500001927284" id="-27223">
		<tag k="name" v="Torvstrømyra" />
		<tag k="natural" v="wetland" />
		<tag k="ssr:stedsnr" v="907430" />
	</node>
	<node lat="61.953113891036345" lon="11.128741669504734" id="-27230">
		<tag k="name" v="Bergemyra" />
		<tag k="natural" v="wetland" />
		<tag k="ssr:stedsnr" v="908130" />
	</node>
	<node lat="61.95701666500964" lon="10.944063885844557" id="-27240">
		<tag k="name" v="Stormyra" />
		<tag k="natural" v="wetland" />
		<tag k="ssr:stedsnr" v="908673" />
	</node>
	<node lat="61.61278611259041" lon="11.147472222496807" id="-27247">
		<tag k="name" v="Store Sten" />
		<tag k="natural" v="stone" />
		<tag k="ssr:stedsnr" v="908930" />
	</node>
	<node lat="61.53647777748565" lon="11.663025004993125" id="-27266">
		<tag k="historic" v="shieling" />
		<tag k="name" v="Døvhans" />
		<tag k="place" v="locality" />
		<tag k="ssr:stedsnr" v="786718" />
	</node>
	<node lat="61.54405000254625" lon="11.397363884747454" id="-27277">
		<tag k="name" v="Tørråsmyra" />
		<tag k="natural" v="wetland" />
		<tag k="ssr:stedsnr" v="798255" />
	</node>
	<node lat="61.58694444443482" lon="11.263716658104922" id="-27361">
		<tag k="name" v="Niermyra" />
		<tag k="natural" v="wetland" />
		<tag k="ssr:stedsnr" v="845330" />
	</node>
	<node lat="61.621508333429816" lon="11.12363055056833" id="-27364">
		<tag k="name" v="Langmyra" />
		<tag k="natural" v="wetland" />
		<tag k="ssr:stedsnr" v="846883" />
	</node>
	<node lat="61.99767499632441" lon="11.086950009227076" id="-27367">
		<tag k="name" v="Trøenget" />
		<tag k="place" v="locality" />
		<tag k="ssr:stedsnr" v="847324" />
	</node>
	<node lat="62.00361110976626" lon="11.173469441624942" id="-27368">
		<tag k="name" v="Sætermyra" />
		<tag k="natural" v="wetland" />
		<tag k="ssr:stedsnr" v="847327" />
	</node>
	<node lat="61.702066664328136" lon="11.073550006483627" id="-27372">
		<tag k="name" v="Storbekkmyrene" />
		<tag k="natural" v="wetland" />
		<tag k="ssr:stedsnr" v="847836" />
	</node>
	<node lat="62.02153333098434" lon="11.029025003464668" id="-27374">
		<tag k="name" v="Røskfløyet" />
		<tag k="natural" v="wetland" />
		<tag k="ssr:stedsnr" v="847848" />
	</node>
	<node lat="61.88282499855415" lon="11.030824993597378" id="-27383">
		<tag k="alt_name" v="Kjelåsmyra" />
		<tag k="name" v="Kjelåsmyrene" />
		<tag k="natural" v="wetland" />
		<tag k="ssr:stedsnr" v="860163" />
	</node>
	<node lat="62.02898889207904" lon="10.902708328201165" id="-27386">
		<tag k="name" v="Langmyra" />
		<tag k="natural" v="wetland" />
		<tag k="ssr:stedsnr" v="860057" />
	</node>
	<node lat="61.7570583295342" lon="11.332819434684794" id="-27388">
		<tag k="alt_name" v="Gjitlaugmyra" />
		<tag k="name" v="Geitlaugmyra" />
		<tag k="natural" v="wetland" />
		<tag k="ssr:stedsnr" v="860068" />
	</node>
	<node lat="61.802388513531014" lon="11.050985048444707" id="-27392">
		<tag k="fixme" v="multiple name tags, choose one and add the other to alt_name" />
		<tag k="name" v="Hornsetmyra;Stormyra" />
		<tag k="natural" v="wetland" />
		<tag k="ssr:stedsnr" v="860218" />
	</node>
	<node lat="62.1812638858958" lon="11.228108339834897" id="-27401">
		<tag k="name" v="Vedhundfløyet" />
		<tag k="natural" v="wetland" />
		<tag k="ssr:stedsnr" v="860526" />
	</node>
	<node lat="62.06072500201239" lon="11.153325000997748" id="-27406">
		<tag k="name" v="Slåttmyra" />
		<tag k="natural" v="wetland" />
		<tag k="ssr:stedsnr" v="861009" />
	</node>
	<node lat="61.860952777297456" lon="11.112575005181826" id="-27420">
		<tag k="name" v="Kverningmoen" />
		<tag k="place" v="locality" />
		<tag k="ssr:stedsnr" v="876024" />
	</node>
	<node lat="61.714916666364715" lon="11.169619452795454" id="-27426">
		<tag k="name" v="Lijordet" />
		<tag k="place" v="locality" />
		<tag k="ssr:stedsnr" v="906165" />
	</node>
	<node lat="61.77318333729247" lon="10.94872499864278" id="-27430">
		<tag k="name" v="Mjovassmyra" />
		<tag k="natural" v="wetland" />
		<tag k="ssr:stedsnr" v="906459" />
	</node>
	<node lat="61.777530553236986" lon="10.911033336086788" id="-27432">
		<tag k="name" v="Finnbumyra" />
		<tag k="natural" v="wetland" />
		<tag k="ssr:stedsnr" v="906463" />
	</node>
	<node lat="62.033180557184444" lon="11.468561112923446" id="-27445">
		<tag k="name" v="Stormyra" />
		<tag k="natural" v="wetland" />
		<tag k="ssr:stedsnr" v="908471" />
	</node>
	<node lat="61.95473888557301" lon="10.98982221315872" id="-27447">
		<tag k="name" v="Trøenget" />
		<tag k="place" v="locality" />
		<tag k="ssr:stedsnr" v="908812" />
	</node>
	<node lat="61.55655555970311" lon="11.167283333845774" id="-27450">
		<tag k="name" v="Sagbekkmyra" />
		<tag k="natural" v="wetland" />
		<tag k="ssr:stedsnr" v="908859" />
	</node>
	<node lat="61.73026111376831" lon="11.006152769735746" id="-27453">
		<tag k="name" v="Rokkmyra" />
		<tag k="natural" v="wetland" />
		<tag k="ssr:stedsnr" v="920204" />
	</node>
	<node lat="61.7526833326985" lon="11.046349998934664" id="-27454">
		<tag k="name" v="Vangvollsmyrene" />
		<tag k="natural" v="wetland" />
		<tag k="ssr:stedsnr" v="920222" />
	</node>
	<node lat="61.551950001052475" lon="11.368775001394575" id="-27459">
		<tag k="name" v="Veksenmyrene" />
		<tag k="natural" v="wetland" />
		<tag k="ssr:stedsnr" v="920288" />
	</node>
	<node lat="61.87922777412678" lon="11.183174999655545" id="-27495">
		<tag k="name" v="Brenna" />
		<tag k="place" v="locality" />
		<tag k="ssr:stedsnr" v="966197" />
	</node>
	<node lat="61.76857777827715" lon="10.909349999141376" id="-27498">
		<tag k="name" v="Oksmyra" />
		<tag k="natural" v="wetland" />
		<tag k="ssr:stedsnr" v="967415" />
	</node>
	<node lat="61.69086389009401" lon="11.164625002686439" id="-27501">
		<tag k="name" v="Skjeftmyra" />
		<tag k="natural" v="wetland" />
		<tag k="ssr:stedsnr" v="968091" />
	</node>
	<node lat="61.85597221787989" lon="10.988122217471485" id="-27508">
		<tag k="name" v="Langmyra" />
		<tag k="natural" v="wetland" />
		<tag k="ssr:stedsnr" v="968795" />
	</node>
	<node lat="61.64999999933718" lon="11.396938882922496" id="-27534">
		<tag k="alt_name" v="Vammyrene" />
		<tag k="name" v="Vammyra" />
		<tag k="natural" v="wetland" />
		<tag k="ssr:stedsnr" v="10464" />
	</node>
	<node lat="61.75080833748216" lon="11.108408329702117" id="-27546">
		<tag k="alt_name" v="Nybusataen" />
		<tag k="historic" v="shieling" />
		<tag k="name" v="Nybusetan" />
		<tag k="place" v="locality" />
		<tag k="ssr:stedsnr" v="11072" />
	</node>
	<node lat="61.75337777898216" lon="10.823705547170343" id="-27554">
		<tag k="alt_name" v="Brenninga" />
		<tag k="name" v="Brenningen" />
		<tag k="place" v="locality" />
		<tag k="ssr:stedsnr" v="11193" />
	</node>
	<node lat="61.816880554062244" lon="11.128386104204782" id="-27572">
		<tag k="name" v="Signes" />
		<tag k="natural" v="beach" />
		<tag k="ssr:stedsnr" v="26397" />
		<tag k="surface" v="sand" />
	</node>
	<node lat="61.75056666304805" lon="11.485030549993569" id="-27586">
		<tag k="name" v="Nøklåkjølen" />
		<tag k="natural" v="wetland" />
		<tag k="ssr:stedsnr" v="56794" />
	</node>
	<node lat="61.62131944536975" lon="11.141858324582705" id="-27589">
		<tag k="name" v="Midtskogmyra" />
		<tag k="natural" v="wetland" />
		<tag k="ssr:stedsnr" v="57892" />
	</node>
	<node lat="61.994349995753346" lon="11.173444445646918" id="-27593">
		<tag k="name" v="Bumyra" />
		<tag k="natural" v="wetland" />
		<tag k="ssr:stedsnr" v="58329" />
	</node>
	<node lat="61.75442778113031" lon="11.439363882175863" id="-27594">
		<tag k="name" v="Grønmyra" />
		<tag k="natural" v="wetland" />
		<tag k="ssr:stedsnr" v="58330" />
	</node>
	<node lat="62.07556944094745" lon="11.422725004473794" id="-27600">
		<tag k="name" v="Vest i Joten" />
		<tag k="place" v="locality" />
		<tag k="ssr:stedsnr" v="58362" />
	</node>
	<node lat="62.071002779507324" lon="11.468933331995228" id="-27606">
		<tag k="name" v="Tjønnmyra" />
		<tag k="natural" v="wetland" />
		<tag k="ssr:stedsnr" v="58452" />
	</node>
	<node lat="62.05537777690764" lon="11.478952776995516" id="-27607">
		<tag k="name" v="Stortrøa" />
		<tag k="place" v="locality" />
		<tag k="ssr:stedsnr" v="58457" />
	</node>
	<node lat="61.63961111304163" lon="11.129108341068386" id="-27621">
		<tag k="name" v="Stormyra" />
		<tag k="natural" v="wetland" />
		<tag k="ssr:stedsnr" v="58900" />
	</node>
	<node lat="61.572774996852836" lon="11.495627775180866" id="-27626">
		<tag k="name" v="Nottjønnkjølen" />
		<tag k="natural" v="wetland" />
		<tag k="ssr:stedsnr" v="70295" />
	</node>
	<node lat="61.782197218050825" lon="10.924175006377325" id="-27646">
		<tag k="name" v="Stormyra" />
		<tag k="natural" v="wetland" />
		<tag k="ssr:stedsnr" v="71218" />
	</node>
	<node lat="61.82247222340823" lon="10.69873333528892" id="-27650">
		<tag k="alt_name" v="Nelimyrane" />
		<tag k="name" v="Nelimyrene" />
		<tag k="natural" v="wetland" />
		<tag k="ssr:stedsnr" v="71285" />
	</node>
	<node lat="61.56603333721761" lon="11.301841662424716" id="-27655">
		<tag k="name" v="Stormyra" />
		<tag k="natural" v="wetland" />
		<tag k="ssr:stedsnr" v="71489" />
	</node>
	<node lat="61.80127777476305" lon="11.468883333611323" id="-27664">
		<tag k="name" v="Slåttmyra" />
		<tag k="natural" v="wetland" />
		<tag k="ssr:stedsnr" v="71959" />
	</node>
	<node lat="61.852036110987406" lon="10.98742499093528" id="-27670">
		<tag k="name" v="Kloppåsmyra" />
		<tag k="natural" v="wetland" />
		<tag k="ssr:stedsnr" v="72151" />
	</node>
	<node lat="61.79578333765919" lon="10.957252784057784" id="-27681">
		<tag k="name" v="Vollbekkmyra" />
		<tag k="natural" v="wetland" />
		<tag k="ssr:stedsnr" v="86567" />
	</node>
	<node lat="61.75547778062862" lon="10.856169442567017" id="-27687">
		<tag k="name" v="Tjønnbekkmyra" />
		<tag k="natural" v="wetland" />
		<tag k="ssr:stedsnr" v="95689" />
	</node>
	<node lat="61.65121111225185" lon="11.13898055441721" id="-27690">
		<tag k="name" v="Engemyra" />
		<tag k="natural" v="wetland" />
		<tag k="ssr:stedsnr" v="117001" />
	</node>
	<node lat="61.97466111076371" lon="11.093158335363118" id="-27705">
		<tag k="name" v="Løkrosmyra" />
		<tag k="natural" v="wetland" />
		<tag k="ssr:stedsnr" v="118427" />
	</node>
	<node lat="62.0085833289316" lon="11.08841666861343" id="-27708">
		<tag k="name" v="Heieskogen" />
		<tag k="place" v="locality" />
		<tag k="ssr:stedsnr" v="119329" />
	</node>
	<node lat="62.042411112667715" lon="11.13648888113874" id="-27709">
		<tag k="name" v="Grønbakken" />
		<tag k="place" v="locality" />
		<tag k="ssr:stedsnr" v="119333" />
	</node>
	<node lat="62.09437499675985" lon="11.012819450494984" id="-27710">
		<tag k="name" v="Sættan" />
		<tag k="place" v="locality" />
		<tag k="ssr:stedsnr" v="119335" />
	</node>
	<node lat="62.11362500309852" lon="11.012005558044612" id="-27716">
		<tag k="name" v="Småoddene" />
		<tag k="place" v="locality" />
		<tag k="ssr:stedsnr" v="119344" />
	</node>
	<node lat="62.03354999745688" lon="11.567811111253615" id="-27720">
		<tag k="name" v="Langmyra" />
		<tag k="natural" v="wetland" />
		<tag k="ssr:stedsnr" v="119462" />
	</node>
	<node lat="61.63876389041276" lon="11.13856667512342" id="-27727">
		<tag k="name" v="Storhesjemyra" />
		<tag k="natural" v="wetland" />
		<tag k="ssr:stedsnr" v="119902" />
	</node>
	<node lat="61.50480278141356" lon="11.29458888422976" id="-27743">
		<tag k="name" v="Dammyra" />
		<tag k="natural" v="wetland" />
		<tag k="ssr:stedsnr" v="131255" />
	</node>
	<node lat="62.03115833148917" lon="11.196163880772861" id="-27762">
		<tag k="alt_name" v="Bjørkmorka" />
		<tag k="name" v="Bjørkmarka" />
		<tag k="place" v="locality" />
		<tag k="ssr:stedsnr" v="132035" />
	</node>
	<node lat="61.86289444515719" lon="11.110638884238446" id="-27791">
		<tag k="name" v="Hein" />
		<tag k="place" v="locality" />
		<tag k="ssr:stedsnr" v="147014" />
	</node>
	<node lat="61.79956388956332" lon="10.72298889567034" id="-27800">
		<tag k="name" v="Atnkjølsmyrene" />
		<tag k="natural" v="wetland" />
		<tag k="ssr:stedsnr" v="180291" />
	</node>
	<node lat="61.64360000334362" lon="11.23448611348151" id="-27802">
		<tag k="name" v="Rønningsmyra" />
		<tag k="natural" v="wetland" />
		<tag k="ssr:stedsnr" v="177400" />
	</node>
	<node lat="61.71731389316159" lon="11.160408326256341" id="-27804">
		<tag k="name" v="Jemninga" />
		<tag k="place" v="locality" />
		<tag k="ssr:stedsnr" v="177169" />
	</node>
	<node lat="61.88061389083591" lon="11.195513884719388" id="-27815">
		<tag k="name" v="Kvitmyra" />
		<tag k="natural" v="wetland" />
		<tag k="ssr:stedsnr" v="178193" />
	</node>
	<node lat="61.6241083321537" lon="11.130169445189104" id="-27818">
		<tag k="name" v="Åsmyra" />
		<tag k="natural" v="wetland" />
		<tag k="ssr:stedsnr" v="178863" />
	</node>
	<node lat="61.76695000430628" lon="10.963244438248767" id="-27832">
		<tag k="name" v="Åsmyra" />
		<tag k="natural" v="wetland" />
		<tag k="ssr:stedsnr" v="179640" />
	</node>
	<node lat="62.02819999788498" lon="11.036713889401517" id="-27834">
		<tag k="name" v="Harsandbekkfløyet" />
		<tag k="natural" v="wetland" />
		<tag k="ssr:stedsnr" v="179838" />
	</node>
	<node lat="61.591166670797854" lon="11.364574995490356" id="-27876">
		<tag k="alt_name" v="Andrå-Flendalen" />
		<tag k="historic" v="shieling" />
		<tag k="name" v="Flendalen" />
		<tag k="place" v="locality" />
		<tag k="ssr:stedsnr" v="192473" />
	</node>
</osm>
