<?xml version="1.0" encoding="UTF-8"?>
<osm version="0.6" generator="osmapis">
	<node lat="61.491372218430506" lon="11.706922227483734" id="-17894">
		<tag k="name" v="Storåstjønna" />
		<tag k="natural" v="water" />
		<tag k="ssr:stedsnr" v="8202" />
	</node>
	<node lat="61.87586666785382" lon="11.352038881596476" id="-17895">
		<tag k="alt_name" v="Misterdalen" />
		<tag k="name" v="Mistdalen" />
		<tag k="place" v="hamlet" />
		<tag k="ssr:stedsnr" v="10010" />
	</node>
	<node lat="61.52989999563103" lon="11.268880560927224" id="-17896">
		<tag k="fixme" v="consider natural=peak for the most distinct mountains in the district" />
		<tag k="name" v="Skramsliberget" />
		<tag k="natural" v="hill" />
		<tag k="place" v="locality" />
		<tag k="ssr:stedsnr" v="10295" />
	</node>
	<node lat="61.621597218819325" lon="11.638472219061049" id="-17897">
		<tag k="fixme" v="consider natural=peak for the most distinct mountains in the district" />
		<tag k="name" v="Kletten" />
		<tag k="natural" v="hill" />
		<tag k="place" v="locality" />
		<tag k="ssr:stedsnr" v="10298" />
	</node>
	<node lat="61.80163610879832" lon="10.87526944263336" id="-17898">
		<tag k="name" v="Sagbekken" />
		<tag k="ssr:stedsnr" v="10190" />
		<tag k="waterway" v="stream" />
	</node>
	<node lat="61.800044448082986" lon="11.021391672179064" id="-17899">
		<tag k="name" v="Hundtjønna" />
		<tag k="natural" v="water" />
		<tag k="ssr:stedsnr" v="10191" />
	</node>
	<node lat="61.646205558970564" lon="11.709288887422215" id="-17900">
		<tag k="fixme" v="consider natural=peak for the most distinct mountains in the district" />
		<tag k="name" v="Gråhøgda" />
		<tag k="natural" v="hill" />
		<tag k="place" v="locality" />
		<tag k="ssr:stedsnr" v="10305" />
	</node>
	<node lat="61.96328888670919" lon="10.977361104766306" id="-17901">
		<tag k="alt_name" v="Gammelsæteråa" />
		<tag k="name" v="Tysla" />
		<tag k="ssr:stedsnr" v="10312" />
		<tag k="waterway" v="river" />
	</node>
</osm>
