<?xml version="1.0" encoding="UTF-8"?>
<osm version="0.6" generator="osmapis">
	<node lat="61.96708888587949" lon="11.102674992969815" id="-38415">
		<tag k="amenity" v="community_centre" />
		<tag k="name" v="Utheim" />
		<tag k="ssr:stedsnr" v="58512" />
	</node>
	<node lat="61.6440055531398" lon="11.180988881421994" id="-38555">
		<tag k="name" v="Utsikten" />
		<tag k="ssr:stedsnr" v="240075" />
		<tag k="tourism" v="viewpoint" />
	</node>
	<node lat="61.78731944459442" lon="10.968633340110966" id="-38583">
		<tag k="name" v="Gammelnøstret" />
		<tag k="place" v="locality" />
		<tag k="ssr:stedsnr" v="240676" />
	</node>
	<node lat="61.77853055815124" lon="11.298591662805277" id="-38612">
		<tag k="name" v="Blåurbua" />
		<tag k="place" v="locality" />
		<tag k="ssr:stedsnr" v="179911" />
	</node>
	<node lat="61.754025502476075" lon="11.104308173960353" id="-38650">
		<tag k="name" v="Prestbua" />
		<tag k="place" v="locality" />
		<tag k="ssr:stedsnr" v="193089" />
	</node>
	<node lat="61.92211110932337" lon="11.032975002421997" id="-38689">
		<tag k="name" v="Tverrslag Elvål" />
		<tag k="place" v="locality" />
		<tag k="ssr:stedsnr" v="208013" />
	</node>
	<node lat="61.783727780049944" lon="10.900744442372638" id="-38706">
		<tag k="name" v="Solungbua" />
		<tag k="place" v="locality" />
		<tag k="ssr:stedsnr" v="239415" />
	</node>
	<node lat="61.88956389317154" lon="11.078658335818957" id="-38748">
		<tag k="amenity" v="place_of_worship" />
		<tag k="denomination" v="lutheran" />
		<tag k="name" v="Øvre Rendal kirke" />
		<tag k="religion" v="christian" />
		<tag k="ssr:stedsnr" v="253157" />
	</node>
	<node lat="61.7247916639333" lon="11.175930560372002" id="-38960">
		<tag k="name" v="Utsikten" />
		<tag k="ssr:stedsnr" v="420167" />
		<tag k="tourism" v="viewpoint" />
	</node>
	<node lat="61.778077775436486" lon="10.88326111268396" id="-39190">
		<tag k="name" v="Snøplogen" />
		<tag k="place" v="locality" />
		<tag k="ssr:stedsnr" v="542423" />
	</node>
	<node lat="61.75938888474639" lon="11.180991665227516" id="-39273">
		<tag k="amenity" v="place_of_worship" />
		<tag k="denomination" v="lutheran" />
		<tag k="name" v="Ytre Rendal kirke" />
		<tag k="religion" v="christian" />
		<tag k="ssr:stedsnr" v="556068" />
	</node>
	<node lat="61.88380398290936" lon="11.082450691332372" id="-39300">
		<tag k="alt_name" v="Berger gamle skole" />
		<tag k="name" v="Gamle Berger skole" />
		<tag k="ssr:stedsnr" v="572054" />
		<tag k="tourism" v="museum" />
	</node>
	<node lat="61.83933610760265" lon="10.889144436379366" id="-39372">
		<tag k="amenity" v="place_of_worship" />
		<tag k="denomination" v="lutheran" />
		<tag k="name" v="Hanestad kirke" />
		<tag k="religion" v="christian" />
		<tag k="ssr:stedsnr" v="617194" />
	</node>
	<node lat="61.61919722635578" lon="11.304883326303177" id="-39411">
		<tag k="name" v="Klumphuset" />
		<tag k="place" v="locality" />
		<tag k="ssr:stedsnr" v="663340" />
	</node>
	<node lat="61.47853889284114" lon="11.306447228863856" id="-39434">
		<tag k="amenity" v="place_of_worship" />
		<tag k="denomination" v="lutheran" />
		<tag k="name" v="Sjøli kirke" />
		<tag k="religion" v="christian" />
		<tag k="ssr:stedsnr" v="676106" />
	</node>
	<node lat="61.5590583348212" lon="11.23429443733675" id="-39481">
		<tag k="amenity" v="community_centre" />
		<tag k="name" v="Andrå skole" />
		<tag k="ssr:stedsnr" v="723325" />
	</node>
	<node lat="62.10207500370312" lon="11.033552781826103" id="-39493">
		<tag k="cemetery" v="grave" />
		<tag k="name" v="Brattegga" />
		<tag k="place" v="locality" />
		<tag k="ssr:stedsnr" v="725309" />
	</node>
	<node lat="61.70292222235598" lon="11.197249992431626" id="-39637">
		<tag k="amenity" v="community_centre" />
		<tag k="name" v="Strømssalen" />
		<tag k="ssr:stedsnr" v="906148" />
	</node>
	<node lat="61.80249999800518" lon="11.065577775030519" id="-39839">
		<tag k="name" v="Fåbergslinja" />
		<tag k="place" v="locality" />
		<tag k="ssr:stedsnr" v="967685" />
	</node>
	<node lat="61.565008335474495" lon="11.179175008507643" id="-40075">
		<tag k="amenity" v="place_of_worship" />
		<tag k="denomination" v="lutheran" />
		<tag k="name" v="Lia kirke" />
		<tag k="religion" v="christian" />
		<tag k="ssr:stedsnr" v="102359" />
	</node>
	<node lat="61.78808611313677" lon="10.846866667097506" id="-40090">
		<tag k="amenity" v="community_centre" />
		<tag k="name" v="Glåmsjå" />
		<tag k="ssr:stedsnr" v="117439" />
	</node>
	<node lat="61.83454722481079" lon="10.867155551532214" id="-40175">
		<tag k="amenity" v="community_centre" />
		<tag k="name" v="Kivatun" />
		<tag k="ssr:stedsnr" v="145535" />
	</node>
	<node lat="62.004377781299176" lon="11.09409444514397" id="-40216">
		<tag k="name" v="Tyskerbygget" />
		<tag k="place" v="locality" />
		<tag k="ssr:stedsnr" v="179301" />
	</node>
	<node lat="62.02305555584249" lon="11.118463883041654" id="-40219">
		<tag k="name" v="Brennbua" />
		<tag k="place" v="locality" />
		<tag k="ssr:stedsnr" v="179318" />
	</node>
	<node lat="61.75479999920832" lon="11.108022229448247" id="-40240">
		<tag k="name" v="Svenskbua" />
		<tag k="place" v="locality" />
		<tag k="ssr:stedsnr" v="180283" />
	</node>
	<node lat="61.927905558431156" lon="11.054625002932664" id="-40306">
		<tag k="amenity" v="community_centre" />
		<tag k="name" v="Elvheim" />
		<tag k="ssr:stedsnr" v="269066" />
	</node>
	<node lat="62.00966388471135" lon="10.949130555534314" id="-40317">
		<tag k="name" v="Jutulgrava" />
		<tag k="place" v="locality" />
		<tag k="ssr:stedsnr" v="271576" />
	</node>
	<node lat="61.75488055610656" lon="11.23661665803717" id="-40334">
		<tag k="name" v="Ljørbu" />
		<tag k="place" v="locality" />
		<tag k="ssr:stedsnr" v="299897" />
	</node>
	<node lat="61.9695055538911" lon="11.10146666336192" id="-40342">
		<tag k="amenity" v="community_centre" />
		<tag k="name" v="Unset gamle skole" />
		<tag k="ssr:stedsnr" v="300482" />
	</node>
	<node lat="61.88452591868672" lon="11.080784383132569" id="-40415">
		<tag k="name" v="Rendalstunet" />
		<tag k="old_name" v="Bullmuseet" />
		<tag k="ssr:stedsnr" v="330051" />
		<tag k="tourism" v="museum" />
	</node>
	<node lat="61.52943333660763" lon="11.179036107305754" id="-40567">
		<tag k="name" v="Toerbua" />
		<tag k="place" v="locality" />
		<tag k="ssr:stedsnr" v="422846" />
	</node>
	<node lat="61.87010000169036" lon="11.068788881326014" id="-40610">
		<tag k="alt_name" v="Utsikta" />
		<tag k="name" v="Utsikten" />
		<tag k="ssr:stedsnr" v="436127" />
		<tag k="tourism" v="viewpoint" />
	</node>
	<node lat="61.77224167071357" lon="10.937352786364125" id="-40728">
		<tag k="name" v="Hanestadåsbua" />
		<tag k="place" v="locality" />
		<tag k="ssr:stedsnr" v="542437" />
	</node>
	<node lat="61.7801583298997" lon="10.948644440985666" id="-40842">
		<tag k="name" v="Kåta" />
		<tag k="place" v="locality" />
		<tag k="ssr:stedsnr" v="602450" />
	</node>
	<node lat="61.52209695337191" lon="11.35775155925099" id="-40884">
		<tag k="name" v="Finsbekkbua" />
		<tag k="place" v="locality" />
		<tag k="ssr:stedsnr" v="616291" />
	</node>
	<node lat="61.479255556193344" lon="11.307277774698436" id="-40958">
		<tag k="amenity" v="community_centre" />
		<tag k="name" v="Sjøli skole" />
		<tag k="ssr:stedsnr" v="632328" />
	</node>
	<node lat="61.74690000391424" lon="11.21325834269916" id="-41108">
		<tag k="amenity" v="community_centre" />
		<tag k="name" v="Skytterhuset" />
		<tag k="ssr:stedsnr" v="784975" />
	</node>
</osm>
