<?xml version="1.0" encoding="UTF-8"?>
<osm version="0.6" generator="osmapis">
	<node lat="61.52989999563103" lon="11.268880560927224" id="-26028">
		<tag k="fixme" v="consider natural=peak for the most distinct mountains in the district" />
		<tag k="name" v="Skramsliberget" />
		<tag k="natural" v="hill" />
		<tag k="place" v="locality" />
		<tag k="ssr:stedsnr" v="10295" />
	</node>
	<node lat="61.621597218819325" lon="11.638472219061049" id="-26029">
		<tag k="fixme" v="consider natural=peak for the most distinct mountains in the district" />
		<tag k="name" v="Kletten" />
		<tag k="natural" v="hill" />
		<tag k="place" v="locality" />
		<tag k="ssr:stedsnr" v="10298" />
	</node>
	<node lat="61.646205558970564" lon="11.709288887422215" id="-26032">
		<tag k="fixme" v="consider natural=peak for the most distinct mountains in the district" />
		<tag k="name" v="Gråhøgda" />
		<tag k="natural" v="hill" />
		<tag k="place" v="locality" />
		<tag k="ssr:stedsnr" v="10305" />
	</node>
	<node lat="61.679077775511196" lon="11.101849992359154" id="-26037">
		<tag k="alt_name" v="Rokkdalsåsen" />
		<tag k="fixme" v="consider natural=peak for the most distinct mountains in the district" />
		<tag k="name" v="Rokkdalsfjellet" />
		<tag k="natural" v="hill" />
		<tag k="place" v="locality" />
		<tag k="ssr:stedsnr" v="10383" />
	</node>
	<node lat="61.59977499890017" lon="11.3414749999824" id="-26039">
		<tag k="fixme" v="consider natural=peak for the most distinct mountains in the district" />
		<tag k="name" v="Tallåsen" />
		<tag k="natural" v="hill" />
		<tag k="place" v="locality" />
		<tag k="ssr:stedsnr" v="10433" />
	</node>
	<node lat="61.51957499589925" lon="11.647697224482998" id="-26041">
		<tag k="loc_name" v="Perla" />
		<tag k="name" v="Pælene" />
		<tag k="natural" v="hill" />
		<tag k="place" v="locality" />
		<tag k="ssr:stedsnr" v="10713" />
	</node>
	<node lat="61.962033335873265" lon="11.327799993247897" id="-26055">
		<tag k="fixme" v="consider natural=peak for the most distinct mountains in the district" />
		<tag k="name" v="Marsfjellet" />
		<tag k="natural" v="hill" />
		<tag k="place" v="locality" />
		<tag k="ssr:stedsnr" v="11229" />
	</node>
	<node lat="61.89306666602959" lon="10.880483327791463" id="-26059">
		<tag k="alt_name" v="Glommlia" />
		<tag k="name" v="Glåmlia" />
		<tag k="natural" v="slope" />
		<tag k="place" v="locality" />
		<tag k="ssr:stedsnr" v="11331" />
	</node>
	<node lat="61.896916669926945" lon="10.725238888238303" id="-26060">
		<tag k="fixme" v="consider natural=peak for the most distinct mountains in the district" />
		<tag k="name" v="Reinsfjellet" />
		<tag k="natural" v="hill" />
		<tag k="place" v="locality" />
		<tag k="ssr:stedsnr" v="11333" />
	</node>
	<node lat="61.86921110837084" lon="11.481005549265575" id="-26063">
		<tag k="alt_name" v="Sølen;Sølen, søre" />
		<tag k="fixme" v="consider natural=peak for the most distinct mountains in the district" />
		<tag k="name" v="Søre Sølen" />
		<tag k="natural" v="hill" />
		<tag k="place" v="locality" />
		<tag k="ssr:stedsnr" v="11994" />
	</node>
	<node lat="61.93017777532936" lon="11.316261108927613" id="-26065">
		<tag k="fixme" v="consider natural=peak for the most distinct mountains in the district" />
		<tag k="name" v="Stonga" />
		<tag k="natural" v="hill" />
		<tag k="place" v="locality" />
		<tag k="ssr:stedsnr" v="20300" />
	</node>
	<node lat="61.83362499973775" lon="11.18813055378049" id="-26071">
		<tag k="name" v="Ælingsåkvolvet" />
		<tag k="natural" v="valley" />
		<tag k="place" v="locality" />
		<tag k="ssr:stedsnr" v="26401" />
	</node>
	<node lat="61.80846111105734" lon="11.147975000044804" id="-26074">
		<tag k="name" v="Koiedalen" />
		<tag k="natural" v="valley" />
		<tag k="place" v="locality" />
		<tag k="ssr:stedsnr" v="26482" />
	</node>
	<node lat="61.75661110935735" lon="11.089472218183271" id="-26079">
		<tag k="name" v="Ottdalsbrottet" />
		<tag k="natural" v="slope" />
		<tag k="place" v="locality" />
		<tag k="ssr:stedsnr" v="238271" />
	</node>
	<node lat="61.54938333397639" lon="11.273708328927958" id="-26083">
		<tag k="name" v="Kvitbergfløtningen" />
		<tag k="place" v="locality" />
		<tag k="ssr:stedsnr" v="238356" />
	</node>
	<node lat="61.79135277849554" lon="10.956080551105288" id="-26086">
		<tag k="name" v="Dansjota" />
		<tag k="place" v="locality" />
		<tag k="ssr:stedsnr" v="239414" />
	</node>
	<node lat="61.797958333556416" lon="10.975830554691555" id="-26090">
		<tag k="fixme" v="consider natural=peak for the most distinct mountains in the district" />
		<tag k="name" v="Kivsjøåsen" />
		<tag k="natural" v="hill" />
		<tag k="place" v="locality" />
		<tag k="ssr:stedsnr" v="239749" />
	</node>
	<node lat="61.65411388837339" lon="11.115636103151498" id="-26092">
		<tag k="name" v="Skjærdalen" />
		<tag k="natural" v="valley" />
		<tag k="place" v="locality" />
		<tag k="ssr:stedsnr" v="56006" />
	</node>
	<node lat="61.47499167001811" lon="11.380541661013265" id="-26094">
		<tag k="name" v="Tallegga" />
		<tag k="natural" v="slope" />
		<tag k="place" v="locality" />
		<tag k="ssr:stedsnr" v="56182" />
	</node>
	<node lat="61.588358334158166" lon="11.299519439700486" id="-26095">
		<tag k="name" v="Valsjødalen" />
		<tag k="natural" v="valley" />
		<tag k="place" v="locality" />
		<tag k="ssr:stedsnr" v="56321" />
	</node>
	<node lat="61.73680555562909" lon="11.220949991606966" id="-26099">
		<tag k="name" v="Kjøldalen" />
		<tag k="natural" v="valley" />
		<tag k="place" v="locality" />
		<tag k="ssr:stedsnr" v="56977" />
	</node>
	<node lat="61.65486111083322" lon="11.181622230156444" id="-26100">
		<tag k="name" v="Grispurkholet" />
		<tag k="natural" v="valley" />
		<tag k="place" v="locality" />
		<tag k="ssr:stedsnr" v="240074" />
	</node>
	<node lat="61.64360833266998" lon="11.154158325765247" id="-26103">
		<tag k="fixme" v="consider natural=peak for the most distinct mountains in the district" />
		<tag k="name" v="Sagåsen" />
		<tag k="natural" v="hill" />
		<tag k="place" v="locality" />
		<tag k="ssr:stedsnr" v="240078" />
	</node>
	<node lat="61.692652780227945" lon="11.0847805607896" id="-26104">
		<tag k="name" v="Kartrøstfløyet" />
		<tag k="natural" v="slope" />
		<tag k="place" v="locality" />
		<tag k="ssr:stedsnr" v="240088" />
	</node>
	<node lat="62.04354444598411" lon="11.389669445643348" id="-26105">
		<tag k="name" v="Gråmerra" />
		<tag k="place" v="locality" />
		<tag k="ssr:stedsnr" v="240114" />
	</node>
	<node lat="61.985044446045016" lon="11.096108333537769" id="-26106">
		<tag k="name" v="Snørengløpa" />
		<tag k="place" v="locality" />
		<tag k="ssr:stedsnr" v="240128" />
	</node>
	<node lat="61.789127776806254" lon="10.98976388200594" id="-26108">
		<tag k="name" v="Baggåsen" />
		<tag k="natural" v="hill" />
		<tag k="place" v="locality" />
		<tag k="ssr:stedsnr" v="57619" />
	</node>
	<node lat="61.81587500061256" lon="11.017105557468984" id="-26109">
		<tag k="name" v="Klettlia" />
		<tag k="natural" v="slope" />
		<tag k="place" v="locality" />
		<tag k="ssr:stedsnr" v="57805" />
	</node>
	<node lat="61.62646388616288" lon="11.134969449664188" id="-26110">
		<tag k="fixme" v="consider natural=peak for the most distinct mountains in the district" />
		<tag k="name" v="Gravåsen" />
		<tag k="natural" v="hill" />
		<tag k="place" v="locality" />
		<tag k="ssr:stedsnr" v="57881" />
	</node>
	<node lat="61.924716665182196" lon="11.09312500421135" id="-26111">
		<tag k="name" v="Tjønnegga" />
		<tag k="natural" v="hill" />
		<tag k="place" v="locality" />
		<tag k="ssr:stedsnr" v="58076" />
	</node>
	<node lat="61.45755000416706" lon="11.503605559338347" id="-26115">
		<tag k="fixme" v="consider natural=peak for the most distinct mountains in the district" />
		<tag k="name" v="Tangen" />
		<tag k="natural" v="hill" />
		<tag k="place" v="locality" />
		<tag k="ssr:stedsnr" v="58324" />
	</node>
	<node lat="61.57482222487668" lon="11.195608325333842" id="-26123">
		<tag k="name" v="Burumoen" />
		<tag k="place" v="locality" />
		<tag k="ssr:stedsnr" v="58826" />
	</node>
	<node lat="61.925911109696926" lon="11.018108333391154" id="-26126">
		<tag k="name" v="Haukrøsta" />
		<tag k="natural" v="slope" />
		<tag k="place" v="locality" />
		<tag k="ssr:stedsnr" v="58778" />
	</node>
	<node lat="62.07796666908389" lon="11.398919436927107" id="-26130">
		<tag k="name" v="Løvåsen" />
		<tag k="natural" v="hill" />
		<tag k="place" v="locality" />
		<tag k="ssr:stedsnr" v="240363" />
	</node>
	<node lat="61.66581111475051" lon="11.224016672343977" id="-26133">
		<tag k="name" v="Vikdalen" />
		<tag k="natural" v="valley" />
		<tag k="place" v="locality" />
		<tag k="ssr:stedsnr" v="240533" />
	</node>
	<node lat="61.68436944128353" lon="11.271050009131569" id="-26137">
		<tag k="name" v="Bjønnstille" />
		<tag k="place" v="locality" />
		<tag k="ssr:stedsnr" v="240649" />
	</node>
	<node lat="61.685116662660924" lon="11.272688881890746" id="-26138">
		<tag k="name" v="Djupdalen" />
		<tag k="natural" v="valley" />
		<tag k="place" v="locality" />
		<tag k="ssr:stedsnr" v="240650" />
	</node>
	<node lat="61.95209166434078" lon="10.95484999119653" id="-26139">
		<tag k="name" v="Slaggrøstvegen" />
		<tag k="natural" v="slope" />
		<tag k="place" v="locality" />
		<tag k="ssr:stedsnr" v="240653" />
	</node>
	<node lat="61.725447217766146" lon="11.234405561145172" id="-26142">
		<tag k="name" v="Vatninga" />
		<tag k="place" v="locality" />
		<tag k="ssr:stedsnr" v="240664" />
	</node>
	<node lat="61.703961113635806" lon="11.218569448032653" id="-26146">
		<tag k="fixme" v="consider natural=peak for the most distinct mountains in the district" />
		<tag k="name" v="Bringebæråsen" />
		<tag k="natural" v="hill" />
		<tag k="place" v="locality" />
		<tag k="ssr:stedsnr" v="240678" />
	</node>
	<node lat="61.910338885668914" lon="10.854669445939782" id="-26147">
		<tag k="name" v="Ranegga" />
		<tag k="natural" v="ridge" />
		<tag k="place" v="locality" />
		<tag k="ssr:stedsnr" v="240711" />
	</node>
	<node lat="61.92938333665173" lon="11.00568889402225" id="-26150">
		<tag k="name" v="Heimlia" />
		<tag k="natural" v="slope" />
		<tag k="place" v="locality" />
		<tag k="ssr:stedsnr" v="240779" />
	</node>
	<node lat="61.851952774002314" lon="11.065463880260612" id="-26153">
		<tag k="name" v="Sandbekkbørtet" />
		<tag k="natural" v="slope" />
		<tag k="place" v="locality" />
		<tag k="ssr:stedsnr" v="240792" />
	</node>
	<node lat="61.843699999084976" lon="11.164405555574907" id="-26166">
		<tag k="alt_name" v="Kværninghue;Kverninghovudet" />
		<tag k="fixme" v="consider natural=peak for the most distinct mountains in the district" />
		<tag k="name" v="Kverninghue" />
		<tag k="natural" v="hill" />
		<tag k="place" v="locality" />
		<tag k="ssr:stedsnr" v="71024" />
	</node>
	<node lat="61.92052777524055" lon="10.800588887267622" id="-26171">
		<tag k="alt_name" v="Skarvvorda" />
		<tag k="fixme" v="consider natural=peak for the most distinct mountains in the district" />
		<tag k="name" v="Skarvvola" />
		<tag k="natural" v="hill" />
		<tag k="place" v="locality" />
		<tag k="ssr:stedsnr" v="71402" />
	</node>
	<node lat="61.579630559554474" lon="11.461525004490419" id="-26175">
		<tag k="fixme" v="consider natural=peak for the most distinct mountains in the district" />
		<tag k="name" v="Klettane" />
		<tag k="natural" v="hill" />
		<tag k="place" v="locality" />
		<tag k="ssr:stedsnr" v="71468" />
	</node>
	<node lat="62.00681388667729" lon="10.941100008438196" id="-26177">
		<tag k="fixme" v="consider natural=peak for the most distinct mountains in the district" />
		<tag k="name" v="Fallegga" />
		<tag k="natural" v="hill" />
		<tag k="place" v="locality" />
		<tag k="ssr:stedsnr" v="71471" />
	</node>
	<node lat="61.7919472257305" lon="11.526536107152594" id="-26180">
		<tag k="fixme" v="consider natural=peak for the most distinct mountains in the district" />
		<tag k="name" v="Gravåsen" />
		<tag k="natural" v="hill" />
		<tag k="place" v="locality" />
		<tag k="ssr:stedsnr" v="71951" />
	</node>
	<node lat="61.89267500168609" lon="11.19909444740236" id="-26181">
		<tag k="fixme" v="consider natural=peak for the most distinct mountains in the district" />
		<tag k="name" v="Lysingåsen" />
		<tag k="natural" v="hill" />
		<tag k="place" v="locality" />
		<tag k="ssr:stedsnr" v="72007" />
	</node>
	<node lat="62.06635277507265" lon="11.092699994534293" id="-26182">
		<tag k="fixme" v="consider natural=peak for the most distinct mountains in the district" />
		<tag k="name" v="Nekvollåsen" />
		<tag k="natural" v="hill" />
		<tag k="place" v="locality" />
		<tag k="ssr:stedsnr" v="72009" />
	</node>
	<node lat="62.07783274106855" lon="11.065666334521465" id="-26183">
		<tag k="fixme" v="multiple name tags, choose one and add the other to alt_name; consider natural=peak for the most distinct mountains in the district" />
		<tag k="name" v="Heimrabben;Hemåsen" />
		<tag k="natural" v="hill" />
		<tag k="place" v="locality" />
		<tag k="ssr:stedsnr" v="72017" />
	</node>
	<node lat="61.806255558573156" lon="11.147491659319039" id="-26196">
		<tag k="name" v="Stordalen" />
		<tag k="natural" v="valley" />
		<tag k="place" v="locality" />
		<tag k="ssr:stedsnr" v="87478" />
	</node>
	<node lat="61.76171666445396" lon="10.860697217442093" id="-26208">
		<tag k="name" v="Skjærdalen" />
		<tag k="natural" v="valley" />
		<tag k="place" v="locality" />
		<tag k="ssr:stedsnr" v="117402" />
	</node>
	<node lat="61.6708638928558" lon="11.138658339556388" id="-26216">
		<tag k="name" v="Kjørarbutomta" />
		<tag k="place" v="locality" />
		<tag k="ssr:stedsnr" v="119094" />
	</node>
	<node lat="62.02130278043605" lon="11.160991668582904" id="-26219">
		<tag k="name" v="Bredalen" />
		<tag k="natural" v="valley" />
		<tag k="place" v="locality" />
		<tag k="ssr:stedsnr" v="119325" />
	</node>
	<node lat="61.65526388685038" lon="11.269252769711239" id="-26220">
		<tag k="name" v="Raneggdalen" />
		<tag k="natural" v="valley" />
		<tag k="place" v="locality" />
		<tag k="ssr:stedsnr" v="119526" />
	</node>
	<node lat="61.680785741517894" lon="11.261729111121683" id="-26222">
		<tag k="fixme" v="consider natural=peak for the most distinct mountains in the district" />
		<tag k="name" v="Sagskaråsen" />
		<tag k="natural" v="hill" />
		<tag k="place" v="locality" />
		<tag k="ssr:stedsnr" v="119530" />
	</node>
	<node lat="61.875027773905465" lon="10.985894441187767" id="-26227">
		<tag k="name" v="Storkvolvet" />
		<tag k="natural" v="valley" />
		<tag k="place" v="locality" />
		<tag k="ssr:stedsnr" v="119804" />
	</node>
	<node lat="62.00853610926043" lon="10.991972212636796" id="-26229">
		<tag k="name" v="Rossbekkbørtet" />
		<tag k="natural" v="slope" />
		<tag k="place" v="locality" />
		<tag k="ssr:stedsnr" v="119873" />
	</node>
	<node lat="61.45765833331854" lon="11.255727784829721" id="-26236">
		<tag k="name" v="Mørkletten" />
		<tag k="natural" v="hill" />
		<tag k="place" v="locality" />
		<tag k="ssr:stedsnr" v="251124" />
	</node>
	<node lat="61.6349694437652" lon="11.684638890034027" id="-26241">
		<tag k="alt_name" v="Osdalssjøhøgda, østre" />
		<tag k="fixme" v="consider natural=peak for the most distinct mountains in the district" />
		<tag k="name" v="Østre Osdalssjøhøgda" />
		<tag k="natural" v="hill" />
		<tag k="place" v="locality" />
		<tag k="ssr:stedsnr" v="252292" />
	</node>
	<node lat="61.59931667056726" lon="11.582683325954795" id="-26242">
		<tag k="fixme" v="consider natural=peak for the most distinct mountains in the district" />
		<tag k="loc_name" v="Bordveggen" />
		<tag k="name" v="Borveggen" />
		<tag k="natural" v="hill" />
		<tag k="place" v="locality" />
		<tag k="ssr:stedsnr" v="252310" />
	</node>
	<node lat="61.597850003291995" lon="11.74532221950764" id="-26243">
		<tag k="fixme" v="consider natural=peak for the most distinct mountains in the district" />
		<tag k="name" v="Krokbekkmåna" />
		<tag k="natural" v="hill" />
		<tag k="place" v="locality" />
		<tag k="ssr:stedsnr" v="252312" />
	</node>
	<node lat="61.71766666925523" lon="11.286877785557104" id="-26245">
		<tag k="name" v="Misterlia" />
		<tag k="natural" v="slope" />
		<tag k="place" v="locality" />
		<tag k="ssr:stedsnr" v="252392" />
	</node>
	<node lat="61.7067361116966" lon="11.300313888170564" id="-26248">
		<tag k="alt_name" v="Kongsskardåsen, østre" />
		<tag k="fixme" v="consider natural=peak for the most distinct mountains in the district" />
		<tag k="name" v="Østre Kongsskardåsen" />
		<tag k="natural" v="hill" />
		<tag k="place" v="locality" />
		<tag k="ssr:stedsnr" v="252399" />
	</node>
	<node lat="61.58925278193945" lon="11.29253888383737" id="-26251">
		<tag k="name" v="Valsjødalen" />
		<tag k="natural" v="valley" />
		<tag k="place" v="locality" />
		<tag k="ssr:stedsnr" v="252407" />
	</node>
	<node lat="61.479469447560064" lon="11.330738891779207" id="-26254">
		<tag k="name" v="Kvernberget" />
		<tag k="natural" v="hill" />
		<tag k="place" v="locality" />
		<tag k="ssr:stedsnr" v="130076" />
	</node>
	<node lat="61.468925001247854" lon="11.425661112549419" id="-26255">
		<tag k="alt_name" v="Skjerberget" />
		<tag k="name" v="Skjærberget" />
		<tag k="natural" v="hill" />
		<tag k="place" v="locality" />
		<tag k="ssr:stedsnr" v="130081" />
	</node>
	<node lat="61.81327777627987" lon="10.797775006739323" id="-26258">
		<tag k="alt_name" v="Klonkneset" />
		<tag k="fixme" v="consider natural=peak for the most distinct mountains in the district" />
		<tag k="name" v="Klunkneset" />
		<tag k="natural" v="hill" />
		<tag k="place" v="locality" />
		<tag k="ssr:stedsnr" v="131170" />
	</node>
	<node lat="61.566197220854356" lon="11.751091657383338" id="-26269">
		<tag k="fixme" v="consider natural=peak for the most distinct mountains in the district" />
		<tag k="name" v="Ryensjøhøgda" />
		<tag k="natural" v="hill" />
		<tag k="place" v="locality" />
		<tag k="ssr:stedsnr" v="252693" />
	</node>
	<node lat="61.59735555914285" lon="11.330561105250085" id="-26270">
		<tag k="name" v="Djupdalen" />
		<tag k="natural" v="valley" />
		<tag k="place" v="locality" />
		<tag k="ssr:stedsnr" v="131417" />
	</node>
	<node lat="61.744397217851656" lon="11.269638887587794" id="-26273">
		<tag k="alt_name" v="Kværnesvola;Kvernnesvorda" />
		<tag k="fixme" v="consider natural=peak for the most distinct mountains in the district" />
		<tag k="name" v="Kvernnesvola" />
		<tag k="natural" v="hill" />
		<tag k="place" v="locality" />
		<tag k="ssr:stedsnr" v="131375" />
	</node>
	<node lat="61.741900001410215" lon="11.104747214551953" id="-26274">
		<tag k="fixme" v="consider natural=peak for the most distinct mountains in the district" />
		<tag k="name" v="Ottlaugkampen" />
		<tag k="natural" v="hill" />
		<tag k="place" v="locality" />
		<tag k="ssr:stedsnr" v="131380" />
	</node>
	<node lat="61.55280277415329" lon="11.506874994335176" id="-26281">
		<tag k="fixme" v="consider natural=peak for the most distinct mountains in the district" />
		<tag k="name" v="Raudfjellet" />
		<tag k="natural" v="hill" />
		<tag k="place" v="locality" />
		<tag k="ssr:stedsnr" v="252697" />
	</node>
	<node lat="61.79659444496974" lon="10.947949993503462" id="-26283">
		<tag k="fixme" v="consider natural=peak for the most distinct mountains in the district" />
		<tag k="name" v="Granåsen" />
		<tag k="natural" v="hill" />
		<tag k="place" v="locality" />
		<tag k="ssr:stedsnr" v="132113" />
	</node>
	<node lat="61.85458055523788" lon="11.47509721944284" id="-26291">
		<tag k="name" v="Søteroa" />
		<tag k="natural" v="valley" />
		<tag k="place" v="locality" />
		<tag k="ssr:stedsnr" v="132967" />
	</node>
	<node lat="61.85666389127987" lon="11.674980560841833" id="-26292">
		<tag k="name" v="Sølenberga" />
		<tag k="natural" v="hill" />
		<tag k="place" v="locality" />
		<tag k="ssr:stedsnr" v="132968" />
	</node>
	<node lat="62.08366388564909" lon="11.095766664780328" id="-26295">
		<tag k="name" v="Skarven" />
		<tag k="natural" v="hill" />
		<tag k="place" v="locality" />
		<tag k="ssr:stedsnr" v="253030" />
	</node>
	<node lat="61.97483055522615" lon="11.296808328933686" id="-26307">
		<tag k="fixme" v="consider natural=peak for the most distinct mountains in the district" />
		<tag k="name" v="Kverninghøgda" />
		<tag k="natural" v="hill" />
		<tag k="place" v="locality" />
		<tag k="ssr:stedsnr" v="253255" />
	</node>
	<node lat="61.495027776625065" lon="11.420880553738796" id="-26326">
		<tag k="name" v="Ledalssletta" />
		<tag k="place" v="locality" />
		<tag k="ssr:stedsnr" v="177121" />
	</node>
	<node lat="61.56516666858226" lon="11.274194447621433" id="-26331">
		<tag k="name" v="Bukkdalen" />
		<tag k="natural" v="valley" />
		<tag k="place" v="locality" />
		<tag k="ssr:stedsnr" v="177317" />
	</node>
	<node lat="61.956925004039526" lon="11.091419450572074" id="-26336">
		<tag k="name" v="Nisseegga" />
		<tag k="natural" v="slope" />
		<tag k="place" v="locality" />
		<tag k="ssr:stedsnr" v="179114" />
	</node>
	<node lat="61.772374998257035" lon="11.328069442575323" id="-26337">
		<tag k="name" v="Fuggdalen" />
		<tag k="natural" v="valley" />
		<tag k="place" v="locality" />
		<tag k="ssr:stedsnr" v="179302" />
	</node>
	<node lat="62.0347138876393" lon="11.120888887282007" id="-26339">
		<tag k="name" v="Skarvdalen" />
		<tag k="natural" v="valley" />
		<tag k="place" v="locality" />
		<tag k="ssr:stedsnr" v="179322" />
	</node>
	<node lat="61.96068888824279" lon="11.02845000566442" id="-26350">
		<tag k="name" v="Enerrøsta" />
		<tag k="natural" v="slope" />
		<tag k="place" v="locality" />
		<tag k="ssr:stedsnr" v="179869" />
	</node>
	<node lat="61.65958055392399" lon="11.136222215263945" id="-26351">
		<tag k="name" v="Storbakken" />
		<tag k="natural" v="slope" />
		<tag k="place" v="locality" />
		<tag k="ssr:stedsnr" v="180068" />
	</node>
	<node lat="61.685780557104415" lon="11.192980553457051" id="-26352">
		<tag k="name" v="Åsheimberget" />
		<tag k="natural" v="hill" />
		<tag k="place" v="locality" />
		<tag k="ssr:stedsnr" v="180071" />
	</node>
	<node lat="61.754552774130595" lon="11.102811116104736" id="-26356">
		<tag k="name" v="Ottdalen" />
		<tag k="natural" v="valley" />
		<tag k="place" v="locality" />
		<tag k="ssr:stedsnr" v="262262" />
	</node>
	<node lat="61.80117778194595" lon="10.880405547103857" id="-26357">
		<tag k="name" v="Gammelbutomta" />
		<tag k="place" v="locality" />
		<tag k="ssr:stedsnr" v="262621" />
	</node>
	<node lat="61.891752781360864" lon="11.135100006547326" id="-26360">
		<tag k="alt_name" v="Skjæråsen" />
		<tag k="fixme" v="consider natural=peak for the most distinct mountains in the district" />
		<tag k="name" v="Skjeråsen" />
		<tag k="natural" v="hill" />
		<tag k="place" v="locality" />
		<tag k="ssr:stedsnr" v="202292" />
	</node>
	<node lat="62.056605556511975" lon="11.590702782237909" id="-26361">
		<tag k="fixme" v="consider natural=peak for the most distinct mountains in the district" />
		<tag k="name" v="Småklettan" />
		<tag k="natural" v="hill" />
		<tag k="place" v="locality" />
		<tag k="ssr:stedsnr" v="203103" />
	</node>
	<node lat="61.84837221808115" lon="11.109752774696407" id="-26364">
		<tag k="name" v="Fetten" />
		<tag k="place" v="locality" />
		<tag k="ssr:stedsnr" v="208036" />
	</node>
	<node lat="61.8512916629731" lon="11.11145277960165" id="-26365">
		<tag k="name" v="Kvarskauen" />
		<tag k="place" v="locality" />
		<tag k="ssr:stedsnr" v="208097" />
	</node>
	<node lat="61.94003611281336" lon="11.079527780356983" id="-26368">
		<tag k="name" v="Gammelembretsløpa" />
		<tag k="natural" v="valley" />
		<tag k="place" v="locality" />
		<tag k="ssr:stedsnr" v="269056" />
	</node>
	<node lat="61.779788886680414" lon="11.194738893674213" id="-26374">
		<tag k="name" v="Ishammeren" />
		<tag k="natural" v="hill" />
		<tag k="place" v="locality" />
		<tag k="ssr:stedsnr" v="269415" />
	</node>
	<node lat="61.90133055270507" lon="11.057411103754932" id="-26375">
		<tag k="name" v="Odalen" />
		<tag k="natural" v="valley" />
		<tag k="place" v="locality" />
		<tag k="ssr:stedsnr" v="269458" />
	</node>
	<node lat="61.76528888465765" lon="11.227566657723834" id="-26389">
		<tag k="name" v="Kvernbekkbotne" />
		<tag k="natural" v="valley" />
		<tag k="place" v="locality" />
		<tag k="ssr:stedsnr" v="238978" />
	</node>
	<node lat="61.64050277416521" lon="11.181541667811125" id="-26391">
		<tag k="name" v="Vassbekkdalen" />
		<tag k="natural" v="valley" />
		<tag k="place" v="locality" />
		<tag k="ssr:stedsnr" v="239912" />
	</node>
	<node lat="61.85417777559884" lon="11.17413611316243" id="-26392">
		<tag k="name" v="Søndre Kvolvet" />
		<tag k="natural" v="valley" />
		<tag k="place" v="locality" />
		<tag k="ssr:stedsnr" v="240235" />
	</node>
	<node lat="62.06916388887569" lon="11.06604166848837" id="-26393">
		<tag k="fixme" v="consider natural=peak for the most distinct mountains in the district" />
		<tag k="name" v="Neklikampen" />
		<tag k="natural" v="hill" />
		<tag k="place" v="locality" />
		<tag k="ssr:stedsnr" v="240291" />
	</node>
	<node lat="61.80831389014313" lon="10.79082778254377" id="-26397">
		<tag k="name" v="Gammelbudalen" />
		<tag k="natural" v="valley" />
		<tag k="place" v="locality" />
		<tag k="ssr:stedsnr" v="240310" />
	</node>
	<node lat="62.0185750036194" lon="11.116458329265228" id="-26400">
		<tag k="name" v="Erikshølet" />
		<tag k="natural" v="valley" />
		<tag k="place" v="locality" />
		<tag k="ssr:stedsnr" v="240334" />
	</node>
	<node lat="61.49743611471382" lon="11.47737777157205" id="-26401">
		<tag k="name" v="Gravdalsskaret" />
		<tag k="natural" v="valley" />
		<tag k="place" v="locality" />
		<tag k="ssr:stedsnr" v="240335" />
	</node>
	<node lat="62.035480558736474" lon="11.140636106669868" id="-26402">
		<tag k="name" v="Bjønndalen" />
		<tag k="natural" v="valley" />
		<tag k="place" v="locality" />
		<tag k="ssr:stedsnr" v="240340" />
	</node>
	<node lat="61.84678611364989" lon="10.859749991783723" id="-26407">
		<tag k="fixme" v="consider natural=peak for the most distinct mountains in the district" />
		<tag k="name" v="Stenbrøttåsen" />
		<tag k="natural" v="hill" />
		<tag k="place" v="locality" />
		<tag k="ssr:stedsnr" v="240615" />
	</node>
	<node lat="61.74908610808077" lon="11.147561110579158" id="-26409">
		<tag k="name" v="Meliskletta" />
		<tag k="place" v="locality" />
		<tag k="ssr:stedsnr" v="451098" />
	</node>
	<node lat="61.686530552394615" lon="11.078305563656041" id="-26412">
		<tag k="name" v="Kartrøsta" />
		<tag k="natural" v="slope" />
		<tag k="place" v="locality" />
		<tag k="ssr:stedsnr" v="240845" />
	</node>
	<node lat="61.7813888893587" lon="11.212463895148296" id="-26414">
		<tag k="name" v="Skårdalen" />
		<tag k="natural" v="valley" />
		<tag k="place" v="locality" />
		<tag k="ssr:stedsnr" v="240898" />
	</node>
	<node lat="61.86814444760316" lon="11.4612999909728" id="-26419">
		<tag k="alt_name" v="Sølenholet, søre" />
		<tag k="name" v="Søre Sølenholet" />
		<tag k="natural" v="valley" />
		<tag k="place" v="locality" />
		<tag k="ssr:stedsnr" v="253003" />
	</node>
	<node lat="61.81388888577865" lon="10.880952769558629" id="-26429">
		<tag k="alt_name" v="Hanekampen" />
		<tag k="fixme" v="consider natural=peak for the most distinct mountains in the district" />
		<tag k="name" v="Hanakampen" />
		<tag k="natural" v="hill" />
		<tag k="place" v="locality" />
		<tag k="ssr:stedsnr" v="253208" />
	</node>
	<node lat="61.788327774302054" lon="10.879277768221446" id="-26431">
		<tag k="fixme" v="consider natural=peak for the most distinct mountains in the district" />
		<tag k="name" v="Sagåsen" />
		<tag k="natural" v="hill" />
		<tag k="place" v="locality" />
		<tag k="ssr:stedsnr" v="253231" />
	</node>
	<node lat="61.98068611350563" lon="11.360550000977508" id="-26433">
		<tag k="name" v="Misterfløyet" />
		<tag k="place" v="locality" />
		<tag k="ssr:stedsnr" v="253251" />
	</node>
	<node lat="62.16941110731364" lon="11.416125001366403" id="-26438">
		<tag k="name" v="Orvdalen" />
		<tag k="natural" v="valley" />
		<tag k="place" v="locality" />
		<tag k="ssr:stedsnr" v="253433" />
	</node>
	<node lat="61.87126944066747" lon="10.946602782692887" id="-26444">
		<tag k="alt_name" v="Tingstadåsen" />
		<tag k="fixme" v="consider natural=peak for the most distinct mountains in the district" />
		<tag k="name" v="Tengstadåsen" />
		<tag k="natural" v="hill" />
		<tag k="place" v="locality" />
		<tag k="ssr:stedsnr" v="254118" />
	</node>
	<node lat="62.08181944299367" lon="11.473091671339553" id="-26446">
		<tag k="name" v="Sølendalen" />
		<tag k="natural" v="valley" />
		<tag k="place" v="locality" />
		<tag k="ssr:stedsnr" v="254381" />
	</node>
	<node lat="61.7622277749438" lon="10.89887500068047" id="-26454">
		<tag k="name" v="Okstjønnkløfta" />
		<tag k="natural" v="valley" />
		<tag k="place" v="locality" />
		<tag k="ssr:stedsnr" v="276269" />
	</node>
	<node lat="61.62950555211929" lon="11.28786111015141" id="-26458">
		<tag k="name" v="Flendalen" />
		<tag k="natural" v="valley" />
		<tag k="place" v="locality" />
		<tag k="ssr:stedsnr" v="299373" />
	</node>
	<node lat="61.92648889080621" lon="11.17811943506637" id="-26459">
		<tag k="name" v="Fjellbekkrøsta" />
		<tag k="natural" v="slope" />
		<tag k="place" v="locality" />
		<tag k="ssr:stedsnr" v="299202" />
	</node>
	<node lat="61.917561113323394" lon="11.150138882926539" id="-26460">
		<tag k="name" v="Øvre Haugsetlia" />
		<tag k="natural" v="slope" />
		<tag k="place" v="locality" />
		<tag k="ssr:stedsnr" v="299208" />
	</node>
	<node lat="61.81746944871061" lon="10.982555563305615" id="-26462">
		<tag k="name" v="Midtåsen" />
		<tag k="natural" v="hill" />
		<tag k="place" v="locality" />
		<tag k="ssr:stedsnr" v="299813" />
	</node>
	<node lat="61.76806666841266" lon="11.211361103048558" id="-26463">
		<tag k="name" v="Hamra" />
		<tag k="natural" v="hill" />
		<tag k="place" v="locality" />
		<tag k="ssr:stedsnr" v="299974" />
	</node>
	<node lat="61.628427776635064" lon="11.172838880603752" id="-26465">
		<tag k="name" v="Sataen" />
		<tag k="place" v="locality" />
		<tag k="ssr:stedsnr" v="299879" />
	</node>
	<node lat="62.059483336369595" lon="11.079430564118253" id="-26468">
		<tag k="fixme" v="consider natural=peak for the most distinct mountains in the district" />
		<tag k="name" v="Størnabbkampen" />
		<tag k="natural" v="hill" />
		<tag k="place" v="locality" />
		<tag k="ssr:stedsnr" v="300292" />
	</node>
	<node lat="61.975402774484465" lon="11.094675009175086" id="-26469">
		<tag k="name" v="Flata" />
		<tag k="place" v="locality" />
		<tag k="ssr:stedsnr" v="300472" />
	</node>
	<node lat="61.71764444543265" lon="11.206194447411047" id="-26477">
		<tag k="name" v="Fagerkollen" />
		<tag k="natural" v="hill" />
		<tag k="place" v="locality" />
		<tag k="ssr:stedsnr" v="301638" />
	</node>
	<node lat="61.72257221812381" lon="11.258849997871017" id="-26479">
		<tag k="name" v="Gammelhansbakka" />
		<tag k="natural" v="slope" />
		<tag k="place" v="locality" />
		<tag k="ssr:stedsnr" v="301644" />
	</node>
	<node lat="61.571744444164516" lon="11.160591664423517" id="-26483">
		<tag k="name" v="Søndre Burudalen" />
		<tag k="natural" v="valley" />
		<tag k="place" v="locality" />
		<tag k="ssr:stedsnr" v="301827" />
	</node>
	<node lat="61.95930833623118" lon="11.02309999201908" id="-26484">
		<tag k="name" v="Djupdalen" />
		<tag k="natural" v="valley" />
		<tag k="place" v="locality" />
		<tag k="ssr:stedsnr" v="301872" />
	</node>
	<node lat="61.912169444690456" lon="10.976222230688304" id="-26486">
		<tag k="name" v="Langmaritåsen" />
		<tag k="natural" v="hill" />
		<tag k="place" v="locality" />
		<tag k="ssr:stedsnr" v="301771" />
	</node>
	<node lat="61.915983332580474" lon="11.020027776266032" id="-26487">
		<tag k="name" v="Grøtåsen" />
		<tag k="natural" v="hill" />
		<tag k="place" v="locality" />
		<tag k="ssr:stedsnr" v="301775" />
	</node>
	<node lat="61.87703333479792" lon="10.997505564954212" id="-26488">
		<tag k="fixme" v="consider natural=peak for the most distinct mountains in the district" />
		<tag k="name" v="Rullbekkliåsen" />
		<tag k="natural" v="hill" />
		<tag k="place" v="locality" />
		<tag k="ssr:stedsnr" v="301777" />
	</node>
	<node lat="61.827527781414084" lon="11.061016671476997" id="-26490">
		<tag k="name" v="Hårrennlia" />
		<tag k="natural" v="slope" />
		<tag k="place" v="locality" />
		<tag k="ssr:stedsnr" v="301797" />
	</node>
	<node lat="61.7194333290424" lon="11.25504166386685" id="-26496">
		<tag k="fixme" v="consider natural=peak for the most distinct mountains in the district" />
		<tag k="name" v="Kletten" />
		<tag k="natural" v="hill" />
		<tag k="place" v="locality" />
		<tag k="ssr:stedsnr" v="313414" />
	</node>
	<node lat="61.607077775920494" lon="11.176530546555135" id="-26497">
		<tag k="fixme" v="consider natural=peak for the most distinct mountains in the district" />
		<tag k="name" v="Tjønnåsen" />
		<tag k="natural" v="hill" />
		<tag k="place" v="locality" />
		<tag k="ssr:stedsnr" v="313432" />
	</node>
	<node lat="61.77641944541839" lon="10.792780558037572" id="-26506">
		<tag k="fixme" v="consider natural=peak for the most distinct mountains in the district" />
		<tag k="name" v="Skarven" />
		<tag k="natural" v="hill" />
		<tag k="place" v="locality" />
		<tag k="ssr:stedsnr" v="314221" />
	</node>
	<node lat="61.97884722343106" lon="11.582508326169561" id="-26508">
		<tag k="loc_name" v="Slagglandet" />
		<tag k="name" v="Stegglandet" />
		<tag k="place" v="locality" />
		<tag k="ssr:stedsnr" v="314104" />
	</node>
	<node lat="61.969141663750975" lon="11.637597225428769" id="-26509">
		<tag k="fixme" v="consider natural=peak for the most distinct mountains in the district" />
		<tag k="name" v="Rødsandlikampen" />
		<tag k="natural" v="hill" />
		<tag k="place" v="locality" />
		<tag k="ssr:stedsnr" v="314110" />
	</node>
	<node lat="61.85378611088624" lon="10.884691662759876" id="-26513">
		<tag k="alt_name" v="Holmbunesåsen" />
		<tag k="fixme" v="consider natural=peak for the most distinct mountains in the district" />
		<tag k="name" v="Holmbuåsen" />
		<tag k="natural" v="hill" />
		<tag k="place" v="locality" />
		<tag k="ssr:stedsnr" v="314176" />
	</node>
	<node lat="61.92544166573388" lon="10.83143612022759" id="-26514">
		<tag k="name" v="Kletten" />
		<tag k="natural" v="hill" />
		<tag k="place" v="locality" />
		<tag k="ssr:stedsnr" v="314409" />
	</node>
	<node lat="61.87271944323427" lon="11.088447221046504" id="-26520">
		<tag k="name" v="Hårsetberget" />
		<tag k="natural" v="ridge" />
		<tag k="place" v="locality" />
		<tag k="ssr:stedsnr" v="329017" />
	</node>
	<node lat="61.93553888467534" lon="11.058077780796172" id="-26521">
		<tag k="name" v="Låvedalen" />
		<tag k="natural" v="valley" />
		<tag k="place" v="locality" />
		<tag k="ssr:stedsnr" v="329059" />
	</node>
	<node lat="61.79397777613789" lon="11.110511106038697" id="-26524">
		<tag k="name" v="Djupdalen" />
		<tag k="natural" v="valley" />
		<tag k="place" v="locality" />
		<tag k="ssr:stedsnr" v="329470" />
	</node>
	<node lat="61.80160833058589" lon="11.097650002226889" id="-26525">
		<tag k="name" v="Hårrenndalen" />
		<tag k="natural" v="valley" />
		<tag k="place" v="locality" />
		<tag k="ssr:stedsnr" v="329473" />
	</node>
	<node lat="61.8934583346499" lon="11.065666669357942" id="-26526">
		<tag k="name" v="Kattskjæret" />
		<tag k="natural" v="hill" />
		<tag k="place" v="locality" />
		<tag k="ssr:stedsnr" v="330055" />
	</node>
	<node lat="61.62775000416653" lon="11.300027787011155" id="-26534">
		<tag k="name" v="Åkersdalen" />
		<tag k="natural" v="valley" />
		<tag k="place" v="locality" />
		<tag k="ssr:stedsnr" v="359361" />
	</node>
	<node lat="62.0005499977018" lon="11.136624997770758" id="-26538">
		<tag k="name" v="Emiliebakken" />
		<tag k="natural" v="slope" />
		<tag k="place" v="locality" />
		<tag k="ssr:stedsnr" v="360220" />
	</node>
	<node lat="61.767661115217436" lon="10.88239166068832" id="-26539">
		<tag k="name" v="Butomta" />
		<tag k="place" v="locality" />
		<tag k="ssr:stedsnr" v="360406" />
	</node>
	<node lat="61.45765277971187" lon="11.337086116572696" id="-26542">
		<tag k="fixme" v="consider natural=peak for the most distinct mountains in the district" />
		<tag k="name" v="Bjørkåsen" />
		<tag k="natural" v="hill" />
		<tag k="place" v="locality" />
		<tag k="ssr:stedsnr" v="372121" />
	</node>
	<node lat="61.60552500215615" lon="11.450186114764254" id="-26550">
		<tag k="fixme" v="consider natural=peak for the most distinct mountains in the district" />
		<tag k="name" v="Vestnubben" />
		<tag k="natural" v="hill" />
		<tag k="place" v="locality" />
		<tag k="ssr:stedsnr" v="373503" />
	</node>
	<node lat="61.60818333228098" lon="11.132738885733495" id="-26551">
		<tag k="name" v="Korsen" />
		<tag k="place" v="locality" />
		<tag k="ssr:stedsnr" v="373501" />
	</node>
	<node lat="61.95367777767373" lon="11.485730557817291" id="-26553">
		<tag k="name" v="Sokshaugen" />
		<tag k="natural" v="hill" />
		<tag k="place" v="locality" />
		<tag k="ssr:stedsnr" v="374106" />
	</node>
	<node lat="62.0479611103561" lon="11.164413898033189" id="-26554">
		<tag k="name" v="Langgjota" />
		<tag k="place" v="locality" />
		<tag k="ssr:stedsnr" v="374005" />
	</node>
	<node lat="61.786450000018505" lon="11.048674995535078" id="-26558">
		<tag k="fixme" v="consider natural=peak for the most distinct mountains in the district" />
		<tag k="name" v="Høgåsen" />
		<tag k="natural" v="hill" />
		<tag k="place" v="locality" />
		<tag k="ssr:stedsnr" v="374211" />
	</node>
	<node lat="61.819724999267116" lon="11.015902784399458" id="-26561">
		<tag k="alt_name" v="Kletten" />
		<tag k="fixme" v="consider natural=peak for the most distinct mountains in the district" />
		<tag k="name" v="Klettan" />
		<tag k="natural" v="hill" />
		<tag k="place" v="locality" />
		<tag k="ssr:stedsnr" v="374197" />
	</node>
	<node lat="61.934099995973575" lon="10.848149999851412" id="-26564">
		<tag k="alt_name" v="Svarthøgda" />
		<tag k="name" v="Svarthaugen" />
		<tag k="natural" v="hill" />
		<tag k="place" v="locality" />
		<tag k="ssr:stedsnr" v="374343" />
	</node>
	<node lat="61.74069999697151" lon="11.16387500803382" id="-26571">
		<tag k="alt_name" v="Åkersten" />
		<tag k="fixme" v="consider natural=peak for the most distinct mountains in the district" />
		<tag k="name" v="Åkersteinen" />
		<tag k="natural" v="hill" />
		<tag k="place" v="locality" />
		<tag k="ssr:stedsnr" v="374417" />
	</node>
	<node lat="61.555416668624225" lon="11.66837778566363" id="-26576">
		<tag k="name" v="Bjørbekkmoen" />
		<tag k="place" v="locality" />
		<tag k="ssr:stedsnr" v="374707" />
	</node>
	<node lat="61.55024166890233" lon="11.554788880507749" id="-26577">
		<tag k="name" v="Villdalen" />
		<tag k="natural" v="valley" />
		<tag k="place" v="locality" />
		<tag k="ssr:stedsnr" v="374715" />
	</node>
	<node lat="61.896683333818025" lon="11.157988887490834" id="-26590">
		<tag k="fixme" v="consider natural=peak for the most distinct mountains in the district" />
		<tag k="name" v="Bergevollåsen" />
		<tag k="natural" v="hill" />
		<tag k="place" v="locality" />
		<tag k="ssr:stedsnr" v="481215" />
	</node>
	<node lat="61.99987222009936" lon="11.100775006666911" id="-26592">
		<tag k="fixme" v="consider natural=peak for the most distinct mountains in the district" />
		<tag k="name" v="Digerhammerberget" />
		<tag k="natural" v="hill" />
		<tag k="place" v="locality" />
		<tag k="ssr:stedsnr" v="481284" />
	</node>
	<node lat="61.48113889187255" lon="11.245683339242033" id="-26595">
		<tag k="name" v="Jøkulen" />
		<tag k="natural" v="hill" />
		<tag k="place" v="locality" />
		<tag k="ssr:stedsnr" v="481326" />
	</node>
	<node lat="61.58251666240839" lon="11.239219441958213" id="-26596">
		<tag k="name" v="Brennsatan" />
		<tag k="place" v="locality" />
		<tag k="ssr:stedsnr" v="481344" />
	</node>
	<node lat="61.62771944417052" lon="11.153163893225518" id="-26601">
		<tag k="name" v="Vesletorvet" />
		<tag k="place" v="locality" />
		<tag k="ssr:stedsnr" v="481889" />
	</node>
	<node lat="61.74259444847566" lon="11.295783327005054" id="-26602">
		<tag k="name" v="Blåhølet" />
		<tag k="natural" v="valley" />
		<tag k="place" v="locality" />
		<tag k="ssr:stedsnr" v="481987" />
	</node>
	<node lat="61.43872499920997" lon="11.474741660314228" id="-26606">
		<tag k="fixme" v="consider natural=peak for the most distinct mountains in the district" />
		<tag k="name" v="Nordre Åsen" />
		<tag k="natural" v="hill" />
		<tag k="place" v="locality" />
		<tag k="ssr:stedsnr" v="482291" />
	</node>
	<node lat="61.99905277804622" lon="11.187369442625608" id="-26607">
		<tag k="name" v="Bøylen" />
		<tag k="place" v="locality" />
		<tag k="ssr:stedsnr" v="482294" />
	</node>
	<node lat="62.0458694489403" lon="11.126119435738298" id="-26609">
		<tag k="fixme" v="consider natural=peak for the most distinct mountains in the district" />
		<tag k="name" v="Fellingåsen" />
		<tag k="natural" v="hill" />
		<tag k="place" v="locality" />
		<tag k="ssr:stedsnr" v="482332" />
	</node>
	<node lat="61.659724998391034" lon="11.130261110399164" id="-26612">
		<tag k="name" v="Smørstubben" />
		<tag k="place" v="locality" />
		<tag k="ssr:stedsnr" v="483093" />
	</node>
	<node lat="62.01832222314024" lon="11.533566672424511" id="-26620">
		<tag k="name" v="Sølnmoen" />
		<tag k="place" v="locality" />
		<tag k="ssr:stedsnr" v="483454" />
	</node>
	<node lat="62.02625555906722" lon="10.96964721731982" id="-26628">
		<tag k="name" v="Skårsåbørtet" />
		<tag k="natural" v="slope" />
		<tag k="place" v="locality" />
		<tag k="ssr:stedsnr" v="483878" />
	</node>
	<node lat="61.84451944641207" lon="11.073775002715829" id="-26630">
		<tag k="fixme" v="consider natural=peak for the most distinct mountains in the district" />
		<tag k="name" v="Veslefjellet" />
		<tag k="natural" v="hill" />
		<tag k="place" v="locality" />
		<tag k="ssr:stedsnr" v="483827" />
	</node>
	<node lat="61.44443055411211" lon="11.244999995930977" id="-26633">
		<tag k="fixme" v="consider natural=peak for the most distinct mountains in the district" />
		<tag k="name" v="Svantjønnåsen" />
		<tag k="natural" v="hill" />
		<tag k="place" v="locality" />
		<tag k="ssr:stedsnr" v="398692" />
	</node>
	<node lat="61.60898610793951" lon="11.23954723030945" id="-26635">
		<tag k="name" v="Løpskjæret" />
		<tag k="natural" v="hill" />
		<tag k="place" v="locality" />
		<tag k="ssr:stedsnr" v="420306" />
	</node>
	<node lat="61.579313885189144" lon="11.231183334654123" id="-26636">
		<tag k="name" v="Rensbåsa" />
		<tag k="place" v="locality" />
		<tag k="ssr:stedsnr" v="420311" />
	</node>
	<node lat="61.55749167001626" lon="11.276822218895976" id="-26637">
		<tag k="name" v="Borkhusdalen" />
		<tag k="natural" v="valley" />
		<tag k="place" v="locality" />
		<tag k="ssr:stedsnr" v="420323" />
	</node>
	<node lat="61.739838891977904" lon="11.24722777380938" id="-26640">
		<tag k="name" v="Gråhammeren" />
		<tag k="natural" v="hill" />
		<tag k="place" v="locality" />
		<tag k="ssr:stedsnr" v="421503" />
	</node>
	<node lat="61.77335277585764" lon="11.511738891389658" id="-26642">
		<tag k="name" v="Grønhue" />
		<tag k="natural" v="hill" />
		<tag k="place" v="locality" />
		<tag k="ssr:stedsnr" v="421825" />
	</node>
	<node lat="61.803352779619495" lon="11.014766669896789" id="-26644">
		<tag k="name" v="Dansarjota" />
		<tag k="place" v="locality" />
		<tag k="ssr:stedsnr" v="421748" />
	</node>
	<node lat="61.44255555666197" lon="11.44656667041509" id="-26648">
		<tag k="name" v="Vardehaugen" />
		<tag k="natural" v="hill" />
		<tag k="place" v="locality" />
		<tag k="ssr:stedsnr" v="422290" />
	</node>
	<node lat="62.053344442016034" lon="11.466933334674021" id="-26654">
		<tag k="name" v="Meiådalen" />
		<tag k="natural" v="valley" />
		<tag k="place" v="locality" />
		<tag k="ssr:stedsnr" v="422410" />
	</node>
	<node lat="61.972566667447666" lon="11.513147230544403" id="-26655">
		<tag k="name" v="Haukhaugen" />
		<tag k="natural" v="hill" />
		<tag k="place" v="locality" />
		<tag k="ssr:stedsnr" v="422394" />
	</node>
	<node lat="61.84644167019982" lon="10.877694438802287" id="-26657">
		<tag k="name" v="Fallbakkene" />
		<tag k="natural" v="slope" />
		<tag k="place" v="locality" />
		<tag k="ssr:stedsnr" v="422695" />
	</node>
	<node lat="61.815013887134214" lon="11.033486117477318" id="-26662">
		<tag k="name" v="Klettroa" />
		<tag k="natural" v="valley" />
		<tag k="place" v="locality" />
		<tag k="ssr:stedsnr" v="422793" />
	</node>
	<node lat="61.48010555456582" lon="11.52627499864615" id="-26665">
		<tag k="fixme" v="consider natural=peak for the most distinct mountains in the district" />
		<tag k="name" v="Høgåsen" />
		<tag k="natural" v="hill" />
		<tag k="place" v="locality" />
		<tag k="ssr:stedsnr" v="433185" />
	</node>
	<node lat="61.952524996566744" lon="10.937761107949015" id="-26678">
		<tag k="fixme" v="consider natural=peak for the most distinct mountains in the district" />
		<tag k="name" v="Barkaldåsen" />
		<tag k="natural" v="hill" />
		<tag k="place" v="locality" />
		<tag k="ssr:stedsnr" v="435375" />
	</node>
	<node lat="62.18808333595449" lon="11.26718332602794" id="-26681">
		<tag k="name" v="Brurhøgda" />
		<tag k="natural" v="hill" />
		<tag k="place" v="locality" />
		<tag k="ssr:stedsnr" v="435513" />
	</node>
	<node lat="61.91845278083326" lon="10.653688880438725" id="-26682">
		<tag k="alt_name" v="Småvordan" />
		<tag k="fixme" v="consider natural=peak for the most distinct mountains in the district" />
		<tag k="name" v="Småvolan" />
		<tag k="natural" v="hill" />
		<tag k="place" v="locality" />
		<tag k="ssr:stedsnr" v="435517" />
	</node>
	<node lat="62.01924999764024" lon="11.30279443677033" id="-26689">
		<tag k="loc_name" v="Smikkjøllhøgda" />
		<tag k="name" v="Smikkjølhøgda" />
		<tag k="natural" v="hill" />
		<tag k="place" v="locality" />
		<tag k="ssr:stedsnr" v="435472" />
	</node>
	<node lat="61.52367221806139" lon="11.75681666821857" id="-26691">
		<tag k="alt_name" v="Nordre Raudfjellet;Raudfjellet" />
		<tag k="fixme" v="consider natural=peak for the most distinct mountains in the district" />
		<tag k="name" v="Nørdre Raudfjellet" />
		<tag k="natural" v="hill" />
		<tag k="place" v="locality" />
		<tag k="ssr:stedsnr" v="435721" />
	</node>
	<node lat="61.54900833763876" lon="11.397108332399617" id="-26692">
		<tag k="fixme" v="consider natural=peak for the most distinct mountains in the district" />
		<tag k="name" v="Tørråsen" />
		<tag k="natural" v="hill" />
		<tag k="place" v="locality" />
		<tag k="ssr:stedsnr" v="435803" />
	</node>
	<node lat="62.06553888668766" lon="11.128244438107279" id="-26694">
		<tag k="fixme" v="consider natural=peak for the most distinct mountains in the district" />
		<tag k="name" v="Klettsæterklettan" />
		<tag k="natural" v="hill" />
		<tag k="place" v="locality" />
		<tag k="ssr:stedsnr" v="436012" />
	</node>
	<node lat="61.87573888523756" lon="10.728383340281574" id="-26697">
		<tag k="fixme" v="consider natural=peak for the most distinct mountains in the district" />
		<tag k="name" v="Brennfjellet" />
		<tag k="natural" v="hill" />
		<tag k="place" v="locality" />
		<tag k="ssr:stedsnr" v="436119" />
	</node>
	<node lat="61.96030555289675" lon="11.153824996741422" id="-26701">
		<tag k="alt_name" v="Raudvorda" />
		<tag k="fixme" v="consider natural=peak for the most distinct mountains in the district" />
		<tag k="name" v="Rødvola" />
		<tag k="natural" v="hill" />
		<tag k="place" v="locality" />
		<tag k="ssr:stedsnr" v="436217" />
	</node>
	<node lat="61.932323651304884" lon="11.12587868816665" id="-26702">
		<tag k="name" v="Haugsetberget" />
		<tag k="natural" v="hill" />
		<tag k="place" v="locality" />
		<tag k="ssr:stedsnr" v="436221" />
	</node>
	<node lat="62.15516666326594" lon="11.461763880900296" id="-26704">
		<tag k="alt_name" v="Kletten, s" />
		<tag k="fixme" v="consider natural=peak for the most distinct mountains in the district" />
		<tag k="name" v="Søndre Kletten" />
		<tag k="natural" v="hill" />
		<tag k="place" v="locality" />
		<tag k="ssr:stedsnr" v="436361" />
	</node>
	<node lat="61.77527777447207" lon="11.091449990869318" id="-26708">
		<tag k="fixme" v="consider natural=peak for the most distinct mountains in the district" />
		<tag k="name" v="Motjønnåsen" />
		<tag k="natural" v="hill" />
		<tag k="place" v="locality" />
		<tag k="ssr:stedsnr" v="450167" />
	</node>
	<node lat="61.673769444311226" lon="11.251488893603945" id="-26714">
		<tag k="fixme" v="consider natural=peak for the most distinct mountains in the district" />
		<tag k="name" v="Lomtjønnåsen" />
		<tag k="natural" v="hill" />
		<tag k="place" v="locality" />
		<tag k="ssr:stedsnr" v="458225" />
	</node>
	<node lat="61.56951702911752" lon="11.623439231904703" id="-26724">
		<tag k="alt_name" v="Løvåskampen" />
		<tag k="fixme" v="multiple name tags, choose one and add the other to alt_name" />
		<tag k="name" v="Skjerbekkraudkollen;Lauvåskampen" />
		<tag k="natural" v="hill" />
		<tag k="place" v="locality" />
		<tag k="ssr:stedsnr" v="677304" />
	</node>
	<node lat="61.691138890400914" lon="11.35459999579917" id="-26728">
		<tag k="fixme" v="consider natural=peak for the most distinct mountains in the district" />
		<tag k="name" v="Renåfjellet" />
		<tag k="natural" v="hill" />
		<tag k="place" v="locality" />
		<tag k="ssr:stedsnr" v="677357" />
	</node>
	<node lat="61.58812500082142" lon="11.347977774866983" id="-26735">
		<tag k="fixme" v="consider natural=peak for the most distinct mountains in the district" />
		<tag k="name" v="Skarvberget" />
		<tag k="natural" v="hill" />
		<tag k="place" v="locality" />
		<tag k="ssr:stedsnr" v="677426" />
	</node>
	<node lat="61.9122277766287" lon="10.638069440671872" id="-26736">
		<tag k="fixme" v="consider natural=peak for the most distinct mountains in the district" />
		<tag k="name" v="Blårandfjellet" />
		<tag k="natural" v="hill" />
		<tag k="place" v="locality" />
		<tag k="ssr:stedsnr" v="677480" />
	</node>
	<node lat="61.626658332852045" lon="11.234930564439878" id="-26742">
		<tag k="alt_name" v="Skarkampane" />
		<tag k="fixme" v="consider natural=peak for the most distinct mountains in the district" />
		<tag k="name" v="Skarklettene" />
		<tag k="natural" v="hill" />
		<tag k="place" v="locality" />
		<tag k="ssr:stedsnr" v="677476" />
	</node>
	<node lat="61.5452499976773" lon="11.571977775332956" id="-26744">
		<tag k="name" v="Brøskifthaugen" />
		<tag k="natural" v="hill" />
		<tag k="place" v="locality" />
		<tag k="ssr:stedsnr" v="677705" />
	</node>
	<node lat="61.82600000029351" lon="11.153355549344445" id="-26748">
		<tag k="name" v="Svankletten" />
		<tag k="natural" v="hill" />
		<tag k="place" v="locality" />
		<tag k="ssr:stedsnr" v="678055" />
	</node>
	<node lat="62.042413884968525" lon="11.114252780109537" id="-26752">
		<tag k="fixme" v="consider natural=peak for the most distinct mountains in the district" />
		<tag k="name" v="Engåsen" />
		<tag k="natural" v="hill" />
		<tag k="place" v="locality" />
		<tag k="ssr:stedsnr" v="678069" />
	</node>
	<node lat="62.14364444637638" lon="11.171799993834059" id="-26754">
		<tag k="name" v="Finnrokampan" />
		<tag k="natural" v="hill" />
		<tag k="place" v="locality" />
		<tag k="ssr:stedsnr" v="678162" />
	</node>
	<node lat="61.987116665249076" lon="11.39852499066188" id="-26756">
		<tag k="name" v="Korphaugen" />
		<tag k="natural" v="hill" />
		<tag k="place" v="locality" />
		<tag k="ssr:stedsnr" v="678238" />
	</node>
	<node lat="61.95484166926594" lon="11.2597527817819" id="-26758">
		<tag k="fixme" v="consider natural=peak for the most distinct mountains in the district" />
		<tag k="name" v="Gråhøgda" />
		<tag k="natural" v="hill" />
		<tag k="place" v="locality" />
		<tag k="ssr:stedsnr" v="678249" />
	</node>
	<node lat="61.4511638873694" lon="11.411444435225869" id="-26760">
		<tag k="name" v="Skramsliåsen" />
		<tag k="natural" v="hill" />
		<tag k="place" v="locality" />
		<tag k="ssr:stedsnr" v="481202" />
	</node>
	<node lat="61.69640555452878" lon="11.18522500363918" id="-26766">
		<tag k="fixme" v="consider natural=peak for the most distinct mountains in the district" />
		<tag k="name" v="Åsberget" />
		<tag k="natural" v="hill" />
		<tag k="place" v="locality" />
		<tag k="ssr:stedsnr" v="481160" />
	</node>
	<node lat="61.81587500083806" lon="10.97243056395478" id="-26770">
		<tag k="name" v="Langåsen" />
		<tag k="natural" v="hill" />
		<tag k="place" v="locality" />
		<tag k="ssr:stedsnr" v="481804" />
	</node>
	<node lat="61.73427500202242" lon="11.428750002604668" id="-26773">
		<tag k="alt_name" v="Svultningsåsane" />
		<tag k="fixme" v="consider natural=peak for the most distinct mountains in the district" />
		<tag k="name" v="Svultningsåsen" />
		<tag k="natural" v="hill" />
		<tag k="place" v="locality" />
		<tag k="ssr:stedsnr" v="678441" />
	</node>
	<node lat="61.745641662935775" lon="11.245491661723209" id="-26776">
		<tag k="name" v="Svemåsåkvolvet" />
		<tag k="natural" v="valley" />
		<tag k="place" v="locality" />
		<tag k="ssr:stedsnr" v="481971" />
	</node>
	<node lat="61.836675003926665" lon="11.517808340106015" id="-26785">
		<tag k="name" v="Harahøgda" />
		<tag k="natural" v="hill" />
		<tag k="place" v="locality" />
		<tag k="ssr:stedsnr" v="678937" />
	</node>
	<node lat="61.908963889646856" lon="10.908722222494506" id="-26787">
		<tag k="name" v="Åsen" />
		<tag k="natural" v="hill" />
		<tag k="place" v="locality" />
		<tag k="ssr:stedsnr" v="483660" />
	</node>
	<node lat="61.6233416706833" lon="11.180100006936756" id="-26791">
		<tag k="name" v="Brakkedalen" />
		<tag k="natural" v="valley" />
		<tag k="place" v="locality" />
		<tag k="ssr:stedsnr" v="483921" />
	</node>
	<node lat="61.71860555706272" lon="11.072524996918839" id="-26795">
		<tag k="fixme" v="consider natural=peak for the most distinct mountains in the district" />
		<tag k="name" v="Storfjellet" />
		<tag k="natural" v="hill" />
		<tag k="place" v="locality" />
		<tag k="ssr:stedsnr" v="495206" />
	</node>
	<node lat="61.51987500163066" lon="11.410516664774669" id="-26796">
		<tag k="name" v="Knappane" />
		<tag k="natural" v="hill" />
		<tag k="place" v="locality" />
		<tag k="ssr:stedsnr" v="495312" />
	</node>
	<node lat="61.84531666864414" lon="10.632161105425032" id="-26804">
		<tag k="fixme" v="consider natural=peak for the most distinct mountains in the district" />
		<tag k="name" v="Nelitangen" />
		<tag k="natural" v="hill" />
		<tag k="place" v="locality" />
		<tag k="ssr:stedsnr" v="495470" />
	</node>
	<node lat="61.88016111445149" lon="10.645469446394292" id="-26805">
		<tag k="fixme" v="consider natural=peak for the most distinct mountains in the district" />
		<tag k="name" v="Midttangen" />
		<tag k="natural" v="hill" />
		<tag k="place" v="locality" />
		<tag k="ssr:stedsnr" v="495481" />
	</node>
	<node lat="61.51296111277844" lon="11.75573332985623" id="-26807">
		<tag k="alt_name" v="Raudfjellet, syndre;Søndre Raudfjellet" />
		<tag k="fixme" v="consider natural=peak for the most distinct mountains in the district" />
		<tag k="name" v="Syndre Raudfjellet" />
		<tag k="natural" v="hill" />
		<tag k="place" v="locality" />
		<tag k="ssr:stedsnr" v="495707" />
	</node>
	<node lat="61.59332499922415" lon="11.657897222188042" id="-26809">
		<tag k="fixme" v="consider natural=peak for the most distinct mountains in the district" />
		<tag k="name" v="Bjørbekkåsen" />
		<tag k="natural" v="hill" />
		<tag k="place" v="locality" />
		<tag k="ssr:stedsnr" v="495806" />
	</node>
	<node lat="61.794525004320406" lon="10.718811104061034" id="-26814">
		<tag k="fixme" v="consider natural=peak for the most distinct mountains in the district" />
		<tag k="name" v="Brennåsen" />
		<tag k="natural" v="hill" />
		<tag k="place" v="locality" />
		<tag k="ssr:stedsnr" v="496205" />
	</node>
	<node lat="61.76740555529502" lon="10.775575000878787" id="-26815">
		<tag k="alt_name" v="Atnglopen" />
		<tag k="fixme" v="consider natural=peak for the most distinct mountains in the district" />
		<tag k="name" v="Atnglupen" />
		<tag k="natural" v="hill" />
		<tag k="place" v="locality" />
		<tag k="ssr:stedsnr" v="496212" />
	</node>
	<node lat="61.96805555511986" lon="11.464505562384405" id="-26817">
		<tag k="fixme" v="consider natural=peak for the most distinct mountains in the district" />
		<tag k="name" v="Akshaugen" />
		<tag k="natural" v="hill" />
		<tag k="place" v="locality" />
		<tag k="ssr:stedsnr" v="496237" />
	</node>
	<node lat="61.938530555574104" lon="10.814702777648304" id="-26823">
		<tag k="fixme" v="consider natural=peak for the most distinct mountains in the district" />
		<tag k="name" v="Storskarven" />
		<tag k="natural" v="hill" />
		<tag k="place" v="locality" />
		<tag k="ssr:stedsnr" v="496336" />
	</node>
	<node lat="61.94800555953316" lon="10.739369442274308" id="-26824">
		<tag k="fixme" v="consider natural=peak for the most distinct mountains in the district" />
		<tag k="name" v="Kløftbekkhøgda" />
		<tag k="natural" v="hill" />
		<tag k="place" v="locality" />
		<tag k="ssr:stedsnr" v="496344" />
	</node>
	<node lat="61.89403610748959" lon="10.817091671275627" id="-26826">
		<tag k="name" v="Tegninghalsen" />
		<tag k="place" v="locality" />
		<tag k="ssr:stedsnr" v="496371" />
	</node>
	<node lat="61.935641664359714" lon="11.063188891193194" id="-26836">
		<tag k="name" v="Breddalen" />
		<tag k="natural" v="valley" />
		<tag k="place" v="locality" />
		<tag k="ssr:stedsnr" v="511007" />
	</node>
	<node lat="61.945013890785" lon="11.035458331515027" id="-26837">
		<tag k="name" v="Fonnåslia" />
		<tag k="natural" v="slope" />
		<tag k="place" v="locality" />
		<tag k="ssr:stedsnr" v="511055" />
	</node>
	<node lat="61.93377500373377" lon="11.07141388385248" id="-26838">
		<tag k="name" v="Ferdervelta" />
		<tag k="place" v="locality" />
		<tag k="ssr:stedsnr" v="511059" />
	</node>
	<node lat="61.77704166480681" lon="10.949452779091725" id="-26845">
		<tag k="name" v="Storposten" />
		<tag k="natural" v="hill" />
		<tag k="place" v="locality" />
		<tag k="ssr:stedsnr" v="541866" />
	</node>
	<node lat="61.49399444826129" lon="11.434938894403599" id="-26853">
		<tag k="name" v="Rognåsen" />
		<tag k="natural" v="hill" />
		<tag k="place" v="locality" />
		<tag k="ssr:stedsnr" v="543072" />
	</node>
	<node lat="61.66071666719301" lon="11.146677772077364" id="-26856">
		<tag k="name" v="Rennskitubakken" />
		<tag k="natural" v="slope" />
		<tag k="place" v="locality" />
		<tag k="ssr:stedsnr" v="543082" />
	</node>
	<node lat="61.67746388754827" lon="11.179577769213067" id="-26858">
		<tag k="name" v="Lauvtjellbakken" />
		<tag k="natural" v="slope" />
		<tag k="place" v="locality" />
		<tag k="ssr:stedsnr" v="543102" />
	</node>
	<node lat="61.8462138898832" lon="10.940586114456243" id="-26865">
		<tag k="name" v="Børtet" />
		<tag k="natural" v="slope" />
		<tag k="place" v="locality" />
		<tag k="ssr:stedsnr" v="543574" />
	</node>
	<node lat="61.83762777613977" lon="10.871897218484142" id="-26866">
		<tag k="name" v="Ytre Tyve" />
		<tag k="place" v="locality" />
		<tag k="ssr:stedsnr" v="543583" />
	</node>
	<node lat="61.69155000328791" lon="11.210791661461776" id="-26873">
		<tag k="name" v="Svarstadmoen" />
		<tag k="place" v="locality" />
		<tag k="ssr:stedsnr" v="544672" />
	</node>
	<node lat="61.70325833273485" lon="11.466913886710664" id="-26878">
		<tag k="fixme" v="consider natural=peak for the most distinct mountains in the district" />
		<tag k="name" v="Jønnbuåsen" />
		<tag k="natural" v="hill" />
		<tag k="place" v="locality" />
		<tag k="ssr:stedsnr" v="555317" />
	</node>
	<node lat="61.80116944235193" lon="10.705199991583243" id="-26888">
		<tag k="fixme" v="consider natural=peak for the most distinct mountains in the district" />
		<tag k="name" v="Langvola" />
		<tag k="natural" v="hill" />
		<tag k="place" v="locality" />
		<tag k="ssr:stedsnr" v="556323" />
	</node>
	<node lat="61.86992778127797" lon="11.398961119022482" id="-26890">
		<tag k="alt_name" v="Tissvorda" />
		<tag k="fixme" v="consider natural=peak for the most distinct mountains in the district" />
		<tag k="name" v="Tissvola" />
		<tag k="natural" v="hill" />
		<tag k="place" v="locality" />
		<tag k="ssr:stedsnr" v="556008" />
	</node>
	<node lat="61.835444443013316" lon="11.074583326031401" id="-26891">
		<tag k="alt_name" v="Raudfjellet;Raufjellet" />
		<tag k="fixme" v="consider natural=peak for the most distinct mountains in the district" />
		<tag k="name" v="Rødfjellet" />
		<tag k="natural" v="hill" />
		<tag k="place" v="locality" />
		<tag k="ssr:stedsnr" v="556204" />
	</node>
	<node lat="61.79170000108652" lon="11.058850008304345" id="-26893">
		<tag k="fixme" v="consider natural=peak for the most distinct mountains in the district" />
		<tag k="name" v="Nysæteråsen" />
		<tag k="natural" v="hill" />
		<tag k="place" v="locality" />
		<tag k="ssr:stedsnr" v="556217" />
	</node>
	<node lat="61.76092499963507" lon="10.85420556097172" id="-26894">
		<tag k="fixme" v="consider natural=peak for the most distinct mountains in the district" />
		<tag k="name" v="Svarttjønnkampen" />
		<tag k="natural" v="hill" />
		<tag k="place" v="locality" />
		<tag k="ssr:stedsnr" v="556227" />
	</node>
	<node lat="62.034939973107925" lon="11.601421686918098" id="-26898">
		<tag k="fixme" v="multiple name tags, choose one and add the other to alt_name; consider natural=peak for the most distinct mountains in the district" />
		<tag k="name" v="Jopålsakletten;Vesle Sølensjøkletten" />
		<tag k="natural" v="hill" />
		<tag k="place" v="locality" />
		<tag k="ssr:stedsnr" v="556456" />
	</node>
	<node lat="61.7058999983904" lon="11.119944438024207" id="-26900">
		<tag k="fixme" v="consider natural=peak for the most distinct mountains in the district" />
		<tag k="name" v="Fuglåsen" />
		<tag k="natural" v="hill" />
		<tag k="place" v="locality" />
		<tag k="ssr:stedsnr" v="556817" />
	</node>
	<node lat="60.928758332831066" lon="11.480424997080343" id="-26905">
		<tag k="name" v="Østerdalen" />
		<tag k="natural" v="valley" />
		<tag k="place" v="locality" />
		<tag k="ssr:stedsnr" v="692157" />
	</node>
	<node lat="61.91162222681807" lon="11.114774993068385" id="-26911">
		<tag k="name" v="Haugsetlia" />
		<tag k="natural" v="slope" />
		<tag k="place" v="locality" />
		<tag k="ssr:stedsnr" v="572146" />
	</node>
	<node lat="61.84856944250271" lon="11.134552771947396" id="-26913">
		<tag k="name" v="Søndre Lia" />
		<tag k="natural" v="slope" />
		<tag k="place" v="locality" />
		<tag k="ssr:stedsnr" v="694088" />
	</node>
	<node lat="61.86450000241344" lon="11.076361118257102" id="-26916">
		<tag k="name" v="Saudalen" />
		<tag k="natural" v="valley" />
		<tag k="place" v="locality" />
		<tag k="ssr:stedsnr" v="694453" />
	</node>
	<node lat="61.764091668621056" lon="10.903877784787838" id="-26917">
		<tag k="name" v="Okstjønnsøkken" />
		<tag k="natural" v="valley" />
		<tag k="place" v="locality" />
		<tag k="ssr:stedsnr" v="579617" />
	</node>
	<node lat="62.090513888506194" lon="10.95803611243103" id="-26918">
		<tag k="name" v="Svartskjæran" />
		<tag k="natural" v="hill" />
		<tag k="place" v="locality" />
		<tag k="ssr:stedsnr" v="597404" />
	</node>
	<node lat="61.72698055612053" lon="11.431841667592852" id="-26923">
		<tag k="name" v="Svultningsåskvolvet" />
		<tag k="place" v="locality" />
		<tag k="ssr:stedsnr" v="602407" />
	</node>
	<node lat="62.101605555447634" lon="11.435811110576031" id="-26942">
		<tag k="name" v="Sølnbakken" />
		<tag k="natural" v="hill" />
		<tag k="place" v="locality" />
		<tag k="ssr:stedsnr" v="604406" />
	</node>
	<node lat="61.723788888233905" lon="11.286808336426722" id="-26945">
		<tag k="name" v="Bekkedalen" />
		<tag k="natural" v="valley" />
		<tag k="place" v="locality" />
		<tag k="ssr:stedsnr" v="604655" />
	</node>
	<node lat="62.03816389050695" lon="11.050633328631381" id="-26948">
		<tag k="name" v="Nordre Vestlia" />
		<tag k="natural" v="slope" />
		<tag k="place" v="locality" />
		<tag k="ssr:stedsnr" v="604858" />
	</node>
	<node lat="61.94670555805641" lon="11.052316658484727" id="-26949">
		<tag k="name" v="Langegga" />
		<tag k="natural" v="ridge" />
		<tag k="place" v="locality" />
		<tag k="ssr:stedsnr" v="604861" />
	</node>
	<node lat="61.54555555784333" lon="11.34197778216941" id="-26951">
		<tag k="name" v="Leitjønndalen" />
		<tag k="natural" v="valley" />
		<tag k="place" v="locality" />
		<tag k="ssr:stedsnr" v="701147" />
	</node>
	<node lat="61.466386107967026" lon="11.497788883908422" id="-26953">
		<tag k="name" v="Langlidalen" />
		<tag k="natural" v="valley" />
		<tag k="place" v="locality" />
		<tag k="ssr:stedsnr" v="614208" />
	</node>
	<node lat="61.468030557804425" lon="11.592994449339638" id="-26954">
		<tag k="alt_name" v="Burusjøåsen, østre" />
		<tag k="fixme" v="consider natural=peak for the most distinct mountains in the district" />
		<tag k="name" v="Østre Burusjøåsen" />
		<tag k="natural" v="hill" />
		<tag k="place" v="locality" />
		<tag k="ssr:stedsnr" v="614211" />
	</node>
	<node lat="61.514074998810116" lon="11.29211389344363" id="-26957">
		<tag k="alt_name" v="Røstet, nordre;Røstet" />
		<tag k="fixme" v="consider natural=peak for the most distinct mountains in the district" />
		<tag k="name" v="Nordre Røstet" />
		<tag k="natural" v="hill" />
		<tag k="place" v="locality" />
		<tag k="ssr:stedsnr" v="616245" />
	</node>
	<node lat="61.95104166934046" lon="10.495288884572764" id="-26961">
		<tag k="fixme" v="consider natural=peak for the most distinct mountains in the district" />
		<tag k="name" v="Skarvhøa" />
		<tag k="natural" v="hill" />
		<tag k="place" v="locality" />
		<tag k="ssr:stedsnr" v="616420" />
	</node>
	<node lat="62.0909916699747" lon="10.958541659025592" id="-26979">
		<tag k="fixme" v="consider natural=peak for the most distinct mountains in the district" />
		<tag k="name" v="Roparåsan" />
		<tag k="natural" v="hill" />
		<tag k="place" v="locality" />
		<tag k="ssr:stedsnr" v="617139" />
	</node>
	<node lat="61.858324995747736" lon="11.054002785949876" id="-26981">
		<tag k="fixme" v="consider natural=peak for the most distinct mountains in the district" />
		<tag k="name" v="Finndalskampen" />
		<tag k="natural" v="hill" />
		<tag k="place" v="locality" />
		<tag k="ssr:stedsnr" v="617185" />
	</node>
	<node lat="61.83265555473124" lon="10.980680562801924" id="-26985">
		<tag k="alt_name" v="Gunnarsåsen" />
		<tag k="fixme" v="consider natural=peak for the most distinct mountains in the district" />
		<tag k="name" v="Gunnersåsen" />
		<tag k="natural" v="hill" />
		<tag k="place" v="locality" />
		<tag k="ssr:stedsnr" v="617195" />
	</node>
	<node lat="62.15933332948707" lon="11.358230547065908" id="-26989">
		<tag k="fixme" v="consider natural=peak for the most distinct mountains in the district" />
		<tag k="name" v="Elgspiggen" />
		<tag k="natural" v="hill" />
		<tag k="place" v="locality" />
		<tag k="ssr:stedsnr" v="617410" />
	</node>
	<node lat="61.6568055558879" lon="11.527775004145353" id="-26993">
		<tag k="fixme" v="consider natural=peak for the most distinct mountains in the district" />
		<tag k="name" v="Gamleskarven" />
		<tag k="natural" v="hill" />
		<tag k="place" v="locality" />
		<tag k="ssr:stedsnr" v="617391" />
	</node>
	<node lat="61.92215555474786" lon="10.999416667094382" id="-26994">
		<tag k="alt_name" v="Hammarsskorsåsen" />
		<tag k="fixme" v="consider natural=peak for the most distinct mountains in the district" />
		<tag k="name" v="Hammerskaråsen" />
		<tag k="natural" v="hill" />
		<tag k="place" v="locality" />
		<tag k="ssr:stedsnr" v="617397" />
	</node>
	<node lat="61.922138886791046" lon="10.92097778414944" id="-26996">
		<tag k="fixme" v="consider natural=peak for the most distinct mountains in the district" />
		<tag k="name" v="Aursjøåsen" />
		<tag k="natural" v="hill" />
		<tag k="place" v="locality" />
		<tag k="ssr:stedsnr" v="617401" />
	</node>
	<node lat="61.97013333292282" lon="11.141091660611492" id="-26998">
		<tag k="name" v="Skarvdalen" />
		<tag k="natural" v="valley" />
		<tag k="place" v="locality" />
		<tag k="ssr:stedsnr" v="626309" />
	</node>
	<node lat="61.827566669067096" lon="10.858052769425008" id="-27003">
		<tag k="name" v="Gardsmoen" />
		<tag k="place" v="locality" />
		<tag k="ssr:stedsnr" v="630499" />
	</node>
	<node lat="61.890363891406814" lon="11.1274833244756" id="-27010">
		<tag k="name" v="Brattegga" />
		<tag k="natural" v="hill" />
		<tag k="place" v="locality" />
		<tag k="ssr:stedsnr" v="632129" />
	</node>
	<node lat="61.8876861107969" lon="11.091386108750212" id="-27012">
		<tag k="name" v="Holmegga" />
		<tag k="natural" v="ridge" />
		<tag k="place" v="locality" />
		<tag k="ssr:stedsnr" v="632139" />
	</node>
	<node lat="61.78806666220888" lon="11.128838896346375" id="-27016">
		<tag k="name" v="Førstebekkdalen" />
		<tag k="natural" v="valley" />
		<tag k="place" v="locality" />
		<tag k="ssr:stedsnr" v="632423" />
	</node>
	<node lat="61.795463890125795" lon="11.113633337831141" id="-27020">
		<tag k="name" v="Prekestolen" />
		<tag k="natural" v="valley" />
		<tag k="place" v="locality" />
		<tag k="ssr:stedsnr" v="632482" />
	</node>
	<node lat="61.58877500178503" lon="11.277044440578761" id="-27024">
		<tag k="name" v="Nørstskaret" />
		<tag k="natural" v="valley" />
		<tag k="place" v="locality" />
		<tag k="ssr:stedsnr" v="663310" />
	</node>
	<node lat="61.79933333088198" lon="11.071894450840146" id="-27028">
		<tag k="name" v="Storfløtningen" />
		<tag k="natural" v="slope" />
		<tag k="place" v="locality" />
		<tag k="ssr:stedsnr" v="663733" />
	</node>
	<node lat="61.639138885712775" lon="11.354602778858574" id="-27029">
		<tag k="fixme" v="consider natural=peak for the most distinct mountains in the district" />
		<tag k="name" v="Vamåsen" />
		<tag k="natural" v="hill" />
		<tag k="place" v="locality" />
		<tag k="ssr:stedsnr" v="664008" />
	</node>
	<node lat="61.756852779863415" lon="11.237522229816129" id="-27031">
		<tag k="name" v="Storkuhammeren" />
		<tag k="natural" v="hill" />
		<tag k="place" v="locality" />
		<tag k="ssr:stedsnr" v="663981" />
	</node>
	<node lat="62.039994440278214" lon="11.151936110146066" id="-27037">
		<tag k="name" v="Koppjota" />
		<tag k="natural" v="valley" />
		<tag k="place" v="locality" />
		<tag k="ssr:stedsnr" v="664304" />
	</node>
	<node lat="61.7325777799109" lon="11.080388882745432" id="-27043">
		<tag k="name" v="Rundhaugen" />
		<tag k="natural" v="hill" />
		<tag k="place" v="locality" />
		<tag k="ssr:stedsnr" v="665703" />
	</node>
	<node lat="61.701438889416444" lon="11.221286117539288" id="-27044">
		<tag k="name" v="Grønengmælen" />
		<tag k="place" v="locality" />
		<tag k="ssr:stedsnr" v="665710" />
	</node>
	<node lat="61.709144442335926" lon="11.23668611109071" id="-27047">
		<tag k="alt_name" v="Kværnesløa" />
		<tag k="name" v="Kvernnesløa" />
		<tag k="place" v="locality" />
		<tag k="ssr:stedsnr" v="665690" />
	</node>
	<node lat="61.48269167059096" lon="11.213747220931767" id="-27050">
		<tag k="name" v="Vestkjølen" />
		<tag k="natural" v="hill" />
		<tag k="place" v="locality" />
		<tag k="ssr:stedsnr" v="676102" />
	</node>
	<node lat="61.70610277922563" lon="11.273741672173252" id="-27061">
		<tag k="alt_name" v="Kongsskaret" />
		<tag k="name" v="Kongsskardet" />
		<tag k="natural" v="valley" />
		<tag k="place" v="locality" />
		<tag k="ssr:stedsnr" v="677353" />
	</node>
	<node lat="62.08377500268698" lon="11.076988893426174" id="-27069">
		<tag k="name" v="Kvitrabben" />
		<tag k="natural" v="hill" />
		<tag k="place" v="locality" />
		<tag k="ssr:stedsnr" v="678031" />
	</node>
	<node lat="62.11431666801556" lon="11.558425005793561" id="-27083">
		<tag k="fixme" v="consider natural=peak for the most distinct mountains in the district" />
		<tag k="name" v="Gloføkkampen" />
		<tag k="natural" v="hill" />
		<tag k="place" v="locality" />
		<tag k="ssr:stedsnr" v="678424" />
	</node>
	<node lat="61.76413333315957" lon="11.17426388189121" id="-27097">
		<tag k="name" v="Otnesøyen" />
		<tag k="place" v="locality" />
		<tag k="ssr:stedsnr" v="694079" />
	</node>
	<node lat="62.16029166397617" lon="11.43208888604099" id="-27108">
		<tag k="name" v="Finnroa" />
		<tag k="natural" v="valley" />
		<tag k="place" v="locality" />
		<tag k="ssr:stedsnr" v="722786" />
	</node>
	<node lat="61.54619444374038" lon="11.268008341278838" id="-27111">
		<tag k="name" v="Kjerkebakkmota" />
		<tag k="natural" v="slope" />
		<tag k="place" v="locality" />
		<tag k="ssr:stedsnr" v="723329" />
	</node>
	<node lat="61.4773055550476" lon="11.42022222383958" id="-27114">
		<tag k="name" v="Vestre Slemlia" />
		<tag k="natural" v="slope" />
		<tag k="place" v="locality" />
		<tag k="ssr:stedsnr" v="724172" />
	</node>
	<node lat="61.97303333481775" lon="11.1585249932506" id="-27122">
		<tag k="name" v="Heggesletta" />
		<tag k="place" v="locality" />
		<tag k="ssr:stedsnr" v="725433" />
	</node>
	<node lat="61.66769999793257" lon="11.25412222666389" id="-27124">
		<tag k="name" v="Hagenkvernbakka" />
		<tag k="natural" v="slope" />
		<tag k="place" v="locality" />
		<tag k="ssr:stedsnr" v="725452" />
	</node>
	<node lat="62.04077222390669" lon="11.123147219092814" id="-27125">
		<tag k="name" v="Bakkeråsen" />
		<tag k="natural" v="hill" />
		<tag k="place" v="locality" />
		<tag k="ssr:stedsnr" v="725306" />
	</node>
	<node lat="61.69270832951213" lon="11.112952776230006" id="-27133">
		<tag k="name" v="Rabba" />
		<tag k="natural" v="slope" />
		<tag k="place" v="locality" />
		<tag k="ssr:stedsnr" v="726086" />
	</node>
	<node lat="61.75815833363003" lon="10.882097214657792" id="-27136">
		<tag k="name" v="Storsalen" />
		<tag k="natural" v="valley" />
		<tag k="place" v="locality" />
		<tag k="ssr:stedsnr" v="726521" />
	</node>
	<node lat="61.46107499741502" lon="11.449552771697146" id="-27142">
		<tag k="alt_name" v="Bjønndalen" />
		<tag k="name" v="Bjørndalen" />
		<tag k="natural" v="valley" />
		<tag k="place" v="locality" />
		<tag k="ssr:stedsnr" v="736121" />
	</node>
	<node lat="61.537177773935625" lon="11.152005558867797" id="-27150">
		<tag k="fixme" v="consider natural=peak for the most distinct mountains in the district" />
		<tag k="name" v="Storåsen" />
		<tag k="natural" v="hill" />
		<tag k="place" v="locality" />
		<tag k="ssr:stedsnr" v="738312" />
	</node>
	<node lat="62.016041670036415" lon="11.432855550995715" id="-27156">
		<tag k="fixme" v="consider natural=peak for the most distinct mountains in the district" />
		<tag k="name" v="Søskarven" />
		<tag k="natural" v="hill" />
		<tag k="place" v="locality" />
		<tag k="ssr:stedsnr" v="738423" />
	</node>
	<node lat="61.51208055346355" lon="11.682300005209308" id="-27161">
		<tag k="name" v="Matsekkskjeret" />
		<tag k="place" v="locality" />
		<tag k="ssr:stedsnr" v="738709" />
	</node>
	<node lat="61.80927499618165" lon="10.984963891906906" id="-27171">
		<tag k="fixme" v="consider natural=peak for the most distinct mountains in the district" />
		<tag k="name" v="Skarven" />
		<tag k="natural" v="hill" />
		<tag k="place" v="locality" />
		<tag k="ssr:stedsnr" v="739118" />
	</node>
	<node lat="61.867330551029745" lon="10.876341673322614" id="-27172">
		<tag k="alt_name" v="Grøtåsen" />
		<tag k="fixme" v="consider natural=peak for the most distinct mountains in the district" />
		<tag k="name" v="Grøttingåsen" />
		<tag k="natural" v="hill" />
		<tag k="place" v="locality" />
		<tag k="ssr:stedsnr" v="739124" />
	</node>
	<node lat="61.871763889956775" lon="11.060199994108615" id="-27173">
		<tag k="alt_name" v="Kaukkampen" />
		<tag k="fixme" v="consider natural=peak for the most distinct mountains in the district" />
		<tag k="name" v="Haukkampen" />
		<tag k="natural" v="hill" />
		<tag k="place" v="locality" />
		<tag k="ssr:stedsnr" v="739129" />
	</node>
	<node lat="61.93007500101053" lon="11.518155555737767" id="-27174">
		<tag k="fixme" v="consider natural=peak for the most distinct mountains in the district" />
		<tag k="name" v="Veslesølen" />
		<tag k="natural" v="hill" />
		<tag k="place" v="locality" />
		<tag k="ssr:stedsnr" v="739095" />
	</node>
	<node lat="62.09721111151909" lon="10.98710555132068" id="-27176">
		<tag k="alt_name" v="Kvannskardfjellet" />
		<tag k="fixme" v="consider natural=peak for the most distinct mountains in the district" />
		<tag k="name" v="Skardfjellet" />
		<tag k="natural" v="hill" />
		<tag k="place" v="locality" />
		<tag k="ssr:stedsnr" v="739099" />
	</node>
	<node lat="61.76972221837837" lon="10.911933333788411" id="-27183">
		<tag k="fixme" v="consider natural=peak for the most distinct mountains in the district" />
		<tag k="name" v="Okstjønnåsen" />
		<tag k="natural" v="hill" />
		<tag k="place" v="locality" />
		<tag k="ssr:stedsnr" v="739196" />
	</node>
	<node lat="61.911499996973" lon="10.9802527693177" id="-27184">
		<tag k="fixme" v="consider natural=peak for the most distinct mountains in the district" />
		<tag k="name" v="Tronsjøåsen" />
		<tag k="natural" v="hill" />
		<tag k="place" v="locality" />
		<tag k="ssr:stedsnr" v="739344" />
	</node>
	<node lat="61.541708329430165" lon="11.27563889544114" id="-27189">
		<tag k="name" v="Abbortjønneggene" />
		<tag k="natural" v="ridge" />
		<tag k="place" v="locality" />
		<tag k="ssr:stedsnr" v="753459" />
	</node>
	<node lat="62.10945555870603" lon="11.489569445909908" id="-27190">
		<tag k="name" v="Jørgenshaugen" />
		<tag k="natural" v="hill" />
		<tag k="place" v="locality" />
		<tag k="ssr:stedsnr" v="753359" />
	</node>
	<node lat="61.815105554068445" lon="10.887077776241194" id="-27191">
		<tag k="name" v="Hanekampsalen" />
		<tag k="natural" v="valley" />
		<tag k="place" v="locality" />
		<tag k="ssr:stedsnr" v="753505" />
	</node>
	<node lat="61.83347222174589" lon="11.145491670067896" id="-27196">
		<tag k="name" v="Svartbekklia" />
		<tag k="natural" v="slope" />
		<tag k="place" v="locality" />
		<tag k="ssr:stedsnr" v="754422" />
	</node>
	<node lat="61.741152775124434" lon="11.087925009069949" id="-27199">
		<tag k="name" v="Kløftdalen" />
		<tag k="natural" v="valley" />
		<tag k="place" v="locality" />
		<tag k="ssr:stedsnr" v="906178" />
	</node>
	<node lat="61.70251388489155" lon="11.183144440766283" id="-27203">
		<tag k="name" v="Storbakken" />
		<tag k="natural" v="slope" />
		<tag k="place" v="locality" />
		<tag k="ssr:stedsnr" v="906149" />
	</node>
	<node lat="61.48221388675764" lon="11.42926389296792" id="-27207">
		<tag k="name" v="Østre Slemlia" />
		<tag k="natural" v="slope" />
		<tag k="place" v="locality" />
		<tag k="ssr:stedsnr" v="906196" />
	</node>
	<node lat="61.77413055283958" lon="10.867022225566092" id="-27213">
		<tag k="name" v="Kølbrennertangen" />
		<tag k="natural" v="hill" />
		<tag k="place" v="locality" />
		<tag k="ssr:stedsnr" v="906449" />
	</node>
	<node lat="61.81617500403326" lon="11.007091662550666" id="-27216">
		<tag k="name" v="Vesleskaret" />
		<tag k="natural" v="valley" />
		<tag k="place" v="locality" />
		<tag k="ssr:stedsnr" v="906826" />
	</node>
	<node lat="61.62504166422126" lon="11.153711109828773" id="-27217">
		<tag k="name" v="Midtskogbakkene" />
		<tag k="natural" v="slope" />
		<tag k="place" v="locality" />
		<tag k="ssr:stedsnr" v="906896" />
	</node>
	<node lat="61.65344444176028" lon="11.183997221906228" id="-27221">
		<tag k="name" v="Geitryggen" />
		<tag k="natural" v="hill" />
		<tag k="place" v="locality" />
		<tag k="ssr:stedsnr" v="908080" />
	</node>
	<node lat="61.438747224797154" lon="11.376405554103595" id="-27228">
		<tag k="name" v="Kletten" />
		<tag k="natural" v="hill" />
		<tag k="place" v="locality" />
		<tag k="ssr:stedsnr" v="907887" />
	</node>
	<node lat="61.966866668151766" lon="11.088166665889924" id="-27234">
		<tag k="name" v="Storskredet" />
		<tag k="natural" v="slope" />
		<tag k="place" v="locality" />
		<tag k="ssr:stedsnr" v="908516" />
	</node>
	<node lat="61.75240278086086" lon="10.861261114903446" id="-27236">
		<tag k="name" v="Kjølsjødalen" />
		<tag k="natural" v="valley" />
		<tag k="place" v="locality" />
		<tag k="ssr:stedsnr" v="908532" />
	</node>
	<node lat="61.726597225401974" lon="11.20938056469007" id="-27241">
		<tag k="name" v="Nabbdalen" />
		<tag k="natural" v="valley" />
		<tag k="place" v="locality" />
		<tag k="ssr:stedsnr" v="908676" />
	</node>
	<node lat="61.76652777807951" lon="10.978808325809402" id="-27242">
		<tag k="fixme" v="consider natural=peak for the most distinct mountains in the district" />
		<tag k="name" v="Mjovassåsen" />
		<tag k="natural" v="hill" />
		<tag k="place" v="locality" />
		<tag k="ssr:stedsnr" v="908679" />
	</node>
	<node lat="61.87150833557541" lon="10.941791672882406" id="-27245">
		<tag k="name" v="Tingstadlia" />
		<tag k="natural" v="slope" />
		<tag k="place" v="locality" />
		<tag k="ssr:stedsnr" v="908721" />
	</node>
	<node lat="61.984525004338764" lon="11.013258335815992" id="-27246">
		<tag k="name" v="Skarvan" />
		<tag k="natural" v="hill" />
		<tag k="place" v="locality" />
		<tag k="ssr:stedsnr" v="908882" />
	</node>
	<node lat="61.60116944788965" lon="11.143224996174338" id="-27248">
		<tag k="name" v="Burudalslia" />
		<tag k="natural" v="slope" />
		<tag k="place" v="locality" />
		<tag k="ssr:stedsnr" v="908944" />
	</node>
	<node lat="61.69452777442043" lon="11.191130564331663" id="-27251">
		<tag k="name" v="Båsdalen" />
		<tag k="natural" v="valley" />
		<tag k="place" v="locality" />
		<tag k="ssr:stedsnr" v="784153" />
	</node>
	<node lat="61.497247219470395" lon="11.281777778924024" id="-27252">
		<tag k="name" v="Skjærberget" />
		<tag k="natural" v="hill" />
		<tag k="place" v="locality" />
		<tag k="ssr:stedsnr" v="784311" />
	</node>
	<node lat="61.881655558392694" lon="11.195227768746772" id="-27254">
		<tag k="name" v="Bakselabakken" />
		<tag k="natural" v="slope" />
		<tag k="place" v="locality" />
		<tag k="ssr:stedsnr" v="784211" />
	</node>
	<node lat="61.994405556764875" lon="11.14236387962518" id="-27255">
		<tag k="name" v="Slettmoene" />
		<tag k="place" v="locality" />
		<tag k="ssr:stedsnr" v="784263" />
	</node>
	<node lat="61.86341944869685" lon="11.169066662012815" id="-27259">
		<tag k="name" v="Stokkbekkvolvet" />
		<tag k="natural" v="slope" />
		<tag k="place" v="locality" />
		<tag k="ssr:stedsnr" v="786201" />
	</node>
	<node lat="61.98163333180668" lon="11.163358329765652" id="-27260">
		<tag k="name" v="Trollbua" />
		<tag k="place" v="locality" />
		<tag k="ssr:stedsnr" v="786509" />
	</node>
	<node lat="61.96721944437733" lon="11.155963891241365" id="-27261">
		<tag k="name" v="Gammelørbekkdalen" />
		<tag k="natural" v="valley" />
		<tag k="place" v="locality" />
		<tag k="ssr:stedsnr" v="786515" />
	</node>
	<node lat="61.70809721910678" lon="11.235988882878903" id="-27270">
		<tag k="alt_name" v="Kværnøya" />
		<tag k="name" v="Kvernøya" />
		<tag k="place" v="locality" />
		<tag k="ssr:stedsnr" v="786661" />
	</node>
	<node lat="61.47552222309606" lon="11.491708339936615" id="-27275">
		<tag k="fixme" v="consider natural=peak for the most distinct mountains in the district" />
		<tag k="name" v="Svartåsen" />
		<tag k="natural" v="hill" />
		<tag k="place" v="locality" />
		<tag k="ssr:stedsnr" v="797211" />
	</node>
	<node lat="61.7761666694687" lon="10.85970833605512" id="-27282">
		<tag k="alt_name" v="Tøråsen" />
		<tag k="fixme" v="consider natural=peak for the most distinct mountains in the district" />
		<tag k="name" v="Tørråsen" />
		<tag k="natural" v="hill" />
		<tag k="place" v="locality" />
		<tag k="ssr:stedsnr" v="799150" />
	</node>
	<node lat="61.79624999683977" lon="11.040105549982844" id="-27283">
		<tag k="fixme" v="consider natural=peak for the most distinct mountains in the district" />
		<tag k="name" v="Langåsen" />
		<tag k="natural" v="hill" />
		<tag k="place" v="locality" />
		<tag k="ssr:stedsnr" v="799192" />
	</node>
	<node lat="61.71934166695931" lon="11.014205555854717" id="-27284">
		<tag k="fixme" v="consider natural=peak for the most distinct mountains in the district" />
		<tag k="name" v="Rokkåsen" />
		<tag k="natural" v="hill" />
		<tag k="place" v="locality" />
		<tag k="ssr:stedsnr" v="799202" />
	</node>
	<node lat="61.56144722118018" lon="11.298738889808753" id="-27285">
		<tag k="fixme" v="consider natural=peak for the most distinct mountains in the district" />
		<tag k="name" v="Andtjønnkletten" />
		<tag k="natural" v="hill" />
		<tag k="place" v="locality" />
		<tag k="ssr:stedsnr" v="799309" />
	</node>
	<node lat="61.738266668132205" lon="10.98932777521781" id="-27287">
		<tag k="fixme" v="consider natural=peak for the most distinct mountains in the district" />
		<tag k="name" v="Gråkletten" />
		<tag k="natural" v="hill" />
		<tag k="place" v="locality" />
		<tag k="ssr:stedsnr" v="799215" />
	</node>
	<node lat="61.737836109307416" lon="11.134958333145654" id="-27289">
		<tag k="name" v="Granberget" />
		<tag k="natural" v="hill" />
		<tag k="place" v="locality" />
		<tag k="ssr:stedsnr" v="799412" />
	</node>
	<node lat="61.914369447761594" lon="10.616591672419789" id="-27301">
		<tag k="name" v="Kuven" />
		<tag k="natural" v="valley" />
		<tag k="place" v="locality" />
		<tag k="ssr:stedsnr" v="799495" />
	</node>
	<node lat="62.00237500072695" lon="10.913216661709383" id="-27303">
		<tag k="name" v="Jutulhogget" />
		<tag k="natural" v="valley" />
		<tag k="place" v="locality" />
		<tag k="ssr:stedsnr" v="800435" />
	</node>
	<node lat="62.10708610706983" lon="11.290286109353671" id="-27305">
		<tag k="name" v="Veslehøgda" />
		<tag k="natural" v="hill" />
		<tag k="place" v="locality" />
		<tag k="ssr:stedsnr" v="800387" />
	</node>
	<node lat="61.87837777332147" lon="11.580311113917006" id="-27308">
		<tag k="name" v="Stollfløyet" />
		<tag k="place" v="locality" />
		<tag k="ssr:stedsnr" v="800981" />
	</node>
	<node lat="61.89555277549079" lon="11.688608335451484" id="-27310">
		<tag k="alt_name" v="Rødvorda" />
		<tag k="fixme" v="consider natural=peak for the most distinct mountains in the district" />
		<tag k="name" v="Rødvola" />
		<tag k="natural" v="hill" />
		<tag k="place" v="locality" />
		<tag k="ssr:stedsnr" v="800991" />
	</node>
	<node lat="61.733074999206856" lon="11.125483342383488" id="-27315">
		<tag k="alt_name" v="Raukollen" />
		<tag k="fixme" v="consider natural=peak for the most distinct mountains in the district" />
		<tag k="name" v="Raudkollen" />
		<tag k="natural" v="hill" />
		<tag k="place" v="locality" />
		<tag k="ssr:stedsnr" v="920378" />
	</node>
	<node lat="61.9132111125486" lon="10.584997228254414" id="-27316">
		<tag k="alt_name" v="Nehatten, store" />
		<tag k="fixme" v="consider natural=peak for the most distinct mountains in the district" />
		<tag k="name" v="Store Nehatten" />
		<tag k="natural" v="hill" />
		<tag k="place" v="locality" />
		<tag k="ssr:stedsnr" v="920469" />
	</node>
	<node lat="61.86828055570078" lon="11.074766661933124" id="-27321">
		<tag k="name" v="Finndalen" />
		<tag k="natural" v="valley" />
		<tag k="place" v="locality" />
		<tag k="ssr:stedsnr" v="816507" />
	</node>
	<node lat="61.568336111001315" lon="11.719708339771138" id="-27329">
		<tag k="fixme" v="consider natural=peak for the most distinct mountains in the district" />
		<tag k="name" v="Måsåveltåsen" />
		<tag k="natural" v="hill" />
		<tag k="place" v="locality" />
		<tag k="ssr:stedsnr" v="920317" />
	</node>
	<node lat="61.50039722154118" lon="11.428647229143928" id="-27331">
		<tag k="alt_name" v="Byringen, store" />
		<tag k="fixme" v="consider natural=peak for the most distinct mountains in the district" />
		<tag k="name" v="Store Byringen" />
		<tag k="natural" v="hill" />
		<tag k="place" v="locality" />
		<tag k="ssr:stedsnr" v="920260" />
	</node>
	<node lat="61.54719721805002" lon="11.193911104780078" id="-27333">
		<tag k="alt_name" v="Rangkløvhammeren" />
		<tag k="name" v="Rangkløvhammaren" />
		<tag k="natural" v="cliff" />
		<tag k="ssr:stedsnr" v="920277" />
	</node>
	<node lat="61.800963886908924" lon="11.032927786690802" id="-27336">
		<tag k="name" v="Hundtjønndalen" />
		<tag k="natural" v="valley" />
		<tag k="place" v="locality" />
		<tag k="ssr:stedsnr" v="821977" />
	</node>
	<node lat="62.03546389140501" lon="11.098358326320934" id="-27341">
		<tag k="fixme" v="consider natural=peak for the most distinct mountains in the district" />
		<tag k="name" v="Hanakammen" />
		<tag k="natural" v="hill" />
		<tag k="place" v="locality" />
		<tag k="ssr:stedsnr" v="921059" />
	</node>
	<node lat="62.13916944071219" lon="11.048986103938619" id="-27359">
		<tag k="name" v="Sjølia" />
		<tag k="natural" v="slope" />
		<tag k="place" v="locality" />
		<tag k="ssr:stedsnr" v="842213" />
	</node>
	<node lat="61.769883330010224" lon="10.948833333076458" id="-27363">
		<tag k="name" v="Jakthaugen" />
		<tag k="natural" v="hill" />
		<tag k="place" v="locality" />
		<tag k="ssr:stedsnr" v="846422" />
	</node>
	<node lat="61.99751111467367" lon="11.199561102464381" id="-27369">
		<tag k="name" v="Søvollsrya" />
		<tag k="place" v="locality" />
		<tag k="ssr:stedsnr" v="847330" />
	</node>
	<node lat="62.113441663192845" lon="11.425227768099827" id="-27371">
		<tag k="name" v="Kløftet" />
		<tag k="natural" v="valley" />
		<tag k="place" v="locality" />
		<tag k="ssr:stedsnr" v="847426" />
	</node>
	<node lat="61.93817778200341" lon="11.018777787258816" id="-27375">
		<tag k="name" v="Stornesmoen" />
		<tag k="place" v="locality" />
		<tag k="ssr:stedsnr" v="847779" />
	</node>
	<node lat="61.916766669985044" lon="11.006788897992202" id="-27376">
		<tag k="name" v="Hammerskaret" />
		<tag k="natural" v="valley" />
		<tag k="place" v="locality" />
		<tag k="ssr:stedsnr" v="847782" />
	</node>
	<node lat="61.529097222926076" lon="11.544272223414694" id="-27377">
		<tag k="name" v="Svartbekkdalen" />
		<tag k="natural" v="valley" />
		<tag k="place" v="locality" />
		<tag k="ssr:stedsnr" v="935262" />
	</node>
	<node lat="62.127669445995934" lon="11.122000005670454" id="-27381">
		<tag k="fixme" v="consider natural=peak for the most distinct mountains in the district" />
		<tag k="name" v="Slettfjellet" />
		<tag k="natural" v="hill" />
		<tag k="place" v="locality" />
		<tag k="ssr:stedsnr" v="860105" />
	</node>
	<node lat="62.10548055528912" lon="11.211294438143119" id="-27389">
		<tag k="fixme" v="consider natural=peak for the most distinct mountains in the district" />
		<tag k="name" v="Nekkjølen" />
		<tag k="natural" v="hill" />
		<tag k="place" v="locality" />
		<tag k="ssr:stedsnr" v="860071" />
	</node>
	<node lat="61.82400000047501" lon="10.92879999341294" id="-27390">
		<tag k="fixme" v="consider natural=peak for the most distinct mountains in the district" />
		<tag k="name" v="Storåsen" />
		<tag k="natural" v="hill" />
		<tag k="place" v="locality" />
		<tag k="ssr:stedsnr" v="860204" />
	</node>
	<node lat="61.75876111100327" lon="10.886061108276149" id="-27394">
		<tag k="alt_name" v="Kjølsjøberget, nordre" />
		<tag k="name" v="Nordre Kjølsjøberget" />
		<tag k="natural" v="hill" />
		<tag k="place" v="locality" />
		<tag k="ssr:stedsnr" v="860225" />
	</node>
	<node lat="61.97420278009551" lon="11.185808337858845" id="-27396">
		<tag k="fixme" v="consider natural=peak for the most distinct mountains in the district" />
		<tag k="name" v="Størtjønnåsen" />
		<tag k="natural" v="hill" />
		<tag k="place" v="locality" />
		<tag k="ssr:stedsnr" v="860263" />
	</node>
	<node lat="61.5671083354292" lon="11.38102777685521" id="-27398">
		<tag k="fixme" v="consider natural=peak for the most distinct mountains in the district" />
		<tag k="name" v="Veksenbekkåsen" />
		<tag k="natural" v="hill" />
		<tag k="place" v="locality" />
		<tag k="ssr:stedsnr" v="860504" />
	</node>
	<node lat="61.8803166638957" lon="11.25798889543841" id="-27405">
		<tag k="alt_name" v="Einvorda" />
		<tag k="name" v="Envola" />
		<tag k="natural" v="hill" />
		<tag k="place" v="locality" />
		<tag k="ssr:stedsnr" v="861004" />
	</node>
	<node lat="61.8880972245015" lon="11.163925003500218" id="-27408">
		<tag k="alt_name" v="Lysingkvolvet" />
		<tag k="name" v="Lysingkvelvet" />
		<tag k="natural" v="slope" />
		<tag k="place" v="locality" />
		<tag k="ssr:stedsnr" v="861015" />
	</node>
	<node lat="62.05530000414268" lon="10.95279999411978" id="-27409">
		<tag k="alt_name" v="Skorsåhøgdan" />
		<tag k="name" v="Søndre Skårsjøhøgda" />
		<tag k="natural" v="hill" />
		<tag k="place" v="locality" />
		<tag k="ssr:stedsnr" v="861017" />
	</node>
	<node lat="61.84895000251078" lon="11.57555555732728" id="-27415">
		<tag k="name" v="Storfløyet" />
		<tag k="place" v="locality" />
		<tag k="ssr:stedsnr" v="861979" />
	</node>
	<node lat="61.76858055250339" lon="11.214188894167151" id="-27417">
		<tag k="name" v="Røskberget" />
		<tag k="natural" v="hill" />
		<tag k="place" v="locality" />
		<tag k="ssr:stedsnr" v="930280" />
	</node>
	<node lat="61.92618611282528" lon="11.050319443472734" id="-27419">
		<tag k="name" v="Gammelstuegga" />
		<tag k="natural" v="ridge" />
		<tag k="place" v="locality" />
		<tag k="ssr:stedsnr" v="876006" />
	</node>
	<node lat="61.79739722074324" lon="11.088841666001175" id="-27423">
		<tag k="name" v="Nysæterlia" />
		<tag k="natural" v="slope" />
		<tag k="place" v="locality" />
		<tag k="ssr:stedsnr" v="876507" />
	</node>
	<node lat="61.801080559476404" lon="10.932433339359308" id="-27425">
		<tag k="name" v="Kivdalen" />
		<tag k="natural" v="valley" />
		<tag k="place" v="locality" />
		<tag k="ssr:stedsnr" v="877622" />
	</node>
	<node lat="61.78010000372019" lon="10.916505553527587" id="-27428">
		<tag k="name" v="Bløtrøsta" />
		<tag k="natural" v="slope" />
		<tag k="place" v="locality" />
		<tag k="ssr:stedsnr" v="906454" />
	</node>
	<node lat="62.08685000100654" lon="11.059044443661865" id="-27435">
		<tag k="name" v="Brottet" />
		<tag k="natural" v="hill" />
		<tag k="place" v="locality" />
		<tag k="ssr:stedsnr" v="908312" />
	</node>
	<node lat="61.752047223139975" lon="11.091952785178522" id="-27436">
		<tag k="name" v="Kløftet" />
		<tag k="natural" v="valley" />
		<tag k="place" v="locality" />
		<tag k="ssr:stedsnr" v="908313" />
	</node>
	<node lat="61.993363890194104" lon="11.197549999069555" id="-27438">
		<tag k="name" v="Huegalenrisa" />
		<tag k="natural" v="valley" />
		<tag k="place" v="locality" />
		<tag k="ssr:stedsnr" v="908333" />
	</node>
	<node lat="62.04888333130191" lon="11.12942777557292" id="-27439">
		<tag k="name" v="Oksehullet" />
		<tag k="natural" v="valley" />
		<tag k="place" v="locality" />
		<tag k="ssr:stedsnr" v="908356" />
	</node>
	<node lat="62.12313333400127" lon="11.056630557012184" id="-27441">
		<tag k="name" v="Nysæterlia" />
		<tag k="natural" v="slope" />
		<tag k="place" v="locality" />
		<tag k="ssr:stedsnr" v="908361" />
	</node>
	<node lat="62.047066664726806" lon="11.432372224566741" id="-27442">
		<tag k="name" v="Stormyrbakken" />
		<tag k="natural" v="slope" />
		<tag k="place" v="locality" />
		<tag k="ssr:stedsnr" v="908362" />
	</node>
	<node lat="62.04781388693773" lon="11.490577768696125" id="-27444">
		<tag k="name" v="Hallan" />
		<tag k="natural" v="slope" />
		<tag k="place" v="locality" />
		<tag k="ssr:stedsnr" v="908464" />
	</node>
	<node lat="61.87338889150257" lon="10.99762499900206" id="-27449">
		<tag k="name" v="Veslekvolvet" />
		<tag k="natural" v="valley" />
		<tag k="place" v="locality" />
		<tag k="ssr:stedsnr" v="908820" />
	</node>
	<node lat="61.497175001014725" lon="11.580052774971675" id="-27451">
		<tag k="name" v="Vakkerbrenna" />
		<tag k="place" v="locality" />
		<tag k="ssr:stedsnr" v="918227" />
	</node>
	<node lat="61.71348055541247" lon="11.212472223355954" id="-27458">
		<tag k="alt_name" v="Kvernnesmoane" />
		<tag k="name" v="Kvernnesmoa" />
		<tag k="place" v="locality" />
		<tag k="ssr:stedsnr" v="920402" />
	</node>
	<node lat="61.53144166417385" lon="11.255225002527231" id="-27460">
		<tag k="fixme" v="consider natural=peak for the most distinct mountains in the district" />
		<tag k="name" v="Grasliberget" />
		<tag k="natural" v="hill" />
		<tag k="place" v="locality" />
		<tag k="ssr:stedsnr" v="920294" />
	</node>
	<node lat="61.863880556407935" lon="11.073825005624874" id="-27474">
		<tag k="fixme" v="consider natural=peak for the most distinct mountains in the district" />
		<tag k="name" v="Sauskarven" />
		<tag k="natural" v="hill" />
		<tag k="place" v="locality" />
		<tag k="ssr:stedsnr" v="921156" />
	</node>
	<node lat="61.84576111490269" lon="11.00026388729678" id="-27476">
		<tag k="fixme" v="consider natural=peak for the most distinct mountains in the district" />
		<tag k="name" v="Kloppåsen" />
		<tag k="natural" v="hill" />
		<tag k="place" v="locality" />
		<tag k="ssr:stedsnr" v="921168" />
	</node>
	<node lat="61.87939722245069" lon="11.486477783072239" id="-27483">
		<tag k="name" v="Sølenskardet" />
		<tag k="natural" v="valley" />
		<tag k="place" v="locality" />
		<tag k="ssr:stedsnr" v="921976" />
	</node>
	<node lat="61.77856111474775" lon="11.208438889966803" id="-27486">
		<tag k="alt_name" v="Skårdalshammeren" />
		<tag k="name" v="Skordalshammaren" />
		<tag k="natural" v="hill" />
		<tag k="place" v="locality" />
		<tag k="ssr:stedsnr" v="930308" />
	</node>
	<node lat="61.78478333512512" lon="11.133702776388718" id="-27491">
		<tag k="name" v="Tobekkdalen" />
		<tag k="natural" v="valley" />
		<tag k="place" v="locality" />
		<tag k="ssr:stedsnr" v="936405" />
	</node>
	<node lat="61.47269444701663" lon="11.62438333400991" id="-27492">
		<tag k="alt_name" v="Skjærmarken" />
		<tag k="name" v="Skjærmarka" />
		<tag k="natural" v="wood" />
		<tag k="ssr:stedsnr" v="936601" />
	</node>
	<node lat="61.87367221974541" lon="11.071711118091184" id="-27493">
		<tag k="fixme" v="consider natural=peak for the most distinct mountains in the district" />
		<tag k="name" v="Slettberget" />
		<tag k="natural" v="hill" />
		<tag k="place" v="locality" />
		<tag k="ssr:stedsnr" v="937506" />
	</node>
	<node lat="62.141527780974755" lon="10.956094454142754" id="-27494">
		<tag k="name" v="Væråberget" />
		<tag k="natural" v="hill" />
		<tag k="place" v="locality" />
		<tag k="ssr:stedsnr" v="962464" />
	</node>
	<node lat="61.69319721986187" lon="11.126925002699602" id="-27502">
		<tag k="name" v="Blæsterbutomta" />
		<tag k="place" v="locality" />
		<tag k="ssr:stedsnr" v="968093" />
	</node>
	<node lat="61.696105558708524" lon="11.257786105565152" id="-27506">
		<tag k="name" v="Haukskjæret" />
		<tag k="natural" v="hill" />
		<tag k="place" v="locality" />
		<tag k="ssr:stedsnr" v="968704" />
	</node>
	<node lat="61.78919444246361" lon="11.289391666615371" id="-27509">
		<tag k="name" v="Stenfjellia" />
		<tag k="natural" v="slope" />
		<tag k="place" v="locality" />
		<tag k="ssr:stedsnr" v="968904" />
	</node>
	<node lat="61.444911112485954" lon="11.383013894397777" id="-27515">
		<tag k="name" v="Holmsliberget" />
		<tag k="natural" v="hill" />
		<tag k="place" v="locality" />
		<tag k="ssr:stedsnr" v="8132" />
	</node>
	<node lat="61.4936361081057" lon="11.479641661661415" id="-27516">
		<tag k="alt_name" v="Vesle Byringen" />
		<tag k="fixme" v="consider natural=peak for the most distinct mountains in the district" />
		<tag k="name" v="Veslbyringen" />
		<tag k="natural" v="hill" />
		<tag k="place" v="locality" />
		<tag k="ssr:stedsnr" v="8217" />
	</node>
	<node lat="62.10692499875133" lon="11.106669438224092" id="-27521">
		<tag k="fixme" v="consider natural=peak for the most distinct mountains in the district" />
		<tag k="name" v="Skarven" />
		<tag k="natural" v="hill" />
		<tag k="place" v="locality" />
		<tag k="ssr:stedsnr" v="10073" />
	</node>
	<node lat="61.82412499651145" lon="10.96936389235099" id="-27523">
		<tag k="fixme" v="consider natural=peak for the most distinct mountains in the district" />
		<tag k="name" v="Kalberget" />
		<tag k="natural" v="hill" />
		<tag k="place" v="locality" />
		<tag k="ssr:stedsnr" v="10177" />
	</node>
	<node lat="61.67675000300758" lon="11.283249997498398" id="-27525">
		<tag k="alt_name" v="Kvitskjeret" />
		<tag k="name" v="Kvitskjæret" />
		<tag k="natural" v="cliff" />
		<tag k="ssr:stedsnr" v="10390" />
	</node>
	<node lat="62.005924997823065" lon="11.25140833399016" id="-27540">
		<tag k="name" v="Hønnvarshøgda" />
		<tag k="natural" v="hill" />
		<tag k="place" v="locality" />
		<tag k="ssr:stedsnr" v="10423" />
	</node>
	<node lat="61.59350555713367" lon="11.171130560433665" id="-27541">
		<tag k="alt_name" v="Reset, øvre" />
		<tag k="fixme" v="consider natural=peak for the most distinct mountains in the district" />
		<tag k="name" v="Østre Reset" />
		<tag k="natural" v="hill" />
		<tag k="place" v="locality" />
		<tag k="ssr:stedsnr" v="10427" />
	</node>
	<node lat="61.925597223171174" lon="11.523066666989422" id="-27547">
		<tag k="name" v="Vesleskardet" />
		<tag k="natural" v="valley" />
		<tag k="place" v="locality" />
		<tag k="ssr:stedsnr" v="11090" />
	</node>
	<node lat="62.15636944774687" lon="11.166069440345755" id="-27558">
		<tag k="name" v="Nordre Finnroan" />
		<tag k="natural" v="slope" />
		<tag k="place" v="locality" />
		<tag k="ssr:stedsnr" v="11166" />
	</node>
	<node lat="62.15635555166579" lon="11.12156665757782" id="-27559">
		<tag k="fixme" v="consider natural=peak for the most distinct mountains in the district" />
		<tag k="name" v="Vakkerfjellet" />
		<tag k="natural" v="hill" />
		<tag k="place" v="locality" />
		<tag k="ssr:stedsnr" v="11167" />
	</node>
	<node lat="61.937455555321094" lon="11.05376110796991" id="-27567">
		<tag k="name" v="Husdalen" />
		<tag k="natural" v="valley" />
		<tag k="place" v="locality" />
		<tag k="ssr:stedsnr" v="26068" />
	</node>
	<node lat="61.89120277665979" lon="11.112050000003824" id="-27568">
		<tag k="name" v="Merkingdalen" />
		<tag k="natural" v="valley" />
		<tag k="place" v="locality" />
		<tag k="ssr:stedsnr" v="26130" />
	</node>
	<node lat="61.781783330333276" lon="11.134713896744572" id="-27571">
		<tag k="name" v="Trebekkdalen" />
		<tag k="natural" v="valley" />
		<tag k="place" v="locality" />
		<tag k="ssr:stedsnr" v="26438" />
	</node>
	<node lat="61.87468888908949" lon="11.060183341263311" id="-27573">
		<tag k="name" v="Tømmerdalen" />
		<tag k="natural" v="valley" />
		<tag k="place" v="locality" />
		<tag k="ssr:stedsnr" v="26465" />
	</node>
	<node lat="62.13696944876161" lon="11.060080563683286" id="-27578">
		<tag k="fixme" v="consider natural=peak for the most distinct mountains in the district" />
		<tag k="name" v="Lauvbekkmåna" />
		<tag k="natural" v="hill" />
		<tag k="place" v="locality" />
		<tag k="ssr:stedsnr" v="53235" />
	</node>
	<node lat="61.72114721787498" lon="11.151252771587274" id="-27580">
		<tag k="name" v="Åkerådalen" />
		<tag k="natural" v="valley" />
		<tag k="place" v="locality" />
		<tag k="ssr:stedsnr" v="56161" />
	</node>
	<node lat="61.63962778214893" lon="11.296777779449858" id="-27584">
		<tag k="name" v="Styggrøsta" />
		<tag k="natural" v="hill" />
		<tag k="place" v="locality" />
		<tag k="ssr:stedsnr" v="56399" />
	</node>
	<node lat="61.62602777856344" lon="11.23249721530831" id="-27585">
		<tag k="name" v="Veslskaret" />
		<tag k="natural" v="valley" />
		<tag k="place" v="locality" />
		<tag k="ssr:stedsnr" v="56400" />
	</node>
	<node lat="61.47674166851494" lon="11.461227786665471" id="-27596">
		<tag k="name" v="Storbekkdalen" />
		<tag k="natural" v="valley" />
		<tag k="place" v="locality" />
		<tag k="ssr:stedsnr" v="58347" />
	</node>
	<node lat="62.04715555260093" lon="11.163333336696308" id="-27597">
		<tag k="name" v="Nordre Langjotdalen" />
		<tag k="natural" v="valley" />
		<tag k="place" v="locality" />
		<tag k="ssr:stedsnr" v="58350" />
	</node>
	<node lat="62.12252777400762" lon="11.417369442651633" id="-27604">
		<tag k="name" v="Spekehallan" />
		<tag k="natural" v="slope" />
		<tag k="place" v="locality" />
		<tag k="ssr:stedsnr" v="58444" />
	</node>
	<node lat="62.07173610915035" lon="11.553911118989983" id="-27608">
		<tag k="name" v="Krokhaugen" />
		<tag k="natural" v="hill" />
		<tag k="place" v="locality" />
		<tag k="ssr:stedsnr" v="58459" />
	</node>
	<node lat="61.701441665804786" lon="11.244536115496906" id="-27612">
		<tag k="name" v="Feierbudalen" />
		<tag k="natural" v="valley" />
		<tag k="place" v="locality" />
		<tag k="ssr:stedsnr" v="58684" />
	</node>
	<node lat="61.87136944031098" lon="10.920524992444053" id="-27619">
		<tag k="name" v="Grasbekklia" />
		<tag k="natural" v="slope" />
		<tag k="place" v="locality" />
		<tag k="ssr:stedsnr" v="58714" />
	</node>
	<node lat="61.95551944428768" lon="11.062988882915208" id="-27620">
		<tag k="name" v="Søndre Vestlia" />
		<tag k="natural" v="slope" />
		<tag k="place" v="locality" />
		<tag k="ssr:stedsnr" v="58861" />
	</node>
	<node lat="61.46401111326543" lon="11.369775001471913" id="-27624">
		<tag k="fixme" v="consider natural=peak for the most distinct mountains in the district" />
		<tag k="name" v="Fuglåsen" />
		<tag k="natural" v="hill" />
		<tag k="place" v="locality" />
		<tag k="ssr:stedsnr" v="69117" />
	</node>
	<node lat="61.51852500231258" lon="11.267130551800633" id="-27631">
		<tag k="alt_name" v="Målbekkampen" />
		<tag k="fixme" v="consider natural=peak for the most distinct mountains in the district" />
		<tag k="name" v="Målbekkhammaren" />
		<tag k="natural" v="hill" />
		<tag k="place" v="locality" />
		<tag k="ssr:stedsnr" v="70245" />
	</node>
	<node lat="61.64094166437513" lon="11.649716671817641" id="-27633">
		<tag k="alt_name" v="Osdalssjøhøgda, vestre" />
		<tag k="name" v="Vestre Osdalssjøhøgda" />
		<tag k="natural" v="hill" />
		<tag k="place" v="locality" />
		<tag k="ssr:stedsnr" v="71368" />
	</node>
	<node lat="62.02628333223118" lon="11.110341657534319" id="-27641">
		<tag k="fixme" v="consider natural=peak for the most distinct mountains in the district" />
		<tag k="name" v="Brennkampen" />
		<tag k="natural" v="hill" />
		<tag k="place" v="locality" />
		<tag k="ssr:stedsnr" v="71047" />
	</node>
	<node lat="61.942608332608714" lon="10.788691658875319" id="-27653">
		<tag k="alt_name" v="Nonsvorda" />
		<tag k="fixme" v="consider natural=peak for the most distinct mountains in the district" />
		<tag k="name" v="Monsvola" />
		<tag k="natural" v="hill" />
		<tag k="place" v="locality" />
		<tag k="ssr:stedsnr" v="71356" />
	</node>
	<node lat="61.651630552174026" lon="11.5693138850146" id="-27659">
		<tag k="alt_name" v="Rødkollen" />
		<tag k="fixme" v="consider natural=peak for the most distinct mountains in the district" />
		<tag k="name" v="Raudkollen" />
		<tag k="natural" v="hill" />
		<tag k="place" v="locality" />
		<tag k="ssr:stedsnr" v="71399" />
	</node>
	<node lat="61.917433330351145" lon="10.912777769843776" id="-27660">
		<tag k="fixme" v="consider natural=peak for the most distinct mountains in the district" />
		<tag k="name" v="Rååsen" />
		<tag k="natural" v="hill" />
		<tag k="place" v="locality" />
		<tag k="ssr:stedsnr" v="71400" />
	</node>
	<node lat="61.875430559563206" lon="10.96854999391863" id="-27667">
		<tag k="alt_name" v="Bjønnåsen" />
		<tag k="fixme" v="consider natural=peak for the most distinct mountains in the district" />
		<tag k="name" v="Bjørnåsen" />
		<tag k="natural" v="hill" />
		<tag k="place" v="locality" />
		<tag k="ssr:stedsnr" v="72129" />
	</node>
	<node lat="61.87073889089042" lon="10.997424994658726" id="-27668">
		<tag k="fixme" v="consider natural=peak for the most distinct mountains in the district" />
		<tag k="name" v="Neversåsen" />
		<tag k="natural" v="hill" />
		<tag k="place" v="locality" />
		<tag k="ssr:stedsnr" v="72140" />
	</node>
	<node lat="62.14847499824132" lon="11.147599994242785" id="-27669">
		<tag k="name" v="Firkanthøgda" />
		<tag k="natural" v="hill" />
		<tag k="place" v="locality" />
		<tag k="ssr:stedsnr" v="72150" />
	</node>
	<node lat="61.9683222195898" lon="11.673197213769662" id="-27672">
		<tag k="fixme" v="consider natural=peak for the most distinct mountains in the district" />
		<tag k="name" v="Bårn" />
		<tag k="natural" v="hill" />
		<tag k="place" v="locality" />
		<tag k="ssr:stedsnr" v="72097" />
	</node>
	<node lat="61.98713888465489" lon="11.172261113500944" id="-27677">
		<tag k="fixme" v="consider natural=peak for the most distinct mountains in the district" />
		<tag k="name" v="Vollsbrenna" />
		<tag k="natural" v="hill" />
		<tag k="place" v="locality" />
		<tag k="ssr:stedsnr" v="80294" />
	</node>
	<node lat="61.80927499932317" lon="10.907055556414234" id="-27682">
		<tag k="name" v="Kivfjellsalen" />
		<tag k="natural" v="valley" />
		<tag k="place" v="locality" />
		<tag k="ssr:stedsnr" v="86568" />
	</node>
	<node lat="61.988280558172235" lon="11.141266665462426" id="-27689">
		<tag k="name" v="Kvannmyrmoene" />
		<tag k="place" v="locality" />
		<tag k="ssr:stedsnr" v="117292" />
	</node>
	<node lat="61.52546944872674" lon="11.386552773152317" id="-27703">
		<tag k="name" v="Knapplia" />
		<tag k="natural" v="slope" />
		<tag k="place" v="locality" />
		<tag k="ssr:stedsnr" v="118067" />
	</node>
	<node lat="61.493194445033005" lon="11.441866658380729" id="-27704">
		<tag k="name" v="Rognåsen" />
		<tag k="natural" v="hill" />
		<tag k="place" v="locality" />
		<tag k="ssr:stedsnr" v="118297" />
	</node>
	<node lat="62.11825555484865" lon="11.422694437525108" id="-27706">
		<tag k="name" v="Markgraften" />
		<tag k="place" v="locality" />
		<tag k="ssr:stedsnr" v="119438" />
	</node>
	<node lat="62.06625555172167" lon="11.032708335693695" id="-27711">
		<tag k="name" v="Vestlia" />
		<tag k="natural" v="slope" />
		<tag k="place" v="locality" />
		<tag k="ssr:stedsnr" v="119287" />
	</node>
	<node lat="61.81175000418824" lon="10.772247225395642" id="-27713">
		<tag k="fixme" v="consider natural=peak for the most distinct mountains in the district" />
		<tag k="name" v="Baråsen" />
		<tag k="natural" v="hill" />
		<tag k="place" v="locality" />
		<tag k="ssr:stedsnr" v="119299" />
	</node>
	<node lat="61.76793611524522" lon="11.001227782862307" id="-27723">
		<tag k="name" v="Brennåsknappen" />
		<tag k="natural" v="hill" />
		<tag k="place" v="locality" />
		<tag k="ssr:stedsnr" v="119659" />
	</node>
	<node lat="61.770211111633685" lon="10.96650832557511" id="-27724">
		<tag k="name" v="Tangen" />
		<tag k="natural" v="hill" />
		<tag k="place" v="locality" />
		<tag k="ssr:stedsnr" v="119661" />
	</node>
	<node lat="61.87662778197135" lon="11.003225009703787" id="-27726">
		<tag k="name" v="Rullbekklia" />
		<tag k="natural" v="slope" />
		<tag k="place" v="locality" />
		<tag k="ssr:stedsnr" v="119800" />
	</node>
	<node lat="61.62624166851152" lon="11.524255563811689" id="-27736">
		<tag k="name" v="Ryen" />
		<tag k="natural" v="valley" />
		<tag k="place" v="locality" />
		<tag k="ssr:stedsnr" v="131300" />
	</node>
	<node lat="62.04700277978385" lon="11.23183610750469" id="-27739">
		<tag k="fixme" v="consider natural=peak for the most distinct mountains in the district" />
		<tag k="name" v="Gråfjellet" />
		<tag k="natural" v="hill" />
		<tag k="place" v="locality" />
		<tag k="ssr:stedsnr" v="131399" />
	</node>
	<node lat="61.510883336067174" lon="11.459322229651953" id="-27742">
		<tag k="fixme" v="consider natural=peak for the most distinct mountains in the district" />
		<tag k="name" v="Gravdalsåsen" />
		<tag k="natural" v="hill" />
		<tag k="place" v="locality" />
		<tag k="ssr:stedsnr" v="131250" />
	</node>
	<node lat="61.691524997157735" lon="11.490386114222858" id="-27744">
		<tag k="alt_name" v="Kvitåsen, vestre" />
		<tag k="fixme" v="consider natural=peak for the most distinct mountains in the district" />
		<tag k="name" v="Vestre Kvitåsen" />
		<tag k="natural" v="hill" />
		<tag k="place" v="locality" />
		<tag k="ssr:stedsnr" v="131339" />
	</node>
	<node lat="61.662588886051985" lon="11.156800000111241" id="-27749">
		<tag k="name" v="Fiskviklia" />
		<tag k="natural" v="slope" />
		<tag k="place" v="locality" />
		<tag k="ssr:stedsnr" v="131446" />
	</node>
	<node lat="61.6636138885666" lon="11.266125003690442" id="-27750">
		<tag k="fixme" v="consider natural=peak for the most distinct mountains in the district" />
		<tag k="name" v="Bekkedalsåsen" />
		<tag k="natural" v="hill" />
		<tag k="place" v="locality" />
		<tag k="ssr:stedsnr" v="131449" />
	</node>
	<node lat="61.9140666673513" lon="10.680255557422102" id="-27752">
		<tag k="name" v="Tegningsdalen" />
		<tag k="natural" v="valley" />
		<tag k="old_name" v="Teiningsdalen" />
		<tag k="place" v="locality" />
		<tag k="ssr:stedsnr" v="131463" />
	</node>
	<node lat="61.889088892421825" lon="10.550872216646281" id="-27753">
		<tag k="name" v="Gluggen" />
		<tag k="natural" v="valley" />
		<tag k="place" v="locality" />
		<tag k="ssr:stedsnr" v="131464" />
	</node>
	<node lat="61.80035277701003" lon="11.17482499692875" id="-27761">
		<tag k="alt_name" v="Lausåkletten, nørdre;Nordre Løsåkletten" />
		<tag k="fixme" v="consider natural=peak for the most distinct mountains in the district" />
		<tag k="name" v="Nørdre Lausåkletten" />
		<tag k="natural" v="hill" />
		<tag k="place" v="locality" />
		<tag k="ssr:stedsnr" v="132032" />
	</node>
	<node lat="61.758305551267824" lon="11.022380553551999" id="-27775">
		<tag k="fixme" v="consider natural=peak for the most distinct mountains in the district" />
		<tag k="name" v="Raudfjellet" />
		<tag k="natural" v="hill" />
		<tag k="place" v="locality" />
		<tag k="ssr:stedsnr" v="132194" />
	</node>
	<node lat="61.911627773676145" lon="11.023186118581584" id="-27780">
		<tag k="fixme" v="consider natural=peak for the most distinct mountains in the district" />
		<tag k="name" v="Kampan" />
		<tag k="natural" v="hill" />
		<tag k="place" v="locality" />
		<tag k="ssr:stedsnr" v="132337" />
	</node>
	<node lat="61.9126250040933" lon="11.33186943956005" id="-27787">
		<tag k="name" v="Storgjota" />
		<tag k="natural" v="valley" />
		<tag k="place" v="locality" />
		<tag k="ssr:stedsnr" v="141317" />
	</node>
	<node lat="61.76035278087283" lon="11.166466673167307" id="-27790">
		<tag k="name" v="Brattegga" />
		<tag k="natural" v="ridge" />
		<tag k="place" v="locality" />
		<tag k="ssr:stedsnr" v="147095" />
	</node>
	<node lat="61.93441389148501" lon="11.063922224989074" id="-27794">
		<tag k="name" v="Trongdalen" />
		<tag k="natural" v="valley" />
		<tag k="place" v="locality" />
		<tag k="ssr:stedsnr" v="147055" />
	</node>
	<node lat="61.79275555828804" lon="11.129513888740426" id="-27798">
		<tag k="name" v="Skibakkegga" />
		<tag k="natural" v="ridge" />
		<tag k="place" v="locality" />
		<tag k="ssr:stedsnr" v="147462" />
	</node>
	<node lat="61.486424996700876" lon="11.315688897138443" id="-27805">
		<tag k="name" v="Mørdalen" />
		<tag k="natural" v="valley" />
		<tag k="place" v="locality" />
		<tag k="ssr:stedsnr" v="177286" />
	</node>
	<node lat="61.489061114570696" lon="11.316283326719422" id="-27806">
		<tag k="name" v="Oksbakka" />
		<tag k="natural" v="slope" />
		<tag k="place" v="locality" />
		<tag k="ssr:stedsnr" v="177287" />
	</node>
	<node lat="61.76026666598422" lon="11.126402776645618" id="-27808">
		<tag k="name" v="Lavskrikmoen" />
		<tag k="place" v="locality" />
		<tag k="ssr:stedsnr" v="177247" />
	</node>
	<node lat="61.71355278203288" lon="11.254702786578726" id="-27811">
		<tag k="name" v="Misterdalen" />
		<tag k="natural" v="valley" />
		<tag k="place" v="locality" />
		<tag k="ssr:stedsnr" v="177901" />
	</node>
	<node lat="61.58253055406263" lon="11.176861114383199" id="-27812">
		<tag k="fixme" v="consider natural=peak for the most distinct mountains in the district" />
		<tag k="name" v="Burutangen" />
		<tag k="natural" v="hill" />
		<tag k="place" v="locality" />
		<tag k="ssr:stedsnr" v="177829" />
	</node>
	<node lat="61.58040278138245" lon="11.198480554675355" id="-27813">
		<tag k="name" v="Buruhammeren" />
		<tag k="natural" v="hill" />
		<tag k="place" v="locality" />
		<tag k="ssr:stedsnr" v="177930" />
	</node>
	<node lat="61.941494446425075" lon="11.155674991344963" id="-27814">
		<tag k="name" v="Rådelerabben" />
		<tag k="natural" v="hill" />
		<tag k="place" v="locality" />
		<tag k="ssr:stedsnr" v="178187" />
	</node>
	<node lat="61.634280555489" lon="11.171699998049693" id="-27819">
		<tag k="name" v="Litorvet" />
		<tag k="place" v="locality" />
		<tag k="ssr:stedsnr" v="178871" />
	</node>
	<node lat="61.682391668710075" lon="11.150997216688301" id="-27820">
		<tag k="name" v="Saubekkrøsta" />
		<tag k="natural" v="slope" />
		<tag k="place" v="locality" />
		<tag k="ssr:stedsnr" v="179075" />
	</node>
	<node lat="61.53578333424661" lon="11.321611103275101" id="-27822">
		<tag k="name" v="Holmsjølia" />
		<tag k="natural" v="slope" />
		<tag k="place" v="locality" />
		<tag k="ssr:stedsnr" v="179080" />
	</node>
	<node lat="61.68704166741852" lon="11.089022220877185" id="-27824">
		<tag k="name" v="Glenen" />
		<tag k="place" v="locality" />
		<tag k="ssr:stedsnr" v="179095" />
	</node>
	<node lat="61.96212222262722" lon="11.16694721369399" id="-27829">
		<tag k="name" v="Brennvola" />
		<tag k="natural" v="hill" />
		<tag k="place" v="locality" />
		<tag k="ssr:stedsnr" v="179482" />
	</node>
	<node lat="62.04438888654572" lon="11.062683329583653" id="-27840">
		<tag k="name" v="Sengefortua" />
		<tag k="place" v="locality" />
		<tag k="ssr:stedsnr" v="179843" />
	</node>
	<node lat="61.850452778595944" lon="11.432658334213244" id="-27850">
		<tag k="name" v="Smørholet" />
		<tag k="natural" v="valley" />
		<tag k="place" v="locality" />
		<tag k="ssr:stedsnr" v="192034" />
	</node>
	<node lat="62.20011389002935" lon="11.217424990763568" id="-27856">
		<tag k="name" v="Brennhøgda" />
		<tag k="natural" v="hill" />
		<tag k="place" v="locality" />
		<tag k="ssr:stedsnr" v="192261" />
	</node>
	<node lat="61.58193055260523" lon="11.497527774981132" id="-27859">
		<tag k="name" v="Grøsjøhøgda" />
		<tag k="natural" v="hill" />
		<tag k="place" v="locality" />
		<tag k="ssr:stedsnr" v="192363" />
	</node>
	<node lat="61.701277775580174" lon="11.538863882620165" id="-27861">
		<tag k="alt_name" v="Kvitåsen, østre" />
		<tag k="fixme" v="consider natural=peak for the most distinct mountains in the district" />
		<tag k="name" v="Østre Kvitåsen" />
		<tag k="natural" v="hill" />
		<tag k="place" v="locality" />
		<tag k="ssr:stedsnr" v="192386" />
	</node>
	<node lat="61.61895555399646" lon="11.497397229060176" id="-27862">
		<tag k="fixme" v="consider natural=peak for the most distinct mountains in the district" />
		<tag k="name" v="Nubben" />
		<tag k="natural" v="hill" />
		<tag k="place" v="locality" />
		<tag k="ssr:stedsnr" v="192338" />
	</node>
	<node lat="61.69500277991213" lon="11.26672221508651" id="-27864">
		<tag k="alt_name" v="Skogberghammeren" />
		<tag k="fixme" v="consider natural=peak for the most distinct mountains in the district" />
		<tag k="name" v="Skogberghammaren" />
		<tag k="natural" v="hill" />
		<tag k="place" v="locality" />
		<tag k="ssr:stedsnr" v="192402" />
	</node>
	<node lat="61.6860805517491" lon="11.256575000009788" id="-27866">
		<tag k="name" v="Sagskardet" />
		<tag k="natural" v="valley" />
		<tag k="place" v="locality" />
		<tag k="ssr:stedsnr" v="192409" />
	</node>
	<node lat="62.02617500282517" lon="11.331133328088912" id="-27872">
		<tag k="name" v="Hovardshøgda" />
		<tag k="natural" v="hill" />
		<tag k="place" v="locality" />
		<tag k="ssr:stedsnr" v="192451" />
	</node>
	<node lat="62.00415555351651" lon="11.421111110187429" id="-27873">
		<tag k="name" v="Tannberget" />
		<tag k="natural" v="hill" />
		<tag k="place" v="locality" />
		<tag k="ssr:stedsnr" v="192457" />
	</node>
	<node lat="61.58963055324397" lon="11.267216657082276" id="-27875">
		<tag k="name" v="Valsjøberget" />
		<tag k="natural" v="hill" />
		<tag k="place" v="locality" />
		<tag k="ssr:stedsnr" v="192467" />
	</node>
	<node lat="61.655050000336736" lon="11.347313897568412" id="-27881">
		<tag k="name" v="Stokkbekkdalen" />
		<tag k="natural" v="valley" />
		<tag k="place" v="locality" />
		<tag k="ssr:stedsnr" v="192491" />
	</node>
	<node lat="61.91591388800181" lon="10.529225003246173" id="-27884">
		<tag k="name" v="Hattfløyet" />
		<tag k="place" v="locality" />
		<tag k="ssr:stedsnr" v="192511" />
	</node>
	<node lat="61.77181389177839" lon="10.929827786261994" id="-27895">
		<tag k="alt_name" v="Hanestadvorda;Hanestadåsen;Hanestadfjellet" />
		<tag k="fixme" v="consider natural=peak for the most distinct mountains in the district" />
		<tag k="name" v="Hanestadvola" />
		<tag k="natural" v="hill" />
		<tag k="place" v="locality" />
		<tag k="ssr:stedsnr" v="193195" />
	</node>
	<node lat="61.917008328980245" lon="11.43619721919226" id="-27904">
		<tag k="alt_name" v="Misterdalen" />
		<tag k="name" v="Mistdalen" />
		<tag k="natural" v="valley" />
		<tag k="place" v="locality" />
		<tag k="ssr:stedsnr" v="193225" />
	</node>
	<node lat="61.88405277453293" lon="11.517022225974966" id="-27910">
		<tag k="alt_name" v="Sølen, midtre" />
		<tag k="fixme" v="consider natural=peak for the most distinct mountains in the district" />
		<tag k="name" v="Midtre Sølen" />
		<tag k="natural" v="hill" />
		<tag k="place" v="locality" />
		<tag k="ssr:stedsnr" v="193980" />
	</node>
	<node lat="61.94316388853" lon="11.22289721621375" id="-27912">
		<tag k="name" v="Djupdalen" />
		<tag k="natural" v="valley" />
		<tag k="place" v="locality" />
		<tag k="ssr:stedsnr" v="202277" />
	</node>
</osm>
