<?xml version="1.0" encoding="UTF-8"?>
<osm generator="osmapis" version="0.6">
	<node id="-733184" lat="63.3184166635" lon="10.0299666748">
		<tag k="name" v="Hallhuttu" />
		<tag k="natural" v="valley" />
		<tag k="place" v="locality" />
		<tag k="ssr:stedsnr" v="569033" />
	</node>
	<node id="-733183" lat="63.3140944455" lon="10.1447694487">
		<tag k="fixme" v="consider natural=peak for the most distinct mountains in the district" />
		<tag k="name" v="Kammen" />
		<tag k="natural" v="hill" />
		<tag k="place" v="locality" />
		<tag k="ssr:stedsnr" v="569029" />
	</node>
	<node id="-733182" lat="63.3084194434" lon="10.146280562">
		<tag k="fixme" v="consider natural=peak for the most distinct mountains in the district" />
		<tag k="name" v="Espåsen" />
		<tag k="natural" v="hill" />
		<tag k="place" v="locality" />
		<tag k="ssr:stedsnr" v="569027" />
	</node>
	<node id="-733166" lat="63.1758388921" lon="9.91883611024">
		<tag k="fixme" v="consider natural=peak for the most distinct mountains in the district" />
		<tag k="name" v="Ølshøgda" />
		<tag k="natural" v="hill" />
		<tag k="place" v="locality" />
		<tag k="ssr:stedsnr" v="557136" />
	</node>
	<node id="-733134" lat="63.237274996" lon="10.0874305494">
		<tag k="fixme" v="consider natural=peak for the most distinct mountains in the district" />
		<tag k="name" v="Brannåsen" />
		<tag k="natural" v="hill" />
		<tag k="place" v="locality" />
		<tag k="ssr:stedsnr" v="388393" />
	</node>
	<node id="-733129" lat="63.295719443" lon="9.93270555272">
		<tag k="name" v="Baklia" />
		<tag k="natural" v="slope" />
		<tag k="place" v="locality" />
		<tag k="ssr:stedsnr" v="388130" />
	</node>
	<node id="-733128" lat="63.2905555596" lon="9.92934444456">
		<tag k="name" v="Bjønnadalen" />
		<tag k="natural" v="valley" />
		<tag k="place" v="locality" />
		<tag k="ssr:stedsnr" v="388129" />
	</node>
	<node id="-733127" lat="63.2845916671" lon="9.94563334259">
		<tag k="name" v="Kleven" />
		<tag k="natural" v="slope" />
		<tag k="place" v="locality" />
		<tag k="ssr:stedsnr" v="388125" />
	</node>
	<node id="-733126" lat="63.2889944444" lon="9.92607500742">
		<tag k="name" v="Kamman" />
		<tag k="natural" v="hill" />
		<tag k="place" v="locality" />
		<tag k="ssr:stedsnr" v="388116" />
	</node>
	<node id="-733125" lat="63.3308666625" lon="9.95630277869">
		<tag k="name" v="Grandalen" />
		<tag k="natural" v="valley" />
		<tag k="place" v="locality" />
		<tag k="ssr:stedsnr" v="388181" />
	</node>
	<node id="-733120" lat="63.2257472184" lon="10.1191500062">
		<tag k="name" v="Gilhaugen" />
		<tag k="natural" v="hill" />
		<tag k="place" v="locality" />
		<tag k="ssr:stedsnr" v="387493" />
	</node>
	<node id="-733117" lat="63.3182611111" lon="10.0199861195">
		<tag k="name" v="Tørreshaugen" />
		<tag k="natural" v="hill" />
		<tag k="place" v="locality" />
		<tag k="ssr:stedsnr" v="387042" />
	</node>
	<node id="-733113" lat="63.2571472236" lon="9.94262499685">
		<tag k="fixme" v="consider natural=peak for the most distinct mountains in the district" />
		<tag k="name" v="Kastbrennan" />
		<tag k="natural" v="hill" />
		<tag k="place" v="locality" />
		<tag k="ssr:stedsnr" v="387281" />
	</node>
	<node id="-733096" lat="63.2390638893" lon="10.1078277719">
		<tag k="fixme" v="consider natural=peak for the most distinct mountains in the district" />
		<tag k="name" v="Hosetkammen" />
		<tag k="natural" v="hill" />
		<tag k="old_name" v="Hasetkammen" />
		<tag k="place" v="locality" />
		<tag k="ssr:stedsnr" v="376270" />
	</node>
	<node id="-733094" lat="63.327644445" lon="10.0377277793">
		<tag k="alt_name" v="Laustakken" />
		<tag k="name" v="Lauvstakken" />
		<tag k="natural" v="hill" />
		<tag k="place" v="locality" />
		<tag k="ssr:stedsnr" v="376261" />
	</node>
	<node id="-733081" lat="63.1801444441" lon="10.0128388896">
		<tag k="alt_name" v="Kringluthaugen" />
		<tag k="name" v="Kringlåthaugen" />
		<tag k="natural" v="hill" />
		<tag k="old_name" v="Kringlathaugen" />
		<tag k="place" v="locality" />
		<tag k="ssr:stedsnr" v="376158" />
	</node>
	<node id="-733071" lat="63.3431749979" lon="9.98863054744">
		<tag k="name" v="Råket" />
		<tag k="natural" v="slope" />
		<tag k="place" v="locality" />
		<tag k="ssr:stedsnr" v="328175" />
	</node>
	<node id="-733066" lat="63.2422694438" lon="10.0912027811">
		<tag k="name" v="Velien" />
		<tag k="natural" v="slope" />
		<tag k="place" v="locality" />
		<tag k="ssr:stedsnr" v="327400" />
	</node>
	<node id="-733063" lat="63.2456805534" lon="9.93058889097">
		<tag k="fixme" v="consider natural=peak for the most distinct mountains in the district" />
		<tag k="name" v="Vinåsen" />
		<tag k="natural" v="hill" />
		<tag k="place" v="locality" />
		<tag k="ssr:stedsnr" v="327277" />
	</node>
	<node id="-733062" lat="63.2414527739" lon="9.92963055972">
		<tag k="name" v="Kvennhaugen" />
		<tag k="natural" v="hill" />
		<tag k="place" v="locality" />
		<tag k="ssr:stedsnr" v="327274" />
	</node>
	<node id="-733059" lat="63.2536861099" lon="9.91291944467">
		<tag k="name" v="Gubbhaugen" />
		<tag k="natural" v="hill" />
		<tag k="place" v="locality" />
		<tag k="ssr:stedsnr" v="327260" />
	</node>
	<node id="-733058" lat="63.2707416689" lon="9.92208888419">
		<tag k="fixme" v="consider natural=peak for the most distinct mountains in the district" />
		<tag k="name" v="Brentåsen" />
		<tag k="natural" v="hill" />
		<tag k="place" v="locality" />
		<tag k="ssr:stedsnr" v="327239" />
	</node>
	<node id="-733057" lat="63.2647833946" lon="9.91108050063">
		<tag k="name" v="Grønlia" />
		<tag k="natural" v="slope" />
		<tag k="place" v="locality" />
		<tag k="ssr:stedsnr" v="327237" />
	</node>
	<node id="-733054" lat="63.2569888876" lon="10.0658249915">
		<tag k="fixme" v="consider natural=peak for the most distinct mountains in the district" />
		<tag k="name" v="Grova" />
		<tag k="natural" v="hill" />
		<tag k="place" v="locality" />
		<tag k="ssr:stedsnr" v="327325" />
	</node>
	<node id="-733053" lat="63.338236109" lon="9.96883889447">
		<tag k="fixme" v="consider natural=peak for the most distinct mountains in the district" />
		<tag k="name" v="Namnlausåsen" />
		<tag k="natural" v="hill" />
		<tag k="place" v="locality" />
		<tag k="ssr:stedsnr" v="327192" />
	</node>
	<node id="-733046" lat="63.249497221" lon="10.0776361181">
		<tag k="name" v="Storkleva" />
		<tag k="natural" v="hill" />
		<tag k="place" v="locality" />
		<tag k="ssr:stedsnr" v="326515" />
	</node>
	<node id="-733041" lat="63.2662666647" lon="9.95107499347">
		<tag k="fixme" v="consider natural=peak for the most distinct mountains in the district" />
		<tag k="name" v="Bjørkåsen" />
		<tag k="natural" v="hill" />
		<tag k="place" v="locality" />
		<tag k="ssr:stedsnr" v="326246" />
	</node>
	<node id="-733037" lat="63.2814361073" lon="9.97445278616">
		<tag k="name" v="Råsen" />
		<tag k="place" v="locality" />
		<tag k="ssr:stedsnr" v="326152" />
	</node>
	<node id="-733030" lat="63.3408472232" lon="9.97797221653">
		<tag k="alt_name" v="Hogsåsen" />
		<tag k="fixme" v="consider natural=peak for the most distinct mountains in the district" />
		<tag k="name" v="Hogståsen" />
		<tag k="natural" v="hill" />
		<tag k="place" v="locality" />
		<tag k="ssr:stedsnr" v="316544" />
	</node>
	<node id="-733011" lat="63.1769777803" lon="9.92177221831">
		<tag k="fixme" v="consider natural=peak for the most distinct mountains in the district" />
		<tag k="name" v="Ølshøgden" />
		<tag k="natural" v="hill" />
		<tag k="place" v="locality" />
		<tag k="ssr:stedsnr" v="208115" />
	</node>
	<node id="-733008" lat="63.3362111135" lon="9.98809165878">
		<tag k="name" v="Dålån" />
		<tag k="natural" v="valley" />
		<tag k="place" v="locality" />
		<tag k="ssr:stedsnr" v="207191" />
	</node>
	<node id="-733006" lat="63.2684944416" lon="10.1817750043">
		<tag k="fixme" v="consider natural=peak for the most distinct mountains in the district" />
		<tag k="name" v="Refsåsen" />
		<tag k="natural" v="hill" />
		<tag k="place" v="locality" />
		<tag k="ssr:stedsnr" v="206407" />
	</node>
	<node id="-733005" lat="63.2702500015" lon="10.1840194512">
		<tag k="fixme" v="consider natural=peak for the most distinct mountains in the district" />
		<tag k="name" v="Ingbrigtsåsen" />
		<tag k="natural" v="hill" />
		<tag k="place" v="locality" />
		<tag k="ssr:stedsnr" v="206403" />
	</node>
	<node id="-733002" lat="63.2644249971" lon="10.0617111104">
		<tag k="name" v="Fallbakkan" />
		<tag k="natural" v="slope" />
		<tag k="place" v="locality" />
		<tag k="ssr:stedsnr" v="206322" />
	</node>
	<node id="-733000" lat="63.2941472249" lon="10.1412527807">
		<tag k="name" v="Gråguttu" />
		<tag k="natural" v="valley" />
		<tag k="place" v="locality" />
		<tag k="ssr:stedsnr" v="206289" />
	</node>
	<node id="-732992" lat="63.3353416632" lon="9.96548611578">
		<tag k="name" v="Espåshaugen" />
		<tag k="natural" v="hill" />
		<tag k="place" v="locality" />
		<tag k="ssr:stedsnr" v="206198" />
	</node>
	<node id="-732991" lat="63.3134277787" lon="9.96549999114">
		<tag k="name" v="Skjerven" />
		<tag k="natural" v="slope" />
		<tag k="place" v="locality" />
		<tag k="ssr:stedsnr" v="206128" />
	</node>
	<node id="-732988" lat="63.2088916638" lon="9.97911388541">
		<tag k="name" v="Rogndalen" />
		<tag k="natural" v="valley" />
		<tag k="place" v="locality" />
		<tag k="ssr:stedsnr" v="205630" />
	</node>
	<node id="-732987" lat="63.1995333356" lon="9.97517221997">
		<tag k="name" v="Grønlia" />
		<tag k="natural" v="slope" />
		<tag k="place" v="locality" />
		<tag k="ssr:stedsnr" v="205625" />
	</node>
	<node id="-732986" lat="63.2001416681" lon="9.97148611655">
		<tag k="name" v="Ellendslættet" />
		<tag k="place" v="locality" />
		<tag k="ssr:stedsnr" v="205623" />
	</node>
	<node id="-732984" lat="63.2424138925" lon="10.0726833427">
		<tag k="name" v="Svallmyrberga" />
		<tag k="natural" v="hill" />
		<tag k="place" v="locality" />
		<tag k="ssr:stedsnr" v="205547" />
	</node>
	<node id="-732979" lat="63.2167249978" lon="9.9811861101">
		<tag k="fixme" v="consider natural=peak for the most distinct mountains in the district" />
		<tag k="name" v="Pettershåmmåren" />
		<tag k="natural" v="hill" />
		<tag k="place" v="locality" />
		<tag k="ssr:stedsnr" v="205467" />
	</node>
	<node id="-732978" lat="63.2281722242" lon="9.93665277524">
		<tag k="fixme" v="consider natural=peak for the most distinct mountains in the district" />
		<tag k="name" v="Nordlandseteråsen" />
		<tag k="natural" v="hill" />
		<tag k="place" v="locality" />
		<tag k="ssr:stedsnr" v="205459" />
	</node>
	<node id="-732977" lat="63.198488893" lon="10.0064638876">
		<tag k="name" v="Rolidalan" />
		<tag k="natural" v="valley" />
		<tag k="place" v="locality" />
		<tag k="ssr:stedsnr" v="205436" />
	</node>
	<node id="-732976" lat="63.2162638855" lon="10.0945777775">
		<tag k="fixme" v="consider natural=peak for the most distinct mountains in the district" />
		<tag k="name" v="Styggåsen" />
		<tag k="natural" v="hill" />
		<tag k="place" v="locality" />
		<tag k="ssr:stedsnr" v="205433" />
	</node>
	<node id="-732975" lat="63.2188666629" lon="10.0305583401">
		<tag k="name" v="Bjørnadalen" />
		<tag k="natural" v="valley" />
		<tag k="place" v="locality" />
		<tag k="ssr:stedsnr" v="205417" />
	</node>
	<node id="-732971" lat="63.2489666652" lon="10.0136166737">
		<tag k="fixme" v="consider natural=peak for the most distinct mountains in the district" />
		<tag k="name" v="Brauta" />
		<tag k="natural" v="hill" />
		<tag k="place" v="locality" />
		<tag k="ssr:stedsnr" v="205323" />
	</node>
	<node id="-732970" lat="63.2750111102" lon="9.94044166395">
		<tag k="name" v="Storverdalen" />
		<tag k="natural" v="valley" />
		<tag k="place" v="locality" />
		<tag k="ssr:stedsnr" v="205274" />
	</node>
	<node id="-732969" lat="63.2774305521" lon="9.98558056314">
		<tag k="name" v="Rammeldalen" />
		<tag k="natural" v="valley" />
		<tag k="place" v="locality" />
		<tag k="ssr:stedsnr" v="205181" />
	</node>
	<node id="-732963" lat="63.3042611157" lon="10.1617527694">
		<tag k="name" v="Reitan" />
		<tag k="natural" v="hill" />
		<tag k="place" v="locality" />
		<tag k="ssr:stedsnr" v="205014" />
	</node>
	<node id="-732962" lat="63.3381055527" lon="10.0551888797">
		<tag k="name" v="Hårrisdalen" />
		<tag k="natural" v="valley" />
		<tag k="place" v="locality" />
		<tag k="ssr:stedsnr" v="205006" />
	</node>
	<node id="-732952" lat="63.3052083337" lon="10.0351472224">
		<tag k="fixme" v="consider natural=peak for the most distinct mountains in the district" />
		<tag k="name" v="Huåsen" />
		<tag k="natural" v="hill" />
		<tag k="place" v="locality" />
		<tag k="ssr:stedsnr" v="195156" />
	</node>
	<node id="-732948" lat="63.2463027771" lon="9.96782500762">
		<tag k="name" v="Hegglien" />
		<tag k="natural" v="slope" />
		<tag k="place" v="locality" />
		<tag k="ssr:stedsnr" v="194268" />
	</node>
	<node id="-732933" lat="63.3163388863" lon="9.92293055453">
		<tag k="fixme" v="consider natural=peak for the most distinct mountains in the district" />
		<tag k="name" v="Åsen" />
		<tag k="natural" v="hill" />
		<tag k="place" v="locality" />
		<tag k="ssr:stedsnr" v="145219" />
	</node>
	<node id="-732930" lat="63.2970861111" lon="10.0331222153">
		<tag k="fixme" v="consider natural=peak for the most distinct mountains in the district" />
		<tag k="name" v="Lundapiken" />
		<tag k="natural" v="hill" />
		<tag k="place" v="locality" />
		<tag k="ssr:stedsnr" v="145154" />
	</node>
	<node id="-732925" lat="63.1961416659" lon="9.98460832613">
		<tag k="name" v="Trettslættet" />
		<tag k="place" v="locality" />
		<tag k="ssr:stedsnr" v="144607" />
	</node>
	<node id="-732922" lat="63.2161611143" lon="9.96561665869">
		<tag k="name" v="Olashaugen" />
		<tag k="natural" v="hill" />
		<tag k="place" v="locality" />
		<tag k="ssr:stedsnr" v="144452" />
	</node>
	<node id="-732921" lat="63.22218333" lon="9.94196389622">
		<tag k="name" v="Rundhaugen" />
		<tag k="natural" v="hill" />
		<tag k="place" v="locality" />
		<tag k="ssr:stedsnr" v="144440" />
	</node>
	<node id="-732918" lat="63.225419442" lon="9.92488056434">
		<tag k="name" v="Storlia" />
		<tag k="natural" v="slope" />
		<tag k="place" v="locality" />
		<tag k="ssr:stedsnr" v="144434" />
	</node>
	<node id="-732915" lat="63.2151805545" lon="10.075838898">
		<tag k="name" v="Øster Tjurrudalen" />
		<tag k="natural" v="valley" />
		<tag k="place" v="locality" />
		<tag k="ssr:stedsnr" v="144415" />
	</node>
	<node id="-732914" lat="63.2140194416" lon="10.0638194356">
		<tag k="name" v="Seterberga" />
		<tag k="natural" v="hill" />
		<tag k="place" v="locality" />
		<tag k="ssr:stedsnr" v="144410" />
	</node>
	<node id="-732910" lat="63.2796666633" lon="10.0971499934">
		<tag k="fixme" v="consider natural=peak for the most distinct mountains in the district" />
		<tag k="name" v="Storsetåsen" />
		<tag k="natural" v="hill" />
		<tag k="place" v="locality" />
		<tag k="ssr:stedsnr" v="144351" />
	</node>
	<node id="-732909" lat="63.2745722237" lon="10.1295444367">
		<tag k="name" v="Djupdalen" />
		<tag k="natural" v="valley" />
		<tag k="place" v="locality" />
		<tag k="ssr:stedsnr" v="144347" />
	</node>
	<node id="-732902" lat="63.3215527811" lon="10.1282194374">
		<tag k="fixme" v="consider natural=peak for the most distinct mountains in the district" />
		<tag k="name" v="Mannsfjellet" />
		<tag k="natural" v="hill" />
		<tag k="place" v="locality" />
		<tag k="ssr:stedsnr" v="144064" />
	</node>
	<node id="-732884" lat="63.3034361117" lon="9.90841388159">
		<tag k="alt_name" v="Årlihaugen" />
		<tag k="name" v="Årlihøgda" />
		<tag k="natural" v="hill" />
		<tag k="place" v="locality" />
		<tag k="ssr:stedsnr" v="85178" />
	</node>
	<node id="-732877" lat="63.2826361097" lon="10.0210222171">
		<tag k="fixme" v="consider natural=peak for the most distinct mountains in the district" />
		<tag k="name" v="Eggåsen" />
		<tag k="natural" v="hill" />
		<tag k="place" v="locality" />
		<tag k="ssr:stedsnr" v="85125" />
	</node>
	<node id="-732873" lat="63.242708335" lon="10.0407277832">
		<tag k="name" v="Gilhaugen" />
		<tag k="natural" v="hill" />
		<tag k="place" v="locality" />
		<tag k="ssr:stedsnr" v="84498" />
	</node>
	<node id="-732871" lat="63.2272972178" lon="9.89816111748">
		<tag k="fixme" v="consider natural=peak for the most distinct mountains in the district" />
		<tag k="name" v="Svarttjønnkammen" />
		<tag k="natural" v="hill" />
		<tag k="place" v="locality" />
		<tag k="ssr:stedsnr" v="84397" />
	</node>
	<node id="-732869" lat="63.2019638914" lon="10.0115166628">
		<tag k="name" v="Blåhåmmårkneppen" />
		<tag k="natural" v="hill" />
		<tag k="place" v="locality" />
		<tag k="ssr:stedsnr" v="84387" />
	</node>
	<node id="-732867" lat="63.2273333304" lon="10.059391663">
		<tag k="name" v="Kaldslættet" />
		<tag k="place" v="locality" />
		<tag k="ssr:stedsnr" v="84381" />
	</node>
	<node id="-732866" lat="63.2243972205" lon="10.0152694383">
		<tag k="fixme" v="consider natural=peak for the most distinct mountains in the district" />
		<tag k="name" v="Elgåsen" />
		<tag k="natural" v="hill" />
		<tag k="place" v="locality" />
		<tag k="ssr:stedsnr" v="84366" />
	</node>
	<node id="-732859" lat="63.3276944408" lon="10.0303972152">
		<tag k="name" v="Holberget" />
		<tag k="natural" v="hill" />
		<tag k="place" v="locality" />
		<tag k="ssr:stedsnr" v="84146" />
	</node>
	<node id="-732857" lat="63.2668027783" lon="9.98693611418">
		<tag k="name" v="Ormlia" />
		<tag k="natural" v="slope" />
		<tag k="place" v="locality" />
		<tag k="ssr:stedsnr" v="84289" />
	</node>
	<node id="-732855" lat="63.315258337" lon="10.0162083399">
		<tag k="name" v="Kolmyrdalen" />
		<tag k="natural" v="valley" />
		<tag k="place" v="locality" />
		<tag k="ssr:stedsnr" v="84065" />
	</node>
	<node id="-732854" lat="63.3135027781" lon="10.0406472157">
		<tag k="name" v="Skolahaugen" />
		<tag k="natural" v="hill" />
		<tag k="place" v="locality" />
		<tag k="ssr:stedsnr" v="84044" />
	</node>
	<node id="-732851" lat="63.2515611115" lon="10.0947388902">
		<tag k="fixme" v="consider natural=peak for the most distinct mountains in the district" />
		<tag k="name" v="Stokkmyråsen" />
		<tag k="natural" v="hill" />
		<tag k="place" v="locality" />
		<tag k="ssr:stedsnr" v="74697" />
	</node>
	<node id="-732848" lat="63.2863833289" lon="9.96160833626">
		<tag k="name" v="Rundhaugen" />
		<tag k="natural" v="hill" />
		<tag k="place" v="locality" />
		<tag k="ssr:stedsnr" v="74326" />
	</node>
	<node id="-732840" lat="63.1715027761" lon="9.97287500219">
		<tag k="alt_name" v="Kvennåsan" />
		<tag k="fixme" v="consider natural=peak for the most distinct mountains in the district" />
		<tag k="name" v="Slættåsen" />
		<tag k="natural" v="hill" />
		<tag k="old_name" v="Slettåsen" />
		<tag k="place" v="locality" />
		<tag k="ssr:stedsnr" v="73152" />
	</node>
	<node id="-732829" lat="63.261250001" lon="9.95456387935">
		<tag k="name" v="Kjærsjølien" />
		<tag k="natural" v="slope" />
		<tag k="place" v="locality" />
		<tag k="ssr:stedsnr" v="25572" />
	</node>
	<node id="-732826" lat="63.1874333322" lon="9.97309444405">
		<tag k="fixme" v="consider natural=peak for the most distinct mountains in the district" />
		<tag k="name" v="Omgangskåsa" />
		<tag k="natural" v="hill" />
		<tag k="place" v="locality" />
		<tag k="ssr:stedsnr" v="25552" />
	</node>
	<node id="-732824" lat="63.3252527818" lon="10.0842666741">
		<tag k="name" v="Nasvisberget" />
		<tag k="natural" v="hill" />
		<tag k="place" v="locality" />
		<tag k="ssr:stedsnr" v="25047" />
	</node>
	<node id="-732818" lat="63.2450194478" lon="10.1086750026">
		<tag k="name" v="Tviberga" />
		<tag k="natural" v="hill" />
		<tag k="place" v="locality" />
		<tag k="ssr:stedsnr" v="24399" />
	</node>
	<node id="-732809" lat="63.3200138918" lon="9.95232778137">
		<tag k="name" v="Junkershaugen" />
		<tag k="natural" v="hill" />
		<tag k="place" v="locality" />
		<tag k="ssr:stedsnr" v="24189" />
	</node>
	<node id="-732808" lat="63.3242499988" lon="9.9299472292">
		<tag k="fixme" v="consider natural=peak for the most distinct mountains in the district" />
		<tag k="name" v="Åsfoten" />
		<tag k="natural" v="hill" />
		<tag k="place" v="locality" />
		<tag k="ssr:stedsnr" v="24185" />
	</node>
	<node id="-732805" lat="63.3320250044" lon="9.92031389448">
		<tag k="name" v="Snøplogbakken" />
		<tag k="natural" v="slope" />
		<tag k="place" v="locality" />
		<tag k="ssr:stedsnr" v="24182" />
	</node>
	<node id="-732802" lat="63.2203138882" lon="9.95941944962">
		<tag k="name" v="Althaugen" />
		<tag k="natural" v="hill" />
		<tag k="place" v="locality" />
		<tag k="ssr:stedsnr" v="23477" />
	</node>
	<node id="-732801" lat="63.205663889" lon="9.94531665885">
		<tag k="name" v="Baklia" />
		<tag k="natural" v="slope" />
		<tag k="place" v="locality" />
		<tag k="ssr:stedsnr" v="23463" />
	</node>
	<node id="-732797" lat="63.3256694438" lon="9.92089445421">
		<tag k="name" v="Osphaugen" />
		<tag k="natural" v="hill" />
		<tag k="place" v="locality" />
		<tag k="ssr:stedsnr" v="23265" />
	</node>
	<node id="-732793" lat="63.2840444461" lon="10.1100972201">
		<tag k="name" v="Seteråsen" />
		<tag k="natural" v="hill" />
		<tag k="place" v="locality" />
		<tag k="ssr:stedsnr" v="23373" />
	</node>
	<node id="-732792" lat="63.2847277746" lon="10.1220694378">
		<tag k="name" v="Stodalen" />
		<tag k="natural" v="valley" />
		<tag k="place" v="locality" />
		<tag k="ssr:stedsnr" v="23363" />
	</node>
	<node id="-732790" lat="63.313863887" lon="10.0312666748">
		<tag k="fixme" v="consider natural=peak for the most distinct mountains in the district" />
		<tag k="name" v="Ramsåsen" />
		<tag k="natural" v="hill" />
		<tag k="place" v="locality" />
		<tag k="ssr:stedsnr" v="23051" />
	</node>
	<node id="-732786" lat="63.317733331" lon="10.1909944507">
		<tag k="name" v="Hyllberget" />
		<tag k="natural" v="hill" />
		<tag k="place" v="locality" />
		<tag k="ssr:stedsnr" v="23016" />
	</node>
	<node id="-732773" lat="63.3154249983" lon="10.0090638789">
		<tag k="fixme" v="consider natural=peak for the most distinct mountains in the district" />
		<tag k="name" v="Ramnåsen" />
		<tag k="natural" v="hill" />
		<tag k="place" v="locality" />
		<tag k="ssr:stedsnr" v="13327" />
	</node>
	<node id="-732771" lat="63.1915444418" lon="9.96273888554">
		<tag k="name" v="Ramberget" />
		<tag k="natural" v="hill" />
		<tag k="place" v="locality" />
		<tag k="ssr:stedsnr" v="12183" />
	</node>
	<node id="-732762" lat="63.216027775" lon="10.1015583329">
		<tag k="fixme" v="consider natural=peak for the most distinct mountains in the district" />
		<tag k="name" v="Høglikammen" />
		<tag k="natural" v="hill" />
		<tag k="place" v="locality" />
		<tag k="ssr:stedsnr" v="934339" />
	</node>
	<node id="-732760" lat="63.2178527746" lon="10.0678472314">
		<tag k="name" v="Kammeldyrbakkan" />
		<tag k="natural" v="slope" />
		<tag k="place" v="locality" />
		<tag k="ssr:stedsnr" v="934334" />
	</node>
	<node id="-732759" lat="63.2141805584" lon="10.0406555609">
		<tag k="fixme" v="consider natural=peak for the most distinct mountains in the district" />
		<tag k="name" v="Kamåsen" />
		<tag k="natural" v="hill" />
		<tag k="place" v="locality" />
		<tag k="ssr:stedsnr" v="934328" />
	</node>
	<node id="-732750" lat="63.2736833313" lon="9.99440555473">
		<tag k="name" v="Massåslia" />
		<tag k="natural" v="slope" />
		<tag k="place" v="locality" />
		<tag k="ssr:stedsnr" v="934227" />
	</node>
	<node id="-732748" lat="63.3265583334" lon="9.9121472246">
		<tag k="name" v="Bjønnhaugan" />
		<tag k="natural" v="hill" />
		<tag k="place" v="locality" />
		<tag k="ssr:stedsnr" v="934218" />
	</node>
	<node id="-732730" lat="63.2957861113" lon="10.0225666594">
		<tag k="name" v="Annkjellhaugan" />
		<tag k="natural" v="hill" />
		<tag k="place" v="locality" />
		<tag k="ssr:stedsnr" v="873172" />
	</node>
	<node id="-732729" lat="63.2803888889" lon="9.91302221914">
		<tag k="fixme" v="consider natural=peak for the most distinct mountains in the district" />
		<tag k="name" v="Nyseteråsen" />
		<tag k="natural" v="hill" />
		<tag k="place" v="locality" />
		<tag k="ssr:stedsnr" v="873157" />
	</node>
	<node id="-732723" lat="63.2123972225" lon="9.96654445439">
		<tag k="name" v="Sagslættet" />
		<tag k="place" v="locality" />
		<tag k="ssr:stedsnr" v="873414" />
	</node>
	<node id="-732716" lat="63.3004194432" lon="10.1623888955">
		<tag k="name" v="Saltnesberga" />
		<tag k="natural" v="hill" />
		<tag k="place" v="locality" />
		<tag k="ssr:stedsnr" v="873018" />
	</node>
	<node id="-732712" lat="63.2771333338" lon="10.1187138982">
		<tag k="fixme" v="consider natural=peak for the most distinct mountains in the district" />
		<tag k="name" v="Hogstra" />
		<tag k="natural" v="hill" />
		<tag k="place" v="locality" />
		<tag k="ssr:stedsnr" v="863723" />
	</node>
	<node id="-732711" lat="63.1954222203" lon="10.0291750082">
		<tag k="name" v="Langslættet" />
		<tag k="old_name" v="Langslettet" />
		<tag k="place" v="locality" />
		<tag k="ssr:stedsnr" v="862207" />
	</node>
	<node id="-732707" lat="63.2000388848" lon="10.0701472163">
		<tag k="name" v="Vakkergilen" />
		<tag k="natural" v="slope" />
		<tag k="place" v="locality" />
		<tag k="ssr:stedsnr" v="934555" />
	</node>
	<node id="-732706" lat="63.1964027763" lon="9.96637777698">
		<tag k="fixme" v="consider natural=peak for the most distinct mountains in the district" />
		<tag k="name" v="Klumpan" />
		<tag k="natural" v="hill" />
		<tag k="ssr:stedsnr" v="934538" />
	</node>
	<node id="-732700" lat="63.2430944474" lon="10.1187666588">
		<tag k="fixme" v="consider natural=peak for the most distinct mountains in the district" />
		<tag k="name" v="Måssåvollåsen" />
		<tag k="natural" v="hill" />
		<tag k="place" v="locality" />
		<tag k="ssr:stedsnr" v="934381" />
	</node>
	<node id="-732695" lat="63.3066333335" lon="10.1112805514">
		<tag k="fixme" v="consider natural=peak for the most distinct mountains in the district" />
		<tag k="name" v="Fuggelåsen" />
		<tag k="natural" v="hill" />
		<tag k="place" v="locality" />
		<tag k="ssr:stedsnr" v="934289" />
	</node>
	<node id="-732692" lat="63.2565583333" lon="10.1376444515">
		<tag k="fixme" v="consider natural=peak for the most distinct mountains in the district" />
		<tag k="name" v="Solåsen" />
		<tag k="natural" v="hill" />
		<tag k="place" v="locality" />
		<tag k="ssr:stedsnr" v="934278" />
	</node>
	<node id="-732691" lat="63.2389694454" lon="9.89218888809">
		<tag k="name" v="Engseterdalen" />
		<tag k="natural" v="valley" />
		<tag k="place" v="locality" />
		<tag k="ssr:stedsnr" v="934260" />
	</node>
	<node id="-732690" lat="63.2152694417" lon="9.95450277394">
		<tag k="name" v="Masslættet" />
		<tag k="place" v="locality" />
		<tag k="ssr:stedsnr" v="934366" />
	</node>
	<node id="-732686" lat="63.3205944457" lon="10.0099166747">
		<tag k="fixme" v="consider natural=peak for the most distinct mountains in the district" />
		<tag k="name" v="Litlgagnåskammen" />
		<tag k="natural" v="hill" />
		<tag k="place" v="locality" />
		<tag k="ssr:stedsnr" v="934191" />
	</node>
	<node id="-732682" lat="63.3033499972" lon="9.99818611989">
		<tag k="fixme" v="consider natural=peak for the most distinct mountains in the district" />
		<tag k="name" v="Kariseteråsen" />
		<tag k="natural" v="hill" />
		<tag k="place" v="locality" />
		<tag k="ssr:stedsnr" v="934117" />
	</node>
	<node id="-732680" lat="63.3432000013" lon="10.053605557">
		<tag k="name" v="Litlsjurdalen" />
		<tag k="natural" v="valley" />
		<tag k="place" v="locality" />
		<tag k="ssr:stedsnr" v="934047" />
	</node>
	<node id="-732678" lat="63.3128416688" lon="10.0356027852">
		<tag k="name" v="Kjerringståggåberget" />
		<tag k="natural" v="hill" />
		<tag k="place" v="locality" />
		<tag k="ssr:stedsnr" v="934026" />
	</node>
	<node id="-732664" lat="63.2339333293" lon="10.062649992">
		<tag k="fixme" v="consider natural=peak for the most distinct mountains in the district" />
		<tag k="name" v="Kloppmyråsen" />
		<tag k="natural" v="hill" />
		<tag k="place" v="locality" />
		<tag k="ssr:stedsnr" v="802308" />
	</node>
	<node id="-732658" lat="63.211100004" lon="10.1001777816">
		<tag k="name" v="Gåsknippen" />
		<tag k="natural" v="hill" />
		<tag k="place" v="locality" />
		<tag k="ssr:stedsnr" v="801214" />
	</node>
	<node id="-732657" lat="63.2196638862" lon="9.93241666659">
		<tag k="alt_name" v="Marsten" />
		<tag k="name" v="Marsteinen" />
		<tag k="natural" v="hill" />
		<tag k="place" v="locality" />
		<tag k="ssr:stedsnr" v="801209" />
	</node>
	<node id="-732648" lat="63.2666277773" lon="9.92203611025">
		<tag k="name" v="Utsikten" />
		<tag k="natural" v="hill" />
		<tag k="place" v="locality" />
		<tag k="ssr:stedsnr" v="923766" />
	</node>
	<node id="-732646" lat="63.2676305598" lon="9.92496665941">
		<tag k="fixme" v="consider natural=peak for the most distinct mountains in the district" />
		<tag k="name" v="Foksetåsen" />
		<tag k="natural" v="hill" />
		<tag k="place" v="locality" />
		<tag k="ssr:stedsnr" v="923740" />
	</node>
	<node id="-732644" lat="63.2843083301" lon="9.91412778315">
		<tag k="name" v="Yståsdalen" />
		<tag k="natural" v="valley" />
		<tag k="place" v="locality" />
		<tag k="ssr:stedsnr" v="923412" />
	</node>
	<node id="-732643" lat="63.2782749977" lon="9.92573611121">
		<tag k="alt_name" v="Jyståsen" />
		<tag k="fixme" v="consider natural=peak for the most distinct mountains in the district" />
		<tag k="name" v="Yståsen" />
		<tag k="natural" v="hill" />
		<tag k="place" v="locality" />
		<tag k="ssr:stedsnr" v="923410" />
	</node>
	<node id="-732637" lat="63.3102250034" lon="10.0479555612">
		<tag k="fixme" v="consider natural=peak for the most distinct mountains in the district" />
		<tag k="name" v="Blekkåsen" />
		<tag k="natural" v="hill" />
		<tag k="place" v="locality" />
		<tag k="ssr:stedsnr" v="923321" />
	</node>
	<node id="-732632" lat="63.2027444471" lon="10.0129138933">
		<tag k="name" v="Blåhåmmårberga" />
		<tag k="natural" v="hill" />
		<tag k="old_name" v="Blåhammarberga" />
		<tag k="place" v="locality" />
		<tag k="ssr:stedsnr" v="923226" />
	</node>
	<node id="-732631" lat="63.2208717276" lon="9.92222906171">
		<tag k="fixme" v="consider natural=peak for the most distinct mountains in the district" />
		<tag k="name" v="Alvåsen" />
		<tag k="natural" v="hill" />
		<tag k="place" v="locality" />
		<tag k="ssr:stedsnr" v="922201" />
	</node>
	<node id="-732623" lat="63.2582500008" lon="10.0999972258">
		<tag k="name" v="Seterbakkan" />
		<tag k="natural" v="slope" />
		<tag k="place" v="locality" />
		<tag k="ssr:stedsnr" v="752303" />
	</node>
	<node id="-732622" lat="63.2026722242" lon="10.0403138899">
		<tag k="name" v="Storslættet" />
		<tag k="place" v="locality" />
		<tag k="ssr:stedsnr" v="751615" />
	</node>
	<node id="-732615" lat="63.272041664" lon="9.941580551">
		<tag k="fixme" v="consider natural=peak for the most distinct mountains in the district" />
		<tag k="name" v="Røsåskammen" />
		<tag k="natural" v="hill" />
		<tag k="place" v="locality" />
		<tag k="ssr:stedsnr" v="741766" />
	</node>
	<node id="-732609" lat="63.3127777787" lon="9.9634250058">
		<tag k="fixme" v="consider natural=peak for the most distinct mountains in the district" />
		<tag k="name" v="Høgåsen" />
		<tag k="natural" v="hill" />
		<tag k="place" v="locality" />
		<tag k="ssr:stedsnr" v="741172" />
	</node>
	<node id="-732602" lat="63.2930666709" lon="9.96243056417">
		<tag k="name" v="Mjølhushøgda" />
		<tag k="natural" v="hill" />
		<tag k="place" v="locality" />
		<tag k="ssr:stedsnr" v="681312" />
	</node>
	<node id="-732588" lat="63.3162305563" lon="10.2090055602">
		<tag k="name" v="Kvennberget" />
		<tag k="natural" v="hill" />
		<tag k="place" v="locality" />
		<tag k="ssr:stedsnr" v="631163" />
	</node>
	<node id="-732586" lat="63.2628722228" lon="10.088777773">
		<tag k="fixme" v="consider natural=peak for the most distinct mountains in the district" />
		<tag k="name" v="Refsåsen" />
		<tag k="natural" v="hill" />
		<tag k="place" v="locality" />
		<tag k="ssr:stedsnr" v="727904" />
	</node>
	<node id="-732578" lat="63.3358666643" lon="9.95851944347">
		<tag k="name" v="Svartdalen" />
		<tag k="natural" v="valley" />
		<tag k="place" v="locality" />
		<tag k="ssr:stedsnr" v="630203" />
	</node>
	<node id="-732577" lat="63.3420305543" lon="10.0295361037">
		<tag k="name" v="Kolåsdalen" />
		<tag k="natural" v="valley" />
		<tag k="place" v="locality" />
		<tag k="ssr:stedsnr" v="630057" />
	</node>
	<node id="-732576" lat="63.342908337" lon="10.0403611039">
		<tag k="name" v="Torsengdalen" />
		<tag k="natural" v="valley" />
		<tag k="place" v="locality" />
		<tag k="ssr:stedsnr" v="630056" />
	</node>
	<node id="-732575" lat="63.2569277813" lon="10.0735527801">
		<tag k="fixme" v="consider natural=peak for the most distinct mountains in the district" />
		<tag k="name" v="Åsberga" />
		<tag k="natural" v="hill" />
		<tag k="place" v="locality" />
		<tag k="ssr:stedsnr" v="630323" />
	</node>
	<node id="-732573" lat="63.2976027737" lon="9.97218889587">
		<tag k="name" v="Einhogstret" />
		<tag k="place" v="locality" />
		<tag k="ssr:stedsnr" v="630168" />
	</node>
	<node id="-732570" lat="63.2026722261" lon="10.0367416698">
		<tag k="fixme" v="consider natural=peak for the most distinct mountains in the district" />
		<tag k="name" v="Tjønnmyråsen" />
		<tag k="natural" v="hill" />
		<tag k="place" v="locality" />
		<tag k="ssr:stedsnr" v="629622" />
	</node>
	<node id="-732568" lat="63.1984027795" lon="10.0557333428">
		<tag k="name" v="Linberga" />
		<tag k="natural" v="hill" />
		<tag k="place" v="locality" />
		<tag k="ssr:stedsnr" v="629615" />
	</node>
	<node id="-732567" lat="63.2111722211" lon="9.97020555324">
		<tag k="name" v="Stokkbakken" />
		<tag k="natural" v="slope" />
		<tag k="place" v="locality" />
		<tag k="ssr:stedsnr" v="629607" />
	</node>
	<node id="-732564" lat="63.2481527734" lon="10.168094439">
		<tag k="name" v="Hafelhaugen" />
		<tag k="natural" v="hill" />
		<tag k="place" v="locality" />
		<tag k="ssr:stedsnr" v="629457" />
	</node>
	<node id="-732553" lat="63.1987277749" lon="9.9634527813">
		<tag k="name" v="Ramberga" />
		<tag k="natural" v="hill" />
		<tag k="place" v="locality" />
		<tag k="ssr:stedsnr" v="709905" />
	</node>
	<node id="-732550" lat="63.3223944451" lon="10.0500638962">
		<tag k="name" v="Kvennhusholet" />
		<tag k="natural" v="valley" />
		<tag k="place" v="locality" />
		<tag k="ssr:stedsnr" v="570502" />
	</node>
	<node id="-732533" lat="63.3393972234" lon="9.98819721938">
		<tag k="name" v="Rålet" />
		<tag k="natural" v="slope" />
		<tag k="place" v="locality" />
		<tag k="ssr:stedsnr" v="692180" />
	</node>
	<node id="-732531" lat="63.179713886" lon="9.9381027711">
		<tag k="fixme" v="consider natural=peak for the most distinct mountains in the district" />
		<tag k="name" v="Morsjøåsen" />
		<tag k="natural" v="hill" />
		<tag k="place" v="locality" />
		<tag k="ssr:stedsnr" v="691600" />
	</node>
	<node id="-732529" lat="63.200444444" lon="10.0637083267">
		<tag k="name" v="Dalslien" />
		<tag k="natural" v="slope" />
		<tag k="place" v="locality" />
		<tag k="ssr:stedsnr" v="691595" />
	</node>
	<node id="-732528" lat="63.20777778" lon="10.0649194449">
		<tag k="fixme" v="consider natural=peak for the most distinct mountains in the district" />
		<tag k="name" v="Dulskåsa" />
		<tag k="natural" v="hill" />
		<tag k="place" v="locality" />
		<tag k="ssr:stedsnr" v="691592" />
	</node>
	<node id="-732524" lat="63.2513861117" lon="10.054719454">
		<tag k="name" v="Gilskålhaugen" />
		<tag k="natural" v="hill" />
		<tag k="place" v="locality" />
		<tag k="ssr:stedsnr" v="691459" />
	</node>
	<node id="-732522" lat="63.2526638876" lon="10.1416666657">
		<tag k="fixme" v="consider natural=peak for the most distinct mountains in the district" />
		<tag k="name" v="Seteråsen" />
		<tag k="natural" v="hill" />
		<tag k="place" v="locality" />
		<tag k="ssr:stedsnr" v="691435" />
	</node>
	<node id="-732518" lat="63.2293499971" lon="10.0304500008">
		<tag k="fixme" v="consider natural=peak for the most distinct mountains in the district" />
		<tag k="name" v="Aunberga" />
		<tag k="natural" v="hill" />
		<tag k="place" v="locality" />
		<tag k="ssr:stedsnr" v="691397" />
	</node>
	<node id="-732516" lat="63.2642638931" lon="10.0371083286">
		<tag k="name" v="Nasvisberget" />
		<tag k="natural" v="hill" />
		<tag k="old_name" v="Navisberget" />
		<tag k="place" v="locality" />
		<tag k="ssr:stedsnr" v="691370" />
	</node>
	<node id="-732515" lat="63.3028472268" lon="10.0876444384">
		<tag k="name" v="Skotthyllflata" />
		<tag k="place" v="locality" />
		<tag k="ssr:stedsnr" v="691360" />
	</node>
	<node id="-732514" lat="63.3107611107" lon="10.0853861171">
		<tag k="name" v="Huslia" />
		<tag k="natural" v="slope" />
		<tag k="place" v="locality" />
		<tag k="ssr:stedsnr" v="691359" />
	</node>
	<node id="-732509" lat="63.2793888879" lon="10.1792916617">
		<tag k="fixme" v="consider natural=peak for the most distinct mountains in the district" />
		<tag k="name" v="Henrikåsen" />
		<tag k="natural" v="hill" />
		<tag k="place" v="locality" />
		<tag k="ssr:stedsnr" v="691331" />
	</node>
	<node id="-732506" lat="63.2493972242" lon="9.89585278328">
		<tag k="name" v="Holman" />
		<tag k="natural" v="hill" />
		<tag k="place" v="locality" />
		<tag k="ssr:stedsnr" v="691303" />
	</node>
	<node id="-732502" lat="63.3178777819" lon="9.91304166889">
		<tag k="name" v="Strandberget" />
		<tag k="natural" v="hill" />
		<tag k="place" v="locality" />
		<tag k="ssr:stedsnr" v="691265" />
	</node>
	<node id="-732501" lat="63.3035805584" lon="9.9129666665">
		<tag k="name" v="Årlia" />
		<tag k="natural" v="slope" />
		<tag k="place" v="locality" />
		<tag k="ssr:stedsnr" v="691262" />
	</node>
	<node id="-732500" lat="63.3251333369" lon="9.96503889241">
		<tag k="name" v="Huslia" />
		<tag k="natural" v="slope" />
		<tag k="place" v="locality" />
		<tag k="ssr:stedsnr" v="691259" />
	</node>
	<node id="-732499" lat="63.3307166684" lon="9.97311945328">
		<tag k="name" v="Holbekkhaugan" />
		<tag k="natural" v="hill" />
		<tag k="place" v="locality" />
		<tag k="ssr:stedsnr" v="691236" />
	</node>
	<node id="-732498" lat="63.2797694485" lon="10.0571027827">
		<tag k="name" v="Simshaugen" />
		<tag k="natural" v="hill" />
		<tag k="place" v="locality" />
		<tag k="ssr:stedsnr" v="691211" />
	</node>
	<node id="-732497" lat="63.2941944438" lon="9.96735555233">
		<tag k="fixme" v="consider natural=peak for the most distinct mountains in the district" />
		<tag k="name" v="Litlslættåsen" />
		<tag k="natural" v="hill" />
		<tag k="place" v="locality" />
		<tag k="ssr:stedsnr" v="691195" />
	</node>
	<node id="-732494" lat="63.2997277755" lon="10.0097055489">
		<tag k="fixme" v="consider natural=peak for the most distinct mountains in the district" />
		<tag k="name" v="Bukkmyråsen" />
		<tag k="natural" v="hill" />
		<tag k="place" v="locality" />
		<tag k="ssr:stedsnr" v="691163" />
	</node>
	<node id="-732489" lat="63.3239666674" lon="10.1008888974">
		<tag k="fixme" v="consider natural=peak for the most distinct mountains in the district" />
		<tag k="name" v="Lykkjakammen" />
		<tag k="natural" v="hill" />
		<tag k="place" v="locality" />
		<tag k="ssr:stedsnr" v="691076" />
	</node>
	<node id="-732488" lat="63.3491472201" lon="10.0384166702">
		<tag k="name" v="Laberget" />
		<tag k="natural" v="hill" />
		<tag k="place" v="locality" />
		<tag k="ssr:stedsnr" v="691065" />
	</node>
	<node id="-732487" lat="63.3370805599" lon="10.0284388831">
		<tag k="name" v="Elispranget" />
		<tag k="natural" v="cliff" />
		<tag k="ssr:stedsnr" v="691008" />
	</node>
	<node id="-732478" lat="63.2894694486" lon="9.93684166481">
		<tag k="name" v="Ubbulia" />
		<tag k="natural" v="slope" />
		<tag k="place" v="locality" />
		<tag k="ssr:stedsnr" v="509138" />
	</node>
	<node id="-732475" lat="63.234574997" lon="10.1173055511">
		<tag k="name" v="Nordgjerdet" />
		<tag k="place" v="locality" />
		<tag k="ssr:stedsnr" v="508490" />
	</node>
	<node id="-732474" lat="63.2504694464" lon="10.1111583413">
		<tag k="fixme" v="consider natural=peak for the most distinct mountains in the district" />
		<tag k="name" v="Gjørgåsen" />
		<tag k="natural" v="hill" />
		<tag k="place" v="locality" />
		<tag k="ssr:stedsnr" v="508487" />
	</node>
	<node id="-732472" lat="63.2372916625" lon="10.1147444525">
		<tag k="name" v="Stor-råa" />
		<tag k="natural" v="slope" />
		<tag k="place" v="locality" />
		<tag k="ssr:stedsnr" v="508474" />
	</node>
	<node id="-732469" lat="63.2915416637" lon="10.120397229">
		<tag k="name" v="Åsbakken" />
		<tag k="natural" v="slope" />
		<tag k="place" v="locality" />
		<tag k="ssr:stedsnr" v="508323" />
	</node>
	<node id="-732455" lat="63.2620444455" lon="10.1568416587">
		<tag k="alt_name" v="Fuggelåsen" />
		<tag k="fixme" v="consider natural=peak for the most distinct mountains in the district" />
		<tag k="name" v="Fuglåsen" />
		<tag k="natural" v="hill" />
		<tag k="place" v="locality" />
		<tag k="ssr:stedsnr" v="680734" />
	</node>
	<node id="-732450" lat="63.3104416682" lon="10.1256555614">
		<tag k="alt_name" v="Spandskletten" />
		<tag k="fixme" v="consider natural=peak for the most distinct mountains in the district" />
		<tag k="name" v="Spannskletten" />
		<tag k="natural" v="hill" />
		<tag k="place" v="locality" />
		<tag k="ssr:stedsnr" v="680325" />
	</node>
	<node id="-732447" lat="63.3403638882" lon="10.0160499969">
		<tag k="fixme" v="consider natural=peak for the most distinct mountains in the district" />
		<tag k="name" v="Høgsetåsen" />
		<tag k="natural" v="hill" />
		<tag k="place" v="locality" />
		<tag k="ssr:stedsnr" v="680297" />
	</node>
	<node id="-732442" lat="63.1964944423" lon="9.97244443891">
		<tag k="fixme" v="consider natural=peak for the most distinct mountains in the district" />
		<tag k="name" v="Isåsen" />
		<tag k="natural" v="hill" />
		<tag k="place" v="locality" />
		<tag k="ssr:stedsnr" v="680200" />
	</node>
	<node id="-732423" lat="63.3085138874" lon="9.93291389657">
		<tag k="name" v="Stuten" />
		<tag k="natural" v="hill" />
		<tag k="place" v="locality" />
		<tag k="ssr:stedsnr" v="449221" />
	</node>
	<node id="-732420" lat="63.3194638855" lon="9.93012778671">
		<tag k="name" v="Åshaugen" />
		<tag k="natural" v="hill" />
		<tag k="place" v="locality" />
		<tag k="ssr:stedsnr" v="449210" />
	</node>
	<node id="-732418" lat="63.2930361087" lon="9.95568889502">
		<tag k="name" v="Mjølhuslien" />
		<tag k="natural" v="slope" />
		<tag k="place" v="locality" />
		<tag k="ssr:stedsnr" v="449143" />
	</node>
	<node id="-732417" lat="63.3009361097" lon="9.97088333016">
		<tag k="name" v="Middagsskardet" />
		<tag k="natural" v="valley" />
		<tag k="place" v="locality" />
		<tag k="ssr:stedsnr" v="449128" />
	</node>
	<node id="-732410" lat="63.2153416649" lon="10.0195277831">
		<tag k="name" v="Brannhaugen" />
		<tag k="natural" v="hill" />
		<tag k="place" v="locality" />
		<tag k="ssr:stedsnr" v="448408" />
	</node>
	<node id="-732409" lat="63.2376583359" lon="10.0711916611">
		<tag k="name" v="Åsplassen" />
		<tag k="place" v="locality" />
		<tag k="ssr:stedsnr" v="448530" />
	</node>
	<node id="-732406" lat="63.234249998" lon="9.91756666732">
		<tag k="name" v="Rosslia" />
		<tag k="natural" v="slope" />
		<tag k="place" v="locality" />
		<tag k="ssr:stedsnr" v="448331" />
	</node>
	<node id="-732404" lat="63.3149500041" lon="10.0386111125">
		<tag k="name" v="Rimildalen" />
		<tag k="natural" v="valley" />
		<tag k="place" v="locality" />
		<tag k="ssr:stedsnr" v="448047" />
	</node>
	<node id="-732402" lat="63.3101944431" lon="10.0680638908">
		<tag k="name" v="Kjæremshaugen" />
		<tag k="natural" v="hill" />
		<tag k="place" v="locality" />
		<tag k="ssr:stedsnr" v="448032" />
	</node>
	<node id="-732396" lat="63.2256277775" lon="9.97340000143">
		<tag k="fixme" v="consider natural=peak for the most distinct mountains in the district" />
		<tag k="name" v="Grovåsen" />
		<tag k="natural" v="hill" />
		<tag k="place" v="locality" />
		<tag k="ssr:stedsnr" v="437268" />
	</node>
	<node id="-732389" lat="63.3137250006" lon="10.2179361189">
		<tag k="fixme" v="consider natural=peak for the most distinct mountains in the district" />
		<tag k="name" v="Seteråsen" />
		<tag k="natural" v="hill" />
		<tag k="place" v="locality" />
		<tag k="ssr:stedsnr" v="510051" />
	</node>
	<node id="-732384" lat="63.3109777816" lon="9.91979165987">
		<tag k="name" v="Middagsskardet" />
		<tag k="natural" v="valley" />
		<tag k="place" v="locality" />
		<tag k="ssr:stedsnr" v="509213" />
	</node>
	<node id="-732382" lat="63.2659527811" lon="10.1750472237">
		<tag k="name" v="Klettbakkan" />
		<tag k="natural" v="slope" />
		<tag k="place" v="locality" />
		<tag k="ssr:stedsnr" v="509412" />
	</node>
	<node id="-732379" lat="63.2072305536" lon="10.0679888933">
		<tag k="name" v="Blomdalen" />
		<tag k="natural" v="valley" />
		<tag k="place" v="locality" />
		<tag k="ssr:stedsnr" v="508645" />
	</node>
	<node id="-732378" lat="63.2096749996" lon="10.0612333307">
		<tag k="name" v="Vakkerdalen" />
		<tag k="natural" v="valley" />
		<tag k="place" v="locality" />
		<tag k="ssr:stedsnr" v="508637" />
	</node>
	<node id="-732373" lat="63.1938833341" lon="10.0067138955">
		<tag k="name" v="Øver Dalan" />
		<tag k="natural" v="valley" />
		<tag k="place" v="locality" />
		<tag k="ssr:stedsnr" v="508444" />
	</node>
	<node id="-732368" lat="63.2197611114" lon="10.0751888822">
		<tag k="name" v="Oleshaugen" />
		<tag k="natural" v="hill" />
		<tag k="place" v="locality" />
		<tag k="ssr:stedsnr" v="508422" />
	</node>
	<node id="-732360" lat="63.2598527798" lon="9.9625833373">
		<tag k="name" v="Kjærsjøkleva" />
		<tag k="natural" v="hill" />
		<tag k="place" v="locality" />
		<tag k="ssr:stedsnr" v="508269" />
	</node>
	<node id="-732355" lat="63.326255555" lon="9.9026194433">
		<tag k="name" v="Steindalen" />
		<tag k="natural" v="valley" />
		<tag k="place" v="locality" />
		<tag k="ssr:stedsnr" v="508241" />
	</node>
	<node id="-732353" lat="63.3279416701" lon="9.99431943857">
		<tag k="fixme" v="consider natural=peak for the most distinct mountains in the district" />
		<tag k="name" v="Rånåsen" />
		<tag k="natural" v="hill" />
		<tag k="place" v="locality" />
		<tag k="ssr:stedsnr" v="508213" />
	</node>
	<node id="-732346" lat="63.3080694458" lon="10.1652527784">
		<tag k="name" v="Hammerdalen" />
		<tag k="natural" v="valley" />
		<tag k="place" v="locality" />
		<tag k="ssr:stedsnr" v="508029" />
	</node>
	<node id="-732342" lat="63.3377027769" lon="9.95620278596">
		<tag k="name" v="Skardet" />
		<tag k="natural" v="valley" />
		<tag k="place" v="locality" />
		<tag k="ssr:stedsnr" v="388160" />
	</node>
	<node id="-732340" lat="63.279991663" lon="9.92505832817">
		<tag k="fixme" v="consider natural=peak for the most distinct mountains in the district" />
		<tag k="name" v="Verdalsåsen" />
		<tag k="natural" v="hill" />
		<tag k="place" v="locality" />
		<tag k="ssr:stedsnr" v="388114" />
	</node>
	<node id="-732336" lat="63.2515083352" lon="10.0585249961">
		<tag k="name" v="Kvennhusdalen" />
		<tag k="natural" v="valley" />
		<tag k="place" v="locality" />
		<tag k="ssr:stedsnr" v="387525" />
	</node>
	<node id="-732333" lat="63.2665305574" lon="10.0478916724">
		<tag k="fixme" v="consider natural=peak for the most distinct mountains in the district" />
		<tag k="name" v="Stensåsen" />
		<tag k="natural" v="hill" />
		<tag k="place" v="locality" />
		<tag k="ssr:stedsnr" v="387366" />
	</node>
	<node id="-732332" lat="63.2055416659" lon="10.0333611184">
		<tag k="name" v="Tjønnmyrberga" />
		<tag k="natural" v="hill" />
		<tag k="place" v="locality" />
		<tag k="ssr:stedsnr" v="387616" />
	</node>
	<node id="-732328" lat="63.2495972223" lon="10.1014694363">
		<tag k="name" v="Arbea" />
		<tag k="natural" v="slope" />
		<tag k="place" v="locality" />
		<tag k="ssr:stedsnr" v="387454" />
	</node>
	<node id="-732315" lat="63.3018166677" lon="9.94427221994">
		<tag k="name" v="Seljhaugen" />
		<tag k="natural" v="hill" />
		<tag k="place" v="locality" />
		<tag k="ssr:stedsnr" v="498395" />
	</node>
	<node id="-732307" lat="63.231763889" lon="9.94325555633">
		<tag k="alt_name" v="Turtåsen" />
		<tag k="fixme" v="consider natural=peak for the most distinct mountains in the district" />
		<tag k="name" v="Tortåsen" />
		<tag k="natural" v="hill" />
		<tag k="place" v="locality" />
		<tag k="ssr:stedsnr" v="497222" />
	</node>
	<node id="-732301" lat="63.2723000037" lon="9.93979722366">
		<tag k="name" v="Råsen" />
		<tag k="natural" v="valley" />
		<tag k="place" v="locality" />
		<tag k="ssr:stedsnr" v="352216" />
	</node>
	<node id="-732292" lat="63.2945305582" lon="9.93463333944">
		<tag k="fixme" v="consider natural=peak for the most distinct mountains in the district" />
		<tag k="name" v="Bakliåsen" />
		<tag k="natural" v="hill" />
		<tag k="place" v="locality" />
		<tag k="ssr:stedsnr" v="327149" />
	</node>
	<node id="-732291" lat="63.3045750017" lon="9.97343334102">
		<tag k="name" v="Gjæsdalshøgda" />
		<tag k="natural" v="hill" />
		<tag k="place" v="locality" />
		<tag k="ssr:stedsnr" v="327148" />
	</node>
	<node id="-732290" lat="63.2889499993" lon="9.93463611351">
		<tag k="fixme" v="consider natural=peak for the most distinct mountains in the district" />
		<tag k="name" v="Seteråsen" />
		<tag k="natural" v="hill" />
		<tag k="place" v="locality" />
		<tag k="ssr:stedsnr" v="327143" />
	</node>
	<node id="-732288" lat="63.3162388926" lon="9.98845554929">
		<tag k="fixme" v="consider natural=peak for the most distinct mountains in the district" />
		<tag k="name" v="Møssmøråsen" />
		<tag k="natural" v="hill" />
		<tag k="place" v="locality" />
		<tag k="ssr:stedsnr" v="327130" />
	</node>
	<node id="-732287" lat="63.3119611109" lon="9.97804999006">
		<tag k="name" v="Gjæsdalen" />
		<tag k="natural" v="valley" />
		<tag k="place" v="locality" />
		<tag k="ssr:stedsnr" v="327123" />
	</node>
	<node id="-732285" lat="63.307105558" lon="9.93239721758">
		<tag k="fixme" v="consider natural=peak for the most distinct mountains in the district" />
		<tag k="name" v="Seljkammen" />
		<tag k="natural" v="hill" />
		<tag k="place" v="locality" />
		<tag k="ssr:stedsnr" v="327040" />
	</node>
	<node id="-732283" lat="63.3192833309" lon="10.0470027692">
		<tag k="name" v="Kuberget" />
		<tag k="natural" v="hill" />
		<tag k="place" v="locality" />
		<tag k="ssr:stedsnr" v="327034" />
	</node>
	<node id="-732273" lat="63.2928444457" lon="10.1138944363">
		<tag k="name" v="Seterdalen" />
		<tag k="natural" v="valley" />
		<tag k="place" v="locality" />
		<tag k="ssr:stedsnr" v="326334" />
	</node>
	<node id="-732272" lat="63.3105361093" lon="10.0053916617">
		<tag k="name" v="Tjønnmyrhaugen" />
		<tag k="natural" v="hill" />
		<tag k="place" v="locality" />
		<tag k="ssr:stedsnr" v="326124" />
	</node>
	<node id="-732263" lat="63.2249527765" lon="10.0566666746">
		<tag k="alt_name" v="Syndsvikberga" />
		<tag k="name" v="Vikaberga" />
		<tag k="natural" v="hill" />
		<tag k="place" v="locality" />
		<tag k="ssr:stedsnr" v="255253" />
	</node>
	<node id="-732262" lat="63.1951249989" lon="10.0514055507">
		<tag k="fixme" v="consider natural=peak for the most distinct mountains in the district" />
		<tag k="name" v="Rødsliåsen" />
		<tag k="natural" v="hill" />
		<tag k="place" v="locality" />
		<tag k="ssr:stedsnr" v="255202" />
	</node>
	<node id="-732260" lat="63.2400111137" lon="9.94344721468">
		<tag k="name" v="Rognålia" />
		<tag k="natural" v="slope" />
		<tag k="place" v="locality" />
		<tag k="ssr:stedsnr" v="449279" />
	</node>
	<node id="-732255" lat="63.2177527804" lon="10.0470055509">
		<tag k="fixme" v="consider natural=peak for the most distinct mountains in the district" />
		<tag k="name" v="Tommåsen" />
		<tag k="natural" v="hill" />
		<tag k="place" v="locality" />
		<tag k="ssr:stedsnr" v="449344" />
	</node>
	<node id="-732254" lat="63.2175027774" lon="10.0394305653">
		<tag k="name" v="Bikkjkleva" />
		<tag k="natural" v="hill" />
		<tag k="place" v="locality" />
		<tag k="ssr:stedsnr" v="449341" />
	</node>
	<node id="-732247" lat="63.3413138931" lon="10.0113972216">
		<tag k="fixme" v="consider natural=peak for the most distinct mountains in the district" />
		<tag k="name" v="Stykkjeskammen" />
		<tag k="natural" v="hill" />
		<tag k="place" v="locality" />
		<tag k="ssr:stedsnr" v="449174" />
	</node>
	<node id="-732241" lat="63.3213833329" lon="10.0858750026">
		<tag k="alt_name" v="Kjerkberget" />
		<tag k="name" v="Florhaugen" />
		<tag k="natural" v="hill" />
		<tag k="place" v="locality" />
		<tag k="ssr:stedsnr" v="449042" />
	</node>
	<node id="-732240" lat="63.3086083323" lon="10.2128000006">
		<tag k="name" v="Lauvåsberget" />
		<tag k="natural" v="hill" />
		<tag k="place" v="locality" />
		<tag k="ssr:stedsnr" v="449039" />
	</node>
	<node id="-732237" lat="63.1911388915" lon="9.99381111351">
		<tag k="name" v="Ersgrovkleva" />
		<tag k="natural" v="hill" />
		<tag k="place" v="locality" />
		<tag k="ssr:stedsnr" v="448432" />
	</node>
	<node id="-732232" lat="63.3045527786" lon="9.90839443657">
		<tag k="fixme" v="consider natural=peak for the most distinct mountains in the district" />
		<tag k="name" v="Årlikammen" />
		<tag k="natural" v="hill" />
		<tag k="place" v="locality" />
		<tag k="ssr:stedsnr" v="448251" />
	</node>
	<node id="-732229" lat="63.3224083357" lon="10.0279777874">
		<tag k="name" v="Vassåsen" />
		<tag k="natural" v="hill" />
		<tag k="place" v="locality" />
		<tag k="ssr:stedsnr" v="448119" />
	</node>
	<node id="-732223" lat="63.2868888922" lon="10.0657666665">
		<tag k="fixme" v="consider natural=peak for the most distinct mountains in the district" />
		<tag k="name" v="Uvåsen" />
		<tag k="natural" v="hill" />
		<tag k="place" v="locality" />
		<tag k="ssr:stedsnr" v="206178" />
	</node>
	<node id="-732222" lat="63.2823861134" lon="9.94998332837">
		<tag k="fixme" v="consider natural=peak for the most distinct mountains in the district" />
		<tag k="name" v="Vargkåsen" />
		<tag k="natural" v="hill" />
		<tag k="place" v="locality" />
		<tag k="ssr:stedsnr" v="206165" />
	</node>
	<node id="-732221" lat="63.2779194474" lon="9.94757777699">
		<tag k="name" v="Jamtslættet" />
		<tag k="place" v="locality" />
		<tag k="ssr:stedsnr" v="206161" />
	</node>
	<node id="-732219" lat="63.3229472253" lon="10.0045555624">
		<tag k="name" v="Storgagnåsdalen" />
		<tag k="natural" v="valley" />
		<tag k="place" v="locality" />
		<tag k="ssr:stedsnr" v="205222" />
	</node>
	<node id="-732218" lat="63.3393833301" lon="9.96364721294">
		<tag k="name" v="Løften" />
		<tag k="natural" v="slope" />
		<tag k="place" v="locality" />
		<tag k="ssr:stedsnr" v="205211" />
	</node>
	<node id="-732211" lat="63.2394083315" lon="10.1359527834">
		<tag k="fixme" v="consider natural=peak for the most distinct mountains in the district" />
		<tag k="name" v="Renåsen" />
		<tag k="natural" v="hill" />
		<tag k="place" v="locality" />
		<tag k="ssr:stedsnr" v="195303" />
	</node>
	<node id="-732202" lat="63.3433972267" lon="9.95415556134">
		<tag k="name" v="Holo" />
		<tag k="natural" v="valley" />
		<tag k="place" v="locality" />
		<tag k="ssr:stedsnr" v="146160" />
	</node>
	<node id="-732201" lat="63.3462555526" lon="9.97921667241">
		<tag k="name" v="Skrømtholet" />
		<tag k="natural" v="valley" />
		<tag k="place" v="locality" />
		<tag k="ssr:stedsnr" v="146154" />
	</node>
	<node id="-732183" lat="63.2780444449" lon="9.99083889019">
		<tag k="fixme" v="consider natural=peak for the most distinct mountains in the district" />
		<tag k="name" v="Massåsen" />
		<tag k="natural" v="hill" />
		<tag k="place" v="locality" />
		<tag k="ssr:stedsnr" v="267511" />
	</node>
	<node id="-732182" lat="63.1804083312" lon="10.0014222229">
		<tag k="name" v="Innerkåsen" />
		<tag k="natural" v="hill" />
		<tag k="place" v="locality" />
		<tag k="ssr:stedsnr" v="267493" />
	</node>
	<node id="-732179" lat="63.1909499985" lon="10.0241249917">
		<tag k="name" v="Morlia" />
		<tag k="natural" v="slope" />
		<tag k="place" v="locality" />
		<tag k="ssr:stedsnr" v="134212" />
	</node>
	<node id="-732170" lat="63.3263388881" lon="9.94052221278">
		<tag k="name" v="Andåslia" />
		<tag k="natural" v="slope" />
		<tag k="place" v="locality" />
		<tag k="ssr:stedsnr" v="267168" />
	</node>
	<node id="-732168" lat="63.2908833339" lon="9.95789445267">
		<tag k="name" v="Mjølhuskjølen" />
		<tag k="natural" v="ridge" />
		<tag k="place" v="locality" />
		<tag k="ssr:stedsnr" v="267110" />
	</node>
	<node id="-732167" lat="63.3165777787" lon="9.90276389327">
		<tag k="name" v="Skotthaugen" />
		<tag k="natural" v="hill" />
		<tag k="place" v="locality" />
		<tag k="ssr:stedsnr" v="267092" />
	</node>
	<node id="-732165" lat="63.1827222247" lon="9.92549444451">
		<tag k="name" v="Olashaugen" />
		<tag k="natural" v="hill" />
		<tag k="place" v="locality" />
		<tag k="ssr:stedsnr" v="266603" />
	</node>
	<node id="-732163" lat="63.2472694405" lon="10.1114722191">
		<tag k="name" v="Håkkåbakkan" />
		<tag k="natural" v="slope" />
		<tag k="place" v="locality" />
		<tag k="ssr:stedsnr" v="266413" />
	</node>
	<node id="-732161" lat="63.2178777747" lon="9.94519721458">
		<tag k="fixme" v="consider natural=peak for the most distinct mountains in the district" />
		<tag k="name" v="Solåsen" />
		<tag k="natural" v="hill" />
		<tag k="place" v="locality" />
		<tag k="ssr:stedsnr" v="266403" />
	</node>
	<node id="-732158" lat="63.1942388879" lon="10.0005916579">
		<tag k="fixme" v="consider natural=peak for the most distinct mountains in the district" />
		<tag k="name" v="Rognåsen" />
		<tag k="natural" v="hill" />
		<tag k="place" v="locality" />
		<tag k="ssr:stedsnr" v="266380" />
	</node>
	<node id="-732152" lat="63.2395638888" lon="10.0121472224">
		<tag k="fixme" v="consider natural=peak for the most distinct mountains in the district" />
		<tag k="name" v="Kuvåsåsen" />
		<tag k="natural" v="hill" />
		<tag k="place" v="locality" />
		<tag k="ssr:stedsnr" v="266285" />
	</node>
	<node id="-732151" lat="63.2597944439" lon="9.92093332547">
		<tag k="name" v="Kraftvegen" />
		<tag k="natural" v="valley" />
		<tag k="place" v="locality" />
		<tag k="ssr:stedsnr" v="266264" />
	</node>
	<node id="-732145" lat="63.3370527749" lon="9.95276666828">
		<tag k="name" v="Sanddålån" />
		<tag k="natural" v="valley" />
		<tag k="place" v="locality" />
		<tag k="ssr:stedsnr" v="266203" />
	</node>
	<node id="-732142" lat="63.3035833302" lon="10.0184472176">
		<tag k="fixme" v="consider natural=peak for the most distinct mountains in the district" />
		<tag k="name" v="Halsteinsåsen" />
		<tag k="natural" v="hill" />
		<tag k="place" v="locality" />
		<tag k="ssr:stedsnr" v="266040" />
	</node>
	<node id="-732140" lat="63.3187861096" lon="10.1933416619">
		<tag k="name" v="Brekkberga" />
		<tag k="natural" v="hill" />
		<tag k="place" v="locality" />
		<tag k="ssr:stedsnr" v="266002" />
	</node>
	<node id="-732128" lat="63.1962138916" lon="9.98050277656">
		<tag k="alt_name" v="Åsslettet" />
		<tag k="name" v="Åsslættet" />
		<tag k="place" v="locality" />
		<tag k="ssr:stedsnr" v="255191" />
	</node>
	<node id="-732124" lat="63.1881638851" lon="10.0253916612">
		<tag k="fixme" v="consider natural=peak for the most distinct mountains in the district" />
		<tag k="name" v="Svinåsen" />
		<tag k="natural" v="hill" />
		<tag k="place" v="locality" />
		<tag k="ssr:stedsnr" v="85417" />
	</node>
	<node id="-732120" lat="63.2504777804" lon="9.94707499436">
		<tag k="name" v="Geitberghaugen" />
		<tag k="natural" v="hill" />
		<tag k="place" v="locality" />
		<tag k="ssr:stedsnr" v="85221" />
	</node>
	<node id="-732119" lat="63.3327138901" lon="9.94037221662">
		<tag k="fixme" v="consider natural=peak for the most distinct mountains in the district" />
		<tag k="name" v="Buråsen" />
		<tag k="natural" v="hill" />
		<tag k="place" v="locality" />
		<tag k="ssr:stedsnr" v="85159" />
	</node>
	<node id="-732107" lat="63.3060027803" lon="10.0108833312">
		<tag k="name" v="Langvasslia" />
		<tag k="natural" v="slope" />
		<tag k="place" v="locality" />
		<tag k="ssr:stedsnr" v="84159" />
	</node>
	<node id="-732104" lat="63.2239777753" lon="9.94783889489">
		<tag k="name" v="Kvithaugen" />
		<tag k="natural" v="hill" />
		<tag k="place" v="locality" />
		<tag k="ssr:stedsnr" v="84408" />
	</node>
	<node id="-732097" lat="63.332763888" lon="10.0358194451">
		<tag k="name" v="Nonshaugen" />
		<tag k="natural" v="hill" />
		<tag k="place" v="locality" />
		<tag k="ssr:stedsnr" v="84009" />
	</node>
	<node id="-732081" lat="63.2049583351" lon="10.0967833304">
		<tag k="fixme" v="consider natural=peak for the most distinct mountains in the district" />
		<tag k="name" v="Brandåsan" />
		<tag k="natural" v="hill" />
		<tag k="place" v="locality" />
		<tag k="ssr:stedsnr" v="24507" />
	</node>
	<node id="-732078" lat="63.2964583359" lon="9.96113056469">
		<tag k="name" v="Besetlien" />
		<tag k="natural" v="slope" />
		<tag k="place" v="locality" />
		<tag k="ssr:stedsnr" v="24126" />
	</node>
	<node id="-732076" lat="63.3126888926" lon="9.94831944964">
		<tag k="name" v="Drætte" />
		<tag k="natural" v="slope" />
		<tag k="place" v="locality" />
		<tag k="ssr:stedsnr" v="24209" />
	</node>
	<node id="-732073" lat="63.3113666651" lon="9.92189722272">
		<tag k="name" v="Lia" />
		<tag k="natural" v="slope" />
		<tag k="place" v="locality" />
		<tag k="ssr:stedsnr" v="24203" />
	</node>
	<node id="-732070" lat="63.2472722247" lon="10.1005111143">
		<tag k="name" v="Storhaugen" />
		<tag k="natural" v="hill" />
		<tag k="place" v="locality" />
		<tag k="ssr:stedsnr" v="23501" />
	</node>
	<node id="-732064" lat="63.2586805558" lon="10.0318750004">
		<tag k="name" v="Skjellhaugen" />
		<tag k="natural" v="hill" />
		<tag k="place" v="locality" />
		<tag k="ssr:stedsnr" v="23405" />
	</node>
	<node id="-732063" lat="63.314202779" lon="10.1931305524">
		<tag k="name" v="Kjerkhaugen" />
		<tag k="natural" v="hill" />
		<tag k="place" v="locality" />
		<tag k="ssr:stedsnr" v="23015" />
	</node>
	<node id="-733498" lat="63.2127083314" lon="10.0978666732">
		<tag k="name" v="Liaberga" />
		<tag k="natural" v="hill" />
		<tag k="place" v="locality" />
		<tag k="ssr:stedsnr" v="874573" />
	</node>
	<node id="-733496" lat="63.3185055581" lon="10.207152782">
		<tag k="name" v="Øyberga" />
		<tag k="natural" v="hill" />
		<tag k="place" v="locality" />
		<tag k="ssr:stedsnr" v="874190" />
	</node>
	<node id="-733495" lat="63.1899805539" lon="10.0063722243">
		<tag k="fixme" v="consider natural=peak for the most distinct mountains in the district" />
		<tag k="name" v="Seteråsen" />
		<tag k="natural" v="hill" />
		<tag k="place" v="locality" />
		<tag k="ssr:stedsnr" v="873535" />
	</node>
	<node id="-733490" lat="63.224272219" lon="9.91550000913">
		<tag k="name" v="Berglia" />
		<tag k="natural" v="slope" />
		<tag k="place" v="locality" />
		<tag k="ssr:stedsnr" v="873400" />
	</node>
	<node id="-733489" lat="63.1925361143" lon="10.0121416642">
		<tag k="name" v="Ner Dalan" />
		<tag k="natural" v="valley" />
		<tag k="place" v="locality" />
		<tag k="ssr:stedsnr" v="873396" />
	</node>
	<node id="-733488" lat="63.2161166638" lon="10.0983472162">
		<tag k="name" v="Setertjønndalen" />
		<tag k="natural" v="valley" />
		<tag k="place" v="locality" />
		<tag k="ssr:stedsnr" v="873391" />
	</node>
	<node id="-733486" lat="63.2269499964" lon="10.0553861173">
		<tag k="fixme" v="consider natural=peak for the most distinct mountains in the district" />
		<tag k="name" v="Ratåsen" />
		<tag k="natural" v="hill" />
		<tag k="place" v="locality" />
		<tag k="ssr:stedsnr" v="873383" />
	</node>
	<node id="-733485" lat="63.2145722185" lon="10.0726888903">
		<tag k="name" v="Vester Tjurrudalen" />
		<tag k="natural" v="valley" />
		<tag k="place" v="locality" />
		<tag k="ssr:stedsnr" v="873378" />
	</node>
	<node id="-733481" lat="63.249427781" lon="9.93938334198">
		<tag k="fixme" v="consider natural=peak for the most distinct mountains in the district" />
		<tag k="name" v="Litltjøråsen" />
		<tag k="natural" v="hill" />
		<tag k="place" v="locality" />
		<tag k="ssr:stedsnr" v="873290" />
	</node>
	<node id="-733480" lat="63.2531611146" lon="9.9512083352">
		<tag k="name" v="Nautskardet" />
		<tag k="natural" v="valley" />
		<tag k="place" v="locality" />
		<tag k="ssr:stedsnr" v="873287" />
	</node>
	<node id="-733478" lat="63.2867722211" lon="10.021347218">
		<tag k="name" v="Sjølia" />
		<tag k="natural" v="slope" />
		<tag k="place" v="locality" />
		<tag k="ssr:stedsnr" v="873188" />
	</node>
	<node id="-733476" lat="63.2652444403" lon="9.9472833245">
		<tag k="fixme" v="consider natural=peak for the most distinct mountains in the district" />
		<tag k="name" v="Granåsen" />
		<tag k="natural" v="hill" />
		<tag k="place" v="locality" />
		<tag k="ssr:stedsnr" v="873247" />
	</node>
	<node id="-733474" lat="63.313416667" lon="9.93822221663">
		<tag k="name" v="Kammen" />
		<tag k="natural" v="hill" />
		<tag k="place" v="locality" />
		<tag k="ssr:stedsnr" v="873244" />
	</node>
	<node id="-733470" lat="63.3169194487" lon="9.908466669">
		<tag k="name" v="Purkhaugen" />
		<tag k="natural" v="hill" />
		<tag k="place" v="locality" />
		<tag k="ssr:stedsnr" v="873150" />
	</node>
	<node id="-733463" lat="63.3167944445" lon="10.0444722239">
		<tag k="name" v="Ulvdalen" />
		<tag k="natural" v="valley" />
		<tag k="place" v="locality" />
		<tag k="ssr:stedsnr" v="873036" />
	</node>
	<node id="-733460" lat="63.3273916702" lon="10.099458341">
		<tag k="fixme" v="consider natural=peak for the most distinct mountains in the district" />
		<tag k="name" v="Vikakammen" />
		<tag k="natural" v="hill" />
		<tag k="place" v="locality" />
		<tag k="ssr:stedsnr" v="873060" />
	</node>
	<node id="-733441" lat="63.1811527802" lon="9.96678056204">
		<tag k="fixme" v="consider natural=peak for the most distinct mountains in the district" />
		<tag k="name" v="Tomåsen" />
		<tag k="natural" v="hill" />
		<tag k="place" v="locality" />
		<tag k="ssr:stedsnr" v="862197" />
	</node>
	<node id="-733432" lat="63.2429222206" lon="10.0792611171">
		<tag k="name" v="Slættet" />
		<tag k="place" v="locality" />
		<tag k="ssr:stedsnr" v="813537" />
	</node>
	<node id="-733430" lat="63.3019305562" lon="10.1064388948">
		<tag k="name" v="Kjerringkjeften" />
		<tag k="natural" v="valley" />
		<tag k="place" v="locality" />
		<tag k="ssr:stedsnr" v="813525" />
	</node>
	<node id="-733428" lat="63.17258333" lon="9.98582223199">
		<tag k="fixme" v="consider natural=peak for the most distinct mountains in the district" />
		<tag k="name" v="Kvennaåsen" />
		<tag k="natural" v="hill" />
		<tag k="place" v="locality" />
		<tag k="ssr:stedsnr" v="813501" />
	</node>
	<node id="-733421" lat="63.2137500046" lon="9.94721943571">
		<tag k="fixme" v="consider natural=peak for the most distinct mountains in the district" />
		<tag k="name" v="Skjennåsen" />
		<tag k="natural" v="hill" />
		<tag k="place" v="locality" />
		<tag k="ssr:stedsnr" v="813356" />
	</node>
	<node id="-733415" lat="63.3087694452" lon="9.91343332553">
		<tag k="name" v="Damdalen" />
		<tag k="natural" v="valley" />
		<tag k="place" v="locality" />
		<tag k="ssr:stedsnr" v="813184" />
	</node>
	<node id="-733414" lat="63.3276833346" lon="9.96481944881">
		<tag k="name" v="Sjetnhaugen" />
		<tag k="natural" v="hill" />
		<tag k="place" v="locality" />
		<tag k="ssr:stedsnr" v="813175" />
	</node>
	<node id="-733413" lat="63.3271027801" lon="9.97276945097">
		<tag k="name" v="Gråtarhaugen" />
		<tag k="natural" v="hill" />
		<tag k="place" v="locality" />
		<tag k="ssr:stedsnr" v="813172" />
	</node>
	<node id="-733407" lat="63.2919694415" lon="10.0737916728">
		<tag k="name" v="Varmlien" />
		<tag k="natural" v="slope" />
		<tag k="place" v="locality" />
		<tag k="ssr:stedsnr" v="813116" />
	</node>
	<node id="-733402" lat="63.2042361148" lon="10.0272944368">
		<tag k="name" v="Gjetryggen" />
		<tag k="natural" v="ridge" />
		<tag k="place" v="locality" />
		<tag k="ssr:stedsnr" v="812636" />
	</node>
	<node id="-733398" lat="63.2098388846" lon="9.98976388395">
		<tag k="name" v="Lialykkja" />
		<tag k="natural" v="slope" />
		<tag k="place" v="locality" />
		<tag k="ssr:stedsnr" v="812621" />
	</node>
	<node id="-733395" lat="63.2345138853" lon="10.0339638871">
		<tag k="fixme" v="consider natural=peak for the most distinct mountains in the district" />
		<tag k="name" v="Syrstadberga" />
		<tag k="natural" v="hill" />
		<tag k="place" v="locality" />
		<tag k="ssr:stedsnr" v="812495" />
	</node>
	<node id="-733392" lat="63.2247999957" lon="9.96589444918">
		<tag k="name" v="Kloppmyrberga" />
		<tag k="natural" v="hill" />
		<tag k="place" v="locality" />
		<tag k="ssr:stedsnr" v="812428" />
	</node>
	<node id="-733387" lat="63.2575999963" lon="10.1061722297">
		<tag k="fixme" v="consider natural=peak for the most distinct mountains in the district" />
		<tag k="name" v="Øksenåsan" />
		<tag k="natural" v="hill" />
		<tag k="place" v="locality" />
		<tag k="ssr:stedsnr" v="812355" />
	</node>
	<node id="-733383" lat="63.2616444447" lon="9.93515556357">
		<tag k="name" v="Kjekkelslættet" />
		<tag k="place" v="locality" />
		<tag k="ssr:stedsnr" v="812276" />
	</node>
	<node id="-733382" lat="63.2659388861" lon="9.9413388874">
		<tag k="name" v="Grinålidalen" />
		<tag k="natural" v="valley" />
		<tag k="place" v="locality" />
		<tag k="ssr:stedsnr" v="812257" />
	</node>
	<node id="-733381" lat="63.3208916712" lon="9.99337777129">
		<tag k="fixme" v="consider natural=peak for the most distinct mountains in the district" />
		<tag k="name" v="Storgagnåskammen" />
		<tag k="natural" v="hill" />
		<tag k="place" v="locality" />
		<tag k="ssr:stedsnr" v="812229" />
	</node>
	<node id="-733380" lat="63.2835277777" lon="9.98165278674">
		<tag k="name" v="Panserhaugan" />
		<tag k="natural" v="hill" />
		<tag k="place" v="locality" />
		<tag k="ssr:stedsnr" v="812185" />
	</node>
	<node id="-733342" lat="63.2375805588" lon="10.0954694371">
		<tag k="fixme" v="consider natural=peak for the most distinct mountains in the district" />
		<tag k="name" v="Kjølåsen" />
		<tag k="natural" v="hill" />
		<tag k="place" v="locality" />
		<tag k="ssr:stedsnr" v="752396" />
	</node>
	<node id="-733341" lat="63.2394027759" lon="10.1033222129">
		<tag k="name" v="Hosetkamberga" />
		<tag k="natural" v="hill" />
		<tag k="place" v="locality" />
		<tag k="ssr:stedsnr" v="752395" />
	</node>
	<node id="-733339" lat="63.220858335" lon="9.92298611088">
		<tag k="name" v="Kattuggelhaugen" />
		<tag k="natural" v="hill" />
		<tag k="place" v="locality" />
		<tag k="ssr:stedsnr" v="752362" />
	</node>
	<node id="-733338" lat="63.3104222214" lon="10.0890861209">
		<tag k="name" v="Haltgrova" />
		<tag k="place" v="locality" />
		<tag k="ssr:stedsnr" v="752280" />
	</node>
	<node id="-733337" lat="63.324566665" lon="9.94325555825">
		<tag k="name" v="Tjuruhjellhaugen" />
		<tag k="natural" v="hill" />
		<tag k="place" v="locality" />
		<tag k="ssr:stedsnr" v="752192" />
	</node>
	<node id="-733333" lat="63.3158499996" lon="10.1002805648">
		<tag k="name" v="Kvennhushaugen" />
		<tag k="natural" v="hill" />
		<tag k="place" v="locality" />
		<tag k="ssr:stedsnr" v="752143" />
	</node>
	<node id="-733332" lat="63.2801638899" lon="10.0122666598">
		<tag k="fixme" v="consider natural=peak for the most distinct mountains in the district" />
		<tag k="name" v="Myrinsåsen" />
		<tag k="natural" v="hill" />
		<tag k="place" v="locality" />
		<tag k="ssr:stedsnr" v="752134" />
	</node>
	<node id="-733331" lat="63.2927222236" lon="10.0018166589">
		<tag k="fixme" v="consider natural=peak for the most distinct mountains in the district" />
		<tag k="name" v="Gildberga" />
		<tag k="natural" v="hill" />
		<tag k="place" v="locality" />
		<tag k="ssr:stedsnr" v="752116" />
	</node>
	<node id="-733329" lat="63.3158444402" lon="9.99849443434">
		<tag k="name" v="Kritdalen" />
		<tag k="natural" v="valley" />
		<tag k="place" v="locality" />
		<tag k="ssr:stedsnr" v="752110" />
	</node>
	<node id="-733324" lat="63.231183333" lon="9.92321110775">
		<tag k="fixme" v="consider natural=peak for the most distinct mountains in the district" />
		<tag k="name" v="Roåslikammen" />
		<tag k="natural" v="hill" />
		<tag k="place" v="locality" />
		<tag k="ssr:stedsnr" v="751433" />
	</node>
	<node id="-733321" lat="63.2243972245" lon="10.1140583259">
		<tag k="fixme" v="consider natural=peak for the most distinct mountains in the district" />
		<tag k="name" v="Raudmyråsen" />
		<tag k="natural" v="hill" />
		<tag k="place" v="locality" />
		<tag k="ssr:stedsnr" v="751422" />
	</node>
	<node id="-733319" lat="63.2297111111" lon="9.95590000697">
		<tag k="alt_name" v="Morkaslættet" />
		<tag k="name" v="Markaslættet" />
		<tag k="place" v="locality" />
		<tag k="ssr:stedsnr" v="751401" />
	</node>
	<node id="-733318" lat="63.2262583338" lon="10.0141972275">
		<tag k="name" v="Høgpynten" />
		<tag k="natural" v="hill" />
		<tag k="place" v="locality" />
		<tag k="ssr:stedsnr" v="751399" />
	</node>
	<node id="-733312" lat="63.2372583347" lon="9.90723610289">
		<tag k="name" v="Rørtjønnslætta" />
		<tag k="place" v="locality" />
		<tag k="ssr:stedsnr" v="751326" />
	</node>
	<node id="-733309" lat="63.2086138895" lon="10.0369277846">
		<tag k="fixme" v="consider natural=peak for the most distinct mountains in the district" />
		<tag k="name" v="Sillklevåsen" />
		<tag k="natural" v="hill" />
		<tag k="place" v="locality" />
		<tag k="ssr:stedsnr" v="751631" />
	</node>
	<node id="-733308" lat="63.1994833329" lon="10.0235611107">
		<tag k="name" v="Enkåsberga" />
		<tag k="natural" v="hill" />
		<tag k="place" v="locality" />
		<tag k="ssr:stedsnr" v="751627" />
	</node>
	<node id="-733303" lat="63.2835527817" lon="9.93934444755">
		<tag k="name" v="Verdalen" />
		<tag k="natural" v="valley" />
		<tag k="place" v="locality" />
		<tag k="ssr:stedsnr" v="741440" />
	</node>
	<node id="-733300" lat="63.2980083368" lon="10.0994361089">
		<tag k="fixme" v="consider natural=peak for the most distinct mountains in the district" />
		<tag k="name" v="Våttån" />
		<tag k="natural" v="hill" />
		<tag k="place" v="locality" />
		<tag k="ssr:stedsnr" v="741406" />
	</node>
	<node id="-733295" lat="63.2425194416" lon="10.0643194372">
		<tag k="fixme" v="consider natural=peak for the most distinct mountains in the district" />
		<tag k="name" v="Solstadåsen" />
		<tag k="natural" v="hill" />
		<tag k="place" v="locality" />
		<tag k="ssr:stedsnr" v="740249" />
	</node>
	<node id="-733292" lat="63.2076944418" lon="9.93185278699">
		<tag k="name" v="Bordalan" />
		<tag k="natural" v="valley" />
		<tag k="place" v="locality" />
		<tag k="ssr:stedsnr" v="740190" />
	</node>
	<node id="-733290" lat="63.1945018021" lon="10.0029435755">
		<tag k="fixme" v="consider natural=peak for the most distinct mountains in the district" />
		<tag k="loc_name" v="Skognakjølan" />
		<tag k="name" v="Skognakjølen" />
		<tag k="natural" v="hill" />
		<tag k="place" v="locality" />
		<tag k="ssr:stedsnr" v="740183" />
	</node>
	<node id="-733287" lat="63.1842166637" lon="9.96614444153">
		<tag k="fixme" v="consider natural=peak for the most distinct mountains in the district" />
		<tag k="name" v="Stentjønnåsen" />
		<tag k="natural" v="hill" />
		<tag k="place" v="locality" />
		<tag k="ssr:stedsnr" v="631532" />
	</node>
	<node id="-733281" lat="63.2615027764" lon="10.0587194388">
		<tag k="name" v="Smaugrindbakken" />
		<tag k="natural" v="slope" />
		<tag k="place" v="locality" />
		<tag k="ssr:stedsnr" v="630332" />
	</node>
	<node id="-733279" lat="63.2835749984" lon="9.92541389333">
		<tag k="name" v="Kolmildalen" />
		<tag k="natural" v="valley" />
		<tag k="place" v="locality" />
		<tag k="ssr:stedsnr" v="630151" />
	</node>
	<node id="-733278" lat="63.298577782" lon="9.98337778036">
		<tag k="name" v="Grandalen" />
		<tag k="natural" v="valley" />
		<tag k="place" v="locality" />
		<tag k="ssr:stedsnr" v="630147" />
	</node>
	<node id="-733275" lat="63.3427694403" lon="10.0551194533">
		<tag k="name" v="Litlsjurdalsberget" />
		<tag k="natural" v="hill" />
		<tag k="place" v="locality" />
		<tag k="ssr:stedsnr" v="630059" />
	</node>
	<node id="-733272" lat="63.1966444448" lon="9.97403610249">
		<tag k="fixme" v="consider natural=peak for the most distinct mountains in the district" />
		<tag k="name" v="Holkåsen" />
		<tag k="natural" v="hill" />
		<tag k="place" v="locality" />
		<tag k="ssr:stedsnr" v="629601" />
	</node>
	<node id="-733266" lat="63.2193083318" lon="9.95553055831">
		<tag k="fixme" v="consider natural=peak for the most distinct mountains in the district" />
		<tag k="name" v="Åsan" />
		<tag k="natural" v="hill" />
		<tag k="place" v="locality" />
		<tag k="ssr:stedsnr" v="629436" />
	</node>
	<node id="-733264" lat="63.2752583337" lon="9.96018056151">
		<tag k="name" v="Litlverdalen" />
		<tag k="natural" v="valley" />
		<tag k="place" v="locality" />
		<tag k="ssr:stedsnr" v="629239" />
	</node>
	<node id="-733259" lat="63.2602416668" lon="10.1160277718">
		<tag k="fixme" v="consider natural=peak for the most distinct mountains in the district" />
		<tag k="name" v="Djupsjøåsen" />
		<tag k="natural" v="hill" />
		<tag k="place" v="locality" />
		<tag k="ssr:stedsnr" v="620660" />
	</node>
	<node id="-733249" lat="63.3096500031" lon="10.020755552">
		<tag k="fixme" v="consider natural=peak for the most distinct mountains in the district" />
		<tag k="name" v="Langvassåsen" />
		<tag k="natural" v="hill" />
		<tag k="place" v="locality" />
		<tag k="ssr:stedsnr" v="619327" />
	</node>
	<node id="-733245" lat="63.3226638861" lon="9.92650278151">
		<tag k="name" v="Østhusdalen" />
		<tag k="natural" v="valley" />
		<tag k="place" v="locality" />
		<tag k="ssr:stedsnr" v="619310" />
	</node>
	<node id="-733241" lat="63.3254555569" lon="9.94130834126">
		<tag k="fixme" v="consider natural=peak for the most distinct mountains in the district" />
		<tag k="name" v="Andåsen" />
		<tag k="natural" v="hill" />
		<tag k="place" v="locality" />
		<tag k="ssr:stedsnr" v="619289" />
	</node>
	<node id="-733239" lat="63.2112361081" lon="10.0288805502">
		<tag k="name" v="Aunberga" />
		<tag k="natural" v="hill" />
		<tag k="place" v="locality" />
		<tag k="ssr:stedsnr" v="619239" />
	</node>
	<node id="-733222" lat="63.2069694481" lon="10.1058527705">
		<tag k="fixme" v="consider natural=peak for the most distinct mountains in the district" />
		<tag k="name" v="Gagnaunkjølen" />
		<tag k="natural" v="hill" />
		<tag k="place" v="locality" />
		<tag k="ssr:stedsnr" v="570487" />
	</node>
	<node id="-733221" lat="63.2276999985" lon="10.122977769">
		<tag k="name" v="Asphaugen" />
		<tag k="natural" v="hill" />
		<tag k="place" v="locality" />
		<tag k="ssr:stedsnr" v="570388" />
	</node>
	<node id="-733220" lat="63.2610388906" lon="10.1782277738">
		<tag k="name" v="Dråggåskurden" />
		<tag k="natural" v="slope" />
		<tag k="place" v="locality" />
		<tag k="ssr:stedsnr" v="570380" />
	</node>
	<node id="-733219" lat="63.2637444472" lon="10.1841222171">
		<tag k="fixme" v="consider natural=peak for the most distinct mountains in the district" />
		<tag k="name" v="Finnåsen" />
		<tag k="natural" v="hill" />
		<tag k="place" v="locality" />
		<tag k="ssr:stedsnr" v="570379" />
	</node>
	<node id="-733215" lat="63.2690194426" lon="10.0871416674">
		<tag k="name" v="Grøtdalen" />
		<tag k="natural" v="valley" />
		<tag k="place" v="locality" />
		<tag k="ssr:stedsnr" v="570289" />
	</node>
	<node id="-733214" lat="63.2652333299" lon="10.0928305483">
		<tag k="name" v="Svartdalen" />
		<tag k="natural" v="valley" />
		<tag k="place" v="locality" />
		<tag k="ssr:stedsnr" v="570284" />
	</node>
	<node id="-733210" lat="63.253927781" lon="9.95705554623">
		<tag k="fixme" v="consider natural=peak for the most distinct mountains in the district" />
		<tag k="name" v="Semsåsen" />
		<tag k="natural" v="hill" />
		<tag k="place" v="locality" />
		<tag k="ssr:stedsnr" v="570225" />
	</node>
	<node id="-733208" lat="63.2682166694" lon="9.90505554918">
		<tag k="name" v="Haukliholet" />
		<tag k="natural" v="valley" />
		<tag k="place" v="locality" />
		<tag k="ssr:stedsnr" v="570206" />
	</node>
	<node id="-733207" lat="63.3260694451" lon="9.94964443777">
		<tag k="name" v="Kammen" />
		<tag k="natural" v="hill" />
		<tag k="place" v="locality" />
		<tag k="ssr:stedsnr" v="570175" />
	</node>
	<node id="-733201" lat="63.2054250032" lon="10.0582527819">
		<tag k="name" v="Fleskberga" />
		<tag k="natural" v="hill" />
		<tag k="place" v="locality" />
		<tag k="ssr:stedsnr" v="569600" />
	</node>
	<node id="-733199" lat="63.2003916655" lon="9.97476111021">
		<tag k="fixme" v="consider natural=peak for the most distinct mountains in the district" />
		<tag k="name" v="Grønlipynten" />
		<tag k="natural" v="hill" />
		<tag k="ssr:stedsnr" v="569579" />
	</node>
	<node id="-733198" lat="63.2380138885" lon="10.078330551">
		<tag k="name" v="Litleisdalen" />
		<tag k="natural" v="valley" />
		<tag k="place" v="locality" />
		<tag k="ssr:stedsnr" v="569499" />
	</node>
	<node id="-733195" lat="63.2503027741" lon="10.1165583335">
		<tag k="fixme" v="consider natural=peak for the most distinct mountains in the district" />
		<tag k="name" v="Gammelseteråsen" />
		<tag k="natural" v="hill" />
		<tag k="place" v="locality" />
		<tag k="ssr:stedsnr" v="569420" />
	</node>
	<node id="-733193" lat="63.2218416649" lon="9.93189721437">
		<tag k="name" v="Kaldslættlia" />
		<tag k="natural" v="slope" />
		<tag k="place" v="locality" />
		<tag k="ssr:stedsnr" v="569394" />
	</node>
	<node id="-733192" lat="63.2183694422" lon="10.0081805462">
		<tag k="name" v="Trobakken" />
		<tag k="natural" v="slope" />
		<tag k="place" v="locality" />
		<tag k="ssr:stedsnr" v="569354" />
	</node>
	<node id="-733191" lat="63.2509777747" lon="9.92024444913">
		<tag k="fixme" v="consider natural=peak for the most distinct mountains in the district" />
		<tag k="name" v="Seteråsen" />
		<tag k="natural" v="hill" />
		<tag k="place" v="locality" />
		<tag k="ssr:stedsnr" v="569297" />
	</node>
	<node id="-733189" lat="63.2553055555" lon="9.95527221564">
		<tag k="name" v="Nautskardberget" />
		<tag k="natural" v="hill" />
		<tag k="place" v="locality" />
		<tag k="ssr:stedsnr" v="569272" />
	</node>
	<node id="-733185" lat="63.3368861069" lon="9.94165556447">
		<tag k="fixme" v="consider natural=peak for the most distinct mountains in the district" />
		<tag k="name" v="Sandkammen" />
		<tag k="natural" v="hill" />
		<tag k="place" v="locality" />
		<tag k="ssr:stedsnr" v="569045" />
	</node>
</osm>
