<?xml version="1.0" encoding="UTF-8"?>
<osm version="0.6" generator="osmapis">
	<node lat="63.32206666403829" lon="10.062291656837349" id="-43158">
		<tag k="junction" v="yes" />
		<tag k="name" v="Børskrysset" />
		<tag k="place" v="locality" />
		<tag k="ssr:stedsnr" v="26520" />
	</node>
	<node lat="63.3391250033487" lon="9.956175008775263" id="-43288">
		<tag k="highway" v="path" />
		<tag k="name" v="Setervegen" />
		<tag k="ssr:stedsnr" v="449193" />
	</node>
	<node lat="63.328036110047854" lon="9.910294441143307" id="-43313">
		<tag k="highway" v="path" />
		<tag k="name" v="Kleiva" />
		<tag k="ssr:stedsnr" v="266242" />
	</node>
	<node lat="63.25614721891454" lon="9.893294436278914" id="-43398">
		<tag k="bridge" v="yes" />
		<tag k="layer" v="1" />
		<tag k="name" v="Haukbrua" />
		<tag k="ssr:stedsnr" v="388547" />
	</node>
	<node lat="63.193305557473266" lon="9.996055557407452" id="-43430">
		<tag k="highway" v="path" />
		<tag k="name" v="Ersgroven" />
		<tag k="ssr:stedsnr" v="448625" />
	</node>
	<node lat="63.217172226038805" lon="10.031991658564802" id="-43597">
		<tag k="highway" v="path" />
		<tag k="name" v="Stenbakkan" />
		<tag k="ssr:stedsnr" v="630342" />
	</node>
	<node lat="63.23708332990593" lon="10.010058340138066" id="-43623">
		<tag k="highway" v="path" />
		<tag k="name" v="Krokstien" />
		<tag k="ssr:stedsnr" v="691300" />
	</node>
	<node lat="63.3175444425337" lon="10.076625000477307" id="-43654">
		<tag k="junction" v="yes" />
		<tag k="name" v="Meistadkrysset" />
		<tag k="old_name" v="Mestadkrysset" />
		<tag k="place" v="locality" />
		<tag k="ssr:stedsnr" v="751039" />
	</node>
	<node lat="63.307330551661174" lon="10.17362500159757" id="-43734">
		<tag k="junction" v="yes" />
		<tag k="name" v="Buvikkrysset" />
		<tag k="place" v="locality" />
		<tag k="ssr:stedsnr" v="815487" />
	</node>
	<node lat="63.269427776375515" lon="10.060391665015612" id="-43972">
		<tag k="fixme" v="consider highway=path" />
		<tag k="highway" v="track" />
		<tag k="name" v="Skorabakken" />
		<tag k="ssr:stedsnr" v="144370" />
	</node>
	<node lat="63.2179722190096" lon="10.002397221974846" id="-43979">
		<tag k="fixme" v="consider highway=path" />
		<tag k="highway" v="track" />
		<tag k="name" v="Kjerkvegen" />
		<tag k="ssr:stedsnr" v="144453" />
	</node>
	<node lat="63.29240000437644" lon="10.012674999746364" id="-44029">
		<tag k="highway" v="path" />
		<tag k="name" v="Klevåsen" />
		<tag k="ssr:stedsnr" v="206155" />
	</node>
	<node lat="63.32284444467492" lon="10.07554444774932" id="-44331">
		<tag k="bridge" v="yes" />
		<tag k="layer" v="1" />
		<tag k="name" v="Naustbrua" />
		<tag k="ssr:stedsnr" v="572740" />
	</node>
	<node lat="63.2689749997859" lon="10.010641674325203" id="-44351">
		<tag k="bridge" v="yes" />
		<tag k="layer" v="1" />
		<tag k="name" v="Myrinsbrua" />
		<tag k="ssr:stedsnr" v="630251" />
	</node>
	<node lat="63.31019444846538" lon="10.160186108086293" id="-44572">
		<tag k="bridge" v="yes" />
		<tag k="layer" v="1" />
		<tag k="name" v="Stugardsbrua" />
		<tag k="ssr:stedsnr" v="875699" />
	</node>
	<node lat="63.322577776847154" lon="10.208613883329734" id="-44574">
		<tag k="barrier" v="toll_booth" />
		<tag k="name" v="Øysand" />
		<tag k="ssr:stedsnr" v="958583" />
	</node>
</osm>
