<?xml version="1.0" encoding="UTF-8"?>
<osm version="0.6" generator="osmapis">
	<node lat="63.32443611356252" lon="10.067763893083255" id="-80430">
		<tag k="name" v="Rossvoll" />
		<tag k="place" v="farm" />
		<tag k="ssr:stedsnr" v="231275" />
	</node>
	<node lat="63.2318611097488" lon="10.040002785371112" id="-80433">
		<tag k="name" v="Trøa" />
		<tag k="place" v="farm" />
		<tag k="ssr:stedsnr" v="13301" />
	</node>
	<node lat="63.26533055286443" lon="10.165522229077242" id="-80436">
		<tag k="name" v="Stavholtlykkja" />
		<tag k="place" v="farm" />
		<tag k="ssr:stedsnr" v="23107" />
	</node>
	<node lat="63.2918222265413" lon="10.046413888858483" id="-80437">
		<tag k="name" v="Ner Rian" />
		<tag k="place" v="farm" />
		<tag k="ssr:stedsnr" v="23116" />
	</node>
	<node lat="63.22639722406718" lon="10.119463890513098" id="-80442">
		<tag k="fixme" v="consider place=hamlet" />
		<tag k="name" v="Vassbygda" />
		<tag k="place" v="village" />
		<tag k="ssr:stedsnr" v="23536" />
	</node>
	<node lat="63.3171750001013" lon="10.089686111164601" id="-80445">
		<tag k="name" v="Klunghaugen" />
		<tag k="place" v="farm" />
		<tag k="ssr:stedsnr" v="24135" />
	</node>
	<node lat="63.282672222279274" lon="10.057433328063164" id="-80446">
		<tag k="name" v="Kruthuset" />
		<tag k="place" v="isolated_dwelling" />
		<tag k="ssr:stedsnr" v="24139" />
	</node>
	<node lat="63.280244445238935" lon="10.190238884217976" id="-80452">
		<tag k="name" v="Garden" />
		<tag k="place" v="farm" />
		<tag k="ssr:stedsnr" v="24285" />
	</node>
	<node lat="63.2817222215918" lon="10.18984999442087" id="-80453">
		<tag k="name" v="Bakken" />
		<tag k="place" v="farm" />
		<tag k="ssr:stedsnr" v="24297" />
	</node>
	<node lat="63.34594444329848" lon="10.011619443886993" id="-80458">
		<tag k="name" v="Merket" />
		<tag k="place" v="farm" />
		<tag k="ssr:stedsnr" v="25175" />
	</node>
	<node lat="63.34272777599742" lon="9.997563891805555" id="-80459">
		<tag k="name" v="Tostengarden" />
		<tag k="place" v="farm" />
		<tag k="ssr:stedsnr" v="25176" />
	</node>
	<node lat="63.34562777397175" lon="9.995324992040802" id="-80460">
		<tag k="name" v="Nestu" />
		<tag k="place" v="farm" />
		<tag k="ssr:stedsnr" v="25179" />
	</node>
	<node lat="63.32558610718941" lon="10.066447219332733" id="-80463">
		<tag k="amenity" v="school" />
		<tag k="name" v="Børsa skole" />
		<tag k="ssr:stedsnr" v="40258" />
	</node>
	<node lat="63.32436944016979" lon="10.065744453193421" id="-80467">
		<tag k="fixme" v="consider place=hamlet" />
		<tag k="name" v="Rossvoll" />
		<tag k="place" v="farm" />
		<tag k="ssr:stedsnr" v="239730" />
	</node>
	<node lat="63.25511111182681" lon="10.06476388493719" id="-80469">
		<tag k="fixme" v="consider place=hamlet" />
		<tag k="name" v="Rekstad" />
		<tag k="place" v="farm" />
		<tag k="ssr:stedsnr" v="60277" />
	</node>
	<node lat="63.24276963227948" lon="10.046266925425718" id="-80470">
		<tag k="fixme" v="consider place=hamlet" />
		<tag k="name" v="Krokstad" />
		<tag k="place" v="farm" />
		<tag k="ssr:stedsnr" v="60326" />
	</node>
	<node lat="63.27184722472341" lon="10.02482222358943" id="-80471">
		<tag k="name" v="Myrin" />
		<tag k="place" v="hamlet" />
		<tag k="ssr:stedsnr" v="60681" />
	</node>
	<node lat="63.29488610926666" lon="10.036252783540727" id="-80472">
		<tag k="alt_name" v="Øver Rian" />
		<tag k="fixme" v="consider place=hamlet" />
		<tag k="name" v="Øverrian" />
		<tag k="place" v="farm" />
		<tag k="ssr:stedsnr" v="60685" />
	</node>
	<node lat="63.30314166634073" lon="9.914816659723668" id="-80473">
		<tag k="alt_name" v="Årlia" />
		<tag k="historic" v="shieling" />
		<tag k="name" v="Nord Årlia" />
		<tag k="place" v="isolated_dwelling" />
		<tag k="ssr:stedsnr" v="60718" />
	</node>
	<node lat="63.30555832954471" lon="10.156594453547015" id="-80475">
		<tag k="name" v="Snøfugl" />
		<tag k="place" v="hamlet" />
		<tag k="ssr:stedsnr" v="242243" />
	</node>
	<node lat="63.291522225626814" lon="10.175797219669237" id="-80476">
		<tag k="alt_name" v="Belsåsen" />
		<tag k="fixme" v="consider place=hamlet" />
		<tag k="name" v="Bellsåsen" />
		<tag k="place" v="farm" />
		<tag k="ssr:stedsnr" v="242245" />
	</node>
	<node lat="63.29883055877715" lon="10.195247218062692" id="-80477">
		<tag k="name" v="Valset" />
		<tag k="place" v="hamlet" />
		<tag k="ssr:stedsnr" v="242264" />
	</node>
	<node lat="63.265038798889314" lon="9.999149982744875" id="-80478">
		<tag k="fixme" v="consider place=hamlet" />
		<tag k="name" v="By" />
		<tag k="place" v="farm" />
		<tag k="ssr:stedsnr" v="242612" />
	</node>
	<node lat="63.320002236305264" lon="10.093417739574582" id="-80479">
		<tag k="name" v="Meistad" />
		<tag k="place" v="hamlet" />
		<tag k="ssr:stedsnr" v="242686" />
	</node>
	<node lat="63.28012778005222" lon="10.036361117214543" id="-80480">
		<tag k="name" v="Nordigard" />
		<tag k="place" v="farm" />
		<tag k="ssr:stedsnr" v="242663" />
	</node>
	<node lat="63.28930833689024" lon="10.180933333969366" id="-80481">
		<tag k="alt_name" v="Belsåshaugen;Nedre Belsås" />
		<tag k="name" v="Bellsåshaugen" />
		<tag k="place" v="farm" />
		<tag k="ssr:stedsnr" v="74356" />
	</node>
	<node lat="63.30369444574561" lon="10.193716670426127" id="-80484">
		<tag k="name" v="Presthus" />
		<tag k="place" v="farm" />
		<tag k="ssr:stedsnr" v="84010" />
	</node>
	<node lat="63.313110708601286" lon="10.070871745421638" id="-80485">
		<tag k="fixme" v="consider place=hamlet" />
		<tag k="name" v="Kjærem" />
		<tag k="place" v="farm" />
		<tag k="ssr:stedsnr" v="84036" />
	</node>
	<node lat="63.25627778034524" lon="10.053880555704678" id="-80490">
		<tag k="name" v="Bakkan" />
		<tag k="place" v="farm" />
		<tag k="ssr:stedsnr" v="84339" />
	</node>
	<node lat="63.254441662347574" lon="10.05640276771849" id="-80491">
		<tag k="name" v="Hauan" />
		<tag k="place" v="farm" />
		<tag k="ssr:stedsnr" v="84505" />
	</node>
	<node lat="63.25280555737573" lon="10.044558329829426" id="-80492">
		<tag k="name" v="Sandan" />
		<tag k="place" v="farm" />
		<tag k="ssr:stedsnr" v="84508" />
	</node>
	<node lat="63.24334999739043" lon="10.044074998493768" id="-80498">
		<tag k="name" v="Lykkja" />
		<tag k="place" v="farm" />
		<tag k="ssr:stedsnr" v="84494" />
	</node>
	<node lat="63.24401110856259" lon="10.03980554895944" id="-80500">
		<tag k="name" v="Gjerdet" />
		<tag k="place" v="farm" />
		<tag k="ssr:stedsnr" v="84501" />
	</node>
	<node lat="63.281688892127" lon="10.045447220954179" id="-80505">
		<tag k="name" v="Egghåggån" />
		<tag k="place" v="farm" />
		<tag k="ssr:stedsnr" v="85129" />
	</node>
	<node lat="63.292000003995035" lon="10.107988890697353" id="-80508">
		<tag k="name" v="Ner Våttålia" />
		<tag k="place" v="farm" />
		<tag k="ssr:stedsnr" v="85473" />
	</node>
	<node lat="63.28463918022667" lon="10.115673880590023" id="-80511">
		<tag k="alt_name" v="Endsætra" />
		<tag k="fixme" v="consider place=hamlet" />
		<tag k="name" v="Einsætra" />
		<tag k="place" v="farm" />
		<tag k="ssr:stedsnr" v="121263" />
	</node>
	<node lat="63.347090277628276" lon="10.021904093406008" id="-80512">
		<tag k="fixme" v="consider place=hamlet" />
		<tag k="name" v="Stykkjan" />
		<tag k="place" v="farm" />
		<tag k="ssr:stedsnr" v="121727" />
	</node>
	<node lat="63.25384733144099" lon="10.032017863371392" id="-80514">
		<tag k="alt_name" v="Kuvåsen" />
		<tag k="fixme" v="consider place=hamlet" />
		<tag k="name" v="Kuvås" />
		<tag k="place" v="farm" />
		<tag k="ssr:stedsnr" v="134161" />
	</node>
	<node lat="63.32237499862929" lon="10.046624991316566" id="-80515">
		<tag k="fixme" v="consider place=hamlet" />
		<tag k="name" v="Fossan" />
		<tag k="place" v="farm" />
		<tag k="ssr:stedsnr" v="134303" />
	</node>
	<node lat="63.28420072506029" lon="10.113198642248308" id="-80516">
		<tag k="alt_name" v="Endsætra" />
		<tag k="historic" v="shieling" />
		<tag k="name" v="Einsætra" />
		<tag k="place" v="isolated_dwelling" />
		<tag k="ssr:stedsnr" v="134406" />
	</node>
	<node lat="63.28919722366937" lon="10.104308327793989" id="-80517">
		<tag k="alt_name" v="Setran" />
		<tag k="fixme" v="consider place=hamlet" />
		<tag k="name" v="Sætran" />
		<tag k="place" v="farm" />
		<tag k="ssr:stedsnr" v="134409" />
	</node>
	<node lat="63.26470277647387" lon="10.099838890267078" id="-80518">
		<tag k="historic" v="shieling" />
		<tag k="name" v="Bakksætra" />
		<tag k="place" v="isolated_dwelling" />
		<tag k="ssr:stedsnr" v="134760" />
	</node>
	<node lat="63.331669441940214" lon="10.053333340875115" id="-80520">
		<tag k="alt_name" v="Skje" />
		<tag k="name" v="Skei" />
		<tag k="place" v="farm" />
		<tag k="ssr:stedsnr" v="255291" />
	</node>
	<node lat="63.243876752553696" lon="9.91222239207685" id="-80521">
		<tag k="alt_name" v="Byasætra, nedre" />
		<tag k="historic" v="shieling" />
		<tag k="name" v="Nedre Byasætra" />
		<tag k="place" v="isolated_dwelling" />
		<tag k="ssr:stedsnr" v="255299" />
	</node>
	<node lat="63.24208333177706" lon="9.973055553569852" id="-80522">
		<tag k="name" v="Nordlandshaugen" />
		<tag k="place" v="farm" />
		<tag k="ssr:stedsnr" v="255300" />
	</node>
	<node lat="63.33503055242924" lon="10.058727781144109" id="-80524">
		<tag k="alt_name" v="Ælistranda" />
		<tag k="fixme" v="consider place=suburb, village or hamlet" />
		<tag k="name" v="Ælesstranda" />
		<tag k="place" v="quarter" />
		<tag k="ssr:stedsnr" v="144010" />
	</node>
	<node lat="63.30659999663535" lon="10.191977781049598" id="-80525">
		<tag k="name" v="Presthus" />
		<tag k="place" v="farm" />
		<tag k="ssr:stedsnr" v="144016" />
	</node>
	<node lat="63.28412222477791" lon="10.175158342600698" id="-80526">
		<tag k="fixme" v="consider place=hamlet" />
		<tag k="name" v="Svangen" />
		<tag k="place" v="farm" />
		<tag k="ssr:stedsnr" v="255347" />
	</node>
	<node lat="63.244691670883604" lon="10.001113889743536" id="-80532">
		<tag k="name" v="Rødsbakken" />
		<tag k="place" v="farm" />
		<tag k="ssr:stedsnr" v="144305" />
	</node>
	<node lat="63.34284190992628" lon="9.999546824576056" id="-80541">
		<tag k="name" v="Oppstu" />
		<tag k="place" v="farm" />
		<tag k="ssr:stedsnr" v="146164" />
	</node>
	<node lat="63.33716666505595" lon="10.040005557787529" id="-80543">
		<tag k="name" v="Rossmo" />
		<tag k="place" v="farm" />
		<tag k="ssr:stedsnr" v="256135" />
	</node>
	<node lat="63.344380556823815" lon="9.987219441712012" id="-80545">
		<tag k="fixme" v="consider place=hamlet" />
		<tag k="name" v="Hesthåggån" />
		<tag k="old_name" v="Hesthagan" />
		<tag k="place" v="farm" />
		<tag k="ssr:stedsnr" v="256442" />
	</node>
	<node lat="63.345202773489895" lon="9.962580553716812" id="-80546">
		<tag k="name" v="Viggjahåggån" />
		<tag k="old_name" v="Viggjahagan" />
		<tag k="place" v="farm" />
		<tag k="ssr:stedsnr" v="256443" />
	</node>
	<node lat="63.291901431872994" lon="10.10601877409465" id="-80547">
		<tag k="alt_name" v="Våttålia" />
		<tag k="name" v="Øver Våttålia" />
		<tag k="place" v="farm" />
		<tag k="ssr:stedsnr" v="256333" />
	</node>
	<node lat="63.26484999569754" lon="10.052588889550337" id="-80549">
		<tag k="alt_name" v="Husbygjerdet" />
		<tag k="loc_name" v="Bjørkly" />
		<tag k="name" v="Bjørklund" />
		<tag k="place" v="farm" />
		<tag k="ssr:stedsnr" v="256713" />
	</node>
	<node lat="63.29236223928193" lon="10.107167391480667" id="-80550">
		<tag k="fixme" v="consider place=hamlet" />
		<tag k="name" v="Våttålia" />
		<tag k="place" v="farm" />
		<tag k="ssr:stedsnr" v="181276" />
	</node>
	<node lat="63.201899999488944" lon="9.95250556165559" id="-80551">
		<tag k="fixme" v="consider place=hamlet" />
		<tag k="name" v="Mellingsætra" />
		<tag k="place" v="farm" />
		<tag k="ssr:stedsnr" v="181319" />
	</node>
	<node lat="63.25528328606014" lon="9.975645486320971" id="-80552">
		<tag k="name" v="Lefstad" />
		<tag k="place" v="hamlet" />
		<tag k="ssr:stedsnr" v="181323" />
	</node>
	<node lat="63.30950278033043" lon="10.082352782086929" id="-80555">
		<tag k="alt_name" v="Krangsås" />
		<tag k="name" v="Sanden" />
		<tag k="place" v="farm" />
		<tag k="ssr:stedsnr" v="195333" />
	</node>
	<node lat="63.317363890401914" lon="10.147408334206897" id="-80556">
		<tag k="fixme" v="consider place=hamlet" />
		<tag k="name" v="Ølsholm" />
		<tag k="place" v="farm" />
		<tag k="ssr:stedsnr" v="195340" />
	</node>
	<node lat="63.25595833507442" lon="9.974025000989748" id="-80557">
		<tag k="fixme" v="consider place=hamlet" />
		<tag k="name" v="Lefstad" />
		<tag k="place" v="farm" />
		<tag k="ssr:stedsnr" v="195708" />
	</node>
	<node lat="63.2505749984287" lon="10.065008332143538" id="-80558">
		<tag k="alt_name" v="Skage" />
		<tag k="fixme" v="consider place=hamlet" />
		<tag k="name" v="Skauan" />
		<tag k="place" v="farm" />
		<tag k="ssr:stedsnr" v="195711" />
	</node>
	<node lat="63.256286109549784" lon="10.062277785155391" id="-80559">
		<tag k="fixme" v="consider place=hamlet" />
		<tag k="name" v="Husbygjerdet" />
		<tag k="place" v="farm" />
		<tag k="ssr:stedsnr" v="195712" />
	</node>
	<node lat="63.27189684519658" lon="10.19426739280511" id="-80560">
		<tag k="alt_name" v="Lera" />
		<tag k="fixme" v="consider place=hamlet" />
		<tag k="name" v="Lerånda" />
		<tag k="place" v="farm" />
		<tag k="ssr:stedsnr" v="195733" />
	</node>
	<node lat="63.345955558491625" lon="10.0379888856547" id="-80561">
		<tag k="alt_name" v="Lund" />
		<tag k="fixme" v="consider place=hamlet" />
		<tag k="name" v="Lunden" />
		<tag k="place" v="farm" />
		<tag k="ssr:stedsnr" v="195496" />
	</node>
	<node lat="63.26246274191141" lon="10.046395360558236" id="-80568">
		<tag k="name" v="Husbyegga" />
		<tag k="place" v="farm" />
		<tag k="ssr:stedsnr" v="266323" />
	</node>
	<node lat="63.25950555683585" lon="10.040127768390033" id="-80569">
		<tag k="name" v="Skjellflotten" />
		<tag k="place" v="farm" />
		<tag k="ssr:stedsnr" v="266326" />
	</node>
	<node lat="63.34109733601665" lon="9.950857889963656" id="-80575">
		<tag k="name" v="Ferni" />
		<tag k="place" v="farm" />
		<tag k="ssr:stedsnr" v="267152" />
	</node>
	<node lat="63.294089564947164" lon="10.191581045943781" id="-80577">
		<tag k="name" v="Egga" />
		<tag k="place" v="farm" />
		<tag k="ssr:stedsnr" v="267269" />
	</node>
	<node lat="63.277866668969864" lon="10.191144453261087" id="-80578">
		<tag k="name" v="Gården" />
		<tag k="place" v="farm" />
		<tag k="ssr:stedsnr" v="267271" />
	</node>
	<node lat="63.34580277351963" lon="9.975463892082484" id="-80581">
		<tag k="name" v="Skrømthølet" />
		<tag k="place" v="quarter" />
		<tag k="ssr:stedsnr" v="203303" />
	</node>
	<node lat="63.324427777647585" lon="9.97234443875311" id="-80585">
		<tag k="name" v="Sjetnan" />
		<tag k="place" v="farm" />
		<tag k="ssr:stedsnr" v="205113" />
	</node>
	<node lat="63.218713886067256" lon="9.995811107843119" id="-80591">
		<tag k="historic" v="shieling" />
		<tag k="name" v="Nilssætra" />
		<tag k="place" v="isolated_dwelling" />
		<tag k="ssr:stedsnr" v="205472" />
	</node>
	<node lat="63.32972777424904" lon="10.012177781719773" id="-80602">
		<tag k="name" v="Høgset" />
		<tag k="place" v="farm" />
		<tag k="ssr:stedsnr" v="449200" />
	</node>
	<node lat="63.264475001589076" lon="10.059883330685835" id="-80606">
		<tag k="name" v="Husbylykkja" />
		<tag k="place" v="farm" />
		<tag k="ssr:stedsnr" v="449329" />
	</node>
	<node lat="63.2632444427906" lon="10.053644437499496" id="-80607">
		<tag k="name" v="Myrlykkja" />
		<tag k="place" v="farm" />
		<tag k="ssr:stedsnr" v="449331" />
	</node>
	<node lat="63.24988610691077" lon="10.042711105851527" id="-80612">
		<tag k="name" v="Litlstu" />
		<tag k="place" v="farm" />
		<tag k="ssr:stedsnr" v="449555" />
	</node>
	<node lat="63.265691668928845" lon="9.990472222852299" id="-80615">
		<tag k="name" v="Byafeltet" />
		<tag k="place" v="quarter" />
		<tag k="ssr:stedsnr" v="241635" />
	</node>
	<node lat="63.248585771010205" lon="10.056121726418846" id="-80617">
		<tag k="alt_name" v="Nordre Solstad;Stuu" />
		<tag k="name" v="Solstad" />
		<tag k="place" v="farm" />
		<tag k="ssr:stedsnr" v="255271" />
	</node>
	<node lat="63.3354749997984" lon="10.003413882011696" id="-80618">
		<tag k="name" v="Lia" />
		<tag k="place" v="farm" />
		<tag k="ssr:stedsnr" v="255280" />
	</node>
	<node lat="63.23635555580407" lon="10.080133334441033" id="-80619">
		<tag k="name" v="Smedplassen" />
		<tag k="place" v="isolated_dwelling" />
		<tag k="ssr:stedsnr" v="255281" />
	</node>
	<node lat="63.29427499666332" lon="10.193919444622479" id="-80623">
		<tag k="name" v="Valsetgrova" />
		<tag k="place" v="farm" />
		<tag k="ssr:stedsnr" v="266037" />
	</node>
	<node lat="63.225997218342684" lon="10.125366674340938" id="-80626">
		<tag k="name" v="Sør Konstad" />
		<tag k="place" v="farm" />
		<tag k="ssr:stedsnr" v="266101" />
	</node>
	<node lat="63.265572222823856" lon="10.001836113322005" id="-80638">
		<tag k="name" v="Husan" />
		<tag k="place" v="farm" />
		<tag k="ssr:stedsnr" v="267207" />
	</node>
	<node lat="63.26167778081162" lon="9.97635833261376" id="-80639">
		<tag k="name" v="Lihaugen" />
		<tag k="place" v="isolated_dwelling" />
		<tag k="ssr:stedsnr" v="267215" />
	</node>
	<node lat="63.265988885108904" lon="9.978480552541058" id="-80640">
		<tag k="name" v="Lia" />
		<tag k="place" v="farm" />
		<tag k="ssr:stedsnr" v="267216" />
	</node>
	<node lat="63.323661112311434" lon="10.053577784077198" id="-80648">
		<tag k="name" v="Rossvollhåggån" />
		<tag k="place" v="quarter" />
		<tag k="ssr:stedsnr" v="300681" />
	</node>
	<node lat="63.24673889086441" lon="10.042372220617638" id="-80649">
		<tag k="name" v="Skålvollen" />
		<tag k="place" v="quarter" />
		<tag k="ssr:stedsnr" v="301629" />
	</node>
	<node lat="63.224094446894384" lon="10.038472231278252" id="-80652">
		<tag k="fixme" v="consider place=hamlet" />
		<tag k="name" v="Aunan" />
		<tag k="place" v="farm" />
		<tag k="ssr:stedsnr" v="303329" />
	</node>
	<node lat="63.264475001589076" lon="10.059883330685835" id="-80653">
		<tag k="fixme" v="consider place=hamlet" />
		<tag k="name" v="Husby" />
		<tag k="place" v="farm" />
		<tag k="ssr:stedsnr" v="303281" />
	</node>
	<node lat="63.317647225375936" lon="10.196963895799591" id="-80658">
		<tag k="name" v="Brekka" />
		<tag k="place" v="quarter" />
		<tag k="ssr:stedsnr" v="316298" />
	</node>
	<node lat="63.24920833682993" lon="10.042361108055559" id="-80660">
		<tag k="name" v="Syrstad" />
		<tag k="place" v="hamlet" />
		<tag k="ssr:stedsnr" v="316350" />
	</node>
	<node lat="63.25294166505197" lon="9.968225008571105" id="-80661">
		<tag k="fixme" v="consider place=hamlet" />
		<tag k="name" v="Kråkset" />
		<tag k="place" v="farm" />
		<tag k="ssr:stedsnr" v="317646" />
	</node>
	<node lat="63.24747499860072" lon="10.042697229893951" id="-80665">
		<tag k="name" v="Syrstadgrenda" />
		<tag k="place" v="hamlet" />
		<tag k="ssr:stedsnr" v="326505" />
	</node>
	<node lat="63.24707499568169" lon="10.172972231899607" id="-80670">
		<tag k="name" v="Råplassen" />
		<tag k="place" v="farm" />
		<tag k="ssr:stedsnr" v="326475" />
	</node>
	<node lat="63.29417777585902" lon="10.167413896519577" id="-80676">
		<tag k="name" v="Skardåsen" />
		<tag k="place" v="farm" />
		<tag k="ssr:stedsnr" v="327306" />
	</node>
	<node lat="63.344224997900035" lon="9.966102786473407" id="-80684">
		<tag k="name" v="Elirommet" />
		<tag k="place" v="locality" />
		<tag k="ssr:stedsnr" v="328168" />
	</node>
	<node lat="63.3427333327095" lon="9.957083341074641" id="-80685">
		<tag k="name" v="Viggjaklev" />
		<tag k="place" v="farm" />
		<tag k="ssr:stedsnr" v="328170" />
	</node>
	<node lat="63.343494444676715" lon="9.997794436841618" id="-80686">
		<tag k="name" v="Teigen" />
		<tag k="place" v="farm" />
		<tag k="ssr:stedsnr" v="328173" />
	</node>
	<node lat="63.254819446149696" lon="10.174883328032992" id="-80693">
		<tag k="fixme" v="consider place=hamlet" />
		<tag k="name" v="Vigdal" />
		<tag k="place" v="farm" />
		<tag k="ssr:stedsnr" v="363259" />
	</node>
	<node lat="63.282098709007975" lon="10.117328000905522" id="-80694">
		<tag k="fixme" v="consider place=hamlet" />
		<tag k="name" v="Naustsætra" />
		<tag k="place" v="farm" />
		<tag k="ssr:stedsnr" v="363245" />
	</node>
	<node lat="63.240333331055965" lon="10.045924999037258" id="-80695">
		<tag k="fixme" v="consider place=hamlet" />
		<tag k="name" v="Krokstad" />
		<tag k="place" v="farm" />
		<tag k="ssr:stedsnr" v="363308" />
	</node>
	<node lat="63.294576896540526" lon="10.200989944338444" id="-80696">
		<tag k="fixme" v="consider place=hamlet" />
		<tag k="name" v="Engan" />
		<tag k="old_name" v="Eggan" />
		<tag k="place" v="farm" />
		<tag k="ssr:stedsnr" v="363709" />
	</node>
	<node lat="63.20338610715792" lon="9.957047225097774" id="-80698">
		<tag k="historic" v="shieling" />
		<tag k="name" v="Mellingsætra" />
		<tag k="place" v="isolated_dwelling" />
		<tag k="ssr:stedsnr" v="376188" />
	</node>
	<node lat="63.210750001139985" lon="9.946466674931207" id="-80699">
		<tag k="historic" v="shieling" />
		<tag k="name" v="Melbysætren" />
		<tag k="place" v="isolated_dwelling" />
		<tag k="ssr:stedsnr" v="376210" />
	</node>
	<node lat="63.21983889067996" lon="10.034636120549495" id="-80700">
		<tag k="name" v="Aunmyra" />
		<tag k="place" v="farm" />
		<tag k="ssr:stedsnr" v="376231" />
	</node>
	<node lat="63.27550277746623" lon="10.184391671132838" id="-80709">
		<tag k="name" v="Øvergjerdet" />
		<tag k="place" v="farm" />
		<tag k="ssr:stedsnr" v="387106" />
	</node>
	<node lat="63.238944935161896" lon="9.983605796795668" id="-80711">
		<tag k="name" v="Utistu" />
		<tag k="place" v="farm" />
		<tag k="ssr:stedsnr" v="387305" />
	</node>
	<node lat="63.25118055240072" lon="10.04266667235817" id="-80712">
		<tag k="name" v="Sanden" />
		<tag k="place" v="farm" />
		<tag k="ssr:stedsnr" v="387514" />
	</node>
	<node lat="63.24455278113712" lon="10.057686112855334" id="-80713">
		<tag k="name" v="Innstuu" />
		<tag k="place" v="farm" />
		<tag k="ssr:stedsnr" v="387520" />
	</node>
	<node lat="63.25986944716829" lon="10.067288894856048" id="-80719">
		<tag k="name" v="Kåsa" />
		<tag k="place" v="farm" />
		<tag k="ssr:stedsnr" v="388316" />
	</node>
	<node lat="63.2563138867311" lon="10.180838895773881" id="-80724">
		<tag k="name" v="Vigdal" />
		<tag k="place" v="hamlet" />
		<tag k="ssr:stedsnr" v="485220" />
	</node>
	<node lat="63.252944939829455" lon="10.066249038725248" id="-80725">
		<tag k="fixme" v="consider place=hamlet" />
		<tag k="name" v="Rekstad" />
		<tag k="place" v="farm" />
		<tag k="ssr:stedsnr" v="485226" />
	</node>
	<node lat="63.255561109361" lon="9.976761108799531" id="-80726">
		<tag k="fixme" v="consider place=hamlet" />
		<tag k="name" v="Lefstad" />
		<tag k="place" v="farm" />
		<tag k="ssr:stedsnr" v="485259" />
	</node>
	<node lat="63.247958330041875" lon="10.041422219619422" id="-80727">
		<tag k="fixme" v="consider place=hamlet" />
		<tag k="name" v="Syrstad" />
		<tag k="place" v="farm" />
		<tag k="ssr:stedsnr" v="485278" />
	</node>
	<node lat="63.264661112744676" lon="9.909811106175033" id="-80728">
		<tag k="fixme" v="consider place=hamlet" />
		<tag k="name" v="Grønlia" />
		<tag k="place" v="farm" />
		<tag k="ssr:stedsnr" v="485605" />
	</node>
	<node lat="63.29271794622186" lon="10.036032954727842" id="-80733">
		<tag k="alt_name" v="Oppigård" />
		<tag k="name" v="Utistu" />
		<tag k="place" v="farm" />
		<tag k="ssr:stedsnr" v="485738" />
	</node>
	<node lat="63.32758733575171" lon="10.061718622091513" id="-80734">
		<tag k="name" v="Ofstad" />
		<tag k="place" v="hamlet" />
		<tag k="ssr:stedsnr" v="485684" />
	</node>
	<node lat="63.27770277493661" lon="10.132236117725473" id="-80738">
		<tag k="fixme" v="consider place=hamlet" />
		<tag k="name" v="Djupdalen" />
		<tag k="place" v="farm" />
		<tag k="ssr:stedsnr" v="424252" />
	</node>
	<node lat="63.30144166975947" lon="9.942822215529478" id="-80739">
		<tag k="fixme" v="consider place=hamlet" />
		<tag k="name" v="Sørseljen" />
		<tag k="place" v="farm" />
		<tag k="ssr:stedsnr" v="424699" />
	</node>
	<node lat="63.23849166785065" lon="10.032322219765076" id="-80741">
		<tag k="name" v="Buberg" />
		<tag k="place" v="farm" />
		<tag k="ssr:stedsnr" v="437302" />
	</node>
	<node lat="63.33277500231916" lon="10.0481805584405" id="-80742">
		<tag k="fixme" v="consider place=hamlet" />
		<tag k="name" v="Herstad" />
		<tag k="place" v="farm" />
		<tag k="ssr:stedsnr" v="437305" />
	</node>
	<node lat="63.24327500339402" lon="9.979372221131442" id="-80743">
		<tag k="fixme" v="consider place=hamlet" />
		<tag k="name" v="Nordland" />
		<tag k="place" v="farm" />
		<tag k="ssr:stedsnr" v="437323" />
	</node>
	<node lat="63.223083330722254" lon="10.026902776172447" id="-80744">
		<tag k="historic" v="shieling" />
		<tag k="name" v="Vennasætra" />
		<tag k="place" v="isolated_dwelling" />
		<tag k="ssr:stedsnr" v="437250" />
	</node>
	<node lat="63.21789999623832" lon="9.997944441572029" id="-80745">
		<tag k="historic" v="shieling" />
		<tag k="name" v="Syrstadsætra" />
		<tag k="place" v="isolated_dwelling" />
		<tag k="ssr:stedsnr" v="437253" />
	</node>
	<node lat="63.31716388912295" lon="9.95319443789329" id="-80747">
		<tag k="fixme" v="consider place=hamlet" />
		<tag k="name" v="Drætte" />
		<tag k="old_name" v="Drette" />
		<tag k="place" v="farm" />
		<tag k="ssr:stedsnr" v="438299" />
	</node>
	<node lat="63.27148332949518" lon="10.0004361015511" id="-80748">
		<tag k="fixme" v="consider place=hamlet" />
		<tag k="loc_name" v="Jylstad" />
		<tag k="name" v="Jystad" />
		<tag k="place" v="farm" />
		<tag k="ssr:stedsnr" v="438718" />
	</node>
	<node lat="63.333219445574" lon="10.049261111930022" id="-80750">
		<tag k="name" v="Herstad" />
		<tag k="place" v="farm" />
		<tag k="ssr:stedsnr" v="448006" />
	</node>
	<node lat="63.33594166895575" lon="10.048299992344885" id="-80751">
		<tag k="name" v="Lihaugen" />
		<tag k="place" v="farm" />
		<tag k="ssr:stedsnr" v="448007" />
	</node>
	<node lat="63.32329721861484" lon="10.045580565305833" id="-80754">
		<tag k="name" v="Fosshaugen" />
		<tag k="place" v="farm" />
		<tag k="ssr:stedsnr" v="448124" />
	</node>
	<node lat="63.32180833346083" lon="10.077475006538082" id="-80755">
		<tag k="name" v="Rødde" />
		<tag k="place" v="farm" />
		<tag k="ssr:stedsnr" v="448127" />
	</node>
	<node lat="63.25118888662446" lon="10.047630559915005" id="-80760">
		<tag k="alt_name" v="Vennegjerdet" />
		<tag k="name" v="Vennagjerdet" />
		<tag k="place" v="farm" />
		<tag k="ssr:stedsnr" v="448516" />
	</node>
	<node lat="63.32235277365038" lon="9.952627775684316" id="-80766">
		<tag k="name" v="Sør Andåsen" />
		<tag k="place" v="farm" />
		<tag k="ssr:stedsnr" v="449211" />
	</node>
	<node lat="63.267100004332136" lon="10.00490000664326" id="-80769">
		<tag k="name" v="Jystad" />
		<tag k="place" v="farm" />
		<tag k="ssr:stedsnr" v="449243" />
	</node>
	<node lat="63.34580833336112" lon="9.991650004492257" id="-80771">
		<tag k="name" v="Lykkja" />
		<tag k="place" v="quarter" />
		<tag k="ssr:stedsnr" v="449182" />
	</node>
	<node lat="63.29047500090175" lon="10.185147214873966" id="-80772">
		<tag k="name" v="Belsåsrønningan" />
		<tag k="place" v="farm" />
		<tag k="ssr:stedsnr" v="449306" />
	</node>
	<node lat="63.25920555962223" lon="10.057716668198168" id="-80773">
		<tag k="name" v="Rena" />
		<tag k="place" v="farm" />
		<tag k="ssr:stedsnr" v="449308" />
	</node>
	<node lat="63.25843611185215" lon="10.05506388720463" id="-80774">
		<tag k="name" v="Larstu" />
		<tag k="place" v="farm" />
		<tag k="ssr:stedsnr" v="449309" />
	</node>
	<node lat="63.27135277358381" lon="10.026247215467796" id="-80775">
		<tag k="name" v="Nystu" />
		<tag k="place" v="farm" />
		<tag k="ssr:stedsnr" v="449317" />
	</node>
	<node lat="63.26761944274256" lon="10.188813894875752" id="-80781">
		<tag k="name" v="Leregga" />
		<tag k="place" v="quarter" />
		<tag k="ssr:stedsnr" v="483662" />
	</node>
	<node lat="63.32367500345203" lon="10.04445554727414" id="-80783">
		<tag k="name" v="Fosshaugen" />
		<tag k="place" v="quarter" />
		<tag k="ssr:stedsnr" v="483667" />
	</node>
	<node lat="63.24457574055854" lon="9.9128830896457" id="-80785">
		<tag k="fixme" v="consider place=hamlet" />
		<tag k="name" v="Byasætra" />
		<tag k="place" v="farm" />
		<tag k="ssr:stedsnr" v="485593" />
	</node>
	<node lat="63.21135277369065" lon="9.924533338646524" id="-80786">
		<tag k="historic" v="shieling" />
		<tag k="name" v="Melbykjølen" />
		<tag k="place" v="isolated_dwelling" />
		<tag k="ssr:stedsnr" v="680217" />
	</node>
	<node lat="63.24482586775948" lon="10.055504406429774" id="-80791">
		<tag k="name" v="Solstad" />
		<tag k="place" v="hamlet" />
		<tag k="ssr:stedsnr" v="680285" />
	</node>
	<node lat="63.23887777790976" lon="10.073041663594093" id="-80794">
		<tag k="name" v="Båtstø" />
		<tag k="place" v="farm" />
		<tag k="ssr:stedsnr" v="680301" />
	</node>
	<node lat="63.242511110354094" lon="9.992286103484119" id="-80796">
		<tag k="fixme" v="consider place=hamlet" />
		<tag k="name" v="Melan" />
		<tag k="place" v="farm" />
		<tag k="ssr:stedsnr" v="680335" />
	</node>
	<node lat="63.31616965098453" lon="9.914529229883899" id="-80797">
		<tag k="fixme" v="consider place=hamlet" />
		<tag k="name" v="Østhus" />
		<tag k="old_name" v="Østhusen" />
		<tag k="place" v="farm" />
		<tag k="ssr:stedsnr" v="680336" />
	</node>
	<node lat="63.280502775745425" lon="10.19017778105716" id="-80799">
		<tag k="fixme" v="consider place=hamlet" />
		<tag k="name" v="Onsøya" />
		<tag k="place" v="farm" />
		<tag k="ssr:stedsnr" v="680392" />
	</node>
	<node lat="63.314874999217565" lon="10.082338892222813" id="-80800">
		<tag k="fixme" v="consider place=hamlet" />
		<tag k="name" v="Krangsås" />
		<tag k="place" v="farm" />
		<tag k="ssr:stedsnr" v="680350" />
	</node>
	<node lat="63.28742500252412" lon="10.04402222660404" id="-80802">
		<tag k="name" v="Hafella" />
		<tag k="place" v="farm" />
		<tag k="ssr:stedsnr" v="681317" />
	</node>
	<node lat="63.295730554602024" lon="10.068572230124552" id="-80804">
		<tag k="alt_name" v="Hommellia" />
		<tag k="name" v="Hummellia" />
		<tag k="place" v="farm" />
		<tag k="ssr:stedsnr" v="498402" />
	</node>
	<node lat="63.28644444482952" lon="10.08522222890353" id="-80805">
		<tag k="fixme" v="consider place=hamlet" />
		<tag k="name" v="Storset" />
		<tag k="place" v="farm" />
		<tag k="ssr:stedsnr" v="498390" />
	</node>
	<node lat="63.29794444139225" lon="10.068852776435504" id="-80808">
		<tag k="alt_name" v="Hanberglykkja" />
		<tag k="name" v="Hanbergslykkja" />
		<tag k="place" v="farm" />
		<tag k="ssr:stedsnr" v="498398" />
	</node>
	<node lat="63.2536027820636" lon="10.07960278597534" id="-80809">
		<tag k="alt_name" v="Kleivan" />
		<tag k="name" v="Klevan" />
		<tag k="place" v="farm" />
		<tag k="ssr:stedsnr" v="498737" />
	</node>
	<node lat="63.24984502303198" lon="10.026506970938387" id="-80810">
		<tag k="name" v="Kuvås" />
		<tag k="place" v="farm" />
		<tag k="ssr:stedsnr" v="498738" />
	</node>
	<node lat="63.27588333653191" lon="10.001208342045851" id="-80811">
		<tag k="fixme" v="consider place=hamlet" />
		<tag k="name" v="Mjølhus" />
		<tag k="place" v="farm" />
		<tag k="ssr:stedsnr" v="498750" />
	</node>
	<node lat="63.272619445394426" lon="10.102399990509944" id="-80812">
		<tag k="historic" v="shieling" />
		<tag k="name" v="Husbysætren" />
		<tag k="place" v="isolated_dwelling" />
		<tag k="ssr:stedsnr" v="498751" />
	</node>
	<node lat="63.2950999989021" lon="10.164169444031538" id="-80813">
		<tag k="name" v="Saltnesbakken" />
		<tag k="place" v="farm" />
		<tag k="ssr:stedsnr" v="681329" />
	</node>
	<node lat="63.29220833493535" lon="10.049199992111227" id="-80815">
		<tag k="name" v="Ner Rian" />
		<tag k="place" v="farm" />
		<tag k="ssr:stedsnr" v="508096" />
	</node>
	<node lat="63.32785277742898" lon="9.904441675485895" id="-80817">
		<tag k="name" v="Sør Litlsandan" />
		<tag k="place" v="farm" />
		<tag k="ssr:stedsnr" v="508223" />
	</node>
	<node lat="63.24899999696282" lon="10.047261109305214" id="-80818">
		<tag k="name" v="Vennagarden" />
		<tag k="place" v="farm" />
		<tag k="ssr:stedsnr" v="508102" />
	</node>
	<node lat="63.2536583353818" lon="10.177977781614592" id="-80827">
		<tag k="name" v="Vigdalsmoen" />
		<tag k="place" v="farm" />
		<tag k="ssr:stedsnr" v="508516" />
	</node>
	<node lat="63.32315666495314" lon="9.96704436385286" id="-80829">
		<tag k="name" v="Sjetnan" />
		<tag k="place" v="farm" />
		<tag k="ssr:stedsnr" v="509211" />
	</node>
	<node lat="63.31181201129842" lon="10.2078639322136" id="-80834">
		<tag k="alt_name" v="Kvennberget" />
		<tag k="name" v="Kvernberg" />
		<tag k="place" v="farm" />
		<tag k="ssr:stedsnr" v="510050" />
	</node>
	<node lat="63.272224182865315" lon="10.193322159090574" id="-80842">
		<tag k="name" v="Lerånda" />
		<tag k="place" v="hamlet" />
		<tag k="ssr:stedsnr" v="545267" />
	</node>
	<node lat="63.25667440385751" lon="10.05194018368143" id="-80843">
		<tag k="fixme" v="consider place=hamlet" />
		<tag k="name" v="Husby" />
		<tag k="place" v="farm" />
		<tag k="ssr:stedsnr" v="545281" />
	</node>
	<node lat="63.27646944834194" lon="10.143450002225737" id="-80845">
		<tag k="historic" v="shieling" />
		<tag k="name" v="Djupdalen" />
		<tag k="place" v="isolated_dwelling" />
		<tag k="ssr:stedsnr" v="558355" />
	</node>
	<node lat="63.275702775553604" lon="10.184458336215238" id="-80846">
		<tag k="name" v="Gjerdet" />
		<tag k="place" v="farm" />
		<tag k="ssr:stedsnr" v="558356" />
	</node>
	<node lat="63.32674166438494" lon="10.069186104903098" id="-80848">
		<tag k="name" v="Børsa" />
		<tag k="place" v="village" />
		<tag k="ssr:stedsnr" v="558258" />
	</node>
	<node lat="63.32436944016979" lon="10.065744453193421" id="-80849">
		<tag k="name" v="Børsa prestegard" />
		<tag k="old_name" v="Rosvoll;Rossvoll" />
		<tag k="place" v="farm" />
		<tag k="ssr:stedsnr" v="558260" />
	</node>
	<node lat="63.29769166918302" lon="10.160250001480835" id="-80850">
		<tag k="alt_name" v="Nersetra" />
		<tag k="fixme" v="multiple name tags, choose one and add the other to alt_name" />
		<tag k="name" v="Sætra;Nersætra" />
		<tag k="place" v="farm" />
		<tag k="ssr:stedsnr" v="559336" />
	</node>
	<node lat="63.34757777385229" lon="10.030230565201736" id="-80851">
		<tag k="alt_name" v="Teigen" />
		<tag k="name" v="Lundteigen" />
		<tag k="place" v="farm" />
		<tag k="ssr:stedsnr" v="559485" />
	</node>
	<node lat="63.25010494731713" lon="9.906045468371142" id="-80853">
		<tag k="fixme" v="consider place=hamlet" />
		<tag k="name" v="Hafsmoen" />
		<tag k="place" v="farm" />
		<tag k="ssr:stedsnr" v="559694" />
	</node>
	<node lat="63.25094444896023" lon="9.977183330043196" id="-80854">
		<tag k="name" v="Lefstadgjerdet" />
		<tag k="place" v="farm" />
		<tag k="ssr:stedsnr" v="559699" />
	</node>
	<node lat="63.32042499940384" lon="10.137377779082264" id="-80856">
		<tag k="name" v="Ølsholmlykkja" />
		<tag k="place" v="farm" />
		<tag k="ssr:stedsnr" v="691083" />
	</node>
	<node lat="63.276386109383594" lon="10.186944445834328" id="-80875">
		<tag k="name" v="Nergjerdet" />
		<tag k="place" v="farm" />
		<tag k="ssr:stedsnr" v="691438" />
	</node>
	<node lat="63.294586113841746" lon="10.05374999670747" id="-80893">
		<tag k="name" v="Ribakken" />
		<tag k="place" v="farm" />
		<tag k="ssr:stedsnr" v="570123" />
	</node>
	<node lat="63.25916111370312" lon="9.980497221020737" id="-80895">
		<tag k="name" v="Mo" />
		<tag k="place" v="farm" />
		<tag k="ssr:stedsnr" v="570217" />
	</node>
	<node lat="63.26127435513144" lon="10.056074195023502" id="-80896">
		<tag k="name" v="Nerstu" />
		<tag k="place" v="farm" />
		<tag k="ssr:stedsnr" v="570302" />
	</node>
	<node lat="63.324598879280074" lon="10.063340697419907" id="-80900">
		<tag k="amenity" v="school" />
		<tag k="name" v="Skaun ungdomsskole" />
		<tag k="ssr:stedsnr" v="586248" />
	</node>
	<node lat="63.306530553269724" lon="10.156236108953633" id="-80902">
		<tag k="fixme" v="consider place=hamlet" />
		<tag k="name" v="Snøfugl" />
		<tag k="place" v="farm" />
		<tag k="ssr:stedsnr" v="599298" />
	</node>
	<node lat="63.23315278121701" lon="10.042261108226441" id="-80907">
		<tag k="name" v="Krokstadhåggån" />
		<tag k="place" v="quarter" />
		<tag k="ssr:stedsnr" v="604656" />
	</node>
	<node lat="63.32504999845309" lon="10.036816671580503" id="-80908">
		<tag k="name" v="Lyngmyra" />
		<tag k="place" v="quarter" />
		<tag k="ssr:stedsnr" v="604671" />
	</node>
	<node lat="63.2506111123847" lon="10.048008328932179" id="-80909">
		<tag k="name" v="Venn" />
		<tag k="place" v="hamlet" />
		<tag k="ssr:stedsnr" v="606310" />
	</node>
	<node lat="63.341596437088214" lon="9.99915220767634" id="-80910">
		<tag k="fixme" v="consider place=hamlet" />
		<tag k="name" v="Viggja" />
		<tag k="place" v="farm" />
		<tag k="ssr:stedsnr" v="606726" />
	</node>
	<node lat="63.32720843322594" lon="10.063774705458107" id="-80911">
		<tag k="alt_name" v="Gullhaugen" />
		<tag k="fixme" v="consider place=hamlet" />
		<tag k="name" v="Ofstad" />
		<tag k="place" v="farm" />
		<tag k="ssr:stedsnr" v="606730" />
	</node>
	<node lat="63.295205559670364" lon="10.038633334476389" id="-80912">
		<tag k="name" v="Oppstu" />
		<tag k="place" v="farm" />
		<tag k="ssr:stedsnr" v="606736" />
	</node>
	<node lat="63.22755290297141" lon="10.065294003975591" id="-80913">
		<tag k="name" v="Vika" />
		<tag k="place" v="locality" />
		<tag k="ssr:stedsnr" v="618206" />
	</node>
	<node lat="63.31162278589706" lon="10.210410371422933" id="-80915">
		<tag k="alt_name" v="Kvernberget;Kvennberget" />
		<tag k="name" v="Kvernberg" />
		<tag k="place" v="farm" />
		<tag k="ssr:stedsnr" v="619299" />
	</node>
	<node lat="63.23524444577639" lon="10.004000008763292" id="-80918">
		<tag k="name" v="Klokkarlykkja" />
		<tag k="place" v="farm" />
		<tag k="ssr:stedsnr" v="619319" />
	</node>
	<node lat="63.339211111530936" lon="10.045616664675187" id="-80919">
		<tag k="name" v="Fredly" />
		<tag k="place" v="farm" />
		<tag k="ssr:stedsnr" v="619320" />
	</node>
	<node lat="63.24027777603103" lon="9.994638897232315" id="-80920">
		<tag k="alt_name" v="Bjørnstua;Søndre Mæland" />
		<tag k="loc_name" v="Søre Melan" />
		<tag k="name" v="Bjørnstu" />
		<tag k="place" v="farm" />
		<tag k="ssr:stedsnr" v="619322" />
	</node>
	<node lat="63.28221666484757" lon="10.180438881459159" id="-80922">
		<tag k="alt_name" v="Onsøyåsen" />
		<tag k="name" v="Åsen" />
		<tag k="place" v="farm" />
		<tag k="ssr:stedsnr" v="619387" />
	</node>
	<node lat="63.3081111111144" lon="10.21767499922218" id="-80923">
		<tag k="fixme" v="consider place=hamlet" />
		<tag k="name" v="Lauvåsen" />
		<tag k="place" v="farm" />
		<tag k="ssr:stedsnr" v="620274" />
	</node>
	<node lat="63.304088888100104" lon="10.135383330055813" id="-80924">
		<tag k="alt_name" v="Bøgsethaugen" />
		<tag k="name" v="Bøksethaugen" />
		<tag k="place" v="farm" />
		<tag k="ssr:stedsnr" v="620277" />
	</node>
	<node lat="63.26248610701797" lon="10.034474994920638" id="-80929">
		<tag k="name" v="Nordlia" />
		<tag k="place" v="farm" />
		<tag k="ssr:stedsnr" v="629353" />
	</node>
	<node lat="63.22747955751907" lon="10.113448402683888" id="-80932">
		<tag k="name" v="Vasshaugen" />
		<tag k="place" v="farm" />
		<tag k="ssr:stedsnr" v="629414" />
	</node>
	<node lat="63.24472777472839" lon="10.043497215041048" id="-80936">
		<tag k="name" v="Negard" />
		<tag k="place" v="farm" />
		<tag k="ssr:stedsnr" v="629490" />
	</node>
	<node lat="63.24222499887814" lon="10.046183335963441" id="-80937">
		<tag k="name" v="Søgard" />
		<tag k="place" v="farm" />
		<tag k="ssr:stedsnr" v="629493" />
	</node>
	<node lat="63.31010277723877" lon="10.186594443858755" id="-80953">
		<tag k="amenity" v="kindergarten" />
		<tag k="name" v="Pundslia barnehage" />
		<tag k="ssr:stedsnr" v="709293" />
	</node>
	<node lat="63.19206110682506" lon="9.936163885185763" id="-80955">
		<tag k="fixme" v="consider place=hamlet" />
		<tag k="name" v="Mellingsætra" />
		<tag k="place" v="farm" />
		<tag k="ssr:stedsnr" v="667311" />
	</node>
	<node lat="63.32081666311394" lon="10.055911113980628" id="-80956">
		<tag k="fixme" v="consider place=hamlet" />
		<tag k="name" v="Ljåkle" />
		<tag k="place" v="farm" />
		<tag k="ssr:stedsnr" v="667686" />
	</node>
	<node lat="63.33103055519935" lon="10.057125009812992" id="-80959">
		<tag k="fixme" v="consider place=hamlet" />
		<tag k="name" v="Jyssan" />
		<tag k="place" v="farm" />
		<tag k="ssr:stedsnr" v="680311" />
	</node>
	<node lat="63.26406110700612" lon="10.178377776765549" id="-80963">
		<tag k="fixme" v="consider place=hamlet" />
		<tag k="name" v="Klett" />
		<tag k="place" v="farm" />
		<tag k="ssr:stedsnr" v="680736" />
	</node>
	<node lat="63.271850002544504" lon="9.983466660542074" id="-80964">
		<tag k="name" v="Hafella" />
		<tag k="old_name" v="Fokset" />
		<tag k="place" v="farm" />
		<tag k="ssr:stedsnr" v="680771" />
	</node>
	<node lat="63.26317777640896" lon="9.99916111127227" id="-80972">
		<tag k="name" v="Røsan" />
		<tag k="place" v="farm" />
		<tag k="ssr:stedsnr" v="691284" />
	</node>
	<node lat="63.21742777901705" lon="9.995005564863831" id="-80974">
		<tag k="historic" v="shieling" />
		<tag k="name" v="Skåggåbakksætra" />
		<tag k="place" v="isolated_dwelling" />
		<tag k="ssr:stedsnr" v="691418" />
	</node>
	<node lat="63.244230735700874" lon="10.044846757220462" id="-80987">
		<tag k="fixme" v="consider place=hamlet" />
		<tag k="name" v="Krokstad" />
		<tag k="place" v="farm" />
		<tag k="ssr:stedsnr" v="728290" />
	</node>
	<node lat="63.2814361072902" lon="9.974452786157578" id="-80988">
		<tag k="fixme" v="consider place=hamlet" />
		<tag k="name" v="Råsen" />
		<tag k="place" v="farm" />
		<tag k="ssr:stedsnr" v="728618" />
	</node>
	<node lat="63.31812778153575" lon="10.107513894897608" id="-80989">
		<tag k="fixme" v="consider place=hamlet" />
		<tag k="name" v="Meistad" />
		<tag k="place" v="farm" />
		<tag k="ssr:stedsnr" v="728676" />
	</node>
	<node lat="63.217652782026825" lon="9.997899996115908" id="-80990">
		<tag k="historic" v="shieling" />
		<tag k="name" v="Syrstadsætren" />
		<tag k="place" v="isolated_dwelling" />
		<tag k="ssr:stedsnr" v="728720" />
	</node>
	<node lat="63.186763887898024" lon="10.013027780298133" id="-80994">
		<tag k="historic" v="shieling" />
		<tag k="name" v="Aunsætren" />
		<tag k="place" v="isolated_dwelling" />
		<tag k="ssr:stedsnr" v="741203" />
	</node>
	<node lat="63.28421667107266" lon="10.068244435255203" id="-80996">
		<tag k="fixme" v="consider place=hamlet" />
		<tag k="name" v="Uvås" />
		<tag k="place" v="farm" />
		<tag k="ssr:stedsnr" v="741408" />
	</node>
	<node lat="63.34394344522853" lon="9.99438681800578" id="-81000">
		<tag k="fixme" v="consider place=hamlet" />
		<tag k="name" v="Viggja" />
		<tag k="place" v="farm" />
		<tag k="ssr:stedsnr" v="741541" />
	</node>
	<node lat="63.264575001416006" lon="9.97405554614485" id="-81001">
		<tag k="fixme" v="consider place=hamlet" />
		<tag k="name" v="Lia" />
		<tag k="place" v="farm" />
		<tag k="ssr:stedsnr" v="741788" />
	</node>
	<node lat="63.263650003988076" lon="10.067586119015177" id="-81002">
		<tag k="name" v="Kattem" />
		<tag k="place" v="farm" />
		<tag k="ssr:stedsnr" v="741792" />
	</node>
	<node lat="63.31927850343376" lon="10.095501837092291" id="-81005">
		<tag k="name" v="Nordigard" />
		<tag k="place" v="farm" />
		<tag k="ssr:stedsnr" v="751180" />
	</node>
	<node lat="63.26221666676619" lon="10.038058335519988" id="-81008">
		<tag k="name" v="Skjellmarka" />
		<tag k="place" v="farm" />
		<tag k="ssr:stedsnr" v="751372" />
	</node>
	<node lat="63.259269442067186" lon="10.022641672238546" id="-81009">
		<tag k="name" v="Skjellåsen" />
		<tag k="place" v="farm" />
		<tag k="ssr:stedsnr" v="751377" />
	</node>
	<node lat="63.22018611117692" lon="10.025436110419218" id="-81011">
		<tag k="historic" v="shieling" />
		<tag k="name" v="Vennalykkja" />
		<tag k="place" v="isolated_dwelling" />
		<tag k="ssr:stedsnr" v="751404" />
	</node>
	<node lat="63.31719444496379" lon="9.987991660018194" id="-81019">
		<tag k="name" v="Børsa Prestegårdsskog" />
		<tag k="place" v="locality" />
		<tag k="ssr:stedsnr" v="752113" />
	</node>
	<node lat="63.26165555171502" lon="10.068022231460114" id="-81023">
		<tag k="name" v="Storstenlykkja" />
		<tag k="place" v="farm" />
		<tag k="ssr:stedsnr" v="752316" />
	</node>
	<node lat="63.26700555866009" lon="10.196838888814662" id="-81027">
		<tag k="alt_name" v="Lereggen" />
		<tag k="fixme" v="consider place=hamlet" />
		<tag k="name" v="Leregga" />
		<tag k="place" v="farm" />
		<tag k="ssr:stedsnr" v="752408" />
	</node>
	<node lat="63.25860555529332" lon="10.037983330235713" id="-81029">
		<tag k="name" v="Skjellan" />
		<tag k="place" v="farm" />
		<tag k="ssr:stedsnr" v="753513" />
	</node>
	<node lat="63.325258335298436" lon="10.045091662733396" id="-81033">
		<tag k="name" v="Hammer" />
		<tag k="place" v="quarter" />
		<tag k="ssr:stedsnr" v="770161" />
	</node>
	<node lat="63.244025004206954" lon="9.987619437781388" id="-81034">
		<tag k="name" v="Melbygjerdet" />
		<tag k="place" v="quarter" />
		<tag k="ssr:stedsnr" v="907637" />
	</node>
	<node lat="63.27326272048651" lon="10.192209239985713" id="-81038">
		<tag k="fixme" v="consider place=hamlet" />
		<tag k="name" v="Lerånda" />
		<tag k="place" v="farm" />
		<tag k="ssr:stedsnr" v="910279" />
	</node>
	<node lat="63.248354550596176" lon="10.055854602924297" id="-81039">
		<tag k="fixme" v="consider place=hamlet" />
		<tag k="name" v="Solstad" />
		<tag k="place" v="farm" />
		<tag k="ssr:stedsnr" v="910293" />
	</node>
	<node lat="63.227205553138525" lon="10.039202771643998" id="-81040">
		<tag k="fixme" v="consider place=hamlet" />
		<tag k="name" v="Aunan" />
		<tag k="place" v="farm" />
		<tag k="ssr:stedsnr" v="910325" />
	</node>
	<node lat="63.2640790434344" lon="9.994318925051939" id="-81043">
		<tag k="fixme" v="consider place=hamlet" />
		<tag k="name" v="By" />
		<tag k="place" v="farm" />
		<tag k="ssr:stedsnr" v="910639" />
	</node>
	<node lat="63.318694444082865" lon="10.06138333711599" id="-81044">
		<tag k="fixme" v="consider place=hamlet" />
		<tag k="name" v="Ljåkle" />
		<tag k="place" v="farm" />
		<tag k="ssr:stedsnr" v="910726" />
	</node>
	<node lat="63.23453610891301" lon="10.110922216686959" id="-81045">
		<tag k="fixme" v="consider place=hamlet" />
		<tag k="name" v="Hoset" />
		<tag k="place" v="farm" />
		<tag k="ssr:stedsnr" v="788297" />
	</node>
	<node lat="63.24207222157545" lon="10.053972221195522" id="-81046">
		<tag k="fixme" v="consider place=hamlet" />
		<tag k="name" v="Solstad" />
		<tag k="place" v="farm" />
		<tag k="ssr:stedsnr" v="788299" />
	</node>
	<node lat="63.30538332950228" lon="9.949416661893002" id="-81047">
		<tag k="name" v="Nordseljan" />
		<tag k="place" v="locality" />
		<tag k="ssr:stedsnr" v="788708" />
	</node>
	<node lat="63.19374444335507" lon="10.036491671108541" id="-81052">
		<tag k="alt_name" v="Synneraunsætra" />
		<tag k="historic" v="shieling" />
		<tag k="name" v="Aunsætra" />
		<tag k="place" v="isolated_dwelling" />
		<tag k="ssr:stedsnr" v="802204" />
	</node>
	<node lat="63.1881027742438" lon="10.010333337647108" id="-81053">
		<tag k="historic" v="shieling" />
		<tag k="name" v="Krokstadsætren" />
		<tag k="place" v="isolated_dwelling" />
		<tag k="ssr:stedsnr" v="802213" />
	</node>
	<node lat="63.233783331458895" lon="9.982336110625564" id="-81056">
		<tag k="fixme" v="consider place=hamlet" />
		<tag k="name" v="Mellingan" />
		<tag k="place" v="farm" />
		<tag k="ssr:stedsnr" v="802315" />
	</node>
	<node lat="63.33185832968024" lon="10.064224999432197" id="-81057">
		<tag k="fixme" v="consider place=hamlet" />
		<tag k="name" v="Æle" />
		<tag k="place" v="farm" />
		<tag k="ssr:stedsnr" v="802311" />
	</node>
	<node lat="63.31219444280862" lon="9.943469434823097" id="-81058">
		<tag k="alt_name" v="Holbekken" />
		<tag k="fixme" v="consider place=hamlet" />
		<tag k="name" v="Hølbekken" />
		<tag k="place" v="farm" />
		<tag k="ssr:stedsnr" v="802317" />
	</node>
	<node lat="63.294120550652266" lon="10.071485208990918" id="-81059">
		<tag k="name" v="Flata" />
		<tag k="place" v="farm" />
		<tag k="ssr:stedsnr" v="802377" />
	</node>
	<node lat="63.29896478297816" lon="10.197884096818111" id="-81063">
		<tag k="alt_name" v="Valset" />
		<tag k="name" v="Valset Frammigård" />
		<tag k="place" v="farm" />
		<tag k="ssr:stedsnr" v="812016" />
	</node>
	<node lat="63.32746388850942" lon="10.065977781430208" id="-81068">
		<tag k="name" v="Kjerringdalen" />
		<tag k="place" v="quarter" />
		<tag k="ssr:stedsnr" v="812142" />
	</node>
	<node lat="63.24564166442342" lon="10.056447216672016" id="-81071">
		<tag k="name" v="Garden" />
		<tag k="place" v="farm" />
		<tag k="ssr:stedsnr" v="812512" />
	</node>
	<node lat="63.3176672443258" lon="10.081807059239148" id="-81080">
		<tag k="alt_name" v="Teigen" />
		<tag k="fixme" v="consider place=hamlet" />
		<tag k="name" v="Meistadteigen" />
		<tag k="place" v="farm" />
		<tag k="ssr:stedsnr" v="813129" />
	</node>
	<node lat="63.2827583298824" lon="10.042883336301305" id="-81081">
		<tag k="alt_name" v="Slålistu" />
		<tag k="name" v="Besetlykkja" />
		<tag k="place" v="farm" />
		<tag k="ssr:stedsnr" v="813135" />
	</node>
	<node lat="63.272561107191585" lon="10.191277770015715" id="-81084">
		<tag k="name" v="Ilan" />
		<tag k="place" v="farm" />
		<tag k="ssr:stedsnr" v="813235" />
	</node>
	<node lat="63.27362778148217" lon="10.19381943966725" id="-81085">
		<tag k="name" v="Lykkja" />
		<tag k="place" v="farm" />
		<tag k="ssr:stedsnr" v="813236" />
	</node>
	<node lat="63.27080277331615" lon="10.023913894659001" id="-81086">
		<tag k="name" v="Myrinsgjerdet" />
		<tag k="place" v="farm" />
		<tag k="ssr:stedsnr" v="813292" />
	</node>
	<node lat="63.2520555539889" lon="10.065841674339488" id="-81087">
		<tag k="name" v="Tevlingan" />
		<tag k="place" v="farm" />
		<tag k="ssr:stedsnr" v="813407" />
	</node>
	<node lat="63.33528055431784" lon="10.010138884511235" id="-81094">
		<tag k="alt_name" v="Høgsetlykkja" />
		<tag k="name" v="Klemetsmoen" />
		<tag k="place" v="farm" />
		<tag k="ssr:stedsnr" v="923301" />
	</node>
	<node lat="63.19675833308549" lon="10.042338898806202" id="-81095">
		<tag k="historic" v="shieling" />
		<tag k="name" v="Dalsætra" />
		<tag k="place" v="isolated_dwelling" />
		<tag k="ssr:stedsnr" v="923232" />
	</node>
	<node lat="63.25069166221781" lon="10.141513889595446" id="-81096">
		<tag k="alt_name" v="Seteråsen" />
		<tag k="name" v="Sæteråsen" />
		<tag k="place" v="isolated_dwelling" />
		<tag k="ssr:stedsnr" v="923325" />
	</node>
	<node lat="63.31627500327629" lon="9.975125009314818" id="-81097">
		<tag k="leisure" v="pitch" />
		<tag k="name" v="Marikollen" />
		<tag k="ssr:stedsnr" v="923340" />
	</node>
	<node lat="63.316225001648256" lon="9.959947231363111" id="-81098">
		<tag k="fixme" v="consider place=hamlet" />
		<tag k="name" v="Vekta" />
		<tag k="place" v="farm" />
		<tag k="ssr:stedsnr" v="923346" />
	</node>
	<node lat="63.315709739791785" lon="10.137757369865355" id="-81099">
		<tag k="name" v="Ølsholmhåggån" />
		<tag k="old_name" v="Ølsholmhagen" />
		<tag k="place" v="farm" />
		<tag k="ssr:stedsnr" v="923352" />
	</node>
	<node lat="63.31190277939045" lon="10.075777780040283" id="-81100">
		<tag k="alt_name" v="Krangsås" />
		<tag k="name" v="Nylendet" />
		<tag k="old_name" v="Nylende" />
		<tag k="place" v="farm" />
		<tag k="ssr:stedsnr" v="923355" />
	</node>
	<node lat="63.28191190142087" lon="10.035790742146316" id="-81103">
		<tag k="alt_name" v="Egga, nordre" />
		<tag k="fixme" v="consider place=hamlet" />
		<tag k="name" v="Nordre Egga" />
		<tag k="place" v="farm" />
		<tag k="ssr:stedsnr" v="923415" />
	</node>
	<node lat="63.269038888721056" lon="10.067408343192389" id="-81105">
		<tag k="alt_name" v="Øver Bjørgan" />
		<tag k="name" v="Bjørgan" />
		<tag k="place" v="farm" />
		<tag k="ssr:stedsnr" v="923743" />
	</node>
	<node lat="63.34714722465288" lon="9.962502787028622" id="-81108">
		<tag k="name" v="Kvitskjeret" />
		<tag k="place" v="farm" />
		<tag k="ssr:stedsnr" v="924455" />
	</node>
	<node lat="63.29094444633316" lon="10.005280558046088" id="-81109">
		<tag k="fixme" v="consider place=hamlet" />
		<tag k="name" v="Espåsen" />
		<tag k="place" v="farm" />
		<tag k="ssr:stedsnr" v="924287" />
	</node>
	<node lat="63.29446110690534" lon="10.041299995183415" id="-81110">
		<tag k="name" v="Rian" />
		<tag k="place" v="hamlet" />
		<tag k="ssr:stedsnr" v="924288" />
	</node>
	<node lat="63.257244443562776" lon="9.979344442398958" id="-81111">
		<tag k="name" v="Mo" />
		<tag k="place" v="farm" />
		<tag k="ssr:stedsnr" v="924112" />
	</node>
	<node lat="63.32455278218514" lon="10.0761944511172" id="-81112">
		<tag k="name" v="Naustmelen" />
		<tag k="place" v="farm" />
		<tag k="ssr:stedsnr" v="848729" />
	</node>
	<node lat="63.24633610892239" lon="10.003066664890444" id="-81114">
		<tag k="fixme" v="consider place=hamlet" />
		<tag k="name" v="Rød" />
		<tag k="place" v="farm" />
		<tag k="ssr:stedsnr" v="862325" />
	</node>
	<node lat="63.27683055440293" lon="10.063611112398764" id="-81115">
		<tag k="fixme" v="consider place=hamlet" />
		<tag k="name" v="Eidsmo" />
		<tag k="place" v="farm" />
		<tag k="ssr:stedsnr" v="862354" />
	</node>
	<node lat="63.220872226787655" lon="10.042397214697846" id="-81118">
		<tag k="fixme" v="consider place=hamlet" />
		<tag k="name" v="Dalen" />
		<tag k="place" v="farm" />
		<tag k="ssr:stedsnr" v="862463" />
	</node>
	<node lat="63.333116668301926" lon="9.9298194480324" id="-81119">
		<tag k="fixme" v="consider place=hamlet" />
		<tag k="name" v="Skjenald" />
		<tag k="place" v="farm" />
		<tag k="ssr:stedsnr" v="863260" />
	</node>
	<node lat="63.34180277815877" lon="10.040133332027201" id="-81122">
		<tag k="name" v="Lykkja" />
		<tag k="place" v="farm" />
		<tag k="ssr:stedsnr" v="935565" />
	</node>
	<node lat="63.31913889100716" lon="10.104541673927942" id="-81124">
		<tag k="name" v="Oppistu" />
		<tag k="place" v="farm" />
		<tag k="ssr:stedsnr" v="934154" />
	</node>
	<node lat="63.26083333772596" lon="10.060952771423676" id="-81126">
		<tag k="name" v="Husbylykkja" />
		<tag k="place" v="farm" />
		<tag k="ssr:stedsnr" v="934318" />
	</node>
	<node lat="63.264150003929416" lon="9.987249998937555" id="-81129">
		<tag k="name" v="Fokset" />
		<tag k="place" v="farm" />
		<tag k="ssr:stedsnr" v="934236" />
	</node>
	<node lat="63.23795833397827" lon="9.994333337831176" id="-81130">
		<tag k="name" v="Melalykkja" />
		<tag k="place" v="farm" />
		<tag k="ssr:stedsnr" v="934242" />
	</node>
	<node lat="63.21389167074611" lon="9.984938880651907" id="-81139">
		<tag k="historic" v="shieling" />
		<tag k="name" v="Litlstusætra" />
		<tag k="place" v="isolated_dwelling" />
		<tag k="ssr:stedsnr" v="934378" />
	</node>
	<node lat="63.27423888614133" lon="10.187194436171424" id="-81143">
		<tag k="name" v="Bruaunet" />
		<tag k="place" v="farm" />
		<tag k="ssr:stedsnr" v="934249" />
	</node>
	<node lat="63.34443333513301" lon="10.000455563773018" id="-81147">
		<tag k="name" v="Sand" />
		<tag k="place" v="farm" />
		<tag k="ssr:stedsnr" v="935173" />
	</node>
	<node lat="63.31725507826903" lon="10.083409563117135" id="-81149">
		<tag k="name" v="Teigen" />
		<tag k="place" v="farm" />
		<tag k="ssr:stedsnr" v="910704" />
	</node>
	<node lat="63.23068889153429" lon="10.009116658675525" id="-81150">
		<tag k="alt_name" v="Kuvåssetra" />
		<tag k="fixme" v="consider place=hamlet" />
		<tag k="name" v="Kuvåssætra" />
		<tag k="place" v="farm" />
		<tag k="ssr:stedsnr" v="922227" />
	</node>
	<node lat="63.337558332884086" lon="9.989127776049271" id="-81153">
		<tag k="name" v="Dalen" />
		<tag k="place" v="farm" />
		<tag k="ssr:stedsnr" v="923303" />
	</node>
	<node lat="63.34479166743047" lon="10.046674990066188" id="-81155">
		<tag k="name" v="Vikan" />
		<tag k="place" v="farm" />
		<tag k="ssr:stedsnr" v="924446" />
	</node>
	<node lat="63.25677499755231" lon="10.075797220612898" id="-81156">
		<tag k="name" v="Rekstadåsen" />
		<tag k="place" v="farm" />
		<tag k="ssr:stedsnr" v="924682" />
	</node>
	<node lat="63.25361776927431" lon="10.065496597794068" id="-81157">
		<tag k="name" v="Rekstad" />
		<tag k="place" v="farm" />
		<tag k="ssr:stedsnr" v="924685" />
	</node>
	<node lat="63.3119722204636" lon="10.157222215142715" id="-81158">
		<tag k="name" v="Oterhaugen" />
		<tag k="place" v="farm" />
		<tag k="ssr:stedsnr" v="934022" />
	</node>
	<node lat="63.30068888843508" lon="9.93904723003842" id="-81171">
		<tag k="name" v="Sørseljan" />
		<tag k="old_name" v="Sørseljen" />
		<tag k="place" v="locality" />
		<tag k="ssr:stedsnr" v="934210" />
	</node>
	<node lat="63.2697638914161" lon="9.99218332711125" id="-81175">
		<tag k="name" v="Jystadlykkja" />
		<tag k="place" v="farm" />
		<tag k="ssr:stedsnr" v="934225" />
	</node>
	<node lat="63.256994443960565" lon="9.967991665085568" id="-81179">
		<tag k="name" v="Moslykkja" />
		<tag k="place" v="farm" />
		<tag k="ssr:stedsnr" v="934233" />
	</node>
	<node lat="63.28838888824351" lon="10.189397222047516" id="-81183">
		<tag k="name" v="Tåa" />
		<tag k="place" v="farm" />
		<tag k="ssr:stedsnr" v="934292" />
	</node>
	<node lat="63.24597500108819" lon="10.038452768255128" id="-81184">
		<tag k="name" v="Kalvhåggån" />
		<tag k="place" v="farm" />
		<tag k="ssr:stedsnr" v="934409" />
	</node>
	<node lat="63.32502951543099" lon="9.979406755619433" id="-81195">
		<tag k="name" v="Sjetnan" />
		<tag k="place" v="farm" />
		<tag k="ssr:stedsnr" v="978936" />
	</node>
	<node lat="63.23304396862763" lon="10.128091530170137" id="-81196">
		<tag k="name" v="Høve" />
		<tag k="place" v="farm" />
		<tag k="ssr:stedsnr" v="978937" />
	</node>
	<node lat="63.233827779571655" lon="9.981083325512902" id="-81226">
		<tag k="fixme" v="consider place=hamlet" />
		<tag k="name" v="Råbygda" />
		<tag k="place" v="village" />
		<tag k="ssr:stedsnr" v="12241" />
	</node>
	<node lat="63.240652778018905" lon="9.918061102151679" id="-81227">
		<tag k="historic" v="shieling" />
		<tag k="loc_name" v="Sortlandssætra" />
		<tag k="name" v="Svorklandsætra" />
		<tag k="place" v="isolated_dwelling" />
		<tag k="ssr:stedsnr" v="12247" />
	</node>
	<node lat="63.25545555259767" lon="9.98131389474459" id="-81230">
		<tag k="alt_name" v="Kåsan" />
		<tag k="name" v="Mo" />
		<tag k="place" v="farm" />
		<tag k="ssr:stedsnr" v="13148" />
	</node>
	<node lat="63.29405481162394" lon="10.199977728231753" id="-81232">
		<tag k="name" v="Engan" />
		<tag k="old_name" v="Eggan" />
		<tag k="place" v="farm" />
		<tag k="ssr:stedsnr" v="13343" />
	</node>
	<node lat="63.32396111456718" lon="9.953561113105216" id="-81233">
		<tag k="alt_name" v="Nord Andåsen" />
		<tag k="fixme" v="consider place=hamlet" />
		<tag k="name" v="Andåsen" />
		<tag k="place" v="farm" />
		<tag k="ssr:stedsnr" v="13275" />
	</node>
	<node lat="63.23290555180974" lon="10.099469441043242" id="-81234">
		<tag k="alt_name" v="Eidslia" />
		<tag k="fixme" v="consider place=hamlet" />
		<tag k="name" v="Eidsli" />
		<tag k="place" v="farm" />
		<tag k="ssr:stedsnr" v="13287" />
	</node>
	<node lat="63.32863333253373" lon="9.908424992528541" id="-81235">
		<tag k="alt_name" v="Litlsanden" />
		<tag k="fixme" v="consider place=hamlet" />
		<tag k="name" v="Litlsandan" />
		<tag k="place" v="farm" />
		<tag k="ssr:stedsnr" v="13291" />
	</node>
	<node lat="63.2406555571769" lon="10.045294445898662" id="-81237">
		<tag k="name" v="Aunet" />
		<tag k="place" v="farm" />
		<tag k="ssr:stedsnr" v="13300" />
	</node>
	<node lat="63.295894446497655" lon="10.048611107522756" id="-81238">
		<tag k="fixme" v="multiple name tags, choose one and add the other to alt_name" />
		<tag k="name" v="Ner Rian;Gammelgarden" />
		<tag k="old_name" v="Gammalgarden" />
		<tag k="place" v="farm" />
		<tag k="ssr:stedsnr" v="13374" />
	</node>
	<node lat="63.281330554498055" lon="10.049941669151266" id="-81239">
		<tag k="fixme" v="consider place=suburb, village or hamlet" />
		<tag k="name" v="Eggkleiva" />
		<tag k="place" v="quarter" />
		<tag k="ssr:stedsnr" v="13379" />
	</node>
	<node lat="63.2871018446871" lon="10.033259796885398" id="-81240">
		<tag k="fixme" v="consider place=hamlet" />
		<tag k="name" v="Beset" />
		<tag k="place" v="farm" />
		<tag k="ssr:stedsnr" v="13353" />
	</node>
	<node lat="63.26438889114661" lon="10.00831944503665" id="-81242">
		<tag k="fixme" v="consider place=hamlet" />
		<tag k="name" v="Otterstad" />
		<tag k="place" v="farm" />
		<tag k="ssr:stedsnr" v="13758" />
	</node>
	<node lat="63.3183722247636" lon="10.106483332235014" id="-81244">
		<tag k="name" v="Trøa" />
		<tag k="place" v="farm" />
		<tag k="ssr:stedsnr" v="23200" />
	</node>
	<node lat="63.30263610963863" lon="10.062505548497223" id="-81250">
		<tag k="name" v="Hanbergsgjerdet" />
		<tag k="place" v="farm" />
		<tag k="ssr:stedsnr" v="23031" />
	</node>
	<node lat="63.26983611538944" lon="9.97869444670401" id="-81252">
		<tag k="name" v="Foksetåsen" />
		<tag k="place" v="locality" />
		<tag k="ssr:stedsnr" v="23298" />
	</node>
	<node lat="63.30537500011573" lon="10.13269443550917" id="-81256">
		<tag k="name" v="Haugarommet" />
		<tag k="place" v="isolated_dwelling" />
		<tag k="ssr:stedsnr" v="23374" />
	</node>
	<node lat="63.22772777592757" lon="10.040824998908445" id="-81257">
		<tag k="name" v="Nordaunan" />
		<tag k="place" v="farm" />
		<tag k="ssr:stedsnr" v="23447" />
	</node>
	<node lat="63.246122219116266" lon="10.059941674612448" id="-81261">
		<tag k="name" v="Berge" />
		<tag k="place" v="farm" />
		<tag k="ssr:stedsnr" v="23554" />
	</node>
	<node lat="63.25431944415127" lon="9.97186111899568" id="-81270">
		<tag k="name" v="Maurhaugen" />
		<tag k="place" v="farm" />
		<tag k="ssr:stedsnr" v="24253" />
	</node>
	<node lat="63.257849999675905" lon="10.05129723208825" id="-81282">
		<tag k="name" v="Lia" />
		<tag k="place" v="farm" />
		<tag k="ssr:stedsnr" v="25557" />
	</node>
	<node lat="63.31964722528847" lon="9.928566667704521" id="-81285">
		<tag k="fixme" v="consider place=hamlet" />
		<tag k="name" v="Åsen" />
		<tag k="place" v="farm" />
		<tag k="ssr:stedsnr" v="60728" />
	</node>
	<node lat="63.31170723744566" lon="10.209251618346443" id="-81286">
		<tag k="alt_name" v="Kvernberg" />
		<tag k="fixme" v="consider place=hamlet" />
		<tag k="name" v="Kvernberget" />
		<tag k="place" v="farm" />
		<tag k="ssr:stedsnr" v="60267" />
	</node>
	<node lat="63.2488555535967" lon="10.046591666316315" id="-81287">
		<tag k="fixme" v="consider place=hamlet" />
		<tag k="name" v="Venn" />
		<tag k="place" v="farm" />
		<tag k="ssr:stedsnr" v="60333" />
	</node>
	<node lat="63.34555258152928" lon="9.997361719636295" id="-81288">
		<tag k="fixme" v="consider place=hamlet" />
		<tag k="name" v="Viggja" />
		<tag k="place" v="farm" />
		<tag k="ssr:stedsnr" v="60747" />
	</node>
	<node lat="63.222400001651025" lon="10.11377500616592" id="-81291">
		<tag k="name" v="Konstadlykkja" />
		<tag k="place" v="farm" />
		<tag k="ssr:stedsnr" v="73228" />
	</node>
	<node lat="63.232658335157105" lon="10.131627782062687" id="-81293">
		<tag k="name" v="Sandvika" />
		<tag k="ssr:stedsnr" v="73243" />
		<tag k="tourism" v="camp_site" />
	</node>
	<node lat="63.30513889077845" lon="10.143827778272312" id="-81298">
		<tag k="alt_name" v="Bøgset" />
		<tag k="fixme" v="consider place=hamlet" />
		<tag k="name" v="Bøkset" />
		<tag k="place" v="farm" />
		<tag k="ssr:stedsnr" v="74294" />
	</node>
	<node lat="63.262350001291246" lon="9.984063893209177" id="-81303">
		<tag k="fixme" v="consider place=hamlet" />
		<tag k="loc_name" v="Sortland" />
		<tag k="name" v="Svorkland" />
		<tag k="place" v="farm" />
		<tag k="ssr:stedsnr" v="74721" />
	</node>
	<node lat="63.25962772959111" lon="9.971074957237755" id="-81304">
		<tag k="alt_name" v="Morka" />
		<tag k="fixme" v="consider place=hamlet" />
		<tag k="name" v="Morken" />
		<tag k="place" v="farm" />
		<tag k="ssr:stedsnr" v="74723" />
	</node>
	<node lat="63.29935278123527" lon="10.190538897960224" id="-81315">
		<tag k="fixme" v="consider place=hamlet" />
		<tag k="name" v="Valset" />
		<tag k="place" v="farm" />
		<tag k="ssr:stedsnr" v="84014" />
	</node>
	<node lat="63.306360278996934" lon="10.17539431175473" id="-81317">
		<tag k="name" v="Negard" />
		<tag k="place" v="farm" />
		<tag k="ssr:stedsnr" v="84027" />
	</node>
	<node lat="63.33208888884112" lon="9.984027769350046" id="-81318">
		<tag k="name" v="Nord Hellbekken" />
		<tag k="place" v="farm" />
		<tag k="ssr:stedsnr" v="84128" />
	</node>
	<node lat="63.28591944416351" lon="9.936255565073076" id="-81319">
		<tag k="historic" v="shieling" />
		<tag k="name" v="Jystadsætra" />
		<tag k="place" v="isolated_dwelling" />
		<tag k="ssr:stedsnr" v="85113" />
	</node>
	<node lat="63.26023421005315" lon="9.918185036691488" id="-81321">
		<tag k="name" v="Skreddarlykkja" />
		<tag k="place" v="farm" />
		<tag k="ssr:stedsnr" v="84269" />
	</node>
	<node lat="63.224658021762174" lon="9.998710156852233" id="-81324">
		<tag k="name" v="Vamyra" />
		<tag k="place" v="farm" />
		<tag k="ssr:stedsnr" v="84365" />
	</node>
	<node lat="63.34179721999372" lon="9.953833331233252" id="-81329">
		<tag k="name" v="Kåsen" />
		<tag k="place" v="farm" />
		<tag k="ssr:stedsnr" v="85137" />
	</node>
	<node lat="63.344513888990384" lon="9.995091667871922" id="-81330">
		<tag k="name" v="Oppigard" />
		<tag k="place" v="farm" />
		<tag k="ssr:stedsnr" v="85141" />
	</node>
	<node lat="63.346433333444985" lon="9.982977769175335" id="-81331">
		<tag k="name" v="Kleivan" />
		<tag k="place" v="quarter" />
		<tag k="ssr:stedsnr" v="85144" />
	</node>
	<node lat="63.33885698725459" lon="10.006304609797777" id="-81332">
		<tag k="name" v="Slåkkån" />
		<tag k="place" v="farm" />
		<tag k="ssr:stedsnr" v="85155" />
	</node>
	<node lat="63.283627773727964" lon="10.175216675606894" id="-81337">
		<tag k="name" v="Svangen" />
		<tag k="place" v="farm" />
		<tag k="ssr:stedsnr" v="85235" />
	</node>
	<node lat="63.28529167017066" lon="10.18655833970986" id="-81339">
		<tag k="name" v="Trøa" />
		<tag k="place" v="farm" />
		<tag k="ssr:stedsnr" v="85255" />
	</node>
	<node lat="63.2705472253512" lon="10.019211111666742" id="-81340">
		<tag k="name" v="Flatgjerdet" />
		<tag k="place" v="farm" />
		<tag k="ssr:stedsnr" v="85265" />
	</node>
	<node lat="63.29726141244722" lon="10.160338325174193" id="-81344">
		<tag k="alt_name" v="Nersætra" />
		<tag k="fixme" v="consider place=hamlet" />
		<tag k="name" v="Sætra" />
		<tag k="place" v="farm" />
		<tag k="ssr:stedsnr" v="121258" />
	</node>
	<node lat="63.29864885831794" lon="10.161509877844674" id="-81345">
		<tag k="alt_name" v="Øversetra;Øversætra" />
		<tag k="fixme" v="consider place=hamlet" />
		<tag k="name" v="Sætra" />
		<tag k="place" v="farm" />
		<tag k="ssr:stedsnr" v="121261" />
	</node>
	<node lat="63.310311115068465" lon="10.154950006412882" id="-81346">
		<tag k="fixme" v="consider place=hamlet" />
		<tag k="name" v="Hammer" />
		<tag k="place" v="farm" />
		<tag k="ssr:stedsnr" v="121490" />
	</node>
	<node lat="63.34557626189177" lon="9.992447473192467" id="-81347">
		<tag k="fixme" v="consider place=hamlet" />
		<tag k="name" v="Viggja" />
		<tag k="place" v="farm" />
		<tag k="ssr:stedsnr" v="121735" />
	</node>
	<node lat="63.33526112275878" lon="10.000914073343331" id="-81348">
		<tag k="fixme" v="consider place=hamlet" />
		<tag k="name" v="Viggja" />
		<tag k="place" v="farm" />
		<tag k="ssr:stedsnr" v="121737" />
	</node>
	<node lat="63.232974996276674" lon="10.113644450257244" id="-81349">
		<tag k="name" v="Hoset" />
		<tag k="place" v="farm" />
		<tag k="ssr:stedsnr" v="134315" />
	</node>
	<node lat="63.33186389193888" lon="10.002772226990153" id="-81350">
		<tag k="fixme" v="consider place=hamlet" />
		<tag k="name" v="Engan" />
		<tag k="place" v="farm" />
		<tag k="ssr:stedsnr" v="134316" />
	</node>
	<node lat="63.33160000408939" lon="9.985288894143448" id="-81351">
		<tag k="fixme" v="consider place=hamlet" />
		<tag k="name" v="Helbekken" />
		<tag k="place" v="farm" />
		<tag k="ssr:stedsnr" v="134319" />
	</node>
	<node lat="63.237059574887276" lon="9.981929342145158" id="-81352">
		<tag k="name" v="Melby" />
		<tag k="place" v="hamlet" />
		<tag k="ssr:stedsnr" v="134325" />
	</node>
	<node lat="63.307608335851675" lon="10.072150002024417" id="-81353">
		<tag k="fixme" v="consider place=hamlet" />
		<tag k="name" v="Kjærem" />
		<tag k="place" v="farm" />
		<tag k="ssr:stedsnr" v="134346" />
	</node>
	<node lat="63.32438903733338" lon="10.056496039402912" id="-81354">
		<tag k="fixme" v="consider place=hamlet" />
		<tag k="name" v="Hammer" />
		<tag k="place" v="farm" />
		<tag k="ssr:stedsnr" v="134301" />
	</node>
	<node lat="63.291375003803914" lon="10.068074990725933" id="-81355">
		<tag k="fixme" v="multiple name tags, choose one and add the other to alt_name" />
		<tag k="name" v="Myra;Nordlykkja" />
		<tag k="place" v="farm" />
		<tag k="ssr:stedsnr" v="134378" />
	</node>
	<node lat="63.25501111318682" lon="9.939311104869335" id="-81356">
		<tag k="name" v="Kaståsen" />
		<tag k="place" v="farm" />
		<tag k="ssr:stedsnr" v="134713" />
	</node>
	<node lat="63.25536666904283" lon="9.98738610747392" id="-81357">
		<tag k="alt_name" v="Mo" />
		<tag k="name" v="Mosgjerdet" />
		<tag k="place" v="farm" />
		<tag k="ssr:stedsnr" v="134716" />
	</node>
	<node lat="63.253119440260065" lon="9.978072229848733" id="-81358">
		<tag k="name" v="Lefstadteigen" />
		<tag k="place" v="farm" />
		<tag k="ssr:stedsnr" v="134720" />
	</node>
	<node lat="63.25832777714389" lon="9.980077778827738" id="-81359">
		<tag k="name" v="Jåren" />
		<tag k="place" v="farm" />
		<tag k="ssr:stedsnr" v="134723" />
	</node>
	<node lat="63.3109583371416" lon="10.161033334350961" id="-81360">
		<tag k="name" v="Stugarden" />
		<tag k="place" v="farm" />
		<tag k="ssr:stedsnr" v="144035" />
	</node>
	<node lat="63.2701027746818" lon="10.006591675675494" id="-81381">
		<tag k="name" v="Jystadmyran" />
		<tag k="place" v="farm" />
		<tag k="ssr:stedsnr" v="145240" />
	</node>
	<node lat="63.273252781549644" lon="10.035405556915832" id="-81386">
		<tag k="name" v="Myrinstangen" />
		<tag k="place" v="farm" />
		<tag k="ssr:stedsnr" v="145314" />
	</node>
	<node lat="63.31125555632869" lon="10.181811110228193" id="-81392">
		<tag k="amenity" v="school" />
		<tag k="name" v="Buvik skole" />
		<tag k="ssr:stedsnr" v="161252" />
	</node>
	<node lat="63.32351388495316" lon="10.039219452370716" id="-81400">
		<tag k="name" v="Osphaugen" />
		<tag k="place" v="quarter" />
		<tag k="ssr:stedsnr" v="180638" />
	</node>
	<node lat="63.327191662395144" lon="10.04210555426941" id="-81401">
		<tag k="name" v="Fjellhaugvegen" />
		<tag k="place" v="quarter" />
		<tag k="ssr:stedsnr" v="180640" />
	</node>
	<node lat="63.26060896301054" lon="10.055217435263673" id="-81402">
		<tag k="fixme" v="consider place=hamlet" />
		<tag k="name" v="Husby" />
		<tag k="place" v="farm" />
		<tag k="ssr:stedsnr" v="181294" />
	</node>
	<node lat="63.294219441888934" lon="10.048794437264238" id="-81403">
		<tag k="alt_name" v="Ner Rian" />
		<tag k="fixme" v="consider place=hamlet" />
		<tag k="name" v="Nerrian" />
		<tag k="place" v="farm" />
		<tag k="ssr:stedsnr" v="181748" />
	</node>
	<node lat="63.31793611529881" lon="10.053549995161521" id="-81404">
		<tag k="fixme" v="consider place=hamlet" />
		<tag k="name" v="Ljåkle" />
		<tag k="place" v="farm" />
		<tag k="ssr:stedsnr" v="181749" />
	</node>
	<node lat="63.243991774020174" lon="10.043201907510197" id="-81406">
		<tag k="name" v="Krokstad" />
		<tag k="place" v="hamlet" />
		<tag k="ssr:stedsnr" v="194237" />
	</node>
	<node lat="63.2430499994513" lon="10.002158342513663" id="-81409">
		<tag k="name" v="Rødslia" />
		<tag k="place" v="farm" />
		<tag k="ssr:stedsnr" v="194269" />
	</node>
	<node lat="63.24119722207598" lon="10.033055551906331" id="-81410">
		<tag k="alt_name" v="Syrstadberget" />
		<tag k="name" v="Syrstadberga" />
		<tag k="place" v="farm" />
		<tag k="ssr:stedsnr" v="194275" />
	</node>
	<node lat="63.215027776072645" lon="10.038663895174746" id="-81411">
		<tag k="name" v="Brennan" />
		<tag k="old_name" v="Dalen" />
		<tag k="place" v="farm" />
		<tag k="ssr:stedsnr" v="194214" />
	</node>
	<node lat="63.24609166319277" lon="10.027972225643092" id="-81412">
		<tag k="fixme" v="multiple name tags, choose one and add the other to alt_name" />
		<tag k="name" v="Kuvåslykkja;Byåsen" />
		<tag k="place" v="farm" />
		<tag k="ssr:stedsnr" v="194277" />
	</node>
	<node lat="63.32540555181889" lon="9.990025002554967" id="-81416">
		<tag k="name" v="Gjerthaugen" />
		<tag k="place" v="farm" />
		<tag k="ssr:stedsnr" v="195287" />
	</node>
	<node lat="63.32431111197945" lon="10.027783337268142" id="-81417">
		<tag k="name" v="Rossvasslykkja" />
		<tag k="place" v="farm" />
		<tag k="ssr:stedsnr" v="195289" />
	</node>
	<node lat="63.26300000337106" lon="10.096530565612348" id="-81420">
		<tag k="name" v="Storlykkja" />
		<tag k="place" v="isolated_dwelling" />
		<tag k="ssr:stedsnr" v="195757" />
	</node>
	<node lat="63.2618027751765" lon="10.062336109663843" id="-81421">
		<tag k="alt_name" v="Husbykleiva" />
		<tag k="name" v="Husbykleva" />
		<tag k="place" v="farm" />
		<tag k="ssr:stedsnr" v="195758" />
	</node>
	<node lat="63.306591665050384" lon="10.158472223138913" id="-81423">
		<tag k="name" v="Snefugllien" />
		<tag k="place" v="farm" />
		<tag k="ssr:stedsnr" v="205015" />
	</node>
	<node lat="63.31337499858779" lon="10.137694446913462" id="-81433">
		<tag k="name" v="Lisbetrommet" />
		<tag k="place" v="isolated_dwelling" />
		<tag k="ssr:stedsnr" v="205365" />
	</node>
	<node lat="63.27478678048659" lon="10.0582702941917" id="-81434">
		<tag k="name" v="Aunet" />
		<tag k="place" v="farm" />
		<tag k="ssr:stedsnr" v="205384" />
	</node>
	<node lat="63.24447222297473" lon="10.041980555058574" id="-81441">
		<tag k="name" v="Oppigard" />
		<tag k="place" v="farm" />
		<tag k="ssr:stedsnr" v="205532" />
	</node>
	<node lat="63.253849283285824" lon="10.063534192489172" id="-81442">
		<tag k="name" v="Nordigard" />
		<tag k="place" v="farm" />
		<tag k="ssr:stedsnr" v="205534" />
	</node>
	<node lat="63.26435833371642" lon="10.001549994215303" id="-81449">
		<tag k="name" v="Nygarden" />
		<tag k="place" v="farm" />
		<tag k="ssr:stedsnr" v="206242" />
	</node>
	<node lat="63.27275555651248" lon="10.032558330597979" id="-81453">
		<tag k="name" v="Tangen" />
		<tag k="place" v="farm" />
		<tag k="ssr:stedsnr" v="206313" />
	</node>
	<node lat="63.264202773844964" lon="10.068744437932866" id="-81455">
		<tag k="name" v="Tyskhaugen" />
		<tag k="place" v="isolated_dwelling" />
		<tag k="ssr:stedsnr" v="206323" />
	</node>
	<node lat="63.225308586370566" lon="10.037815466503394" id="-81464">
		<tag k="name" v="Aunkalvhåggån" />
		<tag k="place" v="farm" />
		<tag k="ssr:stedsnr" v="224186" />
	</node>
	<node lat="63.215423158241215" lon="10.133442095244694" id="-81470">
		<tag k="name" v="Grønneset" />
		<tag k="old_name" v="Grønnes" />
		<tag k="place" v="farm" />
		<tag k="ssr:stedsnr" v="298257" />
	</node>
	<node lat="63.27859627008076" lon="10.030823562604256" id="-81472">
		<tag k="name" v="Framigard" />
		<tag k="place" v="farm" />
		<tag k="ssr:stedsnr" v="303695" />
	</node>
	<node lat="63.31929722217663" lon="10.056074990127907" id="-81473">
		<tag k="fixme" v="consider place=hamlet" />
		<tag k="name" v="Ljåkle" />
		<tag k="place" v="farm" />
		<tag k="ssr:stedsnr" v="303728" />
	</node>
	<node lat="63.254146334674125" lon="9.899119596921867" id="-81475">
		<tag k="historic" v="shieling" />
		<tag k="name" v="Hafsbuan" />
		<tag k="place" v="isolated_dwelling" />
		<tag k="ssr:stedsnr" v="316743" />
	</node>
	<node lat="63.32874166842835" lon="10.06036943523229" id="-81477">
		<tag k="fixme" v="consider place=hamlet" />
		<tag k="name" v="Ofstad" />
		<tag k="place" v="farm" />
		<tag k="ssr:stedsnr" v="316282" />
	</node>
	<node lat="63.2499083375554" lon="10.052305552470113" id="-81478">
		<tag k="fixme" v="consider place=hamlet" />
		<tag k="name" v="Venn" />
		<tag k="place" v="farm" />
		<tag k="ssr:stedsnr" v="316288" />
	</node>
	<node lat="63.30867222667972" lon="10.177433326983504" id="-81479">
		<tag k="alt_name" v="Saltnessand" />
		<tag k="name" v="Saltnessanden" />
		<tag k="place" v="farm" />
		<tag k="ssr:stedsnr" v="316333" />
	</node>
	<node lat="63.303375000507344" lon="10.155511108764461" id="-81480">
		<tag k="fixme" v="consider place=hamlet" />
		<tag k="name" v="Snøfugl" />
		<tag k="place" v="farm" />
		<tag k="ssr:stedsnr" v="316342" />
	</node>
	<node lat="63.33919166285251" lon="10.057941673626422" id="-81481">
		<tag k="alt_name" v="Ælilykkja" />
		<tag k="name" v="Æleslykkja" />
		<tag k="place" v="farm" />
		<tag k="ssr:stedsnr" v="316530" />
	</node>
	<node lat="63.263147221675574" lon="9.901686118524808" id="-81485">
		<tag k="historic" v="shieling" />
		<tag k="name" v="Hauklia" />
		<tag k="place" v="isolated_dwelling" />
		<tag k="ssr:stedsnr" v="316778" />
	</node>
	<node lat="63.25915555715265" lon="9.984850001365979" id="-81486">
		<tag k="name" v="Mo" />
		<tag k="place" v="farm" />
		<tag k="ssr:stedsnr" v="316784" />
	</node>
	<node lat="63.29175852325885" lon="10.175963227861484" id="-81487">
		<tag k="alt_name" v="Belsåsen;Øvre Belsås" />
		<tag k="name" v="Bellsåsen" />
		<tag k="place" v="farm" />
		<tag k="ssr:stedsnr" v="317328" />
	</node>
	<node lat="63.22256111278011" lon="10.120097230495256" id="-81494">
		<tag k="name" v="Gammelgarden" />
		<tag k="place" v="farm" />
		<tag k="ssr:stedsnr" v="326494" />
	</node>
	<node lat="63.22230555553395" lon="10.038738888175827" id="-81507">
		<tag k="name" v="Synneraunan" />
		<tag k="place" v="farm" />
		<tag k="ssr:stedsnr" v="327346" />
	</node>
	<node lat="63.31069722540025" lon="10.186516662079402" id="-81509">
		<tag k="name" v="Pundslia" />
		<tag k="place" v="quarter" />
		<tag k="ssr:stedsnr" v="327011" />
	</node>
	<node lat="63.31025380397035" lon="10.20537658211582" id="-81511">
		<tag k="alt_name" v="Kvennbergsgrova" />
		<tag k="name" v="Kvernbergsgrova" />
		<tag k="place" v="farm" />
		<tag k="ssr:stedsnr" v="327016" />
	</node>
	<node lat="63.301377778723875" lon="10.149586106716223" id="-81512">
		<tag k="name" v="Ilhaugen" />
		<tag k="old_name" v="Illhaugen" />
		<tag k="place" v="quarter" />
		<tag k="ssr:stedsnr" v="327019" />
	</node>
	<node lat="63.31685043979706" lon="10.078953753531522" id="-81514">
		<tag k="name" v="Einmoen" />
		<tag k="place" v="farm" />
		<tag k="ssr:stedsnr" v="327035" />
	</node>
	<node lat="63.268619444528156" lon="10.19876945370278" id="-81521">
		<tag k="name" v="Litlhåggån" />
		<tag k="place" v="farm" />
		<tag k="ssr:stedsnr" v="327424" />
	</node>
	<node lat="63.32539444025706" lon="10.013802775238243" id="-81523">
		<tag k="name" v="Megallen" />
		<tag k="place" v="isolated_dwelling" />
		<tag k="ssr:stedsnr" v="328185" />
	</node>
	<node lat="63.238952480789756" lon="9.981688973700319" id="-81528">
		<tag k="fixme" v="consider place=hamlet" />
		<tag k="name" v="Melby" />
		<tag k="place" v="farm" />
		<tag k="ssr:stedsnr" v="363293" />
	</node>
	<node lat="63.30857500255889" lon="10.17711110341412" id="-81529">
		<tag k="fixme" v="consider place=hamlet" />
		<tag k="name" v="Saltnes" />
		<tag k="place" v="farm" />
		<tag k="ssr:stedsnr" v="363440" />
	</node>
	<node lat="63.32009260751138" lon="10.09679525999154" id="-81530">
		<tag k="fixme" v="consider place=hamlet" />
		<tag k="name" v="Meistad" />
		<tag k="place" v="farm" />
		<tag k="ssr:stedsnr" v="363673" />
	</node>
	<node lat="63.24466616045097" lon="10.041191237234763" id="-81532">
		<tag k="fixme" v="consider place=hamlet" />
		<tag k="name" v="Krokstad" />
		<tag k="place" v="farm" />
		<tag k="ssr:stedsnr" v="364342" />
	</node>
	<node lat="63.25073610706858" lon="10.04227777171162" id="-81533">
		<tag k="fixme" v="consider place=hamlet" />
		<tag k="name" v="Syrstad" />
		<tag k="place" v="farm" />
		<tag k="ssr:stedsnr" v="364347" />
	</node>
	<node lat="63.21439382992234" lon="10.013166827760205" id="-81535">
		<tag k="alt_name" v="Simsætra" />
		<tag k="historic" v="shieling" />
		<tag k="name" v="Simssætra" />
		<tag k="place" v="isolated_dwelling" />
		<tag k="ssr:stedsnr" v="376236" />
	</node>
	<node lat="63.230599997354524" lon="10.022905558918094" id="-81536">
		<tag k="alt_name" v="Myrvoll" />
		<tag k="name" v="Myran" />
		<tag k="place" v="farm" />
		<tag k="ssr:stedsnr" v="376250" />
	</node>
	<node lat="63.32233888847855" lon="10.092799997129573" id="-81537">
		<tag k="name" v="Rise" />
		<tag k="place" v="farm" />
		<tag k="ssr:stedsnr" v="376253" />
	</node>
	<node lat="63.324563884724405" lon="10.097958323483793" id="-81538">
		<tag k="fixme" v="consider place=hamlet" />
		<tag k="name" v="Klokkarvika" />
		<tag k="place" v="farm" />
		<tag k="ssr:stedsnr" v="376255" />
	</node>
	<node lat="63.327799998523226" lon="9.990027787010256" id="-81539">
		<tag k="name" v="Englykkja" />
		<tag k="place" v="farm" />
		<tag k="ssr:stedsnr" v="376259" />
	</node>
	<node lat="63.323855546027595" lon="9.96863119200706" id="-81541">
		<tag k="alt_name" v="Sjetnan;Sjetnteigen" />
		<tag k="name" v="Skjetnteigen" />
		<tag k="place" v="farm" />
		<tag k="ssr:stedsnr" v="376265" />
	</node>
	<node lat="63.2795669467459" lon="10.036554555790348" id="-81544">
		<tag k="alt_name" v="Egga, midtre" />
		<tag k="fixme" v="consider place=hamlet" />
		<tag k="name" v="Midtre Egga" />
		<tag k="place" v="farm" />
		<tag k="ssr:stedsnr" v="376389" />
	</node>
	<node lat="63.28425555819254" lon="10.043644451962274" id="-81545">
		<tag k="name" v="Besetgjerdet" />
		<tag k="place" v="farm" />
		<tag k="ssr:stedsnr" v="376390" />
	</node>
	<node lat="63.279911114730695" lon="10.055566658637037" id="-81547">
		<tag k="fixme" v="consider place=hamlet" />
		<tag k="name" v="Sim" />
		<tag k="place" v="farm" />
		<tag k="ssr:stedsnr" v="376351" />
	</node>
	<node lat="63.28175393158361" lon="10.116414705024447" id="-81548">
		<tag k="historic" v="shieling" />
		<tag k="name" v="Naustsætra" />
		<tag k="place" v="isolated_dwelling" />
		<tag k="ssr:stedsnr" v="376356" />
	</node>
	<node lat="63.29076388637298" lon="10.094833340345208" id="-81549">
		<tag k="alt_name" v="Skaset" />
		<tag k="fixme" v="consider place=hamlet" />
		<tag k="name" v="Skagset" />
		<tag k="place" v="farm" />
		<tag k="ssr:stedsnr" v="377325" />
	</node>
	<node lat="63.30755833515602" lon="10.059636109839653" id="-81550">
		<tag k="fixme" v="consider place=hamlet" />
		<tag k="name" v="Daløya" />
		<tag k="old_name" v="Dalsøya" />
		<tag k="place" v="farm" />
		<tag k="ssr:stedsnr" v="377268" />
	</node>
	<node lat="63.31119166924154" lon="10.16037499047355" id="-81551">
		<tag k="fixme" v="consider place=hamlet" />
		<tag k="name" v="Hammer" />
		<tag k="place" v="farm" />
		<tag k="ssr:stedsnr" v="377282" />
	</node>
	<node lat="63.31942916904743" lon="10.091652761507296" id="-81552">
		<tag k="fixme" v="consider place=hamlet" />
		<tag k="name" v="Meistad" />
		<tag k="place" v="farm" />
		<tag k="ssr:stedsnr" v="377304" />
	</node>
	<node lat="63.29853611149944" lon="10.058705561849724" id="-81553">
		<tag k="fixme" v="consider place=hamlet" />
		<tag k="name" v="Riaunet" />
		<tag k="place" v="farm" />
		<tag k="ssr:stedsnr" v="377340" />
	</node>
	<node lat="63.298473106958085" lon="10.162986009261207" id="-81554">
		<tag k="alt_name" v="Hammartrøa;Øversetra" />
		<tag k="fixme" v="multiple name tags, choose one and add the other to alt_name" />
		<tag k="name" v="Hammertrøa;Øversætra" />
		<tag k="place" v="farm" />
		<tag k="ssr:stedsnr" v="377344" />
	</node>
	<node lat="63.33818333310535" lon="10.036452769720661" id="-81556">
		<tag k="fixme" v="consider place=hamlet" />
		<tag k="name" v="Rossmo" />
		<tag k="place" v="farm" />
		<tag k="ssr:stedsnr" v="377463" />
	</node>
	<node lat="63.26417185895861" lon="9.999070416455837" id="-81558">
		<tag k="name" v="By" />
		<tag k="place" v="hamlet" />
		<tag k="ssr:stedsnr" v="377722" />
	</node>
	<node lat="63.27219999857491" lon="10.029261117372409" id="-81560">
		<tag k="fixme" v="consider place=hamlet" />
		<tag k="name" v="Myrin" />
		<tag k="place" v="farm" />
		<tag k="ssr:stedsnr" v="377704" />
	</node>
	<node lat="63.23835555389947" lon="10.148588879318156" id="-81565">
		<tag k="name" v="Merket" />
		<tag k="place" v="farm" />
		<tag k="ssr:stedsnr" v="387459" />
	</node>
	<node lat="63.29255555204627" lon="9.995552773154348" id="-81569">
		<tag k="historic" v="shieling" />
		<tag k="name" v="Besetsætren" />
		<tag k="place" v="isolated_dwelling" />
		<tag k="ssr:stedsnr" v="388106" />
	</node>
	<node lat="63.270911111838835" lon="10.176086108488981" id="-81579">
		<tag k="name" v="Granly" />
		<tag k="place" v="farm" />
		<tag k="ssr:stedsnr" v="387481" />
	</node>
	<node lat="63.28584444636501" lon="10.195308342957256" id="-81580">
		<tag k="name" v="Brubakken" />
		<tag k="place" v="farm" />
		<tag k="ssr:stedsnr" v="388278" />
	</node>
	<node lat="63.324674207024216" lon="9.97558512572023" id="-81584">
		<tag k="name" v="Sjetnlykkja" />
		<tag k="place" v="farm" />
		<tag k="ssr:stedsnr" v="388178" />
	</node>
	<node lat="63.338505557742806" lon="10.038827776273376" id="-81587">
		<tag k="name" v="Torsenget" />
		<tag k="place" v="farm" />
		<tag k="ssr:stedsnr" v="388536" />
	</node>
	<node lat="63.253166669388506" lon="9.972775005012519" id="-81589">
		<tag k="amenity" v="school" />
		<tag k="name" v="Jåren-Råbygda oppvekstsenter" />
		<tag k="ssr:stedsnr" v="404239" />
	</node>
	<node lat="63.325597222731254" lon="10.047680554955264" id="-81593">
		<tag k="name" v="Hammersbakkan" />
		<tag k="place" v="quarter" />
		<tag k="ssr:stedsnr" v="423677" />
	</node>
	<node lat="63.305984068661296" lon="10.172236314093029" id="-81594">
		<tag k="alt_name" v="Saltnes" />
		<tag k="fixme" v="consider place=hamlet" />
		<tag k="name" v="Negard" />
		<tag k="place" v="farm" />
		<tag k="ssr:stedsnr" v="424454" />
	</node>
	<node lat="63.31083611440165" lon="10.157405554971605" id="-81595">
		<tag k="name" v="Hammer" />
		<tag k="place" v="hamlet" />
		<tag k="ssr:stedsnr" v="424455" />
	</node>
	<node lat="63.26658506348136" lon="9.980818391463698" id="-81596">
		<tag k="name" v="Fokset" />
		<tag k="place" v="hamlet" />
		<tag k="ssr:stedsnr" v="425634" />
	</node>
	<node lat="63.27728751626903" lon="10.024900463578868" id="-81597">
		<tag k="alt_name" v="Egga, søre" />
		<tag k="fixme" v="consider place=hamlet" />
		<tag k="name" v="Søregga" />
		<tag k="place" v="farm" />
		<tag k="ssr:stedsnr" v="437363" />
	</node>
	<node lat="63.2730277821627" lon="10.064144450906134" id="-81600">
		<tag k="alt_name" v="Eidsmogjerdet" />
		<tag k="name" v="Eidsmo" />
		<tag k="place" v="farm" />
		<tag k="ssr:stedsnr" v="438126" />
	</node>
	<node lat="63.30357777918791" lon="10.176766664524255" id="-81601">
		<tag k="name" v="Saltnes" />
		<tag k="place" v="hamlet" />
		<tag k="ssr:stedsnr" v="438278" />
	</node>
	<node lat="63.304663891868124" lon="10.190616666823589" id="-81602">
		<tag k="name" v="Presthus" />
		<tag k="place" v="farm" />
		<tag k="ssr:stedsnr" v="438280" />
	</node>
	<node lat="63.30404444361468" lon="10.069880564692578" id="-81603">
		<tag k="name" v="Kjæremstrøa" />
		<tag k="place" v="farm" />
		<tag k="ssr:stedsnr" v="438283" />
	</node>
	<node lat="63.34523055471397" lon="9.990830551004771" id="-81605">
		<tag k="fixme" v="consider place=hamlet" />
		<tag k="name" v="Viggja" />
		<tag k="place" v="village" />
		<tag k="ssr:stedsnr" v="438449" />
	</node>
	<node lat="63.31669444451105" lon="10.093602785477547" id="-81606">
		<tag k="alt_name" v="Lykkja" />
		<tag k="name" v="Meistadlykkja" />
		<tag k="old_name" v="Mestadlykkja" />
		<tag k="place" v="farm" />
		<tag k="ssr:stedsnr" v="438306" />
	</node>
	<node lat="63.29934999701432" lon="10.048899990289314" id="-81608">
		<tag k="alt_name" v="Smelykkja" />
		<tag k="name" v="Smedlykkja" />
		<tag k="place" v="farm" />
		<tag k="ssr:stedsnr" v="438329" />
	</node>
	<node lat="63.295553641063115" lon="10.03878229411557" id="-81609">
		<tag k="alt_name" v="Øver Rian" />
		<tag k="fixme" v="consider place=hamlet" />
		<tag k="name" v="Øverrian" />
		<tag k="place" v="farm" />
		<tag k="ssr:stedsnr" v="438330" />
	</node>
	<node lat="63.269680558535214" lon="10.097124993775079" id="-81610">
		<tag k="historic" v="shieling" />
		<tag k="name" v="Gjerdesætra" />
		<tag k="place" v="isolated_dwelling" />
		<tag k="ssr:stedsnr" v="438729" />
	</node>
	<node lat="63.30520833365941" lon="10.035147222411483" id="-81614">
		<tag k="alt_name" v="Øvre Kjærem" />
		<tag k="name" v="Kjæremshåggån" />
		<tag k="place" v="farm" />
		<tag k="ssr:stedsnr" v="448034" />
	</node>
	<node lat="63.23768333276614" lon="9.997891662167492" id="-81618">
		<tag k="name" v="Melan" />
		<tag k="place" v="farm" />
		<tag k="ssr:stedsnr" v="448299" />
	</node>
	<node lat="63.31752222140158" lon="10.120680556937094" id="-81623">
		<tag k="name" v="Kåret" />
		<tag k="place" v="isolated_dwelling" />
		<tag k="ssr:stedsnr" v="448352" />
	</node>
	<node lat="63.28347221932982" lon="10.046647212949855" id="-81632">
		<tag k="name" v="Eggsaga" />
		<tag k="place" v="farm" />
		<tag k="ssr:stedsnr" v="449156" />
	</node>
	<node lat="63.34642500419118" lon="9.983019445404686" id="-81633">
		<tag k="name" v="Brannhaugen" />
		<tag k="place" v="quarter" />
		<tag k="ssr:stedsnr" v="449165" />
	</node>
	<node lat="63.24749167064927" lon="10.091361119008084" id="-81637">
		<tag k="alt_name" v="Skausætren" />
		<tag k="historic" v="shieling" />
		<tag k="name" v="Skausætra" />
		<tag k="place" v="isolated_dwelling" />
		<tag k="ssr:stedsnr" v="498306" />
	</node>
	<node lat="63.23478888689874" lon="9.914572221688934" id="-81638">
		<tag k="alt_name" v="Byasætra, øvre" />
		<tag k="fixme" v="multiple name tags, choose one and add the other to alt_name" />
		<tag k="historic" v="shieling" />
		<tag k="name" v="Byasætra;Øvre Byasætra" />
		<tag k="place" v="isolated_dwelling" />
		<tag k="ssr:stedsnr" v="498326" />
	</node>
	<node lat="63.31896944694703" lon="9.990766671993521" id="-81639">
		<tag k="alt_name" v="Gagnås" />
		<tag k="fixme" v="consider place=hamlet" />
		<tag k="name" v="Gagnåsen" />
		<tag k="place" v="farm" />
		<tag k="ssr:stedsnr" v="498359" />
	</node>
	<node lat="63.248225001097545" lon="9.9250166695099" id="-81640">
		<tag k="alt_name" v="Lisbetsetra" />
		<tag k="fixme" v="consider place=hamlet" />
		<tag k="name" v="Lisbetsætra" />
		<tag k="place" v="farm" />
		<tag k="ssr:stedsnr" v="498360" />
	</node>
	<node lat="63.31794378994811" lon="10.058214298661913" id="-81641">
		<tag k="name" v="Ljåkle" />
		<tag k="place" v="hamlet" />
		<tag k="ssr:stedsnr" v="498363" />
	</node>
	<node lat="63.31964722528847" lon="9.928566667704521" id="-81642">
		<tag k="name" v="Åsen" />
		<tag k="place" v="isolated_dwelling" />
		<tag k="ssr:stedsnr" v="498368" />
	</node>
	<node lat="63.344794445227535" lon="10.005738896654174" id="-81643">
		<tag k="alt_name" v="Nygård" />
		<tag k="name" v="Nygården" />
		<tag k="place" v="farm" />
		<tag k="ssr:stedsnr" v="498518" />
	</node>
	<node lat="63.345588893140885" lon="10.027125001996614" id="-81644">
		<tag k="alt_name" v="Tindan" />
		<tag k="name" v="Tinden" />
		<tag k="place" v="farm" />
		<tag k="ssr:stedsnr" v="498520" />
	</node>
	<node lat="63.347350639029614" lon="10.023450409998496" id="-81645">
		<tag k="name" v="Stykkjan" />
		<tag k="place" v="farm" />
		<tag k="ssr:stedsnr" v="498521" />
	</node>
	<node lat="63.22526944794896" lon="10.040463886546842" id="-81654">
		<tag k="name" v="Metteraunan" />
		<tag k="place" v="farm" />
		<tag k="ssr:stedsnr" v="508425" />
	</node>
	<node lat="63.230777777594035" lon="10.069861108409551" id="-81656">
		<tag k="name" v="Plassen" />
		<tag k="place" v="isolated_dwelling" />
		<tag k="ssr:stedsnr" v="508432" />
	</node>
	<node lat="63.32380277947834" lon="10.119911115586609" id="-81657">
		<tag k="name" v="Furuvika" />
		<tag k="place" v="hamlet" />
		<tag k="ssr:stedsnr" v="508060" />
	</node>
	<node lat="63.24084444362844" lon="10.03511110235281" id="-81673">
		<tag k="name" v="Berglykkja" />
		<tag k="place" v="isolated_dwelling" />
		<tag k="ssr:stedsnr" v="508526" />
	</node>
	<node lat="63.254263887276636" lon="10.063469434923693" id="-81674">
		<tag k="name" v="Husan" />
		<tag k="place" v="farm" />
		<tag k="ssr:stedsnr" v="508531" />
	</node>
	<node lat="63.26820555189072" lon="10.006616665729236" id="-81681">
		<tag k="name" v="Kokkhaugen" />
		<tag k="place" v="farm" />
		<tag k="ssr:stedsnr" v="509237" />
	</node>
	<node lat="63.28806644033413" lon="10.035888607343239" id="-81683">
		<tag k="name" v="Beset" />
		<tag k="place" v="farm" />
		<tag k="ssr:stedsnr" v="509157" />
	</node>
	<node lat="63.271402776118805" lon="10.196319443714971" id="-81684">
		<tag k="name" v="Gjerdet" />
		<tag k="place" v="farm" />
		<tag k="ssr:stedsnr" v="509262" />
	</node>
	<node lat="63.243922225964695" lon="9.974899990567911" id="-81685">
		<tag k="name" v="Nordland" />
		<tag k="place" v="farm" />
		<tag k="ssr:stedsnr" v="509268" />
	</node>
	<node lat="63.293722219529876" lon="10.172252785176997" id="-81686">
		<tag k="alt_name" v="Høybakken" />
		<tag k="name" v="Belsåsbakkan" />
		<tag k="place" v="farm" />
		<tag k="ssr:stedsnr" v="509299" />
	</node>
	<node lat="63.34490555846786" lon="9.99371110317304" id="-81689">
		<tag k="name" v="Ommundsgard" />
		<tag k="place" v="farm" />
		<tag k="ssr:stedsnr" v="510173" />
	</node>
	<node lat="63.303375000507344" lon="10.155511108764461" id="-81695">
		<tag k="name" v="Snefugl" />
		<tag k="place" v="farm" />
		<tag k="ssr:stedsnr" v="545606" />
	</node>
	<node lat="63.30782221772869" lon="10.164050008980222" id="-81696">
		<tag k="fixme" v="consider place=hamlet" />
		<tag k="name" v="Hammer" />
		<tag k="place" v="farm" />
		<tag k="ssr:stedsnr" v="545465" />
	</node>
	<node lat="63.251494444331264" lon="10.052363895247758" id="-81698">
		<tag k="fixme" v="consider place=hamlet" />
		<tag k="name" v="Skaun" />
		<tag k="place" v="village" />
		<tag k="ssr:stedsnr" v="558267" />
	</node>
	<node lat="63.23353611233148" lon="10.110086103374215" id="-81699">
		<tag k="alt_name" v="Hosetflåttan;Hosetflåtten" />
		<tag k="name" v="Hosetflotten" />
		<tag k="place" v="farm" />
		<tag k="ssr:stedsnr" v="558277" />
	</node>
	<node lat="63.32959166641786" lon="9.926069443998317" id="-81701">
		<tag k="fixme" v="consider place=hamlet" />
		<tag k="name" v="Haugan" />
		<tag k="old_name" v="Haugen" />
		<tag k="place" v="farm" />
		<tag k="ssr:stedsnr" v="558284" />
	</node>
	<node lat="63.236517244167004" lon="9.980637755255156" id="-81702">
		<tag k="alt_name" v="Aunet" />
		<tag k="name" v="Melbyaunet" />
		<tag k="place" v="farm" />
		<tag k="ssr:stedsnr" v="558286" />
	</node>
	<node lat="63.23957853064989" lon="9.973038807615707" id="-81703">
		<tag k="name" v="Øvergjerdet" />
		<tag k="place" v="farm" />
		<tag k="ssr:stedsnr" v="558287" />
	</node>
	<node lat="63.25893611138702" lon="10.053588881260376" id="-81704">
		<tag k="name" v="Husby" />
		<tag k="place" v="hamlet" />
		<tag k="ssr:stedsnr" v="559130" />
	</node>
	<node lat="63.27797886283094" lon="10.031527582756285" id="-81705">
		<tag k="alt_name" v="Egga, midtre" />
		<tag k="fixme" v="consider place=hamlet" />
		<tag k="loc_name" v="Egga" />
		<tag k="name" v="Midtre Egga" />
		<tag k="place" v="farm" />
		<tag k="ssr:stedsnr" v="559131" />
	</node>
	<node lat="63.316002780377815" lon="10.060005545767412" id="-81707">
		<tag k="fixme" v="consider place=hamlet" />
		<tag k="name" v="Blekkan" />
		<tag k="place" v="farm" />
		<tag k="ssr:stedsnr" v="559285" />
	</node>
	<node lat="63.26716111462932" lon="10.017522216352685" id="-81708">
		<tag k="fixme" v="consider place=hamlet" />
		<tag k="name" v="Myrin" />
		<tag k="place" v="farm" />
		<tag k="ssr:stedsnr" v="559720" />
	</node>
	<node lat="63.30662500339792" lon="10.156619446215721" id="-81711">
		<tag k="name" v="Snøfugl" />
		<tag k="place" v="farm" />
		<tag k="ssr:stedsnr" v="569016" />
	</node>
	<node lat="63.29506110758596" lon="10.06020833831527" id="-81723">
		<tag k="name" v="Forsdal" />
		<tag k="place" v="farm" />
		<tag k="ssr:stedsnr" v="570125" />
	</node>
	<node lat="63.318105552781134" lon="10.08018610655348" id="-81724">
		<tag k="name" v="Teigmoen" />
		<tag k="place" v="farm" />
		<tag k="ssr:stedsnr" v="570135" />
	</node>
	<node lat="63.333375003460894" lon="9.995822217498807" id="-81727">
		<tag k="name" v="Klufta" />
		<tag k="place" v="isolated_dwelling" />
		<tag k="ssr:stedsnr" v="570159" />
	</node>
	<node lat="63.33417499627787" lon="10.00716389711195" id="-81728">
		<tag k="name" v="Rishaugen" />
		<tag k="place" v="isolated_dwelling" />
		<tag k="ssr:stedsnr" v="570160" />
	</node>
	<node lat="63.24065555838804" lon="9.980738880072778" id="-81733">
		<tag k="name" v="Melbygjerdet" />
		<tag k="place" v="farm" />
		<tag k="ssr:stedsnr" v="570230" />
	</node>
	<node lat="63.29603055851749" lon="10.127708335718332" id="-81735">
		<tag k="historic" v="shieling" />
		<tag k="name" v="Hammerssætra" />
		<tag k="place" v="isolated_dwelling" />
		<tag k="ssr:stedsnr" v="570249" />
	</node>
	<node lat="63.25585278069141" lon="10.022133326168802" id="-81742">
		<tag k="name" v="Moen" />
		<tag k="place" v="farm" />
		<tag k="ssr:stedsnr" v="570511" />
	</node>
	<node lat="63.343130559582164" lon="9.989699994032154" id="-81747">
		<tag k="amenity" v="school" />
		<tag k="name" v="Viggja oppvekstsenter" />
		<tag k="ssr:stedsnr" v="586257" />
	</node>
	<node lat="63.28981388569006" lon="10.05583332754401" id="-81748">
		<tag k="name" v="Vollan" />
		<tag k="place" v="farm" />
		<tag k="ssr:stedsnr" v="588180" />
	</node>
	<node lat="63.25321414782099" lon="10.063149950991372" id="-81752">
		<tag k="name" v="Rekstad" />
		<tag k="place" v="hamlet" />
		<tag k="ssr:stedsnr" v="606275" />
	</node>
	<node lat="63.26575038665619" lon="9.981010793793555" id="-81753">
		<tag k="fixme" v="consider place=hamlet" />
		<tag k="name" v="Fokset" />
		<tag k="place" v="farm" />
		<tag k="ssr:stedsnr" v="606641" />
	</node>
	<node lat="63.274808336298584" lon="10.033155561057418" id="-81758">
		<tag k="alt_name" v="Tangen" />
		<tag k="name" v="Eggtangen" />
		<tag k="place" v="farm" />
		<tag k="ssr:stedsnr" v="619756" />
	</node>
	<node lat="63.270427776125956" lon="10.070644446406671" id="-81759">
		<tag k="name" v="Bjørghaugen" />
		<tag k="place" v="farm" />
		<tag k="ssr:stedsnr" v="619761" />
	</node>
	<node lat="63.297072225519436" lon="10.193000006003215" id="-81760">
		<tag k="fixme" v="consider place=hamlet" />
		<tag k="name" v="Valset" />
		<tag k="place" v="farm" />
		<tag k="ssr:stedsnr" v="620294" />
	</node>
	<node lat="63.29214612721808" lon="10.03391952394224" id="-81761">
		<tag k="alt_name" v="Øver Rian" />
		<tag k="fixme" v="consider place=hamlet" />
		<tag k="name" v="Øverrian" />
		<tag k="place" v="farm" />
		<tag k="ssr:stedsnr" v="620298" />
	</node>
	<node lat="63.291094444345134" lon="10.061144453731776" id="-81762">
		<tag k="name" v="Vollan" />
		<tag k="place" v="farm" />
		<tag k="ssr:stedsnr" v="620309" />
	</node>
	<node lat="63.26132500429251" lon="10.191141673225706" id="-81763">
		<tag k="alt_name" v="Vigdalsrønningan" />
		<tag k="name" v="Rønningan" />
		<tag k="place" v="farm" />
		<tag k="ssr:stedsnr" v="620658" />
	</node>
	<node lat="63.25996018256613" lon="10.179534941802627" id="-81764">
		<tag k="fixme" v="consider place=hamlet" />
		<tag k="loc_name" v="Vigdalan" />
		<tag k="name" v="Vigdal" />
		<tag k="place" v="farm" />
		<tag k="ssr:stedsnr" v="620692" />
	</node>
	<node lat="63.26035647935776" lon="10.055295176583495" id="-81766">
		<tag k="alt_name" v="Oppstu" />
		<tag k="name" v="Husby" />
		<tag k="place" v="farm" />
		<tag k="ssr:stedsnr" v="620727" />
	</node>
	<node lat="63.272838889122" lon="10.195447219088908" id="-81770">
		<tag k="name" v="Søstu" />
		<tag k="place" v="farm" />
		<tag k="ssr:stedsnr" v="630269" />
	</node>
	<node lat="63.257666668411524" lon="9.965452770107532" id="-81771">
		<tag k="name" v="Torgelykkja" />
		<tag k="place" v="farm" />
		<tag k="ssr:stedsnr" v="629259" />
	</node>
	<node lat="63.23793611077519" lon="9.987544450964265" id="-81772">
		<tag k="name" v="Negarden" />
		<tag k="place" v="farm" />
		<tag k="ssr:stedsnr" v="629273" />
	</node>
	<node lat="63.30400386950012" lon="10.171483004513005" id="-81784">
		<tag k="alt_name" v="Saltnes" />
		<tag k="fixme" v="multiple name tags, choose one and add the other to alt_name" />
		<tag k="name" v="Øvre Saltnes;Oppigard" />
		<tag k="place" v="farm" />
		<tag k="ssr:stedsnr" v="630016" />
	</node>
	<node lat="63.32879030001347" lon="9.908430120410545" id="-81786">
		<tag k="name" v="Nord Litlsandan" />
		<tag k="place" v="farm" />
		<tag k="ssr:stedsnr" v="630124" />
	</node>
	<node lat="63.280611114731926" lon="10.038608330172815" id="-81790">
		<tag k="name" v="Kleva" />
		<tag k="place" v="farm" />
		<tag k="ssr:stedsnr" v="630176" />
	</node>
	<node lat="63.32651388530506" lon="10.063141670404503" id="-81793">
		<tag k="name" v="Gullhaugen" />
		<tag k="place" v="farm" />
		<tag k="ssr:stedsnr" v="630129" />
	</node>
	<node lat="63.23197500277453" lon="10.108441669269311" id="-81797">
		<tag k="name" v="Hosetgjerdet" />
		<tag k="place" v="farm" />
		<tag k="ssr:stedsnr" v="630411" />
	</node>
	<node lat="63.23143610716542" lon="10.127100009455537" id="-81798">
		<tag k="name" v="Sandhaugen" />
		<tag k="place" v="farm" />
		<tag k="ssr:stedsnr" v="630412" />
	</node>
	<node lat="63.24464722399719" lon="10.030636115937265" id="-81799">
		<tag k="name" v="Svennrommet" />
		<tag k="place" v="isolated_dwelling" />
		<tag k="ssr:stedsnr" v="630423" />
	</node>
	<node lat="63.345108334558894" lon="9.973541662394496" id="-81801">
		<tag k="name" v="Malenarommet" />
		<tag k="place" v="locality" />
		<tag k="ssr:stedsnr" v="631158" />
	</node>
	<node lat="63.29046389144903" lon="10.057991675814582" id="-81805">
		<tag k="fixme" v="consider place=hamlet" />
		<tag k="name" v="Vollan" />
		<tag k="place" v="farm" />
		<tag k="ssr:stedsnr" v="648212" />
	</node>
	<node lat="63.327411113407905" lon="10.07320555407771" id="-81810">
		<tag k="name" v="Børsøra" />
		<tag k="place" v="quarter" />
		<tag k="ssr:stedsnr" v="664673" />
	</node>
	<node lat="63.323156812882885" lon="9.97331618821543" id="-81811">
		<tag k="fixme" v="consider place=hamlet" />
		<tag k="name" v="Sjetnan" />
		<tag k="place" v="farm" />
		<tag k="ssr:stedsnr" v="667676" />
	</node>
	<node lat="63.305186115001305" lon="10.190841667598168" id="-81813">
		<tag k="fixme" v="consider place=hamlet" />
		<tag k="name" v="Presthus" />
		<tag k="place" v="farm" />
		<tag k="ssr:stedsnr" v="728247" />
	</node>
	<node lat="63.22208888552592" lon="10.123575005271439" id="-81816">
		<tag k="fixme" v="consider place=hamlet" />
		<tag k="name" v="Gangaunet" />
		<tag k="place" v="farm" />
		<tag k="ssr:stedsnr" v="740235" />
	</node>
	<node lat="63.22689538242936" lon="10.12779153013114" id="-81817">
		<tag k="fixme" v="consider place=hamlet" />
		<tag k="name" v="Konstad" />
		<tag k="place" v="farm" />
		<tag k="ssr:stedsnr" v="740236" />
	</node>
	<node lat="63.3312472249579" lon="10.011338881732655" id="-81818">
		<tag k="fixme" v="consider place=hamlet" />
		<tag k="name" v="Høgset" />
		<tag k="place" v="farm" />
		<tag k="ssr:stedsnr" v="741318" />
	</node>
	<node lat="63.23306560252729" lon="10.128929871377975" id="-81819">
		<tag k="fixme" v="consider place=hamlet" />
		<tag k="name" v="Høve" />
		<tag k="place" v="farm" />
		<tag k="ssr:stedsnr" v="741321" />
	</node>
	<node lat="63.239391668575415" lon="10.02829166709581" id="-81821">
		<tag k="alt_name" v="Åsen" />
		<tag k="name" v="Syrstadåsen" />
		<tag k="place" v="farm" />
		<tag k="ssr:stedsnr" v="741342" />
	</node>
	<node lat="63.31985277477946" lon="9.981113887895475" id="-81822">
		<tag k="alt_name" v="Setra" />
		<tag k="fixme" v="consider place=hamlet" />
		<tag k="name" v="Sætra" />
		<tag k="place" v="farm" />
		<tag k="ssr:stedsnr" v="741356" />
	</node>
	<node lat="63.30944274295568" lon="10.071160271698684" id="-81823">
		<tag k="name" v="Kjærem" />
		<tag k="place" v="hamlet" />
		<tag k="ssr:stedsnr" v="741364" />
	</node>
	<node lat="63.32014722102758" lon="10.129272224822207" id="-81824">
		<tag k="fixme" v="consider place=hamlet" />
		<tag k="name" v="Olstad" />
		<tag k="place" v="farm" />
		<tag k="ssr:stedsnr" v="741365" />
	</node>
	<node lat="63.246899995938676" lon="10.131861111215233" id="-81825">
		<tag k="name" v="Solåsen" />
		<tag k="place" v="isolated_dwelling" />
		<tag k="ssr:stedsnr" v="741761" />
	</node>
	<node lat="63.31364722113402" lon="10.077124997203919" id="-81828">
		<tag k="fixme" v="consider place=hamlet" />
		<tag k="name" v="Krangsås" />
		<tag k="place" v="farm" />
		<tag k="ssr:stedsnr" v="751042" />
	</node>
	<node lat="63.3257833301294" lon="10.071619440865838" id="-81830">
		<tag k="name" v="Naustgjerdet" />
		<tag k="place" v="farm" />
		<tag k="ssr:stedsnr" v="751124" />
	</node>
	<node lat="63.22312777376894" lon="10.01159999285097" id="-81831">
		<tag k="name" v="Morlykkja" />
		<tag k="place" v="farm" />
		<tag k="ssr:stedsnr" v="751397" />
	</node>
	<node lat="63.24207222157545" lon="10.053972221195522" id="-81838">
		<tag k="name" v="Oppigarden" />
		<tag k="place" v="farm" />
		<tag k="ssr:stedsnr" v="751502" />
	</node>
	<node lat="63.28546944815395" lon="10.036472223689929" id="-81841">
		<tag k="name" v="Beset" />
		<tag k="place" v="farm" />
		<tag k="ssr:stedsnr" v="752149" />
	</node>
	<node lat="63.347697225230604" lon="9.978791666171324" id="-81848">
		<tag k="name" v="Sildværet" />
		<tag k="place" v="farm" />
		<tag k="ssr:stedsnr" v="753148" />
	</node>
	<node lat="63.229816569973266" lon="10.126463402324807" id="-81849">
		<tag k="name" v="Nord Konstad" />
		<tag k="place" v="farm" />
		<tag k="ssr:stedsnr" v="753525" />
	</node>
	<node lat="63.309172220241415" lon="10.174361112830947" id="-81856">
		<tag k="fixme" v="consider place=hamlet" />
		<tag k="name" v="Saltnes" />
		<tag k="place" v="farm" />
		<tag k="ssr:stedsnr" v="788459" />
	</node>
	<node lat="63.26259234584936" lon="10.046337712671603" id="-81858">
		<tag k="fixme" v="consider place=hamlet" />
		<tag k="name" v="Husbyegga" />
		<tag k="place" v="farm" />
		<tag k="ssr:stedsnr" v="788289" />
	</node>
	<node lat="63.34370555575389" lon="10.006222231241447" id="-81859">
		<tag k="fixme" v="consider place=hamlet" />
		<tag k="name" v="Viggja" />
		<tag k="place" v="farm" />
		<tag k="ssr:stedsnr" v="788737" />
	</node>
	<node lat="63.22951944277262" lon="9.984513888206564" id="-81862">
		<tag k="name" v="Melbylykkja" />
		<tag k="place" v="farm" />
		<tag k="ssr:stedsnr" v="801230" />
	</node>
	<node lat="63.24922500330126" lon="10.023241657959975" id="-81864">
		<tag k="name" v="Kuvåshaugen" />
		<tag k="place" v="farm" />
		<tag k="ssr:stedsnr" v="801294" />
	</node>
	<node lat="63.24594444626783" lon="10.036827770439254" id="-81865">
		<tag k="alt_name" v="Syrstadlykkja" />
		<tag k="name" v="Lykkja" />
		<tag k="old_name" v="Rød" />
		<tag k="place" v="farm" />
		<tag k="ssr:stedsnr" v="801239" />
	</node>
	<node lat="63.3125138848557" lon="10.184058336189272" id="-81867">
		<tag k="name" v="Buvika" />
		<tag k="place" v="village" />
		<tag k="ssr:stedsnr" v="802298" />
	</node>
	<node lat="63.33579444849561" lon="9.934855550686422" id="-81868">
		<tag k="alt_name" v="Storsanden" />
		<tag k="fixme" v="consider place=hamlet" />
		<tag k="name" v="Storsandan" />
		<tag k="place" v="farm" />
		<tag k="ssr:stedsnr" v="802302" />
	</node>
	<node lat="63.291825001644256" lon="10.049780558089054" id="-81869">
		<tag k="name" v="Nygarden" />
		<tag k="place" v="farm" />
		<tag k="ssr:stedsnr" v="802380" />
	</node>
	<node lat="63.286502777570654" lon="10.047275002566682" id="-81870">
		<tag k="name" v="Rihåggån" />
		<tag k="old_name" v="Rihagan" />
		<tag k="place" v="farm" />
		<tag k="ssr:stedsnr" v="802383" />
	</node>
	<node lat="63.30077777482714" lon="10.073352769900817" id="-81871">
		<tag k="fixme" v="consider place=hamlet" />
		<tag k="name" v="Hanberg" />
		<tag k="place" v="farm" />
		<tag k="ssr:stedsnr" v="802393" />
	</node>
	<node lat="63.29486919615465" lon="10.018413497959772" id="-81873">
		<tag k="name" v="Ritrøa" />
		<tag k="place" v="farm" />
		<tag k="ssr:stedsnr" v="802397" />
	</node>
	<node lat="63.318213891049744" lon="10.116475001718966" id="-81874">
		<tag k="alt_name" v="Aunet" />
		<tag k="name" v="Olstadaunet" />
		<tag k="place" v="farm" />
		<tag k="ssr:stedsnr" v="802354" />
	</node>
	<node lat="63.25780555951151" lon="10.037633331028605" id="-81875">
		<tag k="fixme" v="consider place=hamlet" />
		<tag k="name" v="Skjellan" />
		<tag k="place" v="farm" />
		<tag k="ssr:stedsnr" v="802741" />
	</node>
	<node lat="63.25436981557771" lon="10.043032857137886" id="-81876">
		<tag k="alt_name" v="Syrstad" />
		<tag k="name" v="Syrstadgjerdet" />
		<tag k="place" v="farm" />
		<tag k="ssr:stedsnr" v="802745" />
	</node>
	<node lat="63.251011113886705" lon="10.174544452841664" id="-81877">
		<tag k="alt_name" v="Aune" />
		<tag k="fixme" v="consider place=hamlet" />
		<tag k="name" v="Aunet" />
		<tag k="place" v="farm" />
		<tag k="ssr:stedsnr" v="802747" />
	</node>
	<node lat="63.270675002862426" lon="10.055886118313444" id="-81879">
		<tag k="alt_name" v="Skora" />
		<tag k="fixme" v="consider place=hamlet" />
		<tag k="name" v="Skåra" />
		<tag k="place" v="farm" />
		<tag k="ssr:stedsnr" v="802761" />
	</node>
	<node lat="63.238583334146725" lon="9.982301657219175" id="-81888">
		<tag k="name" v="Oppistu Melby" />
		<tag k="old_name" v="Oppistu" />
		<tag k="place" v="farm" />
		<tag k="ssr:stedsnr" v="812295" />
	</node>
	<node lat="63.30890833418343" lon="10.141197223007634" id="-81889">
		<tag k="name" v="Bergtrøa" />
		<tag k="place" v="isolated_dwelling" />
		<tag k="ssr:stedsnr" v="812330" />
	</node>
	<node lat="63.268819448047864" lon="10.061716658059096" id="-81890">
		<tag k="name" v="Skoralykkja" />
		<tag k="place" v="farm" />
		<tag k="ssr:stedsnr" v="812341" />
	</node>
	<node lat="63.2316750036465" lon="10.00912777928914" id="-81892">
		<tag k="name" v="Kuvåssetra" />
		<tag k="place" v="farm" />
		<tag k="ssr:stedsnr" v="812379" />
	</node>
	<node lat="63.33171666414831" lon="9.983125008522867" id="-81904">
		<tag k="name" v="Sør Hellbekken" />
		<tag k="place" v="farm" />
		<tag k="ssr:stedsnr" v="813159" />
	</node>
	<node lat="63.280621883527644" lon="10.032271184558931" id="-81915">
		<tag k="name" v="Eggan" />
		<tag k="place" v="hamlet" />
		<tag k="ssr:stedsnr" v="813861" />
	</node>
	<node lat="63.22511944887079" lon="10.036916674255044" id="-81921">
		<tag k="name" v="Aunan" />
		<tag k="place" v="hamlet" />
		<tag k="ssr:stedsnr" v="849343" />
	</node>
	<node lat="63.28286944348581" lon="10.034863888284065" id="-81922">
		<tag k="name" v="Nordgjerdet" />
		<tag k="place" v="farm" />
		<tag k="ssr:stedsnr" v="849729" />
	</node>
	<node lat="63.314091663492455" lon="10.080133339397948" id="-81923">
		<tag k="name" v="Krangsås" />
		<tag k="place" v="hamlet" />
		<tag k="ssr:stedsnr" v="849745" />
	</node>
	<node lat="63.23022777861245" lon="10.117561116136745" id="-81925">
		<tag k="alt_name" v="Hosethagen;Hosethåggån" />
		<tag k="name" v="Hosetkalvhåggån" />
		<tag k="place" v="farm" />
		<tag k="ssr:stedsnr" v="862262" />
	</node>
	<node lat="63.225636111204935" lon="10.040180545966084" id="-81926">
		<tag k="fixme" v="consider place=hamlet" />
		<tag k="name" v="Aunan" />
		<tag k="place" v="farm" />
		<tag k="ssr:stedsnr" v="862264" />
	</node>
	<node lat="63.326561106854484" lon="9.981358327154673" id="-81927">
		<tag k="alt_name" v="Hestvollan" />
		<tag k="fixme" v="consider place=hamlet" />
		<tag k="name" v="Hestvollen" />
		<tag k="place" v="farm" />
		<tag k="ssr:stedsnr" v="862278" />
	</node>
	<node lat="63.31038649473087" lon="10.190419512417563" id="-81928">
		<tag k="fixme" v="consider place=hamlet" />
		<tag k="name" v="Husby" />
		<tag k="place" v="farm" />
		<tag k="ssr:stedsnr" v="862287" />
	</node>
	<node lat="63.245854967028535" lon="10.166921678455402" id="-81929">
		<tag k="name" v="Ormhaugen" />
		<tag k="place" v="farm" />
		<tag k="ssr:stedsnr" v="862288" />
	</node>
	<node lat="63.23710277671005" lon="10.136299996498503" id="-81930">
		<tag k="name" v="Isåsen" />
		<tag k="place" v="farm" />
		<tag k="ssr:stedsnr" v="862292" />
	</node>
	<node lat="63.281027776143084" lon="10.067269444542696" id="-81931">
		<tag k="alt_name" v="Uvåsgrova" />
		<tag k="name" v="Uvås" />
		<tag k="place" v="farm" />
		<tag k="ssr:stedsnr" v="863138" />
	</node>
	<node lat="63.32053055949007" lon="10.075519442662536" id="-81932">
		<tag k="fixme" v="consider place=hamlet" />
		<tag k="name" v="Einan" />
		<tag k="place" v="farm" />
		<tag k="ssr:stedsnr" v="863305" />
	</node>
	<node lat="63.298399995925664" lon="9.93765277527713" id="-81933">
		<tag k="historic" v="shieling" />
		<tag k="name" v="Baklia" />
		<tag k="place" v="isolated_dwelling" />
		<tag k="ssr:stedsnr" v="863329" />
	</node>
	<node lat="63.300555553883015" lon="10.176544441102058" id="-81934">
		<tag k="alt_name" v="Lykkja" />
		<tag k="name" v="Saltneslykkja" />
		<tag k="place" v="farm" />
		<tag k="ssr:stedsnr" v="863336" />
	</node>
	<node lat="63.3212416641982" lon="10.056161119610733" id="-81935">
		<tag k="name" v="Kleiva" />
		<tag k="place" v="farm" />
		<tag k="ssr:stedsnr" v="863291" />
	</node>
	<node lat="63.256052773758" lon="9.992030553693528" id="-81936">
		<tag k="fixme" v="consider place=hamlet" />
		<tag k="name" v="Moen" />
		<tag k="place" v="farm" />
		<tag k="ssr:stedsnr" v="863702" />
	</node>
	<node lat="63.26829721891082" lon="10.170966658255415" id="-81938">
		<tag k="fixme" v="consider place=hamlet" />
		<tag k="name" v="Stavholt" />
		<tag k="place" v="farm" />
		<tag k="ssr:stedsnr" v="863728" />
	</node>
	<node lat="63.30620833348758" lon="10.149877775177274" id="-81941">
		<tag k="name" v="Sandbrauta" />
		<tag k="place" v="quarter" />
		<tag k="ssr:stedsnr" v="873013" />
	</node>
	<node lat="63.30559166611329" lon="10.16857499237447" id="-81943">
		<tag k="name" v="Lian" />
		<tag k="place" v="farm" />
		<tag k="ssr:stedsnr" v="873020" />
	</node>
	<node lat="63.29961389006924" lon="10.058744450110488" id="-81944">
		<tag k="name" v="Riaunet" />
		<tag k="place" v="farm" />
		<tag k="ssr:stedsnr" v="873024" />
	</node>
	<node lat="63.31181666969946" lon="10.151475002199094" id="-81945">
		<tag k="name" v="Hammerlykkja" />
		<tag k="place" v="farm" />
		<tag k="ssr:stedsnr" v="873029" />
	</node>
	<node lat="63.31946944213646" lon="10.100355563389362" id="-81947">
		<tag k="name" v="Rønningen" />
		<tag k="place" v="farm" />
		<tag k="ssr:stedsnr" v="873044" />
	</node>
	<node lat="63.323540291651696" lon="10.077428442109188" id="-81948">
		<tag k="fixme" v="consider place=hamlet" />
		<tag k="name" v="Naustan" />
		<tag k="place" v="farm" />
		<tag k="ssr:stedsnr" v="873125" />
	</node>
	<node lat="63.32299444344615" lon="10.05743334195149" id="-81949">
		<tag k="name" v="Moan" />
		<tag k="place" v="farm" />
		<tag k="ssr:stedsnr" v="873129" />
	</node>
	<node lat="63.319297226444895" lon="10.090169438205795" id="-81952">
		<tag k="alt_name" v="Mestad" />
		<tag k="name" v="Meistad" />
		<tag k="place" v="farm" />
		<tag k="ssr:stedsnr" v="873185" />
	</node>
	<node lat="63.329491662692156" lon="10.060022221203951" id="-81958">
		<tag k="name" v="Jyssan" />
		<tag k="place" v="farm" />
		<tag k="ssr:stedsnr" v="873134" />
	</node>
	<node lat="63.30166215117487" lon="9.912904065230084" id="-81970">
		<tag k="alt_name" v="Årlia" />
		<tag k="historic" v="shieling" />
		<tag k="name" v="Sør Årlia" />
		<tag k="place" v="isolated_dwelling" />
		<tag k="ssr:stedsnr" v="873245" />
	</node>
	<node lat="63.25416944666362" lon="9.927963882124827" id="-81977">
		<tag k="name" v="Mjølhustronget" />
		<tag k="place" v="isolated_dwelling" />
		<tag k="ssr:stedsnr" v="873298" />
	</node>
	<node lat="63.28747282058545" lon="10.177866111392229" id="-81978">
		<tag k="name" v="Svanglykkja" />
		<tag k="place" v="farm" />
		<tag k="ssr:stedsnr" v="873306" />
	</node>
	<node lat="63.24782777612854" lon="10.04112777984531" id="-81986">
		<tag k="name" v="Gården" />
		<tag k="place" v="farm" />
		<tag k="ssr:stedsnr" v="873462" />
	</node>
	<node lat="63.25051666727754" lon="10.05123056466728" id="-82003">
		<tag k="amenity" v="school" />
		<tag k="name" v="Venn oppvekstsenter, avdeling skole" />
		<tag k="ssr:stedsnr" v="950259" />
	</node>
	<node lat="63.312660302930915" lon="9.955162488474855" id="-82008">
		<tag k="name" v="Høgåsen" />
		<tag k="place" v="locality" />
		<tag k="ssr:stedsnr" v="970325" />
	</node>
	<node lat="63.344715122190635" lon="9.996111951387842" id="-82009">
		<tag k="name" v="Viggja" />
		<tag k="place" v="hamlet" />
		<tag k="ssr:stedsnr" v="970378" />
	</node>
	<node lat="63.24455278113712" lon="10.057686112855334" id="-82010">
		<tag k="fixme" v="consider place=hamlet" />
		<tag k="name" v="Solstad" />
		<tag k="place" v="farm" />
		<tag k="ssr:stedsnr" v="970446" />
	</node>
	<node lat="63.26629166857708" lon="10.06156943819521" id="-82011">
		<tag k="fixme" v="consider place=hamlet" />
		<tag k="name" v="Bjørgan" />
		<tag k="place" v="farm" />
		<tag k="ssr:stedsnr" v="970473" />
	</node>
	<node lat="63.23690065817963" lon="9.980336083927117" id="-82012">
		<tag k="fixme" v="consider place=hamlet" />
		<tag k="name" v="Melby" />
		<tag k="place" v="farm" />
		<tag k="ssr:stedsnr" v="970478" />
	</node>
	<node lat="63.31043736046528" lon="10.189549746235919" id="-82013">
		<tag k="name" v="Huseby" />
		<tag k="place" v="farm" />
		<tag k="ssr:stedsnr" v="973409" />
	</node>
	<node lat="63.286018746244004" lon="10.172601567444556" id="-82014">
		<tag k="name" v="Svangen" />
		<tag k="place" v="farm" />
		<tag k="ssr:stedsnr" v="975659" />
	</node>
	<node lat="63.30886605544987" lon="10.161862506707052" id="-82021">
		<tag k="name" v="Hammer Frammigård" />
		<tag k="place" v="farm" />
		<tag k="ssr:stedsnr" v="982642" />
	</node>
</osm>
