<?xml version="1.0" encoding="UTF-8"?>
<<<<<<< HEAD
<osm version="0.6" generator="osmapis">
	<node lat="63.20402777605794" lon="10.080183324927598" id="-34596">
		<tag k="name" v="Vålåtjønnin" />
		<tag k="natural" v="water" />
		<tag k="ssr:stedsnr" v="12202" />
	</node>
	<node lat="63.31228055224883" lon="9.978930553926814" id="-34599">
		<tag k="name" v="Gjæsa" />
		<tag k="old_name" v="Gjesa" />
		<tag k="ssr:stedsnr" v="13309" />
		<tag k="waterway" v="stream" />
	</node>
	<node lat="63.25131666697318" lon="9.901075003876471" id="-34600">
		<tag k="name" v="Skytjønna" />
=======
<osm generator="osmapis" version="0.6">
	<node id="-754687" lat="63.2189722216" lon="10.0429638902">
		<tag k="name" v="Dalsbekken" />
		<tag k="ssr:stedsnr" v="145342" />
		<tag k="waterway" v="stream" />
	</node>
	<node id="-755198" lat="63.2336999968" lon="9.9694305575">
		<tag k="name" v="Slema" />
		<tag k="ssr:stedsnr" v="862298" />
		<tag k="waterway" v="stream" />
	</node>
	<node id="-754681" lat="63.2903027759" lon="10.0684138872">
		<tag k="name" v="Myrabekken" />
		<tag k="ssr:stedsnr" v="145174" />
		<tag k="waterway" v="stream" />
	</node>
	<node id="-754678" lat="63.2891083321" lon="9.98927221774">
		<tag k="name" v="Yrtjønna" />
>>>>>>> e1d4bc35ff8a6074a6f2e91616a996b547c36f15
		<tag k="natural" v="water" />
		<tag k="ssr:stedsnr" v="13711" />
	</node>
<<<<<<< HEAD
	<node lat="63.33211944018311" lon="9.940827769436698" id="-34614">
		<tag k="name" v="Buråsbekken" />
		<tag k="ssr:stedsnr" v="24183" />
		<tag k="waterway" v="stream" />
	</node>
	<node lat="63.23314444287733" lon="10.122413893183165" id="-34619">
		<tag k="name" v="Svarttjønna" />
		<tag k="natural" v="water" />
		<tag k="ssr:stedsnr" v="24436" />
	</node>
	<node lat="63.21714722020649" lon="10.140155561796556" id="-34620">
		<tag k="name" v="Nessan" />
		<tag k="natural" v="cape" />
		<tag k="ssr:stedsnr" v="24437" />
	</node>
	<node lat="63.33461111368678" lon="9.98977222105314" id="-34622">
		<tag k="name" v="Dålåbekken" />
		<tag k="ssr:stedsnr" v="25202" />
		<tag k="waterway" v="stream" />
	</node>
	<node lat="63.20714166993822" lon="9.936100004911191" id="-34656">
		<tag k="name" v="Langslættbekken" />
		<tag k="ssr:stedsnr" v="84402" />
		<tag k="waterway" v="stream" />
	</node>
	<node lat="63.20926666501204" lon="10.057563886771064" id="-34661">
		<tag k="name" v="Bjørgbekken" />
		<tag k="ssr:stedsnr" v="84607" />
		<tag k="waterway" v="stream" />
	</node>
	<node lat="63.17849999903405" lon="9.9426194419984" id="-34662">
		<tag k="name" v="Budalsbukta" />
		<tag k="natural" v="bay" />
		<tag k="ssr:stedsnr" v="84629" />
	</node>
	<node lat="63.295594440540846" lon="10.012066660068328" id="-34663">
		<tag k="name" v="Rossvatnet" />
		<tag k="natural" v="water" />
		<tag k="ssr:stedsnr" v="85106" />
		<tag k="water" v="lake" />
	</node>
	<node lat="63.21549167013598" lon="10.023880553287826" id="-34689">
=======
	<node id="-754161" lat="63.2005277771" lon="9.99146388454">
		<tag k="name" v="Åsslættbekken" />
		<tag k="ssr:stedsnr" v="448624" />
		<tag k="waterway" v="stream" />
	</node>
	<node id="-755184" lat="63.2093472236" lon="9.99568332706">
		<tag k="name" v="Langolabekken" />
		<tag k="ssr:stedsnr" v="813559" />
		<tag k="waterway" v="stream" />
	</node>
	<node id="-754670" lat="63.1907083294" lon="9.92446665662">
		<tag k="name" v="Svarttjønnbekken" />
		<tag k="ssr:stedsnr" v="144438" />
		<tag k="waterway" v="stream" />
	</node>
	<node id="-755181" lat="63.3278416709" lon="9.95631945026">
		<tag k="name" v="Grandalsbekken" />
		<tag k="ssr:stedsnr" v="813527" />
		<tag k="waterway" v="stream" />
	</node>
	<node id="-754155" lat="63.2346055539" lon="9.89988610875">
		<tag k="name" v="Svarttjønnbekken" />
		<tag k="ssr:stedsnr" v="448319" />
		<tag k="waterway" v="stream" />
	</node>
	<node id="-754666" lat="63.2260416634" lon="10.0627499938">
		<tag k="name" v="Syndsvikbekken" />
		<tag k="ssr:stedsnr" v="144421" />
		<tag k="waterway" v="stream" />
	</node>
	<node id="-754663" lat="63.2154916701" lon="10.0238805533">
>>>>>>> e1d4bc35ff8a6074a6f2e91616a996b547c36f15
		<tag k="name" v="Stormorfossen" />
		<tag k="natural" v="waterfall" />
		<tag k="ssr:stedsnr" v="144405" />
	</node>
<<<<<<< HEAD
	<node lat="63.28910833205851" lon="9.989272217735156" id="-34697">
		<tag k="name" v="Yrtjønna" />
		<tag k="natural" v="water" />
		<tag k="ssr:stedsnr" v="145137" />
	</node>
	<node lat="63.17984444114218" lon="9.998438879839638" id="-34699">
		<tag k="name" v="Morfossen" />
		<tag k="natural" v="waterfall" />
		<tag k="ssr:stedsnr" v="145532" />
	</node>
	<node lat="63.34301666908934" lon="9.994208332406783" id="-34702">
		<tag k="alt_name" v="Viggjelva" />
		<tag k="name" v="Viggja" />
		<tag k="ssr:stedsnr" v="256440" />
		<tag k="waterway" v="river" />
	</node>
	<node lat="63.285316667398405" lon="10.120552780662337" id="-34722">
		<tag k="name" v="Stoan" />
		<tag k="natural" v="waterfall" />
		<tag k="ssr:stedsnr" v="266311" />
	</node>
	<node lat="63.23268889001953" lon="10.071369436153152" id="-34729">
		<tag k="name" v="Soksoddan" />
		<tag k="natural" v="cape" />
		<tag k="ssr:stedsnr" v="266372" />
	</node>
	<node lat="63.22535555496966" lon="10.098794448977687" id="-34730">
		<tag k="name" v="Storvikodden" />
=======
	<node id="-755174" lat="63.228613888" lon="10.1170999944">
		<tag k="name" v="Konstadbekken" />
		<tag k="ssr:stedsnr" v="813395" />
		<tag k="waterway" v="stream" />
	</node>
	<node id="-753915" lat="63.1986444465" lon="9.98621666511">
		<tag k="name" v="Grønlibekken" />
		<tag k="ssr:stedsnr" v="266584" />
		<tag k="waterway" v="stream" />
	</node>
	<node id="-755109" lat="63.2442000003" lon="10.1358777709">
		<tag k="name" v="Kjølvatnet" />
		<tag k="natural" v="water" />
		<tag k="ssr:stedsnr" v="801249" />
	</node>
	<node id="-755159" lat="63.2902916627" lon="10.0309805554">
		<tag k="name" v="Ormbekken" />
		<tag k="ssr:stedsnr" v="813119" />
		<tag k="waterway" v="stream" />
	</node>
	<node id="-755158" lat="63.2958166693" lon="10.0414777819">
		<tag k="name" v="Sandbekken" />
		<tag k="ssr:stedsnr" v="813117" />
		<tag k="waterway" v="stream" />
	</node>
	<node id="-754169" lat="63.3295861154" lon="9.93120833963">
		<tag k="name" v="Storsandbekken" />
		<tag k="ssr:stedsnr" v="449202" />
		<tag k="waterway" v="stream" />
	</node>
	<node id="-755156" lat="63.2978472218" lon="9.97752500206">
		<tag k="name" v="Litlgåsvatnet" />
		<tag k="natural" v="water" />
		<tag k="ssr:stedsnr" v="813113" />
		<tag k="water" v="lake" />
	</node>
	<node id="-754125" lat="63.2237777805" lon="10.1308500007">
		<tag k="name" v="Konstadodden" />
>>>>>>> e1d4bc35ff8a6074a6f2e91616a996b547c36f15
		<tag k="natural" v="cape" />
		<tag k="ssr:stedsnr" v="266374" />
	</node>
<<<<<<< HEAD
	<node lat="63.29771388464857" lon="9.947733331983242" id="-34733">
		<tag k="name" v="Jystadbekken" />
		<tag k="ssr:stedsnr" v="267191" />
		<tag k="waterway" v="stream" />
	</node>
	<node lat="63.21771666497784" lon="9.969880547073338" id="-34749">
		<tag k="name" v="Litllomtjønna" />
		<tag k="natural" v="water" />
		<tag k="ssr:stedsnr" v="205470" />
	</node>
	<node lat="63.26053333758197" lon="9.894919444734725" id="-34760">
		<tag k="name" v="Litlhaukatjønna" />
		<tag k="natural" v="water" />
		<tag k="ssr:stedsnr" v="449277" />
	</node>
	<node lat="63.26478888745787" lon="10.016952777209552" id="-34762">
		<tag k="name" v="Myrinsbekken" />
		<tag k="ssr:stedsnr" v="449253" />
		<tag k="waterway" v="stream" />
	</node>
	<node lat="63.198644446451034" lon="9.986216665114075" id="-34789">
		<tag k="name" v="Grønlibekken" />
		<tag k="ssr:stedsnr" v="266584" />
		<tag k="waterway" v="stream" />
	</node>
	<node lat="63.22286111235657" lon="9.970719440982478" id="-34803">
		<tag k="alt_name" v="Storlomtjønna" />
		<tag k="name" v="Lomtjønna" />
		<tag k="natural" v="water" />
		<tag k="ssr:stedsnr" v="315217" />
	</node>
	<node lat="63.246263893182224" lon="10.092433325015863" id="-34804">
		<tag k="name" v="Eisa" />
		<tag k="ssr:stedsnr" v="316297" />
		<tag k="waterway" v="stream" />
	</node>
	<node lat="63.28060555521842" lon="10.16352777681696" id="-34806">
		<tag k="name" v="Rognvatnet" />
=======
	<node id="-755105" lat="63.2141194403" lon="10.1374666665">
		<tag k="name" v="Grønvika" />
		<tag k="natural" v="bay" />
		<tag k="ssr:stedsnr" v="788897" />
	</node>
	<node id="-754116" lat="63.2197749978" lon="10.0725305505">
		<tag k="name" v="Slættbekken" />
		<tag k="ssr:stedsnr" v="508416" />
		<tag k="waterway" v="stream" />
	</node>
	<node id="-754626" lat="63.3248472196" lon="9.97098333572">
		<tag k="name" v="Sjetnbekken" />
		<tag k="ssr:stedsnr" v="85169" />
		<tag k="waterway" v="stream" />
	</node>
	<node id="-754625" lat="63.178499999" lon="9.942619442">
		<tag k="name" v="Budalsbukta" />
		<tag k="natural" v="bay" />
		<tag k="ssr:stedsnr" v="84629" />
	</node>
	<node id="-754506" lat="63.3254833346" lon="10.029991665">
		<tag k="name" v="Rossvatnet" />
		<tag k="natural" v="water" />
		<tag k="ssr:stedsnr" v="934106" />
		<tag k="water" v="lake" />
	</node>
	<node id="-754218" lat="63.2345861085" lon="9.91026388393">
		<tag k="name" v="Rørtjønnbekken" />
		<tag k="ssr:stedsnr" v="508313" />
		<tag k="waterway" v="stream" />
	</node>
	<node id="-754102" lat="63.2878222228" lon="9.98171388644">
		<tag k="name" v="Stavtjønna" />
		<tag k="natural" v="water" />
		<tag k="ssr:stedsnr" v="508160" />
	</node>
	<node id="-755125" lat="63.2557833318" lon="10.130136114">
		<tag k="name" v="Svarttjønna" />
>>>>>>> e1d4bc35ff8a6074a6f2e91616a996b547c36f15
		<tag k="natural" v="water" />
		<tag k="ssr:stedsnr" v="316409" />
	</node>
<<<<<<< HEAD
	<node lat="63.273844443996396" lon="10.07330834196781" id="-34811">
		<tag k="name" v="Eidsmobekken" />
		<tag k="ssr:stedsnr" v="326367" />
		<tag k="waterway" v="stream" />
	</node>
	<node lat="63.24855555573279" lon="9.978416659803399" id="-34826">
		<tag k="name" v="Bølbekken" />
		<tag k="ssr:stedsnr" v="327268" />
		<tag k="waterway" v="stream" />
	</node>
	<node lat="63.26506388682745" lon="9.90824443661779" id="-34835">
		<tag k="name" v="Grønlitjønna" />
=======
	<node id="-754099" lat="63.3447555536" lon="10.0285055626">
		<tag k="name" v="Kolåsdalsbekken" />
		<tag k="ssr:stedsnr" v="508048" />
		<tag k="waterway" v="stream" />
	</node>
	<node id="-755121" lat="63.2674277765" lon="9.89856666844">
		<tag k="alt_name" v="Storhaukatjønna" />
		<tag k="name" v="Storhauka" />
>>>>>>> e1d4bc35ff8a6074a6f2e91616a996b547c36f15
		<tag k="natural" v="water" />
		<tag k="ssr:stedsnr" v="328559" />
	</node>
	<node lat="63.19088055564929" lon="9.986008324899759" id="-34842">
		<tag k="name" v="Krokan" />
		<tag k="ssr:stedsnr" v="376174" />
		<tag k="waterway" v="stream" />
	</node>
<<<<<<< HEAD
	<node lat="63.243455551211305" lon="9.95059443768582" id="-34864">
		<tag k="name" v="Storodden" />
		<tag k="natural" v="cape" />
		<tag k="ssr:stedsnr" v="388240" />
	</node>
	<node lat="63.218330557759266" lon="10.082091673857608" id="-34865">
		<tag k="name" v="Svartbekken" />
		<tag k="ssr:stedsnr" v="388408" />
		<tag k="waterway" v="stream" />
	</node>
	<node lat="63.23460555392422" lon="9.899886108749518" id="-34893">
		<tag k="name" v="Svarttjønnbekken" />
		<tag k="ssr:stedsnr" v="448319" />
		<tag k="waterway" v="stream" />
	</node>
	<node lat="63.21732778143696" lon="10.123863882305757" id="-34896">
		<tag k="name" v="Holbekken" />
		<tag k="ssr:stedsnr" v="448501" />
		<tag k="waterway" v="stream" />
	</node>
	<node lat="63.20052777709189" lon="9.991463884541117" id="-34898">
		<tag k="name" v="Åsslættbekken" />
		<tag k="ssr:stedsnr" v="448624" />
		<tag k="waterway" v="stream" />
	</node>
	<node lat="63.329586115406535" lon="9.931208339633882" id="-34901">
		<tag k="name" v="Storsandbekken" />
		<tag k="ssr:stedsnr" v="449202" />
		<tag k="waterway" v="stream" />
	</node>
	<node lat="63.188577774660935" lon="9.992244440592524" id="-34921">
		<tag k="name" v="Svarttjønna" />
		<tag k="natural" v="water" />
		<tag k="ssr:stedsnr" v="680192" />
	</node>
	<node lat="63.238625002992706" lon="9.891124997190435" id="-34923">
		<tag k="name" v="Kjeløybekken" />
		<tag k="ssr:stedsnr" v="680281" />
		<tag k="waterway" v="stream" />
	</node>
	<node lat="63.23944721862287" lon="9.908905550459835" id="-34924">
		<tag k="name" v="Rørtjønna" />
		<tag k="natural" v="water" />
		<tag k="ssr:stedsnr" v="680282" />
	</node>
	<node lat="63.207827780843054" lon="10.094480555527657" id="-34927">
		<tag k="alt_name" v="Grevsjøen, litle" />
		<tag k="name" v="Litlgrevsjøen" />
		<tag k="natural" v="water" />
		<tag k="ssr:stedsnr" v="680237" />
	</node>
	<node lat="63.24479444502463" lon="9.95052777777582" id="-34929">
		<tag k="name" v="Litlslemsjøen" />
		<tag k="natural" v="water" />
		<tag k="ssr:stedsnr" v="680334" />
	</node>
	<node lat="63.28013611094211" lon="10.085519451203185" id="-34932">
		<tag k="name" v="Oksvatnet" />
		<tag k="natural" v="water" />
		<tag k="ssr:stedsnr" v="680384" />
	</node>
	<node lat="63.197997223234196" lon="10.03822778557806" id="-34937">
=======
	<node id="-754606" lat="63.3221666643" lon="10.0957250028">
		<tag k="name" v="Meia" />
		<tag k="ssr:stedsnr" v="84069" />
		<tag k="waterway" v="stream" />
	</node>
	<node id="-754599" lat="63.298161115" lon="10.1854861212">
		<tag k="name" v="Vigda" />
		<tag k="ssr:stedsnr" v="74343" />
		<tag k="waterway" v="river" />
	</node>
	<node id="-754597" lat="63.3174527766" lon="10.015461107">
		<tag k="name" v="Svorka" />
		<tag k="ssr:stedsnr" v="74297" />
		<tag k="waterway" v="stream" />
	</node>
	<node id="-754593" lat="63.1740999985" lon="9.99540554937">
		<tag k="name" v="Mora" />
		<tag k="ssr:stedsnr" v="73496" />
		<tag k="waterway" v="stream" />
	</node>
	<node id="-754592" lat="63.2823944484" lon="10.1240416695">
		<tag k="alt_name" v="Djupsjøbekken" />
		<tag k="name" v="Djupdalsbekken" />
		<tag k="ssr:stedsnr" v="73353" />
		<tag k="waterway" v="stream" />
	</node>
	<node id="-754591" lat="63.2060000031" lon="10.0043944439">
		<tag k="name" v="Hauka" />
		<tag k="ssr:stedsnr" v="73200" />
		<tag k="waterway" v="stream" />
	</node>
	<node id="-754245" lat="63.2969944401" lon="9.94750554757">
		<tag k="name" v="Seterbekken" />
		<tag k="ssr:stedsnr" v="691188" />
		<tag k="waterway" v="stream" />
	</node>
	<node id="-754059" lat="63.1979972232" lon="10.0382277856">
>>>>>>> e1d4bc35ff8a6074a6f2e91616a996b547c36f15
		<tag k="name" v="Gåstjønna" />
		<tag k="natural" v="water" />
		<tag k="ssr:stedsnr" v="498242" />
	</node>
<<<<<<< HEAD
	<node lat="63.291358337010486" lon="10.161511110330528" id="-34948">
		<tag k="name" v="Ner Hundsvatnet" />
		<tag k="natural" v="water" />
		<tag k="ssr:stedsnr" v="508088" />
	</node>
	<node lat="63.23458610850325" lon="9.910263883926637" id="-34953">
		<tag k="name" v="Rørtjønnbekken" />
		<tag k="ssr:stedsnr" v="508313" />
		<tag k="waterway" v="stream" />
	</node>
	<node lat="63.22377778046537" lon="10.130850000679775" id="-34962">
		<tag k="name" v="Konstadodden" />
=======
	<node id="-754570" lat="63.2171472202" lon="10.1401555618">
		<tag k="name" v="Nessan" />
>>>>>>> e1d4bc35ff8a6074a6f2e91616a996b547c36f15
		<tag k="natural" v="cape" />
		<tag k="ssr:stedsnr" v="508524" />
	</node>
<<<<<<< HEAD
	<node lat="63.24095277354405" lon="9.934058330569538" id="-34965">
		<tag k="name" v="Kvennbekken" />
		<tag k="ssr:stedsnr" v="509272" />
		<tag k="waterway" v="stream" />
	</node>
	<node lat="63.24331389110648" lon="9.932341660569858" id="-34972">
		<tag k="name" v="Vinåsvatnet" />
=======
	<node id="-754569" lat="63.2331444429" lon="10.1224138932">
		<tag k="name" v="Svarttjønna" />
>>>>>>> e1d4bc35ff8a6074a6f2e91616a996b547c36f15
		<tag k="natural" v="water" />
		<tag k="ssr:stedsnr" v="558311" />
	</node>
<<<<<<< HEAD
	<node lat="63.22769444523766" lon="10.050280552391202" id="-34975">
		<tag k="name" v="Våddån" />
		<tag k="natural" v="water" />
		<tag k="ssr:stedsnr" v="558254" />
	</node>
	<node lat="63.25991666466313" lon="9.941125000593424" id="-34980">
		<tag k="alt_name" v="Rossvassbekken" />
		<tag k="name" v="Kastbekken" />
		<tag k="ssr:stedsnr" v="559739" />
		<tag k="waterway" v="stream" />
	</node>
	<node lat="63.29699444007538" lon="9.947505547569348" id="-34991">
		<tag k="name" v="Seterbekken" />
		<tag k="ssr:stedsnr" v="691188" />
		<tag k="waterway" v="stream" />
	</node>
	<node lat="63.2534555578994" lon="9.943369441768445" id="-34994">
		<tag k="name" v="Ramsjøbekken" />
		<tag k="ssr:stedsnr" v="691327" />
		<tag k="waterway" v="stream" />
	</node>
	<node lat="63.25806111356812" lon="10.133386104949203" id="-34997">
		<tag k="name" v="Svarttjønnbekken" />
		<tag k="ssr:stedsnr" v="691348" />
		<tag k="waterway" v="stream" />
	</node>
	<node lat="63.258422221498144" lon="9.930963892783398" id="-35011">
		<tag k="name" v="Kånnåbekken" />
		<tag k="ssr:stedsnr" v="692538" />
		<tag k="waterway" v="stream" />
	</node>
	<node lat="63.2763305519859" lon="9.917044450596752" id="-35020">
		<tag k="name" v="Svarttjønna" />
		<tag k="natural" v="water" />
		<tag k="ssr:stedsnr" v="570115" />
	</node>
	<node lat="63.249969447843434" lon="9.903977785161215" id="-35050">
		<tag k="name" v="Skytjønnbekken" />
		<tag k="ssr:stedsnr" v="629303" />
		<tag k="waterway" v="stream" />
	</node>
	<node lat="63.24200555471148" lon="9.907030552663894" id="-35051">
		<tag k="name" v="Nerseterbekken" />
		<tag k="ssr:stedsnr" v="629307" />
		<tag k="waterway" v="stream" />
	</node>
	<node lat="63.26549722346876" lon="10.039877776740598" id="-35052">
		<tag k="name" v="Buskosen" />
=======
	<node id="-754564" lat="63.2920916672" lon="10.1359277718">
		<tag k="name" v="Liabekken" />
		<tag k="ssr:stedsnr" v="24271" />
		<tag k="waterway" v="stream" />
	</node>
	<node id="-754562" lat="63.2505916653" lon="9.94277500862">
		<tag k="name" v="Svartdalsbekken" />
		<tag k="ssr:stedsnr" v="24258" />
		<tag k="waterway" v="stream" />
	</node>
	<node id="-754561" lat="63.2405361107" lon="9.94619444821">
		<tag k="name" v="Rognåa" />
		<tag k="ssr:stedsnr" v="24255" />
		<tag k="waterway" v="stream" />
	</node>
	<node id="-754556" lat="63.3321194402" lon="9.94082776944">
		<tag k="name" v="Buråsbekken" />
		<tag k="ssr:stedsnr" v="24183" />
		<tag k="waterway" v="stream" />
	</node>
	<node id="-755066" lat="63.272230555" lon="10.138133326">
		<tag k="name" v="Tjønna" />
		<tag k="natural" v="bay" />
		<tag k="ssr:stedsnr" v="751380" />
	</node>
	<node id="-755063" lat="63.2697472264" lon="10.0506111125">
		<tag k="name" v="Skorabukta" />
>>>>>>> e1d4bc35ff8a6074a6f2e91616a996b547c36f15
		<tag k="natural" v="bay" />
		<tag k="ssr:stedsnr" v="629352" />
	</node>
<<<<<<< HEAD
	<node lat="63.24259123239117" lon="10.160203563913687" id="-35058">
		<tag k="name" v="Langholmen" />
		<tag k="place" v="islet" />
		<tag k="ssr:stedsnr" v="629455" />
	</node>
	<node lat="63.23009167092003" lon="9.90461389614754" id="-35076">
		<tag k="name" v="Svarttjønna" />
		<tag k="natural" v="water" />
		<tag k="ssr:stedsnr" v="679211" />
	</node>
	<node lat="63.23424167023227" lon="9.950161107590102" id="-35077">
		<tag k="alt_name" v="Turtåsbekken" />
		<tag k="name" v="Tortåsbekken" />
		<tag k="ssr:stedsnr" v="680307" />
		<tag k="waterway" v="stream" />
	</node>
	<node lat="63.245802776527576" lon="9.893136120076802" id="-35112">
		<tag k="name" v="Byavatnet" />
		<tag k="natural" v="water" />
		<tag k="ssr:stedsnr" v="740306" />
	</node>
	<node lat="63.28490833300368" lon="10.102208331750864" id="-35116">
=======
	<node id="-755052" lat="63.284908333" lon="10.1022083318">
>>>>>>> e1d4bc35ff8a6074a6f2e91616a996b547c36f15
		<tag k="alt_name" v="Setervatnet" />
		<tag k="name" v="Sætervatnet" />
		<tag k="natural" v="water" />
		<tag k="ssr:stedsnr" v="741409" />
	</node>
<<<<<<< HEAD
	<node lat="63.29570000137336" lon="10.137305561989042" id="-35118">
=======
	<node id="-755049" lat="63.2957000014" lon="10.137305562">
>>>>>>> e1d4bc35ff8a6074a6f2e91616a996b547c36f15
		<tag k="alt_name" v="Femtidammen" />
		<tag k="name" v="Nydammen" />
		<tag k="natural" v="water" />
		<tag k="ssr:stedsnr" v="741401" />
	</node>
<<<<<<< HEAD
	<node lat="63.307250003777284" lon="10.154180556632351" id="-35122">
		<tag k="name" v="Gråtbekken" />
		<tag k="ssr:stedsnr" v="751032" />
		<tag k="waterway" v="stream" />
	</node>
	<node lat="63.2697472263907" lon="10.050611112485656" id="-35126">
		<tag k="name" v="Skorabukta" />
		<tag k="natural" v="bay" />
		<tag k="ssr:stedsnr" v="751369" />
	</node>
	<node lat="63.27223055497223" lon="10.138133326005638" id="-35129">
		<tag k="name" v="Tjønna" />
		<tag k="natural" v="bay" />
		<tag k="ssr:stedsnr" v="751380" />
	</node>
	<node lat="63.20578611557932" lon="10.144174994631067" id="-35160">
		<tag k="name" v="Ånøya" />
=======
	<node id="-754021" lat="63.3213361098" lon="10.1220194457">
		<tag k="name" v="Vollabekken" />
		<tag k="ssr:stedsnr" v="326049" />
		<tag k="waterway" v="stream" />
	</node>
	<node id="-754020" lat="63.2721694462" lon="10.0430666623">
		<tag k="name" v="Laugen" />
		<tag k="natural" v="water" />
		<tag k="ssr:stedsnr" v="316765" />
		<tag k="water" v="lake" />
	</node>
	<node id="-754019" lat="63.2806055552" lon="10.1635277768">
		<tag k="name" v="Rognvatnet" />
		<tag k="natural" v="water" />
		<tag k="ssr:stedsnr" v="316409" />
	</node>
	<node id="-754018" lat="63.2228611124" lon="9.97071944098">
		<tag k="alt_name" v="Storlomtjønna" />
		<tag k="name" v="Lomtjønna" />
		<tag k="natural" v="water" />
		<tag k="ssr:stedsnr" v="315217" />
	</node>
	<node id="-754528" lat="63.240394442" lon="9.92811111188">
		<tag k="alt_name" v="Turtåsvatnet" />
		<tag k="name" v="Tortåsvatnet" />
>>>>>>> e1d4bc35ff8a6074a6f2e91616a996b547c36f15
		<tag k="natural" v="water" />
		<tag k="ssr:stedsnr" v="801206" />
		<tag k="water" v="lake" />
	</node>
<<<<<<< HEAD
	<node lat="63.19614166288431" lon="9.921944444853827" id="-35163">
		<tag k="name" v="Medskogsvatnet" />
		<tag k="natural" v="water" />
		<tag k="ssr:stedsnr" v="801176" />
	</node>
	<node lat="63.23735555581192" lon="9.91885278635492" id="-35166">
		<tag k="name" v="Rossvatnet" />
=======
	<node id="-754009" lat="63.2605333376" lon="9.89491944473">
		<tag k="name" v="Litlhaukatjønna" />
>>>>>>> e1d4bc35ff8a6074a6f2e91616a996b547c36f15
		<tag k="natural" v="water" />
		<tag k="ssr:stedsnr" v="802305" />
	</node>
<<<<<<< HEAD
	<node lat="63.26742777651025" lon="9.89856666844313" id="-35173">
		<tag k="alt_name" v="Storhaukatjønna" />
		<tag k="name" v="Storhauka" />
		<tag k="natural" v="water" />
		<tag k="ssr:stedsnr" v="802778" />
	</node>
	<node lat="63.30515833606289" lon="10.160938893064099" id="-35177">
		<tag k="name" v="Hammerbekken" />
		<tag k="ssr:stedsnr" v="812020" />
		<tag k="waterway" v="stream" />
	</node>
	<node lat="63.29784722184615" lon="9.977525002064084" id="-35191">
		<tag k="name" v="Litlgåsvatnet" />
		<tag k="natural" v="water" />
		<tag k="ssr:stedsnr" v="813113" />
		<tag k="water" v="lake" />
	</node>
	<node lat="63.3278416708935" lon="9.956319450263429" id="-35201">
		<tag k="name" v="Grandalsbekken" />
		<tag k="ssr:stedsnr" v="813527" />
		<tag k="waterway" v="stream" />
	</node>
	<node lat="63.26071666871991" lon="10.163263884444378" id="-35218">
=======
	<node id="-754516" lat="63.1803638922" lon="9.99174999651">
		<tag k="name" v="Erstjønnbekken" />
		<tag k="ssr:stedsnr" v="934512" />
		<tag k="waterway" v="stream" />
	</node>
	<node id="-754515" lat="63.2501499996" lon="10.0693027774">
		<tag k="name" v="Frøgda" />
		<tag k="ssr:stedsnr" v="934422" />
		<tag k="waterway" v="stream" />
	</node>
	<node id="-754513" lat="63.2158027822" lon="10.0963638875">
		<tag k="name" v="Setertjønna" />
		<tag k="natural" v="water" />
		<tag k="ssr:stedsnr" v="934340" />
	</node>
	<node id="-754488" lat="63.2038805542" lon="10.1039500068">
		<tag k="name" v="Ytter Tjørna" />
		<tag k="natural" v="water" />
		<tag k="ssr:stedsnr" v="874553" />
	</node>
	<node id="-753996" lat="63.3432277786" lon="9.97339721508">
		<tag k="name" v="Litlbrudalsbekken" />
		<tag k="ssr:stedsnr" v="449167" />
		<tag k="waterway" v="stream" />
	</node>
	<node id="-755018" lat="63.2654972235" lon="10.0398777767">
		<tag k="name" v="Buskosen" />
		<tag k="natural" v="bay" />
		<tag k="ssr:stedsnr" v="629352" />
	</node>
	<node id="-753993" lat="63.2647888875" lon="10.0169527772">
		<tag k="name" v="Myrinsbekken" />
		<tag k="ssr:stedsnr" v="449253" />
		<tag k="waterway" v="stream" />
	</node>
	<node id="-753804" lat="63.2040277761" lon="10.0801833249">
		<tag k="name" v="Vålåtjønnin" />
		<tag k="natural" v="water" />
		<tag k="ssr:stedsnr" v="12202" />
	</node>
	<node id="-754502" lat="63.2593666649" lon="10.01487222">
		<tag k="name" v="Litllaugen" />
		<tag k="natural" v="bay" />
		<tag k="ssr:stedsnr" v="934230" />
	</node>
	<node id="-754501" lat="63.2603166641" lon="10.0182500079">
		<tag k="name" v="Morosen" />
		<tag k="natural" v="bay" />
		<tag k="ssr:stedsnr" v="934228" />
	</node>
	<node id="-754496" lat="63.3241111078" lon="9.91080556242">
		<tag k="name" v="Jelbekken" />
		<tag k="ssr:stedsnr" v="934214" />
		<tag k="waterway" v="stream" />
	</node>
	<node id="-754492" lat="63.2607166687" lon="10.1632638844">
>>>>>>> e1d4bc35ff8a6074a6f2e91616a996b547c36f15
		<tag k="name" v="Kjølvassbekken" />
		<tag k="old_name" v="Kjølbekken" />
		<tag k="ssr:stedsnr" v="923712" />
		<tag k="waterway" v="stream" />
	</node>
<<<<<<< HEAD
	<node lat="63.23369999680886" lon="9.969430557501953" id="-35228">
		<tag k="name" v="Slema" />
		<tag k="ssr:stedsnr" v="862298" />
		<tag k="waterway" v="stream" />
	</node>
	<node lat="63.196916664052445" lon="10.098300005725273" id="-35232">
		<tag k="name" v="Grevsjøbekken" />
		<tag k="ssr:stedsnr" v="935553" />
		<tag k="waterway" v="stream" />
	</node>
	<node lat="63.28425555795804" lon="10.04048333785013" id="-35239">
		<tag k="name" v="Egghåggåbekken" />
		<tag k="ssr:stedsnr" v="934157" />
		<tag k="waterway" v="stream" />
	</node>
	<node lat="63.21580278219086" lon="10.096363887521695" id="-35245">
		<tag k="name" v="Setertjønna" />
=======
	<node id="-754058" lat="63.1667499985" lon="9.96633889461">
		<tag k="alt_name" v="Morsjøen, store;Morsjøen" />
		<tag k="name" v="Stormorsjøen" />
		<tag k="natural" v="water" />
		<tag k="ssr:stedsnr" v="498159" />
		<tag k="water" v="lake" />
	</node>
	<node id="-755000" lat="63.2467166685" lon="9.94069444666">
		<tag k="name" v="Storslemsjøen" />
		<tag k="natural" v="water" />
		<tag k="ssr:stedsnr" v="619346" />
	</node>
	<node id="-754487" lat="63.2041138912" lon="10.0797083403">
		<tag k="name" v="Litlvålåtjønna" />
		<tag k="natural" v="water" />
		<tag k="ssr:stedsnr" v="873575" />
	</node>
	<node id="-754980" lat="63.2725138917" lon="10.0526111137">
		<tag k="name" v="Eidsmotangen" />
		<tag k="natural" v="cape" />
		<tag k="ssr:stedsnr" v="603683" />
	</node>
	<node id="-754464" lat="63.261119441" lon="9.96154444758">
		<tag k="alt_name" v="Kjærsjøen" />
		<tag k="name" v="Kjersjøen" />
>>>>>>> e1d4bc35ff8a6074a6f2e91616a996b547c36f15
		<tag k="natural" v="water" />
		<tag k="ssr:stedsnr" v="934340" />
	</node>
<<<<<<< HEAD
	<node lat="63.250149999631915" lon="10.069302777434045" id="-35253">
		<tag k="name" v="Frøgda" />
		<tag k="ssr:stedsnr" v="934422" />
		<tag k="waterway" v="stream" />
	</node>
	<node lat="63.316627774773565" lon="10.050116671161549" id="-35269">
		<tag k="name" v="Ulva" />
		<tag k="ssr:stedsnr" v="934025" />
		<tag k="waterway" v="stream" />
	</node>
	<node lat="63.3254833345811" lon="10.029991665019319" id="-35273">
		<tag k="name" v="Rossvatnet" />
		<tag k="natural" v="water" />
		<tag k="ssr:stedsnr" v="934106" />
		<tag k="water" v="lake" />
	</node>
	<node lat="63.32411110783542" lon="9.91080556241577" id="-35281">
		<tag k="name" v="Jelbekken" />
		<tag k="ssr:stedsnr" v="934214" />
		<tag k="waterway" v="stream" />
	</node>
	<node lat="63.260316664104344" lon="10.018250007885563" id="-35286">
		<tag k="name" v="Morosen" />
		<tag k="natural" v="bay" />
		<tag k="ssr:stedsnr" v="934228" />
	</node>
	<node lat="63.25936666487051" lon="10.014872219989261" id="-35287">
		<tag k="name" v="Litllaugen" />
		<tag k="natural" v="bay" />
		<tag k="ssr:stedsnr" v="934230" />
	</node>
	<node lat="63.216499996807514" lon="10.149783335961404" id="-35294">
=======
	<node id="-754973" lat="63.1961055567" lon="10.0994388881">
		<tag k="name" v="Sakktjønnbekken" />
		<tag k="ssr:stedsnr" v="570489" />
		<tag k="waterway" v="stream" />
	</node>
	<node id="-754191" lat="63.1885777747" lon="9.99224444059">
		<tag k="name" v="Svarttjønna" />
		<tag k="natural" v="water" />
		<tag k="ssr:stedsnr" v="680192" />
	</node>
	<node id="-754459" lat="63.1969166641" lon="10.0983000057">
		<tag k="name" v="Grevsjøbekken" />
		<tag k="ssr:stedsnr" v="935553" />
		<tag k="waterway" v="stream" />
	</node>
	<node id="-753945" lat="63.3152555531" lon="10.0218249954">
		<tag k="name" v="Ribekken" />
		<tag k="ssr:stedsnr" v="144051" />
		<tag k="waterway" v="stream" />
	</node>
	<node id="-754966" lat="63.2577722206" lon="10.0476666632">
		<tag k="name" v="Vennabekken" />
		<tag k="ssr:stedsnr" v="570294" />
		<tag k="waterway" v="stream" />
	</node>
	<node id="-754452" lat="63.2164999968" lon="10.149783336">
>>>>>>> e1d4bc35ff8a6074a6f2e91616a996b547c36f15
		<tag k="name" v="Høna" />
		<tag k="place" v="locality" />
		<tag k="ssr:stedsnr" v="934392" />
	</node>
<<<<<<< HEAD
	<node lat="63.24473055931633" lon="10.12542500162976" id="-35296">
		<tag k="name" v="Okstjønna" />
=======
	<node id="-754962" lat="63.2520444466" lon="9.94148610602">
		<tag k="name" v="Litltjønna" />
>>>>>>> e1d4bc35ff8a6074a6f2e91616a996b547c36f15
		<tag k="natural" v="water" />
		<tag k="ssr:stedsnr" v="934398" />
	</node>
<<<<<<< HEAD
	<node lat="63.180363892177" lon="9.991749996510082" id="-35298">
		<tag k="name" v="Erstjønnbekken" />
		<tag k="ssr:stedsnr" v="934512" />
		<tag k="waterway" v="stream" />
	</node>
	<node lat="63.245902777530866" lon="9.989536111103774" id="-35308">
		<tag k="name" v="Mora" />
		<tag k="ssr:stedsnr" v="12306" />
		<tag k="waterway" v="river" />
	</node>
	<node lat="63.21148333520796" lon="10.127216669714107" id="-35309">
		<tag k="name" v="Strandatjønna" />
		<tag k="natural" v="water" />
		<tag k="ssr:stedsnr" v="12214" />
	</node>
	<node lat="63.240394441968874" lon="9.928111111881396" id="-35316">
		<tag k="alt_name" v="Turtåsvatnet" />
		<tag k="name" v="Tortåsvatnet" />
		<tag k="natural" v="water" />
		<tag k="ssr:stedsnr" v="13294" />
	</node>
	<node lat="63.2405361107223" lon="9.946194448212877" id="-35351">
		<tag k="name" v="Rognåa" />
		<tag k="ssr:stedsnr" v="24255" />
		<tag k="waterway" v="stream" />
	</node>
	<node lat="63.250591665337986" lon="9.942775008621899" id="-35352">
		<tag k="name" v="Svartdalsbekken" />
		<tag k="ssr:stedsnr" v="24258" />
		<tag k="waterway" v="stream" />
	</node>
	<node lat="63.29209166722515" lon="10.135927771848667" id="-35354">
		<tag k="name" v="Liabekken" />
		<tag k="ssr:stedsnr" v="24271" />
		<tag k="waterway" v="stream" />
	</node>
	<node lat="63.206000003111804" lon="10.004394443928108" id="-35367">
		<tag k="name" v="Hauka" />
		<tag k="ssr:stedsnr" v="73200" />
		<tag k="waterway" v="stream" />
	</node>
	<node lat="63.217799999827044" lon="9.982249998899704" id="-35370">
		<tag k="name" v="Kvennåa" />
		<tag k="ssr:stedsnr" v="73230" />
		<tag k="waterway" v="stream" />
	</node>
	<node lat="63.28239444841177" lon="10.124041669455321" id="-35372">
		<tag k="alt_name" v="Djupsjøbekken" />
		<tag k="name" v="Djupdalsbekken" />
		<tag k="ssr:stedsnr" v="73353" />
		<tag k="waterway" v="stream" />
	</node>
	<node lat="63.174099998454814" lon="9.995405549368865" id="-35373">
		<tag k="name" v="Mora" />
		<tag k="ssr:stedsnr" v="73496" />
		<tag k="waterway" v="stream" />
	</node>
	<node lat="63.317452776603425" lon="10.015461106991166" id="-35377">
		<tag k="name" v="Svorka" />
		<tag k="ssr:stedsnr" v="74297" />
		<tag k="waterway" v="stream" />
	</node>
	<node lat="63.298161115043094" lon="10.18548612121843" id="-35379">
		<tag k="name" v="Vigda" />
		<tag k="ssr:stedsnr" v="74343" />
		<tag k="waterway" v="river" />
	</node>
	<node lat="63.32216666425047" lon="10.095725002759819" id="-35386">
		<tag k="name" v="Meia" />
		<tag k="ssr:stedsnr" v="84069" />
		<tag k="waterway" v="stream" />
	</node>
	<node lat="63.303836112474244" lon="9.970830551762067" id="-35398">
		<tag k="name" v="Svarttjønna" />
		<tag k="natural" v="water" />
		<tag k="ssr:stedsnr" v="85116" />
	</node>
	<node lat="63.324847219614334" lon="9.970983335724105" id="-35414">
		<tag k="name" v="Sjetnbekken" />
		<tag k="ssr:stedsnr" v="85169" />
		<tag k="waterway" v="stream" />
	</node>
	<node lat="63.27113611312095" lon="10.094888891121562" id="-35419">
		<tag k="name" v="Gåstjønna" />
		<tag k="natural" v="water" />
		<tag k="ssr:stedsnr" v="85272" />
	</node>
	<node lat="63.208705552409086" lon="10.108786103636103" id="-35420">
=======
	<node id="-754956" lat="63.319852777" lon="9.93923333397">
		<tag k="name" v="Hårråbekken" />
		<tag k="ssr:stedsnr" v="570174" />
		<tag k="waterway" v="stream" />
	</node>
	<node id="-754947" lat="63.2439388859" lon="10.1623249908">
		<tag k="name" v="Sandvikstangen" />
		<tag k="natural" v="cape" />
		<tag k="ssr:stedsnr" v="569435" />
	</node>
	<node id="-754946" lat="63.2460305594" lon="10.0877555513">
		<tag k="name" v="Seterbekken" />
		<tag k="ssr:stedsnr" v="569422" />
		<tag k="waterway" v="stream" />
	</node>
	<node id="-754435" lat="63.284255558" lon="10.0404833379">
		<tag k="name" v="Egghåggåbekken" />
		<tag k="ssr:stedsnr" v="934157" />
		<tag k="waterway" v="stream" />
	</node>
	<node id="-754940" lat="63.2500444482" lon="9.90903056375">
		<tag k="name" v="Havsmobekken" />
		<tag k="ssr:stedsnr" v="569293" />
		<tag k="waterway" v="stream" />
	</node>
	<node id="-754427" lat="63.3166277748" lon="10.0501166712">
		<tag k="name" v="Ulva" />
		<tag k="ssr:stedsnr" v="934025" />
		<tag k="waterway" v="stream" />
	</node>
	<node id="-754424" lat="63.3051583361" lon="10.1609388931">
		<tag k="name" v="Hammerbekken" />
		<tag k="ssr:stedsnr" v="812020" />
		<tag k="waterway" v="stream" />
	</node>
	<node id="-753908" lat="63.225355555" lon="10.098794449">
		<tag k="name" v="Storvikodden" />
		<tag k="natural" v="cape" />
		<tag k="ssr:stedsnr" v="266374" />
	</node>
	<node id="-753907" lat="63.23268889" lon="10.0713694362">
		<tag k="name" v="Soksoddan" />
		<tag k="natural" v="cape" />
		<tag k="ssr:stedsnr" v="266372" />
	</node>
	<node id="-754929" lat="63.2599166647" lon="9.94112500059">
		<tag k="alt_name" v="Rossvassbekken" />
		<tag k="name" v="Kastbekken" />
		<tag k="ssr:stedsnr" v="559739" />
		<tag k="waterway" v="stream" />
	</node>
	<node id="-753904" lat="63.2853166674" lon="10.1205527807">
		<tag k="name" v="Stoan" />
		<tag k="natural" v="waterfall" />
		<tag k="ssr:stedsnr" v="266311" />
	</node>
	<node id="-754413" lat="63.2373555558" lon="9.91885278635">
		<tag k="name" v="Rossvatnet" />
		<tag k="natural" v="water" />
		<tag k="ssr:stedsnr" v="802305" />
	</node>
	<node id="-754412" lat="63.202813887" lon="10.0471111034">
		<tag k="name" v="Lomtjønna" />
		<tag k="natural" v="water" />
		<tag k="ssr:stedsnr" v="801190" />
	</node>
	<node id="-754411" lat="63.1961416629" lon="9.92194444485">
		<tag k="name" v="Medskogsvatnet" />
		<tag k="natural" v="water" />
		<tag k="ssr:stedsnr" v="801176" />
	</node>
	<node id="-754410" lat="63.1919611118" lon="10.0040055469">
		<tag k="name" v="Svarttjønnbekken" />
		<tag k="ssr:stedsnr" v="801169" />
		<tag k="waterway" v="stream" />
	</node>
	<node id="-754406" lat="63.2057861156" lon="10.1441749946">
		<tag k="name" v="Ånøya" />
		<tag k="natural" v="water" />
		<tag k="ssr:stedsnr" v="801206" />
		<tag k="water" v="lake" />
	</node>
	<node id="-754917" lat="63.216530555" lon="10.1379388893">
		<tag k="name" v="Grønneset" />
		<tag k="natural" v="cape" />
		<tag k="ssr:stedsnr" v="558234" />
	</node>
	<node id="-753888" lat="63.3430166691" lon="9.99420833241">
		<tag k="alt_name" v="Viggjelva" />
		<tag k="name" v="Viggja" />
		<tag k="ssr:stedsnr" v="256440" />
		<tag k="waterway" v="river" />
	</node>
	<node id="-754906" lat="63.2861111113" lon="10.0102305607">
		<tag k="name" v="Kvennsjøen" />
		<tag k="natural" v="water" />
		<tag k="ssr:stedsnr" v="438318" />
	</node>
	<node id="-754903" lat="63.3099194441" lon="10.061313889">
		<tag k="name" v="Børselva" />
		<tag k="ssr:stedsnr" v="438289" />
		<tag k="waterway" v="river" />
	</node>
	<node id="-753876" lat="63.2087055524" lon="10.1087861036">
>>>>>>> e1d4bc35ff8a6074a6f2e91616a996b547c36f15
		<tag k="name" v="Hemer Tjørna" />
		<tag k="natural" v="water" />
		<tag k="ssr:stedsnr" v="85468" />
	</node>
<<<<<<< HEAD
	<node lat="63.315255553116735" lon="10.0218249954124" id="-35439">
		<tag k="name" v="Ribekken" />
		<tag k="ssr:stedsnr" v="144051" />
		<tag k="waterway" v="stream" />
	</node>
	<node lat="63.19070832941047" lon="9.924466656616989" id="-35445">
		<tag k="name" v="Svarttjønnbekken" />
		<tag k="ssr:stedsnr" v="144438" />
		<tag k="waterway" v="stream" />
	</node>
	<node lat="63.22604166337785" lon="10.062749993803319" id="-35452">
		<tag k="name" v="Syndsvikbekken" />
		<tag k="ssr:stedsnr" v="144421" />
		<tag k="waterway" v="stream" />
	</node>
	<node lat="63.20180833245042" lon="10.077922218616576" id="-35454">
		<tag k="name" v="Vålåtjønnbekken" />
		<tag k="ssr:stedsnr" v="145558" />
		<tag k="waterway" v="stream" />
	</node>
	<node lat="63.290302775940404" lon="10.068413887160412" id="-35457">
		<tag k="name" v="Myrabekken" />
		<tag k="ssr:stedsnr" v="145174" />
		<tag k="waterway" v="stream" />
	</node>
	<node lat="63.21897222160859" lon="10.042963890246806" id="-35461">
		<tag k="name" v="Dalsbekken" />
		<tag k="ssr:stedsnr" v="145342" />
		<tag k="waterway" v="stream" />
	</node>
	<node lat="63.20045000371329" lon="10.110108338657039" id="-35476">
		<tag k="name" v="Sakktjønna" />
=======
	<node id="-753874" lat="63.2711361131" lon="10.0948888911">
		<tag k="name" v="Gåstjønna" />
		<tag k="natural" v="water" />
		<tag k="ssr:stedsnr" v="85272" />
	</node>
	<node id="-754896" lat="63.179163885" lon="9.98304444173">
		<tag k="name" v="Esstjønna" />
		<tag k="natural" v="water" />
		<tag k="ssr:stedsnr" v="437195" />
	</node>
	<node id="-754895" lat="63.1772166695" lon="9.94706666724">
		<tag k="name" v="Vaula" />
		<tag k="ssr:stedsnr" v="437190" />
		<tag k="waterway" v="stream" />
	</node>
	<node id="-753868" lat="63.3038361125" lon="9.97083055176">
		<tag k="name" v="Svarttjønna" />
		<tag k="natural" v="water" />
		<tag k="ssr:stedsnr" v="85116" />
	</node>
	<node id="-753866" lat="63.2955944405" lon="10.0120666601">
		<tag k="name" v="Rossvatnet" />
		<tag k="natural" v="water" />
		<tag k="ssr:stedsnr" v="85106" />
		<tag k="water" v="lake" />
	</node>
	<node id="-753865" lat="63.209266665" lon="10.0575638868">
		<tag k="name" v="Bjørgbekken" />
		<tag k="ssr:stedsnr" v="84607" />
		<tag k="waterway" v="stream" />
	</node>
	<node id="-754883" lat="63.2434555512" lon="9.95059443769">
		<tag k="name" v="Storodden" />
		<tag k="natural" v="cape" />
		<tag k="ssr:stedsnr" v="388240" />
	</node>
	<node id="-754882" lat="63.2874361134" lon="10.1674472316">
		<tag k="name" v="Øver Hundsvatnet" />
>>>>>>> e1d4bc35ff8a6074a6f2e91616a996b547c36f15
		<tag k="natural" v="water" />
		<tag k="ssr:stedsnr" v="194186" />
	</node>
<<<<<<< HEAD
	<node lat="63.23241666556965" lon="10.157719449725919" id="-35478">
		<tag k="name" v="Djupen" />
		<tag k="place" v="islet" />
		<tag k="ssr:stedsnr" v="194253" />
	</node>
	<node lat="63.17807222411188" lon="9.928619448451041" id="-35485">
		<tag k="name" v="Ølshøgdtjønna" />
		<tag k="natural" v="water" />
		<tag k="ssr:stedsnr" v="195177" />
	</node>
	<node lat="63.28388889252889" lon="9.991650007427085" id="-35490">
		<tag k="name" v="Foksjøen" />
		<tag k="natural" v="water" />
		<tag k="ssr:stedsnr" v="195399" />
	</node>
	<node lat="63.22633333354954" lon="10.07970000618644" id="-35538">
		<tag k="name" v="Malmsjøen" />
=======
	<node id="-754368" lat="63.3072500038" lon="10.1541805566">
		<tag k="name" v="Gråtbekken" />
		<tag k="ssr:stedsnr" v="751032" />
		<tag k="waterway" v="stream" />
	</node>
	<node id="-754366" lat="63.2703583317" lon="9.95158888734">
		<tag k="name" v="Rossvatnet" />
		<tag k="natural" v="water" />
		<tag k="ssr:stedsnr" v="741767" />
	</node>
	<node id="-754358" lat="63.2458027765" lon="9.89313612008">
		<tag k="name" v="Byavatnet" />
>>>>>>> e1d4bc35ff8a6074a6f2e91616a996b547c36f15
		<tag k="natural" v="water" />
		<tag k="ssr:stedsnr" v="315230" />
		<tag k="water" v="lake" />
	</node>
<<<<<<< HEAD
	<node lat="63.18690000390662" lon="9.930627775748" id="-35540">
		<tag k="name" v="Svarttjønna" />
		<tag k="natural" v="water" />
		<tag k="ssr:stedsnr" v="316177" />
	</node>
	<node lat="63.27216944624034" lon="10.043066662266126" id="-35548">
		<tag k="name" v="Laugen" />
		<tag k="natural" v="water" />
		<tag k="ssr:stedsnr" v="316765" />
		<tag k="water" v="lake" />
	</node>
	<node lat="63.321336109760885" lon="10.122019445679113" id="-35559">
		<tag k="name" v="Vollabekken" />
		<tag k="ssr:stedsnr" v="326049" />
		<tag k="waterway" v="stream" />
	</node>
	<node lat="63.19749722087739" lon="9.955238892108907" id="-35572">
		<tag k="name" v="Bekkdalsbekken" />
		<tag k="ssr:stedsnr" v="326620" />
		<tag k="waterway" v="stream" />
	</node>
	<node lat="63.18185277532616" lon="9.948166656758374" id="-35595">
		<tag k="alt_name" v="Morsjøen, l" />
		<tag k="name" v="Litlmorsjøen" />
=======
	<node id="-753843" lat="63.2177999998" lon="9.9822499989">
		<tag k="name" v="Kvennåa" />
		<tag k="ssr:stedsnr" v="73230" />
		<tag k="waterway" v="stream" />
	</node>
	<node id="-754028" lat="63.1974972209" lon="9.95523889211">
		<tag k="name" v="Bekkdalsbekken" />
		<tag k="ssr:stedsnr" v="326620" />
		<tag k="waterway" v="stream" />
	</node>
	<node id="-753949" lat="63.2018083325" lon="10.0779222186">
		<tag k="name" v="Vålåtjønnbekken" />
		<tag k="ssr:stedsnr" v="145558" />
		<tag k="waterway" v="stream" />
	</node>
	<node id="-754860" lat="63.2649583318" lon="10.1328277844">
		<tag k="name" v="Djupsjøen" />
		<tag k="natural" v="water" />
		<tag k="ssr:stedsnr" v="377708" />
		<tag k="water" v="lake" />
	</node>
	<node id="-754858" lat="63.2559805563" lon="9.95219445261">
		<tag k="name" v="Ramsjøen" />
>>>>>>> e1d4bc35ff8a6074a6f2e91616a996b547c36f15
		<tag k="natural" v="water" />
		<tag k="ssr:stedsnr" v="376155" />
	</node>
<<<<<<< HEAD
	<node lat="63.18420000416073" lon="9.963483327984783" id="-35604">
		<tag k="name" v="Stentjønna" />
		<tag k="natural" v="water" />
		<tag k="ssr:stedsnr" v="376160" />
	</node>
	<node lat="63.29118889154161" lon="10.162516672089398" id="-35616">
=======
	<node id="-753833" lat="63.3346111137" lon="9.98977222105">
		<tag k="name" v="Dålåbekken" />
		<tag k="ssr:stedsnr" v="25202" />
		<tag k="waterway" v="stream" />
	</node>
	<node id="-754855" lat="63.2911888915" lon="10.1625166721">
>>>>>>> e1d4bc35ff8a6074a6f2e91616a996b547c36f15
		<tag k="name" v="Hundsvatna" />
		<tag k="natural" v="water" />
		<tag k="ssr:stedsnr" v="377361" />
	</node>
<<<<<<< HEAD
	<node lat="63.255980556335416" lon="9.952194452610968" id="-35620">
		<tag k="name" v="Ramsjøen" />
		<tag k="natural" v="water" />
		<tag k="ssr:stedsnr" v="377681" />
	</node>
	<node lat="63.264958331781465" lon="10.132827784419945" id="-35622">
		<tag k="name" v="Djupsjøen" />
		<tag k="natural" v="water" />
		<tag k="ssr:stedsnr" v="377708" />
		<tag k="water" v="lake" />
	</node>
	<node lat="63.287436113427496" lon="10.16744723157759" id="-35642">
		<tag k="name" v="Øver Hundsvatnet" />
		<tag k="natural" v="water" />
		<tag k="ssr:stedsnr" v="388282" />
		<tag k="water" v="lake" />
	</node>
	<node lat="63.17721666949139" lon="9.947066667243973" id="-35656">
		<tag k="name" v="Vaula" />
		<tag k="ssr:stedsnr" v="437190" />
		<tag k="waterway" v="stream" />
	</node>
	<node lat="63.179163884953375" lon="9.98304444172581" id="-35657">
		<tag k="name" v="Esstjønna" />
=======
	<node id="-753947" lat="63.1798444411" lon="9.99843887984">
		<tag k="name" v="Morfossen" />
		<tag k="natural" v="waterfall" />
		<tag k="ssr:stedsnr" v="145532" />
	</node>
	<node id="-754332" lat="63.2453916662" lon="9.94517777494">
		<tag k="name" v="Stuttbekken" />
		<tag k="ssr:stedsnr" v="630271" />
		<tag k="waterway" v="stream" />
	</node>
	<node id="-753810" lat="63.251316667" lon="9.90107500388">
		<tag k="name" v="Skytjønna" />
		<tag k="natural" v="water" />
		<tag k="ssr:stedsnr" v="13711" />
	</node>
	<node id="-753809" lat="63.3122805522" lon="9.97893055393">
		<tag k="name" v="Gjæsa" />
		<tag k="old_name" v="Gjesa" />
		<tag k="ssr:stedsnr" v="13309" />
		<tag k="waterway" v="stream" />
	</node>
	<node id="-754832" lat="63.1842000042" lon="9.96348332798">
		<tag k="name" v="Stentjønna" />
		<tag k="natural" v="water" />
		<tag k="ssr:stedsnr" v="376160" />
	</node>
	<node id="-753807" lat="63.2459027775" lon="9.9895361111">
		<tag k="name" v="Mora" />
		<tag k="ssr:stedsnr" v="12306" />
		<tag k="waterway" v="river" />
	</node>
	<node id="-754830" lat="63.1818527753" lon="9.94816665676">
		<tag k="alt_name" v="Morsjøen, l" />
		<tag k="name" v="Litlmorsjøen" />
>>>>>>> e1d4bc35ff8a6074a6f2e91616a996b547c36f15
		<tag k="natural" v="water" />
		<tag k="ssr:stedsnr" v="437195" />
	</node>
<<<<<<< HEAD
	<node lat="63.3099194440892" lon="10.061313888965099" id="-35662">
		<tag k="name" v="Børselva" />
		<tag k="ssr:stedsnr" v="438289" />
		<tag k="waterway" v="river" />
	</node>
	<node lat="63.286111111316025" lon="10.010230560688091" id="-35665">
		<tag k="name" v="Kvennsjøen" />
=======
	<node id="-753805" lat="63.2114833352" lon="10.1272166697">
		<tag k="name" v="Strandatjønna" />
		<tag k="natural" v="water" />
		<tag k="ssr:stedsnr" v="12214" />
	</node>
	<node id="-754316" lat="63.1941055516" lon="9.9801138975">
		<tag k="name" v="Lomtjønna" />
>>>>>>> e1d4bc35ff8a6074a6f2e91616a996b547c36f15
		<tag k="natural" v="water" />
		<tag k="ssr:stedsnr" v="438318" />
	</node>
<<<<<<< HEAD
	<node lat="63.34322777864091" lon="9.973397215082656" id="-35692">
		<tag k="name" v="Litlbrudalsbekken" />
		<tag k="ssr:stedsnr" v="449167" />
		<tag k="waterway" v="stream" />
	</node>
	<node lat="63.16674999845027" lon="9.966338894606407" id="-35694">
		<tag k="alt_name" v="Morsjøen, store;Morsjøen" />
		<tag k="name" v="Stormorsjøen" />
=======
	<node id="-754315" lat="63.2483833377" lon="10.136350002">
		<tag k="name" v="Solåsbekken" />
		<tag k="ssr:stedsnr" v="629466" />
		<tag k="waterway" v="stream" />
	</node>
	<node id="-754823" lat="63.2650638868" lon="9.90824443662">
		<tag k="name" v="Grønlitjønna" />
>>>>>>> e1d4bc35ff8a6074a6f2e91616a996b547c36f15
		<tag k="natural" v="water" />
		<tag k="ssr:stedsnr" v="498159" />
		<tag k="water" v="lake" />
	</node>
<<<<<<< HEAD
	<node lat="63.25732778089691" lon="10.042097223306664" id="-35706">
		<tag k="name" v="Skjellbekken" />
		<tag k="ssr:stedsnr" v="508373" />
		<tag k="waterway" v="stream" />
	</node>
	<node lat="63.21977499781973" lon="10.072530550481806" id="-35708">
		<tag k="name" v="Slættbekken" />
		<tag k="ssr:stedsnr" v="508416" />
		<tag k="waterway" v="stream" />
	</node>
	<node lat="63.28782222284753" lon="9.981713886441874" id="-35717">
		<tag k="name" v="Stavtjønna" />
		<tag k="natural" v="water" />
		<tag k="ssr:stedsnr" v="508160" />
	</node>
	<node lat="63.344755553604756" lon="10.02850556257199" id="-35721">
		<tag k="name" v="Kolåsdalsbekken" />
		<tag k="ssr:stedsnr" v="508048" />
		<tag k="waterway" v="stream" />
	</node>
	<node lat="63.2165305549891" lon="10.137938889267605" id="-35754">
		<tag k="name" v="Grønneset" />
		<tag k="natural" v="cape" />
		<tag k="ssr:stedsnr" v="558234" />
	</node>
	<node lat="63.30548889055373" lon="10.013627770821893" id="-35760">
=======
	<node id="-754310" lat="63.2420055547" lon="9.90703055266">
		<tag k="name" v="Nerseterbekken" />
		<tag k="ssr:stedsnr" v="629307" />
		<tag k="waterway" v="stream" />
	</node>
	<node id="-754309" lat="63.2499694478" lon="9.90397778516">
		<tag k="name" v="Skytjønnbekken" />
		<tag k="ssr:stedsnr" v="629303" />
		<tag k="waterway" v="stream" />
	</node>
	<node id="-754454" lat="63.2447305593" lon="10.1254250016">
		<tag k="name" v="Okstjønna" />
		<tag k="natural" v="water" />
		<tag k="ssr:stedsnr" v="934398" />
	</node>
	<node id="-754810" lat="63.2485555557" lon="9.9784166598">
		<tag k="name" v="Bølbekken" />
		<tag k="ssr:stedsnr" v="327268" />
		<tag k="waterway" v="stream" />
	</node>
	<node id="-754296" lat="63.276330552" lon="9.9170444506">
		<tag k="name" v="Svarttjønna" />
		<tag k="natural" v="water" />
		<tag k="ssr:stedsnr" v="570115" />
	</node>
	<node id="-754292" lat="63.3054888906" lon="10.0136277708">
>>>>>>> e1d4bc35ff8a6074a6f2e91616a996b547c36f15
		<tag k="name" v="Langvatnet" />
		<tag k="natural" v="water" />
		<tag k="ssr:stedsnr" v="559268" />
		<tag k="water" v="lake" />
	</node>
<<<<<<< HEAD
	<node lat="63.250044448197194" lon="9.909030563749324" id="-35767">
		<tag k="name" v="Hafsmobekken" />
		<tag k="ssr:stedsnr" v="569293" />
		<tag k="waterway" v="stream" />
	</node>
	<node lat="63.24603055936816" lon="10.08775555132806" id="-35771">
		<tag k="name" v="Seterbekken" />
		<tag k="ssr:stedsnr" v="569422" />
		<tag k="waterway" v="stream" />
	</node>
	<node lat="63.24393888589684" lon="10.16232499080725" id="-35772">
		<tag k="name" v="Sandvikstangen" />
		<tag k="natural" v="cape" />
		<tag k="ssr:stedsnr" v="569435" />
	</node>
	<node lat="63.319852777026206" lon="9.939233333974945" id="-35784">
		<tag k="name" v="Hårråbekken" />
		<tag k="ssr:stedsnr" v="570174" />
		<tag k="waterway" v="stream" />
	</node>
	<node lat="63.252044446557534" lon="9.9414861060231" id="-35788">
		<tag k="name" v="Litltjønna" />
		<tag k="natural" v="water" />
		<tag k="ssr:stedsnr" v="570234" />
	</node>
	<node lat="63.25777222056843" lon="10.04766666315131" id="-35795">
		<tag k="name" v="Vennabekken" />
		<tag k="ssr:stedsnr" v="570294" />
		<tag k="waterway" v="stream" />
	</node>
	<node lat="63.196105556683015" lon="10.099438888089647" id="-35798">
		<tag k="name" v="Sakktjønnbekken" />
		<tag k="ssr:stedsnr" v="570489" />
		<tag k="waterway" v="stream" />
	</node>
	<node lat="63.272513891690984" lon="10.052611113672548" id="-35803">
		<tag k="name" v="Eidsmotangen" />
		<tag k="natural" v="cape" />
		<tag k="ssr:stedsnr" v="603683" />
	</node>
	<node lat="63.246716668474114" lon="9.94069444666074" id="-35809">
		<tag k="name" v="Storslemsjøen" />
=======
	<node id="-753854" lat="63.2071416699" lon="9.93610000491">
		<tag k="name" v="Langslættbekken" />
		<tag k="ssr:stedsnr" v="84402" />
		<tag k="waterway" v="stream" />
	</node>
	<node id="-754833" lat="63.1908805556" lon="9.9860083249">
		<tag k="name" v="Krokan" />
		<tag k="ssr:stedsnr" v="376174" />
		<tag k="waterway" v="stream" />
	</node>
	<node id="-754289" lat="63.2433138911" lon="9.93234166057">
		<tag k="name" v="Vinåsvatnet" />
		<tag k="natural" v="water" />
		<tag k="ssr:stedsnr" v="558311" />
	</node>
	<node id="-754285" lat="63.2276944452" lon="10.0502805524">
		<tag k="name" v="Våddån" />
		<tag k="natural" v="water" />
		<tag k="ssr:stedsnr" v="558254" />
	</node>
	<node id="-754790" lat="63.273844444" lon="10.073308342">
		<tag k="name" v="Eidsmobekken" />
		<tag k="ssr:stedsnr" v="326367" />
		<tag k="waterway" v="stream" />
	</node>
	<node id="-755219" lat="63.3159583292" lon="9.90621110316">
		<tag k="name" v="Sommerholet" />
		<tag k="natural" v="water" />
		<tag k="ssr:stedsnr" v="873149" />
		<tag k="water" v="pond" />
	</node>
	<node id="-754777" lat="63.2462638932" lon="10.092433325">
		<tag k="name" v="Eisa" />
		<tag k="ssr:stedsnr" v="316297" />
		<tag k="waterway" v="stream" />
	</node>
	<node id="-754263" lat="63.2580611136" lon="10.1333861049">
		<tag k="name" v="Svarttjønnbekken" />
		<tag k="ssr:stedsnr" v="691348" />
		<tag k="waterway" v="stream" />
	</node>
	<node id="-754774" lat="63.1869000039" lon="9.93062777575">
		<tag k="name" v="Svarttjønna" />
>>>>>>> e1d4bc35ff8a6074a6f2e91616a996b547c36f15
		<tag k="natural" v="water" />
		<tag k="ssr:stedsnr" v="619346" />
	</node>
<<<<<<< HEAD
	<node lat="63.2483833376555" lon="10.136350002037581" id="-35825">
		<tag k="name" v="Solåsbekken" />
		<tag k="ssr:stedsnr" v="629466" />
		<tag k="waterway" v="stream" />
	</node>
	<node lat="63.19410555160935" lon="9.980113897503353" id="-35830">
		<tag k="name" v="Lomtjønna" />
=======
	<node id="-754258" lat="63.2534555579" lon="9.94336944177">
		<tag k="name" v="Ramsjøbekken" />
		<tag k="ssr:stedsnr" v="691327" />
		<tag k="waterway" v="stream" />
	</node>
	<node id="-754769" lat="63.2263333335" lon="10.0797000062">
		<tag k="name" v="Malmsjøen" />
>>>>>>> e1d4bc35ff8a6074a6f2e91616a996b547c36f15
		<tag k="natural" v="water" />
		<tag k="ssr:stedsnr" v="629603" />
	</node>
<<<<<<< HEAD
	<node lat="63.24539166618008" lon="9.945177774942687" id="-35848">
		<tag k="name" v="Stuttbekken" />
		<tag k="ssr:stedsnr" v="630271" />
		<tag k="waterway" v="stream" />
	</node>
	<node lat="63.27035833168757" lon="9.951588887337296" id="-35876">
		<tag k="name" v="Rossvatnet" />
		<tag k="natural" v="water" />
		<tag k="ssr:stedsnr" v="741767" />
	</node>
	<node lat="63.26117499677802" lon="9.895033324392946" id="-35899">
		<tag k="name" v="Hauka" />
		<tag k="ssr:stedsnr" v="762270" />
		<tag k="waterway" v="stream" />
	</node>
	<node lat="63.214119440331345" lon="10.137466666530946" id="-35903">
		<tag k="name" v="Grønvika" />
		<tag k="natural" v="bay" />
		<tag k="ssr:stedsnr" v="788897" />
	</node>
	<node lat="63.191961111833" lon="10.00400554692304" id="-35904">
		<tag k="name" v="Svarttjønnbekken" />
		<tag k="ssr:stedsnr" v="801169" />
		<tag k="waterway" v="stream" />
	</node>
	<node lat="63.202813887003764" lon="10.04711110335929" id="-35906">
		<tag k="name" v="Lomtjønna" />
=======
	<node id="-754189" lat="63.2394472186" lon="9.90890555046">
		<tag k="name" v="Rørtjønna" />
		<tag k="natural" v="water" />
		<tag k="ssr:stedsnr" v="680282" />
	</node>
	<node id="-755272" lat="63.2919861101" lon="9.91637499643">
		<tag k="name" v="Seljbekken" />
		<tag k="ssr:stedsnr" v="823448" />
		<tag k="waterway" v="stream" />
	</node>
	<node id="-755271" lat="63.2611749968" lon="9.89503332439">
		<tag k="name" v="Hauka" />
		<tag k="ssr:stedsnr" v="762270" />
		<tag k="waterway" v="stream" />
	</node>
	<node id="-755269" lat="63.2425912324" lon="10.1602035639">
		<tag k="name" v="Langholmen" />
		<tag k="place" v="islet" />
		<tag k="ssr:stedsnr" v="629455" />
	</node>
	<node id="-754235" lat="63.2584222215" lon="9.93096389278">
		<tag k="name" v="Kånnåbekken" />
		<tag k="ssr:stedsnr" v="692538" />
		<tag k="waterway" v="stream" />
	</node>
	<node id="-754195" lat="63.2801361109" lon="10.0855194512">
		<tag k="name" v="Oksvatnet" />
		<tag k="natural" v="water" />
		<tag k="ssr:stedsnr" v="680384" />
	</node>
	<node id="-754232" lat="63.2409527735" lon="9.93405833057">
		<tag k="name" v="Kvennbekken" />
		<tag k="ssr:stedsnr" v="509272" />
		<tag k="waterway" v="stream" />
	</node>
	<node id="-755243" lat="63.2735333366" lon="10.0386972295">
		<tag k="name" v="Myrinstangen" />
		<tag k="natural" v="cape" />
		<tag k="ssr:stedsnr" v="873351" />
	</node>
	<node id="-754730" lat="63.217716665" lon="9.96988054707">
		<tag k="name" v="Litllomtjønna" />
		<tag k="natural" v="water" />
		<tag k="ssr:stedsnr" v="205470" />
	</node>
	<node id="-755118" lat="63.3015249984" lon="9.97906943764">
		<tag k="name" v="Gåsvatnet" />
		<tag k="natural" v="water" />
		<tag k="ssr:stedsnr" v="802396" />
	</node>
	<node id="-754215" lat="63.291358337" lon="10.1615111103">
		<tag k="name" v="Ner Hundsvatnet" />
>>>>>>> e1d4bc35ff8a6074a6f2e91616a996b547c36f15
		<tag k="natural" v="water" />
		<tag k="ssr:stedsnr" v="801190" />
	</node>
<<<<<<< HEAD
	<node lat="63.24420000033855" lon="10.13587777090968" id="-35909">
		<tag k="name" v="Kjølvatnet" />
		<tag k="natural" v="water" />
		<tag k="ssr:stedsnr" v="801249" />
	</node>
	<node lat="63.301524998364975" lon="9.979069437635024" id="-35915">
		<tag k="name" v="Gåsvatnet" />
		<tag k="natural" v="water" />
		<tag k="ssr:stedsnr" v="802396" />
	</node>
	<node lat="63.25578333175191" lon="10.1301361139923" id="-35921">
		<tag k="name" v="Svarttjønna" />
		<tag k="natural" v="water" />
		<tag k="ssr:stedsnr" v="802748" />
	</node>
	<node lat="63.29581666927578" lon="10.041477781936102" id="-35942">
		<tag k="name" v="Sandbekken" />
		<tag k="ssr:stedsnr" v="813117" />
		<tag k="waterway" v="stream" />
	</node>
	<node lat="63.29029166266072" lon="10.030980555394189" id="-35943">
		<tag k="name" v="Ormbekken" />
		<tag k="ssr:stedsnr" v="813119" />
		<tag k="waterway" v="stream" />
	</node>
	<node lat="63.22861388799298" lon="10.117099994397426" id="-35953">
		<tag k="name" v="Konstadbekken" />
		<tag k="ssr:stedsnr" v="813395" />
		<tag k="waterway" v="stream" />
	</node>
	<node lat="63.20934722363913" lon="9.995683327056438" id="-35957">
		<tag k="name" v="Langolabekken" />
		<tag k="ssr:stedsnr" v="813559" />
		<tag k="waterway" v="stream" />
	</node>
	<node lat="63.29198611011978" lon="9.91637499643436" id="-35959">
		<tag k="name" v="Seljbekken" />
		<tag k="ssr:stedsnr" v="823448" />
		<tag k="waterway" v="stream" />
	</node>
	<node lat="63.261119440981226" lon="9.961544447580504" id="-35978">
		<tag k="alt_name" v="Kjærsjøen" />
		<tag k="name" v="Kjersjøen" />
=======
	<node id="-755237" lat="63.2224861121" lon="10.0963472135">
		<tag k="name" v="Storvika" />
		<tag k="natural" v="bay" />
		<tag k="ssr:stedsnr" v="873386" />
	</node>
	<node id="-754113" lat="63.2573277809" lon="10.0420972233">
		<tag k="name" v="Skjellbekken" />
		<tag k="ssr:stedsnr" v="508373" />
		<tag k="waterway" v="stream" />
	</node>
	<node id="-755229" lat="63.2813611113" lon="10.0612972295">
		<tag k="name" v="Krobekken" />
		<tag k="ssr:stedsnr" v="873194" />
		<tag k="waterway" v="stream" />
	</node>
	<node id="-753989" lat="63.2173277814" lon="10.1238638823">
		<tag k="name" v="Holbekken" />
		<tag k="ssr:stedsnr" v="448501" />
		<tag k="waterway" v="stream" />
	</node>
	<node id="-754201" lat="63.244794445" lon="9.95052777778">
		<tag k="name" v="Litlslemsjøen" />
		<tag k="natural" v="water" />
		<tag k="ssr:stedsnr" v="680334" />
	</node>
	<node id="-755223" lat="63.3095277807" lon="9.93290833767">
		<tag k="name" v="Holbekken" />
		<tag k="ssr:stedsnr" v="873240" />
		<tag k="waterway" v="stream" />
	</node>
	<node id="-754094" lat="63.2183305578" lon="10.0820916739">
		<tag k="name" v="Svartbekken" />
		<tag k="ssr:stedsnr" v="388408" />
		<tag k="waterway" v="stream" />
	</node>
	<node id="-754194" lat="63.2078277808" lon="10.0944805555">
		<tag k="alt_name" v="Grevsjøen, litle" />
		<tag k="name" v="Litlgrevsjøen" />
>>>>>>> e1d4bc35ff8a6074a6f2e91616a996b547c36f15
		<tag k="natural" v="water" />
		<tag k="ssr:stedsnr" v="863738" />
	</node>
<<<<<<< HEAD
	<node lat="63.28136111125637" lon="10.061297229534457" id="-35993">
		<tag k="name" v="Krobekken" />
		<tag k="ssr:stedsnr" v="873194" />
		<tag k="waterway" v="stream" />
	</node>
	<node lat="63.30618611484655" lon="9.999472227635957" id="-35998">
=======
	<node id="-754705" lat="63.2838888925" lon="9.99165000743">
		<tag k="name" v="Foksjøen" />
		<tag k="natural" v="water" />
		<tag k="ssr:stedsnr" v="195399" />
	</node>
	<node id="-755216" lat="63.3061861148" lon="9.99947222764">
>>>>>>> e1d4bc35ff8a6074a6f2e91616a996b547c36f15
		<tag k="name" v="Raudbekken" />
		<tag k="ssr:stedsnr" v="873142" />
		<tag k="waterway" v="stream" />
	</node>
<<<<<<< HEAD
	<node lat="63.3159583292426" lon="9.906211103161361" id="-36001">
		<tag k="name" v="Sommerholet" />
		<tag k="natural" v="water" />
		<tag k="ssr:stedsnr" v="873149" />
		<tag k="water" v="pond" />
	</node>
	<node lat="63.30952778067108" lon="9.932908337665019" id="-36007">
		<tag k="name" v="Holbekken" />
		<tag k="ssr:stedsnr" v="873240" />
		<tag k="waterway" v="stream" />
	</node>
	<node lat="63.2224861121407" lon="10.096347213526569" id="-36022">
		<tag k="name" v="Storvika" />
		<tag k="natural" v="bay" />
		<tag k="ssr:stedsnr" v="873386" />
	</node>
	<node lat="63.27353333659582" lon="10.038697229538744" id="-36029">
		<tag k="name" v="Myrinstangen" />
		<tag k="natural" v="cape" />
		<tag k="ssr:stedsnr" v="873351" />
	</node>
	<node lat="63.20411389119178" lon="10.079708340298742" id="-36035">
		<tag k="name" v="Litlvålåtjønna" />
		<tag k="natural" v="water" />
		<tag k="ssr:stedsnr" v="873575" />
	</node>
	<node lat="63.203880554152" lon="10.103950006829589" id="-36037">
		<tag k="name" v="Ytter Tjørna" />
		<tag k="natural" v="water" />
		<tag k="ssr:stedsnr" v="874553" />
	</node>
=======
	<node id="-754703" lat="63.1780722241" lon="9.92861944845">
		<tag k="name" v="Ølshøgdtjønna" />
		<tag k="natural" v="water" />
		<tag k="ssr:stedsnr" v="195177" />
	</node>
	<node id="-754349" lat="63.2342416702" lon="9.95016110759">
		<tag k="alt_name" v="Turtåsbekken" />
		<tag k="name" v="Tortåsbekken" />
		<tag k="ssr:stedsnr" v="680307" />
		<tag k="waterway" v="stream" />
	</node>
	<node id="-754188" lat="63.238625003" lon="9.89112499719">
		<tag k="name" v="Kjeløybekken" />
		<tag k="ssr:stedsnr" v="680281" />
		<tag k="waterway" v="stream" />
	</node>
	<node id="-753922" lat="63.2977138846" lon="9.94773333198">
		<tag k="name" v="Jystadbekken" />
		<tag k="ssr:stedsnr" v="267191" />
		<tag k="waterway" v="stream" />
	</node>
	<node id="-754697" lat="63.2324166656" lon="10.1577194497">
		<tag k="name" v="Djupen" />
		<tag k="place" v="islet" />
		<tag k="ssr:stedsnr" v="194253" />
	</node>
	<node id="-754348" lat="63.2300916709" lon="9.90461389615">
		<tag k="name" v="Svarttjønna" />
		<tag k="natural" v="water" />
		<tag k="ssr:stedsnr" v="679211" />
	</node>
	<node id="-754694" lat="63.2004500037" lon="10.1101083387">
		<tag k="name" v="Sakktjønna" />
		<tag k="natural" v="water" />
		<tag k="ssr:stedsnr" v="194186" />
	</node>
>>>>>>> e1d4bc35ff8a6074a6f2e91616a996b547c36f15
</osm>
