<?xml version="1.0" encoding="UTF-8"?>
<<<<<<< HEAD
<osm version="0.6" generator="osmapis">
	<node lat="63.31317222322216" lon="10.154836112186631" id="-34603">
		<tag k="name" v="Havenget" />
		<tag k="place" v="locality" />
		<tag k="ssr:stedsnr" v="23040" />
	</node>
	<node lat="63.265227780150575" lon="9.924980545914943" id="-34604">
		<tag k="historic" v="shieling" />
		<tag k="name" v="Foksetsætra" />
=======
<osm generator="osmapis" version="0.6">
	<node id="-754685" lat="63.2358444484" lon="9.94066110269">
		<tag k="name" v="Turtåsmyren" />
		<tag k="natural" v="wetland" />
		<tag k="ssr:stedsnr" v="145266" />
	</node>
	<node id="-754172" lat="63.3231805554" lon="9.9419666605">
		<tag k="name" v="Andåsmyra" />
		<tag k="natural" v="wetland" />
		<tag k="ssr:stedsnr" v="449214" />
	</node>
	<node id="-754682" lat="63.3127666673" lon="9.89986943715">
		<tag k="name" v="Østhusmyra" />
		<tag k="natural" v="wetland" />
		<tag k="ssr:stedsnr" v="145217" />
	</node>
	<node id="-754679" lat="63.2767999978" lon="9.90918332857">
		<tag k="name" v="Haukliholet" />
>>>>>>> e1d4bc35ff8a6074a6f2e91616a996b547c36f15
		<tag k="place" v="locality" />
		<tag k="ssr:stedsnr" v="23302" />
	</node>
<<<<<<< HEAD
	<node lat="63.25009166768395" lon="10.121891661645698" id="-34606">
		<tag k="name" v="Svarttjønnslættet" />
		<tag k="natural" v="wetland" />
		<tag k="ssr:stedsnr" v="23511" />
	</node>
	<node lat="63.226863888270294" lon="10.025083335441623" id="-34609">
		<tag k="name" v="Syrstadmyren" />
=======
	<node id="-754166" lat="63.2792222238" lon="9.93993333219">
		<tag k="name" v="Verdalan" />
		<tag k="natural" v="wetland" />
		<tag k="ssr:stedsnr" v="449126" />
	</node>
	<node id="-754677" lat="63.1909222195" lon="10.0407194397">
		<tag k="name" v="Følføttet" />
		<tag k="place" v="locality" />
		<tag k="ssr:stedsnr" v="144620" />
	</node>
	<node id="-754676" lat="63.2101416686" lon="9.96348334278">
		<tag k="name" v="Toppmyra" />
>>>>>>> e1d4bc35ff8a6074a6f2e91616a996b547c36f15
		<tag k="natural" v="wetland" />
		<tag k="ssr:stedsnr" v="23434" />
	</node>
<<<<<<< HEAD
	<node lat="63.33319999576766" lon="9.924994439964648" id="-34612">
		<tag k="name" v="Holo" />
		<tag k="place" v="locality" />
		<tag k="ssr:stedsnr" v="24181" />
	</node>
	<node lat="63.33886666544287" lon="10.02000554839691" id="-34642">
		<tag k="name" v="Stormyra" />
=======
	<node id="-754163" lat="63.2052861137" lon="9.95771665997">
		<tag k="name" v="Innergjerdet" />
		<tag k="place" v="locality" />
		<tag k="ssr:stedsnr" v="448629" />
	</node>
	<node id="-754674" lat="63.2434416683" lon="10.1111277698">
		<tag k="name" v="Snurrumyren" />
		<tag k="natural" v="wetland" />
		<tag k="ssr:stedsnr" v="144456" />
	</node>
	<node id="-755183" lat="63.2054555571" lon="10.010094453">
		<tag k="name" v="Fremmer Blåhåmmårmyra" />
>>>>>>> e1d4bc35ff8a6074a6f2e91616a996b547c36f15
		<tag k="natural" v="wetland" />
		<tag k="ssr:stedsnr" v="84003" />
	</node>
<<<<<<< HEAD
	<node lat="63.22487500252021" lon="10.055544439615208" id="-34647">
		<tag k="name" v="Raudmyra" />
		<tag k="natural" v="wetland" />
		<tag k="ssr:stedsnr" v="84383" />
	</node>
	<node lat="63.306088890487366" lon="10.123763896860124" id="-34649">
		<tag k="name" v="Bøgsetmyra" />
=======
	<node id="-754669" lat="63.1951833377" lon="9.9345750047">
		<tag k="name" v="Lykkja" />
		<tag k="natural" v="wetland" />
		<tag k="ssr:stedsnr" v="144436" />
	</node>
	<node id="-755179" lat="63.1813888931" lon="9.97596945354">
		<tag k="name" v="Slættet" />
		<tag k="natural" v="wetland" />
		<tag k="ssr:stedsnr" v="813520" />
	</node>
	<node id="-755177" lat="63.2073500027" lon="10.0247166708">
		<tag k="name" v="Gjetryggmyra" />
		<tag k="natural" v="wetland" />
		<tag k="ssr:stedsnr" v="813455" />
	</node>
	<node id="-755175" lat="63.2177555588" lon="10.1335388843">
		<tag k="name" v="Stormyra" />
>>>>>>> e1d4bc35ff8a6074a6f2e91616a996b547c36f15
		<tag k="natural" v="wetland" />
		<tag k="ssr:stedsnr" v="84332" />
	</node>
<<<<<<< HEAD
	<node lat="63.241558334444115" lon="10.055683331385291" id="-34653">
		<tag k="name" v="Såttån" />
=======
	<node id="-754150" lat="63.3081722218" lon="10.1994805539">
		<tag k="name" v="Husbylykkja" />
>>>>>>> e1d4bc35ff8a6074a6f2e91616a996b547c36f15
		<tag k="place" v="locality" />
		<tag k="ssr:stedsnr" v="84513" />
	</node>
<<<<<<< HEAD
	<node lat="63.24014167054944" lon="10.013477774648987" id="-34655">
		<tag k="name" v="Olaslættmyren" />
=======
	<node id="-755173" lat="63.2438972204" lon="10.0823472245">
		<tag k="name" v="Nerslættet" />
>>>>>>> e1d4bc35ff8a6074a6f2e91616a996b547c36f15
		<tag k="natural" v="wetland" />
		<tag k="ssr:stedsnr" v="84300" />
	</node>
<<<<<<< HEAD
	<node lat="63.26008889234218" lon="10.07454167476002" id="-34667">
		<tag k="name" v="Håggån" />
		<tag k="place" v="locality" />
		<tag k="ssr:stedsnr" v="85278" />
	</node>
	<node lat="63.31203610991775" lon="9.983008330946765" id="-34669">
		<tag k="name" v="Sagstillingsmyra" />
=======
	<node id="-755172" lat="63.2158444469" lon="9.93885832385">
		<tag k="name" v="Kloa" />
		<tag k="natural" v="wetland" />
		<tag k="ssr:stedsnr" v="813357" />
	</node>
	<node id="-754147" lat="63.3264694452" lon="10.0203638965">
		<tag k="name" v="Fabrikkmyra" />
>>>>>>> e1d4bc35ff8a6074a6f2e91616a996b547c36f15
		<tag k="natural" v="wetland" />
		<tag k="ssr:stedsnr" v="85476" />
	</node>
<<<<<<< HEAD
	<node lat="63.32667777339856" lon="10.00784722732843" id="-34686">
		<tag k="name" v="Engmyra" />
		<tag k="natural" v="wetland" />
		<tag k="ssr:stedsnr" v="144239" />
	</node>
	<node lat="63.255005560008456" lon="9.956938893446283" id="-34687">
		<tag k="name" v="Plassan" />
=======
	<node id="-755169" lat="63.2776027767" lon="10.1484861034">
		<tag k="name" v="Høgmyra" />
		<tag k="natural" v="wetland" />
		<tag k="ssr:stedsnr" v="813251" />
	</node>
	<node id="-755168" lat="63.237741665" lon="9.97147499516">
		<tag k="name" v="Slemlykkja" />
		<tag k="place" v="locality" />
		<tag k="ssr:stedsnr" v="813239" />
	</node>
	<node id="-754655" lat="63.3212333356" lon="9.90013332589">
		<tag k="name" v="Skjenaldlykkja" />
>>>>>>> e1d4bc35ff8a6074a6f2e91616a996b547c36f15
		<tag k="place" v="locality" />
		<tag k="ssr:stedsnr" v="144296" />
	</node>
<<<<<<< HEAD
	<node lat="63.24058611533324" lon="10.007705559862767" id="-34688">
		<tag k="name" v="Rødsmyren" />
=======
	<node id="-754654" lat="63.3266777734" lon="10.0078472273">
		<tag k="name" v="Engmyra" />
>>>>>>> e1d4bc35ff8a6074a6f2e91616a996b547c36f15
		<tag k="natural" v="wetland" />
		<tag k="ssr:stedsnr" v="144301" />
	</node>
<<<<<<< HEAD
	<node lat="63.30750833486486" lon="10.104580559611145" id="-34694">
		<tag k="name" v="Meimyra" />
=======
	<node id="-754653" lat="63.2813972197" lon="9.95960832767">
		<tag k="name" v="Høgmyren" />
>>>>>>> e1d4bc35ff8a6074a6f2e91616a996b547c36f15
		<tag k="natural" v="wetland" />
		<tag k="ssr:stedsnr" v="144358" />
	</node>
<<<<<<< HEAD
	<node lat="63.21014166860161" lon="9.963483342784835" id="-34696">
		<tag k="name" v="Toppmyra" />
=======
	<node id="-754140" lat="63.3291444418" lon="9.9213861119">
		<tag k="name" v="Skjenaldmyra" />
>>>>>>> e1d4bc35ff8a6074a6f2e91616a996b547c36f15
		<tag k="natural" v="wetland" />
		<tag k="ssr:stedsnr" v="144611" />
	</node>
<<<<<<< HEAD
	<node lat="63.2767999977765" lon="9.909183328566222" id="-34698">
		<tag k="name" v="Haukliholet" />
=======
	<node id="-754426" lat="63.3331833342" lon="10.0198805498">
		<tag k="name" v="Hårråmyra" />
		<tag k="natural" v="wetland" />
		<tag k="ssr:stedsnr" v="934002" />
	</node>
	<node id="-754511" lat="63.2145138909" lon="10.1046666767">
		<tag k="name" v="Kjølmyra" />
		<tag k="natural" v="wetland" />
		<tag k="ssr:stedsnr" v="934338" />
	</node>
	<node id="-755160" lat="63.29136944" lon="9.95288056039">
		<tag k="name" v="Stakkenget" />
>>>>>>> e1d4bc35ff8a6074a6f2e91616a996b547c36f15
		<tag k="place" v="locality" />
		<tag k="ssr:stedsnr" v="145141" />
	</node>
<<<<<<< HEAD
	<node lat="63.23986944077334" lon="10.11309444333542" id="-34712">
		<tag k="name" v="Tjønnmyra" />
=======
	<node id="-753913" lat="63.2148805599" lon="9.98206944768">
		<tag k="name" v="Rogndalsmyra" />
		<tag k="natural" v="wetland" />
		<tag k="ssr:stedsnr" v="266410" />
	</node>
	<node id="-754260" lat="63.2940305514" lon="10.1310805557">
		<tag k="name" v="Stangamyra" />
		<tag k="natural" v="wetland" />
		<tag k="ssr:stedsnr" v="691339" />
	</node>
	<node id="-755155" lat="63.2917166673" lon="9.97905832495">
		<tag k="name" v="Myrinssetermyran" />
>>>>>>> e1d4bc35ff8a6074a6f2e91616a996b547c36f15
		<tag k="natural" v="wetland" />
		<tag k="ssr:stedsnr" v="267376" />
	</node>
<<<<<<< HEAD
	<node lat="63.268402776728614" lon="9.932991676301594" id="-34720">
=======
	<node id="-755154" lat="63.3174111138" lon="9.99338334273">
>>>>>>> e1d4bc35ff8a6074a6f2e91616a996b547c36f15
		<tag k="historic" v="shieling" />
		<tag k="name" v="Nord Foksetsætra" />
		<tag k="place" v="locality" />
		<tag k="ssr:stedsnr" v="266245" />
	</node>
<<<<<<< HEAD
	<node lat="63.32147500041164" lon="9.915152771536745" id="-34721">
		<tag k="name" v="Håggån" />
		<tag k="place" v="locality" />
		<tag k="ssr:stedsnr" v="266229" />
	</node>
	<node lat="63.254577773524844" lon="9.930502770287314" id="-34723">
		<tag k="name" v="Kunta" />
=======
	<node id="-755153" lat="63.3070777737" lon="9.98808610432">
		<tag k="historic" v="shieling" />
		<tag k="name" v="Julvollan" />
		<tag k="place" v="locality" />
		<tag k="ssr:stedsnr" v="813099" />
	</node>
	<node id="-755151" lat="63.2017555517" lon="10.0272555609">
		<tag k="name" v="Ner Tjørnmyra" />
		<tag k="natural" v="wetland" />
		<tag k="ssr:stedsnr" v="812633" />
	</node>
	<node id="-755150" lat="63.1990972224" lon="10.0210916725">
		<tag k="name" v="Enkåsmyra" />
		<tag k="natural" v="wetland" />
		<tag k="ssr:stedsnr" v="812632" />
	</node>
	<node id="-755149" lat="63.1876416648" lon="9.95150832791">
		<tag k="name" v="Morsjøråa" />
>>>>>>> e1d4bc35ff8a6074a6f2e91616a996b547c36f15
		<tag k="natural" v="wetland" />
		<tag k="ssr:stedsnr" v="266260" />
	</node>
<<<<<<< HEAD
	<node lat="63.257277777946655" lon="9.917505560669484" id="-34724">
		<tag k="name" v="Sjølsetlykkja" />
		<tag k="place" v="locality" />
		<tag k="ssr:stedsnr" v="266263" />
	</node>
	<node lat="63.291447225471956" lon="10.165225002266252" id="-34738">
		<tag k="name" v="Brennan" />
		<tag k="place" v="locality" />
		<tag k="ssr:stedsnr" v="267273" />
	</node>
	<node lat="63.3188722210384" lon="10.035050001992829" id="-34742">
		<tag k="name" v="Orrmyra" />
		<tag k="natural" v="wetland" />
		<tag k="ssr:stedsnr" v="205037" />
	</node>
	<node lat="63.202841667154345" lon="10.032575007925205" id="-34743">
		<tag k="name" v="Øver Tjørnmyra" />
=======
	<node id="-754124" lat="63.2018916705" lon="9.9445250047">
		<tag k="name" v="Gjerdet (Brennan)" />
		<tag k="place" v="locality" />
		<tag k="ssr:stedsnr" v="508448" />
	</node>
	<node id="-755147" lat="63.1937000036" lon="9.97132499858">
		<tag k="name" v="Stakkenget" />
		<tag k="natural" v="wetland" />
		<tag k="ssr:stedsnr" v="812614" />
	</node>
	<node id="-754633" lat="63.3025722192" lon="10.0947583428">
		<tag k="historic" v="shieling" />
		<tag k="name" v="Kjæremssætra" />
		<tag k="place" v="locality" />
		<tag k="ssr:stedsnr" v="85246" />
	</node>
	<node id="-755144" lat="63.2505083355" lon="10.107702783">
		<tag k="name" v="Furruslættet" />
		<tag k="natural" v="wetland" />
		<tag k="ssr:stedsnr" v="812462" />
	</node>
	<node id="-755143" lat="63.2269638926" lon="9.96325554636">
		<tag k="name" v="Kloppmyra" />
		<tag k="natural" v="wetland" />
		<tag k="ssr:stedsnr" v="812433" />
	</node>
	<node id="-755141" lat="63.1937361087" lon="9.94322221378">
		<tag k="name" v="Litlslættet" />
>>>>>>> e1d4bc35ff8a6074a6f2e91616a996b547c36f15
		<tag k="natural" v="wetland" />
		<tag k="ssr:stedsnr" v="205110" />
	</node>
<<<<<<< HEAD
	<node lat="63.308572219050816" lon="10.008108333731546" id="-34745">
		<tag k="historic" v="shieling" />
		<tag k="name" v="Oppigardssetervollen" />
		<tag k="place" v="locality" />
		<tag k="ssr:stedsnr" v="205141" />
	</node>
	<node lat="63.258122218935824" lon="10.028586102794911" id="-34751">
		<tag k="name" v="Skjellmyra" />
=======
	<node id="-755140" lat="63.2268361089" lon="10.1149444402">
		<tag k="name" v="Raudmyra" />
		<tag k="natural" v="wetland" />
		<tag k="ssr:stedsnr" v="812406" />
	</node>
	<node id="-755139" lat="63.2174166629" lon="10.0749055499">
		<tag k="name" v="Slættet" />
>>>>>>> e1d4bc35ff8a6074a6f2e91616a996b547c36f15
		<tag k="natural" v="wetland" />
		<tag k="ssr:stedsnr" v="205387" />
	</node>
<<<<<<< HEAD
	<node lat="63.18644166247479" lon="9.932327769443006" id="-34752">
		<tag k="name" v="Svarttjønnslættet" />
		<tag k="natural" v="wetland" />
		<tag k="ssr:stedsnr" v="205641" />
	</node>
	<node lat="63.31221944202613" lon="9.915769454210176" id="-34753">
		<tag k="name" v="Damdalsmyra" />
=======
	<node id="-754114" lat="63.2711416649" lon="10.1203666712">
		<tag k="name" v="Høgtjønnmyren" />
		<tag k="natural" v="wetland" />
		<tag k="ssr:stedsnr" v="508385" />
	</node>
	<node id="-754112" lat="63.2730083373" lon="10.0726416637">
		<tag k="name" v="Kvenndølan" />
		<tag k="place" v="locality" />
		<tag k="ssr:stedsnr" v="508370" />
	</node>
	<node id="-754111" lat="63.2688388852" lon="10.0753749934">
		<tag k="name" v="Bjørgmyra" />
>>>>>>> e1d4bc35ff8a6074a6f2e91616a996b547c36f15
		<tag k="natural" v="wetland" />
		<tag k="ssr:stedsnr" v="206217" />
	</node>
<<<<<<< HEAD
	<node lat="63.31770555441142" lon="9.938413881437787" id="-34754">
		<tag k="name" v="Drættesmyra" />
=======
	<node id="-754165" lat="63.2906055581" lon="9.9792972209">
		<tag k="historic" v="shieling" />
		<tag k="name" v="Myrinssætra" />
		<tag k="place" v="locality" />
		<tag k="ssr:stedsnr" v="449119" />
	</node>
	<node id="-754620" lat="63.2059583336" lon="9.92954721901">
		<tag k="name" v="Kåsa" />
>>>>>>> e1d4bc35ff8a6074a6f2e91616a996b547c36f15
		<tag k="natural" v="wetland" />
		<tag k="ssr:stedsnr" v="206226" />
	</node>
<<<<<<< HEAD
	<node lat="63.18575000118831" lon="9.983519453847705" id="-34755">
		<tag k="name" v="Svarttjønnslættet" />
=======
	<node id="-754107" lat="63.2579999971" lon="10.1450999922">
		<tag k="name" v="Langmyra" />
>>>>>>> e1d4bc35ff8a6074a6f2e91616a996b547c36f15
		<tag k="natural" v="wetland" />
		<tag k="ssr:stedsnr" v="207535" />
	</node>
<<<<<<< HEAD
	<node lat="63.33079444869388" lon="9.952008329223306" id="-34758">
		<tag k="name" v="Raudmyra" />
		<tag k="natural" v="wetland" />
		<tag k="ssr:stedsnr" v="449199" />
	</node>
	<node lat="63.244430552677386" lon="10.102333334047664" id="-34765">
		<tag k="name" v="Overslættet" />
=======
	<node id="-754618" lat="63.2248750025" lon="10.0555444396">
		<tag k="name" v="Raudmyra" />
		<tag k="natural" v="wetland" />
		<tag k="ssr:stedsnr" v="84383" />
	</node>
	<node id="-755129" lat="63.284569445" lon="9.98698055402">
		<tag k="name" v="Pollmyra" />
		<tag k="natural" v="wetland" />
		<tag k="ssr:stedsnr" v="812184" />
	</node>
	<node id="-754164" lat="63.2022499964" lon="10.0447388879">
		<tag k="name" v="Lomtjønnmyra" />
		<tag k="natural" v="wetland" />
		<tag k="ssr:stedsnr" v="448637" />
	</node>
	<node id="-755126" lat="63.3323444467" lon="10.0300388929">
		<tag k="name" v="Rossmomyren" />
>>>>>>> e1d4bc35ff8a6074a6f2e91616a996b547c36f15
		<tag k="natural" v="wetland" />
		<tag k="ssr:stedsnr" v="449395" />
	</node>
<<<<<<< HEAD
	<node lat="63.21779444887627" lon="10.043336110198524" id="-34768">
		<tag k="name" v="Sersjantlykkja" />
		<tag k="place" v="locality" />
		<tag k="ssr:stedsnr" v="449346" />
	</node>
	<node lat="63.30363889263073" lon="10.024341660671382" id="-34779">
		<tag k="name" v="Dammyra" />
=======
	<node id="-754613" lat="63.2520583359" lon="10.0856944489">
		<tag k="name" v="Krokan" />
		<tag k="place" v="locality" />
		<tag k="ssr:stedsnr" v="84450" />
	</node>
	<node id="-754612" lat="63.2524055543" lon="10.0990749909">
		<tag k="name" v="Bjønnmyra" />
		<tag k="natural" v="wetland" />
		<tag k="ssr:stedsnr" v="84448" />
	</node>
	<node id="-754610" lat="63.3060888905" lon="10.1237638969">
		<tag k="name" v="Bøgsetmyra" />
		<tag k="natural" v="wetland" />
		<tag k="ssr:stedsnr" v="84332" />
	</node>
	<node id="-754097" lat="63.3132138929" lon="10.023058343">
		<tag k="name" v="Rimyra" />
>>>>>>> e1d4bc35ff8a6074a6f2e91616a996b547c36f15
		<tag k="natural" v="wetland" />
		<tag k="ssr:stedsnr" v="266041" />
	</node>
<<<<<<< HEAD
	<node lat="63.21488055990901" lon="9.98206944767871" id="-34785">
		<tag k="name" v="Rogndalsmyra" />
		<tag k="natural" v="wetland" />
		<tag k="ssr:stedsnr" v="266410" />
	</node>
	<node lat="63.22718888619451" lon="9.921911113421896" id="-34787">
		<tag k="name" v="Storlimyra" />
		<tag k="natural" v="wetland" />
		<tag k="ssr:stedsnr" v="266390" />
	</node>
	<node lat="63.225800000568945" lon="9.944611109782402" id="-34788">
		<tag k="name" v="Litlkjølen" />
		<tag k="natural" v="wetland" />
		<tag k="ssr:stedsnr" v="266400" />
	</node>
	<node lat="63.27266389022088" lon="10.109730565235417" id="-34796">
		<tag k="historic" v="shieling" />
		<tag k="name" v="Gammelsætra" />
		<tag k="place" v="locality" />
		<tag k="ssr:stedsnr" v="267306" />
	</node>
	<node lat="63.32496389288975" lon="10.036294444021381" id="-34800">
		<tag k="name" v="Lyngmyra" />
		<tag k="natural" v="wetland" />
		<tag k="ssr:stedsnr" v="301640" />
	</node>
	<node lat="63.2505250008378" lon="10.081119447819361" id="-34809">
		<tag k="name" v="Stokkmyra" />
=======
	<node id="-755120" lat="63.265863892" lon="10.1201527834">
		<tag k="name" v="Tjønnmyren" />
		<tag k="natural" v="wetland" />
		<tag k="ssr:stedsnr" v="802764" />
	</node>
	<node id="-754095" lat="63.1743916639" lon="9.97236388349">
		<tag k="name" v="Duggurskåsa" />
		<tag k="place" v="locality" />
		<tag k="ssr:stedsnr" v="388508" />
	</node>
	<node id="-754089" lat="63.2947527778" lon="9.9863472249">
		<tag k="historic" v="shieling" />
		<tag k="name" v="Søreggsætra" />
		<tag k="place" v="locality" />
		<tag k="ssr:stedsnr" v="388111" />
	</node>
	<node id="-754087" lat="63.3161750018" lon="9.99214165984">
		<tag k="historic" v="shieling" />
		<tag k="name" v="Frammigardssetervollen" />
		<tag k="place" v="locality" />
		<tag k="ssr:stedsnr" v="388104" />
	</node>
	<node id="-754594" lat="63.3331527769" lon="9.96206944042">
		<tag k="name" v="Stormyra" />
		<tag k="natural" v="wetland" />
		<tag k="ssr:stedsnr" v="74279" />
	</node>
	<node id="-754081" lat="63.184924998" lon="9.94381666734">
		<tag k="name" v="Morsjøslettet" />
		<tag k="natural" v="wetland" />
		<tag k="ssr:stedsnr" v="387613" />
	</node>
	<node id="-754735" lat="63.238141666" lon="10.0670527756">
		<tag k="name" v="Åsmyra" />
		<tag k="natural" v="wetland" />
		<tag k="ssr:stedsnr" v="205551" />
	</node>
	<node id="-754075" lat="63.3317527804" lon="10.0241944365">
		<tag k="name" v="Granåsmyra" />
>>>>>>> e1d4bc35ff8a6074a6f2e91616a996b547c36f15
		<tag k="natural" v="wetland" />
		<tag k="ssr:stedsnr" v="317650" />
	</node>
<<<<<<< HEAD
	<node lat="63.24424166276999" lon="10.074455545980008" id="-34814">
		<tag k="name" v="Hestsprangmyra" />
		<tag k="natural" v="wetland" />
		<tag k="ssr:stedsnr" v="326517" />
	</node>
	<node lat="63.21495278011616" lon="10.026427787213688" id="-34815">
		<tag k="name" v="Øya" />
		<tag k="place" v="locality" />
		<tag k="ssr:stedsnr" v="326402" />
	</node>
	<node lat="63.21926389011592" lon="10.01790833238697" id="-34816">
		<tag k="name" v="Setermyren" />
		<tag k="natural" v="wetland" />
		<tag k="ssr:stedsnr" v="326423" />
	</node>
	<node lat="63.19828333072258" lon="9.972980564911259" id="-34818">
		<tag k="name" v="Grønlimyra" />
=======
	<node id="-754074" lat="63.2993027765" lon="10.1512249906">
		<tag k="name" v="Badstumyra" />
		<tag k="natural" v="wetland" />
		<tag k="ssr:stedsnr" v="387003" />
	</node>
	<node id="-754073" lat="63.3363250011" lon="10.0260805595">
		<tag k="historic" v="shieling" />
		<tag k="name" v="Bjønnavollen" />
		<tag k="place" v="locality" />
		<tag k="ssr:stedsnr" v="387002" />
	</node>
	<node id="-753988" lat="63.2080861086" lon="9.9249722172">
		<tag k="name" v="Baklislættet" />
		<tag k="natural" v="wetland" />
		<tag k="ssr:stedsnr" v="448436" />
	</node>
	<node id="-755094" lat="63.2050361074" lon="9.99971388547">
		<tag k="name" v="Kåsen" />
		<tag k="place" v="locality" />
		<tag k="ssr:stedsnr" v="752558" />
	</node>
	<node id="-755097" lat="63.2899555589" lon="9.94878611762">
		<tag k="name" v="Mjølhuslykkja" />
		<tag k="place" v="locality" />
		<tag k="ssr:stedsnr" v="753516" />
	</node>
	<node id="-755090" lat="63.2155166667" lon="9.94498055794">
		<tag k="name" v="Liaslættet" />
>>>>>>> e1d4bc35ff8a6074a6f2e91616a996b547c36f15
		<tag k="natural" v="wetland" />
		<tag k="ssr:stedsnr" v="326616" />
	</node>
<<<<<<< HEAD
	<node lat="63.28135277375163" lon="10.051441656775353" id="-34820">
		<tag k="name" v="Krutholet" />
=======
	<node id="-754577" lat="63.2659333364" lon="10.0962472257">
		<tag k="name" v="Kjerringkåsen" />
>>>>>>> e1d4bc35ff8a6074a6f2e91616a996b547c36f15
		<tag k="place" v="locality" />
		<tag k="ssr:stedsnr" v="327173" />
	</node>
<<<<<<< HEAD
	<node lat="63.26533888635764" lon="10.071169442352392" id="-34822">
		<tag k="name" v="Brennflata" />
		<tag k="place" v="locality" />
		<tag k="ssr:stedsnr" v="327330" />
	</node>
	<node lat="63.238825000161924" lon="9.94155555610231" id="-34827">
		<tag k="name" v="Vinåsmyra" />
=======
	<node id="-755086" lat="63.3235833321" lon="9.92360278413">
		<tag k="name" v="Hestlykkja" />
		<tag k="place" v="locality" />
		<tag k="ssr:stedsnr" v="752186" />
	</node>
	<node id="-755085" lat="63.3308222197" lon="9.942236113">
		<tag k="name" v="Ytter Buråsmyra" />
		<tag k="natural" v="wetland" />
		<tag k="ssr:stedsnr" v="752184" />
	</node>
	<node id="-754242" lat="63.3083194433" lon="9.99285833863">
		<tag k="name" v="Raudbekkmyren" />
		<tag k="natural" v="wetland" />
		<tag k="ssr:stedsnr" v="691156" />
	</node>
	<node id="-754567" lat="63.1895027757" lon="10.0028055538">
		<tag k="name" v="Orrhanmyra" />
>>>>>>> e1d4bc35ff8a6074a6f2e91616a996b547c36f15
		<tag k="natural" v="wetland" />
		<tag k="ssr:stedsnr" v="327272" />
	</node>
<<<<<<< HEAD
	<node lat="63.202963885463866" lon="9.962647221919068" id="-34830">
		<tag k="name" v="Gilmyra" />
=======
	<node id="-755078" lat="63.2846638911" lon="10.1301583266">
		<tag k="name" v="Tjønnamyra" />
>>>>>>> e1d4bc35ff8a6074a6f2e91616a996b547c36f15
		<tag k="natural" v="wetland" />
		<tag k="ssr:stedsnr" v="327561" />
	</node>
<<<<<<< HEAD
	<node lat="63.33632500111014" lon="10.026080559475009" id="-34846">
		<tag k="historic" v="shieling" />
		<tag k="name" v="Bjønnavollen" />
=======
	<node id="-755076" lat="63.2474472255" lon="10.0433527808">
		<tag k="name" v="Skålvollen" />
>>>>>>> e1d4bc35ff8a6074a6f2e91616a996b547c36f15
		<tag k="place" v="locality" />
		<tag k="ssr:stedsnr" v="387002" />
	</node>
<<<<<<< HEAD
	<node lat="63.29930277650226" lon="10.151224990592759" id="-34847">
		<tag k="name" v="Badstumyra" />
=======
	<node id="-755075" lat="63.2158138874" lon="9.96216666587">
		<tag k="name" v="Masslættmyra" />
>>>>>>> e1d4bc35ff8a6074a6f2e91616a996b547c36f15
		<tag k="natural" v="wetland" />
		<tag k="ssr:stedsnr" v="387003" />
	</node>
<<<<<<< HEAD
	<node lat="63.33175278044516" lon="10.024194436516076" id="-34848">
		<tag k="name" v="Granåsmyra" />
		<tag k="natural" v="wetland" />
		<tag k="ssr:stedsnr" v="387005" />
	</node>
	<node lat="63.304508332580575" lon="10.146044453121387" id="-34851">
		<tag k="name" v="Hammertrøa" />
=======
	<node id="-755073" lat="63.1968361097" lon="9.94730277145">
		<tag k="name" v="Øvermarka" />
>>>>>>> e1d4bc35ff8a6074a6f2e91616a996b547c36f15
		<tag k="place" v="locality" />
		<tag k="ssr:stedsnr" v="387018" />
	</node>
<<<<<<< HEAD
	<node lat="63.30488055643748" lon="10.00541945029219" id="-34854">
		<tag k="name" v="Tiurleikmyra" />
=======
	<node id="-755072" lat="63.2013361111" lon="10.0059722277">
		<tag k="name" v="Øver Blåhåmmårmyra" />
>>>>>>> e1d4bc35ff8a6074a6f2e91616a996b547c36f15
		<tag k="natural" v="wetland" />
		<tag k="ssr:stedsnr" v="387148" />
	</node>
<<<<<<< HEAD
	<node lat="63.18492499803612" lon="9.943816667339354" id="-34860">
		<tag k="name" v="Morsjøslettet" />
		<tag k="natural" v="wetland" />
		<tag k="ssr:stedsnr" v="387613" />
	</node>
	<node lat="63.174391663914236" lon="9.972363883493989" id="-34866">
		<tag k="name" v="Duggurskåsa" />
=======
	<node id="-754557" lat="63.2200527755" lon="10.0444499964">
		<tag k="historic" v="shieling" />
		<tag k="name" v="Kvennhusvollen" />
		<tag k="place" v="locality" />
		<tag k="ssr:stedsnr" v="24341" />
	</node>
	<node id="-754554" lat="63.3331999958" lon="9.92499443996">
		<tag k="name" v="Holo" />
>>>>>>> e1d4bc35ff8a6074a6f2e91616a996b547c36f15
		<tag k="place" v="locality" />
		<tag k="ssr:stedsnr" v="388508" />
	</node>
<<<<<<< HEAD
	<node lat="63.32646944515947" lon="10.020363896483518" id="-34886">
		<tag k="name" v="Fabrikkmyra" />
=======
	<node id="-754553" lat="63.3366749982" lon="9.96645278123">
		<tag k="name" v="Merramyra" />
>>>>>>> e1d4bc35ff8a6074a6f2e91616a996b547c36f15
		<tag k="natural" v="wetland" />
		<tag k="ssr:stedsnr" v="448003" />
	</node>
<<<<<<< HEAD
	<node lat="63.30166944358545" lon="10.144649996885267" id="-34889">
		<tag k="name" v="Finnmyra" />
		<tag k="natural" v="wetland" />
		<tag k="ssr:stedsnr" v="448021" />
	</node>
	<node lat="63.27097777549926" lon="9.982222214350626" id="-34894">
		<tag k="name" v="Rammelan" />
		<tag k="place" v="locality" />
		<tag k="ssr:stedsnr" v="448272" />
	</node>
	<node lat="63.29060555806191" lon="9.979297220902628" id="-34900">
		<tag k="historic" v="shieling" />
		<tag k="name" v="Myrinssætra" />
		<tag k="place" v="locality" />
		<tag k="ssr:stedsnr" v="449119" />
	</node>
	<node lat="63.32318055541813" lon="9.941966660496288" id="-34904">
		<tag k="name" v="Andåsmyra" />
=======
	<node id="-754039" lat="63.3135527757" lon="9.90275554954">
		<tag k="name" v="Ulvåsmyra" />
		<tag k="natural" v="wetland" />
		<tag k="ssr:stedsnr" v="327133" />
	</node>
	<node id="-754550" lat="63.2481111113" lon="10.0681138967">
		<tag k="name" v="Gardtjønnmyra" />
>>>>>>> e1d4bc35ff8a6074a6f2e91616a996b547c36f15
		<tag k="natural" v="wetland" />
		<tag k="ssr:stedsnr" v="449214" />
	</node>
<<<<<<< HEAD
	<node lat="63.25545833332797" lon="10.069200004606854" id="-34913">
		<tag k="name" v="Litlgjerdet" />
=======
	<node id="-754036" lat="63.3122361097" lon="10.0217055499">
		<tag k="name" v="Blekkåsætra" />
>>>>>>> e1d4bc35ff8a6074a6f2e91616a996b547c36f15
		<tag k="place" v="locality" />
		<tag k="ssr:stedsnr" v="449323" />
	</node>
<<<<<<< HEAD
	<node lat="63.21199166964744" lon="9.921961103789666" id="-34914">
		<tag k="name" v="Svennslættet" />
=======
	<node id="-755057" lat="63.2095499962" lon="10.0762583398">
		<tag k="name" v="Gaddmyra" />
>>>>>>> e1d4bc35ff8a6074a6f2e91616a996b547c36f15
		<tag k="natural" v="wetland" />
		<tag k="ssr:stedsnr" v="449381" />
	</node>
<<<<<<< HEAD
	<node lat="63.21797500017447" lon="9.988863879824583" id="-34915">
		<tag k="name" v="Knutslættmyra" />
=======
	<node id="-754541" lat="63.2407055563" lon="9.90262777214">
		<tag k="name" v="Nersætermyren" />
>>>>>>> e1d4bc35ff8a6074a6f2e91616a996b547c36f15
		<tag k="natural" v="wetland" />
		<tag k="ssr:stedsnr" v="691419" />
	</node>
<<<<<<< HEAD
	<node lat="63.297177781872286" lon="9.923533339498938" id="-34941">
		<tag k="name" v="Seljkjølen" />
		<tag k="natural" v="wetland" />
		<tag k="ssr:stedsnr" v="498396" />
	</node>
	<node lat="63.21865833054849" lon="10.027599992332776" id="-34955">
		<tag k="name" v="Bergrommet" />
		<tag k="place" v="locality" />
		<tag k="ssr:stedsnr" v="508409" />
	</node>
	<node lat="63.252805551729" lon="10.08120277301601" id="-34956">
		<tag k="name" v="Sivertrommet" />
		<tag k="place" v="locality" />
		<tag k="ssr:stedsnr" v="508480" />
	</node>
	<node lat="63.257999997147465" lon="10.145099992165683" id="-34959">
		<tag k="name" v="Langmyra" />
		<tag k="natural" v="wetland" />
		<tag k="ssr:stedsnr" v="508514" />
	</node>
	<node lat="63.2717305586113" lon="10.165019445203708" id="-34960">
		<tag k="name" v="Korsen" />
=======
	<node id="-754066" lat="63.2971777819" lon="9.9235333395">
		<tag k="name" v="Seljkjølen" />
		<tag k="natural" v="wetland" />
		<tag k="ssr:stedsnr" v="498396" />
	</node>
	<node id="-754538" lat="63.3131722232" lon="10.1548361122">
		<tag k="name" v="Havenget" />
>>>>>>> e1d4bc35ff8a6074a6f2e91616a996b547c36f15
		<tag k="place" v="locality" />
		<tag k="ssr:stedsnr" v="508515" />
	</node>
<<<<<<< HEAD
	<node lat="63.268424997531106" lon="10.110333332333528" id="-34967">
		<tag k="name" v="Fuggellekarbea" />
		<tag k="place" v="locality" />
		<tag k="ssr:stedsnr" v="509319" />
	</node>
	<node lat="63.342275003271" lon="9.951250006337343" id="-34969">
		<tag k="name" v="Sandlykkja" />
=======
	<node id="-754151" lat="63.3016694436" lon="10.1446499969">
		<tag k="name" v="Finnmyra" />
		<tag k="natural" v="wetland" />
		<tag k="ssr:stedsnr" v="448021" />
	</node>
	<node id="-754024" lat="63.2883888923" lon="10.1199611196">
		<tag k="name" v="Stoøya" />
>>>>>>> e1d4bc35ff8a6074a6f2e91616a996b547c36f15
		<tag k="place" v="locality" />
		<tag k="ssr:stedsnr" v="510166" />
	</node>
<<<<<<< HEAD
	<node lat="63.29956801408668" lon="10.01340755544768" id="-34985">
		<tag k="name" v="Bukkmyra" />
=======
	<node id="-754534" lat="63.2689555514" lon="10.1048277803">
		<tag k="name" v="Ramskramyra" />
>>>>>>> e1d4bc35ff8a6074a6f2e91616a996b547c36f15
		<tag k="natural" v="wetland" />
		<tag k="ssr:stedsnr" v="691162" />
	</node>
<<<<<<< HEAD
	<node lat="63.29467222485608" lon="10.021011112347175" id="-34992">
		<tag k="name" v="Halvardsrommet" />
		<tag k="place" v="locality" />
		<tag k="ssr:stedsnr" v="691192" />
	</node>
	<node lat="63.2975777773885" lon="10.115652775680418" id="-34995">
		<tag k="name" v="Monsmyren" />
		<tag k="natural" v="wetland" />
		<tag k="ssr:stedsnr" v="691341" />
	</node>
	<node lat="63.25679999581603" lon="10.122302782774295" id="-34996">
		<tag k="name" v="Stormyren" />
		<tag k="natural" v="wetland" />
		<tag k="ssr:stedsnr" v="691345" />
	</node>
	<node lat="63.25141666396416" lon="10.090250002572065" id="-35001">
		<tag k="name" v="Litlstokkmyra" />
=======
	<node id="-754000" lat="63.3307944487" lon="9.95200832922">
		<tag k="name" v="Raudmyra" />
		<tag k="natural" v="wetland" />
		<tag k="ssr:stedsnr" v="449199" />
	</node>
	<node id="-755041" lat="63.2045027809" lon="10.0338694486">
		<tag k="name" v="Tjønnmyra" />
		<tag k="natural" v="wetland" />
		<tag k="ssr:stedsnr" v="740184" />
	</node>
	<node id="-755038" lat="63.1851972178" lon="9.97394167109">
		<tag k="name" v="Estenslættet" />
		<tag k="natural" v="wetland" />
		<tag k="ssr:stedsnr" v="631538" />
	</node>
	<node id="-754661" lat="63.3075083349" lon="10.1045805596">
		<tag k="name" v="Meimyra" />
		<tag k="natural" v="wetland" />
		<tag k="ssr:stedsnr" v="144358" />
	</node>
	<node id="-755036" lat="63.1755972222" lon="9.9597583318">
		<tag k="name" v="Vargkåsa" />
		<tag k="place" v="locality" />
		<tag k="ssr:stedsnr" v="631517" />
	</node>
	<node id="-755035" lat="63.3383111093" lon="10.0097694386">
		<tag k="name" v="Kolhogstret" />
		<tag k="place" v="locality" />
		<tag k="ssr:stedsnr" v="631176" />
	</node>
	<node id="-755034" lat="63.2028861155" lon="9.97493334153">
		<tag k="name" v="Enslættet" />
>>>>>>> e1d4bc35ff8a6074a6f2e91616a996b547c36f15
		<tag k="natural" v="wetland" />
		<tag k="ssr:stedsnr" v="691429" />
	</node>
<<<<<<< HEAD
	<node lat="63.24190555592036" lon="10.071294451580137" id="-35005">
		<tag k="name" v="Svallmyra" />
=======
	<node id="-754008" lat="63.2444305527" lon="10.102333334">
		<tag k="name" v="Overslættet" />
>>>>>>> e1d4bc35ff8a6074a6f2e91616a996b547c36f15
		<tag k="natural" v="wetland" />
		<tag k="ssr:stedsnr" v="691470" />
	</node>
<<<<<<< HEAD
	<node lat="63.18130555148838" lon="9.933836114177549" id="-35008">
		<tag k="name" v="Brannkåsan" />
=======
	<node id="-754007" lat="63.2119916696" lon="9.92196110379">
		<tag k="name" v="Svennslættet" />
>>>>>>> e1d4bc35ff8a6074a6f2e91616a996b547c36f15
		<tag k="natural" v="wetland" />
		<tag k="ssr:stedsnr" v="691599" />
	</node>
<<<<<<< HEAD
	<node lat="63.33706667108038" lon="9.953861118217894" id="-35014">
		<tag k="historic" v="shieling" />
		<tag k="name" v="Setervollan" />
		<tag k="place" v="locality" />
		<tag k="ssr:stedsnr" v="569216" />
	</node>
	<node lat="63.25665555903129" lon="9.934055550164205" id="-35015">
		<tag k="name" v="Homyren" />
=======
	<node id="-754518" lat="63.1749944409" lon="9.99158611651">
		<tag k="name" v="Morsjømyren" />
		<tag k="natural" v="wetland" />
		<tag k="ssr:stedsnr" v="935545" />
	</node>
	<node id="-754517" lat="63.1824305516" lon="9.9593361103">
		<tag k="name" v="Stentjønnslættet" />
>>>>>>> e1d4bc35ff8a6074a6f2e91616a996b547c36f15
		<tag k="natural" v="wetland" />
		<tag k="ssr:stedsnr" v="569254" />
	</node>
<<<<<<< HEAD
	<node lat="63.31585833645023" lon="9.896969446439348" id="-35018">
		<tag k="name" v="Stormyra" />
		<tag k="natural" v="wetland" />
		<tag k="ssr:stedsnr" v="570109" />
	</node>
	<node lat="63.29347500235497" lon="9.98188055104627" id="-35019">
		<tag k="historic" v="shieling" />
		<tag k="name" v="Eggsætra" />
		<tag k="place" v="locality" />
		<tag k="ssr:stedsnr" v="570113" />
	</node>
	<node lat="63.21597222410861" lon="10.047680556619092" id="-35025">
		<tag k="name" v="Fusshola" />
		<tag k="place" v="locality" />
		<tag k="ssr:stedsnr" v="570320" />
	</node>
	<node lat="63.24563611305228" lon="10.069188886588535" id="-35026">
		<tag k="name" v="Kolarbea" />
		<tag k="place" v="locality" />
		<tag k="ssr:stedsnr" v="570368" />
	</node>
	<node lat="63.309708334567034" lon="10.008863882696074" id="-35049">
		<tag k="historic" v="shieling" />
		<tag k="name" v="Oppstusetervollen" />
		<tag k="place" v="locality" />
		<tag k="ssr:stedsnr" v="629115" />
	</node>
	<node lat="63.266741666818795" lon="9.976294448493109" id="-35054">
=======
	<node id="-755024" lat="63.3155194423" lon="10.0626138861">
		<tag k="name" v="Blekkåøya" />
		<tag k="place" v="locality" />
		<tag k="ssr:stedsnr" v="630039" />
	</node>
	<node id="-755023" lat="63.1772722243" lon="9.93207500097">
		<tag k="name" v="Elgskogslættet" />
		<tag k="natural" v="wetland" />
		<tag k="ssr:stedsnr" v="629628" />
	</node>
	<node id="-755021" lat="63.2543666625" lon="10.0820388923">
		<tag k="name" v="Massrommet" />
		<tag k="place" v="locality" />
		<tag k="ssr:stedsnr" v="629451" />
	</node>
	<node id="-754507" lat="63.2711027797" lon="10.0815638988">
		<tag k="name" v="Bjørghavet" />
		<tag k="natural" v="wetland" />
		<tag k="ssr:stedsnr" v="934312" />
	</node>
	<node id="-755017" lat="63.2184305558" lon="9.97511388841">
		<tag k="name" v="Finnmomyra" />
		<tag k="natural" v="wetland" />
		<tag k="ssr:stedsnr" v="629438" />
	</node>
	<node id="-755015" lat="63.2667416668" lon="9.97629444849">
>>>>>>> e1d4bc35ff8a6074a6f2e91616a996b547c36f15
		<tag k="name" v="Krestenlykkja" />
		<tag k="place" v="locality" />
		<tag k="ssr:stedsnr" v="629243" />
	</node>
<<<<<<< HEAD
	<node lat="63.22777221807436" lon="10.055111118057088" id="-35055">
		<tag k="name" v="Ratåsmyra" />
=======
	<node id="-754657" lat="63.2405861153" lon="10.0077055599">
		<tag k="name" v="Rødsmyren" />
		<tag k="natural" v="wetland" />
		<tag k="ssr:stedsnr" v="144301" />
	</node>
	<node id="-755012" lat="63.3052583304" lon="10.0724361169">
		<tag k="name" v="Kloppmyra" />
>>>>>>> e1d4bc35ff8a6074a6f2e91616a996b547c36f15
		<tag k="natural" v="wetland" />
		<tag k="ssr:stedsnr" v="629406" />
	</node>
<<<<<<< HEAD
	<node lat="63.25436666247455" lon="10.082038892278012" id="-35057">
		<tag k="name" v="Massrommet" />
=======
	<node id="-753986" lat="63.2560416668" lon="10.0194583285">
		<tag k="name" v="Holo" />
>>>>>>> e1d4bc35ff8a6074a6f2e91616a996b547c36f15
		<tag k="place" v="locality" />
		<tag k="ssr:stedsnr" v="629451" />
	</node>
<<<<<<< HEAD
	<node lat="63.28867778068683" lon="10.13523334329975" id="-35067">
		<tag k="name" v="Seteråsmyra" />
=======
	<node id="-754497" lat="63.3250250033" lon="9.91326665767">
		<tag k="name" v="Vintermyra" />
>>>>>>> e1d4bc35ff8a6074a6f2e91616a996b547c36f15
		<tag k="natural" v="wetland" />
		<tag k="ssr:stedsnr" v="630292" />
	</node>
<<<<<<< HEAD
	<node lat="63.33831110926452" lon="10.00976943860515" id="-35068">
		<tag k="name" v="Kolhogstret" />
=======
	<node id="-753984" lat="63.2709777755" lon="9.98222221435">
		<tag k="name" v="Rammelan" />
>>>>>>> e1d4bc35ff8a6074a6f2e91616a996b547c36f15
		<tag k="place" v="locality" />
		<tag k="ssr:stedsnr" v="631176" />
	</node>
<<<<<<< HEAD
	<node lat="63.185197217758386" lon="9.973941671087584" id="-35070">
		<tag k="name" v="Estenslættet" />
		<tag k="natural" v="wetland" />
		<tag k="ssr:stedsnr" v="631538" />
	</node>
	<node lat="63.31320555770401" lon="9.900933338495962" id="-35079">
		<tag k="name" v="Torvmyra" />
=======
	<node id="-754656" lat="63.25500556" lon="9.95693889345">
		<tag k="name" v="Plassan" />
		<tag k="place" v="locality" />
		<tag k="ssr:stedsnr" v="144296" />
	</node>
	<node id="-754494" lat="63.3058277791" lon="9.92085556236">
		<tag k="name" v="Dammyra" />
>>>>>>> e1d4bc35ff8a6074a6f2e91616a996b547c36f15
		<tag k="natural" v="wetland" />
		<tag k="ssr:stedsnr" v="680313" />
	</node>
<<<<<<< HEAD
	<node lat="63.308319443265994" lon="9.99285833862841" id="-35087">
		<tag k="name" v="Raudbekkmyren" />
		<tag k="natural" v="wetland" />
		<tag k="ssr:stedsnr" v="691156" />
	</node>
	<node lat="63.266702774814334" lon="9.912716673612875" id="-35090">
		<tag k="name" v="Grønlikjølen" />
		<tag k="natural" v="wetland" />
		<tag k="ssr:stedsnr" v="691275" />
	</node>
	<node lat="63.25089167073716" lon="10.009772216387463" id="-35095">
		<tag k="name" v="Teppet" />
		<tag k="natural" v="wetland" />
		<tag k="ssr:stedsnr" v="691307" />
	</node>
	<node lat="63.294030551429394" lon="10.131080555663772" id="-35097">
		<tag k="name" v="Stangamyra" />
		<tag k="natural" v="wetland" />
		<tag k="ssr:stedsnr" v="691339" />
	</node>
	<node lat="63.265863885909994" lon="10.066094451937001" id="-35098">
		<tag k="name" v="Heimrøstet" />
=======
	<node id="-753817" lat="63.2268638883" lon="10.0250833354">
		<tag k="name" v="Syrstadmyren" />
		<tag k="natural" v="wetland" />
		<tag k="ssr:stedsnr" v="23434" />
	</node>
	<node id="-754715" lat="63.318872221" lon="10.035050002">
		<tag k="name" v="Orrmyra" />
		<tag k="natural" v="wetland" />
		<tag k="ssr:stedsnr" v="205037" />
	</node>
	<node id="-754489" lat="63.1811277813" lon="9.98403888755">
		<tag k="name" v="Storvollmyra" />
		<tag k="natural" v="wetland" />
		<tag k="ssr:stedsnr" v="874564" />
	</node>
	<node id="-754486" lat="63.1980555528" lon="10.0516527703">
		<tag k="name" v="Linberglykkja" />
>>>>>>> e1d4bc35ff8a6074a6f2e91616a996b547c36f15
		<tag k="place" v="locality" />
		<tag k="ssr:stedsnr" v="691382" />
	</node>
<<<<<<< HEAD
	<node lat="63.211075001457104" lon="9.984297219914144" id="-35100">
		<tag k="name" v="Storlykkja" />
		<tag k="place" v="locality" />
		<tag k="ssr:stedsnr" v="691576" />
	</node>
	<node lat="63.20555555665131" lon="9.97260000898002" id="-35101">
		<tag k="name" v="Isåsslættet" />
=======
	<node id="-754485" lat="63.2584111098" lon="10.0785277874">
		<tag k="name" v="Åsmyra" />
>>>>>>> e1d4bc35ff8a6074a6f2e91616a996b547c36f15
		<tag k="natural" v="wetland" />
		<tag k="ssr:stedsnr" v="691585" />
	</node>
<<<<<<< HEAD
	<node lat="63.17291111099599" lon="9.961266660617397" id="-35103">
		<tag k="name" v="Lunkan" />
		<tag k="natural" v="wetland" />
		<tag k="ssr:stedsnr" v="692503" />
	</node>
	<node lat="63.201336111112454" lon="10.005972227748039" id="-35132">
		<tag k="name" v="Øver Blåhåmmårmyra" />
=======
	<node id="-754220" lat="63.3009222255" lon="10.1036888982">
		<tag k="historic" v="shieling" />
		<tag k="name" v="Einsætra" />
		<tag k="place" v="locality" />
		<tag k="ssr:stedsnr" v="508345" />
	</node>
	<node id="-754483" lat="63.3148611073" lon="10.1102388813">
		<tag k="name" v="Raudmyra" />
>>>>>>> e1d4bc35ff8a6074a6f2e91616a996b547c36f15
		<tag k="natural" v="wetland" />
		<tag k="ssr:stedsnr" v="751424" />
	</node>
	<node lat="63.196836109714056" lon="9.947302771445935" id="-35133">
		<tag k="name" v="Øvermarka" />
		<tag k="place" v="locality" />
		<tag k="ssr:stedsnr" v="751428" />
	</node>
	<node lat="63.20954999615447" lon="10.07625833983941" id="-35135">
		<tag k="name" v="Gaddmyra" />
		<tag k="natural" v="wetland" />
		<tag k="ssr:stedsnr" v="751620" />
	</node>
	<node lat="63.25796388924488" lon="10.017758325207861" id="-35141">
		<tag k="name" v="Mormyren" />
		<tag k="natural" v="wetland" />
		<tag k="ssr:stedsnr" v="752312" />
	</node>
	<node lat="63.21551666674354" lon="9.94498055793716" id="-35144">
		<tag k="name" v="Liaslættet" />
		<tag k="natural" v="wetland" />
		<tag k="ssr:stedsnr" v="752368" />
	</node>
	<node lat="63.284663891132745" lon="10.13015832663938" id="-35145">
		<tag k="name" v="Tjønnamyra" />
		<tag k="natural" v="wetland" />
		<tag k="ssr:stedsnr" v="752261" />
	</node>
<<<<<<< HEAD
	<node lat="63.2050361073752" lon="9.999713885468216" id="-35147">
		<tag k="name" v="Kåsen" />
=======
	<node id="-754482" lat="63.2819166643" lon="10.1264749964">
		<tag k="name" v="Stortrøa" />
>>>>>>> e1d4bc35ff8a6074a6f2e91616a996b547c36f15
		<tag k="place" v="locality" />
		<tag k="ssr:stedsnr" v="752558" />
	</node>
<<<<<<< HEAD
	<node lat="63.289955558873906" lon="9.948786117616368" id="-35149">
		<tag k="name" v="Mjølhuslykkja" />
		<tag k="place" v="locality" />
		<tag k="ssr:stedsnr" v="753516" />
	</node>
	<node lat="63.2658638919832" lon="10.1201527834417" id="-35172">
		<tag k="name" v="Tjønnmyren" />
=======
	<node id="-754227" lat="63.2929999998" lon="9.91992499032">
		<tag k="name" v="Kamlykkja" />
		<tag k="place" v="locality" />
		<tag k="ssr:stedsnr" v="509135" />
	</node>
	<node id="-754990" lat="63.2160244987" lon="10.0441302773">
		<tag k="landuse" v="meadow" />
		<tag k="name" v="Kammen" />
		<tag k="ssr:stedsnr" v="619261" />
	</node>
	<node id="-754474" lat="63.2153583328" lon="9.97183333876">
		<tag k="name" v="Sagslættmyra" />
>>>>>>> e1d4bc35ff8a6074a6f2e91616a996b547c36f15
		<tag k="natural" v="wetland" />
		<tag k="ssr:stedsnr" v="802764" />
	</node>
<<<<<<< HEAD
	<node lat="63.30435555317038" lon="10.197894434656833" id="-35176">
		<tag k="name" v="Slettegga" />
=======
	<node id="-754472" lat="63.2584472204" lon="10.0081333283">
		<tag k="name" v="Byahåggåan" />
>>>>>>> e1d4bc35ff8a6074a6f2e91616a996b547c36f15
		<tag k="place" v="locality" />
		<tag k="ssr:stedsnr" v="812017" />
	</node>
<<<<<<< HEAD
	<node lat="63.33234444671122" lon="10.030038892855144" id="-35179">
		<tag k="name" v="Rossmomyren" />
=======
	<node id="-754471" lat="63.2696472257" lon="9.9208305612">
		<tag k="name" v="Liakjølen" />
>>>>>>> e1d4bc35ff8a6074a6f2e91616a996b547c36f15
		<tag k="natural" v="wetland" />
		<tag k="ssr:stedsnr" v="812002" />
	</node>
<<<<<<< HEAD
	<node lat="63.28456944502716" lon="9.986980554018402" id="-35181">
		<tag k="name" v="Pollmyra" />
=======
	<node id="-754470" lat="63.3325972189" lon="9.97220555754">
		<tag k="name" v="Gilmyra" />
>>>>>>> e1d4bc35ff8a6074a6f2e91616a996b547c36f15
		<tag k="natural" v="wetland" />
		<tag k="ssr:stedsnr" v="812184" />
	</node>
<<<<<<< HEAD
	<node lat="63.22683610890973" lon="10.114944440226845" id="-35184">
		<tag k="name" v="Raudmyra" />
		<tag k="natural" v="wetland" />
		<tag k="ssr:stedsnr" v="812406" />
	</node>
	<node lat="63.19373610871978" lon="9.943222213780365" id="-35185">
		<tag k="name" v="Litlslættet" />
		<tag k="natural" v="wetland" />
		<tag k="ssr:stedsnr" v="812417" />
	</node>
	<node lat="63.22696389260813" lon="9.963255546362182" id="-35187">
		<tag k="name" v="Kloppmyra" />
=======
	<node id="-753983" lat="63.2712916634" lon="9.96034165983">
		<tag k="name" v="Rossvassmyren" />
		<tag k="natural" v="wetland" />
		<tag k="ssr:stedsnr" v="448268" />
	</node>
	<node id="-753946" lat="63.2360805593" lon="10.0839777789">
		<tag k="name" v="Eismyra" />
>>>>>>> e1d4bc35ff8a6074a6f2e91616a996b547c36f15
		<tag k="natural" v="wetland" />
		<tag k="ssr:stedsnr" v="812433" />
	</node>
<<<<<<< HEAD
	<node lat="63.19370000356721" lon="9.971324998582809" id="-35189">
		<tag k="name" v="Stakkenget" />
		<tag k="natural" v="wetland" />
		<tag k="ssr:stedsnr" v="812614" />
	</node>
	<node lat="63.29171666734757" lon="9.979058324953167" id="-35190">
		<tag k="name" v="Myrinssetermyran" />
		<tag k="natural" v="wetland" />
		<tag k="ssr:stedsnr" v="813108" />
	</node>
	<node lat="63.30707777365906" lon="9.988086104315407" id="-35195">
		<tag k="historic" v="shieling" />
		<tag k="name" v="Julvollan" />
		<tag k="place" v="locality" />
		<tag k="ssr:stedsnr" v="813099" />
	</node>
	<node lat="63.276100002996294" lon="10.103605550832462" id="-35227">
		<tag k="alt_name" v="Stormyren" />
		<tag k="name" v="Stormyra" />
=======
	<node id="-754223" lat="63.2528055517" lon="10.081202773">
		<tag k="name" v="Sivertrommet" />
		<tag k="place" v="locality" />
		<tag k="ssr:stedsnr" v="508480" />
	</node>
	<node id="-754968" lat="63.2456361131" lon="10.0691888866">
		<tag k="name" v="Kolarbea" />
		<tag k="place" v="locality" />
		<tag k="ssr:stedsnr" v="570368" />
	</node>
	<node id="-754967" lat="63.2159722241" lon="10.0476805566">
		<tag k="name" v="Fusshola" />
		<tag k="place" v="locality" />
		<tag k="ssr:stedsnr" v="570320" />
	</node>
	<node id="-754101" lat="63.2940000022" lon="9.97235555678">
		<tag k="historic" v="shieling" />
		<tag k="name" v="Nordeggsætra" />
		<tag k="place" v="locality" />
		<tag k="ssr:stedsnr" v="508157" />
	</node>
	<node id="-754453" lat="63.2487444419" lon="10.1338277705">
		<tag k="name" v="Solåsmyren" />
>>>>>>> e1d4bc35ff8a6074a6f2e91616a996b547c36f15
		<tag k="natural" v="wetland" />
		<tag k="ssr:stedsnr" v="862356" />
	</node>
<<<<<<< HEAD
	<node lat="63.27110277968905" lon="10.081563898762665" id="-35236">
		<tag k="name" v="Bjørghavet" />
=======
	<node id="-754451" lat="63.235688888" lon="10.116466665">
		<tag k="name" v="Prestmyra" />
>>>>>>> e1d4bc35ff8a6074a6f2e91616a996b547c36f15
		<tag k="natural" v="wetland" />
		<tag k="ssr:stedsnr" v="934312" />
	</node>
<<<<<<< HEAD
	<node lat="63.21451389091595" lon="10.104666676670886" id="-35243">
		<tag k="name" v="Kjølmyra" />
=======
	<node id="-754371" lat="63.29984167" lon="9.9069527811">
		<tag k="name" v="Hulluenget" />
		<tag k="place" v="locality" />
		<tag k="ssr:stedsnr" v="751047" />
	</node>
	<node id="-754563" lat="63.2846833348" lon="10.1504472273">
		<tag k="name" v="Saltnesmyra" />
		<tag k="natural" v="wetland" />
		<tag k="ssr:stedsnr" v="24269" />
	</node>
	<node id="-754448" lat="63.2298138923" lon="9.97223334008">
		<tag k="name" v="Hestlykkjmyra" />
>>>>>>> e1d4bc35ff8a6074a6f2e91616a996b547c36f15
		<tag k="natural" v="wetland" />
		<tag k="ssr:stedsnr" v="934338" />
	</node>
<<<<<<< HEAD
	<node lat="63.21740555767181" lon="9.932358330362199" id="-35246">
		<tag k="name" v="Spillen" />
		<tag k="natural" v="wetland" />
		<tag k="ssr:stedsnr" v="934365" />
	</node>
	<node lat="63.22053611069565" lon="9.943922221184765" id="-35248">
		<tag k="name" v="Gardsmyra" />
=======
	<node id="-754136" lat="63.3422750033" lon="9.95125000634">
		<tag k="name" v="Sandlykkja" />
		<tag k="place" v="locality" />
		<tag k="ssr:stedsnr" v="510166" />
	</node>
	<node id="-754444" lat="63.304205557" lon="10.1170888862">
		<tag k="name" v="Fuggelåsmyra" />
>>>>>>> e1d4bc35ff8a6074a6f2e91616a996b547c36f15
		<tag k="natural" v="wetland" />
		<tag k="ssr:stedsnr" v="934369" />
	</node>
<<<<<<< HEAD
	<node lat="63.22981389230363" lon="9.972233340082218" id="-35249">
		<tag k="name" v="Hestlykkjmyra" />
=======
	<node id="-754955" lat="63.3194472206" lon="9.96140833677">
		<tag k="name" v="Sjetnmyra" />
>>>>>>> e1d4bc35ff8a6074a6f2e91616a996b547c36f15
		<tag k="natural" v="wetland" />
		<tag k="ssr:stedsnr" v="934372" />
	</node>
<<<<<<< HEAD
	<node lat="63.2356888880488" lon="10.116466665004955" id="-35252">
		<tag k="name" v="Prestmyra" />
		<tag k="natural" v="wetland" />
		<tag k="ssr:stedsnr" v="934382" />
	</node>
	<node lat="63.318163891510714" lon="10.044830547052293" id="-35271">
		<tag k="name" v="Haldoplassen" />
=======
	<node id="-753929" lat="63.2726638902" lon="10.1097305652">
		<tag k="historic" v="shieling" />
		<tag k="name" v="Gammelsætra" />
>>>>>>> e1d4bc35ff8a6074a6f2e91616a996b547c36f15
		<tag k="place" v="locality" />
		<tag k="ssr:stedsnr" v="934028" />
	</node>
<<<<<<< HEAD
	<node lat="63.333183334216024" lon="10.019880549803403" id="-35272">
		<tag k="name" v="Hårråmyra" />
=======
	<node id="-753928" lat="63.2914472255" lon="10.1652250023">
		<tag k="name" v="Brennan" />
		<tag k="place" v="locality" />
		<tag k="ssr:stedsnr" v="267273" />
	</node>
	<node id="-754439" lat="63.2174055577" lon="9.93235833036">
		<tag k="name" v="Spillen" />
>>>>>>> e1d4bc35ff8a6074a6f2e91616a996b547c36f15
		<tag k="natural" v="wetland" />
		<tag k="ssr:stedsnr" v="934002" />
	</node>
<<<<<<< HEAD
	<node lat="63.28020000213041" lon="9.997297229145868" id="-35275">
		<tag k="name" v="Mjølhusmyra" />
=======
	<node id="-754950" lat="63.2110083308" lon="9.97725000049">
		<tag k="name" v="Isåsmyra" />
>>>>>>> e1d4bc35ff8a6074a6f2e91616a996b547c36f15
		<tag k="natural" v="wetland" />
		<tag k="ssr:stedsnr" v="934152" />
	</node>
<<<<<<< HEAD
	<node lat="63.33341110885533" lon="9.945619443354536" id="-35277">
=======
	<node id="-754437" lat="63.3334111089" lon="9.94561944335">
>>>>>>> e1d4bc35ff8a6074a6f2e91616a996b547c36f15
		<tag k="name" v="Fremmer Buråsmyra" />
		<tag k="natural" v="wetland" />
		<tag k="ssr:stedsnr" v="934196" />
	</node>
<<<<<<< HEAD
	<node lat="63.329361112755876" lon="9.932158332723846" id="-35278">
		<tag k="name" v="Stykket" />
		<tag k="place" v="locality" />
		<tag k="ssr:stedsnr" v="934200" />
	</node>
	<node lat="63.30582777907366" lon="9.920855562360275" id="-35279">
		<tag k="name" v="Dammyra" />
=======
	<node id="-754433" lat="63.2802000021" lon="9.99729722915">
		<tag k="name" v="Mjølhusmyra" />
>>>>>>> e1d4bc35ff8a6074a6f2e91616a996b547c36f15
		<tag k="natural" v="wetland" />
		<tag k="ssr:stedsnr" v="934208" />
	</node>
<<<<<<< HEAD
	<node lat="63.32502500329487" lon="9.91326665766918" id="-35282">
		<tag k="name" v="Vintermyra" />
=======
	<node id="-754944" lat="63.2227777802" lon="9.96184444425">
		<tag k="name" v="Stormyra" />
>>>>>>> e1d4bc35ff8a6074a6f2e91616a996b547c36f15
		<tag k="natural" v="wetland" />
		<tag k="ssr:stedsnr" v="934216" />
	</node>
<<<<<<< HEAD
	<node lat="63.303150002323314" lon="10.097466661311847" id="-35289">
		<tag k="name" v="Homyra" />
		<tag k="natural" v="wetland" />
		<tag k="ssr:stedsnr" v="934285" />
	</node>
	<node lat="63.30420555698737" lon="10.11708888617775" id="-35290">
		<tag k="name" v="Fuggelåsmyra" />
		<tag k="natural" v="wetland" />
		<tag k="ssr:stedsnr" v="934288" />
	</node>
	<node lat="63.24874444187707" lon="10.133827770546445" id="-35295">
		<tag k="name" v="Solåsmyren" />
		<tag k="natural" v="wetland" />
		<tag k="ssr:stedsnr" v="934395" />
	</node>
	<node lat="63.27439166773311" lon="10.175541661837045" id="-35297">
		<tag k="name" v="Daltrøa" />
		<tag k="place" v="locality" />
		<tag k="ssr:stedsnr" v="934401" />
	</node>
	<node lat="63.182430551589135" lon="9.959336110295443" id="-35299">
		<tag k="name" v="Stentjønnslættet" />
=======
	<node id="-754429" lat="63.3181638915" lon="10.0448305471">
		<tag k="name" v="Haldoplassen" />
		<tag k="place" v="locality" />
		<tag k="ssr:stedsnr" v="934028" />
	</node>
	<node id="-753931" lat="63.2398694408" lon="10.1130944433">
		<tag k="name" v="Tjønnmyra" />
		<tag k="natural" v="wetland" />
		<tag k="ssr:stedsnr" v="267376" />
	</node>
	<node id="-754938" lat="63.256655559" lon="9.93405555016">
		<tag k="name" v="Homyren" />
>>>>>>> e1d4bc35ff8a6074a6f2e91616a996b547c36f15
		<tag k="natural" v="wetland" />
		<tag k="ssr:stedsnr" v="934517" />
	</node>
<<<<<<< HEAD
	<node lat="63.17499444093848" lon="9.991586116511117" id="-35301">
		<tag k="name" v="Morsjømyren" />
=======
	<node id="-754937" lat="63.273919441" lon="9.96246110401">
		<tag k="name" v="Bakgreistaden" />
>>>>>>> e1d4bc35ff8a6074a6f2e91616a996b547c36f15
		<tag k="natural" v="wetland" />
		<tag k="ssr:stedsnr" v="935545" />
	</node>
<<<<<<< HEAD
	<node lat="63.26895555137905" lon="10.10482778026304" id="-35321">
		<tag k="name" v="Ramskramyra" />
		<tag k="natural" v="wetland" />
		<tag k="ssr:stedsnr" v="13740" />
	</node>
	<node lat="63.227297222745094" lon="10.00238055271209" id="-35331">
		<tag k="name" v="Setermyra" />
		<tag k="natural" v="wetland" />
		<tag k="ssr:stedsnr" v="23429" />
	</node>
	<node lat="63.24070555629066" lon="9.902627772141003" id="-35333">
		<tag k="name" v="Nersætermyren" />
=======
	<node id="-754936" lat="63.3370666711" lon="9.95386111822">
		<tag k="historic" v="shieling" />
		<tag k="name" v="Setervollan" />
		<tag k="place" v="locality" />
		<tag k="ssr:stedsnr" v="569216" />
	</node>
	<node id="-754423" lat="63.3043555532" lon="10.1978944347">
		<tag k="name" v="Slettegga" />
		<tag k="place" v="locality" />
		<tag k="ssr:stedsnr" v="812017" />
	</node>
	<node id="-753910" lat="63.2271888862" lon="9.92191111342">
		<tag k="name" v="Storlimyra" />
		<tag k="natural" v="wetland" />
		<tag k="ssr:stedsnr" v="266390" />
	</node>
	<node id="-753911" lat="63.2258000006" lon="9.94461110978">
		<tag k="name" v="Litlkjølen" />
>>>>>>> e1d4bc35ff8a6074a6f2e91616a996b547c36f15
		<tag k="natural" v="wetland" />
		<tag k="ssr:stedsnr" v="23351" />
	</node>
<<<<<<< HEAD
	<node lat="63.23303889182832" lon="10.05918888316789" id="-35338">
		<tag k="name" v="Bombåsmyra" />
		<tag k="natural" v="wetland" />
		<tag k="ssr:stedsnr" v="23448" />
	</node>
	<node lat="63.24811111132022" lon="10.068113896721433" id="-35342">
		<tag k="name" v="Gardtjønnmyra" />
		<tag k="natural" v="wetland" />
		<tag k="ssr:stedsnr" v="23557" />
	</node>
	<node lat="63.312405559844336" lon="9.920505553279948" id="-35345">
		<tag k="name" v="Stormyra" />
=======
	<node id="-754131" lat="63.2131861088" lon="9.9288361049">
		<tag k="name" v="Melbykjølen" />
		<tag k="natural" v="wetland" />
		<tag k="ssr:stedsnr" v="509372" />
	</node>
	<node id="-753901" lat="63.2572777779" lon="9.91750556067">
		<tag k="name" v="Sjølsetlykkja" />
		<tag k="place" v="locality" />
		<tag k="ssr:stedsnr" v="266263" />
	</node>
	<node id="-753900" lat="63.2545777735" lon="9.93050277029">
		<tag k="name" v="Kunta" />
>>>>>>> e1d4bc35ff8a6074a6f2e91616a996b547c36f15
		<tag k="natural" v="wetland" />
		<tag k="ssr:stedsnr" v="24205" />
	</node>
<<<<<<< HEAD
	<node lat="63.306474996030715" lon="9.948416671120583" id="-35346">
		<tag k="name" v="Nordseljan" />
=======
	<node id="-753899" lat="63.2684027767" lon="9.9329916763">
		<tag k="historic" v="shieling" />
		<tag k="name" v="Nord Foksetsætra" />
>>>>>>> e1d4bc35ff8a6074a6f2e91616a996b547c36f15
		<tag k="place" v="locality" />
		<tag k="ssr:stedsnr" v="24208" />
	</node>
<<<<<<< HEAD
	<node lat="63.31420000411507" lon="9.94868056223002" id="-35348">
		<tag k="name" v="Sandenget" />
=======
	<node id="-753897" lat="63.3214750004" lon="9.91515277154">
		<tag k="name" v="Håggån" />
>>>>>>> e1d4bc35ff8a6074a6f2e91616a996b547c36f15
		<tag k="place" v="locality" />
		<tag k="ssr:stedsnr" v="24210" />
	</node>
<<<<<<< HEAD
	<node lat="63.3366749982347" lon="9.96645278122999" id="-35349">
		<tag k="name" v="Merramyra" />
		<tag k="natural" v="wetland" />
		<tag k="ssr:stedsnr" v="24172" />
	</node>
	<node lat="63.284683334837425" lon="10.150447227341582" id="-35353">
		<tag k="name" v="Saltnesmyra" />
		<tag k="natural" v="wetland" />
		<tag k="ssr:stedsnr" v="24269" />
	</node>
	<node lat="63.22005277545469" lon="10.04444999638768" id="-35356">
		<tag k="historic" v="shieling" />
		<tag k="name" v="Kvennhusvollen" />
		<tag k="place" v="locality" />
		<tag k="ssr:stedsnr" v="24341" />
	</node>
	<node lat="63.18950277573336" lon="10.002805553780217" id="-35357">
		<tag k="name" v="Orrhanmyra" />
		<tag k="natural" v="wetland" />
		<tag k="ssr:stedsnr" v="24545" />
	</node>
	<node lat="63.26593333636593" lon="10.096247225728508" id="-35361">
		<tag k="name" v="Kjerringkåsen" />
		<tag k="place" v="locality" />
		<tag k="ssr:stedsnr" v="25555" />
	</node>
	<node lat="63.333152776909955" lon="9.962069440416299" id="-35374">
		<tag k="name" v="Stormyra" />
=======
	<node id="-753894" lat="63.3036388926" lon="10.0243416607">
		<tag k="name" v="Dammyra" />
		<tag k="natural" v="wetland" />
		<tag k="ssr:stedsnr" v="266041" />
	</node>
	<node id="-754098" lat="63.3443527773" lon="10.0510750037">
		<tag k="name" v="Hundsloppet" />
		<tag k="place" v="locality" />
		<tag k="ssr:stedsnr" v="508046" />
	</node>
	<node id="-754915" lat="63.3040000011" lon="9.94380277433">
		<tag k="name" v="Seljan" />
		<tag k="place" v="locality" />
		<tag k="ssr:stedsnr" v="545718" />
	</node>
	<node id="-754234" lat="63.2684249975" lon="10.1103333323">
		<tag k="name" v="Fuggellekarbea" />
		<tag k="place" v="locality" />
		<tag k="ssr:stedsnr" v="509319" />
	</node>
	<node id="-753878" lat="63.3120361099" lon="9.98300833095">
		<tag k="name" v="Sagstillingsmyra" />
>>>>>>> e1d4bc35ff8a6074a6f2e91616a996b547c36f15
		<tag k="natural" v="wetland" />
		<tag k="ssr:stedsnr" v="74279" />
	</node>
<<<<<<< HEAD
	<node lat="63.316777779230286" lon="10.016255546298131" id="-35384">
		<tag k="name" v="Svorkmyra" />
		<tag k="natural" v="wetland" />
		<tag k="ssr:stedsnr" v="84057" />
	</node>
	<node lat="63.30536111509482" lon="9.997211120863293" id="-35388">
		<tag k="name" v="Kolmyra" />
=======
	<node id="-753944" lat="63.3182611138" lon="10.0371638849">
		<tag k="name" v="Annrommet" />
		<tag k="place" v="locality" />
		<tag k="ssr:stedsnr" v="144039" />
	</node>
	<node id="-753864" lat="63.2409166686" lon="10.0694999958">
		<tag k="name" v="Torvmyra" />
>>>>>>> e1d4bc35ff8a6074a6f2e91616a996b547c36f15
		<tag k="natural" v="wetland" />
		<tag k="ssr:stedsnr" v="84152" />
	</node>
<<<<<<< HEAD
	<node lat="63.205958333583325" lon="9.929547219013402" id="-35390">
		<tag k="name" v="Kåsa" />
		<tag k="natural" v="wetland" />
		<tag k="ssr:stedsnr" v="84396" />
	</node>
	<node lat="63.21271388497283" lon="10.002625000958355" id="-35392">
		<tag k="historic" v="shieling" />
		<tag k="name" v="Sandsætra" />
		<tag k="place" v="locality" />
		<tag k="ssr:stedsnr" v="84419" />
	</node>
	<node lat="63.31237222137645" lon="10.181499998515353" id="-35394">
		<tag k="name" v="Øra" />
		<tag k="place" v="locality" />
		<tag k="ssr:stedsnr" v="84018" />
	</node>
	<node lat="63.290858334668116" lon="10.120986113779267" id="-35400">
=======
	<node id="-753863" lat="63.2415583344" lon="10.0556833314">
		<tag k="name" v="Såttån" />
		<tag k="place" v="locality" />
		<tag k="ssr:stedsnr" v="84513" />
	</node>
	<node id="-754374" lat="63.2579638892" lon="10.0177583252">
		<tag k="name" v="Mormyren" />
		<tag k="natural" v="wetland" />
		<tag k="ssr:stedsnr" v="752312" />
	</node>
	<node id="-753860" lat="63.3111527738" lon="10.1408166624">
		<tag k="name" v="Kamrommet" />
		<tag k="place" v="locality" />
		<tag k="ssr:stedsnr" v="84327" />
	</node>
	<node id="-753859" lat="63.2908583347" lon="10.1209861138">
>>>>>>> e1d4bc35ff8a6074a6f2e91616a996b547c36f15
		<tag k="name" v="Gjerdesgardsmarka" />
		<tag k="place" v="locality" />
		<tag k="ssr:stedsnr" v="84321" />
	</node>
<<<<<<< HEAD
	<node lat="63.311152773829775" lon="10.140816662364605" id="-35401">
		<tag k="name" v="Kamrommet" />
		<tag k="place" v="locality" />
		<tag k="ssr:stedsnr" v="84327" />
	</node>
	<node lat="63.240916668574556" lon="10.069499995814212" id="-35404">
		<tag k="name" v="Torvmyra" />
		<tag k="natural" v="wetland" />
		<tag k="ssr:stedsnr" v="84518" />
	</node>
	<node lat="63.252405554324376" lon="10.09907499086479" id="-35405">
		<tag k="name" v="Bjønnmyra" />
=======
	<node id="-754635" lat="63.2600888923" lon="10.0745416748">
		<tag k="name" v="Håggån" />
		<tag k="place" v="locality" />
		<tag k="ssr:stedsnr" v="85278" />
	</node>
	<node id="-754880" lat="63.2912861089" lon="10.0237972141">
		<tag k="name" v="Rilykkjon" />
		<tag k="place" v="locality" />
		<tag k="ssr:stedsnr" v="388135" />
	</node>
	<node id="-753852" lat="63.3167777792" lon="10.0162555463">
		<tag k="name" v="Svorkmyra" />
>>>>>>> e1d4bc35ff8a6074a6f2e91616a996b547c36f15
		<tag k="natural" v="wetland" />
		<tag k="ssr:stedsnr" v="84448" />
	</node>
<<<<<<< HEAD
	<node lat="63.252058335887874" lon="10.085694448925176" id="-35406">
		<tag k="name" v="Krokan" />
=======
	<node id="-753851" lat="63.3123722214" lon="10.1814999985">
		<tag k="name" v="Øra" />
>>>>>>> e1d4bc35ff8a6074a6f2e91616a996b547c36f15
		<tag k="place" v="locality" />
		<tag k="ssr:stedsnr" v="84450" />
	</node>
	<node lat="63.302572219200876" lon="10.094758342767161" id="-35416">
		<tag k="historic" v="shieling" />
		<tag k="name" v="Kjæremssætra" />
		<tag k="place" v="locality" />
		<tag k="ssr:stedsnr" v="85246" />
	</node>
	<node lat="63.3182611137563" lon="10.037163884924711" id="-35438">
		<tag k="name" v="Annrommet" />
		<tag k="place" v="locality" />
		<tag k="ssr:stedsnr" v="144039" />
	</node>
<<<<<<< HEAD
	<node lat="63.32123333555677" lon="9.900133325890366" id="-35442">
		<tag k="name" v="Skjenaldlykkja" />
		<tag k="place" v="locality" />
		<tag k="ssr:stedsnr" v="144257" />
	</node>
	<node lat="63.19518333770257" lon="9.934575004704705" id="-35444">
		<tag k="name" v="Lykkja" />
		<tag k="natural" v="wetland" />
		<tag k="ssr:stedsnr" v="144436" />
	</node>
	<node lat="63.243441668318034" lon="10.111127769798108" id="-35449">
		<tag k="name" v="Snurrumyren" />
		<tag k="natural" v="wetland" />
		<tag k="ssr:stedsnr" v="144456" />
	</node>
	<node lat="63.281397219720446" lon="9.95960832767126" id="-35450">
		<tag k="name" v="Høgmyren" />
=======
	<node id="-754872" lat="63.2155111119" lon="10.0723888801">
		<tag k="name" v="Sløholet" />
		<tag k="natural" v="wetland" />
		<tag k="ssr:stedsnr" v="387400" />
	</node>
	<node id="-754871" lat="63.2150888858" lon="10.0530305522">
		<tag k="historic" v="shieling" />
		<tag k="name" v="Solstadsætren" />
		<tag k="place" v="locality" />
		<tag k="ssr:stedsnr" v="387399" />
	</node>
	<node id="-754121" lat="63.2236777795" lon="10.0499666755">
		<tag k="name" v="Våddåmyra" />
		<tag k="natural" v="wetland" />
		<tag k="ssr:stedsnr" v="508427" />
	</node>
	<node id="-754868" lat="63.2857305579" lon="9.97941110754">
		<tag k="name" v="Langmyra" />
>>>>>>> e1d4bc35ff8a6074a6f2e91616a996b547c36f15
		<tag k="natural" v="wetland" />
		<tag k="ssr:stedsnr" v="144180" />
	</node>
<<<<<<< HEAD
	<node lat="63.19092221946093" lon="10.040719439672305" id="-35455">
		<tag k="name" v="Følføttet" />
		<tag k="place" v="locality" />
		<tag k="ssr:stedsnr" v="144620" />
	</node>
	<node lat="63.31276666734988" lon="9.89986943714917" id="-35459">
		<tag k="name" v="Østhusmyra" />
		<tag k="natural" v="wetland" />
		<tag k="ssr:stedsnr" v="145217" />
	</node>
	<node lat="63.235844448419535" lon="9.940661102690083" id="-35462">
		<tag k="name" v="Turtåsmyren" />
		<tag k="natural" v="wetland" />
		<tag k="ssr:stedsnr" v="145266" />
	</node>
	<node lat="63.23608055933724" lon="10.083977778917571" id="-35464">
		<tag k="name" v="Eismyra" />
=======
	<node id="-754354" lat="63.172911111" lon="9.96126666062">
		<tag k="name" v="Lunkan" />
		<tag k="natural" v="wetland" />
		<tag k="ssr:stedsnr" v="692503" />
	</node>
	<node id="-754862" lat="63.3048805564" lon="10.0054194503">
		<tag k="name" v="Tiurleikmyra" />
>>>>>>> e1d4bc35ff8a6074a6f2e91616a996b547c36f15
		<tag k="natural" v="wetland" />
		<tag k="ssr:stedsnr" v="145413" />
	</node>
<<<<<<< HEAD
	<node lat="63.18846666504797" lon="9.952977784765883" id="-35486">
		<tag k="name" v="Storslættet" />
		<tag k="natural" v="wetland" />
		<tag k="old_name" v="Storslettet" />
		<tag k="ssr:stedsnr" v="195193" />
	</node>
	<node lat="63.23814166602989" lon="10.067052775623232" id="-35508">
		<tag k="name" v="Åsmyra" />
		<tag k="natural" v="wetland" />
		<tag k="ssr:stedsnr" v="205551" />
	</node>
	<node lat="63.19876388707209" lon="10.05791667598926" id="-35515">
		<tag k="historic" v="shieling" />
		<tag k="name" v="Sønnøvsætervollen" />
=======
	<node id="-754045" lat="63.1848111149" lon="9.97903056135">
		<tag k="name" v="Stakkenget" />
		<tag k="place" v="locality" />
		<tag k="ssr:stedsnr" v="328527" />
	</node>
	<node id="-754802" lat="63.2813527738" lon="10.0514416568">
		<tag k="name" v="Krutholet" />
		<tag k="place" v="locality" />
		<tag k="ssr:stedsnr" v="327173" />
	</node>
	<node id="-754119" lat="63.2189833312" lon="10.0764083416">
		<tag k="name" v="Skjuttumyra" />
		<tag k="natural" v="wetland" />
		<tag k="ssr:stedsnr" v="508424" />
	</node>
	<node id="-753828" lat="63.3142000041" lon="9.94868056223">
		<tag k="name" v="Sandenget" />
>>>>>>> e1d4bc35ff8a6074a6f2e91616a996b547c36f15
		<tag k="place" v="locality" />
		<tag k="ssr:stedsnr" v="205633" />
	</node>
<<<<<<< HEAD
	<node lat="63.32024999974784" lon="9.97153334281406" id="-35518">
		<tag k="name" v="Vektamyra" />
		<tag k="natural" v="wetland" />
		<tag k="ssr:stedsnr" v="206199" />
	</node>
	<node lat="63.26960000088832" lon="9.989002774066297" id="-35521">
		<tag k="name" v="Sagholet" />
=======
	<node id="-754339" lat="63.2456583341" lon="10.0712472242">
		<tag k="name" v="Snekkarmyra" />
		<tag k="natural" v="wetland" />
		<tag k="ssr:stedsnr" v="631564" />
	</node>
	<node id="-753826" lat="63.306474996" lon="9.94841667112">
		<tag k="name" v="Nordseljan" />
>>>>>>> e1d4bc35ff8a6074a6f2e91616a996b547c36f15
		<tag k="place" v="locality" />
		<tag k="ssr:stedsnr" v="206246" />
	</node>
<<<<<<< HEAD
	<node lat="63.24237500374612" lon="9.960716669392339" id="-35522">
		<tag k="name" v="Hegglimyra" />
=======
	<node id="-753825" lat="63.3124055598" lon="9.92050555328">
		<tag k="name" v="Stormyra" />
>>>>>>> e1d4bc35ff8a6074a6f2e91616a996b547c36f15
		<tag k="natural" v="wetland" />
		<tag k="ssr:stedsnr" v="206263" />
	</node>
<<<<<<< HEAD
	<node lat="63.234147225145826" lon="10.087813886994306" id="-35527">
		<tag k="name" v="Hafella" />
		<tag k="place" v="locality" />
		<tag k="ssr:stedsnr" v="206393" />
	</node>
	<node lat="63.20841388714645" lon="9.94438054633743" id="-35530">
		<tag k="name" v="Langslættet" />
=======
	<node id="-753822" lat="63.2500916677" lon="10.1218916616">
		<tag k="name" v="Svarttjønnslættet" />
>>>>>>> e1d4bc35ff8a6074a6f2e91616a996b547c36f15
		<tag k="natural" v="wetland" />
		<tag k="ssr:stedsnr" v="206534" />
	</node>
<<<<<<< HEAD
	<node lat="63.26403610882405" lon="9.922513882938528" id="-35532">
=======
	<node id="-754117" lat="63.2159777745" lon="10.0669083351">
		<tag k="name" v="Bjønnamyra" />
		<tag k="natural" v="wetland" />
		<tag k="ssr:stedsnr" v="508419" />
	</node>
	<node id="-753820" lat="63.2652277802" lon="9.92498054591">
>>>>>>> e1d4bc35ff8a6074a6f2e91616a996b547c36f15
		<tag k="historic" v="shieling" />
		<tag k="name" v="Liasætren" />
		<tag k="place" v="locality" />
		<tag k="ssr:stedsnr" v="207553" />
	</node>
<<<<<<< HEAD
	<node lat="63.28838889234353" lon="10.119961119638589" id="-35553">
		<tag k="name" v="Stoøya" />
		<tag k="place" v="locality" />
		<tag k="ssr:stedsnr" v="326336" />
	</node>
	<node lat="63.281455555439344" lon="10.109941669437497" id="-35554">
		<tag k="historic" v="shieling" />
		<tag k="name" v="Endsætra" />
=======
	<node id="-753819" lat="63.2330388918" lon="10.0591888832">
		<tag k="name" v="Bombåsmyra" />
		<tag k="natural" v="wetland" />
		<tag k="ssr:stedsnr" v="23448" />
	</node>
	<node id="-754330" lat="63.2631249998" lon="9.96847499561">
		<tag k="name" v="Jøronnmyra" />
		<tag k="natural" v="wetland" />
		<tag k="ssr:stedsnr" v="630255" />
	</node>
	<node id="-754329" lat="63.3262166702" lon="9.92901389315">
		<tag k="name" v="Gammellykkja" />
>>>>>>> e1d4bc35ff8a6074a6f2e91616a996b547c36f15
		<tag k="place" v="locality" />
		<tag k="ssr:stedsnr" v="326341" />
	</node>
<<<<<<< HEAD
	<node lat="63.31629722040162" lon="10.128275004804118" id="-35555">
		<tag k="name" v="Bjønnholet" />
		<tag k="place" v="locality" />
		<tag k="ssr:stedsnr" v="326345" />
	</node>
	<node lat="63.20073611323138" lon="9.920811105537817" id="-35556">
		<tag k="name" v="Storslættet" />
=======
	<node id="-753816" lat="63.2272972227" lon="10.0023805527">
		<tag k="name" v="Setermyra" />
>>>>>>> e1d4bc35ff8a6074a6f2e91616a996b547c36f15
		<tag k="natural" v="wetland" />
		<tag k="ssr:stedsnr" v="326439" />
	</node>
	<node lat="63.29271389330589" lon="9.96205276919876" id="-35561">
		<tag k="historic" v="shieling" />
		<tag k="name" v="Gammelsætra" />
		<tag k="place" v="locality" />
		<tag k="ssr:stedsnr" v="326159" />
	</node>
	<node lat="63.25650278170894" lon="9.960436108224483" id="-35562">
		<tag k="name" v="Slettvollan" />
		<tag k="place" v="locality" />
		<tag k="ssr:stedsnr" v="326281" />
	</node>
<<<<<<< HEAD
	<node lat="63.22927777977914" lon="10.013066662126363" id="-35563">
		<tag k="name" v="Skjeffmyra" />
=======
	<node id="-754115" lat="63.2186583305" lon="10.0275999923">
		<tag k="name" v="Bergrommet" />
		<tag k="place" v="locality" />
		<tag k="ssr:stedsnr" v="508409" />
	</node>
	<node id="-754027" lat="63.1982833307" lon="9.97298056491">
		<tag k="name" v="Grønlimyra" />
>>>>>>> e1d4bc35ff8a6074a6f2e91616a996b547c36f15
		<tag k="natural" v="wetland" />
		<tag k="ssr:stedsnr" v="326616" />
	</node>
<<<<<<< HEAD
	<node lat="63.313552775652816" lon="9.902755549540688" id="-35565">
		<tag k="name" v="Ulvåsmyra" />
		<tag k="natural" v="wetland" />
		<tag k="ssr:stedsnr" v="327133" />
	</node>
	<node lat="63.31223610968168" lon="10.021705549888232" id="-35580">
		<tag k="name" v="Blekkåsætra" />
		<tag k="place" v="locality" />
		<tag k="ssr:stedsnr" v="327041" />
	</node>
	<node lat="63.29791111273363" lon="10.135625000867496" id="-35582">
		<tag k="name" v="Milståkkåtjønna" />
		<tag k="place" v="locality" />
		<tag k="ssr:stedsnr" v="327286" />
	</node>
	<node lat="63.220194448797834" lon="9.927424991860674" id="-35583">
		<tag k="name" v="Høgkjølen" />
=======
	<node id="-754319" lat="63.205297221" lon="10.0450305504">
		<tag k="historic" v="shieling" />
		<tag k="name" v="Litlsetervollen" />
		<tag k="place" v="locality" />
		<tag k="ssr:stedsnr" v="629617" />
	</node>
	<node id="-754455" lat="63.2743916677" lon="10.1755416618">
		<tag k="name" v="Daltrøa" />
		<tag k="place" v="locality" />
		<tag k="ssr:stedsnr" v="934401" />
	</node>
	<node id="-754312" lat="63.2277722181" lon="10.0551111181">
		<tag k="name" v="Ratåsmyra" />
>>>>>>> e1d4bc35ff8a6074a6f2e91616a996b547c36f15
		<tag k="natural" v="wetland" />
		<tag k="ssr:stedsnr" v="327385" />
	</node>
	<node lat="63.184811114879146" lon="9.979030561345036" id="-35587">
		<tag k="name" v="Stakkenget" />
		<tag k="place" v="locality" />
		<tag k="ssr:stedsnr" v="328527" />
	</node>
<<<<<<< HEAD
	<node lat="63.21508888581044" lon="10.053030552182886" id="-35623">
=======
	<node id="-753857" lat="63.3053611151" lon="9.99721112086">
		<tag k="name" v="Kolmyra" />
		<tag k="natural" v="wetland" />
		<tag k="ssr:stedsnr" v="84152" />
	</node>
	<node id="-754307" lat="63.3097083346" lon="10.0088638827">
>>>>>>> e1d4bc35ff8a6074a6f2e91616a996b547c36f15
		<tag k="historic" v="shieling" />
		<tag k="name" v="Solstadsætren" />
		<tag k="place" v="locality" />
		<tag k="ssr:stedsnr" v="387399" />
	</node>
<<<<<<< HEAD
	<node lat="63.215511111881085" lon="10.072388880062885" id="-35624">
		<tag k="name" v="Sløholet" />
=======
	<node id="-754817" lat="63.2029638855" lon="9.96264722192">
		<tag k="name" v="Gilmyra" />
>>>>>>> e1d4bc35ff8a6074a6f2e91616a996b547c36f15
		<tag k="natural" v="wetland" />
		<tag k="ssr:stedsnr" v="387400" />
	</node>
<<<<<<< HEAD
	<node lat="63.28573055794517" lon="9.979411107536516" id="-35627">
		<tag k="name" v="Langmyra" />
=======
	<node id="-753856" lat="63.212713885" lon="10.002625001">
		<tag k="historic" v="shieling" />
		<tag k="name" v="Sandsætra" />
		<tag k="place" v="locality" />
		<tag k="ssr:stedsnr" v="84419" />
	</node>
	<node id="-754815" lat="63.2201944488" lon="9.92742499186">
		<tag k="name" v="Høgkjølen" />
>>>>>>> e1d4bc35ff8a6074a6f2e91616a996b547c36f15
		<tag k="natural" v="wetland" />
		<tag k="ssr:stedsnr" v="387187" />
	</node>
<<<<<<< HEAD
	<node lat="63.31617500180636" lon="9.992141659843751" id="-35629">
		<tag k="historic" v="shieling" />
		<tag k="name" v="Frammigardssetervollen" />
=======
	<node id="-754814" lat="63.2979111127" lon="10.1356250009">
		<tag k="name" v="Milståkkåtjønna" />
>>>>>>> e1d4bc35ff8a6074a6f2e91616a996b547c36f15
		<tag k="place" v="locality" />
		<tag k="ssr:stedsnr" v="388104" />
	</node>
<<<<<<< HEAD
	<node lat="63.29475277775607" lon="9.98634722489833" id="-35631">
		<tag k="historic" v="shieling" />
		<tag k="name" v="Søreggsætra" />
		<tag k="place" v="locality" />
		<tag k="ssr:stedsnr" v="388111" />
	</node>
	<node lat="63.29128610888714" lon="10.023797214069248" id="-35637">
		<tag k="name" v="Rilykkjon" />
		<tag k="place" v="locality" />
		<tag k="ssr:stedsnr" v="388135" />
	</node>
	<node lat="63.30817222176919" lon="10.19948055394046" id="-35675">
		<tag k="name" v="Husbylykkja" />
		<tag k="place" v="locality" />
		<tag k="ssr:stedsnr" v="448018" />
	</node>
	<node lat="63.256041666756424" lon="10.01945832853025" id="-35677">
		<tag k="name" v="Holo" />
		<tag k="place" v="locality" />
		<tag k="ssr:stedsnr" v="448382" />
	</node>
	<node lat="63.271291663397655" lon="9.960341659833198" id="-35679">
		<tag k="name" v="Rossvassmyren" />
=======
	<node id="-754811" lat="63.2388250002" lon="9.9415555561">
		<tag k="name" v="Vinåsmyra" />
>>>>>>> e1d4bc35ff8a6074a6f2e91616a996b547c36f15
		<tag k="natural" v="wetland" />
		<tag k="ssr:stedsnr" v="448268" />
	</node>
<<<<<<< HEAD
	<node lat="63.20808610855835" lon="9.924972217195267" id="-35683">
		<tag k="name" v="Baklislættet" />
		<tag k="natural" v="wetland" />
		<tag k="ssr:stedsnr" v="448436" />
	</node>
	<node lat="63.20528611365431" lon="9.957716659966028" id="-35685">
		<tag k="name" v="Innergjerdet" />
=======
	<node id="-754295" lat="63.2934750024" lon="9.98188055105">
		<tag k="historic" v="shieling" />
		<tag k="name" v="Eggsætra" />
>>>>>>> e1d4bc35ff8a6074a6f2e91616a996b547c36f15
		<tag k="place" v="locality" />
		<tag k="ssr:stedsnr" v="448629" />
	</node>
<<<<<<< HEAD
	<node lat="63.2022499963865" lon="10.044738887903968" id="-35686">
		<tag k="name" v="Lomtjønnmyra" />
=======
	<node id="-754294" lat="63.3158583365" lon="9.89696944644">
		<tag k="name" v="Stormyra" />
>>>>>>> e1d4bc35ff8a6074a6f2e91616a996b547c36f15
		<tag k="natural" v="wetland" />
		<tag k="ssr:stedsnr" v="448637" />
	</node>
<<<<<<< HEAD
	<node lat="63.27922222377306" lon="9.939933332192897" id="-35687">
		<tag k="name" v="Verdalan" />
		<tag k="natural" v="wetland" />
		<tag k="ssr:stedsnr" v="449126" />
	</node>
	<node lat="63.26883888524998" lon="10.075374993416382" id="-35704">
		<tag k="name" v="Bjørgmyra" />
		<tag k="natural" v="wetland" />
		<tag k="ssr:stedsnr" v="508369" />
	</node>
	<node lat="63.273008337303736" lon="10.072641663707472" id="-35705">
		<tag k="name" v="Kvenndølan" />
		<tag k="place" v="locality" />
		<tag k="ssr:stedsnr" v="508370" />
	</node>
	<node lat="63.2711416648879" lon="10.120366671178045" id="-35707">
		<tag k="name" v="Høgtjønnmyren" />
		<tag k="natural" v="wetland" />
		<tag k="ssr:stedsnr" v="508385" />
	</node>
	<node lat="63.215977774475085" lon="10.066908335050062" id="-35709">
		<tag k="name" v="Bjønnamyra" />
		<tag k="natural" v="wetland" />
		<tag k="ssr:stedsnr" v="508419" />
	</node>
	<node lat="63.21898333123021" lon="10.076408341606216" id="-35711">
		<tag k="name" v="Skjuttumyra" />
=======
	<node id="-754805" lat="63.2653388864" lon="10.0711694424">
		<tag k="name" v="Brennflata" />
		<tag k="place" v="locality" />
		<tag k="ssr:stedsnr" v="327330" />
	</node>
	<node id="-754026" lat="63.2149527801" lon="10.0264277872">
		<tag k="name" v="Øya" />
		<tag k="place" v="locality" />
		<tag k="ssr:stedsnr" v="326402" />
	</node>
	<node id="-754280" lat="63.1813055515" lon="9.93383611418">
		<tag k="name" v="Brannkåsan" />
		<tag k="natural" v="wetland" />
		<tag k="ssr:stedsnr" v="691599" />
	</node>
	<node id="-754798" lat="63.2007361132" lon="9.92081110554">
		<tag k="name" v="Storslættet" />
>>>>>>> e1d4bc35ff8a6074a6f2e91616a996b547c36f15
		<tag k="natural" v="wetland" />
		<tag k="ssr:stedsnr" v="508424" />
	</node>
<<<<<<< HEAD
	<node lat="63.223677779496136" lon="10.049966675487124" id="-35713">
		<tag k="name" v="Våddåmyra" />
=======
	<node id="-754797" lat="63.2442416628" lon="10.074455546">
		<tag k="name" v="Hestsprangmyra" />
>>>>>>> e1d4bc35ff8a6074a6f2e91616a996b547c36f15
		<tag k="natural" v="wetland" />
		<tag k="ssr:stedsnr" v="508427" />
	</node>
<<<<<<< HEAD
	<node lat="63.29400000218502" lon="9.97235555678486" id="-35716">
		<tag k="historic" v="shieling" />
		<tag k="name" v="Nordeggsætra" />
		<tag k="place" v="locality" />
		<tag k="ssr:stedsnr" v="508157" />
	</node>
	<node lat="63.31321389286696" lon="10.023058342992803" id="-35719">
		<tag k="name" v="Rimyra" />
		<tag k="natural" v="wetland" />
		<tag k="ssr:stedsnr" v="508042" />
	</node>
	<node lat="63.34435277734099" lon="10.05107500371415" id="-35720">
		<tag k="name" v="Hundsloppet" />
		<tag k="place" v="locality" />
		<tag k="ssr:stedsnr" v="508046" />
	</node>
	<node lat="63.300922225477564" lon="10.103688898201401" id="-35726">
		<tag k="historic" v="shieling" />
		<tag k="name" v="Einsætra" />
		<tag k="place" v="locality" />
		<tag k="ssr:stedsnr" v="508345" />
	</node>
	<node lat="63.30016388562138" lon="10.109327783164895" id="-35727">
		<tag k="name" v="Kjerringkjeftmyra" />
=======
	<node id="-754794" lat="63.2292777798" lon="10.0130666621">
		<tag k="name" v="Skjeffmyra" />
		<tag k="natural" v="wetland" />
		<tag k="ssr:stedsnr" v="326397" />
	</node>
	<node id="-754793" lat="63.2192638901" lon="10.0179083324">
		<tag k="name" v="Setermyren" />
>>>>>>> e1d4bc35ff8a6074a6f2e91616a996b547c36f15
		<tag k="natural" v="wetland" />
		<tag k="ssr:stedsnr" v="508348" />
	</node>
<<<<<<< HEAD
	<node lat="63.20189167051409" lon="9.944525004697192" id="-35730">
		<tag k="name" v="Gjerdet (Brennan)" />
=======
	<node id="-754792" lat="63.2565027817" lon="9.96043610822">
		<tag k="name" v="Slettvollan" />
>>>>>>> e1d4bc35ff8a6074a6f2e91616a996b547c36f15
		<tag k="place" v="locality" />
		<tag k="ssr:stedsnr" v="508448" />
	</node>
<<<<<<< HEAD
	<node lat="63.31426944542684" lon="9.954969438477853" id="-35735">
		<tag k="name" v="Vektamyra" />
		<tag k="natural" v="wetland" />
		<tag k="ssr:stedsnr" v="509122" />
	</node>
	<node lat="63.29299999984185" lon="9.919924990320615" id="-35736">
		<tag k="name" v="Kamlykkja" />
=======
	<node id="-754108" lat="63.2717305586" lon="10.1650194452">
		<tag k="name" v="Korsen" />
		<tag k="place" v="locality" />
		<tag k="ssr:stedsnr" v="508515" />
	</node>
	<node id="-754789" lat="63.3162972204" lon="10.1282750048">
		<tag k="name" v="Bjønnholet" />
>>>>>>> e1d4bc35ff8a6074a6f2e91616a996b547c36f15
		<tag k="place" v="locality" />
		<tag k="ssr:stedsnr" v="509135" />
	</node>
<<<<<<< HEAD
	<node lat="63.29746944458577" lon="9.967922230812412" id="-35738">
		<tag k="name" v="Eggslættet" />
		<tag k="natural" v="wetland" />
		<tag k="ssr:stedsnr" v="509148" />
	</node>
	<node lat="63.213186108796585" lon="9.928836104903773" id="-35744">
		<tag k="name" v="Melbykjølen" />
		<tag k="natural" v="wetland" />
		<tag k="ssr:stedsnr" v="509372" />
	</node>
	<node lat="63.32914444175713" lon="9.921386111899885" id="-35747">
		<tag k="name" v="Skjenaldmyra" />
		<tag k="natural" v="wetland" />
		<tag k="ssr:stedsnr" v="510569" />
	</node>
	<node lat="63.211008330834225" lon="9.977250000494472" id="-35763">
		<tag k="name" v="Isåsmyra" />
=======
	<node id="-754788" lat="63.2927138933" lon="9.9620527692">
		<tag k="historic" v="shieling" />
		<tag k="name" v="Gammelsætra" />
		<tag k="place" v="locality" />
		<tag k="ssr:stedsnr" v="326159" />
	</node>
	<node id="-754275" lat="63.2419055559" lon="10.0712944516">
		<tag k="name" v="Svallmyra" />
>>>>>>> e1d4bc35ff8a6074a6f2e91616a996b547c36f15
		<tag k="natural" v="wetland" />
		<tag k="ssr:stedsnr" v="569588" />
	</node>
<<<<<<< HEAD
	<node lat="63.222777780178994" lon="9.961844444248893" id="-35769">
		<tag k="name" v="Stormyra" />
=======
	<node id="-754786" lat="63.2505250008" lon="10.0811194478">
		<tag k="name" v="Stokkmyra" />
>>>>>>> e1d4bc35ff8a6074a6f2e91616a996b547c36f15
		<tag k="natural" v="wetland" />
		<tag k="ssr:stedsnr" v="569404" />
	</node>
<<<<<<< HEAD
	<node lat="63.27391944096425" lon="9.962461104012645" id="-35776">
		<tag k="name" v="Bakgreistaden" />
=======
	<node id="-754271" lat="63.251416664" lon="10.0902500026">
		<tag k="name" v="Litlstokkmyra" />
>>>>>>> e1d4bc35ff8a6074a6f2e91616a996b547c36f15
		<tag k="natural" v="wetland" />
		<tag k="ssr:stedsnr" v="569247" />
	</node>
<<<<<<< HEAD
	<node lat="63.31944722056547" lon="9.961408336770688" id="-35783">
		<tag k="name" v="Sjetnmyra" />
=======
	<node id="-754270" lat="63.2179750002" lon="9.98886387982">
		<tag k="name" v="Knutslættmyra" />
>>>>>>> e1d4bc35ff8a6074a6f2e91616a996b547c36f15
		<tag k="natural" v="wetland" />
		<tag k="ssr:stedsnr" v="570169" />
	</node>
<<<<<<< HEAD
	<node lat="63.2160244986895" lon="10.044130277257477" id="-35807">
		<tag k="landuse" v="meadow" />
		<tag k="name" v="Kammen" />
		<tag k="ssr:stedsnr" v="619261" />
	</node>
	<node lat="63.305258330449846" lon="10.072436116906418" id="-35819">
		<tag k="name" v="Kloppmyra" />
=======
	<node id="-754277" lat="63.2055555567" lon="9.97260000898">
		<tag k="name" v="Isåsslættet" />
		<tag k="natural" v="wetland" />
		<tag k="ssr:stedsnr" v="691585" />
	</node>
	<node id="-754267" lat="63.2658638859" lon="10.0660944519">
		<tag k="name" v="Heimrøstet" />
		<tag k="place" v="locality" />
		<tag k="ssr:stedsnr" v="691382" />
	</node>
	<node id="-754447" lat="63.2205361107" lon="9.94392222118">
		<tag k="name" v="Gardsmyra" />
		<tag k="natural" v="wetland" />
		<tag k="ssr:stedsnr" v="934369" />
	</node>
	<node id="-754276" lat="63.2110750015" lon="9.98429721991">
		<tag k="name" v="Storlykkja" />
		<tag k="place" v="locality" />
		<tag k="ssr:stedsnr" v="691576" />
	</node>
	<node id="-754262" lat="63.2567999958" lon="10.1223027828">
		<tag k="name" v="Stormyren" />
>>>>>>> e1d4bc35ff8a6074a6f2e91616a996b547c36f15
		<tag k="natural" v="wetland" />
		<tag k="ssr:stedsnr" v="629030" />
	</node>
<<<<<<< HEAD
	<node lat="63.26312499983398" lon="9.968474995612238" id="-35821">
		<tag k="name" v="Jøronnmyra" />
=======
	<node id="-754261" lat="63.2975777774" lon="10.1156527757">
		<tag k="name" v="Monsmyren" />
>>>>>>> e1d4bc35ff8a6074a6f2e91616a996b547c36f15
		<tag k="natural" v="wetland" />
		<tag k="ssr:stedsnr" v="630255" />
	</node>
<<<<<<< HEAD
	<node lat="63.218430555779804" lon="9.975113888407282" id="-35828">
		<tag k="name" v="Finnmomyra" />
		<tag k="natural" v="wetland" />
		<tag k="ssr:stedsnr" v="629438" />
	</node>
	<node lat="63.205297220985614" lon="10.045030550447466" id="-35833">
		<tag k="historic" v="shieling" />
		<tag k="name" v="Litlsetervollen" />
		<tag k="place" v="locality" />
		<tag k="ssr:stedsnr" v="629617" />
	</node>
	<node lat="63.177272224297795" lon="9.932075000967725" id="-35835">
		<tag k="name" v="Elgskogslættet" />
=======
	<node id="-754025" lat="63.2814555554" lon="10.1099416694">
		<tag k="historic" v="shieling" />
		<tag k="name" v="Endsætra" />
		<tag k="place" v="locality" />
		<tag k="ssr:stedsnr" v="326341" />
	</node>
	<node id="-754257" lat="63.2508916707" lon="10.0097722164">
		<tag k="name" v="Teppet" />
>>>>>>> e1d4bc35ff8a6074a6f2e91616a996b547c36f15
		<tag k="natural" v="wetland" />
		<tag k="ssr:stedsnr" v="629628" />
	</node>
<<<<<<< HEAD
	<node lat="63.31551944233212" lon="10.06261388605392" id="-35837">
		<tag k="name" v="Blekkåøya" />
		<tag k="place" v="locality" />
		<tag k="ssr:stedsnr" v="630039" />
	</node>
	<node lat="63.32621667016681" lon="9.929013893154023" id="-35847">
		<tag k="name" v="Gammellykkja" />
		<tag k="place" v="locality" />
		<tag k="ssr:stedsnr" v="630223" />
	</node>
	<node lat="63.202886115549866" lon="9.97493334152727" id="-35852">
		<tag k="name" v="Enslættet" />
=======
	<node id="-754253" lat="63.2667027748" lon="9.91271667361">
		<tag k="name" v="Grønlikjølen" />
>>>>>>> e1d4bc35ff8a6074a6f2e91616a996b547c36f15
		<tag k="natural" v="wetland" />
		<tag k="ssr:stedsnr" v="630537" />
	</node>
<<<<<<< HEAD
	<node lat="63.245658334120044" lon="10.071247224159007" id="-35855">
		<tag k="name" v="Snekkarmyra" />
=======
	<node id="-754764" lat="63.3249638929" lon="10.036294444">
		<tag k="name" v="Lyngmyra" />
>>>>>>> e1d4bc35ff8a6074a6f2e91616a996b547c36f15
		<tag k="natural" v="wetland" />
		<tag k="ssr:stedsnr" v="631564" />
	</node>
<<<<<<< HEAD
	<node lat="63.17559722217324" lon="9.95975833179823" id="-35856">
		<tag k="name" v="Vargkåsa" />
		<tag k="place" v="locality" />
		<tag k="ssr:stedsnr" v="631517" />
	</node>
	<node lat="63.20450278094957" lon="10.033869448622863" id="-35864">
		<tag k="name" v="Tjønnmyra" />
		<tag k="natural" v="wetland" />
		<tag k="ssr:stedsnr" v="740184" />
	</node>
	<node lat="63.29984167004493" lon="9.906952781098632" id="-35878">
		<tag k="name" v="Hulluenget" />
		<tag k="place" v="locality" />
		<tag k="ssr:stedsnr" v="751047" />
	</node>
	<node lat="63.21581388737512" lon="9.9621666658681" id="-35884">
		<tag k="name" v="Masslættmyra" />
		<tag k="natural" v="wetland" />
		<tag k="ssr:stedsnr" v="751437" />
	</node>
	<node lat="63.247447225464065" lon="10.043352780809252" id="-35886">
		<tag k="name" v="Skålvollen" />
=======
	<node id="-753847" lat="63.3388666654" lon="10.0200055484">
		<tag k="name" v="Stormyra" />
		<tag k="natural" v="wetland" />
		<tag k="ssr:stedsnr" v="84003" />
	</node>
	<node id="-754760" lat="63.2640361088" lon="9.92251388294">
		<tag k="historic" v="shieling" />
		<tag k="name" v="Liasætren" />
>>>>>>> e1d4bc35ff8a6074a6f2e91616a996b547c36f15
		<tag k="place" v="locality" />
		<tag k="ssr:stedsnr" v="751496" />
	</node>
<<<<<<< HEAD
	<node lat="63.33082221969062" lon="9.942236113002783" id="-35891">
		<tag k="name" v="Ytter Buråsmyra" />
=======
	<node id="-754759" lat="63.1857500012" lon="9.98351945385">
		<tag k="name" v="Svarttjønnslættet" />
>>>>>>> e1d4bc35ff8a6074a6f2e91616a996b547c36f15
		<tag k="natural" v="wetland" />
		<tag k="ssr:stedsnr" v="752184" />
	</node>
<<<<<<< HEAD
	<node lat="63.323583332145645" lon="9.923602784132392" id="-35892">
		<tag k="name" v="Hestlykkja" />
=======
	<node id="-754246" lat="63.2946722249" lon="10.0210111123">
		<tag k="name" v="Halvardsrommet" />
>>>>>>> e1d4bc35ff8a6074a6f2e91616a996b547c36f15
		<tag k="place" v="locality" />
		<tag k="ssr:stedsnr" v="752186" />
	</node>
<<<<<<< HEAD
	<node lat="63.18138889312301" lon="9.975969453536896" id="-35923">
		<tag k="name" v="Slættet" />
=======
	<node id="-754757" lat="63.2084138871" lon="9.94438054634">
		<tag k="name" v="Langslættet" />
>>>>>>> e1d4bc35ff8a6074a6f2e91616a996b547c36f15
		<tag k="natural" v="wetland" />
		<tag k="ssr:stedsnr" v="813520" />
	</node>
<<<<<<< HEAD
	<node lat="63.19909722237623" lon="10.021091672454883" id="-35927">
		<tag k="name" v="Enkåsmyra" />
		<tag k="natural" v="wetland" />
		<tag k="ssr:stedsnr" v="812632" />
	</node>
	<node lat="63.20175555167353" lon="10.02725556093284" id="-35928">
		<tag k="name" v="Ner Tjørnmyra" />
		<tag k="natural" v="wetland" />
		<tag k="ssr:stedsnr" v="812633" />
	</node>
	<node lat="63.21741666291945" lon="10.074905549898062" id="-35936">
		<tag k="name" v="Slættet" />
		<tag k="natural" v="wetland" />
		<tag k="ssr:stedsnr" v="812395" />
	</node>
	<node lat="63.250508335503746" lon="10.107702783012508" id="-35937">
		<tag k="name" v="Furruslættet" />
		<tag k="natural" v="wetland" />
		<tag k="ssr:stedsnr" v="812462" />
	</node>
	<node lat="63.18764166476203" lon="9.9515083279058" id="-35939">
		<tag k="name" v="Morsjøråa" />
		<tag k="natural" v="wetland" />
		<tag k="ssr:stedsnr" v="812626" />
	</node>
	<node lat="63.31741111380069" lon="9.993383342731109" id="-35940">
		<tag k="historic" v="shieling" />
		<tag k="name" v="Rossvollsætra" />
=======
	<node id="-754614" lat="63.2401416705" lon="10.0134777746">
		<tag k="name" v="Olaslættmyren" />
		<tag k="natural" v="wetland" />
		<tag k="ssr:stedsnr" v="84300" />
	</node>
	<node id="-754754" lat="63.2341472251" lon="10.087813887">
		<tag k="name" v="Hafella" />
>>>>>>> e1d4bc35ff8a6074a6f2e91616a996b547c36f15
		<tag k="place" v="locality" />
		<tag k="ssr:stedsnr" v="813102" />
	</node>
<<<<<<< HEAD
	<node lat="63.29136944001603" lon="9.952880560391018" id="-35944">
		<tag k="name" v="Stakkenget" />
		<tag k="place" v="locality" />
		<tag k="ssr:stedsnr" v="813120" />
	</node>
	<node lat="63.215844446887225" lon="9.938858323847471" id="-35946">
		<tag k="name" v="Kloa" />
=======
	<node id="-754443" lat="63.3031500023" lon="10.0974666613">
		<tag k="name" v="Homyra" />
		<tag k="natural" v="wetland" />
		<tag k="ssr:stedsnr" v="934285" />
	</node>
	<node id="-754749" lat="63.2423750037" lon="9.96071666939">
		<tag k="name" v="Hegglimyra" />
>>>>>>> e1d4bc35ff8a6074a6f2e91616a996b547c36f15
		<tag k="natural" v="wetland" />
		<tag k="ssr:stedsnr" v="813357" />
	</node>
<<<<<<< HEAD
	<node lat="63.23774166498874" lon="9.971474995160964" id="-35950">
		<tag k="name" v="Slemlykkja" />
=======
	<node id="-754748" lat="63.2696000009" lon="9.98900277407">
		<tag k="name" v="Sagholet" />
>>>>>>> e1d4bc35ff8a6074a6f2e91616a996b547c36f15
		<tag k="place" v="locality" />
		<tag k="ssr:stedsnr" v="813239" />
	</node>
<<<<<<< HEAD
	<node lat="63.27760277667458" lon="10.14848610338624" id="-35951">
		<tag k="name" v="Høgmyra" />
		<tag k="natural" v="wetland" />
		<tag k="ssr:stedsnr" v="813251" />
	</node>
	<node lat="63.24389722044354" lon="10.082347224504426" id="-35952">
		<tag k="name" v="Nerslættet" />
		<tag k="natural" v="wetland" />
		<tag k="ssr:stedsnr" v="813377" />
	</node>
	<node lat="63.217755558814176" lon="10.13353888427893" id="-35954">
		<tag k="name" v="Stormyra" />
=======
	<node id="-754746" lat="63.3177055544" lon="9.93841388144">
		<tag k="name" v="Drættesmyra" />
		<tag k="natural" v="wetland" />
		<tag k="ssr:stedsnr" v="206226" />
	</node>
	<node id="-754745" lat="63.312219442" lon="9.91576945421">
		<tag k="name" v="Damdalsmyra" />
		<tag k="natural" v="wetland" />
		<tag k="ssr:stedsnr" v="206217" />
	</node>
	<node id="-754743" lat="63.3202499997" lon="9.97153334281">
		<tag k="name" v="Vektamyra" />
>>>>>>> e1d4bc35ff8a6074a6f2e91616a996b547c36f15
		<tag k="natural" v="wetland" />
		<tag k="ssr:stedsnr" v="813397" />
	</node>
<<<<<<< HEAD
	<node lat="63.20735000269176" lon="10.02471667075134" id="-35955">
		<tag k="name" v="Gjetryggmyra" />
=======
	<node id="-754229" lat="63.2974694446" lon="9.96792223081">
		<tag k="name" v="Eggslættet" />
>>>>>>> e1d4bc35ff8a6074a6f2e91616a996b547c36f15
		<tag k="natural" v="wetland" />
		<tag k="ssr:stedsnr" v="813455" />
	</node>
<<<<<<< HEAD
	<node lat="63.20545555709578" lon="10.010094452965202" id="-35956">
		<tag k="name" v="Fremmer Blåhåmmårmyra" />
=======
	<node id="-754740" lat="63.1864416625" lon="9.93232776944">
		<tag k="name" v="Svarttjønnslættet" />
>>>>>>> e1d4bc35ff8a6074a6f2e91616a996b547c36f15
		<tag k="natural" v="wetland" />
		<tag k="ssr:stedsnr" v="813557" />
	</node>
<<<<<<< HEAD
	<node lat="63.28822222215345" lon="9.968855559385908" id="-35990">
=======
	<node id="-754739" lat="63.1987638871" lon="10.057916676">
>>>>>>> e1d4bc35ff8a6074a6f2e91616a996b547c36f15
		<tag k="historic" v="shieling" />
		<tag k="name" v="Mjølhussætra" />
		<tag k="place" v="locality" />
		<tag k="ssr:stedsnr" v="873181" />
	</node>
<<<<<<< HEAD
	<node lat="63.25844722044117" lon="10.008133328263103" id="-35994">
		<tag k="name" v="Byahåggåan" />
		<tag k="place" v="locality" />
		<tag k="ssr:stedsnr" v="873264" />
	</node>
	<node lat="63.31540277571013" lon="9.98937776823656" id="-35999">
		<tag k="historic" v="shieling" />
		<tag k="name" v="Negardssetervollen" />
		<tag k="place" v="locality" />
		<tag k="ssr:stedsnr" v="873147" />
	</node>
	<node lat="63.31258889022679" lon="10.004780551697186" id="-36000">
		<tag k="name" v="Tjønnmyra" />
=======
	<node id="-754226" lat="63.3142694454" lon="9.95496943848">
		<tag k="name" v="Vektamyra" />
		<tag k="natural" v="wetland" />
		<tag k="ssr:stedsnr" v="509122" />
	</node>
	<node id="-755247" lat="63.2376777761" lon="10.0749138848">
		<tag k="name" v="Finnmyra" />
		<tag k="natural" v="wetland" />
		<tag k="ssr:stedsnr" v="874571" />
	</node>
	<node id="-754221" lat="63.3001638856" lon="10.1093277832">
		<tag k="name" v="Kjerringkjeftmyra" />
		<tag k="natural" v="wetland" />
		<tag k="ssr:stedsnr" v="508348" />
	</node>
	<node id="-755244" lat="63.2512472197" lon="10.1147944453">
		<tag k="name" v="Meslættet" />
>>>>>>> e1d4bc35ff8a6074a6f2e91616a996b547c36f15
		<tag k="natural" v="wetland" />
		<tag k="ssr:stedsnr" v="873148" />
	</node>
<<<<<<< HEAD
	<node lat="63.299533536981336" lon="9.996914692609781" id="-36003">
		<tag k="fixme" v="multiple name tags, choose one and add the other to alt_name" />
		<tag k="name" v="Homyra;Homyren" />
=======
	<node id="-754866" lat="63.3045083326" lon="10.1460444531">
		<tag k="name" v="Hammertrøa" />
		<tag k="place" v="locality" />
		<tag k="ssr:stedsnr" v="387018" />
	</node>
	<node id="-755242" lat="63.2414027804" lon="10.0739166571">
		<tag k="name" v="Kattjønnmyra" />
>>>>>>> e1d4bc35ff8a6074a6f2e91616a996b547c36f15
		<tag k="natural" v="wetland" />
		<tag k="ssr:stedsnr" v="873152" />
	</node>
<<<<<<< HEAD
	<node lat="63.33259721892748" lon="9.97220555754397" id="-36005">
		<tag k="name" v="Gilmyra" />
=======
	<node id="-755241" lat="63.2476083369" lon="10.0708277809">
		<tag k="name" v="Litlheggmyra" />
>>>>>>> e1d4bc35ff8a6074a6f2e91616a996b547c36f15
		<tag k="natural" v="wetland" />
		<tag k="ssr:stedsnr" v="873214" />
	</node>
<<<<<<< HEAD
	<node lat="63.31244722595374" lon="9.905786118987335" id="-36006">
		<tag k="name" v="Østhusmarka" />
		<tag k="place" v="locality" />
		<tag k="ssr:stedsnr" v="873238" />
	</node>
	<node lat="63.269647225747335" lon="9.92083056119946" id="-36011">
		<tag k="name" v="Liakjølen" />
=======
	<node id="-754724" lat="63.2581222189" lon="10.0285861028">
		<tag k="name" v="Skjellmyra" />
		<tag k="natural" v="wetland" />
		<tag k="ssr:stedsnr" v="205387" />
	</node>
	<node id="-754438" lat="63.3293611128" lon="9.93215833272">
		<tag k="name" v="Stykket" />
		<tag k="place" v="locality" />
		<tag k="ssr:stedsnr" v="934200" />
	</node>
	<node id="-755232" lat="63.2513472251" lon="9.91648610757">
		<tag k="name" v="Langmyra" />
>>>>>>> e1d4bc35ff8a6074a6f2e91616a996b547c36f15
		<tag k="natural" v="wetland" />
		<tag k="ssr:stedsnr" v="873254" />
	</node>
<<<<<<< HEAD
	<node lat="63.281916664253785" lon="10.126474996363985" id="-36012">
		<tag k="name" v="Stortrøa" />
=======
	<node id="-754718" lat="63.3085722191" lon="10.0081083337">
		<tag k="historic" v="shieling" />
		<tag k="name" v="Oppigardssetervollen" />
>>>>>>> e1d4bc35ff8a6074a6f2e91616a996b547c36f15
		<tag k="place" v="locality" />
		<tag k="ssr:stedsnr" v="873313" />
	</node>
<<<<<<< HEAD
	<node lat="63.31486110727653" lon="10.110238881292133" id="-36013">
		<tag k="name" v="Raudmyra" />
=======
	<node id="-754716" lat="63.2028416672" lon="10.0325750079">
		<tag k="name" v="Øver Tjørnmyra" />
>>>>>>> e1d4bc35ff8a6074a6f2e91616a996b547c36f15
		<tag k="natural" v="wetland" />
		<tag k="ssr:stedsnr" v="873325" />
	</node>
<<<<<<< HEAD
	<node lat="63.26340277426947" lon="10.077249991323734" id="-36014">
=======
	<node id="-755227" lat="63.2634027743" lon="10.0772499913">
>>>>>>> e1d4bc35ff8a6074a6f2e91616a996b547c36f15
		<tag k="name" v="Rekstadmyra" />
		<tag k="natural" v="wetland" />
		<tag k="ssr:stedsnr" v="873340" />
	</node>
<<<<<<< HEAD
	<node lat="63.251347225055675" lon="9.916486107574192" id="-36015">
		<tag k="name" v="Langmyra" />
=======
	<node id="-754006" lat="63.2177944489" lon="10.0433361102">
		<tag k="name" v="Sersjantlykkja" />
		<tag k="place" v="locality" />
		<tag k="ssr:stedsnr" v="449346" />
	</node>
	<node id="-754199" lat="63.3132055577" lon="9.9009333385">
		<tag k="name" v="Torvmyra" />
>>>>>>> e1d4bc35ff8a6074a6f2e91616a996b547c36f15
		<tag k="natural" v="wetland" />
		<tag k="ssr:stedsnr" v="873296" />
	</node>
<<<<<<< HEAD
	<node lat="63.2584111097637" lon="10.078527787422177" id="-36018">
		<tag k="name" v="Åsmyra" />
		<tag k="natural" v="wetland" />
		<tag k="ssr:stedsnr" v="873361" />
	</node>
	<node lat="63.24760833687334" lon="10.070827780888747" id="-36027">
		<tag k="name" v="Litlheggmyra" />
=======
	<node id="-755222" lat="63.312447226" lon="9.90578611899">
		<tag k="name" v="Østhusmarka" />
		<tag k="place" v="locality" />
		<tag k="ssr:stedsnr" v="873238" />
	</node>
	<node id="-755221" lat="63.3008055554" lon="9.99784999539">
		<tag k="fixme" v="multiple name tags, choose one and add the other to alt_name" />
		<tag k="name" v="Homyra;Homyren" />
>>>>>>> e1d4bc35ff8a6074a6f2e91616a996b547c36f15
		<tag k="natural" v="wetland" />
		<tag k="ssr:stedsnr" v="873472" />
	</node>
<<<<<<< HEAD
	<node lat="63.24140278037361" lon="10.073916657119417" id="-36028">
		<tag k="name" v="Kattjønnmyra" />
		<tag k="natural" v="wetland" />
		<tag k="ssr:stedsnr" v="873473" />
	</node>
	<node lat="63.21535833275988" lon="9.971833338762154" id="-36031">
		<tag k="name" v="Sagslættmyra" />
		<tag k="natural" v="wetland" />
		<tag k="ssr:stedsnr" v="873416" />
	</node>
	<node lat="63.25124721972362" lon="10.114794445317173" id="-36032">
		<tag k="name" v="Meslættet" />
=======
	<node id="-755218" lat="63.3125888902" lon="10.0047805517">
		<tag k="name" v="Tjønnmyra" />
		<tag k="natural" v="wetland" />
		<tag k="ssr:stedsnr" v="873148" />
	</node>
	<node id="-755217" lat="63.3154027757" lon="9.98937776824">
		<tag k="historic" v="shieling" />
		<tag k="name" v="Negardssetervollen" />
		<tag k="place" v="locality" />
		<tag k="ssr:stedsnr" v="873147" />
	</node>
	<node id="-754704" lat="63.188466665" lon="9.95297778477">
		<tag k="name" v="Storslættet" />
>>>>>>> e1d4bc35ff8a6074a6f2e91616a996b547c36f15
		<tag k="natural" v="wetland" />
		<tag k="ssr:stedsnr" v="873431" />
	</node>
<<<<<<< HEAD
	<node lat="63.19805555282362" lon="10.051652770298194" id="-36034">
		<tag k="name" v="Linberglykkja" />
=======
	<node id="-755211" lat="63.2882222222" lon="9.96885555939">
		<tag k="historic" v="shieling" />
		<tag k="name" v="Mjølhussætra" />
>>>>>>> e1d4bc35ff8a6074a6f2e91616a996b547c36f15
		<tag k="place" v="locality" />
		<tag k="ssr:stedsnr" v="873567" />
	</node>
<<<<<<< HEAD
	<node lat="63.18112778134924" lon="9.984038887545442" id="-36038">
		<tag k="name" v="Storvollmyra" />
		<tag k="natural" v="wetland" />
		<tag k="ssr:stedsnr" v="874564" />
	</node>
	<node lat="63.237677776135236" lon="10.074913884843097" id="-36039">
		<tag k="name" v="Finnmyra" />
=======
	<node id="-754243" lat="63.2994222263" lon="10.0129333396">
		<tag k="name" v="Bukkmyra" />
		<tag k="natural" v="wetland" />
		<tag k="ssr:stedsnr" v="691162" />
	</node>
	<node id="-755030" lat="63.2886777807" lon="10.1352333433">
		<tag k="name" v="Seteråsmyra" />
		<tag k="natural" v="wetland" />
		<tag k="ssr:stedsnr" v="630292" />
	</node>
	<node id="-754178" lat="63.2554583333" lon="10.0692000046">
		<tag k="name" v="Litlgjerdet" />
		<tag k="place" v="locality" />
		<tag k="ssr:stedsnr" v="449323" />
	</node>
	<node id="-755201" lat="63.276100003" lon="10.1036055508">
		<tag k="alt_name" v="Stormyren" />
		<tag k="name" v="Stormyra" />
>>>>>>> e1d4bc35ff8a6074a6f2e91616a996b547c36f15
		<tag k="natural" v="wetland" />
		<tag k="ssr:stedsnr" v="874571" />
	</node>
</osm>
