<?xml version="1.0" encoding="UTF-8"?>
<<<<<<< HEAD
<osm version="0.6" generator="osmapis">
	<node lat="63.32825833222727" lon="10.103808341298961" id="-34732">
=======
<osm generator="osmapis" version="0.6">
	<node id="-753917" lat="63.3282583322" lon="10.1038083413">
>>>>>>> e1d4bc35ff8a6074a6f2e91616a996b547c36f15
		<tag k="name" v="Djupvika" />
		<tag k="natural" v="bay" />
		<tag k="ssr:stedsnr" v="267033" />
	</node>
<<<<<<< HEAD
	<node lat="63.34968610759428" lon="10.035202786788528" id="-34775">
		<tag k="alt_name" v="Lundaneset" />
		<tag k="name" v="Lundneset" />
=======
	<node id="-754421" lat="63.3131027768" lon="10.1829638802">
		<tag k="name" v="Husbytangen" />
		<tag k="natural" v="beach" />
		<tag k="place" v="locality" />
		<tag k="ssr:stedsnr" v="812013" />
	</node>
	<node id="-754930" lat="63.3385472193" lon="10.0615138914">
		<tag k="name" v="Hårristangen" />
>>>>>>> e1d4bc35ff8a6074a6f2e91616a996b547c36f15
		<tag k="natural" v="cape" />
		<tag k="ssr:stedsnr" v="256459" />
	</node>
<<<<<<< HEAD
	<node lat="63.32618333279977" lon="10.113508329753367" id="-34824">
=======
	<node id="-754801" lat="63.3261833328" lon="10.1135083298">
>>>>>>> e1d4bc35ff8a6074a6f2e91616a996b547c36f15
		<tag k="name" v="Langtangen" />
		<tag k="natural" v="cape" />
		<tag k="ssr:stedsnr" v="327060" />
	</node>
<<<<<<< HEAD
	<node lat="63.32262222397477" lon="10.130647228288007" id="-34836">
		<tag k="name" v="Langtangen" />
		<tag k="natural" v="cape" />
		<tag k="ssr:stedsnr" v="347859" />
	</node>
	<node lat="63.33590555608347" lon="10.066341674057918" id="-34849">
		<tag k="name" v="Laugarbukta" />
		<tag k="natural" v="bay" />
		<tag k="ssr:stedsnr" v="387007" />
	</node>
	<node lat="63.328247220172926" lon="10.106966664932974" id="-34862">
		<tag k="name" v="Djupvikneset" />
		<tag k="natural" v="cape" />
		<tag k="ssr:stedsnr" v="388051" />
	</node>
	<node lat="63.34797777602027" lon="9.971997219222262" id="-35010">
		<tag k="name" v="Sildværet" />
=======
	<node id="-753978" lat="63.3416000021" lon="10.0593694352">
		<tag k="name" v="Vorpnebben" />
		<tag k="natural" v="cape" />
		<tag k="ssr:stedsnr" v="448061" />
	</node>
	<node id="-754030" lat="63.3157527802" lon="10.1909833384">
		<tag k="name" v="Sandstu" />
		<tag k="natural" v="beach" />
		<tag k="place" v="locality" />
		<tag k="ssr:stedsnr" v="327013" />
	</node>
	<node id="-754282" lat="63.347977776" lon="9.97199721922">
		<tag k="name" v="Sildværet" />
		<tag k="natural" v="cape" />
		<tag k="ssr:stedsnr" v="692162" />
	</node>
	<node id="-754015" lat="63.3496861076" lon="10.0352027868">
		<tag k="alt_name" v="Lundaneset" />
		<tag k="name" v="Lundneset" />
>>>>>>> e1d4bc35ff8a6074a6f2e91616a996b547c36f15
		<tag k="natural" v="cape" />
		<tag k="ssr:stedsnr" v="692162" />
	</node>
<<<<<<< HEAD
	<node lat="63.33854721925479" lon="10.06151389143118" id="-35012">
		<tag k="name" v="Hårristangen" />
		<tag k="natural" v="cape" />
		<tag k="ssr:stedsnr" v="569005" />
	</node>
	<node lat="63.34742222185012" lon="10.048413885878215" id="-35029">
		<tag k="name" v="Vikaneset" />
=======
	<node id="-754779" lat="63.3480472255" lon="9.92880832405">
		<tag k="bay" v="fjord" />
		<tag k="name" v="Orkdalsfjorden" />
		<tag k="natural" v="bay" />
		<tag k="ssr:stedsnr" v="316541" />
	</node>
	<node id="-754384" lat="63.3287972198" lon="10.0996361182">
		<tag k="name" v="Svalnestangen" />
>>>>>>> e1d4bc35ff8a6074a6f2e91616a996b547c36f15
		<tag k="natural" v="cape" />
		<tag k="ssr:stedsnr" v="590864" />
	</node>
<<<<<<< HEAD
	<node lat="63.32178610792068" lon="10.139738890703597" id="-35040">
		<tag k="name" v="Lykkjneset" />
=======
	<node id="-754888" lat="63.3415416674" lon="9.9472111036">
		<tag k="name" v="Grønlandsskjeret" />
>>>>>>> e1d4bc35ff8a6074a6f2e91616a996b547c36f15
		<tag k="natural" v="cape" />
		<tag k="ssr:stedsnr" v="619302" />
	</node>
	<node lat="63.34626388452495" lon="9.959075006368508" id="-35084">
		<tag k="name" v="Tråssåvika" />
		<tag k="natural" v="bay" />
		<tag k="ssr:stedsnr" v="681469" />
	</node>
<<<<<<< HEAD
	<node lat="63.327741662617825" lon="10.072250005911815" id="-35086">
=======
	<node id="-755270" lat="63.3325805938" lon="10.1879884272">
		<tag k="bay" v="fjord" />
		<tag k="name" v="Gaulosen" />
		<tag k="natural" v="bay" />
		<tag k="ssr:stedsnr" v="863510" />
	</node>
	<node id="-754241" lat="63.3277416626" lon="10.0722500059">
>>>>>>> e1d4bc35ff8a6074a6f2e91616a996b547c36f15
		<tag k="name" v="Børsøra" />
		<tag k="natural" v="beach" />
		<tag k="ssr:stedsnr" v="691149" />
	</node>
<<<<<<< HEAD
	<node lat="63.313102776782095" lon="10.182963880155746" id="-35174">
		<tag k="name" v="Husbytangen" />
		<tag k="natural" v="beach" />
		<tag k="ssr:stedsnr" v="812013" />
	</node>
	<node lat="63.33258059380711" lon="10.187988427164669" id="-35231">
		<tag k="bay" v="fjord" />
		<tag k="name" v="Gaulosen" />
		<tag k="natural" v="bay" />
		<tag k="ssr:stedsnr" v="863510" />
	</node>
	<node lat="63.32879721981646" lon="10.099636118188164" id="-35262">
		<tag k="name" v="Svalnestangen" />
=======
	<node id="-754106" lat="63.3232472205" lon="10.1954055605">
		<tag k="name" v="Brekkgrunnen" />
		<tag k="natural" v="shoal" />
		<tag k="place" v="locality" />
		<tag k="ssr:stedsnr" v="508248" />
	</node>
	<node id="-754873" lat="63.3282472202" lon="10.1069666649">
		<tag k="name" v="Djupvikneset" />
>>>>>>> e1d4bc35ff8a6074a6f2e91616a996b547c36f15
		<tag k="natural" v="cape" />
		<tag k="ssr:stedsnr" v="923281" />
	</node>
<<<<<<< HEAD
	<node lat="63.311044447023576" lon="10.169947228562895" id="-35323">
		<tag k="name" v="Saltnesstrand" />
		<tag k="natural" v="beach" />
		<tag k="ssr:stedsnr" v="23014" />
	</node>
	<node lat="63.32631111192854" lon="10.09319721774774" id="-35359">
		<tag k="name" v="Meiberget" />
=======
	<node id="-755127" lat="63.3253444421" lon="10.1147027771">
		<tag k="name" v="Kobbskjerbukta" />
		<tag k="natural" v="bay" />
		<tag k="ssr:stedsnr" v="812057" />
	</node>
	<node id="-754100" lat="63.343883336" lon="10.056894446">
		<tag k="name" v="Sjura" />
>>>>>>> e1d4bc35ff8a6074a6f2e91616a996b547c36f15
		<tag k="natural" v="cape" />
		<tag k="ssr:stedsnr" v="25049" />
	</node>
<<<<<<< HEAD
	<node lat="63.327266670946976" lon="10.09515000899385" id="-35453">
		<tag k="name" v="Heimhaugen" />
=======
	<node id="-754994" lat="63.3217861079" lon="10.1397388907">
		<tag k="name" v="Lykkjneset" />
>>>>>>> e1d4bc35ff8a6074a6f2e91616a996b547c36f15
		<tag k="natural" v="cape" />
		<tag k="ssr:stedsnr" v="145555" />
	</node>
<<<<<<< HEAD
	<node lat="63.34788889077286" lon="9.983697225586427" id="-35465">
		<tag k="name" v="Seiberget" />
		<tag k="natural" v="cape" />
		<tag k="ssr:stedsnr" v="146153" />
	</node>
	<node lat="63.34804722545827" lon="9.928808324047433" id="-35546">
		<tag k="bay" v="fjord" />
		<tag k="name" v="Orkdalsfjorden" />
=======
	<node id="-754993" lat="63.3144499986" lon="10.1718388966">
		<tag k="name" v="Buvikbukta" />
		<tag k="natural" v="bay" />
		<tag k="ssr:stedsnr" v="619300" />
	</node>
	<node id="-754864" lat="63.3359055561" lon="10.0663416741">
		<tag k="name" v="Laugarbukta" />
>>>>>>> e1d4bc35ff8a6074a6f2e91616a996b547c36f15
		<tag k="natural" v="bay" />
		<tag k="ssr:stedsnr" v="316541" />
	</node>
<<<<<<< HEAD
	<node lat="63.31575278016966" lon="10.190983338392767" id="-35574">
		<tag k="name" v="Sandstu" />
		<tag k="natural" v="beach" />
		<tag k="ssr:stedsnr" v="327013" />
	</node>
	<node lat="63.349224999611174" lon="9.969786108285485" id="-35618">
=======
	<node id="-754091" lat="63.3467138872" lon="9.98836111322">
		<tag k="name" v="Berget" />
		<tag k="natural" v="cape" />
		<tag k="ssr:stedsnr" v="388158" />
	</node>
	<node id="-754857" lat="63.3492249996" lon="9.96978610829">
>>>>>>> e1d4bc35ff8a6074a6f2e91616a996b547c36f15
		<tag k="name" v="Sildværtangen" />
		<tag k="natural" v="cape" />
		<tag k="ssr:stedsnr" v="377485" />
	</node>
<<<<<<< HEAD
	<node lat="63.34671388718628" lon="9.988361113221789" id="-35643">
		<tag k="name" v="Berget" />
		<tag k="natural" v="cape" />
		<tag k="ssr:stedsnr" v="388158" />
	</node>
	<node lat="63.34154166737174" lon="9.947211103598432" id="-35650">
		<tag k="name" v="Grønlandsskjeret" />
=======
	<node id="-754344" lat="63.3288138906" lon="10.1011750014">
		<tag k="name" v="Svalneset" />
		<tag k="natural" v="cape" />
		<tag k="ssr:stedsnr" v="648909" />
	</node>
	<node id="-754213" lat="63.3462638845" lon="9.95907500637">
		<tag k="name" v="Tråssåvika" />
		<tag k="natural" v="bay" />
		<tag k="ssr:stedsnr" v="681469" />
	</node>
	<node id="-754978" lat="63.3474222219" lon="10.0484138859">
		<tag k="name" v="Vikaneset" />
>>>>>>> e1d4bc35ff8a6074a6f2e91616a996b547c36f15
		<tag k="natural" v="cape" />
		<tag k="ssr:stedsnr" v="408167" />
	</node>
<<<<<<< HEAD
	<node lat="63.341600002054776" lon="10.059369435157143" id="-35674">
		<tag k="name" v="Vorpnebben" />
=======
	<node id="-753950" lat="63.3478888908" lon="9.98369722559">
		<tag k="name" v="Seiberget" />
>>>>>>> e1d4bc35ff8a6074a6f2e91616a996b547c36f15
		<tag k="natural" v="cape" />
		<tag k="ssr:stedsnr" v="448061" />
	</node>
<<<<<<< HEAD
	<node lat="63.34388333601418" lon="10.056894445973253" id="-35722">
		<tag k="name" v="Sjura" />
=======
	<node id="-753948" lat="63.3272666709" lon="10.095150009">
		<tag k="name" v="Heimhaugen" />
>>>>>>> e1d4bc35ff8a6074a6f2e91616a996b547c36f15
		<tag k="natural" v="cape" />
		<tag k="ssr:stedsnr" v="508049" />
	</node>
<<<<<<< HEAD
	<node lat="63.323247220542775" lon="10.195405560548979" id="-35724">
		<tag k="name" v="Brekkgrunnen" />
		<tag k="natural" v="shoal" />
=======
	<node id="-753813" lat="63.311044447" lon="10.1699472286">
		<tag k="name" v="Saltnesstrand" />
		<tag k="natural" v="beach" />
>>>>>>> e1d4bc35ff8a6074a6f2e91616a996b547c36f15
		<tag k="place" v="locality" />
		<tag k="ssr:stedsnr" v="508248" />
	</node>
<<<<<<< HEAD
	<node lat="63.314449998606875" lon="10.171838896626973" id="-35808">
		<tag k="name" v="Buvikbukta" />
		<tag k="natural" v="bay" />
		<tag k="ssr:stedsnr" v="619300" />
	</node>
	<node lat="63.328813890571524" lon="10.101175001421222" id="-35858">
		<tag k="name" v="Svalneset" />
		<tag k="natural" v="cape" />
		<tag k="ssr:stedsnr" v="648909" />
	</node>
	<node lat="63.32534444211106" lon="10.114702777077964" id="-35930">
		<tag k="name" v="Kobbskjerbukta" />
		<tag k="natural" v="bay" />
		<tag k="ssr:stedsnr" v="812057" />
=======
	<node id="-754575" lat="63.3263111119" lon="10.0931972177">
		<tag k="name" v="Meiberget" />
		<tag k="natural" v="cape" />
		<tag k="ssr:stedsnr" v="25049" />
	</node>
	<node id="-754050" lat="63.322622224" lon="10.1306472283">
		<tag k="name" v="Langtangen" />
		<tag k="natural" v="cape" />
		<tag k="ssr:stedsnr" v="347859" />
>>>>>>> e1d4bc35ff8a6074a6f2e91616a996b547c36f15
	</node>
</osm>
