<?xml version="1.0" encoding="UTF-8"?>
<osm version="0.6" generator="osmapis">
	<node id="257882657" lat="58.7662999" lon="8.4858257" version="12" timestamp="2021-10-29T06:11:26Z" changeset="113107708" uid="3497659" user="NKA">
		<tag k="name" v="Åmli" />
		<tag k="place" v="village" />
		<tag k="population" v="688" />
		<tag k="population:date" v="2021-01-01" />
		<tag k="ref:ssb_tettsted" v="3591" />
		<tag k="source:population" v="SSB - befolkning i tettstedet" />
		<tag k="ssr:stedsnr" v="304506" />
		<tag k="ssr:type" v="tettsted" />
	</node>
	<node id="1427928200" lat="58.7358659" lon="8.4969103" version="3" timestamp="2018-04-10T18:40:03Z" changeset="57982147" uid="3497659" user="NKA">
		<tag k="name" v="Sigridnes" />
		<tag k="place" v="hamlet" />
		<tag k="ssr:stedsnr" v="1120" />
		<tag k="ssr:type" v="bruk" />
	</node>
	<node id="3327846669" lat="58.6577859" lon="8.6326899" version="5" timestamp="2018-04-10T18:40:10Z" changeset="57982147" uid="3497659" user="NKA">
		<tag k="name" v="Nelaug" />
		<tag k="place" v="village" />
		<tag k="ssr:stedsnr" v="243942" />
		<tag k="ssr:type" v="tettbebyggelse" />
	</node>
	<node id="3691872304" lat="58.9434218" lon="8.2020178" version="3" timestamp="2018-04-10T18:40:10Z" changeset="57982147" uid="3497659" user="NKA">
		<tag k="name" v="Smedland" />
		<tag k="place" v="hamlet" />
		<tag k="ssr:stedsnr" v="365967" />
		<tag k="ssr:type" v="bruk" />
	</node>
	<node id="3783767983" lat="58.8456083" lon="8.0989812" version="3" timestamp="2018-04-10T18:40:11Z" changeset="57982147" uid="3497659" user="NKA">
		<tag k="name" v="Austenå" />
		<tag k="place" v="hamlet" />
		<tag k="ssr:stedsnr" v="789107" />
		<tag k="ssr:type" v="bruk" />
	</node>
	<node id="3783835077" lat="58.8077719" lon="8.1757922" version="3" timestamp="2018-04-10T18:40:11Z" changeset="57982147" uid="3497659" user="NKA">
		<tag k="name" v="Hillestad" />
		<tag k="place" v="hamlet" />
		<tag k="ssr:stedsnr" v="668179" />
		<tag k="ssr:type" v="bruk" />
	</node>
	<node id="3951893297" lat="58.7124457" lon="8.3434502" version="5" timestamp="2018-04-10T18:40:14Z" changeset="57982147" uid="3497659" user="NKA">
		<tag k="name" v="Dølemo" />
		<tag k="place" v="village" />
		<tag k="ssr:stedsnr" v="752161" />
		<tag k="ssr:type" v="bygdelagBygd" />
	</node>
	<node id="4475751982" lat="58.8831402" lon="8.5817826" version="2" timestamp="2018-04-10T18:50:37Z" changeset="57982147" uid="3497659" user="NKA">
		<tag k="name" v="Alfheim" />
		<tag k="place" v="farm" />
		<tag k="ssr:stedsnr" v="517126" />
		<tag k="ssr:type" v="eneboligMindreBoligbygg" />
	</node>
	<node id="4475751983" lat="58.8726182" lon="8.3026226" version="2" timestamp="2018-04-10T18:50:37Z" changeset="57982147" uid="3497659" user="NKA">
		<tag k="name" v="Askland" />
		<tag k="place" v="hamlet" />
		<tag k="ssr:stedsnr" v="547039" />
		<tag k="ssr:type" v="bygdelagBygd" />
	</node>
	<node id="4475751984" lat="58.6741983" lon="8.3737066" version="2" timestamp="2018-04-10T18:50:37Z" changeset="57982147" uid="3497659" user="NKA">
		<tag k="name" v="Austadplassen" />
		<tag k="place" v="farm" />
		<tag k="ssr:stedsnr" v="425304" />
		<tag k="ssr:type" v="eneboligMindreBoligbygg" />
	</node>
	<node id="4475751985" lat="58.6849506" lon="8.4070095" version="2" timestamp="2018-04-10T18:50:37Z" changeset="57982147" uid="3497659" user="NKA">
		<tag k="name" v="Austigard" />
		<tag k="place" v="farm" />
		<tag k="ssr:stedsnr" v="760253" />
		<tag k="ssr:type" v="bruk" />
	</node>
	<node id="4475751986" lat="58.7107277" lon="8.5928939" version="2" timestamp="2018-04-10T18:50:37Z" changeset="57982147" uid="3497659" user="NKA">
		<tag k="name" v="Austigard" />
		<tag k="place" v="farm" />
		<tag k="ssr:stedsnr" v="456561" />
		<tag k="ssr:type" v="bruk" />
	</node>
	<node id="4475751987" lat="58.7669993" lon="8.5334331" version="2" timestamp="2018-04-10T18:50:38Z" changeset="57982147" uid="3497659" user="NKA">
		<tag k="alt_name" v="Austre Haugane;Haugane austre" />
		<tag k="name" v="Austigard" />
		<tag k="place" v="farm" />
		<tag k="ssr:stedsnr" v="607506" />
		<tag k="ssr:type" v="bruk" />
	</node>
	<node id="4475751988" lat="58.8841013" lon="8.2413322" version="2" timestamp="2018-04-10T18:50:38Z" changeset="57982147" uid="3497659" user="NKA">
		<tag k="name" v="Austigard" />
		<tag k="place" v="farm" />
		<tag k="ssr:stedsnr" v="365052" />
		<tag k="ssr:type" v="bruk" />
	</node>
	<node id="4475752789" lat="58.8582639" lon="8.337728" version="2" timestamp="2018-04-10T18:50:38Z" changeset="57982147" uid="3497659" user="NKA">
		<tag k="name" v="Austjordet" />
		<tag k="place" v="farm" />
		<tag k="ssr:stedsnr" v="304107" />
		<tag k="ssr:type" v="bruk" />
	</node>
	<node id="4475752790" lat="58.7633799" lon="8.3759306" version="3" timestamp="2021-03-17T06:34:39Z" changeset="101162706" uid="3497659" user="NKA">
		<tag k="name" v="Badstoga" />
		<tag k="place" v="isolated_dwelling" />
		<tag k="ssr:stedsnr" v="1227" />
		<tag k="ssr:type" v="fritidsbolig" />
	</node>
	<node id="4475752791" lat="58.929627" lon="8.0371049" version="3" timestamp="2021-03-17T06:34:39Z" changeset="101162706" uid="3497659" user="NKA">
		<tag k="name" v="Badstoga" />
		<tag k="place" v="isolated_dwelling" />
		<tag k="ssr:stedsnr" v="425673" />
		<tag k="ssr:type" v="fritidsbolig" />
	</node>
	<node id="4475752792" lat="58.7646983" lon="8.5346368" version="2" timestamp="2018-04-10T18:50:38Z" changeset="57982147" uid="3497659" user="NKA">
		<tag k="name" v="Bakkane" />
		<tag k="place" v="farm" />
		<tag k="ssr:stedsnr" v="182504" />
		<tag k="ssr:type" v="bruk" />
	</node>
	<node id="4475752793" lat="58.8636318" lon="8.3280696" version="2" timestamp="2018-04-10T18:50:39Z" changeset="57982147" uid="3497659" user="NKA">
		<tag k="name" v="Bakkane" />
		<tag k="place" v="farm" />
		<tag k="ssr:stedsnr" v="304099" />
		<tag k="ssr:type" v="bruk" />
	</node>
	<node id="4475752794" lat="58.872374" lon="8.3073102" version="2" timestamp="2018-04-10T18:50:39Z" changeset="57982147" uid="3497659" user="NKA">
		<tag k="name" v="Bakkane" />
		<tag k="place" v="farm" />
		<tag k="ssr:stedsnr" v="607003" />
		<tag k="ssr:type" v="bruk" />
	</node>
	<node id="4475752795" lat="58.7387326" lon="8.4562494" version="2" timestamp="2018-04-10T18:50:39Z" changeset="57982147" uid="3497659" user="NKA">
		<tag k="name" v="Bakken" />
		<tag k="place" v="farm" />
		<tag k="ssr:stedsnr" v="486407" />
		<tag k="ssr:type" v="eneboligMindreBoligbygg" />
	</node>
	<node id="4475752796" lat="58.8744302" lon="8.0480421" version="2" timestamp="2018-04-10T18:50:39Z" changeset="57982147" uid="3497659" user="NKA">
		<tag k="name" v="Bakken" />
		<tag k="place" v="farm" />
		<tag k="ssr:stedsnr" v="668759" />
		<tag k="ssr:type" v="bruk" />
	</node>
	<node id="4475752797" lat="58.8689708" lon="8.1929101" version="3" timestamp="2021-03-17T06:34:39Z" changeset="101162706" uid="3497659" user="NKA">
		<tag k="name" v="Barlindhaugen" />
		<tag k="place" v="isolated_dwelling" />
		<tag k="ssr:stedsnr" v="597261" />
		<tag k="ssr:type" v="fritidsbolig" />
	</node>
	<node id="4475752798" lat="58.8542734" lon="8.3399043" version="2" timestamp="2018-04-10T18:50:39Z" changeset="57982147" uid="3497659" user="NKA">
		<tag k="name" v="Bekkemellom" />
		<tag k="place" v="farm" />
		<tag k="ssr:stedsnr" v="415730" />
		<tag k="ssr:type" v="bruk" />
	</node>
	<node id="4475752799" lat="58.7951697" lon="8.2317878" version="2" timestamp="2018-04-10T18:50:39Z" changeset="57982147" uid="3497659" user="NKA">
		<tag k="name" v="Berdalen" />
		<tag k="place" v="farm" />
		<tag k="ssr:stedsnr" v="425156" />
		<tag k="ssr:type" v="bruk" />
	</node>
	<node id="4475752800" lat="58.6894564" lon="8.6929003" version="2" timestamp="2018-04-10T18:50:39Z" changeset="57982147" uid="3497659" user="NKA">
		<tag k="name" v="Berget" />
		<tag k="place" v="farm" />
		<tag k="ssr:stedsnr" v="638610" />
		<tag k="ssr:type" v="eneboligMindreBoligbygg" />
	</node>
	<node id="4475752801" lat="58.7626934" lon="8.5363768" version="2" timestamp="2018-04-10T18:50:39Z" changeset="57982147" uid="3497659" user="NKA">
		<tag k="name" v="Bergland" />
		<tag k="place" v="farm" />
		<tag k="ssr:stedsnr" v="881221" />
		<tag k="ssr:type" v="bruk" />
	</node>
	<node id="4475752802" lat="58.8646673" lon="8.6260773" version="2" timestamp="2018-04-10T18:50:39Z" changeset="57982147" uid="3497659" user="NKA">
		<tag k="name" v="Berli" />
		<tag k="place" v="farm" />
		<tag k="ssr:stedsnr" v="426704" />
		<tag k="ssr:type" v="eneboligMindreBoligbygg" />
	</node>
	<node id="4475752803" lat="58.8688516" lon="8.6288036" version="3" timestamp="2021-03-17T06:34:39Z" changeset="101162706" uid="3497659" user="NKA">
		<tag k="name" v="Berli" />
		<tag k="place" v="isolated_dwelling" />
		<tag k="ssr:stedsnr" v="456186" />
		<tag k="ssr:type" v="fritidsbolig" />
	</node>
	<node id="4475752804" lat="58.8718979" lon="8.6277299" version="2" timestamp="2018-04-10T18:50:40Z" changeset="57982147" uid="3497659" user="NKA">
		<tag k="name" v="Berli" />
		<tag k="place" v="farm" />
		<tag k="ssr:stedsnr" v="304734" />
		<tag k="ssr:type" v="eneboligMindreBoligbygg" />
	</node>
	<node id="4475752805" lat="58.651068" lon="8.4305145" version="2" timestamp="2018-04-10T18:50:40Z" changeset="57982147" uid="3497659" user="NKA">
		<tag k="name" v="Berås" />
		<tag k="place" v="farm" />
		<tag k="ssr:stedsnr" v="365268" />
		<tag k="ssr:type" v="bruk" />
	</node>
	<node id="4475752806" lat="58.8723883" lon="8.6543468" version="2" timestamp="2018-04-10T18:50:40Z" changeset="57982147" uid="3497659" user="NKA">
		<tag k="building" v="cabin" />
		<tag k="name" v="Birtestoga" />
		<tag k="place" v="isolated_dwelling" />
		<tag k="ssr:stedsnr" v="274148" />
		<tag k="ssr:type" v="fritidsbolig" />
	</node>
	<node id="4475752807" lat="58.868446" lon="8.1967064" version="3" timestamp="2021-03-17T06:34:39Z" changeset="101162706" uid="3497659" user="NKA">
		<tag k="alt_name" v="Bjørbu" />
		<tag k="name" v="Bjorbu" />
		<tag k="place" v="isolated_dwelling" />
		<tag k="ssr:stedsnr" v="1027" />
		<tag k="ssr:type" v="fritidsbolig" />
	</node>
	<node id="4475752808" lat="58.905094" lon="8.5587835" version="2" timestamp="2018-04-10T18:50:40Z" changeset="57982147" uid="3497659" user="NKA">
		<tag k="name" v="Bjorevja" />
		<tag k="place" v="farm" />
		<tag k="ssr:stedsnr" v="183419" />
		<tag k="ssr:type" v="bruk" />
	</node>
	<node id="4475752809" lat="58.7277203" lon="8.3014527" version="2" timestamp="2018-04-10T18:50:40Z" changeset="57982147" uid="3497659" user="NKA">
		<tag k="name" v="Bjortjønnvollen" />
		<tag k="place" v="farm" />
		<tag k="ssr:stedsnr" v="719592" />
		<tag k="ssr:type" v="bruk" />
	</node>
	<node id="4475752810" lat="58.682383" lon="8.3720947" version="2" timestamp="2018-04-10T18:50:40Z" changeset="57982147" uid="3497659" user="NKA">
		<tag k="name" v="Bjorå" />
		<tag k="place" v="farm" />
		<tag k="ssr:stedsnr" v="850292" />
		<tag k="ssr:type" v="eneboligMindreBoligbygg" />
	</node>
	<node id="4475752811" lat="58.8497974" lon="8.2946961" version="3" timestamp="2021-03-17T06:34:39Z" changeset="101162706" uid="3497659" user="NKA">
		<tag k="name" v="Bjønnåshytta" />
		<tag k="place" v="isolated_dwelling" />
		<tag k="ssr:stedsnr" v="172719" />
		<tag k="ssr:type" v="fritidsbolig" />
	</node>
	<node id="4475752812" lat="58.8192156" lon="8.5412383" version="2" timestamp="2018-04-10T18:50:41Z" changeset="57982147" uid="3497659" user="NKA">
		<tag k="name" v="Bjørnbakken" />
		<tag k="place" v="farm" />
		<tag k="ssr:stedsnr" v="607677" />
		<tag k="ssr:type" v="bruk" />
	</node>
	<node id="4475752813" lat="58.886619" lon="8.591974" version="2" timestamp="2018-04-10T18:50:41Z" changeset="57982147" uid="3497659" user="NKA">
		<tag k="name" v="Bjørnestad" />
		<tag k="place" v="farm" />
		<tag k="ssr:stedsnr" v="335019" />
		<tag k="ssr:type" v="eneboligMindreBoligbygg" />
	</node>
	<node id="4475752814" lat="58.7101722" lon="8.6273162" version="2" timestamp="2018-04-10T18:50:41Z" changeset="57982147" uid="3497659" user="NKA">
		<tag k="name" v="Bomvollen" />
		<tag k="place" v="farm" />
		<tag k="ssr:stedsnr" v="699521" />
		<tag k="ssr:type" v="eneboligMindreBoligbygg" />
	</node>
	<node id="4475752815" lat="58.8994271" lon="8.2896227" version="3" timestamp="2021-03-17T06:34:39Z" changeset="101162706" uid="3497659" user="NKA">
		<tag k="name" v="Breidablikk" />
		<tag k="place" v="isolated_dwelling" />
		<tag k="ssr:stedsnr" v="643644" />
		<tag k="ssr:type" v="fritidsbolig" />
	</node>
	<node id="4475752816" lat="58.8932386" lon="8.5654086" version="2" timestamp="2018-04-10T18:50:41Z" changeset="57982147" uid="3497659" user="NKA">
		<tag k="name" v="Breiung" />
		<tag k="place" v="farm" />
		<tag k="ssr:stedsnr" v="790474" />
		<tag k="ssr:type" v="bruk" />
	</node>
	<node id="4475752817" lat="58.7625754" lon="8.4278304" version="3" timestamp="2021-03-17T06:34:39Z" changeset="101162706" uid="3497659" user="NKA">
		<tag k="name" v="Breivik" />
		<tag k="place" v="isolated_dwelling" />
		<tag k="ssr:stedsnr" v="294858" />
		<tag k="ssr:type" v="gammelBosettingsplass" />
	</node>
	<node id="4475752818" lat="58.7573002" lon="8.4521562" version="2" timestamp="2018-04-10T18:50:41Z" changeset="57982147" uid="3497659" user="NKA">
		<tag k="name" v="Brekka" />
		<tag k="place" v="farm" />
		<tag k="ssr:stedsnr" v="577228" />
		<tag k="ssr:type" v="bruk" />
	</node>
	<node id="4475752819" lat="58.8292322" lon="8.3939286" version="2" timestamp="2018-04-10T18:50:42Z" changeset="57982147" uid="3497659" user="NKA">
		<tag k="name" v="Bruheim" />
		<tag k="place" v="farm" />
		<tag k="ssr:stedsnr" v="780458" />
		<tag k="ssr:type" v="eneboligMindreBoligbygg" />
	</node>
	<node id="4475752820" lat="58.7939121" lon="8.2273833" version="2" timestamp="2018-04-10T18:50:42Z" changeset="57982147" uid="3497659" user="NKA">
		<tag k="name" v="Brustad" />
		<tag k="place" v="farm" />
		<tag k="ssr:stedsnr" v="668152" />
		<tag k="ssr:type" v="bruk" />
	</node>
	<node id="4475752821" lat="58.6872649" lon="8.6449588" version="2" timestamp="2018-04-10T18:50:42Z" changeset="57982147" uid="3497659" user="NKA">
		<tag k="name" v="Bruvoll" />
		<tag k="place" v="farm" />
		<tag k="ssr:stedsnr" v="942190" />
		<tag k="ssr:type" v="eneboligMindreBoligbygg" />
	</node>
	<node id="4475752822" lat="58.8891262" lon="8.3186272" version="3" timestamp="2021-03-17T06:34:39Z" changeset="101162706" uid="3497659" user="NKA">
		<tag k="name" v="Buheim" />
		<tag k="place" v="isolated_dwelling" />
		<tag k="ssr:stedsnr" v="911072" />
		<tag k="ssr:type" v="fritidsbolig" />
	</node>
	<node id="4475752823" lat="58.7957636" lon="8.2250294" version="2" timestamp="2018-04-10T18:50:42Z" changeset="57982147" uid="3497659" user="NKA">
		<tag k="name" v="Bujord" />
		<tag k="place" v="farm" />
		<tag k="ssr:stedsnr" v="243143" />
		<tag k="ssr:type" v="bruk" />
	</node>
	<node id="4475752824" lat="58.780744" lon="8.562873" version="2" timestamp="2018-04-10T18:50:42Z" changeset="57982147" uid="3497659" user="NKA">
		<tag k="historic" v="yes" />
		<tag k="name" v="Bustø" />
		<tag k="place" v="locality" />
		<tag k="ssr:stedsnr" v="638436" />
		<tag k="ssr:type" v="stø" />
	</node>
	<node id="4475752825" lat="58.7661613" lon="8.5382449" version="2" timestamp="2018-04-10T18:50:42Z" changeset="57982147" uid="3497659" user="NKA">
		<tag k="name" v="Buvollen" />
		<tag k="place" v="farm" />
		<tag k="ssr:stedsnr" v="182500" />
		<tag k="ssr:type" v="bruk" />
	</node>
	<node id="4475752826" lat="58.8016408" lon="8.1841795" version="2" timestamp="2018-04-10T18:50:43Z" changeset="57982147" uid="3497659" user="NKA">
		<tag k="name" v="Bygland" />
		<tag k="place" v="farm" />
		<tag k="ssr:stedsnr" v="607125" />
		<tag k="ssr:type" v="bruk" />
	</node>
	<node id="4475752827" lat="58.8170261" lon="8.5362948" version="2" timestamp="2018-04-10T18:50:43Z" changeset="57982147" uid="3497659" user="NKA">
		<tag k="name" v="Bytingsbekk" />
		<tag k="place" v="farm" />
		<tag k="ssr:stedsnr" v="122648" />
		<tag k="ssr:type" v="bruk" />
	</node>
	<node id="4475752828" lat="58.7131728" lon="8.301769" version="2" timestamp="2018-04-10T18:50:43Z" changeset="57982147" uid="3497659" user="NKA">
		<tag k="alt_name" v="Baas" />
		<tag k="name" v="Bås" />
		<tag k="place" v="farm" />
		<tag k="ssr:stedsnr" v="426465" />
		<tag k="ssr:type" v="bruk" />
	</node>
	<node id="4475752829" lat="58.7466943" lon="8.4448895" version="2" timestamp="2018-04-10T18:50:43Z" changeset="57982147" uid="3497659" user="NKA">
		<tag k="name" v="Båsland" />
		<tag k="place" v="farm" />
		<tag k="ssr:stedsnr" v="274619" />
		<tag k="ssr:type" v="bruk" />
	</node>
	<node id="4475752830" lat="58.709675" lon="8.3129392" version="2" timestamp="2018-04-10T18:50:43Z" changeset="57982147" uid="3497659" user="NKA">
		<tag k="fixme" v="check position" />
		<tag k="historic" v="ruins" />
		<tag k="name" v="Båsplassen" />
		<tag k="place" v="locality" />
		<tag k="ssr:stedsnr" v="415620" />
		<tag k="ssr:type" v="gammelBosettingsplass" />
	</node>
	<node id="4475752831" lat="58.7691345" lon="8.4937114" version="2" timestamp="2018-04-10T18:50:43Z" changeset="57982147" uid="3497659" user="NKA">
		<tag k="name" v="Børtinghus" />
		<tag k="place" v="farm" />
		<tag k="ssr:stedsnr" v="456231" />
		<tag k="ssr:type" v="bruk" />
	</node>
	<node id="4475752832" lat="58.759844" lon="8.6347946" version="2" timestamp="2018-04-10T18:50:43Z" changeset="57982147" uid="3497659" user="NKA">
		<tag k="building" v="cabin" />
		<tag k="name" v="Dalane" />
		<tag k="place" v="isolated_dwelling" />
		<tag k="ssr:stedsnr" v="486555" />
		<tag k="ssr:type" v="eneboligMindreBoligbygg" />
	</node>
	<node id="4475752833" lat="58.763413" lon="8.6346094" version="2" timestamp="2018-04-10T18:50:44Z" changeset="57982147" uid="3497659" user="NKA">
		<tag k="fixme" v="check position" />
		<tag k="historic" v="ruins" />
		<tag k="name" v="Dalansplassen" />
		<tag k="place" v="locality" />
		<tag k="ssr:stedsnr" v="699165" />
		<tag k="ssr:type" v="gammelBosettingsplass" />
	</node>
	<node id="4475752834" lat="58.8716229" lon="8.0521842" version="2" timestamp="2018-04-10T18:50:44Z" changeset="57982147" uid="3497659" user="NKA">
		<tag k="name" v="Dale" />
		<tag k="place" v="hamlet" />
		<tag k="ssr:stedsnr" v="790762" />
		<tag k="ssr:type" v="bruk" />
	</node>
	<node id="4475752835" lat="58.8949462" lon="8.1795377" version="4" timestamp="2021-03-17T06:34:39Z" changeset="101162706" uid="3497659" user="NKA">
		<tag k="historic" v="shieling" />
		<tag k="name" v="Dalen" />
		<tag k="place" v="isolated_dwelling" />
		<tag k="ssr:stedsnr" v="911043" />
		<tag k="ssr:type" v="fritidsbolig" />
	</node>
	<node id="4475752836" lat="58.85034" lon="8.5817185" version="2" timestamp="2018-04-10T18:50:44Z" changeset="57982147" uid="3497659" user="NKA">
		<tag k="fixme" v="check position" />
		<tag k="historic" v="ruins" />
		<tag k="name" v="Den gamle plassen" />
		<tag k="place" v="locality" />
		<tag k="ssr:stedsnr" v="31048" />
		<tag k="ssr:type" v="gammelBosettingsplass" />
	</node>
	<node id="4475752837" lat="58.6845442" lon="8.4048893" version="2" timestamp="2018-04-10T18:50:44Z" changeset="57982147" uid="3497659" user="NKA">
		<tag k="name" v="Der heime" />
		<tag k="place" v="farm" />
		<tag k="ssr:stedsnr" v="335237" />
		<tag k="ssr:type" v="bruk" />
	</node>
	<node id="4475752838" lat="58.8691168" lon="8.3367726" version="2" timestamp="2018-04-10T18:50:44Z" changeset="57982147" uid="3497659" user="NKA">
		<tag k="name" v="Der oppe" />
		<tag k="place" v="farm" />
		<tag k="ssr:stedsnr" v="718403" />
		<tag k="ssr:type" v="bruk" />
	</node>
	<node id="4475752839" lat="58.8055296" lon="8.3958655" version="2" timestamp="2018-04-10T18:50:44Z" changeset="57982147" uid="3497659" user="NKA">
		<tag k="name" v="Der ute" />
		<tag k="place" v="farm" />
		<tag k="ssr:stedsnr" v="98393" />
		<tag k="ssr:type" v="bruk" />
	</node>
	<node id="4475752840" lat="58.7863455" lon="8.6037165" version="3" timestamp="2021-03-17T06:34:39Z" changeset="101162706" uid="3497659" user="NKA">
		<tag k="name" v="Dobbestøyl" />
		<tag k="place" v="isolated_dwelling" />
		<tag k="ssr:stedsnr" v="911623" />
		<tag k="ssr:type" v="fritidsbolig" />
	</node>
	<node id="4475752841" lat="58.7211248" lon="8.1662531" version="3" timestamp="2021-03-17T06:34:39Z" changeset="101162706" uid="3497659" user="NKA">
		<tag k="name" v="Domtveit" />
		<tag k="place" v="isolated_dwelling" />
		<tag k="ssr:stedsnr" v="122474" />
		<tag k="ssr:type" v="fritidsbolig" />
	</node>
	<node id="4475752842" lat="58.7703485" lon="8.5330153" version="2" timestamp="2018-04-10T18:50:45Z" changeset="57982147" uid="3497659" user="NKA">
		<tag k="name" v="Dukane" />
		<tag k="place" v="farm" />
		<tag k="ssr:stedsnr" v="425494" />
		<tag k="ssr:type" v="bruk" />
	</node>
	<node id="4475752843" lat="58.6387849" lon="8.7483868" version="3" timestamp="2021-03-17T06:34:39Z" changeset="101162706" uid="3497659" user="NKA">
		<tag k="name" v="Eikeland" />
		<tag k="place" v="isolated_dwelling" />
		<tag k="ssr:stedsnr" v="911786" />
		<tag k="ssr:type" v="fritidsbolig" />
	</node>
	<node id="4475752844" lat="58.9196533" lon="8.5403313" version="2" timestamp="2018-04-10T18:50:45Z" changeset="57982147" uid="3497659" user="NKA">
		<tag k="name" v="Ekra" />
		<tag k="place" v="farm" />
		<tag k="ssr:stedsnr" v="304382" />
		<tag k="ssr:type" v="eneboligMindreBoligbygg" />
	</node>
	<node id="4475752845" lat="58.7019624" lon="8.601278" version="2" timestamp="2018-04-10T18:50:45Z" changeset="57982147" uid="3497659" user="NKA">
		<tag k="name" v="Elvestad" />
		<tag k="place" v="farm" />
		<tag k="ssr:stedsnr" v="426094" />
		<tag k="ssr:type" v="bruk" />
	</node>
	<node id="4475752846" lat="58.7558311" lon="8.4519074" version="2" timestamp="2018-04-10T18:50:45Z" changeset="57982147" uid="3497659" user="NKA">
		<tag k="name" v="Engenes" />
		<tag k="place" v="farm" />
		<tag k="ssr:stedsnr" v="244296" />
		<tag k="ssr:type" v="bruk" />
	</node>
	<node id="4475752847" lat="58.7590271" lon="8.4709429" version="2" timestamp="2018-04-10T18:50:45Z" changeset="57982147" uid="3497659" user="NKA">
		<tag k="name" v="Engenes" />
		<tag k="place" v="hamlet" />
		<tag k="ssr:stedsnr" v="304559" />
		<tag k="ssr:type" v="bruk" />
	</node>
	<node id="4475752848" lat="58.7578495" lon="8.4749802" version="2" timestamp="2018-04-10T18:50:45Z" changeset="57982147" uid="3497659" user="NKA">
		<tag k="name" v="Engenesstoa" />
		<tag k="place" v="locality" />
		<tag k="ssr:stedsnr" v="395236" />
		<tag k="ssr:type" v="industriområde" />
	</node>
	<node id="4475752849" lat="58.7840576" lon="8.5110017" version="2" timestamp="2018-04-10T18:50:45Z" changeset="57982147" uid="3497659" user="NKA">
		<tag k="name" v="Epletveit" />
		<tag k="place" v="farm" />
		<tag k="ssr:stedsnr" v="62616" />
		<tag k="ssr:type" v="bruk" />
	</node>
	<node id="4475752850" lat="58.7217255" lon="8.3599024" version="2" timestamp="2018-04-10T18:50:45Z" changeset="57982147" uid="3497659" user="NKA">
		<tag k="name" v="Eppeland" />
		<tag k="place" v="hamlet" />
		<tag k="ssr:stedsnr" v="426455" />
		<tag k="ssr:type" v="gard" />
	</node>
	<node id="4475752851" lat="58.7656223" lon="8.5539254" version="2" timestamp="2018-04-10T18:50:46Z" changeset="57982147" uid="3497659" user="NKA">
		<tag k="name" v="Espeland" />
		<tag k="place" v="farm" />
		<tag k="ssr:stedsnr" v="243516" />
		<tag k="ssr:type" v="bruk" />
	</node>
	<node id="4475752852" lat="58.9057963" lon="8.3018345" version="3" timestamp="2021-03-17T06:34:39Z" changeset="101162706" uid="3497659" user="NKA">
		<tag k="name" v="Fagerheim" />
		<tag k="place" v="isolated_dwelling" />
		<tag k="ssr:stedsnr" v="546047" />
		<tag k="ssr:type" v="fritidsbolig" />
	</node>
	<node id="4475752853" lat="58.695096" lon="8.5039695" version="2" timestamp="2018-04-10T18:50:46Z" changeset="57982147" uid="3497659" user="NKA">
		<tag k="fixme" v="check position" />
		<tag k="historic" v="ruins" />
		<tag k="name" v="Fermland" />
		<tag k="place" v="locality" />
		<tag k="ssr:stedsnr" v="214410" />
		<tag k="ssr:type" v="gammelBosettingsplass" />
	</node>
	<node id="4475752854" lat="58.8729456" lon="8.3007843" version="2" timestamp="2018-04-10T18:50:46Z" changeset="57982147" uid="3497659" user="NKA">
		<tag k="name" v="Fiane" />
		<tag k="place" v="farm" />
		<tag k="ssr:stedsnr" v="112113" />
		<tag k="ssr:type" v="bruk" />
	</node>
	<node id="4475752855" lat="58.8899186" lon="8.2562929" version="3" timestamp="2020-01-01T04:21:06Z" changeset="79073210" uid="443181" user="Marius Geitle">
		<tag k="name" v="Finnhola" />
		<tag k="place" v="isolated_dwelling" />
		<tag k="ssr:stedsnr" v="719682" />
		<tag k="ssr:type" v="fritidsbolig" />
	</node>
	<node id="4475752856" lat="58.8301346" lon="8.5898027" version="2" timestamp="2018-04-10T18:50:46Z" changeset="57982147" uid="3497659" user="NKA">
		<tag k="name" v="Fiskvatn" />
		<tag k="place" v="hamlet" />
		<tag k="ssr:stedsnr" v="486650" />
		<tag k="ssr:type" v="gard" />
	</node>
	<node id="4475752857" lat="58.6969813" lon="8.6169324" version="3" timestamp="2021-03-17T06:34:39Z" changeset="101162706" uid="3497659" user="NKA">
		<tag k="name" v="Fiskådalen" />
		<tag k="place" v="isolated_dwelling" />
		<tag k="ssr:stedsnr" v="486905" />
		<tag k="ssr:type" v="fritidsbolig" />
	</node>
	<node id="4475752858" lat="58.8452884" lon="8.267528" version="3" timestamp="2021-03-17T06:34:39Z" changeset="101162706" uid="3497659" user="NKA">
		<tag k="name" v="Fjellro" />
		<tag k="place" v="isolated_dwelling" />
		<tag k="ssr:stedsnr" v="416324" />
		<tag k="ssr:type" v="fritidsbolig" />
	</node>
	<node id="4475752859" lat="58.8896528" lon="8.2536295" version="2" timestamp="2018-04-10T18:50:47Z" changeset="57982147" uid="3497659" user="NKA">
		<tag k="name" v="Fjellsenden" />
		<tag k="place" v="farm" />
		<tag k="ssr:stedsnr" v="486027" />
		<tag k="ssr:type" v="bruk" />
	</node>
	<node id="4475752860" lat="58.7037537" lon="8.5723311" version="3" timestamp="2021-03-17T06:34:39Z" changeset="101162706" uid="3497659" user="NKA">
		<tag k="name" v="Fjellsol" />
		<tag k="place" v="isolated_dwelling" />
		<tag k="ssr:stedsnr" v="821567" />
		<tag k="ssr:type" v="fritidsbolig" />
	</node>
	<node id="4475752861" lat="58.8587068" lon="8.3256975" version="2" timestamp="2018-04-10T18:50:47Z" changeset="57982147" uid="3497659" user="NKA">
		<tag k="name" v="Fjellstad" />
		<tag k="place" v="farm" />
		<tag k="ssr:stedsnr" v="51715" />
		<tag k="ssr:type" v="bruk" />
	</node>
	<node id="4475752862" lat="58.8719188" lon="8.6081049" version="2" timestamp="2018-04-10T18:50:47Z" changeset="57982147" uid="3497659" user="NKA">
		<tag k="name" v="Fjellstad" />
		<tag k="place" v="farm" />
		<tag k="ssr:stedsnr" v="122715" />
		<tag k="ssr:type" v="bruk" />
	</node>
	<node id="4475752863" lat="58.869776" lon="8.2136986" version="3" timestamp="2021-03-17T06:34:39Z" changeset="101162706" uid="3497659" user="NKA">
		<tag k="name" v="Fjellstoga" />
		<tag k="place" v="isolated_dwelling" />
		<tag k="ssr:stedsnr" v="962221" />
		<tag k="ssr:type" v="fritidsbolig" />
	</node>
	<node id="4475752864" lat="58.8539206" lon="8.2397633" version="2" timestamp="2018-04-10T18:50:47Z" changeset="57982147" uid="3497659" user="NKA">
		<tag k="fixme" v="check position" />
		<tag k="historic" v="ruins" />
		<tag k="name" v="Fjellstøyl" />
		<tag k="place" v="locality" />
		<tag k="ssr:stedsnr" v="234352" />
		<tag k="ssr:type" v="gammelBosettingsplass" />
	</node>
	<node id="4475752865" lat="58.6886524" lon="8.5114829" version="2" timestamp="2018-04-10T18:50:47Z" changeset="57982147" uid="3497659" user="NKA">
		<tag k="name" v="Fjellstøyllia" />
		<tag k="place" v="farm" />
		<tag k="ssr:stedsnr" v="122862" />
		<tag k="ssr:type" v="bruk" />
	</node>
	<node id="4475752866" lat="58.7017315" lon="8.5877664" version="2" timestamp="2018-04-10T18:50:47Z" changeset="57982147" uid="3497659" user="NKA">
		<tag k="name" v="Fjellvik" />
		<tag k="place" v="farm" />
		<tag k="ssr:stedsnr" v="243084" />
		<tag k="ssr:type" v="bruk" />
	</node>
	<node id="4475752868" lat="58.6432846" lon="8.6790897" version="2" timestamp="2018-04-10T18:50:48Z" changeset="57982147" uid="3497659" user="NKA">
		<tag k="historic" v="ruins" />
		<tag k="name" v="Flaten" />
		<tag k="place" v="farm" />
		<tag k="ssr:stedsnr" v="486984" />
		<tag k="ssr:type" v="bruk" />
	</node>
	<node id="4475752869" lat="58.8093882" lon="8.3979791" version="2" timestamp="2018-04-10T18:50:48Z" changeset="57982147" uid="3497659" user="NKA">
		<tag k="alt_name" v="Flata" />
		<tag k="name" v="Flaten" />
		<tag k="place" v="farm" />
		<tag k="ssr:stedsnr" v="365134" />
		<tag k="ssr:type" v="bruk" />
	</node>
	<node id="4475752870" lat="58.7162871" lon="8.4523953" version="2" timestamp="2018-04-10T18:50:48Z" changeset="57982147" uid="3497659" user="NKA">
		<tag k="name" v="Flåstøyl" />
		<tag k="place" v="farm" />
		<tag k="ssr:stedsnr" v="183427" />
		<tag k="ssr:type" v="eneboligMindreBoligbygg" />
	</node>
	<node id="4475752871" lat="58.7084271" lon="8.6198031" version="2" timestamp="2018-04-10T18:50:48Z" changeset="57982147" uid="3497659" user="NKA">
		<tag k="name" v="Follestad" />
		<tag k="place" v="farm" />
		<tag k="ssr:stedsnr" v="699514" />
		<tag k="ssr:type" v="eneboligMindreBoligbygg" />
	</node>
	<node id="4475752872" lat="58.8401703" lon="8.3496261" version="2" timestamp="2018-04-10T18:50:48Z" changeset="57982147" uid="3497659" user="NKA">
		<tag k="name" v="Fossli" />
		<tag k="place" v="farm" />
		<tag k="ssr:stedsnr" v="38776" />
		<tag k="ssr:type" v="eneboligMindreBoligbygg" />
	</node>
	<node id="4475752873" lat="58.7047822" lon="8.5673105" version="2" timestamp="2018-04-10T18:50:48Z" changeset="57982147" uid="3497659" user="NKA">
		<tag k="name" v="Fossnes" />
		<tag k="place" v="farm" />
		<tag k="ssr:stedsnr" v="486072" />
		<tag k="ssr:type" v="bruk" />
	</node>
	<node id="4475752874" lat="58.7074325" lon="8.5667046" version="2" timestamp="2018-04-10T18:50:48Z" changeset="57982147" uid="3497659" user="NKA">
		<tag k="name" v="Fossund" />
		<tag k="place" v="farm" />
		<tag k="ssr:stedsnr" v="942560" />
		<tag k="ssr:type" v="eneboligMindreBoligbygg" />
	</node>
	<node id="4475752875" lat="58.708853" lon="8.566464" version="2" timestamp="2018-04-10T18:50:48Z" changeset="57982147" uid="3497659" user="NKA">
		<tag k="name" v="Fredheim" />
		<tag k="place" v="farm" />
		<tag k="ssr:stedsnr" v="456570" />
		<tag k="ssr:type" v="eneboligMindreBoligbygg" />
	</node>
	<node id="4475752876" lat="58.6577783" lon="8.6869314" version="2" timestamp="2018-04-10T18:50:49Z" changeset="57982147" uid="3497659" user="NKA">
		<tag k="name" v="Fredlund" />
		<tag k="place" v="farm" />
		<tag k="ssr:stedsnr" v="850936" />
		<tag k="ssr:type" v="eneboligMindreBoligbygg" />
	</node>
	<node id="4475752877" lat="58.7141698" lon="8.3512278" version="2" timestamp="2018-04-10T18:50:49Z" changeset="57982147" uid="3497659" user="NKA">
		<tag k="name" v="Frivoll" />
		<tag k="place" v="farm" />
		<tag k="ssr:stedsnr" v="153499" />
		<tag k="ssr:type" v="bruk" />
	</node>
	<node id="4475752878" lat="58.656829" lon="8.7284066" version="2" timestamp="2018-04-10T18:50:49Z" changeset="57982147" uid="3497659" user="NKA">
		<tag k="name" v="Furland" />
		<tag k="place" v="farm" />
		<tag k="ssr:stedsnr" v="122946" />
		<tag k="ssr:type" v="bruk" />
	</node>
	<node id="4475752879" lat="58.8883363" lon="8.2711538" version="2" timestamp="2018-04-10T18:50:49Z" changeset="57982147" uid="3497659" user="NKA">
		<tag k="name" v="Furulund" />
		<tag k="place" v="farm" />
		<tag k="ssr:stedsnr" v="850024" />
		<tag k="ssr:type" v="bruk" />
	</node>
	<node id="4475752880" lat="58.7308274" lon="8.5338857" version="2" timestamp="2018-04-10T18:50:49Z" changeset="57982147" uid="3497659" user="NKA">
		<tag k="fixme" v="check position" />
		<tag k="historic" v="ruins" />
		<tag k="name" v="Gamle Harnes" />
		<tag k="place" v="locality" />
		<tag k="ssr:stedsnr" v="517665" />
		<tag k="ssr:type" v="gammelBosettingsplass" />
	</node>
	<node id="4475752881" lat="58.7958373" lon="8.5146195" version="2" timestamp="2018-04-10T18:50:49Z" changeset="57982147" uid="3497659" user="NKA">
		<tag k="name" v="Gamle Mobru" />
		<tag k="place" v="locality" />
		<tag k="ssr:stedsnr" v="881137" />
		<tag k="ssr:type" v="bruk" />
	</node>
	<node id="4475752882" lat="58.6651991" lon="8.7292149" version="2" timestamp="2018-04-10T18:50:49Z" changeset="57982147" uid="3497659" user="NKA">
		<tag k="fixme" v="check position" />
		<tag k="historic" v="ruins" />
		<tag k="name" v="Gamle Sandland" />
		<tag k="place" v="locality" />
		<tag k="ssr:stedsnr" v="44938" />
		<tag k="ssr:type" v="gammelBosettingsplass" />
	</node>
	<node id="4475752883" lat="58.9675965" lon="8.1443132" version="2" timestamp="2018-04-10T18:50:50Z" changeset="57982147" uid="3497659" user="NKA">
		<tag k="fixme" v="check position" />
		<tag k="historic" v="ruins" />
		<tag k="name" v="Gamle Sundstøyl" />
		<tag k="place" v="locality" />
		<tag k="ssr:stedsnr" v="233986" />
		<tag k="ssr:type" v="gammelBosettingsplass" />
	</node>
	<node id="4475752884" lat="58.7078646" lon="8.5667025" version="2" timestamp="2018-04-10T18:50:50Z" changeset="57982147" uid="3497659" user="NKA">
		<tag k="name" v="Gangdalen" />
		<tag k="place" v="farm" />
		<tag k="ssr:stedsnr" v="789079" />
		<tag k="ssr:type" v="bruk" />
	</node>
	<node id="4475752885" lat="58.810235" lon="8.4750174" version="2" timestamp="2018-04-10T18:50:50Z" changeset="57982147" uid="3497659" user="NKA">
		<tag k="name" v="Gangsei" />
		<tag k="place" v="farm" />
		<tag k="ssr:stedsnr" v="243667" />
		<tag k="ssr:type" v="bruk" />
	</node>
	<node id="4475752886" lat="58.7424099" lon="8.4598824" version="2" timestamp="2018-04-10T18:50:50Z" changeset="57982147" uid="3497659" user="NKA">
		<tag k="name" v="Gjermundnes" />
		<tag k="place" v="farm" />
		<tag k="ssr:stedsnr" v="668418" />
		<tag k="ssr:type" v="bruk" />
	</node>
	<node id="4475752887" lat="58.7131371" lon="8.6402536" version="2" timestamp="2018-04-10T18:50:50Z" changeset="57982147" uid="3497659" user="NKA">
		<tag k="name" v="Gjerustad" />
		<tag k="place" v="farm" />
		<tag k="ssr:stedsnr" v="607071" />
		<tag k="ssr:type" v="bruk" />
	</node>
	<node id="4475752888" lat="58.9597453" lon="8.1775918" version="3" timestamp="2018-04-28T08:07:05Z" changeset="58497758" uid="3497659" user="NKA">
		<tag k="historic" v="shieling" />
		<tag k="name" v="Gjevdeli" />
		<tag k="place" v="farm" />
		<tag k="ssr:stedsnr" v="668918" />
		<tag k="ssr:type" v="bruk" />
	</node>
	<node id="4475753089" lat="58.9638303" lon="8.1709426" version="4" timestamp="2021-03-17T06:34:39Z" changeset="101162706" uid="3497659" user="NKA">
		<tag k="historic" v="shieling" />
		<tag k="name" v="Gjevdestøyl" />
		<tag k="place" v="isolated_dwelling" />
		<tag k="ssr:stedsnr" v="364907" />
		<tag k="ssr:type" v="fritidsbolig" />
	</node>
	<node id="4475753091" lat="58.7936352" lon="8.4870607" version="2" timestamp="2018-04-10T18:50:51Z" changeset="57982147" uid="3497659" user="NKA">
		<tag k="name" v="Gjøvland" />
		<tag k="place" v="farm" />
		<tag k="ssr:stedsnr" v="304587" />
		<tag k="ssr:type" v="bruk" />
	</node>
	<node id="4475753092" lat="58.771844" lon="8.4915427" version="2" timestamp="2018-04-10T18:50:51Z" changeset="57982147" uid="3497659" user="NKA">
		<tag k="name" v="Granhei" />
		<tag k="place" v="farm" />
		<tag k="ssr:stedsnr" v="881205" />
		<tag k="ssr:type" v="bruk" />
	</node>
	<node id="4475753093" lat="58.775381" lon="8.54352" version="2" timestamp="2018-04-10T18:50:51Z" changeset="57982147" uid="3497659" user="NKA">
		<tag k="alt_name" v="Plassen" />
		<tag k="name" v="Granli" />
		<tag k="place" v="farm" />
		<tag k="ssr:stedsnr" v="304613" />
		<tag k="ssr:type" v="eneboligMindreBoligbygg" />
	</node>
	<node id="4475753094" lat="58.7968058" lon="8.0267531" version="3" timestamp="2021-03-17T06:34:39Z" changeset="101162706" uid="3497659" user="NKA">
		<tag k="name" v="Granli" />
		<tag k="place" v="isolated_dwelling" />
		<tag k="ssr:stedsnr" v="851796" />
		<tag k="ssr:type" v="fritidsbolig" />
	</node>
	<node id="4475753095" lat="58.796054" lon="8.4934128" version="2" timestamp="2018-04-10T18:50:51Z" changeset="57982147" uid="3497659" user="NKA">
		<tag k="name" v="Grasnes" />
		<tag k="place" v="farm" />
		<tag k="ssr:stedsnr" v="294104" />
		<tag k="ssr:type" v="bruk" />
	</node>
	<node id="4475753096" lat="58.6930524" lon="8.7224222" version="2" timestamp="2018-04-10T18:50:51Z" changeset="57982147" uid="3497659" user="NKA">
		<tag k="alt_name" v="Grusåsen" />
		<tag k="name" v="Grasåsen" />
		<tag k="place" v="farm" />
		<tag k="ssr:stedsnr" v="790935" />
		<tag k="ssr:type" v="bruk" />
	</node>
	<node id="4475753097" lat="58.68219" lon="8.7056577" version="2" timestamp="2018-04-10T18:50:51Z" changeset="57982147" uid="3497659" user="NKA">
		<tag k="name" v="Grimeland" />
		<tag k="place" v="farm" />
		<tag k="ssr:stedsnr" v="364924" />
		<tag k="ssr:type" v="bruk" />
	</node>
	<node id="4475753098" lat="58.6861882" lon="8.7036752" version="2" timestamp="2018-04-10T18:50:51Z" changeset="57982147" uid="3497659" user="NKA">
		<tag k="name" v="Grimelandshovet" />
		<tag k="place" v="farm" />
		<tag k="ssr:stedsnr" v="365940" />
		<tag k="ssr:type" v="bruk" />
	</node>
	<node id="4475753099" lat="58.6758717" lon="8.687364" version="2" timestamp="2018-04-10T18:50:51Z" changeset="57982147" uid="3497659" user="NKA">
		<tag k="fixme" v="check position" />
		<tag k="historic" v="ruins" />
		<tag k="name" v="Gryting" />
		<tag k="place" v="locality" />
		<tag k="ssr:stedsnr" v="760506" />
		<tag k="ssr:type" v="gammelBosettingsplass" />
	</node>
	<node id="4475753100" lat="58.7802835" lon="8.2601808" version="2" timestamp="2018-04-10T18:50:52Z" changeset="57982147" uid="3497659" user="NKA">
		<tag k="name" v="Gunleifjell" />
		<tag k="place" v="farm" />
		<tag k="ssr:stedsnr" v="243234" />
		<tag k="ssr:type" v="bruk" />
	</node>
	<node id="4475753101" lat="58.7493343" lon="8.4625467" version="3" timestamp="2021-03-17T06:34:39Z" changeset="101162706" uid="3497659" user="NKA">
		<tag k="name" v="Hagebua" />
		<tag k="place" v="isolated_dwelling" />
		<tag k="ssr:stedsnr" v="456649" />
		<tag k="ssr:type" v="fritidsbolig" />
	</node>
	<node id="4475753102" lat="58.8686841" lon="8.3253152" version="2" timestamp="2018-04-10T18:50:52Z" changeset="57982147" uid="3497659" user="NKA">
		<tag k="name" v="Hagen" />
		<tag k="place" v="farm" />
		<tag k="ssr:stedsnr" v="486012" />
		<tag k="ssr:type" v="bruk" />
	</node>
	<node id="4475753103" lat="58.8851795" lon="8.5976166" version="2" timestamp="2018-04-10T18:50:52Z" changeset="57982147" uid="3497659" user="NKA">
		<tag k="name" v="Hagen" />
		<tag k="place" v="farm" />
		<tag k="ssr:stedsnr" v="459" />
		<tag k="ssr:type" v="eneboligMindreBoligbygg" />
	</node>
	<node id="4475753104" lat="58.8852818" lon="8.093288" version="2" timestamp="2018-04-10T18:50:52Z" changeset="57982147" uid="3497659" user="NKA">
		<tag k="building" v="cabin" />
		<tag k="name" v="Hagestøyl" />
		<tag k="place" v="isolated_dwelling" />
		<tag k="ssr:stedsnr" v="122714" />
		<tag k="ssr:type" v="fritidsbolig" />
	</node>
	<node id="4475753105" lat="58.7323013" lon="8.533819" version="2" timestamp="2018-04-10T18:50:52Z" changeset="57982147" uid="3497659" user="NKA">
		<tag k="fixme" v="check position" />
		<tag k="historic" v="ruins" />
		<tag k="name" v="Harnes" />
		<tag k="place" v="locality" />
		<tag k="ssr:stedsnr" v="821671" />
		<tag k="ssr:type" v="gammelBosettingsplass" />
	</node>
	<node id="4475753106" lat="58.8495359" lon="8.3467623" version="2" timestamp="2018-04-10T18:50:52Z" changeset="57982147" uid="3497659" user="NKA">
		<tag k="name" v="Harstveit" />
		<tag k="place" v="hamlet" />
		<tag k="ssr:stedsnr" v="364074" />
		<tag k="ssr:type" v="bruk" />
	</node>
	<node id="4475753107" lat="58.856918" lon="8.3352803" version="2" timestamp="2018-04-10T18:50:52Z" changeset="57982147" uid="3497659" user="NKA">
		<tag k="name" v="Harstveit" />
		<tag k="place" v="farm" />
		<tag k="ssr:stedsnr" v="546128" />
		<tag k="ssr:type" v="bruk" />
	</node>
	<node id="4475753108" lat="58.767162" lon="8.5313394" version="2" timestamp="2018-04-10T18:50:53Z" changeset="57982147" uid="3497659" user="NKA">
		<tag k="name" v="Haugane" />
		<tag k="place" v="farm" />
		<tag k="ssr:stedsnr" v="638729" />
		<tag k="ssr:type" v="bruk" />
	</node>
	<node id="4475753109" lat="58.8330849" lon="8.3945384" version="2" timestamp="2018-04-10T18:50:53Z" changeset="57982147" uid="3497659" user="NKA">
		<tag k="name" v="Haugane" />
		<tag k="place" v="farm" />
		<tag k="ssr:stedsnr" v="962486" />
		<tag k="ssr:type" v="bruk" />
	</node>
	<node id="4475753110" lat="58.8624599" lon="8.4463716" version="3" timestamp="2021-03-17T06:34:39Z" changeset="101162706" uid="3497659" user="NKA">
		<tag k="alt_name" v="Haugedalen" />
		<tag k="name" v="Haugedal" />
		<tag k="place" v="isolated_dwelling" />
		<tag k="ssr:stedsnr" v="850112" />
		<tag k="ssr:type" v="fritidsbolig" />
	</node>
	<node id="4475753111" lat="58.6848159" lon="8.4012391" version="2" timestamp="2018-04-10T18:50:53Z" changeset="57982147" uid="3497659" user="NKA">
		<tag k="name" v="Haugen" />
		<tag k="place" v="farm" />
		<tag k="ssr:stedsnr" v="335303" />
		<tag k="ssr:type" v="bruk" />
	</node>
	<node id="4475753112" lat="58.7090291" lon="8.5887753" version="2" timestamp="2018-04-10T18:50:53Z" changeset="57982147" uid="3497659" user="NKA">
		<tag k="name" v="Haugen" />
		<tag k="place" v="farm" />
		<tag k="ssr:stedsnr" v="517573" />
		<tag k="ssr:type" v="bruk" />
	</node>
	<node id="4475753113" lat="58.8305855" lon="8.1019031" version="2" timestamp="2018-04-10T18:50:53Z" changeset="57982147" uid="3497659" user="NKA">
		<tag k="name" v="Haugen" />
		<tag k="place" v="farm" />
		<tag k="ssr:stedsnr" v="474908" />
		<tag k="ssr:type" v="bruk" />
	</node>
	<node id="4475753114" lat="58.907061" lon="8.5549542" version="2" timestamp="2018-04-10T18:50:53Z" changeset="57982147" uid="3497659" user="NKA">
		<tag k="name" v="Haugen" />
		<tag k="place" v="farm" />
		<tag k="ssr:stedsnr" v="335002" />
		<tag k="ssr:type" v="eneboligMindreBoligbygg" />
	</node>
	<node id="4475753115" lat="58.8131818" lon="8.4138526" version="4" timestamp="2021-03-17T06:34:39Z" changeset="101162706" uid="3497659" user="NKA">
		<tag k="historic" v="shieling" />
		<tag k="name" v="Haugestøylen" />
		<tag k="place" v="isolated_dwelling" />
		<tag k="ssr:stedsnr" v="99423" />
		<tag k="ssr:type" v="fritidsbolig" />
	</node>
	<node id="4475753116" lat="58.8742415" lon="8.2994415" version="2" timestamp="2018-04-10T18:50:53Z" changeset="57982147" uid="3497659" user="NKA">
		<tag k="name" v="Haugå" />
		<tag k="place" v="farm" />
		<tag k="ssr:stedsnr" v="658094" />
		<tag k="ssr:type" v="bruk" />
	</node>
	<node id="4475753117" lat="58.7425656" lon="8.4455775" version="2" timestamp="2018-04-10T18:50:54Z" changeset="57982147" uid="3497659" user="NKA">
		<tag k="name" v="Havstad" />
		<tag k="place" v="farm" />
		<tag k="ssr:stedsnr" v="31657" />
		<tag k="ssr:type" v="bruk" />
	</node>
	<node id="4475753118" lat="58.8023673" lon="8.5303329" version="2" timestamp="2018-04-10T18:50:54Z" changeset="57982147" uid="3497659" user="NKA">
		<tag k="historic" v="yes" />
		<tag k="name" v="Hefte" />
		<tag k="place" v="locality" />
		<tag k="ssr:stedsnr" v="942454" />
		<tag k="ssr:type" v="stø" />
	</node>
	<node id="4475753119" lat="58.6926472" lon="8.3951663" version="2" timestamp="2018-04-10T18:50:54Z" changeset="57982147" uid="3497659" user="NKA">
		<tag k="historic" v="yes" />
		<tag k="name" v="Heftet" />
		<tag k="place" v="locality" />
		<tag k="ssr:stedsnr" v="31317" />
		<tag k="ssr:type" v="stø" />
	</node>
	<node id="4475753120" lat="58.7233886" lon="8.3859462" version="2" timestamp="2018-04-10T18:50:54Z" changeset="57982147" uid="3497659" user="NKA">
		<tag k="name" v="Heggevollen" />
		<tag k="place" v="farm" />
		<tag k="ssr:stedsnr" v="638290" />
		<tag k="ssr:type" v="eneboligMindreBoligbygg" />
	</node>
	<node id="4475753121" lat="58.7248694" lon="8.3412619" version="2" timestamp="2018-04-10T18:50:54Z" changeset="57982147" uid="3497659" user="NKA">
		<tag k="name" v="Heggland" />
		<tag k="place" v="farm" />
		<tag k="ssr:stedsnr" v="32466" />
		<tag k="ssr:type" v="bruk" />
	</node>
	<node id="4475753122" lat="58.8382168" lon="8.5813731" version="2" timestamp="2018-04-10T18:50:54Z" changeset="57982147" uid="3497659" user="NKA">
		<tag k="name" v="Heimtun" />
		<tag k="place" v="farm" />
		<tag k="ssr:stedsnr" v="729654" />
		<tag k="ssr:type" v="eneboligMindreBoligbygg" />
	</node>
	<node id="4475753123" lat="58.8875402" lon="8.2713814" version="2" timestamp="2018-04-10T18:50:54Z" changeset="57982147" uid="3497659" user="NKA">
		<tag k="name" v="Heimtun" />
		<tag k="place" v="farm" />
		<tag k="ssr:stedsnr" v="780661" />
		<tag k="ssr:type" v="eneboligMindreBoligbygg" />
	</node>
	<node id="4475753124" lat="58.7431918" lon="8.4577247" version="2" timestamp="2018-04-10T18:50:54Z" changeset="57982147" uid="3497659" user="NKA">
		<tag k="name" v="Helset" />
		<tag k="place" v="farm" />
		<tag k="ssr:stedsnr" v="760656" />
		<tag k="ssr:type" v="bruk" />
	</node>
	<node id="4475753125" lat="58.7348581" lon="8.4647127" version="3" timestamp="2021-03-17T06:34:39Z" changeset="101162706" uid="3497659" user="NKA">
		<tag k="name" v="Henkane" />
		<tag k="place" v="isolated_dwelling" />
		<tag k="ssr:stedsnr" v="335685" />
		<tag k="ssr:type" v="gammelBosettingsplass" />
	</node>
	<node id="4475753126" lat="58.7727611" lon="8.0970939" version="2" timestamp="2018-04-10T18:50:55Z" changeset="57982147" uid="3497659" user="NKA">
		<tag k="name" v="Hestkleiv" />
		<tag k="place" v="farm" />
		<tag k="ssr:stedsnr" v="182234" />
		<tag k="ssr:type" v="bruk" />
	</node>
	<node id="4475753127" lat="58.9043209" lon="8.04389" version="3" timestamp="2018-04-28T08:07:06Z" changeset="58497758" uid="3497659" user="NKA">
		<tag k="historic" v="shieling" />
		<tag k="name" v="Heststoglia" />
		<tag k="place" v="locality" />
		<tag k="ssr:stedsnr" v="452365" />
		<tag k="ssr:type" v="seterStøl" />
	</node>
	<node id="4475753128" lat="58.6741475" lon="8.7136592" version="2" timestamp="2018-04-10T18:50:55Z" changeset="57982147" uid="3497659" user="NKA">
		<tag k="name" v="Hestås" />
		<tag k="place" v="farm" />
		<tag k="ssr:stedsnr" v="517507" />
		<tag k="ssr:type" v="bruk" />
	</node>
	<node id="4475753129" lat="58.8178033" lon="8.1937575" version="2" timestamp="2018-04-10T18:50:55Z" changeset="57982147" uid="3497659" user="NKA">
		<tag k="name" v="Hillestadheia" />
		<tag k="place" v="neighbourhood" />
		<tag k="ssr:stedsnr" v="224839" />
		<tag k="ssr:type" v="hyttefelt" />
	</node>
	<node id="4475753130" lat="58.7702396" lon="8.2492835" version="2" timestamp="2018-04-10T18:50:55Z" changeset="57982147" uid="3497659" user="NKA">
		<tag k="name" v="Holte" />
		<tag k="place" v="farm" />
		<tag k="ssr:stedsnr" v="415420" />
		<tag k="ssr:type" v="bruk" />
	</node>
	<node id="4475753131" lat="58.8336397" lon="8.3971107" version="2" timestamp="2018-04-10T18:50:55Z" changeset="57982147" uid="3497659" user="NKA">
		<tag k="name" v="Homdrom" />
		<tag k="place" v="hamlet" />
		<tag k="ssr:stedsnr" v="122148" />
		<tag k="ssr:type" v="bygdelagBygd" />
	</node>
	<node id="4475753132" lat="58.8651923" lon="8.3214407" version="2" timestamp="2018-04-10T18:50:55Z" changeset="57982147" uid="3497659" user="NKA">
		<tag k="name" v="Hommen" />
		<tag k="place" v="farm" />
		<tag k="ssr:stedsnr" v="779111" />
		<tag k="ssr:type" v="bruk" />
	</node>
	<node id="4475753133" lat="58.6869942" lon="8.6517692" version="2" timestamp="2018-04-10T18:50:55Z" changeset="57982147" uid="3497659" user="NKA">
		<tag k="name" v="Hovde" />
		<tag k="place" v="farm" />
		<tag k="ssr:stedsnr" v="62885" />
		<tag k="ssr:type" v="bruk" />
	</node>
	<node id="4475753134" lat="58.6405009" lon="8.7150026" version="2" timestamp="2018-04-10T18:50:55Z" changeset="57982147" uid="3497659" user="NKA">
		<tag k="name" v="Hovet" />
		<tag k="place" v="farm" />
		<tag k="ssr:stedsnr" v="183974" />
		<tag k="ssr:type" v="bruk" />
	</node>
	<node id="4475753135" lat="58.8066815" lon="8.3914649" version="2" timestamp="2018-04-10T18:50:56Z" changeset="57982147" uid="3497659" user="NKA">
		<tag k="name" v="Hunemo" />
		<tag k="place" v="farm" />
		<tag k="ssr:stedsnr" v="607138" />
		<tag k="ssr:type" v="bruk" />
	</node>
	<node id="4475753136" lat="58.669311" lon="8.6376618" version="2" timestamp="2018-04-10T18:50:56Z" changeset="57982147" uid="3497659" user="NKA">
		<tag k="name" v="Hushovd" />
		<tag k="place" v="farm" />
		<tag k="ssr:stedsnr" v="789959" />
		<tag k="ssr:type" v="bruk" />
	</node>
	<node id="4475753137" lat="58.7104814" lon="8.6046359" version="2" timestamp="2018-04-10T18:50:56Z" changeset="57982147" uid="3497659" user="NKA">
		<tag k="name" v="Hytta" />
		<tag k="place" v="farm" />
		<tag k="ssr:stedsnr" v="153584" />
		<tag k="ssr:type" v="eneboligMindreBoligbygg" />
	</node>
	<node id="4475753138" lat="58.87859" lon="8.2097865" version="4" timestamp="2021-03-17T06:34:39Z" changeset="101162706" uid="3497659" user="NKA">
		<tag k="alt_name" v="Hågestøyl" />
		<tag k="historic" v="shieling" />
		<tag k="name" v="Hågstøyl" />
		<tag k="place" v="isolated_dwelling" />
		<tag k="ssr:stedsnr" v="426050" />
		<tag k="ssr:type" v="fritidsbolig" />
	</node>
	<node id="4475753139" lat="58.7547123" lon="8.302943" version="2" timestamp="2018-04-10T18:50:56Z" changeset="57982147" uid="3497659" user="NKA">
		<tag k="name" v="Håkedal" />
		<tag k="place" v="farm" />
		<tag k="ssr:stedsnr" v="486334" />
		<tag k="ssr:type" v="bruk" />
	</node>
	<node id="4475753140" lat="58.690777" lon="8.4389378" version="3" timestamp="2018-04-28T08:07:06Z" changeset="58497758" uid="3497659" user="NKA">
		<tag k="historic" v="shieling" />
		<tag k="name" v="Håstøyl" />
		<tag k="place" v="locality" />
		<tag k="ssr:stedsnr" v="335420" />
		<tag k="ssr:type" v="seterStøl" />
	</node>
	<node id="4475753141" lat="58.7554405" lon="8.0760899" version="2" timestamp="2018-04-10T18:50:57Z" changeset="57982147" uid="3497659" user="NKA">
		<tag k="name" v="Høgeli" />
		<tag k="place" v="farm" />
		<tag k="ssr:stedsnr" v="243855" />
		<tag k="ssr:type" v="bruk" />
	</node>
	<node id="4475753142" lat="58.769133" lon="8.4975886" version="2" timestamp="2018-04-10T18:50:57Z" changeset="57982147" uid="3497659" user="NKA">
		<tag k="name" v="Høgevoll" />
		<tag k="place" v="farm" />
		<tag k="ssr:stedsnr" v="182505" />
		<tag k="ssr:type" v="bruk" />
	</node>
	<node id="4475753143" lat="58.77466" lon="8.4337612" version="2" timestamp="2018-04-10T18:50:57Z" changeset="57982147" uid="3497659" user="NKA">
		<tag k="fixme" v="check position" />
		<tag k="historic" v="ruins" />
		<tag k="name" v="Høydalsbua" />
		<tag k="place" v="locality" />
		<tag k="ssr:stedsnr" v="415888" />
		<tag k="ssr:type" v="gammelBosettingsplass" />
	</node>
	<node id="4475753144" lat="58.6290611" lon="8.7225949" version="2" timestamp="2018-04-10T18:50:57Z" changeset="57982147" uid="3497659" user="NKA">
		<tag k="name" v="Imeland" />
		<tag k="place" v="farm" />
		<tag k="ssr:stedsnr" v="851767" />
		<tag k="ssr:type" v="bruk" />
	</node>
	<node id="4475753145" lat="58.6799102" lon="8.4002672" version="2" timestamp="2018-04-10T18:50:57Z" changeset="57982147" uid="3497659" user="NKA">
		<tag k="fixme" v="check position" />
		<tag k="historic" v="ruins" />
		<tag k="name" v="Ingersplass" />
		<tag k="place" v="locality" />
		<tag k="ssr:stedsnr" v="457229" />
		<tag k="ssr:type" v="gammelBosettingsplass" />
	</node>
	<node id="4475753146" lat="58.7970944" lon="8.2228902" version="2" timestamp="2018-04-10T18:50:57Z" changeset="57982147" uid="3497659" user="NKA">
		<tag k="name" v="Innistog" />
		<tag k="place" v="locality" />
		<tag k="ssr:stedsnr" v="476891" />
		<tag k="ssr:type" v="bruk" />
	</node>
	<node id="4475753147" lat="58.6985695" lon="8.3486217" version="2" timestamp="2018-04-10T18:50:57Z" changeset="57982147" uid="3497659" user="NKA">
		<tag k="name" v="Innjorda" />
		<tag k="place" v="farm" />
		<tag k="ssr:stedsnr" v="1444" />
		<tag k="ssr:type" v="bruk" />
	</node>
	<node id="4475753148" lat="58.8979029" lon="8.2577805" version="2" timestamp="2018-04-10T18:50:57Z" changeset="57982147" uid="3497659" user="NKA">
		<tag k="name" v="Jørundland" />
		<tag k="place" v="hamlet" />
		<tag k="ssr:stedsnr" v="364042" />
		<tag k="ssr:type" v="bruk" />
	</node>
	<node id="4475753149" lat="58.7695016" lon="8.3681423" version="3" timestamp="2021-03-17T06:34:39Z" changeset="101162706" uid="3497659" user="NKA">
		<tag k="name" v="Kallingsheim" />
		<tag k="place" v="isolated_dwelling" />
		<tag k="ssr:stedsnr" v="462146" />
		<tag k="ssr:type" v="gammelBosettingsplass" />
	</node>
	<node id="4475753150" lat="58.6917429" lon="8.621127" version="2" timestamp="2018-04-10T18:50:58Z" changeset="57982147" uid="3497659" user="NKA">
		<tag k="fixme" v="check position" />
		<tag k="historic" v="ruins" />
		<tag k="name" v="Karisbakke" />
		<tag k="place" v="locality" />
		<tag k="ssr:stedsnr" v="881526" />
		<tag k="ssr:type" v="gammelBosettingsplass" />
	</node>
	<node id="4475753151" lat="58.7961124" lon="8.2289828" version="2" timestamp="2018-04-10T18:50:58Z" changeset="57982147" uid="3497659" user="NKA">
		<tag k="name" v="Kasin" />
		<tag k="place" v="farm" />
		<tag k="ssr:stedsnr" v="668151" />
		<tag k="ssr:type" v="bruk" />
	</node>
	<node id="4475753152" lat="58.8453565" lon="8.6588735" version="2" timestamp="2018-04-10T18:50:58Z" changeset="57982147" uid="3497659" user="NKA">
		<tag k="alt_name" v="Katterås" />
		<tag k="name" v="Katerås" />
		<tag k="place" v="farm" />
		<tag k="ssr:stedsnr" v="243732" />
		<tag k="ssr:type" v="bruk" />
	</node>
	<node id="4475753153" lat="58.7302423" lon="8.5392214" version="2" timestamp="2018-04-10T18:50:58Z" changeset="57982147" uid="3497659" user="NKA">
		<tag k="name" v="Kaunberget" />
		<tag k="place" v="farm" />
		<tag k="ssr:stedsnr" v="183095" />
		<tag k="ssr:type" v="bruk" />
	</node>
	<node id="4475753154" lat="58.6854359" lon="8.6763404" version="2" timestamp="2018-04-10T18:50:58Z" changeset="57982147" uid="3497659" user="NKA">
		<tag k="name" v="Kil" />
		<tag k="place" v="farm" />
		<tag k="ssr:stedsnr" v="790900" />
		<tag k="ssr:type" v="bruk" />
	</node>
	<node id="4475753155" lat="58.624155" lon="8.6999427" version="2" timestamp="2018-04-10T18:50:59Z" changeset="57982147" uid="3497659" user="NKA">
		<tag k="name" v="Kiland" />
		<tag k="place" v="farm" />
		<tag k="ssr:stedsnr" v="364774" />
		<tag k="ssr:type" v="bruk" />
	</node>
	<node id="4475753156" lat="58.7040693" lon="8.3250117" version="2" timestamp="2018-04-10T18:50:59Z" changeset="57982147" uid="3497659" user="NKA">
		<tag k="fixme" v="check position" />
		<tag k="historic" v="ruins" />
		<tag k="name" v="Kjorrmoplassen" />
		<tag k="place" v="locality" />
		<tag k="ssr:stedsnr" v="961714" />
		<tag k="ssr:type" v="gammelBosettingsplass" />
	</node>
	<node id="4475753157" lat="58.7128129" lon="8.4238322" version="2" timestamp="2018-04-10T18:50:59Z" changeset="57982147" uid="3497659" user="NKA">
		<tag k="historic" v="yes" />
		<tag k="name" v="Klaffmyrheftet" />
		<tag k="place" v="locality" />
		<tag k="ssr:stedsnr" v="32288" />
		<tag k="ssr:type" v="stø" />
	</node>
	<node id="4475753158" lat="58.6780684" lon="8.7127218" version="2" timestamp="2018-04-10T18:50:59Z" changeset="57982147" uid="3497659" user="NKA">
		<tag k="name" v="Kleiva" />
		<tag k="place" v="farm" />
		<tag k="ssr:stedsnr" v="182903" />
		<tag k="ssr:type" v="eneboligMindreBoligbygg" />
	</node>
	<node id="4475753159" lat="58.7161758" lon="8.4016012" version="2" timestamp="2018-04-10T18:50:59Z" changeset="57982147" uid="3497659" user="NKA">
		<tag k="name" v="Kleiva" />
		<tag k="place" v="farm" />
		<tag k="ssr:stedsnr" v="1492" />
		<tag k="ssr:type" v="gammelBosettingsplass" />
	</node>
	<node id="4475753160" lat="58.7224419" lon="8.3817632" version="2" timestamp="2018-04-10T18:50:59Z" changeset="57982147" uid="3497659" user="NKA">
		<tag k="name" v="Kleiva" />
		<tag k="place" v="farm" />
		<tag k="ssr:stedsnr" v="851450" />
		<tag k="ssr:type" v="eneboligMindreBoligbygg" />
	</node>
	<node id="4475753161" lat="58.6896595" lon="8.6438355" version="2" timestamp="2018-04-10T18:50:59Z" changeset="57982147" uid="3497659" user="NKA">
		<tag k="name" v="Kleivane" />
		<tag k="place" v="farm" />
		<tag k="ssr:stedsnr" v="1881" />
		<tag k="ssr:type" v="bruk" />
	</node>
	<node id="4475753162" lat="58.8289537" lon="8.5991857" version="2" timestamp="2018-04-10T18:50:59Z" changeset="57982147" uid="3497659" user="NKA">
		<tag k="fixme" v="check position" />
		<tag k="historic" v="ruins" />
		<tag k="name" v="Kleivane" />
		<tag k="place" v="locality" />
		<tag k="ssr:stedsnr" v="213492" />
		<tag k="ssr:type" v="gammelBosettingsplass" />
	</node>
	<node id="4475753163" lat="58.8665048" lon="8.3262997" version="2" timestamp="2018-04-10T18:51:00Z" changeset="57982147" uid="3497659" user="NKA">
		<tag k="name" v="Kleivane" />
		<tag k="place" v="farm" />
		<tag k="ssr:stedsnr" v="486084" />
		<tag k="ssr:type" v="bruk" />
	</node>
	<node id="4475753164" lat="58.7344722" lon="8.525546" version="2" timestamp="2018-04-10T18:51:00Z" changeset="57982147" uid="3497659" user="NKA">
		<tag k="name" v="Kløvfjell" />
		<tag k="place" v="farm" />
		<tag k="ssr:stedsnr" v="426109" />
		<tag k="ssr:type" v="bruk" />
	</node>
	<node id="4475753165" lat="58.7132999" lon="8.3590825" version="2" timestamp="2018-04-10T18:51:00Z" changeset="57982147" uid="3497659" user="NKA">
		<tag k="name" v="Kolstad" />
		<tag k="place" v="farm" />
		<tag k="ssr:stedsnr" v="882436" />
		<tag k="ssr:type" v="bruk" />
	</node>
	<node id="4475753166" lat="58.7212096" lon="8.5474064" version="2" timestamp="2018-04-10T18:51:00Z" changeset="57982147" uid="3497659" user="NKA">
		<tag k="name" v="Kongsgård" />
		<tag k="place" v="farm" />
		<tag k="ssr:stedsnr" v="789114" />
		<tag k="ssr:type" v="eneboligMindreBoligbygg" />
	</node>
	<node id="4475753167" lat="58.7367643" lon="8.4612561" version="2" timestamp="2018-04-10T18:51:00Z" changeset="57982147" uid="3497659" user="NKA">
		<tag k="name" v="Kringlebakk" />
		<tag k="place" v="farm" />
		<tag k="ssr:stedsnr" v="153687" />
		<tag k="ssr:type" v="bruk" />
	</node>
	<node id="4475753168" lat="58.927251" lon="8.0684642" version="3" timestamp="2021-03-17T06:34:39Z" changeset="101162706" uid="3497659" user="NKA">
		<tag k="name" v="Krokvasshytta" />
		<tag k="place" v="isolated_dwelling" />
		<tag k="ssr:stedsnr" v="355895" />
		<tag k="ssr:type" v="fritidsbolig" />
	</node>
	<node id="4475753169" lat="58.7717138" lon="8.2501831" version="2" timestamp="2018-04-10T18:51:00Z" changeset="57982147" uid="3497659" user="NKA">
		<tag k="alt_name" v="Kruna" />
		<tag k="name" v="Krona" />
		<tag k="place" v="farm" />
		<tag k="ssr:stedsnr" v="364265" />
		<tag k="ssr:type" v="bruk" />
	</node>
	<node id="4475753170" lat="58.8221074" lon="8.5459715" version="2" timestamp="2018-04-10T18:51:00Z" changeset="57982147" uid="3497659" user="NKA">
		<tag k="name" v="Krossbekk" />
		<tag k="place" v="farm" />
		<tag k="ssr:stedsnr" v="122663" />
		<tag k="ssr:type" v="bruk" />
	</node>
	<node id="4475753171" lat="58.8540232" lon="8.4529449" version="3" timestamp="2021-03-17T06:34:39Z" changeset="101162706" uid="3497659" user="NKA">
		<tag k="name" v="Krossen" />
		<tag k="place" v="isolated_dwelling" />
		<tag k="ssr:stedsnr" v="61110" />
		<tag k="ssr:type" v="fritidsbolig" />
	</node>
	<node id="4475753172" lat="58.8710767" lon="8.3678063" version="3" timestamp="2021-03-17T06:34:39Z" changeset="101162706" uid="3497659" user="NKA">
		<tag k="name" v="Krossvasshytta" />
		<tag k="place" v="isolated_dwelling" />
		<tag k="ssr:stedsnr" v="705473" />
		<tag k="ssr:type" v="fritidsbolig" />
	</node>
	<node id="4475753173" lat="58.8748566" lon="8.3016467" version="2" timestamp="2018-04-10T18:51:01Z" changeset="57982147" uid="3497659" user="NKA">
		<tag k="name" v="Kvernhusbakken" />
		<tag k="place" v="farm" />
		<tag k="ssr:stedsnr" v="365003" />
		<tag k="ssr:type" v="bruk" />
	</node>
	<node id="4475753174" lat="58.8332112" lon="8.4023765" version="2" timestamp="2018-04-10T18:51:01Z" changeset="57982147" uid="3497659" user="NKA">
		<tag k="name" v="Kvienga" />
		<tag k="place" v="farm" />
		<tag k="ssr:stedsnr" v="658557" />
		<tag k="ssr:type" v="bruk" />
	</node>
	<node id="4475753175" lat="58.8400817" lon="8.3048627" version="3" timestamp="2021-03-17T06:34:39Z" changeset="101162706" uid="3497659" user="NKA">
		<tag k="alt_name" v="Tjørnestveit" />
		<tag k="name" v="Kynnestveit" />
		<tag k="place" v="isolated_dwelling" />
		<tag k="ssr:stedsnr" v="547082" />
		<tag k="ssr:type" v="fritidsbolig" />
	</node>
	<node id="4475753176" lat="58.8540071" lon="8.3419574" version="2" timestamp="2018-04-10T18:51:01Z" changeset="57982147" uid="3497659" user="NKA">
		<tag k="name" v="Landbø" />
		<tag k="place" v="farm" />
		<tag k="ssr:stedsnr" v="172733" />
		<tag k="ssr:type" v="bruk" />
	</node>
	<node id="4475753177" lat="58.854388" lon="8.3378118" version="2" timestamp="2018-04-10T18:51:01Z" changeset="57982147" uid="3497659" user="NKA">
		<tag k="name" v="Landbø" />
		<tag k="place" v="farm" />
		<tag k="ssr:stedsnr" v="182108" />
		<tag k="ssr:type" v="bruk" />
	</node>
	<node id="4475753178" lat="58.8535685" lon="8.2978604" version="2" timestamp="2018-04-10T18:51:01Z" changeset="57982147" uid="3497659" user="NKA">
		<tag k="name" v="Landsverk" />
		<tag k="place" v="farm" />
		<tag k="ssr:stedsnr" v="546102" />
		<tag k="ssr:type" v="bruk" />
	</node>
	<node id="4475753179" lat="58.7001968" lon="8.3764852" version="2" timestamp="2018-04-10T18:51:02Z" changeset="57982147" uid="3497659" user="NKA">
		<tag k="name" v="Landsås" />
		<tag k="place" v="farm" />
		<tag k="ssr:stedsnr" v="668465" />
		<tag k="ssr:type" v="bruk" />
	</node>
	<node id="4475753180" lat="58.8740435" lon="8.3051496" version="2" timestamp="2018-04-10T18:51:02Z" changeset="57982147" uid="3497659" user="NKA">
		<tag k="name" v="Langvoll" />
		<tag k="place" v="farm" />
		<tag k="ssr:stedsnr" v="1006" />
		<tag k="ssr:type" v="bruk" />
	</node>
	<node id="4475753181" lat="58.8823244" lon="8.2549496" version="2" timestamp="2018-04-10T18:51:02Z" changeset="57982147" uid="3497659" user="NKA">
		<tag k="name" v="Lauvfok" />
		<tag k="place" v="farm" />
		<tag k="ssr:stedsnr" v="294003" />
		<tag k="ssr:type" v="bruk" />
	</node>
	<node id="4475753182" lat="58.8555077" lon="8.4172287" version="2" timestamp="2018-04-10T18:51:02Z" changeset="57982147" uid="3497659" user="NKA">
		<tag k="name" v="Lauvhommen" />
		<tag k="place" v="locality" />
		<tag k="ssr:stedsnr" v="850128" />
		<tag k="ssr:type" v="fritidsbolig" />
	</node>
	<node id="4475753183" lat="58.8660873" lon="8.5815911" version="2" timestamp="2018-04-10T18:51:02Z" changeset="57982147" uid="3497659" user="NKA">
		<tag k="name" v="Lia" />
		<tag k="place" v="farm" />
		<tag k="ssr:stedsnr" v="304711" />
		<tag k="ssr:type" v="bruk" />
	</node>
	<node id="4475753184" lat="58.7534759" lon="8.5370203" version="2" timestamp="2018-04-10T18:51:02Z" changeset="57982147" uid="3497659" user="NKA">
		<tag k="name" v="Liane" />
		<tag k="place" v="farm" />
		<tag k="ssr:stedsnr" v="304533" />
		<tag k="ssr:type" v="bruk" />
	</node>
	<node id="4475753185" lat="58.7839146" lon="8.2360285" version="2" timestamp="2018-04-10T18:51:02Z" changeset="57982147" uid="3497659" user="NKA">
		<tag k="name" v="Liane" />
		<tag k="place" v="farm" />
		<tag k="ssr:stedsnr" v="61227" />
		<tag k="ssr:type" v="bruk" />
	</node>
	<node id="4475753186" lat="58.8670798" lon="8.5871872" version="2" timestamp="2018-04-10T18:51:02Z" changeset="57982147" uid="3497659" user="NKA">
		<tag k="building" v="cabin" />
		<tag k="name" v="Librakka" />
		<tag k="place" v="isolated_dwelling" />
		<tag k="ssr:stedsnr" v="456169" />
		<tag k="ssr:type" v="fritidsbolig" />
	</node>
	<node id="4475753187" lat="58.7075537" lon="8.6081932" version="2" timestamp="2018-04-10T18:51:02Z" changeset="57982147" uid="3497659" user="NKA">
		<tag k="name" v="Lien" />
		<tag k="place" v="farm" />
		<tag k="ssr:stedsnr" v="396512" />
		<tag k="ssr:type" v="eneboligMindreBoligbygg" />
	</node>
	<node id="4475753188" lat="58.7152412" lon="8.3026357" version="2" timestamp="2018-04-10T18:51:03Z" changeset="57982147" uid="3497659" user="NKA">
		<tag k="name" v="Lille Baas" />
		<tag k="place" v="farm" />
		<tag k="ssr:stedsnr" v="658620" />
		<tag k="ssr:type" v="eneboligMindreBoligbygg" />
	</node>
	<node id="4475753189" lat="58.7016984" lon="8.3561514" version="2" timestamp="2018-04-10T18:51:03Z" changeset="57982147" uid="3497659" user="NKA">
		<tag k="alt_name" v="Hommedal lille" />
		<tag k="name" v="Lille Homedal" />
		<tag k="place" v="farm" />
		<tag k="ssr:stedsnr" v="668469" />
		<tag k="ssr:type" v="bruk" />
	</node>
	<node id="4475753190" lat="58.7756025" lon="8.4969121" version="2" timestamp="2018-04-10T18:51:03Z" changeset="57982147" uid="3497659" user="NKA">
		<tag k="name" v="Lillemo" />
		<tag k="place" v="hamlet" />
		<tag k="ssr:stedsnr" v="637138" />
		<tag k="ssr:type" v="grend" />
	</node>
	<node id="4475753191" lat="58.8573969" lon="8.2934272" version="2" timestamp="2018-04-10T18:51:03Z" changeset="57982147" uid="3497659" user="NKA">
		<tag k="fixme" v="check position" />
		<tag k="historic" v="ruins" />
		<tag k="name" v="Lindestøyl" />
		<tag k="place" v="locality" />
		<tag k="ssr:stedsnr" v="415721" />
		<tag k="ssr:type" v="gammelBosettingsplass" />
	</node>
	<node id="4475753192" lat="58.8025227" lon="8.1825676" version="2" timestamp="2018-04-10T18:51:03Z" changeset="57982147" uid="3497659" user="NKA">
		<tag k="alt_name" v="Lindås" />
		<tag k="name" v="Lindsås" />
		<tag k="place" v="farm" />
		<tag k="ssr:stedsnr" v="850133" />
		<tag k="ssr:type" v="bruk" />
	</node>
	<node id="4475753193" lat="58.8768478" lon="8.2188427" version="3" timestamp="2021-03-17T06:34:39Z" changeset="101162706" uid="3497659" user="NKA">
		<tag k="name" v="Lisletjønnhytta" />
		<tag k="place" v="isolated_dwelling" />
		<tag k="ssr:stedsnr" v="597009" />
		<tag k="ssr:type" v="fritidsbolig" />
	</node>
	<node id="4475753194" lat="58.8272266" lon="8.2421237" version="3" timestamp="2021-03-17T06:34:39Z" changeset="101162706" uid="3497659" user="NKA">
		<tag k="name" v="Listøyl" />
		<tag k="place" v="isolated_dwelling" />
		<tag k="ssr:stedsnr" v="607078" />
		<tag k="ssr:type" v="fritidsbolig" />
	</node>
	<node id="4475753195" lat="58.8648983" lon="8.2012364" version="4" timestamp="2021-03-17T06:34:39Z" changeset="101162706" uid="3497659" user="NKA">
		<tag k="historic" v="shieling" />
		<tag k="name" v="Listøyl" />
		<tag k="place" v="isolated_dwelling" />
		<tag k="ssr:stedsnr" v="183010" />
		<tag k="ssr:type" v="fritidsbolig" />
	</node>
	<node id="4475753196" lat="58.9080075" lon="8.2824452" version="4" timestamp="2021-03-17T06:34:39Z" changeset="101162706" uid="3497659" user="NKA">
		<tag k="historic" v="shieling" />
		<tag k="name" v="Listøyl" />
		<tag k="place" v="isolated_dwelling" />
		<tag k="ssr:stedsnr" v="425983" />
		<tag k="ssr:type" v="fritidsbolig" />
	</node>
	<node id="4475753197" lat="58.7958688" lon="8.226512" version="2" timestamp="2018-04-10T18:51:04Z" changeset="57982147" uid="3497659" user="NKA">
		<tag k="name" v="Livoll" />
		<tag k="place" v="farm" />
		<tag k="ssr:stedsnr" v="961917" />
		<tag k="ssr:type" v="bruk" />
	</node>
	<node id="4475753198" lat="58.8061339" lon="8.331445" version="2" timestamp="2018-04-10T18:51:04Z" changeset="57982147" uid="3497659" user="NKA">
		<tag k="alt_name" v="Ljosdalen" />
		<tag k="building" v="cabin" />
		<tag k="name" v="Ljosdalane" />
		<tag k="place" v="isolated_dwelling" />
		<tag k="ssr:stedsnr" v="850138" />
		<tag k="ssr:type" v="fritidsbolig" />
	</node>
	<node id="4475753199" lat="58.7477676" lon="8.448669" version="2" timestamp="2018-04-10T18:51:04Z" changeset="57982147" uid="3497659" user="NKA">
		<tag k="name" v="Ljosland" />
		<tag k="place" v="farm" />
		<tag k="ssr:stedsnr" v="911396" />
		<tag k="ssr:type" v="eneboligMindreBoligbygg" />
	</node>
	<node id="4475753200" lat="58.7777762" lon="8.5728602" version="2" timestamp="2018-04-10T18:51:04Z" changeset="57982147" uid="3497659" user="NKA">
		<tag k="historic" v="yes" />
		<tag k="name" v="Ljosvassheftet" />
		<tag k="place" v="locality" />
		<tag k="ssr:stedsnr" v="213524" />
		<tag k="ssr:type" v="stø" />
	</node>
	<node id="4475753201" lat="58.8109004" lon="8.2483533" version="3" timestamp="2021-03-17T06:34:39Z" changeset="101162706" uid="3497659" user="NKA">
		<tag k="name" v="Lokkeli" />
		<tag k="place" v="isolated_dwelling" />
		<tag k="ssr:stedsnr" v="244194" />
		<tag k="ssr:type" v="fritidsbolig" />
	</node>
	<node id="4475753202" lat="58.9054729" lon="8.5578409" version="2" timestamp="2018-04-10T18:51:05Z" changeset="57982147" uid="3497659" user="NKA">
		<tag k="name" v="Lund" />
		<tag k="place" v="farm" />
		<tag k="ssr:stedsnr" v="942036" />
		<tag k="ssr:type" v="eneboligMindreBoligbygg" />
	</node>
	<node id="4475753203" lat="58.6882427" lon="8.6989047" version="2" timestamp="2018-04-10T18:51:05Z" changeset="57982147" uid="3497659" user="NKA">
		<tag k="name" v="Lunde" />
		<tag k="place" v="farm" />
		<tag k="ssr:stedsnr" v="214640" />
		<tag k="ssr:type" v="eneboligMindreBoligbygg" />
	</node>
	<node id="4475753204" lat="58.7455477" lon="8.4578176" version="2" timestamp="2018-04-10T18:51:05Z" changeset="57982147" uid="3497659" user="NKA">
		<tag k="name" v="Lunden" />
		<tag k="place" v="farm" />
		<tag k="ssr:stedsnr" v="638636" />
		<tag k="ssr:type" v="bruk" />
	</node>
	<node id="4475753205" lat="58.7863203" lon="8.2356978" version="2" timestamp="2018-04-10T18:51:05Z" changeset="57982147" uid="3497659" user="NKA">
		<tag k="name" v="Lunden" />
		<tag k="place" v="farm" />
		<tag k="ssr:stedsnr" v="243218" />
		<tag k="ssr:type" v="bruk" />
	</node>
	<node id="4475753206" lat="58.6842018" lon="8.4101446" version="2" timestamp="2018-04-10T18:51:05Z" changeset="57982147" uid="3497659" user="NKA">
		<tag k="name" v="Lunderød" />
		<tag k="place" v="farm" />
		<tag k="ssr:stedsnr" v="638222" />
		<tag k="ssr:type" v="eneboligMindreBoligbygg" />
	</node>
	<node id="4475753207" lat="58.6858562" lon="8.4039952" version="2" timestamp="2018-04-10T18:51:05Z" changeset="57982147" uid="3497659" user="NKA">
		<tag k="name" v="Lundevoll" />
		<tag k="place" v="farm" />
		<tag k="ssr:stedsnr" v="32274" />
		<tag k="ssr:type" v="bruk" />
	</node>
	<node id="4475753208" lat="58.7702641" lon="8.4949769" version="2" timestamp="2018-04-10T18:51:05Z" changeset="57982147" uid="3497659" user="NKA">
		<tag k="name" v="Lundevoll" />
		<tag k="place" v="farm" />
		<tag k="ssr:stedsnr" v="577230" />
		<tag k="ssr:type" v="bruk" />
	</node>
	<node id="4475753209" lat="58.8388758" lon="8.3570306" version="2" timestamp="2018-04-10T18:51:05Z" changeset="57982147" uid="3497659" user="NKA">
		<tag k="name" v="Lundvoll" />
		<tag k="place" v="farm" />
		<tag k="ssr:stedsnr" v="463749" />
		<tag k="ssr:type" v="bruk" />
	</node>
	<node id="4475753210" lat="58.8859155" lon="8.5751535" version="2" timestamp="2018-04-10T18:51:05Z" changeset="57982147" uid="3497659" user="NKA">
		<tag k="name" v="Lyngmo" />
		<tag k="place" v="farm" />
		<tag k="ssr:stedsnr" v="31022" />
		<tag k="ssr:type" v="eneboligMindreBoligbygg" />
	</node>
	<node id="4475753211" lat="58.8127121" lon="8.4135979" version="3" timestamp="2018-04-28T08:07:06Z" changeset="58497758" uid="3497659" user="NKA">
		<tag k="historic" v="shieling" />
		<tag k="name" v="Midtstøyl" />
		<tag k="place" v="farm" />
		<tag k="ssr:stedsnr" v="38430" />
		<tag k="ssr:type" v="eneboligMindreBoligbygg" />
	</node>
	<node id="4475753212" lat="58.8440507" lon="8.0914864" version="2" timestamp="2018-04-10T18:51:06Z" changeset="57982147" uid="3497659" user="NKA">
		<tag k="name" v="Mjåland" />
		<tag k="place" v="farm" />
		<tag k="ssr:stedsnr" v="61767" />
		<tag k="ssr:type" v="bruk" />
	</node>
	<node id="4475753213" lat="58.8826787" lon="8.2370153" version="2" timestamp="2018-04-10T18:51:06Z" changeset="57982147" uid="3497659" user="NKA">
		<tag k="name" v="Mjåland" />
		<tag k="place" v="farm" />
		<tag k="ssr:stedsnr" v="426048" />
		<tag k="ssr:type" v="bruk" />
	</node>
	<node id="4475753214" lat="58.7739104" lon="8.4183818" version="3" timestamp="2021-03-17T06:34:39Z" changeset="101162706" uid="3497659" user="NKA">
		<tag k="name" v="Mjåvasstoga" />
		<tag k="place" v="isolated_dwelling" />
		<tag k="ssr:stedsnr" v="961854" />
		<tag k="ssr:type" v="fritidsbolig" />
	</node>
	<node id="4475753215" lat="58.7767265" lon="8.4136563" version="3" timestamp="2021-03-17T06:34:39Z" changeset="101162706" uid="3497659" user="NKA">
		<tag k="name" v="Mjåvasstøyl" />
		<tag k="place" v="isolated_dwelling" />
		<tag k="ssr:stedsnr" v="204" />
		<tag k="ssr:type" v="fritidsbolig" />
	</node>
	<node id="4475753216" lat="58.8601947" lon="8.3231465" version="2" timestamp="2018-04-10T18:51:06Z" changeset="57982147" uid="3497659" user="NKA">
		<tag k="name" v="Mo" />
		<tag k="place" v="farm" />
		<tag k="ssr:stedsnr" v="354696" />
		<tag k="ssr:type" v="bruk" />
	</node>
	<node id="4475753217" lat="58.8032439" lon="8.4424855" version="2" timestamp="2018-04-10T18:51:06Z" changeset="57982147" uid="3497659" user="NKA">
		<tag k="alt_name" v="Moghus" />
		<tag k="historic" v="ruins" />
		<tag k="name" v="Mogghus" />
		<tag k="place" v="locality" />
		<tag k="ssr:stedsnr" v="850152" />
		<tag k="ssr:type" v="fritidsbolig" />
	</node>
	<node id="4475753218" lat="58.6794656" lon="8.3731587" version="2" timestamp="2018-04-10T18:51:06Z" changeset="57982147" uid="3497659" user="NKA">
		<tag k="alt_name" v="Moen" />
		<tag k="name" v="Monen" />
		<tag k="place" v="farm" />
		<tag k="ssr:stedsnr" v="935197" />
		<tag k="ssr:type" v="bruk" />
	</node>
	<node id="4475753219" lat="58.889281" lon="8.5862801" version="2" timestamp="2018-04-10T18:51:06Z" changeset="57982147" uid="3497659" user="NKA">
		<tag k="alt_name" v="Moen" />
		<tag k="name" v="Monen" />
		<tag k="place" v="farm" />
		<tag k="ssr:stedsnr" v="486476" />
		<tag k="ssr:type" v="eneboligMindreBoligbygg" />
	</node>
	<node id="4475753220" lat="58.8894716" lon="8.2645778" version="2" timestamp="2018-04-10T18:51:07Z" changeset="57982147" uid="3497659" user="NKA">
		<tag k="alt_name" v="Mo" />
		<tag k="name" v="Monland" />
		<tag k="place" v="farm" />
		<tag k="ssr:stedsnr" v="365038" />
		<tag k="ssr:type" v="bruk" />
	</node>
	<node id="4475753221" lat="58.6933886" lon="8.7127469" version="2" timestamp="2018-04-10T18:51:07Z" changeset="57982147" uid="3497659" user="NKA">
		<tag k="name" v="Mosberg" />
		<tag k="place" v="farm" />
		<tag k="ssr:stedsnr" v="607890" />
		<tag k="ssr:type" v="bruk" />
	</node>
	<node id="4475753222" lat="58.6708908" lon="8.5585475" version="3" timestamp="2021-03-17T06:34:39Z" changeset="101162706" uid="3497659" user="NKA">
		<tag k="name" v="Mosberglia" />
		<tag k="place" v="isolated_dwelling" />
		<tag k="ssr:stedsnr" v="607906" />
		<tag k="ssr:type" v="fritidsbolig" />
	</node>
	<node id="4475753223" lat="58.8615523" lon="8.3261129" version="2" timestamp="2018-04-10T18:51:07Z" changeset="57982147" uid="3497659" user="NKA">
		<tag k="name" v="Mosdøl" />
		<tag k="place" v="farm" />
		<tag k="ssr:stedsnr" v="961696" />
		<tag k="ssr:type" v="bruk" />
	</node>
	<node id="4475753224" lat="58.6740074" lon="8.574473" version="3" timestamp="2021-03-17T06:34:39Z" changeset="101162706" uid="3497659" user="NKA">
		<tag k="name" v="Mosli" />
		<tag k="place" v="isolated_dwelling" />
		<tag k="ssr:stedsnr" v="517671" />
		<tag k="ssr:type" v="fritidsbolig" />
	</node>
	<node id="4475753225" lat="58.8845725" lon="8.3980085" version="2" timestamp="2018-04-10T18:51:07Z" changeset="57982147" uid="3497659" user="NKA">
		<tag k="building" v="cabin" />
		<tag k="name" v="Mostakk" />
		<tag k="place" v="isolated_dwelling" />
		<tag k="ssr:stedsnr" v="911022" />
		<tag k="ssr:type" v="fritidsbolig" />
	</node>
	<node id="4475753226" lat="58.8603782" lon="8.3241673" version="2" timestamp="2018-04-10T18:51:07Z" changeset="57982147" uid="3497659" user="NKA">
		<tag k="name" v="Mosvald" />
		<tag k="place" v="hamlet" />
		<tag k="ssr:stedsnr" v="632358" />
		<tag k="ssr:type" v="grend" />
	</node>
	<node id="4475753227" lat="58.8261087" lon="8.5974022" version="2" timestamp="2018-04-10T18:51:08Z" changeset="57982147" uid="3497659" user="NKA">
		<tag k="fixme" v="check position" />
		<tag k="historic" v="ruins" />
		<tag k="name" v="Mylbakk" />
		<tag k="place" v="locality" />
		<tag k="ssr:stedsnr" v="395470" />
		<tag k="ssr:type" v="gammelBosettingsplass" />
	</node>
	<node id="4475753228" lat="58.6886566" lon="8.6907652" version="2" timestamp="2018-04-10T18:51:08Z" changeset="57982147" uid="3497659" user="NKA">
		<tag k="name" v="Myrane" />
		<tag k="place" v="farm" />
		<tag k="ssr:stedsnr" v="577622" />
		<tag k="ssr:type" v="eneboligMindreBoligbygg" />
	</node>
	<node id="4475753229" lat="58.8995375" lon="8.5656527" version="2" timestamp="2018-04-10T18:51:08Z" changeset="57982147" uid="3497659" user="NKA">
		<tag k="name" v="Myrane" />
		<tag k="place" v="farm" />
		<tag k="ssr:stedsnr" v="183418" />
		<tag k="ssr:type" v="eneboligMindreBoligbygg" />
	</node>
	<node id="4475753230" lat="58.6538382" lon="8.3975498" version="2" timestamp="2018-04-10T18:51:08Z" changeset="57982147" uid="3497659" user="NKA">
		<tag k="name" v="Myre" />
		<tag k="place" v="farm" />
		<tag k="ssr:stedsnr" v="122278" />
		<tag k="ssr:type" v="eneboligMindreBoligbygg" />
	</node>
	<node id="4475753231" lat="58.6701714" lon="8.7086002" version="2" timestamp="2018-04-10T18:51:08Z" changeset="57982147" uid="3497659" user="NKA">
		<tag k="name" v="Myrli" />
		<tag k="place" v="farm" />
		<tag k="ssr:stedsnr" v="243964" />
		<tag k="ssr:type" v="bruk" />
	</node>
	<node id="4475753232" lat="58.6880217" lon="8.6385155" version="2" timestamp="2018-04-10T18:51:08Z" changeset="57982147" uid="3497659" user="NKA">
		<tag k="name" v="Myrvang" />
		<tag k="place" v="farm" />
		<tag k="ssr:stedsnr" v="1882" />
		<tag k="ssr:type" v="bruk" />
	</node>
	<node id="4475753233" lat="58.7889807" lon="8.2348602" version="2" timestamp="2018-04-10T18:51:08Z" changeset="57982147" uid="3497659" user="NKA">
		<tag k="name" v="Myrvang" />
		<tag k="place" v="farm" />
		<tag k="ssr:stedsnr" v="607244" />
		<tag k="ssr:type" v="bruk" />
	</node>
	<node id="4475753234" lat="58.7921003" lon="8.1426739" version="3" timestamp="2018-04-28T08:07:06Z" changeset="58497758" uid="3497659" user="NKA">
		<tag k="historic" v="shieling" />
		<tag k="name" v="Mågestøyl" />
		<tag k="place" v="locality" />
		<tag k="ssr:stedsnr" v="546148" />
		<tag k="ssr:type" v="seterStøl" />
	</node>
	<node id="4475753235" lat="58.7242605" lon="8.5508862" version="2" timestamp="2018-04-10T18:51:09Z" changeset="57982147" uid="3497659" user="NKA">
		<tag k="name" v="Måmoen" />
		<tag k="place" v="farm" />
		<tag k="ssr:stedsnr" v="61109" />
		<tag k="ssr:type" v="bruk" />
	</node>
	<node id="4475753236" lat="58.8997334" lon="8.3231071" version="4" timestamp="2021-03-17T06:34:39Z" changeset="101162706" uid="3497659" user="NKA">
		<tag k="historic" v="shieling" />
		<tag k="name" v="Måvasstøyl" />
		<tag k="place" v="isolated_dwelling" />
		<tag k="ssr:stedsnr" v="243028" />
		<tag k="ssr:type" v="fritidsbolig" />
	</node>
	<node id="4475753237" lat="58.762286" lon="8.5308343" version="2" timestamp="2018-04-10T18:51:09Z" changeset="57982147" uid="3497659" user="NKA">
		<tag k="name" v="Mørland" />
		<tag k="place" v="farm" />
		<tag k="ssr:stedsnr" v="577245" />
		<tag k="ssr:type" v="bruk" />
	</node>
	<node id="4475753238" lat="58.7606115" lon="8.3849528" version="3" timestamp="2021-03-17T06:34:39Z" changeset="101162706" uid="3497659" user="NKA">
		<tag k="name" v="Napen" />
		<tag k="place" v="isolated_dwelling" />
		<tag k="ssr:stedsnr" v="911313" />
		<tag k="ssr:type" v="fritidsbolig" />
	</node>
	<node id="4475753239" lat="58.87761" lon="8.3320339" version="3" timestamp="2021-03-17T06:34:39Z" changeset="101162706" uid="3497659" user="NKA">
		<tag k="name" v="Napestua" />
		<tag k="place" v="isolated_dwelling" />
		<tag k="ssr:stedsnr" v="354141" />
		<tag k="ssr:type" v="fritidsbolig" />
	</node>
	<node id="4475753240" lat="58.8535292" lon="8.1682209" version="3" timestamp="2021-03-17T06:34:39Z" changeset="101162706" uid="3497659" user="NKA">
		<tag k="name" v="Nasestøyl" />
		<tag k="place" v="isolated_dwelling" />
		<tag k="ssr:stedsnr" v="668086" />
		<tag k="ssr:type" v="fritidsbolig" />
	</node>
	<node id="4475753241" lat="58.8755294" lon="8.2227519" version="3" timestamp="2021-03-17T06:34:39Z" changeset="101162706" uid="3497659" user="NKA">
		<tag k="name" v="Nattebu" />
		<tag k="place" v="isolated_dwelling" />
		<tag k="ssr:stedsnr" v="416032" />
		<tag k="ssr:type" v="fritidsbolig" />
	</node>
	<node id="4475753242" lat="58.749975" lon="8.323743" version="3" timestamp="2021-03-17T06:34:39Z" changeset="101162706" uid="3497659" user="NKA">
		<tag k="name" v="Nauthom" />
		<tag k="place" v="isolated_dwelling" />
		<tag k="ssr:stedsnr" v="486312" />
		<tag k="ssr:type" v="fritidsbolig" />
	</node>
	<node id="4475753243" lat="58.8240449" lon="8.6443202" version="3" timestamp="2021-03-17T06:34:39Z" changeset="101162706" uid="3497659" user="NKA">
		<tag k="alt_name" v="Haukedalen" />
		<tag k="name" v="Nedre Haukedalen" />
		<tag k="place" v="isolated_dwelling" />
		<tag k="ssr:stedsnr" v="183669" />
		<tag k="ssr:type" v="fritidsbolig" />
	</node>
	<node id="4475753244" lat="58.8533062" lon="8.5319549" version="3" timestamp="2018-04-28T08:07:07Z" changeset="58497758" uid="3497659" user="NKA">
		<tag k="historic" v="shieling" />
		<tag k="name" v="Nedre Helleren" />
		<tag k="place" v="locality" />
		<tag k="ssr:stedsnr" v="577049" />
		<tag k="ssr:type" v="seterStøl" />
	</node>
	<node id="4475753245" lat="58.8330201" lon="8.1045672" version="2" timestamp="2018-04-10T18:51:10Z" changeset="57982147" uid="3497659" user="NKA">
		<tag k="alt_name" v="Moen nedre;Moen" />
		<tag k="name" v="Nedre Moen" />
		<tag k="place" v="farm" />
		<tag k="ssr:stedsnr" v="183063" />
		<tag k="ssr:type" v="bruk" />
	</node>
	<node id="4475753246" lat="58.7528167" lon="8.1254209" version="2" timestamp="2018-04-10T18:51:10Z" changeset="57982147" uid="3497659" user="NKA">
		<tag k="alt_name" v="Skjeggedal" />
		<tag k="name" v="Nedre Skjeggedal" />
		<tag k="place" v="hamlet" />
		<tag k="ssr:stedsnr" v="607227" />
		<tag k="ssr:type" v="bruk" />
	</node>
	<node id="4475753247" lat="58.8820852" lon="8.2843916" version="2" timestamp="2018-04-10T18:51:11Z" changeset="57982147" uid="3497659" user="NKA">
		<tag k="alt_name" v="Årli nedre;Årli" />
		<tag k="name" v="Nedre Årli" />
		<tag k="place" v="farm" />
		<tag k="ssr:stedsnr" v="668047" />
		<tag k="ssr:type" v="bruk" />
	</node>
	<node id="4475753248" lat="58.8392652" lon="8.3599566" version="2" timestamp="2018-04-10T18:51:11Z" changeset="57982147" uid="3497659" user="NKA">
		<tag k="name" v="Negard" />
		<tag k="place" v="farm" />
		<tag k="ssr:stedsnr" v="426092" />
		<tag k="ssr:type" v="bruk" />
	</node>
	<node id="4475753249" lat="58.8421235" lon="8.1001148" version="2" timestamp="2018-04-10T18:51:11Z" changeset="57982147" uid="3497659" user="NKA">
		<tag k="name" v="Negard" />
		<tag k="place" v="farm" />
		<tag k="ssr:stedsnr" v="425099" />
		<tag k="ssr:type" v="bruk" />
	</node>
	<node id="4475753250" lat="58.7691324" lon="8.4910045" version="2" timestamp="2018-04-10T18:51:11Z" changeset="57982147" uid="3497659" user="NKA">
		<tag k="name" v="Nergarden" />
		<tag k="place" v="farm" />
		<tag k="ssr:stedsnr" v="638193" />
		<tag k="ssr:type" v="bruk" />
	</node>
	<node id="4475753251" lat="58.8431114" lon="8.5685689" version="2" timestamp="2018-04-10T18:51:11Z" changeset="57982147" uid="3497659" user="NKA">
		<tag k="name" v="Neset" />
		<tag k="place" v="farm" />
		<tag k="ssr:stedsnr" v="426647" />
		<tag k="ssr:type" v="bruk" />
	</node>
	<node id="4475753252" lat="58.8025335" lon="8.240352" version="3" timestamp="2021-03-17T06:34:39Z" changeset="101162706" uid="3497659" user="NKA">
		<tag k="alt_name" v="Næverborg" />
		<tag k="name" v="Nevreborg" />
		<tag k="place" v="isolated_dwelling" />
		<tag k="ssr:stedsnr" v="668136" />
		<tag k="ssr:type" v="fritidsbolig" />
	</node>
	<node id="4475753253" lat="58.7149929" lon="8.4613756" version="2" timestamp="2018-04-10T18:51:11Z" changeset="57982147" uid="3497659" user="NKA">
		<tag k="name" v="Nordli" />
		<tag k="place" v="farm" />
		<tag k="ssr:stedsnr" v="547517" />
		<tag k="ssr:type" v="eneboligMindreBoligbygg" />
	</node>
	<node id="4475753254" lat="58.8452611" lon="8.5692974" version="2" timestamp="2018-04-10T18:51:11Z" changeset="57982147" uid="3497659" user="NKA">
		<tag k="historic" v="ruins" />
		<tag k="name" v="Nordli" />
		<tag k="place" v="locality" />
		<tag k="ssr:stedsnr" v="517056" />
		<tag k="ssr:type" v="fritidsbolig" />
	</node>
	<node id="4475753255" lat="58.8446932" lon="8.0996861" version="2" timestamp="2018-04-10T18:51:11Z" changeset="57982147" uid="3497659" user="NKA">
		<tag k="name" v="Nordstog" />
		<tag k="place" v="farm" />
		<tag k="ssr:stedsnr" v="115" />
		<tag k="ssr:type" v="bruk" />
	</node>
	<node id="4475753256" lat="58.8660602" lon="8.1825481" version="4" timestamp="2021-03-17T06:34:39Z" changeset="101162706" uid="3497659" user="NKA">
		<tag k="historic" v="shieling" />
		<tag k="name" v="Nosstøyl" />
		<tag k="place" v="isolated_dwelling" />
		<tag k="ssr:stedsnr" v="851025" />
		<tag k="ssr:type" v="fritidsbolig" />
	</node>
	<node id="4475753257" lat="58.7663382" lon="8.2585425" version="2" timestamp="2018-04-10T18:51:12Z" changeset="57982147" uid="3497659" user="NKA">
		<tag k="alt_name" v="Nygard" />
		<tag k="name" v="Nygård" />
		<tag k="place" v="farm" />
		<tag k="ssr:stedsnr" v="426204" />
		<tag k="ssr:type" v="bruk" />
	</node>
	<node id="4475753258" lat="58.65888" lon="8.6731934" version="2" timestamp="2018-04-10T18:51:12Z" changeset="57982147" uid="3497659" user="NKA">
		<tag k="alt_name" v="Nygardsholta" />
		<tag k="name" v="Nygårdsholta" />
		<tag k="place" v="farm" />
		<tag k="ssr:stedsnr" v="304933" />
		<tag k="ssr:type" v="bruk" />
	</node>
	<node id="4475753259" lat="58.6924229" lon="8.7058855" version="2" timestamp="2018-04-10T18:51:12Z" changeset="57982147" uid="3497659" user="NKA">
		<tag k="name" v="Nylund" />
		<tag k="place" v="farm" />
		<tag k="ssr:stedsnr" v="62898" />
		<tag k="ssr:type" v="bruk" />
	</node>
	<node id="4475753260" lat="58.7428607" lon="8.2160129" version="3" timestamp="2018-04-28T08:07:07Z" changeset="58497758" uid="3497659" user="NKA">
		<tag k="historic" v="shieling" />
		<tag k="name" v="Nystøyl" />
		<tag k="place" v="locality" />
		<tag k="ssr:stedsnr" v="385" />
		<tag k="ssr:type" v="seterStøl" />
	</node>
	<node id="4475753261" lat="58.8433732" lon="8.547248" version="3" timestamp="2018-04-28T08:07:07Z" changeset="58497758" uid="3497659" user="NKA">
		<tag k="historic" v="shieling" />
		<tag k="name" v="Nystøyl" />
		<tag k="place" v="locality" />
		<tag k="ssr:stedsnr" v="759439" />
		<tag k="ssr:type" v="seterStøl" />
	</node>
	<node id="4475753262" lat="58.6963828" lon="8.5849605" version="2" timestamp="2018-04-10T18:51:12Z" changeset="57982147" uid="3497659" user="NKA">
		<tag k="name" v="Odden" />
		<tag k="place" v="farm" />
		<tag k="ssr:stedsnr" v="547907" />
		<tag k="ssr:type" v="bruk" />
	</node>
	<node id="4475753263" lat="58.8387188" lon="8.3591604" version="2" timestamp="2018-04-10T18:51:12Z" changeset="57982147" uid="3497659" user="NKA">
		<tag k="name" v="Oland" />
		<tag k="place" v="hamlet" />
		<tag k="ssr:stedsnr" v="426090" />
		<tag k="ssr:type" v="bruk" />
	</node>
	<node id="4475753264" lat="58.8126226" lon="8.5210189" version="2" timestamp="2018-04-10T18:51:13Z" changeset="57982147" uid="3497659" user="NKA">
		<tag k="name" v="Olstad" />
		<tag k="place" v="farm" />
		<tag k="ssr:stedsnr" v="729682" />
		<tag k="ssr:type" v="bruk" />
	</node>
	<node id="4475753265" lat="58.8366174" lon="8.3956602" version="3" timestamp="2021-03-17T06:34:39Z" changeset="101162706" uid="3497659" user="NKA">
		<tag k="name" v="Opp-på Øygardane" />
		<tag k="place" v="isolated_dwelling" />
		<tag k="ssr:stedsnr" v="766549" />
		<tag k="ssr:type" v="fritidsbolig" />
	</node>
	<node id="4475753266" lat="58.8333895" lon="8.3989573" version="2" timestamp="2018-04-10T18:51:13Z" changeset="57982147" uid="3497659" user="NKA">
		<tag k="name" v="Oppigard" />
		<tag k="place" v="farm" />
		<tag k="ssr:stedsnr" v="99576" />
		<tag k="ssr:type" v="bruk" />
	</node>
	<node id="4475753267" lat="58.8466677" lon="8.0977599" version="2" timestamp="2018-04-10T18:51:13Z" changeset="57982147" uid="3497659" user="NKA">
		<tag k="name" v="Oppigard" />
		<tag k="place" v="farm" />
		<tag k="ssr:stedsnr" v="911111" />
		<tag k="ssr:type" v="bruk" />
	</node>
	<node id="4475753268" lat="58.881342" lon="8.235939" version="2" timestamp="2018-04-10T18:51:13Z" changeset="57982147" uid="3497659" user="NKA">
		<tag k="name" v="Oppigard" />
		<tag k="place" v="farm" />
		<tag k="ssr:stedsnr" v="851054" />
		<tag k="ssr:type" v="bruk" />
	</node>
	<node id="4475753269" lat="58.7973927" lon="8.2203073" version="2" timestamp="2018-04-10T18:51:13Z" changeset="57982147" uid="3497659" user="NKA">
		<tag k="name" v="Oppistog" />
		<tag k="place" v="farm" />
		<tag k="ssr:stedsnr" v="911133" />
		<tag k="ssr:type" v="bruk" />
	</node>
	<node id="4475753270" lat="58.6657792" lon="8.4099684" version="2" timestamp="2018-04-10T18:51:13Z" changeset="57982147" uid="3497659" user="NKA">
		<tag k="fixme" v="check position" />
		<tag k="historic" v="ruins" />
		<tag k="name" v="Oppsal" />
		<tag k="place" v="locality" />
		<tag k="ssr:stedsnr" v="881315" />
		<tag k="ssr:type" v="gammelBosettingsplass" />
	</node>
	<node id="4475753271" lat="58.6755477" lon="8.4180976" version="2" timestamp="2018-04-10T18:51:13Z" changeset="57982147" uid="3497659" user="NKA">
		<tag k="fixme" v="check position" />
		<tag k="historic" v="ruins" />
		<tag k="name" v="Oppstad" />
		<tag k="place" v="locality" />
		<tag k="ssr:stedsnr" v="335249" />
		<tag k="ssr:type" v="gammelBosettingsplass" />
	</node>
	<node id="4475753272" lat="58.8487099" lon="8.2411282" version="3" timestamp="2021-03-17T06:34:39Z" changeset="101162706" uid="3497659" user="NKA">
		<tag k="name" v="Osli" />
		<tag k="place" v="isolated_dwelling" />
		<tag k="ssr:stedsnr" v="911117" />
		<tag k="ssr:type" v="fritidsbolig" />
	</node>
	<node id="4475753273" lat="58.6446167" lon="8.7142446" version="2" timestamp="2018-04-10T18:51:14Z" changeset="57982147" uid="3497659" user="NKA">
		<tag k="fixme" v="check position" />
		<tag k="historic" v="ruins" />
		<tag k="name" v="Ospelundsplass" />
		<tag k="place" v="locality" />
		<tag k="ssr:stedsnr" v="821609" />
		<tag k="ssr:type" v="gammelBosettingsplass" />
	</node>
	<node id="4475753274" lat="58.7364156" lon="8.5310946" version="2" timestamp="2018-04-10T18:51:14Z" changeset="57982147" uid="3497659" user="NKA">
		<tag k="fixme" v="check position" />
		<tag k="historic" v="ruins" />
		<tag k="name" v="Plassen" />
		<tag k="place" v="locality" />
		<tag k="ssr:stedsnr" v="274727" />
		<tag k="ssr:type" v="gammelBosettingsplass" />
	</node>
	<node id="4475753275" lat="58.7794204" lon="8.4121969" version="2" timestamp="2018-04-10T18:51:14Z" changeset="57982147" uid="3497659" user="NKA">
		<tag k="fixme" v="check position" />
		<tag k="historic" v="ruins" />
		<tag k="name" v="Plassen" />
		<tag k="place" v="locality" />
		<tag k="ssr:stedsnr" v="719097" />
		<tag k="ssr:type" v="gammelBosettingsplass" />
	</node>
	<node id="4475753276" lat="58.8089832" lon="8.1742834" version="3" timestamp="2021-03-17T06:34:39Z" changeset="101162706" uid="3497659" user="NKA">
		<tag k="name" v="Plassen" />
		<tag k="place" v="isolated_dwelling" />
		<tag k="ssr:stedsnr" v="244183" />
		<tag k="ssr:type" v="fritidsbolig" />
	</node>
	<node id="4475753277" lat="58.8471637" lon="8.1000099" version="2" timestamp="2018-04-10T18:51:14Z" changeset="57982147" uid="3497659" user="NKA">
		<tag k="building" v="cabin" />
		<tag k="name" v="Plassen" />
		<tag k="place" v="isolated_dwelling" />
		<tag k="ssr:stedsnr" v="353110" />
		<tag k="ssr:type" v="fritidsbolig" />
	</node>
	<node id="4475753278" lat="58.863603" lon="8.5776537" version="2" timestamp="2018-04-10T18:51:14Z" changeset="57982147" uid="3497659" user="NKA">
		<tag k="name" v="Plassen" />
		<tag k="place" v="locality" />
		<tag k="ssr:stedsnr" v="31152" />
		<tag k="ssr:type" v="gammelBosettingsplass" />
	</node>
	<node id="4475753279" lat="58.6904263" lon="8.7019145" version="2" timestamp="2018-04-10T18:51:15Z" changeset="57982147" uid="3497659" user="NKA">
		<tag k="name" v="Porsli" />
		<tag k="place" v="farm" />
		<tag k="ssr:stedsnr" v="335558" />
		<tag k="ssr:type" v="bruk" />
	</node>
	<node id="4475753280" lat="58.7671912" lon="8.4946408" version="2" timestamp="2018-04-10T18:51:15Z" changeset="57982147" uid="3497659" user="NKA">
		<tag k="name" v="Prestegarden" />
		<tag k="place" v="farm" />
		<tag k="ssr:stedsnr" v="274708" />
		<tag k="ssr:type" v="bruk" />
	</node>
	<node id="4475753281" lat="58.6872419" lon="8.3679377" version="2" timestamp="2018-04-10T18:51:15Z" changeset="57982147" uid="3497659" user="NKA">
		<tag k="fixme" v="check position" />
		<tag k="historic" v="ruins" />
		<tag k="name" v="Presteholet" />
		<tag k="place" v="locality" />
		<tag k="ssr:stedsnr" v="638258" />
		<tag k="ssr:type" v="gammelBosettingsplass" />
	</node>
	<node id="4475753282" lat="58.9243439" lon="8.2584904" version="3" timestamp="2018-04-28T08:07:07Z" changeset="58497758" uid="3497659" user="NKA">
		<tag k="historic" v="shieling" />
		<tag k="name" v="Ramsestøyl" />
		<tag k="place" v="locality" />
		<tag k="ssr:stedsnr" v="719280" />
		<tag k="ssr:type" v="seterStøl" />
	</node>
	<node id="4475753283" lat="58.8496669" lon="8.5776863" version="3" timestamp="2021-03-17T06:34:39Z" changeset="101162706" uid="3497659" user="NKA">
		<tag k="name" v="Raudåna" />
		<tag k="place" v="isolated_dwelling" />
		<tag k="ssr:stedsnr" v="449171" />
		<tag k="ssr:type" v="fritidsbolig" />
	</node>
	<node id="4475753284" lat="58.741684" lon="8.5237375" version="3" timestamp="2021-03-17T06:34:39Z" changeset="101162706" uid="3497659" user="NKA">
		<tag k="name" v="Reklia" />
		<tag k="place" v="isolated_dwelling" />
		<tag k="ssr:stedsnr" v="244024" />
		<tag k="ssr:type" v="fritidsbolig" />
	</node>
	<node id="4475753285" lat="58.7647457" lon="8.4880732" version="2" timestamp="2018-04-10T18:51:15Z" changeset="57982147" uid="3497659" user="NKA">
		<tag k="alt_name" v="Risland" />
		<tag k="name" v="Riisland" />
		<tag k="place" v="farm" />
		<tag k="ssr:stedsnr" v="668526" />
		<tag k="ssr:type" v="bruk" />
	</node>
	<node id="4475753286" lat="58.9457268" lon="8.2003818" version="2" timestamp="2018-04-10T18:51:16Z" changeset="57982147" uid="3497659" user="NKA">
		<tag k="name" v="Rindebakk" />
		<tag k="place" v="farm" />
		<tag k="ssr:stedsnr" v="486961" />
		<tag k="ssr:type" v="bruk" />
	</node>
	<node id="4475753287" lat="58.7703746" lon="8.6296894" version="2" timestamp="2018-04-10T18:51:16Z" changeset="57982147" uid="3497659" user="NKA">
		<tag k="fixme" v="check position" />
		<tag k="historic" v="ruins" />
		<tag k="name" v="Risdalen" />
		<tag k="place" v="locality" />
		<tag k="ssr:stedsnr" v="759016" />
		<tag k="ssr:type" v="gammelBosettingsplass" />
	</node>
	<node id="4475753288" lat="58.7117586" lon="8.3681188" version="2" timestamp="2018-04-10T18:51:16Z" changeset="57982147" uid="3497659" user="NKA">
		<tag k="name" v="Rostveit" />
		<tag k="place" v="farm" />
		<tag k="ssr:stedsnr" v="183435" />
		<tag k="ssr:type" v="bruk" />
	</node>
	<node id="4475753289" lat="58.715129" lon="8.3665886" version="2" timestamp="2018-04-10T18:51:16Z" changeset="57982147" uid="3497659" user="NKA">
		<tag k="name" v="Rostveitplassen" />
		<tag k="place" v="farm" />
		<tag k="ssr:stedsnr" v="911484" />
		<tag k="ssr:type" v="bruk" />
	</node>
	<node id="4475753290" lat="58.6401651" lon="8.7105098" version="2" timestamp="2018-04-10T18:51:16Z" changeset="57982147" uid="3497659" user="NKA">
		<tag k="name" v="Rundehaug" />
		<tag k="place" v="farm" />
		<tag k="ssr:stedsnr" v="760619" />
		<tag k="ssr:type" v="bruk" />
	</node>
	<node id="4475753291" lat="58.8620388" lon="8.3247103" version="2" timestamp="2018-04-10T18:51:16Z" changeset="57982147" uid="3497659" user="NKA">
		<tag k="name" v="Rydland" />
		<tag k="place" v="farm" />
		<tag k="ssr:stedsnr" v="901684" />
		<tag k="ssr:type" v="bruk" />
	</node>
	<node id="4475753292" lat="58.9070047" lon="8.3987866" version="3" timestamp="2021-03-17T06:34:39Z" changeset="101162706" uid="3497659" user="NKA">
		<tag k="name" v="Røykstoga" />
		<tag k="place" v="isolated_dwelling" />
		<tag k="ssr:stedsnr" v="426985" />
		<tag k="ssr:type" v="fritidsbolig" />
	</node>
	<node id="4475753293" lat="58.8908112" lon="8.5583715" version="3" timestamp="2021-03-17T06:34:39Z" changeset="101162706" uid="3497659" user="NKA">
		<tag k="name" v="Sagmo" />
		<tag k="place" v="isolated_dwelling" />
		<tag k="ssr:stedsnr" v="517025" />
		<tag k="ssr:type" v="fritidsbolig" />
	</node>
	<node id="4475753294" lat="58.7146012" lon="8.3525998" version="2" timestamp="2018-04-10T18:51:17Z" changeset="57982147" uid="3497659" user="NKA">
		<tag k="name" v="Sandhaug" />
		<tag k="place" v="farm" />
		<tag k="ssr:stedsnr" v="93429" />
		<tag k="ssr:type" v="bruk" />
	</node>
	<node id="4475753295" lat="58.6665359" lon="8.7345122" version="2" timestamp="2018-04-10T18:51:17Z" changeset="57982147" uid="3497659" user="NKA">
		<tag k="name" v="Sandland" />
		<tag k="place" v="farm" />
		<tag k="ssr:stedsnr" v="954945" />
		<tag k="ssr:type" v="bruk" />
	</node>
	<node id="4475753296" lat="58.8020368" lon="8.419401" version="2" timestamp="2018-04-10T18:51:17Z" changeset="57982147" uid="3497659" user="NKA">
		<tag k="name" v="Sandnes" />
		<tag k="place" v="farm" />
		<tag k="ssr:stedsnr" v="182134" />
		<tag k="ssr:type" v="bruk" />
	</node>
	<node id="4475753297" lat="58.9048873" lon="8.1967059" version="4" timestamp="2021-03-17T06:34:39Z" changeset="101162706" uid="3497659" user="NKA">
		<tag k="historic" v="shieling" />
		<tag k="name" v="Sandvasstøyl" />
		<tag k="place" v="isolated_dwelling" />
		<tag k="ssr:stedsnr" v="729972" />
		<tag k="ssr:type" v="fritidsbolig" />
	</node>
	<node id="4475753298" lat="58.8450452" lon="8.5733384" version="2" timestamp="2018-04-10T18:51:17Z" changeset="57982147" uid="3497659" user="NKA">
		<tag k="name" v="Sandå" />
		<tag k="place" v="farm" />
		<tag k="ssr:stedsnr" v="874186" />
		<tag k="ssr:type" v="eneboligMindreBoligbygg" />
	</node>
	<node id="4475753299" lat="58.723387" lon="8.3319853" version="2" timestamp="2018-04-10T18:51:17Z" changeset="57982147" uid="3497659" user="NKA">
		<tag k="name" v="Selberg" />
		<tag k="place" v="farm" />
		<tag k="ssr:stedsnr" v="547511" />
		<tag k="ssr:type" v="eneboligMindreBoligbygg" />
	</node>
	<node id="4475753300" lat="58.8093203" lon="8.5359141" version="2" timestamp="2018-04-10T18:51:17Z" changeset="57982147" uid="3497659" user="NKA">
		<tag k="name" v="Seljås" />
		<tag k="place" v="farm" />
		<tag k="ssr:stedsnr" v="183655" />
		<tag k="ssr:type" v="bruk" />
	</node>
	<node id="4475753301" lat="58.8599503" lon="8.3258868" version="2" timestamp="2018-04-10T18:51:18Z" changeset="57982147" uid="3497659" user="NKA">
		<tag k="name" v="Selås" />
		<tag k="place" v="farm" />
		<tag k="ssr:stedsnr" v="597684" />
		<tag k="ssr:type" v="bruk" />
	</node>
	<node id="4475753303" lat="58.8399116" lon="8.3634479" version="2" timestamp="2018-04-10T18:51:18Z" changeset="57982147" uid="3497659" user="NKA">
		<tag k="name" v="Sesjord" />
		<tag k="place" v="farm" />
		<tag k="ssr:stedsnr" v="911091" />
		<tag k="ssr:type" v="bruk" />
	</node>
	<node id="4475753304" lat="58.6342331" lon="8.747037" version="2" timestamp="2018-04-10T18:51:18Z" changeset="57982147" uid="3497659" user="NKA">
		<tag k="name" v="Setane" />
		<tag k="place" v="farm" />
		<tag k="ssr:stedsnr" v="122775" />
		<tag k="ssr:type" v="bruk" />
	</node>
	<node id="4475753305" lat="58.7086095" lon="8.6020507" version="2" timestamp="2018-04-10T18:51:18Z" changeset="57982147" uid="3497659" user="NKA">
		<tag k="name" v="Simonstad" />
		<tag k="place" v="hamlet" />
		<tag k="ssr:stedsnr" v="243081" />
		<tag k="ssr:type" v="bruk" />
	</node>
	<node id="4475753306" lat="58.7721098" lon="8.5391754" version="2" timestamp="2018-04-10T18:51:18Z" changeset="57982147" uid="3497659" user="NKA">
		<tag k="name" v="Skaare" />
		<tag k="place" v="farm" />
		<tag k="ssr:stedsnr" v="395248" />
		<tag k="ssr:type" v="bruk" />
	</node>
	<node id="4475753307" lat="58.7192162" lon="8.3531411" version="2" timestamp="2018-04-10T18:51:18Z" changeset="57982147" uid="3497659" user="NKA">
		<tag k="name" v="Skardmyr" />
		<tag k="place" v="farm" />
		<tag k="ssr:stedsnr" v="243468" />
		<tag k="ssr:type" v="bruk" />
	</node>
	<node id="4475753308" lat="58.7196757" lon="8.3439555" version="2" timestamp="2018-04-10T18:51:18Z" changeset="57982147" uid="3497659" user="NKA">
		<tag k="name" v="Skarli" />
		<tag k="place" v="locality" />
		<tag k="ssr:stedsnr" v="457473" />
		<tag k="ssr:type" v="bruk" />
	</node>
	<node id="4475753309" lat="58.6659954" lon="8.3821719" version="2" timestamp="2018-04-10T18:51:18Z" changeset="57982147" uid="3497659" user="NKA">
		<tag k="alt_name" v="Skeidmo" />
		<tag k="name" v="Skeimo" />
		<tag k="place" v="farm" />
		<tag k="ssr:stedsnr" v="850271" />
		<tag k="ssr:type" v="eneboligMindreBoligbygg" />
	</node>
	<node id="4475753310" lat="58.8119491" lon="8.1372271" version="2" timestamp="2018-04-10T18:51:18Z" changeset="57982147" uid="3497659" user="NKA">
		<tag k="fixme" v="check position" />
		<tag k="historic" v="ruins" />
		<tag k="name" v="Skivestøyl" />
		<tag k="place" v="locality" />
		<tag k="ssr:stedsnr" v="51757" />
		<tag k="ssr:type" v="gammelBosettingsplass" />
	</node>
	<node id="4475753311" lat="58.8819707" lon="8.5814544" version="2" timestamp="2018-04-10T18:51:18Z" changeset="57982147" uid="3497659" user="NKA">
		<tag k="name" v="Skogbu" />
		<tag k="place" v="farm" />
		<tag k="ssr:stedsnr" v="517139" />
		<tag k="ssr:type" v="eneboligMindreBoligbygg" />
	</node>
	<node id="4475753312" lat="58.7097097" lon="8.6033569" version="2" timestamp="2018-04-10T18:51:19Z" changeset="57982147" uid="3497659" user="NKA">
		<tag k="name" v="Skogen" />
		<tag k="place" v="farm" />
		<tag k="ssr:stedsnr" v="456569" />
		<tag k="ssr:type" v="eneboligMindreBoligbygg" />
	</node>
	<node id="4475753313" lat="58.6514257" lon="8.6886889" version="2" timestamp="2018-04-10T18:51:19Z" changeset="57982147" uid="3497659" user="NKA">
		<tag k="name" v="Skogly" />
		<tag k="place" v="farm" />
		<tag k="ssr:stedsnr" v="821514" />
		<tag k="ssr:type" v="eneboligMindreBoligbygg" />
	</node>
	<node id="4475753314" lat="58.7110879" lon="8.6314352" version="2" timestamp="2018-04-10T18:51:19Z" changeset="57982147" uid="3497659" user="NKA">
		<tag k="name" v="Skotet" />
		<tag k="place" v="farm" />
		<tag k="ssr:stedsnr" v="911080" />
		<tag k="ssr:type" v="eneboligMindreBoligbygg" />
	</node>
	<node id="4475753315" lat="58.6652448" lon="8.3860939" version="2" timestamp="2018-04-10T18:51:20Z" changeset="57982147" uid="3497659" user="NKA">
		<tag k="name" v="Skrede" />
		<tag k="place" v="farm" />
		<tag k="ssr:stedsnr" v="274302" />
		<tag k="ssr:type" v="bruk" />
	</node>
	<node id="4475753316" lat="58.8402235" lon="8.1735352" version="3" timestamp="2021-03-17T06:34:39Z" changeset="101162706" uid="3497659" user="NKA">
		<tag k="name" v="Skrivarstoga" />
		<tag k="place" v="isolated_dwelling" />
		<tag k="ssr:stedsnr" v="364060" />
		<tag k="ssr:type" v="fritidsbolig" />
	</node>
	<node id="4475753317" lat="58.7127139" lon="8.1591406" version="3" timestamp="2021-03-17T06:34:39Z" changeset="101162706" uid="3497659" user="NKA">
		<tag k="name" v="Sletneshytta" />
		<tag k="place" v="isolated_dwelling" />
		<tag k="ssr:stedsnr" v="354545" />
		<tag k="ssr:type" v="fritidsbolig" />
	</node>
	<node id="4475753318" lat="58.9042555" lon="8.5597865" version="2" timestamp="2018-04-10T18:51:20Z" changeset="57982147" uid="3497659" user="NKA">
		<tag k="name" v="Slettheim" />
		<tag k="place" v="farm" />
		<tag k="ssr:stedsnr" v="942038" />
		<tag k="ssr:type" v="eneboligMindreBoligbygg" />
	</node>
	<node id="4475753319" lat="58.8350881" lon="8.3661744" version="2" timestamp="2018-04-10T18:51:21Z" changeset="57982147" uid="3497659" user="NKA">
		<tag k="alt_name" v="Slettene" />
		<tag k="fixme" v="check position" />
		<tag k="historic" v="ruins" />
		<tag k="name" v="Slettine" />
		<tag k="place" v="locality" />
		<tag k="ssr:stedsnr" v="789083" />
		<tag k="ssr:type" v="fritidsbolig" />
	</node>
	<node id="4475753320" lat="58.6304089" lon="8.6912165" version="2" timestamp="2018-04-10T18:51:21Z" changeset="57982147" uid="3497659" user="NKA">
		<tag k="name" v="Slevesund" />
		<tag k="place" v="farm" />
		<tag k="ssr:stedsnr" v="62777" />
		<tag k="ssr:type" v="eneboligMindreBoligbygg" />
	</node>
	<node id="4475753321" lat="58.8861804" lon="8.5746865" version="2" timestamp="2018-04-10T18:51:21Z" changeset="57982147" uid="3497659" user="NKA">
		<tag k="name" v="Solbakken" />
		<tag k="place" v="farm" />
		<tag k="ssr:stedsnr" v="517030" />
		<tag k="ssr:type" v="eneboligMindreBoligbygg" />
	</node>
	<node id="4475753322" lat="58.655406" lon="8.4639083" version="2" timestamp="2018-04-10T18:51:21Z" changeset="57982147" uid="3497659" user="NKA">
		<tag k="name" v="Solberg" />
		<tag k="place" v="farm" />
		<tag k="ssr:stedsnr" v="426279" />
		<tag k="ssr:type" v="bruk" />
	</node>
	<node id="4475753323" lat="58.7388323" lon="8.0541168" version="2" timestamp="2018-04-10T18:51:21Z" changeset="57982147" uid="3497659" user="NKA">
		<tag k="building" v="cabin" />
		<tag k="name" v="Solbu" />
		<tag k="place" v="isolated_dwelling" />
		<tag k="ssr:stedsnr" v="365932" />
		<tag k="ssr:type" v="fritidsbolig" />
	</node>
	<node id="4475753324" lat="58.8845424" lon="8.5936371" version="2" timestamp="2018-04-10T18:51:21Z" changeset="57982147" uid="3497659" user="NKA">
		<tag k="name" v="Solmo" />
		<tag k="place" v="farm" />
		<tag k="ssr:stedsnr" v="213026" />
		<tag k="ssr:type" v="eneboligMindreBoligbygg" />
	</node>
	<node id="4475753325" lat="58.8952853" lon="8.258096" version="3" timestamp="2021-03-17T06:34:39Z" changeset="101162706" uid="3497659" user="NKA">
		<tag k="name" v="Solstoga" />
		<tag k="place" v="isolated_dwelling" />
		<tag k="ssr:stedsnr" v="416657" />
		<tag k="ssr:type" v="fritidsbolig" />
	</node>
	<node id="4475753326" lat="58.6905708" lon="8.6916771" version="2" timestamp="2018-04-10T18:51:22Z" changeset="57982147" uid="3497659" user="NKA">
		<tag k="name" v="Solvang" />
		<tag k="place" v="farm" />
		<tag k="ssr:stedsnr" v="244889" />
		<tag k="ssr:type" v="bruk" />
	</node>
	<node id="4475753327" lat="58.7083886" lon="8.5667476" version="2" timestamp="2018-04-10T18:51:22Z" changeset="57982147" uid="3497659" user="NKA">
		<tag k="name" v="Solvang" />
		<tag k="place" v="farm" />
		<tag k="ssr:stedsnr" v="92586" />
		<tag k="ssr:type" v="eneboligMindreBoligbygg" />
	</node>
	<node id="4475753328" lat="58.759176" lon="8.5379261" version="2" timestamp="2018-04-10T18:51:22Z" changeset="57982147" uid="3497659" user="NKA">
		<tag k="name" v="Solvang" />
		<tag k="place" v="farm" />
		<tag k="ssr:stedsnr" v="544" />
		<tag k="ssr:type" v="bruk" />
	</node>
	<node id="4475753329" lat="58.8094232" lon="8.4027391" version="2" timestamp="2018-04-10T18:51:22Z" changeset="57982147" uid="3497659" user="NKA">
		<tag k="name" v="Solvang" />
		<tag k="place" v="farm" />
		<tag k="ssr:stedsnr" v="668125" />
		<tag k="ssr:type" v="bruk" />
	</node>
	<node id="4475753330" lat="58.6684376" lon="8.4098107" version="2" timestamp="2018-04-10T18:51:22Z" changeset="57982147" uid="3497659" user="NKA">
		<tag k="historic" v="yes" />
		<tag k="name" v="Sorpedalshefte" />
		<tag k="place" v="locality" />
		<tag k="ssr:stedsnr" v="92335" />
		<tag k="ssr:type" v="stø" />
	</node>
	<node id="4475753331" lat="58.6328911" lon="8.4093151" version="2" timestamp="2018-04-10T18:51:22Z" changeset="57982147" uid="3497659" user="NKA">
		<tag k="alt_name" v="Sparåtveit" />
		<tag k="fixme" v="check position" />
		<tag k="historic" v="ruins" />
		<tag k="name" v="Sparhaugtveit" />
		<tag k="place" v="locality" />
		<tag k="ssr:stedsnr" v="244368" />
		<tag k="ssr:type" v="gammelBosettingsplass" />
	</node>
	<node id="4475753332" lat="58.7395283" lon="8.4422696" version="2" timestamp="2018-04-10T18:51:22Z" changeset="57982147" uid="3497659" user="NKA">
		<tag k="name" v="Stangemyr" />
		<tag k="place" v="farm" />
		<tag k="ssr:stedsnr" v="395" />
		<tag k="ssr:type" v="eneboligMindreBoligbygg" />
	</node>
	<node id="4475753333" lat="58.6952887" lon="8.6869268" version="2" timestamp="2018-04-10T18:51:23Z" changeset="57982147" uid="3497659" user="NKA">
		<tag k="name" v="Stanglia" />
		<tag k="place" v="farm" />
		<tag k="ssr:stedsnr" v="729897" />
		<tag k="ssr:type" v="bruk" />
	</node>
	<node id="4475753334" lat="58.8838142" lon="8.2531921" version="2" timestamp="2018-04-10T18:51:23Z" changeset="57982147" uid="3497659" user="NKA">
		<tag k="name" v="Stedjan" />
		<tag k="place" v="farm" />
		<tag k="ssr:stedsnr" v="183045" />
		<tag k="ssr:type" v="bruk" />
	</node>
	<node id="4475753335" lat="58.8959323" lon="8.1641454" version="2" timestamp="2018-04-10T18:51:23Z" changeset="57982147" uid="3497659" user="NKA">
		<tag k="fixme" v="check position" />
		<tag k="historic" v="ruins" />
		<tag k="name" v="Steinbua" />
		<tag k="place" v="locality" />
		<tag k="ssr:stedsnr" v="658323" />
		<tag k="ssr:type" v="gammelBosettingsplass" />
	</node>
	<node id="4475753336" lat="58.6374496" lon="8.7439577" version="3" timestamp="2021-03-17T06:34:39Z" changeset="101162706" uid="3497659" user="NKA">
		<tag k="name" v="Steinsbu" />
		<tag k="place" v="isolated_dwelling" />
		<tag k="ssr:stedsnr" v="347821" />
		<tag k="ssr:type" v="fritidsbolig" />
	</node>
	<node id="4475753337" lat="58.7431306" lon="8.6095456" version="2" timestamp="2018-04-10T18:51:23Z" changeset="57982147" uid="3497659" user="NKA">
		<tag k="building" v="cabin" />
		<tag k="name" v="Steinsbu" />
		<tag k="place" v="isolated_dwelling" />
		<tag k="ssr:stedsnr" v="759117" />
		<tag k="ssr:type" v="fritidsbolig" />
	</node>
	<node id="4475753338" lat="58.7034405" lon="8.6018906" version="2" timestamp="2018-04-10T18:51:23Z" changeset="57982147" uid="3497659" user="NKA">
		<tag k="name" v="Steinsland" />
		<tag k="place" v="farm" />
		<tag k="ssr:stedsnr" v="942578" />
		<tag k="ssr:type" v="bruk" />
	</node>
	<node id="4475753339" lat="58.9457704" lon="8.2258928" version="3" timestamp="2021-03-17T06:34:39Z" changeset="101162706" uid="3497659" user="NKA">
		<tag k="name" v="Stemtjønnhytta" />
		<tag k="place" v="isolated_dwelling" />
		<tag k="ssr:stedsnr" v="287453" />
		<tag k="ssr:type" v="fritidsbolig" />
	</node>
	<node id="4475753340" lat="58.8095359" lon="8.5215121" version="2" timestamp="2018-04-10T18:51:24Z" changeset="57982147" uid="3497659" user="NKA">
		<tag k="alt_name" v="Ståa" />
		<tag k="name" v="Stoa" />
		<tag k="place" v="farm" />
		<tag k="ssr:stedsnr" v="1666" />
		<tag k="ssr:type" v="eneboligMindreBoligbygg" />
	</node>
	<node id="4475753341" lat="58.942759" lon="8.1188098" version="3" timestamp="2021-03-17T06:34:39Z" changeset="101162706" uid="3497659" user="NKA">
		<tag k="name" v="Storbekkli" />
		<tag k="place" v="isolated_dwelling" />
		<tag k="ssr:stedsnr" v="1911" />
		<tag k="ssr:type" v="fritidsbolig" />
	</node>
	<node id="4475753342" lat="58.6963112" lon="8.3625987" version="2" timestamp="2018-04-10T18:51:24Z" changeset="57982147" uid="3497659" user="NKA">
		<tag k="alt_name" v="Hommedal store" />
		<tag k="name" v="Store Homedal" />
		<tag k="place" v="farm" />
		<tag k="ssr:stedsnr" v="62449" />
		<tag k="ssr:type" v="bruk" />
	</node>
	<node id="4475753343" lat="58.7908484" lon="8.2311878" version="2" timestamp="2018-04-10T18:51:24Z" changeset="57982147" uid="3497659" user="NKA">
		<tag k="name" v="Storemyr" />
		<tag k="place" v="farm" />
		<tag k="ssr:stedsnr" v="789158" />
		<tag k="ssr:type" v="bruk" />
	</node>
	<node id="4475753344" lat="58.8710906" lon="8.2126775" version="3" timestamp="2021-03-17T06:34:39Z" changeset="101162706" uid="3497659" user="NKA">
		<tag k="name" v="Storetjønnhytta" />
		<tag k="place" v="isolated_dwelling" />
		<tag k="ssr:stedsnr" v="537220" />
		<tag k="ssr:type" v="fritidsbolig" />
	</node>
	<node id="4475753345" lat="58.8958152" lon="8.0055203" version="3" timestamp="2018-04-28T08:07:07Z" changeset="58497758" uid="3497659" user="NKA">
		<tag k="historic" v="shieling" />
		<tag k="name" v="Stuvestøyl" />
		<tag k="place" v="locality" />
		<tag k="ssr:stedsnr" v="183699" />
		<tag k="ssr:type" v="seterStøl" />
	</node>
	<node id="4475753346" lat="58.731647" lon="8.3470393" version="2" timestamp="2018-04-10T18:51:25Z" changeset="57982147" uid="3497659" user="NKA">
		<tag k="alt_name" v="Sløylen" />
		<tag k="name" v="Støylen" />
		<tag k="place" v="farm" />
		<tag k="ssr:stedsnr" v="1495" />
		<tag k="ssr:type" v="eneboligMindreBoligbygg" />
	</node>
	<node id="4475753347" lat="58.8148749" lon="8.4138854" version="3" timestamp="2018-04-28T08:07:08Z" changeset="58497758" uid="3497659" user="NKA">
		<tag k="historic" v="shieling" />
		<tag k="name" v="Støylen" />
		<tag k="place" v="farm" />
		<tag k="ssr:stedsnr" v="304114" />
		<tag k="ssr:type" v="bruk" />
	</node>
	<node id="4475753348" lat="58.7874584" lon="8.0986482" version="2" timestamp="2018-04-10T18:51:25Z" changeset="57982147" uid="3497659" user="NKA">
		<tag k="building" v="cabin" />
		<tag k="name" v="Støylsdalen" />
		<tag k="place" v="isolated_dwelling" />
		<tag k="ssr:stedsnr" v="425135" />
		<tag k="ssr:type" v="fritidsbolig" />
	</node>
	<node id="4475753349" lat="58.8490155" lon="8.2677214" version="3" timestamp="2021-03-17T06:34:39Z" changeset="101162706" uid="3497659" user="NKA">
		<tag k="name" v="Suggebu" />
		<tag k="place" v="isolated_dwelling" />
		<tag k="ssr:stedsnr" v="901357" />
		<tag k="ssr:type" v="fritidsbolig" />
	</node>
	<node id="4475753350" lat="58.747057" lon="8.455446" version="2" timestamp="2018-04-10T18:51:25Z" changeset="57982147" uid="3497659" user="NKA">
		<tag k="name" v="Sundet" />
		<tag k="place" v="farm" />
		<tag k="ssr:stedsnr" v="92660" />
		<tag k="ssr:type" v="bruk" />
	</node>
	<node id="4475753351" lat="58.8598135" lon="8.5746377" version="2" timestamp="2018-04-10T18:51:25Z" changeset="57982147" uid="3497659" user="NKA">
		<tag k="fixme" v="check position" />
		<tag k="historic" v="ruins" />
		<tag k="name" v="Sundsli" />
		<tag k="place" v="locality" />
		<tag k="ssr:stedsnr" v="942043" />
		<tag k="ssr:type" v="gammelBosettingsplass" />
	</node>
	<node id="4475753352" lat="58.9669226" lon="8.1420952" version="4" timestamp="2021-03-17T06:34:39Z" changeset="101162706" uid="3497659" user="NKA">
		<tag k="historic" v="shieling" />
		<tag k="name" v="Sundstøyl" />
		<tag k="place" v="isolated_dwelling" />
		<tag k="ssr:stedsnr" v="729878" />
		<tag k="ssr:type" v="fritidsbolig" />
	</node>
	<node id="4475753353" lat="58.7111491" lon="8.5628939" version="2" timestamp="2018-04-10T18:51:26Z" changeset="57982147" uid="3497659" user="NKA">
		<tag k="name" v="Supland" />
		<tag k="place" v="farm" />
		<tag k="ssr:stedsnr" v="760571" />
		<tag k="ssr:type" v="eneboligMindreBoligbygg" />
	</node>
	<node id="4475753354" lat="58.8313627" lon="8.5584917" version="2" timestamp="2018-04-10T18:51:26Z" changeset="57982147" uid="3497659" user="NKA">
		<tag k="fixme" v="check position" />
		<tag k="historic" v="ruins" />
		<tag k="name" v="Surtemyr" />
		<tag k="place" v="locality" />
		<tag k="ssr:stedsnr" v="92435" />
		<tag k="ssr:type" v="gammelBosettingsplass" />
	</node>
	<node id="4475753355" lat="58.6820574" lon="8.5406209" version="2" timestamp="2018-04-10T18:51:26Z" changeset="57982147" uid="3497659" user="NKA">
		<tag k="fixme" v="check position" />
		<tag k="historic" v="ruins" />
		<tag k="name" v="Svalehommen" />
		<tag k="place" v="locality" />
		<tag k="ssr:stedsnr" v="942418" />
		<tag k="ssr:type" v="gammelBosettingsplass" />
	</node>
	<node id="4475753356" lat="58.858249" lon="8.4693232" version="3" timestamp="2021-03-17T06:34:39Z" changeset="101162706" uid="3497659" user="NKA">
		<tag k="name" v="Svanlihytta" />
		<tag k="place" v="isolated_dwelling" />
		<tag k="ssr:stedsnr" v="901661" />
		<tag k="ssr:type" v="fritidsbolig" />
	</node>
	<node id="4475753357" lat="58.7663076" lon="8.5451509" version="2" timestamp="2018-04-10T18:51:26Z" changeset="57982147" uid="3497659" user="NKA">
		<tag k="name" v="Svinåsen" />
		<tag k="place" v="farm" />
		<tag k="ssr:stedsnr" v="274219" />
		<tag k="ssr:type" v="bruk" />
	</node>
	<node id="4475753358" lat="58.9521614" lon="8.1577171" version="2" timestamp="2018-04-10T18:51:26Z" changeset="57982147" uid="3497659" user="NKA">
		<tag k="name" v="Såheim" />
		<tag k="place" v="farm" />
		<tag k="ssr:stedsnr" v="183934" />
		<tag k="ssr:type" v="eneboligMindreBoligbygg" />
	</node>
	<node id="4475753359" lat="58.7652815" lon="8.2570926" version="2" timestamp="2018-04-10T18:51:26Z" changeset="57982147" uid="3497659" user="NKA">
		<tag k="alt_name" v="Sessvoll" />
		<tag k="name" v="Sæsvoll" />
		<tag k="place" v="farm" />
		<tag k="ssr:stedsnr" v="122204" />
		<tag k="ssr:type" v="bruk" />
	</node>
	<node id="4475753360" lat="58.7102553" lon="8.5674223" version="2" timestamp="2018-04-10T18:51:27Z" changeset="57982147" uid="3497659" user="NKA">
		<tag k="name" v="Sæter" />
		<tag k="place" v="farm" />
		<tag k="ssr:stedsnr" v="456563" />
		<tag k="ssr:type" v="eneboligMindreBoligbygg" />
	</node>
	<node id="4475753361" lat="58.6899207" lon="8.672493" version="2" timestamp="2018-04-10T18:51:27Z" changeset="57982147" uid="3497659" user="NKA">
		<tag k="name" v="Sørdal" />
		<tag k="place" v="farm" />
		<tag k="ssr:stedsnr" v="426897" />
		<tag k="ssr:type" v="bruk" />
	</node>
	<node id="4475753362" lat="58.7610934" lon="8.5336024" version="2" timestamp="2018-04-10T18:51:27Z" changeset="57982147" uid="3497659" user="NKA">
		<tag k="name" v="Sørgard" />
		<tag k="place" v="farm" />
		<tag k="ssr:stedsnr" v="274213" />
		<tag k="ssr:type" v="bruk" />
	</node>
	<node id="4475753363" lat="58.8704517" lon="8.3052321" version="2" timestamp="2018-04-10T18:51:27Z" changeset="57982147" uid="3497659" user="NKA">
		<tag k="name" v="Sørgard" />
		<tag k="place" v="farm" />
		<tag k="ssr:stedsnr" v="476100" />
		<tag k="ssr:type" v="bruk" />
	</node>
	<node id="4475753364" lat="58.8089149" lon="8.4135479" version="2" timestamp="2018-04-10T18:51:27Z" changeset="57982147" uid="3497659" user="NKA">
		<tag k="name" v="Tiljone" />
		<tag k="place" v="farm" />
		<tag k="ssr:stedsnr" v="705487" />
		<tag k="ssr:type" v="bruk" />
	</node>
	<node id="4475753365" lat="58.7494583" lon="8.183737" version="3" timestamp="2021-03-17T06:34:39Z" changeset="101162706" uid="3497659" user="NKA">
		<tag k="alt_name" v="Tjerandslia" />
		<tag k="name" v="Tjerandli" />
		<tag k="place" v="isolated_dwelling" />
		<tag k="ssr:stedsnr" v="486320" />
		<tag k="ssr:type" v="fritidsbolig" />
	</node>
	<node id="4475753366" lat="58.739181" lon="8.449636" version="2" timestamp="2018-04-10T18:51:27Z" changeset="57982147" uid="3497659" user="NKA">
		<tag k="name" v="Tjørnbrekk" />
		<tag k="place" v="farm" />
		<tag k="ssr:stedsnr" v="456663" />
		<tag k="ssr:type" v="bruk" />
	</node>
	<node id="4475753367" lat="58.8406998" lon="8.2464765" version="3" timestamp="2021-03-17T06:34:39Z" changeset="101162706" uid="3497659" user="NKA">
		<tag k="name" v="Tjørnestøyl" />
		<tag k="place" v="isolated_dwelling" />
		<tag k="ssr:stedsnr" v="911078" />
		<tag k="ssr:type" v="fritidsbolig" />
	</node>
	<node id="4475753368" lat="58.964572" lon="8.1454531" version="3" timestamp="2021-03-17T06:34:39Z" changeset="101162706" uid="3497659" user="NKA">
		<tag k="name" v="Torbjørnsbu" />
		<tag k="place" v="isolated_dwelling" />
		<tag k="ssr:stedsnr" v="962986" />
		<tag k="ssr:type" v="fritidsbolig" />
	</node>
	<node id="4475753369" lat="58.8671608" lon="8.110264" version="3" timestamp="2018-04-28T08:07:08Z" changeset="58497758" uid="3497659" user="NKA">
		<tag k="building" v="cabin" />
		<tag k="historic" v="shieling" />
		<tag k="name" v="Toskestøyl" />
		<tag k="place" v="locality" />
		<tag k="ssr:stedsnr" v="244032" />
		<tag k="ssr:type" v="fritidsbolig" />
	</node>
	<node id="4475753371" lat="58.9021569" lon="8.1819446" version="2" timestamp="2018-04-10T18:51:28Z" changeset="57982147" uid="3497659" user="NKA">
		<tag k="historic" v="ruins" />
		<tag k="name" v="Trongedalsbua" />
		<tag k="place" v="locality" />
		<tag k="ssr:stedsnr" v="522300" />
		<tag k="ssr:type" v="gammelBosettingsplass" />
	</node>
	<node id="4475753372" lat="58.9111748" lon="8.1406013" version="2" timestamp="2018-04-10T18:51:28Z" changeset="57982147" uid="3497659" user="NKA">
		<tag k="historic" v="ruins" />
		<tag k="name" v="Trongedalshytta" />
		<tag k="place" v="locality" />
		<tag k="ssr:stedsnr" v="227324" />
		<tag k="ssr:type" v="fritidsbolig" />
	</node>
	<node id="4475753373" lat="58.76541" lon="8.5287948" version="2" timestamp="2018-04-10T18:51:28Z" changeset="57982147" uid="3497659" user="NKA">
		<tag k="name" v="Tveit" />
		<tag k="place" v="hamlet" />
		<tag k="ssr:stedsnr" v="607501" />
		<tag k="ssr:type" v="grend" />
	</node>
	<node id="4475753374" lat="58.7860531" lon="8.2019795" version="2" timestamp="2018-04-10T18:51:28Z" changeset="57982147" uid="3497659" user="NKA">
		<tag k="name" v="Tveit" />
		<tag k="place" v="farm" />
		<tag k="ssr:stedsnr" v="122231" />
		<tag k="ssr:type" v="bruk" />
	</node>
	<node id="4475753375" lat="58.7988994" lon="7.9994826" version="3" timestamp="2021-03-17T06:34:39Z" changeset="101162706" uid="3497659" user="NKA">
		<tag k="name" v="Tveitli" />
		<tag k="place" v="isolated_dwelling" />
		<tag k="ssr:stedsnr" v="183806" />
		<tag k="ssr:type" v="fritidsbolig" />
	</node>
	<node id="4475753376" lat="58.7320393" lon="8.4332901" version="2" timestamp="2018-04-10T18:51:28Z" changeset="57982147" uid="3497659" user="NKA">
		<tag k="name" v="Tverrstøyl" />
		<tag k="place" v="farm" />
		<tag k="ssr:stedsnr" v="486505" />
		<tag k="ssr:type" v="bruk" />
	</node>
	<node id="4475753377" lat="58.7216641" lon="8.4025152" version="2" timestamp="2018-04-10T18:51:29Z" changeset="57982147" uid="3497659" user="NKA">
		<tag k="name" v="Tviland" />
		<tag k="place" v="farm" />
		<tag k="ssr:stedsnr" v="243471" />
		<tag k="ssr:type" v="bruk" />
	</node>
	<node id="4475753378" lat="58.7554321" lon="8.5107672" version="2" timestamp="2018-04-10T18:51:29Z" changeset="57982147" uid="3497659" user="NKA">
		<tag k="name" v="Valle" />
		<tag k="place" v="farm" />
		<tag k="ssr:stedsnr" v="486556" />
		<tag k="ssr:type" v="bruk" />
	</node>
	<node id="4475753379" lat="58.8541006" lon="8.3359784" version="2" timestamp="2018-04-10T18:51:29Z" changeset="57982147" uid="3497659" user="NKA">
		<tag k="name" v="Valle" />
		<tag k="place" v="farm" />
		<tag k="ssr:stedsnr" v="789116" />
		<tag k="ssr:type" v="bruk" />
	</node>
	<node id="4475753380" lat="58.7466646" lon="8.5118206" version="2" timestamp="2018-04-10T18:51:29Z" changeset="57982147" uid="3497659" user="NKA">
		<tag k="name" v="Vallekilen" />
		<tag k="place" v="farm" />
		<tag k="ssr:stedsnr" v="122017" />
		<tag k="ssr:type" v="eneboligMindreBoligbygg" />
	</node>
	<node id="4475753381" lat="58.834078" lon="8.5847419" version="2" timestamp="2018-04-10T18:51:29Z" changeset="57982147" uid="3497659" user="NKA">
		<tag k="name" v="Vang" />
		<tag k="place" v="farm" />
		<tag k="ssr:stedsnr" v="122628" />
		<tag k="ssr:type" v="eneboligMindreBoligbygg" />
	</node>
	<node id="4475753382" lat="58.9405765" lon="8.2009516" version="2" timestamp="2018-04-10T18:51:29Z" changeset="57982147" uid="3497659" user="NKA">
		<tag k="name" v="Vang" />
		<tag k="place" v="farm" />
		<tag k="ssr:stedsnr" v="183940" />
		<tag k="ssr:type" v="bruk" />
	</node>
	<node id="4475753383" lat="58.6787128" lon="8.7253132" version="2" timestamp="2018-04-10T18:51:29Z" changeset="57982147" uid="3497659" user="NKA">
		<tag k="name" v="Vassenden" />
		<tag k="place" v="farm" />
		<tag k="ssr:stedsnr" v="425908" />
		<tag k="ssr:type" v="bruk" />
	</node>
	<node id="4475753384" lat="58.6997028" lon="8.6203583" version="2" timestamp="2018-04-10T18:51:29Z" changeset="57982147" uid="3497659" user="NKA">
		<tag k="historic" v="yes" />
		<tag k="name" v="Vedstø" />
		<tag k="place" v="locality" />
		<tag k="ssr:stedsnr" v="92550" />
		<tag k="ssr:type" v="stø" />
	</node>
	<node id="4475753385" lat="58.683752" lon="8.4045993" version="2" timestamp="2018-04-10T18:51:30Z" changeset="57982147" uid="3497659" user="NKA">
		<tag k="name" v="Vehus" />
		<tag k="place" v="hamlet" />
		<tag k="ssr:stedsnr" v="911319" />
		<tag k="ssr:type" v="bruk" />
	</node>
	<node id="4475753386" lat="58.7024011" lon="8.4126543" version="2" timestamp="2018-04-10T18:51:30Z" changeset="57982147" uid="3497659" user="NKA">
		<tag k="name" v="Vehusheia" />
		<tag k="place" v="farm" />
		<tag k="ssr:stedsnr" v="729453" />
		<tag k="ssr:type" v="bruk" />
	</node>
	<node id="4475753387" lat="58.692286" lon="8.6208197" version="2" timestamp="2018-04-10T18:51:30Z" changeset="57982147" uid="3497659" user="NKA">
		<tag k="fixme" v="check position" />
		<tag k="historic" v="ruins" />
		<tag k="name" v="Venli" />
		<tag k="place" v="locality" />
		<tag k="ssr:stedsnr" v="638513" />
		<tag k="ssr:type" v="gammelBosettingsplass" />
	</node>
	<node id="4475753388" lat="58.7058275" lon="8.1554464" version="3" timestamp="2021-03-17T06:34:39Z" changeset="101162706" uid="3497659" user="NKA">
		<tag k="name" v="Verfjellhytta" />
		<tag k="place" v="isolated_dwelling" />
		<tag k="ssr:stedsnr" v="233787" />
		<tag k="ssr:type" v="fritidsbolig" />
	</node>
	<node id="4475753389" lat="58.6818445" lon="8.4010594" version="2" timestamp="2018-04-10T18:51:30Z" changeset="57982147" uid="3497659" user="NKA">
		<tag k="name" v="Vestigard" />
		<tag k="place" v="farm" />
		<tag k="ssr:stedsnr" v="457233" />
		<tag k="ssr:type" v="bruk" />
	</node>
	<node id="4475753390" lat="58.6975772" lon="8.3726807" version="2" timestamp="2018-04-10T18:51:30Z" changeset="57982147" uid="3497659" user="NKA">
		<tag k="name" v="Vestigard" />
		<tag k="place" v="locality" />
		<tag k="ssr:stedsnr" v="639444" />
		<tag k="ssr:type" v="bruk" />
	</node>
	<node id="4475753391" lat="58.7661045" lon="8.5299912" version="2" timestamp="2018-04-10T18:51:30Z" changeset="57982147" uid="3497659" user="NKA">
		<tag k="alt_name" v="Vestre Haugane;Haugane vestre" />
		<tag k="name" v="Vestigard" />
		<tag k="place" v="farm" />
		<tag k="ssr:stedsnr" v="364521" />
		<tag k="ssr:type" v="bruk" />
	</node>
	<node id="4475753392" lat="58.7587126" lon="8.4106257" version="2" timestamp="2018-04-10T18:51:31Z" changeset="57982147" uid="3497659" user="NKA">
		<tag k="name" v="Vestre Fiskvatn" />
		<tag k="place" v="farm" />
		<tag k="ssr:stedsnr" v="426299" />
		<tag k="ssr:type" v="bruk" />
	</node>
	<node id="4475753393" lat="58.6502466" lon="8.722519" version="3" timestamp="2021-03-17T06:34:39Z" changeset="101162706" uid="3497659" user="NKA">
		<tag k="name" v="Vestre Furland" />
		<tag k="place" v="isolated_dwelling" />
		<tag k="ssr:stedsnr" v="529977" />
		<tag k="ssr:type" v="gammelBosettingsplass" />
	</node>
	<node id="4475753394" lat="58.6773873" lon="8.5465118" version="3" timestamp="2021-03-17T06:34:39Z" changeset="101162706" uid="3497659" user="NKA">
		<tag k="alt_name" v="Mosberg" />
		<tag k="name" v="Vestre Mosberg" />
		<tag k="place" v="isolated_dwelling" />
		<tag k="ssr:stedsnr" v="122917" />
		<tag k="ssr:type" v="fritidsbolig" />
	</node>
	<node id="4475753395" lat="58.6578013" lon="8.6673705" version="2" timestamp="2018-04-10T18:51:31Z" changeset="57982147" uid="3497659" user="NKA">
		<tag k="alt_name" v="Vimme vestre" />
		<tag k="name" v="Vestre Vimme" />
		<tag k="place" v="farm" />
		<tag k="ssr:stedsnr" v="729940" />
		<tag k="ssr:type" v="bruk" />
	</node>
	<node id="4475753396" lat="58.7942759" lon="8.2218156" version="2" timestamp="2018-04-10T18:51:31Z" changeset="57982147" uid="3497659" user="NKA">
		<tag k="name" v="Vettevoll" />
		<tag k="place" v="farm" />
		<tag k="ssr:stedsnr" v="51903" />
		<tag k="ssr:type" v="bruk" />
	</node>
	<node id="4475753397" lat="58.9239948" lon="7.9892504" version="3" timestamp="2018-04-28T08:07:08Z" changeset="58497758" uid="3497659" user="NKA">
		<tag k="historic" v="shieling" />
		<tag k="name" v="Videstøyl" />
		<tag k="place" v="locality" />
		<tag k="ssr:stedsnr" v="729694" />
		<tag k="ssr:type" v="seterStøl" />
	</node>
	<node id="4475753398" lat="58.6996153" lon="8.5997797" version="2" timestamp="2018-04-10T18:51:31Z" changeset="57982147" uid="3497659" user="NKA">
		<tag k="name" v="Vik" />
		<tag k="place" v="farm" />
		<tag k="ssr:stedsnr" v="607883" />
		<tag k="ssr:type" v="bruk" />
	</node>
	<node id="4475753399" lat="58.8180622" lon="8.4124448" version="2" timestamp="2018-04-10T18:51:31Z" changeset="57982147" uid="3497659" user="NKA">
		<tag k="building" v="cabin" />
		<tag k="name" v="Vika" />
		<tag k="place" v="isolated_dwelling" />
		<tag k="ssr:stedsnr" v="607171" />
		<tag k="ssr:type" v="fritidsbolig" />
	</node>
	<node id="4475753400" lat="58.7723186" lon="8.3777441" version="3" timestamp="2021-03-17T06:34:39Z" changeset="101162706" uid="3497659" user="NKA">
		<tag k="name" v="Vikstøyl" />
		<tag k="place" v="isolated_dwelling" />
		<tag k="ssr:stedsnr" v="61187" />
		<tag k="ssr:type" v="fritidsbolig" />
	</node>
	<node id="4475753401" lat="58.8680471" lon="8.4257789" version="4" timestamp="2021-03-17T06:34:39Z" changeset="101162706" uid="3497659" user="NKA">
		<tag k="historic" v="shieling" />
		<tag k="name" v="Vikstøyl" />
		<tag k="place" v="isolated_dwelling" />
		<tag k="ssr:stedsnr" v="122105" />
		<tag k="ssr:type" v="fritidsbolig" />
	</node>
	<node id="4475753402" lat="58.692053" lon="8.7256482" version="2" timestamp="2018-04-10T18:51:32Z" changeset="57982147" uid="3497659" user="NKA">
		<tag k="name" v="Vindholmen" />
		<tag k="place" v="farm" />
		<tag k="ssr:stedsnr" v="396246" />
		<tag k="ssr:type" v="bruk" />
	</node>
	<node id="4475753403" lat="58.7107607" lon="8.5893383" version="2" timestamp="2018-04-10T18:51:32Z" changeset="57982147" uid="3497659" user="NKA">
		<tag k="name" v="Vollane" />
		<tag k="place" v="farm" />
		<tag k="ssr:stedsnr" v="92584" />
		<tag k="ssr:type" v="bruk" />
	</node>
	<node id="4475753404" lat="58.8702167" lon="8.3077181" version="2" timestamp="2018-04-10T18:51:32Z" changeset="57982147" uid="3497659" user="NKA">
		<tag k="name" v="Vollen" />
		<tag k="place" v="farm" />
		<tag k="ssr:stedsnr" v="790029" />
		<tag k="ssr:type" v="bruk" />
	</node>
	<node id="4475753405" lat="58.8278404" lon="8.1018054" version="2" timestamp="2018-04-10T18:51:32Z" changeset="57982147" uid="3497659" user="NKA">
		<tag k="name" v="Vrålstad" />
		<tag k="place" v="farm" />
		<tag k="ssr:stedsnr" v="729094" />
		<tag k="ssr:type" v="bruk" />
	</node>
	<node id="4475753406" lat="58.7278673" lon="8.2073034" version="3" timestamp="2021-03-17T06:34:39Z" changeset="101162706" uid="3497659" user="NKA">
		<tag k="name" v="Vågsdalen" />
		<tag k="place" v="isolated_dwelling" />
		<tag k="ssr:stedsnr" v="1503" />
		<tag k="ssr:type" v="fritidsbolig" />
	</node>
	<node id="4475753407" lat="58.7622947" lon="8.5222285" version="2" timestamp="2018-04-10T18:51:33Z" changeset="57982147" uid="3497659" user="NKA">
		<tag k="name" v="Våje" />
		<tag k="place" v="farm" />
		<tag k="ssr:stedsnr" v="850551" />
		<tag k="ssr:type" v="bruk" />
	</node>
	<node id="4475753408" lat="58.768546" lon="8.255254" version="2" timestamp="2018-04-10T18:51:33Z" changeset="57982147" uid="3497659" user="NKA">
		<tag k="alt_name" v="Ramse ytre;Ramse ytr" />
		<tag k="name" v="Ytre Ramse" />
		<tag k="place" v="farm" />
		<tag k="ssr:stedsnr" v="547227" />
		<tag k="ssr:type" v="bruk" />
	</node>
	<node id="4475753409" lat="58.8681925" lon="8.3330949" version="2" timestamp="2018-04-10T18:51:33Z" changeset="57982147" uid="3497659" user="NKA">
		<tag k="name" v="Åmland" />
		<tag k="place" v="farm" />
		<tag k="ssr:stedsnr" v="547114" />
		<tag k="ssr:type" v="bruk" />
	</node>
	<node id="4475753411" lat="58.9042762" lon="8.0124593" version="3" timestamp="2018-04-28T08:07:08Z" changeset="58497758" uid="3497659" user="NKA">
		<tag k="historic" v="shieling" />
		<tag k="name" v="Ånebjør" />
		<tag k="place" v="locality" />
		<tag k="ssr:stedsnr" v="911701" />
		<tag k="ssr:type" v="seterStøl" />
	</node>
	<node id="4475753412" lat="58.7572222" lon="8.4818901" version="2" timestamp="2018-04-10T18:51:33Z" changeset="57982147" uid="3497659" user="NKA">
		<tag k="name" v="Århuskleiva" />
		<tag k="place" v="neighbourhood" />
		<tag k="ssr:stedsnr" v="695434" />
		<tag k="ssr:type" v="boligfelt" />
	</node>
	<node id="4475753413" lat="58.6895841" lon="8.7171947" version="2" timestamp="2018-04-10T18:51:33Z" changeset="57982147" uid="3497659" user="NKA">
		<tag k="name" v="Åsen" />
		<tag k="place" v="farm" />
		<tag k="ssr:stedsnr" v="304921" />
		<tag k="ssr:type" v="bruk" />
	</node>
	<node id="4475753414" lat="58.8871626" lon="8.2733678" version="2" timestamp="2018-04-10T18:51:34Z" changeset="57982147" uid="3497659" user="NKA">
		<tag k="name" v="Åsen" />
		<tag k="place" v="farm" />
		<tag k="ssr:stedsnr" v="729052" />
		<tag k="ssr:type" v="bruk" />
	</node>
	<node id="4475753415" lat="58.6921767" lon="8.3163585" version="2" timestamp="2018-04-10T18:51:34Z" changeset="57982147" uid="3497659" user="NKA">
		<tag k="fixme" v="check position" />
		<tag k="historic" v="ruins" />
		<tag k="name" v="Åslaugsbu" />
		<tag k="place" v="locality" />
		<tag k="ssr:stedsnr" v="415731" />
		<tag k="ssr:type" v="gammelBosettingsplass" />
	</node>
	<node id="4475753416" lat="58.8692173" lon="8.3071334" version="2" timestamp="2018-04-10T18:51:34Z" changeset="57982147" uid="3497659" user="NKA">
		<tag k="alt_name" v="Ekra" />
		<tag k="name" v="Ækra" />
		<tag k="place" v="farm" />
		<tag k="ssr:stedsnr" v="607017" />
		<tag k="ssr:type" v="bruk" />
	</node>
	<node id="4475753417" lat="58.6632521" lon="8.6961471" version="2" timestamp="2018-04-10T18:51:34Z" changeset="57982147" uid="3497659" user="NKA">
		<tag k="alt_name" v="Vimme østre;Vimme" />
		<tag k="name" v="Østre Vimme" />
		<tag k="place" v="farm" />
		<tag k="ssr:stedsnr" v="426953" />
		<tag k="ssr:type" v="bruk" />
	</node>
	<node id="4475753418" lat="58.8204125" lon="8.6364779" version="3" timestamp="2021-03-17T06:34:39Z" changeset="101162706" uid="3497659" user="NKA">
		<tag k="alt_name" v="Haukedalen" />
		<tag k="name" v="Øvre Haukedalen" />
		<tag k="place" v="isolated_dwelling" />
		<tag k="ssr:stedsnr" v="61672" />
		<tag k="ssr:type" v="fritidsbolig" />
	</node>
	<node id="4475753419" lat="58.9410015" lon="8.1065616" version="3" timestamp="2018-04-28T08:07:08Z" changeset="58497758" uid="3497659" user="NKA">
		<tag k="alt_name" v="Hegestøyl" />
		<tag k="historic" v="shieling" />
		<tag k="name" v="Øvre Hegestøyl" />
		<tag k="place" v="farm" />
		<tag k="ssr:stedsnr" v="122934" />
		<tag k="ssr:type" v="bruk" />
	</node>
	<node id="4475753420" lat="58.8588297" lon="8.5120497" version="3" timestamp="2021-03-17T06:34:39Z" changeset="101162706" uid="3497659" user="NKA">
		<tag k="alt_name" v="Helleren" />
		<tag k="name" v="Øvre Helleren" />
		<tag k="place" v="isolated_dwelling" />
		<tag k="ssr:stedsnr" v="243753" />
		<tag k="ssr:type" v="fritidsbolig" />
	</node>
	<node id="4475753421" lat="58.8296895" lon="8.5545415" version="2" timestamp="2018-04-10T18:51:34Z" changeset="57982147" uid="3497659" user="NKA">
		<tag k="name" v="Øvre Krossbekk" />
		<tag k="place" v="farm" />
		<tag k="ssr:stedsnr" v="92437" />
		<tag k="ssr:type" v="eneboligMindreBoligbygg" />
	</node>
	<node id="4475753422" lat="58.8352271" lon="8.1037024" version="2" timestamp="2018-04-10T18:51:35Z" changeset="57982147" uid="3497659" user="NKA">
		<tag k="alt_name" v="Moen øvre" />
		<tag k="name" v="Øvre Moen" />
		<tag k="place" v="farm" />
		<tag k="ssr:stedsnr" v="717929" />
		<tag k="ssr:type" v="bruk" />
	</node>
	<node id="4475753423" lat="58.7945984" lon="8.2250242" version="2" timestamp="2018-04-10T18:51:35Z" changeset="57982147" uid="3497659" user="NKA">
		<tag k="alt_name" v="Ramse øvre" />
		<tag k="name" v="Øvre Ramse" />
		<tag k="place" v="hamlet" />
		<tag k="ssr:stedsnr" v="182138" />
		<tag k="ssr:type" v="grend" />
	</node>
	<node id="4475753424" lat="58.79193" lon="8.0267936" version="3" timestamp="2021-03-17T06:34:39Z" changeset="101162706" uid="3497659" user="NKA">
		<tag k="alt_name" v="Skjeggedal øvre" />
		<tag k="name" v="Øvre Skjeggedal" />
		<tag k="place" v="isolated_dwelling" />
		<tag k="ssr:stedsnr" v="547810" />
		<tag k="ssr:type" v="fritidsbolig" />
	</node>
	<node id="4475753425" lat="58.8840522" lon="8.284883" version="2" timestamp="2018-04-10T18:51:35Z" changeset="57982147" uid="3497659" user="NKA">
		<tag k="alt_name" v="Årli øvre" />
		<tag k="name" v="Øvre Årli" />
		<tag k="place" v="farm" />
		<tag k="ssr:stedsnr" v="304053" />
		<tag k="ssr:type" v="bruk" />
	</node>
	<node id="4475753426" lat="58.7368646" lon="8.5292784" version="2" timestamp="2018-04-10T18:51:35Z" changeset="57982147" uid="3497659" user="NKA">
		<tag k="fixme" v="check position" />
		<tag k="historic" v="ruins" />
		<tag k="name" v="Øvreplass" />
		<tag k="place" v="locality" />
		<tag k="ssr:stedsnr" v="699579" />
		<tag k="ssr:type" v="gammelBosettingsplass" />
	</node>
	<node id="4475753427" lat="58.725466" lon="8.2621314" version="3" timestamp="2021-03-17T06:34:39Z" changeset="101162706" uid="3497659" user="NKA">
		<tag k="name" v="Øy" />
		<tag k="place" v="isolated_dwelling" />
		<tag k="ssr:stedsnr" v="122478" />
		<tag k="ssr:type" v="fritidsbolig" />
	</node>
	<node id="4475753428" lat="58.8881296" lon="8.5959452" version="2" timestamp="2018-04-10T18:51:35Z" changeset="57982147" uid="3497659" user="NKA">
		<tag k="name" v="Øy" />
		<tag k="place" v="hamlet" />
		<tag k="ssr:stedsnr" v="365478" />
		<tag k="ssr:type" v="bruk" />
	</node>
	<node id="4475753429" lat="58.6900771" lon="8.6363967" version="2" timestamp="2018-04-10T18:51:35Z" changeset="57982147" uid="3497659" user="NKA">
		<tag k="fixme" v="check position" />
		<tag k="historic" v="ruins" />
		<tag k="name" v="Øygarden" />
		<tag k="place" v="locality" />
		<tag k="ssr:stedsnr" v="31217" />
		<tag k="ssr:type" v="gammelBosettingsplass" />
	</node>
	<node id="4475753430" lat="58.7178641" lon="8.6185076" version="3" timestamp="2021-03-17T06:34:39Z" changeset="101162706" uid="3497659" user="NKA">
		<tag k="name" v="Øygarden" />
		<tag k="place" v="isolated_dwelling" />
		<tag k="ssr:stedsnr" v="850066" />
		<tag k="ssr:type" v="fritidsbolig" />
	</node>
	<node id="4475753431" lat="58.8308626" lon="8.4050879" version="2" timestamp="2018-04-10T18:51:36Z" changeset="57982147" uid="3497659" user="NKA">
		<tag k="alt_name" v="Øygaarden;Ut-på Øygarden" />
		<tag k="name" v="Øygarden" />
		<tag k="place" v="farm" />
		<tag k="ssr:stedsnr" v="244168" />
		<tag k="ssr:type" v="bruk" />
	</node>
	<node id="4475753432" lat="58.6942536" lon="8.5885121" version="2" timestamp="2018-04-10T18:51:36Z" changeset="57982147" uid="3497659" user="NKA">
		<tag k="name" v="Øyna" />
		<tag k="place" v="farm" />
		<tag k="ssr:stedsnr" v="942582" />
		<tag k="ssr:type" v="bruk" />
	</node>
	<node id="4475753433" lat="58.8060316" lon="8.1689788" version="3" timestamp="2021-03-17T06:34:39Z" changeset="101162706" uid="3497659" user="NKA">
		<tag k="name" v="Øyna" />
		<tag k="place" v="isolated_dwelling" />
		<tag k="ssr:stedsnr" v="607126" />
		<tag k="ssr:type" v="fritidsbolig" />
	</node>
	<node id="4475753434" lat="58.6703617" lon="8.6166976" version="2" timestamp="2018-04-10T18:51:36Z" changeset="57982147" uid="3497659" user="NKA">
		<tag k="name" v="Øynes" />
		<tag k="place" v="farm" />
		<tag k="ssr:stedsnr" v="729956" />
		<tag k="ssr:type" v="bruk" />
	</node>
	<node id="8527182858" lat="58.8071802" lon="8.1748822" version="1" timestamp="2021-03-17T06:34:39Z" changeset="101162706" uid="3497659" user="NKA" />
	<node id="8527182859" lat="58.8071528" lon="8.1750007" version="1" timestamp="2021-03-17T06:34:39Z" changeset="101162706" uid="3497659" user="NKA" />
	<node id="8527182860" lat="58.8071428" lon="8.1749921" version="1" timestamp="2021-03-17T06:34:39Z" changeset="101162706" uid="3497659" user="NKA" />
	<node id="8527182861" lat="58.8071241" lon="8.1750731" version="1" timestamp="2021-03-17T06:34:39Z" changeset="101162706" uid="3497659" user="NKA" />
	<node id="8527182862" lat="58.807117" lon="8.175067" version="1" timestamp="2021-03-17T06:34:39Z" changeset="101162706" uid="3497659" user="NKA" />
	<node id="8527182863" lat="58.807108" lon="8.1751059" version="1" timestamp="2021-03-17T06:34:39Z" changeset="101162706" uid="3497659" user="NKA" />
	<node id="8527182864" lat="58.80707" lon="8.1750731" version="1" timestamp="2021-03-17T06:34:39Z" changeset="101162706" uid="3497659" user="NKA" />
	<node id="8527182865" lat="58.807079" lon="8.175034" version="1" timestamp="2021-03-17T06:34:39Z" changeset="101162706" uid="3497659" user="NKA" />
	<node id="8527182866" lat="58.8070711" lon="8.1750272" version="1" timestamp="2021-03-17T06:34:39Z" changeset="101162706" uid="3497659" user="NKA" />
	<node id="8527182867" lat="58.8070899" lon="8.1749457" version="1" timestamp="2021-03-17T06:34:39Z" changeset="101162706" uid="3497659" user="NKA" />
	<node id="8527182868" lat="58.8070799" lon="8.1749371" version="1" timestamp="2021-03-17T06:34:39Z" changeset="101162706" uid="3497659" user="NKA" />
	<node id="8527182869" lat="58.8071071" lon="8.1748191" version="1" timestamp="2021-03-17T06:34:39Z" changeset="101162706" uid="3497659" user="NKA" />
	<node id="8527182870" lat="58.8071219" lon="8.1748319" version="1" timestamp="2021-03-17T06:34:39Z" changeset="101162706" uid="3497659" user="NKA" />
	<node id="8527182871" lat="58.8071311" lon="8.1747921" version="1" timestamp="2021-03-17T06:34:39Z" changeset="101162706" uid="3497659" user="NKA" />
	<node id="8527182872" lat="58.8071751" lon="8.17483" version="1" timestamp="2021-03-17T06:34:39Z" changeset="101162706" uid="3497659" user="NKA" />
	<node id="8527182873" lat="58.8071659" lon="8.1748699" version="1" timestamp="2021-03-17T06:34:39Z" changeset="101162706" uid="3497659" user="NKA" />
	<node id="8527182994" lat="58.87194" lon="8.3040909" version="1" timestamp="2021-03-17T06:34:39Z" changeset="101162706" uid="3497659" user="NKA" />
	<node id="8527182995" lat="58.8719302" lon="8.3040901" version="1" timestamp="2021-03-17T06:34:39Z" changeset="101162706" uid="3497659" user="NKA" />
	<node id="8527182996" lat="58.8719288" lon="8.3041564" version="1" timestamp="2021-03-17T06:34:39Z" changeset="101162706" uid="3497659" user="NKA" />
	<node id="8527182997" lat="58.8718828" lon="8.3041527" version="1" timestamp="2021-03-17T06:34:39Z" changeset="101162706" uid="3497659" user="NKA" />
	<node id="8527182998" lat="58.8718842" lon="8.3040863" version="1" timestamp="2021-03-17T06:34:39Z" changeset="101162706" uid="3497659" user="NKA" />
	<node id="8527182999" lat="58.871876" lon="8.3040857" version="1" timestamp="2021-03-17T06:34:39Z" changeset="101162706" uid="3497659" user="NKA" />
	<node id="8527183000" lat="58.871878" lon="8.303991" version="1" timestamp="2021-03-17T06:34:39Z" changeset="101162706" uid="3497659" user="NKA" />
	<node id="8527183001" lat="58.8718666" lon="8.30399" version="1" timestamp="2021-03-17T06:34:39Z" changeset="101162706" uid="3497659" user="NKA" />
	<node id="8527183002" lat="58.8718704" lon="8.3038162" version="1" timestamp="2021-03-17T06:34:39Z" changeset="101162706" uid="3497659" user="NKA" />
	<node id="8527183003" lat="58.87189" lon="8.3038178" version="1" timestamp="2021-03-17T06:34:39Z" changeset="101162706" uid="3497659" user="NKA" />
	<node id="8527183004" lat="58.871891" lon="8.3037726" version="1" timestamp="2021-03-17T06:34:39Z" changeset="101162706" uid="3497659" user="NKA" />
	<node id="8527183005" lat="58.871937" lon="8.3037764" version="1" timestamp="2021-03-17T06:34:39Z" changeset="101162706" uid="3497659" user="NKA" />
	<node id="8527183006" lat="58.871936" lon="8.3038223" version="1" timestamp="2021-03-17T06:34:39Z" changeset="101162706" uid="3497659" user="NKA" />
	<node id="8527183007" lat="58.8719544" lon="8.3038238" version="1" timestamp="2021-03-17T06:34:39Z" changeset="101162706" uid="3497659" user="NKA" />
	<node id="8527183008" lat="58.8719506" lon="8.3039963" version="1" timestamp="2021-03-17T06:34:39Z" changeset="101162706" uid="3497659" user="NKA" />
	<node id="8527183009" lat="58.871942" lon="8.3039956" version="1" timestamp="2021-03-17T06:34:39Z" changeset="101162706" uid="3497659" user="NKA" />
	<node id="8527182874" lat="58.76763" lon="8.487789" version="1" timestamp="2021-03-17T06:34:39Z" changeset="101162706" uid="3497659" user="NKA" />
	<node id="8527182875" lat="58.767638" lon="8.487848" version="1" timestamp="2021-03-17T06:34:39Z" changeset="101162706" uid="3497659" user="NKA" />
	<node id="8527182876" lat="58.767621" lon="8.487906" version="1" timestamp="2021-03-17T06:34:39Z" changeset="101162706" uid="3497659" user="NKA" />
	<node id="8527182877" lat="58.767592" lon="8.487928" version="1" timestamp="2021-03-17T06:34:39Z" changeset="101162706" uid="3497659" user="NKA" />
	<node id="8527182878" lat="58.767583" lon="8.487919" version="1" timestamp="2021-03-17T06:34:39Z" changeset="101162706" uid="3497659" user="NKA" />
	<node id="8527182879" lat="58.76757" lon="8.487967" version="1" timestamp="2021-03-17T06:34:39Z" changeset="101162706" uid="3497659" user="NKA" />
	<node id="8527182880" lat="58.767545" lon="8.487941" version="1" timestamp="2021-03-17T06:34:39Z" changeset="101162706" uid="3497659" user="NKA" />
	<node id="8527182881" lat="58.767544" lon="8.487945" version="1" timestamp="2021-03-17T06:34:39Z" changeset="101162706" uid="3497659" user="NKA" />
	<node id="8527182882" lat="58.767392" lon="8.487791" version="1" timestamp="2021-03-17T06:34:39Z" changeset="101162706" uid="3497659" user="NKA" />
	<node id="8527182883" lat="58.767404" lon="8.487747" version="1" timestamp="2021-03-17T06:34:39Z" changeset="101162706" uid="3497659" user="NKA" />
	<node id="8527182884" lat="58.7674" lon="8.487743" version="1" timestamp="2021-03-17T06:34:39Z" changeset="101162706" uid="3497659" user="NKA" />
	<node id="8527182885" lat="58.767395" lon="8.487711" version="1" timestamp="2021-03-17T06:34:39Z" changeset="101162706" uid="3497659" user="NKA" />
	<node id="8527182886" lat="58.767399" lon="8.487699" version="1" timestamp="2021-03-17T06:34:39Z" changeset="101162706" uid="3497659" user="NKA" />
	<node id="8527182887" lat="58.767377" lon="8.487677" version="1" timestamp="2021-03-17T06:34:39Z" changeset="101162706" uid="3497659" user="NKA" />
	<node id="8527182888" lat="58.76738" lon="8.487666" version="1" timestamp="2021-03-17T06:34:39Z" changeset="101162706" uid="3497659" user="NKA" />
	<node id="8527182889" lat="58.767372" lon="8.487658" version="1" timestamp="2021-03-17T06:34:39Z" changeset="101162706" uid="3497659" user="NKA" />
	<node id="8527182890" lat="58.767389" lon="8.487594" version="1" timestamp="2021-03-17T06:34:39Z" changeset="101162706" uid="3497659" user="NKA" />
	<node id="8527182891" lat="58.767397" lon="8.487603" version="1" timestamp="2021-03-17T06:34:39Z" changeset="101162706" uid="3497659" user="NKA" />
	<node id="8527182892" lat="58.7674" lon="8.48759" version="1" timestamp="2021-03-17T06:34:39Z" changeset="101162706" uid="3497659" user="NKA" />
	<node id="8527182893" lat="58.767435" lon="8.487626" version="1" timestamp="2021-03-17T06:34:39Z" changeset="101162706" uid="3497659" user="NKA" />
	<node id="8527182894" lat="58.767437" lon="8.487627" version="1" timestamp="2021-03-17T06:34:39Z" changeset="101162706" uid="3497659" user="NKA" />
	<node id="8527182895" lat="58.767458" lon="8.487549" version="1" timestamp="2021-03-17T06:34:39Z" changeset="101162706" uid="3497659" user="NKA" />
	<node id="8527182896" lat="58.76761" lon="8.487702" version="1" timestamp="2021-03-17T06:34:39Z" changeset="101162706" uid="3497659" user="NKA" />
	<node id="8527182897" lat="58.767609" lon="8.487705" version="1" timestamp="2021-03-17T06:34:39Z" changeset="101162706" uid="3497659" user="NKA" />
	<node id="8527182898" lat="58.767636" lon="8.487732" version="1" timestamp="2021-03-17T06:34:39Z" changeset="101162706" uid="3497659" user="NKA" />
	<node id="8527182899" lat="58.767623" lon="8.487782" version="1" timestamp="2021-03-17T06:34:39Z" changeset="101162706" uid="3497659" user="NKA" />
	<way id="365152160" version="6" timestamp="2021-03-17T06:34:39Z" changeset="101162706" uid="3497659" user="NKA">
		<tag k="amenity" v="place_of_worship" />
		<tag k="architect" v="Gjermund Gunnarson" />
		<tag k="building" v="church" />
		<tag k="capacity" v="200" />
		<tag k="deanery" v="Aust-Nedenes" />
		<tag k="denomination" v="lutheran" />
		<tag k="diocese" v="Agder og Telemark" />
		<tag k="heritage" v="yes" />
		<tag k="image" v="https://www.kirkebyggdatabasen.no/KBDBweb/getPublicImage.aspx?vedleggId=7115DA9B-80E4-4D46-927D-A491ABE8A9E2" />
		<tag k="name" v="Gjøvdal kyrkje" />
		<tag k="operator" v="Åmli kirkelige fellesråd" />
		<tag k="parish" v="Gjøvdal" />
		<tag k="ref:bygningsnr" v="167711839" />
		<tag k="religion" v="christian" />
		<tag k="ssr:stedsnr" v="547005" />
		<tag k="ssr:type" v="kirke" />
		<tag k="start_date" v="1803" />
		<tag k="wikidata" v="Q15624482" />
		<nd ref="8527183009" />
		<nd ref="8527183008" />
		<nd ref="8527183007" />
		<nd ref="8527183006" />
		<nd ref="8527183005" />
		<nd ref="8527183004" />
		<nd ref="8527183003" />
		<nd ref="8527183002" />
		<nd ref="8527183001" />
		<nd ref="8527183000" />
		<nd ref="8527182999" />
		<nd ref="8527182998" />
		<nd ref="8527182997" />
		<nd ref="8527182996" />
		<nd ref="8527182995" />
		<nd ref="8527182994" />
		<nd ref="8527183009" />
	</way>
	<way id="451727013" version="5" timestamp="2021-03-17T06:34:39Z" changeset="101162706" uid="3497659" user="NKA">
		<tag k="amenity" v="place_of_worship" />
		<tag k="architect" v="Ludvig Karlsen" />
		<tag k="building" v="church" />
		<tag k="capacity" v="450" />
		<tag k="deanery" v="Aust-Nedenes" />
		<tag k="denomination" v="lutheran" />
		<tag k="diocese" v="Agder og Telemark" />
		<tag k="image" v="https://www.kirkebyggdatabasen.no/KBDBweb/getPublicImage.aspx?vedleggId=990F221E-19EB-4FAD-A682-7D83753123DD" />
		<tag k="name" v="Åmli kirke" />
		<tag k="note" v="Soknekirke" />
		<tag k="operator" v="Åmli kirkelige fellesråd" />
		<tag k="parish" v="Åmli" />
		<tag k="ref:bygningsnr" v="167714323" />
		<tag k="religion" v="christian" />
		<tag k="ssr:stedsnr" v="153221" />
		<tag k="ssr:type" v="kirke" />
		<tag k="start_date" v="1909" />
		<tag k="toilets" v="yes" />
		<tag k="wikidata" v="Q12011517" />
		<nd ref="8527182899" />
		<nd ref="8527182898" />
		<nd ref="8527182897" />
		<nd ref="8527182896" />
		<nd ref="8527182895" />
		<nd ref="8527182894" />
		<nd ref="8527182893" />
		<nd ref="8527182892" />
		<nd ref="8527182891" />
		<nd ref="8527182890" />
		<nd ref="8527182889" />
		<nd ref="8527182888" />
		<nd ref="8527182887" />
		<nd ref="8527182886" />
		<nd ref="8527182885" />
		<nd ref="8527182884" />
		<nd ref="8527182883" />
		<nd ref="8527182882" />
		<nd ref="8527182881" />
		<nd ref="8527182880" />
		<nd ref="8527182879" />
		<nd ref="8527182878" />
		<nd ref="8527182877" />
		<nd ref="8527182876" />
		<nd ref="8527182875" />
		<nd ref="8527182874" />
		<nd ref="8527182899" />
	</way>
	<way id="451727016" version="5" timestamp="2021-03-17T06:34:39Z" changeset="101162706" uid="3497659" user="NKA">
		<tag k="amenity" v="place_of_worship" />
		<tag k="building" v="church" />
		<tag k="capacity" v="105" />
		<tag k="deanery" v="Aust-Nedenes" />
		<tag k="denomination" v="lutheran" />
		<tag k="diocese" v="Agder og Telemark" />
		<tag k="heritage" v="yes" />
		<tag k="image" v="https://www.kirkebyggdatabasen.no/KBDBweb/getPublicImage.aspx?vedleggId=73AEE2FD-0D0E-495F-8AC5-5AB4982B1498" />
		<tag k="name" v="Tovdal kyrkje" />
		<tag k="note" v="Soknekirke" />
		<tag k="operator" v="Åmli kirkelige fellesråd" />
		<tag k="parish" v="Åmli" />
		<tag k="ref:bygningsnr" v="167703860" />
		<tag k="religion" v="christian" />
		<tag k="ssr:stedsnr" v="789130" />
		<tag k="ssr:type" v="kirke" />
		<tag k="start_date" v="1820" />
		<tag k="wikidata" v="Q12007228" />
		<nd ref="8527182873" />
		<nd ref="8527182872" />
		<nd ref="8527182871" />
		<nd ref="8527182870" />
		<nd ref="8527182869" />
		<nd ref="8527182868" />
		<nd ref="8527182867" />
		<nd ref="8527182866" />
		<nd ref="8527182865" />
		<nd ref="8527182864" />
		<nd ref="8527182863" />
		<nd ref="8527182862" />
		<nd ref="8527182861" />
		<nd ref="8527182860" />
		<nd ref="8527182859" />
		<nd ref="8527182858" />
		<nd ref="8527182873" />
	</way>
</osm>
