<?xml version="1.0" encoding="UTF-8"?>
<osm generator="osmapis" version="0.6">
	<node id="-207194" lat="59.5142222579" lon="10.2047780031">
		<tag k="name" v="Grelland" />
		<tag k="ssr:date" v="2019-05-31" />
		<tag k="ssr:gruppe" v="veg" />
		<tag k="ssr:hovedgruppe" v="infrastruktur" />
		<tag k="ssr:stedsnr" v="1043302" />
		<tag k="ssr:type" v="adressenavn" />
	</node>
	<node id="-207193" lat="59.489863274" lon="10.3168233784">
		<tag k="name" v="Leira" />
		<tag k="ssr:date" v="2019-05-31" />
		<tag k="ssr:gruppe" v="veg" />
		<tag k="ssr:hovedgruppe" v="infrastruktur" />
		<tag k="ssr:stedsnr" v="1043180" />
		<tag k="ssr:type" v="adressenavn" />
	</node>
	<node id="-207192" lat="59.5174964164" lon="10.2789846357">
		<tag k="name" v="Skogstjernen" />
		<tag k="ssr:date" v="2019-05-31" />
		<tag k="ssr:gruppe" v="veg" />
		<tag k="ssr:hovedgruppe" v="infrastruktur" />
		<tag k="ssr:stedsnr" v="1042876" />
		<tag k="ssr:type" v="adressenavn" />
	</node>
	<node id="-207447" lat="59.4897527801" lon="10.315158334">
		<tag k="loc_name" v="Holmestrand" />
		<tag k="name" v="Holmestrand kommune" />
		<tag k="ssr:date" v="2018-01-09" />
		<tag k="ssr:gruppe" v="administrativeIndelinger" />
		<tag k="ssr:hovedgruppe" v="offentligAdministrasjon" />
		<tag k="ssr:stedsnr" v="510068" />
		<tag k="ssr:type" v="kommune" />
	</node>
	<node id="-207190" lat="59.4936126127" lon="10.3117184715">
		<tag k="name" v="Strandholmen" />
		<tag k="ssr:date" v="2019-05-31" />
		<tag k="ssr:gruppe" v="veg" />
		<tag k="ssr:hovedgruppe" v="infrastruktur" />
		<tag k="ssr:stedsnr" v="1042860" />
		<tag k="ssr:type" v="adressenavn" />
	</node>
	<node id="-207189" lat="59.5465183632" lon="10.0804621094">
		<tag k="name" v="Mileveien" />
		<tag k="ssr:date" v="2019-05-31" />
		<tag k="ssr:gruppe" v="veg" />
		<tag k="ssr:hovedgruppe" v="infrastruktur" />
		<tag k="ssr:stedsnr" v="1042859" />
		<tag k="ssr:type" v="adressenavn" />
	</node>
	<node id="-207188" lat="59.5469422343" lon="10.082964625">
		<tag k="name" v="Lillemilen" />
		<tag k="ssr:date" v="2019-05-31" />
		<tag k="ssr:gruppe" v="veg" />
		<tag k="ssr:hovedgruppe" v="infrastruktur" />
		<tag k="ssr:stedsnr" v="1042857" />
		<tag k="ssr:type" v="adressenavn" />
	</node>
	<node id="-208657" lat="60.5908609473" lon="9.63819281559">
		<tag k="fixme" v="multiple name tags, choose one and add the other to alt_name" />
		<tag k="name" v="Austlandet;Østlandet" />
		<tag k="ssr:date" v="2018-01-09" />
		<tag k="ssr:gruppe" v="administrativeIndelinger" />
		<tag k="ssr:hovedgruppe" v="offentligAdministrasjon" />
		<tag k="ssr:stedsnr" v="974775" />
		<tag k="ssr:type" v="annenAdministrativInndeling" />
	</node>
	<node id="-207435" lat="59.4900777809" lon="10.3123472295">
		<tag k="name" v="Holmestrand, Øvre" />
		<tag k="ssr:date" v="2018-01-09" />
		<tag k="ssr:gruppe" v="navigasjon" />
		<tag k="ssr:hovedgruppe" v="infrastruktur" />
		<tag k="ssr:stedsnr" v="543947" />
		<tag k="ssr:type" v="lanterne" />
	</node>
	<node id="-207191" lat="59.5478705095" lon="10.082385085">
		<tag k="name" v="Hamnehagen" />
		<tag k="ssr:date" v="2019-05-31" />
		<tag k="ssr:gruppe" v="veg" />
		<tag k="ssr:hovedgruppe" v="infrastruktur" />
		<tag k="ssr:stedsnr" v="1042861" />
		<tag k="ssr:type" v="adressenavn" />
	</node>
	<node id="-207205" lat="59.4903277821" lon="10.3124972203">
		<tag k="name" v="Holmestrand, Nedre" />
		<tag k="ssr:date" v="2018-01-09" />
		<tag k="ssr:gruppe" v="navigasjon" />
		<tag k="ssr:hovedgruppe" v="infrastruktur" />
		<tag k="ssr:stedsnr" v="603947" />
		<tag k="ssr:type" v="lanterne" />
	</node>
	<node id="-208546" lat="59.5283583366" lon="10.0887027776">
		<tag k="name" v="Hof kommune" />
		<tag k="ssr:date" v="2018-01-09" />
		<tag k="ssr:gruppe" v="administrativeIndelinger" />
		<tag k="ssr:hovedgruppe" v="offentligAdministrasjon" />
		<tag k="ssr:stedsnr" v="451432" />
		<tag k="ssr:type" v="kommune" />
	</node>
</osm>
