<?xml version="1.0" encoding="UTF-8"?>
<osm generator="osmapis" version="0.6">
	<node changeset="66796129" id="6248947785" lat="59.6411944" lon="11.096475" timestamp="2019-01-31T09:52:30Z" uid="633013" user="Honning" version="1">
		<tag k="name" v="Frydenlund" />
		<tag k="place" v="farm" />
		<tag k="ssr:stedsnr" v="143693" />
	</node>
	<node changeset="66796129" id="6248947786" lat="59.6438333" lon="11.1491333" timestamp="2019-01-31T09:52:30Z" uid="633013" user="Honning" version="1">
		<tag k="alt_name" v="Holm søndre" />
		<tag k="name" v="Søndre Holm" />
		<tag k="place" v="farm" />
		<tag k="ssr:stedsnr" v="143698" />
	</node>
	<node changeset="66796129" id="6248947787" lat="59.6561333" lon="11.1119417" timestamp="2019-01-31T09:52:30Z" uid="633013" user="Honning" version="1">
		<tag k="alt_name" v="Huseby østre" />
		<tag k="name" v="Østre Huseby" />
		<tag k="place" v="farm" />
		<tag k="ssr:stedsnr" v="143704" />
	</node>
	<node changeset="66796129" id="6248947788" lat="59.5763306" lon="11.05055" timestamp="2019-01-31T09:52:30Z" uid="633013" user="Honning" version="1">
		<tag k="alt_name" v="Vestby østre" />
		<tag k="name" v="Østre Vestby" />
		<tag k="place" v="farm" />
		<tag k="ssr:stedsnr" v="143762" />
	</node>
	<node changeset="66796129" id="6248947789" lat="59.5934917" lon="11.0696444" timestamp="2019-01-31T09:52:30Z" uid="633013" user="Honning" version="1">
		<tag k="name" v="Klippen" />
		<tag k="place" v="farm" />
		<tag k="ssr:stedsnr" v="143768" />
	</node>
	<node changeset="66796129" id="6248947790" lat="59.6543" lon="11.0629917" timestamp="2019-01-31T09:52:30Z" uid="633013" user="Honning" version="1">
		<tag k="alt_name" v="Tolerud, søndre;Torud søndre;Tolerud søndre" />
		<tag k="name" v="Søndre Tolerud" />
		<tag k="place" v="farm" />
		<tag k="ssr:stedsnr" v="185236" />
	</node>
	<node changeset="66796129" id="6248947791" lat="59.6494333" lon="11.0440528" timestamp="2019-01-31T09:52:30Z" uid="633013" user="Honning" version="1">
		<tag k="name" v="Rustad" />
		<tag k="place" v="farm" />
		<tag k="ssr:stedsnr" v="185258" />
	</node>
	<node changeset="66796129" id="6248947792" lat="59.6471556" lon="11.06395" timestamp="2019-01-31T09:52:30Z" uid="633013" user="Honning" version="1">
		<tag k="name" v="Vien" />
		<tag k="place" v="farm" />
		<tag k="ssr:stedsnr" v="185257" />
	</node>
	<node changeset="66796129" id="6248947793" lat="59.6422139" lon="11.0594972" timestamp="2019-01-31T09:52:30Z" uid="633013" user="Honning" version="1">
		<tag k="alt_name" v="Bøler vestre" />
		<tag k="name" v="Bøler" />
		<tag k="place" v="farm" />
		<tag k="ssr:stedsnr" v="185279" />
	</node>
	<node changeset="66796129" id="6248947794" lat="59.6168917" lon="11.0284222" timestamp="2019-01-31T09:52:30Z" uid="633013" user="Honning" version="1">
		<tag k="alt_name" v="Kirkerud nordre;Kirkerud" />
		<tag k="name" v="Nordre Kirkerud" />
		<tag k="place" v="farm" />
		<tag k="ssr:stedsnr" v="185341" />
	</node>
	<node changeset="66796129" id="6248947795" lat="59.6117722" lon="11.0828889" timestamp="2019-01-31T09:52:30Z" uid="633013" user="Honning" version="1">
		<tag k="name" v="Løken" />
		<tag k="place" v="farm" />
		<tag k="ssr:stedsnr" v="185347" />
	</node>
	<node changeset="66796129" id="6248947796" lat="59.5205583" lon="10.9901056" timestamp="2019-01-31T09:52:31Z" uid="633013" user="Honning" version="1">
		<tag k="name" v="Sagstua" />
		<tag k="place" v="farm" />
		<tag k="ssr:stedsnr" v="186060" />
	</node>
	<node changeset="66796129" id="6248947797" lat="59.5061528" lon="11.0571833" timestamp="2019-01-31T09:52:31Z" uid="633013" user="Honning" version="1">
		<tag k="alt_name" v="Ødegården" />
		<tag k="name" v="Ødegård" />
		<tag k="place" v="farm" />
		<tag k="ssr:stedsnr" v="186078" />
	</node>
	<node changeset="66796129" id="6248947798" lat="59.5917111" lon="11.0874417" timestamp="2019-01-31T09:52:31Z" uid="633013" user="Honning" version="1">
		<tag k="name" v="Dalen" />
		<tag k="place" v="farm" />
		<tag k="ssr:stedsnr" v="186124" />
	</node>
	<node changeset="66796129" id="6248947799" lat="59.5515417" lon="11.1072194" timestamp="2019-01-31T09:52:31Z" uid="633013" user="Honning" version="1">
		<tag k="name" v="Fagerhøy" />
		<tag k="place" v="farm" />
		<tag k="ssr:stedsnr" v="186598" />
	</node>
	<node changeset="66796129" id="6248947800" lat="59.6681389" lon="11.1937306" timestamp="2019-01-31T09:52:31Z" uid="633013" user="Honning" version="1">
		<tag k="name" v="Sandum" />
		<tag k="place" v="farm" />
		<tag k="ssr:stedsnr" v="186810" />
	</node>
	<node changeset="66796129" id="6248947801" lat="59.6514944" lon="11.108125" timestamp="2019-01-31T09:52:31Z" uid="633013" user="Honning" version="1">
		<tag k="name" v="Østby" />
		<tag k="place" v="farm" />
		<tag k="ssr:stedsnr" v="186777" />
	</node>
	<node changeset="66796129" id="6248947802" lat="59.6454222" lon="11.1022306" timestamp="2019-01-31T09:52:31Z" uid="633013" user="Honning" version="1">
		<tag k="alt_name" v="Galtebo" />
		<tag k="name" v="Galtebu" />
		<tag k="place" v="farm" />
		<tag k="ssr:stedsnr" v="186778" />
	</node>
	<node changeset="66796129" id="6248947803" lat="59.6368806" lon="11.1359306" timestamp="2019-01-31T09:52:31Z" uid="633013" user="Honning" version="1">
		<tag k="alt_name" v="Skoro vestre" />
		<tag k="name" v="Vestre Skoro" />
		<tag k="place" v="farm" />
		<tag k="ssr:stedsnr" v="186975" />
	</node>
	<node changeset="66796129" id="6248947804" lat="59.5645722" lon="11.0961972" timestamp="2019-01-31T09:52:31Z" uid="633013" user="Honning" version="1">
		<tag k="name" v="Prestby" />
		<tag k="place" v="farm" />
		<tag k="ssr:stedsnr" v="204597" />
	</node>
	<node changeset="66796129" id="6248947805" lat="59.6048167" lon="11.0997806" timestamp="2019-01-31T09:52:31Z" uid="633013" user="Honning" version="1">
		<tag k="name" v="Torget" />
		<tag k="place" v="farm" />
		<tag k="ssr:stedsnr" v="204640" />
	</node>
	<node changeset="66796129" id="6248947806" lat="59.6488833" lon="11.1368306" timestamp="2019-01-31T09:52:31Z" uid="633013" user="Honning" version="1">
		<tag k="alt_name" v="Ingstad vestre" />
		<tag k="name" v="Vestre Ingstad" />
		<tag k="place" v="farm" />
		<tag k="ssr:stedsnr" v="204686" />
	</node>
	<node changeset="66796129" id="6248947807" lat="59.5868889" lon="11.0621667" timestamp="2019-01-31T09:52:31Z" uid="633013" user="Honning" version="1">
		<tag k="name" v="Underlannet" />
		<tag k="place" v="locality" />
		<tag k="ssr:stedsnr" v="204771" />
	</node>
	<node changeset="66796129" id="6248947808" lat="59.5841861" lon="11.0258667" timestamp="2019-01-31T09:52:31Z" uid="633013" user="Honning" version="1">
		<tag k="name" v="Bjørkebakke" />
		<tag k="place" v="farm" />
		<tag k="ssr:stedsnr" v="204777" />
	</node>
	<node changeset="66796129" id="6248947809" lat="59.6402944" lon="11.0881417" timestamp="2019-01-31T09:52:31Z" uid="633013" user="Honning" version="1">
		<tag k="name" v="Hov" />
		<tag k="place" v="hamlet" />
		<tag k="ssr:stedsnr" v="237328" />
	</node>
	<node changeset="66796129" id="6248947810" lat="59.5097083" lon="11.065375" timestamp="2019-01-31T09:52:31Z" uid="633013" user="Honning" version="1">
		<tag k="name" v="Solli" />
		<tag k="place" v="farm" />
		<tag k="ssr:stedsnr" v="246077" />
	</node>
	<node changeset="66796129" id="6248947811" lat="59.6057972" lon="11.0716194" timestamp="2019-01-31T09:52:31Z" uid="633013" user="Honning" version="1">
		<tag k="name" v="Rud" />
		<tag k="place" v="farm" />
		<tag k="ssr:stedsnr" v="246139" />
	</node>
	<node changeset="66796129" id="6248947812" lat="59.6044417" lon="11.0544167" timestamp="2019-01-31T09:52:31Z" uid="633013" user="Honning" version="1">
		<tag k="alt_name" v="Molle, østre;Molle" />
		<tag k="name" v="Østre Molle" />
		<tag k="place" v="farm" />
		<tag k="ssr:stedsnr" v="246150" />
	</node>
	<node changeset="66796129" id="6248947813" lat="59.6101194" lon="11.0410139" timestamp="2019-01-31T09:52:31Z" uid="633013" user="Honning" version="1">
		<tag k="name" v="Skøyen" />
		<tag k="place" v="hamlet" />
		<tag k="ssr:stedsnr" v="246149" />
	</node>
	<node changeset="66796129" id="6248947814" lat="59.5510917" lon="11.0924305" timestamp="2019-01-31T09:52:32Z" uid="633013" user="Honning" version="1">
		<tag k="name" v="Ås" />
		<tag k="place" v="farm" />
		<tag k="ssr:stedsnr" v="246227" />
	</node>
	<node changeset="66796129" id="6248947815" lat="59.6789778" lon="11.0324417" timestamp="2019-01-31T09:52:32Z" uid="633013" user="Honning" version="1">
		<tag k="alt_name" v="Nesset" />
		<tag k="name" v="Nesa" />
		<tag k="place" v="farm" />
		<tag k="ssr:stedsnr" v="246421" />
	</node>
	<node changeset="66796129" id="6248947816" lat="59.5374417" lon="11.1168806" timestamp="2019-01-31T09:52:32Z" uid="633013" user="Honning" version="1">
		<tag k="name" v="Anstensrud" />
		<tag k="place" v="farm" />
		<tag k="ssr:stedsnr" v="246483" />
	</node>
	<node changeset="66796129" id="6248947817" lat="59.6879194" lon="11.1344583" timestamp="2019-01-31T09:52:32Z" uid="633013" user="Honning" version="1">
		<tag k="name" v="Vøyentangen" />
		<tag k="place" v="neighbourhood" />
		<tag k="ssr:stedsnr" v="246801" />
	</node>
	<node changeset="66796129" id="6248947818" lat="59.6157861" lon="11.1132639" timestamp="2019-01-31T09:52:32Z" uid="633013" user="Honning" version="1">
		<tag k="name" v="Bovum" />
		<tag k="place" v="farm" />
		<tag k="ssr:stedsnr" v="246918" />
	</node>
	<node changeset="66796129" id="6248947819" lat="59.5423639" lon="11.0044111" timestamp="2019-01-31T09:52:32Z" uid="633013" user="Honning" version="1">
		<tag k="name" v="Sagbakken" />
		<tag k="place" v="farm" />
		<tag k="ssr:stedsnr" v="247020" />
	</node>
	<node changeset="66796129" id="6248947820" lat="59.5193167" lon="11.0200139" timestamp="2019-01-31T09:52:32Z" uid="633013" user="Honning" version="1">
		<tag k="name" v="Fossen" />
		<tag k="place" v="hamlet" />
		<tag k="ssr:stedsnr" v="247051" />
	</node>
	<node changeset="66796129" id="6248947821" lat="59.5721306" lon="11.0868306" timestamp="2019-01-31T09:52:32Z" uid="633013" user="Honning" version="1">
		<tag k="name" v="Skogly" />
		<tag k="place" v="farm" />
		<tag k="ssr:stedsnr" v="247201" />
	</node>
	<node changeset="66796129" id="6248947822" lat="59.5575972" lon="11.0985083" timestamp="2019-01-31T09:52:32Z" uid="633013" user="Honning" version="1">
		<tag k="name" v="Nydalen" />
		<tag k="place" v="farm" />
		<tag k="ssr:stedsnr" v="264605" />
	</node>
	<node changeset="66796129" id="6248947823" lat="59.6717278" lon="11.1544194" timestamp="2019-01-31T09:52:32Z" uid="633013" user="Honning" version="1">
		<tag k="name" v="Tomta" />
		<tag k="place" v="locality" />
		<tag k="ssr:stedsnr" v="264686" />
	</node>
	<node changeset="66796129" id="6248947824" lat="59.6626833" lon="11.1434583" timestamp="2019-01-31T09:52:32Z" uid="633013" user="Honning" version="1">
		<tag k="name" v="Løvås" />
		<tag k="place" v="farm" />
		<tag k="ssr:stedsnr" v="264693" />
	</node>
	<node changeset="66796129" id="6248947825" lat="59.6460611" lon="11.0935583" timestamp="2019-01-31T09:52:32Z" uid="633013" user="Honning" version="1">
		<tag k="name" v="Bergenhus" />
		<tag k="place" v="farm" />
		<tag k="ssr:stedsnr" v="264703" />
	</node>
	<node changeset="66796129" id="6248947826" lat="59.6437444" lon="11.0941278" timestamp="2019-01-31T09:52:32Z" uid="633013" user="Honning" version="1">
		<tag k="name" v="Grønnlund" />
		<tag k="place" v="farm" />
		<tag k="ssr:stedsnr" v="264702" />
	</node>
	<node changeset="66796129" id="6248947827" lat="59.6541278" lon="11.1108444" timestamp="2019-01-31T09:52:32Z" uid="633013" user="Honning" version="1">
		<tag k="name" v="Huseby" />
		<tag k="place" v="hamlet" />
		<tag k="ssr:stedsnr" v="264716" />
	</node>
	<node changeset="66796129" id="6248947828" lat="59.5819417" lon="11.0639278" timestamp="2019-01-31T09:52:32Z" uid="633013" user="Honning" version="1">
		<tag k="name" v="Presthagen" />
		<tag k="place" v="farm" />
		<tag k="ssr:stedsnr" v="264783" />
	</node>
	<node changeset="66796129" id="6248947829" lat="59.5812889" lon="11.0928167" timestamp="2019-01-31T09:52:32Z" uid="633013" user="Honning" version="1">
		<tag k="name" v="Sørli" />
		<tag k="place" v="farm" />
		<tag k="ssr:stedsnr" v="264797" />
	</node>
	<node changeset="66796129" id="6248947830" lat="59.682525" lon="11.204925" timestamp="2019-01-31T09:52:32Z" uid="633013" user="Honning" version="1">
		<tag k="name" v="Kjerringstad" />
		<tag k="place" v="farm" />
		<tag k="ssr:stedsnr" v="266103" />
	</node>
	<node changeset="66796129" id="6248947831" lat="59.5474" lon="11.07955" timestamp="2019-01-31T09:52:32Z" uid="633013" user="Honning" version="1">
		<tag k="alt_name" v="Muskog" />
		<tag k="name" v="Moskau" />
		<tag k="place" v="farm" />
		<tag k="ssr:stedsnr" v="429215" />
	</node>
	<node changeset="66796129" id="6248947832" lat="59.5090056" lon="11.0426361" timestamp="2019-01-31T09:52:32Z" uid="633013" user="Honning" version="1">
		<tag k="name" v="Enga" />
		<tag k="place" v="farm" />
		<tag k="ssr:stedsnr" v="428082" />
	</node>
	<node changeset="66796129" id="6248947833" lat="59.6060833" lon="11.0579917" timestamp="2019-01-31T09:52:33Z" uid="633013" user="Honning" version="1">
		<tag k="alt_name" v="Eikeberg nordre" />
		<tag k="name" v="Eikeberg" />
		<tag k="place" v="farm" />
		<tag k="ssr:stedsnr" v="428131" />
	</node>
	<node changeset="66796129" id="6248947834" lat="59.5585778" lon="11.0587889" timestamp="2019-01-31T09:52:33Z" uid="633013" user="Honning" version="1">
		<tag k="name" v="Busterud" />
		<tag k="place" v="farm" />
		<tag k="ssr:stedsnr" v="325745;428223" />
	</node>
	<node changeset="66796129" id="6248947835" lat="59.6260889" lon="11.0800889" timestamp="2019-01-31T09:52:33Z" uid="633013" user="Honning" version="1">
		<tag k="name" v="Skuleberg" />
		<tag k="place" v="farm" />
		<tag k="ssr:stedsnr" v="428318" />
	</node>
	<node changeset="66796129" id="6248947836" lat="59.6169861" lon="11.0229333" timestamp="2019-01-31T09:52:33Z" uid="633013" user="Honning" version="1">
		<tag k="alt_name" v="Kirkerud vestre;Kirkerud" />
		<tag k="name" v="Vestre Kirkerud" />
		<tag k="place" v="farm" />
		<tag k="ssr:stedsnr" v="428324" />
	</node>
	<node changeset="66796129" id="6248947837" lat="59.5297278" lon="11.0002139" timestamp="2019-01-31T09:52:33Z" uid="633013" user="Honning" version="1">
		<tag k="alt_name" v="Mørk nordre" />
		<tag k="name" v="Nordre Mørk" />
		<tag k="place" v="farm" />
		<tag k="ssr:stedsnr" v="429014" />
	</node>
	<node changeset="66796129" id="6248947838" lat="59.5420417" lon="11.018475" timestamp="2019-01-31T09:52:33Z" uid="633013" user="Honning" version="1">
		<tag k="name" v="Bjørnstad" />
		<tag k="place" v="farm" />
		<tag k="ssr:stedsnr" v="429019" />
	</node>
	<node changeset="66796129" id="6248947839" lat="59.5778889" lon="11.0718583" timestamp="2019-01-31T09:52:33Z" uid="633013" user="Honning" version="1">
		<tag k="alt_name" v="Rud vestre;Rud" />
		<tag k="name" v="Vestre Rud" />
		<tag k="place" v="farm" />
		<tag k="ssr:stedsnr" v="429149" />
	</node>
	<node changeset="66796129" id="6248947840" lat="59.5853639" lon="11.0870555" timestamp="2019-01-31T09:52:33Z" uid="633013" user="Honning" version="1">
		<tag k="name" v="Haltorp" />
		<tag k="place" v="farm" />
		<tag k="ssr:stedsnr" v="429166" />
	</node>
	<node changeset="66796129" id="6248947841" lat="59.5557917" lon="11.117025" timestamp="2019-01-31T09:52:33Z" uid="633013" user="Honning" version="1">
		<tag k="name" v="Vrangen" />
		<tag k="place" v="farm" />
		<tag k="ssr:stedsnr" v="429503" />
	</node>
	<node changeset="66796129" id="6248947842" lat="59.6522639" lon="11.1454639" timestamp="2019-01-31T09:52:33Z" uid="633013" user="Honning" version="1">
		<tag k="name" v="Solberg" />
		<tag k="place" v="farm" />
		<tag k="ssr:stedsnr" v="429763" />
	</node>
	<node changeset="66796129" id="6248947843" lat="59.6408444" lon="11.0994917" timestamp="2019-01-31T09:52:33Z" uid="633013" user="Honning" version="1">
		<tag k="name" v="Moen" />
		<tag k="place" v="hamlet" />
		<tag k="ssr:stedsnr" v="429987" />
	</node>
	<node changeset="66796129" id="6248947844" lat="59.6727667" lon="11.0673417" timestamp="2019-01-31T09:52:33Z" uid="633013" user="Honning" version="1">
		<tag k="name" v="Gudbrandsdalen" />
		<tag k="place" v="farm" />
		<tag k="ssr:stedsnr" v="446696" />
	</node>
	<node changeset="66796129" id="6248947845" lat="59.6777194" lon="11.0767889" timestamp="2019-01-31T09:52:33Z" uid="633013" user="Honning" version="1">
		<tag k="name" v="Lystadhytta" />
		<tag k="place" v="isolated_dwelling" />
		<tag k="ssr:stedsnr" v="446697" />
	</node>
	<node changeset="66796129" id="6248947846" lat="59.6497528" lon="11.1009611" timestamp="2019-01-31T09:52:33Z" uid="633013" user="Honning" version="1">
		<tag k="name" v="Grinna" />
		<tag k="place" v="isolated_dwelling" />
		<tag k="ssr:stedsnr" v="446719" />
	</node>
	<node changeset="66796129" id="6248947847" lat="59.6488028" lon="11.1385222" timestamp="2019-01-31T09:52:33Z" uid="633013" user="Honning" version="1">
		<tag k="alt_name" v="Ingstad østre" />
		<tag k="name" v="Østre Ingstad" />
		<tag k="place" v="farm" />
		<tag k="ssr:stedsnr" v="446731" />
	</node>
	<node changeset="66796129" id="6248947848" lat="59.5631639" lon="11.1115139" timestamp="2019-01-31T09:52:33Z" uid="633013" user="Honning" version="1">
		<tag k="alt_name" v="Nordby øvre" />
		<tag k="name" v="Øvre Nordby" />
		<tag k="place" v="farm" />
		<tag k="ssr:stedsnr" v="447608" />
	</node>
	<node changeset="66796129" id="6248947849" lat="59.6341194" lon="11.0799972" timestamp="2019-01-31T09:52:34Z" uid="633013" user="Honning" version="1">
		<tag k="alt_name" v="Dingstad søndre" />
		<tag k="name" v="Søndre Dingstad" />
		<tag k="place" v="farm" />
		<tag k="ssr:stedsnr" v="447627" />
	</node>
	<node changeset="66796129" id="6248947850" lat="59.6316722" lon="11.1209056" timestamp="2019-01-31T09:52:34Z" uid="633013" user="Honning" version="1">
		<tag k="alt_name" v="Hovin søndre" />
		<tag k="name" v="Søndre Hovin" />
		<tag k="place" v="farm" />
		<tag k="ssr:stedsnr" v="447633" />
	</node>
	<node changeset="66796129" id="6248947851" lat="59.6751694" lon="11.14925" timestamp="2019-01-31T09:52:34Z" uid="633013" user="Honning" version="1">
		<tag k="name" v="Tretterstykket" />
		<tag k="place" v="locality" />
		<tag k="ssr:stedsnr" v="447682" />
	</node>
	<node changeset="66796129" id="6248947852" lat="59.5457306" lon="11.1224028" timestamp="2019-01-31T09:52:34Z" uid="633013" user="Honning" version="1">
		<tag k="name" v="Revhaug" />
		<tag k="place" v="farm" />
		<tag k="ssr:stedsnr" v="447788" />
	</node>
	<node changeset="66796129" id="6248947853" lat="59.5427917" lon="11.0873972" timestamp="2019-01-31T09:52:34Z" uid="633013" user="Honning" version="1">
		<tag k="name" v="Skreppa" />
		<tag k="place" v="locality" />
		<tag k="ssr:stedsnr" v="447794" />
	</node>
	<node changeset="66796129" id="6248947854" lat="59.5718417" lon="11.0548194" timestamp="2019-01-31T09:52:34Z" uid="633013" user="Honning" version="1">
		<tag k="name" v="Dæli" />
		<tag k="place" v="farm" />
		<tag k="ssr:stedsnr" v="186205;447981" />
	</node>
	<node changeset="66796129" id="6248947855" lat="59.6618556" lon="11.2250861" timestamp="2019-01-31T09:52:34Z" uid="633013" user="Honning" version="1">
		<tag k="name" v="Vassbråten" />
		<tag k="place" v="farm" />
		<tag k="ssr:stedsnr" v="449098" />
	</node>
	<node changeset="66796129" id="6248947856" lat="59.593875" lon="11.0648472" timestamp="2019-01-31T09:52:34Z" uid="633013" user="Honning" version="1">
		<tag k="name" v="Bjaberg" />
		<tag k="place" v="farm" />
		<tag k="ssr:stedsnr" v="489139" />
	</node>
	<node changeset="66796129" id="6248947857" lat="59.6792528" lon="11.0620861" timestamp="2019-01-31T09:52:34Z" uid="633013" user="Honning" version="1">
		<tag k="name" v="Amundrud" />
		<tag k="place" v="hamlet" />
		<tag k="ssr:stedsnr" v="489490" />
	</node>
	<node changeset="66796129" id="6248947858" lat="59.545525" lon="11.1020139" timestamp="2019-01-31T09:52:34Z" uid="633013" user="Honning" version="1">
		<tag k="name" v="Torp" />
		<tag k="place" v="farm" />
		<tag k="ssr:stedsnr" v="489525" />
	</node>
	<node changeset="66796129" id="6248947859" lat="59.5454583" lon="11.111775" timestamp="2019-01-31T09:52:34Z" uid="633013" user="Honning" version="1">
		<tag k="name" v="Mjølkeberg" />
		<tag k="place" v="farm" />
		<tag k="ssr:stedsnr" v="489537" />
	</node>
	<node changeset="66796129" id="6248947860" lat="59.6480167" lon="11.138275" timestamp="2019-01-31T09:52:34Z" uid="633013" user="Honning" version="1">
		<tag k="name" v="Ingstad" />
		<tag k="place" v="farm" />
		<tag k="ssr:stedsnr" v="489771" />
	</node>
	<node changeset="66796129" id="6248947861" lat="59.6627528" lon="11.1902167" timestamp="2019-01-31T09:52:34Z" uid="633013" user="Honning" version="1">
		<tag k="name" v="Haugland" />
		<tag k="place" v="farm" />
		<tag k="ssr:stedsnr" v="489790" />
	</node>
	<node changeset="66796129" id="6248947862" lat="59.6694611" lon="11.2106" timestamp="2019-01-31T09:52:34Z" uid="633013" user="Honning" version="1">
		<tag k="name" v="Mørk" />
		<tag k="place" v="farm" />
		<tag k="ssr:stedsnr" v="489794" />
	</node>
	<node changeset="66796129" id="6248947863" lat="59.6653139" lon="11.1976111" timestamp="2019-01-31T09:52:34Z" uid="633013" user="Honning" version="1">
		<tag k="name" v="Berger" />
		<tag k="place" v="farm" />
		<tag k="ssr:stedsnr" v="489795" />
	</node>
	<node changeset="66796129" id="6248947864" lat="59.631125" lon="11.0944333" timestamp="2019-01-31T09:52:34Z" uid="633013" user="Honning" version="1">
		<tag k="name" v="Sørli" />
		<tag k="place" v="farm" />
		<tag k="ssr:stedsnr" v="489965" />
	</node>
	<node changeset="66796129" id="6248947865" lat="59.6336778" lon="11.1212361" timestamp="2019-01-31T09:52:34Z" uid="633013" user="Honning" version="1">
		<tag k="alt_name" v="Trommelberg" />
		<tag k="name" v="Trammelberg" />
		<tag k="old_name" v="Tromelberg" />
		<tag k="place" v="farm" />
		<tag k="ssr:stedsnr" v="489966" />
	</node>
	<node changeset="66796129" id="6248947866" lat="59.6190472" lon="11.0943556" timestamp="2019-01-31T09:52:35Z" uid="633013" user="Honning" version="1">
		<tag k="name" v="Åsland" />
		<tag k="place" v="locality" />
		<tag k="ssr:stedsnr" v="507660" />
	</node>
	<node changeset="66796129" id="6248947867" lat="59.6055889" lon="11.1030361" timestamp="2019-01-31T09:52:35Z" uid="633013" user="Honning" version="1">
		<tag k="name" v="Hamborg" />
		<tag k="place" v="farm" />
		<tag k="ssr:stedsnr" v="507672" />
	</node>
	<node changeset="66796129" id="6248947868" lat="59.6751389" lon="11.0800917" timestamp="2019-01-31T09:52:35Z" uid="633013" user="Honning" version="1">
		<tag k="name" v="Sandås" />
		<tag k="place" v="farm" />
		<tag k="ssr:stedsnr" v="507697" />
	</node>
	<node changeset="66796129" id="6248947869" lat="59.5846056" lon="11.03105" timestamp="2019-01-31T09:52:35Z" uid="633013" user="Honning" version="1">
		<tag k="name" v="Sandvollen" />
		<tag k="place" v="farm" />
		<tag k="ssr:stedsnr" v="507798" />
	</node>
	<node changeset="66796129" id="6248947870" lat="59.6639111" lon="11.2081583" timestamp="2019-01-31T09:52:35Z" uid="633013" user="Honning" version="1">
		<tag k="name" v="Nes" />
		<tag k="place" v="farm" />
		<tag k="ssr:stedsnr" v="509097" />
	</node>
	<node changeset="66796129" id="6248947871" lat="59.6694889" lon="11.2124139" timestamp="2019-01-31T09:52:35Z" uid="633013" user="Honning" version="1">
		<tag k="name" v="Mørk" />
		<tag k="place" v="hamlet" />
		<tag k="ssr:stedsnr" v="509102" />
	</node>
	<node changeset="66796129" id="6248947872" lat="59.6213167" lon="11.1009194" timestamp="2019-01-31T09:52:35Z" uid="633013" user="Honning" version="1">
		<tag k="alt_name" v="Glennde mellom" />
		<tag k="name" v="Mellom-Glenne" />
		<tag k="place" v="farm" />
		<tag k="ssr:stedsnr" v="529216" />
	</node>
	<node changeset="66796129" id="6248947873" lat="59.5921222" lon="11.0590583" timestamp="2019-01-31T09:52:35Z" uid="633013" user="Honning" version="1">
		<tag k="alt_name" v="Tunnby" />
		<tag k="name" v="Tunby" />
		<tag k="place" v="farm" />
		<tag k="ssr:stedsnr" v="530446" />
	</node>
	<node changeset="66796129" id="6248947874" lat="59.5256868" lon="11.0041356" timestamp="2019-01-31T09:52:35Z" uid="633013" user="Honning" version="1">
		<tag k="name" v="Mørk" />
		<tag k="place" v="hamlet" />
		<tag k="ssr:stedsnr" v="540308" />
	</node>
	<node changeset="66796129" id="6248947875" lat="59.60465" lon="11.0370083" timestamp="2019-01-31T09:52:35Z" uid="633013" user="Honning" version="1">
		<tag k="alt_name" v="Hauger nordre" />
		<tag k="name" v="Hauer" />
		<tag k="place" v="farm" />
		<tag k="ssr:stedsnr" v="549157" />
	</node>
	<node changeset="66796129" id="6248947876" lat="59.6234972" lon="11.0926972" timestamp="2019-01-31T09:52:35Z" uid="633013" user="Honning" version="1">
		<tag k="name" v="Husa" />
		<tag k="place" v="farm" />
		<tag k="ssr:stedsnr" v="549353" />
	</node>
	<node changeset="66796129" id="6248947877" lat="59.6774972" lon="11.0545361" timestamp="2019-01-31T09:52:35Z" uid="633013" user="Honning" version="1">
		<tag k="name" v="Eikeland" />
		<tag k="place" v="farm" />
		<tag k="ssr:stedsnr" v="549436" />
	</node>
	<node changeset="66796129" id="6248947878" lat="59.6772667" lon="11.0792805" timestamp="2019-01-31T09:52:35Z" uid="633013" user="Honning" version="1">
		<tag k="name" v="Dalen" />
		<tag k="place" v="farm" />
		<tag k="ssr:stedsnr" v="549437" />
	</node>
	<node changeset="66796129" id="6248947879" lat="59.540275" lon="11.084725" timestamp="2019-01-31T09:52:35Z" uid="633013" user="Honning" version="1">
		<tag k="alt_name" v="Bjørneklemma" />
		<tag k="name" v="Klemma" />
		<tag k="place" v="farm" />
		<tag k="ssr:stedsnr" v="550026" />
	</node>
	<node changeset="66796129" id="6248947880" lat="59.5480417" lon="11.0190806" timestamp="2019-01-31T09:52:35Z" uid="633013" user="Honning" version="1">
		<tag k="alt_name" v="Kvarudmyren;Søndre Kvarud;Kvarudmyra" />
		<tag k="fixme" v="multiple name tags, choose one and add the other to alt_name" />
		<tag k="name" v="Kvarud søndre" />
		<tag k="place" v="farm" />
		<tag k="ssr:stedsnr" v="550232" />
	</node>
	<node changeset="66796129" id="6248947881" lat="59.658525" lon="11.1072194" timestamp="2019-01-31T09:52:35Z" uid="633013" user="Honning" version="1">
		<tag k="alt_name" v="Huseby vestre" />
		<tag k="name" v="Huseby" />
		<tag k="place" v="farm" />
		<tag k="ssr:stedsnr" v="550774" />
	</node>
	<node changeset="66796129" id="6248947882" lat="59.6592972" lon="11.1351222" timestamp="2019-01-31T09:52:36Z" uid="633013" user="Honning" version="1">
		<tag k="name" v="Li" />
		<tag k="place" v="farm" />
		<tag k="ssr:stedsnr" v="550776" />
	</node>
	<node changeset="66796129" id="6248947883" lat="59.6648694" lon="11.1081306" timestamp="2019-01-31T09:52:36Z" uid="633013" user="Honning" version="1">
		<tag k="name" v="Holtet" />
		<tag k="place" v="farm" />
		<tag k="ssr:stedsnr" v="550787" />
	</node>
	<node changeset="66796129" id="6248947884" lat="59.6375167" lon="11.142925" timestamp="2019-01-31T09:52:36Z" uid="633013" user="Honning" version="1">
		<tag k="alt_name" v="Skoro østre" />
		<tag k="name" v="Østre Skoro" />
		<tag k="place" v="farm" />
		<tag k="ssr:stedsnr" v="550977" />
	</node>
	<node changeset="66796129" id="6248947885" lat="59.590875" lon="11.077275" timestamp="2019-01-31T09:52:36Z" uid="633013" user="Honning" version="1">
		<tag k="alt_name" v="Prestegården" />
		<tag k="name" v="Vasstvet" />
		<tag k="place" v="farm" />
		<tag k="ssr:stedsnr" v="610213" />
	</node>
	<node changeset="66796129" id="6248947886" lat="59.5713972" lon="11.0354222" timestamp="2019-01-31T09:52:36Z" uid="633013" user="Honning" version="1">
		<tag k="alt_name" v="Unnerud østre" />
		<tag k="name" v="Østre Unnerud" />
		<tag k="place" v="farm" />
		<tag k="ssr:stedsnr" v="610254" />
	</node>
	<node changeset="66796129" id="6248947887" lat="59.5617333" lon="11.084275" timestamp="2019-01-31T09:52:36Z" uid="633013" user="Honning" version="1">
		<tag k="name" v="Prestby" />
		<tag k="place" v="farm" />
		<tag k="ssr:stedsnr" v="610286" />
	</node>
	<node changeset="66796129" id="6248947888" lat="59.5588583" lon="10.9984722" timestamp="2019-01-31T09:52:36Z" uid="633013" user="Honning" version="1">
		<tag k="alt_name" v="Granerud" />
		<tag k="name" v="Granrud" />
		<tag k="place" v="farm" />
		<tag k="ssr:stedsnr" v="610292" />
	</node>
	<node changeset="66796129" id="6248947889" lat="59.5627528" lon="11.0630222" timestamp="2019-01-31T09:52:36Z" uid="633013" user="Honning" version="1">
		<tag k="name" v="Skjersåker" />
		<tag k="place" v="farm" />
		<tag k="ssr:stedsnr" v="567609" />
	</node>
	<node changeset="66796129" id="6248947890" lat="59.6338222" lon="11.0591222" timestamp="2019-01-31T09:52:36Z" uid="633013" user="Honning" version="1">
		<tag k="name" v="Fjellstad" />
		<tag k="place" v="isolated_dwelling" />
		<tag k="ssr:stedsnr" v="567627" />
	</node>
	<node changeset="66796129" id="6248947891" lat="59.663625" lon="11.1518861" timestamp="2019-01-31T09:52:36Z" uid="633013" user="Honning" version="1">
		<tag k="name" v="Fagerås" />
		<tag k="place" v="farm" />
		<tag k="ssr:stedsnr" v="567690" />
	</node>
	<node changeset="66796129" id="6248947892" lat="59.6445306" lon="11.1014111" timestamp="2019-01-31T09:52:36Z" uid="633013" user="Honning" version="1">
		<tag k="alt_name" v="Galtebo nedre" />
		<tag k="name" v="Nedre Galtebo" />
		<tag k="place" v="farm" />
		<tag k="ssr:stedsnr" v="567708" />
	</node>
	<node changeset="66796129" id="6248947893" lat="59.5433472" lon="11.0907389" timestamp="2019-01-31T09:52:36Z" uid="633013" user="Honning" version="1">
		<tag k="name" v="Bjørnebekk" />
		<tag k="place" v="farm" />
		<tag k="ssr:stedsnr" v="567810" />
	</node>
	<node changeset="66796129" id="6248947894" lat="59.6674861" lon="11.2043639" timestamp="2019-01-31T09:52:36Z" uid="633013" user="Honning" version="1">
		<tag k="name" v="Teverud" />
		<tag k="place" v="farm" />
		<tag k="ssr:stedsnr" v="569130" />
	</node>
	<node changeset="66796129" id="6248947895" lat="59.6582417" lon="11.06955" timestamp="2019-01-31T09:52:36Z" uid="633013" user="Honning" version="1">
		<tag k="name" v="Passop" />
		<tag k="place" v="farm" />
		<tag k="ssr:stedsnr" v="609241" />
	</node>
	<node changeset="66796129" id="6248947896" lat="59.652225" lon="11.0532917" timestamp="2019-01-31T09:52:36Z" uid="633013" user="Honning" version="1">
		<tag k="name" v="Bjørnstad" />
		<tag k="place" v="farm" />
		<tag k="ssr:stedsnr" v="609257" />
	</node>
	<node changeset="66796129" id="6248947897" lat="59.6346639" lon="11.0585722" timestamp="2019-01-31T09:52:36Z" uid="633013" user="Honning" version="1">
		<tag k="name" v="Kvardal" />
		<tag k="place" v="farm" />
		<tag k="ssr:stedsnr" v="609310" />
	</node>
	<node changeset="66796129" id="6248947898" lat="59.54505" lon="11.0758139" timestamp="2019-01-31T09:52:36Z" uid="633013" user="Honning" version="1">
		<tag k="name" v="Røtterud" />
		<tag k="place" v="farm" />
		<tag k="ssr:stedsnr" v="610024" />
	</node>
	<node changeset="66796129" id="6248947899" lat="59.576675" lon="11.051075" timestamp="2019-01-31T09:52:37Z" uid="633013" user="Honning" version="1">
		<tag k="name" v="Vestby" />
		<tag k="place" v="farm" />
		<tag k="ssr:stedsnr" v="610182" />
	</node>
	<node changeset="66796129" id="6248947900" lat="59.6779083" lon="11.0704583" timestamp="2019-01-31T09:52:37Z" uid="633013" user="Honning" version="1">
		<tag k="name" v="Lystad" />
		<tag k="place" v="farm" />
		<tag k="ssr:stedsnr" v="610509" />
	</node>
	<node changeset="66796129" id="6248947901" lat="59.6622278" lon="11.1320583" timestamp="2019-01-31T09:52:37Z" uid="633013" user="Honning" version="1">
		<tag k="name" v="Nordli" />
		<tag k="place" v="farm" />
		<tag k="ssr:stedsnr" v="610795" />
	</node>
	<node changeset="66796129" id="6248947902" lat="59.6709667" lon="11.1288667" timestamp="2019-01-31T09:52:37Z" uid="633013" user="Honning" version="1">
		<tag k="name" v="Vøyen" />
		<tag k="place" v="farm" />
		<tag k="ssr:stedsnr" v="610809" />
	</node>
	<node changeset="66796129" id="6248947903" lat="59.6647389" lon="11.1560806" timestamp="2019-01-31T09:52:37Z" uid="633013" user="Honning" version="1">
		<tag k="name" v="Hjertum" />
		<tag k="place" v="farm" />
		<tag k="ssr:stedsnr" v="610810" />
	</node>
	<node changeset="66796129" id="6248947904" lat="59.65045" lon="11.1619778" timestamp="2019-01-31T09:52:37Z" uid="633013" user="Honning" version="1">
		<tag k="name" v="Solli" />
		<tag k="place" v="locality" />
		<tag k="ssr:stedsnr" v="610999" />
	</node>
	<node changeset="66796129" id="6248947905" lat="59.5538583" lon="11.0966389" timestamp="2019-01-31T09:52:37Z" uid="633013" user="Honning" version="1">
		<tag k="name" v="Alvum" />
		<tag k="place" v="farm" />
		<tag k="ssr:stedsnr" v="611557" />
	</node>
	<node changeset="66796129" id="6248947906" lat="59.6319417" lon="11.0609111" timestamp="2019-01-31T09:52:37Z" uid="633013" user="Honning" version="1">
		<tag k="name" v="Leon" />
		<tag k="place" v="locality" />
		<tag k="ssr:stedsnr" v="628628" />
	</node>
	<node changeset="66796129" id="6248947907" lat="59.6253611" lon="11.1070667" timestamp="2019-01-31T09:52:37Z" uid="633013" user="Honning" version="1">
		<tag k="name" v="Gresshagen" />
		<tag k="place" v="farm" />
		<tag k="ssr:stedsnr" v="628640" />
	</node>
	<node changeset="66796129" id="6248947908" lat="59.6321833" lon="11.1197778" timestamp="2019-01-31T09:52:37Z" uid="633013" user="Honning" version="1">
		<tag k="alt_name" v="Hovin nordre" />
		<tag k="name" v="Nordre Hovin" />
		<tag k="place" v="farm" />
		<tag k="ssr:stedsnr" v="628643" />
	</node>
	<node changeset="66796129" id="6248947909" lat="59.602175" lon="11.0582528" timestamp="2019-01-31T09:52:37Z" uid="633013" user="Honning" version="1">
		<tag k="name" v="Bjabergholtet" />
		<tag k="place" v="farm" />
		<tag k="ssr:stedsnr" v="628646" />
	</node>
	<node changeset="66796129" id="6248947910" lat="59.6570556" lon="11.0802361" timestamp="2019-01-31T09:52:37Z" uid="633013" user="Honning" version="1">
		<tag k="name" v="Hustangen" />
		<tag k="place" v="isolated_dwelling" />
		<tag k="ssr:stedsnr" v="628694" />
	</node>
	<node changeset="66796129" id="6248947911" lat="59.5475" lon="11.0746611" timestamp="2019-01-31T09:52:37Z" uid="633013" user="Honning" version="1">
		<tag k="name" v="Petersborg" />
		<tag k="place" v="farm" />
		<tag k="ssr:stedsnr" v="64225;628786" />
	</node>
	<node changeset="20908244" id="2701150692" lat="59.6218681" lon="11.1230281" timestamp="2014-03-04T11:35:51Z" uid="1872183" user="sturlak" version="1" />
	<node changeset="20908244" id="2701150693" lat="59.6218681" lon="11.1233178" timestamp="2014-03-04T11:35:51Z" uid="1872183" user="sturlak" version="1" />
	<node changeset="20908244" id="2701150694" lat="59.6214611" lon="11.123468" timestamp="2014-03-04T11:35:51Z" uid="1872183" user="sturlak" version="1" />
	<node changeset="20908244" id="2701150695" lat="59.6213472" lon="11.1236182" timestamp="2014-03-04T11:35:51Z" uid="1872183" user="sturlak" version="1" />
	<node changeset="20908244" id="2701150696" lat="59.6212767" lon="11.1238542" timestamp="2014-03-04T11:35:51Z" uid="1872183" user="sturlak" version="1" />
	<node changeset="20908244" id="2701150697" lat="59.6211627" lon="11.1238328" timestamp="2014-03-04T11:35:51Z" uid="1872183" user="sturlak" version="1" />
	<node changeset="20908244" id="2701150698" lat="59.6210813" lon="11.1234036" timestamp="2014-03-04T11:35:51Z" uid="1872183" user="sturlak" version="1" />
	<node changeset="20908244" id="2701150699" lat="59.6211668" lon="11.1230527" timestamp="2014-03-04T11:35:51Z" uid="1872183" user="sturlak" version="1" />
	<node changeset="20908244" id="2701150700" lat="59.6214896" lon="11.1228086" timestamp="2014-03-04T11:35:51Z" uid="1872183" user="sturlak" version="1" />
	<node changeset="20908244" id="2701150701" lat="59.6215534" lon="11.1229852" timestamp="2014-03-04T11:35:51Z" uid="1872183" user="sturlak" version="1" />
	<node changeset="20908244" id="2701150822" lat="59.6196109" lon="11.119983" timestamp="2014-03-04T11:35:53Z" uid="1872183" user="sturlak" version="1" />
	<node changeset="20908244" id="2701150823" lat="59.6195187" lon="11.1208413" timestamp="2014-03-04T11:35:53Z" uid="1872183" user="sturlak" version="1" />
	<node changeset="20908244" id="2701150824" lat="59.6190032" lon="11.1206375" timestamp="2014-03-04T11:35:53Z" uid="1872183" user="sturlak" version="1" />
	<node changeset="20908244" id="2701150825" lat="59.6189924" lon="11.1202834" timestamp="2014-03-04T11:35:53Z" uid="1872183" user="sturlak" version="1" />
	<node changeset="20908244" id="2701150826" lat="59.6190304" lon="11.1197577" timestamp="2014-03-04T11:35:53Z" uid="1872183" user="sturlak" version="1" />
	<node changeset="20908244" id="2701150827" lat="59.6191117" lon="11.119629" timestamp="2014-03-04T11:35:53Z" uid="1872183" user="sturlak" version="1" />
	<node changeset="20886451" id="2699773061" lat="59.6089133" lon="11.0990877" timestamp="2014-03-03T11:42:04Z" uid="1872183" user="sturlak" version="1" />
	<node changeset="20886451" id="2699773063" lat="59.6090816" lon="11.0998602" timestamp="2014-03-03T11:42:04Z" uid="1872183" user="sturlak" version="1" />
	<node changeset="20886451" id="2699773064" lat="59.6086419" lon="11.1005039" timestamp="2014-03-03T11:42:04Z" uid="1872183" user="sturlak" version="1" />
	<node changeset="20886451" id="2699773066" lat="59.6082837" lon="11.0995919" timestamp="2014-03-03T11:42:04Z" uid="1872183" user="sturlak" version="1" />
	<node changeset="20886451" id="2699773194" lat="59.6107017" lon="11.1086962" timestamp="2014-03-03T11:42:07Z" uid="1872183" user="sturlak" version="1" />
	<node changeset="20886451" id="2699773195" lat="59.6108754" lon="11.1095598" timestamp="2014-03-03T11:42:07Z" uid="1872183" user="sturlak" version="1" />
	<node changeset="20886451" id="2699773196" lat="59.6105389" lon="11.1097154" timestamp="2014-03-03T11:42:07Z" uid="1872183" user="sturlak" version="1" />
	<node changeset="20886451" id="2699773197" lat="59.610433" lon="11.1097154" timestamp="2014-03-03T11:42:07Z" uid="1872183" user="sturlak" version="1" />
	<node changeset="20886451" id="2699773198" lat="59.6103842" lon="11.1087284" timestamp="2014-03-03T11:42:07Z" uid="1872183" user="sturlak" version="1" />
	<node changeset="66796129" id="6248947177" lat="59.5570222" lon="11.0662583" timestamp="2019-01-31T09:52:17Z" uid="633013" user="Honning" version="1">
		<tag k="alt_name" v="Børen nedre" />
		<tag k="name" v="Nedre Børen" />
		<tag k="place" v="farm" />
		<tag k="ssr:stedsnr" v="632632" />
	</node>
	<node changeset="66796129" id="6248947178" lat="59.5656667" lon="11.0751556" timestamp="2019-01-31T09:52:17Z" uid="633013" user="Honning" version="1">
		<tag k="name" v="Østli" />
		<tag k="place" v="farm" />
		<tag k="ssr:stedsnr" v="671206" />
	</node>
	<node changeset="66796129" id="6248947179" lat="59.5488556" lon="11.0221722" timestamp="2019-01-31T09:52:17Z" uid="633013" user="Honning" version="1">
		<tag k="name" v="Langholen" />
		<tag k="place" v="farm" />
		<tag k="ssr:stedsnr" v="671228" />
	</node>
	<node changeset="66796129" id="6248947180" lat="59.5604722" lon="11.0616667" timestamp="2019-01-31T09:52:17Z" uid="633013" user="Honning" version="1">
		<tag k="alt_name" v="Skjersåker" />
		<tag k="name" v="Skjersåker søndre" />
		<tag k="place" v="farm" />
		<tag k="ssr:stedsnr" v="671250" />
	</node>
	<node changeset="66796129" id="6248947181" lat="59.5631417" lon="11.0408611" timestamp="2019-01-31T09:52:17Z" uid="633013" user="Honning" version="1">
		<tag k="name" v="Skogrem" />
		<tag k="place" v="farm" />
		<tag k="ssr:stedsnr" v="671252" />
	</node>
	<node changeset="66796129" id="6248947182" lat="59.5654889" lon="11.036875" timestamp="2019-01-31T09:52:17Z" uid="633013" user="Honning" version="1">
		<tag k="name" v="Nygård" />
		<tag k="place" v="hamlet" />
		<tag k="ssr:stedsnr" v="671253" />
	</node>
	<node changeset="66796129" id="6248947183" lat="59.6372056" lon="11.0688917" timestamp="2019-01-31T09:52:18Z" uid="633013" user="Honning" version="1">
		<tag k="alt_name" v="Bøler vestby" />
		<tag k="name" v="Vestby" />
		<tag k="place" v="farm" />
		<tag k="ssr:stedsnr" v="670289" />
	</node>
	<node changeset="66796129" id="6248947184" lat="59.6410056" lon="11.0825917" timestamp="2019-01-31T09:52:18Z" uid="633013" user="Honning" version="1">
		<tag k="alt_name" v="Hov vestre" />
		<tag k="name" v="Vestre Hov" />
		<tag k="place" v="farm" />
		<tag k="ssr:stedsnr" v="670292" />
	</node>
	<node changeset="66796129" id="6248947285" lat="59.6305528" lon="11.0924472" timestamp="2019-01-31T09:52:18Z" uid="633013" user="Honning" version="1">
		<tag k="name" v="Østvet" />
		<tag k="place" v="farm" />
		<tag k="ssr:stedsnr" v="670315" />
	</node>
	<node changeset="66796129" id="6248947286" lat="59.6205472" lon="11.0743917" timestamp="2019-01-31T09:52:18Z" uid="633013" user="Honning" version="1">
		<tag k="name" v="Hylli" />
		<tag k="place" v="farm" />
		<tag k="ssr:stedsnr" v="670346" />
	</node>
	<node changeset="66796129" id="6248947287" lat="59.6204557" lon="11.0642027" timestamp="2019-01-31T09:52:18Z" uid="633013" user="Honning" version="1">
		<tag k="alt_name" v="Løvstad vestre;Vestre Løvstad" />
		<tag k="name" v="Vestre Løvestad" />
		<tag k="place" v="farm" />
		<tag k="ssr:stedsnr" v="670366" />
	</node>
	<node changeset="66796129" id="6248947288" lat="59.5416861" lon="11.0023" timestamp="2019-01-31T09:52:18Z" uid="633013" user="Honning" version="1">
		<tag k="name" v="Høgås" />
		<tag k="place" v="farm" />
		<tag k="ssr:stedsnr" v="671021" />
	</node>
	<node changeset="66796129" id="6248947289" lat="59.521175" lon="11.0372917" timestamp="2019-01-31T09:52:18Z" uid="633013" user="Honning" version="1">
		<tag k="alt_name" v="Jammerbakke" />
		<tag k="name" v="Bakke" />
		<tag k="place" v="farm" />
		<tag k="ssr:stedsnr" v="671051" />
	</node>
	<node changeset="66796129" id="6248947290" lat="59.5795611" lon="11.0450722" timestamp="2019-01-31T09:52:18Z" uid="633013" user="Honning" version="1">
		<tag k="name" v="Fjerdingen" />
		<tag k="place" v="farm" />
		<tag k="ssr:stedsnr" v="671160" />
	</node>
	<node changeset="66796129" id="6248947291" lat="59.6554056" lon="11.1474417" timestamp="2019-01-31T09:52:18Z" uid="633013" user="Honning" version="1">
		<tag k="alt_name" v="Glåmvik" />
		<tag k="name" v="Glomsvik" />
		<tag k="place" v="farm" />
		<tag k="ssr:stedsnr" v="671744" />
	</node>
	<node changeset="66796129" id="6248947292" lat="59.64475" lon="11.1495611" timestamp="2019-01-31T09:52:18Z" uid="633013" user="Honning" version="1">
		<tag k="name" v="Holm" />
		<tag k="place" v="farm" />
		<tag k="ssr:stedsnr" v="671763" />
	</node>
	<node changeset="66796129" id="6248947293" lat="59.6699167" lon="11.2225445" timestamp="2019-01-31T09:52:18Z" uid="633013" user="Honning" version="1">
		<tag k="name" v="Skarpsno" />
		<tag k="place" v="farm" />
		<tag k="ssr:stedsnr" v="671782" />
	</node>
	<node changeset="66796129" id="6248947294" lat="59.6654861" lon="11.2258556" timestamp="2019-01-31T09:52:18Z" uid="633013" user="Honning" version="1">
		<tag k="name" v="Sandvik" />
		<tag k="place" v="farm" />
		<tag k="ssr:stedsnr" v="671783" />
	</node>
	<node changeset="66796129" id="6248947295" lat="59.6068694" lon="11.105825" timestamp="2019-01-31T09:52:18Z" uid="633013" user="Honning" version="1">
		<tag k="name" v="Doggetorp" />
		<tag k="place" v="farm" />
		<tag k="ssr:stedsnr" v="671902" />
	</node>
	<node changeset="66796129" id="6248947296" lat="59.6287028" lon="11.1145" timestamp="2019-01-31T09:52:18Z" uid="633013" user="Honning" version="1">
		<tag k="name" v="Åkeberg" />
		<tag k="place" v="farm" />
		<tag k="ssr:stedsnr" v="810653;671966" />
	</node>
	<node changeset="66796129" id="6248947297" lat="59.5641444" lon="11.1044222" timestamp="2019-01-31T09:52:18Z" uid="633013" user="Honning" version="1">
		<tag k="alt_name" v="Nordby mellem" />
		<tag k="name" v="Mellom-Nordby" />
		<tag k="place" v="farm" />
		<tag k="ssr:stedsnr" v="689581" />
	</node>
	<node changeset="66796129" id="6248947298" lat="59.6043139" lon="11.0749028" timestamp="2019-01-31T09:52:18Z" uid="633013" user="Honning" version="1">
		<tag k="name" v="Buerhøgda" />
		<tag k="place" v="farm" />
		<tag k="ssr:stedsnr" v="689613" />
	</node>
	<node changeset="66796129" id="6248947299" lat="59.6650278" lon="11.1453611" timestamp="2019-01-31T09:52:18Z" uid="633013" user="Honning" version="1">
		<tag k="name" v="Hvitstein" />
		<tag k="place" v="farm" />
		<tag k="ssr:stedsnr" v="689659" />
	</node>
	<node changeset="66796129" id="6248947300" lat="59.6565694" lon="11.0942694" timestamp="2019-01-31T09:52:18Z" uid="633013" user="Honning" version="1">
		<tag k="name" v="Frantsvoll" />
		<tag k="place" v="farm" />
		<tag k="ssr:stedsnr" v="689662" />
	</node>
	<node changeset="66796129" id="6248947301" lat="59.6532333" lon="11.1417389" timestamp="2019-01-31T09:52:19Z" uid="633013" user="Honning" version="1">
		<tag k="alt_name" v="Solberg vestre" />
		<tag k="name" v="Vestre Solberg" />
		<tag k="place" v="farm" />
		<tag k="ssr:stedsnr" v="689678" />
	</node>
	<node changeset="66796129" id="6248947302" lat="59.612675" lon="11.020575" timestamp="2019-01-31T09:52:19Z" uid="633013" user="Honning" version="1">
		<tag k="name" v="Ormerud" />
		<tag k="place" v="farm" />
		<tag k="ssr:stedsnr" v="689721" />
	</node>
	<node changeset="66796129" id="6248947303" lat="59.5865528" lon="11.0585167" timestamp="2019-01-31T09:52:19Z" uid="633013" user="Honning" version="1">
		<tag k="name" v="Siljestykket" />
		<tag k="place" v="locality" />
		<tag k="ssr:stedsnr" v="689753" />
	</node>
	<node changeset="66796129" id="6248947304" lat="59.5412972" lon="11.1168889" timestamp="2019-01-31T09:52:19Z" uid="633013" user="Honning" version="1">
		<tag k="name" v="Mjølkeberg" />
		<tag k="place" v="farm" />
		<tag k="ssr:stedsnr" v="689771" />
	</node>
	<node changeset="66796129" id="6248947305" lat="59.5550886" lon="11.0751121" timestamp="2019-01-31T09:52:19Z" uid="633013" user="Honning" version="1">
		<tag k="name" v="Børen" />
		<tag k="place" v="hamlet" />
		<tag k="ssr:stedsnr" v="722326" />
	</node>
	<node changeset="66796129" id="6248947306" lat="59.6170806" lon="11.0855778" timestamp="2019-01-31T09:52:19Z" uid="633013" user="Honning" version="1">
		<tag k="name" v="Spydeberg" />
		<tag k="place" v="village" />
		<tag k="ssr:stedsnr" v="731297" />
	</node>
	<node changeset="66796129" id="6248947307" lat="59.545925" lon="11.0215361" timestamp="2019-01-31T09:52:19Z" uid="633013" user="Honning" version="1">
		<tag k="alt_name" v="Harestad" />
		<tag k="name" v="Harastad" />
		<tag k="place" v="farm" />
		<tag k="ssr:stedsnr" v="732018" />
	</node>
	<node changeset="66796129" id="6248947308" lat="59.5681028" lon="11.0864222" timestamp="2019-01-31T09:52:19Z" uid="633013" user="Honning" version="1">
		<tag k="alt_name" v="Skorrberg øvre" />
		<tag k="name" v="Skorreberg" />
		<tag k="place" v="farm" />
		<tag k="ssr:stedsnr" v="732215" />
	</node>
	<node changeset="66796129" id="6248947309" lat="59.5545667" lon="11.0818861" timestamp="2019-01-31T09:52:19Z" uid="633013" user="Honning" version="1">
		<tag k="name" v="Kleiver" />
		<tag k="place" v="farm" />
		<tag k="ssr:stedsnr" v="732242" />
	</node>
	<node changeset="66796129" id="6248947310" lat="59.5548168" lon="11.0754569" timestamp="2019-01-31T09:52:19Z" uid="633013" user="Honning" version="1">
		<tag k="alt_name" v="Børen øvre" />
		<tag k="name" v="Øvre Børen" />
		<tag k="place" v="farm" />
		<tag k="ssr:stedsnr" v="732261" />
	</node>
	<node changeset="66796129" id="6248947311" lat="59.686978" lon="11.0799351" timestamp="2019-01-31T09:52:19Z" uid="633013" user="Honning" version="1">
		<tag k="name" v="Kleiva" />
		<tag k="place" v="farm" />
		<tag k="ssr:stedsnr" v="732445" />
	</node>
	<node changeset="66796129" id="6248947312" lat="59.5421" lon="11.1004361" timestamp="2019-01-31T09:52:19Z" uid="633013" user="Honning" version="1">
		<tag k="name" v="Kiserud" />
		<tag k="place" v="hamlet" />
		<tag k="ssr:stedsnr" v="732543" />
	</node>
	<node changeset="66796129" id="6248947313" lat="59.5544306" lon="11.1059083" timestamp="2019-01-31T09:52:19Z" uid="633013" user="Honning" version="1">
		<tag k="alt_name" v="Heli, søndre;Heli søndre" />
		<tag k="name" v="Søndre Heli" />
		<tag k="place" v="farm" />
		<tag k="ssr:stedsnr" v="732572" />
	</node>
	<node changeset="66796129" id="6248947314" lat="59.6544972" lon="11.1180056" timestamp="2019-01-31T09:52:19Z" uid="633013" user="Honning" version="1">
		<tag k="alt_name" v="Berger søndre" />
		<tag k="name" v="Søndre Berger" />
		<tag k="place" v="farm" />
		<tag k="ssr:stedsnr" v="732778" />
	</node>
	<node changeset="66796129" id="6248947315" lat="59.5631333" lon="11.0842417" timestamp="2019-01-31T09:52:19Z" uid="633013" user="Honning" version="1">
		<tag k="name" v="Skorrberg" />
		<tag k="place" v="farm" />
		<tag k="ssr:stedsnr" v="750619" />
	</node>
	<node changeset="66796129" id="6248947316" lat="59.6642083" lon="11.1549555" timestamp="2019-01-31T09:52:19Z" uid="633013" user="Honning" version="1">
		<tag k="name" v="Hjertum" />
		<tag k="place" v="hamlet" />
		<tag k="ssr:stedsnr" v="750684" />
	</node>
	<node changeset="66796129" id="6248947317" lat="59.5613889" lon="10.9912695" timestamp="2019-01-31T09:52:19Z" uid="633013" user="Honning" version="1">
		<tag k="name" v="Stenerud" />
		<tag k="place" v="hamlet" />
		<tag k="ssr:stedsnr" v="750978" />
	</node>
	<node changeset="66796129" id="6248947318" lat="59.5127111" lon="11.0382861" timestamp="2019-01-31T09:52:19Z" uid="633013" user="Honning" version="1">
		<tag k="name" v="Espenes" />
		<tag k="place" v="isolated_dwelling" />
		<tag k="ssr:stedsnr" v="750989" />
	</node>
	<node changeset="66796129" id="6248947319" lat="59.671525" lon="11.2206472" timestamp="2019-01-31T09:52:20Z" uid="633013" user="Honning" version="1">
		<tag k="name" v="Englund" />
		<tag k="place" v="farm" />
		<tag k="ssr:stedsnr" v="752088" />
	</node>
	<node changeset="66796129" id="6248947320" lat="59.6604444" lon="11.1785667" timestamp="2019-01-31T09:52:20Z" uid="633013" user="Honning" version="1">
		<tag k="alt_name" v="Skråperud nordre" />
		<tag k="name" v="Nordre Skråperud" />
		<tag k="place" v="farm" />
		<tag k="ssr:stedsnr" v="752090" />
	</node>
	<node changeset="66796129" id="6248947321" lat="59.6591722" lon="11.177225" timestamp="2019-01-31T09:52:20Z" uid="633013" user="Honning" version="1">
		<tag k="alt_name" v="Skråperud søndre" />
		<tag k="name" v="Søndre Skråperud" />
		<tag k="place" v="farm" />
		<tag k="ssr:stedsnr" v="752092" />
	</node>
	<node changeset="66796129" id="6248947322" lat="59.5629889" lon="11.08655" timestamp="2019-01-31T09:52:20Z" uid="633013" user="Honning" version="1">
		<tag k="alt_name" v="Skorrberg" />
		<tag k="name" v="Skorreberg" />
		<tag k="place" v="farm" />
		<tag k="ssr:stedsnr" v="792236" />
	</node>
	<node changeset="66796129" id="6248947323" lat="59.6301639" lon="11.0615222" timestamp="2019-01-31T09:52:20Z" uid="633013" user="Honning" version="1">
		<tag k="alt_name" v="Hyllibråten" />
		<tag k="name" v="Bråten" />
		<tag k="place" v="farm" />
		<tag k="ssr:stedsnr" v="792293" />
	</node>
	<node changeset="66796129" id="6248947324" lat="59.5439" lon="11.0937028" timestamp="2019-01-31T09:52:20Z" uid="633013" user="Honning" version="1">
		<tag k="alt_name" v="Alvumdalen" />
		<tag k="name" v="Dal" />
		<tag k="place" v="farm" />
		<tag k="ssr:stedsnr" v="792500" />
	</node>
	<node changeset="66796129" id="6248947325" lat="59.57465" lon="11.0961805" timestamp="2019-01-31T09:52:20Z" uid="633013" user="Honning" version="1">
		<tag k="name" v="Skogen" />
		<tag k="place" v="farm" />
		<tag k="ssr:stedsnr" v="792606" />
	</node>
	<node changeset="66796129" id="6248947326" lat="59.6110917" lon="11.0990694" timestamp="2019-01-31T09:52:20Z" uid="633013" user="Honning" version="1">
		<tag k="name" v="Østereng" />
		<tag k="place" v="farm" />
		<tag k="ssr:stedsnr" v="792910" />
	</node>
	<node changeset="66796129" id="6248947327" lat="59.5125139" lon="11.0673639" timestamp="2019-01-31T09:52:20Z" uid="633013" user="Honning" version="1">
		<tag k="name" v="Risebru" />
		<tag k="place" v="farm" />
		<tag k="ssr:stedsnr" v="793022" />
	</node>
	<node changeset="66796129" id="6248947328" lat="59.5703889" lon="11.0267028" timestamp="2019-01-31T09:52:20Z" uid="633013" user="Honning" version="1">
		<tag k="alt_name" v="Unnerud vestre" />
		<tag k="name" v="Vestre Unnerud" />
		<tag k="place" v="farm" />
		<tag k="ssr:stedsnr" v="793222" />
	</node>
	<node changeset="66796129" id="6248947329" lat="59.6581" lon="11.1538611" timestamp="2019-01-31T09:52:20Z" uid="633013" user="Honning" version="1">
		<tag k="name" v="Kallum" />
		<tag k="place" v="farm" />
		<tag k="ssr:stedsnr" v="793774" />
	</node>
	<node changeset="66796129" id="6248947330" lat="59.6444667" lon="11.1106305" timestamp="2019-01-31T09:52:20Z" uid="633013" user="Honning" version="1">
		<tag k="name" v="Kåtorp" />
		<tag k="place" v="farm" />
		<tag k="ssr:stedsnr" v="793986" />
	</node>
	<node changeset="66796129" id="6248947331" lat="59.6247167" lon="11.0814667" timestamp="2019-01-31T09:52:20Z" uid="633013" user="Honning" version="1">
		<tag k="name" v="Skuleberg" />
		<tag k="place" v="farm" />
		<tag k="ssr:stedsnr" v="810651" />
	</node>
	<node changeset="66796129" id="6248947332" lat="59.6238833" lon="11.1378833" timestamp="2019-01-31T09:52:20Z" uid="633013" user="Honning" version="1">
		<tag k="name" v="Sundås" />
		<tag k="place" v="farm" />
		<tag k="ssr:stedsnr" v="810657" />
	</node>
	<node changeset="66796129" id="6248947333" lat="59.6775528" lon="11.0991417" timestamp="2019-01-31T09:52:20Z" uid="633013" user="Honning" version="1">
		<tag k="name" v="Haugerud" />
		<tag k="place" v="farm" />
		<tag k="ssr:stedsnr" v="810706" />
	</node>
	<node changeset="66796129" id="6248947334" lat="59.6041778" lon="11.0689139" timestamp="2019-01-31T09:52:20Z" uid="633013" user="Honning" version="1">
		<tag k="alt_name" v="Vollene vestre" />
		<tag k="name" v="Vestre Vollene" />
		<tag k="place" v="farm" />
		<tag k="ssr:stedsnr" v="811650" />
	</node>
	<node changeset="66796129" id="6248947335" lat="59.6633694" lon="11.1792889" timestamp="2019-01-31T09:52:20Z" uid="633013" user="Honning" version="1">
		<tag k="name" v="Hellerud" />
		<tag k="place" v="farm" />
		<tag k="ssr:stedsnr" v="812128" />
	</node>
	<node changeset="66796129" id="6248947336" lat="59.6619944" lon="11.1896222" timestamp="2019-01-31T09:52:21Z" uid="633013" user="Honning" version="1">
		<tag k="name" v="Haugland" />
		<tag k="place" v="farm" />
		<tag k="ssr:stedsnr" v="812134" />
	</node>
	<node changeset="66796129" id="6248947337" lat="59.6736528" lon="11.2190472" timestamp="2019-01-31T09:52:21Z" uid="633013" user="Honning" version="1">
		<tag k="name" v="Hestehagen" />
		<tag k="place" v="farm" />
		<tag k="ssr:stedsnr" v="812143" />
	</node>
	<node changeset="66796129" id="6248947338" lat="59.6039611" lon="11.0349" timestamp="2019-01-31T09:52:21Z" uid="633013" user="Honning" version="1">
		<tag k="alt_name" v="Hauer;Hauger vestre" />
		<tag k="name" v="Vestre Hauger" />
		<tag k="place" v="farm" />
		<tag k="ssr:stedsnr" v="853033" />
	</node>
	<node changeset="66796129" id="6248947339" lat="59.554275" lon="11.0242833" timestamp="2019-01-31T09:52:21Z" uid="633013" user="Honning" version="1">
		<tag k="alt_name" v="Hagan" />
		<tag k="name" v="Hagen" />
		<tag k="place" v="farm" />
		<tag k="ssr:stedsnr" v="853203" />
	</node>
	<node changeset="66796129" id="6248947340" lat="59.5562111" lon="11.0186667" timestamp="2019-01-31T09:52:21Z" uid="633013" user="Honning" version="1">
		<tag k="name" v="Holt" />
		<tag k="place" v="farm" />
		<tag k="ssr:stedsnr" v="853207" />
	</node>
	<node changeset="66796129" id="6248947341" lat="59.6213306" lon="11.0387639" timestamp="2019-01-31T09:52:21Z" uid="633013" user="Honning" version="1">
		<tag k="name" v="Myrer" />
		<tag k="place" v="farm" />
		<tag k="ssr:stedsnr" v="853341" />
	</node>
	<node changeset="66796129" id="6248947342" lat="59.6119167" lon="11.0369333" timestamp="2019-01-31T09:52:21Z" uid="633013" user="Honning" version="1">
		<tag k="name" v="Tomter" />
		<tag k="place" v="farm" />
		<tag k="ssr:stedsnr" v="853363" />
	</node>
	<node changeset="66796129" id="6248947343" lat="59.6751" lon="11.0505889" timestamp="2019-01-31T09:52:21Z" uid="633013" user="Honning" version="1">
		<tag k="name" v="Tørtland" />
		<tag k="place" v="isolated_dwelling" />
		<tag k="ssr:stedsnr" v="853454" />
	</node>
	<node changeset="66796129" id="6248947344" lat="59.6268111" lon="11.1007444" timestamp="2019-01-31T09:52:21Z" uid="633013" user="Honning" version="1">
		<tag k="name" v="Kallerud" />
		<tag k="place" v="farm" />
		<tag k="ssr:stedsnr" v="853946" />
	</node>
	<node changeset="66796129" id="6248947345" lat="59.5980778" lon="11.0328833" timestamp="2019-01-31T09:52:21Z" uid="633013" user="Honning" version="1">
		<tag k="name" v="Hauger" />
		<tag k="place" v="farm" />
		<tag k="ssr:stedsnr" v="854106" />
	</node>
	<node changeset="66796129" id="6248947346" lat="59.5930111" lon="11.0584555" timestamp="2019-01-31T09:52:21Z" uid="633013" user="Honning" version="1">
		<tag k="alt_name" v="Tunnby" />
		<tag k="name" v="Tunby" />
		<tag k="place" v="farm" />
		<tag k="ssr:stedsnr" v="854109" />
	</node>
	<node changeset="66796129" id="6248947347" lat="59.5968583" lon="11.0665528" timestamp="2019-01-31T09:52:21Z" uid="633013" user="Honning" version="1">
		<tag k="name" v="Hovienga" />
		<tag k="place" v="farm" />
		<tag k="ssr:stedsnr" v="854111" />
	</node>
	<node changeset="66796129" id="6248947348" lat="59.5751194" lon="11.024225" timestamp="2019-01-31T09:52:21Z" uid="633013" user="Honning" version="1">
		<tag k="name" v="Murås" />
		<tag k="place" v="farm" />
		<tag k="ssr:stedsnr" v="854152" />
	</node>
	<node changeset="66796129" id="6248947349" lat="59.5814167" lon="11.0688111" timestamp="2019-01-31T09:52:21Z" uid="633013" user="Honning" version="1">
		<tag k="name" v="Auten" />
		<tag k="place" v="farm" />
		<tag k="ssr:stedsnr" v="854151" />
	</node>
	<node changeset="66796129" id="6248947350" lat="59.5581333" lon="11.0938445" timestamp="2019-01-31T09:52:21Z" uid="633013" user="Honning" version="1">
		<tag k="name" v="Tettum" />
		<tag k="place" v="farm" />
		<tag k="ssr:stedsnr" v="854509" />
	</node>
	<node changeset="66796129" id="6248947351" lat="59.5468056" lon="11.1189" timestamp="2019-01-31T09:52:21Z" uid="633013" user="Honning" version="1">
		<tag k="name" v="Revhaug" />
		<tag k="place" v="farm" />
		<tag k="ssr:stedsnr" v="854525" />
	</node>
	<node changeset="66796129" id="6248947352" lat="59.650575" lon="11.1261361" timestamp="2019-01-31T09:52:21Z" uid="633013" user="Honning" version="1">
		<tag k="name" v="Nestingen" />
		<tag k="place" v="farm" />
		<tag k="ssr:stedsnr" v="854751" />
	</node>
	<node changeset="66796129" id="6248947353" lat="59.5601417" lon="11.0585806" timestamp="2019-01-31T09:52:21Z" uid="633013" user="Honning" version="1">
		<tag k="name" v="Knappås" />
		<tag k="place" v="farm" />
		<tag k="ssr:stedsnr" v="871595" />
	</node>
	<node changeset="66796129" id="6248947354" lat="59.5605194" lon="11.0803833" timestamp="2019-01-31T09:52:21Z" uid="633013" user="Honning" version="1">
		<tag k="name" v="Skarnes bru" />
		<tag k="place" v="farm" />
		<tag k="ssr:stedsnr" v="871601" />
	</node>
	<node changeset="66796129" id="6248947355" lat="59.5529694" lon="11.0783083" timestamp="2019-01-31T09:52:21Z" uid="633013" user="Honning" version="1">
		<tag k="name" v="Heiestad" />
		<tag k="place" v="farm" />
		<tag k="ssr:stedsnr" v="489261;871602" />
	</node>
	<node changeset="66796129" id="6248947356" lat="59.663075" lon="11.1495611" timestamp="2019-01-31T09:52:22Z" uid="633013" user="Honning" version="1">
		<tag k="name" v="Hvitstein" />
		<tag k="place" v="farm" />
		<tag k="ssr:stedsnr" v="871671" />
	</node>
	<node changeset="66796129" id="6248947357" lat="59.6563583" lon="11.0685056" timestamp="2019-01-31T09:52:22Z" uid="633013" user="Honning" version="1">
		<tag k="name" v="Syverud" />
		<tag k="place" v="isolated_dwelling" />
		<tag k="ssr:stedsnr" v="871689" />
	</node>
	<node changeset="66796129" id="6248947358" lat="59.6466083" lon="11.1026944" timestamp="2019-01-31T09:52:22Z" uid="633013" user="Honning" version="1">
		<tag k="alt_name" v="Galtebo øvre" />
		<tag k="name" v="Øvre Galtebo" />
		<tag k="place" v="farm" />
		<tag k="ssr:stedsnr" v="871717" />
	</node>
	<node changeset="66796129" id="6248947359" lat="59.6503861" lon="11.0794972" timestamp="2019-01-31T09:52:22Z" uid="633013" user="Honning" version="1">
		<tag k="name" v="Olafsrud" />
		<tag k="place" v="farm" />
		<tag k="ssr:stedsnr" v="913253" />
	</node>
	<node changeset="66796129" id="6248947360" lat="59.6108833" lon="11.0270861" timestamp="2019-01-31T09:52:22Z" uid="633013" user="Honning" version="1">
		<tag k="name" v="Stabberud" />
		<tag k="place" v="farm" />
		<tag k="ssr:stedsnr" v="913357" />
	</node>
	<node changeset="66796129" id="6248947361" lat="59.6187833" lon="11.0366583" timestamp="2019-01-31T09:52:22Z" uid="633013" user="Honning" version="1">
		<tag k="name" v="Bjørge" />
		<tag k="place" v="farm" />
		<tag k="ssr:stedsnr" v="913356" />
	</node>
	<node changeset="66796129" id="6248947362" lat="59.6183833" lon="11.0688416" timestamp="2019-01-31T09:52:22Z" uid="633013" user="Honning" version="1">
		<tag k="alt_name" v="Løvestad nedre;Løvstad søndre;Søndre Løvstad" />
		<tag k="name" v="Østre Løvestad" />
		<tag k="place" v="farm" />
		<tag k="ssr:stedsnr" v="913358" />
	</node>
	<node changeset="66796129" id="6248947363" lat="59.5436917" lon="11.0861167" timestamp="2019-01-31T09:52:22Z" uid="633013" user="Honning" version="1">
		<tag k="name" v="Myra" />
		<tag k="place" v="farm" />
		<tag k="ssr:stedsnr" v="914022" />
	</node>
	<node changeset="66796129" id="6248947364" lat="59.59595" lon="11.032175" timestamp="2019-01-31T09:52:22Z" uid="633013" user="Honning" version="1">
		<tag k="alt_name" v="Kjosetangen" />
		<tag k="name" v="Tangen" />
		<tag k="place" v="farm" />
		<tag k="ssr:stedsnr" v="914134" />
	</node>
	<node changeset="66796129" id="6248947365" lat="59.60415" lon="11.0689306" timestamp="2019-01-31T09:52:22Z" uid="633013" user="Honning" version="1">
		<tag k="name" v="Vollene" />
		<tag k="place" v="farm" />
		<tag k="ssr:stedsnr" v="914160" />
	</node>
	<node changeset="66796129" id="6248947366" lat="59.5842972" lon="11.0588028" timestamp="2019-01-31T09:52:22Z" uid="633013" user="Honning" version="1">
		<tag k="name" v="Kjos" />
		<tag k="place" v="hamlet" />
		<tag k="ssr:stedsnr" v="914181" />
	</node>
	<node changeset="66796129" id="6248947367" lat="59.5386111" lon="11.0934639" timestamp="2019-01-31T09:52:22Z" uid="633013" user="Honning" version="1">
		<tag k="name" v="Bråten" />
		<tag k="place" v="farm" />
		<tag k="ssr:stedsnr" v="914529" />
	</node>
	<node changeset="66796129" id="6248947368" lat="59.5638778" lon="11.10475" timestamp="2019-01-31T09:52:22Z" uid="633013" user="Honning" version="1">
		<tag k="name" v="Nordby" />
		<tag k="place" v="farm" />
		<tag k="ssr:stedsnr" v="914579" />
	</node>
	<node changeset="66796129" id="6248947369" lat="59.6318972" lon="11.1319222" timestamp="2019-01-31T09:52:22Z" uid="633013" user="Honning" version="1">
		<tag k="alt_name" v="Torp søndre;Torp" />
		<tag k="name" v="Søndre Torp" />
		<tag k="place" v="farm" />
		<tag k="ssr:stedsnr" v="914964" />
	</node>
	<node changeset="66796129" id="6248947370" lat="59.6343056" lon="11.1284417" timestamp="2019-01-31T09:52:22Z" uid="633013" user="Honning" version="1">
		<tag k="alt_name" v="Torp, nordre;Torp nordre" />
		<tag k="name" v="Nordre Torp" />
		<tag k="place" v="farm" />
		<tag k="ssr:stedsnr" v="914963" />
	</node>
	<node changeset="66796129" id="6248947371" lat="59.6398778" lon="11.1204917" timestamp="2019-01-31T09:52:22Z" uid="633013" user="Honning" version="1">
		<tag k="alt_name" v="Bøler øvre" />
		<tag k="name" v="Bøler" />
		<tag k="place" v="farm" />
		<tag k="ssr:stedsnr" v="914979" />
	</node>
	<node changeset="66796129" id="6248947372" lat="59.5665278" lon="11.0979306" timestamp="2019-01-31T09:52:22Z" uid="633013" user="Honning" version="1">
		<tag k="name" v="Nordby" />
		<tag k="place" v="farm" />
		<tag k="ssr:stedsnr" v="932589" />
	</node>
	<node changeset="66796129" id="6248947373" lat="59.6796083" lon="11.1183028" timestamp="2019-01-31T09:52:23Z" uid="633013" user="Honning" version="1">
		<tag k="name" v="Hemnes" />
		<tag k="place" v="farm" />
		<tag k="ssr:stedsnr" v="932651" />
	</node>
	<node changeset="66796129" id="6248947374" lat="59.6744361" lon="11.0997389" timestamp="2019-01-31T09:52:23Z" uid="633013" user="Honning" version="1">
		<tag k="alt_name" v="Rud østre" />
		<tag k="name" v="Østre Rud" />
		<tag k="place" v="farm" />
		<tag k="ssr:stedsnr" v="932657" />
	</node>
	<node changeset="66796129" id="6248947375" lat="59.6655028" lon="11.1401917" timestamp="2019-01-31T09:52:23Z" uid="633013" user="Honning" version="1">
		<tag k="name" v="Myrberg" />
		<tag k="place" v="farm" />
		<tag k="ssr:stedsnr" v="932666" />
	</node>
	<node changeset="66796129" id="6248947376" lat="59.6586778" lon="11.0679778" timestamp="2019-01-31T09:52:23Z" uid="633013" user="Honning" version="1">
		<tag k="alt_name" v="Passopp nordre" />
		<tag k="name" v="Nordre Passopp" />
		<tag k="place" v="farm" />
		<tag k="ssr:stedsnr" v="932678" />
	</node>
	<node changeset="66796129" id="6248947377" lat="59.5864972" lon="11.0757972" timestamp="2019-01-31T09:52:24Z" uid="633013" user="Honning" version="1">
		<tag k="name" v="Giltvet" />
		<tag k="place" v="hamlet" />
		<tag k="ssr:stedsnr" v="65178;932744" />
	</node>
	<node changeset="66796129" id="6248947378" lat="59.6539861" lon="11.0515889" timestamp="2019-01-31T09:52:24Z" uid="633013" user="Honning" version="1">
		<tag k="name" v="Bjørnstad" />
		<tag k="place" v="farm" />
		<tag k="ssr:stedsnr" v="932769" />
	</node>
	<node changeset="66796129" id="6248947379" lat="59.5468028" lon="11.1025333" timestamp="2019-01-31T09:52:24Z" uid="633013" user="Honning" version="1">
		<tag k="name" v="Torp" />
		<tag k="place" v="farm" />
		<tag k="ssr:stedsnr" v="932782" />
	</node>
	<node changeset="66796129" id="6248947380" lat="59.5254806" lon="10.9963861" timestamp="2019-01-31T09:52:24Z" uid="633013" user="Honning" version="1">
		<tag k="name" v="Tuehagen" />
		<tag k="place" v="locality" />
		<tag k="ssr:stedsnr" v="932986" />
	</node>
	<node changeset="66796129" id="6248947381" lat="59.6804139" lon="11.2139333" timestamp="2019-01-31T09:52:24Z" uid="633013" user="Honning" version="1">
		<tag k="alt_name" v="Sververud" />
		<tag k="name" v="Svarverud" />
		<tag k="place" v="farm" />
		<tag k="ssr:stedsnr" v="934092" />
	</node>
	<node changeset="66796129" id="6248947382" lat="59.6847366" lon="11.0777965" timestamp="2019-01-31T09:52:24Z" uid="633013" user="Honning" version="1">
		<tag k="name" v="Setra" />
		<tag k="place" v="farm" />
		<tag k="ssr:stedsnr" v="976221" />
	</node>
	<node changeset="66796129" id="6248947383" lat="59.6878334" lon="11.0765115" timestamp="2019-01-31T09:52:24Z" uid="633013" user="Honning" version="1">
		<tag k="name" v="Åsli" />
		<tag k="place" v="locality" />
		<tag k="ssr:stedsnr" v="976222" />
	</node>
	<node changeset="66796129" id="6248947384" lat="59.6549295" lon="11.0629578" timestamp="2019-01-31T09:52:24Z" uid="633013" user="Honning" version="1">
		<tag k="name" v="Tolerud" />
		<tag k="place" v="hamlet" />
		<tag k="ssr:stedsnr" v="294614" />
	</node>
	<node changeset="66796129" id="6248947485" lat="59.6625528" lon="11.065125" timestamp="2019-01-31T09:52:24Z" uid="633013" user="Honning" version="1">
		<tag k="name" v="Stensrud" />
		<tag k="place" v="farm" />
		<tag k="ssr:stedsnr" v="306229" />
	</node>
	<node changeset="66796129" id="6248947486" lat="59.6384083" lon="11.0894028" timestamp="2019-01-31T09:52:24Z" uid="633013" user="Honning" version="1">
		<tag k="alt_name" v="Hov østre" />
		<tag k="name" v="Østre Hov" />
		<tag k="place" v="farm" />
		<tag k="ssr:stedsnr" v="306282" />
	</node>
	<node changeset="66796129" id="6248947487" lat="59.61145" lon="11.0674833" timestamp="2019-01-31T09:52:24Z" uid="633013" user="Honning" version="1">
		<tag k="name" v="Lund" />
		<tag k="place" v="farm" />
		<tag k="ssr:stedsnr" v="306352" />
	</node>
	<node changeset="66796129" id="6248947488" lat="59.614225" lon="11.0307472" timestamp="2019-01-31T09:52:24Z" uid="633013" user="Honning" version="1">
		<tag k="alt_name" v="Kirkerud søndre;Kirkerud" />
		<tag k="name" v="Søndre Kirkerud" />
		<tag k="place" v="farm" />
		<tag k="ssr:stedsnr" v="306354" />
	</node>
	<node changeset="66796129" id="6248947489" lat="59.5829778" lon="11.025725" timestamp="2019-01-31T09:52:24Z" uid="633013" user="Honning" version="1">
		<tag k="alt_name" v="Bjørkebakke" />
		<tag k="name" v="Bjerkebakke" />
		<tag k="place" v="farm" />
		<tag k="ssr:stedsnr" v="307175" />
	</node>
	<node changeset="66796129" id="6248947490" lat="59.5609778" lon="10.9861361" timestamp="2019-01-31T09:52:24Z" uid="633013" user="Honning" version="1">
		<tag k="name" v="Stenerud" />
		<tag k="place" v="farm" />
		<tag k="ssr:stedsnr" v="307209" />
	</node>
	<node changeset="66796129" id="6248947491" lat="59.5678167" lon="11.0591583" timestamp="2019-01-31T09:52:24Z" uid="633013" user="Honning" version="1">
		<tag k="alt_name" v="Dæli øvre;Nedre Dæli" />
		<tag k="name" v="Dæli, nedre" />
		<tag k="place" v="farm" />
		<tag k="ssr:stedsnr" v="307229" />
	</node>
	<node changeset="66796129" id="6248947492" lat="59.5628139" lon="11.0510639" timestamp="2019-01-31T09:52:25Z" uid="633013" user="Honning" version="1">
		<tag k="name" v="Grav" />
		<tag k="place" v="farm" />
		<tag k="ssr:stedsnr" v="307287" />
	</node>
	<node changeset="66796129" id="6248947493" lat="59.6560111" lon="11.1316083" timestamp="2019-01-31T09:52:25Z" uid="633013" user="Honning" version="1">
		<tag k="alt_name" v="Ødeli" />
		<tag k="name" v="Øde-Li" />
		<tag k="place" v="farm" />
		<tag k="ssr:stedsnr" v="307780" />
	</node>
	<node changeset="66796129" id="6248947494" lat="59.6943139" lon="11.0937056" timestamp="2019-01-31T09:52:25Z" uid="633013" user="Honning" version="1">
		<tag k="name" v="Vatn" />
		<tag k="place" v="farm" />
		<tag k="ssr:stedsnr" v="307841" />
	</node>
	<node changeset="66796129" id="6248947495" lat="59.6048861" lon="11.0953833" timestamp="2019-01-31T09:52:25Z" uid="633013" user="Honning" version="1">
		<tag k="alt_name" v="Fossum søndre" />
		<tag k="name" v="Søndre Fossum" />
		<tag k="place" v="farm" />
		<tag k="ssr:stedsnr" v="325653" />
	</node>
	<node changeset="66796129" id="6248947496" lat="59.5982528" lon="11.0766528" timestamp="2019-01-31T09:52:25Z" uid="633013" user="Honning" version="1">
		<tag k="name" v="Solli" />
		<tag k="place" v="isolated_dwelling" />
		<tag k="ssr:stedsnr" v="325654" />
	</node>
	<node changeset="66796129" id="6248947497" lat="59.6087639" lon="11.0840722" timestamp="2019-01-31T09:52:25Z" uid="633013" user="Honning" version="1">
		<tag k="name" v="Løken" />
		<tag k="place" v="farm" />
		<tag k="ssr:stedsnr" v="325656" />
	</node>
	<node changeset="66796129" id="6248947498" lat="59.6145833" lon="11.0935417" timestamp="2019-01-31T09:52:25Z" uid="633013" user="Honning" version="1">
		<tag k="alt_name" v="Sølberg nordre" />
		<tag k="name" v="Nordre Sølberg" />
		<tag k="place" v="farm" />
		<tag k="ssr:stedsnr" v="325657" />
	</node>
	<node changeset="66796129" id="6248947499" lat="59.6397444" lon="11.1360583" timestamp="2019-01-31T09:52:25Z" uid="633013" user="Honning" version="1">
		<tag k="name" v="Jemtland" />
		<tag k="place" v="farm" />
		<tag k="ssr:stedsnr" v="325696" />
	</node>
	<node changeset="66796129" id="6248947500" lat="59.6487722" lon="11.0592556" timestamp="2019-01-31T09:52:25Z" uid="633013" user="Honning" version="1">
		<tag k="name" v="Vienhytta" />
		<tag k="place" v="isolated_dwelling" />
		<tag k="ssr:stedsnr" v="325701" />
	</node>
	<node changeset="66796129" id="6248947501" lat="59.5428389" lon="11.1146278" timestamp="2019-01-31T09:52:25Z" uid="633013" user="Honning" version="1">
		<tag k="name" v="Mjølkeberg" />
		<tag k="place" v="farm" />
		<tag k="ssr:stedsnr" v="325782" />
	</node>
	<node changeset="66796129" id="6248947502" lat="59.5709083" lon="11.015675" timestamp="2019-01-31T09:52:25Z" uid="633013" user="Honning" version="1">
		<tag k="name" v="Tronsehytta" />
		<tag k="place" v="isolated_dwelling" />
		<tag k="ssr:stedsnr" v="325973" />
	</node>
	<node changeset="66796129" id="6248947503" lat="59.6443861" lon="11.0499222" timestamp="2019-01-31T09:52:25Z" uid="633013" user="Honning" version="1">
		<tag k="name" v="Asper" />
		<tag k="place" v="hamlet" />
		<tag k="ssr:stedsnr" v="367240" />
	</node>
	<node changeset="66796129" id="6248947504" lat="59.6434306" lon="11.0757333" timestamp="2019-01-31T09:52:25Z" uid="633013" user="Honning" version="1">
		<tag k="name" v="Kausebøl" />
		<tag k="place" v="farm" />
		<tag k="ssr:stedsnr" v="367241" />
	</node>
	<node changeset="66796129" id="6248947505" lat="59.6141361" lon="11.052475" timestamp="2019-01-31T09:52:25Z" uid="633013" user="Honning" version="1">
		<tag k="name" v="Tronstad" />
		<tag k="place" v="farm" />
		<tag k="ssr:stedsnr" v="367303" />
	</node>
	<node changeset="66796129" id="6248947506" lat="59.5252972" lon="11.0049417" timestamp="2019-01-31T09:52:25Z" uid="633013" user="Honning" version="1">
		<tag k="alt_name" v="Mørk søndre" />
		<tag k="name" v="Søndre Mørk" />
		<tag k="place" v="farm" />
		<tag k="ssr:stedsnr" v="368012" />
	</node>
	<node changeset="66796129" id="6248947507" lat="59.5134" lon="11.0451806" timestamp="2019-01-31T09:52:25Z" uid="633013" user="Honning" version="1">
		<tag k="name" v="Trollerud" />
		<tag k="place" v="farm" />
		<tag k="ssr:stedsnr" v="368039;871994" />
	</node>
	<node changeset="66796129" id="6248947508" lat="59.6039889" lon="11.0939833" timestamp="2019-01-31T09:52:25Z" uid="633013" user="Honning" version="1">
		<tag k="name" v="Fossum" />
		<tag k="place" v="farm" />
		<tag k="ssr:stedsnr" v="368040" />
	</node>
	<node changeset="66796129" id="6248947509" lat="59.52115" lon="11.0815222" timestamp="2019-01-31T09:52:25Z" uid="633013" user="Honning" version="1">
		<tag k="name" v="Mulerud" />
		<tag k="place" v="farm" />
		<tag k="ssr:stedsnr" v="368054" />
	</node>
	<node changeset="66796129" id="6248947510" lat="59.5986556" lon="11.0668639" timestamp="2019-01-31T09:52:25Z" uid="633013" user="Honning" version="1">
		<tag k="alt_name" v="Grinna" />
		<tag k="name" v="Grinda" />
		<tag k="place" v="farm" />
		<tag k="ssr:stedsnr" v="368146" />
	</node>
	<node changeset="66796129" id="6248947511" lat="59.605775" lon="11.08715" timestamp="2019-01-31T09:52:26Z" uid="633013" user="Honning" version="1">
		<tag k="alt_name" v="Løken søndre" />
		<tag k="name" v="Løken" />
		<tag k="place" v="farm" />
		<tag k="ssr:stedsnr" v="368162" />
	</node>
	<node changeset="66796129" id="6248947512" lat="59.5665139" lon="11.0430583" timestamp="2019-01-31T09:52:26Z" uid="633013" user="Honning" version="1">
		<tag k="name" v="Sundby" />
		<tag k="place" v="hamlet" />
		<tag k="ssr:stedsnr" v="368229" />
	</node>
	<node changeset="66796129" id="6248947513" lat="59.550675" lon="11.0218556" timestamp="2019-01-31T09:52:26Z" uid="633013" user="Honning" version="1">
		<tag k="alt_name" v="Kvarud nordre;Kvarud" />
		<tag k="name" v="Nordre Kvarud" />
		<tag k="place" v="farm" />
		<tag k="ssr:stedsnr" v="368246" />
	</node>
	<node changeset="66796129" id="6248947514" lat="59.6583861" lon="11.1184472" timestamp="2019-01-31T09:52:26Z" uid="633013" user="Honning" version="1">
		<tag k="alt_name" v="Berger nordre" />
		<tag k="name" v="Nordre Berger" />
		<tag k="place" v="farm" />
		<tag k="ssr:stedsnr" v="368814" />
	</node>
	<node changeset="66796129" id="6248947515" lat="59.6801194" lon="11.1066389" timestamp="2019-01-31T09:52:26Z" uid="633013" user="Honning" version="1">
		<tag k="name" v="Kula" />
		<tag k="place" v="farm" />
		<tag k="ssr:stedsnr" v="368840" />
	</node>
	<node changeset="66796129" id="6248947516" lat="59.638" lon="11.1365" timestamp="2019-01-31T09:52:26Z" uid="633013" user="Honning" version="1">
		<tag k="alt_name" v="Skoro nordre;Nordre Skoro" />
		<tag k="name" v="Skoro" />
		<tag k="place" v="farm" />
		<tag k="ssr:stedsnr" v="368985" />
	</node>
	<node changeset="66796129" id="6248947517" lat="59.6378806" lon="11.1068278" timestamp="2019-01-31T09:52:26Z" uid="633013" user="Honning" version="1">
		<tag k="name" v="Hesle" />
		<tag k="place" v="farm" />
		<tag k="ssr:stedsnr" v="368986" />
	</node>
	<node changeset="66796129" id="6248947518" lat="59.6686306" lon="11.100575" timestamp="2019-01-31T09:52:26Z" uid="633013" user="Honning" version="1">
		<tag k="name" v="Smedhytta" />
		<tag k="place" v="isolated_dwelling" />
		<tag k="ssr:stedsnr" v="385715" />
	</node>
	<node changeset="66796129" id="6248947519" lat="59.6554389" lon="11.1277528" timestamp="2019-01-31T09:52:26Z" uid="633013" user="Honning" version="1">
		<tag k="name" v="Ligott" />
		<tag k="place" v="farm" />
		<tag k="ssr:stedsnr" v="385734" />
	</node>
	<node changeset="66796129" id="6248947520" lat="59.5542167" lon="11.0918917" timestamp="2019-01-31T09:52:26Z" uid="633013" user="Honning" version="1">
		<tag k="name" v="Bergli" />
		<tag k="place" v="farm" />
		<tag k="ssr:stedsnr" v="385636" />
	</node>
	<node changeset="66796129" id="6248947521" lat="59.6346889" lon="11.0588111" timestamp="2019-01-31T09:52:26Z" uid="633013" user="Honning" version="1">
		<tag k="name" v="Gullberg" />
		<tag k="place" v="isolated_dwelling" />
		<tag k="ssr:stedsnr" v="385649" />
	</node>
	<node changeset="66796129" id="6248947522" lat="59.6206278" lon="11.1118694" timestamp="2019-01-31T09:52:26Z" uid="633013" user="Honning" version="1">
		<tag k="alt_name" v="Glennde østre" />
		<tag k="name" v="Østre Glenne" />
		<tag k="place" v="farm" />
		<tag k="ssr:stedsnr" v="385666" />
	</node>
	<node changeset="66796129" id="6248947523" lat="59.6062417" lon="11.0956583" timestamp="2019-01-31T09:52:26Z" uid="633013" user="Honning" version="1">
		<tag k="alt_name" v="Fossum nordre" />
		<tag k="name" v="Nordre Fossum" />
		<tag k="place" v="farm" />
		<tag k="ssr:stedsnr" v="385683" />
	</node>
	<node changeset="66796129" id="6248947524" lat="59.6812306" lon="11.09675" timestamp="2019-01-31T09:52:26Z" uid="633013" user="Honning" version="1">
		<tag k="name" v="Tangen" />
		<tag k="place" v="hamlet" />
		<tag k="ssr:stedsnr" v="4832;385746" />
	</node>
	<node changeset="66796129" id="6248947525" lat="59.6795889" lon="11.0357417" timestamp="2019-01-31T09:52:26Z" uid="633013" user="Honning" version="1">
		<tag k="name" v="Bjerklund" />
		<tag k="place" v="isolated_dwelling" />
		<tag k="ssr:stedsnr" v="385760" />
	</node>
	<node changeset="66796129" id="6248947526" lat="59.6661139" lon="11.1758444" timestamp="2019-01-31T09:52:26Z" uid="633013" user="Honning" version="1">
		<tag k="name" v="Funkerud" />
		<tag k="place" v="farm" />
		<tag k="ssr:stedsnr" v="387133" />
	</node>
	<node changeset="66796129" id="6248947527" lat="59.6200444" lon="11.1023806" timestamp="2019-01-31T09:52:26Z" uid="633013" user="Honning" version="1">
		<tag k="alt_name" v="Glennde søndre" />
		<tag k="name" v="Søndre Glenne" />
		<tag k="place" v="farm" />
		<tag k="ssr:stedsnr" v="892636" />
	</node>
	<node changeset="66796129" id="6248947528" lat="59.6817872" lon="11.1555037" timestamp="2019-01-31T09:52:27Z" uid="633013" user="Honning" version="1">
		<tag k="name" v="Skimtefjellhytta" />
		<tag k="place" v="locality" />
		<tag k="ssr:stedsnr" v="982325" />
	</node>
	<node changeset="66796129" id="6248947529" lat="59.6194476" lon="11.0663635" timestamp="2019-01-31T09:52:27Z" uid="633013" user="Honning" version="1">
		<tag k="name" v="Løvestad" />
		<tag k="place" v="hamlet" />
		<tag k="ssr:stedsnr" v="986160" />
	</node>
	<node changeset="66796129" id="6248947530" lat="59.565275" lon="11.061375" timestamp="2019-01-31T09:52:27Z" uid="633013" user="Honning" version="1">
		<tag k="alt_name" v="Skjersåker" />
		<tag k="name" v="Skjersåker øvre" />
		<tag k="place" v="farm" />
		<tag k="ssr:stedsnr" v="3217" />
	</node>
	<node changeset="66796129" id="6248947531" lat="59.6760528" lon="11.0414833" timestamp="2019-01-31T09:52:27Z" uid="633013" user="Honning" version="1">
		<tag k="name" v="Svenneby" />
		<tag k="place" v="hamlet" />
		<tag k="ssr:stedsnr" v="3419" />
	</node>
	<node changeset="66796129" id="6248947532" lat="59.5375944" lon="11.1018889" timestamp="2019-01-31T09:52:27Z" uid="633013" user="Honning" version="1">
		<tag k="name" v="Svinningen" />
		<tag k="place" v="farm" />
		<tag k="ssr:stedsnr" v="3717" />
	</node>
	<node changeset="66796129" id="6248947533" lat="59.6243694" lon="11.1175444" timestamp="2019-01-31T09:52:27Z" uid="633013" user="Honning" version="1">
		<tag k="alt_name" v="Åssum" />
		<tag k="name" v="Åsum" />
		<tag k="place" v="farm" />
		<tag k="ssr:stedsnr" v="3951" />
	</node>
	<node changeset="66796129" id="6248947534" lat="59.521825" lon="11.0315833" timestamp="2019-01-31T09:52:27Z" uid="633013" user="Honning" version="1">
		<tag k="name" v="Roås" />
		<tag k="place" v="farm" />
		<tag k="ssr:stedsnr" v="4008" />
	</node>
	<node changeset="66796129" id="6248947535" lat="59.6039889" lon="11.0471222" timestamp="2019-01-31T09:52:27Z" uid="633013" user="Honning" version="1">
		<tag k="alt_name" v="Molle, vestre;Molle" />
		<tag k="name" v="Vestre Molle" />
		<tag k="place" v="farm" />
		<tag k="ssr:stedsnr" v="4163" />
	</node>
	<node changeset="66796129" id="6248947536" lat="59.5511556" lon="11.0272806" timestamp="2019-01-31T09:52:27Z" uid="633013" user="Honning" version="1">
		<tag k="name" v="Sandås" />
		<tag k="place" v="farm" />
		<tag k="ssr:stedsnr" v="4224" />
	</node>
	<node changeset="66796129" id="6248947537" lat="59.6838861" lon="11.0900833" timestamp="2019-01-31T09:52:27Z" uid="633013" user="Honning" version="1">
		<tag k="name" v="Haukenes" />
		<tag k="place" v="farm" />
		<tag k="ssr:stedsnr" v="4416" />
	</node>
	<node changeset="66796129" id="6248947538" lat="59.683075" lon="11.0715222" timestamp="2019-01-31T09:52:27Z" uid="633013" user="Honning" version="1">
		<tag k="name" v="Hallerud" />
		<tag k="place" v="farm" />
		<tag k="ssr:stedsnr" v="4417" />
	</node>
	<node changeset="66796129" id="6248947539" lat="59.5568611" lon="11.10355" timestamp="2019-01-31T09:52:27Z" uid="633013" user="Honning" version="1">
		<tag k="alt_name" v="Heli, nordre;Heli nordre" />
		<tag k="name" v="Nordre Heli" />
		<tag k="place" v="farm" />
		<tag k="ssr:stedsnr" v="4528" />
	</node>
	<node changeset="66796129" id="6248947540" lat="59.6699778" lon="11.1520667" timestamp="2019-01-31T09:52:27Z" uid="633013" user="Honning" version="1">
		<tag k="alt_name" v="Hestehagen" />
		<tag k="name" v="Hesthagen" />
		<tag k="place" v="farm" />
		<tag k="ssr:stedsnr" v="4818" />
	</node>
	<node changeset="66796129" id="6248947541" lat="59.6766028" lon="11.0954278" timestamp="2019-01-31T09:52:27Z" uid="633013" user="Honning" version="1">
		<tag k="alt_name" v="Rud vestre" />
		<tag k="name" v="Rud" />
		<tag k="place" v="farm" />
		<tag k="ssr:stedsnr" v="4829" />
	</node>
	<node changeset="66796129" id="6248947542" lat="59.6721667" lon="11.124625" timestamp="2019-01-31T09:52:27Z" uid="633013" user="Honning" version="1">
		<tag k="name" v="Haugen" />
		<tag k="place" v="hamlet" />
		<tag k="ssr:stedsnr" v="4828" />
	</node>
	<node changeset="66796129" id="6248947543" lat="59.6372444" lon="11.095525" timestamp="2019-01-31T09:52:27Z" uid="633013" user="Honning" version="1">
		<tag k="name" v="Ramstad" />
		<tag k="place" v="farm" />
		<tag k="ssr:stedsnr" v="4985" />
	</node>
	<node changeset="66796129" id="6248947544" lat="59.6351816" lon="11.0791771" timestamp="2019-01-31T09:52:27Z" uid="633013" user="Honning" version="1">
		<tag k="alt_name" v="Dingstad nordre" />
		<tag k="name" v="Nordre Dingstad" />
		<tag k="place" v="farm" />
		<tag k="ssr:stedsnr" v="22635" />
	</node>
	<node changeset="66796129" id="6248947545" lat="59.6200833" lon="11.0743472" timestamp="2019-01-31T09:52:27Z" uid="633013" user="Honning" version="1">
		<tag k="alt_name" v="Hylli søndre" />
		<tag k="name" v="Søndre Hylli" />
		<tag k="place" v="farm" />
		<tag k="ssr:stedsnr" v="22634" />
	</node>
	<node changeset="66796129" id="6248947546" lat="59.6257111" lon="11.0959056" timestamp="2019-01-31T09:52:28Z" uid="633013" user="Honning" version="1">
		<tag k="name" v="Espenes" />
		<tag k="place" v="farm" />
		<tag k="ssr:stedsnr" v="22638" />
	</node>
	<node changeset="66796129" id="6248947547" lat="59.6046583" lon="11.0598306" timestamp="2019-01-31T09:52:28Z" uid="633013" user="Honning" version="1">
		<tag k="alt_name" v="Eikeberg søndre" />
		<tag k="name" v="Ekeberg" />
		<tag k="place" v="farm" />
		<tag k="ssr:stedsnr" v="22649" />
	</node>
	<node changeset="66796129" id="6248947548" lat="59.6134417" lon="11.0934028" timestamp="2019-01-31T09:52:28Z" uid="633013" user="Honning" version="1">
		<tag k="alt_name" v="Sølberg søndre" />
		<tag k="name" v="Søndre Sølberg" />
		<tag k="place" v="farm" />
		<tag k="ssr:stedsnr" v="22662" />
	</node>
	<node changeset="66796129" id="6248947549" lat="59.6668" lon="11.1573583" timestamp="2019-01-31T09:52:28Z" uid="633013" user="Honning" version="1">
		<tag k="name" v="Hekkemyra" />
		<tag k="place" v="farm" />
		<tag k="ssr:stedsnr" v="22689" />
	</node>
	<node changeset="66796129" id="6248947550" lat="59.6523556" lon="11.1454139" timestamp="2019-01-31T09:52:28Z" uid="633013" user="Honning" version="1">
		<tag k="alt_name" v="Solberg østre" />
		<tag k="name" v="Østre Solberg" />
		<tag k="place" v="farm" />
		<tag k="ssr:stedsnr" v="22708" />
	</node>
	<node changeset="66796129" id="6248947551" lat="59.5545139" lon="11.0271333" timestamp="2019-01-31T09:52:28Z" uid="633013" user="Honning" version="1">
		<tag k="name" v="Hagaenga" />
		<tag k="place" v="farm" />
		<tag k="ssr:stedsnr" v="22770" />
	</node>
	<node changeset="66796129" id="6248947552" lat="59.5760222" lon="11.0486333" timestamp="2019-01-31T09:52:28Z" uid="633013" user="Honning" version="1">
		<tag k="alt_name" v="Vestby vestre" />
		<tag k="name" v="Vestre Vestby" />
		<tag k="place" v="farm" />
		<tag k="ssr:stedsnr" v="22778" />
	</node>
	<node changeset="66796129" id="6248947553" lat="59.5264694" lon="11.0451945" timestamp="2019-01-31T09:52:28Z" uid="633013" user="Honning" version="1">
		<tag k="name" v="Mamrelundstykket" />
		<tag k="place" v="locality" />
		<tag k="ssr:stedsnr" v="22998" />
	</node>
	<node changeset="66796129" id="6248947554" lat="59.6654111" lon="11.0973333" timestamp="2019-01-31T09:52:28Z" uid="633013" user="Honning" version="1">
		<tag k="name" v="Holli" />
		<tag k="old_name" v="Holi" />
		<tag k="place" v="hamlet" />
		<tag k="ssr:stedsnr" v="54785" />
	</node>
	<node changeset="66796129" id="6248947555" lat="59.665475" lon="11.049025" timestamp="2019-01-31T09:52:28Z" uid="633013" user="Honning" version="1">
		<tag k="name" v="Svennebyhytta" />
		<tag k="place" v="isolated_dwelling" />
		<tag k="ssr:stedsnr" v="63497" />
	</node>
	<node changeset="66796129" id="6248947556" lat="59.6029083" lon="11.0276528" timestamp="2019-01-31T09:52:28Z" uid="633013" user="Honning" version="1">
		<tag k="alt_name" v="Kokkstad" />
		<tag k="name" v="Kokstad" />
		<tag k="place" v="farm" />
		<tag k="ssr:stedsnr" v="64141" />
	</node>
	<node changeset="66796129" id="6248947557" lat="59.6165121" lon="11.062793" timestamp="2019-01-31T09:52:28Z" uid="633013" user="Honning" version="1">
		<tag k="name" v="Li" />
		<tag k="place" v="farm" />
		<tag k="ssr:stedsnr" v="64360" />
	</node>
	<node changeset="66796129" id="6248947558" lat="59.6172972" lon="11.0474" timestamp="2019-01-31T09:52:28Z" uid="633013" user="Honning" version="1">
		<tag k="alt_name" v="Myrvold" />
		<tag k="name" v="Myrvoll" />
		<tag k="place" v="farm" />
		<tag k="ssr:stedsnr" v="64363" />
	</node>
	<node changeset="66796129" id="6248947559" lat="59.6639639" lon="11.2159694" timestamp="2019-01-31T09:52:28Z" uid="633013" user="Honning" version="1">
		<tag k="name" v="Nes" />
		<tag k="place" v="farm" />
		<tag k="ssr:stedsnr" v="64805" />
	</node>
	<node changeset="66796129" id="6248947560" lat="59.5137" lon="11.0713778" timestamp="2019-01-31T09:52:28Z" uid="633013" user="Honning" version="1">
		<tag k="name" v="Holstein" />
		<tag k="place" v="farm" />
		<tag k="ssr:stedsnr" v="65026" />
	</node>
	<node changeset="66796129" id="6248947561" lat="59.5149056" lon="10.9820111" timestamp="2019-01-31T09:52:28Z" uid="633013" user="Honning" version="1">
		<tag k="alt_name" v="Havnedalen" />
		<tag k="name" v="Havnadalen" />
		<tag k="place" v="farm" />
		<tag k="ssr:stedsnr" v="65051" />
	</node>
	<node changeset="66796129" id="6248947562" lat="59.5778139" lon="11.0782278" timestamp="2019-01-31T09:52:28Z" uid="633013" user="Honning" version="1">
		<tag k="alt_name" v="Rud østre;Rud" />
		<tag k="name" v="Østre Rud" />
		<tag k="place" v="farm" />
		<tag k="ssr:stedsnr" v="65153" />
	</node>
	<node changeset="66796129" id="6248947563" lat="59.6165056" lon="11.0594194" timestamp="2019-01-31T09:52:29Z" uid="633013" user="Honning" version="1">
		<tag k="name" v="Lundeby" />
		<tag k="place" v="farm" />
		<tag k="ssr:stedsnr" v="82643" />
	</node>
	<node changeset="66796129" id="6248947564" lat="59.6121611" lon="11.0791056" timestamp="2019-01-31T09:52:29Z" uid="633013" user="Honning" version="1">
		<tag k="alt_name" v="Løken nordre" />
		<tag k="name" v="Nordre Løken" />
		<tag k="place" v="farm" />
		<tag k="ssr:stedsnr" v="82647" />
	</node>
	<node changeset="66796129" id="6248947565" lat="59.6626694" lon="11.1001528" timestamp="2019-01-31T09:52:29Z" uid="633013" user="Honning" version="1">
		<tag k="alt_name" v="Hjørnerud" />
		<tag k="name" v="Jørnerud" />
		<tag k="place" v="farm" />
		<tag k="ssr:stedsnr" v="82683" />
	</node>
	<node changeset="66796129" id="6248947566" lat="59.6580667" lon="11.0691083" timestamp="2019-01-31T09:52:29Z" uid="633013" user="Honning" version="1">
		<tag k="alt_name" v="Passopp søndre" />
		<tag k="name" v="Søndre Passopp" />
		<tag k="place" v="farm" />
		<tag k="ssr:stedsnr" v="82696" />
	</node>
	<node changeset="66796129" id="6248947567" lat="59.6415722" lon="11.1365833" timestamp="2019-01-31T09:52:29Z" uid="633013" user="Honning" version="1">
		<tag k="name" v="Bølermyra" />
		<tag k="place" v="farm" />
		<tag k="ssr:stedsnr" v="82700" />
	</node>
	<node changeset="66796129" id="6248947568" lat="59.641025" lon="11.1505222" timestamp="2019-01-31T09:52:29Z" uid="633013" user="Honning" version="1">
		<tag k="name" v="Danmark" />
		<tag k="place" v="farm" />
		<tag k="ssr:stedsnr" v="82706" />
	</node>
	<node changeset="66796129" id="6248947569" lat="59.5690472" lon="11.0265" timestamp="2019-01-31T09:52:29Z" uid="633013" user="Honning" version="1">
		<tag k="name" v="Sletner" />
		<tag k="place" v="farm" />
		<tag k="ssr:stedsnr" v="82976" />
	</node>
	<node changeset="66796129" id="6248947570" lat="59.622266" lon="11.1009202" timestamp="2019-01-31T09:52:29Z" uid="633013" user="Honning" version="1">
		<tag k="alt_name" v="Glennde nordre" />
		<tag k="name" v="Nordre Glenne" />
		<tag k="place" v="farm" />
		<tag k="ssr:stedsnr" v="103652" />
	</node>
	<node changeset="66796129" id="6248947571" lat="59.65785" lon="11.0623944" timestamp="2019-01-31T09:52:29Z" uid="633013" user="Honning" version="1">
		<tag k="alt_name" v="Tolerud, nordre;Torud Nordre" />
		<tag k="name" v="Nordre Tolerud" />
		<tag k="place" v="farm" />
		<tag k="ssr:stedsnr" v="124205" />
	</node>
	<node changeset="66796129" id="6248947572" lat="59.5373028" lon="11.0022889" timestamp="2019-01-31T09:52:29Z" uid="633013" user="Honning" version="1">
		<tag k="name" v="Åserud" />
		<tag k="place" v="farm" />
		<tag k="ssr:stedsnr" v="125032" />
	</node>
	<node changeset="66796129" id="6248947573" lat="59.6064111" lon="11.091175" timestamp="2019-01-31T09:52:29Z" uid="633013" user="Honning" version="1">
		<tag k="alt_name" v="Fossum vestre" />
		<tag k="name" v="Fossum" />
		<tag k="place" v="farm" />
		<tag k="ssr:stedsnr" v="125148" />
	</node>
	<node changeset="66796129" id="6248947574" lat="59.5857278" lon="11.0812139" timestamp="2019-01-31T09:52:29Z" uid="633013" user="Honning" version="1">
		<tag k="name" v="Hesleskog" />
		<tag k="place" v="farm" />
		<tag k="ssr:stedsnr" v="125186" />
	</node>
	<node changeset="66796129" id="6248947575" lat="59.5586639" lon="11.0163167" timestamp="2019-01-31T09:52:29Z" uid="633013" user="Honning" version="1">
		<tag k="alt_name" v="Raukleiva" />
		<tag k="name" v="Rødkleiva" />
		<tag k="place" v="isolated_dwelling" />
		<tag k="ssr:stedsnr" v="125214" />
	</node>
	<node changeset="66796129" id="6248947576" lat="59.5514583" lon="10.99115" timestamp="2019-01-31T09:52:29Z" uid="633013" user="Honning" version="1">
		<tag k="name" v="Slorebråten" />
		<tag k="place" v="farm" />
		<tag k="ssr:stedsnr" v="125262" />
	</node>
	<node changeset="66796129" id="6248947577" lat="59.5646111" lon="11.0464667" timestamp="2019-01-31T09:52:29Z" uid="633013" user="Honning" version="1">
		<tag k="name" v="Voll" />
		<tag k="place" v="farm" />
		<tag k="ssr:stedsnr" v="125272" />
	</node>
	<node changeset="66796129" id="6248947578" lat="59.66245" lon="11.2072944" timestamp="2019-01-31T09:52:29Z" uid="633013" user="Honning" version="1">
		<tag k="name" v="Flateby" />
		<tag k="place" v="farm" />
		<tag k="ssr:stedsnr" v="125810" />
	</node>
	<node changeset="66796129" id="6248947579" lat="59.6525861" lon="11.1553528" timestamp="2019-01-31T09:52:29Z" uid="633013" user="Honning" version="1">
		<tag k="alt_name" v="Tonnerud" />
		<tag k="name" v="Tonerud" />
		<tag k="place" v="farm" />
		<tag k="ssr:stedsnr" v="125999" />
	</node>
	<node changeset="66796129" id="6248947580" lat="59.5614722" lon="11.0843583" timestamp="2019-01-31T09:52:30Z" uid="633013" user="Honning" version="1">
		<tag k="name" v="Skorrberg" />
		<tag k="place" v="farm" />
		<tag k="ssr:stedsnr" v="143627" />
	</node>
	<node changeset="66796129" id="6248947581" lat="59.621225" lon="11.0749778" timestamp="2019-01-31T09:52:30Z" uid="633013" user="Honning" version="1">
		<tag k="alt_name" v="Hylli nordre" />
		<tag k="name" v="Nordre Hylli" />
		<tag k="place" v="farm" />
		<tag k="ssr:stedsnr" v="143643" />
	</node>
	<node changeset="66796129" id="6248947582" lat="59.6046333" lon="11.0706195" timestamp="2019-01-31T09:52:30Z" uid="633013" user="Honning" version="1">
		<tag k="alt_name" v="Vollene østre" />
		<tag k="name" v="Østre Vollene" />
		<tag k="place" v="farm" />
		<tag k="ssr:stedsnr" v="143655" />
	</node>
	<node changeset="66796129" id="6248947583" lat="59.6717139" lon="11.0857028" timestamp="2019-01-31T09:52:30Z" uid="633013" user="Honning" version="1">
		<tag k="name" v="Veslerud" />
		<tag k="place" v="isolated_dwelling" />
		<tag k="ssr:stedsnr" v="143681" />
	</node>
	<node changeset="66796129" id="6248947584" lat="59.6494306" lon="11.0925944" timestamp="2019-01-31T09:52:30Z" uid="633013" user="Honning" version="1">
		<tag k="name" v="Nordenga" />
		<tag k="place" v="farm" />
		<tag k="ssr:stedsnr" v="143691" />
	</node>
	<way changeset="66796129" id="264286729" timestamp="2019-01-31T09:52:37Z" uid="633013" user="Honning" version="3">
		<tag k="landuse" v="farmyard" />
		<tag k="name" v="Østli" />
		<tag k="place" v="farm" />
		<tag k="ssr:stedsnr" v="446686" />
		<nd ref="2699773194" />
		<nd ref="2699773195" />
		<nd ref="2699773196" />
		<nd ref="2699773197" />
		<nd ref="2699773198" />
		<nd ref="2699773194" />
	</way>
	<way changeset="66796129" id="264286714" timestamp="2019-01-31T09:52:37Z" uid="633013" user="Honning" version="3">
		<tag k="landuse" v="farmyard" />
		<tag k="name" v="Haga" />
		<tag k="place" v="farm" />
		<tag k="ssr:stedsnr" v="871638" />
		<nd ref="2699773061" />
		<nd ref="2699773063" />
		<nd ref="2699773064" />
		<nd ref="2699773066" />
		<nd ref="2699773061" />
	</way>
	<way changeset="66796129" id="264435766" timestamp="2019-01-31T09:52:37Z" uid="633013" user="Honning" version="3">
		<tag k="landuse" v="farmyard" />
		<tag k="name" v="Saksebøl" />
		<tag k="place" v="farm" />
		<tag k="ssr:stedsnr" v="549943" />
		<nd ref="2701150692" />
		<nd ref="2701150693" />
		<nd ref="2701150694" />
		<nd ref="2701150695" />
		<nd ref="2701150696" />
		<nd ref="2701150697" />
		<nd ref="2701150698" />
		<nd ref="2701150699" />
		<nd ref="2701150700" />
		<nd ref="2701150701" />
		<nd ref="2701150692" />
	</way>
	<way changeset="66796129" id="264435774" timestamp="2019-01-31T09:52:38Z" uid="633013" user="Honning" version="3">
		<tag k="landuse" v="farmyard" />
		<tag k="name" v="Åssum" />
		<tag k="place" v="farm" />
		<tag k="ssr:stedsnr" v="567639" />
		<nd ref="2701150822" />
		<nd ref="2701150823" />
		<nd ref="2701150824" />
		<nd ref="2701150825" />
		<nd ref="2701150826" />
		<nd ref="2701150827" />
		<nd ref="2701150822" />
	</way>
</osm>
