<?xml version="1.0" encoding="UTF-8"?>
<osm generator="osmapis" version="0.6">
	<node id="-210804" lat="59.0710666582" lon="10.3953192385">
		<tag k="name" v="Jenteisen" />
		<tag k="natural" v="water" />
		<tag k="ssr:stedsnr" v="268361" />
	</node>
	<node id="-210580" lat="59.0733460033" lon="10.3954622107">
		<tag k="name" v="Gutteisen" />
		<tag k="natural" v="water" />
		<tag k="ssr:stedsnr" v="146347" />
	</node>
	<node id="-210964" lat="59.0721861119" lon="10.4344166688">
		<tag k="name" v="Kringla" />
		<tag k="natural" v="water" />
		<tag k="ssr:stedsnr" v="268383" />
	</node>
	<node id="-210802" lat="59.1582555518" lon="10.391080562">
		<tag k="name" v="Mølledammen" />
		<tag k="ssr:stedsnr" v="207622" />
		<tag k="waterway" v="dam" />
	</node>
	<node id="-210320" lat="59.1906833345" lon="10.4147638851">
		<tag k="name" v="Strengsdalsvannet" />
		<tag k="natural" v="water" />
		<tag k="ssr:stedsnr" v="730056" />
	</node>
	<node id="-211116" lat="59.157944445" lon="10.3939888864">
		<tag k="name" v="Kynna" />
		<tag k="natural" v="water" />
		<tag k="ssr:stedsnr" v="1127" />
	</node>
	<node id="-210534" lat="59.0652437171" lon="10.3956264582">
		<tag k="name" v="Skjælva" />
		<tag k="natural" v="water" />
		<tag k="ssr:stedsnr" v="510371" />
	</node>
	<node id="-210369" lat="59.2312083351" lon="10.4197333397">
		<tag k="name" v="Øhrebekken" />
		<tag k="ssr:stedsnr" v="753966" />
		<tag k="waterway" v="stream" />
	</node>
</osm>
