<?xml version="1.0" encoding="UTF-8"?>
<osm generator="osmapis" version="0.6">
	<node id="-210808" lat="59.1030416652" lon="10.4176388934">
		<tag k="alt_name" v="Røssesund" />
		<tag k="bridge" v="yes" />
		<tag k="layer" v="1" />
		<tag k="name" v="Røssesund bru" />
		<tag k="ssr:stedsnr" v="692598" />
	</node>
	<node id="-211284" lat="59.160263891" lon="10.3830499978">
		<tag k="man_made" v="quay" />
		<tag k="name" v="Rødnesåsen" />
		<tag k="place" v="locality" />
		<tag k="ssr:stedsnr" v="935704" />
	</node>
	<node id="-211316" lat="59.1059092788" lon="10.54039904">
		<tag k="name" v="Leisteinsløpet" />
		<tag k="place" v="locality" />
		<tag k="ssr:stedsnr" v="387795" />
	</node>
	<node id="-210930" lat="59.0988861097" lon="10.404241665">
		<tag k="bridge" v="yes" />
		<tag k="layer" v="1" />
		<tag k="name" v="Eidene" />
		<tag k="ssr:stedsnr" v="714609" />
	</node>
	<node id="-211027" lat="59.1037138857" lon="10.4176277768">
		<tag k="man_made" v="quay" />
		<tag k="name" v="Grønnebakke" />
		<tag k="place" v="locality" />
		<tag k="ssr:stedsnr" v="753602" />
	</node>
	<node id="-210543" lat="59.2221416673" lon="10.4149111191">
		<tag k="bridge" v="yes" />
		<tag k="layer" v="1" />
		<tag k="name" v="Gipø" />
		<tag k="ssr:stedsnr" v="653655" />
	</node>
	<node id="-211005" lat="59.11708889" lon="10.4566611143">
		<tag k="name" v="Sandøsundsleia" />
		<tag k="place" v="locality" />
		<tag k="ssr:stedsnr" v="509684" />
	</node>
	<node id="-210534" lat="59.2472166697" lon="10.4123638856">
		<tag k="bridge" v="yes" />
		<tag k="layer" v="1" />
		<tag k="name" v="Øgårdsveien" />
		<tag k="ssr:stedsnr" v="46699" />
	</node>
	<node id="-210661" lat="59.2333638883" lon="10.4360777756">
		<tag k="bridge" v="yes" />
		<tag k="layer" v="1" />
		<tag k="name" v="Ekenessundet" />
		<tag k="ssr:stedsnr" v="107668" />
	</node>
	<node id="-210531" lat="59.1986527793" lon="10.4085861127">
		<tag k="junction" v="yes" />
		<tag k="name" v="Engås" />
		<tag k="place" v="locality" />
		<tag k="ssr:stedsnr" v="510939" />
	</node>
	<node id="-210401" lat="59.2351055553" lon="10.4288416721">
		<tag k="bridge" v="yes" />
		<tag k="layer" v="1" />
		<tag k="name" v="Ekenes" />
		<tag k="ssr:stedsnr" v="46770" />
	</node>
	<node id="-210903" lat="59.0877638896" lon="10.4419361101">
		<tag k="man_made" v="quay" />
		<tag k="name" v="Eide" />
		<tag k="place" v="locality" />
		<tag k="ssr:stedsnr" v="875656" />
	</node>
	<node id="-211030" lat="59.1334361086" lon="10.415716666">
		<tag k="man_made" v="quay" />
		<tag k="name" v="Korpereiret" />
		<tag k="place" v="locality" />
		<tag k="ssr:stedsnr" v="25113" />
	</node>
	<node id="-211412" lat="59.1604305543" lon="10.5903777849">
		<tag k="name" v="Fulehuksundet" />
		<tag k="place" v="locality" />
		<tag k="ssr:stedsnr" v="630755" />
	</node>
	<node id="-211411" lat="59.0796333344" lon="10.3985611045">
		<tag k="man_made" v="quay" />
		<tag k="name" v="Treidene" />
		<tag k="place" v="locality" />
		<tag k="ssr:stedsnr" v="450632" />
	</node>
	<node id="-211410" lat="59.1619333331" lon="10.5775055565">
		<tag k="name" v="Rauerrenna" />
		<tag k="place" v="locality" />
		<tag k="ssr:stedsnr" v="84817" />
	</node>
	<node id="-210383" lat="59.2051611106" lon="10.4124055511">
		<tag k="bridge" v="yes" />
		<tag k="layer" v="1" />
		<tag k="name" v="Skjervesvingen mur" />
		<tag k="ssr:stedsnr" v="350601" />
	</node>
	<node id="-210762" lat="59.2365638902" lon="10.4370972268">
		<tag k="bridge" v="yes" />
		<tag k="layer" v="1" />
		<tag k="name" v="Øhre bru" />
		<tag k="ssr:stedsnr" v="146975" />
	</node>
	<node id="-211400" lat="59.1209347881" lon="10.4240277714">
		<tag k="alt_name" v="Engø;Engø brygge" />
		<tag k="landuse" v="harbour" />
		<tag k="name" v="Engøbrygga" />
		<tag k="seamark:type" v="harbour" />
		<tag k="ssr:stedsnr" v="692132" />
	</node>
	<node id="-210887" lat="59.1670388919" lon="10.3862972191">
		<tag k="alt_name" v="Vrengen Nye" />
		<tag k="bridge" v="yes" />
		<tag k="layer" v="1" />
		<tag k="name" v="Vrengen bru" />
		<tag k="ssr:stedsnr" v="813946" />
	</node>
	<node id="-210881" lat="59.1167722218" lon="10.4845972292">
		<tag k="name" v="Drillen" />
		<tag k="place" v="locality" />
		<tag k="ssr:stedsnr" v="145709" />
	</node>
	<node id="-210365" lat="59.2217361132" lon="10.4419694361">
		<tag k="bridge" v="yes" />
		<tag k="layer" v="1" />
		<tag k="name" v="Hjemseng" />
		<tag k="ssr:stedsnr" v="957618" />
	</node>
	<node id="-210364" lat="59.179074999" lon="10.5712944387">
		<tag k="name" v="Skarvesetekjæla" />
		<tag k="place" v="locality" />
		<tag k="ssr:stedsnr" v="509761" />
	</node>
	<node id="-210378" lat="59.2209694423" lon="10.441686107">
		<tag k="bridge" v="yes" />
		<tag k="layer" v="1" />
		<tag k="name" v="Bjønnes" />
		<tag k="ssr:stedsnr" v="714724" />
	</node>
	<node id="-211381" lat="59.1259027799" lon="10.3826666609">
		<tag k="man_made" v="quay" />
		<tag k="name" v="Budal" />
		<tag k="place" v="locality" />
		<tag k="ssr:stedsnr" v="813197" />
	</node>
	<node id="-210484" lat="59.1981083334" lon="10.4552416725">
		<tag k="man_made" v="quay" />
		<tag k="name" v="Arås" />
		<tag k="place" v="locality" />
		<tag k="ssr:stedsnr" v="631959" />
	</node>
	<node id="-210483" lat="59.2243666648" lon="10.4388083298">
		<tag k="bridge" v="yes" />
		<tag k="layer" v="1" />
		<tag k="name" v="Bjønnes" />
		<tag k="ssr:stedsnr" v="896779" />
	</node>
	<node id="-210992" lat="59.0856833358" lon="10.4289555479">
		<tag k="bridge" v="yes" />
		<tag k="layer" v="1" />
		<tag k="name" v="Øra" />
		<tag k="ssr:stedsnr" v="471644" />
	</node>
	<node id="-210987" lat="59.0889749963" lon="10.4772861121">
		<tag k="name" v="Busteinsløpet" />
		<tag k="place" v="locality" />
		<tag k="ssr:stedsnr" v="25970" />
	</node>
	<node id="-210474" lat="59.2573169398" lon="10.4262096189">
		<tag k="man_made" v="quay" />
		<tag k="name" v="Sjøormen" />
		<tag k="place" v="locality" />
		<tag k="ssr:stedsnr" v="695022" />
	</node>
	<node id="-210596" lat="59.1646000038" lon="10.4648027744">
		<tag k="name" v="Leia" />
		<tag k="place" v="locality" />
		<tag k="ssr:stedsnr" v="813719" />
	</node>
	<node id="-210846" lat="59.1525777763" lon="10.3747138874">
		<tag k="man_made" v="quay" />
		<tag k="name" v="Sandodden" />
		<tag k="place" v="locality" />
		<tag k="ssr:stedsnr" v="328228" />
	</node>
	<node id="-211356" lat="59.0815333304" lon="10.4515944361">
		<tag k="landuse" v="harbour" />
		<tag k="name" v="Krukehavn" />
		<tag k="seamark:type" v="harbour" />
		<tag k="ssr:stedsnr" v="426388" />
	</node>
	<node id="-210842" lat="59.1959250018" lon="10.5519333302">
		<tag k="name" v="Ramsholmkjæla" />
		<tag k="place" v="locality" />
		<tag k="ssr:stedsnr" v="569775" />
	</node>
	<node id="-211224" lat="59.0926222245" lon="10.4433666698">
		<tag k="man_made" v="quay" />
		<tag k="name" v="Storebukt" />
		<tag k="place" v="locality" />
		<tag k="ssr:stedsnr" v="86662" />
	</node>
	<node id="-210452" lat="59.2208277785" lon="10.4281583385">
		<tag k="bridge" v="yes" />
		<tag k="layer" v="1" />
		<tag k="name" v="Bugårdsbrua" />
		<tag k="ssr:stedsnr" v="168742" />
	</node>
	<node id="-210578" lat="59.143505555" lon="10.3344527771">
		<tag k="man_made" v="quay" />
		<tag k="name" v="Kongshavn" />
		<tag k="place" v="locality" />
		<tag k="ssr:stedsnr" v="874275" />
	</node>
	<node id="-210448" lat="59.1787722238" lon="10.4552833294">
		<tag k="man_made" v="quay" />
		<tag k="name" v="Middelborg" />
		<tag k="place" v="locality" />
		<tag k="ssr:stedsnr" v="25958" />
	</node>
	<node id="-210829" lat="59.0852694485" lon="10.4166583354">
		<tag k="landuse" v="harbour" />
		<tag k="name" v="Havna" />
		<tag k="seamark:type" v="harbour" />
		<tag k="ssr:stedsnr" v="790422" />
	</node>
	<node id="-210997" lat="59.1580194405" lon="10.3746083281">
		<tag k="man_made" v="quay" />
		<tag k="name" v="Svartskjær" />
		<tag k="place" v="locality" />
		<tag k="ssr:stedsnr" v="935239" />
	</node>
	<node id="-210822" lat="59.0810111146" lon="10.4280166641">
		<tag k="bridge" v="yes" />
		<tag k="layer" v="1" />
		<tag k="name" v="Risbrua" />
		<tag k="ssr:stedsnr" v="328669" />
	</node>
	<node id="-211201" lat="59.1103805531" lon="10.4189222143">
		<tag k="man_made" v="quay" />
		<tag k="name" v="Regnbuen" />
		<tag k="place" v="locality" />
		<tag k="ssr:stedsnr" v="875614" />
	</node>
</osm>
