<?xml version="1.0" encoding="UTF-8"?>
<<<<<<< HEAD
<osm version="0.6" generator="osmapis">
	<node lat="62.20567222469401" lon="8.565672218381955" id="-16222">
		<tag k="highway" v="path" />
		<tag k="name" v="Morkadroge" />
		<tag k="ssr:stedsnr" v="232450" />
	</node>
	<node lat="62.1267749997838" lon="8.804577773487361" id="-16226">
		<tag k="highway" v="path" />
		<tag k="name" v="Svellhovddroge" />
		<tag k="ssr:stedsnr" v="232687" />
	</node>
	<node lat="62.227311111255254" lon="8.788366671587633" id="-16254">
=======
<osm generator="osmapis" version="0.6">
	<node id="-361472" lat="62.1393777803" lon="8.97667222764">
		<tag k="highway" v="path" />
		<tag k="name" v="Vetlkroken" />
		<tag k="ssr:stedsnr" v="475942" />
	</node>
	<node id="-361467" lat="62.1343694468" lon="8.85695832949">
		<tag k="highway" v="path" />
		<tag k="name" v="Kvitråket" />
		<tag k="ssr:stedsnr" v="475737" />
	</node>
	<node id="-361459" lat="62.1035694402" lon="8.68328889364">
		<tag k="fixme" v="consider highway=path" />
		<tag k="highway" v="track" />
		<tag k="name" v="Viggeveien" />
		<tag k="ssr:stedsnr" v="475571" />
	</node>
	<node id="-361458" lat="62.1022583325" lon="8.73398333985">
		<tag k="fixme" v="consider highway=path" />
		<tag k="highway" v="track" />
		<tag k="name" v="Søre Viggeveien" />
		<tag k="ssr:stedsnr" v="475552" />
	</node>
	<node id="-362468" lat="62.2165027754" lon="8.51837499603">
		<tag k="highway" v="path" />
		<tag k="name" v="Kvaslådroge" />
		<tag k="ssr:stedsnr" v="353506" />
	</node>
	<node id="-362978" lat="62.0897916633" lon="8.90946388552">
		<tag k="highway" v="path" />
		<tag k="name" v="Måsådroge" />
		<tag k="ssr:stedsnr" v="839980" />
	</node>
	<node id="-362746" lat="62.2700583362" lon="8.674922216">
		<tag k="highway" v="path" />
		<tag k="name" v="Ylsbottvegen" />
		<tag k="ssr:stedsnr" v="596704" />
	</node>
	<node id="-362455" lat="62.2628305514" lon="8.19523888694">
		<tag k="bridge" v="yes" />
		<tag k="layer" v="1" />
		<tag k="name" v="Bøverå" />
		<tag k="ssr:stedsnr" v="349440" />
	</node>
	<node id="-362962" lat="62.1411472219" lon="8.65721388871">
		<tag k="highway" v="path" />
		<tag k="name" v="Måsådroge" />
		<tag k="ssr:stedsnr" v="839521" />
	</node>
	<node id="-361425" lat="62.1446027798" lon="8.78662499771">
		<tag k="name" v="Vassveite" />
		<tag k="ssr:stedsnr" v="474567" />
		<tag k="waterway" v="canal" />
	</node>
	<node id="-362956" lat="62.2349527806" lon="8.24534723075">
		<tag k="aeroway" v="airstrip" />
		<tag k="name" v="Bjorli flyplass" />
		<tag k="ssr:stedsnr" v="839171" />
	</node>
	<node id="-362949" lat="62.2317555523" lon="8.38544166287">
		<tag k="bridge" v="yes" />
		<tag k="layer" v="1" />
		<tag k="name" v="Nordre Skottå" />
		<tag k="ssr:stedsnr" v="835530" />
	</node>
	<node id="-361389" lat="62.2317694426" lon="8.39760555361">
		<tag k="alt_name" v="Skottå søndre" />
		<tag k="bridge" v="yes" />
		<tag k="layer" v="1" />
		<tag k="loc_name" v="Sørskottåbrue" />
		<tag k="name" v="Søndre Skottå" />
		<tag k="ssr:stedsnr" v="470486" />
	</node>
	<node id="-361388" lat="62.2372472228" lon="8.39079999977">
		<tag k="bridge" v="yes" />
		<tag k="layer" v="1" />
		<tag k="name" v="Skottå" />
		<tag k="ssr:stedsnr" v="470485" />
	</node>
	<node id="-361387" lat="62.1184222241" lon="8.86330833275">
		<tag k="bridge" v="yes" />
		<tag k="layer" v="1" />
		<tag k="name" v="Lesja sentrum" />
		<tag k="ssr:stedsnr" v="470348" />
	</node>
	<node id="-361386" lat="62.0707944479" lon="9.04950833416">
		<tag k="bridge" v="yes" />
		<tag k="layer" v="1" />
		<tag k="name" v="Borgå" />
		<tag k="ssr:stedsnr" v="470339" />
	</node>
	<node id="-361891" lat="62.0548999994" lon="8.94976389022">
		<tag k="highway" v="path" />
		<tag k="name" v="Gamle Slådalsvei" />
		<tag k="ssr:stedsnr" v="900850" />
	</node>
	<node id="-361886" lat="62.2105527755" lon="8.55978333118">
		<tag k="highway" v="path" />
		<tag k="name" v="Torsplassdroge" />
		<tag k="ssr:stedsnr" v="900504" />
	</node>
	<node id="-361364" lat="62.2335194436" lon="8.76560277022">
		<tag k="highway" v="path" />
		<tag k="name" v="Hurrungvegen" />
		<tag k="ssr:stedsnr" v="232607" />
	</node>
	<node id="-361351" lat="62.1042777751" lon="8.90649443945">
		<tag k="highway" v="path" />
		<tag k="name" v="Øyadroge" />
		<tag k="ssr:stedsnr" v="293987" />
	</node>
	<node id="-361860" lat="62.080297224" lon="9.00168889813">
		<tag k="fixme" v="consider highway=path" />
		<tag k="highway" v="track" />
		<tag k="name" v="Bottheimsætervegen" />
		<tag k="ssr:stedsnr" v="717805" />
	</node>
	<node id="-361855" lat="62.1303499982" lon="8.64906944122">
		<tag k="highway" v="path" />
		<tag k="name" v="Haukrustveien" />
		<tag k="ssr:stedsnr" v="717430" />
	</node>
	<node id="-362877" lat="62.2016555536" lon="8.88345555198">
		<tag k="highway" v="path" />
		<tag k="name" v="Klukkardroge" />
		<tag k="ssr:stedsnr" v="778902" />
	</node>
	<node id="-361849" lat="62.210872218" lon="8.46781945269">
		<tag k="bridge" v="yes" />
		<tag k="layer" v="1" />
		<tag k="name" v="Sangro" />
		<tag k="ssr:stedsnr" v="895369" />
	</node>
	<node id="-361848" lat="62.2272750025" lon="8.42158888779">
		<tag k="bridge" v="yes" />
		<tag k="layer" v="1" />
		<tag k="name" v="Brandli" />
		<tag k="ssr:stedsnr" v="895367" />
	</node>
	<node id="-361847" lat="62.1579416653" lon="8.67033889263">
		<tag k="bridge" v="yes" />
		<tag k="layer" v="1" />
		<tag k="name" v="Motterudåa" />
		<tag k="ssr:stedsnr" v="713375" />
	</node>
	<node id="-361846" lat="62.246441668" lon="8.21771388648">
		<tag k="bridge" v="yes" />
		<tag k="layer" v="1" />
		<tag k="name" v="Rånå" />
		<tag k="ssr:stedsnr" v="713372" />
	</node>
	<node id="-362869" lat="62.0562722199" lon="9.01252222238">
>>>>>>> e1d4bc35ff8a6074a6f2e91616a996b547c36f15
		<tag k="highway" v="path" />
		<tag k="name" v="Skardråket" />
		<tag k="ssr:stedsnr" v="50618" />
	</node>
<<<<<<< HEAD
	<node lat="62.0965666636407" lon="9.097094451986068" id="-16257">
=======
	<node id="-362868" lat="62.0645499998" lon="9.02569999203">
>>>>>>> e1d4bc35ff8a6074a6f2e91616a996b547c36f15
		<tag k="highway" v="path" />
		<tag k="name" v="Steinvegen" />
		<tag k="ssr:stedsnr" v="50810" />
	</node>
<<<<<<< HEAD
	<node lat="62.22035555590606" lon="8.513777777984988" id="-16289">
=======
	<node id="-362867" lat="62.1229777788" lon="8.85018888994">
>>>>>>> e1d4bc35ff8a6074a6f2e91616a996b547c36f15
		<tag k="highway" v="path" />
		<tag k="name" v="Lykkjedroge" />
		<tag k="ssr:stedsnr" v="111472" />
	</node>
<<<<<<< HEAD
	<node lat="62.10454444328866" lon="8.806552773616701" id="-16291">
=======
	<node id="-362865" lat="62.2759666696" lon="8.67287777019">
>>>>>>> e1d4bc35ff8a6074a6f2e91616a996b547c36f15
		<tag k="highway" v="path" />
		<tag k="name" v="Søre Droge" />
		<tag k="ssr:stedsnr" v="111627" />
	</node>
<<<<<<< HEAD
	<node lat="62.174891663132954" lon="8.594766667295534" id="-16387">
		<tag k="alt_name" v="Sandbrua" />
		<tag k="ford" v="yes" />
		<tag k="name" v="Sandbrue" />
=======
	<node id="-362863" lat="62.2398888859" lon="8.82981666961">
		<tag k="junction" v="yes" />
		<tag k="name" v="Kvitakrysset" />
>>>>>>> e1d4bc35ff8a6074a6f2e91616a996b547c36f15
		<tag k="place" v="locality" />
		<tag k="ssr:stedsnr" v="171309" />
	</node>
<<<<<<< HEAD
	<node lat="62.233519443599945" lon="8.765602770223706" id="-16408">
=======
	<node id="-362350" lat="62.1362750011" lon="8.98458889791">
>>>>>>> e1d4bc35ff8a6074a6f2e91616a996b547c36f15
		<tag k="highway" v="path" />
		<tag k="name" v="Hurrungvegen" />
		<tag k="ssr:stedsnr" v="232607" />
	</node>
<<<<<<< HEAD
	<node lat="62.10071944287691" lon="9.080074995384578" id="-16412">
=======
	<node id="-362348" lat="62.1022833319" lon="9.06660833883">
>>>>>>> e1d4bc35ff8a6074a6f2e91616a996b547c36f15
		<tag k="highway" v="path" />
		<tag k="name" v="Årbogvegen" />
		<tag k="ssr:stedsnr" v="232847" />
	</node>
<<<<<<< HEAD
	<node lat="62.10164722156792" lon="9.040322225207165" id="-16445">
=======
	<node id="-362342" lat="62.0853972225" lon="8.9391694538">
>>>>>>> e1d4bc35ff8a6074a6f2e91616a996b547c36f15
		<tag k="highway" v="path" />
		<tag k="name" v="Slettmodroge" />
		<tag k="ssr:stedsnr" v="292903" />
	</node>
<<<<<<< HEAD
	<node lat="62.07079444787072" lon="9.04950833415639" id="-16475">
		<tag k="bridge" v="yes" />
		<tag k="layer" v="1" />
		<tag k="name" v="Borgå" />
		<tag k="ssr:stedsnr" v="470339" />
	</node>
	<node lat="62.11842222409653" lon="8.86330833275427" id="-16476">
		<tag k="bridge" v="yes" />
		<tag k="layer" v="1" />
		<tag k="name" v="Lesja sentrum" />
		<tag k="ssr:stedsnr" v="470348" />
	</node>
	<node lat="62.23724722279194" lon="8.390799999765571" id="-16477">
		<tag k="bridge" v="yes" />
		<tag k="layer" v="1" />
		<tag k="name" v="Skottå" />
		<tag k="ssr:stedsnr" v="470485" />
	</node>
	<node lat="62.23176944261885" lon="8.397605553606173" id="-16478">
		<tag k="alt_name" v="Skottå søndre" />
		<tag k="bridge" v="yes" />
		<tag k="layer" v="1" />
		<tag k="loc_name" v="Sørskottåbrue" />
		<tag k="name" v="Søndre Skottå" />
		<tag k="ssr:stedsnr" v="470486" />
	</node>
	<node lat="62.17305555520322" lon="8.517594447127006" id="-16485">
=======
	<node id="-362847" lat="62.2652444402" lon="8.17968334015">
		<tag k="bridge" v="yes" />
		<tag k="layer" v="1" />
		<tag k="name" v="Bakkebekk" />
		<tag k="ssr:stedsnr" v="774417" />
	</node>
	<node id="-362330" lat="62.1337805535" lon="8.73399721388">
		<tag k="fixme" v="consider highway=path" />
		<tag k="highway" v="track" />
		<tag k="name" v="Brattstigen" />
		<tag k="ssr:stedsnr" v="171384" />
	</node>
	<node id="-362329" lat="62.1748916631" lon="8.5947666673">
		<tag k="ford" v="yes" />
		<tag k="name" v="Sandbrua" />
		<tag k="place" v="locality" />
		<tag k="ssr:stedsnr" v="171309" />
	</node>
	<node id="-362326" lat="62.2426694488" lon="8.19280833453">
		<tag k="fixme" v="consider highway=path" />
		<tag k="highway" v="track" />
		<tag k="name" v="Bøligeilen" />
		<tag k="ssr:stedsnr" v="171144" />
	</node>
	<node id="-362836" lat="62.103508329" lon="9.00838055863">
		<tag k="alt_name" v="Bottheim" />
		<tag k="name" v="Bottheim stasjon" />
		<tag k="railway" v="station" />
		<tag k="ssr:stedsnr" v="739881" />
		<tag k="train" v="yes" />
	</node>
	<node id="-362323" lat="62.1239388907" lon="8.64121388326">
		<tag k="barrier" v="lift_gate" />
		<tag k="name" v="Lordalsbommen" />
		<tag k="place" v="locality" />
		<tag k="ssr:stedsnr" v="169774" />
	</node>
	<node id="-362321" lat="62.202677775" lon="8.49008334181">
		<tag k="bridge" v="yes" />
		<tag k="layer" v="1" />
		<tag k="name" v="Fotfola" />
		<tag k="ssr:stedsnr" v="167391" />
	</node>
	<node id="-361803" lat="62.2287250003" lon="8.26348889681">
		<tag k="fixme" v="consider highway=path" />
		<tag k="highway" v="track" />
		<tag k="name" v="Fiskemyrvegen" />
		<tag k="ssr:stedsnr" v="657060" />
	</node>
	<node id="-361798" lat="62.0891166644" lon="8.83319444886">
		<tag k="highway" v="path" />
		<tag k="name" v="Prestdroge" />
		<tag k="ssr:stedsnr" v="656654" />
	</node>
	<node id="-361277" lat="62.1045444433" lon="8.80655277362">
		<tag k="highway" v="path" />
		<tag k="name" v="Søre Droge" />
		<tag k="ssr:stedsnr" v="111627" />
	</node>
	<node id="-361271" lat="62.1359583335" lon="8.66681111857">
		<tag k="fixme" v="consider highway=path" />
		<tag k="highway" v="track" />
		<tag k="name" v="Hågåveien" />
		<tag k="ssr:stedsnr" v="110423" />
	</node>
	<node id="-362632" lat="62.1031444468" lon="8.86016111042">
		<tag k="bridge" v="yes" />
		<tag k="layer" v="1" />
		<tag k="name" v="Nestandå" />
		<tag k="ssr:stedsnr" v="531390" />
	</node>
	<node id="-361772" lat="62.1672361085" lon="8.6815472161">
		<tag k="highway" v="path" />
		<tag k="name" v="Søre Skrøydroge" />
		<tag k="ssr:stedsnr" v="719636" />
	</node>
	<node id="-362631" lat="62.1184222185" lon="8.85786667297">
		<tag k="bridge" v="yes" />
		<tag k="layer" v="1" />
		<tag k="name" v="Lesja" />
		<tag k="ssr:stedsnr" v="531385" />
	</node>
	<node id="-362791" lat="62.1185395224" lon="8.85386685818">
		<tag k="alt_name" v="Lesja" />
		<tag k="name" v="Lesja stasjon" />
		<tag k="railway" v="station" />
		<tag k="ssr:stedsnr" v="617887" />
		<tag k="train" v="yes" />
	</node>
	<node id="-361766" lat="62.1649972267" lon="8.4876638873">
		<tag k="highway" v="path" />
		<tag k="name" v="Kvitskriudroge" />
		<tag k="ssr:stedsnr" v="718521" />
	</node>
	<node id="-361753" lat="62.1370222205" lon="9.01435555555">
>>>>>>> e1d4bc35ff8a6074a6f2e91616a996b547c36f15
		<tag k="highway" v="path" />
		<tag k="name" v="Breiranddroge" />
		<tag k="ssr:stedsnr" v="474325" />
	</node>
<<<<<<< HEAD
	<node lat="62.216502775410476" lon="8.51837499603363" id="-16491">
		<tag k="highway" v="path" />
		<tag k="name" v="Kvaslådroge" />
		<tag k="ssr:stedsnr" v="353506" />
	</node>
	<node lat="62.14460277975464" lon="8.786624997713679" id="-16507">
		<tag k="name" v="Vassveite" />
		<tag k="ssr:stedsnr" v="474567" />
		<tag k="waterway" v="canal" />
	</node>
	<node lat="62.134369446825495" lon="8.856958329485616" id="-16529">
		<tag k="highway" v="path" />
		<tag k="name" v="Kvitråket" />
		<tag k="ssr:stedsnr" v="475737" />
	</node>
	<node lat="62.102258332526496" lon="8.733983339850829" id="-16531">
		<tag k="fixme" v="consider highway=path" />
		<tag k="highway" v="track" />
		<tag k="name" v="Søre Viggeveien" />
		<tag k="ssr:stedsnr" v="475552" />
	</node>
	<node lat="62.09873610989056" lon="8.922025000375811" id="-16535">
=======
	<node id="-361752" lat="62.0674527735" lon="9.00850556179">
		<tag k="highway" v="path" />
		<tag k="name" v="Timmerdrogje" />
		<tag k="ssr:stedsnr" v="717742" />
	</node>
	<node id="-362262" lat="62.168024998" lon="8.7021472263">
		<tag k="man_made" v="cairn" />
		<tag k="name" v="Varden" />
		<tag k="place" v="locality" />
		<tag k="ssr:stedsnr" v="112701" />
	</node>
	<node id="-362248" lat="62.2203555559" lon="8.51377777798">
		<tag k="highway" v="path" />
		<tag k="name" v="Lykkjedroge" />
		<tag k="ssr:stedsnr" v="111472" />
	</node>
	<node id="-362246" lat="62.2006861105" lon="8.54958332715">
		<tag k="highway" v="path" />
		<tag k="name" v="Torsplassdroge" />
		<tag k="ssr:stedsnr" v="111346" />
	</node>
	<node id="-362242" lat="62.232811115" lon="8.33595556276">
		<tag k="bridge" v="yes" />
		<tag k="layer" v="1" />
		<tag k="name" v="Kråssbrue" />
		<tag k="ssr:stedsnr" v="111096" />
	</node>
	<node id="-361173" lat="62.2273111113" lon="8.78836667159">
		<tag k="highway" v="path" />
		<tag k="name" v="Skardråket" />
		<tag k="ssr:stedsnr" v="50618" />
	</node>
	<node id="-362748" lat="62.1370305576" lon="9.0342944427">
		<tag k="highway" v="path" />
		<tag k="name" v="Svartdalsråket" />
		<tag k="ssr:stedsnr" v="596886" />
	</node>
	<node id="-361722" lat="62.1033666688" lon="9.07262777658">
		<tag k="highway" v="path" />
		<tag k="name" v="Nedre Baklihaugvegen" />
		<tag k="ssr:stedsnr" v="595851" />
	</node>
	<node id="-362227" lat="62.1336805572" lon="8.63332222949">
		<tag k="highway" v="path" />
		<tag k="name" v="Tverrbergdroge" />
		<tag k="ssr:stedsnr" v="110435" />
	</node>
	<node id="-361187" lat="62.1615722267" lon="8.65075555787">
>>>>>>> e1d4bc35ff8a6074a6f2e91616a996b547c36f15
		<tag k="fixme" v="consider highway=path" />
		<tag k="highway" v="track" />
		<tag k="name" v="Gamle Slådalsvegen" />
		<tag k="ssr:stedsnr" v="475981" />
	</node>
<<<<<<< HEAD
	<node lat="62.13937778034371" lon="8.976672227637245" id="-16537">
		<tag k="highway" v="path" />
		<tag k="name" v="Vetlkroken" />
		<tag k="ssr:stedsnr" v="475942" />
	</node>
	<node lat="62.103569440225826" lon="8.683288893644146" id="-16617">
=======
	<node id="-361183" lat="62.2463361152" lon="8.12561943655">
		<tag k="ford" v="yes" />
		<tag k="name" v="Stølvadet" />
		<tag k="place" v="locality" />
		<tag k="ssr:stedsnr" v="51254" />
	</node>
	<node id="-362715" lat="62.1347166668" lon="8.66931111271">
>>>>>>> e1d4bc35ff8a6074a6f2e91616a996b547c36f15
		<tag k="fixme" v="consider highway=path" />
		<tag k="highway" v="track" />
		<tag k="name" v="Viggeveien" />
		<tag k="ssr:stedsnr" v="475571" />
	</node>
<<<<<<< HEAD
	<node lat="62.258558261192675" lon="8.20150266410643" id="-16636">
		<tag k="alt_name" v="Bjorli" />
		<tag k="name" v="Bjorli stasjon" />
		<tag k="railway" v="station" />
		<tag k="ssr:stedsnr" v="678152" />
		<tag k="train" v="yes" />
	</node>
	<node lat="62.28142500134172" lon="8.137580552436924" id="-16714">
=======
	<node id="-361178" lat="62.0965666636" lon="9.09709445199">
		<tag k="highway" v="path" />
		<tag k="name" v="Steinvegen" />
		<tag k="ssr:stedsnr" v="50810" />
	</node>
	<node id="-361686" lat="62.2814250013" lon="8.13758055244">
>>>>>>> e1d4bc35ff8a6074a6f2e91616a996b547c36f15
		<tag k="name" v="Stuguflåten" />
		<tag k="railway" v="station" />
		<tag k="ssr:stedsnr" v="556164" />
		<tag k="train" v="yes" />
	</node>
<<<<<<< HEAD
	<node lat="62.081516668369005" lon="9.03156111350909" id="-16749">
=======
	<node id="-362709" lat="62.0815166684" lon="9.03156111351">
>>>>>>> e1d4bc35ff8a6074a6f2e91616a996b547c36f15
		<tag k="bridge" v="yes" />
		<tag k="layer" v="1" />
		<tag k="name" v="Kvernå" />
		<tag k="ssr:stedsnr" v="591355" />
	</node>
<<<<<<< HEAD
	<node lat="62.10336666881175" lon="9.072627776575223" id="-16752">
		<tag k="highway" v="path" />
		<tag k="name" v="Nedre Baklihaugvegen" />
		<tag k="ssr:stedsnr" v="595851" />
	</node>
	<node lat="62.27005833615009" lon="8.674922216002377" id="-16760">
		<tag k="highway" v="path" />
		<tag k="name" v="Ylsbottvegen" />
		<tag k="ssr:stedsnr" v="596704" />
	</node>
	<node lat="62.173864215030314" lon="8.702192531637492" id="-16764">
		<tag k="highway" v="path" />
		<tag k="name" v="Sveadroge" />
		<tag k="ssr:stedsnr" v="597707" />
	</node>
	<node lat="62.11853952236037" lon="8.853866858179668" id="-16784">
		<tag k="alt_name" v="Lesja" />
		<tag k="name" v="Lesja stasjon" />
=======
	<node id="-361170" lat="62.217930558" lon="8.51436388067">
		<tag k="highway" v="path" />
		<tag k="name" v="Merrabotdroge" />
		<tag k="ssr:stedsnr" v="50460" />
	</node>
	<node id="-361167" lat="62.2311083363" lon="8.38510000795">
		<tag k="bridge" v="yes" />
		<tag k="layer" v="1" />
		<tag k="name" v="Slettum" />
		<tag k="ssr:stedsnr" v="46537" />
	</node>
	<node id="-361420" lat="62.1730555552" lon="8.51759444713">
		<tag k="highway" v="path" />
		<tag k="name" v="Breiranddroge" />
		<tag k="ssr:stedsnr" v="474325" />
	</node>
	<node id="-362177" lat="62.0818833314" lon="8.90058333682">
		<tag k="highway" v="path" />
		<tag k="name" v="Lurvedroge" />
		<tag k="ssr:stedsnr" v="50987" />
	</node>
	<node id="-362171" lat="62.1491611129" lon="8.87945277083">
		<tag k="fixme" v="consider highway=path" />
		<tag k="highway" v="track" />
		<tag k="name" v="Gamlevegen" />
		<tag k="ssr:stedsnr" v="50929" />
	</node>
	<node id="-362165" lat="62.1732361152" lon="8.70291110274">
		<tag k="highway" v="path" />
		<tag k="name" v="Åvangsdroge" />
		<tag k="ssr:stedsnr" v="50629" />
	</node>
	<node id="-361135" lat="62.2056722247" lon="8.56567221838">
		<tag k="highway" v="path" />
		<tag k="name" v="Morkadroge" />
		<tag k="ssr:stedsnr" v="232450" />
	</node>
	<node id="-362158" lat="62.1297944465" lon="8.67089444457">
		<tag k="highway" v="path" />
		<tag k="name" v="Brentsagveien" />
		<tag k="ssr:stedsnr" v="50398" />
	</node>
	<node id="-362658" lat="62.0669694446" lon="9.00011943604">
		<tag k="bridge" v="yes" />
		<tag k="layer" v="1" />
		<tag k="name" v="Øvre kloppe" />
		<tag k="ssr:stedsnr" v="535740" />
	</node>
	<node id="-362143" lat="62.1071722252" lon="8.90545554697">
		<tag k="bridge" v="yes" />
		<tag k="layer" v="1" />
		<tag k="name" v="Hattremsbekken" />
		<tag k="ssr:stedsnr" v="46400" />
	</node>
	<node id="-362142" lat="62.1911305573" lon="8.54691665939">
		<tag k="bridge" v="yes" />
		<tag k="layer" v="1" />
		<tag k="name" v="Kirkå" />
		<tag k="ssr:stedsnr" v="46399" />
	</node>
	<node id="-361925" lat="62.2521388879" lon="8.23190832993">
		<tag k="highway" v="path" />
		<tag k="name" v="Gustvegen" />
		<tag k="ssr:stedsnr" v="778133" />
	</node>
	<node id="-361618" lat="62.2585582612" lon="8.20150266411">
		<tag k="alt_name" v="Bjorli" />
		<tag k="name" v="Bjorli stasjon" />
>>>>>>> e1d4bc35ff8a6074a6f2e91616a996b547c36f15
		<tag k="railway" v="station" />
		<tag k="ssr:stedsnr" v="617887" />
		<tag k="train" v="yes" />
	</node>
<<<<<<< HEAD
	<node lat="62.157941665255734" lon="8.670338892634991" id="-16857">
=======
	<node id="-361614" lat="62.1402472195" lon="9.02943611747">
>>>>>>> e1d4bc35ff8a6074a6f2e91616a996b547c36f15
		<tag k="bridge" v="yes" />
		<tag k="layer" v="1" />
		<tag k="name" v="Motterudåa" />
		<tag k="ssr:stedsnr" v="713375" />
	</node>
<<<<<<< HEAD
	<node lat="62.13034999815382" lon="8.649069441221576" id="-16862">
		<tag k="highway" v="path" />
		<tag k="name" v="Haukrustveien" />
		<tag k="ssr:stedsnr" v="717430" />
	</node>
	<node lat="62.06745277353745" lon="9.00850556178569" id="-16864">
		<tag k="highway" v="path" />
		<tag k="name" v="Timmerdrogje" />
		<tag k="ssr:stedsnr" v="717742" />
	</node>
	<node lat="62.08029722403407" lon="9.001688898127613" id="-16867">
		<tag k="fixme" v="consider highway=path" />
		<tag k="highway" v="track" />
		<tag k="name" v="Bottheimsætervegen" />
		<tag k="ssr:stedsnr" v="717805" />
	</node>
	<node lat="62.164997226670195" lon="8.487663887295188" id="-16873">
=======
	<node id="-362637" lat="62.2081611134" lon="8.33567500348">
		<tag k="highway" v="path" />
		<tag k="name" v="Skriu" />
		<tag k="ssr:stedsnr" v="535063" />
	</node>
	<node id="-362633" lat="62.1251222215" lon="8.76077499702">
		<tag k="bridge" v="yes" />
		<tag k="layer" v="1" />
		<tag k="name" v="Lyftingsmo" />
		<tag k="ssr:stedsnr" v="531393" />
	</node>
	<node id="-361608" lat="62.1157666704" lon="8.97956945323">
		<tag k="fixme" v="consider highway=path" />
		<tag k="highway" v="track" />
		<tag k="name" v="Bottemsveien" />
		<tag k="ssr:stedsnr" v="657950" />
	</node>
	<node id="-361324" lat="62.1016472216" lon="9.04032222521">
		<tag k="highway" v="path" />
		<tag k="name" v="Slettmodroge" />
		<tag k="ssr:stedsnr" v="292903" />
	</node>
	<node id="-362630" lat="62.2768805555" lon="8.11636110854">
		<tag k="bridge" v="yes" />
		<tag k="layer" v="1" />
		<tag k="name" v="Ulvåbrua" />
		<tag k="ssr:stedsnr" v="522501" />
	</node>
	<node id="-361153" lat="62.1007194429" lon="9.08007499538">
		<tag k="highway" v="path" />
		<tag k="name" v="Årbogvegen" />
		<tag k="ssr:stedsnr" v="232847" />
	</node>
	<node id="-361593" lat="62.1498666711" lon="8.80660278628">
>>>>>>> e1d4bc35ff8a6074a6f2e91616a996b547c36f15
		<tag k="highway" v="path" />
		<tag k="name" v="Kvitskriudroge" />
		<tag k="ssr:stedsnr" v="718521" />
	</node>
<<<<<<< HEAD
	<node lat="62.05489999939191" lon="8.949763890219753" id="-16901">
=======
	<node id="-361590" lat="62.1469833346" lon="8.7015666578">
>>>>>>> e1d4bc35ff8a6074a6f2e91616a996b547c36f15
		<tag k="highway" v="path" />
		<tag k="name" v="Gamle Slådalsvei" />
		<tag k="ssr:stedsnr" v="900850" />
	</node>
<<<<<<< HEAD
	<node lat="62.26524444021235" lon="8.179683340152387" id="-16930">
		<tag k="bridge" v="yes" />
		<tag k="layer" v="1" />
		<tag k="name" v="Bakkebekk" />
		<tag k="ssr:stedsnr" v="774417" />
	</node>
	<node lat="62.2759666696266" lon="8.672877770191302" id="-16937">
=======
	<node id="-361147" lat="62.1267749998" lon="8.80457777349">
		<tag k="highway" v="path" />
		<tag k="name" v="Svellhovddroge" />
		<tag k="ssr:stedsnr" v="232687" />
	</node>
	<node id="-362080" lat="62.1406749981" lon="9.05266389727">
		<tag k="highway" v="path" />
		<tag k="name" v="Tungråket" />
		<tag k="ssr:stedsnr" v="960862" />
	</node>
	<node id="-361566" lat="62.1925058675" lon="8.53819000552">
		<tag k="alt_name" v="Lesjaverk" />
		<tag k="name" v="Lesjaverk stasjon" />
		<tag k="railway" v="station" />
		<tag k="ssr:stedsnr" v="435853" />
		<tag k="train" v="yes" />
	</node>
	<node id="-362076" lat="62.1339944463" lon="8.81462499642">
>>>>>>> e1d4bc35ff8a6074a6f2e91616a996b547c36f15
		<tag k="highway" v="path" />
		<tag k="name" v="Merrabottvegen" />
		<tag k="ssr:stedsnr" v="778718" />
	</node>
<<<<<<< HEAD
	<node lat="62.20165555357748" lon="8.883455551975537" id="-16943">
		<tag k="highway" v="path" />
		<tag k="name" v="Klukkardroge" />
		<tag k="ssr:stedsnr" v="778902" />
	</node>
	<node lat="62.184366663718734" lon="8.638377771083068" id="-17026">
=======
	<node id="-362067" lat="62.1795833324" lon="8.57792221531">
		<tag k="ford" v="yes" />
		<tag k="name" v="Vadbrua" />
		<tag k="place" v="locality" />
		<tag k="ssr:stedsnr" v="960306" />
	</node>
	<node id="-362066" lat="62.2291055565" lon="8.15484166335">
>>>>>>> e1d4bc35ff8a6074a6f2e91616a996b547c36f15
		<tag k="highway" v="path" />
		<tag k="name" v="Mosenddroge" />
		<tag k="ssr:stedsnr" v="840690" />
	</node>
<<<<<<< HEAD
	<node lat="62.227275002455244" lon="8.421588887788243" id="-17043">
		<tag k="bridge" v="yes" />
		<tag k="layer" v="1" />
		<tag k="name" v="Brandli" />
		<tag k="ssr:stedsnr" v="895367" />
	</node>
	<node lat="62.210872217958666" lon="8.467819452694231" id="-17044">
		<tag k="bridge" v="yes" />
		<tag k="layer" v="1" />
		<tag k="name" v="Sangro" />
		<tag k="ssr:stedsnr" v="895369" />
	</node>
	<node lat="62.210552775475186" lon="8.5597833311797" id="-17053">
		<tag k="highway" v="path" />
		<tag k="name" v="Torsplassdroge" />
		<tag k="ssr:stedsnr" v="900504" />
	</node>
	<node lat="62.230538888535165" lon="8.350119452074617" id="-17088">
		<tag k="bridge" v="yes" />
		<tag k="layer" v="1" />
		<tag k="name" v="Mølmen" />
		<tag k="ssr:stedsnr" v="956417" />
	</node>
	<node lat="62.12765832889926" lon="8.634077780473143" id="-17092">
=======
	<node id="-362573" lat="62.0686111068" lon="9.00428333922">
		<tag k="bridge" v="yes" />
		<tag k="layer" v="1" />
		<tag k="name" v="Nedre kloppe" />
		<tag k="ssr:stedsnr" v="414727" />
	</node>
	<node id="-362571" lat="62.1529500043" lon="8.79212500323">
		<tag k="name" v="Vassveite" />
		<tag k="ssr:stedsnr" v="414563" />
		<tag k="waterway" v="canal" />
	</node>
	<node id="-361337" lat="62.137327781" lon="8.78639443935">
		<tag k="highway" v="path" />
		<tag k="name" v="Avdemsdroge" />
		<tag k="ssr:stedsnr" v="293562" />
	</node>
	<node id="-363065" lat="62.0183890486" lon="8.34774338067">
		<tag k="highway" v="path" />
		<tag k="name" v="Løvegen" />
		<tag k="ssr:stedsnr" v="1073537" />
	</node>
	<node id="-361336" lat="62.1536805518" lon="8.8121416607">
		<tag k="highway" v="path" />
		<tag k="name" v="Tandvegen" />
		<tag k="ssr:stedsnr" v="293554" />
	</node>
	<node id="-362758" lat="62.173864215" lon="8.70219253164">
		<tag k="highway" v="path" />
		<tag k="name" v="Sveadroge" />
		<tag k="ssr:stedsnr" v="597707" />
	</node>
	<node id="-362014" lat="62.1843666637" lon="8.63837777108">
		<tag k="highway" v="path" />
		<tag k="name" v="Mosenddroge" />
		<tag k="ssr:stedsnr" v="840690" />
	</node>
	<node id="-363036" lat="62.1276583289" lon="8.63407778047">
>>>>>>> e1d4bc35ff8a6074a6f2e91616a996b547c36f15
		<tag k="highway" v="path" />
		<tag k="name" v="Langrustveien" />
		<tag k="ssr:stedsnr" v="960410" />
	</node>
<<<<<<< HEAD
	<node lat="62.19113055731442" lon="8.546916659389051" id="-17159">
=======
	<node id="-363029" lat="62.2358805559" lon="8.31388055649">
>>>>>>> e1d4bc35ff8a6074a6f2e91616a996b547c36f15
		<tag k="bridge" v="yes" />
		<tag k="layer" v="1" />
		<tag k="name" v="Kirkå" />
		<tag k="ssr:stedsnr" v="46399" />
	</node>
<<<<<<< HEAD
	<node lat="62.107172225181785" lon="8.905455546967886" id="-17160">
=======
	<node id="-363028" lat="62.087908331" lon="9.10262777013">
>>>>>>> e1d4bc35ff8a6074a6f2e91616a996b547c36f15
		<tag k="bridge" v="yes" />
		<tag k="layer" v="1" />
		<tag k="name" v="Hattremsbekken" />
		<tag k="ssr:stedsnr" v="46400" />
	</node>
<<<<<<< HEAD
	<node lat="62.23110833629504" lon="8.38510000795218" id="-17161">
=======
	<node id="-363027" lat="62.2305388885" lon="8.35011945207">
>>>>>>> e1d4bc35ff8a6074a6f2e91616a996b547c36f15
		<tag k="bridge" v="yes" />
		<tag k="layer" v="1" />
		<tag k="name" v="Slettum" />
		<tag k="ssr:stedsnr" v="46537" />
	</node>
<<<<<<< HEAD
	<node lat="62.12979444650619" lon="8.670894444567839" id="-17175">
		<tag k="highway" v="path" />
		<tag k="name" v="Brentsagveien" />
		<tag k="ssr:stedsnr" v="50398" />
	</node>
	<node lat="62.21793055804776" lon="8.514363880666732" id="-17178">
		<tag k="highway" v="path" />
		<tag k="name" v="Merrabotdroge" />
		<tag k="ssr:stedsnr" v="50460" />
	</node>
	<node lat="62.173236115175136" lon="8.7029111027394" id="-17182">
		<tag k="highway" v="path" />
		<tag k="name" v="Åvangsdroge" />
		<tag k="ssr:stedsnr" v="50629" />
	</node>
	<node lat="62.081883331361674" lon="8.900583336821875" id="-17190">
		<tag k="highway" v="path" />
		<tag k="name" v="Lurvedroge" />
		<tag k="ssr:stedsnr" v="50987" />
	</node>
	<node lat="62.14916111287461" lon="8.879452770826635" id="-17194">
		<tag k="fixme" v="consider highway=path" />
		<tag k="highway" v="track" />
		<tag k="name" v="Gamlevegen" />
		<tag k="ssr:stedsnr" v="50929" />
	</node>
	<node lat="62.246336115163494" lon="8.125619436551542" id="-17198">
		<tag k="ford" v="yes" />
		<tag k="name" v="Stølvadet" />
		<tag k="place" v="locality" />
		<tag k="ssr:stedsnr" v="51254" />
	</node>
	<node lat="62.16157222670897" lon="8.650755557866685" id="-17202">
		<tag k="fixme" v="consider highway=path" />
		<tag k="highway" v="track" />
		<tag k="name" v="Risgeilen" />
		<tag k="ssr:stedsnr" v="51713" />
	</node>
=======
	<node id="-362508" lat="62.1895305515" lon="8.64074444001">
		<tag k="highway" v="path" />
		<tag k="name" v="Vangdroge" />
		<tag k="ssr:stedsnr" v="354685" />
	</node>
	<node id="-361476" lat="62.0987361099" lon="8.92202500038">
		<tag k="fixme" v="consider highway=path" />
		<tag k="highway" v="track" />
		<tag k="name" v="Gamle Slådalsvegen" />
		<tag k="ssr:stedsnr" v="475981" />
	</node>
>>>>>>> e1d4bc35ff8a6074a6f2e91616a996b547c36f15
</osm>
