<?xml version="1.0" encoding="UTF-8"?>
<osm version="0.6" generator="osmapis">
	<node lat="62.16132500031341" lon="8.334077769222125" id="-27739">
		<tag k="alt_name" v="Skarvhølegene, søre" />
		<tag k="fixme" v="consider natural=peak for the most distinct mountains in the district" />
		<tag k="name" v="Søre Skarvhølegene" />
		<tag k="natural" v="hill" />
		<tag k="place" v="locality" />
		<tag k="ssr:stedsnr" v="10802" />
	</node>
	<node lat="62.32566389069413" lon="9.074236105648913" id="-27741">
		<tag k="name" v="Telranden" />
		<tag k="natural" v="valley" />
		<tag k="place" v="locality" />
		<tag k="ssr:stedsnr" v="11403" />
	</node>
	<node lat="62.28406111174186" lon="8.877213893391753" id="-27742">
		<tag k="fixme" v="consider natural=peak for the most distinct mountains in the district" />
		<tag k="name" v="Tungnebben" />
		<tag k="natural" v="hill" />
		<tag k="place" v="locality" />
		<tag k="ssr:stedsnr" v="11375" />
	</node>
	<node lat="62.27015833118808" lon="9.007680555948813" id="-27743">
		<tag k="fixme" v="consider natural=peak for the most distinct mountains in the district" />
		<tag k="name" v="Brennhøi" />
		<tag k="natural" v="hill" />
		<tag k="place" v="locality" />
		<tag k="ssr:stedsnr" v="11379" />
	</node>
	<node lat="62.29249166558729" lon="8.956738888417993" id="-27745">
		<tag k="fixme" v="consider natural=peak for the most distinct mountains in the district" />
		<tag k="name" v="Stortverråtinden" />
		<tag k="natural" v="hill" />
		<tag k="place" v="locality" />
		<tag k="ssr:stedsnr" v="11387" />
	</node>
	<node lat="62.30916388760147" lon="8.747611110694178" id="-27746">
		<tag k="fixme" v="consider natural=peak for the most distinct mountains in the district" />
		<tag k="name" v="Veslbotnkampen" />
		<tag k="natural" v="hill" />
		<tag k="place" v="locality" />
		<tag k="ssr:stedsnr" v="11395" />
	</node>
	<node lat="62.353875000708214" lon="8.9711166587803" id="-27748">
		<tag k="fixme" v="consider natural=peak for the most distinct mountains in the district" />
		<tag k="name" v="Grøvudalstinden" />
		<tag k="natural" v="hill" />
		<tag k="place" v="locality" />
		<tag k="ssr:stedsnr" v="11481" />
	</node>
	<node lat="62.327397219385674" lon="8.882419443722805" id="-27749">
		<tag k="name" v="Svartdalsbotn" />
		<tag k="natural" v="valley" />
		<tag k="place" v="locality" />
		<tag k="ssr:stedsnr" v="11482" />
	</node>
	<node lat="62.359352775042915" lon="9.018949992759842" id="-27750">
		<tag k="fixme" v="consider natural=peak for the most distinct mountains in the district" />
		<tag k="loc_name" v="Salhøe" />
		<tag k="name" v="Salhøa" />
		<tag k="natural" v="hill" />
		<tag k="place" v="locality" />
		<tag k="ssr:stedsnr" v="11484" />
	</node>
	<node lat="62.239116665643174" lon="9.00869443798099" id="-27752">
		<tag k="name" v="Sandflåi" />
		<tag k="natural" v="slope" />
		<tag k="place" v="locality" />
		<tag k="ssr:stedsnr" v="11989" />
	</node>
	<node lat="62.22608333337573" lon="8.875563888421981" id="-27753">
		<tag k="fixme" v="consider natural=peak for the most distinct mountains in the district" />
		<tag k="name" v="Årne" />
		<tag k="natural" v="hill" />
		<tag k="place" v="locality" />
		<tag k="ssr:stedsnr" v="11996" />
	</node>
	<node lat="62.22468055134731" lon="8.175988891195614" id="-27759">
		<tag k="name" v="Fonndalen" />
		<tag k="natural" v="valley" />
		<tag k="place" v="locality" />
		<tag k="ssr:stedsnr" v="232159" />
	</node>
	<node lat="62.16561389119886" lon="8.539802773031777" id="-27761">
		<tag k="name" v="Tunga" />
		<tag k="natural" v="slope" />
		<tag k="place" v="locality" />
		<tag k="ssr:stedsnr" v="232320" />
	</node>
	<node lat="62.28480833601981" lon="8.684577770756627" id="-27762">
		<tag k="name" v="Vakkerdalen" />
		<tag k="natural" v="valley" />
		<tag k="place" v="locality" />
		<tag k="ssr:stedsnr" v="14707" />
	</node>
	<node lat="62.11930833736693" lon="8.650774996541411" id="-27765">
		<tag k="name" v="Sandranden" />
		<tag k="natural" v="hill" />
		<tag k="place" v="locality" />
		<tag k="ssr:stedsnr" v="232396" />
	</node>
	<node lat="62.19724999786027" lon="8.590191660777265" id="-27766">
		<tag k="name" v="Drågdalen" />
		<tag k="natural" v="valley" />
		<tag k="place" v="locality" />
		<tag k="ssr:stedsnr" v="232447" />
	</node>
	<node lat="62.086166662246185" lon="8.820977778166847" id="-27769">
		<tag k="name" v="Langdalen" />
		<tag k="natural" v="valley" />
		<tag k="place" v="locality" />
		<tag k="ssr:stedsnr" v="232585" />
	</node>
	<node lat="62.13217221868352" lon="8.818108338978094" id="-27770">
		<tag k="name" v="Rundhaugen" />
		<tag k="natural" v="hill" />
		<tag k="place" v="locality" />
		<tag k="ssr:stedsnr" v="232684" />
	</node>
	<node lat="62.08680277895556" lon="8.999791664306205" id="-27775">
		<tag k="name" v="Vetaflaten" />
		<tag k="place" v="locality" />
		<tag k="ssr:stedsnr" v="232776" />
	</node>
	<node lat="62.07989721967884" lon="9.049538889528515" id="-27776">
		<tag k="name" v="Feten" />
		<tag k="place" v="locality" />
		<tag k="ssr:stedsnr" v="232777" />
	</node>
	<node lat="62.2148222257831" lon="8.928588893579956" id="-27777">
		<tag k="name" v="Svalie" />
		<tag k="natural" v="slope" />
		<tag k="place" v="locality" />
		<tag k="ssr:stedsnr" v="232908" />
	</node>
	<node lat="62.08966389185503" lon="8.450994450746528" id="-27780">
		<tag k="name" v="Vetlenose" />
		<tag k="natural" v="hill" />
		<tag k="place" v="locality" />
		<tag k="ssr:stedsnr" v="233354" />
	</node>
	<node lat="62.16364722464034" lon="8.624813896488773" id="-27781">
		<tag k="name" v="Brattbakken" />
		<tag k="natural" v="slope" />
		<tag k="place" v="locality" />
		<tag k="ssr:stedsnr" v="233359" />
	</node>
	<node lat="62.164705559924556" lon="8.61914165835379" id="-27782">
		<tag k="name" v="Nordre Djupdalen" />
		<tag k="natural" v="valley" />
		<tag k="place" v="locality" />
		<tag k="ssr:stedsnr" v="233360" />
	</node>
	<node lat="62.11283333273019" lon="9.007080555155309" id="-27787">
		<tag k="name" v="Bottdalshøe" />
		<tag k="natural" v="hill" />
		<tag k="place" v="locality" />
		<tag k="ssr:stedsnr" v="48204" />
	</node>
	<node lat="62.068966664417545" lon="9.021166673295351" id="-27789">
		<tag k="name" v="Svartdalen" />
		<tag k="natural" v="valley" />
		<tag k="place" v="locality" />
		<tag k="ssr:stedsnr" v="48220" />
	</node>
	<node lat="62.24807500235013" lon="8.267238882271261" id="-27790">
		<tag k="fixme" v="consider natural=peak for the most distinct mountains in the district" />
		<tag k="name" v="Hundberget" />
		<tag k="natural" v="hill" />
		<tag k="place" v="locality" />
		<tag k="ssr:stedsnr" v="50081" />
	</node>
	<node lat="62.25267499839139" lon="8.334844451300114" id="-27791">
		<tag k="name" v="Skriu" />
		<tag k="natural" v="slope" />
		<tag k="place" v="locality" />
		<tag k="ssr:stedsnr" v="50090" />
	</node>
	<node lat="62.081255556913526" lon="8.94280555888212" id="-27800">
		<tag k="name" v="Bråkålie" />
		<tag k="natural" v="slope" />
		<tag k="place" v="locality" />
		<tag k="ssr:stedsnr" v="50713" />
	</node>
	<node lat="62.10520832887936" lon="8.911547215928083" id="-27805">
		<tag k="name" v="Røvsholdalen" />
		<tag k="natural" v="valley" />
		<tag k="place" v="locality" />
		<tag k="ssr:stedsnr" v="50975" />
	</node>
	<node lat="62.020786108088124" lon="8.246930562939214" id="-27816">
		<tag k="name" v="Bergan" />
		<tag k="natural" v="hill" />
		<tag k="place" v="locality" />
		<tag k="ssr:stedsnr" v="71988" />
	</node>
	<node lat="62.24655833416297" lon="9.004924998173715" id="-27817">
		<tag k="fixme" v="consider natural=peak for the most distinct mountains in the district" />
		<tag k="name" v="Veslefjellet" />
		<tag k="natural" v="hill" />
		<tag k="place" v="locality" />
		<tag k="ssr:stedsnr" v="71989" />
	</node>
	<node lat="62.05603888744295" lon="8.5724999928157" id="-27822">
		<tag k="alt_name" v="Sletthøi" />
		<tag k="fixme" v="consider natural=peak for the most distinct mountains in the district" />
		<tag k="name" v="Sletthøe" />
		<tag k="natural" v="hill" />
		<tag k="place" v="locality" />
		<tag k="ssr:stedsnr" v="72971" />
	</node>
	<node lat="62.05483333548128" lon="8.355519442918457" id="-27825">
		<tag k="name" v="Snalderhaugen" />
		<tag k="natural" v="hill" />
		<tag k="place" v="locality" />
		<tag k="ssr:stedsnr" v="107724" />
	</node>
	<node lat="62.24503333647074" lon="8.345649995967989" id="-27829">
		<tag k="name" v="Kjellhaugen" />
		<tag k="natural" v="hill" />
		<tag k="place" v="locality" />
		<tag k="ssr:stedsnr" v="111104" />
	</node>
	<node lat="62.224388886471075" lon="8.348505558813873" id="-27832">
		<tag k="name" v="Løkkarberget" />
		<tag k="natural" v="hill" />
		<tag k="place" v="locality" />
		<tag k="ssr:stedsnr" v="111092" />
	</node>
	<node lat="62.097411108825064" lon="8.676433333942754" id="-27835">
		<tag k="name" v="Tunga" />
		<tag k="natural" v="slope" />
		<tag k="place" v="locality" />
		<tag k="ssr:stedsnr" v="111527" />
	</node>
	<node lat="62.211747222219046" lon="8.886733325455445" id="-27839">
		<tag k="name" v="Hullarn" />
		<tag k="natural" v="hill" />
		<tag k="place" v="locality" />
		<tag k="ssr:stedsnr" v="111903" />
	</node>
	<node lat="62.12494444262375" lon="8.202805562642663" id="-27841">
		<tag k="name" v="Sovarhaugløyftet" />
		<tag k="natural" v="valley" />
		<tag k="place" v="locality" />
		<tag k="ssr:stedsnr" v="131189" />
	</node>
	<node lat="62.193536100600944" lon="9.184031590368944" id="-27844">
		<tag k="name" v="Grøndalen" />
		<tag k="natural" v="valley" />
		<tag k="place" v="locality" />
		<tag k="ssr:stedsnr" v="131704" />
	</node>
	<node lat="62.18767778121419" lon="8.269044444514822" id="-27846">
		<tag k="alt_name" v="Grønbogen" />
		<tag k="name" v="Grønbogane" />
		<tag k="natural" v="slope" />
		<tag k="place" v="locality" />
		<tag k="ssr:stedsnr" v="131878" />
	</node>
	<node lat="62.303383335046256" lon="9.105924998928552" id="-27850">
		<tag k="name" v="Langvassdalen" />
		<tag k="natural" v="valley" />
		<tag k="place" v="locality" />
		<tag k="ssr:stedsnr" v="132363" />
	</node>
	<node lat="62.316488888965935" lon="8.854180554433764" id="-27851">
		<tag k="name" v="Fagerbotn" />
		<tag k="natural" v="valley" />
		<tag k="place" v="locality" />
		<tag k="ssr:stedsnr" v="132373" />
	</node>
	<node lat="62.25892221941532" lon="9.048638897092777" id="-27853">
		<tag k="name" v="Mjogsjøbotn" />
		<tag k="natural" v="valley" />
		<tag k="place" v="locality" />
		<tag k="ssr:stedsnr" v="132408" />
	</node>
	<node lat="62.13909166676264" lon="8.544761103782532" id="-27856">
		<tag k="alt_name" v="Svartsteinhøi" />
		<tag k="fixme" v="consider natural=peak for the most distinct mountains in the district" />
		<tag k="name" v="Svartsteinhøe" />
		<tag k="natural" v="hill" />
		<tag k="place" v="locality" />
		<tag k="ssr:stedsnr" v="132750" />
	</node>
	<node lat="62.20885555322211" lon="8.352869453878323" id="-27861">
		<tag k="alt_name" v="Raudberget" />
		<tag k="name" v="Raudbergi" />
		<tag k="natural" v="hill" />
		<tag k="place" v="locality" />
		<tag k="ssr:stedsnr" v="132817" />
	</node>
	<node lat="62.00249166503246" lon="8.218786109094498" id="-27863">
		<tag k="fixme" v="consider natural=peak for the most distinct mountains in the district" />
		<tag k="name" v="Såvårhaugen" />
		<tag k="natural" v="hill" />
		<tag k="place" v="locality" />
		<tag k="ssr:stedsnr" v="132982" />
	</node>
	<node lat="62.2264805556281" lon="8.255855552891116" id="-27864">
		<tag k="alt_name" v="Storlii" />
		<tag k="name" v="Storlie" />
		<tag k="natural" v="slope" />
		<tag k="place" v="locality" />
		<tag k="ssr:stedsnr" v="132858" />
	</node>
	<node lat="62.25453332979935" lon="8.10039445236677" id="-27878">
		<tag k="name" v="Tverråvigga" />
		<tag k="natural" v="slope" />
		<tag k="place" v="locality" />
		<tag k="ssr:stedsnr" v="253170" />
	</node>
	<node lat="62.07364166269264" lon="8.141466673038297" id="-27879">
		<tag k="fixme" v="consider natural=peak for the most distinct mountains in the district" />
		<tag k="loc_name" v="Løyfthøin" />
		<tag k="name" v="Løyfthøene" />
		<tag k="natural" v="hill" />
		<tag k="place" v="locality" />
		<tag k="ssr:stedsnr" v="253279" />
	</node>
	<node lat="62.18998610936636" lon="8.340766676292068" id="-27883">
		<tag k="alt_name" v="Sæterbekkbotn" />
		<tag k="name" v="Sæterbekkbotnen" />
		<tag k="natural" v="valley" />
		<tag k="place" v="locality" />
		<tag k="ssr:stedsnr" v="253843" />
	</node>
	<node lat="62.18555555491311" lon="8.310702780274358" id="-27884">
		<tag k="name" v="Grøndalen" />
		<tag k="natural" v="valley" />
		<tag k="place" v="locality" />
		<tag k="ssr:stedsnr" v="253844" />
	</node>
	<node lat="62.1706083342486" lon="9.018561112592716" id="-27894">
		<tag k="fixme" v="consider natural=peak for the most distinct mountains in the district" />
		<tag k="name" v="Grønlifjellet" />
		<tag k="natural" v="hill" />
		<tag k="place" v="locality" />
		<tag k="ssr:stedsnr" v="253969" />
	</node>
	<node lat="62.15938611450002" lon="8.077983341494079" id="-27895">
		<tag k="name" v="Buaberget" />
		<tag k="natural" v="hill" />
		<tag k="place" v="locality" />
		<tag k="ssr:stedsnr" v="254193" />
	</node>
	<node lat="62.176911108990076" lon="8.104433333883591" id="-27896">
		<tag k="alt_name" v="Herrahøene, fremste" />
		<tag k="fixme" v="consider natural=peak for the most distinct mountains in the district" />
		<tag k="loc_name" v="Fremste Herrahøin" />
		<tag k="name" v="Fremste Herrahøene" />
		<tag k="natural" v="hill" />
		<tag k="place" v="locality" />
		<tag k="ssr:stedsnr" v="254140" />
	</node>
	<node lat="62.255569447769666" lon="8.112302773971818" id="-27897">
		<tag k="name" v="Asbjørnsdalen" />
		<tag k="natural" v="valley" />
		<tag k="place" v="locality" />
		<tag k="ssr:stedsnr" v="254145" />
	</node>
	<node lat="62.203741669138914" lon="8.1963833374868" id="-27898">
		<tag k="loc_name" v="Flye" />
		<tag k="name" v="Flyi" />
		<tag k="natural" v="hill" />
		<tag k="place" v="locality" />
		<tag k="ssr:stedsnr" v="254147" />
	</node>
	<node lat="62.33043055434783" lon="8.490099990907478" id="-27899">
		<tag k="name" v="Storbolla" />
		<tag k="natural" v="hill" />
		<tag k="place" v="locality" />
		<tag k="ssr:stedsnr" v="254243" />
	</node>
	<node lat="62.31560296613031" lon="8.386260751871234" id="-27901">
		<tag k="alt_name" v="Mehøi" />
		<tag k="fixme" v="consider natural=peak for the most distinct mountains in the district" />
		<tag k="name" v="Mehøe" />
		<tag k="natural" v="hill" />
		<tag k="place" v="locality" />
		<tag k="ssr:stedsnr" v="254251" />
	</node>
	<node lat="62.34454444534626" lon="8.450524997507726" id="-27905">
		<tag k="name" v="Draget" />
		<tag k="natural" v="valley" />
		<tag k="place" v="locality" />
		<tag k="ssr:stedsnr" v="254325" />
	</node>
	<node lat="62.28378889003558" lon="8.939886114772904" id="-27906">
		<tag k="fixme" v="consider natural=peak for the most distinct mountains in the district" />
		<tag k="name" v="Vesltverråtinden" />
		<tag k="natural" v="hill" />
		<tag k="place" v="locality" />
		<tag k="ssr:stedsnr" v="254341" />
	</node>
	<node lat="62.27545000271391" lon="9.094344443766843" id="-27908">
		<tag k="name" v="Kjelsungbandet" />
		<tag k="natural" v="valley" />
		<tag k="place" v="locality" />
		<tag k="ssr:stedsnr" v="254345" />
	</node>
	<node lat="62.295800000960156" lon="8.797369438507067" id="-27909">
		<tag k="name" v="Klufti" />
		<tag k="natural" v="valley" />
		<tag k="place" v="locality" />
		<tag k="ssr:stedsnr" v="254350" />
	</node>
	<node lat="62.290061115021395" lon="8.778016659250564" id="-27911">
		<tag k="fixme" v="consider natural=peak for the most distinct mountains in the district" />
		<tag k="name" v="Sletthelldalskampen" />
		<tag k="natural" v="hill" />
		<tag k="place" v="locality" />
		<tag k="ssr:stedsnr" v="254355" />
	</node>
	<node lat="62.23533333172391" lon="9.304980556200977" id="-27912">
		<tag k="fixme" v="consider natural=peak for the most distinct mountains in the district" />
		<tag k="name" v="Einøvlingseggen" />
		<tag k="natural" v="hill" />
		<tag k="place" v="locality" />
		<tag k="ssr:stedsnr" v="254478" />
	</node>
	<node lat="62.34932500400876" lon="9.093899997987856" id="-27913">
		<tag k="fixme" v="consider natural=peak for the most distinct mountains in the district" />
		<tag k="name" v="Skulan" />
		<tag k="natural" v="hill" />
		<tag k="place" v="locality" />
		<tag k="ssr:stedsnr" v="254439" />
	</node>
	<node lat="62.372522218522555" lon="9.061774997990069" id="-27914">
		<tag k="fixme" v="consider natural=peak for the most distinct mountains in the district" />
		<tag k="name" v="Storskrymten" />
		<tag k="natural" v="hill" />
		<tag k="place" v="locality" />
		<tag k="ssr:stedsnr" v="254452" />
	</node>
	<node lat="62.064861112011734" lon="8.376005547504578" id="-27916">
		<tag k="alt_name" v="Hovdan" />
		<tag k="name" v="Hovda" />
		<tag k="natural" v="hill" />
		<tag k="place" v="locality" />
		<tag k="ssr:stedsnr" v="254739" />
	</node>
	<node lat="62.08079999764397" lon="8.237402783276009" id="-27917">
		<tag k="alt_name" v="Løyftet, s" />
		<tag k="name" v="Søre Løyftet" />
		<tag k="natural" v="valley" />
		<tag k="place" v="locality" />
		<tag k="ssr:stedsnr" v="254749" />
	</node>
	<node lat="62.079552779932236" lon="8.271202774805735" id="-27918">
		<tag k="fixme" v="consider natural=peak for the most distinct mountains in the district" />
		<tag k="loc_name" v="Grønhøe" />
		<tag k="name" v="Grønhøi" />
		<tag k="natural" v="hill" />
		<tag k="place" v="locality" />
		<tag k="ssr:stedsnr" v="254751" />
	</node>
	<node lat="62.22223428467108" lon="8.596708509426504" id="-27923">
		<tag k="fixme" v="consider natural=peak for the most distinct mountains in the district" />
		<tag k="loc_name" v="Odolshøe" />
		<tag k="name" v="Odolshøi" />
		<tag k="natural" v="hill" />
		<tag k="place" v="locality" />
		<tag k="ssr:stedsnr" v="254856" />
	</node>
	<node lat="62.03985833075622" lon="8.279936103640361" id="-27924">
		<tag k="alt_name" v="Berget, s" />
		<tag k="name" v="Søre Berget" />
		<tag k="natural" v="hill" />
		<tag k="place" v="locality" />
		<tag k="ssr:stedsnr" v="254964" />
	</node>
	<node lat="62.091977778046875" lon="8.831111115042976" id="-27933">
		<tag k="name" v="Utsikten" />
		<tag k="natural" v="hill" />
		<tag k="place" v="locality" />
		<tag k="ssr:stedsnr" v="171664" />
	</node>
	<node lat="62.08592778084057" lon="8.834161102479133" id="-27934">
		<tag k="name" v="Storhaugen" />
		<tag k="natural" v="hill" />
		<tag k="place" v="locality" />
		<tag k="ssr:stedsnr" v="171666" />
	</node>
	<node lat="62.269052779676464" lon="8.647569434834223" id="-27935">
		<tag k="name" v="Merrahaugen" />
		<tag k="natural" v="hill" />
		<tag k="place" v="locality" />
		<tag k="ssr:stedsnr" v="171759" />
	</node>
	<node lat="62.184452774811305" lon="8.917813896063192" id="-27936">
		<tag k="name" v="Klåvån" />
		<tag k="natural" v="slope" />
		<tag k="place" v="locality" />
		<tag k="ssr:stedsnr" v="171914" />
	</node>
	<node lat="62.26944166645579" lon="8.198219444505591" id="-27937">
		<tag k="name" v="Flyhaugen" />
		<tag k="natural" v="hill" />
		<tag k="place" v="locality" />
		<tag k="ssr:stedsnr" v="172123" />
	</node>
	<node lat="61.99998889322441" lon="8.965205558689384" id="-27941">
		<tag k="name" v="Slådalen" />
		<tag k="natural" v="valley" />
		<tag k="place" v="locality" />
		<tag k="ssr:stedsnr" v="207551" />
	</node>
	<node lat="62.24956111213823" lon="8.314625001102268" id="-27943">
		<tag k="name" v="Storstudulen" />
		<tag k="natural" v="slope" />
		<tag k="place" v="locality" />
		<tag k="ssr:stedsnr" v="232103" />
	</node>
	<node lat="62.15061388595827" lon="8.632766671003173" id="-27952">
		<tag k="name" v="Skjenstøe" />
		<tag k="natural" v="slope" />
		<tag k="place" v="locality" />
		<tag k="ssr:stedsnr" v="232488" />
	</node>
	<node lat="62.27768611445827" lon="8.1735916690713" id="-27959">
		<tag k="name" v="Bukkeskaret" />
		<tag k="natural" v="valley" />
		<tag k="place" v="locality" />
		<tag k="ssr:stedsnr" v="233140" />
	</node>
	<node lat="62.30712222307675" lon="8.25674444058625" id="-27960">
		<tag k="name" v="Pikotrandan" />
		<tag k="natural" v="hill" />
		<tag k="place" v="locality" />
		<tag k="ssr:stedsnr" v="233269" />
	</node>
	<node lat="62.05702500301709" lon="8.383011106673395" id="-27961">
		<tag k="name" v="Flatan" />
		<tag k="place" v="locality" />
		<tag k="ssr:stedsnr" v="233320" />
	</node>
	<node lat="62.17868888652299" lon="9.357997225039352" id="-27963">
		<tag k="name" v="Dovrefjell" />
		<tag k="natural" v="mountain_range" />
		<tag k="ssr:stedsnr" v="450696" />
	</node>
	<node lat="62.02673599709509" lon="8.922671071185224" id="-27967">
		<tag k="fixme" v="consider natural=peak for the most distinct mountains in the district" />
		<tag k="loc_name" v="Grønhøe" />
		<tag k="name" v="Grønhøi" />
		<tag k="natural" v="hill" />
		<tag k="place" v="locality" />
		<tag k="ssr:stedsnr" v="253707" />
	</node>
	<node lat="62.17071111340098" lon="8.35205276840522" id="-27971">
		<tag k="name" v="Sandåbotnen" />
		<tag k="natural" v="valley" />
		<tag k="place" v="locality" />
		<tag k="ssr:stedsnr" v="253800" />
	</node>
	<node lat="62.110392612889505" lon="9.000750138825678" id="-27975">
		<tag k="name" v="Bottberget" />
		<tag k="natural" v="hill" />
		<tag k="place" v="locality" />
		<tag k="ssr:stedsnr" v="253897" />
	</node>
	<node lat="62.297236924660126" lon="8.411273740759407" id="-27979">
		<tag k="alt_name" v="Storhøi" />
		<tag k="fixme" v="consider natural=peak for the most distinct mountains in the district" />
		<tag k="name" v="Storhøe" />
		<tag k="natural" v="hill" />
		<tag k="place" v="locality" />
		<tag k="ssr:stedsnr" v="254223" />
	</node>
	<node lat="62.33186389095451" lon="9.092280558235673" id="-27982">
		<tag k="fixme" v="consider natural=peak for the most distinct mountains in the district" />
		<tag k="name" v="Varden" />
		<tag k="natural" v="hill" />
		<tag k="place" v="locality" />
		<tag k="ssr:stedsnr" v="254369" />
	</node>
	<node lat="62.21249444022593" lon="8.669074996737212" id="-27983">
		<tag k="loc_name" v="Ylsbotn" />
		<tag k="name" v="Ylsbotnen" />
		<tag k="natural" v="valley" />
		<tag k="place" v="locality" />
		<tag k="ssr:stedsnr" v="254805" />
	</node>
	<node lat="62.082605554741534" lon="8.851413888119652" id="-27989">
		<tag k="name" v="Salhaugan" />
		<tag k="natural" v="hill" />
		<tag k="place" v="locality" />
		<tag k="ssr:stedsnr" v="292625" />
	</node>
	<node lat="62.23254166743433" lon="8.160008329112989" id="-27991">
		<tag k="name" v="Langhaugen" />
		<tag k="natural" v="hill" />
		<tag k="place" v="locality" />
		<tag k="ssr:stedsnr" v="293186" />
	</node>
	<node lat="62.160591664638346" lon="8.642019435276275" id="-27993">
		<tag k="name" v="Dalan" />
		<tag k="natural" v="valley" />
		<tag k="place" v="locality" />
		<tag k="ssr:stedsnr" v="293678" />
	</node>
	<node lat="62.16220278096001" lon="8.634222218641767" id="-27994">
		<tag k="name" v="Røkstjønnranden" />
		<tag k="natural" v="hill" />
		<tag k="place" v="locality" />
		<tag k="ssr:stedsnr" v="293679" />
	</node>
	<node lat="62.12009721987964" lon="9.04987777555168" id="-27996">
		<tag k="name" v="Gravhørandin" />
		<tag k="natural" v="slope" />
		<tag k="place" v="locality" />
		<tag k="ssr:stedsnr" v="293905" />
	</node>
	<node lat="62.11947777922231" lon="9.03658611683932" id="-27997">
		<tag k="name" v="Gravhøe" />
		<tag k="natural" v="hill" />
		<tag k="place" v="locality" />
		<tag k="ssr:stedsnr" v="293907" />
	</node>
	<node lat="62.16673921772587" lon="8.61256283866052" id="-28001">
		<tag k="name" v="Stormoen" />
		<tag k="place" v="locality" />
		<tag k="ssr:stedsnr" v="294329" />
	</node>
	<node lat="62.1675111098436" lon="8.68698333869765" id="-28002">
		<tag k="name" v="Dompen" />
		<tag k="natural" v="slope" />
		<tag k="place" v="locality" />
		<tag k="ssr:stedsnr" v="294694" />
	</node>
	<node lat="62.2817138860124" lon="8.960780561600666" id="-28005">
		<tag k="name" v="Tverråbotn" />
		<tag k="natural" v="valley" />
		<tag k="place" v="locality" />
		<tag k="ssr:stedsnr" v="314416" />
	</node>
	<node lat="62.18706389211034" lon="8.456094435357102" id="-28012">
		<tag k="name" v="Tandsæterbrotet" />
		<tag k="natural" v="slope" />
		<tag k="place" v="locality" />
		<tag k="ssr:stedsnr" v="314823" />
	</node>
	<node lat="62.231411110691255" lon="9.154536106557066" id="-28013">
		<tag k="name" v="Kjelsungdalen" />
		<tag k="natural" v="valley" />
		<tag k="place" v="locality" />
		<tag k="ssr:stedsnr" v="314923" />
	</node>
	<node lat="62.34758611038662" lon="8.342644440638551" id="-28014">
		<tag k="fixme" v="consider natural=peak for the most distinct mountains in the district" />
		<tag k="name" v="Vetlsvarthøi" />
		<tag k="natural" v="hill" />
		<tag k="place" v="locality" />
		<tag k="ssr:stedsnr" v="315315" />
	</node>
	<node lat="62.10637221952719" lon="9.033438893052207" id="-28025">
		<tag k="name" v="Hesthovda" />
		<tag k="natural" v="hill" />
		<tag k="place" v="locality" />
		<tag k="ssr:stedsnr" v="473257" />
	</node>
	<node lat="62.24970555228037" lon="8.762783327478992" id="-28027">
		<tag k="name" v="Langberget" />
		<tag k="natural" v="hill" />
		<tag k="place" v="locality" />
		<tag k="ssr:stedsnr" v="474731" />
	</node>
	<node lat="62.24499721976956" lon="8.339436102055464" id="-28028">
		<tag k="name" v="Lokkarslette" />
		<tag k="place" v="locality" />
		<tag k="ssr:stedsnr" v="474087" />
	</node>
	<node lat="62.20844166246475" lon="8.38135000913" id="-28034">
		<tag k="name" v="Kleberberget" />
		<tag k="natural" v="hill" />
		<tag k="place" v="locality" />
		<tag k="ssr:stedsnr" v="353074" />
	</node>
	<node lat="62.14749166932598" lon="8.65182500893927" id="-28040">
		<tag k="name" v="Purkelykkjedalen" />
		<tag k="natural" v="valley" />
		<tag k="place" v="locality" />
		<tag k="ssr:stedsnr" v="353551" />
	</node>
	<node lat="62.14275833101591" lon="8.795247223070502" id="-28043">
		<tag k="name" v="Heimare Rjuphovda" />
		<tag k="natural" v="hill" />
		<tag k="place" v="locality" />
		<tag k="ssr:stedsnr" v="353555" />
	</node>
	<node lat="62.09391388863291" lon="8.699986111626133" id="-28044">
		<tag k="name" v="Geitryggen" />
		<tag k="natural" v="ridge" />
		<tag k="place" v="locality" />
		<tag k="ssr:stedsnr" v="353556" />
	</node>
	<node lat="62.13323333634666" lon="8.77106388771219" id="-28048">
		<tag k="name" v="Osperuste" />
		<tag k="natural" v="slope" />
		<tag k="place" v="locality" />
		<tag k="ssr:stedsnr" v="353711" />
	</node>
	<node lat="62.086075000301946" lon="8.94915277194215" id="-28050">
		<tag k="name" v="Bjønngårdsslette" />
		<tag k="place" v="locality" />
		<tag k="ssr:stedsnr" v="353765" />
	</node>
	<node lat="62.06643055652553" lon="8.344641674531704" id="-28053">
		<tag k="name" v="Flatan" />
		<tag k="natural" v="slope" />
		<tag k="place" v="locality" />
		<tag k="ssr:stedsnr" v="354335" />
	</node>
	<node lat="62.109819440560386" lon="9.066930546923885" id="-28059">
		<tag k="name" v="Baklihaugen" />
		<tag k="natural" v="hill" />
		<tag k="place" v="locality" />
		<tag k="ssr:stedsnr" v="474853" />
	</node>
	<node lat="62.26014721821955" lon="8.251347230443367" id="-28066">
		<tag k="name" v="Øvre Liarberget" />
		<tag k="natural" v="hill" />
		<tag k="place" v="locality" />
		<tag k="ssr:stedsnr" v="475133" />
	</node>
	<node lat="62.25429722443031" lon="8.244213888209767" id="-28067">
		<tag k="fixme" v="consider natural=peak for the most distinct mountains in the district" />
		<tag k="name" v="Vetlfjellet" />
		<tag k="natural" v="hill" />
		<tag k="place" v="locality" />
		<tag k="ssr:stedsnr" v="475134" />
	</node>
	<node lat="62.2774833303251" lon="8.192602778344074" id="-28071">
		<tag k="name" v="Sauhushaugen" />
		<tag k="natural" v="hill" />
		<tag k="place" v="locality" />
		<tag k="ssr:stedsnr" v="475251" />
	</node>
	<node lat="62.091730557924826" lon="8.94196389708125" id="-28077">
		<tag k="name" v="Rumpestertbakken" />
		<tag k="natural" v="slope" />
		<tag k="place" v="locality" />
		<tag k="ssr:stedsnr" v="475776" />
	</node>
	<node lat="62.08206111315901" lon="8.876186118990631" id="-28081">
		<tag k="name" v="Skarven" />
		<tag k="natural" v="slope" />
		<tag k="place" v="locality" />
		<tag k="ssr:stedsnr" v="475984" />
	</node>
	<node lat="62.177177782187215" lon="8.891022228591346" id="-28083">
		<tag k="name" v="Langsand" />
		<tag k="natural" v="slope" />
		<tag k="place" v="locality" />
		<tag k="ssr:stedsnr" v="475944" />
	</node>
	<node lat="62.17155555163053" lon="8.604877770515056" id="-28085">
		<tag k="name" v="Skråkkslettin" />
		<tag k="place" v="locality" />
		<tag k="ssr:stedsnr" v="476326" />
	</node>
	<node lat="62.223508336130216" lon="8.126750008453516" id="-28087">
		<tag k="alt_name" v="Kvernhushøi" />
		<tag k="fixme" v="consider natural=peak for the most distinct mountains in the district" />
		<tag k="name" v="Kvernhushøe" />
		<tag k="natural" v="hill" />
		<tag k="place" v="locality" />
		<tag k="ssr:stedsnr" v="374209" />
	</node>
	<node lat="62.267819442129515" lon="8.147636112061544" id="-28088">
		<tag k="name" v="Lomdalen" />
		<tag k="natural" v="valley" />
		<tag k="place" v="locality" />
		<tag k="ssr:stedsnr" v="374145" />
	</node>
	<node lat="62.159086114768" lon="8.453874999603878" id="-28092">
		<tag k="name" v="Valådalen" />
		<tag k="natural" v="valley" />
		<tag k="place" v="locality" />
		<tag k="ssr:stedsnr" v="374805" />
	</node>
	<node lat="62.14404444833084" lon="8.485449993400627" id="-28093">
		<tag k="loc_name" v="Valåflye" />
		<tag k="name" v="Valåflyi" />
		<tag k="natural" v="valley" />
		<tag k="place" v="locality" />
		<tag k="ssr:stedsnr" v="374816" />
	</node>
	<node lat="62.1548249990141" lon="8.572044453751511" id="-28094">
		<tag k="name" v="Skråkkberget" />
		<tag k="natural" v="hill" />
		<tag k="place" v="locality" />
		<tag k="ssr:stedsnr" v="374823" />
	</node>
	<node lat="62.21091110828578" lon="8.630288880123638" id="-28095">
		<tag k="alt_name" v="Sæterhøi, nordre;Sæterhøi" />
		<tag k="fixme" v="consider natural=peak for the most distinct mountains in the district" />
		<tag k="loc_name" v="Sæterhøe" />
		<tag k="name" v="Nordre Sæterhøi" />
		<tag k="natural" v="hill" />
		<tag k="place" v="locality" />
		<tag k="ssr:stedsnr" v="374838" />
	</node>
	<node lat="62.11132817013207" lon="9.001951363814964" id="-28110">
		<tag k="name" v="Bottdalen" />
		<tag k="natural" v="valley" />
		<tag k="place" v="locality" />
		<tag k="ssr:stedsnr" v="413904" />
	</node>
	<node lat="62.052713892311544" lon="8.940030557630106" id="-28122">
		<tag k="name" v="Tattran" />
		<tag k="natural" v="slope" />
		<tag k="place" v="locality" />
		<tag k="ssr:stedsnr" v="414839" />
	</node>
	<node lat="62.07651666271944" lon="8.465627778609624" id="-28128">
		<tag k="name" v="Lordalen" />
		<tag k="natural" v="valley" />
		<tag k="place" v="locality" />
		<tag k="ssr:stedsnr" v="435263" />
	</node>
	<node lat="62.18052500123147" lon="9.107183340620795" id="-28137">
		<tag k="fixme" v="consider natural=peak for the most distinct mountains in the district" />
		<tag k="name" v="Falkehøi" />
		<tag k="natural" v="hill" />
		<tag k="place" v="locality" />
		<tag k="ssr:stedsnr" v="435985" />
	</node>
	<node lat="62.22574722277267" lon="8.092194450857539" id="-28138">
		<tag k="loc_name" v="Rånåflye" />
		<tag k="name" v="Rånåflyi" />
		<tag k="place" v="locality" />
		<tag k="ssr:stedsnr" v="436176" />
	</node>
	<node lat="62.28433055767691" lon="8.818819448530435" id="-28141">
		<tag k="name" v="Hestbotn" />
		<tag k="natural" v="valley" />
		<tag k="place" v="locality" />
		<tag k="ssr:stedsnr" v="436369" />
	</node>
	<node lat="62.31632312630719" lon="9.202505346569515" id="-28142">
		<tag k="alt_name" v="Langvasstinden, store" />
		<tag k="fixme" v="consider natural=peak for the most distinct mountains in the district" />
		<tag k="name" v="Store Langvasstinden" />
		<tag k="natural" v="hill" />
		<tag k="place" v="locality" />
		<tag k="ssr:stedsnr" v="436374" />
	</node>
	<node lat="62.2246499996128" lon="8.548283335187428" id="-28145">
		<tag k="fixme" v="consider natural=peak for the most distinct mountains in the district" />
		<tag k="name" v="Dosethøi" />
		<tag k="natural" v="hill" />
		<tag k="place" v="locality" />
		<tag k="ssr:stedsnr" v="436851" />
	</node>
	<node lat="62.2771249960923" lon="8.480886102436337" id="-28147">
		<tag k="alt_name" v="Svaningsløypet, s" />
		<tag k="name" v="Søre Svaningsløypet" />
		<tag k="natural" v="valley" />
		<tag k="place" v="locality" />
		<tag k="ssr:stedsnr" v="437322" />
	</node>
	<node lat="62.146358335019166" lon="8.697111111673559" id="-28149">
		<tag k="name" v="Turrbakken" />
		<tag k="natural" v="slope" />
		<tag k="place" v="locality" />
		<tag k="ssr:stedsnr" v="474530" />
	</node>
	<node lat="62.2226416667907" lon="8.818894441696784" id="-28152">
		<tag k="name" v="Kjerringhøe" />
		<tag k="natural" v="hill" />
		<tag k="place" v="locality" />
		<tag k="ssr:stedsnr" v="474676" />
	</node>
	<node lat="62.08219722586828" lon="8.984044450661674" id="-28155">
		<tag k="name" v="Hovdagryta" />
		<tag k="natural" v="valley" />
		<tag k="place" v="locality" />
		<tag k="ssr:stedsnr" v="474771" />
	</node>
	<node lat="62.27984444233782" lon="8.170919446337583" id="-28156">
		<tag k="name" v="Frisberget" />
		<tag k="natural" v="hill" />
		<tag k="place" v="locality" />
		<tag k="ssr:stedsnr" v="475121" />
	</node>
	<node lat="62.22488055277844" lon="8.232244440498565" id="-28157">
		<tag k="name" v="Storruste" />
		<tag k="natural" v="slope" />
		<tag k="place" v="locality" />
		<tag k="ssr:stedsnr" v="475175" />
	</node>
	<node lat="62.11403889322967" lon="8.657030557658784" id="-28164">
		<tag k="name" v="Djupdalen" />
		<tag k="natural" v="valley" />
		<tag k="place" v="locality" />
		<tag k="ssr:stedsnr" v="475573" />
	</node>
	<node lat="62.249144442828964" lon="8.831238887222602" id="-28166">
		<tag k="name" v="Flyan" />
		<tag k="natural" v="slope" />
		<tag k="place" v="locality" />
		<tag k="ssr:stedsnr" v="475706" />
	</node>
	<node lat="62.14534167045657" lon="9.04168333043458" id="-28171">
		<tag k="name" v="Saltslette" />
		<tag k="place" v="locality" />
		<tag k="ssr:stedsnr" v="475888" />
	</node>
	<node lat="62.117561112096894" lon="9.000027771733102" id="-28172">
		<tag k="name" v="Haugan" />
		<tag k="natural" v="hill" />
		<tag k="place" v="locality" />
		<tag k="ssr:stedsnr" v="475913" />
	</node>
	<node lat="62.136638891266934" lon="8.195344443694138" id="-28176">
		<tag k="alt_name" v="Skurvehølegene, nordre" />
		<tag k="loc_name" v="Nørdre Skarvehølegin" />
		<tag k="name" v="Nordre Skurvehølegene" />
		<tag k="natural" v="valley" />
		<tag k="place" v="locality" />
		<tag k="ssr:stedsnr" v="678220" />
	</node>
	<node lat="62.25125833544535" lon="8.146138885299234" id="-28180">
		<tag k="fixme" v="consider natural=peak for the most distinct mountains in the district" />
		<tag k="name" v="Vetlfjellet" />
		<tag k="natural" v="hill" />
		<tag k="place" v="locality" />
		<tag k="ssr:stedsnr" v="678150" />
	</node>
	<node lat="62.08872499728145" lon="8.959633338269944" id="-28183">
		<tag k="alt_name" v="Bølii" />
		<tag k="loc_name" v="Beialie" />
		<tag k="name" v="Bølie" />
		<tag k="natural" v="slope" />
		<tag k="place" v="locality" />
		<tag k="ssr:stedsnr" v="678602" />
	</node>
	<node lat="62.25458055908794" lon="8.864452772147123" id="-28186">
		<tag k="alt_name" v="Vetlsvartdalen" />
		<tag k="name" v="Veslsvartdalen" />
		<tag k="natural" v="valley" />
		<tag k="place" v="locality" />
		<tag k="ssr:stedsnr" v="678459" />
	</node>
	<node lat="62.039050002587324" lon="8.88361387963199" id="-28189">
		<tag k="fixme" v="consider natural=peak for the most distinct mountains in the district" />
		<tag k="name" v="Smedhaugkollen" />
		<tag k="natural" v="hill" />
		<tag k="place" v="locality" />
		<tag k="ssr:stedsnr" v="678555" />
	</node>
	<node lat="62.05959722098362" lon="8.627238879416252" id="-28191">
		<tag k="name" v="Flyan" />
		<tag k="natural" v="hill" />
		<tag k="place" v="locality" />
		<tag k="ssr:stedsnr" v="678760" />
	</node>
	<node lat="62.243819442319165" lon="8.481075005404309" id="-28195">
		<tag k="name" v="Hesthaugen" />
		<tag k="natural" v="hill" />
		<tag k="place" v="locality" />
		<tag k="ssr:stedsnr" v="678844" />
	</node>
	<node lat="62.185027774065375" lon="8.77851666601349" id="-28201">
		<tag k="fixme" v="consider natural=peak for the most distinct mountains in the district" />
		<tag k="name" v="Halvfarhøi" />
		<tag k="natural" v="hill" />
		<tag k="place" v="locality" />
		<tag k="ssr:stedsnr" v="678934" />
	</node>
	<node lat="62.18779444349533" lon="9.042413883172115" id="-28202">
		<tag k="name" v="Reinådalen" />
		<tag k="natural" v="valley" />
		<tag k="place" v="locality" />
		<tag k="ssr:stedsnr" v="678939" />
	</node>
	<node lat="62.1746194474158" lon="8.923205555663953" id="-28204">
		<tag k="name" v="Fillingstyggeberget" />
		<tag k="natural" v="hill" />
		<tag k="place" v="locality" />
		<tag k="ssr:stedsnr" v="678947" />
	</node>
	<node lat="62.179836106988034" lon="9.02398332839401" id="-28205">
		<tag k="fixme" v="consider natural=peak for the most distinct mountains in the district" />
		<tag k="name" v="Høghellhøi" />
		<tag k="natural" v="hill" />
		<tag k="place" v="locality" />
		<tag k="ssr:stedsnr" v="678951" />
	</node>
	<node lat="62.25959011201409" lon="8.426928604631788" id="-28209">
		<tag k="alt_name" v="Sæterflyi" />
		<tag k="name" v="Sæterflye" />
		<tag k="place" v="locality" />
		<tag k="ssr:stedsnr" v="679266" />
	</node>
	<node lat="62.34910555201044" lon="8.693083337579125" id="-28211">
		<tag k="name" v="Bjørnhovda" />
		<tag k="natural" v="hill" />
		<tag k="place" v="locality" />
		<tag k="ssr:stedsnr" v="679299" />
	</node>
	<node lat="62.284013892128016" lon="9.188205564280064" id="-28214">
		<tag k="fixme" v="consider natural=peak for the most distinct mountains in the district" />
		<tag k="name" v="Storstyggesvånåtinden" />
		<tag k="natural" v="hill" />
		<tag k="place" v="locality" />
		<tag k="ssr:stedsnr" v="496410" />
	</node>
	<node lat="62.28592777571307" lon="9.014102769519422" id="-28215">
		<tag k="fixme" v="consider natural=peak for the most distinct mountains in the district" />
		<tag k="name" v="Grashøi" />
		<tag k="natural" v="hill" />
		<tag k="place" v="locality" />
		<tag k="ssr:stedsnr" v="496412" />
	</node>
	<node lat="62.348161113831566" lon="8.805997230894613" id="-28217">
		<tag k="name" v="Veslbotn" />
		<tag k="natural" v="valley" />
		<tag k="place" v="locality" />
		<tag k="ssr:stedsnr" v="496501" />
	</node>
	<node lat="62.12471389334623" lon="9.049975004626921" id="-28222">
		<tag k="name" v="Svartdalen" />
		<tag k="natural" v="valley" />
		<tag k="place" v="locality" />
		<tag k="ssr:stedsnr" v="496698" />
	</node>
	<node lat="62.23637499848697" lon="8.608236117998164" id="-28229">
		<tag k="name" v="Måni" />
		<tag k="natural" v="hill" />
		<tag k="place" v="locality" />
		<tag k="ssr:stedsnr" v="496863" />
	</node>
	<node lat="62.16243888873111" lon="8.233391665057495" id="-28230">
		<tag k="name" v="Kvislebotnen" />
		<tag k="natural" v="valley" />
		<tag k="place" v="locality" />
		<tag k="ssr:stedsnr" v="496797" />
	</node>
	<node lat="62.19552500418017" lon="9.215805561338442" id="-28233">
		<tag k="name" v="Korpehaugan" />
		<tag k="natural" v="hill" />
		<tag k="place" v="locality" />
		<tag k="ssr:stedsnr" v="496957" />
	</node>
	<node lat="62.04891666680675" lon="8.597886119881235" id="-28235">
		<tag k="name" v="Skardådraget" />
		<tag k="natural" v="valley" />
		<tag k="place" v="locality" />
		<tag k="ssr:stedsnr" v="496964" />
	</node>
	<node lat="62.2995583336748" lon="8.341783342908737" id="-28237">
		<tag k="fixme" v="consider natural=peak for the most distinct mountains in the district" />
		<tag k="name" v="Svarthøhalsen" />
		<tag k="natural" v="hill" />
		<tag k="place" v="locality" />
		<tag k="ssr:stedsnr" v="497247" />
	</node>
	<node lat="62.1093305555883" lon="8.592425000450278" id="-28240">
		<tag k="name" v="Dronninga" />
		<tag k="place" v="locality" />
		<tag k="ssr:stedsnr" v="500784" />
	</node>
	<node lat="62.105516667995396" lon="8.594161119217485" id="-28241">
		<tag k="name" v="Sausæterdalen" />
		<tag k="natural" v="valley" />
		<tag k="place" v="locality" />
		<tag k="ssr:stedsnr" v="682769" />
	</node>
	<node lat="62.13163611443462" lon="8.703286117364721" id="-28244">
		<tag k="name" v="Leirhaugen" />
		<tag k="natural" v="hill" />
		<tag k="place" v="locality" />
		<tag k="ssr:stedsnr" v="535425" />
	</node>
	<node lat="62.134783335735364" lon="8.80340277465502" id="-28246">
		<tag k="name" v="Kvitberget" />
		<tag k="natural" v="slope" />
		<tag k="place" v="locality" />
		<tag k="ssr:stedsnr" v="535713" />
	</node>
	<node lat="62.127822220329726" lon="9.055219445270414" id="-28248">
		<tag k="name" v="Svartdalshole" />
		<tag k="natural" v="valley" />
		<tag k="place" v="locality" />
		<tag k="ssr:stedsnr" v="535902" />
	</node>
	<node lat="62.1524277785758" lon="9.024438889521646" id="-28250">
		<tag k="name" v="Bekkadalshaugen" />
		<tag k="natural" v="hill" />
		<tag k="place" v="locality" />
		<tag k="ssr:stedsnr" v="535880" />
	</node>
	<node lat="62.14803055800477" lon="8.660497230369804" id="-28253">
		<tag k="name" v="Brubakken" />
		<tag k="natural" v="slope" />
		<tag k="place" v="locality" />
		<tag k="ssr:stedsnr" v="536529" />
	</node>
	<node lat="62.199116668004876" lon="8.910213898235948" id="-28255">
		<tag k="name" v="Nysæter-styggeberget" />
		<tag k="natural" v="hill" />
		<tag k="place" v="locality" />
		<tag k="ssr:stedsnr" v="536920" />
	</node>
	<node lat="62.07927500446917" lon="8.899869444928992" id="-28257">
		<tag k="name" v="Lokkarslette" />
		<tag k="place" v="locality" />
		<tag k="ssr:stedsnr" v="536981" />
	</node>
	<node lat="62.050100001973185" lon="9.054669449133108" id="-28262">
		<tag k="fixme" v="consider natural=peak for the most distinct mountains in the district" />
		<tag k="name" v="Hardeggkampen" />
		<tag k="natural" v="hill" />
		<tag k="place" v="locality" />
		<tag k="ssr:stedsnr" v="556606" />
	</node>
	<node lat="62.03373888732021" lon="8.64676110540035" id="-28264">
		<tag k="fixme" v="consider natural=peak for the most distinct mountains in the district" />
		<tag k="loc_name" v="Gråhøe" />
		<tag k="name" v="Gråhøi" />
		<tag k="natural" v="hill" />
		<tag k="place" v="locality" />
		<tag k="ssr:stedsnr" v="556710" />
	</node>
	<node lat="62.15841666558578" lon="8.923938889652902" id="-28270">
		<tag k="name" v="Svinsarhaugen" />
		<tag k="natural" v="hill" />
		<tag k="place" v="locality" />
		<tag k="ssr:stedsnr" v="556903" />
	</node>
	<node lat="62.14822777935677" lon="8.725200000134622" id="-28271">
		<tag k="fixme" v="consider natural=peak for the most distinct mountains in the district" />
		<tag k="name" v="Vetan" />
		<tag k="natural" v="hill" />
		<tag k="place" v="locality" />
		<tag k="ssr:stedsnr" v="556913" />
	</node>
	<node lat="62.156283336707716" lon="9.180275002536582" id="-28272">
		<tag k="name" v="Kringlutskardet" />
		<tag k="natural" v="valley" />
		<tag k="place" v="locality" />
		<tag k="ssr:stedsnr" v="556914" />
	</node>
	<node lat="62.175425004288925" lon="9.197438879447466" id="-28276">
		<tag k="name" v="Kjelsungskardet" />
		<tag k="natural" v="valley" />
		<tag k="place" v="locality" />
		<tag k="ssr:stedsnr" v="556972" />
	</node>
	<node lat="62.32475555200373" lon="8.532633327629222" id="-28278">
		<tag k="name" v="Veslbolla" />
		<tag k="natural" v="hill" />
		<tag k="place" v="locality" />
		<tag k="ssr:stedsnr" v="557261" />
	</node>
	<node lat="62.17328055462766" lon="8.035880552739982" id="-28280">
		<tag k="loc_name" v="Skurveoshaugin" />
		<tag k="name" v="Skurvoshaugane" />
		<tag k="natural" v="hill" />
		<tag k="place" v="locality" />
		<tag k="ssr:stedsnr" v="557152" />
	</node>
	<node lat="62.262124995642694" lon="8.85431944226489" id="-28282">
		<tag k="fixme" v="consider natural=peak for the most distinct mountains in the district" />
		<tag k="name" v="Salen" />
		<tag k="natural" v="hill" />
		<tag k="place" v="locality" />
		<tag k="ssr:stedsnr" v="557371" />
	</node>
	<node lat="62.092477774499606" lon="8.573861116813458" id="-28286">
		<tag k="name" v="Skardåvigga" />
		<tag k="natural" v="slope" />
		<tag k="place" v="locality" />
		<tag k="ssr:stedsnr" v="557763" />
	</node>
	<node lat="62.342011115506295" lon="8.745100001760749" id="-28287">
		<tag k="name" v="Geitådalen" />
		<tag k="natural" v="valley" />
		<tag k="place" v="locality" />
		<tag k="ssr:stedsnr" v="557613" />
	</node>
	<node lat="62.24279444096813" lon="8.15841111792928" id="-28298">
		<tag k="name" v="Storløfte" />
		<tag k="natural" v="slope" />
		<tag k="place" v="locality" />
		<tag k="ssr:stedsnr" v="596150" />
	</node>
	<node lat="62.225530559861" lon="8.17361666728319" id="-28299">
		<tag k="name" v="Saudalen" />
		<tag k="natural" v="valley" />
		<tag k="place" v="locality" />
		<tag k="ssr:stedsnr" v="596159" />
	</node>
	<node lat="62.08100833412784" lon="8.823566669607802" id="-28302">
		<tag k="name" v="Kvigvalin" />
		<tag k="natural" v="hill" />
		<tag k="place" v="locality" />
		<tag k="ssr:stedsnr" v="596609" />
	</node>
	<node lat="62.18573611082501" lon="8.036280547947658" id="-28310">
		<tag k="fixme" v="consider natural=peak for the most distinct mountains in the district" />
		<tag k="loc_name" v="Brattfonnhøe" />
		<tag k="name" v="Brattfonnhøi" />
		<tag k="natural" v="hill" />
		<tag k="place" v="locality" />
		<tag k="ssr:stedsnr" v="617190" />
	</node>
	<node lat="62.2774777819045" lon="8.810613887451838" id="-28311">
		<tag k="fixme" v="consider natural=peak for the most distinct mountains in the district" />
		<tag k="loc_name" v="Sørhellhøe" />
		<tag k="name" v="Sørhellhøin" />
		<tag k="natural" v="hill" />
		<tag k="place" v="locality" />
		<tag k="ssr:stedsnr" v="617406" />
	</node>
	<node lat="62.27631110705719" lon="8.792066662608438" id="-28312">
		<tag k="name" v="Sletthelldalen" />
		<tag k="natural" v="valley" />
		<tag k="place" v="locality" />
		<tag k="ssr:stedsnr" v="617407" />
	</node>
	<node lat="62.29420555669231" lon="9.178650000192302" id="-28314">
		<tag k="fixme" v="consider natural=peak for the most distinct mountains in the district" />
		<tag k="name" v="Svånåtindan" />
		<tag k="natural" v="hill" />
		<tag k="place" v="locality" />
		<tag k="ssr:stedsnr" v="617414" />
	</node>
	<node lat="62.342155556261204" lon="8.912930565043322" id="-28315">
		<tag k="fixme" v="consider natural=peak for the most distinct mountains in the district" />
		<tag k="name" v="Svartdalskollan" />
		<tag k="natural" v="hill" />
		<tag k="place" v="locality" />
		<tag k="ssr:stedsnr" v="617490" />
	</node>
	<node lat="62.36093611291949" lon="8.751466668336844" id="-28316">
		<tag k="name" v="Geitåbotn" />
		<tag k="natural" v="valley" />
		<tag k="place" v="locality" />
		<tag k="ssr:stedsnr" v="617500" />
	</node>
	<node lat="62.090361109013266" lon="9.001852779000874" id="-28319">
		<tag k="alt_name" v="Vetahaugan" />
		<tag k="name" v="Vetahaugen" />
		<tag k="natural" v="hill" />
		<tag k="place" v="locality" />
		<tag k="ssr:stedsnr" v="617614" />
	</node>
	<node lat="62.375508331488994" lon="8.889697214401394" id="-28320">
		<tag k="fixme" v="consider natural=peak for the most distinct mountains in the district" />
		<tag k="name" v="Grønliskarstinden" />
		<tag k="natural" v="hill" />
		<tag k="place" v="locality" />
		<tag k="ssr:stedsnr" v="617504" />
	</node>
	<node lat="62.05887795958714" lon="8.918032021763375" id="-28321">
		<tag k="fixme" v="consider natural=peak for the most distinct mountains in the district" />
		<tag k="loc_name" v="Kvitingshøe" />
		<tag k="name" v="Kvitingshøi" />
		<tag k="natural" v="hill" />
		<tag k="place" v="locality" />
		<tag k="ssr:stedsnr" v="617587" />
	</node>
	<node lat="62.11976110811691" lon="9.027888885742371" id="-28332">
		<tag k="fixme" v="consider natural=peak for the most distinct mountains in the district" />
		<tag k="name" v="Andbergshøe" />
		<tag k="natural" v="hill" />
		<tag k="place" v="locality" />
		<tag k="ssr:stedsnr" v="617899" />
	</node>
	<node lat="62.159383329837986" lon="8.493583341694912" id="-28335">
		<tag k="name" v="Svartdalen" />
		<tag k="natural" v="valley" />
		<tag k="place" v="locality" />
		<tag k="ssr:stedsnr" v="617798" />
	</node>
	<node lat="62.22170555470639" lon="9.083655557323768" id="-28337">
		<tag k="name" v="Mjogsjødalen" />
		<tag k="natural" v="valley" />
		<tag k="place" v="locality" />
		<tag k="ssr:stedsnr" v="617934" />
	</node>
	<node lat="62.0168500014908" lon="8.474588882004706" id="-28339">
		<tag k="fixme" v="consider natural=peak for the most distinct mountains in the district" />
		<tag k="loc_name" v="Trihøin" />
		<tag k="name" v="Trihøene" />
		<tag k="natural" v="hill" />
		<tag k="place" v="locality" />
		<tag k="ssr:stedsnr" v="617984" />
	</node>
	<node lat="62.33872777808098" lon="8.305669439261088" id="-28344">
		<tag k="name" v="Isløypet" />
		<tag k="natural" v="valley" />
		<tag k="place" v="locality" />
		<tag k="ssr:stedsnr" v="618335" />
	</node>
	<node lat="62.1002777813256" lon="9.048927774826941" id="-28345">
		<tag k="name" v="Snauhaugen" />
		<tag k="natural" v="hill" />
		<tag k="place" v="locality" />
		<tag k="ssr:stedsnr" v="655894" />
	</node>
	<node lat="62.10388055255123" lon="9.036711106811833" id="-28346">
		<tag k="name" v="Urberget" />
		<tag k="natural" v="hill" />
		<tag k="place" v="locality" />
		<tag k="ssr:stedsnr" v="655896" />
	</node>
	<node lat="62.178430553451896" lon="8.592102770901095" id="-28347">
		<tag k="name" v="Sandgropen" />
		<tag k="natural" v="valley" />
		<tag k="place" v="locality" />
		<tag k="ssr:stedsnr" v="656318" />
	</node>
	<node lat="62.21541111545489" lon="8.563674998866613" id="-28351">
		<tag k="name" v="Lynningsranden" />
		<tag k="natural" v="hill" />
		<tag k="place" v="locality" />
		<tag k="ssr:stedsnr" v="656336" />
	</node>
	<node lat="62.12076944020841" lon="8.66138334136711" id="-28352">
		<tag k="name" v="Nebba" />
		<tag k="natural" v="hill" />
		<tag k="place" v="locality" />
		<tag k="ssr:stedsnr" v="656434" />
	</node>
	<node lat="62.0938361074293" lon="8.681988881737462" id="-28355">
		<tag k="name" v="Hullaren" />
		<tag k="natural" v="hill" />
		<tag k="place" v="locality" />
		<tag k="ssr:stedsnr" v="656584" />
	</node>
	<node lat="62.2515222188065" lon="8.099594442312414" id="-28357">
		<tag k="name" v="Grønhølie" />
		<tag k="natural" v="slope" />
		<tag k="place" v="locality" />
		<tag k="ssr:stedsnr" v="657205" />
	</node>
	<node lat="62.07139999571511" lon="8.435727769540051" id="-28358">
		<tag k="name" v="Skriu" />
		<tag k="natural" v="slope" />
		<tag k="place" v="locality" />
		<tag k="ssr:stedsnr" v="657301" />
	</node>
	<node lat="62.138291664363095" lon="9.003436113433409" id="-28362">
		<tag k="name" v="Kleberget" />
		<tag k="natural" v="hill" />
		<tag k="place" v="locality" />
		<tag k="ssr:stedsnr" v="657884" />
	</node>
	<node lat="62.192663891820786" lon="8.883405564445978" id="-28363">
		<tag k="name" v="Skrivarberget" />
		<tag k="natural" v="hill" />
		<tag k="place" v="locality" />
		<tag k="ssr:stedsnr" v="657892" />
	</node>
	<node lat="62.22311110949139" lon="8.194408326156271" id="-28366">
		<tag k="alt_name" v="Brekkelie" />
		<tag k="name" v="Brekkelii" />
		<tag k="natural" v="slope" />
		<tag k="place" v="locality" />
		<tag k="ssr:stedsnr" v="678193" />
	</node>
	<node lat="62.33814999913658" lon="9.063766657321503" id="-28367">
		<tag k="name" v="Leirsjøtelet" />
		<tag k="natural" v="valley" />
		<tag k="place" v="locality" />
		<tag k="ssr:stedsnr" v="678425" />
	</node>
	<node lat="62.31803610805439" lon="8.876033335267426" id="-28368">
		<tag k="name" v="Storsvartdalen" />
		<tag k="natural" v="valley" />
		<tag k="place" v="locality" />
		<tag k="ssr:stedsnr" v="678429" />
	</node>
	<node lat="62.370736111694654" lon="8.789286106164155" id="-28369">
		<tag k="alt_name" v="Svarthåmåren, s" />
		<tag k="fixme" v="consider natural=peak for the most distinct mountains in the district" />
		<tag k="name" v="Søre Svarthåmåren" />
		<tag k="natural" v="hill" />
		<tag k="place" v="locality" />
		<tag k="ssr:stedsnr" v="678492" />
	</node>
	<node lat="62.09148333727857" lon="8.813477773848671" id="-28370">
		<tag k="alt_name" v="Hovda" />
		<tag k="name" v="Hovdo" />
		<tag k="natural" v="hill" />
		<tag k="place" v="locality" />
		<tag k="ssr:stedsnr" v="678608" />
	</node>
	<node lat="62.19706388814541" lon="8.246888897228944" id="-28373">
		<tag k="fixme" v="consider natural=peak for the most distinct mountains in the district" />
		<tag k="name" v="Koiesalen" />
		<tag k="natural" v="hill" />
		<tag k="place" v="locality" />
		<tag k="ssr:stedsnr" v="678803" />
	</node>
	<node lat="62.14182500417241" lon="8.60136389842337" id="-28382">
		<tag k="name" v="Storhaugen" />
		<tag k="natural" v="hill" />
		<tag k="place" v="locality" />
		<tag k="ssr:stedsnr" v="678791" />
	</node>
	<node lat="62.161760716542595" lon="8.55293791933672" id="-28383">
		<tag k="name" v="Svadalen" />
		<tag k="natural" v="valley" />
		<tag k="place" v="locality" />
		<tag k="ssr:stedsnr" v="678795" />
	</node>
	<node lat="62.13228889071542" lon="9.11361111378471" id="-28387">
		<tag k="name" v="Lurven" />
		<tag k="natural" v="hill" />
		<tag k="place" v="locality" />
		<tag k="ssr:stedsnr" v="678912" />
	</node>
	<node lat="62.20819166361434" lon="8.9255055592534" id="-28391">
		<tag k="name" v="Skamsdalen" />
		<tag k="natural" v="valley" />
		<tag k="place" v="locality" />
		<tag k="ssr:stedsnr" v="678924" />
	</node>
	<node lat="62.21446388590365" lon="8.738444440650898" id="-28392">
		<tag k="name" v="Svaningsbotn" />
		<tag k="natural" v="valley" />
		<tag k="place" v="locality" />
		<tag k="ssr:stedsnr" v="678926" />
	</node>
	<node lat="62.237897226578376" lon="9.188536118098106" id="-28393">
		<tag k="fixme" v="consider natural=peak for the most distinct mountains in the district" />
		<tag k="name" v="Skredahøin" />
		<tag k="natural" v="hill" />
		<tag k="place" v="locality" />
		<tag k="ssr:stedsnr" v="678977" />
	</node>
	<node lat="62.34733610755935" lon="8.396127770602543" id="-28396">
		<tag k="name" v="Hjellane" />
		<tag k="natural" v="valley" />
		<tag k="place" v="locality" />
		<tag k="ssr:stedsnr" v="679308" />
	</node>
	<node lat="62.333469440578185" lon="8.23440277925643" id="-28397">
		<tag k="name" v="Løyftene" />
		<tag k="natural" v="valley" />
		<tag k="place" v="locality" />
		<tag k="ssr:stedsnr" v="679314" />
	</node>
	<node lat="62.37563055749406" lon="8.705011118817586" id="-28398">
		<tag k="name" v="Knutsløyfti" />
		<tag k="natural" v="valley" />
		<tag k="place" v="locality" />
		<tag k="ssr:stedsnr" v="679323" />
	</node>
	<node lat="62.30345523785744" lon="8.393746267299827" id="-28399">
		<tag k="loc_name" v="Isløypet" />
		<tag k="name" v="Meløypet" />
		<tag k="natural" v="valley" />
		<tag k="place" v="locality" />
		<tag k="ssr:stedsnr" v="679222" />
	</node>
	<node lat="62.125583337518954" lon="8.645444437551545" id="-28406">
		<tag k="name" v="Ulvehusbakken" />
		<tag k="natural" v="slope" />
		<tag k="place" v="locality" />
		<tag k="ssr:stedsnr" v="717428" />
	</node>
	<node lat="62.08383889319192" lon="9.085927768305181" id="-28410">
		<tag k="name" v="Kvennhusslette" />
		<tag k="place" v="locality" />
		<tag k="ssr:stedsnr" v="717774" />
	</node>
	<node lat="62.08486110880586" lon="8.96901389634606" id="-28411">
		<tag k="name" v="Grånåhaugen" />
		<tag k="natural" v="hill" />
		<tag k="place" v="locality" />
		<tag k="ssr:stedsnr" v="717768" />
	</node>
	<node lat="62.087733335650064" lon="9.006450007077802" id="-28413">
		<tag k="name" v="Djuphola" />
		<tag k="natural" v="valley" />
		<tag k="place" v="locality" />
		<tag k="ssr:stedsnr" v="717807" />
	</node>
	<node lat="62.068883330592215" lon="9.011902774234532" id="-28414">
		<tag k="name" v="Spranget" />
		<tag k="natural" v="cliff" />
		<tag k="ssr:stedsnr" v="717811" />
	</node>
	<node lat="62.26750833618433" lon="8.278250003494358" id="-28416">
		<tag k="name" v="Sandmælan" />
		<tag k="place" v="locality" />
		<tag k="ssr:stedsnr" v="718104" />
	</node>
	<node lat="62.1603555566007" lon="8.62843334263941" id="-28417">
		<tag k="name" v="Søre Djupdalen" />
		<tag k="natural" v="valley" />
		<tag k="place" v="locality" />
		<tag k="ssr:stedsnr" v="718324" />
	</node>
	<node lat="62.211186113330854" lon="8.390880558004707" id="-28420">
		<tag k="name" v="Hullarhaugen" />
		<tag k="natural" v="hill" />
		<tag k="place" v="locality" />
		<tag k="ssr:stedsnr" v="718478" />
	</node>
	<node lat="62.08894999944245" lon="8.84333610188697" id="-28424">
		<tag k="name" v="Presthaugen" />
		<tag k="natural" v="hill" />
		<tag k="place" v="locality" />
		<tag k="ssr:stedsnr" v="899638" />
	</node>
	<node lat="62.07389166312505" lon="8.851719444193188" id="-28425">
		<tag k="name" v="Henninghøe" />
		<tag k="natural" v="hill" />
		<tag k="place" v="locality" />
		<tag k="ssr:stedsnr" v="899643" />
	</node>
	<node lat="62.07737221936037" lon="8.835875005475424" id="-28426">
		<tag k="name" v="Steinkloppdalen" />
		<tag k="natural" v="valley" />
		<tag k="place" v="locality" />
		<tag k="ssr:stedsnr" v="899644" />
	</node>
	<node lat="62.1509972197509" lon="8.782238892748419" id="-28429">
		<tag k="name" v="Teppe" />
		<tag k="place" v="locality" />
		<tag k="ssr:stedsnr" v="900561" />
	</node>
	<node lat="62.15558055597499" lon="8.755808338604956" id="-28432">
		<tag k="name" v="Lyftinghjellet" />
		<tag k="natural" v="valley" />
		<tag k="place" v="locality" />
		<tag k="ssr:stedsnr" v="900567" />
	</node>
	<node lat="62.081333331199666" lon="9.066352782059514" id="-28433">
		<tag k="name" v="Elgdalen" />
		<tag k="natural" v="valley" />
		<tag k="place" v="locality" />
		<tag k="ssr:stedsnr" v="899801" />
	</node>
	<node lat="62.084094448429305" lon="8.94835000169843" id="-28445">
		<tag k="name" v="Bjønngårdsskriu" />
		<tag k="natural" v="slope" />
		<tag k="place" v="locality" />
		<tag k="ssr:stedsnr" v="900771" />
	</node>
	<node lat="62.18578055423587" lon="8.900011117727363" id="-28460">
		<tag k="alt_name" v="Bjornahøi" />
		<tag k="fixme" v="consider natural=peak for the most distinct mountains in the district" />
		<tag k="name" v="Bjørnahøe" />
		<tag k="natural" v="hill" />
		<tag k="place" v="locality" />
		<tag k="ssr:stedsnr" v="738968" />
	</node>
	<node lat="62.32040278166796" lon="9.221816665628973" id="-28468">
		<tag k="fixme" v="consider natural=peak for the most distinct mountains in the district" />
		<tag k="name" v="Larstinden" />
		<tag k="natural" v="hill" />
		<tag k="old_name" v="Larstind" />
		<tag k="place" v="locality" />
		<tag k="ssr:stedsnr" v="739542" />
	</node>
	<node lat="62.02560278148335" lon="8.979074997434083" id="-28469">
		<tag k="name" v="Verket" />
		<tag k="natural" v="hill" />
		<tag k="place" v="locality" />
		<tag k="ssr:stedsnr" v="739546" />
	</node>
	<node lat="62.13002778001443" lon="8.606305563379465" id="-28470">
		<tag k="alt_name" v="Svarthovda, s" />
		<tag k="fixme" v="consider natural=peak for the most distinct mountains in the district" />
		<tag k="name" v="Søre Svarthovda" />
		<tag k="natural" v="hill" />
		<tag k="place" v="locality" />
		<tag k="ssr:stedsnr" v="739755" />
	</node>
	<node lat="62.110519440196946" lon="8.398963886847122" id="-28471">
		<tag k="name" v="Gjelutbotn" />
		<tag k="natural" v="valley" />
		<tag k="place" v="locality" />
		<tag k="ssr:stedsnr" v="739756" />
	</node>
	<node lat="62.291127775033985" lon="8.226669450584122" id="-28472">
		<tag k="alt_name" v="Bjorlihøi" />
		<tag k="fixme" v="consider natural=peak for the most distinct mountains in the district" />
		<tag k="name" v="Bjorlihøe" />
		<tag k="natural" v="hill" />
		<tag k="place" v="locality" />
		<tag k="ssr:stedsnr" v="740253" />
	</node>
	<node lat="62.27723611456307" lon="8.269997217802459" id="-28473">
		<tag k="alt_name" v="Kongelberget, ettare" />
		<tag k="name" v="Ettare Kongelberget" />
		<tag k="natural" v="hill" />
		<tag k="place" v="locality" />
		<tag k="ssr:stedsnr" v="740256" />
	</node>
	<node lat="62.269441664178295" lon="8.330286120287694" id="-28474">
		<tag k="fixme" v="consider natural=peak for the most distinct mountains in the district" />
		<tag k="name" v="Gråranden" />
		<tag k="natural" v="hill" />
		<tag k="place" v="locality" />
		<tag k="ssr:stedsnr" v="740296" />
	</node>
	<node lat="62.237380554577705" lon="8.19671111638932" id="-28477">
		<tag k="name" v="Slettabrekka" />
		<tag k="natural" v="slope" />
		<tag k="place" v="locality" />
		<tag k="ssr:stedsnr" v="778160" />
	</node>
	<node lat="62.17523333309118" lon="8.612811117719383" id="-28479">
		<tag k="name" v="Viflaten" />
		<tag k="place" v="locality" />
		<tag k="ssr:stedsnr" v="778326" />
	</node>
	<node lat="62.141738887143916" lon="8.661975000345082" id="-28484">
		<tag k="name" v="Flåtåmoranden" />
		<tag k="natural" v="hill" />
		<tag k="place" v="locality" />
		<tag k="ssr:stedsnr" v="778501" />
	</node>
	<node lat="62.22376389102258" lon="8.357005561624701" id="-28489">
		<tag k="name" v="Tiurhaugen" />
		<tag k="natural" v="hill" />
		<tag k="place" v="locality" />
		<tag k="ssr:stedsnr" v="779067" />
	</node>
	<node lat="62.22489721956428" lon="9.27217778351844" id="-28496">
		<tag k="fixme" v="consider natural=peak for the most distinct mountains in the district" />
		<tag k="name" v="Buahøin" />
		<tag k="natural" v="hill" />
		<tag k="place" v="locality" />
		<tag k="ssr:stedsnr" v="799510" />
	</node>
	<node lat="62.05303055773434" lon="8.124319440964888" id="-28497">
		<tag k="name" v="Skarvedalen" />
		<tag k="natural" v="valley" />
		<tag k="place" v="locality" />
		<tag k="ssr:stedsnr" v="799725" />
	</node>
	<node lat="62.23993888695941" lon="8.041250007701903" id="-28498">
		<tag k="alt_name" v="Grønhøe" />
		<tag k="fixme" v="consider natural=peak for the most distinct mountains in the district" />
		<tag k="name" v="Grønhøa" />
		<tag k="natural" v="hill" />
		<tag k="place" v="locality" />
		<tag k="ssr:stedsnr" v="800112" />
	</node>
	<node lat="62.24773333315734" lon="8.185011112741595" id="-28499">
		<tag k="alt_name" v="Bølie" />
		<tag k="name" v="Bølii" />
		<tag k="natural" v="slope" />
		<tag k="place" v="locality" />
		<tag k="ssr:stedsnr" v="800114" />
	</node>
	<node lat="62.19577499638648" lon="8.26727500042743" id="-28501">
		<tag k="name" v="Sigridbrenna" />
		<tag k="natural" v="slope" />
		<tag k="place" v="locality" />
		<tag k="ssr:stedsnr" v="799834" />
	</node>
	<node lat="62.13538611178821" lon="9.052944447584691" id="-28513">
		<tag k="fixme" v="consider natural=peak for the most distinct mountains in the district" />
		<tag k="name" v="Svartdalsfjellet" />
		<tag k="natural" v="hill" />
		<tag k="place" v="locality" />
		<tag k="ssr:stedsnr" v="800924" />
	</node>
	<node lat="62.136283332985045" lon="9.13391667557062" id="-28514">
		<tag k="fixme" v="consider natural=peak for the most distinct mountains in the district" />
		<tag k="name" v="Veslehøi" />
		<tag k="natural" v="hill" />
		<tag k="place" v="locality" />
		<tag k="ssr:stedsnr" v="800929" />
	</node>
	<node lat="62.25518872617869" lon="8.912072085507127" id="-28516">
		<tag k="fixme" v="consider natural=peak for the most distinct mountains in the district" />
		<tag k="loc_name" v="Sjongshøe" />
		<tag k="name" v="Sjongshøi" />
		<tag k="natural" v="hill" />
		<tag k="place" v="locality" />
		<tag k="ssr:stedsnr" v="800979" />
	</node>
	<node lat="62.19846666930083" lon="8.399697213327688" id="-28520">
		<tag k="fixme" v="consider natural=peak for the most distinct mountains in the district" />
		<tag k="name" v="Kampen" />
		<tag k="natural" v="hill" />
		<tag k="place" v="locality" />
		<tag k="ssr:stedsnr" v="920856" />
	</node>
	<node lat="62.11577777541037" lon="8.188766673132971" id="-28522">
		<tag k="name" v="Sovarhaugen" />
		<tag k="natural" v="hill" />
		<tag k="place" v="locality" />
		<tag k="ssr:stedsnr" v="921205" />
	</node>
	<node lat="62.135102778267125" lon="8.116638890363859" id="-28523">
		<tag k="fixme" v="consider natural=peak for the most distinct mountains in the district" />
		<tag k="loc_name" v="Kjelkehøin" />
		<tag k="name" v="Kjelkehøene" />
		<tag k="natural" v="hill" />
		<tag k="place" v="locality" />
		<tag k="ssr:stedsnr" v="921223" />
	</node>
	<node lat="62.25785833141629" lon="8.337300003279616" id="-28525">
		<tag k="alt_name" v="Liahovdan" />
		<tag k="fixme" v="consider natural=peak for the most distinct mountains in the district" />
		<tag k="name" v="Liahovdane" />
		<tag k="natural" v="hill" />
		<tag k="place" v="locality" />
		<tag k="ssr:stedsnr" v="921291" />
	</node>
	<node lat="62.28517777707689" lon="8.74677499688744" id="-28530">
		<tag k="alt_name" v="Storlie" />
		<tag k="name" v="Storlii" />
		<tag k="natural" v="slope" />
		<tag k="place" v="locality" />
		<tag k="ssr:stedsnr" v="921420" />
	</node>
	<node lat="62.356348372654146" lon="8.787197163537414" id="-28534">
		<tag k="fixme" v="consider natural=peak for the most distinct mountains in the district" />
		<tag k="loc_name" v="Geitåhøe" />
		<tag k="name" v="Geitåhøi" />
		<tag k="natural" v="hill" />
		<tag k="place" v="locality" />
		<tag k="ssr:stedsnr" v="921499" />
	</node>
	<node lat="62.05890555540177" lon="8.832786102370562" id="-28535">
		<tag k="fixme" v="consider natural=peak for the most distinct mountains in the district" />
		<tag k="name" v="Henningshøi" />
		<tag k="natural" v="hill" />
		<tag k="place" v="locality" />
		<tag k="ssr:stedsnr" v="921611" />
	</node>
	<node lat="62.11550833511713" lon="8.34552778056251" id="-28550">
		<tag k="fixme" v="consider natural=peak for the most distinct mountains in the district" />
		<tag k="name" v="Digervarden" />
		<tag k="natural" v="hill" />
		<tag k="place" v="locality" />
		<tag k="ssr:stedsnr" v="921768" />
	</node>
	<node lat="62.21118889068915" lon="9.02506666854213" id="-28553">
		<tag k="fixme" v="consider natural=peak for the most distinct mountains in the district" />
		<tag k="name" v="Skrabbelhøi" />
		<tag k="natural" v="hill" />
		<tag k="place" v="locality" />
		<tag k="ssr:stedsnr" v="921947" />
	</node>
	<node lat="62.171455556991575" lon="8.952244452062141" id="-28557">
		<tag k="fixme" v="consider natural=peak for the most distinct mountains in the district" />
		<tag k="name" v="Hundsjøfjellet" />
		<tag k="natural" v="hill" />
		<tag k="place" v="locality" />
		<tag k="ssr:stedsnr" v="921956" />
	</node>
	<node lat="62.00791975867683" lon="8.59135871221126" id="-28559">
		<tag k="fixme" v="consider natural=peak for the most distinct mountains in the district" />
		<tag k="name" v="Skardtind" />
		<tag k="natural" v="hill" />
		<tag k="place" v="locality" />
		<tag k="ssr:stedsnr" v="921975" />
	</node>
	<node lat="62.301319447723785" lon="8.369627779934188" id="-28560">
		<tag k="name" v="Mølmsbotnen" />
		<tag k="natural" v="valley" />
		<tag k="place" v="locality" />
		<tag k="ssr:stedsnr" v="922233" />
	</node>
	<node lat="62.2049833352963" lon="8.898958330053498" id="-28565">
		<tag k="name" v="Myrkongje" />
		<tag k="natural" v="valley" />
		<tag k="place" v="locality" />
		<tag k="ssr:stedsnr" v="839904" />
	</node>
	<node lat="62.207319440152794" lon="8.928377779163759" id="-28566">
		<tag k="name" v="Mostudulsletta" />
		<tag k="place" v="locality" />
		<tag k="ssr:stedsnr" v="839912" />
	</node>
	<node lat="62.17788888686268" lon="8.899711106751257" id="-28567">
		<tag k="name" v="Klinken" />
		<tag k="natural" v="hill" />
		<tag k="place" v="locality" />
		<tag k="ssr:stedsnr" v="839925" />
	</node>
	<node lat="62.16705277442301" lon="8.62113610373502" id="-28568">
		<tag k="name" v="Langmyrdalen" />
		<tag k="natural" v="valley" />
		<tag k="place" v="locality" />
		<tag k="ssr:stedsnr" v="840324" />
	</node>
	<node lat="62.10561944379496" lon="8.57692500832828" id="-28572">
		<tag k="name" v="Slettmoan" />
		<tag k="place" v="locality" />
		<tag k="ssr:stedsnr" v="925761" />
	</node>
	<node lat="62.10264474785775" lon="8.118165705627312" id="-28573">
		<tag k="fixme" v="consider natural=peak for the most distinct mountains in the district" />
		<tag k="loc_name" v="Holhøe" />
		<tag k="name" v="Holhøi" />
		<tag k="natural" v="hill" />
		<tag k="place" v="locality" />
		<tag k="ssr:stedsnr" v="860223" />
	</node>
	<node lat="62.151219446420875" lon="9.075422223774522" id="-28581">
		<tag k="fixme" v="consider natural=peak for the most distinct mountains in the district" />
		<tag k="name" v="Brennhøi" />
		<tag k="natural" v="hill" />
		<tag k="place" v="locality" />
		<tag k="ssr:stedsnr" v="860925" />
	</node>
	<node lat="62.04107222568301" lon="8.680669445747347" id="-28582">
		<tag k="fixme" v="consider natural=peak for the most distinct mountains in the district" />
		<tag k="name" v="Kjølen" />
		<tag k="natural" v="hill" />
		<tag k="place" v="locality" />
		<tag k="ssr:stedsnr" v="860982" />
	</node>
	<node lat="62.10638055573975" lon="9.061152768649158" id="-28586">
		<tag k="alt_name" v="Sønstebøhovda" />
		<tag k="name" v="Synstbøhovda" />
		<tag k="natural" v="hill" />
		<tag k="place" v="locality" />
		<tag k="ssr:stedsnr" v="861911" />
	</node>
	<node lat="62.200836109250574" lon="9.041719453912851" id="-28587">
		<tag k="fixme" v="consider natural=peak for the most distinct mountains in the district" />
		<tag k="name" v="Reindølsfjellet" />
		<tag k="natural" v="hill" />
		<tag k="place" v="locality" />
		<tag k="ssr:stedsnr" v="861961" />
	</node>
	<node lat="62.23599999841968" lon="8.140499993417457" id="-28594">
		<tag k="name" v="St. Olavsberget" />
		<tag k="natural" v="hill" />
		<tag k="place" v="locality" />
		<tag k="ssr:stedsnr" v="900174" />
	</node>
	<node lat="62.18478610791843" lon="8.64951666643244" id="-28601">
		<tag k="name" v="Brattfonne" />
		<tag k="natural" v="slope" />
		<tag k="place" v="locality" />
		<tag k="ssr:stedsnr" v="900669" />
	</node>
	<node lat="62.148616669411965" lon="8.924608329211427" id="-28602">
		<tag k="name" v="Skråmbakken" />
		<tag k="natural" v="slope" />
		<tag k="place" v="locality" />
		<tag k="ssr:stedsnr" v="900925" />
	</node>
	<node lat="62.066213889967166" lon="8.971891668057559" id="-28605">
		<tag k="name" v="Heimre Trollkyrkja" />
		<tag k="natural" v="hill" />
		<tag k="place" v="locality" />
		<tag k="ssr:stedsnr" v="900851" />
	</node>
	<node lat="62.185363886555876" lon="8.147847221036413" id="-28611">
		<tag k="loc_name" v="Svarthøin" />
		<tag k="name" v="Svarthøene" />
		<tag k="natural" v="hill" />
		<tag k="place" v="locality" />
		<tag k="ssr:stedsnr" v="921162" />
	</node>
	<node lat="62.24319166426397" lon="9.30514165708982" id="-28612">
		<tag k="fixme" v="consider natural=peak for the most distinct mountains in the district" />
		<tag k="name" v="Einøvlingen" />
		<tag k="natural" v="hill" />
		<tag k="place" v="locality" />
		<tag k="ssr:stedsnr" v="921529" />
	</node>
	<node lat="62.029266669486276" lon="8.850016671874782" id="-28613">
		<tag k="fixme" v="consider natural=peak for the most distinct mountains in the district" />
		<tag k="name" v="Knatthøin" />
		<tag k="natural" v="hill" />
		<tag k="place" v="locality" />
		<tag k="ssr:stedsnr" v="921578" />
	</node>
	<node lat="62.220430551723574" lon="8.782680560724044" id="-28623">
		<tag k="fixme" v="consider natural=peak for the most distinct mountains in the district" />
		<tag k="name" v="Stågåburshøi" />
		<tag k="natural" v="hill" />
		<tag k="place" v="locality" />
		<tag k="ssr:stedsnr" v="921935" />
	</node>
	<node lat="61.998063891288986" lon="8.506130547079575" id="-28624">
		<tag k="name" v="Storskardet" />
		<tag k="natural" v="valley" />
		<tag k="place" v="locality" />
		<tag k="ssr:stedsnr" v="921980" />
	</node>
	<node lat="62.23888055520202" lon="8.884675002688322" id="-28625">
		<tag k="fixme" v="consider natural=peak for the most distinct mountains in the district" />
		<tag k="name" v="Nedre Andershøe" />
		<tag k="natural" v="hill" />
		<tag k="place" v="locality" />
		<tag k="ssr:stedsnr" v="921990" />
	</node>
	<node lat="62.31765000391833" lon="8.306736114414266" id="-28626">
		<tag k="name" v="Sandåbotn" />
		<tag k="natural" v="valley" />
		<tag k="place" v="locality" />
		<tag k="ssr:stedsnr" v="922245" />
	</node>
	<node lat="62.31905555877798" lon="8.456488880998094" id="-28627">
		<tag k="name" v="Herrabotn" />
		<tag k="natural" v="valley" />
		<tag k="place" v="locality" />
		<tag k="ssr:stedsnr" v="922250" />
	</node>
	<node lat="62.280605554282495" lon="8.475894439042799" id="-28628">
		<tag k="fixme" v="consider natural=peak for the most distinct mountains in the district" />
		<tag k="name" v="Skrabbelhøi" />
		<tag k="natural" v="hill" />
		<tag k="place" v="locality" />
		<tag k="ssr:stedsnr" v="922274" />
	</node>
	<node lat="62.27826110924223" lon="8.326477784336292" id="-28629">
		<tag k="name" v="Gravranden" />
		<tag k="natural" v="hill" />
		<tag k="place" v="locality" />
		<tag k="ssr:stedsnr" v="922277" />
	</node>
	<node lat="62.272824996897185" lon="8.38078055481107" id="-28630">
		<tag k="fixme" v="consider natural=peak for the most distinct mountains in the district" />
		<tag k="name" v="Storhøhalsen" />
		<tag k="natural" v="hill" />
		<tag k="place" v="locality" />
		<tag k="ssr:stedsnr" v="922278" />
	</node>
	<node lat="62.10971944730457" lon="9.009811103248914" id="-28634">
		<tag k="name" v="Skurvothøe" />
		<tag k="natural" v="hill" />
		<tag k="place" v="locality" />
		<tag k="ssr:stedsnr" v="959888" />
	</node>
	<node lat="62.12772777440819" lon="8.644944453567398" id="-28638">
		<tag k="name" v="Sandmælan" />
		<tag k="natural" v="slope" />
		<tag k="place" v="locality" />
		<tag k="ssr:stedsnr" v="960412" />
	</node>
	<node lat="62.15363055910925" lon="8.646277781887784" id="-28639">
		<tag k="name" v="Motteruddalen" />
		<tag k="natural" v="valley" />
		<tag k="place" v="locality" />
		<tag k="ssr:stedsnr" v="960536" />
	</node>
	<node lat="62.08102221927762" lon="8.9537666701057" id="-28643">
		<tag k="name" v="Bjoråhamran" />
		<tag k="natural" v="slope" />
		<tag k="place" v="locality" />
		<tag k="ssr:stedsnr" v="960745" />
	</node>
	<node lat="62.19366666795594" lon="8.922949996614706" id="-28646">
		<tag k="name" v="Ølstadhaugen" />
		<tag k="natural" v="hill" />
		<tag k="place" v="locality" />
		<tag k="ssr:stedsnr" v="960907" />
	</node>
	<node lat="62.095808331317585" lon="8.908419446812113" id="-28649">
		<tag k="name" v="Restbakken" />
		<tag k="natural" v="slope" />
		<tag k="place" v="locality" />
		<tag k="ssr:stedsnr" v="960986" />
	</node>
	<node lat="62.023636082132874" lon="8.55255034956715" id="-28676">
		<tag k="fixme" v="consider natural=peak for the most distinct mountains in the district" />
		<tag k="loc_name" v="Ryggjehøe" />
		<tag k="name" v="Rygghøi" />
		<tag k="natural" v="hill" />
		<tag k="place" v="locality" />
		<tag k="ssr:stedsnr" v="987566" />
	</node>
	<node lat="62.19401944319486" lon="8.025524991113056" id="-28684">
		<tag k="name" v="Helvete" />
		<tag k="natural" v="slope" />
		<tag k="place" v="locality" />
		<tag k="ssr:stedsnr" v="11159" />
	</node>
	<node lat="62.221833335904506" lon="8.18155556234077" id="-28685">
		<tag k="alt_name" v="Brennhøe" />
		<tag k="fixme" v="consider natural=peak for the most distinct mountains in the district" />
		<tag k="name" v="Brennhø" />
		<tag k="natural" v="hill" />
		<tag k="place" v="locality" />
		<tag k="ssr:stedsnr" v="11174" />
	</node>
	<node lat="62.262288888237194" lon="8.586716664117125" id="-28686">
		<tag k="fixme" v="consider natural=peak for the most distinct mountains in the district" />
		<tag k="name" v="Vangstind" />
		<tag k="natural" v="hill" />
		<tag k="place" v="locality" />
		<tag k="ssr:stedsnr" v="11273" />
	</node>
	<node lat="62.34701442292136" lon="8.60636849077954" id="-28687">
		<tag k="fixme" v="consider natural=peak for the most distinct mountains in the district" />
		<tag k="loc_name" v="Aursjøhøe" />
		<tag k="name" v="Aursjøhøi" />
		<tag k="natural" v="hill" />
		<tag k="place" v="locality" />
		<tag k="ssr:stedsnr" v="11342" />
	</node>
	<node lat="62.019627775284555" lon="8.86861388876187" id="-28688">
		<tag k="fixme" v="consider natural=peak for the most distinct mountains in the district" />
		<tag k="name" v="Skulnebben" />
		<tag k="natural" v="hill" />
		<tag k="place" v="locality" />
		<tag k="ssr:stedsnr" v="11536" />
	</node>
	<node lat="62.00792499779043" lon="8.685713894664625" id="-28694">
		<tag k="name" v="Skjervedalen" />
		<tag k="natural" v="valley" />
		<tag k="place" v="locality" />
		<tag k="ssr:stedsnr" v="11977" />
	</node>
	<node lat="62.27627500254467" lon="8.412483335270135" id="-28698">
		<tag k="name" v="Skottåbotnen" />
		<tag k="natural" v="valley" />
		<tag k="place" v="locality" />
		<tag k="ssr:stedsnr" v="12305" />
	</node>
	<node lat="62.26981111324217" lon="8.50674999626378" id="-28699">
		<tag k="fixme" v="consider natural=peak for the most distinct mountains in the district" />
		<tag k="name" v="Merratind" />
		<tag k="natural" v="hill" />
		<tag k="place" v="locality" />
		<tag k="ssr:stedsnr" v="12309" />
	</node>
	<node lat="62.04386944717445" lon="8.351105552795035" id="-28707">
		<tag k="name" v="Løranden" />
		<tag k="natural" v="hill" />
		<tag k="place" v="locality" />
		<tag k="ssr:stedsnr" v="46743" />
	</node>
	<node lat="62.09859999679515" lon="9.02987777530649" id="-28708">
		<tag k="name" v="Dalberget" />
		<tag k="place" v="locality" />
		<tag k="ssr:stedsnr" v="49887" />
	</node>
	<node lat="62.22665000103738" lon="8.162361109622696" id="-28711">
		<tag k="name" v="Vetlfloget" />
		<tag k="natural" v="hill" />
		<tag k="place" v="locality" />
		<tag k="ssr:stedsnr" v="50153" />
	</node>
	<node lat="62.20924722581284" lon="8.895858324343184" id="-28715">
		<tag k="name" v="Brennhøe" />
		<tag k="natural" v="hill" />
		<tag k="place" v="locality" />
		<tag k="ssr:stedsnr" v="50900" />
	</node>
	<node lat="62.27473610996122" lon="8.173805555285856" id="-28717">
		<tag k="fixme" v="consider natural=peak for the most distinct mountains in the district" />
		<tag k="name" v="Nystuguberget" />
		<tag k="natural" v="hill" />
		<tag k="place" v="locality" />
		<tag k="ssr:stedsnr" v="51134" />
	</node>
	<node lat="62.253413890928215" lon="8.190816669365677" id="-28718">
		<tag k="name" v="Trollhaugan" />
		<tag k="natural" v="hill" />
		<tag k="place" v="locality" />
		<tag k="ssr:stedsnr" v="51135" />
	</node>
	<node lat="62.108341663361394" lon="8.683049995355363" id="-28724">
		<tag k="name" v="Bringebakken" />
		<tag k="natural" v="slope" />
		<tag k="place" v="locality" />
		<tag k="ssr:stedsnr" v="50530" />
	</node>
	<node lat="62.11361111554647" lon="8.636147215748824" id="-28725">
		<tag k="name" v="Sausetermoan" />
		<tag k="place" v="locality" />
		<tag k="ssr:stedsnr" v="50534" />
	</node>
	<node lat="62.2404805522617" lon="8.738813891779998" id="-28729">
		<tag k="name" v="Nordre Ådalen" />
		<tag k="natural" v="valley" />
		<tag k="place" v="locality" />
		<tag k="ssr:stedsnr" v="50642" />
	</node>
	<node lat="62.23346388594558" lon="8.742580555479005" id="-28730">
		<tag k="name" v="Øvre Ådalen" />
		<tag k="natural" v="valley" />
		<tag k="place" v="locality" />
		<tag k="ssr:stedsnr" v="50643" />
	</node>
	<node lat="62.135488884860756" lon="8.766586109824937" id="-28731">
		<tag k="name" v="Skålruste" />
		<tag k="natural" v="slope" />
		<tag k="place" v="locality" />
		<tag k="ssr:stedsnr" v="50654" />
	</node>
	<node lat="62.0671722250773" lon="8.955058337854748" id="-28733">
		<tag k="name" v="Dånå flyin" />
		<tag k="place" v="locality" />
		<tag k="ssr:stedsnr" v="50816" />
	</node>
	<node lat="62.13859444749864" lon="9.046791666714897" id="-28738">
		<tag k="name" v="Uppigardshaugen" />
		<tag k="natural" v="hill" />
		<tag k="place" v="locality" />
		<tag k="ssr:stedsnr" v="50861" />
	</node>
	<node lat="62.23155832899113" lon="8.135841675903341" id="-28741">
		<tag k="name" v="Søre Ruste" />
		<tag k="natural" v="slope" />
		<tag k="place" v="locality" />
		<tag k="ssr:stedsnr" v="51245" />
	</node>
	<node lat="62.19994444879729" lon="8.385211110367479" id="-28744">
		<tag k="name" v="Seilen" />
		<tag k="natural" v="slope" />
		<tag k="place" v="locality" />
		<tag k="ssr:stedsnr" v="51495" />
	</node>
	<node lat="62.27710000137927" lon="8.132383341508815" id="-28750">
		<tag k="name" v="Høgstehaugen" />
		<tag k="natural" v="hill" />
		<tag k="place" v="locality" />
		<tag k="ssr:stedsnr" v="71148" />
	</node>
	<node lat="62.142872226367366" lon="8.142808339941872" id="-28752">
		<tag k="name" v="Grønvasskollen" />
		<tag k="natural" v="hill" />
		<tag k="place" v="locality" />
		<tag k="ssr:stedsnr" v="71226" />
	</node>
	<node lat="62.08874722086099" lon="8.16593611571342" id="-28754">
		<tag k="fixme" v="consider natural=peak for the most distinct mountains in the district" />
		<tag k="name" v="Gunnaknatten" />
		<tag k="natural" v="hill" />
		<tag k="place" v="locality" />
		<tag k="ssr:stedsnr" v="71265" />
	</node>
	<node lat="62.041013884576934" lon="8.939700009343031" id="-28757">
		<tag k="fixme" v="consider natural=peak for the most distinct mountains in the district" />
		<tag k="name" v="Tatterhøi" />
		<tag k="natural" v="hill" />
		<tag k="place" v="locality" />
		<tag k="ssr:stedsnr" v="71608" />
	</node>
	<node lat="62.081033332007614" lon="8.989908327575412" id="-28761">
		<tag k="name" v="Hovda" />
		<tag k="natural" v="hill" />
		<tag k="place" v="locality" />
		<tag k="ssr:stedsnr" v="71649" />
	</node>
	<node lat="62.21557777464009" lon="8.525286116915435" id="-28765">
		<tag k="name" v="Storsteinberget" />
		<tag k="natural" v="hill" />
		<tag k="place" v="locality" />
		<tag k="ssr:stedsnr" v="72799" />
	</node>
	<node lat="62.13924999594618" lon="8.514608327201184" id="-28766">
		<tag k="alt_name" v="Vetlegrovshøe" />
		<tag k="fixme" v="consider natural=peak for the most distinct mountains in the district" />
		<tag k="name" v="Veslgrovshøi" />
		<tag k="natural" v="hill" />
		<tag k="place" v="locality" />
		<tag k="ssr:stedsnr" v="71777" />
	</node>
	<node lat="62.1826111121358" lon="8.288361116485115" id="-28769">
		<tag k="name" v="Tunga" />
		<tag k="natural" v="hill" />
		<tag k="place" v="locality" />
		<tag k="ssr:stedsnr" v="71816" />
	</node>
	<node lat="62.19202499817686" lon="8.372311113309872" id="-28770">
		<tag k="alt_name" v="Dugurdsknappen" />
		<tag k="fixme" v="consider natural=peak for the most distinct mountains in the district" />
		<tag k="name" v="Dugurdsknabben" />
		<tag k="natural" v="hill" />
		<tag k="place" v="locality" />
		<tag k="ssr:stedsnr" v="71845" />
	</node>
	<node lat="62.18506111262747" lon="8.092355559998339" id="-28774">
		<tag k="alt_name" v="Dalen, nordre" />
		<tag k="loc_name" v="Nørdre Dalen" />
		<tag k="name" v="Nordre Dalen" />
		<tag k="natural" v="valley" />
		<tag k="place" v="locality" />
		<tag k="ssr:stedsnr" v="72149" />
	</node>
	<node lat="62.30630000141193" lon="8.233166664013746" id="-28775">
		<tag k="name" v="Haugsvarden" />
		<tag k="natural" v="hill" />
		<tag k="place" v="locality" />
		<tag k="ssr:stedsnr" v="72274" />
	</node>
	<node lat="62.290230555302834" lon="8.491166663871303" id="-28776">
		<tag k="loc_name" v="Sandflatene" />
		<tag k="name" v="Sandåflatene" />
		<tag k="natural" v="valley" />
		<tag k="place" v="locality" />
		<tag k="ssr:stedsnr" v="72253" />
	</node>
	<node lat="62.342024997456264" lon="8.42713055824516" id="-28778">
		<tag k="name" v="Trughamaren" />
		<tag k="natural" v="hill" />
		<tag k="place" v="locality" />
		<tag k="ssr:stedsnr" v="72335" />
	</node>
	<node lat="62.360336109444816" lon="8.560099994437474" id="-28779">
		<tag k="name" v="Uksbotn" />
		<tag k="natural" v="valley" />
		<tag k="place" v="locality" />
		<tag k="ssr:stedsnr" v="72345" />
	</node>
	<node lat="62.368102778472604" lon="8.514836118745333" id="-28780">
		<tag k="name" v="Piksteinbotnen" />
		<tag k="natural" v="valley" />
		<tag k="place" v="locality" />
		<tag k="ssr:stedsnr" v="72348" />
	</node>
	<node lat="62.30449166888261" lon="8.793491657060986" id="-28782">
		<tag k="name" v="Skuggen" />
		<tag k="natural" v="valley" />
		<tag k="place" v="locality" />
		<tag k="ssr:stedsnr" v="72372" />
	</node>
	<node lat="62.250499998402496" lon="9.002961109824174" id="-28784">
		<tag k="name" v="Saubotnen" />
		<tag k="natural" v="valley" />
		<tag k="place" v="locality" />
		<tag k="ssr:stedsnr" v="72415" />
	</node>
	<node lat="62.20067777525639" lon="8.966188887877898" id="-28788">
		<tag k="name" v="Fransarådalen" />
		<tag k="natural" v="valley" />
		<tag k="place" v="locality" />
		<tag k="ssr:stedsnr" v="72941" />
	</node>
	<node lat="62.1969861098979" lon="8.999149999633632" id="-28789">
		<tag k="fixme" v="consider natural=peak for the most distinct mountains in the district" />
		<tag k="name" v="Bjørnahøi" />
		<tag k="natural" v="hill" />
		<tag k="place" v="locality" />
		<tag k="ssr:stedsnr" v="72955" />
	</node>
	<node lat="62.0685111104801" lon="9.05527777530973" id="-28790">
		<tag k="name" v="Stubbedalen" />
		<tag k="natural" v="valley" />
		<tag k="place" v="locality" />
		<tag k="ssr:stedsnr" v="110765" />
	</node>
	<node lat="62.06753888472354" lon="9.011702769846808" id="-28791">
		<tag k="name" v="Svartdalsbron" />
		<tag k="natural" v="hill" />
		<tag k="old_name" v="Svartedalsbron" />
		<tag k="place" v="locality" />
		<tag k="ssr:stedsnr" v="110768" />
	</node>
	<node lat="62.28642222582626" lon="8.176322218434489" id="-28798">
		<tag k="name" v="Tverrbergdalen" />
		<tag k="natural" v="valley" />
		<tag k="place" v="locality" />
		<tag k="ssr:stedsnr" v="111133" />
	</node>
	<node lat="62.261494442300105" lon="8.244680560368549" id="-28799">
		<tag k="name" v="Nedre Liarberget" />
		<tag k="natural" v="hill" />
		<tag k="place" v="locality" />
		<tag k="ssr:stedsnr" v="111137" />
	</node>
	<node lat="62.24060555977448" lon="8.152791658168207" id="-28800">
		<tag k="name" v="Vetleløfte" />
		<tag k="natural" v="slope" />
		<tag k="place" v="locality" />
		<tag k="ssr:stedsnr" v="111149" />
	</node>
	<node lat="62.16792777334526" lon="8.90750555244403" id="-28812">
		<tag k="name" v="Raubekkrandin" />
		<tag k="natural" v="hill" />
		<tag k="place" v="locality" />
		<tag k="ssr:stedsnr" v="111929" />
	</node>
	<node lat="62.12610277377044" lon="9.094777769484462" id="-28813">
		<tag k="name" v="Grøngjelet" />
		<tag k="natural" v="gorge" />
		<tag k="ssr:stedsnr" v="111938" />
	</node>
	<node lat="62.233594443575406" lon="8.131036107059135" id="-28818">
		<tag k="name" v="Nordre Ruste" />
		<tag k="natural" v="slope" />
		<tag k="place" v="locality" />
		<tag k="ssr:stedsnr" v="112257" />
	</node>
	<node lat="62.16937777339652" lon="8.631344450420634" id="-28821">
		<tag k="name" v="Geitryggen" />
		<tag k="natural" v="hill" />
		<tag k="place" v="locality" />
		<tag k="ssr:stedsnr" v="112696" />
	</node>
	<node lat="62.10006666649011" lon="9.067594449249135" id="-28826">
		<tag k="name" v="Årbogen" />
		<tag k="natural" v="slope" />
		<tag k="place" v="locality" />
		<tag k="ssr:stedsnr" v="132625" />
	</node>
	<node lat="62.249402781186106" lon="8.514841665933854" id="-28829">
		<tag k="alt_name" v="Gråhøi" />
		<tag k="fixme" v="consider natural=peak for the most distinct mountains in the district" />
		<tag k="name" v="Gråhøe" />
		<tag k="natural" v="hill" />
		<tag k="place" v="locality" />
		<tag k="ssr:stedsnr" v="132212" />
	</node>
	<node lat="62.29048888559846" lon="8.134752777823126" id="-28830">
		<tag k="alt_name" v="Bjørnakleive" />
		<tag k="name" v="Bjørnekleivi" />
		<tag k="natural" v="slope" />
		<tag k="place" v="locality" />
		<tag k="ssr:stedsnr" v="132224" />
	</node>
	<node lat="62.05235000092876" lon="8.185083332263424" id="-28831">
		<tag k="name" v="Skarvedalsreset" />
		<tag k="natural" v="valley" />
		<tag k="place" v="locality" />
		<tag k="ssr:stedsnr" v="132233" />
	</node>
	<node lat="62.26607500447899" lon="8.684433339874271" id="-28832">
		<tag k="alt_name" v="Ylslie" />
		<tag k="name" v="Ylslii" />
		<tag k="natural" v="slope" />
		<tag k="place" v="locality" />
		<tag k="ssr:stedsnr" v="132285" />
	</node>
	<node lat="62.3474249958312" lon="8.459588885700455" id="-28833">
		<tag k="fixme" v="consider natural=peak for the most distinct mountains in the district" />
		<tag k="name" v="Brunhøhalsen" />
		<tag k="natural" v="hill" />
		<tag k="place" v="locality" />
		<tag k="ssr:stedsnr" v="132323" />
	</node>
	<node lat="62.37948333756525" lon="8.7246916590837" id="-28835">
		<tag k="fixme" v="consider natural=peak for the most distinct mountains in the district" />
		<tag k="name" v="Bjørnhovda" />
		<tag k="natural" v="hill" />
		<tag k="place" v="locality" />
		<tag k="ssr:stedsnr" v="132467" />
	</node>
	<node lat="62.29234444751956" lon="9.269777786214696" id="-28841">
		<tag k="fixme" v="consider natural=peak for the most distinct mountains in the district" />
		<tag k="name" v="Hettpyntan" />
		<tag k="natural" v="hill" />
		<tag k="old_name" v="Hettpynutan" />
		<tag k="place" v="locality" />
		<tag k="ssr:stedsnr" v="132552" />
	</node>
	<node lat="62.039050002761684" lon="8.899880559505132" id="-28842">
		<tag k="loc_name" v="Nonshøe;Beianonshøe" />
		<tag k="name" v="Nonshøi" />
		<tag k="natural" v="hill" />
		<tag k="place" v="locality" />
		<tag k="ssr:stedsnr" v="132555" />
	</node>
	<node lat="62.155563888868215" lon="8.377886116619202" id="-28847">
		<tag k="fixme" v="consider natural=peak for the most distinct mountains in the district" />
		<tag k="name" v="Søre Skarvhøe" />
		<tag k="natural" v="hill" />
		<tag k="place" v="locality" />
		<tag k="ssr:stedsnr" v="132783" />
	</node>
	<node lat="62.14427777564816" lon="8.590391674021179" id="-28848">
		<tag k="name" v="Skråkkdalen" />
		<tag k="natural" v="valley" />
		<tag k="place" v="locality" />
		<tag k="ssr:stedsnr" v="132793" />
	</node>
	<node lat="62.118824998994256" lon="8.994036112220929" id="-28852">
		<tag k="name" v="Haugan" />
		<tag k="natural" v="hill" />
		<tag k="place" v="locality" />
		<tag k="ssr:stedsnr" v="132888" />
	</node>
	<node lat="62.30037777776901" lon="8.303855561371778" id="-28856">
		<tag k="name" v="Svarthøhogget" />
		<tag k="natural" v="valley" />
		<tag k="place" v="locality" />
		<tag k="ssr:stedsnr" v="133228" />
	</node>
	<node lat="62.300125002144476" lon="8.326402774029996" id="-28857">
		<tag k="name" v="Svarthøholet" />
		<tag k="natural" v="valley" />
		<tag k="place" v="locality" />
		<tag k="ssr:stedsnr" v="133230" />
	</node>
	<node lat="62.302594446455004" lon="8.474300006595776" id="-28858">
		<tag k="fixme" v="consider natural=peak for the most distinct mountains in the district" />
		<tag k="name" v="Søre Buahøe" />
		<tag k="natural" v="hill" />
		<tag k="place" v="locality" />
		<tag k="ssr:stedsnr" v="133233" />
	</node>
	<node lat="62.28959444887671" lon="8.31757777640404" id="-28860">
		<tag k="alt_name" v="Vetlsvarthøi" />
		<tag k="fixme" v="consider natural=peak for the most distinct mountains in the district" />
		<tag k="name" v="Vetlsvarthøe" />
		<tag k="natural" v="hill" />
		<tag k="place" v="locality" />
		<tag k="ssr:stedsnr" v="133237" />
	</node>
	<node lat="62.32968611168867" lon="8.444450002168793" id="-28861">
		<tag k="name" v="Miutjønntelet" />
		<tag k="natural" v="valley" />
		<tag k="place" v="locality" />
		<tag k="ssr:stedsnr" v="133242" />
	</node>
	<node lat="62.32079166602425" lon="8.365805551234537" id="-28862">
		<tag k="name" v="Mølmsløypet" />
		<tag k="natural" v="valley" />
		<tag k="place" v="locality" />
		<tag k="ssr:stedsnr" v="133244" />
	</node>
	<node lat="62.26631666363694" lon="9.267875002823839" id="-28863">
		<tag k="fixme" v="consider natural=peak for the most distinct mountains in the district" />
		<tag k="name" v="Flathøi" />
		<tag k="natural" v="hill" />
		<tag k="place" v="locality" />
		<tag k="ssr:stedsnr" v="145584" />
	</node>
	<node lat="61.59730555823961" lon="9.846008324353608" id="-28865">
		<tag k="name" v="Gudbrandsdalen" />
		<tag k="natural" v="valley" />
		<tag k="place" v="locality" />
		<tag k="ssr:stedsnr" v="146259" />
	</node>
	<node lat="62.2262888932489" lon="8.130444453710176" id="-28873">
		<tag k="name" v="Storlegan" />
		<tag k="natural" v="slope" />
		<tag k="place" v="locality" />
		<tag k="ssr:stedsnr" v="172199" />
	</node>
	<node lat="62.09571666729352" lon="8.652963886917865" id="-28883">
		<tag k="name" v="Aksla" />
		<tag k="natural" v="slope" />
		<tag k="place" v="locality" />
		<tag k="ssr:stedsnr" v="171593" />
	</node>
	<node lat="62.081566670698656" lon="9.07544721600632" id="-28886">
		<tag k="name" v="Lierhaugen" />
		<tag k="natural" v="hill" />
		<tag k="place" v="locality" />
		<tag k="ssr:stedsnr" v="171791" />
	</node>
	<node lat="62.07704722014105" lon="8.981627780983263" id="-28888">
		<tag k="name" v="Kinn" />
		<tag k="place" v="locality" />
		<tag k="ssr:stedsnr" v="171848" />
	</node>
	<node lat="62.121780555307765" lon="8.970736101588214" id="-28892">
		<tag k="name" v="Bratthaugen" />
		<tag k="natural" v="hill" />
		<tag k="place" v="locality" />
		<tag k="ssr:stedsnr" v="171960" />
	</node>
	<node lat="62.10222222160711" lon="8.927983330649717" id="-28893">
		<tag k="name" v="Langhaugen" />
		<tag k="natural" v="hill" />
		<tag k="place" v="locality" />
		<tag k="ssr:stedsnr" v="171975" />
	</node>
	<node lat="62.25732777493361" lon="8.135452784292283" id="-28896">
		<tag k="name" v="Storhaugdalen" />
		<tag k="natural" v="valley" />
		<tag k="place" v="locality" />
		<tag k="ssr:stedsnr" v="172240" />
	</node>
	<node lat="62.15994166670114" lon="8.596619439923671" id="-28899">
		<tag k="name" v="Skråkknåse" />
		<tag k="place" v="locality" />
		<tag k="ssr:stedsnr" v="172338" />
	</node>
	<node lat="62.24330277573249" lon="8.130588894966394" id="-28903">
		<tag k="name" v="Tjuruskjellflate" />
		<tag k="place" v="locality" />
		<tag k="ssr:stedsnr" v="187214" />
	</node>
	<node lat="62.29143889274141" lon="8.173011107206873" id="-28905">
		<tag k="fixme" v="consider natural=peak for the most distinct mountains in the district" />
		<tag k="name" v="Toppen" />
		<tag k="natural" v="hill" />
		<tag k="place" v="locality" />
		<tag k="ssr:stedsnr" v="192264" />
	</node>
	<node lat="62.18089444364636" lon="8.216277773712445" id="-28907">
		<tag k="alt_name" v="Nonshøi;Nonshø" />
		<tag k="fixme" v="consider natural=peak for the most distinct mountains in the district" />
		<tag k="name" v="Nonshøe" />
		<tag k="natural" v="hill" />
		<tag k="place" v="locality" />
		<tag k="ssr:stedsnr" v="192860" />
	</node>
	<node lat="62.16005000424466" lon="8.515252768474832" id="-28913">
		<tag k="alt_name" v="Breiranden" />
		<tag k="name" v="Breidranden" />
		<tag k="natural" v="slope" />
		<tag k="place" v="locality" />
		<tag k="ssr:stedsnr" v="192837" />
	</node>
	<node lat="62.18765277367494" lon="9.134988887362345" id="-28914">
		<tag k="fixme" v="consider natural=peak for the most distinct mountains in the district" />
		<tag k="name" v="Strålsjøoksli" />
		<tag k="natural" v="hill" />
		<tag k="old_name" v="Strålsjåoksli" />
		<tag k="place" v="locality" />
		<tag k="ssr:stedsnr" v="192957" />
	</node>
	<node lat="62.19173646061991" lon="9.107850238809055" id="-28915">
		<tag k="fixme" v="consider natural=peak for the most distinct mountains in the district" />
		<tag k="loc_name" v="Strålsjøhøe" />
		<tag k="name" v="Strålsjøhøi" />
		<tag k="natural" v="hill" />
		<tag k="place" v="locality" />
		<tag k="ssr:stedsnr" v="192958" />
	</node>
	<node lat="62.1711416666518" lon="8.814908339119794" id="-28916">
		<tag k="fixme" v="consider natural=peak for the most distinct mountains in the district" />
		<tag k="name" v="Storhøi" />
		<tag k="natural" v="hill" />
		<tag k="place" v="locality" />
		<tag k="ssr:stedsnr" v="192967" />
	</node>
	<node lat="62.159786111606024" lon="8.102272219496509" id="-28918">
		<tag k="alt_name" v="Dalen, søre" />
		<tag k="name" v="Søre Dalen" />
		<tag k="natural" v="valley" />
		<tag k="place" v="locality" />
		<tag k="ssr:stedsnr" v="193210" />
	</node>
	<node lat="62.31735277538499" lon="8.197227777958837" id="-28920">
		<tag k="fixme" v="consider natural=peak for the most distinct mountains in the district" />
		<tag k="name" v="Bøverhø" />
		<tag k="natural" v="hill" />
		<tag k="place" v="locality" />
		<tag k="ssr:stedsnr" v="193219" />
	</node>
	<node lat="62.25867499888864" lon="8.260699993275798" id="-28922">
		<tag k="name" v="Kongelberget" />
		<tag k="natural" v="hill" />
		<tag k="place" v="locality" />
		<tag k="ssr:stedsnr" v="193306" />
	</node>
	<node lat="62.25659444633883" lon="8.363552783411286" id="-28923">
		<tag k="name" v="Kvilhaugan" />
		<tag k="natural" v="hill" />
		<tag k="place" v="locality" />
		<tag k="ssr:stedsnr" v="193267" />
	</node>
	<node lat="62.25280000242882" lon="8.53540555510008" id="-28925">
		<tag k="name" v="Sandåbotn" />
		<tag k="natural" v="valley" />
		<tag k="place" v="locality" />
		<tag k="ssr:stedsnr" v="193276" />
	</node>
	<node lat="62.303877780056524" lon="8.753769446623219" id="-28927">
		<tag k="name" v="Finnemannsbotn" />
		<tag k="natural" v="valley" />
		<tag k="place" v="locality" />
		<tag k="ssr:stedsnr" v="193423" />
	</node>
	<node lat="62.32191389116823" lon="9.112183336169238" id="-28928">
		<tag k="fixme" v="consider natural=peak for the most distinct mountains in the district" />
		<tag k="loc_name" v="Drugshøie" />
		<tag k="name" v="Drugshøi" />
		<tag k="natural" v="hill" />
		<tag k="place" v="locality" />
		<tag k="ssr:stedsnr" v="193434" />
	</node>
	<node lat="62.01942500384496" lon="8.937963885758647" id="-28929">
		<tag k="name" v="Grønbakkan" />
		<tag k="natural" v="slope" />
		<tag k="place" v="locality" />
		<tag k="ssr:stedsnr" v="193563" />
	</node>
	<node lat="62.364080557247114" lon="9.092324990665768" id="-28930">
		<tag k="fixme" v="consider natural=peak for the most distinct mountains in the district" />
		<tag k="name" v="Skuleggen" />
		<tag k="natural" v="hill" />
		<tag k="place" v="locality" />
		<tag k="ssr:stedsnr" v="193487" />
	</node>
	<node lat="62.35281666559753" lon="8.856844435505113" id="-28931">
		<tag k="fixme" v="consider natural=peak for the most distinct mountains in the district" />
		<tag k="name" v="Eggekollan" />
		<tag k="natural" v="hill" />
		<tag k="place" v="locality" />
		<tag k="ssr:stedsnr" v="193488" />
	</node>
	<node lat="62.350611112573446" lon="8.436527772596717" id="-28934">
		<tag k="name" v="Fagerbotn" />
		<tag k="natural" v="valley" />
		<tag k="place" v="locality" />
		<tag k="ssr:stedsnr" v="193636" />
	</node>
	<node lat="62.12162500160634" lon="8.528350002340828" id="-28935">
		<tag k="alt_name" v="Storhaugklove" />
		<tag k="fixme" v="consider natural=peak for the most distinct mountains in the district" />
		<tag k="name" v="Storhaugklauvi" />
		<tag k="natural" v="hill" />
		<tag k="place" v="locality" />
		<tag k="ssr:stedsnr" v="193727" />
	</node>
	<node lat="62.23675277460069" lon="8.689338897351629" id="-28942">
		<tag k="alt_name" v="Høi, nordre" />
		<tag k="fixme" v="consider natural=peak for the most distinct mountains in the district" />
		<tag k="loc_name" v="Nørdrehøe" />
		<tag k="name" v="Nordre Høe" />
		<tag k="natural" v="hill" />
		<tag k="place" v="locality" />
		<tag k="ssr:stedsnr" v="193871" />
	</node>
	<node lat="62.14130041639481" lon="8.2466431392974" id="-28943">
		<tag k="fixme" v="consider natural=peak for the most distinct mountains in the district" />
		<tag k="name" v="Grønmillom" />
		<tag k="natural" v="hill" />
		<tag k="place" v="locality" />
		<tag k="ssr:stedsnr" v="193813" />
	</node>
	<node lat="62.28426389132701" lon="8.494641666386483" id="-28952">
		<tag k="name" v="Kløvranden" />
		<tag k="natural" v="valley" />
		<tag k="place" v="locality" />
		<tag k="ssr:stedsnr" v="194241" />
	</node>
	<node lat="62.283327780923344" lon="8.616858327311318" id="-28953">
		<tag k="fixme" v="consider natural=peak for the most distinct mountains in the district" />
		<tag k="name" v="Storranden" />
		<tag k="natural" v="hill" />
		<tag k="place" v="locality" />
		<tag k="ssr:stedsnr" v="194243" />
	</node>
	<node lat="62.32297499683747" lon="8.332974994585252" id="-28955">
		<tag k="fixme" v="consider natural=peak for the most distinct mountains in the district" />
		<tag k="loc_name" v="Svarthøe" />
		<tag k="name" v="Svarthøi" />
		<tag k="natural" v="hill" />
		<tag k="place" v="locality" />
		<tag k="ssr:stedsnr" v="194250" />
	</node>
	<node lat="62.21897500308159" lon="9.01424444360466" id="-28962">
		<tag k="fixme" v="consider natural=peak for the most distinct mountains in the district" />
		<tag k="name" v="Hatten" />
		<tag k="natural" v="hill" />
		<tag k="place" v="locality" />
		<tag k="ssr:stedsnr" v="193935" />
	</node>
	<node lat="62.29199167034499" lon="8.638225001336462" id="-28966">
		<tag k="name" v="Geitholet" />
		<tag k="natural" v="valley" />
		<tag k="place" v="locality" />
		<tag k="ssr:stedsnr" v="194233" />
	</node>
	<node lat="62.09292222194777" lon="9.027747223640969" id="-28976">
		<tag k="name" v="Rolstadberget" />
		<tag k="natural" v="hill" />
		<tag k="place" v="locality" />
		<tag k="ssr:stedsnr" v="292889" />
	</node>
	<node lat="62.095486111605275" lon="9.02452777937969" id="-28977">
		<tag k="name" v="Fjellbrekka" />
		<tag k="natural" v="slope" />
		<tag k="place" v="locality" />
		<tag k="ssr:stedsnr" v="292891" />
	</node>
	<node lat="62.27861944289471" lon="8.166977778042519" id="-28981">
		<tag k="name" v="Bjønnabakken" />
		<tag k="natural" v="slope" />
		<tag k="place" v="locality" />
		<tag k="ssr:stedsnr" v="293161" />
	</node>
	<node lat="62.26102778198649" lon="8.205858332521071" id="-28982">
		<tag k="name" v="Storhaugen" />
		<tag k="natural" v="hill" />
		<tag k="place" v="locality" />
		<tag k="ssr:stedsnr" v="293162" />
	</node>
	<node lat="62.12484444764405" lon="8.913169445534303" id="-28985">
		<tag k="name" v="Ølstadskriu" />
		<tag k="natural" v="slope" />
		<tag k="place" v="locality" />
		<tag k="ssr:stedsnr" v="293969" />
	</node>
	<node lat="62.21944167105244" lon="8.539322231080824" id="-28986">
		<tag k="name" v="Dosethøe" />
		<tag k="natural" v="hill" />
		<tag k="place" v="locality" />
		<tag k="ssr:stedsnr" v="293520" />
	</node>
	<node lat="62.13107222508787" lon="8.783361105971897" id="-28988">
		<tag k="name" v="Grønruste" />
		<tag k="natural" v="slope" />
		<tag k="place" v="locality" />
		<tag k="ssr:stedsnr" v="293709" />
	</node>
	<node lat="62.07388889206363" lon="8.966700001654269" id="-28993">
		<tag k="name" v="Kringlothøe" />
		<tag k="natural" v="hill" />
		<tag k="place" v="locality" />
		<tag k="ssr:stedsnr" v="293779" />
	</node>
	<node lat="62.20708055432604" lon="8.90153055080935" id="-28995">
		<tag k="name" v="Sjongslie" />
		<tag k="natural" v="slope" />
		<tag k="place" v="locality" />
		<tag k="ssr:stedsnr" v="293920" />
	</node>
	<node lat="62.02633889041877" lon="8.212530554223104" id="-28998">
		<tag k="alt_name" v="Berget, nordre" />
		<tag k="name" v="Nordre Berget" />
		<tag k="natural" v="hill" />
		<tag k="place" v="locality" />
		<tag k="ssr:stedsnr" v="314268" />
	</node>
	<node lat="62.08678333694572" lon="8.21050833368291" id="-28999">
		<tag k="name" v="Løyftmillom" />
		<tag k="natural" v="valley" />
		<tag k="place" v="locality" />
		<tag k="ssr:stedsnr" v="314275" />
	</node>
	<node lat="62.15175833753969" lon="8.042677777962504" id="-29002">
		<tag k="fixme" v="consider natural=peak for the most distinct mountains in the district" />
		<tag k="loc_name" v="Ryggjehøe" />
		<tag k="name" v="Ryggjehøi" />
		<tag k="natural" v="hill" />
		<tag k="place" v="locality" />
		<tag k="ssr:stedsnr" v="314233" />
	</node>
	<node lat="62.2522805557075" lon="9.061986109654002" id="-29005">
		<tag k="fixme" v="consider natural=peak for the most distinct mountains in the district" />
		<tag k="name" v="Kongshamran" />
		<tag k="natural" v="hill" />
		<tag k="place" v="locality" />
		<tag k="ssr:stedsnr" v="314484" />
	</node>
	<node lat="62.134788886473096" lon="8.678761115835051" id="-29007">
		<tag k="name" v="Hosetmoen" />
		<tag k="place" v="locality" />
		<tag k="ssr:stedsnr" v="314764" />
	</node>
	<node lat="62.13057778196441" lon="8.447480558508127" id="-29012">
		<tag k="fixme" v="consider natural=peak for the most distinct mountains in the district" />
		<tag k="loc_name" v="Brattmannshøe" />
		<tag k="name" v="Brattmannshøi" />
		<tag k="natural" v="hill" />
		<tag k="place" v="locality" />
		<tag k="ssr:stedsnr" v="314749" />
	</node>
	<node lat="62.23726388851517" lon="8.560775006846612" id="-29017">
		<tag k="name" v="Merrabotnen" />
		<tag k="natural" v="valley" />
		<tag k="place" v="locality" />
		<tag k="ssr:stedsnr" v="314855" />
	</node>
	<node lat="62.14271388471086" lon="8.936655552306808" id="-29026">
		<tag k="alt_name" v="Baklie" />
		<tag k="name" v="Baklii" />
		<tag k="natural" v="slope" />
		<tag k="place" v="locality" />
		<tag k="ssr:stedsnr" v="314892" />
	</node>
	<node lat="62.19349999889689" lon="8.817075006191686" id="-29029">
		<tag k="fixme" v="consider natural=peak for the most distinct mountains in the district" />
		<tag k="name" v="Storhorrungen" />
		<tag k="natural" v="hill" />
		<tag k="place" v="locality" />
		<tag k="ssr:stedsnr" v="314945" />
	</node>
	<node lat="62.184725000995265" lon="8.99976667256682" id="-29031">
		<tag k="fixme" v="consider natural=peak for the most distinct mountains in the district" />
		<tag k="name" v="Reindølsnabben" />
		<tag k="natural" v="hill" />
		<tag k="place" v="locality" />
		<tag k="ssr:stedsnr" v="314956" />
	</node>
	<node lat="62.24058888822948" lon="9.072333337009548" id="-29035">
		<tag k="name" v="Mjogsjøbotn" />
		<tag k="natural" v="valley" />
		<tag k="place" v="locality" />
		<tag k="ssr:stedsnr" v="314977" />
	</node>
	<node lat="62.225752782069215" lon="8.795377779682234" id="-29036">
		<tag k="alt_name" v="Rokkehøi" />
		<tag k="fixme" v="consider natural=peak for the most distinct mountains in the district" />
		<tag k="name" v="Rokkehøe" />
		<tag k="natural" v="hill" />
		<tag k="place" v="locality" />
		<tag k="ssr:stedsnr" v="314987" />
	</node>
	<node lat="62.23580833024685" lon="9.203225001473259" id="-29037">
		<tag k="name" v="Skredadalen" />
		<tag k="natural" v="valley" />
		<tag k="place" v="locality" />
		<tag k="ssr:stedsnr" v="314998" />
	</node>
	<node lat="62.285075003957616" lon="8.671916666921641" id="-29041">
		<tag k="alt_name" v="Gåsbulie" />
		<tag k="name" v="Gåsbulii" />
		<tag k="natural" v="slope" />
		<tag k="place" v="locality" />
		<tag k="ssr:stedsnr" v="315250" />
	</node>
	<node lat="62.10816944693833" lon="8.909608333610928" id="-29043">
		<tag k="name" v="Gammelstuguhaugen" />
		<tag k="natural" v="hill" />
		<tag k="place" v="locality" />
		<tag k="ssr:stedsnr" v="353974" />
	</node>
	<node lat="62.11373888454588" lon="8.983761119497535" id="-29044">
		<tag k="name" v="Liljehamran" />
		<tag k="natural" v="hill" />
		<tag k="place" v="locality" />
		<tag k="ssr:stedsnr" v="353997" />
	</node>
	<node lat="62.104155556555504" lon="9.056461112771492" id="-29048">
		<tag k="name" v="Tindberget" />
		<tag k="natural" v="hill" />
		<tag k="place" v="locality" />
		<tag k="ssr:stedsnr" v="352891" />
	</node>
	<node lat="62.216180556347005" lon="8.294602776118426" id="-29051">
		<tag k="name" v="Kvannslådalen" />
		<tag k="natural" v="valley" />
		<tag k="place" v="locality" />
		<tag k="ssr:stedsnr" v="353085" />
	</node>
	<node lat="62.060033335622485" lon="8.966897222886288" id="-29056">
		<tag k="name" v="Ursgrenshaugen" />
		<tag k="natural" v="hill" />
		<tag k="place" v="locality" />
		<tag k="ssr:stedsnr" v="353837" />
	</node>
	<node lat="62.071766668578505" lon="9.070175004367616" id="-29058">
		<tag k="name" v="Svarthol" />
		<tag k="natural" v="valley" />
		<tag k="place" v="locality" />
		<tag k="ssr:stedsnr" v="353780" />
	</node>
	<node lat="62.077419443507516" lon="9.013130554305858" id="-29059">
		<tag k="name" v="Øvre Floten" />
		<tag k="place" v="locality" />
		<tag k="ssr:stedsnr" v="353792" />
	</node>
	<node lat="62.17475278162629" lon="8.886700000933226" id="-29066">
		<tag k="name" v="Vetlhøe" />
		<tag k="natural" v="hill" />
		<tag k="place" v="locality" />
		<tag k="ssr:stedsnr" v="353941" />
	</node>
	<node lat="62.283197219432424" lon="8.152536116119224" id="-29067">
		<tag k="name" v="Ørnnebben" />
		<tag k="natural" v="cliff" />
		<tag k="ssr:stedsnr" v="354268" />
	</node>
	<node lat="62.081533330064325" lon="8.451205554705822" id="-29070">
		<tag k="name" v="Rustin" />
		<tag k="natural" v="slope" />
		<tag k="place" v="locality" />
		<tag k="ssr:stedsnr" v="354390" />
	</node>
	<node lat="62.18218610686045" lon="8.648958332750427" id="-29072">
		<tag k="name" v="Brennhaugbakken" />
		<tag k="natural" v="slope" />
		<tag k="place" v="locality" />
		<tag k="ssr:stedsnr" v="354684" />
	</node>
	<node lat="62.125941664973986" lon="8.375152785658866" id="-29079">
		<tag k="fixme" v="consider natural=peak for the most distinct mountains in the district" />
		<tag k="loc_name" v="Mehøe" />
		<tag k="name" v="Mehøi" />
		<tag k="natural" v="hill" />
		<tag k="place" v="locality" />
		<tag k="ssr:stedsnr" v="374777" />
	</node>
	<node lat="62.09049722119921" lon="8.12657221633128" id="-29081">
		<tag k="name" v="Dordiholet" />
		<tag k="natural" v="valley" />
		<tag k="place" v="locality" />
		<tag k="ssr:stedsnr" v="374269" />
	</node>
	<node lat="62.019175002575174" lon="8.302680558726442" id="-29083">
		<tag k="fixme" v="consider natural=peak for the most distinct mountains in the district" />
		<tag k="loc_name" v="Leirhøe" />
		<tag k="name" v="Leirhøi" />
		<tag k="natural" v="hill" />
		<tag k="place" v="locality" />
		<tag k="ssr:stedsnr" v="374687" />
	</node>
	<node lat="62.196624995927365" lon="8.483613897715522" id="-29084">
		<tag k="name" v="Geitryggen" />
		<tag k="natural" v="ridge" />
		<tag k="place" v="locality" />
		<tag k="ssr:stedsnr" v="374860" />
	</node>
	<node lat="62.168616503176764" lon="8.753221045870783" id="-29088">
		<tag k="alt_name" v="Rundhøi" />
		<tag k="fixme" v="consider natural=peak for the most distinct mountains in the district" />
		<tag k="name" v="Rundhøe" />
		<tag k="natural" v="hill" />
		<tag k="place" v="locality" />
		<tag k="ssr:stedsnr" v="374978" />
	</node>
	<node lat="62.20888677687316" lon="8.719916878643307" id="-29089">
		<tag k="fixme" v="consider natural=peak for the most distinct mountains in the district" />
		<tag k="name" v="Kvithøi" />
		<tag k="natural" v="hill" />
		<tag k="place" v="locality" />
		<tag k="ssr:stedsnr" v="374832" />
	</node>
	<node lat="62.16262499641606" lon="8.815286118209748" id="-29090">
		<tag k="fixme" v="consider natural=peak for the most distinct mountains in the district" />
		<tag k="name" v="Veslhorrungen" />
		<tag k="natural" v="hill" />
		<tag k="place" v="locality" />
		<tag k="ssr:stedsnr" v="374912" />
	</node>
	<node lat="62.15213333243198" lon="8.72524167528387" id="-29091">
		<tag k="alt_name" v="Holsethovda" />
		<tag k="fixme" v="consider natural=peak for the most distinct mountains in the district" />
		<tag k="name" v="Hosethovdan" />
		<tag k="natural" v="hill" />
		<tag k="place" v="locality" />
		<tag k="ssr:stedsnr" v="374914" />
	</node>
	<node lat="62.331199998783795" lon="8.413766658587885" id="-29092">
		<tag k="name" v="Kløvranden" />
		<tag k="natural" v="hill" />
		<tag k="place" v="locality" />
		<tag k="ssr:stedsnr" v="375315" />
	</node>
	<node lat="62.33734166327204" lon="8.574874995906843" id="-29093">
		<tag k="alt_name" v="Tverråbotn, s" />
		<tag k="name" v="Søre Tverråbotn" />
		<tag k="natural" v="valley" />
		<tag k="place" v="locality" />
		<tag k="ssr:stedsnr" v="375316" />
	</node>
	<node lat="62.26678333395147" lon="9.170780556369667" id="-29095">
		<tag k="alt_name" v="Skredahøi, nordre" />
		<tag k="fixme" v="consider natural=peak for the most distinct mountains in the district" />
		<tag k="name" v="Nordre Skredahøi" />
		<tag k="natural" v="hill" />
		<tag k="place" v="locality" />
		<tag k="ssr:stedsnr" v="375349" />
	</node>
	<node lat="62.345041665399506" lon="9.031183329881332" id="-29096">
		<tag k="name" v="Veslholet" />
		<tag k="natural" v="valley" />
		<tag k="place" v="locality" />
		<tag k="ssr:stedsnr" v="375429" />
	</node>
	<node lat="62.28070555326051" lon="9.27495832604314" id="-29099">
		<tag k="fixme" v="consider natural=peak for the most distinct mountains in the district" />
		<tag k="name" v="Heimaste Svånåkollen" />
		<tag k="natural" v="hill" />
		<tag k="old_name" v="Heimste Svånåkollen" />
		<tag k="place" v="locality" />
		<tag k="ssr:stedsnr" v="375455" />
	</node>
	<node lat="62.29035031800868" lon="8.27126875896915" id="-29103">
		<tag k="alt_name" v="Kollhøi" />
		<tag k="fixme" v="consider natural=peak for the most distinct mountains in the district" />
		<tag k="name" v="Kollhøe" />
		<tag k="natural" v="hill" />
		<tag k="place" v="locality" />
		<tag k="ssr:stedsnr" v="376262" />
	</node>
	<node lat="62.27239700120086" lon="8.55055667616985" id="-29104">
		<tag k="fixme" v="consider natural=peak for the most distinct mountains in the district" />
		<tag k="loc_name" v="Vangshøe" />
		<tag k="name" v="Vangshøi" />
		<tag k="natural" v="hill" />
		<tag k="place" v="locality" />
		<tag k="ssr:stedsnr" v="376301" />
	</node>
	<node lat="62.22355277453699" lon="8.177400001680413" id="-29111">
		<tag k="name" v="Storfloget" />
		<tag k="natural" v="hill" />
		<tag k="place" v="locality" />
		<tag k="ssr:stedsnr" v="414151" />
	</node>
	<node lat="62.24267777788586" lon="8.25392778135956" id="-29112">
		<tag k="fixme" v="consider natural=peak for the most distinct mountains in the district" />
		<tag k="name" v="Lygneberget" />
		<tag k="natural" v="hill" />
		<tag k="place" v="locality" />
		<tag k="ssr:stedsnr" v="414157" />
	</node>
	<node lat="62.222744441168324" lon="8.340088896134782" id="-29115">
		<tag k="name" v="Gruvdalen" />
		<tag k="natural" v="valley" />
		<tag k="place" v="locality" />
		<tag k="ssr:stedsnr" v="414061" />
	</node>
	<node lat="62.08184444335392" lon="8.990372214548179" id="-29116">
		<tag k="name" v="Hovdmillom" />
		<tag k="natural" v="slope" />
		<tag k="place" v="locality" />
		<tag k="ssr:stedsnr" v="414754" />
	</node>
	<node lat="62.0701527739321" lon="8.960950008696301" id="-29118">
		<tag k="alt_name" v="Kvølvo" />
		<tag k="name" v="Kjølve" />
		<tag k="natural" v="valley" />
		<tag k="place" v="locality" />
		<tag k="ssr:stedsnr" v="414758" />
	</node>
	<node lat="62.094033332092884" lon="9.072858324185072" id="-29120">
		<tag k="name" v="Brennberget" />
		<tag k="natural" v="hill" />
		<tag k="place" v="locality" />
		<tag k="ssr:stedsnr" v="414853" />
	</node>
	<node lat="62.10990833485469" lon="8.70599166089456" id="-29123">
		<tag k="name" v="Salthaugen" />
		<tag k="natural" v="hill" />
		<tag k="place" v="locality" />
		<tag k="ssr:stedsnr" v="414546" />
	</node>
	<node lat="62.096666663036636" lon="8.687894445427661" id="-29125">
		<tag k="name" v="Storhaugen" />
		<tag k="natural" v="hill" />
		<tag k="place" v="locality" />
		<tag k="ssr:stedsnr" v="414549" />
	</node>
	<node lat="62.10186111074934" lon="8.684708339032296" id="-29126">
		<tag k="name" v="Storholet" />
		<tag k="natural" v="valley" />
		<tag k="place" v="locality" />
		<tag k="ssr:stedsnr" v="414550" />
	</node>
	<node lat="62.18703055813691" lon="8.419183341338597" id="-29128">
		<tag k="name" v="Flye" />
		<tag k="natural" v="hill" />
		<tag k="place" v="locality" />
		<tag k="ssr:stedsnr" v="415481" />
	</node>
	<node lat="62.134380556719705" lon="8.963713881839412" id="-29133">
		<tag k="name" v="Lurven" />
		<tag k="natural" v="hill" />
		<tag k="place" v="locality" />
		<tag k="ssr:stedsnr" v="414951" />
	</node>
	<node lat="62.12444444709278" lon="8.898138886815772" id="-29134">
		<tag k="name" v="Skredadalen" />
		<tag k="natural" v="valley" />
		<tag k="place" v="locality" />
		<tag k="ssr:stedsnr" v="414963" />
	</node>
	<node lat="62.1148444412944" lon="8.624683341727675" id="-29138">
		<tag k="name" v="Lorkvennslette" />
		<tag k="place" v="locality" />
		<tag k="ssr:stedsnr" v="439734" />
	</node>
	<node lat="62.12934722416761" lon="8.06568611459383" id="-29139">
		<tag k="fixme" v="consider natural=peak for the most distinct mountains in the district" />
		<tag k="name" v="Digerkampen" />
		<tag k="natural" v="hill" />
		<tag k="place" v="locality" />
		<tag k="ssr:stedsnr" v="435235" />
	</node>
	<node lat="62.15021389022109" lon="8.793141672383806" id="-29140">
		<tag k="alt_name" v="Ettare Rjuphovda" />
		<tag k="fixme" v="consider natural=peak for the most distinct mountains in the district" />
		<tag k="name" v="Rjuphovda" />
		<tag k="natural" v="hill" />
		<tag k="place" v="locality" />
		<tag k="ssr:stedsnr" v="435919" />
	</node>
	<node lat="62.15528610747743" lon="8.984202782686486" id="-29141">
		<tag k="fixme" v="consider natural=peak for the most distinct mountains in the district" />
		<tag k="name" v="Skardfjellet" />
		<tag k="natural" v="hill" />
		<tag k="place" v="locality" />
		<tag k="ssr:stedsnr" v="435924" />
	</node>
	<node lat="62.15382499625851" lon="9.015711102895564" id="-29142">
		<tag k="fixme" v="consider natural=peak for the most distinct mountains in the district" />
		<tag k="name" v="Raudfjellet" />
		<tag k="natural" v="hill" />
		<tag k="place" v="locality" />
		<tag k="ssr:stedsnr" v="435925" />
	</node>
	<node lat="62.13544444276366" lon="8.83861666199138" id="-29145">
		<tag k="alt_name" v="Steinehøi;Staksteinhøe" />
		<tag k="fixme" v="consider natural=peak for the most distinct mountains in the district" />
		<tag k="name" v="Steinehøe" />
		<tag k="natural" v="hill" />
		<tag k="place" v="locality" />
		<tag k="ssr:stedsnr" v="435938" />
	</node>
	<node lat="62.12891389204654" lon="8.982144435206102" id="-29147">
		<tag k="name" v="Baklihaugen" />
		<tag k="natural" v="hill" />
		<tag k="place" v="locality" />
		<tag k="ssr:stedsnr" v="435956" />
	</node>
	<node lat="62.0597666696659" lon="8.944424993019231" id="-29149">
		<tag k="alt_name" v="Tjuvranden" />
		<tag k="fixme" v="consider natural=peak for the most distinct mountains in the district" />
		<tag k="name" v="Tjuven" />
		<tag k="natural" v="hill" />
		<tag k="place" v="locality" />
		<tag k="ssr:stedsnr" v="435597" />
	</node>
	<node lat="62.19089444629164" lon="8.283549993377127" id="-29153">
		<tag k="alt_name" v="Koiehøi" />
		<tag k="name" v="Koiehøe" />
		<tag k="natural" v="hill" />
		<tag k="place" v="locality" />
		<tag k="ssr:stedsnr" v="435838" />
	</node>
	<node lat="62.31733611505316" lon="8.270738892589756" id="-29159">
		<tag k="fixme" v="consider natural=peak for the most distinct mountains in the district" />
		<tag k="name" v="Mjølrakkhøi" />
		<tag k="natural" v="hill" />
		<tag k="place" v="locality" />
		<tag k="ssr:stedsnr" v="436245" />
	</node>
	<node lat="62.354436113366276" lon="8.417388898266076" id="-29161">
		<tag k="fixme" v="consider natural=peak for the most distinct mountains in the district" />
		<tag k="name" v="Brønnhøa" />
		<tag k="natural" v="hill" />
		<tag k="place" v="locality" />
		<tag k="ssr:stedsnr" v="436349" />
	</node>
	<node lat="62.118999995559605" lon="8.568508326876946" id="-29164">
		<tag k="alt_name" v="Svarthovda, nordre" />
		<tag k="fixme" v="consider natural=peak for the most distinct mountains in the district" />
		<tag k="name" v="Nordre Svarthovda" />
		<tag k="natural" v="hill" />
		<tag k="place" v="locality" />
		<tag k="ssr:stedsnr" v="436749" />
	</node>
	<node lat="62.2037583376802" lon="8.782319448543548" id="-29165">
		<tag k="fixme" v="consider natural=peak for the most distinct mountains in the district" />
		<tag k="name" v="Svartnobben" />
		<tag k="natural" v="hill" />
		<tag k="place" v="locality" />
		<tag k="ssr:stedsnr" v="436930" />
	</node>
	<node lat="62.19674166963761" lon="8.820305562180915" id="-29167">
		<tag k="fixme" v="consider natural=peak for the most distinct mountains in the district" />
		<tag k="name" v="Sjongsnobben" />
		<tag k="natural" v="hill" />
		<tag k="place" v="locality" />
		<tag k="ssr:stedsnr" v="436941" />
	</node>
	<node lat="62.208430553607776" lon="9.038980555943809" id="-29169">
		<tag k="name" v="Veslstrålsjøbotn" />
		<tag k="natural" v="valley" />
		<tag k="place" v="locality" />
		<tag k="ssr:stedsnr" v="436949" />
	</node>
	<node lat="62.09786388984239" lon="8.760438892149446" id="-29172">
		<tag k="alt_name" v="Molie" />
		<tag k="name" v="Molii" />
		<tag k="natural" v="slope" />
		<tag k="place" v="locality" />
		<tag k="ssr:stedsnr" v="436900" />
	</node>
	<node lat="62.06603055300721" lon="8.45715277258938" id="-29174">
		<tag k="alt_name" v="Tømmelislette" />
		<tag k="name" v="Tømellesletti" />
		<tag k="place" v="locality" />
		<tag k="ssr:stedsnr" v="436974" />
	</node>
	<node lat="62.24739444623165" lon="9.073180560926144" id="-29175">
		<tag k="fixme" v="consider natural=peak for the most distinct mountains in the district" />
		<tag k="loc_name" v="Mjogsjøhøe" />
		<tag k="name" v="Mjogsjøhøi" />
		<tag k="natural" v="hill" />
		<tag k="place" v="locality" />
		<tag k="ssr:stedsnr" v="436988" />
	</node>
	<node lat="62.221677779985654" lon="8.914049990754016" id="-29176">
		<tag k="alt_name" v="Reshøi" />
		<tag k="fixme" v="consider natural=peak for the most distinct mountains in the district" />
		<tag k="name" v="Reshøe" />
		<tag k="natural" v="hill" />
		<tag k="place" v="locality" />
		<tag k="ssr:stedsnr" v="436997" />
	</node>
	<node lat="62.268116667627496" lon="8.653341673109582" id="-29177">
		<tag k="name" v="Isakhaugen" />
		<tag k="natural" v="hill" />
		<tag k="place" v="locality" />
		<tag k="ssr:stedsnr" v="437325" />
	</node>
	<node lat="62.215049995539495" lon="9.272300003102956" id="-29180">
		<tag k="name" v="Storslågån" />
		<tag k="natural" v="valley" />
		<tag k="place" v="locality" />
		<tag k="ssr:stedsnr" v="495746" />
	</node>
	<node lat="62.19800555419762" lon="8.671205559121077" id="-29181">
		<tag k="fixme" v="consider natural=peak for the most distinct mountains in the district" />
		<tag k="name" v="Søre Sæterhøe" />
		<tag k="natural" v="hill" />
		<tag k="place" v="locality" />
		<tag k="ssr:stedsnr" v="495839" />
	</node>
	<node lat="62.246097220557736" lon="8.165055553925011" id="-29183">
		<tag k="fixme" v="consider natural=peak for the most distinct mountains in the district" />
		<tag k="name" v="Rånåkollen" />
		<tag k="natural" v="hill" />
		<tag k="place" v="locality" />
		<tag k="ssr:stedsnr" v="496123" />
	</node>
	<node lat="62.20205277545238" lon="8.164272222090155" id="-29186">
		<tag k="loc_name" v="Kringluthaugen" />
		<tag k="name" v="Kringluthaugane" />
		<tag k="natural" v="hill" />
		<tag k="place" v="locality" />
		<tag k="ssr:stedsnr" v="496171" />
	</node>
	<node lat="62.32486111507612" lon="8.720891662902824" id="-29188">
		<tag k="alt_name" v="Grynningslia" />
		<tag k="loc_name" v="Grynningslie" />
		<tag k="name" v="Grynningslii" />
		<tag k="natural" v="slope" />
		<tag k="old_name" v="Grynnigslii" />
		<tag k="place" v="locality" />
		<tag k="ssr:stedsnr" v="496439" />
	</node>
	<node lat="62.347499995995925" lon="8.62268333750438" id="-29189">
		<tag k="name" v="Flittilii" />
		<tag k="natural" v="slope" />
		<tag k="place" v="locality" />
		<tag k="ssr:stedsnr" v="497346" />
	</node>
	<node lat="62.04117777682077" lon="8.977169449965377" id="-29195">
		<tag k="name" v="Kristofferhaugen" />
		<tag k="natural" v="hill" />
		<tag k="place" v="locality" />
		<tag k="ssr:stedsnr" v="496587" />
	</node>
	<node lat="62.3027055573037" lon="8.888750005427495" id="-29198">
		<tag k="fixme" v="consider natural=peak for the most distinct mountains in the district" />
		<tag k="name" v="Høgtunga" />
		<tag k="natural" v="hill" />
		<tag k="place" v="locality" />
		<tag k="ssr:stedsnr" v="496665" />
	</node>
	<node lat="62.24433889339063" lon="8.87571945047931" id="-29207">
		<tag k="fixme" v="consider natural=peak for the most distinct mountains in the district" />
		<tag k="name" v="Øvre Andershøe" />
		<tag k="natural" v="hill" />
		<tag k="place" v="locality" />
		<tag k="ssr:stedsnr" v="496985" />
	</node>
	<node lat="62.248499998216985" lon="8.234450000942497" id="-29222">
		<tag k="name" v="Holo" />
		<tag k="natural" v="valley" />
		<tag k="place" v="locality" />
		<tag k="ssr:stedsnr" v="535134" />
	</node>
	<node lat="62.1182416665514" lon="8.660633328607682" id="-29226">
		<tag k="name" v="Springarbakken" />
		<tag k="natural" v="slope" />
		<tag k="place" v="locality" />
		<tag k="ssr:stedsnr" v="535434" />
	</node>
	<node lat="62.098827777326605" lon="8.85711666542217" id="-29230">
		<tag k="name" v="Brattbakken" />
		<tag k="natural" v="slope" />
		<tag k="place" v="locality" />
		<tag k="ssr:stedsnr" v="535635" />
	</node>
	<node lat="62.05946110834585" lon="9.031616669445105" id="-29237">
		<tag k="name" v="Saltslette" />
		<tag k="place" v="locality" />
		<tag k="ssr:stedsnr" v="535746" />
	</node>
	<node lat="62.094694447609236" lon="9.062533339540417" id="-29238">
		<tag k="name" v="Tjyrugryta" />
		<tag k="natural" v="valley" />
		<tag k="place" v="locality" />
		<tag k="ssr:stedsnr" v="535840" />
	</node>
	<node lat="62.10302222551566" lon="9.096711102716235" id="-29239">
		<tag k="name" v="Steindalen" />
		<tag k="natural" v="valley" />
		<tag k="place" v="locality" />
		<tag k="ssr:stedsnr" v="535843" />
	</node>
	<node lat="62.09418611536226" lon="9.102916669013878" id="-29240">
		<tag k="name" v="Høgranden" />
		<tag k="natural" v="hill" />
		<tag k="place" v="locality" />
		<tag k="ssr:stedsnr" v="535845" />
	</node>
	<node lat="62.1324444486832" lon="9.1155888883298" id="-29243">
		<tag k="name" v="Skardet" />
		<tag k="natural" v="valley" />
		<tag k="place" v="locality" />
		<tag k="ssr:stedsnr" v="535945" />
	</node>
	<node lat="62.241655559913625" lon="8.12298610602601" id="-29245">
		<tag k="name" v="Tverråkvitlan" />
		<tag k="natural" v="slope" />
		<tag k="place" v="locality" />
		<tag k="ssr:stedsnr" v="536198" />
	</node>
	<node lat="62.28521666603567" lon="8.152172227986213" id="-29247">
		<tag k="name" v="Nergarsberget" />
		<tag k="natural" v="hill" />
		<tag k="place" v="locality" />
		<tag k="ssr:stedsnr" v="536237" />
	</node>
	<node lat="62.16277222646275" lon="8.626572220930088" id="-29248">
		<tag k="name" v="Trollhaugen" />
		<tag k="natural" v="hill" />
		<tag k="place" v="locality" />
		<tag k="ssr:stedsnr" v="536328" />
	</node>
	<node lat="62.27464999958105" lon="9.280563895719489" id="-29262">
		<tag k="name" v="Bandranden" />
		<tag k="natural" v="valley" />
		<tag k="place" v="locality" />
		<tag k="ssr:stedsnr" v="557479" />
	</node>
	<node lat="62.088666667583645" lon="8.74218889401171" id="-29263">
		<tag k="name" v="Søre Vigga" />
		<tag k="natural" v="slope" />
		<tag k="place" v="locality" />
		<tag k="ssr:stedsnr" v="557571" />
	</node>
	<node lat="62.19669722088315" lon="9.28710833707526" id="-29264">
		<tag k="fixme" v="consider natural=peak for the most distinct mountains in the district" />
		<tag k="name" v="Rundhøe" />
		<tag k="natural" v="hill" />
		<tag k="place" v="locality" />
		<tag k="ssr:stedsnr" v="556735" />
	</node>
	<node lat="62.17987777339481" lon="9.22394166674298" id="-29265">
		<tag k="fixme" v="consider natural=peak for the most distinct mountains in the district" />
		<tag k="name" v="Grisunghøe" />
		<tag k="natural" v="hill" />
		<tag k="place" v="locality" />
		<tag k="ssr:stedsnr" v="556738" />
	</node>
	<node lat="62.240061110480866" lon="8.929374990421405" id="-29272">
		<tag k="name" v="Vesltverråbotn" />
		<tag k="natural" v="valley" />
		<tag k="place" v="locality" />
		<tag k="ssr:stedsnr" v="556989" />
	</node>
	<node lat="62.23611110939665" lon="9.100455552802085" id="-29274">
		<tag k="name" v="Groposkardet" />
		<tag k="natural" v="valley" />
		<tag k="place" v="locality" />
		<tag k="ssr:stedsnr" v="556997" />
	</node>
	<node lat="62.194827779208175" lon="8.354749998722294" id="-29275">
		<tag k="alt_name" v="Høi, nordre" />
		<tag k="fixme" v="consider natural=peak for the most distinct mountains in the district" />
		<tag k="name" v="Nordre Høe" />
		<tag k="natural" v="hill" />
		<tag k="place" v="locality" />
		<tag k="ssr:stedsnr" v="556852" />
	</node>
	<node lat="62.33174444664255" lon="9.165533325977636" id="-29277">
		<tag k="fixme" v="consider natural=peak for the most distinct mountains in the district" />
		<tag k="name" v="Drugshøeggen" />
		<tag k="natural" v="hill" />
		<tag k="place" v="locality" />
		<tag k="ssr:stedsnr" v="557390" />
	</node>
	<node lat="62.32573610951988" lon="8.740119451136893" id="-29278">
		<tag k="fixme" v="consider natural=peak for the most distinct mountains in the district" />
		<tag k="name" v="Grynningskampen" />
		<tag k="natural" v="hill" />
		<tag k="place" v="locality" />
		<tag k="ssr:stedsnr" v="557391" />
	</node>
	<node lat="62.122149998311784" lon="8.703008332618948" id="-29281">
		<tag k="name" v="Lesjaleira" />
		<tag k="place" v="locality" />
		<tag k="ssr:stedsnr" v="557729" />
	</node>
	<node lat="62.216002777953896" lon="8.910966659203291" id="-29282">
		<tag k="alt_name" v="Bukonohøi" />
		<tag k="fixme" v="consider natural=peak for the most distinct mountains in the district" />
		<tag k="name" v="Bukonohøe" />
		<tag k="natural" v="hill" />
		<tag k="place" v="locality" />
		<tag k="ssr:stedsnr" v="557924" />
	</node>
	<node lat="62.22111944738042" lon="9.123694444494383" id="-29284">
		<tag k="fixme" v="consider natural=peak for the most distinct mountains in the district" />
		<tag k="name" v="Mjogsjøoksli" />
		<tag k="natural" v="hill" />
		<tag k="place" v="locality" />
		<tag k="ssr:stedsnr" v="557932" />
	</node>
	<node lat="62.248102778893795" lon="8.34853332569098" id="-29292">
		<tag k="name" v="Turrhaugan" />
		<tag k="natural" v="hill" />
		<tag k="place" v="locality" />
		<tag k="ssr:stedsnr" v="595096" />
	</node>
	<node lat="62.074622221212984" lon="8.975783330666523" id="-29299">
		<tag k="name" v="Kringlothammeren" />
		<tag k="natural" v="hill" />
		<tag k="place" v="locality" />
		<tag k="ssr:stedsnr" v="595761" />
	</node>
	<node lat="62.113866669341704" lon="9.079588888599549" id="-29302">
		<tag k="name" v="Tungnebben" />
		<tag k="natural" v="hill" />
		<tag k="place" v="locality" />
		<tag k="ssr:stedsnr" v="595927" />
	</node>
	<node lat="62.120752778514586" lon="9.062480555568511" id="-29303">
		<tag k="name" v="Bruslette" />
		<tag k="place" v="locality" />
		<tag k="ssr:stedsnr" v="595930" />
	</node>
	<node lat="62.216624999379434" lon="8.303905553671022" id="-29304">
		<tag k="name" v="Smørhaugen" />
		<tag k="natural" v="hill" />
		<tag k="place" v="locality" />
		<tag k="ssr:stedsnr" v="596074" />
	</node>
	<node lat="62.237811111011716" lon="8.348161114776968" id="-29306">
		<tag k="name" v="Kleivberget" />
		<tag k="natural" v="hill" />
		<tag k="place" v="locality" />
		<tag k="ssr:stedsnr" v="596110" />
	</node>
	<node lat="62.14786944204304" lon="8.795738885662574" id="-29313">
		<tag k="name" v="Midtre Rjuphovda" />
		<tag k="natural" v="hill" />
		<tag k="place" v="locality" />
		<tag k="ssr:stedsnr" v="596507" />
	</node>
	<node lat="62.19062777608842" lon="8.688958331653815" id="-29316">
		<tag k="name" v="Svarthovda" />
		<tag k="natural" v="hill" />
		<tag k="place" v="locality" />
		<tag k="ssr:stedsnr" v="596636" />
	</node>
	<node lat="62.1486138896915" lon="9.056866669173532" id="-29321">
		<tag k="name" v="Svartdalslie" />
		<tag k="natural" v="slope" />
		<tag k="place" v="locality" />
		<tag k="ssr:stedsnr" v="596891" />
	</node>
	<node lat="62.26811944887377" lon="8.247305563560737" id="-29323">
		<tag k="name" v="Systdalen" />
		<tag k="natural" v="valley" />
		<tag k="place" v="locality" />
		<tag k="ssr:stedsnr" v="597131" />
	</node>
	<node lat="62.167230555512134" lon="8.632766661773696" id="-29325">
		<tag k="name" v="Brennranden" />
		<tag k="natural" v="hill" />
		<tag k="place" v="locality" />
		<tag k="ssr:stedsnr" v="597680" />
	</node>
	<node lat="62.045002777154714" lon="8.809452772336272" id="-29327">
		<tag k="name" v="Søre Kjølhaugen" />
		<tag k="natural" v="hill" />
		<tag k="old_name" v="Kjølhaugen, s" />
		<tag k="place" v="locality" />
		<tag k="ssr:stedsnr" v="617571" />
	</node>
	<node lat="62.30208333241213" lon="8.980230554632412" id="-29328">
		<tag k="name" v="Lågvasseggen" />
		<tag k="natural" v="ridge" />
		<tag k="place" v="locality" />
		<tag k="ssr:stedsnr" v="617429" />
	</node>
	<node lat="62.15769167058926" lon="8.163288884487404" id="-29329">
		<tag k="fixme" v="consider natural=peak for the most distinct mountains in the district" />
		<tag k="loc_name" v="Skarvehøe" />
		<tag k="name" v="Skarvehøi" />
		<tag k="natural" v="hill" />
		<tag k="place" v="locality" />
		<tag k="ssr:stedsnr" v="617244" />
	</node>
	<node lat="62.07084722130952" lon="8.196872221906565" id="-29332">
		<tag k="alt_name" v="Løyftet, nordre" />
		<tag k="loc_name" v="Nørdre Løyftet" />
		<tag k="name" v="Nordre Løyftet" />
		<tag k="natural" v="valley" />
		<tag k="place" v="locality" />
		<tag k="ssr:stedsnr" v="617280" />
	</node>
	<node lat="62.07593610674095" lon="8.070925005175486" id="-29333">
		<tag k="fixme" v="consider natural=peak for the most distinct mountains in the district" />
		<tag k="loc_name" v="Gråhøe" />
		<tag k="name" v="Gråhø" />
		<tag k="natural" v="hill" />
		<tag k="place" v="locality" />
		<tag k="ssr:stedsnr" v="617281" />
	</node>
	<node lat="62.25589999917081" lon="8.854108334440916" id="-29334">
		<tag k="fixme" v="consider natural=peak for the most distinct mountains in the district" />
		<tag k="name" v="Lågtunga" />
		<tag k="natural" v="hill" />
		<tag k="place" v="locality" />
		<tag k="ssr:stedsnr" v="617452" />
	</node>
	<node lat="62.2609888896068" lon="8.803669447458038" id="-29335">
		<tag k="name" v="Dansen" />
		<tag k="natural" v="hill" />
		<tag k="place" v="locality" />
		<tag k="ssr:stedsnr" v="617455" />
	</node>
	<node lat="62.115875001405946" lon="9.019536109021894" id="-29341">
		<tag k="fixme" v="consider natural=peak for the most distinct mountains in the district" />
		<tag k="name" v="Veslfjellet" />
		<tag k="natural" v="hill" />
		<tag k="place" v="locality" />
		<tag k="ssr:stedsnr" v="617908" />
	</node>
	<node lat="62.16691388696669" lon="9.096038891185275" id="-29342">
		<tag k="fixme" v="consider natural=peak for the most distinct mountains in the district" />
		<tag k="name" v="Storsmørbollen" />
		<tag k="natural" v="hill" />
		<tag k="place" v="locality" />
		<tag k="ssr:stedsnr" v="617910" />
	</node>
	<node lat="62.15456993870988" lon="8.80495513356232" id="-29343">
		<tag k="fixme" v="multiple name tags, choose one and add the other to alt_name; consider natural=peak for the most distinct mountains in the district" />
		<tag k="name" v="Stokksteinhøi;Vetle Horrungshaugen" />
		<tag k="natural" v="hill" />
		<tag k="place" v="locality" />
		<tag k="ssr:stedsnr" v="617911" />
	</node>
	<node lat="62.141349199477666" lon="9.15480543074959" id="-29344">
		<tag k="alt_name" v="Grønseterhøe" />
		<tag k="fixme" v="multiple name tags, choose one and add the other to alt_name; consider natural=peak for the most distinct mountains in the district" />
		<tag k="loc_name" v="Grønhøe" />
		<tag k="name" v="Grønhøi;Grønsæterhøe" />
		<tag k="natural" v="hill" />
		<tag k="place" v="locality" />
		<tag k="ssr:stedsnr" v="617918" />
	</node>
	<node lat="62.21182778051301" lon="8.25638610647406" id="-29348">
		<tag k="name" v="Pikutrandane" />
		<tag k="natural" v="slope" />
		<tag k="place" v="locality" />
		<tag k="ssr:stedsnr" v="617862" />
	</node>
	<node lat="62.29646110790421" lon="8.580174998386315" id="-29355">
		<tag k="name" v="Vangsflyi" />
		<tag k="place" v="locality" />
		<tag k="ssr:stedsnr" v="618220" />
	</node>
	<node lat="62.29080277587096" lon="8.451563891794434" id="-29356">
		<tag k="alt_name" v="Svaningsløypet, nordre;Nordre Svaningsløypet" />
		<tag k="name" v="Nørdre Svaningsløypet" />
		<tag k="natural" v="valley" />
		<tag k="place" v="locality" />
		<tag k="ssr:stedsnr" v="618226" />
	</node>
	<node lat="62.26840833780395" lon="8.345041671827888" id="-29361">
		<tag k="name" v="Langranden" />
		<tag k="natural" v="hill" />
		<tag k="place" v="locality" />
		<tag k="ssr:stedsnr" v="656084" />
	</node>
	<node lat="62.24667222035273" lon="8.331813896479984" id="-29362">
		<tag k="name" v="Fuglleikflate" />
		<tag k="place" v="locality" />
		<tag k="ssr:stedsnr" v="656090" />
	</node>
	<node lat="62.27667777552803" lon="8.37220277693343" id="-29375">
		<tag k="name" v="Ellandsteppa" />
		<tag k="place" v="locality" />
		<tag k="ssr:stedsnr" v="657129" />
	</node>
	<node lat="62.233772222797306" lon="8.433194436867332" id="-29382">
		<tag k="name" v="Bjønnabakken" />
		<tag k="natural" v="slope" />
		<tag k="place" v="locality" />
		<tag k="ssr:stedsnr" v="657460" />
	</node>
</osm>
