<?xml version="1.0" encoding="UTF-8"?>
<<<<<<< HEAD
<osm version="0.6" generator="osmapis">
	<node lat="62.2363500014489" lon="8.251744441813681" id="-16215">
		<tag k="name" v="Øygardsmoen" />
=======
<osm generator="osmapis" version="0.6">
	<node id="-362493" lat="62.1259305581" lon="9.00441111435">
		<tag k="name" v="Buin" />
		<tag k="place" v="locality" />
		<tag k="ssr:stedsnr" v="353899" />
	</node>
	<node id="-362492" lat="62.1388305551" lon="9.01928333773">
		<tag k="name" v="Hovaukkjørre" />
		<tag k="place" v="locality" />
		<tag k="ssr:stedsnr" v="353875" />
	</node>
	<node id="-362068" lat="62.1783111142" lon="8.6177861039">
		<tag k="name" v="Jolykkja" />
		<tag k="place" v="locality" />
		<tag k="ssr:stedsnr" v="960308" />
	</node>
	<node id="-361462" lat="62.1125666638" lon="8.64864721624">
		<tag k="name" v="Bolkeholet" />
		<tag k="place" v="locality" />
		<tag k="ssr:stedsnr" v="475574" />
	</node>
	<node id="-362995" lat="62.0856527763" lon="9.0767916626">
		<tag k="alt_name" v="Breimyre" />
		<tag k="name" v="Breidmyri" />
		<tag k="natural" v="wetland" />
		<tag k="ssr:stedsnr" v="860640" />
	</node>
	<node id="-361969" lat="62.1547416705" lon="9.04077500011">
		<tag k="name" v="Smørbollmyrin" />
		<tag k="natural" v="wetland" />
		<tag k="ssr:stedsnr" v="921904" />
	</node>
	<node id="-362480" lat="62.1783305563" lon="8.67906388409">
		<tag k="name" v="Langranden" />
		<tag k="place" v="locality" />
		<tag k="ssr:stedsnr" v="353679" />
	</node>
	<node id="-362479" lat="62.1017694404" lon="8.85507499208">
		<tag k="name" v="Jolykkja" />
		<tag k="place" v="locality" />
		<tag k="ssr:stedsnr" v="353651" />
	</node>
	<node id="-361453" lat="62.0728388909" lon="8.45231666163">
		<tag k="name" v="Flittimyre" />
		<tag k="natural" v="wetland" />
		<tag k="ssr:stedsnr" v="475335" />
	</node>
	<node id="-361450" lat="62.246316665" lon="8.12057777634">
		<tag k="historic" v="shieling" />
		<tag k="name" v="Nedre Stølen" />
		<tag k="place" v="locality" />
		<tag k="ssr:stedsnr" v="475222" />
	</node>
	<node id="-362985" lat="62.2057805592" lon="8.45155833042">
		<tag k="name" v="Stormyre" />
		<tag k="natural" v="wetland" />
		<tag k="ssr:stedsnr" v="840470" />
	</node>
	<node id="-362979" lat="62.1120638933" lon="8.9166861086">
		<tag k="name" v="Hattremsleira" />
		<tag k="place" v="locality" />
		<tag k="ssr:stedsnr" v="839984" />
	</node>
	<node id="-361441" lat="62.105061112" lon="9.01818054682">
		<tag k="name" v="Urmorkje" />
		<tag k="place" v="locality" />
		<tag k="ssr:stedsnr" v="474889" />
	</node>
	<node id="-362976" lat="62.1021555592" lon="9.09389443618">
		<tag k="landuse" v="quarry" />
		<tag k="name" v="Steinbrote" />
		<tag k="ssr:stedsnr" v="839835" />
	</node>
	<node id="-362974" lat="62.10149722" lon="9.07495832922">
		<tag k="name" v="Vassbolet" />
		<tag k="natural" v="wetland" />
		<tag k="ssr:stedsnr" v="839831" />
	</node>
	<node id="-362460" lat="62.2288277778" lon="8.26835278507">
		<tag k="name" v="Storlie" />
		<tag k="place" v="locality" />
		<tag k="ssr:stedsnr" v="353068" />
	</node>
	<node id="-362459" lat="62.2344083342" lon="8.26598611364">
		<tag k="name" v="Øyan" />
		<tag k="place" v="locality" />
		<tag k="ssr:stedsnr" v="353066" />
	</node>
	<node id="-361434" lat="62.0648472249" lon="9.04266944547">
		<tag k="name" v="Borgårandan" />
		<tag k="place" v="locality" />
		<tag k="ssr:stedsnr" v="474760" />
	</node>
	<node id="-362454" lat="62.1016666632" lon="8.561352774">
		<tag k="name" v="Mørkonge" />
		<tag k="place" v="locality" />
		<tag k="ssr:stedsnr" v="318727" />
	</node>
	<node id="-361209" lat="62.2691749989" lon="8.19075000961">
		<tag k="name" v="Lykkjemyri" />
		<tag k="natural" v="wetland" />
		<tag k="ssr:stedsnr" v="253160" />
	</node>
	<node id="-361939" lat="62.2601083291" lon="8.37561111913">
		<tag k="alt_name" v="Teppmyre" />
		<tag k="name" v="Teppmyri" />
		<tag k="natural" v="wetland" />
		<tag k="ssr:stedsnr" v="921290" />
	</node>
	<node id="-361426" lat="62.1025361116" lon="8.83132222103">
		<tag k="historic" v="shieling" />
		<tag k="name" v="Bottilsætre" />
		<tag k="place" v="locality" />
		<tag k="ssr:stedsnr" v="474652" />
	</node>
	<node id="-362955" lat="62.2423583357" lon="8.20941387993">
		<tag k="name" v="Storøymoen" />
		<tag k="place" v="locality" />
		<tag k="ssr:stedsnr" v="839158" />
	</node>
	<node id="-361929" lat="62.1101944452" lon="8.71005556318">
		<tag k="name" v="Kvitsandmyra" />
		<tag k="natural" v="wetland" />
		<tag k="ssr:stedsnr" v="778535" />
	</node>
	<node id="-361927" lat="62.1553500026" lon="8.65668889063">
		<tag k="name" v="Motterudholen" />
		<tag k="place" v="locality" />
		<tag k="ssr:stedsnr" v="778524" />
	</node>
	<node id="-361911" lat="62.0460694444" lon="8.84029721388">
		<tag k="alt_name" v="Dalfonn, s" />
		<tag k="name" v="Søre Dalfonn" />
		<tag k="natural" v="glacier" />
		<tag k="ssr:stedsnr" v="739568" />
	</node>
	<node id="-362420" lat="62.1171999961" lon="8.72193055929">
		<tag k="name" v="Kråkholen" />
		<tag k="place" v="locality" />
		<tag k="ssr:stedsnr" v="204366" />
	</node>
	<node id="-361898" lat="62.0754916626" lon="8.46160277035">
		<tag k="name" v="Klomre" />
		<tag k="place" v="locality" />
		<tag k="ssr:stedsnr" v="901384" />
	</node>
	<node id="-361894" lat="62.1092333376" lon="8.90788333069">
		<tag k="name" v="Kaldanmyra" />
		<tag k="natural" v="wetland" />
		<tag k="ssr:stedsnr" v="900982" />
	</node>
	<node id="-361893" lat="62.1034666658" lon="8.89290277173">
		<tag k="name" v="Flagestadsætre" />
		<tag k="place" v="locality" />
		<tag k="ssr:stedsnr" v="900980" />
	</node>
	<node id="-361890" lat="62.1307111127" lon="8.86165554829">
		<tag k="name" v="Skaret" />
		<tag k="natural" v="stone" />
		<tag k="ssr:stedsnr" v="900739" />
	</node>
	<node id="-361968" lat="62.1503666674" lon="9.09023055481">
		<tag k="name" v="Tungmyrin" />
		<tag k="natural" v="wetland" />
		<tag k="ssr:stedsnr" v="921899" />
	</node>
	<node id="-361883" lat="62.148016671" lon="8.77874999283">
		<tag k="name" v="Hella" />
		<tag k="natural" v="stone" />
		<tag k="ssr:stedsnr" v="900564" />
	</node>
	<node id="-361881" lat="62.2342861081" lon="8.13572500332">
		<tag k="name" v="Svamyre" />
		<tag k="natural" v="wetland" />
		<tag k="ssr:stedsnr" v="900241" />
	</node>
	<node id="-361875" lat="62.1101750037" lon="8.86361388968">
		<tag k="name" v="Åselykkja" />
		<tag k="place" v="locality" />
		<tag k="ssr:stedsnr" v="899650" />
	</node>
	<node id="-361362" lat="62.2437277798" lon="8.32831945278">
		<tag k="landuse" v="meadow" />
		<tag k="name" v="Kvean" />
		<tag k="ssr:stedsnr" v="232110" />
	</node>
	<node id="-362385" lat="62.2625027817" lon="8.2869749964">
		<tag k="alt_name" v="Myran" />
		<tag k="name" v="Myrane" />
		<tag k="natural" v="wetland" />
		<tag k="ssr:stedsnr" v="193271" />
	</node>
	<node id="-362895" lat="62.0535805543" lon="8.79924999641">
		<tag k="alt_name" v="Dalfonn, nordre" />
		<tag k="name" v="Nordre Dalfonn" />
		<tag k="natural" v="glacier" />
		<tag k="ssr:stedsnr" v="799590" />
	</node>
	<node id="-362893" lat="62.2406111139" lon="8.13491943611">
		<tag k="name" v="Kvennhusmyre" />
		<tag k="natural" v="wetland" />
		<tag k="ssr:stedsnr" v="794206" />
	</node>
	<node id="-362892" lat="62.1622583327" lon="8.6389055538">
		<tag k="name" v="Rundmyre" />
		<tag k="natural" v="wetland" />
		<tag k="ssr:stedsnr" v="779679" />
	</node>
	<node id="-361353" lat="62.1645388904" lon="8.62731389388">
		<tag k="name" v="Langmyre" />
		<tag k="natural" v="wetland" />
		<tag k="ssr:stedsnr" v="294312" />
	</node>
	<node id="-361352" lat="62.0739138868" lon="8.45698611846">
		<tag k="name" v="Klokkarslette" />
>>>>>>> e1d4bc35ff8a6074a6f2e91616a996b547c36f15
		<tag k="place" v="locality" />
		<tag k="ssr:stedsnr" v="232172" />
	</node>
<<<<<<< HEAD
	<node lat="62.13921944643201" lon="8.646863887817993" id="-16223">
		<tag k="name" v="Bårdsruste" />
		<tag k="place" v="locality" />
		<tag k="ssr:stedsnr" v="232463" />
	</node>
	<node lat="62.105741668295934" lon="8.886508332104496" id="-16234">
		<tag k="name" v="Fuggelluggen" />
=======
	<node id="-361863" lat="62.2448111073" lon="8.11204722974">
		<tag k="historic" v="shieling" />
		<tag k="name" v="Øvre Stølen" />
		<tag k="place" v="locality" />
		<tag k="ssr:stedsnr" v="718230" />
	</node>
	<node id="-362884" lat="62.1697472265" lon="8.57826388647">
		<tag k="name" v="Stormyre" />
		<tag k="natural" v="wetland" />
		<tag k="ssr:stedsnr" v="779345" />
	</node>
	<node id="-362361" lat="62.0550694472" lon="8.37683611904">
		<tag k="name" v="Steinkloppranden" />
>>>>>>> e1d4bc35ff8a6074a6f2e91616a996b547c36f15
		<tag k="place" v="locality" />
		<tag k="ssr:stedsnr" v="232974" />
	</node>
<<<<<<< HEAD
	<node lat="62.09341388820267" lon="8.932308334958844" id="-16243">
		<tag k="alt_name" v="Viflaten" />
		<tag k="loc_name" v="Vidfloten" />
		<tag k="name" v="Vidflotten" />
		<tag k="place" v="locality" />
		<tag k="ssr:stedsnr" v="48218" />
	</node>
	<node lat="62.14703889016508" lon="8.663594445447728" id="-16249">
		<tag k="name" v="Tangan" />
		<tag k="place" v="locality" />
		<tag k="ssr:stedsnr" v="50503" />
	</node>
	<node lat="62.15220832896151" lon="8.638841661288039" id="-16250">
		<tag k="name" v="Kismorkje" />
=======
	<node id="-361334" lat="62.0651361081" lon="8.40953611291">
		<tag k="name" v="Lurverandan" />
		<tag k="place" v="locality" />
		<tag k="ssr:stedsnr" v="293341" />
	</node>
	<node id="-362354" lat="62.1102361132" lon="8.98637499444">
		<tag k="name" v="Ospeslette" />
		<tag k="place" v="locality" />
		<tag k="ssr:stedsnr" v="172000" />
	</node>
	<node id="-361328" lat="62.206913889" lon="8.37135832515">
		<tag k="name" v="Raudbergmyre" />
		<tag k="natural" v="wetland" />
		<tag k="ssr:stedsnr" v="293090" />
	</node>
	<node id="-362862" lat="62.1331305587" lon="8.79199444085">
		<tag k="name" v="Liabrenna" />
>>>>>>> e1d4bc35ff8a6074a6f2e91616a996b547c36f15
		<tag k="place" v="locality" />
		<tag k="ssr:stedsnr" v="50507" />
	</node>
<<<<<<< HEAD
	<node lat="62.13946388946536" lon="8.676908342421317" id="-16251">
		<tag k="name" v="Hosetmoen" />
=======
	<node id="-361478" lat="62.1066305536" lon="8.90858611166">
		<tag k="name" v="Joflaten" />
		<tag k="place" v="locality" />
		<tag k="ssr:stedsnr" v="475989" />
	</node>
	<node id="-362858" lat="62.1113472248" lon="8.80858055492">
		<tag k="name" v="Krekan" />
>>>>>>> e1d4bc35ff8a6074a6f2e91616a996b547c36f15
		<tag k="place" v="locality" />
		<tag k="ssr:stedsnr" v="50479" />
	</node>
<<<<<<< HEAD
	<node lat="62.10184166519869" lon="8.873172226948482" id="-16253">
		<tag k="name" v="Brekkelykkja" />
=======
	<node id="-361319" lat="62.0948527798" lon="9.09918054706">
		<tag k="name" v="Slettholen" />
>>>>>>> e1d4bc35ff8a6074a6f2e91616a996b547c36f15
		<tag k="place" v="locality" />
		<tag k="ssr:stedsnr" v="50604" />
	</node>
<<<<<<< HEAD
	<node lat="62.152219442772775" lon="8.711402784379935" id="-16283">
		<tag k="name" v="Hoset Brenna" />
		<tag k="place" v="locality" />
		<tag k="ssr:stedsnr" v="110988" />
	</node>
	<node lat="62.22869166452635" lon="8.336291664032771" id="-16286">
		<tag k="name" v="Øyom" />
=======
	<node id="-362340" lat="62.1170555561" lon="8.77103333144">
		<tag k="name" v="Brenna" />
		<tag k="place" v="locality" />
		<tag k="ssr:stedsnr" v="171689" />
	</node>
	<node id="-362849" lat="62.1770444469" lon="8.56402777163">
		<tag k="name" v="Lyumyre" />
		<tag k="natural" v="wetland" />
		<tag k="ssr:stedsnr" v="778325" />
	</node>
	<node id="-361615" lat="62.0691888854" lon="9.04651110547">
		<tag k="name" v="Borge" />
		<tag k="place" v="locality" />
		<tag k="ssr:stedsnr" v="474805" />
	</node>
	<node id="-362328" lat="62.197499998" lon="8.2356888959">
		<tag k="name" v="Nonshøvollan" />
>>>>>>> e1d4bc35ff8a6074a6f2e91616a996b547c36f15
		<tag k="place" v="locality" />
		<tag k="ssr:stedsnr" v="111090" />
	</node>
<<<<<<< HEAD
	<node lat="62.24541111531871" lon="8.781238896040104" id="-16292">
		<tag k="name" v="Kvitmyrin" />
		<tag k="natural" v="wetland" />
		<tag k="ssr:stedsnr" v="111676" />
	</node>
	<node lat="62.29749444518595" lon="8.675741663127985" id="-16326">
=======
	<node id="-361188" lat="62.1619583321" lon="8.64995555684">
		<tag k="name" v="Valldalssletta" />
		<tag k="place" v="locality" />
		<tag k="ssr:stedsnr" v="51714" />
	</node>
	<node id="-362324" lat="62.2128416664" lon="8.35034722643">
		<tag k="name" v="Ljosmyre" />
		<tag k="natural" v="wetland" />
		<tag k="ssr:stedsnr" v="171068" />
	</node>
	<node id="-361811" lat="62.2339888915" lon="8.75095278518">
		<tag k="name" v="Sandranden" />
		<tag k="place" v="locality" />
		<tag k="ssr:stedsnr" v="657666" />
	</node>
	<node id="-362319" lat="62.2974944452" lon="8.67574166313">
>>>>>>> e1d4bc35ff8a6074a6f2e91616a996b547c36f15
		<tag k="name" v="Storslågån" />
		<tag k="place" v="locality" />
		<tag k="ssr:stedsnr" v="133661" />
	</node>
<<<<<<< HEAD
	<node lat="62.269174998923816" lon="8.190750009614577" id="-16332">
		<tag k="name" v="Lykkjemyri" />
		<tag k="natural" v="wetland" />
		<tag k="ssr:stedsnr" v="253160" />
	</node>
	<node lat="62.19087435493697" lon="8.267347160600307" id="-16340">
		<tag k="name" v="Koiesteinen" />
		<tag k="natural" v="stone" />
		<tag k="ssr:stedsnr" v="253845" />
	</node>
	<node lat="62.13827500374915" lon="8.886908336656312" id="-16343">
		<tag k="alt_name" v="Ståkåmyre" />
		<tag k="name" v="Ståkåmyri" />
		<tag k="natural" v="wetland" />
		<tag k="ssr:stedsnr" v="253923" />
	</node>
	<node lat="62.113911113020805" lon="8.608105554694525" id="-16382">
=======
	<node id="-361804" lat="62.2191861071" lon="8.32940554984">
		<tag k="name" v="Saustad" />
		<tag k="place" v="locality" />
		<tag k="ssr:stedsnr" v="657062" />
	</node>
	<node id="-361799" lat="62.1049361142" lon="8.84170000256">
		<tag k="name" v="Nordsand" />
		<tag k="place" v="locality" />
		<tag k="ssr:stedsnr" v="656666" />
	</node>
	<node id="-362464" lat="62.2428527769" lon="8.20340833425">
		<tag k="name" v="Dalan" />
		<tag k="place" v="locality" />
		<tag k="ssr:stedsnr" v="353194" />
	</node>
	<node id="-362812" lat="62.0988583361" lon="8.06543611672">
		<tag k="name" v="Storbreen" />
		<tag k="natural" v="glacier" />
		<tag k="ssr:stedsnr" v="738728" />
	</node>
	<node id="-361269" lat="62.113911113" lon="8.60810555469">
>>>>>>> e1d4bc35ff8a6074a6f2e91616a996b547c36f15
		<tag k="name" v="Brennranden" />
		<tag k="place" v="locality" />
		<tag k="ssr:stedsnr" v="257770" />
	</node>
<<<<<<< HEAD
	<node lat="62.21284166643684" lon="8.350347226425628" id="-16383">
		<tag k="name" v="Ljosmyre" />
		<tag k="natural" v="wetland" />
		<tag k="ssr:stedsnr" v="171068" />
	</node>
	<node lat="62.197499998041884" lon="8.235688895899873" id="-16384">
		<tag k="name" v="Nonshøvollan" />
		<tag k="place" v="locality" />
		<tag k="ssr:stedsnr" v="171162" />
	</node>
	<node lat="62.11719999607315" lon="8.721930559293144" id="-16395">
		<tag k="name" v="Kråkholen" />
=======
	<node id="-361182" lat="62.2463388869" lon="8.11345833983">
		<tag k="historic" v="shieling" />
		<tag k="name" v="Midtre Stølen" />
		<tag k="place" v="locality" />
		<tag k="ssr:stedsnr" v="51251" />
	</node>
	<node id="-361769" lat="62.1345361094" lon="8.86336389162">
		<tag k="name" v="Gorrmyre" />
		<tag k="natural" v="wetland" />
		<tag k="ssr:stedsnr" v="718730" />
	</node>
	<node id="-361436" lat="62.0800555529" lon="9.05943333021">
		<tag k="name" v="Tuvmyre" />
		<tag k="natural" v="wetland" />
		<tag k="ssr:stedsnr" v="474780" />
	</node>
	<node id="-361763" lat="62.2066027746" lon="8.39007222808">
		<tag k="name" v="Revsteinan" />
		<tag k="natural" v="stone" />
		<tag k="ssr:stedsnr" v="718469" />
	</node>
	<node id="-361756" lat="62.2521583322" lon="8.26795278693">
		<tag k="name" v="Vetlmyrin" />
		<tag k="natural" v="wetland" />
		<tag k="ssr:stedsnr" v="718100" />
	</node>
	<node id="-361749" lat="62.2283194478" lon="8.8086111175">
		<tag k="name" v="Breijordet" />
>>>>>>> e1d4bc35ff8a6074a6f2e91616a996b547c36f15
		<tag k="place" v="locality" />
		<tag k="ssr:stedsnr" v="204366" />
	</node>
<<<<<<< HEAD
	<node lat="62.243727779766594" lon="8.328319452779496" id="-16400">
		<tag k="landuse" v="meadow" />
		<tag k="name" v="Kvean" />
		<tag k="ssr:stedsnr" v="232110" />
	</node>
	<node lat="62.11628333614851" lon="9.057419451345684" id="-16413">
		<tag k="historic" v="shieling" />
		<tag k="name" v="Karisætre" />
		<tag k="place" v="locality" />
		<tag k="ssr:stedsnr" v="232891" />
	</node>
	<node lat="62.07391388681139" lon="8.456986118456292" id="-16453">
		<tag k="name" v="Klokkarslette" />
		<tag k="place" v="locality" />
		<tag k="ssr:stedsnr" v="294310" />
	</node>
	<node lat="62.16453889040069" lon="8.627313893880114" id="-16454">
		<tag k="name" v="Langmyre" />
		<tag k="natural" v="wetland" />
		<tag k="ssr:stedsnr" v="294312" />
	</node>
	<node lat="62.10166666319739" lon="8.561352774004732" id="-16474">
		<tag k="name" v="Mørkonge" />
=======
	<node id="-362260" lat="62.2058305512" lon="8.49942222962">
		<tag k="name" v="Kvea" />
		<tag k="place" v="locality" />
		<tag k="ssr:stedsnr" v="112468" />
	</node>
	<node id="-361745" lat="62.104997224" lon="8.84995554801">
		<tag k="name" v="Prestøya" />
		<tag k="place" v="locality" />
		<tag k="ssr:stedsnr" v="717639" />
	</node>
	<node id="-361744" lat="62.0992277782" lon="9.06194445331">
		<tag k="name" v="Kvitstein" />
		<tag k="natural" v="stone" />
		<tag k="ssr:stedsnr" v="717859" />
	</node>
	<node id="-362255" lat="62.0996472187" lon="9.09353055712">
		<tag k="name" v="Bjønnmyra" />
		<tag k="natural" v="wetland" />
		<tag k="ssr:stedsnr" v="111832" />
	</node>
	<node id="-361740" lat="62.1141305554" lon="8.6952111092">
		<tag k="name" v="Storholen" />
		<tag k="place" v="locality" />
		<tag k="ssr:stedsnr" v="717549" />
	</node>
	<node id="-362251" lat="62.2454111153" lon="8.78123889604">
		<tag k="name" v="Kvitmyrin" />
		<tag k="natural" v="wetland" />
		<tag k="ssr:stedsnr" v="111676" />
	</node>
	<node id="-362250" lat="62.1725555592" lon="8.67793332421">
		<tag k="name" v="Skrøymyre" />
		<tag k="natural" v="wetland" />
		<tag k="ssr:stedsnr" v="111657" />
	</node>
	<node id="-362249" lat="62.180683335" lon="8.66017499558">
		<tag k="name" v="Vangmyre" />
		<tag k="natural" v="wetland" />
		<tag k="ssr:stedsnr" v="111641" />
	</node>
	<node id="-361735" lat="62.1735722236" lon="8.54063056036">
		<tag k="name" v="Maribrenna" />
>>>>>>> e1d4bc35ff8a6074a6f2e91616a996b547c36f15
		<tag k="place" v="locality" />
		<tag k="ssr:stedsnr" v="318727" />
	</node>
<<<<<<< HEAD
	<node lat="62.23440833416688" lon="8.265986113644315" id="-16487">
		<tag k="name" v="Øyan" />
		<tag k="place" v="locality" />
		<tag k="ssr:stedsnr" v="353066" />
	</node>
	<node lat="62.22882777775781" lon="8.26835278506833" id="-16488">
		<tag k="name" v="Storlie" />
		<tag k="place" v="locality" />
		<tag k="ssr:stedsnr" v="353068" />
	</node>
	<node lat="62.10176944044307" lon="8.855074992079018" id="-16506">
		<tag k="name" v="Jolykkja" />
=======
	<node id="-361729" lat="62.2323250024" lon="8.31620556151">
		<tag k="name" v="Øyan" />
		<tag k="place" v="locality" />
		<tag k="ssr:stedsnr" v="717077" />
	</node>
	<node id="-362239" lat="62.2286916645" lon="8.33629166403">
		<tag k="name" v="Øyom" />
		<tag k="place" v="locality" />
		<tag k="ssr:stedsnr" v="111090" />
	</node>
	<node id="-362745" lat="62.2316416663" lon="8.77973334001">
		<tag k="name" v="Brendranden" />
		<tag k="place" v="locality" />
		<tag k="ssr:stedsnr" v="596640" />
	</node>
	<node id="-362231" lat="62.1522194428" lon="8.71140278438">
		<tag k="name" v="Hoset Brenna" />
		<tag k="place" v="locality" />
		<tag k="ssr:stedsnr" v="110988" />
	</node>
	<node id="-362740" lat="62.0839416706" lon="8.86479166576">
		<tag k="name" v="Vetlgutstein" />
		<tag k="natural" v="stone" />
		<tag k="ssr:stedsnr" v="596604" />
	</node>
	<node id="-362738" lat="62.1137666637" lon="8.66365833548">
		<tag k="name" v="Ekerflaten" />
		<tag k="place" v="locality" />
		<tag k="ssr:stedsnr" v="596539" />
	</node>
	<node id="-361710" lat="62.1816555522" lon="7.99134722875">
		<tag k="name" v="Storløypbreen" />
		<tag k="natural" v="glacier" />
		<tag k="ssr:stedsnr" v="557162" />
	</node>
	<node id="-361276" lat="62.1047583312" lon="8.82430833979">
		<tag k="name" v="Hoksvoldoddin" />
		<tag k="place" v="locality" />
		<tag k="ssr:stedsnr" v="111616" />
	</node>
	<node id="-362727" lat="62.2439333367" lon="8.28210832591">
		<tag k="name" v="Ordran" />
>>>>>>> e1d4bc35ff8a6074a6f2e91616a996b547c36f15
		<tag k="place" v="locality" />
		<tag k="ssr:stedsnr" v="353651" />
	</node>
<<<<<<< HEAD
	<node lat="62.05935555906962" lon="8.353408333065554" id="-16509">
		<tag k="name" v="Løranden" />
=======
	<node id="-361489" lat="62.255302774" lon="8.11818332776">
		<tag k="alt_name" v="Stormyre" />
		<tag k="name" v="Stormyri" />
		<tag k="natural" v="wetland" />
		<tag k="ssr:stedsnr" v="496135" />
	</node>
	<node id="-362724" lat="62.0839333308" lon="9.06474444225">
		<tag k="name" v="Kolbotn" />
>>>>>>> e1d4bc35ff8a6074a6f2e91616a996b547c36f15
		<tag k="place" v="locality" />
		<tag k="ssr:stedsnr" v="354337" />
	</node>
<<<<<<< HEAD
	<node lat="62.21710832962911" lon="8.461175000051838" id="-16510">
		<tag k="name" v="Øverjordet" />
=======
	<node id="-362723" lat="62.0760444476" lon="9.05974721511">
		<tag k="name" v="Gråtarvollen" />
>>>>>>> e1d4bc35ff8a6074a6f2e91616a996b547c36f15
		<tag k="place" v="locality" />
		<tag k="ssr:stedsnr" v="354454" />
	</node>
<<<<<<< HEAD
	<node lat="62.10253611159917" lon="8.831322221029543" id="-16511">
		<tag k="historic" v="shieling" />
		<tag k="name" v="Bottilsætre" />
=======
	<node id="-362719" lat="62.1207111107" lon="8.71332776922">
		<tag k="name" v="Ståe" />
>>>>>>> e1d4bc35ff8a6074a6f2e91616a996b547c36f15
		<tag k="place" v="locality" />
		<tag k="ssr:stedsnr" v="474652" />
	</node>
<<<<<<< HEAD
	<node lat="62.105061112028736" lon="9.018180546816504" id="-16516">
		<tag k="name" v="Urmorkje" />
=======
	<node id="-362718" lat="62.1323583333" lon="8.69804167148">
		<tag k="name" v="Bjøknemyre" />
		<tag k="old_name" v="Bjørknemyre" />
>>>>>>> e1d4bc35ff8a6074a6f2e91616a996b547c36f15
		<tag k="place" v="locality" />
		<tag k="ssr:stedsnr" v="474889" />
	</node>
<<<<<<< HEAD
	<node lat="62.08005555286594" lon="9.059433330208464" id="-16518">
		<tag k="name" v="Tuvmyre" />
		<tag k="natural" v="wetland" />
		<tag k="ssr:stedsnr" v="474780" />
	</node>
	<node lat="62.069188885439324" lon="9.046511105474607" id="-16520">
		<tag k="name" v="Borge" />
=======
	<node id="-362716" lat="62.130333334" lon="8.65773055798">
		<tag k="name" v="Bjønnarspjotet" />
		<tag k="natural" v="stone" />
		<tag k="ssr:stedsnr" v="595384" />
	</node>
	<node id="-361174" lat="62.1470388902" lon="8.66359444545">
		<tag k="name" v="Tangan" />
>>>>>>> e1d4bc35ff8a6074a6f2e91616a996b547c36f15
		<tag k="place" v="locality" />
		<tag k="ssr:stedsnr" v="474805" />
	</node>
<<<<<<< HEAD
	<node lat="62.07283889087137" lon="8.452316661634809" id="-16527">
		<tag k="name" v="Flittimyre" />
=======
	<node id="-361685" lat="62.2733000026" lon="8.18651388104">
		<tag k="alt_name" v="Ulvemyre" />
		<tag k="name" v="Ulvemyri" />
>>>>>>> e1d4bc35ff8a6074a6f2e91616a996b547c36f15
		<tag k="natural" v="wetland" />
		<tag k="ssr:stedsnr" v="475335" />
	</node>
<<<<<<< HEAD
	<node lat="62.123675003105255" lon="8.925816658054474" id="-16534">
		<tag k="name" v="Svartbrenna" />
=======
	<node id="-361172" lat="62.1018416652" lon="8.87317222695">
		<tag k="name" v="Brekkelykkja" />
>>>>>>> e1d4bc35ff8a6074a6f2e91616a996b547c36f15
		<tag k="place" v="locality" />
		<tag k="ssr:stedsnr" v="475978" />
	</node>
<<<<<<< HEAD
	<node lat="62.240561113142675" lon="8.812577772459955" id="-16560">
		<tag k="name" v="Kvitmyrin" />
		<tag k="natural" v="wetland" />
		<tag k="ssr:stedsnr" v="375989" />
	</node>
	<node lat="62.19941944123538" lon="8.29709443664011" id="-16568">
=======
	<node id="-362191" lat="62.263355557" lon="8.1113611033">
		<tag k="alt_name" v="Kvennhusmyre" />
		<tag k="name" v="Kvernhusmyri" />
		<tag k="natural" v="wetland" />
		<tag k="ssr:stedsnr" v="71164" />
	</node>
	<node id="-361675" lat="62.0712944455" lon="9.05459166283">
		<tag k="alt_name" v="Enge" />
		<tag k="landuse" v="meadow" />
		<tag k="name" v="Engje" />
		<tag k="ssr:stedsnr" v="535792" />
	</node>
	<node id="-361674" lat="62.1378277787" lon="8.76450834132">
		<tag k="name" v="Lokkarsvae" />
		<tag k="place" v="locality" />
		<tag k="ssr:stedsnr" v="535553" />
	</node>
	<node id="-361673" lat="62.2317194469" lon="8.16795834213">
>>>>>>> e1d4bc35ff8a6074a6f2e91616a996b547c36f15
		<tag k="name" v="Gråure" />
		<tag k="natural" v="scree" />
		<tag k="ssr:stedsnr" v="414190" />
	</node>
<<<<<<< HEAD
	<node lat="62.11041667029856" lon="8.847183326622245" id="-16575">
		<tag k="name" v="Nedre Tollholen" />
=======
	<node id="-361157" lat="62.1057416683" lon="8.8865083321">
		<tag k="name" v="Fuggelluggen" />
>>>>>>> e1d4bc35ff8a6074a6f2e91616a996b547c36f15
		<tag k="place" v="locality" />
		<tag k="ssr:stedsnr" v="414636" />
	</node>
<<<<<<< HEAD
	<node lat="62.100449998586996" lon="9.103180547799859" id="-16578">
		<tag k="name" v="Bjønnstein" />
		<tag k="natural" v="stone" />
		<tag k="ssr:stedsnr" v="414844" />
	</node>
	<node lat="62.07984166648508" lon="8.48009722733524" id="-16579">
		<tag k="name" v="Kvannbekkmyre" />
		<tag k="natural" v="wetland" />
		<tag k="ssr:stedsnr" v="415403" />
	</node>
	<node lat="62.06484722492921" lon="9.042669445466126" id="-16609">
		<tag k="name" v="Borgårandan" />
=======
	<node id="-361154" lat="62.1162833361" lon="9.05741945135">
		<tag k="historic" v="shieling" />
		<tag k="name" v="Karisætre" />
		<tag k="place" v="locality" />
		<tag k="ssr:stedsnr" v="232891" />
	</node>
	<node id="-362684" lat="62.2060555569" lon="8.89284721746">
		<tag k="name" v="Ljosmyre" />
		<tag k="natural" v="wetland" />
		<tag k="ssr:stedsnr" v="536922" />
	</node>
	<node id="-362170" lat="62.1348777768" lon="8.86612776828">
		<tag k="name" v="Storstein" />
		<tag k="natural" v="stone" />
		<tag k="ssr:stedsnr" v="50691" />
	</node>
	<node id="-362679" lat="62.1627166643" lon="8.70075000592">
		<tag k="name" v="Restranden" />
>>>>>>> e1d4bc35ff8a6074a6f2e91616a996b547c36f15
		<tag k="place" v="locality" />
		<tag k="ssr:stedsnr" v="474760" />
	</node>
<<<<<<< HEAD
	<node lat="62.2463166649529" lon="8.120577776344257" id="-16614">
		<tag k="historic" v="shieling" />
		<tag k="name" v="Nedre Stølen" />
		<tag k="place" v="locality" />
		<tag k="ssr:stedsnr" v="475222" />
	</node>
	<node lat="62.11256666379176" lon="8.64864721624018" id="-16620">
		<tag k="name" v="Bolkeholet" />
=======
	<node id="-362164" lat="62.1752333297" lon="8.66723054657">
		<tag k="name" v="Studulsmyrin" />
		<tag k="natural" v="wetland" />
		<tag k="ssr:stedsnr" v="50627" />
	</node>
	<node id="-361139" lat="62.1392194464" lon="8.64686388782">
		<tag k="name" v="Bårdsruste" />
>>>>>>> e1d4bc35ff8a6074a6f2e91616a996b547c36f15
		<tag k="place" v="locality" />
		<tag k="ssr:stedsnr" v="475574" />
	</node>
<<<<<<< HEAD
	<node lat="62.10663055361619" lon="8.90858611165539" id="-16628">
		<tag k="name" v="Joflaten" />
=======
	<node id="-362161" lat="62.152208329" lon="8.63884166129">
		<tag k="name" v="Kismorkje" />
>>>>>>> e1d4bc35ff8a6074a6f2e91616a996b547c36f15
		<tag k="place" v="locality" />
		<tag k="ssr:stedsnr" v="475989" />
	</node>
<<<<<<< HEAD
	<node lat="62.163163885591814" lon="8.693233326100849" id="-16629">
		<tag k="name" v="Esperanden" />
=======
	<node id="-362159" lat="62.1394638895" lon="8.67690834242">
		<tag k="name" v="Hosetmoen" />
>>>>>>> e1d4bc35ff8a6074a6f2e91616a996b547c36f15
		<tag k="place" v="locality" />
		<tag k="ssr:stedsnr" v="476635" />
	</node>
<<<<<<< HEAD
	<node lat="62.15350833419875" lon="8.61259166929209" id="-16630">
		<tag k="historic" v="shieling" />
		<tag k="name" v="Skrøisætre" />
=======
	<node id="-361133" lat="62.2363500014" lon="8.25174444181">
		<tag k="name" v="Øygardsmoen" />
>>>>>>> e1d4bc35ff8a6074a6f2e91616a996b547c36f15
		<tag k="place" v="locality" />
		<tag k="ssr:stedsnr" v="476308" />
	</node>
<<<<<<< HEAD
	<node lat="62.114780552394045" lon="8.614338897264243" id="-16702">
		<tag k="name" v="Kolbotn" />
=======
	<node id="-362155" lat="62.211416667" lon="8.27253611029">
		<tag k="name" v="Brennranden" />
>>>>>>> e1d4bc35ff8a6074a6f2e91616a996b547c36f15
		<tag k="place" v="locality" />
		<tag k="ssr:stedsnr" v="535717" />
	</node>
<<<<<<< HEAD
	<node lat="62.14341666432385" lon="9.040413892687448" id="-16704">
=======
	<node id="-362662" lat="62.1434166643" lon="9.04041389269">
>>>>>>> e1d4bc35ff8a6074a6f2e91616a996b547c36f15
		<tag k="name" v="Mehenkjerandin" />
		<tag k="place" v="locality" />
		<tag k="ssr:stedsnr" v="535877" />
	</node>
<<<<<<< HEAD
	<node lat="62.20605555692936" lon="8.892847217455197" id="-16711">
		<tag k="name" v="Ljosmyre" />
		<tag k="natural" v="wetland" />
		<tag k="ssr:stedsnr" v="536922" />
	</node>
	<node lat="62.27330000258053" lon="8.18651388103683" id="-16713">
		<tag k="alt_name" v="Ulvemyri" />
		<tag k="name" v="Ulvemyre" />
		<tag k="natural" v="wetland" />
		<tag k="ssr:stedsnr" v="556160" />
	</node>
	<node lat="62.18165555224531" lon="7.991347228752819" id="-16736">
		<tag k="name" v="Storløypbreen" />
		<tag k="natural" v="glacier" />
		<tag k="ssr:stedsnr" v="557162" />
	</node>
	<node lat="62.08394167059173" lon="8.864791665760754" id="-16756">
		<tag k="name" v="Vetlgutstein" />
=======
	<node id="-362660" lat="62.1545611067" lon="8.69606110419">
		<tag k="name" v="Ljosmyre" />
		<tag k="natural" v="wetland" />
		<tag k="ssr:stedsnr" v="535986" />
	</node>
	<node id="-362147" lat="62.0934138882" lon="8.93230833496">
		<tag k="alt_name" v="Viflaten" />
		<tag k="loc_name" v="Vidfloten" />
		<tag k="name" v="Vidflotten" />
		<tag k="place" v="locality" />
		<tag k="ssr:stedsnr" v="48218" />
	</node>
	<node id="-361647" lat="62.1623944411" lon="8.91035833528">
		<tag k="alt_name" v="Svinsarmyrin;Svinsarmyre" />
		<tag k="name" v="Svinsarmyri" />
		<tag k="natural" v="wetland" />
		<tag k="ssr:stedsnr" v="678895" />
	</node>
	<node id="-362657" lat="62.1147805524" lon="8.61433889726">
		<tag k="name" v="Kolbotn" />
		<tag k="place" v="locality" />
		<tag k="ssr:stedsnr" v="535717" />
	</node>
	<node id="-362652" lat="62.1160527781" lon="8.77948610775">
		<tag k="name" v="Lyftingsmyre" />
		<tag k="natural" v="wetland" />
		<tag k="ssr:stedsnr" v="535641" />
	</node>
	<node id="-362646" lat="62.1792750037" lon="8.52737222647">
		<tag k="name" v="Flittisætermyre" />
		<tag k="natural" v="wetland" />
		<tag k="ssr:stedsnr" v="535342" />
	</node>
	<node id="-362645" lat="62.1680166712" lon="8.53340555212">
		<tag k="historic" v="shieling" />
		<tag k="name" v="Kroksolbu" />
		<tag k="place" v="locality" />
		<tag k="ssr:stedsnr" v="535337" />
	</node>
	<node id="-362132" lat="62.124730557" lon="8.98191667592">
		<tag k="name" v="Myrin" />
		<tag k="natural" v="wetland" />
		<tag k="ssr:stedsnr" v="11876" />
	</node>
	<node id="-362639" lat="62.261458335" lon="8.35983333533">
		<tag k="name" v="Ellandstein" />
>>>>>>> e1d4bc35ff8a6074a6f2e91616a996b547c36f15
		<tag k="natural" v="stone" />
		<tag k="ssr:stedsnr" v="596604" />
	</node>
<<<<<<< HEAD
	<node lat="62.17750555931423" lon="8.536561105604214" id="-16803">
		<tag k="name" v="Hesthagen" />
		<tag k="place" v="locality" />
		<tag k="ssr:stedsnr" v="656326" />
	</node>
	<node lat="62.08391944371451" lon="9.06960556003708" id="-16811">
=======
	<node id="-361611" lat="62.094463888" lon="8.90546666657">
		<tag k="name" v="Flaten" />
		<tag k="place" v="locality" />
		<tag k="ssr:stedsnr" v="657966" />
	</node>
	<node id="-361603" lat="62.2356027777" lon="8.10228611888">
		<tag k="name" v="Alvsteinan" />
		<tag k="natural" v="stone" />
		<tag k="ssr:stedsnr" v="657193" />
	</node>
	<node id="-361600" lat="62.2408972247" lon="8.2594194366">
		<tag k="name" v="Fanture" />
		<tag k="natural" v="scree" />
		<tag k="ssr:stedsnr" v="657157" />
	</node>
	<node id="-361356" lat="62.0869833323" lon="8.50287499859">
		<tag k="name" v="Bjøknesæterranden" />
		<tag k="place" v="locality" />
		<tag k="ssr:stedsnr" v="294390" />
	</node>
	<node id="-361598" lat="62.0839194437" lon="9.06960556004">
>>>>>>> e1d4bc35ff8a6074a6f2e91616a996b547c36f15
		<tag k="name" v="Breimyrholan" />
		<tag k="place" v="locality" />
		<tag k="ssr:stedsnr" v="656804" />
	</node>
<<<<<<< HEAD
	<node lat="62.16239444112652" lon="8.910358335278007" id="-16834">
		<tag k="alt_name" v="Svinsarmyrin;Svinsarmyre" />
		<tag k="name" v="Svinsarmyri" />
=======
	<node id="-362617" lat="62.0372749984" lon="8.99349721568">
		<tag k="name" v="Nonshømyrin" />
		<tag k="natural" v="wetland" />
		<tag k="ssr:stedsnr" v="436531" />
	</node>
	<node id="-361586" lat="62.1775055593" lon="8.5365611056">
		<tag k="name" v="Hesthagen" />
		<tag k="place" v="locality" />
		<tag k="ssr:stedsnr" v="656326" />
	</node>
	<node id="-362513" lat="62.2634583294" lon="8.12037222385">
		<tag k="alt_name" v="Blautmyre" />
		<tag k="name" v="Blautmyri" />
>>>>>>> e1d4bc35ff8a6074a6f2e91616a996b547c36f15
		<tag k="natural" v="wetland" />
		<tag k="ssr:stedsnr" v="374165" />
	</node>
<<<<<<< HEAD
	<node lat="62.11017500369205" lon="8.863613889680993" id="-16883">
		<tag k="name" v="Åselykkja" />
=======
	<node id="-362081" lat="62.1421472205" lon="9.04353054697">
		<tag k="name" v="Vetlmyre" />
		<tag k="natural" v="wetland" />
		<tag k="ssr:stedsnr" v="960863" />
	</node>
	<node id="-361232" lat="62.1382750037" lon="8.88690833666">
		<tag k="alt_name" v="Ståkåmyre" />
		<tag k="name" v="Ståkåmyri" />
		<tag k="natural" v="wetland" />
		<tag k="ssr:stedsnr" v="253923" />
	</node>
	<node id="-362587" lat="62.0798416665" lon="8.48009722734">
		<tag k="name" v="Kvannbekkmyre" />
		<tag k="natural" v="wetland" />
		<tag k="ssr:stedsnr" v="415403" />
	</node>
	<node id="-362586" lat="62.0628000022" lon="8.42446944826">
		<tag k="name" v="Kvitlan" />
>>>>>>> e1d4bc35ff8a6074a6f2e91616a996b547c36f15
		<tag k="place" v="locality" />
		<tag k="ssr:stedsnr" v="899650" />
	</node>
<<<<<<< HEAD
	<node lat="62.1480166710008" lon="8.778749992831447" id="-16885">
		<tag k="name" v="Hella" />
		<tag k="natural" v="stone" />
		<tag k="ssr:stedsnr" v="900564" />
	</node>
	<node lat="62.23428610806789" lon="8.135725003321793" id="-16892">
		<tag k="name" v="Svamyre" />
		<tag k="natural" v="wetland" />
		<tag k="ssr:stedsnr" v="900241" />
	</node>
	<node lat="62.13071111272362" lon="8.86165554828712" id="-16896">
		<tag k="name" v="Skaret" />
		<tag k="natural" v="stone" />
		<tag k="ssr:stedsnr" v="900739" />
	</node>
	<node lat="62.1034666658436" lon="8.892902771726899" id="-16903">
		<tag k="name" v="Flagestadsætre" />
=======
	<node id="-362580" lat="62.1004499986" lon="9.1031805478">
		<tag k="name" v="Bjønnstein" />
		<tag k="natural" v="stone" />
		<tag k="ssr:stedsnr" v="414844" />
	</node>
	<node id="-361555" lat="62.1104166703" lon="8.84718332662">
		<tag k="name" v="Nedre Tollholen" />
		<tag k="place" v="locality" />
		<tag k="ssr:stedsnr" v="414636" />
	</node>
	<node id="-362575" lat="62.0814333305" lon="8.98642222718">
		<tag k="name" v="Bottemsetrene seterskog" />
		<tag k="place" v="locality" />
		<tag k="ssr:stedsnr" v="414755" />
	</node>
	<node id="-362568" lat="62.110663893" lon="8.72000000595">
		<tag k="name" v="Tordholodden" />
		<tag k="place" v="locality" />
		<tag k="ssr:stedsnr" v="414548" />
	</node>
	<node id="-362559" lat="62.1994194412" lon="8.29709443664">
		<tag k="name" v="Gråure" />
		<tag k="natural" v="scree" />
		<tag k="ssr:stedsnr" v="414190" />
	</node>
	<node id="-362046" lat="62.132069441" lon="8.80419167027">
		<tag k="name" v="Bellebrenna" />
		<tag k="place" v="locality" />
		<tag k="ssr:stedsnr" v="900717" />
	</node>
	<node id="-361226" lat="62.1945833352" lon="8.27258055056">
		<tag k="name" v="Koiesteinen" />
		<tag k="natural" v="stone" />
		<tag k="ssr:stedsnr" v="253845" />
	</node>
	<node id="-362551" lat="62.227044446" lon="8.29072221557">
		<tag k="name" v="Brekkeranden" />
>>>>>>> e1d4bc35ff8a6074a6f2e91616a996b547c36f15
		<tag k="place" v="locality" />
		<tag k="ssr:stedsnr" v="900980" />
	</node>
<<<<<<< HEAD
	<node lat="62.109233337552816" lon="8.907883330694077" id="-16904">
		<tag k="alt_name" v="Kaldanmyra" />
		<tag k="name" v="Kaldanmyre" />
		<tag k="natural" v="wetland" />
		<tag k="ssr:stedsnr" v="900982" />
	</node>
	<node lat="62.075491662598445" lon="8.461602770348467" id="-16905">
		<tag k="name" v="Klomre" />
=======
	<node id="-363054" lat="62.1838249957" lon="8.64514999582">
		<tag k="name" v="Svaene" />
>>>>>>> e1d4bc35ff8a6074a6f2e91616a996b547c36f15
		<tag k="place" v="locality" />
		<tag k="ssr:stedsnr" v="901384" />
	</node>
<<<<<<< HEAD
	<node lat="62.09885833613978" lon="8.065436116718448" id="-16911">
		<tag k="name" v="Storbreen" />
		<tag k="natural" v="glacier" />
		<tag k="ssr:stedsnr" v="738728" />
	</node>
	<node lat="62.177044446893355" lon="8.56402777163081" id="-16933">
		<tag k="name" v="Lyumyre" />
		<tag k="natural" v="wetland" />
		<tag k="ssr:stedsnr" v="778325" />
	</node>
	<node lat="62.24061111393942" lon="8.134919436109762" id="-16949">
		<tag k="name" v="Kvennhusmyre" />
		<tag k="natural" v="wetland" />
		<tag k="ssr:stedsnr" v="794206" />
	</node>
	<node lat="62.203750000543295" lon="8.320575007515268" id="-16966">
=======
	<node id="-362538" lat="62.2405611131" lon="8.81257777246">
		<tag k="name" v="Kvitmyrin" />
		<tag k="natural" v="wetland" />
		<tag k="ssr:stedsnr" v="375989" />
	</node>
	<node id="-363045" lat="62.0639805515" lon="9.01836111463">
		<tag k="name" v="Restbakkmyrin" />
		<tag k="natural" v="wetland" />
		<tag k="ssr:stedsnr" v="960731" />
	</node>
	<node id="-363043" lat="62.1074138864" lon="9.07271666084">
		<tag k="name" v="Slettede" />
		<tag k="place" v="locality" />
		<tag k="ssr:stedsnr" v="960837" />
	</node>
	<node id="-363038" lat="62.1081555515" lon="8.73619722247">
		<tag k="name" v="Lialandet" />
		<tag k="place" v="locality" />
		<tag k="ssr:stedsnr" v="960550" />
	</node>
	<node id="-362671" lat="62.2749722244" lon="8.17573054977">
		<tag k="name" v="Rundmyre" />
		<tag k="natural" v="wetland" />
		<tag k="ssr:stedsnr" v="536135" />
	</node>
	<node id="-362002" lat="62.2037500005" lon="8.32057500752">
>>>>>>> e1d4bc35ff8a6074a6f2e91616a996b547c36f15
		<tag k="name" v="Stormyri" />
		<tag k="natural" v="wetland" />
		<tag k="ssr:stedsnr" v="800795" />
	</node>
<<<<<<< HEAD
	<node lat="62.260108329096525" lon="8.375611119132115" id="-16979">
		<tag k="alt_name" v="Teppmyre" />
		<tag k="name" v="Teppmyri" />
		<tag k="natural" v="wetland" />
		<tag k="ssr:stedsnr" v="921290" />
	</node>
	<node lat="62.15036666737432" lon="9.090230554810399" id="-17011">
		<tag k="name" v="Tungmyrin" />
		<tag k="natural" v="wetland" />
		<tag k="ssr:stedsnr" v="921899" />
	</node>
	<node lat="62.13206944101671" lon="8.80419167026823" id="-17054">
		<tag k="name" v="Bellebrenna" />
		<tag k="place" v="locality" />
		<tag k="ssr:stedsnr" v="900717" />
	</node>
	<node lat="62.15474167050116" lon="9.040775000111639" id="-17075">
		<tag k="name" v="Smørbollmyrin" />
		<tag k="natural" v="wetland" />
		<tag k="ssr:stedsnr" v="921904" />
	</node>
	<node lat="62.10815555152029" lon="8.736197222469633" id="-17095">
		<tag k="name" v="Lialandet" />
		<tag k="place" v="locality" />
		<tag k="ssr:stedsnr" v="960550" />
	</node>
	<node lat="62.18382499568845" lon="8.645149995821201" id="-17108">
		<tag k="name" v="Svaene" />
		<tag k="place" v="locality" />
		<tag k="ssr:stedsnr" v="961685" />
	</node>
	<node lat="62.12473055702644" lon="8.981916675917741" id="-17151">
		<tag k="name" v="Myrin" />
		<tag k="natural" v="wetland" />
		<tag k="ssr:stedsnr" v="11876" />
	</node>
	<node lat="62.21141666699819" lon="8.27253611028891" id="-17169">
		<tag k="name" v="Brennranden" />
		<tag k="place" v="locality" />
		<tag k="ssr:stedsnr" v="50181" />
	</node>
	<node lat="62.134877776814385" lon="8.866127768280991" id="-17177">
		<tag k="name" v="Storstein" />
		<tag k="natural" v="stone" />
		<tag k="ssr:stedsnr" v="50691" />
	</node>
	<node lat="62.17523332974341" lon="8.667230546571156" id="-17181">
		<tag k="name" v="Studulsmyrin" />
		<tag k="natural" v="wetland" />
		<tag k="ssr:stedsnr" v="50627" />
	</node>
	<node lat="62.24633888688487" lon="8.113458339827883" id="-17197">
		<tag k="historic" v="shieling" />
		<tag k="name" v="Midtre Stølen" />
		<tag k="place" v="locality" />
		<tag k="ssr:stedsnr" v="51251" />
	</node>
	<node lat="62.16195833210044" lon="8.649955556835629" id="-17203">
		<tag k="name" v="Valldalssletta" />
		<tag k="place" v="locality" />
		<tag k="ssr:stedsnr" v="51714" />
	</node>
	<node lat="62.26335555701163" lon="8.111361103300563" id="-17214">
		<tag k="alt_name" v="Kvennhusmyre" />
		<tag k="name" v="Kvernhusmyri" />
		<tag k="natural" v="wetland" />
		<tag k="ssr:stedsnr" v="71164" />
=======
	<node id="-363025" lat="62.0994861108" lon="8.60005554645">
		<tag k="name" v="Skardåvigga" />
		<tag k="place" v="locality" />
		<tag k="ssr:stedsnr" v="864744" />
	</node>
	<node id="-361483" lat="62.1631638856" lon="8.6932333261">
		<tag k="name" v="Esperanden" />
		<tag k="place" v="locality" />
		<tag k="ssr:stedsnr" v="476635" />
	</node>
	<node id="-362506" lat="62.1852250007" lon="8.6461805614">
		<tag k="name" v="Kvilarsteinen" />
		<tag k="natural" v="stone" />
		<tag k="ssr:stedsnr" v="354680" />
	</node>
	<node id="-362504" lat="62.2171083296" lon="8.46117500005">
		<tag k="name" v="Øverjordet" />
		<tag k="place" v="locality" />
		<tag k="ssr:stedsnr" v="354454" />
	</node>
	<node id="-361479" lat="62.1535083342" lon="8.61259166929">
		<tag k="historic" v="shieling" />
		<tag k="name" v="Skrøisætre" />
		<tag k="place" v="locality" />
		<tag k="ssr:stedsnr" v="476308" />
	</node>
	<node id="-362502" lat="62.0593555591" lon="8.35340833307">
		<tag k="name" v="Løranden" />
		<tag k="place" v="locality" />
		<tag k="ssr:stedsnr" v="354337" />
	</node>
	<node id="-361475" lat="62.1236750031" lon="8.92581665805">
		<tag k="name" v="Svartbrenna" />
		<tag k="place" v="locality" />
		<tag k="ssr:stedsnr" v="475978" />
>>>>>>> e1d4bc35ff8a6074a6f2e91616a996b547c36f15
	</node>
</osm>
