<?xml version="1.0" encoding="UTF-8"?>
<osm version="0.6" generator="osmapis">
	<node lat="62.05000833043485" lon="8.313169437103499" id="-27740">
		<tag k="name" v="Lora" />
		<tag k="ssr:stedsnr" v="11233" />
		<tag k="waterway" v="river" />
	</node>
	<node lat="62.29695833346009" lon="8.737827769124863" id="-27744">
		<tag k="name" v="Nørdre Grøve" />
		<tag k="ssr:stedsnr" v="11384" />
		<tag k="waterway" v="stream" />
	</node>
	<node lat="62.30248055778247" lon="8.849005550286085" id="-27747">
		<tag k="name" v="Veslvatnet" />
		<tag k="natural" v="water" />
		<tag k="ssr:stedsnr" v="11397" />
	</node>
	<node lat="62.08774444196333" lon="8.714452780425994" id="-27751">
		<tag k="alt_name" v="Galåe" />
		<tag k="name" v="Galåi" />
		<tag k="ssr:stedsnr" v="11776" />
		<tag k="waterway" v="stream" />
	</node>
	<node lat="62.32166937655572" lon="8.279491117330172" id="-27754">
		<tag k="alt_name" v="Bøvervatnet, ettare" />
		<tag k="name" v="Ettare Bøvervatnet" />
		<tag k="natural" v="water" />
		<tag k="ssr:stedsnr" v="12271" />
		<tag k="water" v="lake" />
	</node>
	<node lat="62.31995555943289" lon="8.42199999331855" id="-27755">
		<tag k="name" v="Leirtjønne" />
		<tag k="natural" v="water" />
		<tag k="ssr:stedsnr" v="12272" />
	</node>
	<node lat="62.31740278149097" lon="8.655861115711353" id="-27756">
		<tag k="name" v="Turaren" />
		<tag k="ssr:stedsnr" v="12281" />
		<tag k="waterway" v="stream" />
	</node>
	<node lat="62.31513332988715" lon="8.694663898131623" id="-27757">
		<tag k="name" v="Grynningen" />
		<tag k="natural" v="strait" />
		<tag k="ssr:stedsnr" v="12282" />
	</node>
	<node lat="62.125122226545464" lon="8.710597229282005" id="-27764">
		<tag k="name" v="Djuptjønne" />
		<tag k="natural" v="water" />
		<tag k="ssr:stedsnr" v="232386" />
	</node>
	<node lat="62.23032222079526" lon="8.756986104413341" id="-27773">
		<tag k="name" v="Vetlesvaninge" />
		<tag k="ssr:stedsnr" v="232667" />
		<tag k="waterway" v="stream" />
	</node>
	<node lat="62.08357777392529" lon="9.058708332291143" id="-27774">
		<tag k="name" v="Evjubekken" />
		<tag k="ssr:stedsnr" v="232747" />
		<tag k="waterway" v="stream" />
	</node>
	<node lat="62.20254444071651" lon="8.477086120299159" id="-27783">
		<tag k="name" v="Tandsæterosen" />
		<tag k="natural" v="strait" />
		<tag k="ssr:stedsnr" v="233499" />
	</node>
	<node lat="62.16212500449458" lon="8.48642778619893" id="-27784">
		<tag k="name" v="Kvitskriubekken" />
		<tag k="ssr:stedsnr" v="233527" />
		<tag k="waterway" v="stream" />
	</node>
	<node lat="62.171852781002706" lon="8.632344444317578" id="-27786">
		<tag k="name" v="Breibekken" />
		<tag k="ssr:stedsnr" v="233717" />
		<tag k="waterway" v="stream" />
	</node>
	<node lat="62.16338055370644" lon="8.55374166894972" id="-27792">
		<tag k="fixme" v="multiple name tags, choose one and add the other to alt_name" />
		<tag k="loc_name" v="Skardbekken" />
		<tag k="name" v="Skalbekken;Svabekken" />
		<tag k="ssr:stedsnr" v="50318" />
		<tag k="waterway" v="stream" />
	</node>
	<node lat="62.07171110956967" lon="9.059230551963221" id="-27801">
		<tag k="name" v="Stubbedalsbekken" />
		<tag k="ssr:stedsnr" v="50723" />
		<tag k="waterway" v="stream" />
	</node>
	<node lat="62.13920555681664" lon="9.007750006292497" id="-27804">
		<tag k="name" v="Fiskbekken" />
		<tag k="ssr:stedsnr" v="50887" />
		<tag k="waterway" v="stream" />
	</node>
	<node lat="62.22484167103931" lon="8.404936117311362" id="-27807">
		<tag k="name" v="Bjølsåsbotn" />
		<tag k="natural" v="bay" />
		<tag k="ssr:stedsnr" v="51519" />
	</node>
	<node lat="62.222608336165614" lon="8.405452787310326" id="-27808">
		<tag k="name" v="Aurvika" />
		<tag k="natural" v="bay" />
		<tag k="ssr:stedsnr" v="51489" />
	</node>
	<node lat="62.14290000112641" lon="8.326658324554725" id="-27809">
		<tag k="name" v="Vargvasstjønnin" />
		<tag k="natural" v="water" />
		<tag k="ssr:stedsnr" v="71826" />
		<tag k="water" v="lake" />
	</node>
	<node lat="62.24292221794941" lon="8.391616667215532" id="-27811">
		<tag k="alt_name" v="Skottåe" />
		<tag k="name" v="Skottåi" />
		<tag k="ssr:stedsnr" v="71879" />
		<tag k="waterway" v="stream" />
	</node>
	<node lat="62.1815040265683" lon="8.810336344783265" id="-27814">
		<tag k="name" v="Fillingstjønne" />
		<tag k="natural" v="water" />
		<tag k="ssr:stedsnr" v="71973" />
		<tag k="water" v="lake" />
	</node>
	<node lat="62.18819999574739" lon="9.205652785906851" id="-27815">
		<tag k="name" v="Vindbustjønne" />
		<tag k="natural" v="water" />
		<tag k="ssr:stedsnr" v="71977" />
	</node>
	<node lat="62.09160277475641" lon="8.773280559518284" id="-27818">
		<tag k="alt_name" v="Storåe" />
		<tag k="name" v="Storåi" />
		<tag k="ssr:stedsnr" v="72589" />
		<tag k="waterway" v="stream" />
	</node>
	<node lat="62.23439444835596" lon="8.48555277315663" id="-27820">
		<tag k="name" v="Damtjønne" />
		<tag k="natural" v="water" />
		<tag k="ssr:stedsnr" v="72827" />
	</node>
	<node lat="62.21364166579034" lon="8.824147217336835" id="-27821">
		<tag k="alt_name" v="Storgrovi" />
		<tag k="name" v="Storgrove" />
		<tag k="ssr:stedsnr" v="72927" />
		<tag k="waterway" v="stream" />
	</node>
	<node lat="62.29466388681116" lon="8.204458334739238" id="-27824">
		<tag k="name" v="Haugabekken" />
		<tag k="ssr:stedsnr" v="248242" />
		<tag k="waterway" v="stream" />
	</node>
	<node lat="62.19795555146195" lon="8.438602785842939" id="-27847">
		<tag k="name" v="Hyrjon" />
		<tag k="ssr:stedsnr" v="131883" />
		<tag k="waterway" v="stream" />
	</node>
	<node lat="62.22254721843602" lon="8.208944442955453" id="-27849">
		<tag k="alt_name" v="Hellsbybekken, nordre" />
		<tag k="name" v="Nordre Helsbybekken" />
		<tag k="ssr:stedsnr" v="132164" />
		<tag k="waterway" v="stream" />
	</node>
	<node lat="62.31510277869569" lon="9.030686109460309" id="-27852">
		<tag k="alt_name" v="Lågvassbekken, nordre" />
		<tag k="name" v="Nordre Lågvassbekken" />
		<tag k="ssr:stedsnr" v="132375" />
		<tag k="waterway" v="stream" />
	</node>
	<node lat="62.263533337520535" lon="8.766775007677563" id="-27854">
		<tag k="alt_name" v="Fleskesteinvike" />
		<tag k="name" v="Fleskesteinviki" />
		<tag k="natural" v="bay" />
		<tag k="ssr:stedsnr" v="132409" />
	</node>
	<node lat="62.128994440381426" lon="8.49552500132405" id="-27855">
		<tag k="name" v="Gravåtjønne" />
		<tag k="natural" v="water" />
		<tag k="ssr:stedsnr" v="132743" />
	</node>
	<node lat="62.26200555258925" lon="9.01041388156119" id="-27858">
		<tag k="loc_name" v="Tverråe" />
		<tag k="name" v="Tverråi" />
		<tag k="ssr:stedsnr" v="132664" />
		<tag k="waterway" v="river" />
	</node>
	<node lat="62.217349998680845" lon="8.230077779379059" id="-27866">
		<tag k="name" v="Hellsbybekken" />
		<tag k="ssr:stedsnr" v="132865" />
		<tag k="waterway" v="stream" />
	</node>
	<node lat="62.246294441739614" lon="8.306797224596751" id="-27874">
		<tag k="name" v="Søreinbuåi" />
		<tag k="ssr:stedsnr" v="253267" />
		<tag k="waterway" v="stream" />
	</node>
	<node lat="62.0449972187925" lon="8.156272213328034" id="-27875">
		<tag k="loc_name" v="Skarvedalsåe" />
		<tag k="name" v="Skarvedalsåi" />
		<tag k="ssr:stedsnr" v="253274" />
		<tag k="waterway" v="stream" />
	</node>
	<node lat="62.334938890645674" lon="8.280891665089637" id="-27880">
		<tag k="name" v="Røyrhøbekken" />
		<tag k="ssr:stedsnr" v="254314" />
		<tag k="waterway" v="stream" />
	</node>
	<node lat="62.34726388727922" lon="8.57614444545074" id="-27881">
		<tag k="name" v="Tverråbottvatnet" />
		<tag k="natural" v="water" />
		<tag k="ssr:stedsnr" v="254317" />
	</node>
	<node lat="62.19506389215421" lon="9.251697221961646" id="-27882">
		<tag k="name" v="Storvatnet" />
		<tag k="natural" v="water" />
		<tag k="ssr:stedsnr" v="253767" />
		<tag k="water" v="lake" />
	</node>
	<node lat="62.14523888505499" lon="9.076038892601106" id="-27889">
		<tag k="name" v="Lomtjønne" />
		<tag k="natural" v="water" />
		<tag k="ssr:stedsnr" v="253926" />
	</node>
	<node lat="62.132130556857945" lon="8.874438893721948" id="-27890">
		<tag k="name" v="Skiatjønne" />
		<tag k="natural" v="water" />
		<tag k="ssr:stedsnr" v="253929" />
	</node>
	<node lat="62.32912222515984" lon="8.451833329933066" id="-27900">
		<tag k="name" v="Miutjønnin" />
		<tag k="natural" v="water" />
		<tag k="ssr:stedsnr" v="254247" />
		<tag k="water" v="lake" />
	</node>
	<node lat="62.25255000140716" lon="8.620369437117217" id="-27902">
		<tag k="name" v="Merralonene" />
		<tag k="place" v="locality" />
		<tag k="ssr:stedsnr" v="254267" />
	</node>
	<node lat="62.31454166434922" lon="8.17951945301399" id="-27903">
		<tag k="alt_name" v="Bøvra" />
		<tag k="name" v="Nordre Bøvre" />
		<tag k="ssr:stedsnr" v="254208" />
		<tag k="waterway" v="stream" />
	</node>
	<node lat="62.27765555754323" lon="8.843561118890635" id="-27907">
		<tag k="name" v="Svartdalsvatnet" />
		<tag k="natural" v="water" />
		<tag k="ssr:stedsnr" v="254343" />
		<tag k="water" v="lake" />
	</node>
	<node lat="62.297844446238834" lon="8.966216667847611" id="-27910">
		<tag k="name" v="Tverråvatnet" />
		<tag k="natural" v="water" />
		<tag k="ssr:stedsnr" v="254353" />
		<tag k="water" v="lake" />
	</node>
	<node lat="62.225408335343886" lon="8.489747227789762" id="-27922">
		<tag k="alt_name" v="Sandgrovåe;Sandgroåe" />
		<tag k="name" v="Sandgrovåi" />
		<tag k="ssr:stedsnr" v="254851" />
		<tag k="waterway" v="stream" />
	</node>
	<node lat="62.228255557017235" lon="8.833102783348872" id="-27925">
		<tag k="name" v="Godsjøen" />
		<tag k="natural" v="water" />
		<tag k="ssr:stedsnr" v="254992" />
	</node>
	<node lat="62.220686107313966" lon="8.878663882496243" id="-27926">
		<tag k="alt_name" v="Sjongsåe" />
		<tag k="name" v="Sjongsåi" />
		<tag k="ssr:stedsnr" v="254997" />
		<tag k="waterway" v="stream" />
	</node>
	<node lat="62.11722222215946" lon="8.712736111825922" id="-27931">
		<tag k="name" v="Bråtåløken" />
		<tag k="place" v="locality" />
		<tag k="ssr:stedsnr" v="171418" />
	</node>
	<node lat="62.22039166254913" lon="8.410355557885552" id="-27938">
		<tag k="name" v="Vetlevatnet" />
		<tag k="natural" v="bay" />
		<tag k="ssr:stedsnr" v="172462" />
	</node>
	<node lat="62.171000001004884" lon="9.078886107409737" id="-27942">
		<tag k="name" v="Søre Reinåe" />
		<tag k="ssr:stedsnr" v="220326" />
		<tag k="waterway" v="stream" />
	</node>
	<node lat="62.25253055730763" lon="8.356513888505619" id="-27944">
		<tag k="name" v="Fjellfossen" />
		<tag k="natural" v="waterfall" />
		<tag k="ssr:stedsnr" v="232104" />
	</node>
	<node lat="62.22935555767902" lon="8.37474721365618" id="-27948">
		<tag k="name" v="Bella" />
		<tag k="ssr:stedsnr" v="232083" />
		<tag k="waterway" v="stream" />
	</node>
	<node lat="62.27012777920323" lon="8.287655551273833" id="-27949">
		<tag k="name" v="Tveråe" />
		<tag k="ssr:stedsnr" v="232097" />
		<tag k="waterway" v="stream" />
	</node>
	<node lat="62.24154444781572" lon="8.725783324136001" id="-27954">
		<tag k="name" v="Kvita" />
		<tag k="ssr:stedsnr" v="232647" />
		<tag k="waterway" v="stream" />
	</node>
	<node lat="62.20120833486815" lon="9.25987778579179" id="-27968">
		<tag k="name" v="Buatjønne" />
		<tag k="natural" v="water" />
		<tag k="ssr:stedsnr" v="253738" />
	</node>
	<node lat="62.19897416605354" lon="9.260683345724868" id="-27969">
		<tag k="loc_name" v="Grisungtjønnin" />
		<tag k="name" v="Grisungvatni" />
		<tag k="natural" v="water" />
		<tag k="ssr:stedsnr" v="253748" />
		<tag k="water" v="lake" />
	</node>
	<node lat="62.16921667063016" lon="9.077061107776412" id="-27976">
		<tag k="alt_name" v="Strålsjobekken" />
		<tag k="name" v="Strålsjøbekken" />
		<tag k="ssr:stedsnr" v="253973" />
		<tag k="waterway" v="stream" />
	</node>
	<node lat="62.044763890927015" lon="8.457644449781899" id="-27977">
		<tag k="alt_name" v="Vetlefellinge" />
		<tag k="name" v="Veslefellingi" />
		<tag k="ssr:stedsnr" v="253982" />
		<tag k="waterway" v="stream" />
	</node>
	<node lat="62.29381110766376" lon="8.284958337848195" id="-27978">
		<tag k="name" v="Søreinbuvatnet" />
		<tag k="natural" v="water" />
		<tag k="ssr:stedsnr" v="254221" />
	</node>
	<node lat="62.33219166423988" lon="8.413808332056247" id="-27980">
		<tag k="name" v="Trughamartjønne" />
		<tag k="natural" v="water" />
		<tag k="ssr:stedsnr" v="254235" />
	</node>
	<node lat="62.190202773370366" lon="8.885338892358691" id="-27986">
		<tag k="name" v="Flisarbekken" />
		<tag k="ssr:stedsnr" v="254943" />
		<tag k="waterway" v="stream" />
	</node>
	<node lat="62.16992222521052" lon="8.546291661022714" id="-27988">
		<tag k="name" v="Svaåkroken" />
		<tag k="place" v="locality" />
		<tag k="ssr:stedsnr" v="292309" />
	</node>
	<node lat="62.254613890424075" lon="8.75283610795414" id="-27995">
		<tag k="name" v="Buvike" />
		<tag k="natural" v="bay" />
		<tag k="ssr:stedsnr" v="293694" />
	</node>
	<node lat="62.16782499884657" lon="8.62593888819917" id="-28000">
		<tag k="name" v="Andtjønne" />
		<tag k="natural" v="water" />
		<tag k="ssr:stedsnr" v="294323" />
	</node>
	<node lat="62.25904999657653" lon="8.301325001837045" id="-28004">
		<tag k="alt_name" v="Søreinbuåi" />
		<tag k="name" v="Søreinbusåe" />
		<tag k="ssr:stedsnr" v="314315" />
		<tag k="waterway" v="river" />
	</node>
	<node lat="62.273873666747036" lon="9.042994393822626" id="-28006">
		<tag k="alt_name" v="Leirsjøen" />
		<tag k="name" v="Lesjøen" />
		<tag k="natural" v="water" />
		<tag k="ssr:stedsnr" v="314418" />
		<tag k="water" v="lake" />
	</node>
	<node lat="62.0648416667545" lon="8.990180564307252" id="-28007">
		<tag k="alt_name" v="Kvennåe" />
		<tag k="name" v="Kvernåi" />
		<tag k="ssr:stedsnr" v="314602" />
		<tag k="waterway" v="river" />
	</node>
	<node lat="62.065186113617315" lon="8.9404333343381" id="-28008">
		<tag k="name" v="Vetlguttjønn" />
		<tag k="natural" v="water" />
		<tag k="ssr:stedsnr" v="314606" />
	</node>
	<node lat="62.01910555384393" lon="8.835661105818236" id="-28009">
		<tag k="name" v="Grovbekken" />
		<tag k="ssr:stedsnr" v="314561" />
		<tag k="waterway" v="stream" />
	</node>
	<node lat="62.161544445347936" lon="8.68807500835775" id="-28010">
		<tag k="name" v="Svedåi" />
		<tag k="ssr:stedsnr" v="314811" />
		<tag k="waterway" v="stream" />
	</node>
	<node lat="62.349202775684084" lon="8.385911104055408" id="-28015">
		<tag k="name" v="Simlebekken" />
		<tag k="ssr:stedsnr" v="315317" />
		<tag k="waterway" v="stream" />
	</node>
	<node lat="62.33856111521879" lon="8.710394450665992" id="-28016">
		<tag k="name" v="Geitåi" />
		<tag k="ssr:stedsnr" v="315322" />
		<tag k="waterway" v="stream" />
	</node>
	<node lat="62.31103888657716" lon="8.436611108885911" id="-28017">
		<tag k="name" v="Istjønne" />
		<tag k="natural" v="water" />
		<tag k="ssr:stedsnr" v="315263" />
	</node>
	<node lat="62.31937830697715" lon="9.158909541776115" id="-28018">
		<tag k="name" v="Langvatnet" />
		<tag k="natural" v="water" />
		<tag k="ssr:stedsnr" v="315643" />
		<tag k="water" v="lake" />
	</node>
	<node lat="62.25660000396771" lon="8.76215554804072" id="-28026">
		<tag k="name" v="Gautholman" />
		<tag k="place" v="islet" />
		<tag k="ssr:stedsnr" v="474725" />
	</node>
	<node lat="62.18713889257026" lon="8.512372226874193" id="-28029">
		<tag k="name" v="Kvitskredbekken" />
		<tag k="ssr:stedsnr" v="474319" />
		<tag k="waterway" v="stream" />
	</node>
	<node lat="62.237258334088686" lon="8.213213896803092" id="-28035">
		<tag k="name" v="Motjønne" />
		<tag k="natural" v="water" />
		<tag k="ssr:stedsnr" v="353205" />
	</node>
	<node lat="62.15718055651842" lon="8.64294999640462" id="-28042">
		<tag k="name" v="Risøye" />
		<tag k="natural" v="cape" />
		<tag k="ssr:stedsnr" v="353553" />
	</node>
	<node lat="62.15724999796353" lon="8.800661106092997" id="-28045">
		<tag k="name" v="Horrungkjelda" />
		<tag k="natural" v="spring" />
		<tag k="ssr:stedsnr" v="353567" />
	</node>
	<node lat="62.2619249988861" lon="8.776466671845316" id="-28047">
		<tag k="name" v="Sletthellåe" />
		<tag k="ssr:stedsnr" v="353710" />
		<tag k="waterway" v="stream" />
	</node>
	<node lat="62.109241665416334" lon="8.828127773508884" id="-28057">
		<tag k="name" v="Hogsvoldkroken" />
		<tag k="ssr:stedsnr" v="474654" />
		<tag k="waterway" v="rapids" />
	</node>
	<node lat="62.06787222356682" lon="8.978197223722162" id="-28058">
		<tag k="name" v="Grønlitjønn" />
		<tag k="natural" v="water" />
		<tag k="ssr:stedsnr" v="474848" />
	</node>
	<node lat="62.29660833694659" lon="8.20934166961855" id="-28070">
		<tag k="name" v="Elmerhølen" />
		<tag k="place" v="locality" />
		<tag k="ssr:stedsnr" v="475249" />
	</node>
	<node lat="62.221980555128276" lon="8.410855560828423" id="-28073">
		<tag k="name" v="Langodden" />
		<tag k="natural" v="cape" />
		<tag k="ssr:stedsnr" v="475454" />
	</node>
	<node lat="62.172322222622526" lon="8.585247213251877" id="-28084">
		<tag k="name" v="Myrtjønne" />
		<tag k="natural" v="water" />
		<tag k="ssr:stedsnr" v="476324" />
	</node>
	<node lat="62.29834444378279" lon="8.116669447543241" id="-28089">
		<tag k="name" v="Rauma" />
		<tag k="ssr:stedsnr" v="374150" />
		<tag k="waterway" v="river" />
	</node>
	<node lat="62.19755000038237" lon="9.268933325494082" id="-28090">
		<tag k="name" v="Holken" />
		<tag k="natural" v="water" />
		<tag k="ssr:stedsnr" v="374728" />
	</node>
	<node lat="62.16064999877639" lon="8.303477781721446" id="-28091">
		<tag k="name" v="Storgrøna" />
		<tag k="ssr:stedsnr" v="374802" />
		<tag k="waterway" v="river" />
	</node>
	<node lat="62.32069444336753" lon="8.531083325808922" id="-28096">
		<tag k="name" v="Hanstjønne" />
		<tag k="natural" v="water" />
		<tag k="ssr:stedsnr" v="375226" />
	</node>
	<node lat="62.260788885837485" lon="8.836869437355144" id="-28098">
		<tag k="alt_name" v="Sørhellåe" />
		<tag k="name" v="Sørhellåi" />
		<tag k="ssr:stedsnr" v="375388" />
		<tag k="waterway" v="river" />
	</node>
	<node lat="62.104627774379615" lon="8.489205563891412" id="-28099">
		<tag k="name" v="Nørdre Gravåe" />
		<tag k="ssr:stedsnr" v="375730" />
		<tag k="waterway" v="stream" />
	</node>
	<node lat="62.202775001333436" lon="8.513458331411526" id="-28100">
		<tag k="alt_name" v="Kvernbekken" />
		<tag k="name" v="Kvennbekken" />
		<tag k="ssr:stedsnr" v="375796" />
		<tag k="waterway" v="stream" />
	</node>
	<node lat="62.24832500302537" lon="8.773686116585498" id="-28104">
		<tag k="name" v="Gautsjøen" />
		<tag k="natural" v="water" />
		<tag k="ssr:stedsnr" v="375975" />
	</node>
	<node lat="62.22195000423222" lon="8.774149998420212" id="-28106">
		<tag k="alt_name" v="Kvitåe" />
		<tag k="name" v="Kvita" />
		<tag k="ssr:stedsnr" v="375992" />
		<tag k="waterway" v="stream" />
	</node>
	<node lat="62.285825002776086" lon="8.610808326855713" id="-28107">
		<tag k="name" v="Langtjønnin" />
		<tag k="natural" v="water" />
		<tag k="ssr:stedsnr" v="376306" />
		<tag k="water" v="lake" />
	</node>
	<node lat="62.05537500274272" lon="8.372055554745295" id="-28108">
		<tag k="loc_name" v="Krongelbekken" />
		<tag k="name" v="Steinkloppåe" />
		<tag k="ssr:stedsnr" v="400279" />
		<tag k="waterway" v="stream" />
	</node>
	<node lat="62.13781388805012" lon="8.975041667482218" id="-28109">
		<tag k="name" v="Tjønnin" />
		<tag k="natural" v="water" />
		<tag k="ssr:stedsnr" v="412047" />
		<tag k="water" v="lake" />
	</node>
	<node lat="62.27012500319746" lon="8.284961104078354" id="-28111">
		<tag k="name" v="Vetlåe" />
		<tag k="ssr:stedsnr" v="414086" />
		<tag k="waterway" v="stream" />
	</node>
	<node lat="62.18527221806736" lon="8.583411110738494" id="-28119">
		<tag k="name" v="Drågdalsbekken" />
		<tag k="ssr:stedsnr" v="414497" />
		<tag k="waterway" v="stream" />
	</node>
	<node lat="62.24459444643922" lon="8.761583332041365" id="-28121">
		<tag k="name" v="Langbergbekken" />
		<tag k="ssr:stedsnr" v="414696" />
		<tag k="waterway" v="stream" />
	</node>
	<node lat="62.2239444482632" lon="8.409913886843773" id="-28125">
		<tag k="name" v="Tanterholmen" />
		<tag k="place" v="islet" />
		<tag k="ssr:stedsnr" v="415508" />
	</node>
	<node lat="62.17667500276985" lon="8.702122219322987" id="-28126">
		<tag k="name" v="Motterudholet" />
		<tag k="place" v="locality" />
		<tag k="ssr:stedsnr" v="415736" />
	</node>
	<node lat="62.154666665111364" lon="8.704324991568619" id="-28133">
		<tag k="name" v="Hosetbekken" />
		<tag k="ssr:stedsnr" v="435821" />
		<tag k="waterway" v="stream" />
	</node>
	<node lat="62.17921388577801" lon="8.839230549858081" id="-28136">
		<tag k="alt_name" v="Fillingi" />
		<tag k="name" v="Fillinge" />
		<tag k="ssr:stedsnr" v="435978" />
		<tag k="waterway" v="river" />
	</node>
	<node lat="62.25824166553292" lon="8.246902786389452" id="-28139">
		<tag k="name" v="Syste" />
		<tag k="ssr:stedsnr" v="436279" />
		<tag k="waterway" v="stream" />
	</node>
	<node lat="62.25908611319526" lon="9.137099991947332" id="-28140">
		<tag k="alt_name" v="Kjelsungvatnet, in" />
		<tag k="name" v="Indre Kjelsungvatnet" />
		<tag k="natural" v="water" />
		<tag k="ssr:stedsnr" v="436403" />
	</node>
	<node lat="62.207164102563745" lon="8.310912788828789" id="-28143">
		<tag k="name" v="Kristiantjønne" />
		<tag k="natural" v="water" />
		<tag k="ssr:stedsnr" v="436815" />
	</node>
	<node lat="62.224505555217966" lon="8.277058331363321" id="-28146">
		<tag k="name" v="Vågåbekken" />
		<tag k="ssr:stedsnr" v="436858" />
		<tag k="waterway" v="stream" />
	</node>
	<node lat="62.18361389220253" lon="8.575586118945578" id="-28148">
		<tag k="name" v="Skåpårtjønn" />
		<tag k="natural" v="water" />
		<tag k="ssr:stedsnr" v="474515" />
	</node>
	<node lat="62.22375277430998" lon="8.767825003769008" id="-28153">
		<tag k="name" v="Follåe" />
		<tag k="ssr:stedsnr" v="474678" />
		<tag k="waterway" v="stream" />
	</node>
	<node lat="62.17245555585411" lon="8.494291667655377" id="-28161">
		<tag k="name" v="Valåfossen" />
		<tag k="natural" v="waterfall" />
		<tag k="ssr:stedsnr" v="475505" />
	</node>
	<node lat="62.098866666035235" lon="8.675449993309801" id="-28163">
		<tag k="name" v="Teppbekken" />
		<tag k="ssr:stedsnr" v="475572" />
		<tag k="waterway" v="stream" />
	</node>
	<node lat="62.124858336771645" lon="8.84376111364332" id="-28169">
		<tag k="name" v="Kolstadbekken" />
		<tag k="ssr:stedsnr" v="475733" />
		<tag k="waterway" v="stream" />
	</node>
	<node lat="62.14683333331651" lon="9.050497213019009" id="-28170">
		<tag k="name" v="Potaskbekken" />
		<tag k="ssr:stedsnr" v="475885" />
		<tag k="waterway" v="stream" />
	</node>
	<node lat="62.23917777531362" lon="8.117444444532161" id="-28178">
		<tag k="loc_name" v="Tverråe" />
		<tag k="name" v="Tverråi" />
		<tag k="ssr:stedsnr" v="678137" />
		<tag k="waterway" v="stream" />
	</node>
	<node lat="62.196636106845844" lon="9.221655564101479" id="-28184">
		<tag k="name" v="Korpehaugtjønne" />
		<tag k="natural" v="water" />
		<tag k="ssr:stedsnr" v="678731" />
	</node>
	<node lat="62.25500053076297" lon="8.740282667814885" id="-28187">
		<tag k="fixme" v="multiple name tags, choose one and add the other to alt_name" />
		<tag k="name" v="Fiskeviki;Skjervike" />
		<tag k="natural" v="bay" />
		<tag k="ssr:stedsnr" v="678468" />
	</node>
	<node lat="62.030669444909584" lon="8.9556583342366" id="-28188">
		<tag k="name" v="Fauttjønnbekken" />
		<tag k="ssr:stedsnr" v="678550" />
		<tag k="waterway" v="stream" />
	</node>
	<node lat="62.22753611349551" lon="9.055741666898449" id="-28196">
		<tag k="name" v="Mjogsjøen" />
		<tag k="natural" v="water" />
		<tag k="ssr:stedsnr" v="678994" />
		<tag k="water" v="lake" />
	</node>
	<node lat="62.23524444310179" lon="8.82442500773597" id="-28197">
		<tag k="name" v="Trælen" />
		<tag k="natural" v="water" />
		<tag k="ssr:stedsnr" v="678996" />
	</node>
	<node lat="62.23077500011442" lon="8.620352786190582" id="-28198">
		<tag k="alt_name" v="Vetlbottbekken" />
		<tag k="name" v="Veslbottbekken" />
		<tag k="ssr:stedsnr" v="678856" />
		<tag k="waterway" v="stream" />
	</node>
	<node lat="62.16867500022497" lon="9.036452787010498" id="-28203">
		<tag k="name" v="Holbekken" />
		<tag k="ssr:stedsnr" v="678944" />
		<tag k="waterway" v="stream" />
	</node>
	<node lat="62.02496666319605" lon="8.37109443587144" id="-28207">
		<tag k="alt_name" v="Storfellinge" />
		<tag k="name" v="Storfellingi" />
		<tag k="ssr:stedsnr" v="678968" />
		<tag k="waterway" v="river" />
	</node>
	<node lat="62.31852222374207" lon="8.48256943511105" id="-28208">
		<tag k="name" v="Søre Miutjønne" />
		<tag k="natural" v="water" />
		<tag k="ssr:stedsnr" v="679243" />
	</node>
	<node lat="62.36763889253868" lon="8.679752775083605" id="-28210">
		<tag k="name" v="Skjellbreidvatnet" />
		<tag k="natural" v="water" />
		<tag k="ssr:stedsnr" v="679338" />
	</node>
	<node lat="62.33653333209994" lon="8.255363890683245" id="-28212">
		<tag k="name" v="Hallogløyptjønne" />
		<tag k="natural" v="water" />
		<tag k="ssr:stedsnr" v="679302" />
	</node>
	<node lat="62.268007719293934" lon="9.215372765773733" id="-28216">
		<tag k="name" v="Svånåvatnet" />
		<tag k="natural" v="water" />
		<tag k="old_name" v="Svånådalsvatnet" />
		<tag k="ssr:stedsnr" v="496464" />
		<tag k="water" v="lake" />
	</node>
	<node lat="62.0730805532648" lon="9.022963886443327" id="-28219">
		<tag k="name" v="Svarttjønne" />
		<tag k="natural" v="water" />
		<tag k="ssr:stedsnr" v="496608" />
	</node>
	<node lat="62.08921944891778" lon="8.911263881220462" id="-28220">
		<tag k="alt_name" v="Hattremsåe" />
		<tag k="name" v="Hattremsåi" />
		<tag k="ssr:stedsnr" v="496620" />
		<tag k="waterway" v="stream" />
	</node>
	<node lat="62.025252774196574" lon="8.959033323878513" id="-28221">
		<tag k="name" v="Sjutjønnin" />
		<tag k="natural" v="water" />
		<tag k="ssr:stedsnr" v="496564" />
		<tag k="water" v="lake" />
	</node>
	<node lat="62.16413610869647" lon="8.679563879398755" id="-28223">
		<tag k="alt_name" v="Motterudåe" />
		<tag k="name" v="Motterudåi" />
		<tag k="ssr:stedsnr" v="496811" />
		<tag k="waterway" v="stream" />
	</node>
	<node lat="62.159361110287314" lon="8.696024997945425" id="-28224">
		<tag k="alt_name" v="Sandåe" />
		<tag k="name" v="Sandåi" />
		<tag k="ssr:stedsnr" v="496814" />
		<tag k="waterway" v="stream" />
	</node>
	<node lat="62.212030554895314" lon="8.447763884143992" id="-28227">
		<tag k="name" v="Lesjaskogsvatnet" />
		<tag k="natural" v="water" />
		<tag k="ssr:stedsnr" v="496851" />
		<tag k="water" v="lake" />
	</node>
	<node lat="62.2234444481969" lon="8.324611118300156" id="-28228">
		<tag k="name" v="Grønfossen" />
		<tag k="natural" v="waterfall" />
		<tag k="ssr:stedsnr" v="496859" />
	</node>
	<node lat="62.198599999034265" lon="8.94806945397852" id="-28232">
		<tag k="alt_name" v="Fransaråe" />
		<tag k="name" v="Fransaråi" />
		<tag k="ssr:stedsnr" v="496946" />
		<tag k="waterway" v="stream" />
	</node>
	<node lat="62.18368414101606" lon="9.104009857281486" id="-28234">
		<tag k="name" v="Strålsjøen" />
		<tag k="natural" v="water" />
		<tag k="ssr:stedsnr" v="496959" />
		<tag k="water" v="lake" />
	</node>
	<node lat="62.28408333190964" lon="8.37500833617919" id="-28238">
		<tag k="alt_name" v="Mølmsvatnet, nedre" />
		<tag k="name" v="Nedre Mølmsvatnet" />
		<tag k="natural" v="water" />
		<tag k="ssr:stedsnr" v="497252" />
	</node>
	<node lat="62.269436112750476" lon="8.346008331487552" id="-28239">
		<tag k="name" v="Nørdre Mølmsåe" />
		<tag k="ssr:stedsnr" v="497303" />
		<tag k="waterway" v="stream" />
	</node>
	<node lat="62.058488889196354" lon="8.95096666616162" id="-28242">
		<tag k="name" v="Tatteråe" />
		<tag k="ssr:stedsnr" v="534188" />
		<tag k="waterway" v="river" />
	</node>
	<node lat="62.12968888905276" lon="8.679249995378397" id="-28243">
		<tag k="name" v="Djupkvisle" />
		<tag k="place" v="locality" />
		<tag k="ssr:stedsnr" v="535416" />
	</node>
	<node lat="62.257736111244185" lon="8.78263055218094" id="-28245">
		<tag k="name" v="Kråkoddbekken" />
		<tag k="ssr:stedsnr" v="535705" />
		<tag k="waterway" v="stream" />
	</node>
	<node lat="62.228816667051014" lon="8.363211119211345" id="-28251">
		<tag k="name" v="Gammeldammen" />
		<tag k="natural" v="water" />
		<tag k="ssr:stedsnr" v="536091" />
		<tag k="water" v="lake" />
	</node>
	<node lat="62.184655559112095" lon="8.923230558628312" id="-28254">
		<tag k="name" v="Kvennhusfossen" />
		<tag k="natural" v="waterfall" />
		<tag k="ssr:stedsnr" v="536914" />
	</node>
	<node lat="62.21467221930474" lon="8.162405564924812" id="-28260">
		<tag k="loc_name" v="Tverrbekkin" />
		<tag k="name" v="Tverrbekkene" />
		<tag k="ssr:stedsnr" v="556210" />
		<tag k="waterway" v="stream" />
	</node>
	<node lat="62.167763884786204" lon="8.124094437784798" id="-28261">
		<tag k="alt_name" v="Asbjørnsåe" />
		<tag k="name" v="Asbjørnsåi" />
		<tag k="ssr:stedsnr" v="556215" />
		<tag k="waterway" v="river" />
	</node>
	<node lat="62.05235000357818" lon="9.031283335259083" id="-28263">
		<tag k="alt_name" v="Borgåe" />
		<tag k="name" v="Borgåi" />
		<tag k="ssr:stedsnr" v="556607" />
		<tag k="waterway" v="stream" />
	</node>
	<node lat="62.18351389135158" lon="8.538300000978687" id="-28265">
		<tag k="name" v="Sandbekken" />
		<tag k="ssr:stedsnr" v="556804" />
		<tag k="waterway" v="stream" />
	</node>
	<node lat="62.247609098896056" lon="8.60863243933126" id="-28267">
		<tag k="name" v="Fiskelaustjønne" />
		<tag k="natural" v="water" />
		<tag k="ssr:stedsnr" v="556860" />
	</node>
	<node lat="62.13298611321377" lon="8.797286114275176" id="-28273">
		<tag k="name" v="Haugabekken" />
		<tag k="ssr:stedsnr" v="556921" />
		<tag k="waterway" v="stream" />
	</node>
	<node lat="62.170166668835414" lon="8.894975004371991" id="-28275">
		<tag k="alt_name" v="Rengle" />
		<tag k="name" v="Rengla" />
		<tag k="ssr:stedsnr" v="556969" />
		<tag k="waterway" v="stream" />
	</node>
	<node lat="62.07311389009631" lon="8.508736105078526" id="-28283">
		<tag k="alt_name" v="Storåe" />
		<tag k="name" v="Storåi" />
		<tag k="ssr:stedsnr" v="557750" />
		<tag k="waterway" v="stream" />
	</node>
	<node lat="62.08359721921401" lon="8.419544451607507" id="-28284">
		<tag k="alt_name" v="Gjelutåe" />
		<tag k="name" v="Gjelutåi" />
		<tag k="ssr:stedsnr" v="557752" />
		<tag k="waterway" v="stream" />
	</node>
	<node lat="62.30608610773818" lon="8.268027784525838" id="-28293">
		<tag k="name" v="Søre Bøvre" />
		<tag k="ssr:stedsnr" v="583047" />
		<tag k="waterway" v="stream" />
	</node>
	<node lat="62.11412777716695" lon="8.787930563392928" id="-28303">
		<tag k="name" v="Dalbekken" />
		<tag k="ssr:stedsnr" v="596623" />
		<tag k="waterway" v="stream" />
	</node>
	<node lat="62.08647222345867" lon="8.832752773420351" id="-28304">
		<tag k="name" v="Storhaugbekken" />
		<tag k="ssr:stedsnr" v="596600" />
		<tag k="waterway" v="stream" />
	</node>
	<node lat="62.27709166779494" lon="9.137174990874039" id="-28313">
		<tag k="name" v="Heinsavatnet" />
		<tag k="natural" v="water" />
		<tag k="old_name" v="Heisavatnet" />
		<tag k="ssr:stedsnr" v="617408" />
		<tag k="water" v="lake" />
	</node>
	<node lat="62.07660277702504" lon="9.048277783748912" id="-28322">
		<tag k="name" v="Storrtjønne" />
		<tag k="natural" v="water" />
		<tag k="ssr:stedsnr" v="617592" />
	</node>
	<node lat="62.16058610913377" lon="8.879577780892262" id="-28323">
		<tag k="alt_name" v="Raubekken" />
		<tag k="name" v="Raudbekken" />
		<tag k="ssr:stedsnr" v="617704" />
		<tag k="waterway" v="stream" />
	</node>
	<node lat="62.1781111088038" lon="8.236144439960592" id="-28324">
		<tag k="name" v="Nonsåi" />
		<tag k="ssr:stedsnr" v="617808" />
		<tag k="waterway" v="stream" />
	</node>
	<node lat="62.207355554026556" lon="8.501713891996486" id="-28327">
		<tag k="name" v="Fotfola" />
		<tag k="ssr:stedsnr" v="617832" />
		<tag k="waterway" v="stream" />
	</node>
	<node lat="62.07276111274683" lon="8.386777777965786" id="-28333">
		<tag k="name" v="Lurva" />
		<tag k="ssr:stedsnr" v="617781" />
		<tag k="waterway" v="stream" />
	</node>
	<node lat="62.17265472963344" lon="8.550605685451433" id="-28334">
		<tag k="alt_name" v="Svaåe" />
		<tag k="name" v="Svaåi" />
		<tag k="ssr:stedsnr" v="617797" />
		<tag k="waterway" v="stream" />
	</node>
	<node lat="62.20351944449355" lon="8.836908326819364" id="-28336">
		<tag k="name" v="Raudbekken" />
		<tag k="ssr:stedsnr" v="617930" />
		<tag k="waterway" v="stream" />
	</node>
	<node lat="62.193908333254235" lon="8.908730564363626" id="-28338">
		<tag k="name" v="Dyratjønne" />
		<tag k="natural" v="water" />
		<tag k="ssr:stedsnr" v="617940" />
	</node>
	<node lat="62.30824999937125" lon="8.36327499470848" id="-28340">
		<tag k="alt_name" v="Mølmsvatnet, inste" />
		<tag k="name" v="Inste Mølmsvatnet" />
		<tag k="natural" v="water" />
		<tag k="ssr:stedsnr" v="618215" />
	</node>
	<node lat="62.31431111075286" lon="8.551338896251544" id="-28341">
		<tag k="name" v="Vangstjønne" />
		<tag k="natural" v="water" />
		<tag k="ssr:stedsnr" v="618240" />
	</node>
	<node lat="62.333433336683626" lon="8.401780560889867" id="-28342">
		<tag k="name" v="Butjønne" />
		<tag k="natural" v="water" />
		<tag k="ssr:stedsnr" v="618328" />
	</node>
	<node lat="62.34218333438034" lon="8.515008342211694" id="-28343">
		<tag k="name" v="Skagetjønne" />
		<tag k="natural" v="water" />
		<tag k="ssr:stedsnr" v="618333" />
	</node>
	<node lat="62.200441663953576" lon="8.552041669792722" id="-28350">
		<tag k="name" v="Torsplassåe" />
		<tag k="ssr:stedsnr" v="656331" />
		<tag k="waterway" v="stream" />
	</node>
	<node lat="62.27464166320968" lon="8.684613887892132" id="-28361">
		<tag k="name" v="Raudbekken" />
		<tag k="ssr:stedsnr" v="657709" />
		<tag k="waterway" v="stream" />
	</node>
	<node lat="62.20004722670186" lon="8.889000009179894" id="-28364">
		<tag k="name" v="Feloddin" />
		<tag k="natural" v="cape" />
		<tag k="ssr:stedsnr" v="657895" />
	</node>
	<node lat="62.16281666782837" lon="8.06908612041986" id="-28365">
		<tag k="name" v="Buabergvatnet" />
		<tag k="natural" v="water" />
		<tag k="ssr:stedsnr" v="678233" />
	</node>
	<node lat="62.18166388814144" lon="8.63506388148701" id="-28381">
		<tag k="alt_name" v="Mosendåe" />
		<tag k="name" v="Mosendåi" />
		<tag k="ssr:stedsnr" v="678782" />
		<tag k="waterway" v="stream" />
	</node>
	<node lat="62.139941667991366" lon="8.800808341576563" id="-28384">
		<tag k="alt_name" v="Liaåe" />
		<tag k="name" v="Liaåi" />
		<tag k="ssr:stedsnr" v="678904" />
		<tag k="waterway" v="stream" />
	</node>
	<node lat="62.2076166706399" lon="8.833080551686201" id="-28390">
		<tag k="alt_name" v="Vetlegrove" />
		<tag k="name" v="Veslegrovi" />
		<tag k="ssr:stedsnr" v="678921" />
		<tag k="waterway" v="stream" />
	</node>
	<node lat="62.24815000423897" lon="8.984077775968407" id="-28394">
		<tag k="name" v="Flatbekken" />
		<tag k="ssr:stedsnr" v="678987" />
		<tag k="waterway" v="stream" />
	</node>
	<node lat="62.350569445464465" lon="8.509705561666104" id="-28395">
		<tag k="name" v="Langtjønne" />
		<tag k="natural" v="water" />
		<tag k="ssr:stedsnr" v="679303" />
	</node>
	<node lat="62.253349999704014" lon="8.854583331813359" id="-28400">
		<tag k="alt_name" v="Tverråe" />
		<tag k="name" v="Tverråi" />
		<tag k="ssr:stedsnr" v="679628" />
		<tag k="waterway" v="river" />
	</node>
	<node lat="62.16507500095204" lon="8.04046667620768" id="-28401">
		<tag k="name" v="Skurveostjønnin" />
		<tag k="natural" v="water" />
		<tag k="ssr:stedsnr" v="695709" />
		<tag k="water" v="lake" />
	</node>
	<node lat="62.127108337518955" lon="9.052655555444954" id="-28415">
		<tag k="name" v="Hansstudulhølen" />
		<tag k="place" v="locality" />
		<tag k="ssr:stedsnr" v="717906" />
	</node>
	<node lat="62.19455555889658" lon="8.483766658092032" id="-28419">
		<tag k="name" v="Valåbotten" />
		<tag k="natural" v="bay" />
		<tag k="ssr:stedsnr" v="718472" />
	</node>
	<node lat="62.18744721986291" lon="8.508630553596173" id="-28421">
		<tag k="name" v="Grove" />
		<tag k="ssr:stedsnr" v="899329" />
		<tag k="waterway" v="stream" />
	</node>
	<node lat="62.1062722249061" lon="8.830419447177922" id="-28427">
		<tag k="name" v="Løken" />
		<tag k="ssr:stedsnr" v="899649" />
		<tag k="waterway" v="drain" />
	</node>
	<node lat="62.154005551893626" lon="8.754675005007162" id="-28431">
		<tag k="name" v="Søre Lyftinge" />
		<tag k="ssr:stedsnr" v="900565" />
		<tag k="waterway" v="stream" />
	</node>
	<node lat="62.23422499807819" lon="8.357725006640282" id="-28435">
		<tag k="name" v="Rundtombekken" />
		<tag k="ssr:stedsnr" v="900087" />
		<tag k="waterway" v="stream" />
	</node>
	<node lat="62.19681944885915" lon="8.491205560875418" id="-28438">
		<tag k="name" v="Bukkeholman" />
		<tag k="place" v="islet" />
		<tag k="ssr:stedsnr" v="900450" />
	</node>
	<node lat="62.14354722363202" lon="8.668836115488443" id="-28442">
		<tag k="name" v="Jensholen" />
		<tag k="natural" v="cape" />
		<tag k="ssr:stedsnr" v="900546" />
	</node>
	<node lat="62.140697221962625" lon="8.809274990830202" id="-28443">
		<tag k="name" v="Holebekken" />
		<tag k="ssr:stedsnr" v="900549" />
		<tag k="waterway" v="stream" />
	</node>
	<node lat="62.23974166501516" lon="8.131966659488027" id="-28452">
		<tag k="name" v="Elgøye" />
		<tag k="place" v="island" />
		<tag k="ssr:stedsnr" v="734241" />
	</node>
	<node lat="62.143630555008016" lon="8.065936108567499" id="-28454">
		<tag k="name" v="Digerkampvatnet" />
		<tag k="natural" v="water" />
		<tag k="ssr:stedsnr" v="738213" />
	</node>
	<node lat="62.160383335013705" lon="9.129822224580863" id="-28455">
		<tag k="name" v="Grøna" />
		<tag k="ssr:stedsnr" v="738704" />
		<tag k="waterway" v="river" />
	</node>
	<node lat="62.1933138924561" lon="8.333141658540653" id="-28458">
		<tag k="name" v="Sæterbekken" />
		<tag k="ssr:stedsnr" v="738865" />
		<tag k="waterway" v="stream" />
	</node>
	<node lat="62.16844722651516" lon="8.490988896798227" id="-28459">
		<tag k="alt_name" v="Valåe" />
		<tag k="name" v="Valåi" />
		<tag k="ssr:stedsnr" v="738799" />
		<tag k="waterway" v="river" />
	</node>
	<node lat="62.152605556131356" lon="8.127583329019373" id="-28462">
		<tag k="name" v="Kjelkehøtjønne" />
		<tag k="natural" v="water" />
		<tag k="ssr:stedsnr" v="739203" />
	</node>
	<node lat="62.04248611556056" lon="8.185194453409764" id="-28464">
		<tag k="name" v="Nørdre Løyftåe" />
		<tag k="ssr:stedsnr" v="739231" />
		<tag k="waterway" v="stream" />
	</node>
	<node lat="62.09285555220544" lon="8.83432499334478" id="-28465">
		<tag k="alt_name" v="Nore" />
		<tag k="name" v="Nora" />
		<tag k="ssr:stedsnr" v="739615" />
		<tag k="waterway" v="stream" />
	</node>
	<node lat="62.17109444406231" lon="8.613566658942664" id="-28480">
		<tag k="name" v="Løkan" />
		<tag k="place" v="locality" />
		<tag k="ssr:stedsnr" v="778327" />
	</node>
	<node lat="62.11618888967028" lon="8.809566673526868" id="-28483">
		<tag k="name" v="Lemba" />
		<tag k="ssr:stedsnr" v="778719" />
		<tag k="waterway" v="stream" />
	</node>
	<node lat="62.1972416670163" lon="8.895947229747499" id="-28487">
		<tag k="name" v="Kringlotholen" />
		<tag k="natural" v="cape" />
		<tag k="ssr:stedsnr" v="778899" />
	</node>
	<node lat="62.23803610849979" lon="8.135866668894723" id="-28490">
		<tag k="name" v="Kvernhusfossen" />
		<tag k="natural" v="waterfall" />
		<tag k="ssr:stedsnr" v="779214" />
	</node>
	<node lat="62.11039999852606" lon="8.171952775727576" id="-28495">
		<tag k="alt_name" v="Grønvatnet, søre" />
		<tag k="name" v="Søre Grønvatnet" />
		<tag k="natural" v="water" />
		<tag k="ssr:stedsnr" v="799201" />
		<tag k="water" v="lake" />
	</node>
	<node lat="62.24830103327822" lon="8.59724521972719" id="-28506">
		<tag k="alt_name" v="Merrabottvatnet, nedre" />
		<tag k="name" v="Nedre Merrabottvatnet" />
		<tag k="natural" v="water" />
		<tag k="ssr:stedsnr" v="800834" />
		<tag k="water" v="lake" />
	</node>
	<node lat="62.245172218675144" lon="8.665100002914018" id="-28507">
		<tag k="name" v="Storsteintjønne" />
		<tag k="natural" v="water" />
		<tag k="ssr:stedsnr" v="800835" />
	</node>
	<node lat="62.110541667805016" lon="8.555513895405097" id="-28508">
		<tag k="alt_name" v="Slettmoåe" />
		<tag k="name" v="Slettmoåi" />
		<tag k="ssr:stedsnr" v="800724" />
		<tag k="waterway" v="stream" />
	</node>
	<node lat="62.10597777432735" lon="8.499949993068526" id="-28509">
		<tag k="name" v="Søre Gravåe" />
		<tag k="ssr:stedsnr" v="800725" />
		<tag k="waterway" v="stream" />
	</node>
	<node lat="62.071730558900875" lon="8.31361388753529" id="-28510">
		<tag k="name" v="Nørdre Grove" />
		<tag k="ssr:stedsnr" v="800736" />
		<tag k="waterway" v="stream" />
	</node>
	<node lat="62.27995833118465" lon="8.592644441151142" id="-28517">
		<tag k="name" v="Skardtjønnin" />
		<tag k="natural" v="water" />
		<tag k="ssr:stedsnr" v="801287" />
		<tag k="water" v="lake" />
	</node>
	<node lat="62.27412777984702" lon="8.693216670198437" id="-28526">
		<tag k="name" v="Lomtjønne" />
		<tag k="natural" v="water" />
		<tag k="ssr:stedsnr" v="921321" />
	</node>
	<node lat="62.29418055270329" lon="8.746705549743519" id="-28528">
		<tag k="name" v="Søre Grøve" />
		<tag k="ssr:stedsnr" v="921413" />
		<tag k="waterway" v="stream" />
	</node>
	<node lat="62.29649444374694" lon="9.08326665977533" id="-28529">
		<tag k="name" v="Langvassbekken" />
		<tag k="ssr:stedsnr" v="921414" />
		<tag k="waterway" v="stream" />
	</node>
	<node lat="62.31006666489727" lon="8.99314999695697" id="-28531">
		<tag k="name" v="Lågvatnet" />
		<tag k="natural" v="water" />
		<tag k="ssr:stedsnr" v="921427" />
		<tag k="water" v="lake" />
	</node>
	<node lat="62.10039721813337" lon="8.666333331105127" id="-28540">
		<tag k="alt_name" v="Vesle Nesåe;Veslnesåe" />
		<tag k="name" v="Veslnesåi" />
		<tag k="ssr:stedsnr" v="921782" />
		<tag k="waterway" v="stream" />
	</node>
	<node lat="62.08748888489336" lon="8.668861119557592" id="-28541">
		<tag k="alt_name" v="Stor-nesåe" />
		<tag k="name" v="Stornesåi" />
		<tag k="ssr:stedsnr" v="921787" />
		<tag k="waterway" v="stream" />
	</node>
	<node lat="62.222861111399055" lon="8.56260832715215" id="-28548">
		<tag k="name" v="Perstjønne" />
		<tag k="natural" v="water" />
		<tag k="ssr:stedsnr" v="921866" />
	</node>
	<node lat="62.20861944568085" lon="9.208708337723525" id="-28552">
		<tag k="name" v="Grøntjønne" />
		<tag k="natural" v="water" />
		<tag k="ssr:stedsnr" v="921945" />
	</node>
	<node lat="62.1507416636181" lon="8.92365000124989" id="-28554">
		<tag k="name" v="Skråma" />
		<tag k="ssr:stedsnr" v="921896" />
		<tag k="waterway" v="stream" />
	</node>
	<node lat="62.15541111319954" lon="8.947358341330263" id="-28555">
		<tag k="alt_name" v="Galåe" />
		<tag k="name" v="Galåi" />
		<tag k="ssr:stedsnr" v="921898" />
		<tag k="waterway" v="stream" />
	</node>
	<node lat="62.034863886888985" lon="8.57256666483431" id="-28558">
		<tag k="loc_name" v="Ryggjehøtjønn" />
		<tag k="name" v="Rygghøtjønne" />
		<tag k="natural" v="water" />
		<tag k="ssr:stedsnr" v="921966" />
	</node>
	<node lat="62.26911944615684" lon="8.750238890648117" id="-28561">
		<tag k="name" v="Svartvike" />
		<tag k="natural" v="bay" />
		<tag k="ssr:stedsnr" v="923711" />
	</node>
	<node lat="62.252055556529506" lon="8.118372226877646" id="-28569">
		<tag k="name" v="Storløken" />
		<tag k="natural" v="bay" />
		<tag k="ssr:stedsnr" v="840226" />
	</node>
	<node lat="62.246752776446016" lon="8.433830559929188" id="-28577">
		<tag k="alt_name" v="Brandliåe" />
		<tag k="name" v="Brandliåi" />
		<tag k="ssr:stedsnr" v="860269" />
		<tag k="waterway" v="stream" />
	</node>
	<node lat="62.19043332967379" lon="8.606919448489062" id="-28578">
		<tag k="alt_name" v="Buduåe" />
		<tag k="name" v="Buduåi" />
		<tag k="ssr:stedsnr" v="860862" />
		<tag k="waterway" v="stream" />
	</node>
	<node lat="62.19827222605736" lon="9.234525003543624" id="-28580">
		<tag k="name" v="Sandvatnet" />
		<tag k="natural" v="water" />
		<tag k="ssr:stedsnr" v="860772" />
	</node>
	<node lat="62.32387777441036" lon="9.053294448042827" id="-28583">
		<tag k="name" v="Storholbekken" />
		<tag k="ssr:stedsnr" v="861371" />
		<tag k="waterway" v="stream" />
	</node>
	<node lat="62.31682499778457" lon="8.736530559722631" id="-28584">
		<tag k="name" v="Grynningsbekken" />
		<tag k="ssr:stedsnr" v="861373" />
		<tag k="waterway" v="stream" />
	</node>
	<node lat="62.23470832900987" lon="8.145952768588016" id="-28595">
		<tag k="name" v="Kvitlan" />
		<tag k="place" v="island" />
		<tag k="ssr:stedsnr" v="900175" />
	</node>
	<node lat="62.221833333936516" lon="8.423833331048588" id="-28600">
		<tag k="name" v="Tjuruholmen" />
		<tag k="place" v="islet" />
		<tag k="ssr:stedsnr" v="900456" />
	</node>
	<node lat="62.169761111008555" lon="8.627663890303216" id="-28606">
		<tag k="name" v="Slettakvernøye" />
		<tag k="natural" v="cape" />
		<tag k="ssr:stedsnr" v="901324" />
	</node>
	<node lat="62.16859444821367" lon="8.696452784691376" id="-28607">
		<tag k="name" v="Sveabekken" />
		<tag k="ssr:stedsnr" v="901702" />
		<tag k="waterway" v="stream" />
	</node>
	<node lat="62.04186944264695" lon="8.918783331288653" id="-28614">
		<tag k="name" v="Varmlandstjønne" />
		<tag k="natural" v="water" />
		<tag k="ssr:stedsnr" v="921591" />
	</node>
	<node lat="62.335588890989825" lon="9.031483335093032" id="-28615">
		<tag k="name" v="Veslholbekken" />
		<tag k="ssr:stedsnr" v="921431" />
		<tag k="waterway" v="stream" />
	</node>
	<node lat="62.18936110907634" lon="8.443855550970303" id="-28617">
		<tag k="alt_name" v="Breidbekken" />
		<tag k="name" v="Breibekken" />
		<tag k="ssr:stedsnr" v="921701" />
		<tag k="waterway" v="stream" />
	</node>
	<node lat="62.13571944819978" lon="8.761369439534654" id="-28621">
		<tag k="alt_name" v="Skålrustbekken" />
		<tag k="name" v="Skårrustbekken" />
		<tag k="ssr:stedsnr" v="921908" />
		<tag k="waterway" v="stream" />
	</node>
	<node lat="62.060988885518974" lon="8.36774999122063" id="-28632">
		<tag k="loc_name" v="Steinkloppgrove" />
		<tag k="name" v="Steinkloppåe" />
		<tag k="ssr:stedsnr" v="947291" />
		<tag k="waterway" v="stream" />
	</node>
	<node lat="62.24196111175379" lon="8.285461118106772" id="-28635">
		<tag k="name" v="Kvamsbekken" />
		<tag k="ssr:stedsnr" v="960087" />
		<tag k="waterway" v="stream" />
	</node>
	<node lat="62.123766664432154" lon="8.67035834266601" id="-28636">
		<tag k="name" v="Bombeøye" />
		<tag k="place" v="island" />
		<tag k="ssr:stedsnr" v="960408" />
	</node>
	<node lat="62.11936944017689" lon="8.820436106259347" id="-28641">
		<tag k="name" v="Belleåe" />
		<tag k="ssr:stedsnr" v="960712" />
		<tag k="waterway" v="stream" />
	</node>
	<node lat="62.250686111740045" lon="8.848619436602274" id="-28645">
		<tag k="name" v="Tverråkroken" />
		<tag k="place" v="locality" />
		<tag k="ssr:stedsnr" v="960695" />
	</node>
	<node lat="62.30024444820065" lon="8.18516943547529" id="-28650">
		<tag k="name" v="Langodden" />
		<tag k="natural" v="cape" />
		<tag k="ssr:stedsnr" v="961241" />
	</node>
	<node lat="62.328241665101714" lon="8.438202778350007" id="-28682">
		<tag k="name" v="Nørdre Miutjønne" />
		<tag k="natural" v="water" />
		<tag k="ssr:stedsnr" v="12262" />
	</node>
	<node lat="62.33294444003288" lon="8.524172222544856" id="-28683">
		<tag k="name" v="Vangstjønnin" />
		<tag k="natural" v="water" />
		<tag k="ssr:stedsnr" v="12263" />
		<tag k="water" v="lake" />
	</node>
	<node lat="62.04245000232282" lon="8.930827774440678" id="-28689">
		<tag k="name" v="Storslågåtjønne" />
		<tag k="natural" v="water" />
		<tag k="ssr:stedsnr" v="11563" />
	</node>
	<node lat="62.21645833696493" lon="8.485294450564222" id="-28691">
		<tag k="alt_name" v="Gravsetåe" />
		<tag k="name" v="Gravsetåi" />
		<tag k="ssr:stedsnr" v="11843" />
		<tag k="waterway" v="stream" />
	</node>
	<node lat="62.21165277703674" lon="9.170258331927606" id="-28697">
		<tag k="name" v="Kjelsungbekken" />
		<tag k="ssr:stedsnr" v="11951" />
		<tag k="waterway" v="river" />
	</node>
	<node lat="62.01000277549327" lon="8.653455563507434" id="-28700">
		<tag k="name" v="Skjervetjønne" />
		<tag k="natural" v="water" />
		<tag k="ssr:stedsnr" v="11980" />
	</node>
	<node lat="62.344086112892036" lon="8.684580546367098" id="-28701">
		<tag k="name" v="Naustviki" />
		<tag k="natural" v="bay" />
		<tag k="ssr:stedsnr" v="12348" />
	</node>
	<node lat="62.18533055521298" lon="8.543127771112507" id="-28712">
		<tag k="name" v="Masmestervike" />
		<tag k="natural" v="bay" />
		<tag k="ssr:stedsnr" v="50331" />
	</node>
	<node lat="62.26918611181088" lon="8.164930564838828" id="-28716">
		<tag k="name" v="Kvernhusfossen" />
		<tag k="natural" v="waterfall" />
		<tag k="ssr:stedsnr" v="51129" />
	</node>
	<node lat="62.24304444339699" lon="8.739786110674226" id="-28728">
		<tag k="name" v="Antonbekken" />
		<tag k="ssr:stedsnr" v="50639" />
		<tag k="waterway" v="stream" />
	</node>
	<node lat="62.22000277771328" lon="8.423002783286302" id="-28745">
		<tag k="name" v="Buaholmen" />
		<tag k="place" v="islet" />
		<tag k="ssr:stedsnr" v="51500" />
	</node>
	<node lat="62.26858611463044" lon="8.126327786783433" id="-28749">
		<tag k="name" v="Raudgrovi" />
		<tag k="ssr:stedsnr" v="71139" />
		<tag k="waterway" v="stream" />
	</node>
	<node lat="62.14017499961848" lon="8.130800002037024" id="-28751">
		<tag k="name" v="Kollvatnet" />
		<tag k="natural" v="water" />
		<tag k="ssr:stedsnr" v="71225" />
	</node>
	<node lat="62.03905833594396" lon="8.97288889241456" id="-28755">
		<tag k="name" v="Fauttjønne" />
		<tag k="natural" v="water" />
		<tag k="ssr:stedsnr" v="71603" />
	</node>
	<node lat="62.0484944406645" lon="8.991638890225824" id="-28756">
		<tag k="name" v="Nonshøbekken" />
		<tag k="ssr:stedsnr" v="71606" />
		<tag k="waterway" v="stream" />
	</node>
	<node lat="62.076274997859265" lon="8.872330563537782" id="-28763">
		<tag k="alt_name" v="Nestandåe" />
		<tag k="name" v="Nesttandåi" />
		<tag k="ssr:stedsnr" v="71653" />
		<tag k="waterway" v="river" />
	</node>
	<node lat="62.19835277621074" lon="8.697338880950307" id="-28771">
		<tag k="name" v="Djuptjønne" />
		<tag k="natural" v="water" />
		<tag k="ssr:stedsnr" v="71853" />
	</node>
	<node lat="62.32646388739426" lon="8.47524999860089" id="-28777">
		<tag k="name" v="Pøyta" />
		<tag k="ssr:stedsnr" v="72264" />
		<tag k="waterway" v="stream" />
	</node>
	<node lat="62.2858694412717" lon="9.060299991552034" id="-28781">
		<tag k="name" v="Løypesbekken" />
		<tag k="ssr:stedsnr" v="72354" />
		<tag k="waterway" v="stream" />
	</node>
	<node lat="62.327672222269705" lon="9.02944443763579" id="-28783">
		<tag k="name" v="Nedre Lustjønne" />
		<tag k="natural" v="water" />
		<tag k="ssr:stedsnr" v="72385" />
	</node>
	<node lat="62.342163892674066" lon="8.986966657278963" id="-28785">
		<tag k="name" v="Søre Salhøtjønne" />
		<tag k="natural" v="water" />
		<tag k="ssr:stedsnr" v="72445" />
	</node>
	<node lat="62.07164444451465" lon="8.323222224961766" id="-28787">
		<tag k="name" v="Søre Grove" />
		<tag k="ssr:stedsnr" v="72744" />
		<tag k="waterway" v="stream" />
	</node>
	<node lat="62.23978889118771" lon="8.219566666690858" id="-28804">
		<tag k="name" v="Landfall" />
		<tag k="natural" v="cape" />
		<tag k="ssr:stedsnr" v="111167" />
	</node>
	<node lat="62.188972224388394" lon="8.52031111934975" id="-28805">
		<tag k="name" v="Kråkholmen" />
		<tag k="place" v="islet" />
		<tag k="ssr:stedsnr" v="111335" />
	</node>
	<node lat="62.198225004441355" lon="8.518719450403385" id="-28806">
		<tag k="name" v="Dosetbekken" />
		<tag k="ssr:stedsnr" v="111338" />
		<tag k="waterway" v="stream" />
	</node>
	<node lat="62.19366388889317" lon="8.511977786756209" id="-28807">
		<tag k="name" v="Dosetbotten" />
		<tag k="natural" v="bay" />
		<tag k="ssr:stedsnr" v="111340" />
	</node>
	<node lat="62.210244440271204" lon="8.93304443490111" id="-28811">
		<tag k="name" v="Kvitfossen" />
		<tag k="natural" v="waterfall" />
		<tag k="ssr:stedsnr" v="111898" />
	</node>
	<node lat="61.232741671063216" lon="10.4370611119802" id="-28823">
		<tag k="loc_name" v="Gudbrandsdalslågen" />
		<tag k="name" v="Lågen" />
		<tag k="ssr:stedsnr" v="129173" />
		<tag k="waterway" v="river" />
	</node>
	<node lat="62.169891665727235" lon="8.499374997098245" id="-28825">
		<tag k="fixme" v="multiple name tags, choose one and add the other to alt_name" />
		<tag k="name" v="Sprela;Grove" />
		<tag k="ssr:stedsnr" v="131824" />
		<tag k="waterway" v="stream" />
	</node>
	<node lat="62.34560277760996" lon="8.722124996873982" id="-28834">
		<tag k="name" v="Veslgeitåi" />
		<tag k="ssr:stedsnr" v="132450" />
		<tag k="waterway" v="stream" />
	</node>
	<node lat="62.23835833247108" lon="8.665177771709024" id="-28839">
		<tag k="name" v="Langtjønne" />
		<tag k="natural" v="water" />
		<tag k="ssr:stedsnr" v="132843" />
	</node>
	<node lat="62.24083097774137" lon="8.569831460800257" id="-28840">
		<tag k="alt_name" v="Merrabottvatnet, øvre" />
		<tag k="name" v="Øvre Merrabottvatnet" />
		<tag k="natural" v="water" />
		<tag k="ssr:stedsnr" v="132848" />
		<tag k="water" v="lake" />
	</node>
	<node lat="62.08941944594619" lon="8.704013887810817" id="-28843">
		<tag k="alt_name" v="Veslejuvsgrove" />
		<tag k="name" v="Veslerudsgrovi" />
		<tag k="ssr:stedsnr" v="132764" />
		<tag k="waterway" v="stream" />
	</node>
	<node lat="62.196303822142625" lon="8.91882475283733" id="-28854">
		<tag k="alt_name" v="Jore" />
		<tag k="name" v="Jori" />
		<tag k="ssr:stedsnr" v="132985" />
		<tag k="waterway" v="river" />
	</node>
	<node lat="62.295035543221545" lon="8.369630640277343" id="-28859">
		<tag k="alt_name" v="Mølmsvatnet, midtre" />
		<tag k="name" v="Midtre Mølmsvatnet" />
		<tag k="natural" v="water" />
		<tag k="ssr:stedsnr" v="133234" />
		<tag k="water" v="lake" />
	</node>
	<node lat="62.17711667019145" lon="9.062002786934796" id="-28867">
		<tag k="name" v="Nørdre Reinåe" />
		<tag k="ssr:stedsnr" v="169044" />
		<tag k="waterway" v="stream" />
	</node>
	<node lat="62.243641667870065" lon="8.215197227812803" id="-28869">
		<tag k="name" v="Storøye" />
		<tag k="natural" v="cape" />
		<tag k="ssr:stedsnr" v="171141" />
	</node>
	<node lat="62.24365277847463" lon="8.793972215262443" id="-28878">
		<tag k="name" v="Kvitvike" />
		<tag k="natural" v="bay" />
		<tag k="ssr:stedsnr" v="171739" />
	</node>
	<node lat="62.24372499895157" lon="8.813941669588722" id="-28879">
		<tag k="name" v="Vassenden" />
		<tag k="natural" v="bay" />
		<tag k="ssr:stedsnr" v="171741" />
	</node>
	<node lat="62.14095832929336" lon="8.793383340053941" id="-28881">
		<tag k="name" v="Haugabekken" />
		<tag k="ssr:stedsnr" v="171567" />
		<tag k="waterway" v="stream" />
	</node>
	<node lat="62.14910833421697" lon="8.780411106907541" id="-28882">
		<tag k="name" v="Osperustbekken" />
		<tag k="ssr:stedsnr" v="171577" />
		<tag k="waterway" v="stream" />
	</node>
	<node lat="62.16255555223284" lon="8.628375000686129" id="-28898">
		<tag k="name" v="Sandmælhølen" />
		<tag k="place" v="locality" />
		<tag k="ssr:stedsnr" v="172333" />
	</node>
	<node lat="62.22391110753574" lon="8.396533328767715" id="-28900">
		<tag k="name" v="Langøyra" />
		<tag k="place" v="islet" />
		<tag k="ssr:stedsnr" v="172482" />
	</node>
	<node lat="62.298976072737446" lon="8.190845279717907" id="-28904">
		<tag k="name" v="Bøvervatn" />
		<tag k="natural" v="water" />
		<tag k="ssr:stedsnr" v="192262" />
		<tag k="water" v="lake" />
	</node>
	<node lat="62.062605558894234" lon="8.94589167256114" id="-28906">
		<tag k="name" v="Tjuvtjønne" />
		<tag k="natural" v="water" />
		<tag k="ssr:stedsnr" v="192614" />
	</node>
	<node lat="62.16818333116743" lon="8.23738333826812" id="-28911">
		<tag k="alt_name" v="Vetl-Grøna" />
		<tag k="name" v="Veslgrøna" />
		<tag k="ssr:stedsnr" v="192825" />
		<tag k="waterway" v="river" />
	</node>
	<node lat="62.16348610823499" lon="8.601808328925518" id="-28912">
		<tag k="name" v="Skråkka" />
		<tag k="ssr:stedsnr" v="192835" />
		<tag k="waterway" v="stream" />
	</node>
	<node lat="61.94930555235394" lon="8.99001111107476" id="-28917">
		<tag k="name" v="Skjerva" />
		<tag k="ssr:stedsnr" v="193123" />
		<tag k="waterway" v="river" />
	</node>
	<node lat="62.242208331665076" lon="8.355083330363923" id="-28919">
		<tag k="alt_name" v="Mølmsåe" />
		<tag k="name" v="Mølmsåi" />
		<tag k="ssr:stedsnr" v="193216" />
		<tag k="waterway" v="river" />
	</node>
	<node lat="62.174772222064156" lon="8.213399996319174" id="-28921">
		<tag k="name" v="Nonshøtjønne" />
		<tag k="natural" v="water" />
		<tag k="ssr:stedsnr" v="193153" />
	</node>
	<node lat="62.27882778191465" lon="9.048591675663902" id="-28926">
		<tag k="name" v="Vollan" />
		<tag k="natural" v="cape" />
		<tag k="ssr:stedsnr" v="193404" />
	</node>
	<node lat="62.13445555645993" lon="8.274255551649356" id="-28936">
		<tag k="name" v="Knutsgruvetjønne" />
		<tag k="natural" v="water" />
		<tag k="ssr:stedsnr" v="193736" />
	</node>
	<node lat="62.083519440511026" lon="8.53250000937318" id="-28937">
		<tag k="alt_name" v="Søråe" />
		<tag k="name" v="Søråi" />
		<tag k="ssr:stedsnr" v="193750" />
		<tag k="waterway" v="stream" />
	</node>
	<node lat="62.19976944034779" lon="8.551036116454735" id="-28945">
		<tag k="fixme" v="multiple name tags, choose one and add the other to alt_name" />
		<tag k="name" v="Kyrkjebekken;Torsplassåe" />
		<tag k="ssr:stedsnr" v="193828" />
		<tag k="waterway" v="stream" />
	</node>
	<node lat="62.01783610905313" lon="8.223619444487742" id="-28950">
		<tag k="name" v="Bergetjønnin" />
		<tag k="natural" v="water" />
		<tag k="ssr:stedsnr" v="193976" />
		<tag k="water" v="lake" />
	</node>
	<node lat="62.2445861081495" lon="9.018513897557014" id="-28951">
		<tag k="name" v="Mjogsjøbekken" />
		<tag k="ssr:stedsnr" v="193982" />
		<tag k="waterway" v="stream" />
	</node>
	<node lat="62.32902499894177" lon="8.471686108779744" id="-28954">
		<tag k="name" v="Bolltjønne" />
		<tag k="natural" v="water" />
		<tag k="ssr:stedsnr" v="194248" />
	</node>
	<node lat="62.316969446859765" lon="8.290100002961472" id="-28956">
		<tag k="name" v="Sandåi" />
		<tag k="ssr:stedsnr" v="194254" />
		<tag k="waterway" v="stream" />
	</node>
	<node lat="62.265977600466385" lon="8.261126434134146" id="-28958">
		<tag k="name" v="Systtjønnin" />
		<tag k="natural" v="water" />
		<tag k="ssr:stedsnr" v="194272" />
		<tag k="water" v="lake" />
	</node>
	<node lat="62.20638889257002" lon="8.882072213115217" id="-28961">
		<tag k="name" v="Sjongsosen" />
		<tag k="natural" v="bay" />
		<tag k="ssr:stedsnr" v="193932" />
	</node>
	<node lat="62.246475003816805" lon="8.958286117082926" id="-28963">
		<tag k="name" v="Vesltverråi" />
		<tag k="ssr:stedsnr" v="193988" />
		<tag k="waterway" v="stream" />
	</node>
	<node lat="62.23129166783689" lon="8.93158334185403" id="-28964">
		<tag k="name" v="Svaåin" />
		<tag k="ssr:stedsnr" v="193998" />
		<tag k="waterway" v="stream" />
	</node>
	<node lat="62.29891561556017" lon="8.253754042790993" id="-28965">
		<tag k="name" v="Bøvertjønnin" />
		<tag k="natural" v="water" />
		<tag k="ssr:stedsnr" v="194225" />
		<tag k="water" v="lake" />
	</node>
	<node lat="62.259908331049665" lon="8.188250008391167" id="-28980">
		<tag k="name" v="Kringelløken" />
		<tag k="natural" v="water" />
		<tag k="ssr:stedsnr" v="293160" />
	</node>
	<node lat="62.22215000329532" lon="8.238333339864482" id="-28983">
		<tag k="name" v="Søre Helsbybekken" />
		<tag k="ssr:stedsnr" v="293216" />
		<tag k="waterway" v="stream" />
	</node>
	<node lat="62.22995833648847" lon="8.748922228539893" id="-28987">
		<tag k="name" v="Vetlebekken" />
		<tag k="ssr:stedsnr" v="293700" />
		<tag k="waterway" v="stream" />
	</node>
	<node lat="62.07323333744493" lon="8.949144442997817" id="-28994">
		<tag k="name" v="Kvivelsætertjønne" />
		<tag k="natural" v="water" />
		<tag k="ssr:stedsnr" v="293784" />
	</node>
	<node lat="62.27343611262587" lon="8.037649991343239" id="-29000">
		<tag k="name" v="Ulvåa" />
		<tag k="ssr:stedsnr" v="314151" />
		<tag k="waterway" v="river" />
	</node>
	<node lat="62.263538887841484" lon="8.161716675277413" id="-29001">
		<tag k="name" v="Svarttjønne" />
		<tag k="natural" v="water" />
		<tag k="ssr:stedsnr" v="314154" />
	</node>
	<node lat="62.337716670629895" lon="9.121144453265131" id="-29004">
		<tag k="name" v="Drugshøtjønnin" />
		<tag k="natural" v="water" />
		<tag k="ssr:stedsnr" v="314433" />
	</node>
	<node lat="62.08692777904826" lon="8.9377694385254" id="-29006">
		<tag k="alt_name" v="Bøåe" />
		<tag k="name" v="Boåi" />
		<tag k="ssr:stedsnr" v="314626" />
		<tag k="waterway" v="stream" />
	</node>
	<node lat="62.20201111258183" lon="9.267588894934464" id="-29010">
		<tag k="name" v="Storslågåvatnet" />
		<tag k="natural" v="water" />
		<tag k="ssr:stedsnr" v="314723" />
	</node>
	<node lat="62.20600336940374" lon="9.283586150819204" id="-29011">
		<tag k="name" v="Semundtjønnin" />
		<tag k="natural" v="water" />
		<tag k="ssr:stedsnr" v="314733" />
		<tag k="water" v="lake" />
	</node>
	<node lat="62.22085000451225" lon="8.607516669790872" id="-29016">
		<tag k="alt_name" v="Veslbottvatnet, øvre" />
		<tag k="name" v="Øvre Veslbottvatnet" />
		<tag k="natural" v="water" />
		<tag k="ssr:stedsnr" v="314852" />
	</node>
	<node lat="62.15486388739936" lon="8.92390833176453" id="-29025">
		<tag k="alt_name" v="Svinsarbekken" />
		<tag k="name" v="Svinsaråi" />
		<tag k="ssr:stedsnr" v="314888" />
		<tag k="waterway" v="stream" />
	</node>
	<node lat="62.13366111017466" lon="8.886011113076892" id="-29027">
		<tag k="name" v="Skreda" />
		<tag k="ssr:stedsnr" v="314895" />
		<tag k="waterway" v="stream" />
	</node>
	<node lat="62.1766583319224" lon="8.94470832771082" id="-29030">
		<tag k="name" v="Krokutbekken" />
		<tag k="ssr:stedsnr" v="314955" />
		<tag k="waterway" v="stream" />
	</node>
	<node lat="62.03661666526885" lon="8.338216673651244" id="-29032">
		<tag k="alt_name" v="Løgrove" />
		<tag k="name" v="Løgrovi" />
		<tag k="ssr:stedsnr" v="314960" />
		<tag k="waterway" v="stream" />
	</node>
	<node lat="62.13422777437195" lon="8.213477769422159" id="-29038">
		<tag k="name" v="Grøntjønne" />
		<tag k="natural" v="water" />
		<tag k="ssr:stedsnr" v="314801" />
	</node>
	<node lat="62.2694499995485" lon="8.619175005319413" id="-29039">
		<tag k="name" v="Klovbekken" />
		<tag k="ssr:stedsnr" v="315285" />
		<tag k="waterway" v="stream" />
	</node>
	<node lat="62.30622778078611" lon="8.267866669895604" id="-29040">
		<tag k="name" v="Bøvre" />
		<tag k="ssr:stedsnr" v="315236" />
		<tag k="waterway" v="stream" />
	</node>
	<node lat="62.19171944015961" lon="8.508283341813296" id="-29053">
		<tag k="name" v="Tjuvholmen" />
		<tag k="place" v="islet" />
		<tag k="ssr:stedsnr" v="353351" />
	</node>
	<node lat="62.141755555121925" lon="9.001569443440403" id="-29055">
		<tag k="name" v="Raudbekken" />
		<tag k="ssr:stedsnr" v="353834" />
		<tag k="waterway" v="stream" />
	</node>
	<node lat="62.12209999750424" lon="8.827813897887285" id="-29060">
		<tag k="name" v="Holsbekken" />
		<tag k="ssr:stedsnr" v="353732" />
		<tag k="waterway" v="stream" />
	</node>
	<node lat="62.26813333731158" lon="8.640477776355523" id="-29061">
		<tag k="name" v="Flybekken" />
		<tag k="ssr:stedsnr" v="353736" />
		<tag k="waterway" v="stream" />
	</node>
	<node lat="62.12090833700887" lon="8.809805556418981" id="-29062">
		<tag k="fixme" v="multiple name tags, choose one and add the other to alt_name" />
		<tag k="name" v="Liaåe;Pikotsteinbekken" />
		<tag k="ssr:stedsnr" v="353737" />
		<tag k="waterway" v="stream" />
	</node>
	<node lat="62.17463055762028" lon="8.914916662929365" id="-29065">
		<tag k="name" v="Fillingøyan" />
		<tag k="place" v="islet" />
		<tag k="ssr:stedsnr" v="353940" />
	</node>
	<node lat="62.27271666642807" lon="8.252888898046741" id="-29068">
		<tag k="name" v="Nordre Systen" />
		<tag k="ssr:stedsnr" v="354143" />
		<tag k="waterway" v="stream" />
	</node>
	<node lat="62.232327781903045" lon="8.397344441421595" id="-29069">
		<tag k="alt_name" v="Sør-Skottåe" />
		<tag k="name" v="Sørskottåe" />
		<tag k="ssr:stedsnr" v="354482" />
		<tag k="waterway" v="stream" />
	</node>
	<node lat="62.03732500327779" lon="8.29702499110227" id="-29080">
		<tag k="alt_name" v="Bergebekken, s" />
		<tag k="name" v="Søre Bergebekken" />
		<tag k="ssr:stedsnr" v="375963" />
		<tag k="waterway" v="stream" />
	</node>
	<node lat="62.125661108268034" lon="8.862519441255474" id="-29087">
		<tag k="name" v="Honna" />
		<tag k="ssr:stedsnr" v="374952" />
		<tag k="waterway" v="stream" />
	</node>
	<node lat="62.34559166416003" lon="8.514852768251531" id="-29094">
		<tag k="name" v="Skageosen" />
		<tag k="natural" v="bay" />
		<tag k="ssr:stedsnr" v="375319" />
	</node>
	<node lat="62.24270555761317" lon="9.515686119117426" id="-29100">
		<tag k="name" v="Svone" />
		<tag k="ssr:stedsnr" v="375461" />
		<tag k="waterway" v="river" />
	</node>
	<node lat="62.097836107939706" lon="8.586766658628743" id="-29101">
		<tag k="alt_name" v="Skardåe" />
		<tag k="name" v="Skardåi" />
		<tag k="ssr:stedsnr" v="375751" />
		<tag k="waterway" v="stream" />
	</node>
	<node lat="62.2196055557792" lon="8.668630547643962" id="-29102">
		<tag k="alt_name" v="Ylsbottvatnet, øvre" />
		<tag k="name" v="Øvre Ylsbottvatnet" />
		<tag k="natural" v="water" />
		<tag k="ssr:stedsnr" v="375843" />
		<tag k="water" v="lake" />
	</node>
	<node lat="62.28216389187533" lon="8.674883341585657" id="-29105">
		<tag k="name" v="Vakkerdalsbekken" />
		<tag k="ssr:stedsnr" v="377721" />
		<tag k="waterway" v="stream" />
	</node>
	<node lat="62.127505551454036" lon="8.14502222356679" id="-29106">
		<tag k="alt_name" v="Grønvatnet, nordre" />
		<tag k="name" v="Nordre Grønvatnet" />
		<tag k="natural" v="water" />
		<tag k="ssr:stedsnr" v="495213" />
		<tag k="water" v="lake" />
	</node>
	<node lat="62.279869448144716" lon="8.327205563073115" id="-29113">
		<tag k="name" v="Vatnarveite" />
		<tag k="ssr:stedsnr" v="414118" />
		<tag k="waterway" v="drain" />
	</node>
	<node lat="62.09496666746105" lon="9.094166663945462" id="-29130">
		<tag k="name" v="Bjønnmyrbekken" />
		<tag k="ssr:stedsnr" v="414831" />
		<tag k="waterway" v="stream" />
	</node>
	<node lat="62.11212500260991" lon="8.584838886739641" id="-29137">
		<tag k="name" v="Mysubekken" />
		<tag k="ssr:stedsnr" v="439733" />
		<tag k="waterway" v="stream" />
	</node>
	<node lat="62.14984166967056" lon="9.04525554775363" id="-29143">
		<tag k="name" v="Reinåe" />
		<tag k="ssr:stedsnr" v="435928" />
		<tag k="waterway" v="river" />
	</node>
	<node lat="62.138588886235844" lon="8.748630554087413" id="-29144">
		<tag k="alt_name" v="Lyftingsåe;Lyftinge" />
		<tag k="fixme" v="multiple name tags, choose one and add the other to alt_name" />
		<tag k="name" v="Lyftingsåi;Kloppadalsbekken" />
		<tag k="ssr:stedsnr" v="435936" />
		<tag k="waterway" v="stream" />
	</node>
	<node lat="62.13460277808551" lon="8.917780546310116" id="-29146">
		<tag k="name" v="Toretjønnin" />
		<tag k="natural" v="water" />
		<tag k="ssr:stedsnr" v="435942" />
		<tag k="water" v="lake" />
	</node>
	<node lat="62.043661113258565" lon="8.871913891965505" id="-29148">
		<tag k="name" v="Veslskjervedalsvatnet" />
		<tag k="natural" v="water" />
		<tag k="ssr:stedsnr" v="435587" />
	</node>
	<node lat="62.14469688013578" lon="8.469752036683305" id="-29150">
		<tag k="name" v="Valåvatnet" />
		<tag k="natural" v="water" />
		<tag k="ssr:stedsnr" v="435826" />
		<tag k="water" v="lake" />
	</node>
	<node lat="62.16360555443209" lon="8.634536118253948" id="-29152">
		<tag k="name" v="Røkstjønne" />
		<tag k="natural" v="water" />
		<tag k="ssr:stedsnr" v="435831" />
	</node>
	<node lat="62.20404444410245" lon="8.647833326418946" id="-29154">
		<tag k="name" v="Mosendtjønnin" />
		<tag k="natural" v="water" />
		<tag k="ssr:stedsnr" v="435839" />
		<tag k="water" v="lake" />
	</node>
	<node lat="62.1886694400944" lon="8.32104443779471" id="-29156">
		<tag k="alt_name" v="Sandåe" />
		<tag k="name" v="Sandåi" />
		<tag k="ssr:stedsnr" v="435854" />
		<tag k="waterway" v="stream" />
	</node>
	<node lat="62.32736389150242" lon="8.35988056024837" id="-29160">
		<tag k="name" v="Mølmsløyptjønne" />
		<tag k="natural" v="water" />
		<tag k="ssr:stedsnr" v="436333" />
	</node>
	<node lat="62.35727499761544" lon="8.355747215638814" id="-29162">
		<tag k="name" v="Rundtjønne" />
		<tag k="natural" v="water" />
		<tag k="ssr:stedsnr" v="436351" />
	</node>
	<node lat="62.19839484126539" lon="8.886597811390073" id="-29166">
		<tag k="name" v="Flisarvatnet" />
		<tag k="natural" v="water" />
		<tag k="ssr:stedsnr" v="436939" />
		<tag k="water" v="lake" />
	</node>
	<node lat="62.2002222233255" lon="8.760075006845234" id="-29168">
		<tag k="name" v="Kvittjønnin" />
		<tag k="natural" v="water" />
		<tag k="ssr:stedsnr" v="436943" />
		<tag k="water" v="lake" />
	</node>
	<node lat="62.03334166615298" lon="8.229033334621418" id="-29173">
		<tag k="alt_name" v="Bergebekken, nordre" />
		<tag k="name" v="Nordre Bergebekken" />
		<tag k="ssr:stedsnr" v="436964" />
		<tag k="waterway" v="stream" />
	</node>
	<node lat="62.30018889117872" lon="8.61875000034928" id="-29178">
		<tag k="loc_name" v="Vangsåe" />
		<tag k="name" v="Vangsåi" />
		<tag k="ssr:stedsnr" v="437279" />
		<tag k="waterway" v="river" />
	</node>
	<node lat="62.29497500190894" lon="9.035816660445326" id="-29187">
		<tag k="name" v="Grashøbekken" />
		<tag k="ssr:stedsnr" v="496427" />
		<tag k="waterway" v="stream" />
	</node>
	<node lat="62.33723055957644" lon="8.38362777075608" id="-29190">
		<tag k="name" v="Langtjønne" />
		<tag k="natural" v="water" />
		<tag k="ssr:stedsnr" v="497357" />
	</node>
	<node lat="62.1964777773847" lon="9.244422216063727" id="-29192">
		<tag k="name" v="Veslvatnet" />
		<tag k="natural" v="water" />
		<tag k="ssr:stedsnr" v="496739" />
	</node>
	<node lat="62.23170833744888" lon="8.517861110614843" id="-29193">
		<tag k="name" v="Fotfoltjønnin" />
		<tag k="natural" v="water" />
		<tag k="ssr:stedsnr" v="496838" />
		<tag k="water" v="lake" />
	</node>
	<node lat="62.25596111014597" lon="8.089072215035744" id="-29196">
		<tag k="name" v="Svaåa" />
		<tag k="ssr:stedsnr" v="496656" />
		<tag k="waterway" v="stream" />
	</node>
	<node lat="62.32243610985768" lon="8.600849990894682" id="-29197">
		<tag k="name" v="Tverråi" />
		<tag k="ssr:stedsnr" v="496662" />
		<tag k="waterway" v="river" />
	</node>
	<node lat="62.21189444037744" lon="8.321450009504217" id="-29199">
		<tag k="alt_name" v="Stor-Grøna" />
		<tag k="name" v="Grøna" />
		<tag k="ssr:stedsnr" v="496694" />
		<tag k="waterway" v="river" />
	</node>
	<node lat="62.06331111518794" lon="8.354991667674957" id="-29200">
		<tag k="alt_name" v="Sjogrove" />
		<tag k="name" v="Sjoggrovi" />
		<tag k="ssr:stedsnr" v="496779" />
		<tag k="waterway" v="stream" />
	</node>
	<node lat="62.007180554581545" lon="8.356997213743153" id="-29206">
		<tag k="name" v="Fellingvatnet" />
		<tag k="natural" v="water" />
		<tag k="ssr:stedsnr" v="496978" />
		<tag k="water" v="lake" />
	</node>
	<node lat="62.30538589797077" lon="8.53471292938649" id="-29211">
		<tag k="name" v="Vangsvatnet" />
		<tag k="natural" v="water" />
		<tag k="ssr:stedsnr" v="497243" />
		<tag k="water" v="lake" />
	</node>
	<node lat="62.110333332716344" lon="8.723041659166638" id="-29228">
		<tag k="name" v="Varpet" />
		<tag k="natural" v="water" />
		<tag k="ssr:stedsnr" v="535549" />
		<tag k="water" v="lake" />
	</node>
	<node lat="62.17076944237652" lon="8.924694450497835" id="-29242">
		<tag k="name" v="Stamfiskedammen" />
		<tag k="natural" v="water" />
		<tag k="ssr:stedsnr" v="535938" />
	</node>
	<node lat="62.269752779958154" lon="8.25840833445404" id="-29246">
		<tag k="name" v="Søre Systen" />
		<tag k="ssr:stedsnr" v="536138" />
		<tag k="waterway" v="stream" />
	</node>
	<node lat="62.21394999988309" lon="8.443022225300751" id="-29249">
		<tag k="name" v="Bryggeosen" />
		<tag k="natural" v="strait" />
		<tag k="ssr:stedsnr" v="536449" />
	</node>
	<node lat="62.201786112279855" lon="8.470744445335349" id="-29250">
		<tag k="name" v="Søre Hyrjon" />
		<tag k="ssr:stedsnr" v="536456" />
		<tag k="waterway" v="stream" />
	</node>
	<node lat="62.23917499689386" lon="8.344449997506752" id="-29259">
		<tag k="name" v="Krossbekken" />
		<tag k="ssr:stedsnr" v="556254" />
		<tag k="waterway" v="stream" />
	</node>
	<node lat="62.274433331255324" lon="9.233572224661517" id="-29261">
		<tag k="name" v="Fisketjønne" />
		<tag k="natural" v="water" />
		<tag k="ssr:stedsnr" v="557475" />
	</node>
	<node lat="62.14892777540353" lon="8.313475003934748" id="-29266">
		<tag k="name" v="Vargvassåi" />
		<tag k="ssr:stedsnr" v="556822" />
		<tag k="waterway" v="stream" />
	</node>
	<node lat="62.24041944431027" lon="9.149638890813426" id="-29271">
		<tag k="name" v="Kjelsungvatnet" />
		<tag k="natural" v="water" />
		<tag k="ssr:stedsnr" v="556987" />
	</node>
	<node lat="62.231438892230365" lon="8.914716670007376" id="-29273">
		<tag k="name" v="Svabotntjønne" />
		<tag k="natural" v="water" />
		<tag k="ssr:stedsnr" v="556995" />
	</node>
	<node lat="62.27217778081259" lon="8.656900003690986" id="-29276">
		<tag k="alt_name" v="Merre" />
		<tag k="name" v="Merri" />
		<tag k="ssr:stedsnr" v="557285" />
		<tag k="waterway" v="river" />
	</node>
	<node lat="62.333280558737236" lon="8.366549996499787" id="-29279">
		<tag k="name" v="Mølnsløypbekken" />
		<tag k="ssr:stedsnr" v="557336" />
		<tag k="waterway" v="stream" />
	</node>
	<node lat="62.35402500450892" lon="8.988774991039259" id="-29280">
		<tag k="name" v="Midtre Salhøtjønne" />
		<tag k="natural" v="water" />
		<tag k="ssr:stedsnr" v="557446" />
	</node>
	<node lat="62.21250172004015" lon="8.860490671839687" id="-29283">
		<tag k="name" v="Sjongsvatnet" />
		<tag k="natural" v="water" />
		<tag k="old_name" v="Sjungsvatnet" />
		<tag k="ssr:stedsnr" v="557927" />
		<tag k="water" v="lake" />
	</node>
	<node lat="62.22230000184689" lon="8.25830000598707" id="-29285">
		<tag k="alt_name" v="Ellanbekken" />
		<tag k="name" v="Ellandsbekken" />
		<tag k="ssr:stedsnr" v="557858" />
		<tag k="waterway" v="stream" />
	</node>
	<node lat="62.224900003023905" lon="8.754683336949439" id="-29287">
		<tag k="alt_name" v="Svaninge" />
		<tag k="name" v="Svaningi" />
		<tag k="ssr:stedsnr" v="557989" />
		<tag k="waterway" v="stream" />
	</node>
	<node lat="62.150558334829604" lon="9.027794435301963" id="-29289">
		<tag k="name" v="Bekken" />
		<tag k="ssr:stedsnr" v="594058" />
		<tag k="waterway" v="stream" />
	</node>
	<node lat="62.253069443491206" lon="8.360669439281024" id="-29291">
		<tag k="alt_name" v="Vetleåe" />
		<tag k="name" v="Vetlåe" />
		<tag k="ssr:stedsnr" v="595094" />
		<tag k="waterway" v="stream" />
	</node>
	<node lat="62.12674166347982" lon="8.67665278514259" id="-29296">
		<tag k="name" v="Øyan" />
		<tag k="place" v="island" />
		<tag k="ssr:stedsnr" v="595387" />
	</node>
	<node lat="62.22826111365761" lon="8.374500005099062" id="-29305">
		<tag k="name" v="Bellholmen" />
		<tag k="natural" v="cape" />
		<tag k="ssr:stedsnr" v="596083" />
	</node>
	<node lat="62.19871388678746" lon="8.479591667725725" id="-29312">
		<tag k="name" v="Vetletjønnbotten" />
		<tag k="natural" v="bay" />
		<tag k="ssr:stedsnr" v="596427" />
	</node>
	<node lat="62.21575277417397" lon="8.886030558277744" id="-29318">
		<tag k="name" v="Velonbekken" />
		<tag k="ssr:stedsnr" v="596921" />
		<tag k="waterway" v="stream" />
	</node>
	<node lat="62.2120777781237" lon="8.930308337450342" id="-29319">
		<tag k="name" v="Svaåe" />
		<tag k="ssr:stedsnr" v="596923" />
		<tag k="waterway" v="stream" />
	</node>
	<node lat="62.22277499805662" lon="8.426141674871728" id="-29324">
		<tag k="name" v="Kuodden" />
		<tag k="natural" v="cape" />
		<tag k="ssr:stedsnr" v="597456" />
	</node>
	<node lat="62.03292778131199" lon="8.78203333091271" id="-29326">
		<tag k="name" v="Sletthella" />
		<tag k="ssr:stedsnr" v="617565" />
		<tag k="waterway" v="stream" />
	</node>
	<node lat="62.24681388882858" lon="8.299777778497363" id="-29330">
		<tag k="name" v="Sautippen" />
		<tag k="ssr:stedsnr" v="617258" />
		<tag k="waterway" v="stream" />
	</node>
	<node lat="62.03246388454984" lon="8.16481944979438" id="-29331">
		<tag k="name" v="Søre Svarthaugåe" />
		<tag k="ssr:stedsnr" v="617276" />
		<tag k="waterway" v="stream" />
	</node>
	<node lat="62.27180833280159" lon="8.672313890625063" id="-29345">
		<tag k="alt_name" v="Ylsåe" />
		<tag k="name" v="Ylsåi" />
		<tag k="ssr:stedsnr" v="618284" />
		<tag k="waterway" v="river" />
	</node>
	<node lat="62.347633336532425" lon="8.320800007870195" id="-29346">
		<tag k="name" v="Søre Isløyptjønne" />
		<tag k="natural" v="water" />
		<tag k="ssr:stedsnr" v="618323" />
	</node>
	<node lat="62.21260833507729" lon="8.380463894598124" id="-29349">
		<tag k="name" v="Rota" />
		<tag k="ssr:stedsnr" v="617864" />
		<tag k="waterway" v="stream" />
	</node>
	<node lat="62.23365555222726" lon="8.588824997626952" id="-29350">
		<tag k="name" v="Rundtjønne" />
		<tag k="natural" v="water" />
		<tag k="ssr:stedsnr" v="617869" />
	</node>
	<node lat="62.23692221982961" lon="8.643947218231835" id="-29351">
		<tag k="alt_name" v="Veslbottvatnet, nedre" />
		<tag k="name" v="Nedre Vetlbottvatnet" />
		<tag k="natural" v="water" />
		<tag k="ssr:stedsnr" v="617871" />
	</node>
	<node lat="62.18745555965681" lon="8.940366672443034" id="-29352">
		<tag k="name" v="Skrubekken" />
		<tag k="ssr:stedsnr" v="617954" />
		<tag k="waterway" v="stream" />
	</node>
	<node lat="62.28795000404707" lon="8.67883056098111" id="-29357">
		<tag k="name" v="Vetl-Vangsåe" />
		<tag k="ssr:stedsnr" v="618719" />
		<tag k="waterway" v="stream" />
	</node>
	<node lat="62.244302781846464" lon="8.356674995446248" id="-29363">
		<tag k="name" v="Teppfossen" />
		<tag k="natural" v="waterfall" />
		<tag k="ssr:stedsnr" v="656097" />
	</node>
	<node lat="62.12037222149194" lon="8.705102777067461" id="-29365">
		<tag k="name" v="Rabbin" />
		<tag k="place" v="locality" />
		<tag k="ssr:stedsnr" v="656427" />
	</node>
	<node lat="62.14449999932499" lon="8.778455560013636" id="-29368">
		<tag k="name" v="Svellhovdbekken" />
		<tag k="ssr:stedsnr" v="656564" />
		<tag k="waterway" v="stream" />
	</node>
	<node lat="62.10454444151037" lon="8.802894441206119" id="-29372">
		<tag k="name" v="Rotåe" />
		<tag k="ssr:stedsnr" v="656669" />
		<tag k="waterway" v="stream" />
	</node>
	<node lat="62.21826110987677" lon="8.432633333839274" id="-29383">
		<tag k="name" v="Ulvesundet" />
		<tag k="natural" v="strait" />
		<tag k="ssr:stedsnr" v="657473" />
	</node>
	<node lat="62.25628611423848" lon="8.750988886135286" id="-29385">
		<tag k="name" v="Buodden" />
		<tag k="natural" v="shoal" />
		<tag k="place" v="locality" />
		<tag k="ssr:stedsnr" v="657665" />
	</node>
</osm>
