<?xml version="1.0" encoding="UTF-8"?>
<osm version="0.6" generator="osmapis">
	<node lat="62.14663889098101" lon="8.051147222117072" id="-21695">
		<tag k="fixme" v="consider boundary=protected_area and relevant protect_class if not nature reserve" />
		<tag k="leisure" v="nature_reserve" />
		<tag k="name" v="Reinheimen nasjonalpark" />
		<tag k="ssr:stedsnr" v="99302" />
	</node>
	<node lat="62.251635372167385" lon="8.72357468840971" id="-22180">
		<tag k="name" v="Dalsida statsallmenning" />
		<tag k="place" v="locality" />
		<tag k="ssr:stedsnr" v="596964" />
	</node>
	<node lat="62.15053275714154" lon="9.24402097051215" id="-22546">
		<tag k="fixme" v="consider boundary=protected_area and relevant protect_class if not nature reserve" />
		<tag k="leisure" v="nature_reserve" />
		<tag k="name" v="Fokstugu landskapsvernomrÃ¥de" />
		<tag k="ssr:stedsnr" v="985187" />
	</node>
	<node lat="62.31901389049468" lon="9.38895278057291" id="-22736">
		<tag k="fixme" v="consider boundary=protected_area and relevant protect_class if not nature reserve" />
		<tag k="leisure" v="nature_reserve" />
		<tag k="name" v="Dovrefjell-Sunndalsfjella nasjonalpark" />
		<tag k="ssr:stedsnr" v="146973" />
	</node>
	<node lat="62.069752774705556" lon="9.072711105014225" id="-22840">
		<tag k="name" v="Joramo bygdeallmenning" />
		<tag k="place" v="locality" />
		<tag k="ssr:stedsnr" v="292805" />
	</node>
	<node lat="62.11042499990048" lon="8.636388890077546" id="-22863">
		<tag k="name" v="Lordalen statsallmenning" />
		<tag k="place" v="locality" />
		<tag k="ssr:stedsnr" v="293570" />
	</node>
</osm>
