<?xml version="1.0" encoding="UTF-8"?>
<osm version="0.6" generator="osmapis">
	<node lat="62.135408336983716" lon="8.705338884903819" id="-27738">
		<tag k="name" v="Bjøkne" />
		<tag k="place" v="farm" />
		<tag k="ssr:stedsnr" v="10704" />
	</node>
	<node lat="62.231241663952716" lon="8.380266670152754" id="-27758">
		<tag k="amenity" v="school" />
		<tag k="name" v="Lesjaskog skule" />
		<tag k="ssr:stedsnr" v="232077" />
	</node>
	<node lat="62.13470277636612" lon="8.712019447632986" id="-27763">
		<tag k="name" v="Øverhol" />
		<tag k="place" v="farm" />
		<tag k="ssr:stedsnr" v="232383" />
	</node>
	<node lat="62.11893646305168" lon="8.813987226440926" id="-27772">
		<tag k="fixme" v="consider place=hamlet" />
		<tag k="name" v="Siem" />
		<tag k="place" v="farm" />
		<tag k="ssr:stedsnr" v="232689" />
	</node>
	<node lat="62.09598889222427" lon="8.96461388109668" id="-27778">
		<tag k="alt_name" v="Øvre Bøloghaug" />
		<tag k="name" v="Øvre Bøloghaugen" />
		<tag k="place" v="farm" />
		<tag k="ssr:stedsnr" v="232940" />
	</node>
	<node lat="62.17289722455355" lon="8.635230557814188" id="-27785">
		<tag k="name" v="Vangrud" />
		<tag k="place" v="isolated_dwelling" />
		<tag k="ssr:stedsnr" v="233715" />
	</node>
	<node lat="62.13126666978541" lon="8.71982222179115" id="-27793">
		<tag k="name" v="Grinda" />
		<tag k="place" v="farm" />
		<tag k="ssr:stedsnr" v="50390" />
	</node>
	<node lat="62.11411944576487" lon="8.87210556028552" id="-27797">
		<tag k="name" v="Holsmyren" />
		<tag k="place" v="farm" />
		<tag k="ssr:stedsnr" v="50601" />
	</node>
	<node lat="62.092572225228075" lon="9.079600008498785" id="-27803">
		<tag k="name" v="Lerhol" />
		<tag k="place" v="farm" />
		<tag k="ssr:stedsnr" v="50811" />
	</node>
	<node lat="62.16659999699114" lon="8.589891664395385" id="-27806">
		<tag k="name" v="Lauvhytta" />
		<tag k="place" v="locality" />
		<tag k="ssr:stedsnr" v="51374" />
	</node>
	<node lat="62.16488610709481" lon="8.653722227435793" id="-27810">
		<tag k="alt_name" v="Rislykkja, s" />
		<tag k="name" v="Søre Rislykkja" />
		<tag k="place" v="farm" />
		<tag k="ssr:stedsnr" v="71830" />
	</node>
	<node lat="62.117457289242914" lon="8.821326623838159" id="-27812">
		<tag k="fixme" v="consider place=hamlet" />
		<tag k="name" v="Belle" />
		<tag k="place" v="farm" />
		<tag k="ssr:stedsnr" v="71902" />
	</node>
	<node lat="62.1142884708404" lon="8.95418962564889" id="-27813">
		<tag k="fixme" v="consider place=hamlet" />
		<tag k="name" v="Selsjord" />
		<tag k="place" v="farm" />
		<tag k="ssr:stedsnr" v="71906" />
	</node>
	<node lat="62.23283611453209" lon="8.409691671337903" id="-27819">
		<tag k="name" v="Rud" />
		<tag k="place" v="farm" />
		<tag k="ssr:stedsnr" v="72824" />
	</node>
	<node lat="62.121885434985735" lon="8.737676690387019" id="-27826">
		<tag k="fixme" v="consider place=hamlet" />
		<tag k="name" v="Rudi" />
		<tag k="place" v="farm" />
		<tag k="ssr:stedsnr" v="110402" />
	</node>
	<node lat="62.09185833625385" lon="9.084561113101842" id="-27827">
		<tag k="name" v="Søre nedre Jonsgard" />
		<tag k="place" v="farm" />
		<tag k="ssr:stedsnr" v="110802" />
	</node>
	<node lat="62.23984444587368" lon="8.373050006342181" id="-27830">
		<tag k="name" v="Sørpå-Enstad" />
		<tag k="place" v="farm" />
		<tag k="ssr:stedsnr" v="111106" />
	</node>
	<node lat="62.188263887870555" lon="8.621741659573987" id="-27833">
		<tag k="name" v="Flatruste" />
		<tag k="place" v="locality" />
		<tag k="ssr:stedsnr" v="111469" />
	</node>
	<node lat="62.11889722499687" lon="8.798186118515552" id="-27838">
		<tag k="name" v="Grindstugu" />
		<tag k="place" v="farm" />
		<tag k="ssr:stedsnr" v="111686" />
	</node>
	<node lat="62.1064472220091" lon="8.911588881064095" id="-27840">
		<tag k="name" v="Søre Åsveen" />
		<tag k="place" v="farm" />
		<tag k="ssr:stedsnr" v="111985" />
	</node>
	<node lat="62.09013888964836" lon="9.099663896550975" id="-27842">
		<tag k="alt_name" v="Dompen" />
		<tag k="loc_name" v="Dumpe" />
		<tag k="name" v="Dompi" />
		<tag k="place" v="farm" />
		<tag k="ssr:stedsnr" v="131595" />
	</node>
	<node lat="62.14988888891447" lon="8.678580558918616" id="-27843">
		<tag k="alt_name" v="Stavem søndre nordre" />
		<tag k="name" v="Stavem" />
		<tag k="place" v="farm" />
		<tag k="ssr:stedsnr" v="131703" />
	</node>
	<node lat="62.19158606598858" lon="8.591376505818419" id="-27845">
		<tag k="fixme" v="consider place=hamlet" />
		<tag k="name" v="Nygarden" />
		<tag k="place" v="farm" />
		<tag k="ssr:stedsnr" v="131819" />
	</node>
	<node lat="62.19216666587415" lon="8.302483323825761" id="-27848">
		<tag k="alt_name" v="Kvamsætri" />
		<tag k="historic" v="shieling" />
		<tag k="name" v="Kvamsætre" />
		<tag k="place" v="isolated_dwelling" />
		<tag k="ssr:stedsnr" v="131885" />
	</node>
	<node lat="62.09187499597155" lon="8.742944436329148" id="-27857">
		<tag k="historic" v="shieling" />
		<tag k="loc_name" v="Lyftingmosætre" />
		<tag k="name" v="Lyftingmosætri" />
		<tag k="place" v="isolated_dwelling" />
		<tag k="ssr:stedsnr" v="132622" />
	</node>
	<node lat="62.25152500448735" lon="8.808599996903402" id="-27859">
		<tag k="historic" v="shieling" />
		<tag k="name" v="Sørhella" />
		<tag k="place" v="isolated_dwelling" />
		<tag k="ssr:stedsnr" v="132666" />
	</node>
	<node lat="62.20807222005239" lon="8.479080547063129" id="-27860">
		<tag k="name" v="Lund" />
		<tag k="place" v="farm" />
		<tag k="ssr:stedsnr" v="132815" />
	</node>
	<node lat="62.217983337354426" lon="8.557861112944966" id="-27862">
		<tag k="historic" v="shieling" />
		<tag k="name" v="Lynningen" />
		<tag k="place" v="isolated_dwelling" />
		<tag k="ssr:stedsnr" v="132818" />
	</node>
	<node lat="62.227252780159766" lon="8.423416658607163" id="-27865">
		<tag k="alt_name" v="Aaheim" />
		<tag k="name" v="Åheim" />
		<tag k="ssr:stedsnr" v="132860" />
		<tag k="tourism" v="camp_site" />
	</node>
	<node lat="62.11400833283832" lon="8.768208332187235" id="-27867">
		<tag k="name" v="Holnes" />
		<tag k="place" v="farm" />
		<tag k="ssr:stedsnr" v="132869" />
	</node>
	<node lat="62.12263547594179" lon="8.73806208919037" id="-27868">
		<tag k="name" v="Rudi" />
		<tag k="place" v="farm" />
		<tag k="ssr:stedsnr" v="132871" />
	</node>
	<node lat="62.26596388685977" lon="8.221750007415618" id="-27869">
		<tag k="alt_name" v="Bjorlisletten" />
		<tag k="name" v="Bjorlisletti" />
		<tag k="place" v="farm" />
		<tag k="ssr:stedsnr" v="133264" />
	</node>
	<node lat="62.2808500026373" lon="8.686980552406764" id="-27870">
		<tag k="alt_name" v="Gåsbui" />
		<tag k="historic" v="shieling" />
		<tag k="name" v="Gåsbue" />
		<tag k="place" v="isolated_dwelling" />
		<tag k="ssr:stedsnr" v="133265" />
	</node>
	<node lat="62.27004444317318" lon="8.2060722132163" id="-27872">
		<tag k="name" v="Nepåhaugen" />
		<tag k="place" v="farm" />
		<tag k="ssr:stedsnr" v="253156" />
	</node>
	<node lat="62.26859843763103" lon="8.21237277681425" id="-27873">
		<tag k="fixme" v="consider place=hamlet" />
		<tag k="name" v="Bjorli" />
		<tag k="place" v="farm" />
		<tag k="ssr:stedsnr" v="253178" />
	</node>
	<node lat="62.266077773666964" lon="8.186574992441884" id="-27876">
		<tag k="name" v="Kågen" />
		<tag k="place" v="farm" />
		<tag k="ssr:stedsnr" v="253159" />
	</node>
	<node lat="62.20066944487204" lon="8.638800008213062" id="-27886">
		<tag k="alt_name" v="Vangsætran" />
		<tag k="name" v="Vangsætri" />
		<tag k="place" v="isolated_dwelling" />
		<tag k="ssr:stedsnr" v="253848" />
	</node>
	<node lat="62.231852774347566" lon="8.419427783055502" id="-27887">
		<tag k="name" v="Kvean" />
		<tag k="place" v="isolated_dwelling" />
		<tag k="ssr:stedsnr" v="253862" />
	</node>
	<node lat="62.12665222142085" lon="8.728606933471578" id="-27891">
		<tag k="fixme" v="consider place=hamlet" />
		<tag k="name" v="Skarphol" />
		<tag k="place" v="farm" />
		<tag k="ssr:stedsnr" v="253931" />
	</node>
	<node lat="62.124252946806735" lon="8.734154183829876" id="-27892">
		<tag k="fixme" v="consider place=hamlet" />
		<tag k="name" v="Brennjord" />
		<tag k="place" v="farm" />
		<tag k="ssr:stedsnr" v="253934" />
	</node>
	<node lat="62.12163333184905" lon="8.770449997724171" id="-27893">
		<tag k="name" v="Plassen" />
		<tag k="place" v="farm" />
		<tag k="ssr:stedsnr" v="253935" />
	</node>
	<node lat="62.33844999666021" lon="8.69925277307439" id="-27904">
		<tag k="name" v="Geitavollen" />
		<tag k="place" v="isolated_dwelling" />
		<tag k="ssr:stedsnr" v="254324" />
	</node>
	<node lat="62.055433333701245" lon="8.356000003299593" id="-27915">
		<tag k="alt_name" v="Nysætre" />
		<tag k="historic" v="shieling" />
		<tag k="name" v="Nysætri" />
		<tag k="place" v="isolated_dwelling" />
		<tag k="ssr:stedsnr" v="254737" />
	</node>
	<node lat="62.20542221938261" lon="8.49306111185457" id="-27919">
		<tag k="alt_name" v="Knipa;Knipa nordre" />
		<tag k="name" v="Nordre Knipa" />
		<tag k="place" v="farm" />
		<tag k="ssr:stedsnr" v="254796" />
	</node>
	<node lat="62.214344445339194" lon="8.333144439993111" id="-27920">
		<tag k="alt_name" v="Grønvedsætre" />
		<tag k="historic" v="shieling" />
		<tag k="loc_name" v="Grønvesætre" />
		<tag k="name" v="Grønvesætri" />
		<tag k="place" v="isolated_dwelling" />
		<tag k="ssr:stedsnr" v="254846" />
	</node>
	<node lat="62.101950002660246" lon="8.851286101929746" id="-27921">
		<tag k="name" v="Sjåheim" />
		<tag k="place" v="farm" />
		<tag k="ssr:stedsnr" v="254897" />
	</node>
	<node lat="62.13027777650972" lon="8.684336109508607" id="-27930">
		<tag k="name" v="Kjørkjesbakken" />
		<tag k="place" v="isolated_dwelling" />
		<tag k="ssr:stedsnr" v="171406" />
	</node>
	<node lat="62.209450002374496" lon="8.482275005715573" id="-27939">
		<tag k="name" v="Søre Plassen" />
		<tag k="place" v="farm" />
		<tag k="ssr:stedsnr" v="172464" />
	</node>
	<node lat="62.25364722406079" lon="8.216122224309988" id="-27946">
		<tag k="amenity" v="nursing_home" />
		<tag k="name" v="Bjorlitun" />
		<tag k="ssr:stedsnr" v="232133" />
	</node>
	<node lat="62.23660000366887" lon="8.347297216639753" id="-27947">
		<tag k="name" v="Nylykkja" />
		<tag k="place" v="isolated_dwelling" />
		<tag k="ssr:stedsnr" v="232082" />
	</node>
	<node lat="62.14194999738834" lon="8.698024992044772" id="-27950">
		<tag k="name" v="Hoset" />
		<tag k="place" v="farm" />
		<tag k="ssr:stedsnr" v="232482" />
	</node>
	<node lat="62.15653333212007" lon="8.67089443645245" id="-27951">
		<tag k="name" v="Søre Kjelshus" />
		<tag k="place" v="farm" />
		<tag k="ssr:stedsnr" v="232485" />
	</node>
	<node lat="62.0829777751198" lon="9.054866666366005" id="-27955">
		<tag k="name" v="Evjen" />
		<tag k="place" v="isolated_dwelling" />
		<tag k="ssr:stedsnr" v="232779" />
	</node>
	<node lat="62.09421389035912" lon="9.04106110538529" id="-27956">
		<tag k="alt_name" v="Nordre Skålgård" />
		<tag k="name" v="Nørdre Skålgard" />
		<tag k="place" v="farm" />
		<tag k="ssr:stedsnr" v="232833" />
	</node>
	<node lat="62.20458611288955" lon="8.496266674050727" id="-27962">
		<tag k="name" v="Søre Knipa" />
		<tag k="place" v="farm" />
		<tag k="ssr:stedsnr" v="233479" />
	</node>
	<node lat="62.10599166811281" lon="8.871497216221545" id="-27964">
		<tag k="alt_name" v="Øygarden" />
		<tag k="name" v="Øygard" />
		<tag k="place" v="farm" />
		<tag k="ssr:stedsnr" v="496887" />
	</node>
	<node lat="62.07192499727411" lon="9.063330559266433" id="-27965">
		<tag k="alt_name" v="Eiedet" />
		<tag k="name" v="Eidet" />
		<tag k="place" v="farm" />
		<tag k="ssr:stedsnr" v="253618" />
	</node>
	<node lat="62.12800555591345" lon="8.720191672773069" id="-27966">
		<tag k="name" v="Norderhus" />
		<tag k="place" v="farm" />
		<tag k="ssr:stedsnr" v="253703" />
	</node>
	<node lat="62.137686115286506" lon="8.703061116309385" id="-27970">
		<tag k="name" v="Ljosbakken" />
		<tag k="place" v="farm" />
		<tag k="ssr:stedsnr" v="253787" />
	</node>
	<node lat="62.168780551824696" lon="8.647488882391917" id="-27972">
		<tag k="alt_name" v="Rislykkja, nordre" />
		<tag k="name" v="Nordre Rislykkja" />
		<tag k="old_name" v="Ris-lykkja, nordre" />
		<tag k="place" v="farm" />
		<tag k="ssr:stedsnr" v="253802" />
	</node>
	<node lat="62.23089722280673" lon="8.310019442574559" id="-27973">
		<tag k="alt_name" v="Kvitlan" />
		<tag k="name" v="Kvisli" />
		<tag k="place" v="farm" />
		<tag k="ssr:stedsnr" v="253873" />
	</node>
	<node lat="62.23824863047713" lon="8.40905090560546" id="-27974">
		<tag k="name" v="Sæter" />
		<tag k="place" v="hamlet" />
		<tag k="ssr:stedsnr" v="253877" />
	</node>
	<node lat="62.26559167020817" lon="8.292658337348682" id="-27981">
		<tag k="name" v="Åmillom" />
		<tag k="place" v="locality" />
		<tag k="ssr:stedsnr" v="254281" />
	</node>
	<node lat="62.21333333312796" lon="8.457455555340081" id="-27984">
		<tag k="name" v="Toppen" />
		<tag k="place" v="farm" />
		<tag k="ssr:stedsnr" v="254808" />
	</node>
	<node lat="62.216749389513694" lon="8.455115651333616" id="-27985">
		<tag k="fixme" v="consider place=hamlet" />
		<tag k="name" v="Berget" />
		<tag k="place" v="farm" />
		<tag k="ssr:stedsnr" v="254810" />
	</node>
	<node lat="62.23856111391088" lon="8.371994448017688" id="-27987">
		<tag k="name" v="Ner-Enstad" />
		<tag k="place" v="farm" />
		<tag k="ssr:stedsnr" v="292090" />
	</node>
	<node lat="62.12134166658362" lon="8.835141667248534" id="-27992">
		<tag k="name" v="Reitan" />
		<tag k="place" v="locality" />
		<tag k="ssr:stedsnr" v="293737" />
	</node>
	<node lat="62.23740278119548" lon="8.28112223149765" id="-28003">
		<tag k="alt_name" v="Kvam søre;Søre Kvam" />
		<tag k="name" v="Nistugu Kvam" />
		<tag k="place" v="farm" />
		<tag k="ssr:stedsnr" v="314259" />
	</node>
	<node lat="62.21062778001861" lon="8.41509444772544" id="-28011">
		<tag k="alt_name" v="Prestsætre" />
		<tag k="historic" v="shieling" />
		<tag k="name" v="Prestsætri" />
		<tag k="place" v="isolated_dwelling" />
		<tag k="ssr:stedsnr" v="314819" />
	</node>
	<node lat="62.19976944484438" lon="8.525719442780163" id="-28031">
		<tag k="name" v="Søristugu" />
		<tag k="place" v="farm" />
		<tag k="ssr:stedsnr" v="474326" />
	</node>
	<node lat="62.116030306528955" lon="8.866973522418444" id="-28037">
		<tag k="fixme" v="consider place=hamlet" />
		<tag k="name" v="Store Tande" />
		<tag k="place" v="farm" />
		<tag k="ssr:stedsnr" v="353524" />
	</node>
	<node lat="62.149733330645674" lon="8.680016659074433" id="-28038">
		<tag k="name" v="Søndre søre Stavem" />
		<tag k="place" v="farm" />
		<tag k="ssr:stedsnr" v="353538" />
	</node>
	<node lat="62.147611112629406" lon="8.685961115772908" id="-28039">
		<tag k="alt_name" v="Lillejordet" />
		<tag k="name" v="Vesljordet" />
		<tag k="old_name" v="Vesljardet" />
		<tag k="place" v="farm" />
		<tag k="ssr:stedsnr" v="353541" />
	</node>
	<node lat="62.148080558919744" lon="8.639266659300848" id="-28041">
		<tag k="loc_name" v="Vitlsætre" />
		<tag k="name" v="Vitlsæteren" />
		<tag k="place" v="locality" />
		<tag k="ssr:stedsnr" v="353552" />
	</node>
	<node lat="62.12346666987135" lon="8.748922221010895" id="-28046">
		<tag k="name" v="Høgbrenna" />
		<tag k="place" v="farm" />
		<tag k="ssr:stedsnr" v="474400" />
	</node>
	<node lat="62.123269446763295" lon="8.75279167524904" id="-28049">
		<tag k="name" v="Pettergarden" />
		<tag k="place" v="isolated_dwelling" />
		<tag k="ssr:stedsnr" v="353713" />
	</node>
	<node lat="62.10088358238217" lon="8.9997885028534" id="-28060">
		<tag k="name" v="Nerigard Bottem" />
		<tag k="place" v="farm" />
		<tag k="ssr:stedsnr" v="474888" />
	</node>
	<node lat="62.09490555508222" lon="9.03142777904522" id="-28062">
		<tag k="name" v="Slettmo" />
		<tag k="place" v="farm" />
		<tag k="ssr:stedsnr" v="474894" />
	</node>
	<node lat="62.08703889154008" lon="9.095322223878085" id="-28064">
		<tag k="name" v="Olalykkja" />
		<tag k="place" v="locality" />
		<tag k="ssr:stedsnr" v="474788" />
	</node>
	<node lat="62.23681666422671" lon="8.292883331998613" id="-28068">
		<tag k="name" v="Svensrud" />
		<tag k="place" v="farm" />
		<tag k="ssr:stedsnr" v="475094" />
	</node>
	<node lat="62.2367611076468" lon="8.27838333108487" id="-28069">
		<tag k="name" v="Rusten" />
		<tag k="place" v="farm" />
		<tag k="ssr:stedsnr" v="475096" />
	</node>
	<node lat="62.11563055470637" lon="8.852472216406067" id="-28075">
		<tag k="name" v="Klokstad" />
		<tag k="place" v="farm" />
		<tag k="ssr:stedsnr" v="475525" />
	</node>
	<node lat="62.1193749997581" lon="8.90958888426228" id="-28078">
		<tag k="amenity" v="nursing_home" />
		<tag k="name" v="Haujeheimen" />
		<tag k="ssr:stedsnr" v="475974" />
	</node>
	<node lat="62.167568826387075" lon="8.64445580314468" id="-28086">
		<tag k="fixme" v="consider place=hamlet" />
		<tag k="name" v="Nordre Leirmo" />
		<tag k="place" v="farm" />
		<tag k="ssr:stedsnr" v="476682" />
	</node>
	<node lat="62.31302172115982" lon="8.536308202531751" id="-28097">
		<tag k="name" v="Morkabui" />
		<tag k="place" v="locality" />
		<tag k="ssr:stedsnr" v="375231" />
	</node>
	<node lat="62.235049114022694" lon="8.411669021957735" id="-28101">
		<tag k="name" v="Bjølverud" />
		<tag k="place" v="hamlet" />
		<tag k="ssr:stedsnr" v="375828" />
	</node>
	<node lat="62.234965551176245" lon="8.429002590300168" id="-28102">
		<tag k="alt_name" v="Brandli" />
		<tag k="fixme" v="consider place=hamlet" />
		<tag k="name" v="Brandlii" />
		<tag k="place" v="farm" />
		<tag k="ssr:stedsnr" v="375829" />
	</node>
	<node lat="62.116438892371484" lon="8.868424991315374" id="-28103">
		<tag k="name" v="Tande" />
		<tag k="place" v="farm" />
		<tag k="ssr:stedsnr" v="375878" />
	</node>
	<node lat="62.24097222448296" lon="8.33051666605802" id="-28112">
		<tag k="name" v="Søre Lien" />
		<tag k="place" v="farm" />
		<tag k="ssr:stedsnr" v="414099" />
	</node>
	<node lat="62.12632425996897" lon="8.722773761059807" id="-28114">
		<tag k="fixme" v="consider place=hamlet" />
		<tag k="name" v="Nørstegård" />
		<tag k="place" v="farm" />
		<tag k="ssr:stedsnr" v="414391" />
	</node>
	<node lat="62.12538150183084" lon="8.732563575637338" id="-28115">
		<tag k="fixme" v="consider place=hamlet" />
		<tag k="name" v="Tordhol" />
		<tag k="place" v="farm" />
		<tag k="ssr:stedsnr" v="414392" />
	</node>
	<node lat="62.15493611212241" lon="8.692516669222819" id="-28116">
		<tag k="name" v="Stavemsespet" />
		<tag k="place" v="locality" />
		<tag k="ssr:stedsnr" v="414518" />
	</node>
	<node lat="62.15407500197688" lon="8.676069451158915" id="-28117">
		<tag k="name" v="Nordre søre Stavem" />
		<tag k="place" v="farm" />
		<tag k="ssr:stedsnr" v="414521" />
	</node>
	<node lat="62.20294166431318" lon="8.547077786041857" id="-28118">
		<tag k="name" v="Jolykkja" />
		<tag k="place" v="locality" />
		<tag k="ssr:stedsnr" v="414488" />
	</node>
	<node lat="62.09223611242065" lon="9.036461110111162" id="-28127">
		<tag k="name" v="Søre Rolstad" />
		<tag k="place" v="farm" />
		<tag k="ssr:stedsnr" v="420900" />
	</node>
	<node lat="62.09321944166958" lon="9.09202222067751" id="-28129">
		<tag k="name" v="Skogstad" />
		<tag k="place" v="farm" />
		<tag k="ssr:stedsnr" v="435620" />
	</node>
	<node lat="62.1299583370672" lon="8.714730560259316" id="-28130">
		<tag k="name" v="Nyhus" />
		<tag k="place" v="farm" />
		<tag k="ssr:stedsnr" v="435763" />
	</node>
	<node lat="62.14240555871325" lon="8.698250006664617" id="-28131">
		<tag k="fixme" v="consider place=hamlet" />
		<tag k="name" v="Lora" />
		<tag k="place" v="village" />
		<tag k="ssr:stedsnr" v="435773" />
	</node>
	<node lat="62.183816669795874" lon="8.60891943583259" id="-28132">
		<tag k="alt_name" v="Melien" />
		<tag k="name" v="Melii" />
		<tag k="place" v="farm" />
		<tag k="ssr:stedsnr" v="435812" />
	</node>
	<node lat="62.15413056531268" lon="8.68205499877641" id="-28134">
		<tag k="name" v="Brennhaugen" />
		<tag k="place" v="farm" />
		<tag k="ssr:stedsnr" v="435823" />
	</node>
	<node lat="62.1975983597127" lon="8.315076005647349" id="-28135">
		<tag k="alt_name" v="Enstadsætre" />
		<tag k="historic" v="shieling" />
		<tag k="name" v="Enstadsætri" />
		<tag k="place" v="isolated_dwelling" />
		<tag k="ssr:stedsnr" v="435864" />
	</node>
	<node lat="62.10487499803193" lon="8.599094435786975" id="-28144">
		<tag k="alt_name" v="Sausætre" />
		<tag k="name" v="Sausæter" />
		<tag k="place" v="hamlet" />
		<tag k="ssr:stedsnr" v="436763" />
	</node>
	<node lat="62.12054108437194" lon="8.761040658942418" id="-28150">
		<tag k="fixme" v="consider place=hamlet" />
		<tag k="name" v="Mitti Lyftingmo" />
		<tag k="place" v="farm" />
		<tag k="ssr:stedsnr" v="474668" />
	</node>
	<node lat="62.12226388639929" lon="8.785563890765001" id="-28151">
		<tag k="name" v="Frekgarden" />
		<tag k="place" v="farm" />
		<tag k="ssr:stedsnr" v="474669" />
	</node>
	<node lat="62.270075001443566" lon="9.037036101576136" id="-28158">
		<tag k="fixme" v="consider tourism=alpine_hut or tourism=chalet" />
		<tag k="name" v="Lesjøhytta" />
		<tag k="ssr:stedsnr" v="475184" />
		<tag k="tourism" v="wilderness_hut" />
	</node>
	<node lat="62.202312660778574" lon="8.49366665254052" id="-28160">
		<tag k="alt_name" v="Knipstuen" />
		<tag k="fixme" v="consider place=hamlet" />
		<tag k="name" v="Knipstugu" />
		<tag k="place" v="farm" />
		<tag k="ssr:stedsnr" v="475470" />
	</node>
	<node lat="62.12640000134603" lon="8.779658336865818" id="-28167">
		<tag k="name" v="Timberbakken" />
		<tag k="place" v="isolated_dwelling" />
		<tag k="ssr:stedsnr" v="475715" />
	</node>
	<node lat="62.12268055871663" lon="8.83736667332968" id="-28168">
		<tag k="name" v="Huse" />
		<tag k="place" v="isolated_dwelling" />
		<tag k="ssr:stedsnr" v="475727" />
	</node>
	<node lat="62.27094166338778" lon="8.206972216013288" id="-28177">
		<tag k="name" v="Toftan" />
		<tag k="place" v="farm" />
		<tag k="ssr:stedsnr" v="678135" />
	</node>
	<node lat="62.238074211981605" lon="8.155751231319393" id="-28179">
		<tag k="alt_name" v="Rånå" />
		<tag k="name" v="Nordre Nigard" />
		<tag k="place" v="farm" />
		<tag k="ssr:stedsnr" v="678139" />
	</node>
	<node lat="62.24245555397008" lon="8.317683342375387" id="-28182">
		<tag k="name" v="Holen" />
		<tag k="place" v="farm" />
		<tag k="ssr:stedsnr" v="678242" />
	</node>
	<node lat="62.09291631442701" lon="9.034096138273014" id="-28185">
		<tag k="alt_name" v="Rollstad" />
		<tag k="name" v="Rolstad" />
		<tag k="place" v="hamlet" />
		<tag k="ssr:stedsnr" v="481608" />
	</node>
	<node lat="62.12782679414703" lon="8.715202232012086" id="-28190">
		<tag k="fixme" v="consider place=hamlet" />
		<tag k="name" v="Norderhus" />
		<tag k="place" v="farm" />
		<tag k="ssr:stedsnr" v="678741" />
	</node>
	<node lat="62.06887778064027" lon="8.442461104206297" id="-28192">
		<tag k="alt_name" v="Storsætre" />
		<tag k="historic" v="shieling" />
		<tag k="name" v="Storsætri" />
		<tag k="place" v="isolated_dwelling" />
		<tag k="ssr:stedsnr" v="678764" />
	</node>
	<node lat="62.235969448909174" lon="8.374438885142403" id="-28193">
		<tag k="name" v="Lunde" />
		<tag k="place" v="farm" />
		<tag k="ssr:stedsnr" v="678833" />
	</node>
	<node lat="62.235722697417756" lon="8.398996452179482" id="-28194">
		<tag k="name" v="Sørskotte" />
		<tag k="place" v="farm" />
		<tag k="ssr:stedsnr" v="678836" />
	</node>
	<node lat="62.12044857397489" lon="8.739084160018862" id="-28199">
		<tag k="alt_name" v="Brenden" />
		<tag k="fixme" v="consider place=hamlet" />
		<tag k="name" v="Brenna" />
		<tag k="place" v="farm" />
		<tag k="ssr:stedsnr" v="678858" />
	</node>
	<node lat="62.118811684234736" lon="8.803548864055836" id="-28200">
		<tag k="fixme" v="consider place=hamlet" />
		<tag k="name" v="Tynnøl" />
		<tag k="place" v="farm" />
		<tag k="ssr:stedsnr" v="678865" />
	</node>
	<node lat="62.24873888954601" lon="8.818147221247951" id="-28206">
		<tag k="historic" v="shieling" />
		<tag k="name" v="Sørhella" />
		<tag k="place" v="isolated_dwelling" />
		<tag k="ssr:stedsnr" v="678965" />
	</node>
	<node lat="62.24492777486966" lon="8.240983328021265" id="-28213">
		<tag k="alt_name" v="Morki søre" />
		<tag k="name" v="Søre Morki" />
		<tag k="place" v="farm" />
		<tag k="ssr:stedsnr" v="496243" />
	</node>
	<node lat="62.06186111339517" lon="9.029786102500747" id="-28218">
		<tag k="alt_name" v="Høgsætri" />
		<tag k="loc_name" v="Høgsætre" />
		<tag k="name" v="Høgsætrin" />
		<tag k="place" v="hamlet" />
		<tag k="ssr:stedsnr" v="496602" />
	</node>
	<node lat="62.21812499640595" lon="8.470250001763949" id="-28225">
		<tag k="alt_name" v="Sandgro nordre" />
		<tag k="name" v="Sandgro" />
		<tag k="place" v="farm" />
		<tag k="ssr:stedsnr" v="496821" />
	</node>
	<node lat="62.21377716238024" lon="8.462573280312194" id="-28226">
		<tag k="alt_name" v="Nordsletten" />
		<tag k="fixme" v="consider place=hamlet" />
		<tag k="name" v="Nordsletti" />
		<tag k="place" v="farm" />
		<tag k="ssr:stedsnr" v="496822" />
	</node>
	<node lat="62.14126111258642" lon="9.035730559574322" id="-28231">
		<tag k="historic" v="shieling" />
		<tag k="name" v="Svartdalsætrin" />
		<tag k="place" v="isolated_dwelling" />
		<tag k="ssr:stedsnr" v="496914" />
	</node>
	<node lat="62.235013889463566" lon="8.974136107976134" id="-28236">
		<tag k="historic" v="shieling" />
		<tag k="name" v="Skamsdalsætrin" />
		<tag k="place" v="isolated_dwelling" />
		<tag k="ssr:stedsnr" v="497000" />
	</node>
	<node lat="62.13840555203568" lon="8.658569448099682" id="-28252">
		<tag k="landuse" v="winter_sports" />
		<tag k="name" v="Høghaugen" />
		<tag k="piste:type" v="downhill" />
		<tag k="ssr:stedsnr" v="536508" />
	</node>
	<node lat="62.19554722242404" lon="8.3135166660113" id="-28266">
		<tag k="alt_name" v="Sykvamsætre" />
		<tag k="historic" v="shieling" />
		<tag k="name" v="Kvamsætri" />
		<tag k="place" v="isolated_dwelling" />
		<tag k="ssr:stedsnr" v="556854" />
	</node>
	<node lat="62.24378055369107" lon="8.41964444694001" id="-28268">
		<tag k="alt_name" v="Jonsgardsætre" />
		<tag k="historic" v="shieling" />
		<tag k="name" v="Jonsgardsætri" />
		<tag k="place" v="isolated_dwelling" />
		<tag k="ssr:stedsnr" v="556865" />
	</node>
	<node lat="62.22918333190662" lon="8.540999998061526" id="-28269">
		<tag k="historic" v="shieling" />
		<tag k="loc_name" v="Kvernslåe" />
		<tag k="name" v="Kvernslåi" />
		<tag k="place" v="isolated_dwelling" />
		<tag k="ssr:stedsnr" v="556876" />
	</node>
	<node lat="62.12255920861787" lon="8.763108348725567" id="-28274">
		<tag k="alt_name" v="Lyftingmo" />
		<tag k="fixme" v="consider place=hamlet" />
		<tag k="name" v="Øvre Lyftingmo" />
		<tag k="place" v="farm" />
		<tag k="ssr:stedsnr" v="556931" />
	</node>
	<node lat="62.17966389100119" lon="8.906733328243975" id="-28277">
		<tag k="historic" v="shieling" />
		<tag k="name" v="Filling" />
		<tag k="place" v="isolated_dwelling" />
		<tag k="ssr:stedsnr" v="556975" />
	</node>
	<node lat="62.254183329879396" lon="8.220169438269709" id="-28279">
		<tag k="name" v="Heimdal" />
		<tag k="place" v="farm" />
		<tag k="ssr:stedsnr" v="557268" />
	</node>
	<node lat="62.11180000143782" lon="8.694574999847813" id="-28285">
		<tag k="name" v="Grønkjelda" />
		<tag k="place" v="farm" />
		<tag k="ssr:stedsnr" v="557757" />
	</node>
	<node lat="62.21724398845215" lon="8.442765910325088" id="-28288">
		<tag k="alt_name" v="Bryggen" />
		<tag k="fixme" v="consider place=hamlet" />
		<tag k="name" v="Bryggja" />
		<tag k="place" v="farm" />
		<tag k="ssr:stedsnr" v="557849" />
	</node>
	<node lat="62.13890277886634" lon="8.70401389003399" id="-28296">
		<tag k="name" v="Steinan" />
		<tag k="place" v="isolated_dwelling" />
		<tag k="ssr:stedsnr" v="595503" />
	</node>
	<node lat="62.1974833294481" lon="8.571369448491142" id="-28300">
		<tag k="name" v="Torslykkje" />
		<tag k="place" v="locality" />
		<tag k="ssr:stedsnr" v="596460" />
	</node>
	<node lat="62.1222444476919" lon="8.804688891748372" id="-28306">
		<tag k="name" v="Prestlykkja" />
		<tag k="place" v="farm" />
		<tag k="ssr:stedsnr" v="596705" />
	</node>
	<node lat="62.119085898020174" lon="8.88735679033216" id="-28307">
		<tag k="fixme" v="consider place=hamlet" />
		<tag k="name" v="Holsbrekken" />
		<tag k="place" v="farm" />
		<tag k="ssr:stedsnr" v="596956" />
	</node>
	<node lat="62.09446111336836" lon="9.039069446421687" id="-28317">
		<tag k="name" v="Kullungstad" />
		<tag k="place" v="farm" />
		<tag k="ssr:stedsnr" v="617610" />
	</node>
	<node lat="62.086180556069024" lon="9.022458342858659" id="-28318">
		<tag k="name" v="Veslhaugen" />
		<tag k="place" v="farm" />
		<tag k="ssr:stedsnr" v="617611" />
	</node>
	<node lat="62.18241215694535" lon="8.601255967895966" id="-28325">
		<tag k="alt_name" v="Sandom" />
		<tag k="fixme" v="consider place=hamlet" />
		<tag k="name" v="Sandan" />
		<tag k="place" v="farm" />
		<tag k="ssr:stedsnr" v="617810" />
	</node>
	<node lat="62.15128610807927" lon="8.683294438682761" id="-28326">
		<tag k="name" v="Steinbakken" />
		<tag k="place" v="farm" />
		<tag k="ssr:stedsnr" v="617817" />
	</node>
	<node lat="62.21126724062698" lon="8.470992629766808" id="-28328">
		<tag k="alt_name" v="Sørsletten" />
		<tag k="fixme" v="consider place=hamlet" />
		<tag k="name" v="Sørsletti" />
		<tag k="place" v="farm" />
		<tag k="ssr:stedsnr" v="617835" />
	</node>
	<node lat="62.115430684304926" lon="8.934859858873136" id="-28330">
		<tag k="fixme" v="consider place=hamlet" />
		<tag k="name" v="Kårbø" />
		<tag k="place" v="farm" />
		<tag k="ssr:stedsnr" v="617889" />
	</node>
	<node lat="62.11742424255747" lon="8.921696318299585" id="-28331">
		<tag k="alt_name" v="Silli" />
		<tag k="fixme" v="consider place=hamlet" />
		<tag k="name" v="Sili" />
		<tag k="place" v="farm" />
		<tag k="ssr:stedsnr" v="617892" />
	</node>
	<node lat="62.197650004352404" lon="8.527899999805033" id="-28349">
		<tag k="name" v="Steinbakken" />
		<tag k="place" v="isolated_dwelling" />
		<tag k="ssr:stedsnr" v="656330" />
	</node>
	<node lat="62.14326944648916" lon="8.702161111558901" id="-28353">
		<tag k="name" v="Steinlykkja" />
		<tag k="place" v="locality" />
		<tag k="ssr:stedsnr" v="656538" />
	</node>
	<node lat="62.13915277601824" lon="8.700911111377685" id="-28354">
		<tag k="loc_name" v="Vesl-Bjøkne" />
		<tag k="name" v="Lillebjøkne" />
		<tag k="place" v="farm" />
		<tag k="ssr:stedsnr" v="656539" />
	</node>
	<node lat="62.12501944275426" lon="8.791100000694684" id="-28359">
		<tag k="alt_name" v="Søre Oderlykkja" />
		<tag k="name" v="Søre Olderlykkja" />
		<tag k="place" v="isolated_dwelling" />
		<tag k="ssr:stedsnr" v="657689" />
	</node>
	<node lat="62.11502499993735" lon="8.850594443451968" id="-28360">
		<tag k="name" v="Uppistugu Hågå" />
		<tag k="place" v="farm" />
		<tag k="ssr:stedsnr" v="657707" />
	</node>
	<node lat="62.10359166807143" lon="8.988847219644065" id="-28371">
		<tag k="alt_name" v="Nyland" />
		<tag k="name" v="Nylendet" />
		<tag k="place" v="farm" />
		<tag k="ssr:stedsnr" v="678616" />
	</node>
	<node lat="62.08023888729801" lon="8.91967499813726" id="-28372">
		<tag k="alt_name" v="Bøsætre" />
		<tag k="historic" v="shieling" />
		<tag k="loc_name" v="Beiasætre" />
		<tag k="name" v="Bøsætri" />
		<tag k="place" v="isolated_dwelling" />
		<tag k="ssr:stedsnr" v="678591" />
	</node>
	<node lat="62.209960072952896" lon="8.478767973756273" id="-28374">
		<tag k="alt_name" v="Plassen nordre" />
		<tag k="fixme" v="consider place=hamlet" />
		<tag k="name" v="Plassen" />
		<tag k="place" v="farm" />
		<tag k="ssr:stedsnr" v="678805" />
	</node>
	<node lat="62.2108711947598" lon="8.486536002979728" id="-28375">
		<tag k="alt_name" v="Løkken" />
		<tag k="fixme" v="consider place=hamlet" />
		<tag k="name" v="Lykkja" />
		<tag k="place" v="farm" />
		<tag k="ssr:stedsnr" v="678809" />
	</node>
	<node lat="62.11780813792744" lon="8.915603394983604" id="-28376">
		<tag k="fixme" v="consider place=hamlet" />
		<tag k="name" v="Ølstad" />
		<tag k="place" v="farm" />
		<tag k="ssr:stedsnr" v="678870" />
	</node>
	<node lat="62.10479722307366" lon="8.91341667225386" id="-28377">
		<tag k="alt_name" v="Ølstadløkken" />
		<tag k="name" v="Ølstadlykkja" />
		<tag k="place" v="farm" />
		<tag k="ssr:stedsnr" v="678886" />
	</node>
	<node lat="62.11094166521987" lon="8.977308330641163" id="-28378">
		<tag k="name" v="Håkåstadlykkja" />
		<tag k="place" v="farm" />
		<tag k="ssr:stedsnr" v="678892" />
	</node>
	<node lat="62.175452775029925" lon="8.55975555168059" id="-28380">
		<tag k="alt_name" v="Nordmannssætri" />
		<tag k="historic" v="shieling" />
		<tag k="name" v="Nordmannssætre" />
		<tag k="place" v="isolated_dwelling" />
		<tag k="ssr:stedsnr" v="678774" />
	</node>
	<node lat="62.13654444521018" lon="8.76474167295381" id="-28385">
		<tag k="alt_name" v="Plassætre" />
		<tag k="historic" v="shieling" />
		<tag k="name" v="Plassætri" />
		<tag k="place" v="isolated_dwelling" />
		<tag k="ssr:stedsnr" v="678909" />
	</node>
	<node lat="62.13518333207179" lon="9.004450008814649" id="-28386">
		<tag k="alt_name" v="Reindøl, nedre" />
		<tag k="historic" v="shieling" />
		<tag k="name" v="Nedre Reindøl" />
		<tag k="place" v="isolated_dwelling" />
		<tag k="ssr:stedsnr" v="678910" />
	</node>
	<node lat="62.125484255782744" lon="8.724913758450384" id="-28388">
		<tag k="fixme" v="consider place=hamlet" />
		<tag k="name" v="Flitti" />
		<tag k="place" v="farm" />
		<tag k="ssr:stedsnr" v="678914" />
	</node>
	<node lat="62.124797255473275" lon="8.782867851927847" id="-28389">
		<tag k="alt_name" v="Oderlykkja" />
		<tag k="name" v="Olderlykkja" />
		<tag k="place" v="farm" />
		<tag k="ssr:stedsnr" v="678916" />
	</node>
	<node lat="62.23341110800121" lon="8.222872220572295" id="-28403">
		<tag k="name" v="Grasflatlykkja" />
		<tag k="place" v="locality" />
		<tag k="ssr:stedsnr" v="717172" />
	</node>
	<node lat="62.12683333190975" lon="8.737924991527343" id="-28404">
		<tag k="name" v="Skogly" />
		<tag k="place" v="isolated_dwelling" />
		<tag k="ssr:stedsnr" v="717407" />
	</node>
	<node lat="62.12167500368915" lon="8.744916664840817" id="-28405">
		<tag k="name" v="Storhaug" />
		<tag k="place" v="farm" />
		<tag k="ssr:stedsnr" v="717409" />
	</node>
	<node lat="62.12281887244405" lon="8.798442448840369" id="-28408">
		<tag k="name" v="Avdem" />
		<tag k="place" v="hamlet" />
		<tag k="ssr:stedsnr" v="717727" />
	</node>
	<node lat="62.11642203572702" lon="8.754082822614853" id="-28422">
		<tag k="fixme" v="consider place=hamlet" />
		<tag k="name" v="Nedre Lyftingmo" />
		<tag k="place" v="farm" />
		<tag k="ssr:stedsnr" v="899665" />
	</node>
	<node lat="62.12120833379598" lon="8.784055559015696" id="-28423">
		<tag k="name" v="Stugun" />
		<tag k="place" v="farm" />
		<tag k="ssr:stedsnr" v="899666" />
	</node>
	<node lat="62.23401944676305" lon="8.35246943879226" id="-28434">
		<tag k="name" v="Lillehjem" />
		<tag k="place" v="farm" />
		<tag k="ssr:stedsnr" v="900084" />
	</node>
	<node lat="62.2308333375821" lon="8.354305547211341" id="-28436">
		<tag k="name" v="Rundtom" />
		<tag k="place" v="farm" />
		<tag k="ssr:stedsnr" v="900089" />
	</node>
	<node lat="62.1213472219798" lon="8.868080552937474" id="-28439">
		<tag k="name" v="Aurtande" />
		<tag k="place" v="farm" />
		<tag k="ssr:stedsnr" v="900526" />
	</node>
	<node lat="62.12379722085863" lon="8.79244443818732" id="-28440">
		<tag k="name" v="Avdemshågån" />
		<tag k="place" v="isolated_dwelling" />
		<tag k="ssr:stedsnr" v="900722" />
	</node>
	<node lat="62.09340358406737" lon="9.053996541817185" id="-28444">
		<tag k="alt_name" v="Amundgård;Ommundgard" />
		<tag k="fixme" v="consider place=hamlet" />
		<tag k="name" v="Amundgard" />
		<tag k="old_name" v="Ommundgaard;Ommundgård;Amundgaard" />
		<tag k="place" v="farm" />
		<tag k="ssr:stedsnr" v="726537" />
	</node>
	<node lat="62.09608333179221" lon="8.982708333884466" id="-28447">
		<tag k="name" v="Olalykkja" />
		<tag k="place" v="locality" />
		<tag k="ssr:stedsnr" v="900946" />
	</node>
	<node lat="62.16345277529388" lon="8.648277777847596" id="-28451">
		<tag k="name" v="Søre Leirmo" />
		<tag k="place" v="farm" />
		<tag k="ssr:stedsnr" v="901678" />
	</node>
	<node lat="62.174291670135695" lon="8.642863898379883" id="-28453">
		<tag k="name" v="Søre Åvangen" />
		<tag k="place" v="farm" />
		<tag k="ssr:stedsnr" v="901692" />
	</node>
	<node lat="62.198417456631624" lon="8.521329825897062" id="-28457">
		<tag k="name" v="Doset" />
		<tag k="place" v="hamlet" />
		<tag k="ssr:stedsnr" v="738859" />
	</node>
	<node lat="62.27106944801831" lon="8.17059722232895" id="-28461">
		<tag k="alt_name" v="Nystuen" />
		<tag k="name" v="Nystugu" />
		<tag k="place" v="farm" />
		<tag k="ssr:stedsnr" v="739113" />
	</node>
	<node lat="62.2465055574764" lon="8.238361114981085" id="-28463">
		<tag k="alt_name" v="Morki, nordre" />
		<tag k="name" v="Nordre Morki" />
		<tag k="place" v="farm" />
		<tag k="ssr:stedsnr" v="739222" />
	</node>
	<node lat="62.09966981810362" lon="9.006213660903141" id="-28466">
		<tag k="name" v="Teigen" />
		<tag k="place" v="hamlet" />
		<tag k="ssr:stedsnr" v="739622" />
	</node>
	<node lat="62.10018888456686" lon="8.933655556874431" id="-28467">
		<tag k="name" v="Torstad" />
		<tag k="place" v="farm" />
		<tag k="ssr:stedsnr" v="739630" />
	</node>
	<node lat="62.12120000170806" lon="8.793772230941592" id="-28481">
		<tag k="name" v="Vetle Avdem" />
		<tag k="place" v="farm" />
		<tag k="ssr:stedsnr" v="778711" />
	</node>
	<node lat="62.120211109085965" lon="8.959669448758907" id="-28485">
		<tag k="name" v="Helgestad" />
		<tag k="place" v="locality" />
		<tag k="ssr:stedsnr" v="778960" />
	</node>
	<node lat="62.12081666486984" lon="8.901066660492594" id="-28486">
		<tag k="name" v="Hattremslykkja" />
		<tag k="place" v="farm" />
		<tag k="ssr:stedsnr" v="778966" />
	</node>
	<node lat="62.21581169311454" lon="8.472709316862796" id="-28491">
		<tag k="fixme" v="consider place=hamlet" />
		<tag k="name" v="Sandgro" />
		<tag k="place" v="farm" />
		<tag k="ssr:stedsnr" v="779449" />
	</node>
	<node lat="62.21307222483557" lon="8.486591664819986" id="-28492">
		<tag k="name" v="Øverjordet" />
		<tag k="place" v="locality" />
		<tag k="ssr:stedsnr" v="779450" />
	</node>
	<node lat="62.2353416710651" lon="8.386169436510956" id="-28493">
		<tag k="name" v="Sør-Slettum" />
		<tag k="place" v="farm" />
		<tag k="ssr:stedsnr" v="779468" />
	</node>
	<node lat="62.26780555936765" lon="8.209802780814158" id="-28500">
		<tag k="alt_name" v="Bjorlivolden" />
		<tag k="name" v="Bjorlivollen" />
		<tag k="place" v="farm" />
		<tag k="ssr:stedsnr" v="800116" />
	</node>
	<node lat="62.257275001987296" lon="8.227224998249353" id="-28502">
		<tag k="name" v="Lysbakken" />
		<tag k="place" v="farm" />
		<tag k="ssr:stedsnr" v="800303" />
	</node>
	<node lat="62.09343611021799" lon="8.974366664673118" id="-28503">
		<tag k="name" v="Holten" />
		<tag k="place" v="farm" />
		<tag k="ssr:stedsnr" v="800609" />
	</node>
	<node lat="62.09659999557541" lon="8.953444452094745" id="-28504">
		<tag k="name" v="Solstad" />
		<tag k="place" v="farm" />
		<tag k="ssr:stedsnr" v="800626" />
	</node>
	<node lat="62.2365993369956" lon="8.395917301258299" id="-28505">
		<tag k="name" v="Nordskotte" />
		<tag k="place" v="farm" />
		<tag k="ssr:stedsnr" v="800830" />
	</node>
	<node lat="62.21437503488833" lon="8.479200228074895" id="-28512">
		<tag k="fixme" v="consider place=hamlet" />
		<tag k="name" v="Gravset" />
		<tag k="place" v="farm" />
		<tag k="ssr:stedsnr" v="800797" />
	</node>
	<node lat="62.12401528882302" lon="8.74403316197632" id="-28515">
		<tag k="fixme" v="consider place=hamlet" />
		<tag k="name" v="Haugen" />
		<tag k="place" v="farm" />
		<tag k="ssr:stedsnr" v="800931" />
	</node>
	<node lat="62.19726110752585" lon="8.542525006798323" id="-28518">
		<tag k="name" v="Anset" />
		<tag k="place" v="farm" />
		<tag k="ssr:stedsnr" v="920851" />
	</node>
	<node lat="62.19534466204396" lon="8.466373137532878" id="-28519">
		<tag k="alt_name" v="Tandsætri;Tandsætre nordre" />
		<tag k="fixme" v="consider place=hamlet" />
		<tag k="loc_name" v="Tandsætre" />
		<tag k="name" v="Nordre Tandsætre" />
		<tag k="place" v="farm" />
		<tag k="ssr:stedsnr" v="920855" />
	</node>
	<node lat="62.28007618686118" lon="8.149240381337695" id="-28521">
		<tag k="alt_name" v="Stuguflotten" />
		<tag k="fixme" v="consider place=hamlet" />
		<tag k="name" v="Stuguflåten" />
		<tag k="place" v="farm" />
		<tag k="ssr:stedsnr" v="921137" />
	</node>
	<node lat="62.29309721943406" lon="8.731313885715469" id="-28527">
		<tag k="alt_name" v="Grøven" />
		<tag k="historic" v="shieling" />
		<tag k="loc_name" v="Grøvusætre" />
		<tag k="name" v="Grøvusætri" />
		<tag k="place" v="isolated_dwelling" />
		<tag k="ssr:stedsnr" v="921412" />
	</node>
	<node lat="62.100143465896615" lon="8.996871581150538" id="-28532">
		<tag k="alt_name" v="Bottem" />
		<tag k="name" v="Bottheim" />
		<tag k="place" v="hamlet" />
		<tag k="ssr:stedsnr" v="921640" />
	</node>
	<node lat="62.103533334825215" lon="8.86613333784033" id="-28533">
		<tag k="name" v="Furuheim" />
		<tag k="place" v="farm" />
		<tag k="ssr:stedsnr" v="921642" />
	</node>
	<node lat="62.08226389152399" lon="9.061244447225645" id="-28536">
		<tag k="alt_name" v="Myre" />
		<tag k="name" v="Myri" />
		<tag k="place" v="farm" />
		<tag k="ssr:stedsnr" v="921622" />
	</node>
	<node lat="62.08461388956658" lon="9.033333341407882" id="-28537">
		<tag k="name" v="Brustugu" />
		<tag k="place" v="farm" />
		<tag k="ssr:stedsnr" v="921624" />
	</node>
	<node lat="62.12999167035899" lon="8.712411117452936" id="-28538">
		<tag k="alt_name" v="Kjønnrud" />
		<tag k="name" v="Tjørnrud" />
		<tag k="place" v="farm" />
		<tag k="ssr:stedsnr" v="921761" />
	</node>
	<node lat="62.135858332007935" lon="8.696850005673964" id="-28539">
		<tag k="alt_name" v="Ekren" />
		<tag k="name" v="Ekra" />
		<tag k="place" v="farm" />
		<tag k="ssr:stedsnr" v="921777" />
	</node>
	<node lat="62.175790130730725" lon="8.639260741508096" id="-28542">
		<tag k="alt_name" v="Åvangen;Åvangen nordre" />
		<tag k="name" v="Nordre Åvangen" />
		<tag k="place" v="farm" />
		<tag k="ssr:stedsnr" v="921793" />
	</node>
	<node lat="62.15459722598502" lon="8.67432777573297" id="-28543">
		<tag k="alt_name" v="Stavem nordre mellom" />
		<tag k="name" v="Stavem" />
		<tag k="place" v="farm" />
		<tag k="ssr:stedsnr" v="921801" />
	</node>
	<node lat="62.156938223425165" lon="8.670278761340224" id="-28544">
		<tag k="alt_name" v="Kjellshus;Kjelshus nordre" />
		<tag k="name" v="Nordre Kjellshus" />
		<tag k="place" v="farm" />
		<tag k="ssr:stedsnr" v="921802" />
	</node>
	<node lat="62.20338888739119" lon="8.492075000922682" id="-28545">
		<tag k="name" v="Bjørke" />
		<tag k="place" v="farm" />
		<tag k="ssr:stedsnr" v="921827" />
	</node>
	<node lat="62.232727781384554" lon="8.356499995595719" id="-28546">
		<tag k="fixme" v="consider place=suburb, village or hamlet" />
		<tag k="name" v="Lesjaskog" />
		<tag k="place" v="quarter" />
		<tag k="ssr:stedsnr" v="921851" />
	</node>
	<node lat="62.23713333573281" lon="8.420002775321612" id="-28547">
		<tag k="alt_name" v="Bjølverudgardene" />
		<tag k="name" v="Bjølverud" />
		<tag k="place" v="farm" />
		<tag k="ssr:stedsnr" v="921863" />
	</node>
	<node lat="62.117779895595916" lon="8.900494131709843" id="-28549">
		<tag k="name" v="Hattrem" />
		<tag k="place" v="hamlet" />
		<tag k="ssr:stedsnr" v="921880" />
	</node>
	<node lat="62.19773888638278" lon="8.9246305614829" id="-28551">
		<tag k="alt_name" v="Nysætri" />
		<tag k="name" v="Nysætre" />
		<tag k="place" v="hamlet" />
		<tag k="ssr:stedsnr" v="921941" />
	</node>
	<node lat="62.18899166532236" lon="8.574044438867395" id="-28562">
		<tag k="name" v="Søre Morken" />
		<tag k="place" v="farm" />
		<tag k="ssr:stedsnr" v="839511" />
	</node>
	<node lat="62.14099166924853" lon="8.688752781851777" id="-28563">
		<tag k="name" v="Hosetstuen" />
		<tag k="place" v="farm" />
		<tag k="ssr:stedsnr" v="839529" />
	</node>
	<node lat="62.12501666987144" lon="8.770002781355528" id="-28564">
		<tag k="name" v="Plassbakken" />
		<tag k="place" v="isolated_dwelling" />
		<tag k="ssr:stedsnr" v="839716" />
	</node>
	<node lat="62.21450833157154" lon="8.458208341319779" id="-28570">
		<tag k="name" v="Flaten" />
		<tag k="place" v="isolated_dwelling" />
		<tag k="ssr:stedsnr" v="840434" />
	</node>
	<node lat="62.240351176108554" lon="8.269995821730731" id="-28574">
		<tag k="alt_name" v="Einbu, nordre;Nordre Einbu;Nordre Enebo" />
		<tag k="fixme" v="consider place=hamlet" />
		<tag k="loc_name" v="Nordistugu Einbu" />
		<tag k="name" v="Nørdre Einbu" />
		<tag k="place" v="farm" />
		<tag k="ssr:stedsnr" v="860256" />
	</node>
	<node lat="62.23823333617575" lon="8.259738888600818" id="-28575">
		<tag k="name" v="Øygarden" />
		<tag k="place" v="farm" />
		<tag k="ssr:stedsnr" v="860257" />
	</node>
	<node lat="62.196133333695386" lon="8.526527776224915" id="-28579">
		<tag k="name" v="Steinsrud" />
		<tag k="place" v="farm" />
		<tag k="ssr:stedsnr" v="860864" />
	</node>
	<node lat="62.091463887894704" lon="9.020791667211544" id="-28585">
		<tag k="name" v="Tråsådal" />
		<tag k="place" v="farm" />
		<tag k="ssr:stedsnr" v="861577" />
	</node>
	<node lat="62.23708888976271" lon="8.364705558471474" id="-28590">
		<tag k="name" v="Nistugu Enstad" />
		<tag k="place" v="farm" />
		<tag k="ssr:stedsnr" v="899117" />
	</node>
	<node lat="62.122300004403215" lon="8.735075003985626" id="-28591">
		<tag k="name" v="Rudi" />
		<tag k="place" v="farm" />
		<tag k="ssr:stedsnr" v="899403" />
	</node>
	<node lat="62.119300955657586" lon="8.780530438926187" id="-28592">
		<tag k="fixme" v="consider place=hamlet" />
		<tag k="name" v="Kolådalen" />
		<tag k="place" v="farm" />
		<tag k="ssr:stedsnr" v="899659" />
	</node>
	<node lat="62.08909444659929" lon="9.089952775021459" id="-28593">
		<tag k="name" v="Veltstugu" />
		<tag k="place" v="isolated_dwelling" />
		<tag k="ssr:stedsnr" v="899808" />
	</node>
	<node lat="62.33787777447328" lon="8.993991658260475" id="-28596">
		<tag k="fixme" v="consider tourism=alpine_hut or tourism=chalet" />
		<tag k="name" v="Salhøtjønnbue" />
		<tag k="ssr:stedsnr" v="900202" />
		<tag k="tourism" v="wilderness_hut" />
	</node>
	<node lat="62.1910752112229" lon="8.553502843677528" id="-28597">
		<tag k="alt_name" v="Fransplass" />
		<tag k="fixme" v="consider place=hamlet" />
		<tag k="name" v="Fransplassen" />
		<tag k="place" v="farm" />
		<tag k="ssr:stedsnr" v="900354" />
	</node>
	<node lat="62.142011111632065" lon="8.95607222501545" id="-28603">
		<tag k="historic" v="shieling" />
		<tag k="name" v="Mariussætre" />
		<tag k="place" v="isolated_dwelling" />
		<tag k="ssr:stedsnr" v="900927" />
	</node>
	<node lat="62.11980555771856" lon="8.919233334742497" id="-28604">
		<tag k="name" v="Sillibakken" />
		<tag k="place" v="isolated_dwelling" />
		<tag k="ssr:stedsnr" v="900961" />
	</node>
	<node lat="62.124460213676244" lon="8.815075367257412" id="-28608">
		<tag k="name" v="Øverlia" />
		<tag k="place" v="farm" />
		<tag k="ssr:stedsnr" v="906363" />
	</node>
	<node lat="62.2392222201462" lon="8.296147217716284" id="-28609">
		<tag k="name" v="Vegmillom" />
		<tag k="place" v="farm" />
		<tag k="ssr:stedsnr" v="921238" />
	</node>
	<node lat="62.268200001259714" lon="8.177855547677114" id="-28610">
		<tag k="name" v="Bakken" />
		<tag k="place" v="farm" />
		<tag k="ssr:stedsnr" v="921132" />
	</node>
	<node lat="62.08850555204776" lon="8.82990555765906" id="-28616">
		<tag k="alt_name" v="Avdemsætre" />
		<tag k="historic" v="shieling" />
		<tag k="name" v="Avdemsætri" />
		<tag k="place" v="isolated_dwelling" />
		<tag k="ssr:stedsnr" v="921631" />
	</node>
	<node lat="62.14810833457948" lon="8.684719453270448" id="-28618">
		<tag k="alt_name" v="Stavemshaugen;Haugen nedre" />
		<tag k="name" v="Nedre Haugen" />
		<tag k="place" v="farm" />
		<tag k="ssr:stedsnr" v="921807" />
	</node>
	<node lat="62.157511114514236" lon="8.679805557547759" id="-28619">
		<tag k="alt_name" v="Sveen" />
		<tag k="name" v="Svedi" />
		<tag k="place" v="farm" />
		<tag k="ssr:stedsnr" v="921813" />
	</node>
	<node lat="62.218019447020865" lon="8.8699861085312" id="-28622">
		<tag k="name" v="Sjong" />
		<tag k="place" v="hamlet" />
		<tag k="ssr:stedsnr" v="921932" />
	</node>
	<node lat="62.25798611167006" lon="8.205827771333498" id="-28631">
		<tag k="fixme" v="consider place=hamlet" />
		<tag k="name" v="Bjorli" />
		<tag k="place" v="village" />
		<tag k="ssr:stedsnr" v="936536" />
	</node>
	<node lat="62.12236050600706" lon="8.813816147772833" id="-28642">
		<tag k="fixme" v="consider place=hamlet" />
		<tag k="name" v="Lia" />
		<tag k="place" v="farm" />
		<tag k="ssr:stedsnr" v="960715" />
	</node>
	<node lat="62.120980558866826" lon="8.77953054860453" id="-28644">
		<tag k="name" v="Lyftingsbakken" />
		<tag k="place" v="farm" />
		<tag k="ssr:stedsnr" v="960639" />
	</node>
	<node lat="62.21404166858493" lon="8.879719439187946" id="-28647">
		<tag k="name" v="Kårbøskvee" />
		<tag k="place" v="locality" />
		<tag k="ssr:stedsnr" v="960911" />
	</node>
	<node lat="62.09805555730071" lon="8.93784722517524" id="-28648">
		<tag k="name" v="Nordre Bøhaug" />
		<tag k="place" v="farm" />
		<tag k="ssr:stedsnr" v="960943" />
	</node>
	<node lat="62.21706944644592" lon="8.450697226108307" id="-28651">
		<tag k="name" v="Bergly" />
		<tag k="place" v="isolated_dwelling" />
		<tag k="ssr:stedsnr" v="961448" />
	</node>
	<node lat="62.20692778031583" lon="8.483247220945103" id="-28652">
		<tag k="name" v="Kveldro" />
		<tag k="place" v="isolated_dwelling" />
		<tag k="ssr:stedsnr" v="961457" />
	</node>
	<node lat="62.16438055146886" lon="8.645697226220006" id="-28654">
		<tag k="name" v="Midtre Leirmo" />
		<tag k="place" v="farm" />
		<tag k="ssr:stedsnr" v="961690" />
	</node>
	<node lat="62.09313430037135" lon="9.078206636531574" id="-28655">
		<tag k="name" v="Brenna" />
		<tag k="place" v="locality" />
		<tag k="ssr:stedsnr" v="976234" />
	</node>
	<node lat="62.2373450975087" lon="8.162625373570458" id="-28657">
		<tag k="fixme" v="consider place=hamlet" />
		<tag k="name" v="Rånå" />
		<tag k="place" v="farm" />
		<tag k="ssr:stedsnr" v="984023" />
	</node>
	<node lat="62.23926308935663" lon="8.37198021686086" id="-28658">
		<tag k="name" v="Enstad" />
		<tag k="place" v="hamlet" />
		<tag k="ssr:stedsnr" v="984024" />
	</node>
	<node lat="62.2369337824331" lon="8.38338921813779" id="-28659">
		<tag k="fixme" v="consider place=hamlet" />
		<tag k="name" v="Slettum" />
		<tag k="place" v="farm" />
		<tag k="ssr:stedsnr" v="984025" />
	</node>
	<node lat="62.23566040027101" lon="8.397325921215742" id="-28660">
		<tag k="fixme" v="consider place=hamlet" />
		<tag k="name" v="Skotte" />
		<tag k="place" v="farm" />
		<tag k="ssr:stedsnr" v="984026" />
	</node>
	<node lat="62.20581384006655" lon="8.496138503384753" id="-28661">
		<tag k="name" v="Knipa" />
		<tag k="place" v="hamlet" />
		<tag k="ssr:stedsnr" v="984030" />
	</node>
	<node lat="62.16494994156247" lon="8.648907908246496" id="-28662">
		<tag k="alt_name" v="Leirmoen" />
		<tag k="name" v="Leirmo" />
		<tag k="place" v="hamlet" />
		<tag k="ssr:stedsnr" v="984031" />
	</node>
	<node lat="62.17501005852713" lon="8.640369215162314" id="-28663">
		<tag k="fixme" v="consider place=hamlet" />
		<tag k="name" v="Åvangen" />
		<tag k="place" v="farm" />
		<tag k="ssr:stedsnr" v="984032" />
	</node>
	<node lat="62.161288477994376" lon="8.656177213869913" id="-28664">
		<tag k="fixme" v="consider place=hamlet" />
		<tag k="name" v="Rise" />
		<tag k="place" v="farm" />
		<tag k="ssr:stedsnr" v="984033" />
	</node>
	<node lat="62.15646335829311" lon="8.669547303347702" id="-28665">
		<tag k="fixme" v="consider place=hamlet" />
		<tag k="name" v="Kjellshus" />
		<tag k="place" v="farm" />
		<tag k="ssr:stedsnr" v="984035" />
	</node>
	<node lat="62.15177556246496" lon="8.67583440966337" id="-28666">
		<tag k="name" v="Stavem" />
		<tag k="place" v="hamlet" />
		<tag k="ssr:stedsnr" v="984036" />
	</node>
	<node lat="62.14477518318475" lon="8.684427222544246" id="-28667">
		<tag k="fixme" v="consider place=hamlet" />
		<tag k="loc_name" v="Hågån" />
		<tag k="name" v="Hagen" />
		<tag k="place" v="farm" />
		<tag k="ssr:stedsnr" v="984037" />
	</node>
	<node lat="62.12290342490533" lon="8.755837640305293" id="-28668">
		<tag k="name" v="Svartbrenna" />
		<tag k="place" v="locality" />
		<tag k="ssr:stedsnr" v="984038" />
	</node>
	<node lat="62.12006446393078" lon="8.754573510179219" id="-28669">
		<tag k="name" v="Heraslette" />
		<tag k="place" v="locality" />
		<tag k="ssr:stedsnr" v="984039" />
	</node>
	<node lat="62.114008282423114" lon="8.846590370858282" id="-28670">
		<tag k="fixme" v="consider place=hamlet" />
		<tag k="name" v="Hågå" />
		<tag k="place" v="farm" />
		<tag k="ssr:stedsnr" v="984124" />
	</node>
	<node lat="62.113543680340726" lon="8.941798066953568" id="-28671">
		<tag k="fixme" v="consider place=hamlet" />
		<tag k="name" v="Augard" />
		<tag k="place" v="farm" />
		<tag k="ssr:stedsnr" v="984129" />
	</node>
	<node lat="62.11361411220564" lon="8.949829034716005" id="-28672">
		<tag k="fixme" v="consider place=hamlet" />
		<tag k="name" v="Isaksbø" />
		<tag k="place" v="farm" />
		<tag k="ssr:stedsnr" v="984131" />
	</node>
	<node lat="62.093075029958065" lon="9.046742937893482" id="-28673">
		<tag k="alt_name" v="Skålgård" />
		<tag k="fixme" v="consider place=hamlet" />
		<tag k="name" v="Skålgard" />
		<tag k="place" v="farm" />
		<tag k="ssr:stedsnr" v="984140" />
	</node>
	<node lat="62.055332689273385" lon="8.371195514098511" id="-28675">
		<tag k="fixme" v="consider tourism=alpine_hut or tourism=chalet" />
		<tag k="name" v="Lordalshytta" />
		<tag k="ssr:stedsnr" v="987308" />
		<tag k="tourism" v="wilderness_hut" />
	</node>
	<node lat="62.19072196492686" lon="9.18496503624682" id="-28677">
		<tag k="name" v="Korpestugu" />
		<tag k="place" v="locality" />
		<tag k="ssr:stedsnr" v="10962" />
	</node>
	<node lat="62.0840749988308" lon="8.90523333467063" id="-28678">
		<tag k="alt_name" v="Snarstadsætri" />
		<tag k="historic" v="shieling" />
		<tag k="name" v="Snarstadsætre" />
		<tag k="place" v="isolated_dwelling" />
		<tag k="ssr:stedsnr" v="10618" />
	</node>
	<node lat="62.21346310378198" lon="9.222662796265586" id="-28679">
		<tag k="name" v="Skredalægret" />
		<tag k="place" v="locality" />
		<tag k="ssr:stedsnr" v="10749" />
	</node>
	<node lat="62.23789166903827" lon="8.267800007808445" id="-28680">
		<tag k="name" v="Voll" />
		<tag k="place" v="farm" />
		<tag k="ssr:stedsnr" v="11215" />
	</node>
	<node lat="62.239255554531034" lon="8.274919452514279" id="-28681">
		<tag k="alt_name" v="Einbu, s;Søre Einbu" />
		<tag k="name" v="Ni-Einbu" />
		<tag k="place" v="farm" />
		<tag k="ssr:stedsnr" v="11216" />
	</node>
	<node lat="62.210247220005286" lon="8.435752775638612" id="-28690">
		<tag k="alt_name" v="Bryggesætre" />
		<tag k="historic" v="shieling" />
		<tag k="name" v="Bryggjesætri" />
		<tag k="place" v="isolated_dwelling" />
		<tag k="ssr:stedsnr" v="11833" />
	</node>
	<node lat="62.23490277790125" lon="8.288408334936037" id="-28692">
		<tag k="name" v="Moen" />
		<tag k="place" v="farm" />
		<tag k="ssr:stedsnr" v="11862" />
	</node>
	<node lat="62.23219722542639" lon="8.294936107397163" id="-28693">
		<tag k="alt_name" v="Bergan" />
		<tag k="name" v="Bergene" />
		<tag k="place" v="isolated_dwelling" />
		<tag k="ssr:stedsnr" v="11864" />
	</node>
	<node lat="62.118300003648514" lon="8.60672778403975" id="-28695">
		<tag k="alt_name" v="Haukruste" />
		<tag k="historic" v="shieling" />
		<tag k="name" v="Haukrusti" />
		<tag k="place" v="isolated_dwelling" />
		<tag k="ssr:stedsnr" v="11760" />
	</node>
	<node lat="62.23631388579835" lon="8.292827773715636" id="-28709">
		<tag k="name" v="Hammeren" />
		<tag k="place" v="farm" />
		<tag k="ssr:stedsnr" v="50054" />
	</node>
	<node lat="62.22117500082386" lon="8.38432500080901" id="-28710">
		<tag k="historic" v="shieling" />
		<tag k="name" v="Øygardan" />
		<tag k="place" v="isolated_dwelling" />
		<tag k="ssr:stedsnr" v="50055" />
	</node>
	<node lat="62.23804167072986" lon="8.201763896538942" id="-28713">
		<tag k="name" v="Furulund" />
		<tag k="place" v="farm" />
		<tag k="ssr:stedsnr" v="50175" />
	</node>
	<node lat="62.13238235391174" lon="8.712453193273532" id="-28719">
		<tag k="name" v="Holen" />
		<tag k="place" v="hamlet" />
		<tag k="ssr:stedsnr" v="50394" />
	</node>
	<node lat="62.1230999976655" lon="8.812594451122783" id="-28721">
		<tag k="name" v="Nordre Lia" />
		<tag k="place" v="farm" />
		<tag k="ssr:stedsnr" v="50684" />
	</node>
	<node lat="62.089943262839164" lon="9.086445649973543" id="-28732">
		<tag k="name" v="Jonsgard" />
		<tag k="place" v="locality" />
		<tag k="ssr:stedsnr" v="50729" />
	</node>
	<node lat="62.08056944571587" lon="8.896944445337384" id="-28734">
		<tag k="name" v="Lurvestugu" />
		<tag k="place" v="isolated_dwelling" />
		<tag k="ssr:stedsnr" v="50986" />
	</node>
	<node lat="62.112374996595385" lon="8.971016665832575" id="-28736">
		<tag k="name" v="Nyborg" />
		<tag k="place" v="isolated_dwelling" />
		<tag k="ssr:stedsnr" v="50993" />
	</node>
	<node lat="62.31703888996643" lon="9.142736107848137" id="-28737">
		<tag k="fixme" v="consider tourism=alpine_hut or tourism=chalet" />
		<tag k="name" v="Langvassbue" />
		<tag k="ssr:stedsnr" v="51194" />
		<tag k="tourism" v="wilderness_hut" />
	</node>
	<node lat="62.09748888783387" lon="8.960105550841192" id="-28740">
		<tag k="name" v="Farheim" />
		<tag k="place" v="farm" />
		<tag k="ssr:stedsnr" v="50949" />
	</node>
	<node lat="62.16300000359902" lon="8.650288880652681" id="-28746">
		<tag k="name" v="Lyngmo" />
		<tag k="place" v="farm" />
		<tag k="ssr:stedsnr" v="51710" />
	</node>
	<node lat="62.240755551700786" lon="8.250499991452022" id="-28753">
		<tag k="alt_name" v="Løkken" />
		<tag k="name" v="Lykkja" />
		<tag k="place" v="farm" />
		<tag k="ssr:stedsnr" v="71247" />
	</node>
	<node lat="62.24698055369135" lon="8.57012500570292" id="-28758">
		<tag k="historic" v="shieling" />
		<tag k="loc_name" v="Merrabottsætre" />
		<tag k="name" v="Merrabottsætri" />
		<tag k="place" v="isolated_dwelling" />
		<tag k="ssr:stedsnr" v="71884" />
	</node>
	<node lat="62.08471110763708" lon="9.048494443502829" id="-28760">
		<tag k="name" v="Mariplassen" />
		<tag k="place" v="farm" />
		<tag k="ssr:stedsnr" v="71647" />
	</node>
	<node lat="62.07800833432144" lon="8.989950006518896" id="-28762">
		<tag k="alt_name" v="Bottemsætre" />
		<tag k="historic" v="shieling" />
		<tag k="loc_name" v="Bottheimsætre" />
		<tag k="name" v="Bottheimsætri" />
		<tag k="place" v="isolated_dwelling" />
		<tag k="ssr:stedsnr" v="71650" />
	</node>
	<node lat="62.091461746708354" lon="9.096468033688403" id="-28764">
		<tag k="name" v="Joramo" />
		<tag k="place" v="farm" />
		<tag k="ssr:stedsnr" v="71655" />
	</node>
	<node lat="62.131577778820024" lon="8.707977769216734" id="-28767">
		<tag k="alt_name" v="Holløkken" />
		<tag k="name" v="Hollykkja" />
		<tag k="place" v="farm" />
		<tag k="ssr:stedsnr" v="71783" />
	</node>
	<node lat="62.13880807736119" lon="8.697953182278336" id="-28768">
		<tag k="fixme" v="consider place=hamlet" />
		<tag k="name" v="Bjøkne" />
		<tag k="place" v="farm" />
		<tag k="ssr:stedsnr" v="71789" />
	</node>
	<node lat="62.11913601917415" lon="8.744703450465703" id="-28772">
		<tag k="alt_name" v="Breidgutu" />
		<tag k="fixme" v="consider place=hamlet" />
		<tag k="name" v="Breigutu" />
		<tag k="place" v="farm" />
		<tag k="ssr:stedsnr" v="71898" />
	</node>
	<node lat="62.11368772207048" lon="8.838309252523622" id="-28773">
		<tag k="alt_name" v="Kolstad, vetle" />
		<tag k="fixme" v="consider place=hamlet" />
		<tag k="name" v="Vetle Kolstad" />
		<tag k="place" v="farm" />
		<tag k="ssr:stedsnr" v="71900" />
	</node>
	<node lat="62.0999972237279" lon="8.94766665823175" id="-28786">
		<tag k="name" v="Simahaug" />
		<tag k="place" v="farm" />
		<tag k="ssr:stedsnr" v="72597" />
	</node>
	<node lat="62.090822221080685" lon="9.078258326435186" id="-28795">
		<tag k="name" v="Simensrud" />
		<tag k="place" v="farm" />
		<tag k="ssr:stedsnr" v="110799" />
	</node>
	<node lat="62.23527777975256" lon="8.299852781108276" id="-28796">
		<tag k="name" v="Bjørkøy" />
		<tag k="place" v="farm" />
		<tag k="ssr:stedsnr" v="111094" />
	</node>
	<node lat="62.2386833369547" lon="8.161749995208028" id="-28801">
		<tag k="name" v="Nigard" />
		<tag k="place" v="farm" />
		<tag k="ssr:stedsnr" v="111152" />
	</node>
	<node lat="62.23741666401429" lon="8.151488893177175" id="-28802">
		<tag k="name" v="Rånålykkja" />
		<tag k="place" v="locality" />
		<tag k="ssr:stedsnr" v="111154" />
	</node>
	<node lat="62.23951111019598" lon="8.19975555185826" id="-28803">
		<tag k="name" v="Rånåbrekka" />
		<tag k="place" v="farm" />
		<tag k="ssr:stedsnr" v="111160" />
	</node>
	<node lat="62.093830556483" lon="9.048424998438463" id="-28810">
		<tag k="name" v="Neristuen Nørstebø" />
		<tag k="place" v="farm" />
		<tag k="ssr:stedsnr" v="111881" />
	</node>
	<node lat="62.09585000171135" lon="8.978394436440688" id="-28816">
		<tag k="loc_name" v="Søristugu Hådi" />
		<tag k="name" v="Søristuen Hådi" />
		<tag k="place" v="farm" />
		<tag k="ssr:stedsnr" v="111943" />
	</node>
	<node lat="62.12037499994286" lon="8.906174992209184" id="-28817">
		<tag k="name" v="Joslåtten" />
		<tag k="place" v="isolated_dwelling" />
		<tag k="ssr:stedsnr" v="111964" />
	</node>
	<node lat="62.31097250464083" lon="8.720984784084383" id="-28819">
		<tag k="fixme" v="consider tourism=alpine_hut or tourism=chalet" />
		<tag k="name" v="Grynningslibua" />
		<tag k="ssr:stedsnr" v="112215" />
		<tag k="tourism" v="wilderness_hut" />
	</node>
	<node lat="62.13671667111899" lon="8.707113888735664" id="-28824">
		<tag k="name" v="Rognerud" />
		<tag k="place" v="farm" />
		<tag k="ssr:stedsnr" v="132756" />
	</node>
	<node lat="62.17795555470146" lon="8.519594453432044" id="-28827">
		<tag k="historic" v="shieling" />
		<tag k="name" v="Heggestølen" />
		<tag k="place" v="isolated_dwelling" />
		<tag k="ssr:stedsnr" v="131826" />
	</node>
	<node lat="62.2689444484588" lon="8.209063881832021" id="-28828">
		<tag k="name" v="Bjordal" />
		<tag k="place" v="farm" />
		<tag k="ssr:stedsnr" v="132109" />
	</node>
	<node lat="62.093147220141425" lon="9.088649995045106" id="-28836">
		<tag k="name" v="Jonsrud" />
		<tag k="place" v="farm" />
		<tag k="ssr:stedsnr" v="132626" />
	</node>
	<node lat="62.09690555499364" lon="8.995111111915504" id="-28837">
		<tag k="name" v="Bottheimslykkja" />
		<tag k="place" v="farm" />
		<tag k="ssr:stedsnr" v="132630" />
	</node>
	<node lat="62.096815550104395" lon="8.965531000813046" id="-28838">
		<tag k="name" v="Bøloghaugen" />
		<tag k="place" v="locality" />
		<tag k="ssr:stedsnr" v="132633" />
	</node>
	<node lat="62.09257500348492" lon="8.497219442805445" id="-28844">
		<tag k="alt_name" v="Bjøknesætre" />
		<tag k="historic" v="shieling" />
		<tag k="loc_name" v="Bjørknesætre" />
		<tag k="name" v="Bjøknesætri" />
		<tag k="place" v="isolated_dwelling" />
		<tag k="ssr:stedsnr" v="132768" />
	</node>
	<node lat="62.172369440144344" lon="8.65050278183894" id="-28845">
		<tag k="fixme" v="consider place=hamlet" />
		<tag k="name" v="Vangen" />
		<tag k="place" v="farm" />
		<tag k="ssr:stedsnr" v="132775" />
	</node>
	<node lat="62.16666005744368" lon="8.672498431482046" id="-28846">
		<tag k="fixme" v="consider place=hamlet" />
		<tag k="name" v="Skrøya" />
		<tag k="place" v="farm" />
		<tag k="ssr:stedsnr" v="132779" />
	</node>
	<node lat="62.145824202740975" lon="8.68576278392332" id="-28849">
		<tag k="alt_name" v="Hagen;Hagen nordre" />
		<tag k="name" v="Nørdre Hagen" />
		<tag k="place" v="farm" />
		<tag k="ssr:stedsnr" v="132798" />
	</node>
	<node lat="62.117277781258515" lon="8.812149996327788" id="-28850">
		<tag k="alt_name" v="Nedre Siem" />
		<tag k="name" v="Siem" />
		<tag k="place" v="farm" />
		<tag k="ssr:stedsnr" v="132877" />
	</node>
	<node lat="62.11657717388657" lon="8.878773861630766" id="-28851">
		<tag k="name" v="Hole" />
		<tag k="place" v="hamlet" />
		<tag k="ssr:stedsnr" v="132879" />
	</node>
	<node lat="62.11353888114424" lon="8.945010509372604" id="-28853">
		<tag k="name" v="Bø" />
		<tag k="place" v="hamlet" />
		<tag k="ssr:stedsnr" v="132890" />
	</node>
	<node lat="62.24790833644359" lon="8.809855547563277" id="-28855">
		<tag k="alt_name" v="Gautsjøen" />
		<tag k="name" v="Gautsjøen Turisthotell" />
		<tag k="ssr:stedsnr" v="132989" />
		<tag k="tourism" v="hotel" />
	</node>
	<node lat="62.239808333347895" lon="8.236802778090938" id="-28871">
		<tag k="name" v="Løskam" />
		<tag k="place" v="farm" />
		<tag k="ssr:stedsnr" v="171147" />
	</node>
	<node lat="62.22898611248166" lon="8.331041665231647" id="-28872">
		<tag k="name" v="Øyholen" />
		<tag k="place" v="locality" />
		<tag k="ssr:stedsnr" v="172091" />
	</node>
	<node lat="62.281397225420996" lon="8.14368889075109" id="-28874">
		<tag k="name" v="Tangøye" />
		<tag k="place" v="farm" />
		<tag k="ssr:stedsnr" v="172258" />
	</node>
	<node lat="62.12885000353609" lon="8.732119436659065" id="-28876">
		<tag k="name" v="Skartun" />
		<tag k="place" v="farm" />
		<tag k="ssr:stedsnr" v="171391" />
	</node>
	<node lat="62.14927500291018" lon="8.68356110933041" id="-28877">
		<tag k="name" v="Nordre Haugen" />
		<tag k="place" v="farm" />
		<tag k="ssr:stedsnr" v="171551" />
	</node>
	<node lat="62.12408610745391" lon="8.797527775182305" id="-28880">
		<tag k="name" v="Avdemshaugen" />
		<tag k="place" v="farm" />
		<tag k="ssr:stedsnr" v="171747" />
	</node>
	<node lat="62.091416664536474" lon="9.0646638882404" id="-28887">
		<tag k="name" v="Synstbøbakken" />
		<tag k="place" v="locality" />
		<tag k="ssr:stedsnr" v="171795" />
	</node>
	<node lat="62.09815091680268" lon="9.073414237137255" id="-28889">
		<tag k="name" v="Eremittbue" />
		<tag k="place" v="locality" />
		<tag k="ssr:stedsnr" v="171850" />
	</node>
	<node lat="62.09588888557968" lon="8.95201389445776" id="-28894">
		<tag k="name" v="Hovhaugholen" />
		<tag k="place" v="isolated_dwelling" />
		<tag k="ssr:stedsnr" v="171995" />
	</node>
	<node lat="62.23030555449019" lon="8.417419441133033" id="-28901">
		<tag k="name" v="Kveum" />
		<tag k="place" v="farm" />
		<tag k="ssr:stedsnr" v="172495" />
	</node>
	<node lat="62.1728694476855" lon="8.664694449572812" id="-28902">
		<tag k="name" v="Studulen" />
		<tag k="place" v="locality" />
		<tag k="ssr:stedsnr" v="172736" />
	</node>
	<node lat="62.193433335082474" lon="8.55840000860182" id="-28908">
		<tag k="name" v="Åkerlykkja" />
		<tag k="place" v="farm" />
		<tag k="ssr:stedsnr" v="192863" />
	</node>
	<node lat="62.19268874551029" lon="8.546272985543684" id="-28909">
		<tag k="alt_name" v="Torsplass" />
		<tag k="fixme" v="consider place=hamlet" />
		<tag k="name" v="Torsplassen" />
		<tag k="place" v="farm" />
		<tag k="ssr:stedsnr" v="192864" />
	</node>
	<node lat="62.19036763623687" lon="8.565045346061606" id="-28910">
		<tag k="alt_name" v="Morken" />
		<tag k="name" v="Morki" />
		<tag k="place" v="hamlet" />
		<tag k="ssr:stedsnr" v="192819" />
	</node>
	<node lat="62.10315555837693" lon="9.005194452671118" id="-28932">
		<tag k="name" v="Rise" />
		<tag k="place" v="farm" />
		<tag k="ssr:stedsnr" v="193618" />
	</node>
	<node lat="62.09762500020072" lon="8.939525000686197" id="-28933">
		<tag k="name" v="Bølund" />
		<tag k="place" v="farm" />
		<tag k="ssr:stedsnr" v="193621" />
	</node>
	<node lat="62.06448055481831" lon="8.411466657454751" id="-28938">
		<tag k="historic" v="shieling" />
		<tag k="name" v="Løstølen" />
		<tag k="place" v="isolated_dwelling" />
		<tag k="ssr:stedsnr" v="193754" />
	</node>
	<node lat="62.097519444869185" lon="8.68417778696388" id="-28939">
		<tag k="alt_name" v="Vigga, nordre;Vigga" />
		<tag k="historic" v="shieling" />
		<tag k="loc_name" v="Nørdre Vigga" />
		<tag k="name" v="Nordre Vigga" />
		<tag k="place" v="isolated_dwelling" />
		<tag k="ssr:stedsnr" v="193761" />
	</node>
	<node lat="62.08943055227449" lon="8.522930550360476" id="-28940">
		<tag k="alt_name" v="Ruste" />
		<tag k="historic" v="shieling" />
		<tag k="name" v="Rusti" />
		<tag k="place" v="isolated_dwelling" />
		<tag k="ssr:stedsnr" v="193766" />
	</node>
	<node lat="62.22042777989845" lon="8.396705555272282" id="-28941">
		<tag k="alt_name" v="Bjølverudsætre" />
		<tag k="historic" v="shieling" />
		<tag k="name" v="Bjølverudsætri" />
		<tag k="place" v="isolated_dwelling" />
		<tag k="ssr:stedsnr" v="193866" />
	</node>
	<node lat="62.20776944121558" lon="8.48624721495146" id="-28944">
		<tag k="name" v="Krokrud" />
		<tag k="place" v="farm" />
		<tag k="ssr:stedsnr" v="193826" />
	</node>
	<node lat="62.11191490535676" lon="8.962185035633365" id="-28946">
		<tag k="alt_name" v="Holaker" />
		<tag k="fixme" v="consider place=hamlet" />
		<tag k="name" v="Holåker" />
		<tag k="place" v="farm" />
		<tag k="ssr:stedsnr" v="193889" />
	</node>
	<node lat="62.1043694446627" lon="8.87426388079128" id="-28947">
		<tag k="name" v="Elgli" />
		<tag k="place" v="farm" />
		<tag k="ssr:stedsnr" v="193890" />
	</node>
	<node lat="62.105541667588476" lon="8.988869436438762" id="-28948">
		<tag k="alt_name" v="Nyjordet øvre" />
		<tag k="name" v="Nyjordet" />
		<tag k="place" v="farm" />
		<tag k="ssr:stedsnr" v="193893" />
	</node>
	<node lat="62.109598409928836" lon="8.853709017695381" id="-28949">
		<tag k="fixme" v="consider place=hamlet" />
		<tag k="name" v="Hov" />
		<tag k="place" v="farm" />
		<tag k="ssr:stedsnr" v="193894" />
	</node>
	<node lat="62.26469166965005" lon="8.224336120432504" id="-28957">
		<tag k="name" v="Nyheim" />
		<tag k="place" v="farm" />
		<tag k="ssr:stedsnr" v="194271" />
	</node>
	<node lat="62.26680000428053" lon="8.219227779631371" id="-28959">
		<tag k="alt_name" v="Bjorlien søre" />
		<tag k="name" v="Sørlistugu" />
		<tag k="place" v="farm" />
		<tag k="ssr:stedsnr" v="194274" />
	</node>
	<node lat="62.125586171558034" lon="8.81127587465851" id="-28960">
		<tag k="name" v="Vanglykkja" />
		<tag k="place" v="farm" />
		<tag k="ssr:stedsnr" v="193927" />
	</node>
	<node lat="62.08863888614359" lon="9.098308341798704" id="-28967">
		<tag k="name" v="Jorabakken" />
		<tag k="place" v="isolated_dwelling" />
		<tag k="ssr:stedsnr" v="292792" />
	</node>
	<node lat="62.2334666711928" lon="8.336994446758426" id="-28969">
		<tag k="name" v="Krossom" />
		<tag k="place" v="locality" />
		<tag k="ssr:stedsnr" v="292070" />
	</node>
	<node lat="62.123347218219145" lon="8.743172220895689" id="-28970">
		<tag k="name" v="Øverlund" />
		<tag k="place" v="isolated_dwelling" />
		<tag k="ssr:stedsnr" v="292372" />
	</node>
	<node lat="62.066108332761246" lon="9.04910555898939" id="-28972">
		<tag k="name" v="Ekrum" />
		<tag k="place" v="locality" />
		<tag k="ssr:stedsnr" v="292745" />
	</node>
	<node lat="62.09563055940376" lon="9.043025001111227" id="-28974">
		<tag k="name" v="Hågålykkja" />
		<tag k="place" v="farm" />
		<tag k="ssr:stedsnr" v="292887" />
	</node>
	<node lat="62.09499166413139" lon="9.047511119563639" id="-28975">
		<tag k="name" v="Heggelykkja" />
		<tag k="place" v="isolated_dwelling" />
		<tag k="ssr:stedsnr" v="292888" />
	</node>
	<node lat="62.23778055318668" lon="8.263777778533036" id="-28978">
		<tag k="name" v="Grind" />
		<tag k="place" v="farm" />
		<tag k="ssr:stedsnr" v="293081" />
	</node>
	<node lat="62.11838077864702" lon="8.884931333840704" id="-28984">
		<tag k="fixme" v="consider place=hamlet" />
		<tag k="name" v="Hole" />
		<tag k="place" v="farm" />
		<tag k="ssr:stedsnr" v="293957" />
	</node>
	<node lat="62.121933333074914" lon="8.81773333677861" id="-28992">
		<tag k="name" v="Sørli" />
		<tag k="place" v="isolated_dwelling" />
		<tag k="ssr:stedsnr" v="293739" />
	</node>
	<node lat="62.240064716056565" lon="8.370698067813006" id="-29003">
		<tag k="alt_name" v="Enstad" />
		<tag k="name" v="Nordpå-Enstad" />
		<tag k="place" v="farm" />
		<tag k="ssr:stedsnr" v="314253" />
	</node>
	<node lat="62.17789167081773" lon="8.636902778224774" id="-29009">
		<tag k="name" v="Bjørklund" />
		<tag k="place" v="farm" />
		<tag k="ssr:stedsnr" v="314794" />
	</node>
	<node lat="62.22768333022831" lon="8.449394439865836" id="-29013">
		<tag k="alt_name" v="Gruvlisætre" />
		<tag k="historic" v="shieling" />
		<tag k="name" v="Gruvlisætri" />
		<tag k="place" v="isolated_dwelling" />
		<tag k="ssr:stedsnr" v="314839" />
	</node>
	<node lat="62.233177778111525" lon="8.366477784879299" id="-29014">
		<tag k="alt_name" v="Myre" />
		<tag k="name" v="Myri" />
		<tag k="place" v="farm" />
		<tag k="ssr:stedsnr" v="314844" />
	</node>
	<node lat="62.21777777418638" lon="8.415330557018049" id="-29015">
		<tag k="name" v="Buaholmen" />
		<tag k="place" v="isolated_dwelling" />
		<tag k="ssr:stedsnr" v="314850" />
	</node>
	<node lat="62.118149616679666" lon="8.837694142682512" id="-29018">
		<tag k="alt_name" v="Kolstad store;Storkolstad" />
		<tag k="fixme" v="consider place=hamlet" />
		<tag k="name" v="Store Kolstad" />
		<tag k="place" v="farm" />
		<tag k="ssr:stedsnr" v="314860" />
	</node>
	<node lat="62.11882622194289" lon="8.83176024209937" id="-29019">
		<tag k="alt_name" v="Hogsvold" />
		<tag k="fixme" v="consider place=hamlet" />
		<tag k="name" v="Hogsvål" />
		<tag k="place" v="farm" />
		<tag k="ssr:stedsnr" v="314862" />
	</node>
	<node lat="62.11461944725696" lon="8.86154165818267" id="-29020">
		<tag k="name" v="Klokstad" />
		<tag k="place" v="farm" />
		<tag k="ssr:stedsnr" v="314865" />
	</node>
	<node lat="62.117208170529125" lon="8.907229667546925" id="-29021">
		<tag k="alt_name" v="Hauje" />
		<tag k="fixme" v="consider place=hamlet" />
		<tag k="name" v="Hauge" />
		<tag k="place" v="farm" />
		<tag k="ssr:stedsnr" v="314871" />
	</node>
	<node lat="62.10691916806527" lon="8.982550614098312" id="-29023">
		<tag k="fixme" v="consider place=hamlet" />
		<tag k="name" v="Hådi" />
		<tag k="place" v="farm" />
		<tag k="ssr:stedsnr" v="314879" />
	</node>
	<node lat="62.108140804296355" lon="8.969318323449054" id="-29024">
		<tag k="alt_name" v="Nyhagen" />
		<tag k="fixme" v="consider place=hamlet" />
		<tag k="name" v="Nyhågån" />
		<tag k="place" v="farm" />
		<tag k="ssr:stedsnr" v="314880" />
	</node>
	<node lat="62.20022500332618" lon="8.873733324860316" id="-29028">
		<tag k="alt_name" v="Tandesætri" />
		<tag k="name" v="Tandsætre" />
		<tag k="place" v="hamlet" />
		<tag k="ssr:stedsnr" v="314929" />
	</node>
	<node lat="62.05616388758269" lon="8.400422213740116" id="-29033">
		<tag k="name" v="Tøma" />
		<tag k="place" v="locality" />
		<tag k="ssr:stedsnr" v="314961" />
	</node>
	<node lat="62.24028332996575" lon="8.764505554071565" id="-29034">
		<tag k="historic" v="shieling" />
		<tag k="name" v="Kvita" />
		<tag k="place" v="isolated_dwelling" />
		<tag k="ssr:stedsnr" v="314972" />
	</node>
	<node lat="62.12029967164486" lon="8.894838744969974" id="-29042">
		<tag k="name" v="Gongstad" />
		<tag k="place" v="locality" />
		<tag k="ssr:stedsnr" v="353955" />
	</node>
	<node lat="62.092963890643794" lon="9.016530549802209" id="-29047">
		<tag k="name" v="Nordre Tråsdal" />
		<tag k="place" v="farm" />
		<tag k="ssr:stedsnr" v="352875" />
	</node>
	<node lat="62.23674444779174" lon="8.203983331689708" id="-29050">
		<tag k="name" v="Brekkeli" />
		<tag k="place" v="isolated_dwelling" />
		<tag k="ssr:stedsnr" v="353199" />
	</node>
	<node lat="62.232580556671806" lon="8.344322223725374" id="-29052">
		<tag k="name" v="Kyrkjeholen" />
		<tag k="place" v="locality" />
		<tag k="ssr:stedsnr" v="353088" />
	</node>
	<node lat="62.1134805566541" lon="8.856636103827311" id="-29054">
		<tag k="name" v="Rydningen" />
		<tag k="place" v="farm" />
		<tag k="ssr:stedsnr" v="353647" />
	</node>
	<node lat="62.161349998216046" lon="8.658083326711479" id="-29074">
		<tag k="name" v="Store Rise" />
		<tag k="place" v="farm" />
		<tag k="ssr:stedsnr" v="354693" />
	</node>
	<node lat="62.092593185555025" lon="9.057480588647648" id="-29075">
		<tag k="alt_name" v="Sønstebø" />
		<tag k="fixme" v="consider place=hamlet" />
		<tag k="name" v="Synstbø" />
		<tag k="place" v="farm" />
		<tag k="ssr:stedsnr" v="359635" />
	</node>
	<node lat="62.119241664107356" lon="8.168852769734546" id="-29076">
		<tag k="loc_name" v="Grønbue" />
		<tag k="name" v="Grønbu" />
		<tag k="place" v="isolated_dwelling" />
		<tag k="ssr:stedsnr" v="374217" />
	</node>
	<node lat="62.23827522247146" lon="8.382083324421162" id="-29078">
		<tag k="alt_name" v="Midtislettom" />
		<tag k="name" v="Midti Slettum" />
		<tag k="place" v="farm" />
		<tag k="ssr:stedsnr" v="374245" />
	</node>
	<node lat="62.08158055618304" lon="9.017894438404015" id="-29082">
		<tag k="name" v="Dalom" />
		<tag k="place" v="farm" />
		<tag k="ssr:stedsnr" v="374575" />
	</node>
	<node lat="62.19617777503729" lon="8.304077775619781" id="-29085">
		<tag k="alt_name" v="Kvitlandsætre" />
		<tag k="name" v="Kvislesætri" />
		<tag k="place" v="locality" />
		<tag k="ssr:stedsnr" v="374864" />
	</node>
	<node lat="62.24371111278984" lon="8.415008341738787" id="-29086">
		<tag k="alt_name" v="Sætromsætre" />
		<tag k="historic" v="shieling" />
		<tag k="loc_name" v="Sætersætre" />
		<tag k="name" v="Sætresætri" />
		<tag k="place" v="isolated_dwelling" />
		<tag k="ssr:stedsnr" v="374876" />
	</node>
	<node lat="62.095497225513476" lon="9.03538332469296" id="-29097">
		<tag k="alt_name" v="Svaet" />
		<tag k="name" v="Svadet" />
		<tag k="place" v="farm" />
		<tag k="ssr:stedsnr" v="375584" />
	</node>
	<node lat="62.10329166428358" lon="8.921969437100103" id="-29098">
		<tag k="fixme" v="multiple name tags, choose one and add the other to alt_name" />
		<tag k="name" v="Silihågan;Drågen" />
		<tag k="place" v="farm" />
		<tag k="ssr:stedsnr" v="375594" />
	</node>
	<node lat="62.236763893374054" lon="8.166758329930822" id="-29110">
		<tag k="fixme" v="consider place=hamlet" />
		<tag k="name" v="Rånå" />
		<tag k="place" v="village" />
		<tag k="ssr:stedsnr" v="414146" />
	</node>
	<node lat="62.08835000446862" lon="9.089975004461934" id="-29119">
		<tag k="name" v="Lidal" />
		<tag k="place" v="isolated_dwelling" />
		<tag k="ssr:stedsnr" v="414768" />
	</node>
	<node lat="62.13014166856071" lon="8.739150006763051" id="-29121">
		<tag k="name" v="Heggeruste" />
		<tag k="place" v="locality" />
		<tag k="ssr:stedsnr" v="414383" />
	</node>
	<node lat="62.131066669404724" lon="8.70506111859832" id="-29122">
		<tag k="name" v="Utheim" />
		<tag k="place" v="isolated_dwelling" />
		<tag k="ssr:stedsnr" v="414416" />
	</node>
	<node lat="62.12046666669354" lon="8.89903055073894" id="-29131">
		<tag k="name" v="Bakken" />
		<tag k="place" v="farm" />
		<tag k="ssr:stedsnr" v="414943" />
	</node>
	<node lat="62.121844184087905" lon="8.891467572024116" id="-29132">
		<tag k="alt_name" v="Flaggestadhagen" />
		<tag k="loc_name" v="Flågåstadhågån" />
		<tag k="name" v="Flagestadhagen" />
		<tag k="place" v="farm" />
		<tag k="ssr:stedsnr" v="414947" />
	</node>
	<node lat="62.09321101559993" lon="9.043434562188665" id="-29136">
		<tag k="alt_name" v="Nørstebø" />
		<tag k="loc_name" v="Nørdstebø" />
		<tag k="name" v="Nørdstbø" />
		<tag k="place" v="hamlet" />
		<tag k="ssr:stedsnr" v="420396" />
	</node>
	<node lat="62.166855561799025" lon="8.645392988668267" id="-29151">
		<tag k="alt_name" v="Leirmo øvre" />
		<tag k="name" v="Leirmo" />
		<tag k="place" v="farm" />
		<tag k="ssr:stedsnr" v="435830" />
	</node>
	<node lat="62.099163428413746" lon="9.015253404061754" id="-29157">
		<tag k="fixme" v="consider place=hamlet" />
		<tag k="name" v="Brekka" />
		<tag k="place" v="farm" />
		<tag k="ssr:stedsnr" v="436597" />
	</node>
	<node lat="62.100800003046984" lon="8.94890833755929" id="-29158">
		<tag k="alt_name" v="Pålseng" />
		<tag k="name" v="Paulseng" />
		<tag k="place" v="farm" />
		<tag k="ssr:stedsnr" v="436600" />
	</node>
	<node lat="62.12139444853778" lon="8.934016659426783" id="-29170">
		<tag k="alt_name" v="Løkken;Lykkja" />
		<tag k="name" v="Ulateigslykkja" />
		<tag k="place" v="farm" />
		<tag k="ssr:stedsnr" v="436882" />
	</node>
	<node lat="62.10869274880355" lon="8.976158903138149" id="-29171">
		<tag k="alt_name" v="Håkenstad" />
		<tag k="fixme" v="consider place=hamlet" />
		<tag k="name" v="Håkåstad" />
		<tag k="place" v="farm" />
		<tag k="ssr:stedsnr" v="436894" />
	</node>
	<node lat="62.08803888487008" lon="9.037713895287661" id="-29179">
		<tag k="name" v="Skogen" />
		<tag k="place" v="farm" />
		<tag k="ssr:stedsnr" v="495609" />
	</node>
	<node lat="62.18996944487271" lon="8.254577786862923" id="-29182">
		<tag k="name" v="Knutbrenna" />
		<tag k="place" v="locality" />
		<tag k="ssr:stedsnr" v="495851" />
	</node>
	<node lat="62.271063884820435" lon="8.209705546135403" id="-29184">
		<tag k="name" v="Bjorlihaugen" />
		<tag k="place" v="farm" />
		<tag k="ssr:stedsnr" v="496127" />
	</node>
	<node lat="62.09412500183538" lon="9.042877778819431" id="-29191">
		<tag k="loc_name" v="Nørdstebø" />
		<tag k="name" v="Nørstebø" />
		<tag k="place" v="farm" />
		<tag k="ssr:stedsnr" v="496626" />
	</node>
	<node lat="62.23178332936864" lon="8.362344446253308" id="-29194">
		<tag k="name" v="Haugen" />
		<tag k="place" v="farm" />
		<tag k="ssr:stedsnr" v="496842" />
	</node>
	<node lat="62.16731666643356" lon="8.654241659763205" id="-29201">
		<tag k="name" v="Fjellstad" />
		<tag k="place" v="farm" />
		<tag k="ssr:stedsnr" v="496796" />
	</node>
	<node lat="62.12230555700813" lon="9.075713890539383" id="-29202">
		<tag k="historic" v="shieling" />
		<tag k="name" v="Tunga" />
		<tag k="place" v="isolated_dwelling" />
		<tag k="ssr:stedsnr" v="496871" />
	</node>
	<node lat="62.11873720579954" lon="8.82660613519216" id="-29203">
		<tag k="alt_name" v="Hole" />
		<tag k="name" v="Nord-Hole" />
		<tag k="place" v="hamlet" />
		<tag k="ssr:stedsnr" v="496873" />
	</node>
	<node lat="62.11623270734091" lon="8.92754026824796" id="-29204">
		<tag k="fixme" v="consider place=hamlet" />
		<tag k="name" v="Ulateig" />
		<tag k="place" v="farm" />
		<tag k="ssr:stedsnr" v="496881" />
	</node>
	<node lat="62.051525002344114" lon="8.340838889887959" id="-29205">
		<tag k="name" v="Saustad" />
		<tag k="place" v="isolated_dwelling" />
		<tag k="ssr:stedsnr" v="496968" />
	</node>
	<node lat="62.126230554892" lon="8.76664443890335" id="-29208">
		<tag k="name" v="Åsheim" />
		<tag k="place" v="farm" />
		<tag k="ssr:stedsnr" v="496931" />
	</node>
	<node lat="62.122566667891114" lon="8.79242777951765" id="-29209">
		<tag k="alt_name" v="Avdem Nordigard" />
		<tag k="name" v="Avdem" />
		<tag k="place" v="farm" />
		<tag k="ssr:stedsnr" v="496932" />
	</node>
	<node lat="62.123516685121615" lon="8.827610787467908" id="-29210">
		<tag k="fixme" v="consider place=hamlet" />
		<tag k="name" v="Steine" />
		<tag k="place" v="farm" />
		<tag k="ssr:stedsnr" v="496937" />
	</node>
	<node lat="62.09809722301898" lon="9.041508328635825" id="-29216">
		<tag k="name" v="Brattbakken" />
		<tag k="place" v="locality" />
		<tag k="ssr:stedsnr" v="534895" />
	</node>
	<node lat="62.2385361086266" lon="8.379072229643027" id="-29218">
		<tag k="name" v="Ner-Slettum" />
		<tag k="place" v="farm" />
		<tag k="ssr:stedsnr" v="535091" />
	</node>
	<node lat="62.23358333640146" lon="8.376111105646025" id="-29220">
		<tag k="barrier" v="fence" />
		<tag k="name" v="Stir-geilen" />
		<tag k="ssr:stedsnr" v="535095" />
	</node>
	<node lat="62.235600000902416" lon="8.206588884822677" id="-29221">
		<tag k="alt_name" v="Søndre Brekken" />
		<tag k="name" v="Søre Brekka" />
		<tag k="place" v="farm" />
		<tag k="ssr:stedsnr" v="535167" />
	</node>
	<node lat="62.145030553704146" lon="8.687797224902443" id="-29227">
		<tag k="name" v="Søre Hagen" />
		<tag k="place" v="farm" />
		<tag k="ssr:stedsnr" v="535539" />
	</node>
	<node lat="62.10597499869945" lon="8.789661114345117" id="-29232">
		<tag k="name" v="Grindstuguøygarden" />
		<tag k="old_name" v="Gringstuguøygarden" />
		<tag k="place" v="locality" />
		<tag k="ssr:stedsnr" v="535645" />
	</node>
	<node lat="62.11869166617951" lon="8.786380546099195" id="-29233">
		<tag k="name" v="Myrlykkja" />
		<tag k="place" v="farm" />
		<tag k="ssr:stedsnr" v="535646" />
	</node>
	<node lat="62.153183332833464" lon="8.93623888802571" id="-29241">
		<tag k="name" v="Siemshytta" />
		<tag k="place" v="isolated_dwelling" />
		<tag k="ssr:stedsnr" v="535933" />
	</node>
	<node lat="62.174291670135695" lon="8.642863898379883" id="-29251">
		<tag k="name" v="Slettahaug" />
		<tag k="place" v="farm" />
		<tag k="ssr:stedsnr" v="536684" />
	</node>
	<node lat="62.11822222450428" lon="8.842280551109006" id="-29253">
		<tag k="name" v="Blakar" />
		<tag k="place" v="farm" />
		<tag k="ssr:stedsnr" v="536747" />
	</node>
	<node lat="62.11829166909726" lon="8.892499994436568" id="-29254">
		<tag k="name" v="Kjørvenær" />
		<tag k="place" v="farm" />
		<tag k="ssr:stedsnr" v="536962" />
	</node>
	<node lat="62.23737222029843" lon="8.203152781099256" id="-29256">
		<tag k="name" v="Brekka" />
		<tag k="place" v="farm" />
		<tag k="ssr:stedsnr" v="556152" />
	</node>
	<node lat="62.13043888881568" lon="8.69211388355287" id="-29257">
		<tag k="name" v="Lorvoll" />
		<tag k="place" v="farm" />
		<tag k="ssr:stedsnr" v="556764" />
	</node>
	<node lat="62.14428889162632" lon="8.691297217430492" id="-29258">
		<tag k="name" v="Jørstad" />
		<tag k="place" v="farm" />
		<tag k="ssr:stedsnr" v="556767" />
	</node>
	<node lat="62.237877782118126" lon="8.358933329477008" id="-29260">
		<tag k="alt_name" v="Ensrud" />
		<tag k="name" v="Einsrud" />
		<tag k="place" v="farm" />
		<tag k="ssr:stedsnr" v="556256" />
	</node>
	<node lat="62.168023509172286" lon="8.664017844662208" id="-29267">
		<tag k="name" v="Sæterjordet" />
		<tag k="place" v="locality" />
		<tag k="ssr:stedsnr" v="556793" />
	</node>
	<node lat="62.11823333664936" lon="8.772549998461265" id="-29268">
		<tag k="name" v="Brenna" />
		<tag k="place" v="farm" />
		<tag k="ssr:stedsnr" v="556882" />
	</node>
	<node lat="62.11294954376238" lon="8.862074767621237" id="-29269">
		<tag k="alt_name" v="Nestande" />
		<tag k="fixme" v="consider place=hamlet" />
		<tag k="name" v="Nesttande" />
		<tag k="place" v="farm" />
		<tag k="ssr:stedsnr" v="556889" />
	</node>
	<node lat="62.11173761409112" lon="8.95563282414434" id="-29270">
		<tag k="fixme" v="consider place=hamlet" />
		<tag k="name" v="Hovauk" />
		<tag k="place" v="farm" />
		<tag k="ssr:stedsnr" v="556896" />
	</node>
	<node lat="62.22015000361407" lon="8.3854027809704" id="-29286">
		<tag k="alt_name" v="Øygardssætre" />
		<tag k="historic" v="shieling" />
		<tag k="name" v="Øygardsætri" />
		<tag k="place" v="isolated_dwelling" />
		<tag k="ssr:stedsnr" v="557864" />
	</node>
	<node lat="62.13591666452166" lon="8.699247214334871" id="-29288">
		<tag k="fixme" v="multiple name tags, choose one and add the other to alt_name" />
		<tag k="name" v="Nedre nordre Bjøkne;Bjøkne" />
		<tag k="old_name" v="Bjørkne;Nedre Bjøkne" />
		<tag k="place" v="farm" />
		<tag k="ssr:stedsnr" v="587443" />
	</node>
	<node lat="62.127037921613685" lon="8.748383919740295" id="-29293">
		<tag k="fixme" v="consider place=hamlet" />
		<tag k="name" v="Kloppadalen" />
		<tag k="place" v="farm" />
		<tag k="ssr:stedsnr" v="595371" />
	</node>
	<node lat="62.25396666537857" lon="8.222336110676649" id="-29307">
		<tag k="name" v="Heimdal" />
		<tag k="place" v="quarter" />
		<tag k="ssr:stedsnr" v="596135" />
	</node>
	<node lat="62.189345176052306" lon="8.545637802510067" id="-29308">
		<tag k="fixme" v="consider place=hamlet" />
		<tag k="name" v="Lesjaverk gard" />
		<tag k="place" v="farm" />
		<tag k="ssr:stedsnr" v="596337" />
	</node>
	<node lat="62.239397219504724" lon="8.28862499208604" id="-29310">
		<tag k="name" v="Sy-Kvam" />
		<tag k="place" v="farm" />
		<tag k="ssr:stedsnr" v="596094" />
	</node>
	<node lat="62.195236214766446" lon="8.476393697021958" id="-29311">
		<tag k="fixme" v="consider place=hamlet" />
		<tag k="name" v="Søre Tandsætre" />
		<tag k="place" v="farm" />
		<tag k="ssr:stedsnr" v="596424" />
	</node>
	<node lat="62.118719441647485" lon="8.788738881292161" id="-29315">
		<tag k="name" v="Åndsetdalen" />
		<tag k="place" v="locality" />
		<tag k="ssr:stedsnr" v="596628" />
	</node>
	<node lat="62.10415555830591" lon="8.98562499756892" id="-29322">
		<tag k="name" v="Nedre Nyjordet" />
		<tag k="place" v="farm" />
		<tag k="ssr:stedsnr" v="596986" />
	</node>
	<node lat="62.09391304489863" lon="9.047114554111017" id="-29336">
		<tag k="alt_name" v="Skålgård Søndre;Søndre Skålgård" />
		<tag k="name" v="Søre Skålgard" />
		<tag k="place" v="farm" />
		<tag k="ssr:stedsnr" v="617624" />
	</node>
	<node lat="62.09345502765243" lon="9.051309546093847" id="-29337">
		<tag k="alt_name" v="Sørumgård" />
		<tag k="fixme" v="consider place=hamlet" />
		<tag k="name" v="Sørunggard" />
		<tag k="place" v="farm" />
		<tag k="ssr:stedsnr" v="617625" />
	</node>
	<node lat="62.10582777547695" lon="8.918702774287484" id="-29338">
		<tag k="name" v="Svanborg" />
		<tag k="place" v="farm" />
		<tag k="ssr:stedsnr" v="617901" />
	</node>
	<node lat="62.10790555188752" lon="8.907669450600146" id="-29339">
		<tag k="alt_name" v="Åsveen" />
		<tag k="name" v="Åssvea" />
		<tag k="place" v="farm" />
		<tag k="ssr:stedsnr" v="617904" />
	</node>
	<node lat="62.10357500197513" lon="8.832963889270959" id="-29340">
		<tag k="name" v="Hovdan" />
		<tag k="place" v="farm" />
		<tag k="ssr:stedsnr" v="617907" />
	</node>
	<node lat="62.231836112098556" lon="8.349727770414038" id="-29347">
		<tag k="alt_name" v="Mølmen" />
		<tag k="name" v="Mølme" />
		<tag k="place" v="farm" />
		<tag k="ssr:stedsnr" v="617853" />
	</node>
	<node lat="62.04377499574929" lon="8.302288879523083" id="-29353">
		<tag k="name" v="Firskissun" />
		<tag k="place" v="locality" />
		<tag k="ssr:stedsnr" v="617972" />
	</node>
	<node lat="62.05161111049287" lon="8.352619435134097" id="-29354">
		<tag k="historic" v="shieling" />
		<tag k="name" v="Nordstølen" />
		<tag k="place" v="isolated_dwelling" />
		<tag k="ssr:stedsnr" v="617975" />
	</node>
	<node lat="62.10393888746972" lon="8.572011114710826" id="-29358">
		<tag k="name" v="Slettmohytta" />
		<tag k="place" v="isolated_dwelling" />
		<tag k="ssr:stedsnr" v="621751" />
	</node>
	<node lat="62.118375002087184" lon="8.86424167528032" id="-29359">
		<tag k="name" v="Lesja" />
		<tag k="place" v="village" />
		<tag k="ssr:stedsnr" v="631861" />
	</node>
	<node lat="62.13478055309679" lon="8.70968333480378" id="-29364">
		<tag k="loc_name" v="Søre Bjøknelykkja" />
		<tag k="name" v="Løkken" />
		<tag k="place" v="farm" />
		<tag k="ssr:stedsnr" v="656424" />
	</node>
	<node lat="62.14455833229852" lon="8.691338883936606" id="-29367">
		<tag k="loc_name" v="Nylykkja" />
		<tag k="name" v="Nyløkken" />
		<tag k="place" v="farm" />
		<tag k="ssr:stedsnr" v="656546" />
	</node>
	<node lat="62.122363892979166" lon="8.788269440678109" id="-29373">
		<tag k="name" v="Åmundstad" />
		<tag k="place" v="farm" />
		<tag k="ssr:stedsnr" v="656676" />
	</node>
	<node lat="62.12264444845937" lon="8.777999994774532" id="-29374">
		<tag k="name" v="Løvset" />
		<tag k="place" v="isolated_dwelling" />
		<tag k="ssr:stedsnr" v="656677" />
	</node>
	<node lat="62.240411112709374" lon="8.240127786869294" id="-29380">
		<tag k="name" v="Kjønnsletten" />
		<tag k="place" v="isolated_dwelling" />
		<tag k="ssr:stedsnr" v="657158" />
	</node>
	<node lat="62.21431666904736" lon="8.229933325036036" id="-29381">
		<tag k="historic" v="shieling" />
		<tag k="name" v="Einbusætre" />
		<tag k="place" v="isolated_dwelling" />
		<tag k="ssr:stedsnr" v="657170" />
	</node>
	<node lat="62.15528888589325" lon="8.67491111326157" id="-29384">
		<tag k="name" v="Nøysom" />
		<tag k="old_name" v="Nølsom" />
		<tag k="place" v="farm" />
		<tag k="ssr:stedsnr" v="657546" />
	</node>
</osm>
