<?xml version="1.0" encoding="UTF-8"?>
<<<<<<< HEAD
<osm version="0.6" generator="osmapis">
	<node lat="62.22247222275604" lon="10.353761108863335" id="-21503">
		<tag k="name" v="Borge minne" />
		<tag k="place" v="locality" />
		<tag k="ssr:stedsnr" v="113927" />
	</node>
	<node lat="62.20642777637924" lon="9.886527768748202" id="-21609">
		<tag k="name" v="Nedremåsåhuset" />
		<tag k="place" v="locality" />
		<tag k="ssr:stedsnr" v="204792" />
	</node>
	<node lat="62.117208329618556" lon="10.27358888980024" id="-21812">
		<tag k="alt_name" v="Reinsleia" />
		<tag k="name" v="Reinslia taubanestasjon" />
		<tag k="place" v="locality" />
		<tag k="ssr:stedsnr" v="435226" />
	</node>
	<node lat="62.17445555758386" lon="9.814258332885396" id="-21834">
		<tag k="amenity" v="community_centre" />
		<tag k="name" v="Moen" />
		<tag k="ssr:stedsnr" v="673660" />
	</node>
	<node lat="62.132597223023694" lon="9.985636108786492" id="-21841">
		<tag k="amenity" v="community_centre" />
		<tag k="name" v="Folldal samfunnshus" />
		<tag k="ssr:stedsnr" v="481107" />
	</node>
	<node lat="62.19836389057642" lon="9.88436944043744" id="-21948">
		<tag k="name" v="Myrvassbue" />
		<tag k="place" v="locality" />
		<tag k="ssr:stedsnr" v="568804" />
	</node>
	<node lat="62.20028055925164" lon="10.375641670642286" id="-21954">
		<tag k="amenity" v="place_of_worship" />
		<tag k="denomination" v="lutheran" />
		<tag k="name" v="Egnund kapell" />
		<tag k="religion" v="christian" />
		<tag k="ssr:stedsnr" v="697958" />
	</node>
	<node lat="62.13417222429073" lon="9.966311110393434" id="-21969">
		<tag k="amenity" v="community_centre" />
		<tag k="name" v="Skytterhuset" />
		<tag k="ssr:stedsnr" v="602553" />
	</node>
	<node lat="62.32502499966504" lon="9.923461102153984" id="-22102">
		<tag k="name" v="Gammellægret" />
		<tag k="place" v="locality" />
		<tag k="ssr:stedsnr" v="725870" />
	</node>
	<node lat="62.14696944366601" lon="9.956825000663235" id="-22113">
=======
<osm generator="osmapis" version="0.6">
	<node id="-356223" lat="62.1800472219" lon="9.81011667126">
		<tag k="name" v="Gamle Fjellheim" />
		<tag k="place" v="locality" />
		<tag k="ssr:stedsnr" v="911784" />
	</node>
	<node id="-356693" lat="62.2064277764" lon="9.88652776875">
		<tag k="name" v="Nedremåsåhuset" />
		<tag k="place" v="locality" />
		<tag k="ssr:stedsnr" v="204792" />
	</node>
	<node id="-356095" lat="62.1469694437" lon="9.95682500066">
>>>>>>> e1d4bc35ff8a6074a6f2e91616a996b547c36f15
		<tag k="name" v="Husom vannverk" />
		<tag k="old_name" v="Husum vannverk" />
		<tag k="place" v="locality" />
		<tag k="ssr:stedsnr" v="726587" />
	</node>
<<<<<<< HEAD
	<node lat="62.1514527770352" lon="10.164900004815363" id="-22115">
		<tag k="amenity" v="community_centre" />
		<tag k="name" v="Grimshallen" />
		<tag k="ssr:stedsnr" v="726923" />
	</node>
	<node lat="62.1758277754125" lon="9.812455555149905" id="-22131">
		<tag k="amenity" v="place_of_worship" />
		<tag k="denomination" v="lutheran" />
		<tag k="name" v="Dalen kyrkje" />
		<tag k="religion" v="christian" />
		<tag k="ssr:stedsnr" v="739249" />
	</node>
	<node lat="62.180047221947966" lon="9.810116671258397" id="-22209">
		<tag k="name" v="Gamle Fjellheim" />
		<tag k="place" v="locality" />
		<tag k="ssr:stedsnr" v="911784" />
	</node>
	<node lat="62.208049997742926" lon="9.751736115294243" id="-22289">
=======
	<node id="-356087" lat="62.3250249997" lon="9.92346110215">
		<tag k="loc_name" v="Gammellægret" />
		<tag k="name" v="Gammellegret" />
		<tag k="place" v="locality" />
		<tag k="ssr:stedsnr" v="725870" />
	</node>
	<node id="-356462" lat="62.1479972183" lon="10.0474388814">
		<tag k="name" v="Skrabbhuset" />
		<tag k="place" v="locality" />
		<tag k="ssr:stedsnr" v="56644" />
	</node>
	<node id="-356972" lat="62.1983638906" lon="9.88436944044">
		<tag k="name" v="Myrvassbue" />
		<tag k="place" v="locality" />
		<tag k="ssr:stedsnr" v="568804" />
	</node>
	<node id="-357225" lat="62.2080499977" lon="9.75173611529">
>>>>>>> e1d4bc35ff8a6074a6f2e91616a996b547c36f15
		<tag k="name" v="Gammelsage" />
		<tag k="place" v="locality" />
		<tag k="ssr:stedsnr" v="845813" />
	</node>
<<<<<<< HEAD
	<node lat="62.17743055626364" lon="9.812363893716203" id="-22450">
=======
	<node id="-357096" lat="62.1758277754" lon="9.81245555515">
		<tag k="amenity" v="place_of_worship" />
		<tag k="denomination" v="lutheran" />
		<tag k="name" v="Dalen kyrkje" />
		<tag k="religion" v="christian" />
		<tag k="ssr:stedsnr" v="739249" />
	</node>
	<node id="-356450" lat="62.1774305563" lon="9.81236389372">
>>>>>>> e1d4bc35ff8a6074a6f2e91616a996b547c36f15
		<tag k="amenity" v="community_centre" />
		<tag k="name" v="Fjellsyn" />
		<tag k="ssr:stedsnr" v="19773" />
	</node>
<<<<<<< HEAD
	<node lat="62.14799721832543" lon="10.047438881407711" id="-22459">
		<tag k="name" v="Skrabbhuset" />
		<tag k="place" v="locality" />
		<tag k="ssr:stedsnr" v="56644" />
	</node>
	<node lat="62.13161666700891" lon="10.033752781924646" id="-22972">
=======
	<node id="-355929" lat="62.1744555576" lon="9.81425833289">
>>>>>>> e1d4bc35ff8a6074a6f2e91616a996b547c36f15
		<tag k="amenity" v="community_centre" />
		<tag k="name" v="Rondeslottet" />
		<tag k="ssr:stedsnr" v="602110" />
	</node>
<<<<<<< HEAD
	<node lat="62.031461109503454" lon="10.016794451511094" id="-22973">
		<tag k="amenity" v="community_centre" />
		<tag k="name" v="Skarpsno" />
		<tag k="ssr:stedsnr" v="602141" />
	</node>
	<node lat="62.116602781480644" lon="10.2017666653052" id="-22984">
		<tag k="name" v="Sagbekken taubanestasjon" />
=======
	<node id="-355541" lat="62.2224722228" lon="10.3537611089">
		<tag k="name" v="Borge minne" />
>>>>>>> e1d4bc35ff8a6074a6f2e91616a996b547c36f15
		<tag k="place" v="locality" />
		<tag k="ssr:stedsnr" v="602926" />
	</node>
	<node lat="61.992349997191916" lon="10.022888880488457" id="-23094">
		<tag k="amenity" v="community_centre" />
		<tag k="name" v="Rondaheim" />
		<tag k="ssr:stedsnr" v="725245" />
	</node>
<<<<<<< HEAD
	<node lat="62.1268602496571" lon="10.038868163132598" id="-23131">
=======
	<node id="-356173" lat="62.1268602497" lon="10.0388681631">
>>>>>>> e1d4bc35ff8a6074a6f2e91616a996b547c36f15
		<tag k="amenity" v="place_of_worship" />
		<tag k="denomination" v="lutheran" />
		<tag k="name" v="Folldal kirke" />
		<tag k="religion" v="christian" />
		<tag k="ssr:stedsnr" v="739467" />
	</node>
<<<<<<< HEAD
	<node lat="62.18757499921064" lon="10.261688894060132" id="-23303">
=======
	<node id="-355892" lat="62.132597223" lon="9.98563610879">
		<tag k="amenity" v="community_centre" />
		<tag k="name" v="Folldal samfunnshus" />
		<tag k="ssr:stedsnr" v="481107" />
	</node>
	<node id="-356020" lat="62.1341722243" lon="9.96631111039">
		<tag k="amenity" v="community_centre" />
		<tag k="name" v="Skytterhuset" />
		<tag k="ssr:stedsnr" v="602553" />
	</node>
	<node id="-356147" lat="61.9923499972" lon="10.0228888805">
		<tag k="amenity" v="community_centre" />
		<tag k="name" v="Rondaheim" />
		<tag k="ssr:stedsnr" v="725245" />
	</node>
	<node id="-356135" lat="62.2002805593" lon="10.3756416706">
		<tag k="amenity" v="place_of_worship" />
		<tag k="denomination" v="lutheran" />
		<tag k="name" v="Egnund kapell" />
		<tag k="religion" v="christian" />
		<tag k="ssr:stedsnr" v="697958" />
	</node>
	<node id="-356380" lat="62.1875749992" lon="10.2616888941">
>>>>>>> e1d4bc35ff8a6074a6f2e91616a996b547c36f15
		<tag k="amenity" v="community_centre" />
		<tag k="name" v="Ryenget gamle skole" />
		<tag k="ssr:stedsnr" v="966369" />
	</node>
<<<<<<< HEAD
=======
	<node id="-357010" lat="62.1166027815" lon="10.2017666653">
		<tag k="name" v="Sagbekken taubanestasjon" />
		<tag k="place" v="locality" />
		<tag k="ssr:stedsnr" v="602926" />
	</node>
	<node id="-356874" lat="62.1172083296" lon="10.2735888898">
		<tag k="alt_name" v="Reinsleia" />
		<tag k="name" v="Reinslia taubanestasjon" />
		<tag k="place" v="locality" />
		<tag k="ssr:stedsnr" v="435226" />
	</node>
	<node id="-356100" lat="62.151452777" lon="10.1649000048">
		<tag k="amenity" v="community_centre" />
		<tag k="name" v="Grimshallen" />
		<tag k="ssr:stedsnr" v="726923" />
	</node>
	<node id="-356994" lat="62.0314611095" lon="10.0167944515">
		<tag k="amenity" v="community_centre" />
		<tag k="name" v="Skarpsno" />
		<tag k="ssr:stedsnr" v="602141" />
	</node>
	<node id="-356993" lat="62.131616667" lon="10.0337527819">
		<tag k="amenity" v="community_centre" />
		<tag k="name" v="Rondeslottet" />
		<tag k="ssr:stedsnr" v="602110" />
	</node>
>>>>>>> e1d4bc35ff8a6074a6f2e91616a996b547c36f15
</osm>
