<?xml version="1.0" encoding="UTF-8"?>
<osm generator="osmapis" version="0.6">
	<node id="-356352" lat="62.2219833367" lon="10.3133749993">
		<tag k="fixme" v="consider natural=peak for the most distinct mountains in the district" />
		<tag k="name" v="Varden" />
		<tag k="natural" v="hill" />
		<tag k="place" v="locality" />
		<tag k="ssr:stedsnr" v="861076" />
	</node>
	<node id="-356350" lat="62.2078305525" lon="9.69877499232">
		<tag k="fixme" v="consider natural=peak for the most distinct mountains in the district" />
		<tag k="name" v="Storhovda" />
		<tag k="natural" v="hill" />
		<tag k="place" v="locality" />
		<tag k="ssr:stedsnr" v="860776" />
	</node>
	<node id="-356339" lat="62.2423333297" lon="10.1703999987">
		<tag k="fixme" v="consider natural=peak for the most distinct mountains in the district" />
		<tag k="name" v="Storekneppet" />
		<tag k="natural" v="hill" />
		<tag k="place" v="locality" />
		<tag k="ssr:stedsnr" v="860409" />
	</node>
	<node id="-356338" lat="62.2233388867" lon="9.90965277306">
		<tag k="fixme" v="consider natural=peak for the most distinct mountains in the district" />
		<tag k="name" v="Sletthøe" />
		<tag k="natural" v="hill" />
		<tag k="place" v="locality" />
		<tag k="ssr:stedsnr" v="860404" />
	</node>
	<node id="-356334" lat="62.1770333305" lon="10.3008055595">
		<tag k="alt_name" v="Storknollen" />
		<tag k="fixme" v="consider natural=peak for the most distinct mountains in the district" />
		<tag k="name" v="Storknausen" />
		<tag k="natural" v="hill" />
		<tag k="place" v="locality" />
		<tag k="ssr:stedsnr" v="860025" />
	</node>
	<node id="-356332" lat="62.1711999963" lon="10.2767805556">
		<tag k="name" v="Knauslia" />
		<tag k="natural" v="slope" />
		<tag k="place" v="locality" />
		<tag k="ssr:stedsnr" v="860019" />
	</node>
	<node id="-356330" lat="62.2586166639" lon="10.0326666675">
		<tag k="name" v="Veslslågån" />
		<tag k="natural" v="slope" />
		<tag k="place" v="locality" />
		<tag k="ssr:stedsnr" v="847731" />
	</node>
	<node id="-356329" lat="62.3012694417" lon="10.1002361077">
		<tag k="fixme" v="consider natural=peak for the most distinct mountains in the district" />
		<tag k="name" v="Pusskonnhøan" />
		<tag k="natural" v="hill" />
		<tag k="place" v="locality" />
		<tag k="ssr:stedsnr" v="847725" />
	</node>
	<node id="-356328" lat="62.1899500009" lon="9.78959444525">
		<tag k="name" v="Eideflye" />
		<tag k="place" v="locality" />
		<tag k="ssr:stedsnr" v="846813" />
	</node>
	<node id="-356324" lat="62.2834388932" lon="10.3405777747">
		<tag k="name" v="Vadhaugen" />
		<tag k="natural" v="hill" />
		<tag k="place" v="locality" />
		<tag k="ssr:stedsnr" v="842111" />
	</node>
	<node id="-356320" lat="62.1719027791" lon="10.3070361095">
		<tag k="alt_name" v="Vesleknollen" />
		<tag k="name" v="Veslkollen" />
		<tag k="natural" v="hill" />
		<tag k="place" v="locality" />
		<tag k="ssr:stedsnr" v="930461" />
	</node>
	<node id="-356317" lat="62.023950001" lon="10.1051333288">
		<tag k="fixme" v="consider natural=peak for the most distinct mountains in the district" />
		<tag k="name" v="Kvasskampen" />
		<tag k="natural" v="hill" />
		<tag k="place" v="locality" />
		<tag k="ssr:stedsnr" v="800408" />
	</node>
	<node id="-356315" lat="62.1658472219" lon="10.2839472126">
		<tag k="name" v="Måsålasset" />
		<tag k="natural" v="hill" />
		<tag k="place" v="locality" />
		<tag k="ssr:stedsnr" v="800012" />
	</node>
	<node id="-356312" lat="62.2134944476" lon="10.02626666">
		<tag k="fixme" v="consider natural=peak for the most distinct mountains in the district" />
		<tag k="name" v="Gluphøe" />
		<tag k="natural" v="hill" />
		<tag k="place" v="locality" />
		<tag k="ssr:stedsnr" v="799364" />
	</node>
	<node id="-356310" lat="62.232430554" lon="10.1148999986">
		<tag k="fixme" v="consider natural=peak for the most distinct mountains in the district" />
		<tag k="name" v="Grønringen" />
		<tag k="natural" v="hill" />
		<tag k="place" v="locality" />
		<tag k="ssr:stedsnr" v="799353" />
	</node>
	<node id="-356309" lat="61.9604111135" lon="10.106733329">
		<tag k="fixme" v="consider natural=peak for the most distinct mountains in the district" />
		<tag k="name" v="Eriksrudhøe" />
		<tag k="natural" v="hill" />
		<tag k="place" v="locality" />
		<tag k="ssr:stedsnr" v="798571" />
	</node>
	<node id="-356306" lat="61.9657083373" lon="10.0160638843">
		<tag k="name" v="Rondhaugen" />
		<tag k="natural" v="hill" />
		<tag k="place" v="locality" />
		<tag k="ssr:stedsnr" v="798412" />
	</node>
	<node id="-356305" lat="62.2166277761" lon="10.0672055461">
		<tag k="name" v="Slågån" />
		<tag k="natural" v="slope" />
		<tag k="place" v="locality" />
		<tag k="ssr:stedsnr" v="786609" />
	</node>
	<node id="-356304" lat="62.2080138847" lon="10.0965027799">
		<tag k="name" v="Tælet" />
		<tag k="natural" v="slope" />
		<tag k="place" v="locality" />
		<tag k="ssr:stedsnr" v="786606" />
	</node>
	<node id="-356301" lat="62.1899499975" lon="10.0628083327">
		<tag k="name" v="Steinmoen" />
		<tag k="place" v="locality" />
		<tag k="ssr:stedsnr" v="786581" />
	</node>
	<node id="-356300" lat="62.1436583355" lon="9.9216055536">
		<tag k="name" v="Larshusmælen" />
		<tag k="natural" v="hill" />
		<tag k="place" v="locality" />
		<tag k="ssr:stedsnr" v="786577" />
	</node>
	<node id="-356298" lat="62.0993166644" lon="9.97556666389">
		<tag k="name" v="Lavhaugen" />
		<tag k="natural" v="hill" />
		<tag k="place" v="locality" />
		<tag k="ssr:stedsnr" v="786562" />
	</node>
	<node id="-356295" lat="61.9394166626" lon="10.0371666754">
		<tag k="name" v="Eriksrudlie" />
		<tag k="natural" v="slope" />
		<tag k="place" v="locality" />
		<tag k="ssr:stedsnr" v="786426" />
	</node>
	<node id="-356294" lat="61.9405250038" lon="10.0438833302">
		<tag k="name" v="Langruste" />
		<tag k="natural" v="slope" />
		<tag k="place" v="locality" />
		<tag k="ssr:stedsnr" v="786425" />
	</node>
	<node id="-356293" lat="61.9590999982" lon="10.0047611028">
		<tag k="name" v="Tjuvdalen" />
		<tag k="natural" v="valley" />
		<tag k="place" v="locality" />
		<tag k="ssr:stedsnr" v="786420" />
	</node>
	<node id="-356292" lat="62.2038416642" lon="10.272125009">
		<tag k="name" v="Skarven" />
		<tag k="natural" v="hill" />
		<tag k="place" v="locality" />
		<tag k="ssr:stedsnr" v="786407" />
	</node>
	<node id="-356290" lat="62.1674416674" lon="10.27888334">
		<tag k="name" v="Jøstrandhaugen" />
		<tag k="natural" v="hill" />
		<tag k="place" v="locality" />
		<tag k="ssr:stedsnr" v="786172" />
	</node>
	<node id="-356289" lat="62.2659083327" lon="10.1798638798">
		<tag k="name" v="Langranden" />
		<tag k="natural" v="slope" />
		<tag k="place" v="locality" />
		<tag k="ssr:stedsnr" v="786160" />
	</node>
	<node id="-356288" lat="62.3901750001" lon="10.0619500012">
		<tag k="fixme" v="consider natural=peak for the most distinct mountains in the district" />
		<tag k="name" v="Sandtjørnhøa" />
		<tag k="natural" v="hill" />
		<tag k="place" v="locality" />
		<tag k="ssr:stedsnr" v="922685" />
	</node>
	<node id="-356287" lat="62.2782361122" lon="9.97011944827">
		<tag k="name" v="Einståkåskardet" />
		<tag k="natural" v="valley" />
		<tag k="old_name" v="Einstakaskardet" />
		<tag k="place" v="locality" />
		<tag k="ssr:stedsnr" v="922609" />
	</node>
	<node id="-356286" lat="62.2765694434" lon="9.93447777107">
		<tag k="name" v="Einståkåglupen" />
		<tag k="natural" v="valley" />
		<tag k="old_name" v="Einstakaglupen" />
		<tag k="place" v="locality" />
		<tag k="ssr:stedsnr" v="922608" />
	</node>
	<node id="-356278" lat="62.1810416651" lon="9.67463888352">
		<tag k="fixme" v="consider natural=peak for the most distinct mountains in the district" />
		<tag k="name" v="Veslhardbakken" />
		<tag k="natural" v="hill" />
		<tag k="place" v="locality" />
		<tag k="ssr:stedsnr" v="921718" />
	</node>
	<node id="-356277" lat="62.1393749978" lon="9.65096666807">
		<tag k="fixme" v="consider natural=peak for the most distinct mountains in the district" />
		<tag k="name" v="Pikhetta" />
		<tag k="natural" v="hill" />
		<tag k="old_name" v="Pigghetta" />
		<tag k="place" v="locality" />
		<tag k="ssr:stedsnr" v="921712" />
	</node>
	<node id="-356275" lat="62.2763611117" lon="10.3174250066">
		<tag k="fixme" v="consider natural=peak for the most distinct mountains in the district" />
		<tag k="name" v="Gruvkletten" />
		<tag k="natural" v="hill" />
		<tag k="place" v="locality" />
		<tag k="ssr:stedsnr" v="922894" />
	</node>
	<node id="-356274" lat="62.2846861141" lon="10.2717777862">
		<tag k="fixme" v="consider natural=peak for the most distinct mountains in the district" />
		<tag k="name" v="Snøfonnhøa" />
		<tag k="natural" v="hill" />
		<tag k="place" v="locality" />
		<tag k="ssr:stedsnr" v="922892" />
	</node>
	<node id="-356273" lat="61.9836583326" lon="9.99747776905">
		<tag k="name" v="Perskampen" />
		<tag k="natural" v="hill" />
		<tag k="place" v="locality" />
		<tag k="ssr:stedsnr" v="921544" />
	</node>
	<node id="-356272" lat="61.993966671" lon="9.99197221722">
		<tag k="name" v="Tverrgjelet" />
		<tag k="natural" v="valley" />
		<tag k="place" v="locality" />
		<tag k="ssr:stedsnr" v="921523" />
	</node>
	<node id="-356264" lat="62.239063891" lon="10.2246861081">
		<tag k="name" v="Einunndalen" />
		<tag k="natural" v="valley" />
		<tag k="place" v="locality" />
		<tag k="ssr:stedsnr" v="921469" />
	</node>
	<node id="-356263" lat="62.0057722183" lon="10.0380999909">
		<tag k="fixme" v="consider natural=peak for the most distinct mountains in the district" />
		<tag k="name" v="Bakkekampen" />
		<tag k="natural" v="hill" />
		<tag k="place" v="locality" />
		<tag k="ssr:stedsnr" v="921458" />
	</node>
	<node id="-356256" lat="62.2056805549" lon="9.83640833103">
		<tag k="fixme" v="consider natural=peak for the most distinct mountains in the district" />
		<tag k="name" v="Lurvuthovda" />
		<tag k="natural" v="hill" />
		<tag k="place" v="locality" />
		<tag k="ssr:stedsnr" v="921367" />
	</node>
	<node id="-356255" lat="62.2043777775" lon="9.96315554691">
		<tag k="fixme" v="consider natural=peak for the most distinct mountains in the district" />
		<tag k="name" v="Gråhøe" />
		<tag k="natural" v="hill" />
		<tag k="place" v="locality" />
		<tag k="ssr:stedsnr" v="921365" />
	</node>
	<node id="-356253" lat="62.2369388859" lon="10.1846249909">
		<tag k="alt_name" v="Bjørndalen" />
		<tag k="name" v="Bjønndalen" />
		<tag k="natural" v="valley" />
		<tag k="place" v="locality" />
		<tag k="ssr:stedsnr" v="921353" />
	</node>
	<node id="-356252" lat="62.2211333297" lon="9.85968611448">
		<tag k="name" v="Depldalen" />
		<tag k="natural" v="valley" />
		<tag k="place" v="locality" />
		<tag k="ssr:stedsnr" v="921347" />
	</node>
	<node id="-356250" lat="62.2471249995" lon="9.73390000122">
		<tag k="name" v="Grytskardkollen" />
		<tag k="natural" v="hill" />
		<tag k="place" v="locality" />
		<tag k="ssr:stedsnr" v="921343" />
	</node>
	<node id="-356249" lat="62.2429305515" lon="9.93967500716">
		<tag k="name" v="Søre Skardet" />
		<tag k="natural" v="valley" />
		<tag k="place" v="locality" />
		<tag k="ssr:stedsnr" v="921334" />
	</node>
	<node id="-356247" lat="62.24743611" lon="10.1323555556">
		<tag k="name" v="Østerdalsskardet" />
		<tag k="natural" v="valley" />
		<tag k="old_name" v="Østerdølskardet" />
		<tag k="place" v="locality" />
		<tag k="ssr:stedsnr" v="921324" />
	</node>
	<node id="-356246" lat="62.2430722255" lon="10.119600005">
		<tag k="fixme" v="consider natural=peak for the most distinct mountains in the district" />
		<tag k="name" v="Steinhøa" />
		<tag k="natural" v="hill" />
		<tag k="place" v="locality" />
		<tag k="ssr:stedsnr" v="921323" />
	</node>
	<node id="-356239" lat="62.1846055518" lon="10.2121361126">
		<tag k="fixme" v="multiple name tags, choose one and add the other to alt_name" />
		<tag k="name" v="Svartkletten;Såtån" />
		<tag k="natural" v="hill" />
		<tag k="place" v="locality" />
		<tag k="ssr:stedsnr" v="921275" />
	</node>
	<node id="-356238" lat="62.176005559" lon="9.84983332391">
		<tag k="name" v="Sørhovda" />
		<tag k="natural" v="hill" />
		<tag k="old_name" v="Sørhovde" />
		<tag k="place" v="locality" />
		<tag k="ssr:stedsnr" v="921272" />
	</node>
	<node id="-356236" lat="62.1682916631" lon="9.75718888238">
		<tag k="name" v="Storlihovda" />
		<tag k="natural" v="hill" />
		<tag k="old_name" v="Sæterkollen" />
		<tag k="place" v="locality" />
		<tag k="ssr:stedsnr" v="921255" />
	</node>
	<node id="-356235" lat="61.9444388916" lon="9.90040556368">
		<tag k="fixme" v="consider natural=peak for the most distinct mountains in the district" />
		<tag k="name" v="Høgronden" />
		<tag k="natural" v="hill" />
		<tag k="place" v="locality" />
		<tag k="ssr:stedsnr" v="921664" />
	</node>
	<node id="-356234" lat="61.9297277812" lon="9.99886111602">
		<tag k="name" v="Bergedalen" />
		<tag k="natural" v="valley" />
		<tag k="place" v="locality" />
		<tag k="ssr:stedsnr" v="920624" />
	</node>
	<node id="-356232" lat="61.9414027821" lon="10.0504305523">
		<tag k="name" v="Langrustkampen" />
		<tag k="natural" v="hill" />
		<tag k="place" v="locality" />
		<tag k="ssr:stedsnr" v="920620" />
	</node>
	<node id="-356231" lat="61.9227638922" lon="9.97256388531">
		<tag k="alt_name" v="Veslekolldalen" />
		<tag k="name" v="Veslkolldalen" />
		<tag k="natural" v="valley" />
		<tag k="place" v="locality" />
		<tag k="ssr:stedsnr" v="920609" />
	</node>
	<node id="-356230" lat="62.0849416711" lon="10.0184638864">
		<tag k="alt_name" v="Kolletholen;Kollotholen" />
		<tag k="fixme" v="consider natural=peak for the most distinct mountains in the district" />
		<tag k="name" v="Kollutholen" />
		<tag k="natural" v="hill" />
		<tag k="place" v="locality" />
		<tag k="ssr:stedsnr" v="920480" />
	</node>
	<node id="-356229" lat="62.1065972252" lon="10.1727305526">
		<tag k="fixme" v="consider natural=peak for the most distinct mountains in the district" />
		<tag k="name" v="Randan" />
		<tag k="natural" v="hill" />
		<tag k="place" v="locality" />
		<tag k="ssr:stedsnr" v="920476" />
	</node>
	<node id="-356228" lat="62.1322416698" lon="10.2963722222">
		<tag k="name" v="Vissmannkletten" />
		<tag k="natural" v="hill" />
		<tag k="place" v="locality" />
		<tag k="ssr:stedsnr" v="920198" />
	</node>
	<node id="-356224" lat="62.1807361127" lon="9.80295278725">
		<tag k="name" v="Kudalen" />
		<tag k="natural" v="valley" />
		<tag k="place" v="locality" />
		<tag k="ssr:stedsnr" v="911785" />
	</node>
	<node id="-356222" lat="62.3251027735" lon="9.93541944042">
		<tag k="name" v="Koiebakken" />
		<tag k="natural" v="slope" />
		<tag k="place" v="locality" />
		<tag k="ssr:stedsnr" v="908901" />
	</node>
	<node id="-356216" lat="62.1135194429" lon="9.8495472292">
		<tag k="name" v="Lurvothovdflåe" />
		<tag k="place" v="locality" />
		<tag k="ssr:stedsnr" v="908669" />
	</node>
	<node id="-356213" lat="62.1608722223" lon="9.937844447">
		<tag k="name" v="Skrabben" />
		<tag k="natural" v="hill" />
		<tag k="place" v="locality" />
		<tag k="ssr:stedsnr" v="908605" />
	</node>
	<node id="-356209" lat="62.1481638897" lon="9.86631111436">
		<tag k="name" v="Ormholhaugen" />
		<tag k="natural" v="hill" />
		<tag k="place" v="locality" />
		<tag k="ssr:stedsnr" v="908589" />
	</node>
	<node id="-356208" lat="62.1057916687" lon="9.9310888982">
		<tag k="name" v="Skrabban" />
		<tag k="natural" v="slope" />
		<tag k="place" v="locality" />
		<tag k="ssr:stedsnr" v="908573" />
	</node>
	<node id="-356207" lat="62.0742333334" lon="9.92234445115">
		<tag k="name" v="Heggekollan" />
		<tag k="natural" v="hill" />
		<tag k="place" v="locality" />
		<tag k="ssr:stedsnr" v="908555" />
	</node>
	<node id="-356205" lat="61.9622361083" lon="10.0231388883">
		<tag k="name" v="Storbekkhaugen" />
		<tag k="natural" v="hill" />
		<tag k="place" v="locality" />
		<tag k="ssr:stedsnr" v="908553" />
	</node>
	<node id="-356202" lat="61.9516583325" lon="10.0026694367">
		<tag k="name" v="Grønbakkan" />
		<tag k="natural" v="slope" />
		<tag k="place" v="locality" />
		<tag k="ssr:stedsnr" v="908442" />
	</node>
	<node id="-356201" lat="62.2040250038" lon="10.3388305564">
		<tag k="name" v="Bjønnhåmmårn" />
		<tag k="natural" v="hill" />
		<tag k="place" v="locality" />
		<tag k="ssr:stedsnr" v="908427" />
	</node>
	<node id="-356199" lat="62.20196667" lon="10.3093666635">
		<tag k="name" v="Storskreda" />
		<tag k="natural" v="valley" />
		<tag k="place" v="locality" />
		<tag k="ssr:stedsnr" v="908420" />
	</node>
	<node id="-356197" lat="62.182686108" lon="10.2647222297">
		<tag k="name" v="Kanelkenmoen" />
		<tag k="place" v="locality" />
		<tag k="ssr:stedsnr" v="908370" />
	</node>
	<node id="-356193" lat="62.0973833346" lon="10.0958722135">
		<tag k="name" v="Storrye" />
		<tag k="place" v="locality" />
		<tag k="ssr:stedsnr" v="908063" />
	</node>
	<node id="-356192" lat="62.1005055599" lon="9.98298611269">
		<tag k="name" v="Ormberget" />
		<tag k="natural" v="hill" />
		<tag k="place" v="locality" />
		<tag k="ssr:stedsnr" v="908043" />
	</node>
	<node id="-356188" lat="62.1475111079" lon="9.84120555483">
		<tag k="fixme" v="consider natural=peak for the most distinct mountains in the district" />
		<tag k="name" v="Åsen" />
		<tag k="natural" v="hill" />
		<tag k="place" v="locality" />
		<tag k="ssr:stedsnr" v="906680" />
	</node>
	<node id="-356186" lat="62.1991555571" lon="10.2766333374">
		<tag k="name" v="Kvilhåmmårn" />
		<tag k="natural" v="hill" />
		<tag k="place" v="locality" />
		<tag k="ssr:stedsnr" v="906330" />
	</node>
	<node id="-356185" lat="62.1959249993" lon="10.2828833255">
		<tag k="name" v="Leirdalen" />
		<tag k="natural" v="valley" />
		<tag k="place" v="locality" />
		<tag k="ssr:stedsnr" v="906328" />
	</node>
	<node id="-356184" lat="62.0736083317" lon="10.0620194401">
		<tag k="name" v="Høgegge" />
		<tag k="natural" v="slope" />
		<tag k="place" v="locality" />
		<tag k="ssr:stedsnr" v="906190" />
	</node>
	<node id="-356183" lat="62.0841388905" lon="10.0088944435">
		<tag k="fixme" v="consider natural=peak for the most distinct mountains in the district" />
		<tag k="name" v="Holfjellet" />
		<tag k="natural" v="hill" />
		<tag k="place" v="locality" />
		<tag k="ssr:stedsnr" v="906185" />
	</node>
	<node id="-356179" lat="62.1977833363" lon="10.1880583372">
		<tag k="name" v="Brottet" />
		<tag k="natural" v="slope" />
		<tag k="place" v="locality" />
		<tag k="ssr:stedsnr" v="906049" />
	</node>
	<node id="-356178" lat="62.1826444434" lon="10.1904749943">
		<tag k="name" v="Gammelsæterlia" />
		<tag k="natural" v="slope" />
		<tag k="place" v="locality" />
		<tag k="ssr:stedsnr" v="906039" />
	</node>
	<node id="-356170" lat="62.0066111089" lon="10.0713750042">
		<tag k="name" v="Stodsbukvølve" />
		<tag k="natural" v="valley" />
		<tag k="place" v="locality" />
		<tag k="ssr:stedsnr" v="739411" />
	</node>
	<node id="-356169" lat="62.0209472224" lon="10.0821722208">
		<tag k="fixme" v="consider natural=peak for the most distinct mountains in the district" />
		<tag k="name" v="Skrabben" />
		<tag k="natural" v="hill" />
		<tag k="place" v="locality" />
		<tag k="ssr:stedsnr" v="739407" />
	</node>
	<node id="-356168" lat="62.1697583291" lon="9.95415277709">
		<tag k="fixme" v="consider natural=peak for the most distinct mountains in the district" />
		<tag k="name" v="Bruvollskrabban" />
		<tag k="natural" v="hill" />
		<tag k="place" v="locality" />
		<tag k="ssr:stedsnr" v="739267" />
	</node>
	<node id="-356164" lat="62.1089305584" lon="10.2041194533">
		<tag k="alt_name" v="Brendrybakkan" />
		<tag k="name" v="Brennrybakkan" />
		<tag k="natural" v="slope" />
		<tag k="place" v="locality" />
		<tag k="ssr:stedsnr" v="906943" />
	</node>
	<node id="-356163" lat="61.9175222238" lon="10.0107805485">
		<tag k="name" v="Høgranden" />
		<tag k="natural" v="hill" />
		<tag k="place" v="locality" />
		<tag k="ssr:stedsnr" v="902629" />
	</node>
	<node id="-356161" lat="62.2959555596" lon="10.1114861041">
		<tag k="name" v="Vestre Steindalen" />
		<tag k="natural" v="valley" />
		<tag k="place" v="locality" />
		<tag k="ssr:stedsnr" v="726207" />
	</node>
	<node id="-356159" lat="62.1766055557" lon="10.2626638967">
		<tag k="name" v="Eggan" />
		<tag k="natural" v="slope" />
		<tag k="place" v="locality" />
		<tag k="ssr:stedsnr" v="726204" />
	</node>
	<node id="-356158" lat="62.1618638908" lon="10.2716361082">
		<tag k="name" v="Svarthugu" />
		<tag k="natural" v="hill" />
		<tag k="place" v="locality" />
		<tag k="ssr:stedsnr" v="726203" />
	</node>
	<node id="-356155" lat="62.0025499959" lon="9.97423055349">
		<tag k="name" v="Skrabben" />
		<tag k="natural" v="slope" />
		<tag k="place" v="locality" />
		<tag k="ssr:stedsnr" v="725619" />
	</node>
	<node id="-356153" lat="62.0069111104" lon="9.98124444255">
		<tag k="name" v="Øvre Legan" />
		<tag k="natural" v="slope" />
		<tag k="place" v="locality" />
		<tag k="ssr:stedsnr" v="725613" />
	</node>
	<node id="-356148" lat="61.9553027798" lon="10.0098611094">
		<tag k="name" v="Rånåbekkmoen" />
		<tag k="place" v="locality" />
		<tag k="ssr:stedsnr" v="725364" />
	</node>
	<node id="-356144" lat="62.1874305543" lon="9.61203056501">
		<tag k="name" v="Lurven" />
		<tag k="natural" v="hill" />
		<tag k="place" v="locality" />
		<tag k="ssr:stedsnr" v="723979" />
	</node>
	<node id="-356143" lat="62.1835055591" lon="9.67022221721">
		<tag k="name" v="Sæterpiken" />
		<tag k="natural" v="hill" />
		<tag k="place" v="locality" />
		<tag k="ssr:stedsnr" v="723957" />
	</node>
	<node id="-356138" lat="62.2142777756" lon="10.3689361016">
		<tag k="name" v="Nyromeggan" />
		<tag k="natural" v="slope" />
		<tag k="place" v="locality" />
		<tag k="ssr:stedsnr" v="720959" />
	</node>
	<node id="-356134" lat="62.1887888852" lon="9.61887777865">
		<tag k="name" v="Øyalie" />
		<tag k="natural" v="slope" />
		<tag k="place" v="locality" />
		<tag k="ssr:stedsnr" v="906990" />
	</node>
	<node id="-356131" lat="62.1820416683" lon="9.7484805491">
		<tag k="name" v="Gampeflyan" />
		<tag k="place" v="locality" />
		<tag k="ssr:stedsnr" v="906789" />
	</node>
	<node id="-356130" lat="62.1852222261" lon="9.74789721988">
		<tag k="name" v="Håmårn" />
		<tag k="natural" v="hill" />
		<tag k="place" v="locality" />
		<tag k="ssr:stedsnr" v="906787" />
	</node>
	<node id="-356127" lat="62.2857749999" lon="9.85693333459">
		<tag k="loc_name" v="Kukvølve" />
		<tag k="name" v="Kukvølvi" />
		<tag k="natural" v="valley" />
		<tag k="old_name" v="Kukvelvet" />
		<tag k="place" v="locality" />
		<tag k="ssr:stedsnr" v="679653" />
	</node>
	<node id="-356124" lat="62.0703805564" lon="9.62861666877">
		<tag k="name" v="Grimsdalen" />
		<tag k="natural" v="valley" />
		<tag k="place" v="locality" />
		<tag k="ssr:stedsnr" v="678673" />
	</node>
	<node id="-356121" lat="62.2012555586" lon="9.91504445301">
		<tag k="name" v="Slettkroktjønndalen" />
		<tag k="natural" v="valley" />
		<tag k="place" v="locality" />
		<tag k="ssr:stedsnr" v="678405" />
	</node>
	<node id="-356114" lat="62.2386222188" lon="10.2278277731">
		<tag k="name" v="Bjønnåsbakken" />
		<tag k="natural" v="slope" />
		<tag k="place" v="locality" />
		<tag k="ssr:stedsnr" v="665320" />
	</node>
	<node id="-356109" lat="62.1230472216" lon="10.1184333284">
		<tag k="name" v="Blæsteregga" />
		<tag k="natural" v="slope" />
		<tag k="place" v="locality" />
		<tag k="ssr:stedsnr" v="663931" />
	</node>
	<node id="-356105" lat="62.2406694448" lon="10.3257277812">
		<tag k="name" v="Bjønnklettlia" />
		<tag k="natural" v="slope" />
		<tag k="place" v="locality" />
		<tag k="ssr:stedsnr" v="659104" />
	</node>
	<node id="-356102" lat="62.1326888869" lon="9.89952499413">
		<tag k="name" v="Veslehaugen" />
		<tag k="natural" v="hill" />
		<tag k="place" v="locality" />
		<tag k="ssr:stedsnr" v="299568" />
	</node>
	<node id="-356098" lat="62.1889361094" lon="10.0997222279">
		<tag k="name" v="Svarthaugan" />
		<tag k="natural" v="hill" />
		<tag k="place" v="locality" />
		<tag k="ssr:stedsnr" v="726615" />
	</node>
	<node id="-356096" lat="62.176638885" lon="10.07939445">
		<tag k="name" v="Floen" />
		<tag k="place" v="locality" />
		<tag k="ssr:stedsnr" v="726597" />
	</node>
	<node id="-356094" lat="62.2610888871" lon="10.2692138869">
		<tag k="fixme" v="consider natural=peak for the most distinct mountains in the district" />
		<tag k="name" v="Første Vola" />
		<tag k="natural" v="hill" />
		<tag k="place" v="locality" />
		<tag k="ssr:stedsnr" v="726351" />
	</node>
	<node id="-356092" lat="62.0571305555" lon="10.0707333282">
		<tag k="name" v="Gråflye" />
		<tag k="natural" v="slope" />
		<tag k="place" v="locality" />
		<tag k="ssr:stedsnr" v="726268" />
	</node>
	<node id="-356091" lat="62.1810305526" lon="10.2801638882">
		<tag k="name" v="Søgardshaugen" />
		<tag k="natural" v="hill" />
		<tag k="place" v="locality" />
		<tag k="ssr:stedsnr" v="726378" />
	</node>
	<node id="-356083" lat="62.2463805565" lon="10.0244027684">
		<tag k="name" v="Pikhaugen" />
		<tag k="natural" v="hill" />
		<tag k="place" v="locality" />
		<tag k="ssr:stedsnr" v="725686" />
	</node>
	<node id="-356082" lat="62.2992249983" lon="10.0921444412">
		<tag k="name" v="Ossæterkollen" />
		<tag k="natural" v="hill" />
		<tag k="place" v="locality" />
		<tag k="ssr:stedsnr" v="725680" />
	</node>
	<node id="-356074" lat="62.1692361088" lon="9.77580000283">
		<tag k="name" v="Raudsandhaugen" />
		<tag k="natural" v="hill" />
		<tag k="place" v="locality" />
		<tag k="ssr:stedsnr" v="724801" />
	</node>
	<node id="-356068" lat="62.1967722183" lon="10.2807972244">
		<tag k="name" v="Leirdalstrøa" />
		<tag k="place" v="locality" />
		<tag k="ssr:stedsnr" v="724302" />
	</node>
	<node id="-356063" lat="62.0731000025" lon="10.0515861154">
		<tag k="name" v="Tuvslette" />
		<tag k="place" v="locality" />
		<tag k="ssr:stedsnr" v="724179" />
	</node>
	<node id="-356056" lat="62.132269445" lon="9.84164722995">
		<tag k="name" v="Jynarlie" />
		<tag k="place" v="locality" />
		<tag k="ssr:stedsnr" v="723617" />
	</node>
	<node id="-356054" lat="62.1556388917" lon="10.0159222188">
		<tag k="name" v="Skrabbholet" />
		<tag k="natural" v="valley" />
		<tag k="place" v="locality" />
		<tag k="ssr:stedsnr" v="723590" />
	</node>
	<node id="-356050" lat="62.0285361069" lon="10.0083611191">
		<tag k="name" v="Holet" />
		<tag k="natural" v="valley" />
		<tag k="place" v="locality" />
		<tag k="ssr:stedsnr" v="723128" />
	</node>
	<node id="-356047" lat="62.326941666" lon="9.99397778358">
		<tag k="alt_name" v="Pikothaugen" />
		<tag k="name" v="Pikuthaugen" />
		<tag k="natural" v="hill" />
		<tag k="place" v="locality" />
		<tag k="ssr:stedsnr" v="618647" />
	</node>
	<node id="-356035" lat="61.9617749975" lon="10.1465027835">
		<tag k="fixme" v="consider natural=peak for the most distinct mountains in the district" />
		<tag k="name" v="Skjerallen" />
		<tag k="natural" v="hill" />
		<tag k="place" v="locality" />
		<tag k="ssr:stedsnr" v="616604" />
	</node>
	<node id="-356031" lat="62.2286944443" lon="10.0384055587">
		<tag k="name" v="Flatkakella" />
		<tag k="natural" v="valley" />
		<tag k="place" v="locality" />
		<tag k="ssr:stedsnr" v="604562" />
	</node>
	<node id="-356028" lat="62.2096166649" lon="10.2795916762">
		<tag k="name" v="Moskaret" />
		<tag k="natural" v="valley" />
		<tag k="place" v="locality" />
		<tag k="ssr:stedsnr" v="604413" />
	</node>
	<node id="-356021" lat="62.1320833318" lon="9.9714055635">
		<tag k="name" v="Gorbekksletta" />
		<tag k="place" v="locality" />
		<tag k="ssr:stedsnr" v="602555" />
	</node>
	<node id="-356019" lat="62.0267249965" lon="10.0351083399">
		<tag k="name" v="Randan" />
		<tag k="natural" v="slope" />
		<tag k="place" v="locality" />
		<tag k="ssr:stedsnr" v="602393" />
	</node>
	<node id="-356015" lat="62.3103999961" lon="10.0033277742">
		<tag k="name" v="Rolvslia" />
		<tag k="natural" v="slope" />
		<tag k="place" v="locality" />
		<tag k="ssr:stedsnr" v="557624" />
	</node>
	<node id="-356013" lat="61.9924249968" lon="9.96476111762">
		<tag k="fixme" v="consider natural=peak for the most distinct mountains in the district" />
		<tag k="name" v="Vesl-Elgevasshøe" />
		<tag k="natural" v="hill" />
		<tag k="old_name" v="Veslelgvasshøe" />
		<tag k="place" v="locality" />
		<tag k="ssr:stedsnr" v="556707" />
	</node>
	<node id="-356008" lat="62.1918250026" lon="9.9951194418">
		<tag k="fixme" v="consider natural=peak for the most distinct mountains in the district" />
		<tag k="name" v="Storhøe" />
		<tag k="natural" v="hill" />
		<tag k="place" v="locality" />
		<tag k="ssr:stedsnr" v="556424" />
	</node>
	<node id="-356002" lat="62.1605250038" lon="10.2328194406">
		<tag k="name" v="Ryberget" />
		<tag k="natural" v="hill" />
		<tag k="place" v="locality" />
		<tag k="ssr:stedsnr" v="556009" />
	</node>
	<node id="-355994" lat="62.1893833348" lon="10.330202771">
		<tag k="name" v="Leirmoen" />
		<tag k="place" v="locality" />
		<tag k="ssr:stedsnr" v="543363" />
	</node>
	<node id="-355993" lat="62.1177861143" lon="10.0776916687">
		<tag k="name" v="Sæterøymælen" />
		<tag k="natural" v="slope" />
		<tag k="place" v="locality" />
		<tag k="ssr:stedsnr" v="543014" />
	</node>
	<node id="-355988" lat="62.0778250025" lon="10.0471000019">
		<tag k="name" v="Eggan" />
		<tag k="natural" v="slope" />
		<tag k="place" v="locality" />
		<tag k="ssr:stedsnr" v="542185" />
	</node>
	<node id="-355986" lat="62.1624222227" lon="10.1683222231">
		<tag k="name" v="Kakelmåna" />
		<tag k="natural" v="slope" />
		<tag k="place" v="locality" />
		<tag k="ssr:stedsnr" v="542009" />
	</node>
	<node id="-355984" lat="61.9810194472" lon="10.0253999955">
		<tag k="name" v="Brennhaugen" />
		<tag k="natural" v="hill" />
		<tag k="place" v="locality" />
		<tag k="ssr:stedsnr" v="541313" />
	</node>
	<node id="-355983" lat="61.9776861099" lon="10.0314055479">
		<tag k="name" v="Nordre Rasmusholet" />
		<tag k="natural" v="valley" />
		<tag k="place" v="locality" />
		<tag k="ssr:stedsnr" v="541312" />
	</node>
	<node id="-355982" lat="62.1924361117" lon="10.3535166715">
		<tag k="name" v="Brennegga" />
		<tag k="natural" v="slope" />
		<tag k="place" v="locality" />
		<tag k="ssr:stedsnr" v="538960" />
	</node>
	<node id="-355979" lat="62.1973083337" lon="10.2972722131">
		<tag k="name" v="Midtmoen" />
		<tag k="place" v="locality" />
		<tag k="ssr:stedsnr" v="299350" />
	</node>
	<node id="-355976" lat="62.2902916679" lon="10.1785888861">
		<tag k="fixme" v="consider natural=peak for the most distinct mountains in the district" />
		<tag k="name" v="Klemetkollen" />
		<tag k="natural" v="hill" />
		<tag k="place" v="locality" />
		<tag k="ssr:stedsnr" v="497655" />
	</node>
	<node id="-355973" lat="62.3580388924" lon="10.1214250049">
		<tag k="fixme" v="consider natural=peak for the most distinct mountains in the district" />
		<tag k="name" v="Tostenkollen" />
		<tag k="natural" v="hill" />
		<tag k="place" v="locality" />
		<tag k="ssr:stedsnr" v="496715" />
	</node>
	<node id="-355969" lat="61.9825000017" lon="10.0927444477">
		<tag k="name" v="Eriksrudkvølve" />
		<tag k="natural" v="valley" />
		<tag k="place" v="locality" />
		<tag k="ssr:stedsnr" v="496533" />
	</node>
	<node id="-355966" lat="62.1764750011" lon="9.9096555527">
		<tag k="name" v="Skansan" />
		<tag k="natural" v="hill" />
		<tag k="place" v="locality" />
		<tag k="ssr:stedsnr" v="496267" />
	</node>
	<node id="-355965" lat="62.0978611151" lon="9.90656389046">
		<tag k="name" v="Gråhøe" />
		<tag k="natural" v="hill" />
		<tag k="place" v="locality" />
		<tag k="ssr:stedsnr" v="495479" />
	</node>
	<node id="-355963" lat="62.3478333297" lon="10.1111972232">
		<tag k="name" v="Råbekkskardet" />
		<tag k="natural" v="valley" />
		<tag k="place" v="locality" />
		<tag k="ssr:stedsnr" v="679684" />
	</node>
	<node id="-355962" lat="62.3478361142" lon="10.1559277825">
		<tag k="fixme" v="consider natural=peak for the most distinct mountains in the district" />
		<tag k="name" v="Høgegga" />
		<tag k="natural" v="hill" />
		<tag k="place" v="locality" />
		<tag k="ssr:stedsnr" v="679682" />
	</node>
	<node id="-355960" lat="62.3314249978" lon="9.98337499136">
		<tag k="name" v="Brennkollen" />
		<tag k="natural" v="hill" />
		<tag k="place" v="locality" />
		<tag k="ssr:stedsnr" v="679643" />
	</node>
	<node id="-355959" lat="62.3126722265" lon="10.1996638939">
		<tag k="fixme" v="consider natural=peak for the most distinct mountains in the district" />
		<tag k="name" v="Saga" />
		<tag k="natural" v="hill" />
		<tag k="place" v="locality" />
		<tag k="ssr:stedsnr" v="679629" />
	</node>
	<node id="-355958" lat="62.2631972196" lon="9.76991110164">
		<tag k="loc_name" v="Reinsløfte" />
		<tag k="name" v="Reinsløfti" />
		<tag k="natural" v="valley" />
		<tag k="old_name" v="Reinsløftet" />
		<tag k="place" v="locality" />
		<tag k="ssr:stedsnr" v="679589" />
	</node>
	<node id="-355953" lat="61.9821000004" lon="9.91113889502">
		<tag k="fixme" v="consider natural=peak for the most distinct mountains in the district" />
		<tag k="name" v="Stor-Elgevasshøe" />
		<tag k="natural" v="hill" />
		<tag k="old_name" v="Storelgvasshøe" />
		<tag k="place" v="locality" />
		<tag k="ssr:stedsnr" v="678679" />
	</node>
	<node id="-355948" lat="62.127502781" lon="10.1876333358">
		<tag k="fixme" v="consider natural=peak for the most distinct mountains in the district" />
		<tag k="name" v="Flatåsen" />
		<tag k="natural" v="hill" />
		<tag k="place" v="locality" />
		<tag k="ssr:stedsnr" v="678483" />
	</node>
	<node id="-355944" lat="62.2239000039" lon="9.89318055644">
		<tag k="name" v="Langranden" />
		<tag k="natural" v="ridge" />
		<tag k="old_name" v="Langrandin" />
		<tag k="place" v="locality" />
		<tag k="ssr:stedsnr" v="678349" />
	</node>
	<node id="-355939" lat="62.1937500045" lon="9.91903333114">
		<tag k="fixme" v="consider natural=peak for the most distinct mountains in the district" />
		<tag k="name" v="Smørbollen" />
		<tag k="natural" v="hill" />
		<tag k="place" v="locality" />
		<tag k="ssr:stedsnr" v="678394" />
	</node>
	<node id="-355928" lat="62.1286666695" lon="9.82028611605">
		<tag k="name" v="Gåsåtjønnhaugan" />
		<tag k="natural" v="hill" />
		<tag k="place" v="locality" />
		<tag k="ssr:stedsnr" v="483658" />
	</node>
	<node id="-355926" lat="62.0522972257" lon="9.96775277372">
		<tag k="name" v="Veslebekkollan" />
		<tag k="natural" v="hill" />
		<tag k="place" v="locality" />
		<tag k="ssr:stedsnr" v="483776" />
	</node>
	<node id="-355924" lat="62.0796916665" lon="9.96584722381">
		<tag k="name" v="Lomtjønnshaugen" />
		<tag k="natural" v="hill" />
		<tag k="place" v="locality" />
		<tag k="ssr:stedsnr" v="483559" />
	</node>
	<node id="-355918" lat="62.1769083324" lon="10.2284888822">
		<tag k="name" v="Tunnøya" />
		<tag k="place" v="locality" />
		<tag k="ssr:stedsnr" v="483216" />
	</node>
	<node id="-355910" lat="62.175177782" lon="9.93688055752">
		<tag k="name" v="Ruphushaugan" />
		<tag k="natural" v="hill" />
		<tag k="place" v="locality" />
		<tag k="ssr:stedsnr" v="482570" />
	</node>
	<node id="-355907" lat="62.2106972212" lon="9.67402499426">
		<tag k="name" v="Orrhaugen" />
		<tag k="natural" v="hill" />
		<tag k="place" v="locality" />
		<tag k="ssr:stedsnr" v="481974" />
	</node>
	<node id="-355906" lat="62.190294441" lon="9.7329055545">
		<tag k="name" v="Djupdalen" />
		<tag k="natural" v="valley" />
		<tag k="place" v="locality" />
		<tag k="ssr:stedsnr" v="481970" />
	</node>
	<node id="-355904" lat="62.1783555572" lon="9.7438944525">
		<tag k="name" v="Leirsvean" />
		<tag k="natural" v="slope" />
		<tag k="place" v="locality" />
		<tag k="ssr:stedsnr" v="481762" />
	</node>
	<node id="-355889" lat="62.2317111093" lon="10.318980565">
		<tag k="name" v="Langberget" />
		<tag k="natural" v="hill" />
		<tag k="place" v="locality" />
		<tag k="ssr:stedsnr" v="477079" />
	</node>
	<node id="-355888" lat="62.1716527789" lon="10.2963444502">
		<tag k="name" v="Veslepiggen" />
		<tag k="natural" v="hill" />
		<tag k="place" v="locality" />
		<tag k="ssr:stedsnr" v="477073" />
	</node>
	<node id="-355886" lat="62.1692777763" lon="10.3315749943">
		<tag k="name" v="Veslekletten" />
		<tag k="natural" v="hill" />
		<tag k="place" v="locality" />
		<tag k="ssr:stedsnr" v="477069" />
	</node>
	<node id="-355883" lat="62.3334499961" lon="9.93576112047">
		<tag k="name" v="Døllia" />
		<tag k="natural" v="slope" />
		<tag k="place" v="locality" />
		<tag k="ssr:stedsnr" v="665896" />
	</node>
	<node id="-355877" lat="62.1766472196" lon="10.0951750011">
		<tag k="name" v="Bjørnlia" />
		<tag k="natural" v="slope" />
		<tag k="place" v="locality" />
		<tag k="ssr:stedsnr" v="665627" />
	</node>
	<node id="-355874" lat="62.093708329" lon="9.931844451">
		<tag k="name" v="Lie" />
		<tag k="natural" v="slope" />
		<tag k="place" v="locality" />
		<tag k="ssr:stedsnr" v="665584" />
	</node>
	<node id="-355873" lat="62.1029888864" lon="9.88667499326">
		<tag k="name" v="Nordstreite" />
		<tag k="natural" v="slope" />
		<tag k="place" v="locality" />
		<tag k="ssr:stedsnr" v="665580" />
	</node>
	<node id="-355872" lat="62.0919944441" lon="9.89073054886">
		<tag k="name" v="Sørstreite" />
		<tag k="natural" v="slope" />
		<tag k="place" v="locality" />
		<tag k="ssr:stedsnr" v="665577" />
	</node>
	<node id="-355870" lat="62.289766663" lon="10.1162916738">
		<tag k="name" v="Hussæterlia" />
		<tag k="natural" v="slope" />
		<tag k="place" v="locality" />
		<tag k="ssr:stedsnr" v="665206" />
	</node>
	<node id="-355869" lat="62.1486138856" lon="10.2692055604">
		<tag k="name" v="Ryskaret" />
		<tag k="natural" v="valley" />
		<tag k="place" v="locality" />
		<tag k="ssr:stedsnr" v="665202" />
	</node>
	<node id="-355868" lat="62.1599444407" lon="10.2523833299">
		<tag k="name" v="Tangegga" />
		<tag k="natural" v="slope" />
		<tag k="place" v="locality" />
		<tag k="ssr:stedsnr" v="665198" />
	</node>
	<node id="-355867" lat="62.0929888901" lon="10.0009527766">
		<tag k="name" v="Storskallen" />
		<tag k="natural" v="ridge" />
		<tag k="place" v="locality" />
		<tag k="ssr:stedsnr" v="665048" />
	</node>
	<node id="-355866" lat="62.3235861135" lon="9.93883611909">
		<tag k="name" v="Brennranden" />
		<tag k="place" v="locality" />
		<tag k="ssr:stedsnr" v="664889" />
	</node>
	<node id="-355865" lat="62.0094500024" lon="9.96940278053">
		<tag k="name" v="Leirhaugan" />
		<tag k="natural" v="hill" />
		<tag k="place" v="locality" />
		<tag k="ssr:stedsnr" v="664645" />
	</node>
	<node id="-355864" lat="62.0259472264" lon="9.98000000217">
		<tag k="name" v="Langranden" />
		<tag k="place" v="locality" />
		<tag k="ssr:stedsnr" v="664639" />
	</node>
	<node id="-355861" lat="62.1727527805" lon="9.9268083405">
		<tag k="name" v="Lonabekkdalen" />
		<tag k="natural" v="valley" />
		<tag k="place" v="locality" />
		<tag k="ssr:stedsnr" v="664540" />
	</node>
	<node id="-355859" lat="62.2258972267" lon="10.0142416685">
		<tag k="name" v="Vesletælet" />
		<tag k="natural" v="hill" />
		<tag k="place" v="locality" />
		<tag k="ssr:stedsnr" v="664513" />
	</node>
	<node id="-355856" lat="61.9248638914" lon="10.0357027813">
		<tag k="name" v="Myldingsøye" />
		<tag k="place" v="locality" />
		<tag k="ssr:stedsnr" v="664394" />
	</node>
	<node id="-355855" lat="61.9468333329" lon="10.0259861038">
		<tag k="name" v="Sæterhaugen" />
		<tag k="natural" v="hill" />
		<tag k="place" v="locality" />
		<tag k="ssr:stedsnr" v="664382" />
	</node>
	<node id="-355853" lat="61.9601916626" lon="10.0039916746">
		<tag k="name" v="Storresegga" />
		<tag k="natural" v="hill" />
		<tag k="place" v="locality" />
		<tag k="ssr:stedsnr" v="664493" />
	</node>
	<node id="-355849" lat="62.194594442" lon="9.63595276987">
		<tag k="name" v="Flyan" />
		<tag k="place" v="locality" />
		<tag k="ssr:stedsnr" v="663992" />
	</node>
	<node id="-355846" lat="62.2086527759" lon="9.84778333336">
		<tag k="name" v="Vardhø" />
		<tag k="natural" v="hill" />
		<tag k="place" v="locality" />
		<tag k="ssr:stedsnr" v="663785" />
	</node>
	<node id="-355845" lat="62.1887555515" lon="9.65732778671">
		<tag k="name" v="Risbrotranden" />
		<tag k="natural" v="slope" />
		<tag k="place" v="locality" />
		<tag k="ssr:stedsnr" v="663976" />
	</node>
	<node id="-355844" lat="62.1789749996" lon="9.73368055149">
		<tag k="name" v="Vidalen" />
		<tag k="natural" v="valley" />
		<tag k="place" v="locality" />
		<tag k="ssr:stedsnr" v="663963" />
	</node>
	<node id="-355843" lat="62.1460444422" lon="9.99125277033">
		<tag k="name" v="Bekkedalsbakkan" />
		<tag k="natural" v="slope" />
		<tag k="place" v="locality" />
		<tag k="ssr:stedsnr" v="663604" />
	</node>
	<node id="-355840" lat="62.1148499961" lon="9.97219443909">
		<tag k="name" v="Svehaugen" />
		<tag k="natural" v="hill" />
		<tag k="place" v="locality" />
		<tag k="ssr:stedsnr" v="663543" />
	</node>
	<node id="-355836" lat="62.0800888908" lon="10.0136777694">
		<tag k="name" v="Tempelrustan" />
		<tag k="natural" v="slope" />
		<tag k="place" v="locality" />
		<tag k="ssr:stedsnr" v="663186" />
	</node>
	<node id="-355825" lat="62.2676444446" lon="10.3240277779">
		<tag k="name" v="Marsjølia" />
		<tag k="natural" v="slope" />
		<tag k="place" v="locality" />
		<tag k="ssr:stedsnr" v="659131" />
	</node>
	<node id="-355823" lat="62.2630222231" lon="10.1943166683">
		<tag k="name" v="Hakketuranden" />
		<tag k="natural" v="slope" />
		<tag k="place" v="locality" />
		<tag k="ssr:stedsnr" v="299188" />
	</node>
	<node id="-355820" lat="62.2656500001" lon="10.121474992">
		<tag k="fixme" v="consider natural=peak for the most distinct mountains in the district" />
		<tag k="name" v="Veslhøa" />
		<tag k="natural" v="hill" />
		<tag k="place" v="locality" />
		<tag k="ssr:stedsnr" v="436604" />
	</node>
	<node id="-355817" lat="62.0510999988" lon="10.0743111068">
		<tag k="name" v="Svabudalen" />
		<tag k="natural" v="valley" />
		<tag k="place" v="locality" />
		<tag k="ssr:stedsnr" v="435443" />
	</node>
	<node id="-355816" lat="62.0675527804" lon="10.1684222175">
		<tag k="name" v="Stordøltjønnsløgde" />
		<tag k="place" v="locality" />
		<tag k="ssr:stedsnr" v="435440" />
	</node>
	<node id="-355814" lat="62.1985472209" lon="9.73352777992">
		<tag k="fixme" v="consider natural=peak for the most distinct mountains in the district" />
		<tag k="name" v="Borkhuskollen" />
		<tag k="natural" v="hill" />
		<tag k="place" v="locality" />
		<tag k="ssr:stedsnr" v="435414" />
	</node>
	<node id="-355810" lat="62.1565472225" lon="9.94310556214">
		<tag k="name" v="Hamran" />
		<tag k="natural" v="hill" />
		<tag k="place" v="locality" />
		<tag k="ssr:stedsnr" v="435328" />
	</node>
	<node id="-355809" lat="62.1603222256" lon="9.90114999821">
		<tag k="fixme" v="consider natural=peak for the most distinct mountains in the district" />
		<tag k="name" v="Lonahovda" />
		<tag k="natural" v="hill" />
		<tag k="place" v="locality" />
		<tag k="ssr:stedsnr" v="435327" />
	</node>
	<node id="-355808" lat="62.1594249961" lon="10.059516676">
		<tag k="alt_name" v="Måssårye" />
		<tag k="name" v="Måsårya" />
		<tag k="natural" v="ridge" />
		<tag k="place" v="locality" />
		<tag k="ssr:stedsnr" v="435326" />
	</node>
	<node id="-355799" lat="62.2770916628" lon="10.0417777759">
		<tag k="name" v="Skjeftslågån" />
		<tag k="natural" v="slope" />
		<tag k="place" v="locality" />
		<tag k="ssr:stedsnr" v="422723" />
	</node>
	<node id="-355796" lat="62.1010194448" lon="10.0962194498">
		<tag k="name" v="Storryegge" />
		<tag k="natural" v="slope" />
		<tag k="place" v="locality" />
		<tag k="ssr:stedsnr" v="422007" />
	</node>
	<node id="-355793" lat="62.1659083339" lon="10.2137777702">
		<tag k="name" v="Bjørøya" />
		<tag k="place" v="locality" />
		<tag k="ssr:stedsnr" v="421013" />
	</node>
	<node id="-355792" lat="62.1528416688" lon="10.0094083275">
		<tag k="fixme" v="consider natural=peak for the most distinct mountains in the district" />
		<tag k="name" v="Bjørkeskoghøgde" />
		<tag k="natural" v="hill" />
		<tag k="place" v="locality" />
		<tag k="ssr:stedsnr" v="420645" />
	</node>
	<node id="-355791" lat="62.0434555543" lon="9.98547778355">
		<tag k="name" v="Heggeruste" />
		<tag k="natural" v="hill" />
		<tag k="place" v="locality" />
		<tag k="ssr:stedsnr" v="420222" />
	</node>
	<node id="-355790" lat="62.0477555573" lon="10.0307555635">
		<tag k="name" v="Myrbekklie" />
		<tag k="natural" v="slope" />
		<tag k="place" v="locality" />
		<tag k="ssr:stedsnr" v="420209" />
	</node>
	<node id="-355788" lat="62.0479638863" lon="10.036349997">
		<tag k="name" v="Storruste" />
		<tag k="natural" v="slope" />
		<tag k="place" v="locality" />
		<tag k="ssr:stedsnr" v="299232" />
	</node>
	<node id="-355787" lat="62.1301055589" lon="10.0225527723">
		<tag k="name" v="Feltskjærhaugegga" />
		<tag k="natural" v="slope" />
		<tag k="place" v="locality" />
		<tag k="ssr:stedsnr" v="299101" />
	</node>
	<node id="-355786" lat="62.1212361138" lon="10.0178916711">
		<tag k="name" v="Djupdalsegge" />
		<tag k="natural" v="slope" />
		<tag k="place" v="locality" />
		<tag k="ssr:stedsnr" v="299084" />
	</node>
	<node id="-355785" lat="62.1923060076" lon="10.2266853023">
		<tag k="name" v="Nysæterlia" />
		<tag k="natural" v="slope" />
		<tag k="place" v="locality" />
		<tag k="ssr:stedsnr" v="299060" />
	</node>
	<node id="-355783" lat="62.1518361116" lon="9.71379722338">
		<tag k="name" v="Glupen" />
		<tag k="natural" v="gorge" />
		<tag k="ssr:stedsnr" v="507827" />
	</node>
	<node id="-355781" lat="62.2145861098" lon="9.88448610213">
		<tag k="name" v="Storskardskollan" />
		<tag k="natural" v="hill" />
		<tag k="place" v="locality" />
		<tag k="ssr:stedsnr" v="507808" />
	</node>
	<node id="-355780" lat="62.1592166678" lon="10.1522083304">
		<tag k="name" v="Bekkdalsmoen" />
		<tag k="place" v="locality" />
		<tag k="ssr:stedsnr" v="299040" />
	</node>
	<node id="-355775" lat="62.3550416678" lon="9.93411111923">
		<tag k="fixme" v="consider natural=peak for the most distinct mountains in the district" />
		<tag k="name" v="Fundberget" />
		<tag k="natural" v="hill" />
		<tag k="place" v="locality" />
		<tag k="ssr:stedsnr" v="375677" />
	</node>
	<node id="-355772" lat="62.2647861081" lon="9.92765555587">
		<tag k="fixme" v="consider natural=peak for the most distinct mountains in the district" />
		<tag k="loc_name" v="Einståkåhøe" />
		<tag k="name" v="Einståkåhøi" />
		<tag k="natural" v="hill" />
		<tag k="old_name" v="Einstakahøi;Einståkåhøa" />
		<tag k="place" v="locality" />
		<tag k="ssr:stedsnr" v="375609" />
	</node>
	<node id="-355771" lat="62.1327333356" lon="10.2146500062">
		<tag k="name" v="Lauvåssletta" />
		<tag k="place" v="locality" />
		<tag k="ssr:stedsnr" v="375423" />
	</node>
	<node id="-355768" lat="62.0442333304" lon="10.061102776">
		<tag k="fixme" v="consider natural=peak for the most distinct mountains in the district" />
		<tag k="name" v="Tangen" />
		<tag k="natural" v="hill" />
		<tag k="place" v="locality" />
		<tag k="ssr:stedsnr" v="374407" />
	</node>
	<node id="-355767" lat="62.0403055522" lon="9.87610556496">
		<tag k="fixme" v="consider natural=peak for the most distinct mountains in the district" />
		<tag k="name" v="Storkringla" />
		<tag k="natural" v="hill" />
		<tag k="place" v="locality" />
		<tag k="ssr:stedsnr" v="374406" />
	</node>
	<node id="-355762" lat="62.2270222199" lon="10.061727785">
		<tag k="fixme" v="consider natural=peak for the most distinct mountains in the district" />
		<tag k="name" v="Hoggstabben" />
		<tag k="natural" v="hill" />
		<tag k="place" v="locality" />
		<tag k="ssr:stedsnr" v="374363" />
	</node>
	<node id="-355756" lat="61.9533527772" lon="10.0560277819">
		<tag k="name" v="Kluftin" />
		<tag k="natural" v="valley" />
		<tag k="place" v="locality" />
		<tag k="ssr:stedsnr" v="373616" />
	</node>
	<node id="-355753" lat="62.3560833362" lon="10.2328916726">
		<tag k="fixme" v="consider natural=peak for the most distinct mountains in the district" />
		<tag k="name" v="Medhøa" />
		<tag k="natural" v="hill" />
		<tag k="place" v="locality" />
		<tag k="ssr:stedsnr" v="496983" />
	</node>
	<node id="-355750" lat="62.1950555539" lon="9.87711388844">
		<tag k="fixme" v="consider natural=peak for the most distinct mountains in the district" />
		<tag k="name" v="Tverrlihøe" />
		<tag k="natural" v="hill" />
		<tag k="place" v="locality" />
		<tag k="ssr:stedsnr" v="496404" />
	</node>
	<node id="-355747" lat="62.2112194488" lon="10.0960416695">
		<tag k="alt_name" v="Talpiggen" />
		<tag k="name" v="Tælpiggen" />
		<tag k="natural" v="hill" />
		<tag k="place" v="locality" />
		<tag k="ssr:stedsnr" v="496385" />
	</node>
	<node id="-355740" lat="62.1297972195" lon="9.74465554751">
		<tag k="name" v="Dagdyljudalen" />
		<tag k="natural" v="valley" />
		<tag k="place" v="locality" />
		<tag k="ssr:stedsnr" v="496473" />
	</node>
	<node id="-355739" lat="62.1408500027" lon="10.0644277873">
		<tag k="alt_name" v="Storhovda" />
		<tag k="fixme" v="consider natural=peak for the most distinct mountains in the district" />
		<tag k="name" v="Storhovde" />
		<tag k="natural" v="hill" />
		<tag k="place" v="locality" />
		<tag k="ssr:stedsnr" v="496471" />
	</node>
	<node id="-355737" lat="62.1225722236" lon="10.2807416717">
		<tag k="alt_name" v="Storskardvorda" />
		<tag k="fixme" v="consider natural=peak for the most distinct mountains in the district" />
		<tag k="name" v="Storskarvola" />
		<tag k="natural" v="hill" />
		<tag k="old_name" v="Storskardvola" />
		<tag k="place" v="locality" />
		<tag k="ssr:stedsnr" v="496206" />
	</node>
	<node id="-355733" lat="62.0404222248" lon="9.95717221857">
		<tag k="fixme" v="consider natural=peak for the most distinct mountains in the district" />
		<tag k="name" v="Kringlotberget" />
		<tag k="natural" v="hill" />
		<tag k="place" v="locality" />
		<tag k="ssr:stedsnr" v="361769" />
	</node>
	<node id="-355731" lat="62.066191668" lon="9.93454722457">
		<tag k="name" v="Fosshaugan" />
		<tag k="natural" v="hill" />
		<tag k="place" v="locality" />
		<tag k="ssr:stedsnr" v="361760" />
	</node>
	<node id="-355730" lat="62.2067444489" lon="10.3393361055">
		<tag k="name" v="Storrøsta" />
		<tag k="natural" v="slope" />
		<tag k="place" v="locality" />
		<tag k="ssr:stedsnr" v="361421" />
	</node>
	<node id="-355725" lat="62.0835361106" lon="9.93568610803">
		<tag k="name" v="Faldlie" />
		<tag k="natural" v="slope" />
		<tag k="place" v="locality" />
		<tag k="ssr:stedsnr" v="361569" />
	</node>
	<node id="-355722" lat="62.0675111089" lon="9.96320556205">
		<tag k="name" v="Bruegge" />
		<tag k="natural" v="hill" />
		<tag k="place" v="locality" />
		<tag k="ssr:stedsnr" v="361552" />
	</node>
	<node id="-355708" lat="62.1535972254" lon="9.85263332887">
		<tag k="name" v="Kommerslette" />
		<tag k="place" v="locality" />
		<tag k="ssr:stedsnr" v="491656" />
	</node>
	<node id="-355706" lat="62.2864888851" lon="10.3183249943">
		<tag k="name" v="Veslelia" />
		<tag k="natural" v="slope" />
		<tag k="place" v="locality" />
		<tag k="ssr:stedsnr" v="356106" />
	</node>
	<node id="-355703" lat="62.1539027761" lon="10.1096861031">
		<tag k="name" v="Geitryggdalen" />
		<tag k="natural" v="valley" />
		<tag k="place" v="locality" />
		<tag k="ssr:stedsnr" v="483934" />
	</node>
	<node id="-355696" lat="62.2200027765" lon="10.3218472219">
		<tag k="fixme" v="consider natural=peak for the most distinct mountains in the district" />
		<tag k="name" v="Vardberget" />
		<tag k="natural" v="hill" />
		<tag k="ssr:stedsnr" v="483447" />
	</node>
	<node id="-355690" lat="62.1213555515" lon="10.0509611116">
		<tag k="name" v="Steegga" />
		<tag k="natural" v="slope" />
		<tag k="place" v="locality" />
		<tag k="ssr:stedsnr" v="483039" />
	</node>
	<node id="-355684" lat="62.1060777795" lon="10.2169055511">
		<tag k="name" v="Skarvdalshola" />
		<tag k="natural" v="valley" />
		<tag k="place" v="locality" />
		<tag k="ssr:stedsnr" v="481934" />
	</node>
	<node id="-355683" lat="62.1235000027" lon="10.1576499996">
		<tag k="name" v="Finnskjegget" />
		<tag k="place" v="locality" />
		<tag k="ssr:stedsnr" v="481927" />
	</node>
	<node id="-355677" lat="62.1458083299" lon="10.0401027852">
		<tag k="name" v="Skrabben" />
		<tag k="natural" v="hill" />
		<tag k="place" v="locality" />
		<tag k="ssr:stedsnr" v="481601" />
	</node>
	<node id="-355676" lat="62.1361000037" lon="9.96908333944">
		<tag k="name" v="Bøljarhaugen" />
		<tag k="natural" v="hill" />
		<tag k="place" v="locality" />
		<tag k="ssr:stedsnr" v="481584" />
	</node>
	<node id="-355675" lat="61.9746805598" lon="10.0368888822">
		<tag k="name" v="Gammelgardsruste" />
		<tag k="natural" v="slope" />
		<tag k="place" v="locality" />
		<tag k="ssr:stedsnr" v="481481" />
	</node>
	<node id="-355673" lat="61.976127775" lon="10.0304888818">
		<tag k="name" v="Søre Rasmusholet" />
		<tag k="natural" v="valley" />
		<tag k="place" v="locality" />
		<tag k="ssr:stedsnr" v="481320" />
	</node>
	<node id="-355672" lat="62.0414361146" lon="10.0057277718">
		<tag k="name" v="Langranden" />
		<tag k="natural" v="slope" />
		<tag k="place" v="locality" />
		<tag k="ssr:stedsnr" v="481145" />
	</node>
	<node id="-355670" lat="62.2537861115" lon="10.2229611061">
		<tag k="fixme" v="consider natural=peak for the most distinct mountains in the district" />
		<tag k="name" v="Midtliåsen" />
		<tag k="natural" v="hill" />
		<tag k="place" v="locality" />
		<tag k="ssr:stedsnr" v="481207" />
	</node>
	<node id="-355669" lat="62.2508416646" lon="10.1791722292">
		<tag k="name" v="Stugulia" />
		<tag k="natural" v="slope" />
		<tag k="place" v="locality" />
		<tag k="ssr:stedsnr" v="481206" />
	</node>
	<node id="-355662" lat="62.3909638853" lon="10.0454777705">
		<tag k="fixme" v="consider natural=peak for the most distinct mountains in the district" />
		<tag k="name" v="Håvardskollen" />
		<tag k="natural" v="hill" />
		<tag k="place" v="locality" />
		<tag k="ssr:stedsnr" v="315706" />
	</node>
	<node id="-355661" lat="62.3232388864" lon="10.0715194415">
		<tag k="alt_name" v="Kampen, Øvre" />
		<tag k="name" v="Øvre Kampen" />
		<tag k="natural" v="hill" />
		<tag k="place" v="locality" />
		<tag k="ssr:stedsnr" v="315669" />
	</node>
	<node id="-355660" lat="62.3143527823" lon="10.0958222156">
		<tag k="fixme" v="consider natural=peak for the most distinct mountains in the district" />
		<tag k="name" v="Steinhøa" />
		<tag k="natural" v="hill" />
		<tag k="place" v="locality" />
		<tag k="ssr:stedsnr" v="315653" />
	</node>
	<node id="-355659" lat="62.2617361098" lon="10.0634222229">
		<tag k="name" v="Bjørnskardet" />
		<tag k="natural" v="valley" />
		<tag k="place" v="locality" />
		<tag k="ssr:stedsnr" v="315616" />
	</node>
	<node id="-355656" lat="62.3617388864" lon="10.0390722129">
		<tag k="fixme" v="consider natural=peak for the most distinct mountains in the district" />
		<tag k="name" v="Marsjøtangen" />
		<tag k="natural" v="hill" />
		<tag k="place" v="locality" />
		<tag k="ssr:stedsnr" v="314709" />
	</node>
	<node id="-355655" lat="62.1507499976" lon="9.71198611426">
		<tag k="fixme" v="consider natural=peak for the most distinct mountains in the district" />
		<tag k="name" v="Tverrgjelet" />
		<tag k="natural" v="hill" />
		<tag k="place" v="locality" />
		<tag k="ssr:stedsnr" v="314703" />
	</node>
	<node id="-355654" lat="62.0074500037" lon="10.0507000085">
		<tag k="fixme" v="consider natural=peak for the most distinct mountains in the district" />
		<tag k="name" v="Veslkollen" />
		<tag k="natural" v="hill" />
		<tag k="place" v="locality" />
		<tag k="ssr:stedsnr" v="314464" />
	</node>
	<node id="-355653" lat="62.0416500011" lon="10.1656765362">
		<tag k="alt_name" v="Mjovassdalskletten" />
		<tag k="fixme" v="consider natural=peak for the most distinct mountains in the district" />
		<tag k="name" v="Mjovasskletten" />
		<tag k="natural" v="hill" />
		<tag k="place" v="locality" />
		<tag k="ssr:stedsnr" v="314424" />
	</node>
	<node id="-355651" lat="62.1901555546" lon="9.853855562">
		<tag k="alt_name" v="Storskardet" />
		<tag k="name" v="Storskaret" />
		<tag k="natural" v="valley" />
		<tag k="place" v="locality" />
		<tag k="ssr:stedsnr" v="314408" />
	</node>
	<node id="-355649" lat="62.1283583325" lon="10.1213499989">
		<tag k="alt_name" v="Oddmælan" />
		<tag k="name" v="Oddmelan" />
		<tag k="natural" v="slope" />
		<tag k="place" v="locality" />
		<tag k="ssr:stedsnr" v="314524" />
	</node>
	<node id="-355643" lat="62.1649722231" lon="9.93630277271">
		<tag k="fixme" v="consider natural=peak for the most distinct mountains in the district" />
		<tag k="name" v="Høgranden" />
		<tag k="natural" v="hill" />
		<tag k="place" v="locality" />
		<tag k="ssr:stedsnr" v="314308" />
	</node>
	<node id="-355640" lat="62.1281500043" lon="9.95482777595">
		<tag k="name" v="Folldalen" />
		<tag k="natural" v="valley" />
		<tag k="place" v="locality" />
		<tag k="ssr:stedsnr" v="314108" />
	</node>
	<node id="-355638" lat="62.1713666653" lon="10.3000416761">
		<tag k="name" v="Knausan" />
		<tag k="natural" v="hill" />
		<tag k="place" v="locality" />
		<tag k="ssr:stedsnr" v="314012" />
	</node>
	<node id="-355635" lat="62.2368138846" lon="10.0166222291">
		<tag k="name" v="Vangbakken" />
		<tag k="natural" v="slope" />
		<tag k="place" v="locality" />
		<tag k="ssr:stedsnr" v="301557" />
	</node>
	<node id="-355632" lat="61.9498444458" lon="10.0215749975">
		<tag k="name" v="Pikothaugen" />
		<tag k="natural" v="hill" />
		<tag k="place" v="locality" />
		<tag k="ssr:stedsnr" v="301420" />
	</node>
	<node id="-355626" lat="62.301833333" lon="10.2379027863">
		<tag k="fixme" v="consider natural=peak for the most distinct mountains in the district" />
		<tag k="name" v="Bandet" />
		<tag k="natural" v="hill" />
		<tag k="place" v="locality" />
		<tag k="ssr:stedsnr" v="254907" />
	</node>
	<node id="-355622" lat="62.203036113" lon="9.70731666092">
		<tag k="name" v="Slåhovda" />
		<tag k="natural" v="hill" />
		<tag k="place" v="locality" />
		<tag k="ssr:stedsnr" v="447815" />
	</node>
	<node id="-355621" lat="62.1783444426" lon="9.61455278365">
		<tag k="name" v="Storhøkvølve" />
		<tag k="natural" v="valley" />
		<tag k="place" v="locality" />
		<tag k="ssr:stedsnr" v="447814" />
	</node>
	<node id="-355620" lat="62.2083444463" lon="9.70972778061">
		<tag k="name" v="Baklie" />
		<tag k="natural" v="slope" />
		<tag k="place" v="locality" />
		<tag k="ssr:stedsnr" v="447792" />
	</node>
	<node id="-355613" lat="62.2056277743" lon="10.1142500071">
		<tag k="name" v="Tælet" />
		<tag k="natural" v="slope" />
		<tag k="place" v="locality" />
		<tag k="ssr:stedsnr" v="299183" />
	</node>
	<node id="-355612" lat="62.37755278" lon="10.0208305611">
		<tag k="alt_name" v="Sætaldalen" />
		<tag k="name" v="Setaldalen" />
		<tag k="natural" v="valley" />
		<tag k="old_name" v="Settaldalen" />
		<tag k="place" v="locality" />
		<tag k="ssr:stedsnr" v="194718" />
	</node>
	<node id="-355610" lat="61.9937322146" lon="10.1299441351">
		<tag k="name" v="Jehansskardet" />
		<tag k="natural" v="valley" />
		<tag k="place" v="locality" />
		<tag k="ssr:stedsnr" v="193538" />
	</node>
	<node id="-355609" lat="61.9829944469" lon="10.0506805642">
		<tag k="alt_name" v="Skriuberget" />
		<tag k="name" v="Skriduberget" />
		<tag k="natural" v="hill" />
		<tag k="place" v="locality" />
		<tag k="ssr:stedsnr" v="193536" />
	</node>
	<node id="-355608" lat="61.9815361106" lon="9.97214999065">
		<tag k="fixme" v="multiple name tags, choose one and add the other to alt_name; consider natural=peak for the most distinct mountains in the district" />
		<tag k="loc_name" v="Simmelhøe" />
		<tag k="name" v="Sandomshøe;Simmelhøi" />
		<tag k="natural" v="hill" />
		<tag k="place" v="locality" />
		<tag k="ssr:stedsnr" v="193529" />
	</node>
	<node id="-355606" lat="62.0146722188" lon="9.96268610542">
		<tag k="fixme" v="consider natural=peak for the most distinct mountains in the district" />
		<tag k="name" v="Liakollen" />
		<tag k="natural" v="hill" />
		<tag k="place" v="locality" />
		<tag k="ssr:stedsnr" v="193428" />
	</node>
	<node id="-355605" lat="62.1712972202" lon="10.3406527848">
		<tag k="alt_name" v="Einstakakletten" />
		<tag k="fixme" v="consider natural=peak for the most distinct mountains in the district" />
		<tag k="name" v="Einståkkåkletten" />
		<tag k="natural" v="hill" />
		<tag k="place" v="locality" />
		<tag k="ssr:stedsnr" v="193014" />
	</node>
	<node id="-355603" lat="61.8981111133" lon="10.0037111088">
		<tag k="name" v="Myldingsgjelet" />
		<tag k="natural" v="valley" />
		<tag k="place" v="locality" />
		<tag k="ssr:stedsnr" v="192603" />
	</node>
	<node id="-355601" lat="62.2086111112" lon="9.9342972168">
		<tag k="fixme" v="consider natural=peak for the most distinct mountains in the district" />
		<tag k="name" v="Knartan" />
		<tag k="natural" v="hill" />
		<tag k="place" v="locality" />
		<tag k="ssr:stedsnr" v="192735" />
	</node>
	<node id="-355599" lat="62.050924996" lon="10.1444777703">
		<tag k="fixme" v="consider natural=peak for the most distinct mountains in the district" />
		<tag k="loc_name" v="Skardhøe" />
		<tag k="name" v="Skardhøa" />
		<tag k="natural" v="hill" />
		<tag k="place" v="locality" />
		<tag k="ssr:stedsnr" v="192415" />
	</node>
	<node id="-355598" lat="62.0667194486" lon="9.99773611509">
		<tag k="name" v="Kolbottøye" />
		<tag k="place" v="locality" />
		<tag k="ssr:stedsnr" v="192411" />
	</node>
	<node id="-355596" lat="62.2379805535" lon="9.82275556362">
		<tag k="fixme" v="consider natural=peak for the most distinct mountains in the district" />
		<tag k="name" v="Depltangen" />
		<tag k="natural" v="hill" />
		<tag k="place" v="locality" />
		<tag k="ssr:stedsnr" v="192344" />
	</node>
	<node id="-355595" lat="62.1498722197" lon="9.93875278092">
		<tag k="fixme" v="consider natural=peak for the most distinct mountains in the district" />
		<tag k="name" v="Ørnhovda" />
		<tag k="natural" v="hill" />
		<tag k="place" v="locality" />
		<tag k="ssr:stedsnr" v="192336" />
	</node>
	<node id="-355588" lat="62.0687277815" lon="9.95447222606">
		<tag k="name" v="Fallflye" />
		<tag k="place" v="locality" />
		<tag k="ssr:stedsnr" v="179511" />
	</node>
	<node id="-355587" lat="62.0754222256" lon="9.93836388944">
		<tag k="name" v="Salthamran" />
		<tag k="natural" v="hill" />
		<tag k="place" v="locality" />
		<tag k="ssr:stedsnr" v="179510" />
	</node>
	<node id="-355584" lat="62.2641916664" lon="10.2687611064">
		<tag k="fixme" v="consider natural=peak for the most distinct mountains in the district" />
		<tag k="name" v="Andre Vola" />
		<tag k="natural" v="hill" />
		<tag k="place" v="locality" />
		<tag k="ssr:stedsnr" v="179314" />
	</node>
	<node id="-355582" lat="62.247694448" lon="10.2457472278">
		<tag k="fixme" v="consider natural=peak for the most distinct mountains in the district" />
		<tag k="name" v="Ørnkletten" />
		<tag k="natural" v="hill" />
		<tag k="place" v="locality" />
		<tag k="ssr:stedsnr" v="179264" />
	</node>
	<node id="-355581" lat="62.0622416638" lon="10.0935361119">
		<tag k="name" v="Revsgrenhaugen" />
		<tag k="natural" v="hill" />
		<tag k="place" v="locality" />
		<tag k="ssr:stedsnr" v="179214" />
	</node>
	<node id="-355580" lat="62.0268083297" lon="10.0173999926">
		<tag k="name" v="Fiskarhola" />
		<tag k="natural" v="valley" />
		<tag k="place" v="locality" />
		<tag k="ssr:stedsnr" v="178372" />
	</node>
	<node id="-355579" lat="62.0151027747" lon="10.0133555532">
		<tag k="name" v="Krokøydalen" />
		<tag k="natural" v="valley" />
		<tag k="place" v="locality" />
		<tag k="ssr:stedsnr" v="178362" />
	</node>
	<node id="-355578" lat="62.1961249985" lon="10.3011305481">
		<tag k="name" v="Stormoen" />
		<tag k="place" v="locality" />
		<tag k="ssr:stedsnr" v="178310" />
	</node>
	<node id="-355577" lat="62.1808027739" lon="10.2160611194">
		<tag k="name" v="Bukletten" />
		<tag k="natural" v="hill" />
		<tag k="place" v="locality" />
		<tag k="ssr:stedsnr" v="178070" />
	</node>
	<node id="-355575" lat="61.9690694442" lon="10.0081694352">
		<tag k="name" v="Elgdalen" />
		<tag k="natural" v="valley" />
		<tag k="place" v="locality" />
		<tag k="ssr:stedsnr" v="177464" />
	</node>
	<node id="-355574" lat="62.1882888927" lon="9.71737777245">
		<tag k="name" v="Slåflyan" />
		<tag k="place" v="locality" />
		<tag k="ssr:stedsnr" v="299966" />
	</node>
	<node id="-355572" lat="62.3658361078" lon="10.2014249954">
		<tag k="name" v="Rundhaugen" />
		<tag k="natural" v="hill" />
		<tag k="place" v="locality" />
		<tag k="ssr:stedsnr" v="132713" />
	</node>
	<node id="-355571" lat="62.335686114" lon="10.0309305521">
		<tag k="fixme" v="consider natural=peak for the most distinct mountains in the district" />
		<tag k="name" v="Melkampen" />
		<tag k="natural" v="hill" />
		<tag k="place" v="locality" />
		<tag k="ssr:stedsnr" v="132707" />
	</node>
	<node id="-355570" lat="62.3474694447" lon="9.98560833943">
		<tag k="name" v="Knarten" />
		<tag k="natural" v="hill" />
		<tag k="old_name" v="Knatten" />
		<tag k="place" v="locality" />
		<tag k="ssr:stedsnr" v="132704" />
	</node>
	<node id="-355565" lat="61.9421888868" lon="10.1122694457">
		<tag k="name" v="Nørdre Hyrsdalen" />
		<tag k="natural" v="valley" />
		<tag k="place" v="locality" />
		<tag k="ssr:stedsnr" v="131617" />
	</node>
	<node id="-355564" lat="62.2468250041" lon="9.77906111027">
		<tag k="fixme" v="consider natural=peak for the most distinct mountains in the district" />
		<tag k="name" v="Pikuthøe" />
		<tag k="natural" v="hill" />
		<tag k="place" v="locality" />
		<tag k="ssr:stedsnr" v="131312" />
	</node>
	<node id="-355563" lat="62.1568472212" lon="9.83863056327">
		<tag k="name" v="Bekkeslette" />
		<tag k="place" v="locality" />
		<tag k="ssr:stedsnr" v="130618" />
	</node>
	<node id="-355561" lat="62.2894333367" lon="10.2982527831">
		<tag k="fixme" v="consider natural=peak for the most distinct mountains in the district" />
		<tag k="name" v="Storrabben" />
		<tag k="natural" v="hill" />
		<tag k="place" v="locality" />
		<tag k="ssr:stedsnr" v="263345" />
	</node>
	<node id="-355558" lat="62.0399888878" lon="9.9584638975">
		<tag k="name" v="Ørnberget" />
		<tag k="natural" v="hill" />
		<tag k="place" v="locality" />
		<tag k="ssr:stedsnr" v="119775" />
	</node>
	<node id="-355557" lat="62.0565638928" lon="9.92829443507">
		<tag k="name" v="Langranden" />
		<tag k="natural" v="ridge" />
		<tag k="place" v="locality" />
		<tag k="ssr:stedsnr" v="119759" />
	</node>
	<node id="-355553" lat="62.1456833343" lon="10.0015972253">
		<tag k="name" v="Kamferhaugen" />
		<tag k="natural" v="hill" />
		<tag k="place" v="locality" />
		<tag k="ssr:stedsnr" v="117604" />
	</node>
	<node id="-355551" lat="62.2080277793" lon="10.1427388907">
		<tag k="name" v="Kløftet" />
		<tag k="natural" v="slope" />
		<tag k="place" v="locality" />
		<tag k="ssr:stedsnr" v="117220" />
	</node>
	<node id="-355547" lat="62.1177305571" lon="10.0346416671">
		<tag k="name" v="Brattbakken" />
		<tag k="natural" v="slope" />
		<tag k="place" v="locality" />
		<tag k="ssr:stedsnr" v="117115" />
	</node>
	<node id="-355543" lat="62.2045166709" lon="10.375755562">
		<tag k="name" v="Haldogmoeggan" />
		<tag k="natural" v="slope" />
		<tag k="place" v="locality" />
		<tag k="ssr:stedsnr" v="113932" />
	</node>
	<node id="-355537" lat="62.293419447" lon="10.2481027735">
		<tag k="fixme" v="consider natural=peak for the most distinct mountains in the district" />
		<tag k="name" v="Rundhøa" />
		<tag k="natural" v="hill" />
		<tag k="place" v="locality" />
		<tag k="ssr:stedsnr" v="254900" />
	</node>
	<node id="-355533" lat="62.2747722249" lon="9.81671388181">
		<tag k="loc_name" v="Råtåsjønose" />
		<tag k="name" v="Råtåsjønosi" />
		<tag k="natural" v="hill" />
		<tag k="place" v="locality" />
		<tag k="ssr:stedsnr" v="254641" />
	</node>
	<node id="-355526" lat="62.1202999986" lon="9.86349167491">
		<tag k="fixme" v="consider natural=peak for the most distinct mountains in the district" />
		<tag k="name" v="Vardhøe" />
		<tag k="natural" v="hill" />
		<tag k="place" v="locality" />
		<tag k="ssr:stedsnr" v="253505" />
	</node>
	<node id="-355523" lat="62.2443000012" lon="10.3203361071">
		<tag k="alt_name" v="Bjørnkletten" />
		<tag k="fixme" v="consider natural=peak for the most distinct mountains in the district" />
		<tag k="name" v="Bjønnkletten" />
		<tag k="natural" v="hill" />
		<tag k="place" v="locality" />
		<tag k="ssr:stedsnr" v="253467" />
	</node>
	<node id="-355522" lat="62.0163305571" lon="10.0797222285">
		<tag k="name" v="Kvanndalen" />
		<tag k="natural" v="valley" />
		<tag k="place" v="locality" />
		<tag k="ssr:stedsnr" v="253459" />
	</node>
	<node id="-355518" lat="62.2084000004" lon="9.86847221771">
		<tag k="fixme" v="consider natural=peak for the most distinct mountains in the district" />
		<tag k="name" v="Sletthøtangen" />
		<tag k="natural" v="hill" />
		<tag k="place" v="locality" />
		<tag k="ssr:stedsnr" v="253411" />
	</node>
	<node id="-355517" lat="62.2155499967" lon="9.77753333795">
		<tag k="fixme" v="consider natural=peak for the most distinct mountains in the district" />
		<tag k="name" v="Rundtomholen" />
		<tag k="natural" v="hill" />
		<tag k="place" v="locality" />
		<tag k="ssr:stedsnr" v="253395" />
	</node>
	<node id="-355515" lat="62.240261111" lon="9.72317778252">
		<tag k="name" v="Grytlie" />
		<tag k="natural" v="slope" />
		<tag k="place" v="locality" />
		<tag k="ssr:stedsnr" v="253370" />
	</node>
	<node id="-355514" lat="62.151186109" lon="10.0629805485">
		<tag k="name" v="Rognhaugen" />
		<tag k="natural" v="hill" />
		<tag k="place" v="locality" />
		<tag k="ssr:stedsnr" v="253360" />
	</node>
	<node id="-355510" lat="62.1684222239" lon="10.1726749941">
		<tag k="alt_name" v="Kakelkletten" />
		<tag k="fixme" v="consider natural=peak for the most distinct mountains in the district" />
		<tag k="name" v="Kakellkletten" />
		<tag k="natural" v="hill" />
		<tag k="place" v="locality" />
		<tag k="ssr:stedsnr" v="253311" />
	</node>
	<node id="-355506" lat="62.1225999978" lon="10.2358583305">
		<tag k="fixme" v="consider natural=peak for the most distinct mountains in the district" />
		<tag k="name" v="Reinsliåsan" />
		<tag k="natural" v="hill" />
		<tag k="place" v="locality" />
		<tag k="ssr:stedsnr" v="253234" />
	</node>
	<node id="-355505" lat="62.2037333351" lon="10.2268916629">
		<tag k="alt_name" v="Gråvorda" />
		<tag k="fixme" v="consider natural=peak for the most distinct mountains in the district" />
		<tag k="name" v="Gråvola" />
		<tag k="natural" v="hill" />
		<tag k="place" v="locality" />
		<tag k="ssr:stedsnr" v="253144" />
	</node>
	<node id="-355501" lat="61.9597888875" lon="10.1594361035">
		<tag k="alt_name" v="Skjellåkinn" />
		<tag k="fixme" v="consider natural=peak for the most distinct mountains in the district" />
		<tag k="name" v="Skjellåkinna" />
		<tag k="natural" v="hill" />
		<tag k="place" v="locality" />
		<tag k="ssr:stedsnr" v="252568" />
	</node>
	<node id="-355498" lat="62.3992249974" lon="10.0072833408">
		<tag k="name" v="Medhøa" />
		<tag k="natural" v="hill" />
		<tag k="old_name" v="Mehø" />
		<tag k="place" v="locality" />
		<tag k="ssr:stedsnr" v="72721" />
	</node>
	<node id="-355497" lat="62.0853555544" lon="9.89801665953">
		<tag k="fixme" v="consider natural=peak for the most distinct mountains in the district" />
		<tag k="name" v="Streite" />
		<tag k="natural" v="hill" />
		<tag k="place" v="locality" />
		<tag k="ssr:stedsnr" v="71528" />
	</node>
	<node id="-355495" lat="62.0524222211" lon="10.0512333374">
		<tag k="fixme" v="consider natural=peak for the most distinct mountains in the district" />
		<tag k="name" v="Tangberget" />
		<tag k="natural" v="hill" />
		<tag k="place" v="locality" />
		<tag k="ssr:stedsnr" v="71424" />
	</node>
	<node id="-355493" lat="62.0820749989" lon="9.98743055059">
		<tag k="name" v="Bjørnbasket" />
		<tag k="place" v="locality" />
		<tag k="ssr:stedsnr" v="71413" />
	</node>
	<node id="-355491" lat="62.2003750543" lon="9.81338180044">
		<tag k="name" v="Furuhovde" />
		<tag k="natural" v="hill" />
		<tag k="place" v="locality" />
		<tag k="ssr:stedsnr" v="71409" />
	</node>
	<node id="-355487" lat="62.1996305574" lon="10.2678888984">
		<tag k="alt_name" v="Store Orrkletten" />
		<tag k="name" v="Orrkletten" />
		<tag k="natural" v="hill" />
		<tag k="place" v="locality" />
		<tag k="ssr:stedsnr" v="71114" />
	</node>
	<node id="-355486" lat="62.19441581" lon="10.2368277382">
		<tag k="fixme" v="multiple name tags, choose one and add the other to alt_name; consider natural=peak for the most distinct mountains in the district" />
		<tag k="name" v="Ryhaugkletten;Storkletten" />
		<tag k="natural" v="hill" />
		<tag k="place" v="locality" />
		<tag k="ssr:stedsnr" v="71108" />
	</node>
	<node id="-355484" lat="61.9377444436" lon="10.126455549">
		<tag k="name" v="Søre Hyrsdalen" />
		<tag k="natural" v="valley" />
		<tag k="place" v="locality" />
		<tag k="ssr:stedsnr" v="70610" />
	</node>
	<node id="-355483" lat="61.8906749975" lon="9.98096389635">
		<tag k="alt_name" v="Svulten, vesle;Veslesvulten" />
		<tag k="fixme" v="consider natural=peak for the most distinct mountains in the district" />
		<tag k="name" v="Veslsvulten" />
		<tag k="natural" v="hill" />
		<tag k="place" v="locality" />
		<tag k="ssr:stedsnr" v="70545" />
	</node>
	<node id="-355479" lat="62.1520777785" lon="10.1486999919">
		<tag k="name" v="Frankdalen" />
		<tag k="natural" v="valley" />
		<tag k="place" v="locality" />
		<tag k="ssr:stedsnr" v="240935" />
	</node>
	<node id="-355478" lat="62.1549277764" lon="10.15645278">
		<tag k="name" v="Kvassegga" />
		<tag k="natural" v="slope" />
		<tag k="place" v="locality" />
		<tag k="ssr:stedsnr" v="240934" />
	</node>
	<node id="-355477" lat="62.1626611139" lon="10.0998777766">
		<tag k="name" v="Hånesklettlia" />
		<tag k="natural" v="slope" />
		<tag k="place" v="locality" />
		<tag k="ssr:stedsnr" v="240596" />
	</node>
	<node id="-355475" lat="62.1578305578" lon="9.93028888654">
		<tag k="name" v="Ørnberget" />
		<tag k="natural" v="hill" />
		<tag k="place" v="locality" />
		<tag k="ssr:stedsnr" v="240591" />
	</node>
	<node id="-355474" lat="62.1871083366" lon="10.0620444427">
		<tag k="name" v="Langranden" />
		<tag k="natural" v="slope" />
		<tag k="place" v="locality" />
		<tag k="ssr:stedsnr" v="240588" />
	</node>
	<node id="-355470" lat="62.2291333351" lon="10.0170138858">
		<tag k="name" v="Dalhaugen" />
		<tag k="natural" v="hill" />
		<tag k="place" v="locality" />
		<tag k="ssr:stedsnr" v="240572" />
	</node>
	<node id="-355467" lat="62.0746472264" lon="9.96044443613">
		<tag k="name" v="Jehanshaugan" />
		<tag k="natural" v="hill" />
		<tag k="place" v="locality" />
		<tag k="ssr:stedsnr" v="240556" />
	</node>
	<node id="-355463" lat="62.2009361077" lon="10.2779333302">
		<tag k="name" v="Klemetbakken" />
		<tag k="natural" v="slope" />
		<tag k="place" v="locality" />
		<tag k="ssr:stedsnr" v="240430" />
	</node>
	<node id="-355462" lat="62.2148777799" lon="10.3069222293">
		<tag k="fixme" v="consider natural=peak for the most distinct mountains in the district" />
		<tag k="name" v="Nordkampen" />
		<tag k="natural" v="hill" />
		<tag k="place" v="locality" />
		<tag k="ssr:stedsnr" v="240411" />
	</node>
	<node id="-355460" lat="62.179688889" lon="10.28665278">
		<tag k="name" v="Skårhaugen" />
		<tag k="natural" v="hill" />
		<tag k="place" v="locality" />
		<tag k="ssr:stedsnr" v="240372" />
	</node>
	<node id="-355459" lat="62.1807222231" lon="10.2621583362">
		<tag k="name" v="Øvre Moen" />
		<tag k="place" v="locality" />
		<tag k="ssr:stedsnr" v="240365" />
	</node>
	<node id="-355457" lat="62.2968694434" lon="10.1261138978">
		<tag k="name" v="Østre Steindalen" />
		<tag k="natural" v="valley" />
		<tag k="place" v="locality" />
		<tag k="ssr:stedsnr" v="240219" />
	</node>
	<node id="-355456" lat="62.1496694468" lon="10.2446222252">
		<tag k="fixme" v="consider natural=peak for the most distinct mountains in the district" />
		<tag k="name" v="Geitryggskrabban" />
		<tag k="natural" v="hill" />
		<tag k="place" v="locality" />
		<tag k="ssr:stedsnr" v="240214" />
	</node>
	<node id="-355453" lat="62.0934138922" lon="10.0933694387">
		<tag k="name" v="Holengmoen" />
		<tag k="place" v="locality" />
		<tag k="ssr:stedsnr" v="240060" />
	</node>
	<node id="-355451" lat="62.3337472254" lon="10.002269437">
		<tag k="name" v="Langranden" />
		<tag k="natural" v="ridge" />
		<tag k="place" v="locality" />
		<tag k="ssr:stedsnr" v="239623" />
	</node>
	<node id="-355445" lat="62.1309805563" lon="10.1836166603">
		<tag k="name" v="Stormoegga" />
		<tag k="natural" v="slope" />
		<tag k="place" v="locality" />
		<tag k="ssr:stedsnr" v="238928" />
	</node>
	<node id="-355444" lat="62.3066694422" lon="9.84353334189">
		<tag k="name" v="Nebben" />
		<tag k="natural" v="hill" />
		<tag k="place" v="locality" />
		<tag k="ssr:stedsnr" v="58883" />
	</node>
	<node id="-355443" lat="62.3107805541" lon="9.84790555755">
		<tag k="name" v="Lohnasæterranden" />
		<tag k="natural" v="hill" />
		<tag k="place" v="locality" />
		<tag k="ssr:stedsnr" v="58880" />
	</node>
	<node id="-355440" lat="62.3708583302" lon="10.0181916579">
		<tag k="name" v="Heimfolkranden" />
		<tag k="natural" v="hill" />
		<tag k="place" v="locality" />
		<tag k="ssr:stedsnr" v="238660" />
	</node>
	<node id="-355439" lat="62.0940944417" lon="10.0812750005">
		<tag k="name" v="Fallbakkan" />
		<tag k="natural" v="slope" />
		<tag k="place" v="locality" />
		<tag k="ssr:stedsnr" v="58058" />
	</node>
	<node id="-355438" lat="62.1532444419" lon="9.9788611135">
		<tag k="name" v="Sæterhøgda" />
		<tag k="natural" v="hill" />
		<tag k="place" v="locality" />
		<tag k="ssr:stedsnr" v="238602" />
	</node>
	<node id="-355431" lat="62.19049444" lon="10.3023611205">
		<tag k="name" v="Kleva" />
		<tag k="natural" v="hill" />
		<tag k="place" v="locality" />
		<tag k="ssr:stedsnr" v="238321" />
	</node>
	<node id="-355430" lat="62.0421472227" lon="9.99263888673">
		<tag k="name" v="Pikothaugen" />
		<tag k="natural" v="hill" />
		<tag k="place" v="locality" />
		<tag k="ssr:stedsnr" v="238228" />
	</node>
	<node id="-355429" lat="62.0895722207" lon="10.1030194475">
		<tag k="name" v="Såtån" />
		<tag k="place" v="locality" />
		<tag k="ssr:stedsnr" v="238183" />
	</node>
	<node id="-355428" lat="62.0835416663" lon="10.03265833">
		<tag k="name" v="Beitkostholet" />
		<tag k="natural" v="valley" />
		<tag k="place" v="locality" />
		<tag k="ssr:stedsnr" v="238181" />
	</node>
	<node id="-355426" lat="62.1198111082" lon="10.0198972172">
		<tag k="name" v="Djupdalen" />
		<tag k="natural" v="valley" />
		<tag k="place" v="locality" />
		<tag k="ssr:stedsnr" v="238092" />
	</node>
	<node id="-355425" lat="62.1754277799" lon="10.155283333">
		<tag k="name" v="Kakelkjølen" />
		<tag k="natural" v="slope" />
		<tag k="place" v="locality" />
		<tag k="ssr:stedsnr" v="238050" />
	</node>
	<node id="-355424" lat="62.1655972191" lon="9.76589443788">
		<tag k="name" v="Hujohaugen" />
		<tag k="natural" v="hill" />
		<tag k="place" v="locality" />
		<tag k="ssr:stedsnr" v="56797" />
	</node>
	<node id="-355423" lat="62.2140027743" lon="9.83079166764">
		<tag k="name" v="Deplbakken" />
		<tag k="natural" v="slope" />
		<tag k="place" v="locality" />
		<tag k="ssr:stedsnr" v="56791" />
	</node>
	<node id="-355419" lat="62.2005972219" lon="10.3203361096">
		<tag k="name" v="Skredlia" />
		<tag k="natural" v="slope" />
		<tag k="place" v="locality" />
		<tag k="ssr:stedsnr" v="56325" />
	</node>
	<node id="-355417" lat="62.1929333304" lon="10.2900916622">
		<tag k="name" v="Veslevangdalen" />
		<tag k="natural" v="valley" />
		<tag k="place" v="locality" />
		<tag k="ssr:stedsnr" v="56317" />
	</node>
	<node id="-355415" lat="62.2003027784" lon="10.3777250032">
		<tag k="name" v="Haldomoen" />
		<tag k="place" v="locality" />
		<tag k="ssr:stedsnr" v="52953" />
	</node>
	<node id="-355413" lat="62.2032833307" lon="10.3606666589">
		<tag k="name" v="Skjeftdalen" />
		<tag k="natural" v="valley" />
		<tag k="place" v="locality" />
		<tag k="ssr:stedsnr" v="234953" />
	</node>
	<node id="-355408" lat="62.1788138922" lon="10.3240416612">
		<tag k="name" v="Lortholet" />
		<tag k="natural" v="valley" />
		<tag k="place" v="locality" />
		<tag k="ssr:stedsnr" v="234074" />
	</node>
	<node id="-355406" lat="62.2345666625" lon="10.3286166596">
		<tag k="name" v="Rundhaugen" />
		<tag k="natural" v="hill" />
		<tag k="place" v="locality" />
		<tag k="ssr:stedsnr" v="234069" />
	</node>
	<node id="-355405" lat="62.1620277772" lon="10.3097777757">
		<tag k="name" v="Midtlia" />
		<tag k="natural" v="slope" />
		<tag k="place" v="locality" />
		<tag k="ssr:stedsnr" v="234056" />
	</node>
	<node id="-355403" lat="62.1062250017" lon="10.2427750015">
		<tag k="name" v="Sagbekkdalen" />
		<tag k="natural" v="valley" />
		<tag k="place" v="locality" />
		<tag k="ssr:stedsnr" v="233913" />
	</node>
	<node id="-355396" lat="62.286766669" lon="10.3019749992">
		<tag k="name" v="Ulvdalen" />
		<tag k="natural" v="valley" />
		<tag k="place" v="locality" />
		<tag k="ssr:stedsnr" v="11903" />
	</node>
	<node id="-355387" lat="62.0088944465" lon="10.1418638895">
		<tag k="fixme" v="consider natural=peak for the most distinct mountains in the district" />
		<tag k="name" v="Kyrkjekletten" />
		<tag k="natural" v="hill" />
		<tag k="place" v="locality" />
		<tag k="ssr:stedsnr" v="11405" />
	</node>
	<node id="-357364" lat="61.9149163556" lon="9.85099878826">
		<tag k="fixme" v="consider natural=peak for the most distinct mountains in the district" />
		<tag k="loc_name" v="Rondeslottet" />
		<tag k="name" v="Rondslottet" />
		<tag k="natural" v="hill" />
		<tag k="place" v="locality" />
		<tag k="ssr:stedsnr" v="617663" />
	</node>
	<node id="-357348" lat="62.0186194487" lon="9.95456943536">
		<tag k="fixme" v="consider natural=peak for the most distinct mountains in the district" />
		<tag k="name" v="Langbrotkollen" />
		<tag k="natural" v="hill" />
		<tag k="place" v="locality" />
		<tag k="ssr:stedsnr" v="968733" />
	</node>
	<node id="-357344" lat="62.1700000008" lon="9.91972222091">
		<tag k="name" v="Larssvebakken" />
		<tag k="natural" v="slope" />
		<tag k="place" v="locality" />
		<tag k="ssr:stedsnr" v="968591" />
	</node>
	<node id="-357341" lat="61.9572583349" lon="10.0202416596">
		<tag k="name" v="Høghaugen" />
		<tag k="natural" v="hill" />
		<tag k="place" v="locality" />
		<tag k="ssr:stedsnr" v="968431" />
	</node>
	<node id="-357340" lat="61.9527638907" lon="10.020155551">
		<tag k="name" v="Veslesleutjønndalen" />
		<tag k="natural" v="valley" />
		<tag k="place" v="locality" />
		<tag k="ssr:stedsnr" v="968429" />
	</node>
	<node id="-357336" lat="62.1213888881" lon="10.1680944395">
		<tag k="name" v="Stoberget" />
		<tag k="natural" v="hill" />
		<tag k="place" v="locality" />
		<tag k="ssr:stedsnr" v="967925" />
	</node>
	<node id="-357332" lat="62.2007472242" lon="9.75683055099">
		<tag k="name" v="Brubekkdalen" />
		<tag k="natural" v="valley" />
		<tag k="place" v="locality" />
		<tag k="ssr:stedsnr" v="966801" />
	</node>
	<node id="-357331" lat="62.1895972215" lon="9.74739166088">
		<tag k="name" v="Torberdalen" />
		<tag k="natural" v="valley" />
		<tag k="place" v="locality" />
		<tag k="ssr:stedsnr" v="966789" />
	</node>
	<node id="-357329" lat="62.1810694438" lon="9.67207499295">
		<tag k="name" v="Astrupstøtta" />
		<tag k="place" v="locality" />
		<tag k="ssr:stedsnr" v="966978" />
	</node>
	<node id="-357325" lat="62.1981666635" lon="10.3049611109">
		<tag k="name" v="Stormælen" />
		<tag k="natural" v="slope" />
		<tag k="place" v="locality" />
		<tag k="ssr:stedsnr" v="966344" />
	</node>
	<node id="-357324" lat="62.188855556" lon="10.2945277846">
		<tag k="name" v="Storhåmmårn" />
		<tag k="natural" v="hill" />
		<tag k="place" v="locality" />
		<tag k="ssr:stedsnr" v="966336" />
	</node>
	<node id="-357307" lat="62.2536999966" lon="10.1555361075">
		<tag k="fixme" v="consider natural=peak for the most distinct mountains in the district" />
		<tag k="name" v="Stugulihøa" />
		<tag k="natural" v="hill" />
		<tag k="place" v="locality" />
		<tag k="ssr:stedsnr" v="861597" />
	</node>
	<node id="-357303" lat="62.3786305553" lon="10.0309000005">
		<tag k="fixme" v="consider natural=peak for the most distinct mountains in the district" />
		<tag k="name" v="Marsjøberget" />
		<tag k="natural" v="hill" />
		<tag k="place" v="locality" />
		<tag k="ssr:stedsnr" v="861653" />
	</node>
	<node id="-357300" lat="62.2751027742" lon="9.79439443918">
		<tag k="alt_name" v="Råtåsjøhø" />
		<tag k="fixme" v="consider natural=peak for the most distinct mountains in the district" />
		<tag k="loc_name" v="Råtåsjøhøe" />
		<tag k="name" v="Råtåsjøhøi" />
		<tag k="natural" v="hill" />
		<tag k="place" v="locality" />
		<tag k="ssr:stedsnr" v="861633" />
	</node>
	<node id="-357288" lat="62.1824361126" lon="10.0327000065">
		<tag k="fixme" v="consider natural=peak for the most distinct mountains in the district" />
		<tag k="name" v="Brennknatten" />
		<tag k="natural" v="hill" />
		<tag k="place" v="locality" />
		<tag k="ssr:stedsnr" v="860309" />
	</node>
	<node id="-357286" lat="62.0557059613" lon="9.99015538416">
		<tag k="fixme" v="multiple name tags, choose one and add the other to alt_name; consider natural=peak for the most distinct mountains in the district" />
		<tag k="name" v="Blæsterdalskollen;Kollen" />
		<tag k="natural" v="hill" />
		<tag k="place" v="locality" />
		<tag k="ssr:stedsnr" v="860446" />
	</node>
	<node id="-357285" lat="62.2359499967" lon="10.0863250086">
		<tag k="fixme" v="consider natural=peak for the most distinct mountains in the district" />
		<tag k="name" v="Fatfjellet" />
		<tag k="natural" v="hill" />
		<tag k="place" v="locality" />
		<tag k="ssr:stedsnr" v="860386" />
	</node>
	<node id="-357281" lat="62.1000861108" lon="10.1372333298">
		<tag k="fixme" v="consider natural=peak for the most distinct mountains in the district" />
		<tag k="name" v="Lokkåsen" />
		<tag k="natural" v="hill" />
		<tag k="place" v="locality" />
		<tag k="ssr:stedsnr" v="847950" />
	</node>
	<node id="-357274" lat="62.3205472245" lon="10.0910805496">
		<tag k="name" v="Skardet" />
		<tag k="natural" v="valley" />
		<tag k="place" v="locality" />
		<tag k="ssr:stedsnr" v="847687" />
	</node>
	<node id="-357269" lat="62.1485888904" lon="9.89790555105">
		<tag k="name" v="Dansarhaugen" />
		<tag k="natural" v="hill" />
		<tag k="place" v="locality" />
		<tag k="ssr:stedsnr" v="847561" />
	</node>
	<node id="-357264" lat="61.9506972194" lon="10.0337888952">
		<tag k="name" v="Endreruste" />
		<tag k="natural" v="slope" />
		<tag k="place" v="locality" />
		<tag k="ssr:stedsnr" v="847439" />
	</node>
	<node id="-357263" lat="62.2174777746" lon="10.3119611177">
		<tag k="name" v="Mjeltskaret" />
		<tag k="natural" v="valley" />
		<tag k="place" v="locality" />
		<tag k="ssr:stedsnr" v="847423" />
	</node>
	<node id="-357262" lat="62.219450002" lon="10.3426916696">
		<tag k="name" v="Skrabban" />
		<tag k="natural" v="slope" />
		<tag k="place" v="locality" />
		<tag k="ssr:stedsnr" v="847419" />
	</node>
	<node id="-357261" lat="62.2053777742" lon="10.2725638881">
		<tag k="name" v="Styggtjønnholet" />
		<tag k="natural" v="valley" />
		<tag k="place" v="locality" />
		<tag k="ssr:stedsnr" v="847417" />
	</node>
	<node id="-357260" lat="62.216466666" lon="10.3216055565">
		<tag k="fixme" v="consider natural=peak for the most distinct mountains in the district" />
		<tag k="name" v="Fallfjellet" />
		<tag k="natural" v="hill" />
		<tag k="ssr:stedsnr" v="847414" />
	</node>
	<node id="-357259" lat="62.192819445" lon="10.3370138886">
		<tag k="name" v="Sagegga" />
		<tag k="natural" v="hill" />
		<tag k="place" v="locality" />
		<tag k="ssr:stedsnr" v="847413" />
	</node>
	<node id="-357255" lat="62.1299083317" lon="10.0702083367">
		<tag k="name" v="Veslehovde" />
		<tag k="natural" v="hill" />
		<tag k="place" v="locality" />
		<tag k="ssr:stedsnr" v="847117" />
	</node>
	<node id="-357250" lat="62.208580558" lon="9.66581667197">
		<tag k="name" v="Veslehovde" />
		<tag k="natural" v="hill" />
		<tag k="place" v="locality" />
		<tag k="ssr:stedsnr" v="846996" />
	</node>
	<node id="-357248" lat="62.1830083353" lon="9.82404445232">
		<tag k="name" v="Uppehovda" />
		<tag k="natural" v="hill" />
		<tag k="place" v="locality" />
		<tag k="ssr:stedsnr" v="846762" />
	</node>
	<node id="-357246" lat="62.3392555549" lon="10.0180027775">
		<tag k="name" v="Baklia" />
		<tag k="natural" v="slope" />
		<tag k="place" v="locality" />
		<tag k="ssr:stedsnr" v="846613" />
	</node>
	<node id="-357245" lat="62.3351138856" lon="9.98579723065">
		<tag k="name" v="Steindalen" />
		<tag k="natural" v="valley" />
		<tag k="place" v="locality" />
		<tag k="ssr:stedsnr" v="846611" />
	</node>
	<node id="-357243" lat="62.1243194403" lon="9.87025832934">
		<tag k="fixme" v="consider natural=peak for the most distinct mountains in the district" />
		<tag k="name" v="Veslegåshovda" />
		<tag k="natural" v="hill" />
		<tag k="ssr:stedsnr" v="846546" />
	</node>
	<node id="-357241" lat="61.9312861146" lon="10.0282638934">
		<tag k="name" v="Stryplyu" />
		<tag k="place" v="locality" />
		<tag k="ssr:stedsnr" v="846385" />
	</node>
	<node id="-357240" lat="62.1925388888" lon="10.2790527786">
		<tag k="name" v="Kjørdalen" />
		<tag k="natural" v="valley" />
		<tag k="place" v="locality" />
		<tag k="ssr:stedsnr" v="846337" />
	</node>
	<node id="-357239" lat="62.1821638929" lon="10.3282805568">
		<tag k="name" v="Blæsterbakken" />
		<tag k="natural" v="slope" />
		<tag k="place" v="locality" />
		<tag k="ssr:stedsnr" v="846319" />
	</node>
	<node id="-357238" lat="62.1836138907" lon="10.3144361069">
		<tag k="name" v="Vesleåsen" />
		<tag k="natural" v="hill" />
		<tag k="place" v="locality" />
		<tag k="ssr:stedsnr" v="846317" />
	</node>
	<node id="-357234" lat="62.1654583325" lon="10.1401166762">
		<tag k="name" v="Storvinterhaugen" />
		<tag k="natural" v="hill" />
		<tag k="place" v="locality" />
		<tag k="ssr:stedsnr" v="846043" />
	</node>
	<node id="-357233" lat="62.185644442" lon="10.1102166695">
		<tag k="name" v="Falla" />
		<tag k="natural" v="slope" />
		<tag k="place" v="locality" />
		<tag k="ssr:stedsnr" v="846036" />
	</node>
	<node id="-357230" lat="62.1903249997" lon="9.69655000703">
		<tag k="name" v="Slåmælan" />
		<tag k="place" v="locality" />
		<tag k="ssr:stedsnr" v="845992" />
	</node>
	<node id="-357229" lat="62.1814527801" lon="9.72146388982">
		<tag k="name" v="Liamælan" />
		<tag k="natural" v="hill" />
		<tag k="place" v="locality" />
		<tag k="ssr:stedsnr" v="845988" />
	</node>
	<node id="-357227" lat="62.2083611147" lon="9.82734444225">
		<tag k="name" v="Dalholen-Setalsjølie" />
		<tag k="natural" v="slope" />
		<tag k="place" v="locality" />
		<tag k="ssr:stedsnr" v="845822" />
	</node>
	<node id="-357226" lat="62.2041888887" lon="9.75756665965">
		<tag k="name" v="Bruhaugen" />
		<tag k="natural" v="hill" />
		<tag k="place" v="locality" />
		<tag k="ssr:stedsnr" v="845814" />
	</node>
	<node id="-357224" lat="62.136030559" lon="10.0705166574">
		<tag k="name" v="Midthovde" />
		<tag k="natural" v="hill" />
		<tag k="place" v="locality" />
		<tag k="ssr:stedsnr" v="845665" />
	</node>
	<node id="-357221" lat="62.1418888933" lon="10.2021777866">
		<tag k="name" v="Flatåsen" />
		<tag k="natural" v="hill" />
		<tag k="place" v="locality" />
		<tag k="ssr:stedsnr" v="845132" />
	</node>
	<node id="-357220" lat="62.1494583326" lon="10.203541673">
		<tag k="name" v="Åsen" />
		<tag k="natural" v="hill" />
		<tag k="place" v="locality" />
		<tag k="ssr:stedsnr" v="845129" />
	</node>
	<node id="-357216" lat="62.2123861109" lon="10.3517749959">
		<tag k="name" v="Skrabban" />
		<tag k="natural" v="hill" />
		<tag k="place" v="locality" />
		<tag k="ssr:stedsnr" v="841929" />
	</node>
	<node id="-357213" lat="62.2761777763" lon="10.2526888803">
		<tag k="fixme" v="consider natural=peak for the most distinct mountains in the district" />
		<tag k="name" v="Kvitsteinhøa" />
		<tag k="natural" v="hill" />
		<tag k="place" v="locality" />
		<tag k="ssr:stedsnr" v="801869" />
	</node>
	<node id="-357210" lat="62.3349666661" lon="10.0725305638">
		<tag k="fixme" v="consider natural=peak for the most distinct mountains in the district" />
		<tag k="name" v="Ruphuskampen" />
		<tag k="natural" v="hill" />
		<tag k="place" v="locality" />
		<tag k="ssr:stedsnr" v="800685" />
	</node>
	<node id="-357207" lat="62.32050833" lon="9.87462777698">
		<tag k="name" v="Langsjøflya" />
		<tag k="natural" v="valley" />
		<tag k="place" v="locality" />
		<tag k="ssr:stedsnr" v="800660" />
	</node>
	<node id="-357206" lat="62.3195861154" lon="10.060405559">
		<tag k="alt_name" v="Kampen" />
		<tag k="name" v="Nedre Kampen" />
		<tag k="natural" v="hill" />
		<tag k="place" v="locality" />
		<tag k="ssr:stedsnr" v="800656" />
	</node>
	<node id="-357205" lat="62.2687055573" lon="9.91169166462">
		<tag k="name" v="Raudbergskardet" />
		<tag k="natural" v="valley" />
		<tag k="place" v="locality" />
		<tag k="ssr:stedsnr" v="800641" />
	</node>
	<node id="-357203" lat="62.1585333359" lon="10.0177972296">
		<tag k="fixme" v="consider natural=peak for the most distinct mountains in the district" />
		<tag k="name" v="Skrabban" />
		<tag k="natural" v="hill" />
		<tag k="place" v="locality" />
		<tag k="ssr:stedsnr" v="800290" />
	</node>
	<node id="-357201" lat="62.1031972267" lon="10.1247777767">
		<tag k="loc_name" v="Såtålie" />
		<tag k="name" v="Såtålia" />
		<tag k="natural" v="slope" />
		<tag k="place" v="locality" />
		<tag k="ssr:stedsnr" v="800475" />
	</node>
	<node id="-357196" lat="62.2200916655" lon="10.3216416706">
		<tag k="fixme" v="consider natural=peak for the most distinct mountains in the district" />
		<tag k="name" v="Einunnfjellet" />
		<tag k="natural" v="hill" />
		<tag k="place" v="locality" />
		<tag k="ssr:stedsnr" v="800079" />
	</node>
	<node id="-357194" lat="62.095016666" lon="9.86631111474">
		<tag k="fixme" v="consider natural=peak for the most distinct mountains in the district" />
		<tag k="name" v="Streitkampen" />
		<tag k="natural" v="hill" />
		<tag k="place" v="locality" />
		<tag k="ssr:stedsnr" v="799496" />
	</node>
	<node id="-357193" lat="61.9329916668" lon="9.91512499248">
		<tag k="fixme" v="consider natural=peak for the most distinct mountains in the district" />
		<tag k="name" v="Søre Oksle" />
		<tag k="natural" v="hill" />
		<tag k="place" v="locality" />
		<tag k="ssr:stedsnr" v="799681" />
	</node>
	<node id="-357191" lat="61.9485555577" lon="9.88432500541">
		<tag k="name" v="Midtbotn" />
		<tag k="natural" v="valley" />
		<tag k="place" v="locality" />
		<tag k="ssr:stedsnr" v="799657" />
	</node>
	<node id="-357189" lat="62.253033335" lon="10.0734944416">
		<tag k="fixme" v="consider natural=peak for the most distinct mountains in the district" />
		<tag k="name" v="Bjørnskardkampen" />
		<tag k="natural" v="hill" />
		<tag k="place" v="locality" />
		<tag k="ssr:stedsnr" v="799349" />
	</node>
	<node id="-357187" lat="62.1451027757" lon="10.1421611162">
		<tag k="fixme" v="consider natural=peak for the most distinct mountains in the district" />
		<tag k="name" v="Bukletten" />
		<tag k="natural" v="hill" />
		<tag k="place" v="locality" />
		<tag k="ssr:stedsnr" v="799326" />
	</node>
	<node id="-357180" lat="62.1864749999" lon="10.2054750038">
		<tag k="name" v="Snaukletten" />
		<tag k="natural" v="hill" />
		<tag k="place" v="locality" />
		<tag k="ssr:stedsnr" v="799284" />
	</node>
	<node id="-357179" lat="62.1875000034" lon="10.0183999913">
		<tag k="name" v="Brennknattskardet" />
		<tag k="natural" v="valley" />
		<tag k="place" v="locality" />
		<tag k="ssr:stedsnr" v="799281" />
	</node>
	<node id="-357178" lat="62.1901888853" lon="9.87149721475">
		<tag k="name" v="Tverrlie" />
		<tag k="natural" v="slope" />
		<tag k="place" v="locality" />
		<tag k="ssr:stedsnr" v="799279" />
	</node>
	<node id="-357175" lat="62.1735472257" lon="9.90231945142">
		<tag k="fixme" v="consider natural=peak for the most distinct mountains in the district" />
		<tag k="name" v="Øykjetjønnshovde" />
		<tag k="natural" v="hill" />
		<tag k="place" v="locality" />
		<tag k="ssr:stedsnr" v="799268" />
	</node>
	<node id="-357171" lat="62.1473027792" lon="10.1722249983">
		<tag k="name" v="Storsand" />
		<tag k="place" v="locality" />
		<tag k="ssr:stedsnr" v="786936" />
	</node>
	<node id="-357169" lat="62.2972361125" lon="10.0892361173">
		<tag k="name" v="Ossæterlia" />
		<tag k="natural" v="slope" />
		<tag k="place" v="locality" />
		<tag k="ssr:stedsnr" v="786740" />
	</node>
	<node id="-357163" lat="62.0917638857" lon="10.0279916691">
		<tag k="name" v="Martinkollen" />
		<tag k="natural" v="hill" />
		<tag k="place" v="locality" />
		<tag k="ssr:stedsnr" v="786551" />
	</node>
	<node id="-357160" lat="61.9345249997" lon="9.99511110859">
		<tag k="name" v="Veslemyldingsbakkan" />
		<tag k="natural" v="slope" />
		<tag k="place" v="locality" />
		<tag k="ssr:stedsnr" v="786437" />
	</node>
	<node id="-357158" lat="62.2546138865" lon="10.2258333309">
		<tag k="fixme" v="consider natural=peak for the most distinct mountains in the district" />
		<tag k="name" v="Midliåsen" />
		<tag k="natural" v="hill" />
		<tag k="place" v="locality" />
		<tag k="ssr:stedsnr" v="786310" />
	</node>
	<node id="-357156" lat="61.9992805554" lon="10.0306305525">
		<tag k="name" v="Småhaugan" />
		<tag k="natural" v="hill" />
		<tag k="place" v="locality" />
		<tag k="ssr:stedsnr" v="786260" />
	</node>
	<node id="-357155" lat="61.9901999969" lon="10.0304166575">
		<tag k="name" v="Styggmælen" />
		<tag k="natural" v="hill" />
		<tag k="place" v="locality" />
		<tag k="ssr:stedsnr" v="786258" />
	</node>
	<node id="-357153" lat="62.0610749977" lon="10.0013083423">
		<tag k="name" v="Storurde" />
		<tag k="place" v="locality" />
		<tag k="ssr:stedsnr" v="786244" />
	</node>
	<node id="-357152" lat="62.0568805575" lon="10.0563611028">
		<tag k="name" v="Flattangen" />
		<tag k="place" v="locality" />
		<tag k="ssr:stedsnr" v="786242" />
	</node>
	<node id="-357150" lat="62.1052166662" lon="10.0173638817">
		<tag k="name" v="Tvillinghaugan" />
		<tag k="natural" v="hill" />
		<tag k="place" v="locality" />
		<tag k="ssr:stedsnr" v="786041" />
	</node>
	<node id="-357149" lat="62.1020583358" lon="10.0998361024">
		<tag k="name" v="Langry" />
		<tag k="place" v="locality" />
		<tag k="ssr:stedsnr" v="786002" />
	</node>
	<node id="-357147" lat="62.3317972212" lon="9.97993332817">
		<tag k="name" v="Tælet" />
		<tag k="place" v="locality" />
		<tag k="ssr:stedsnr" v="785776" />
	</node>
	<node id="-357146" lat="62.3082944489" lon="9.85950834079">
		<tag k="name" v="Storflyranden" />
		<tag k="place" v="locality" />
		<tag k="ssr:stedsnr" v="785774" />
	</node>
	<node id="-357145" lat="62.1805027771" lon="9.75054444976">
		<tag k="name" v="Tjyruskjellslette" />
		<tag k="place" v="locality" />
		<tag k="ssr:stedsnr" v="785768" />
	</node>
	<node id="-357144" lat="62.1160166628" lon="9.86436110699">
		<tag k="name" v="Vardhølie" />
		<tag k="natural" v="slope" />
		<tag k="place" v="locality" />
		<tag k="ssr:stedsnr" v="785516" />
	</node>
	<node id="-357142" lat="62.1718472225" lon="10.2234083261">
		<tag k="name" v="Brennøya" />
		<tag k="place" v="locality" />
		<tag k="ssr:stedsnr" v="785022" />
	</node>
	<node id="-357140" lat="62.1851166641" lon="9.62801666961">
		<tag k="name" v="Storhøarmen" />
		<tag k="natural" v="ridge" />
		<tag k="place" v="locality" />
		<tag k="ssr:stedsnr" v="784996" />
	</node>
	<node id="-357137" lat="62.1369555552" lon="10.0689638831">
		<tag k="name" v="Ulvdalen" />
		<tag k="natural" v="valley" />
		<tag k="place" v="locality" />
		<tag k="ssr:stedsnr" v="784646" />
	</node>
	<node id="-357134" lat="61.9666666666" lon="10.0369166625">
		<tag k="name" v="Kubekkteppa" />
		<tag k="place" v="locality" />
		<tag k="ssr:stedsnr" v="784478" />
	</node>
	<node id="-357132" lat="62.1977500016" lon="10.2950361071">
		<tag k="name" v="Yttermoen" />
		<tag k="place" v="locality" />
		<tag k="ssr:stedsnr" v="784354" />
	</node>
	<node id="-357130" lat="62.0839916653" lon="10.070177776">
		<tag k="name" v="Fallbakkan" />
		<tag k="natural" v="slope" />
		<tag k="place" v="locality" />
		<tag k="ssr:stedsnr" v="784196" />
	</node>
	<node id="-357127" lat="62.1173277798" lon="10.0275805567">
		<tag k="name" v="Sanddalen" />
		<tag k="natural" v="valley" />
		<tag k="place" v="locality" />
		<tag k="ssr:stedsnr" v="784106" />
	</node>
	<node id="-357125" lat="62.1173750002" lon="10.0195138976">
		<tag k="name" v="Moan" />
		<tag k="place" v="locality" />
		<tag k="ssr:stedsnr" v="784095" />
	</node>
	<node id="-357124" lat="62.2748805581" lon="10.3256250012">
		<tag k="name" v="Haukhåmmåren" />
		<tag k="natural" v="hill" />
		<tag k="place" v="locality" />
		<tag k="ssr:stedsnr" v="781126" />
	</node>
	<node id="-357123" lat="62.2028527791" lon="10.356905548">
		<tag k="name" v="Vetlmoen" />
		<tag k="place" v="locality" />
		<tag k="ssr:stedsnr" v="780912" />
	</node>
	<node id="-357119" lat="62.1642611102" lon="9.7313138919">
		<tag k="name" v="Benken" />
		<tag k="place" v="locality" />
		<tag k="ssr:stedsnr" v="750807" />
	</node>
	<node id="-357118" lat="62.1634027748" lon="9.72018055425">
		<tag k="name" v="Høglikollen" />
		<tag k="natural" v="hill" />
		<tag k="place" v="locality" />
		<tag k="ssr:stedsnr" v="750806" />
	</node>
	<node id="-357117" lat="62.2812944464" lon="10.2359249944">
		<tag k="fixme" v="consider natural=peak for the most distinct mountains in the district" />
		<tag k="name" v="Digerkampen" />
		<tag k="natural" v="hill" />
		<tag k="place" v="locality" />
		<tag k="ssr:stedsnr" v="740887" />
	</node>
	<node id="-357116" lat="62.3897916623" lon="10.075591674">
		<tag k="name" v="Sandtjørnskardet" />
		<tag k="natural" v="valley" />
		<tag k="place" v="locality" />
		<tag k="ssr:stedsnr" v="740691" />
	</node>
	<node id="-357113" lat="61.9090527777" lon="9.86804999058">
		<tag k="name" v="Storbotn" />
		<tag k="natural" v="valley" />
		<tag k="place" v="locality" />
		<tag k="ssr:stedsnr" v="739724" />
	</node>
	<node id="-357111" lat="62.3509861084" lon="10.0007972167">
		<tag k="fixme" v="consider natural=peak for the most distinct mountains in the district" />
		<tag k="name" v="Vesleberget" />
		<tag k="natural" v="hill" />
		<tag k="place" v="locality" />
		<tag k="ssr:stedsnr" v="739701" />
	</node>
	<node id="-357105" lat="62.0133666625" lon="9.83878332456">
		<tag k="alt_name" v="Ellankollen" />
		<tag k="fixme" v="consider natural=peak for the most distinct mountains in the district" />
		<tag k="name" v="Ellandkollen" />
		<tag k="natural" v="hill" />
		<tag k="place" v="locality" />
		<tag k="ssr:stedsnr" v="739402" />
	</node>
	<node id="-357103" lat="62.3787888922" lon="10.0045499985">
		<tag k="name" v="Nosa" />
		<tag k="natural" v="hill" />
		<tag k="place" v="locality" />
		<tag k="ssr:stedsnr" v="739685" />
	</node>
	<node id="-357102" lat="62.3070555579" lon="9.88230556354">
		<tag k="alt_name" v="Fonnhøa" />
		<tag k="fixme" v="consider natural=peak for the most distinct mountains in the district" />
		<tag k="loc_name" v="Fundhøe" />
		<tag k="name" v="Fundhøi" />
		<tag k="natural" v="hill" />
		<tag k="place" v="locality" />
		<tag k="ssr:stedsnr" v="739677" />
	</node>
	<node id="-357099" lat="62.1132749964" lon="9.94019721355">
		<tag k="name" v="Ljosmyrdalen" />
		<tag k="natural" v="valley" />
		<tag k="place" v="locality" />
		<tag k="ssr:stedsnr" v="739488" />
	</node>
	<node id="-357092" lat="62.1856527736" lon="10.3018666716">
		<tag k="fixme" v="consider natural=peak for the most distinct mountains in the district" />
		<tag k="name" v="Rundknausen" />
		<tag k="natural" v="hill" />
		<tag k="place" v="locality" />
		<tag k="ssr:stedsnr" v="739021" />
	</node>
	<node id="-357091" lat="61.9329833327" lon="9.92603611857">
		<tag k="name" v="Myldingsbotn" />
		<tag k="natural" v="valley" />
		<tag k="place" v="locality" />
		<tag k="ssr:stedsnr" v="738643" />
	</node>
	<node id="-357089" lat="61.9157027736" lon="9.9787777775">
		<tag k="fixme" v="consider natural=peak for the most distinct mountains in the district" />
		<tag k="name" v="Veslkollhøe" />
		<tag k="natural" v="hill" />
		<tag k="place" v="locality" />
		<tag k="ssr:stedsnr" v="738613" />
	</node>
	<node id="-357083" lat="62.0767750002" lon="10.1607944371">
		<tag k="name" v="Vesldøltjønnsløgde" />
		<tag k="place" v="locality" />
		<tag k="ssr:stedsnr" v="738375" />
	</node>
	<node id="-357082" lat="62.2005527785" lon="9.85500000705">
		<tag k="fixme" v="consider natural=peak for the most distinct mountains in the district" />
		<tag k="name" v="Nigardshøe" />
		<tag k="natural" v="hill" />
		<tag k="place" v="locality" />
		<tag k="ssr:stedsnr" v="738374" />
	</node>
	<node id="-357081" lat="62.2073896745" lon="9.85162124135">
		<tag k="fixme" v="consider natural=peak for the most distinct mountains in the district" />
		<tag k="name" v="Vardhøe" />
		<tag k="natural" v="hill" />
		<tag k="place" v="locality" />
		<tag k="ssr:stedsnr" v="738354" />
	</node>
	<node id="-357079" lat="62.2307750034" lon="9.86394722019">
		<tag k="fixme" v="consider natural=peak for the most distinct mountains in the district" />
		<tag k="name" v="Knartan" />
		<tag k="natural" v="hill" />
		<tag k="place" v="locality" />
		<tag k="ssr:stedsnr" v="738350" />
	</node>
	<node id="-357078" lat="62.2166888909" lon="10.1865444535">
		<tag k="fixme" v="consider natural=peak for the most distinct mountains in the district" />
		<tag k="name" v="Slettfjellet" />
		<tag k="natural" v="hill" />
		<tag k="place" v="locality" />
		<tag k="ssr:stedsnr" v="738345" />
	</node>
	<node id="-357076" lat="62.1406166687" lon="10.003444451">
		<tag k="name" v="Gruvskrabben" />
		<tag k="natural" v="slope" />
		<tag k="place" v="locality" />
		<tag k="ssr:stedsnr" v="738318" />
	</node>
	<node id="-357071" lat="62.1686861112" lon="9.73950555516">
		<tag k="fixme" v="multiple name tags, choose one and add the other to alt_name" />
		<tag k="name" v="Grårandhovda;Skrabbehovda" />
		<tag k="natural" v="hill" />
		<tag k="place" v="locality" />
		<tag k="ssr:stedsnr" v="628790" />
	</node>
	<node id="-357069" lat="62.3811861132" lon="9.9963194507">
		<tag k="fixme" v="consider natural=peak for the most distinct mountains in the district" />
		<tag k="name" v="Setalberget" />
		<tag k="natural" v="hill" />
		<tag k="old_name" v="Settalberget" />
		<tag k="place" v="locality" />
		<tag k="ssr:stedsnr" v="618669" />
	</node>
	<node id="-357067" lat="62.2794861109" lon="9.80745555792">
		<tag k="name" v="Røven" />
		<tag k="place" v="locality" />
		<tag k="ssr:stedsnr" v="618648" />
	</node>
	<node id="-357065" lat="62.2624499985" lon="10.2421805474">
		<tag k="fixme" v="consider natural=peak for the most distinct mountains in the district" />
		<tag k="name" v="Gråsteinhøa" />
		<tag k="natural" v="hill" />
		<tag k="place" v="locality" />
		<tag k="ssr:stedsnr" v="618011" />
	</node>
	<node id="-357064" lat="62.1800138881" lon="9.99805277881">
		<tag k="fixme" v="consider natural=peak for the most distinct mountains in the district" />
		<tag k="name" v="Gråhøe" />
		<tag k="natural" v="hill" />
		<tag k="place" v="locality" />
		<tag k="ssr:stedsnr" v="617706" />
	</node>
	<node id="-357062" lat="61.9232166646" lon="9.88300833867">
		<tag k="name" v="Langglupdalen" />
		<tag k="natural" v="valley" />
		<tag k="place" v="locality" />
		<tag k="ssr:stedsnr" v="617665" />
	</node>
	<node id="-357061" lat="61.9453583314" lon="9.92829999164">
		<tag k="fixme" v="consider natural=peak for the most distinct mountains in the district" />
		<tag k="name" v="Storsvulten" />
		<tag k="natural" v="hill" />
		<tag k="place" v="locality" />
		<tag k="ssr:stedsnr" v="617658" />
	</node>
	<node id="-357060" lat="61.9980472196" lon="10.0954222293">
		<tag k="name" v="Stodsbukvølve" />
		<tag k="natural" v="valley" />
		<tag k="place" v="locality" />
		<tag k="ssr:stedsnr" v="617544" />
	</node>
	<node id="-357059" lat="61.9811111075" lon="10.0629416607">
		<tag k="fixme" v="consider natural=peak for the most distinct mountains in the district" />
		<tag k="name" v="Sleukampen" />
		<tag k="natural" v="hill" />
		<tag k="place" v="locality" />
		<tag k="ssr:stedsnr" v="617542" />
	</node>
	<node id="-357058" lat="62.2516111126" lon="9.6427499944">
		<tag k="name" v="Kvitdalen" />
		<tag k="natural" v="valley" />
		<tag k="place" v="locality" />
		<tag k="ssr:stedsnr" v="617523" />
	</node>
	<node id="-357053" lat="62.1118111141" lon="10.1076222257">
		<tag k="name" v="Grimsmoen" />
		<tag k="place" v="locality" />
		<tag k="ssr:stedsnr" v="617499" />
	</node>
	<node id="-357047" lat="62.1980666656" lon="9.77814444453">
		<tag k="alt_name" v="Deplflyan" />
		<tag k="name" v="Deplflyin" />
		<tag k="old_name" v="Depleflyin;Depflyin" />
		<tag k="place" v="locality" />
		<tag k="ssr:stedsnr" v="617395" />
	</node>
	<node id="-357045" lat="62.2471583314" lon="10.1011194442">
		<tag k="fixme" v="consider natural=peak for the most distinct mountains in the district" />
		<tag k="name" v="Skardhøa" />
		<tag k="natural" v="hill" />
		<tag k="old_name" v="Skardhø" />
		<tag k="place" v="locality" />
		<tag k="ssr:stedsnr" v="617351" />
	</node>
	<node id="-357043" lat="62.1496277752" lon="10.1116222206">
		<tag k="fixme" v="consider natural=peak for the most distinct mountains in the district" />
		<tag k="name" v="Geitryggen" />
		<tag k="natural" v="hill" />
		<tag k="old_name" v="Geiteryggen" />
		<tag k="place" v="locality" />
		<tag k="ssr:stedsnr" v="617333" />
	</node>
	<node id="-357042" lat="62.1557472223" lon="9.75638610698">
		<tag k="alt_name" v="Nysæterhovda" />
		<tag k="fixme" v="consider natural=peak for the most distinct mountains in the district" />
		<tag k="name" v="Hovda" />
		<tag k="natural" v="hill" />
		<tag k="place" v="locality" />
		<tag k="ssr:stedsnr" v="617305" />
	</node>
	<node id="-357041" lat="62.1136249959" lon="10.2434805597">
		<tag k="fixme" v="consider natural=peak for the most distinct mountains in the district" />
		<tag k="name" v="Åsan" />
		<tag k="natural" v="hill" />
		<tag k="place" v="locality" />
		<tag k="ssr:stedsnr" v="617275" />
	</node>
	<node id="-357031" lat="62.3312222245" lon="9.93693889017">
		<tag k="name" v="Underjordshaugen" />
		<tag k="natural" v="hill" />
		<tag k="place" v="locality" />
		<tag k="ssr:stedsnr" v="604879" />
	</node>
	<node id="-357028" lat="62.0051833299" lon="9.97164723059">
		<tag k="name" v="Storfonne" />
		<tag k="natural" v="slope" />
		<tag k="place" v="locality" />
		<tag k="ssr:stedsnr" v="604701" />
	</node>
	<node id="-357026" lat="62.0090194474" lon="9.98258611999">
		<tag k="name" v="Slettbakkan" />
		<tag k="natural" v="slope" />
		<tag k="place" v="locality" />
		<tag k="ssr:stedsnr" v="604694" />
	</node>
	<node id="-357022" lat="62.0686972251" lon="9.94123611272">
		<tag k="name" v="Storbakken" />
		<tag k="natural" v="slope" />
		<tag k="place" v="locality" />
		<tag k="ssr:stedsnr" v="604526" />
	</node>
	<node id="-357020" lat="62.1557083357" lon="9.95351667187">
		<tag k="name" v="Gammelsæterskaret" />
		<tag k="natural" v="valley" />
		<tag k="place" v="locality" />
		<tag k="ssr:stedsnr" v="604582" />
	</node>
	<node id="-357018" lat="62.2361444477" lon="10.0574527835">
		<tag k="name" v="Baklia" />
		<tag k="natural" v="slope" />
		<tag k="place" v="locality" />
		<tag k="ssr:stedsnr" v="604567" />
	</node>
	<node id="-357017" lat="62.2230527745" lon="10.023000002">
		<tag k="name" v="Strypbakken" />
		<tag k="natural" v="slope" />
		<tag k="place" v="locality" />
		<tag k="ssr:stedsnr" v="604564" />
	</node>
	<node id="-357016" lat="62.0527222179" lon="10.0916666734">
		<tag k="name" v="Ruphusøye" />
		<tag k="place" v="locality" />
		<tag k="ssr:stedsnr" v="604262" />
	</node>
	<node id="-357015" lat="62.2707722224" lon="10.1844749988">
		<tag k="name" v="Lokkarhaugen" />
		<tag k="natural" v="hill" />
		<tag k="place" v="locality" />
		<tag k="ssr:stedsnr" v="604184" />
	</node>
	<node id="-357012" lat="61.9887750009" lon="10.0310972307">
		<tag k="name" v="Stormælen" />
		<tag k="natural" v="hill" />
		<tag k="place" v="locality" />
		<tag k="ssr:stedsnr" v="603240" />
	</node>
	<node id="-357011" lat="62.120127781" lon="10.1599555581">
		<tag k="name" v="Stoa" />
		<tag k="place" v="locality" />
		<tag k="ssr:stedsnr" v="602934" />
	</node>
	<node id="-357009" lat="62.1583555558" lon="9.77502500075">
		<tag k="name" v="Taraldhaugen" />
		<tag k="natural" v="hill" />
		<tag k="place" v="locality" />
		<tag k="ssr:stedsnr" v="602801" />
	</node>
	<node id="-357008" lat="62.1766611153" lon="9.70292499523">
		<tag k="name" v="Liaåsen" />
		<tag k="natural" v="hill" />
		<tag k="place" v="locality" />
		<tag k="ssr:stedsnr" v="602981" />
	</node>
	<node id="-357007" lat="62.19676111" lon="9.71008611817">
		<tag k="name" v="Kvennsletta" />
		<tag k="place" v="locality" />
		<tag k="ssr:stedsnr" v="602979" />
	</node>
	<node id="-357003" lat="62.1924131848" lon="9.8573444451">
		<tag k="name" v="Storskarhovda" />
		<tag k="natural" v="hill" />
		<tag k="place" v="locality" />
		<tag k="ssr:stedsnr" v="602779" />
	</node>
	<node id="-356999" lat="62.196330558" lon="10.3211805618">
		<tag k="name" v="Veslemælen" />
		<tag k="natural" v="slope" />
		<tag k="place" v="locality" />
		<tag k="ssr:stedsnr" v="602338" />
	</node>
	<node id="-356998" lat="62.1951361095" lon="10.2975694445">
		<tag k="name" v="Gammelvangdalen" />
		<tag k="natural" v="valley" />
		<tag k="place" v="locality" />
		<tag k="ssr:stedsnr" v="602333" />
	</node>
	<node id="-356997" lat="62.1928416668" lon="10.3037111161">
		<tag k="name" v="Sagmoan" />
		<tag k="place" v="locality" />
		<tag k="ssr:stedsnr" v="602330" />
	</node>
	<node id="-356990" lat="62.1843861097" lon="10.1220888951">
		<tag k="name" v="Fallbakkan" />
		<tag k="natural" v="slope" />
		<tag k="place" v="locality" />
		<tag k="ssr:stedsnr" v="602053" />
	</node>
	<node id="-356989" lat="62.0655250008" lon="10.0259333288">
		<tag k="name" v="Bruruste" />
		<tag k="place" v="locality" />
		<tag k="ssr:stedsnr" v="602254" />
	</node>
	<node id="-356986" lat="62.080019444" lon="9.98490000841">
		<tag k="name" v="Blæsterburuste" />
		<tag k="natural" v="slope" />
		<tag k="place" v="locality" />
		<tag k="ssr:stedsnr" v="602176" />
	</node>
	<node id="-356983" lat="62.2488388908" lon="10.3035111159">
		<tag k="name" v="Einunnbakkan" />
		<tag k="natural" v="slope" />
		<tag k="place" v="locality" />
		<tag k="ssr:stedsnr" v="598077" />
	</node>
	<node id="-356981" lat="62.1607527788" lon="10.2890166611">
		<tag k="alt_name" v="Vesle Grønnvola" />
		<tag k="name" v="Veslegrønnvola" />
		<tag k="natural" v="hill" />
		<tag k="place" v="locality" />
		<tag k="ssr:stedsnr" v="598066" />
	</node>
	<node id="-356980" lat="62.168569443" lon="10.3065027843">
		<tag k="name" v="Langlia" />
		<tag k="natural" v="slope" />
		<tag k="place" v="locality" />
		<tag k="ssr:stedsnr" v="598062" />
	</node>
	<node id="-356975" lat="62.1885555542" lon="9.73003054637">
		<tag k="name" v="Holan" />
		<tag k="natural" v="hill" />
		<tag k="place" v="locality" />
		<tag k="ssr:stedsnr" v="568810" />
	</node>
	<node id="-356974" lat="62.1705166631" lon="9.73379166273">
		<tag k="name" v="Grårandan" />
		<tag k="natural" v="ridge" />
		<tag k="place" v="locality" />
		<tag k="ssr:stedsnr" v="568808" />
	</node>
	<node id="-356973" lat="62.1740305543" lon="9.74731666642">
		<tag k="alt_name" v="Storlii" />
		<tag k="name" v="Storlie" />
		<tag k="natural" v="slope" />
		<tag k="place" v="locality" />
		<tag k="ssr:stedsnr" v="568807" />
	</node>
	<node id="-356971" lat="62.2926527801" lon="10.2782055486">
		<tag k="name" v="Djupdalen" />
		<tag k="natural" v="valley" />
		<tag k="place" v="locality" />
		<tag k="ssr:stedsnr" v="557894" />
	</node>
	<node id="-356969" lat="62.1599111135" lon="9.62114721447">
		<tag k="fixme" v="consider natural=peak for the most distinct mountains in the district" />
		<tag k="name" v="Veslskardhøe" />
		<tag k="natural" v="hill" />
		<tag k="place" v="locality" />
		<tag k="ssr:stedsnr" v="557664" />
	</node>
	<node id="-356966" lat="62.2599583305" lon="9.89285277297">
		<tag k="alt_name" v="Steinhø" />
		<tag k="fixme" v="consider natural=peak for the most distinct mountains in the district" />
		<tag k="loc_name" v="Steinhøe" />
		<tag k="name" v="Steinhøi" />
		<tag k="natural" v="hill" />
		<tag k="place" v="locality" />
		<tag k="ssr:stedsnr" v="557594" />
	</node>
	<node id="-356964" lat="61.9717916666" lon="9.73972500517">
		<tag k="name" v="Dørålen" />
		<tag k="natural" v="valley" />
		<tag k="place" v="locality" />
		<tag k="ssr:stedsnr" v="556650" />
	</node>
	<node id="-356963" lat="62.2003472257" lon="10.1646777862">
		<tag k="name" v="Langlia" />
		<tag k="natural" v="slope" />
		<tag k="place" v="locality" />
		<tag k="ssr:stedsnr" v="556429" />
	</node>
	<node id="-356961" lat="62.2473138879" lon="9.73730834048">
		<tag k="name" v="Grytskardet" />
		<tag k="natural" v="valley" />
		<tag k="place" v="locality" />
		<tag k="ssr:stedsnr" v="556389" />
	</node>
	<node id="-356958" lat="62.0969972211" lon="10.1927611038">
		<tag k="fixme" v="consider natural=peak for the most distinct mountains in the district" />
		<tag k="name" v="Raudkletten" />
		<tag k="natural" v="hill" />
		<tag k="place" v="locality" />
		<tag k="ssr:stedsnr" v="556534" />
	</node>
	<node id="-356957" lat="62.0815777749" lon="10.1713166743">
		<tag k="name" v="Skardtjønnsløgde" />
		<tag k="place" v="locality" />
		<tag k="ssr:stedsnr" v="556532" />
	</node>
	<node id="-356956" lat="62.1359083346" lon="10.1337777832">
		<tag k="name" v="Geitrygglia" />
		<tag k="natural" v="slope" />
		<tag k="place" v="locality" />
		<tag k="ssr:stedsnr" v="556485" />
	</node>
	<node id="-356950" lat="61.9300916706" lon="10.0679749971">
		<tag k="alt_name" v="Fremre Strømbukampen" />
		<tag k="fixme" v="consider natural=peak for the most distinct mountains in the district" />
		<tag k="name" v="Straumbukampen" />
		<tag k="natural" v="hill" />
		<tag k="place" v="locality" />
		<tag k="ssr:stedsnr" v="555583" />
	</node>
	<node id="-356945" lat="62.1486749991" lon="10.1768972242">
		<tag k="name" v="Veslesand" />
		<tag k="place" v="locality" />
		<tag k="ssr:stedsnr" v="543917" />
	</node>
	<node id="-356944" lat="62.2012611143" lon="10.0813305598">
		<tag k="name" v="Brattegga" />
		<tag k="natural" v="hill" />
		<tag k="place" v="locality" />
		<tag k="ssr:stedsnr" v="543580" />
	</node>
	<node id="-356943" lat="62.1675361081" lon="10.0001000006">
		<tag k="name" v="Appelsinhaugen" />
		<tag k="natural" v="hill" />
		<tag k="place" v="locality" />
		<tag k="ssr:stedsnr" v="543562" />
	</node>
	<node id="-356932" lat="61.9879611073" lon="9.9866638875">
		<tag k="name" v="Tverrgjelslie" />
		<tag k="natural" v="slope" />
		<tag k="place" v="locality" />
		<tag k="ssr:stedsnr" v="543282" />
	</node>
	<node id="-356928" lat="62.1051472218" lon="10.0866527866">
		<tag k="name" v="Rupholet" />
		<tag k="natural" v="valley" />
		<tag k="place" v="locality" />
		<tag k="ssr:stedsnr" v="543058" />
	</node>
	<node id="-356927" lat="62.1047749973" lon="10.0837500068">
		<tag k="name" v="Brattbakken" />
		<tag k="natural" v="slope" />
		<tag k="place" v="locality" />
		<tag k="ssr:stedsnr" v="543057" />
	</node>
	<node id="-356925" lat="62.2934666691" lon="10.1068138841">
		<tag k="name" v="Øvre Svennhaugan" />
		<tag k="natural" v="hill" />
		<tag k="place" v="locality" />
		<tag k="ssr:stedsnr" v="543225" />
	</node>
	<node id="-356924" lat="62.1750222182" lon="10.2589250088">
		<tag k="name" v="Ryskarmoen" />
		<tag k="place" v="locality" />
		<tag k="ssr:stedsnr" v="543214" />
	</node>
	<node id="-356923" lat="62.1123583315" lon="10.1584138869">
		<tag k="name" v="Raudklettlia" />
		<tag k="natural" v="slope" />
		<tag k="place" v="locality" />
		<tag k="ssr:stedsnr" v="542946" />
	</node>
	<node id="-356920" lat="62.1117083294" lon="10.0380527731">
		<tag k="name" v="Svarvamælen" />
		<tag k="natural" v="slope" />
		<tag k="place" v="locality" />
		<tag k="ssr:stedsnr" v="543043" />
	</node>
	<node id="-356917" lat="62.1936916708" lon="9.83999443993">
		<tag k="name" v="Stålhovda" />
		<tag k="natural" v="hill" />
		<tag k="place" v="locality" />
		<tag k="ssr:stedsnr" v="542774" />
	</node>
	<node id="-356909" lat="62.1828027752" lon="9.6384111076">
		<tag k="name" v="Rundhaugen" />
		<tag k="natural" v="hill" />
		<tag k="place" v="locality" />
		<tag k="ssr:stedsnr" v="541995" />
	</node>
	<node id="-356908" lat="61.9674166688" lon="10.0237638825">
		<tag k="name" v="Djupdalen" />
		<tag k="natural" v="valley" />
		<tag k="place" v="locality" />
		<tag k="ssr:stedsnr" v="541469" />
	</node>
	<node id="-356904" lat="62.2845777773" lon="10.3312388953">
		<tag k="name" v="Sæterrabban" />
		<tag k="natural" v="hill" />
		<tag k="place" v="locality" />
		<tag k="ssr:stedsnr" v="538110" />
	</node>
	<node id="-356903" lat="62.0996527755" lon="10.2310666665">
		<tag k="name" v="Rauklettlia" />
		<tag k="natural" v="slope" />
		<tag k="place" v="locality" />
		<tag k="ssr:stedsnr" v="537886" />
	</node>
	<node id="-356901" lat="62.3904361073" lon="10.1662333303">
		<tag k="fixme" v="consider natural=peak for the most distinct mountains in the district" />
		<tag k="name" v="Bjørntangen" />
		<tag k="natural" v="hill" />
		<tag k="place" v="locality" />
		<tag k="ssr:stedsnr" v="437699" />
	</node>
	<node id="-356898" lat="62.3186055599" lon="9.84235000034">
		<tag k="name" v="Flåman" />
		<tag k="place" v="locality" />
		<tag k="ssr:stedsnr" v="436641" />
	</node>
	<node id="-356894" lat="62.1061666712" lon="9.90495555079">
		<tag k="name" v="Nygruvhøgde" />
		<tag k="natural" v="hill" />
		<tag k="place" v="locality" />
		<tag k="ssr:stedsnr" v="436466" />
	</node>
	<node id="-356893" lat="62.1162999983" lon="9.84638610837">
		<tag k="alt_name" v="Lurvothovda" />
		<tag k="fixme" v="consider natural=peak for the most distinct mountains in the district" />
		<tag k="name" v="Lurven" />
		<tag k="natural" v="hill" />
		<tag k="place" v="locality" />
		<tag k="ssr:stedsnr" v="436462" />
	</node>
	<node id="-356889" lat="62.2207194478" lon="10.0609777715">
		<tag k="name" v="Veslhøe" />
		<tag k="natural" v="hill" />
		<tag k="place" v="locality" />
		<tag k="ssr:stedsnr" v="435381" />
	</node>
	<node id="-356888" lat="62.203400001" lon="10.0679250043">
		<tag k="name" v="Kakelldalen" />
		<tag k="natural" v="valley" />
		<tag k="place" v="locality" />
		<tag k="ssr:stedsnr" v="435380" />
	</node>
	<node id="-356887" lat="62.2225638881" lon="9.7976111198">
		<tag k="name" v="Tunglie" />
		<tag k="natural" v="slope" />
		<tag k="place" v="locality" />
		<tag k="ssr:stedsnr" v="435373" />
	</node>
	<node id="-356886" lat="62.2435305516" lon="9.95982500888">
		<tag k="fixme" v="consider natural=peak for the most distinct mountains in the district" />
		<tag k="name" v="Grønbakkhøe" />
		<tag k="natural" v="hill" />
		<tag k="place" v="locality" />
		<tag k="ssr:stedsnr" v="435358" />
	</node>
	<node id="-356885" lat="62.2439055598" lon="10.184175002">
		<tag k="fixme" v="consider natural=peak for the most distinct mountains in the district" />
		<tag k="name" v="Veslkneppet" />
		<tag k="natural" v="hill" />
		<tag k="place" v="locality" />
		<tag k="ssr:stedsnr" v="435352" />
	</node>
	<node id="-356884" lat="62.1674277808" lon="10.0932944531">
		<tag k="fixme" v="consider natural=peak for the most distinct mountains in the district" />
		<tag k="name" v="Håneskletten" />
		<tag k="natural" v="hill" />
		<tag k="place" v="locality" />
		<tag k="ssr:stedsnr" v="435301" />
	</node>
	<node id="-356878" lat="62.213584327" lon="10.2717880703">
		<tag k="fixme" v="consider natural=peak for the most distinct mountains in the district" />
		<tag k="name" v="Svartåsen" />
		<tag k="natural" v="hill" />
		<tag k="place" v="locality" />
		<tag k="ssr:stedsnr" v="435091" />
	</node>
	<node id="-356876" lat="62.1778194457" lon="9.78225833795">
		<tag k="name" v="Frisvollhovda" />
		<tag k="natural" v="hill" />
		<tag k="old_name" v="Frisvollhovde" />
		<tag k="place" v="locality" />
		<tag k="ssr:stedsnr" v="435280" />
	</node>
	<node id="-356875" lat="62.1734722202" lon="9.96423612021">
		<tag k="fixme" v="consider natural=peak for the most distinct mountains in the district" />
		<tag k="name" v="Storhøtangen" />
		<tag k="natural" v="hill" />
		<tag k="place" v="locality" />
		<tag k="ssr:stedsnr" v="435277" />
	</node>
	<node id="-356867" lat="62.1037166639" lon="10.1386777845">
		<tag k="name" v="Berget" />
		<tag k="natural" v="hill" />
		<tag k="place" v="locality" />
		<tag k="ssr:stedsnr" v="422953" />
	</node>
	<node id="-356862" lat="62.1966138909" lon="10.0664277851">
		<tag k="name" v="Leirbekkbakken" />
		<tag k="natural" v="slope" />
		<tag k="place" v="locality" />
		<tag k="ssr:stedsnr" v="422582" />
	</node>
	<node id="-356860" lat="62.1439083358" lon="9.92948055279">
		<tag k="name" v="Gråhaugen" />
		<tag k="natural" v="hill" />
		<tag k="place" v="locality" />
		<tag k="ssr:stedsnr" v="422570" />
	</node>
	<node id="-356859" lat="62.1494638846" lon="9.95850833128">
		<tag k="name" v="Orrkollen" />
		<tag k="natural" v="hill" />
		<tag k="place" v="locality" />
		<tag k="ssr:stedsnr" v="422569" />
	</node>
	<node id="-356856" lat="62.0887499978" lon="9.96290555025">
		<tag k="name" v="Nedre Berget" />
		<tag k="natural" v="hill" />
		<tag k="place" v="locality" />
		<tag k="ssr:stedsnr" v="422544" />
	</node>
	<node id="-356851" lat="62.0102055559" lon="9.99811943887">
		<tag k="name" v="Spranget" />
		<tag k="natural" v="gorge" />
		<tag k="ssr:stedsnr" v="422369" />
	</node>
	<node id="-356850" lat="62.2114083348" lon="10.3131777788">
		<tag k="fixme" v="consider natural=peak for the most distinct mountains in the district" />
		<tag k="name" v="Sørkampen" />
		<tag k="natural" v="hill" />
		<tag k="place" v="locality" />
		<tag k="ssr:stedsnr" v="422368" />
	</node>
	<node id="-356847" lat="62.0652055541" lon="9.98648333299">
		<tag k="name" v="Omulsoddin" />
		<tag k="place" v="locality" />
		<tag k="ssr:stedsnr" v="422227" />
	</node>
	<node id="-356845" lat="62.1677138866" lon="10.2857111132">
		<tag k="name" v="Måsålassknausen" />
		<tag k="natural" v="hill" />
		<tag k="place" v="locality" />
		<tag k="ssr:stedsnr" v="422172" />
	</node>
	<node id="-356840" lat="62.1973666643" lon="9.81864167264">
		<tag k="name" v="Tytinghovda" />
		<tag k="natural" v="hill" />
		<tag k="place" v="locality" />
		<tag k="ssr:stedsnr" v="421783" />
	</node>
	<node id="-356837" lat="62.1436055582" lon="9.96508055518">
		<tag k="name" v="Huslie" />
		<tag k="natural" v="slope" />
		<tag k="place" v="locality" />
		<tag k="ssr:stedsnr" v="421567" />
	</node>
	<node id="-356835" lat="62.0231055568" lon="9.985627776">
		<tag k="name" v="Langranden" />
		<tag k="natural" v="slope" />
		<tag k="place" v="locality" />
		<tag k="ssr:stedsnr" v="421357" />
	</node>
	<node id="-356832" lat="62.113930555" lon="9.95691110444">
		<tag k="name" v="Kollen" />
		<tag k="natural" v="hill" />
		<tag k="place" v="locality" />
		<tag k="ssr:stedsnr" v="421540" />
	</node>
	<node id="-356830" lat="62.0828944481" lon="10.0287888946">
		<tag k="fixme" v="consider natural=peak for the most distinct mountains in the district" />
		<tag k="name" v="Øvre Holberget" />
		<tag k="natural" v="hill" />
		<tag k="place" v="locality" />
		<tag k="ssr:stedsnr" v="421169" />
	</node>
	<node id="-356828" lat="62.1956638847" lon="9.61903055807">
		<tag k="name" v="Mælan" />
		<tag k="place" v="locality" />
		<tag k="ssr:stedsnr" v="420992" />
	</node>
	<node id="-356826" lat="62.1825277807" lon="9.72995277986">
		<tag k="name" v="Kjellflyan" />
		<tag k="place" v="locality" />
		<tag k="ssr:stedsnr" v="420973" />
	</node>
	<node id="-356822" lat="62.1503805546" lon="9.81029722204">
		<tag k="name" v="Bjørkeslette" />
		<tag k="place" v="locality" />
		<tag k="ssr:stedsnr" v="420687" />
	</node>
	<node id="-356821" lat="62.3635416665" lon="10.0121805567">
		<tag k="name" v="Rundhaugen" />
		<tag k="natural" v="hill" />
		<tag k="place" v="locality" />
		<tag k="ssr:stedsnr" v="420681" />
	</node>
	<node id="-356818" lat="62.2407555517" lon="10.315166676">
		<tag k="name" v="Bjønnklettskaret" />
		<tag k="natural" v="valley" />
		<tag k="place" v="locality" />
		<tag k="ssr:stedsnr" v="416083" />
	</node>
	<node id="-356816" lat="62.1584166692" lon="10.3207999955">
		<tag k="name" v="Haugan" />
		<tag k="natural" v="hill" />
		<tag k="place" v="locality" />
		<tag k="ssr:stedsnr" v="416064" />
	</node>
	<node id="-356810" lat="62.3868666707" lon="10.1150416732">
		<tag k="alt_name" v="Høggia" />
		<tag k="fixme" v="consider natural=peak for the most distinct mountains in the district" />
		<tag k="name" v="Høg-Gia" />
		<tag k="natural" v="hill" />
		<tag k="place" v="locality" />
		<tag k="ssr:stedsnr" v="376719" />
	</node>
	<node id="-356808" lat="62.1356027808" lon="9.68201944353">
		<tag k="fixme" v="consider natural=peak for the most distinct mountains in the district" />
		<tag k="name" v="Veslkollen" />
		<tag k="natural" v="hill" />
		<tag k="old_name" v="Veslfjellet" />
		<tag k="place" v="locality" />
		<tag k="ssr:stedsnr" v="375647" />
	</node>
	<node id="-356807" lat="62.3064999993" lon="10.2136000024">
		<tag k="fixme" v="consider natural=peak for the most distinct mountains in the district" />
		<tag k="name" v="Storhøa" />
		<tag k="natural" v="hill" />
		<tag k="place" v="locality" />
		<tag k="ssr:stedsnr" v="375625" />
	</node>
	<node id="-356805" lat="62.1735333359" lon="9.66923333273">
		<tag k="fixme" v="consider natural=peak for the most distinct mountains in the district" />
		<tag k="name" v="Hardbakken" />
		<tag k="natural" v="hill" />
		<tag k="place" v="locality" />
		<tag k="ssr:stedsnr" v="375686" />
	</node>
	<node id="-356800" lat="62.1214611151" lon="9.95172221488">
		<tag k="fixme" v="consider natural=peak for the most distinct mountains in the district" />
		<tag k="name" v="Knutshovda" />
		<tag k="natural" v="hill" />
		<tag k="place" v="locality" />
		<tag k="ssr:stedsnr" v="375428" />
	</node>
	<node id="-356793" lat="61.9363500009" lon="10.0730111061">
		<tag k="alt_name" v="Kampen, indre;Strømbukampen" />
		<tag k="fixme" v="consider natural=peak for the most distinct mountains in the district" />
		<tag k="name" v="Straumbukampen" />
		<tag k="natural" v="hill" />
		<tag k="place" v="locality" />
		<tag k="ssr:stedsnr" v="373640" />
	</node>
	<node id="-356791" lat="62.1020972233" lon="10.1592361138">
		<tag k="name" v="Døltjønndalen" />
		<tag k="natural" v="valley" />
		<tag k="place" v="locality" />
		<tag k="ssr:stedsnr" v="361966" />
	</node>
	<node id="-356790" lat="62.3233972246" lon="9.94833055385">
		<tag k="name" v="Bruranden" />
		<tag k="place" v="locality" />
		<tag k="ssr:stedsnr" v="361895" />
	</node>
	<node id="-356788" lat="62.1538527773" lon="10.1478416712">
		<tag k="name" v="Kvitmældalen" />
		<tag k="natural" v="valley" />
		<tag k="place" v="locality" />
		<tag k="ssr:stedsnr" v="361938" />
	</node>
	<node id="-356787" lat="62.2635583371" lon="10.009086116">
		<tag k="name" v="Storslågån" />
		<tag k="natural" v="slope" />
		<tag k="place" v="locality" />
		<tag k="ssr:stedsnr" v="361736" />
	</node>
	<node id="-356784" lat="62.326766666" lon="10.0216722162">
		<tag k="name" v="Meltangen" />
		<tag k="natural" v="hill" />
		<tag k="place" v="locality" />
		<tag k="ssr:stedsnr" v="361727" />
	</node>
	<node id="-356783" lat="62.0127750042" lon="9.9685388864">
		<tag k="name" v="Kollberget" />
		<tag k="natural" v="hill" />
		<tag k="place" v="locality" />
		<tag k="ssr:stedsnr" v="361693" />
	</node>
	<node id="-356781" lat="62.1094138912" lon="9.97416943622">
		<tag k="name" v="Høghaugen" />
		<tag k="natural" v="hill" />
		<tag k="place" v="locality" />
		<tag k="ssr:stedsnr" v="361573" />
	</node>
	<node id="-356775" lat="62.2895083357" lon="10.1254499971">
		<tag k="name" v="Hærradalen" />
		<tag k="natural" v="valley" />
		<tag k="place" v="locality" />
		<tag k="ssr:stedsnr" v="361209" />
	</node>
	<node id="-356772" lat="62.1244361102" lon="10.2792249966">
		<tag k="name" v="Storskaret" />
		<tag k="natural" v="valley" />
		<tag k="place" v="locality" />
		<tag k="ssr:stedsnr" v="361201" />
	</node>
	<node id="-356767" lat="62.1088583314" lon="10.1176999993">
		<tag k="name" v="Langegga" />
		<tag k="natural" v="slope" />
		<tag k="place" v="locality" />
		<tag k="ssr:stedsnr" v="360942" />
	</node>
	<node id="-356766" lat="62.1315499969" lon="10.1488361166">
		<tag k="name" v="Roald" />
		<tag k="natural" v="valley" />
		<tag k="place" v="locality" />
		<tag k="ssr:stedsnr" v="360936" />
	</node>
	<node id="-356762" lat="62.0139805517" lon="9.99085000428">
		<tag k="name" v="Storsandmælen" />
		<tag k="place" v="locality" />
		<tag k="ssr:stedsnr" v="360347" />
	</node>
	<node id="-356758" lat="62.1577388847" lon="10.1568027829">
		<tag k="name" v="Tømmerdalen" />
		<tag k="natural" v="valley" />
		<tag k="place" v="locality" />
		<tag k="ssr:stedsnr" v="360028" />
	</node>
	<node id="-356756" lat="62.2003861113" lon="9.77367222557">
		<tag k="name" v="Rundtomflyan" />
		<tag k="place" v="locality" />
		<tag k="ssr:stedsnr" v="359768" />
	</node>
	<node id="-356751" lat="62.2051138927" lon="10.3669277751">
		<tag k="name" v="Stormoen" />
		<tag k="place" v="locality" />
		<tag k="ssr:stedsnr" v="355929" />
	</node>
	<node id="-356745" lat="62.2284194458" lon="10.3164083344">
		<tag k="name" v="Småskara" />
		<tag k="natural" v="valley" />
		<tag k="place" v="locality" />
		<tag k="ssr:stedsnr" v="355072" />
	</node>
	<node id="-356739" lat="62.2634916698" lon="10.2548972265">
		<tag k="name" v="Kvanndalen" />
		<tag k="natural" v="valley" />
		<tag k="place" v="locality" />
		<tag k="ssr:stedsnr" v="315019" />
	</node>
	<node id="-356738" lat="61.9922611124" lon="9.86812499618">
		<tag k="name" v="Neverbudalen" />
		<tag k="natural" v="valley" />
		<tag k="place" v="locality" />
		<tag k="ssr:stedsnr" v="314690" />
	</node>
	<node id="-356733" lat="62.2116000017" lon="10.1777055588">
		<tag k="fixme" v="consider natural=peak for the most distinct mountains in the district" />
		<tag k="name" v="Slettfjellkampen" />
		<tag k="natural" v="hill" />
		<tag k="place" v="locality" />
		<tag k="ssr:stedsnr" v="314390" />
	</node>
	<node id="-356731" lat="62.2239777752" lon="10.1937333332">
		<tag k="alt_name" v="Bjørnhøa" />
		<tag k="fixme" v="consider natural=peak for the most distinct mountains in the district" />
		<tag k="name" v="Bjønnhøa" />
		<tag k="natural" v="hill" />
		<tag k="place" v="locality" />
		<tag k="ssr:stedsnr" v="314375" />
	</node>
	<node id="-356726" lat="62.0257972245" lon="9.99772499416">
		<tag k="fixme" v="consider natural=peak for the most distinct mountains in the district" />
		<tag k="name" v="Åsen" />
		<tag k="natural" v="hill" />
		<tag k="place" v="locality" />
		<tag k="ssr:stedsnr" v="314435" />
	</node>
	<node id="-356725" lat="62.2429027742" lon="9.85236666367">
		<tag k="name" v="Malmtektkvølve" />
		<tag k="natural" v="valley" />
		<tag k="place" v="locality" />
		<tag k="ssr:stedsnr" v="314347" />
	</node>
	<node id="-356724" lat="62.2486250027" lon="10.1444499964">
		<tag k="fixme" v="consider natural=peak for the most distinct mountains in the district" />
		<tag k="name" v="Stugulikampen" />
		<tag k="natural" v="hill" />
		<tag k="place" v="locality" />
		<tag k="ssr:stedsnr" v="314342" />
	</node>
	<node id="-356720" lat="61.929338893" lon="10.0888638956">
		<tag k="alt_name" v="Veslehøi;Veslhøi" />
		<tag k="fixme" v="consider natural=peak for the most distinct mountains in the district" />
		<tag k="name" v="Veslehøe" />
		<tag k="natural" v="hill" />
		<tag k="place" v="locality" />
		<tag k="ssr:stedsnr" v="313632" />
	</node>
	<node id="-356716" lat="62.0479027816" lon="9.97797223069">
		<tag k="name" v="Mannkollen" />
		<tag k="natural" v="hill" />
		<tag k="place" v="locality" />
		<tag k="ssr:stedsnr" v="301749" />
	</node>
	<node id="-356715" lat="62.049324999" lon="9.96065832982">
		<tag k="name" v="Slågån" />
		<tag k="place" v="locality" />
		<tag k="ssr:stedsnr" v="301747" />
	</node>
	<node id="-356714" lat="62.1940583299" lon="10.0760666631">
		<tag k="name" v="Lauvhaugan" />
		<tag k="natural" v="hill" />
		<tag k="place" v="locality" />
		<tag k="ssr:stedsnr" v="301582" />
	</node>
	<node id="-356712" lat="62.1477222222" lon="9.90166945356">
		<tag k="name" v="Ystehaugen" />
		<tag k="natural" v="hill" />
		<tag k="place" v="locality" />
		<tag k="ssr:stedsnr" v="301563" />
	</node>
	<node id="-356709" lat="62.0817194443" lon="9.92247221444">
		<tag k="fixme" v="consider natural=peak for the most distinct mountains in the district" />
		<tag k="name" v="Lurven" />
		<tag k="natural" v="hill" />
		<tag k="place" v="locality" />
		<tag k="ssr:stedsnr" v="301541" />
	</node>
	<node id="-356705" lat="62.1887083292" lon="10.2680305522">
		<tag k="name" v="Dalen" />
		<tag k="natural" v="valley" />
		<tag k="place" v="locality" />
		<tag k="ssr:stedsnr" v="301336" />
	</node>
	<node id="-356704" lat="62.2048416675" lon="10.265500008">
		<tag k="name" v="Kolvet" />
		<tag k="natural" v="valley" />
		<tag k="place" v="locality" />
		<tag k="ssr:stedsnr" v="301251" />
	</node>
	<node id="-356700" lat="62.0987722221" lon="10.0777888834">
		<tag k="fixme" v="consider natural=peak for the most distinct mountains in the district" />
		<tag k="name" v="Holberget" />
		<tag k="natural" v="hill" />
		<tag k="place" v="locality" />
		<tag k="ssr:stedsnr" v="301047" />
	</node>
	<node id="-356699" lat="62.1087777747" lon="10.0667722277">
		<tag k="name" v="Kjørdalen" />
		<tag k="natural" v="valley" />
		<tag k="place" v="locality" />
		<tag k="ssr:stedsnr" v="301043" />
	</node>
	<node id="-356698" lat="62.0926138924" lon="10.0473666597">
		<tag k="name" v="Kleberberget" />
		<tag k="natural" v="hill" />
		<tag k="place" v="locality" />
		<tag k="ssr:stedsnr" v="301039" />
	</node>
	<node id="-356692" lat="62.1233722207" lon="10.1086722287">
		<tag k="name" v="Myra" />
		<tag k="place" v="locality" />
		<tag k="ssr:stedsnr" v="200256" />
	</node>
	<node id="-356690" lat="62.2561277787" lon="9.84422500457">
		<tag k="fixme" v="consider natural=peak for the most distinct mountains in the district" />
		<tag k="loc_name" v="Steinhønose" />
		<tag k="name" v="Steinhønosi" />
		<tag k="natural" v="hill" />
		<tag k="place" v="locality" />
		<tag k="ssr:stedsnr" v="194592" />
	</node>
	<node id="-356685" lat="62.3109777817" lon="10.1437083248">
		<tag k="fixme" v="consider natural=peak for the most distinct mountains in the district" />
		<tag k="name" v="Tostenkollen" />
		<tag k="natural" v="hill" />
		<tag k="place" v="locality" />
		<tag k="ssr:stedsnr" v="193696" />
	</node>
	<node id="-356684" lat="62.3419666635" lon="10.1919499954">
		<tag k="name" v="Tronga" />
		<tag k="natural" v="valley" />
		<tag k="place" v="locality" />
		<tag k="ssr:stedsnr" v="193682" />
	</node>
	<node id="-356674" lat="62.1576555571" lon="9.95552499175">
		<tag k="name" v="Veslhøin" />
		<tag k="natural" v="hill" />
		<tag k="place" v="locality" />
		<tag k="ssr:stedsnr" v="193292" />
	</node>
	<node id="-356673" lat="62.1634027818" lon="10.0476638851">
		<tag k="name" v="Grønhølie" />
		<tag k="natural" v="slope" />
		<tag k="place" v="locality" />
		<tag k="ssr:stedsnr" v="193289" />
	</node>
	<node id="-356671" lat="62.2309916638" lon="10.2546249995">
		<tag k="fixme" v="consider natural=peak for the most distinct mountains in the district" />
		<tag k="name" v="Skarvåsen" />
		<tag k="natural" v="hill" />
		<tag k="place" v="locality" />
		<tag k="ssr:stedsnr" v="193087" />
	</node>
	<node id="-356670" lat="62.1534750001" lon="10.3033861064">
		<tag k="fixme" v="consider natural=peak for the most distinct mountains in the district" />
		<tag k="name" v="Midtåsen" />
		<tag k="natural" v="hill" />
		<tag k="place" v="locality" />
		<tag k="ssr:stedsnr" v="193063" />
	</node>
	<node id="-356669" lat="62.1576055517" lon="10.2950083424">
		<tag k="alt_name" v="Grønvorda" />
		<tag k="fixme" v="consider natural=peak for the most distinct mountains in the district" />
		<tag k="name" v="Grønvola" />
		<tag k="natural" v="hill" />
		<tag k="place" v="locality" />
		<tag k="ssr:stedsnr" v="193061" />
	</node>
	<node id="-356665" lat="62.0867908147" lon="10.220424156">
		<tag k="fixme" v="consider natural=peak for the most distinct mountains in the district" />
		<tag k="name" v="Høgkletten" />
		<tag k="natural" v="hill" />
		<tag k="place" v="locality" />
		<tag k="ssr:stedsnr" v="192525" />
	</node>
	<node id="-356656" lat="62.21039444" lon="9.87317778248">
		<tag k="name" v="Storskardet" />
		<tag k="natural" v="valley" />
		<tag k="old_name" v="Sletthøskardet" />
		<tag k="place" v="locality" />
		<tag k="ssr:stedsnr" v="192381" />
	</node>
	<node id="-356653" lat="62.2313472195" lon="9.7440499932">
		<tag k="fixme" v="consider natural=peak for the most distinct mountains in the district" />
		<tag k="name" v="Hovda" />
		<tag k="natural" v="hill" />
		<tag k="place" v="locality" />
		<tag k="ssr:stedsnr" v="192364" />
	</node>
	<node id="-356652" lat="62.0311833325" lon="9.96246666052">
		<tag k="name" v="Gjelan" />
		<tag k="natural" v="gorge" />
		<tag k="ssr:stedsnr" v="188768" />
	</node>
	<node id="-356648" lat="62.0929583325" lon="10.1580444383">
		<tag k="name" v="Skarvhø" />
		<tag k="natural" v="hill" />
		<tag k="place" v="locality" />
		<tag k="ssr:stedsnr" v="179963" />
	</node>
	<node id="-356646" lat="62.0539944442" lon="9.97247221561">
		<tag k="name" v="Veslebekkollen" />
		<tag k="natural" v="hill" />
		<tag k="place" v="locality" />
		<tag k="ssr:stedsnr" v="179733" />
	</node>
	<node id="-356644" lat="62.1400833331" lon="9.86732499644">
		<tag k="name" v="Høghaugen" />
		<tag k="natural" v="hill" />
		<tag k="place" v="locality" />
		<tag k="ssr:stedsnr" v="179532" />
	</node>
	<node id="-356643" lat="62.309777777" lon="9.85117500699">
		<tag k="name" v="Sliperranden" />
		<tag k="natural" v="hill" />
		<tag k="place" v="locality" />
		<tag k="ssr:stedsnr" v="179881" />
	</node>
	<node id="-356642" lat="62.2086805519" lon="10.0696833326">
		<tag k="name" v="Svehaugen" />
		<tag k="natural" v="hill" />
		<tag k="place" v="locality" />
		<tag k="ssr:stedsnr" v="179584" />
	</node>
	<node id="-356639" lat="62.1586444438" lon="9.8871194367">
		<tag k="name" v="Askarshovda" />
		<tag k="natural" v="hill" />
		<tag k="place" v="locality" />
		<tag k="ssr:stedsnr" v="179563" />
	</node>
	<node id="-356637" lat="61.9448111129" lon="10.0267749939">
		<tag k="name" v="Kjerrdalen" />
		<tag k="natural" v="valley" />
		<tag k="place" v="locality" />
		<tag k="ssr:stedsnr" v="179400" />
	</node>
	<node id="-356635" lat="62.2104999961" lon="10.3350027773">
		<tag k="name" v="Storrøsthøa" />
		<tag k="natural" v="hill" />
		<tag k="place" v="locality" />
		<tag k="ssr:stedsnr" v="179381" />
	</node>
	<node id="-356634" lat="62.2910194473" lon="10.1053416735">
		<tag k="name" v="Nedre Svennhaugan" />
		<tag k="natural" v="hill" />
		<tag k="place" v="locality" />
		<tag k="ssr:stedsnr" v="179197" />
	</node>
	<node id="-356631" lat="62.2957055556" lon="10.1841083339">
		<tag k="name" v="Klemetkvolvet" />
		<tag k="natural" v="valley" />
		<tag k="place" v="locality" />
		<tag k="ssr:stedsnr" v="179173" />
	</node>
	<node id="-356629" lat="62.2846222179" lon="10.1582194435">
		<tag k="name" v="Ryhauglia" />
		<tag k="natural" v="slope" />
		<tag k="place" v="locality" />
		<tag k="ssr:stedsnr" v="179150" />
	</node>
	<node id="-356628" lat="62.1210416703" lon="10.0834861074">
		<tag k="name" v="Brandsnesegga" />
		<tag k="natural" v="slope" />
		<tag k="place" v="locality" />
		<tag k="ssr:stedsnr" v="179032" />
	</node>
	<node id="-356626" lat="62.1284555592" lon="10.1879361134">
		<tag k="name" v="Stormoen" />
		<tag k="place" v="locality" />
		<tag k="ssr:stedsnr" v="178922" />
	</node>
	<node id="-356625" lat="62.1324722241" lon="10.1294611106">
		<tag k="name" v="Foldshaugen" />
		<tag k="natural" v="hill" />
		<tag k="place" v="locality" />
		<tag k="ssr:stedsnr" v="178912" />
	</node>
	<node id="-356624" lat="62.1325194408" lon="9.88785556351">
		<tag k="name" v="Flathovda" />
		<tag k="natural" v="hill" />
		<tag k="place" v="locality" />
		<tag k="ssr:stedsnr" v="178538" />
	</node>
	<node id="-356623" lat="62.1936138875" lon="10.2837833282">
		<tag k="name" v="Fetta" />
		<tag k="place" v="locality" />
		<tag k="ssr:stedsnr" v="178298" />
	</node>
	<node id="-356617" lat="62.0483861098" lon="9.99965833459">
		<tag k="name" v="Djupholet" />
		<tag k="natural" v="valley" />
		<tag k="place" v="locality" />
		<tag k="ssr:stedsnr" v="177209" />
	</node>
	<node id="-356612" lat="62.1518166644" lon="10.1842833266">
		<tag k="name" v="Moan" />
		<tag k="place" v="locality" />
		<tag k="ssr:stedsnr" v="177115" />
	</node>
	<node id="-356608" lat="62.28011667" lon="10.3239972299">
		<tag k="name" v="Kvitmåssårabben" />
		<tag k="natural" v="slope" />
		<tag k="place" v="locality" />
		<tag k="ssr:stedsnr" v="174120" />
	</node>
	<node id="-356606" lat="62.2289805585" lon="10.3000194527">
		<tag k="name" v="Nordre Lia" />
		<tag k="natural" v="slope" />
		<tag k="place" v="locality" />
		<tag k="ssr:stedsnr" v="174088" />
	</node>
	<node id="-356603" lat="61.920488886" lon="10.0440805521">
		<tag k="name" v="Moen" />
		<tag k="place" v="locality" />
		<tag k="ssr:stedsnr" v="172811" />
	</node>
	<node id="-356602" lat="62.0056305573" lon="9.99358889103">
		<tag k="name" v="Dagroshaugen" />
		<tag k="natural" v="hill" />
		<tag k="place" v="locality" />
		<tag k="ssr:stedsnr" v="300286" />
	</node>
	<node id="-356601" lat="62.2787499998" lon="10.2927833429">
		<tag k="fixme" v="consider natural=peak for the most distinct mountains in the district" />
		<tag k="name" v="Triklokkhøa" />
		<tag k="natural" v="hill" />
		<tag k="place" v="locality" />
		<tag k="ssr:stedsnr" v="133896" />
	</node>
	<node id="-356599" lat="62.3830611128" lon="10.0927361092">
		<tag k="fixme" v="consider natural=peak for the most distinct mountains in the district" />
		<tag k="name" v="Sandtjørnkollen" />
		<tag k="natural" v="hill" />
		<tag k="place" v="locality" />
		<tag k="ssr:stedsnr" v="132693" />
	</node>
	<node id="-356598" lat="62.3337611099" lon="10.1719500087">
		<tag k="fixme" v="consider natural=peak for the most distinct mountains in the district" />
		<tag k="name" v="Lågegga" />
		<tag k="natural" v="hill" />
		<tag k="place" v="locality" />
		<tag k="ssr:stedsnr" v="132681" />
	</node>
	<node id="-356597" lat="62.3343749983" lon="10.0908305472">
		<tag k="fixme" v="consider natural=peak for the most distinct mountains in the district" />
		<tag k="name" v="Finnshøa" />
		<tag k="natural" v="hill" />
		<tag k="place" v="locality" />
		<tag k="ssr:stedsnr" v="132679" />
	</node>
	<node id="-356595" lat="61.9584972178" lon="9.95208054968">
		<tag k="fixme" v="consider natural=peak for the most distinct mountains in the district" />
		<tag k="name" v="Nørdre Oksle" />
		<tag k="natural" v="hill" />
		<tag k="place" v="locality" />
		<tag k="ssr:stedsnr" v="132647" />
	</node>
	<node id="-356593" lat="62.048172223" lon="9.94724721402">
		<tag k="alt_name" v="Veslekringla" />
		<tag k="fixme" v="consider natural=peak for the most distinct mountains in the district" />
		<tag k="name" v="Veslkringla" />
		<tag k="natural" v="hill" />
		<tag k="place" v="locality" />
		<tag k="ssr:stedsnr" v="132378" />
	</node>
	<node id="-356592" lat="62.0630805534" lon="10.1053444492">
		<tag k="name" v="Tverrbekkdalen" />
		<tag k="natural" v="valley" />
		<tag k="place" v="locality" />
		<tag k="ssr:stedsnr" v="132376" />
	</node>
	<node id="-356589" lat="62.1092027803" lon="9.93132499672">
		<tag k="fixme" v="consider natural=peak for the most distinct mountains in the district" />
		<tag k="name" v="Brennhovda" />
		<tag k="natural" v="hill" />
		<tag k="place" v="locality" />
		<tag k="ssr:stedsnr" v="132462" />
	</node>
	<node id="-356580" lat="62.2553027741" lon="10.299944439">
		<tag k="name" v="Tælet" />
		<tag k="place" v="locality" />
		<tag k="ssr:stedsnr" v="132022" />
	</node>
	<node id="-356578" lat="62.0801000003" lon="10.2023583273">
		<tag k="name" v="Langdalen" />
		<tag k="natural" v="valley" />
		<tag k="place" v="locality" />
		<tag k="ssr:stedsnr" v="131360" />
	</node>
	<node id="-356577" lat="62.2388888851" lon="9.70536389706">
		<tag k="name" v="Grøndøl" />
		<tag k="natural" v="valley" />
		<tag k="old_name" v="Grøndalen" />
		<tag k="place" v="locality" />
		<tag k="ssr:stedsnr" v="131472" />
	</node>
	<node id="-356576" lat="62.2433249995" lon="9.75121666591">
		<tag k="fixme" v="consider natural=peak for the most distinct mountains in the district" />
		<tag k="name" v="Lokkarhøe" />
		<tag k="natural" v="hill" />
		<tag k="place" v="locality" />
		<tag k="ssr:stedsnr" v="131299" />
	</node>
	<node id="-356570" lat="62.1596777733" lon="10.155116664">
		<tag k="name" v="Eggene" />
		<tag k="natural" v="ridge" />
		<tag k="place" v="locality" />
		<tag k="ssr:stedsnr" v="124045" />
	</node>
	<node id="-356568" lat="62.3107499997" lon="10.0914583303">
		<tag k="name" v="Kvølvet" />
		<tag k="natural" v="slope" />
		<tag k="place" v="locality" />
		<tag k="ssr:stedsnr" v="119697" />
	</node>
	<node id="-356567" lat="62.0230638853" lon="9.96973610532">
		<tag k="name" v="Øvre Langranden" />
		<tag k="place" v="locality" />
		<tag k="ssr:stedsnr" v="119686" />
	</node>
	<node id="-356564" lat="61.9366166652" lon="10.0352472166">
		<tag k="name" v="Skifteshafella" />
		<tag k="natural" v="slope" />
		<tag k="place" v="locality" />
		<tag k="ssr:stedsnr" v="119449" />
	</node>
	<node id="-356563" lat="62.2066249988" lon="10.2701805575">
		<tag k="name" v="Styggtjønnkampen" />
		<tag k="natural" v="hill" />
		<tag k="place" v="locality" />
		<tag k="ssr:stedsnr" v="119428" />
	</node>
	<node id="-356559" lat="62.0614694453" lon="10.066261109">
		<tag k="name" v="Tangen" />
		<tag k="natural" v="hill" />
		<tag k="place" v="locality" />
		<tag k="ssr:stedsnr" v="119244" />
	</node>
	<node id="-356558" lat="62.2859805516" lon="10.133361115">
		<tag k="name" v="Kløftebekklia" />
		<tag k="natural" v="slope" />
		<tag k="place" v="locality" />
		<tag k="ssr:stedsnr" v="119181" />
	</node>
	<node id="-356556" lat="62.1757388895" lon="10.2150722234">
		<tag k="name" v="Tullhanshaugen" />
		<tag k="natural" v="hill" />
		<tag k="place" v="locality" />
		<tag k="ssr:stedsnr" v="119021" />
	</node>
	<node id="-356553" lat="62.1871611139" lon="9.72392500657">
		<tag k="name" v="Holdalen" />
		<tag k="natural" v="valley" />
		<tag k="place" v="locality" />
		<tag k="ssr:stedsnr" v="117969" />
	</node>
	<node id="-356552" lat="62.1640444465" lon="9.77621110901">
		<tag k="name" v="Øvre Kollen" />
		<tag k="natural" v="hill" />
		<tag k="place" v="locality" />
		<tag k="ssr:stedsnr" v="117798" />
	</node>
	<node id="-356551" lat="62.2119666701" lon="9.73423610449">
		<tag k="name" v="Brennrandin" />
		<tag k="natural" v="hill" />
		<tag k="place" v="locality" />
		<tag k="ssr:stedsnr" v="117782" />
	</node>
	<node id="-356547" lat="62.1469138921" lon="9.9896027792">
		<tag k="name" v="Grønnasletta" />
		<tag k="place" v="locality" />
		<tag k="ssr:stedsnr" v="117614" />
	</node>
	<node id="-356545" lat="62.1970638903" lon="10.2627944422">
		<tag k="name" v="Vesle Orrkletten" />
		<tag k="natural" v="hill" />
		<tag k="place" v="locality" />
		<tag k="ssr:stedsnr" v="117372" />
	</node>
	<node id="-356536" lat="62.1595166665" lon="10.1253055526">
		<tag k="name" v="Hemigardslia" />
		<tag k="natural" v="slope" />
		<tag k="place" v="locality" />
		<tag k="ssr:stedsnr" v="117044" />
	</node>
	<node id="-356535" lat="62.1734222216" lon="10.2194277788">
		<tag k="name" v="Langgrubbmoen" />
		<tag k="place" v="locality" />
		<tag k="ssr:stedsnr" v="117032" />
	</node>
	<node id="-356534" lat="62.1742027764" lon="10.2075527701">
		<tag k="name" v="Jocumhaugen" />
		<tag k="natural" v="hill" />
		<tag k="place" v="locality" />
		<tag k="ssr:stedsnr" v="117031" />
	</node>
	<node id="-356532" lat="62.2843999968" lon="10.3251166633">
		<tag k="name" v="Kvikksandvella" />
		<tag k="natural" v="valley" />
		<tag k="place" v="locality" />
		<tag k="ssr:stedsnr" v="113097" />
	</node>
	<node id="-356531" lat="62.1742222205" lon="10.3010111063">
		<tag k="name" v="Skaret" />
		<tag k="natural" v="valley" />
		<tag k="place" v="locality" />
		<tag k="ssr:stedsnr" v="113076" />
	</node>
	<node id="-356528" lat="62.1505000045" lon="9.71184445082">
		<tag k="name" v="Kyrkja" />
		<tag k="natural" v="hill" />
		<tag k="place" v="locality" />
		<tag k="ssr:stedsnr" v="83841" />
	</node>
	<node id="-356527" lat="62.2873750043" lon="10.2293666662">
		<tag k="name" v="Ryphusdalen" />
		<tag k="natural" v="valley" />
		<tag k="place" v="locality" />
		<tag k="ssr:stedsnr" v="72892" />
	</node>
	<node id="-356525" lat="62.3905527815" lon="9.97194722784">
		<tag k="name" v="Døltjørnskardet" />
		<tag k="natural" v="valley" />
		<tag k="place" v="locality" />
		<tag k="ssr:stedsnr" v="72671" />
	</node>
	<node id="-356524" lat="62.3033472189" lon="10.1697055503">
		<tag k="fixme" v="consider natural=peak for the most distinct mountains in the district" />
		<tag k="name" v="Ryhaugkollen" />
		<tag k="natural" v="hill" />
		<tag k="place" v="locality" />
		<tag k="ssr:stedsnr" v="72659" />
	</node>
	<node id="-356522" lat="62.3229361106" lon="10.2228277842">
		<tag k="fixme" v="consider natural=peak for the most distinct mountains in the district" />
		<tag k="name" v="Marsjøfjellet" />
		<tag k="natural" v="hill" />
		<tag k="place" v="locality" />
		<tag k="ssr:stedsnr" v="72937" />
	</node>
	<node id="-356520" lat="62.2542888853" lon="9.97960833208">
		<tag k="fixme" v="consider natural=peak for the most distinct mountains in the district" />
		<tag k="name" v="Kolla" />
		<tag k="natural" v="hill" />
		<tag k="old_name" v="Kollen" />
		<tag k="place" v="locality" />
		<tag k="ssr:stedsnr" v="72599" />
	</node>
	<node id="-356515" lat="62.1363361143" lon="10.2122222307">
		<tag k="fixme" v="consider natural=peak for the most distinct mountains in the district" />
		<tag k="name" v="Lauvåsen" />
		<tag k="natural" v="hill" />
		<tag k="place" v="locality" />
		<tag k="ssr:stedsnr" v="71465" />
	</node>
	<node id="-356514" lat="62.0411361105" lon="10.1141750092">
		<tag k="name" v="Mjovassdalen" />
		<tag k="natural" v="valley" />
		<tag k="place" v="locality" />
		<tag k="ssr:stedsnr" v="71442" />
	</node>
	<node id="-356513" lat="62.0373277782" lon="10.0842249993">
		<tag k="name" v="Svartberget" />
		<tag k="natural" v="hill" />
		<tag k="place" v="locality" />
		<tag k="ssr:stedsnr" v="71440" />
	</node>
	<node id="-356512" lat="62.1695833349" lon="10.0411388942">
		<tag k="fixme" v="consider natural=peak for the most distinct mountains in the district" />
		<tag k="name" v="Grønhøe" />
		<tag k="natural" v="hill" />
		<tag k="place" v="locality" />
		<tag k="ssr:stedsnr" v="71297" />
	</node>
	<node id="-356508" lat="62.1921500042" lon="10.2032361074">
		<tag k="fixme" v="consider natural=peak for the most distinct mountains in the district" />
		<tag k="name" v="Åsen" />
		<tag k="natural" v="hill" />
		<tag k="place" v="locality" />
		<tag k="ssr:stedsnr" v="71395" />
	</node>
	<node id="-356504" lat="62.1844833289" lon="9.85782222553">
		<tag k="fixme" v="consider natural=peak for the most distinct mountains in the district" />
		<tag k="name" v="Sæterhovda" />
		<tag k="natural" v="hill" />
		<tag k="place" v="locality" />
		<tag k="ssr:stedsnr" v="71280" />
	</node>
	<node id="-356503" lat="62.1801416625" lon="9.90549444318">
		<tag k="fixme" v="consider natural=peak for the most distinct mountains in the district" />
		<tag k="name" v="Larssvehøe" />
		<tag k="natural" v="hill" />
		<tag k="place" v="locality" />
		<tag k="ssr:stedsnr" v="71275" />
	</node>
	<node id="-356502" lat="61.9643111071" lon="10.0683055611">
		<tag k="name" v="Brenna" />
		<tag k="natural" v="slope" />
		<tag k="place" v="locality" />
		<tag k="ssr:stedsnr" v="70597" />
	</node>
	<node id="-356497" lat="62.1564194476" lon="10.1545250031">
		<tag k="name" v="Bekkdalsmoen" />
		<tag k="place" v="locality" />
		<tag k="ssr:stedsnr" v="58928" />
	</node>
	<node id="-356495" lat="62.1151305599" lon="9.84762222301">
		<tag k="name" v="Lurvothovdlie" />
		<tag k="natural" v="slope" />
		<tag k="place" v="locality" />
		<tag k="ssr:stedsnr" v="58654" />
	</node>
	<node id="-356494" lat="62.2273916676" lon="10.0079972218">
		<tag k="name" v="Stortælet" />
		<tag k="natural" v="hill" />
		<tag k="place" v="locality" />
		<tag k="ssr:stedsnr" v="58613" />
	</node>
	<node id="-356493" lat="62.1789111087" lon="10.0957416744">
		<tag k="name" v="Vesle Håneskletten" />
		<tag k="natural" v="hill" />
		<tag k="place" v="locality" />
		<tag k="ssr:stedsnr" v="58609" />
	</node>
	<node id="-356492" lat="62.1814861148" lon="10.0855333282">
		<tag k="name" v="Bjørnlia" />
		<tag k="natural" v="slope" />
		<tag k="place" v="locality" />
		<tag k="ssr:stedsnr" v="58602" />
	</node>
	<node id="-356490" lat="62.1489416652" lon="9.86870555072">
		<tag k="name" v="Manndrape" />
		<tag k="place" v="locality" />
		<tag k="ssr:stedsnr" v="58574" />
	</node>
	<node id="-356489" lat="62.146840458" lon="9.87006471746">
		<tag k="name" v="Johaugen" />
		<tag k="natural" v="hill" />
		<tag k="place" v="locality" />
		<tag k="ssr:stedsnr" v="58573" />
	</node>
	<node id="-356488" lat="62.140477774" lon="9.85977778645">
		<tag k="name" v="Brattbakken" />
		<tag k="natural" v="slope" />
		<tag k="place" v="locality" />
		<tag k="ssr:stedsnr" v="58571" />
	</node>
	<node id="-356487" lat="62.232919447" lon="10.0345611017">
		<tag k="name" v="Koiebakkan" />
		<tag k="natural" v="slope" />
		<tag k="place" v="locality" />
		<tag k="ssr:stedsnr" v="58570" />
	</node>
	<node id="-356486" lat="62.0968083314" lon="9.96622776938">
		<tag k="name" v="Langhaugen" />
		<tag k="natural" v="hill" />
		<tag k="place" v="locality" />
		<tag k="ssr:stedsnr" v="58569" />
	</node>
	<node id="-356485" lat="62.0716361129" lon="9.9432833353">
		<tag k="name" v="Kvehaugen" />
		<tag k="natural" v="hill" />
		<tag k="place" v="locality" />
		<tag k="ssr:stedsnr" v="58552" />
	</node>
	<node id="-356480" lat="62.203238892" lon="10.3028750049">
		<tag k="name" v="Skredlia" />
		<tag k="natural" v="slope" />
		<tag k="place" v="locality" />
		<tag k="ssr:stedsnr" v="58408" />
	</node>
	<node id="-356479" lat="62.1807916637" lon="10.2671111064">
		<tag k="name" v="Nedre Moen" />
		<tag k="place" v="locality" />
		<tag k="ssr:stedsnr" v="58372" />
	</node>
	<node id="-356478" lat="61.999922218" lon="10.0384416588">
		<tag k="name" v="Skrabben" />
		<tag k="natural" v="hill" />
		<tag k="place" v="locality" />
		<tag k="ssr:stedsnr" v="58302" />
	</node>
	<node id="-356476" lat="62.1818361139" lon="10.2707999955">
		<tag k="name" v="Odden" />
		<tag k="place" v="locality" />
		<tag k="ssr:stedsnr" v="58297" />
	</node>
	<node id="-356473" lat="62.1784944459" lon="10.1822749998">
		<tag k="name" v="Vatningsflata" />
		<tag k="place" v="locality" />
		<tag k="ssr:stedsnr" v="58030" />
	</node>
	<node id="-356468" lat="62.1584833339" lon="10.1703916666">
		<tag k="name" v="Kvitmælen" />
		<tag k="place" v="locality" />
		<tag k="ssr:stedsnr" v="57014" />
	</node>
	<node id="-356466" lat="62.1614666642" lon="9.73855000715">
		<tag k="name" v="Lishaugrandan" />
		<tag k="natural" v="hill" />
		<tag k="place" v="locality" />
		<tag k="ssr:stedsnr" v="56800" />
	</node>
	<node id="-356465" lat="62.1443555558" lon="9.81086388669">
		<tag k="name" v="Langslette" />
		<tag k="place" v="locality" />
		<tag k="ssr:stedsnr" v="56677" />
	</node>
	<node id="-356464" lat="62.1414611083" lon="9.83102500227">
		<tag k="fixme" v="consider natural=peak for the most distinct mountains in the district" />
		<tag k="name" v="Dalåsen" />
		<tag k="natural" v="hill" />
		<tag k="place" v="locality" />
		<tag k="ssr:stedsnr" v="56673" />
	</node>
	<node id="-356457" lat="61.9816111118" lon="10.0023444383">
		<tag k="name" v="Sauberget" />
		<tag k="natural" v="hill" />
		<tag k="place" v="locality" />
		<tag k="ssr:stedsnr" v="56300" />
	</node>
	<node id="-356456" lat="62.0468861156" lon="9.9996555541">
		<tag k="name" v="Revsgrenhaugen" />
		<tag k="natural" v="hill" />
		<tag k="place" v="locality" />
		<tag k="ssr:stedsnr" v="56209" />
	</node>
	<node id="-356455" lat="62.2803361081" lon="10.1481888837">
		<tag k="name" v="Einunndalsranden" />
		<tag k="natural" v="slope" />
		<tag k="place" v="locality" />
		<tag k="ssr:stedsnr" v="58161" />
	</node>
	<node id="-356452" lat="62.3417138883" lon="9.93650000457">
		<tag k="fixme" v="consider natural=peak for the most distinct mountains in the district" />
		<tag k="loc_name" v="Døllihøa" />
		<tag k="name" v="Døllihøi" />
		<tag k="natural" v="hill" />
		<tag k="place" v="locality" />
		<tag k="ssr:stedsnr" v="28527" />
	</node>
	<node id="-356448" lat="62.37959167" lon="10.1445638896">
		<tag k="fixme" v="consider natural=peak for the most distinct mountains in the district" />
		<tag k="name" v="Storkollen" />
		<tag k="natural" v="hill" />
		<tag k="place" v="locality" />
		<tag k="ssr:stedsnr" v="11692" />
	</node>
	<node id="-356447" lat="62.2981833315" lon="10.1196583413">
		<tag k="fixme" v="consider natural=peak for the most distinct mountains in the district" />
		<tag k="name" v="Storperhøa" />
		<tag k="natural" v="hill" />
		<tag k="place" v="locality" />
		<tag k="ssr:stedsnr" v="11688" />
	</node>
	<node id="-356443" lat="62.2797333335" lon="9.99932500346">
		<tag k="fixme" v="consider natural=peak for the most distinct mountains in the district" />
		<tag k="name" v="Langhøa" />
		<tag k="natural" v="hill" />
		<tag k="place" v="locality" />
		<tag k="ssr:stedsnr" v="11635" />
	</node>
	<node id="-356441" lat="62.1271749984" lon="9.84695555428">
		<tag k="alt_name" v="Jynaren" />
		<tag k="fixme" v="consider natural=peak for the most distinct mountains in the district" />
		<tag k="name" v="Gynaren" />
		<tag k="natural" v="hill" />
		<tag k="place" v="locality" />
		<tag k="ssr:stedsnr" v="11476" />
	</node>
	<node id="-356440" lat="62.1303111103" lon="10.1815416687">
		<tag k="name" v="Raudmåsårøsta" />
		<tag k="natural" v="valley" />
		<tag k="place" v="locality" />
		<tag k="ssr:stedsnr" v="11472" />
	</node>
	<node id="-356432" lat="62.1292249956" lon="9.86982499366">
		<tag k="fixme" v="consider natural=peak for the most distinct mountains in the district" />
		<tag k="name" v="Gåshovda" />
		<tag k="natural" v="hill" />
		<tag k="place" v="locality" />
		<tag k="ssr:stedsnr" v="11443" />
	</node>
	<node id="-356427" lat="62.1855750029" lon="9.89723054836">
		<tag k="fixme" v="consider natural=peak for the most distinct mountains in the district" />
		<tag k="loc_name" v="Vardhøe" />
		<tag k="name" v="Vardhøi" />
		<tag k="natural" v="hill" />
		<tag k="place" v="locality" />
		<tag k="ssr:stedsnr" v="10714" />
	</node>
	<node id="-356426" lat="62.1377277817" lon="10.275888888">
		<tag k="name" v="Geitryggen" />
		<tag k="natural" v="hill" />
		<tag k="place" v="locality" />
		<tag k="ssr:stedsnr" v="11034" />
	</node>
	<node id="-356421" lat="62.0706249972" lon="10.2337305504">
		<tag k="fixme" v="consider natural=peak for the most distinct mountains in the district" />
		<tag k="name" v="Langfjellet" />
		<tag k="natural" v="hill" />
		<tag k="place" v="locality" />
		<tag k="ssr:stedsnr" v="10364" />
	</node>
	<node id="-356418" lat="62.2057249984" lon="10.1787083237">
		<tag k="fixme" v="consider natural=peak for the most distinct mountains in the district" />
		<tag k="name" v="Storvola" />
		<tag k="natural" v="hill" />
		<tag k="place" v="locality" />
		<tag k="ssr:stedsnr" v="10349" />
	</node>
	<node id="-356412" lat="62.2293027756" lon="10.1030972148">
		<tag k="name" v="Fatet" />
		<tag k="natural" v="valley" />
		<tag k="place" v="locality" />
		<tag k="ssr:stedsnr" v="10325" />
	</node>
	<node id="-356411" lat="62.2163249963" lon="9.82730000173">
		<tag k="name" v="Tunghovda" />
		<tag k="natural" v="hill" />
		<tag k="place" v="locality" />
		<tag k="ssr:stedsnr" v="10319" />
	</node>
	<node id="-356408" lat="62.1175694432" lon="9.93852221776">
		<tag k="name" v="Skaret" />
		<tag k="natural" v="valley" />
		<tag k="place" v="locality" />
		<tag k="ssr:stedsnr" v="6562" />
	</node>
	<node id="-356403" lat="62.0102472261" lon="9.98043889681">
		<tag k="name" v="Kvennhusbakken" />
		<tag k="natural" v="slope" />
		<tag k="place" v="locality" />
		<tag k="ssr:stedsnr" v="968707" />
	</node>
	<node id="-356402" lat="62.125077777" lon="9.85082499531">
		<tag k="name" v="Jynarflåe" />
		<tag k="place" v="locality" />
		<tag k="ssr:stedsnr" v="968670" />
	</node>
	<node id="-356398" lat="62.228583332" lon="10.0234499962">
		<tag k="name" v="Midtlia" />
		<tag k="natural" v="slope" />
		<tag k="place" v="locality" />
		<tag k="ssr:stedsnr" v="968563" />
	</node>
	<node id="-356395" lat="62.0847527802" lon="9.96235277575">
		<tag k="name" v="Jehansdalen" />
		<tag k="natural" v="valley" />
		<tag k="place" v="locality" />
		<tag k="ssr:stedsnr" v="968557" />
	</node>
	<node id="-356393" lat="61.9530166662" lon="9.9877527829">
		<tag k="name" v="Vesleruste" />
		<tag k="natural" v="slope" />
		<tag k="place" v="locality" />
		<tag k="ssr:stedsnr" v="968427" />
	</node>
	<node id="-356391" lat="62.2068055547" lon="10.2617833314">
		<tag k="name" v="Godknollen" />
		<tag k="natural" v="hill" />
		<tag k="place" v="locality" />
		<tag k="ssr:stedsnr" v="968416" />
	</node>
	<node id="-356389" lat="62.0499583342" lon="10.0857027801">
		<tag k="name" v="Heimruste" />
		<tag k="natural" v="slope" />
		<tag k="place" v="locality" />
		<tag k="ssr:stedsnr" v="968263" />
	</node>
	<node id="-356388" lat="62.0977444429" lon="10.1022611093">
		<tag k="name" v="Moen" />
		<tag k="place" v="locality" />
		<tag k="ssr:stedsnr" v="968065" />
	</node>
	<node id="-356384" lat="62.1675555596" lon="9.78448888707">
		<tag k="name" v="Midtre Kollen" />
		<tag k="natural" v="hill" />
		<tag k="place" v="locality" />
		<tag k="ssr:stedsnr" v="966807" />
	</node>
	<node id="-356383" lat="62.1686805531" lon="9.7903638844">
		<tag k="name" v="Nedre Kollen" />
		<tag k="natural" v="hill" />
		<tag k="place" v="locality" />
		<tag k="ssr:stedsnr" v="966805" />
	</node>
	<node id="-356382" lat="62.1341638865" lon="10.1520472188">
		<tag k="name" v="Grimshaugen" />
		<tag k="natural" v="hill" />
		<tag k="place" v="locality" />
		<tag k="ssr:stedsnr" v="966924" />
	</node>
	<node id="-356377" lat="62.2478222221" lon="10.3145138916">
		<tag k="name" v="Bjønnkletthaugan" />
		<tag k="natural" v="hill" />
		<tag k="place" v="locality" />
		<tag k="ssr:stedsnr" v="962075" />
	</node>
	<node id="-356376" lat="62.2727249998" lon="10.2794249968">
		<tag k="name" v="Snøfonndalen" />
		<tag k="natural" v="valley" />
		<tag k="place" v="locality" />
		<tag k="ssr:stedsnr" v="922872" />
	</node>
	<node id="-356369" lat="62.1971305591" lon="9.76470833632">
		<tag k="name" v="Brubekkdalen" />
		<tag k="natural" v="valley" />
		<tag k="place" v="locality" />
		<tag k="ssr:stedsnr" v="908811" />
	</node>
	<node id="-356367" lat="62.3430916631" lon="9.99293611068">
		<tag k="name" v="Kattuglberget" />
		<tag k="natural" v="hill" />
		<tag k="place" v="locality" />
		<tag k="ssr:stedsnr" v="906654" />
	</node>
	<node id="-356366" lat="62.1304027735" lon="9.8835444373">
		<tag k="name" v="Svarttjønnlie" />
		<tag k="natural" v="slope" />
		<tag k="place" v="locality" />
		<tag k="ssr:stedsnr" v="906571" />
	</node>
	<node id="-356361" lat="62.2848333303" lon="10.3139166576">
		<tag k="name" v="Gruvhøgda" />
		<tag k="natural" v="ridge" />
		<tag k="place" v="locality" />
		<tag k="ssr:stedsnr" v="902104" />
	</node>
	<node id="-356360" lat="62.1515805527" lon="10.2968000075">
		<tag k="name" v="Brenna" />
		<tag k="natural" v="slope" />
		<tag k="place" v="locality" />
		<tag k="ssr:stedsnr" v="902071" />
	</node>
	<node id="-356356" lat="62.3128861081" lon="10.1797222152">
		<tag k="fixme" v="consider natural=peak for the most distinct mountains in the district" />
		<tag k="name" v="Fjøla" />
		<tag k="natural" v="hill" />
		<tag k="place" v="locality" />
		<tag k="ssr:stedsnr" v="861621" />
	</node>
	<node id="-356354" lat="62.2757138851" lon="10.0949111184">
		<tag k="fixme" v="consider natural=peak for the most distinct mountains in the district" />
		<tag k="name" v="Kollen" />
		<tag k="natural" v="hill" />
		<tag k="place" v="locality" />
		<tag k="ssr:stedsnr" v="861605" />
	</node>
</osm>
