<?xml version="1.0" encoding="UTF-8"?>
<osm version="0.6" generator="osmapis">
	<node lat="62.143674718007546" lon="9.925643390968698" id="-47449">
		<tag k="fixme" v="consider place=hamlet" />
		<tag k="name" v="Larshus" />
		<tag k="place" v="farm" />
		<tag k="ssr:stedsnr" v="10285" />
	</node>
	<node lat="62.2100138903974" lon="10.059469447307077" id="-47452">
		<tag k="historic" v="shieling" />
		<tag k="name" v="Bottasætre" />
		<tag k="place" v="isolated_dwelling" />
		<tag k="ssr:stedsnr" v="10332" />
	</node>
	<node lat="62.20960555613427" lon="10.06016943556038" id="-47453">
		<tag k="historic" v="shieling" />
		<tag k="name" v="Røstasætre" />
		<tag k="place" v="isolated_dwelling" />
		<tag k="ssr:stedsnr" v="10336" />
	</node>
	<node lat="62.1949175381184" lon="9.751517397946227" id="-47454">
		<tag k="fixme" v="consider place=hamlet" />
		<tag k="name" v="Borkhus" />
		<tag k="place" v="farm" />
		<tag k="ssr:stedsnr" v="10346" />
	</node>
	<node lat="62.19888332926034" lon="10.126147219427361" id="-47456">
		<tag k="historic" v="shieling" />
		<tag k="name" v="Fatfjellsætran" />
		<tag k="place" v="isolated_dwelling" />
		<tag k="ssr:stedsnr" v="10353" />
	</node>
	<node lat="62.233486109372876" lon="10.338563885297516" id="-47460">
		<tag k="alt_name" v="Bjønnklettsetra" />
		<tag k="historic" v="shieling" />
		<tag k="name" v="Bjørnklettvangen" />
		<tag k="place" v="isolated_dwelling" />
		<tag k="ssr:stedsnr" v="11430" />
	</node>
	<node lat="61.99399999947976" lon="10.0193583282431" id="-47464">
		<tag k="alt_name" v="Øyen" />
		<tag k="name" v="Haldogsøyen" />
		<tag k="place" v="farm" />
		<tag k="ssr:stedsnr" v="11504" />
	</node>
	<node lat="61.97576666688786" lon="10.01815555219934" id="-47465">
		<tag k="name" v="Nordre Sandom" />
		<tag k="place" v="farm" />
		<tag k="ssr:stedsnr" v="11520" />
	</node>
	<node lat="62.12318333320349" lon="10.0825388811328" id="-47467">
		<tag k="alt_name" v="Gjelten" />
		<tag k="name" v="Gjelta" />
		<tag k="place" v="farm" />
		<tag k="ssr:stedsnr" v="11479" />
	</node>
	<node lat="62.176387610911895" lon="9.708473186542285" id="-47468">
		<tag k="fixme" v="consider place=hamlet" />
		<tag k="name" v="Gravbekklien" />
		<tag k="old_name" v="Gravbekklia" />
		<tag k="place" v="farm" />
		<tag k="ssr:stedsnr" v="11707" />
	</node>
	<node lat="62.20337222467667" lon="10.367427779707025" id="-47478">
		<tag k="name" v="Egg" />
		<tag k="place" v="locality" />
		<tag k="ssr:stedsnr" v="234955" />
	</node>
	<node lat="61.924452781007034" lon="10.052997231080788" id="-47479">
		<tag k="alt_name" v="Nordre Strømbuen" />
		<tag k="name" v="Nørdre Straumbu" />
		<tag k="place" v="farm" />
		<tag k="ssr:stedsnr" v="37307" />
	</node>
	<node lat="61.937941665282004" lon="9.911961104522975" id="-47480">
		<tag k="name" v="Høgrondbue" />
		<tag k="place" v="locality" />
		<tag k="ssr:stedsnr" v="42931" />
	</node>
	<node lat="62.12619665184783" lon="10.040322790371752" id="-47481">
		<tag k="fixme" v="consider place=hamlet" />
		<tag k="name" v="Klokkerhaugen" />
		<tag k="place" v="farm" />
		<tag k="ssr:stedsnr" v="238101" />
	</node>
	<node lat="62.132630558000336" lon="9.923430548530813" id="-47487">
		<tag k="alt_name" v="Søndre Randen" />
		<tag k="name" v="Søre Randen" />
		<tag k="place" v="farm" />
		<tag k="ssr:stedsnr" v="238583" />
	</node>
	<node lat="62.192902780605706" lon="10.27472778099278" id="-47488">
		<tag k="name" v="Brendøyen" />
		<tag k="place" v="isolated_dwelling" />
		<tag k="ssr:stedsnr" v="238359" />
	</node>
	<node lat="62.14274794604241" lon="9.950898016198671" id="-47489">
		<tag k="alt_name" v="Nordre Husum" />
		<tag k="fixme" v="consider place=hamlet" />
		<tag k="name" v="Nordre Husom" />
		<tag k="place" v="farm" />
		<tag k="ssr:stedsnr" v="238601" />
	</node>
	<node lat="62.18754444090164" lon="9.678494443421656" id="-47492">
		<tag k="alt_name" v="Slåseteren" />
		<tag k="name" v="Nørdre Slåsæter" />
		<tag k="place" v="farm" />
		<tag k="ssr:stedsnr" v="238973" />
	</node>
	<node lat="62.19503562607609" lon="9.697836597545766" id="-47493">
		<tag k="alt_name" v="Slåen" />
		<tag k="name" v="Nørdre Slåen" />
		<tag k="place" v="farm" />
		<tag k="ssr:stedsnr" v="238976" />
	</node>
	<node lat="62.13365277390529" lon="10.160836109382375" id="-47494">
		<tag k="name" v="Østre Grimsbu" />
		<tag k="place" v="farm" />
		<tag k="ssr:stedsnr" v="239950" />
	</node>
	<node lat="62.194188889796415" lon="10.289919452445625" id="-47496">
		<tag k="name" v="Moskarvangen" />
		<tag k="place" v="locality" />
		<tag k="ssr:stedsnr" v="56315" />
	</node>
	<node lat="62.17998333611576" lon="9.825036103324921" id="-47506">
		<tag k="name" v="Hovde" />
		<tag k="place" v="farm" />
		<tag k="ssr:stedsnr" v="56773" />
	</node>
	<node lat="62.17932500018007" lon="9.830258328980616" id="-47507">
		<tag k="name" v="Nørdre Systugu Dalen" />
		<tag k="place" v="farm" />
		<tag k="ssr:stedsnr" v="56777" />
	</node>
	<node lat="62.128822231824536" lon="10.049214312917742" id="-47511">
		<tag k="fixme" v="consider place=hamlet" />
		<tag k="name" v="Nedre Beitrusten" />
		<tag k="place" v="farm" />
		<tag k="ssr:stedsnr" v="240099" />
	</node>
	<node lat="62.126591667820634" lon="10.04670556376801" id="-47512">
		<tag k="name" v="Nordre Kvannsletten" />
		<tag k="place" v="farm" />
		<tag k="ssr:stedsnr" v="240101" />
	</node>
	<node lat="62.13144166877684" lon="10.105041658109487" id="-47513">
		<tag k="name" v="Søndre Geitryggen" />
		<tag k="place" v="farm" />
		<tag k="ssr:stedsnr" v="57919" />
	</node>
	<node lat="62.07296110752321" lon="9.95086387922772" id="-47546">
		<tag k="alt_name" v="Søndre Faldet" />
		<tag k="name" v="Søre Fallet" />
		<tag k="place" v="farm" />
		<tag k="ssr:stedsnr" v="240558" />
	</node>
	<node lat="62.09324166431615" lon="9.968861107961073" id="-47547">
		<tag k="name" v="Øvre Slettom" />
		<tag k="place" v="isolated_dwelling" />
		<tag k="ssr:stedsnr" v="240569" />
	</node>
	<node lat="62.17260555933761" lon="9.819302785551045" id="-47550">
		<tag k="fixme" v="consider place=hamlet" />
		<tag k="name" v="Dalholen" />
		<tag k="place" v="farm" />
		<tag k="ssr:stedsnr" v="67654" />
	</node>
	<node lat="62.174516668931155" lon="10.316219442491068" id="-47551">
		<tag k="alt_name" v="Kolvet, ytre;Ytre Kolvsætra" />
		<tag k="historic" v="shieling" />
		<tag k="name" v="Ytre Kolvet" />
		<tag k="place" v="isolated_dwelling" />
		<tag k="ssr:stedsnr" v="71012" />
	</node>
	<node lat="62.156927781867566" lon="10.163022215259181" id="-47552">
		<tag k="alt_name" v="Holen;Holen nordre" />
		<tag k="name" v="Nordre Holen" />
		<tag k="place" v="farm" />
		<tag k="ssr:stedsnr" v="71318" />
	</node>
	<node lat="62.033141031379415" lon="10.014556414447629" id="-47558">
		<tag k="alt_name" v="Øyen" />
		<tag k="fixme" v="consider place=hamlet" />
		<tag k="name" v="Stadsbuøyen" />
		<tag k="place" v="farm" />
		<tag k="ssr:stedsnr" v="71433" />
	</node>
	<node lat="62.27651667034073" lon="10.146874999437932" id="-47562">
		<tag k="historic" v="shieling" />
		<tag k="name" v="Jonsasætra" />
		<tag k="place" v="isolated_dwelling" />
		<tag k="ssr:stedsnr" v="72617" />
	</node>
	<node lat="62.1717472205462" lon="9.846411101969936" id="-47565">
		<tag k="name" v="Søre Nistugu Dalen" />
		<tag k="place" v="farm" />
		<tag k="ssr:stedsnr" v="249661" />
	</node>
	<node lat="62.17201666270632" lon="9.852411103285712" id="-47566">
		<tag k="name" v="Øvre Uppistugu Dalen" />
		<tag k="place" v="farm" />
		<tag k="ssr:stedsnr" v="249662" />
	</node>
	<node lat="62.29338611426176" lon="10.32347500244104" id="-47567">
		<tag k="historic" v="shieling" />
		<tag k="name" v="Einabusætra" />
		<tag k="place" v="isolated_dwelling" />
		<tag k="ssr:stedsnr" v="113106" />
	</node>
	<node lat="62.20688888554041" lon="10.356549990908814" id="-47571">
		<tag k="name" v="Gubberud" />
		<tag k="place" v="locality" />
		<tag k="ssr:stedsnr" v="113929" />
	</node>
	<node lat="62.17046388562582" lon="10.193855563664911" id="-47574">
		<tag k="name" v="Nordre Ryfetten" />
		<tag k="place" v="farm" />
		<tag k="ssr:stedsnr" v="117030" />
	</node>
	<node lat="62.13491666994586" lon="9.982894450421565" id="-47578">
		<tag k="amenity" v="school" />
		<tag k="name" v="Verket skole" />
		<tag k="ssr:stedsnr" v="117113" />
	</node>
	<node lat="62.128913887949196" lon="10.156113895673355" id="-47583">
		<tag k="name" v="Grimsøya" />
		<tag k="place" v="locality" />
		<tag k="ssr:stedsnr" v="117930" />
	</node>
	<node lat="62.19956944518842" lon="10.34745555470399" id="-47587">
		<tag k="name" v="Øverli" />
		<tag k="place" v="locality" />
		<tag k="ssr:stedsnr" v="119414" />
	</node>
	<node lat="62.19670833748509" lon="9.755383333401024" id="-47590">
		<tag k="name" v="Nordre Borkhus" />
		<tag k="place" v="farm" />
		<tag k="ssr:stedsnr" v="119787" />
	</node>
	<node lat="62.15324444498491" lon="9.84393610808294" id="-47591">
		<tag k="name" v="Horrhølen" />
		<tag k="place" v="locality" />
		<tag k="ssr:stedsnr" v="127688" />
	</node>
	<node lat="62.1762888924973" lon="9.832477771686039" id="-47592">
		<tag k="alt_name" v="Sygard" />
		<tag k="name" v="Sygard Dalen" />
		<tag k="place" v="farm" />
		<tag k="ssr:stedsnr" v="127698" />
	</node>
	<node lat="61.92334736903669" lon="10.052307665771059" id="-47594">
		<tag k="fixme" v="consider place=hamlet" />
		<tag k="loc_name" v="Straumbui" />
		<tag k="name" v="Straumbu" />
		<tag k="place" v="farm" />
		<tag k="ssr:stedsnr" v="252571" />
	</node>
	<node lat="62.16564999640329" lon="10.124524993112924" id="-47603">
		<tag k="historic" v="shieling" />
		<tag k="name" v="Kjølsætran" />
		<tag k="place" v="isolated_dwelling" />
		<tag k="ssr:stedsnr" v="132262" />
	</node>
	<node lat="62.16286389249897" lon="10.144638880321976" id="-47604">
		<tag k="alt_name" v="Marken" />
		<tag k="name" v="Morka" />
		<tag k="place" v="farm" />
		<tag k="ssr:stedsnr" v="132264" />
	</node>
	<node lat="62.160950003885624" lon="10.143950009667394" id="-47606">
		<tag k="name" v="Kjøllestad" />
		<tag k="place" v="farm" />
		<tag k="ssr:stedsnr" v="132271" />
	</node>
	<node lat="62.14020866048624" lon="9.935718990387828" id="-47607">
		<tag k="alt_name" v="Skomakerstuen" />
		<tag k="fixme" v="consider place=hamlet" />
		<tag k="name" v="Skomakarstugu" />
		<tag k="place" v="farm" />
		<tag k="ssr:stedsnr" v="132275" />
	</node>
	<node lat="62.13250277770374" lon="9.996697224447026" id="-47608">
		<tag k="name" v="Folldal" />
		<tag k="place" v="village" />
		<tag k="ssr:stedsnr" v="132418" />
	</node>
	<node lat="62.13934119683868" lon="10.146314173859244" id="-47609">
		<tag k="name" v="Brennrya" />
		<tag k="place" v="locality" />
		<tag k="ssr:stedsnr" v="132426" />
	</node>
	<node lat="62.129960413294555" lon="9.9958967280764" id="-47610">
		<tag k="fixme" v="consider place=hamlet" />
		<tag k="name" v="Rismoen" />
		<tag k="place" v="farm" />
		<tag k="ssr:stedsnr" v="132435" />
	</node>
	<node lat="62.11534722340224" lon="10.066766667705359" id="-47615">
		<tag k="name" v="Follvang" />
		<tag k="place" v="farm" />
		<tag k="ssr:stedsnr" v="132464" />
	</node>
	<node lat="62.31787500346309" lon="10.017508334593503" id="-47616">
		<tag k="historic" v="shieling" />
		<tag k="name" v="Meløya" />
		<tag k="place" v="isolated_dwelling" />
		<tag k="ssr:stedsnr" v="132675" />
	</node>
	<node lat="62.182097224019046" lon="10.259911109842417" id="-47619">
		<tag k="name" v="Soleng" />
		<tag k="place" v="farm" />
		<tag k="ssr:stedsnr" v="253026" />
	</node>
	<node lat="62.17258248890653" lon="9.79070373718791" id="-47622">
		<tag k="fixme" v="consider place=hamlet" />
		<tag k="name" v="Dalslåen" />
		<tag k="place" v="farm" />
		<tag k="ssr:stedsnr" v="253291" />
	</node>
	<node lat="62.19354722195016" lon="9.803908340259277" id="-47628">
		<tag k="name" v="Smedsrud" />
		<tag k="place" v="farm" />
		<tag k="ssr:stedsnr" v="253423" />
	</node>
	<node lat="62.048115056335305" lon="9.989358396121338" id="-47629">
		<tag k="fixme" v="consider place=hamlet" />
		<tag k="name" v="Blæsterdalen" />
		<tag k="place" v="farm" />
		<tag k="ssr:stedsnr" v="253449" />
	</node>
	<node lat="62.12802101285659" lon="10.043742302229969" id="-47632">
		<tag k="alt_name" v="Krokhaugen" />
		<tag k="name" v="Krokhaug" />
		<tag k="place" v="hamlet" />
		<tag k="ssr:stedsnr" v="253499" />
	</node>
	<node lat="61.999424996416955" lon="10.041397213166206" id="-47633">
		<tag k="historic" v="shieling" />
		<tag k="name" v="Bakkesætre" />
		<tag k="place" v="isolated_dwelling" />
		<tag k="ssr:stedsnr" v="253555" />
	</node>
	<node lat="62.26425277912782" lon="10.321280555530603" id="-47642">
		<tag k="historic" v="shieling" />
		<tag k="name" v="Marsjølisætran" />
		<tag k="place" v="isolated_dwelling" />
		<tag k="ssr:stedsnr" v="173077" />
	</node>
	<node lat="62.131751000109276" lon="10.029939919611536" id="-47654">
		<tag k="fixme" v="consider place=hamlet" />
		<tag k="name" v="Trøen" />
		<tag k="place" v="farm" />
		<tag k="ssr:stedsnr" v="178116" />
	</node>
	<node lat="62.321083333395954" lon="9.899763881741046" id="-47669">
		<tag k="name" v="Fundhuset" />
		<tag k="place" v="isolated_dwelling" />
		<tag k="ssr:stedsnr" v="179875" />
	</node>
	<node lat="62.175066667978776" lon="9.835183325891084" id="-47672">
		<tag k="name" v="Nørdre Nystugu" />
		<tag k="place" v="farm" />
		<tag k="ssr:stedsnr" v="188702" />
	</node>
	<node lat="62.172147941748555" lon="9.84365665870484" id="-47673">
		<tag k="name" v="Nørdre Nistugu Dalen" />
		<tag k="place" v="farm" />
		<tag k="ssr:stedsnr" v="188704" />
	</node>
	<node lat="62.16385277762124" lon="9.84134444501154" id="-47675">
		<tag k="name" v="Fjellsno" />
		<tag k="place" v="isolated_dwelling" />
		<tag k="ssr:stedsnr" v="191606" />
	</node>
	<node lat="62.10781110674538" lon="10.229536105031665" id="-47682">
		<tag k="name" v="Mosengbua" />
		<tag k="place" v="locality" />
		<tag k="ssr:stedsnr" v="233916" />
	</node>
	<node lat="62.186322222886005" lon="9.782600004270474" id="-47689">
		<tag k="name" v="Eidehaugen" />
		<tag k="place" v="farm" />
		<tag k="ssr:stedsnr" v="238810" />
	</node>
	<node lat="62.205311109349815" lon="9.779819435845187" id="-47690">
		<tag k="alt_name" v="Søndre Rundtom" />
		<tag k="name" v="Søre Rundtom" />
		<tag k="place" v="farm" />
		<tag k="ssr:stedsnr" v="238784" />
	</node>
	<node lat="62.15799722352648" lon="10.181219448892078" id="-47692">
		<tag k="name" v="Elvemoen" />
		<tag k="place" v="isolated_dwelling" />
		<tag k="ssr:stedsnr" v="239009" />
	</node>
	<node lat="62.15356388917572" lon="9.863088889791811" id="-47700">
		<tag k="name" v="Torud" />
		<tag k="place" v="farm" />
		<tag k="ssr:stedsnr" v="240584" />
	</node>
	<node lat="62.15429722039297" lon="9.871719443243482" id="-47701">
		<tag k="fixme" v="consider place=hamlet" />
		<tag k="name" v="Brovollsveen" />
		<tag k="place" v="farm" />
		<tag k="ssr:stedsnr" v="240585" />
	</node>
	<node lat="61.96052499582196" lon="10.018280564410533" id="-47704">
		<tag k="name" v="Elvebakken" />
		<tag k="place" v="isolated_dwelling" />
		<tag k="ssr:stedsnr" v="240436" />
	</node>
	<node lat="62.175499998099404" lon="10.23878056141443" id="-47709">
		<tag k="name" v="Haugtun" />
		<tag k="place" v="farm" />
		<tag k="ssr:stedsnr" v="253012" />
	</node>
	<node lat="62.17549978192375" lon="9.791117205523628" id="-47711">
		<tag k="alt_name" v="Lilledal" />
		<tag k="name" v="Vesldalen" />
		<tag k="place" v="farm" />
		<tag k="ssr:stedsnr" v="253299" />
	</node>
	<node lat="62.156859040971305" lon="9.815758500359797" id="-47712">
		<tag k="alt_name" v="n Dalåsen" />
		<tag k="fixme" v="consider place=hamlet" />
		<tag k="name" v="Nordre Dalåsen" />
		<tag k="old_name" v="Dalaasen" />
		<tag k="place" v="farm" />
		<tag k="ssr:stedsnr" v="253307" />
	</node>
	<node lat="62.14916389039591" lon="9.862713896609643" id="-47714">
		<tag k="name" v="Øyvang" />
		<tag k="place" v="farm" />
		<tag k="ssr:stedsnr" v="253325" />
	</node>
	<node lat="62.15104166882618" lon="9.867533327590275" id="-47715">
		<tag k="alt_name" v="Brovoll" />
		<tag k="name" v="Bruvoll" />
		<tag k="place" v="farm" />
		<tag k="ssr:stedsnr" v="253328" />
	</node>
	<node lat="62.13239999592435" lon="10.168277786670838" id="-47717">
		<tag k="name" v="Sagholen" />
		<tag k="place" v="farm" />
		<tag k="ssr:stedsnr" v="253503" />
	</node>
	<node lat="62.12220833100354" lon="10.041783333402165" id="-47719">
		<tag k="name" v="Kriken" />
		<tag k="place" v="farm" />
		<tag k="ssr:stedsnr" v="253507" />
	</node>
	<node lat="62.12633788924502" lon="10.102028781044343" id="-47720">
		<tag k="fixme" v="consider place=hamlet" />
		<tag k="name" v="Brennodden" />
		<tag k="place" v="farm" />
		<tag k="ssr:stedsnr" v="253516" />
	</node>
	<node lat="62.19660612961053" lon="9.680391504249249" id="-47721">
		<tag k="fixme" v="consider place=hamlet" />
		<tag k="name" v="Bergseng" />
		<tag k="place" v="farm" />
		<tag k="ssr:stedsnr" v="253725" />
	</node>
	<node lat="62.258970520060444" lon="10.183402027117424" id="-47722">
		<tag k="alt_name" v="Stugulisætra, nord;Stugulisætra" />
		<tag k="fixme" v="multiple name tags, choose one and add the other to alt_name" />
		<tag k="historic" v="shieling" />
		<tag k="name" v="Rønningsætra;Nedre Stugulisætra" />
		<tag k="place" v="isolated_dwelling" />
		<tag k="ssr:stedsnr" v="254602" />
	</node>
	<node lat="62.33425000231726" lon="9.847927784653054" id="-47724">
		<tag k="historic" v="shieling" />
		<tag k="name" v="Furuhovdsætra" />
		<tag k="old_name" v="Furuhovdesætra" />
		<tag k="place" v="isolated_dwelling" />
		<tag k="ssr:stedsnr" v="254685" />
	</node>
	<node lat="62.16331666948957" lon="10.181199991845327" id="-47727">
		<tag k="name" v="Kjøllmoen" />
		<tag k="place" v="farm" />
		<tag k="ssr:stedsnr" v="299022" />
	</node>
	<node lat="62.172361109633236" lon="10.201597221614788" id="-47728">
		<tag k="name" v="Nedre Ryen" />
		<tag k="place" v="farm" />
		<tag k="ssr:stedsnr" v="299029" />
	</node>
	<node lat="62.142847220099235" lon="9.981383338480734" id="-47734">
		<tag k="name" v="Egne hjem" />
		<tag k="place" v="quarter" />
		<tag k="ssr:stedsnr" v="299585" />
	</node>
	<node lat="62.122093239934195" lon="10.08002867487166" id="-47741">
		<tag k="fixme" v="consider place=hamlet" />
		<tag k="name" v="Nedre Brandsnes" />
		<tag k="place" v="farm" />
		<tag k="ssr:stedsnr" v="301022" />
	</node>
	<node lat="62.010688891173174" lon="9.986194443422905" id="-47745">
		<tag k="alt_name" v="Nørdre Lien" />
		<tag k="name" v="Nørdre Elgevasslien" />
		<tag k="place" v="farm" />
		<tag k="ssr:stedsnr" v="301389" />
	</node>
	<node lat="62.32739999781447" lon="9.890833341105939" id="-47749">
		<tag k="name" v="Fundbua" />
		<tag k="place" v="isolated_dwelling" />
		<tag k="ssr:stedsnr" v="301875" />
	</node>
	<node lat="62.22511666545113" lon="10.233011110716129" id="-47753">
		<tag k="alt_name" v="Fremre Bjørnåssætran;Bjørnåssætran, søndre" />
		<tag k="historic" v="shieling" />
		<tag k="name" v="Søndre Bjørnåssætran" />
		<tag k="place" v="isolated_dwelling" />
		<tag k="ssr:stedsnr" v="314071" />
	</node>
	<node lat="62.200563888903126" lon="10.305563890435561" id="-47755">
		<tag k="name" v="Tomtan" />
		<tag k="place" v="farm" />
		<tag k="ssr:stedsnr" v="314114" />
	</node>
	<node lat="62.14760277433417" lon="9.856986114860971" id="-47758">
		<tag k="name" v="Barstad" />
		<tag k="old_name" v="Nedre og øvre Lonen" />
		<tag k="place" v="farm" />
		<tag k="ssr:stedsnr" v="314314" />
	</node>
	<node lat="62.15604444759157" lon="10.175136116633634" id="-47759">
		<tag k="name" v="Stortrøa" />
		<tag k="place" v="farm" />
		<tag k="ssr:stedsnr" v="314318" />
	</node>
	<node lat="62.1921333371769" lon="9.811633330576218" id="-47761">
		<tag k="alt_name" v="Furuhovde nordpå" />
		<tag k="name" v="Furuhovde" />
		<tag k="place" v="farm" />
		<tag k="ssr:stedsnr" v="314410" />
	</node>
	<node lat="62.15528888740942" lon="10.16168332649173" id="-47774">
		<tag k="name" v="Høgtun" />
		<tag k="place" v="isolated_dwelling" />
		<tag k="ssr:stedsnr" v="325287" />
	</node>
	<node lat="62.18783888779581" lon="10.262819451880338" id="-47783">
		<tag k="name" v="Bakken" />
		<tag k="place" v="farm" />
		<tag k="ssr:stedsnr" v="360319" />
	</node>
	<node lat="61.92325235026918" lon="10.055602563520312" id="-47789">
		<tag k="alt_name" v="Søre Strømbuen" />
		<tag k="name" v="Søre Straumbu" />
		<tag k="place" v="farm" />
		<tag k="ssr:stedsnr" v="363410" />
	</node>
	<node lat="62.15316944266727" lon="10.16353056293264" id="-47790">
		<tag k="alt_name" v="Grimsbo" />
		<tag k="name" v="Grimsbu" />
		<tag k="place" v="farm" />
		<tag k="ssr:stedsnr" v="478655" />
	</node>
	<node lat="61.9403638845513" lon="10.018705547981668" id="-47793">
		<tag k="name" v="Gammelgarden" />
		<tag k="place" v="farm" />
		<tag k="ssr:stedsnr" v="373619" />
	</node>
	<node lat="62.16091388634139" lon="10.147724999872372" id="-47794">
		<tag k="name" v="Solhaug" />
		<tag k="place" v="farm" />
		<tag k="ssr:stedsnr" v="374316" />
	</node>
	<node lat="62.16281944392537" lon="9.810461114069525" id="-47795">
		<tag k="name" v="Tøftan" />
		<tag k="place" v="farm" />
		<tag k="ssr:stedsnr" v="374291" />
	</node>
	<node lat="62.137348125533386" lon="10.017242311447239" id="-47799">
		<tag k="fixme" v="consider place=hamlet" />
		<tag k="name" v="Lien" />
		<tag k="place" v="farm" />
		<tag k="ssr:stedsnr" v="374440" />
	</node>
	<node lat="62.12817392634111" lon="10.025127761707141" id="-47800">
		<tag k="fixme" v="consider place=hamlet" />
		<tag k="name" v="Nørdre Flyen" />
		<tag k="place" v="farm" />
		<tag k="ssr:stedsnr" v="374447" />
	</node>
	<node lat="62.235250000888286" lon="10.227980562816233" id="-47801">
		<tag k="alt_name" v="Indre Bjørnåssætran;Bjørnåssætran, nordre" />
		<tag k="historic" v="shieling" />
		<tag k="name" v="Nordre Bjørnåssætran" />
		<tag k="place" v="isolated_dwelling" />
		<tag k="ssr:stedsnr" v="375391" />
	</node>
	<node lat="62.12335751878442" lon="10.030928178217351" id="-47802">
		<tag k="alt_name" v="Støen" />
		<tag k="fixme" v="consider place=hamlet" />
		<tag k="name" v="Stea" />
		<tag k="place" v="farm" />
		<tag k="ssr:stedsnr" v="375431" />
	</node>
	<node lat="62.102280565729444" lon="9.987540205856616" id="-47803">
		<tag k="name" v="Nedre Sletten" />
		<tag k="place" v="farm" />
		<tag k="ssr:stedsnr" v="375442" />
	</node>
	<node lat="62.282661113493205" lon="10.32529166391177" id="-47809">
		<tag k="historic" v="shieling" />
		<tag k="name" v="Haugsvangen" />
		<tag k="place" v="isolated_dwelling" />
		<tag k="ssr:stedsnr" v="375886" />
	</node>
	<node lat="62.1254166644878" lon="10.040963879780751" id="-47814">
		<tag k="name" v="Follheim" />
		<tag k="place" v="farm" />
		<tag k="ssr:stedsnr" v="481115" />
	</node>
	<node lat="62.13358055939162" lon="10.015916675583899" id="-47815">
		<tag k="alt_name" v="Torshaug" />
		<tag k="name" v="Torsheim" />
		<tag k="place" v="farm" />
		<tag k="ssr:stedsnr" v="481121" />
	</node>
	<node lat="62.18000555276917" lon="9.825936104489756" id="-47827">
		<tag k="alt_name" v="Upheim" />
		<tag k="name" v="Uppheim" />
		<tag k="place" v="farm" />
		<tag k="ssr:stedsnr" v="481753" />
	</node>
	<node lat="62.19388816484884" lon="9.69978967263554" id="-47830">
		<tag k="alt_name" v="Slåen" />
		<tag k="name" v="Søre Slåen" />
		<tag k="place" v="farm" />
		<tag k="ssr:stedsnr" v="481982" />
	</node>
	<node lat="62.16776111500359" lon="9.863358328061066" id="-47837">
		<tag k="name" v="Bekkestua" />
		<tag k="place" v="locality" />
		<tag k="ssr:stedsnr" v="482577" />
	</node>
	<node lat="62.13062720618653" lon="10.048049630664549" id="-47841">
		<tag k="alt_name" v="Koieplass" />
		<tag k="fixme" v="consider place=hamlet" />
		<tag k="name" v="Koieplassen" />
		<tag k="place" v="farm" />
		<tag k="ssr:stedsnr" v="483114" />
	</node>
	<node lat="62.155975002569356" lon="10.162341660166552" id="-47854">
		<tag k="name" v="Søndre Holen" />
		<tag k="place" v="farm" />
		<tag k="ssr:stedsnr" v="483939" />
	</node>
	<node lat="62.1276423156385" lon="10.043357792729896" id="-47855">
		<tag k="fixme" v="consider place=hamlet" />
		<tag k="name" v="Krokhaugen" />
		<tag k="place" v="farm" />
		<tag k="ssr:stedsnr" v="396386" />
	</node>
	<node lat="62.09714444606348" lon="9.959266675381272" id="-47856">
		<tag k="name" v="Nordre Streitlie" />
		<tag k="place" v="farm" />
		<tag k="ssr:stedsnr" v="396287" />
	</node>
	<node lat="61.96490277962069" lon="10.028855560530886" id="-47857">
		<tag k="name" v="Kristenstad" />
		<tag k="place" v="locality" />
		<tag k="ssr:stedsnr" v="420491" />
	</node>
	<node lat="62.167027773397585" lon="10.189080548853902" id="-47860">
		<tag k="name" v="Nergård camping" />
		<tag k="ssr:stedsnr" v="421019" />
		<tag k="tourism" v="camp_site" />
	</node>
	<node lat="62.191466668687404" lon="10.271424993763105" id="-47862">
		<tag k="name" v="Søndre Stormælen" />
		<tag k="place" v="farm" />
		<tag k="ssr:stedsnr" v="421338" />
	</node>
	<node lat="62.18431944595601" lon="9.74208888031536" id="-47864">
		<tag k="name" v="Slåen gamle skole" />
		<tag k="place" v="isolated_dwelling" />
		<tag k="ssr:stedsnr" v="421788" />
	</node>
	<node lat="62.130261534031966" lon="10.052495258763948" id="-47867">
		<tag k="alt_name" v="Torsplassen" />
		<tag k="fixme" v="consider place=hamlet" />
		<tag k="name" v="Erlien" />
		<tag k="place" v="farm" />
		<tag k="ssr:stedsnr" v="422098" />
	</node>
	<node lat="62.073833331996724" lon="9.95275556394117" id="-47872">
		<tag k="alt_name" v="Søndre Fallet" />
		<tag k="name" v="Søre Fallet" />
		<tag k="place" v="farm" />
		<tag k="ssr:stedsnr" v="422539" />
	</node>
	<node lat="62.22239444223357" lon="10.036933326952798" id="-47874">
		<tag k="name" v="Skardbekkbua" />
		<tag k="place" v="locality" />
		<tag k="ssr:stedsnr" v="422550" />
	</node>
	<node lat="62.1895750022052" lon="9.758397219521681" id="-47876">
		<tag k="alt_name" v="Sletten" />
		<tag k="name" v="Nedre Sletten" />
		<tag k="place" v="farm" />
		<tag k="ssr:stedsnr" v="422818" />
	</node>
	<node lat="62.1709666624304" lon="9.833883333975665" id="-47884">
		<tag k="name" v="Rundmyra" />
		<tag k="place" v="farm" />
		<tag k="ssr:stedsnr" v="491669" />
	</node>
	<node lat="61.97198239081905" lon="10.025922213401456" id="-47885">
		<tag k="alt_name" v="Eriksrud" />
		<tag k="fixme" v="consider place=hamlet" />
		<tag k="name" v="Eiriksrud" />
		<tag k="place" v="farm" />
		<tag k="ssr:stedsnr" v="434475" />
	</node>
	<node lat="61.959027775840845" lon="10.018408334434634" id="-47889">
		<tag k="name" v="Morken" />
		<tag k="place" v="farm" />
		<tag k="ssr:stedsnr" v="434592" />
	</node>
	<node lat="62.15328611320279" lon="9.840347223726729" id="-47894">
		<tag k="alt_name" v="Nygard" />
		<tag k="name" v="Nygård" />
		<tag k="place" v="farm" />
		<tag k="ssr:stedsnr" v="435312" />
	</node>
	<node lat="62.1544833344494" lon="10.17564166510638" id="-47895">
		<tag k="name" v="Øymoen" />
		<tag k="place" v="farm" />
		<tag k="ssr:stedsnr" v="435316" />
	</node>
	<node lat="62.27746110926049" lon="10.146374991221247" id="-47906">
		<tag k="historic" v="shieling" />
		<tag k="name" v="Lisætran" />
		<tag k="place" v="isolated_dwelling" />
		<tag k="ssr:stedsnr" v="436612" />
	</node>
	<node lat="62.140372224372" lon="10.147347214429795" id="-47908">
		<tag k="alt_name" v="Nedre Brennryen" />
		<tag k="name" v="Nedre Brennrya" />
		<tag k="place" v="farm" />
		<tag k="ssr:stedsnr" v="444931" />
	</node>
	<node lat="61.95843055512169" lon="10.026200005801241" id="-47914">
		<tag k="name" v="Solvang" />
		<tag k="place" v="farm" />
		<tag k="ssr:stedsnr" v="677608" />
	</node>
	<node lat="62.16383889123168" lon="10.150108324657138" id="-47915">
		<tag k="name" v="Nordset" />
		<tag k="place" v="farm" />
		<tag k="ssr:stedsnr" v="678293" />
	</node>
	<node lat="62.14855802375558" lon="9.856034871578693" id="-47916">
		<tag k="alt_name" v="Akerhaug" />
		<tag k="fixme" v="consider place=hamlet" />
		<tag k="name" v="Åkerhaugen" />
		<tag k="place" v="farm" />
		<tag k="ssr:stedsnr" v="678300" />
	</node>
	<node lat="62.13759444201791" lon="9.952155553052833" id="-47917">
		<tag k="alt_name" v="Ytterjordet" />
		<tag k="name" v="Nyhus" />
		<tag k="place" v="farm" />
		<tag k="ssr:stedsnr" v="678318" />
	</node>
	<node lat="62.143803161308966" lon="9.954040350353413" id="-47918">
		<tag k="fixme" v="consider place=hamlet" />
		<tag k="name" v="Steinhaugen" />
		<tag k="place" v="farm" />
		<tag k="ssr:stedsnr" v="678320" />
	</node>
	<node lat="62.134288891348945" lon="9.998322224914588" id="-47920">
		<tag k="name" v="Gullset" />
		<tag k="place" v="isolated_dwelling" />
		<tag k="ssr:stedsnr" v="481111" />
	</node>
	<node lat="62.17427945622711" lon="9.817774240331817" id="-47921">
		<tag k="fixme" v="consider place=hamlet" />
		<tag k="name" v="Dalholen" />
		<tag k="place" v="village" />
		<tag k="ssr:stedsnr" v="678271" />
	</node>
	<node lat="62.147677774890944" lon="10.16525556493217" id="-47922">
		<tag k="alt_name" v="Storryen" />
		<tag k="name" v="Storrya" />
		<tag k="place" v="farm" />
		<tag k="ssr:stedsnr" v="678325" />
	</node>
	<node lat="62.13180827256531" lon="9.904165382618094" id="-47930">
		<tag k="fixme" v="consider place=hamlet" />
		<tag k="name" v="Nedre Gåshovdet" />
		<tag k="place" v="farm" />
		<tag k="ssr:stedsnr" v="481559" />
	</node>
	<node lat="62.1357638864302" lon="10.086413881673673" id="-47933">
		<tag k="name" v="Liheim" />
		<tag k="place" v="locality" />
		<tag k="ssr:stedsnr" v="481615" />
	</node>
	<node lat="62.19316111061606" lon="9.785249997022841" id="-47936">
		<tag k="name" v="Øystad" />
		<tag k="place" v="locality" />
		<tag k="ssr:stedsnr" v="481812" />
	</node>
	<node lat="62.24877222101428" lon="10.238591671379107" id="-47938">
		<tag k="historic" v="shieling" />
		<tag k="name" v="Ørnklettsætran" />
		<tag k="place" v="isolated_dwelling" />
		<tag k="ssr:stedsnr" v="678440" />
	</node>
	<node lat="62.142983401017936" lon="10.024567118007775" id="-47943">
		<tag k="fixme" v="consider place=hamlet" />
		<tag k="name" v="Brandplassen" />
		<tag k="old_name" v="Brandplass" />
		<tag k="place" v="farm" />
		<tag k="ssr:stedsnr" v="678469" />
	</node>
	<node lat="62.205668477275125" lon="9.669865832657385" id="-47945">
		<tag k="alt_name" v="Børsungsæter" />
		<tag k="loc_name" v="Børsungsætre" />
		<tag k="name" v="Børsungsætri" />
		<tag k="old_name" v="Børsungsætrin" />
		<tag k="place" v="hamlet" />
		<tag k="ssr:stedsnr" v="678736" />
	</node>
	<node lat="62.28351111097599" lon="10.1286499951167" id="-47947">
		<tag k="historic" v="shieling" />
		<tag k="name" v="Geitsætra" />
		<tag k="place" v="isolated_dwelling" />
		<tag k="ssr:stedsnr" v="483208" />
	</node>
	<node lat="62.15578055249113" lon="9.876377773456541" id="-47952">
		<tag k="name" v="Bruvollåkeren" />
		<tag k="place" v="farm" />
		<tag k="ssr:stedsnr" v="483602" />
	</node>
	<node lat="62.287260393487934" lon="10.075885383518898" id="-47961">
		<tag k="historic" v="shieling" />
		<tag k="name" v="Klokkarhaugsætra" />
		<tag k="place" v="isolated_dwelling" />
		<tag k="ssr:stedsnr" v="679652" />
	</node>
	<node lat="62.2236805590303" lon="9.736977770803776" id="-47969">
		<tag k="historic" v="shieling" />
		<tag k="name" v="Dovrekvitdalen" />
		<tag k="old_name" v="Dovre-Kvitdalssætrin" />
		<tag k="place" v="isolated_dwelling" />
		<tag k="ssr:stedsnr" v="496363" />
	</node>
	<node lat="62.20381666403404" lon="10.07299721884084" id="-47971">
		<tag k="historic" v="shieling" />
		<tag k="name" v="Flatåssætre" />
		<tag k="place" v="isolated_dwelling" />
		<tag k="ssr:stedsnr" v="496372" />
	</node>
	<node lat="62.12466388585852" lon="10.088697217333925" id="-47977">
		<tag k="name" v="Sandhaugen" />
		<tag k="place" v="farm" />
		<tag k="ssr:stedsnr" v="496500" />
	</node>
	<node lat="62.15620723746955" lon="9.764581736083379" id="-47979">
		<tag k="historic" v="shieling" />
		<tag k="name" v="Nysætre" />
		<tag k="place" v="isolated_dwelling" />
		<tag k="ssr:stedsnr" v="496707" />
	</node>
	<node lat="62.26368333536999" lon="10.320474990716633" id="-47982">
		<tag k="historic" v="shieling" />
		<tag k="name" v="Sørhussætra" />
		<tag k="place" v="isolated_dwelling" />
		<tag k="ssr:stedsnr" v="497013" />
	</node>
	<node lat="62.134463888991995" lon="10.095991670315748" id="-47985">
		<tag k="name" v="Li" />
		<tag k="place" v="farm" />
		<tag k="ssr:stedsnr" v="507823" />
	</node>
	<node lat="62.12087500077761" lon="10.0429444539968" id="-47993">
		<tag k="alt_name" v="Lillekroken" />
		<tag k="name" v="Veslkroken" />
		<tag k="place" v="farm" />
		<tag k="ssr:stedsnr" v="542104" />
	</node>
	<node lat="62.132008334925224" lon="10.01367221403667" id="-47994">
		<tag k="name" v="Plassen" />
		<tag k="place" v="farm" />
		<tag k="ssr:stedsnr" v="542110" />
	</node>
	<node lat="62.177630551995435" lon="9.83911943703142" id="-47999">
		<tag k="name" v="Sørhovde" />
		<tag k="place" v="farm" />
		<tag k="ssr:stedsnr" v="542779" />
	</node>
	<node lat="62.12694722367648" lon="10.049361119313318" id="-48008">
		<tag k="name" v="Fredly" />
		<tag k="place" v="farm" />
		<tag k="ssr:stedsnr" v="543115" />
	</node>
	<node lat="62.17054166876125" lon="9.856216675520923" id="-48020">
		<tag k="alt_name" v="Nedre Uppistugu Dalen" />
		<tag k="name" v="Søre Uppistugu Dalen" />
		<tag k="place" v="farm" />
		<tag k="ssr:stedsnr" v="555614" />
	</node>
	<node lat="62.188405556018004" lon="9.833522224504241" id="-48022">
		<tag k="alt_name" v="Stålan, nordre;Nordre Stålene;Nordre Stålan" />
		<tag k="name" v="Nørdre Stålan" />
		<tag k="place" v="farm" />
		<tag k="ssr:stedsnr" v="556320" />
	</node>
	<node lat="62.16030833107479" lon="9.823008326685704" id="-48023">
		<tag k="name" v="Bjørkeng" />
		<tag k="place" v="farm" />
		<tag k="ssr:stedsnr" v="556329" />
	</node>
	<node lat="62.13201964447999" lon="10.158218542463832" id="-48024">
		<tag k="fixme" v="consider place=hamlet" />
		<tag k="name" v="Kvebergsøya" />
		<tag k="old_name" v="Kvebergsøyi" />
		<tag k="place" v="farm" />
		<tag k="ssr:stedsnr" v="556504" />
	</node>
	<node lat="62.1241111130993" lon="10.053313881029094" id="-48026">
		<tag k="name" v="Fløtten" />
		<tag k="place" v="farm" />
		<tag k="ssr:stedsnr" v="557448" />
	</node>
	<node lat="62.189478004469414" lon="9.812225246866863" id="-48030">
		<tag k="fixme" v="consider place=hamlet" />
		<tag k="name" v="Furuhovdan" />
		<tag k="place" v="farm" />
		<tag k="ssr:stedsnr" v="690840" />
	</node>
	<node lat="62.15031944478541" lon="10.163074994874094" id="-48041">
		<tag k="name" v="Vestre Grimsbu" />
		<tag k="place" v="farm" />
		<tag k="ssr:stedsnr" v="599654" />
	</node>
	<node lat="61.97445555813789" lon="10.024155550289176" id="-48045">
		<tag k="name" v="Tangen" />
		<tag k="place" v="isolated_dwelling" />
		<tag k="ssr:stedsnr" v="602314" />
	</node>
	<node lat="62.12619722445238" lon="10.100069443277276" id="-48061">
		<tag k="name" v="Nedre Odden" />
		<tag k="place" v="farm" />
		<tag k="ssr:stedsnr" v="604024" />
	</node>
	<node lat="62.07168611488591" lon="9.949327774258055" id="-48068">
		<tag k="name" v="Nordre Fallet" />
		<tag k="place" v="farm" />
		<tag k="ssr:stedsnr" v="604538" />
	</node>
	<node lat="62.208063891912055" lon="10.279355563869617" id="-48078">
		<tag k="alt_name" v="Moskarsætran" />
		<tag k="historic" v="shieling" />
		<tag k="name" v="Moskardsætra" />
		<tag k="place" v="isolated_dwelling" />
		<tag k="ssr:stedsnr" v="617090" />
	</node>
	<node lat="62.19454166390198" lon="9.828638881318774" id="-48081">
		<tag k="name" v="Nordli" />
		<tag k="place" v="farm" />
		<tag k="ssr:stedsnr" v="617403" />
	</node>
	<node lat="62.076241666978454" lon="9.973377776195132" id="-48082">
		<tag k="name" v="Holen" />
		<tag k="place" v="farm" />
		<tag k="ssr:stedsnr" v="617409" />
	</node>
	<node lat="62.008869448528976" lon="9.932280559003976" id="-48084">
		<tag k="historic" v="shieling" />
		<tag k="name" v="Veslsætre" />
		<tag k="place" v="isolated_dwelling" />
		<tag k="ssr:stedsnr" v="617443" />
	</node>
	<node lat="62.18949869234285" lon="9.797956956053406" id="-48088">
		<tag k="name" v="Simenstad" />
		<tag k="place" v="farm" />
		<tag k="ssr:stedsnr" v="617389" />
	</node>
	<node lat="62.18589131330817" lon="9.769890128492035" id="-48089">
		<tag k="fixme" v="consider place=hamlet" />
		<tag k="name" v="Dragåsen" />
		<tag k="place" v="farm" />
		<tag k="ssr:stedsnr" v="617392" />
	</node>
	<node lat="62.115875121716066" lon="10.03785925554473" id="-48091">
		<tag k="name" v="Nytrøen" />
		<tag k="place" v="farm" />
		<tag k="ssr:stedsnr" v="617507" />
	</node>
	<node lat="62.11059166346712" lon="10.05947500680983" id="-48092">
		<tag k="name" v="Øystad" />
		<tag k="place" v="farm" />
		<tag k="ssr:stedsnr" v="617508" />
	</node>
	<node lat="62.11184284230512" lon="10.059718338811512" id="-48093">
		<tag k="name" v="Øyan" />
		<tag k="place" v="farm" />
		<tag k="ssr:stedsnr" v="617509" />
	</node>
	<node lat="62.09924166325926" lon="10.156436114484782" id="-48094">
		<tag k="historic" v="shieling" />
		<tag k="name" v="Døltjønnsætre" />
		<tag k="place" v="isolated_dwelling" />
		<tag k="ssr:stedsnr" v="617511" />
	</node>
	<node lat="62.25398928021158" lon="10.26888095985022" id="-48099">
		<tag k="alt_name" v="Markbulisætran" />
		<tag k="historic" v="shieling" />
		<tag k="name" v="Markbulia" />
		<tag k="place" v="isolated_dwelling" />
		<tag k="ssr:stedsnr" v="618027" />
	</node>
	<node lat="62.28346666716518" lon="10.125780546698193" id="-48103">
		<tag k="historic" v="shieling" />
		<tag k="name" v="Blostrupmosætra" />
		<tag k="place" v="isolated_dwelling" />
		<tag k="ssr:stedsnr" v="618649" />
	</node>
	<node lat="62.140302776723566" lon="9.984505558987463" id="-48106">
		<tag k="name" v="Bekkelaget" />
		<tag k="place" v="quarter" />
		<tag k="ssr:stedsnr" v="663092" />
	</node>
	<node lat="62.141511108133706" lon="9.991316669002325" id="-48107">
		<tag k="name" v="Verket" />
		<tag k="place" v="quarter" />
		<tag k="ssr:stedsnr" v="663097" />
	</node>
	<node lat="62.12019444528924" lon="9.996952779228845" id="-48109">
		<tag k="name" v="Myrli" />
		<tag k="place" v="locality" />
		<tag k="ssr:stedsnr" v="663099" />
	</node>
	<node lat="62.13346944150057" lon="9.921241667801874" id="-48112">
		<tag k="name" v="Nordre Randen" />
		<tag k="place" v="farm" />
		<tag k="ssr:stedsnr" v="663538" />
	</node>
	<node lat="62.12211111054715" lon="10.06633055113389" id="-48113">
		<tag k="name" v="Trysilplass" />
		<tag k="place" v="isolated_dwelling" />
		<tag k="ssr:stedsnr" v="664027" />
	</node>
	<node lat="62.12062500088437" lon="10.046666664113737" id="-48114">
		<tag k="name" v="Enget" />
		<tag k="place" v="farm" />
		<tag k="ssr:stedsnr" v="664028" />
	</node>
	<node lat="62.00935833727484" lon="9.985691664980756" id="-48120">
		<tag k="alt_name" v="Søre Lien" />
		<tag k="name" v="Søre Elgevasslien" />
		<tag k="place" v="farm" />
		<tag k="ssr:stedsnr" v="664238" />
	</node>
	<node lat="62.18796666840776" lon="9.776136114726317" id="-48128">
		<tag k="name" v="Lilleeide" />
		<tag k="place" v="farm" />
		<tag k="ssr:stedsnr" v="664807" />
	</node>
	<node lat="62.100461110354146" lon="9.961902775221386" id="-48134">
		<tag k="name" v="Uppigard" />
		<tag k="place" v="farm" />
		<tag k="ssr:stedsnr" v="665595" />
	</node>
	<node lat="62.183177776236285" lon="10.245166666897887" id="-48139">
		<tag k="name" v="Kletten" />
		<tag k="place" v="farm" />
		<tag k="ssr:stedsnr" v="678035" />
	</node>
	<node lat="62.19549722210566" lon="10.344855550471003" id="-48141">
		<tag k="alt_name" v="Veslholmen" />
		<tag k="name" v="Vesleholmen" />
		<tag k="place" v="farm" />
		<tag k="ssr:stedsnr" v="678117" />
	</node>
	<node lat="62.15822499608986" lon="10.079086106861487" id="-48142">
		<tag k="historic" v="shieling" />
		<tag k="name" v="Klettsætran" />
		<tag k="place" v="isolated_dwelling" />
		<tag k="ssr:stedsnr" v="678311" />
	</node>
	<node lat="62.18412764392281" lon="9.834687541131437" id="-48143">
		<tag k="alt_name" v="Stålan, søre;Stålene søndre" />
		<tag k="name" v="Søre Stålan" />
		<tag k="place" v="farm" />
		<tag k="ssr:stedsnr" v="678281" />
	</node>
	<node lat="62.15670493864207" lon="9.856128468608782" id="-48144">
		<tag k="fixme" v="consider place=hamlet" />
		<tag k="name" v="Dalflyen" />
		<tag k="place" v="farm" />
		<tag k="ssr:stedsnr" v="678287" />
	</node>
	<node lat="62.067699933544965" lon="10.187877383285281" id="-48146">
		<tag k="historic" v="shieling" />
		<tag k="name" v="Bjørnsætre" />
		<tag k="place" v="isolated_dwelling" />
		<tag k="ssr:stedsnr" v="678413" />
	</node>
	<node lat="62.131224123229636" lon="9.902917193298126" id="-48147">
		<tag k="name" v="Hovda" />
		<tag k="place" v="hamlet" />
		<tag k="ssr:stedsnr" v="678476" />
	</node>
	<node lat="62.136169446048974" lon="10.011313881725359" id="-48148">
		<tag k="name" v="Nergard" />
		<tag k="place" v="farm" />
		<tag k="ssr:stedsnr" v="678480" />
	</node>
	<node lat="62.123605557079046" lon="10.09446945119073" id="-48150">
		<tag k="alt_name" v="Svenplass" />
		<tag k="name" v="Svensplassen" />
		<tag k="place" v="farm" />
		<tag k="ssr:stedsnr" v="678489" />
	</node>
	<node lat="62.20391666464886" lon="10.069708335641504" id="-48153">
		<tag k="historic" v="shieling" />
		<tag k="name" v="Erlisætre" />
		<tag k="place" v="isolated_dwelling" />
		<tag k="ssr:stedsnr" v="678379" />
	</node>
	<node lat="62.36165527793915" lon="10.186630833633807" id="-48157">
		<tag k="historic" v="shieling" />
		<tag k="name" v="Gløtlægret" />
		<tag k="place" v="isolated_dwelling" />
		<tag k="ssr:stedsnr" v="678703" />
	</node>
	<node lat="62.25965933233296" lon="10.202878572473123" id="-48164">
		<tag k="historic" v="shieling" />
		<tag k="name" v="Randmelssætra" />
		<tag k="old_name" v="Randmælsætra" />
		<tag k="place" v="isolated_dwelling" />
		<tag k="ssr:stedsnr" v="679583" />
	</node>
	<node lat="62.270744445520485" lon="10.324500000774975" id="-48165">
		<tag k="alt_name" v="Trøomvangen" />
		<tag k="historic" v="shieling" />
		<tag k="name" v="Trøansætra" />
		<tag k="place" v="isolated_dwelling" />
		<tag k="ssr:stedsnr" v="679872" />
	</node>
	<node lat="62.125122223904704" lon="10.050380559205799" id="-48183">
		<tag k="alt_name" v="Søndre Kvannsletten" />
		<tag k="name" v="Søre Kvannsletten" />
		<tag k="place" v="farm" />
		<tag k="ssr:stedsnr" v="725030" />
	</node>
	<node lat="62.174613892653824" lon="10.211405561778287" id="-48194">
		<tag k="name" v="Lognstad" />
		<tag k="place" v="farm" />
		<tag k="ssr:stedsnr" v="726020" />
	</node>
	<node lat="62.14923055156159" lon="10.161008324405275" id="-48207">
		<tag k="name" v="Grimstun" />
		<tag k="place" v="isolated_dwelling" />
		<tag k="ssr:stedsnr" v="726925" />
	</node>
	<node lat="62.15256944670857" lon="10.172244452996345" id="-48209">
		<tag k="name" v="Rytrøa" />
		<tag k="place" v="farm" />
		<tag k="ssr:stedsnr" v="738310" />
	</node>
	<node lat="62.14894444107145" lon="10.159211118911" id="-48210">
		<tag k="name" v="Eggemoen" />
		<tag k="place" v="farm" />
		<tag k="ssr:stedsnr" v="738311" />
	</node>
	<node lat="62.25223333429764" lon="10.264016657225724" id="-48219">
		<tag k="historic" v="shieling" />
		<tag k="name" v="Kjøllsætra" />
		<tag k="place" v="isolated_dwelling" />
		<tag k="ssr:stedsnr" v="739027" />
	</node>
	<node lat="62.16512045062189" lon="10.184034546706362" id="-48223">
		<tag k="fixme" v="consider place=hamlet" />
		<tag k="name" v="Kjølle" />
		<tag k="place" v="farm" />
		<tag k="ssr:stedsnr" v="739264" />
	</node>
	<node lat="62.19645818515364" lon="9.648199419816867" id="-48226">
		<tag k="fixme" v="consider place=hamlet" />
		<tag k="name" v="Rydningsøyen" />
		<tag k="place" v="farm" />
		<tag k="ssr:stedsnr" v="739716" />
	</node>
	<node lat="62.18367533438459" lon="9.697836157721332" id="-48228">
		<tag k="fixme" v="consider place=hamlet" />
		<tag k="name" v="Solvang" />
		<tag k="place" v="farm" />
		<tag k="ssr:stedsnr" v="739728" />
	</node>
	<node lat="62.2103805555563" lon="10.371266668787246" id="-48229">
		<tag k="name" v="Nyrommet" />
		<tag k="place" v="locality" />
		<tag k="ssr:stedsnr" v="902964" />
	</node>
	<node lat="62.13465720164603" lon="10.03721177176159" id="-48235">
		<tag k="alt_name" v="Beitrustplassen;Beitrustbakken" />
		<tag k="fixme" v="consider place=hamlet" />
		<tag k="name" v="Sakariasplassen" />
		<tag k="place" v="farm" />
		<tag k="ssr:stedsnr" v="906092" />
	</node>
	<node lat="62.13202751443392" lon="10.010997860771836" id="-48236">
		<tag k="alt_name" v="Fasteplass" />
		<tag k="fixme" v="consider place=hamlet" />
		<tag k="name" v="Fasteplassen" />
		<tag k="place" v="farm" />
		<tag k="ssr:stedsnr" v="906094" />
	</node>
	<node lat="62.17883060742725" lon="9.826133162412226" id="-48246">
		<tag k="alt_name" v="Nergard" />
		<tag k="name" v="Nedre Dalen" />
		<tag k="place" v="farm" />
		<tag k="ssr:stedsnr" v="906779" />
	</node>
	<node lat="62.17336049408185" lon="9.789746471258558" id="-48247">
		<tag k="alt_name" v="Dalslåen" />
		<tag k="name" v="Øvre Dalslåen" />
		<tag k="place" v="farm" />
		<tag k="ssr:stedsnr" v="906814" />
	</node>
	<node lat="62.203889641053564" lon="9.77620545268109" id="-48250">
		<tag k="name" v="Langfly" />
		<tag k="place" v="farm" />
		<tag k="ssr:stedsnr" v="906793" />
	</node>
	<node lat="62.19711032087224" lon="9.688856929425725" id="-48254">
		<tag k="name" v="Østgård" />
		<tag k="place" v="locality" />
		<tag k="ssr:stedsnr" v="906985" />
	</node>
	<node lat="62.122227774973766" lon="10.070352787241475" id="-48256">
		<tag k="name" v="Borkhus" />
		<tag k="place" v="farm" />
		<tag k="ssr:stedsnr" v="908032" />
	</node>
	<node lat="62.15834166677608" lon="10.10272777820071" id="-48261">
		<tag k="historic" v="shieling" />
		<tag k="name" v="Bekksætra" />
		<tag k="place" v="isolated_dwelling" />
		<tag k="ssr:stedsnr" v="908606" />
	</node>
	<node lat="62.19488055756732" lon="10.3326472160112" id="-48264">
		<tag k="name" v="Trøa" />
		<tag k="place" v="locality" />
		<tag k="ssr:stedsnr" v="908421" />
	</node>
	<node lat="62.14691666262005" lon="9.897394449277556" id="-48269">
		<tag k="name" v="Elvestad" />
		<tag k="place" v="locality" />
		<tag k="ssr:stedsnr" v="908591" />
	</node>
	<node lat="62.14419166867472" lon="9.936647225096355" id="-48270">
		<tag k="name" v="Solly" />
		<tag k="place" v="farm" />
		<tag k="ssr:stedsnr" v="908594" />
	</node>
	<node lat="62.13238611112091" lon="9.999594451561613" id="-48279">
		<tag k="name" v="Follvang" />
		<tag k="place" v="farm" />
		<tag k="ssr:stedsnr" v="784114" />
	</node>
	<node lat="62.113471841100626" lon="10.060806047131374" id="-48290">
		<tag k="name" v="Osøyen" />
		<tag k="place" v="farm" />
		<tag k="ssr:stedsnr" v="786049" />
	</node>
	<node lat="62.009883331290396" lon="9.986613879973739" id="-48294">
		<tag k="alt_name" v="Midtlien" />
		<tag k="name" v="Midtre Elgevasslien" />
		<tag k="place" v="farm" />
		<tag k="ssr:stedsnr" v="786404" />
	</node>
	<node lat="62.17566111058618" lon="9.838158335395491" id="-48303">
		<tag k="name" v="Åkre" />
		<tag k="place" v="farm" />
		<tag k="ssr:stedsnr" v="795684" />
	</node>
	<node lat="62.17127222550724" lon="9.80088055376993" id="-48304">
		<tag k="name" v="Nordre Tuvan" />
		<tag k="place" v="farm" />
		<tag k="ssr:stedsnr" v="798610" />
	</node>
	<node lat="62.15888370431128" lon="9.815261654251048" id="-48310">
		<tag k="fixme" v="consider place=hamlet" />
		<tag k="name" v="Bekken" />
		<tag k="place" v="farm" />
		<tag k="ssr:stedsnr" v="799287" />
	</node>
	<node lat="62.14870000040262" lon="9.871666673052319" id="-48313">
		<tag k="alt_name" v="Strømhaug" />
		<tag k="name" v="Straumhaug" />
		<tag k="place" v="farm" />
		<tag k="ssr:stedsnr" v="799301" />
	</node>
	<node lat="62.184683332915434" lon="10.251088880825808" id="-48317">
		<tag k="name" v="Fredheim" />
		<tag k="place" v="farm" />
		<tag k="ssr:stedsnr" v="800033" />
	</node>
	<node lat="62.134413901519636" lon="10.035225453699372" id="-48319">
		<tag k="name" v="Beitrusten" />
		<tag k="place" v="hamlet" />
		<tag k="ssr:stedsnr" v="800434" />
	</node>
	<node lat="62.13506060813047" lon="10.025429807417465" id="-48320">
		<tag k="fixme" v="consider place=hamlet" />
		<tag k="name" v="Klemetplassen" />
		<tag k="place" v="farm" />
		<tag k="ssr:stedsnr" v="800452" />
	</node>
	<node lat="62.174033331762" lon="9.836288881511305" id="-48327">
		<tag k="name" v="Søre Nystugu" />
		<tag k="place" v="farm" />
		<tag k="ssr:stedsnr" v="916698" />
	</node>
	<node lat="61.93798631325955" lon="10.021737162158175" id="-48332">
		<tag k="alt_name" v="Sætri" />
		<tag k="fixme" v="consider place=hamlet" />
		<tag k="name" v="Sætre" />
		<tag k="place" v="farm" />
		<tag k="ssr:stedsnr" v="920623" />
	</node>
	<node lat="62.1193248529384" lon="9.923629278872651" id="-48336">
		<tag k="alt_name" v="Moldalsætran" />
		<tag k="historic" v="shieling" />
		<tag k="name" v="Moldalssætrin" />
		<tag k="place" v="isolated_dwelling" />
		<tag k="ssr:stedsnr" v="921493" />
	</node>
	<node lat="62.227794443393535" lon="10.264477778534864" id="-48337">
		<tag k="alt_name" v="Skarvåssætra" />
		<tag k="historic" v="shieling" />
		<tag k="name" v="Skarvåssætran" />
		<tag k="old_name" v="Skarvåsætra" />
		<tag k="place" v="isolated_dwelling" />
		<tag k="ssr:stedsnr" v="921078" />
	</node>
	<node lat="62.1788731688873" lon="9.81921991476135" id="-48339">
		<tag k="alt_name" v="Dalløkken" />
		<tag k="name" v="Dallykkja" />
		<tag k="place" v="farm" />
		<tag k="ssr:stedsnr" v="921269" />
	</node>
	<node lat="62.154425000470816" lon="10.199186104793153" id="-48344">
		<tag k="name" v="Åseng" />
		<tag k="place" v="farm" />
		<tag k="ssr:stedsnr" v="921295" />
	</node>
	<node lat="62.15844167014433" lon="10.204022228062943" id="-48345">
		<tag k="name" v="Engvoll" />
		<tag k="place" v="farm" />
		<tag k="ssr:stedsnr" v="921297" />
	</node>
	<node lat="62.15641387878586" lon="10.164539443690632" id="-48346">
		<tag k="fixme" v="consider place=hamlet" />
		<tag k="name" v="Hol" />
		<tag k="place" v="farm" />
		<tag k="ssr:stedsnr" v="921298" />
	</node>
	<node lat="62.15533055832474" lon="10.17330554994272" id="-48347">
		<tag k="name" v="Rønningen" />
		<tag k="old_name" v="Rønning" />
		<tag k="place" v="farm" />
		<tag k="ssr:stedsnr" v="921300" />
	</node>
	<node lat="62.142233692478676" lon="9.933625250050335" id="-48348">
		<tag k="fixme" v="consider place=hamlet" />
		<tag k="name" v="Bakken" />
		<tag k="old_name" v="Bakke" />
		<tag k="place" v="farm" />
		<tag k="ssr:stedsnr" v="921308" />
	</node>
	<node lat="62.246327774899896" lon="10.040777782798319" id="-48352">
		<tag k="historic" v="shieling" />
		<tag k="name" v="Beitrustsætre" />
		<tag k="place" v="isolated_dwelling" />
		<tag k="ssr:stedsnr" v="921344" />
	</node>
	<node lat="62.07316646818531" lon="10.088941771848647" id="-48361">
		<tag k="alt_name" v="Mjovassdalssætri, nedre;Nedre Mjovassdalssætri" />
		<tag k="historic" v="shieling" />
		<tag k="name" v="Nedre Mjovassdalsætran" />
		<tag k="place" v="isolated_dwelling" />
		<tag k="ssr:stedsnr" v="921418" />
	</node>
	<node lat="62.04852027120921" lon="10.104540672467856" id="-48362">
		<tag k="historic" v="shieling" />
		<tag k="name" v="Øvre Mjovassdalssætre" />
		<tag k="place" v="isolated_dwelling" />
		<tag k="ssr:stedsnr" v="921425" />
	</node>
	<node lat="62.12340277466738" lon="10.009772219038526" id="-48366">
		<tag k="name" v="Nymoen" />
		<tag k="place" v="farm" />
		<tag k="ssr:stedsnr" v="921496" />
	</node>
	<node lat="62.20693881252049" lon="9.67714647912225" id="-48371">
		<tag k="alt_name" v="Søndre Børsungsæter;Ruste" />
		<tag k="loc_name" v="Søre Børsungsætre" />
		<tag k="name" v="Søre Børsungsæter" />
		<tag k="place" v="farm" />
		<tag k="ssr:stedsnr" v="921756" />
	</node>
	<node lat="62.345033333473225" lon="9.843669448964333" id="-48373">
		<tag k="name" v="Sjåvidthytta" />
		<tag k="place" v="isolated_dwelling" />
		<tag k="ssr:stedsnr" v="921726" />
	</node>
	<node lat="62.12818610753054" lon="9.99484722786734" id="-48377">
		<tag k="name" v="Fredheim" />
		<tag k="place" v="farm" />
		<tag k="ssr:stedsnr" v="845106" />
	</node>
	<node lat="62.1383916694824" lon="9.983119446232553" id="-48382">
		<tag k="name" v="Sjokoladebyen" />
		<tag k="place" v="quarter" />
		<tag k="ssr:stedsnr" v="845096" />
	</node>
	<node lat="62.18433055667547" lon="10.27377777701061" id="-48404">
		<tag k="name" v="Krokmoen" />
		<tag k="place" v="farm" />
		<tag k="ssr:stedsnr" v="860024" />
	</node>
	<node lat="62.18906666907733" lon="10.227558341886239" id="-48406">
		<tag k="alt_name" v="Nysætran" />
		<tag k="historic" v="shieling" />
		<tag k="name" v="Nysætra" />
		<tag k="place" v="isolated_dwelling" />
		<tag k="ssr:stedsnr" v="860120" />
	</node>
	<node lat="62.193858337655485" lon="10.277008335101481" id="-48407">
		<tag k="name" v="Nordre Stormælen" />
		<tag k="old_name" v="Moan" />
		<tag k="place" v="farm" />
		<tag k="ssr:stedsnr" v="860126" />
	</node>
	<node lat="62.200777776841925" lon="10.293552779409751" id="-48408">
		<tag k="alt_name" v="Moskaret" />
		<tag k="name" v="Moskardet" />
		<tag k="place" v="farm" />
		<tag k="ssr:stedsnr" v="860129" />
	</node>
	<node lat="62.16307499624188" lon="9.806708336943029" id="-48410">
		<tag k="name" v="Tøfthaugen" />
		<tag k="place" v="farm" />
		<tag k="ssr:stedsnr" v="860317" />
	</node>
	<node lat="62.163261109458986" lon="10.180924993057877" id="-48411">
		<tag k="name" v="Kjøllmoen" />
		<tag k="place" v="farm" />
		<tag k="ssr:stedsnr" v="860324" />
	</node>
	<node lat="62.146422223252266" lon="10.161041665376604" id="-48415">
		<tag k="alt_name" v="Sandtrøen" />
		<tag k="name" v="Sandtrøa" />
		<tag k="place" v="farm" />
		<tag k="ssr:stedsnr" v="860362" />
	</node>
	<node lat="62.147844445211334" lon="10.162491659796888" id="-48416">
		<tag k="alt_name" v="Myrtrøen" />
		<tag k="name" v="Myrtrøa" />
		<tag k="place" v="farm" />
		<tag k="ssr:stedsnr" v="860363" />
	</node>
	<node lat="62.15008055765354" lon="9.983736118606306" id="-48418">
		<tag k="alt_name" v="Gruvsætran" />
		<tag k="historic" v="shieling" />
		<tag k="name" v="Gruvsætrin" />
		<tag k="place" v="isolated_dwelling" />
		<tag k="ssr:stedsnr" v="860369" />
	</node>
	<node lat="62.132202774717605" lon="10.133708328136066" id="-48419">
		<tag k="alt_name" v="Folshaugmoen" />
		<tag k="name" v="Follshaugmoen" />
		<tag k="place" v="farm" />
		<tag k="ssr:stedsnr" v="860505" />
	</node>
	<node lat="61.97642777881191" lon="9.988641672369463" id="-48420">
		<tag k="historic" v="shieling" />
		<tag k="name" v="Sandomssætre" />
		<tag k="place" v="isolated_dwelling" />
		<tag k="ssr:stedsnr" v="860561" />
	</node>
	<node lat="62.0198055551831" lon="10.062441672954789" id="-48421">
		<tag k="historic" v="shieling" />
		<tag k="name" v="Øyasætre" />
		<tag k="place" v="isolated_dwelling" />
		<tag k="ssr:stedsnr" v="860459" />
	</node>
	<node lat="62.26536944831033" lon="10.322452784144074" id="-48422">
		<tag k="historic" v="shieling" />
		<tag k="name" v="Jordamosætra" />
		<tag k="place" v="isolated_dwelling" />
		<tag k="ssr:stedsnr" v="861011" />
	</node>
	<node lat="62.30678333568828" lon="9.838161107431171" id="-48428">
		<tag k="alt_name" v="Flåmsætran" />
		<tag k="historic" v="shieling" />
		<tag k="name" v="Flåmsætrin" />
		<tag k="place" v="isolated_dwelling" />
		<tag k="ssr:stedsnr" v="861616" />
	</node>
	<node lat="62.3495611083324" lon="10.190858333592823" id="-48430">
		<tag k="historic" v="shieling" />
		<tag k="name" v="Gløtsætra" />
		<tag k="place" v="isolated_dwelling" />
		<tag k="ssr:stedsnr" v="861682" />
	</node>
	<node lat="62.29338611532102" lon="10.323586117724055" id="-48432">
		<tag k="historic" v="shieling" />
		<tag k="name" v="Einabusætra" />
		<tag k="place" v="isolated_dwelling" />
		<tag k="ssr:stedsnr" v="861914" />
	</node>
	<node lat="62.146949445502024" lon="9.720926182407329" id="-48436">
		<tag k="name" v="Eidehuset" />
		<tag k="place" v="locality" />
		<tag k="ssr:stedsnr" v="932794" />
	</node>
	<node lat="62.18117778187377" lon="10.240438891297506" id="-48448">
		<tag k="name" v="Bekken" />
		<tag k="place" v="isolated_dwelling" />
		<tag k="ssr:stedsnr" v="908366" />
	</node>
	<node lat="62.181263980019615" lon="10.242890379384429" id="-48450">
		<tag k="fixme" v="consider place=hamlet" />
		<tag k="name" v="Ryhaugen" />
		<tag k="place" v="farm" />
		<tag k="ssr:stedsnr" v="908372" />
	</node>
	<node lat="62.195961110011105" lon="10.367788887962792" id="-48465">
		<tag k="alt_name" v="Røstsetra" />
		<tag k="historic" v="shieling" />
		<tag k="name" v="Røstsætra" />
		<tag k="place" v="isolated_dwelling" />
		<tag k="ssr:stedsnr" v="921084" />
	</node>
	<node lat="62.12619722117295" lon="10.10001111712978" id="-48466">
		<tag k="alt_name" v="Odden nedre" />
		<tag k="name" v="Odden" />
		<tag k="place" v="farm" />
		<tag k="ssr:stedsnr" v="921503" />
	</node>
	<node lat="62.194355631446825" lon="9.69847491696863" id="-48468">
		<tag k="fixme" v="consider place=hamlet" />
		<tag k="name" v="Slåen" />
		<tag k="place" v="farm" />
		<tag k="ssr:stedsnr" v="921730" />
	</node>
	<node lat="62.18800306137511" lon="9.679155955337379" id="-48470">
		<tag k="name" v="Slåsæter" />
		<tag k="place" v="locality" />
		<tag k="ssr:stedsnr" v="921737" />
	</node>
	<node lat="62.20049999778308" lon="10.062749992222962" id="-48471">
		<tag k="historic" v="shieling" />
		<tag k="name" v="Lykkjesætre" />
		<tag k="place" v="isolated_dwelling" />
		<tag k="ssr:stedsnr" v="921370" />
	</node>
	<node lat="62.186874997169966" lon="10.198374990573932" id="-48472">
		<tag k="historic" v="shieling" />
		<tag k="name" v="Gammelsætran" />
		<tag k="place" v="isolated_dwelling" />
		<tag k="ssr:stedsnr" v="921390" />
	</node>
	<node lat="62.13014011461998" lon="10.004678244800763" id="-48474">
		<tag k="fixme" v="consider place=hamlet" />
		<tag k="name" v="Tangen" />
		<tag k="place" v="farm" />
		<tag k="ssr:stedsnr" v="921482" />
	</node>
	<node lat="62.12831075311222" lon="10.018521121273306" id="-48475">
		<tag k="alt_name" v="Brevøstenplassen" />
		<tag k="fixme" v="consider place=hamlet" />
		<tag k="name" v="Brevan" />
		<tag k="old_name" v="Brevøstenpladsen" />
		<tag k="place" v="farm" />
		<tag k="ssr:stedsnr" v="921483" />
	</node>
	<node lat="62.25642746153215" lon="10.176186798077108" id="-48479">
		<tag k="alt_name" v="Stugulisætra" />
		<tag k="fixme" v="multiple name tags, choose one and add the other to alt_name" />
		<tag k="historic" v="shieling" />
		<tag k="name" v="Åsengsætra;Øvre Stugulisætra" />
		<tag k="place" v="isolated_dwelling" />
		<tag k="ssr:stedsnr" v="922595" />
	</node>
	<node lat="61.970000000704594" lon="10.013633342774519" id="-48484">
		<tag k="name" v="Søre Sandom" />
		<tag k="place" v="farm" />
		<tag k="ssr:stedsnr" v="953814" />
	</node>
	<node lat="62.13902500051199" lon="10.145052773484744" id="-48486">
		<tag k="alt_name" v="Øvre Brennryen" />
		<tag k="name" v="Øvre Brennrya" />
		<tag k="place" v="farm" />
		<tag k="ssr:stedsnr" v="965798" />
	</node>
	<node lat="62.129450003354485" lon="10.041755547865893" id="-48487">
		<tag k="amenity" v="school" />
		<tag k="name" v="Kirkekretsen skole" />
		<tag k="ssr:stedsnr" v="966111" />
	</node>
	<node lat="62.1306059231623" lon="10.014787599021249" id="-48489">
		<tag k="fixme" v="consider place=hamlet" />
		<tag k="name" v="Smedhaugen" />
		<tag k="place" v="farm" />
		<tag k="ssr:stedsnr" v="966101" />
	</node>
	<node lat="62.1347277761966" lon="9.985627778191782" id="-48490">
		<tag k="name" v="Nybyen" />
		<tag k="place" v="quarter" />
		<tag k="ssr:stedsnr" v="966102" />
	</node>
	<node lat="62.14986944318563" lon="9.970388892517835" id="-48491">
		<tag k="historic" v="shieling" />
		<tag k="name" v="Steinhaugsætra" />
		<tag k="place" v="isolated_dwelling" />
		<tag k="ssr:stedsnr" v="966588" />
	</node>
	<node lat="62.158349997619524" lon="10.200686107893306" id="-48494">
		<tag k="name" v="Bjørklund" />
		<tag k="place" v="isolated_dwelling" />
		<tag k="ssr:stedsnr" v="967013" />
	</node>
	<node lat="62.20530175181667" lon="9.672389077426072" id="-48498">
		<tag k="name" v="Vesllykkja" />
		<tag k="place" v="farm" />
		<tag k="ssr:stedsnr" v="967998" />
	</node>
	<node lat="62.188455557160445" lon="9.808997225778585" id="-48532">
		<tag k="name" v="Nordre Furuhovdet" />
		<tag k="place" v="farm" />
		<tag k="ssr:stedsnr" v="775" />
	</node>
	<node lat="62.156781499694574" lon="9.820121565120685" id="-48535">
		<tag k="alt_name" v="Bakken" />
		<tag k="fixme" v="consider place=hamlet" />
		<tag k="name" v="Dalåsbakken" />
		<tag k="place" v="farm" />
		<tag k="ssr:stedsnr" v="10277" />
	</node>
	<node lat="62.07519444452231" lon="10.085641663381077" id="-48536">
		<tag k="historic" v="shieling" />
		<tag k="name" v="Tangsætre" />
		<tag k="place" v="isolated_dwelling" />
		<tag k="ssr:stedsnr" v="10363" />
	</node>
	<node lat="62.073765172734966" lon="9.950984336152205" id="-48538">
		<tag k="fixme" v="consider place=hamlet" />
		<tag k="name" v="Fallet" />
		<tag k="place" v="farm" />
		<tag k="ssr:stedsnr" v="10372" />
	</node>
	<node lat="62.1562583347332" lon="9.858261113509267" id="-48539">
		<tag k="name" v="Søre Dalflyen" />
		<tag k="old_name" v="Jordstykke" />
		<tag k="place" v="farm" />
		<tag k="ssr:stedsnr" v="9644" />
	</node>
	<node lat="62.15677777334769" lon="9.85045000066934" id="-48540">
		<tag k="name" v="Bjørklund" />
		<tag k="place" v="farm" />
		<tag k="ssr:stedsnr" v="9647" />
	</node>
	<node lat="62.100826861468555" lon="9.96577531744912" id="-48541">
		<tag k="fixme" v="consider place=hamlet" />
		<tag k="name" v="Streitlie" />
		<tag k="place" v="farm" />
		<tag k="ssr:stedsnr" v="10478" />
	</node>
	<node lat="62.181280557161415" lon="10.236597231616233" id="-48543">
		<tag k="name" v="Haugen" />
		<tag k="place" v="farm" />
		<tag k="ssr:stedsnr" v="11021" />
	</node>
	<node lat="62.113302777659925" lon="10.25303332691413" id="-48544">
		<tag k="alt_name" v="Reinsleisætra;Reinslisetran" />
		<tag k="historic" v="shieling" />
		<tag k="name" v="Reinslisætra" />
		<tag k="place" v="isolated_dwelling" />
		<tag k="ssr:stedsnr" v="11235" />
	</node>
	<node lat="62.18753333421242" lon="9.775911102758352" id="-48546">
		<tag k="name" v="Vesllykkja" />
		<tag k="place" v="farm" />
		<tag k="ssr:stedsnr" v="11362" />
	</node>
	<node lat="62.19022010207721" lon="9.760618778854743" id="-48547">
		<tag k="name" v="Sletten" />
		<tag k="place" v="locality" />
		<tag k="ssr:stedsnr" v="11363" />
	</node>
	<node lat="62.12813888688287" lon="9.995577779114425" id="-48551">
		<tag k="name" v="Skredderhaugen" />
		<tag k="old_name" v="Skredderhaug" />
		<tag k="place" v="farm" />
		<tag k="ssr:stedsnr" v="11452" />
	</node>
	<node lat="62.13588500573541" lon="10.007258448522267" id="-48552">
		<tag k="fixme" v="consider place=hamlet" />
		<tag k="name" v="Åsen" />
		<tag k="place" v="farm" />
		<tag k="ssr:stedsnr" v="11455" />
	</node>
	<node lat="62.13347215334684" lon="10.007832103706768" id="-48553">
		<tag k="alt_name" v="Lilleplassen" />
		<tag k="fixme" v="consider place=hamlet" />
		<tag k="name" v="Veslplassen" />
		<tag k="old_name" v="Litlplassen" />
		<tag k="place" v="farm" />
		<tag k="ssr:stedsnr" v="11456" />
	</node>
	<node lat="62.1321184643395" lon="10.051176434359267" id="-48554">
		<tag k="alt_name" v="Ruste" />
		<tag k="name" v="Erlihaugen" />
		<tag k="place" v="farm" />
		<tag k="ssr:stedsnr" v="11460" />
	</node>
	<node lat="62.309222220709636" lon="10.072499993825806" id="-48563">
		<tag k="historic" v="shieling" />
		<tag k="name" v="Svesætra" />
		<tag k="place" v="isolated_dwelling" />
		<tag k="ssr:stedsnr" v="11656" />
	</node>
	<node lat="62.31451389329835" lon="10.058797228252969" id="-48564">
		<tag k="alt_name" v="Dalsætran" />
		<tag k="historic" v="shieling" />
		<tag k="name" v="Dalsætra" />
		<tag k="place" v="isolated_dwelling" />
		<tag k="ssr:stedsnr" v="11657" />
	</node>
	<node lat="62.2522055571648" lon="10.016319444487081" id="-48569">
		<tag k="historic" v="shieling" />
		<tag k="name" v="Storvollen" />
		<tag k="old_name" v="Storvollsætra" />
		<tag k="place" v="isolated_dwelling" />
		<tag k="ssr:stedsnr" v="12653" />
	</node>
	<node lat="62.13303889151895" lon="9.959324990740363" id="-48578">
		<tag k="name" v="Bjørkli" />
		<tag k="place" v="locality" />
		<tag k="ssr:stedsnr" v="56565" />
	</node>
	<node lat="62.20673333400737" lon="9.665919448528406" id="-48583">
		<tag k="alt_name" v="Nordre Børsungsæter" />
		<tag k="loc_name" v="Nørdre Børsungsætre" />
		<tag k="name" v="Nørdre Børsungsæter" />
		<tag k="place" v="farm" />
		<tag k="ssr:stedsnr" v="57992" />
	</node>
	<node lat="61.946047225170226" lon="10.008630549397472" id="-48593">
		<tag k="name" v="Myggbukt" />
		<tag k="place" v="isolated_dwelling" />
		<tag k="ssr:stedsnr" v="58433" />
	</node>
	<node lat="62.213850001586316" lon="9.803536112765649" id="-48602">
		<tag k="alt_name" v="Tunga" />
		<tag k="historic" v="shieling" />
		<tag k="name" v="Nørdre Tunga" />
		<tag k="place" v="isolated_dwelling" />
		<tag k="ssr:stedsnr" v="71375" />
	</node>
	<node lat="62.23050555161239" lon="10.053019438623965" id="-48603">
		<tag k="historic" v="shieling" />
		<tag k="name" v="Baklisætran" />
		<tag k="place" v="isolated_dwelling" />
		<tag k="ssr:stedsnr" v="71378" />
	</node>
	<node lat="62.15638055911384" lon="9.830300007902778" id="-48612">
		<tag k="alt_name" v="Trondsgård" />
		<tag k="name" v="Trondsgard" />
		<tag k="place" v="farm" />
		<tag k="ssr:stedsnr" v="71289" />
	</node>
	<node lat="62.169249996188235" lon="10.19320554748645" id="-48613">
		<tag k="alt_name" v="Ryfetten" />
		<tag k="name" v="Ryfeta" />
		<tag k="place" v="farm" />
		<tag k="ssr:stedsnr" v="71290" />
	</node>
	<node lat="62.14677822634613" lon="9.913960319226891" id="-48616">
		<tag k="fixme" v="consider place=hamlet" />
		<tag k="name" v="Lon" />
		<tag k="place" v="farm" />
		<tag k="ssr:stedsnr" v="71346" />
	</node>
	<node lat="62.130470597811694" lon="9.91791354262166" id="-48617">
		<tag k="alt_name" v="Stigerhaugen" />
		<tag k="fixme" v="consider place=hamlet" />
		<tag k="name" v="Stigarhaugen" />
		<tag k="place" v="farm" />
		<tag k="ssr:stedsnr" v="71472" />
	</node>
	<node lat="62.13019007169897" lon="10.014524346631756" id="-48618">
		<tag k="fixme" v="consider place=hamlet" />
		<tag k="name" v="Skomakerhaugen" />
		<tag k="place" v="farm" />
		<tag k="ssr:stedsnr" v="71480" />
	</node>
	<node lat="62.21024166780717" lon="10.058158341754105" id="-48620">
		<tag k="historic" v="shieling" />
		<tag k="name" v="Åsgardssætre" />
		<tag k="place" v="isolated_dwelling" />
		<tag k="ssr:stedsnr" v="71389" />
	</node>
	<node lat="62.29700928181649" lon="10.166662504558653" id="-48624">
		<tag k="historic" v="shieling" />
		<tag k="name" v="Ryhaugsætra" />
		<tag k="place" v="isolated_dwelling" />
		<tag k="ssr:stedsnr" v="72656" />
	</node>
	<node lat="62.17736111316472" lon="9.715994444175228" id="-48629">
		<tag k="name" v="Lieng" />
		<tag k="place" v="farm" />
		<tag k="ssr:stedsnr" v="72694" />
	</node>
	<node lat="62.149608334394806" lon="9.973483340748226" id="-48637">
		<tag k="historic" v="shieling" />
		<tag k="name" v="Plassætra" />
		<tag k="place" v="isolated_dwelling" />
		<tag k="ssr:stedsnr" v="117587" />
	</node>
	<node lat="62.13545277860331" lon="10.018499999188153" id="-48638">
		<tag k="name" v="Skoglund" />
		<tag k="place" v="farm" />
		<tag k="ssr:stedsnr" v="117090" />
	</node>
	<node lat="62.13679444170553" lon="10.002116661640077" id="-48639">
		<tag k="name" v="Brattli" />
		<tag k="place" v="farm" />
		<tag k="ssr:stedsnr" v="117094" />
	</node>
	<node lat="62.03277098470629" lon="10.017129455326865" id="-48640">
		<tag k="alt_name" v="Søre Stadsbuøyen" />
		<tag k="name" v="Søre Øyen" />
		<tag k="old_name" v="Søristuen Stadsbuøien" />
		<tag k="place" v="farm" />
		<tag k="ssr:stedsnr" v="117139" />
	</node>
	<node lat="62.0345361126758" lon="10.016455558432854" id="-48642">
		<tag k="alt_name" v="Nordigard Stadsbuøyen" />
		<tag k="name" v="Uppistugu Øyen" />
		<tag k="old_name" v="Nordigard Stadsbuøien" />
		<tag k="place" v="farm" />
		<tag k="ssr:stedsnr" v="117164" />
	</node>
	<node lat="62.12680850005189" lon="10.026985504344044" id="-48643">
		<tag k="fixme" v="consider place=hamlet" />
		<tag k="name" v="Søre Flyen" />
		<tag k="place" v="farm" />
		<tag k="ssr:stedsnr" v="117116" />
	</node>
	<node lat="62.194916664096546" lon="9.814336114289087" id="-48652">
		<tag k="alt_name" v="Søndre Furuhovdet" />
		<tag k="name" v="Søre Furuhovdet" />
		<tag k="place" v="farm" />
		<tag k="ssr:stedsnr" v="117774" />
	</node>
	<node lat="62.068774996570255" lon="10.013616671268627" id="-48657">
		<tag k="name" v="Ruste" />
		<tag k="place" v="locality" />
		<tag k="ssr:stedsnr" v="119247" />
	</node>
	<node lat="62.25674444847866" lon="10.27420554751385" id="-48658">
		<tag k="historic" v="shieling" />
		<tag k="name" v="Sørhussætra" />
		<tag k="place" v="isolated_dwelling" />
		<tag k="ssr:stedsnr" v="119274" />
	</node>
	<node lat="62.1013027806853" lon="9.986277780100592" id="-48662">
		<tag k="name" v="Øvre Sletten" />
		<tag k="place" v="farm" />
		<tag k="ssr:stedsnr" v="119034" />
	</node>
	<node lat="62.0678388896328" lon="9.938541674268574" id="-48668">
		<tag k="name" v="Stjertmyrdalen" />
		<tag k="place" v="locality" />
		<tag k="ssr:stedsnr" v="119547" />
	</node>
	<node lat="62.165580557576455" lon="9.81016667334115" id="-48673">
		<tag k="name" v="Gammeltøftan" />
		<tag k="place" v="farm" />
		<tag k="ssr:stedsnr" v="127684" />
	</node>
	<node lat="62.19562777568458" lon="10.35655278687687" id="-48677">
		<tag k="historic" v="shieling" />
		<tag k="name" v="Vangen" />
		<tag k="place" v="isolated_dwelling" />
		<tag k="ssr:stedsnr" v="132083" />
	</node>
	<node lat="62.14629999584435" lon="10.022063890608152" id="-48678">
		<tag k="name" v="Folldal Fjellhotell" />
		<tag k="old_name" v="Vollen fjellstue;Storhøseter fjellstue" />
		<tag k="ssr:stedsnr" v="132283" />
		<tag k="tourism" v="hotel" />
	</node>
	<node lat="62.19634166234759" lon="9.810163883793278" id="-48679">
		<tag k="alt_name" v="Høgslåi" />
		<tag k="name" v="Høgslåe" />
		<tag k="place" v="farm" />
		<tag k="ssr:stedsnr" v="132355" />
	</node>
	<node lat="62.11970000183784" lon="10.042702783211514" id="-48682">
		<tag k="name" v="Sandvoll" />
		<tag k="place" v="farm" />
		<tag k="ssr:stedsnr" v="132453" />
	</node>
	<node lat="62.13145016552332" lon="10.01789230345398" id="-48687">
		<tag k="fixme" v="consider place=hamlet" />
		<tag k="name" v="Grøtlien" />
		<tag k="place" v="farm" />
		<tag k="ssr:stedsnr" v="155123" />
	</node>
	<node lat="62.16566388663219" lon="10.184286116541006" id="-48697">
		<tag k="name" v="Øvre Kjølle" />
		<tag k="place" v="farm" />
		<tag k="ssr:stedsnr" v="178029" />
	</node>
	<node lat="62.18651666727319" lon="9.697100005117635" id="-48698">
		<tag k="name" v="Åsheim" />
		<tag k="place" v="locality" />
		<tag k="ssr:stedsnr" v="177986" />
	</node>
	<node lat="62.12310833673512" lon="10.076197227549413" id="-48703">
		<tag k="name" v="Lille Brandsnes" />
		<tag k="place" v="farm" />
		<tag k="ssr:stedsnr" v="179030" />
	</node>
	<node lat="62.28445555373475" lon="10.135222220266796" id="-48706">
		<tag k="name" v="Gammelvangen" />
		<tag k="ssr:stedsnr" v="179177" />
		<tag k="tourism" v="camp_site" />
	</node>
	<node lat="62.14210555680194" lon="9.927994449499337" id="-48720">
		<tag k="name" v="Vårtun" />
		<tag k="place" v="locality" />
		<tag k="ssr:stedsnr" v="179546" />
	</node>
	<node lat="62.14885277633307" lon="10.160669442226084" id="-48723">
		<tag k="name" v="Nyegga" />
		<tag k="place" v="isolated_dwelling" />
		<tag k="ssr:stedsnr" v="179937" />
	</node>
	<node lat="62.20122777612112" lon="10.34997222021934" id="-48724">
		<tag k="name" v="Kjellsrud" />
		<tag k="place" v="farm" />
		<tag k="ssr:stedsnr" v="192125" />
	</node>
	<node lat="62.168052776055646" lon="9.840522215233584" id="-48725">
		<tag k="alt_name" v="Nergård" />
		<tag k="name" v="Negard" />
		<tag k="place" v="farm" />
		<tag k="ssr:stedsnr" v="192275" />
	</node>
	<node lat="62.1712861819006" lon="9.85160261838595" id="-48726">
		<tag k="alt_name" v="Søre Dalen" />
		<tag k="fixme" v="consider place=hamlet" />
		<tag k="name" v="Sørgardan" />
		<tag k="old_name" v="Søgardan;Søndre Folldalen" />
		<tag k="place" v="farm" />
		<tag k="ssr:stedsnr" v="192276" />
	</node>
	<node lat="62.2068333303371" lon="10.049411111992262" id="-48728">
		<tag k="historic" v="shieling" />
		<tag k="name" v="Oddsætran" />
		<tag k="place" v="isolated_dwelling" />
		<tag k="ssr:stedsnr" v="192377" />
	</node>
	<node lat="62.21282778020932" lon="10.054775004323467" id="-48729">
		<tag k="historic" v="shieling" />
		<tag k="name" v="Sakariassætre" />
		<tag k="place" v="isolated_dwelling" />
		<tag k="ssr:stedsnr" v="192380" />
	</node>
	<node lat="62.19094722061535" lon="9.793444437648597" id="-48732">
		<tag k="name" v="Nyvoll" />
		<tag k="old_name" v="Myrvoll" />
		<tag k="place" v="farm" />
		<tag k="ssr:stedsnr" v="192390" />
	</node>
	<node lat="62.18974166361542" lon="9.753955559772066" id="-48733">
		<tag k="name" v="Slettalykkja" />
		<tag k="place" v="farm" />
		<tag k="ssr:stedsnr" v="192393" />
	</node>
	<node lat="62.236847225773325" lon="10.021622217923113" id="-48736">
		<tag k="historic" v="shieling" />
		<tag k="name" v="Knutshovdsætre" />
		<tag k="place" v="isolated_dwelling" />
		<tag k="ssr:stedsnr" v="192346" />
	</node>
	<node lat="62.19221111291588" lon="9.650438885469995" id="-48749">
		<tag k="name" v="Storslåe" />
		<tag k="place" v="isolated_dwelling" />
		<tag k="ssr:stedsnr" v="192754" />
	</node>
	<node lat="62.20461111533984" lon="9.670027772497376" id="-48750">
		<tag k="name" v="Heimtun" />
		<tag k="place" v="farm" />
		<tag k="ssr:stedsnr" v="192769" />
	</node>
	<node lat="62.14418055773131" lon="9.95200555039203" id="-48756">
		<tag k="name" v="Husli" />
		<tag k="place" v="farm" />
		<tag k="ssr:stedsnr" v="193295" />
	</node>
	<node lat="62.139352779908876" lon="9.947125002522405" id="-48757">
		<tag k="name" v="Engen" />
		<tag k="place" v="farm" />
		<tag k="ssr:stedsnr" v="193296" />
	</node>
	<node lat="62.00353889126116" lon="10.019369437935966" id="-48758">
		<tag k="name" v="Berg" />
		<tag k="place" v="farm" />
		<tag k="ssr:stedsnr" v="193443" />
	</node>
	<node lat="62.1416750013091" lon="10.030166659203585" id="-48759">
		<tag k="alt_name" v="Østli" />
		<tag k="name" v="Austli" />
		<tag k="place" v="farm" />
		<tag k="ssr:stedsnr" v="193460" />
	</node>
	<node lat="62.133731736982355" lon="9.921657870057643" id="-48760">
		<tag k="fixme" v="consider place=hamlet" />
		<tag k="name" v="Randen" />
		<tag k="place" v="farm" />
		<tag k="ssr:stedsnr" v="193465" />
	</node>
	<node lat="62.13244444567032" lon="10.079086115624499" id="-48761">
		<tag k="name" v="Ligard" />
		<tag k="place" v="farm" />
		<tag k="ssr:stedsnr" v="193474" />
	</node>
	<node lat="62.15965278113731" lon="10.142741662577533" id="-48762">
		<tag k="name" v="Liheim" />
		<tag k="place" v="farm" />
		<tag k="ssr:stedsnr" v="193284" />
	</node>
	<node lat="62.11373610767896" lon="9.977241671735108" id="-48765">
		<tag k="alt_name" v="Nysveen" />
		<tag k="name" v="Nysvei" />
		<tag k="place" v="farm" />
		<tag k="ssr:stedsnr" v="193491" />
	</node>
	<node lat="62.29080555141828" lon="10.122475007433229" id="-48777">
		<tag k="alt_name" v="Hussætran" />
		<tag k="historic" v="shieling" />
		<tag k="name" v="Hussætra" />
		<tag k="place" v="isolated_dwelling" />
		<tag k="ssr:stedsnr" v="194649" />
	</node>
	<node lat="62.267791667945886" lon="10.18412499064683" id="-48778">
		<tag k="historic" v="shieling" />
		<tag k="name" v="Fallsætra" />
		<tag k="place" v="isolated_dwelling" />
		<tag k="ssr:stedsnr" v="194584" />
	</node>
	<node lat="62.41433198446307" lon="10.06411015855655" id="-48781">
		<tag k="name" v="Kongsbekklægret" />
		<tag k="old_name" v="Kongsbekklegeret" />
		<tag k="place" v="locality" />
		<tag k="ssr:stedsnr" v="194723" />
	</node>
	<node lat="62.18941111103493" lon="9.816383331223477" id="-48796">
		<tag k="alt_name" v="Søndre Furuhovdet" />
		<tag k="name" v="Søre Furuhovdet" />
		<tag k="place" v="farm" />
		<tag k="ssr:stedsnr" v="299774" />
	</node>
	<node lat="62.205452475816266" lon="9.77035723456258" id="-48797">
		<tag k="name" v="Utheim" />
		<tag k="place" v="farm" />
		<tag k="ssr:stedsnr" v="299782" />
	</node>
	<node lat="62.179211115240705" lon="9.811311110943654" id="-48802">
		<tag k="name" v="Solgård" />
		<tag k="place" v="isolated_dwelling" />
		<tag k="ssr:stedsnr" v="299787" />
	</node>
	<node lat="62.143916670844746" lon="9.913661103076409" id="-48817">
		<tag k="amenity" v="school" />
		<tag k="name" v="Husom skole" />
		<tag k="ssr:stedsnr" v="301558" />
	</node>
	<node lat="62.099030556063894" lon="10.157608337940195" id="-48823">
		<tag k="historic" v="shieling" />
		<tag k="name" v="Fløttsætra" />
		<tag k="old_name" v="Fløttsætre" />
		<tag k="place" v="isolated_dwelling" />
		<tag k="ssr:stedsnr" v="301958" />
	</node>
	<node lat="62.156045645927044" lon="10.17309371016239" id="-48826">
		<tag k="fixme" v="consider place=hamlet" />
		<tag k="name" v="Grimsbu" />
		<tag k="place" v="village" />
		<tag k="ssr:stedsnr" v="314335" />
	</node>
	<node lat="62.13791880528329" lon="10.013685403047377" id="-48831">
		<tag k="alt_name" v="Løkken" />
		<tag k="fixme" v="consider place=hamlet" />
		<tag k="name" v="Lykkja" />
		<tag k="place" v="farm" />
		<tag k="ssr:stedsnr" v="314491" />
	</node>
	<node lat="62.142566667415984" lon="10.027213889180164" id="-48832">
		<tag k="alt_name" v="Brandplassen" />
		<tag k="name" v="Bekken" />
		<tag k="place" v="farm" />
		<tag k="ssr:stedsnr" v="314494" />
	</node>
	<node lat="62.141824995650154" lon="10.13445554682091" id="-48833">
		<tag k="name" v="Sørli" />
		<tag k="place" v="farm" />
		<tag k="ssr:stedsnr" v="314495" />
	</node>
	<node lat="62.207772218424545" lon="10.0465666580337" id="-48835">
		<tag k="historic" v="shieling" />
		<tag k="name" v="Klokkarhaugsætre" />
		<tag k="place" v="isolated_dwelling" />
		<tag k="ssr:stedsnr" v="314386" />
	</node>
	<node lat="62.131514096870205" lon="9.915214424126555" id="-48839">
		<tag k="alt_name" v="Kolbotn" />
		<tag k="fixme" v="consider place=hamlet" />
		<tag k="name" v="Botnen" />
		<tag k="place" v="farm" />
		<tag k="ssr:stedsnr" v="314505" />
	</node>
	<node lat="62.13171499890905" lon="10.009195608528376" id="-48840">
		<tag k="fixme" v="consider place=hamlet" />
		<tag k="name" v="Bustad" />
		<tag k="place" v="farm" />
		<tag k="ssr:stedsnr" v="314509" />
	</node>
	<node lat="62.126875002450426" lon="10.055133340908746" id="-48841">
		<tag k="alt_name" v="Røstplassen" />
		<tag k="name" v="Madsrøsten" />
		<tag k="place" v="farm" />
		<tag k="ssr:stedsnr" v="314522" />
	</node>
	<node lat="62.12490833404904" lon="10.098791674182761" id="-48843">
		<tag k="alt_name" v="Øvre Odden" />
		<tag k="name" v="Oddlykkja" />
		<tag k="place" v="farm" />
		<tag k="ssr:stedsnr" v="314528" />
	</node>
	<node lat="62.11348055605286" lon="9.963683332078926" id="-48844">
		<tag k="alt_name" v="Sveen øvre" />
		<tag k="name" v="Øversvei" />
		<tag k="place" v="farm" />
		<tag k="ssr:stedsnr" v="314529" />
	</node>
	<node lat="62.19315833160699" lon="9.615625004284144" id="-48846">
		<tag k="historic" v="shieling" />
		<tag k="name" v="Øyasætre" />
		<tag k="place" v="isolated_dwelling" />
		<tag k="ssr:stedsnr" v="314719" />
	</node>
	<node lat="62.206983114391754" lon="9.673174062303001" id="-48847">
		<tag k="fixme" v="multiple name tags, choose one and add the other to alt_name" />
		<tag k="name" v="Lykkja;Toftaker" />
		<tag k="place" v="farm" />
		<tag k="ssr:stedsnr" v="314742" />
	</node>
	<node lat="62.132427240371825" lon="9.763629091049673" id="-48849">
		<tag k="name" v="Petiko" />
		<tag k="place" v="locality" />
		<tag k="ssr:stedsnr" v="325795" />
	</node>
	<node lat="62.12951994829544" lon="10.023848660396045" id="-48860">
		<tag k="fixme" v="consider place=hamlet" />
		<tag k="name" v="Reinhof" />
		<tag k="place" v="farm" />
		<tag k="ssr:stedsnr" v="359095" />
	</node>
	<node lat="62.13610833125815" lon="9.952902773763183" id="-48874">
		<tag k="name" v="Granly" />
		<tag k="place" v="isolated_dwelling" />
		<tag k="ssr:stedsnr" v="360548" />
	</node>
	<node lat="62.17870277848719" lon="9.831083333281281" id="-48875">
		<tag k="name" v="Søre Systugu Dalen" />
		<tag k="place" v="farm" />
		<tag k="ssr:stedsnr" v="360759" />
	</node>
	<node lat="62.135655556718106" lon="10.18361110735529" id="-48877">
		<tag k="name" v="Raudmåsårøsta" />
		<tag k="place" v="locality" />
		<tag k="ssr:stedsnr" v="360928" />
	</node>
	<node lat="62.12598889138293" lon="10.097583339536117" id="-48882">
		<tag k="name" v="Oddtrøa" />
		<tag k="place" v="farm" />
		<tag k="ssr:stedsnr" v="361034" />
	</node>
	<node lat="62.131383333505546" lon="10.054075004911203" id="-48888">
		<tag k="alt_name" v="Røsten" />
		<tag k="name" v="Vollan" />
		<tag k="place" v="farm" />
		<tag k="ssr:stedsnr" v="361098" />
	</node>
	<node lat="62.25325555630104" lon="10.267019450005721" id="-48891">
		<tag k="historic" v="shieling" />
		<tag k="name" v="Gunnarsætra" />
		<tag k="place" v="isolated_dwelling" />
		<tag k="ssr:stedsnr" v="361300" />
	</node>
	<node lat="62.193758337034375" lon="9.76487221998535" id="-48916">
		<tag k="name" v="Bjørke" />
		<tag k="place" v="isolated_dwelling" />
		<tag k="ssr:stedsnr" v="361780" />
	</node>
	<node lat="62.20402221800808" lon="10.07097500657704" id="-48924">
		<tag k="historic" v="shieling" />
		<tag k="name" v="Grøtlisætre" />
		<tag k="place" v="isolated_dwelling" />
		<tag k="ssr:stedsnr" v="374369" />
	</node>
	<node lat="62.18129444216354" lon="9.78621388096852" id="-48926">
		<tag k="name" v="Frisvoll" />
		<tag k="place" v="farm" />
		<tag k="ssr:stedsnr" v="374278" />
	</node>
	<node lat="62.201472226026304" lon="10.063497217547914" id="-48928">
		<tag k="historic" v="shieling" />
		<tag k="name" v="Nilsgardssætre" />
		<tag k="place" v="isolated_dwelling" />
		<tag k="ssr:stedsnr" v="374370" />
	</node>
	<node lat="62.251402775012345" lon="10.182499993837064" id="-48936">
		<tag k="fixme" v="multiple name tags, choose one and add the other to alt_name" />
		<tag k="historic" v="shieling" />
		<tag k="name" v="Norssætra;Stugulisætra" />
		<tag k="place" v="isolated_dwelling" />
		<tag k="ssr:stedsnr" v="375621" />
	</node>
	<node lat="62.26130277454201" lon="10.322583338035448" id="-48940">
		<tag k="historic" v="shieling" />
		<tag k="name" v="Sivillhaugsætra" />
		<tag k="place" v="isolated_dwelling" />
		<tag k="ssr:stedsnr" v="376018" />
	</node>
	<node lat="62.25996111391964" lon="10.279633329993692" id="-48941">
		<tag k="historic" v="shieling" />
		<tag k="name" v="Tronslisætra" />
		<tag k="place" v="isolated_dwelling" />
		<tag k="ssr:stedsnr" v="376019" />
	</node>
	<node lat="62.098733336630325" lon="9.959616671086986" id="-48943">
		<tag k="name" v="Midtre Streitlie" />
		<tag k="place" v="farm" />
		<tag k="ssr:stedsnr" v="389277" />
	</node>
	<node lat="62.208097220152354" lon="9.767416669233418" id="-48944">
		<tag k="name" v="Nordre Rundtom" />
		<tag k="place" v="farm" />
		<tag k="ssr:stedsnr" v="390757" />
	</node>
	<node lat="62.25994166532053" lon="10.198719447346173" id="-48962">
		<tag k="historic" v="shieling" />
		<tag k="name" v="Romsdalssætra" />
		<tag k="place" v="isolated_dwelling" />
		<tag k="ssr:stedsnr" v="421171" />
	</node>
	<node lat="62.15172733086585" lon="9.833337695213402" id="-48963">
		<tag k="alt_name" v="Dalåsen, søre;Søndre Dalåsen;s Dalåsen;Dalåsen" />
		<tag k="name" v="Søre Dalåsen" />
		<tag k="old_name" v="Dalaasen" />
		<tag k="place" v="farm" />
		<tag k="ssr:stedsnr" v="421277" />
	</node>
	<node lat="62.121769446720315" lon="10.057102776480638" id="-48967">
		<tag k="name" v="Nilsgård" />
		<tag k="place" v="farm" />
		<tag k="ssr:stedsnr" v="422030" />
	</node>
	<node lat="62.18781110741053" lon="9.79955000790841" id="-48969">
		<tag k="name" v="Furuheim" />
		<tag k="place" v="farm" />
		<tag k="ssr:stedsnr" v="421785" />
	</node>
	<node lat="62.27139444478675" lon="10.166652768792593" id="-48977">
		<tag k="name" v="Mælen" />
		<tag k="place" v="isolated_dwelling" />
		<tag k="ssr:stedsnr" v="422163" />
	</node>
	<node lat="62.196250002497095" lon="10.331094441735363" id="-48980">
		<tag k="name" v="Gammelgarden" />
		<tag k="place" v="locality" />
		<tag k="ssr:stedsnr" v="422367" />
	</node>
	<node lat="62.17342950915465" lon="9.837399479092603" id="-48989">
		<tag k="name" v="Dalgardsgrende" />
		<tag k="place" v="hamlet" />
		<tag k="ssr:stedsnr" v="435283" />
	</node>
	<node lat="62.16130278109635" lon="9.818833341578257" id="-48990">
		<tag k="name" v="Dagdyljuøyen" />
		<tag k="place" v="farm" />
		<tag k="ssr:stedsnr" v="435293" />
	</node>
	<node lat="62.1550444426368" lon="9.866269442981073" id="-48991">
		<tag k="name" v="Sollund" />
		<tag k="place" v="farm" />
		<tag k="ssr:stedsnr" v="435295" />
	</node>
	<node lat="62.1759750006618" lon="10.246394444216651" id="-48995">
		<tag k="name" v="Bergset" />
		<tag k="place" v="farm" />
		<tag k="ssr:stedsnr" v="435023" />
	</node>
	<node lat="62.17992499763308" lon="10.229091668841614" id="-48996">
		<tag k="name" v="Tunheim" />
		<tag k="place" v="farm" />
		<tag k="ssr:stedsnr" v="435041" />
	</node>
	<node lat="62.14137531133551" lon="9.952149767056959" id="-48997">
		<tag k="name" v="Husom" />
		<tag k="place" v="hamlet" />
		<tag k="ssr:stedsnr" v="435331" />
	</node>
	<node lat="62.139852779342064" lon="9.943947230080385" id="-48998">
		<tag k="name" v="Storøymoen" />
		<tag k="old_name" v="Storøymæn" />
		<tag k="place" v="farm" />
		<tag k="ssr:stedsnr" v="435335" />
	</node>
	<node lat="62.146250000062345" lon="9.886691669309686" id="-48999">
		<tag k="alt_name" v="Brohaug" />
		<tag k="name" v="Bruhaug" />
		<tag k="place" v="farm" />
		<tag k="ssr:stedsnr" v="435340" />
	</node>
	<node lat="62.12778055343035" lon="10.036213881596076" id="-49006">
		<tag k="name" v="Kroken" />
		<tag k="place" v="farm" />
		<tag k="ssr:stedsnr" v="435495" />
	</node>
	<node lat="62.19140036478666" lon="9.715419331734111" id="-49007">
		<tag k="fixme" v="consider place=hamlet" />
		<tag k="name" v="Kvistli" />
		<tag k="old_name" v="Kvisli" />
		<tag k="place" v="farm" />
		<tag k="ssr:stedsnr" v="435737" />
	</node>
	<node lat="62.125769440115924" lon="10.016733334173988" id="-49015">
		<tag k="name" v="Øygard" />
		<tag k="place" v="farm" />
		<tag k="ssr:stedsnr" v="436446" />
	</node>
	<node lat="62.381855555901744" lon="10.016002772379975" id="-49016">
		<tag k="historic" v="shieling" />
		<tag k="name" v="Borkhussætra" />
		<tag k="place" v="isolated_dwelling" />
		<tag k="ssr:stedsnr" v="436692" />
	</node>
	<node lat="62.18617777585519" lon="9.812252777504703" id="-49026">
		<tag k="fixme" v="multiple name tags, choose one and add the other to alt_name" />
		<tag k="name" v="Furuhovde;Skogen" />
		<tag k="place" v="farm" />
		<tag k="ssr:stedsnr" v="496391" />
	</node>
	<node lat="62.1880781970344" lon="9.780129317943713" id="-49027">
		<tag k="alt_name" v="Eide" />
		<tag k="fixme" v="consider place=hamlet" />
		<tag k="name" v="Stor-Eide" />
		<tag k="place" v="farm" />
		<tag k="ssr:stedsnr" v="496392" />
	</node>
	<node lat="62.099480551289474" lon="9.961336118723455" id="-49034">
		<tag k="name" v="Søre Streitlie" />
		<tag k="place" v="farm" />
		<tag k="ssr:stedsnr" v="517294" />
	</node>
	<node lat="62.16249167063523" lon="10.143052779987592" id="-49041">
		<tag k="name" v="Marken" />
		<tag k="place" v="farm" />
		<tag k="ssr:stedsnr" v="542044" />
	</node>
	<node lat="62.19069999587401" lon="10.180269450170334" id="-49045">
		<tag k="historic" v="shieling" />
		<tag k="name" v="Myrtrøsætra" />
		<tag k="place" v="isolated_dwelling" />
		<tag k="ssr:stedsnr" v="542053" />
	</node>
	<node lat="62.15457814996076" lon="9.824752159928927" id="-49046">
		<tag k="name" v="Dalåsen" />
		<tag k="place" v="hamlet" />
		<tag k="ssr:stedsnr" v="542157" />
	</node>
	<node lat="62.12601944748696" lon="10.10873610411919" id="-49055">
		<tag k="name" v="Nedre Brennodden" />
		<tag k="place" v="farm" />
		<tag k="ssr:stedsnr" v="542941" />
	</node>
	<node lat="62.11353333599155" lon="10.049775006958118" id="-49058">
		<tag k="name" v="Styggdalen" />
		<tag k="place" v="locality" />
		<tag k="ssr:stedsnr" v="543047" />
	</node>
	<node lat="62.14752222109958" lon="9.88934165804052" id="-49065">
		<tag k="name" v="Sandstugu" />
		<tag k="place" v="locality" />
		<tag k="ssr:stedsnr" v="543551" />
	</node>
	<node lat="62.13672221876142" lon="10.139000006228537" id="-49071">
		<tag k="name" v="Geitrygglia" />
		<tag k="place" v="locality" />
		<tag k="ssr:stedsnr" v="543927" />
	</node>
	<node lat="62.18907777620301" lon="10.2822166582323" id="-49075">
		<tag k="name" v="Rykroken" />
		<tag k="place" v="farm" />
		<tag k="ssr:stedsnr" v="556126" />
	</node>
	<node lat="62.19786180345763" lon="10.339400241768889" id="-49076">
		<tag k="alt_name" v="Tømmerøien" />
		<tag k="fixme" v="consider place=hamlet" />
		<tag k="name" v="Tømmerøya" />
		<tag k="place" v="farm" />
		<tag k="ssr:stedsnr" v="556129" />
	</node>
	<node lat="62.19942222662057" lon="10.363338894371832" id="-49077">
		<tag k="name" v="Einabu" />
		<tag k="place" v="farm" />
		<tag k="ssr:stedsnr" v="556132" />
	</node>
	<node lat="62.14726944088384" lon="9.905594446719961" id="-49084">
		<tag k="alt_name" v="Nordgård" />
		<tag k="name" v="Nordgard" />
		<tag k="place" v="farm" />
		<tag k="ssr:stedsnr" v="556371" />
	</node>
	<node lat="62.24365277498002" lon="10.195780558055088" id="-49085">
		<tag k="historic" v="shieling" />
		<tag k="name" v="Stugulisætra" />
		<tag k="place" v="isolated_dwelling" />
		<tag k="ssr:stedsnr" v="556374" />
	</node>
	<node lat="62.22330277656066" lon="10.027916673647397" id="-49087">
		<tag k="historic" v="shieling" />
		<tag k="name" v="Skardbekksætran" />
		<tag k="place" v="isolated_dwelling" />
		<tag k="ssr:stedsnr" v="556395" />
	</node>
	<node lat="62.120780537242204" lon="10.06446044580709" id="-49090">
		<tag k="alt_name" v="Åsegård" />
		<tag k="fixme" v="consider place=hamlet" />
		<tag k="name" v="Åsagarden" />
		<tag k="place" v="farm" />
		<tag k="ssr:stedsnr" v="557456" />
	</node>
	<node lat="62.295686110066256" lon="10.033013881468527" id="-49096">
		<tag k="historic" v="shieling" />
		<tag k="name" v="Langhøsætra" />
		<tag k="place" v="isolated_dwelling" />
		<tag k="ssr:stedsnr" v="557645" />
	</node>
	<node lat="62.009561906040275" lon="9.986929304411689" id="-49100">
		<tag k="alt_name" v="Lien" />
		<tag k="fixme" v="consider place=hamlet" />
		<tag k="name" v="Elgevasslien" />
		<tag k="old_name" v="Elgvaslien;Elgevaslien" />
		<tag k="place" v="farm" />
		<tag k="ssr:stedsnr" v="585374" />
	</node>
	<node lat="62.130202779433205" lon="10.036102780197286" id="-49108">
		<tag k="name" v="Moen" />
		<tag k="place" v="isolated_dwelling" />
		<tag k="ssr:stedsnr" v="602109" />
	</node>
	<node lat="62.19094999919872" lon="9.814280558248054" id="-49114">
		<tag k="name" v="Midtre Furuhovdet" />
		<tag k="place" v="farm" />
		<tag k="ssr:stedsnr" v="602770" />
	</node>
	<node lat="62.19365718298934" lon="9.750343902940084" id="-49115">
		<tag k="name" v="Sørbø" />
		<tag k="place" v="farm" />
		<tag k="ssr:stedsnr" v="602773" />
	</node>
	<node lat="62.14750477960906" lon="9.917158575795462" id="-49128">
		<tag k="name" v="Øvre Lon" />
		<tag k="place" v="farm" />
		<tag k="ssr:stedsnr" v="604580" />
	</node>
	<node lat="61.92330212543648" lon="10.0540310464062" id="-49136">
		<tag k="fixme" v="consider tourism=alpine_hut or tourism=chalet" />
		<tag k="name" v="Straumbu Turistgard" />
		<tag k="ssr:stedsnr" v="606425" />
		<tag k="tourism" v="wilderness_hut" />
	</node>
	<node lat="62.17253055701777" lon="10.228599992590517" id="-49137">
		<tag k="name" v="Tangmoen" />
		<tag k="place" v="farm" />
		<tag k="ssr:stedsnr" v="617021" />
	</node>
	<node lat="62.18654056544568" lon="10.262686930732361" id="-49138">
		<tag k="fixme" v="consider place=hamlet" />
		<tag k="name" v="Ryenget" />
		<tag k="place" v="farm" />
		<tag k="ssr:stedsnr" v="617031" />
	</node>
	<node lat="62.19741666763124" lon="10.252838896683892" id="-49140">
		<tag k="alt_name" v="Kolvet" />
		<tag k="historic" v="shieling" />
		<tag k="name" v="Haugkolvet" />
		<tag k="place" v="isolated_dwelling" />
		<tag k="ssr:stedsnr" v="617143" />
	</node>
	<node lat="62.197558334430134" lon="10.349805560822936" id="-49141">
		<tag k="name" v="Nybu" />
		<tag k="place" v="farm" />
		<tag k="ssr:stedsnr" v="617147" />
	</node>
	<node lat="62.06743635043407" lon="10.02347729448692" id="-49142">
		<tag k="name" v="Sæteren" />
		<tag k="place" v="farm" />
		<tag k="ssr:stedsnr" v="617419" />
	</node>
	<node lat="62.206993032260016" lon="9.775779807195338" id="-49150">
		<tag k="fixme" v="consider place=hamlet" />
		<tag k="name" v="Rundtom" />
		<tag k="place" v="farm" />
		<tag k="ssr:stedsnr" v="617380" />
	</node>
	<node lat="62.138735946977434" lon="10.028159960008002" id="-49151">
		<tag k="alt_name" v="Torshaug;Engvoll" />
		<tag k="fixme" v="consider place=hamlet" />
		<tag k="name" v="Torshaugen" />
		<tag k="place" v="farm" />
		<tag k="ssr:stedsnr" v="617463" />
	</node>
	<node lat="62.13434722582416" lon="9.947502786539522" id="-49152">
		<tag k="alt_name" v="Brobakk" />
		<tag k="name" v="Brubakk" />
		<tag k="place" v="farm" />
		<tag k="ssr:stedsnr" v="617471" />
	</node>
	<node lat="62.129173489759" lon="10.028309258930928" id="-49153">
		<tag k="fixme" v="consider place=hamlet" />
		<tag k="name" v="Bihaugen" />
		<tag k="place" v="farm" />
		<tag k="ssr:stedsnr" v="617475" />
	</node>
	<node lat="62.128088890464284" lon="10.05152221515041" id="-49154">
		<tag k="name" v="Flatås" />
		<tag k="old_name" v="Søndre nedre Beitrusten" />
		<tag k="place" v="farm" />
		<tag k="ssr:stedsnr" v="617478" />
	</node>
	<node lat="62.128272222575895" lon="10.086630554696127" id="-49155">
		<tag k="name" v="Myrvang" />
		<tag k="place" v="isolated_dwelling" />
		<tag k="ssr:stedsnr" v="617479" />
	</node>
	<node lat="62.33996923549437" lon="9.995195316323416" id="-49156">
		<tag k="historic" v="shieling" />
		<tag k="name" v="Småbakkan" />
		<tag k="place" v="isolated_dwelling" />
		<tag k="ssr:stedsnr" v="618676" />
	</node>
	<node lat="62.254672224464436" lon="9.730386106112011" id="-49162">
		<tag k="name" v="Rundtomhuset" />
		<tag k="place" v="isolated_dwelling" />
		<tag k="ssr:stedsnr" v="634550" />
	</node>
	<node lat="62.26443611445539" lon="9.740074999960326" id="-49163">
		<tag k="name" v="Slettahuset" />
		<tag k="place" v="isolated_dwelling" />
		<tag k="ssr:stedsnr" v="634551" />
	</node>
	<node lat="61.97238055809653" lon="10.027349990877733" id="-49173">
		<tag k="name" v="Nordre Eriksrud" />
		<tag k="place" v="farm" />
		<tag k="ssr:stedsnr" v="663289" />
	</node>
	<node lat="62.18943055675733" lon="10.26346666164079" id="-49176">
		<tag k="name" v="Solbakken" />
		<tag k="place" v="farm" />
		<tag k="ssr:stedsnr" v="663331" />
	</node>
	<node lat="62.1729695227885" lon="9.792581987942887" id="-49181">
		<tag k="name" v="Midtre Dalslåen" />
		<tag k="place" v="farm" />
		<tag k="ssr:stedsnr" v="663789" />
	</node>
	<node lat="62.072386107870294" lon="9.949155552528792" id="-49188">
		<tag k="name" v="Fallet turiststed" />
		<tag k="ssr:stedsnr" v="664502" />
		<tag k="tourism" v="hotel" />
	</node>
	<node lat="62.15768611326013" lon="9.856766668993107" id="-49200">
		<tag k="name" v="Nørdre Dalflyen" />
		<tag k="place" v="farm" />
		<tag k="ssr:stedsnr" v="666159" />
	</node>
	<node lat="62.13871110896119" lon="10.015338890953885" id="-49208">
		<tag k="name" v="Øvre Lien" />
		<tag k="place" v="locality" />
		<tag k="ssr:stedsnr" v="723090" />
	</node>
	<node lat="62.03527222596341" lon="10.01299999164258" id="-49210">
		<tag k="alt_name" v="Nørdre Stadsbuøyen" />
		<tag k="name" v="Nørdre Øyen" />
		<tag k="old_name" v="Nordre Stadsbuøien" />
		<tag k="place" v="farm" />
		<tag k="ssr:stedsnr" v="723144" />
	</node>
	<node lat="61.97127499683676" lon="10.025544440564765" id="-49213">
		<tag k="alt_name" v="Søndre Eriksrud" />
		<tag k="name" v="Søre Eriksrud" />
		<tag k="place" v="farm" />
		<tag k="ssr:stedsnr" v="724280" />
	</node>
	<node lat="62.14572777728115" lon="9.948208335931186" id="-49227">
		<tag k="name" v="Åkran" />
		<tag k="place" v="farm" />
		<tag k="ssr:stedsnr" v="724550" />
	</node>
	<node lat="62.20798333005939" lon="9.774530556179464" id="-49229">
		<tag k="name" v="Skeierundtom" />
		<tag k="place" v="farm" />
		<tag k="ssr:stedsnr" v="724771" />
	</node>
	<node lat="62.21951110746871" lon="9.73910276869306" id="-49230">
		<tag k="historic" v="shieling" />
		<tag k="name" v="Kvitdalssæter" />
		<tag k="place" v="isolated_dwelling" />
		<tag k="ssr:stedsnr" v="724773" />
	</node>
	<node lat="62.17029085244891" lon="9.802312291671669" id="-49264">
		<tag k="alt_name" v="Tuvan søndre" />
		<tag k="fixme" v="consider place=hamlet" />
		<tag k="name" v="Tuvan" />
		<tag k="place" v="farm" />
		<tag k="ssr:stedsnr" v="739243" />
	</node>
	<node lat="62.13880295994726" lon="10.035186676547685" id="-49267">
		<tag k="alt_name" v="Bukkplassen" />
		<tag k="fixme" v="consider place=hamlet" />
		<tag k="name" v="Moseng" />
		<tag k="place" v="farm" />
		<tag k="ssr:stedsnr" v="739435" />
	</node>
	<node lat="62.14168889181304" lon="10.146574998187672" id="-49268">
		<tag k="name" v="Nordli" />
		<tag k="place" v="farm" />
		<tag k="ssr:stedsnr" v="739437" />
	</node>
	<node lat="62.130161502241315" lon="10.056518348988629" id="-49271">
		<tag k="fixme" v="consider place=hamlet" />
		<tag k="name" v="Røsten" />
		<tag k="place" v="farm" />
		<tag k="ssr:stedsnr" v="739458" />
	</node>
	<node lat="62.12610000219413" lon="10.014769452838886" id="-49274">
		<tag k="name" v="Husøy" />
		<tag k="place" v="farm" />
		<tag k="ssr:stedsnr" v="739469" />
	</node>
	<node lat="62.122647224835355" lon="9.987313881981265" id="-49275">
		<tag k="name" v="Einbu" />
		<tag k="place" v="farm" />
		<tag k="ssr:stedsnr" v="739471" />
	</node>
	<node lat="62.11994722144061" lon="10.057924999275135" id="-49276">
		<tag k="name" v="Odden" />
		<tag k="place" v="farm" />
		<tag k="ssr:stedsnr" v="739475" />
	</node>
	<node lat="62.12189449482188" lon="10.069301460868026" id="-49277">
		<tag k="name" v="Brandsnes" />
		<tag k="place" v="hamlet" />
		<tag k="ssr:stedsnr" v="739484" />
	</node>
	<node lat="62.11236388490907" lon="9.970572214343658" id="-49278">
		<tag k="alt_name" v="Sveen nedre" />
		<tag k="name" v="Midtsvei" />
		<tag k="place" v="farm" />
		<tag k="ssr:stedsnr" v="739486" />
	</node>
	<node lat="61.98525832917075" lon="10.025988888994258" id="-49280">
		<tag k="name" v="Vollen" />
		<tag k="place" v="farm" />
		<tag k="ssr:stedsnr" v="739532" />
	</node>
	<node lat="62.206708335738334" lon="9.776855562006478" id="-49284">
		<tag k="name" v="Midtre Rundtom" />
		<tag k="place" v="farm" />
		<tag k="ssr:stedsnr" v="754765" />
	</node>
	<node lat="62.096075001301415" lon="10.112497228272902" id="-49286">
		<tag k="name" v="Såtån" />
		<tag k="place" v="isolated_dwelling" />
		<tag k="ssr:stedsnr" v="762935" />
	</node>
	<node lat="62.12796666787749" lon="9.999066671627729" id="-49291">
		<tag k="name" v="Folleng" />
		<tag k="place" v="farm" />
		<tag k="ssr:stedsnr" v="784102" />
	</node>
	<node lat="62.206411108653135" lon="9.669677785323692" id="-49302">
		<tag k="loc_name" v="Midtre Børsungsætre" />
		<tag k="name" v="Midtre Børsungsæter" />
		<tag k="place" v="farm" />
		<tag k="ssr:stedsnr" v="785996" />
	</node>
	<node lat="62.3207750043467" lon="9.84784723139543" id="-49326">
		<tag k="name" v="Port Arthur" />
		<tag k="place" v="isolated_dwelling" />
		<tag k="ssr:stedsnr" v="786882" />
	</node>
	<node lat="62.17189727040731" lon="9.836491253222555" id="-49332">
		<tag k="name" v="Dallykkja" />
		<tag k="place" v="farm" />
		<tag k="ssr:stedsnr" v="795689" />
	</node>
	<node lat="62.14845555547926" lon="10.158108328693377" id="-49333">
		<tag k="name" v="Frankmoen" />
		<tag k="place" v="farm" />
		<tag k="ssr:stedsnr" v="799323" />
	</node>
	<node lat="62.16253610725666" lon="9.816705564837497" id="-49339">
		<tag k="name" v="Strandbu" />
		<tag k="place" v="locality" />
		<tag k="ssr:stedsnr" v="798625" />
	</node>
	<node lat="62.17925866542946" lon="9.826856435786834" id="-49343">
		<tag k="alt_name" v="Nørdre Dalen" />
		<tag k="fixme" v="consider place=hamlet" />
		<tag k="name" v="Nordgardan" />
		<tag k="old_name" v="Nordre Folldalen" />
		<tag k="place" v="farm" />
		<tag k="ssr:stedsnr" v="799277" />
	</node>
	<node lat="62.21359166271235" lon="9.819233333014257" id="-49346">
		<tag k="alt_name" v="Tunga" />
		<tag k="historic" v="shieling" />
		<tag k="name" v="Søre Tunga" />
		<tag k="place" v="isolated_dwelling" />
		<tag k="ssr:stedsnr" v="799352" />
	</node>
	<node lat="62.1564388415609" lon="9.90312066309446" id="-49354">
		<tag k="historic" v="shieling" />
		<tag k="name" v="Lonasætran" />
		<tag k="place" v="isolated_dwelling" />
		<tag k="ssr:stedsnr" v="800266" />
	</node>
	<node lat="62.12012262247617" lon="9.963738036445845" id="-49355">
		<tag k="alt_name" v="Knutshovde;Knutshovdet" />
		<tag k="fixme" v="consider place=hamlet" />
		<tag k="name" v="Knutshovda" />
		<tag k="place" v="farm" />
		<tag k="ssr:stedsnr" v="800465" />
	</node>
	<node lat="62.12224654451865" lon="10.04448511322701" id="-49356">
		<tag k="alt_name" v="Lillekroken" />
		<tag k="fixme" v="consider place=hamlet" />
		<tag k="name" v="Veslkroken" />
		<tag k="place" v="farm" />
		<tag k="ssr:stedsnr" v="800467" />
	</node>
	<node lat="62.13344400880657" lon="9.708164439195388" id="-49364">
		<tag k="name" v="Frisvollhuset" />
		<tag k="place" v="locality" />
		<tag k="ssr:stedsnr" v="811801" />
	</node>
	<node lat="62.03351944147149" lon="10.015447214021908" id="-49367">
		<tag k="alt_name" v="Midtre Stadsbuøyen" />
		<tag k="name" v="Midtøyen" />
		<tag k="old_name" v="Nordre søristuen Stadsbuøien;Nordre søristuen Stadsbuøye" />
		<tag k="place" v="farm" />
		<tag k="ssr:stedsnr" v="845159" />
	</node>
	<node lat="62.13677895160864" lon="10.032550694023397" id="-49371">
		<tag k="fixme" v="consider place=hamlet" />
		<tag k="name" v="Johannesplass" />
		<tag k="place" v="farm" />
		<tag k="ssr:stedsnr" v="845649" />
	</node>
	<node lat="62.16675278065376" lon="10.187855553419453" id="-49378">
		<tag k="name" v="Nedre Kjølle" />
		<tag k="place" v="farm" />
		<tag k="ssr:stedsnr" v="846021" />
	</node>
	<node lat="62.171561114896384" lon="10.199211117485632" id="-49379">
		<tag k="name" v="Øvre Ryen" />
		<tag k="place" v="farm" />
		<tag k="ssr:stedsnr" v="846024" />
	</node>
	<node lat="62.07088888695534" lon="10.034647229564776" id="-49386">
		<tag k="name" v="Mattisstad" />
		<tag k="place" v="locality" />
		<tag k="ssr:stedsnr" v="846163" />
	</node>
	<node lat="62.132341666273625" lon="9.918702768739388" id="-49389">
		<tag k="name" v="Solstad" />
		<tag k="place" v="isolated_dwelling" />
		<tag k="ssr:stedsnr" v="846541" />
	</node>
	<node lat="62.12315277630414" lon="10.068627782951776" id="-49392">
		<tag k="name" v="Nordheim" />
		<tag k="place" v="farm" />
		<tag k="ssr:stedsnr" v="847032" />
	</node>
	<node lat="62.11026944441533" lon="9.975047226896827" id="-49396">
		<tag k="name" v="Svestugu" />
		<tag k="place" v="isolated_dwelling" />
		<tag k="ssr:stedsnr" v="847545" />
	</node>
	<node lat="62.26789722322877" lon="10.176497218982343" id="-49397">
		<tag k="name" v="Klemetbua" />
		<tag k="place" v="locality" />
		<tag k="ssr:stedsnr" v="847188" />
	</node>
	<node lat="62.123241665545606" lon="10.060538893286846" id="-49401">
		<tag k="name" v="Nyheim" />
		<tag k="place" v="farm" />
		<tag k="ssr:stedsnr" v="847045" />
	</node>
	<node lat="62.12748717233814" lon="10.026539724556212" id="-49414">
		<tag k="name" v="Flyen" />
		<tag k="place" v="hamlet" />
		<tag k="ssr:stedsnr" v="849533" />
	</node>
	<node lat="62.171547710424775" lon="9.82529423236512" id="-49415">
		<tag k="fixme" v="consider place=hamlet" />
		<tag k="loc_name" v="Måsåhaugen" />
		<tag k="name" v="Mosehaug" />
		<tag k="place" v="farm" />
		<tag k="ssr:stedsnr" v="856686" />
	</node>
	<node lat="62.17160305330307" lon="10.200090917542523" id="-49416">
		<tag k="fixme" v="consider place=hamlet" />
		<tag k="name" v="Ryen" />
		<tag k="place" v="farm" />
		<tag k="ssr:stedsnr" v="860294" />
	</node>
	<node lat="62.146988885327914" lon="9.882722220940414" id="-49418">
		<tag k="name" v="Myrvoll" />
		<tag k="place" v="farm" />
		<tag k="ssr:stedsnr" v="860335" />
	</node>
	<node lat="62.15161110724118" lon="9.843733324100821" id="-49419">
		<tag k="name" v="Saghaugen" />
		<tag k="place" v="farm" />
		<tag k="ssr:stedsnr" v="860336" />
	</node>
	<node lat="62.15545764264404" lon="10.17659691397121" id="-49420">
		<tag k="alt_name" v="Kakeløya" />
		<tag k="name" v="Øya" />
		<tag k="place" v="farm" />
		<tag k="ssr:stedsnr" v="860345" />
	</node>
	<node lat="62.20305833031517" lon="10.085538894994624" id="-49421">
		<tag k="historic" v="shieling" />
		<tag k="name" v="Bustadsætre" />
		<tag k="place" v="isolated_dwelling" />
		<tag k="ssr:stedsnr" v="860417" />
	</node>
	<node lat="62.15306944600621" lon="9.940155553593867" id="-49423">
		<tag k="alt_name" v="Bakkesætrin" />
		<tag k="historic" v="shieling" />
		<tag k="name" v="Bakkesætran" />
		<tag k="place" v="isolated_dwelling" />
		<tag k="ssr:stedsnr" v="860373" />
	</node>
	<node lat="62.002779788178145" lon="10.014855499546824" id="-49425">
		<tag k="name" v="Gravmobakken" />
		<tag k="place" v="farm" />
		<tag k="ssr:stedsnr" v="860481" />
	</node>
	<node lat="62.10605277691674" lon="10.117505557909466" id="-49427">
		<tag k="fixme" v="multiple name tags, choose one and add the other to alt_name" />
		<tag k="name" v="Grimsenget;Lauvlandbeite" />
		<tag k="place" v="isolated_dwelling" />
		<tag k="ssr:stedsnr" v="861464" />
	</node>
	<node lat="62.12130833563152" lon="10.052475005461186" id="-49428">
		<tag k="alt_name" v="Steen" />
		<tag k="name" v="Stea" />
		<tag k="place" v="farm" />
		<tag k="ssr:stedsnr" v="861441" />
	</node>
	<node lat="62.11643236932907" lon="9.980294617355177" id="-49429">
		<tag k="alt_name" v="Kristoffersveen" />
		<tag k="fixme" v="consider place=hamlet" />
		<tag k="name" v="Nersvei" />
		<tag k="place" v="farm" />
		<tag k="ssr:stedsnr" v="861452" />
	</node>
	<node lat="62.32985555240648" lon="9.931905554581148" id="-49431">
		<tag k="alt_name" v="Døllii" />
		<tag k="name" v="Døllisætran" />
		<tag k="old_name" v="Dølisætran" />
		<tag k="place" v="hamlet" />
		<tag k="ssr:stedsnr" v="861631" />
	</node>
	<node lat="62.283116667283835" lon="10.128927777035736" id="-49433">
		<tag k="historic" v="shieling" />
		<tag k="name" v="Nistugusætra" />
		<tag k="place" v="isolated_dwelling" />
		<tag k="ssr:stedsnr" v="861637" />
	</node>
	<node lat="62.25997222671294" lon="10.199127775803264" id="-49434">
		<tag k="historic" v="shieling" />
		<tag k="name" v="Kjøllhaugsætra" />
		<tag k="place" v="isolated_dwelling" />
		<tag k="ssr:stedsnr" v="861599" />
	</node>
	<node lat="62.16418888886277" lon="10.18402499523903" id="-49439">
		<tag k="name" v="Kjølle" />
		<tag k="place" v="farm" />
		<tag k="ssr:stedsnr" v="868234" />
	</node>
	<node lat="62.15678267787815" lon="9.630707788939777" id="-49441">
		<tag k="name" v="Skardheim" />
		<tag k="place" v="locality" />
		<tag k="ssr:stedsnr" v="872844" />
	</node>
	<node lat="62.04815555130668" lon="10.010847226670537" id="-49445">
		<tag k="name" v="Øyasage" />
		<tag k="place" v="locality" />
		<tag k="ssr:stedsnr" v="966217" />
	</node>
	<node lat="62.19120555615037" lon="9.731283335459306" id="-49460">
		<tag k="name" v="Djupdalsbakken" />
		<tag k="place" v="locality" />
		<tag k="ssr:stedsnr" v="966968" />
	</node>
	<node lat="62.06614721868792" lon="9.973319439671906" id="-49488">
		<tag k="name" v="Vesledalen" />
		<tag k="place" v="locality" />
		<tag k="ssr:stedsnr" v="968772" />
	</node>
	<node lat="62.13985598242945" lon="9.956183054249417" id="-49518">
		<tag k="alt_name" v="Søre Husum;Husum søndre" />
		<tag k="fixme" v="consider place=hamlet" />
		<tag k="name" v="Søre Husom" />
		<tag k="place" v="farm" />
		<tag k="ssr:stedsnr" v="981892" />
	</node>
	<node lat="62.15647734384473" lon="10.163470722642687" id="-49550">
		<tag k="name" v="Holen nordre" />
		<tag k="place" v="farm" />
		<tag k="ssr:stedsnr" v="1076931" />
	</node>
	<node lat="62.122398781141335" lon="10.055392384103833" id="-49551">
		<tag k="fixme" v="consider place=hamlet" />
		<tag k="name" v="Øvre Brandsnes" />
		<tag k="place" v="farm" />
		<tag k="ssr:stedsnr" v="1076932" />
	</node>
	<node lat="62.12793901771635" lon="10.037677357485151" id="-49552">
		<tag k="fixme" v="consider place=hamlet" />
		<tag k="name" v="Brandsnes" />
		<tag k="place" v="farm" />
		<tag k="ssr:stedsnr" v="1076945" />
	</node>
	<node lat="62.12351366793301" lon="10.030147004452157" id="-49553">
		<tag k="name" v="Haugen" />
		<tag k="place" v="farm" />
		<tag k="ssr:stedsnr" v="1076953" />
	</node>
	<node lat="62.13577743621578" lon="10.03555897199455" id="-49554">
		<tag k="fixme" v="consider place=hamlet" />
		<tag k="name" v="Øvre Beitrusten" />
		<tag k="place" v="farm" />
		<tag k="ssr:stedsnr" v="1076967" />
	</node>
	<node lat="62.130935037304916" lon="9.90194609271645" id="-49555">
		<tag k="fixme" v="consider place=hamlet" />
		<tag k="name" v="Øvre Gåshovdet" />
		<tag k="place" v="farm" />
		<tag k="ssr:stedsnr" v="1076970" />
	</node>
	<node lat="62.14615980576161" lon="9.913182215889998" id="-49556">
		<tag k="name" v="Nedre Lon" />
		<tag k="place" v="farm" />
		<tag k="ssr:stedsnr" v="1076971" />
	</node>
	<node lat="62.10176586654488" lon="9.986037634529296" id="-49557">
		<tag k="fixme" v="consider place=hamlet" />
		<tag k="name" v="Sletten" />
		<tag k="place" v="farm" />
		<tag k="ssr:stedsnr" v="1079821" />
	</node>
	<node lat="62.19113963565712" lon="9.762361456689668" id="-49558">
		<tag k="alt_name" v="Sletten" />
		<tag k="name" v="Søre Sletten" />
		<tag k="place" v="farm" />
		<tag k="ssr:stedsnr" v="1079840" />
	</node>
	<node lat="62.1875476627045" lon="9.680075597402878" id="-49559">
		<tag k="name" v="Søre Slåsæter" />
		<tag k="place" v="farm" />
		<tag k="ssr:stedsnr" v="1079841" />
	</node>
	<node lat="62.18622444159359" lon="9.833890061277922" id="-49560">
		<tag k="fixme" v="consider place=hamlet" />
		<tag k="name" v="Stålan" />
		<tag k="place" v="farm" />
		<tag k="ssr:stedsnr" v="1079945" />
	</node>
	<node lat="62.13213646821862" lon="10.05247199611166" id="-49562">
		<tag k="fixme" v="consider place=hamlet" />
		<tag k="name" v="Erlihaugen" />
		<tag k="place" v="farm" />
		<tag k="ssr:stedsnr" v="1080269" />
	</node>
	<node lat="62.13023973722757" lon="10.05671618902245" id="-49563">
		<tag k="alt_name" v="Torsan" />
		<tag k="name" v="Røsten" />
		<tag k="place" v="farm" />
		<tag k="ssr:stedsnr" v="1080271" />
	</node>
	<node lat="61.973307682252475" lon="10.018104690549409" id="-49564">
		<tag k="fixme" v="consider place=hamlet" />
		<tag k="name" v="Sandom" />
		<tag k="place" v="farm" />
		<tag k="ssr:stedsnr" v="1080371" />
	</node>
	<node lat="62.131166784976905" lon="10.052741767409525" id="-49565">
		<tag k="name" v="Røstan" />
		<tag k="place" v="locality" />
		<tag k="ssr:stedsnr" v="1080401" />
	</node>
	<node lat="62.16831582645442" lon="9.832246050735712" id="-49566">
		<tag k="name" v="Dallykkja" />
		<tag k="old_name" v="2 Trøer" />
		<tag k="place" v="farm" />
		<tag k="ssr:stedsnr" v="1080628" />
	</node>
	<node lat="62.172974128981494" lon="9.839895963268312" id="-49567">
		<tag k="alt_name" v="Dalgardan" />
		<tag k="name" v="Dalen" />
		<tag k="place" v="hamlet" />
		<tag k="ssr:stedsnr" v="1080635" />
	</node>
	<node lat="62.18057413087376" lon="9.824532246483425" id="-49568">
		<tag k="name" v="Øvre Dalen" />
		<tag k="old_name" v="Øvre Foldalen" />
		<tag k="place" v="locality" />
		<tag k="ssr:stedsnr" v="1081439" />
	</node>
	<node lat="62.17186442654395" lon="9.796132521960388" id="-49569">
		<tag k="alt_name" v="Dalslåen" />
		<tag k="name" v="Nedre Dalslåen" />
		<tag k="place" v="farm" />
		<tag k="ssr:stedsnr" v="1082359" />
	</node>
</osm>
