<?xml version="1.0" encoding="UTF-8"?>
<osm version="0.6" generator="osmapis">
	<node lat="62.13901110948202" lon="9.993074996066948" id="-48913">
		<tag k="fixme" v="multiple name tags, choose one and add the other to alt_name" />
		<tag k="landuse" v="quarry" />
		<tag k="name" v="Folldal verk;Folldal gruver" />
		<tag k="ssr:stedsnr" v="11433" />
	</node>
	<node lat="62.25284722035968" lon="10.287502778483445" id="-48923">
		<tag k="name" v="Follslåtten" />
		<tag k="place" v="locality" />
		<tag k="ssr:stedsnr" v="234090" />
	</node>
	<node lat="62.22496111245082" lon="10.334027783909022" id="-48926">
		<tag k="name" v="Skrabban" />
		<tag k="place" v="locality" />
		<tag k="ssr:stedsnr" v="234072" />
	</node>
	<node lat="62.16424721909016" lon="10.19156667073205" id="-48943">
		<tag k="name" v="Midtenget" />
		<tag k="place" v="locality" />
		<tag k="ssr:stedsnr" v="239021" />
	</node>
	<node lat="62.19550833476485" lon="10.292783341483151" id="-48950">
		<tag k="landuse" v="meadow" />
		<tag k="name" v="Moskarenga" />
		<tag k="ssr:stedsnr" v="56322" />
	</node>
	<node lat="62.17971944216596" lon="9.770844450913126" id="-48957">
		<tag k="name" v="Langmyre" />
		<tag k="natural" v="wetland" />
		<tag k="ssr:stedsnr" v="56807" />
	</node>
	<node lat="62.06825277684522" lon="10.003316665634133" id="-48975">
		<tag k="name" v="Kollbottøye" />
		<tag k="place" v="locality" />
		<tag k="ssr:stedsnr" v="240268" />
	</node>
	<node lat="62.17892222088266" lon="9.868991672612797" id="-48990">
		<tag k="historic" v="shieling" />
		<tag k="name" v="Gammelsætre" />
		<tag k="place" v="locality" />
		<tag k="ssr:stedsnr" v="240446" />
	</node>
	<node lat="62.303794442166584" lon="10.054533328550779" id="-48994">
		<tag k="landuse" v="meadow" />
		<tag k="name" v="Buøya" />
		<tag k="ssr:stedsnr" v="240729" />
	</node>
	<node lat="62.06138333097317" lon="9.981966668800244" id="-48995">
		<tag k="name" v="Blæstermyre" />
		<tag k="natural" v="wetland" />
		<tag k="ssr:stedsnr" v="240756" />
	</node>
	<node lat="62.14385277860744" lon="10.162563887553453" id="-49001">
		<tag k="name" v="Frankmoenget" />
		<tag k="place" v="locality" />
		<tag k="ssr:stedsnr" v="240943" />
	</node>
	<node lat="62.160269444784255" lon="10.181544440765736" id="-49025">
		<tag k="name" v="Kakeløra" />
		<tag k="place" v="locality" />
		<tag k="ssr:stedsnr" v="117003" />
	</node>
	<node lat="62.00976666687138" lon="10.003244440996264" id="-49034">
		<tag k="name" v="Langstein" />
		<tag k="natural" v="stone" />
		<tag k="ssr:stedsnr" v="117389" />
	</node>
	<node lat="62.13330555604805" lon="10.102644442769085" id="-49037">
		<tag k="landuse" v="quarry" />
		<tag k="name" v="Søndre Geitryggen gruve" />
		<tag k="ssr:stedsnr" v="119099" />
	</node>
	<node lat="62.04286944650362" lon="9.979911119680432" id="-49041">
		<tag k="name" v="Mikkelbrenna" />
		<tag k="place" v="locality" />
		<tag k="ssr:stedsnr" v="119778" />
	</node>
	<node lat="62.15097499806181" lon="9.797666663615924" id="-49049">
		<tag k="name" v="Stormyre" />
		<tag k="natural" v="wetland" />
		<tag k="ssr:stedsnr" v="131275" />
	</node>
	<node lat="62.20088055712207" lon="9.971597214067039" id="-49053">
		<tag k="name" v="Åsgardfloen" />
		<tag k="natural" v="wetland" />
		<tag k="old_name" v="Åskardfloen" />
		<tag k="ssr:stedsnr" v="132321" />
	</node>
	<node lat="61.91754999907723" lon="10.073133328223642" id="-49095">
		<tag k="alt_name" v="Strømbumorke" />
		<tag k="name" v="Straumbumorke" />
		<tag k="place" v="locality" />
		<tag k="ssr:stedsnr" v="173560" />
	</node>
	<node lat="62.17466944139097" lon="10.156908328630347" id="-49104">
		<tag k="name" v="Kjøllmyra" />
		<tag k="natural" v="wetland" />
		<tag k="ssr:stedsnr" v="178061" />
	</node>
	<node lat="62.16068610714238" lon="9.872863891736749" id="-49117">
		<tag k="name" v="Askarsholen" />
		<tag k="place" v="locality" />
		<tag k="ssr:stedsnr" v="179566" />
	</node>
	<node lat="62.16453333347328" lon="9.818777770930383" id="-49129">
		<tag k="name" v="Småøyan" />
		<tag k="place" v="locality" />
		<tag k="ssr:stedsnr" v="263665" />
	</node>
	<node lat="62.147477778757825" lon="9.867402778742727" id="-49151">
		<tag k="alt_name" v="Strømhaugmyre" />
		<tag k="name" v="Straumhaugmyre" />
		<tag k="natural" v="wetland" />
		<tag k="ssr:stedsnr" v="240579" />
	</node>
	<node lat="62.178038892790184" lon="10.23113888456302" id="-49195">
		<tag k="name" v="Sjulhusmyra" />
		<tag k="natural" v="wetland" />
		<tag k="ssr:stedsnr" v="301172" />
	</node>
	<node lat="62.007772220829125" lon="9.987847215643093" id="-49196">
		<tag k="name" v="Tjyrruskjellen" />
		<tag k="place" v="locality" />
		<tag k="ssr:stedsnr" v="301388" />
	</node>
	<node lat="62.209527776012656" lon="10.270888886482272" id="-49198">
		<tag k="name" v="Brenna" />
		<tag k="place" v="locality" />
		<tag k="ssr:stedsnr" v="301392" />
	</node>
	<node lat="61.90861666818771" lon="10.079755554023482" id="-49230">
		<tag k="name" v="Straumbumyrene" />
		<tag k="natural" v="wetland" />
		<tag k="ssr:stedsnr" v="355563" />
	</node>
	<node lat="62.05326666525091" lon="10.01858333017469" id="-49234">
		<tag k="name" v="Turrtjønnan" />
		<tag k="natural" v="wetland" />
		<tag k="ssr:stedsnr" v="360208" />
	</node>
	<node lat="62.16671388453149" lon="10.331724998319372" id="-49237">
		<tag k="historic" v="shieling" />
		<tag k="name" v="Gammelvangen" />
		<tag k="place" v="locality" />
		<tag k="ssr:stedsnr" v="477070" />
	</node>
	<node lat="62.150058337237" lon="10.074952771438952" id="-49262">
		<tag k="name" v="Brandsnesmyre" />
		<tag k="natural" v="wetland" />
		<tag k="ssr:stedsnr" v="481624" />
	</node>
	<node lat="62.157466669537456" lon="10.15218332558826" id="-49263">
		<tag k="name" v="Bekkdalstrøa" />
		<tag k="place" v="locality" />
		<tag k="ssr:stedsnr" v="481040" />
	</node>
	<node lat="62.16960833655257" lon="10.143319450185825" id="-49265">
		<tag k="name" v="Malmmyra" />
		<tag k="natural" v="wetland" />
		<tag k="ssr:stedsnr" v="481052" />
	</node>
	<node lat="62.153191663977" lon="10.201216674139623" id="-49268">
		<tag k="name" v="Rybergsenget" />
		<tag k="place" v="locality" />
		<tag k="ssr:stedsnr" v="481126" />
	</node>
	<node lat="62.06465277567743" lon="10.016811102594083" id="-49271">
		<tag k="name" v="Ulvmyre" />
		<tag k="natural" v="wetland" />
		<tag k="ssr:stedsnr" v="481255" />
	</node>
	<node lat="62.13800277495644" lon="9.80574444016024" id="-49273">
		<tag k="name" v="Neremyran" />
		<tag k="natural" v="wetland" />
		<tag k="ssr:stedsnr" v="481656" />
	</node>
	<node lat="62.203894441578214" lon="9.801499990325544" id="-49276">
		<tag k="name" v="Furuhovdmorke" />
		<tag k="place" v="locality" />
		<tag k="ssr:stedsnr" v="481784" />
	</node>
	<node lat="62.204008332566374" lon="9.7861638861999" id="-49277">
		<tag k="name" v="Brutrøe" />
		<tag k="place" v="locality" />
		<tag k="ssr:stedsnr" v="481786" />
	</node>
	<node lat="62.1847777738711" lon="9.839680547018519" id="-49280">
		<tag k="name" v="Langholen" />
		<tag k="place" v="locality" />
		<tag k="ssr:stedsnr" v="481755" />
	</node>
	<node lat="62.19258889107111" lon="9.660861105409994" id="-49281">
		<tag k="historic" v="shieling" />
		<tag k="name" v="Øyavesle-lykkja" />
		<tag k="place" v="locality" />
		<tag k="ssr:stedsnr" v="481979" />
	</node>
	<node lat="62.111680557467324" lon="9.994052786490514" id="-49292">
		<tag k="landuse" v="meadow" />
		<tag k="name" v="Lomslåe" />
		<tag k="ssr:stedsnr" v="483054" />
	</node>
	<node lat="62.22998055498534" lon="10.23521944852962" id="-49294">
		<tag k="name" v="Bjønnåsfloen" />
		<tag k="natural" v="wetland" />
		<tag k="ssr:stedsnr" v="483293" />
	</node>
	<node lat="62.20932500135843" lon="10.325524993453481" id="-49296">
		<tag k="landuse" v="meadow" />
		<tag k="name" v="Slåttan" />
		<tag k="ssr:stedsnr" v="483435" />
	</node>
	<node lat="62.0670388878608" lon="9.978977776947936" id="-49300">
		<tag k="name" v="Storøye" />
		<tag k="place" v="locality" />
		<tag k="ssr:stedsnr" v="483544" />
	</node>
	<node lat="62.0740833291252" lon="9.9655472186991" id="-49301">
		<tag k="name" v="Løkmyre" />
		<tag k="natural" v="wetland" />
		<tag k="ssr:stedsnr" v="483553" />
	</node>
	<node lat="61.95188333252521" lon="10.023566661021897" id="-49321">
		<tag k="name" v="Døverkloppmyr" />
		<tag k="natural" v="wetland" />
		<tag k="ssr:stedsnr" v="422391" />
	</node>
	<node lat="62.20540555528248" lon="10.050652779162522" id="-49327">
		<tag k="name" v="Fløttvangen" />
		<tag k="place" v="locality" />
		<tag k="ssr:stedsnr" v="422597" />
	</node>
	<node lat="62.03637500254651" lon="9.973383329144927" id="-49329">
		<tag k="name" v="Tjyruskjellmyrin" />
		<tag k="natural" v="wetland" />
		<tag k="ssr:stedsnr" v="422753" />
	</node>
	<node lat="62.174694446146226" lon="9.821794443114614" id="-49333">
		<tag k="name" v="Kalvelykkjan" />
		<tag k="place" v="locality" />
		<tag k="ssr:stedsnr" v="431698" />
	</node>
	<node lat="62.17394166335413" lon="9.805577771716012" id="-49334">
		<tag k="name" v="Fegerflye" />
		<tag k="place" v="locality" />
		<tag k="ssr:stedsnr" v="491649" />
	</node>
	<node lat="62.18181944280612" lon="9.758047212950224" id="-49389">
		<tag k="name" v="Nørdre Stormyre" />
		<tag k="natural" v="wetland" />
		<tag k="ssr:stedsnr" v="481821" />
	</node>
	<node lat="61.96200555901616" lon="10.01125000773714" id="-49396">
		<tag k="name" v="Storoddsmyran" />
		<tag k="natural" v="wetland" />
		<tag k="ssr:stedsnr" v="482515" />
	</node>
	<node lat="62.17803055991857" lon="10.243752771903395" id="-49400">
		<tag k="name" v="Follenga" />
		<tag k="place" v="locality" />
		<tag k="ssr:stedsnr" v="483210" />
	</node>
	<node lat="62.17762777355092" lon="10.239055555897005" id="-49401">
		<tag k="name" v="Sjulhusenget" />
		<tag k="place" v="locality" />
		<tag k="ssr:stedsnr" v="483215" />
	</node>
	<node lat="62.10473333141815" lon="9.975108339095312" id="-49407">
		<tag k="landuse" v="meadow" />
		<tag k="name" v="Lomslåe" />
		<tag k="ssr:stedsnr" v="483567" />
	</node>
	<node lat="62.22200833098758" lon="10.018658332892015" id="-49408">
		<tag k="historic" v="shieling" />
		<tag k="name" v="Gammelvangen" />
		<tag k="place" v="locality" />
		<tag k="ssr:stedsnr" v="483578" />
	</node>
	<node lat="62.0458222239625" lon="9.974697217864668" id="-49411">
		<tag k="name" v="Kvunnolmyre" />
		<tag k="natural" v="wetland" />
		<tag k="ssr:stedsnr" v="483781" />
	</node>
	<node lat="62.03547500343264" lon="9.989647213104247" id="-49442">
		<tag k="name" v="Frekmyre" />
		<tag k="natural" v="wetland" />
		<tag k="ssr:stedsnr" v="541118" />
	</node>
	<node lat="62.0665361090227" lon="9.987197219371337" id="-49456">
		<tag k="name" v="Storøye" />
		<tag k="place" v="locality" />
		<tag k="ssr:stedsnr" v="543269" />
	</node>
	<node lat="61.960150003339805" lon="10.033022231072115" id="-49464">
		<tag k="name" v="Torvmyre" />
		<tag k="natural" v="wetland" />
		<tag k="ssr:stedsnr" v="543503" />
	</node>
	<node lat="62.08188333425997" lon="9.970961108015727" id="-49466">
		<tag k="name" v="Vesle Husmyre" />
		<tag k="natural" v="wetland" />
		<tag k="ssr:stedsnr" v="543516" />
	</node>
	<node lat="62.17248333359814" lon="10.325411108831478" id="-49492">
		<tag k="name" v="Rondan" />
		<tag k="place" v="locality" />
		<tag k="ssr:stedsnr" v="598071" />
	</node>
	<node lat="62.15920833505725" lon="10.2121638898953" id="-49494">
		<tag k="name" v="Floen" />
		<tag k="natural" v="wetland" />
		<tag k="ssr:stedsnr" v="602018" />
	</node>
	<node lat="62.19853888874988" lon="10.309722223563979" id="-49501">
		<tag k="landuse" v="meadow" />
		<tag k="name" v="Vesleenget" />
		<tag k="ssr:stedsnr" v="602339" />
	</node>
	<node lat="62.14381110947088" lon="9.857591673995937" id="-49507">
		<tag k="historic" v="shieling" />
		<tag k="name" v="Vollen" />
		<tag k="place" v="locality" />
		<tag k="ssr:stedsnr" v="602664" />
	</node>
	<node lat="62.10399166244759" lon="10.100869453426272" id="-49511">
		<tag k="historic" v="shieling" />
		<tag k="name" v="Grimsengsæter" />
		<tag k="place" v="locality" />
		<tag k="ssr:stedsnr" v="604005" />
	</node>
	<node lat="62.201958335673964" lon="10.278319447015882" id="-49516">
		<tag k="historic" v="shieling" />
		<tag k="name" v="Klettrøa" />
		<tag k="place" v="locality" />
		<tag k="ssr:stedsnr" v="604415" />
	</node>
	<node lat="62.07730833425544" lon="9.946716664452472" id="-49517">
		<tag k="name" v="Åkerlykkjmyre" />
		<tag k="natural" v="wetland" />
		<tag k="ssr:stedsnr" v="604524" />
	</node>
	<node lat="62.19279721944895" lon="10.16012223029171" id="-49538">
		<tag k="alt_name" v="Gammelsæterfloen" />
		<tag k="name" v="Floen" />
		<tag k="natural" v="wetland" />
		<tag k="ssr:stedsnr" v="617385" />
	</node>
	<node lat="62.13899722268519" lon="9.913561101552876" id="-49575">
		<tag k="name" v="Stormyre" />
		<tag k="natural" v="wetland" />
		<tag k="ssr:stedsnr" v="664518" />
	</node>
	<node lat="62.02141944581032" lon="9.977569442913218" id="-49577">
		<tag k="name" v="Svarttjønnmyre" />
		<tag k="natural" v="wetland" />
		<tag k="ssr:stedsnr" v="664636" />
	</node>
	<node lat="62.19888611033975" lon="10.066800003806204" id="-49587">
		<tag k="landuse" v="meadow" />
		<tag k="name" v="Slettholen" />
		<tag k="ssr:stedsnr" v="665633" />
	</node>
	<node lat="62.30881110855377" lon="10.045111118389483" id="-49589">
		<tag k="landuse" v="meadow" />
		<tag k="name" v="Bergeenget" />
		<tag k="ssr:stedsnr" v="665734" />
	</node>
	<node lat="62.109322218474524" lon="9.859019438578802" id="-49603">
		<tag k="name" v="Streitmyrin" />
		<tag k="natural" v="wetland" />
		<tag k="old_name" v="Streitmyrene" />
		<tag k="ssr:stedsnr" v="678495" />
	</node>
	<node lat="62.10815277788824" lon="10.043094445170746" id="-49604">
		<tag k="name" v="Holsmyre" />
		<tag k="natural" v="wetland" />
		<tag k="ssr:stedsnr" v="678497" />
	</node>
	<node lat="62.08283055259504" lon="10.098430547287212" id="-49632">
		<tag k="name" v="Storfloen" />
		<tag k="natural" v="wetland" />
		<tag k="ssr:stedsnr" v="724178" />
	</node>
	<node lat="62.015463884438425" lon="9.981133339420122" id="-49636">
		<tag k="name" v="Søre Glenna" />
		<tag k="natural" v="wetland" />
		<tag k="ssr:stedsnr" v="725608" />
	</node>
	<node lat="62.29368611504147" lon="10.074050002590656" id="-49640">
		<tag k="landuse" v="meadow" />
		<tag k="name" v="Skeieenga" />
		<tag k="ssr:stedsnr" v="725675" />
	</node>
	<node lat="62.14554444201722" lon="9.905255550028116" id="-49720">
		<tag k="name" v="Spælen" />
		<tag k="place" v="locality" />
		<tag k="ssr:stedsnr" v="908590" />
	</node>
	<node lat="62.31011388500442" lon="9.84495554693327" id="-49727">
		<tag k="name" v="Veslekvea" />
		<tag k="place" v="locality" />
		<tag k="ssr:stedsnr" v="908897" />
	</node>
	<node lat="62.06214722104192" lon="10.028497224822317" id="-49733">
		<tag k="historic" v="shieling" />
		<tag k="name" v="Stigersæter" />
		<tag k="place" v="locality" />
		<tag k="ssr:stedsnr" v="784246" />
	</node>
	<node lat="62.13400832931215" lon="9.970975001567979" id="-49734">
		<tag k="name" v="Gorbekklykkja" />
		<tag k="place" v="locality" />
		<tag k="ssr:stedsnr" v="784568" />
	</node>
	<node lat="62.15886666697744" lon="10.18304722663273" id="-49736">
		<tag k="landuse" v="meadow" />
		<tag k="name" v="Kakelenget" />
		<tag k="ssr:stedsnr" v="785015" />
	</node>
	<node lat="62.026205553219796" lon="9.987899997006483" id="-49738">
		<tag k="name" v="Fe-øye" />
		<tag k="place" v="locality" />
		<tag k="ssr:stedsnr" v="785353" />
	</node>
	<node lat="62.15762500248723" lon="9.796305562349994" id="-49763">
		<tag k="name" v="Ljosmyre" />
		<tag k="natural" v="wetland" />
		<tag k="ssr:stedsnr" v="799293" />
	</node>
	<node lat="62.16091944166265" lon="9.835633340040106" id="-49780">
		<tag k="name" v="Øyan" />
		<tag k="place" v="locality" />
		<tag k="ssr:stedsnr" v="919627" />
	</node>
	<node lat="62.135463885919016" lon="10.16018888978473" id="-49841">
		<tag k="landuse" v="meadow" />
		<tag k="name" v="Buvangen" />
		<tag k="ssr:stedsnr" v="846915" />
	</node>
	<node lat="62.11598333550927" lon="10.072344447220484" id="-49844">
		<tag k="name" v="Sæterøya" />
		<tag k="place" v="locality" />
		<tag k="ssr:stedsnr" v="847027" />
	</node>
	<node lat="62.16046111027542" lon="10.17814445369335" id="-49893">
		<tag k="name" v="Bakkejordet" />
		<tag k="place" v="locality" />
		<tag k="ssr:stedsnr" v="906005" />
	</node>
	<node lat="62.149208330988124" lon="10.196183334334467" id="-49895">
		<tag k="historic" v="shieling" />
		<tag k="name" v="Åsvangen" />
		<tag k="place" v="locality" />
		<tag k="ssr:stedsnr" v="906101" />
	</node>
	<node lat="62.12146111438265" lon="9.975405562000649" id="-49896">
		<tag k="name" v="Svee" />
		<tag k="place" v="locality" />
		<tag k="ssr:stedsnr" v="906563" />
	</node>
	<node lat="62.07429444426227" lon="9.942391660801343" id="-49906">
		<tag k="name" v="Tjyruskjellen" />
		<tag k="place" v="locality" />
		<tag k="ssr:stedsnr" v="908554" />
	</node>
	<node lat="62.16768055794369" lon="9.810219438894313" id="-49913">
		<tag k="name" v="Svartholøye" />
		<tag k="place" v="locality" />
		<tag k="ssr:stedsnr" v="916673" />
	</node>
	<node lat="61.91928055581081" lon="10.01106111346551" id="-49937">
		<tag k="name" v="Sætersmorke" />
		<tag k="place" v="locality" />
		<tag k="ssr:stedsnr" v="962586" />
	</node>
	<node lat="62.33697777369323" lon="9.985324996338955" id="-49948">
		<tag k="name" v="Raudstein" />
		<tag k="natural" v="stone" />
		<tag k="ssr:stedsnr" v="967588" />
	</node>
	<node lat="62.18470277940567" lon="9.805847214732898" id="-49985">
		<tag k="name" v="Ljosmyre" />
		<tag k="natural" v="wetland" />
		<tag k="ssr:stedsnr" v="1771" />
	</node>
	<node lat="62.17432500412804" lon="10.1172805492638" id="-49997">
		<tag k="alt_name" v="Kjølsæterfloen" />
		<tag k="name" v="Kjølfloen" />
		<tag k="natural" v="wetland" />
		<tag k="ssr:stedsnr" v="11253" />
	</node>
	<node lat="62.13391389026521" lon="10.105505564065234" id="-50008">
		<tag k="alt_name" v="Søndre Geitryggen gruve" />
		<tag k="landuse" v="quarry" />
		<tag k="name" v="Geitryggruva" />
		<tag k="old_name" v="Geiteryggruva" />
		<tag k="ssr:stedsnr" v="11465" />
	</node>
	<node lat="62.14781110994863" lon="10.010216657429508" id="-50031">
		<tag k="name" v="Bjørkeskogen" />
		<tag k="place" v="locality" />
		<tag k="ssr:stedsnr" v="56633" />
	</node>
	<node lat="61.95663611116992" lon="10.022811119092998" id="-50046">
		<tag k="name" v="Langkloppmyre" />
		<tag k="natural" v="wetland" />
		<tag k="ssr:stedsnr" v="58438" />
	</node>
	<node lat="62.07191667080924" lon="9.945494437283985" id="-50048">
		<tag k="name" v="Kvee" />
		<tag k="place" v="locality" />
		<tag k="ssr:stedsnr" v="58551" />
	</node>
	<node lat="61.97853888747705" lon="10.031366674707355" id="-50098">
		<tag k="name" v="Leirholomyre" />
		<tag k="natural" v="wetland" />
		<tag k="ssr:stedsnr" v="117333" />
	</node>
	<node lat="62.197747221983505" lon="10.321430557212427" id="-50099">
		<tag k="name" v="Vesleøya" />
		<tag k="place" v="locality" />
		<tag k="ssr:stedsnr" v="117357" />
	</node>
	<node lat="62.19681666612993" lon="10.315700008388648" id="-50100">
		<tag k="landuse" v="meadow" />
		<tag k="name" v="Storenget" />
		<tag k="ssr:stedsnr" v="117358" />
	</node>
	<node lat="62.13053611545146" lon="10.115602768686008" id="-50107">
		<tag k="name" v="Oddmorka" />
		<tag k="place" v="locality" />
		<tag k="ssr:stedsnr" v="117917" />
	</node>
	<node lat="62.177902775663526" lon="10.218144447901073" id="-50112">
		<tag k="name" v="Tunnøymorka" />
		<tag k="place" v="locality" />
		<tag k="ssr:stedsnr" v="119018" />
	</node>
	<node lat="62.08148888719471" lon="9.976136101689338" id="-50121">
		<tag k="name" v="Gråmyre" />
		<tag k="natural" v="wetland" />
		<tag k="ssr:stedsnr" v="119554" />
	</node>
	<node lat="62.22588333129407" lon="10.296427769101753" id="-50141">
		<tag k="name" v="Momyra" />
		<tag k="natural" v="wetland" />
		<tag k="ssr:stedsnr" v="174089" />
	</node>
	<node lat="62.04163888627015" lon="9.997869445647687" id="-50143">
		<tag k="name" v="Myrbekkmyre" />
		<tag k="natural" v="wetland" />
		<tag k="ssr:stedsnr" v="177133" />
	</node>
	<node lat="62.0449750020551" lon="10.022216669777597" id="-50144">
		<tag k="name" v="Langmyre" />
		<tag k="natural" v="wetland" />
		<tag k="ssr:stedsnr" v="177134" />
	</node>
	<node lat="61.97634166405246" lon="10.039102779910577" id="-50147">
		<tag k="name" v="Myrbærmyre" />
		<tag k="natural" v="wetland" />
		<tag k="ssr:stedsnr" v="177285" />
	</node>
	<node lat="62.049961113911856" lon="10.035922221509301" id="-50152">
		<tag k="name" v="Jonbrenna" />
		<tag k="place" v="locality" />
		<tag k="ssr:stedsnr" v="178228" />
	</node>
	<node lat="62.1781444412942" lon="10.261661101815665" id="-50159">
		<tag k="name" v="Vesleenget" />
		<tag k="place" v="locality" />
		<tag k="ssr:stedsnr" v="179180" />
	</node>
	<node lat="62.06623610848822" lon="9.989805550614875" id="-50163">
		<tag k="name" v="Gundhildkroken" />
		<tag k="place" v="locality" />
		<tag k="ssr:stedsnr" v="179250" />
	</node>
	<node lat="62.20463055330882" lon="10.32798888998588" id="-50166">
		<tag k="historic" v="shieling" />
		<tag k="name" v="Gammelvangen" />
		<tag k="place" v="locality" />
		<tag k="ssr:stedsnr" v="179383" />
	</node>
	<node lat="62.05025278160308" lon="10.052411106260468" id="-50193">
		<tag k="name" v="Bakselamyre" />
		<tag k="natural" v="wetland" />
		<tag k="ssr:stedsnr" v="192425" />
	</node>
	<node lat="62.104052776676205" lon="9.800216664033918" id="-50218">
		<tag k="landuse" v="quarry" />
		<tag k="name" v="Grimsdalsgruva" />
		<tag k="ssr:stedsnr" v="193493" />
	</node>
	<node lat="62.109283332940116" lon="9.824374992489487" id="-50219">
		<tag k="landuse" v="quarry" />
		<tag k="name" v="Grimsdalsgruva" />
		<tag k="ssr:stedsnr" v="193495" />
	</node>
	<node lat="62.03516110845958" lon="9.956902776161716" id="-50234">
		<tag k="name" v="Rondmyre" />
		<tag k="natural" v="wetland" />
		<tag k="ssr:stedsnr" v="210777" />
	</node>
	<node lat="62.047777775370896" lon="10.017583327366783" id="-50245">
		<tag k="name" v="Rolegrustbakken" />
		<tag k="place" v="locality" />
		<tag k="ssr:stedsnr" v="299236" />
	</node>
	<node lat="62.10943333627916" lon="10.126038895978985" id="-50251">
		<tag k="name" v="Slåtten" />
		<tag k="place" v="locality" />
		<tag k="ssr:stedsnr" v="299939" />
	</node>
	<node lat="62.199886107200705" lon="9.680258341908761" id="-50253">
		<tag k="name" v="Børsungmyre" />
		<tag k="natural" v="wetland" />
		<tag k="ssr:stedsnr" v="299968" />
	</node>
	<node lat="62.108574997080765" lon="10.047105562890904" id="-50256">
		<tag k="historic" v="shieling" />
		<tag k="name" v="Fløttvangen" />
		<tag k="place" v="locality" />
		<tag k="ssr:stedsnr" v="301032" />
	</node>
	<node lat="62.17799722231606" lon="10.26895834065899" id="-50260">
		<tag k="name" v="Stormyra" />
		<tag k="natural" v="wetland" />
		<tag k="ssr:stedsnr" v="301167" />
	</node>
	<node lat="62.07982777925044" lon="9.938594443089583" id="-50266">
		<tag k="name" v="Semonbrenna" />
		<tag k="place" v="locality" />
		<tag k="ssr:stedsnr" v="301540" />
	</node>
	<node lat="62.14561666824885" lon="9.878483333630415" id="-50270">
		<tag k="name" v="Stormyrlandet" />
		<tag k="place" v="locality" />
		<tag k="ssr:stedsnr" v="301561" />
	</node>
	<node lat="62.01819999925326" lon="9.981333339398622" id="-50272">
		<tag k="name" v="Nordre Glenna" />
		<tag k="natural" v="wetland" />
		<tag k="ssr:stedsnr" v="301664" />
	</node>
	<node lat="61.99329166335709" lon="9.980011105850446" id="-50273">
		<tag k="name" v="Storgråviekjørre" />
		<tag k="place" v="locality" />
		<tag k="ssr:stedsnr" v="301675" />
	</node>
	<node lat="62.22553610672931" lon="10.29973889737809" id="-50304">
		<tag k="name" v="Godåsmyra" />
		<tag k="natural" v="wetland" />
		<tag k="ssr:stedsnr" v="355074" />
	</node>
	<node lat="62.138558329205246" lon="10.153688883727137" id="-50307">
		<tag k="name" v="Gammeljordet" />
		<tag k="place" v="locality" />
		<tag k="ssr:stedsnr" v="355916" />
	</node>
	<node lat="62.03233611381614" lon="10.010719446247894" id="-50313">
		<tag k="name" v="Dølalykkja" />
		<tag k="place" v="locality" />
		<tag k="ssr:stedsnr" v="359121" />
	</node>
	<node lat="61.973936113447856" lon="10.037230547377568" id="-50314">
		<tag k="name" v="Storsteinmyre" />
		<tag k="natural" v="wetland" />
		<tag k="ssr:stedsnr" v="359471" />
	</node>
	<node lat="62.15991666861249" lon="9.78702500809281" id="-50317">
		<tag k="name" v="Søre Stormyre" />
		<tag k="natural" v="wetland" />
		<tag k="ssr:stedsnr" v="359783" />
	</node>
	<node lat="62.17014999872787" lon="10.210597230182183" id="-50319">
		<tag k="landuse" v="meadow" />
		<tag k="name" v="Langgrubbenget" />
		<tag k="ssr:stedsnr" v="360022" />
	</node>
	<node lat="62.08157222655149" lon="9.993491664897913" id="-50322">
		<tag k="name" v="Bjønnbaskmyre" />
		<tag k="natural" v="wetland" />
		<tag k="ssr:stedsnr" v="360159" />
	</node>
	<node lat="62.02138888808968" lon="10.014011120110935" id="-50324">
		<tag k="name" v="Krokøyan" />
		<tag k="place" v="locality" />
		<tag k="ssr:stedsnr" v="360346" />
	</node>
	<node lat="62.124691663290626" lon="10.215444434913044" id="-50328">
		<tag k="landuse" v="quarry" />
		<tag k="name" v="Klebergruva" />
		<tag k="ssr:stedsnr" v="360925" />
	</node>
	<node lat="62.05274166288867" lon="10.098127779164122" id="-50341">
		<tag k="name" v="Brenna" />
		<tag k="place" v="locality" />
		<tag k="ssr:stedsnr" v="361263" />
	</node>
	<node lat="62.06666944853698" lon="10.002169442581303" id="-50342">
		<tag k="name" v="Småøyan" />
		<tag k="place" v="locality" />
		<tag k="ssr:stedsnr" v="361269" />
	</node>
	<node lat="62.232316662499" lon="10.265394448400983" id="-50345">
		<tag k="name" v="Ryengmyra" />
		<tag k="natural" v="wetland" />
		<tag k="ssr:stedsnr" v="361304" />
	</node>
	<node lat="62.17950277568547" lon="10.25211665804797" id="-50347">
		<tag k="name" v="Ryhaugvangen" />
		<tag k="place" v="locality" />
		<tag k="ssr:stedsnr" v="361388" />
	</node>
	<node lat="61.96253332931121" lon="10.02694444940141" id="-50350">
		<tag k="name" v="Ågotmyre" />
		<tag k="natural" v="wetland" />
		<tag k="ssr:stedsnr" v="361548" />
	</node>
	<node lat="62.20327777832373" lon="10.057772220331948" id="-50351">
		<tag k="name" v="Leirdissa" />
		<tag k="place" v="locality" />
		<tag k="ssr:stedsnr" v="361618" />
	</node>
	<node lat="62.0784166659524" lon="9.974011107021854" id="-50353">
		<tag k="name" v="Storfloen" />
		<tag k="natural" v="wetland" />
		<tag k="ssr:stedsnr" v="361553" />
	</node>
	<node lat="62.10669444892627" lon="9.972722225249216" id="-50356">
		<tag k="name" v="Svemorke" />
		<tag k="place" v="locality" />
		<tag k="ssr:stedsnr" v="361571" />
	</node>
	<node lat="62.31456944428956" lon="10.022977771141548" id="-50362">
		<tag k="landuse" v="meadow" />
		<tag k="name" v="Liaøverøya" />
		<tag k="ssr:stedsnr" v="361730" />
	</node>
	<node lat="62.29403333357927" lon="10.092908341592398" id="-50363">
		<tag k="historic" v="shieling" />
		<tag k="name" v="Ossætra" />
		<tag k="place" v="locality" />
		<tag k="ssr:stedsnr" v="361732" />
	</node>
	<node lat="62.136252779390425" lon="10.147291674126492" id="-50371">
		<tag k="landuse" v="meadow" />
		<tag k="name" v="Borti Engom" />
		<tag k="ssr:stedsnr" v="361949" />
	</node>
	<node lat="62.07468055520256" lon="10.022574996709064" id="-50383">
		<tag k="name" v="Stormyre" />
		<tag k="natural" v="wetland" />
		<tag k="ssr:stedsnr" v="374383" />
	</node>
	<node lat="62.20971111135721" lon="9.766038882390378" id="-50408">
		<tag k="historic" v="shieling" />
		<tag k="name" v="Lybekk" />
		<tag k="place" v="locality" />
		<tag k="ssr:stedsnr" v="420783" />
	</node>
	<node lat="62.18240000165381" lon="10.223638879957516" id="-50411">
		<tag k="historic" v="shieling" />
		<tag k="name" v="Klettvangen" />
		<tag k="place" v="locality" />
		<tag k="ssr:stedsnr" v="421052" />
	</node>
	<node lat="62.08840555250463" lon="9.985730548567314" id="-50412">
		<tag k="name" v="Jervmyre" />
		<tag k="natural" v="wetland" />
		<tag k="ssr:stedsnr" v="421168" />
	</node>
	<node lat="62.01828055290114" lon="9.986030555489734" id="-50417">
		<tag k="name" v="Øye" />
		<tag k="place" v="locality" />
		<tag k="ssr:stedsnr" v="421358" />
	</node>
	<node lat="62.152313886339066" lon="9.880252775891318" id="-50426">
		<tag k="alt_name" v="Strømhaugmorke" />
		<tag k="name" v="Straumhaugmorke" />
		<tag k="place" v="locality" />
		<tag k="ssr:stedsnr" v="422573" />
	</node>
	<node lat="62.03803889343077" lon="9.962469437549922" id="-50437">
		<tag k="name" v="Brenna" />
		<tag k="place" v="locality" />
		<tag k="ssr:stedsnr" v="422758" />
	</node>
	<node lat="62.109655553462886" lon="9.906900003006072" id="-50463">
		<tag k="landuse" v="quarry" />
		<tag k="name" v="Nygruva" />
		<tag k="ssr:stedsnr" v="436467" />
	</node>
	<node lat="62.19362777705086" lon="10.288083324548532" id="-50499">
		<tag k="landuse" v="meadow" />
		<tag k="name" v="Veslevangen" />
		<tag k="ssr:stedsnr" v="542320" />
	</node>
	<node lat="62.182116670453745" lon="10.317930563041172" id="-50500">
		<tag k="name" v="Vesleåsmyra" />
		<tag k="natural" v="wetland" />
		<tag k="ssr:stedsnr" v="542335" />
	</node>
	<node lat="62.199444442974716" lon="10.334413885947107" id="-50501">
		<tag k="name" v="Foldmorka" />
		<tag k="place" v="locality" />
		<tag k="ssr:stedsnr" v="543393" />
	</node>
	<node lat="62.166677774310706" lon="9.814319444990673" id="-50504">
		<tag k="name" v="Buøye" />
		<tag k="place" v="locality" />
		<tag k="ssr:stedsnr" v="542634" />
	</node>
	<node lat="62.116394445001845" lon="10.05898334274371" id="-50506">
		<tag k="name" v="Tobakstrøa" />
		<tag k="place" v="locality" />
		<tag k="ssr:stedsnr" v="543013" />
	</node>
	<node lat="62.05383055131759" lon="10.092733328102547" id="-50513">
		<tag k="landuse" v="meadow" />
		<tag k="name" v="Hesjegolvet" />
		<tag k="ssr:stedsnr" v="543231" />
	</node>
	<node lat="62.14568888967109" lon="9.891655549936125" id="-50515">
		<tag k="name" v="Paradislykkja" />
		<tag k="place" v="locality" />
		<tag k="ssr:stedsnr" v="543547" />
	</node>
	<node lat="62.145033336837564" lon="9.871136109404068" id="-50516">
		<tag k="name" v="Stormyre" />
		<tag k="natural" v="wetland" />
		<tag k="ssr:stedsnr" v="543548" />
	</node>
	<node lat="62.05744166363594" lon="9.98108611140146" id="-50522">
		<tag k="name" v="Tjukkholtet" />
		<tag k="place" v="locality" />
		<tag k="ssr:stedsnr" v="543743" />
	</node>
	<node lat="62.13712499613209" lon="9.941947216896864" id="-50569">
		<tag k="name" v="Kvannøyan" />
		<tag k="place" v="locality" />
		<tag k="ssr:stedsnr" v="602587" />
	</node>
	<node lat="62.302138885593315" lon="10.053627772279953" id="-50582">
		<tag k="landuse" v="meadow" />
		<tag k="name" v="Beitrustenget" />
		<tag k="ssr:stedsnr" v="604739" />
	</node>
	<node lat="62.306263885889294" lon="10.03477777818527" id="-50583">
		<tag k="landuse" v="meadow" />
		<tag k="name" v="Stortjønnenget" />
		<tag k="ssr:stedsnr" v="604741" />
	</node>
	<node lat="62.15084166768666" lon="10.087774997477002" id="-50599">
		<tag k="alt_name" v="Geitryggen Nordre gruver" />
		<tag k="landuse" v="quarry" />
		<tag k="name" v="Skjerpet" />
		<tag k="old_name" v="Geiteryggruva, nordre" />
		<tag k="ssr:stedsnr" v="617336" />
	</node>
	<node lat="62.21796389174603" lon="10.360530549589663" id="-50619">
		<tag k="name" v="Klebermyran" />
		<tag k="natural" v="wetland" />
		<tag k="ssr:stedsnr" v="659958" />
	</node>
	<node lat="62.17050833084591" lon="10.159269445794282" id="-50621">
		<tag k="name" v="Måna" />
		<tag k="place" v="locality" />
		<tag k="ssr:stedsnr" v="663050" />
	</node>
	<node lat="62.17718055475403" lon="10.160586113006856" id="-50622">
		<tag k="name" v="Kakelmåna" />
		<tag k="place" v="locality" />
		<tag k="ssr:stedsnr" v="663053" />
	</node>
	<node lat="62.18247777667323" lon="10.30116666959976" id="-50627">
		<tag k="name" v="Rundknausmyra" />
		<tag k="natural" v="wetland" />
		<tag k="ssr:stedsnr" v="663302" />
	</node>
	<node lat="62.1291194485296" lon="9.88486388917043" id="-50631">
		<tag k="name" v="Svarttjønnmyre" />
		<tag k="natural" v="wetland" />
		<tag k="ssr:stedsnr" v="663547" />
	</node>
	<node lat="62.17461110750391" lon="9.77703333502101" id="-50634">
		<tag k="name" v="Brenna" />
		<tag k="place" v="locality" />
		<tag k="ssr:stedsnr" v="663797" />
	</node>
	<node lat="62.132236109332496" lon="10.141769450777119" id="-50635">
		<tag k="name" v="Oddenga" />
		<tag k="place" v="locality" />
		<tag k="ssr:stedsnr" v="663921" />
	</node>
	<node lat="62.19153610847403" lon="9.770683337568597" id="-50648">
		<tag k="name" v="Heststallan" />
		<tag k="place" v="locality" />
		<tag k="ssr:stedsnr" v="665831" />
	</node>
	<node lat="62.06221110853654" lon="9.960602770257065" id="-50653">
		<tag k="name" v="Slettmyre" />
		<tag k="natural" v="wetland" />
		<tag k="ssr:stedsnr" v="665767" />
	</node>
	<node lat="62.038911109067556" lon="9.979472212852885" id="-50655">
		<tag k="name" v="Blæsterburustan" />
		<tag k="place" v="locality" />
		<tag k="ssr:stedsnr" v="665773" />
	</node>
	<node lat="62.1086694467587" lon="10.13875277899808" id="-50656">
		<tag k="name" v="Døltjønnenget" />
		<tag k="place" v="locality" />
		<tag k="ssr:stedsnr" v="665968" />
	</node>
	<node lat="62.24004166934867" lon="10.289899993032085" id="-50658">
		<tag k="name" v="Slettfjellbekkmyra" />
		<tag k="natural" v="wetland" />
		<tag k="ssr:stedsnr" v="720098" />
	</node>
	<node lat="62.010702774242795" lon="10.00427221362079" id="-50670">
		<tag k="name" v="Småmyran" />
		<tag k="natural" v="wetland" />
		<tag k="ssr:stedsnr" v="724348" />
	</node>
	<node lat="62.20889999901895" lon="9.746191667227135" id="-50672">
		<tag k="name" v="Kvennhusmyre" />
		<tag k="natural" v="wetland" />
		<tag k="ssr:stedsnr" v="723753" />
	</node>
	<node lat="62.200136112131936" lon="9.750491666310745" id="-50673">
		<tag k="historic" v="shieling" />
		<tag k="name" v="Tobakklykkja" />
		<tag k="place" v="locality" />
		<tag k="ssr:stedsnr" v="723956" />
	</node>
	<node lat="62.26193610871031" lon="10.189752776670897" id="-50676">
		<tag k="landuse" v="meadow" />
		<tag k="name" v="Borti Enga" />
		<tag k="ssr:stedsnr" v="724159" />
	</node>
	<node lat="62.0761749972136" lon="9.987613889441661" id="-50678">
		<tag k="name" v="Ljosmyre" />
		<tag k="natural" v="wetland" />
		<tag k="ssr:stedsnr" v="724166" />
	</node>
	<node lat="62.16714444763464" lon="9.775594441074459" id="-50685">
		<tag k="landuse" v="meadow" />
		<tag k="name" v="Søre Slåe" />
		<tag k="ssr:stedsnr" v="724798" />
	</node>
	<node lat="62.09270277337138" lon="10.081074999688555" id="-50688">
		<tag k="name" v="Bleikmyre" />
		<tag k="natural" v="wetland" />
		<tag k="ssr:stedsnr" v="725055" />
	</node>
	<node lat="61.944758336682895" lon="10.020013885598265" id="-50690">
		<tag k="historic" v="shieling" />
		<tag k="name" v="Lussisætre" />
		<tag k="place" v="locality" />
		<tag k="ssr:stedsnr" v="725373" />
	</node>
	<node lat="62.02498333404342" lon="9.961399991320686" id="-50693">
		<tag k="name" v="Langmyre" />
		<tag k="natural" v="wetland" />
		<tag k="ssr:stedsnr" v="725642" />
	</node>
	<node lat="62.033752776483" lon="9.965077772936793" id="-50737">
		<tag k="name" v="Dørålsmorkje" />
		<tag k="place" v="locality" />
		<tag k="ssr:stedsnr" v="756773" />
	</node>
	<node lat="62.03107777766747" lon="9.986274992263349" id="-50744">
		<tag k="name" v="Myrbekkenden" />
		<tag k="natural" v="wetland" />
		<tag k="ssr:stedsnr" v="784131" />
	</node>
	<node lat="62.23824722033043" lon="10.248608333518524" id="-50762">
		<tag k="name" v="Holbekkenget" />
		<tag k="natural" v="wetland" />
		<tag k="ssr:stedsnr" v="786262" />
	</node>
	<node lat="62.07655555563973" lon="9.94089999749986" id="-50765">
		<tag k="name" v="Stortreet" />
		<tag k="place" v="locality" />
		<tag k="ssr:stedsnr" v="786538" />
	</node>
	<node lat="62.069222224408854" lon="9.972955554073353" id="-50766">
		<tag k="name" v="Kroklykkja" />
		<tag k="place" v="locality" />
		<tag k="ssr:stedsnr" v="786546" />
	</node>
	<node lat="62.10780832959835" lon="9.954824994755574" id="-50768">
		<tag k="landuse" v="meadow" />
		<tag k="name" v="Høgslåe" />
		<tag k="ssr:stedsnr" v="786560" />
	</node>
	<node lat="62.14420555421644" lon="9.906636119405103" id="-50770">
		<tag k="name" v="Lonaøyan" />
		<tag k="place" v="locality" />
		<tag k="ssr:stedsnr" v="786564" />
	</node>
	<node lat="62.20573332987232" lon="10.059447226251324" id="-50774">
		<tag k="name" v="Krokvangen" />
		<tag k="place" v="locality" />
		<tag k="ssr:stedsnr" v="786602" />
	</node>
	<node lat="62.1405777754082" lon="10.15842500213151" id="-50780">
		<tag k="name" v="Gjelta" />
		<tag k="place" v="locality" />
		<tag k="ssr:stedsnr" v="786950" />
	</node>
	<node lat="62.29866666667984" lon="10.04067500907739" id="-50781">
		<tag k="landuse" v="meadow" />
		<tag k="name" v="Stortjønnsætra" />
		<tag k="ssr:stedsnr" v="786738" />
	</node>
	<node lat="62.31537777997332" lon="10.035958336970983" id="-50782">
		<tag k="name" v="Dalsæterfloen" />
		<tag k="natural" v="wetland" />
		<tag k="ssr:stedsnr" v="786739" />
	</node>
	<node lat="62.18025555268143" lon="9.890216666660782" id="-50794">
		<tag k="name" v="Stormyre" />
		<tag k="natural" v="wetland" />
		<tag k="ssr:stedsnr" v="799269" />
	</node>
	<node lat="62.177005559721685" lon="10.313566670983876" id="-50818">
		<tag k="landuse" v="meadow" />
		<tag k="name" v="Rybakken" />
		<tag k="ssr:stedsnr" v="841081" />
	</node>
	<node lat="61.977641668339736" lon="10.026047227106599" id="-50822">
		<tag k="name" v="Sandomsøye" />
		<tag k="place" v="locality" />
		<tag k="ssr:stedsnr" v="845309" />
	</node>
	<node lat="62.187466663298586" lon="9.828022216610018" id="-50827">
		<tag k="name" v="Stålmyre" />
		<tag k="natural" v="wetland" />
		<tag k="ssr:stedsnr" v="846764" />
	</node>
	<node lat="62.08030833168171" lon="9.968608337151553" id="-50846">
		<tag k="name" v="Stakstofloen" />
		<tag k="natural" v="wetland" />
		<tag k="ssr:stedsnr" v="847533" />
	</node>
	<node lat="62.05405833314931" lon="10.079825009343496" id="-50851">
		<tag k="landuse" v="meadow" />
		<tag k="name" v="Vesleenget" />
		<tag k="ssr:stedsnr" v="847270" />
	</node>
	<node lat="62.17283333057911" lon="9.87701388808188" id="-50852">
		<tag k="historic" v="shieling" />
		<tag k="name" v="Skryu" />
		<tag k="place" v="locality" />
		<tag k="ssr:stedsnr" v="847574" />
	</node>
	<node lat="62.09836110701714" lon="10.08250554643094" id="-50854">
		<tag k="name" v="Kyrkjestein" />
		<tag k="natural" v="stone" />
		<tag k="ssr:stedsnr" v="847069" />
	</node>
	<node lat="62.00773055366945" lon="9.983383329327127" id="-50858">
		<tag k="name" v="Nedre Legan" />
		<tag k="place" v="locality" />
		<tag k="ssr:stedsnr" v="847673" />
	</node>
	<node lat="62.174488890764806" lon="10.13458889159051" id="-50898">
		<tag k="name" v="Kjølen" />
		<tag k="place" v="locality" />
		<tag k="ssr:stedsnr" v="966044" />
	</node>
	<node lat="62.054124998162436" lon="10.005583325036046" id="-50899">
		<tag k="name" v="Ut i Holom" />
		<tag k="place" v="locality" />
		<tag k="ssr:stedsnr" v="966239" />
	</node>
	<node lat="62.04929167078243" lon="9.992563883730304" id="-50900">
		<tag k="name" v="Potetåkeren" />
		<tag k="place" v="locality" />
		<tag k="ssr:stedsnr" v="966241" />
	</node>
	<node lat="62.00795000369948" lon="10.02926944213586" id="-50903">
		<tag k="name" v="Storurde" />
		<tag k="natural" v="scree" />
		<tag k="ssr:stedsnr" v="966376" />
	</node>
	<node lat="61.969327781024845" lon="10.039736106475656" id="-50904">
		<tag k="name" v="Gråmyre" />
		<tag k="natural" v="wetland" />
		<tag k="ssr:stedsnr" v="966475" />
	</node>
	<node lat="62.16654722473158" lon="9.764252772347835" id="-50910">
		<tag k="landuse" v="meadow" />
		<tag k="name" v="Måsåslåe" />
		<tag k="ssr:stedsnr" v="966812" />
	</node>
	<node lat="62.11303889099805" lon="10.049786102717322" id="-50917">
		<tag k="name" v="Styggdalsenget" />
		<tag k="place" v="locality" />
		<tag k="ssr:stedsnr" v="968051" />
	</node>
	<node lat="61.959044445528065" lon="10.03817500853457" id="-50925">
		<tag k="name" v="Tjyrruvedkostmyre" />
		<tag k="natural" v="wetland" />
		<tag k="ssr:stedsnr" v="968435" />
	</node>
	<node lat="62.07175278204388" lon="9.97088610607383" id="-50928">
		<tag k="name" v="Kroken" />
		<tag k="place" v="locality" />
		<tag k="ssr:stedsnr" v="968553" />
	</node>
	<node lat="62.097458336996844" lon="9.950738879911924" id="-50930">
		<tag k="name" v="Bleikmyre" />
		<tag k="natural" v="wetland" />
		<tag k="ssr:stedsnr" v="968560" />
	</node>
	<node lat="62.05822777981924" lon="9.982463892879732" id="-50939">
		<tag k="name" v="Blæsterdalsmyre" />
		<tag k="natural" v="wetland" />
		<tag k="ssr:stedsnr" v="968771" />
	</node>
	<node lat="62.017744440667485" lon="9.98340833299402" id="-50941">
		<tag k="name" v="Øye" />
		<tag k="place" v="locality" />
		<tag k="ssr:stedsnr" v="968731" />
	</node>
</osm>
