<?xml version="1.0" encoding="UTF-8"?>
<osm version="0.6" generator="osmapis">
	<node lat="62.09414444355353" lon="10.179061117215795" id="-9922">
		<tag k="name" v="Døltjønnbekken" />
		<tag k="ssr:stedsnr" v="10482" />
		<tag k="waterway" v="stream" />
	</node>
	<node lat="62.13649722206696" lon="10.177502774514823" id="-9927">
		<tag k="name" v="Røtjønna" />
		<tag k="natural" v="water" />
		<tag k="ssr:stedsnr" v="11442" />
	</node>
	<node lat="62.17617777600506" lon="9.693247216334965" id="-9935">
		<tag k="fixme" v="multiple name tags, choose one and add the other to alt_name" />
		<tag k="name" v="Nørdre Gravbekken;Nørdre Liabekken" />
		<tag k="ssr:stedsnr" v="22830" />
		<tag k="waterway" v="stream" />
	</node>
	<node lat="62.29200277617779" lon="10.31944722394795" id="-9941">
		<tag k="name" v="Uldalsbekken" />
		<tag k="ssr:stedsnr" v="234115" />
		<tag k="waterway" v="stream" />
	</node>
	<node lat="62.2002749998897" lon="10.290544444676172" id="-9951">
		<tag k="name" v="Moskarbekken" />
		<tag k="ssr:stedsnr" v="238326" />
		<tag k="waterway" v="stream" />
	</node>
	<node lat="62.00870832991725" lon="10.013788887956613" id="-9965">
		<tag k="name" v="Engelsmannhølen" />
		<tag k="place" v="locality" />
		<tag k="ssr:stedsnr" v="56367" />
	</node>
	<node lat="61.968044447171216" lon="10.028858333118054" id="-9966">
		<tag k="name" v="Kubekken" />
		<tag k="ssr:stedsnr" v="56476" />
		<tag k="waterway" v="stream" />
	</node>
	<node lat="62.15301388569211" lon="9.812291665539359" id="-9967">
		<tag k="name" v="Dagdylju" />
		<tag k="ssr:stedsnr" v="56667" />
		<tag k="waterway" v="stream" />
	</node>
	<node lat="62.176102777792565" lon="10.221438894802409" id="-9978">
		<tag k="name" v="Tunnøymælen" />
		<tag k="natural" v="beach" />
		<tag k="ssr:stedsnr" v="58022" />
	</node>
	<node lat="62.154758334600444" lon="9.862058327736229" id="-9994">
		<tag k="name" v="Grasbekken" />
		<tag k="ssr:stedsnr" v="58585" />
		<tag k="waterway" v="stream" />
	</node>
	<node lat="62.186500000139766" lon="10.273247213117376" id="-10000">
		<tag k="name" v="Holmen" />
		<tag k="natural" v="cape" />
		<tag k="ssr:stedsnr" v="240376" />
	</node>
	<node lat="62.16998889273738" lon="10.073586104091389" id="-10004">
		<tag k="name" v="Hånesklettbekken" />
		<tag k="ssr:stedsnr" v="240595" />
		<tag k="waterway" v="stream" />
	</node>
	<node lat="62.07252221796619" lon="10.06681110513695" id="-10017">
		<tag k="name" v="Stortjønne" />
		<tag k="natural" v="water" />
		<tag k="ssr:stedsnr" v="71410" />
	</node>
	<node lat="62.077638888364156" lon="10.082038898059226" id="-10019">
		<tag k="name" v="Butjønne" />
		<tag k="natural" v="water" />
		<tag k="ssr:stedsnr" v="71414" />
	</node>
	<node lat="62.20602500139043" lon="10.375947225704321" id="-10031">
		<tag k="name" v="Stormælen" />
		<tag k="natural" v="beach" />
		<tag k="ssr:stedsnr" v="113921" />
	</node>
	<node lat="62.21999722552429" lon="10.355508332175557" id="-10032">
		<tag k="name" v="Holbekken" />
		<tag k="ssr:stedsnr" v="113926" />
		<tag k="waterway" v="stream" />
	</node>
	<node lat="62.12927500149328" lon="10.010977779874406" id="-10043">
		<tag k="name" v="Bustadtjønne" />
		<tag k="natural" v="water" />
		<tag k="ssr:stedsnr" v="117120" />
	</node>
	<node lat="62.24308610970702" lon="10.06414999869393" id="-10059">
		<tag k="name" v="Ryphusbekken" />
		<tag k="ssr:stedsnr" v="131322" />
		<tag k="waterway" v="stream" />
	</node>
	<node lat="62.1722333316163" lon="9.913177776267283" id="-10068">
		<tag k="name" v="Larssvebekken" />
		<tag k="ssr:stedsnr" v="132265" />
		<tag k="waterway" v="stream" />
	</node>
	<node lat="62.220508331339175" lon="9.819291675543917" id="-10086">
		<tag k="alt_name" v="Medepla" />
		<tag k="name" v="Meddepla" />
		<tag k="ssr:stedsnr" v="253389" />
		<tag k="waterway" v="stream" />
	</node>
	<node lat="62.20342499984823" lon="9.798872224063587" id="-10090">
		<tag k="alt_name" v="Heggebekken" />
		<tag k="name" v="Heggjebekken" />
		<tag k="ssr:stedsnr" v="253414" />
		<tag k="waterway" v="stream" />
	</node>
	<node lat="62.19836673541506" lon="9.61179363542864" id="-10097">
		<tag k="name" v="Tåtefttjønne" />
		<tag k="natural" v="water" />
		<tag k="ssr:stedsnr" v="253770" />
	</node>
	<node lat="62.31592222452451" lon="10.07297500538697" id="-10098">
		<tag k="name" v="Storbekken" />
		<tag k="ssr:stedsnr" v="254630" />
		<tag k="waterway" v="stream" />
	</node>
	<node lat="62.39058888946579" lon="10.026516664148218" id="-10100">
		<tag k="name" v="Innertjønna" />
		<tag k="natural" v="water" />
		<tag k="old_name" v="Inntertjørna" />
		<tag k="ssr:stedsnr" v="254664" />
	</node>
	<node lat="62.27224444829118" lon="10.34500832708094" id="-10101">
		<tag k="name" v="Marsjøåa" />
		<tag k="ssr:stedsnr" v="254875" />
		<tag k="waterway" v="river" />
	</node>
	<node lat="62.27218610728556" lon="10.275988879934904" id="-10102">
		<tag k="name" v="Markbulibekken" />
		<tag k="ssr:stedsnr" v="254876" />
		<tag k="waterway" v="stream" />
	</node>
	<node lat="62.20193055232393" lon="10.360991674162623" id="-10108">
		<tag k="name" v="Skjeftdalsbekken" />
		<tag k="ssr:stedsnr" v="174960" />
		<tag k="waterway" v="stream" />
	</node>
	<node lat="62.19775277527704" lon="10.37673333172063" id="-10110">
		<tag k="name" v="Gammeljordøra" />
		<tag k="place" v="islet" />
		<tag k="ssr:stedsnr" v="174968" />
	</node>
	<node lat="61.96216666646662" lon="10.016469437402728" id="-10122">
		<tag k="name" v="Storbekkodden" />
		<tag k="natural" v="cape" />
		<tag k="ssr:stedsnr" v="179508" />
	</node>
	<node lat="62.206161111662325" lon="10.068066664627391" id="-10127">
		<tag k="name" v="Slågåbekken" />
		<tag k="ssr:stedsnr" v="179581" />
		<tag k="waterway" v="stream" />
	</node>
	<node lat="62.314422225104806" lon="9.90843055625735" id="-10129">
		<tag k="name" v="Røvskjørrbekken" />
		<tag k="ssr:stedsnr" v="179870" />
		<tag k="waterway" v="stream" />
	</node>
	<node lat="61.96964444780595" lon="10.017002768450572" id="-10140">
		<tag k="name" v="Skinnarodden" />
		<tag k="natural" v="cape" />
		<tag k="ssr:stedsnr" v="226490" />
	</node>
	<node lat="61.91073889313563" lon="10.084313887237496" id="-10143">
		<tag k="name" v="Urdtjønne" />
		<tag k="natural" v="water" />
		<tag k="ssr:stedsnr" v="234581" />
	</node>
	<node lat="61.928955552691" lon="10.03789444584648" id="-10146">
		<tag k="name" v="Storkvisle" />
		<tag k="ssr:stedsnr" v="238423" />
		<tag k="waterway" v="stream" />
	</node>
	<node lat="61.936130551529445" lon="10.026422229718245" id="-10147">
		<tag k="name" v="Reivtjønnvike" />
		<tag k="natural" v="bay" />
		<tag k="ssr:stedsnr" v="238424" />
	</node>
	<node lat="62.31429722656434" lon="9.943127768704596" id="-10162">
		<tag k="name" v="Ibekken" />
		<tag k="ssr:stedsnr" v="240885" />
		<tag k="waterway" v="stream" />
	</node>
	<node lat="62.16217222553036" lon="10.211836108592998" id="-10173">
		<tag k="name" v="Bjørbekken" />
		<tag k="ssr:stedsnr" v="253333" />
		<tag k="waterway" v="stream" />
	</node>
	<node lat="62.27349722366825" lon="10.076400008819457" id="-10180">
		<tag k="alt_name" v="Bjønnskardbekken" />
		<tag k="name" v="Bjørnskardbekken" />
		<tag k="ssr:stedsnr" v="254612" />
		<tag k="waterway" v="stream" />
	</node>
	<node lat="61.91404722425646" lon="10.06645278447396" id="-10183">
		<tag k="name" v="Bjorholen" />
		<tag k="natural" v="water" />
		<tag k="ssr:stedsnr" v="295616" />
	</node>
	<node lat="62.08883332894679" lon="10.104261108515017" id="-10189">
		<tag k="name" v="Såtåtjønne" />
		<tag k="natural" v="water" />
		<tag k="ssr:stedsnr" v="299193" />
	</node>
	<node lat="62.17514166259241" lon="9.756475004812915" id="-10193">
		<tag k="name" v="Graupbekken" />
		<tag k="ssr:stedsnr" v="299812" />
		<tag k="waterway" v="stream" />
	</node>
	<node lat="62.13337777442228" lon="10.159652772519415" id="-10194">
		<tag k="name" v="Rundtjønna" />
		<tag k="natural" v="water" />
		<tag k="ssr:stedsnr" v="299917" />
	</node>
	<node lat="62.31897777782675" lon="9.924858324133513" id="-10206">
		<tag k="name" v="Borkhusbekken" />
		<tag k="ssr:stedsnr" v="301888" />
		<tag k="waterway" v="stream" />
	</node>
	<node lat="62.1601500035256" lon="9.781474996121979" id="-10212">
		<tag k="name" v="Svartholbekken" />
		<tag k="ssr:stedsnr" v="314305" />
		<tag k="waterway" v="stream" />
	</node>
	<node lat="62.220897223679" lon="10.02618055572899" id="-10219">
		<tag k="name" v="Skardbekken" />
		<tag k="ssr:stedsnr" v="314361" />
		<tag k="waterway" v="stream" />
	</node>
	<node lat="62.23168055161978" lon="9.796455554593766" id="-10220">
		<tag k="name" v="Norddepla" />
		<tag k="ssr:stedsnr" v="314369" />
		<tag k="waterway" v="stream" />
	</node>
	<node lat="62.128894442329006" lon="9.885691670898103" id="-10221">
		<tag k="name" v="Svarttjønne" />
		<tag k="natural" v="water" />
		<tag k="ssr:stedsnr" v="314503" />
	</node>
	<node lat="62.26050833435298" lon="9.920358332375022" id="-10226">
		<tag k="name" v="Raudbergstjønne" />
		<tag k="natural" v="water" />
		<tag k="ssr:stedsnr" v="315607" />
	</node>
	<node lat="62.18147499639612" lon="9.776055564023816" id="-10231">
		<tag k="name" v="Rønnogbekken" />
		<tag k="ssr:stedsnr" v="325794" />
		<tag k="waterway" v="stream" />
	</node>
	<node lat="61.92781110882547" lon="9.99991665800195" id="-10233">
		<tag k="name" v="Bergedalsbekken" />
		<tag k="ssr:stedsnr" v="355564" />
		<tag k="waterway" v="stream" />
	</node>
	<node lat="62.35650832929743" lon="10.00721111094484" id="-10235">
		<tag k="name" v="Leirbekken" />
		<tag k="ssr:stedsnr" v="359654" />
		<tag k="waterway" v="stream" />
	</node>
	<node lat="61.9482249987115" lon="10.040258332873199" id="-10245">
		<tag k="alt_name" v="Snjofonnbekken" />
		<tag k="name" v="Sjogfonnbekken" />
		<tag k="ssr:stedsnr" v="373615" />
		<tag k="waterway" v="stream" />
	</node>
	<node lat="62.01805811888751" lon="9.860926653251347" id="-10252">
		<tag k="name" v="Dørålstjørnin" />
		<tag k="natural" v="water" />
		<tag k="ssr:stedsnr" v="374412" />
		<tag k="water" v="lake" />
	</node>
	<node lat="62.38262222333403" lon="10.01922223136746" id="-10260">
		<tag k="name" v="Leirtjønna" />
		<tag k="natural" v="water" />
		<tag k="ssr:stedsnr" v="375683" />
	</node>
	<node lat="62.364441666959294" lon="10.019227781035246" id="-10262">
		<tag k="alt_name" v="Fremre Sætalbekken;Sætalbekken" />
		<tag k="name" v="Setalbekken" />
		<tag k="old_name" v="Settalbekken" />
		<tag k="ssr:stedsnr" v="375689" />
		<tag k="waterway" v="stream" />
	</node>
	<node lat="62.17101666302564" lon="10.145577785752568" id="-10266">
		<tag k="name" v="Holbekken" />
		<tag k="ssr:stedsnr" v="481050" />
		<tag k="waterway" v="stream" />
	</node>
	<node lat="62.19478888738673" lon="9.622019448559595" id="-10284">
		<tag k="name" v="Øyasæterbekken" />
		<tag k="ssr:stedsnr" v="481993" />
		<tag k="waterway" v="stream" />
	</node>
	<node lat="61.99215555573875" lon="9.997133331879827" id="-10287">
		<tag k="name" v="Tverrgjelskampen" />
		<tag k="natural" v="water" />
		<tag k="ssr:stedsnr" v="482245" />
	</node>
	<node lat="62.16059166338248" lon="9.861988896269468" id="-10289">
		<tag k="name" v="Flybekken" />
		<tag k="ssr:stedsnr" v="482573" />
		<tag k="waterway" v="stream" />
	</node>
	<node lat="62.11859772534108" lon="10.152111487691704" id="-10291">
		<tag k="name" v="Grimsmotjønnan" />
		<tag k="natural" v="water" />
		<tag k="ssr:stedsnr" v="483013" />
		<tag k="water" v="lake" />
	</node>
	<node lat="62.010027778188224" lon="10.000147231645467" id="-10296">
		<tag k="name" v="Liafossen" />
		<tag k="natural" v="waterfall" />
		<tag k="ssr:stedsnr" v="483433" />
	</node>
	<node lat="61.95243889142985" lon="10.019894448704845" id="-10299">
		<tag k="name" v="Veslesleubekken" />
		<tag k="ssr:stedsnr" v="483453" />
		<tag k="waterway" v="stream" />
	</node>
	<node lat="62.23599999820938" lon="10.015794442799537" id="-10300">
		<tag k="name" v="Falebekken" />
		<tag k="ssr:stedsnr" v="483586" />
		<tag k="waterway" v="stream" />
	</node>
	<node lat="62.10760555660315" lon="10.037647216729122" id="-10319">
		<tag k="name" v="Fløttvangbekken" />
		<tag k="ssr:stedsnr" v="422051" />
		<tag k="waterway" v="stream" />
	</node>
	<node lat="62.05594444825151" lon="10.08976388426842" id="-10321">
		<tag k="name" v="Rauhølen" />
		<tag k="place" v="locality" />
		<tag k="ssr:stedsnr" v="422197" />
	</node>
	<node lat="61.959716667593746" lon="10.011416664460425" id="-10323">
		<tag k="name" v="Nylyusvingen" />
		<tag k="natural" v="water" />
		<tag k="ssr:stedsnr" v="422393" />
		<tag k="water" v="lake" />
	</node>
	<node lat="61.93593332898552" lon="10.022863879816613" id="-10324">
		<tag k="name" v="Kroktjønne" />
		<tag k="natural" v="water" />
		<tag k="ssr:stedsnr" v="422397" />
	</node>
	<node lat="61.968313888908504" lon="10.018500002838083" id="-10332">
		<tag k="name" v="Langodden" />
		<tag k="natural" v="cape" />
		<tag k="ssr:stedsnr" v="490426" />
	</node>
	<node lat="61.912050001064664" lon="10.073705561019008" id="-10338">
		<tag k="loc_name" v="Torsteintjønne" />
		<tag k="name" v="Tostinstjønne" />
		<tag k="natural" v="water" />
		<tag k="ssr:stedsnr" v="434610" />
	</node>
	<node lat="61.95115555331759" lon="9.974344452744647" id="-10339">
		<tag k="alt_name" v="Vesleholbekken" />
		<tag k="name" v="Veslholbekken" />
		<tag k="ssr:stedsnr" v="434578" />
		<tag k="waterway" v="stream" />
	</node>
	<node lat="61.946930551392995" lon="10.053600000975003" id="-10340">
		<tag k="name" v="Sjogfonnbekketjønne" />
		<tag k="natural" v="water" />
		<tag k="ssr:stedsnr" v="434586" />
	</node>
	<node lat="62.167224998668985" lon="9.976402784592745" id="-10345">
		<tag k="name" v="Storslågåbekken" />
		<tag k="ssr:stedsnr" v="435309" />
		<tag k="waterway" v="stream" />
	</node>
	<node lat="62.13497500182215" lon="10.165361103563878" id="-10355">
		<tag k="name" v="Butjønna" />
		<tag k="natural" v="water" />
		<tag k="ssr:stedsnr" v="435486" />
	</node>
	<node lat="62.197977777397256" lon="10.387719450904655" id="-10365">
		<tag k="name" v="Einunnøra" />
		<tag k="natural" v="cape" />
		<tag k="ssr:stedsnr" v="476949" />
	</node>
	<node lat="62.23814722163334" lon="10.193788880090514" id="-10375">
		<tag k="name" v="Bjønnbekken" />
		<tag k="ssr:stedsnr" v="481205" />
		<tag k="waterway" v="stream" />
	</node>
	<node lat="61.97204166815882" lon="10.020913884978434" id="-10380">
		<tag k="name" v="Sandomsodden" />
		<tag k="natural" v="cape" />
		<tag k="ssr:stedsnr" v="481324" />
	</node>
	<node lat="62.23227222234334" lon="9.97889999457618" id="-10381">
		<tag k="name" v="Steinslågåbekken" />
		<tag k="ssr:stedsnr" v="678368" />
		<tag k="waterway" v="stream" />
	</node>
	<node lat="62.185361113139365" lon="9.828427776403432" id="-10383">
		<tag k="name" v="Uppebekken" />
		<tag k="ssr:stedsnr" v="481759" />
		<tag k="waterway" v="stream" />
	</node>
	<node lat="62.00845000037012" lon="10.042405555909237" id="-10390">
		<tag k="alt_name" v="Skardtjørni" />
		<tag k="name" v="Skardtjønne" />
		<tag k="natural" v="water" />
		<tag k="ssr:stedsnr" v="678447" />
	</node>
	<node lat="62.28599444584511" lon="10.119605556146004" id="-10397">
		<tag k="name" v="Brufosshølen" />
		<tag k="place" v="locality" />
		<tag k="ssr:stedsnr" v="483207" />
	</node>
	<node lat="62.28825555566576" lon="10.125880559821187" id="-10402">
		<tag k="name" v="Nordistubekken" />
		<tag k="ssr:stedsnr" v="483226" />
		<tag k="waterway" v="stream" />
	</node>
	<node lat="62.05605833679278" lon="9.977830549648047" id="-10409">
		<tag k="name" v="Veslebekken" />
		<tag k="ssr:stedsnr" v="483777" />
		<tag k="waterway" v="stream" />
	</node>
	<node lat="62.293758336095465" lon="9.82162500132389" id="-10414">
		<tag k="name" v="Sandbekken" />
		<tag k="ssr:stedsnr" v="679661" />
		<tag k="waterway" v="stream" />
	</node>
	<node lat="62.14045277413922" lon="9.82059999532258" id="-10419">
		<tag k="name" v="Røyrpiptjønne" />
		<tag k="natural" v="water" />
		<tag k="ssr:stedsnr" v="496313" />
	</node>
	<node lat="62.201136109270706" lon="9.820572214362555" id="-10421">
		<tag k="name" v="Furutjønne" />
		<tag k="natural" v="water" />
		<tag k="ssr:stedsnr" v="496367" />
	</node>
	<node lat="62.076672220523506" lon="10.178325002095885" id="-10424">
		<tag k="name" v="Vesldøltjønne" />
		<tag k="natural" v="water" />
		<tag k="ssr:stedsnr" v="496411" />
	</node>
	<node lat="62.061605553232596" lon="10.011930548449355" id="-10425">
		<tag k="alt_name" v="Holmetjørni" />
		<tag k="name" v="Holmtjønne" />
		<tag k="natural" v="water" />
		<tag k="ssr:stedsnr" v="496423" />
	</node>
	<node lat="62.238272221854196" lon="10.291355561921074" id="-10426">
		<tag k="name" v="Follslåtten" />
		<tag k="ssr:stedsnr" v="496466" />
		<tag k="waterway" v="stream" />
	</node>
	<node lat="62.387683334468136" lon="9.975375005711344" id="-10429">
		<tag k="name" v="Døltjørnan" />
		<tag k="natural" v="water" />
		<tag k="ssr:stedsnr" v="496705" />
		<tag k="water" v="lake" />
	</node>
	<node lat="62.34096388632601" lon="9.96254722380326" id="-10432">
		<tag k="alt_name" v="Dølbekken" />
		<tag k="name" v="Døllibekken" />
		<tag k="ssr:stedsnr" v="496716" />
		<tag k="waterway" v="stream" />
	</node>
	<node lat="61.90956389084178" lon="10.076899997728376" id="-10437">
		<tag k="name" v="Holmtjønne" />
		<tag k="natural" v="water" />
		<tag k="ssr:stedsnr" v="537575" />
	</node>
	<node lat="62.18572221935568" lon="9.845527782197683" id="-10449">
		<tag k="name" v="Snyrilhustjønna" />
		<tag k="natural" v="water" />
		<tag k="ssr:stedsnr" v="542780" />
	</node>
	<node lat="61.98648055339037" lon="9.993052784485302" id="-10454">
		<tag k="name" v="Tverrgjeltjønne" />
		<tag k="natural" v="water" />
		<tag k="ssr:stedsnr" v="543279" />
	</node>
	<node lat="61.99390000200835" lon="10.029244440630409" id="-10456">
		<tag k="name" v="Nordre Sæterbekken" />
		<tag k="ssr:stedsnr" v="543286" />
		<tag k="waterway" v="stream" />
	</node>
	<node lat="61.95885555410092" lon="10.014736102089998" id="-10458">
		<tag k="name" v="Monsettjønne" />
		<tag k="natural" v="water" />
		<tag k="ssr:stedsnr" v="543407" />
	</node>
	<node lat="61.96060833705426" lon="10.011738891101913" id="-10459">
		<tag k="name" v="Nylyukvilte" />
		<tag k="ssr:stedsnr" v="543502" />
		<tag k="waterway" v="stream" />
	</node>
	<node lat="62.074927779499916" lon="9.957836102632239" id="-10461">
		<tag k="name" v="Fiskedammen" />
		<tag k="natural" v="water" />
		<tag k="ssr:stedsnr" v="543514" />
	</node>
	<node lat="61.74082222432309" lon="10.782286119887603" id="-10465">
		<tag k="name" v="Atna" />
		<tag k="ssr:stedsnr" v="555186" />
		<tag k="waterway" v="river" />
	</node>
	<node lat="62.15602778198764" lon="9.84966666280603" id="-10466">
		<tag k="name" v="Kroktjønne" />
		<tag k="natural" v="water" />
		<tag k="ssr:stedsnr" v="555611" />
	</node>
	<node lat="62.182075001345346" lon="9.866399994016147" id="-10468">
		<tag k="alt_name" v="Veslbekken" />
		<tag k="name" v="Veslebekken" />
		<tag k="ssr:stedsnr" v="556305" />
		<tag k="waterway" v="stream" />
	</node>
	<node lat="62.30270555702462" lon="9.848577774437695" id="-10474">
		<tag k="alt_name" v="Veslebekken" />
		<tag k="name" v="Veslbekken" />
		<tag k="ssr:stedsnr" v="557651" />
		<tag k="waterway" v="stream" />
	</node>
	<node lat="62.375230554225844" lon="10.084691669377829" id="-10475">
		<tag k="name" v="Sandgrova" />
		<tag k="ssr:stedsnr" v="557660" />
		<tag k="waterway" v="stream" />
	</node>
	<node lat="62.184763884867316" lon="9.753705559866177" id="-10482">
		<tag k="name" v="Slettabekken" />
		<tag k="ssr:stedsnr" v="568812" />
		<tag k="waterway" v="stream" />
	</node>
	<node lat="62.19137222221681" lon="10.218438886866698" id="-10491">
		<tag k="name" v="Nysæterbekken" />
		<tag k="ssr:stedsnr" v="602062" />
		<tag k="waterway" v="stream" />
	</node>
	<node lat="61.97425833564875" lon="10.03171111650127" id="-10498">
		<tag k="name" v="Gammelgardsbekken" />
		<tag k="ssr:stedsnr" v="602461" />
		<tag k="waterway" v="stream" />
	</node>
	<node lat="62.11829722493486" lon="9.96762777763718" id="-10501">
		<tag k="name" v="Hovdabekken" />
		<tag k="ssr:stedsnr" v="602560" />
		<tag k="waterway" v="stream" />
	</node>
	<node lat="62.11534166491883" lon="10.062719445394196" id="-10506">
		<tag k="name" v="Gammelfaret" />
		<tag k="ssr:stedsnr" v="604020" />
		<tag k="waterway" v="river" />
	</node>
	<node lat="62.09428610861764" lon="9.903111120439853" id="-10514">
		<tag k="name" v="Tverrbekken" />
		<tag k="ssr:stedsnr" v="604542" />
		<tag k="waterway" v="stream" />
	</node>
	<node lat="62.07957500287187" lon="9.955899992356533" id="-10515">
		<tag k="name" v="Påltjønne" />
		<tag k="natural" v="water" />
		<tag k="ssr:stedsnr" v="604545" />
	</node>
	<node lat="62.2041833361033" lon="10.039152776840986" id="-10518">
		<tag k="name" v="Fløttbekken" />
		<tag k="ssr:stedsnr" v="604614" />
		<tag k="waterway" v="stream" />
	</node>
	<node lat="62.16111666937282" lon="9.805158336967732" id="-10521">
		<tag k="name" v="Tøftbekken" />
		<tag k="ssr:stedsnr" v="616650" />
		<tag k="waterway" v="stream" />
	</node>
	<node lat="62.2473888923282" lon="10.280850009361556" id="-10527">
		<tag k="name" v="Markbulidammen" />
		<tag k="natural" v="water" />
		<tag k="ssr:stedsnr" v="617440" />
	</node>
	<node lat="62.19542500245226" lon="10.085997226458417" id="-10531">
		<tag k="alt_name" v="Kakela" />
		<tag k="name" v="Kakella" />
		<tag k="ssr:stedsnr" v="617388" />
		<tag k="waterway" v="river" />
	</node>
	<node lat="61.996458335748954" lon="9.948569447619157" id="-10542">
		<tag k="name" v="Storbekken" />
		<tag k="ssr:stedsnr" v="617696" />
		<tag k="waterway" v="stream" />
	</node>
	<node lat="62.26743055412534" lon="10.19917778184699" id="-10544">
		<tag k="name" v="Ruphusbekken" />
		<tag k="ssr:stedsnr" v="618612" />
		<tag k="waterway" v="stream" />
	</node>
	<node lat="62.11776388938138" lon="9.916158342604358" id="-10554">
		<tag k="name" v="Kjøvrustbekken" />
		<tag k="ssr:stedsnr" v="663533" />
		<tag k="waterway" v="stream" />
	</node>
	<node lat="62.117874998839454" lon="10.149191662271297" id="-10559">
		<tag k="name" v="Stortjønna" />
		<tag k="natural" v="water" />
		<tag k="ssr:stedsnr" v="663933" />
	</node>
	<node lat="62.15352777616621" lon="9.847244436386699" id="-10580">
		<tag k="name" v="Horrhølen" />
		<tag k="place" v="locality" />
		<tag k="ssr:stedsnr" v="674653" />
	</node>
	<node lat="62.217622012787416" lon="10.284913940570977" id="-10582">
		<tag k="name" v="Moskardtjørnan" />
		<tag k="natural" v="water" />
		<tag k="ssr:stedsnr" v="678079" />
		<tag k="water" v="lake" />
	</node>
	<node lat="62.20617500206889" lon="9.795500007345371" id="-10596">
		<tag k="name" v="Depla" />
		<tag k="ssr:stedsnr" v="678388" />
		<tag k="waterway" v="river" />
	</node>
	<node lat="62.206933329712314" lon="10.137816676025093" id="-10597">
		<tag k="alt_name" v="Vesle Langbekken" />
		<tag k="name" v="Vesllangbekken" />
		<tag k="ssr:stedsnr" v="678391" />
		<tag k="waterway" v="stream" />
	</node>
	<node lat="62.35179166676965" lon="10.063997215919299" id="-10600">
		<tag k="name" v="Marsjøen" />
		<tag k="natural" v="water" />
		<tag k="ssr:stedsnr" v="678706" />
		<tag k="water" v="lake" />
	</node>
	<node lat="62.383663886936915" lon="10.02357222459085" id="-10602">
		<tag k="name" v="Medtjønna" />
		<tag k="natural" v="water" />
		<tag k="old_name" v="Midttjørn" />
		<tag k="ssr:stedsnr" v="678694" />
	</node>
	<node lat="62.25568888493142" lon="10.027658335206647" id="-10605">
		<tag k="name" v="Veslslågåbekken" />
		<tag k="ssr:stedsnr" v="679580" />
		<tag k="waterway" v="stream" />
	</node>
	<node lat="62.13037777396038" lon="9.820827772444114" id="-10612">
		<tag k="name" v="Gåsåtjønnbekken" />
		<tag k="ssr:stedsnr" v="723612" />
		<tag k="waterway" v="stream" />
	</node>
	<node lat="62.1307444442434" lon="9.815316664049755" id="-10613">
		<tag k="name" v="Teppa" />
		<tag k="natural" v="water" />
		<tag k="ssr:stedsnr" v="723614" />
	</node>
	<node lat="62.148769448978136" lon="9.994391664015623" id="-10616">
		<tag k="name" v="Stordammen" />
		<tag k="ssr:stedsnr" v="723598" />
		<tag k="waterway" v="dam" />
	</node>
	<node lat="62.085247220831235" lon="10.083241661200992" id="-10618">
		<tag k="name" v="Nedre Fallfossen" />
		<tag k="natural" v="waterfall" />
		<tag k="ssr:stedsnr" v="724175" />
	</node>
	<node lat="62.18871944019185" lon="10.299350007475088" id="-10621">
		<tag k="name" v="Bastosttjønna" />
		<tag k="natural" v="water" />
		<tag k="ssr:stedsnr" v="724305" />
	</node>
	<node lat="62.305552779277946" lon="10.05087221793805" id="-10626">
		<tag k="name" v="Hestskotjønna" />
		<tag k="natural" v="water" />
		<tag k="ssr:stedsnr" v="725669" />
	</node>
	<node lat="62.29526944627943" lon="10.127088893783695" id="-10636">
		<tag k="name" v="Steindalsdammen" />
		<tag k="ssr:stedsnr" v="726206" />
		<tag k="waterway" v="dam" />
	</node>
	<node lat="62.050386110428754" lon="10.088963889543203" id="-10638">
		<tag k="name" v="Heimrusttjønne" />
		<tag k="natural" v="water" />
		<tag k="ssr:stedsnr" v="726272" />
	</node>
	<node lat="62.19763333508038" lon="10.067155556840891" id="-10639">
		<tag k="name" v="Leirbekken" />
		<tag k="ssr:stedsnr" v="726603" />
		<tag k="waterway" v="stream" />
	</node>
	<node lat="62.18865000009957" lon="10.277477768933137" id="-10640">
		<tag k="name" v="Odden" />
		<tag k="natural" v="cape" />
		<tag k="ssr:stedsnr" v="726377" />
	</node>
	<node lat="62.20450277933455" lon="9.978322213321904" id="-10650">
		<tag k="name" v="Fiskeslågåbekken" />
		<tag k="ssr:stedsnr" v="738353" />
		<tag k="waterway" v="stream" />
	</node>
	<node lat="62.02672500184005" lon="10.153411108631824" id="-10652">
		<tag k="name" v="Kyrkjeklettbekken" />
		<tag k="ssr:stedsnr" v="738406" />
		<tag k="waterway" v="stream" />
	</node>
	<node lat="61.9666499977621" lon="10.040666660288178" id="-10653">
		<tag k="alt_name" v="Kvernbekken;Søndre Kvennbekken" />
		<tag k="name" v="Søre Kvennbekken" />
		<tag k="ssr:stedsnr" v="738603" />
		<tag k="waterway" v="stream" />
	</node>
	<node lat="61.91378332979646" lon="10.022583341674789" id="-10655">
		<tag k="alt_name" v="Store Myldingi;Stormyldingi" />
		<tag k="name" v="Stormyldinge" />
		<tag k="ssr:stedsnr" v="738615" />
		<tag k="waterway" v="stream" />
	</node>
	<node lat="62.17977500208063" lon="9.851250002814108" id="-10659">
		<tag k="name" v="Langholbekken" />
		<tag k="ssr:stedsnr" v="739246" />
		<tag k="waterway" v="stream" />
	</node>
	<node lat="62.352911114230764" lon="10.088186106547786" id="-10663">
		<tag k="name" v="Råbekken" />
		<tag k="ssr:stedsnr" v="739709" />
		<tag k="waterway" v="stream" />
	</node>
	<node lat="62.13354166790905" lon="10.027497223817294" id="-10677">
		<tag k="name" v="Storbekken" />
		<tag k="ssr:stedsnr" v="762115" />
		<tag k="waterway" v="stream" />
	</node>
	<node lat="61.932672221706426" lon="10.02379445170532" id="-10680">
		<tag k="name" v="Merraverma" />
		<tag k="natural" v="water" />
		<tag k="ssr:stedsnr" v="906419" />
	</node>
	<node lat="61.96999444208476" lon="10.03674721956108" id="-10681">
		<tag k="alt_name" v="Nordre Kvennbekken" />
		<tag k="name" v="Nørdre Kvennbekken" />
		<tag k="ssr:stedsnr" v="906479" />
		<tag k="waterway" v="stream" />
	</node>
	<node lat="62.10683611318402" lon="10.179813890638226" id="-10691">
		<tag k="name" v="Raudklettjønna" />
		<tag k="ssr:stedsnr" v="906945" />
		<tag k="waterway" v="stream" />
	</node>
	<node lat="62.05152221997545" lon="10.09824999664216" id="-10696">
		<tag k="name" v="Stortjønne" />
		<tag k="natural" v="water" />
		<tag k="ssr:stedsnr" v="908269" />
	</node>
	<node lat="62.000058330178696" lon="9.989769445180105" id="-10697">
		<tag k="name" v="Tverrgjelsbekken" />
		<tag k="ssr:stedsnr" v="908294" />
		<tag k="waterway" v="stream" />
	</node>
	<node lat="62.02227777566566" lon="9.978636110184667" id="-10710">
		<tag k="name" v="Svarttjønne" />
		<tag k="natural" v="water" />
		<tag k="ssr:stedsnr" v="908695" />
	</node>
	<node lat="62.32319166535219" lon="9.914736105871347" id="-10712">
		<tag k="name" v="Fundindammen" />
		<tag k="ssr:stedsnr" v="908895" />
		<tag k="waterway" v="dam" />
	</node>
	<node lat="62.224019446026766" lon="10.244505552900517" id="-10730">
		<tag k="name" v="Bjønnåsbekken" />
		<tag k="ssr:stedsnr" v="786251" />
		<tag k="waterway" v="stream" />
	</node>
	<node lat="62.14221944735074" lon="10.174944447084568" id="-10742">
		<tag k="name" v="Kroktjønna" />
		<tag k="natural" v="water" />
		<tag k="ssr:stedsnr" v="799320" />
	</node>
	<node lat="62.242913886484494" lon="9.794416668550191" id="-10743">
		<tag k="name" v="Pikuthøbekken" />
		<tag k="ssr:stedsnr" v="799335" />
		<tag k="waterway" v="stream" />
	</node>
	<node lat="62.169127777483595" lon="10.009324998063246" id="-10748">
		<tag k="name" v="Gortjønne" />
		<tag k="natural" v="water" />
		<tag k="ssr:stedsnr" v="799294" />
	</node>
	<node lat="62.060658332050686" lon="10.017349995336783" id="-10750">
		<tag k="name" v="Myrbekken" />
		<tag k="ssr:stedsnr" v="799384" />
		<tag k="waterway" v="river" />
	</node>
	<node lat="61.97804166699073" lon="10.042594450198417" id="-10757">
		<tag k="name" v="Søre Skriubekken" />
		<tag k="ssr:stedsnr" v="800509" />
		<tag k="waterway" v="stream" />
	</node>
	<node lat="62.36243610924605" lon="10.094613880234947" id="-10760">
		<tag k="name" v="Buabekken" />
		<tag k="ssr:stedsnr" v="800688" />
		<tag k="waterway" v="stream" />
	</node>
	<node lat="62.26071666908096" lon="9.963124998033912" id="-10761">
		<tag k="name" v="Kakella" />
		<tag k="ssr:stedsnr" v="801614" />
		<tag k="waterway" v="stream" />
	</node>
	<node lat="61.991925003703145" lon="9.872663882155559" id="-10770">
		<tag k="name" v="Neverbubekken" />
		<tag k="ssr:stedsnr" v="920683" />
		<tag k="waterway" v="stream" />
	</node>
	<node lat="62.12367500044647" lon="9.90788056246036" id="-10771">
		<tag k="name" v="Sveabekken" />
		<tag k="ssr:stedsnr" v="921492" />
		<tag k="waterway" v="stream" />
	</node>
	<node lat="62.165374999252414" lon="9.984847221696445" id="-10779">
		<tag k="alt_name" v="Husumbekken" />
		<tag k="name" v="Husombekken" />
		<tag k="ssr:stedsnr" v="921288" />
		<tag k="waterway" v="stream" />
	</node>
	<node lat="62.22884999857794" lon="9.971797214371874" id="-10791">
		<tag k="name" v="Midtslågåbekken" />
		<tag k="ssr:stedsnr" v="921362" />
		<tag k="waterway" v="stream" />
	</node>
	<node lat="62.24799444118526" lon="10.209861114854696" id="-10795">
		<tag k="name" v="Einunna" />
		<tag k="ssr:stedsnr" v="921327" />
		<tag k="waterway" v="river" />
	</node>
	<node lat="62.07067221904183" lon="9.906799998272673" id="-10796">
		<tag k="name" v="Ørnhovdbekken" />
		<tag k="ssr:stedsnr" v="921415" />
		<tag k="waterway" v="stream" />
	</node>
	<node lat="62.099761112797495" lon="10.112116667409133" id="-10800">
		<tag k="name" v="Storkroken" />
		<tag k="natural" v="cape" />
		<tag k="ssr:stedsnr" v="823920" />
	</node>
	<node lat="62.10657777553676" lon="9.934722229651435" id="-10803">
		<tag k="name" v="Lirostjønne" />
		<tag k="natural" v="water" />
		<tag k="ssr:stedsnr" v="921517" />
	</node>
	<node lat="62.18797918158532" lon="9.643640623833823" id="-10806">
		<tag k="fixme" v="multiple name tags, choose one and add the other to alt_name" />
		<tag k="name" v="Øyabekken;Storslåbekken" />
		<tag k="ssr:stedsnr" v="921742" />
		<tag k="waterway" v="stream" />
	</node>
	<node lat="62.120672222164785" lon="10.039711118161657" id="-10813">
		<tag k="name" v="Kriktjønna" />
		<tag k="natural" v="water" />
		<tag k="ssr:stedsnr" v="845111" />
	</node>
	<node lat="61.971786111536304" lon="10.016286114363865" id="-10816">
		<tag k="name" v="Rondtjønne" />
		<tag k="natural" v="water" />
		<tag k="ssr:stedsnr" v="845306" />
	</node>
	<node lat="62.19583610750543" lon="10.29128055025725" id="-10819">
		<tag k="name" v="Sålåpinnklemma" />
		<tag k="ssr:stedsnr" v="846305" />
		<tag k="waterway" v="rapids" />
	</node>
	<node lat="62.34758888888699" lon="10.00180277842668" id="-10822">
		<tag k="name" v="Ryphusbekken" />
		<tag k="ssr:stedsnr" v="846615" />
		<tag k="waterway" v="stream" />
	</node>
	<node lat="62.142858329941916" lon="10.178977783903994" id="-10837">
		<tag k="name" v="Lauvåstjønna" />
		<tag k="natural" v="water" />
		<tag k="ssr:stedsnr" v="847930" />
	</node>
	<node lat="62.13871944383454" lon="9.850549990969045" id="-10849">
		<tag k="name" v="Gåsåe" />
		<tag k="ssr:stedsnr" v="860361" />
		<tag k="waterway" v="river" />
	</node>
	<node lat="62.15257499954413" lon="10.020174997180515" id="-10852">
		<tag k="name" v="Vollabekken" />
		<tag k="ssr:stedsnr" v="860368" />
		<tag k="waterway" v="stream" />
	</node>
	<node lat="62.42914722136548" lon="10.046738887309976" id="-10861">
		<tag k="name" v="Såtålsjøbekken" />
		<tag k="old_name" v="Såtålbekken" />
		<tag k="ssr:stedsnr" v="861726" />
		<tag k="waterway" v="stream" />
	</node>
	<node lat="62.168769444449254" lon="9.699008336716743" id="-10866">
		<tag k="fixme" v="multiple name tags, choose one and add the other to alt_name" />
		<tag k="name" v="Søre Gravbekken;Søre Liabekken" />
		<tag k="old_name" v="Gravbekken" />
		<tag k="ssr:stedsnr" v="861689" />
		<tag k="waterway" v="stream" />
	</node>
	<node lat="62.17732500190933" lon="10.325075008182461" id="-10868">
		<tag k="alt_name" v="Storbekken" />
		<tag k="name" v="Sagbekken" />
		<tag k="ssr:stedsnr" v="869481" />
		<tag k="waterway" v="stream" />
	</node>
	<node lat="62.17859166283154" lon="9.73398612022339" id="-10870">
		<tag k="fixme" v="multiple name tags, choose one and add the other to alt_name" />
		<tag k="name" v="Viddalsbekken;Søtbekken" />
		<tag k="ssr:stedsnr" v="932790" />
		<tag k="waterway" v="stream" />
	</node>
	<node lat="61.96606944438469" lon="10.017808326159336" id="-10872">
		<tag k="name" v="Storlyuodden" />
		<tag k="natural" v="cape" />
		<tag k="ssr:stedsnr" v="894503" />
	</node>
	<node lat="61.926305553272854" lon="10.026511115608459" id="-10887">
		<tag k="name" v="Hansholtjønne" />
		<tag k="natural" v="water" />
		<tag k="ssr:stedsnr" v="908459" />
	</node>
	<node lat="62.078474998657356" lon="10.075997226728592" id="-10898">
		<tag k="name" v="Mysutjønne" />
		<tag k="natural" v="water" />
		<tag k="ssr:stedsnr" v="920353" />
	</node>
	<node lat="61.91344999868361" lon="9.930647215533428" id="-10904">
		<tag k="alt_name" v="Langglupåa" />
		<tag k="name" v="Langglupbekken" />
		<tag k="ssr:stedsnr" v="921731" />
		<tag k="waterway" v="stream" />
	</node>
	<node lat="62.02581944085421" lon="10.019730553427046" id="-10908">
		<tag k="name" v="Blæsterbutjønne" />
		<tag k="natural" v="water" />
		<tag k="ssr:stedsnr" v="921438" />
	</node>
	<node lat="62.37730277843088" lon="10.018038890162869" id="-10911">
		<tag k="name" v="Rundtjønna" />
		<tag k="natural" v="water" />
		<tag k="old_name" v="Rundtjørn" />
		<tag k="ssr:stedsnr" v="921702" />
	</node>
	<node lat="62.31623333644898" lon="9.838933325880113" id="-10932">
		<tag k="name" v="Fløman" />
		<tag k="place" v="locality" />
		<tag k="ssr:stedsnr" v="967746" />
	</node>
	<node lat="62.17290833197573" lon="9.911908334036703" id="-10936">
		<tag k="name" v="Larssvebekken" />
		<tag k="ssr:stedsnr" v="968596" />
		<tag k="waterway" v="stream" />
	</node>
	<node lat="62.31190555811083" lon="9.842877770507883" id="-10938">
		<tag k="name" v="Kaldloken" />
		<tag k="ssr:stedsnr" v="968693" />
		<tag k="waterway" v="stream" />
	</node>
	<node lat="61.908409608089805" lon="10.088195189651616" id="-10951">
		<tag k="alt_name" v="Hessetjørn;Hessetjønna" />
		<tag k="name" v="Hessetjørna" />
		<tag k="natural" v="water" />
		<tag k="ssr:stedsnr" v="10578" />
	</node>
	<node lat="62.00848333670534" lon="10.096925008305655" id="-10958">
		<tag k="name" v="Klettbekken" />
		<tag k="ssr:stedsnr" v="11418" />
		<tag k="waterway" v="stream" />
	</node>
	<node lat="62.13248333566905" lon="10.083655556879103" id="-10964">
		<tag k="name" v="Svensbekken" />
		<tag k="ssr:stedsnr" v="11464" />
		<tag k="waterway" v="stream" />
	</node>
	<node lat="61.98837221936772" lon="10.039436102796937" id="-10967">
		<tag k="name" v="Nørdre Skriubekken" />
		<tag k="ssr:stedsnr" v="11524" />
		<tag k="waterway" v="stream" />
	</node>
	<node lat="62.35652500362237" lon="10.206205564238383" id="-10970">
		<tag k="name" v="Trolltjønna" />
		<tag k="natural" v="water" />
		<tag k="ssr:stedsnr" v="11719" />
	</node>
	<node lat="62.27298889170643" lon="10.106900008707706" id="-10971">
		<tag k="name" v="Storbekken" />
		<tag k="ssr:stedsnr" v="11726" />
		<tag k="waterway" v="stream" />
	</node>
	<node lat="62.31006389113834" lon="9.831347228387777" id="-10974">
		<tag k="name" v="Flåmbekken" />
		<tag k="ssr:stedsnr" v="11668" />
		<tag k="waterway" v="stream" />
	</node>
	<node lat="62.309313887881494" lon="10.278819441856966" id="-10975">
		<tag k="alt_name" v="Marsjøen, vesl" />
		<tag k="name" v="Vesl-Marsjøen" />
		<tag k="natural" v="water" />
		<tag k="ssr:stedsnr" v="11935" />
		<tag k="water" v="lake" />
	</node>
	<node lat="62.25818055164889" lon="9.772922221755783" id="-10976">
		<tag k="name" v="Pikuthøtjønne" />
		<tag k="natural" v="water" />
		<tag k="old_name" v="Pikuthøtjørn" />
		<tag k="ssr:stedsnr" v="12629" />
	</node>
	<node lat="62.267636113357916" lon="10.008300002948966" id="-10977">
		<tag k="name" v="Storslågåbekken" />
		<tag k="ssr:stedsnr" v="12633" />
		<tag k="waterway" v="stream" />
	</node>
	<node lat="62.0642388890055" lon="9.997616670188526" id="-10995">
		<tag k="name" v="Stortjønne" />
		<tag k="natural" v="water" />
		<tag k="ssr:stedsnr" v="58286" />
	</node>
	<node lat="61.99077777465393" lon="10.029716673817745" id="-10997">
		<tag k="name" v="Søre Sæterbekken" />
		<tag k="ssr:stedsnr" v="58299" />
		<tag k="waterway" v="stream" />
	</node>
	<node lat="62.06497500413225" lon="9.952672222634748" id="-11004">
		<tag k="name" v="Svarttjønne" />
		<tag k="natural" v="water" />
		<tag k="ssr:stedsnr" v="58758" />
	</node>
	<node lat="62.139422218689745" lon="10.17213611756502" id="-11005">
		<tag k="name" v="Bekkholtjønna" />
		<tag k="natural" v="water" />
		<tag k="ssr:stedsnr" v="58934" />
	</node>
	<node lat="62.13916389139093" lon="10.163763880438063" id="-11006">
		<tag k="name" v="Odden" />
		<tag k="natural" v="cape" />
		<tag k="ssr:stedsnr" v="58946" />
	</node>
	<node lat="61.946958336165174" lon="10.015402783503447" id="-11010">
		<tag k="name" v="Rånåtjønne" />
		<tag k="natural" v="water" />
		<tag k="ssr:stedsnr" v="70581" />
	</node>
	<node lat="62.17273610706114" lon="9.868749993732589" id="-11020">
		<tag k="name" v="Kroktjønnsbekken" />
		<tag k="ssr:stedsnr" v="71303" />
		<tag k="waterway" v="stream" />
	</node>
	<node lat="61.98804166903264" lon="10.015127776660421" id="-11024">
		<tag k="name" v="Svarttjønne" />
		<tag k="natural" v="water" />
		<tag k="ssr:stedsnr" v="71563" />
	</node>
	<node lat="62.12702221932349" lon="9.82115555371851" id="-11028">
		<tag k="name" v="Gåsåtjønne" />
		<tag k="natural" v="water" />
		<tag k="ssr:stedsnr" v="72442" />
	</node>
	<node lat="62.31135833284327" lon="10.257102776833218" id="-11035">
		<tag k="name" v="Leirbekken" />
		<tag k="ssr:stedsnr" v="72924" />
		<tag k="waterway" v="stream" />
	</node>
	<node lat="62.04295000302843" lon="9.996786118493299" id="-11045">
		<tag k="name" v="Tolmodstjønne" />
		<tag k="natural" v="water" />
		<tag k="ssr:stedsnr" v="117159" />
	</node>
	<node lat="62.19195277697936" lon="10.25868611469924" id="-11048">
		<tag k="name" v="Ryengbekken" />
		<tag k="ssr:stedsnr" v="117370" />
		<tag k="waterway" v="stream" />
	</node>
	<node lat="62.188747218192574" lon="9.838527768222967" id="-11055">
		<tag k="name" v="Stålbekken" />
		<tag k="ssr:stedsnr" v="117772" />
		<tag k="waterway" v="stream" />
	</node>
	<node lat="62.13826388603951" lon="10.167172223485814" id="-11073">
		<tag k="name" v="Bekkhølen" />
		<tag k="place" v="locality" />
		<tag k="ssr:stedsnr" v="119936" />
	</node>
	<node lat="62.00815003841196" lon="10.018653968868131" id="-11083">
		<tag k="alt_name" v="Motjønne" />
		<tag k="name" v="Nordre Tjønne" />
		<tag k="natural" v="water" />
		<tag k="ssr:stedsnr" v="132399" />
	</node>
	<node lat="62.26861666260062" lon="9.832958334001821" id="-11087">
		<tag k="name" v="Råtåsjøen" />
		<tag k="natural" v="water" />
		<tag k="ssr:stedsnr" v="133597" />
	</node>
	<node lat="62.03900277611956" lon="9.998447227258938" id="-11095">
		<tag k="name" v="Klyvitjønne" />
		<tag k="natural" v="water" />
		<tag k="ssr:stedsnr" v="177135" />
	</node>
	<node lat="62.0306222186248" lon="10.014236108392284" id="-11096">
		<tag k="name" v="Borkhusbekken" />
		<tag k="ssr:stedsnr" v="177141" />
		<tag k="waterway" v="stream" />
	</node>
	<node lat="62.20458332974823" lon="10.299436107919517" id="-11113">
		<tag k="name" v="Liresbekken" />
		<tag k="ssr:stedsnr" v="179375" />
		<tag k="waterway" v="stream" />
	</node>
	<node lat="61.949308333874136" lon="10.023816668174309" id="-11117">
		<tag k="name" v="Sæterbekken" />
		<tag k="ssr:stedsnr" v="179401" />
		<tag k="waterway" v="stream" />
	</node>
	<node lat="62.20813888548155" lon="10.148300005304908" id="-11132">
		<tag k="alt_name" v="Store Langbekken" />
		<tag k="name" v="Storlangbekken" />
		<tag k="old_name" v="Storelangbekken" />
		<tag k="ssr:stedsnr" v="192385" />
		<tag k="waterway" v="stream" />
	</node>
	<node lat="62.07595833420777" lon="10.080980564492815" id="-11138">
		<tag k="name" v="Bjørntjønne" />
		<tag k="natural" v="water" />
		<tag k="ssr:stedsnr" v="192401" />
	</node>
	<node lat="62.061061107514064" lon="10.024966674321467" id="-11141">
		<tag k="name" v="Svarttjønne" />
		<tag k="natural" v="water" />
		<tag k="ssr:stedsnr" v="192421" />
	</node>
	<node lat="62.04006110741383" lon="9.928311113363144" id="-11143">
		<tag k="name" v="Langtjønne" />
		<tag k="natural" v="water" />
		<tag k="ssr:stedsnr" v="192434" />
	</node>
	<node lat="61.96377221885293" lon="10.012833341825456" id="-11146">
		<tag k="name" v="Storoddtjønne" />
		<tag k="natural" v="water" />
		<tag k="ssr:stedsnr" v="192632" />
	</node>
	<node lat="61.929994441739595" lon="10.030555551286104" id="-11147">
		<tag k="name" v="Breitjønne" />
		<tag k="natural" v="water" />
		<tag k="ssr:stedsnr" v="192661" />
	</node>
	<node lat="61.935199996868505" lon="10.031988887753643" id="-11148">
		<tag k="name" v="Reivtjønne" />
		<tag k="natural" v="water" />
		<tag k="ssr:stedsnr" v="192665" />
	</node>
	<node lat="62.25336944020247" lon="10.0559999972052" id="-11173">
		<tag k="alt_name" v="Bjønnskardbekken" />
		<tag k="name" v="Bjørnskardbekken" />
		<tag k="ssr:stedsnr" v="193697" />
		<tag k="waterway" v="stream" />
	</node>
	<node lat="62.301808333719094" lon="10.00745833476651" id="-11174">
		<tag k="name" v="Rolvslibekken" />
		<tag k="ssr:stedsnr" v="193664" />
		<tag k="waterway" v="stream" />
	</node>
	<node lat="62.30353333551616" lon="10.290066664257074" id="-11176">
		<tag k="name" v="Fallet" />
		<tag k="natural" v="waterfall" />
		<tag k="ssr:stedsnr" v="193909" />
	</node>
	<node lat="62.287880556481326" lon="9.792516667872691" id="-11177">
		<tag k="name" v="Tuvtjønna" />
		<tag k="natural" v="water" />
		<tag k="ssr:stedsnr" v="194644" />
	</node>
	<node lat="62.27455833758938" lon="10.345486110933635" id="-11187">
		<tag k="name" v="Marsjøkroken" />
		<tag k="natural" v="cape" />
		<tag k="ssr:stedsnr" v="295121" />
	</node>
	<node lat="61.932525002918716" lon="10.005536117405244" id="-11195">
		<tag k="name" v="Bergedalstjønne" />
		<tag k="natural" v="water" />
		<tag k="ssr:stedsnr" v="299435" />
	</node>
	<node lat="61.947511108887504" lon="10.00905278253574" id="-11210">
		<tag k="name" v="Nordre Rånåbuodden" />
		<tag k="natural" v="cape" />
		<tag k="ssr:stedsnr" v="301419" />
	</node>
	<node lat="62.074641670805214" lon="9.966241662251331" id="-11212">
		<tag k="name" v="Løken" />
		<tag k="ssr:stedsnr" v="301536" />
		<tag k="waterway" v="stream" />
	</node>
	<node lat="62.11036944727941" lon="9.915855556603505" id="-11213">
		<tag k="name" v="Nygruvtjønne" />
		<tag k="natural" v="water" />
		<tag k="ssr:stedsnr" v="301538" />
	</node>
	<node lat="62.184688892668596" lon="10.344533332966385" id="-11225">
		<tag k="alt_name" v="Veslesteibekken" />
		<tag k="name" v="Veslsteibekken" />
		<tag k="ssr:stedsnr" v="314022" />
		<tag k="waterway" v="stream" />
	</node>
	<node lat="62.30408055997998" lon="10.26571110171836" id="-11237">
		<tag k="name" v="Veslbekken" />
		<tag k="ssr:stedsnr" v="315918" />
		<tag k="waterway" v="stream" />
	</node>
	<node lat="62.010853312019385" lon="9.933936214416837" id="-11238">
		<tag k="name" v="Elgevatnet" />
		<tag k="natural" v="water" />
		<tag k="ssr:stedsnr" v="314445" />
		<tag k="water" v="lake" />
	</node>
	<node lat="62.304913888854315" lon="9.958675006804992" id="-11248">
		<tag k="name" v="Einståkåbekken" />
		<tag k="old_name" v="Einstakabekken" />
		<tag k="ssr:stedsnr" v="315692" />
		<tag k="waterway" v="stream" />
	</node>
	<node lat="62.16490833442917" lon="10.330961119585686" id="-11250">
		<tag k="name" v="Veslebekken" />
		<tag k="ssr:stedsnr" v="355064" />
		<tag k="waterway" v="stream" />
	</node>
	<node lat="62.221477776134954" lon="10.348897224865553" id="-11256">
		<tag k="name" v="Størloken" />
		<tag k="natural" v="water" />
		<tag k="ssr:stedsnr" v="355935" />
	</node>
	<node lat="62.12764999870498" lon="9.991388891210327" id="-11258">
		<tag k="name" v="Gammelelva" />
		<tag k="ssr:stedsnr" v="359087" />
		<tag k="waterway" v="stream" />
	</node>
	<node lat="62.14070833464298" lon="9.808883324869566" id="-11262">
		<tag k="name" v="Svarttjønne" />
		<tag k="natural" v="water" />
		<tag k="ssr:stedsnr" v="359672" />
	</node>
	<node lat="62.11456388719844" lon="10.006416657712121" id="-11268">
		<tag k="name" v="Lomslåtjønne" />
		<tag k="natural" v="water" />
		<tag k="ssr:stedsnr" v="360079" />
	</node>
	<node lat="62.078286110022226" lon="10.085397229524402" id="-11270">
		<tag k="name" v="Rundtjønne" />
		<tag k="natural" v="water" />
		<tag k="ssr:stedsnr" v="360164" />
	</node>
	<node lat="62.12018333615804" lon="10.158555549208529" id="-11277">
		<tag k="name" v="Stohølen" />
		<tag k="place" v="locality" />
		<tag k="ssr:stedsnr" v="360932" />
	</node>
	<node lat="62.12508055379814" lon="10.238241662501283" id="-11282">
		<tag k="name" v="Reinslitjønnan" />
		<tag k="natural" v="water" />
		<tag k="ssr:stedsnr" v="361200" />
		<tag k="water" v="lake" />
	</node>
	<node lat="62.06303333010214" lon="10.100077770532456" id="-11285">
		<tag k="name" v="Tverrbekken" />
		<tag k="ssr:stedsnr" v="361222" />
		<tag k="waterway" v="stream" />
	</node>
	<node lat="62.211377777475825" lon="10.285986112384872" id="-11294">
		<tag k="name" v="Fjelltjønna" />
		<tag k="natural" v="water" />
		<tag k="ssr:stedsnr" v="361430" />
	</node>
	<node lat="61.939311112100256" lon="10.029052771092205" id="-11295">
		<tag k="name" v="Messingtjønne" />
		<tag k="natural" v="water" />
		<tag k="ssr:stedsnr" v="361444" />
	</node>
	<node lat="62.076655553596275" lon="9.961905549553418" id="-11300">
		<tag k="name" v="Jehanstjønne" />
		<tag k="natural" v="water" />
		<tag k="ssr:stedsnr" v="361562" />
	</node>
	<node lat="62.02872500060313" lon="9.972597213143956" id="-11312">
		<tag k="name" v="Gjelbruhølen" />
		<tag k="place" v="locality" />
		<tag k="ssr:stedsnr" v="361765" />
	</node>
	<node lat="62.214850003685385" lon="9.840180558615653" id="-11319">
		<tag k="alt_name" v="Depla" />
		<tag k="name" v="Sørdepla" />
		<tag k="ssr:stedsnr" v="374359" />
		<tag k="waterway" v="stream" />
	</node>
	<node lat="62.23033055631384" lon="9.941850000552005" id="-11320">
		<tag k="name" v="Indre Kluftbekken" />
		<tag k="ssr:stedsnr" v="374362" />
		<tag k="waterway" v="stream" />
	</node>
	<node lat="62.17703610984782" lon="10.190197226031762" id="-11323">
		<tag k="fixme" v="multiple name tags, choose one and add the other to alt_name" />
		<tag k="name" v="Vatningsbekken;Brennbekken" />
		<tag k="ssr:stedsnr" v="374272" />
		<tag k="waterway" v="stream" />
	</node>
	<node lat="61.9724027806064" lon="9.937766657284376" id="-11325">
		<tag k="name" v="Rånåbekken" />
		<tag k="ssr:stedsnr" v="374611" />
		<tag k="waterway" v="stream" />
	</node>
	<node lat="62.192072225189605" lon="10.046922230526441" id="-11327">
		<tag k="name" v="Storhøbekken" />
		<tag k="ssr:stedsnr" v="374374" />
		<tag k="waterway" v="stream" />
	</node>
	<node lat="62.20445277883051" lon="10.208080562211023" id="-11328">
		<tag k="name" v="Gråvoltjønna" />
		<tag k="natural" v="water" />
		<tag k="ssr:stedsnr" v="374377" />
	</node>
	<node lat="62.256999996640914" lon="10.309530548815498" id="-11330">
		<tag k="name" v="Tælbekken" />
		<tag k="ssr:stedsnr" v="375024" />
		<tag k="waterway" v="stream" />
	</node>
	<node lat="62.26673333309756" lon="10.147733328831338" id="-11333">
		<tag k="alt_name" v="Eiriksbekken" />
		<tag k="name" v="Eriksbekken" />
		<tag k="ssr:stedsnr" v="375600" />
		<tag k="waterway" v="stream" />
	</node>
	<node lat="62.25103611554274" lon="10.00967221464828" id="-11335">
		<tag k="name" v="Heimbekken" />
		<tag k="ssr:stedsnr" v="375623" />
		<tag k="waterway" v="stream" />
	</node>
	<node lat="61.91565555653774" lon="10.066836112809767" id="-11347">
		<tag k="name" v="Tuvtjønne" />
		<tag k="natural" v="water" />
		<tag k="ssr:stedsnr" v="416555" />
	</node>
	<node lat="62.13777777923394" lon="9.812211113947013" id="-11351">
		<tag k="name" v="Vintertjønne" />
		<tag k="natural" v="water" />
		<tag k="ssr:stedsnr" v="420665" />
	</node>
	<node lat="62.146394448923076" lon="9.894033336134042" id="-11368">
		<tag k="name" v="Lonaøyan" />
		<tag k="natural" v="cape" />
		<tag k="ssr:stedsnr" v="422566" />
	</node>
	<node lat="62.09490833137785" lon="10.100363889454178" id="-11373">
		<tag k="name" v="Killingholmen" />
		<tag k="place" v="islet" />
		<tag k="ssr:stedsnr" v="422077" />
	</node>
	<node lat="62.00485278194144" lon="9.993683329816108" id="-11376">
		<tag k="name" v="Dagrostjønne" />
		<tag k="natural" v="water" />
		<tag k="ssr:stedsnr" v="422249" />
	</node>
	<node lat="62.32897222190628" lon="9.843036118882978" id="-11383">
		<tag k="name" v="Naustvika" />
		<tag k="natural" v="bay" />
		<tag k="ssr:stedsnr" v="422874" />
	</node>
	<node lat="62.23280555934234" lon="9.762105563495487" id="-11390">
		<tag k="name" v="Borkhusbekken" />
		<tag k="ssr:stedsnr" v="435387" />
		<tag k="waterway" v="stream" />
	</node>
	<node lat="62.207025002288695" lon="10.023597222208837" id="-11391">
		<tag k="name" v="Fremre Glupbekken" />
		<tag k="ssr:stedsnr" v="435398" />
		<tag k="waterway" v="stream" />
	</node>
	<node lat="62.070938887369614" lon="10.179941674597428" id="-11399">
		<tag k="name" v="Stordøltjønne" />
		<tag k="natural" v="water" />
		<tag k="ssr:stedsnr" v="435426" />
	</node>
	<node lat="62.01697499992788" lon="10.067597221314388" id="-11402">
		<tag k="name" v="Stadsbubekken" />
		<tag k="ssr:stedsnr" v="435459" />
		<tag k="waterway" v="river" />
	</node>
	<node lat="62.190852778453106" lon="9.509019438877035" id="-11405">
		<tag k="name" v="Folla" />
		<tag k="ssr:stedsnr" v="435746" />
		<tag k="waterway" v="river" />
	</node>
	<node lat="62.21495000275464" lon="10.24087777440035" id="-11406">
		<tag k="name" v="Slettfjellbekken" />
		<tag k="ssr:stedsnr" v="436071" />
		<tag k="waterway" v="stream" />
	</node>
	<node lat="62.32246666761496" lon="10.041480550952727" id="-11409">
		<tag k="name" v="Ruphusbekken" />
		<tag k="ssr:stedsnr" v="436635" />
		<tag k="waterway" v="stream" />
	</node>
	<node lat="62.18084444121972" lon="9.664447212770202" id="-11413">
		<tag k="alt_name" v="Slåbekken" />
		<tag k="name" v="Slåsæterbekken" />
		<tag k="ssr:stedsnr" v="436696" />
		<tag k="waterway" v="stream" />
	</node>
	<node lat="62.26475832927222" lon="10.254738883830901" id="-11414">
		<tag k="name" v="Semmingsbekken" />
		<tag k="ssr:stedsnr" v="445321" />
		<tag k="waterway" v="river" />
	</node>
	<node lat="61.95901389197366" lon="10.052866674408028" id="-11415">
		<tag k="name" v="Storbekken" />
		<tag k="ssr:stedsnr" v="495615" />
		<tag k="waterway" v="stream" />
	</node>
	<node lat="62.16344999611801" lon="9.966950002806588" id="-11417">
		<tag k="name" v="Veslslågåbekken" />
		<tag k="ssr:stedsnr" v="496294" />
		<tag k="waterway" v="stream" />
	</node>
	<node lat="62.13051111399738" lon="9.796705553591991" id="-11419">
		<tag k="name" v="Fisketjønne" />
		<tag k="natural" v="water" />
		<tag k="ssr:stedsnr" v="496474" />
	</node>
	<node lat="62.21367500069274" lon="10.000611117569079" id="-11420">
		<tag k="name" v="Indre Glupbekken" />
		<tag k="ssr:stedsnr" v="496378" />
		<tag k="waterway" v="stream" />
	</node>
	<node lat="62.37639166893371" lon="10.207338891313231" id="-11425">
		<tag k="name" v="Gløta" />
		<tag k="ssr:stedsnr" v="496726" />
		<tag k="waterway" v="river" />
	</node>
	<node lat="62.30426111141796" lon="9.861541661487282" id="-11427">
		<tag k="name" v="Storbekken" />
		<tag k="ssr:stedsnr" v="497665" />
		<tag k="waterway" v="stream" />
	</node>
	<node lat="62.21649722224799" lon="9.707627772938668" id="-11429">
		<tag k="name" v="Baklitjønne" />
		<tag k="natural" v="water" />
		<tag k="ssr:stedsnr" v="507832" />
	</node>
	<node lat="62.04449444460843" lon="10.000380550793619" id="-11433">
		<tag k="name" v="Myrbekken" />
		<tag k="ssr:stedsnr" v="541137" />
		<tag k="waterway" v="stream" />
	</node>
	<node lat="62.36746666423127" lon="10.005636120093353" id="-11448">
		<tag k="name" v="Oksbekken" />
		<tag k="ssr:stedsnr" v="542636" />
		<tag k="waterway" v="stream" />
	</node>
	<node lat="62.151161109097835" lon="9.902036105267085" id="-11461">
		<tag k="name" v="Oksbekken" />
		<tag k="ssr:stedsnr" v="543556" />
		<tag k="waterway" v="stream" />
	</node>
	<node lat="62.13613055919724" lon="9.926733326591256" id="-11462">
		<tag k="name" v="Randabekken" />
		<tag k="ssr:stedsnr" v="543559" />
		<tag k="waterway" v="stream" />
	</node>
	<node lat="62.044147226292594" lon="9.975369452453752" id="-11464">
		<tag k="name" v="Kvunnolbekken" />
		<tag k="ssr:stedsnr" v="543739" />
		<tag k="waterway" v="stream" />
	</node>
	<node lat="62.136283336420895" lon="10.165541663263735" id="-11467">
		<tag k="name" v="Bubekken" />
		<tag k="ssr:stedsnr" v="543932" />
		<tag k="waterway" v="stream" />
	</node>
	<node lat="61.97043611505575" lon="10.017441671863065" id="-11468">
		<tag k="name" v="Killingodden" />
		<tag k="natural" v="cape" />
		<tag k="ssr:stedsnr" v="550438" />
	</node>
	<node lat="62.151502777265264" lon="9.778422224086194" id="-11474">
		<tag k="name" v="Buabekken" />
		<tag k="ssr:stedsnr" v="556346" />
		<tag k="waterway" v="stream" />
	</node>
	<node lat="62.1595000023848" lon="10.007350008274857" id="-11475">
		<tag k="name" v="Gorbekken" />
		<tag k="ssr:stedsnr" v="556354" />
		<tag k="waterway" v="stream" />
	</node>
	<node lat="62.197999995912824" lon="10.206352782072615" id="-11476">
		<tag k="name" v="Brøtbekken" />
		<tag k="ssr:stedsnr" v="556423" />
		<tag k="waterway" v="stream" />
	</node>
	<node lat="62.016752774507495" lon="10.019772228664415" id="-11486">
		<tag k="name" v="Grønholtjønne" />
		<tag k="natural" v="water" />
		<tag k="ssr:stedsnr" v="556452" />
	</node>
	<node lat="62.12370555848895" lon="9.824766664875732" id="-11487">
		<tag k="name" v="Veslgåsåe" />
		<tag k="ssr:stedsnr" v="556506" />
		<tag k="waterway" v="stream" />
	</node>
	<node lat="62.36798610698612" lon="10.048852775212842" id="-11493">
		<tag k="name" v="Oppdalsbukta" />
		<tag k="natural" v="bay" />
		<tag k="ssr:stedsnr" v="557677" />
	</node>
	<node lat="62.195441667375675" lon="10.350752780449527" id="-11498">
		<tag k="name" v="Veslesteitjønna" />
		<tag k="natural" v="water" />
		<tag k="ssr:stedsnr" v="598931" />
	</node>
	<node lat="62.090022221397255" lon="10.08949722346592" id="-11503">
		<tag k="name" v="Raudhåmårhølen" />
		<tag k="place" v="locality" />
		<tag k="ssr:stedsnr" v="602189" />
	</node>
	<node lat="62.085908329543884" lon="10.100433339309735" id="-11504">
		<tag k="name" v="Såtåbekken" />
		<tag k="ssr:stedsnr" v="602193" />
		<tag k="waterway" v="stream" />
	</node>
	<node lat="61.9982805580348" lon="10.00510000281828" id="-11516">
		<tag k="name" v="Rosenøytjønne" />
		<tag k="natural" v="water" />
		<tag k="ssr:stedsnr" v="603242" />
	</node>
	<node lat="62.11308610803646" lon="10.066774996627538" id="-11517">
		<tag k="name" v="Kjørtjønne" />
		<tag k="natural" v="water" />
		<tag k="ssr:stedsnr" v="604049" />
	</node>
	<node lat="62.144208332634534" lon="10.168213886314875" id="-11527">
		<tag k="name" v="Grimsosen" />
		<tag k="natural" v="bay" />
		<tag k="ssr:stedsnr" v="604931" />
	</node>
	<node lat="62.22817777717744" lon="10.239519452031347" id="-11531">
		<tag k="alt_name" v="Bjørntjørna" />
		<tag k="name" v="Bjønntjønna" />
		<tag k="natural" v="water" />
		<tag k="ssr:stedsnr" v="617121" />
	</node>
	<node lat="62.04920277696776" lon="10.008005558965676" id="-11535">
		<tag k="name" v="Sagtjønne" />
		<tag k="natural" v="water" />
		<tag k="ssr:stedsnr" v="617428" />
	</node>
	<node lat="62.20003610942643" lon="9.884236105603028" id="-11541">
		<tag k="name" v="Myrbærsbekken" />
		<tag k="old_name" v="Myrboersbekken" />
		<tag k="ssr:stedsnr" v="617372" />
		<tag k="waterway" v="stream" />
	</node>
	<node lat="62.190972221022" lon="10.141027786873346" id="-11557">
		<tag k="name" v="Langbekken" />
		<tag k="ssr:stedsnr" v="663049" />
		<tag k="waterway" v="stream" />
	</node>
	<node lat="62.04573333538137" lon="10.01086389545593" id="-11561">
		<tag k="name" v="Vermbekken" />
		<tag k="ssr:stedsnr" v="663220" />
		<tag k="waterway" v="stream" />
	</node>
	<node lat="61.98181111167409" lon="10.025325008054498" id="-11563">
		<tag k="name" v="Turrøyan" />
		<tag k="natural" v="cape" />
		<tag k="ssr:stedsnr" v="663295" />
	</node>
	<node lat="61.96610833765659" lon="10.020458330638858" id="-11566">
		<tag k="name" v="Hesteskotjønne" />
		<tag k="natural" v="water" />
		<tag k="ssr:stedsnr" v="663429" />
	</node>
	<node lat="61.95938333624145" lon="10.012625007211595" id="-11575">
		<tag k="name" v="Monsetodden" />
		<tag k="natural" v="cape" />
		<tag k="ssr:stedsnr" v="664378" />
	</node>
	<node lat="62.28828333453962" lon="10.109386105573297" id="-11580">
		<tag k="name" v="Vesløya" />
		<tag k="place" v="islet" />
		<tag k="ssr:stedsnr" v="665212" />
	</node>
	<node lat="62.11200833414469" lon="10.068733342097396" id="-11582">
		<tag k="name" v="Kjørdalstjønne" />
		<tag k="natural" v="water" />
		<tag k="ssr:stedsnr" v="665057" />
	</node>
	<node lat="62.2127944460996" lon="10.28560000659256" id="-11586">
		<tag k="name" v="Damtjønna" />
		<tag k="natural" v="water" />
		<tag k="ssr:stedsnr" v="665460" />
	</node>
	<node lat="62.04359166997814" lon="9.981977779494681" id="-11591">
		<tag k="name" v="Svartholtjønne" />
		<tag k="natural" v="water" />
		<tag k="ssr:stedsnr" v="665772" />
	</node>
	<node lat="62.16555000455492" lon="10.302724993902505" id="-11594">
		<tag k="name" v="Myrbekken" />
		<tag k="ssr:stedsnr" v="720078" />
		<tag k="waterway" v="stream" />
	</node>
	<node lat="62.045969442994675" lon="9.997497217370766" id="-11600">
		<tag k="name" v="Fisketjønne" />
		<tag k="natural" v="water" />
		<tag k="ssr:stedsnr" v="723216" />
	</node>
	<node lat="62.04482777343905" lon="9.99010834251493" id="-11601">
		<tag k="name" v="Jordtjønne" />
		<tag k="natural" v="water" />
		<tag k="ssr:stedsnr" v="723221" />
	</node>
	<node lat="61.97640278108686" lon="10.013947215155655" id="-11603">
		<tag k="name" v="Storrustbekken" />
		<tag k="ssr:stedsnr" v="724291" />
		<tag k="waterway" v="stream" />
	</node>
	<node lat="61.971622224716924" lon="10.00917778308137" id="-11604">
		<tag k="name" v="Kråktjønnbekken" />
		<tag k="ssr:stedsnr" v="724293" />
		<tag k="waterway" v="stream" />
	</node>
	<node lat="62.01193055404434" lon="10.012588893053048" id="-11606">
		<tag k="name" v="Krokbekken" />
		<tag k="ssr:stedsnr" v="724347" />
		<tag k="waterway" v="stream" />
	</node>
	<node lat="62.211391664031424" lon="9.754780559157071" id="-11608">
		<tag k="name" v="Borkhusbekken" />
		<tag k="ssr:stedsnr" v="723752" />
		<tag k="waterway" v="stream" />
	</node>
	<node lat="62.12750555208718" lon="10.006841664591677" id="-11612">
		<tag k="name" v="Vadkroken" />
		<tag k="natural" v="water" />
		<tag k="ssr:stedsnr" v="724093" />
	</node>
	<node lat="62.23842499976122" lon="10.203094451345159" id="-11614">
		<tag k="name" v="Krokbekken" />
		<tag k="ssr:stedsnr" v="724163" />
		<tag k="waterway" v="stream" />
	</node>
	<node lat="62.124608335355376" lon="10.211805550000674" id="-11619">
		<tag k="name" v="Klebergruvtjønna" />
		<tag k="natural" v="water" />
		<tag k="ssr:stedsnr" v="724945" />
	</node>
	<node lat="62.11717778032268" lon="10.145716664968031" id="-11620">
		<tag k="name" v="Hestskotjønna" />
		<tag k="natural" v="water" />
		<tag k="ssr:stedsnr" v="724948" />
	</node>
	<node lat="61.942558329424514" lon="10.02143610456265" id="-11625">
		<tag k="name" v="Djuptjønne" />
		<tag k="natural" v="water" />
		<tag k="ssr:stedsnr" v="725370" />
	</node>
	<node lat="62.226388892621785" lon="10.025883326878072" id="-11630">
		<tag k="name" v="Midtlibekken" />
		<tag k="ssr:stedsnr" v="725486" />
		<tag k="waterway" v="stream" />
	</node>
	<node lat="62.05758611131576" lon="10.089827778890488" id="-11633">
		<tag k="name" v="Mjovassbekken" />
		<tag k="ssr:stedsnr" v="726224" />
		<tag k="waterway" v="stream" />
	</node>
	<node lat="62.32677222133472" lon="10.031261115396973" id="-11638">
		<tag k="name" v="Mela" />
		<tag k="ssr:stedsnr" v="739667" />
		<tag k="waterway" v="stream" />
	</node>
	<node lat="62.37292777659171" lon="10.067177770961994" id="-11641">
		<tag k="name" v="Sandtjørnbekken" />
		<tag k="ssr:stedsnr" v="739686" />
		<tag k="waterway" v="stream" />
	</node>
	<node lat="62.224275003656764" lon="9.940372228510688" id="-11642">
		<tag k="name" v="Fremre Kluftbekken" />
		<tag k="ssr:stedsnr" v="738343" />
		<tag k="waterway" v="stream" />
	</node>
	<node lat="62.078833331690504" lon="10.055297222417652" id="-11647">
		<tag k="name" v="Grimse" />
		<tag k="ssr:stedsnr" v="738380" />
		<tag k="waterway" v="river" />
	</node>
	<node lat="62.058947225561546" lon="9.91949443655044" id="-11648">
		<tag k="name" v="Svartdalsbekken" />
		<tag k="ssr:stedsnr" v="738384" />
		<tag k="waterway" v="stream" />
	</node>
	<node lat="62.23454999970459" lon="9.699258342032147" id="-11649">
		<tag k="name" v="Kvita" />
		<tag k="ssr:stedsnr" v="738485" />
		<tag k="waterway" v="river" />
	</node>
	<node lat="62.136147222160936" lon="9.809358329687235" id="-11656">
		<tag k="name" v="Storgåsåe" />
		<tag k="ssr:stedsnr" v="739442" />
		<tag k="waterway" v="stream" />
	</node>
	<node lat="62.137311109998954" lon="9.943580560612654" id="-11657">
		<tag k="name" v="Kvannløken" />
		<tag k="place" v="locality" />
		<tag k="ssr:stedsnr" v="739446" />
	</node>
	<node lat="62.12899722317551" lon="10.17046389817766" id="-11659">
		<tag k="name" v="Sagbekken" />
		<tag k="ssr:stedsnr" v="739459" />
		<tag k="waterway" v="stream" />
	</node>
	<node lat="62.357505555496545" lon="9.911624990908651" id="-11669">
		<tag k="name" v="Fundin" />
		<tag k="natural" v="water" />
		<tag k="ssr:stedsnr" v="739689" />
		<tag k="water" v="lake" />
	</node>
	<node lat="62.2856250040676" lon="9.828533332647316" id="-11670">
		<tag k="name" v="Råtåsjøbekken" />
		<tag k="ssr:stedsnr" v="740668" />
		<tag k="waterway" v="stream" />
	</node>
	<node lat="62.19897500345377" lon="10.308619454155846" id="-11680">
		<tag k="name" v="Fossan" />
		<tag k="natural" v="waterfall" />
		<tag k="ssr:stedsnr" v="784356" />
	</node>
	<node lat="62.16719166758179" lon="9.778472222513809" id="-11681">
		<tag k="name" v="Salmakerbekken" />
		<tag k="ssr:stedsnr" v="784808" />
		<tag k="waterway" v="stream" />
	</node>
	<node lat="62.135069444496075" lon="9.943572219600323" id="-11683">
		<tag k="name" v="Kvannøybekken" />
		<tag k="ssr:stedsnr" v="784591" />
		<tag k="waterway" v="stream" />
	</node>
	<node lat="61.92751111065859" lon="10.046875004218185" id="-11696">
		<tag k="name" v="Govassbekken" />
		<tag k="ssr:stedsnr" v="786436" />
		<tag k="waterway" v="stream" />
	</node>
	<node lat="62.09082500308016" lon="9.960480562878496" id="-11700">
		<tag k="name" v="Skriubekken" />
		<tag k="ssr:stedsnr" v="786558" />
		<tag k="waterway" v="stream" />
	</node>
	<node lat="62.20495832926081" lon="10.058252777643997" id="-11708">
		<tag k="name" v="Fløthølen" />
		<tag k="place" v="locality" />
		<tag k="ssr:stedsnr" v="786618" />
	</node>
	<node lat="62.15421666991395" lon="10.155583330643136" id="-11709">
		<tag k="name" v="Kvennbekken" />
		<tag k="ssr:stedsnr" v="786935" />
		<tag k="waterway" v="stream" />
	</node>
	<node lat="61.92997222307744" lon="9.948869439565723" id="-11721">
		<tag k="name" v="Veslmyldinge" />
		<tag k="ssr:stedsnr" v="799679" />
		<tag k="waterway" v="stream" />
	</node>
	<node lat="62.20817778137622" lon="9.907725009632777" id="-11733">
		<tag k="name" v="Svartbekken" />
		<tag k="ssr:stedsnr" v="799355" />
		<tag k="waterway" v="stream" />
	</node>
	<node lat="62.1493555552286" lon="10.268836103623762" id="-11735">
		<tag k="alt_name" v="Ryskarbekken" />
		<tag k="name" v="Ryskardbekken" />
		<tag k="ssr:stedsnr" v="800055" />
		<tag k="waterway" v="stream" />
	</node>
	<node lat="62.18540278144948" lon="9.593636102508382" id="-11738">
		<tag k="name" v="Tåteftbekken" />
		<tag k="ssr:stedsnr" v="799755" />
		<tag k="waterway" v="stream" />
	</node>
	<node lat="62.10971944477097" lon="10.023736107364229" id="-11742">
		<tag k="alt_name" v="Mellombekken" />
		<tag k="name" v="Mellomsbekken" />
		<tag k="ssr:stedsnr" v="800473" />
		<tag k="waterway" v="stream" />
	</node>
	<node lat="62.388208334813356" lon="10.078475000049814" id="-11743">
		<tag k="name" v="Veslbekken" />
		<tag k="ssr:stedsnr" v="800700" />
		<tag k="waterway" v="stream" />
	</node>
	<node lat="62.27524722365237" lon="10.188450001719216" id="-11744">
		<tag k="name" v="Klemetbekken" />
		<tag k="ssr:stedsnr" v="800639" />
		<tag k="waterway" v="stream" />
	</node>
	<node lat="62.28347499568952" lon="10.049361119935865" id="-11748">
		<tag k="alt_name" v="Skjeftslågåbekken" />
		<tag k="name" v="Slågåbekken" />
		<tag k="ssr:stedsnr" v="800667" />
		<tag k="waterway" v="stream" />
	</node>
	<node lat="62.200080552471846" lon="10.327488884558319" id="-11764">
		<tag k="name" v="Vesleøybekken" />
		<tag k="ssr:stedsnr" v="846316" />
		<tag k="waterway" v="stream" />
	</node>
	<node lat="62.058197223964015" lon="10.089908338177755" id="-11780">
		<tag k="name" v="Svarthølen" />
		<tag k="place" v="locality" />
		<tag k="ssr:stedsnr" v="847224" />
	</node>
	<node lat="61.94593611389297" lon="10.013527778898007" id="-11786">
		<tag k="name" v="Søre Rånåbuodden" />
		<tag k="natural" v="cape" />
		<tag k="ssr:stedsnr" v="847441" />
	</node>
	<node lat="62.06449722334939" lon="9.934533329065983" id="-11792">
		<tag k="name" v="Øvre Fallfossen" />
		<tag k="natural" v="waterfall" />
		<tag k="ssr:stedsnr" v="847756" />
	</node>
	<node lat="62.098550002837726" lon="10.115913892059295" id="-11795">
		<tag k="name" v="Øvre Stohølen" />
		<tag k="place" v="locality" />
		<tag k="ssr:stedsnr" v="847952" />
	</node>
	<node lat="62.171502775601574" lon="9.926000005618304" id="-11799">
		<tag k="name" v="Lonabekken" />
		<tag k="ssr:stedsnr" v="860327" />
		<tag k="waterway" v="stream" />
	</node>
	<node lat="62.140824997457194" lon="10.229366662320222" id="-11808">
		<tag k="name" v="Veslsæterbekken" />
		<tag k="ssr:stedsnr" v="861039" />
		<tag k="waterway" v="stream" />
	</node>
	<node lat="62.323100002632074" lon="9.867349994138415" id="-11812">
		<tag k="name" v="Langsjøen" />
		<tag k="natural" v="water" />
		<tag k="ssr:stedsnr" v="861623" />
	</node>
	<node lat="62.26143333018404" lon="9.83320277288467" id="-11817">
		<tag k="name" v="Depltjørnin" />
		<tag k="natural" v="water" />
		<tag k="ssr:stedsnr" v="861600" />
		<tag k="water" v="lake" />
	</node>
	<node lat="62.38045832984088" lon="10.067213895783373" id="-11819">
		<tag k="name" v="Sandtjønna" />
		<tag k="natural" v="water" />
		<tag k="ssr:stedsnr" v="861656" />
	</node>
	<node lat="62.28958333605629" lon="10.149111117797174" id="-11820">
		<tag k="alt_name" v="Kløftebekken" />
		<tag k="name" v="Kløftesbekken" />
		<tag k="ssr:stedsnr" v="861651" />
		<tag k="waterway" v="stream" />
	</node>
	<node lat="62.22201111060728" lon="9.682758326128626" id="-11822">
		<tag k="name" v="Pusskorntjønne" />
		<tag k="natural" v="water" />
		<tag k="ssr:stedsnr" v="872838" />
	</node>
	<node lat="62.13134721881557" lon="10.022908332292209" id="-11824">
		<tag k="name" v="Svenskbekken" />
		<tag k="ssr:stedsnr" v="944104" />
		<tag k="waterway" v="stream" />
	</node>
	<node lat="61.917024999731915" lon="10.064369450363031" id="-11826">
		<tag k="name" v="Merratjønne" />
		<tag k="natural" v="water" />
		<tag k="ssr:stedsnr" v="962580" />
	</node>
	<node lat="61.97196111219787" lon="10.037180549182834" id="-11835">
		<tag k="name" v="Stampbekken" />
		<tag k="ssr:stedsnr" v="966479" />
		<tag k="waterway" v="stream" />
	</node>
	<node lat="62.123469448158126" lon="9.801927775305794" id="-11836">
		<tag k="name" v="Fisketjønnbekken" />
		<tag k="ssr:stedsnr" v="966651" />
		<tag k="waterway" v="stream" />
	</node>
	<node lat="62.13247500442632" lon="9.910533329263911" id="-11842">
		<tag k="name" v="Veslebekken" />
		<tag k="ssr:stedsnr" v="967517" />
		<tag k="waterway" v="stream" />
	</node>
	<node lat="62.054644442685614" lon="10.086483329327336" id="-11847">
		<tag k="name" v="Vesleengbekken" />
		<tag k="ssr:stedsnr" v="968265" />
		<tag k="waterway" v="stream" />
	</node>
	<node lat="62.21725277494091" lon="10.284727771169804" id="-11848">
		<tag k="name" v="Stortjønna" />
		<tag k="natural" v="water" />
		<tag k="ssr:stedsnr" v="968425" />
	</node>
	<node lat="62.073350002480254" lon="9.94354444596342" id="-11853">
		<tag k="name" v="Storbekken" />
		<tag k="ssr:stedsnr" v="968546" />
		<tag k="waterway" v="stream" />
	</node>
	<node lat="62.0820861113048" lon="9.966916666920723" id="-11854">
		<tag k="name" v="Lomtjønne" />
		<tag k="natural" v="water" />
		<tag k="ssr:stedsnr" v="968551" />
	</node>
	<node lat="62.093622221893334" lon="9.97970554624437" id="-11858">
		<tag k="name" v="Turaren" />
		<tag k="ssr:stedsnr" v="968561" />
		<tag k="waterway" v="stream" />
	</node>
	<node lat="62.143638890349145" lon="9.901702787309228" id="-11860">
		<tag k="name" v="Sauhølen" />
		<tag k="place" v="locality" />
		<tag k="ssr:stedsnr" v="968576" />
	</node>
	<node lat="62.14436110724928" lon="9.900744439770136" id="-11861">
		<tag k="name" v="Lonakroken" />
		<tag k="natural" v="cape" />
		<tag k="ssr:stedsnr" v="968579" />
	</node>
	<node lat="62.28751389232241" lon="10.098302773195016" id="-11865">
		<tag k="name" v="Stråmhugu" />
		<tag k="place" v="locality" />
		<tag k="ssr:stedsnr" v="968752" />
	</node>
</osm>
