<?xml version="1.0" encoding="UTF-8"?>
<osm version="0.6" generator="osmapis">
	<node lat="62.21633055801514" lon="9.720866660994414" id="-21250">
		<tag k="fixme" v="consider highway=path" />
		<tag k="highway" v="track" />
		<tag k="name" v="Baklivegen" />
		<tag k="ssr:stedsnr" v="56984" />
	</node>
	<node lat="62.13509999914314" lon="10.26430832605037" id="-21255">
		<tag k="alt_name" v="Gamle Folldalsvegen - Haustdalsvegen;Gamle Haustdalsvegen" />
		<tag k="fixme" v="consider highway=path" />
		<tag k="highway" v="track" />
		<tag k="name" v="Haustdalsvegen" />
		<tag k="ssr:stedsnr" v="58217" />
	</node>
	<node lat="62.133647224446996" lon="10.056133332608832" id="-21256">
		<tag k="fixme" v="consider highway=path" />
		<tag k="highway" v="track" />
		<tag k="name" v="Malmvegen" />
		<tag k="ssr:stedsnr" v="58111" />
	</node>
	<node lat="61.935827777819036" lon="10.040977776208813" id="-21277">
		<tag k="fixme" v="consider highway=path" />
		<tag k="highway" v="track" />
		<tag k="name" v="Gamle Atnedalsvegen" />
		<tag k="ssr:stedsnr" v="240439" />
	</node>
	<node lat="62.004691669712095" lon="9.955663888226894" id="-21404">
		<tag k="highway" v="path" />
		<tag k="name" v="Rondvegen" />
		<tag k="ssr:stedsnr" v="179656" />
	</node>
	<node lat="62.308327777981475" lon="9.908402773919397" id="-21439">
		<tag k="fixme" v="consider highway=path" />
		<tag k="highway" v="track" />
		<tag k="name" v="Gamle Fonnvegen" />
		<tag k="ssr:stedsnr" v="240887" />
	</node>
	<node lat="62.090738888320445" lon="10.040094442522353" id="-21463">
		<tag k="highway" v="path" />
		<tag k="name" v="Sætervegen" />
		<tag k="ssr:stedsnr" v="299187" />
	</node>
	<node lat="61.97933610841835" lon="10.00829166849248" id="-21466">
		<tag k="highway" v="path" />
		<tag k="name" v="Sætervegen" />
		<tag k="ssr:stedsnr" v="299328" />
	</node>
	<node lat="62.16299999744252" lon="9.771944446517765" id="-21468">
		<tag k="name" v="Skreddarvelta" />
		<tag k="place" v="locality" />
		<tag k="ssr:stedsnr" v="299810" />
	</node>
	<node lat="62.16363888491124" lon="9.870344451752148" id="-21472">
		<tag k="highway" v="path" />
		<tag k="name" v="Holvegen" />
		<tag k="ssr:stedsnr" v="300577" />
	</node>
	<node lat="62.17818333374478" lon="10.18076389477465" id="-21474">
		<tag k="highway" v="path" />
		<tag k="name" v="Måsåvegen" />
		<tag k="ssr:stedsnr" v="301023" />
	</node>
	<node lat="62.188363888803835" lon="10.061766668688556" id="-21479">
		<tag k="fixme" v="consider highway=path" />
		<tag k="highway" v="track" />
		<tag k="name" v="Krokotvegen" />
		<tag k="ssr:stedsnr" v="301575" />
	</node>
	<node lat="62.26388333224708" lon="10.345483328224017" id="-21518">
		<tag k="ford" v="yes" />
		<tag k="name" v="Storsteinvadet" />
		<tag k="place" v="locality" />
		<tag k="ssr:stedsnr" v="477096" />
	</node>
	<node lat="62.16673333220499" lon="9.79063611090282" id="-21555">
		<tag k="highway" v="path" />
		<tag k="name" v="Tøfthaugvegen" />
		<tag k="ssr:stedsnr" v="481787" />
	</node>
	<node lat="62.01107777780253" lon="9.95878610453577" id="-21579">
		<tag k="man_made" v="cairn" />
		<tag k="name" v="Storvarden" />
		<tag k="place" v="locality" />
		<tag k="ssr:stedsnr" v="483700" />
	</node>
	<node lat="62.308327777981475" lon="9.908402773919397" id="-21581">
		<tag k="highway" v="path" />
		<tag k="name" v="Borkhusvegen" />
		<tag k="ssr:stedsnr" v="483893" />
	</node>
	<node lat="62.174741663316965" lon="9.75065278408586" id="-21662">
		<tag k="highway" v="path" />
		<tag k="name" v="Storlivegen" />
		<tag k="ssr:stedsnr" v="481802" />
	</node>
	<node lat="62.2044888920077" lon="9.74428055293913" id="-21669">
		<tag k="highway" v="path" />
		<tag k="name" v="Storskarråket" />
		<tag k="ssr:stedsnr" v="481976" />
	</node>
	<node lat="62.16189444601914" lon="10.063802776152315" id="-21680">
		<tag k="highway" v="path" />
		<tag k="name" v="Brandsnesvegen" />
		<tag k="ssr:stedsnr" v="483605" />
	</node>
	<node lat="62.131674997241156" lon="10.026672222281924" id="-21759">
		<tag k="bridge" v="yes" />
		<tag k="layer" v="1" />
		<tag k="name" v="Storbekken bru" />
		<tag k="ssr:stedsnr" v="592362" />
	</node>
	<node lat="62.18976944571338" lon="9.720997226909315" id="-21780">
		<tag k="alt_name" v="Gammel Folldalsveg" />
		<tag k="fixme" v="consider highway=path" />
		<tag k="highway" v="track" />
		<tag k="name" v="Gamle Folldalsvegen" />
		<tag k="ssr:stedsnr" v="602966" />
	</node>
	<node lat="62.109955558026634" lon="10.124497229358827" id="-21836">
		<tag k="ford" v="yes" />
		<tag k="name" v="Vadråvån" />
		<tag k="place" v="locality" />
		<tag k="ssr:stedsnr" v="663940" />
	</node>
	<node lat="62.1354583343263" lon="9.975908341651825" id="-21885">
		<tag k="bridge" v="yes" />
		<tag k="layer" v="1" />
		<tag k="name" v="Hyttebekk" />
		<tag k="ssr:stedsnr" v="896372" />
	</node>
	<node lat="62.16082499567896" lon="9.847791667515292" id="-21886">
		<tag k="bridge" v="yes" />
		<tag k="layer" v="1" />
		<tag k="loc_name" v="Kroktjønnsbekkbrue" />
		<tag k="name" v="Kroktjernbekk" />
		<tag k="ssr:stedsnr" v="714311" />
	</node>
	<node lat="62.14762222170638" lon="10.221563891764552" id="-21887">
		<tag k="fixme" v="consider highway=path" />
		<tag k="highway" v="track" />
		<tag k="name" v="Gamle Haustdalsvegen" />
		<tag k="ssr:stedsnr" v="723119" />
	</node>
	<node lat="62.01161666871356" lon="9.955297231054407" id="-21901">
		<tag k="highway" v="path" />
		<tag k="name" v="Storrustvegen" />
		<tag k="ssr:stedsnr" v="725617" />
	</node>
	<node lat="62.29341388597524" lon="10.049291661594077" id="-21904">
		<tag k="highway" v="path" />
		<tag k="name" v="Langhøvegen" />
		<tag k="ssr:stedsnr" v="725677" />
	</node>
	<node lat="62.318947225481864" lon="9.969738884936318" id="-21908">
		<tag k="ford" v="yes" />
		<tag k="name" v="Småbakkvadet" />
		<tag k="place" v="locality" />
		<tag k="ssr:stedsnr" v="725877" />
	</node>
	<node lat="62.032805556769844" lon="9.970547225638109" id="-21922">
		<tag k="highway" v="path" />
		<tag k="name" v="Gjelbruvegen" />
		<tag k="ssr:stedsnr" v="735709" />
	</node>
	<node lat="62.164652778321056" lon="9.742475006403348" id="-21965">
		<tag k="highway" v="path" />
		<tag k="name" v="Gautstigen" />
		<tag k="ssr:stedsnr" v="906823" />
	</node>
	<node lat="62.19234444201669" lon="10.099613897157626" id="-21976">
		<tag k="ford" v="yes" />
		<tag k="name" v="Stakstovadet" />
		<tag k="place" v="locality" />
		<tag k="ssr:stedsnr" v="908621" />
	</node>
	<node lat="62.00852221822065" lon="9.955680560552903" id="-21985">
		<tag k="highway" v="path" />
		<tag k="name" v="Nedre Sætervegen" />
		<tag k="ssr:stedsnr" v="908703" />
	</node>
	<node lat="62.31221944300035" lon="9.862944453933123" id="-21987">
		<tag k="highway" v="path" />
		<tag k="name" v="Vesleskreddarvegen" />
		<tag k="ssr:stedsnr" v="908894" />
	</node>
	<node lat="62.332816670299096" lon="9.875497224236597" id="-22109">
		<tag k="highway" v="path" />
		<tag k="name" v="Klemvegen" />
		<tag k="ssr:stedsnr" v="847875" />
	</node>
	<node lat="62.31733888460037" lon="9.891727771683692" id="-22110">
		<tag k="highway" v="path" />
		<tag k="name" v="Trondhjemsråket" />
		<tag k="ssr:stedsnr" v="847877" />
	</node>
	<node lat="62.03935555196472" lon="9.922494448096733" id="-22149">
		<tag k="highway" v="path" />
		<tag k="name" v="Til Dørålsvegen" />
		<tag k="ssr:stedsnr" v="901302" />
	</node>
	<node lat="62.06637221958715" lon="9.939191669535697" id="-22157">
		<tag k="highway" v="path" />
		<tag k="name" v="Fossvegen" />
		<tag k="ssr:stedsnr" v="906800" />
	</node>
	<node lat="61.93286389119708" lon="10.075666663166853" id="-22162">
		<tag k="highway" v="path" />
		<tag k="name" v="Dølavegen" />
		<tag k="ssr:stedsnr" v="908453" />
	</node>
	<node lat="62.31568888879093" lon="9.967563891260417" id="-22170">
		<tag k="highway" v="path" />
		<tag k="name" v="Småbakkvegen" />
		<tag k="ssr:stedsnr" v="908908" />
	</node>
	<node lat="62.323977780604" lon="9.94118055891253" id="-22215">
		<tag k="fixme" v="consider highway=path" />
		<tag k="highway" v="track" />
		<tag k="name" v="Gamle Døllivegen" />
		<tag k="ssr:stedsnr" v="968894" />
	</node>
	<node lat="62.116158335663044" lon="10.102955558324025" id="-22267">
		<tag k="aeroway" v="airstrip" />
		<tag k="name" v="Folldal flyplass" />
		<tag k="ssr:stedsnr" v="58026" />
	</node>
	<node lat="62.181994441689554" lon="9.875300001210006" id="-22276">
		<tag k="highway" v="path" />
		<tag k="name" v="Kakeldalsvegen" />
		<tag k="ssr:stedsnr" v="58455" />
	</node>
	<node lat="62.0964694402315" lon="9.976344448208096" id="-22313">
		<tag k="bridge" v="yes" />
		<tag k="layer" v="1" />
		<tag k="name" v="Streitlibekk" />
		<tag k="ssr:stedsnr" v="107344" />
	</node>
	<node lat="62.100894448558286" lon="9.98743612046784" id="-22314">
		<tag k="bridge" v="yes" />
		<tag k="layer" v="1" />
		<tag k="name" v="Søndre Slettebekk bru" />
		<tag k="ssr:stedsnr" v="107349" />
	</node>
	<node lat="62.23720000110564" lon="10.271205550147267" id="-22395">
		<tag k="highway" v="path" />
		<tag k="name" v="Gamle Trondheimsvegen" />
		<tag k="ssr:stedsnr" v="179267" />
	</node>
	<node lat="62.15833888630278" lon="10.176447228498093" id="-22460">
		<tag k="bridge" v="yes" />
		<tag k="layer" v="1" />
		<tag k="name" v="Kakhella flomløp" />
		<tag k="ssr:stedsnr" v="289352" />
	</node>
	<node lat="62.28910832903768" lon="10.321430561931313" id="-22462">
		<tag k="highway" v="path" />
		<tag k="name" v="Byvegen" />
		<tag k="ssr:stedsnr" v="295118" />
	</node>
	<node lat="62.251599999261806" lon="10.305166660916155" id="-22529">
		<tag k="highway" v="path" />
		<tag k="name" v="Tælvegen" />
		<tag k="ssr:stedsnr" v="355087" />
	</node>
	<node lat="62.18097777356701" lon="9.64469722320946" id="-22541">
		<tag k="highway" v="path" />
		<tag k="name" v="Tjønnråket" />
		<tag k="ssr:stedsnr" v="359978" />
	</node>
	<node lat="62.203094445572624" lon="9.657188889072074" id="-22556">
		<tag k="highway" v="path" />
		<tag k="name" v="Øyaråket" />
		<tag k="ssr:stedsnr" v="360997" />
	</node>
	<node lat="62.22959999841862" lon="10.265511109886086" id="-22566">
		<tag k="highway" v="path" />
		<tag k="name" v="Byvegen" />
		<tag k="ssr:stedsnr" v="361303" />
	</node>
	<node lat="62.104319442423076" lon="9.966594440932296" id="-22579">
		<tag k="highway" v="path" />
		<tag k="name" v="Midtvegen" />
		<tag k="ssr:stedsnr" v="361572" />
	</node>
	<node lat="62.170811108600624" lon="10.072591663125037" id="-22581">
		<tag k="fixme" v="consider highway=path" />
		<tag k="highway" v="track" />
		<tag k="name" v="Flovegen" />
		<tag k="ssr:stedsnr" v="361594" />
	</node>
	<node lat="62.231302780076355" lon="10.34210278516572" id="-22621">
		<tag k="landuse" v="industrial" />
		<tag k="name" v="Einunna kraftverk" />
		<tag k="power" v="plant" />
		<tag k="ssr:stedsnr" v="416073" />
	</node>
	<node lat="62.19746388989231" lon="9.71038889669252" id="-22631">
		<tag k="highway" v="path" />
		<tag k="name" v="Kvennråket" />
		<tag k="ssr:stedsnr" v="420984" />
	</node>
	<node lat="62.13672499661386" lon="9.909883328948224" id="-22643">
		<tag k="highway" v="path" />
		<tag k="name" v="Lonavegen" />
		<tag k="ssr:stedsnr" v="422556" />
	</node>
	<node lat="62.02894999676156" lon="9.970986112314598" id="-22657">
		<tag k="bridge" v="yes" />
		<tag k="layer" v="1" />
		<tag k="name" v="Gjelbrue" />
		<tag k="ssr:stedsnr" v="422755" />
	</node>
	<node lat="62.058297221446786" lon="9.922169437461468" id="-22707">
		<tag k="highway" v="path" />
		<tag k="name" v="Fallet" />
		<tag k="ssr:stedsnr" v="536285" />
	</node>
	<node lat="62.145094447399444" lon="10.074463883346047" id="-22711">
		<tag k="highway" v="path" />
		<tag k="name" v="Brandsnessætervegen" />
		<tag k="ssr:stedsnr" v="541650" />
	</node>
	<node lat="62.17240833176445" lon="10.20754445324176" id="-22712">
		<tag k="name" v="Velte" />
		<tag k="place" v="locality" />
		<tag k="ssr:stedsnr" v="542031" />
	</node>
	<node lat="61.950713888367254" lon="10.02307778598221" id="-22721">
		<tag k="highway" v="path" />
		<tag k="name" v="Millomvegen" />
		<tag k="ssr:stedsnr" v="543410" />
	</node>
	<node lat="62.33816388889237" lon="9.988866675649977" id="-22722">
		<tag k="fixme" v="consider highway=path" />
		<tag k="highway" v="track" />
		<tag k="name" v="Gammelvegen" />
		<tag k="ssr:stedsnr" v="542616" />
	</node>
	<node lat="62.19213055527503" lon="9.788197216559373" id="-22772">
		<tag k="bridge" v="yes" />
		<tag k="layer" v="1" />
		<tag k="name" v="Eide bru" />
		<tag k="ssr:stedsnr" v="592384" />
	</node>
	<node lat="62.15358333591265" lon="10.063080550131408" id="-22786">
		<tag k="highway" v="path" />
		<tag k="name" v="Gamle Klettsætervegen" />
		<tag k="ssr:stedsnr" v="602632" />
	</node>
	<node lat="62.009833334699834" lon="9.96416388230335" id="-22801">
		<tag k="man_made" v="cairn" />
		<tag k="name" v="Veslevarden" />
		<tag k="place" v="locality" />
		<tag k="ssr:stedsnr" v="604698" />
	</node>
	<node lat="62.20335277676979" lon="10.064091668168386" id="-22855">
		<tag k="ford" v="yes" />
		<tag k="name" v="Liavadet" />
		<tag k="place" v="locality" />
		<tag k="ssr:stedsnr" v="664571" />
	</node>
	<node lat="62.13913611505042" lon="9.872355557920441" id="-22907">
		<tag k="highway" v="path" />
		<tag k="name" v="Hovdavegen" />
		<tag k="ssr:stedsnr" v="725490" />
	</node>
	<node lat="62.12737222648303" lon="9.85773610226675" id="-22908">
		<tag k="name" v="Varmvelta" />
		<tag k="place" v="locality" />
		<tag k="ssr:stedsnr" v="725572" />
	</node>
	<node lat="62.192911112201884" lon="10.084275003034906" id="-22913">
		<tag k="highway" v="path" />
		<tag k="name" v="Haustdalsvegen" />
		<tag k="ssr:stedsnr" v="726621" />
	</node>
	<node lat="62.04115277944689" lon="9.90297223162998" id="-22950">
		<tag k="highway" v="path" />
		<tag k="name" v="Til Dørålsråket" />
		<tag k="ssr:stedsnr" v="779322" />
	</node>
	<node lat="62.20102500121892" lon="10.08831110321896" id="-22982">
		<tag k="highway" v="path" />
		<tag k="name" v="Bustadvegen" />
		<tag k="ssr:stedsnr" v="786598" />
	</node>
	<node lat="62.32233611511099" lon="9.938269440721857" id="-22988">
		<tag k="ford" v="yes" />
		<tag k="name" v="Borkhusvadet" />
		<tag k="place" v="locality" />
		<tag k="ssr:stedsnr" v="786884" />
	</node>
	<node lat="62.21860278115748" lon="9.682227778436772" id="-23033">
		<tag k="fixme" v="consider highway=path" />
		<tag k="highway" v="track" />
		<tag k="name" v="Kvitdalsvegen" />
		<tag k="ssr:stedsnr" v="845974" />
	</node>
	<node lat="62.122455556442866" lon="9.897388898339766" id="-23050">
		<tag k="highway" v="path" />
		<tag k="name" v="Driftvegen" />
		<tag k="ssr:stedsnr" v="846547" />
	</node>
	<node lat="62.10558611097415" lon="9.965050001729029" id="-23053">
		<tag k="highway" v="path" />
		<tag k="name" v="Øvre Svevegen" />
		<tag k="ssr:stedsnr" v="847544" />
	</node>
	<node lat="62.20068332933822" lon="10.07125832761944" id="-23063">
		<tag k="ford" v="yes" />
		<tag k="name" v="Bustadvadet" />
		<tag k="place" v="locality" />
		<tag k="ssr:stedsnr" v="847598" />
	</node>
	<node lat="62.00922777999804" lon="9.955244436476624" id="-23065">
		<tag k="highway" v="path" />
		<tag k="name" v="Øvre Sætervegen" />
		<tag k="ssr:stedsnr" v="847677" />
	</node>
	<node lat="62.046472219105716" lon="9.969138895244393" id="-23069">
		<tag k="highway" v="path" />
		<tag k="name" v="Jaktvegen" />
		<tag k="ssr:stedsnr" v="847763" />
	</node>
	<node lat="62.20439999592492" lon="10.091005562300408" id="-23138">
		<tag k="highway" v="path" />
		<tag k="name" v="Einundalsvegen" />
		<tag k="ssr:stedsnr" v="968615" />
	</node>
	<node lat="62.12485833457521" lon="9.832069444837327" id="-23139">
		<tag k="highway" v="path" />
		<tag k="name" v="Grimsdalsvegen" />
		<tag k="ssr:stedsnr" v="968659" />
	</node>
</osm>
