<?xml version="1.0" encoding="UTF-8"?>
<osm version="0.6" generator="osmapis">
	<node lat="58.734802782305096" lon="5.6011277783078555" id="-1">
		<tag k="bridge" v="yes" />
		<tag k="layer" v="1" />
		<tag k="name" v="Rosland" />
		<tag k="ssr:date" v="2016-05-10" />
		<tag k="ssr:gruppe" v="samferdselsanlegg" />
		<tag k="ssr:hovedgruppe" v="infrastruktur" />
		<tag k="ssr:stedsnr" v="229755" />
		<tag k="ssr:type" v="bru" />
	</node>
	<node lat="58.73254999617283" lon="5.513641665451223" id="-2">
		<tag k="alt_name" v="Skårtangen" />
		<tag k="name" v="Skortangen" />
		<tag k="natural" v="cape" />
		<tag k="ssr:date" v="2016-05-10" />
		<tag k="ssr:gruppe" v="kystkontur" />
		<tag k="ssr:hovedgruppe" v="sjø" />
		<tag k="ssr:stedsnr" v="845" />
		<tag k="ssr:type" v="nesISjø" />
	</node>
	<node lat="58.72922500043917" lon="5.588588884624317" id="-3">
		<tag k="name" v="Bakkane" />
		<tag k="place" v="farm" />
		<tag k="ssr:date" v="2016-05-10" />
		<tag k="ssr:gruppe" v="gardsbebyggelse" />
		<tag k="ssr:hovedgruppe" v="bebyggelse" />
		<tag k="ssr:stedsnr" v="855" />
		<tag k="ssr:type" v="bruk" />
	</node>
	<node lat="58.73007500274274" lon="5.566086114334244" id="-4">
		<tag k="name" v="Erga" />
		<tag k="place" v="farm" />
		<tag k="ssr:date" v="2016-05-10" />
		<tag k="ssr:gruppe" v="gardsbebyggelse" />
		<tag k="ssr:hovedgruppe" v="bebyggelse" />
		<tag k="ssr:stedsnr" v="859" />
		<tag k="ssr:type" v="bruk" />
	</node>
	<node lat="58.75470555463534" lon="5.624666672677583" id="-5">
		<tag k="bridge" v="yes" />
		<tag k="layer" v="1" />
		<tag k="name" v="Braut" />
		<tag k="ssr:date" v="2016-05-10" />
		<tag k="ssr:gruppe" v="samferdselsanlegg" />
		<tag k="ssr:hovedgruppe" v="infrastruktur" />
		<tag k="ssr:stedsnr" v="229724" />
		<tag k="ssr:type" v="bru" />
	</node>
	<node lat="58.74327500215224" lon="5.673475005648047" id="-6">
		<tag k="name" v="Frøylandsvatnet" />
		<tag k="natural" v="water" />
		<tag k="ssr:date" v="2019-10-15" />
		<tag k="ssr:gruppe" v="stilleståendeVann" />
		<tag k="ssr:hovedgruppe" v="ferskvann" />
		<tag k="ssr:stedsnr" v="902" />
		<tag k="ssr:type" v="vann" />
		<tag k="water" v="lake" />
	</node>
	<node lat="58.74283333344171" lon="5.568950005681578" id="-7">
		<tag k="alt_name" v="Risbakken" />
		<tag k="name" v="Bakken" />
		<tag k="place" v="farm" />
		<tag k="ssr:date" v="2016-05-10" />
		<tag k="ssr:gruppe" v="gardsbebyggelse" />
		<tag k="ssr:hovedgruppe" v="bebyggelse" />
		<tag k="ssr:stedsnr" v="896" />
		<tag k="ssr:type" v="bruk" />
	</node>
	<node lat="58.78617186493058" lon="5.6508422551183255" id="-8">
		<tag k="fixme" v="consider place=hamlet" />
		<tag k="name" v="Storhaug" />
		<tag k="place" v="farm" />
		<tag k="ssr:date" v="2019-05-24" />
		<tag k="ssr:gruppe" v="gardsbebyggelse" />
		<tag k="ssr:hovedgruppe" v="bebyggelse" />
		<tag k="ssr:stedsnr" v="1840" />
		<tag k="ssr:type" v="gard" />
	</node>
	<node lat="58.79077222069487" lon="5.687244438167816" id="-9">
		<tag k="name" v="Øksnavad" />
		<tag k="place" v="farm" />
		<tag k="ssr:date" v="2021-06-08" />
		<tag k="ssr:gruppe" v="gardsbebyggelse" />
		<tag k="ssr:hovedgruppe" v="bebyggelse" />
		<tag k="ssr:stedsnr" v="23730" />
		<tag k="ssr:type" v="bruk" />
	</node>
	<node lat="58.78799444887634" lon="5.708197230201477" id="-10">
		<tag k="name" v="Øksnevadlia" />
		<tag k="place" v="quarter" />
		<tag k="ssr:date" v="2016-05-10" />
		<tag k="ssr:gruppe" v="bebyggelsesområder" />
		<tag k="ssr:hovedgruppe" v="bebyggelse" />
		<tag k="ssr:stedsnr" v="24245" />
		<tag k="ssr:type" v="boligfelt" />
	</node>
	<node lat="58.785502774996445" lon="5.7136722297668285" id="-11">
		<tag k="name" v="Håbakken" />
		<tag k="natural" v="slope" />
		<tag k="place" v="locality" />
		<tag k="ssr:date" v="2016-05-10" />
		<tag k="ssr:gruppe" v="skråninger" />
		<tag k="ssr:hovedgruppe" v="terreng" />
		<tag k="ssr:stedsnr" v="24247" />
		<tag k="ssr:type" v="bakke" />
	</node>
	<node lat="58.746433331133176" lon="5.616938892660924" id="-12">
		<tag k="name" v="Haugemarkene" />
		<tag k="place" v="locality" />
		<tag k="ssr:date" v="2016-05-10" />
		<tag k="ssr:gruppe" v="dyrkamark" />
		<tag k="ssr:hovedgruppe" v="markslag" />
		<tag k="ssr:stedsnr" v="24409" />
		<tag k="ssr:type" v="utmark" />
	</node>
	<node lat="58.811512629761154" lon="5.654607733467015" id="-13">
		<tag k="name" v="Følberget" />
		<tag k="natural" v="hill" />
		<tag k="place" v="locality" />
		<tag k="ssr:date" v="2019-09-10" />
		<tag k="ssr:gruppe" v="høyder" />
		<tag k="ssr:hovedgruppe" v="terreng" />
		<tag k="ssr:stedsnr" v="24424" />
		<tag k="ssr:type" v="haug" />
	</node>
	<node lat="58.75692222017148" lon="5.617294448741906" id="-14">
		<tag k="name" v="Svartholen" />
		<tag k="place" v="farm" />
		<tag k="ssr:date" v="2016-05-10" />
		<tag k="ssr:gruppe" v="gardsbebyggelse" />
		<tag k="ssr:hovedgruppe" v="bebyggelse" />
		<tag k="ssr:stedsnr" v="24435" />
		<tag k="ssr:type" v="bruk" />
	</node>
	<node lat="58.715586108477375" lon="5.548600002621501" id="-15">
		<tag k="name" v="Lynghaug" />
		<tag k="natural" v="hill" />
		<tag k="place" v="locality" />
		<tag k="ssr:date" v="2016-05-10" />
		<tag k="ssr:gruppe" v="høyder" />
		<tag k="ssr:hovedgruppe" v="terreng" />
		<tag k="ssr:stedsnr" v="239254" />
		<tag k="ssr:type" v="haug" />
	</node>
	<node lat="58.73232499985202" lon="5.551383336327542" id="-16">
		<tag k="name" v="Grasholmen" />
		<tag k="place" v="islet" />
		<tag k="ssr:date" v="2016-05-10" />
		<tag k="ssr:gruppe" v="ferskvannskontur" />
		<tag k="ssr:hovedgruppe" v="ferskvann" />
		<tag k="ssr:stedsnr" v="57202" />
		<tag k="ssr:type" v="holme" />
	</node>
	<node lat="58.72677221944304" lon="5.518697227060179" id="-17">
		<tag k="name" v="Orresanden" />
		<tag k="natural" v="beach" />
		<tag k="ssr:date" v="2016-05-10" />
		<tag k="ssr:gruppe" v="kystkontur" />
		<tag k="ssr:hovedgruppe" v="sjø" />
		<tag k="ssr:stedsnr" v="57203" />
		<tag k="ssr:type" v="strandISjø" />
	</node>
	<node lat="58.71184444180516" lon="5.549575000937439" id="-18">
		<tag k="name" v="Skeiekanalen" />
		<tag k="place" v="locality" />
		<tag k="ssr:date" v="2016-05-10" />
		<tag k="ssr:gruppe" v="detaljerIFerskvann" />
		<tag k="ssr:hovedgruppe" v="ferskvann" />
		<tag k="ssr:stedsnr" v="57216" />
		<tag k="ssr:type" v="annenVanndetalj" />
	</node>
	<node lat="58.711433335961665" lon="5.581574994133999" id="-19">
		<tag k="name" v="Midtre Salte" />
		<tag k="place" v="farm" />
		<tag k="ssr:date" v="2016-05-10" />
		<tag k="ssr:gruppe" v="gardsbebyggelse" />
		<tag k="ssr:hovedgruppe" v="bebyggelse" />
		<tag k="ssr:stedsnr" v="57199" />
		<tag k="ssr:type" v="bruk" />
	</node>
	<node lat="58.697988892423524" lon="5.5719111146786" id="-20">
		<tag k="name" v="Øgardsfitjane" />
		<tag k="natural" v="wetland" />
		<tag k="ssr:date" v="2016-05-10" />
		<tag k="ssr:gruppe" v="våtmark" />
		<tag k="ssr:hovedgruppe" v="markslag" />
		<tag k="ssr:stedsnr" v="59307" />
		<tag k="ssr:type" v="myr" />
	</node>
	<node lat="58.70595833767496" lon="5.595447216734275" id="-21">
		<tag k="name" v="Tørrholen" />
		<tag k="place" v="farm" />
		<tag k="ssr:date" v="2016-05-10" />
		<tag k="ssr:gruppe" v="gardsbebyggelse" />
		<tag k="ssr:hovedgruppe" v="bebyggelse" />
		<tag k="ssr:stedsnr" v="59320" />
		<tag k="ssr:type" v="bruk" />
	</node>
	<node lat="58.76512423571507" lon="5.567266779576837" id="-22">
		<tag k="fixme" v="consider place=hamlet" />
		<tag k="name" v="Nese" />
		<tag k="place" v="farm" />
		<tag k="ssr:date" v="2019-05-24" />
		<tag k="ssr:gruppe" v="gardsbebyggelse" />
		<tag k="ssr:hovedgruppe" v="bebyggelse" />
		<tag k="ssr:stedsnr" v="61808" />
		<tag k="ssr:type" v="gard" />
	</node>
	<node lat="58.76892475149659" lon="5.64376893495924" id="-23">
		<tag k="fixme" v="consider place=hamlet" />
		<tag k="name" v="Fjogstad" />
		<tag k="place" v="farm" />
		<tag k="ssr:date" v="2019-05-24" />
		<tag k="ssr:gruppe" v="gardsbebyggelse" />
		<tag k="ssr:hovedgruppe" v="bebyggelse" />
		<tag k="ssr:stedsnr" v="61810" />
		<tag k="ssr:type" v="gard" />
	</node>
	<node lat="58.760769451190875" lon="5.62414464974366" id="-24">
		<tag k="name" v="Braut" />
		<tag k="place" v="hamlet" />
		<tag k="ssr:date" v="2019-05-24" />
		<tag k="ssr:gruppe" v="gardsbebyggelse" />
		<tag k="ssr:hovedgruppe" v="bebyggelse" />
		<tag k="ssr:stedsnr" v="61814" />
		<tag k="ssr:type" v="navnegard" />
	</node>
	<node lat="58.75579722171413" lon="5.493283332953183" id="-25">
		<tag k="alt_name" v="Rebungen" />
		<tag k="name" v="Revtangen" />
		<tag k="natural" v="cape" />
		<tag k="ssr:date" v="2016-05-10" />
		<tag k="ssr:gruppe" v="kystkontur" />
		<tag k="ssr:hovedgruppe" v="sjø" />
		<tag k="ssr:stedsnr" v="61816" />
		<tag k="ssr:type" v="nesISjø" />
	</node>
	<node lat="58.71801666583635" lon="5.568591658910952" id="-26">
		<tag k="fixme" v="consider place=hamlet" />
		<tag k="name" v="Pollestad" />
		<tag k="place" v="village" />
		<tag k="ssr:date" v="2016-05-10" />
		<tag k="ssr:gruppe" v="bebyggelsesområder" />
		<tag k="ssr:hovedgruppe" v="bebyggelse" />
		<tag k="ssr:stedsnr" v="61819" />
		<tag k="ssr:type" v="bygdelagBygd" />
	</node>
	<node lat="58.7769403255629" lon="5.646332283733578" id="-27">
		<tag k="fixme" v="consider place=hamlet" />
		<tag k="name" v="Riskjell" />
		<tag k="old_name" v="Risjell" />
		<tag k="place" v="farm" />
		<tag k="ssr:date" v="2019-05-24" />
		<tag k="ssr:gruppe" v="gardsbebyggelse" />
		<tag k="ssr:hovedgruppe" v="bebyggelse" />
		<tag k="ssr:stedsnr" v="61824" />
		<tag k="ssr:type" v="gard" />
	</node>
	<node lat="58.7671861111452" lon="5.454119446516191" id="-28">
		<tag k="name" v="Klausgrunnen" />
		<tag k="natural" v="shoal" />
		<tag k="place" v="locality" />
		<tag k="ssr:date" v="2016-05-10" />
		<tag k="ssr:gruppe" v="grunnerISjø" />
		<tag k="ssr:hovedgruppe" v="sjø" />
		<tag k="ssr:stedsnr" v="65918" />
		<tag k="ssr:type" v="grunneISjø" />
	</node>
	<node lat="58.706277779178286" lon="5.523041674363041" id="-29">
		<tag k="name" v="Viktangen" />
		<tag k="natural" v="cape" />
		<tag k="ssr:date" v="2016-05-10" />
		<tag k="ssr:gruppe" v="kystkontur" />
		<tag k="ssr:hovedgruppe" v="sjø" />
		<tag k="ssr:stedsnr" v="242818" />
		<tag k="ssr:type" v="nesISjø" />
	</node>
	<node lat="58.70906901878472" lon="5.607053304958325" id="-30">
		<tag k="alt_name" v="Salte, stora;Store Salte;Salte store" />
		<tag k="fixme" v="consider place=hamlet" />
		<tag k="name" v="Stora Salte" />
		<tag k="place" v="farm" />
		<tag k="ssr:date" v="2019-05-24" />
		<tag k="ssr:gruppe" v="gardsbebyggelse" />
		<tag k="ssr:hovedgruppe" v="bebyggelse" />
		<tag k="ssr:stedsnr" v="242759" />
		<tag k="ssr:type" v="gard" />
	</node>
	<node lat="58.69396389070319" lon="5.545436118504976" id="-31">
		<tag k="name" v="Klopsteinen" />
		<tag k="natural" v="cape" />
		<tag k="old_name" v="Kloppsteinen" />
		<tag k="ssr:date" v="2016-05-10" />
		<tag k="ssr:gruppe" v="kystkontur" />
		<tag k="ssr:hovedgruppe" v="sjø" />
		<tag k="ssr:stedsnr" v="243793" />
		<tag k="ssr:type" v="nesISjø" />
	</node>
	<node lat="58.73606666925681" lon="5.6264805532731845" id="-32">
		<tag k="alt_name" v="Kvernholen" />
		<tag k="name" v="Ekra" />
		<tag k="place" v="farm" />
		<tag k="ssr:date" v="2016-05-10" />
		<tag k="ssr:gruppe" v="gardsbebyggelse" />
		<tag k="ssr:hovedgruppe" v="bebyggelse" />
		<tag k="ssr:stedsnr" v="243846" />
		<tag k="ssr:type" v="bruk" />
	</node>
	<node lat="58.73554722583887" lon="5.600608329064999" id="-33">
		<tag k="name" v="Refsnes" />
		<tag k="place" v="farm" />
		<tag k="ssr:date" v="2016-05-10" />
		<tag k="ssr:gruppe" v="gardsbebyggelse" />
		<tag k="ssr:hovedgruppe" v="bebyggelse" />
		<tag k="ssr:stedsnr" v="243847" />
		<tag k="ssr:type" v="bruk" />
	</node>
	<node lat="58.72789444055141" lon="5.584900000479012" id="-34">
		<tag k="name" v="Håholen" />
		<tag k="place" v="farm" />
		<tag k="ssr:date" v="2016-05-10" />
		<tag k="ssr:gruppe" v="gardsbebyggelse" />
		<tag k="ssr:hovedgruppe" v="bebyggelse" />
		<tag k="ssr:stedsnr" v="243849" />
		<tag k="ssr:type" v="bruk" />
	</node>
	<node lat="58.719085276878104" lon="5.5648419922744665" id="-35">
		<tag k="fixme" v="consider place=hamlet" />
		<tag k="name" v="Pollestad" />
		<tag k="place" v="farm" />
		<tag k="ssr:date" v="2019-05-28" />
		<tag k="ssr:gruppe" v="gardsbebyggelse" />
		<tag k="ssr:hovedgruppe" v="bebyggelse" />
		<tag k="ssr:stedsnr" v="243818" />
		<tag k="ssr:type" v="gard" />
	</node>
	<node lat="58.758876617435384" lon="5.628652229689803" id="-36">
		<tag k="fixme" v="consider place=hamlet" />
		<tag k="name" v="Sør-Braut" />
		<tag k="place" v="farm" />
		<tag k="ssr:date" v="2019-05-24" />
		<tag k="ssr:gruppe" v="gardsbebyggelse" />
		<tag k="ssr:hovedgruppe" v="bebyggelse" />
		<tag k="ssr:stedsnr" v="243824" />
		<tag k="ssr:type" v="gard" />
	</node>
	<node lat="58.803827226923985" lon="5.656337868165623" id="-37">
		<tag k="alt_name" v="Stangaland" />
		<tag k="fixme" v="consider place=hamlet" />
		<tag k="name" v="Stangeland" />
		<tag k="place" v="farm" />
		<tag k="ssr:date" v="2019-05-24" />
		<tag k="ssr:gruppe" v="gardsbebyggelse" />
		<tag k="ssr:hovedgruppe" v="bebyggelse" />
		<tag k="ssr:stedsnr" v="244932" />
		<tag k="ssr:type" v="gard" />
	</node>
	<node lat="58.80659166429799" lon="5.558536117549472" id="-38">
		<tag k="name" v="Sele" />
		<tag k="place" v="farm" />
		<tag k="ssr:date" v="2016-05-10" />
		<tag k="ssr:gruppe" v="gardsbebyggelse" />
		<tag k="ssr:hovedgruppe" v="bebyggelse" />
		<tag k="ssr:stedsnr" v="244943" />
		<tag k="ssr:type" v="bruk" />
	</node>
	<node lat="58.7757361092378" lon="5.587455561761267" id="-39">
		<tag k="name" v="Skådeheibekken" />
		<tag k="ssr:date" v="2016-05-10" />
		<tag k="ssr:gruppe" v="rennendeVann" />
		<tag k="ssr:hovedgruppe" v="ferskvann" />
		<tag k="ssr:stedsnr" v="84116" />
		<tag k="ssr:type" v="bekk" />
		<tag k="waterway" v="stream" />
	</node>
	<node lat="58.78553332995179" lon="5.545908328691873" id="-40">
		<tag k="name" v="Hodnemarkene" />
		<tag k="place" v="locality" />
		<tag k="ssr:date" v="2016-05-10" />
		<tag k="ssr:gruppe" v="dyrkamark" />
		<tag k="ssr:hovedgruppe" v="markslag" />
		<tag k="ssr:stedsnr" v="84118" />
		<tag k="ssr:type" v="utmark" />
	</node>
	<node lat="58.74786944741425" lon="5.5562388935048395" id="-41">
		<tag k="name" v="Holmavadet" />
		<tag k="natural" v="cape" />
		<tag k="ssr:date" v="2016-05-10" />
		<tag k="ssr:gruppe" v="ferskvannskontur" />
		<tag k="ssr:hovedgruppe" v="ferskvann" />
		<tag k="ssr:stedsnr" v="84135" />
		<tag k="ssr:type" v="nes" />
	</node>
	<node lat="58.77279999626967" lon="5.677283325743232" id="-42">
		<tag k="name" v="Klepp stasjon" />
		<tag k="place" v="village" />
		<tag k="ssr:date" v="2021-06-08" />
		<tag k="ssr:gruppe" v="bebyggelsesområder" />
		<tag k="ssr:hovedgruppe" v="bebyggelse" />
		<tag k="ssr:stedsnr" v="85862" />
		<tag k="ssr:type" v="tettsted" />
	</node>
	<node lat="58.80013611405694" lon="5.670077781241285" id="-44">
		<tag k="alt_name" v="Rogaland jordbruksskule" />
		<tag k="amenity" v="school" />
		<tag k="name" v="Øksnevad vidaregåande skole" />
		<tag k="ssr:date" v="2017-05-22" />
		<tag k="ssr:gruppe" v="institusjoner" />
		<tag k="ssr:hovedgruppe" v="bebyggelse" />
		<tag k="ssr:stedsnr" v="105510" />
		<tag k="ssr:type" v="skole" />
	</node>
	<node lat="58.699830553055676" lon="5.579986112993328" id="-45">
		<tag k="name" v="Slettene" />
		<tag k="place" v="farm" />
		<tag k="ssr:date" v="2016-05-10" />
		<tag k="ssr:gruppe" v="gardsbebyggelse" />
		<tag k="ssr:hovedgruppe" v="bebyggelse" />
		<tag k="ssr:stedsnr" v="118285" />
		<tag k="ssr:type" v="bruk" />
	</node>
	<node lat="58.711913892791195" lon="5.617133330322291" id="-46">
		<tag k="junction" v="yes" />
		<tag k="name" v="Saltebakken" />
		<tag k="place" v="locality" />
		<tag k="ssr:date" v="2016-05-10" />
		<tag k="ssr:gruppe" v="veg" />
		<tag k="ssr:hovedgruppe" v="infrastruktur" />
		<tag k="ssr:stedsnr" v="119307" />
		<tag k="ssr:type" v="vegkryss" />
	</node>
	<node lat="58.69971111360749" lon="5.544036105296977" id="-47">
		<tag k="name" v="Skeie" />
		<tag k="place" v="farm" />
		<tag k="ssr:date" v="2016-05-10" />
		<tag k="ssr:gruppe" v="gardsbebyggelse" />
		<tag k="ssr:hovedgruppe" v="bebyggelse" />
		<tag k="ssr:stedsnr" v="121834" />
		<tag k="ssr:type" v="bruk" />
	</node>
	<node lat="58.75645000131166" lon="5.558252780993973" id="-48">
		<tag k="name" v="Kattelandsvika" />
		<tag k="natural" v="bay" />
		<tag k="ssr:date" v="2016-05-10" />
		<tag k="ssr:gruppe" v="ferskvannskontur" />
		<tag k="ssr:hovedgruppe" v="ferskvann" />
		<tag k="ssr:stedsnr" v="145010" />
		<tag k="ssr:type" v="vik" />
	</node>
	<node lat="58.81306978856373" lon="5.573515638781183" id="-49">
		<tag k="name" v="Ormaberget" />
		<tag k="natural" v="hill" />
		<tag k="place" v="locality" />
		<tag k="ssr:date" v="2019-09-10" />
		<tag k="ssr:gruppe" v="høyder" />
		<tag k="ssr:hovedgruppe" v="terreng" />
		<tag k="ssr:stedsnr" v="145077" />
		<tag k="ssr:type" v="haug" />
	</node>
	<node lat="58.80825833037867" lon="5.586736115970955" id="-50">
		<tag k="junction" v="yes" />
		<tag k="name" v="Gjesholskrossen" />
		<tag k="place" v="locality" />
		<tag k="ssr:date" v="2016-05-10" />
		<tag k="ssr:gruppe" v="veg" />
		<tag k="ssr:hovedgruppe" v="infrastruktur" />
		<tag k="ssr:stedsnr" v="145080" />
		<tag k="ssr:type" v="vegkryss" />
	</node>
	<node lat="58.74091944693079" lon="5.595005553492186" id="-51">
		<tag k="name" v="Venneholen" />
		<tag k="place" v="farm" />
		<tag k="ssr:date" v="2016-05-10" />
		<tag k="ssr:gruppe" v="gardsbebyggelse" />
		<tag k="ssr:hovedgruppe" v="bebyggelse" />
		<tag k="ssr:stedsnr" v="145103" />
		<tag k="ssr:type" v="bruk" />
	</node>
	<node lat="58.74044444080245" lon="5.558372225825183" id="-52">
		<tag k="name" v="Gjeishaug" />
		<tag k="place" v="farm" />
		<tag k="ssr:date" v="2016-05-10" />
		<tag k="ssr:gruppe" v="gardsbebyggelse" />
		<tag k="ssr:hovedgruppe" v="bebyggelse" />
		<tag k="ssr:stedsnr" v="145105" />
		<tag k="ssr:type" v="bruk" />
	</node>
	<node lat="58.767588890702925" lon="5.587222224113898" id="-53">
		<tag k="name" v="Haugabakken" />
		<tag k="natural" v="slope" />
		<tag k="place" v="locality" />
		<tag k="ssr:date" v="2016-05-10" />
		<tag k="ssr:gruppe" v="skråninger" />
		<tag k="ssr:hovedgruppe" v="terreng" />
		<tag k="ssr:stedsnr" v="145118" />
		<tag k="ssr:type" v="bakke" />
	</node>
	<node lat="58.74436111180178" lon="5.518208326441844" id="-54">
		<tag k="name" v="Orremarka" />
		<tag k="place" v="locality" />
		<tag k="ssr:date" v="2016-05-10" />
		<tag k="ssr:gruppe" v="dyrkamark" />
		<tag k="ssr:hovedgruppe" v="markslag" />
		<tag k="ssr:stedsnr" v="145121" />
		<tag k="ssr:type" v="utmark" />
	</node>
	<node lat="58.821233329134635" lon="5.6217750017298185" id="-55">
		<tag k="name" v="Kvitemyr" />
		<tag k="natural" v="wetland" />
		<tag k="ssr:date" v="2016-05-10" />
		<tag k="ssr:gruppe" v="våtmark" />
		<tag k="ssr:hovedgruppe" v="markslag" />
		<tag k="ssr:stedsnr" v="145231" />
		<tag k="ssr:type" v="myr" />
	</node>
	<node lat="58.798562734726" lon="5.625687742999995" id="-56">
		<tag k="name" v="Araberget" />
		<tag k="natural" v="hill" />
		<tag k="place" v="locality" />
		<tag k="ssr:date" v="2019-09-10" />
		<tag k="ssr:gruppe" v="høyder" />
		<tag k="ssr:hovedgruppe" v="terreng" />
		<tag k="ssr:stedsnr" v="145431" />
		<tag k="ssr:type" v="haug" />
	</node>
	<node lat="58.76435277456837" lon="5.501783333300399" id="-57">
		<tag k="name" v="Skarstein" />
		<tag k="natural" v="cape" />
		<tag k="ssr:date" v="2016-05-10" />
		<tag k="ssr:gruppe" v="kystkontur" />
		<tag k="ssr:hovedgruppe" v="sjø" />
		<tag k="ssr:stedsnr" v="145726" />
		<tag k="ssr:type" v="nesISjø" />
	</node>
	<node lat="58.75569444057375" lon="5.586394452510793" id="-58">
		<tag k="fixme" v="consider place=hamlet" />
		<tag k="name" v="Horpestad" />
		<tag k="place" v="village" />
		<tag k="ssr:date" v="2016-05-10" />
		<tag k="ssr:gruppe" v="bebyggelsesområder" />
		<tag k="ssr:hovedgruppe" v="bebyggelse" />
		<tag k="ssr:stedsnr" v="146461" />
		<tag k="ssr:type" v="bygdelagBygd" />
	</node>
	<node lat="58.708494442481424" lon="5.519969449249989" id="-59">
		<tag k="alt_name" v="Haugaura" />
		<tag k="name" v="Haugaurda" />
		<tag k="natural" v="beach" />
		<tag k="ssr:date" v="2016-05-10" />
		<tag k="ssr:gruppe" v="kystkontur" />
		<tag k="ssr:hovedgruppe" v="sjø" />
		<tag k="ssr:stedsnr" v="146908" />
		<tag k="ssr:type" v="strandISjø" />
	</node>
	<node lat="58.76259046624417" lon="5.66553432661462" id="-60">
		<tag k="fixme" v="consider place=hamlet" />
		<tag k="name" v="Laland" />
		<tag k="place" v="farm" />
		<tag k="ssr:date" v="2019-05-24" />
		<tag k="ssr:gruppe" v="gardsbebyggelse" />
		<tag k="ssr:hovedgruppe" v="bebyggelse" />
		<tag k="ssr:stedsnr" v="182804" />
		<tag k="ssr:type" v="gard" />
	</node>
	<node lat="58.714469447086216" lon="5.6097833286985885" id="-61">
		<tag k="name" v="Kjellsholen" />
		<tag k="old_name" v="Kjelsholen" />
		<tag k="place" v="farm" />
		<tag k="ssr:date" v="2016-05-10" />
		<tag k="ssr:gruppe" v="gardsbebyggelse" />
		<tag k="ssr:hovedgruppe" v="bebyggelse" />
		<tag k="ssr:stedsnr" v="182806" />
		<tag k="ssr:type" v="bruk" />
	</node>
	<node lat="58.71094444244531" lon="5.518136112958062" id="-62">
		<tag k="name" v="Haugatangen" />
		<tag k="natural" v="cape" />
		<tag k="ssr:date" v="2016-05-10" />
		<tag k="ssr:gruppe" v="kystkontur" />
		<tag k="ssr:hovedgruppe" v="sjø" />
		<tag k="ssr:stedsnr" v="182808" />
		<tag k="ssr:type" v="nesISjø" />
	</node>
	<node lat="58.77538794743304" lon="5.662533484561662" id="-63">
		<tag k="fixme" v="consider place=hamlet" />
		<tag k="name" v="Anda" />
		<tag k="place" v="farm" />
		<tag k="ssr:date" v="2019-05-24" />
		<tag k="ssr:gruppe" v="gardsbebyggelse" />
		<tag k="ssr:hovedgruppe" v="bebyggelse" />
		<tag k="ssr:stedsnr" v="182821" />
		<tag k="ssr:type" v="gard" />
	</node>
	<node lat="58.72755439793413" lon="5.551177011624825" id="-64">
		<tag k="fixme" v="consider place=hamlet" />
		<tag k="name" v="Erga" />
		<tag k="place" v="farm" />
		<tag k="ssr:date" v="2019-05-28" />
		<tag k="ssr:gruppe" v="gardsbebyggelse" />
		<tag k="ssr:hovedgruppe" v="bebyggelse" />
		<tag k="ssr:stedsnr" v="182830" />
		<tag k="ssr:type" v="gard" />
	</node>
	<node lat="58.72435174839141" lon="5.59812428120108" id="-65">
		<tag k="fixme" v="consider place=hamlet" />
		<tag k="name" v="Grødaland" />
		<tag k="old_name" v="Grødeland" />
		<tag k="place" v="farm" />
		<tag k="ssr:date" v="2019-05-28" />
		<tag k="ssr:gruppe" v="gardsbebyggelse" />
		<tag k="ssr:hovedgruppe" v="bebyggelse" />
		<tag k="ssr:stedsnr" v="182864" />
		<tag k="ssr:type" v="gard" />
	</node>
	<node lat="58.7515166649707" lon="5.640941670037112" id="-66">
		<tag k="name" v="Tu" />
		<tag k="place" v="farm" />
		<tag k="ssr:date" v="2016-05-10" />
		<tag k="ssr:gruppe" v="gardsbebyggelse" />
		<tag k="ssr:hovedgruppe" v="bebyggelse" />
		<tag k="ssr:stedsnr" v="183220" />
		<tag k="ssr:type" v="bruk" />
	</node>
	<node lat="58.77249166247017" lon="5.594494445763331" id="-67">
		<tag k="name" v="Vådelandskanalen" />
		<tag k="ssr:date" v="2016-05-10" />
		<tag k="ssr:gruppe" v="sjøfart" />
		<tag k="ssr:hovedgruppe" v="infrastruktur" />
		<tag k="ssr:stedsnr" v="266126" />
		<tag k="ssr:type" v="kanal" />
		<tag k="waterway" v="canal" />
	</node>
	<node lat="58.823069447272246" lon="5.634033335859301" id="-68">
		<tag k="name" v="Einarberg" />
		<tag k="natural" v="hill" />
		<tag k="place" v="locality" />
		<tag k="ssr:date" v="2016-05-10" />
		<tag k="ssr:gruppe" v="høyder" />
		<tag k="ssr:hovedgruppe" v="terreng" />
		<tag k="ssr:stedsnr" v="266255" />
		<tag k="ssr:type" v="høyde" />
	</node>
	<node lat="58.771975002362346" lon="5.653136111648698" id="-69">
		<tag k="name" v="Grønhaug" />
		<tag k="place" v="locality" />
		<tag k="ssr:date" v="2016-05-10" />
		<tag k="ssr:gruppe" v="bolighus" />
		<tag k="ssr:hovedgruppe" v="bebyggelse" />
		<tag k="ssr:stedsnr" v="266482" />
		<tag k="ssr:type" v="gammelBosettingsplass" />
	</node>
	<node lat="58.770213886633165" lon="5.656275000178924" id="-70">
		<tag k="name" v="Kjellebakken" />
		<tag k="place" v="farm" />
		<tag k="ssr:date" v="2016-05-10" />
		<tag k="ssr:gruppe" v="gardsbebyggelse" />
		<tag k="ssr:hovedgruppe" v="bebyggelse" />
		<tag k="ssr:stedsnr" v="266483" />
		<tag k="ssr:type" v="bruk" />
	</node>
	<node lat="58.77423332952734" lon="5.629363887219138" id="-71">
		<tag k="name" v="Kleppe" />
		<tag k="place" v="village" />
		<tag k="ssr:date" v="2016-05-10" />
		<tag k="ssr:gruppe" v="bebyggelsesområder" />
		<tag k="ssr:hovedgruppe" v="bebyggelse" />
		<tag k="ssr:stedsnr" v="266449" />
		<tag k="ssr:type" v="tettsted" />
	</node>
	<node lat="58.760088885973865" lon="5.681072215647603" id="-72">
		<tag k="name" v="Lalandsholmen" />
		<tag k="place" v="islet" />
		<tag k="ssr:date" v="2016-05-10" />
		<tag k="ssr:gruppe" v="ferskvannskontur" />
		<tag k="ssr:hovedgruppe" v="ferskvann" />
		<tag k="ssr:stedsnr" v="266474" />
		<tag k="ssr:type" v="holme" />
	</node>
	<node lat="58.762919440347034" lon="5.552638896001756" id="-73">
		<tag k="name" v="Øyarbakka" />
		<tag k="natural" v="slope" />
		<tag k="place" v="locality" />
		<tag k="ssr:date" v="2016-05-10" />
		<tag k="ssr:gruppe" v="skråninger" />
		<tag k="ssr:hovedgruppe" v="terreng" />
		<tag k="ssr:stedsnr" v="266750" />
		<tag k="ssr:type" v="bakke" />
	</node>
	<node lat="58.76283055563695" lon="5.508469439250766" id="-74">
		<tag k="name" v="Revhaug" />
		<tag k="place" v="locality" />
		<tag k="ssr:date" v="2016-05-10" />
		<tag k="ssr:gruppe" v="bolighus" />
		<tag k="ssr:hovedgruppe" v="bebyggelse" />
		<tag k="ssr:stedsnr" v="266753" />
		<tag k="ssr:type" v="gammelBosettingsplass" />
	</node>
	<node lat="58.80172222197886" lon="5.662811118787596" id="-75">
		<tag k="name" v="Asperhøl" />
		<tag k="place" v="locality" />
		<tag k="ssr:date" v="2016-05-10" />
		<tag k="ssr:gruppe" v="rennendeVann" />
		<tag k="ssr:hovedgruppe" v="ferskvann" />
		<tag k="ssr:stedsnr" v="267387" />
		<tag k="ssr:type" v="høl" />
	</node>
	<node lat="58.79946666526867" lon="5.655074999653145" id="-76">
		<tag k="name" v="Sandhol" />
		<tag k="place" v="locality" />
		<tag k="ssr:date" v="2016-05-10" />
		<tag k="ssr:gruppe" v="rennendeVann" />
		<tag k="ssr:hovedgruppe" v="ferskvann" />
		<tag k="ssr:stedsnr" v="267388" />
		<tag k="ssr:type" v="høl" />
	</node>
	<node lat="58.70753888719233" lon="5.5228472293018" id="-77">
		<tag k="alt_name" v="Bekkarvik" />
		<tag k="name" v="Bekkjarvika" />
		<tag k="natural" v="bay" />
		<tag k="ssr:date" v="2016-05-10" />
		<tag k="ssr:gruppe" v="kystkontur" />
		<tag k="ssr:hovedgruppe" v="sjø" />
		<tag k="ssr:stedsnr" v="267926" />
		<tag k="ssr:type" v="vikISjø" />
	</node>
	<node lat="58.732697221404784" lon="5.589891663378325" id="-78">
		<tag k="name" v="Flåten" />
		<tag k="place" v="farm" />
		<tag k="ssr:date" v="2016-05-10" />
		<tag k="ssr:gruppe" v="gardsbebyggelse" />
		<tag k="ssr:hovedgruppe" v="bebyggelse" />
		<tag k="ssr:stedsnr" v="206109" />
		<tag k="ssr:type" v="bruk" />
	</node>
	<node lat="58.76436944189166" lon="5.574130560349255" id="-79">
		<tag k="name" v="Østvoll" />
		<tag k="place" v="farm" />
		<tag k="ssr:date" v="2016-05-10" />
		<tag k="ssr:gruppe" v="gardsbebyggelse" />
		<tag k="ssr:hovedgruppe" v="bebyggelse" />
		<tag k="ssr:stedsnr" v="206114" />
		<tag k="ssr:type" v="bruk" />
	</node>
	<node lat="58.80922500043774" lon="5.595502784239012" id="-80">
		<tag k="name" v="Tranemyr" />
		<tag k="place" v="farm" />
		<tag k="ssr:date" v="2016-05-10" />
		<tag k="ssr:gruppe" v="gardsbebyggelse" />
		<tag k="ssr:hovedgruppe" v="bebyggelse" />
		<tag k="ssr:stedsnr" v="206082" />
		<tag k="ssr:type" v="bruk" />
	</node>
	<node lat="58.813399996026284" lon="5.634072221149544" id="-81">
		<tag k="name" v="Sveinsvollsmarkene" />
		<tag k="place" v="locality" />
		<tag k="ssr:date" v="2016-05-10" />
		<tag k="ssr:gruppe" v="dyrkamark" />
		<tag k="ssr:hovedgruppe" v="markslag" />
		<tag k="ssr:stedsnr" v="206402" />
		<tag k="ssr:type" v="utmark" />
	</node>
	<node lat="58.709424998338136" lon="5.512447216916569" id="-82">
		<tag k="name" v="Tasasteinen" />
		<tag k="place" v="locality" />
		<tag k="seamark:type" v="rock" />
		<tag k="ssr:date" v="2016-05-10" />
		<tag k="ssr:gruppe" v="grunnerISjø" />
		<tag k="ssr:hovedgruppe" v="sjø" />
		<tag k="ssr:stedsnr" v="268930" />
		<tag k="ssr:type" v="båeISjø" />
	</node>
	<node lat="58.77408055722318" lon="5.6865222294152264" id="-83">
		<tag k="name" v="Båtatangen" />
		<tag k="natural" v="cape" />
		<tag k="ssr:date" v="2016-05-10" />
		<tag k="ssr:gruppe" v="ferskvannskontur" />
		<tag k="ssr:hovedgruppe" v="ferskvann" />
		<tag k="ssr:stedsnr" v="449399" />
		<tag k="ssr:type" v="nes" />
	</node>
	<node lat="58.80200555244737" lon="5.597391671385148" id="-84">
		<tag k="bridge" v="yes" />
		<tag k="layer" v="1" />
		<tag k="name" v="Holekrossen" />
		<tag k="ssr:date" v="2016-05-10" />
		<tag k="ssr:gruppe" v="samferdselsanlegg" />
		<tag k="ssr:hovedgruppe" v="infrastruktur" />
		<tag k="ssr:stedsnr" v="229731" />
		<tag k="ssr:type" v="bru" />
	</node>
	<node lat="58.775538886177024" lon="5.657827773580134" id="-85">
		<tag k="junction" v="yes" />
		<tag k="name" v="Andakrossen" />
		<tag k="place" v="locality" />
		<tag k="ssr:date" v="2016-05-10" />
		<tag k="ssr:gruppe" v="veg" />
		<tag k="ssr:hovedgruppe" v="infrastruktur" />
		<tag k="ssr:stedsnr" v="449427" />
		<tag k="ssr:type" v="vegkryss" />
	</node>
	<node lat="58.704505554602406" lon="5.552027774113983" id="-86">
		<tag k="alt_name" v="Åse midtre" />
		<tag k="name" v="Midtra Åse" />
		<tag k="place" v="farm" />
		<tag k="ssr:date" v="2016-05-10" />
		<tag k="ssr:gruppe" v="gardsbebyggelse" />
		<tag k="ssr:hovedgruppe" v="bebyggelse" />
		<tag k="ssr:stedsnr" v="239307" />
		<tag k="ssr:type" v="bruk" />
	</node>
	<node lat="58.74082500337292" lon="5.629616657897148" id="-87">
		<tag k="alt_name" v="Hesthaug" />
		<tag k="name" v="Hesthaugen" />
		<tag k="place" v="farm" />
		<tag k="ssr:date" v="2016-05-10" />
		<tag k="ssr:gruppe" v="gardsbebyggelse" />
		<tag k="ssr:hovedgruppe" v="bebyggelse" />
		<tag k="ssr:stedsnr" v="243886" />
		<tag k="ssr:type" v="bruk" />
	</node>
	<node lat="58.7397777742875" lon="5.554036119256179" id="-89">
		<tag k="name" v="Fænene" />
		<tag k="natural" v="beach" />
		<tag k="ssr:date" v="2016-05-10" />
		<tag k="ssr:gruppe" v="kystkontur" />
		<tag k="ssr:hovedgruppe" v="sjø" />
		<tag k="ssr:stedsnr" v="266109" />
		<tag k="ssr:type" v="strandISjø" />
	</node>
	<node lat="58.7660305523898" lon="5.603477786193246" id="-90">
		<tag k="name" v="Øvregård" />
		<tag k="old_name" v="Øvergard" />
		<tag k="place" v="farm" />
		<tag k="ssr:date" v="2016-05-10" />
		<tag k="ssr:gruppe" v="gardsbebyggelse" />
		<tag k="ssr:hovedgruppe" v="bebyggelse" />
		<tag k="ssr:stedsnr" v="266116" />
		<tag k="ssr:type" v="bruk" />
	</node>
	<node lat="58.77108055674937" lon="5.574213882069361" id="-91">
		<tag k="name" v="Steinholmen" />
		<tag k="natural" v="cape" />
		<tag k="ssr:date" v="2016-05-10" />
		<tag k="ssr:gruppe" v="ferskvannskontur" />
		<tag k="ssr:hovedgruppe" v="ferskvann" />
		<tag k="ssr:stedsnr" v="266119" />
		<tag k="ssr:type" v="nes" />
	</node>
	<node lat="58.789433329403955" lon="5.679363890562831" id="-92">
		<tag k="name" v="Heia" />
		<tag k="place" v="locality" />
		<tag k="ssr:date" v="2016-05-10" />
		<tag k="ssr:gruppe" v="dyrkamark" />
		<tag k="ssr:hovedgruppe" v="markslag" />
		<tag k="ssr:stedsnr" v="266290" />
		<tag k="ssr:type" v="utmark" />
	</node>
	<node lat="58.82559444583276" lon="5.568425002428795" id="-93">
		<tag k="name" v="Bornholmen" />
		<tag k="natural" v="hill" />
		<tag k="place" v="locality" />
		<tag k="ssr:date" v="2016-05-10" />
		<tag k="ssr:gruppe" v="høyder" />
		<tag k="ssr:hovedgruppe" v="terreng" />
		<tag k="ssr:stedsnr" v="266381" />
		<tag k="ssr:type" v="høyde" />
	</node>
	<node lat="58.82963055761217" lon="5.549402779277395" id="-94">
		<tag k="name" v="Båtmannsvika" />
		<tag k="natural" v="bay" />
		<tag k="ssr:date" v="2016-05-10" />
		<tag k="ssr:gruppe" v="kystkontur" />
		<tag k="ssr:hovedgruppe" v="sjø" />
		<tag k="ssr:stedsnr" v="266392" />
		<tag k="ssr:type" v="vikISjø" />
	</node>
	<node lat="58.7938000035347" lon="5.69739999157451" id="-95">
		<tag k="name" v="Øksnavad" />
		<tag k="place" v="farm" />
		<tag k="ssr:date" v="2021-06-08" />
		<tag k="ssr:gruppe" v="gardsbebyggelse" />
		<tag k="ssr:hovedgruppe" v="bebyggelse" />
		<tag k="ssr:stedsnr" v="266692" />
		<tag k="ssr:type" v="bruk" />
	</node>
	<node lat="58.788458334098586" lon="5.616694450917168" id="-96">
		<tag k="name" v="Grudeleitet" />
		<tag k="place" v="farm" />
		<tag k="ssr:date" v="2016-05-10" />
		<tag k="ssr:gruppe" v="gardsbebyggelse" />
		<tag k="ssr:hovedgruppe" v="bebyggelse" />
		<tag k="ssr:stedsnr" v="267222" />
		<tag k="ssr:type" v="bruk" />
	</node>
	<node lat="58.79309167051857" lon="5.627972223951387" id="-97">
		<tag k="name" v="Grudevarden" />
		<tag k="natural" v="hill" />
		<tag k="place" v="locality" />
		<tag k="ssr:date" v="2016-05-10" />
		<tag k="ssr:gruppe" v="høyder" />
		<tag k="ssr:hovedgruppe" v="terreng" />
		<tag k="ssr:stedsnr" v="267223" />
		<tag k="ssr:type" v="haug" />
	</node>
	<node lat="58.79619722563335" lon="5.644308333335164" id="-98">
		<tag k="name" v="Lende" />
		<tag k="place" v="locality" />
		<tag k="ssr:date" v="2016-05-10" />
		<tag k="ssr:gruppe" v="dyrkamark" />
		<tag k="ssr:hovedgruppe" v="markslag" />
		<tag k="ssr:stedsnr" v="267229" />
		<tag k="ssr:type" v="utmark" />
	</node>
	<node lat="58.77509166741117" lon="5.629547225892255" id="-99">
		<tag k="bridge" v="yes" />
		<tag k="layer" v="1" />
		<tag k="name" v="Kleppekrossen" />
		<tag k="ssr:date" v="2016-05-10" />
		<tag k="ssr:gruppe" v="samferdselsanlegg" />
		<tag k="ssr:hovedgruppe" v="infrastruktur" />
		<tag k="ssr:stedsnr" v="289786" />
		<tag k="ssr:type" v="bru" />
	</node>
	<node lat="58.72808611003403" lon="5.521138896653632" id="-100">
		<tag k="name" v="Orreelva" />
		<tag k="ssr:date" v="2016-05-10" />
		<tag k="ssr:gruppe" v="rennendeVann" />
		<tag k="ssr:hovedgruppe" v="ferskvann" />
		<tag k="ssr:stedsnr" v="300280" />
		<tag k="ssr:type" v="elv" />
		<tag k="waterway" v="river" />
	</node>
	<node lat="58.7392944437736" lon="5.59632778142246" id="-101">
		<tag k="name" v="Arhaug" />
		<tag k="place" v="farm" />
		<tag k="ssr:date" v="2016-05-10" />
		<tag k="ssr:gruppe" v="gardsbebyggelse" />
		<tag k="ssr:hovedgruppe" v="bebyggelse" />
		<tag k="ssr:stedsnr" v="303884" />
		<tag k="ssr:type" v="bruk" />
	</node>
	<node lat="58.789313643252235" lon="5.582891444151421" id="-102">
		<tag k="alt_name" v="Bore, vestre" />
		<tag k="fixme" v="consider place=hamlet" />
		<tag k="name" v="Vestre Bore" />
		<tag k="place" v="farm" />
		<tag k="ssr:date" v="2019-05-24" />
		<tag k="ssr:gruppe" v="gardsbebyggelse" />
		<tag k="ssr:hovedgruppe" v="bebyggelse" />
		<tag k="ssr:stedsnr" v="304911" />
		<tag k="ssr:type" v="gard" />
	</node>
	<node lat="58.79987222427816" lon="5.683047224726079" id="-103">
		<tag k="name" v="Lonaheia" />
		<tag k="place" v="farm" />
		<tag k="ssr:date" v="2016-05-10" />
		<tag k="ssr:gruppe" v="gardsbebyggelse" />
		<tag k="ssr:hovedgruppe" v="bebyggelse" />
		<tag k="ssr:stedsnr" v="304915" />
		<tag k="ssr:type" v="bruk" />
	</node>
	<node lat="58.808966663191526" lon="5.588997223127023" id="-104">
		<tag k="name" v="Gjesholen" />
		<tag k="place" v="farm" />
		<tag k="ssr:date" v="2016-05-10" />
		<tag k="ssr:gruppe" v="gardsbebyggelse" />
		<tag k="ssr:hovedgruppe" v="bebyggelse" />
		<tag k="ssr:stedsnr" v="304923" />
		<tag k="ssr:type" v="bruk" />
	</node>
	<node lat="58.748036107594466" lon="5.590699992886376" id="-105">
		<tag k="alt_name" v="Storholen" />
		<tag k="name" v="Storeholen" />
		<tag k="place" v="farm" />
		<tag k="ssr:date" v="2016-05-10" />
		<tag k="ssr:gruppe" v="gardsbebyggelse" />
		<tag k="ssr:hovedgruppe" v="bebyggelse" />
		<tag k="ssr:stedsnr" v="304879" />
		<tag k="ssr:type" v="bruk" />
	</node>
	<node lat="58.829671866423894" lon="5.510058785696107" id="-106">
		<tag k="name" v="Steingrunnen" />
		<tag k="natural" v="shoal" />
		<tag k="place" v="locality" />
		<tag k="ssr:date" v="2020-07-16" />
		<tag k="ssr:gruppe" v="grunnerISjø" />
		<tag k="ssr:hovedgruppe" v="sjø" />
		<tag k="ssr:stedsnr" v="464874" />
		<tag k="ssr:type" v="grunneISjø" />
	</node>
	<node lat="58.765619441751845" lon="5.564124998348313" id="-107">
		<tag k="name" v="Ørnhaug" />
		<tag k="natural" v="hill" />
		<tag k="place" v="locality" />
		<tag k="ssr:date" v="2016-05-10" />
		<tag k="ssr:gruppe" v="høyder" />
		<tag k="ssr:hovedgruppe" v="terreng" />
		<tag k="ssr:stedsnr" v="327114" />
		<tag k="ssr:type" v="høyde" />
	</node>
	<node lat="58.769286111333074" lon="5.608138894560441" id="-108">
		<tag k="alt_name" v="Klepp prestegård" />
		<tag k="name" v="Klepp prestegard" />
		<tag k="place" v="farm" />
		<tag k="ssr:date" v="2016-05-10" />
		<tag k="ssr:gruppe" v="gardsbebyggelse" />
		<tag k="ssr:hovedgruppe" v="bebyggelse" />
		<tag k="ssr:stedsnr" v="327120" />
		<tag k="ssr:type" v="bruk" />
	</node>
	<node lat="58.79493611057268" lon="5.598905558707295" id="-109">
		<tag k="alt_name" v="Bore" />
		<tag k="amenity" v="place_of_worship" />
		<tag k="denomination" v="lutheran" />
		<tag k="name" v="Bore kyrkje" />
		<tag k="religion" v="christian" />
		<tag k="ssr:date" v="2016-05-10" />
		<tag k="ssr:gruppe" v="kulturinstitusjoner" />
		<tag k="ssr:hovedgruppe" v="kultur" />
		<tag k="ssr:stedsnr" v="327067" />
		<tag k="ssr:type" v="kirke" />
	</node>
	<node lat="58.81506111509969" lon="5.557766658414745" id="-110">
		<tag k="name" v="Vaulaberget" />
		<tag k="place" v="farm" />
		<tag k="ssr:date" v="2016-05-10" />
		<tag k="ssr:gruppe" v="gardsbebyggelse" />
		<tag k="ssr:hovedgruppe" v="bebyggelse" />
		<tag k="ssr:stedsnr" v="327082" />
		<tag k="ssr:type" v="bruk" />
	</node>
	<node lat="58.79527500405189" lon="5.691822230175628" id="-111">
		<tag k="name" v="Haugane" />
		<tag k="natural" v="hill" />
		<tag k="place" v="locality" />
		<tag k="ssr:date" v="2016-05-10" />
		<tag k="ssr:gruppe" v="høyder" />
		<tag k="ssr:hovedgruppe" v="terreng" />
		<tag k="ssr:stedsnr" v="327267" />
		<tag k="ssr:type" v="haug" />
	</node>
	<node lat="58.80256370736508" lon="5.652797280994302" id="-112">
		<tag k="name" v="Krosshaug" />
		<tag k="natural" v="hill" />
		<tag k="place" v="locality" />
		<tag k="ssr:date" v="2019-09-10" />
		<tag k="ssr:gruppe" v="høyder" />
		<tag k="ssr:hovedgruppe" v="terreng" />
		<tag k="ssr:stedsnr" v="328409" />
		<tag k="ssr:type" v="haug" />
	</node>
	<node lat="58.751299996698165" lon="5.666869440246784" id="-113">
		<tag k="name" v="Austre Tu" />
		<tag k="place" v="farm" />
		<tag k="ssr:date" v="2016-05-10" />
		<tag k="ssr:gruppe" v="gardsbebyggelse" />
		<tag k="ssr:hovedgruppe" v="bebyggelse" />
		<tag k="ssr:stedsnr" v="328414" />
		<tag k="ssr:type" v="bruk" />
	</node>
	<node lat="58.69752777805456" lon="5.520925002615251" id="-114">
		<tag k="name" v="Skeiefluna" />
		<tag k="place" v="locality" />
		<tag k="seamark:type" v="rock" />
		<tag k="ssr:date" v="2016-05-10" />
		<tag k="ssr:gruppe" v="grunnerISjø" />
		<tag k="ssr:hovedgruppe" v="sjø" />
		<tag k="ssr:stedsnr" v="329922" />
		<tag k="ssr:type" v="båeISjø" />
	</node>
	<node lat="58.731219447379175" lon="5.527902774399987" id="-115">
		<tag k="bridge" v="yes" />
		<tag k="layer" v="1" />
		<tag k="name" v="Orre" />
		<tag k="ssr:date" v="2016-05-10" />
		<tag k="ssr:gruppe" v="samferdselsanlegg" />
		<tag k="ssr:hovedgruppe" v="infrastruktur" />
		<tag k="ssr:stedsnr" v="471732" />
		<tag k="ssr:type" v="bru" />
	</node>
	<node lat="58.75973055201684" lon="5.4842222240377305" id="-116">
		<tag k="name" v="Bollen" />
		<tag k="place" v="locality" />
		<tag k="seamark:type" v="rock" />
		<tag k="ssr:date" v="2016-05-10" />
		<tag k="ssr:gruppe" v="grunnerISjø" />
		<tag k="ssr:hovedgruppe" v="sjø" />
		<tag k="ssr:stedsnr" v="342828" />
		<tag k="ssr:type" v="båeISjø" />
	</node>
	<node lat="58.81668889283946" lon="5.5863916615231695" id="-119">
		<tag k="name" v="Timpelen" />
		<tag k="place" v="farm" />
		<tag k="ssr:date" v="2019-12-27" />
		<tag k="ssr:gruppe" v="gardsbebyggelse" />
		<tag k="ssr:hovedgruppe" v="bebyggelse" />
		<tag k="ssr:stedsnr" v="365902" />
		<tag k="ssr:type" v="bruk" />
	</node>
	<node lat="58.818403489682574" lon="5.608131880458053" id="-120">
		<tag k="alt_name" v="Skasheim;Skaseim" />
		<tag k="fixme" v="consider place=hamlet" />
		<tag k="name" v="Skas" />
		<tag k="place" v="farm" />
		<tag k="ssr:date" v="2019-05-28" />
		<tag k="ssr:gruppe" v="gardsbebyggelse" />
		<tag k="ssr:hovedgruppe" v="bebyggelse" />
		<tag k="ssr:stedsnr" v="365903" />
		<tag k="ssr:type" v="gard" />
	</node>
	<node lat="58.74404444504468" lon="5.619152773631321" id="-121">
		<tag k="alt_name" v="Tjøtta" />
		<tag k="name" v="Tjøttamarka" />
		<tag k="place" v="farm" />
		<tag k="ssr:date" v="2016-05-10" />
		<tag k="ssr:gruppe" v="gardsbebyggelse" />
		<tag k="ssr:hovedgruppe" v="bebyggelse" />
		<tag k="ssr:stedsnr" v="485887" />
		<tag k="ssr:type" v="bruk" />
	</node>
	<node lat="58.721500001791824" lon="5.579930548428482" id="-122">
		<tag k="name" v="Pollestadmyra" />
		<tag k="natural" v="wetland" />
		<tag k="ssr:date" v="2016-05-10" />
		<tag k="ssr:gruppe" v="våtmark" />
		<tag k="ssr:hovedgruppe" v="markslag" />
		<tag k="ssr:stedsnr" v="482233" />
		<tag k="ssr:type" v="myr" />
	</node>
	<node lat="58.72976944564389" lon="5.552291659588399" id="-123">
		<tag k="name" v="Brunnvika" />
		<tag k="natural" v="bay" />
		<tag k="ssr:date" v="2016-05-10" />
		<tag k="ssr:gruppe" v="ferskvannskontur" />
		<tag k="ssr:hovedgruppe" v="ferskvann" />
		<tag k="ssr:stedsnr" v="482236" />
		<tag k="ssr:type" v="vik" />
	</node>
	<node lat="58.71799166889339" lon="5.600163895674883" id="-124">
		<tag k="landuse" v="meadow" />
		<tag k="name" v="Saltemarkene" />
		<tag k="ssr:date" v="2016-05-10" />
		<tag k="ssr:gruppe" v="dyrkamark" />
		<tag k="ssr:hovedgruppe" v="markslag" />
		<tag k="ssr:stedsnr" v="482242" />
		<tag k="ssr:type" v="eng" />
	</node>
	<node lat="58.716236111109204" lon="5.543661110352355" id="-125">
		<tag k="landuse" v="meadow" />
		<tag k="name" v="Vikmarka" />
		<tag k="ssr:date" v="2016-05-10" />
		<tag k="ssr:gruppe" v="dyrkamark" />
		<tag k="ssr:hovedgruppe" v="markslag" />
		<tag k="ssr:stedsnr" v="482251" />
		<tag k="ssr:type" v="eng" />
	</node>
	<node lat="58.704786110164754" lon="5.52738611388936" id="-126">
		<tag k="name" v="Vikevik" />
		<tag k="natural" v="bay" />
		<tag k="ssr:date" v="2016-05-10" />
		<tag k="ssr:gruppe" v="kystkontur" />
		<tag k="ssr:hovedgruppe" v="sjø" />
		<tag k="ssr:stedsnr" v="482324" />
		<tag k="ssr:type" v="vikISjø" />
	</node>
	<node lat="58.778472223770315" lon="5.530522221196049" id="-127">
		<tag k="name" v="Moldvika" />
		<tag k="natural" v="bay" />
		<tag k="ssr:date" v="2016-05-10" />
		<tag k="ssr:gruppe" v="kystkontur" />
		<tag k="ssr:hovedgruppe" v="sjø" />
		<tag k="ssr:stedsnr" v="387103" />
		<tag k="ssr:type" v="vikISjø" />
	</node>
	<node lat="58.750094443610855" lon="5.570058329530057" id="-128">
		<tag k="name" v="Fjølheia" />
		<tag k="place" v="farm" />
		<tag k="ssr:date" v="2016-05-10" />
		<tag k="ssr:gruppe" v="gardsbebyggelse" />
		<tag k="ssr:hovedgruppe" v="bebyggelse" />
		<tag k="ssr:stedsnr" v="387125" />
		<tag k="ssr:type" v="bruk" />
	</node>
	<node lat="58.79329444213894" lon="5.6934777753093275" id="-129">
		<tag k="name" v="Øksnavad" />
		<tag k="place" v="farm" />
		<tag k="ssr:date" v="2021-06-08" />
		<tag k="ssr:gruppe" v="gardsbebyggelse" />
		<tag k="ssr:hovedgruppe" v="bebyggelse" />
		<tag k="ssr:stedsnr" v="387695" />
		<tag k="ssr:type" v="bruk" />
	</node>
	<node lat="58.70339999775499" lon="5.567180559171914" id="-130">
		<tag k="name" v="Åsekanalen" />
		<tag k="place" v="locality" />
		<tag k="ssr:date" v="2016-05-10" />
		<tag k="ssr:gruppe" v="detaljerIFerskvann" />
		<tag k="ssr:hovedgruppe" v="ferskvann" />
		<tag k="ssr:stedsnr" v="483347" />
		<tag k="ssr:type" v="annenVanndetalj" />
	</node>
	<node lat="58.7159472184628" lon="5.5199861084369175" id="-131">
		<tag k="alt_name" v="Jærtangen" />
		<tag k="name" v="Gjerdstangen" />
		<tag k="natural" v="cape" />
		<tag k="old_name" v="Jærstangen" />
		<tag k="ssr:date" v="2016-05-10" />
		<tag k="ssr:gruppe" v="kystkontur" />
		<tag k="ssr:hovedgruppe" v="sjø" />
		<tag k="ssr:stedsnr" v="485800" />
		<tag k="ssr:type" v="nesISjø" />
	</node>
	<node lat="58.739861112285894" lon="5.512627780422831" id="-132">
		<tag k="name" v="Orresanden" />
		<tag k="natural" v="beach" />
		<tag k="ssr:date" v="2016-05-10" />
		<tag k="ssr:gruppe" v="kystkontur" />
		<tag k="ssr:hovedgruppe" v="sjø" />
		<tag k="ssr:stedsnr" v="485899" />
		<tag k="ssr:type" v="strandISjø" />
	</node>
	<node lat="58.7486388908519" lon="5.63541943581191" id="-133">
		<tag k="name" v="Tu" />
		<tag k="place" v="farm" />
		<tag k="ssr:date" v="2016-05-10" />
		<tag k="ssr:gruppe" v="gardsbebyggelse" />
		<tag k="ssr:hovedgruppe" v="bebyggelse" />
		<tag k="ssr:stedsnr" v="485900" />
		<tag k="ssr:type" v="bruk" />
	</node>
	<node lat="58.797486109733875" lon="5.723133332767163" id="-134">
		<tag k="name" v="Orstad" />
		<tag k="place" v="village" />
		<tag k="ssr:date" v="2016-05-10" />
		<tag k="ssr:gruppe" v="bebyggelsesområder" />
		<tag k="ssr:hovedgruppe" v="bebyggelse" />
		<tag k="ssr:stedsnr" v="486836" />
		<tag k="ssr:type" v="tettsted" />
	</node>
	<node lat="58.77475833521044" lon="5.662075004776929" id="-135">
		<tag k="bridge" v="yes" />
		<tag k="layer" v="1" />
		<tag k="name" v="Anda" />
		<tag k="ssr:date" v="2016-05-10" />
		<tag k="ssr:gruppe" v="samferdselsanlegg" />
		<tag k="ssr:hovedgruppe" v="infrastruktur" />
		<tag k="ssr:stedsnr" v="411704" />
		<tag k="ssr:type" v="bru" />
	</node>
	<node lat="58.792208333310576" lon="5.6390666691945635" id="-136">
		<tag k="bridge" v="yes" />
		<tag k="layer" v="1" />
		<tag k="name" v="Grude" />
		<tag k="ssr:date" v="2016-05-10" />
		<tag k="ssr:gruppe" v="samferdselsanlegg" />
		<tag k="ssr:hovedgruppe" v="infrastruktur" />
		<tag k="ssr:stedsnr" v="411709" />
		<tag k="ssr:type" v="bru" />
	</node>
	<node lat="58.79116111547028" lon="5.5974083358172075" id="-137">
		<tag k="bridge" v="yes" />
		<tag k="layer" v="1" />
		<tag k="name" v="Leirbekk" />
		<tag k="ssr:date" v="2016-05-10" />
		<tag k="ssr:gruppe" v="samferdselsanlegg" />
		<tag k="ssr:hovedgruppe" v="infrastruktur" />
		<tag k="ssr:stedsnr" v="411713" />
		<tag k="ssr:type" v="bru" />
	</node>
	<node lat="58.78094722526422" lon="5.585072224006162" id="-138">
		<tag k="alt_name" v="Bore, vestre" />
		<tag k="name" v="Vestre Bore" />
		<tag k="place" v="farm" />
		<tag k="ssr:date" v="2016-05-10" />
		<tag k="ssr:gruppe" v="gardsbebyggelse" />
		<tag k="ssr:hovedgruppe" v="bebyggelse" />
		<tag k="ssr:stedsnr" v="425852" />
		<tag k="ssr:type" v="bruk" />
	</node>
	<node lat="58.703623613852095" lon="5.589163487142096" id="-139">
		<tag k="alt_name" v="Salte, midtra;Salte midtre" />
		<tag k="fixme" v="consider place=hamlet" />
		<tag k="name" v="Midtra Salte" />
		<tag k="place" v="farm" />
		<tag k="ssr:date" v="2019-05-24" />
		<tag k="ssr:gruppe" v="gardsbebyggelse" />
		<tag k="ssr:hovedgruppe" v="bebyggelse" />
		<tag k="ssr:stedsnr" v="425797" />
		<tag k="ssr:type" v="gard" />
	</node>
	<node lat="58.737861107918896" lon="5.571811114131833" id="-140">
		<tag k="name" v="Horpestadvatnet" />
		<tag k="natural" v="water" />
		<tag k="ssr:date" v="2016-05-10" />
		<tag k="ssr:gruppe" v="stilleståendeVann" />
		<tag k="ssr:hovedgruppe" v="ferskvann" />
		<tag k="ssr:stedsnr" v="425893" />
		<tag k="ssr:type" v="vann" />
		<tag k="water" v="lake" />
	</node>
	<node lat="58.796669440576416" lon="5.717013888812204" id="-141">
		<tag k="name" v="Orstad" />
		<tag k="place" v="farm" />
		<tag k="ssr:date" v="2016-05-10" />
		<tag k="ssr:gruppe" v="gardsbebyggelse" />
		<tag k="ssr:hovedgruppe" v="bebyggelse" />
		<tag k="ssr:stedsnr" v="426914" />
		<tag k="ssr:type" v="bruk" />
	</node>
	<node lat="58.793341669277" lon="5.677383326285409" id="-142">
		<tag k="name" v="Vaule" />
		<tag k="place" v="farm" />
		<tag k="ssr:date" v="2016-05-10" />
		<tag k="ssr:gruppe" v="gardsbebyggelse" />
		<tag k="ssr:hovedgruppe" v="bebyggelse" />
		<tag k="ssr:stedsnr" v="426923" />
		<tag k="ssr:type" v="bruk" />
	</node>
	<node lat="58.79361666565034" lon="5.689705559899954" id="-143">
		<tag k="name" v="Øksnavad" />
		<tag k="place" v="farm" />
		<tag k="ssr:date" v="2021-06-08" />
		<tag k="ssr:gruppe" v="gardsbebyggelse" />
		<tag k="ssr:hovedgruppe" v="bebyggelse" />
		<tag k="ssr:stedsnr" v="448736" />
		<tag k="ssr:type" v="bruk" />
	</node>
	<node lat="58.794447226695226" lon="5.691874998925484" id="-144">
		<tag k="name" v="Øksnavad" />
		<tag k="place" v="farm" />
		<tag k="ssr:date" v="2021-06-08" />
		<tag k="ssr:gruppe" v="gardsbebyggelse" />
		<tag k="ssr:hovedgruppe" v="bebyggelse" />
		<tag k="ssr:stedsnr" v="448737" />
		<tag k="ssr:type" v="bruk" />
	</node>
	<node lat="58.77087777909898" lon="5.562405558897304" id="-145">
		<tag k="name" v="Mjånes" />
		<tag k="natural" v="cape" />
		<tag k="ssr:date" v="2016-05-10" />
		<tag k="ssr:gruppe" v="ferskvannskontur" />
		<tag k="ssr:hovedgruppe" v="ferskvann" />
		<tag k="ssr:stedsnr" v="449102" />
		<tag k="ssr:type" v="nes" />
	</node>
	<node lat="58.75986388937152" lon="5.606516661281834" id="-146">
		<tag k="name" v="Læga" />
		<tag k="place" v="farm" />
		<tag k="ssr:date" v="2016-05-10" />
		<tag k="ssr:gruppe" v="gardsbebyggelse" />
		<tag k="ssr:hovedgruppe" v="bebyggelse" />
		<tag k="ssr:stedsnr" v="449105" />
		<tag k="ssr:type" v="bruk" />
	</node>
	<node lat="58.802391665500494" lon="5.62909166345209" id="-147">
		<tag k="name" v="Stangelandskanalen" />
		<tag k="ssr:date" v="2016-05-10" />
		<tag k="ssr:gruppe" v="sjøfart" />
		<tag k="ssr:hovedgruppe" v="infrastruktur" />
		<tag k="ssr:stedsnr" v="449407" />
		<tag k="ssr:type" v="kanal" />
		<tag k="waterway" v="canal" />
	</node>
	<node lat="58.771613890483074" lon="5.51428333406063" id="-148">
		<tag k="alt_name" v="Revehamna" />
		<tag k="leisure" v="marina" />
		<tag k="name" v="Revehamnen" />
		<tag k="ssr:date" v="2016-05-10" />
		<tag k="ssr:gruppe" v="sjøfart" />
		<tag k="ssr:hovedgruppe" v="infrastruktur" />
		<tag k="ssr:stedsnr" v="449742" />
		<tag k="ssr:type" v="småbåthavn" />
	</node>
	<node lat="58.804772221676046" lon="5.667952772934666" id="-149">
		<tag k="name" v="Hellebergshøl" />
		<tag k="place" v="locality" />
		<tag k="ssr:date" v="2016-05-10" />
		<tag k="ssr:gruppe" v="rennendeVann" />
		<tag k="ssr:hovedgruppe" v="ferskvann" />
		<tag k="ssr:stedsnr" v="449771" />
		<tag k="ssr:type" v="høl" />
	</node>
	<node lat="58.696983332696" lon="5.5517888969876035" id="-150">
		<tag k="junction" v="yes" />
		<tag k="name" v="Tegningsleet" />
		<tag k="place" v="locality" />
		<tag k="ssr:date" v="2016-05-10" />
		<tag k="ssr:gruppe" v="veg" />
		<tag k="ssr:hovedgruppe" v="infrastruktur" />
		<tag k="ssr:stedsnr" v="482320" />
		<tag k="ssr:type" v="vegkryss" />
	</node>
	<node lat="58.700888887363" lon="5.575886397761827" id="-151">
		<tag k="alt_name" v="Øgard" />
		<tag k="fixme" v="consider place=hamlet" />
		<tag k="name" v="Øydgard" />
		<tag k="place" v="farm" />
		<tag k="ssr:date" v="2019-05-28" />
		<tag k="ssr:gruppe" v="gardsbebyggelse" />
		<tag k="ssr:hovedgruppe" v="bebyggelse" />
		<tag k="ssr:stedsnr" v="485818" />
		<tag k="ssr:type" v="gard" />
	</node>
	<node lat="58.73366111146868" lon="5.602352776466584" id="-152">
		<tag k="name" v="Roslandsåna" />
		<tag k="ssr:date" v="2016-05-10" />
		<tag k="ssr:gruppe" v="rennendeVann" />
		<tag k="ssr:hovedgruppe" v="ferskvann" />
		<tag k="ssr:stedsnr" v="485838" />
		<tag k="ssr:type" v="elv" />
		<tag k="waterway" v="river" />
	</node>
	<node lat="58.789573452935386" lon="5.638683706079073" id="-153">
		<tag k="fixme" v="consider place=hamlet" />
		<tag k="name" v="Håland" />
		<tag k="place" v="farm" />
		<tag k="ssr:date" v="2019-05-24" />
		<tag k="ssr:gruppe" v="gardsbebyggelse" />
		<tag k="ssr:hovedgruppe" v="bebyggelse" />
		<tag k="ssr:stedsnr" v="486911" />
		<tag k="ssr:type" v="gard" />
	</node>
	<node lat="58.75327778157058" lon="5.641855555068182" id="-154">
		<tag k="name" v="Tinghaug" />
		<tag k="natural" v="hill" />
		<tag k="place" v="locality" />
		<tag k="ssr:date" v="2016-05-10" />
		<tag k="ssr:gruppe" v="høyder" />
		<tag k="ssr:hovedgruppe" v="terreng" />
		<tag k="ssr:stedsnr" v="486863" />
		<tag k="ssr:type" v="haug" />
	</node>
	<node lat="58.746555553129795" lon="5.577688883157384" id="-155">
		<tag k="name" v="Rudlebakken" />
		<tag k="place" v="farm" />
		<tag k="ssr:date" v="2016-05-10" />
		<tag k="ssr:gruppe" v="gardsbebyggelse" />
		<tag k="ssr:hovedgruppe" v="bebyggelse" />
		<tag k="ssr:stedsnr" v="509103" />
		<tag k="ssr:type" v="bruk" />
	</node>
	<node lat="58.74466666947167" lon="5.539258330401539" id="-156">
		<tag k="name" v="Ljosatangen" />
		<tag k="natural" v="cape" />
		<tag k="ssr:date" v="2016-05-10" />
		<tag k="ssr:gruppe" v="ferskvannskontur" />
		<tag k="ssr:hovedgruppe" v="ferskvann" />
		<tag k="ssr:stedsnr" v="509110" />
		<tag k="ssr:type" v="nes" />
	</node>
	<node lat="58.77576666432374" lon="5.649566669851482" id="-157">
		<tag k="junction" v="yes" />
		<tag k="name" v="Bruholskrossen" />
		<tag k="place" v="locality" />
		<tag k="ssr:date" v="2016-05-10" />
		<tag k="ssr:gruppe" v="veg" />
		<tag k="ssr:hovedgruppe" v="infrastruktur" />
		<tag k="ssr:stedsnr" v="509415" />
		<tag k="ssr:type" v="vegkryss" />
	</node>
	<node lat="58.76976666779696" lon="5.677644435692426" id="-158">
		<tag k="name" v="Sandholmen" />
		<tag k="place" v="islet" />
		<tag k="ssr:date" v="2016-05-10" />
		<tag k="ssr:gruppe" v="ferskvannskontur" />
		<tag k="ssr:hovedgruppe" v="ferskvann" />
		<tag k="ssr:stedsnr" v="509422" />
		<tag k="ssr:type" v="holme" />
	</node>
	<node lat="58.775762166927144" lon="5.686036271950625" id="-159">
		<tag k="fixme" v="consider place=hamlet" />
		<tag k="name" v="Engelsvoll" />
		<tag k="place" v="farm" />
		<tag k="ssr:date" v="2019-05-24" />
		<tag k="ssr:gruppe" v="gardsbebyggelse" />
		<tag k="ssr:hovedgruppe" v="bebyggelse" />
		<tag k="ssr:stedsnr" v="509426" />
		<tag k="ssr:type" v="gard" />
	</node>
	<node lat="58.773769449077136" lon="5.6133194510163" id="-160">
		<tag k="fixme" v="multiple name tags, choose one and add the other to alt_name" />
		<tag k="name" v="Kleppelunden;Lunden" />
		<tag k="natural" v="valley" />
		<tag k="place" v="locality" />
		<tag k="ssr:date" v="2021-06-08" />
		<tag k="ssr:gruppe" v="senkninger" />
		<tag k="ssr:hovedgruppe" v="terreng" />
		<tag k="ssr:stedsnr" v="509428" />
		<tag k="ssr:type" v="dal" />
	</node>
	<node lat="58.76581111005827" lon="5.509533336585535" id="-161">
		<tag k="name" v="Ytre Reve" />
		<tag k="place" v="farm" />
		<tag k="ssr:date" v="2016-05-10" />
		<tag k="ssr:gruppe" v="gardsbebyggelse" />
		<tag k="ssr:hovedgruppe" v="bebyggelse" />
		<tag k="ssr:stedsnr" v="509722" />
		<tag k="ssr:type" v="bruk" />
	</node>
	<node lat="58.77783889184589" lon="5.676694445600098" id="-162">
		<tag k="name" v="Engelsvoll" />
		<tag k="place" v="quarter" />
		<tag k="ssr:date" v="2016-05-10" />
		<tag k="ssr:gruppe" v="bebyggelsesområder" />
		<tag k="ssr:hovedgruppe" v="bebyggelse" />
		<tag k="ssr:stedsnr" v="510256" />
		<tag k="ssr:type" v="boligfelt" />
	</node>
	<node lat="58.799483333116335" lon="5.716255549250998" id="-163">
		<tag k="name" v="Messingheia" />
		<tag k="natural" v="hill" />
		<tag k="place" v="locality" />
		<tag k="ssr:date" v="2016-05-10" />
		<tag k="ssr:gruppe" v="høyder" />
		<tag k="ssr:hovedgruppe" v="terreng" />
		<tag k="ssr:stedsnr" v="510823" />
		<tag k="ssr:type" v="haug" />
	</node>
	<node lat="58.71473055950138" lon="5.53151110523069" id="-165">
		<tag k="junction" v="yes" />
		<tag k="name" v="Vikkrossen" />
		<tag k="place" v="locality" />
		<tag k="ssr:date" v="2016-05-10" />
		<tag k="ssr:gruppe" v="veg" />
		<tag k="ssr:hovedgruppe" v="infrastruktur" />
		<tag k="ssr:stedsnr" v="543281" />
		<tag k="ssr:type" v="vegkryss" />
	</node>
	<node lat="58.71256666725212" lon="5.619108325193985" id="-166">
		<tag k="name" v="Neset" />
		<tag k="place" v="farm" />
		<tag k="ssr:date" v="2016-05-10" />
		<tag k="ssr:gruppe" v="gardsbebyggelse" />
		<tag k="ssr:hovedgruppe" v="bebyggelse" />
		<tag k="ssr:stedsnr" v="544478" />
		<tag k="ssr:type" v="bruk" />
	</node>
	<node lat="58.76514366399287" lon="5.621098870973202" id="-167">
		<tag k="fixme" v="consider place=hamlet" />
		<tag k="name" v="Nord-Braut" />
		<tag k="place" v="farm" />
		<tag k="ssr:date" v="2019-05-24" />
		<tag k="ssr:gruppe" v="gardsbebyggelse" />
		<tag k="ssr:hovedgruppe" v="bebyggelse" />
		<tag k="ssr:stedsnr" v="546802" />
		<tag k="ssr:type" v="gard" />
	</node>
	<node lat="58.70081667040632" lon="5.531874993252803" id="-168">
		<tag k="name" v="Åsetangen" />
		<tag k="natural" v="cape" />
		<tag k="ssr:date" v="2016-05-10" />
		<tag k="ssr:gruppe" v="kystkontur" />
		<tag k="ssr:hovedgruppe" v="sjø" />
		<tag k="ssr:stedsnr" v="546817" />
		<tag k="ssr:type" v="nesISjø" />
	</node>
	<node lat="58.70823352506883" lon="5.53827390520457" id="-169">
		<tag k="fixme" v="consider place=hamlet" />
		<tag k="name" v="Skeie" />
		<tag k="place" v="farm" />
		<tag k="ssr:date" v="2019-05-28" />
		<tag k="ssr:gruppe" v="gardsbebyggelse" />
		<tag k="ssr:hovedgruppe" v="bebyggelse" />
		<tag k="ssr:stedsnr" v="546818" />
		<tag k="ssr:type" v="gard" />
	</node>
	<node lat="58.744447219372496" lon="5.633697229840098" id="-170">
		<tag k="name" v="Kåsen" />
		<tag k="place" v="farm" />
		<tag k="ssr:date" v="2016-05-10" />
		<tag k="ssr:gruppe" v="gardsbebyggelse" />
		<tag k="ssr:hovedgruppe" v="bebyggelse" />
		<tag k="ssr:stedsnr" v="546885" />
		<tag k="ssr:type" v="bruk" />
	</node>
	<node lat="58.76437777811492" lon="5.653844436836489" id="-171">
		<tag k="name" v="Anda" />
		<tag k="place" v="farm" />
		<tag k="ssr:date" v="2016-05-10" />
		<tag k="ssr:gruppe" v="gardsbebyggelse" />
		<tag k="ssr:hovedgruppe" v="bebyggelse" />
		<tag k="ssr:stedsnr" v="546786" />
		<tag k="ssr:type" v="bruk" />
	</node>
	<node lat="58.82306666277462" lon="5.554802778808408" id="-172">
		<tag k="alt_name" v="Rindå" />
		<tag k="name" v="Rinda" />
		<tag k="old_name" v="Rindi" />
		<tag k="place" v="farm" />
		<tag k="ssr:date" v="2016-05-10" />
		<tag k="ssr:gruppe" v="gardsbebyggelse" />
		<tag k="ssr:hovedgruppe" v="bebyggelse" />
		<tag k="ssr:stedsnr" v="547915" />
		<tag k="ssr:type" v="bruk" />
	</node>
	<node lat="58.78910903568699" lon="5.579402576383691" id="-173">
		<tag k="cemetery" v="grave" />
		<tag k="name" v="Bore gamle kyrkjegard" />
		<tag k="place" v="locality" />
		<tag k="ssr:date" v="2021-01-12" />
		<tag k="ssr:gruppe" v="kulturinstitusjoner" />
		<tag k="ssr:hovedgruppe" v="kultur" />
		<tag k="ssr:stedsnr" v="691088" />
		<tag k="ssr:type" v="gravplass" />
	</node>
	<node lat="58.7796555515032" lon="5.689511109115055" id="-174">
		<tag k="name" v="Engjelsvåg" />
		<tag k="natural" v="water" />
		<tag k="ssr:date" v="2016-05-11" />
		<tag k="ssr:gruppe" v="stilleståendeVann" />
		<tag k="ssr:hovedgruppe" v="ferskvann" />
		<tag k="ssr:stedsnr" v="692242" />
		<tag k="ssr:type" v="vann" />
		<tag k="water" v="lake" />
	</node>
	<node lat="58.7767194436585" lon="5.6902916700311446" id="-175">
		<tag k="name" v="Syllesbukta" />
		<tag k="natural" v="bay" />
		<tag k="ssr:date" v="2016-05-11" />
		<tag k="ssr:gruppe" v="ferskvannskontur" />
		<tag k="ssr:hovedgruppe" v="ferskvann" />
		<tag k="ssr:stedsnr" v="692245" />
		<tag k="ssr:type" v="vik" />
	</node>
	<node lat="58.81376388614837" lon="5.588027785913963" id="-176">
		<tag k="junction" v="yes" />
		<tag k="name" v="Langholskrossen" />
		<tag k="place" v="locality" />
		<tag k="ssr:date" v="2016-05-10" />
		<tag k="ssr:gruppe" v="veg" />
		<tag k="ssr:hovedgruppe" v="infrastruktur" />
		<tag k="ssr:stedsnr" v="569111" />
		<tag k="ssr:type" v="vegkryss" />
	</node>
	<node lat="58.74332222600696" lon="5.560269446274087" id="-177">
		<tag k="name" v="Kringlemyr" />
		<tag k="place" v="farm" />
		<tag k="ssr:date" v="2016-05-10" />
		<tag k="ssr:gruppe" v="gardsbebyggelse" />
		<tag k="ssr:hovedgruppe" v="bebyggelse" />
		<tag k="ssr:stedsnr" v="569114" />
		<tag k="ssr:type" v="bruk" />
	</node>
	<node lat="58.83526944688741" lon="5.501636118056393" id="-178">
		<tag k="name" v="Hausen" />
		<tag k="place" v="locality" />
		<tag k="seamark:type" v="rock" />
		<tag k="ssr:date" v="2016-05-10" />
		<tag k="ssr:gruppe" v="grunnerISjø" />
		<tag k="ssr:hovedgruppe" v="sjø" />
		<tag k="ssr:stedsnr" v="585834" />
		<tag k="ssr:type" v="båeISjø" />
	</node>
	<node lat="58.81889444468696" lon="5.499041663924091" id="-179">
		<tag k="name" v="Løyndagrunnen" />
		<tag k="natural" v="shoal" />
		<tag k="place" v="locality" />
		<tag k="ssr:date" v="2016-05-10" />
		<tag k="ssr:gruppe" v="grunnerISjø" />
		<tag k="ssr:hovedgruppe" v="sjø" />
		<tag k="ssr:stedsnr" v="585853" />
		<tag k="ssr:type" v="grunneISjø" />
	</node>
	<node lat="58.81328055258783" lon="5.494236117023827" id="-180">
		<tag k="name" v="Litlegrunnen" />
		<tag k="natural" v="shoal" />
		<tag k="place" v="locality" />
		<tag k="ssr:date" v="2016-05-10" />
		<tag k="ssr:gruppe" v="grunnerISjø" />
		<tag k="ssr:hovedgruppe" v="sjø" />
		<tag k="ssr:stedsnr" v="585855" />
		<tag k="ssr:type" v="grunneISjø" />
	</node>
	<node lat="58.73066111303003" lon="5.594569436903263" id="-181">
		<tag k="name" v="Flatholen" />
		<tag k="place" v="farm" />
		<tag k="ssr:date" v="2016-05-10" />
		<tag k="ssr:gruppe" v="gardsbebyggelse" />
		<tag k="ssr:hovedgruppe" v="bebyggelse" />
		<tag k="ssr:stedsnr" v="603299" />
		<tag k="ssr:type" v="bruk" />
	</node>
	<node lat="58.750355334966024" lon="5.654497328764724" id="-182">
		<tag k="fixme" v="consider place=hamlet" />
		<tag k="name" v="Tu" />
		<tag k="place" v="farm" />
		<tag k="ssr:date" v="2019-05-24" />
		<tag k="ssr:gruppe" v="gardsbebyggelse" />
		<tag k="ssr:hovedgruppe" v="bebyggelse" />
		<tag k="ssr:stedsnr" v="606901" />
		<tag k="ssr:type" v="gard" />
	</node>
	<node lat="58.79339722446115" lon="5.594233324613694" id="-183">
		<tag k="name" v="Fransahølen" />
		<tag k="place" v="locality" />
		<tag k="ssr:date" v="2016-05-10" />
		<tag k="ssr:gruppe" v="rennendeVann" />
		<tag k="ssr:hovedgruppe" v="ferskvann" />
		<tag k="ssr:stedsnr" v="630071" />
		<tag k="ssr:type" v="høl" />
	</node>
	<node lat="58.806133336229024" lon="5.564347228701419" id="-184">
		<tag k="name" v="Rødbekk" />
		<tag k="ssr:date" v="2016-05-10" />
		<tag k="ssr:gruppe" v="sjøfart" />
		<tag k="ssr:hovedgruppe" v="infrastruktur" />
		<tag k="ssr:stedsnr" v="630092" />
		<tag k="ssr:type" v="kanal" />
		<tag k="waterway" v="canal" />
	</node>
	<node lat="58.78205278094561" lon="5.5350555593135065" id="-185">
		<tag k="name" v="Kyrkjesteinstangen" />
		<tag k="natural" v="cape" />
		<tag k="ssr:date" v="2016-05-10" />
		<tag k="ssr:gruppe" v="kystkontur" />
		<tag k="ssr:hovedgruppe" v="sjø" />
		<tag k="ssr:stedsnr" v="630098" />
		<tag k="ssr:type" v="nesISjø" />
	</node>
	<node lat="58.77746389048656" lon="5.528899991800934" id="-186">
		<tag k="name" v="Honstø" />
		<tag k="natural" v="cape" />
		<tag k="ssr:date" v="2016-05-10" />
		<tag k="ssr:gruppe" v="kystkontur" />
		<tag k="ssr:hovedgruppe" v="sjø" />
		<tag k="ssr:stedsnr" v="630103" />
		<tag k="ssr:type" v="nesISjø" />
	</node>
	<node lat="58.73768332961422" lon="5.553550004818779" id="-187">
		<tag k="name" v="Horpestadkanalen" />
		<tag k="ssr:date" v="2016-05-10" />
		<tag k="ssr:gruppe" v="sjøfart" />
		<tag k="ssr:hovedgruppe" v="infrastruktur" />
		<tag k="ssr:stedsnr" v="630108" />
		<tag k="ssr:type" v="kanal" />
		<tag k="waterway" v="canal" />
	</node>
	<node lat="58.73982777482555" lon="5.626047229423918" id="-188">
		<tag k="junction" v="yes" />
		<tag k="name" v="Tjøttakrossen" />
		<tag k="place" v="locality" />
		<tag k="ssr:date" v="2016-05-10" />
		<tag k="ssr:gruppe" v="veg" />
		<tag k="ssr:hovedgruppe" v="infrastruktur" />
		<tag k="ssr:stedsnr" v="630402" />
		<tag k="ssr:type" v="vegkryss" />
	</node>
	<node lat="58.702313886054725" lon="5.520397230983154" id="-189">
		<tag k="name" v="Vikbåen" />
		<tag k="place" v="locality" />
		<tag k="seamark:type" v="rock" />
		<tag k="ssr:date" v="2016-05-10" />
		<tag k="ssr:gruppe" v="grunnerISjø" />
		<tag k="ssr:hovedgruppe" v="sjø" />
		<tag k="ssr:stedsnr" v="632916" />
		<tag k="ssr:type" v="båeISjø" />
	</node>
	<node lat="58.78048055990235" lon="5.653224997933121" id="-190">
		<tag k="name" v="Hattaland" />
		<tag k="place" v="farm" />
		<tag k="ssr:date" v="2021-06-08" />
		<tag k="ssr:gruppe" v="gardsbebyggelse" />
		<tag k="ssr:hovedgruppe" v="bebyggelse" />
		<tag k="ssr:stedsnr" v="633327" />
		<tag k="ssr:type" v="bruk" />
	</node>
	<node lat="58.781491664856574" lon="5.616861105821932" id="-191">
		<tag k="bridge" v="yes" />
		<tag k="layer" v="1" />
		<tag k="name" v="Håland" />
		<tag k="ssr:date" v="2016-05-10" />
		<tag k="ssr:gruppe" v="samferdselsanlegg" />
		<tag k="ssr:hovedgruppe" v="infrastruktur" />
		<tag k="ssr:stedsnr" v="653744" />
		<tag k="ssr:type" v="bru" />
	</node>
	<node lat="58.722686108541396" lon="5.549538887745244" id="-192">
		<tag k="name" v="Ergamyra" />
		<tag k="natural" v="wetland" />
		<tag k="ssr:date" v="2016-05-10" />
		<tag k="ssr:gruppe" v="våtmark" />
		<tag k="ssr:hovedgruppe" v="markslag" />
		<tag k="ssr:stedsnr" v="664233" />
		<tag k="ssr:type" v="myr" />
	</node>
	<node lat="58.727522218783214" lon="5.594186115843859" id="-193">
		<tag k="name" v="Grødelandskanalen" />
		<tag k="place" v="locality" />
		<tag k="ssr:date" v="2016-05-10" />
		<tag k="ssr:gruppe" v="detaljerIFerskvann" />
		<tag k="ssr:hovedgruppe" v="ferskvann" />
		<tag k="ssr:stedsnr" v="664289" />
		<tag k="ssr:type" v="annenVanndetalj" />
	</node>
	<node lat="58.70226944028437" lon="5.542369441322138" id="-194">
		<tag k="junction" v="yes" />
		<tag k="name" v="Åsekrossen" />
		<tag k="place" v="locality" />
		<tag k="ssr:date" v="2016-05-10" />
		<tag k="ssr:gruppe" v="veg" />
		<tag k="ssr:hovedgruppe" v="infrastruktur" />
		<tag k="ssr:stedsnr" v="664294" />
		<tag k="ssr:type" v="vegkryss" />
	</node>
	<node lat="58.820838885174155" lon="5.398322228531852" id="-195">
		<tag k="name" v="Snytegrunnen" />
		<tag k="natural" v="shoal" />
		<tag k="place" v="locality" />
		<tag k="ssr:date" v="2016-05-10" />
		<tag k="ssr:gruppe" v="grunnerISjø" />
		<tag k="ssr:hovedgruppe" v="sjø" />
		<tag k="ssr:stedsnr" v="664907" />
		<tag k="ssr:type" v="grunneISjø" />
	</node>
	<node lat="58.70258055472978" lon="5.613961106992689" id="-196">
		<tag k="name" v="Seriksheia" />
		<tag k="old_name" v="Serikheia" />
		<tag k="place" v="farm" />
		<tag k="ssr:date" v="2016-05-10" />
		<tag k="ssr:gruppe" v="gardsbebyggelse" />
		<tag k="ssr:hovedgruppe" v="bebyggelse" />
		<tag k="ssr:stedsnr" v="667737" />
		<tag k="ssr:type" v="bruk" />
	</node>
	<node lat="58.744297223178314" lon="5.528211110334379" id="-197">
		<tag k="name" v="Ljoshaug" />
		<tag k="natural" v="hill" />
		<tag k="old_name" v="Jordhaug" />
		<tag k="place" v="locality" />
		<tag k="ssr:date" v="2016-05-10" />
		<tag k="ssr:gruppe" v="høyder" />
		<tag k="ssr:hovedgruppe" v="terreng" />
		<tag k="ssr:stedsnr" v="667887" />
		<tag k="ssr:type" v="haug" />
	</node>
	<node lat="58.74890555698669" lon="5.601647213577259" id="-198">
		<tag k="name" v="Revholen" />
		<tag k="place" v="farm" />
		<tag k="ssr:date" v="2016-05-10" />
		<tag k="ssr:gruppe" v="gardsbebyggelse" />
		<tag k="ssr:hovedgruppe" v="bebyggelse" />
		<tag k="ssr:stedsnr" v="667888" />
		<tag k="ssr:type" v="bruk" />
	</node>
	<node lat="58.74596388432494" lon="5.608047217058291" id="-199">
		<tag k="alt_name" v="Sørbraut" />
		<tag k="name" v="Sør-Braut" />
		<tag k="place" v="farm" />
		<tag k="ssr:date" v="2016-05-10" />
		<tag k="ssr:gruppe" v="gardsbebyggelse" />
		<tag k="ssr:hovedgruppe" v="bebyggelse" />
		<tag k="ssr:stedsnr" v="667890" />
		<tag k="ssr:type" v="bruk" />
	</node>
	<node lat="58.754275003651586" lon="5.637661117830291" id="-200">
		<tag k="name" v="Krossvoll" />
		<tag k="place" v="farm" />
		<tag k="ssr:date" v="2016-05-10" />
		<tag k="ssr:gruppe" v="gardsbebyggelse" />
		<tag k="ssr:hovedgruppe" v="bebyggelse" />
		<tag k="ssr:stedsnr" v="668822" />
		<tag k="ssr:type" v="bruk" />
	</node>
	<node lat="58.71345833172756" lon="5.614391667606369" id="-201">
		<tag k="alt_name" v="Brenderholen" />
		<tag k="name" v="Brendarholen" />
		<tag k="old_name" v="Brendaholen" />
		<tag k="place" v="farm" />
		<tag k="ssr:date" v="2016-05-10" />
		<tag k="ssr:gruppe" v="gardsbebyggelse" />
		<tag k="ssr:hovedgruppe" v="bebyggelse" />
		<tag k="ssr:stedsnr" v="668823" />
		<tag k="ssr:type" v="bruk" />
	</node>
	<node lat="58.788288888998906" lon="5.626627771829884" id="-202">
		<tag k="alt_name" v="Grude" />
		<tag k="name" v="Gruda" />
		<tag k="place" v="farm" />
		<tag k="ssr:date" v="2016-05-10" />
		<tag k="ssr:gruppe" v="gardsbebyggelse" />
		<tag k="ssr:hovedgruppe" v="bebyggelse" />
		<tag k="ssr:stedsnr" v="668903" />
		<tag k="ssr:type" v="bruk" />
	</node>
	<node lat="58.805544447242866" lon="5.665711119243044" id="-203">
		<tag k="name" v="Helleberget" />
		<tag k="natural" v="hill" />
		<tag k="place" v="locality" />
		<tag k="ssr:date" v="2016-05-10" />
		<tag k="ssr:gruppe" v="høyder" />
		<tag k="ssr:hovedgruppe" v="terreng" />
		<tag k="ssr:stedsnr" v="668915" />
		<tag k="ssr:type" v="berg" />
	</node>
	<node lat="58.803052775639756" lon="5.557708331414553" id="-204">
		<tag k="name" v="Buahølen" />
		<tag k="place" v="locality" />
		<tag k="ssr:date" v="2016-05-11" />
		<tag k="ssr:gruppe" v="rennendeVann" />
		<tag k="ssr:hovedgruppe" v="ferskvann" />
		<tag k="ssr:stedsnr" v="691110" />
		<tag k="ssr:type" v="høl" />
	</node>
	<node lat="58.78916944686443" lon="5.536008334748302" id="-205">
		<tag k="fixme" v="consider seamark:type=rock or natural=shoal" />
		<tag k="name" v="Fuglingskjeret" />
		<tag k="place" v="islet" />
		<tag k="ssr:date" v="2016-05-11" />
		<tag k="ssr:gruppe" v="grunnerISjø" />
		<tag k="ssr:hovedgruppe" v="sjø" />
		<tag k="ssr:stedsnr" v="691116" />
		<tag k="ssr:type" v="skjærISjø" />
	</node>
	<node lat="58.78964166274229" lon="5.54313055584961" id="-206">
		<tag k="name" v="Hodnesanden" />
		<tag k="natural" v="beach" />
		<tag k="ssr:date" v="2016-05-11" />
		<tag k="ssr:gruppe" v="kystkontur" />
		<tag k="ssr:hovedgruppe" v="sjø" />
		<tag k="ssr:stedsnr" v="691120" />
		<tag k="ssr:type" v="strandISjø" />
	</node>
	<node lat="58.744219442206195" lon="5.591602775688491" id="-207">
		<tag k="name" v="Veiene" />
		<tag k="place" v="farm" />
		<tag k="ssr:date" v="2016-05-11" />
		<tag k="ssr:gruppe" v="gardsbebyggelse" />
		<tag k="ssr:hovedgruppe" v="bebyggelse" />
		<tag k="ssr:stedsnr" v="691123" />
		<tag k="ssr:type" v="bruk" />
	</node>
	<node lat="58.76673333223259" lon="5.559158328617863" id="-208">
		<tag k="name" v="Båsbakken" />
		<tag k="natural" v="slope" />
		<tag k="place" v="locality" />
		<tag k="ssr:date" v="2016-05-11" />
		<tag k="ssr:gruppe" v="skråninger" />
		<tag k="ssr:hovedgruppe" v="terreng" />
		<tag k="ssr:stedsnr" v="691142" />
		<tag k="ssr:type" v="bakke" />
	</node>
	<node lat="58.770766664770505" lon="5.591997226827647" id="-209">
		<tag k="name" v="Langholen" />
		<tag k="natural" v="hill" />
		<tag k="place" v="locality" />
		<tag k="ssr:date" v="2016-05-11" />
		<tag k="ssr:gruppe" v="høyder" />
		<tag k="ssr:hovedgruppe" v="terreng" />
		<tag k="ssr:stedsnr" v="691150" />
		<tag k="ssr:type" v="høyde" />
	</node>
	<node lat="58.78005278151631" lon="5.707977781729774" id="-210">
		<tag k="name" v="Tolleivsholmen" />
		<tag k="place" v="islet" />
		<tag k="ssr:date" v="2016-05-11" />
		<tag k="ssr:gruppe" v="ferskvannskontur" />
		<tag k="ssr:hovedgruppe" v="ferskvann" />
		<tag k="ssr:stedsnr" v="691305" />
		<tag k="ssr:type" v="holme" />
	</node>
	<node lat="58.82249166834785" lon="5.560233326026857" id="-211">
		<tag k="name" v="Selekanalen" />
		<tag k="ssr:date" v="2016-05-11" />
		<tag k="ssr:gruppe" v="sjøfart" />
		<tag k="ssr:hovedgruppe" v="infrastruktur" />
		<tag k="ssr:stedsnr" v="691401" />
		<tag k="ssr:type" v="kanal" />
		<tag k="waterway" v="canal" />
	</node>
	<node lat="58.77783889178015" lon="5.610447216464708" id="-213">
		<tag k="name" v="Vestre Håland" />
		<tag k="place" v="farm" />
		<tag k="ssr:date" v="2016-05-11" />
		<tag k="ssr:gruppe" v="gardsbebyggelse" />
		<tag k="ssr:hovedgruppe" v="bebyggelse" />
		<tag k="ssr:stedsnr" v="692414" />
		<tag k="ssr:type" v="bruk" />
	</node>
	<node lat="58.782216666675296" lon="5.619097222615532" id="-214">
		<tag k="name" v="Kleppemyra" />
		<tag k="natural" v="wetland" />
		<tag k="ssr:date" v="2016-05-11" />
		<tag k="ssr:gruppe" v="våtmark" />
		<tag k="ssr:hovedgruppe" v="markslag" />
		<tag k="ssr:stedsnr" v="692415" />
		<tag k="ssr:type" v="myr" />
	</node>
	<node lat="58.780622226516215" lon="5.628333337059544" id="-215">
		<tag k="name" v="Kleppekanalen" />
		<tag k="ssr:date" v="2016-05-11" />
		<tag k="ssr:gruppe" v="sjøfart" />
		<tag k="ssr:hovedgruppe" v="infrastruktur" />
		<tag k="ssr:stedsnr" v="692416" />
		<tag k="ssr:type" v="kanal" />
		<tag k="waterway" v="canal" />
	</node>
	<node lat="58.80093055124503" lon="5.694799998790887" id="-216">
		<tag k="name" v="Loen" />
		<tag k="place" v="farm" />
		<tag k="ssr:date" v="2016-05-11" />
		<tag k="ssr:gruppe" v="gardsbebyggelse" />
		<tag k="ssr:hovedgruppe" v="bebyggelse" />
		<tag k="ssr:stedsnr" v="692788" />
		<tag k="ssr:type" v="bruk" />
	</node>
	<node lat="58.799413885930555" lon="5.699225002074068" id="-217">
		<tag k="name" v="Osen" />
		<tag k="place" v="locality" />
		<tag k="ssr:date" v="2016-05-11" />
		<tag k="ssr:gruppe" v="rennendeVann" />
		<tag k="ssr:hovedgruppe" v="ferskvann" />
		<tag k="ssr:stedsnr" v="692789" />
		<tag k="ssr:type" v="høl" />
	</node>
	<node lat="58.79950870824872" lon="5.676572012981699" id="-218">
		<tag k="name" v="Øksnavadtjørna" />
		<tag k="natural" v="water" />
		<tag k="ssr:date" v="2021-06-08" />
		<tag k="ssr:gruppe" v="stilleståendeVann" />
		<tag k="ssr:hovedgruppe" v="ferskvann" />
		<tag k="ssr:stedsnr" v="692790" />
		<tag k="ssr:type" v="tjern" />
	</node>
	<node lat="58.71759444085902" lon="5.520080557479568" id="-219">
		<tag k="alt_name" v="Grønnhaugvika" />
		<tag k="name" v="Grønhaugvika" />
		<tag k="natural" v="bay" />
		<tag k="ssr:date" v="2016-05-11" />
		<tag k="ssr:gruppe" v="kystkontur" />
		<tag k="ssr:hovedgruppe" v="sjø" />
		<tag k="ssr:stedsnr" v="692913" />
		<tag k="ssr:type" v="vikISjø" />
	</node>
	<node lat="58.778883336149214" lon="5.650269439546147" id="-220">
		<tag k="name" v="Hattaland" />
		<tag k="place" v="farm" />
		<tag k="ssr:date" v="2021-06-08" />
		<tag k="ssr:gruppe" v="gardsbebyggelse" />
		<tag k="ssr:hovedgruppe" v="bebyggelse" />
		<tag k="ssr:stedsnr" v="694271" />
		<tag k="ssr:type" v="bruk" />
	</node>
	<node lat="58.784147220365334" lon="5.604177776237772" id="-221">
		<tag k="bridge" v="yes" />
		<tag k="layer" v="1" />
		<tag k="name" v="Verdalen" />
		<tag k="ssr:date" v="2016-05-11" />
		<tag k="ssr:gruppe" v="samferdselsanlegg" />
		<tag k="ssr:hovedgruppe" v="infrastruktur" />
		<tag k="ssr:stedsnr" v="896787" />
		<tag k="ssr:type" v="bru" />
	</node>
	<node lat="58.80460277554196" lon="5.602238883196734" id="-222">
		<tag k="bridge" v="yes" />
		<tag k="layer" v="1" />
		<tag k="name" v="Voll" />
		<tag k="ssr:date" v="2016-05-11" />
		<tag k="ssr:gruppe" v="samferdselsanlegg" />
		<tag k="ssr:hovedgruppe" v="infrastruktur" />
		<tag k="ssr:stedsnr" v="896790" />
		<tag k="ssr:type" v="bru" />
	</node>
	<node lat="58.82657222070607" lon="5.509741669619679" id="-223">
		<tag k="fixme" v="consider seamark:type=rock or natural=shoal" />
		<tag k="name" v="Floskjeret" />
		<tag k="place" v="islet" />
		<tag k="ssr:date" v="2016-05-11" />
		<tag k="ssr:gruppe" v="grunnerISjø" />
		<tag k="ssr:hovedgruppe" v="sjø" />
		<tag k="ssr:stedsnr" v="706859" />
		<tag k="ssr:type" v="skjærISjø" />
	</node>
	<node lat="58.78555555865078" lon="5.642386118505029" id="-224">
		<tag k="bridge" v="yes" />
		<tag k="layer" v="1" />
		<tag k="name" v="Storhaug" />
		<tag k="ssr:date" v="2016-05-11" />
		<tag k="ssr:gruppe" v="samferdselsanlegg" />
		<tag k="ssr:hovedgruppe" v="infrastruktur" />
		<tag k="ssr:stedsnr" v="714735" />
		<tag k="ssr:type" v="bru" />
	</node>
	<node lat="58.746724996095985" lon="5.5379916675280585" id="-225">
		<tag k="name" v="Orrevatnet" />
		<tag k="natural" v="water" />
		<tag k="ssr:date" v="2016-05-11" />
		<tag k="ssr:gruppe" v="stilleståendeVann" />
		<tag k="ssr:hovedgruppe" v="ferskvann" />
		<tag k="ssr:stedsnr" v="728894" />
		<tag k="ssr:type" v="innsjø" />
		<tag k="water" v="lake" />
	</node>
	<node lat="58.780698196661746" lon="5.564386466953013" id="-226">
		<tag k="alt_name" v="Borsheim" />
		<tag k="fixme" v="consider place=hamlet" />
		<tag k="name" v="Borsåk" />
		<tag k="place" v="farm" />
		<tag k="ssr:date" v="2019-05-28" />
		<tag k="ssr:gruppe" v="gardsbebyggelse" />
		<tag k="ssr:hovedgruppe" v="bebyggelse" />
		<tag k="ssr:stedsnr" v="729840" />
		<tag k="ssr:type" v="gard" />
	</node>
	<node lat="58.777605554476494" lon="5.609838894249757" id="-227">
		<tag k="name" v="Håland" />
		<tag k="place" v="farm" />
		<tag k="ssr:date" v="2016-05-11" />
		<tag k="ssr:gruppe" v="gardsbebyggelse" />
		<tag k="ssr:hovedgruppe" v="bebyggelse" />
		<tag k="ssr:stedsnr" v="729842" />
		<tag k="ssr:type" v="bruk" />
	</node>
	<node lat="58.77802069318715" lon="5.620956899063606" id="-228">
		<tag k="fixme" v="consider place=hamlet" />
		<tag k="name" v="Kleppe" />
		<tag k="place" v="farm" />
		<tag k="ssr:date" v="2019-05-24" />
		<tag k="ssr:gruppe" v="gardsbebyggelse" />
		<tag k="ssr:hovedgruppe" v="bebyggelse" />
		<tag k="ssr:stedsnr" v="729844" />
		<tag k="ssr:type" v="gard" />
	</node>
	<node lat="58.781816669827656" lon="5.600755551168345" id="-229">
		<tag k="name" v="Tjømamyra" />
		<tag k="natural" v="wetland" />
		<tag k="ssr:date" v="2016-05-11" />
		<tag k="ssr:gruppe" v="våtmark" />
		<tag k="ssr:hovedgruppe" v="markslag" />
		<tag k="ssr:stedsnr" v="752056" />
		<tag k="ssr:type" v="myr" />
	</node>
	<node lat="58.81211943895129" lon="5.577188323717496" id="-230">
		<tag k="name" v="Fiskarberget" />
		<tag k="place" v="farm" />
		<tag k="ssr:date" v="2019-09-10" />
		<tag k="ssr:gruppe" v="gardsbebyggelse" />
		<tag k="ssr:hovedgruppe" v="bebyggelse" />
		<tag k="ssr:stedsnr" v="752064" />
		<tag k="ssr:type" v="bruk" />
	</node>
	<node lat="58.822238887114494" lon="5.550827770347702" id="-231">
		<tag k="name" v="Haganes" />
		<tag k="natural" v="hill" />
		<tag k="place" v="locality" />
		<tag k="ssr:date" v="2016-05-11" />
		<tag k="ssr:gruppe" v="høyder" />
		<tag k="ssr:hovedgruppe" v="terreng" />
		<tag k="ssr:stedsnr" v="752363" />
		<tag k="ssr:type" v="høyde" />
	</node>
	<node lat="58.75464444896826" lon="5.637855556702204" id="-232">
		<tag k="junction" v="yes" />
		<tag k="name" v="Krosshaug" />
		<tag k="place" v="locality" />
		<tag k="ssr:date" v="2016-05-11" />
		<tag k="ssr:gruppe" v="veg" />
		<tag k="ssr:hovedgruppe" v="infrastruktur" />
		<tag k="ssr:stedsnr" v="752412" />
		<tag k="ssr:type" v="vegkryss" />
	</node>
	<node lat="58.770025000729255" lon="5.649561107183063" id="-233">
		<tag k="name" v="Vallarheia" />
		<tag k="place" v="farm" />
		<tag k="ssr:date" v="2016-05-11" />
		<tag k="ssr:gruppe" v="gardsbebyggelse" />
		<tag k="ssr:hovedgruppe" v="bebyggelse" />
		<tag k="ssr:stedsnr" v="752427" />
		<tag k="ssr:type" v="bruk" />
	</node>
	<node lat="58.73046389194316" lon="5.519969448254505" id="-234">
		<tag k="landuse" v="meadow" />
		<tag k="name" v="Skårtangteigane" />
		<tag k="ssr:date" v="2016-05-11" />
		<tag k="ssr:gruppe" v="dyrkamark" />
		<tag k="ssr:hovedgruppe" v="markslag" />
		<tag k="ssr:stedsnr" v="907226" />
		<tag k="ssr:type" v="eng" />
	</node>
	<node lat="58.71471666881052" lon="5.6089499943320265" id="-235">
		<tag k="name" v="Kvednaheia" />
		<tag k="place" v="farm" />
		<tag k="ssr:date" v="2016-05-11" />
		<tag k="ssr:gruppe" v="gardsbebyggelse" />
		<tag k="ssr:hovedgruppe" v="bebyggelse" />
		<tag k="ssr:stedsnr" v="907286" />
		<tag k="ssr:type" v="bruk" />
	</node>
	<node lat="58.784083335908285" lon="5.711799992815215" id="-236">
		<tag k="bridge" v="yes" />
		<tag k="layer" v="1" />
		<tag k="name" v="Håbakken" />
		<tag k="ssr:date" v="2016-05-11" />
		<tag k="ssr:gruppe" v="samferdselsanlegg" />
		<tag k="ssr:hovedgruppe" v="infrastruktur" />
		<tag k="ssr:stedsnr" v="775712" />
		<tag k="ssr:type" v="bru" />
	</node>
	<node lat="58.704519443853066" lon="5.568827779530734" id="-237">
		<tag k="name" v="Bekken" />
		<tag k="place" v="farm" />
		<tag k="ssr:date" v="2016-05-11" />
		<tag k="ssr:gruppe" v="gardsbebyggelse" />
		<tag k="ssr:hovedgruppe" v="bebyggelse" />
		<tag k="ssr:stedsnr" v="910828" />
		<tag k="ssr:type" v="bruk" />
	</node>
	<node lat="58.734166665782546" lon="5.572405558647015" id="-238">
		<tag k="name" v="Holmen" />
		<tag k="place" v="farm" />
		<tag k="ssr:date" v="2016-05-11" />
		<tag k="ssr:gruppe" v="gardsbebyggelse" />
		<tag k="ssr:hovedgruppe" v="bebyggelse" />
		<tag k="ssr:stedsnr" v="910862" />
		<tag k="ssr:type" v="bruk" />
	</node>
	<node lat="58.736002443298155" lon="5.587255549969768" id="-239">
		<tag k="fixme" v="consider place=hamlet" />
		<tag k="name" v="Rosland" />
		<tag k="place" v="farm" />
		<tag k="ssr:date" v="2019-05-28" />
		<tag k="ssr:gruppe" v="gardsbebyggelse" />
		<tag k="ssr:hovedgruppe" v="bebyggelse" />
		<tag k="ssr:stedsnr" v="910863" />
		<tag k="ssr:type" v="gard" />
	</node>
	<node lat="58.72029999628233" lon="5.520133332169905" id="-240">
		<tag k="name" v="Krossatangen" />
		<tag k="natural" v="cape" />
		<tag k="ssr:date" v="2016-05-11" />
		<tag k="ssr:gruppe" v="kystkontur" />
		<tag k="ssr:hovedgruppe" v="sjø" />
		<tag k="ssr:stedsnr" v="910885" />
		<tag k="ssr:type" v="nesISjø" />
	</node>
	<node lat="58.71109444811834" lon="5.599519441152195" id="-241">
		<tag k="alt_name" v="Salte, øvra" />
		<tag k="name" v="Øvra Salte" />
		<tag k="place" v="farm" />
		<tag k="ssr:date" v="2016-05-11" />
		<tag k="ssr:gruppe" v="gardsbebyggelse" />
		<tag k="ssr:hovedgruppe" v="bebyggelse" />
		<tag k="ssr:stedsnr" v="789828" />
		<tag k="ssr:type" v="bruk" />
	</node>
	<node lat="58.73338888488407" lon="5.623011103771579" id="-242">
		<tag k="name" v="Mærbakken" />
		<tag k="place" v="farm" />
		<tag k="ssr:date" v="2016-05-11" />
		<tag k="ssr:gruppe" v="gardsbebyggelse" />
		<tag k="ssr:hovedgruppe" v="bebyggelse" />
		<tag k="ssr:stedsnr" v="789854" />
		<tag k="ssr:type" v="bruk" />
	</node>
	<node lat="58.7292916687737" lon="5.560424998780963" id="-243">
		<tag k="alt_name" v="Volden" />
		<tag k="name" v="Vollen" />
		<tag k="place" v="farm" />
		<tag k="ssr:date" v="2016-05-11" />
		<tag k="ssr:gruppe" v="gardsbebyggelse" />
		<tag k="ssr:hovedgruppe" v="bebyggelse" />
		<tag k="ssr:stedsnr" v="789859" />
		<tag k="ssr:type" v="bruk" />
	</node>
	<node lat="58.75478025411564" lon="5.630239219536128" id="-244">
		<tag k="fixme" v="consider place=hamlet" />
		<tag k="name" v="Hauge" />
		<tag k="place" v="farm" />
		<tag k="ssr:date" v="2019-05-24" />
		<tag k="ssr:gruppe" v="gardsbebyggelse" />
		<tag k="ssr:hovedgruppe" v="bebyggelse" />
		<tag k="ssr:stedsnr" v="789862" />
		<tag k="ssr:type" v="gard" />
	</node>
	<node lat="58.776156279451804" lon="5.538985772972384" id="-245">
		<tag k="fixme" v="consider place=hamlet" />
		<tag k="name" v="Hodne" />
		<tag k="place" v="farm" />
		<tag k="ssr:date" v="2019-05-24" />
		<tag k="ssr:gruppe" v="gardsbebyggelse" />
		<tag k="ssr:hovedgruppe" v="bebyggelse" />
		<tag k="ssr:stedsnr" v="790847" />
		<tag k="ssr:type" v="gard" />
	</node>
	<node lat="58.78677196960148" lon="5.704959834383463" id="-246">
		<tag k="junction" v="yes" />
		<tag k="name" v="Orstadkrossen" />
		<tag k="place" v="locality" />
		<tag k="ssr:date" v="2019-11-28" />
		<tag k="ssr:gruppe" v="veg" />
		<tag k="ssr:hovedgruppe" v="infrastruktur" />
		<tag k="ssr:stedsnr" v="790852" />
		<tag k="ssr:type" v="vegkryss" />
	</node>
	<node lat="58.790369125909386" lon="5.648222886348015" id="-247">
		<tag k="fixme" v="consider place=hamlet" />
		<tag k="name" v="Meland" />
		<tag k="place" v="farm" />
		<tag k="ssr:date" v="2019-05-24" />
		<tag k="ssr:gruppe" v="gardsbebyggelse" />
		<tag k="ssr:hovedgruppe" v="bebyggelse" />
		<tag k="ssr:stedsnr" v="911898" />
		<tag k="ssr:type" v="gard" />
	</node>
	<node lat="58.79819999771831" lon="5.561722224420989" id="-248">
		<tag k="alt_name" v="Bore, vestre" />
		<tag k="name" v="Vestre Bore" />
		<tag k="place" v="farm" />
		<tag k="ssr:date" v="2016-05-11" />
		<tag k="ssr:gruppe" v="gardsbebyggelse" />
		<tag k="ssr:hovedgruppe" v="bebyggelse" />
		<tag k="ssr:stedsnr" v="911902" />
		<tag k="ssr:type" v="bruk" />
	</node>
	<node lat="58.803415106859525" lon="5.698166529500843" id="-249">
		<tag k="name" v="Lonavatnet" />
		<tag k="natural" v="water" />
		<tag k="old_name" v="Lonavatn" />
		<tag k="ssr:date" v="2020-06-09" />
		<tag k="ssr:gruppe" v="stilleståendeVann" />
		<tag k="ssr:hovedgruppe" v="ferskvann" />
		<tag k="ssr:stedsnr" v="911918" />
		<tag k="ssr:type" v="tjern" />
	</node>
	<node lat="58.80090277770275" lon="5.5677000031401" id="-250">
		<tag k="name" v="Krossane" />
		<tag k="place" v="locality" />
		<tag k="ssr:date" v="2016-05-11" />
		<tag k="ssr:gruppe" v="rennendeVann" />
		<tag k="ssr:hovedgruppe" v="ferskvann" />
		<tag k="ssr:stedsnr" v="812079" />
		<tag k="ssr:type" v="høl" />
	</node>
	<node lat="58.811283333018125" lon="5.5976638868144395" id="-251">
		<tag k="name" v="Skaskanalen" />
		<tag k="ssr:date" v="2016-05-11" />
		<tag k="ssr:gruppe" v="sjøfart" />
		<tag k="ssr:hovedgruppe" v="infrastruktur" />
		<tag k="ssr:stedsnr" v="812108" />
		<tag k="ssr:type" v="kanal" />
		<tag k="waterway" v="canal" />
	</node>
	<node lat="58.76707222122236" lon="5.575875008583647" id="-252">
		<tag k="name" v="Torsheim" />
		<tag k="place" v="farm" />
		<tag k="ssr:date" v="2016-05-11" />
		<tag k="ssr:gruppe" v="gardsbebyggelse" />
		<tag k="ssr:hovedgruppe" v="bebyggelse" />
		<tag k="ssr:stedsnr" v="812136" />
		<tag k="ssr:type" v="bruk" />
	</node>
	<node lat="58.75499167009689" lon="5.677511105405653" id="-253">
		<tag k="name" v="Steintangen" />
		<tag k="natural" v="cape" />
		<tag k="ssr:date" v="2016-05-11" />
		<tag k="ssr:gruppe" v="ferskvannskontur" />
		<tag k="ssr:hovedgruppe" v="ferskvann" />
		<tag k="ssr:stedsnr" v="812515" />
		<tag k="ssr:type" v="nes" />
	</node>
	<node lat="58.75706667090756" lon="5.550588895499947" id="-254">
		<tag k="name" v="Hausskodlen" />
		<tag k="natural" v="cape" />
		<tag k="ssr:date" v="2016-05-11" />
		<tag k="ssr:gruppe" v="ferskvannskontur" />
		<tag k="ssr:hovedgruppe" v="ferskvann" />
		<tag k="ssr:stedsnr" v="812779" />
		<tag k="ssr:type" v="nes" />
	</node>
	<node lat="58.76629444072138" lon="5.505936118459065" id="-255">
		<tag k="name" v="Veten" />
		<tag k="place" v="locality" />
		<tag k="ssr:date" v="2016-05-11" />
		<tag k="ssr:gruppe" v="bolighus" />
		<tag k="ssr:hovedgruppe" v="bebyggelse" />
		<tag k="ssr:stedsnr" v="812783" />
		<tag k="ssr:type" v="gammelBosettingsplass" />
	</node>
	<node lat="58.74451111561475" lon="5.598036115360425" id="-256">
		<tag k="name" v="Langebakken" />
		<tag k="place" v="farm" />
		<tag k="ssr:date" v="2016-05-11" />
		<tag k="ssr:gruppe" v="gardsbebyggelse" />
		<tag k="ssr:hovedgruppe" v="bebyggelse" />
		<tag k="ssr:stedsnr" v="813084" />
		<tag k="ssr:type" v="bruk" />
	</node>
	<node lat="58.70665833009255" lon="5.513502784288852" id="-257">
		<tag k="name" v="Tasen" />
		<tag k="place" v="locality" />
		<tag k="seamark:type" v="rock" />
		<tag k="ssr:date" v="2016-05-11" />
		<tag k="ssr:gruppe" v="grunnerISjø" />
		<tag k="ssr:hovedgruppe" v="sjø" />
		<tag k="ssr:stedsnr" v="813904" />
		<tag k="ssr:type" v="båeISjø" />
	</node>
	<node lat="58.70404166807197" lon="5.515802777115479" id="-258">
		<tag k="name" v="Båaskjeret" />
		<tag k="place" v="locality" />
		<tag k="seamark:type" v="rock" />
		<tag k="ssr:date" v="2016-05-11" />
		<tag k="ssr:gruppe" v="grunnerISjø" />
		<tag k="ssr:hovedgruppe" v="sjø" />
		<tag k="ssr:stedsnr" v="814927" />
		<tag k="ssr:type" v="båeISjø" />
	</node>
	<node lat="58.772791668781736" lon="5.645277774537494" id="-259">
		<tag k="alt_name" v="Riskjell;Ris-kjell" />
		<tag k="name" v="Risjell" />
		<tag k="place" v="farm" />
		<tag k="ssr:date" v="2016-05-11" />
		<tag k="ssr:gruppe" v="gardsbebyggelse" />
		<tag k="ssr:hovedgruppe" v="bebyggelse" />
		<tag k="ssr:stedsnr" v="850817" />
		<tag k="ssr:type" v="bruk" />
	</node>
	<node lat="58.789591663935695" lon="5.597358336263921" id="-260">
		<tag k="name" v="Borekrossen" />
		<tag k="place" v="farm" />
		<tag k="ssr:date" v="2016-05-11" />
		<tag k="ssr:gruppe" v="gardsbebyggelse" />
		<tag k="ssr:hovedgruppe" v="bebyggelse" />
		<tag k="ssr:stedsnr" v="851908" />
		<tag k="ssr:type" v="bruk" />
	</node>
	<node lat="58.790402372723" lon="5.586324278298697" id="-261">
		<tag k="alt_name" v="Bore, østre;Østre Bore" />
		<tag k="fixme" v="consider place=hamlet" />
		<tag k="name" v="Austre Bore" />
		<tag k="place" v="farm" />
		<tag k="ssr:date" v="2019-05-24" />
		<tag k="ssr:gruppe" v="gardsbebyggelse" />
		<tag k="ssr:hovedgruppe" v="bebyggelse" />
		<tag k="ssr:stedsnr" v="851917" />
		<tag k="ssr:type" v="gard" />
	</node>
	<node lat="58.79686666290872" lon="5.583577775957344" id="-262">
		<tag k="name" v="Figgjo" />
		<tag k="ssr:date" v="2019-12-27" />
		<tag k="ssr:gruppe" v="rennendeVann" />
		<tag k="ssr:hovedgruppe" v="ferskvann" />
		<tag k="ssr:stedsnr" v="851922" />
		<tag k="ssr:type" v="elv" />
		<tag k="waterway" v="river" />
	</node>
	<node lat="58.78915833358642" lon="5.5416388956816975" id="-263">
		<tag k="fixme" v="consider seamark:type=rock or natural=shoal" />
		<tag k="name" v="Litle Fuglingen" />
		<tag k="place" v="islet" />
		<tag k="ssr:date" v="2016-05-11" />
		<tag k="ssr:gruppe" v="grunnerISjø" />
		<tag k="ssr:hovedgruppe" v="sjø" />
		<tag k="ssr:stedsnr" v="934091" />
		<tag k="ssr:type" v="skjærISjø" />
	</node>
	<node lat="58.81080000384509" lon="5.549516668667142" id="-264">
		<tag k="name" v="Kvenhus-hølen" />
		<tag k="place" v="locality" />
		<tag k="ssr:date" v="2016-05-11" />
		<tag k="ssr:gruppe" v="rennendeVann" />
		<tag k="ssr:hovedgruppe" v="ferskvann" />
		<tag k="ssr:stedsnr" v="934097" />
		<tag k="ssr:type" v="høl" />
	</node>
	<node lat="58.796744444562435" lon="5.587386106498896" id="-265">
		<tag k="name" v="Holmahølen" />
		<tag k="place" v="locality" />
		<tag k="ssr:date" v="2016-05-11" />
		<tag k="ssr:gruppe" v="rennendeVann" />
		<tag k="ssr:hovedgruppe" v="ferskvann" />
		<tag k="ssr:stedsnr" v="934064" />
		<tag k="ssr:type" v="høl" />
	</node>
	<node lat="58.80407499655703" lon="5.574688886421822" id="-266">
		<tag k="name" v="Selemarka" />
		<tag k="place" v="locality" />
		<tag k="ssr:date" v="2016-05-11" />
		<tag k="ssr:gruppe" v="dyrkamark" />
		<tag k="ssr:hovedgruppe" v="markslag" />
		<tag k="ssr:stedsnr" v="934080" />
		<tag k="ssr:type" v="utmark" />
	</node>
	<node lat="58.76080000011522" lon="5.5492666664494665" id="-267">
		<tag k="name" v="Øyarholmen" />
		<tag k="natural" v="cape" />
		<tag k="ssr:date" v="2016-05-11" />
		<tag k="ssr:gruppe" v="ferskvannskontur" />
		<tag k="ssr:hovedgruppe" v="ferskvann" />
		<tag k="ssr:stedsnr" v="934731" />
		<tag k="ssr:type" v="nes" />
	</node>
	<node lat="58.72574999623383" lon="5.60670000469271" id="-268">
		<tag k="name" v="Bakken" />
		<tag k="place" v="farm" />
		<tag k="ssr:date" v="2016-05-11" />
		<tag k="ssr:gruppe" v="gardsbebyggelse" />
		<tag k="ssr:hovedgruppe" v="bebyggelse" />
		<tag k="ssr:stedsnr" v="907220" />
		<tag k="ssr:type" v="bruk" />
	</node>
	<node lat="58.773331853676204" lon="5.624535039370283" id="-269">
		<tag k="alt_name" v="Klepp" />
		<tag k="amenity" v="place_of_worship" />
		<tag k="denomination" v="lutheran" />
		<tag k="name" v="Klepp kyrkje" />
		<tag k="religion" v="christian" />
		<tag k="ssr:date" v="2019-05-13" />
		<tag k="ssr:gruppe" v="kulturinstitusjoner" />
		<tag k="ssr:hovedgruppe" v="kultur" />
		<tag k="ssr:stedsnr" v="911822" />
		<tag k="ssr:type" v="kirke" />
	</node>
	<node lat="58.76818333565238" lon="5.598513896898835" id="-270">
		<tag k="name" v="Vådeland" />
		<tag k="place" v="farm" />
		<tag k="ssr:date" v="2016-05-11" />
		<tag k="ssr:gruppe" v="gardsbebyggelse" />
		<tag k="ssr:hovedgruppe" v="bebyggelse" />
		<tag k="ssr:stedsnr" v="934110" />
		<tag k="ssr:type" v="bruk" />
	</node>
	<node lat="58.775055551304035" lon="5.581816664261217" id="-271">
		<tag k="name" v="Skådeheivika" />
		<tag k="natural" v="bay" />
		<tag k="ssr:date" v="2016-05-11" />
		<tag k="ssr:gruppe" v="ferskvannskontur" />
		<tag k="ssr:hovedgruppe" v="ferskvann" />
		<tag k="ssr:stedsnr" v="934112" />
		<tag k="ssr:type" v="vik" />
	</node>
	<node lat="58.75672778044131" lon="5.633255560744903" id="-272">
		<tag k="name" v="Grimshaug" />
		<tag k="place" v="locality" />
		<tag k="ssr:date" v="2016-05-11" />
		<tag k="ssr:gruppe" v="bolighus" />
		<tag k="ssr:hovedgruppe" v="bebyggelse" />
		<tag k="ssr:stedsnr" v="934403" />
		<tag k="ssr:type" v="gammelBosettingsplass" />
	</node>
	<node lat="58.75343888993312" lon="5.63671944008827" id="-273">
		<tag k="name" v="Lunden" />
		<tag k="place" v="farm" />
		<tag k="ssr:date" v="2016-05-11" />
		<tag k="ssr:gruppe" v="gardsbebyggelse" />
		<tag k="ssr:hovedgruppe" v="bebyggelse" />
		<tag k="ssr:stedsnr" v="934387" />
		<tag k="ssr:type" v="bruk" />
	</node>
	<node lat="58.77586666867205" lon="5.63742500545878" id="-274">
		<tag k="fixme" v="consider place=suburb, village or hamlet" />
		<tag k="name" v="Sandholen" />
		<tag k="place" v="quarter" />
		<tag k="ssr:date" v="2016-05-11" />
		<tag k="ssr:gruppe" v="bebyggelsesområder" />
		<tag k="ssr:hovedgruppe" v="bebyggelse" />
		<tag k="ssr:stedsnr" v="935448" />
		<tag k="ssr:type" v="tettbebyggelse" />
	</node>
	<node lat="58.801494440616615" lon="5.637733325773629" id="-275">
		<tag k="name" v="Svarthøl" />
		<tag k="place" v="locality" />
		<tag k="ssr:date" v="2016-05-11" />
		<tag k="ssr:gruppe" v="rennendeVann" />
		<tag k="ssr:hovedgruppe" v="ferskvann" />
		<tag k="ssr:stedsnr" v="935460" />
		<tag k="ssr:type" v="høl" />
	</node>
	<node lat="58.75045555376572" lon="5.493444442318538" id="-276">
		<tag k="name" v="Flæet" />
		<tag k="place" v="locality" />
		<tag k="seamark:type" v="rock" />
		<tag k="ssr:date" v="2016-05-11" />
		<tag k="ssr:gruppe" v="grunnerISjø" />
		<tag k="ssr:hovedgruppe" v="sjø" />
		<tag k="ssr:stedsnr" v="949841" />
		<tag k="ssr:type" v="båeISjø" />
	</node>
	<node lat="58.72846388913256" lon="5.539163894093629" id="-277">
		<tag k="name" v="Vassmyra" />
		<tag k="natural" v="wetland" />
		<tag k="ssr:date" v="2016-05-11" />
		<tag k="ssr:gruppe" v="våtmark" />
		<tag k="ssr:hovedgruppe" v="markslag" />
		<tag k="ssr:stedsnr" v="967205" />
		<tag k="ssr:type" v="myr" />
	</node>
	<node lat="58.76839511634787" lon="5.514945348083191" id="-278">
		<tag k="fixme" v="consider place=hamlet" />
		<tag k="name" v="Reve" />
		<tag k="place" v="farm" />
		<tag k="ssr:date" v="2019-05-28" />
		<tag k="ssr:gruppe" v="gardsbebyggelse" />
		<tag k="ssr:hovedgruppe" v="bebyggelse" />
		<tag k="ssr:stedsnr" v="816" />
		<tag k="ssr:type" v="gard" />
	</node>
	<node lat="58.761857342709675" lon="5.647786457888028" id="-279">
		<tag k="fixme" v="consider place=hamlet" />
		<tag k="name" v="Særheim" />
		<tag k="place" v="farm" />
		<tag k="ssr:date" v="2019-05-24" />
		<tag k="ssr:gruppe" v="gardsbebyggelse" />
		<tag k="ssr:hovedgruppe" v="bebyggelse" />
		<tag k="ssr:stedsnr" v="820" />
		<tag k="ssr:type" v="gard" />
	</node>
	<node lat="58.76118888906082" lon="5.583888882873805" id="-280">
		<tag k="name" v="Friestad" />
		<tag k="place" v="farm" />
		<tag k="ssr:date" v="2016-05-10" />
		<tag k="ssr:gruppe" v="gardsbebyggelse" />
		<tag k="ssr:hovedgruppe" v="bebyggelse" />
		<tag k="ssr:stedsnr" v="823" />
		<tag k="ssr:type" v="bruk" />
	</node>
	<node lat="58.825505558009354" lon="5.504891673078001" id="-281">
		<tag k="name" v="Feistein" />
		<tag k="place" v="island" />
		<tag k="ssr:date" v="2021-06-08" />
		<tag k="ssr:gruppe" v="kystkontur" />
		<tag k="ssr:hovedgruppe" v="sjø" />
		<tag k="ssr:stedsnr" v="21427" />
		<tag k="ssr:type" v="øyISjø" />
	</node>
	<node lat="58.81825000344713" lon="5.542361103945763" id="-282">
		<tag k="name" v="Tangarhaug" />
		<tag k="natural" v="hill" />
		<tag k="place" v="locality" />
		<tag k="ssr:date" v="2021-06-08" />
		<tag k="ssr:gruppe" v="høyder" />
		<tag k="ssr:hovedgruppe" v="terreng" />
		<tag k="ssr:stedsnr" v="21429" />
		<tag k="ssr:type" v="haug" />
	</node>
	<node lat="58.7663103064883" lon="5.47951732394134" id="-283">
		<tag k="name" v="Mattisboen" />
		<tag k="place" v="locality" />
		<tag k="seamark:type" v="rock" />
		<tag k="ssr:date" v="2021-06-08" />
		<tag k="ssr:gruppe" v="grunnerISjø" />
		<tag k="ssr:hovedgruppe" v="sjø" />
		<tag k="ssr:stedsnr" v="21430" />
		<tag k="ssr:type" v="båeISjø" />
	</node>
	<node lat="58.78303611118206" lon="5.536130550573035" id="-284">
		<tag k="name" v="Tynevika" />
		<tag k="natural" v="bay" />
		<tag k="ssr:date" v="2016-05-10" />
		<tag k="ssr:gruppe" v="kystkontur" />
		<tag k="ssr:hovedgruppe" v="sjø" />
		<tag k="ssr:stedsnr" v="24078" />
		<tag k="ssr:type" v="vikISjø" />
	</node>
	<node lat="58.7484111146865" lon="5.552433330012182" id="-285">
		<tag k="name" v="Stormåkeholmane" />
		<tag k="place" v="islet" />
		<tag k="ssr:date" v="2016-05-10" />
		<tag k="ssr:gruppe" v="ferskvannskontur" />
		<tag k="ssr:hovedgruppe" v="ferskvann" />
		<tag k="ssr:stedsnr" v="24084" />
		<tag k="ssr:type" v="holme" />
	</node>
	<node lat="58.79858888934633" lon="5.563372220313098" id="-286">
		<tag k="alt_name" v="Boremarkene" />
		<tag k="name" v="Boremarka" />
		<tag k="place" v="locality" />
		<tag k="ssr:date" v="2016-05-10" />
		<tag k="ssr:gruppe" v="dyrkamark" />
		<tag k="ssr:hovedgruppe" v="markslag" />
		<tag k="ssr:stedsnr" v="24088" />
		<tag k="ssr:type" v="utmark" />
	</node>
	<node lat="58.76518055305009" lon="5.503838895088652" id="-287">
		<tag k="name" v="Blomhaug" />
		<tag k="place" v="locality" />
		<tag k="ssr:date" v="2016-05-10" />
		<tag k="ssr:gruppe" v="bolighus" />
		<tag k="ssr:hovedgruppe" v="bebyggelse" />
		<tag k="ssr:stedsnr" v="24740" />
		<tag k="ssr:type" v="gammelBosettingsplass" />
	</node>
	<node lat="58.768858329692975" lon="5.674136113959559" id="-288">
		<tag k="name" v="Tangarhaug" />
		<tag k="natural" v="hill" />
		<tag k="place" v="locality" />
		<tag k="ssr:date" v="2016-05-10" />
		<tag k="ssr:gruppe" v="høyder" />
		<tag k="ssr:hovedgruppe" v="terreng" />
		<tag k="ssr:stedsnr" v="24450" />
		<tag k="ssr:type" v="haug" />
	</node>
	<node lat="58.77033055765728" lon="5.647447217943221" id="-289">
		<tag k="name" v="Toftehaugane" />
		<tag k="natural" v="hill" />
		<tag k="place" v="locality" />
		<tag k="ssr:date" v="2016-05-10" />
		<tag k="ssr:gruppe" v="høyder" />
		<tag k="ssr:hovedgruppe" v="terreng" />
		<tag k="ssr:stedsnr" v="24462" />
		<tag k="ssr:type" v="haug" />
	</node>
	<node lat="58.75643055210446" lon="5.661791665863105" id="-290">
		<tag k="name" v="Mosberget" />
		<tag k="place" v="locality" />
		<tag k="ssr:date" v="2016-05-10" />
		<tag k="ssr:gruppe" v="bolighus" />
		<tag k="ssr:hovedgruppe" v="bebyggelse" />
		<tag k="ssr:stedsnr" v="24463" />
		<tag k="ssr:type" v="gammelBosettingsplass" />
	</node>
	<node lat="58.76166666563223" lon="5.506386103284426" id="-291">
		<tag k="name" v="Ornitologisk stasjon" />
		<tag k="ssr:date" v="2016-05-10" />
		<tag k="ssr:gruppe" v="kulturminner" />
		<tag k="ssr:hovedgruppe" v="kultur" />
		<tag k="ssr:stedsnr" v="24765" />
		<tag k="ssr:type" v="severdighet" />
		<tag k="tourism" v="attraction" />
	</node>
	<node lat="58.81975555354281" lon="5.537841659807565" id="-292">
		<tag k="fixme" v="verify maritime location" />
		<tag k="mooring" v="yes" />
		<tag k="name" v="Tangarstø" />
		<tag k="place" v="locality" />
		<tag k="ssr:date" v="2016-05-10" />
		<tag k="ssr:gruppe" v="sjøfart" />
		<tag k="ssr:hovedgruppe" v="infrastruktur" />
		<tag k="ssr:stedsnr" v="39850" />
		<tag k="ssr:type" v="stø" />
	</node>
	<node lat="58.76221666601943" lon="5.484663886144579" id="-293">
		<tag k="name" v="Rennetåna" />
		<tag k="natural" v="shoal" />
		<tag k="place" v="locality" />
		<tag k="ssr:date" v="2016-05-10" />
		<tag k="ssr:gruppe" v="grunnerISjø" />
		<tag k="ssr:hovedgruppe" v="sjø" />
		<tag k="ssr:stedsnr" v="39852" />
		<tag k="ssr:type" v="grunneISjø" />
	</node>
	<node lat="58.78628055932762" lon="5.700991663160816" id="-294">
		<tag k="bridge" v="yes" />
		<tag k="layer" v="1" />
		<tag k="name" v="Orstad" />
		<tag k="ssr:date" v="2016-05-10" />
		<tag k="ssr:gruppe" v="samferdselsanlegg" />
		<tag k="ssr:hovedgruppe" v="infrastruktur" />
		<tag k="ssr:stedsnr" v="46763" />
		<tag k="ssr:type" v="bru" />
	</node>
	<node lat="58.72604999582598" lon="5.594261113375464" id="-295">
		<tag k="name" v="Grødelandsmyra" />
		<tag k="natural" v="wetland" />
		<tag k="ssr:date" v="2016-05-10" />
		<tag k="ssr:gruppe" v="våtmark" />
		<tag k="ssr:hovedgruppe" v="markslag" />
		<tag k="ssr:stedsnr" v="57277" />
		<tag k="ssr:type" v="myr" />
	</node>
	<node lat="58.710338889465206" lon="5.530633326136993" id="-296">
		<tag k="fixme" v="consider place=hamlet" />
		<tag k="name" v="Vik" />
		<tag k="place" v="farm" />
		<tag k="ssr:date" v="2019-05-24" />
		<tag k="ssr:gruppe" v="gardsbebyggelse" />
		<tag k="ssr:hovedgruppe" v="bebyggelse" />
		<tag k="ssr:stedsnr" v="57279" />
		<tag k="ssr:type" v="gard" />
	</node>
	<node lat="58.729286111685774" lon="5.5887944421883695" id="-297">
		<tag k="name" v="Småbakkane" />
		<tag k="place" v="farm" />
		<tag k="ssr:date" v="2016-05-10" />
		<tag k="ssr:gruppe" v="gardsbebyggelse" />
		<tag k="ssr:hovedgruppe" v="bebyggelse" />
		<tag k="ssr:stedsnr" v="57280" />
		<tag k="ssr:type" v="bruk" />
	</node>
	<node lat="58.72506944570845" lon="5.556208338899648" id="-298">
		<tag k="name" v="Erga" />
		<tag k="place" v="farm" />
		<tag k="ssr:date" v="2016-05-10" />
		<tag k="ssr:gruppe" v="gardsbebyggelse" />
		<tag k="ssr:hovedgruppe" v="bebyggelse" />
		<tag k="ssr:stedsnr" v="61859" />
		<tag k="ssr:type" v="bruk" />
	</node>
	<node lat="58.80208610846541" lon="5.59326388982465" id="-299">
		<tag k="name" v="Solvang" />
		<tag k="place" v="farm" />
		<tag k="ssr:date" v="2016-05-10" />
		<tag k="ssr:gruppe" v="gardsbebyggelse" />
		<tag k="ssr:hovedgruppe" v="bebyggelse" />
		<tag k="ssr:stedsnr" v="62933" />
		<tag k="ssr:type" v="bruk" />
	</node>
	<node lat="58.80260833249407" lon="5.542619446566593" id="-300">
		<tag k="alt_name" v="Honsvika" />
		<tag k="name" v="Honnsvika" />
		<tag k="natural" v="bay" />
		<tag k="ssr:date" v="2016-05-10" />
		<tag k="ssr:gruppe" v="kystkontur" />
		<tag k="ssr:hovedgruppe" v="sjø" />
		<tag k="ssr:stedsnr" v="62941" />
		<tag k="ssr:type" v="vikISjø" />
	</node>
	<node lat="58.770791664355656" lon="5.577844443859496" id="-301">
		<tag k="name" v="Nesevika" />
		<tag k="natural" v="bay" />
		<tag k="ssr:date" v="2016-05-10" />
		<tag k="ssr:gruppe" v="ferskvannskontur" />
		<tag k="ssr:hovedgruppe" v="ferskvann" />
		<tag k="ssr:stedsnr" v="84149" />
		<tag k="ssr:type" v="vik" />
	</node>
	<node lat="58.81757222323713" lon="5.559216670410396" id="-302">
		<tag k="name" v="Gardsberget" />
		<tag k="natural" v="hill" />
		<tag k="place" v="locality" />
		<tag k="ssr:date" v="2019-09-10" />
		<tag k="ssr:gruppe" v="høyder" />
		<tag k="ssr:hovedgruppe" v="terreng" />
		<tag k="ssr:stedsnr" v="84122" />
		<tag k="ssr:type" v="haug" />
	</node>
	<node lat="58.74235833615602" lon="5.575969438534002" id="-303">
		<tag k="name" v="Ragabakktangen" />
		<tag k="natural" v="cape" />
		<tag k="ssr:date" v="2016-05-10" />
		<tag k="ssr:gruppe" v="ferskvannskontur" />
		<tag k="ssr:hovedgruppe" v="ferskvann" />
		<tag k="ssr:stedsnr" v="84124" />
		<tag k="ssr:type" v="nes" />
	</node>
	<node lat="58.76403610913407" lon="5.655469446159301" id="-304">
		<tag k="name" v="Gunnarshaug" />
		<tag k="place" v="locality" />
		<tag k="ssr:date" v="2016-05-10" />
		<tag k="ssr:gruppe" v="bolighus" />
		<tag k="ssr:hovedgruppe" v="bebyggelse" />
		<tag k="ssr:stedsnr" v="84519" />
		<tag k="ssr:type" v="gammelBosettingsplass" />
	</node>
	<node lat="58.75145833149775" lon="5.641127776801747" id="-305">
		<tag k="name" v="Tulunden" />
		<tag k="place" v="farm" />
		<tag k="ssr:date" v="2016-05-10" />
		<tag k="ssr:gruppe" v="gardsbebyggelse" />
		<tag k="ssr:hovedgruppe" v="bebyggelse" />
		<tag k="ssr:stedsnr" v="84443" />
		<tag k="ssr:type" v="bruk" />
	</node>
	<node lat="58.77250278182958" lon="5.6713749952730925" id="-306">
		<tag k="name" v="Nybrekkå" />
		<tag k="place" v="farm" />
		<tag k="ssr:date" v="2016-05-10" />
		<tag k="ssr:gruppe" v="gardsbebyggelse" />
		<tag k="ssr:hovedgruppe" v="bebyggelse" />
		<tag k="ssr:stedsnr" v="84444" />
		<tag k="ssr:type" v="bruk" />
	</node>
	<node lat="58.71295833507473" lon="5.530736106232883" id="-307">
		<tag k="name" v="Vik" />
		<tag k="place" v="hamlet" />
		<tag k="ssr:date" v="2016-05-10" />
		<tag k="ssr:gruppe" v="bebyggelsesområder" />
		<tag k="ssr:hovedgruppe" v="bebyggelse" />
		<tag k="ssr:stedsnr" v="84551" />
		<tag k="ssr:type" v="grend" />
	</node>
	<node lat="58.75358611281574" lon="5.489833341179632" id="-308">
		<tag k="name" v="Nordre Revtangen" />
		<tag k="natural" v="cape" />
		<tag k="ssr:date" v="2016-05-10" />
		<tag k="ssr:gruppe" v="kystkontur" />
		<tag k="ssr:hovedgruppe" v="sjø" />
		<tag k="ssr:stedsnr" v="84746" />
		<tag k="ssr:type" v="nesISjø" />
	</node>
	<node lat="58.760563890078856" lon="5.5102722138894205" id="-309">
		<tag k="name" v="Rindane" />
		<tag k="natural" v="beach" />
		<tag k="ssr:date" v="2016-05-10" />
		<tag k="ssr:gruppe" v="kystkontur" />
		<tag k="ssr:hovedgruppe" v="sjø" />
		<tag k="ssr:stedsnr" v="84774" />
		<tag k="ssr:type" v="strandISjø" />
	</node>
	<node lat="58.76769999990881" lon="5.508572222819036" id="-310">
		<tag k="name" v="Resedosane" />
		<tag k="place" v="locality" />
		<tag k="ssr:date" v="2016-05-10" />
		<tag k="ssr:gruppe" v="bolighus" />
		<tag k="ssr:hovedgruppe" v="bebyggelse" />
		<tag k="ssr:stedsnr" v="84781" />
		<tag k="ssr:type" v="gammelBosettingsplass" />
	</node>
	<node lat="58.79170555587042" lon="5.693977780064853" id="-311">
		<tag k="name" v="Øksnavad" />
		<tag k="place" v="farm" />
		<tag k="ssr:date" v="2021-06-08" />
		<tag k="ssr:gruppe" v="gardsbebyggelse" />
		<tag k="ssr:hovedgruppe" v="bebyggelse" />
		<tag k="ssr:stedsnr" v="84711" />
		<tag k="ssr:type" v="bruk" />
	</node>
	<node lat="58.79190556006174" lon="5.6669111127596725" id="-312">
		<tag k="name" v="Øksnavad" />
		<tag k="place" v="farm" />
		<tag k="ssr:date" v="2021-06-08" />
		<tag k="ssr:gruppe" v="gardsbebyggelse" />
		<tag k="ssr:hovedgruppe" v="bebyggelse" />
		<tag k="ssr:stedsnr" v="84712" />
		<tag k="ssr:type" v="bruk" />
	</node>
	<node lat="58.79426389321486" lon="5.686808335776225" id="-313">
		<tag k="name" v="Øksnavad" />
		<tag k="place" v="farm" />
		<tag k="ssr:date" v="2021-06-08" />
		<tag k="ssr:gruppe" v="gardsbebyggelse" />
		<tag k="ssr:hovedgruppe" v="bebyggelse" />
		<tag k="ssr:stedsnr" v="84720" />
		<tag k="ssr:type" v="bruk" />
	</node>
	<node lat="58.80775833775457" lon="5.641888887909933" id="-314">
		<tag k="name" v="Grønnefeden" />
		<tag k="place" v="farm" />
		<tag k="ssr:date" v="2016-05-10" />
		<tag k="ssr:gruppe" v="gardsbebyggelse" />
		<tag k="ssr:hovedgruppe" v="bebyggelse" />
		<tag k="ssr:stedsnr" v="85357" />
		<tag k="ssr:type" v="bruk" />
	</node>
	<node lat="58.72904722556247" lon="5.516758332857942" id="-315">
		<tag k="name" v="Åtangen" />
		<tag k="natural" v="cape" />
		<tag k="ssr:date" v="2016-05-10" />
		<tag k="ssr:gruppe" v="kystkontur" />
		<tag k="ssr:hovedgruppe" v="sjø" />
		<tag k="ssr:stedsnr" v="88940" />
		<tag k="ssr:type" v="nesISjø" />
	</node>
	<node lat="58.77586328273546" lon="5.537733494513553" id="-316">
		<tag k="name" v="Kjerringa" />
		<tag k="place" v="farm" />
		<tag k="ssr:date" v="2018-07-19" />
		<tag k="ssr:gruppe" v="gardsbebyggelse" />
		<tag k="ssr:hovedgruppe" v="bebyggelse" />
		<tag k="ssr:stedsnr" v="100839" />
		<tag k="ssr:type" v="bruk" />
	</node>
	<node lat="58.73053611380135" lon="5.539994450329042" id="-317">
		<tag k="name" v="Gjerdene" />
		<tag k="place" v="farm" />
		<tag k="ssr:date" v="2016-05-10" />
		<tag k="ssr:gruppe" v="gardsbebyggelse" />
		<tag k="ssr:hovedgruppe" v="bebyggelse" />
		<tag k="ssr:stedsnr" v="118242" />
		<tag k="ssr:type" v="bruk" />
	</node>
	<node lat="58.70508055592873" lon="5.557252780617355" id="-318">
		<tag k="alt_name" v="Oddebakken" />
		<tag k="name" v="Oddabakken" />
		<tag k="place" v="farm" />
		<tag k="ssr:date" v="2016-05-10" />
		<tag k="ssr:gruppe" v="gardsbebyggelse" />
		<tag k="ssr:hovedgruppe" v="bebyggelse" />
		<tag k="ssr:stedsnr" v="121837" />
		<tag k="ssr:type" v="bruk" />
	</node>
	<node lat="58.731192426488505" lon="5.551324275531491" id="-319">
		<tag k="name" v="Ergavatnet" />
		<tag k="natural" v="water" />
		<tag k="ssr:date" v="2019-04-16" />
		<tag k="ssr:gruppe" v="stilleståendeVann" />
		<tag k="ssr:hovedgruppe" v="ferskvann" />
		<tag k="ssr:stedsnr" v="121841" />
		<tag k="ssr:type" v="vann" />
		<tag k="water" v="lake" />
	</node>
	<node lat="58.73423333439127" lon="5.549538886754752" id="-320">
		<tag k="alt_name" v="Horpestad, nedra;Nedre Horpestad" />
		<tag k="name" v="Nedra Horpestad" />
		<tag k="place" v="farm" />
		<tag k="ssr:date" v="2016-05-10" />
		<tag k="ssr:gruppe" v="gardsbebyggelse" />
		<tag k="ssr:hovedgruppe" v="bebyggelse" />
		<tag k="ssr:stedsnr" v="121842" />
		<tag k="ssr:type" v="bruk" />
	</node>
	<node lat="58.73449166902208" lon="5.534055551382762" id="-321">
		<tag k="alt_name" v="Orreelva" />
		<tag k="name" v="Orreåna" />
		<tag k="ssr:date" v="2016-05-10" />
		<tag k="ssr:gruppe" v="rennendeVann" />
		<tag k="ssr:hovedgruppe" v="ferskvann" />
		<tag k="ssr:stedsnr" v="121843" />
		<tag k="ssr:type" v="bekk" />
		<tag k="waterway" v="stream" />
	</node>
	<node lat="58.697983337524775" lon="5.540613882957757" id="-322">
		<tag k="name" v="Skeiestranda" />
		<tag k="natural" v="beach" />
		<tag k="ssr:date" v="2016-05-10" />
		<tag k="ssr:gruppe" v="kystkontur" />
		<tag k="ssr:hovedgruppe" v="sjø" />
		<tag k="ssr:stedsnr" v="121786" />
		<tag k="ssr:type" v="strandISjø" />
	</node>
	<node lat="58.75427391290233" lon="5.568316285776523" id="-323">
		<tag k="alt_name" v="Katteland" />
		<tag k="fixme" v="consider place=hamlet" />
		<tag k="name" v="Kattaland" />
		<tag k="place" v="farm" />
		<tag k="ssr:date" v="2019-05-28" />
		<tag k="ssr:gruppe" v="gardsbebyggelse" />
		<tag k="ssr:hovedgruppe" v="bebyggelse" />
		<tag k="ssr:stedsnr" v="122819" />
		<tag k="ssr:type" v="gard" />
	</node>
	<node lat="58.77414166838789" lon="5.600319443949437" id="-324">
		<tag k="alt_name" v="Skjelbred" />
		<tag k="name" v="Skjelbreid" />
		<tag k="place" v="farm" />
		<tag k="ssr:date" v="2016-05-10" />
		<tag k="ssr:gruppe" v="gardsbebyggelse" />
		<tag k="ssr:hovedgruppe" v="bebyggelse" />
		<tag k="ssr:stedsnr" v="122829" />
		<tag k="ssr:type" v="bruk" />
	</node>
	<node lat="58.76717814316792" lon="5.593364724765581" id="-325">
		<tag k="fixme" v="consider place=hamlet" />
		<tag k="name" v="Friestad" />
		<tag k="place" v="farm" />
		<tag k="ssr:date" v="2019-05-24" />
		<tag k="ssr:gruppe" v="gardsbebyggelse" />
		<tag k="ssr:hovedgruppe" v="bebyggelse" />
		<tag k="ssr:stedsnr" v="122811" />
		<tag k="ssr:type" v="gard" />
	</node>
	<node lat="58.82123332883856" lon="5.503044439990072" id="-326">
		<tag k="fixme" v="consider seamark:type=rock or natural=shoal" />
		<tag k="name" v="Skarvaskjeret" />
		<tag k="old_name" v="Skarvaskjer" />
		<tag k="place" v="islet" />
		<tag k="ssr:date" v="2016-05-10" />
		<tag k="ssr:gruppe" v="grunnerISjø" />
		<tag k="ssr:hovedgruppe" v="sjø" />
		<tag k="ssr:stedsnr" v="122875" />
		<tag k="ssr:type" v="skjærISjø" />
	</node>
	<node lat="58.807617705749614" lon="5.612498047353" id="-327">
		<tag k="fixme" v="consider place=hamlet" />
		<tag k="name" v="Vasshus" />
		<tag k="place" v="farm" />
		<tag k="ssr:date" v="2019-05-28" />
		<tag k="ssr:gruppe" v="gardsbebyggelse" />
		<tag k="ssr:hovedgruppe" v="bebyggelse" />
		<tag k="ssr:stedsnr" v="122905" />
		<tag k="ssr:type" v="gard" />
	</node>
	<node lat="58.79443332972297" lon="5.592319451016106" id="-328">
		<tag k="name" v="Blegevika" />
		<tag k="place" v="locality" />
		<tag k="ssr:date" v="2016-05-10" />
		<tag k="ssr:gruppe" v="rennendeVann" />
		<tag k="ssr:hovedgruppe" v="ferskvann" />
		<tag k="ssr:stedsnr" v="145051" />
		<tag k="ssr:type" v="høl" />
	</node>
	<node lat="58.793527774318896" lon="5.606377775635408" id="-329">
		<tag k="name" v="Krokhøl" />
		<tag k="place" v="locality" />
		<tag k="ssr:date" v="2016-05-10" />
		<tag k="ssr:gruppe" v="rennendeVann" />
		<tag k="ssr:hovedgruppe" v="ferskvann" />
		<tag k="ssr:stedsnr" v="145053" />
		<tag k="ssr:type" v="høl" />
	</node>
	<node lat="58.784352780730266" lon="5.559619446424874" id="-330">
		<tag k="name" v="Hodneåna" />
		<tag k="ssr:date" v="2016-05-10" />
		<tag k="ssr:gruppe" v="sjøfart" />
		<tag k="ssr:hovedgruppe" v="infrastruktur" />
		<tag k="ssr:stedsnr" v="145056" />
		<tag k="ssr:type" v="kanal" />
		<tag k="waterway" v="canal" />
	</node>
	<node lat="58.79425000329017" lon="5.610088890921953" id="-331">
		<tag k="name" v="Åna" />
		<tag k="place" v="farm" />
		<tag k="ssr:date" v="2016-05-10" />
		<tag k="ssr:gruppe" v="gardsbebyggelse" />
		<tag k="ssr:hovedgruppe" v="bebyggelse" />
		<tag k="ssr:stedsnr" v="145249" />
		<tag k="ssr:type" v="bruk" />
	</node>
	<node lat="58.78556944305567" lon="5.692666661430434" id="-332">
		<tag k="junction" v="yes" />
		<tag k="name" v="Øksnevadkrossen" />
		<tag k="place" v="locality" />
		<tag k="ssr:date" v="2016-05-10" />
		<tag k="ssr:gruppe" v="veg" />
		<tag k="ssr:hovedgruppe" v="infrastruktur" />
		<tag k="ssr:stedsnr" v="145254" />
		<tag k="ssr:type" v="vegkryss" />
	</node>
	<node lat="58.801086109018854" lon="5.6005638874416634" id="-333">
		<tag k="junction" v="yes" />
		<tag k="name" v="Holekrossen" />
		<tag k="place" v="locality" />
		<tag k="ssr:date" v="2016-05-10" />
		<tag k="ssr:gruppe" v="veg" />
		<tag k="ssr:hovedgruppe" v="infrastruktur" />
		<tag k="ssr:stedsnr" v="145085" />
		<tag k="ssr:type" v="vegkryss" />
	</node>
	<node lat="58.79485277857434" lon="5.54672500787882" id="-334">
		<tag k="name" v="Boresanden" />
		<tag k="natural" v="beach" />
		<tag k="ssr:date" v="2016-05-10" />
		<tag k="ssr:gruppe" v="kystkontur" />
		<tag k="ssr:hovedgruppe" v="sjø" />
		<tag k="ssr:stedsnr" v="145091" />
		<tag k="ssr:type" v="strandISjø" />
	</node>
	<node lat="58.74059444463177" lon="5.569175004697733" id="-335">
		<tag k="name" v="Lyngtangen" />
		<tag k="natural" v="cape" />
		<tag k="ssr:date" v="2016-05-10" />
		<tag k="ssr:gruppe" v="ferskvannskontur" />
		<tag k="ssr:hovedgruppe" v="ferskvann" />
		<tag k="ssr:stedsnr" v="145100" />
		<tag k="ssr:type" v="nes" />
	</node>
	<node lat="58.82755833744767" lon="5.562794450984533" id="-336">
		<tag k="name" v="Svinavollen" />
		<tag k="place" v="farm" />
		<tag k="ssr:date" v="2016-05-10" />
		<tag k="ssr:gruppe" v="gardsbebyggelse" />
		<tag k="ssr:hovedgruppe" v="bebyggelse" />
		<tag k="ssr:stedsnr" v="145370" />
		<tag k="ssr:type" v="bruk" />
	</node>
	<node lat="58.76349444442753" lon="5.681661110437561" id="-337">
		<tag k="name" v="Osholmen" />
		<tag k="place" v="islet" />
		<tag k="ssr:date" v="2016-05-10" />
		<tag k="ssr:gruppe" v="ferskvannskontur" />
		<tag k="ssr:hovedgruppe" v="ferskvann" />
		<tag k="ssr:stedsnr" v="145449" />
		<tag k="ssr:type" v="holme" />
	</node>
	<node lat="58.768102778723595" lon="5.663505557960998" id="-338">
		<tag k="name" v="Brekkå" />
		<tag k="place" v="farm" />
		<tag k="ssr:date" v="2016-05-10" />
		<tag k="ssr:gruppe" v="gardsbebyggelse" />
		<tag k="ssr:hovedgruppe" v="bebyggelse" />
		<tag k="ssr:stedsnr" v="145455" />
		<tag k="ssr:type" v="bruk" />
	</node>
	<node lat="58.74870833126555" lon="5.635869449293373" id="-339">
		<tag k="name" v="Krossteig" />
		<tag k="place" v="farm" />
		<tag k="ssr:date" v="2016-05-10" />
		<tag k="ssr:gruppe" v="gardsbebyggelse" />
		<tag k="ssr:hovedgruppe" v="bebyggelse" />
		<tag k="ssr:stedsnr" v="145422" />
		<tag k="ssr:type" v="bruk" />
	</node>
	<node lat="58.79941389074655" lon="5.700302784891615" id="-340">
		<tag k="name" v="Lonatangen" />
		<tag k="natural" v="cape" />
		<tag k="ssr:date" v="2016-05-10" />
		<tag k="ssr:gruppe" v="ferskvannskontur" />
		<tag k="ssr:hovedgruppe" v="ferskvann" />
		<tag k="ssr:stedsnr" v="145798" />
		<tag k="ssr:type" v="nes" />
	</node>
	<node lat="58.76901666583614" lon="5.522522214698873" id="-341">
		<tag k="name" v="Indre Reve" />
		<tag k="place" v="farm" />
		<tag k="ssr:date" v="2016-05-10" />
		<tag k="ssr:gruppe" v="gardsbebyggelse" />
		<tag k="ssr:hovedgruppe" v="bebyggelse" />
		<tag k="ssr:stedsnr" v="145748" />
		<tag k="ssr:type" v="bruk" />
	</node>
	<node lat="58.821600002195304" lon="5.501022216687722" id="-342">
		<tag k="name" v="Sprette" />
		<tag k="place" v="locality" />
		<tag k="seamark:type" v="rock" />
		<tag k="ssr:date" v="2016-05-10" />
		<tag k="ssr:gruppe" v="grunnerISjø" />
		<tag k="ssr:hovedgruppe" v="sjø" />
		<tag k="ssr:stedsnr" v="160854" />
		<tag k="ssr:type" v="båeISjø" />
	</node>
	<node lat="58.77291389003869" lon="5.51950832923115" id="-343">
		<tag k="name" v="Petrovika" />
		<tag k="natural" v="bay" />
		<tag k="ssr:date" v="2016-05-10" />
		<tag k="ssr:gruppe" v="kystkontur" />
		<tag k="ssr:hovedgruppe" v="sjø" />
		<tag k="ssr:stedsnr" v="160862" />
		<tag k="ssr:type" v="vikISjø" />
	</node>
	<node lat="58.835777773939725" lon="5.513375004798757" id="-344">
		<tag k="name" v="Kroken" />
		<tag k="place" v="locality" />
		<tag k="seamark:type" v="rock" />
		<tag k="ssr:date" v="2016-05-10" />
		<tag k="ssr:gruppe" v="grunnerISjø" />
		<tag k="ssr:hovedgruppe" v="sjø" />
		<tag k="ssr:stedsnr" v="160844" />
		<tag k="ssr:type" v="båeISjø" />
	</node>
	<node lat="58.72703055506922" lon="5.598297220688876" id="-345">
		<tag k="name" v="Indrebø" />
		<tag k="place" v="farm" />
		<tag k="ssr:date" v="2016-05-10" />
		<tag k="ssr:gruppe" v="gardsbebyggelse" />
		<tag k="ssr:hovedgruppe" v="bebyggelse" />
		<tag k="ssr:stedsnr" v="179259" />
		<tag k="ssr:type" v="bruk" />
	</node>
	<node lat="58.731394448307285" lon="5.529747219655084" id="-347">
		<tag k="alt_name" v="Orre" />
		<tag k="amenity" v="place_of_worship" />
		<tag k="denomination" v="lutheran" />
		<tag k="name" v="Orre" />
		<tag k="religion" v="christian" />
		<tag k="ssr:date" v="2016-05-10" />
		<tag k="ssr:gruppe" v="kulturinstitusjoner" />
		<tag k="ssr:hovedgruppe" v="kultur" />
		<tag k="ssr:stedsnr" v="179265" />
		<tag k="ssr:type" v="kirke" />
	</node>
	<node lat="58.15130833030587" lon="6.29712777180919" id="-348">
		<tag k="name" v="Nordsjøen" />
		<tag k="name:en" v="North Sea" />
		<tag k="name:no" v="Nordsjøen" />
		<tag k="place" v="sea" />
		<tag k="ssr:date" v="2019-12-27" />
		<tag k="ssr:gruppe" v="farvann" />
		<tag k="ssr:hovedgruppe" v="sjø" />
		<tag k="ssr:stedsnr" v="182096" />
		<tag k="ssr:type" v="havområde" />
	</node>
	<node lat="58.740040282784456" lon="5.613984685655102" id="-349">
		<tag k="fixme" v="consider place=hamlet" />
		<tag k="name" v="Tjøtta" />
		<tag k="place" v="farm" />
		<tag k="ssr:date" v="2019-05-24" />
		<tag k="ssr:gruppe" v="gardsbebyggelse" />
		<tag k="ssr:hovedgruppe" v="bebyggelse" />
		<tag k="ssr:stedsnr" v="182892" />
		<tag k="ssr:type" v="gard" />
	</node>
	<node lat="58.7441027739986" lon="5.649124996498737" id="-350">
		<tag k="name" v="Tuholen" />
		<tag k="old_name" v="Tu" />
		<tag k="place" v="farm" />
		<tag k="ssr:date" v="2016-05-10" />
		<tag k="ssr:gruppe" v="gardsbebyggelse" />
		<tag k="ssr:hovedgruppe" v="bebyggelse" />
		<tag k="ssr:stedsnr" v="182893" />
		<tag k="ssr:type" v="bruk" />
	</node>
	<node lat="58.70467777500672" lon="5.586950008584621" id="-351">
		<tag k="name" v="Haugen" />
		<tag k="place" v="farm" />
		<tag k="ssr:date" v="2016-05-10" />
		<tag k="ssr:gruppe" v="gardsbebyggelse" />
		<tag k="ssr:hovedgruppe" v="bebyggelse" />
		<tag k="ssr:stedsnr" v="182771" />
		<tag k="ssr:type" v="bruk" />
	</node>
	<node lat="58.78716388639231" lon="5.667197217071621" id="-352">
		<tag k="name" v="Liane" />
		<tag k="place" v="farm" />
		<tag k="ssr:date" v="2016-05-10" />
		<tag k="ssr:gruppe" v="gardsbebyggelse" />
		<tag k="ssr:hovedgruppe" v="bebyggelse" />
		<tag k="ssr:stedsnr" v="183840" />
		<tag k="ssr:type" v="bruk" />
	</node>
	<node lat="58.78549444342665" lon="5.535983340517742" id="-353">
		<tag k="alt_name" v="Store Fuglingen" />
		<tag k="fixme" v="consider seamark:type=rock or natural=shoal" />
		<tag k="name" v="Fuglingen" />
		<tag k="place" v="islet" />
		<tag k="ssr:date" v="2016-05-10" />
		<tag k="ssr:gruppe" v="grunnerISjø" />
		<tag k="ssr:hovedgruppe" v="sjø" />
		<tag k="ssr:stedsnr" v="183917" />
		<tag k="ssr:type" v="skjærISjø" />
	</node>
	<node lat="58.80231181918604" lon="5.588327259582219" id="-354">
		<tag k="fixme" v="consider place=hamlet" />
		<tag k="name" v="Voll" />
		<tag k="place" v="farm" />
		<tag k="ssr:date" v="2019-05-28" />
		<tag k="ssr:gruppe" v="gardsbebyggelse" />
		<tag k="ssr:hovedgruppe" v="bebyggelse" />
		<tag k="ssr:stedsnr" v="183933" />
		<tag k="ssr:type" v="gard" />
	</node>
	<node lat="58.77499721969563" lon="5.595116674849413" id="-355">
		<tag k="name" v="Verdalskanalen" />
		<tag k="ssr:date" v="2016-05-10" />
		<tag k="ssr:gruppe" v="sjøfart" />
		<tag k="ssr:hovedgruppe" v="infrastruktur" />
		<tag k="ssr:stedsnr" v="206016" />
		<tag k="ssr:type" v="kanal" />
		<tag k="waterway" v="canal" />
	</node>
	<node lat="58.7840361094722" lon="5.537438883538886" id="-356">
		<tag k="name" v="Sandsenden" />
		<tag k="natural" v="beach" />
		<tag k="ssr:date" v="2016-05-10" />
		<tag k="ssr:gruppe" v="løsmasseavsetninger" />
		<tag k="ssr:hovedgruppe" v="markslag" />
		<tag k="ssr:stedsnr" v="206098" />
		<tag k="ssr:type" v="sand" />
		<tag k="surface" v="sand" />
	</node>
	<node lat="58.773838891089206" lon="5.581013886364708" id="-357">
		<tag k="name" v="Prestholmen" />
		<tag k="natural" v="cape" />
		<tag k="ssr:date" v="2016-05-10" />
		<tag k="ssr:gruppe" v="ferskvannskontur" />
		<tag k="ssr:hovedgruppe" v="ferskvann" />
		<tag k="ssr:stedsnr" v="206121" />
		<tag k="ssr:type" v="nes" />
	</node>
	<node lat="58.827494446456264" lon="5.547330554502029" id="-358">
		<tag k="name" v="Nordre Tangen" />
		<tag k="natural" v="cape" />
		<tag k="ssr:date" v="2016-05-10" />
		<tag k="ssr:gruppe" v="kystkontur" />
		<tag k="ssr:hovedgruppe" v="sjø" />
		<tag k="ssr:stedsnr" v="206372" />
		<tag k="ssr:type" v="nesISjø" />
	</node>
	<node lat="58.792463886381356" lon="5.703083327738822" id="-359">
		<tag k="name" v="Elisberget" />
		<tag k="natural" v="hill" />
		<tag k="place" v="locality" />
		<tag k="ssr:date" v="2016-05-10" />
		<tag k="ssr:gruppe" v="høyder" />
		<tag k="ssr:hovedgruppe" v="terreng" />
		<tag k="ssr:stedsnr" v="206262" />
		<tag k="ssr:type" v="haug" />
	</node>
	<node lat="58.7967888849155" lon="5.691461103473967" id="-360">
		<tag k="name" v="Knappholsmyra" />
		<tag k="natural" v="wetland" />
		<tag k="ssr:date" v="2016-05-10" />
		<tag k="ssr:gruppe" v="våtmark" />
		<tag k="ssr:hovedgruppe" v="markslag" />
		<tag k="ssr:stedsnr" v="206264" />
		<tag k="ssr:type" v="myr" />
	</node>
	<node lat="58.75262222492114" lon="5.654727783641489" id="-361">
		<tag k="name" v="Revhaug" />
		<tag k="place" v="farm" />
		<tag k="ssr:date" v="2016-05-10" />
		<tag k="ssr:gruppe" v="gardsbebyggelse" />
		<tag k="ssr:hovedgruppe" v="bebyggelse" />
		<tag k="ssr:stedsnr" v="206396" />
		<tag k="ssr:type" v="bruk" />
	</node>
	<node lat="58.76156110884144" lon="5.6241194390037474" id="-362">
		<tag k="name" v="Lynghaug" />
		<tag k="place" v="locality" />
		<tag k="ssr:date" v="2016-05-10" />
		<tag k="ssr:gruppe" v="bolighus" />
		<tag k="ssr:hovedgruppe" v="bebyggelse" />
		<tag k="ssr:stedsnr" v="206432" />
		<tag k="ssr:type" v="gammelBosettingsplass" />
	</node>
	<node lat="58.70186111261217" lon="5.55534722142928" id="-363">
		<tag k="fixme" v="consider place=hamlet" />
		<tag k="name" v="Åse" />
		<tag k="place" v="village" />
		<tag k="ssr:date" v="2016-05-10" />
		<tag k="ssr:gruppe" v="bebyggelsesområder" />
		<tag k="ssr:hovedgruppe" v="bebyggelse" />
		<tag k="ssr:stedsnr" v="206531" />
		<tag k="ssr:type" v="bygdelagBygd" />
	</node>
	<node lat="58.7522722264621" lon="5.487236116918425" id="-364">
		<tag k="name" v="Kobbasteinane" />
		<tag k="natural" v="stone" />
		<tag k="ssr:date" v="2016-05-10" />
		<tag k="ssr:gruppe" v="løsmasseavsetninger" />
		<tag k="ssr:hovedgruppe" v="markslag" />
		<tag k="ssr:stedsnr" v="206739" />
		<tag k="ssr:type" v="stein" />
	</node>
	<node lat="58.76117499878793" lon="5.522544439292261" id="-365">
		<tag k="name" v="Revevika" />
		<tag k="natural" v="bay" />
		<tag k="ssr:date" v="2016-05-10" />
		<tag k="ssr:gruppe" v="ferskvannskontur" />
		<tag k="ssr:hovedgruppe" v="ferskvann" />
		<tag k="ssr:stedsnr" v="206754" />
		<tag k="ssr:type" v="vik" />
	</node>
	<node lat="58.72090278142401" lon="5.509744444820949" id="-366">
		<tag k="name" v="Krossafluna" />
		<tag k="place" v="locality" />
		<tag k="seamark:type" v="rock" />
		<tag k="ssr:date" v="2016-05-10" />
		<tag k="ssr:gruppe" v="grunnerISjø" />
		<tag k="ssr:hovedgruppe" v="sjø" />
		<tag k="ssr:stedsnr" v="207917" />
		<tag k="ssr:type" v="båeISjø" />
	</node>
	<node lat="58.83026666786519" lon="5.540069442268564" id="-367">
		<tag k="name" v="Klakken" />
		<tag k="place" v="locality" />
		<tag k="seamark:type" v="rock" />
		<tag k="ssr:date" v="2016-05-10" />
		<tag k="ssr:gruppe" v="grunnerISjø" />
		<tag k="ssr:hovedgruppe" v="sjø" />
		<tag k="ssr:stedsnr" v="221829" />
		<tag k="ssr:type" v="båeISjø" />
	</node>
	<node lat="58.816588887329665" lon="5.491977771075487" id="-368">
		<tag k="name" v="Havbåen" />
		<tag k="place" v="locality" />
		<tag k="seamark:type" v="rock" />
		<tag k="ssr:date" v="2016-05-10" />
		<tag k="ssr:gruppe" v="grunnerISjø" />
		<tag k="ssr:hovedgruppe" v="sjø" />
		<tag k="ssr:stedsnr" v="221842" />
		<tag k="ssr:type" v="båeISjø" />
	</node>
	<node lat="58.73031110861652" lon="5.54796944025001" id="-369">
		<tag k="name" v="Orretangen" />
		<tag k="natural" v="cape" />
		<tag k="ssr:date" v="2016-05-10" />
		<tag k="ssr:gruppe" v="ferskvannskontur" />
		<tag k="ssr:hovedgruppe" v="ferskvann" />
		<tag k="ssr:stedsnr" v="300266" />
		<tag k="ssr:type" v="nes" />
	</node>
	<node lat="58.72196666721873" lon="5.594088886767129" id="-370">
		<tag k="name" v="Grødeland" />
		<tag k="place" v="farm" />
		<tag k="ssr:date" v="2016-05-10" />
		<tag k="ssr:gruppe" v="gardsbebyggelse" />
		<tag k="ssr:hovedgruppe" v="bebyggelse" />
		<tag k="ssr:stedsnr" v="300269" />
		<tag k="ssr:type" v="bruk" />
	</node>
	<node lat="58.69762777594478" lon="5.540569452570783" id="-371">
		<tag k="name" v="Syltertangen" />
		<tag k="natural" v="cape" />
		<tag k="ssr:date" v="2016-05-10" />
		<tag k="ssr:gruppe" v="kystkontur" />
		<tag k="ssr:hovedgruppe" v="sjø" />
		<tag k="ssr:stedsnr" v="300345" />
		<tag k="ssr:type" v="nesISjø" />
	</node>
	<node lat="58.71150277491661" lon="5.527711106045503" id="-372">
		<tag k="alt_name" v="Vik, nedra" />
		<tag k="name" v="Nedra Vik" />
		<tag k="place" v="farm" />
		<tag k="ssr:date" v="2016-05-10" />
		<tag k="ssr:gruppe" v="gardsbebyggelse" />
		<tag k="ssr:hovedgruppe" v="bebyggelse" />
		<tag k="ssr:stedsnr" v="304840" />
		<tag k="ssr:type" v="bruk" />
	</node>
	<node lat="58.720880552932286" lon="5.52925556385341" id="-373">
		<tag k="name" v="Myklaberget" />
		<tag k="natural" v="hill" />
		<tag k="old_name" v="Muglaberget" />
		<tag k="place" v="locality" />
		<tag k="ssr:date" v="2016-05-10" />
		<tag k="ssr:gruppe" v="høyder" />
		<tag k="ssr:hovedgruppe" v="terreng" />
		<tag k="ssr:stedsnr" v="303864" />
		<tag k="ssr:type" v="berg" />
	</node>
	<node lat="58.7564361128381" lon="5.535163887600181" id="-374">
		<tag k="name" v="Maleneset" />
		<tag k="natural" v="cape" />
		<tag k="ssr:date" v="2016-05-10" />
		<tag k="ssr:gruppe" v="ferskvannskontur" />
		<tag k="ssr:hovedgruppe" v="ferskvann" />
		<tag k="ssr:stedsnr" v="303898" />
		<tag k="ssr:type" v="nes" />
	</node>
	<node lat="58.82159151665403" lon="5.539138196290989" id="-375">
		<tag k="name" v="Lyratangen" />
		<tag k="natural" v="cape" />
		<tag k="ssr:date" v="2016-12-01" />
		<tag k="ssr:gruppe" v="kystkontur" />
		<tag k="ssr:hovedgruppe" v="sjø" />
		<tag k="ssr:stedsnr" v="304900" />
		<tag k="ssr:type" v="nesISjø" />
	</node>
	<node lat="58.76247778249606" lon="5.471297229627026" id="-376">
		<tag k="name" v="Skardsteinsgrunnen" />
		<tag k="natural" v="shoal" />
		<tag k="place" v="locality" />
		<tag k="ssr:date" v="2016-05-10" />
		<tag k="ssr:gruppe" v="grunnerISjø" />
		<tag k="ssr:hovedgruppe" v="sjø" />
		<tag k="ssr:stedsnr" v="307886" />
		<tag k="ssr:type" v="grunneISjø" />
	</node>
	<node lat="58.80315295672895" lon="5.723341515150912" id="-377">
		<tag k="name" v="Røyrvikhølen" />
		<tag k="place" v="locality" />
		<tag k="ssr:date" v="2021-01-21" />
		<tag k="ssr:gruppe" v="rennendeVann" />
		<tag k="ssr:hovedgruppe" v="ferskvann" />
		<tag k="ssr:stedsnr" v="327595" />
		<tag k="ssr:type" v="høl" />
	</node>
	<node lat="58.75570000283278" lon="5.670577772537886" id="-378">
		<tag k="name" v="Ødegård" />
		<tag k="place" v="farm" />
		<tag k="ssr:date" v="2016-05-10" />
		<tag k="ssr:gruppe" v="gardsbebyggelse" />
		<tag k="ssr:hovedgruppe" v="bebyggelse" />
		<tag k="ssr:stedsnr" v="327440" />
		<tag k="ssr:type" v="bruk" />
	</node>
	<node lat="58.77528055475313" lon="5.653847223431317" id="-379">
		<tag k="name" v="Andaholen" />
		<tag k="place" v="farm" />
		<tag k="ssr:date" v="2016-05-10" />
		<tag k="ssr:gruppe" v="gardsbebyggelse" />
		<tag k="ssr:hovedgruppe" v="bebyggelse" />
		<tag k="ssr:stedsnr" v="327444" />
		<tag k="ssr:type" v="bruk" />
	</node>
	<node lat="58.79651389194741" lon="5.651886104456022" id="-380">
		<tag k="name" v="Krokhøl" />
		<tag k="place" v="locality" />
		<tag k="ssr:date" v="2016-05-10" />
		<tag k="ssr:gruppe" v="rennendeVann" />
		<tag k="ssr:hovedgruppe" v="ferskvann" />
		<tag k="ssr:stedsnr" v="328226" />
		<tag k="ssr:type" v="høl" />
	</node>
	<node lat="58.77896944809608" lon="5.685333325091764" id="-381">
		<tag k="amenity" v="hospital" />
		<tag k="name" v="Engelsvoll psykiatriske sjukeheim" />
		<tag k="ssr:date" v="2016-05-10" />
		<tag k="ssr:gruppe" v="institusjoner" />
		<tag k="ssr:hovedgruppe" v="bebyggelse" />
		<tag k="ssr:stedsnr" v="328232" />
		<tag k="ssr:type" v="sykehus" />
	</node>
	<node lat="58.79810833731997" lon="5.711547214522208" id="-382">
		<tag k="name" v="Varden" />
		<tag k="natural" v="hill" />
		<tag k="place" v="locality" />
		<tag k="ssr:date" v="2016-05-10" />
		<tag k="ssr:gruppe" v="høyder" />
		<tag k="ssr:hovedgruppe" v="terreng" />
		<tag k="ssr:stedsnr" v="328788" />
		<tag k="ssr:type" v="haug" />
	</node>
	<node lat="58.7013555556456" lon="5.616241671415656" id="-383">
		<tag k="name" v="Jonsheia" />
		<tag k="place" v="farm" />
		<tag k="ssr:date" v="2016-05-10" />
		<tag k="ssr:gruppe" v="gardsbebyggelse" />
		<tag k="ssr:hovedgruppe" v="bebyggelse" />
		<tag k="ssr:stedsnr" v="343427" />
		<tag k="ssr:type" v="bruk" />
	</node>
	<node lat="58.77515555168933" lon="5.6381972267280425" id="-384">
		<tag k="bridge" v="yes" />
		<tag k="layer" v="1" />
		<tag k="name" v="Fjogstad" />
		<tag k="ssr:date" v="2016-05-10" />
		<tag k="ssr:gruppe" v="samferdselsanlegg" />
		<tag k="ssr:hovedgruppe" v="infrastruktur" />
		<tag k="ssr:stedsnr" v="350707" />
		<tag k="ssr:type" v="bru" />
	</node>
	<node lat="58.779924998075984" lon="5.621288897579139" id="-385">
		<tag k="bridge" v="yes" />
		<tag k="layer" v="1" />
		<tag k="name" v="Stemmen" />
		<tag k="ssr:date" v="2016-05-10" />
		<tag k="ssr:gruppe" v="samferdselsanlegg" />
		<tag k="ssr:hovedgruppe" v="infrastruktur" />
		<tag k="ssr:stedsnr" v="350732" />
		<tag k="ssr:type" v="bru" />
	</node>
	<node lat="58.73194721811178" lon="5.553391672400524" id="-386">
		<tag k="name" v="Ternholmen" />
		<tag k="place" v="islet" />
		<tag k="ssr:date" v="2016-05-10" />
		<tag k="ssr:gruppe" v="ferskvannskontur" />
		<tag k="ssr:hovedgruppe" v="ferskvann" />
		<tag k="ssr:stedsnr" v="361286" />
		<tag k="ssr:type" v="holme" />
	</node>
	<node lat="58.722000003271866" lon="5.589974993415829" id="-387">
		<tag k="name" v="Torvholen" />
		<tag k="place" v="farm" />
		<tag k="ssr:date" v="2016-05-10" />
		<tag k="ssr:gruppe" v="gardsbebyggelse" />
		<tag k="ssr:hovedgruppe" v="bebyggelse" />
		<tag k="ssr:stedsnr" v="361289" />
		<tag k="ssr:type" v="bruk" />
	</node>
	<node lat="58.6930972191989" lon="5.546647220185713" id="-388">
		<tag k="name" v="Kleppstemmen" />
		<tag k="natural" v="beach" />
		<tag k="ssr:date" v="2016-05-10" />
		<tag k="ssr:gruppe" v="kystkontur" />
		<tag k="ssr:hovedgruppe" v="sjø" />
		<tag k="ssr:stedsnr" v="361363" />
		<tag k="ssr:type" v="strandISjø" />
	</node>
	<node lat="58.78866212048102" lon="5.580991906790009" id="-389">
		<tag k="name" v="Bore" />
		<tag k="place" v="hamlet" />
		<tag k="ssr:date" v="2019-05-24" />
		<tag k="ssr:gruppe" v="gardsbebyggelse" />
		<tag k="ssr:hovedgruppe" v="bebyggelse" />
		<tag k="ssr:stedsnr" v="363063" />
		<tag k="ssr:type" v="navnegard" />
	</node>
	<node lat="58.78520555216693" lon="5.599311112017319" id="-391">
		<tag k="name" v="Verdalen" />
		<tag k="place" v="farm" />
		<tag k="ssr:date" v="2016-05-10" />
		<tag k="ssr:gruppe" v="gardsbebyggelse" />
		<tag k="ssr:hovedgruppe" v="bebyggelse" />
		<tag k="ssr:stedsnr" v="365922" />
		<tag k="ssr:type" v="bruk" />
	</node>
	<node lat="58.79925417365973" lon="5.597971466527371" id="-392">
		<tag k="fixme" v="consider place=hamlet" />
		<tag k="name" v="Hole" />
		<tag k="place" v="farm" />
		<tag k="ssr:date" v="2019-05-28" />
		<tag k="ssr:gruppe" v="gardsbebyggelse" />
		<tag k="ssr:hovedgruppe" v="bebyggelse" />
		<tag k="ssr:stedsnr" v="365933" />
		<tag k="ssr:type" v="gard" />
	</node>
	<node lat="58.82467777341783" lon="5.544355555853628" id="-393">
		<tag k="name" v="Søre Tangen" />
		<tag k="natural" v="cape" />
		<tag k="ssr:date" v="2016-05-10" />
		<tag k="ssr:gruppe" v="kystkontur" />
		<tag k="ssr:hovedgruppe" v="sjø" />
		<tag k="ssr:stedsnr" v="387428" />
		<tag k="ssr:type" v="nesISjø" />
	</node>
	<node lat="58.73931666985505" lon="5.613972215211085" id="-394">
		<tag k="junction" v="yes" />
		<tag k="name" v="Pålakrossen" />
		<tag k="place" v="locality" />
		<tag k="ssr:date" v="2016-05-10" />
		<tag k="ssr:gruppe" v="veg" />
		<tag k="ssr:hovedgruppe" v="infrastruktur" />
		<tag k="ssr:stedsnr" v="387446" />
		<tag k="ssr:type" v="vegkryss" />
	</node>
	<node lat="58.77033610749615" lon="5.68036944835228" id="-395">
		<tag k="name" v="Ytreholmen" />
		<tag k="place" v="islet" />
		<tag k="ssr:date" v="2016-05-10" />
		<tag k="ssr:gruppe" v="ferskvannskontur" />
		<tag k="ssr:hovedgruppe" v="ferskvann" />
		<tag k="ssr:stedsnr" v="387452" />
		<tag k="ssr:type" v="holme" />
	</node>
	<node lat="58.79104721904728" lon="5.573958326711987" id="-396">
		<tag k="fixme" v="consider natural=peak for the most distinct mountains in the district" />
		<tag k="name" v="Frostberget" />
		<tag k="natural" v="hill" />
		<tag k="place" v="locality" />
		<tag k="ssr:date" v="2016-05-10" />
		<tag k="ssr:gruppe" v="høyder" />
		<tag k="ssr:hovedgruppe" v="terreng" />
		<tag k="ssr:stedsnr" v="387081" />
		<tag k="ssr:type" v="fjell" />
	</node>
	<node lat="58.81102222258513" lon="5.569788887912108" id="-397">
		<tag k="name" v="Alvevatnet" />
		<tag k="natural" v="water" />
		<tag k="ssr:date" v="2016-05-10" />
		<tag k="ssr:gruppe" v="stilleståendeVann" />
		<tag k="ssr:hovedgruppe" v="ferskvann" />
		<tag k="ssr:stedsnr" v="387092" />
		<tag k="ssr:type" v="vann" />
		<tag k="water" v="lake" />
	</node>
	<node lat="58.798899998315775" lon="5.577797229143128" id="-398">
		<tag k="name" v="Østhølen" />
		<tag k="place" v="locality" />
		<tag k="ssr:date" v="2016-05-10" />
		<tag k="ssr:gruppe" v="rennendeVann" />
		<tag k="ssr:hovedgruppe" v="ferskvann" />
		<tag k="ssr:stedsnr" v="387096" />
		<tag k="ssr:type" v="høl" />
	</node>
	<node lat="58.76238611049744" lon="5.579738881548219" id="-399">
		<tag k="name" v="Revhaug" />
		<tag k="natural" v="hill" />
		<tag k="place" v="locality" />
		<tag k="ssr:date" v="2016-05-10" />
		<tag k="ssr:gruppe" v="høyder" />
		<tag k="ssr:hovedgruppe" v="terreng" />
		<tag k="ssr:stedsnr" v="387134" />
		<tag k="ssr:type" v="haug" />
	</node>
	<node lat="58.79679166349816" lon="5.647313882291572" id="-400">
		<tag k="name" v="Steinhøl" />
		<tag k="place" v="locality" />
		<tag k="ssr:date" v="2016-05-10" />
		<tag k="ssr:gruppe" v="rennendeVann" />
		<tag k="ssr:hovedgruppe" v="ferskvann" />
		<tag k="ssr:stedsnr" v="388223" />
		<tag k="ssr:type" v="høl" />
	</node>
	<node lat="58.79130833551418" lon="5.616066663790779" id="-401">
		<tag k="name" v="Grudhaug" />
		<tag k="natural" v="hill" />
		<tag k="place" v="locality" />
		<tag k="ssr:date" v="2016-05-10" />
		<tag k="ssr:gruppe" v="høyder" />
		<tag k="ssr:hovedgruppe" v="terreng" />
		<tag k="ssr:stedsnr" v="388226" />
		<tag k="ssr:type" v="haug" />
	</node>
	<node lat="58.77916389082636" lon="5.667891659870991" id="-402">
		<tag k="name" v="Andamarkene" />
		<tag k="place" v="locality" />
		<tag k="ssr:date" v="2016-05-10" />
		<tag k="ssr:gruppe" v="dyrkamark" />
		<tag k="ssr:hovedgruppe" v="markslag" />
		<tag k="ssr:stedsnr" v="388230" />
		<tag k="ssr:type" v="utmark" />
	</node>
	<node lat="58.770063890599495" lon="5.521316673630764" id="-403">
		<tag k="building" v="civic" />
		<tag k="name" v="Reve Redningsstasjon" />
		<tag k="ssr:date" v="2016-05-10" />
		<tag k="ssr:gruppe" v="institusjoner" />
		<tag k="ssr:hovedgruppe" v="bebyggelse" />
		<tag k="ssr:stedsnr" v="387761" />
		<tag k="ssr:type" v="vaktstasjonBeredsskapsbygning" />
	</node>
	<node lat="58.75211388579512" lon="5.489755563152544" id="-404">
		<tag k="name" v="Søre Revtangen" />
		<tag k="natural" v="cape" />
		<tag k="ssr:date" v="2016-05-10" />
		<tag k="ssr:gruppe" v="kystkontur" />
		<tag k="ssr:hovedgruppe" v="sjø" />
		<tag k="ssr:stedsnr" v="387730" />
		<tag k="ssr:type" v="nesISjø" />
	</node>
	<node lat="58.79485277849271" lon="5.433594448479979" id="-405">
		<tag k="name" v="Skotemedgrunnen" />
		<tag k="natural" v="shoal" />
		<tag k="place" v="locality" />
		<tag k="ssr:date" v="2016-05-10" />
		<tag k="ssr:gruppe" v="grunnerISjø" />
		<tag k="ssr:hovedgruppe" v="sjø" />
		<tag k="ssr:stedsnr" v="389873" />
		<tag k="ssr:type" v="grunneISjø" />
	</node>
	<node lat="58.77806666983308" lon="5.566097214599307" id="-406">
		<tag k="name" v="Sauatangen" />
		<tag k="natural" v="cape" />
		<tag k="ssr:date" v="2016-05-10" />
		<tag k="ssr:gruppe" v="ferskvannskontur" />
		<tag k="ssr:hovedgruppe" v="ferskvann" />
		<tag k="ssr:stedsnr" v="449056" />
		<tag k="ssr:type" v="nes" />
	</node>
	<node lat="58.79846389317232" lon="5.572308326140419" id="-407">
		<tag k="name" v="Kattapollen" />
		<tag k="place" v="locality" />
		<tag k="ssr:date" v="2016-05-10" />
		<tag k="ssr:gruppe" v="rennendeVann" />
		<tag k="ssr:hovedgruppe" v="ferskvann" />
		<tag k="ssr:stedsnr" v="449075" />
		<tag k="ssr:type" v="høl" />
	</node>
	<node lat="58.79913888511217" lon="5.672933340239359" id="-408">
		<tag k="bridge" v="yes" />
		<tag k="layer" v="1" />
		<tag k="name" v="Øksnevad" />
		<tag k="ssr:date" v="2016-05-10" />
		<tag k="ssr:gruppe" v="samferdselsanlegg" />
		<tag k="ssr:hovedgruppe" v="infrastruktur" />
		<tag k="ssr:stedsnr" v="411744" />
		<tag k="ssr:type" v="bru" />
	</node>
	<node lat="58.69777777359219" lon="5.5626750077703155" id="-409">
		<tag k="alt_name" v="Åse søndre" />
		<tag k="name" v="Søra Åse" />
		<tag k="place" v="farm" />
		<tag k="ssr:date" v="2016-05-10" />
		<tag k="ssr:gruppe" v="gardsbebyggelse" />
		<tag k="ssr:hovedgruppe" v="bebyggelse" />
		<tag k="ssr:stedsnr" v="423329" />
		<tag k="ssr:type" v="bruk" />
	</node>
	<node lat="58.726330557464166" lon="5.54666944461391" id="-410">
		<tag k="name" v="Mohaugen" />
		<tag k="natural" v="hill" />
		<tag k="place" v="locality" />
		<tag k="ssr:date" v="2016-05-10" />
		<tag k="ssr:gruppe" v="høyder" />
		<tag k="ssr:hovedgruppe" v="terreng" />
		<tag k="ssr:stedsnr" v="422248" />
		<tag k="ssr:type" v="haug" />
	</node>
	<node lat="58.695944444450426" lon="5.5512000048680585" id="-411">
		<tag k="name" v="Skeieskogen" />
		<tag k="place" v="locality" />
		<tag k="ssr:date" v="2016-05-10" />
		<tag k="ssr:gruppe" v="vegetasjon" />
		<tag k="ssr:hovedgruppe" v="markslag" />
		<tag k="ssr:stedsnr" v="422323" />
		<tag k="ssr:type" v="skog" />
	</node>
	<node lat="58.77168912894104" lon="5.6776768554100325" id="-413">
		<tag k="alt_name" v="Klepp" />
		<tag k="name" v="Klepp stasjon" />
		<tag k="railway" v="station" />
		<tag k="ssr:date" v="2019-01-16" />
		<tag k="ssr:gruppe" v="bane" />
		<tag k="ssr:hovedgruppe" v="infrastruktur" />
		<tag k="ssr:stedsnr" v="425828" />
		<tag k="ssr:type" v="stasjon" />
		<tag k="train" v="yes" />
	</node>
	<node lat="58.71768610659393" lon="5.575861102922036" id="-414">
		<tag k="alt_name" v="Austmark" />
		<tag k="name" v="Heia" />
		<tag k="place" v="farm" />
		<tag k="ssr:date" v="2016-05-10" />
		<tag k="ssr:gruppe" v="gardsbebyggelse" />
		<tag k="ssr:hovedgruppe" v="bebyggelse" />
		<tag k="ssr:stedsnr" v="425838" />
		<tag k="ssr:type" v="bruk" />
	</node>
	<node lat="58.72351667026823" lon="5.56837499713415" id="-415">
		<tag k="name" v="Eigeberget" />
		<tag k="place" v="farm" />
		<tag k="ssr:date" v="2016-05-10" />
		<tag k="ssr:gruppe" v="gardsbebyggelse" />
		<tag k="ssr:hovedgruppe" v="bebyggelse" />
		<tag k="ssr:stedsnr" v="425874" />
		<tag k="ssr:type" v="bruk" />
	</node>
	<node lat="58.752830554428165" lon="5.651847217134131" id="-416">
		<tag k="name" v="Tu" />
		<tag k="place" v="farm" />
		<tag k="ssr:date" v="2016-05-10" />
		<tag k="ssr:gruppe" v="gardsbebyggelse" />
		<tag k="ssr:hovedgruppe" v="bebyggelse" />
		<tag k="ssr:stedsnr" v="426235" />
		<tag k="ssr:type" v="bruk" />
	</node>
	<node lat="58.795749941409014" lon="5.626826776210293" id="-417">
		<tag k="alt_name" v="Grude" />
		<tag k="fixme" v="consider place=hamlet" />
		<tag k="name" v="Gruda" />
		<tag k="place" v="farm" />
		<tag k="ssr:date" v="2019-05-24" />
		<tag k="ssr:gruppe" v="gardsbebyggelse" />
		<tag k="ssr:hovedgruppe" v="bebyggelse" />
		<tag k="ssr:stedsnr" v="426921" />
		<tag k="ssr:type" v="gard" />
	</node>
	<node lat="58.797575747723606" lon="5.658951283843429" id="-418">
		<tag k="name" v="Øksnavad" />
		<tag k="place" v="hamlet" />
		<tag k="ssr:date" v="2021-06-08" />
		<tag k="ssr:gruppe" v="gardsbebyggelse" />
		<tag k="ssr:hovedgruppe" v="bebyggelse" />
		<tag k="ssr:stedsnr" v="426922" />
		<tag k="ssr:type" v="navnegard" />
	</node>
	<node lat="58.738008334842384" lon="5.564930558168491" id="-419">
		<tag k="name" v="Knoppatangen" />
		<tag k="natural" v="cape" />
		<tag k="ssr:date" v="2016-05-10" />
		<tag k="ssr:gruppe" v="ferskvannskontur" />
		<tag k="ssr:hovedgruppe" v="ferskvann" />
		<tag k="ssr:stedsnr" v="449082" />
		<tag k="ssr:type" v="nes" />
	</node>
	<node lat="58.74554722024869" lon="5.548183326263297" id="-420">
		<tag k="name" v="Steinholmen" />
		<tag k="place" v="islet" />
		<tag k="ssr:date" v="2016-05-10" />
		<tag k="ssr:gruppe" v="ferskvannskontur" />
		<tag k="ssr:hovedgruppe" v="ferskvann" />
		<tag k="ssr:stedsnr" v="449087" />
		<tag k="ssr:type" v="holme" />
	</node>
	<node lat="58.732736113827" lon="5.603711108636896" id="-421">
		<tag k="name" v="Storeneset" />
		<tag k="place" v="farm" />
		<tag k="ssr:date" v="2016-05-10" />
		<tag k="ssr:gruppe" v="gardsbebyggelse" />
		<tag k="ssr:hovedgruppe" v="bebyggelse" />
		<tag k="ssr:stedsnr" v="449088" />
		<tag k="ssr:type" v="bruk" />
	</node>
	<node lat="58.81520000232995" lon="5.607508325621361" id="-422">
		<tag k="name" v="Leabekken" />
		<tag k="ssr:date" v="2016-05-10" />
		<tag k="ssr:gruppe" v="rennendeVann" />
		<tag k="ssr:hovedgruppe" v="ferskvann" />
		<tag k="ssr:stedsnr" v="449095" />
		<tag k="ssr:type" v="bekk" />
		<tag k="waterway" v="stream" />
	</node>
	<node lat="58.76979167084625" lon="5.561449994497976" id="-423">
		<tag k="name" v="Mjånesholmen" />
		<tag k="place" v="islet" />
		<tag k="ssr:date" v="2016-05-10" />
		<tag k="ssr:gruppe" v="ferskvannskontur" />
		<tag k="ssr:hovedgruppe" v="ferskvann" />
		<tag k="ssr:stedsnr" v="449100" />
		<tag k="ssr:type" v="holme" />
	</node>
	<node lat="58.77746111415203" lon="5.575969451556515" id="-424">
		<tag k="name" v="Butangen" />
		<tag k="natural" v="cape" />
		<tag k="ssr:date" v="2016-05-10" />
		<tag k="ssr:gruppe" v="ferskvannskontur" />
		<tag k="ssr:hovedgruppe" v="ferskvann" />
		<tag k="ssr:stedsnr" v="509064" />
		<tag k="ssr:type" v="nes" />
	</node>
	<node lat="58.773833334997036" lon="5.579183327379862" id="-425">
		<tag k="name" v="Gabrielsholmen" />
		<tag k="place" v="islet" />
		<tag k="ssr:date" v="2016-05-10" />
		<tag k="ssr:gruppe" v="ferskvannskontur" />
		<tag k="ssr:hovedgruppe" v="ferskvann" />
		<tag k="ssr:stedsnr" v="509116" />
		<tag k="ssr:type" v="holme" />
	</node>
	<node lat="58.82407221969505" lon="5.624144445345154" id="-426">
		<tag k="name" v="Storevollen" />
		<tag k="place" v="farm" />
		<tag k="ssr:date" v="2016-05-10" />
		<tag k="ssr:gruppe" v="gardsbebyggelse" />
		<tag k="ssr:hovedgruppe" v="bebyggelse" />
		<tag k="ssr:stedsnr" v="509229" />
		<tag k="ssr:type" v="bruk" />
	</node>
	<node lat="58.80227777401922" lon="5.594988890278747" id="-427">
		<tag k="name" v="Boreheimen" />
		<tag k="place" v="farm" />
		<tag k="ssr:date" v="2016-05-10" />
		<tag k="ssr:gruppe" v="gardsbebyggelse" />
		<tag k="ssr:hovedgruppe" v="bebyggelse" />
		<tag k="ssr:stedsnr" v="509077" />
		<tag k="ssr:type" v="bruk" />
	</node>
	<node lat="58.80005833116641" lon="5.580986108252872" id="-428">
		<tag k="name" v="Breiangen" />
		<tag k="place" v="locality" />
		<tag k="ssr:date" v="2016-05-10" />
		<tag k="ssr:gruppe" v="rennendeVann" />
		<tag k="ssr:hovedgruppe" v="ferskvann" />
		<tag k="ssr:stedsnr" v="509078" />
		<tag k="ssr:type" v="høl" />
	</node>
	<node lat="58.775891664950954" lon="5.581841668806273" id="-429">
		<tag k="name" v="Sandtangen" />
		<tag k="natural" v="cape" />
		<tag k="ssr:date" v="2016-05-10" />
		<tag k="ssr:gruppe" v="ferskvannskontur" />
		<tag k="ssr:hovedgruppe" v="ferskvann" />
		<tag k="ssr:stedsnr" v="509081" />
		<tag k="ssr:type" v="nes" />
	</node>
	<node lat="58.73836389322551" lon="5.606202785180855" id="-430">
		<tag k="name" v="Grønhaug" />
		<tag k="natural" v="hill" />
		<tag k="place" v="locality" />
		<tag k="ssr:date" v="2016-05-10" />
		<tag k="ssr:gruppe" v="høyder" />
		<tag k="ssr:hovedgruppe" v="terreng" />
		<tag k="ssr:stedsnr" v="509084" />
		<tag k="ssr:type" v="haug" />
	</node>
	<node lat="58.73577500352499" lon="5.568424992644011" id="-431">
		<tag k="name" v="Roslandsholmen" />
		<tag k="place" v="islet" />
		<tag k="ssr:date" v="2016-05-10" />
		<tag k="ssr:gruppe" v="ferskvannskontur" />
		<tag k="ssr:hovedgruppe" v="ferskvann" />
		<tag k="ssr:stedsnr" v="509089" />
		<tag k="ssr:type" v="holme" />
	</node>
	<node lat="58.78684166577481" lon="5.673702772194435" id="-432">
		<tag k="name" v="Gullhelle" />
		<tag k="place" v="locality" />
		<tag k="ssr:date" v="2016-05-10" />
		<tag k="ssr:gruppe" v="dyrkamark" />
		<tag k="ssr:hovedgruppe" v="markslag" />
		<tag k="ssr:stedsnr" v="509259" />
		<tag k="ssr:type" v="utmark" />
	</node>
	<node lat="58.76990277533113" lon="5.622897220335626" id="-433">
		<tag k="fixme" v="consider place=suburb, village or hamlet" />
		<tag k="name" v="Haugabakka" />
		<tag k="place" v="quarter" />
		<tag k="ssr:date" v="2016-05-10" />
		<tag k="ssr:gruppe" v="bebyggelsesområder" />
		<tag k="ssr:hovedgruppe" v="bebyggelse" />
		<tag k="ssr:stedsnr" v="509431" />
		<tag k="ssr:type" v="tettbebyggelse" />
	</node>
	<node lat="58.752591668404854" lon="5.482661118209879" id="-434">
		<tag k="alt_name" v="Revet" />
		<tag k="name" v="Jærens rev" />
		<tag k="natural" v="shoal" />
		<tag k="place" v="locality" />
		<tag k="ssr:date" v="2016-05-10" />
		<tag k="ssr:gruppe" v="grunnerISjø" />
		<tag k="ssr:hovedgruppe" v="sjø" />
		<tag k="ssr:stedsnr" v="509697" />
		<tag k="ssr:type" v="grunneISjø" />
	</node>
	<node lat="58.70192094654453" lon="5.5877199700694655" id="-435">
		<tag k="fixme" v="consider place=hamlet" />
		<tag k="name" v="Salte" />
		<tag k="place" v="village" />
		<tag k="ssr:date" v="2018-07-24" />
		<tag k="ssr:gruppe" v="bebyggelsesområder" />
		<tag k="ssr:hovedgruppe" v="bebyggelse" />
		<tag k="ssr:stedsnr" v="510483" />
		<tag k="ssr:type" v="bygdelagBygd" />
	</node>
	<node lat="58.796891669293885" lon="5.624644449779428" id="-436">
		<tag k="name" v="Kjørberget" />
		<tag k="natural" v="hill" />
		<tag k="place" v="locality" />
		<tag k="ssr:date" v="2016-05-10" />
		<tag k="ssr:gruppe" v="høyder" />
		<tag k="ssr:hovedgruppe" v="terreng" />
		<tag k="ssr:stedsnr" v="510249" />
		<tag k="ssr:type" v="berg" />
	</node>
	<node lat="58.785844445124035" lon="5.643225004389723" id="-437">
		<tag k="junction" v="yes" />
		<tag k="name" v="Storhaugkrossen" />
		<tag k="place" v="locality" />
		<tag k="ssr:date" v="2016-05-10" />
		<tag k="ssr:gruppe" v="veg" />
		<tag k="ssr:hovedgruppe" v="infrastruktur" />
		<tag k="ssr:stedsnr" v="510250" />
		<tag k="ssr:type" v="vegkryss" />
	</node>
	<node lat="58.79802221877717" lon="5.630391662313189" id="-438">
		<tag k="name" v="Kvernebekken" />
		<tag k="ssr:date" v="2016-05-10" />
		<tag k="ssr:gruppe" v="sjøfart" />
		<tag k="ssr:hovedgruppe" v="infrastruktur" />
		<tag k="ssr:stedsnr" v="510431" />
		<tag k="ssr:type" v="kanal" />
		<tag k="waterway" v="canal" />
	</node>
	<node lat="58.809215917895095" lon="5.656001620260002" id="-439">
		<tag k="name" v="Husaberget" />
		<tag k="natural" v="hill" />
		<tag k="place" v="locality" />
		<tag k="ssr:date" v="2019-09-10" />
		<tag k="ssr:gruppe" v="høyder" />
		<tag k="ssr:hovedgruppe" v="terreng" />
		<tag k="ssr:stedsnr" v="510434" />
		<tag k="ssr:type" v="haug" />
	</node>
	<node lat="58.724944443547805" lon="5.536299995669357" id="-440">
		<tag k="name" v="Stålhaug" />
		<tag k="place" v="farm" />
		<tag k="ssr:date" v="2016-05-10" />
		<tag k="ssr:gruppe" v="gardsbebyggelse" />
		<tag k="ssr:hovedgruppe" v="bebyggelse" />
		<tag k="ssr:stedsnr" v="543288" />
		<tag k="ssr:type" v="bruk" />
	</node>
	<node lat="58.71535000256818" lon="5.563736114508182" id="-441">
		<tag k="alt_name" v="Orre" />
		<tag k="amenity" v="place_of_worship" />
		<tag k="denomination" v="lutheran" />
		<tag k="name" v="Orre kyrkje" />
		<tag k="religion" v="christian" />
		<tag k="ssr:date" v="2016-05-10" />
		<tag k="ssr:gruppe" v="kulturinstitusjoner" />
		<tag k="ssr:hovedgruppe" v="kultur" />
		<tag k="ssr:stedsnr" v="546796" />
		<tag k="ssr:type" v="kirke" />
	</node>
	<node lat="58.74812499695107" lon="5.627702783702409" id="-442">
		<tag k="name" v="Hauge" />
		<tag k="place" v="farm" />
		<tag k="ssr:date" v="2016-05-10" />
		<tag k="ssr:gruppe" v="gardsbebyggelse" />
		<tag k="ssr:hovedgruppe" v="bebyggelse" />
		<tag k="ssr:stedsnr" v="546894" />
		<tag k="ssr:type" v="bruk" />
	</node>
	<node lat="58.77510000089909" lon="5.625125002641923" id="-443">
		<tag k="junction" v="yes" />
		<tag k="name" v="Kleppekrossen" />
		<tag k="place" v="locality" />
		<tag k="ssr:date" v="2016-05-10" />
		<tag k="ssr:gruppe" v="veg" />
		<tag k="ssr:hovedgruppe" v="infrastruktur" />
		<tag k="ssr:stedsnr" v="546829" />
		<tag k="ssr:type" v="vegkryss" />
	</node>
	<node lat="58.745002776259625" lon="5.502180550913218" id="-444">
		<tag k="name" v="Revesanden" />
		<tag k="natural" v="beach" />
		<tag k="old_name" v="Revestranda" />
		<tag k="ssr:date" v="2016-05-10" />
		<tag k="ssr:gruppe" v="kystkontur" />
		<tag k="ssr:hovedgruppe" v="sjø" />
		<tag k="ssr:stedsnr" v="547852" />
		<tag k="ssr:type" v="strandISjø" />
	</node>
	<node lat="58.75084444188301" lon="5.5966055601734706" id="-445">
		<tag k="name" v="Brautkanalen" />
		<tag k="ssr:date" v="2016-05-10" />
		<tag k="ssr:gruppe" v="sjøfart" />
		<tag k="ssr:hovedgruppe" v="infrastruktur" />
		<tag k="ssr:stedsnr" v="569121" />
		<tag k="ssr:type" v="kanal" />
		<tag k="waterway" v="canal" />
	</node>
	<node lat="58.75500555690667" lon="5.581899991841539" id="-446">
		<tag k="name" v="Rinnane" />
		<tag k="place" v="farm" />
		<tag k="ssr:date" v="2016-05-10" />
		<tag k="ssr:gruppe" v="gardsbebyggelse" />
		<tag k="ssr:hovedgruppe" v="bebyggelse" />
		<tag k="ssr:stedsnr" v="569128" />
		<tag k="ssr:type" v="bruk" />
	</node>
	<node lat="58.74825833539612" lon="5.6583416578199515" id="-447">
		<tag k="name" v="Tumarkene" />
		<tag k="place" v="locality" />
		<tag k="ssr:date" v="2016-05-10" />
		<tag k="ssr:gruppe" v="dyrkamark" />
		<tag k="ssr:hovedgruppe" v="markslag" />
		<tag k="ssr:stedsnr" v="569417" />
		<tag k="ssr:type" v="utmark" />
	</node>
	<node lat="58.75178888907401" lon="5.64486944223576" id="-448">
		<tag k="name" v="Tubakken" />
		<tag k="natural" v="slope" />
		<tag k="place" v="locality" />
		<tag k="ssr:date" v="2016-05-10" />
		<tag k="ssr:gruppe" v="skråninger" />
		<tag k="ssr:hovedgruppe" v="terreng" />
		<tag k="ssr:stedsnr" v="569418" />
		<tag k="ssr:type" v="bakke" />
	</node>
	<node lat="58.77083055650779" lon="5.67205277871851" id="-449">
		<tag k="name" v="Revholen" />
		<tag k="place" v="farm" />
		<tag k="ssr:date" v="2016-05-10" />
		<tag k="ssr:gruppe" v="gardsbebyggelse" />
		<tag k="ssr:hovedgruppe" v="bebyggelse" />
		<tag k="ssr:stedsnr" v="569424" />
		<tag k="ssr:type" v="bruk" />
	</node>
	<node lat="58.811552778628574" lon="5.605950000190975" id="-450">
		<tag k="name" v="Trånhaug" />
		<tag k="place" v="farm" />
		<tag k="ssr:date" v="2016-05-10" />
		<tag k="ssr:gruppe" v="gardsbebyggelse" />
		<tag k="ssr:hovedgruppe" v="bebyggelse" />
		<tag k="ssr:stedsnr" v="569092" />
		<tag k="ssr:type" v="bruk" />
	</node>
	<node lat="58.778400004522524" lon="5.604672225591539" id="-451">
		<tag k="fixme" v="consider natural=peak for the most distinct mountains in the district" />
		<tag k="name" v="Hålandsfjell" />
		<tag k="natural" v="hill" />
		<tag k="place" v="locality" />
		<tag k="ssr:date" v="2016-05-10" />
		<tag k="ssr:gruppe" v="høyder" />
		<tag k="ssr:hovedgruppe" v="terreng" />
		<tag k="ssr:stedsnr" v="569102" />
		<tag k="ssr:type" v="fjell" />
	</node>
	<node lat="58.75488333306234" lon="5.639219447354603" id="-452">
		<tag k="name" v="Dysjane" />
		<tag k="place" v="locality" />
		<tag k="ssr:date" v="2016-05-10" />
		<tag k="ssr:gruppe" v="bolighus" />
		<tag k="ssr:hovedgruppe" v="bebyggelse" />
		<tag k="ssr:stedsnr" v="569455" />
		<tag k="ssr:type" v="gammelBosettingsplass" />
	</node>
	<node lat="58.766472224542746" lon="5.68006944085103" id="-453">
		<tag k="name" v="Gunnarsberget" />
		<tag k="natural" v="hill" />
		<tag k="place" v="locality" />
		<tag k="ssr:date" v="2016-05-10" />
		<tag k="ssr:gruppe" v="høyder" />
		<tag k="ssr:hovedgruppe" v="terreng" />
		<tag k="ssr:stedsnr" v="569478" />
		<tag k="ssr:type" v="haug" />
	</node>
	<node lat="58.769796677583436" lon="5.617322151094486" id="-454">
		<tag k="name" v="Sørbø" />
		<tag k="place" v="hamlet" />
		<tag k="ssr:date" v="2019-05-24" />
		<tag k="ssr:gruppe" v="gardsbebyggelse" />
		<tag k="ssr:hovedgruppe" v="bebyggelse" />
		<tag k="ssr:stedsnr" v="569491" />
		<tag k="ssr:type" v="navnegard" />
	</node>
	<node lat="58.764097225031634" lon="5.619697227015956" id="-455">
		<tag k="name" v="Pighella" />
		<tag k="natural" v="stone" />
		<tag k="ssr:date" v="2021-06-08" />
		<tag k="ssr:gruppe" v="løsmasseavsetninger" />
		<tag k="ssr:hovedgruppe" v="markslag" />
		<tag k="ssr:stedsnr" v="569496" />
		<tag k="ssr:type" v="stein" />
	</node>
	<node lat="58.76490000146987" lon="5.660208338760026" id="-456">
		<tag k="name" v="Hellevollen" />
		<tag k="place" v="farm" />
		<tag k="ssr:date" v="2016-05-10" />
		<tag k="ssr:gruppe" v="gardsbebyggelse" />
		<tag k="ssr:hovedgruppe" v="bebyggelse" />
		<tag k="ssr:stedsnr" v="569498" />
		<tag k="ssr:type" v="bruk" />
	</node>
	<node lat="58.76101667094771" lon="5.638722228901383" id="-457">
		<tag k="name" v="Holmaholen" />
		<tag k="place" v="farm" />
		<tag k="ssr:date" v="2016-05-10" />
		<tag k="ssr:gruppe" v="gardsbebyggelse" />
		<tag k="ssr:hovedgruppe" v="bebyggelse" />
		<tag k="ssr:stedsnr" v="569501" />
		<tag k="ssr:type" v="bruk" />
	</node>
	<node lat="58.776413891268845" lon="5.621138895492817" id="-458">
		<tag k="name" v="Kleppevarden" />
		<tag k="natural" v="hill" />
		<tag k="place" v="locality" />
		<tag k="ssr:date" v="2016-05-10" />
		<tag k="ssr:gruppe" v="høyder" />
		<tag k="ssr:hovedgruppe" v="terreng" />
		<tag k="ssr:stedsnr" v="570378" />
		<tag k="ssr:type" v="haug" />
	</node>
	<node lat="58.80484722378697" lon="5.677349995571006" id="-459">
		<tag k="name" v="Øksna bruk" />
		<tag k="place" v="farm" />
		<tag k="ssr:date" v="2016-05-10" />
		<tag k="ssr:gruppe" v="gardsbebyggelse" />
		<tag k="ssr:hovedgruppe" v="bebyggelse" />
		<tag k="ssr:stedsnr" v="570779" />
		<tag k="ssr:type" v="bruk" />
	</node>
	<node lat="58.77603888664743" lon="5.525755548054244" id="-460">
		<tag k="name" v="Banavika" />
		<tag k="natural" v="bay" />
		<tag k="ssr:date" v="2016-05-10" />
		<tag k="ssr:gruppe" v="kystkontur" />
		<tag k="ssr:hovedgruppe" v="sjø" />
		<tag k="ssr:stedsnr" v="585860" />
		<tag k="ssr:type" v="vikISjø" />
	</node>
	<node lat="58.7775194486305" lon="5.678347215346119" id="-461">
		<tag k="bridge" v="yes" />
		<tag k="layer" v="1" />
		<tag k="name" v="Engelsvoll" />
		<tag k="ssr:date" v="2016-05-10" />
		<tag k="ssr:gruppe" v="samferdselsanlegg" />
		<tag k="ssr:hovedgruppe" v="infrastruktur" />
		<tag k="ssr:stedsnr" v="592775" />
		<tag k="ssr:type" v="bru" />
	</node>
	<node lat="58.721336109805456" lon="5.602255561021641" id="-462">
		<tag k="name" v="Nygård" />
		<tag k="place" v="farm" />
		<tag k="ssr:date" v="2016-05-10" />
		<tag k="ssr:gruppe" v="gardsbebyggelse" />
		<tag k="ssr:hovedgruppe" v="bebyggelse" />
		<tag k="ssr:stedsnr" v="603236" />
		<tag k="ssr:type" v="bruk" />
	</node>
	<node lat="58.70702312779026" lon="5.554926234010352" id="-463">
		<tag k="alt_name" v="Åse, øvra;Åse øvre" />
		<tag k="fixme" v="consider place=hamlet" />
		<tag k="name" v="Øvra Åse" />
		<tag k="place" v="farm" />
		<tag k="ssr:date" v="2019-05-24" />
		<tag k="ssr:gruppe" v="gardsbebyggelse" />
		<tag k="ssr:hovedgruppe" v="bebyggelse" />
		<tag k="ssr:stedsnr" v="606831" />
		<tag k="ssr:type" v="gard" />
	</node>
	<node lat="58.70506086865836" lon="5.546599140824537" id="-464">
		<tag k="alt_name" v="Åse, nedra;Åse nedre" />
		<tag k="fixme" v="consider place=hamlet" />
		<tag k="name" v="Nedra Åse" />
		<tag k="place" v="farm" />
		<tag k="ssr:date" v="2019-05-24" />
		<tag k="ssr:gruppe" v="gardsbebyggelse" />
		<tag k="ssr:hovedgruppe" v="bebyggelse" />
		<tag k="ssr:stedsnr" v="606783" />
		<tag k="ssr:type" v="gard" />
	</node>
	<node lat="58.737827781962935" lon="5.558630552432418" id="-466">
		<tag k="name" v="Nygard" />
		<tag k="place" v="farm" />
		<tag k="ssr:date" v="2016-05-10" />
		<tag k="ssr:gruppe" v="gardsbebyggelse" />
		<tag k="ssr:hovedgruppe" v="bebyggelse" />
		<tag k="ssr:stedsnr" v="606884" />
		<tag k="ssr:type" v="bruk" />
	</node>
	<node lat="58.80402777517358" lon="5.556472228145032" id="-467">
		<tag k="name" v="Hølen" />
		<tag k="place" v="farm" />
		<tag k="ssr:date" v="2016-05-10" />
		<tag k="ssr:gruppe" v="gardsbebyggelse" />
		<tag k="ssr:hovedgruppe" v="bebyggelse" />
		<tag k="ssr:stedsnr" v="607929" />
		<tag k="ssr:type" v="bruk" />
	</node>
	<node lat="58.7134333296579" lon="5.579874995720687" id="-468">
		<tag k="alt_name" v="Degerheia" />
		<tag k="name" v="Digerheia" />
		<tag k="place" v="farm" />
		<tag k="ssr:date" v="2016-05-10" />
		<tag k="ssr:gruppe" v="gardsbebyggelse" />
		<tag k="ssr:hovedgruppe" v="bebyggelse" />
		<tag k="ssr:stedsnr" v="607807" />
		<tag k="ssr:type" v="bruk" />
	</node>
	<node lat="58.716938889696294" lon="5.589722217919502" id="-469">
		<tag k="name" v="Veisholen" />
		<tag k="place" v="farm" />
		<tag k="ssr:date" v="2016-05-10" />
		<tag k="ssr:gruppe" v="gardsbebyggelse" />
		<tag k="ssr:hovedgruppe" v="bebyggelse" />
		<tag k="ssr:stedsnr" v="607811" />
		<tag k="ssr:type" v="bruk" />
	</node>
	<node lat="58.78188746073521" lon="5.648363432280993" id="-470">
		<tag k="fixme" v="consider place=hamlet" />
		<tag k="name" v="Hattaland" />
		<tag k="place" v="farm" />
		<tag k="ssr:date" v="2021-06-08" />
		<tag k="ssr:gruppe" v="gardsbebyggelse" />
		<tag k="ssr:hovedgruppe" v="bebyggelse" />
		<tag k="ssr:stedsnr" v="607828" />
		<tag k="ssr:type" v="gard" />
	</node>
	<node lat="58.77063888853381" lon="5.587613884914752" id="-471">
		<tag k="alt_name" v="Damsgård" />
		<tag k="name" v="Damsgard" />
		<tag k="place" v="farm" />
		<tag k="ssr:date" v="2016-05-10" />
		<tag k="ssr:gruppe" v="gardsbebyggelse" />
		<tag k="ssr:hovedgruppe" v="bebyggelse" />
		<tag k="ssr:stedsnr" v="607833" />
		<tag k="ssr:type" v="bruk" />
	</node>
	<node lat="58.75510046827699" lon="5.4738262297773534" id="-472">
		<tag k="name" v="Videgrunnen" />
		<tag k="natural" v="shoal" />
		<tag k="place" v="locality" />
		<tag k="ssr:date" v="2021-06-08" />
		<tag k="ssr:gruppe" v="grunnerISjø" />
		<tag k="ssr:hovedgruppe" v="sjø" />
		<tag k="ssr:stedsnr" v="627424" />
		<tag k="ssr:type" v="grunneISjø" />
	</node>
	<node lat="58.81298889242629" lon="5.545713886664812" id="-473">
		<tag k="name" v="Buasanden" />
		<tag k="natural" v="beach" />
		<tag k="ssr:date" v="2016-05-10" />
		<tag k="ssr:gruppe" v="kystkontur" />
		<tag k="ssr:hovedgruppe" v="sjø" />
		<tag k="ssr:stedsnr" v="630115" />
		<tag k="ssr:type" v="strandISjø" />
	</node>
	<node lat="58.748163892591464" lon="5.605008325682926" id="-474">
		<tag k="name" v="Brautmarka" />
		<tag k="place" v="locality" />
		<tag k="ssr:date" v="2016-05-10" />
		<tag k="ssr:gruppe" v="dyrkamark" />
		<tag k="ssr:hovedgruppe" v="markslag" />
		<tag k="ssr:stedsnr" v="630122" />
		<tag k="ssr:type" v="utmark" />
	</node>
	<node lat="58.77207500391519" lon="5.575802783016904" id="-475">
		<tag k="name" v="Flatbaget" />
		<tag k="natural" v="cape" />
		<tag k="ssr:date" v="2016-05-10" />
		<tag k="ssr:gruppe" v="ferskvannskontur" />
		<tag k="ssr:hovedgruppe" v="ferskvann" />
		<tag k="ssr:stedsnr" v="630127" />
		<tag k="ssr:type" v="nes" />
	</node>
	<node lat="58.762880553667365" lon="5.571388896983908" id="-476">
		<tag k="alt_name" v="Ægerhaug" />
		<tag k="name" v="Ægrehaug" />
		<tag k="place" v="locality" />
		<tag k="ssr:date" v="2016-05-10" />
		<tag k="ssr:gruppe" v="bolighus" />
		<tag k="ssr:hovedgruppe" v="bebyggelse" />
		<tag k="ssr:stedsnr" v="630128" />
		<tag k="ssr:type" v="gammelBosettingsplass" />
	</node>
	<node lat="58.772313892088114" lon="5.580880557144414" id="-477">
		<tag k="name" v="Friestadvika" />
		<tag k="natural" v="bay" />
		<tag k="ssr:date" v="2016-05-10" />
		<tag k="ssr:gruppe" v="ferskvannskontur" />
		<tag k="ssr:hovedgruppe" v="ferskvann" />
		<tag k="ssr:stedsnr" v="630133" />
		<tag k="ssr:type" v="vik" />
	</node>
	<node lat="58.69988610940515" lon="5.533350005416698" id="-478">
		<tag k="alt_name" v="Sylterura" />
		<tag k="name" v="Sylterurda" />
		<tag k="natural" v="beach" />
		<tag k="ssr:date" v="2016-05-10" />
		<tag k="ssr:gruppe" v="kystkontur" />
		<tag k="ssr:hovedgruppe" v="sjø" />
		<tag k="ssr:stedsnr" v="630913" />
		<tag k="ssr:type" v="strandISjø" />
	</node>
	<node lat="58.79872777577863" lon="5.63758333810221" id="-479">
		<tag k="name" v="Grudetjørna" />
		<tag k="natural" v="water" />
		<tag k="ssr:date" v="2016-05-10" />
		<tag k="ssr:gruppe" v="stilleståendeVann" />
		<tag k="ssr:hovedgruppe" v="ferskvann" />
		<tag k="ssr:stedsnr" v="631419" />
		<tag k="ssr:type" v="tjern" />
	</node>
	<node lat="58.8002722247319" lon="5.6449166691581105" id="-480">
		<tag k="name" v="Gardhøl" />
		<tag k="place" v="locality" />
		<tag k="ssr:date" v="2016-05-10" />
		<tag k="ssr:gruppe" v="rennendeVann" />
		<tag k="ssr:hovedgruppe" v="ferskvann" />
		<tag k="ssr:stedsnr" v="631420" />
		<tag k="ssr:type" v="høl" />
	</node>
	<node lat="58.80421640546753" lon="5.621905452539747" id="-481">
		<tag k="name" v="Snelleberg" />
		<tag k="natural" v="hill" />
		<tag k="place" v="locality" />
		<tag k="ssr:date" v="2019-04-26" />
		<tag k="ssr:gruppe" v="høyder" />
		<tag k="ssr:hovedgruppe" v="terreng" />
		<tag k="ssr:stedsnr" v="631424" />
		<tag k="ssr:type" v="haug" />
	</node>
	<node lat="58.70382500264011" lon="5.529088883555273" id="-482">
		<tag k="name" v="Skeietangen" />
		<tag k="natural" v="cape" />
		<tag k="ssr:date" v="2016-05-10" />
		<tag k="ssr:gruppe" v="kystkontur" />
		<tag k="ssr:hovedgruppe" v="sjø" />
		<tag k="ssr:stedsnr" v="631931" />
		<tag k="ssr:type" v="nesISjø" />
	</node>
	<node lat="58.83301111465836" lon="5.533538884512043" id="-483">
		<tag k="name" v="Djupafluna" />
		<tag k="place" v="locality" />
		<tag k="seamark:type" v="rock" />
		<tag k="ssr:date" v="2016-05-10" />
		<tag k="ssr:gruppe" v="grunnerISjø" />
		<tag k="ssr:hovedgruppe" v="sjø" />
		<tag k="ssr:stedsnr" v="645840" />
		<tag k="ssr:type" v="båeISjø" />
	</node>
	<node lat="58.74516388830744" lon="5.634558331720188" id="-484">
		<tag k="bridge" v="yes" />
		<tag k="layer" v="1" />
		<tag k="name" v="Tu" />
		<tag k="ssr:date" v="2016-05-10" />
		<tag k="ssr:gruppe" v="samferdselsanlegg" />
		<tag k="ssr:hovedgruppe" v="infrastruktur" />
		<tag k="ssr:stedsnr" v="653765" />
		<tag k="ssr:type" v="bru" />
	</node>
	<node lat="58.78650555613335" lon="5.705961119309912" id="-485">
		<tag k="bridge" v="yes" />
		<tag k="layer" v="1" />
		<tag k="name" v="Øksnevad" />
		<tag k="ssr:date" v="2016-05-10" />
		<tag k="ssr:gruppe" v="samferdselsanlegg" />
		<tag k="ssr:hovedgruppe" v="infrastruktur" />
		<tag k="ssr:stedsnr" v="653768" />
		<tag k="ssr:type" v="bru" />
	</node>
	<node lat="58.701864181395244" lon="5.587785267270027" id="-486">
		<tag k="junction" v="yes" />
		<tag k="name" v="Saltekrossen" />
		<tag k="place" v="locality" />
		<tag k="ssr:date" v="2018-07-24" />
		<tag k="ssr:gruppe" v="veg" />
		<tag k="ssr:hovedgruppe" v="infrastruktur" />
		<tag k="ssr:stedsnr" v="665351" />
		<tag k="ssr:type" v="vegkryss" />
	</node>
	<node lat="58.71229166556505" lon="5.606938884602458" id="-487">
		<tag k="name" v="Saltekanalen" />
		<tag k="ssr:date" v="2016-05-10" />
		<tag k="ssr:gruppe" v="sjøfart" />
		<tag k="ssr:hovedgruppe" v="infrastruktur" />
		<tag k="ssr:stedsnr" v="666483" />
		<tag k="ssr:type" v="kanal" />
		<tag k="waterway" v="canal" />
	</node>
	<node lat="58.68601389323994" lon="5.552452784167674" id="-488">
		<tag k="alt_name" v="Salteåa" />
		<tag k="name" v="Salteåna" />
		<tag k="ssr:date" v="2019-12-27" />
		<tag k="ssr:gruppe" v="rennendeVann" />
		<tag k="ssr:hovedgruppe" v="ferskvann" />
		<tag k="ssr:stedsnr" v="667774" />
		<tag k="ssr:type" v="bekk" />
		<tag k="waterway" v="stream" />
	</node>
	<node lat="58.719341670781766" lon="5.581575007890029" id="-489">
		<tag k="name" v="Grødaland" />
		<tag k="old_name" v="Grødeland" />
		<tag k="place" v="farm" />
		<tag k="ssr:date" v="2016-05-10" />
		<tag k="ssr:gruppe" v="gardsbebyggelse" />
		<tag k="ssr:hovedgruppe" v="bebyggelse" />
		<tag k="ssr:stedsnr" v="667844" />
		<tag k="ssr:type" v="bruk" />
	</node>
	<node lat="58.721338885145194" lon="5.542602770602889" id="-490">
		<tag k="alt_name" v="Vik, øvra" />
		<tag k="name" v="Øvra Vik" />
		<tag k="place" v="farm" />
		<tag k="ssr:date" v="2016-05-10" />
		<tag k="ssr:gruppe" v="gardsbebyggelse" />
		<tag k="ssr:hovedgruppe" v="bebyggelse" />
		<tag k="ssr:stedsnr" v="667846" />
		<tag k="ssr:type" v="bruk" />
	</node>
	<node lat="58.74828333245948" lon="5.5821333406911995" id="-491">
		<tag k="alt_name" v="Horpestad, øvra;Horpestad Øvre" />
		<tag k="name" v="Øvra Horpestad" />
		<tag k="place" v="farm" />
		<tag k="ssr:date" v="2016-05-10" />
		<tag k="ssr:gruppe" v="gardsbebyggelse" />
		<tag k="ssr:hovedgruppe" v="bebyggelse" />
		<tag k="ssr:stedsnr" v="667880" />
		<tag k="ssr:type" v="bruk" />
	</node>
	<node lat="58.715780553963064" lon="5.615202782876542" id="-492">
		<tag k="name" v="Kjelsholen" />
		<tag k="natural" v="hill" />
		<tag k="place" v="locality" />
		<tag k="ssr:date" v="2016-05-11" />
		<tag k="ssr:gruppe" v="høyder" />
		<tag k="ssr:hovedgruppe" v="terreng" />
		<tag k="ssr:stedsnr" v="727468" />
		<tag k="ssr:type" v="haug" />
	</node>
	<node lat="58.70295277719442" lon="5.531899995504747" id="-493">
		<tag k="name" v="Skeievika" />
		<tag k="natural" v="bay" />
		<tag k="ssr:date" v="2016-05-11" />
		<tag k="ssr:gruppe" v="kystkontur" />
		<tag k="ssr:hovedgruppe" v="sjø" />
		<tag k="ssr:stedsnr" v="728833" />
		<tag k="ssr:type" v="vikISjø" />
	</node>
	<node lat="58.73337500353452" lon="5.519658325389201" id="-494">
		<tag k="name" v="Haugen" />
		<tag k="place" v="farm" />
		<tag k="ssr:date" v="2016-05-11" />
		<tag k="ssr:gruppe" v="gardsbebyggelse" />
		<tag k="ssr:hovedgruppe" v="bebyggelse" />
		<tag k="ssr:stedsnr" v="728839" />
		<tag k="ssr:type" v="bruk" />
	</node>
	<node lat="58.72626388640523" lon="5.5763138833730626" id="-495">
		<tag k="name" v="Erga" />
		<tag k="place" v="farm" />
		<tag k="ssr:date" v="2016-05-11" />
		<tag k="ssr:gruppe" v="gardsbebyggelse" />
		<tag k="ssr:hovedgruppe" v="bebyggelse" />
		<tag k="ssr:stedsnr" v="728858" />
		<tag k="ssr:type" v="bruk" />
	</node>
	<node lat="58.75149722302609" lon="5.572497217127358" id="-496">
		<tag k="alt_name" v="Horpestad, øvre" />
		<tag k="name" v="Øvre Horpestad" />
		<tag k="place" v="farm" />
		<tag k="ssr:date" v="2016-05-11" />
		<tag k="ssr:gruppe" v="gardsbebyggelse" />
		<tag k="ssr:hovedgruppe" v="bebyggelse" />
		<tag k="ssr:stedsnr" v="729860" />
		<tag k="ssr:type" v="bruk" />
	</node>
	<node lat="58.816780557583485" lon="5.5651416675632595" id="-497">
		<tag k="name" v="Sele" />
		<tag k="place" v="farm" />
		<tag k="ssr:date" v="2016-05-11" />
		<tag k="ssr:gruppe" v="gardsbebyggelse" />
		<tag k="ssr:hovedgruppe" v="bebyggelse" />
		<tag k="ssr:stedsnr" v="729876" />
		<tag k="ssr:type" v="bruk" />
	</node>
	<node lat="58.744552780066066" lon="5.584166666525028" id="-498">
		<tag k="name" v="Akerhaug" />
		<tag k="natural" v="hill" />
		<tag k="place" v="locality" />
		<tag k="ssr:date" v="2016-05-11" />
		<tag k="ssr:gruppe" v="høyder" />
		<tag k="ssr:hovedgruppe" v="terreng" />
		<tag k="ssr:stedsnr" v="752082" />
		<tag k="ssr:type" v="haug" />
	</node>
	<node lat="58.806533335941836" lon="5.548361111611713" id="-499">
		<tag k="name" v="Elvenes" />
		<tag k="natural" v="cape" />
		<tag k="ssr:date" v="2016-05-11" />
		<tag k="ssr:gruppe" v="ferskvannskontur" />
		<tag k="ssr:hovedgruppe" v="ferskvann" />
		<tag k="ssr:stedsnr" v="752084" />
		<tag k="ssr:type" v="nes" />
	</node>
	<node lat="58.747186107022856" lon="5.595566662231191" id="-500">
		<tag k="name" v="Lynghei" />
		<tag k="place" v="farm" />
		<tag k="ssr:date" v="2016-05-11" />
		<tag k="ssr:gruppe" v="gardsbebyggelse" />
		<tag k="ssr:hovedgruppe" v="bebyggelse" />
		<tag k="ssr:stedsnr" v="752085" />
		<tag k="ssr:type" v="bruk" />
	</node>
	<node lat="58.76934999899228" lon="5.573202783289325" id="-501">
		<tag k="name" v="Torvå" />
		<tag k="natural" v="cape" />
		<tag k="ssr:date" v="2016-05-11" />
		<tag k="ssr:gruppe" v="ferskvannskontur" />
		<tag k="ssr:hovedgruppe" v="ferskvann" />
		<tag k="ssr:stedsnr" v="752093" />
		<tag k="ssr:type" v="nes" />
	</node>
	<node lat="58.747152776445006" lon="5.500641658698066" id="-502">
		<tag k="name" v="Sørenes" />
		<tag k="natural" v="cape" />
		<tag k="ssr:date" v="2016-05-11" />
		<tag k="ssr:gruppe" v="kystkontur" />
		<tag k="ssr:hovedgruppe" v="sjø" />
		<tag k="ssr:stedsnr" v="752096" />
		<tag k="ssr:type" v="nesISjø" />
	</node>
	<node lat="58.77893332924424" lon="5.6976055484905865" id="-503">
		<tag k="name" v="Butangen" />
		<tag k="natural" v="cape" />
		<tag k="ssr:date" v="2016-05-11" />
		<tag k="ssr:gruppe" v="ferskvannskontur" />
		<tag k="ssr:hovedgruppe" v="ferskvann" />
		<tag k="ssr:stedsnr" v="752226" />
		<tag k="ssr:type" v="nes" />
	</node>
	<node lat="58.783047218112934" lon="5.71231388718569" id="-504">
		<tag k="name" v="Osen" />
		<tag k="place" v="farm" />
		<tag k="ssr:date" v="2020-08-27" />
		<tag k="ssr:gruppe" v="gardsbebyggelse" />
		<tag k="ssr:hovedgruppe" v="bebyggelse" />
		<tag k="ssr:stedsnr" v="752230" />
		<tag k="ssr:type" v="bruk" />
	</node>
	<node lat="58.781194191445024" lon="5.708247046928706" id="-505">
		<tag k="alt_name" v="Tollvika" />
		<tag k="name" v="Trollvika" />
		<tag k="natural" v="bay" />
		<tag k="ssr:date" v="2020-08-27" />
		<tag k="ssr:gruppe" v="ferskvannskontur" />
		<tag k="ssr:hovedgruppe" v="ferskvann" />
		<tag k="ssr:stedsnr" v="752235" />
		<tag k="ssr:type" v="vik" />
	</node>
	<node lat="58.782100001814854" lon="5.694122224947991" id="-506">
		<tag k="name" v="Eikebakken" />
		<tag k="natural" v="hill" />
		<tag k="place" v="locality" />
		<tag k="ssr:date" v="2016-05-11" />
		<tag k="ssr:gruppe" v="høyder" />
		<tag k="ssr:hovedgruppe" v="terreng" />
		<tag k="ssr:stedsnr" v="752237" />
		<tag k="ssr:type" v="haug" />
	</node>
	<node lat="58.789822219840936" lon="5.716916674087127" id="-507">
		<tag k="name" v="Ormadalen" />
		<tag k="natural" v="valley" />
		<tag k="place" v="locality" />
		<tag k="ssr:date" v="2019-02-20" />
		<tag k="ssr:gruppe" v="senkninger" />
		<tag k="ssr:hovedgruppe" v="terreng" />
		<tag k="ssr:stedsnr" v="752239" />
		<tag k="ssr:type" v="dal" />
	</node>
	<node lat="58.791469442802295" lon="5.728124997384289" id="-508">
		<tag k="name" v="Orstadmarkene" />
		<tag k="place" v="locality" />
		<tag k="ssr:date" v="2016-05-11" />
		<tag k="ssr:gruppe" v="dyrkamark" />
		<tag k="ssr:hovedgruppe" v="markslag" />
		<tag k="ssr:stedsnr" v="752581" />
		<tag k="ssr:type" v="utmark" />
	</node>
	<node lat="58.79866388761052" lon="5.73345833315151" id="-509">
		<tag k="name" v="Eikelandshølen" />
		<tag k="place" v="locality" />
		<tag k="ssr:date" v="2019-12-27" />
		<tag k="ssr:gruppe" v="rennendeVann" />
		<tag k="ssr:hovedgruppe" v="ferskvann" />
		<tag k="ssr:stedsnr" v="752597" />
		<tag k="ssr:type" v="høl" />
	</node>
	<node lat="58.801908742265354" lon="5.673359182755067" id="-510">
		<tag k="name" v="Øksnavadvarden" />
		<tag k="natural" v="hill" />
		<tag k="place" v="locality" />
		<tag k="ssr:date" v="2021-06-08" />
		<tag k="ssr:gruppe" v="høyder" />
		<tag k="ssr:hovedgruppe" v="terreng" />
		<tag k="ssr:stedsnr" v="752785" />
		<tag k="ssr:type" v="haug" />
	</node>
	<node lat="58.77339444497153" lon="5.520458337437295" id="-511">
		<tag k="name" v="Skiftestangen" />
		<tag k="natural" v="cape" />
		<tag k="ssr:date" v="2016-05-11" />
		<tag k="ssr:gruppe" v="kystkontur" />
		<tag k="ssr:hovedgruppe" v="sjø" />
		<tag k="ssr:stedsnr" v="752733" />
		<tag k="ssr:type" v="nesISjø" />
	</node>
	<node lat="58.711161107368525" lon="5.595094448413468" id="-513">
		<tag k="name" v="Åsrudlå" />
		<tag k="place" v="locality" />
		<tag k="ssr:date" v="2016-05-11" />
		<tag k="ssr:gruppe" v="kulturminner" />
		<tag k="ssr:hovedgruppe" v="kultur" />
		<tag k="ssr:stedsnr" v="785231" />
		<tag k="ssr:type" v="annenKulturdetalj" />
	</node>
	<node lat="58.71769166256195" lon="5.523008328030336" id="-514">
		<tag k="name" v="Øykamarka" />
		<tag k="place" v="locality" />
		<tag k="ssr:date" v="2019-04-25" />
		<tag k="ssr:gruppe" v="dyrkamark" />
		<tag k="ssr:hovedgruppe" v="markslag" />
		<tag k="ssr:stedsnr" v="785240" />
		<tag k="ssr:type" v="havnehage" />
	</node>
	<node lat="58.70477222660242" lon="5.60872500659149" id="-515">
		<tag k="name" v="Jodå" />
		<tag k="place" v="farm" />
		<tag k="ssr:date" v="2016-05-11" />
		<tag k="ssr:gruppe" v="gardsbebyggelse" />
		<tag k="ssr:hovedgruppe" v="bebyggelse" />
		<tag k="ssr:stedsnr" v="787327" />
		<tag k="ssr:type" v="bruk" />
	</node>
	<node lat="58.70510833006958" lon="5.5768027716425905" id="-517">
		<tag k="name" v="Tvihaug" />
		<tag k="place" v="farm" />
		<tag k="ssr:date" v="2016-05-11" />
		<tag k="ssr:gruppe" v="gardsbebyggelse" />
		<tag k="ssr:hovedgruppe" v="bebyggelse" />
		<tag k="ssr:stedsnr" v="788827" />
		<tag k="ssr:type" v="bruk" />
	</node>
	<node lat="58.74115277372141" lon="5.562330550378349" id="-518">
		<tag k="name" v="Marka" />
		<tag k="place" v="farm" />
		<tag k="ssr:date" v="2016-05-11" />
		<tag k="ssr:gruppe" v="gardsbebyggelse" />
		<tag k="ssr:hovedgruppe" v="bebyggelse" />
		<tag k="ssr:stedsnr" v="788879" />
		<tag k="ssr:type" v="bruk" />
	</node>
	<node lat="58.746349830507675" lon="5.566089067290521" id="-519">
		<tag k="alt_name" v="Horpestad, nedra;Horpestad Nedre" />
		<tag k="fixme" v="consider place=hamlet" />
		<tag k="name" v="Nedra Horpestad" />
		<tag k="place" v="farm" />
		<tag k="ssr:date" v="2019-05-28" />
		<tag k="ssr:gruppe" v="gardsbebyggelse" />
		<tag k="ssr:hovedgruppe" v="bebyggelse" />
		<tag k="ssr:stedsnr" v="788891" />
		<tag k="ssr:type" v="gard" />
	</node>
	<node lat="58.808300002116496" lon="5.579474995584092" id="-520">
		<tag k="name" v="Gåsa" />
		<tag k="place" v="farm" />
		<tag k="ssr:date" v="2016-05-11" />
		<tag k="ssr:gruppe" v="gardsbebyggelse" />
		<tag k="ssr:hovedgruppe" v="bebyggelse" />
		<tag k="ssr:stedsnr" v="789882" />
		<tag k="ssr:type" v="bruk" />
	</node>
	<node lat="58.801205559265135" lon="5.710486108264084" id="-521">
		<tag k="name" v="Vaglemoen" />
		<tag k="place" v="farm" />
		<tag k="ssr:date" v="2019-12-27" />
		<tag k="ssr:gruppe" v="gardsbebyggelse" />
		<tag k="ssr:hovedgruppe" v="bebyggelse" />
		<tag k="ssr:stedsnr" v="790936" />
		<tag k="ssr:type" v="bruk" />
	</node>
	<node lat="58.773333337225225" lon="5.469999991723687" id="-522">
		<tag k="name" v="Pikflua" />
		<tag k="place" v="locality" />
		<tag k="seamark:type" v="rock" />
		<tag k="ssr:date" v="2021-06-08" />
		<tag k="ssr:gruppe" v="grunnerISjø" />
		<tag k="ssr:hovedgruppe" v="sjø" />
		<tag k="ssr:stedsnr" v="810392" />
		<tag k="ssr:type" v="båeISjø" />
	</node>
	<node lat="58.81598055774954" lon="5.541883335678601" id="-523">
		<tag k="name" v="Selestranda" />
		<tag k="natural" v="beach" />
		<tag k="ssr:date" v="2016-05-11" />
		<tag k="ssr:gruppe" v="kystkontur" />
		<tag k="ssr:hovedgruppe" v="sjø" />
		<tag k="ssr:stedsnr" v="812101" />
		<tag k="ssr:type" v="strandISjø" />
	</node>
	<node lat="58.76605278185532" lon="5.59427500109808" id="-524">
		<tag k="name" v="Haugane" />
		<tag k="place" v="farm" />
		<tag k="ssr:date" v="2016-05-11" />
		<tag k="ssr:gruppe" v="gardsbebyggelse" />
		<tag k="ssr:hovedgruppe" v="bebyggelse" />
		<tag k="ssr:stedsnr" v="812123" />
		<tag k="ssr:type" v="bruk" />
	</node>
	<node lat="58.75799722517149" lon="5.508027769551036" id="-525">
		<tag k="name" v="Revemarka" />
		<tag k="place" v="locality" />
		<tag k="ssr:date" v="2016-05-11" />
		<tag k="ssr:gruppe" v="dyrkamark" />
		<tag k="ssr:hovedgruppe" v="markslag" />
		<tag k="ssr:stedsnr" v="812759" />
		<tag k="ssr:type" v="utmark" />
	</node>
	<node lat="58.79234722440055" lon="5.594172219433966" id="-526">
		<tag k="name" v="Saustenshølen" />
		<tag k="place" v="locality" />
		<tag k="ssr:date" v="2016-05-11" />
		<tag k="ssr:gruppe" v="rennendeVann" />
		<tag k="ssr:hovedgruppe" v="ferskvann" />
		<tag k="ssr:stedsnr" v="813058" />
		<tag k="ssr:type" v="høl" />
	</node>
	<node lat="58.78758055618707" lon="5.606127771226237" id="-527">
		<tag k="fixme" v="consider natural=peak for the most distinct mountains in the district" />
		<tag k="name" v="Sporafjell" />
		<tag k="natural" v="hill" />
		<tag k="place" v="locality" />
		<tag k="ssr:date" v="2016-05-11" />
		<tag k="ssr:gruppe" v="høyder" />
		<tag k="ssr:hovedgruppe" v="terreng" />
		<tag k="ssr:stedsnr" v="813060" />
		<tag k="ssr:type" v="fjell" />
	</node>
	<node lat="58.75403333312238" lon="5.636772230231926" id="-528">
		<tag k="name" v="Krosshaug" />
		<tag k="place" v="farm" />
		<tag k="ssr:date" v="2016-05-11" />
		<tag k="ssr:gruppe" v="gardsbebyggelse" />
		<tag k="ssr:hovedgruppe" v="bebyggelse" />
		<tag k="ssr:stedsnr" v="813378" />
		<tag k="ssr:type" v="bruk" />
	</node>
	<node lat="58.80361110751836" lon="5.6433083337858925" id="-529">
		<tag k="name" v="Stangelandsmyrane" />
		<tag k="natural" v="wetland" />
		<tag k="ssr:date" v="2016-05-11" />
		<tag k="ssr:gruppe" v="våtmark" />
		<tag k="ssr:hovedgruppe" v="markslag" />
		<tag k="ssr:stedsnr" v="813387" />
		<tag k="ssr:type" v="myr" />
	</node>
	<node lat="58.799961107538785" lon="5.632294453173353" id="-530">
		<tag k="name" v="Trelende" />
		<tag k="place" v="locality" />
		<tag k="ssr:date" v="2016-05-11" />
		<tag k="ssr:gruppe" v="vegetasjon" />
		<tag k="ssr:hovedgruppe" v="markslag" />
		<tag k="ssr:stedsnr" v="813389" />
		<tag k="ssr:type" v="skog" />
	</node>
	<node lat="58.75033611296665" lon="5.6701361045541" id="-531">
		<tag k="name" v="Jakobskråna" />
		<tag k="natural" v="bay" />
		<tag k="ssr:date" v="2016-05-11" />
		<tag k="ssr:gruppe" v="ferskvannskontur" />
		<tag k="ssr:hovedgruppe" v="ferskvann" />
		<tag k="ssr:stedsnr" v="813392" />
		<tag k="ssr:type" v="vik" />
	</node>
	<node lat="58.77059722382394" lon="5.6137972138015115" id="-532">
		<tag k="name" v="Klepp" />
		<tag k="place" v="farm" />
		<tag k="ssr:date" v="2016-05-11" />
		<tag k="ssr:gruppe" v="gardsbebyggelse" />
		<tag k="ssr:hovedgruppe" v="bebyggelse" />
		<tag k="ssr:stedsnr" v="813414" />
		<tag k="ssr:type" v="bruk" />
	</node>
	<node lat="58.79827500286052" lon="5.7017666686822395" id="-533">
		<tag k="name" v="Hølen" />
		<tag k="place" v="locality" />
		<tag k="ssr:date" v="2016-05-11" />
		<tag k="ssr:gruppe" v="rennendeVann" />
		<tag k="ssr:hovedgruppe" v="ferskvann" />
		<tag k="ssr:stedsnr" v="813789" />
		<tag k="ssr:type" v="høl" />
	</node>
	<node lat="58.784958330966056" lon="5.609933337213371" id="-534">
		<tag k="fixme" v="consider place=suburb, village or hamlet" />
		<tag k="name" v="Verdalen" />
		<tag k="place" v="quarter" />
		<tag k="ssr:date" v="2016-05-11" />
		<tag k="ssr:gruppe" v="bebyggelsesområder" />
		<tag k="ssr:hovedgruppe" v="bebyggelse" />
		<tag k="ssr:stedsnr" v="813857" />
		<tag k="ssr:type" v="tettbebyggelse" />
	</node>
	<node lat="58.82686388547364" lon="5.5038694442765514" id="-535">
		<tag k="fixme" v="consider seamark:type=rock or natural=shoal" />
		<tag k="name" v="Steinskjeret" />
		<tag k="place" v="islet" />
		<tag k="ssr:date" v="2016-05-11" />
		<tag k="ssr:gruppe" v="grunnerISjø" />
		<tag k="ssr:hovedgruppe" v="sjø" />
		<tag k="ssr:stedsnr" v="828849" />
		<tag k="ssr:type" v="skjærISjø" />
	</node>
	<node lat="58.8141944472611" lon="5.555766674441316" id="-536">
		<tag k="bridge" v="yes" />
		<tag k="layer" v="1" />
		<tag k="name" v="Sele" />
		<tag k="ssr:date" v="2016-05-11" />
		<tag k="ssr:gruppe" v="samferdselsanlegg" />
		<tag k="ssr:hovedgruppe" v="infrastruktur" />
		<tag k="ssr:stedsnr" v="836744" />
		<tag k="ssr:type" v="bru" />
	</node>
	<node lat="58.71024166487096" lon="5.60891666513179" id="-537">
		<tag k="bridge" v="yes" />
		<tag k="layer" v="1" />
		<tag k="name" v="Salte" />
		<tag k="ssr:date" v="2016-05-11" />
		<tag k="ssr:gruppe" v="samferdselsanlegg" />
		<tag k="ssr:hovedgruppe" v="infrastruktur" />
		<tag k="ssr:stedsnr" v="836746" />
		<tag k="ssr:type" v="bru" />
	</node>
	<node lat="58.699649997392065" lon="5.5792916695746175" id="-538">
		<tag k="alt_name" v="Salte, nedra" />
		<tag k="name" v="Nedra Salte" />
		<tag k="place" v="farm" />
		<tag k="ssr:date" v="2016-05-11" />
		<tag k="ssr:gruppe" v="gardsbebyggelse" />
		<tag k="ssr:hovedgruppe" v="bebyggelse" />
		<tag k="ssr:stedsnr" v="850790" />
		<tag k="ssr:type" v="bruk" />
	</node>
	<node lat="58.817883200143015" lon="5.568755453421641" id="-539">
		<tag k="fixme" v="consider place=hamlet" />
		<tag k="name" v="Sele" />
		<tag k="place" v="farm" />
		<tag k="ssr:date" v="2019-05-28" />
		<tag k="ssr:gruppe" v="gardsbebyggelse" />
		<tag k="ssr:hovedgruppe" v="bebyggelse" />
		<tag k="ssr:stedsnr" v="850879" />
		<tag k="ssr:type" v="gard" />
	</node>
	<node lat="58.81794120467272" lon="5.629086081757161" id="-540">
		<tag k="fixme" v="consider place=hamlet" />
		<tag k="name" v="Sveinsvoll" />
		<tag k="place" v="farm" />
		<tag k="ssr:date" v="2019-05-28" />
		<tag k="ssr:gruppe" v="gardsbebyggelse" />
		<tag k="ssr:hovedgruppe" v="bebyggelse" />
		<tag k="ssr:stedsnr" v="850882" />
		<tag k="ssr:type" v="gard" />
	</node>
	<node lat="58.774538885123725" lon="5.591680552370945" id="-541">
		<tag k="alt_name" v="Skådeheia" />
		<tag k="name" v="Skotaheia" />
		<tag k="old_name" v="Skotahei" />
		<tag k="place" v="farm" />
		<tag k="ssr:date" v="2016-05-11" />
		<tag k="ssr:gruppe" v="gardsbebyggelse" />
		<tag k="ssr:hovedgruppe" v="bebyggelse" />
		<tag k="ssr:stedsnr" v="850844" />
		<tag k="ssr:type" v="bruk" />
	</node>
	<node lat="58.72914500350253" lon="5.528834458969289" id="-542">
		<tag k="fixme" v="consider place=hamlet" />
		<tag k="name" v="Orre" />
		<tag k="place" v="farm" />
		<tag k="ssr:date" v="2019-05-28" />
		<tag k="ssr:gruppe" v="gardsbebyggelse" />
		<tag k="ssr:hovedgruppe" v="bebyggelse" />
		<tag k="ssr:stedsnr" v="850848" />
		<tag k="ssr:type" v="gard" />
	</node>
	<node lat="58.72077500290334" lon="5.5577611125970146" id="-543">
		<tag k="alt_name" v="Breiholen" />
		<tag k="name" v="Breidholen" />
		<tag k="place" v="farm" />
		<tag k="ssr:date" v="2016-05-11" />
		<tag k="ssr:gruppe" v="gardsbebyggelse" />
		<tag k="ssr:hovedgruppe" v="bebyggelse" />
		<tag k="ssr:stedsnr" v="850868" />
		<tag k="ssr:type" v="bruk" />
	</node>
	<node lat="58.7889888848745" lon="5.668566671169144" id="-544">
		<tag k="name" v="Øksnavadmarkene" />
		<tag k="place" v="farm" />
		<tag k="ssr:date" v="2016-05-11" />
		<tag k="ssr:gruppe" v="gardsbebyggelse" />
		<tag k="ssr:hovedgruppe" v="bebyggelse" />
		<tag k="ssr:stedsnr" v="851832" />
		<tag k="ssr:type" v="bruk" />
	</node>
	<node lat="58.79754684577128" lon="5.717507060060594" id="-545">
		<tag k="fixme" v="consider place=hamlet" />
		<tag k="name" v="Orstad" />
		<tag k="place" v="farm" />
		<tag k="ssr:date" v="2019-05-24" />
		<tag k="ssr:gruppe" v="gardsbebyggelse" />
		<tag k="ssr:hovedgruppe" v="bebyggelse" />
		<tag k="ssr:stedsnr" v="851833" />
		<tag k="ssr:type" v="gard" />
	</node>
	<node lat="58.787402776470316" lon="5.700574996491118" id="-546">
		<tag k="name" v="Øksnavadmyrane" />
		<tag k="natural" v="wetland" />
		<tag k="ssr:date" v="2016-05-11" />
		<tag k="ssr:gruppe" v="våtmark" />
		<tag k="ssr:hovedgruppe" v="markslag" />
		<tag k="ssr:stedsnr" v="851834" />
		<tag k="ssr:type" v="myr" />
	</node>
	<node lat="58.79999791007208" lon="5.621368019783613" id="-547">
		<tag k="alt_name" v="Gudevatnet;Grudevatnet" />
		<tag k="name" v="Grudavatnet" />
		<tag k="natural" v="water" />
		<tag k="old_name" v="Grudavatn" />
		<tag k="ssr:date" v="2019-11-01" />
		<tag k="ssr:gruppe" v="stilleståendeVann" />
		<tag k="ssr:hovedgruppe" v="ferskvann" />
		<tag k="ssr:stedsnr" v="851925" />
		<tag k="ssr:type" v="vann" />
		<tag k="water" v="lake" />
	</node>
	<node lat="58.80529169879463" lon="5.617007823076438" id="-548">
		<tag k="alt_name" v="Vasshusvika" />
		<tag k="name" v="Vasshusvatnet" />
		<tag k="natural" v="water" />
		<tag k="ssr:date" v="2019-11-01" />
		<tag k="ssr:gruppe" v="stilleståendeVann" />
		<tag k="ssr:hovedgruppe" v="ferskvann" />
		<tag k="ssr:stedsnr" v="851928" />
		<tag k="ssr:type" v="vann" />
		<tag k="water" v="lake" />
	</node>
	<node lat="58.80596388727411" lon="5.6050083326298665" id="-549">
		<tag k="name" v="Voll" />
		<tag k="place" v="hamlet" />
		<tag k="ssr:date" v="2016-05-11" />
		<tag k="ssr:gruppe" v="bebyggelsesområder" />
		<tag k="ssr:hovedgruppe" v="bebyggelse" />
		<tag k="ssr:stedsnr" v="851931" />
		<tag k="ssr:type" v="grend" />
	</node>
	<node lat="58.77122222472415" lon="5.516197213817524" id="-550">
		<tag k="name" v="Ragarvika" />
		<tag k="natural" v="bay" />
		<tag k="ssr:date" v="2016-05-11" />
		<tag k="ssr:gruppe" v="kystkontur" />
		<tag k="ssr:hovedgruppe" v="sjø" />
		<tag k="ssr:stedsnr" v="873726" />
		<tag k="ssr:type" v="vikISjø" />
	</node>
	<node lat="58.78673611352114" lon="5.5826888875269685" id="-551">
		<tag k="name" v="Stemmemyra" />
		<tag k="natural" v="wetland" />
		<tag k="ssr:date" v="2016-05-11" />
		<tag k="ssr:gruppe" v="våtmark" />
		<tag k="ssr:hovedgruppe" v="markslag" />
		<tag k="ssr:stedsnr" v="873076" />
		<tag k="ssr:type" v="myr" />
	</node>
	<node lat="58.73574166906391" lon="5.526230554670986" id="-552">
		<tag k="name" v="Noraleitet" />
		<tag k="place" v="farm" />
		<tag k="ssr:date" v="2016-05-11" />
		<tag k="ssr:gruppe" v="gardsbebyggelse" />
		<tag k="ssr:hovedgruppe" v="bebyggelse" />
		<tag k="ssr:stedsnr" v="873128" />
		<tag k="ssr:type" v="bruk" />
	</node>
	<node lat="58.77106944258937" lon="5.605191667304927" id="-553">
		<tag k="name" v="Rogaland Stamsedgard" />
		<tag k="place" v="farm" />
		<tag k="ssr:date" v="2016-05-11" />
		<tag k="ssr:gruppe" v="gardsbebyggelse" />
		<tag k="ssr:hovedgruppe" v="bebyggelse" />
		<tag k="ssr:stedsnr" v="873133" />
		<tag k="ssr:type" v="bruk" />
	</node>
	<node lat="58.776652779987245" lon="5.578813883219281" id="-554">
		<tag k="name" v="Langtangen" />
		<tag k="natural" v="cape" />
		<tag k="ssr:date" v="2016-05-11" />
		<tag k="ssr:gruppe" v="ferskvannskontur" />
		<tag k="ssr:hovedgruppe" v="ferskvann" />
		<tag k="ssr:stedsnr" v="873079" />
		<tag k="ssr:type" v="nes" />
	</node>
	<node lat="58.785711113418714" lon="5.718558339797211" id="-555">
		<tag k="name" v="Orstadbakken" />
		<tag k="natural" v="slope" />
		<tag k="place" v="locality" />
		<tag k="ssr:date" v="2016-05-11" />
		<tag k="ssr:gruppe" v="skråninger" />
		<tag k="ssr:hovedgruppe" v="terreng" />
		<tag k="ssr:stedsnr" v="873285" />
		<tag k="ssr:type" v="bakke" />
	</node>
	<node lat="58.76073611232962" lon="5.626786112457289" id="-556">
		<tag k="name" v="Erabakkhagen" />
		<tag k="place" v="locality" />
		<tag k="ssr:date" v="2016-05-11" />
		<tag k="ssr:gruppe" v="bolighus" />
		<tag k="ssr:hovedgruppe" v="bebyggelse" />
		<tag k="ssr:stedsnr" v="873476" />
		<tag k="ssr:type" v="gammelBosettingsplass" />
	</node>
	<node lat="58.74581111510088" lon="5.612113890974955" id="-557">
		<tag k="name" v="Dildarhaug" />
		<tag k="place" v="locality" />
		<tag k="ssr:date" v="2016-05-11" />
		<tag k="ssr:gruppe" v="bolighus" />
		<tag k="ssr:hovedgruppe" v="bebyggelse" />
		<tag k="ssr:stedsnr" v="873428" />
		<tag k="ssr:type" v="gammelBosettingsplass" />
	</node>
	<node lat="58.794361113904934" lon="5.693208329449499" id="-558">
		<tag k="name" v="Øksnavad" />
		<tag k="place" v="farm" />
		<tag k="ssr:date" v="2021-06-08" />
		<tag k="ssr:gruppe" v="gardsbebyggelse" />
		<tag k="ssr:hovedgruppe" v="bebyggelse" />
		<tag k="ssr:stedsnr" v="873666" />
		<tag k="ssr:type" v="bruk" />
	</node>
	<node lat="58.78337221820367" lon="5.633269446354491" id="-559">
		<tag k="name" v="Holen" />
		<tag k="place" v="farm" />
		<tag k="ssr:date" v="2016-05-11" />
		<tag k="ssr:gruppe" v="gardsbebyggelse" />
		<tag k="ssr:hovedgruppe" v="bebyggelse" />
		<tag k="ssr:stedsnr" v="874444" />
		<tag k="ssr:type" v="bruk" />
	</node>
	<node lat="58.78466111190202" lon="5.615133325712389" id="-560">
		<tag k="name" v="Kleppemarkene" />
		<tag k="place" v="locality" />
		<tag k="ssr:date" v="2016-05-11" />
		<tag k="ssr:gruppe" v="dyrkamark" />
		<tag k="ssr:hovedgruppe" v="markslag" />
		<tag k="ssr:stedsnr" v="874445" />
		<tag k="ssr:type" v="utmark" />
	</node>
	<node lat="58.806133335553156" lon="5.646908340884016" id="-561">
		<tag k="name" v="Skarpholen" />
		<tag k="place" v="farm" />
		<tag k="ssr:date" v="2016-05-11" />
		<tag k="ssr:gruppe" v="gardsbebyggelse" />
		<tag k="ssr:hovedgruppe" v="bebyggelse" />
		<tag k="ssr:stedsnr" v="874449" />
		<tag k="ssr:type" v="bruk" />
	</node>
	<node lat="58.70246389156252" lon="5.5299666650239185" id="-562">
		<tag k="alt_name" v="Marøya" />
		<tag k="name" v="Marøyna" />
		<tag k="place" v="locality" />
		<tag k="seamark:type" v="rock" />
		<tag k="ssr:date" v="2016-05-11" />
		<tag k="ssr:gruppe" v="grunnerISjø" />
		<tag k="ssr:hovedgruppe" v="sjø" />
		<tag k="ssr:stedsnr" v="874906" />
		<tag k="ssr:type" v="båeISjø" />
	</node>
	<node lat="58.77977222070446" lon="5.653336109442332" id="-563">
		<tag k="name" v="Hattaland" />
		<tag k="place" v="farm" />
		<tag k="ssr:date" v="2021-06-08" />
		<tag k="ssr:gruppe" v="gardsbebyggelse" />
		<tag k="ssr:hovedgruppe" v="bebyggelse" />
		<tag k="ssr:stedsnr" v="937342" />
		<tag k="ssr:type" v="bruk" />
	</node>
	<node lat="58.81496944431565" lon="5.607163896283864" id="-564">
		<tag k="bridge" v="yes" />
		<tag k="layer" v="1" />
		<tag k="name" v="Skadsem" />
		<tag k="ssr:date" v="2016-05-11" />
		<tag k="ssr:gruppe" v="samferdselsanlegg" />
		<tag k="ssr:hovedgruppe" v="infrastruktur" />
		<tag k="ssr:stedsnr" v="957752" />
		<tag k="ssr:type" v="bru" />
	</node>
	<node lat="58.787594442304496" lon="5.720447215880621" id="-565">
		<tag k="amenity" v="place_of_worship" />
		<tag k="denomination" v="lutheran" />
		<tag k="name" v="Frøyland og Orstad kyrkje" />
		<tag k="religion" v="christian" />
		<tag k="ssr:date" v="2021-06-08" />
		<tag k="ssr:gruppe" v="kulturinstitusjoner" />
		<tag k="ssr:hovedgruppe" v="kultur" />
		<tag k="ssr:stedsnr" v="964557" />
		<tag k="ssr:type" v="kirke" />
	</node>
	<node lat="58.732325000486085" lon="5.5787111155079545" id="-566">
		<tag k="name" v="Haua" />
		<tag k="place" v="farm" />
		<tag k="ssr:date" v="2016-05-11" />
		<tag k="ssr:gruppe" v="gardsbebyggelse" />
		<tag k="ssr:hovedgruppe" v="bebyggelse" />
		<tag k="ssr:stedsnr" v="967278" />
		<tag k="ssr:type" v="bruk" />
	</node>
	<node lat="58.78654959897621" lon="5.701540842796438" id="-568">
		<tag k="name" v="Øksnavadporten haldeplass" />
		<tag k="railway" v="halt" />
		<tag k="ssr:date" v="2021-06-08" />
		<tag k="ssr:gruppe" v="bane" />
		<tag k="ssr:hovedgruppe" v="infrastruktur" />
		<tag k="ssr:stedsnr" v="990102" />
		<tag k="ssr:type" v="holdeplass" />
		<tag k="train" v="yes" />
	</node>
</osm>
