<?xml version="1.0" encoding="UTF-8"?>
<osm generator="osmapis" version="0.6">
	<node id="-403749" lat="58.7125611133" lon="5.53872221426">
		<tag k="name" v="Vassvegen" />
		<tag k="ssr:date" v="2016-05-10" />
		<tag k="ssr:gruppe" v="veg" />
		<tag k="ssr:hovedgruppe" v="infrastruktur" />
		<tag k="ssr:stedsnr" v="179263" />
		<tag k="ssr:type" v="vegstrekning" />
	</node>
	<node id="-403993" lat="58.7766166653" lon="5.63020556148">
		<tag k="alt_name" v="Klepp" />
		<tag k="name" v="Klepp kommune" />
		<tag k="ssr:date" v="2017-04-04" />
		<tag k="ssr:gruppe" v="administrativeIndelinger" />
		<tag k="ssr:hovedgruppe" v="offentligAdministrasjon" />
		<tag k="ssr:stedsnr" v="691880" />
		<tag k="ssr:type" v="kommune" />
	</node>
	<node id="-403799" lat="58.7672750023" lon="5.43748055053">
		<tag k="name" v="Jærens rev lysbøye" />
		<tag k="ssr:date" v="2016-05-10" />
		<tag k="ssr:gruppe" v="navigasjon" />
		<tag k="ssr:hovedgruppe" v="infrastruktur" />
		<tag k="ssr:stedsnr" v="247888" />
		<tag k="ssr:type" v="lysbøye" />
	</node>
	<node id="-403605" lat="58.7907777808" lon="5.72224165942">
		<tag k="name" v="Gabriel Edlands veg" />
		<tag k="ssr:date" v="2019-05-30" />
		<tag k="ssr:gruppe" v="veg" />
		<tag k="ssr:hovedgruppe" v="infrastruktur" />
		<tag k="ssr:stedsnr" v="363712" />
		<tag k="ssr:type" v="adressenavn" />
	</node>
	<node id="-403796" lat="58.8264055541" lon="5.50521667309">
		<tag k="alt_name" v="Feistein;Feistein lykt" />
		<tag k="name" v="Feistein fyr" />
		<tag k="old_name" v="Feisten fyr" />
		<tag k="ssr:date" v="2016-05-10" />
		<tag k="ssr:gruppe" v="navigasjon" />
		<tag k="ssr:hovedgruppe" v="infrastruktur" />
		<tag k="ssr:stedsnr" v="243893" />
		<tag k="ssr:type" v="fyrlykt" />
	</node>
	<node id="-403635" lat="58.7749413009" lon="5.64242038652">
		<tag k="name" v="Kjeldehagen" />
		<tag k="ssr:date" v="2019-05-30" />
		<tag k="ssr:gruppe" v="veg" />
		<tag k="ssr:hovedgruppe" v="infrastruktur" />
		<tag k="ssr:stedsnr" v="1030657" />
		<tag k="ssr:type" v="adressenavn" />
	</node>
	<node id="-403634" lat="58.7037045102" lon="5.62559928559">
		<tag k="name" v="Hestholen" />
		<tag k="ssr:date" v="2019-05-30" />
		<tag k="ssr:gruppe" v="veg" />
		<tag k="ssr:hovedgruppe" v="infrastruktur" />
		<tag k="ssr:stedsnr" v="1030171" />
		<tag k="ssr:type" v="adressenavn" />
	</node>
	<node id="-403825" lat="58.7410555567" lon="5.63368333012">
		<tag k="name" v="Eskerhagen" />
		<tag k="ssr:date" v="2019-05-30" />
		<tag k="ssr:gruppe" v="veg" />
		<tag k="ssr:hovedgruppe" v="infrastruktur" />
		<tag k="ssr:stedsnr" v="424936" />
		<tag k="ssr:type" v="adressenavn" />
	</node>
	<node id="-403631" lat="58.7269353816" lon="5.56165368571">
		<tag k="name" v="Lågjæren" />
		<tag k="ssr:date" v="2019-09-10" />
		<tag k="ssr:gruppe" v="terrengområder" />
		<tag k="ssr:hovedgruppe" v="terreng" />
		<tag k="ssr:stedsnr" v="1072522" />
		<tag k="ssr:type" v="landskapsområde" />
	</node>
	<node id="-403603" lat="58.7894555517" lon="5.6096194515">
		<tag k="name" v="Borehagen" />
		<tag k="ssr:date" v="2019-05-30" />
		<tag k="ssr:gruppe" v="veg" />
		<tag k="ssr:hovedgruppe" v="infrastruktur" />
		<tag k="ssr:stedsnr" v="363949" />
		<tag k="ssr:type" v="adressenavn" />
	</node>
	<node id="-403604" lat="58.7902361097" lon="5.71931667189">
		<tag k="name" v="Jorine Edlands veg" />
		<tag k="ssr:date" v="2019-05-30" />
		<tag k="ssr:gruppe" v="veg" />
		<tag k="ssr:hovedgruppe" v="infrastruktur" />
		<tag k="ssr:stedsnr" v="363711" />
		<tag k="ssr:type" v="adressenavn" />
	</node>
	<node id="-404039" lat="58.7418777805" lon="5.63216943879">
		<tag k="name" v="Tjøttamarka" />
		<tag k="ssr:date" v="2019-05-30" />
		<tag k="ssr:gruppe" v="veg" />
		<tag k="ssr:hovedgruppe" v="infrastruktur" />
		<tag k="ssr:stedsnr" v="787941" />
		<tag k="ssr:type" v="adressenavn" />
	</node>
	<node id="-404133" lat="60.8816104596" lon="6.30047518531">
		<tag k="name" v="Vestlandet" />
		<tag k="ssr:date" v="2019-01-06" />
		<tag k="ssr:gruppe" v="administrativeIndelinger" />
		<tag k="ssr:hovedgruppe" v="offentligAdministrasjon" />
		<tag k="ssr:stedsnr" v="974777" />
		<tag k="ssr:type" v="annenAdministrativInndeling" />
	</node>
	<node id="-404132" lat="58.8187130613" lon="5.54244683297">
		<tag k="name" v="Tangarhaug båke" />
		<tag k="ssr:date" v="2016-11-17" />
		<tag k="ssr:gruppe" v="navigasjon" />
		<tag k="ssr:hovedgruppe" v="infrastruktur" />
		<tag k="ssr:stedsnr" v="972915" />
		<tag k="ssr:type" v="båke" />
	</node>
	<node id="-404034" lat="58.7532558195" lon="5.49350725926">
		<tag k="name" v="Jærens merke" />
		<tag k="ssr:date" v="2017-04-05" />
		<tag k="ssr:gruppe" v="navigasjon" />
		<tag k="ssr:hovedgruppe" v="infrastruktur" />
		<tag k="ssr:stedsnr" v="767877" />
		<tag k="ssr:type" v="båke" />
	</node>
</osm>
