<?xml version="1.0" encoding="UTF-8"?>
<osm generator="osmapis" version="0.6">
	<node changeset="55913104" id="23623682" lat="59.2452389" lon="10.4994212" timestamp="2018-01-31T00:16:55Z" uid="5552262" user="Cybban" version="4">
		<tag k="source" v="PGS(could be inacurately)" />
	</node>
	<node changeset="62549042" id="23623684" lat="59.2458626" lon="10.4986522" timestamp="2018-09-13T11:42:51Z" uid="4198735" user="michalzz" version="5">
		<tag k="source" v="PGS(could be inacurately)" />
	</node>
	<node changeset="66049112" id="5422624776" lat="59.3124146" lon="10.4950091" timestamp="2019-01-05T14:55:09Z" uid="3497659" user="NKA" version="2">
		<tag k="alt_name" v="Vollen" />
		<tag k="name" v="Volden" />
		<tag k="place" v="quarter" />
		<tag k="ssr:stedsnr" v="572218" />
		<tag k="ssr:type" v="bruk" />
	</node>
	<node changeset="62549042" id="23623698" lat="59.2462749" lon="10.498148" timestamp="2018-09-13T11:42:51Z" uid="4198735" user="michalzz" version="5">
		<tag k="source" v="PGS(could be inacurately)" />
	</node>
	<node changeset="62549042" id="23623708" lat="59.247575" lon="10.4980708" timestamp="2018-09-13T11:42:51Z" uid="4198735" user="michalzz" version="3">
		<tag k="source" v="PGS(could be inacurately)" />
	</node>
	<node changeset="62549042" id="23623709" lat="59.2489378" lon="10.4978854" timestamp="2018-09-13T11:42:51Z" uid="4198735" user="michalzz" version="5">
		<tag k="source" v="PGS(could be inacurately)" />
	</node>
	<node changeset="62549042" id="23623710" lat="59.2490024" lon="10.497763" timestamp="2018-09-13T11:42:51Z" uid="4198735" user="michalzz" version="5">
		<tag k="source" v="PGS(could be inacurately)" />
	</node>
	<node changeset="62549042" id="23623713" lat="59.2493738" lon="10.4971165" timestamp="2018-09-13T11:42:51Z" uid="4198735" user="michalzz" version="5">
		<tag k="source" v="PGS(could be inacurately)" />
	</node>
	<node changeset="62549042" id="23666011" lat="59.2454199" lon="10.5079526" timestamp="2018-09-13T11:42:51Z" uid="4198735" user="michalzz" version="5">
		<tag k="source" v="PGS(could be inacurately)" />
	</node>
	<node changeset="62549042" id="23623718" lat="59.2495595" lon="10.4971418" timestamp="2018-09-13T11:42:51Z" uid="4198735" user="michalzz" version="5">
		<tag k="source" v="PGS(could be inacurately)" />
	</node>
	<node changeset="62549042" id="23623720" lat="59.2498078" lon="10.4974469" timestamp="2018-09-13T11:42:51Z" uid="4198735" user="michalzz" version="5">
		<tag k="source" v="PGS(could be inacurately)" />
	</node>
	<node changeset="62549042" id="23623723" lat="59.2501312" lon="10.4980071" timestamp="2018-09-13T11:42:51Z" uid="4198735" user="michalzz" version="3">
		<tag k="source" v="PGS(could be inacurately)" />
	</node>
	<node changeset="62549042" id="23666013" lat="59.2451029" lon="10.5077167" timestamp="2018-09-13T11:42:51Z" uid="4198735" user="michalzz" version="5">
		<tag k="source" v="PGS(could be inacurately)" />
	</node>
	<node changeset="62336729" id="23623728" lat="59.2507209" lon="10.4988005" timestamp="2018-09-06T09:35:11Z" uid="4198735" user="michalzz" version="3">
		<tag k="source" v="PGS(could be inacurately)" />
	</node>
	<node changeset="66049112" id="6185898034" lat="59.3397083" lon="10.4197278" timestamp="2019-01-05T14:54:48Z" uid="3497659" user="NKA" version="1">
		<tag k="name" v="Jareteigen S" />
		<tag k="place" v="farm" />
		<tag k="ssr:stedsnr" v="878453" />
		<tag k="ssr:type" v="bruk" />
	</node>
	<node changeset="66049112" id="6185898035" lat="59.3404085" lon="10.3713678" timestamp="2019-01-05T14:54:48Z" uid="3497659" user="NKA" version="1">
		<tag k="name" v="Undrum" />
		<tag k="place" v="hamlet" />
		<tag k="ssr:stedsnr" v="984721" />
		<tag k="ssr:type" v="navnegard" />
	</node>
	<node changeset="66049112" id="6185898036" lat="59.3214278" lon="10.3798906" timestamp="2019-01-05T14:54:48Z" uid="3497659" user="NKA" version="1">
		<tag k="name" v="Søndre Eikeberg" />
		<tag k="place" v="farm" />
		<tag k="ssr:stedsnr" v="984749" />
		<tag k="ssr:type" v="gard" />
	</node>
	<node changeset="66049112" id="6185898037" lat="59.3199435" lon="10.3803366" timestamp="2019-01-05T14:54:48Z" uid="3497659" user="NKA" version="1">
		<tag k="name" v="Eikeberg" />
		<tag k="place" v="hamlet" />
		<tag k="ssr:stedsnr" v="984751" />
		<tag k="ssr:type" v="navnegard" />
	</node>
	<node changeset="66049112" id="6185898038" lat="59.2763222" lon="10.4433361" timestamp="2019-01-05T14:54:48Z" uid="3497659" user="NKA" version="1">
		<tag k="name" v="Døsserød" />
		<tag k="place" v="farm" />
		<tag k="ssr:stedsnr" v="450747" />
		<tag k="ssr:type" v="bruk" />
	</node>
	<node changeset="66049112" id="6185898039" lat="59.2997624" lon="10.3605018" timestamp="2019-01-05T14:54:48Z" uid="3497659" user="NKA" version="1">
		<tag k="name" v="Nordre Ås" />
		<tag k="place" v="farm" />
		<tag k="ssr:stedsnr" v="984775" />
		<tag k="ssr:type" v="gard" />
	</node>
	<node changeset="66049112" id="6185898040" lat="59.3097082" lon="10.4110202" timestamp="2019-01-05T14:54:48Z" uid="3497659" user="NKA" version="1">
		<tag k="name" v="Bruserød" />
		<tag k="place" v="farm" />
		<tag k="ssr:stedsnr" v="912648" />
		<tag k="ssr:type" v="bruk" />
	</node>
	<node changeset="66049112" id="6185898041" lat="59.2959845" lon="10.3554545" timestamp="2019-01-05T14:54:49Z" uid="3497659" user="NKA" version="1">
		<tag k="name" v="Søndre Ås" />
		<tag k="place" v="farm" />
		<tag k="ssr:stedsnr" v="984776" />
		<tag k="ssr:type" v="gard" />
	</node>
	<node changeset="66049112" id="6185898042" lat="59.2875056" lon="10.4506056" timestamp="2019-01-05T14:54:49Z" uid="3497659" user="NKA" version="1">
		<tag k="name" v="Røren" />
		<tag k="place" v="farm" />
		<tag k="ssr:stedsnr" v="912672" />
		<tag k="ssr:type" v="gard" />
	</node>
	<node changeset="66049112" id="6185898043" lat="59.3050421" lon="10.3523581" timestamp="2019-01-05T14:54:49Z" uid="3497659" user="NKA" version="1">
		<tag k="name" v="Fadum" />
		<tag k="place" v="hamlet" />
		<tag k="ssr:stedsnr" v="984777" />
		<tag k="ssr:type" v="navnegard" />
	</node>
	<node changeset="66049112" id="6185898044" lat="59.2969827" lon="10.3213267" timestamp="2019-01-05T14:54:49Z" uid="3497659" user="NKA" version="1">
		<tag k="name" v="Øvre Grette" />
		<tag k="place" v="farm" />
		<tag k="ssr:stedsnr" v="984778" />
		<tag k="ssr:type" v="gard" />
	</node>
	<node changeset="66049112" id="6185898045" lat="59.3346887" lon="10.4673395" timestamp="2019-01-05T14:54:49Z" uid="3497659" user="NKA" version="1">
		<tag k="name" v="Hallingrød" />
		<tag k="place" v="farm" />
		<tag k="ssr:stedsnr" v="913571" />
		<tag k="ssr:type" v="gard" />
	</node>
	<node changeset="66049112" id="6185898046" lat="59.291069" lon="10.321954" timestamp="2019-01-05T14:54:49Z" uid="3497659" user="NKA" version="1">
		<tag k="name" v="Øvre Lendsberg" />
		<tag k="place" v="farm" />
		<tag k="ssr:stedsnr" v="984780" />
		<tag k="ssr:type" v="gard" />
	</node>
	<node changeset="66049112" id="6185898047" lat="59.3155488" lon="10.5271409" timestamp="2019-01-05T14:54:49Z" uid="3497659" user="NKA" version="1">
		<tag k="name" v="Slagentangen" />
		<tag k="natural" v="cape" />
		<tag k="ssr:stedsnr" v="913587" />
		<tag k="ssr:type" v="industriområde" />
	</node>
	<node changeset="66049112" id="6185898048" lat="59.3066528" lon="10.43345" timestamp="2019-01-05T14:54:49Z" uid="3497659" user="NKA" version="1">
		<tag k="name" v="Skava" />
		<tag k="place" v="isolated_dwelling" />
		<tag k="ssr:stedsnr" v="450785" />
		<tag k="ssr:type" v="fritidsbolig" />
	</node>
	<node changeset="66049112" id="6185898049" lat="59.32085" lon="10.4200111" timestamp="2019-01-05T14:54:49Z" uid="3497659" user="NKA" version="1">
		<tag k="alt_name" v="Rakkås N;Nordre Rakkås" />
		<tag k="name" v="Rakkås" />
		<tag k="place" v="farm" />
		<tag k="ssr:stedsnr" v="913589" />
		<tag k="ssr:type" v="gard" />
	</node>
	<node changeset="66049112" id="6185898050" lat="59.2845487" lon="10.3096385" timestamp="2019-01-05T14:54:49Z" uid="3497659" user="NKA" version="1">
		<tag k="name" v="Mellem Hesby" />
		<tag k="place" v="farm" />
		<tag k="ssr:stedsnr" v="984783" />
		<tag k="ssr:type" v="gard" />
	</node>
	<node changeset="66049112" id="6185898051" lat="59.2884944" lon="10.3411056" timestamp="2019-01-05T14:54:49Z" uid="3497659" user="NKA" version="1">
		<tag k="name" v="Ra" />
		<tag k="place" v="farm" />
		<tag k="ssr:stedsnr" v="913860" />
		<tag k="ssr:type" v="bruk" />
	</node>
	<node changeset="66049112" id="6185898052" lat="59.2840659" lon="10.3337537" timestamp="2019-01-05T14:54:49Z" uid="3497659" user="NKA" version="1">
		<tag k="name" v="Aulerød" />
		<tag k="place" v="neighbourhood" />
		<tag k="ssr:stedsnr" v="984818" />
		<tag k="ssr:type" v="gard" />
	</node>
	<node changeset="66049112" id="6185898053" lat="59.2880889" lon="10.3297889" timestamp="2019-01-05T14:54:49Z" uid="3497659" user="NKA" version="1">
		<tag k="name" v="Aulerød" />
		<tag k="place" v="farm" />
		<tag k="ssr:stedsnr" v="914848" />
		<tag k="ssr:type" v="bruk" />
	</node>
	<node changeset="66049112" id="6185898054" lat="59.3067222" lon="10.4544306" timestamp="2019-01-05T14:54:49Z" uid="3497659" user="NKA" version="1">
		<tag k="name" v="Lille Oseberg" />
		<tag k="place" v="farm" />
		<tag k="ssr:stedsnr" v="450798" />
		<tag k="ssr:type" v="gard" />
	</node>
	<node changeset="66049112" id="6185898055" lat="59.2603322" lon="10.353808" timestamp="2019-01-05T14:54:49Z" uid="3497659" user="NKA" version="1">
		<tag k="name" v="Eldre" />
		<tag k="place" v="isolated_dwelling" />
		<tag k="ssr:stedsnr" v="984820" />
		<tag k="ssr:type" v="eneboligMindreBoligbygg" />
	</node>
	<node changeset="66049112" id="6185898056" lat="59.3406848" lon="10.4201044" timestamp="2019-01-05T14:54:50Z" uid="3497659" user="NKA" version="1">
		<tag k="name" v="Jareteigen" />
		<tag k="place" v="hamlet" />
		<tag k="ssr:stedsnr" v="984863" />
		<tag k="ssr:type" v="navnegard" />
	</node>
	<node changeset="66049112" id="6185898057" lat="59.3193778" lon="10.5054945" timestamp="2019-01-05T14:54:50Z" uid="3497659" user="NKA" version="1">
		<tag k="name" v="Haugen" />
		<tag k="place" v="farm" />
		<tag k="ssr:stedsnr" v="451214" />
		<tag k="ssr:type" v="bruk" />
	</node>
	<node changeset="66049112" id="6185898058" lat="59.2930473" lon="10.4385418" timestamp="2019-01-05T14:54:50Z" uid="3497659" user="NKA" version="1">
		<tag k="name" v="Søndre Velle" />
		<tag k="place" v="farm" />
		<tag k="ssr:stedsnr" v="984925" />
		<tag k="ssr:type" v="gard" />
	</node>
	<node changeset="66049112" id="6185898059" lat="59.2699262" lon="10.3561996" timestamp="2019-01-05T14:54:50Z" uid="3497659" user="NKA" version="1">
		<tag k="name" v="Bjelland" />
		<tag k="place" v="quarter" />
		<tag k="ssr:stedsnr" v="935409" />
		<tag k="ssr:type" v="boligfelt" />
	</node>
	<node changeset="66049112" id="6185898060" lat="59.2941851" lon="10.4400651" timestamp="2019-01-05T14:54:50Z" uid="3497659" user="NKA" version="1">
		<tag k="name" v="Velle" />
		<tag k="place" v="hamlet" />
		<tag k="ssr:stedsnr" v="984926" />
		<tag k="ssr:type" v="navnegard" />
	</node>
	<node changeset="66049112" id="6185898062" lat="59.2941561" lon="10.4568971" timestamp="2019-01-05T14:54:50Z" uid="3497659" user="NKA" version="1">
		<tag k="name" v="Søndre Basberg" />
		<tag k="place" v="farm" />
		<tag k="ssr:stedsnr" v="984927" />
		<tag k="ssr:type" v="gard" />
	</node>
	<node changeset="66049112" id="6185898063" lat="59.2988477" lon="10.4541457" timestamp="2019-01-05T14:54:50Z" uid="3497659" user="NKA" version="1">
		<tag k="name" v="Lille Basberg" />
		<tag k="place" v="farm" />
		<tag k="ssr:stedsnr" v="984928" />
		<tag k="ssr:type" v="gard" />
	</node>
	<node changeset="66049112" id="6185898064" lat="59.2975252" lon="10.452212" timestamp="2019-01-05T14:54:50Z" uid="3497659" user="NKA" version="1">
		<tag k="name" v="Basberg" />
		<tag k="place" v="hamlet" />
		<tag k="ssr:stedsnr" v="984929" />
		<tag k="ssr:type" v="navnegard" />
	</node>
	<node changeset="66049112" id="6185898065" lat="59.3198528" lon="10.3854028" timestamp="2019-01-05T14:54:50Z" uid="3497659" user="NKA" version="1">
		<tag k="name" v="Østre Eikeberg" />
		<tag k="place" v="farm" />
		<tag k="ssr:stedsnr" v="935775" />
		<tag k="ssr:type" v="gard" />
	</node>
	<node changeset="66049112" id="6185898066" lat="59.2986472" lon="10.3795917" timestamp="2019-01-05T14:54:50Z" uid="3497659" user="NKA" version="1">
		<tag k="name" v="Seberg" />
		<tag k="place" v="farm" />
		<tag k="ssr:stedsnr" v="452737" />
		<tag k="ssr:type" v="bruk" />
	</node>
	<node changeset="66049112" id="6185898067" lat="59.3231611" lon="10.4498278" timestamp="2019-01-05T14:54:50Z" uid="3497659" user="NKA" version="1">
		<tag k="name" v="Kroks-Rom" />
		<tag k="place" v="farm" />
		<tag k="ssr:stedsnr" v="935779" />
		<tag k="ssr:type" v="gard" />
	</node>
	<node changeset="66049112" id="6185898068" lat="59.3060962" lon="10.4666975" timestamp="2019-01-05T14:54:50Z" uid="3497659" user="NKA" version="1">
		<tag k="name" v="Nordre Hassum" />
		<tag k="place" v="farm" />
		<tag k="ssr:stedsnr" v="984933" />
		<tag k="ssr:type" v="gard" />
	</node>
	<node changeset="66049112" id="6185898069" lat="59.2971694" lon="10.4049528" timestamp="2019-01-05T14:54:50Z" uid="3497659" user="NKA" version="1">
		<tag k="name" v="Plassen" />
		<tag k="place" v="farm" />
		<tag k="ssr:stedsnr" v="935787" />
		<tag k="ssr:type" v="bruk" />
	</node>
	<node changeset="66049112" id="6185898070" lat="59.3032692" lon="10.4681213" timestamp="2019-01-05T14:54:50Z" uid="3497659" user="NKA" version="1">
		<tag k="name" v="Hassum" />
		<tag k="place" v="hamlet" />
		<tag k="ssr:stedsnr" v="984934" />
		<tag k="ssr:type" v="navnegard" />
	</node>
	<node changeset="66049112" id="6185898071" lat="59.3104157" lon="10.4723095" timestamp="2019-01-05T14:54:51Z" uid="3497659" user="NKA" version="1">
		<tag k="name" v="Nordre Bø" />
		<tag k="place" v="farm" />
		<tag k="ssr:stedsnr" v="984936" />
		<tag k="ssr:type" v="gard" />
	</node>
	<node changeset="66049112" id="6185898072" lat="59.3040209" lon="10.4446163" timestamp="2019-01-05T14:54:51Z" uid="3497659" user="NKA" version="1">
		<tag k="name" v="Klokkeråsen" />
		<tag k="place" v="farm" />
		<tag k="ssr:stedsnr" v="984938" />
		<tag k="ssr:type" v="gard" />
	</node>
	<node changeset="66049112" id="6185898073" lat="59.3070962" lon="10.4410488" timestamp="2019-01-05T14:54:51Z" uid="3497659" user="NKA" version="1">
		<tag k="name" v="Søndre Roberg" />
		<tag k="place" v="farm" />
		<tag k="ssr:stedsnr" v="984939" />
		<tag k="ssr:type" v="gard" />
	</node>
	<node changeset="66049112" id="6185898074" lat="59.3066484" lon="10.4390094" timestamp="2019-01-05T14:54:51Z" uid="3497659" user="NKA" version="1">
		<tag k="name" v="Østre Roberg" />
		<tag k="place" v="farm" />
		<tag k="ssr:stedsnr" v="984941" />
		<tag k="ssr:type" v="gard" />
	</node>
	<node changeset="66049112" id="6185898075" lat="59.3059795" lon="10.4395391" timestamp="2019-01-05T14:54:51Z" uid="3497659" user="NKA" version="1">
		<tag k="name" v="Lille Roberg" />
		<tag k="place" v="locality" />
		<tag k="ssr:stedsnr" v="984943" />
		<tag k="ssr:type" v="eiendom" />
	</node>
	<node changeset="66049112" id="6185898076" lat="59.3370167" lon="10.4710417" timestamp="2019-01-05T14:54:51Z" uid="3497659" user="NKA" version="1">
		<tag k="name" v="Romsrønningen" />
		<tag k="place" v="farm" />
		<tag k="ssr:stedsnr" v="480838" />
		<tag k="ssr:type" v="bruk" />
	</node>
	<node changeset="66049112" id="6185898077" lat="59.3193108" lon="10.4342276" timestamp="2019-01-05T14:54:51Z" uid="3497659" user="NKA" version="1">
		<tag k="name" v="Vestre Roberg" />
		<tag k="place" v="farm" />
		<tag k="ssr:stedsnr" v="984945" />
		<tag k="ssr:type" v="gard" />
	</node>
	<node changeset="66049112" id="6185898078" lat="59.259977" lon="10.409525" timestamp="2019-01-05T14:54:51Z" uid="3497659" user="NKA" version="1">
		<tag k="name" v="Teie" />
		<tag k="place" v="quarter" />
		<tag k="ssr:stedsnr" v="480924" />
		<tag k="ssr:type" v="industriområde" />
	</node>
	<node changeset="66049112" id="6185898079" lat="59.3221184" lon="10.4497928" timestamp="2019-01-05T14:54:51Z" uid="3497659" user="NKA" version="1">
		<tag k="name" v="Mellem Rom" />
		<tag k="place" v="farm" />
		<tag k="ssr:stedsnr" v="984947" />
		<tag k="ssr:type" v="gard" />
	</node>
	<node changeset="66049112" id="6185898080" lat="59.3167" lon="10.47575" timestamp="2019-01-05T14:54:51Z" uid="3497659" user="NKA" version="1">
		<tag k="name" v="Grindbakken" />
		<tag k="place" v="farm" />
		<tag k="ssr:stedsnr" v="488603" />
		<tag k="ssr:type" v="bruk" />
	</node>
	<node changeset="66049112" id="6185898081" lat="59.3249437" lon="10.4364209" timestamp="2019-01-05T14:54:51Z" uid="3497659" user="NKA" version="1">
		<tag k="name" v="Mellem Rom" />
		<tag k="place" v="farm" />
		<tag k="ssr:stedsnr" v="984948" />
		<tag k="ssr:type" v="gard" />
	</node>
	<node changeset="66049112" id="6185898082" lat="59.3256551" lon="10.4400898" timestamp="2019-01-05T14:54:51Z" uid="3497659" user="NKA" version="1">
		<tag k="name" v="Vestre Rom" />
		<tag k="place" v="hamlet" />
		<tag k="ssr:stedsnr" v="984949" />
		<tag k="ssr:type" v="navnegard" />
	</node>
	<node changeset="66049112" id="6185898083" lat="59.2796" lon="10.4769639" timestamp="2019-01-05T14:54:51Z" uid="3497659" user="NKA" version="1">
		<tag k="name" v="Lasken" />
		<tag k="place" v="farm" />
		<tag k="ssr:stedsnr" v="488620" />
		<tag k="ssr:type" v="gard" />
	</node>
	<node changeset="66049112" id="6185898084" lat="59.3473222" lon="10.4149083" timestamp="2019-01-05T14:54:51Z" uid="3497659" user="NKA" version="1">
		<tag k="name" v="Huseklepp" />
		<tag k="place" v="farm" />
		<tag k="ssr:stedsnr" v="487625" />
		<tag k="ssr:type" v="gard" />
	</node>
	<node changeset="66049112" id="6185898085" lat="59.3210688" lon="10.4705119" timestamp="2019-01-05T14:54:51Z" uid="3497659" user="NKA" version="1">
		<tag k="name" v="Rørås" />
		<tag k="place" v="hamlet" />
		<tag k="ssr:stedsnr" v="984983" />
		<tag k="ssr:type" v="navnegard" />
	</node>
	<node changeset="66049112" id="6185898086" lat="59.3411917" lon="10.4652056" timestamp="2019-01-05T14:54:51Z" uid="3497659" user="NKA" version="1">
		<tag k="name" v="Høkli" />
		<tag k="place" v="farm" />
		<tag k="ssr:stedsnr" v="487641" />
		<tag k="ssr:type" v="bruk" />
	</node>
	<node changeset="66049112" id="6185898087" lat="59.3056484" lon="10.516906" timestamp="2019-01-05T14:54:52Z" uid="3497659" user="NKA" version="1">
		<tag k="name" v="Nordre Karlsviken" />
		<tag k="place" v="locality" />
		<tag k="ssr:stedsnr" v="984987" />
		<tag k="ssr:type" v="eiendom" />
	</node>
	<node changeset="66049112" id="6185898088" lat="59.31045" lon="10.3628" timestamp="2019-01-05T14:54:52Z" uid="3497659" user="NKA" version="1">
		<tag k="name" v="Nauen" />
		<tag k="place" v="farm" />
		<tag k="ssr:stedsnr" v="487678" />
		<tag k="ssr:type" v="gard" />
	</node>
	<node changeset="66049112" id="6185898089" lat="59.3035245" lon="10.5044884" timestamp="2019-01-05T14:54:52Z" uid="3497659" user="NKA" version="1">
		<tag k="name" v="Bolsrød" />
		<tag k="place" v="locality" />
		<tag k="ssr:stedsnr" v="985024" />
		<tag k="ssr:type" v="eiendom" />
	</node>
	<node changeset="66049112" id="6185898090" lat="59.2891889" lon="10.4718861" timestamp="2019-01-05T14:54:52Z" uid="3497659" user="NKA" version="1">
		<tag k="alt_name" v="Ilebrekke" />
		<tag k="name" v="Søndre Ilebrekke" />
		<tag k="place" v="farm" />
		<tag k="ssr:stedsnr" v="487685" />
		<tag k="ssr:type" v="gard" />
	</node>
	<node changeset="66049112" id="6185898091" lat="59.2838888" lon="10.4937391" timestamp="2019-01-05T14:54:52Z" uid="3497659" user="NKA" version="1">
		<tag k="name" v="Ringshaug" />
		<tag k="place" v="farm" />
		<tag k="ssr:stedsnr" v="985025" />
		<tag k="ssr:type" v="gard" />
	</node>
	<node changeset="66049112" id="6185898092" lat="59.3241056" lon="10.4114111" timestamp="2019-01-05T14:54:52Z" uid="3497659" user="NKA" version="1">
		<tag k="name" v="Langerød" />
		<tag k="place" v="farm" />
		<tag k="ssr:stedsnr" v="488589" />
		<tag k="ssr:type" v="gard" />
	</node>
	<node changeset="66049112" id="6185898093" lat="59.2678527" lon="10.4638189" timestamp="2019-01-05T14:54:52Z" uid="3497659" user="NKA" version="1">
		<tag k="name" v="Ulleviksrydningen" />
		<tag k="place" v="isolated_dwelling" />
		<tag k="ssr:stedsnr" v="985027" />
		<tag k="ssr:type" v="eneboligMindreBoligbygg" />
	</node>
	<node changeset="66049112" id="6185898094" lat="59.2858591" lon="10.4706989" timestamp="2019-01-05T14:54:52Z" uid="3497659" user="NKA" version="1">
		<tag k="name" v="Bekketjønnmyra" />
		<tag k="place" v="locality" />
		<tag k="ssr:stedsnr" v="985028" />
		<tag k="ssr:type" v="eiendom" />
	</node>
	<node changeset="66049112" id="6185898095" lat="59.2691791" lon="10.4508027" timestamp="2019-01-05T14:54:52Z" uid="3497659" user="NKA" version="1">
		<tag k="name" v="Øvre Råel" />
		<tag k="place" v="farm" />
		<tag k="ssr:stedsnr" v="985029" />
		<tag k="ssr:type" v="gard" />
	</node>
	<node changeset="66049112" id="6185898096" lat="59.2662823" lon="10.4415658" timestamp="2019-01-05T14:54:52Z" uid="3497659" user="NKA" version="1">
		<tag k="name" v="Nedre Råel" />
		<tag k="place" v="locality" />
		<tag k="ssr:stedsnr" v="985030" />
		<tag k="ssr:type" v="eiendom" />
	</node>
	<node changeset="66049112" id="6185898097" lat="59.282025" lon="10.4837" timestamp="2019-01-05T14:54:52Z" uid="3497659" user="NKA" version="1">
		<tag k="name" v="Fredheim" />
		<tag k="place" v="isolated_dwelling" />
		<tag k="ssr:stedsnr" v="510767" />
		<tag k="ssr:type" v="eneboligMindreBoligbygg" />
	</node>
	<node changeset="66049112" id="6185898098" lat="59.2536896" lon="10.4662545" timestamp="2019-01-05T14:54:52Z" uid="3497659" user="NKA" version="1">
		<tag k="name" v="Husvik" />
		<tag k="place" v="farm" />
		<tag k="ssr:stedsnr" v="985031" />
		<tag k="ssr:type" v="gard" />
	</node>
	<node changeset="66049112" id="6185898099" lat="59.3359722" lon="10.4266167" timestamp="2019-01-05T14:54:52Z" uid="3497659" user="NKA" version="1">
		<tag k="name" v="Skibrekk" />
		<tag k="place" v="farm" />
		<tag k="ssr:stedsnr" v="510797" />
		<tag k="ssr:type" v="gard" />
	</node>
	<node changeset="66049112" id="6185898100" lat="59.3058155" lon="10.4285244" timestamp="2019-01-05T14:54:52Z" uid="3497659" user="NKA" version="1">
		<tag k="name" v="Loftseik" />
		<tag k="place" v="quarter" />
		<tag k="ssr:stedsnr" v="510807" />
		<tag k="ssr:type" v="boligfelt" />
	</node>
	<node changeset="66049112" id="6185898101" lat="59.3025333" lon="10.4294667" timestamp="2019-01-05T14:54:52Z" uid="3497659" user="NKA" version="1">
		<tag k="name" v="Kongs-Eik" />
		<tag k="place" v="farm" />
		<tag k="ssr:stedsnr" v="510810" />
		<tag k="ssr:type" v="bruk" />
	</node>
	<node changeset="66049112" id="6185898102" lat="59.2708688" lon="10.3111192" timestamp="2019-01-05T14:54:53Z" uid="3497659" user="NKA" version="1">
		<tag k="name" v="Brensrød" />
		<tag k="place" v="locality" />
		<tag k="ssr:stedsnr" v="985036" />
		<tag k="ssr:type" v="eiendom" />
	</node>
	<node changeset="66049112" id="6185898103" lat="59.3005333" lon="10.449475" timestamp="2019-01-05T14:54:53Z" uid="3497659" user="NKA" version="1">
		<tag k="name" v="Mellem Basberg" />
		<tag k="place" v="farm" />
		<tag k="ssr:stedsnr" v="510829" />
		<tag k="ssr:type" v="gard" />
	</node>
	<node changeset="66049112" id="6185898104" lat="59.3411534" lon="10.4527862" timestamp="2019-01-05T14:54:53Z" uid="3497659" user="NKA" version="1">
		<tag k="name" v="Bollerød" />
		<tag k="place" v="farm" />
		<tag k="ssr:stedsnr" v="2596" />
		<tag k="ssr:type" v="bruk" />
	</node>
	<node changeset="66049112" id="6185898105" lat="59.3446" lon="10.370025" timestamp="2019-01-05T14:54:53Z" uid="3497659" user="NKA" version="1">
		<tag k="name" v="Undrum nordre" />
		<tag k="place" v="farm" />
		<tag k="ssr:stedsnr" v="2598" />
		<tag k="ssr:type" v="gard" />
	</node>
	<node changeset="66049112" id="6185898106" lat="59.3368056" lon="10.4147" timestamp="2019-01-05T14:54:53Z" uid="3497659" user="NKA" version="1">
		<tag k="name" v="Røsland" />
		<tag k="place" v="farm" />
		<tag k="ssr:stedsnr" v="2608" />
		<tag k="ssr:type" v="gard" />
	</node>
	<node changeset="66049112" id="6185898107" lat="59.3243556" lon="10.3897889" timestamp="2019-01-05T14:54:53Z" uid="3497659" user="NKA" version="1">
		<tag k="name" v="Sverstad" />
		<tag k="place" v="farm" />
		<tag k="ssr:stedsnr" v="2618" />
		<tag k="ssr:type" v="gard" />
	</node>
	<node changeset="66049112" id="6185898108" lat="59.3073306" lon="10.3493806" timestamp="2019-01-05T14:54:53Z" uid="3497659" user="NKA" version="1">
		<tag k="name" v="Gata" />
		<tag k="place" v="farm" />
		<tag k="ssr:stedsnr" v="512758" />
		<tag k="ssr:type" v="bruk" />
	</node>
	<node changeset="66049112" id="6185898109" lat="59.3147528" lon="10.4500278" timestamp="2019-01-05T14:54:53Z" uid="3497659" user="NKA" version="1">
		<tag k="alt_name" v="Lie" />
		<tag k="name" v="Li" />
		<tag k="place" v="farm" />
		<tag k="ssr:stedsnr" v="2635" />
		<tag k="ssr:type" v="gard" />
	</node>
	<node changeset="66049112" id="6185898110" lat="59.3083833" lon="10.2831333" timestamp="2019-01-05T14:54:53Z" uid="3497659" user="NKA" version="1">
		<tag k="name" v="Taran" />
		<tag k="place" v="isolated_dwelling" />
		<tag k="ssr:stedsnr" v="512769" />
		<tag k="ssr:type" v="fritidsbolig" />
	</node>
	<node changeset="66049112" id="6185898111" lat="59.3047111" lon="10.398225" timestamp="2019-01-05T14:54:53Z" uid="3497659" user="NKA" version="1">
		<tag k="alt_name" v="Berg, nordre;Berg" />
		<tag k="name" v="Nordre Berg" />
		<tag k="place" v="farm" />
		<tag k="ssr:stedsnr" v="2644" />
		<tag k="ssr:type" v="gard" />
	</node>
	<node changeset="66049112" id="6185898112" lat="59.3065778" lon="10.46105" timestamp="2019-01-05T14:54:53Z" uid="3497659" user="NKA" version="1">
		<tag k="name" v="Horgen" />
		<tag k="place" v="farm" />
		<tag k="ssr:stedsnr" v="2649" />
		<tag k="ssr:type" v="gard" />
	</node>
	<node changeset="66049112" id="6185898113" lat="59.3354083" lon="10.4743917" timestamp="2019-01-05T14:54:53Z" uid="3497659" user="NKA" version="1">
		<tag k="name" v="Saltkopp" />
		<tag k="place" v="farm" />
		<tag k="ssr:stedsnr" v="513107" />
		<tag k="ssr:type" v="bruk" />
	</node>
	<node changeset="66049112" id="6185898114" lat="59.3252" lon="10.4860806" timestamp="2019-01-05T14:54:53Z" uid="3497659" user="NKA" version="1">
		<tag k="name" v="Strand" />
		<tag k="place" v="farm" />
		<tag k="ssr:stedsnr" v="513112" />
		<tag k="ssr:type" v="bruk" />
	</node>
	<node changeset="66049112" id="6185898115" lat="59.2515" lon="10.3436111" timestamp="2019-01-05T14:54:53Z" uid="3497659" user="NKA" version="1">
		<tag k="alt_name" v="Råstad N" />
		<tag k="name" v="Råstad" />
		<tag k="place" v="farm" />
		<tag k="ssr:stedsnr" v="3622" />
		<tag k="ssr:type" v="bruk" />
	</node>
	<node changeset="66049112" id="6185898116" lat="59.3419917" lon="10.4805417" timestamp="2019-01-05T14:54:53Z" uid="3497659" user="NKA" version="1">
		<tag k="name" v="Stuebrekk" />
		<tag k="place" v="isolated_dwelling" />
		<tag k="ssr:stedsnr" v="513118" />
		<tag k="ssr:type" v="eneboligMindreBoligbygg" />
	</node>
	<node changeset="66049112" id="6185898117" lat="59.275475" lon="10.3464528" timestamp="2019-01-05T14:54:54Z" uid="3497659" user="NKA" version="1">
		<tag k="name" v="Manum" />
		<tag k="place" v="farm" />
		<tag k="ssr:stedsnr" v="3625" />
		<tag k="ssr:type" v="gard" />
	</node>
	<node changeset="66049112" id="6185898118" lat="59.2710361" lon="10.444875" timestamp="2019-01-05T14:54:54Z" uid="3497659" user="NKA" version="1">
		<tag k="name" v="Presterød" />
		<tag k="place" v="farm" />
		<tag k="ssr:stedsnr" v="3627" />
		<tag k="ssr:type" v="gard" />
	</node>
	<node changeset="66049112" id="6185898119" lat="59.2952972" lon="10.515175" timestamp="2019-01-05T14:54:54Z" uid="3497659" user="NKA" version="1">
		<tag k="name" v="Karlsvik" />
		<tag k="place" v="farm" />
		<tag k="ssr:stedsnr" v="513992" />
		<tag k="ssr:type" v="bruk" />
	</node>
	<node changeset="66049112" id="6185898120" lat="59.3174333" lon="10.3331278" timestamp="2019-01-05T14:54:54Z" uid="3497659" user="NKA" version="1">
		<tag k="name" v="Søndre Freste" />
		<tag k="place" v="farm" />
		<tag k="ssr:stedsnr" v="3782" />
		<tag k="ssr:type" v="gard" />
	</node>
	<node changeset="66049112" id="6185898121" lat="59.3047889" lon="10.2911111" timestamp="2019-01-05T14:54:54Z" uid="3497659" user="NKA" version="1">
		<tag k="name" v="Taranrød" />
		<tag k="place" v="farm" />
		<tag k="ssr:stedsnr" v="3825" />
		<tag k="ssr:type" v="gard" />
	</node>
	<node changeset="66049112" id="6185898122" lat="59.2808611" lon="10.2902417" timestamp="2019-01-05T14:54:54Z" uid="3497659" user="NKA" version="1">
		<tag k="name" v="Tveitan" />
		<tag k="place" v="farm" />
		<tag k="ssr:stedsnr" v="3857" />
		<tag k="ssr:type" v="gard" />
	</node>
	<node changeset="66049112" id="6185898123" lat="59.288125" lon="10.487175" timestamp="2019-01-05T14:54:54Z" uid="3497659" user="NKA" version="1">
		<tag k="name" v="Basbergrønningen" />
		<tag k="place" v="neighbourhood" />
		<tag k="ssr:stedsnr" v="21049" />
		<tag k="ssr:type" v="boligfelt" />
	</node>
	<node changeset="66049112" id="6185898124" lat="59.3308361" lon="10.3603333" timestamp="2019-01-05T14:54:54Z" uid="3497659" user="NKA" version="1">
		<tag k="alt_name" v="Bjune, østre" />
		<tag k="name" v="Østre Bjune" />
		<tag k="place" v="farm" />
		<tag k="ssr:stedsnr" v="548585" />
		<tag k="ssr:type" v="bruk" />
	</node>
	<node changeset="62549042" id="5903822989" lat="59.247599" lon="10.5055704" timestamp="2018-09-13T11:42:51Z" uid="4198735" user="michalzz" version="1" />
	<node changeset="62549042" id="5903822990" lat="59.2476805" lon="10.5054689" timestamp="2018-09-13T11:42:51Z" uid="4198735" user="michalzz" version="1" />
	<node changeset="66049112" id="6185898127" lat="59.3003861" lon="10.3357083" timestamp="2019-01-05T14:54:54Z" uid="3497659" user="NKA" version="1">
		<tag k="alt_name" v="Låne V;Vestre Låne" />
		<tag k="name" v="Låne" />
		<tag k="place" v="farm" />
		<tag k="ssr:stedsnr" v="549817" />
		<tag k="ssr:type" v="gard" />
	</node>
	<node changeset="62549042" id="5903822992" lat="59.2474528" lon="10.5056659" timestamp="2018-09-13T11:42:51Z" uid="4198735" user="michalzz" version="1" />
	<node changeset="66049112" id="6185898129" lat="59.2865175" lon="10.3107171" timestamp="2019-01-05T14:54:54Z" uid="3497659" user="NKA" version="1">
		<tag k="alt_name" v="Nordre Hesby" />
		<tag k="name" v="Hesby" />
		<tag k="place" v="farm" />
		<tag k="ssr:stedsnr" v="549842" />
		<tag k="ssr:type" v="gard" />
	</node>
	<node changeset="66049112" id="6185898130" lat="59.2781889" lon="10.3362611" timestamp="2019-01-05T14:54:54Z" uid="3497659" user="NKA" version="1">
		<tag k="name" v="Vik" />
		<tag k="place" v="farm" />
		<tag k="ssr:stedsnr" v="549895" />
		<tag k="ssr:type" v="gard" />
	</node>
	<node changeset="66049112" id="6185898131" lat="59.2592917" lon="10.4627528" timestamp="2019-01-05T14:54:55Z" uid="3497659" user="NKA" version="1">
		<tag k="name" v="Bulowstua" />
		<tag k="place" v="isolated_dwelling" />
		<tag k="ssr:stedsnr" v="25788" />
		<tag k="ssr:type" v="fritidsbolig" />
	</node>
	<node changeset="66049112" id="6185898132" lat="59.3283194" lon="10.4411139" timestamp="2019-01-05T14:54:55Z" uid="3497659" user="NKA" version="1">
		<tag k="name" v="Nordvestre Rom" />
		<tag k="place" v="farm" />
		<tag k="ssr:stedsnr" v="25794" />
		<tag k="ssr:type" v="gard" />
	</node>
	<node changeset="66049112" id="6185898133" lat="59.305625" lon="10.3898167" timestamp="2019-01-05T14:54:55Z" uid="3497659" user="NKA" version="1">
		<tag k="name" v="Hestehagen" />
		<tag k="place" v="farm" />
		<tag k="ssr:stedsnr" v="570773" />
		<tag k="ssr:type" v="bruk" />
	</node>
	<node changeset="66049112" id="6185898134" lat="59.300285" lon="10.4249077" timestamp="2019-01-05T14:54:55Z" uid="3497659" user="NKA" version="1">
		<tag k="alt_name" v="Eik Mellem" />
		<tag k="name" v="Eik mellom" />
		<tag k="place" v="locality" />
		<tag k="ssr:stedsnr" v="25802" />
		<tag k="ssr:type" v="eiendom" />
	</node>
	<node changeset="66049112" id="6185898135" lat="59.31805" lon="10.4958639" timestamp="2019-01-05T14:54:55Z" uid="3497659" user="NKA" version="1">
		<tag k="name" v="Ereppløkka" />
		<tag k="place" v="farm" />
		<tag k="ssr:stedsnr" v="28139" />
		<tag k="ssr:type" v="bruk" />
	</node>
	<node changeset="66049112" id="6185898136" lat="59.282264" lon="10.3137335" timestamp="2019-01-05T14:54:55Z" uid="3497659" user="NKA" version="1">
		<tag k="alt_name" v="Nedre Hesby" />
		<tag k="name" v="Hesby" />
		<tag k="place" v="hamlet" />
		<tag k="ssr:stedsnr" v="573664" />
		<tag k="ssr:type" v="gard" />
	</node>
	<node changeset="66049112" id="6185898137" lat="59.2837972" lon="10.4963333" timestamp="2019-01-05T14:54:55Z" uid="3497659" user="NKA" version="1">
		<tag k="name" v="Skogly" />
		<tag k="place" v="neighbourhood" />
		<tag k="ssr:stedsnr" v="574124" />
		<tag k="ssr:type" v="tettbebyggelse" />
	</node>
	<node changeset="66049112" id="6185898138" lat="59.2436972" lon="10.3569167" timestamp="2019-01-05T14:54:55Z" uid="3497659" user="NKA" version="1">
		<tag k="name" v="Roberg" />
		<tag k="place" v="farm" />
		<tag k="ssr:stedsnr" v="57119" />
		<tag k="ssr:type" v="bruk" />
	</node>
	<node changeset="66049112" id="6185898139" lat="59.2648917" lon="10.4068639" timestamp="2019-01-05T14:54:55Z" uid="3497659" user="NKA" version="1">
		<tag k="name" v="Lindahl plass" />
		<tag k="place" v="square" />
		<tag k="ssr:stedsnr" v="601337" />
		<tag k="ssr:type" v="torg" />
	</node>
	<node changeset="66049112" id="6185898140" lat="59.3479056" lon="10.4346278" timestamp="2019-01-05T14:54:55Z" uid="3497659" user="NKA" version="1">
		<tag k="alt_name" v="Søndre Kjær" />
		<tag k="name" v="Kjær" />
		<tag k="place" v="farm" />
		<tag k="ssr:stedsnr" v="63590" />
		<tag k="ssr:type" v="gard" />
	</node>
	<node changeset="66049112" id="6185898141" lat="59.3124583" lon="10.4708917" timestamp="2019-01-05T14:54:55Z" uid="3497659" user="NKA" version="1">
		<tag k="name" v="Børønningen" />
		<tag k="place" v="farm" />
		<tag k="ssr:stedsnr" v="608674" />
		<tag k="ssr:type" v="bruk" />
	</node>
	<node changeset="66049112" id="6185898142" lat="59.3428889" lon="10.4713972" timestamp="2019-01-05T14:54:55Z" uid="3497659" user="NKA" version="1">
		<tag k="alt_name" v="Nordre Teigen" />
		<tag k="name" v="Teigen" />
		<tag k="place" v="farm" />
		<tag k="ssr:stedsnr" v="63600" />
		<tag k="ssr:type" v="gard" />
	</node>
	<node changeset="66049112" id="6185898143" lat="59.2896733" lon="10.3868796" timestamp="2019-01-05T14:54:55Z" uid="3497659" user="NKA" version="1">
		<tag k="alt_name" v="Jarlsberg Hovedgård" />
		<tag k="name" v="Jarlsberg" />
		<tag k="place" v="farm" />
		<tag k="ssr:stedsnr" v="608689" />
		<tag k="ssr:type" v="gard" />
	</node>
	<node changeset="66049112" id="6185898144" lat="59.344375" lon="10.4356583" timestamp="2019-01-05T14:54:55Z" uid="3497659" user="NKA" version="1">
		<tag k="name" v="Gullerød" />
		<tag k="place" v="farm" />
		<tag k="ssr:stedsnr" v="609546" />
		<tag k="ssr:type" v="gard" />
	</node>
	<node changeset="66049112" id="6185898145" lat="59.3384667" lon="10.3949528" timestamp="2019-01-05T14:54:56Z" uid="3497659" user="NKA" version="1">
		<tag k="alt_name" v="Brekke, nordre;Brekke N;Vestre Brekke" />
		<tag k="name" v="Nordre Brekke" />
		<tag k="place" v="farm" />
		<tag k="ssr:stedsnr" v="63607" />
		<tag k="ssr:type" v="gard" />
	</node>
	<node changeset="66049112" id="6185898146" lat="59.3263" lon="10.3526278" timestamp="2019-01-05T14:54:56Z" uid="3497659" user="NKA" version="1">
		<tag k="name" v="Rastad" />
		<tag k="place" v="farm" />
		<tag k="ssr:stedsnr" v="609565" />
		<tag k="ssr:type" v="bruk" />
	</node>
	<node changeset="66049112" id="6185898147" lat="59.3197611" lon="10.4503639" timestamp="2019-01-05T14:54:56Z" uid="3497659" user="NKA" version="1">
		<tag k="alt_name" v="Rom Østre;Søndre Rom" />
		<tag k="name" v="Rom" />
		<tag k="place" v="farm" />
		<tag k="ssr:stedsnr" v="63625" />
		<tag k="ssr:type" v="gard" />
	</node>
	<node changeset="66049112" id="6185898148" lat="59.3197389" lon="10.4064861" timestamp="2019-01-05T14:54:56Z" uid="3497659" user="NKA" version="1">
		<tag k="name" v="Rakkås" />
		<tag k="place" v="farm" />
		<tag k="ssr:stedsnr" v="63624" />
		<tag k="ssr:type" v="bruk" />
	</node>
	<node changeset="66049112" id="6185898149" lat="59.3186556" lon="10.4852167" timestamp="2019-01-05T14:54:56Z" uid="3497659" user="NKA" version="1">
		<tag k="name" v="Studsrød" />
		<tag k="place" v="farm" />
		<tag k="ssr:stedsnr" v="609576" />
		<tag k="ssr:type" v="gard" />
	</node>
	<node changeset="66049112" id="6185898150" lat="59.2988806" lon="10.4076083" timestamp="2019-01-05T14:54:56Z" uid="3497659" user="NKA" version="1">
		<tag k="alt_name" v="Søndre Berg" />
		<tag k="name" v="Berg" />
		<tag k="place" v="locality" />
		<tag k="ssr:stedsnr" v="63628" />
		<tag k="ssr:type" v="eiendom" />
	</node>
	<node changeset="66049112" id="6185898151" lat="59.2572683" lon="10.3629048" timestamp="2019-01-05T14:54:56Z" uid="3497659" user="NKA" version="1">
		<tag k="alt_name" v="Vear S;Søndre Veer" />
		<tag k="name" v="Vear" />
		<tag k="place" v="farm" />
		<tag k="ssr:stedsnr" v="609623" />
		<tag k="ssr:type" v="gard" />
	</node>
	<node changeset="66049112" id="6185898152" lat="59.303025" lon="10.353975" timestamp="2019-01-05T14:54:56Z" uid="3497659" user="NKA" version="1">
		<tag k="name" v="Søndre Fadum" />
		<tag k="place" v="farm" />
		<tag k="ssr:stedsnr" v="63630" />
		<tag k="ssr:type" v="gard" />
	</node>
	<node changeset="66049112" id="6185898153" lat="59.2710167" lon="10.3713333" timestamp="2019-01-05T14:54:56Z" uid="3497659" user="NKA" version="1">
		<tag k="name" v="Hogsnes" />
		<tag k="place" v="farm" />
		<tag k="ssr:stedsnr" v="609629" />
		<tag k="ssr:type" v="gard" />
	</node>
	<node changeset="66049112" id="6185898154" lat="59.3118556" lon="10.3777889" timestamp="2019-01-05T14:54:56Z" uid="3497659" user="NKA" version="1">
		<tag k="name" v="Emmerød" />
		<tag k="place" v="farm" />
		<tag k="ssr:stedsnr" v="63635" />
		<tag k="ssr:type" v="gard" />
	</node>
	<node changeset="66049112" id="6185898155" lat="59.2639555" lon="10.4434168" timestamp="2019-01-05T14:54:56Z" uid="3497659" user="NKA" version="1">
		<tag k="name" v="Elverhøy" />
		<tag k="place" v="neighbourhood" />
		<tag k="ssr:stedsnr" v="631759" />
		<tag k="ssr:type" v="boligfelt" />
	</node>
	<node changeset="66049112" id="6185898156" lat="59.335675" lon="10.4720028" timestamp="2019-01-05T14:54:56Z" uid="3497659" user="NKA" version="1">
		<tag k="name" v="Rønningen" />
		<tag k="place" v="hamlet" />
		<tag k="ssr:stedsnr" v="631772" />
		<tag k="ssr:type" v="bruk" />
	</node>
	<node changeset="66049112" id="6185898157" lat="59.3148587" lon="10.4916022" timestamp="2019-01-05T14:54:56Z" uid="3497659" user="NKA" version="1">
		<tag k="name" v="Knatten" />
		<tag k="place" v="farm" />
		<tag k="ssr:stedsnr" v="85738" />
		<tag k="ssr:type" v="bruk" />
	</node>
	<node changeset="66049112" id="6185898158" lat="59.3127972" lon="10.4678222" timestamp="2019-01-05T14:54:56Z" uid="3497659" user="NKA" version="1">
		<tag k="name" v="Ollebakken" />
		<tag k="place" v="farm" />
		<tag k="ssr:stedsnr" v="631811" />
		<tag k="ssr:type" v="bruk" />
	</node>
	<node changeset="66049112" id="6185898159" lat="59.265825" lon="10.4721305" timestamp="2019-01-05T14:54:57Z" uid="3497659" user="NKA" version="1">
		<tag k="alt_name" v="Mellem Ulleviken" />
		<tag k="name" v="Ullevika" />
		<tag k="place" v="farm" />
		<tag k="ssr:stedsnr" v="86761" />
		<tag k="ssr:type" v="gard" />
	</node>
	<node changeset="66049112" id="6185898160" lat="59.29725" lon="10.4290889" timestamp="2019-01-05T14:54:57Z" uid="3497659" user="NKA" version="1">
		<tag k="alt_name" v="Eik Søndre" />
		<tag k="name" v="Eik" />
		<tag k="place" v="farm" />
		<tag k="ssr:stedsnr" v="86794" />
		<tag k="ssr:type" v="gard" />
	</node>
	<node changeset="66049112" id="6185898161" lat="59.3124306" lon="10.4521472" timestamp="2019-01-05T14:54:57Z" uid="3497659" user="NKA" version="1">
		<tag k="name" v="Lie" />
		<tag k="place" v="farm" />
		<tag k="ssr:stedsnr" v="86804" />
		<tag k="ssr:type" v="bruk" />
	</node>
	<node changeset="66049112" id="6185898162" lat="59.2448583" lon="10.4616889" timestamp="2019-01-05T14:54:57Z" uid="3497659" user="NKA" version="1">
		<tag k="name" v="Aldershvile" />
		<tag k="place" v="isolated_dwelling" />
		<tag k="ssr:stedsnr" v="632000" />
		<tag k="ssr:type" v="eneboligMindreBoligbygg" />
	</node>
	<node changeset="66049112" id="6185898163" lat="59.3029536" lon="10.5014932" timestamp="2019-01-05T14:54:57Z" uid="3497659" user="NKA" version="1">
		<tag k="name" v="Teigen" />
		<tag k="place" v="hamlet" />
		<tag k="ssr:stedsnr" v="87173" />
		<tag k="ssr:type" v="boligfelt" />
	</node>
	<node changeset="66049112" id="6185898164" lat="59.3103056" lon="10.2812083" timestamp="2019-01-05T14:54:57Z" uid="3497659" user="NKA" version="1">
		<tag k="name" v="Svetterød" />
		<tag k="place" v="farm" />
		<tag k="ssr:stedsnr" v="88715" />
		<tag k="ssr:type" v="bruk" />
	</node>
	<node changeset="66049112" id="6185898165" lat="59.3197917" lon="10.3597833" timestamp="2019-01-05T14:54:57Z" uid="3497659" user="NKA" version="1">
		<tag k="name" v="Ødegården" />
		<tag k="place" v="farm" />
		<tag k="ssr:stedsnr" v="88730" />
		<tag k="ssr:type" v="bruk" />
	</node>
	<node changeset="66049112" id="6185898166" lat="59.3377417" lon="10.3755556" timestamp="2019-01-05T14:54:57Z" uid="3497659" user="NKA" version="1">
		<tag k="name" v="Tveiten" />
		<tag k="place" v="farm" />
		<tag k="ssr:stedsnr" v="633836" />
		<tag k="ssr:type" v="bruk" />
	</node>
	<node changeset="66049112" id="6185898167" lat="59.32755" lon="10.4946944" timestamp="2019-01-05T14:54:57Z" uid="3497659" user="NKA" version="1">
		<tag k="alt_name" v="Markebo" />
		<tag k="name" v="Markebu" />
		<tag k="place" v="farm" />
		<tag k="ssr:stedsnr" v="89140" />
		<tag k="ssr:type" v="bruk" />
	</node>
	<node changeset="66049112" id="6185898168" lat="59.3401306" lon="10.4279556" timestamp="2019-01-05T14:54:57Z" uid="3497659" user="NKA" version="1">
		<tag k="name" v="Lestestad" />
		<tag k="place" v="farm" />
		<tag k="ssr:stedsnr" v="89420" />
		<tag k="ssr:type" v="gard" />
	</node>
	<node changeset="66049112" id="6185898169" lat="59.3167111" lon="10.4871389" timestamp="2019-01-05T14:54:57Z" uid="3497659" user="NKA" version="1">
		<tag k="name" v="Tufta" />
		<tag k="place" v="farm" />
		<tag k="ssr:stedsnr" v="634099" />
		<tag k="ssr:type" v="bruk" />
	</node>
	<node changeset="66049112" id="6185898170" lat="59.3011508" lon="10.37462" timestamp="2019-01-05T14:54:57Z" uid="3497659" user="NKA" version="1">
		<tag k="name" v="Hasle" />
		<tag k="place" v="isolated_dwelling" />
		<tag k="ssr:stedsnr" v="123671" />
		<tag k="ssr:type" v="eneboligMindreBoligbygg" />
	</node>
	<node changeset="66049112" id="6185898171" lat="59.2643944" lon="10.3396833" timestamp="2019-01-05T14:54:57Z" uid="3497659" user="NKA" version="1">
		<tag k="alt_name" v="Aker gård" />
		<tag k="name" v="Aker" />
		<tag k="place" v="farm" />
		<tag k="ssr:stedsnr" v="123884" />
		<tag k="ssr:type" v="gard" />
	</node>
	<node changeset="66049112" id="6185898172" lat="59.2824972" lon="10.4482167" timestamp="2019-01-05T14:54:57Z" uid="3497659" user="NKA" version="1">
		<tag k="name" v="Sande" />
		<tag k="place" v="farm" />
		<tag k="ssr:stedsnr" v="124581" />
		<tag k="ssr:type" v="gard" />
	</node>
	<node changeset="66049112" id="6185898173" lat="59.2730333" lon="10.491775" timestamp="2019-01-05T14:54:58Z" uid="3497659" user="NKA" version="1">
		<tag k="name" v="Furulund" />
		<tag k="place" v="isolated_dwelling" />
		<tag k="ssr:stedsnr" v="124608" />
		<tag k="ssr:type" v="eneboligMindreBoligbygg" />
	</node>
	<node changeset="66049112" id="6185898174" lat="59.2531782" lon="10.4610763" timestamp="2019-01-05T14:54:58Z" uid="3497659" user="NKA" version="1">
		<tag k="name" v="Nordre Nes" />
		<tag k="old_name" v="Nes" />
		<tag k="place" v="farm" />
		<tag k="ssr:stedsnr" v="124618" />
		<tag k="ssr:type" v="bruk" />
	</node>
	<node changeset="66049112" id="6185898175" lat="59.3199028" lon="10.396025" timestamp="2019-01-05T14:54:58Z" uid="3497659" user="NKA" version="1">
		<tag k="name" v="Fritsø" />
		<tag k="place" v="farm" />
		<tag k="ssr:stedsnr" v="670588" />
		<tag k="ssr:type" v="gard" />
	</node>
	<node changeset="66049112" id="6185898176" lat="59.2594389" lon="10.3726556" timestamp="2019-01-05T14:54:58Z" uid="3497659" user="NKA" version="1">
		<tag k="name" v="Strand" />
		<tag k="place" v="farm" />
		<tag k="ssr:stedsnr" v="670640" />
		<tag k="ssr:type" v="bruk" />
	</node>
	<node changeset="66049112" id="6185898177" lat="59.2564761" lon="10.447148" timestamp="2019-01-05T14:54:58Z" uid="3497659" user="NKA" version="1">
		<tag k="name" v="Teigen" />
		<tag k="place" v="farm" />
		<tag k="ssr:stedsnr" v="124619" />
		<tag k="ssr:type" v="gard" />
	</node>
	<node changeset="66049112" id="6185898178" lat="59.2613737" lon="10.4813956" timestamp="2019-01-05T14:54:58Z" uid="3497659" user="NKA" version="1">
		<tag k="name" v="Bogen" />
		<tag k="place" v="quarter" />
		<tag k="ssr:stedsnr" v="670646" />
		<tag k="ssr:type" v="bruk" />
	</node>
	<node changeset="66049112" id="6185898179" lat="59.2847889" lon="10.3422917" timestamp="2019-01-05T14:54:58Z" uid="3497659" user="NKA" version="1">
		<tag k="name" v="Auli" />
		<tag k="place" v="farm" />
		<tag k="ssr:stedsnr" v="124827" />
		<tag k="ssr:type" v="bruk" />
	</node>
	<node changeset="66049112" id="6185898180" lat="59.269125" lon="10.48925" timestamp="2019-01-05T14:54:58Z" uid="3497659" user="NKA" version="1">
		<tag k="name" v="Nordby" />
		<tag k="place" v="farm" />
		<tag k="ssr:stedsnr" v="670656" />
		<tag k="ssr:type" v="bruk" />
	</node>
	<node changeset="66049112" id="6185898181" lat="59.3068119" lon="10.3216678" timestamp="2019-01-05T14:54:58Z" uid="3497659" user="NKA" version="1">
		<tag k="name" v="Vermeli" />
		<tag k="place" v="farm" />
		<tag k="ssr:stedsnr" v="670823" />
		<tag k="ssr:type" v="gard" />
	</node>
	<node changeset="66049112" id="6185898182" lat="59.3070278" lon="10.2971694" timestamp="2019-01-05T14:54:58Z" uid="3497659" user="NKA" version="1">
		<tag k="name" v="Smedsrød" />
		<tag k="place" v="farm" />
		<tag k="ssr:stedsnr" v="670825" />
		<tag k="ssr:type" v="gard" />
	</node>
	<node changeset="66049112" id="6185898183" lat="59.2780333" lon="10.4009806" timestamp="2019-01-05T14:54:58Z" uid="3497659" user="NKA" version="1">
		<tag k="name" v="Korten" />
		<tag k="place" v="quarter" />
		<tag k="ssr:stedsnr" v="146725" />
		<tag k="ssr:type" v="industriområde" />
	</node>
	<node changeset="66049112" id="6185898184" lat="59.276175" lon="10.31295" timestamp="2019-01-05T14:54:58Z" uid="3497659" user="NKA" version="1">
		<tag k="name" v="Askehaug" />
		<tag k="place" v="farm" />
		<tag k="ssr:stedsnr" v="670889" />
		<tag k="ssr:type" v="gard" />
	</node>
	<node changeset="66049112" id="6185898185" lat="59.3277556" lon="10.4687611" timestamp="2019-01-05T14:54:58Z" uid="3497659" user="NKA" version="1">
		<tag k="alt_name" v="Rørås" />
		<tag k="name" v="Nordre Rørås" />
		<tag k="place" v="farm" />
		<tag k="ssr:stedsnr" v="731553" />
		<tag k="ssr:type" v="gard" />
	</node>
	<node changeset="66049112" id="6185898186" lat="59.2792667" lon="10.4667389" timestamp="2019-01-05T14:54:58Z" uid="3497659" user="NKA" version="1">
		<tag k="name" v="Åsmundrød" />
		<tag k="place" v="farm" />
		<tag k="ssr:stedsnr" v="146736" />
		<tag k="ssr:type" v="gard" />
	</node>
	<node changeset="66049112" id="6185898187" lat="59.2820528" lon="10.3635083" timestamp="2019-01-05T14:54:58Z" uid="3497659" user="NKA" version="1">
		<tag k="name" v="Rønningen" />
		<tag k="place" v="farm" />
		<tag k="ssr:stedsnr" v="731595" />
		<tag k="ssr:type" v="bruk" />
	</node>
	<node changeset="66049112" id="6185898188" lat="59.2917611" lon="10.3685861" timestamp="2019-01-05T14:54:58Z" uid="3497659" user="NKA" version="1">
		<tag k="name" v="Vium" />
		<tag k="place" v="farm" />
		<tag k="ssr:stedsnr" v="692374" />
		<tag k="ssr:type" v="bruk" />
	</node>
	<node changeset="66049112" id="6185898189" lat="59.2670583" lon="10.4633889" timestamp="2019-01-05T14:54:59Z" uid="3497659" user="NKA" version="1">
		<tag k="name" v="Rønningen" />
		<tag k="place" v="farm" />
		<tag k="ssr:stedsnr" v="692746" />
		<tag k="ssr:type" v="bruk" />
	</node>
	<node changeset="66049112" id="6185898190" lat="59.2657857" lon="10.4451046" timestamp="2019-01-05T14:54:59Z" uid="3497659" user="NKA" version="1">
		<tag k="name" v="Fagervik" />
		<tag k="place" v="neighbourhood" />
		<tag k="ssr:stedsnr" v="692747" />
		<tag k="ssr:type" v="boligfelt" />
	</node>
	<node changeset="66049112" id="6185898191" lat="59.3036944" lon="10.4298972" timestamp="2019-01-05T14:54:59Z" uid="3497659" user="NKA" version="1">
		<tag k="name" v="Sem prestegård" />
		<tag k="place" v="farm" />
		<tag k="ssr:stedsnr" v="692782" />
		<tag k="ssr:type" v="gard" />
	</node>
	<node changeset="66049112" id="6185898192" lat="59.3097778" lon="10.4749556" timestamp="2019-01-05T14:54:59Z" uid="3497659" user="NKA" version="1">
		<tag k="name" v="Amerika" />
		<tag k="place" v="farm" />
		<tag k="ssr:stedsnr" v="692799" />
		<tag k="ssr:type" v="bruk" />
	</node>
	<node changeset="66049112" id="6185898193" lat="59.3385528" lon="10.3691222" timestamp="2019-01-05T14:54:59Z" uid="3497659" user="NKA" version="1">
		<tag k="name" v="Undrum søndre" />
		<tag k="place" v="farm" />
		<tag k="ssr:stedsnr" v="148821" />
		<tag k="ssr:type" v="bruk" />
	</node>
	<node changeset="66049112" id="6185898194" lat="59.3365753" lon="10.368358" timestamp="2019-01-05T14:54:59Z" uid="3497659" user="NKA" version="1">
		<tag k="name" v="Undrum mellom" />
		<tag k="place" v="farm" />
		<tag k="ssr:stedsnr" v="148824" />
		<tag k="ssr:type" v="bruk" />
	</node>
	<node changeset="66049112" id="6185898195" lat="59.2725449" lon="10.3208885" timestamp="2019-01-05T14:54:59Z" uid="3497659" user="NKA" version="1">
		<tag k="name" v="Langerød" />
		<tag k="place" v="quarter" />
		<tag k="ssr:stedsnr" v="695687" />
		<tag k="ssr:type" v="tettsted" />
	</node>
	<node changeset="66049112" id="6185898196" lat="59.30765" lon="10.344025" timestamp="2019-01-05T14:54:59Z" uid="3497659" user="NKA" version="1">
		<tag k="name" v="Mellem Fadum" />
		<tag k="place" v="farm" />
		<tag k="ssr:stedsnr" v="695750" />
		<tag k="ssr:type" v="gard" />
	</node>
	<node changeset="66049112" id="6185898197" lat="59.3150917" lon="10.3249361" timestamp="2019-01-05T14:54:59Z" uid="3497659" user="NKA" version="1">
		<tag k="alt_name" v="Vestre Kjær" />
		<tag k="name" v="Kjær" />
		<tag k="place" v="farm" />
		<tag k="ssr:stedsnr" v="731782" />
		<tag k="ssr:type" v="gard" />
	</node>
	<node changeset="66049112" id="6185898198" lat="59.2982333" lon="10.3240694" timestamp="2019-01-05T14:54:59Z" uid="3497659" user="NKA" version="1">
		<tag k="alt_name" v="Nedre Grette" />
		<tag k="name" v="Grette" />
		<tag k="place" v="farm" />
		<tag k="ssr:stedsnr" v="731818" />
		<tag k="ssr:type" v="gard" />
	</node>
	<node changeset="66049112" id="6185898199" lat="59.3419167" lon="10.4197472" timestamp="2019-01-05T14:54:59Z" uid="3497659" user="NKA" version="1">
		<tag k="name" v="Nordre Jareteigen" />
		<tag k="place" v="farm" />
		<tag k="ssr:stedsnr" v="184586" />
		<tag k="ssr:type" v="gard" />
	</node>
	<node changeset="66049112" id="6185898200" lat="59.3115" lon="10.2917361" timestamp="2019-01-05T14:54:59Z" uid="3497659" user="NKA" version="1">
		<tag k="name" v="Tollerød" />
		<tag k="place" v="farm" />
		<tag k="ssr:stedsnr" v="731838" />
		<tag k="ssr:type" v="gard" />
	</node>
	<node changeset="66049112" id="6185898201" lat="59.3241306" lon="10.4335611" timestamp="2019-01-05T14:54:59Z" uid="3497659" user="NKA" version="1">
		<tag k="name" v="Kaltvedt" />
		<tag k="place" v="farm" />
		<tag k="ssr:stedsnr" v="184607" />
		<tag k="ssr:type" v="gard" />
	</node>
	<node changeset="66049112" id="6185898202" lat="59.2893194" lon="10.3067111" timestamp="2019-01-05T14:54:59Z" uid="3497659" user="NKA" version="1">
		<tag k="name" v="Hesby" />
		<tag k="place" v="farm" />
		<tag k="ssr:stedsnr" v="731861" />
		<tag k="ssr:type" v="bruk" />
	</node>
	<node changeset="66049112" id="6185898203" lat="59.323642" lon="10.4527181" timestamp="2019-01-05T14:55:00Z" uid="3497659" user="NKA" version="1">
		<tag k="alt_name" v="Rom, østre;Rom Østre" />
		<tag k="name" v="Østre Rom" />
		<tag k="place" v="hamlet" />
		<tag k="ssr:stedsnr" v="184609" />
		<tag k="ssr:type" v="gard" />
	</node>
	<node changeset="66049112" id="6185898204" lat="59.2907278" lon="10.294425" timestamp="2019-01-05T14:55:00Z" uid="3497659" user="NKA" version="1">
		<tag k="name" v="Rygg" />
		<tag k="place" v="farm" />
		<tag k="ssr:stedsnr" v="731863" />
		<tag k="ssr:type" v="gard" />
	</node>
	<node changeset="66049112" id="6185898205" lat="59.2982083" lon="10.5157917" timestamp="2019-01-05T14:55:00Z" uid="3497659" user="NKA" version="1">
		<tag k="alt_name" v="Karlsvika, nordre" />
		<tag k="name" v="Nordre Karlsvika" />
		<tag k="place" v="farm" />
		<tag k="ssr:stedsnr" v="184659" />
		<tag k="ssr:type" v="bruk" />
	</node>
	<node changeset="66049112" id="6185898206" lat="59.2588253" lon="10.4756453" timestamp="2019-01-05T14:55:00Z" uid="3497659" user="NKA" version="1">
		<tag k="name" v="Klopp" />
		<tag k="place" v="quarter" />
		<tag k="ssr:stedsnr" v="748039" />
		<tag k="ssr:type" v="tettbebyggelse" />
	</node>
	<node changeset="66049112" id="6185898207" lat="59.304225" lon="10.3612167" timestamp="2019-01-05T14:55:00Z" uid="3497659" user="NKA" version="1">
		<tag k="name" v="Fyllpå" />
		<tag k="place" v="farm" />
		<tag k="ssr:stedsnr" v="184631" />
		<tag k="ssr:type" v="gard" />
	</node>
	<node changeset="66049112" id="6185898208" lat="59.3035556" lon="10.3726778" timestamp="2019-01-05T14:55:00Z" uid="3497659" user="NKA" version="1">
		<tag k="name" v="Rise" />
		<tag k="place" v="farm" />
		<tag k="ssr:stedsnr" v="184634" />
		<tag k="ssr:type" v="gard" />
	</node>
	<node changeset="66049112" id="6185898209" lat="59.3030028" lon="10.5103139" timestamp="2019-01-05T14:55:00Z" uid="3497659" user="NKA" version="1">
		<tag k="name" v="Bolsrød" />
		<tag k="place" v="locality" />
		<tag k="ssr:stedsnr" v="184640" />
		<tag k="ssr:type" v="gammelBosettingsplass" />
	</node>
	<node changeset="66049112" id="6185898210" lat="59.2599556" lon="10.4566611" timestamp="2019-01-05T14:55:00Z" uid="3497659" user="NKA" version="1">
		<tag k="name" v="Snippen" />
		<tag k="place" v="farm" />
		<tag k="ssr:stedsnr" v="185613" />
		<tag k="ssr:type" v="bruk" />
	</node>
	<node changeset="66049112" id="6185898211" lat="59.2555554" lon="10.3718385" timestamp="2019-01-05T14:55:00Z" uid="3497659" user="NKA" version="1">
		<tag k="name" v="Rakkevik" />
		<tag k="place" v="isolated_dwelling" />
		<tag k="ssr:stedsnr" v="185617" />
		<tag k="ssr:type" v="eneboligMindreBoligbygg" />
	</node>
	<node changeset="66049112" id="6185898212" lat="59.2834944" lon="10.4624583" timestamp="2019-01-05T14:55:00Z" uid="3497659" user="NKA" version="1">
		<tag k="name" v="Linnom" />
		<tag k="place" v="farm" />
		<tag k="ssr:stedsnr" v="207724" />
		<tag k="ssr:type" v="bruk" />
	</node>
	<node changeset="66049112" id="6185898213" lat="59.3221708" lon="10.4703769" timestamp="2019-01-05T14:55:00Z" uid="3497659" user="NKA" version="1">
		<tag k="name" v="Mellem Rørås" />
		<tag k="place" v="farm" />
		<tag k="ssr:stedsnr" v="753762" />
		<tag k="ssr:type" v="gard" />
	</node>
	<node changeset="66049112" id="6185898214" lat="59.2691385" lon="10.4529511" timestamp="2019-01-05T14:55:00Z" uid="3497659" user="NKA" version="1">
		<tag k="name" v="Rød" />
		<tag k="place" v="isolated_dwelling" />
		<tag k="ssr:stedsnr" v="207747" />
		<tag k="ssr:type" v="eneboligMindreBoligbygg" />
	</node>
	<node changeset="66049112" id="6185898215" lat="59.2529945" lon="10.4601576" timestamp="2019-01-05T14:55:00Z" uid="3497659" user="NKA" version="1">
		<tag k="name" v="Dyet" />
		<tag k="place" v="farm" />
		<tag k="ssr:stedsnr" v="207762" />
		<tag k="ssr:type" v="bruk" />
	</node>
	<node changeset="66049112" id="6185898216" lat="59.3266556" lon="10.4519667" timestamp="2019-01-05T14:55:00Z" uid="3497659" user="NKA" version="1">
		<tag k="name" v="Rom" />
		<tag k="place" v="farm" />
		<tag k="ssr:stedsnr" v="207774" />
		<tag k="ssr:type" v="bruk" />
	</node>
	<node changeset="66049112" id="6185898217" lat="59.2674444" lon="10.4432833" timestamp="2019-01-05T14:55:00Z" uid="3497659" user="NKA" version="1">
		<tag k="name" v="Hagen" />
		<tag k="place" v="farm" />
		<tag k="ssr:stedsnr" v="756029" />
		<tag k="ssr:type" v="bruk" />
	</node>
	<node changeset="66049112" id="6185898218" lat="59.3002167" lon="10.3906194" timestamp="2019-01-05T14:55:01Z" uid="3497659" user="NKA" version="1">
		<tag k="name" v="Hestehagen" />
		<tag k="place" v="farm" />
		<tag k="ssr:stedsnr" v="207784" />
		<tag k="ssr:type" v="bruk" />
	</node>
	<node changeset="66049112" id="6185898219" lat="59.3056667" lon="10.4413083" timestamp="2019-01-05T14:55:01Z" uid="3497659" user="NKA" version="1">
		<tag k="name" v="Skjolden" />
		<tag k="place" v="farm" />
		<tag k="ssr:stedsnr" v="207786" />
		<tag k="ssr:type" v="bruk" />
	</node>
	<node changeset="66049112" id="5840107756" lat="59.3331621" lon="10.488478" timestamp="2019-01-05T14:55:09Z" uid="3497659" user="NKA" version="2">
		<tag k="name" v="Saltkopp" />
		<tag k="place" v="hamlet" />
		<tag k="ssr:stedsnr" v="85732" />
		<tag k="ssr:type" v="eneboligMindreBoligbygg" />
	</node>
	<node changeset="66049112" id="6185898221" lat="59.3049778" lon="10.453875" timestamp="2019-01-05T14:55:01Z" uid="3497659" user="NKA" version="1">
		<tag k="name" v="Bø" />
		<tag k="place" v="farm" />
		<tag k="ssr:stedsnr" v="207796" />
		<tag k="ssr:type" v="gard" />
	</node>
	<node changeset="66049112" id="6185898222" lat="59.2824944" lon="10.4029944" timestamp="2019-01-05T14:55:01Z" uid="3497659" user="NKA" version="1">
		<tag k="name" v="Kjelle" />
		<tag k="place" v="isolated_dwelling" />
		<tag k="ssr:stedsnr" v="207987" />
		<tag k="ssr:type" v="eneboligMindreBoligbygg" />
	</node>
	<node changeset="66049112" id="6185898223" lat="59.3209556" lon="10.5023083" timestamp="2019-01-05T14:55:01Z" uid="3497659" user="NKA" version="1">
		<tag k="name" v="Hytten" />
		<tag k="place" v="farm" />
		<tag k="ssr:stedsnr" v="791602" />
		<tag k="ssr:type" v="bruk" />
	</node>
	<node changeset="66049112" id="6185898224" lat="59.2940131" lon="10.3509715" timestamp="2019-01-05T14:55:01Z" uid="3497659" user="NKA" version="1">
		<tag k="name" v="Ås" />
		<tag k="place" v="quarter" />
		<tag k="ssr:stedsnr" v="791616" />
		<tag k="ssr:type" v="navnegard" />
	</node>
	<node changeset="66049112" id="6185898225" lat="59.3526003" lon="10.4194556" timestamp="2019-01-05T14:55:01Z" uid="3497659" user="NKA" version="1">
		<tag k="name" v="Myre" />
		<tag k="place" v="farm" />
		<tag k="ssr:stedsnr" v="305628" />
		<tag k="ssr:type" v="gard" />
	</node>
	<node changeset="66049112" id="6185898226" lat="59.3024972" lon="10.4231083" timestamp="2019-01-05T14:55:01Z" uid="3497659" user="NKA" version="1">
		<tag k="alt_name" v="Eik, nordre" />
		<tag k="name" v="Nordre Eik" />
		<tag k="place" v="farm" />
		<tag k="ssr:stedsnr" v="791619" />
		<tag k="ssr:type" v="bruk" />
	</node>
	<node changeset="66049112" id="6185898227" lat="59.3070639" lon="10.3397806" timestamp="2019-01-05T14:55:01Z" uid="3497659" user="NKA" version="1">
		<tag k="alt_name" v="Åleborgen" />
		<tag k="name" v="Åleborga" />
		<tag k="place" v="farm" />
		<tag k="ssr:stedsnr" v="306824" />
		<tag k="ssr:type" v="gard" />
	</node>
	<node changeset="66049112" id="6185898228" lat="59.3101456" lon="10.4518052" timestamp="2019-01-05T14:55:01Z" uid="3497659" user="NKA" version="1">
		<tag k="alt_name" v="Store Oseberg" />
		<tag k="name" v="Oseberg" />
		<tag k="place" v="hamlet" />
		<tag k="ssr:stedsnr" v="791628" />
		<tag k="ssr:type" v="gard" />
	</node>
	<node changeset="66049112" id="6185898229" lat="59.3390611" lon="10.4764889" timestamp="2019-01-05T14:55:01Z" uid="3497659" user="NKA" version="1">
		<tag k="alt_name" v="Stang" />
		<tag k="name" v="Lille Stang" />
		<tag k="place" v="hamlet" />
		<tag k="ssr:stedsnr" v="306557" />
		<tag k="ssr:type" v="gard" />
	</node>
	<node changeset="66049112" id="6185898230" lat="59.2896932" lon="10.3476514" timestamp="2019-01-05T14:55:01Z" uid="3497659" user="NKA" version="1">
		<tag k="name" v="Broen" />
		<tag k="place" v="farm" />
		<tag k="ssr:stedsnr" v="791641" />
		<tag k="ssr:type" v="bruk" />
	</node>
	<node changeset="66049112" id="6185898231" lat="59.2932806" lon="10.4064833" timestamp="2019-01-05T14:55:01Z" uid="3497659" user="NKA" version="1">
		<tag k="name" v="Syrbekk" />
		<tag k="place" v="farm" />
		<tag k="ssr:stedsnr" v="791647" />
		<tag k="ssr:type" v="bruk" />
	</node>
	<node changeset="66049112" id="6185898232" lat="59.2741833" lon="10.3533861" timestamp="2019-01-05T14:55:02Z" uid="3497659" user="NKA" version="1">
		<tag k="name" v="Bjelland" />
		<tag k="place" v="farm" />
		<tag k="ssr:stedsnr" v="792638" />
		<tag k="ssr:type" v="bruk" />
	</node>
	<node changeset="66049112" id="6185898233" lat="59.2833139" lon="10.353575" timestamp="2019-01-05T14:55:02Z" uid="3497659" user="NKA" version="1">
		<tag k="name" v="Aulilund" />
		<tag k="place" v="farm" />
		<tag k="ssr:stedsnr" v="306588" />
		<tag k="ssr:type" v="bruk" />
	</node>
	<node changeset="66049112" id="6185898234" lat="59.2934472" lon="10.3348028" timestamp="2019-01-05T14:55:02Z" uid="3497659" user="NKA" version="1">
		<tag k="alt_name" v="Søndre Låne" />
		<tag k="name" v="Låne S" />
		<tag k="place" v="farm" />
		<tag k="ssr:stedsnr" v="209756" />
		<tag k="ssr:type" v="gard" />
	</node>
	<node changeset="66049112" id="6185898235" lat="59.2818742" lon="10.3194406" timestamp="2019-01-05T14:55:02Z" uid="3497659" user="NKA" version="1">
		<tag k="name" v="Tem" />
		<tag k="place" v="farm" />
		<tag k="ssr:stedsnr" v="792834" />
		<tag k="ssr:type" v="gard" />
	</node>
	<node changeset="66049112" id="6185898236" lat="59.29175" lon="10.3194806" timestamp="2019-01-05T14:55:02Z" uid="3497659" user="NKA" version="1">
		<tag k="alt_name" v="Nedre Lensberg" />
		<tag k="name" v="Lensberg" />
		<tag k="place" v="farm" />
		<tag k="ssr:stedsnr" v="306864" />
		<tag k="ssr:type" v="gard" />
	</node>
	<node changeset="66049112" id="6185898237" lat="59.3423278" lon="10.3678611" timestamp="2019-01-05T14:55:02Z" uid="3497659" user="NKA" version="1">
		<tag k="name" v="Undrum søndre" />
		<tag k="place" v="farm" />
		<tag k="ssr:stedsnr" v="209801" />
		<tag k="ssr:type" v="gard" />
	</node>
	<node changeset="66049112" id="6185898238" lat="59.3078918" lon="10.4294605" timestamp="2019-01-05T14:55:02Z" uid="3497659" user="NKA" version="1">
		<tag k="name" v="Nordre Eik" />
		<tag k="place" v="quarter" />
		<tag k="ssr:stedsnr" v="324028" />
		<tag k="ssr:type" v="boligfelt" />
	</node>
	<node changeset="66049112" id="6185898239" lat="59.2931889" lon="10.4892056" timestamp="2019-01-05T14:55:02Z" uid="3497659" user="NKA" version="1">
		<tag k="name" v="Brekke" />
		<tag k="place" v="farm" />
		<tag k="ssr:stedsnr" v="814757" />
		<tag k="ssr:type" v="bruk" />
	</node>
	<node changeset="66049112" id="6185898240" lat="59.275025" lon="10.4356833" timestamp="2019-01-05T14:55:02Z" uid="3497659" user="NKA" version="1">
		<tag k="name" v="Presterød" />
		<tag k="place" v="farm" />
		<tag k="ssr:stedsnr" v="328727" />
		<tag k="ssr:type" v="bruk" />
	</node>
	<node changeset="66049112" id="6185898241" lat="59.2563988" lon="10.4768249" timestamp="2019-01-05T14:55:02Z" uid="3497659" user="NKA" version="1">
		<tag k="name" v="Frydenlund" />
		<tag k="place" v="isolated_dwelling" />
		<tag k="ssr:stedsnr" v="814779" />
		<tag k="ssr:type" v="eneboligMindreBoligbygg" />
	</node>
	<node changeset="66049112" id="6185898242" lat="59.2700624" lon="10.4815006" timestamp="2019-01-05T14:55:02Z" uid="3497659" user="NKA" version="1">
		<tag k="name" v="Krøgerløkka" />
		<tag k="place" v="quarter" />
		<tag k="ssr:stedsnr" v="328747" />
		<tag k="ssr:type" v="boligfelt" />
	</node>
	<node changeset="66049112" id="6185898243" lat="59.3323086" lon="10.4061082" timestamp="2019-01-05T14:55:02Z" uid="3497659" user="NKA" version="1">
		<tag k="name" v="Skotte" />
		<tag k="place" v="farm" />
		<tag k="ssr:stedsnr" v="328760" />
		<tag k="ssr:type" v="gard" />
	</node>
	<node changeset="66049112" id="6185898244" lat="59.3010972" lon="10.43185" timestamp="2019-01-05T14:55:02Z" uid="3497659" user="NKA" version="1">
		<tag k="name" v="Vestbakken" />
		<tag k="place" v="farm" />
		<tag k="ssr:stedsnr" v="814797" />
		<tag k="ssr:type" v="bruk" />
	</node>
	<node changeset="66049112" id="6185898245" lat="59.2948949" lon="10.4542919" timestamp="2019-01-05T14:55:02Z" uid="3497659" user="NKA" version="1">
		<tag k="name" v="Haug Basberg" />
		<tag k="place" v="farm" />
		<tag k="ssr:stedsnr" v="814800" />
		<tag k="ssr:type" v="bruk" />
	</node>
	<node changeset="66049112" id="6185898246" lat="59.262676" lon="10.4430482" timestamp="2019-01-05T14:55:02Z" uid="3497659" user="NKA" version="1">
		<tag k="name" v="Nedre Råel" />
		<tag k="place" v="neighbourhood" />
		<tag k="ssr:stedsnr" v="238333" />
		<tag k="ssr:type" v="boligfelt" />
	</node>
	<node changeset="66049112" id="6185898247" lat="59.3083417" lon="10.4593833" timestamp="2019-01-05T14:55:03Z" uid="3497659" user="NKA" version="1">
		<tag k="name" v="Nygård" />
		<tag k="place" v="farm" />
		<tag k="ssr:stedsnr" v="328795" />
		<tag k="ssr:type" v="bruk" />
	</node>
	<node changeset="66049112" id="6185898248" lat="59.3154639" lon="10.4943389" timestamp="2019-01-05T14:55:03Z" uid="3497659" user="NKA" version="1">
		<tag k="name" v="Tufta" />
		<tag k="place" v="isolated_dwelling" />
		<tag k="ssr:stedsnr" v="238909" />
		<tag k="ssr:type" v="eneboligMindreBoligbygg" />
	</node>
	<node changeset="66049112" id="6185898249" lat="59.2484" lon="10.4543861" timestamp="2019-01-05T14:55:03Z" uid="3497659" user="NKA" version="1">
		<tag k="alt_name" v="Nordre Nes;Nes Nordre" />
		<tag k="name" v="N. Nes" />
		<tag k="place" v="locality" />
		<tag k="ssr:stedsnr" v="814974" />
		<tag k="ssr:type" v="eiendom" />
	</node>
	<node changeset="66049112" id="6185898250" lat="59.2858889" lon="10.4964833" timestamp="2019-01-05T14:55:03Z" uid="3497659" user="NKA" version="1">
		<tag k="name" v="Nordre Ringshaug" />
		<tag k="place" v="neighbourhood" />
		<tag k="ssr:stedsnr" v="815199" />
		<tag k="ssr:type" v="boligfelt" />
	</node>
	<node changeset="66049112" id="6185898251" lat="59.3370806" lon="10.442825" timestamp="2019-01-05T14:55:03Z" uid="3497659" user="NKA" version="1">
		<tag k="name" v="Myra" />
		<tag k="place" v="farm" />
		<tag k="ssr:stedsnr" v="245576" />
		<tag k="ssr:type" v="bruk" />
	</node>
	<node changeset="66049112" id="6185898252" lat="59.3334397" lon="10.4229594" timestamp="2019-01-05T14:55:03Z" uid="3497659" user="NKA" version="1">
		<tag k="name" v="Sanderød" />
		<tag k="place" v="farm" />
		<tag k="ssr:stedsnr" v="245577" />
		<tag k="ssr:type" v="gard" />
	</node>
	<node changeset="66049112" id="6185898253" lat="59.3259778" lon="10.4223194" timestamp="2019-01-05T14:55:03Z" uid="3497659" user="NKA" version="1">
		<tag k="name" v="Høifødt" />
		<tag k="place" v="farm" />
		<tag k="ssr:stedsnr" v="245579" />
		<tag k="ssr:type" v="gard" />
	</node>
	<node changeset="66049112" id="6185898254" lat="59.3206917" lon="10.3488556" timestamp="2019-01-05T14:55:03Z" uid="3497659" user="NKA" version="1">
		<tag k="name" v="Rastad" />
		<tag k="place" v="farm" />
		<tag k="ssr:stedsnr" v="245585" />
		<tag k="ssr:type" v="bruk" />
	</node>
	<node changeset="66049112" id="6185898255" lat="59.3205361" lon="10.4887417" timestamp="2019-01-05T14:55:03Z" uid="3497659" user="NKA" version="1">
		<tag k="name" v="Adamsrød" />
		<tag k="place" v="farm" />
		<tag k="ssr:stedsnr" v="245593" />
		<tag k="ssr:type" v="gard" />
	</node>
	<node changeset="66049112" id="6185898256" lat="59.2471417" lon="10.4578583" timestamp="2019-01-05T14:55:03Z" uid="3497659" user="NKA" version="1">
		<tag k="name" v="Søndre Nes" />
		<tag k="place" v="farm" />
		<tag k="ssr:stedsnr" v="365005" />
		<tag k="ssr:type" v="gard" />
	</node>
	<node changeset="66049112" id="6185898257" lat="59.3005528" lon="10.4678472" timestamp="2019-01-05T14:55:03Z" uid="3497659" user="NKA" version="1">
		<tag k="name" v="Søndre Hassum" />
		<tag k="place" v="farm" />
		<tag k="ssr:stedsnr" v="245612" />
		<tag k="ssr:type" v="gard" />
	</node>
	<node changeset="66049112" id="6185898258" lat="59.3005528" lon="10.4541806" timestamp="2019-01-05T14:55:03Z" uid="3497659" user="NKA" version="1">
		<tag k="name" v="Nordre Basberg" />
		<tag k="place" v="farm" />
		<tag k="ssr:stedsnr" v="245610" />
		<tag k="ssr:type" v="gard" />
	</node>
	<node changeset="66049112" id="6185898259" lat="59.3221783" lon="10.3979763" timestamp="2019-01-05T14:55:03Z" uid="3497659" user="NKA" version="1">
		<tag k="alt_name" v="Brekke S" />
		<tag k="name" v="Brekke" />
		<tag k="place" v="farm" />
		<tag k="ssr:stedsnr" v="366613" />
		<tag k="ssr:type" v="bruk" />
	</node>
	<node changeset="66049112" id="6185898260" lat="59.3153222" lon="10.4847583" timestamp="2019-01-05T14:55:03Z" uid="3497659" user="NKA" version="1">
		<tag k="alt_name" v="Stusrød;Studsrød" />
		<tag k="name" v="Stusrøa" />
		<tag k="place" v="farm" />
		<tag k="ssr:stedsnr" v="366622" />
		<tag k="ssr:type" v="bruk" />
	</node>
	<node changeset="66049112" id="6185898261" lat="59.3089652" lon="10.5002424" timestamp="2019-01-05T14:55:03Z" uid="3497659" user="NKA" version="1">
		<tag k="name" v="Tverved" />
		<tag k="place" v="farm" />
		<tag k="ssr:stedsnr" v="245615" />
		<tag k="ssr:type" v="gard" />
	</node>
	<node changeset="66049112" id="6185898262" lat="59.3141995" lon="10.5058098" timestamp="2019-01-05T14:55:04Z" uid="3497659" user="NKA" version="1">
		<tag k="name" v="Åsen" />
		<tag k="place" v="farm" />
		<tag k="ssr:stedsnr" v="366623" />
		<tag k="ssr:type" v="bruk" />
	</node>
	<node changeset="66049112" id="6185898263" lat="59.3146528" lon="10.4192083" timestamp="2019-01-05T14:55:04Z" uid="3497659" user="NKA" version="1">
		<tag k="name" v="Rakkås" />
		<tag k="place" v="farm" />
		<tag k="ssr:stedsnr" v="245620" />
		<tag k="ssr:type" v="bruk" />
	</node>
	<node changeset="66049112" id="6185898264" lat="59.3199472" lon="10.4700028" timestamp="2019-01-05T14:55:04Z" uid="3497659" user="NKA" version="1">
		<tag k="alt_name" v="Rørås, s;Rørås" />
		<tag k="name" v="Søndre Rørås" />
		<tag k="place" v="farm" />
		<tag k="ssr:stedsnr" v="366626" />
		<tag k="ssr:type" v="gard" />
	</node>
	<node changeset="66049112" id="6185898265" lat="59.2653583" lon="10.4806" timestamp="2019-01-05T14:55:04Z" uid="3497659" user="NKA" version="1">
		<tag k="name" v="England" />
		<tag k="place" v="isolated_dwelling" />
		<tag k="ssr:stedsnr" v="845326" />
		<tag k="ssr:type" v="eneboligMindreBoligbygg" />
	</node>
	<node changeset="66049112" id="6185898266" lat="59.2919472" lon="10.4630139" timestamp="2019-01-05T14:55:04Z" uid="3497659" user="NKA" version="1">
		<tag k="alt_name" v="Undeberg" />
		<tag k="name" v="Unneberg" />
		<tag k="place" v="farm" />
		<tag k="ssr:stedsnr" v="245630" />
		<tag k="ssr:type" v="gard" />
	</node>
	<node changeset="66049112" id="6185898267" lat="59.266425" lon="10.3740806" timestamp="2019-01-05T14:55:04Z" uid="3497659" user="NKA" version="1">
		<tag k="name" v="Smørberg" />
		<tag k="place" v="farm" />
		<tag k="ssr:stedsnr" v="246638" />
		<tag k="ssr:type" v="gard" />
	</node>
	<node changeset="66049112" id="6185898268" lat="59.2953" lon="10.5151889" timestamp="2019-01-05T14:55:04Z" uid="3497659" user="NKA" version="1">
		<tag k="alt_name" v="Karlsvika, s" />
		<tag k="name" v="Søndre Karlsvika" />
		<tag k="place" v="farm" />
		<tag k="ssr:stedsnr" v="366652" />
		<tag k="ssr:type" v="bruk" />
	</node>
	<node changeset="66049112" id="6185898269" lat="59.2569652" lon="10.4768674" timestamp="2019-01-05T14:55:04Z" uid="3497659" user="NKA" version="1">
		<tag k="name" v="Narverød" />
		<tag k="place" v="isolated_dwelling" />
		<tag k="ssr:stedsnr" v="246651" />
		<tag k="ssr:type" v="eneboligMindreBoligbygg" />
	</node>
	<node changeset="66049112" id="6185898270" lat="59.2955576" lon="10.4404771" timestamp="2019-01-05T14:55:04Z" uid="3497659" user="NKA" version="1">
		<tag k="name" v="Nordre Velle" />
		<tag k="place" v="farm" />
		<tag k="ssr:stedsnr" v="366656" />
		<tag k="ssr:type" v="gard" />
	</node>
	<node changeset="66049112" id="6185898271" lat="59.2817639" lon="10.4380583" timestamp="2019-01-05T14:55:04Z" uid="3497659" user="NKA" version="1">
		<tag k="name" v="Sundekilden" />
		<tag k="place" v="farm" />
		<tag k="ssr:stedsnr" v="367621" />
		<tag k="ssr:type" v="bruk" />
	</node>
	<node changeset="66049112" id="6185898272" lat="59.2671583" lon="10.3561417" timestamp="2019-01-05T14:55:04Z" uid="3497659" user="NKA" version="1">
		<tag k="name" v="Bjelland" />
		<tag k="place" v="locality" />
		<tag k="ssr:stedsnr" v="853654" />
		<tag k="ssr:type" v="eiendom" />
	</node>
	<node changeset="66049112" id="6185898273" lat="59.30135" lon="10.3170611" timestamp="2019-01-05T14:55:04Z" uid="3497659" user="NKA" version="1">
		<tag k="alt_name" v="Pande" />
		<tag k="name" v="Panne" />
		<tag k="place" v="farm" />
		<tag k="ssr:stedsnr" v="367802" />
		<tag k="ssr:type" v="gard" />
	</node>
	<node changeset="66049112" id="6185898275" lat="59.2459652" lon="10.3552604" timestamp="2019-01-05T14:55:04Z" uid="3497659" user="NKA" version="1">
		<tag k="name" v="Robergåsen" />
		<tag k="place" v="quarter" />
		<tag k="ssr:stedsnr" v="263013" />
		<tag k="ssr:type" v="tettsted" />
	</node>
	<node changeset="66049112" id="6185898276" lat="59.2745639" lon="10.3326667" timestamp="2019-01-05T14:55:05Z" uid="3497659" user="NKA" version="1">
		<tag k="name" v="Løkeberg" />
		<tag k="place" v="farm" />
		<tag k="ssr:stedsnr" v="367882" />
		<tag k="ssr:type" v="bruk" />
	</node>
	<node changeset="66049112" id="6185898277" lat="59.2496963" lon="10.3569536" timestamp="2019-01-05T14:55:05Z" uid="3497659" user="NKA" version="1">
		<tag k="name" v="Vearåsen" />
		<tag k="place" v="quarter" />
		<tag k="ssr:stedsnr" v="384054" />
		<tag k="ssr:type" v="boligfelt" />
	</node>
	<node changeset="66049112" id="6185898278" lat="59.2719987" lon="10.3640092" timestamp="2019-01-05T14:55:05Z" uid="3497659" user="NKA" version="1">
		<tag k="name" v="Hogsnes" />
		<tag k="place" v="suburb" />
		<tag k="ssr:stedsnr" v="874412" />
		<tag k="ssr:type" v="tettsted" />
	</node>
	<node changeset="66049112" id="6185898279" lat="59.3111028" lon="10.4147111" timestamp="2019-01-05T14:55:05Z" uid="3497659" user="NKA" version="1">
		<tag k="alt_name" v="Søndre Rakås" />
		<tag k="name" v="Rakkås" />
		<tag k="place" v="locality" />
		<tag k="ssr:stedsnr" v="267769" />
		<tag k="ssr:type" v="eiendom" />
	</node>
	<node changeset="66049112" id="6185898280" lat="59.3243056" lon="10.4780444" timestamp="2019-01-05T14:55:05Z" uid="3497659" user="NKA" version="1">
		<tag k="name" v="Grønseth" />
		<tag k="place" v="farm" />
		<tag k="ssr:stedsnr" v="388751" />
		<tag k="ssr:type" v="bruk" />
	</node>
	<node changeset="66049112" id="6185898281" lat="59.2717361" lon="10.4735361" timestamp="2019-01-05T14:55:05Z" uid="3497659" user="NKA" version="1">
		<tag k="name" v="Langvald" />
		<tag k="place" v="isolated_dwelling" />
		<tag k="ssr:stedsnr" v="874766" />
		<tag k="ssr:type" v="eneboligMindreBoligbygg" />
	</node>
	<node changeset="66049112" id="6185898282" lat="59.3044477" lon="10.4132026" timestamp="2019-01-05T14:55:05Z" uid="3497659" user="NKA" version="1">
		<tag k="name" v="Bruserød" />
		<tag k="place" v="farm" />
		<tag k="ssr:stedsnr" v="388760" />
		<tag k="ssr:type" v="gard" />
	</node>
	<node changeset="66049112" id="6185898283" lat="59.3309611" lon="10.382725" timestamp="2019-01-05T14:55:05Z" uid="3497659" user="NKA" version="1">
		<tag k="name" v="Tveiten" />
		<tag k="place" v="farm" />
		<tag k="ssr:stedsnr" v="874773" />
		<tag k="ssr:type" v="gard" />
	</node>
	<node changeset="66049112" id="6185898284" lat="59.3016806" lon="10.4273278" timestamp="2019-01-05T14:55:05Z" uid="3497659" user="NKA" version="1">
		<tag k="name" v="Lofseik" />
		<tag k="place" v="farm" />
		<tag k="ssr:stedsnr" v="388771" />
		<tag k="ssr:type" v="gard" />
	</node>
	<node changeset="62336729" id="23623730" lat="59.2506792" lon="10.4991884" timestamp="2018-09-06T09:35:11Z" uid="4198735" user="michalzz" version="4">
		<tag k="source" v="PGS(could be inacurately)" />
	</node>
	<node changeset="62336729" id="5887334734" lat="59.2508822" lon="10.4986843" timestamp="2018-09-06T09:35:10Z" uid="4198735" user="michalzz" version="1" />
	<node changeset="62336729" id="5887334735" lat="59.2508991" lon="10.4985197" timestamp="2018-09-06T09:35:10Z" uid="4198735" user="michalzz" version="1" />
	<node changeset="62336729" id="5887334736" lat="59.2509025" lon="10.4986086" timestamp="2018-09-06T09:35:10Z" uid="4198735" user="michalzz" version="1" />
	<node changeset="62336729" id="5887334737" lat="59.2506898" lon="10.499846" timestamp="2018-09-06T09:35:10Z" uid="4198735" user="michalzz" version="1" />
	<node changeset="62336729" id="5887334738" lat="59.2503953" lon="10.5005544" timestamp="2018-09-06T09:35:10Z" uid="4198735" user="michalzz" version="1" />
	<node changeset="62336729" id="5887334739" lat="59.2504213" lon="10.5004999" timestamp="2018-09-06T09:35:10Z" uid="4198735" user="michalzz" version="1" />
	<node changeset="62336729" id="5887334740" lat="59.2502681" lon="10.500628" timestamp="2018-09-06T09:35:10Z" uid="4198735" user="michalzz" version="1" />
	<node changeset="62336729" id="5887334741" lat="59.2499697" lon="10.5008896" timestamp="2018-09-06T09:35:10Z" uid="4198735" user="michalzz" version="1" />
	<node changeset="62336729" id="5887334742" lat="59.2500489" lon="10.5007618" timestamp="2018-09-06T09:35:10Z" uid="4198735" user="michalzz" version="1" />
	<node changeset="62336729" id="5887334743" lat="59.2497605" lon="10.5010299" timestamp="2018-09-06T09:35:10Z" uid="4198735" user="michalzz" version="1" />
	<node changeset="62336729" id="5887334744" lat="59.2489818" lon="10.501171" timestamp="2018-09-06T09:35:10Z" uid="4198735" user="michalzz" version="1" />
	<node changeset="62336729" id="5887334745" lat="59.2485858" lon="10.5012365" timestamp="2018-09-06T09:35:10Z" uid="4198735" user="michalzz" version="1" />
	<node changeset="62336729" id="5887334746" lat="59.2480249" lon="10.5028833" timestamp="2018-09-06T09:35:10Z" uid="4198735" user="michalzz" version="1" />
	<node changeset="62336729" id="5887334747" lat="59.2482003" lon="10.5029082" timestamp="2018-09-06T09:35:10Z" uid="4198735" user="michalzz" version="1" />
	<node changeset="62336729" id="5887334748" lat="59.2481842" lon="10.5029987" timestamp="2018-09-06T09:35:10Z" uid="4198735" user="michalzz" version="1" />
	<node changeset="62336729" id="5887334749" lat="59.248084" lon="10.5028917" timestamp="2018-09-06T09:35:10Z" uid="4198735" user="michalzz" version="1" />
	<node changeset="62336729" id="5887334750" lat="59.2480628" lon="10.5030266" timestamp="2018-09-06T09:35:10Z" uid="4198735" user="michalzz" version="1" />
	<node changeset="62336729" id="5887334751" lat="59.2482569" lon="10.5030037" timestamp="2018-09-06T09:35:10Z" uid="4198735" user="michalzz" version="1" />
	<node changeset="62336729" id="5887334752" lat="59.2483287" lon="10.5030198" timestamp="2018-09-06T09:35:10Z" uid="4198735" user="michalzz" version="1" />
	<node changeset="62336729" id="5887334753" lat="59.2482383" lon="10.5030947" timestamp="2018-09-06T09:35:10Z" uid="4198735" user="michalzz" version="1" />
	<node changeset="66049112" id="4080671178" lat="59.3186085" lon="10.3899148" timestamp="2019-01-05T14:55:07Z" uid="3497659" user="NKA" version="3">
		<tag k="name" v="Barkåker" />
		<tag k="place" v="suburb" />
		<tag k="population" v="1725" />
		<tag k="population:date" v="2017-01-01" />
		<tag k="ssr:stedsnr" v="731562" />
		<tag k="ssr:type" v="tettbebyggelse" />
	</node>
	<node changeset="62550726" id="5903921633" lat="59.2506774" lon="10.4985323" timestamp="2018-09-13T12:46:49Z" uid="4198735" user="michalzz" version="1" />
	<node changeset="62550726" id="5903921636" lat="59.2507115" lon="10.4988468" timestamp="2018-09-13T12:46:49Z" uid="4198735" user="michalzz" version="1" />
	<node changeset="62550726" id="5903921648" lat="59.2505109" lon="10.5002219" timestamp="2018-09-13T12:46:49Z" uid="4198735" user="michalzz" version="1" />
	<node changeset="62549042" id="23666016" lat="59.2445979" lon="10.5069144" timestamp="2018-09-13T11:42:51Z" uid="4198735" user="michalzz" version="4">
		<tag k="source" v="PGS(could be inacurately)" />
	</node>
	<node changeset="66049112" id="6185898585" lat="59.3221665" lon="10.3956998" timestamp="2019-01-05T14:55:05Z" uid="3497659" user="NKA" version="1">
		<tag k="alt_name" v="Nordre Fresje" />
		<tag k="name" v="Fritsø N" />
		<tag k="place" v="farm" />
		<tag k="ssr:stedsnr" v="874777" />
		<tag k="ssr:type" v="gard" />
	</node>
	<node changeset="66049112" id="6185898586" lat="59.3135314" lon="10.4403761" timestamp="2019-01-05T14:55:05Z" uid="3497659" user="NKA" version="1">
		<tag k="name" v="Roberg" />
		<tag k="place" v="hamlet" />
		<tag k="ssr:stedsnr" v="267786" />
		<tag k="ssr:type" v="navnegard" />
	</node>
	<node changeset="66049112" id="6185898587" lat="59.2966306" lon="10.4689278" timestamp="2019-01-05T14:55:05Z" uid="3497659" user="NKA" version="1">
		<tag k="alt_name" v="Nordre Ilebrekke" />
		<tag k="name" v="Ilebrekke" />
		<tag k="place" v="farm" />
		<tag k="ssr:stedsnr" v="267789" />
		<tag k="ssr:type" v="gard" />
	</node>
	<node changeset="66049112" id="6185898588" lat="59.2860194" lon="10.4325583" timestamp="2019-01-05T14:55:05Z" uid="3497659" user="NKA" version="1">
		<tag k="name" v="Trettepletten" />
		<tag k="place" v="farm" />
		<tag k="ssr:stedsnr" v="267989" />
		<tag k="ssr:type" v="bruk" />
	</node>
	<node changeset="66049112" id="6185898589" lat="59.3432417" lon="10.4548917" timestamp="2019-01-05T14:55:05Z" uid="3497659" user="NKA" version="1">
		<tag k="name" v="Spettås" />
		<tag k="place" v="farm" />
		<tag k="ssr:stedsnr" v="389817" />
		<tag k="ssr:type" v="gard" />
	</node>
	<node changeset="66049112" id="6185898590" lat="59.2957444" lon="10.3323139" timestamp="2019-01-05T14:55:05Z" uid="3497659" user="NKA" version="1">
		<tag k="name" v="Låne mellom" />
		<tag k="place" v="farm" />
		<tag k="ssr:stedsnr" v="391770" />
		<tag k="ssr:type" v="gard" />
	</node>
	<node changeset="66049112" id="6185898591" lat="59.3485194" lon="10.4407806" timestamp="2019-01-05T14:55:06Z" uid="3497659" user="NKA" version="1">
		<tag k="name" v="Gullerød" />
		<tag k="place" v="farm" />
		<tag k="ssr:stedsnr" v="874821" />
		<tag k="ssr:type" v="bruk" />
	</node>
	<node changeset="66049112" id="6185898592" lat="59.2478592" lon="10.4511112" timestamp="2019-01-05T14:55:06Z" uid="3497659" user="NKA" version="1">
		<tag k="amenity" v="nursing_home" />
		<tag k="name" v="Marie Treschows Minde" />
		<tag k="ssr:stedsnr" v="874945" />
		<tag k="ssr:type" v="helseinstitusjon" />
	</node>
	<node changeset="66049112" id="6185898593" lat="59.313775" lon="10.4039917" timestamp="2019-01-05T14:55:06Z" uid="3497659" user="NKA" version="1">
		<tag k="name" v="Kruke" />
		<tag k="place" v="farm" />
		<tag k="ssr:stedsnr" v="427610" />
		<tag k="ssr:type" v="gard" />
	</node>
	<node changeset="66049112" id="6185898594" lat="59.3203947" lon="10.4967126" timestamp="2019-01-05T14:55:06Z" uid="3497659" user="NKA" version="1">
		<tag k="alt_name" v="Bøengen" />
		<tag k="name" v="Bøeng" />
		<tag k="place" v="farm" />
		<tag k="ssr:stedsnr" v="392848" />
		<tag k="ssr:type" v="gard" />
	</node>
	<node changeset="66049112" id="6185898595" lat="59.310083" lon="10.5056652" timestamp="2019-01-05T14:55:06Z" uid="3497659" user="NKA" version="1">
		<tag k="name" v="Korterød" />
		<tag k="place" v="hamlet" />
		<tag k="ssr:stedsnr" v="427613" />
		<tag k="ssr:type" v="gard" />
	</node>
	<node changeset="66049112" id="6185898596" lat="59.3021639" lon="10.48885" timestamp="2019-01-05T14:55:06Z" uid="3497659" user="NKA" version="1">
		<tag k="name" v="Innlaget" />
		<tag k="place" v="farm" />
		<tag k="ssr:stedsnr" v="427623" />
		<tag k="ssr:type" v="bruk" />
	</node>
	<node changeset="66049112" id="6185898597" lat="59.3021972" lon="10.4963028" timestamp="2019-01-05T14:55:06Z" uid="3497659" user="NKA" version="1">
		<tag k="name" v="Myra" />
		<tag k="place" v="farm" />
		<tag k="ssr:stedsnr" v="876197" />
		<tag k="ssr:type" v="bruk" />
	</node>
	<node changeset="66049112" id="6185898598" lat="59.2896389" lon="10.354425" timestamp="2019-01-05T14:55:06Z" uid="3497659" user="NKA" version="1">
		<tag k="name" v="Kjærnes" />
		<tag k="place" v="farm" />
		<tag k="ssr:stedsnr" v="427638" />
		<tag k="ssr:type" v="bruk" />
	</node>
	<node changeset="66049112" id="6185898599" lat="59.3082028" lon="10.3558139" timestamp="2019-01-05T14:55:06Z" uid="3497659" user="NKA" version="1">
		<tag k="alt_name" v="Nordre Fadum" />
		<tag k="name" v="Fadum N" />
		<tag k="place" v="farm" />
		<tag k="ssr:stedsnr" v="877759" />
		<tag k="ssr:type" v="gard" />
	</node>
	<node changeset="66049112" id="1812713579" lat="59.3156556" lon="10.3684556" timestamp="2019-01-05T14:55:07Z" uid="3497659" user="NKA" version="2">
		<tag k="name" v="Gulli" />
		<tag k="place" v="farm" />
		<tag k="source" v="survey" />
		<tag k="ssr:stedsnr" v="427608" />
		<tag k="ssr:type" v="gard" />
	</node>
	<node changeset="66049112" id="462097029" lat="59.2650376" lon="10.4532561" timestamp="2019-01-05T14:55:07Z" uid="3497659" user="NKA" version="3">
		<tag k="name" v="Råel" />
		<tag k="place" v="suburb" />
		<tag k="ssr:stedsnr" v="731614" />
		<tag k="ssr:type" v="bruk" />
	</node>
	<node changeset="66049112" id="5421251289" lat="59.2939468" lon="10.420416" timestamp="2019-01-05T14:55:08Z" uid="3497659" user="NKA" version="2">
		<tag k="name" v="Eik" />
		<tag k="place" v="suburb" />
		<tag k="ssr:stedsnr" v="791646" />
		<tag k="ssr:type" v="tettsted" />
	</node>
	<node changeset="66049112" id="5421251290" lat="59.2739506" lon="10.4439446" timestamp="2019-01-05T14:55:08Z" uid="3497659" user="NKA" version="2">
		<tag k="name" v="Presterød" />
		<tag k="place" v="suburb" />
		<tag k="ssr:stedsnr" v="814763" />
		<tag k="ssr:type" v="tettsted" />
	</node>
	<node changeset="66049112" id="5421251292" lat="59.2724442" lon="10.471709" timestamp="2019-01-05T14:55:08Z" uid="3497659" user="NKA" version="2">
		<tag k="name" v="Tolvsrød" />
		<tag k="place" v="suburb" />
		<tag k="ssr:stedsnr" v="840751" />
		<tag k="ssr:type" v="bydel" />
	</node>
	<node changeset="66049112" id="5421251293" lat="59.2806438" lon="10.491673" timestamp="2019-01-05T14:55:08Z" uid="3497659" user="NKA" version="2">
		<tag k="name" v="Ringshaug" />
		<tag k="place" v="suburb" />
		<tag k="ssr:stedsnr" v="328734" />
		<tag k="ssr:type" v="bygdelagBygd" />
	</node>
	<node changeset="66049112" id="5421251295" lat="59.2942614" lon="10.4848589" timestamp="2019-01-05T14:55:08Z" uid="3497659" user="NKA" version="2">
		<tag k="alt_name" v="Østre Brekke" />
		<tag k="name" v="Brekke" />
		<tag k="place" v="suburb" />
		<tag k="ssr:stedsnr" v="669636" />
		<tag k="ssr:type" v="gard" />
	</node>
	<node changeset="66049112" id="5421251296" lat="59.2916615" lon="10.4744706" timestamp="2019-01-05T14:55:08Z" uid="3497659" user="NKA" version="2">
		<tag k="name" v="Ilebrekke" />
		<tag k="place" v="suburb" />
		<tag k="ssr:stedsnr" v="984932" />
		<tag k="ssr:type" v="navnegard" />
	</node>
	<node changeset="66049112" id="5421251297" lat="59.2801014" lon="10.463187" timestamp="2019-01-05T14:55:09Z" uid="3497659" user="NKA" version="2">
		<tag k="name" v="Gauterød" />
		<tag k="place" v="suburb" />
		<tag k="ssr:stedsnr" v="3607" />
		<tag k="ssr:type" v="gard" />
	</node>
	<node changeset="55913104" id="23666023" lat="59.2436727" lon="10.505372" timestamp="2018-01-31T00:16:56Z" uid="5552262" user="Cybban" version="5">
		<tag k="source" v="PGS(could be inacurately)" />
	</node>
	<node changeset="62549042" id="5903822985" lat="59.2472911" lon="10.5060529" timestamp="2018-09-13T11:42:50Z" uid="4198735" user="michalzz" version="1" />
	<node changeset="62549042" id="5903822986" lat="59.2472425" lon="10.5069241" timestamp="2018-09-13T11:42:50Z" uid="4198735" user="michalzz" version="1" />
	<node changeset="62549042" id="5903822987" lat="59.2472419" lon="10.5072036" timestamp="2018-09-13T11:42:50Z" uid="4198735" user="michalzz" version="1" />
	<node changeset="62549042" id="5903822988" lat="59.2473588" lon="10.5072073" timestamp="2018-09-13T11:42:51Z" uid="4198735" user="michalzz" version="1" />
	<node changeset="66049112" id="6185898125" lat="59.3243694" lon="10.4834445" timestamp="2019-01-05T14:54:54Z" uid="3497659" user="NKA" version="1">
		<tag k="name" v="Brattås" />
		<tag k="place" v="farm" />
		<tag k="ssr:stedsnr" v="548596" />
		<tag k="ssr:type" v="gard" />
	</node>
	<node changeset="66049112" id="6185898126" lat="59.3143611" lon="10.4056305" timestamp="2019-01-05T14:54:54Z" uid="3497659" user="NKA" version="1">
		<tag k="name" v="Stuverød" />
		<tag k="place" v="farm" />
		<tag k="ssr:stedsnr" v="548617" />
		<tag k="ssr:type" v="gard" />
	</node>
	<node changeset="62549042" id="5903821977" lat="59.2473128" lon="10.509709" timestamp="2018-09-13T11:42:50Z" uid="4198735" user="michalzz" version="1" />
	<node changeset="62549042" id="5903822991" lat="59.2475118" lon="10.5054965" timestamp="2018-09-13T11:42:51Z" uid="4198735" user="michalzz" version="1" />
	<node changeset="66049112" id="6185898128" lat="59.3109083" lon="10.33895" timestamp="2019-01-05T14:54:54Z" uid="3497659" user="NKA" version="1">
		<tag k="alt_name" v="Domsengen" />
		<tag k="name" v="Domsenga" />
		<tag k="place" v="farm" />
		<tag k="ssr:stedsnr" v="549826" />
		<tag k="ssr:type" v="gard" />
	</node>
	<node changeset="62549042" id="5373746018" lat="59.2486489" lon="10.4979382" timestamp="2018-09-13T11:42:51Z" uid="4198735" user="michalzz" version="2" />
	<node changeset="62549042" id="5373746019" lat="59.248326" lon="10.4981669" timestamp="2018-09-13T11:42:51Z" uid="4198735" user="michalzz" version="2" />
	<node changeset="62549042" id="5373746020" lat="59.2491739" lon="10.497383" timestamp="2018-09-13T11:42:51Z" uid="4198735" user="michalzz" version="2" />
	<node changeset="62549042" id="5903822993" lat="59.2477941" lon="10.5053366" timestamp="2018-09-13T11:42:51Z" uid="4198735" user="michalzz" version="1" />
	<node changeset="62549042" id="5903822994" lat="59.24773" lon="10.5052177" timestamp="2018-09-13T11:42:51Z" uid="4198735" user="michalzz" version="1" />
	<node changeset="62549042" id="5903822995" lat="59.247848" lon="10.5052166" timestamp="2018-09-13T11:42:51Z" uid="4198735" user="michalzz" version="1" />
	<node changeset="62549042" id="5903822996" lat="59.2481459" lon="10.5046252" timestamp="2018-09-13T11:42:51Z" uid="4198735" user="michalzz" version="1" />
	<node changeset="62549042" id="5903822997" lat="59.2479377" lon="10.5048849" timestamp="2018-09-13T11:42:51Z" uid="4198735" user="michalzz" version="1" />
	<node changeset="62549042" id="5903822998" lat="59.2479424" lon="10.5050309" timestamp="2018-09-13T11:42:51Z" uid="4198735" user="michalzz" version="1" />
	<node changeset="62549042" id="5903822999" lat="59.2479083" lon="10.5047611" timestamp="2018-09-13T11:42:51Z" uid="4198735" user="michalzz" version="1" />
	<node changeset="62549042" id="5903823000" lat="59.2478429" lon="10.504817" timestamp="2018-09-13T11:42:51Z" uid="4198735" user="michalzz" version="1" />
	<node changeset="62549042" id="5903823001" lat="59.2479041" lon="10.5049419" timestamp="2018-09-13T11:42:51Z" uid="4198735" user="michalzz" version="1" />
	<node changeset="62549042" id="5903823002" lat="59.2479021" lon="10.5043692" timestamp="2018-09-13T11:42:51Z" uid="4198735" user="michalzz" version="1" />
	<node changeset="62549042" id="5903823003" lat="59.2479276" lon="10.5046362" timestamp="2018-09-13T11:42:51Z" uid="4198735" user="michalzz" version="1" />
	<node changeset="62549042" id="5903823004" lat="59.24783" lon="10.5045923" timestamp="2018-09-13T11:42:51Z" uid="4198735" user="michalzz" version="1" />
	<node changeset="62550726" id="5903922114" lat="59.248564" lon="10.5012678" timestamp="2018-09-13T12:46:50Z" uid="4198735" user="michalzz" version="1" />
	<node changeset="66049112" id="489847844" lat="59.2521787" lon="10.4735623" timestamp="2019-01-05T14:55:07Z" uid="3497659" user="NKA" version="2">
		<tag k="name" v="Husvik" />
		<tag k="place" v="suburb" />
		<tag k="ssr:stedsnr" v="487008" />
		<tag k="ssr:type" v="tettsted" />
	</node>
	<node changeset="66049112" id="489847847" lat="59.260912" lon="10.4961539" timestamp="2019-01-05T14:55:07Z" uid="3497659" user="NKA" version="2">
		<tag k="name" v="Vallø" />
		<tag k="place" v="quarter" />
		<tag k="ssr:stedsnr" v="985026" />
		<tag k="ssr:type" v="eiendom" />
	</node>
	<node changeset="55443152" id="5278984373" lat="59.2617049" lon="10.497407" timestamp="2018-01-14T20:56:18Z" uid="5552262" user="Cybban" version="2" />
	<node changeset="55443152" id="5278984374" lat="59.2617192" lon="10.4974594" timestamp="2018-01-14T20:56:18Z" uid="5552262" user="Cybban" version="2" />
	<node changeset="55443152" id="5278984375" lat="59.2617585" lon="10.4974181" timestamp="2018-01-14T20:56:18Z" uid="5552262" user="Cybban" version="2" />
	<node changeset="55443152" id="5278984376" lat="59.2618256" lon="10.4976627" timestamp="2018-01-14T20:56:18Z" uid="5552262" user="Cybban" version="2" />
	<node changeset="55443152" id="5278984377" lat="59.2618841" lon="10.4976013" timestamp="2018-01-14T20:56:18Z" uid="5552262" user="Cybban" version="2" />
	<node changeset="55443152" id="5278984378" lat="59.2621198" lon="10.4984605" timestamp="2018-01-14T20:56:18Z" uid="5552262" user="Cybban" version="2" />
	<node changeset="55443152" id="5278984379" lat="59.261747" lon="10.4988521" timestamp="2018-01-14T20:56:18Z" uid="5552262" user="Cybban" version="2" />
	<node changeset="55443152" id="5278984380" lat="59.2615643" lon="10.4981861" timestamp="2018-01-14T20:56:18Z" uid="5552262" user="Cybban" version="2" />
	<node changeset="55443152" id="5278984381" lat="59.2614554" lon="10.4983005" timestamp="2018-01-14T20:56:18Z" uid="5552262" user="Cybban" version="2" />
	<node changeset="55443152" id="5278984382" lat="59.2614254" lon="10.4981913" timestamp="2018-01-14T20:56:18Z" uid="5552262" user="Cybban" version="2" />
	<node changeset="62549042" id="5903821942" lat="59.2479454" lon="10.4979572" timestamp="2018-09-13T11:42:50Z" uid="4198735" user="michalzz" version="1" />
	<node changeset="62549042" id="5903821943" lat="59.2480309" lon="10.4981223" timestamp="2018-09-13T11:42:50Z" uid="4198735" user="michalzz" version="1" />
	<node changeset="62549042" id="5903821944" lat="59.2477694" lon="10.4980742" timestamp="2018-09-13T11:42:50Z" uid="4198735" user="michalzz" version="1" />
	<node changeset="62549042" id="5903821945" lat="59.2472345" lon="10.498007" timestamp="2018-09-13T11:42:50Z" uid="4198735" user="michalzz" version="1" />
	<node changeset="62549042" id="5903821946" lat="59.2468528" lon="10.4980875" timestamp="2018-09-13T11:42:50Z" uid="4198735" user="michalzz" version="1" />
	<node changeset="62549042" id="5903821947" lat="59.2473781" lon="10.498067" timestamp="2018-09-13T11:42:50Z" uid="4198735" user="michalzz" version="1" />
	<node changeset="62549042" id="5903821948" lat="59.2464709" lon="10.4980474" timestamp="2018-09-13T11:42:50Z" uid="4198735" user="michalzz" version="1" />
	<node changeset="62549042" id="5903821949" lat="59.2465992" lon="10.4981217" timestamp="2018-09-13T11:42:50Z" uid="4198735" user="michalzz" version="1" />
	<node changeset="62549042" id="5903821950" lat="59.2455946" lon="10.4991514" timestamp="2018-09-13T11:42:50Z" uid="4198735" user="michalzz" version="1" />
	<node changeset="62549042" id="5903821951" lat="59.2453907" lon="10.4992986" timestamp="2018-09-13T11:42:50Z" uid="4198735" user="michalzz" version="1" />
	<node changeset="62549042" id="5903821952" lat="59.2447927" lon="10.5005672" timestamp="2018-09-13T11:42:50Z" uid="4198735" user="michalzz" version="1" />
	<node changeset="62549042" id="5903821953" lat="59.2450546" lon="10.4997362" timestamp="2018-09-13T11:42:50Z" uid="4198735" user="michalzz" version="1" />
	<node changeset="62549042" id="5903821954" lat="59.2450284" lon="10.4999288" timestamp="2018-09-13T11:42:50Z" uid="4198735" user="michalzz" version="1" />
	<node changeset="62549042" id="5903821955" lat="59.2445104" lon="10.501103" timestamp="2018-09-13T11:42:50Z" uid="4198735" user="michalzz" version="1" />
	<node changeset="62549042" id="5903821956" lat="59.24463" lon="10.5009234" timestamp="2018-09-13T11:42:50Z" uid="4198735" user="michalzz" version="1" />
	<node changeset="62549042" id="5903821957" lat="59.2443877" lon="10.5014271" timestamp="2018-09-13T11:42:50Z" uid="4198735" user="michalzz" version="1" />
	<node changeset="62549042" id="5903821958" lat="59.2445065" lon="10.5012349" timestamp="2018-09-13T11:42:50Z" uid="4198735" user="michalzz" version="1" />
	<node changeset="62549042" id="5903821959" lat="59.2439509" lon="10.503174" timestamp="2018-09-13T11:42:50Z" uid="4198735" user="michalzz" version="1" />
	<node changeset="62549042" id="5903821960" lat="59.2437318" lon="10.503481" timestamp="2018-09-13T11:42:50Z" uid="4198735" user="michalzz" version="1" />
	<node changeset="62549042" id="5903821961" lat="59.2435522" lon="10.5041029" timestamp="2018-09-13T11:42:50Z" uid="4198735" user="michalzz" version="1" />
	<node changeset="62549042" id="5903821962" lat="59.2434642" lon="10.5048382" timestamp="2018-09-13T11:42:50Z" uid="4198735" user="michalzz" version="1" />
	<node changeset="62549042" id="5903821963" lat="59.2435503" lon="10.504585" timestamp="2018-09-13T11:42:50Z" uid="4198735" user="michalzz" version="1" />
	<node changeset="62549042" id="5903821964" lat="59.243883" lon="10.5063898" timestamp="2018-09-13T11:42:50Z" uid="4198735" user="michalzz" version="1" />
	<node changeset="62549042" id="5903821965" lat="59.2439455" lon="10.5064746" timestamp="2018-09-13T11:42:50Z" uid="4198735" user="michalzz" version="1" />
	<node changeset="62549042" id="5903821966" lat="59.2440537" lon="10.5063463" timestamp="2018-09-13T11:42:50Z" uid="4198735" user="michalzz" version="1" />
	<node changeset="62549042" id="5903821967" lat="59.243904" lon="10.5064442" timestamp="2018-09-13T11:42:50Z" uid="4198735" user="michalzz" version="1" />
	<node changeset="62549042" id="5903821968" lat="59.2439931" lon="10.506064" timestamp="2018-09-13T11:42:50Z" uid="4198735" user="michalzz" version="1" />
	<node changeset="62549042" id="5903821969" lat="59.2439689" lon="10.506239" timestamp="2018-09-13T11:42:50Z" uid="4198735" user="michalzz" version="1" />
	<node changeset="62549042" id="5903821970" lat="59.2442307" lon="10.5062755" timestamp="2018-09-13T11:42:50Z" uid="4198735" user="michalzz" version="1" />
	<node changeset="62549042" id="5903821971" lat="59.2449901" lon="10.5074441" timestamp="2018-09-13T11:42:50Z" uid="4198735" user="michalzz" version="1" />
	<node changeset="62549042" id="5903821972" lat="59.2453703" lon="10.5078306" timestamp="2018-09-13T11:42:50Z" uid="4198735" user="michalzz" version="1" />
	<node changeset="62549042" id="5903821973" lat="59.2457987" lon="10.5087164" timestamp="2018-09-13T11:42:50Z" uid="4198735" user="michalzz" version="1" />
	<node changeset="62549042" id="5903821974" lat="59.2457914" lon="10.508576" timestamp="2018-09-13T11:42:50Z" uid="4198735" user="michalzz" version="1" />
	<node changeset="62549042" id="5903821975" lat="59.2464997" lon="10.5092134" timestamp="2018-09-13T11:42:50Z" uid="4198735" user="michalzz" version="1" />
	<node changeset="62549042" id="5903821976" lat="59.246366" lon="10.5092559" timestamp="2018-09-13T11:42:50Z" uid="4198735" user="michalzz" version="1" />
	<node changeset="55443152" id="5278984388" lat="59.2612714" lon="10.4979271" timestamp="2018-01-14T20:56:19Z" uid="5552262" user="Cybban" version="2" />
	<node changeset="62549042" id="5903821978" lat="59.2474472" lon="10.5097058" timestamp="2018-09-13T11:42:50Z" uid="4198735" user="michalzz" version="1" />
	<node changeset="62549042" id="5903821979" lat="59.2474642" lon="10.5095656" timestamp="2018-09-13T11:42:50Z" uid="4198735" user="michalzz" version="1" />
	<node changeset="62549042" id="5903821980" lat="59.247787" lon="10.5093604" timestamp="2018-09-13T11:42:50Z" uid="4198735" user="michalzz" version="1" />
	<node changeset="62549042" id="5903821981" lat="59.24832" lon="10.5083486" timestamp="2018-09-13T11:42:50Z" uid="4198735" user="michalzz" version="1" />
	<node changeset="62549042" id="5903821982" lat="59.2481684" lon="10.5082307" timestamp="2018-09-13T11:42:50Z" uid="4198735" user="michalzz" version="1" />
	<node changeset="62549042" id="5903821983" lat="59.2476803" lon="10.5079297" timestamp="2018-09-13T11:42:50Z" uid="4198735" user="michalzz" version="1" />
	<node changeset="62549042" id="5903821984" lat="59.2478698" lon="10.5080618" timestamp="2018-09-13T11:42:50Z" uid="4198735" user="michalzz" version="1" />
	<node changeset="55443152" id="5278984390" lat="59.2613302" lon="10.4978006" timestamp="2018-01-14T20:56:19Z" uid="5552262" user="Cybban" version="2" />
	<node changeset="62336729" id="5278989572" lat="59.2478148" lon="10.5041151" timestamp="2018-09-06T09:35:11Z" uid="4198735" user="michalzz" version="3" />
	<node changeset="55913104" id="5278989575" lat="59.2480764" lon="10.5041694" timestamp="2018-01-31T00:16:58Z" uid="5552262" user="Cybban" version="2" />
	<node changeset="55913104" id="23665946" lat="59.2435488" lon="10.5050996" timestamp="2018-01-31T00:16:55Z" uid="5552262" user="Cybban" version="4">
		<tag k="source" v="PGS(could be inacurately)" />
	</node>
	<node changeset="66049112" id="462097545" lat="59.2645527" lon="10.4000196" timestamp="2019-01-05T14:55:07Z" uid="3497659" user="NKA" version="3">
		<tag k="name" v="Kaldnes" />
		<tag k="place" v="suburb" />
		<tag k="ssr:stedsnr" v="25764" />
	</node>
	<node changeset="62549042" id="23665953" lat="59.2438998" lon="10.503434" timestamp="2018-09-13T11:42:51Z" uid="4198735" user="michalzz" version="5">
		<tag k="source" v="PGS(could be inacurately)" />
	</node>
	<node changeset="62549042" id="23665956" lat="59.2442004" lon="10.5024016" timestamp="2018-09-13T11:42:51Z" uid="4198735" user="michalzz" version="5">
		<tag k="source" v="PGS(could be inacurately)" />
	</node>
	<node changeset="62549042" id="23665958" lat="59.2443081" lon="10.5016991" timestamp="2018-09-13T11:42:51Z" uid="4198735" user="michalzz" version="5">
		<tag k="source" v="PGS(could be inacurately)" />
	</node>
	<node changeset="62549042" id="23665961" lat="59.2452404" lon="10.4995156" timestamp="2018-09-13T11:42:51Z" uid="4198735" user="michalzz" version="5">
		<tag k="source" v="PGS(could be inacurately)" />
	</node>
	<node changeset="62336729" id="23665963" lat="59.2503263" lon="10.5005098" timestamp="2018-09-06T09:35:11Z" uid="4198735" user="michalzz" version="4">
		<tag k="source" v="PGS(could be inacurately)" />
	</node>
	<node changeset="62336729" id="23665966" lat="59.2502243" lon="10.5005844" timestamp="2018-09-06T09:35:11Z" uid="4198735" user="michalzz" version="4">
		<tag k="source" v="PGS(could be inacurately)" />
	</node>
	<node changeset="62336729" id="23665968" lat="59.248766" lon="10.5011322" timestamp="2018-09-06T09:35:11Z" uid="4198735" user="michalzz" version="4">
		<tag k="source" v="PGS(could be inacurately)" />
	</node>
	<node changeset="62336729" id="23665971" lat="59.248403" lon="10.5014991" timestamp="2018-09-06T09:35:11Z" uid="4198735" user="michalzz" version="5">
		<tag k="source" v="PGS(could be inacurately)" />
	</node>
	<node changeset="62336729" id="23665973" lat="59.2480743" lon="10.502188" timestamp="2018-09-06T09:35:11Z" uid="4198735" user="michalzz" version="5">
		<tag k="source" v="PGS(could be inacurately)" />
	</node>
	<node changeset="38851679" id="23665975" lat="59.2477929" lon="10.5032188" timestamp="2016-04-25T09:23:47Z" uid="1741239" user="freewaretips" version="3">
		<tag k="source" v="PGS(could be inacurately)" />
	</node>
	<node changeset="55913104" id="23665976" lat="59.248122" lon="10.5042088" timestamp="2018-01-31T00:16:56Z" uid="5552262" user="Cybban" version="4">
		<tag k="source" v="PGS(could be inacurately)" />
	</node>
	<node changeset="62549042" id="23665977" lat="59.2476872" lon="10.5043351" timestamp="2018-09-13T11:42:52Z" uid="4198735" user="michalzz" version="5">
		<tag k="source" v="PGS(could be inacurately)" />
	</node>
	<node changeset="62549042" id="23665978" lat="59.2479697" lon="10.5051487" timestamp="2018-09-13T11:42:52Z" uid="4198735" user="michalzz" version="4">
		<tag k="source" v="PGS(could be inacurately)" />
	</node>
	<node changeset="62549042" id="23665981" lat="59.2475669" lon="10.5053072" timestamp="2018-09-13T11:42:52Z" uid="4198735" user="michalzz" version="5">
		<tag k="source" v="PGS(could be inacurately)" />
	</node>
	<node changeset="62549042" id="23665983" lat="59.2472963" lon="10.5058377" timestamp="2018-09-13T11:42:52Z" uid="4198735" user="michalzz" version="5">
		<tag k="source" v="PGS(could be inacurately)" />
	</node>
	<node changeset="62549042" id="23665985" lat="59.2476766" lon="10.5063846" timestamp="2018-09-13T11:42:52Z" uid="4198735" user="michalzz" version="5">
		<tag k="source" v="PGS(could be inacurately)" />
	</node>
	<node changeset="62549042" id="23665987" lat="59.247336" lon="10.5070423" timestamp="2018-09-13T11:42:52Z" uid="4198735" user="michalzz" version="5">
		<tag k="source" v="PGS(could be inacurately)" />
	</node>
	<node changeset="62549042" id="23665990" lat="59.2474199" lon="10.5079091" timestamp="2018-09-13T11:42:52Z" uid="4198735" user="michalzz" version="4">
		<tag k="source" v="PGS(could be inacurately)" />
	</node>
	<node changeset="62549042" id="23665992" lat="59.2475035" lon="10.5081192" timestamp="2018-09-13T11:42:52Z" uid="4198735" user="michalzz" version="4">
		<tag k="source" v="PGS(could be inacurately)" />
	</node>
	<node changeset="62549042" id="23665995" lat="59.24793" lon="10.50821" timestamp="2018-09-13T11:42:52Z" uid="4198735" user="michalzz" version="4">
		<tag k="source" v="PGS(could be inacurately)" />
	</node>
	<node changeset="55913104" id="23665997" lat="59.2483254" lon="10.5085261" timestamp="2018-01-31T00:16:56Z" uid="5552262" user="Cybban" version="4">
		<tag k="source" v="PGS(could be inacurately)" />
	</node>
	<node changeset="62549042" id="23665999" lat="59.2479279" lon="10.5089215" timestamp="2018-09-13T11:42:52Z" uid="4198735" user="michalzz" version="4">
		<tag k="source" v="PGS(could be inacurately)" />
	</node>
	<node changeset="55913104" id="23666001" lat="59.2476002" lon="10.5096263" timestamp="2018-01-31T00:16:56Z" uid="5552262" user="Cybban" version="4">
		<tag k="source" v="PGS(could be inacurately)" />
	</node>
	<node changeset="38851679" id="23666004" lat="59.2467322" lon="10.509297" timestamp="2016-04-25T09:23:47Z" uid="1741239" user="freewaretips" version="3">
		<tag k="source" v="PGS(could be inacurately)" />
	</node>
	<node changeset="38851679" id="23666006" lat="59.2455807" lon="10.5084958" timestamp="2016-04-25T09:23:47Z" uid="1741239" user="freewaretips" version="3">
		<tag k="source" v="PGS(could be inacurately)" />
	</node>
	<node changeset="62336729" id="5373746521" lat="59.2508468" lon="10.4984971" timestamp="2018-09-06T09:35:11Z" uid="4198735" user="michalzz" version="2" />
	<node changeset="62549042" id="5373746522" lat="59.2505253" lon="10.4985639" timestamp="2018-09-13T11:42:51Z" uid="4198735" user="michalzz" version="2" />
	<node changeset="62336729" id="5373746523" lat="59.250654" lon="10.4991285" timestamp="2018-09-06T09:35:11Z" uid="4198735" user="michalzz" version="2" />
	<node changeset="62336729" id="5373746524" lat="59.2506936" lon="10.4994043" timestamp="2018-09-06T09:35:11Z" uid="4198735" user="michalzz" version="2" />
	<node changeset="62336729" id="5373746525" lat="59.250722" lon="10.4995792" timestamp="2018-09-06T09:35:11Z" uid="4198735" user="michalzz" version="2" />
	<node changeset="55913104" id="5373746526" lat="59.2506255" lon="10.5000798" timestamp="2018-01-31T00:16:38Z" uid="5552262" user="Cybban" version="1" />
	<node changeset="62336729" id="5373746527" lat="59.2504052" lon="10.500353" timestamp="2018-09-06T09:35:11Z" uid="4198735" user="michalzz" version="2" />
	<node changeset="62336729" id="5373746528" lat="59.2496087" lon="10.5012659" timestamp="2018-09-06T09:35:11Z" uid="4198735" user="michalzz" version="2" />
	<node changeset="62336729" id="5373746529" lat="59.2491835" lon="10.5013579" timestamp="2018-09-06T09:35:11Z" uid="4198735" user="michalzz" version="2" />
	<node changeset="55913104" id="5373746530" lat="59.2476454" lon="10.5038175" timestamp="2018-01-31T00:16:38Z" uid="5552262" user="Cybban" version="1" />
	<node changeset="62549042" id="5373746531" lat="59.2476297" lon="10.506253" timestamp="2018-09-13T11:42:52Z" uid="4198735" user="michalzz" version="2" />
	<node changeset="62549042" id="5373746532" lat="59.2472517" lon="10.5067377" timestamp="2018-09-13T11:42:52Z" uid="4198735" user="michalzz" version="2" />
	<node changeset="62549042" id="23666021" lat="59.2440808" lon="10.5062882" timestamp="2018-09-13T11:42:51Z" uid="4198735" user="michalzz" version="5">
		<tag k="source" v="PGS(could be inacurately)" />
	</node>
	<node changeset="55913104" id="5373746534" lat="59.2482488" lon="10.5083437" timestamp="2018-01-31T00:16:38Z" uid="5552262" user="Cybban" version="1" />
	<node changeset="55913104" id="5373746535" lat="59.2481014" lon="10.508789" timestamp="2018-01-31T00:16:38Z" uid="5552262" user="Cybban" version="1" />
	<node changeset="62549042" id="5373746536" lat="59.2480024" lon="10.5087789" timestamp="2018-09-13T11:42:51Z" uid="4198735" user="michalzz" version="2" />
	<node changeset="62549042" id="5373746537" lat="59.2478341" lon="10.5090445" timestamp="2018-09-13T11:42:51Z" uid="4198735" user="michalzz" version="2" />
	<node changeset="62549042" id="5373746540" lat="59.2471177" lon="10.5095065" timestamp="2018-09-13T11:42:51Z" uid="4198735" user="michalzz" version="2" />
	<node changeset="55913104" id="5373746541" lat="59.2468012" lon="10.5095977" timestamp="2018-01-31T00:16:38Z" uid="5552262" user="Cybban" version="1" />
	<node changeset="62549042" id="5373746542" lat="59.2454657" lon="10.5082174" timestamp="2018-09-13T11:42:51Z" uid="4198735" user="michalzz" version="2" />
	<node changeset="62549042" id="5373746543" lat="59.244469" lon="10.5065359" timestamp="2018-09-13T11:42:51Z" uid="4198735" user="michalzz" version="2" />
	<node changeset="55913104" id="5373746544" lat="59.2440457" lon="10.505915" timestamp="2018-01-31T00:16:38Z" uid="5552262" user="Cybban" version="1" />
	<node changeset="55913104" id="5373746545" lat="59.2439305" lon="10.5056682" timestamp="2018-01-31T00:16:38Z" uid="5552262" user="Cybban" version="1" />
	<node changeset="55913104" id="5373746546" lat="59.2437988" lon="10.5055824" timestamp="2018-01-31T00:16:38Z" uid="5552262" user="Cybban" version="1" />
	<node changeset="62549042" id="5373746547" lat="59.2440769" lon="10.5026227" timestamp="2018-09-13T11:42:51Z" uid="4198735" user="michalzz" version="2" />
	<node changeset="62549042" id="5373746548" lat="59.2454808" lon="10.4991358" timestamp="2018-09-13T11:42:51Z" uid="4198735" user="michalzz" version="2" />
	<node changeset="62549042" id="5373746549" lat="59.2457105" lon="10.4990305" timestamp="2018-09-13T11:42:51Z" uid="4198735" user="michalzz" version="2" />
	<node changeset="62549042" id="5373746550" lat="59.2461279" lon="10.4982554" timestamp="2018-09-13T11:42:51Z" uid="4198735" user="michalzz" version="2" />
	<node changeset="62549042" id="5373746551" lat="59.245936" lon="10.49862" timestamp="2018-09-13T11:42:51Z" uid="4198735" user="michalzz" version="2" />
	<node changeset="66049112" id="6185898220" lat="59.2952639" lon="10.4504833" timestamp="2019-01-05T14:55:01Z" uid="3497659" user="NKA" version="1">
		<tag k="name" v="Basberg" />
		<tag k="place" v="farm" />
		<tag k="ssr:stedsnr" v="207794" />
		<tag k="ssr:type" v="bruk" />
	</node>
	<node changeset="78898967" id="31264143" lat="59.2677363" lon="10.4080715" timestamp="2019-12-26T21:57:11Z" uid="3497659" user="NKA" version="11">
		<tag k="name" v="Tønsberg" />
		<tag k="name:ru" v="Тёнсберг" />
		<tag k="place" v="town" />
		<tag k="population" v="34335" />
		<tag k="population:date" v="2017-01-01" />
		<tag k="source" v="earth-info.nga.mil" />
		<tag k="ssr:stedsnr" v="792644" />
		<tag k="ssr:type" v="by" />
		<tag k="wikidata" v="Q107392" />
	</node>
	<node changeset="38851679" id="4146341284" lat="59.2483033" lon="10.5031874" timestamp="2016-04-25T09:23:46Z" uid="1741239" user="freewaretips" version="1" />
	<node changeset="62336729" id="4146341285" lat="59.247981" lon="10.5026416" timestamp="2018-09-06T09:35:11Z" uid="4198735" user="michalzz" version="3" />
	<node changeset="38851679" id="4146341286" lat="59.2480735" lon="10.5033716" timestamp="2016-04-25T09:23:47Z" uid="1741239" user="freewaretips" version="1" />
	<node changeset="55913104" id="4146341287" lat="59.2477009" lon="10.5033821" timestamp="2018-01-31T00:16:57Z" uid="5552262" user="Cybban" version="2" />
	<node changeset="38851679" id="4146341288" lat="59.2482014" lon="10.5031024" timestamp="2016-04-25T09:23:47Z" uid="1741239" user="freewaretips" version="1" />
	<node changeset="55443152" id="5278984383" lat="59.2613935" lon="10.4982248" timestamp="2018-01-14T20:56:18Z" uid="5552262" user="Cybban" version="2" />
	<node changeset="55443152" id="5278984384" lat="59.2613619" lon="10.4981096" timestamp="2018-01-14T20:56:18Z" uid="5552262" user="Cybban" version="2" />
	<node changeset="55443152" id="5278984385" lat="59.2614067" lon="10.4980626" timestamp="2018-01-14T20:56:18Z" uid="5552262" user="Cybban" version="2" />
	<node changeset="65998035" id="6181694961" lat="59.2677806" lon="10.4081222" timestamp="2019-01-03T18:24:06Z" uid="3497659" user="NKA" version="1">
		<tag k="name" v="Torget" />
		<tag k="place" v="square" />
		<tag k="ssr:stedsnr" v="56303" />
		<tag k="ssr:type" v="torg" />
	</node>
	<node changeset="55443152" id="5278984386" lat="59.2613711" lon="10.4979327" timestamp="2018-01-14T20:56:18Z" uid="5552262" user="Cybban" version="2" />
	<node changeset="55443152" id="5278984387" lat="59.2612949" lon="10.4980128" timestamp="2018-01-14T20:56:19Z" uid="5552262" user="Cybban" version="2" />
	<node changeset="66049112" id="5421094465" lat="59.2627986" lon="10.3627871" timestamp="2019-01-05T14:55:08Z" uid="3497659" user="NKA" version="3">
		<tag k="name" v="Vear" />
		<tag k="place" v="suburb" />
		<tag k="population" v="3642" />
		<tag k="population:date" v="2017-01-01" />
		<tag k="ssr:stedsnr" v="25390" />
		<tag k="ssr:type" v="tettsted" />
	</node>
	<node changeset="66049112" id="598619716" lat="59.2821273" lon="10.3301166" timestamp="2019-01-05T14:55:07Z" uid="3497659" user="NKA" version="5">
		<tag k="name" v="Sem" />
		<tag k="place" v="village" />
		<tag k="population" v="2481" />
		<tag k="population:date" v="2017-01-01" />
		<tag k="ssr:stedsnr" v="3854" />
		<tag k="ssr:type" v="tettsted" />
	</node>
	<node changeset="55443152" id="5278984389" lat="59.261344" lon="10.4978509" timestamp="2018-01-14T20:56:19Z" uid="5552262" user="Cybban" version="2" />
	<node changeset="62549042" id="23665948" lat="59.2435617" lon="10.5036806" timestamp="2018-09-13T11:42:51Z" uid="4198735" user="michalzz" version="5">
		<tag k="source" v="PGS(could be inacurately)" />
	</node>
	<node changeset="62549042" id="5373746533" lat="59.2472855" lon="10.5078629" timestamp="2018-09-13T11:42:52Z" uid="4198735" user="michalzz" version="2" />
	<node changeset="66579344" id="681633565" lat="59.2389718" lon="10.4635867" timestamp="2019-01-23T19:04:28Z" uid="3497659" user="NKA" version="3">
		<tag k="alt_name" v="Husøysund" />
		<tag k="name" v="Husøy" />
		<tag k="place" v="village" />
		<tag k="ssr:stedsnr" v="985032" />
		<tag k="ssr:type" v="eiendom" />
	</node>
	<node changeset="55913104" id="4146341689" lat="59.2476858" lon="10.504202" timestamp="2018-01-31T00:16:57Z" uid="5552262" user="Cybban" version="2" />
	<node changeset="38851679" id="4146341690" lat="59.247952" lon="10.5040954" timestamp="2016-04-25T09:23:47Z" uid="1741239" user="freewaretips" version="1" />
	<node changeset="62549042" id="4146341691" lat="59.2473158" lon="10.5064464" timestamp="2018-09-13T11:42:52Z" uid="4198735" user="michalzz" version="3" />
	<node changeset="62549042" id="4146341692" lat="59.247331" lon="10.5062319" timestamp="2018-09-13T11:42:52Z" uid="4198735" user="michalzz" version="2" />
	<node changeset="62549042" id="4146341693" lat="59.2477159" lon="10.5046367" timestamp="2018-09-13T11:42:52Z" uid="4198735" user="michalzz" version="2" />
	<node changeset="62549042" id="4146341694" lat="59.2481475" lon="10.5045394" timestamp="2018-09-13T11:42:52Z" uid="4198735" user="michalzz" version="3" />
	<node changeset="62549042" id="4146341695" lat="59.247635" lon="10.5051952" timestamp="2018-09-13T11:42:52Z" uid="4198735" user="michalzz" version="3" />
	<node changeset="38851679" id="4146341696" lat="59.2479496" lon="10.5033536" timestamp="2016-04-25T09:23:47Z" uid="1741239" user="freewaretips" version="1" />
	<node changeset="62336729" id="4146341697" lat="59.2480585" lon="10.5030514" timestamp="2018-09-06T09:35:11Z" uid="4198735" user="michalzz" version="3" />
	<node changeset="55913104" id="4146341699" lat="59.247706" lon="10.5095397" timestamp="2018-01-31T00:16:57Z" uid="5552262" user="Cybban" version="2" />
	<node changeset="55913104" id="4146341700" lat="59.2466713" lon="10.5094998" timestamp="2018-01-31T00:16:57Z" uid="5552262" user="Cybban" version="2" />
	<node changeset="38851679" id="4146341701" lat="59.246259" lon="10.5092181" timestamp="2016-04-25T09:23:47Z" uid="1741239" user="freewaretips" version="1" />
	<node changeset="66049112" id="5799710593" lat="59.2772916" lon="10.4844224" timestamp="2019-01-05T14:55:09Z" uid="3497659" user="NKA" version="2">
		<tag k="name" v="Gårdbo" />
		<tag k="place" v="suburb" />
		<tag k="ssr:stedsnr" v="85700" />
		<tag k="ssr:type" v="tettbebyggelse" />
	</node>
	<node changeset="55913104" id="5373747136" lat="59.2480534" lon="10.5042949" timestamp="2018-01-31T00:16:46Z" uid="5552262" user="Cybban" version="1" />
	<way changeset="66049112" id="546253675" timestamp="2019-01-05T14:55:10Z" uid="3497659" user="NKA" version="2">
		<tag k="building" v="industrial" />
		<tag k="man_made" v="wastewater_plant" />
		<tag k="name" v="Tau renseanlegg" />
		<tag k="ssr:stedsnr" v="694177" />
		<tag k="ssr:type" v="industriområde" />
		<nd ref="5278984373" />
		<nd ref="5278984374" />
		<nd ref="5278984375" />
		<nd ref="5278984376" />
		<nd ref="5278984377" />
		<nd ref="5278984378" />
		<nd ref="5278984379" />
		<nd ref="5278984380" />
		<nd ref="5278984381" />
		<nd ref="5278984382" />
		<nd ref="5278984383" />
		<nd ref="5278984384" />
		<nd ref="5278984385" />
		<nd ref="5278984386" />
		<nd ref="5278984387" />
		<nd ref="5278984388" />
		<nd ref="5278984389" />
		<nd ref="5278984390" />
		<nd ref="5278984373" />
	</way>
	<way changeset="76549125" id="4157091" timestamp="2019-11-03T11:54:31Z" uid="7223593" user="hros" version="13">
		<tag k="name" v="Torgersøya" />
		<tag k="natural" v="coastline" />
		<tag k="place" v="island" />
		<tag k="source" v="PGS(could be inacurately)" />
		<tag k="ssr:stedsnr" v="985034" />
		<tag k="ssr:type" v="eiendom" />
		<tag k="wikidata" v="Q19392791" />
		<nd ref="23623718" />
		<nd ref="23623713" />
		<nd ref="5373746020" />
		<nd ref="23623710" />
		<nd ref="23623709" />
		<nd ref="5373746018" />
		<nd ref="5373746019" />
		<nd ref="5903821943" />
		<nd ref="5903821942" />
		<nd ref="5903821944" />
		<nd ref="23623708" />
		<nd ref="5903821947" />
		<nd ref="5903821945" />
		<nd ref="5903821946" />
		<nd ref="5903821949" />
		<nd ref="5903821948" />
		<nd ref="23623698" />
		<nd ref="5373746550" />
		<nd ref="5373746551" />
		<nd ref="23623684" />
		<nd ref="5373746549" />
		<nd ref="5903821950" />
		<nd ref="5373746548" />
		<nd ref="5903821951" />
		<nd ref="23623682" />
		<nd ref="23665961" />
		<nd ref="5903821953" />
		<nd ref="5903821954" />
		<nd ref="5903821952" />
		<nd ref="5903821956" />
		<nd ref="5903821955" />
		<nd ref="5903821958" />
		<nd ref="5903821957" />
		<nd ref="23665958" />
		<nd ref="23665956" />
		<nd ref="5373746547" />
		<nd ref="5903821959" />
		<nd ref="23665953" />
		<nd ref="5903821960" />
		<nd ref="23665948" />
		<nd ref="5903821961" />
		<nd ref="5903821963" />
		<nd ref="5903821962" />
		<nd ref="23665946" />
		<nd ref="23666023" />
		<nd ref="5373746546" />
		<nd ref="5373746545" />
		<nd ref="5373746544" />
		<nd ref="5903821968" />
		<nd ref="5903821969" />
		<nd ref="5903821964" />
		<nd ref="5903821967" />
		<nd ref="5903821965" />
		<nd ref="5903821966" />
		<nd ref="23666021" />
		<nd ref="5903821970" />
		<nd ref="5373746543" />
		<nd ref="23666016" />
		<nd ref="5903821971" />
		<nd ref="23666013" />
		<nd ref="5903821972" />
		<nd ref="23666011" />
		<nd ref="5373746542" />
		<nd ref="23666006" />
		<nd ref="5903821974" />
		<nd ref="5903821973" />
		<nd ref="4146341701" />
		<nd ref="5903821976" />
		<nd ref="5903821975" />
		<nd ref="23666004" />
		<nd ref="4146341700" />
		<nd ref="5373746541" />
		<nd ref="5373746540" />
		<nd ref="5903821977" />
		<nd ref="5903821978" />
		<nd ref="5903821979" />
		<nd ref="23666001" />
		<nd ref="4146341699" />
		<nd ref="5903821980" />
		<nd ref="5373746537" />
		<nd ref="23665999" />
		<nd ref="5373746536" />
		<nd ref="5373746535" />
		<nd ref="23665997" />
		<nd ref="5903821981" />
		<nd ref="5373746534" />
		<nd ref="5903821982" />
		<nd ref="23665995" />
		<nd ref="5903821984" />
		<nd ref="5903821983" />
		<nd ref="23665992" />
		<nd ref="23665990" />
		<nd ref="5373746533" />
		<nd ref="5903822987" />
		<nd ref="5903822988" />
		<nd ref="23665987" />
		<nd ref="5903822986" />
		<nd ref="5373746532" />
		<nd ref="4146341691" />
		<nd ref="23665985" />
		<nd ref="5373746531" />
		<nd ref="4146341692" />
		<nd ref="5903822985" />
		<nd ref="23665983" />
		<nd ref="5903822992" />
		<nd ref="5903822989" />
		<nd ref="5903822990" />
		<nd ref="5903822991" />
		<nd ref="23665981" />
		<nd ref="4146341695" />
		<nd ref="5903822994" />
		<nd ref="5903822993" />
		<nd ref="5903822995" />
		<nd ref="23665978" />
		<nd ref="5903822998" />
		<nd ref="5903823001" />
		<nd ref="5903822997" />
		<nd ref="5903823000" />
		<nd ref="5903822999" />
		<nd ref="5903822996" />
		<nd ref="4146341694" />
		<nd ref="5903823003" />
		<nd ref="5903823004" />
		<nd ref="4146341693" />
		<nd ref="23665977" />
		<nd ref="5903823002" />
		<nd ref="5373747136" />
		<nd ref="23665976" />
		<nd ref="5278989575" />
		<nd ref="4146341690" />
		<nd ref="5278989572" />
		<nd ref="4146341689" />
		<nd ref="5373746530" />
		<nd ref="4146341287" />
		<nd ref="23665975" />
		<nd ref="4146341696" />
		<nd ref="4146341286" />
		<nd ref="4146341284" />
		<nd ref="5887334752" />
		<nd ref="5887334751" />
		<nd ref="5887334753" />
		<nd ref="4146341288" />
		<nd ref="4146341697" />
		<nd ref="5887334750" />
		<nd ref="5887334748" />
		<nd ref="5887334747" />
		<nd ref="5887334749" />
		<nd ref="5887334746" />
		<nd ref="4146341285" />
		<nd ref="23665973" />
		<nd ref="23665971" />
		<nd ref="5903922114" />
		<nd ref="5887334745" />
		<nd ref="23665968" />
		<nd ref="5887334744" />
		<nd ref="5373746529" />
		<nd ref="5373746528" />
		<nd ref="5887334743" />
		<nd ref="5887334741" />
		<nd ref="5887334742" />
		<nd ref="23665966" />
		<nd ref="5887334740" />
		<nd ref="23665963" />
		<nd ref="5887334738" />
		<nd ref="5887334739" />
		<nd ref="5373746527" />
		<nd ref="5903921648" />
		<nd ref="5373746526" />
		<nd ref="5887334737" />
		<nd ref="5373746525" />
		<nd ref="5373746524" />
		<nd ref="23623730" />
		<nd ref="5373746523" />
		<nd ref="5903921636" />
		<nd ref="23623728" />
		<nd ref="5887334734" />
		<nd ref="5887334736" />
		<nd ref="5887334735" />
		<nd ref="5373746521" />
		<nd ref="5903921633" />
		<nd ref="5373746522" />
		<nd ref="23623723" />
		<nd ref="23623720" />
		<nd ref="23623718" />
	</way>
</osm>
