<?xml version="1.0" encoding="UTF-8"?>
<osm version="0.6" generator="osmapis">
	<node lat="62.64514444576212" lon="12.042530564769615" id="-83407">
		<tag k="old_name" v="Krokvegen" />
		<tag k="ssr:date" v="2020-02-14" />
		<tag k="ssr:gruppe" v="veg" />
		<tag k="ssr:hovedgruppe" v="infrastruktur" />
		<tag k="ssr:stedsnr" v="285286" />
		<tag k="ssr:type" v="vegstrekning" />
	</node>
	<node lat="62.69520000146989" lon="11.877708335117443" id="-84236">
		<tag k="old_name" v="Torsvollvegen" />
		<tag k="ssr:date" v="2020-02-14" />
		<tag k="ssr:gruppe" v="veg" />
		<tag k="ssr:hovedgruppe" v="infrastruktur" />
		<tag k="ssr:stedsnr" v="589862" />
		<tag k="ssr:type" v="vegstrekning" />
	</node>
	<node lat="62.57641389316128" lon="11.542950009095435" id="-84293">
		<tag k="old_name" v="Pantslåttvegen" />
		<tag k="ssr:date" v="2020-02-14" />
		<tag k="ssr:gruppe" v="veg" />
		<tag k="ssr:hovedgruppe" v="infrastruktur" />
		<tag k="ssr:stedsnr" v="644805" />
		<tag k="ssr:type" v="vegstrekning" />
	</node>
	<node lat="62.613313889989676" lon="11.282841658404587" id="-84328">
		<tag k="old_name" v="Tverr-rødalsvegen" />
		<tag k="ssr:date" v="2020-02-14" />
		<tag k="ssr:gruppe" v="veg" />
		<tag k="ssr:hovedgruppe" v="infrastruktur" />
		<tag k="ssr:stedsnr" v="649449" />
		<tag k="ssr:type" v="vegstrekning" />
	</node>
	<node lat="62.699922222982366" lon="11.838780547617327" id="-84563">
		<tag k="old_name" v="Nyvollvegen" />
		<tag k="ssr:date" v="2020-02-14" />
		<tag k="ssr:gruppe" v="veg" />
		<tag k="ssr:hovedgruppe" v="infrastruktur" />
		<tag k="ssr:stedsnr" v="893785" />
		<tag k="ssr:type" v="vegstrekning" />
	</node>
	<node lat="62.51244166699592" lon="11.556444439010336" id="-86186">
		<tag k="old_name" v="Gamle Hådalsvegen" />
		<tag k="ssr:date" v="2020-02-14" />
		<tag k="ssr:gruppe" v="veg" />
		<tag k="ssr:hovedgruppe" v="infrastruktur" />
		<tag k="ssr:stedsnr" v="346846" />
		<tag k="ssr:type" v="vegstrekning" />
	</node>
	<node lat="62.69392499882914" lon="11.359083330394993" id="-86814">
		<tag k="old_name" v="Arvdalsbanen;Arvdalslinja" />
		<tag k="ssr:date" v="2020-02-14" />
		<tag k="ssr:gruppe" v="bane" />
		<tag k="ssr:hovedgruppe" v="infrastruktur" />
		<tag k="ssr:stedsnr" v="604788" />
		<tag k="ssr:type" v="banestrekning" />
	</node>
	<node lat="62.57481111241806" lon="11.460986104905889" id="-86873">
		<tag k="old_name" v="Skåkåsvegen" />
		<tag k="ssr:date" v="2020-02-14" />
		<tag k="ssr:gruppe" v="veg" />
		<tag k="ssr:hovedgruppe" v="infrastruktur" />
		<tag k="ssr:stedsnr" v="645021" />
		<tag k="ssr:type" v="vegstrekning" />
	</node>
</osm>
