<?xml version="1.0" encoding="UTF-8"?>
<osm generator="osmapis" version="0.6">
	<node id="-852765" lat="62.4609918103" lon="11.6494803668">
		<tag k="name" v="Grådalsveien" />
		<tag k="ssr:date" v="2019-11-21" />
		<tag k="ssr:gruppe" v="veg" />
		<tag k="ssr:hovedgruppe" v="infrastruktur" />
		<tag k="ssr:stedsnr" v="1073273" />
		<tag k="ssr:type" v="vegstrekning" />
	</node>
	<node id="-855289" lat="62.7530805552" lon="11.8324111168">
		<tag k="name" v="Brentvollveien" />
		<tag k="ssr:date" v="2018-01-09" />
		<tag k="ssr:gruppe" v="veg" />
		<tag k="ssr:hovedgruppe" v="infrastruktur" />
		<tag k="ssr:stedsnr" v="969887" />
		<tag k="ssr:type" v="vegstrekning" />
	</node>
	<node id="-856341" lat="62.5753444404" lon="11.3879638801">
		<tag k="name" v="Røros kommune" />
		<tag k="ssr:date" v="2018-01-09" />
		<tag k="ssr:gruppe" v="administrativeIndelinger" />
		<tag k="ssr:hovedgruppe" v="offentligAdministrasjon" />
		<tag k="ssr:stedsnr" v="25084" />
		<tag k="ssr:type" v="kommune" />
	</node>
	<node id="-857329" lat="62.6540039015" lon="11.139125013">
		<tag k="name" v="Skårrveien" />
		<tag k="ssr:date" v="2019-05-30" />
		<tag k="ssr:gruppe" v="veg" />
		<tag k="ssr:hovedgruppe" v="infrastruktur" />
		<tag k="ssr:stedsnr" v="1026371" />
		<tag k="ssr:type" v="adressenavn" />
	</node>
	<node id="-853103" lat="62.4217805597" lon="11.9430194448">
		<tag k="name" v="Nordvika" />
		<tag k="ssr:date" v="2019-05-30" />
		<tag k="ssr:gruppe" v="veg" />
		<tag k="ssr:hovedgruppe" v="infrastruktur" />
		<tag k="ssr:stedsnr" v="402772" />
		<tag k="ssr:type" v="adressenavn" />
	</node>
	<node id="-854030" lat="62.415816665" lon="11.900552768">
		<tag k="name" v="Synnervika" />
		<tag k="ssr:date" v="2019-05-30" />
		<tag k="ssr:gruppe" v="veg" />
		<tag k="ssr:hovedgruppe" v="infrastruktur" />
		<tag k="ssr:stedsnr" v="159789" />
		<tag k="ssr:type" v="adressenavn" />
	</node>
	<node id="-857322" lat="64.0144468016" lon="11.4818866293">
		<tag k="fixme" v="multiple name tags, choose one and add the other to alt_name" />
		<tag k="name" v="Trøndelag fylke - Trööndelage;Trööndelagen fylhke" />
		<tag k="name:no" v="Trøndelag fylke" />
		<tag k="name:sma" v="Trööndelage;Trööndelagen fylhke" />
		<tag k="ssr:date" v="2019-11-14" />
		<tag k="ssr:gruppe" v="administrativeIndelinger" />
		<tag k="ssr:hovedgruppe" v="offentligAdministrasjon" />
		<tag k="ssr:stedsnr" v="980645" />
		<tag k="ssr:type" v="fylke" />
	</node>
	<node id="-855077" lat="62.6008833361" lon="11.4580694438">
		<tag k="name" v="Gruvvegen" />
		<tag k="ssr:date" v="2018-01-09" />
		<tag k="ssr:gruppe" v="veg" />
		<tag k="ssr:hovedgruppe" v="infrastruktur" />
		<tag k="ssr:stedsnr" v="406094" />
		<tag k="ssr:type" v="vegstrekning" />
	</node>
	<node id="-855107" lat="62.4557166644" lon="11.5437972188">
		<tag k="name" v="Grådalsvegen" />
		<tag k="ssr:date" v="2018-01-09" />
		<tag k="ssr:gruppe" v="veg" />
		<tag k="ssr:hovedgruppe" v="infrastruktur" />
		<tag k="ssr:stedsnr" v="710264" />
		<tag k="ssr:type" v="vegstrekning" />
	</node>
	<node id="-856194" lat="62.7032222201" lon="11.7691750028">
		<tag k="name" v="Notåsvegen" />
		<tag k="ssr:date" v="2018-01-09" />
		<tag k="ssr:gruppe" v="veg" />
		<tag k="ssr:hovedgruppe" v="infrastruktur" />
		<tag k="ssr:stedsnr" v="43749" />
		<tag k="ssr:type" v="vegstrekning" />
	</node>
</osm>
