<?xml version="1.0" encoding="UTF-8"?>
<osm version="0.6" generator="osmapis">
	<node lat="60.04663088851482" lon="9.639788443582825" id="-33186">
		<tag k="name" v="Bjørkealleen" />
		<tag k="ssr:date" v="2019-12-27" />
		<tag k="ssr:gruppe" v="veg" />
		<tag k="ssr:hovedgruppe" v="infrastruktur" />
		<tag k="ssr:stedsnr" v="283583" />
		<tag k="ssr:type" v="adressenavn" />
	</node>
	<node lat="60.14644721846945" lon="9.34935556395813" id="-33834">
		<tag k="name" v="Nedalsdelet" />
		<tag k="ssr:date" v="2019-12-27" />
		<tag k="ssr:gruppe" v="administrativeIndelinger" />
		<tag k="ssr:hovedgruppe" v="offentligAdministrasjon" />
		<tag k="ssr:stedsnr" v="698092" />
		<tag k="ssr:type" v="annenAdministrativInndeling" />
	</node>
	<node lat="60.045913890249686" lon="9.636733332243763" id="-33936">
		<tag k="name" v="Sigdal kommune" />
		<tag k="ssr:date" v="2019-12-27" />
		<tag k="ssr:gruppe" v="administrativeIndelinger" />
		<tag k="ssr:hovedgruppe" v="offentligAdministrasjon" />
		<tag k="ssr:stedsnr" v="630498" />
		<tag k="ssr:type" v="kommune" />
	</node>
	<node lat="60.04546577149177" lon="9.637115014315535" id="-34183">
		<tag k="name" v="Borgestubakken" />
		<tag k="ssr:date" v="2019-12-27" />
		<tag k="ssr:gruppe" v="veg" />
		<tag k="ssr:hovedgruppe" v="infrastruktur" />
		<tag k="ssr:stedsnr" v="760497" />
		<tag k="ssr:type" v="adressenavn" />
	</node>
	<node lat="59.96014534661199" lon="9.816800612913728" id="-34487">
		<tag k="name" v="Desarudveien" />
		<tag k="ssr:date" v="2019-12-27" />
		<tag k="ssr:gruppe" v="veg" />
		<tag k="ssr:hovedgruppe" v="infrastruktur" />
		<tag k="ssr:stedsnr" v="982673" />
		<tag k="ssr:type" v="adressenavn" />
	</node>
	<node lat="60.23916545501067" lon="9.359869402940372" id="-34488">
		<tag k="name" v="Strengåvad" />
		<tag k="ssr:date" v="2019-12-27" />
		<tag k="ssr:gruppe" v="veg" />
		<tag k="ssr:hovedgruppe" v="infrastruktur" />
		<tag k="ssr:stedsnr" v="982674" />
		<tag k="ssr:type" v="adressenavn" />
	</node>
	<node lat="60.08950810761543" lon="9.4725422952639" id="-34489">
		<tag k="name" v="Hovsmoen" />
		<tag k="ssr:date" v="2019-12-27" />
		<tag k="ssr:gruppe" v="veg" />
		<tag k="ssr:hovedgruppe" v="infrastruktur" />
		<tag k="ssr:stedsnr" v="982675" />
		<tag k="ssr:type" v="adressenavn" />
	</node>
	<node lat="60.087257123487255" lon="9.654259516556872" id="-34762">
		<tag k="name" v="Glessjøveien" />
		<tag k="ssr:date" v="2019-12-27" />
		<tag k="ssr:gruppe" v="veg" />
		<tag k="ssr:hovedgruppe" v="infrastruktur" />
		<tag k="ssr:stedsnr" v="93851" />
		<tag k="ssr:type" v="adressenavn" />
	</node>
	<node lat="60.076572221183355" lon="9.687252783581844" id="-34890">
		<tag k="name" v="Seterveien" />
		<tag k="ssr:date" v="2019-12-27" />
		<tag k="ssr:gruppe" v="veg" />
		<tag k="ssr:hovedgruppe" v="infrastruktur" />
		<tag k="ssr:stedsnr" v="153032" />
		<tag k="ssr:type" v="vegstrekning" />
	</node>
	<node lat="60.044526919220544" lon="9.64309134894538" id="-35171">
		<tag k="name" v="Solvangveien" />
		<tag k="ssr:date" v="2019-12-27" />
		<tag k="ssr:gruppe" v="veg" />
		<tag k="ssr:hovedgruppe" v="infrastruktur" />
		<tag k="ssr:stedsnr" v="300617" />
		<tag k="ssr:type" v="adressenavn" />
	</node>
	<node lat="60.04171134481289" lon="9.651389385006041" id="-35711">
		<tag k="name" v="Skartumveien" />
		<tag k="ssr:date" v="2019-12-27" />
		<tag k="ssr:gruppe" v="veg" />
		<tag k="ssr:hovedgruppe" v="infrastruktur" />
		<tag k="ssr:stedsnr" v="603596" />
		<tag k="ssr:type" v="adressenavn" />
	</node>
	<node lat="60.045145034979925" lon="9.640810276371163" id="-36473">
		<tag k="name" v="Hauganalleen" />
		<tag k="ssr:date" v="2019-12-27" />
		<tag k="ssr:gruppe" v="veg" />
		<tag k="ssr:hovedgruppe" v="infrastruktur" />
		<tag k="ssr:stedsnr" v="967582" />
		<tag k="ssr:type" v="adressenavn" />
	</node>
	<node lat="60.12795049737887" lon="9.442425141472643" id="-36478">
		<tag k="name" v="Eggedalsveien" />
		<tag k="ssr:date" v="2019-12-27" />
		<tag k="ssr:gruppe" v="veg" />
		<tag k="ssr:hovedgruppe" v="infrastruktur" />
		<tag k="ssr:stedsnr" v="976419" />
		<tag k="ssr:type" v="adressenavn" />
	</node>
	<node lat="60.24840207091802" lon="9.340363400818061" id="-36479">
		<tag k="name" v="Nordbygda" />
		<tag k="ssr:date" v="2019-12-27" />
		<tag k="ssr:gruppe" v="veg" />
		<tag k="ssr:hovedgruppe" v="infrastruktur" />
		<tag k="ssr:stedsnr" v="976420" />
		<tag k="ssr:type" v="adressenavn" />
	</node>
	<node lat="60.290329186410354" lon="9.244814464413205" id="-36480">
		<tag k="name" v="Haglebuveien" />
		<tag k="ssr:date" v="2019-12-27" />
		<tag k="ssr:gruppe" v="veg" />
		<tag k="ssr:hovedgruppe" v="infrastruktur" />
		<tag k="ssr:stedsnr" v="976421" />
		<tag k="ssr:type" v="adressenavn" />
	</node>
	<node lat="60.24846238870779" lon="9.339972125993441" id="-36481">
		<tag k="name" v="Vestbygda" />
		<tag k="ssr:date" v="2019-12-27" />
		<tag k="ssr:gruppe" v="veg" />
		<tag k="ssr:hovedgruppe" v="infrastruktur" />
		<tag k="ssr:stedsnr" v="976422" />
		<tag k="ssr:type" v="adressenavn" />
	</node>
	<node lat="60.244198040319894" lon="9.37092655511267" id="-36482">
		<tag k="name" v="Djupsjøveien" />
		<tag k="ssr:date" v="2019-12-27" />
		<tag k="ssr:gruppe" v="veg" />
		<tag k="ssr:hovedgruppe" v="infrastruktur" />
		<tag k="ssr:stedsnr" v="976423" />
		<tag k="ssr:type" v="adressenavn" />
	</node>
	<node lat="60.319888558457166" lon="9.190379167551779" id="-36483">
		<tag k="name" v="Slokoveien" />
		<tag k="ssr:date" v="2019-12-27" />
		<tag k="ssr:gruppe" v="veg" />
		<tag k="ssr:hovedgruppe" v="infrastruktur" />
		<tag k="ssr:stedsnr" v="976424" />
		<tag k="ssr:type" v="adressenavn" />
	</node>
	<node lat="60.090811696614885" lon="9.463584942549883" id="-36484">
		<tag k="name" v="Ulbergsveien" />
		<tag k="ssr:date" v="2019-12-27" />
		<tag k="ssr:gruppe" v="veg" />
		<tag k="ssr:hovedgruppe" v="infrastruktur" />
		<tag k="ssr:stedsnr" v="976425" />
		<tag k="ssr:type" v="adressenavn" />
	</node>
	<node lat="60.04534101540179" lon="9.637277980242773" id="-36486">
		<tag k="name" v="Ramstadveien" />
		<tag k="ssr:date" v="2019-12-27" />
		<tag k="ssr:gruppe" v="veg" />
		<tag k="ssr:hovedgruppe" v="infrastruktur" />
		<tag k="ssr:stedsnr" v="976427" />
		<tag k="ssr:type" v="adressenavn" />
	</node>
	<node lat="60.036406241026015" lon="9.702331019180821" id="-36487">
		<tag k="name" v="Finnerudskogen" />
		<tag k="ssr:date" v="2019-12-27" />
		<tag k="ssr:gruppe" v="veg" />
		<tag k="ssr:hovedgruppe" v="infrastruktur" />
		<tag k="ssr:stedsnr" v="976428" />
		<tag k="ssr:type" v="adressenavn" />
	</node>
	<node lat="60.06209879225853" lon="9.516044830958327" id="-36490">
		<tag k="name" v="Stubberudlia" />
		<tag k="ssr:date" v="2019-12-27" />
		<tag k="ssr:gruppe" v="veg" />
		<tag k="ssr:hovedgruppe" v="infrastruktur" />
		<tag k="ssr:stedsnr" v="976491" />
		<tag k="ssr:type" v="adressenavn" />
	</node>
	<node lat="60.04445518565802" lon="9.560205861302924" id="-36491">
		<tag k="name" v="Svarverudveien" />
		<tag k="ssr:date" v="2019-12-27" />
		<tag k="ssr:gruppe" v="veg" />
		<tag k="ssr:hovedgruppe" v="infrastruktur" />
		<tag k="ssr:stedsnr" v="976492" />
		<tag k="ssr:type" v="adressenavn" />
	</node>
	<node lat="60.038569439084334" lon="9.590417993768359" id="-36492">
		<tag k="name" v="Hagajordlia" />
		<tag k="ssr:date" v="2019-12-27" />
		<tag k="ssr:gruppe" v="veg" />
		<tag k="ssr:hovedgruppe" v="infrastruktur" />
		<tag k="ssr:stedsnr" v="976493" />
		<tag k="ssr:type" v="adressenavn" />
	</node>
	<node lat="60.035996238315896" lon="9.582554248498198" id="-36493">
		<tag k="name" v="Køssaveien" />
		<tag k="ssr:date" v="2019-12-27" />
		<tag k="ssr:gruppe" v="veg" />
		<tag k="ssr:hovedgruppe" v="infrastruktur" />
		<tag k="ssr:stedsnr" v="976494" />
		<tag k="ssr:type" v="adressenavn" />
	</node>
	<node lat="59.99997670555937" lon="9.487337244356064" id="-36496">
		<tag k="name" v="Hiåsveien" />
		<tag k="ssr:date" v="2019-12-27" />
		<tag k="ssr:gruppe" v="veg" />
		<tag k="ssr:hovedgruppe" v="infrastruktur" />
		<tag k="ssr:stedsnr" v="976497" />
		<tag k="ssr:type" v="adressenavn" />
	</node>
	<node lat="60.04294834434052" lon="9.619973652561068" id="-36498">
		<tag k="name" v="Sletteveien" />
		<tag k="ssr:date" v="2019-12-27" />
		<tag k="ssr:gruppe" v="veg" />
		<tag k="ssr:hovedgruppe" v="infrastruktur" />
		<tag k="ssr:stedsnr" v="976499" />
		<tag k="ssr:type" v="adressenavn" />
	</node>
	<node lat="60.03649992794957" lon="9.628197255477692" id="-36499">
		<tag k="name" v="Flataveien" />
		<tag k="ssr:date" v="2019-12-27" />
		<tag k="ssr:gruppe" v="veg" />
		<tag k="ssr:hovedgruppe" v="infrastruktur" />
		<tag k="ssr:stedsnr" v="976500" />
		<tag k="ssr:type" v="adressenavn" />
	</node>
	<node lat="60.041121456510574" lon="9.63704546691306" id="-36501">
		<tag k="name" v="Mollerudveien" />
		<tag k="ssr:date" v="2019-12-27" />
		<tag k="ssr:gruppe" v="veg" />
		<tag k="ssr:hovedgruppe" v="infrastruktur" />
		<tag k="ssr:stedsnr" v="976502" />
		<tag k="ssr:type" v="adressenavn" />
	</node>
	<node lat="60.04464537737976" lon="9.67781227289589" id="-36502">
		<tag k="name" v="Reistadveien" />
		<tag k="ssr:date" v="2019-12-27" />
		<tag k="ssr:gruppe" v="veg" />
		<tag k="ssr:hovedgruppe" v="infrastruktur" />
		<tag k="ssr:stedsnr" v="976504" />
		<tag k="ssr:type" v="adressenavn" />
	</node>
	<node lat="60.030924013440995" lon="9.687444935574026" id="-36503">
		<tag k="name" v="Hoffarveien" />
		<tag k="ssr:date" v="2019-12-27" />
		<tag k="ssr:gruppe" v="veg" />
		<tag k="ssr:hovedgruppe" v="infrastruktur" />
		<tag k="ssr:stedsnr" v="976506" />
		<tag k="ssr:type" v="adressenavn" />
	</node>
	<node lat="60.030584451585284" lon="9.69181460021941" id="-36504">
		<tag k="name" v="Vadsgata" />
		<tag k="ssr:date" v="2019-12-27" />
		<tag k="ssr:gruppe" v="veg" />
		<tag k="ssr:hovedgruppe" v="infrastruktur" />
		<tag k="ssr:stedsnr" v="976507" />
		<tag k="ssr:type" v="adressenavn" />
	</node>
	<node lat="60.036170124484556" lon="9.701549640783352" id="-36505">
		<tag k="name" v="Kroken" />
		<tag k="ssr:date" v="2019-12-27" />
		<tag k="ssr:gruppe" v="veg" />
		<tag k="ssr:hovedgruppe" v="infrastruktur" />
		<tag k="ssr:stedsnr" v="976508" />
		<tag k="ssr:type" v="adressenavn" />
	</node>
	<node lat="60.177317850934976" lon="9.419320643147321" id="-36506">
		<tag k="name" v="Soleveien" />
		<tag k="ssr:date" v="2019-12-27" />
		<tag k="ssr:gruppe" v="veg" />
		<tag k="ssr:hovedgruppe" v="infrastruktur" />
		<tag k="ssr:stedsnr" v="976509" />
		<tag k="ssr:type" v="adressenavn" />
	</node>
	<node lat="60.169427449859036" lon="9.385759883121258" id="-36507">
		<tag k="name" v="Grønhovdsroa" />
		<tag k="ssr:date" v="2019-12-27" />
		<tag k="ssr:gruppe" v="veg" />
		<tag k="ssr:hovedgruppe" v="infrastruktur" />
		<tag k="ssr:stedsnr" v="976510" />
		<tag k="ssr:type" v="adressenavn" />
	</node>
	<node lat="60.1465580160543" lon="9.429326655923422" id="-36508">
		<tag k="name" v="Engerveien" />
		<tag k="ssr:date" v="2019-12-27" />
		<tag k="ssr:gruppe" v="veg" />
		<tag k="ssr:hovedgruppe" v="infrastruktur" />
		<tag k="ssr:stedsnr" v="976511" />
		<tag k="ssr:type" v="adressenavn" />
	</node>
	<node lat="60.13611876557424" lon="9.415086690955022" id="-36513">
		<tag k="name" v="Bergerudveien" />
		<tag k="ssr:date" v="2019-12-27" />
		<tag k="ssr:gruppe" v="veg" />
		<tag k="ssr:hovedgruppe" v="infrastruktur" />
		<tag k="ssr:stedsnr" v="976516" />
		<tag k="ssr:type" v="adressenavn" />
	</node>
	<node lat="60.126298829893884" lon="9.291823773976716" id="-36514">
		<tag k="name" v="Nedalsveien" />
		<tag k="ssr:date" v="2019-12-27" />
		<tag k="ssr:gruppe" v="veg" />
		<tag k="ssr:hovedgruppe" v="infrastruktur" />
		<tag k="ssr:stedsnr" v="976517" />
		<tag k="ssr:type" v="adressenavn" />
	</node>
	<node lat="60.129861881713694" lon="9.440068192452125" id="-36515">
		<tag k="name" v="Halsteinrudveien" />
		<tag k="ssr:date" v="2019-12-27" />
		<tag k="ssr:gruppe" v="veg" />
		<tag k="ssr:hovedgruppe" v="infrastruktur" />
		<tag k="ssr:stedsnr" v="976518" />
		<tag k="ssr:type" v="adressenavn" />
	</node>
	<node lat="60.124995958428535" lon="9.449704586702932" id="-36516">
		<tag k="name" v="Tveitenveien" />
		<tag k="ssr:date" v="2019-12-27" />
		<tag k="ssr:gruppe" v="veg" />
		<tag k="ssr:hovedgruppe" v="infrastruktur" />
		<tag k="ssr:stedsnr" v="976519" />
		<tag k="ssr:type" v="adressenavn" />
	</node>
	<node lat="60.08950810761543" lon="9.4725422952639" id="-36518">
		<tag k="name" v="Øvre Hov" />
		<tag k="ssr:date" v="2019-12-27" />
		<tag k="ssr:gruppe" v="veg" />
		<tag k="ssr:hovedgruppe" v="infrastruktur" />
		<tag k="ssr:stedsnr" v="976521" />
		<tag k="ssr:type" v="adressenavn" />
	</node>
	<node lat="60.08915497177928" lon="9.47549976347739" id="-36519">
		<tag k="name" v="Nedre Hov" />
		<tag k="ssr:date" v="2019-12-27" />
		<tag k="ssr:gruppe" v="veg" />
		<tag k="ssr:hovedgruppe" v="infrastruktur" />
		<tag k="ssr:stedsnr" v="976523" />
		<tag k="ssr:type" v="adressenavn" />
	</node>
	<node lat="60.08849508979414" lon="9.485625756169126" id="-36520">
		<tag k="name" v="Bjøre" />
		<tag k="ssr:date" v="2019-12-27" />
		<tag k="ssr:gruppe" v="veg" />
		<tag k="ssr:hovedgruppe" v="infrastruktur" />
		<tag k="ssr:stedsnr" v="976524" />
		<tag k="ssr:type" v="adressenavn" />
	</node>
	<node lat="60.03594048964308" lon="9.674796162430827" id="-36522">
		<tag k="name" v="Tukudalen" />
		<tag k="ssr:date" v="2019-12-27" />
		<tag k="ssr:gruppe" v="veg" />
		<tag k="ssr:hovedgruppe" v="infrastruktur" />
		<tag k="ssr:stedsnr" v="976431" />
		<tag k="ssr:type" v="adressenavn" />
	</node>
	<node lat="59.95938062788405" lon="9.767203044075162" id="-36523">
		<tag k="name" v="Åbyveien" />
		<tag k="ssr:date" v="2019-12-27" />
		<tag k="ssr:gruppe" v="veg" />
		<tag k="ssr:hovedgruppe" v="infrastruktur" />
		<tag k="ssr:stedsnr" v="976432" />
		<tag k="ssr:type" v="adressenavn" />
	</node>
	<node lat="59.92460918261391" lon="9.716841497636214" id="-36524">
		<tag k="name" v="Nævraveien" />
		<tag k="ssr:date" v="2019-12-27" />
		<tag k="ssr:gruppe" v="veg" />
		<tag k="ssr:hovedgruppe" v="infrastruktur" />
		<tag k="ssr:stedsnr" v="976433" />
		<tag k="ssr:type" v="adressenavn" />
	</node>
	<node lat="59.96515828737133" lon="9.786310314305695" id="-36526">
		<tag k="name" v="Solumsveien" />
		<tag k="ssr:date" v="2019-12-27" />
		<tag k="ssr:gruppe" v="veg" />
		<tag k="ssr:hovedgruppe" v="infrastruktur" />
		<tag k="ssr:stedsnr" v="976437" />
		<tag k="ssr:type" v="adressenavn" />
	</node>
	<node lat="59.96323114156477" lon="9.780585094051844" id="-36527">
		<tag k="name" v="Strandåsen" />
		<tag k="ssr:date" v="2019-12-27" />
		<tag k="ssr:gruppe" v="veg" />
		<tag k="ssr:hovedgruppe" v="infrastruktur" />
		<tag k="ssr:stedsnr" v="976438" />
		<tag k="ssr:type" v="adressenavn" />
	</node>
	<node lat="59.9605840379542" lon="9.826133333902101" id="-36529">
		<tag k="name" v="Øverbyroa" />
		<tag k="ssr:date" v="2019-12-27" />
		<tag k="ssr:gruppe" v="veg" />
		<tag k="ssr:hovedgruppe" v="infrastruktur" />
		<tag k="ssr:stedsnr" v="976440" />
		<tag k="ssr:type" v="adressenavn" />
	</node>
	<node lat="59.97325742176818" lon="9.756497593453338" id="-36531">
		<tag k="name" v="Berganveien" />
		<tag k="ssr:date" v="2019-12-27" />
		<tag k="ssr:gruppe" v="veg" />
		<tag k="ssr:hovedgruppe" v="infrastruktur" />
		<tag k="ssr:stedsnr" v="976442" />
		<tag k="ssr:type" v="adressenavn" />
	</node>
	<node lat="59.95941151353888" lon="9.637937088543715" id="-36534">
		<tag k="name" v="Liveien" />
		<tag k="ssr:date" v="2019-12-27" />
		<tag k="ssr:gruppe" v="veg" />
		<tag k="ssr:hovedgruppe" v="infrastruktur" />
		<tag k="ssr:stedsnr" v="976445" />
		<tag k="ssr:type" v="adressenavn" />
	</node>
	<node lat="60.015529177773885" lon="9.69436068726035" id="-36537">
		<tag k="name" v="Sauerudveien" />
		<tag k="ssr:date" v="2019-12-27" />
		<tag k="ssr:gruppe" v="veg" />
		<tag k="ssr:hovedgruppe" v="infrastruktur" />
		<tag k="ssr:stedsnr" v="976457" />
		<tag k="ssr:type" v="adressenavn" />
	</node>
	<node lat="60.015133580228834" lon="9.707731395025096" id="-36538">
		<tag k="name" v="Velstad" />
		<tag k="ssr:date" v="2019-12-27" />
		<tag k="ssr:gruppe" v="veg" />
		<tag k="ssr:hovedgruppe" v="infrastruktur" />
		<tag k="ssr:stedsnr" v="976458" />
		<tag k="ssr:type" v="adressenavn" />
	</node>
	<node lat="59.991653703136144" lon="9.738913890590329" id="-36540">
		<tag k="name" v="Støaveien" />
		<tag k="ssr:date" v="2019-12-27" />
		<tag k="ssr:gruppe" v="veg" />
		<tag k="ssr:hovedgruppe" v="infrastruktur" />
		<tag k="ssr:stedsnr" v="976460" />
		<tag k="ssr:type" v="adressenavn" />
	</node>
	<node lat="59.985282320230894" lon="9.740660497634176" id="-36541">
		<tag k="name" v="Veststrømveien" />
		<tag k="ssr:date" v="2019-12-27" />
		<tag k="ssr:gruppe" v="veg" />
		<tag k="ssr:hovedgruppe" v="infrastruktur" />
		<tag k="ssr:stedsnr" v="976461" />
		<tag k="ssr:type" v="adressenavn" />
	</node>
	<node lat="59.98325410987987" lon="9.736829606390303" id="-36542">
		<tag k="name" v="Kvisleveien" />
		<tag k="ssr:date" v="2019-12-27" />
		<tag k="ssr:gruppe" v="veg" />
		<tag k="ssr:hovedgruppe" v="infrastruktur" />
		<tag k="ssr:stedsnr" v="976462" />
		<tag k="ssr:type" v="adressenavn" />
	</node>
	<node lat="60.020771096366296" lon="9.729832938766984" id="-36543">
		<tag k="name" v="Hektoa" />
		<tag k="ssr:date" v="2019-12-27" />
		<tag k="ssr:gruppe" v="veg" />
		<tag k="ssr:hovedgruppe" v="infrastruktur" />
		<tag k="ssr:stedsnr" v="976463" />
		<tag k="ssr:type" v="adressenavn" />
	</node>
	<node lat="60.01453821477504" lon="9.74159174516091" id="-36545">
		<tag k="name" v="Nordheimhagan" />
		<tag k="ssr:date" v="2019-12-27" />
		<tag k="ssr:gruppe" v="veg" />
		<tag k="ssr:hovedgruppe" v="infrastruktur" />
		<tag k="ssr:stedsnr" v="976465" />
		<tag k="ssr:type" v="adressenavn" />
	</node>
	<node lat="60.00007491469235" lon="9.758198298452518" id="-36546">
		<tag k="name" v="Østbyveien" />
		<tag k="ssr:date" v="2019-12-27" />
		<tag k="ssr:gruppe" v="veg" />
		<tag k="ssr:hovedgruppe" v="infrastruktur" />
		<tag k="ssr:stedsnr" v="976466" />
		<tag k="ssr:type" v="adressenavn" />
	</node>
	<node lat="60.007980514659224" lon="9.738674283211166" id="-36547">
		<tag k="name" v="Støvernveien" />
		<tag k="ssr:date" v="2019-12-27" />
		<tag k="ssr:gruppe" v="veg" />
		<tag k="ssr:hovedgruppe" v="infrastruktur" />
		<tag k="ssr:stedsnr" v="976467" />
		<tag k="ssr:type" v="adressenavn" />
	</node>
	<node lat="60.006226788849375" lon="9.738959358340479" id="-36549">
		<tag k="name" v="Nerstadveien" />
		<tag k="ssr:date" v="2019-12-27" />
		<tag k="ssr:gruppe" v="veg" />
		<tag k="ssr:hovedgruppe" v="infrastruktur" />
		<tag k="ssr:stedsnr" v="976469" />
		<tag k="ssr:type" v="adressenavn" />
	</node>
	<node lat="59.99101598443321" lon="9.761243152975432" id="-36554">
		<tag k="name" v="Dalenveien" />
		<tag k="ssr:date" v="2019-12-27" />
		<tag k="ssr:gruppe" v="veg" />
		<tag k="ssr:hovedgruppe" v="infrastruktur" />
		<tag k="ssr:stedsnr" v="976474" />
		<tag k="ssr:type" v="adressenavn" />
	</node>
	<node lat="60.28438587840613" lon="9.256803713987793" id="-36555">
		<tag k="name" v="Sandvasseterveien" />
		<tag k="ssr:date" v="2019-12-27" />
		<tag k="ssr:gruppe" v="veg" />
		<tag k="ssr:hovedgruppe" v="infrastruktur" />
		<tag k="ssr:stedsnr" v="976542" />
		<tag k="ssr:type" v="adressenavn" />
	</node>
	<node lat="60.27536182904507" lon="9.275147722905011" id="-36556">
		<tag k="name" v="Snårsveien" />
		<tag k="ssr:date" v="2019-12-27" />
		<tag k="ssr:gruppe" v="veg" />
		<tag k="ssr:hovedgruppe" v="infrastruktur" />
		<tag k="ssr:stedsnr" v="976543" />
		<tag k="ssr:type" v="adressenavn" />
	</node>
	<node lat="60.25754600970644" lon="9.326314016402733" id="-36561">
		<tag k="name" v="Åslandveien" />
		<tag k="ssr:date" v="2019-12-27" />
		<tag k="ssr:gruppe" v="veg" />
		<tag k="ssr:hovedgruppe" v="infrastruktur" />
		<tag k="ssr:stedsnr" v="976548" />
		<tag k="ssr:type" v="adressenavn" />
	</node>
	<node lat="60.25294630330731" lon="9.339006551470053" id="-36562">
		<tag k="name" v="Åsveien" />
		<tag k="ssr:date" v="2019-12-27" />
		<tag k="ssr:gruppe" v="veg" />
		<tag k="ssr:hovedgruppe" v="infrastruktur" />
		<tag k="ssr:stedsnr" v="976549" />
		<tag k="ssr:type" v="adressenavn" />
	</node>
	<node lat="60.23374191040009" lon="9.324389552349803" id="-36563">
		<tag k="name" v="Sølandsroa" />
		<tag k="ssr:date" v="2019-12-27" />
		<tag k="ssr:gruppe" v="veg" />
		<tag k="ssr:hovedgruppe" v="infrastruktur" />
		<tag k="ssr:stedsnr" v="976550" />
		<tag k="ssr:type" v="adressenavn" />
	</node>
	<node lat="60.250472226377596" lon="9.356358290604282" id="-36565">
		<tag k="name" v="Nedre Bergveien" />
		<tag k="ssr:date" v="2019-12-27" />
		<tag k="ssr:gruppe" v="veg" />
		<tag k="ssr:hovedgruppe" v="infrastruktur" />
		<tag k="ssr:stedsnr" v="976552" />
		<tag k="ssr:type" v="adressenavn" />
	</node>
	<node lat="60.25040694579766" lon="9.357461761818167" id="-36566">
		<tag k="name" v="Elvom" />
		<tag k="ssr:date" v="2019-12-27" />
		<tag k="ssr:gruppe" v="veg" />
		<tag k="ssr:hovedgruppe" v="infrastruktur" />
		<tag k="ssr:stedsnr" v="976553" />
		<tag k="ssr:type" v="adressenavn" />
	</node>
	<node lat="60.24275037370502" lon="9.377685986359298" id="-36568">
		<tag k="name" v="Kleivflata" />
		<tag k="ssr:date" v="2019-12-27" />
		<tag k="ssr:gruppe" v="veg" />
		<tag k="ssr:hovedgruppe" v="infrastruktur" />
		<tag k="ssr:stedsnr" v="976555" />
		<tag k="ssr:type" v="adressenavn" />
	</node>
	<node lat="60.082885246369756" lon="9.499660322489142" id="-36571">
		<tag k="name" v="Blekabergveien" />
		<tag k="ssr:date" v="2019-12-27" />
		<tag k="ssr:gruppe" v="veg" />
		<tag k="ssr:hovedgruppe" v="infrastruktur" />
		<tag k="ssr:stedsnr" v="976525" />
		<tag k="ssr:type" v="adressenavn" />
	</node>
	<node lat="60.080363230770224" lon="9.511731777526853" id="-36572">
		<tag k="name" v="Havikveien" />
		<tag k="ssr:date" v="2019-12-27" />
		<tag k="ssr:gruppe" v="veg" />
		<tag k="ssr:hovedgruppe" v="infrastruktur" />
		<tag k="ssr:stedsnr" v="976526" />
		<tag k="ssr:type" v="adressenavn" />
	</node>
	<node lat="60.081069804765924" lon="9.514152339376391" id="-36573">
		<tag k="name" v="Osveien" />
		<tag k="ssr:date" v="2019-12-27" />
		<tag k="ssr:gruppe" v="veg" />
		<tag k="ssr:hovedgruppe" v="infrastruktur" />
		<tag k="ssr:stedsnr" v="976527" />
		<tag k="ssr:type" v="adressenavn" />
	</node>
	<node lat="60.216843558690606" lon="9.369474730507585" id="-36579">
		<tag k="name" v="Tjennrønningen" />
		<tag k="ssr:date" v="2019-12-27" />
		<tag k="ssr:gruppe" v="veg" />
		<tag k="ssr:hovedgruppe" v="infrastruktur" />
		<tag k="ssr:stedsnr" v="976560" />
		<tag k="ssr:type" v="adressenavn" />
	</node>
	<node lat="60.28155342329622" lon="9.30179235092228" id="-36863">
		<tag k="name" v="Springhaugbrinken" />
		<tag k="ssr:date" v="2020-04-20" />
		<tag k="ssr:gruppe" v="veg" />
		<tag k="ssr:hovedgruppe" v="infrastruktur" />
		<tag k="ssr:stedsnr" v="1076519" />
		<tag k="ssr:type" v="adressenavn" />
	</node>
</osm>
