<?xml version="1.0" encoding="UTF-8"?>
<osm generator="osmapis" version="0.6">
	<node id="-73717" lat="60.5200305529" lon="5.27305277741">
		<tag k="name" v="Klauvaneset" />
		<tag k="ssr:date" v="2019-12-27" />
		<tag k="ssr:gruppe" v="navigasjon" />
		<tag k="ssr:hovedgruppe" v="infrastruktur" />
		<tag k="ssr:stedsnr" v="44878" />
		<tag k="ssr:type" v="fyrlykt" />
	</node>
	<node id="-75892" lat="60.2194702333" lon="5.30377173232">
		<tag k="name" v="Husanesholmen" />
		<tag k="ssr:date" v="2020-04-01" />
		<tag k="ssr:gruppe" v="veg" />
		<tag k="ssr:hovedgruppe" v="infrastruktur" />
		<tag k="ssr:stedsnr" v="1076297" />
		<tag k="ssr:type" v="adressenavn" />
	</node>
	<node id="-75891" lat="60.222967675" lon="5.33942477435">
		<tag k="name" v="Flatøyna" />
		<tag k="ssr:date" v="2020-04-01" />
		<tag k="ssr:gruppe" v="veg" />
		<tag k="ssr:hovedgruppe" v="infrastruktur" />
		<tag k="ssr:stedsnr" v="1076296" />
		<tag k="ssr:type" v="adressenavn" />
	</node>
	<node id="-75890" lat="60.2191473581" lon="5.29735823369">
		<tag k="name" v="Kjeøyna" />
		<tag k="ssr:date" v="2020-04-01" />
		<tag k="ssr:gruppe" v="veg" />
		<tag k="ssr:hovedgruppe" v="infrastruktur" />
		<tag k="ssr:stedsnr" v="1076293" />
		<tag k="ssr:type" v="adressenavn" />
	</node>
	<node id="-75889" lat="60.2426294883" lon="5.26897705182">
		<tag k="name" v="Herøy" />
		<tag k="ssr:date" v="2020-04-01" />
		<tag k="ssr:gruppe" v="veg" />
		<tag k="ssr:hovedgruppe" v="infrastruktur" />
		<tag k="ssr:stedsnr" v="1076292" />
		<tag k="ssr:type" v="adressenavn" />
	</node>
	<node id="-75888" lat="60.259850183" lon="5.29360658493">
		<tag k="name" v="Olavikholmen" />
		<tag k="ssr:date" v="2020-04-01" />
		<tag k="ssr:gruppe" v="veg" />
		<tag k="ssr:hovedgruppe" v="infrastruktur" />
		<tag k="ssr:stedsnr" v="1076291" />
		<tag k="ssr:type" v="adressenavn" />
	</node>
	<node id="-75887" lat="60.2393679001" lon="5.24609944827">
		<tag k="name" v="Store Svartholmen" />
		<tag k="ssr:date" v="2020-04-01" />
		<tag k="ssr:gruppe" v="veg" />
		<tag k="ssr:hovedgruppe" v="infrastruktur" />
		<tag k="ssr:stedsnr" v="1076290" />
		<tag k="ssr:type" v="adressenavn" />
	</node>
	<node id="-75886" lat="60.2418590716" lon="5.24424107899">
		<tag k="name" v="Klokkholmen" />
		<tag k="ssr:date" v="2020-04-01" />
		<tag k="ssr:gruppe" v="veg" />
		<tag k="ssr:hovedgruppe" v="infrastruktur" />
		<tag k="ssr:stedsnr" v="1076289" />
		<tag k="ssr:type" v="adressenavn" />
	</node>
	<node id="-75885" lat="60.2670548301" lon="5.21989079948">
		<tag k="name" v="Søre Steinskjeret" />
		<tag k="ssr:date" v="2020-04-01" />
		<tag k="ssr:gruppe" v="veg" />
		<tag k="ssr:hovedgruppe" v="infrastruktur" />
		<tag k="ssr:stedsnr" v="1076288" />
		<tag k="ssr:type" v="adressenavn" />
	</node>
	<node id="-75884" lat="60.3596839286" lon="5.17651320511">
		<tag k="name" v="Kongshavnsholmen" />
		<tag k="ssr:date" v="2020-04-01" />
		<tag k="ssr:gruppe" v="veg" />
		<tag k="ssr:hovedgruppe" v="infrastruktur" />
		<tag k="ssr:stedsnr" v="1076287" />
		<tag k="ssr:type" v="adressenavn" />
	</node>
	<node id="-75883" lat="60.4457828711" lon="5.3006728774">
		<tag k="name" v="Storøya" />
		<tag k="ssr:date" v="2020-04-01" />
		<tag k="ssr:gruppe" v="veg" />
		<tag k="ssr:hovedgruppe" v="infrastruktur" />
		<tag k="ssr:stedsnr" v="1076286" />
		<tag k="ssr:type" v="adressenavn" />
	</node>
	<node id="-75882" lat="60.4344026832" lon="5.30031289538">
		<tag k="name" v="Hellemyrstien" />
		<tag k="ssr:date" v="2020-02-20" />
		<tag k="ssr:gruppe" v="veg" />
		<tag k="ssr:hovedgruppe" v="infrastruktur" />
		<tag k="ssr:stedsnr" v="1075434" />
		<tag k="ssr:type" v="adressenavn" />
	</node>
	<node id="-75881" lat="60.2418793161" lon="5.23598652045">
		<tag k="name" v="Seløyna" />
		<tag k="ssr:date" v="2019-12-27" />
		<tag k="ssr:gruppe" v="veg" />
		<tag k="ssr:hovedgruppe" v="infrastruktur" />
		<tag k="ssr:stedsnr" v="1074414" />
		<tag k="ssr:type" v="adressenavn" />
	</node>
	<node id="-75880" lat="60.3866658713" lon="5.33255753121">
		<tag k="name" v="Vestland fylke" />
		<tag k="ssr:date" v="2020-01-13" />
		<tag k="ssr:gruppe" v="administrativeIndelinger" />
		<tag k="ssr:hovedgruppe" v="offentligAdministrasjon" />
		<tag k="ssr:stedsnr" v="1074408" />
		<tag k="ssr:type" v="fylke" />
	</node>
	<node id="-75876" lat="60.3978760147" lon="5.32306602431">
		<tag k="name" v="Søstergården" />
		<tag k="ssr:date" v="2019-12-27" />
		<tag k="ssr:gruppe" v="veg" />
		<tag k="ssr:hovedgruppe" v="infrastruktur" />
		<tag k="ssr:stedsnr" v="1044485" />
		<tag k="ssr:type" v="adressenavn" />
	</node>
	<node id="-75875" lat="60.4020959597" lon="5.31802918269">
		<tag k="name" v="Skuteviksbodene" />
		<tag k="ssr:date" v="2019-12-27" />
		<tag k="ssr:gruppe" v="veg" />
		<tag k="ssr:hovedgruppe" v="infrastruktur" />
		<tag k="ssr:stedsnr" v="1042820" />
		<tag k="ssr:type" v="adressenavn" />
	</node>
	<node id="-74193" lat="60.3393499965" lon="5.18331944058">
		<tag k="alt_name" v="Vatlestraumen" />
		<tag k="name" v="Vatlestraumen lykt" />
		<tag k="ssr:date" v="2019-12-27" />
		<tag k="ssr:gruppe" v="navigasjon" />
		<tag k="ssr:hovedgruppe" v="infrastruktur" />
		<tag k="ssr:stedsnr" v="157043" />
		<tag k="ssr:type" v="fyrlykt" />
	</node>
	<node id="-74190" lat="60.3919972242" lon="5.32801666171">
		<tag k="alt_name" v="Bergen" />
		<tag k="name" v="Bergen kommune" />
		<tag k="ssr:date" v="2019-12-27" />
		<tag k="ssr:gruppe" v="administrativeIndelinger" />
		<tag k="ssr:hovedgruppe" v="offentligAdministrasjon" />
		<tag k="ssr:stedsnr" v="146988" />
		<tag k="ssr:type" v="kommune" />
	</node>
	<node id="-71861" lat="60.3728749971" lon="5.16921111572">
		<tag k="alt_name" v="Stongi" />
		<tag k="name" v="Stongi lykt" />
		<tag k="ssr:date" v="2019-12-27" />
		<tag k="ssr:gruppe" v="navigasjon" />
		<tag k="ssr:hovedgruppe" v="infrastruktur" />
		<tag k="ssr:stedsnr" v="86723" />
		<tag k="ssr:type" v="fyrlykt" />
	</node>
	<node id="-75834" lat="60.393086383" lon="5.32403014253">
		<tag k="name" v="Vestlandet" />
		<tag k="ssr:date" v="2019-12-27" />
		<tag k="ssr:gruppe" v="administrativeIndelinger" />
		<tag k="ssr:hovedgruppe" v="offentligAdministrasjon" />
		<tag k="ssr:stedsnr" v="989457" />
		<tag k="ssr:type" v="annenAdministrativInndeling" />
	</node>
	<node id="-72501" lat="60.3482972209" lon="5.53092221968">
		<tag k="name" v="Midhordland" />
		<tag k="ssr:date" v="2019-12-27" />
		<tag k="ssr:gruppe" v="terrengområder" />
		<tag k="ssr:hovedgruppe" v="terreng" />
		<tag k="ssr:stedsnr" v="513783" />
		<tag k="ssr:type" v="landskapsområde" />
	</node>
	<node id="-75635" lat="60.3411833354" lon="5.23909166914">
		<tag k="alt_name" v="Hestabakken" />
		<tag k="name" v="Hestabakken  lykt" />
		<tag k="ssr:date" v="2019-12-27" />
		<tag k="ssr:gruppe" v="navigasjon" />
		<tag k="ssr:hovedgruppe" v="infrastruktur" />
		<tag k="ssr:stedsnr" v="813091" />
		<tag k="ssr:type" v="fyrlykt" />
	</node>
	<node id="-74664" lat="60.3279972262" lon="5.25058054667">
		<tag k="alt_name" v="Knappen" />
		<tag k="name" v="Knappen lykt" />
		<tag k="ssr:date" v="2019-12-27" />
		<tag k="ssr:gruppe" v="navigasjon" />
		<tag k="ssr:hovedgruppe" v="infrastruktur" />
		<tag k="ssr:stedsnr" v="357184" />
		<tag k="ssr:type" v="fyrlykt" />
	</node>
	<node id="-74663" lat="60.3337972216" lon="5.22055832827">
		<tag k="alt_name" v="Bogøy" />
		<tag k="name" v="Bogøy lykt" />
		<tag k="ssr:date" v="2019-12-27" />
		<tag k="ssr:gruppe" v="navigasjon" />
		<tag k="ssr:hovedgruppe" v="infrastruktur" />
		<tag k="ssr:stedsnr" v="357183" />
		<tag k="ssr:type" v="fyrlykt" />
	</node>
	<node id="-75302" lat="60.4017694455" lon="5.30823611464">
		<tag k="alt_name" v="Skoltegrunnskaien" />
		<tag k="name" v="Skoltegrunnskaien lykt" />
		<tag k="ssr:date" v="2019-12-27" />
		<tag k="ssr:gruppe" v="navigasjon" />
		<tag k="ssr:hovedgruppe" v="infrastruktur" />
		<tag k="ssr:stedsnr" v="643425" />
		<tag k="ssr:type" v="fyrlykt" />
	</node>
	<node id="-75419" lat="60.3325861073" lon="5.19921388679">
		<tag k="alt_name" v="Hilleren" />
		<tag k="name" v="Hilleren lykt" />
		<tag k="ssr:date" v="2019-12-27" />
		<tag k="ssr:gruppe" v="navigasjon" />
		<tag k="ssr:hovedgruppe" v="infrastruktur" />
		<tag k="ssr:stedsnr" v="752091" />
		<tag k="ssr:type" v="fyrlykt" />
	</node>
	<node id="-72212" lat="60.3993555525" lon="5.2412555573">
		<tag k="alt_name" v="Kvarven" />
		<tag k="name" v="Kvarven lykt" />
		<tag k="ssr:date" v="2019-12-27" />
		<tag k="ssr:gruppe" v="navigasjon" />
		<tag k="ssr:hovedgruppe" v="infrastruktur" />
		<tag k="ssr:stedsnr" v="461101" />
		<tag k="ssr:type" v="fyrlykt" />
	</node>
	<node id="-75893" lat="60.2685776377" lon="5.2156073393">
		<tag k="name" v="Slåttholmen" />
		<tag k="ssr:date" v="2020-04-01" />
		<tag k="ssr:gruppe" v="veg" />
		<tag k="ssr:hovedgruppe" v="infrastruktur" />
		<tag k="ssr:stedsnr" v="1076298" />
		<tag k="ssr:type" v="adressenavn" />
	</node>
	<node id="-72205" lat="60.2638833358" lon="5.18233332509">
		<tag k="alt_name" v="Raunane" />
		<tag k="name" v="Raunane lykt" />
		<tag k="ssr:date" v="2019-12-27" />
		<tag k="ssr:gruppe" v="navigasjon" />
		<tag k="ssr:hovedgruppe" v="infrastruktur" />
		<tag k="ssr:stedsnr" v="451376" />
		<tag k="ssr:type" v="fyrlykt" />
	</node>
	<node id="-73352" lat="60.2632527804" lon="5.16693889048">
		<tag k="alt_name" v="Rauneskjerane" />
		<tag k="name" v="Rauneskjerane lykt" />
		<tag k="ssr:date" v="2019-12-27" />
		<tag k="ssr:gruppe" v="navigasjon" />
		<tag k="ssr:hovedgruppe" v="infrastruktur" />
		<tag k="ssr:stedsnr" v="936324" />
		<tag k="ssr:type" v="fyrlykt" />
	</node>
	<node id="-73350" lat="60.2936111094" lon="5.20016111928">
		<tag k="name" v="Fleslandsskjeret" />
		<tag k="ssr:date" v="2019-12-27" />
		<tag k="ssr:gruppe" v="navigasjon" />
		<tag k="ssr:hovedgruppe" v="infrastruktur" />
		<tag k="ssr:stedsnr" v="934027" />
		<tag k="ssr:type" v="fyrlykt" />
	</node>
</osm>
