<?xml version="1.0" encoding="UTF-8"?>
<osm generator="osmapis" version="0.6">
	<node id="-6101" lat="62.5069027782" lon="6.83185555885">
		<tag k="name" v="Sjøholtsætrevegen" />
		<tag k="ssr:date" v="2019-12-27" />
		<tag k="ssr:gruppe" v="veg" />
		<tag k="ssr:hovedgruppe" v="infrastruktur" />
		<tag k="ssr:stedsnr" v="466276" />
		<tag k="ssr:type" v="vegstrekning" />
	</node>
	<node id="-9313" lat="62.4475861149" lon="6.96986943684">
		<tag k="name" v="Visetsætervegen" />
		<tag k="ssr:date" v="2019-12-27" />
		<tag k="ssr:gruppe" v="veg" />
		<tag k="ssr:hovedgruppe" v="infrastruktur" />
		<tag k="ssr:stedsnr" v="405244" />
		<tag k="ssr:type" v="vegstrekning" />
	</node>
	<node id="-7547" lat="62.4183013522" lon="6.3859283278">
		<tag k="alt_name" v="Flisnes lykt" />
		<tag k="name" v="Flisneset" />
		<tag k="ssr:date" v="2020-09-08" />
		<tag k="ssr:gruppe" v="navigasjon" />
		<tag k="ssr:hovedgruppe" v="infrastruktur" />
		<tag k="ssr:stedsnr" v="884358" />
		<tag k="ssr:type" v="fyrlykt" />
	</node>
	<node id="-7103" lat="62.5229542432" lon="6.18427895811">
		<tag k="name" v="Kalvøysundet" />
		<tag k="ssr:date" v="2020-09-08" />
		<tag k="ssr:gruppe" v="navigasjon" />
		<tag k="ssr:hovedgruppe" v="infrastruktur" />
		<tag k="ssr:stedsnr" v="922731" />
		<tag k="ssr:type" v="fyrlykt" />
	</node>
	<node id="-5368" lat="62.4945833368" lon="6.30602777676">
		<tag k="fixme" v="multiple name tags, choose one and add the other to alt_name" />
		<tag k="name" v="Nedre Ellingsvegen;Hansvegen" />
		<tag k="ssr:date" v="2019-12-27" />
		<tag k="ssr:gruppe" v="veg" />
		<tag k="ssr:hovedgruppe" v="infrastruktur" />
		<tag k="ssr:stedsnr" v="455700" />
		<tag k="ssr:type" v="adressenavn" />
	</node>
	<node id="-8766" lat="62.5026944479" lon="6.39789166403">
		<tag k="name" v="Nils Stokkes veg" />
		<tag k="ssr:date" v="2019-12-27" />
		<tag k="ssr:gruppe" v="veg" />
		<tag k="ssr:hovedgruppe" v="infrastruktur" />
		<tag k="ssr:stedsnr" v="302671" />
		<tag k="ssr:type" v="adressenavn" />
	</node>
	<node id="-5233" lat="62.4613985587" lon="6.132573437">
		<tag k="loc_name" v="Fergevegen" />
		<tag k="name" v="Gamle Fergevegen" />
		<tag k="ssr:date" v="2019-12-27" />
		<tag k="ssr:gruppe" v="veg" />
		<tag k="ssr:hovedgruppe" v="infrastruktur" />
		<tag k="ssr:stedsnr" v="293990" />
		<tag k="ssr:type" v="adressenavn" />
	</node>
	<node id="-8360" lat="62.7405314224" lon="6.32579669754">
		<tag k="name" v="Brunklegg" />
		<tag k="old_name" v="Brunkleggen" />
		<tag k="ssr:date" v="2020-09-08" />
		<tag k="ssr:gruppe" v="navigasjon" />
		<tag k="ssr:hovedgruppe" v="infrastruktur" />
		<tag k="ssr:stedsnr" v="133851" />
		<tag k="ssr:type" v="fyrlykt" />
	</node>
	<node id="-5742" lat="62.4380805517" lon="6.3255555634">
		<tag k="name" v="Vågsledvegen" />
		<tag k="ssr:date" v="2019-12-27" />
		<tag k="ssr:gruppe" v="veg" />
		<tag k="ssr:hovedgruppe" v="infrastruktur" />
		<tag k="ssr:stedsnr" v="481435" />
		<tag k="ssr:type" v="adressenavn" />
	</node>
	<node id="-6893" lat="62.4745499994" lon="6.15024444877">
		<tag k="name" v="Ålesund" />
		<tag k="ssr:date" v="2019-12-27" />
		<tag k="ssr:gruppe" v="navigasjon" />
		<tag k="ssr:hovedgruppe" v="infrastruktur" />
		<tag k="ssr:stedsnr" v="901589" />
		<tag k="ssr:type" v="fyrlykt" />
	</node>
	<node id="-5356" lat="62.6850887055" lon="6.1651238137">
		<tag k="name" v="Ulla" />
		<tag k="ssr:date" v="2020-07-02" />
		<tag k="ssr:gruppe" v="navigasjon" />
		<tag k="ssr:hovedgruppe" v="infrastruktur" />
		<tag k="ssr:stedsnr" v="254719" />
		<tag k="ssr:type" v="fyrstasjon" />
	</node>
	<node id="-6251" lat="62.4669027758" lon="6.32986667459">
		<tag k="name" v="Lerkelia" />
		<tag k="ssr:date" v="2019-12-27" />
		<tag k="ssr:gruppe" v="veg" />
		<tag k="ssr:hovedgruppe" v="infrastruktur" />
		<tag k="ssr:stedsnr" v="697816" />
		<tag k="ssr:type" v="adressenavn" />
	</node>
	<node id="-5225" lat="62.8641472214" lon="6.55070556031">
		<tag k="name" v="Oterholmtaren" />
		<tag k="ssr:date" v="2019-12-27" />
		<tag k="ssr:gruppe" v="navigasjon" />
		<tag k="ssr:hovedgruppe" v="infrastruktur" />
		<tag k="ssr:stedsnr" v="293127" />
		<tag k="ssr:type" v="lanterne" />
	</node>
	<node id="-7144" lat="62.7127241383" lon="6.42476815585">
		<tag k="name" v="Østre Vågholmen" />
		<tag k="ssr:date" v="2020-09-10" />
		<tag k="ssr:gruppe" v="navigasjon" />
		<tag k="ssr:hovedgruppe" v="infrastruktur" />
		<tag k="ssr:stedsnr" v="800788" />
		<tag k="ssr:type" v="fyrlykt" />
	</node>
	<node id="-9405" lat="62.8157233985" lon="6.51046538736">
		<tag k="name" v="Kvaløyklubben" />
		<tag k="ssr:date" v="2020-09-10" />
		<tag k="ssr:gruppe" v="navigasjon" />
		<tag k="ssr:hovedgruppe" v="infrastruktur" />
		<tag k="ssr:stedsnr" v="437417" />
		<tag k="ssr:type" v="fyrlykt" />
	</node>
	<node id="-7781" lat="62.8633996873" lon="6.54363451863">
		<tag k="alt_name" v="Ona" />
		<tag k="name" v="Ona fyr" />
		<tag k="ssr:date" v="2020-09-01" />
		<tag k="ssr:gruppe" v="navigasjon" />
		<tag k="ssr:hovedgruppe" v="infrastruktur" />
		<tag k="ssr:stedsnr" v="12396" />
		<tag k="ssr:type" v="fyrstasjon" />
	</node>
	<node id="-6116" lat="62.4394888885" lon="6.38609999754">
		<tag k="name" v="Ospedalsstubben" />
		<tag k="ssr:date" v="2019-12-27" />
		<tag k="ssr:gruppe" v="veg" />
		<tag k="ssr:hovedgruppe" v="infrastruktur" />
		<tag k="ssr:stedsnr" v="484858" />
		<tag k="ssr:type" v="adressenavn" />
	</node>
	<node id="-4708" lat="62.4384666635" lon="6.33300277834">
		<tag k="name" v="Årvikstranda" />
		<tag k="ssr:date" v="2019-12-27" />
		<tag k="ssr:gruppe" v="veg" />
		<tag k="ssr:hovedgruppe" v="infrastruktur" />
		<tag k="ssr:stedsnr" v="232547" />
		<tag k="ssr:type" v="adressenavn" />
	</node>
	<node id="-6625" lat="62.4942527741" lon="6.30408611907">
		<tag k="fixme" v="multiple name tags, choose one and add the other to alt_name" />
		<tag k="name" v="Sperrebakken;Gjerdevegen" />
		<tag k="ssr:date" v="2019-12-27" />
		<tag k="ssr:gruppe" v="veg" />
		<tag k="ssr:hovedgruppe" v="infrastruktur" />
		<tag k="ssr:stedsnr" v="880743" />
		<tag k="ssr:type" v="adressenavn" />
	</node>
	<node id="-5221" lat="62.6938708877" lon="6.25002694889">
		<tag k="name" v="Kjeholmen" />
		<tag k="ssr:date" v="2020-09-10" />
		<tag k="ssr:gruppe" v="navigasjon" />
		<tag k="ssr:hovedgruppe" v="infrastruktur" />
		<tag k="ssr:stedsnr" v="194913" />
		<tag k="ssr:type" v="fyrlykt" />
	</node>
	<node id="-6618" lat="62.4909055562" lon="6.28583332765">
		<tag k="name" v="Sjøstrandvegen" />
		<tag k="ssr:date" v="2019-12-27" />
		<tag k="ssr:gruppe" v="veg" />
		<tag k="ssr:hovedgruppe" v="infrastruktur" />
		<tag k="ssr:stedsnr" v="661285" />
		<tag k="ssr:type" v="adressenavn" />
	</node>
	<node id="-7896" lat="62.4932972186" lon="6.38416666033">
		<tag k="name" v="Årsetholmen" />
		<tag k="ssr:date" v="2019-12-27" />
		<tag k="ssr:gruppe" v="navigasjon" />
		<tag k="ssr:hovedgruppe" v="infrastruktur" />
		<tag k="ssr:stedsnr" v="34358" />
		<tag k="ssr:type" v="fyrlykt" />
	</node>
	<node id="-5732" lat="62.495052776" lon="6.30378056057">
		<tag k="name" v="Nilsvegen" />
		<tag k="ssr:date" v="2019-12-27" />
		<tag k="ssr:gruppe" v="veg" />
		<tag k="ssr:hovedgruppe" v="infrastruktur" />
		<tag k="ssr:stedsnr" v="333703" />
		<tag k="ssr:type" v="adressenavn" />
	</node>
	<node id="-5974" lat="62.4673333308" lon="6.32913332972">
		<tag k="name" v="Carstenvegen" />
		<tag k="ssr:date" v="2019-12-27" />
		<tag k="ssr:gruppe" v="veg" />
		<tag k="ssr:hovedgruppe" v="infrastruktur" />
		<tag k="ssr:stedsnr" v="517227" />
		<tag k="ssr:type" v="adressenavn" />
	</node>
	<node id="-7893" lat="62.5528361088" lon="6.48460832695">
		<tag k="name" v="Remmefjellvegen" />
		<tag k="ssr:date" v="2019-12-27" />
		<tag k="ssr:gruppe" v="veg" />
		<tag k="ssr:hovedgruppe" v="infrastruktur" />
		<tag k="ssr:stedsnr" v="34343" />
		<tag k="ssr:type" v="vegstrekning" />
	</node>
	<node id="-9044" lat="62.4366138906" lon="6.40191388947">
		<tag k="name" v="Erikhaugen" />
		<tag k="ssr:date" v="2019-12-27" />
		<tag k="ssr:gruppe" v="veg" />
		<tag k="ssr:hovedgruppe" v="infrastruktur" />
		<tag k="ssr:stedsnr" v="363604" />
		<tag k="ssr:type" v="adressenavn" />
	</node>
	<node id="-9043" lat="62.4520277768" lon="6.35275556337">
		<tag k="name" v="Remvikstubben" />
		<tag k="ssr:date" v="2019-12-27" />
		<tag k="ssr:gruppe" v="veg" />
		<tag k="ssr:hovedgruppe" v="infrastruktur" />
		<tag k="ssr:stedsnr" v="363602" />
		<tag k="ssr:type" v="adressenavn" />
	</node>
	<node id="-6352" lat="62.4997788526" lon="6.18086618277">
		<tag k="name" v="Gildrenes" />
		<tag k="ssr:date" v="2020-09-08" />
		<tag k="ssr:gruppe" v="navigasjon" />
		<tag k="ssr:hovedgruppe" v="infrastruktur" />
		<tag k="ssr:stedsnr" v="557973" />
		<tag k="ssr:type" v="fyrlykt" />
	</node>
	<node id="-4814" lat="62.5895833312" lon="6.24468610167">
		<tag k="name" v="Søre Kverna" />
		<tag k="old_name" v="Lepsøyrev fyr" />
		<tag k="ssr:date" v="2019-12-27" />
		<tag k="ssr:gruppe" v="navigasjon" />
		<tag k="ssr:hovedgruppe" v="infrastruktur" />
		<tag k="ssr:stedsnr" v="85422" />
		<tag k="ssr:type" v="fyrlykt" />
	</node>
	<node id="-5961" lat="62.4354555514" lon="6.40379722345">
		<tag k="name" v="Søre-Glenna" />
		<tag k="ssr:date" v="2019-12-27" />
		<tag k="ssr:gruppe" v="veg" />
		<tag k="ssr:hovedgruppe" v="infrastruktur" />
		<tag k="ssr:stedsnr" v="424634" />
		<tag k="ssr:type" v="adressenavn" />
	</node>
	<node id="-5960" lat="62.4527777752" lon="6.3553666746">
		<tag k="name" v="Myrvollstubben" />
		<tag k="ssr:date" v="2019-12-27" />
		<tag k="ssr:gruppe" v="veg" />
		<tag k="ssr:hovedgruppe" v="infrastruktur" />
		<tag k="ssr:stedsnr" v="424632" />
		<tag k="ssr:type" v="adressenavn" />
	</node>
	<node id="-5959" lat="62.4673833339" lon="6.3276611187">
		<tag k="name" v="Åsetoppen" />
		<tag k="ssr:date" v="2019-12-27" />
		<tag k="ssr:gruppe" v="veg" />
		<tag k="ssr:hovedgruppe" v="infrastruktur" />
		<tag k="ssr:stedsnr" v="515726" />
		<tag k="ssr:type" v="adressenavn" />
	</node>
	<node id="-5958" lat="62.495733332" lon="6.30879166841">
		<tag k="name" v="Lyngtua" />
		<tag k="ssr:date" v="2019-12-27" />
		<tag k="ssr:gruppe" v="veg" />
		<tag k="ssr:hovedgruppe" v="infrastruktur" />
		<tag k="ssr:stedsnr" v="515722" />
		<tag k="ssr:type" v="adressenavn" />
	</node>
	<node id="-4933" lat="62.5254046251" lon="6.37450467301">
		<tag k="name" v="Kjepinen" />
		<tag k="ssr:date" v="2020-09-08" />
		<tag k="ssr:gruppe" v="navigasjon" />
		<tag k="ssr:hovedgruppe" v="infrastruktur" />
		<tag k="ssr:stedsnr" v="132153" />
		<tag k="ssr:type" v="fyrlykt" />
	</node>
	<node id="-7620" lat="62.4918055573" lon="6.28223888095">
		<tag k="name" v="Øvre Kvalstein" />
		<tag k="ssr:date" v="2019-12-27" />
		<tag k="ssr:gruppe" v="veg" />
		<tag k="ssr:hovedgruppe" v="infrastruktur" />
		<tag k="ssr:stedsnr" v="909649" />
		<tag k="ssr:type" v="adressenavn" />
	</node>
	<node id="-7619" lat="62.4946388927" lon="6.32381111202">
		<tag k="name" v="Vikbakken" />
		<tag k="ssr:date" v="2019-12-27" />
		<tag k="ssr:gruppe" v="veg" />
		<tag k="ssr:hovedgruppe" v="infrastruktur" />
		<tag k="ssr:stedsnr" v="909648" />
		<tag k="ssr:type" v="adressenavn" />
	</node>
	<node id="-8384" lat="62.8243856253" lon="6.57610951389">
		<tag k="name" v="Straumsundhaugen" />
		<tag k="ssr:date" v="2020-09-10" />
		<tag k="ssr:gruppe" v="navigasjon" />
		<tag k="ssr:hovedgruppe" v="infrastruktur" />
		<tag k="ssr:stedsnr" v="145551" />
		<tag k="ssr:type" v="fyrlykt" />
	</node>
	<node id="-7615" lat="62.4918805548" lon="6.28559165988">
		<tag k="name" v="Utheimvegen" />
		<tag k="ssr:date" v="2019-12-27" />
		<tag k="ssr:gruppe" v="veg" />
		<tag k="ssr:hovedgruppe" v="infrastruktur" />
		<tag k="ssr:stedsnr" v="904306" />
		<tag k="ssr:type" v="adressenavn" />
	</node>
	<node id="-6971" lat="62.5489694462" lon="6.51793889261">
		<tag k="name" v="Svingane" />
		<tag k="ssr:date" v="2019-12-27" />
		<tag k="ssr:gruppe" v="veg" />
		<tag k="ssr:hovedgruppe" v="infrastruktur" />
		<tag k="ssr:stedsnr" v="762513" />
		<tag k="ssr:type" v="vegstrekning" />
	</node>
	<node id="-7741" lat="62.589420465" lon="6.26337173105">
		<tag k="name" v="Lepsøyrevet" />
		<tag k="old_name" v="Løvsøyrev" />
		<tag k="ssr:date" v="2020-07-09" />
		<tag k="ssr:gruppe" v="navigasjon" />
		<tag k="ssr:hovedgruppe" v="infrastruktur" />
		<tag k="ssr:stedsnr" v="11393" />
		<tag k="ssr:type" v="fyrlykt" />
	</node>
	<node id="-8764" lat="62.522616663" lon="6.62058610762">
		<tag k="name" v="Stetteremma" />
		<tag k="ssr:date" v="2019-12-27" />
		<tag k="ssr:gruppe" v="administrativeIndelinger" />
		<tag k="ssr:hovedgruppe" v="offentligAdministrasjon" />
		<tag k="ssr:stedsnr" v="301296" />
		<tag k="ssr:type" v="statistiskTettsted" />
	</node>
	<node id="-6587" lat="62.4951361111" lon="6.32300834026">
		<tag k="name" v="Øvre Vikhagen" />
		<tag k="ssr:date" v="2019-12-27" />
		<tag k="ssr:gruppe" v="veg" />
		<tag k="ssr:hovedgruppe" v="infrastruktur" />
		<tag k="ssr:stedsnr" v="727653" />
		<tag k="ssr:type" v="adressenavn" />
	</node>
	<node id="-8248" lat="62.4338046382" lon="6.43187834273">
		<tag k="fixme" v="multiple name tags, choose one and add the other to alt_name" />
		<tag k="name" v="Knuthaugen;Knutgarden" />
		<tag k="ssr:date" v="2019-12-27" />
		<tag k="ssr:gruppe" v="veg" />
		<tag k="ssr:hovedgruppe" v="infrastruktur" />
		<tag k="ssr:stedsnr" v="100699" />
		<tag k="ssr:type" v="adressenavn" />
	</node>
	<node id="-6071" lat="62.484261112" lon="6.21835555466">
		<tag k="name" v="Brattholmen" />
		<tag k="ssr:date" v="2019-12-27" />
		<tag k="ssr:gruppe" v="navigasjon" />
		<tag k="ssr:hovedgruppe" v="infrastruktur" />
		<tag k="ssr:stedsnr" v="658772" />
		<tag k="ssr:type" v="fyrlykt" />
	</node>
	<node id="-6198" lat="62.7993938913" lon="6.52558909057">
		<tag k="name" v="Gåsøy" />
		<tag k="ssr:date" v="2020-09-08" />
		<tag k="ssr:gruppe" v="navigasjon" />
		<tag k="ssr:hovedgruppe" v="infrastruktur" />
		<tag k="ssr:stedsnr" v="497463" />
		<tag k="ssr:type" v="fyrlykt" />
	</node>
	<node id="-7989" lat="62.4584388862" lon="6.13461389061">
		<tag k="fixme" v="multiple name tags, choose one and add the other to alt_name" />
		<tag k="name" v="Skolestigen;Grytavegen" />
		<tag k="ssr:date" v="2019-12-27" />
		<tag k="ssr:gruppe" v="veg" />
		<tag k="ssr:hovedgruppe" v="infrastruktur" />
		<tag k="ssr:stedsnr" v="41784" />
		<tag k="ssr:type" v="adressenavn" />
	</node>
	<node id="-8624" lat="62.4373555552" lon="6.32478610758">
		<tag k="name" v="Tørlevågvegen" />
		<tag k="ssr:date" v="2019-12-27" />
		<tag k="ssr:gruppe" v="veg" />
		<tag k="ssr:hovedgruppe" v="infrastruktur" />
		<tag k="ssr:stedsnr" v="178399" />
		<tag k="ssr:type" v="adressenavn" />
	</node>
	<node id="-6568" lat="62.8665310336" lon="6.54870660686">
		<tag k="name" v="Tvinitla" />
		<tag k="ssr:date" v="2020-09-08" />
		<tag k="ssr:gruppe" v="navigasjon" />
		<tag k="ssr:hovedgruppe" v="infrastruktur" />
		<tag k="ssr:stedsnr" v="618382" />
		<tag k="ssr:type" v="fyrlykt" />
	</node>
	<node id="-6075" lat="62.4712369144" lon="6.15434524351">
		<tag k="alt_name" v="Ålesund" />
		<tag k="name" v="Ålesund kommune" />
		<tag k="ssr:date" v="2019-12-27" />
		<tag k="ssr:gruppe" v="administrativeIndelinger" />
		<tag k="ssr:hovedgruppe" v="offentligAdministrasjon" />
		<tag k="ssr:stedsnr" v="450122" />
		<tag k="ssr:type" v="kommune" />
	</node>
	<node id="-8449" lat="62.4858277762" lon="6.31355277901">
		<tag k="name" v="Kalvøyskjæret" />
		<tag k="ssr:date" v="2019-12-27" />
		<tag k="ssr:gruppe" v="navigasjon" />
		<tag k="ssr:hovedgruppe" v="infrastruktur" />
		<tag k="ssr:stedsnr" v="155394" />
		<tag k="ssr:type" v="fyrlykt" />
	</node>
	<node id="-6937" lat="62.459844448" lon="6.14801944923">
		<tag k="name" v="Magnarvegen" />
		<tag k="ssr:date" v="2019-12-27" />
		<tag k="ssr:gruppe" v="veg" />
		<tag k="ssr:hovedgruppe" v="infrastruktur" />
		<tag k="ssr:stedsnr" v="909877" />
		<tag k="ssr:type" v="adressenavn" />
	</node>
	<node id="-8344" lat="62.7648772722" lon="6.40829736995">
		<tag k="name" v="Marøy" />
		<tag k="ssr:date" v="2020-09-08" />
		<tag k="ssr:gruppe" v="navigasjon" />
		<tag k="ssr:hovedgruppe" v="infrastruktur" />
		<tag k="ssr:stedsnr" v="133399" />
		<tag k="ssr:type" v="fyrlykt" />
	</node>
	<node id="-6935" lat="62.8158833348" lon="6.38820000125">
		<tag k="name" v="Skipsholmen" />
		<tag k="ssr:date" v="2019-12-27" />
		<tag k="ssr:gruppe" v="navigasjon" />
		<tag k="ssr:hovedgruppe" v="infrastruktur" />
		<tag k="ssr:stedsnr" v="752338" />
		<tag k="ssr:type" v="fyrlykt" />
	</node>
	<node id="-8828" lat="62.8587313359" lon="6.5374388589">
		<tag k="name" v="Husøy" />
		<tag k="ssr:date" v="2020-09-08" />
		<tag k="ssr:gruppe" v="navigasjon" />
		<tag k="ssr:hovedgruppe" v="infrastruktur" />
		<tag k="ssr:stedsnr" v="315393" />
		<tag k="ssr:type" v="fyrlykt" />
	</node>
	<node id="-4757" lat="62.4636916634" lon="6.12268054927">
		<tag k="name" v="Steinvåg" />
		<tag k="ssr:date" v="2019-12-27" />
		<tag k="ssr:gruppe" v="navigasjon" />
		<tag k="ssr:hovedgruppe" v="infrastruktur" />
		<tag k="ssr:stedsnr" v="51855" />
		<tag k="ssr:type" v="fyrlykt" />
	</node>
	<node id="-8339" lat="62.8200493959" lon="6.56995041269">
		<tag k="name" v="Slantreskjeret" />
		<tag k="ssr:date" v="2020-09-08" />
		<tag k="ssr:gruppe" v="navigasjon" />
		<tag k="ssr:hovedgruppe" v="infrastruktur" />
		<tag k="ssr:stedsnr" v="133352" />
		<tag k="ssr:type" v="fyrlykt" />
	</node>
	<node id="-8593" lat="62.7107638871" lon="6.42330555716">
		<tag k="name" v="Vågholmene molo" />
		<tag k="ssr:date" v="2019-12-27" />
		<tag k="ssr:gruppe" v="navigasjon" />
		<tag k="ssr:hovedgruppe" v="infrastruktur" />
		<tag k="ssr:stedsnr" v="162833" />
		<tag k="ssr:type" v="lanterne" />
	</node>
	<node id="-4696" lat="62.4953777812" lon="6.30723610374">
		<tag k="name" v="Ellingsvegen" />
		<tag k="ssr:date" v="2019-12-27" />
		<tag k="ssr:gruppe" v="veg" />
		<tag k="ssr:hovedgruppe" v="infrastruktur" />
		<tag k="ssr:stedsnr" v="30723" />
		<tag k="ssr:type" v="adressenavn" />
	</node>
	<node id="-5390" lat="62.4341138904" lon="6.46246111105">
		<tag k="name" v="Høghaugen" />
		<tag k="ssr:date" v="2019-12-27" />
		<tag k="ssr:gruppe" v="veg" />
		<tag k="ssr:hovedgruppe" v="infrastruktur" />
		<tag k="ssr:stedsnr" v="457221" />
		<tag k="ssr:type" v="adressenavn" />
	</node>
	<node id="-5772" lat="62.4908611084" lon="6.28310000074">
		<tag k="name" v="Kvalsteinbakken" />
		<tag k="ssr:date" v="2019-12-27" />
		<tag k="ssr:gruppe" v="veg" />
		<tag k="ssr:hovedgruppe" v="infrastruktur" />
		<tag k="ssr:stedsnr" v="484644" />
		<tag k="ssr:type" v="adressenavn" />
	</node>
	<node id="-5771" lat="62.4949249975" lon="6.32223054733">
		<tag k="name" v="Nedre Vikhagen" />
		<tag k="ssr:date" v="2019-12-27" />
		<tag k="ssr:gruppe" v="veg" />
		<tag k="ssr:hovedgruppe" v="infrastruktur" />
		<tag k="ssr:stedsnr" v="484642" />
		<tag k="ssr:type" v="adressenavn" />
	</node>
	<node id="-8330" lat="62.5455138913" lon="6.25058055467">
		<tag k="name" v="Håstein" />
		<tag k="old_name" v="Håsteinen" />
		<tag k="ssr:date" v="2019-12-27" />
		<tag k="ssr:gruppe" v="navigasjon" />
		<tag k="ssr:hovedgruppe" v="infrastruktur" />
		<tag k="ssr:stedsnr" v="133235" />
		<tag k="ssr:type" v="fyrlykt" />
	</node>
	<node id="-9339" lat="62.682991664" lon="6.19530555759">
		<tag k="name" v="Naustskjæret" />
		<tag k="ssr:date" v="2019-12-27" />
		<tag k="ssr:gruppe" v="navigasjon" />
		<tag k="ssr:hovedgruppe" v="infrastruktur" />
		<tag k="ssr:stedsnr" v="417689" />
		<tag k="ssr:type" v="fyrlykt" />
	</node>
	<node id="-7046" lat="62.4622302076" lon="6.08473018767">
		<tag k="name" v="Snegleværsholmen" />
		<tag k="ssr:date" v="2019-12-27" />
		<tag k="ssr:gruppe" v="navigasjon" />
		<tag k="ssr:hovedgruppe" v="infrastruktur" />
		<tag k="ssr:stedsnr" v="921933" />
		<tag k="ssr:type" v="lanterne" />
	</node>
	<node id="-8705" lat="62.8471361093" lon="6.54017500197">
		<tag k="name" v="Rugskjæret" />
		<tag k="ssr:date" v="2019-12-27" />
		<tag k="ssr:gruppe" v="navigasjon" />
		<tag k="ssr:hovedgruppe" v="infrastruktur" />
		<tag k="ssr:stedsnr" v="207542" />
		<tag k="ssr:type" v="fyrlykt" />
	</node>
	<node id="-9407" lat="62.6131665006" lon="6.33388233624">
		<tag k="name" v="Haugnes" />
		<tag k="old_name" v="Haugneset" />
		<tag k="ssr:date" v="2020-09-08" />
		<tag k="ssr:gruppe" v="navigasjon" />
		<tag k="ssr:hovedgruppe" v="infrastruktur" />
		<tag k="ssr:stedsnr" v="437493" />
		<tag k="ssr:type" v="fyrlykt" />
	</node>
	<node id="-5867" lat="62.6373289406" lon="6.39933525446">
		<tag k="alt_name" v="Raudholmen" />
		<tag k="name" v="Raudholmane" />
		<tag k="ssr:date" v="2020-09-08" />
		<tag k="ssr:gruppe" v="navigasjon" />
		<tag k="ssr:hovedgruppe" v="infrastruktur" />
		<tag k="ssr:stedsnr" v="497449" />
		<tag k="ssr:type" v="fyrlykt" />
	</node>
</osm>
