<?xml version="1.0" encoding="UTF-8"?>
<osm version="0.6" generator="osmapis">
	<node lat="70.73830557462043" lon="28.040288264591315" id="-51515">
		<tag k="alt_name" v="Skogfjorddalen, l" />
		<tag k="name" v="Lille Skogfjorddalen" />
		<tag k="natural" v="valley" />
		<tag k="place" v="locality" />
		<tag k="ssr:stedsnr" v="20307" />
	</node>
	<node lat="70.7279666802384" lon="28.08240490706818" id="-51516">
		<tag k="name" v="Brannberget" />
		<tag k="natural" v="hill" />
		<tag k="place" v="locality" />
		<tag k="ssr:stedsnr" v="20310" />
	</node>
	<node lat="70.70768335242481" lon="27.75901887734583" id="-51518">
		<tag k="fixme" v="consider natural=peak for the most distinct mountains in the district" />
		<tag k="name" v="Trolltind" />
		<tag k="natural" v="hill" />
		<tag k="place" v="locality" />
		<tag k="ssr:stedsnr" v="20299" />
	</node>
	<node lat="71.11125000802913" lon="27.73417171541283" id="-51527">
		<tag k="fixme" v="consider natural=peak for the most distinct mountains in the district" />
		<tag k="name" v="Magkeilhetta" />
		<tag k="natural" v="hill" />
		<tag k="place" v="locality" />
		<tag k="ssr:stedsnr" v="20440" />
	</node>
	<node lat="70.8097111290581" lon="28.100527162545152" id="-51537">
		<tag k="name" v="Sennavannsdalen" />
		<tag k="natural" v="valley" />
		<tag k="place" v="locality" />
		<tag k="ssr:stedsnr" v="25723" />
	</node>
	<node lat="71.02405278627472" lon="28.100346644403324" id="-51540">
		<tag k="fixme" v="consider natural=peak for the most distinct mountains in the district" />
		<tag k="name" v="Semmeltoppen" />
		<tag k="natural" v="hill" />
		<tag k="place" v="locality" />
		<tag k="ssr:stedsnr" v="25910" />
	</node>
	<node lat="71.0383666761482" lon="28.107316076452726" id="-51541">
		<tag k="name" v="Sandfjordskaret" />
		<tag k="natural" v="valley" />
		<tag k="place" v="locality" />
		<tag k="ssr:stedsnr" v="25924" />
	</node>
	<node lat="70.6924277979432" lon="28.24949377052679" id="-51545">
		<tag k="fixme" v="consider natural=peak for the most distinct mountains in the district" />
		<tag k="name" v="Njuohkonjárgáisá" />
		<tag k="name:se" v="Njuohkonjárgáisá" />
		<tag k="natural" v="hill" />
		<tag k="old_name:se" v="Njuokkunjargaisa" />
		<tag k="place" v="locality" />
		<tag k="ssr:stedsnr" v="80353" />
	</node>
	<node lat="70.9956527968926" lon="28.44016876132536" id="-51551">
		<tag k="name" v="Klubben" />
		<tag k="natural" v="hill" />
		<tag k="place" v="locality" />
		<tag k="ssr:stedsnr" v="81905" />
	</node>
	<node lat="70.9412500175905" lon="28.440404881194524" id="-51554">
		<tag k="fixme" v="consider natural=peak for the most distinct mountains in the district" />
		<tag k="name" v="Risdalsfjellet" />
		<tag k="natural" v="hill" />
		<tag k="place" v="locality" />
		<tag k="ssr:stedsnr" v="81929" />
	</node>
	<node lat="71.02343612414653" lon="27.79509669698932" id="-51558">
		<tag k="name" v="Sørfjorddalen" />
		<tag k="natural" v="valley" />
		<tag k="place" v="locality" />
		<tag k="ssr:stedsnr" v="86012" />
	</node>
	<node lat="71.05491112453217" lon="27.787046712501486" id="-51559">
		<tag k="name" v="Kuskjellhamnskaret" />
		<tag k="natural" v="valley" />
		<tag k="place" v="locality" />
		<tag k="ssr:stedsnr" v="86024" />
	</node>
	<node lat="71.0231027893189" lon="27.885452230107944" id="-51562">
		<tag k="name" v="Søndre Vassdalen" />
		<tag k="natural" v="valley" />
		<tag k="place" v="locality" />
		<tag k="ssr:stedsnr" v="86989" />
	</node>
	<node lat="70.95467501445157" lon="28.170732715324917" id="-51569">
		<tag k="fixme" v="consider natural=peak for the most distinct mountains in the district" />
		<tag k="name" v="Prestbakktuva" />
		<tag k="natural" v="hill" />
		<tag k="place" v="locality" />
		<tag k="ssr:stedsnr" v="140835" />
	</node>
	<node lat="70.96504167703658" lon="28.45931042961175" id="-51575">
		<tag k="fixme" v="consider natural=peak for the most distinct mountains in the district" />
		<tag k="name" v="Anderfjellet" />
		<tag k="natural" v="hill" />
		<tag k="place" v="locality" />
		<tag k="ssr:stedsnr" v="141894" />
	</node>
	<node lat="71.02760834665791" lon="27.841457793860734" id="-51578">
		<tag k="name" v="Leiknesbakken" />
		<tag k="natural" v="slope" />
		<tag k="place" v="locality" />
		<tag k="ssr:stedsnr" v="146096" />
	</node>
	<node lat="71.04483612431342" lon="28.159646634216877" id="-51579">
		<tag k="fixme" v="consider natural=peak for the most distinct mountains in the district" />
		<tag k="name" v="Einefjell" />
		<tag k="natural" v="hill" />
		<tag k="place" v="locality" />
		<tag k="ssr:stedsnr" v="146915" />
	</node>
	<node lat="70.74100001307524" lon="27.996541055855342" id="-51585">
		<tag k="name" v="Litle Skogfjordbotn" />
		<tag k="natural" v="valley" />
		<tag k="place" v="locality" />
		<tag k="ssr:stedsnr" v="147672" />
	</node>
	<node lat="70.71422779730284" lon="28.06276882336522" id="-51589">
		<tag k="name" v="Skoahppa" />
		<tag k="name:se" v="Skoahppa" />
		<tag k="place" v="locality" />
		<tag k="ssr:stedsnr" v="151224" />
	</node>
	<node lat="70.93923335303077" lon="28.51515484681375" id="-51592">
		<tag k="fixme" v="consider natural=peak for the most distinct mountains in the district" />
		<tag k="name" v="Stauran - Loddebávttit" />
		<tag k="name:no" v="Stauran" />
		<tag k="name:se" v="Loddebávttit" />
		<tag k="natural" v="hill" />
		<tag k="old_name:se" v="Låddebavtit" />
		<tag k="place" v="locality" />
		<tag k="ssr:stedsnr" v="263927" />
	</node>
	<node lat="70.73183334939084" lon="27.661930011122028" id="-51593">
		<tag k="name" v="Caganávži" />
		<tag k="name:se" v="Caganávži" />
		<tag k="natural" v="valley" />
		<tag k="old_name:se" v="Caganavži" />
		<tag k="place" v="locality" />
		<tag k="ssr:stedsnr" v="262287" />
	</node>
	<node lat="71.04640000846867" lon="28.186963288628647" id="-51597">
		<tag k="fixme" v="consider natural=peak for the most distinct mountains in the district" />
		<tag k="name" v="Einerfjellet" />
		<tag k="natural" v="hill" />
		<tag k="place" v="locality" />
		<tag k="ssr:stedsnr" v="262441" />
	</node>
	<node lat="70.49804168547315" lon="27.432635595703317" id="-51607">
		<tag k="fixme" v="consider natural=peak for the most distinct mountains in the district" />
		<tag k="name" v="Árasangáisá" />
		<tag k="name:se" v="Árasangáisá" />
		<tag k="natural" v="hill" />
		<tag k="old_name:se" v="Arasangaisa" />
		<tag k="place" v="locality" />
		<tag k="ssr:stedsnr" v="263259" />
	</node>
	<node lat="70.67974167799133" lon="27.906207733425322" id="-51609">
		<tag k="name" v="Skálnjuovčča" />
		<tag k="name:se" v="Skálnjuovčča" />
		<tag k="natural" v="valley" />
		<tag k="old_name:se" v="Skalnjuovča" />
		<tag k="place" v="locality" />
		<tag k="ssr:stedsnr" v="263322" />
	</node>
	<node lat="70.67815279822267" lon="28.1426382191406" id="-51610">
		<tag k="fixme" v="consider natural=peak for the most distinct mountains in the district" />
		<tag k="name" v="Stuorra Uffir" />
		<tag k="name:se" v="Stuorra Uffir" />
		<tag k="natural" v="hill" />
		<tag k="old_name:se" v="Uffir, stuorra" />
		<tag k="place" v="locality" />
		<tag k="ssr:stedsnr" v="263324" />
	</node>
	<node lat="70.85789724046076" lon="28.274224352894677" id="-51621">
		<tag k="fixme" v="consider natural=peak for the most distinct mountains in the district" />
		<tag k="name" v="Skarfjordtuva" />
		<tag k="natural" v="hill" />
		<tag k="place" v="locality" />
		<tag k="ssr:stedsnr" v="263933" />
	</node>
	<node lat="70.80500557468865" lon="28.085496601266012" id="-51631">
		<tag k="name" v="Torvberget" />
		<tag k="natural" v="hill" />
		<tag k="place" v="locality" />
		<tag k="ssr:stedsnr" v="267670" />
	</node>
	<node lat="71.0130666745848" lon="27.81666614921802" id="-51636">
		<tag k="name" v="Rundhaugaksla" />
		<tag k="place" v="locality" />
		<tag k="ssr:stedsnr" v="268015" />
	</node>
	<node lat="71.04204445801805" lon="27.848896701350952" id="-51638">
		<tag k="name" v="Åshaugen" />
		<tag k="natural" v="hill" />
		<tag k="place" v="locality" />
		<tag k="ssr:stedsnr" v="268042" />
	</node>
	<node lat="71.02917778776172" lon="27.794388358708073" id="-51640">
		<tag k="name" v="Strupen" />
		<tag k="natural" v="valley" />
		<tag k="place" v="locality" />
		<tag k="ssr:stedsnr" v="207003" />
	</node>
	<node lat="71.04823612311418" lon="27.986646671933755" id="-51642">
		<tag k="name" v="Skjettenfjordtua" />
		<tag k="natural" v="hill" />
		<tag k="place" v="locality" />
		<tag k="ssr:stedsnr" v="268947" />
	</node>
	<node lat="70.79390001804141" lon="28.149177127367494" id="-51652">
		<tag k="name" v="Bjørnhaugen" />
		<tag k="natural" v="hill" />
		<tag k="place" v="locality" />
		<tag k="ssr:stedsnr" v="449635" />
	</node>
	<node lat="70.79927779128634" lon="28.040479948492663" id="-51653">
		<tag k="name" v="Hopsnesholla" />
		<tag k="place" v="locality" />
		<tag k="ssr:stedsnr" v="449710" />
	</node>
	<node lat="70.71754723913669" lon="28.070466042819028" id="-51665">
		<tag k="alt_name" v="Berget" />
		<tag k="fixme" v="multiple name tags, choose one and add the other to alt_name" />
		<tag k="name" v="Jensenberget;Berg" />
		<tag k="natural" v="hill" />
		<tag k="place" v="locality" />
		<tag k="ssr:stedsnr" v="451734" />
	</node>
	<node lat="70.66534167691299" lon="27.793891097922312" id="-51669">
		<tag k="name" v="Øverste Rundhaugen - Badje boarka oaivi" />
		<tag k="name:no" v="Øverste Rundhaugen" />
		<tag k="name:se" v="Badje boarka oaivi" />
		<tag k="natural" v="hill" />
		<tag k="place" v="locality" />
		<tag k="ssr:stedsnr" v="455221" />
	</node>
	<node lat="70.79691668733729" lon="28.19981045741437" id="-51676">
		<tag k="name" v="Kjeskelvikdalen" />
		<tag k="natural" v="valley" />
		<tag k="place" v="locality" />
		<tag k="ssr:stedsnr" v="263885" />
	</node>
	<node lat="70.98362223577786" lon="28.324504916844425" id="-51681">
		<tag k="name" v="Trolldalen" />
		<tag k="natural" v="valley" />
		<tag k="place" v="locality" />
		<tag k="ssr:stedsnr" v="263903" />
	</node>
	<node lat="70.81628056978018" lon="27.968093865059824" id="-51685">
		<tag k="name" v="Knutnesbakkan" />
		<tag k="natural" v="slope" />
		<tag k="place" v="locality" />
		<tag k="ssr:stedsnr" v="457859" />
	</node>
	<node lat="71.06566112959456" lon="28.240185493997465" id="-51688">
		<tag k="name" v="Varen" />
		<tag k="natural" v="hill" />
		<tag k="place" v="locality" />
		<tag k="ssr:stedsnr" v="267782" />
	</node>
	<node lat="71.00910834547985" lon="27.84584392046977" id="-51693">
		<tag k="name" v="Svartholldalen" />
		<tag k="natural" v="valley" />
		<tag k="place" v="locality" />
		<tag k="ssr:stedsnr" v="268990" />
	</node>
	<node lat="70.67297501683461" lon="27.810974412056716" id="-51699">
		<tag k="name" v="Guoddevággi" />
		<tag k="name:se" v="Guoddevággi" />
		<tag k="natural" v="valley" />
		<tag k="place" v="locality" />
		<tag k="ssr:stedsnr" v="459425" />
	</node>
	<node lat="70.66606389929464" lon="27.825579979724637" id="-51700">
		<tag k="name" v="Skálnjuovčča" />
		<tag k="name:se" v="Skálnjuovčča" />
		<tag k="natural" v="hill" />
		<tag k="place" v="locality" />
		<tag k="ssr:stedsnr" v="277430" />
	</node>
	<node lat="71.05803612167865" lon="28.2266216236424" id="-51710">
		<tag k="name" v="Kåvbakkan" />
		<tag k="natural" v="slope" />
		<tag k="place" v="locality" />
		<tag k="ssr:stedsnr" v="328821" />
	</node>
	<node lat="71.02821668393051" lon="27.904849449245106" id="-51713">
		<tag k="name" v="Bjørkvikhøgda" />
		<tag k="natural" v="hill" />
		<tag k="place" v="locality" />
		<tag k="ssr:stedsnr" v="328966" />
	</node>
	<node lat="71.09160834179187" lon="28.18515218041538" id="-51723">
		<tag k="name" v="Vardnessletta" />
		<tag k="place" v="locality" />
		<tag k="ssr:stedsnr" v="383464" />
	</node>
	<node lat="71.02461945624239" lon="27.865913342589156" id="-51731">
		<tag k="name" v="Torvemyrskaret" />
		<tag k="natural" v="valley" />
		<tag k="place" v="locality" />
		<tag k="ssr:stedsnr" v="389119" />
	</node>
	<node lat="70.71325556952547" lon="28.072374371372675" id="-51737">
		<tag k="name" v="Stoffalhøgda" />
		<tag k="natural" v="hill" />
		<tag k="place" v="locality" />
		<tag k="ssr:stedsnr" v="394207" />
	</node>
	<node lat="70.60943890231438" lon="27.53532726236317" id="-51738">
		<tag k="name" v="Statsteian" />
		<tag k="natural" v="slope" />
		<tag k="place" v="locality" />
		<tag k="ssr:stedsnr" v="394212" />
	</node>
	<node lat="70.82177779036677" lon="27.9900466287343" id="-51739">
		<tag k="name" v="Vårelvdalen" />
		<tag k="natural" v="valley" />
		<tag k="place" v="locality" />
		<tag k="ssr:stedsnr" v="396815" />
	</node>
	<node lat="70.7994500127722" lon="27.80374389679486" id="-51741">
		<tag k="name" v="Rislia" />
		<tag k="natural" v="slope" />
		<tag k="place" v="locality" />
		<tag k="ssr:stedsnr" v="396832" />
	</node>
	<node lat="70.79620556986934" lon="27.92707442373291" id="-51743">
		<tag k="name" v="Værnesbergan" />
		<tag k="natural" v="hill" />
		<tag k="place" v="locality" />
		<tag k="ssr:stedsnr" v="396845" />
	</node>
	<node lat="70.69738057001075" lon="27.71714388254019" id="-51746">
		<tag k="fixme" v="consider natural=peak for the most distinct mountains in the district" />
		<tag k="name" v="Slettfjellet" />
		<tag k="natural" v="hill" />
		<tag k="place" v="locality" />
		<tag k="ssr:stedsnr" v="445308" />
	</node>
	<node lat="70.6404694621618" lon="28.005729917233303" id="-51747">
		<tag k="name" v="Kistedalen - Gistovággi" />
		<tag k="name:no" v="Kistedalen" />
		<tag k="name:se" v="Gistovággi" />
		<tag k="natural" v="valley" />
		<tag k="old_name:se" v="Gistuvaggi" />
		<tag k="place" v="locality" />
		<tag k="ssr:stedsnr" v="445280" />
	</node>
	<node lat="70.65030279032865" lon="27.99089104243822" id="-51748">
		<tag k="name" v="Svartberga" />
		<tag k="natural" v="hill" />
		<tag k="place" v="locality" />
		<tag k="ssr:stedsnr" v="445281" />
	</node>
	<node lat="71.05256112717377" lon="28.174468848704603" id="-51757">
		<tag k="name" v="Grytvasstrupen" />
		<tag k="natural" v="valley" />
		<tag k="place" v="locality" />
		<tag k="ssr:stedsnr" v="449769" />
	</node>
	<node lat="71.0549805704264" lon="28.197066054668007" id="-51758">
		<tag k="name" v="Holmvasshøgda" />
		<tag k="natural" v="hill" />
		<tag k="place" v="locality" />
		<tag k="ssr:stedsnr" v="449770" />
	</node>
	<node lat="71.00130834558773" lon="27.831960576105725" id="-51760">
		<tag k="name" v="Flutudalen" />
		<tag k="natural" v="valley" />
		<tag k="place" v="locality" />
		<tag k="ssr:stedsnr" v="450965" />
	</node>
	<node lat="71.00092501543982" lon="27.825488360326474" id="-51761">
		<tag k="name" v="Flutua" />
		<tag k="natural" v="hill" />
		<tag k="place" v="locality" />
		<tag k="ssr:stedsnr" v="450967" />
	</node>
	<node lat="70.6291389070406" lon="27.720821673199985" id="-51763">
		<tag k="name" v="Bukkeberget" />
		<tag k="natural" v="hill" />
		<tag k="place" v="locality" />
		<tag k="ssr:stedsnr" v="455622" />
	</node>
	<node lat="70.51507501536653" lon="27.460960575076925" id="-51767">
		<tag k="name" v="Árasanleahki" />
		<tag k="name:se" v="Árasanleahki" />
		<tag k="natural" v="valley" />
		<tag k="old_name:se" v="Arasanlækki" />
		<tag k="place" v="locality" />
		<tag k="ssr:stedsnr" v="505318" />
	</node>
	<node lat="70.63772501139279" lon="27.463432809957915" id="-51770">
		<tag k="fixme" v="consider natural=peak for the most distinct mountains in the district" />
		<tag k="name" v="Miehterášša" />
		<tag k="name:se" v="Miehterášša" />
		<tag k="natural" v="hill" />
		<tag k="old_name:se" v="Mietterašša" />
		<tag k="place" v="locality" />
		<tag k="ssr:stedsnr" v="505715" />
	</node>
	<node lat="71.05069168475282" lon="28.242377158264013" id="-51780">
		<tag k="name" v="Tverrvikraet" />
		<tag k="natural" v="hill" />
		<tag k="place" v="locality" />
		<tag k="ssr:stedsnr" v="510808" />
	</node>
	<node lat="71.0549805704264" lon="28.197066054668007" id="-51781">
		<tag k="name" v="Tverrvikstrupen" />
		<tag k="natural" v="valley" />
		<tag k="place" v="locality" />
		<tag k="ssr:stedsnr" v="510811" />
	</node>
	<node lat="70.66836112240294" lon="27.767482769841173" id="-51788">
		<tag k="fixme" v="consider natural=peak for the most distinct mountains in the district" />
		<tag k="name" v="Gállonurki" />
		<tag k="name:se" v="Gállonurki" />
		<tag k="natural" v="hill" />
		<tag k="place" v="locality" />
		<tag k="ssr:stedsnr" v="515234" />
	</node>
	<node lat="70.66235557365539" lon="27.77948553231853" id="-51789">
		<tag k="name" v="Stolpesletta - Čuoldaáidi" />
		<tag k="name:no" v="Stolpesletta" />
		<tag k="name:se" v="Čuoldaáidi" />
		<tag k="place" v="locality" />
		<tag k="ssr:stedsnr" v="515241" />
	</node>
	<node lat="71.0463916763916" lon="27.923091120349287" id="-51793">
		<tag k="fixme" v="consider natural=peak for the most distinct mountains in the district" />
		<tag k="name" v="Skipsviktuva" />
		<tag k="natural" v="hill" />
		<tag k="place" v="locality" />
		<tag k="ssr:stedsnr" v="687429" />
	</node>
	<node lat="70.99234168038836" lon="27.7788272489363" id="-51799">
		<tag k="name" v="Ostebakkan" />
		<tag k="natural" v="slope" />
		<tag k="place" v="locality" />
		<tag k="ssr:stedsnr" v="687830" />
	</node>
	<node lat="71.00123334645448" lon="28.344118805986994" id="-51800">
		<tag k="alt_name" v="Teisteberga" />
		<tag k="name" v="Teistbergan" />
		<tag k="natural" v="hill" />
		<tag k="place" v="locality" />
		<tag k="ssr:stedsnr" v="687900" />
	</node>
	<node lat="70.84286112790629" lon="28.31257988012367" id="-51811">
		<tag k="fixme" v="consider natural=peak for the most distinct mountains in the district" />
		<tag k="name" v="Dæigofjellet - Deaigu" />
		<tag k="name:no" v="Dæigofjellet" />
		<tag k="name:se" v="Deaigu" />
		<tag k="natural" v="hill" />
		<tag k="old_name:se" v="Dæigo" />
		<tag k="place" v="locality" />
		<tag k="ssr:stedsnr" v="688952" />
	</node>
	<node lat="71.02844167996412" lon="27.89770223740766" id="-51813">
		<tag k="fixme" v="consider natural=peak for the most distinct mountains in the district" />
		<tag k="name" v="Bjørkvikfjellet" />
		<tag k="natural" v="hill" />
		<tag k="place" v="locality" />
		<tag k="ssr:stedsnr" v="692115" />
	</node>
	<node lat="70.677575012935" lon="27.79937719533736" id="-51820">
		<tag k="name" v="Stuorravággi" />
		<tag k="name:se" v="Stuorravággi" />
		<tag k="natural" v="valley" />
		<tag k="old_name:se" v="Stuorravaggi" />
		<tag k="place" v="locality" />
		<tag k="ssr:stedsnr" v="566305" />
	</node>
	<node lat="70.67361390501272" lon="28.157515997956743" id="-51821">
		<tag k="name" v="Čillevággi" />
		<tag k="name:se" v="Čillevággi" />
		<tag k="natural" v="valley" />
		<tag k="old_name:se" v="Čillevaggi" />
		<tag k="place" v="locality" />
		<tag k="ssr:stedsnr" v="566307" />
	</node>
	<node lat="70.62890834839943" lon="27.395732842587655" id="-51823">
		<tag k="fixme" v="consider natural=peak for the most distinct mountains in the district" />
		<tag k="name" v="Gavdnjavárri" />
		<tag k="name:se" v="Gavdnjavárri" />
		<tag k="natural" v="hill" />
		<tag k="old_name:se" v="Gavdnjavarri" />
		<tag k="place" v="locality" />
		<tag k="ssr:stedsnr" v="566712" />
	</node>
	<node lat="71.05679723617253" lon="28.228441050668888" id="-51824">
		<tag k="name" v="Karlbakken" />
		<tag k="natural" v="slope" />
		<tag k="place" v="locality" />
		<tag k="ssr:stedsnr" v="692819" />
	</node>
	<node lat="71.0467833460315" lon="28.019599439406978" id="-51825">
		<tag k="name" v="Futelvdalen" />
		<tag k="natural" v="valley" />
		<tag k="place" v="locality" />
		<tag k="ssr:stedsnr" v="692846" />
	</node>
	<node lat="71.03421668013426" lon="28.01331333612626" id="-51827">
		<tag k="fixme" v="consider natural=peak for the most distinct mountains in the district" />
		<tag k="name" v="Futfjell" />
		<tag k="natural" v="hill" />
		<tag k="place" v="locality" />
		<tag k="ssr:stedsnr" v="692929" />
	</node>
	<node lat="71.02055278921368" lon="27.85808835750984" id="-51828">
		<tag k="name" v="Klondyke" />
		<tag k="natural" v="slope" />
		<tag k="place" v="locality" />
		<tag k="ssr:stedsnr" v="692950" />
	</node>
	<node lat="70.7977944583432" lon="28.128304924252827" id="-51832">
		<tag k="name" v="Berget" />
		<tag k="natural" v="hill" />
		<tag k="place" v="locality" />
		<tag k="ssr:stedsnr" v="570661" />
	</node>
	<node lat="71.03567501546712" lon="28.144352180282606" id="-51837">
		<tag k="fixme" v="consider natural=peak for the most distinct mountains in the district" />
		<tag k="name" v="Urvasstoppan" />
		<tag k="natural" v="hill" />
		<tag k="place" v="locality" />
		<tag k="ssr:stedsnr" v="693902" />
	</node>
	<node lat="71.04036112793771" lon="27.916135567189933" id="-51838">
		<tag k="name" v="Bjørkviktua" />
		<tag k="natural" v="hill" />
		<tag k="place" v="locality" />
		<tag k="ssr:stedsnr" v="571999" />
	</node>
	<node lat="70.80457501828712" lon="27.860310536059895" id="-51841">
		<tag k="name" v="Lauvlia" />
		<tag k="natural" v="slope" />
		<tag k="place" v="locality" />
		<tag k="ssr:stedsnr" v="694442" />
	</node>
	<node lat="70.70889445830471" lon="28.06552436659234" id="-51842">
		<tag k="name" v="Småskjærhøgda" />
		<tag k="natural" v="hill" />
		<tag k="place" v="locality" />
		<tag k="ssr:stedsnr" v="576207" />
	</node>
	<node lat="70.74391945898799" lon="28.04307159882609" id="-51844">
		<tag k="fixme" v="consider natural=peak for the most distinct mountains in the district" />
		<tag k="name" v="Litle Skogfjordfjellet" />
		<tag k="natural" v="hill" />
		<tag k="place" v="locality" />
		<tag k="ssr:stedsnr" v="694701" />
	</node>
	<node lat="70.70634723643512" lon="28.043527143109543" id="-51847">
		<tag k="name" v="Skoahppa-leahki" />
		<tag k="name:se" v="Skoahppa-leahki" />
		<tag k="natural" v="valley" />
		<tag k="place" v="locality" />
		<tag k="ssr:stedsnr" v="697225" />
	</node>
	<node lat="70.67385835297989" lon="27.82298275524536" id="-51848">
		<tag k="name" v="Ellevággi" />
		<tag k="name:se" v="Ellevággi" />
		<tag k="natural" v="valley" />
		<tag k="place" v="locality" />
		<tag k="ssr:stedsnr" v="697253" />
	</node>
	<node lat="70.43702501255339" lon="27.404893909602716" id="-51852">
		<tag k="fixme" v="consider natural=peak for the most distinct mountains in the district" />
		<tag k="name" v="Eaštorčohkka" />
		<tag k="name:se" v="Eaštorčohkka" />
		<tag k="natural" v="hill" />
		<tag k="old_name:se" v="Æšturčåkka" />
		<tag k="place" v="locality" />
		<tag k="ssr:stedsnr" v="626214" />
	</node>
	<node lat="70.71675001317728" lon="27.77296887828254" id="-51855">
		<tag k="fixme" v="consider natural=peak for the most distinct mountains in the district" />
		<tag k="name" v="Goalserášša" />
		<tag k="name:se" v="Goalserášša" />
		<tag k="natural" v="hill" />
		<tag k="old_name:se" v="Goalserašša" />
		<tag k="place" v="locality" />
		<tag k="ssr:stedsnr" v="626318" />
	</node>
	<node lat="70.71809445888691" lon="28.001860492168746" id="-51856">
		<tag k="fixme" v="consider natural=peak for the most distinct mountains in the district" />
		<tag k="name" v="Bárši" />
		<tag k="name:se" v="Bárši" />
		<tag k="natural" v="hill" />
		<tag k="old_name:se" v="Barši" />
		<tag k="place" v="locality" />
		<tag k="ssr:stedsnr" v="626321" />
	</node>
	<node lat="70.55216112533077" lon="27.685235549742824" id="-51857">
		<tag k="fixme" v="consider natural=peak for the most distinct mountains in the district" />
		<tag k="name" v="Bohkoščohkka" />
		<tag k="name:se" v="Bohkoščohkka" />
		<tag k="natural" v="hill" />
		<tag k="old_name:se" v="Båkkuščåkka" />
		<tag k="place" v="locality" />
		<tag k="ssr:stedsnr" v="626414" />
	</node>
	<node lat="70.91030557375586" lon="28.182266030565675" id="-51864">
		<tag k="name" v="Tyfjordstrupen - Strumpu" />
		<tag k="name:no" v="Tyfjordstrupen" />
		<tag k="name:se" v="Strumpu" />
		<tag k="natural" v="valley" />
		<tag k="old_name:se" v="Strumpo" />
		<tag k="place" v="locality" />
		<tag k="ssr:stedsnr" v="626854" />
	</node>
	<node lat="70.80144446120296" lon="28.152077151714593" id="-51867">
		<tag k="name" v="Bjørnelvdalen" />
		<tag k="natural" v="valley" />
		<tag k="place" v="locality" />
		<tag k="ssr:stedsnr" v="631705" />
	</node>
	<node lat="70.81045556590065" lon="28.08212438473518" id="-51868">
		<tag k="name" v="Olarsabakken" />
		<tag k="natural" v="slope" />
		<tag k="place" v="locality" />
		<tag k="ssr:stedsnr" v="631715" />
	</node>
	<node lat="71.030505565387" lon="28.107641084772098" id="-51871">
		<tag k="fixme" v="consider natural=peak for the most distinct mountains in the district" />
		<tag k="name" v="Middagsfjell" />
		<tag k="natural" v="hill" />
		<tag k="place" v="locality" />
		<tag k="ssr:stedsnr" v="631912" />
	</node>
	<node lat="70.67195001438918" lon="27.85609663082976" id="-51874">
		<tag k="name" v="Sommerheimdalen" />
		<tag k="natural" v="valley" />
		<tag k="place" v="locality" />
		<tag k="ssr:stedsnr" v="636226" />
	</node>
	<node lat="70.7021666831951" lon="28.019574388063297" id="-51875">
		<tag k="fixme" v="consider natural=peak for the most distinct mountains in the district" />
		<tag k="name" v="Háldečohkka" />
		<tag k="name:se" v="Háldečohkka" />
		<tag k="natural" v="hill" />
		<tag k="old_name:se" v="Haldečåkka" />
		<tag k="place" v="locality" />
		<tag k="ssr:stedsnr" v="687296" />
	</node>
	<node lat="70.98424446182477" lon="28.200974392154354" id="-51879">
		<tag k="fixme" v="consider natural=peak for the most distinct mountains in the district" />
		<tag k="name" v="Ørntind" />
		<tag k="natural" v="hill" />
		<tag k="place" v="locality" />
		<tag k="ssr:stedsnr" v="687838" />
	</node>
	<node lat="70.79264723700963" lon="28.210652130296364" id="-51881">
		<tag k="fixme" v="consider natural=peak for the most distinct mountains in the district" />
		<tag k="name" v="Klubben" />
		<tag k="natural" v="hill" />
		<tag k="place" v="locality" />
		<tag k="ssr:stedsnr" v="687886" />
	</node>
	<node lat="70.80031390443261" lon="28.064260492676993" id="-51888">
		<tag k="name" v="Breivikdalen" />
		<tag k="natural" v="valley" />
		<tag k="place" v="locality" />
		<tag k="ssr:stedsnr" v="692675" />
	</node>
	<node lat="71.01656668268726" lon="27.854393915990318" id="-51893">
		<tag k="name" v="Pakkhusdalen" />
		<tag k="natural" v="valley" />
		<tag k="place" v="locality" />
		<tag k="ssr:stedsnr" v="692978" />
	</node>
	<node lat="71.02869445793623" lon="27.869635584109943" id="-51894">
		<tag k="name" v="Vassdalen" />
		<tag k="natural" v="valley" />
		<tag k="place" v="locality" />
		<tag k="ssr:stedsnr" v="692982" />
	</node>
	<node lat="70.61861946062291" lon="27.748013306034096" id="-51897">
		<tag k="name" v="Grønnsletta" />
		<tag k="place" v="locality" />
		<tag k="ssr:stedsnr" v="698628" />
	</node>
	<node lat="70.97327501439575" lon="28.181474377897683" id="-51900">
		<tag k="fixme" v="consider natural=peak for the most distinct mountains in the district" />
		<tag k="name" v="Skardangen" />
		<tag k="natural" v="hill" />
		<tag k="place" v="locality" />
		<tag k="ssr:stedsnr" v="747817" />
	</node>
	<node lat="70.77835001727604" lon="27.818610544765054" id="-51910">
		<tag k="alt_name" v="Skarvberget" />
		<tag k="name" v="Bergan" />
		<tag k="natural" v="hill" />
		<tag k="place" v="locality" />
		<tag k="ssr:stedsnr" v="748906" />
	</node>
	<node lat="70.9948055728324" lon="28.32448823498272" id="-51911">
		<tag k="name" v="Teisteberghaugen" />
		<tag k="natural" v="hill" />
		<tag k="place" v="locality" />
		<tag k="ssr:stedsnr" v="748910" />
	</node>
	<node lat="71.04011112342987" lon="27.993729983547226" id="-51918">
		<tag k="name" v="Futelvhøgda" />
		<tag k="natural" v="hill" />
		<tag k="place" v="locality" />
		<tag k="ssr:stedsnr" v="753920" />
	</node>
	<node lat="71.03965279004028" lon="28.020552204156587" id="-51919">
		<tag k="name" v="Rypetoppan" />
		<tag k="natural" v="hill" />
		<tag k="place" v="locality" />
		<tag k="ssr:stedsnr" v="753922" />
	</node>
	<node lat="71.02661112700109" lon="27.97013001060483" id="-51922">
		<tag k="fixme" v="consider natural=peak for the most distinct mountains in the district" />
		<tag k="name" v="Futelvtoppan" />
		<tag k="natural" v="hill" />
		<tag k="place" v="locality" />
		<tag k="ssr:stedsnr" v="753959" />
	</node>
	<node lat="71.07551668305749" lon="28.21506051637179" id="-51923">
		<tag k="name" v="Austerhaugen" />
		<tag k="natural" v="hill" />
		<tag k="place" v="locality" />
		<tag k="ssr:stedsnr" v="753808" />
	</node>
	<node lat="71.0067250090967" lon="27.853430019573576" id="-51932">
		<tag k="name" v="Svartholet" />
		<tag k="natural" v="valley" />
		<tag k="place" v="locality" />
		<tag k="ssr:stedsnr" v="809407" />
	</node>
	<node lat="70.82793334740587" lon="28.172032686666" id="-51937">
		<tag k="fixme" v="consider natural=peak for the most distinct mountains in the district" />
		<tag k="name" v="Vuohpperášša" />
		<tag k="name:se" v="Vuohpperášša" />
		<tag k="natural" v="hill" />
		<tag k="old_name:se" v="Vuopperašša" />
		<tag k="place" v="locality" />
		<tag k="ssr:stedsnr" v="809868" />
	</node>
	<node lat="70.79889446261777" lon="28.165068790868258" id="-51940">
		<tag k="alt_name" v="Hamnesfjellet" />
		<tag k="fixme" v="consider natural=peak for the most distinct mountains in the district" />
		<tag k="name" v="Hamnnesfjellet" />
		<tag k="natural" v="hill" />
		<tag k="place" v="locality" />
		<tag k="ssr:stedsnr" v="809893" />
	</node>
	<node lat="70.61563057590543" lon="27.805443856814506" id="-51941">
		<tag k="fixme" v="consider natural=peak for the most distinct mountains in the district" />
		<tag k="name" v="Holmsvikfjellet - Nurki" />
		<tag k="name:no" v="Holmsvikfjellet" />
		<tag k="name:se" v="Nurki" />
		<tag k="natural" v="hill" />
		<tag k="place" v="locality" />
		<tag k="ssr:stedsnr" v="813209" />
	</node>
	<node lat="71.07735834716213" lon="28.202054956897413" id="-51946">
		<tag k="name" v="Kråketua" />
		<tag k="natural" v="hill" />
		<tag k="place" v="locality" />
		<tag k="ssr:stedsnr" v="814829" />
	</node>
	<node lat="71.02019445262755" lon="27.892043903606247" id="-51947">
		<tag k="name" v="Storvassdalen" />
		<tag k="natural" v="valley" />
		<tag k="place" v="locality" />
		<tag k="ssr:stedsnr" v="814975" />
	</node>
	<node lat="70.71724168016681" lon="28.067079923674452" id="-51950">
		<tag k="name" v="Jensenlia" />
		<tag k="natural" v="slope" />
		<tag k="place" v="locality" />
		<tag k="ssr:stedsnr" v="819222" />
	</node>
	<node lat="70.81695001417971" lon="27.949691065257927" id="-51952">
		<tag k="fixme" v="consider natural=peak for the most distinct mountains in the district" />
		<tag k="name" v="Rustadheia" />
		<tag k="natural" v="hill" />
		<tag k="place" v="locality" />
		<tag k="ssr:stedsnr" v="821880" />
	</node>
	<node lat="70.68895279699318" lon="28.179093767966584" id="-51963">
		<tag k="name" v="Heandaratvággi" />
		<tag k="name:se" v="Heandaratvággi" />
		<tag k="natural" v="valley" />
		<tag k="old_name:se" v="Hændaratvaggi" />
		<tag k="place" v="locality" />
		<tag k="ssr:stedsnr" v="870314" />
	</node>
	<node lat="70.576438905411" lon="27.815929963145766" id="-51964">
		<tag k="alt_name:se" v="Anutvaggi" />
		<tag k="name" v="Ánotvággi" />
		<tag k="name:se" v="Ánotvággi" />
		<tag k="natural" v="valley" />
		<tag k="place" v="locality" />
		<tag k="ssr:stedsnr" v="930267" />
	</node>
	<node lat="70.97112779785617" lon="28.444229872788664" id="-51970">
		<tag k="fixme" v="consider natural=peak for the most distinct mountains in the district" />
		<tag k="name" v="Lauparen" />
		<tag k="natural" v="hill" />
		<tag k="place" v="locality" />
		<tag k="ssr:stedsnr" v="870908" />
	</node>
	<node lat="70.93141945715097" lon="28.248454899705962" id="-51971">
		<tag k="fixme" v="consider natural=peak for the most distinct mountains in the district" />
		<tag k="name" v="Koifjordfjellet - Vuokkarášša" />
		<tag k="name:no" v="Koifjordfjellet" />
		<tag k="name:se" v="Vuokkarášša" />
		<tag k="natural" v="hill" />
		<tag k="old_name:se" v="Vuoggarašša" />
		<tag k="place" v="locality" />
		<tag k="ssr:stedsnr" v="870918" />
	</node>
	<node lat="70.735775013745" lon="27.788763338108904" id="-51973">
		<tag k="fixme" v="consider natural=peak for the most distinct mountains in the district" />
		<tag k="name" v="Skremselsfjellet" />
		<tag k="natural" v="hill" />
		<tag k="place" v="locality" />
		<tag k="ssr:stedsnr" v="930310" />
	</node>
	<node lat="71.05930001571807" lon="28.00022444542091" id="-51980">
		<tag k="name" v="Futelvtuva" />
		<tag k="natural" v="hill" />
		<tag k="place" v="locality" />
		<tag k="ssr:stedsnr" v="930431" />
	</node>
	<node lat="71.06000834387456" lon="27.78291060147721" id="-51995">
		<tag k="fixme" v="consider natural=peak for the most distinct mountains in the district" />
		<tag k="name" v="Kuskjelltua" />
		<tag k="natural" v="hill" />
		<tag k="place" v="locality" />
		<tag k="ssr:stedsnr" v="935009" />
	</node>
	<node lat="70.60652779136626" lon="27.561846686646085" id="-51999">
		<tag k="name" v="Langfjorddalen" />
		<tag k="natural" v="valley" />
		<tag k="place" v="locality" />
		<tag k="ssr:stedsnr" v="930744" />
	</node>
	<node lat="70.76628890463607" lon="27.78304388940059" id="-52004">
		<tag k="name" v="Liene" />
		<tag k="natural" v="slope" />
		<tag k="place" v="locality" />
		<tag k="ssr:stedsnr" v="930885" />
	</node>
	<node lat="71.047769459202" lon="28.188443848747493" id="-52009">
		<tag k="fixme" v="consider natural=peak for the most distinct mountains in the district" />
		<tag k="name" v="Tverrvikpallen" />
		<tag k="natural" v="hill" />
		<tag k="place" v="locality" />
		<tag k="ssr:stedsnr" v="935784" />
	</node>
	<node lat="71.00941112524768" lon="27.824960575183788" id="-52011">
		<tag k="name" v="St. Ditlef" />
		<tag k="natural" v="hill" />
		<tag k="place" v="locality" />
		<tag k="ssr:stedsnr" v="935987" />
	</node>
	<node lat="71.04699723592621" lon="27.730974485892315" id="-52014">
		<tag k="name" v="Kobbhaugan" />
		<tag k="natural" v="hill" />
		<tag k="place" v="locality" />
		<tag k="ssr:stedsnr" v="20409" />
	</node>
	<node lat="71.01455001120897" lon="27.895766111919734" id="-52017">
		<tag k="name" v="Olufaksla" />
		<tag k="place" v="locality" />
		<tag k="ssr:stedsnr" v="20373" />
	</node>
	<node lat="70.76057501352004" lon="27.85714941660764" id="-52023">
		<tag k="fixme" v="consider natural=peak for the most distinct mountains in the district" />
		<tag k="name" v="Sørtind" />
		<tag k="natural" v="hill" />
		<tag k="place" v="locality" />
		<tag k="ssr:stedsnr" v="20910" />
	</node>
	<node lat="70.95749168586029" lon="28.413432656580216" id="-52024">
		<tag k="name" v="Risdalen" />
		<tag k="natural" v="valley" />
		<tag k="place" v="locality" />
		<tag k="ssr:stedsnr" v="20922" />
	</node>
	<node lat="70.80710001815714" lon="27.945860519556053" id="-52028">
		<tag k="name" v="Stappan" />
		<tag k="natural" v="hill" />
		<tag k="place" v="locality" />
		<tag k="ssr:stedsnr" v="20878" />
	</node>
	<node lat="70.81765835116074" lon="28.092896598031224" id="-52031">
		<tag k="name" v="Stakselvdalen" />
		<tag k="natural" v="valley" />
		<tag k="place" v="locality" />
		<tag k="ssr:stedsnr" v="25720" />
	</node>
	<node lat="70.665730572808" lon="27.85355773820254" id="-52039">
		<tag k="name" v="Kavelberget" />
		<tag k="natural" v="hill" />
		<tag k="place" v="locality" />
		<tag k="ssr:stedsnr" v="30254" />
	</node>
	<node lat="70.55735557013921" lon="27.38135228050048" id="-52049">
		<tag k="name" v="Lákkomohkki" />
		<tag k="name:se" v="Lákkomohkki" />
		<tag k="natural" v="valley" />
		<tag k="old_name:se" v="Laggumåkki" />
		<tag k="place" v="locality" />
		<tag k="ssr:stedsnr" v="80752" />
	</node>
	<node lat="70.67807501014673" lon="27.555802248349774" id="-52062">
		<tag k="fixme" v="consider natural=peak for the most distinct mountains in the district" />
		<tag k="name" v="Stohpogielas" />
		<tag k="name:se" v="Stohpogielas" />
		<tag k="natural" v="hill" />
		<tag k="old_name:se" v="Ståppugielas" />
		<tag k="place" v="locality" />
		<tag k="ssr:stedsnr" v="81691" />
	</node>
	<node lat="70.8067194633267" lon="28.070535497800524" id="-52066">
		<tag k="name" v="Lillelvdalen" />
		<tag k="natural" v="valley" />
		<tag k="place" v="locality" />
		<tag k="ssr:stedsnr" v="85644" />
	</node>
	<node lat="70.82990557363587" lon="28.128857696607437" id="-52067">
		<tag k="alt_name" v="Strupen" />
		<tag k="name" v="Storviastrupen" />
		<tag k="natural" v="valley" />
		<tag k="place" v="locality" />
		<tag k="ssr:stedsnr" v="85676" />
	</node>
	<node lat="71.08935279495716" lon="28.14559663136671" id="-52071">
		<tag k="name" v="Mikkelberget" />
		<tag k="natural" v="hill" />
		<tag k="place" v="locality" />
		<tag k="ssr:stedsnr" v="85816" />
	</node>
	<node lat="70.82753890947083" lon="28.257927107132016" id="-52075">
		<tag k="name" v="Dalen" />
		<tag k="natural" v="valley" />
		<tag k="place" v="locality" />
		<tag k="ssr:stedsnr" v="87361" />
	</node>
	<node lat="70.6647527964786" lon="27.80566886494535" id="-52078">
		<tag k="name" v="Midtre Rundhaugen - Gaska boarka oaivi" />
		<tag k="name:no" v="Midtre Rundhaugen" />
		<tag k="name:se" v="Gaska boarka oaivi" />
		<tag k="natural" v="hill" />
		<tag k="place" v="locality" />
		<tag k="ssr:stedsnr" v="91250" />
	</node>
	<node lat="71.08688890141809" lon="28.053610557053226" id="-52085">
		<tag k="name" v="Bispen" />
		<tag k="natural" v="hill" />
		<tag k="place" v="locality" />
		<tag k="ssr:stedsnr" v="140453" />
	</node>
	<node lat="70.91070557542228" lon="28.4529659658943" id="-52091">
		<tag k="name" v="Finnkongkeila" />
		<tag k="natural" v="valley" />
		<tag k="place" v="locality" />
		<tag k="ssr:stedsnr" v="141911" />
	</node>
	<node lat="70.6658777955825" lon="27.919093845235864" id="-52096">
		<tag k="name" v="Øybakken" />
		<tag k="natural" v="slope" />
		<tag k="place" v="locality" />
		<tag k="ssr:stedsnr" v="141289" />
	</node>
	<node lat="71.03671390243073" lon="28.057949429793933" id="-52101">
		<tag k="alt_name" v="Middagstua" />
		<tag k="name" v="Middagstuva" />
		<tag k="natural" v="hill" />
		<tag k="place" v="locality" />
		<tag k="ssr:stedsnr" v="141439" />
	</node>
	<node lat="70.90093334430411" lon="27.953204975677107" id="-52105">
		<tag k="fixme" v="consider natural=peak for the most distinct mountains in the district" />
		<tag k="name" v="Vuoidul" />
		<tag k="name:se" v="Vuoidul" />
		<tag k="natural" v="hill" />
		<tag k="old_name:se" v="Vuoidol" />
		<tag k="place" v="locality" />
		<tag k="ssr:stedsnr" v="141820" />
	</node>
	<node lat="70.85169445841731" lon="28.00422439735184" id="-52106">
		<tag k="fixme" v="consider natural=peak for the most distinct mountains in the district" />
		<tag k="name" v="Hornslettfjellet - Rovru" />
		<tag k="name:no" v="Hornslettfjellet" />
		<tag k="name:se" v="Rovru" />
		<tag k="natural" v="hill" />
		<tag k="old_name:se" v="Råvro" />
		<tag k="place" v="locality" />
		<tag k="ssr:stedsnr" v="141826" />
	</node>
	<node lat="70.81683334491996" lon="27.980557742041547" id="-52108">
		<tag k="name" v="Vassberget" />
		<tag k="natural" v="hill" />
		<tag k="place" v="locality" />
		<tag k="ssr:stedsnr" v="141845" />
	</node>
	<node lat="71.02850556342636" lon="28.123304971744318" id="-52112">
		<tag k="name" v="Gunnarsfjordstrupen" />
		<tag k="natural" v="valley" />
		<tag k="place" v="locality" />
		<tag k="ssr:stedsnr" v="146897" />
	</node>
	<node lat="71.03079167607373" lon="27.876343916337653" id="-52115">
		<tag k="name" v="Lillevassdalen" />
		<tag k="natural" v="valley" />
		<tag k="place" v="locality" />
		<tag k="ssr:stedsnr" v="146989" />
	</node>
	<node lat="71.07208334640583" lon="28.17041885294653" id="-52119">
		<tag k="name" v="Steinrabban" />
		<tag k="natural" v="hill" />
		<tag k="place" v="locality" />
		<tag k="ssr:stedsnr" v="146798" />
	</node>
	<node lat="71.04333056873007" lon="28.21138827063081" id="-52120">
		<tag k="name" v="Storvikhøgda" />
		<tag k="natural" v="hill" />
		<tag k="place" v="locality" />
		<tag k="ssr:stedsnr" v="146829" />
	</node>
	<node lat="70.81974723810328" lon="27.992346621298427" id="-52123">
		<tag k="fixme" v="consider natural=peak for the most distinct mountains in the district" />
		<tag k="name" v="Ørntind" />
		<tag k="natural" v="hill" />
		<tag k="place" v="locality" />
		<tag k="ssr:stedsnr" v="153869" />
	</node>
	<node lat="70.92916945603803" lon="28.176177141010893" id="-52125">
		<tag k="fixme" v="consider natural=peak for the most distinct mountains in the district" />
		<tag k="name" v="Sandfjellet" />
		<tag k="natural" v="hill" />
		<tag k="place" v="locality" />
		<tag k="ssr:stedsnr" v="163493" />
	</node>
	<node lat="70.68319723755519" lon="27.858699400926632" id="-52129">
		<tag k="name" v="Davvevággi" />
		<tag k="name:se" v="Davvevággi" />
		<tag k="natural" v="valley" />
		<tag k="old_name:se" v="Davvevaggi" />
		<tag k="place" v="locality" />
		<tag k="ssr:stedsnr" v="202288" />
	</node>
	<node lat="70.70933612555095" lon="28.243274306272454" id="-52130">
		<tag k="name" v="Ytre Liver - Olggut Liivvar" />
		<tag k="name:no" v="Ytre Liver" />
		<tag k="name:se" v="Olggut Liivvar" />
		<tag k="natural" v="valley" />
		<tag k="old_name:se" v="Liivar, ålgot" />
		<tag k="place" v="locality" />
		<tag k="ssr:stedsnr" v="202356" />
	</node>
	<node lat="70.53002502061057" lon="27.659135536361585" id="-52131">
		<tag k="name" v="Bohkošleahki" />
		<tag k="name:se" v="Bohkošleahki" />
		<tag k="natural" v="valley" />
		<tag k="old_name:se" v="Båkkušlækki" />
		<tag k="place" v="locality" />
		<tag k="ssr:stedsnr" v="202377" />
	</node>
	<node lat="71.05253334515058" lon="28.195485496302474" id="-52140">
		<tag k="alt_name" v="Holmfjell" />
		<tag k="name" v="Holmevasshøgda" />
		<tag k="natural" v="hill" />
		<tag k="place" v="locality" />
		<tag k="ssr:stedsnr" v="202415" />
	</node>
	<node lat="70.62137501579983" lon="27.569999454783336" id="-52147">
		<tag k="name" v="Himmelberget" />
		<tag k="natural" v="hill" />
		<tag k="place" v="locality" />
		<tag k="ssr:stedsnr" v="202725" />
	</node>
	<node lat="70.80928889894788" lon="28.038060509704223" id="-52148">
		<tag k="alt_name" v="Per, store" />
		<tag k="fixme" v="consider natural=peak for the most distinct mountains in the district" />
		<tag k="name" v="Store-Per" />
		<tag k="natural" v="hill" />
		<tag k="place" v="locality" />
		<tag k="ssr:stedsnr" v="202886" />
	</node>
	<node lat="71.0689250141326" lon="28.18889107925865" id="-52159">
		<tag k="name" v="Gamvikvasshøgda" />
		<tag k="natural" v="hill" />
		<tag k="place" v="locality" />
		<tag k="ssr:stedsnr" v="207824" />
	</node>
	<node lat="70.9301139093819" lon="28.521732616326368" id="-52164">
		<tag k="name" v="Staurabergan" />
		<tag k="natural" v="hill" />
		<tag k="place" v="locality" />
		<tag k="ssr:stedsnr" v="208063" />
	</node>
	<node lat="70.71107224079502" lon="28.07925770603199" id="-52170">
		<tag k="name" v="Stoffari" />
		<tag k="natural" v="hill" />
		<tag k="place" v="locality" />
		<tag k="ssr:stedsnr" v="273219" />
	</node>
	<node lat="70.80458890141152" lon="27.737046686293112" id="-52173">
		<tag k="name" v="Pakkhusdalen" />
		<tag k="natural" v="valley" />
		<tag k="place" v="locality" />
		<tag k="ssr:stedsnr" v="274516" />
	</node>
	<node lat="71.01389168172315" lon="27.857110586053636" id="-52175">
		<tag k="fixme" v="consider natural=peak for the most distinct mountains in the district" />
		<tag k="name" v="Middagstuva" />
		<tag k="natural" v="hill" />
		<tag k="place" v="locality" />
		<tag k="ssr:stedsnr" v="323383" />
	</node>
	<node lat="70.6270777910634" lon="28.012582705512813" id="-52181">
		<tag k="fixme" v="consider natural=peak for the most distinct mountains in the district" />
		<tag k="name" v="Gistočohkka" />
		<tag k="name:se" v="Gistočohkka" />
		<tag k="natural" v="hill" />
		<tag k="old_name:se" v="Gistučåkka" />
		<tag k="place" v="locality" />
		<tag k="ssr:stedsnr" v="323270" />
	</node>
	<node lat="70.97245001696989" lon="28.522554844619236" id="-52188">
		<tag k="alt_name" v="Russevikhompen" />
		<tag k="fixme" v="consider natural=peak for the most distinct mountains in the district" />
		<tag k="name" v="Russevikhumpen" />
		<tag k="natural" v="hill" />
		<tag k="place" v="locality" />
		<tag k="ssr:stedsnr" v="323916" />
	</node>
	<node lat="70.94616667832453" lon="28.42244932344728" id="-52190">
		<tag k="fixme" v="consider natural=peak for the most distinct mountains in the district" />
		<tag k="name" v="Risdalsbruna" />
		<tag k="natural" v="hill" />
		<tag k="place" v="locality" />
		<tag k="ssr:stedsnr" v="323919" />
	</node>
	<node lat="70.89911667991807" lon="27.725066142372533" id="-52192">
		<tag k="fixme" v="consider natural=peak for the most distinct mountains in the district" />
		<tag k="name" v="Guvvačohkka" />
		<tag k="name:se" v="Guvvačohkka" />
		<tag k="natural" v="hill" />
		<tag k="old_name:se" v="Guvvačåkka" />
		<tag k="place" v="locality" />
		<tag k="ssr:stedsnr" v="323837" />
	</node>
	<node lat="70.79761390532076" lon="28.11189103058857" id="-52207">
		<tag k="name" v="Ytterhopshalsen" />
		<tag k="natural" v="slope" />
		<tag k="place" v="locality" />
		<tag k="ssr:stedsnr" v="328697" />
	</node>
	<node lat="71.00099167752278" lon="27.843810580936772" id="-52210">
		<tag k="name" v="Svarthollhøgda" />
		<tag k="natural" v="hill" />
		<tag k="place" v="locality" />
		<tag k="ssr:stedsnr" v="328949" />
	</node>
	<node lat="70.60732779022412" lon="27.50553281884166" id="-52214">
		<tag k="name" v="Statsteian" />
		<tag k="natural" v="slope" />
		<tag k="place" v="locality" />
		<tag k="ssr:stedsnr" v="333256" />
	</node>
	<node lat="70.70837501297656" lon="28.051174375582825" id="-52216">
		<tag k="name" v="Kråkberget" />
		<tag k="natural" v="hill" />
		<tag k="place" v="locality" />
		<tag k="ssr:stedsnr" v="333233" />
	</node>
	<node lat="70.78887223247128" lon="27.768763334993704" id="-52220">
		<tag k="name" v="Raet" />
		<tag k="place" v="locality" />
		<tag k="ssr:stedsnr" v="336841" />
	</node>
	<node lat="70.54506668558346" lon="27.49991614266692" id="-52225">
		<tag k="fixme" v="consider natural=peak for the most distinct mountains in the district" />
		<tag k="name" v="Digermulfjellet" />
		<tag k="natural" v="hill" />
		<tag k="place" v="locality" />
		<tag k="ssr:stedsnr" v="383747" />
	</node>
	<node lat="70.96922778739669" lon="27.855638332092585" id="-52227">
		<tag k="name" v="Hysvasskardet" />
		<tag k="natural" v="valley" />
		<tag k="place" v="locality" />
		<tag k="ssr:stedsnr" v="383833" />
	</node>
	<node lat="70.98860001247566" lon="27.74588836259043" id="-52228">
		<tag k="fixme" v="consider natural=peak for the most distinct mountains in the district" />
		<tag k="name" v="Medtuva" />
		<tag k="natural" v="hill" />
		<tag k="place" v="locality" />
		<tag k="ssr:stedsnr" v="383842" />
	</node>
	<node lat="70.6011000197242" lon="27.784557739056673" id="-52231">
		<tag k="fixme" v="consider natural=peak for the most distinct mountains in the district" />
		<tag k="name" v="Ánotvákkejorbbut" />
		<tag k="name:se" v="Ánotvákkejorbbut" />
		<tag k="natural" v="hill" />
		<tag k="old_name:se" v="Anutvaggejårbot" />
		<tag k="place" v="locality" />
		<tag k="ssr:stedsnr" v="384266" />
	</node>
	<node lat="71.0036666757339" lon="27.81717448114797" id="-52236">
		<tag k="alt_name" v="Fossbakkan" />
		<tag k="name" v="Fossbakkane" />
		<tag k="natural" v="slope" />
		<tag k="place" v="locality" />
		<tag k="ssr:stedsnr" v="384388" />
	</node>
	<node lat="70.80651668413896" lon="28.251854895068348" id="-52240">
		<tag k="name" v="Svensvikdalen" />
		<tag k="natural" v="valley" />
		<tag k="place" v="locality" />
		<tag k="ssr:stedsnr" v="384926" />
	</node>
	<node lat="70.79679446001299" lon="28.240629884220912" id="-52242">
		<tag k="fixme" v="consider natural=peak for the most distinct mountains in the district" />
		<tag k="name" v="Segelnesfjellet - Liehppegeahči" />
		<tag k="name:no" v="Segelnesfjellet" />
		<tag k="name:se" v="Liehppegeahči" />
		<tag k="natural" v="hill" />
		<tag k="old_name:se" v="Lieppegæčči" />
		<tag k="place" v="locality" />
		<tag k="ssr:stedsnr" v="384929" />
	</node>
	<node lat="70.80655001833372" lon="28.287779880061464" id="-52243">
		<tag k="name" v="Tuva - Ráigebákti" />
		<tag k="name:no" v="Tuva" />
		<tag k="name:se" v="Ráigebákti" />
		<tag k="natural" v="hill" />
		<tag k="old_name:se" v="Raigebakti" />
		<tag k="place" v="locality" />
		<tag k="ssr:stedsnr" v="384930" />
	</node>
	<node lat="70.80652223837976" lon="28.087493820988982" id="-52252">
		<tag k="alt_name" v="Lilleelvhøgda" />
		<tag k="name" v="Lillelvhøgda" />
		<tag k="natural" v="hill" />
		<tag k="place" v="locality" />
		<tag k="ssr:stedsnr" v="388661" />
	</node>
	<node lat="70.79369723778026" lon="28.064179939038446" id="-52253">
		<tag k="name" v="Gamberget" />
		<tag k="natural" v="hill" />
		<tag k="place" v="locality" />
		<tag k="ssr:stedsnr" v="388669" />
	</node>
	<node lat="70.80758890652375" lon="28.108041036439314" id="-52254">
		<tag k="name" v="Hopdalen" />
		<tag k="natural" v="valley" />
		<tag k="place" v="locality" />
		<tag k="ssr:stedsnr" v="388673" />
	</node>
	<node lat="71.0578722305849" lon="27.786249481929897" id="-52257">
		<tag k="name" v="Smørbringaksla" />
		<tag k="place" v="locality" />
		<tag k="ssr:stedsnr" v="389019" />
	</node>
	<node lat="71.05946945744562" lon="27.957443888007727" id="-52264">
		<tag k="name" v="Musbakken" />
		<tag k="natural" v="slope" />
		<tag k="place" v="locality" />
		<tag k="ssr:stedsnr" v="389965" />
	</node>
	<node lat="70.65678612794477" lon="27.8484994061315" id="-52269">
		<tag k="fixme" v="consider natural=peak for the most distinct mountains in the district" />
		<tag k="name" v="Storfjellet - Stuorračohkka" />
		<tag k="name:no" v="Storfjellet" />
		<tag k="name:se" v="Stuorračohkka" />
		<tag k="natural" v="hill" />
		<tag k="place" v="locality" />
		<tag k="ssr:stedsnr" v="394178" />
	</node>
	<node lat="70.99226945526753" lon="27.739646700597607" id="-52276">
		<tag k="name" v="Sørfjorddalen" />
		<tag k="natural" v="valley" />
		<tag k="place" v="locality" />
		<tag k="ssr:stedsnr" v="444792" />
	</node>
	<node lat="70.96871112297322" lon="28.14570217760827" id="-52277">
		<tag k="name" v="Bastiandalen" />
		<tag k="natural" v="valley" />
		<tag k="place" v="locality" />
		<tag k="ssr:stedsnr" v="444814" />
	</node>
	<node lat="70.64085834773584" lon="28.131177117952724" id="-52281">
		<tag k="fixme" v="consider natural=peak for the most distinct mountains in the district" />
		<tag k="name" v="Bearalgáisá" />
		<tag k="name:se" v="Bearalgáisá" />
		<tag k="natural" v="hill" />
		<tag k="old_name:se" v="Bæralgaisa" />
		<tag k="place" v="locality" />
		<tag k="ssr:stedsnr" v="445270" />
	</node>
	<node lat="70.81648612181264" lon="28.050613286215096" id="-52293">
		<tag k="alt_name" v="Per, litle" />
		<tag k="fixme" v="consider natural=peak for the most distinct mountains in the district" />
		<tag k="name" v="Lille Per" />
		<tag k="natural" v="hill" />
		<tag k="place" v="locality" />
		<tag k="ssr:stedsnr" v="445868" />
	</node>
	<node lat="70.98997501148956" lon="28.49870208356982" id="-52297">
		<tag k="name" v="Sumpan" />
		<tag k="place" v="locality" />
		<tag k="ssr:stedsnr" v="445918" />
	</node>
	<node lat="71.06798612659387" lon="28.236721600790418" id="-52299">
		<tag k="name" v="Skjørbebakken" />
		<tag k="natural" v="slope" />
		<tag k="place" v="locality" />
		<tag k="ssr:stedsnr" v="510848" />
	</node>
	<node lat="71.06969723492037" lon="28.128891083324415" id="-52309">
		<tag k="fixme" v="consider natural=peak for the most distinct mountains in the district" />
		<tag k="name" v="Steinvågaksla" />
		<tag k="natural" v="hill" />
		<tag k="place" v="locality" />
		<tag k="ssr:stedsnr" v="505432" />
	</node>
	<node lat="70.82815279567045" lon="28.013535522308267" id="-52332">
		<tag k="name" v="Sløykhamran" />
		<tag k="natural" v="hill" />
		<tag k="place" v="locality" />
		<tag k="ssr:stedsnr" v="510773" />
	</node>
	<node lat="71.08712778701741" lon="28.184166063684458" id="-52333">
		<tag k="alt_name" v="Hollendervikbakken" />
		<tag k="name" v="Hollendarvikbakken" />
		<tag k="natural" v="slope" />
		<tag k="place" v="locality" />
		<tag k="ssr:stedsnr" v="510872" />
	</node>
	<node lat="71.02472779135006" lon="27.887066143037842" id="-52334">
		<tag k="name" v="Nordre Vassdalen" />
		<tag k="natural" v="valley" />
		<tag k="place" v="locality" />
		<tag k="ssr:stedsnr" v="510982" />
	</node>
	<node lat="71.03344446037885" lon="27.907880009560447" id="-52335">
		<tag k="name" v="Bjørkvikdøra" />
		<tag k="natural" v="hill" />
		<tag k="place" v="locality" />
		<tag k="ssr:stedsnr" v="510998" />
	</node>
	<node lat="70.83254723641187" lon="28.223310455960313" id="-52339">
		<tag k="name" v="Rafjordfjellet" />
		<tag k="natural" v="hill" />
		<tag k="place" v="locality" />
		<tag k="ssr:stedsnr" v="512387" />
	</node>
	<node lat="70.77346112427982" lon="27.88621052230835" id="-52340">
		<tag k="name" v="Tynnbergan" />
		<tag k="natural" v="slope" />
		<tag k="place" v="locality" />
		<tag k="ssr:stedsnr" v="512729" />
	</node>
	<node lat="71.05449168342895" lon="28.10640497659729" id="-52346">
		<tag k="name" v="Tarevikaksla" />
		<tag k="natural" v="hill" />
		<tag k="place" v="locality" />
		<tag k="ssr:stedsnr" v="565392" />
	</node>
	<node lat="70.52215001656481" lon="27.553035579712535" id="-52349">
		<tag k="fixme" v="consider natural=peak for the most distinct mountains in the district" />
		<tag k="name" v="Beatnatgáisá" />
		<tag k="name:se" v="Beatnatgáisá" />
		<tag k="natural" v="hill" />
		<tag k="old_name:se" v="Bædnatgaisa" />
		<tag k="place" v="locality" />
		<tag k="ssr:stedsnr" v="565762" />
	</node>
	<node lat="70.87345834435924" lon="27.893152196755725" id="-52353">
		<tag k="fixme" v="consider natural=peak for the most distinct mountains in the district" />
		<tag k="name" v="Juohkoaivi" />
		<tag k="name:se" v="Juohkoaivi" />
		<tag k="natural" v="hill" />
		<tag k="old_name:se" v="Juokkoaivi" />
		<tag k="place" v="locality" />
		<tag k="ssr:stedsnr" v="565837" />
	</node>
	<node lat="70.98129168300396" lon="28.370999335641404" id="-52364">
		<tag k="fixme" v="consider natural=peak for the most distinct mountains in the district" />
		<tag k="name" v="Trolldalsaksla" />
		<tag k="natural" v="hill" />
		<tag k="place" v="locality" />
		<tag k="ssr:stedsnr" v="566917" />
	</node>
	<node lat="70.97243613016539" lon="28.25283547310122" id="-52366">
		<tag k="fixme" v="consider natural=peak for the most distinct mountains in the district" />
		<tag k="name" v="Tindan" />
		<tag k="natural" v="hill" />
		<tag k="place" v="locality" />
		<tag k="ssr:stedsnr" v="566926" />
	</node>
	<node lat="70.82316667942828" lon="28.00992160728512" id="-52376">
		<tag k="fixme" v="consider natural=peak for the most distinct mountains in the district" />
		<tag k="name" v="Spennfjellet" />
		<tag k="natural" v="hill" />
		<tag k="place" v="locality" />
		<tag k="ssr:stedsnr" v="571717" />
	</node>
	<node lat="71.03009167877796" lon="27.946571662112913" id="-52382">
		<tag k="name" v="Storvasshøgda" />
		<tag k="natural" v="hill" />
		<tag k="place" v="locality" />
		<tag k="ssr:stedsnr" v="571967" />
	</node>
	<node lat="70.85539446297884" lon="28.0911799349927" id="-52385">
		<tag k="fixme" v="consider natural=peak for the most distinct mountains in the district" />
		<tag k="name" v="Storvarden" />
		<tag k="natural" v="hill" />
		<tag k="place" v="locality" />
		<tag k="ssr:stedsnr" v="572228" />
	</node>
	<node lat="70.71348890450523" lon="28.039966036508282" id="-52387">
		<tag k="name" v="Buktadalen" />
		<tag k="natural" v="valley" />
		<tag k="place" v="locality" />
		<tag k="ssr:stedsnr" v="576185" />
	</node>
	<node lat="70.7043000197133" lon="28.02503549161782" id="-52388">
		<tag k="fixme" v="consider natural=peak for the most distinct mountains in the district" />
		<tag k="name" v="Havdaluovthøgda - Hávdačohkka" />
		<tag k="name:no" v="Havdaluovthøgda" />
		<tag k="name:se" v="Hávdačohkka" />
		<tag k="natural" v="hill" />
		<tag k="place" v="locality" />
		<tag k="ssr:stedsnr" v="576191" />
	</node>
	<node lat="70.65596668401382" lon="27.728407770009365" id="-52396">
		<tag k="name" v="Nerveidalen - Njereveaiávži" />
		<tag k="name:no" v="Nerveidalen" />
		<tag k="name:se" v="Njereveaiávži" />
		<tag k="natural" v="valley" />
		<tag k="old_name:se" v="Njerevæjavži" />
		<tag k="place" v="locality" />
		<tag k="ssr:stedsnr" v="626299" />
	</node>
	<node lat="71.02256112087778" lon="27.811357806097806" id="-52398">
		<tag k="name" v="Rundhaugen" />
		<tag k="natural" v="hill" />
		<tag k="place" v="locality" />
		<tag k="ssr:stedsnr" v="626427" />
	</node>
	<node lat="71.02613612675628" lon="27.64664950938544" id="-52399">
		<tag k="fixme" v="consider natural=peak for the most distinct mountains in the district" />
		<tag k="name" v="Bjørnviktuva" />
		<tag k="natural" v="hill" />
		<tag k="place" v="locality" />
		<tag k="ssr:stedsnr" v="626428" />
	</node>
	<node lat="71.07844723582711" lon="28.037596660039934" id="-52400">
		<tag k="fixme" v="consider natural=peak for the most distinct mountains in the district" />
		<tag k="name" v="Bispen" />
		<tag k="natural" v="hill" />
		<tag k="place" v="locality" />
		<tag k="ssr:stedsnr" v="626492" />
	</node>
	<node lat="71.0806861216192" lon="28.1374855141412" id="-52401">
		<tag k="name" v="Veslevikhaugen" />
		<tag k="natural" v="hill" />
		<tag k="place" v="locality" />
		<tag k="ssr:stedsnr" v="626498" />
	</node>
	<node lat="70.56242501734889" lon="27.578868909170893" id="-52402">
		<tag k="name" v="Johkannjárga" />
		<tag k="name:se" v="Johkannjárga" />
		<tag k="natural" v="valley" />
		<tag k="old_name:se" v="Jåkkannjarga" />
		<tag k="place" v="locality" />
		<tag k="ssr:stedsnr" v="626761" />
	</node>
	<node lat="70.95773890396116" lon="28.114791058751806" id="-52403">
		<tag k="fixme" v="consider natural=peak for the most distinct mountains in the district" />
		<tag k="name" v="Vestfjellet" />
		<tag k="natural" v="hill" />
		<tag k="place" v="locality" />
		<tag k="ssr:stedsnr" v="626829" />
	</node>
	<node lat="70.94703057056485" lon="27.93074387638169" id="-52406">
		<tag k="fixme" v="consider natural=peak for the most distinct mountains in the district" />
		<tag k="name" v="Langvassfjellet" />
		<tag k="natural" v="hill" />
		<tag k="place" v="locality" />
		<tag k="ssr:stedsnr" v="626838" />
	</node>
	<node lat="70.81061389988501" lon="27.775957785761193" id="-52407">
		<tag k="fixme" v="consider natural=peak for the most distinct mountains in the district" />
		<tag k="name" v="Langnesaksla" />
		<tag k="natural" v="hill" />
		<tag k="place" v="locality" />
		<tag k="ssr:stedsnr" v="626870" />
	</node>
	<node lat="70.76117501143919" lon="27.90339107935995" id="-52411">
		<tag k="alt_name" v="Store Skogfjordfjellet" />
		<tag k="fixme" v="consider natural=peak for the most distinct mountains in the district" />
		<tag k="name" v="Skogfjordfjellet" />
		<tag k="natural" v="hill" />
		<tag k="place" v="locality" />
		<tag k="ssr:stedsnr" v="626895" />
	</node>
	<node lat="70.61610557116049" lon="27.92499383953399" id="-52415">
		<tag k="fixme" v="consider natural=peak for the most distinct mountains in the district" />
		<tag k="name" v="Bealjáidgáisá" />
		<tag k="name:se" v="Bealjáidgáisá" />
		<tag k="natural" v="hill" />
		<tag k="old_name:se" v="Bælljaidgaisa" />
		<tag k="place" v="locality" />
		<tag k="ssr:stedsnr" v="627297" />
	</node>
	<node lat="70.82300001661991" lon="28.004124401497045" id="-52417">
		<tag k="name" v="Franslia" />
		<tag k="natural" v="slope" />
		<tag k="place" v="locality" />
		<tag k="ssr:stedsnr" v="631744" />
	</node>
	<node lat="70.79914168057694" lon="28.137854927780406" id="-52422">
		<tag k="name" v="Tverrdalen" />
		<tag k="natural" v="valley" />
		<tag k="place" v="locality" />
		<tag k="ssr:stedsnr" v="631701" />
	</node>
	<node lat="70.82943890680592" lon="28.126668832299462" id="-52423">
		<tag k="name" v="Sæveråsdalen" />
		<tag k="natural" v="valley" />
		<tag k="place" v="locality" />
		<tag k="ssr:stedsnr" v="631725" />
	</node>
	<node lat="70.68768057166763" lon="28.21342988505356" id="-52425">
		<tag k="name" v="Digermuldalen" />
		<tag k="natural" v="valley" />
		<tag k="place" v="locality" />
		<tag k="ssr:stedsnr" v="631670" />
	</node>
	<node lat="71.0503222377613" lon="28.03899665543758" id="-52427">
		<tag k="fixme" v="consider natural=peak for the most distinct mountains in the district" />
		<tag k="name" v="Falkefjell" />
		<tag k="natural" v="hill" />
		<tag k="place" v="locality" />
		<tag k="ssr:stedsnr" v="631875" />
	</node>
	<node lat="70.80999723665228" lon="27.86756887719892" id="-52433">
		<tag k="name" v="Kobbvikdalen" />
		<tag k="natural" v="valley" />
		<tag k="place" v="locality" />
		<tag k="ssr:stedsnr" v="639863" />
	</node>
	<node lat="71.04608334233839" lon="28.11618552005332" id="-52440">
		<tag k="fixme" v="consider natural=peak for the most distinct mountains in the district" />
		<tag k="name" v="Trollhetta" />
		<tag k="natural" v="hill" />
		<tag k="place" v="locality" />
		<tag k="ssr:stedsnr" v="748439" />
	</node>
	<node lat="70.66202223811766" lon="27.62980224178878" id="-52448">
		<tag k="name" v="Njereveaiávžžegeahči" />
		<tag k="name:se" v="Njereveaiávžžegeahči" />
		<tag k="natural" v="valley" />
		<tag k="old_name:se" v="Njerevæjavžegæčči" />
		<tag k="place" v="locality" />
		<tag k="ssr:stedsnr" v="748287" />
	</node>
	<node lat="70.6534555672992" lon="27.72506609304988" id="-52449">
		<tag k="fixme" v="consider natural=peak for the most distinct mountains in the district" />
		<tag k="name" v="Sukkertoppen" />
		<tag k="natural" v="hill" />
		<tag k="place" v="locality" />
		<tag k="ssr:stedsnr" v="748293" />
	</node>
	<node lat="71.05620001681473" lon="28.171988290989574" id="-52450">
		<tag k="name" v="Grytvasshøgda" />
		<tag k="natural" v="hill" />
		<tag k="place" v="locality" />
		<tag k="ssr:stedsnr" v="748402" />
	</node>
	<node lat="70.62721667963906" lon="27.362238400552968" id="-52453">
		<tag k="name" v="Nikolasdalen" />
		<tag k="natural" v="valley" />
		<tag k="place" v="locality" />
		<tag k="ssr:stedsnr" v="748720" />
	</node>
	<node lat="70.80803890374534" lon="28.142079914344908" id="-52456">
		<tag k="fixme" v="consider natural=peak for the most distinct mountains in the district" />
		<tag k="name" v="Kjosfjellet" />
		<tag k="natural" v="hill" />
		<tag k="place" v="locality" />
		<tag k="ssr:stedsnr" v="748885" />
	</node>
	<node lat="70.76085001334141" lon="27.758610557967017" id="-52457">
		<tag k="name" v="Tverrelvberget" />
		<tag k="natural" v="hill" />
		<tag k="place" v="locality" />
		<tag k="ssr:stedsnr" v="748902" />
	</node>
	<node lat="70.97817223469973" lon="28.41816598046214" id="-52462">
		<tag k="fixme" v="consider natural=peak for the most distinct mountains in the district" />
		<tag k="name" v="Tverrfjellet" />
		<tag k="natural" v="hill" />
		<tag k="place" v="locality" />
		<tag k="ssr:stedsnr" v="748924" />
	</node>
	<node lat="71.02363612643722" lon="27.87194947557237" id="-52466">
		<tag k="name" v="Vassdalsryggen" />
		<tag k="natural" v="ridge" />
		<tag k="place" v="locality" />
		<tag k="ssr:stedsnr" v="753086" />
	</node>
	<node lat="70.79494445832066" lon="28.108749366332336" id="-52467">
		<tag k="name" v="Ramnbergan" />
		<tag k="natural" v="hill" />
		<tag k="place" v="locality" />
		<tag k="ssr:stedsnr" v="753663" />
	</node>
	<node lat="70.81095278933917" lon="28.11371325546807" id="-52471">
		<tag k="fixme" v="consider natural=peak for the most distinct mountains in the district" />
		<tag k="name" v="Sukkertoppen" />
		<tag k="natural" v="hill" />
		<tag k="place" v="locality" />
		<tag k="ssr:stedsnr" v="753683" />
	</node>
	<node lat="71.01871112342238" lon="27.83520502698945" id="-52474">
		<tag k="name" v="Øverdalsraet" />
		<tag k="natural" v="hill" />
		<tag k="place" v="locality" />
		<tag k="ssr:stedsnr" v="753980" />
	</node>
	<node lat="70.82103056734402" lon="27.990638281310858" id="-52480">
		<tag k="name" v="Maritbakken" />
		<tag k="natural" v="slope" />
		<tag k="place" v="locality" />
		<tag k="ssr:stedsnr" v="760839" />
	</node>
	<node lat="70.58689168148037" lon="27.366530053740686" id="-52483">
		<tag k="name" v="Nordhøgda" />
		<tag k="natural" v="hill" />
		<tag k="place" v="locality" />
		<tag k="ssr:stedsnr" v="808730" />
	</node>
	<node lat="70.72324168096074" lon="28.049971602143255" id="-52491">
		<tag k="fixme" v="consider natural=peak for the most distinct mountains in the district" />
		<tag k="name" v="Ørnfjellet" />
		<tag k="natural" v="hill" />
		<tag k="place" v="locality" />
		<tag k="ssr:stedsnr" v="809325" />
	</node>
	<node lat="71.04222779458473" lon="28.23245493403822" id="-52494">
		<tag k="name" v="Brattbakken" />
		<tag k="natural" v="slope" />
		<tag k="place" v="locality" />
		<tag k="ssr:stedsnr" v="809449" />
	</node>
	<node lat="70.8836250118471" lon="27.969846647961457" id="-52498">
		<tag k="fixme" v="consider natural=peak for the most distinct mountains in the district" />
		<tag k="name" v="Kvitstein - Vilgesgeađgi" />
		<tag k="name:no" v="Kvitstein" />
		<tag k="name:se" v="Vilgesgeađgi" />
		<tag k="natural" v="hill" />
		<tag k="old_name:se" v="Vilgesgæđgi" />
		<tag k="place" v="locality" />
		<tag k="ssr:stedsnr" v="809841" />
	</node>
	<node lat="70.85511668541456" lon="28.091016048273545" id="-52499">
		<tag k="fixme" v="consider natural=peak for the most distinct mountains in the district" />
		<tag k="name" v="Storvarden" />
		<tag k="natural" v="hill" />
		<tag k="place" v="locality" />
		<tag k="ssr:stedsnr" v="809844" />
	</node>
	<node lat="70.8826333513115" lon="28.14613826491135" id="-52500">
		<tag k="fixme" v="consider natural=peak for the most distinct mountains in the district" />
		<tag k="name" v="Sandfjellet - Rovrorášša" />
		<tag k="name:no" v="Sandfjellet" />
		<tag k="name:se" v="Rovrorášša" />
		<tag k="natural" v="hill" />
		<tag k="old_name:se" v="Råvruašša" />
		<tag k="place" v="locality" />
		<tag k="ssr:stedsnr" v="809853" />
	</node>
	<node lat="70.79787779395399" lon="28.12524935869569" id="-52505">
		<tag k="name" v="Grønnranda" />
		<tag k="natural" v="hill" />
		<tag k="place" v="locality" />
		<tag k="ssr:stedsnr" v="813696" />
	</node>
	<node lat="71.05538612763031" lon="28.23730217747666" id="-52509">
		<tag k="name" v="Ramberget" />
		<tag k="natural" v="hill" />
		<tag k="place" v="locality" />
		<tag k="ssr:stedsnr" v="813779" />
	</node>
	<node lat="71.07828057393243" lon="28.198229948190903" id="-52516">
		<tag k="name" v="Vesterhaugen" />
		<tag k="natural" v="hill" />
		<tag k="place" v="locality" />
		<tag k="ssr:stedsnr" v="814841" />
	</node>
	<node lat="71.03883334855537" lon="28.205874395304775" id="-52517">
		<tag k="fixme" v="consider natural=peak for the most distinct mountains in the district" />
		<tag k="name" v="Gunnarsfjell" />
		<tag k="natural" v="hill" />
		<tag k="place" v="locality" />
		<tag k="ssr:stedsnr" v="814844" />
	</node>
	<node lat="70.82688056885291" lon="28.01174661389918" id="-52520">
		<tag k="name" v="Urpersastrupem" />
		<tag k="natural" v="valley" />
		<tag k="place" v="locality" />
		<tag k="ssr:stedsnr" v="814764" />
	</node>
	<node lat="71.02680278802538" lon="28.19228549905058" id="-52521">
		<tag k="name" v="Bangsundhøgda" />
		<tag k="natural" v="hill" />
		<tag k="place" v="locality" />
		<tag k="ssr:stedsnr" v="814852" />
	</node>
	<node lat="70.66725556896408" lon="27.793982755825517" id="-52530">
		<tag k="name" v="Stuoravággi" />
		<tag k="name:se" v="Stuoravággi" />
		<tag k="natural" v="valley" />
		<tag k="place" v="locality" />
		<tag k="ssr:stedsnr" v="823451" />
	</node>
	<node lat="70.50718890580382" lon="27.484938369976724" id="-52535">
		<tag k="name" v="Telegrafsletta" />
		<tag k="place" v="locality" />
		<tag k="ssr:stedsnr" v="869347" />
	</node>
	<node lat="70.52101946358282" lon="27.674043877639164" id="-52536">
		<tag k="fixme" v="consider natural=peak for the most distinct mountains in the district" />
		<tag k="name" v="Beatnatgáisá" />
		<tag k="name:se" v="Beatnatgáisá" />
		<tag k="natural" v="hill" />
		<tag k="old_name:se" v="Bædnatgaisa" />
		<tag k="place" v="locality" />
		<tag k="ssr:stedsnr" v="869410" />
	</node>
	<node lat="70.69336945815974" lon="28.20284099940357" id="-52545">
		<tag k="name" v="Indre Liver - Siskkit Liivvar" />
		<tag k="name:no" v="Indre Liver" />
		<tag k="name:se" v="Siskkit Liivvar" />
		<tag k="natural" v="valley" />
		<tag k="old_name:se" v="Liivar, siskit" />
		<tag k="place" v="locality" />
		<tag k="ssr:stedsnr" v="870312" />
	</node>
	<node lat="71.03888890389995" lon="27.861330014708777" id="-52555">
		<tag k="name" v="Mehamnhaugen" />
		<tag k="natural" v="hill" />
		<tag k="place" v="locality" />
		<tag k="ssr:stedsnr" v="874122" />
	</node>
	<node lat="71.04856945706658" lon="27.778710598944894" id="-52557">
		<tag k="name" v="Kuskjellhamnhøgda" />
		<tag k="natural" v="hill" />
		<tag k="place" v="locality" />
		<tag k="ssr:stedsnr" v="874013" />
	</node>
	<node lat="71.01420834602334" lon="27.774713372918114" id="-52558">
		<tag k="name" v="Metudalen" />
		<tag k="natural" v="valley" />
		<tag k="place" v="locality" />
		<tag k="ssr:stedsnr" v="874016" />
	</node>
	<node lat="71.04431668023567" lon="27.80617726688474" id="-52559">
		<tag k="name" v="Steinfjordaksla" />
		<tag k="place" v="locality" />
		<tag k="ssr:stedsnr" v="874025" />
	</node>
	<node lat="70.81525556784777" lon="28.010774388736316" id="-52563">
		<tag k="fixme" v="consider natural=peak for the most distinct mountains in the district" />
		<tag k="name" v="Sukkertoppen" />
		<tag k="natural" v="hill" />
		<tag k="place" v="locality" />
		<tag k="ssr:stedsnr" v="874754" />
	</node>
	<node lat="71.05908334494151" lon="28.18289663375169" id="-52564">
		<tag k="name" v="Astribakken" />
		<tag k="natural" v="slope" />
		<tag k="place" v="locality" />
		<tag k="ssr:stedsnr" v="874819" />
	</node>
	<node lat="71.03966112175512" lon="28.169835507529477" id="-52565">
		<tag k="name" v="Hestevassbakkan" />
		<tag k="natural" v="slope" />
		<tag k="place" v="locality" />
		<tag k="ssr:stedsnr" v="874842" />
	</node>
	<node lat="71.0405583470157" lon="28.12096886962851" id="-52568">
		<tag k="name" v="Finnan" />
		<tag k="natural" v="hill" />
		<tag k="place" v="locality" />
		<tag k="ssr:stedsnr" v="874908" />
	</node>
	<node lat="71.02121112355283" lon="27.77421892214661" id="-52572">
		<tag k="fixme" v="consider natural=peak for the most distinct mountains in the district" />
		<tag k="name" v="Sørfjellet" />
		<tag k="natural" v="hill" />
		<tag k="place" v="locality" />
		<tag k="ssr:stedsnr" v="875003" />
	</node>
	<node lat="71.03334723334903" lon="28.091766093134154" id="-52574">
		<tag k="name" v="Sandfjordskarshøgda" />
		<tag k="natural" v="hill" />
		<tag k="place" v="locality" />
		<tag k="ssr:stedsnr" v="875882" />
	</node>
	<node lat="70.66688334614267" lon="27.814738306658032" id="-52579">
		<tag k="name" v="Nedre Rundhaugen - Vuolle boarka oaivi" />
		<tag k="name:no" v="Nedre Rundhaugen" />
		<tag k="name:se" v="Vuolle boarka oaivi" />
		<tag k="natural" v="hill" />
		<tag k="place" v="locality" />
		<tag k="ssr:stedsnr" v="879242" />
	</node>
	<node lat="70.81486112778641" lon="27.956218851660896" id="-52581">
		<tag k="fixme" v="consider natural=peak for the most distinct mountains in the district" />
		<tag k="name" v="Juliafjellet" />
		<tag k="natural" v="hill" />
		<tag k="place" v="locality" />
		<tag k="ssr:stedsnr" v="882833" />
	</node>
	<node lat="70.80352501212403" lon="28.139696590616893" id="-52583">
		<tag k="name" v="Torvdalen" />
		<tag k="natural" v="valley" />
		<tag k="place" v="locality" />
		<tag k="ssr:stedsnr" v="935705" />
	</node>
	<node lat="70.80778057204266" lon="28.164652133114952" id="-52584">
		<tag k="name" v="Trolldalen" />
		<tag k="natural" v="valley" />
		<tag k="place" v="locality" />
		<tag k="ssr:stedsnr" v="935706" />
	</node>
	<node lat="71.03727501443711" lon="27.78937726413193" id="-52590">
		<tag k="name" v="Steinfjordaksla" />
		<tag k="place" v="locality" />
		<tag k="ssr:stedsnr" v="936004" />
	</node>
	<node lat="71.0284222381775" lon="28.138846640612154" id="-52592">
		<tag k="name" v="Kobbvikhøgda" />
		<tag k="natural" v="hill" />
		<tag k="place" v="locality" />
		<tag k="ssr:stedsnr" v="935917" />
	</node>
	<node lat="71.00524167599558" lon="27.839780020091446" id="-52594">
		<tag k="name" v="Flutubakken" />
		<tag k="natural" v="slope" />
		<tag k="place" v="locality" />
		<tag k="ssr:stedsnr" v="935958" />
	</node>
	<node lat="70.65665835171197" lon="27.777966095114028" id="-52598">
		<tag k="name" v="Grønnhaugen - Sitno-oaivi" />
		<tag k="name:no" v="Grønnhaugen" />
		<tag k="name:se" v="Sitno-oaivi" />
		<tag k="natural" v="hill" />
		<tag k="place" v="locality" />
		<tag k="ssr:stedsnr" v="940235" />
	</node>
	<node lat="70.62954168164241" lon="27.669532793388775" id="-52600">
		<tag k="name" v="Kobbelvdalen" />
		<tag k="natural" v="valley" />
		<tag k="place" v="locality" />
		<tag k="ssr:stedsnr" v="941640" />
	</node>
</osm>
