<?xml version="1.0" encoding="UTF-8"?>
<<<<<<< HEAD
<osm version="0.6" generator="osmapis">
	<node lat="70.74891668648404" lon="28.114568793919254" id="-34977">
		<tag k="name" v="Storvika" />
		<tag k="natural" v="bay" />
		<tag k="ssr:stedsnr" v="20306" />
	</node>
	<node lat="70.69000557082644" lon="27.9994327177993" id="-34980">
		<tag k="alt_name" v="Langfjorden, l;Litle Langfjorden" />
		<tag k="bay" v="fjord" />
		<tag k="name" v="Lille Langfjorden" />
		<tag k="natural" v="bay" />
		<tag k="ssr:stedsnr" v="20288" />
	</node>
	<node lat="70.63133057076918" lon="27.732907760692346" id="-34982">
		<tag k="name" v="Bergneset" />
		<tag k="natural" v="cape" />
		<tag k="ssr:stedsnr" v="20271" />
	</node>
	<node lat="70.62715557115465" lon="27.68431054884281" id="-34983">
		<tag k="alt_name" v="Kobbelvneset, in" />
		<tag k="fixme" v="multiple name tags, choose one and add the other to alt_name" />
		<tag k="name" v="Kobbelvneset;Indre Kobbelvneset" />
		<tag k="natural" v="cape" />
		<tag k="ssr:stedsnr" v="20274" />
	</node>
	<node lat="70.63328057646716" lon="27.862888281450477" id="-34984">
		<tag k="name" v="Kvitneset" />
		<tag k="natural" v="cape" />
		<tag k="ssr:stedsnr" v="20276" />
	</node>
	<node lat="70.66276112416469" lon="27.878029945132965" id="-34985">
		<tag k="alt_name" v="Liggarvika" />
		<tag k="name" v="Liggervika" />
		<tag k="natural" v="bay" />
		<tag k="ssr:stedsnr" v="20281" />
	</node>
	<node lat="71.02799168283052" lon="28.20163273080192" id="-34987">
		<tag k="name" v="Gunnarsfjordneset" />
		<tag k="natural" v="cape" />
		<tag k="ssr:stedsnr" v="20391" />
	</node>
	<node lat="71.082258344824" lon="28.062335537271373" id="-34988">
		<tag k="name" v="Bispevika" />
		<tag k="natural" v="bay" />
		<tag k="ssr:stedsnr" v="20394" />
	</node>
	<node lat="71.06098057187634" lon="28.102104976698428" id="-34989">
		<tag k="alt_name" v="Daudingsvika" />
		<tag k="name" v="Daudmannsvikan" />
		<tag k="natural" v="bay" />
		<tag k="ssr:stedsnr" v="20398" />
	</node>
	<node lat="71.07914446036513" lon="28.13115219505691" id="-34991">
		<tag k="name" v="Veslevika" />
		<tag k="natural" v="bay" />
		<tag k="ssr:stedsnr" v="20446" />
	</node>
	<node lat="71.07207223946038" lon="28.265832710976348" id="-34992">
		<tag k="name" v="Kjeholmen" />
		<tag k="place" v="islet" />
		<tag k="ssr:stedsnr" v="20447" />
	</node>
	<node lat="71.0721389024657" lon="27.802185613825856" id="-34993">
		<tag k="name" v="Smørbringnæringen" />
		<tag k="natural" v="cape" />
		<tag k="ssr:stedsnr" v="20448" />
	</node>
	<node lat="70.88510557508025" lon="28.402443753712813" id="-34995">
		<tag k="bay" v="fjord" />
		<tag k="name" v="Tyfjorden - Dáigevuotna" />
		<tag k="name:no" v="Tyfjorden" />
		<tag k="name:se" v="Dáigevuotna" />
		<tag k="natural" v="bay" />
		<tag k="old_name:se" v="Daigevuodna" />
		<tag k="ssr:stedsnr" v="20942" />
	</node>
	<node lat="71.04033056833069" lon="27.87960501166338" id="-34998">
		<tag k="bay" v="fjord" />
		<tag k="name" v="Nordmannsetfjorden" />
		<tag k="natural" v="bay" />
		<tag k="ssr:stedsnr" v="25026" />
	</node>
	<node lat="70.78330279130337" lon="27.984302174962064" id="-34999">
		<tag k="name" v="Tørrisgrunnen" />
		<tag k="natural" v="shoal" />
		<tag k="place" v="locality" />
		<tag k="ssr:stedsnr" v="25407" />
	</node>
	<node lat="70.79627501917886" lon="28.073829933319292" id="-35001">
		<tag k="name" v="Småoddan" />
		<tag k="natural" v="cape" />
		<tag k="ssr:stedsnr" v="25682" />
	</node>
	<node lat="71.08341112555082" lon="28.12901607560413" id="-35002">
		<tag k="name" v="Steinvåglandet" />
		<tag k="natural" v="bay" />
		<tag k="ssr:stedsnr" v="25874" />
	</node>
	<node lat="70.8187111260588" lon="28.29395210261686" id="-35005">
		<tag k="name" v="Vrakbukta" />
		<tag k="natural" v="bay" />
		<tag k="ssr:stedsnr" v="26385" />
	</node>
	<node lat="70.71349723753134" lon="28.08006603740096" id="-35006">
		<tag k="name" v="Stoffalbukta" />
		<tag k="natural" v="bay" />
		<tag k="ssr:stedsnr" v="30222" />
	</node>
	<node lat="70.62295279034595" lon="27.633285551837563" id="-35007">
		<tag k="name" v="Larsgammneset" />
		<tag k="natural" v="cape" />
		<tag k="ssr:stedsnr" v="30624" />
	</node>
	<node lat="70.81229446141806" lon="28.30739376276159" id="-35009">
		<tag k="name" v="Rafjordneset - Várregoađenjárga" />
		<tag k="name:no" v="Rafjordneset" />
		<tag k="name:se" v="Várregoađenjárga" />
		<tag k="natural" v="cape" />
		<tag k="old_name:se" v="Varregoađenjarga" />
		<tag k="ssr:stedsnr" v="80505" />
	</node>
	<node lat="71.05685834903471" lon="27.977488329113374" id="-35011">
		<tag k="alt_name" v="Austerbotnen;Østerbotn" />
		<tag k="name" v="Austerbotn" />
		<tag k="natural" v="bay" />
		<tag k="ssr:stedsnr" v="81439" />
	</node>
	<node lat="70.72826390245389" lon="28.127677133530657" id="-35012">
		<tag k="name" v="Loddebukta" />
		<tag k="natural" v="bay" />
		<tag k="ssr:stedsnr" v="81325" />
	</node>
	<node lat="70.96501945760112" lon="28.536754843932496" id="-35016">
		<tag k="name" v="Russevika - Ruoššaluokta" />
		<tag k="name:no" v="Russevika" />
		<tag k="name:se" v="Ruoššaluokta" />
		<tag k="natural" v="bay" />
		<tag k="ssr:stedsnr" v="81923" />
	</node>
	<node lat="70.67139445571758" lon="27.93834661963837" id="-35019">
		<tag k="name" v="Rasmusbukta" />
		<tag k="natural" v="bay" />
		<tag k="ssr:stedsnr" v="85383" />
	</node>
	<node lat="70.79439446415418" lon="28.12426880526407" id="-35020">
		<tag k="name" v="Nesodden" />
		<tag k="natural" v="cape" />
		<tag k="ssr:stedsnr" v="85576" />
	</node>
	<node lat="71.06920557106672" lon="28.249121623310803" id="-35024">
		<tag k="name" v="Kiholmen" />
		<tag k="place" v="islet" />
		<tag k="ssr:stedsnr" v="86822" />
	</node>
	<node lat="70.71479168060871" lon="28.06903824154045" id="-35028">
		<tag k="name" v="Bukta" />
		<tag k="natural" v="bay" />
		<tag k="ssr:stedsnr" v="91215" />
	</node>
	<node lat="71.02383056985457" lon="28.209135513822552" id="-35033">
		<tag k="alt_name" v="Kobbvikhalsen" />
		<tag k="name" v="Kobbneset" />
		<tag k="natural" v="cape" />
		<tag k="ssr:stedsnr" v="141403" />
	</node>
	<node lat="71.03203612801055" lon="28.192029955542143" id="-35035">
=======
<osm generator="osmapis" version="0.6">
	<node id="-913408" lat="70.6305833464" lon="27.7628494095">
>>>>>>> e1d4bc35ff8a6074a6f2e91616a996b547c36f15
		<tag k="bay" v="fjord" />
		<tag k="name" v="Gunnarsfjorden" />
		<tag k="natural" v="bay" />
<<<<<<< HEAD
		<tag k="ssr:stedsnr" v="141410" />
	</node>
	<node lat="70.9670500178559" lon="28.549499291959414" id="-35039">
		<tag k="name" v="Russevikbåan" />
		<tag k="natural" v="shoal" />
		<tag k="place" v="locality" />
		<tag k="ssr:stedsnr" v="141896" />
	</node>
	<node lat="71.08235557200013" lon="28.245324400192736" id="-35044">
		<tag k="name" v="Djupkeilstranda" />
		<tag k="natural" v="beach" />
		<tag k="ssr:stedsnr" v="146806" />
	</node>
	<node lat="70.64177224073512" lon="27.839404975273826" id="-35049">
		<tag k="name" v="Seivikgrunnen" />
=======
		<tag k="old_name:se" v="Lagguvuodna" />
		<tag k="ssr:stedsnr" v="445112" />
	</node>
	<node id="-913404" lat="70.7980639067" lon="27.7340800058">
		<tag k="fixme" v="consider seamark:type=rock or natural=shoal" />
		<tag k="name" v="Storstein" />
		<tag k="place" v="islet" />
		<tag k="ssr:stedsnr" v="517541" />
	</node>
	<node id="-913402" lat="70.6238194627" lon="27.6501133323">
		<tag k="name" v="Spikarnesbukta" />
		<tag k="natural" v="bay" />
		<tag k="ssr:stedsnr" v="515666" />
	</node>
	<node id="-913400" lat="70.8017472401" lon="27.7452244496">
		<tag k="alt_name" v="Danskebukta;Elbukta" />
		<tag k="name" v="Vika" />
		<tag k="natural" v="bay" />
		<tag k="ssr:stedsnr" v="512787" />
	</node>
	<node id="-913398" lat="70.6444055703" lon="27.8591160759">
		<tag k="name" v="Sommargrunnen" />
>>>>>>> e1d4bc35ff8a6074a6f2e91616a996b547c36f15
		<tag k="natural" v="shoal" />
		<tag k="place" v="locality" />
		<tag k="ssr:stedsnr" v="147566" />
	</node>
<<<<<<< HEAD
	<node lat="70.65265834676877" lon="27.886921614546587" id="-35050">
		<tag k="name" v="Steingrunnen" />
		<tag k="natural" v="shoal" />
		<tag k="place" v="locality" />
		<tag k="ssr:stedsnr" v="147568" />
	</node>
	<node lat="70.71557779785206" lon="28.068129915300464" id="-35051">
		<tag k="name" v="Sjeftaslukta" />
=======
	<node id="-913396" lat="71.147583341" lon="27.6932106383">
		<tag k="name" v="Oddegrunnan" />
		<tag k="natural" v="shoal" />
		<tag k="place" v="locality" />
		<tag k="ssr:stedsnr" v="511627" />
	</node>
	<node id="-913395" lat="71.133497234" lon="27.6562745271">
		<tag k="name" v="Avløysa" />
		<tag k="place" v="island" />
		<tag k="ssr:stedsnr" v="511491" />
	</node>
	<node id="-913392" lat="71.0466750094" lon="27.8676439228">
		<tag k="name" v="Lillevevika" />
		<tag k="natural" v="bay" />
		<tag k="ssr:stedsnr" v="510958" />
	</node>
	<node id="-913386" lat="70.7946527915" lon="28.1028799316">
		<tag k="name" v="Ramnbergbukta" />
>>>>>>> e1d4bc35ff8a6074a6f2e91616a996b547c36f15
		<tag k="natural" v="bay" />
		<tag k="ssr:stedsnr" v="151221" />
	</node>
<<<<<<< HEAD
	<node lat="70.6183277956158" lon="27.66097723334412" id="-35053">
		<tag k="name" v="Gottfeskbukta" />
=======
	<node id="-913385" lat="70.6955778046" lon="29.3513628428">
		<tag k="name" v="Kjosen" />
>>>>>>> e1d4bc35ff8a6074a6f2e91616a996b547c36f15
		<tag k="natural" v="bay" />
		<tag k="ssr:stedsnr" v="151659" />
	</node>
<<<<<<< HEAD
	<node lat="71.0572777858655" lon="27.891974463393332" id="-35057">
		<tag k="alt_name" v="Kamøya, l" />
		<tag k="name" v="Lille Kamøya" />
=======
	<node id="-913384" lat="70.6169750182" lon="27.6740688995">
		<tag k="fixme" v="consider seamark:type=rock or natural=shoal" />
		<tag k="name" v="Bokkusskjæret" />
>>>>>>> e1d4bc35ff8a6074a6f2e91616a996b547c36f15
		<tag k="place" v="islet" />
		<tag k="ssr:stedsnr" v="262429" />
	</node>
<<<<<<< HEAD
	<node lat="71.07166667863618" lon="27.890735565795165" id="-35058">
		<tag k="alt_name" v="Kinnaroddgrunnane" />
		<tag k="name" v="Kinnaroddgrunnan" />
		<tag k="natural" v="shoal" />
		<tag k="place" v="locality" />
		<tag k="ssr:stedsnr" v="262466" />
	</node>
	<node lat="71.07617223184212" lon="28.01828554756576" id="-35059">
		<tag k="name" v="Kvitnakken" />
=======
	<node id="-913383" lat="71.059086126" lon="27.8161411483">
		<tag k="name" v="Smørbringen" />
>>>>>>> e1d4bc35ff8a6074a6f2e91616a996b547c36f15
		<tag k="natural" v="cape" />
		<tag k="ssr:stedsnr" v="262471" />
	</node>
<<<<<<< HEAD
	<node lat="70.98388334417349" lon="28.233143819775222" id="-35062">
		<tag k="bay" v="fjord" />
		<tag k="name" v="Koifjorden" />
		<tag k="natural" v="bay" />
		<tag k="ssr:stedsnr" v="262851" />
	</node>
	<node lat="70.96295001171333" lon="28.20082438559637" id="-35063">
		<tag k="name" v="Midtervalen" />
		<tag k="natural" v="bay" />
		<tag k="ssr:stedsnr" v="262856" />
	</node>
	<node lat="70.91666668368474" lon="28.199999383847935" id="-35066">
		<tag k="name" v="Nordkinnhalvøya - Čorgašnjárga" />
		<tag k="name:no" v="Nordkinnhalvøya" />
		<tag k="name:se" v="Čorgašnjárga" />
=======
	<node id="-913379" lat="71.0198611203" lon="28.2078966165">
		<tag k="name" v="Kobbvikholman" />
		<tag k="place" v="islet" />
		<tag k="ssr:stedsnr" v="510146" />
	</node>
	<node id="-913378" lat="70.8133389061" lon="28.2395187753">
		<tag k="name" v="Vuohppenjárga" />
		<tag k="name:se" v="Vuohppenjárga" />
		<tag k="natural" v="cape" />
		<tag k="old_name:se" v="Vuoppenjarga" />
		<tag k="ssr:stedsnr" v="505931" />
	</node>
	<node id="-913373" lat="71.0027333509" lon="28.3761826772">
		<tag k="name" v="Lille-Omgang" />
>>>>>>> e1d4bc35ff8a6074a6f2e91616a996b547c36f15
		<tag k="natural" v="cape" />
		<tag k="old_name:se" v="Čårgašnjarga" />
		<tag k="ssr:stedsnr" v="262872" />
	</node>
<<<<<<< HEAD
	<node lat="70.68880001345698" lon="27.9807243840612" id="-35071">
		<tag k="alt_name" v="Langfjordodden, l" />
		<tag k="name" v="Lille Langfjordodden" />
		<tag k="natural" v="cape" />
		<tag k="ssr:stedsnr" v="263319" />
	</node>
	<node lat="70.67011112550334" lon="27.92074660618193" id="-35074">
		<tag k="name" v="Storøya - Lákkosuolu" />
		<tag k="name:no" v="Storøya" />
		<tag k="name:se" v="Lákkosuolu" />
		<tag k="old_name:se" v="Laggusuolo" />
		<tag k="place" v="islet" />
		<tag k="ssr:stedsnr" v="263329" />
	</node>
	<node lat="71.00685278807182" lon="28.21697160135461" id="-35076">
		<tag k="name" v="Skalangsneset" />
=======
	<node id="-913372" lat="71.0498861238" lon="27.8639383649">
		<tag k="name" v="Vedvikneset" />
		<tag k="natural" v="cape" />
		<tag k="ssr:stedsnr" v="505442" />
	</node>
	<node id="-913369" lat="71.0602277889" lon="27.6896606304">
		<tag k="name" v="Vesterbotnen" />
		<tag k="natural" v="bay" />
		<tag k="ssr:stedsnr" v="505427" />
	</node>
	<node id="-913368" lat="71.0677889007" lon="28.1104966424">
		<tag k="name" v="Tarevika" />
		<tag k="natural" v="bay" />
		<tag k="ssr:stedsnr" v="505422" />
	</node>
	<node id="-913367" lat="71.0624111257" lon="27.9622772353">
		<tag k="alt_name" v="Vesterbotn" />
		<tag k="name" v="Vesterbotnen" />
		<tag k="natural" v="bay" />
		<tag k="ssr:stedsnr" v="505403" />
	</node>
	<node id="-913364" lat="71.0199333475" lon="28.2079827334">
		<tag k="fixme" v="consider seamark:type=rock or natural=shoal" />
		<tag k="name" v="Hundan" />
		<tag k="place" v="islet" />
		<tag k="ssr:stedsnr" v="505386" />
	</node>
	<node id="-913361" lat="70.7122666859" lon="28.0806493637">
		<tag k="alt_name" v="Stoffalodden" />
		<tag k="name" v="Stoffelodden" />
		<tag k="natural" v="cape" />
		<tag k="ssr:stedsnr" v="505301" />
	</node>
	<node id="-913359" lat="70.6668027937" lon="27.8880327486">
		<tag k="name" v="Sandneset" />
>>>>>>> e1d4bc35ff8a6074a6f2e91616a996b547c36f15
		<tag k="natural" v="cape" />
		<tag k="ssr:stedsnr" v="263420" />
	</node>
<<<<<<< HEAD
	<node lat="71.03862222913921" lon="27.834218922644865" id="-35077">
		<tag k="name" v="Vardholmen" />
		<tag k="place" v="islet" />
		<tag k="ssr:stedsnr" v="263449" />
	</node>
	<node lat="70.68263891493913" lon="29.797868204465413" id="-35078">
		<tag k="name" v="Russekeila" />
		<tag k="natural" v="bay" />
		<tag k="ssr:stedsnr" v="263523" />
	</node>
	<node lat="70.80279167755724" lon="27.987874404843204" id="-35081">
		<tag k="alt_name:no" v="Iversfjorden" />
		<tag k="bay" v="fjord" />
		<tag k="name" v="Ivarsfjorden - Vuoiddasvuotna" />
		<tag k="name:no" v="Ivarsfjorden" />
		<tag k="name:se" v="Vuoiddasvuotna" />
=======
	<node id="-913357" lat="70.6295250163" lon="27.7208160884">
		<tag k="alt_name" v="Kobbelvneset, yt" />
		<tag k="fixme" v="multiple name tags, choose one and add the other to alt_name" />
		<tag k="name" v="Kobbelvneset;Ytre Kobbelvneset" />
		<tag k="natural" v="cape" />
		<tag k="ssr:stedsnr" v="505276" />
	</node>
	<node id="-913353" lat="71.0563861187" lon="27.9142411281">
		<tag k="name" v="Skipsvikneset" />
		<tag k="natural" v="cape" />
		<tag k="ssr:stedsnr" v="389968" />
	</node>
	<node id="-913347" lat="70.9992666821" lon="28.423449335">
		<tag k="name" v="Breidvika" />
>>>>>>> e1d4bc35ff8a6074a6f2e91616a996b547c36f15
		<tag k="natural" v="bay" />
		<tag k="old_name:se" v="Vuoidasvuodna" />
		<tag k="ssr:stedsnr" v="263873" />
	</node>
<<<<<<< HEAD
	<node lat="70.66943890842957" lon="28.014135483602065" id="-35085">
		<tag k="name" v="Kistegrunnen" />
		<tag k="natural" v="shoal" />
		<tag k="place" v="locality" />
		<tag k="ssr:stedsnr" v="267424" />
	</node>
	<node lat="70.72526113132702" lon="28.118910461829596" id="-35086">
		<tag k="name" v="Andersbukta" />
=======
	<node id="-913346" lat="70.7828277932" lon="27.7635772412">
		<tag k="name" v="Store Skogfjordneset - Cagannjárga" />
		<tag k="name:no" v="Store Skogfjordneset" />
		<tag k="name:se" v="Cagannjárga" />
		<tag k="natural" v="cape" />
		<tag k="old_name:no" v="Skogfjordneset, store" />
		<tag k="old_name:se" v="Cagannjarga" />
		<tag k="ssr:stedsnr" v="384884" />
	</node>
	<node id="-913345" lat="70.7923527903" lon="28.1838243596">
		<tag k="name" v="Kjeskelvika" />
>>>>>>> e1d4bc35ff8a6074a6f2e91616a996b547c36f15
		<tag k="natural" v="bay" />
		<tag k="ssr:stedsnr" v="202307" />
	</node>
<<<<<<< HEAD
	<node lat="70.62337779295328" lon="27.643496670735356" id="-35087">
		<tag k="name" v="Langfjordbotn" />
		<tag k="natural" v="bay" />
		<tag k="ssr:stedsnr" v="202262" />
	</node>
	<node lat="70.63010556855815" lon="27.834663305766764" id="-35088">
		<tag k="alt_name" v="Honningsvika" />
		<tag k="name" v="Holmsvika" />
		<tag k="natural" v="bay" />
		<tag k="ssr:stedsnr" v="202268" />
	</node>
	<node lat="71.04694167753217" lon="28.07631054557449" id="-35091">
		<tag k="name" v="Langstranda" />
		<tag k="natural" v="beach" />
		<tag k="ssr:stedsnr" v="202441" />
	</node>
	<node lat="71.09103890217251" lon="28.082146662964412" id="-35092">
		<tag k="name" v="Olagrunnen" />
		<tag k="natural" v="shoal" />
		<tag k="place" v="locality" />
		<tag k="ssr:stedsnr" v="202445" />
	</node>
	<node lat="70.77415001366504" lon="27.815313311620216" id="-35093">
		<tag k="name" v="Saltsjøen" />
		<tag k="natural" v="bay" />
		<tag k="ssr:stedsnr" v="202904" />
	</node>
	<node lat="71.08951668188733" lon="28.2209021747474" id="-35095">
=======
	<node id="-913344" lat="70.7542805694" lon="27.760799447">
		<tag k="name" v="Henrikneset" />
		<tag k="natural" v="cape" />
		<tag k="ssr:stedsnr" v="384877" />
	</node>
	<node id="-913337" lat="70.7360722362" lon="28.0468882591">
		<tag k="name" v="Goalsenjárga" />
		<tag k="name:se" v="Goalsenjárga" />
		<tag k="natural" v="cape" />
		<tag k="old_name:se" v="Goalsenjarga" />
		<tag k="ssr:stedsnr" v="384317" />
	</node>
	<node id="-913336" lat="70.6232916832" lon="27.6522827881">
		<tag k="name" v="Spikarneset" />
		<tag k="natural" v="cape" />
		<tag k="ssr:stedsnr" v="334641" />
	</node>
	<node id="-913335" lat="70.6184166794" lon="27.7161966528">
		<tag k="fixme" v="consider seamark:type=rock or natural=shoal" />
		<tag k="name" v="Skarvskjæret" />
		<tag k="place" v="islet" />
		<tag k="ssr:stedsnr" v="334632" />
	</node>
	<node id="-913328" lat="70.6241861259" lon="27.6320272415">
		<tag k="name" v="Kjosen" />
		<tag k="natural" v="bay" />
		<tag k="ssr:stedsnr" v="273655" />
	</node>
	<node id="-913323" lat="71.1017389007" lon="28.179038311">
		<tag k="name" v="Tørrbåan" />
		<tag k="place" v="locality" />
		<tag k="seamark:type" v="rock" />
		<tag k="ssr:stedsnr" v="267763" />
	</node>
	<node id="-913322" lat="71.0895166819" lon="28.2209021747">
>>>>>>> e1d4bc35ff8a6074a6f2e91616a996b547c36f15
		<tag k="name" v="Innerkeila" />
		<tag k="natural" v="bay" />
		<tag k="ssr:stedsnr" v="267762" />
	</node>
<<<<<<< HEAD
	<node lat="71.10173890073725" lon="28.179038310960323" id="-35096">
		<tag k="name" v="Tørrbåan" />
=======
	<node id="-913320" lat="70.6694389084" lon="28.0141354836">
		<tag k="name" v="Kistegrunnen" />
		<tag k="natural" v="shoal" />
>>>>>>> e1d4bc35ff8a6074a6f2e91616a996b547c36f15
		<tag k="place" v="locality" />
		<tag k="seamark:type" v="rock" />
		<tag k="ssr:stedsnr" v="267763" />
	</node>
<<<<<<< HEAD
	<node lat="71.06560834507175" lon="28.036302204696987" id="-35098">
		<tag k="name" v="Bispenæringen" />
=======
	<node id="-913318" lat="70.8012833483" lon="27.9566299628">
		<tag k="name" v="Lillestappen" />
>>>>>>> e1d4bc35ff8a6074a6f2e91616a996b547c36f15
		<tag k="natural" v="cape" />
		<tag k="ssr:stedsnr" v="267853" />
	</node>
<<<<<<< HEAD
	<node lat="71.06175834849712" lon="28.26331883366344" id="-35102">
		<tag k="fixme" v="consider seamark:type=rock or natural=shoal" />
		<tag k="name" v="Ringskjæret" />
		<tag k="place" v="islet" />
		<tag k="ssr:stedsnr" v="268129" />
	</node>
	<node lat="70.65699445795724" lon="27.880457721851236" id="-35107">
		<tag k="name" v="Lauvvika - Šiergaluokta" />
		<tag k="name:no" v="Lauvvika" />
		<tag k="name:se" v="Šiergaluokta" />
=======
	<node id="-913312" lat="70.7060083548" lon="28.0636604672">
		<tag k="name" v="Harebukta" />
>>>>>>> e1d4bc35ff8a6074a6f2e91616a996b547c36f15
		<tag k="natural" v="bay" />
		<tag k="ssr:stedsnr" v="212203" />
	</node>
<<<<<<< HEAD
	<node lat="70.79851112652025" lon="27.73396056367176" id="-35110">
		<tag k="name" v="Kroken" />
		<tag k="natural" v="bay" />
		<tag k="ssr:stedsnr" v="214533" />
	</node>
	<node lat="70.70730834494897" lon="28.071163259596823" id="-35113">
		<tag k="fixme" v="consider seamark:type=rock or natural=shoal" />
		<tag k="name" v="Småskjæran" />
		<tag k="place" v="islet" />
		<tag k="ssr:stedsnr" v="449446" />
	</node>
	<node lat="70.79078612344198" lon="28.11768548543541" id="-35114">
		<tag k="name" v="Vargavagrunnen" />
=======
	<node id="-913309" lat="70.8674000161" lon="28.4361048488">
		<tag k="name" v="Losvikneset" />
		<tag k="natural" v="cape" />
		<tag k="ssr:stedsnr" v="451491" />
	</node>
	<node id="-913307" lat="70.8294500147" lon="28.3010604258">
		<tag k="name" v="Nilsneset" />
		<tag k="natural" v="cape" />
		<tag k="ssr:stedsnr" v="451390" />
	</node>
	<node id="-913302" lat="71.0666666741" lon="27.833332816">
		<tag k="name" v="Seinesgrunnen" />
>>>>>>> e1d4bc35ff8a6074a6f2e91616a996b547c36f15
		<tag k="natural" v="shoal" />
		<tag k="place" v="locality" />
		<tag k="ssr:stedsnr" v="449634" />
	</node>
<<<<<<< HEAD
	<node lat="71.05411945877428" lon="28.261796592830493" id="-35117">
		<tag k="name" v="Jollbukta" />
		<tag k="natural" v="bay" />
		<tag k="ssr:stedsnr" v="449760" />
	</node>
	<node lat="71.06354723091751" lon="28.265279945090644" id="-35118">
=======
	<node id="-913301" lat="70.7890305747" lon="28.1211604679">
		<tag k="name" v="Vargagrunnen" />
		<tag k="natural" v="shoal" />
		<tag k="place" v="locality" />
		<tag k="ssr:stedsnr" v="450390" />
	</node>
	<node id="-913298" lat="71.0635472309" lon="28.2652799451">
>>>>>>> e1d4bc35ff8a6074a6f2e91616a996b547c36f15
		<tag k="name" v="Flinta" />
		<tag k="natural" v="cape" />
		<tag k="ssr:stedsnr" v="449765" />
	</node>
<<<<<<< HEAD
	<node lat="71.06826390309772" lon="28.059924428095698" id="-35119">
		<tag k="name" v="Elvevika" />
=======
	<node id="-913297" lat="71.0541194588" lon="28.2617965928">
		<tag k="name" v="Jollbukta" />
>>>>>>> e1d4bc35ff8a6074a6f2e91616a996b547c36f15
		<tag k="natural" v="bay" />
		<tag k="ssr:stedsnr" v="449840" />
	</node>
<<<<<<< HEAD
	<node lat="70.78903057470879" lon="28.12116046788611" id="-35120">
		<tag k="name" v="Vargagrunnen" />
		<tag k="natural" v="shoal" />
		<tag k="place" v="locality" />
		<tag k="ssr:stedsnr" v="450390" />
	</node>
	<node lat="71.066666674079" lon="27.833332815980793" id="-35121">
		<tag k="name" v="Seinesgrunnen" />
		<tag k="natural" v="shoal" />
		<tag k="place" v="locality" />
		<tag k="ssr:stedsnr" v="450712" />
	</node>
	<node lat="70.82945001474639" lon="28.301060425788375" id="-35125">
		<tag k="name" v="Nilsneset" />
=======
	<node id="-913295" lat="70.7907861234" lon="28.1176854854">
		<tag k="name" v="Vargavagrunnen" />
		<tag k="natural" v="shoal" />
		<tag k="place" v="locality" />
		<tag k="ssr:stedsnr" v="449634" />
	</node>
	<node id="-913294" lat="70.7073083449" lon="28.0711632596">
		<tag k="fixme" v="consider seamark:type=rock or natural=shoal" />
		<tag k="name" v="Småskjæran" />
		<tag k="place" v="islet" />
		<tag k="ssr:stedsnr" v="449446" />
	</node>
	<node id="-913292" lat="70.8026222392" lon="27.8742188771">
		<tag k="name" v="Kobbvika" />
		<tag k="natural" v="bay" />
		<tag k="ssr:stedsnr" v="445889" />
	</node>
	<node id="-913291" lat="70.7969472393" lon="27.934582745">
		<tag k="fixme" v="multiple name tags, choose one and add the other to alt_name" />
		<tag k="name" v="Værnes, yt;Værneset;Ytre Værnes - Vierca" />
		<tag k="name:no" v="Værnes, yt;Værneset;Ytre Værnes" />
		<tag k="name:se" v="Vierca" />
>>>>>>> e1d4bc35ff8a6074a6f2e91616a996b547c36f15
		<tag k="natural" v="cape" />
		<tag k="ssr:stedsnr" v="451390" />
	</node>
<<<<<<< HEAD
	<node lat="70.86740001609458" lon="28.436104848847773" id="-35127">
		<tag k="name" v="Losvikneset" />
=======
	<node id="-913284" lat="71.1141888962" lon="27.7364745038">
		<tag k="name" v="Magneset" />
>>>>>>> e1d4bc35ff8a6074a6f2e91616a996b547c36f15
		<tag k="natural" v="cape" />
		<tag k="ssr:stedsnr" v="451491" />
	</node>
<<<<<<< HEAD
	<node lat="70.70600835483226" lon="28.063660467164244" id="-35131">
		<tag k="name" v="Harebukta" />
=======
	<node id="-913282" lat="71.045219455" lon="27.7975717042">
		<tag k="bay" v="fjord" />
		<tag k="name" v="Steinfjorden" />
>>>>>>> e1d4bc35ff8a6074a6f2e91616a996b547c36f15
		<tag k="natural" v="bay" />
		<tag k="ssr:stedsnr" v="455199" />
	</node>
<<<<<<< HEAD
	<node lat="70.64697779104534" lon="27.82686607657854" id="-35135">
		<tag k="alt_name" v="Seivika, in" />
		<tag k="fixme" v="multiple name tags, choose one and add the other to alt_name" />
		<tag k="name" v="Seivika;Indre Seivika" />
		<tag k="natural" v="bay" />
		<tag k="ssr:stedsnr" v="263306" />
	</node>
	<node lat="70.62730835243269" lon="28.115277120003185" id="-35136">
		<tag k="name" v="Johkannjárga" />
		<tag k="name:se" v="Johkannjárga" />
=======
	<node id="-913281" lat="71.0450083452" lon="28.2504993925">
		<tag k="name" v="Tverrvikneset" />
		<tag k="natural" v="cape" />
		<tag k="ssr:stedsnr" v="445450" />
	</node>
	<node id="-913280" lat="71.0653694551" lon="28.2619271459">
		<tag k="name" v="Flintodden" />
>>>>>>> e1d4bc35ff8a6074a6f2e91616a996b547c36f15
		<tag k="natural" v="cape" />
		<tag k="old_name:se" v="Jåkkannjarga" />
		<tag k="ssr:stedsnr" v="263299" />
	</node>
<<<<<<< HEAD
	<node lat="71.02102778970375" lon="28.199716067393485" id="-35137">
		<tag k="name" v="Kobbvika" />
=======
	<node id="-913271" lat="71.0813361268" lon="28.2434132737">
		<tag k="name" v="Djupkeila" />
>>>>>>> e1d4bc35ff8a6074a6f2e91616a996b547c36f15
		<tag k="natural" v="bay" />
		<tag k="ssr:stedsnr" v="263408" />
	</node>
<<<<<<< HEAD
	<node lat="71.11532778919948" lon="28.081524439732082" id="-35138">
		<tag k="name" v="Teisten" />
=======
	<node id="-913267" lat="71.0967277875" lon="28.1088716467">
		<tag k="name" v="Sandvikryggen" />
>>>>>>> e1d4bc35ff8a6074a6f2e91616a996b547c36f15
		<tag k="natural" v="shoal" />
		<tag k="place" v="locality" />
		<tag k="ssr:stedsnr" v="263475" />
	</node>
<<<<<<< HEAD
	<node lat="70.75242501240619" lon="27.757743882512102" id="-35142">
		<tag k="name" v="Horsbukta" />
=======
	<node id="-913266" lat="70.7985111265" lon="27.7339605637">
		<tag k="name" v="Kroken" />
>>>>>>> e1d4bc35ff8a6074a6f2e91616a996b547c36f15
		<tag k="natural" v="bay" />
		<tag k="ssr:stedsnr" v="263890" />
	</node>
<<<<<<< HEAD
	<node lat="70.76196945673068" lon="28.020138274659484" id="-35143">
		<tag k="alt_name" v="Skogfjordneset, l;Litle Skogfjordneset" />
		<tag k="name" v="Lille Skogfjordneset" />
=======
	<node id="-913264" lat="70.6658277932" lon="27.8552660778">
		<tag k="name" v="Kavelneset" />
>>>>>>> e1d4bc35ff8a6074a6f2e91616a996b547c36f15
		<tag k="natural" v="cape" />
		<tag k="ssr:stedsnr" v="263894" />
	</node>
<<<<<<< HEAD
	<node lat="70.99240556781368" lon="28.488282651926994" id="-35146">
		<tag k="name" v="Sandbukta" />
=======
	<node id="-913262" lat="70.656994458" lon="27.8804577219">
		<tag k="name" v="Lauvvika - Šiergaluokta" />
		<tag k="name:no" v="Lauvvika" />
		<tag k="name:se" v="Šiergaluokta" />
>>>>>>> e1d4bc35ff8a6074a6f2e91616a996b547c36f15
		<tag k="natural" v="bay" />
		<tag k="ssr:stedsnr" v="263916" />
	</node>
<<<<<<< HEAD
	<node lat="70.99263612303812" lon="28.492902098060767" id="-35147">
		<tag k="name" v="Fugleneset" />
=======
	<node id="-913260" lat="70.798586125" lon="27.8421522134">
		<tag k="name" v="Sandneset" />
>>>>>>> e1d4bc35ff8a6074a6f2e91616a996b547c36f15
		<tag k="natural" v="cape" />
		<tag k="ssr:stedsnr" v="263917" />
	</node>
<<<<<<< HEAD
	<node lat="70.67060001983201" lon="27.903846610455755" id="-35149">
		<tag k="name" v="Storbukta" />
=======
	<node id="-913257" lat="70.7155777979" lon="28.0681299153">
		<tag k="name" v="Sjeftaslukta" />
>>>>>>> e1d4bc35ff8a6074a6f2e91616a996b547c36f15
		<tag k="natural" v="bay" />
		<tag k="ssr:stedsnr" v="267440" />
	</node>
<<<<<<< HEAD
	<node lat="70.79320834862145" lon="28.116427141632997" id="-35150">
		<tag k="alt_name" v="Vargavaholmen" />
		<tag k="name" v="Vargaholmen" />
		<tag k="place" v="islet" />
		<tag k="ssr:stedsnr" v="267641" />
	</node>
	<node lat="71.06349167850627" lon="28.31749935698513" id="-35152">
		<tag k="name" v="Ryggen" />
		<tag k="natural" v="shoal" />
=======
	<node id="-913254" lat="71.082355572" lon="28.2453244002">
		<tag k="name" v="Djupkeilstranda" />
		<tag k="natural" v="beach" />
>>>>>>> e1d4bc35ff8a6074a6f2e91616a996b547c36f15
		<tag k="place" v="locality" />
		<tag k="ssr:stedsnr" v="268680" />
	</node>
<<<<<<< HEAD
	<node lat="70.83610001298979" lon="28.276024337474315" id="-35158">
		<tag k="name" v="Risfjordneset" />
		<tag k="natural" v="cape" />
		<tag k="ssr:stedsnr" v="269377" />
	</node>
	<node lat="71.1677777858346" lon="27.899999475812667" id="-35160">
=======
	<node id="-913250" lat="70.6674500171" lon="27.8897382891">
		<tag k="name" v="Bukta" />
		<tag k="natural" v="bay" />
		<tag k="ssr:stedsnr" v="273207" />
	</node>
	<node id="-913247" lat="71.1677777858" lon="27.8999994758">
>>>>>>> e1d4bc35ff8a6074a6f2e91616a996b547c36f15
		<tag k="name" v="Ytre Medtuvskallen" />
		<tag k="natural" v="shoal" />
		<tag k="place" v="locality" />
		<tag k="ssr:stedsnr" v="270191" />
	</node>
<<<<<<< HEAD
	<node lat="70.6674500171391" lon="27.88973828912474" id="-35161">
		<tag k="name" v="Bukta" />
		<tag k="natural" v="bay" />
		<tag k="ssr:stedsnr" v="273207" />
	</node>
	<node lat="71.07018056640317" lon="27.98179667726337" id="-35165">
		<tag k="bay" v="fjord" />
		<tag k="name" v="Skittenfjorden" />
		<tag k="natural" v="bay" />
		<tag k="ssr:stedsnr" v="323472" />
	</node>
	<node lat="70.86956668363207" lon="28.430302065833757" id="-35167">
		<tag k="name" v="Ytternæringen" />
=======
	<node id="-913245" lat="70.836100013" lon="28.2760243375">
		<tag k="name" v="Risfjordneset" />
>>>>>>> e1d4bc35ff8a6074a6f2e91616a996b547c36f15
		<tag k="natural" v="cape" />
		<tag k="ssr:stedsnr" v="323922" />
	</node>
<<<<<<< HEAD
	<node lat="70.68323890628567" lon="28.141235444592667" id="-35170">
		<tag k="name" v="Storoffer" />
		<tag k="natural" v="cape" />
		<tag k="ssr:stedsnr" v="328668" />
	</node>
	<node lat="71.06363056596466" lon="27.925738335174955" id="-35174">
		<tag k="name" v="Staurvikneset" />
		<tag k="natural" v="cape" />
		<tag k="ssr:stedsnr" v="328962" />
	</node>
	<node lat="71.02618334614893" lon="28.219007721406882" id="-35178">
=======
	<node id="-913239" lat="71.0180555709" lon="28.7347214598">
		<tag k="name" v="Tanabakken" />
		<tag k="place" v="locality" />
		<tag k="ssr:stedsnr" v="268681" />
	</node>
	<node id="-913238" lat="71.0634916785" lon="28.317499357">
		<tag k="name" v="Ryggen" />
		<tag k="natural" v="shoal" />
		<tag k="place" v="locality" />
		<tag k="ssr:stedsnr" v="268680" />
	</node>
	<node id="-913236" lat="71.0617583485" lon="28.2633188337">
>>>>>>> e1d4bc35ff8a6074a6f2e91616a996b547c36f15
		<tag k="fixme" v="consider seamark:type=rock or natural=shoal" />
		<tag k="name" v="Kobbvikskjæret" />
		<tag k="place" v="islet" />
		<tag k="ssr:stedsnr" v="328853" />
	</node>
<<<<<<< HEAD
	<node lat="70.79575001520453" lon="27.955002177275926" id="-35181">
		<tag k="name" v="Telroren" />
		<tag k="natural" v="shoal" />
		<tag k="place" v="locality" />
		<tag k="ssr:stedsnr" v="336811" />
	</node>
	<node lat="70.79810001160585" lon="27.84856054226099" id="-35183">
		<tag k="name" v="Stenget" />
		<tag k="natural" v="cape" />
		<tag k="ssr:stedsnr" v="336857" />
	</node>
	<node lat="71.09089168244454" lon="28.157935529738577" id="-35184">
		<tag k="alt_name" v="Mollvika" />
		<tag k="name" v="Molvika" />
=======
	<node id="-913234" lat="71.0656083451" lon="28.0363022047">
		<tag k="name" v="Bispenæringen" />
		<tag k="natural" v="cape" />
		<tag k="ssr:stedsnr" v="267853" />
	</node>
	<node id="-913232" lat="70.7932083486" lon="28.1164271416">
		<tag k="alt_name" v="Vargavaholmen" />
		<tag k="name" v="Vargaholmen" />
		<tag k="place" v="islet" />
		<tag k="ssr:stedsnr" v="267641" />
	</node>
	<node id="-913230" lat="70.6706000198" lon="27.9038466105">
		<tag k="name" v="Storbukta" />
>>>>>>> e1d4bc35ff8a6074a6f2e91616a996b547c36f15
		<tag k="natural" v="bay" />
		<tag k="ssr:stedsnr" v="383457" />
	</node>
<<<<<<< HEAD
	<node lat="71.09539167840433" lon="28.18728828398626" id="-35185">
		<tag k="alt_name" v="Varnesodden" />
		<tag k="name" v="Vardnesodden" />
=======
	<node id="-913226" lat="70.992636123" lon="28.4929020981">
		<tag k="name" v="Fugleneset" />
>>>>>>> e1d4bc35ff8a6074a6f2e91616a996b547c36f15
		<tag k="natural" v="cape" />
		<tag k="ssr:stedsnr" v="383462" />
	</node>
<<<<<<< HEAD
	<node lat="70.73607223622832" lon="28.04688825909794" id="-35187">
		<tag k="name" v="Goalsenjárga" />
		<tag k="name:se" v="Goalsenjárga" />
		<tag k="natural" v="cape" />
		<tag k="old_name:se" v="Goalsenjarga" />
		<tag k="ssr:stedsnr" v="384317" />
	</node>
	<node lat="70.90106945900882" lon="28.478702079752733" id="-35189">
		<tag k="alt_name" v="Keilanæringen, in" />
		<tag k="name" v="Indre Keilnæringen" />
=======
	<node id="-913225" lat="70.9924055678" lon="28.4882826519">
		<tag k="name" v="Sandbukta" />
		<tag k="natural" v="bay" />
		<tag k="ssr:stedsnr" v="263916" />
	</node>
	<node id="-913222" lat="70.7619694567" lon="28.0201382747">
		<tag k="alt_name" v="Skogfjordneset, l;Litle Skogfjordneset" />
		<tag k="name" v="Lille Skogfjordneset" />
>>>>>>> e1d4bc35ff8a6074a6f2e91616a996b547c36f15
		<tag k="natural" v="cape" />
		<tag k="ssr:stedsnr" v="384909" />
	</node>
<<<<<<< HEAD
	<node lat="70.98965556772012" lon="28.281568819615828" id="-35190">
		<tag k="name" v="Jonbuktneset" />
		<tag k="natural" v="cape" />
		<tag k="ssr:stedsnr" v="384896" />
	</node>
	<node lat="70.99046112678631" lon="28.503788193383834" id="-35191">
		<tag k="name" v="Tarebukta" />
=======
	<node id="-913221" lat="70.7524250124" lon="27.7577438825">
		<tag k="name" v="Horsbukta" />
>>>>>>> e1d4bc35ff8a6074a6f2e91616a996b547c36f15
		<tag k="natural" v="bay" />
		<tag k="ssr:stedsnr" v="384900" />
	</node>
<<<<<<< HEAD
	<node lat="70.67284168103846" lon="27.982466037334287" id="-35192">
		<tag k="name" v="Litlegrunnen" />
		<tag k="natural" v="shoal" />
		<tag k="place" v="locality" />
		<tag k="ssr:stedsnr" v="388440" />
	</node>
	<node lat="70.89259446358555" lon="28.376982654560173" id="-35198">
		<tag k="name" v="Hamna" />
=======
	<node id="-913216" lat="70.8027916776" lon="27.9878744048">
		<tag k="alt_name:no" v="Iversfjorden" />
		<tag k="bay" v="fjord" />
		<tag k="name" v="Ivarsfjorden - Vuoiddasvuotna" />
		<tag k="name:no" v="Ivarsfjorden" />
		<tag k="name:se" v="Vuoiddasvuotna" />
>>>>>>> e1d4bc35ff8a6074a6f2e91616a996b547c36f15
		<tag k="natural" v="bay" />
		<tag k="ssr:stedsnr" v="390050" />
	</node>
<<<<<<< HEAD
	<node lat="70.79638612287387" lon="27.786268901291375" id="-35203">
		<tag k="name" v="Fjøsbukta" />
=======
	<node id="-913214" lat="70.6826389149" lon="29.7978682045">
		<tag k="name" v="Russekeila" />
>>>>>>> e1d4bc35ff8a6074a6f2e91616a996b547c36f15
		<tag k="natural" v="bay" />
		<tag k="ssr:stedsnr" v="396830" />
	</node>
<<<<<<< HEAD
	<node lat="70.79663890378956" lon="27.921074424778684" id="-35205">
		<tag k="alt_name:no" v="Værnes, in" />
		<tag k="name" v="Indre Værnes - Vierca" />
		<tag k="name:no" v="Indre Værnes" />
		<tag k="name:se" v="Vierca" />
		<tag k="natural" v="cape" />
		<tag k="ssr:stedsnr" v="396841" />
	</node>
	<node lat="71.12467501458696" lon="27.997243910106462" id="-35207">
		<tag k="name" v="Kamøyskallen" />
		<tag k="natural" v="shoal" />
		<tag k="place" v="locality" />
		<tag k="ssr:stedsnr" v="485055" />
	</node>
	<node lat="70.79694723926025" lon="27.934582745022603" id="-35216">
		<tag k="fixme" v="multiple name tags, choose one and add the other to alt_name" />
		<tag k="name" v="Værneset;Værnes, yt;Ytre Værnes - Vierca" />
		<tag k="name:no" v="Værneset;Værnes, yt;Ytre Værnes" />
		<tag k="name:se" v="Vierca" />
=======
	<node id="-913213" lat="71.1153277892" lon="28.0815244397">
		<tag k="name" v="Teisten" />
		<tag k="natural" v="shoal" />
		<tag k="place" v="locality" />
		<tag k="ssr:stedsnr" v="263475" />
	</node>
	<node id="-913212" lat="71.0386222291" lon="27.8342189226">
		<tag k="name" v="Vardholmen" />
		<tag k="place" v="islet" />
		<tag k="ssr:stedsnr" v="263449" />
	</node>
	<node id="-913211" lat="71.0068527881" lon="28.2169716014">
		<tag k="name" v="Skalangsneset" />
>>>>>>> e1d4bc35ff8a6074a6f2e91616a996b547c36f15
		<tag k="natural" v="cape" />
		<tag k="ssr:stedsnr" v="445886" />
	</node>
<<<<<<< HEAD
	<node lat="70.80262223924603" lon="27.874218877063335" id="-35217">
=======
	<node id="-913209" lat="71.0210277897" lon="28.1997160674">
>>>>>>> e1d4bc35ff8a6074a6f2e91616a996b547c36f15
		<tag k="name" v="Kobbvika" />
		<tag k="natural" v="bay" />
		<tag k="ssr:stedsnr" v="445889" />
	</node>
<<<<<<< HEAD
	<node lat="70.99750834632934" lon="28.242982713535962" id="-35219">
		<tag k="alt_name" v="Koiøyholman, yt" />
		<tag k="name" v="Ytre Koiøyholman" />
=======
	<node id="-913208" lat="70.6701111255" lon="27.9207466062">
		<tag k="name" v="Storøya - Lákkosuolu" />
		<tag k="name:no" v="Storøya" />
		<tag k="name:se" v="Lákkosuolu" />
		<tag k="old_name:se" v="Laggusuolo" />
>>>>>>> e1d4bc35ff8a6074a6f2e91616a996b547c36f15
		<tag k="place" v="islet" />
		<tag k="ssr:stedsnr" v="445912" />
	</node>
<<<<<<< HEAD
	<node lat="71.03840834084488" lon="27.81048559049259" id="-35222">
		<tag k="name" v="Elvevika" />
		<tag k="natural" v="bay" />
		<tag k="ssr:stedsnr" v="450002" />
	</node>
	<node lat="70.80128334832304" lon="27.956629962834366" id="-35228">
		<tag k="name" v="Lillestappen" />
=======
	<node id="-913205" lat="70.6888000135" lon="27.9807243841">
		<tag k="alt_name" v="Langfjordodden, l" />
		<tag k="name" v="Lille Langfjordodden" />
>>>>>>> e1d4bc35ff8a6074a6f2e91616a996b547c36f15
		<tag k="natural" v="cape" />
		<tag k="ssr:stedsnr" v="457846" />
	</node>
<<<<<<< HEAD
	<node lat="70.70872223678835" lon="28.07007159107661" id="-35229">
		<tag k="name" v="Småskjærbukta" />
=======
	<node id="-913204" lat="70.646977791" lon="27.8268660766">
		<tag k="alt_name" v="Seivika, in" />
		<tag k="fixme" v="multiple name tags, choose one and add the other to alt_name" />
		<tag k="name" v="Seivika;Indre Seivika" />
>>>>>>> e1d4bc35ff8a6074a6f2e91616a996b547c36f15
		<tag k="natural" v="bay" />
		<tag k="ssr:stedsnr" v="505304" />
	</node>
<<<<<<< HEAD
	<node lat="70.62952501627446" lon="27.720816088446842" id="-35231">
		<tag k="alt_name" v="Kobbelvneset, yt" />
		<tag k="fixme" v="multiple name tags, choose one and add the other to alt_name" />
		<tag k="name" v="Kobbelvneset;Ytre Kobbelvneset" />
=======
	<node id="-913203" lat="70.6273083524" lon="28.11527712">
		<tag k="name" v="Johkannjárga" />
		<tag k="name:se" v="Johkannjárga" />
>>>>>>> e1d4bc35ff8a6074a6f2e91616a996b547c36f15
		<tag k="natural" v="cape" />
		<tag k="ssr:stedsnr" v="505276" />
	</node>
<<<<<<< HEAD
	<node lat="71.06241112574791" lon="27.96227723530941" id="-35232">
		<tag k="alt_name" v="Vesterbotn" />
		<tag k="name" v="Vesterbotnen" />
		<tag k="natural" v="bay" />
		<tag k="ssr:stedsnr" v="505403" />
	</node>
	<node lat="71.07075278947548" lon="27.796135588619084" id="-35234">
		<tag k="name" v="Smørbringen" />
=======
	<node id="-913198" lat="70.9166666837" lon="28.1999993838">
		<tag k="name" v="Nordkinnhalvøya - Čorgašnjárga" />
		<tag k="name:no" v="Nordkinnhalvøya" />
		<tag k="name:se" v="Čorgašnjárga" />
>>>>>>> e1d4bc35ff8a6074a6f2e91616a996b547c36f15
		<tag k="natural" v="cape" />
		<tag k="ssr:stedsnr" v="505470" />
	</node>
<<<<<<< HEAD
	<node lat="71.08417223325317" lon="28.04280500447816" id="-35235">
		<tag k="name" v="Bispevika" />
=======
	<node id="-913195" lat="70.9629500117" lon="28.2008243856">
		<tag k="name" v="Midtervalen" />
>>>>>>> e1d4bc35ff8a6074a6f2e91616a996b547c36f15
		<tag k="natural" v="bay" />
		<tag k="ssr:stedsnr" v="505473" />
	</node>
<<<<<<< HEAD
	<node lat="71.08720001544377" lon="28.093310543807426" id="-35236">
		<tag k="name" v="Sandfjordryggen" />
		<tag k="natural" v="shoal" />
		<tag k="place" v="locality" />
		<tag k="ssr:stedsnr" v="505474" />
	</node>
	<node lat="70.76481112688627" lon="27.99905772836935" id="-35237">
		<tag k="name" v="Djupbukta" />
=======
	<node id="-913194" lat="70.9838833442" lon="28.2331438198">
		<tag k="bay" v="fjord" />
		<tag k="name" v="Koifjorden" />
>>>>>>> e1d4bc35ff8a6074a6f2e91616a996b547c36f15
		<tag k="natural" v="bay" />
		<tag k="ssr:stedsnr" v="505873" />
	</node>
<<<<<<< HEAD
	<node lat="70.9778889038634" lon="28.226007722951955" id="-35238">
		<tag k="name" v="Molvikneset" />
		<tag k="natural" v="cape" />
		<tag k="ssr:stedsnr" v="505902" />
	</node>
	<node lat="70.89622779588016" lon="28.481290948241515" id="-35239">
		<tag k="alt_name" v="Hanstyske" />
		<tag k="name" v="Hans Tysken" />
		<tag k="natural" v="cape" />
		<tag k="ssr:stedsnr" v="505911" />
	</node>
	<node lat="70.61697501822529" lon="27.674068899495808" id="-35241">
=======
	<node id="-913191" lat="71.0761722318" lon="28.0182855476">
		<tag k="name" v="Kvitnakken" />
		<tag k="natural" v="cape" />
		<tag k="ssr:stedsnr" v="262471" />
	</node>
	<node id="-913190" lat="71.0716666786" lon="27.8907355658">
		<tag k="alt_name" v="Kinnaroddgrunnane" />
		<tag k="name" v="Kinnaroddgrunnan" />
		<tag k="natural" v="shoal" />
		<tag k="place" v="locality" />
		<tag k="ssr:stedsnr" v="262466" />
	</node>
	<node id="-913187" lat="71.0572777859" lon="27.8919744634">
		<tag k="alt_name" v="Kamøya, l" />
		<tag k="name" v="Lille Kamøya" />
		<tag k="place" v="islet" />
		<tag k="ssr:stedsnr" v="262429" />
	</node>
	<node id="-913185" lat="70.7960500101" lon="27.795379996">
>>>>>>> e1d4bc35ff8a6074a6f2e91616a996b547c36f15
		<tag k="fixme" v="consider seamark:type=rock or natural=shoal" />
		<tag k="name" v="Bokkusskjæret" />
		<tag k="place" v="islet" />
		<tag k="ssr:stedsnr" v="510717" />
	</node>
<<<<<<< HEAD
	<node lat="70.69557780455246" lon="29.351362842791698" id="-35242">
		<tag k="name" v="Kjosen" />
=======
	<node id="-913183" lat="71.031063904" lon="27.8177383755">
		<tag k="name" v="Sørfjordvika" />
>>>>>>> e1d4bc35ff8a6074a6f2e91616a996b547c36f15
		<tag k="natural" v="bay" />
		<tag k="ssr:stedsnr" v="510719" />
	</node>
<<<<<<< HEAD
	<node lat="71.05908612597382" lon="27.816141148323716" id="-35247">
		<tag k="name" v="Smørbringen" />
		<tag k="natural" v="cape" />
		<tag k="ssr:stedsnr" v="510956" />
	</node>
	<node lat="71.04667500941598" lon="27.867643922811574" id="-35248">
		<tag k="name" v="Lillevevika" />
=======
	<node id="-913182" lat="71.088497238" lon="28.0411883204">
		<tag k="name" v="Selgrunnen" />
		<tag k="natural" v="shoal" />
		<tag k="place" v="locality" />
		<tag k="ssr:stedsnr" v="85852" />
	</node>
	<node id="-913180" lat="71.0920750139" lon="28.1576605343">
		<tag k="name" v="Storebjørkevika" />
>>>>>>> e1d4bc35ff8a6074a6f2e91616a996b547c36f15
		<tag k="natural" v="bay" />
		<tag k="ssr:stedsnr" v="510958" />
	</node>
<<<<<<< HEAD
	<node lat="70.80174724009126" lon="27.745224449604034" id="-35249">
		<tag k="alt_name" v="Danskebukta;Elbukta" />
		<tag k="name" v="Vika" />
=======
	<node id="-913179" lat="71.0582944581" lon="28.2442716105">
		<tag k="name" v="Kovkjosen" />
>>>>>>> e1d4bc35ff8a6074a6f2e91616a996b547c36f15
		<tag k="natural" v="bay" />
		<tag k="ssr:stedsnr" v="512787" />
	</node>
<<<<<<< HEAD
	<node lat="70.71528057416155" lon="28.080352132866167" id="-35250">
		<tag k="name" v="Båtneset" />
		<tag k="natural" v="cape" />
		<tag k="ssr:stedsnr" v="515229" />
	</node>
	<node lat="71.07037223293688" lon="28.061088316339518" id="-35254">
		<tag k="name" v="Stabbevika" />
=======
	<node id="-913176" lat="70.9650194576" lon="28.5367548439">
		<tag k="name" v="Russevika - Ruoššaluokta" />
		<tag k="name:no" v="Russevika" />
		<tag k="name:se" v="Ruoššaluokta" />
>>>>>>> e1d4bc35ff8a6074a6f2e91616a996b547c36f15
		<tag k="natural" v="bay" />
		<tag k="ssr:stedsnr" v="687417" />
	</node>
<<<<<<< HEAD
	<node lat="71.09172223706439" lon="28.157152190945162" id="-35257">
		<tag k="alt_name" v="Mollvikneset" />
		<tag k="name" v="Molvikneset" />
=======
	<node id="-913171" lat="70.8122944614" lon="28.3073937628">
		<tag k="name" v="Rafjordneset - Várregoađenjárga" />
		<tag k="name:no" v="Rafjordneset" />
		<tag k="name:se" v="Várregoađenjárga" />
>>>>>>> e1d4bc35ff8a6074a6f2e91616a996b547c36f15
		<tag k="natural" v="cape" />
		<tag k="ssr:stedsnr" v="687464" />
	</node>
<<<<<<< HEAD
	<node lat="70.9595750184551" lon="28.189174371592795" id="-35261">
		<tag k="name" v="Innervalen" />
		<tag k="natural" v="bay" />
		<tag k="ssr:stedsnr" v="687819" />
	</node>
	<node lat="70.7992805729467" lon="27.725277240302248" id="-35269">
		<tag k="name" v="Hopseidet - Nuorri" />
		<tag k="name:no" v="Hopseidet" />
		<tag k="name:se" v="Nuorri" />
		<tag k="place" v="locality" />
		<tag k="ssr:stedsnr" v="687871" />
	</node>
	<node lat="70.79817501104995" lon="27.861504993080615" id="-35271">
		<tag k="alt_name" v="Kobbevikneset, in" />
		<tag k="fixme" v="multiple name tags, choose one and add the other to alt_name" />
		<tag k="name" v="Kobbvikneset;Indre Kobbevikneset" />
=======
	<node id="-913170" lat="71.0664972321" lon="28.0089494509">
		<tag k="name" v="Futelvnakken" />
		<tag k="natural" v="cape" />
		<tag k="ssr:stedsnr" v="80423" />
	</node>
	<node id="-913166" lat="70.7833027913" lon="27.984302175">
		<tag k="name" v="Tørrisgrunnen" />
		<tag k="natural" v="shoal" />
		<tag k="place" v="locality" />
		<tag k="ssr:stedsnr" v="25407" />
	</node>
	<node id="-913161" lat="70.7489166865" lon="28.1145687939">
		<tag k="name" v="Storvika" />
		<tag k="natural" v="bay" />
		<tag k="ssr:stedsnr" v="20306" />
	</node>
	<node id="-914247" lat="71.0636250133" lon="28.2686299418">
		<tag k="name" v="Flintholmen" />
		<tag k="place" v="islet" />
		<tag k="ssr:stedsnr" v="875154" />
	</node>
	<node id="-914246" lat="71.0815361253" lon="28.1198410876">
		<tag k="name" v="Veslevikbåen" />
		<tag k="place" v="locality" />
		<tag k="seamark:type" v="rock" />
		<tag k="ssr:stedsnr" v="874944" />
	</node>
	<node id="-914244" lat="71.0288444605" lon="28.205504952">
		<tag k="name" v="Kobbvikneset" />
		<tag k="natural" v="cape" />
		<tag k="ssr:stedsnr" v="874848" />
	</node>
	<node id="-914243" lat="71.0926639015" lon="28.1593466447">
		<tag k="name" v="Lillebjørkevika" />
		<tag k="natural" v="bay" />
		<tag k="ssr:stedsnr" v="874843" />
	</node>
	<node id="-914241" lat="71.0985416737" lon="27.7385022886">
		<tag k="name" v="Elvevika" />
		<tag k="natural" v="bay" />
		<tag k="ssr:stedsnr" v="874734" />
	</node>
	<node id="-914240" lat="71.0569639046" lon="27.7857272613">
		<tag k="name" v="Guiskinjárga" />
		<tag k="name:se" v="Guiskinjárga" />
		<tag k="natural" v="cape" />
		<tag k="ssr:stedsnr" v="874029" />
	</node>
	<node id="-914236" lat="70.8013500186" lon="28.2628743359">
		<tag k="alt_name" v="Kjeskelvika, l;Litle Kjeskelvika" />
		<tag k="name" v="Lille Kjeskelvika" />
		<tag k="natural" v="bay" />
		<tag k="ssr:stedsnr" v="870940" />
	</node>
	<node id="-914235" lat="70.8534777905" lon="28.4055243085">
		<tag k="alt_name" v="Oterstein" />
		<tag k="name" v="Otersteinen" />
>>>>>>> e1d4bc35ff8a6074a6f2e91616a996b547c36f15
		<tag k="natural" v="cape" />
		<tag k="ssr:stedsnr" v="687876" />
	</node>
<<<<<<< HEAD
	<node lat="70.95618057154405" lon="28.538932609424783" id="-35272">
		<tag k="name" v="Avløysinga" />
=======
	<node id="-914234" lat="71.0160944563" lon="28.2017021581">
		<tag k="name" v="Larsolaurda" />
>>>>>>> e1d4bc35ff8a6074a6f2e91616a996b547c36f15
		<tag k="natural" v="cape" />
		<tag k="ssr:stedsnr" v="687918" />
	</node>
<<<<<<< HEAD
	<node lat="70.83933334421094" lon="28.222457688893158" id="-35273">
		<tag k="name" v="Rafjordbotn" />
=======
	<node id="-914228" lat="70.9971527935" lon="28.3035326953">
		<tag k="bay" v="fjord" />
		<tag k="name" v="Sandfjorden" />
>>>>>>> e1d4bc35ff8a6074a6f2e91616a996b547c36f15
		<tag k="natural" v="bay" />
		<tag k="ssr:stedsnr" v="688951" />
	</node>
<<<<<<< HEAD
	<node lat="71.09020279086182" lon="28.0705161068368" id="-35275">
		<tag k="alt_name" v="Bispegrunnen, in" />
		<tag k="name" v="Indre Bispegrunnen" />
=======
	<node id="-914227" lat="71.081652789" lon="27.8500050465">
		<tag k="name" v="Medtuvgrunnen" />
>>>>>>> e1d4bc35ff8a6074a6f2e91616a996b547c36f15
		<tag k="natural" v="shoal" />
		<tag k="place" v="locality" />
		<tag k="ssr:stedsnr" v="688450" />
	</node>
<<<<<<< HEAD
	<node lat="70.79266668415555" lon="28.173766015539503" id="-35278">
		<tag k="name" v="Hamneskjerringa" />
=======
	<node id="-914225" lat="71.0941277867" lon="28.1797216309">
		<tag k="alt_name" v="Daumannsvika" />
		<tag k="name" v="Daudingsvika" />
>>>>>>> e1d4bc35ff8a6074a6f2e91616a996b547c36f15
		<tag k="natural" v="bay" />
		<tag k="ssr:stedsnr" v="692651" />
	</node>
<<<<<<< HEAD
	<node lat="70.4779694984812" lon="30.901573022960466" id="-35279">
		<tag k="alt_name" v="Østhavet" />
		<tag k="name" v="Austhavet" />
		<tag k="place" v="sea" />
		<tag k="ssr:stedsnr" v="565913" />
	</node>
	<node lat="70.79517779059034" lon="28.044910489008203" id="-35280">
		<tag k="name" v="Storbukta" />
		<tag k="natural" v="bay" />
		<tag k="ssr:stedsnr" v="692665" />
	</node>
	<node lat="70.67950279879257" lon="28.121082672635957" id="-35282">
		<tag k="name" v="Killibukta - Čilleluokta" />
		<tag k="name:no" v="Killibukta" />
		<tag k="name:se" v="Čilleluokta" />
=======
	<node id="-914224" lat="71.0927111267" lon="28.1732772009">
		<tag k="alt_name" v="Hollendervika" />
		<tag k="name" v="Hollendarvika" />
		<tag k="natural" v="bay" />
		<tag k="ssr:stedsnr" v="869483" />
	</node>
	<node id="-914222" lat="71.0495472374" lon="28.2650216132">
		<tag k="name" v="Danielsneset" />
		<tag k="natural" v="cape" />
		<tag k="ssr:stedsnr" v="869470" />
	</node>
	<node id="-914221" lat="71.0563777895" lon="28.0630216507">
		<tag k="name" v="Hamna" />
>>>>>>> e1d4bc35ff8a6074a6f2e91616a996b547c36f15
		<tag k="natural" v="bay" />
		<tag k="ssr:stedsnr" v="566304" />
	</node>
<<<<<<< HEAD
	<node lat="71.09913056898215" lon="27.80782170176897" id="-35285">
		<tag k="name" v="Mellomgrunnen" />
=======
	<node id="-914211" lat="70.7943583474" lon="27.8411022182">
		<tag k="name" v="Sandnesgrunnen" />
>>>>>>> e1d4bc35ff8a6074a6f2e91616a996b547c36f15
		<tag k="natural" v="shoal" />
		<tag k="place" v="locality" />
		<tag k="ssr:stedsnr" v="566464" />
	</node>
<<<<<<< HEAD
	<node lat="71.05138612700331" lon="28.068318866012692" id="-35289">
		<tag k="name" v="Steinvåg-Sandfjorden" />
		<tag k="natural" v="bay" />
		<tag k="ssr:stedsnr" v="692851" />
	</node>
	<node lat="70.9862222384299" lon="28.55249930151649" id="-35293">
		<tag k="name" v="Seigrunnen" />
		<tag k="natural" v="shoal" />
		<tag k="place" v="locality" />
		<tag k="ssr:stedsnr" v="693056" />
	</node>
	<node lat="71.05265556587648" lon="28.28083826991159" id="-35294">
		<tag k="name" v="Daudmannsfallet" />
=======
	<node id="-914210" lat="70.7963472364" lon="27.8782633061">
		<tag k="name" v="Kobbvikgrunnen" />
		<tag k="natural" v="shoal" />
		<tag k="place" v="locality" />
		<tag k="ssr:stedsnr" v="815425" />
	</node>
	<node id="-914209" lat="70.7757027965" lon="27.8616272048">
		<tag k="name" v="Sørgrunnen" />
		<tag k="natural" v="shoal" />
		<tag k="place" v="locality" />
		<tag k="ssr:stedsnr" v="815424" />
	</node>
	<node id="-914208" lat="71.0595639067" lon="28.0973049711">
		<tag k="name" v="Russevika" />
		<tag k="natural" v="bay" />
		<tag k="ssr:stedsnr" v="814740" />
	</node>
	<node id="-914207" lat="71.1005555708" lon="28.3166660349">
		<tag k="name" v="Koibåan" />
>>>>>>> e1d4bc35ff8a6074a6f2e91616a996b547c36f15
		<tag k="natural" v="shoal" />
		<tag k="place" v="locality" />
		<tag k="ssr:stedsnr" v="693231" />
	</node>
<<<<<<< HEAD
	<node lat="71.03008890026375" lon="28.26269381986337" id="-35298">
		<tag k="name" v="Nordre Koløygrunnen" />
=======
	<node id="-914206" lat="71.0609583442" lon="28.3558465724">
		<tag k="name" v="Grunnskallen" />
>>>>>>> e1d4bc35ff8a6074a6f2e91616a996b547c36f15
		<tag k="natural" v="shoal" />
		<tag k="place" v="locality" />
		<tag k="ssr:stedsnr" v="571154" />
	</node>
<<<<<<< HEAD
	<node lat="70.8073166886686" lon="28.290840984660928" id="-35303">
		<tag k="name" v="Litleneset" />
=======
	<node id="-914202" lat="71.0071750159" lon="28.192002165">
		<tag k="name" v="Finnvikneset" />
>>>>>>> e1d4bc35ff8a6074a6f2e91616a996b547c36f15
		<tag k="natural" v="cape" />
		<tag k="ssr:stedsnr" v="694348" />
	</node>
<<<<<<< HEAD
	<node lat="70.71708057153556" lon="28.07955214586757" id="-35306">
		<tag k="fixme" v="consider seamark:type=rock or natural=shoal" />
		<tag k="name" v="Skjæret" />
		<tag k="place" v="islet" />
		<tag k="ssr:stedsnr" v="576211" />
	</node>
	<node lat="70.67112501132063" lon="27.87489385352616" id="-35317">
		<tag k="fixme" v="multiple name tags, choose one and add the other to alt_name" />
		<tag k="name" v="Lilløya;Litleholmen;Litleøya - Uhcasulloš" />
		<tag k="name:no" v="Lilløya;Litleholmen;Litleøya" />
		<tag k="name:se" v="Uhcasulloš" />
		<tag k="old_name:se" v="Uccasulluš" />
		<tag k="place" v="islet" />
		<tag k="ssr:stedsnr" v="626313" />
	</node>
	<node lat="71.0095805664913" lon="28.254582702205408" id="-35321">
		<tag k="name" v="Koiøya" />
		<tag k="place" v="island" />
		<tag k="ssr:stedsnr" v="626420" />
	</node>
	<node lat="71.05675834446316" lon="27.875866146721915" id="-35322">
		<tag k="fixme" v="consider seamark:type=rock or natural=shoal" />
		<tag k="name" v="Vedvikskjæret" />
		<tag k="place" v="islet" />
		<tag k="ssr:stedsnr" v="626451" />
	</node>
	<node lat="71.07726389779599" lon="27.745588383882676" id="-35324">
		<tag k="bay" v="fjord" />
		<tag k="name" v="Magkeilfjorden - Máhkilvuotna" />
		<tag k="name:no" v="Magkeilfjorden" />
		<tag k="name:se" v="Máhkilvuotna" />
=======
	<node id="-914201" lat="71.0543972365" lon="27.8092911387">
		<tag k="name" v="Kuskjellhamnvika - Guiski" />
		<tag k="name:no" v="Kuskjellhamnvika" />
		<tag k="name:se" v="Guiski" />
		<tag k="natural" v="bay" />
		<tag k="ssr:stedsnr" v="814020" />
	</node>
	<node id="-914200" lat="71.0551416768" lon="28.2597660466">
		<tag k="name" v="Kvalvikneset" />
		<tag k="natural" v="cape" />
		<tag k="ssr:stedsnr" v="813870" />
	</node>
	<node id="-914198" lat="71.0563194598" lon="28.2540938158">
		<tag k="name" v="Kåvroren" />
>>>>>>> e1d4bc35ff8a6074a6f2e91616a996b547c36f15
		<tag k="natural" v="bay" />
		<tag k="old_name:se" v="Makkilvuodna;Mahkilvuotna" />
		<tag k="ssr:stedsnr" v="626503" />
	</node>
<<<<<<< HEAD
	<node lat="70.99603612851992" lon="28.46923543383575" id="-35332">
		<tag k="name" v="Maltholmen" />
=======
	<node id="-914197" lat="71.0940527878" lon="28.1702577484">
		<tag k="alt_name" v="Hollendervikholmen" />
		<tag k="name" v="Hollendarvikholmen" />
>>>>>>> e1d4bc35ff8a6074a6f2e91616a996b547c36f15
		<tag k="place" v="islet" />
		<tag k="ssr:stedsnr" v="632010" />
	</node>
<<<<<<< HEAD
	<node lat="71.08805279419256" lon="28.149082753559266" id="-35333">
		<tag k="name" v="Sandvika" />
		<tag k="natural" v="bay" />
		<tag k="ssr:stedsnr" v="631905" />
	</node>
	<node lat="70.83818890346235" lon="28.224641005064363" id="-35335">
		<tag k="name" v="Klubban" />
=======
	<node id="-914196" lat="71.0931666822" lon="28.1859438581">
		<tag k="name" v="Duolbanjárga" />
		<tag k="name:se" v="Duolbanjárga" />
		<tag k="natural" v="cape" />
		<tag k="ssr:stedsnr" v="813767" />
	</node>
	<node id="-914194" lat="70.7914750134" lon="28.0727299222">
		<tag k="name" v="Løktodden" />
>>>>>>> e1d4bc35ff8a6074a6f2e91616a996b547c36f15
		<tag k="natural" v="cape" />
		<tag k="ssr:stedsnr" v="633406" />
	</node>
<<<<<<< HEAD
	<node lat="71.03087779493954" lon="28.228966041447432" id="-35339">
		<tag k="fixme" v="consider seamark:type=rock or natural=shoal" />
		<tag k="name" v="Gunnarsfjordskjæret" />
		<tag k="place" v="islet" />
		<tag k="ssr:stedsnr" v="687388" />
	</node>
	<node lat="71.00425556825573" lon="28.305768816674647" id="-35341">
		<tag k="name" v="Sandfjordneset" />
		<tag k="natural" v="cape" />
		<tag k="ssr:stedsnr" v="687904" />
	</node>
	<node lat="70.63851667898425" lon="27.78600497083316" id="-35346">
		<tag k="name" v="Gamneset" />
		<tag k="natural" v="cape" />
		<tag k="ssr:stedsnr" v="688293" />
	</node>
	<node lat="71.06295001034646" lon="27.771318931902893" id="-35348">
=======
	<node id="-914192" lat="70.9071333499" lon="28.4679548403">
		<tag k="name" v="Finnkongkeila - Sieidevuotna" />
		<tag k="name:no" v="Finnkongkeila" />
		<tag k="name:se" v="Sieidevuotna" />
		<tag k="natural" v="bay" />
		<tag k="old_name:se" v="Sieidevuodna" />
		<tag k="ssr:stedsnr" v="809927" />
	</node>
	<node id="-914191" lat="70.9739361221" lon="28.2361104751">
		<tag k="name" v="Mollvika" />
		<tag k="natural" v="bay" />
		<tag k="ssr:stedsnr" v="809925" />
	</node>
	<node id="-914190" lat="70.7871305737" lon="27.9154771915">
>>>>>>> e1d4bc35ff8a6074a6f2e91616a996b547c36f15
		<tag k="bay" v="fjord" />
		<tag k="name" v="Njuorjovuotna" />
		<tag k="name:se" v="Njuorjovuotna" />
		<tag k="natural" v="bay" />
<<<<<<< HEAD
		<tag k="ssr:stedsnr" v="692013" />
	</node>
	<node lat="71.0359222340325" lon="27.83745501544341" id="-35349">
		<tag k="name" v="Flatholmen" />
		<tag k="place" v="islet" />
		<tag k="ssr:stedsnr" v="692110" />
	</node>
	<node lat="71.03655001663634" lon="27.87541890177501" id="-35350">
		<tag k="fixme" v="consider seamark:type=rock or natural=shoal" />
		<tag k="name" v="Skjæret" />
		<tag k="place" v="islet" />
		<tag k="ssr:stedsnr" v="692111" />
	</node>
	<node lat="70.79865001926802" lon="28.092041050118628" id="-35352">
		<tag k="name" v="Skjånesodden" />
		<tag k="natural" v="cape" />
		<tag k="ssr:stedsnr" v="692693" />
	</node>
	<node lat="71.07017779101353" lon="28.244002169790104" id="-35353">
		<tag k="name" v="Elvevågen" />
=======
		<tag k="old_name:se" v="Nuorevuodna, nuortat" />
		<tag k="ssr:stedsnr" v="809906" />
	</node>
	<node id="-914181" lat="71.1246750146" lon="27.9972439101">
		<tag k="name" v="Ytre Kamøyskallen" />
		<tag k="natural" v="shoal" />
		<tag k="place" v="locality" />
		<tag k="ssr:stedsnr" v="809511" />
	</node>
	<node id="-914180" lat="71.0999861197" lon="28.2582160651">
		<tag k="name" v="Kamøygrunnen" />
		<tag k="natural" v="shoal" />
		<tag k="place" v="locality" />
		<tag k="ssr:stedsnr" v="809477" />
	</node>
	<node id="-914179" lat="71.1176111227" lon="27.8805772585">
		<tag k="name" v="Medtuvsnaget" />
		<tag k="natural" v="shoal" />
		<tag k="place" v="locality" />
		<tag k="ssr:stedsnr" v="809474" />
	</node>
	<node id="-914178" lat="71.1134666743" lon="27.7111272974">
		<tag k="name" v="Mola" />
		<tag k="natural" v="beach" />
		<tag k="place" v="locality" />
		<tag k="ssr:stedsnr" v="809472" />
	</node>
	<node id="-914175" lat="71.0592555699" lon="27.9322883513">
		<tag k="alt_name" v="Staurvika, in;Innerstaurvika" />
		<tag k="name" v="Indre Staurvika" />
>>>>>>> e1d4bc35ff8a6074a6f2e91616a996b547c36f15
		<tag k="natural" v="bay" />
		<tag k="ssr:stedsnr" v="692810" />
	</node>
<<<<<<< HEAD
	<node lat="71.08537223423343" lon="28.246443828248566" id="-35355">
		<tag k="name" v="Korsvalan" />
		<tag k="natural" v="bay" />
		<tag k="ssr:stedsnr" v="692827" />
	</node>
	<node lat="70.9674777937075" lon="28.54684094569843" id="-35358">
		<tag k="name" v="Russevikspira" />
=======
	<node id="-914169" lat="70.629252792" lon="27.8200660839">
		<tag k="name" v="Gođđoluokta" />
		<tag k="name:se" v="Gođđoluokta" />
		<tag k="natural" v="bay" />
		<tag k="old_name:se" v="Gåđđuluokta" />
		<tag k="ssr:stedsnr" v="809275" />
	</node>
	<node id="-914157" lat="71.0856888964" lon="28.0444799981">
		<tag k="name" v="Skarvestauren" />
		<tag k="natural" v="cape" />
		<tag k="ssr:stedsnr" v="808435" />
	</node>
	<node id="-914156" lat="71.0920361232" lon="28.1609855266">
		<tag k="name" v="Bjørkevikneset" />
		<tag k="natural" v="cape" />
		<tag k="ssr:stedsnr" v="808414" />
	</node>
	<node id="-914154" lat="70.8242750175" lon="28.2731132213">
		<tag k="name" v="Sandodden" />
>>>>>>> e1d4bc35ff8a6074a6f2e91616a996b547c36f15
		<tag k="natural" v="cape" />
		<tag k="ssr:stedsnr" v="693021" />
	</node>
<<<<<<< HEAD
	<node lat="70.66470001029523" lon="27.85724941665065" id="-35359">
		<tag k="name" v="Skoleneset" />
=======
	<node id="-914153" lat="70.8910694581" lon="28.3827604219">
		<tag k="name" v="Hamnneset" />
>>>>>>> e1d4bc35ff8a6074a6f2e91616a996b547c36f15
		<tag k="natural" v="cape" />
		<tag k="ssr:stedsnr" v="697265" />
	</node>
<<<<<<< HEAD
	<node lat="70.79830278876283" lon="27.88921887114045" id="-35361">
		<tag k="name" v="Støtta" />
		<tag k="place" v="locality" />
		<tag k="seamark:type" v="rock" />
		<tag k="ssr:stedsnr" v="700861" />
	</node>
	<node lat="70.74850556838855" lon="27.767979995382962" id="-35367">
		<tag k="bay" v="fjord" />
		<tag k="name" v="Store Skogfjorden - Caganvuotna" />
		<tag k="name:no" v="Store Skogfjorden" />
		<tag k="name:se" v="Caganvuotna" />
=======
	<node id="-914148" lat="71.0875277882" lon="28.1481660789">
		<tag k="name" v="Sandvikneset" />
		<tag k="natural" v="cape" />
		<tag k="ssr:stedsnr" v="753883" />
	</node>
	<node id="-914144" lat="71.0744777924" lon="28.2498744003">
		<tag k="name" v="Sandvika" />
		<tag k="natural" v="bay" />
		<tag k="ssr:stedsnr" v="753798" />
	</node>
	<node id="-914143" lat="70.8173250169" lon="28.0072855076">
		<tag k="name" v="Grunnbukta" />
>>>>>>> e1d4bc35ff8a6074a6f2e91616a996b547c36f15
		<tag k="natural" v="bay" />
		<tag k="old_name:no" v="Skogfjorden, store" />
		<tag k="old_name:se" v="Caganvuodna" />
		<tag k="ssr:stedsnr" v="748317" />
	</node>
<<<<<<< HEAD
	<node lat="70.64397779016937" lon="27.82096052654442" id="-35368">
		<tag k="name" v="Ankerneset" />
=======
	<node id="-914138" lat="70.8011639038" lon="28.0996826938">
		<tag k="name" v="Finnes" />
>>>>>>> e1d4bc35ff8a6074a6f2e91616a996b547c36f15
		<tag k="natural" v="cape" />
		<tag k="ssr:stedsnr" v="748278" />
	</node>
<<<<<<< HEAD
	<node lat="71.06372778896554" lon="27.716521732447454" id="-35369">
		<tag k="name" v="Sydvestneset" />
		<tag k="natural" v="cape" />
		<tag k="ssr:stedsnr" v="748420" />
	</node>
	<node lat="70.79920835189175" lon="27.93401607864646" id="-35372">
=======
	<node id="-914133" lat="71.092166684" lon="28.1983716179">
		<tag k="name" v="Varnesbukta" />
		<tag k="natural" v="bay" />
		<tag k="ssr:stedsnr" v="752758" />
	</node>
	<node id="-914126" lat="70.7992083519" lon="27.9340160786">
>>>>>>> e1d4bc35ff8a6074a6f2e91616a996b547c36f15
		<tag k="alt_name" v="Per Samuelsbukta" />
		<tag k="name" v="Persamuelsbukta" />
		<tag k="natural" v="bay" />
		<tag k="ssr:stedsnr" v="748875" />
	</node>
<<<<<<< HEAD
	<node lat="70.97584446145304" lon="28.54324929050828" id="-35376">
		<tag k="alt_name" v="Russevika, l" />
		<tag k="name" v="Lille Russevika" />
		<tag k="natural" v="bay" />
		<tag k="ssr:stedsnr" v="748920" />
	</node>
	<node lat="71.0921666840384" lon="28.198371617946876" id="-35377">
		<tag k="name" v="Varnesbukta" />
		<tag k="natural" v="bay" />
		<tag k="ssr:stedsnr" v="752758" />
	</node>
	<node lat="70.80116390377579" lon="28.099682693835604" id="-35380">
		<tag k="name" v="Finnes" />
=======
	<node id="-914123" lat="71.1310083452" lon="27.6471411872">
		<tag k="name" v="Kinnarodden - Gidnegeahči" />
		<tag k="name:no" v="Kinnarodden" />
		<tag k="name:se" v="Gidnegeahči" />
>>>>>>> e1d4bc35ff8a6074a6f2e91616a996b547c36f15
		<tag k="natural" v="cape" />
		<tag k="ssr:stedsnr" v="753659" />
	</node>
<<<<<<< HEAD
	<node lat="70.98484446380475" lon="28.52377430017348" id="-35389">
		<tag k="name" v="Skinnstakkvika" />
		<tag k="natural" v="bay" />
		<tag k="ssr:stedsnr" v="754009" />
	</node>
	<node lat="71.13351390210524" lon="27.74459950089833" id="-35390">
		<tag k="name" v="Tåga" />
=======
	<node id="-914122" lat="71.1314972357" lon="27.9002855771">
		<tag k="name" v="Øvre Medtuvskallen" />
>>>>>>> e1d4bc35ff8a6074a6f2e91616a996b547c36f15
		<tag k="natural" v="shoal" />
		<tag k="place" v="locality" />
		<tag k="ssr:stedsnr" v="756158" />
	</node>
<<<<<<< HEAD
	<node lat="70.79743890167755" lon="27.919285527156052" id="-35391">
		<tag k="name" v="Pelkefjæra" />
		<tag k="natural" v="beach" />
		<tag k="ssr:stedsnr" v="760854" />
	</node>
	<node lat="71.12467501458696" lon="27.997243910106462" id="-35397">
		<tag k="name" v="Ytre Kamøyskallen" />
		<tag k="natural" v="shoal" />
		<tag k="place" v="locality" />
		<tag k="ssr:stedsnr" v="809511" />
	</node>
	<node lat="70.78713057366457" lon="27.91547719147418" id="-35399">
		<tag k="bay" v="fjord" />
		<tag k="name" v="Hopsfjorden - Nuorttat Nuorevuotna" />
		<tag k="name:no" v="Hopsfjorden" />
		<tag k="name:se" v="Nuorttat Nuorevuotna" />
		<tag k="natural" v="bay" />
		<tag k="old_name:se" v="Nuorevuodna, nuortat" />
		<tag k="ssr:stedsnr" v="809906" />
	</node>
	<node lat="70.79147501336082" lon="28.07272992220998" id="-35405">
		<tag k="name" v="Løktodden" />
=======
	<node id="-914118" lat="71.0404305717" lon="28.2304521699">
		<tag k="name" v="Storvika" />
		<tag k="natural" v="bay" />
		<tag k="ssr:stedsnr" v="748428" />
	</node>
	<node id="-914111" lat="70.6439777902" lon="27.8209605265">
		<tag k="name" v="Ankerneset" />
		<tag k="natural" v="cape" />
		<tag k="ssr:stedsnr" v="748278" />
	</node>
	<node id="-914100" lat="70.8875750138" lon="28.4272437395">
		<tag k="name" v="Klubben" />
>>>>>>> e1d4bc35ff8a6074a6f2e91616a996b547c36f15
		<tag k="natural" v="cape" />
		<tag k="ssr:stedsnr" v="813682" />
	</node>
<<<<<<< HEAD
	<node lat="71.100555570771" lon="28.316666034946827" id="-35407">
		<tag k="name" v="Koibåan" />
		<tag k="natural" v="shoal" />
		<tag k="place" v="locality" />
		<tag k="ssr:stedsnr" v="814706" />
	</node>
	<node lat="71.02888334603053" lon="28.240027149891244" id="-35408">
		<tag k="fixme" v="consider seamark:type=rock or natural=shoal" />
		<tag k="name" v="Kjerringa" />
=======
	<node id="-914098" lat="71.0880527942" lon="28.1490827536">
		<tag k="name" v="Sandvika" />
		<tag k="natural" v="bay" />
		<tag k="ssr:stedsnr" v="631905" />
	</node>
	<node id="-914097" lat="70.9960361285" lon="28.4692354338">
		<tag k="name" v="Maltholmen" />
>>>>>>> e1d4bc35ff8a6074a6f2e91616a996b547c36f15
		<tag k="place" v="islet" />
		<tag k="ssr:stedsnr" v="814688" />
	</node>
<<<<<<< HEAD
	<node lat="70.77570279651697" lon="27.861627204807704" id="-35411">
		<tag k="name" v="Sørgrunnen" />
		<tag k="natural" v="shoal" />
=======
	<node id="-914096" lat="71.0871027933" lon="28.2386882896">
		<tag k="name" v="Korsstrand" />
		<tag k="natural" v="beach" />
>>>>>>> e1d4bc35ff8a6074a6f2e91616a996b547c36f15
		<tag k="place" v="locality" />
		<tag k="ssr:stedsnr" v="815424" />
	</node>
<<<<<<< HEAD
	<node lat="70.79634723640295" lon="27.87826330605182" id="-35412">
		<tag k="name" v="Kobbvikgrunnen" />
		<tag k="natural" v="shoal" />
=======
	<node id="-914091" lat="70.8059722399" lon="28.0922049359">
		<tag k="name" v="Forsen" />
		<tag k="natural" v="beach" />
>>>>>>> e1d4bc35ff8a6074a6f2e91616a996b547c36f15
		<tag k="place" v="locality" />
		<tag k="ssr:stedsnr" v="815425" />
	</node>
<<<<<<< HEAD
	<node lat="71.08165278899642" lon="27.850005046509477" id="-35416">
		<tag k="name" v="Medtuvgrunnen" />
		<tag k="natural" v="shoal" />
		<tag k="place" v="locality" />
		<tag k="ssr:stedsnr" v="869506" />
	</node>
	<node lat="71.0495472373521" lon="28.265021613217414" id="-35417">
		<tag k="name" v="Danielsneset" />
		<tag k="natural" v="cape" />
		<tag k="ssr:stedsnr" v="869470" />
	</node>
	<node lat="71.09271112668289" lon="28.173277200902582" id="-35419">
		<tag k="alt_name" v="Hollendervika" />
		<tag k="name" v="Hollendarvika" />
=======
	<node id="-914090" lat="70.7919389048" lon="28.075729931">
		<tag k="name" v="Blåbærbukta" />
		<tag k="natural" v="bay" />
		<tag k="ssr:stedsnr" v="631687" />
	</node>
	<node id="-914089" lat="71.0724500109" lon="28.2495132742">
		<tag k="name" v="Råttholla" />
		<tag k="natural" v="bay" />
		<tag k="ssr:stedsnr" v="631827" />
	</node>
	<node id="-914088" lat="71.0608000155" lon="28.2517577329">
		<tag k="name" v="Beritbukta" />
>>>>>>> e1d4bc35ff8a6074a6f2e91616a996b547c36f15
		<tag k="natural" v="bay" />
		<tag k="ssr:stedsnr" v="869483" />
	</node>
<<<<<<< HEAD
	<node lat="71.09412778673075" lon="28.179721630943305" id="-35420">
		<tag k="alt_name" v="Daumannsvika" />
		<tag k="name" v="Daudingsvika" />
		<tag k="natural" v="bay" />
		<tag k="ssr:stedsnr" v="869484" />
	</node>
	<node lat="70.84113612900488" lon="28.217352122304856" id="-35422">
		<tag k="bay" v="fjord" />
		<tag k="name" v="Rafjorden - Rávjavuotna" />
		<tag k="name:no" v="Rafjorden" />
		<tag k="name:se" v="Rávjavuotna" />
=======
	<node id="-914086" lat="70.8005639006" lon="28.0826882727">
		<tag k="alt_name" v="Breivikklubben" />
		<tag k="name" v="Lillelvklubben" />
		<tag k="natural" v="cape" />
		<tag k="ssr:stedsnr" v="631683" />
	</node>
	<node id="-914080" lat="70.8851666799" lon="28.34656044">
		<tag k="name" v="Peilbukta" />
>>>>>>> e1d4bc35ff8a6074a6f2e91616a996b547c36f15
		<tag k="natural" v="bay" />
		<tag k="old_name:se" v="Ravjavuodna" />
		<tag k="ssr:stedsnr" v="869873" />
	</node>
<<<<<<< HEAD
	<node lat="70.67738612426577" lon="27.8944021867033" id="-35424">
		<tag k="name" v="Muorjenjárga" />
		<tag k="name:se" v="Muorjenjárga" />
=======
	<node id="-914079" lat="70.8603277909" lon="28.4227215226">
		<tag k="alt_name:no" v="Jorneset" />
		<tag k="name" v="Jordneset - Gieddenjárga" />
		<tag k="name:no" v="Jordneset" />
		<tag k="name:se" v="Gieddenjárga" />
>>>>>>> e1d4bc35ff8a6074a6f2e91616a996b547c36f15
		<tag k="natural" v="cape" />
		<tag k="old_name:se" v="Muorjenjarga" />
		<tag k="ssr:stedsnr" v="930297" />
	</node>
<<<<<<< HEAD
	<node lat="70.66504445894279" lon="28.04565492752552" id="-35425">
		<tag k="name" v="Kisteneset - Gistonjárga" />
		<tag k="name:no" v="Kisteneset" />
		<tag k="name:se" v="Gistonjárga" />
		<tag k="natural" v="cape" />
		<tag k="old_name:se" v="Gistunjarga" />
		<tag k="ssr:stedsnr" v="870304" />
	</node>
	<node lat="70.6239889086212" lon="27.779829979235178" id="-35429">
		<tag k="name" v="Mattisneset" />
=======
	<node id="-914077" lat="70.7548944616" lon="27.7968244444">
		<tag k="name" v="Blåbærbukta" />
		<tag k="natural" v="bay" />
		<tag k="ssr:stedsnr" v="626894" />
	</node>
	<node id="-914076" lat="70.79617779" lon="27.7904438791">
		<tag k="alt_name" v="Langneset" />
		<tag k="name" v="Langnes" />
>>>>>>> e1d4bc35ff8a6074a6f2e91616a996b547c36f15
		<tag k="natural" v="cape" />
		<tag k="ssr:stedsnr" v="930279" />
	</node>
<<<<<<< HEAD
	<node lat="70.99661112429656" lon="28.45349097728277" id="-35432">
		<tag k="name" v="Finngamman" />
=======
	<node id="-914075" lat="70.8094083449" lon="27.9633493952">
		<tag k="name" v="Olaneset" />
>>>>>>> e1d4bc35ff8a6074a6f2e91616a996b547c36f15
		<tag k="natural" v="cape" />
		<tag k="ssr:stedsnr" v="870905" />
	</node>
<<<<<<< HEAD
	<node lat="71.05278334100947" lon="27.913016124683736" id="-35437">
		<tag k="name" v="Skipsvika" />
		<tag k="natural" v="bay" />
		<tag k="ssr:stedsnr" v="930457" />
	</node>
	<node lat="71.05216390362145" lon="27.808249491424103" id="-35438">
		<tag k="name" v="Kuskjellhamnklubben" />
=======
	<node id="-914065" lat="70.7731583446" lon="27.9061355257">
		<tag k="name" v="Sandneset" />
>>>>>>> e1d4bc35ff8a6074a6f2e91616a996b547c36f15
		<tag k="natural" v="cape" />
		<tag k="ssr:stedsnr" v="930419" />
	</node>
<<<<<<< HEAD
	<node lat="71.0516777911762" lon="27.799477258267792" id="-35439">
		<tag k="name" v="Kuskjellhamna" />
=======
	<node id="-914063" lat="71.0772638978" lon="27.7455883839">
		<tag k="bay" v="fjord" />
		<tag k="name" v="Magkeilfjorden - Máhkilvuotna" />
		<tag k="name:no" v="Magkeilfjorden" />
		<tag k="name:se" v="Máhkilvuotna" />
>>>>>>> e1d4bc35ff8a6074a6f2e91616a996b547c36f15
		<tag k="natural" v="bay" />
		<tag k="ssr:stedsnr" v="930421" />
	</node>
<<<<<<< HEAD
	<node lat="71.0493027908267" lon="27.724749489262962" id="-35440">
		<tag k="name" v="Kobbvågen" />
		<tag k="natural" v="bay" />
		<tag k="ssr:stedsnr" v="930422" />
	</node>
	<node lat="71.0608055729071" lon="28.102610530937117" id="-35441">
		<tag k="name" v="Kvitsteinvika" />
		<tag k="natural" v="bay" />
		<tag k="ssr:stedsnr" v="930427" />
	</node>
	<node lat="71.05756668171166" lon="28.06627444450254" id="-35442">
		<tag k="name" v="Hamnneset" />
=======
	<node id="-914059" lat="71.0567583445" lon="27.8758661467">
		<tag k="fixme" v="consider seamark:type=rock or natural=shoal" />
		<tag k="name" v="Vedvikskjæret" />
		<tag k="place" v="islet" />
		<tag k="ssr:stedsnr" v="626451" />
	</node>
	<node id="-914055" lat="71.0095805665" lon="28.2545827022">
		<tag k="name" v="Koiøya" />
		<tag k="place" v="island" />
		<tag k="ssr:stedsnr" v="626420" />
	</node>
	<node id="-914053" lat="70.7358444639" lon="28.1398854769">
		<tag k="alt_name" v="Langfjordneset" />
		<tag k="name" v="Langfjordodden" />
>>>>>>> e1d4bc35ff8a6074a6f2e91616a996b547c36f15
		<tag k="natural" v="cape" />
		<tag k="ssr:stedsnr" v="930429" />
	</node>
<<<<<<< HEAD
	<node lat="71.06240557048855" lon="27.873166151399687" id="-35444">
=======
	<node id="-914052" lat="70.7468861302" lon="28.0154327132">
		<tag k="alt_name:no" v="Skogfjorden, l;Litle Skogfjorden" />
>>>>>>> e1d4bc35ff8a6074a6f2e91616a996b547c36f15
		<tag k="bay" v="fjord" />
		<tag k="name" v="Mehamnfjorden - Donjevuotna" />
		<tag k="name:no" v="Mehamnfjorden" />
		<tag k="name:se" v="Donjevuotna" />
		<tag k="natural" v="bay" />
		<tag k="old_name:se" v="Dånjevuodna" />
		<tag k="ssr:stedsnr" v="930479" />
	</node>
<<<<<<< HEAD
	<node lat="70.75780001671275" lon="28.054485491951045" id="-35446">
		<tag k="name" v="Sandneset" />
		<tag k="natural" v="cape" />
		<tag k="ssr:stedsnr" v="930529" />
	</node>
	<node lat="70.79342223655009" lon="28.1717798956294" id="-35449">
		<tag k="alt_name" v="Hamnnes" />
		<tag k="name" v="Hamnneset" />
=======
	<node id="-914049" lat="70.6711250113" lon="27.8748938535">
		<tag k="fixme" v="multiple name tags, choose one and add the other to alt_name" />
		<tag k="name" v="Lilløya;Litleholmen;Litleøya - Uhcasulloš" />
		<tag k="name:no" v="Lilløya;Litleholmen;Litleøya" />
		<tag k="name:se" v="Uhcasulloš" />
		<tag k="old_name:se" v="Uccasulluš" />
		<tag k="place" v="islet" />
		<tag k="ssr:stedsnr" v="626313" />
	</node>
	<node id="-914045" lat="70.6288250131" lon="27.8242494198">
		<tag k="name" v="Klubben" />
>>>>>>> e1d4bc35ff8a6074a6f2e91616a996b547c36f15
		<tag k="natural" v="cape" />
		<tag k="ssr:stedsnr" v="930881" />
	</node>
<<<<<<< HEAD
	<node lat="70.9149694600038" lon="28.505940962532602" id="-35450">
		<tag k="name" v="Bruneset - Rovvenjárga" />
		<tag k="name:no" v="Bruneset" />
		<tag k="name:se" v="Rovvenjárga" />
		<tag k="natural" v="cape" />
		<tag k="old_name:se" v="Råvvenjarga" />
		<tag k="ssr:stedsnr" v="930912" />
	</node>
	<node lat="70.84730001605011" lon="28.36290486193312" id="-35451">
		<tag k="bay" v="fjord" />
		<tag k="name" v="Skarfjorden - Skáravuotna" />
		<tag k="name:no" v="Skarfjorden" />
		<tag k="name:se" v="Skáravuotna" />
		<tag k="natural" v="bay" />
		<tag k="old_name:se" v="Skaravuodna" />
		<tag k="ssr:stedsnr" v="930939" />
	</node>
	<node lat="70.79272501380557" lon="27.86290497587489" id="-35452">
		<tag k="name" v="Hardberggrunnen" />
=======
	<node id="-914041" lat="70.6178055687" lon="27.709049424">
		<tag k="fixme" v="consider seamark:type=rock or natural=shoal" />
		<tag k="name" v="Storstein" />
		<tag k="place" v="islet" />
		<tag k="ssr:stedsnr" v="576664" />
	</node>
	<node id="-914040" lat="70.7170805715" lon="28.0795521459">
		<tag k="fixme" v="consider seamark:type=rock or natural=shoal" />
		<tag k="name" v="Skjæret" />
		<tag k="place" v="islet" />
		<tag k="ssr:stedsnr" v="576211" />
	</node>
	<node id="-914036" lat="71.1505194575" lon="27.685732846">
		<tag k="name" v="Ytre Oddegrunnen" />
>>>>>>> e1d4bc35ff8a6074a6f2e91616a996b547c36f15
		<tag k="natural" v="shoal" />
		<tag k="place" v="locality" />
		<tag k="ssr:stedsnr" v="876453" />
	</node>
<<<<<<< HEAD
	<node lat="71.1397361238446" lon="28.0868660911789" id="-35453">
		<tag k="name" v="Ytterteisten" />
		<tag k="natural" v="shoal" />
=======
	<node id="-914034" lat="70.8783222395" lon="28.4292604118">
		<tag k="name" v="Oterstranda" />
		<tag k="natural" v="beach" />
>>>>>>> e1d4bc35ff8a6074a6f2e91616a996b547c36f15
		<tag k="place" v="locality" />
		<tag k="ssr:stedsnr" v="877168" />
	</node>
<<<<<<< HEAD
	<node lat="70.71539723857197" lon="28.07579937148702" id="-35455">
		<tag k="name" v="Langfjordnes" />
		<tag k="natural" v="cape" />
		<tag k="ssr:stedsnr" v="880203" />
	</node>
	<node lat="70.79562501180465" lon="27.94469941145141" id="-35456">
		<tag k="name" v="Knakken" />
		<tag k="natural" v="shoal" />
		<tag k="place" v="locality" />
		<tag k="ssr:stedsnr" v="882819" />
	</node>
	<node lat="70.67438334746619" lon="27.93588828854522" id="-35457">
		<tag k="name" v="Øyenden" />
=======
	<node id="-914028" lat="71.062194458" lon="28.2493188301">
		<tag k="name" v="Gamvikbukta" />
		<tag k="natural" v="bay" />
		<tag k="ssr:stedsnr" v="571663" />
	</node>
	<node id="-914027" lat="71.0300889003" lon="28.2626938199">
		<tag k="name" v="Nordre Koløygrunnen" />
		<tag k="natural" v="shoal" />
		<tag k="place" v="locality" />
		<tag k="ssr:stedsnr" v="571154" />
	</node>
	<node id="-914023" lat="70.792955571" lon="28.0763882733">
		<tag k="name" v="Torvbuktklubben" />
		<tag k="natural" v="cape" />
		<tag k="ssr:stedsnr" v="570646" />
	</node>
	<node id="-914022" lat="70.7936611257" lon="28.1172493737">
		<tag k="alt_name" v="Vargava" />
		<tag k="name" v="Varga" />
>>>>>>> e1d4bc35ff8a6074a6f2e91616a996b547c36f15
		<tag k="natural" v="cape" />
		<tag k="ssr:stedsnr" v="934434" />
	</node>
<<<<<<< HEAD
	<node lat="70.77951390746513" lon="28.092968812366195" id="-35459">
		<tag k="name" v="Storgrunnen" />
		<tag k="natural" v="shoal" />
		<tag k="place" v="locality" />
		<tag k="ssr:stedsnr" v="935396" />
	</node>
	<node lat="70.9439805733239" lon="28.362138210982394" id="-35464">
		<tag k="name" v="Vuokkanjárga" />
		<tag k="name:se" v="Vuokkanjárga" />
		<tag k="natural" v="cape" />
		<tag k="old_name:se" v="Vuogganjarga;Vuokkanjága" />
		<tag k="ssr:stedsnr" v="930906" />
	</node>
	<node lat="70.79135279775409" lon="28.23583545753967" id="-35465">
		<tag k="name" v="Segelneset" />
=======
	<node id="-914021" lat="70.9545139044" lon="28.5292492938">
		<tag k="name" v="Avløysingsbukta" />
		<tag k="natural" v="bay" />
		<tag k="ssr:stedsnr" v="566931" />
	</node>
	<node id="-914020" lat="70.8924555699" lon="28.3566632023">
		<tag k="name" v="Straumbukta" />
		<tag k="natural" v="bay" />
		<tag k="ssr:stedsnr" v="566929" />
	</node>
	<node id="-914017" lat="70.9885250173" lon="28.5215492909">
		<tag k="name" v="Omgangsneset" />
>>>>>>> e1d4bc35ff8a6074a6f2e91616a996b547c36f15
		<tag k="natural" v="cape" />
		<tag k="ssr:stedsnr" v="930948" />
	</node>
<<<<<<< HEAD
	<node lat="70.79802501640756" lon="28.024829952542326" id="-35466">
		<tag k="alt_name" v="Hopsneset, in;Innerhopsnes" />
		<tag k="fixme" v="multiple name tags, choose one and add the other to alt_name" />
		<tag k="name" v="Hopsnes;Indre Hopsneset" />
		<tag k="natural" v="cape" />
		<tag k="ssr:stedsnr" v="930883" />
	</node>
	<node lat="70.98768334785932" lon="28.243743815085274" id="-35468">
		<tag k="alt_name" v="Koiøyholman, in" />
		<tag k="name" v="Indre Koiøyholman" />
=======
	<node id="-914015" lat="70.9955472394" lon="28.4601576517">
		<tag k="name" v="Kråkvika" />
		<tag k="natural" v="bay" />
		<tag k="ssr:stedsnr" v="566912" />
	</node>
	<node id="-914014" lat="70.8104972409" lon="28.0053438436">
		<tag k="name" v="Sandholmen" />
>>>>>>> e1d4bc35ff8a6074a6f2e91616a996b547c36f15
		<tag k="place" v="islet" />
		<tag k="ssr:stedsnr" v="930901" />
	</node>
<<<<<<< HEAD
	<node lat="71.03322223327282" lon="28.512543749953572" id="-35469">
		<tag k="name" v="Bispeskallen" />
		<tag k="natural" v="shoal" />
		<tag k="place" v="locality" />
		<tag k="ssr:stedsnr" v="935086" />
	</node>
	<node lat="71.0023611291161" lon="28.53333262557698" id="-35470">
		<tag k="name" v="Torsbåen" />
		<tag k="natural" v="shoal" />
		<tag k="place" v="locality" />
		<tag k="ssr:stedsnr" v="935088" />
	</node>
	<node lat="71.01978334281645" lon="28.264071603673788" id="-35471">
		<tag k="name" v="Søndre Koløygrunnen" />
		<tag k="natural" v="shoal" />
		<tag k="place" v="locality" />
		<tag k="ssr:stedsnr" v="935141" />
	</node>
	<node lat="70.84660001672177" lon="28.350718754050803" id="-35476">
		<tag k="name" v="Rokvika" />
=======
	<node id="-914012" lat="71.099130569" lon="27.8078217018">
		<tag k="name" v="Mellomgrunnen" />
		<tag k="natural" v="shoal" />
		<tag k="place" v="locality" />
		<tag k="ssr:stedsnr" v="566464" />
	</node>
	<node id="-914011" lat="71.067977794" lon="27.7900994824">
		<tag k="name" v="Smørbringvika" />
		<tag k="natural" v="bay" />
		<tag k="ssr:stedsnr" v="566400" />
	</node>
	<node id="-914009" lat="70.6588305676" lon="27.882782733">
		<tag k="name" v="Botnneset" />
		<tag k="natural" v="cape" />
		<tag k="ssr:stedsnr" v="566301" />
	</node>
	<node id="-914008" lat="70.6494750122" lon="27.8364299661">
		<tag k="alt_name" v="Seivika, yt" />
		<tag k="fixme" v="multiple name tags, choose one and add the other to alt_name" />
		<tag k="name" v="Kvalvika;Ytre Seivika" />
		<tag k="natural" v="bay" />
		<tag k="ssr:stedsnr" v="566290" />
	</node>
	<node id="-914005" lat="70.4779694985" lon="30.901573023">
		<tag k="alt_name" v="Østhavet" />
		<tag k="name" v="Austhavet" />
		<tag k="place" v="sea" />
		<tag k="ssr:stedsnr" v="565913" />
	</node>
	<node id="-913996" lat="70.802663906" lon="27.8832272096">
		<tag k="name" v="Mollbukta" />
>>>>>>> e1d4bc35ff8a6074a6f2e91616a996b547c36f15
		<tag k="natural" v="bay" />
		<tag k="ssr:stedsnr" v="937245" />
	</node>
<<<<<<< HEAD
	<node lat="71.04453890474429" lon="27.837207809678112" id="-35478">
		<tag k="name" v="Hamnneset" />
		<tag k="natural" v="cape" />
		<tag k="ssr:stedsnr" v="20425" />
	</node>
	<node lat="71.01110556687841" lon="28.190466056375467" id="-35481">
		<tag k="alt_name" v="Bjørnvika" />
		<tag k="name" v="Bjørnevika" />
=======
	<node id="-913994" lat="70.7966389038" lon="27.9210744248">
		<tag k="alt_name:no" v="Værnes, in" />
		<tag k="name" v="Indre Værnes - Vierca" />
		<tag k="name:no" v="Indre Værnes" />
		<tag k="name:se" v="Vierca" />
		<tag k="natural" v="cape" />
		<tag k="ssr:stedsnr" v="396841" />
	</node>
	<node id="-913992" lat="70.7963861229" lon="27.7862689013">
		<tag k="name" v="Fjøsbukta" />
		<tag k="natural" v="bay" />
		<tag k="ssr:stedsnr" v="396830" />
	</node>
	<node id="-913987" lat="70.8925944636" lon="28.3769826546">
		<tag k="name" v="Hamna" />
>>>>>>> e1d4bc35ff8a6074a6f2e91616a996b547c36f15
		<tag k="natural" v="bay" />
		<tag k="ssr:stedsnr" v="20380" />
	</node>
<<<<<<< HEAD
	<node lat="70.79228890844792" lon="28.073702156652157" id="-35483">
		<tag k="alt_name" v="Hopsneset, yt" />
		<tag k="fixme" v="multiple name tags, choose one and add the other to alt_name" />
		<tag k="name" v="Hopsneset;Ytre Hopsneset" />
		<tag k="natural" v="cape" />
		<tag k="ssr:stedsnr" v="20885" />
	</node>
	<node lat="70.79954445736318" lon="28.077135476537084" id="-35484">
		<tag k="alt_name" v="Breidvika" />
		<tag k="name" v="Breivika" />
=======
	<node id="-913986" lat="70.8874027934" lon="28.4484159745">
		<tag k="name" v="Tyfjordstranda" />
		<tag k="natural" v="beach" />
		<tag k="place" v="locality" />
		<tag k="ssr:stedsnr" v="390033" />
	</node>
	<node id="-913979" lat="71.0414722293" lon="27.8913939164">
		<tag k="name" v="Elvevika" />
>>>>>>> e1d4bc35ff8a6074a6f2e91616a996b547c36f15
		<tag k="natural" v="bay" />
		<tag k="ssr:stedsnr" v="20891" />
	</node>
<<<<<<< HEAD
	<node lat="70.99005279709776" lon="28.284307688708324" id="-35485">
		<tag k="name" v="Jonbukta" />
=======
	<node id="-913977" lat="70.6666139094" lon="27.8561938512">
		<tag k="name" v="Skolebukta" />
>>>>>>> e1d4bc35ff8a6074a6f2e91616a996b547c36f15
		<tag k="natural" v="bay" />
		<tag k="ssr:stedsnr" v="20906" />
	</node>
<<<<<<< HEAD
	<node lat="70.92091945831962" lon="28.499674279164736" id="-35489">
		<tag k="name" v="Lillekeila - Uhca Sieidevuotna" />
		<tag k="name:no" v="Lillekeila" />
		<tag k="name:se" v="Uhca Sieidevuotna" />
=======
	<node id="-913972" lat="70.7967361228" lon="28.1211104753">
		<tag k="name" v="Ytterhopbukta" />
>>>>>>> e1d4bc35ff8a6074a6f2e91616a996b547c36f15
		<tag k="natural" v="bay" />
		<tag k="old_name:se" v="Sieidevuodna, ucca" />
		<tag k="ssr:stedsnr" v="20934" />
	</node>
<<<<<<< HEAD
	<node lat="71.0864305723191" lon="28.148879964314993" id="-35499">
		<tag k="name" v="Sandneset" />
		<tag k="natural" v="cape" />
		<tag k="ssr:stedsnr" v="25868" />
	</node>
	<node lat="71.1216639039901" lon="27.997949444480934" id="-35500">
		<tag k="name" v="Indre Kamøyskallen" />
=======
	<node id="-913971" lat="70.7054250183" lon="28.123054902">
		<tag k="fixme" v="consider seamark:type=rock or natural=shoal" />
		<tag k="name" v="Langfjordskjæret" />
		<tag k="place" v="islet" />
		<tag k="ssr:stedsnr" v="388634" />
	</node>
	<node id="-913970" lat="70.672841681" lon="27.9824660373">
		<tag k="name" v="Litlegrunnen" />
>>>>>>> e1d4bc35ff8a6074a6f2e91616a996b547c36f15
		<tag k="natural" v="shoal" />
		<tag k="place" v="locality" />
		<tag k="ssr:stedsnr" v="26440" />
	</node>
<<<<<<< HEAD
	<node lat="70.79981390743836" lon="27.899641084003772" id="-35504">
		<tag k="name" v="Lilleværen" />
=======
	<node id="-913965" lat="70.8263972395" lon="28.3498798805">
		<tag k="name" v="Dego - Deaigu" />
		<tag k="name:no" v="Dego" />
		<tag k="name:se" v="Deaigu" />
>>>>>>> e1d4bc35ff8a6074a6f2e91616a996b547c36f15
		<tag k="natural" v="cape" />
		<tag k="ssr:stedsnr" v="32852" />
	</node>
<<<<<<< HEAD
	<node lat="70.80539446157262" lon="28.004402191338702" id="-35506">
		<tag k="name" v="Torvholmen" />
		<tag k="place" v="islet" />
		<tag k="ssr:stedsnr" v="81882" />
	</node>
	<node lat="71.06649723205989" lon="28.008949450938758" id="-35507">
		<tag k="name" v="Futelvnakken" />
=======
	<node id="-913964" lat="70.8756361261" lon="28.4532631833">
		<tag k="name" v="Tyfjordneset" />
		<tag k="natural" v="cape" />
		<tag k="ssr:stedsnr" v="384919" />
	</node>
	<node id="-913963" lat="70.901069459" lon="28.4787020798">
		<tag k="alt_name" v="Keilanæringen, in" />
		<tag k="name" v="Indre Keilnæringen" />
>>>>>>> e1d4bc35ff8a6074a6f2e91616a996b547c36f15
		<tag k="natural" v="cape" />
		<tag k="ssr:stedsnr" v="80423" />
	</node>
<<<<<<< HEAD
	<node lat="70.74336390363156" lon="28.13089103276969" id="-35508">
		<tag k="name" v="Fjellodden" />
		<tag k="natural" v="cape" />
		<tag k="ssr:stedsnr" v="80299" />
	</node>
	<node lat="71.08280834729352" lon="28.133879978282383" id="-35509">
		<tag k="name" v="Veslevikneset" />
=======
	<node id="-913962" lat="70.9904611268" lon="28.5037881934">
		<tag k="name" v="Tarebukta" />
		<tag k="natural" v="bay" />
		<tag k="ssr:stedsnr" v="384900" />
	</node>
	<node id="-913961" lat="70.9896555677" lon="28.2815688196">
		<tag k="name" v="Jonbuktneset" />
>>>>>>> e1d4bc35ff8a6074a6f2e91616a996b547c36f15
		<tag k="natural" v="cape" />
		<tag k="ssr:stedsnr" v="80458" />
	</node>
<<<<<<< HEAD
	<node lat="70.96795278898313" lon="28.21346603348663" id="-35514">
		<tag k="name" v="Yttervalen" />
		<tag k="natural" v="bay" />
		<tag k="ssr:stedsnr" v="80829" />
	</node>
	<node lat="71.1073472366959" lon="28.123552202792236" id="-35520">
		<tag k="name" v="Haustleitet" />
		<tag k="natural" v="shoal" />
		<tag k="place" v="locality" />
		<tag k="ssr:stedsnr" v="81481" />
	</node>
	<node lat="70.8237777897035" lon="28.017935502987626" id="-35521">
		<tag k="name" v="Ivarsfjordbotn" />
=======
	<node id="-913960" lat="71.0442972377" lon="27.8552189118">
		<tag k="name" v="Vedvika" />
		<tag k="natural" v="bay" />
		<tag k="ssr:stedsnr" v="384440" />
	</node>
	<node id="-913950" lat="71.066702789" lon="27.7195189541">
		<tag k="fixme" v="consider seamark:type=rock or natural=shoal" />
		<tag k="name" v="Kobbskjæran" />
		<tag k="place" v="islet" />
		<tag k="ssr:stedsnr" v="383485" />
	</node>
	<node id="-913948" lat="71.0887277942" lon="27.9817299994">
		<tag k="alt_name" v="Kamøya, store;Store Kamøy" />
		<tag k="name" v="Store Kamøya" />
		<tag k="place" v="island" />
		<tag k="ssr:stedsnr" v="383467" />
	</node>
	<node id="-913946" lat="71.0953916784" lon="28.187288284">
		<tag k="alt_name" v="Varnesodden" />
		<tag k="name" v="Vardnesodden" />
		<tag k="natural" v="cape" />
		<tag k="ssr:stedsnr" v="383462" />
	</node>
	<node id="-913945" lat="71.0908916824" lon="28.1579355297">
		<tag k="alt_name" v="Mollvika" />
		<tag k="name" v="Molvika" />
>>>>>>> e1d4bc35ff8a6074a6f2e91616a996b547c36f15
		<tag k="natural" v="bay" />
		<tag k="ssr:stedsnr" v="81855" />
	</node>
<<<<<<< HEAD
	<node lat="70.80728057087418" lon="27.962988309602828" id="-35523">
		<tag k="name" v="Stappbukta" />
		<tag k="natural" v="bay" />
		<tag k="ssr:stedsnr" v="81877" />
	</node>
	<node lat="71.12047778569983" lon="27.68209950332987" id="-35524">
		<tag k="name" v="Skinnstakkvika" />
		<tag k="natural" v="bay" />
		<tag k="ssr:stedsnr" v="81510" />
	</node>
	<node lat="71.08849723797776" lon="28.041188320355186" id="-35527">
		<tag k="name" v="Selgrunnen" />
=======
	<node id="-913943" lat="70.7981000116" lon="27.8485605423">
		<tag k="name" v="Stenget" />
		<tag k="natural" v="cape" />
		<tag k="ssr:stedsnr" v="336857" />
	</node>
	<node id="-913939" lat="70.7957500152" lon="27.9550021773">
		<tag k="name" v="Telroren" />
		<tag k="natural" v="shoal" />
		<tag k="place" v="locality" />
		<tag k="ssr:stedsnr" v="336811" />
	</node>
	<node id="-913935" lat="71.1502639018" lon="28.1039522151">
		<tag k="name" v="Bispeskallen" />
>>>>>>> e1d4bc35ff8a6074a6f2e91616a996b547c36f15
		<tag k="natural" v="shoal" />
		<tag k="place" v="locality" />
		<tag k="ssr:stedsnr" v="85852" />
	</node>
<<<<<<< HEAD
	<node lat="71.05458056997207" lon="28.26252160262229" id="-35531">
		<tag k="name" v="Kovneset" />
=======
	<node id="-913934" lat="70.8253166803" lon="28.3261409903">
		<tag k="name" v="Notklubben" />
>>>>>>> e1d4bc35ff8a6074a6f2e91616a996b547c36f15
		<tag k="natural" v="cape" />
		<tag k="ssr:stedsnr" v="85747" />
	</node>
<<<<<<< HEAD
	<node lat="71.05829445809003" lon="28.24427161054956" id="-35532">
		<tag k="name" v="Kovkjosen" />
		<tag k="natural" v="bay" />
		<tag k="ssr:stedsnr" v="85756" />
	</node>
	<node lat="71.09207501388067" lon="28.157660534297676" id="-35533">
		<tag k="name" v="Storebjørkevika" />
		<tag k="natural" v="bay" />
		<tag k="ssr:stedsnr" v="85807" />
	</node>
	<node lat="71.03106390397646" lon="27.81773837545499" id="-35536">
		<tag k="name" v="Sørfjordvika" />
		<tag k="natural" v="bay" />
		<tag k="ssr:stedsnr" v="86118" />
	</node>
	<node lat="70.78726945678805" lon="27.824574424681217" id="-35543">
		<tag k="name" v="Larsenbua" />
		<tag k="natural" v="bay" />
		<tag k="ssr:stedsnr" v="93799" />
	</node>
	<node lat="70.7960500100582" lon="27.795379995985638" id="-35544">
=======
	<node id="-913927" lat="71.063630566" lon="27.9257383352">
		<tag k="name" v="Staurvikneset" />
		<tag k="natural" v="cape" />
		<tag k="ssr:stedsnr" v="328962" />
	</node>
	<node id="-913925" lat="71.0261833461" lon="28.2190077214">
		<tag k="fixme" v="consider seamark:type=rock or natural=shoal" />
		<tag k="name" v="Kobbvikskjæret" />
		<tag k="place" v="islet" />
		<tag k="ssr:stedsnr" v="328853" />
	</node>
	<node id="-913923" lat="70.792811128" lon="28.066185498">
>>>>>>> e1d4bc35ff8a6074a6f2e91616a996b547c36f15
		<tag k="fixme" v="consider seamark:type=rock or natural=shoal" />
		<tag k="name" v="Langnesskjæret" />
		<tag k="place" v="islet" />
		<tag k="ssr:stedsnr" v="93806" />
	</node>
<<<<<<< HEAD
	<node lat="71.08632808622275" lon="27.72026213328342" id="-35547">
		<tag k="name" v="Treborvika" />
=======
	<node id="-913922" lat="70.8012527916" lon="28.0840715969">
		<tag k="name" v="Lauritskroken" />
>>>>>>> e1d4bc35ff8a6074a6f2e91616a996b547c36f15
		<tag k="natural" v="bay" />
		<tag k="ssr:stedsnr" v="140443" />
	</node>
<<<<<<< HEAD
	<node lat="70.77185279659321" lon="27.86735774936481" id="-35549">
		<tag k="name" v="Kveitneset" />
=======
	<node id="-913919" lat="70.6832389063" lon="28.1412354446">
		<tag k="name" v="Storoffer" />
>>>>>>> e1d4bc35ff8a6074a6f2e91616a996b547c36f15
		<tag k="natural" v="cape" />
		<tag k="ssr:stedsnr" v="140482" />
	</node>
<<<<<<< HEAD
	<node lat="70.89864167894491" lon="28.4793242935979" id="-35553">
		<tag k="alt_name" v="Rokkevika" />
		<tag k="name" v="Rotvika" />
		<tag k="natural" v="bay" />
		<tag k="ssr:stedsnr" v="141903" />
	</node>
	<node lat="70.88412501710346" lon="28.372299315605673" id="-35555">
		<tag k="name" v="Skredneset" />
		<tag k="natural" v="cape" />
		<tag k="ssr:stedsnr" v="141924" />
	</node>
	<node lat="70.8864111289654" lon="28.428768754810573" id="-35556">
		<tag k="name" v="Vikanbruket" />
=======
	<node id="-913914" lat="70.8162277931" lon="28.0065160767">
		<tag k="name" v="Grunneset" />
		<tag k="natural" v="cape" />
		<tag k="ssr:stedsnr" v="328383" />
	</node>
	<node id="-913913" lat="70.6952555676" lon="28.0158993821">
		<tag k="name" v="Lamodden" />
		<tag k="natural" v="cape" />
		<tag k="ssr:stedsnr" v="328461" />
	</node>
	<node id="-913912" lat="71.0816666779" lon="28.3678910122">
		<tag k="name" v="Storegrunnen" />
		<tag k="natural" v="shoal" />
		<tag k="place" v="locality" />
		<tag k="ssr:stedsnr" v="328086" />
	</node>
	<node id="-913910" lat="70.8695666836" lon="28.4303020658">
		<tag k="name" v="Ytternæringen" />
>>>>>>> e1d4bc35ff8a6074a6f2e91616a996b547c36f15
		<tag k="natural" v="cape" />
		<tag k="ssr:stedsnr" v="141925" />
	</node>
<<<<<<< HEAD
	<node lat="70.72038335196665" lon="28.096452125669764" id="-35562">
		<tag k="alt_name" v="Holmbobukta" />
		<tag k="name" v="Holbobukta" />
=======
	<node id="-913897" lat="71.0701805664" lon="27.9817966773">
		<tag k="bay" v="fjord" />
		<tag k="name" v="Skittenfjorden" />
>>>>>>> e1d4bc35ff8a6074a6f2e91616a996b547c36f15
		<tag k="natural" v="bay" />
		<tag k="ssr:stedsnr" v="141313" />
	</node>
<<<<<<< HEAD
	<node lat="71.0835333446521" lon="28.246060507446064" id="-35566">
		<tag k="alt_name" v="Korset" />
		<tag k="name" v="Korsmerket" />
		<tag k="natural" v="cape" />
		<tag k="ssr:stedsnr" v="141474" />
	</node>
	<node lat="70.80050834759714" lon="27.887060529148457" id="-35572">
		<tag k="alt_name" v="Kobbevikneset, yt" />
		<tag k="fixme" v="multiple name tags, choose one and add the other to alt_name" />
		<tag k="name" v="Klubbodden;Ytre Kobbvikneset" />
=======
	<node id="-913896" lat="71.1007750123" lon="27.7400356293">
		<tag k="name" v="Elvekeila" />
		<tag k="natural" v="bay" />
		<tag k="ssr:stedsnr" v="323466" />
	</node>
	<node id="-913895" lat="71.0822500098" lon="27.9730911073">
		<tag k="name" v="Kamøynæringen - Rábutnjárga" />
		<tag k="name:no" v="Kamøynæringen" />
		<tag k="name:se" v="Rábutnjárga" />
>>>>>>> e1d4bc35ff8a6074a6f2e91616a996b547c36f15
		<tag k="natural" v="cape" />
		<tag k="ssr:stedsnr" v="141864" />
	</node>
<<<<<<< HEAD
	<node lat="70.79988334722037" lon="27.942024417455503" id="-35573">
		<tag k="alt_name" v="Flunes" />
		<tag k="name" v="Flueneset" />
		<tag k="natural" v="cape" />
		<tag k="ssr:stedsnr" v="141865" />
	</node>
	<node lat="70.8009333476189" lon="27.950377175747487" id="-35574">
		<tag k="name" v="Karibukta" />
=======
	<node id="-913894" lat="71.0919583493" lon="28.1998966357">
		<tag k="name" v="Stabbebukta" />
>>>>>>> e1d4bc35ff8a6074a6f2e91616a996b547c36f15
		<tag k="natural" v="bay" />
		<tag k="ssr:stedsnr" v="141866" />
	</node>
<<<<<<< HEAD
	<node lat="71.11889168138455" lon="27.749235611943966" id="-35577">
		<tag k="name" v="Magkeilspira" />
		<tag k="natural" v="shoal" />
		<tag k="place" v="locality" />
		<tag k="ssr:stedsnr" v="146986" />
	</node>
	<node lat="70.96328890282722" lon="28.19051049412524" id="-35580">
		<tag k="name" v="Koifjordbotn" />
=======
	<node id="-913890" lat="71.0698861197" lon="28.0823521974">
		<tag k="bay" v="fjord" />
		<tag k="name" v="Sandfjorden" />
>>>>>>> e1d4bc35ff8a6074a6f2e91616a996b547c36f15
		<tag k="natural" v="bay" />
		<tag k="ssr:stedsnr" v="146673" />
	</node>
<<<<<<< HEAD
	<node lat="70.79388890496358" lon="28.144968797674633" id="-35585">
		<tag k="name" v="Vargaklubben" />
		<tag k="natural" v="cape" />
		<tag k="ssr:stedsnr" v="147400" />
	</node>
	<node lat="70.79827501481205" lon="27.77626334542957" id="-35587">
		<tag k="name" v="Stranda" />
		<tag k="natural" v="beach" />
		<tag k="ssr:stedsnr" v="153880" />
	</node>
	<node lat="71.03495556898879" lon="27.82041615283687" id="-35589">
=======
	<node id="-913888" lat="71.0117139015" lon="28.2222077147">
		<tag k="name" v="Skalangen" />
		<tag k="place" v="islet" />
		<tag k="ssr:stedsnr" v="323378" />
	</node>
	<node id="-913887" lat="70.7800166803" lon="28.4504909478">
>>>>>>> e1d4bc35ff8a6074a6f2e91616a996b547c36f15
		<tag k="bay" v="fjord" />
		<tag k="name" v="Sørfjorden" />
		<tag k="natural" v="bay" />
		<tag k="ssr:stedsnr" v="202111" />
	</node>
<<<<<<< HEAD
	<node lat="70.71473612249939" lon="28.07684936775091" id="-35590">
		<tag k="name" v="Tingstadneset" />
=======
	<node id="-913886" lat="70.7141250184" lon="28.2663576391">
		<tag k="name" v="Digermulen - Johkangeahči" />
		<tag k="name:no" v="Digermulen" />
		<tag k="name:se" v="Johkangeahči" />
>>>>>>> e1d4bc35ff8a6074a6f2e91616a996b547c36f15
		<tag k="natural" v="cape" />
		<tag k="ssr:stedsnr" v="202297" />
	</node>
<<<<<<< HEAD
	<node lat="70.70178335214759" lon="28.044999368339006" id="-35591">
		<tag k="name" v="Ebukta - Hávdaluokta" />
		<tag k="name:no" v="Ebukta" />
		<tag k="name:se" v="Hávdaluokta" />
		<tag k="natural" v="bay" />
		<tag k="old_name:se" v="Haldeluokta;Háldeluokta" />
		<tag k="ssr:stedsnr" v="202300" />
	</node>
	<node lat="71.01698056477933" lon="28.2244882771768" id="-35595">
		<tag k="name" v="Skalangsflua" />
=======
	<node id="-913883" lat="70.6572861272" lon="27.8281077505">
		<tag k="name" v="Geassenjárga" />
		<tag k="name:se" v="Geassenjárga" />
		<tag k="natural" v="cape" />
		<tag k="old_name:se" v="Gæssenjarga" />
		<tag k="ssr:stedsnr" v="323120" />
	</node>
	<node id="-913881" lat="71.0370333516" lon="28.283243814">
		<tag k="name" v="Brattbakkgrunnan" />
>>>>>>> e1d4bc35ff8a6074a6f2e91616a996b547c36f15
		<tag k="natural" v="shoal" />
		<tag k="place" v="locality" />
		<tag k="ssr:stedsnr" v="202381" />
	</node>
<<<<<<< HEAD
	<node lat="71.07721112787416" lon="28.24997715724859" id="-35598">
		<tag k="name" v="Sandvikodden" />
		<tag k="natural" v="cape" />
		<tag k="ssr:stedsnr" v="202464" />
	</node>
	<node lat="71.0650916750228" lon="27.9336772284974" id="-35599">
		<tag k="alt_name" v="Staurvika, yt" />
		<tag k="name" v="Ytre Staurvika" />
=======
	<node id="-913880" lat="71.081352792" lon="28.283291062">
		<tag k="name" v="Djupkeilgrunnan" />
		<tag k="natural" v="shoal" />
		<tag k="place" v="locality" />
		<tag k="ssr:stedsnr" v="208210" />
	</node>
	<node id="-913876" lat="71.0471083427" lon="27.9011272513">
		<tag k="name" v="Gangelausvika" />
>>>>>>> e1d4bc35ff8a6074a6f2e91616a996b547c36f15
		<tag k="natural" v="bay" />
		<tag k="ssr:stedsnr" v="202465" />
	</node>
<<<<<<< HEAD
	<node lat="71.08532778619738" lon="28.14174664076103" id="-35600">
		<tag k="alt_name" v="Steinvåg" />
		<tag k="name" v="Steinvågen" />
=======
	<node id="-913875" lat="71.0901639012" lon="28.1499799657">
		<tag k="name" v="Indre Oldervika" />
>>>>>>> e1d4bc35ff8a6074a6f2e91616a996b547c36f15
		<tag k="natural" v="bay" />
		<tag k="ssr:stedsnr" v="202468" />
	</node>
<<<<<<< HEAD
	<node lat="71.05747501635662" lon="28.249685510140655" id="-35601">
		<tag k="name" v="Koven" />
=======
	<node id="-913874" lat="71.0903805712" lon="28.1541160746">
		<tag k="name" v="Ytre Oldervika" />
>>>>>>> e1d4bc35ff8a6074a6f2e91616a996b547c36f15
		<tag k="natural" v="bay" />
		<tag k="ssr:stedsnr" v="202409" />
	</node>
<<<<<<< HEAD
	<node lat="71.05944168163506" lon="27.80913836817695" id="-35605">
		<tag k="name" v="Seineset" />
=======
	<node id="-913871" lat="71.0588639011" lon="28.2558938257">
		<tag k="name" v="Beritbuktneset" />
>>>>>>> e1d4bc35ff8a6074a6f2e91616a996b547c36f15
		<tag k="natural" v="cape" />
		<tag k="ssr:stedsnr" v="202420" />
	</node>
<<<<<<< HEAD
	<node lat="71.03669445896746" lon="27.883702237844272" id="-35607">
		<tag k="name" v="Bjørkvika" />
		<tag k="natural" v="bay" />
		<tag k="ssr:stedsnr" v="202428" />
	</node>
	<node lat="71.052405566391" lon="28.258191057539243" id="-35608">
		<tag k="name" v="Kvalvika" />
		<tag k="natural" v="bay" />
		<tag k="ssr:stedsnr" v="202432" />
	</node>
	<node lat="70.79386390378346" lon="28.24701878199672" id="-35612">
=======
	<node id="-913869" lat="71.0365722358" lon="27.8344828073">
		<tag k="name" v="Valen" />
		<tag k="place" v="locality" />
		<tag k="ssr:stedsnr" v="207096" />
	</node>
	<node id="-913866" lat="70.7938639038" lon="28.247018782">
>>>>>>> e1d4bc35ff8a6074a6f2e91616a996b547c36f15
		<tag k="alt_name" v="Klubben" />
		<tag k="name" v="Brattberget" />
		<tag k="natural" v="cape" />
		<tag k="ssr:stedsnr" v="202950" />
	</node>
<<<<<<< HEAD
	<node lat="70.980625012024" lon="28.539802072008175" id="-35614">
=======
	<node id="-913865" lat="70.9098055749" lon="28.492649294">
		<tag k="alt_name" v="Keilanæringen, yt" />
		<tag k="name" v="Ytre Keilanæringen" />
		<tag k="natural" v="cape" />
		<tag k="ssr:stedsnr" v="202933" />
	</node>
	<node id="-913864" lat="70.980625012" lon="28.539802072">
>>>>>>> e1d4bc35ff8a6074a6f2e91616a996b547c36f15
		<tag k="name" v="Spirodden" />
		<tag k="natural" v="cape" />
		<tag k="ssr:stedsnr" v="202929" />
	</node>
<<<<<<< HEAD
	<node lat="70.90980557492269" lon="28.492649294042113" id="-35615">
		<tag k="alt_name" v="Keilanæringen, yt" />
		<tag k="name" v="Ytre Keilanæringen" />
=======
	<node id="-913863" lat="70.7741500137" lon="27.8153133116">
		<tag k="name" v="Saltsjøen" />
		<tag k="natural" v="bay" />
		<tag k="ssr:stedsnr" v="202904" />
	</node>
	<node id="-913858" lat="71.0853277862" lon="28.1417466408">
		<tag k="alt_name" v="Steinvåg" />
		<tag k="name" v="Steinvågen" />
		<tag k="natural" v="bay" />
		<tag k="ssr:stedsnr" v="202468" />
	</node>
	<node id="-913857" lat="71.065091675" lon="27.9336772285">
		<tag k="alt_name" v="Staurvika, yt" />
		<tag k="name" v="Ytre Staurvika" />
		<tag k="natural" v="bay" />
		<tag k="ssr:stedsnr" v="202465" />
	</node>
	<node id="-913856" lat="71.0772111279" lon="28.2499771572">
		<tag k="name" v="Sandvikodden" />
>>>>>>> e1d4bc35ff8a6074a6f2e91616a996b547c36f15
		<tag k="natural" v="cape" />
		<tag k="ssr:stedsnr" v="202933" />
	</node>
<<<<<<< HEAD
	<node lat="71.03657223584837" lon="27.83448280731858" id="-35617">
		<tag k="name" v="Valen" />
		<tag k="place" v="locality" />
		<tag k="ssr:stedsnr" v="207096" />
	</node>
	<node lat="71.08135279195209" lon="28.283291061958906" id="-35619">
		<tag k="name" v="Djupkeilgrunnan" />
=======
	<node id="-913853" lat="71.0910389022" lon="28.082146663">
		<tag k="name" v="Olagrunnen" />
>>>>>>> e1d4bc35ff8a6074a6f2e91616a996b547c36f15
		<tag k="natural" v="shoal" />
		<tag k="place" v="locality" />
		<tag k="ssr:stedsnr" v="208210" />
	</node>
<<<<<<< HEAD
	<node lat="71.03703335159362" lon="28.283243814024093" id="-35620">
		<tag k="name" v="Brattbakkgrunnan" />
		<tag k="natural" v="shoal" />
=======
	<node id="-913852" lat="71.0469416775" lon="28.0763105456">
		<tag k="name" v="Langstranda" />
		<tag k="natural" v="beach" />
>>>>>>> e1d4bc35ff8a6074a6f2e91616a996b547c36f15
		<tag k="place" v="locality" />
		<tag k="ssr:stedsnr" v="208218" />
	</node>
<<<<<<< HEAD
	<node lat="71.05886390105394" lon="28.255893825676218" id="-35621">
		<tag k="name" v="Beritbuktneset" />
		<tag k="natural" v="cape" />
		<tag k="ssr:stedsnr" v="207779" />
	</node>
	<node lat="71.09038057122726" lon="28.154116074587265" id="-35624">
		<tag k="name" v="Ytre Oldervika" />
=======
	<node id="-913851" lat="71.0524055664" lon="28.2581910575">
		<tag k="name" v="Kvalvika" />
		<tag k="natural" v="bay" />
		<tag k="ssr:stedsnr" v="202432" />
	</node>
	<node id="-913850" lat="71.036694459" lon="27.8837022378">
		<tag k="name" v="Bjørkvika" />
>>>>>>> e1d4bc35ff8a6074a6f2e91616a996b547c36f15
		<tag k="natural" v="bay" />
		<tag k="ssr:stedsnr" v="207836" />
	</node>
<<<<<<< HEAD
	<node lat="71.0901639011969" lon="28.1499799657271" id="-35625">
		<tag k="name" v="Indre Oldervika" />
		<tag k="natural" v="bay" />
		<tag k="ssr:stedsnr" v="207849" />
	</node>
	<node lat="71.04710834271147" lon="27.90112725133139" id="-35628">
		<tag k="name" v="Gangelausvika" />
=======
	<node id="-913848" lat="71.0594416816" lon="27.8091383682">
		<tag k="name" v="Seineset" />
		<tag k="natural" v="cape" />
		<tag k="ssr:stedsnr" v="202420" />
	</node>
	<node id="-913844" lat="71.0574750164" lon="28.2496855101">
		<tag k="name" v="Koven" />
>>>>>>> e1d4bc35ff8a6074a6f2e91616a996b547c36f15
		<tag k="natural" v="bay" />
		<tag k="ssr:stedsnr" v="207928" />
	</node>
<<<<<<< HEAD
	<node lat="70.79858612504272" lon="27.842152213420395" id="-35629">
		<tag k="name" v="Sandneset" />
		<tag k="natural" v="cape" />
		<tag k="ssr:stedsnr" v="208445" />
	</node>
	<node lat="70.6658277932492" lon="27.85526607775464" id="-35631">
		<tag k="name" v="Kavelneset" />
		<tag k="natural" v="cape" />
		<tag k="ssr:stedsnr" v="212242" />
	</node>
	<node lat="70.62418612592293" lon="27.632027241473082" id="-35635">
		<tag k="name" v="Kjosen" />
=======
	<node id="-913843" lat="71.0169805648" lon="28.2244882772">
		<tag k="name" v="Skalangsflua" />
		<tag k="natural" v="shoal" />
		<tag k="place" v="locality" />
		<tag k="ssr:stedsnr" v="202381" />
	</node>
	<node id="-913840" lat="70.7252611313" lon="28.1189104618">
		<tag k="name" v="Andersbukta" />
>>>>>>> e1d4bc35ff8a6074a6f2e91616a996b547c36f15
		<tag k="natural" v="bay" />
		<tag k="ssr:stedsnr" v="273655" />
	</node>
<<<<<<< HEAD
	<node lat="71.01171390149997" lon="28.222207714709743" id="-35637">
		<tag k="name" v="Skalangen" />
		<tag k="place" v="islet" />
		<tag k="ssr:stedsnr" v="323378" />
	</node>
	<node lat="71.06988611967355" lon="28.082352197448017" id="-35639">
		<tag k="bay" v="fjord" />
		<tag k="name" v="Sandfjorden" />
=======
	<node id="-913839" lat="70.7017833521" lon="28.0449993683">
		<tag k="name" v="Ebukta - Hávdaluokta" />
		<tag k="name:no" v="Ebukta" />
		<tag k="name:se" v="Hávdaluokta" />
>>>>>>> e1d4bc35ff8a6074a6f2e91616a996b547c36f15
		<tag k="natural" v="bay" />
		<tag k="ssr:stedsnr" v="323394" />
	</node>
<<<<<<< HEAD
	<node lat="70.65728612720461" lon="27.82810775048122" id="-35640">
		<tag k="name" v="Geassenjárga" />
		<tag k="name:se" v="Geassenjárga" />
=======
	<node id="-913838" lat="70.7147361225" lon="28.0768493678">
		<tag k="name" v="Tingstadneset" />
>>>>>>> e1d4bc35ff8a6074a6f2e91616a996b547c36f15
		<tag k="natural" v="cape" />
		<tag k="old_name:se" v="Gæssenjarga" />
		<tag k="ssr:stedsnr" v="323120" />
	</node>
<<<<<<< HEAD
	<node lat="70.71412501835098" lon="28.266357639130533" id="-35642">
		<tag k="name" v="Digermulen - Johkangeahči" />
		<tag k="name:no" v="Digermulen" />
		<tag k="name:se" v="Johkangeahči" />
		<tag k="natural" v="cape" />
		<tag k="old_name:se" v="Jåkkangæčči" />
		<tag k="ssr:stedsnr" v="323354" />
	</node>
	<node lat="70.78001668027397" lon="28.45049094779977" id="-35643">
		<tag k="bay" v="fjord" />
		<tag k="name" v="Tanafjorden - Deanuvuotna" />
		<tag k="name:no" v="Tanafjorden" />
		<tag k="name:se" v="Deanuvuotna" />
=======
	<node id="-913835" lat="70.6301055686" lon="27.8346633058">
		<tag k="alt_name" v="Honningsvika" />
		<tag k="name" v="Holmsvika" />
		<tag k="natural" v="bay" />
		<tag k="ssr:stedsnr" v="202268" />
	</node>
	<node id="-913834" lat="70.623377793" lon="27.6434966707">
		<tag k="name" v="Langfjordbotn" />
>>>>>>> e1d4bc35ff8a6074a6f2e91616a996b547c36f15
		<tag k="natural" v="bay" />
		<tag k="ssr:stedsnr" v="323368" />
	</node>
<<<<<<< HEAD
	<node lat="71.09195834931842" lon="28.19989663573912" id="-35648">
		<tag k="name" v="Stabbebukta" />
=======
	<node id="-913833" lat="71.034955569" lon="27.8204161528">
		<tag k="bay" v="fjord" />
		<tag k="name" v="Sørfjorden" />
>>>>>>> e1d4bc35ff8a6074a6f2e91616a996b547c36f15
		<tag k="natural" v="bay" />
		<tag k="ssr:stedsnr" v="323449" />
	</node>
<<<<<<< HEAD
	<node lat="71.0822500097538" lon="27.973091107254856" id="-35649">
		<tag k="name" v="Kamøynæringen - Rábutnjárga" />
		<tag k="name:no" v="Kamøynæringen" />
		<tag k="name:se" v="Rábutnjárga" />
		<tag k="natural" v="cape" />
		<tag k="ssr:stedsnr" v="323450" />
	</node>
	<node lat="71.10077501231345" lon="27.74003562931089" id="-35650">
		<tag k="name" v="Elvekeila" />
=======
	<node id="-913831" lat="70.7982750148" lon="27.7762633454">
		<tag k="name" v="Stranda" />
		<tag k="natural" v="beach" />
		<tag k="place" v="locality" />
		<tag k="ssr:stedsnr" v="153880" />
	</node>
	<node id="-913828" lat="70.6183277956" lon="27.6609772333">
		<tag k="name" v="Gottfeskbukta" />
>>>>>>> e1d4bc35ff8a6074a6f2e91616a996b547c36f15
		<tag k="natural" v="bay" />
		<tag k="ssr:stedsnr" v="323466" />
	</node>
<<<<<<< HEAD
	<node lat="71.08166667792797" lon="28.367891012227798" id="-35662">
		<tag k="name" v="Storegrunnen" />
=======
	<node id="-913826" lat="70.6526583468" lon="27.8869216145">
		<tag k="name" v="Steingrunnen" />
>>>>>>> e1d4bc35ff8a6074a6f2e91616a996b547c36f15
		<tag k="natural" v="shoal" />
		<tag k="place" v="locality" />
		<tag k="ssr:stedsnr" v="328086" />
	</node>
<<<<<<< HEAD
	<node lat="70.81622779310582" lon="28.006516076662088" id="-35664">
		<tag k="name" v="Grunneset" />
		<tag k="natural" v="cape" />
		<tag k="ssr:stedsnr" v="328383" />
	</node>
	<node lat="70.69525556764575" lon="28.015899382133384" id="-35666">
		<tag k="name" v="Lamodden" />
=======
	<node id="-913825" lat="70.6417722407" lon="27.8394049753">
		<tag k="name" v="Seivikgrunnen" />
		<tag k="natural" v="shoal" />
		<tag k="place" v="locality" />
		<tag k="ssr:stedsnr" v="147566" />
	</node>
	<node id="-913824" lat="70.793888905" lon="28.1449687977">
		<tag k="name" v="Vargaklubben" />
>>>>>>> e1d4bc35ff8a6074a6f2e91616a996b547c36f15
		<tag k="natural" v="cape" />
		<tag k="ssr:stedsnr" v="328461" />
	</node>
<<<<<<< HEAD
	<node lat="70.80125279163705" lon="28.084071596904057" id="-35668">
		<tag k="name" v="Lauritskroken" />
=======
	<node id="-913820" lat="71.1188916814" lon="27.7492356119">
		<tag k="name" v="Magkeilspira" />
		<tag k="natural" v="shoal" />
		<tag k="place" v="locality" />
		<tag k="ssr:stedsnr" v="146986" />
	</node>
	<node id="-913812" lat="70.9632889028" lon="28.1905104941">
		<tag k="name" v="Koifjordbotn" />
>>>>>>> e1d4bc35ff8a6074a6f2e91616a996b547c36f15
		<tag k="natural" v="bay" />
		<tag k="ssr:stedsnr" v="328680" />
	</node>
<<<<<<< HEAD
	<node lat="70.79281112795525" lon="28.066185498022932" id="-35669">
		<tag k="fixme" v="consider seamark:type=rock or natural=shoal" />
		<tag k="name" v="Skarvsteinen" />
		<tag k="place" v="islet" />
		<tag k="ssr:stedsnr" v="328686" />
	</node>
	<node lat="70.82531668026871" lon="28.32614099030291" id="-35675">
		<tag k="name" v="Notklubben" />
		<tag k="natural" v="cape" />
		<tag k="ssr:stedsnr" v="330398" />
	</node>
	<node lat="71.15026390177994" lon="28.10395221511988" id="-35676">
		<tag k="name" v="Bispeskallen" />
=======
	<node id="-913809" lat="70.886411129" lon="28.4287687548">
		<tag k="name" v="Vikanbruket" />
		<tag k="natural" v="cape" />
		<tag k="ssr:stedsnr" v="141925" />
	</node>
	<node id="-913808" lat="70.8841250171" lon="28.3722993156">
		<tag k="name" v="Skredneset" />
		<tag k="natural" v="cape" />
		<tag k="ssr:stedsnr" v="141924" />
	</node>
	<node id="-913806" lat="70.8986416789" lon="28.4793242936">
		<tag k="alt_name" v="Rokkevika" />
		<tag k="name" v="Rotvika" />
		<tag k="natural" v="bay" />
		<tag k="ssr:stedsnr" v="141903" />
	</node>
	<node id="-913805" lat="70.9670500179" lon="28.549499292">
		<tag k="name" v="Russevikbåan" />
>>>>>>> e1d4bc35ff8a6074a6f2e91616a996b547c36f15
		<tag k="natural" v="shoal" />
		<tag k="place" v="locality" />
		<tag k="ssr:stedsnr" v="331182" />
	</node>
<<<<<<< HEAD
	<node lat="70.61841667942431" lon="27.716196652815963" id="-35680">
		<tag k="fixme" v="consider seamark:type=rock or natural=shoal" />
		<tag k="name" v="Skarvskjæret" />
		<tag k="place" v="islet" />
		<tag k="ssr:stedsnr" v="334632" />
	</node>
	<node lat="70.6232916832078" lon="27.652282788063022" id="-35681">
		<tag k="name" v="Spikarneset" />
=======
	<node id="-913802" lat="70.8009333476" lon="27.9503771757">
		<tag k="name" v="Karibukta" />
		<tag k="natural" v="bay" />
		<tag k="ssr:stedsnr" v="141866" />
	</node>
	<node id="-913801" lat="70.7998833472" lon="27.9420244175">
		<tag k="alt_name" v="Flunes" />
		<tag k="name" v="Flueneset" />
>>>>>>> e1d4bc35ff8a6074a6f2e91616a996b547c36f15
		<tag k="natural" v="cape" />
		<tag k="ssr:stedsnr" v="334641" />
	</node>
<<<<<<< HEAD
	<node lat="71.08872779423628" lon="27.98172999937157" id="-35685">
		<tag k="alt_name" v="Kamøya, store;Store Kamøy" />
		<tag k="name" v="Store Kamøya" />
		<tag k="place" v="island" />
		<tag k="ssr:stedsnr" v="383467" />
	</node>
	<node lat="71.06670278904727" lon="27.71951895410295" id="-35687">
		<tag k="fixme" v="consider seamark:type=rock or natural=shoal" />
		<tag k="name" v="Kobbskjæran" />
		<tag k="place" v="islet" />
		<tag k="ssr:stedsnr" v="383485" />
	</node>
	<node lat="71.04429723772566" lon="27.855218911799362" id="-35698">
		<tag k="name" v="Vedvika" />
=======
	<node id="-913800" lat="70.8005083476" lon="27.8870605291">
		<tag k="alt_name" v="Kobbevikneset, yt" />
		<tag k="fixme" v="multiple name tags, choose one and add the other to alt_name" />
		<tag k="name" v="Klubbodden;Ytre Kobbvikneset" />
		<tag k="natural" v="cape" />
		<tag k="ssr:stedsnr" v="141864" />
	</node>
	<node id="-913794" lat="71.0835333447" lon="28.2460605074">
		<tag k="alt_name" v="Korset" />
		<tag k="name" v="Korsmerket" />
		<tag k="natural" v="cape" />
		<tag k="ssr:stedsnr" v="141474" />
	</node>
	<node id="-913790" lat="71.032036128" lon="28.1920299555">
		<tag k="bay" v="fjord" />
		<tag k="name" v="Gunnarsfjorden" />
>>>>>>> e1d4bc35ff8a6074a6f2e91616a996b547c36f15
		<tag k="natural" v="bay" />
		<tag k="ssr:stedsnr" v="384440" />
	</node>
<<<<<<< HEAD
	<node lat="70.8756361261203" lon="28.453263183255398" id="-35701">
		<tag k="name" v="Tyfjordneset" />
=======
	<node id="-913788" lat="71.0238305699" lon="28.2091355138">
		<tag k="alt_name" v="Kobbvikhalsen" />
		<tag k="name" v="Kobbneset" />
>>>>>>> e1d4bc35ff8a6074a6f2e91616a996b547c36f15
		<tag k="natural" v="cape" />
		<tag k="ssr:stedsnr" v="384919" />
	</node>
<<<<<<< HEAD
	<node lat="70.82639723948685" lon="28.34987988054591" id="-35702">
		<tag k="name" v="Dego - Deaigu" />
		<tag k="name:no" v="Dego" />
		<tag k="name:se" v="Deaigu" />
		<tag k="natural" v="cape" />
		<tag k="old_name:se" v="Dæigo" />
		<tag k="ssr:stedsnr" v="384923" />
	</node>
	<node lat="70.75428056937577" lon="27.760799447037176" id="-35709">
		<tag k="name" v="Henrikneset" />
=======
	<node id="-913786" lat="70.720383352" lon="28.0964521257">
		<tag k="alt_name" v="Holmbobukta" />
		<tag k="name" v="Holbobukta" />
		<tag k="natural" v="bay" />
		<tag k="ssr:stedsnr" v="141313" />
	</node>
	<node id="-913777" lat="70.7718527966" lon="27.8673577494">
		<tag k="name" v="Kveitneset" />
>>>>>>> e1d4bc35ff8a6074a6f2e91616a996b547c36f15
		<tag k="natural" v="cape" />
		<tag k="ssr:stedsnr" v="384877" />
	</node>
<<<<<<< HEAD
	<node lat="70.79235279031671" lon="28.183824359576462" id="-35710">
		<tag k="name" v="Kjeskelvika" />
		<tag k="natural" v="bay" />
		<tag k="ssr:stedsnr" v="384883" />
	</node>
	<node lat="70.782827793248" lon="27.76357724124997" id="-35711">
		<tag k="name" v="Store Skogfjordneset - Cagannjárga" />
		<tag k="name:no" v="Store Skogfjordneset" />
		<tag k="name:se" v="Cagannjárga" />
		<tag k="natural" v="cape" />
		<tag k="old_name:no" v="Skogfjordneset, store" />
		<tag k="old_name:se" v="Cagannjarga" />
		<tag k="ssr:stedsnr" v="384884" />
	</node>
	<node lat="70.99926668210973" lon="28.423449335012617" id="-35712">
		<tag k="alt_name" v="Breidvika" />
		<tag k="name" v="Breivika" />
=======
	<node id="-913775" lat="71.0862750061" lon="27.7199189588">
		<tag k="name" v="Trebårvika" />
		<tag k="natural" v="bay" />
		<tag k="ssr:stedsnr" v="140443" />
	</node>
	<node id="-913773" lat="70.7978055718" lon="27.9160049861">
		<tag k="name" v="Pelkeplassen" />
		<tag k="place" v="locality" />
		<tag k="ssr:stedsnr" v="93817" />
	</node>
	<node id="-913772" lat="70.7872694568" lon="27.8245744247">
		<tag k="name" v="Larsenbua" />
		<tag k="natural" v="bay" />
		<tag k="ssr:stedsnr" v="93799" />
	</node>
	<node id="-913767" lat="70.7147916806" lon="28.0690382415">
		<tag k="name" v="Bukta" />
>>>>>>> e1d4bc35ff8a6074a6f2e91616a996b547c36f15
		<tag k="natural" v="bay" />
		<tag k="ssr:stedsnr" v="384889" />
	</node>
<<<<<<< HEAD
	<node lat="70.70530912694007" lon="28.12153564899751" id="-35713">
		<tag k="fixme" v="consider seamark:type=rock or natural=shoal" />
		<tag k="name" v="Langfjordskjæret" />
=======
	<node id="-913760" lat="71.0692055711" lon="28.2491216233">
		<tag k="name" v="Kiholmen" />
>>>>>>> e1d4bc35ff8a6074a6f2e91616a996b547c36f15
		<tag k="place" v="islet" />
		<tag k="ssr:stedsnr" v="388634" />
	</node>
<<<<<<< HEAD
	<node lat="70.79673612277978" lon="28.12111047534758" id="-35714">
		<tag k="name" v="Ytterhopbukta" />
		<tag k="natural" v="bay" />
		<tag k="ssr:stedsnr" v="388637" />
	</node>
	<node lat="71.04147222927995" lon="27.89139391637408" id="-35721">
		<tag k="name" v="Elvevika" />
		<tag k="natural" v="bay" />
		<tag k="ssr:stedsnr" v="389031" />
	</node>
	<node lat="70.66661390942551" lon="27.856193851221377" id="-35722">
		<tag k="name" v="Skolebukta" />
=======
	<node id="-913755" lat="71.05458057" lon="28.2625216026">
		<tag k="name" v="Kovneset" />
		<tag k="natural" v="cape" />
		<tag k="ssr:stedsnr" v="85747" />
	</node>
	<node id="-913753" lat="70.7943944642" lon="28.1242688053">
		<tag k="name" v="Nesodden" />
		<tag k="natural" v="cape" />
		<tag k="ssr:stedsnr" v="85576" />
	</node>
	<node id="-913750" lat="70.6713944557" lon="27.9383466196">
		<tag k="name" v="Rasmusbukta" />
>>>>>>> e1d4bc35ff8a6074a6f2e91616a996b547c36f15
		<tag k="natural" v="bay" />
		<tag k="ssr:stedsnr" v="388984" />
	</node>
<<<<<<< HEAD
	<node lat="70.88740279338484" lon="28.4484159745025" id="-35724">
		<tag k="name" v="Tyfjordstranda" />
		<tag k="natural" v="beach" />
		<tag k="ssr:stedsnr" v="390033" />
	</node>
	<node lat="71.05638611868481" lon="27.914241128099118" id="-35728">
		<tag k="name" v="Skipsvikneset" />
		<tag k="natural" v="cape" />
		<tag k="ssr:stedsnr" v="389968" />
	</node>
	<node lat="70.80266390597018" lon="27.883227209583524" id="-35733">
		<tag k="name" v="Mollbukta" />
=======
	<node id="-913749" lat="70.8053944616" lon="28.0044021913">
		<tag k="name" v="Torvholmen" />
		<tag k="place" v="islet" />
		<tag k="ssr:stedsnr" v="81882" />
	</node>
	<node id="-913748" lat="70.8072805709" lon="27.9629883096">
		<tag k="name" v="Stappbukta" />
		<tag k="natural" v="bay" />
		<tag k="ssr:stedsnr" v="81877" />
	</node>
	<node id="-913746" lat="70.8237777897" lon="28.017935503">
		<tag k="name" v="Ivarsfjordbotn" />
>>>>>>> e1d4bc35ff8a6074a6f2e91616a996b547c36f15
		<tag k="natural" v="bay" />
		<tag k="ssr:stedsnr" v="396848" />
	</node>
<<<<<<< HEAD
	<node lat="71.08133612676278" lon="28.243413273698792" id="-35737">
		<tag k="name" v="Djupkeila" />
=======
	<node id="-913743" lat="71.1204777857" lon="27.6820995033">
		<tag k="name" v="Skinnstakkvika" />
>>>>>>> e1d4bc35ff8a6074a6f2e91616a996b547c36f15
		<tag k="natural" v="bay" />
		<tag k="ssr:stedsnr" v="444453" />
	</node>
<<<<<<< HEAD
	<node lat="71.09672778747998" lon="28.10887164665638" id="-35738">
		<tag k="name" v="Sandvikryggen" />
		<tag k="natural" v="shoal" />
		<tag k="place" v="locality" />
		<tag k="ssr:stedsnr" v="444417" />
	</node>
	<node lat="70.63058334641053" lon="27.762849409523152" id="-35741">
		<tag k="bay" v="fjord" />
		<tag k="name" v="Langfjorden - Lákkovuotna" />
		<tag k="name:no" v="Langfjorden" />
		<tag k="name:se" v="Lákkovuotna" />
=======
	<node id="-913742" lat="71.1073472367" lon="28.1235522028">
		<tag k="name" v="Haustleitet" />
		<tag k="natural" v="shoal" />
		<tag k="place" v="locality" />
		<tag k="ssr:stedsnr" v="81481" />
	</node>
	<node id="-913740" lat="71.056858349" lon="27.9774883291">
		<tag k="alt_name" v="Austerbotnen;Østerbotn" />
		<tag k="name" v="Austerbotn" />
		<tag k="natural" v="bay" />
		<tag k="ssr:stedsnr" v="81439" />
	</node>
	<node id="-913738" lat="70.7282639025" lon="28.1276771335">
		<tag k="name" v="Loddebukta" />
		<tag k="natural" v="bay" />
		<tag k="ssr:stedsnr" v="81325" />
	</node>
	<node id="-913732" lat="70.967952789" lon="28.2134660335">
		<tag k="name" v="Yttervalen" />
>>>>>>> e1d4bc35ff8a6074a6f2e91616a996b547c36f15
		<tag k="natural" v="bay" />
		<tag k="old_name:se" v="Lagguvuodna" />
		<tag k="ssr:stedsnr" v="445112" />
	</node>
<<<<<<< HEAD
	<node lat="71.0653694551045" lon="28.26192714587871" id="-35745">
		<tag k="name" v="Flintodden" />
=======
	<node id="-913729" lat="71.0828083473" lon="28.1338799783">
		<tag k="name" v="Veslevikneset" />
>>>>>>> e1d4bc35ff8a6074a6f2e91616a996b547c36f15
		<tag k="natural" v="cape" />
		<tag k="ssr:stedsnr" v="445443" />
	</node>
<<<<<<< HEAD
	<node lat="71.04500834518355" lon="28.25049939251426" id="-35746">
		<tag k="name" v="Tverrvikneset" />
=======
	<node id="-913727" lat="70.7433639036" lon="28.1308910328">
		<tag k="name" v="Fjellodden" />
>>>>>>> e1d4bc35ff8a6074a6f2e91616a996b547c36f15
		<tag k="natural" v="cape" />
		<tag k="ssr:stedsnr" v="445450" />
	</node>
<<<<<<< HEAD
	<node lat="71.0452194549528" lon="27.79757170421958" id="-35747">
		<tag k="bay" v="fjord" />
		<tag k="name" v="Steinfjorden" />
		<tag k="natural" v="bay" />
		<tag k="ssr:stedsnr" v="445456" />
	</node>
	<node lat="71.11418889615575" lon="27.736474503807756" id="-35749">
		<tag k="name" v="Magneset" />
=======
	<node id="-913725" lat="70.7998139074" lon="27.899641084">
		<tag k="name" v="Lilleværen" />
		<tag k="natural" v="cape" />
		<tag k="ssr:stedsnr" v="32852" />
	</node>
	<node id="-913724" lat="70.6229527903" lon="27.6332855518">
		<tag k="name" v="Larsgammneset" />
>>>>>>> e1d4bc35ff8a6074a6f2e91616a996b547c36f15
		<tag k="natural" v="cape" />
		<tag k="ssr:stedsnr" v="445469" />
	</node>
<<<<<<< HEAD
	<node lat="71.12810834011754" lon="27.660216193402533" id="-35750">
		<tag k="name" v="Kinnaroddvika" />
=======
	<node id="-913721" lat="70.7134972375" lon="28.0800660374">
		<tag k="name" v="Stoffalbukta" />
>>>>>>> e1d4bc35ff8a6074a6f2e91616a996b547c36f15
		<tag k="natural" v="bay" />
		<tag k="ssr:stedsnr" v="445511" />
	</node>
<<<<<<< HEAD
	<node lat="70.75712779018943" lon="27.905729962536874" id="-35758">
		<tag k="name" v="Fálesnjárga" />
		<tag k="name:se" v="Fálesnjárga" />
		<tag k="natural" v="cape" />
		<tag k="old_name:se" v="Falesnjarga;Falesnjárga" />
		<tag k="ssr:stedsnr" v="445915" />
	</node>
	<node lat="70.79465279146999" lon="28.102879931551374" id="-35761">
		<tag k="name" v="Ramnbergbukta" />
		<tag k="natural" v="bay" />
		<tag k="ssr:stedsnr" v="510723" />
	</node>
	<node lat="70.66680279368146" lon="27.888032748601926" id="-35763">
=======
	<node id="-913720" lat="71.121663904" lon="27.9979494445">
		<tag k="name" v="Indre Kamøyskallen" />
		<tag k="natural" v="shoal" />
		<tag k="place" v="locality" />
		<tag k="ssr:stedsnr" v="26440" />
	</node>
	<node id="-913718" lat="70.8187111261" lon="28.2939521026">
		<tag k="name" v="Vrakbukta" />
		<tag k="natural" v="bay" />
		<tag k="ssr:stedsnr" v="26385" />
	</node>
	<node id="-913717" lat="71.0834111256" lon="28.1290160756">
		<tag k="name" v="Steinvåglandet" />
		<tag k="place" v="locality" />
		<tag k="ssr:stedsnr" v="25874" />
	</node>
	<node id="-913716" lat="71.0864305723" lon="28.1488799643">
>>>>>>> e1d4bc35ff8a6074a6f2e91616a996b547c36f15
		<tag k="name" v="Sandneset" />
		<tag k="natural" v="cape" />
		<tag k="ssr:stedsnr" v="505283" />
	</node>
<<<<<<< HEAD
	<node lat="70.71226668590634" lon="28.08064936373978" id="-35765">
		<tag k="alt_name" v="Stoffalodden" />
		<tag k="name" v="Stoffelodden" />
=======
	<node id="-913712" lat="70.7962750192" lon="28.0738299333">
		<tag k="name" v="Småoddan" />
>>>>>>> e1d4bc35ff8a6074a6f2e91616a996b547c36f15
		<tag k="natural" v="cape" />
		<tag k="ssr:stedsnr" v="505301" />
	</node>
<<<<<<< HEAD
	<node lat="71.01993334748465" lon="28.207982733352225" id="-35767">
		<tag k="fixme" v="consider seamark:type=rock or natural=shoal" />
		<tag k="name" v="Hundan" />
		<tag k="place" v="islet" />
		<tag k="ssr:stedsnr" v="505386" />
	</node>
	<node lat="71.06778890074006" lon="28.110496642391254" id="-35770">
		<tag k="name" v="Tarevika" />
=======
	<node id="-913709" lat="71.0403305683" lon="27.8796050117">
		<tag k="bay" v="fjord" />
		<tag k="name" v="Nordmannsetfjorden" />
>>>>>>> e1d4bc35ff8a6074a6f2e91616a996b547c36f15
		<tag k="natural" v="bay" />
		<tag k="ssr:stedsnr" v="505422" />
	</node>
<<<<<<< HEAD
	<node lat="71.06022778887449" lon="27.689660630394762" id="-35771">
		<tag k="name" v="Vesterbotnen" />
=======
	<node id="-913707" lat="70.7995444574" lon="28.0771354765">
		<tag k="alt_name" v="Breidvika" />
		<tag k="name" v="Breivika" />
>>>>>>> e1d4bc35ff8a6074a6f2e91616a996b547c36f15
		<tag k="natural" v="bay" />
		<tag k="ssr:stedsnr" v="505427" />
	</node>
<<<<<<< HEAD
	<node lat="71.04988612381645" lon="27.863938364916873" id="-35775">
		<tag k="name" v="Vedvikneset" />
=======
	<node id="-913706" lat="70.7922889084" lon="28.0737021567">
		<tag k="alt_name" v="Hopsneset, yt" />
		<tag k="fixme" v="multiple name tags, choose one and add the other to alt_name" />
		<tag k="name" v="Hopsneset;Ytre Hopsneset" />
>>>>>>> e1d4bc35ff8a6074a6f2e91616a996b547c36f15
		<tag k="natural" v="cape" />
		<tag k="ssr:stedsnr" v="505442" />
	</node>
<<<<<<< HEAD
	<node lat="71.10620278663853" lon="27.740588394175052" id="-35776">
		<tag k="name" v="Magkeilvika" />
=======
	<node id="-913700" lat="70.8851055751" lon="28.4024437537">
		<tag k="bay" v="fjord" />
		<tag k="name" v="Tyfjorden - Dáigevuotna" />
		<tag k="name:no" v="Tyfjorden" />
		<tag k="name:se" v="Dáigevuotna" />
>>>>>>> e1d4bc35ff8a6074a6f2e91616a996b547c36f15
		<tag k="natural" v="bay" />
		<tag k="ssr:stedsnr" v="505456" />
	</node>
<<<<<<< HEAD
	<node lat="71.0919166764066" lon="27.839166159556232" id="-35777">
		<tag k="name" v="Smørbringgrunnen" />
		<tag k="natural" v="shoal" />
		<tag k="place" v="locality" />
		<tag k="ssr:stedsnr" v="505464" />
	</node>
	<node lat="70.99473056851171" lon="28.181991044720828" id="-35778">
		<tag k="bay" v="fjord" />
		<tag k="name" v="Risfjorden" />
=======
	<node id="-913699" lat="70.9209194583" lon="28.4996742792">
		<tag k="name" v="Lillekeila - Uhca Sieidevuotna" />
		<tag k="name:no" v="Lillekeila" />
		<tag k="name:se" v="Uhca Sieidevuotna" />
		<tag k="natural" v="bay" />
		<tag k="old_name:se" v="Sieidevuodna, ucca" />
		<tag k="ssr:stedsnr" v="20934" />
	</node>
	<node id="-913695" lat="70.9900527971" lon="28.2843076887">
		<tag k="name" v="Jonbukta" />
>>>>>>> e1d4bc35ff8a6074a6f2e91616a996b547c36f15
		<tag k="natural" v="bay" />
		<tag k="ssr:stedsnr" v="505519" />
	</node>
<<<<<<< HEAD
	<node lat="70.79916112606492" lon="27.810054991850972" id="-35783">
		<tag k="alt_name" v="Torvneset" />
		<tag k="name" v="Torvnesa" />
		<tag k="natural" v="cape" />
		<tag k="ssr:stedsnr" v="505855" />
	</node>
	<node lat="70.81018057105096" lon="28.29185211381595" id="-35786">
		<tag k="name" v="Svensvika" />
=======
	<node id="-913694" lat="71.0721389025" lon="27.8021856138">
		<tag k="name" v="Smørbringnæringen" />
		<tag k="natural" v="cape" />
		<tag k="ssr:stedsnr" v="20448" />
	</node>
	<node id="-913693" lat="71.0720722395" lon="28.265832711">
		<tag k="name" v="Kjeholmen" />
		<tag k="place" v="islet" />
		<tag k="ssr:stedsnr" v="20447" />
	</node>
	<node id="-913692" lat="71.0791444604" lon="28.1311521951">
		<tag k="name" v="Veslevika" />
>>>>>>> e1d4bc35ff8a6074a6f2e91616a996b547c36f15
		<tag k="natural" v="bay" />
		<tag k="ssr:stedsnr" v="505925" />
	</node>
<<<<<<< HEAD
	<node lat="70.81333890614663" lon="28.23951877531962" id="-35787">
		<tag k="name" v="Vuohppenjárga" />
		<tag k="name:se" v="Vuohppenjárga" />
=======
	<node id="-913690" lat="71.0445389047" lon="27.8372078097">
		<tag k="name" v="Hamnneset" />
>>>>>>> e1d4bc35ff8a6074a6f2e91616a996b547c36f15
		<tag k="natural" v="cape" />
		<tag k="old_name:se" v="Vuoppenjarga" />
		<tag k="ssr:stedsnr" v="505931" />
	</node>
<<<<<<< HEAD
	<node lat="70.99698890485473" lon="28.44698544275631" id="-35788">
		<tag k="name" v="Klubbvika" />
=======
	<node id="-913688" lat="71.0609805719" lon="28.1021049767">
		<tag k="alt_name" v="Daudingsvika" />
		<tag k="name" v="Daudmannsvikan" />
>>>>>>> e1d4bc35ff8a6074a6f2e91616a996b547c36f15
		<tag k="natural" v="bay" />
		<tag k="ssr:stedsnr" v="505883" />
	</node>
<<<<<<< HEAD
	<node lat="71.0027333508884" lon="28.37618267718855" id="-35789">
		<tag k="name" v="Lille-Omgang" />
		<tag k="natural" v="cape" />
		<tag k="ssr:stedsnr" v="505885" />
	</node>
	<node lat="70.67281668251805" lon="27.915888287809363" id="-35790">
		<tag k="name" v="Litlebukta" />
=======
	<node id="-913687" lat="71.0822583448" lon="28.0623355373">
		<tag k="name" v="Bispevika" />
>>>>>>> e1d4bc35ff8a6074a6f2e91616a996b547c36f15
		<tag k="natural" v="bay" />
		<tag k="ssr:stedsnr" v="509463" />
	</node>
<<<<<<< HEAD
	<node lat="71.01986112027528" lon="28.20789661648461" id="-35793">
		<tag k="name" v="Kobbvikholman" />
		<tag k="place" v="islet" />
		<tag k="ssr:stedsnr" v="510146" />
	</node>
	<node lat="70.79480279733122" lon="28.119838247657754" id="-35794">
		<tag k="name" v="Neset" />
=======
	<node id="-913686" lat="71.0279916828" lon="28.2016327308">
		<tag k="name" v="Gunnarsfjordneset" />
>>>>>>> e1d4bc35ff8a6074a6f2e91616a996b547c36f15
		<tag k="natural" v="cape" />
		<tag k="ssr:stedsnr" v="510674" />
	</node>
<<<<<<< HEAD
	<node lat="71.14758334098052" lon="27.693210638335444" id="-35800">
		<tag k="name" v="Oddegrunnan" />
		<tag k="natural" v="shoal" />
		<tag k="place" v="locality" />
		<tag k="ssr:stedsnr" v="511627" />
	</node>
	<node lat="71.1334972340189" lon="27.656274527123927" id="-35801">
		<tag k="name" v="Avløysa" />
		<tag k="place" v="island" />
		<tag k="ssr:stedsnr" v="511491" />
	</node>
	<node lat="70.64440557030211" lon="27.85911607585828" id="-35804">
		<tag k="name" v="Sommargrunnen" />
		<tag k="natural" v="shoal" />
		<tag k="place" v="locality" />
		<tag k="ssr:stedsnr" v="512635" />
	</node>
	<node lat="70.62381946274579" lon="27.650113332268592" id="-35806">
		<tag k="name" v="Spikarnesbukta" />
		<tag k="natural" v="bay" />
		<tag k="ssr:stedsnr" v="515666" />
	</node>
	<node lat="70.79806390672097" lon="27.73408000584373" id="-35808">
		<tag k="fixme" v="consider seamark:type=rock or natural=shoal" />
		<tag k="name" v="Storstein" />
		<tag k="place" v="islet" />
		<tag k="ssr:stedsnr" v="517541" />
	</node>
	<node lat="71.09576390203756" lon="28.058941105554528" id="-35811">
		<tag k="alt_name" v="Bispegrunnen, yt" />
		<tag k="name" v="Ytre Bispegrunnen" />
		<tag k="natural" v="shoal" />
		<tag k="place" v="locality" />
		<tag k="ssr:stedsnr" v="565418" />
	</node>
	<node lat="70.64947501222808" lon="27.836429966147303" id="-35819">
		<tag k="alt_name" v="Seivika, yt" />
		<tag k="fixme" v="multiple name tags, choose one and add the other to alt_name" />
		<tag k="name" v="Kvalvika;Ytre Seivika" />
=======
	<node id="-913683" lat="71.0111055669" lon="28.1904660564">
		<tag k="alt_name" v="Bjørnvika" />
		<tag k="name" v="Bjørnevika" />
		<tag k="natural" v="bay" />
		<tag k="ssr:stedsnr" v="20380" />
	</node>
	<node id="-913681" lat="70.6900055708" lon="27.9994327178">
		<tag k="alt_name" v="Langfjorden, l;Litle Langfjorden" />
		<tag k="bay" v="fjord" />
		<tag k="name" v="Lille Langfjorden" />
		<tag k="natural" v="bay" />
		<tag k="ssr:stedsnr" v="20288" />
	</node>
	<node id="-913680" lat="70.6627611242" lon="27.8780299451">
		<tag k="alt_name" v="Liggarvika" />
		<tag k="name" v="Liggervika" />
		<tag k="natural" v="bay" />
		<tag k="ssr:stedsnr" v="20281" />
	</node>
	<node id="-913679" lat="70.6332805765" lon="27.8628882815">
		<tag k="name" v="Kvitneset" />
		<tag k="natural" v="cape" />
		<tag k="ssr:stedsnr" v="20276" />
	</node>
	<node id="-913678" lat="70.6271555712" lon="27.6843105488">
		<tag k="alt_name" v="Kobbelvneset, in" />
		<tag k="fixme" v="multiple name tags, choose one and add the other to alt_name" />
		<tag k="name" v="Kobbelvneset;Indre Kobbelvneset" />
		<tag k="natural" v="cape" />
		<tag k="ssr:stedsnr" v="20274" />
	</node>
	<node id="-913677" lat="70.6313305708" lon="27.7329077607">
		<tag k="name" v="Bergneset" />
		<tag k="natural" v="cape" />
		<tag k="ssr:stedsnr" v="20271" />
	</node>
	<node id="-913675" lat="70.8466000167" lon="28.3507187541">
		<tag k="name" v="Rokvika" />
>>>>>>> e1d4bc35ff8a6074a6f2e91616a996b547c36f15
		<tag k="natural" v="bay" />
		<tag k="ssr:stedsnr" v="566290" />
	</node>
<<<<<<< HEAD
	<node lat="70.65883056761464" lon="27.882782732994" id="-35820">
		<tag k="name" v="Botnneset" />
=======
	<node id="-913671" lat="70.8031222372" lon="28.1059632557">
		<tag k="name" v="Skoleneset" />
>>>>>>> e1d4bc35ff8a6074a6f2e91616a996b547c36f15
		<tag k="natural" v="cape" />
		<tag k="ssr:stedsnr" v="566301" />
	</node>
<<<<<<< HEAD
	<node lat="71.06797779403477" lon="27.790099482383322" id="-35822">
		<tag k="name" v="Smørbringvika" />
		<tag k="natural" v="bay" />
		<tag k="ssr:stedsnr" v="566400" />
	</node>
	<node lat="71.04455278770618" lon="27.807818927086576" id="-35823">
		<tag k="alt_name" v="Steinfjordnes" />
		<tag k="name" v="Steinfjordneset" />
=======
	<node id="-913667" lat="70.91496946" lon="28.5059409625">
		<tag k="name" v="Bruneset - Rovvenjárga" />
		<tag k="name:no" v="Bruneset" />
		<tag k="name:se" v="Rovvenjárga" />
		<tag k="natural" v="cape" />
		<tag k="old_name:se" v="Råvvenjarga" />
		<tag k="ssr:stedsnr" v="930912" />
	</node>
	<node id="-913666" lat="70.9439805733" lon="28.362138211">
		<tag k="name" v="Vuokkanjárga" />
		<tag k="name:se" v="Vuokkanjárga" />
>>>>>>> e1d4bc35ff8a6074a6f2e91616a996b547c36f15
		<tag k="natural" v="cape" />
		<tag k="ssr:stedsnr" v="566439" />
	</node>
<<<<<<< HEAD
	<node lat="71.04703890063885" lon="28.250563257218147" id="-35824">
		<tag k="name" v="Tverrvika" />
		<tag k="natural" v="bay" />
		<tag k="ssr:stedsnr" v="566440" />
	</node>
	<node lat="70.81049724091119" lon="28.005343843605413" id="-35825">
		<tag k="name" v="Sandholmen" />
		<tag k="place" v="islet" />
		<tag k="ssr:stedsnr" v="566892" />
	</node>
	<node lat="70.99554723935108" lon="28.460157651687183" id="-35826">
		<tag k="name" v="Kråkvika" />
=======
	<node id="-913664" lat="70.7578000167" lon="28.054485492">
		<tag k="name" v="Sandneset" />
		<tag k="natural" v="cape" />
		<tag k="ssr:stedsnr" v="930529" />
	</node>
	<node id="-913660" lat="70.7927250138" lon="27.8629049759">
		<tag k="name" v="Hardberggrunnen" />
		<tag k="natural" v="shoal" />
		<tag k="place" v="locality" />
		<tag k="ssr:stedsnr" v="876453" />
	</node>
	<node id="-913654" lat="70.8059639024" lon="28.093760477">
		<tag k="name" v="Bukta" />
>>>>>>> e1d4bc35ff8a6074a6f2e91616a996b547c36f15
		<tag k="natural" v="bay" />
		<tag k="ssr:stedsnr" v="566912" />
	</node>
<<<<<<< HEAD
	<node lat="70.98852501732298" lon="28.521549290878635" id="-35828">
		<tag k="name" v="Omgangsneset" />
=======
	<node id="-913649" lat="71.032491674" lon="27.8248967014">
		<tag k="alt_name" v="Sørfjordnes" />
		<tag k="name" v="Sørfjordneset" />
>>>>>>> e1d4bc35ff8a6074a6f2e91616a996b547c36f15
		<tag k="natural" v="cape" />
		<tag k="ssr:stedsnr" v="566920" />
	</node>
<<<<<<< HEAD
	<node lat="70.8924555698587" lon="28.35666320234316" id="-35831">
		<tag k="name" v="Straumbukta" />
		<tag k="natural" v="bay" />
		<tag k="ssr:stedsnr" v="566929" />
	</node>
	<node lat="70.95451390443202" lon="28.52924929378614" id="-35832">
		<tag k="name" v="Avløysingsbukta" />
		<tag k="natural" v="bay" />
		<tag k="ssr:stedsnr" v="566931" />
	</node>
	<node lat="70.79366112570439" lon="28.117249373713793" id="-35833">
		<tag k="alt_name" v="Vargava" />
		<tag k="name" v="Varga" />
=======
	<node id="-913646" lat="70.9966111243" lon="28.4534909773">
		<tag k="name" v="Finngamman" />
		<tag k="natural" v="cape" />
		<tag k="ssr:stedsnr" v="870905" />
	</node>
	<node id="-913642" lat="71.1022416764" lon="28.0105466702">
		<tag k="name" v="Langstrandgrunnen" />
		<tag k="natural" v="shoal" />
		<tag k="place" v="locality" />
		<tag k="ssr:stedsnr" v="870465" />
	</node>
	<node id="-913641" lat="71.110672233" lon="27.7495300462">
		<tag k="name" v="Magkeilspira" />
>>>>>>> e1d4bc35ff8a6074a6f2e91616a996b547c36f15
		<tag k="natural" v="cape" />
		<tag k="ssr:stedsnr" v="570597" />
	</node>
<<<<<<< HEAD
	<node lat="70.79295557102103" lon="28.076388273336786" id="-35837">
		<tag k="name" v="Torvbuktklubben" />
=======
	<node id="-913638" lat="70.6650444589" lon="28.0456549275">
		<tag k="name" v="Kisteneset - Gistonjárga" />
		<tag k="name:no" v="Kisteneset" />
		<tag k="name:se" v="Gistonjárga" />
>>>>>>> e1d4bc35ff8a6074a6f2e91616a996b547c36f15
		<tag k="natural" v="cape" />
		<tag k="ssr:stedsnr" v="570646" />
	</node>
<<<<<<< HEAD
	<node lat="71.08620834609319" lon="28.145991090530472" id="-35840">
		<tag k="name" v="Steinvågholmen" />
		<tag k="place" v="islet" />
		<tag k="ssr:stedsnr" v="571866" />
	</node>
	<node lat="71.06219445798851" lon="28.24931883011239" id="-35842">
		<tag k="name" v="Gamvikbukta" />
=======
	<node id="-913637" lat="70.841136129" lon="28.2173521223">
		<tag k="bay" v="fjord" />
		<tag k="name" v="Rafjorden - Rávjavuotna" />
		<tag k="name:no" v="Rafjorden" />
		<tag k="name:se" v="Rávjavuotna" />
>>>>>>> e1d4bc35ff8a6074a6f2e91616a996b547c36f15
		<tag k="natural" v="bay" />
		<tag k="ssr:stedsnr" v="571663" />
	</node>
<<<<<<< HEAD
	<node lat="70.87832223945212" lon="28.429260411785876" id="-35847">
		<tag k="name" v="Oterstranda" />
		<tag k="natural" v="beach" />
		<tag k="ssr:stedsnr" v="572045" />
	</node>
	<node lat="71.15051945754354" lon="27.685732845970833" id="-35849">
		<tag k="name" v="Ytre Oddegrunnen" />
=======
	<node id="-913630" lat="71.1421694565" lon="27.6716356298">
		<tag k="alt_name" v="Oddegrunnen, øvre" />
		<tag k="name" v="Øvre Oddegrunnen" />
>>>>>>> e1d4bc35ff8a6074a6f2e91616a996b547c36f15
		<tag k="natural" v="shoal" />
		<tag k="old_name" v="Oddegrunnen, ytre" />
		<tag k="place" v="locality" />
		<tag k="ssr:stedsnr" v="573170" />
	</node>
<<<<<<< HEAD
	<node lat="70.61780556874905" lon="27.70904942398986" id="-35852">
		<tag k="fixme" v="consider seamark:type=rock or natural=shoal" />
		<tag k="name" v="Storstein" />
		<tag k="place" v="islet" />
		<tag k="ssr:stedsnr" v="576664" />
	</node>
	<node lat="70.7731583446329" lon="27.90613552569072" id="-35854">
		<tag k="name" v="Sandneset" />
		<tag k="natural" v="cape" />
		<tag k="ssr:stedsnr" v="626541" />
	</node>
	<node lat="70.74688613021502" lon="28.015432713217983" id="-35855">
		<tag k="alt_name:no" v="Skogfjorden, l;Litle Skogfjorden" />
		<tag k="bay" v="fjord" />
		<tag k="name" v="Lille Skogfjorden - Guolmmesvuotna" />
		<tag k="name:no" v="Lille Skogfjorden" />
		<tag k="name:se" v="Guolmmesvuotna" />
=======
	<node id="-913626" lat="71.0590361215" lon="27.8137883803">
		<tag k="name" v="Seineset" />
		<tag k="natural" v="cape" />
		<tag k="ssr:stedsnr" v="935969" />
	</node>
	<node id="-913621" lat="71.0867416801" lon="28.1503299665">
		<tag k="name" v="Trinehålla" />
		<tag k="natural" v="bay" />
		<tag k="ssr:stedsnr" v="935882" />
	</node>
	<node id="-913619" lat="70.7939361264" lon="28.0753327099">
		<tag k="name" v="Torvbukta" />
>>>>>>> e1d4bc35ff8a6074a6f2e91616a996b547c36f15
		<tag k="natural" v="bay" />
		<tag k="old_name:se" v="Guolmesvuodna" />
		<tag k="ssr:stedsnr" v="626329" />
	</node>
<<<<<<< HEAD
	<node lat="70.73584446394776" lon="28.13988547688135" id="-35856">
		<tag k="alt_name" v="Langfjordneset" />
		<tag k="name" v="Langfjordodden" />
=======
	<node id="-913617" lat="70.7966527916" lon="28.0977465998">
		<tag k="name" v="Petterneset" />
>>>>>>> e1d4bc35ff8a6074a6f2e91616a996b547c36f15
		<tag k="natural" v="cape" />
		<tag k="ssr:stedsnr" v="626333" />
	</node>
<<<<<<< HEAD
	<node lat="70.62882501313454" lon="27.824249419776635" id="-35857">
		<tag k="name" v="Klubben" />
		<tag k="natural" v="cape" />
		<tag k="ssr:stedsnr" v="626271" />
	</node>
	<node lat="70.80940834489812" lon="27.96334939515523" id="-35871">
		<tag k="name" v="Olaneset" />
		<tag k="natural" v="cape" />
		<tag k="ssr:stedsnr" v="626879" />
	</node>
	<node lat="70.79617779000444" lon="27.790443879147332" id="-35872">
		<tag k="alt_name" v="Langneset" />
		<tag k="name" v="Langnes" />
		<tag k="natural" v="cape" />
		<tag k="ssr:stedsnr" v="626888" />
	</node>
	<node lat="70.75489446155117" lon="27.796824444390335" id="-35873">
		<tag k="name" v="Blåbærbukta" />
		<tag k="natural" v="bay" />
		<tag k="ssr:stedsnr" v="626894" />
	</node>
	<node lat="70.86032779087236" lon="28.422721522608928" id="-35875">
		<tag k="alt_name:no" v="Jorneset" />
		<tag k="name" v="Jordneset - Gieddenjárga" />
		<tag k="name:no" v="Jordneset" />
		<tag k="name:se" v="Gieddenjárga" />
=======
	<node id="-913616" lat="70.7795139075" lon="28.0929688124">
		<tag k="name" v="Storgrunnen" />
		<tag k="natural" v="shoal" />
		<tag k="place" v="locality" />
		<tag k="ssr:stedsnr" v="935396" />
	</node>
	<node id="-913615" lat="71.0023611291" lon="28.5333326256">
		<tag k="name" v="Torsbåen" />
		<tag k="natural" v="shoal" />
		<tag k="place" v="locality" />
		<tag k="ssr:stedsnr" v="935088" />
	</node>
	<node id="-913614" lat="71.0332222333" lon="28.51254375">
		<tag k="name" v="Bispeskallen" />
		<tag k="natural" v="shoal" />
		<tag k="place" v="locality" />
		<tag k="ssr:stedsnr" v="935086" />
	</node>
	<node id="-913613" lat="71.0197833428" lon="28.2640716037">
		<tag k="name" v="Søndre Koløygrunnen" />
		<tag k="natural" v="shoal" />
		<tag k="place" v="locality" />
		<tag k="ssr:stedsnr" v="935141" />
	</node>
	<node id="-913612" lat="70.6743833475" lon="27.9358882885">
		<tag k="name" v="Øyenden" />
>>>>>>> e1d4bc35ff8a6074a6f2e91616a996b547c36f15
		<tag k="natural" v="cape" />
		<tag k="old_name:se" v="Gieddenjarga" />
		<tag k="ssr:stedsnr" v="626939" />
	</node>
<<<<<<< HEAD
	<node lat="70.88516667994196" lon="28.346560440011068" id="-35876">
		<tag k="name" v="Peilbukta" />
		<tag k="natural" v="bay" />
		<tag k="ssr:stedsnr" v="626942" />
	</node>
	<node lat="70.80056390058513" lon="28.08268827265937" id="-35882">
		<tag k="alt_name" v="Breivikklubben" />
		<tag k="name" v="Lillelvklubben" />
=======
	<node id="-913610" lat="70.8000055722" lon="27.8817744376">
		<tag k="fixme" v="consider seamark:type=rock or natural=shoal" />
		<tag k="name" v="Småskjæran" />
		<tag k="place" v="islet" />
		<tag k="ssr:stedsnr" v="821867" />
	</node>
	<node id="-913609" lat="70.8029527926" lon="27.9599549606">
		<tag k="name" v="Stappen" />
>>>>>>> e1d4bc35ff8a6074a6f2e91616a996b547c36f15
		<tag k="natural" v="cape" />
		<tag k="ssr:stedsnr" v="631683" />
	</node>
<<<<<<< HEAD
	<node lat="70.79193890483167" lon="28.07572993098877" id="-35883">
		<tag k="name" v="Blåbærbukta" />
		<tag k="natural" v="bay" />
		<tag k="ssr:stedsnr" v="631687" />
	</node>
	<node lat="70.805972239858" lon="28.092204935868292" id="-35884">
		<tag k="name" v="Forsen" />
		<tag k="natural" v="beach" />
		<tag k="ssr:stedsnr" v="631697" />
	</node>
	<node lat="71.08710279334042" lon="28.23868828961117" id="-35889">
		<tag k="name" v="Korsstrand" />
		<tag k="natural" v="beach" />
		<tag k="ssr:stedsnr" v="631847" />
	</node>
	<node lat="71.06080001553164" lon="28.251757732943464" id="-35891">
		<tag k="name" v="Beritbukta" />
=======
	<node id="-913608" lat="70.6195944584" lon="27.7510466464">
		<tag k="name" v="Mattisneset" />
		<tag k="natural" v="cape" />
		<tag k="ssr:stedsnr" v="819658" />
	</node>
	<node id="-913605" lat="70.7913527978" lon="28.2358354575">
		<tag k="name" v="Segelneset" />
		<tag k="natural" v="cape" />
		<tag k="ssr:stedsnr" v="930948" />
	</node>
	<node id="-913604" lat="70.8473000161" lon="28.3629048619">
		<tag k="bay" v="fjord" />
		<tag k="name" v="Skarfjorden - Skáravuotna" />
		<tag k="name:no" v="Skarfjorden" />
		<tag k="name:se" v="Skáravuotna" />
>>>>>>> e1d4bc35ff8a6074a6f2e91616a996b547c36f15
		<tag k="natural" v="bay" />
		<tag k="ssr:stedsnr" v="631798" />
	</node>
<<<<<<< HEAD
	<node lat="71.07245001087102" lon="28.249513274203007" id="-35892">
		<tag k="name" v="Råttholla" />
		<tag k="natural" v="bay" />
		<tag k="ssr:stedsnr" v="631827" />
	</node>
	<node lat="70.88757501375659" lon="28.427243739470825" id="-35894">
		<tag k="name" v="Klubben" />
=======
	<node id="-913603" lat="70.9876833479" lon="28.2437438151">
		<tag k="alt_name" v="Koiøyholman, in" />
		<tag k="name" v="Indre Koiøyholman" />
		<tag k="place" v="islet" />
		<tag k="ssr:stedsnr" v="930901" />
	</node>
	<node id="-913601" lat="70.7980250164" lon="28.0248299525">
		<tag k="alt_name" v="Hopsneset, in;Innerhopsnes" />
		<tag k="fixme" v="multiple name tags, choose one and add the other to alt_name" />
		<tag k="name" v="Hopsnes;Indre Hopsneset" />
>>>>>>> e1d4bc35ff8a6074a6f2e91616a996b547c36f15
		<tag k="natural" v="cape" />
		<tag k="ssr:stedsnr" v="632062" />
	</node>
<<<<<<< HEAD
	<node lat="70.8498472352468" lon="28.340913210612587" id="-35895">
		<tag k="name" v="Hamnneset" />
		<tag k="natural" v="cape" />
		<tag k="ssr:stedsnr" v="633275" />
	</node>
	<node lat="71.04043057170203" lon="28.23045216991274" id="-35900">
		<tag k="name" v="Storvika" />
=======
	<node id="-913600" lat="70.7934222366" lon="28.1717798956">
		<tag k="alt_name" v="Hamnnes" />
		<tag k="name" v="Hamnneset" />
		<tag k="natural" v="cape" />
		<tag k="ssr:stedsnr" v="930881" />
	</node>
	<node id="-913591" lat="71.028883346" lon="28.2400271499">
		<tag k="fixme" v="consider seamark:type=rock or natural=shoal" />
		<tag k="name" v="Kjerringa" />
		<tag k="place" v="islet" />
		<tag k="ssr:stedsnr" v="814688" />
	</node>
	<node id="-913589" lat="71.0624055705" lon="27.8731661514">
		<tag k="bay" v="fjord" />
		<tag k="name" v="Mehamnfjorden - Donjevuotna" />
		<tag k="name:no" v="Mehamnfjorden" />
		<tag k="name:se" v="Donjevuotna" />
>>>>>>> e1d4bc35ff8a6074a6f2e91616a996b547c36f15
		<tag k="natural" v="bay" />
		<tag k="ssr:stedsnr" v="748428" />
	</node>
<<<<<<< HEAD
	<node lat="71.11000000881496" lon="27.751460610113718" id="-35904">
		<tag k="name" v="Magkeila" />
=======
	<node id="-913588" lat="71.052783341" lon="27.9130161247">
		<tag k="name" v="Skipsvika" />
>>>>>>> e1d4bc35ff8a6074a6f2e91616a996b547c36f15
		<tag k="natural" v="bay" />
		<tag k="ssr:stedsnr" v="748454" />
	</node>
<<<<<<< HEAD
	<node lat="71.13149723573007" lon="27.900285577128106" id="-35914">
		<tag k="name" v="Øvre Medtuvskallen" />
		<tag k="natural" v="shoal" />
		<tag k="place" v="locality" />
		<tag k="ssr:stedsnr" v="748491" />
	</node>
	<node lat="71.13100834520561" lon="27.647141187202873" id="-35915">
		<tag k="name" v="Kinnarodden - Gidnegeahči" />
		<tag k="name:no" v="Kinnarodden" />
		<tag k="name:se" v="Gidnegeahči" />
=======
	<node id="-913586" lat="71.0575666817" lon="28.0662744445">
		<tag k="name" v="Hamnneset" />
>>>>>>> e1d4bc35ff8a6074a6f2e91616a996b547c36f15
		<tag k="natural" v="cape" />
		<tag k="ssr:stedsnr" v="748492" />
	</node>
<<<<<<< HEAD
	<node lat="70.81446667785393" lon="27.968304965912385" id="-35924">
		<tag k="alt_name" v="Knutnes" />
		<tag k="name" v="Knutneset" />
		<tag k="natural" v="cape" />
		<tag k="ssr:stedsnr" v="748858" />
	</node>
	<node lat="70.81732501689746" lon="28.0072855075813" id="-35933">
		<tag k="name" v="Grunnbukta" />
=======
	<node id="-913585" lat="71.0608055729" lon="28.1026105309">
		<tag k="name" v="Kvitsteinvika" />
		<tag k="natural" v="bay" />
		<tag k="ssr:stedsnr" v="930427" />
	</node>
	<node id="-913584" lat="71.0493027908" lon="27.7247494893">
		<tag k="name" v="Kobbvågen" />
>>>>>>> e1d4bc35ff8a6074a6f2e91616a996b547c36f15
		<tag k="natural" v="bay" />
		<tag k="ssr:stedsnr" v="753720" />
	</node>
<<<<<<< HEAD
	<node lat="71.07447779244913" lon="28.249874400305924" id="-35935">
		<tag k="name" v="Sandvika" />
=======
	<node id="-913583" lat="71.0516777912" lon="27.7994772583">
		<tag k="name" v="Kuskjellhamna" />
>>>>>>> e1d4bc35ff8a6074a6f2e91616a996b547c36f15
		<tag k="natural" v="bay" />
		<tag k="ssr:stedsnr" v="753798" />
	</node>
<<<<<<< HEAD
	<node lat="71.08752778822043" lon="28.14816607890349" id="-35936">
		<tag k="name" v="Sandvikneset" />
=======
	<node id="-913582" lat="71.0521639036" lon="27.8082494914">
		<tag k="name" v="Kuskjellhamnklubben" />
>>>>>>> e1d4bc35ff8a6074a6f2e91616a996b547c36f15
		<tag k="natural" v="cape" />
		<tag k="ssr:stedsnr" v="753883" />
	</node>
<<<<<<< HEAD
	<node lat="70.8910694581333" lon="28.382760421885756" id="-35938">
		<tag k="name" v="Hamnneset" />
=======
	<node id="-913581" lat="70.6773861243" lon="27.8944021867">
		<tag k="name" v="Muorjenjárga" />
		<tag k="name:se" v="Muorjenjárga" />
>>>>>>> e1d4bc35ff8a6074a6f2e91616a996b547c36f15
		<tag k="natural" v="cape" />
		<tag k="ssr:stedsnr" v="754056" />
	</node>
<<<<<<< HEAD
	<node lat="70.82427501751337" lon="28.2731132213121" id="-35939">
		<tag k="name" v="Sandodden" />
=======
	<node id="-913578" lat="70.6239889086" lon="27.7798299792">
		<tag k="name" v="Mattisneset" />
>>>>>>> e1d4bc35ff8a6074a6f2e91616a996b547c36f15
		<tag k="natural" v="cape" />
		<tag k="ssr:stedsnr" v="755379" />
	</node>
<<<<<<< HEAD
	<node lat="71.09203612324453" lon="28.16098552656042" id="-35944">
		<tag k="name" v="Bjørkevikneset" />
		<tag k="natural" v="cape" />
		<tag k="ssr:stedsnr" v="808414" />
	</node>
	<node lat="71.08568889639183" lon="28.044479998106493" id="-35945">
		<tag k="name" v="Skarvestauren" />
		<tag k="natural" v="cape" />
		<tag k="ssr:stedsnr" v="808435" />
	</node>
	<node lat="70.62925279200576" lon="27.82006608388852" id="-35950">
		<tag k="name" v="Gođđoluokta" />
		<tag k="name:se" v="Gođđoluokta" />
		<tag k="natural" v="bay" />
		<tag k="old_name:se" v="Gåđđuluokta" />
		<tag k="ssr:stedsnr" v="809275" />
	</node>
	<node lat="71.05925556989864" lon="27.932288351315865" id="-35955">
		<tag k="alt_name" v="Staurvika, in;Innerstaurvika" />
		<tag k="name" v="Indre Staurvika" />
		<tag k="natural" v="bay" />
		<tag k="ssr:stedsnr" v="809442" />
	</node>
	<node lat="71.11346667425958" lon="27.711127297357717" id="-35958">
		<tag k="fixme" v="multiple name tags, choose one and add the other to alt_name" />
		<tag k="name" v="Mola;Breimolla" />
=======
	<node id="-913571" lat="70.7974389017" lon="27.9192855272">
		<tag k="name" v="Pelkefjæra" />
>>>>>>> e1d4bc35ff8a6074a6f2e91616a996b547c36f15
		<tag k="natural" v="beach" />
		<tag k="ssr:stedsnr" v="809472" />
	</node>
	<node lat="71.1176111227121" lon="27.880577258543294" id="-35959">
		<tag k="name" v="Medtuvsnaget" />
		<tag k="natural" v="shoal" />
		<tag k="place" v="locality" />
		<tag k="ssr:stedsnr" v="809474" />
	</node>
<<<<<<< HEAD
	<node lat="71.0999861197283" lon="28.258216065073984" id="-35960">
		<tag k="name" v="Kamøygrunnen" />
=======
	<node id="-913568" lat="71.1335139021" lon="27.7445995009">
		<tag k="name" v="Tåga" />
>>>>>>> e1d4bc35ff8a6074a6f2e91616a996b547c36f15
		<tag k="natural" v="shoal" />
		<tag k="place" v="locality" />
		<tag k="ssr:stedsnr" v="809477" />
	</node>
<<<<<<< HEAD
	<node lat="70.97393612212898" lon="28.236110475078714" id="-35964">
		<tag k="name" v="Mollvika" />
=======
	<node id="-913567" lat="70.9848444638" lon="28.5237743002">
		<tag k="name" v="Skinnstakkvika" />
>>>>>>> e1d4bc35ff8a6074a6f2e91616a996b547c36f15
		<tag k="natural" v="bay" />
		<tag k="ssr:stedsnr" v="809925" />
	</node>
<<<<<<< HEAD
	<node lat="70.90713334985789" lon="28.46795484025629" id="-35965">
		<tag k="name" v="Finnkongkeila - Sieidevuotna" />
		<tag k="name:no" v="Finnkongkeila" />
		<tag k="name:se" v="Sieidevuotna" />
=======
	<node id="-913563" lat="70.9758444615" lon="28.5432492905">
		<tag k="alt_name" v="Russevika, l" />
		<tag k="name" v="Lille Russevika" />
>>>>>>> e1d4bc35ff8a6074a6f2e91616a996b547c36f15
		<tag k="natural" v="bay" />
		<tag k="old_name:se" v="Sieidevuodna" />
		<tag k="ssr:stedsnr" v="809927" />
	</node>
<<<<<<< HEAD
	<node lat="71.00717501593445" lon="28.19200216501185" id="-35966">
		<tag k="name" v="Finnvikneset" />
=======
	<node id="-913559" lat="70.8144666779" lon="27.9683049659">
		<tag k="alt_name" v="Knutnes" />
		<tag k="name" v="Knutneset" />
>>>>>>> e1d4bc35ff8a6074a6f2e91616a996b547c36f15
		<tag k="natural" v="cape" />
		<tag k="ssr:stedsnr" v="814067" />
	</node>
<<<<<<< HEAD
	<node lat="71.09316668217166" lon="28.185943858127317" id="-35969">
		<tag k="name" v="Duolbanjárga" />
		<tag k="name:se" v="Duolbanjárga" />
		<tag k="natural" v="cape" />
		<tag k="ssr:stedsnr" v="813767" />
	</node>
	<node lat="71.09405278781077" lon="28.170257748440903" id="-35970">
		<tag k="alt_name" v="Hollendervikholmen" />
		<tag k="name" v="Hollendarvikholmen" />
		<tag k="place" v="islet" />
		<tag k="ssr:stedsnr" v="813770" />
	</node>
	<node lat="71.05631945976833" lon="28.25409381584099" id="-35971">
		<tag k="name" v="Kåvroren" />
=======
	<node id="-913554" lat="71.1100000088" lon="27.7514606101">
		<tag k="name" v="Magkeila" />
>>>>>>> e1d4bc35ff8a6074a6f2e91616a996b547c36f15
		<tag k="natural" v="bay" />
		<tag k="ssr:stedsnr" v="813776" />
	</node>
<<<<<<< HEAD
	<node lat="71.05514167682647" lon="28.259766046568156" id="-35973">
		<tag k="name" v="Kvalvikneset" />
=======
	<node id="-913553" lat="71.063727789" lon="27.7165217324">
		<tag k="name" v="Sydvestneset" />
>>>>>>> e1d4bc35ff8a6074a6f2e91616a996b547c36f15
		<tag k="natural" v="cape" />
		<tag k="ssr:stedsnr" v="813870" />
	</node>
<<<<<<< HEAD
	<node lat="71.05439723652731" lon="27.809291138666325" id="-35974">
		<tag k="name" v="Kuskjellhamnvika - Guiski" />
		<tag k="name:no" v="Kuskjellhamnvika" />
		<tag k="name:se" v="Guiski" />
=======
	<node id="-913551" lat="70.7485055684" lon="27.7679799954">
		<tag k="bay" v="fjord" />
		<tag k="name" v="Store Skogfjorden - Caganvuotna" />
		<tag k="name:no" v="Store Skogfjorden" />
		<tag k="name:se" v="Caganvuotna" />
>>>>>>> e1d4bc35ff8a6074a6f2e91616a996b547c36f15
		<tag k="natural" v="bay" />
		<tag k="ssr:stedsnr" v="814020" />
	</node>
<<<<<<< HEAD
	<node lat="71.06095834419556" lon="28.355846572387055" id="-35976">
		<tag k="name" v="Grunnskallen" />
		<tag k="natural" v="shoal" />
		<tag k="place" v="locality" />
		<tag k="ssr:stedsnr" v="814699" />
	</node>
	<node lat="71.05956390671375" lon="28.097304971061863" id="-35981">
		<tag k="name" v="Russevika" />
		<tag k="natural" v="bay" />
		<tag k="ssr:stedsnr" v="814740" />
	</node>
	<node lat="70.79435834737008" lon="27.84110221820311" id="-35986">
		<tag k="name" v="Sandnesgrunnen" />
=======
	<node id="-913547" lat="70.7983027888" lon="27.8892188711">
		<tag k="name" v="Støtta" />
		<tag k="place" v="locality" />
		<tag k="seamark:type" v="rock" />
		<tag k="ssr:stedsnr" v="700861" />
	</node>
	<node id="-913545" lat="70.6647000103" lon="27.8572494167">
		<tag k="name" v="Skoleneset" />
		<tag k="natural" v="cape" />
		<tag k="ssr:stedsnr" v="697265" />
	</node>
	<node id="-913543" lat="71.1180555668" lon="28.3999993572">
		<tag k="name" v="Ørntindbakken" />
		<tag k="place" v="locality" />
		<tag k="ssr:stedsnr" v="693718" />
	</node>
	<node id="-913542" lat="70.9862222384" lon="28.5524993015">
		<tag k="name" v="Seigrunnen" />
>>>>>>> e1d4bc35ff8a6074a6f2e91616a996b547c36f15
		<tag k="natural" v="shoal" />
		<tag k="place" v="locality" />
		<tag k="ssr:stedsnr" v="815428" />
	</node>
<<<<<<< HEAD
	<node lat="70.61959445836973" lon="27.75104664636586" id="-35989">
		<tag k="name" v="Mattisneset" />
		<tag k="natural" v="cape" />
		<tag k="ssr:stedsnr" v="819658" />
	</node>
	<node lat="70.80000557218831" lon="27.881774437618322" id="-35990">
		<tag k="fixme" v="consider seamark:type=rock or natural=shoal" />
		<tag k="name" v="Småskjæran" />
		<tag k="place" v="islet" />
		<tag k="ssr:stedsnr" v="821867" />
	</node>
	<node lat="70.80295279259963" lon="27.959954960634334" id="-35992">
		<tag k="name" v="Stappen" />
		<tag k="natural" v="cape" />
		<tag k="ssr:stedsnr" v="821863" />
	</node>
	<node lat="71.05637778945133" lon="28.063021650665686" id="-36000">
		<tag k="name" v="Hamna" />
=======
	<node id="-913539" lat="71.070177791" lon="28.2440021698">
		<tag k="name" v="Elvevågen" />
		<tag k="natural" v="bay" />
		<tag k="ssr:stedsnr" v="692810" />
	</node>
	<node id="-913538" lat="70.7951777906" lon="28.044910489">
		<tag k="name" v="Storbukta" />
		<tag k="natural" v="bay" />
		<tag k="ssr:stedsnr" v="692665" />
	</node>
	<node id="-913536" lat="70.9595750185" lon="28.1891743716">
		<tag k="name" v="Innervalen" />
>>>>>>> e1d4bc35ff8a6074a6f2e91616a996b547c36f15
		<tag k="natural" v="bay" />
		<tag k="ssr:stedsnr" v="869460" />
	</node>
<<<<<<< HEAD
	<node lat="70.99715279348088" lon="28.303532695285345" id="-36001">
		<tag k="bay" v="fjord" />
		<tag k="name" v="Sandfjorden" />
		<tag k="natural" v="bay" />
		<tag k="ssr:stedsnr" v="869542" />
	</node>
	<node lat="71.01609445632191" lon="28.201702158106468" id="-36009">
		<tag k="name" v="Larsolaurda" />
=======
	<node id="-913533" lat="70.7956250118" lon="27.9446994115">
		<tag k="name" v="Knakken" />
		<tag k="natural" v="shoal" />
		<tag k="place" v="locality" />
		<tag k="ssr:stedsnr" v="882819" />
	</node>
	<node id="-913532" lat="70.7153972386" lon="28.0757993715">
		<tag k="name" v="Langfjordnes" />
>>>>>>> e1d4bc35ff8a6074a6f2e91616a996b547c36f15
		<tag k="natural" v="cape" />
		<tag k="ssr:stedsnr" v="870399" />
	</node>
<<<<<<< HEAD
	<node lat="71.10224167639664" lon="28.010546670229488" id="-36010">
		<tag k="name" v="Langstrandgrunnen" />
=======
	<node id="-913528" lat="71.1397361238" lon="28.0868660912">
		<tag k="name" v="Ytterteisten" />
>>>>>>> e1d4bc35ff8a6074a6f2e91616a996b547c36f15
		<tag k="natural" v="shoal" />
		<tag k="place" v="locality" />
		<tag k="ssr:stedsnr" v="870465" />
	</node>
<<<<<<< HEAD
	<node lat="71.11067223300208" lon="27.749530046203212" id="-36011">
		<tag k="name" v="Magkeilspira" />
=======
	<node id="-913526" lat="70.8815139027" lon="28.3990604198">
		<tag k="name" v="Pollypynten" />
>>>>>>> e1d4bc35ff8a6074a6f2e91616a996b547c36f15
		<tag k="natural" v="cape" />
		<tag k="ssr:stedsnr" v="870461" />
	</node>
<<<<<<< HEAD
	<node lat="70.85347779047204" lon="28.405524308546816" id="-36013">
		<tag k="alt_name" v="Oterstein" />
		<tag k="name" v="Otersteinen" />
=======
	<node id="-913524" lat="70.8381889035" lon="28.2246410051">
		<tag k="name" v="Klubban" />
>>>>>>> e1d4bc35ff8a6074a6f2e91616a996b547c36f15
		<tag k="natural" v="cape" />
		<tag k="ssr:stedsnr" v="870933" />
	</node>
<<<<<<< HEAD
	<node lat="70.80135001859466" lon="28.26287433593968" id="-36014">
		<tag k="alt_name" v="Kjeskelvika, l;Litle Kjeskelvika" />
		<tag k="name" v="Lille Kjeskelvika" />
		<tag k="natural" v="bay" />
		<tag k="ssr:stedsnr" v="870940" />
	</node>
	<node lat="71.0324916739537" lon="27.8248967014432" id="-36017">
		<tag k="alt_name" v="Sørfjordnes" />
		<tag k="name" v="Sørfjordneset" />
=======
	<node id="-913523" lat="70.8498472352" lon="28.3409132106">
		<tag k="name" v="Hamnneset" />
>>>>>>> e1d4bc35ff8a6074a6f2e91616a996b547c36f15
		<tag k="natural" v="cape" />
		<tag k="ssr:stedsnr" v="874119" />
	</node>
<<<<<<< HEAD
	<node lat="71.05696390462964" lon="27.785727261319142" id="-36023">
		<tag k="name" v="Guiskinjárga" />
		<tag k="name:se" v="Guiskinjárga" />
		<tag k="natural" v="cape" />
		<tag k="ssr:stedsnr" v="874029" />
	</node>
	<node lat="70.8059639023532" lon="28.09376047695962" id="-36024">
		<tag k="name" v="Bukta" />
=======
	<node id="-913516" lat="71.0862083461" lon="28.1459910905">
		<tag k="name" v="Steinvågholmen" />
		<tag k="place" v="islet" />
		<tag k="ssr:stedsnr" v="571866" />
	</node>
	<node id="-913508" lat="70.6795027988" lon="28.1210826726">
		<tag k="name" v="Killibukta - Čilleluokta" />
		<tag k="name:no" v="Killibukta" />
		<tag k="name:se" v="Čilleluokta" />
>>>>>>> e1d4bc35ff8a6074a6f2e91616a996b547c36f15
		<tag k="natural" v="bay" />
		<tag k="ssr:stedsnr" v="874710" />
	</node>
<<<<<<< HEAD
	<node lat="71.09854167365349" lon="27.738502288603314" id="-36025">
		<tag k="name" v="Elvevika" />
		<tag k="natural" v="bay" />
		<tag k="ssr:stedsnr" v="874734" />
	</node>
	<node lat="71.09266390153152" lon="28.159346644694086" id="-36029">
		<tag k="name" v="Lillebjørkevika" />
		<tag k="natural" v="bay" />
		<tag k="ssr:stedsnr" v="874843" />
	</node>
	<node lat="71.02884446051793" lon="28.20550495200641" id="-36030">
		<tag k="name" v="Kobbvikneset" />
=======
	<node id="-913507" lat="71.0470389006" lon="28.2505632572">
		<tag k="name" v="Tverrvika" />
		<tag k="natural" v="bay" />
		<tag k="ssr:stedsnr" v="566440" />
	</node>
	<node id="-913506" lat="71.0445527877" lon="27.8078189271">
		<tag k="alt_name" v="Steinfjordnes" />
		<tag k="name" v="Steinfjordneset" />
		<tag k="natural" v="cape" />
		<tag k="ssr:stedsnr" v="566439" />
	</node>
	<node id="-913505" lat="71.095763902" lon="28.0589411056">
		<tag k="alt_name" v="Bispegrunnen, yt" />
		<tag k="name" v="Ytre Bispegrunnen" />
		<tag k="natural" v="shoal" />
		<tag k="place" v="locality" />
		<tag k="ssr:stedsnr" v="565418" />
	</node>
	<node id="-913498" lat="70.8073166887" lon="28.2908409847">
		<tag k="name" v="Litleneset" />
>>>>>>> e1d4bc35ff8a6074a6f2e91616a996b547c36f15
		<tag k="natural" v="cape" />
		<tag k="ssr:stedsnr" v="874848" />
	</node>
<<<<<<< HEAD
	<node lat="71.0815361253056" lon="28.119841087567615" id="-36033">
		<tag k="name" v="Veslevikbåen" />
=======
	<node id="-913495" lat="71.0526555659" lon="28.2808382699">
		<tag k="name" v="Daudmannsfallet" />
		<tag k="natural" v="shoal" />
>>>>>>> e1d4bc35ff8a6074a6f2e91616a996b547c36f15
		<tag k="place" v="locality" />
		<tag k="seamark:type" v="rock" />
		<tag k="ssr:stedsnr" v="874944" />
	</node>
<<<<<<< HEAD
	<node lat="71.06362501332316" lon="28.268629941803486" id="-36036">
		<tag k="name" v="Flintholmen" />
		<tag k="place" v="islet" />
		<tag k="ssr:stedsnr" v="875154" />
	</node>
	<node lat="70.88151390265239" lon="28.39906041980325" id="-36040">
		<tag k="name" v="Pollypynten" />
=======
	<node id="-913494" lat="70.9674777937" lon="28.5468409457">
		<tag k="name" v="Russevikspira" />
>>>>>>> e1d4bc35ff8a6074a6f2e91616a996b547c36f15
		<tag k="natural" v="cape" />
		<tag k="ssr:stedsnr" v="876494" />
	</node>
<<<<<<< HEAD
	<node lat="70.79393612643806" lon="28.07533270991114" id="-36045">
		<tag k="name" v="Torvbukta" />
=======
	<node id="-913488" lat="71.051386127" lon="28.068318866">
		<tag k="name" v="Steinvåg-Sandfjorden" />
>>>>>>> e1d4bc35ff8a6074a6f2e91616a996b547c36f15
		<tag k="natural" v="bay" />
		<tag k="ssr:stedsnr" v="935699" />
	</node>
<<<<<<< HEAD
	<node lat="70.80312223721059" lon="28.105963255655908" id="-36048">
		<tag k="name" v="Skoleneset" />
		<tag k="natural" v="cape" />
		<tag k="ssr:stedsnr" v="935708" />
	</node>
	<node lat="70.79665279164978" lon="28.097746599841503" id="-36049">
		<tag k="name" v="Petterneset" />
		<tag k="natural" v="cape" />
		<tag k="ssr:stedsnr" v="935709" />
	</node>
	<node lat="71.08674168013465" lon="28.150329966501246" id="-36052">
		<tag k="name" v="Trinehålla" />
=======
	<node id="-913486" lat="71.0853722342" lon="28.2464438282">
		<tag k="name" v="Korsvalan" />
		<tag k="natural" v="bay" />
		<tag k="ssr:stedsnr" v="692827" />
	</node>
	<node id="-913485" lat="70.7926666842" lon="28.1737660155">
		<tag k="name" v="Hamneskjerringa" />
>>>>>>> e1d4bc35ff8a6074a6f2e91616a996b547c36f15
		<tag k="natural" v="bay" />
		<tag k="ssr:stedsnr" v="935882" />
	</node>
<<<<<<< HEAD
	<node lat="71.05903612145659" lon="27.813788380339194" id="-36058">
		<tag k="name" v="Seineset" />
		<tag k="natural" v="cape" />
		<tag k="ssr:stedsnr" v="935969" />
	</node>
	<node lat="71.14216945654093" lon="27.671635629804797" id="-36060">
		<tag k="alt_name" v="Oddegrunnen, øvre" />
		<tag k="name" v="Øvre Oddegrunnen" />
		<tag k="natural" v="shoal" />
		<tag k="place" v="locality" />
		<tag k="ssr:stedsnr" v="938159" />
=======
	<node id="-913484" lat="70.7986500193" lon="28.0920410501">
		<tag k="name" v="Skjånesodden" />
		<tag k="natural" v="cape" />
		<tag k="ssr:stedsnr" v="692693" />
	</node>
	<node id="-913481" lat="71.0365500166" lon="27.8754189018">
		<tag k="fixme" v="consider seamark:type=rock or natural=shoal" />
		<tag k="name" v="Skjæret" />
		<tag k="place" v="islet" />
		<tag k="ssr:stedsnr" v="692111" />
	</node>
	<node id="-913480" lat="71.035922234" lon="27.8374550154">
		<tag k="name" v="Flatholmen" />
		<tag k="place" v="islet" />
		<tag k="ssr:stedsnr" v="692110" />
>>>>>>> e1d4bc35ff8a6074a6f2e91616a996b547c36f15
	</node>
	<node id="-913479" lat="71.0629500103" lon="27.7713189319">
		<tag k="bay" v="fjord" />
		<tag k="name" v="Njuorjovuotna" />
		<tag k="name:se" v="Njuorjovuotna" />
		<tag k="natural" v="bay" />
		<tag k="ssr:stedsnr" v="692013" />
	</node>
	<node id="-913477" lat="70.8393333442" lon="28.2224576889">
		<tag k="name" v="Rafjordbotn" />
		<tag k="natural" v="bay" />
		<tag k="ssr:stedsnr" v="688951" />
	</node>
	<node id="-913476" lat="71.0902027909" lon="28.0705161068">
		<tag k="alt_name" v="Bispegrunnen, in" />
		<tag k="name" v="Indre Bispegrunnen" />
		<tag k="natural" v="shoal" />
		<tag k="place" v="locality" />
		<tag k="ssr:stedsnr" v="688450" />
	</node>
	<node id="-913473" lat="70.638516679" lon="27.7860049708">
		<tag k="name" v="Gamneset" />
		<tag k="natural" v="cape" />
		<tag k="ssr:stedsnr" v="688293" />
	</node>
	<node id="-913472" lat="70.9561805715" lon="28.5389326094">
		<tag k="name" v="Avløysinga" />
		<tag k="natural" v="cape" />
		<tag k="ssr:stedsnr" v="687918" />
	</node>
	<node id="-913471" lat="71.0042555683" lon="28.3057688167">
		<tag k="name" v="Sandfjordneset" />
		<tag k="natural" v="cape" />
		<tag k="ssr:stedsnr" v="687904" />
	</node>
	<node id="-913467" lat="70.798175011" lon="27.8615049931">
		<tag k="alt_name" v="Kobbevikneset, in" />
		<tag k="fixme" v="multiple name tags, choose one and add the other to alt_name" />
		<tag k="name" v="Kobbvikneset;Indre Kobbevikneset" />
		<tag k="natural" v="cape" />
		<tag k="ssr:stedsnr" v="687876" />
	</node>
	<node id="-913465" lat="70.7992805729" lon="27.7252772403">
		<tag k="name" v="Hopseidet - Nuorri" />
		<tag k="name:no" v="Hopseidet" />
		<tag k="name:se" v="Nuorri" />
		<tag k="place" v="locality" />
		<tag k="ssr:stedsnr" v="687871" />
	</node>
	<node id="-913454" lat="71.0917222371" lon="28.1571521909">
		<tag k="alt_name" v="Mollvikneset" />
		<tag k="name" v="Molvikneset" />
		<tag k="natural" v="cape" />
		<tag k="ssr:stedsnr" v="687464" />
	</node>
	<node id="-913451" lat="71.0703722329" lon="28.0610883163">
		<tag k="name" v="Stabbevika" />
		<tag k="natural" v="bay" />
		<tag k="ssr:stedsnr" v="687417" />
	</node>
	<node id="-913449" lat="71.0308777949" lon="28.2289660414">
		<tag k="fixme" v="consider seamark:type=rock or natural=shoal" />
		<tag k="name" v="Gunnarsfjordskjæret" />
		<tag k="place" v="islet" />
		<tag k="ssr:stedsnr" v="687388" />
	</node>
	<node id="-913445" lat="70.7152805742" lon="28.0803521329">
		<tag k="name" v="Båtneset" />
		<tag k="natural" v="cape" />
		<tag k="ssr:stedsnr" v="515229" />
	</node>
	<node id="-913443" lat="70.7948027973" lon="28.1198382477">
		<tag k="name" v="Neset" />
		<tag k="natural" v="cape" />
		<tag k="ssr:stedsnr" v="510674" />
	</node>
	<node id="-913440" lat="70.6728166825" lon="27.9158882878">
		<tag k="name" v="Litlebukta" />
		<tag k="natural" v="bay" />
		<tag k="ssr:stedsnr" v="509463" />
	</node>
	<node id="-913439" lat="70.9969889049" lon="28.4469854428">
		<tag k="name" v="Klubbvika" />
		<tag k="natural" v="bay" />
		<tag k="ssr:stedsnr" v="505883" />
	</node>
	<node id="-913438" lat="70.7648111269" lon="27.9990577284">
		<tag k="name" v="Djupbukta" />
		<tag k="natural" v="bay" />
		<tag k="ssr:stedsnr" v="505873" />
	</node>
	<node id="-913435" lat="70.7991611261" lon="27.8100549919">
		<tag k="alt_name" v="Torvneset" />
		<tag k="name" v="Torvnesa" />
		<tag k="natural" v="cape" />
		<tag k="ssr:stedsnr" v="505855" />
	</node>
	<node id="-913434" lat="70.8101805711" lon="28.2918521138">
		<tag k="name" v="Svensvika" />
		<tag k="natural" v="bay" />
		<tag k="ssr:stedsnr" v="505925" />
	</node>
	<node id="-913433" lat="70.8962277959" lon="28.4812909482">
		<tag k="alt_name" v="Hanstyske" />
		<tag k="name" v="Hans Tysken" />
		<tag k="natural" v="cape" />
		<tag k="ssr:stedsnr" v="505911" />
	</node>
	<node id="-913432" lat="70.9778889039" lon="28.226007723">
		<tag k="name" v="Molvikneset" />
		<tag k="natural" v="cape" />
		<tag k="ssr:stedsnr" v="505902" />
	</node>
	<node id="-913430" lat="71.0872000154" lon="28.0933105438">
		<tag k="name" v="Sandfjordryggen" />
		<tag k="natural" v="shoal" />
		<tag k="place" v="locality" />
		<tag k="ssr:stedsnr" v="505474" />
	</node>
	<node id="-913429" lat="71.0841722333" lon="28.0428050045">
		<tag k="name" v="Bispevika" />
		<tag k="natural" v="bay" />
		<tag k="ssr:stedsnr" v="505473" />
	</node>
	<node id="-913428" lat="71.0707527895" lon="27.7961355886">
		<tag k="name" v="Smørbringen" />
		<tag k="natural" v="cape" />
		<tag k="ssr:stedsnr" v="505470" />
	</node>
	<node id="-913427" lat="71.0919166764" lon="27.8391661596">
		<tag k="name" v="Smørbringgrunnen" />
		<tag k="natural" v="shoal" />
		<tag k="place" v="locality" />
		<tag k="ssr:stedsnr" v="505464" />
	</node>
	<node id="-913426" lat="71.1062027866" lon="27.7405883942">
		<tag k="name" v="Magkeilvika" />
		<tag k="natural" v="bay" />
		<tag k="ssr:stedsnr" v="505456" />
	</node>
	<node id="-913425" lat="70.9947305685" lon="28.1819910447">
		<tag k="bay" v="fjord" />
		<tag k="name" v="Risfjorden" />
		<tag k="natural" v="bay" />
		<tag k="ssr:stedsnr" v="505519" />
	</node>
	<node id="-913424" lat="70.7087222368" lon="28.0700715911">
		<tag k="name" v="Småskjærbukta" />
		<tag k="natural" v="bay" />
		<tag k="ssr:stedsnr" v="505304" />
	</node>
	<node id="-913423" lat="71.1246750146" lon="27.9972439101">
		<tag k="name" v="Kamøyskallen" />
		<tag k="natural" v="shoal" />
		<tag k="place" v="locality" />
		<tag k="ssr:stedsnr" v="485055" />
	</node>
	<node id="-913420" lat="71.0384083408" lon="27.8104855905">
		<tag k="name" v="Elvevika" />
		<tag k="natural" v="bay" />
		<tag k="ssr:stedsnr" v="450002" />
	</node>
	<node id="-913419" lat="71.0682639031" lon="28.0599244281">
		<tag k="name" v="Elvevika" />
		<tag k="natural" v="bay" />
		<tag k="ssr:stedsnr" v="449840" />
	</node>
	<node id="-913415" lat="70.7571277902" lon="27.9057299625">
		<tag k="name" v="Fálesnjárga" />
		<tag k="name:se" v="Fálesnjárga" />
		<tag k="natural" v="cape" />
		<tag k="old_name:se" v="Falesnjarga;Falesnjárga" />
		<tag k="ssr:stedsnr" v="445915" />
	</node>
	<node id="-913413" lat="70.9975083463" lon="28.2429827135">
		<tag k="alt_name" v="Koiøyholman, yt" />
		<tag k="name" v="Ytre Koiøyholman" />
		<tag k="place" v="islet" />
		<tag k="ssr:stedsnr" v="445912" />
	</node>
	<node id="-913410" lat="71.1281083401" lon="27.6602161934">
		<tag k="name" v="Kinnaroddvika" />
		<tag k="natural" v="bay" />
		<tag k="ssr:stedsnr" v="445511" />
	</node>
</osm>
