<?xml version="1.0" encoding="UTF-8"?>
<osm generator="osmapis" version="0.6">
	<node id="-906750" lat="70.696080572" lon="27.9014410629">
		<tag k="alt_name" v="Langfjordelva, l" />
		<tag k="name" v="Lille Langfjordelva" />
		<tag k="ssr:stedsnr" v="505290" />
		<tag k="waterway" v="river" />
	</node>
	<node id="-907260" lat="70.8130639021" lon="28.1094716045">
		<tag k="name" v="Sukkertoppvannet" />
		<tag k="natural" v="water" />
		<tag k="ssr:stedsnr" v="207694" />
	</node>
	<node id="-907257" lat="70.8082194578" lon="28.11198827">
		<tag k="name" v="Hopelva" />
		<tag k="ssr:stedsnr" v="206674" />
		<tag k="waterway" v="stream" />
	</node>
	<node id="-906744" lat="71.0255166773" lon="27.93663557">
		<tag k="name" v="Kristianbekken" />
		<tag k="ssr:stedsnr" v="389974" />
		<tag k="waterway" v="stream" />
	</node>
	<node id="-906741" lat="71.0059055717" lon="27.8961605722">
		<tag k="name" v="Søndre Tvillingvannet" />
		<tag k="natural" v="water" />
		<tag k="ssr:stedsnr" v="389953" />
		<tag k="water" v="lake" />
	</node>
	<node id="-907252" lat="70.8044000163" lon="28.1978771177">
		<tag k="name" v="Kjeskelvikvannet" />
		<tag k="natural" v="water" />
		<tag k="ssr:stedsnr" v="202889" />
	</node>
	<node id="-907095" lat="70.8066027901" lon="28.1615493672">
		<tag k="name" v="Bjørnelvvannet" />
		<tag k="natural" v="water" />
		<tag k="ssr:stedsnr" v="20882" />
	</node>
	<node id="-907249" lat="70.6223972398" lon="27.5099883749">
		<tag k="name" v="Midtre Tverrelva" />
		<tag k="old_name" v="Tverrelva, midtre" />
		<tag k="ssr:stedsnr" v="202724" />
		<tag k="waterway" v="stream" />
	</node>
	<node id="-906733" lat="70.8004111253" lon="28.0417827233">
		<tag k="name" v="Hansnesvatna" />
		<tag k="natural" v="water" />
		<tag k="ssr:stedsnr" v="384873" />
	</node>
	<node id="-907244" lat="71.0769111224" lon="28.1545688446">
		<tag k="name" v="Veslevikvannet" />
		<tag k="natural" v="water" />
		<tag k="ssr:stedsnr" v="202460" />
		<tag k="water" v="lake" />
	</node>
	<node id="-906731" lat="71.010183348" lon="28.1199383111">
		<tag k="name" v="Bjørnelvvatna" />
		<tag k="natural" v="water" />
		<tag k="ssr:stedsnr" v="384406" />
		<tag k="water" v="lake" />
	</node>
	<node id="-906730" lat="70.6173250138" lon="27.7447799886">
		<tag k="name" v="Djupelva" />
		<tag k="ssr:stedsnr" v="384282" />
		<tag k="waterway" v="stream" />
	</node>
	<node id="-906728" lat="70.6076972376" lon="27.6279522197">
		<tag k="name" v="Jernvannet" />
		<tag k="natural" v="water" />
		<tag k="ssr:stedsnr" v="384265" />
	</node>
	<node id="-907239" lat="71.0672361255" lon="28.1614882943">
		<tag k="name" v="Langdalsvatna" />
		<tag k="natural" v="water" />
		<tag k="ssr:stedsnr" v="202423" />
		<tag k="water" v="lake" />
	</node>
	<node id="-907237" lat="71.0609666817" lon="28.0169494354">
		<tag k="alt_name" v="Futelvvatnet" />
		<tag k="name" v="Futelvvatna" />
		<tag k="natural" v="water" />
		<tag k="ssr:stedsnr" v="202418" />
		<tag k="water" v="lake" />
	</node>
	<node id="-906724" lat="71.0470583428" lon="27.9507466848">
		<tag k="name" v="Storvasselva" />
		<tag k="ssr:stedsnr" v="328931" />
		<tag k="waterway" v="river" />
	</node>
	<node id="-907235" lat="71.0602555664" lon="28.2242688343">
		<tag k="name" v="Kovvannet" />
		<tag k="natural" v="water" />
		<tag k="ssr:stedsnr" v="202414" />
	</node>
	<node id="-906721" lat="71.0615111264" lon="28.1963660552">
		<tag k="name" v="Grunnvatnan" />
		<tag k="natural" v="water" />
		<tag k="ssr:stedsnr" v="328820" />
	</node>
	<node id="-906716" lat="70.8113444574" lon="27.8681688634">
		<tag k="name" v="Kobbvikelva" />
		<tag k="ssr:stedsnr" v="269461" />
		<tag k="waterway" v="river" />
	</node>
	<node id="-907227" lat="70.7164889083" lon="28.0228354886">
		<tag k="alt_name" v="Sauevatnet, l" />
		<tag k="name" v="Lille-Sauvatnet" />
		<tag k="natural" v="water" />
		<tag k="ssr:stedsnr" v="202294" />
	</node>
	<node id="-907219" lat="70.6193305744" lon="27.6286077862">
		<tag k="name" v="Storodden" />
		<tag k="natural" v="cape" />
		<tag k="ssr:stedsnr" v="151663" />
	</node>
	<node id="-906706" lat="70.6266611258" lon="27.5747633563">
		<tag k="name" v="Rundvatna" />
		<tag k="natural" v="water" />
		<tag k="ssr:stedsnr" v="263715" />
	</node>
	<node id="-906659" lat="71.0835139015" lon="28.1993910566">
		<tag k="fixme" v="multiple name tags, choose one and add the other to alt_name" />
		<tag k="name" v="Innerkeilvatnet;Ragnhildvatnet" />
		<tag k="natural" v="water" />
		<tag k="ssr:stedsnr" v="444448" />
	</node>
	<node id="-906703" lat="70.6699861283" lon="27.7647855452">
		<tag k="name" v="Gállojohka" />
		<tag k="name:se" v="Gállojohka" />
		<tag k="ssr:stedsnr" v="455216" />
		<tag k="waterway" v="river" />
	</node>
	<node id="-907213" lat="71.0559805694" lon="28.0492716422">
		<tag k="name" v="Falkevatna" />
		<tag k="natural" v="water" />
		<tag k="ssr:stedsnr" v="146846" />
		<tag k="water" v="lake" />
	</node>
	<node id="-907212" lat="71.0411444557" lon="27.9647799999">
		<tag k="name" v="Odd-Arneelva" />
		<tag k="ssr:stedsnr" v="146998" />
		<tag k="waterway" v="stream" />
	</node>
	<node id="-906658" lat="71.0736277908" lon="28.2073327253">
		<tag k="alt_name" v="Elvevågelva" />
		<tag k="name" v="Gamvikelva" />
		<tag k="ssr:stedsnr" v="444438" />
		<tag k="waterway" v="river" />
	</node>
	<node id="-907209" lat="71.0217333435" lon="27.8548772454">
		<tag k="name" v="Lillemiddagsvannet" />
		<tag k="natural" v="water" />
		<tag k="ssr:stedsnr" v="146978" />
	</node>
	<node id="-906696" lat="71.0149139025" lon="27.8277550217">
		<tag k="name" v="Hesteskovannet" />
		<tag k="natural" v="water" />
		<tag k="ssr:stedsnr" v="450988" />
		<tag k="water" v="lake" />
	</node>
	<node id="-907205" lat="71.0381583447" lon="28.1687994009">
		<tag k="name" v="Hestevannet" />
		<tag k="natural" v="water" />
		<tag k="ssr:stedsnr" v="146822" />
	</node>
	<node id="-907204" lat="71.0771000142" lon="28.1694466311">
		<tag k="name" v="Mellavannet" />
		<tag k="natural" v="water" />
		<tag k="ssr:stedsnr" v="146817" />
	</node>
	<node id="-906693" lat="70.8161083442" lon="28.0316632857">
		<tag k="fixme" v="multiple name tags, choose one and add the other to alt_name" />
		<tag k="name" v="Holmvatnet;Storvatnet" />
		<tag k="natural" v="water" />
		<tag k="ssr:stedsnr" v="450737" />
		<tag k="water" v="lake" />
	</node>
	<node id="-906680" lat="70.8392083504" lon="27.9519299699">
		<tag k="name" v="Attenholmvannet" />
		<tag k="natural" v="water" />
		<tag k="ssr:stedsnr" v="445876" />
		<tag k="water" v="lake" />
	</node>
	<node id="-906740" lat="71.0236611237" lon="28.1328716369">
		<tag k="name" v="Østre Semmelvannet" />
		<tag k="natural" v="water" />
		<tag k="ssr:stedsnr" v="389878" />
		<tag k="water" v="lake" />
	</node>
	<node id="-906677" lat="70.8248138994" lon="27.7985244473">
		<tag k="name" v="Gutormvannet" />
		<tag k="natural" v="water" />
		<tag k="ssr:stedsnr" v="445852" />
		<tag k="water" v="lake" />
	</node>
	<node id="-907188" lat="70.8648083448" lon="27.8372438924">
		<tag k="name" v="Vestvatna" />
		<tag k="natural" v="water" />
		<tag k="ssr:stedsnr" v="141828" />
	</node>
	<node id="-906675" lat="70.6019972366" lon="27.5013578218">
		<tag k="name" v="Viakulpen" />
		<tag k="place" v="locality" />
		<tag k="ssr:stedsnr" v="445744" />
	</node>
	<node id="-907185" lat="70.6138611279" lon="27.5577050248">
		<tag k="name" v="Nedre Tverrelva" />
		<tag k="old_name" v="Tverrelva, nedre" />
		<tag k="ssr:stedsnr" v="141681" />
		<tag k="waterway" v="stream" />
	</node>
	<node id="-907183" lat="71.0448139015" lon="28.1739521825">
		<tag k="fixme" v="multiple name tags, choose one and add the other to alt_name" />
		<tag k="name" v="Kjelvatnet;Store Ørretvatn" />
		<tag k="natural" v="water" />
		<tag k="ssr:stedsnr" v="141441" />
	</node>
	<node id="-907579" lat="70.7761027935" lon="27.7733605591">
		<tag k="name" v="Ytterelva" />
		<tag k="ssr:stedsnr" v="809904" />
		<tag k="waterway" v="stream" />
	</node>
	<node id="-907181" lat="71.055775018" lon="28.215354944">
		<tag k="name" v="Holmevannet" />
		<tag k="natural" v="water" />
		<tag k="ssr:stedsnr" v="141428" />
		<tag k="water" v="lake" />
	</node>
	<node id="-906668" lat="70.6504527885" lon="27.719035558">
		<tag k="name" v="Sukkertoppvannet" />
		<tag k="natural" v="water" />
		<tag k="ssr:stedsnr" v="445293" />
	</node>
	<node id="-907179" lat="71.0347194593" lon="27.9272661369">
		<tag k="name" v="Storvannet" />
		<tag k="natural" v="water" />
		<tag k="ssr:stedsnr" v="141408" />
		<tag k="water" v="lake" />
	</node>
	<node id="-907177" lat="70.7123444601" lon="28.0019521518">
		<tag k="alt_name" v="Sauevatnet, store" />
		<tag k="name" v="Storsauvatnet" />
		<tag k="natural" v="water" />
		<tag k="ssr:stedsnr" v="141318" />
	</node>
	<node id="-907175" lat="70.7209611243" lon="27.6221605817">
		<tag k="alt_name:no" v="Skogfjordelva, store" />
		<tag k="name" v="Store Skogfjordelva - Ráššavuolesjohka" />
		<tag k="name:no" v="Store Skogfjordelva" />
		<tag k="name:se" v="Ráššavuolesjohka" />
		<tag k="old_name:se" v="Raššavuolesjåkka" />
		<tag k="ssr:stedsnr" v="141308" />
		<tag k="waterway" v="river" />
	</node>
	<node id="-907174" lat="70.6458722348" lon="27.7626605487">
		<tag k="name" v="Ráigejohka" />
		<tag k="name:se" v="Ráigejohka" />
		<tag k="old_name:se" v="Raigejåkka" />
		<tag k="ssr:stedsnr" v="141297" />
		<tag k="waterway" v="stream" />
	</node>
	<node id="-906660" lat="71.0849416813" lon="28.223727173">
		<tag k="name" v="Siket" />
		<tag k="ssr:stedsnr" v="444452" />
		<tag k="waterway" v="stream" />
	</node>
	<node id="-907171" lat="70.4928916834" lon="27.3961356124">
		<tag k="name" v="Langfjordelva - Lákkojohka" />
		<tag k="name:no" v="Langfjordelva" />
		<tag k="name:se" v="Lákkojohka" />
		<tag k="old_name:se" v="Laggujåkka" />
		<tag k="ssr:stedsnr" v="141229" />
		<tag k="waterway" v="river" />
	</node>
	<node id="-907170" lat="70.4704527937" lon="27.5425855648">
		<tag k="name" v="Devkkešjávri" />
		<tag k="name:se" v="Devkkešjávri" />
		<tag k="natural" v="water" />
		<tag k="old_name:se" v="Devkešjavri" />
		<tag k="ssr:stedsnr" v="141216" />
		<tag k="water" v="lake" />
	</node>
	<node id="-907168" lat="70.943602791" lon="27.6959522768">
		<tag k="name" v="Austvestvannet" />
		<tag k="natural" v="water" />
		<tag k="ssr:stedsnr" v="140834" />
	</node>
	<node id="-906655" lat="70.6260666841" lon="27.6306300227">
		<tag k="name" v="Lillelva" />
		<tag k="ssr:stedsnr" v="212637" />
		<tag k="waterway" v="stream" />
	</node>
	<node id="-906653" lat="70.6572333481" lon="27.7654355482">
		<tag k="name" v="Nedre Jernelv - Vuollruovdi" />
		<tag k="name:no" v="Nedre Jernelv" />
		<tag k="name:se" v="Vuollruovdi" />
		<tag k="ssr:stedsnr" v="212228" />
		<tag k="waterway" v="stream" />
	</node>
	<node id="-907161" lat="70.8191361252" lon="27.987460505">
		<tag k="name" v="Kaneselva" />
		<tag k="ssr:stedsnr" v="93793" />
		<tag k="waterway" v="stream" />
	</node>
	<node id="-907158" lat="70.7077611239" lon="28.0564854849">
		<tag k="name" v="Råttvannet" />
		<tag k="natural" v="water" />
		<tag k="ssr:stedsnr" v="91224" />
	</node>
	<node id="-907156" lat="70.7223694619" lon="28.068843806">
		<tag k="name" v="Sigurdvannet" />
		<tag k="natural" v="water" />
		<tag k="ssr:stedsnr" v="91207" />
	</node>
	<node id="-906845" lat="70.4140277955" lon="27.4731022475">
		<tag k="name" v="Gurrojohka" />
		<tag k="name:se" v="Gurrojohka" />
		<tag k="old_name:se" v="Gurrujåkka" />
		<tag k="ssr:stedsnr" v="687548" />
		<tag k="waterway" v="river" />
	</node>
	<node id="-906642" lat="70.6567416841" lon="27.7558938889">
		<tag k="name" v="Øvre Jernelv - Badjeruovdi" />
		<tag k="name:no" v="Øvre Jernelv" />
		<tag k="name:se" v="Badjeruovdi" />
		<tag k="ssr:stedsnr" v="273236" />
		<tag k="waterway" v="stream" />
	</node>
	<node id="-906563" lat="70.7735694614" lon="27.7509494517">
		<tag k="alt_name" v="Metterelva" />
		<tag k="name" v="Mellomelva" />
		<tag k="ssr:stedsnr" v="81902" />
		<tag k="waterway" v="stream" />
	</node>
	<node id="-907152" lat="71.0254888999" lon="27.8783966736">
		<tag k="name" v="Vannverksvannet" />
		<tag k="natural" v="water" />
		<tag k="ssr:stedsnr" v="86990" />
	</node>
	<node id="-906639" lat="71.0073305649" lon="28.0661772032">
		<tag k="name" v="Rørvannet" />
		<tag k="natural" v="water" />
		<tag k="ssr:stedsnr" v="140817" />
	</node>
	<node id="-906638" lat="70.9589833465" lon="27.9170827879">
		<tag k="name" v="Langvannet" />
		<tag k="natural" v="water" />
		<tag k="ssr:stedsnr" v="140814" />
		<tag k="water" v="lake" />
	</node>
	<node id="-907245" lat="71.0754777875" lon="28.1886021709">
		<tag k="name" v="Gamvikvannet" />
		<tag k="natural" v="water" />
		<tag k="ssr:stedsnr" v="202461" />
	</node>
	<node id="-906562" lat="70.9203277937" lon="27.9078633238">
		<tag k="name" v="Sandfjordelva - Sáttovuonjohka" />
		<tag k="name:no" v="Sandfjordelva" />
		<tag k="name:se" v="Sáttovuonjohka" />
		<tag k="old_name:se" v="Saddunvuonjåkka;Sattovuonjohka" />
		<tag k="ssr:stedsnr" v="80509" />
		<tag k="waterway" v="river" />
	</node>
	<node id="-907146" lat="71.0351388978" lon="27.8055300392">
		<tag k="name" v="Elvevikelva" />
		<tag k="ssr:stedsnr" v="86001" />
		<tag k="waterway" v="river" />
	</node>
	<node id="-907415" lat="71.0455722349" lon="28.0675910975">
		<tag k="name" v="Anderselva" />
		<tag k="ssr:stedsnr" v="570833" />
		<tag k="waterway" v="river" />
	</node>
	<node id="-906632" lat="71.0264166793" lon="27.9783522099">
		<tag k="name" v="Fritjofvannet" />
		<tag k="natural" v="water" />
		<tag k="ssr:stedsnr" v="268983" />
		<tag k="water" v="lake" />
	</node>
	<node id="-906732" lat="70.7890694608" lon="27.7449689133">
		<tag k="name" v="Innerelva" />
		<tag k="ssr:stedsnr" v="384865" />
		<tag k="waterway" v="stream" />
	</node>
	<node id="-907141" lat="70.8020027951" lon="28.0749910463">
		<tag k="name" v="Breivikvannet" />
		<tag k="natural" v="water" />
		<tag k="ssr:stedsnr" v="85633" />
	</node>
	<node id="-907414" lat="70.799669463" lon="28.0397799348">
		<tag k="name" v="Hopsnesvatna" />
		<tag k="natural" v="water" />
		<tag k="ssr:stedsnr" v="570698" />
	</node>
	<node id="-907137" lat="70.8110361293" lon="27.8056827777">
		<tag k="alt_name" v="Gutormelva, nordre" />
		<tag k="fixme" v="multiple name tags, choose one and add the other to alt_name" />
		<tag k="name" v="Gutterelva;Guttormelva;Nordre Gutormelva" />
		<tag k="ssr:stedsnr" v="81873" />
		<tag k="waterway" v="stream" />
	</node>
	<node id="-907135" lat="70.6816305664" lon="27.6117911251">
		<tag k="name" v="Skogfjordvannet - Ráššavuolesjávri" />
		<tag k="name:no" v="Skogfjordvannet" />
		<tag k="name:se" v="Ráššavuolesjávri" />
		<tag k="natural" v="water" />
		<tag k="old_name:se" v="Raššavuolesjavri" />
		<tag k="ssr:stedsnr" v="81697" />
		<tag k="water" v="lake" />
	</node>
	<node id="-906621" lat="70.8043805679" lon="28.1329299089">
		<tag k="name" v="Lillevannet" />
		<tag k="natural" v="water" />
		<tag k="ssr:stedsnr" v="267679" />
	</node>
	<node id="-907127" lat="70.4731666807" lon="27.491118911">
		<tag k="name" v="Njivloskáidi" />
		<tag k="name:se" v="Njivloskáidi" />
		<tag k="natural" v="cape" />
		<tag k="old_name:se" v="Njivluskaidi" />
		<tag k="ssr:stedsnr" v="81234" />
	</node>
	<node id="-907126" lat="70.8263916777" lon="27.7646772321">
		<tag k="name" v="Hestevannet - Nuorejávri" />
		<tag k="name:no" v="Hestevannet" />
		<tag k="name:se" v="Nuorejávri" />
		<tag k="natural" v="water" />
		<tag k="old_name:se" v="Nuorejavri" />
		<tag k="ssr:stedsnr" v="80875" />
		<tag k="water" v="lake" />
	</node>
	<node id="-907125" lat="70.8274389053" lon="28.1046632533">
		<tag k="alt_name" v="Forsvatnet" />
		<tag k="name" v="Fossvatnet" />
		<tag k="natural" v="water" />
		<tag k="ssr:stedsnr" v="80861" />
	</node>
	<node id="-907124" lat="70.8256000132" lon="28.0695604812">
		<tag k="name" v="Sandfjellvannet" />
		<tag k="natural" v="water" />
		<tag k="ssr:stedsnr" v="80859" />
	</node>
	<node id="-907123" lat="70.977233347" lon="27.8823522447">
		<tag k="name" v="Hysvannet" />
		<tag k="natural" v="water" />
		<tag k="ssr:stedsnr" v="80834" />
		<tag k="water" v="lake" />
	</node>
	<node id="-907120" lat="70.5926055736" lon="27.5049744768">
		<tag k="name" v="Sløkelva" />
		<tag k="ssr:stedsnr" v="80726" />
		<tag k="waterway" v="stream" />
	</node>
	<node id="-906605" lat="70.6041305727" lon="27.5040300333">
		<tag k="name" v="Otlykulpen" />
		<tag k="place" v="locality" />
		<tag k="ssr:stedsnr" v="263728" />
	</node>
	<node id="-907116" lat="70.8002472339" lon="27.8574271927">
		<tag k="name" v="Kuelva" />
		<tag k="ssr:stedsnr" v="32861" />
		<tag k="waterway" v="stream" />
	</node>
	<node id="-907627" lat="70.9799750153" lon="28.50967985">
		<tag k="alt_name" v="Skinnstakkelva" />
		<tag k="name" v="Skinnstakkbekken" />
		<tag k="ssr:stedsnr" v="870899" />
		<tag k="waterway" v="stream" />
	</node>
	<node id="-907321" lat="71.0375277891" lon="27.9087161251">
		<tag k="name" v="Elvevikvannet" />
		<tag k="natural" v="water" />
		<tag k="ssr:stedsnr" v="328999" />
	</node>
	<node id="-907113" lat="70.6729750146" lon="27.8456355272">
		<tag k="name" v="Sommerheimvannet" />
		<tag k="natural" v="water" />
		<tag k="ssr:stedsnr" v="30256" />
		<tag k="water" v="lake" />
	</node>
	<node id="-907623" lat="71.0353444532" lon="27.7618633677">
		<tag k="name" v="Steinfjordvatna" />
		<tag k="natural" v="water" />
		<tag k="ssr:stedsnr" v="870436" />
		<tag k="water" v="lake" />
	</node>
	<node id="-907622" lat="70.4569611288" lon="27.4927577909">
		<tag k="name" v="Devkkešjohka" />
		<tag k="name:se" v="Devkkešjohka" />
		<tag k="old_name:se" v="Devkešjåkka" />
		<tag k="ssr:stedsnr" v="870234" />
		<tag k="waterway" v="stream" />
	</node>
	<node id="-907621" lat="70.4511416823" lon="27.5029994463">
		<tag k="name" v="Devkkešskáidi" />
		<tag k="name:se" v="Devkkešskáidi" />
		<tag k="natural" v="cape" />
		<tag k="old_name:se" v="Devkešskaidi" />
		<tag k="ssr:stedsnr" v="870229" />
	</node>
	<node id="-907619" lat="70.5812972403" lon="27.4754856004">
		<tag k="name" v="Jasajohka" />
		<tag k="name:se" v="Jasajohka" />
		<tag k="old_name:se" v="Jasajåkka" />
		<tag k="ssr:stedsnr" v="869754" />
		<tag k="waterway" v="stream" />
	</node>
	<node id="-907105" lat="71.0552361239" lon="28.0408133206">
		<tag k="name" v="Falkvasselva" />
		<tag k="ssr:stedsnr" v="25852" />
		<tag k="waterway" v="river" />
	</node>
	<node id="-907104" lat="71.0781889028" lon="28.185721626">
		<tag k="name" v="Kråkevatnan" />
		<tag k="natural" v="water" />
		<tag k="ssr:stedsnr" v="25840" />
	</node>
	<node id="-906591" lat="70.6052666806" lon="27.658118881">
		<tag k="name" v="Bokkuselva - Bohkošjohka" />
		<tag k="name:no" v="Bokkuselva" />
		<tag k="name:se" v="Bohkošjohka" />
		<tag k="old_name:se" v="Båkkušjåkka" />
		<tag k="ssr:stedsnr" v="263116" />
		<tag k="waterway" v="river" />
	</node>
	<node id="-906590" lat="70.8338750189" lon="27.902824424">
		<tag k="name" v="Ivarsfjordvatna" />
		<tag k="natural" v="water" />
		<tag k="ssr:stedsnr" v="262886" />
	</node>
	<node id="-907613" lat="71.0526444548" lon="27.953477217">
		<tag k="alt_name" v="Skjettenfjordvatnet" />
		<tag k="name" v="Skittenfjordvatnet" />
		<tag k="natural" v="water" />
		<tag k="ssr:stedsnr" v="869477" />
		<tag k="water" v="lake" />
	</node>
	<node id="-906587" lat="70.9454027876" lon="27.7429994903">
		<tag k="name" v="Rundvannet" />
		<tag k="natural" v="water" />
		<tag k="ssr:stedsnr" v="262870" />
	</node>
	<node id="-906586" lat="70.9791361264" lon="27.9230022309">
		<tag k="alt_name" v="Børstingen, l" />
		<tag k="name" v="Lille Børstingen" />
		<tag k="natural" v="water" />
		<tag k="ssr:stedsnr" v="262858" />
	</node>
	<node id="-907608" lat="70.730772238" lon="28.0981021236">
		<tag k="name" v="Loddebuktvannet" />
		<tag k="natural" v="water" />
		<tag k="ssr:stedsnr" v="869332" />
	</node>
	<node id="-906583" lat="70.5953139008" lon="27.5742716835">
		<tag k="name" v="Søndre Tverrelva" />
		<tag k="old_name" v="Tverrelva, s" />
		<tag k="ssr:stedsnr" v="262753" />
		<tag k="waterway" v="river" />
	</node>
	<node id="-906582" lat="70.7644889068" lon="27.7466744501">
		<tag k="name" v="Tverrelva" />
		<tag k="ssr:stedsnr" v="262527" />
		<tag k="waterway" v="river" />
	</node>
	<node id="-907093" lat="70.8226944601" lon="28.0896410533">
		<tag k="alt_name" v="Sløykvatnet" />
		<tag k="name" v="Sløkvatnet" />
		<tag k="natural" v="water" />
		<tag k="ssr:stedsnr" v="20855" />
	</node>
	<node id="-907092" lat="70.9900083483" lon="27.7952022572">
		<tag k="name" v="Ostebakkvannet" />
		<tag k="natural" v="water" />
		<tag k="ssr:stedsnr" v="20837" />
	</node>
	<node id="-907603" lat="70.8286333494" lon="27.944682756">
		<tag k="name" v="Vae" />
		<tag k="natural" v="water" />
		<tag k="ssr:stedsnr" v="821848" />
	</node>
	<node id="-906723" lat="71.0411750143" lon="28.1149855277">
		<tag k="name" v="Kuvannet" />
		<tag k="natural" v="water" />
		<tag k="ssr:stedsnr" v="328925" />
	</node>
	<node id="-906574" lat="71.0374250152" lon="28.0052327596">
		<tag k="name" v="Futelvdammen" />
		<tag k="natural" v="water" />
		<tag k="ssr:stedsnr" v="86946" />
	</node>
	<node id="-906565" lat="70.9833194585" lon="28.4730243046">
		<tag k="name" v="Risdalselva" />
		<tag k="ssr:stedsnr" v="81914" />
		<tag k="waterway" v="river" />
	</node>
	<node id="-907075" lat="71.022027794" lon="28.1643354995">
		<tag k="name" v="Simmelvatna" />
		<tag k="natural" v="water" />
		<tag k="ssr:stedsnr" v="20387" />
	</node>
	<node id="-907074" lat="71.0088000154" lon="28.0083216569">
		<tag k="name" v="Holmekulpen" />
		<tag k="place" v="locality" />
		<tag k="ssr:stedsnr" v="20381" />
	</node>
	<node id="-906558" lat="71.0397361283" lon="28.144991077">
		<tag k="name" v="Urvannet" />
		<tag k="natural" v="water" />
		<tag k="ssr:stedsnr" v="25918" />
	</node>
	<node id="-906555" lat="71.0226000095" lon="27.8296189138">
		<tag k="name" v="Fossholla" />
		<tag k="natural" v="water" />
		<tag k="ssr:stedsnr" v="25111" />
		<tag k="water" v="lake" />
	</node>
	<node id="-906554" lat="70.9913000202" lon="28.4264826536">
		<tag k="alt_name" v="Breidvikelva" />
		<tag k="name" v="Breidvikbekken" />
		<tag k="ssr:stedsnr" v="20512" />
		<tag k="waterway" v="river" />
	</node>
	<node id="-907055" lat="70.9714250182" lon="28.427885424">
		<tag k="name" v="Ålan" />
		<tag k="natural" v="water" />
		<tag k="ssr:stedsnr" v="930905" />
	</node>
	<node id="-907563" lat="71.0035222362" lon="28.0326994256">
		<tag k="name" v="Kløftvannet" />
		<tag k="natural" v="water" />
		<tag k="ssr:stedsnr" v="809406" />
		<tag k="water" v="lake" />
	</node>
	<node id="-907561" lat="70.6433916862" lon="28.0084521555">
		<tag k="name" v="Gistojohka" />
		<tag k="name:se" v="Gistojohka" />
		<tag k="old_name:se" v="Gistujåkka" />
		<tag k="ssr:stedsnr" v="809281" />
		<tag k="waterway" v="river" />
	</node>
	<node id="-907048" lat="71.0301194517" lon="27.8864411309">
		<tag k="name" v="Lillevassdalvannet" />
		<tag k="natural" v="water" />
		<tag k="ssr:stedsnr" v="874974" />
	</node>
	<node id="-907554" lat="71.0824583488" lon="28.2200410521">
		<tag k="name" v="Kvannevannet" />
		<tag k="natural" v="water" />
		<tag k="ssr:stedsnr" v="814833" />
	</node>
	<node id="-906715" lat="71.0132833472" lon="27.8104022565">
		<tag k="name" v="Myrvannet" />
		<tag k="natural" v="water" />
		<tag k="ssr:stedsnr" v="268017" />
		<tag k="water" v="lake" />
	</node>
	<node id="-907552" lat="71.0169889031" lon="27.7814716942">
		<tag k="name" v="Sørfjordelva" />
		<tag k="ssr:stedsnr" v="809126" />
		<tag k="waterway" v="river" />
	</node>
	<node id="-907551" lat="70.9416083471" lon="28.058232756">
		<tag k="name" v="Krokvannet" />
		<tag k="natural" v="water" />
		<tag k="ssr:stedsnr" v="808834" />
	</node>
	<node id="-907550" lat="70.9934833419" lon="27.95185222">
		<tag k="name" v="Blinkvannet" />
		<tag k="natural" v="water" />
		<tag k="ssr:stedsnr" v="808820" />
	</node>
	<node id="-907548" lat="70.8197111266" lon="28.1049021501">
		<tag k="name" v="Storelva - Hoassa" />
		<tag k="name:no" v="Storelva" />
		<tag k="name:se" v="Hoassa" />
		<tag k="ssr:stedsnr" v="808491" />
		<tag k="waterway" v="river" />
	</node>
	<node id="-907035" lat="70.6059861283" lon="27.5094244926">
		<tag k="name" v="Bergekulpen" />
		<tag k="place" v="locality" />
		<tag k="ssr:stedsnr" v="870722" />
	</node>
	<node id="-907034" lat="70.6224083435" lon="27.4557745006">
		<tag k="name" v="Øvre Tverrelva - Gavdnjajohka" />
		<tag k="name:no" v="Øvre Tverrelva" />
		<tag k="name:se" v="Gavdnjajohka" />
		<tag k="old_name:no" v="Tverrelva, øvre" />
		<tag k="old_name:se" v="Gavdnjajåkka" />
		<tag k="ssr:stedsnr" v="870712" />
		<tag k="waterway" v="stream" />
	</node>
	<node id="-907033" lat="70.6321083479" lon="27.5961578068">
		<tag k="name" v="Langvannet" />
		<tag k="natural" v="water" />
		<tag k="ssr:stedsnr" v="870709" />
	</node>
	<node id="-906909" lat="71.0168194534" lon="27.7933800307">
		<tag k="name" v="Rundhaugvannet" />
		<tag k="natural" v="water" />
		<tag k="ssr:stedsnr" v="631012" />
		<tag k="water" v="lake" />
	</node>
	<node id="-907540" lat="71.0249500106" lon="27.929007798">
		<tag k="name" v="Runevannet" />
		<tag k="natural" v="water" />
		<tag k="ssr:stedsnr" v="753957" />
	</node>
	<node id="-907539" lat="71.0604805663" lon="27.9599827696">
		<tag k="name" v="Skjettenfjordelva" />
		<tag k="ssr:stedsnr" v="753954" />
		<tag k="waterway" v="river" />
	</node>
	<node id="-907026" lat="70.8093444612" lon="27.7403828067">
		<tag k="alt_name" v="Pakkhuselva" />
		<tag k="name" v="Pakkhusdalelva" />
		<tag k="ssr:stedsnr" v="869868" />
		<tag k="waterway" v="river" />
	</node>
	<node id="-907025" lat="70.824027795" lon="27.9803994106">
		<tag k="name" v="Vårelva" />
		<tag k="ssr:stedsnr" v="869865" />
		<tag k="waterway" v="stream" />
	</node>
	<node id="-907318" lat="71.0249472311" lon="27.949532788">
		<tag k="name" v="Gunnarvannet" />
		<tag k="natural" v="water" />
		<tag k="ssr:stedsnr" v="328963" />
		<tag k="water" v="lake" />
	</node>
	<node id="-907606" lat="70.7382500149" lon="27.9509049451">
		<tag k="alt_name" v="Skogfjordelva, l" />
		<tag k="name" v="Lille Skogfjordelva" />
		<tag k="ssr:stedsnr" v="869328" />
		<tag k="waterway" v="river" />
	</node>
	<node id="-907017" lat="71.0177305694" lon="27.840110594">
		<tag k="name" v="Øverdalsravannet" />
		<tag k="natural" v="water" />
		<tag k="ssr:stedsnr" v="935981" />
	</node>
	<node id="-907308" lat="70.8239305734" lon="28.0739688289">
		<tag k="name" v="Tredje Olarsavannet" />
		<tag k="natural" v="water" />
		<tag k="ssr:stedsnr" v="328726" />
		<tag k="water" v="lake" />
	</node>
	<node id="-907014" lat="71.0359138984" lon="28.0685716535">
		<tag k="name" v="Middagstuvannet" />
		<tag k="natural" v="water" />
		<tag k="ssr:stedsnr" v="935955" />
		<tag k="water" v="lake" />
	</node>
	<node id="-907525" lat="71.0583805655" lon="28.1916466194">
		<tag k="name" v="Astribakkvatnene" />
		<tag k="natural" v="water" />
		<tag k="ssr:stedsnr" v="752812" />
	</node>
	<node id="-907524" lat="71.0524750173" lon="28.1709966247">
		<tag k="name" v="Lille Grytvannet" />
		<tag k="natural" v="water" />
		<tag k="ssr:stedsnr" v="752780" />
	</node>
	<node id="-907010" lat="71.0588389031" lon="28.0340577798">
		<tag k="name" v="Store Falkevannet" />
		<tag k="natural" v="water" />
		<tag k="ssr:stedsnr" v="935861" />
		<tag k="water" v="lake" />
	</node>
	<node id="-907521" lat="70.8710027912" lon="27.7116550301">
		<tag k="name" v="Aslakvatna" />
		<tag k="natural" v="water" />
		<tag k="ssr:stedsnr" v="748839" />
		<tag k="water" v="lake" />
	</node>
	<node id="-907515" lat="70.6040222389" lon="27.4641522806">
		<tag k="name" v="Gavdnjaskáidi" />
		<tag k="name:se" v="Gavdnjaskáidi" />
		<tag k="natural" v="cape" />
		<tag k="old_name:se" v="Gavdnjaskaidi" />
		<tag k="ssr:stedsnr" v="748734" />
	</node>
	<node id="-907510" lat="71.0482805682" lon="28.2310021592">
		<tag k="name" v="Tverrvikelva" />
		<tag k="ssr:stedsnr" v="748438" />
		<tag k="waterway" v="river" />
	</node>
	<node id="-907509" lat="71.0382389016" lon="27.708424489">
		<tag k="name" v="Kobbvågvatna" />
		<tag k="natural" v="water" />
		<tag k="ssr:stedsnr" v="748434" />
		<tag k="water" v="lake" />
	</node>
	<node id="-907506" lat="71.0643055706" lon="28.1930021778">
		<tag k="alt_name" v="Holmevatnet, l" />
		<tag k="fixme" v="multiple name tags, choose one and add the other to alt_name" />
		<tag k="name" v="Tverrelvvatnet;Lille Holmevatnet" />
		<tag k="natural" v="water" />
		<tag k="ssr:stedsnr" v="748423" />
	</node>
	<node id="-906707" lat="70.8204361285" lon="27.9271910858">
		<tag k="name" v="Svartsiket" />
		<tag k="natural" v="water" />
		<tag k="ssr:stedsnr" v="457832" />
	</node>
	<node id="-907560" lat="70.6369555655" lon="27.6693327897">
		<tag k="name" v="Kobbelva - Deavutjohka" />
		<tag k="name:no" v="Kobbelva" />
		<tag k="name:se" v="Deavutjohka" />
		<tag k="old_name:se" v="Dævotjåkka" />
		<tag k="ssr:stedsnr" v="809279" />
		<tag k="waterway" v="river" />
	</node>
	<node id="-907502" lat="70.6675861243" lon="27.7936022099">
		<tag k="alt_name" v="Sommerheimelva" />
		<tag k="name" v="Sommarheimelva" />
		<tag k="ssr:stedsnr" v="748285" />
		<tag k="waterway" v="river" />
	</node>
	<node id="-906988" lat="70.9382027962" lon="28.154141048">
		<tag k="name" v="Koifjordvannet" />
		<tag k="natural" v="water" />
		<tag k="ssr:stedsnr" v="930853" />
		<tag k="water" v="lake" />
	</node>
	<node id="-907499" lat="70.9538944596" lon="27.907682788">
		<tag k="name" v="Båtstøa" />
		<tag k="natural" v="cape" />
		<tag k="ssr:stedsnr" v="747839" />
	</node>
	<node id="-907498" lat="70.9948916793" lon="27.9079272234">
		<tag k="name" v="Futelva" />
		<tag k="ssr:stedsnr" v="747825" />
		<tag k="waterway" v="river" />
	</node>
	<node id="-906985" lat="70.8144916859" lon="28.0603132659">
		<tag k="name" v="Første Olarsavannet" />
		<tag k="natural" v="water" />
		<tag k="ssr:stedsnr" v="814754" />
		<tag k="water" v="lake" />
	</node>
	<node id="-906983" lat="71.0500861209" lon="28.0205827546">
		<tag k="name" v="Futelvdammen" />
		<tag k="natural" v="water" />
		<tag k="ssr:stedsnr" v="814856" />
	</node>
	<node id="-907494" lat="70.6304972421" lon="27.7084133187">
		<tag k="name" v="Harelva" />
		<tag k="ssr:stedsnr" v="637666" />
		<tag k="waterway" v="stream" />
	</node>
	<node id="-907493" lat="70.6614555693" lon="27.8451244095">
		<tag k="name" v="Lillomvannet" />
		<tag k="natural" v="water" />
		<tag k="ssr:stedsnr" v="636249" />
	</node>
	<node id="-906980" lat="71.0855083432" lon="28.1789632912">
		<tag k="name" v="Torvevannet" />
		<tag k="natural" v="water" />
		<tag k="ssr:stedsnr" v="930484" />
	</node>
	<node id="-907471" lat="70.5534444585" lon="27.6323161026">
		<tag k="name" v="Bohkošjávrrit" />
		<tag k="name:se" v="Bohkošjávrrit" />
		<tag k="natural" v="water" />
		<tag k="old_name:se" v="Båkkušjavrit" />
		<tag k="ssr:stedsnr" v="627287" />
		<tag k="water" v="lake" />
	</node>
	<node id="-906967" lat="70.6168111229" lon="27.6611188892">
		<tag k="name" v="Jernelva" />
		<tag k="ssr:stedsnr" v="930277" />
		<tag k="waterway" v="stream" />
	</node>
	<node id="-907477" lat="71.0540389037" lon="28.2325021592">
		<tag k="name" v="Kvalvikvannet" />
		<tag k="natural" v="water" />
		<tag k="ssr:stedsnr" v="631791" />
	</node>
	<node id="-906964" lat="70.7367000146" lon="27.7376549996">
		<tag k="name" v="Børseelva" />
		<tag k="ssr:stedsnr" v="809320" />
		<tag k="waterway" v="stream" />
	</node>
	<node id="-906634" lat="70.6303277939" lon="27.8761327193">
		<tag k="name" v="Myrelva" />
		<tag k="ssr:stedsnr" v="268993" />
		<tag k="waterway" v="stream" />
	</node>
	<node id="-906960" lat="70.6214333525" lon="27.629699453">
		<tag k="name" v="Småvatnan" />
		<tag k="natural" v="water" />
		<tag k="ssr:stedsnr" v="758661" />
	</node>
	<node id="-906959" lat="70.6143916822" lon="27.5868550184">
		<tag k="name" v="Jensenkulpen" />
		<tag k="place" v="locality" />
		<tag k="ssr:stedsnr" v="758654" />
	</node>
	<node id="-906701" lat="70.7224444625" lon="28.0867354622">
		<tag k="name" v="Råttvannet" />
		<tag k="natural" v="water" />
		<tag k="ssr:stedsnr" v="455198" />
	</node>
	<node id="-906700" lat="71.0320250095" lon="27.7699994823">
		<tag k="name" v="Steinfjordvannet" />
		<tag k="natural" v="water" />
		<tag k="ssr:stedsnr" v="454899" />
		<tag k="water" v="lake" />
	</node>
	<node id="-907462" lat="70.9442139039" lon="28.0091188798">
		<tag k="name" v="Stjernevatna - Niestejávrrit" />
		<tag k="name:no" v="Stjernevatna" />
		<tag k="name:se" v="Niestejávrrit" />
		<tag k="natural" v="water" />
		<tag k="old_name:se" v="Niestejavrit" />
		<tag k="ssr:stedsnr" v="626852" />
		<tag k="water" v="lake" />
	</node>
	<node id="-907461" lat="70.8759555704" lon="27.8784105448">
		<tag k="name" v="Bullevannet" />
		<tag k="natural" v="water" />
		<tag k="ssr:stedsnr" v="626849" />
	</node>
	<node id="-906948" lat="70.8172305658" lon="27.9356688609">
		<tag k="alt_name:no" v="Iversfjordelva" />
		<tag k="name" v="Ivarsfjordelva - Vuoiddasvuonjohka" />
		<tag k="name:no" v="Ivarsfjordelva" />
		<tag k="name:se" v="Vuoiddasvuonjohka" />
		<tag k="old_name:se" v="Vuoidasvuonjåkka" />
		<tag k="ssr:stedsnr" v="748856" />
		<tag k="waterway" v="river" />
	</node>
	<node id="-907459" lat="70.9531083488" lon="27.8251633547">
		<tag k="alt_name" v="Holmevatnet, austre" />
		<tag k="name" v="Austre Holmevatnet" />
		<tag k="natural" v="water" />
		<tag k="ssr:stedsnr" v="626837" />
	</node>
	<node id="-906946" lat="70.6627527902" lon="27.4777745001">
		<tag k="name" v="Suolojávri" />
		<tag k="name:se" v="Suolojávri" />
		<tag k="natural" v="water" />
		<tag k="old_name:se" v="Suolujavri" />
		<tag k="ssr:stedsnr" v="748707" />
		<tag k="water" v="lake" />
	</node>
	<node id="-906942" lat="70.6047527909" lon="27.8456243874">
		<tag k="name" v="Holmsvikelva" />
		<tag k="ssr:stedsnr" v="748258" />
		<tag k="waterway" v="river" />
	</node>
	<node id="-906940" lat="70.7490277901" lon="27.988024384">
		<tag k="name" v="Tverrelva" />
		<tag k="ssr:stedsnr" v="748316" />
		<tag k="waterway" v="stream" />
	</node>
	<node id="-907450" lat="71.0379805671" lon="28.1288382897">
		<tag k="alt_name" v="Urdvatna" />
		<tag k="name" v="Urvatnene" />
		<tag k="natural" v="water" />
		<tag k="ssr:stedsnr" v="626455" />
	</node>
	<node id="-907446" lat="71.0157472316" lon="27.8799078054">
		<tag k="fixme" v="multiple name tags, choose one and add the other to alt_name" />
		<tag k="name" v="Middagsvatnet;Stormiddagsvatnet" />
		<tag k="natural" v="water" />
		<tag k="ssr:stedsnr" v="626424" />
		<tag k="water" v="lake" />
	</node>
	<node id="-906931" lat="71.069941682" lon="28.1993132805">
		<tag k="name" v="Tverrelva" />
		<tag k="ssr:stedsnr" v="692824" />
		<tag k="waterway" v="stream" />
	</node>
	<node id="-906667" lat="70.6619944556" lon="27.767402209">
		<tag k="name" v="Nerveielva - Njereveadji" />
		<tag k="name:no" v="Nerveielva" />
		<tag k="name:se" v="Njereveadji" />
		<tag k="ssr:stedsnr" v="445287" />
		<tag k="waterway" v="river" />
	</node>
	<node id="-907635" lat="71.0429611224" lon="28.0637522046">
		<tag k="name" v="Magnarvannet" />
		<tag k="natural" v="water" />
		<tag k="ssr:stedsnr" v="874919" />
	</node>
	<node id="-906925" lat="70.9683805709" lon="27.8194327966">
		<tag k="name" v="Holmevannet" />
		<tag k="natural" v="water" />
		<tag k="ssr:stedsnr" v="687817" />
		<tag k="water" v="lake" />
	</node>
	<node id="-906802" lat="70.8002833483" lon="28.15174379">
		<tag k="name" v="Bjørnelva" />
		<tag k="ssr:stedsnr" v="445903" />
		<tag k="waterway" v="stream" />
	</node>
	<node id="-906921" lat="70.7206166849" lon="28.0802326892">
		<tag k="name" v="Láhjisjohka" />
		<tag k="name:se" v="Láhjisjohka" />
		<tag k="ssr:stedsnr" v="880193" />
		<tag k="waterway" v="stream" />
	</node>
	<node id="-907432" lat="70.82040835" lon="27.9482466253">
		<tag k="name" v="Lomvannet" />
		<tag k="natural" v="water" />
		<tag k="ssr:stedsnr" v="578811" />
	</node>
	<node id="-906919" lat="71.0332222374" lon="28.1245855113">
		<tag k="name" v="Gunnarsfjordvannet" />
		<tag k="natural" v="water" />
		<tag k="ssr:stedsnr" v="878911" />
	</node>
	<node id="-906669" lat="70.448011123" lon="27.4663300299">
		<tag k="name" v="Storelva - Stuorrajohka" />
		<tag k="name:no" v="Storelva" />
		<tag k="name:se" v="Stuorrajohka" />
		<tag k="old_name:se" v="Stuorrajåkka" />
		<tag k="ssr:stedsnr" v="445551" />
		<tag k="waterway" v="river" />
	</node>
	<node id="-906912" lat="71.043938903" lon="27.9687077855">
		<tag k="name" v="Lille Jernsteinvannet" />
		<tag k="natural" v="water" />
		<tag k="ssr:stedsnr" v="631998" />
	</node>
	<node id="-907422" lat="71.0830083427" lon="28.1868910655">
		<tag k="name" v="Ragnhildvannet" />
		<tag k="natural" v="water" />
		<tag k="ssr:stedsnr" v="571821" />
	</node>
	<node id="-907421" lat="71.0369416825" lon="27.9723466762">
		<tag k="name" v="Hjalmarelva" />
		<tag k="ssr:stedsnr" v="571970" />
		<tag k="waterway" v="stream" />
	</node>
	<node id="-906908" lat="70.4071305717" lon="27.4143911473">
		<tag k="name" v="Eaštorskáidi" />
		<tag k="name:se" v="Eaštorskáidi" />
		<tag k="natural" v="cape" />
		<tag k="old_name:se" v="Æšturskaidi" />
		<tag k="ssr:stedsnr" v="627214" />
	</node>
	<node id="-907419" lat="71.0171972357" lon="27.8659744594">
		<tag k="name" v="Larsvannet" />
		<tag k="natural" v="water" />
		<tag k="ssr:stedsnr" v="571952" />
	</node>
	<node id="-907638" lat="71.0437083493" lon="27.9108939031">
		<tag k="name" v="Gangelausvannet" />
		<tag k="natural" v="water" />
		<tag k="ssr:stedsnr" v="876000" />
	</node>
	<node id="-906904" lat="70.8102833523" lon="28.095513275">
		<tag k="name" v="Sennavannet" />
		<tag k="natural" v="water" />
		<tag k="ssr:stedsnr" v="570685" />
	</node>
	<node id="-906903" lat="70.8156416865" lon="28.0951188182">
		<tag k="name" v="Gamman" />
		<tag k="natural" v="cape" />
		<tag k="ssr:stedsnr" v="570682" />
	</node>
	<node id="-906902" lat="70.7983861245" lon="28.1102466003">
		<tag k="name" v="Kjosvannet" />
		<tag k="natural" v="water" />
		<tag k="ssr:stedsnr" v="570667" />
	</node>
	<node id="-907292" lat="70.8261250146" lon="28.0247521621">
		<tag k="name" v="Botnelva - Ájajohka" />
		<tag k="name:no" v="Botnelva" />
		<tag k="name:se" v="Ájajohka" />
		<tag k="old_name:se" v="Ajajåkka" />
		<tag k="ssr:stedsnr" v="323849" />
		<tag k="waterway" v="stream" />
	</node>
	<node id="-907409" lat="70.897861126" lon="28.3567798856">
		<tag k="name" v="Straumvannet" />
		<tag k="natural" v="water" />
		<tag k="ssr:stedsnr" v="566928" />
		<tag k="water" v="lake" />
	</node>
	<node id="-907416" lat="71.0319333446" lon="27.8644244615">
		<tag k="name" v="Nordmannsetvannet - Donjejávri" />
		<tag k="name:no" v="Nordmannsetvannet" />
		<tag k="name:se" v="Donjejávri" />
		<tag k="natural" v="water" />
		<tag k="ssr:stedsnr" v="571119" />
		<tag k="water" v="lake" />
	</node>
	<node id="-906894" lat="70.8238500152" lon="27.9520938482">
		<tag k="name" v="Ellinorvannet" />
		<tag k="natural" v="water" />
		<tag k="ssr:stedsnr" v="700837" />
	</node>
	<node id="-906892" lat="70.6167889009" lon="27.6027994451">
		<tag k="name" v="Storholmen" />
		<tag k="place" v="islet" />
		<tag k="ssr:stedsnr" v="697645" />
	</node>
	<node id="-907400" lat="71.012936124" lon="27.9486244549">
		<tag k="name" v="Sløkvannet" />
		<tag k="natural" v="water" />
		<tag k="ssr:stedsnr" v="566387" />
		<tag k="water" v="lake" />
	</node>
	<node id="-907628" lat="70.9857250158" lon="28.3266021432">
		<tag k="name" v="Trolldalselva - Truollahoallu" />
		<tag k="name:no" v="Trolldalselva" />
		<tag k="name:se" v="Truollahoallu" />
		<tag k="old_name:se" v="Truollahoallo" />
		<tag k="ssr:stedsnr" v="870900" />
		<tag k="waterway" v="stream" />
	</node>
	<node id="-907397" lat="70.642727794" lon="27.6613411087">
		<tag k="name" v="Kobbelvvannet" />
		<tag k="natural" v="water" />
		<tag k="ssr:stedsnr" v="566288" />
	</node>
	<node id="-907396" lat="70.5924000186" lon="27.8395244115">
		<tag k="name" v="Holmsvikvannet" />
		<tag k="natural" v="water" />
		<tag k="ssr:stedsnr" v="566266" />
		<tag k="water" v="lake" />
	</node>
	<node id="-906883" lat="71.0374722308" lon="27.7774300348">
		<tag k="name" v="Steinfjordelva" />
		<tag k="ssr:stedsnr" v="693001" />
		<tag k="waterway" v="river" />
	</node>
	<node id="-907394" lat="70.848138907" lon="28.207654915">
		<tag k="name" v="Rafjordelva" />
		<tag k="ssr:stedsnr" v="565861" />
		<tag k="waterway" v="river" />
	</node>
	<node id="-907371" lat="70.8187583493" lon="28.0652799505">
		<tag k="name" v="Andre Olarsavannet" />
		<tag k="natural" v="water" />
		<tag k="ssr:stedsnr" v="389738" />
		<tag k="water" v="lake" />
	</node>
	<node id="-907392" lat="70.9794611283" lon="27.9620994329">
		<tag k="name" v="Børstingen" />
		<tag k="natural" v="water" />
		<tag k="ssr:stedsnr" v="565833" />
		<tag k="water" v="lake" />
	</node>
	<node id="-907391" lat="70.9984111208" lon="27.9264411065">
		<tag k="name" v="Wilsgaardvannet" />
		<tag k="natural" v="water" />
		<tag k="ssr:stedsnr" v="565830" />
	</node>
	<node id="-907390" lat="70.95791112" lon="27.7901661386">
		<tag k="name" v="Skillevannet" />
		<tag k="natural" v="water" />
		<tag k="ssr:stedsnr" v="565824" />
	</node>
	<node id="-907388" lat="70.9400416836" lon="28.1086188407">
		<tag k="name" v="Vesterelva" />
		<tag k="ssr:stedsnr" v="565494" />
		<tag k="waterway" v="river" />
	</node>
	<node id="-906614" lat="70.9843361262" lon="28.4006076611">
		<tag k="name" v="Breidvikvannet" />
		<tag k="natural" v="water" />
		<tag k="ssr:stedsnr" v="263912" />
		<tag k="water" v="lake" />
	</node>
	<node id="-907454" lat="70.9022166797" lon="28.069049398">
		<tag k="name" v="Risfjordelva - Ráššavuolesjohka" />
		<tag k="name:no" v="Risfjordelva" />
		<tag k="name:se" v="Ráššavuolesjohka" />
		<tag k="old_name:se" v="Raššavuolesjåkka" />
		<tag k="ssr:stedsnr" v="626539" />
		<tag k="waterway" v="river" />
	</node>
	<node id="-906865" lat="70.647525014" lon="27.7004660939">
		<tag k="name" v="Kjeksvannet" />
		<tag k="natural" v="water" />
		<tag k="ssr:stedsnr" v="688305" />
	</node>
	<node id="-906864" lat="70.6336750124" lon="27.7374105475">
		<tag k="name" v="Fosselva" />
		<tag k="ssr:stedsnr" v="688296" />
		<tag k="waterway" v="stream" />
	</node>
	<node id="-907375" lat="71.0406722311" lon="27.9803577706">
		<tag k="name" v="Hjalmarvannet" />
		<tag k="natural" v="water" />
		<tag k="ssr:stedsnr" v="389997" />
		<tag k="water" v="lake" />
	</node>
	<node id="-907374" lat="71.0340444585" lon="27.8849133565">
		<tag k="name" v="Hjertevannet" />
		<tag k="natural" v="water" />
		<tag k="ssr:stedsnr" v="389985" />
	</node>
	<node id="-907372" lat="71.0048722339" lon="27.8591494762">
		<tag k="name" v="Svarthollelva" />
		<tag k="ssr:stedsnr" v="389947" />
		<tag k="waterway" v="river" />
	</node>
	<node id="-906859" lat="70.992208348" lon="28.3446104512">
		<tag k="name" v="Trolldalsvannet" />
		<tag k="natural" v="water" />
		<tag k="ssr:stedsnr" v="687896" />
	</node>
	<node id="-907500" lat="71.0118361274" lon="28.1710827229">
		<tag k="name" v="Bjørnelva" />
		<tag k="ssr:stedsnr" v="748117" />
		<tag k="waterway" v="river" />
	</node>
	<node id="-906854" lat="70.8275416775" lon="27.8112494317">
		<tag k="name" v="Karlvannet" />
		<tag k="natural" v="water" />
		<tag k="ssr:stedsnr" v="687869" />
		<tag k="water" v="lake" />
	</node>
	<node id="-907537" lat="71.0250972397" lon="28.1176244121">
		<tag k="name" v="Semmelvannet" />
		<tag k="natural" v="water" />
		<tag k="ssr:stedsnr" v="753874" />
		<tag k="water" v="lake" />
	</node>
	<node id="-906852" lat="70.8533111282" lon="27.9197883297">
		<tag k="name" v="Langvannet" />
		<tag k="natural" v="water" />
		<tag k="ssr:stedsnr" v="687861" />
		<tag k="water" v="lake" />
	</node>
	<node id="-906851" lat="70.9249805718" lon="28.1351021777">
		<tag k="name" v="Straumen" />
		<tag k="place" v="locality" />
		<tag k="ssr:stedsnr" v="687853" />
	</node>
	<node id="-906850" lat="70.9529527956" lon="27.9136661069">
		<tag k="name" v="Pannkakholmen" />
		<tag k="place" v="islet" />
		<tag k="ssr:stedsnr" v="687849" />
	</node>
	<node id="-906849" lat="70.9729416811" lon="27.7722883724">
		<tag k="name" v="Mehamnelva" />
		<tag k="ssr:stedsnr" v="687840" />
		<tag k="waterway" v="river" />
	</node>
	<node id="-906579" lat="71.0481611274" lon="27.9611411101">
		<tag k="alt_name" v="Jarnsteinvatnet" />
		<tag k="name" v="Jernsteinvatnet" />
		<tag k="natural" v="water" />
		<tag k="ssr:stedsnr" v="262444" />
	</node>
	<node id="-906846" lat="70.5964472353" lon="27.408646711">
		<tag k="name" v="Nihkolaigorži" />
		<tag k="name:se" v="Nihkolaigorži" />
		<tag k="natural" v="waterfall" />
		<tag k="old_name:se" v="Nikkulaigårži" />
		<tag k="ssr:stedsnr" v="687733" />
	</node>
	<node id="-906853" lat="70.8528611219" lon="28.038482731">
		<tag k="alt_name" v="Botnvatnet, øvre" />
		<tag k="name" v="Øvre Botnvatnet" />
		<tag k="natural" v="water" />
		<tag k="ssr:stedsnr" v="687863" />
		<tag k="water" v="lake" />
	</node>
	<node id="-906842" lat="71.0511277943" lon="28.182999392">
		<tag k="name" v="Grytvannet" />
		<tag k="natural" v="water" />
		<tag k="ssr:stedsnr" v="687425" />
		<tag k="water" v="lake" />
	</node>
	<node id="-906840" lat="71.0263972372" lon="28.013835539">
		<tag k="name" v="Fredakulpen" />
		<tag k="place" v="locality" />
		<tag k="ssr:stedsnr" v="687389" />
	</node>
	<node id="-907349" lat="71.0368833491" lon="28.1302438435">
		<tag k="alt_name" v="Gunnarsfjordsvatna" />
		<tag k="name" v="Gunnarsfjordvatna" />
		<tag k="natural" v="water" />
		<tag k="ssr:stedsnr" v="384393" />
	</node>
	<node id="-907347" lat="70.6515555733" lon="27.6473050113">
		<tag k="name" v="Ørnevannet" />
		<tag k="natural" v="water" />
		<tag k="ssr:stedsnr" v="384292" />
	</node>
	<node id="-906834" lat="71.0401277936" lon="28.0652438774">
		<tag k="name" v="Middagstuelva" />
		<tag k="ssr:stedsnr" v="510943" />
		<tag k="waterway" v="river" />
	</node>
	<node id="-907345" lat="70.8383611283" lon="27.8338244376">
		<tag k="name" v="Trollvannet" />
		<tag k="natural" v="water" />
		<tag k="ssr:stedsnr" v="383876" />
	</node>
	<node id="-907344" lat="70.8464166772" lon="27.8481216571">
		<tag k="name" v="Johannesvatna - Vuoiddasvuonjávrrit" />
		<tag k="name:no" v="Johannesvatna" />
		<tag k="name:se" v="Vuoiddasvuonjávrrit" />
		<tag k="natural" v="water" />
		<tag k="old_name:se" v="Vuoidasvuonjavrit" />
		<tag k="ssr:stedsnr" v="383857" />
		<tag k="water" v="lake" />
	</node>
	<node id="-906831" lat="71.0237944603" lon="27.8296828002">
		<tag k="name" v="Djupholla" />
		<tag k="natural" v="water" />
		<tag k="ssr:stedsnr" v="510111" />
		<tag k="water" v="lake" />
	</node>
	<node id="-906625" lat="71.0650833486" lon="28.0486133265">
		<tag k="name" v="Bispevatna" />
		<tag k="natural" v="water" />
		<tag k="ssr:stedsnr" v="267851" />
		<tag k="water" v="lake" />
	</node>
	<node id="-907330" lat="70.8205111231" lon="27.9838744079">
		<tag k="name" v="Kanesvannet" />
		<tag k="natural" v="water" />
		<tag k="ssr:stedsnr" v="336830" />
	</node>
	<node id="-907326" lat="70.7125944592" lon="28.0504715963">
		<tag k="name" v="Buktaelva - Gohpijohka" />
		<tag k="name:no" v="Buktaelva" />
		<tag k="name:se" v="Gohpijohka" />
		<tag k="ssr:stedsnr" v="333230" />
		<tag k="waterway" v="river" />
	</node>
	<node id="-907433" lat="70.8013750118" lon="27.8103605372">
		<tag k="name" v="Klemmetelva" />
		<tag k="ssr:stedsnr" v="578821" />
		<tag k="waterway" v="stream" />
	</node>
	<node id="-906811" lat="71.0443250086" lon="28.1446966272">
		<tag k="name" v="Bladvannet" />
		<tag k="natural" v="water" />
		<tag k="ssr:stedsnr" v="450944" />
		<tag k="water" v="lake" />
	</node>
	<node id="-907103" lat="71.0746639061" lon="28.2451160481">
		<tag k="name" v="Sandvikvannet" />
		<tag k="natural" v="water" />
		<tag k="ssr:stedsnr" v="25834" />
	</node>
	<node id="-906676" lat="70.8266277942" lon="27.9704299665">
		<tag k="name" v="Holmevannet" />
		<tag k="natural" v="water" />
		<tag k="ssr:stedsnr" v="445850" />
		<tag k="water" v="lake" />
	</node>
	<node id="-906806" lat="70.982461127" lon="28.3223632294">
		<tag k="name" v="Trolldalsålan" />
		<tag k="natural" v="water" />
		<tag k="ssr:stedsnr" v="445917" />
	</node>
	<node id="-906761" lat="71.0433722337" lon="28.072718879">
		<tag k="name" v="Andersvannet" />
		<tag k="natural" v="water" />
		<tag k="ssr:stedsnr" v="505435" />
	</node>
	<node id="-906963" lat="70.7197944599" lon="28.0517715958">
		<tag k="name" v="Geitvannet" />
		<tag k="natural" v="water" />
		<tag k="ssr:stedsnr" v="809311" />
	</node>
	<node id="-906748" lat="70.4768083475" lon="27.4633855792">
		<tag k="name" v="Njivlojohka" />
		<tag k="name:se" v="Njivlojohka" />
		<tag k="old_name:se" v="Njivlujåkka" />
		<tag k="ssr:stedsnr" v="505228" />
		<tag k="waterway" v="stream" />
	</node>
	<node id="-906799" lat="71.0327527916" lon="28.1425049593">
		<tag k="name" v="Gunnarsfjordelva" />
		<tag k="ssr:stedsnr" v="445406" />
		<tag k="waterway" v="river" />
	</node>
	<node id="-907310" lat="70.8070055759" lon="28.0705215977">
		<tag k="name" v="Lillelva" />
		<tag k="ssr:stedsnr" v="328674" />
		<tag k="waterway" v="stream" />
	</node>
	<node id="-906589" lat="70.844708344" lon="27.7919327944">
		<tag k="name" v="Akersjøen" />
		<tag k="natural" v="water" />
		<tag k="ssr:stedsnr" v="262882" />
		<tag k="water" v="lake" />
	</node>
	<node id="-906796" lat="70.8519000114" lon="27.738952232">
		<tag k="name" v="Pokervatna" />
		<tag k="natural" v="water" />
		<tag k="ssr:stedsnr" v="444829" />
		<tag k="water" v="lake" />
	</node>
	<node id="-907307" lat="70.8142694581" lon="28.0744160482">
		<tag k="name" v="Åttetallsvannet" />
		<tag k="natural" v="water" />
		<tag k="ssr:stedsnr" v="328724" />
	</node>
	<node id="-906791" lat="70.6600222353" lon="27.8541271832">
		<tag k="name" v="Storlomvannet" />
		<tag k="natural" v="water" />
		<tag k="ssr:stedsnr" v="515199" />
	</node>
	<node id="-906673" lat="71.0456250113" lon="28.2041993978">
		<tag k="fixme" v="multiple name tags, choose one and add the other to alt_name" />
		<tag k="name" v="Hestevatnet;Lille Ørretvatn" />
		<tag k="natural" v="water" />
		<tag k="ssr:stedsnr" v="445458" />
	</node>
	<node id="-907298" lat="70.9790833513" lon="28.4548771084">
		<tag k="name" v="Risdalsvannet" />
		<tag k="natural" v="water" />
		<tag k="ssr:stedsnr" v="323917" />
	</node>
	<node id="-907293" lat="70.8145444544" lon="28.0624632804">
		<tag k="name" v="Ollarsavatna" />
		<tag k="natural" v="water" />
		<tag k="ssr:stedsnr" v="323857" />
		<tag k="water" v="lake" />
	</node>
	<node id="-907296" lat="70.8055944601" lon="28.0800910409">
		<tag k="name" v="Lilleelvvannet" />
		<tag k="natural" v="water" />
		<tag k="ssr:stedsnr" v="323877" />
	</node>
	<node id="-907295" lat="70.8320333517" lon="28.113891042">
		<tag k="name" v="Sæverosvannet" />
		<tag k="natural" v="water" />
		<tag k="ssr:stedsnr" v="323862" />
	</node>
	<node id="-907294" lat="70.8446055692" lon="28.03754385">
		<tag k="alt_name" v="Botnvatnet, nedre" />
		<tag k="name" v="Nedre Botnvatnet" />
		<tag k="natural" v="water" />
		<tag k="ssr:stedsnr" v="323861" />
		<tag k="water" v="lake" />
	</node>
	<node id="-907013" lat="71.049391678" lon="28.2160105096">
		<tag k="name" v="Tverrvikvannet" />
		<tag k="natural" v="water" />
		<tag k="ssr:stedsnr" v="935786" />
	</node>
	<node id="-906780" lat="71.0600833464" lon="28.2314493905">
		<tag k="name" v="Kovelva" />
		<tag k="ssr:stedsnr" v="510817" />
		<tag k="waterway" v="river" />
	</node>
	<node id="-907291" lat="70.9563777922" lon="27.8707994607">
		<tag k="name" v="Hysvassdamman" />
		<tag k="natural" v="water" />
		<tag k="ssr:stedsnr" v="323844" />
	</node>
	<node id="-907289" lat="70.8895027941" lon="27.8918855476">
		<tag k="name" v="Sandfjordelvkroken" />
		<tag k="place" v="locality" />
		<tag k="ssr:stedsnr" v="323835" />
	</node>
	<node id="-907288" lat="70.9896000171" lon="28.0172383074">
		<tag k="name" v="Spiskammerset" />
		<tag k="natural" v="water" />
		<tag k="ssr:stedsnr" v="323833" />
	</node>
	<node id="-907268" lat="71.0409138978" lon="27.921699455">
		<tag k="name" v="Bjørkvikvannet" />
		<tag k="natural" v="water" />
		<tag k="ssr:stedsnr" v="208000" />
	</node>
	<node id="-906772" lat="71.0029666773" lon="27.8695300107">
		<tag k="name" v="Lille Svarthollvannet" />
		<tag k="natural" v="water" />
		<tag k="ssr:stedsnr" v="510952" />
	</node>
	<node id="-907283" lat="71.0536000095" lon="28.1366077504">
		<tag k="name" v="Urdvannet" />
		<tag k="natural" v="water" />
		<tag k="ssr:stedsnr" v="323438" />
	</node>
	<node id="-906770" lat="71.059369459" lon="27.7997578144">
		<tag k="name" v="Seinesvannet" />
		<tag k="natural" v="water" />
		<tag k="ssr:stedsnr" v="510013" />
	</node>
	<node id="-907267" lat="71.033594454" lon="27.964316106">
		<tag k="name" v="Odd-Arnevannet" />
		<tag k="natural" v="water" />
		<tag k="ssr:stedsnr" v="207963" />
		<tag k="water" v="lake" />
	</node>
	<node id="-907497" lat="70.9569555647" lon="27.9942299884">
		<tag k="name" v="Stjernevassdamman" />
		<tag k="natural" v="water" />
		<tag k="ssr:stedsnr" v="747819" />
		<tag k="water" v="lake" />
	</node>
	<node id="-906767" lat="70.8540861256" lon="27.8562299973">
		<tag k="name" v="Sigurdvannet" />
		<tag k="natural" v="water" />
		<tag k="ssr:stedsnr" v="505837" />
	</node>
	<node id="-906766" lat="70.9814166834" lon="27.8395244556">
		<tag k="name" v="Svartholvatna" />
		<tag k="natural" v="water" />
		<tag k="ssr:stedsnr" v="505830" />
		<tag k="water" v="lake" />
	</node>
	<node id="-906765" lat="70.9947555711" lon="27.9991799909">
		<tag k="name" v="Ekelandskulpen" />
		<tag k="natural" v="water" />
		<tag k="ssr:stedsnr" v="505827" />
	</node>
	<node id="-906764" lat="70.5754722357" lon="27.3737050713">
		<tag k="name" v="Nerdalsvannet" />
		<tag k="natural" v="water" />
		<tag k="ssr:stedsnr" v="505747" />
	</node>
	<node id="-907522" lat="70.9287611212" lon="27.6984133852">
		<tag k="name" v="Oksevatna" />
		<tag k="natural" v="water" />
		<tag k="ssr:stedsnr" v="748846" />
		<tag k="water" v="lake" />
	</node>
	<node id="-907607" lat="70.7282111289" lon="27.8303772035">
		<tag k="fixme" v="multiple name tags, choose one and add the other to alt_name" />
		<tag k="name" v="Gutormelva, s;Krokelva;Søre Gutormelva - Guorsajohka" />
		<tag k="name:no" v="Gutormelva, s;Krokelva;Søre Gutormelva" />
		<tag k="name:se" v="Guorsajohka" />
		<tag k="old_name:se" v="Guorsajåkka" />
		<tag k="ssr:stedsnr" v="869330" />
		<tag k="waterway" v="river" />
	</node>
	<node id="-907272" lat="70.8118666838" lon="27.9319744313">
		<tag k="name" v="Rundvannet" />
		<tag k="natural" v="water" />
		<tag k="ssr:stedsnr" v="214893" />
	</node>
	<node id="-906756" lat="71.0334611229" lon="28.0671410923">
		<tag k="name" v="Middagsvatna" />
		<tag k="natural" v="water" />
		<tag k="ssr:stedsnr" v="505396" />
		<tag k="water" v="lake" />
	</node>
	<node id="-906755" lat="71.0291583468" lon="27.7856133847">
		<tag k="name" v="Strupvannet" />
		<tag k="natural" v="water" />
		<tag k="ssr:stedsnr" v="505389" />
	</node>
	<node id="-906753" lat="71.0062444569" lon="27.8968300029">
		<tag k="name" v="Tvillingsvatna" />
		<tag k="natural" v="water" />
		<tag k="ssr:stedsnr" v="505385" />
		<tag k="water" v="lake" />
	</node>
</osm>
