<?xml version="1.0" encoding="UTF-8"?>
<<<<<<< HEAD
<osm version="0.6" generator="osmapis">
	<node lat="70.79589723815197" lon="28.036949393473638" id="-34997">
		<tag k="name" v="Elvesettet" />
		<tag k="place" v="locality" />
		<tag k="ssr:stedsnr" v="24680" />
	</node>
	<node lat="70.80842501942283" lon="28.112032698862834" id="-35040">
		<tag k="name" v="Hopmyra" />
		<tag k="natural" v="wetland" />
		<tag k="ssr:stedsnr" v="145677" />
	</node>
	<node lat="71.08515278755694" lon="28.224899395215825" id="-35043">
		<tag k="name" v="Korsmyran" />
		<tag k="natural" v="wetland" />
		<tag k="ssr:stedsnr" v="146803" />
	</node>
	<node lat="70.80779445916492" lon="28.011518838229897" id="-35168">
		<tag k="name" v="Ingvaldjorda" />
		<tag k="place" v="locality" />
		<tag k="ssr:stedsnr" v="328716" />
	</node>
	<node lat="71.01560001045952" lon="27.83368836373945" id="-35177">
		<tag k="name" v="Karlmyra" />
		<tag k="natural" v="wetland" />
		<tag k="ssr:stedsnr" v="328975" />
	</node>
	<node lat="70.80051668263923" lon="27.820135544074585" id="-35182">
		<tag k="name" v="Høystein" />
		<tag k="natural" v="stone" />
		<tag k="ssr:stedsnr" v="336844" />
	</node>
	<node lat="70.80907223929201" lon="28.11252158927145" id="-35277">
		<tag k="name" v="Torvmyra" />
		<tag k="natural" v="wetland" />
		<tag k="ssr:stedsnr" v="692708" />
	</node>
	<node lat="71.08433890382038" lon="28.193738297692683" id="-35387">
		<tag k="name" v="Innerkeilmyra" />
		<tag k="natural" v="wetland" />
		<tag k="ssr:stedsnr" v="753818" />
	</node>
	<node lat="71.00836668072019" lon="27.793524472834545" id="-35396">
		<tag k="name" v="Rundhaugmyran" />
		<tag k="natural" v="wetland" />
		<tag k="ssr:stedsnr" v="809401" />
	</node>
	<node lat="71.02501667889685" lon="27.82897447224993" id="-35406">
		<tag k="name" v="Tandemyra" />
		<tag k="natural" v="wetland" />
		<tag k="ssr:stedsnr" v="814125" />
	</node>
	<node lat="71.03516667827255" lon="28.201827173353042" id="-35461">
=======
<osm generator="osmapis" version="0.6">
	<node id="-914046" lat="70.6533583521" lon="27.8477744221">
		<tag k="name" v="Urda" />
		<tag k="natural" v="scree" />
		<tag k="ssr:stedsnr" v="626298" />
	</node>
	<node id="-913661" lat="71.0351666783" lon="28.2018271734">
>>>>>>> e1d4bc35ff8a6074a6f2e91616a996b547c36f15
		<tag k="alt_name" v="Ingebrigtsslåtta" />
		<tag k="name" v="Ingebrigtslåtta" />
		<tag k="place" v="locality" />
		<tag k="ssr:stedsnr" v="930403" />
	</node>
<<<<<<< HEAD
	<node lat="70.66345001222969" lon="27.798524421058403" id="-35542">
		<tag k="name" v="Stormyra - Stuorrajeaggi" />
		<tag k="name:no" v="Stormyra" />
		<tag k="name:se" v="Stuorrajeaggi" />
=======
	<node id="-913916" lat="70.8077944592" lon="28.0115188382">
		<tag k="name" v="Ingvaldjorda" />
		<tag k="place" v="locality" />
		<tag k="ssr:stedsnr" v="328716" />
	</node>
	<node id="-914165" lat="71.0811222315" lon="28.2356216152">
		<tag k="name" v="Djupkeilmyran" />
>>>>>>> e1d4bc35ff8a6074a6f2e91616a996b547c36f15
		<tag k="natural" v="wetland" />
		<tag k="ssr:stedsnr" v="91256" />
	</node>
	<node lat="71.03583334378308" lon="28.181527161101204" id="-35623">
		<tag k="name" v="Jonasslåtta" />
		<tag k="place" v="locality" />
		<tag k="ssr:stedsnr" v="207835" />
	</node>
<<<<<<< HEAD
	<node lat="70.80320557530153" lon="28.270868779477283" id="-35630">
=======
	<node id="-913261" lat="70.8032055753" lon="28.2708687795">
>>>>>>> e1d4bc35ff8a6074a6f2e91616a996b547c36f15
		<tag k="name" v="Finnurda" />
		<tag k="natural" v="scree" />
		<tag k="ssr:stedsnr" v="209414" />
	</node>
<<<<<<< HEAD
	<node lat="70.798069460405" lon="28.096182693336093" id="-35718">
		<tag k="name" v="Olajordet" />
		<tag k="place" v="locality" />
		<tag k="ssr:stedsnr" v="388688" />
	</node>
	<node lat="71.04821390549212" lon="28.226732724103712" id="-35719">
		<tag k="name" v="Tverrvikmyra" />
=======
	<node id="-913770" lat="70.6634500122" lon="27.7985244211">
		<tag k="name" v="Stormyra - Stuorrajeaggi" />
		<tag k="name:no" v="Stormyra" />
		<tag k="name:se" v="Stuorrajeaggi" />
		<tag k="natural" v="wetland" />
		<tag k="ssr:stedsnr" v="91256" />
	</node>
	<node id="-914172" lat="71.0083666807" lon="27.7935244728">
		<tag k="name" v="Rundhaugmyran" />
		<tag k="natural" v="wetland" />
		<tag k="ssr:stedsnr" v="809401" />
	</node>
	<node id="-913253" lat="71.0851527876" lon="28.2248993952">
		<tag k="name" v="Korsmyran" />
>>>>>>> e1d4bc35ff8a6074a6f2e91616a996b547c36f15
		<tag k="natural" v="wetland" />
		<tag k="ssr:stedsnr" v="388766" />
	</node>
<<<<<<< HEAD
	<node lat="71.07540001482488" lon="28.237213276328436" id="-35723">
		<tag k="name" v="Sandvikmyran" />
=======
	<node id="-914146" lat="71.0843389038" lon="28.1937382977">
		<tag k="name" v="Innerkeilmyra" />
>>>>>>> e1d4bc35ff8a6074a6f2e91616a996b547c36f15
		<tag k="natural" v="wetland" />
		<tag k="ssr:stedsnr" v="389823" />
	</node>
	<node lat="70.81567501338058" lon="28.09384382036499" id="-35785">
		<tag k="name" v="Vian" />
		<tag k="place" v="locality" />
		<tag k="ssr:stedsnr" v="505862" />
	</node>
	<node lat="70.65335835212424" lon="27.847774422090506" id="-35858">
		<tag k="name" v="Urda" />
		<tag k="natural" v="scree" />
		<tag k="ssr:stedsnr" v="626298" />
	</node>
<<<<<<< HEAD
	<node lat="70.81019168614382" lon="28.0864438167935" id="-35931">
		<tag k="name" v="Småvian" />
		<tag k="place" v="locality" />
		<tag k="ssr:stedsnr" v="753669" />
	</node>
	<node lat="70.8231111272548" lon="28.020696628095273" id="-35932">
=======
	<node id="-914142" lat="70.8231111273" lon="28.0206966281">
>>>>>>> e1d4bc35ff8a6074a6f2e91616a996b547c36f15
		<tag k="alt_name" v="Kobbstein" />
		<tag k="name" v="Kobbsteinan" />
		<tag k="natural" v="stone" />
		<tag k="ssr:stedsnr" v="753714" />
	</node>
<<<<<<< HEAD
	<node lat="71.0288139025011" lon="27.85466613455935" id="-35967">
		<tag k="name" v="Torvemyra" />
		<tag k="natural" v="wetland" />
		<tag k="ssr:stedsnr" v="814136" />
	</node>
	<node lat="71.08112223153927" lon="28.235621615199094" id="-35978">
		<tag k="name" v="Djupkeilmyran" />
		<tag k="natural" v="wetland" />
		<tag k="ssr:stedsnr" v="814837" />
	</node>
	<node lat="70.6717500181476" lon="27.86041884238946" id="-35988">
		<tag k="name" v="Sommerheimen" />
=======
	<node id="-914140" lat="70.8101916861" lon="28.0864438168">
		<tag k="name" v="Småvian" />
		<tag k="place" v="locality" />
		<tag k="ssr:stedsnr" v="753669" />
	</node>
	<node id="-913618" lat="70.8138583527" lon="28.0917438131">
		<tag k="name" v="Storvian" />
		<tag k="place" v="locality" />
		<tag k="ssr:stedsnr" v="935721" />
	</node>
	<node id="-913873" lat="71.0358333438" lon="28.1815271611">
		<tag k="name" v="Jonasslåtta" />
>>>>>>> e1d4bc35ff8a6074a6f2e91616a996b547c36f15
		<tag k="place" v="locality" />
		<tag k="ssr:stedsnr" v="819264" />
	</node>
<<<<<<< HEAD
	<node lat="70.80608334653779" lon="27.867216095491045" id="-35991">
=======
	<node id="-913611" lat="70.8060833465" lon="27.8672160955">
>>>>>>> e1d4bc35ff8a6074a6f2e91616a996b547c36f15
		<tag k="name" v="Grua" />
		<tag k="natural" v="scree" />
		<tag k="ssr:stedsnr" v="821870" />
	</node>
<<<<<<< HEAD
	<node lat="70.87232779233672" lon="27.799130007779258" id="-36003">
=======
	<node id="-913607" lat="70.6717500181" lon="27.8604188424">
		<tag k="name" v="Sommerheimen" />
		<tag k="place" v="locality" />
		<tag k="ssr:stedsnr" v="819264" />
	</node>
	<node id="-913348" lat="71.0482139055" lon="28.2267327241">
		<tag k="name" v="Tverrvikmyra" />
		<tag k="natural" v="wetland" />
		<tag k="ssr:stedsnr" v="388766" />
	</node>
	<node id="-913983" lat="71.0754000148" lon="28.2372132763">
		<tag k="name" v="Sandvikmyran" />
		<tag k="natural" v="wetland" />
		<tag k="ssr:stedsnr" v="389823" />
	</node>
	<node id="-913976" lat="70.7980694604" lon="28.0961826933">
		<tag k="name" v="Olajordet" />
		<tag k="place" v="locality" />
		<tag k="ssr:stedsnr" v="388688" />
	</node>
	<node id="-914230" lat="70.8723277923" lon="27.7991300078">
>>>>>>> e1d4bc35ff8a6074a6f2e91616a996b547c36f15
		<tag k="name" v="Juohkoleakšá" />
		<tag k="name:se" v="Juohkoleakšá" />
		<tag k="natural" v="wetland" />
		<tag k="old_name:se" v="Juokkulækša" />
		<tag k="ssr:stedsnr" v="869849" />
	</node>
<<<<<<< HEAD
	<node lat="70.81385835267791" lon="28.09174381306704" id="-36050">
		<tag k="name" v="Storvian" />
		<tag k="place" v="locality" />
		<tag k="ssr:stedsnr" v="935721" />
=======
	<node id="-913708" lat="70.7958972382" lon="28.0369493935">
		<tag k="name" v="Elvesettet" />
		<tag k="place" v="locality" />
		<tag k="ssr:stedsnr" v="24680" />
	</node>
	<node id="-913437" lat="70.8156750134" lon="28.0938438204">
		<tag k="name" v="Vian" />
		<tag k="place" v="locality" />
		<tag k="ssr:stedsnr" v="505862" />
	</node>
	<node id="-914204" lat="71.0288139025" lon="27.8546661346">
		<tag k="name" v="Torvemyra" />
		<tag k="natural" v="wetland" />
		<tag k="ssr:stedsnr" v="814136" />
	</node>
	<node id="-914203" lat="71.0250166789" lon="27.8289744722">
		<tag k="name" v="Tandemyra" />
		<tag k="natural" v="wetland" />
		<tag k="ssr:stedsnr" v="814125" />
	</node>
	<node id="-913942" lat="70.8005166826" lon="27.8201355441">
		<tag k="name" v="Høystein" />
		<tag k="natural" v="stone" />
		<tag k="ssr:stedsnr" v="336844" />
	</node>
	<node id="-913810" lat="70.8084250194" lon="28.1120326989">
		<tag k="name" v="Hopmyra" />
		<tag k="natural" v="wetland" />
		<tag k="ssr:stedsnr" v="145677" />
	</node>
	<node id="-913930" lat="71.0156000105" lon="27.8336883637">
		<tag k="name" v="Karlmyra" />
		<tag k="natural" v="wetland" />
		<tag k="ssr:stedsnr" v="328975" />
	</node>
	<node id="-913537" lat="70.8090722393" lon="28.1125215893">
		<tag k="name" v="Torvmyra" />
		<tag k="natural" v="wetland" />
		<tag k="ssr:stedsnr" v="692708" />
>>>>>>> e1d4bc35ff8a6074a6f2e91616a996b547c36f15
	</node>
</osm>
