<?xml version="1.0" encoding="UTF-8"?>
<<<<<<< HEAD
<osm version="0.6" generator="osmapis">
	<node lat="71.0363444553679" lon="27.852271688898185" id="-35313">
		<tag k="amenity" v="place_of_worship" />
		<tag k="denomination" v="lutheran" />
		<tag k="name" v="Mehamn kirke" />
		<tag k="religion" v="christian" />
		<tag k="ssr:stedsnr" v="697926" />
	</node>
	<node lat="70.79838335197513" lon="28.11337159091201" id="-35540">
=======
<osm generator="osmapis" version="0.6">
	<node id="-913765" lat="70.798383352" lon="28.1133715909">
>>>>>>> e1d4bc35ff8a6074a6f2e91616a996b547c36f15
		<tag k="alt_name" v="Hop kirke" />
		<tag k="amenity" v="place_of_worship" />
		<tag k="denomination" v="lutheran" />
		<tag k="name" v="Hop" />
		<tag k="religion" v="christian" />
		<tag k="ssr:stedsnr" v="90906" />
	</node>
<<<<<<< HEAD
	<node lat="71.06578612056224" lon="28.247143824949084" id="-36062">
		<tag k="alt_name" v="Gamvik" />
=======
	<node id="-913546" lat="71.0363444554" lon="27.8522716889">
>>>>>>> e1d4bc35ff8a6074a6f2e91616a996b547c36f15
		<tag k="amenity" v="place_of_worship" />
		<tag k="denomination" v="lutheran" />
		<tag k="name" v="Gamvik kirke" />
		<tag k="religion" v="christian" />
		<tag k="ssr:stedsnr" v="940938" />
	</node>
</osm>
