<?xml version="1.0" encoding="UTF-8"?>
<<<<<<< HEAD
<osm version="0.6" generator="osmapis">
	<node lat="70.83098057224586" lon="28.29609934061048" id="-34996">
		<tag k="name" v="Hamna" />
		<tag k="place" v="locality" />
		<tag k="ssr:stedsnr" v="20944" />
	</node>
	<node lat="70.8875250198566" lon="28.337507654025444" id="-35018">
		<tag k="alt_name" v="Tyfjorden" />
		<tag k="name" v="Tyfjord" />
		<tag k="place" v="locality" />
		<tag k="ssr:stedsnr" v="81935" />
	</node>
	<node lat="70.88902778955435" lon="28.338768776562695" id="-35023">
		<tag k="name" v="Elvenes" />
		<tag k="place" v="locality" />
		<tag k="ssr:stedsnr" v="86693" />
	</node>
	<node lat="70.79650557427814" lon="28.140893816035838" id="-35027">
		<tag k="historic" v="shieling" />
		<tag k="name" v="Ytre Bjørnelva" />
		<tag k="place" v="isolated_dwelling" />
		<tag k="ssr:stedsnr" v="87381" />
	</node>
	<node lat="70.76850834914893" lon="27.968724385973413" id="-35037">
		<tag k="name" v="Sommarheimen" />
		<tag k="place" v="locality" />
		<tag k="ssr:stedsnr" v="141884" />
	</node>
	<node lat="70.79307223852543" lon="28.068132710203464" id="-35082">
		<tag k="alt_name" v="Lyngsletten;Løngsletta" />
		<tag k="name" v="Lyngsletta" />
=======
<osm generator="osmapis" version="0.6">
	<node id="-914048" lat="70.6742805729" lon="27.8725327326">
		<tag k="alt_name" v="Sommarheimen, in" />
		<tag k="name" v="Indre Sommarheimen" />
		<tag k="place" v="locality" />
		<tag k="ssr:stedsnr" v="626310" />
	</node>
	<node id="-913662" lat="70.7188389003" lon="28.0817854803">
		<tag k="fixme" v="consider place=hamlet" />
		<tag k="name" v="Langfjordnes - Goalsevuohppi" />
		<tag k="name:no" v="Langfjordnes" />
		<tag k="name:se" v="Goalsevuohppi" />
		<tag k="old_name:se" v="Goalsevuoppi" />
		<tag k="place" v="village" />
		<tag k="ssr:stedsnr" v="930303" />
	</node>
	<node id="-913276" lat="70.6652722367" lon="27.8544633023">
		<tag k="fixme" v="consider place=hamlet" />
		<tag k="name" v="Nervei - Njereveadji" />
		<tag k="name:no" v="Nervei" />
		<tag k="name:se" v="Njereveadji" />
		<tag k="old_name:se" v="Njerevæddji" />
		<tag k="place" v="village" />
		<tag k="ssr:stedsnr" v="445286" />
	</node>
	<node id="-913403" lat="70.6205555705" lon="27.6524105544">
		<tag k="name" v="Laggu" />
		<tag k="place" v="hamlet" />
		<tag k="ssr:stedsnr" v="516642" />
	</node>
	<node id="-913599" lat="70.7980250124" lon="27.7822994418">
		<tag k="alt_name" v="Bakland" />
		<tag k="name" v="Bakkeland" />
		<tag k="place" v="farm" />
		<tag k="ssr:stedsnr" v="930874" />
	</node>
	<node id="-913911" lat="71.0855555666" lon="28.1533549769">
		<tag k="name" v="Steinvåg" />
		<tag k="place" v="locality" />
		<tag k="ssr:stedsnr" v="328201" />
	</node>
	<node id="-913782" lat="70.6238027894" lon="27.6296244454">
		<tag k="fixme" v="consider place=hamlet" />
		<tag k="name" v="Lággu" />
		<tag k="name:se" v="Lággu" />
		<tag k="old_name:se" v="Laggo" />
		<tag k="place" v="village" />
		<tag k="ssr:stedsnr" v="141271" />
	</node>
	<node id="-913525" lat="70.7969416839" lon="27.9341660749">
		<tag k="name" v="Værnes" />
		<tag k="place" v="farm" />
		<tag k="ssr:stedsnr" v="876270" />
	</node>
	<node id="-913548" lat="70.8000055685" lon="27.8358355383">
		<tag k="name" v="Sandnes" />
		<tag k="place" v="isolated_dwelling" />
		<tag k="ssr:stedsnr" v="700865" />
	</node>
	<node id="-913764" lat="70.7965055743" lon="28.140893816">
		<tag k="historic" v="shieling" />
		<tag k="name" v="Ytre Bjørnelva" />
		<tag k="place" v="locality" />
		<tag k="ssr:stedsnr" v="87381" />
	</node>
	<node id="-913891" lat="71.0638555729" lon="28.2464827121">
		<tag k="name" v="Gamvik" />
		<tag k="place" v="village" />
		<tag k="ssr:stedsnr" v="323409" />
	</node>
	<node id="-913915" lat="70.8122083527" lon="28.0081660647">
		<tag k="name" v="Ivarsøy" />
		<tag k="place" v="isolated_dwelling" />
		<tag k="ssr:stedsnr" v="328386" />
	</node>
	<node id="-913759" lat="70.8890277896" lon="28.3387687766">
		<tag k="name" v="Elvenes" />
		<tag k="place" v="locality" />
		<tag k="ssr:stedsnr" v="86693" />
	</node>
	<node id="-913246" lat="70.7207416804" lon="28.0773882444">
		<tag k="name" v="Solheim" />
		<tag k="place" v="isolated_dwelling" />
		<tag k="ssr:stedsnr" v="269739" />
	</node>
	<node id="-913629" lat="71.0136388985" lon="27.8246689078">
		<tag k="name" v="Dalstua" />
		<tag k="place" v="isolated_dwelling" />
		<tag k="ssr:stedsnr" v="935988" />
	</node>
	<node id="-913884" lat="70.6199166851" lon="27.6542494531">
		<tag k="name" v="Mattisneset" />
		<tag k="place" v="farm" />
		<tag k="ssr:stedsnr" v="323266" />
	</node>
	<node id="-913466" lat="70.8025666775" lon="27.8641716513">
		<tag k="fixme" v="consider place=hamlet" />
		<tag k="name" v="Kobbevik - Márranluokta" />
		<tag k="name:no" v="Kobbevik" />
		<tag k="name:se" v="Márranluokta" />
		<tag k="old_name:se" v="Marranluokta" />
		<tag k="place" v="village" />
		<tag k="ssr:stedsnr" v="687874" />
	</node>
	<node id="-913701" lat="70.8309805722" lon="28.2960993406">
		<tag k="name" v="Hamna" />
		<tag k="place" v="locality" />
		<tag k="ssr:stedsnr" v="20944" />
	</node>
	<node id="-914136" lat="70.6636389019" lon="27.8576633005">
		<tag k="name" v="Vika" />
		<tag k="place" v="isolated_dwelling" />
		<tag k="ssr:stedsnr" v="752991" />
	</node>
	<node id="-913892" lat="71.0413722299" lon="27.8513272596">
		<tag k="name" v="Mehamn" />
		<tag k="place" v="village" />
		<tag k="ssr:stedsnr" v="323433" />
	</node>
	<node id="-914130" lat="70.8926250146" lon="28.3793104238">
		<tag k="name" v="Hamna" />
		<tag k="place" v="isolated_dwelling" />
		<tag k="ssr:stedsnr" v="748929" />
	</node>
	<node id="-913803" lat="70.7685083491" lon="27.968724386">
		<tag k="name" v="Sommarheimen" />
		<tag k="place" v="locality" />
		<tag k="ssr:stedsnr" v="141884" />
	</node>
	<node id="-913741" lat="71.0489111279" lon="28.0533299757">
		<tag k="alt_name" v="Sandfjorden" />
		<tag k="name" v="Sandfjord" />
		<tag k="place" v="farm" />
		<tag k="ssr:stedsnr" v="81460" />
	</node>
	<node id="-914124" lat="70.612350012" lon="27.5882494604">
		<tag k="name" v="Dalheim" />
		<tag k="place" v="farm" />
		<tag k="ssr:stedsnr" v="748731" />
	</node>
	<node id="-913739" lat="71.0350166816" lon="27.8682911234">
		<tag k="alt_name" v="Nordmannseth" />
		<tag k="name" v="Nordmannset" />
		<tag k="place" v="isolated_dwelling" />
		<tag k="ssr:stedsnr" v="81412" />
	</node>
	<node id="-914250" lat="69.6548386171" lon="18.9540555979">
		<tag k="amenity" v="school" />
		<tag k="name" v="Ishavsbyen videregående skole" />
		<tag k="ssr:stedsnr" v="1075695" />
	</node>
	<node id="-913228" lat="70.8649750187" lon="28.4229159827">
		<tag k="name" v="Losvik - Lohkesváhki" />
		<tag k="name:no" v="Losvik" />
		<tag k="name:se" v="Lohkesváhki" />
		<tag k="old_name:se" v="Låkkesvakki" />
		<tag k="place" v="isolated_dwelling" />
		<tag k="ssr:stedsnr" v="263932" />
	</node>
	<node id="-914117" lat="71.0725222388" lon="28.2449466041">
		<tag k="name" v="Elvevågen" />
		<tag k="place" v="farm" />
		<tag k="ssr:stedsnr" v="748424" />
	</node>
	<node id="-913220" lat="70.8006222395" lon="28.1006910283">
		<tag k="fixme" v="consider place=hamlet" />
		<tag k="name" v="Skjånes" />
		<tag k="place" v="village" />
		<tag k="ssr:stedsnr" v="263887" />
	</node>
	<node id="-913219" lat="70.7954972397" lon="28.1176243763">
		<tag k="alt_name" v="Hop, yt;Ytterhop" />
		<tag k="name" v="Ytre Hop" />
		<tag k="place" v="hamlet" />
		<tag k="ssr:stedsnr" v="263886" />
	</node>
	<node id="-914251" lat="69.6807751959" lon="19.0868014399">
		<tag k="fixme" v="consider place=hamlet" />
		<tag k="name" v="Krokelv" />
>>>>>>> e1d4bc35ff8a6074a6f2e91616a996b547c36f15
		<tag k="place" v="farm" />
		<tag k="ssr:stedsnr" v="1076826" />
	</node>
<<<<<<< HEAD
	<node lat="70.86497501868686" lon="28.42291598267561" id="-35083">
		<tag k="name" v="Losvik - Lohkesváhki" />
		<tag k="name:no" v="Losvik" />
		<tag k="name:se" v="Lohkesváhki" />
		<tag k="old_name:se" v="Låkkesvakki" />
=======
	<node id="-914239" lat="71.0790027882" lon="27.9663244462">
		<tag k="name" v="Roren" />
>>>>>>> e1d4bc35ff8a6074a6f2e91616a996b547c36f15
		<tag k="place" v="isolated_dwelling" />
		<tag k="ssr:stedsnr" v="263932" />
	</node>
<<<<<<< HEAD
	<node lat="70.72074168036562" lon="28.077388244447167" id="-35109">
		<tag k="name" v="Solheim" />
=======
	<node id="-913597" lat="70.7189639027" lon="28.0747160179">
		<tag k="name" v="Storjord - Stuorragieddi" />
		<tag k="name:no" v="Storjord" />
		<tag k="name:se" v="Stuorragieddi" />
>>>>>>> e1d4bc35ff8a6074a6f2e91616a996b547c36f15
		<tag k="place" v="isolated_dwelling" />
		<tag k="ssr:stedsnr" v="269739" />
	</node>
	<node lat="70.88665557458454" lon="28.34411044921955" id="-35126">
		<tag k="name" v="Heimen" />
		<tag k="place" v="locality" />
		<tag k="ssr:stedsnr" v="451489" />
	</node>
	<node lat="70.79549723974279" lon="28.11762437625851" id="-35140">
		<tag k="alt_name" v="Hop, yt;Ytterhop" />
		<tag k="name" v="Ytre Hop" />
		<tag k="place" v="hamlet" />
		<tag k="ssr:stedsnr" v="263886" />
	</node>
<<<<<<< HEAD
	<node lat="70.80062223945902" lon="28.1006910282936" id="-35141">
		<tag k="fixme" v="consider place=hamlet" />
		<tag k="name" v="Skjånes" />
		<tag k="place" v="village" />
		<tag k="ssr:stedsnr" v="263887" />
	</node>
	<node lat="71.0638555729257" lon="28.246482712140157" id="-35164">
		<tag k="name" v="Gamvik" />
		<tag k="place" v="village" />
		<tag k="ssr:stedsnr" v="323409" />
	</node>
	<node lat="70.88916113007326" lon="28.33866876326807" id="-35179">
		<tag k="name" v="Brattli" />
		<tag k="place" v="locality" />
		<tag k="ssr:stedsnr" v="329459" />
	</node>
	<node lat="70.9936250151683" lon="28.184966058005873" id="-35180">
		<tag k="name" v="Risfjorden" />
		<tag k="place" v="locality" />
		<tag k="ssr:stedsnr" v="329656" />
	</node>
	<node lat="71.04043889925477" lon="27.8080550483529" id="-35193">
		<tag k="name" v="Strand" />
		<tag k="place" v="farm" />
		<tag k="ssr:stedsnr" v="389001" />
	</node>
	<node lat="70.66527223668346" lon="27.85446330226854" id="-35212">
		<tag k="fixme" v="consider place=hamlet" />
		<tag k="name" v="Nervei - Njereveadji" />
		<tag k="name:no" v="Nervei" />
		<tag k="name:se" v="Njereveadji" />
		<tag k="old_name:se" v="Njerevæddji" />
		<tag k="place" v="village" />
		<tag k="ssr:stedsnr" v="445286" />
	</node>
	<node lat="70.80256667750783" lon="27.86417165132016" id="-35270">
		<tag k="fixme" v="consider place=hamlet" />
		<tag k="name" v="Kobbevik - Márranluokta" />
		<tag k="name:no" v="Kobbevik" />
		<tag k="name:se" v="Márranluokta" />
		<tag k="old_name:se" v="Marranluokta" />
		<tag k="place" v="village" />
		<tag k="ssr:stedsnr" v="687874" />
	</node>
	<node lat="70.67428057288602" lon="27.872532732562252" id="-35316">
		<tag k="alt_name" v="Sommarheimen, in" />
		<tag k="name" v="Indre Sommarheimen" />
		<tag k="place" v="locality" />
		<tag k="ssr:stedsnr" v="626310" />
	</node>
	<node lat="70.79492779401924" lon="28.190357675568162" id="-35336">
=======
	<node id="-913674" lat="71.0377972341" lon="27.8088216945">
		<tag k="name" v="Lavland" />
		<tag k="place" v="farm" />
		<tag k="ssr:stedsnr" v="936005" />
	</node>
	<node id="-913978" lat="71.0404388993" lon="27.8080550484">
		<tag k="name" v="Strand" />
		<tag k="place" v="farm" />
		<tag k="ssr:stedsnr" v="389001" />
	</node>
	<node id="-913572" lat="70.8046916837" lon="27.8733438809">
		<tag k="name" v="Kraknes" />
		<tag k="place" v="farm" />
		<tag k="ssr:stedsnr" v="760861" />
	</node>
	<node id="-913719" lat="70.8311694624" lon="28.2977632049">
		<tag k="name" v="Rafjord" />
		<tag k="place" v="hamlet" />
		<tag k="ssr:stedsnr" v="26392" />
	</node>
	<node id="-914101" lat="70.794927794" lon="28.1903576756">
>>>>>>> e1d4bc35ff8a6074a6f2e91616a996b547c36f15
		<tag k="name" v="Kjeskelvik" />
		<tag k="place" v="isolated_dwelling" />
		<tag k="ssr:stedsnr" v="633434" />
	</node>
<<<<<<< HEAD
	<node lat="70.80000556854147" lon="27.835835538267553" id="-35362">
		<tag k="name" v="Sandnes" />
		<tag k="place" v="isolated_dwelling" />
		<tag k="ssr:stedsnr" v="700865" />
	</node>
	<node lat="71.05603612498048" lon="28.250116040253072" id="-35379">
		<tag k="name" v="Koven" />
		<tag k="place" v="farm" />
		<tag k="ssr:stedsnr" v="753108" />
	</node>
	<node lat="70.80026112598374" lon="27.771163330164256" id="-35401">
		<tag k="alt_name" v="Skjerli" />
		<tag k="name" v="Skjærlia" />
		<tag k="place" v="farm" />
		<tag k="ssr:stedsnr" v="809871" />
	</node>
	<node lat="70.80700834550139" lon="28.10244936921191" id="-35402">
		<tag k="alt_name" v="Hop, in" />
		<tag k="fixme" v="multiple name tags, choose one and add the other to alt_name" />
		<tag k="name" v="Hop;Indre Hop" />
		<tag k="place" v="hamlet" />
		<tag k="ssr:stedsnr" v="809890" />
	</node>
	<node lat="70.68438391762531" lon="27.928461405175252" id="-35423">
=======
	<node id="-913967" lat="70.8105361244" lon="28.2860743168">
		<tag k="name" v="Svensvik" />
		<tag k="place" v="isolated_dwelling" />
		<tag k="ssr:stedsnr" v="384928" />
	</node>
	<node id="-913580" lat="70.684383346" lon="27.9284577325">
>>>>>>> e1d4bc35ff8a6074a6f2e91616a996b547c36f15
		<tag k="alt_name" v="Sommarheimen, yt" />
		<tag k="fixme" v="multiple name tags, choose one and add the other to alt_name" />
		<tag k="name" v="Sommarheimen;Ytre Sommarheimen" />
		<tag k="place" v="locality" />
		<tag k="ssr:stedsnr" v="930294" />
	</node>
<<<<<<< HEAD
	<node lat="70.63840278998372" lon="27.78374942991465" id="-35435">
=======
	<node id="-913579" lat="70.63840279" lon="27.7837494299">
>>>>>>> e1d4bc35ff8a6074a6f2e91616a996b547c36f15
		<tag k="name" v="Gamman" />
		<tag k="place" v="locality" />
		<tag k="ssr:stedsnr" v="930288" />
	</node>
<<<<<<< HEAD
	<node lat="70.79802501241241" lon="27.78229944175424" id="-35448">
		<tag k="alt_name" v="Bakland" />
		<tag k="name" v="Bakkeland" />
=======
	<node id="-913564" lat="71.056036125" lon="28.2501160403">
		<tag k="name" v="Koven" />
		<tag k="place" v="farm" />
		<tag k="ssr:stedsnr" v="753108" />
	</node>
	<node id="-914085" lat="70.8002777904" lon="28.0743938162">
		<tag k="alt_name" v="Brevik Nordre" />
		<tag k="name" v="Breivikjorda" />
>>>>>>> e1d4bc35ff8a6074a6f2e91616a996b547c36f15
		<tag k="place" v="farm" />
		<tag k="ssr:stedsnr" v="930874" />
	</node>
<<<<<<< HEAD
	<node lat="70.71883890033392" lon="28.08178548028027" id="-35460">
		<tag k="fixme" v="consider place=hamlet" />
		<tag k="name" v="Langfjordnes - Goalsevuohppi" />
		<tag k="name:no" v="Langfjordnes" />
		<tag k="name:se" v="Goalsevuohppi" />
		<tag k="old_name:se" v="Goalsevuoppi" />
		<tag k="place" v="village" />
		<tag k="ssr:stedsnr" v="930303" />
	</node>
	<node lat="71.01363889847848" lon="27.82466890775698" id="-35475">
		<tag k="name" v="Dalstua" />
		<tag k="place" v="isolated_dwelling" />
		<tag k="ssr:stedsnr" v="935988" />
	</node>
	<node lat="70.98884717202802" lon="28.514412733912636" id="-35488">
=======
	<node id="-913956" lat="70.6288666794" lon="27.6902966681">
		<tag k="name" v="Spiikkárnjárga" />
		<tag k="name:se" v="Spiikkárnjárga" />
		<tag k="old_name:se" v="Spiikarnjarga" />
		<tag k="place" v="isolated_dwelling" />
		<tag k="ssr:stedsnr" v="384288" />
	</node>
	<node id="-914083" lat="70.6177333463" lon="27.6645522118">
		<tag k="name" v="Bokkus - Bohkošjohka" />
		<tag k="name:no" v="Bokkus" />
		<tag k="name:se" v="Bohkošjohka" />
		<tag k="old_name:se" v="Båkkušjåkka" />
		<tag k="place" v="locality" />
		<tag k="ssr:stedsnr" v="627300" />
	</node>
	<node id="-913698" lat="70.9887805746" lon="28.5142881948">
>>>>>>> e1d4bc35ff8a6074a6f2e91616a996b547c36f15
		<tag k="name" v="Omgang - Vuoggá" />
		<tag k="name:no" v="Omgang" />
		<tag k="name:se" v="Vuoggá" />
		<tag k="old_name:se" v="Vuogga" />
		<tag k="place" v="farm" />
		<tag k="ssr:stedsnr" v="20926" />
	</node>
<<<<<<< HEAD
	<node lat="70.83116946235675" lon="28.29776320490935" id="-35501">
		<tag k="name" v="Rafjord" />
		<tag k="place" v="hamlet" />
		<tag k="ssr:stedsnr" v="26392" />
	</node>
	<node lat="71.0359492438475" lon="27.864545142447366" id="-35511">
		<tag k="alt_name" v="Nordmannseth" />
		<tag k="name" v="Nordmannset" />
		<tag k="place" v="farm" />
		<tag k="ssr:stedsnr" v="81412" />
	</node>
	<node lat="71.0489111279245" lon="28.053329975673567" id="-35519">
		<tag k="alt_name" v="Sandfjorden" />
		<tag k="name" v="Sandfjord" />
		<tag k="place" v="farm" />
		<tag k="ssr:stedsnr" v="81460" />
	</node>
	<node lat="70.6238027894357" lon="27.629624445385804" id="-35550">
		<tag k="fixme" v="consider place=hamlet" />
		<tag k="name" v="Lággu" />
		<tag k="name:se" v="Lággu" />
		<tag k="old_name:se" v="Laggo" />
		<tag k="place" v="village" />
		<tag k="ssr:stedsnr" v="141271" />
	</node>
	<node lat="70.61991668509273" lon="27.654249453075614" id="-35641">
		<tag k="name" v="Mattisneset" />
=======
	<node id="-913949" lat="71.075458344" lon="27.9726466753">
		<tag k="name" v="Roren" />
		<tag k="place" v="isolated_dwelling" />
		<tag k="ssr:stedsnr" v="383477" />
	</node>
	<node id="-913308" lat="70.8866555746" lon="28.3441104492">
		<tag k="name" v="Heimen" />
		<tag k="place" v="locality" />
		<tag k="ssr:stedsnr" v="451489" />
	</node>
	<node id="-913178" lat="70.8875250199" lon="28.337507654">
		<tag k="alt_name" v="Tyfjorden" />
		<tag k="name" v="Tyfjord" />
		<tag k="place" v="locality" />
		<tag k="ssr:stedsnr" v="81935" />
	</node>
	<node id="-913944" lat="70.7964583471" lon="28.1424437937">
		<tag k="name" v="Bjørnelva" />
		<tag k="place" v="isolated_dwelling" />
		<tag k="ssr:stedsnr" v="337990" />
	</node>
	<node id="-913988" lat="70.7192944573" lon="28.0808660312">
		<tag k="name" v="Strandsletta" />
		<tag k="place" v="locality" />
		<tag k="ssr:stedsnr" v="390692" />
	</node>
	<node id="-914068" lat="70.9609000175" lon="27.7544633622">
		<tag k="name" v="Skanceslåtta" />
		<tag k="place" v="locality" />
		<tag k="ssr:stedsnr" v="626832" />
	</node>
	<node id="-913436" lat="70.8006361286" lon="28.0173910703">
		<tag k="name" v="Nybrott" />
		<tag k="place" v="isolated_dwelling" />
		<tag k="ssr:stedsnr" v="505860" />
	</node>
	<node id="-913933" lat="70.9936250152" lon="28.184966058">
		<tag k="name" v="Risfjorden" />
		<tag k="place" v="locality" />
		<tag k="ssr:stedsnr" v="329656" />
	</node>
	<node id="-913932" lat="70.8891611301" lon="28.3386687633">
		<tag k="name" v="Brattli" />
		<tag k="place" v="locality" />
		<tag k="ssr:stedsnr" v="329459" />
	</node>
	<node id="-914187" lat="70.8070083455" lon="28.1024493692">
		<tag k="alt_name" v="Hop, in" />
		<tag k="fixme" v="multiple name tags, choose one and add the other to alt_name" />
		<tag k="name" v="Hop;Indre Hop" />
		<tag k="place" v="hamlet" />
		<tag k="ssr:stedsnr" v="809890" />
	</node>
	<node id="-914186" lat="70.800261126" lon="27.7711633302">
		<tag k="alt_name" v="Skjerli" />
		<tag k="name" v="Skjærlia" />
>>>>>>> e1d4bc35ff8a6074a6f2e91616a996b547c36f15
		<tag k="place" v="farm" />
		<tag k="ssr:stedsnr" v="323266" />
	</node>
<<<<<<< HEAD
	<node lat="71.041372229873" lon="27.851327259642638" id="-35646">
		<tag k="name" v="Mehamn" />
=======
	<node id="-913288" lat="70.8126083492" lon="27.9569021852">
		<tag k="fixme" v="consider place=hamlet" />
		<tag k="name" v="Ivarsfjord" />
>>>>>>> e1d4bc35ff8a6074a6f2e91616a996b547c36f15
		<tag k="place" v="village" />
		<tag k="ssr:stedsnr" v="323433" />
	</node>
<<<<<<< HEAD
	<node lat="71.08555556657754" lon="28.153354976928615" id="-35663">
		<tag k="name" v="Steinvåg" />
=======
	<node id="-913414" lat="71.0006805693" lon="28.4114576625">
		<tag k="name" v="Prestslåtten" />
>>>>>>> e1d4bc35ff8a6074a6f2e91616a996b547c36f15
		<tag k="place" v="locality" />
		<tag k="ssr:stedsnr" v="328201" />
	</node>
	<node lat="70.8122083527083" lon="28.00816606473598" id="-35665">
		<tag k="name" v="Ivarsøy" />
		<tag k="place" v="isolated_dwelling" />
		<tag k="ssr:stedsnr" v="328386" />
	</node>
<<<<<<< HEAD
	<node lat="70.7996472387279" lon="28.072329924384913" id="-35667">
=======
	<node id="-913217" lat="70.7930722385" lon="28.0681327102">
		<tag k="alt_name" v="Lyngsletten;Løngsletta" />
		<tag k="name" v="Lyngsletta" />
		<tag k="place" v="farm" />
		<tag k="ssr:stedsnr" v="263880" />
	</node>
	<node id="-913921" lat="70.7996472387" lon="28.0723299244">
>>>>>>> e1d4bc35ff8a6074a6f2e91616a996b547c36f15
		<tag k="alt_name" v="Brevik" />
		<tag k="name" v="Breivik" />
		<tag k="place" v="farm" />
		<tag k="ssr:stedsnr" v="328677" />
	</node>
<<<<<<< HEAD
	<node lat="70.79677763348046" lon="28.13984528495175" id="-35684">
		<tag k="name" v="Bjørnelva" />
		<tag k="place" v="locality" />
		<tag k="ssr:stedsnr" v="337990" />
	</node>
	<node lat="71.07545834402723" lon="27.972646675334175" id="-35686">
		<tag k="name" v="Roren" />
		<tag k="place" v="isolated_dwelling" />
		<tag k="ssr:stedsnr" v="383477" />
	</node>
	<node lat="70.62907964323242" lon="27.690369335404466" id="-35696">
		<tag k="name" v="Spiikkárnjárga" />
		<tag k="name:se" v="Spiikkárnjárga" />
		<tag k="old_name:se" v="Spiikarnjarga" />
		<tag k="place" v="locality" />
		<tag k="ssr:stedsnr" v="384288" />
	</node>
	<node lat="70.8105361243991" lon="28.286074316764278" id="-35704">
		<tag k="name" v="Svensvik" />
		<tag k="place" v="isolated_dwelling" />
		<tag k="ssr:stedsnr" v="384928" />
	</node>
	<node lat="70.71929445730143" lon="28.080866031219376" id="-35731">
		<tag k="name" v="Strandsletta" />
		<tag k="place" v="locality" />
		<tag k="ssr:stedsnr" v="390692" />
	</node>
	<node lat="70.81260834920626" lon="27.95690218517428" id="-35755">
		<tag k="fixme" v="consider place=hamlet" />
		<tag k="name" v="Ivarsfjord" />
		<tag k="place" v="village" />
		<tag k="ssr:stedsnr" v="445866" />
	</node>
	<node lat="71.00068056934357" lon="28.41145766247595" id="-35757">
		<tag k="name" v="Prestslåtten" />
		<tag k="place" v="locality" />
		<tag k="ssr:stedsnr" v="445914" />
	</node>
	<node lat="70.80063612855977" lon="28.017391070342" id="-35784">
		<tag k="name" v="Nybrott" />
		<tag k="place" v="isolated_dwelling" />
		<tag k="ssr:stedsnr" v="505860" />
	</node>
	<node lat="70.62055557045487" lon="27.652410554449403" id="-35807">
		<tag k="name" v="Laggu" />
		<tag k="place" v="hamlet" />
		<tag k="ssr:stedsnr" v="516642" />
	</node>
	<node lat="70.96090001754843" lon="27.754463362236013" id="-35867">
		<tag k="name" v="Skanceslåtta" />
		<tag k="place" v="locality" />
		<tag k="ssr:stedsnr" v="626832" />
	</node>
	<node lat="70.6177333462585" lon="27.66455221184009" id="-35879">
		<tag k="name" v="Bokkus - Bohkošjohka" />
		<tag k="name:no" v="Bokkus" />
		<tag k="name:se" v="Bohkošjohka" />
		<tag k="old_name:se" v="Båkkušjåkka" />
		<tag k="place" v="locality" />
		<tag k="ssr:stedsnr" v="627300" />
	</node>
	<node lat="70.8002777903894" lon="28.074393816157905" id="-35881">
		<tag k="alt_name" v="Brevik Nordre" />
		<tag k="name" v="Breivikjorda" />
		<tag k="place" v="farm" />
		<tag k="ssr:stedsnr" v="631682" />
	</node>
	<node lat="71.07252223877894" lon="28.244946604083218" id="-35899">
		<tag k="name" v="Elvevågen" />
		<tag k="place" v="farm" />
		<tag k="ssr:stedsnr" v="748424" />
	</node>
	<node lat="70.6123500119711" lon="27.58824946041173" id="-35917">
		<tag k="name" v="Dalheim" />
		<tag k="place" v="farm" />
		<tag k="ssr:stedsnr" v="748731" />
	</node>
	<node lat="70.89262501458632" lon="28.37931042383135" id="-35926">
		<tag k="name" v="Hamna" />
		<tag k="place" v="isolated_dwelling" />
		<tag k="ssr:stedsnr" v="748929" />
	</node>
	<node lat="70.66363890194388" lon="27.85766330047854" id="-35928">
		<tag k="name" v="Vika" />
		<tag k="place" v="isolated_dwelling" />
		<tag k="ssr:stedsnr" v="752991" />
	</node>
	<node lat="70.80469168369117" lon="27.873343880890307" id="-35942">
		<tag k="name" v="Kraknes" />
		<tag k="place" v="farm" />
		<tag k="ssr:stedsnr" v="760861" />
	</node>
	<node lat="70.7189639026561" lon="28.074716017942656" id="-35987">
		<tag k="name" v="Storjord - Stuorragieddi" />
		<tag k="name:no" v="Storjord" />
		<tag k="name:se" v="Stuorragieddi" />
		<tag k="place" v="isolated_dwelling" />
		<tag k="ssr:stedsnr" v="815697" />
	</node>
	<node lat="71.07900278823054" lon="27.966324446229923" id="-36019">
		<tag k="name" v="Roren" />
		<tag k="place" v="isolated_dwelling" />
		<tag k="ssr:stedsnr" v="873944" />
	</node>
	<node lat="70.79694168393812" lon="27.934166074881237" id="-36039">
		<tag k="name" v="Værnes" />
		<tag k="place" v="farm" />
		<tag k="ssr:stedsnr" v="876270" />
	</node>
	<node lat="71.03779723406336" lon="27.80882169449767" id="-36054">
		<tag k="name" v="Lavland" />
		<tag k="place" v="farm" />
		<tag k="ssr:stedsnr" v="936005" />
	</node>
	<node lat="69.65483861708206" lon="18.954055597917613" id="-36066">
		<tag k="amenity" v="school" />
		<tag k="name" v="Ishavsbyen videregående skole" />
		<tag k="ssr:stedsnr" v="1075695" />
	</node>
=======
>>>>>>> e1d4bc35ff8a6074a6f2e91616a996b547c36f15
</osm>
