<?xml version="1.0" encoding="UTF-8"?>
<<<<<<< HEAD
<osm version="0.6" generator="osmapis">
	<node lat="70.81318890260823" lon="28.003577163531048" id="-35154">
		<tag k="fixme" v="multiple name tags, choose one and add the other to alt_name" />
		<tag k="man_made" v="quay" />
		<tag k="name" v="Sandholmen;Holmestrand" />
		<tag k="place" v="locality" />
		<tag k="ssr:stedsnr" v="268735" />
	</node>
	<node lat="71.02958890111772" lon="27.826613372085216" id="-35159">
=======
<osm generator="osmapis" version="0.6">
	<node id="-913240" lat="70.8131889026" lon="28.0035771635">
		<tag k="fixme" v="multiple name tags, choose one and add the other to alt_name" />
		<tag k="man_made" v="quay" />
		<tag k="name" v="Holmestrand;Sandholmen" />
		<tag k="place" v="locality" />
		<tag k="ssr:stedsnr" v="268735" />
	</node>
	<node id="-913327" lat="71.0295889011" lon="27.8266133721">
>>>>>>> e1d4bc35ff8a6074a6f2e91616a996b547c36f15
		<tag k="aeroway" v="aerodrome" />
		<tag k="fixme" v="multiple name tags, choose one and add the other to alt_name" />
		<tag k="name" v="Mehamn;Mehamn lufthavn" />
		<tag k="ssr:stedsnr" v="269972" />
	</node>
<<<<<<< HEAD
	<node lat="71.06193334962094" lon="28.284857723525825" id="-35581">
=======
	<node id="-913813" lat="71.0619333496" lon="28.2848577235">
>>>>>>> e1d4bc35ff8a6074a6f2e91616a996b547c36f15
		<tag k="man_made" v="cairn" />
		<tag k="name" v="Barden" />
		<tag k="place" v="locality" />
		<tag k="ssr:stedsnr" v="146681" />
	</node>
<<<<<<< HEAD
	<node lat="71.08643612450314" lon="28.146588318245815" id="-35841">
=======
	<node id="-913517" lat="71.0864361245" lon="28.1465883182">
>>>>>>> e1d4bc35ff8a6074a6f2e91616a996b547c36f15
		<tag k="fixme" v="verify maritime location" />
		<tag k="mooring" v="yes" />
		<tag k="name" v="StÃ¸a" />
		<tag k="place" v="locality" />
		<tag k="ssr:stedsnr" v="571867" />
	</node>
</osm>
