<?xml version="1.0" encoding="UTF-8"?>
<osm generator="osmapis" version="0.6">
	<node id="-590720" lat="62.9549472259" lon="7.03907777647">
		<tag k="bridge" v="yes" />
		<tag k="layer" v="1" />
		<tag k="name" v="Nedre Ruggbrua" />
		<tag k="ssr:stedsnr" v="532789" />
	</node>
	<node id="-590719" lat="62.9542666707" lon="7.09277221888">
		<tag k="bridge" v="yes" />
		<tag k="layer" v="1" />
		<tag k="name" v="Søre Hustadbrua" />
		<tag k="ssr:stedsnr" v="532786" />
	</node>
	<node id="-590718" lat="62.8011250016" lon="7.22580832552">
		<tag k="bridge" v="yes" />
		<tag k="layer" v="1" />
		<tag k="name" v="Malmebrua" />
		<tag k="ssr:stedsnr" v="531985" />
	</node>
	<node id="-589693" lat="62.8679972214" lon="7.08523333313">
		<tag k="highway" v="path" />
		<tag k="name" v="Klempavegen" />
		<tag k="ssr:stedsnr" v="884624" />
	</node>
	<node id="-591355" lat="62.8999027816" lon="6.97036110298">
		<tag k="bridge" v="yes" />
		<tag k="layer" v="1" />
		<tag k="name" v="Gulevågbrua" />
		<tag k="ssr:stedsnr" v="774983" />
	</node>
	<node id="-591482" lat="62.9808583345" lon="7.15115832721">
		<tag k="ford" v="yes" />
		<tag k="name" v="Osvadet" />
		<tag k="place" v="locality" />
		<tag k="ssr:stedsnr" v="824967" />
	</node>
	<node id="-591353" lat="62.8534638926" lon="7.205383338">
		<tag k="bridge" v="yes" />
		<tag k="layer" v="1" />
		<tag k="name" v="Myrbostadbrua" />
		<tag k="ssr:stedsnr" v="774963" />
	</node>
	<node id="-591352" lat="62.8415388893" lon="7.23055000805">
		<tag k="bridge" v="yes" />
		<tag k="layer" v="1" />
		<tag k="name" v="Moagangbrua" />
		<tag k="ssr:stedsnr" v="774922" />
	</node>
	<node id="-591351" lat="62.8542361141" lon="7.26055000727">
		<tag k="bridge" v="yes" />
		<tag k="layer" v="1" />
		<tag k="name" v="Sylteseterbrua" />
		<tag k="ssr:stedsnr" v="774921" />
	</node>
	<node id="-591604" lat="62.8025277776" lon="7.23759165784">
		<tag k="layer" v="-1" />
		<tag k="name" v="Einehaugundergangen" />
		<tag k="ssr:stedsnr" v="932642" />
		<tag k="tunnel" v="yes" />
	</node>
	<node id="-589939" lat="62.8498194447" lon="7.1743722197">
		<tag k="bridge" v="yes" />
		<tag k="layer" v="1" />
		<tag k="name" v="Holtbrua" />
		<tag k="ssr:stedsnr" v="46991" />
	</node>
	<node id="-589938" lat="62.8014888908" lon="7.08151945343">
		<tag k="bridge" v="yes" />
		<tag k="layer" v="1" />
		<tag k="name" v="Vallbrua" />
		<tag k="ssr:stedsnr" v="46985" />
	</node>
	<node id="-590595" lat="62.8135527754" lon="7.10149166502">
		<tag k="bridge" v="yes" />
		<tag k="layer" v="1" />
		<tag k="name" v="Aureosbrua" />
		<tag k="ssr:stedsnr" v="470981" />
	</node>
	<node id="-590186" lat="62.8074027756" lon="7.11518888261">
		<tag k="highway" v="path" />
		<tag k="name" v="Trongstien" />
		<tag k="ssr:stedsnr" v="156560" />
	</node>
	<node id="-590176" lat="62.8936583331" lon="6.95473888183">
		<tag k="fixme" v="verify maritime location" />
		<tag k="mooring" v="yes" />
		<tag k="name" v="Gjengstøa" />
		<tag k="place" v="locality" />
		<tag k="ssr:stedsnr" v="156359" />
	</node>
	<node id="-590815" lat="62.9592444459" lon="7.11334721725">
		<tag k="junction" v="yes" />
		<tag k="name" v="Nerlandskiftet" />
		<tag k="place" v="locality" />
		<tag k="ssr:stedsnr" v="580711" />
	</node>
	<node id="-589662" lat="62.9045194453" lon="6.9663444347">
		<tag k="highway" v="path" />
		<tag k="name" v="Langstigen" />
		<tag k="ssr:stedsnr" v="884354" />
	</node>
	<node id="-591196" lat="62.9360444435" lon="6.99362223143">
		<tag k="bridge" v="yes" />
		<tag k="layer" v="1" />
		<tag k="name" v="Sundbrua" />
		<tag k="ssr:stedsnr" v="714782" />
	</node>
	<node id="-591354" lat="62.8781916708" lon="7.14547777692">
		<tag k="bridge" v="yes" />
		<tag k="layer" v="1" />
		<tag k="name" v="Prestelvbrua" />
		<tag k="ssr:stedsnr" v="774966" />
	</node>
	<node id="-590170" lat="62.8903650812" lon="6.82340969304">
		<tag k="man_made" v="cairn" />
		<tag k="name" v="Hammerøyvarden" />
		<tag k="place" v="locality" />
		<tag k="ssr:stedsnr" v="156334" />
	</node>
	<node id="-591193" lat="62.8066472262" lon="7.2465694459">
		<tag k="layer" v="-1" />
		<tag k="name" v="Malmefjordundergangen" />
		<tag k="ssr:stedsnr" v="713954" />
		<tag k="tunnel" v="yes" />
	</node>
	<node id="-591703" lat="62.9579555518" lon="7.11077778163">
		<tag k="bridge" v="yes" />
		<tag k="layer" v="1" />
		<tag k="name" v="Nørdre Hustadbrua" />
		<tag k="ssr:stedsnr" v="957789" />
	</node>
	<node id="-590862" lat="62.8066472262" lon="7.2465694459">
		<tag k="layer" v="-1" />
		<tag k="name" v="Malmefjordundergangen" />
		<tag k="ssr:stedsnr" v="592969" />
		<tag k="tunnel" v="yes" />
	</node>
	<node id="-590371" lat="62.8757861109" lon="7.00302221956">
		<tag k="bridge" v="yes" />
		<tag k="layer" v="1" />
		<tag k="name" v="Stavikbrua" />
		<tag k="ssr:stedsnr" v="228968" />
	</node>
	<node id="-590230" lat="62.8122555533" lon="7.09864165849">
		<tag k="bridge" v="yes" />
		<tag k="layer" v="1" />
		<tag k="name" v="Aurebrua" />
		<tag k="ssr:stedsnr" v="168981" />
	</node>
	<node id="-589638" lat="62.8034888928" lon="7.17131943788">
		<tag k="bridge" v="yes" />
		<tag k="layer" v="1" />
		<tag k="name" v="Holsbrua" />
		<tag k="ssr:stedsnr" v="410972" />
	</node>
	<node id="-589637" lat="62.8414277821" lon="7.03473889842">
		<tag k="bridge" v="yes" />
		<tag k="layer" v="1" />
		<tag k="name" v="Tornesbrua" />
		<tag k="ssr:stedsnr" v="410961" />
	</node>
	<node id="-589636" lat="62.8166638889" lon="7.23923610482">
		<tag k="layer" v="-1" />
		<tag k="name" v="Malmeundergangen" />
		<tag k="ssr:stedsnr" v="410955" />
		<tag k="tunnel" v="yes" />
	</node>
	<node id="-589635" lat="62.841502774" lon="7.23049166456">
		<tag k="bridge" v="yes" />
		<tag k="layer" v="1" />
		<tag k="name" v="Moabrua" />
		<tag k="ssr:stedsnr" v="410916" />
	</node>
	<node id="-591042" lat="62.8661222218" lon="7.14220277704">
		<tag k="bridge" v="yes" />
		<tag k="layer" v="1" />
		<tag k="name" v="Øydgardsbrua" />
		<tag k="ssr:stedsnr" v="652961" />
	</node>
	<node id="-591036" lat="62.9757472266" lon="7.15241666356">
		<tag k="bridge" v="yes" />
		<tag k="layer" v="1" />
		<tag k="name" v="Sjøbrua" />
		<tag k="ssr:stedsnr" v="641959" />
	</node>
	<node id="-589622" lat="62.8559861129" lon="7.07436389848">
		<tag k="name" v="Sjøledet" />
		<tag k="place" v="locality" />
		<tag k="ssr:stedsnr" v="399893" />
	</node>
	<node id="-590857" lat="62.9756250001" lon="7.16796111655">
		<tag k="highway" v="path" />
		<tag k="name" v="Farstadstien" />
		<tag k="ssr:stedsnr" v="581728" />
	</node>
	<node id="-590686" lat="62.9856666683" lon="7.20388887997">
		<tag k="highway" v="path" />
		<tag k="name" v="Riarvegen" />
		<tag k="ssr:stedsnr" v="520687" />
	</node>
	<node id="-589339" lat="62.8954750036" lon="6.97799167205">
		<tag k="bridge" v="yes" />
		<tag k="layer" v="1" />
		<tag k="name" v="Vestadvågbrua" />
		<tag k="ssr:stedsnr" v="289988" />
	</node>
	<node id="-590374" lat="62.7848944419" lon="7.05306388259">
		<tag k="bridge" v="yes" />
		<tag k="layer" v="1" />
		<tag k="name" v="Helsetbrua" />
		<tag k="ssr:stedsnr" v="229976" />
	</node>
	<node id="-591652" lat="62.8657805525" lon="7.08849721623">
		<tag k="highway" v="path" />
		<tag k="name" v="Midtlivegen" />
		<tag k="ssr:stedsnr" v="945629" />
	</node>
	<node id="-591651" lat="62.900291667" lon="7.09263054876">
		<tag k="highway" v="path" />
		<tag k="name" v="Botnavegen" />
		<tag k="ssr:stedsnr" v="945601" />
	</node>
	<node id="-591195" lat="62.9273472267" lon="7.20195833847">
		<tag k="bridge" v="yes" />
		<tag k="layer" v="1" />
		<tag k="name" v="Vassendbrua" />
		<tag k="ssr:stedsnr" v="713968" />
	</node>
	<node id="-589470" lat="62.9736750016" lon="7.16127222602">
		<tag k="bridge" v="yes" />
		<tag k="layer" v="1" />
		<tag k="name" v="Farstadbrua" />
		<tag k="ssr:stedsnr" v="350772" />
	</node>
	<node id="-589469" lat="62.9160916677" lon="7.09935834203">
		<tag k="bridge" v="yes" />
		<tag k="layer" v="1" />
		<tag k="name" v="Gammelseterbrua" />
		<tag k="ssr:stedsnr" v="350759" />
	</node>
	<node id="-591194" lat="62.9057555518" lon="7.20569722871">
		<tag k="bridge" v="yes" />
		<tag k="layer" v="1" />
		<tag k="name" v="Stuttelvbrua" />
		<tag k="ssr:stedsnr" v="713967" />
	</node>
	<node id="-589466" lat="62.8325527755" lon="7.2345138987">
		<tag k="bridge" v="yes" />
		<tag k="layer" v="1" />
		<tag k="name" v="Syltegangbrua" />
		<tag k="ssr:stedsnr" v="349942" />
	</node>
	<node id="-589467" lat="62.9739583358" lon="7.2601916654">
		<tag k="bridge" v="yes" />
		<tag k="layer" v="1" />
		<tag k="name" v="Malmedalsbrua" />
		<tag k="ssr:stedsnr" v="349949" />
	</node>
	<node id="-589336" lat="62.8324916651" lon="7.234713898">
		<tag k="bridge" v="yes" />
		<tag k="layer" v="1" />
		<tag k="name" v="Syltebrua" />
		<tag k="ssr:stedsnr" v="288909" />
	</node>
	<node id="-591684" lat="62.8375694418" lon="7.04522223073">
		<tag k="highway" v="path" />
		<tag k="name" v="Hygotå" />
		<tag k="ssr:stedsnr" v="945931" />
	</node>
	<node id="-589462" lat="62.9580388902" lon="7.09680277968">
		<tag k="ford" v="yes" />
		<tag k="name" v="Risvaet" />
		<tag k="place" v="locality" />
		<tag k="ssr:stedsnr" v="338974" />
	</node>
	<node id="-589461" lat="62.9618805585" lon="7.06946944416">
		<tag k="highway" v="path" />
		<tag k="name" v="Råket" />
		<tag k="ssr:stedsnr" v="338971" />
	</node>
	<node id="-589338" lat="62.8809138892" lon="7.14502778643">
		<tag k="bridge" v="yes" />
		<tag k="layer" v="1" />
		<tag k="name" v="Hanselvbrua" />
		<tag k="ssr:stedsnr" v="289980" />
	</node>
	<node id="-591043" lat="62.8535055529" lon="7.20556112018">
		<tag k="bridge" v="yes" />
		<tag k="layer" v="1" />
		<tag k="name" v="Myrbostadgangbrua" />
		<tag k="ssr:stedsnr" v="652976" />
	</node>
	<node id="-590992" lat="62.8676972223" lon="7.08736389381">
		<tag k="highway" v="path" />
		<tag k="name" v="Tjukktollvegen" />
		<tag k="ssr:stedsnr" v="641634" />
	</node>
	<node id="-591128" lat="62.8605166622" lon="7.05410555418">
		<tag k="highway" v="path" />
		<tag k="name" v="Kongsstigen" />
		<tag k="ssr:stedsnr" v="702426" />
	</node>
	<node id="-591118" lat="62.9047694482" lon="6.90708611825">
		<tag k="landuse" v="harbour" />
		<tag k="name" v="Bud hamn" />
		<tag k="seamark:type" v="harbour" />
		<tag k="ssr:stedsnr" v="702330" />
	</node>
	<node id="-590859" lat="62.9042194472" lon="7.08640277851">
		<tag k="bridge" v="yes" />
		<tag k="layer" v="1" />
		<tag k="name" v="Dalabrua" />
		<tag k="ssr:stedsnr" v="592824" />
	</node>
	<node id="-590103" lat="62.8351333302" lon="7.20735554683">
		<tag k="bridge" v="yes" />
		<tag k="layer" v="1" />
		<tag k="name" v="Syltegjerdbrua" />
		<tag k="ssr:stedsnr" v="106993" />
	</node>
	<node id="-590851" lat="62.8996166636" lon="7.0989055519">
		<tag k="highway" v="path" />
		<tag k="name" v="Kolmilvegen" />
		<tag k="ssr:stedsnr" v="581649" />
	</node>
	<node id="-590594" lat="62.8599444453" lon="7.07465000479">
		<tag k="bridge" v="yes" />
		<tag k="layer" v="1" />
		<tag k="name" v="Åsbrua" />
		<tag k="ssr:stedsnr" v="470789" />
	</node>
</osm>
