<?xml version="1.0" encoding="UTF-8"?>
<osm generator="osmapis" version="0.6">
	<node id="-590326" lat="62.8140277782" lon="7.39035832697">
		<tag k="historic" v="shieling" />
		<tag k="loc_name" v="Gunnillsetra" />
		<tag k="name" v="Gunnhildsetra" />
		<tag k="place" v="locality" />
		<tag k="ssr:stedsnr" v="338813" />
	</node>
	<node id="-591849" lat="62.8432777739" lon="7.00939722034">
		<tag k="name" v="Vardhaugmyra" />
		<tag k="natural" v="wetland" />
		<tag k="ssr:stedsnr" v="641398" />
	</node>
	<node id="-590588" lat="62.9527472191" lon="7.2014027827">
		<tag k="name" v="Orsteinen" />
		<tag k="natural" v="stone" />
		<tag k="ssr:stedsnr" v="884745" />
	</node>
	<node id="-590819" lat="62.9065083326" lon="7.22478889392">
		<tag k="historic" v="shieling" />
		<tag k="name" v="Stølen" />
		<tag k="place" v="locality" />
		<tag k="ssr:stedsnr" v="35950" />
	</node>
	<node id="-590809" lat="62.8725611131" lon="7.26557221465">
		<tag k="name" v="Haugasletta" />
		<tag k="natural" v="wetland" />
		<tag k="ssr:stedsnr" v="35880" />
	</node>
	<node id="-592343" lat="62.8294416692" lon="7.26938888861">
		<tag k="name" v="Dikeskarmyra" />
		<tag k="natural" v="wetland" />
		<tag k="ssr:stedsnr" v="824786" />
	</node>
	<node id="-592339" lat="62.9584138901" lon="7.16379444479">
		<tag k="name" v="Farstad Ny Jord" />
		<tag k="natural" v="wetland" />
		<tag k="ssr:stedsnr" v="824743" />
	</node>
	<node id="-592338" lat="62.9531861114" lon="7.13245278443">
		<tag k="name" v="Nerlands Ny Jord" />
		<tag k="natural" v="wetland" />
		<tag k="ssr:stedsnr" v="824740" />
	</node>
	<node id="-591823" lat="62.9772666674" lon="7.2646944437">
		<tag k="name" v="Svinmyra" />
		<tag k="natural" v="wetland" />
		<tag k="ssr:stedsnr" v="640942" />
	</node>
	<node id="-590798" lat="62.7994944448" lon="7.30304999133">
		<tag k="name" v="Hjellbakkmyra" />
		<tag k="natural" v="wetland" />
		<tag k="ssr:stedsnr" v="35826" />
	</node>
	<node id="-591821" lat="62.8526694401" lon="7.08595555621">
		<tag k="name" v="Borgarsteinen" />
		<tag k="natural" v="stone" />
		<tag k="ssr:stedsnr" v="640690" />
	</node>
	<node id="-592330" lat="62.9835500038" lon="7.15416110631">
		<tag k="name" v="Storsteinen" />
		<tag k="natural" v="stone" />
		<tag k="ssr:stedsnr" v="824710" />
	</node>
	<node id="-592328" lat="62.9191277739" lon="7.20089167312">
		<tag k="name" v="Demme-Lars-steinen" />
		<tag k="natural" v="stone" />
		<tag k="ssr:stedsnr" v="824685" />
	</node>
	<node id="-591815" lat="62.7734611145" lon="7.07710000891">
		<tag k="name" v="Dølmeskarmyra" />
		<tag k="natural" v="wetland" />
		<tag k="ssr:stedsnr" v="638878" />
	</node>
	<node id="-590786" lat="62.939933335" lon="7.12500000456">
		<tag k="name" v="Frimannsfeltet" />
		<tag k="natural" v="wetland" />
		<tag k="ssr:stedsnr" v="35668" />
	</node>
	<node id="-592544" lat="62.7973138864" lon="7.04051665878">
		<tag k="name" v="Fonna" />
		<tag k="place" v="locality" />
		<tag k="ssr:stedsnr" v="945821" />
	</node>
	<node id="-592310" lat="62.8492138922" lon="7.03103887899">
		<tag k="name" v="Hjellmyra" />
		<tag k="natural" v="wetland" />
		<tag k="ssr:stedsnr" v="824457" />
	</node>
	<node id="-591790" lat="62.8389222199" lon="7.27617776845">
		<tag k="name" v="Skarsetermyran" />
		<tag k="natural" v="wetland" />
		<tag k="ssr:stedsnr" v="618646" />
	</node>
	<node id="-591785" lat="62.912236109" lon="7.26369999593">
		<tag k="name" v="Stormyra" />
		<tag k="natural" v="wetland" />
		<tag k="ssr:stedsnr" v="618533" />
	</node>
	<node id="-592275" lat="62.7998277754" lon="7.35815278124">
		<tag k="name" v="Berrmyran" />
		<tag k="natural" v="wetland" />
		<tag k="ssr:stedsnr" v="801755" />
	</node>
	<node id="-590735" lat="62.776005552" lon="7.10938610922">
		<tag k="name" v="Myrane" />
		<tag k="natural" v="wetland" />
		<tag k="ssr:stedsnr" v="32885" />
	</node>
	<node id="-591242" lat="62.8719861095" lon="7.09849167347">
		<tag k="name" v="Langmyra" />
		<tag k="natural" v="wetland" />
		<tag k="ssr:stedsnr" v="217890" />
	</node>
	<node id="-591238" lat="62.8623111137" lon="7.26216944179">
		<tag k="name" v="Auspavollen" />
		<tag k="natural" v="wetland" />
		<tag k="ssr:stedsnr" v="217832" />
	</node>
	<node id="-591234" lat="62.7987555534" lon="7.05059167483">
		<tag k="name" v="Fonnin" />
		<tag k="place" v="locality" />
		<tag k="ssr:stedsnr" v="217811" />
	</node>
	<node id="-591737" lat="62.9880527815" lon="7.18886388042">
		<tag k="name" v="Skottenora" />
		<tag k="natural" v="scree" />
		<tag k="old_name" v="Skotten ora" />
		<tag k="ssr:stedsnr" v="581686" />
	</node>
	<node id="-590199" lat="62.9401222248" lon="7.00707777411">
		<tag k="name" v="Dalsmyra" />
		<tag k="natural" v="wetland" />
		<tag k="ssr:stedsnr" v="277933" />
	</node>
	<node id="-591727" lat="62.8592499994" lon="7.20835000529">
		<tag k="name" v="Bøen" />
		<tag k="place" v="locality" />
		<tag k="ssr:stedsnr" v="580994" />
	</node>
	<node id="-590141" lat="62.8487416657" lon="7.050905553">
		<tag k="name" v="Henrikmyra" />
		<tag k="natural" v="wetland" />
		<tag k="ssr:stedsnr" v="277418" />
	</node>
	<node id="-590186" lat="62.880272223" lon="7.23530277427">
		<tag k="name" v="Skabakkøyan" />
		<tag k="natural" v="wetland" />
		<tag k="ssr:stedsnr" v="277810" />
	</node>
	<node id="-591916" lat="62.9900111129" lon="7.17885555143">
		<tag k="name" v="Løken" />
		<tag k="natural" v="wetland" />
		<tag k="ssr:stedsnr" v="641957" />
	</node>
	<node id="-592219" lat="62.9865666638" lon="7.18496944278">
		<tag k="name" v="Vetin" />
		<tag k="natural" v="stone" />
		<tag k="ssr:stedsnr" v="763961" />
	</node>
	<node id="-592218" lat="62.8205750031" lon="7.23846667467">
		<tag k="name" v="Holamyra" />
		<tag k="natural" v="wetland" />
		<tag k="ssr:stedsnr" v="763945" />
	</node>
	<node id="-590167" lat="62.8899416642" lon="7.07245278553">
		<tag k="name" v="Svartgjølsteinen" />
		<tag k="natural" v="stone" />
		<tag k="ssr:stedsnr" v="277636" />
	</node>
	<node id="-592214" lat="62.8998500012" lon="7.15462778741">
		<tag k="name" v="Skarmyra" />
		<tag k="natural" v="wetland" />
		<tag k="ssr:stedsnr" v="763890" />
	</node>
	<node id="-592212" lat="62.7906916695" lon="7.15046388601">
		<tag k="name" v="Råmyrane" />
		<tag k="natural" v="wetland" />
		<tag k="ssr:stedsnr" v="763880" />
	</node>
	<node id="-591694" lat="62.8912444449" lon="7.20378333506">
		<tag k="name" v="Nedbrøtfonna" />
		<tag k="place" v="locality" />
		<tag k="ssr:stedsnr" v="580668" />
	</node>
	<node id="-591690" lat="62.9500250019" lon="7.0876944503">
		<tag k="name" v="Tepphaugkilen" />
		<tag k="place" v="locality" />
		<tag k="ssr:stedsnr" v="580570" />
	</node>
	<node id="-591177" lat="62.8791749969" lon="7.13994722671">
		<tag k="name" v="Prestelvmyra" />
		<tag k="natural" v="wetland" />
		<tag k="ssr:stedsnr" v="216637" />
	</node>
	<node id="-592198" lat="62.9538277787" lon="7.09952499961">
		<tag k="name" v="Hundesteinen" />
		<tag k="natural" v="stone" />
		<tag k="ssr:stedsnr" v="763721" />
	</node>
	<node id="-592193" lat="62.8467138861" lon="7.19504721351">
		<tag k="name" v="Elnesmyrane" />
		<tag k="natural" v="wetland" />
		<tag k="ssr:stedsnr" v="763691" />
	</node>
	<node id="-592189" lat="62.9004444457" lon="7.0925611023">
		<tag k="name" v="Merralortsteinen" />
		<tag k="natural" v="stone" />
		<tag k="ssr:stedsnr" v="763653" />
	</node>
	<node id="-590730" lat="62.9116666627" lon="7.00086665726">
		<tag k="name" v="Hustadmyran" />
		<tag k="natural" v="wetland" />
		<tag k="ssr:stedsnr" v="20124" />
	</node>
	<node id="-591672" lat="62.7702611078" lon="7.05534444729">
		<tag k="alt_name" v="Hammarvåtå" />
		<tag k="name" v="Hammarvåta" />
		<tag k="natural" v="wetland" />
		<tag k="ssr:stedsnr" v="580391" />
	</node>
	<node id="-591648" lat="62.9007499961" lon="7.04509166818">
		<tag k="name" v="Vestadmyran" />
		<tag k="natural" v="wetland" />
		<tag k="ssr:stedsnr" v="566447" />
	</node>
	<node id="-592159" lat="62.8141055536" lon="7.03210000903">
		<tag k="name" v="Stordikene" />
		<tag k="natural" v="wetland" />
		<tag k="ssr:stedsnr" v="763437" />
	</node>
	<node id="-592154" lat="62.9017999955" lon="6.93194999603">
		<tag k="name" v="Nesavollen" />
		<tag k="place" v="locality" />
		<tag k="ssr:stedsnr" v="763391" />
	</node>
	<node id="-590616" lat="62.9345305597" lon="7.13661388336">
		<tag k="name" v="Kvilaren" />
		<tag k="natural" v="stone" />
		<tag k="ssr:stedsnr" v="884970" />
	</node>
	<node id="-591121" lat="62.8076138924" lon="7.21813332937">
		<tag k="name" v="Malmeøyra" />
		<tag k="place" v="locality" />
		<tag k="ssr:stedsnr" v="171028" />
	</node>
	<node id="-592143" lat="62.8526999966" lon="7.06008333309">
		<tag k="name" v="Grisholmyra" />
		<tag k="natural" v="wetland" />
		<tag k="ssr:stedsnr" v="762652" />
	</node>
	<node id="-592142" lat="62.9739305595" lon="7.26422221911">
		<tag k="name" v="Stormyra" />
		<tag k="natural" v="wetland" />
		<tag k="ssr:stedsnr" v="762948" />
	</node>
	<node id="-591111" lat="62.9753416657" lon="7.16856112008">
		<tag k="name" v="Purka" />
		<tag k="natural" v="stone" />
		<tag k="ssr:stedsnr" v="156994" />
	</node>
	<node id="-591100" lat="62.9071527778" lon="7.07244721709">
		<tag k="name" v="Ljøsmyra" />
		<tag k="natural" v="wetland" />
		<tag k="ssr:stedsnr" v="156893" />
	</node>
	<node id="-591095" lat="62.7945861119" lon="7.05309722772">
		<tag k="name" v="Lægdin" />
		<tag k="place" v="locality" />
		<tag k="ssr:stedsnr" v="156836" />
	</node>
	<node id="-591598" lat="62.8984583371" lon="7.09092777014">
		<tag k="name" v="Skreda" />
		<tag k="place" v="locality" />
		<tag k="ssr:stedsnr" v="520985" />
	</node>
	<node id="-590571" lat="62.8774694471" lon="7.08205833981">
		<tag k="name" v="Depelmyra" />
		<tag k="natural" v="wetland" />
		<tag k="ssr:stedsnr" v="884621" />
	</node>
	<node id="-591082" lat="62.9528333358" lon="7.10255277187">
		<tag k="name" v="Kløvsteinen" />
		<tag k="natural" v="stone" />
		<tag k="ssr:stedsnr" v="156704" />
	</node>
	<node id="-590568" lat="62.8187138932" lon="7.058072223">
		<tag k="name" v="Rødhaugmyra" />
		<tag k="natural" v="wetland" />
		<tag k="ssr:stedsnr" v="884553" />
	</node>
	<node id="-591079" lat="62.8920777794" lon="7.20513611649">
		<tag k="name" v="Storfonna" />
		<tag k="place" v="locality" />
		<tag k="ssr:stedsnr" v="156672" />
	</node>
	<node id="-591076" lat="62.8732638913" lon="7.10690555056">
		<tag k="name" v="Gjerdhaugmyra" />
		<tag k="natural" v="wetland" />
		<tag k="ssr:stedsnr" v="156644" />
	</node>
	<node id="-590201" lat="62.8830888849" lon="7.03941110536">
		<tag k="name" v="Langmyra" />
		<tag k="natural" v="wetland" />
		<tag k="ssr:stedsnr" v="277939" />
	</node>
	<node id="-591571" lat="62.8934472249" lon="7.20634166833">
		<tag k="name" v="Regnfonna" />
		<tag k="place" v="locality" />
		<tag k="ssr:stedsnr" v="520699" />
	</node>
	<node id="-590545" lat="62.7952583323" lon="7.04588055508">
		<tag k="name" v="Øvre Voll" />
		<tag k="place" v="locality" />
		<tag k="ssr:stedsnr" v="884388" />
	</node>
	<node id="-590532" lat="62.7690861117" lon="7.0841527686">
		<tag k="name" v="Stormyra" />
		<tag k="natural" v="wetland" />
		<tag k="ssr:stedsnr" v="881870" />
	</node>
	<node id="-590527" lat="62.8438222234" lon="7.00518332691">
		<tag k="name" v="Sør Levran" />
		<tag k="place" v="locality" />
		<tag k="ssr:stedsnr" v="475045" />
	</node>
	<node id="-592564" lat="62.8463500026" lon="7.2343111168">
		<tag k="name" v="Djupøyna" />
		<tag k="natural" v="wetland" />
		<tag k="ssr:stedsnr" v="945955" />
	</node>
	<node id="-590509" lat="62.9616833303" lon="7.16086665869">
		<tag k="name" v="Einløken" />
		<tag k="place" v="locality" />
		<tag k="ssr:stedsnr" v="399982" />
	</node>
	<node id="-592556" lat="62.9060222197" lon="6.93009721524">
		<tag k="name" v="Korsmyra" />
		<tag k="natural" v="wetland" />
		<tag k="ssr:stedsnr" v="945921" />
	</node>
	<node id="-591530" lat="62.7744611151" lon="7.0877694436">
		<tag k="name" v="Løkan" />
		<tag k="natural" v="wetland" />
		<tag k="ssr:stedsnr" v="517900" />
	</node>
	<node id="-592032" lat="62.9406083339" lon="7.14724722603">
		<tag k="name" v="Nerlands Ny Jord" />
		<tag k="natural" v="wetland" />
		<tag k="ssr:stedsnr" v="702591" />
	</node>
	<node id="-591004" lat="62.9196416658" lon="7.24400000522">
		<tag k="name" v="Kolmannskogen" />
		<tag k="place" v="locality" />
		<tag k="ssr:stedsnr" v="132551" />
	</node>
	<node id="-592528" lat="62.8701749971" lon="7.06998333214">
		<tag k="name" v="Høglimyra" />
		<tag k="natural" v="wetland" />
		<tag k="ssr:stedsnr" v="945633" />
	</node>
	<node id="-592522" lat="62.8083638931" lon="7.13830555306">
		<tag k="name" v="Råhaugmyra" />
		<tag k="natural" v="wetland" />
		<tag k="ssr:stedsnr" v="945557" />
	</node>
	<node id="-590969" lat="62.8725694488" lon="7.26203333311">
		<tag k="name" v="Nergardsletta" />
		<tag k="natural" v="wetland" />
		<tag k="ssr:stedsnr" v="95858" />
	</node>
	<node id="-590967" lat="62.7987583366" lon="7.30981389223">
		<tag k="name" v="Bruaskarmyra" />
		<tag k="natural" v="wetland" />
		<tag k="ssr:stedsnr" v="95807" />
	</node>
	<node id="-591989" lat="62.7738805521" lon="7.06150555514">
		<tag k="name" v="Vassmyra" />
		<tag k="natural" v="wetland" />
		<tag k="ssr:stedsnr" v="699885" />
	</node>
	<node id="-591983" lat="62.8063638865" lon="7.30591944432">
		<tag k="historic" v="shieling" />
		<tag k="name" v="Malmedalssetra" />
		<tag k="place" v="locality" />
		<tag k="ssr:stedsnr" v="702731" />
	</node>
	<node id="-591982" lat="62.969305558" lon="7.23236111643">
		<tag k="name" v="Kyrhaugmyrane" />
		<tag k="natural" v="wetland" />
		<tag k="ssr:stedsnr" v="702717" />
	</node>
	<node id="-592488" lat="62.885666668" lon="7.09742221277">
		<tag k="name" v="Pålslættet" />
		<tag k="place" v="locality" />
		<tag k="ssr:stedsnr" v="944684" />
	</node>
	<node id="-590951" lat="62.9572472197" lon="7.08190833699">
		<tag k="name" v="Knipamyra" />
		<tag k="natural" v="wetland" />
		<tag k="ssr:stedsnr" v="95682" />
	</node>
	<node id="-590942" lat="62.8176694468" lon="7.14149722746">
		<tag k="name" v="Småmyrane" />
		<tag k="natural" v="wetland" />
		<tag k="ssr:stedsnr" v="95556" />
	</node>
	<node id="-591452" lat="62.9381083353" lon="7.18048889206">
		<tag k="name" v="Farstad Ny Jord" />
		<tag k="natural" v="wetland" />
		<tag k="ssr:stedsnr" v="460644" />
	</node>
	<node id="-592470" lat="62.9156861111" lon="7.02438056487">
		<tag k="name" v="Gulmyran" />
		<tag k="natural" v="wetland" />
		<tag k="ssr:stedsnr" v="923094" />
	</node>
	<node id="-590927" lat="62.8775166706" lon="7.09132500547">
		<tag k="name" v="Grønlimyra" />
		<tag k="natural" v="wetland" />
		<tag k="ssr:stedsnr" v="95606" />
	</node>
	<node id="-591436" lat="62.862922225" lon="7.26146388921">
		<tag k="name" v="Vølkøyna" />
		<tag k="natural" v="wetland" />
		<tag k="ssr:stedsnr" v="459967" />
	</node>
	<node id="-590918" lat="62.8448916628" lon="7.01394723153">
		<tag k="name" v="Våthaugmyra" />
		<tag k="natural" v="wetland" />
		<tag k="ssr:stedsnr" v="95397" />
	</node>
	<node id="-590915" lat="62.7866777815" lon="7.03240555686">
		<tag k="name" v="Gaddemyra" />
		<tag k="natural" v="wetland" />
		<tag k="ssr:stedsnr" v="95378" />
	</node>
	<node id="-591922" lat="62.9790472212" lon="7.1717833321">
		<tag k="name" v="Stor-ora" />
		<tag k="natural" v="scree" />
		<tag k="ssr:stedsnr" v="641997" />
	</node>
	<node id="-590892" lat="62.8892194465" lon="7.04163055255">
		<tag k="name" v="Stavikmyran" />
		<tag k="natural" v="wetland" />
		<tag k="ssr:stedsnr" v="81495" />
	</node>
	<node id="-592421" lat="62.9756555512" lon="7.24695276993">
		<tag k="name" v="Sandblåstmyran" />
		<tag k="natural" v="wetland" />
		<tag k="ssr:stedsnr" v="862925" />
	</node>
	<node id="-590171" lat="62.9888916625" lon="7.19940555335">
		<tag k="name" v="Kleivteigane" />
		<tag k="place" v="locality" />
		<tag k="ssr:stedsnr" v="277676" />
	</node>
	<node id="-591194" lat="62.7950027773" lon="7.04993332894">
		<tag k="name" v="Nedre Voll" />
		<tag k="place" v="locality" />
		<tag k="ssr:stedsnr" v="217422" />
	</node>
	<node id="-591894" lat="62.8666694478" lon="7.24596666144">
		<tag k="name" v="Varholmyrane" />
		<tag k="natural" v="wetland" />
		<tag k="ssr:stedsnr" v="641786" />
	</node>
	<node id="-590353" lat="62.8059249986" lon="7.20948611959">
		<tag k="name" v="Malmerøysan" />
		<tag k="natural" v="scree" />
		<tag k="ssr:stedsnr" v="353010" />
	</node>
	<node id="-591876" lat="62.8894611092" lon="7.19967222232">
		<tag k="name" v="Ragnhildfonna" />
		<tag k="place" v="locality" />
		<tag k="ssr:stedsnr" v="641658" />
	</node>
</osm>
